<?xml version="1.0" encoding="UTF-8" standalone="yes"?>
<!DOCTYPE earthquake SYSTEM "stationlist.dtd">
<stationlist created="" xmlns="ch.ethz.sed.shakemap.usgs.xml">
  <station code="BNN" name="BNN" netid="KO" insttype="CMG-3T" lat="38.8521" lon="35.8472">
    <comp name="--.HHE">
      <acc value="0.0307936907" flag="0"/>
      <vel value="0.0289120058" flag="0"/>
      <psa03 value="0.0751028695" flag="0"/>
      <psa10 value="0.0588655260" flag="0"/>
      <psa30 value="0.0038882106" flag="0"/>
    </comp>
    <comp name="--.HHZ">
      <acc value="0.0179511456" flag="0"/>
      <vel value="0.0179427771" flag="0"/>
      <psa03 value="0.0584060504" flag="0"/>
      <psa10 value="0.0462207928" flag="0"/>
      <psa30 value="0.0033551214" flag="0"/>
    </comp>
  </station>
  <station code="CEYT" name="CEYT" netid="KO" insttype="CMG-3ESP" lat="37.0105" lon="35.7478">
    <comp name="--.HHN">
      <acc value="0.0667961169" flag="0"/>
      <vel value="0.0535794724" flag="0"/>
      <psa03 value="0.1800850949" flag="0"/>
      <psa10 value="0.0734329596" flag="0"/>
      <psa30 value="0.0075618981" flag="0"/>
    </comp>
    <comp name="--.HHZ">
      <acc value="0.0766287464" flag="0"/>
      <vel value="0.0679898297" flag="0"/>
      <psa03 value="0.2137555043" flag="0"/>
      <psa10 value="0.1251609987" flag="0"/>
      <psa30 value="0.0124436702" flag="0"/>
    </comp>
    <comp name="--.HHE">
      <acc value="0.0902920161" flag="0"/>
      <vel value="0.0624080067" flag="0"/>
      <psa03 value="0.2578554402" flag="0"/>
      <psa10 value="0.1004119174" flag="0"/>
      <psa30 value="0.0119059563" flag="0"/>
    </comp>
  </station>
  <station code="CMRD" name="CMRD" netid="KO" insttype="CMG-5T" lat="37.6623" lon="34.9902">
    <comp name="--.HNE">
      <acc value="0.0577585353" flag="0"/>
      <vel value="0.0206054940" flag="0"/>
      <psa03 value="0.0864311808" flag="0"/>
      <psa10 value="0.0202140162" flag="0"/>
      <psa30 value="0.0021712531" flag="0"/>
    </comp>
    <comp name="--.HNN">
      <acc value="0.0713678567" flag="0"/>
      <vel value="0.0328963746" flag="0"/>
      <psa03 value="0.1073519415" flag="0"/>
      <psa10 value="0.0400460812" flag="0"/>
      <psa30 value="0.0030898147" flag="0"/>
    </comp>
    <comp name="--.HNZ">
      <acc value="0.0714290058" flag="0"/>
      <vel value="0.0225933888" flag="0"/>
      <psa03 value="0.0879592538" flag="0"/>
      <psa10 value="0.0246321686" flag="0"/>
      <psa30 value="0.0033098568" flag="0"/>
    </comp>
  </station>
  <station code="GAZ" name="GAZ" netid="KO" insttype="CMG-3T" lat="37.1721" lon="37.2096">
    <comp name="--.HHE">
      <acc value="0.0327523895" flag="0"/>
      <vel value="0.0348799513" flag="0"/>
      <psa03 value="0.0872820279" flag="0"/>
      <psa10 value="0.0383200174" flag="0"/>
      <psa30 value="0.0037106749" flag="0"/>
    </comp>
    <comp name="--.HHN">
      <acc value="0.0360155692" flag="0"/>
      <vel value="0.0287560334" flag="0"/>
      <psa03 value="0.0817199425" flag="0"/>
      <psa10 value="0.0416845899" flag="0"/>
      <psa30 value="0.0038022530" flag="0"/>
    </comp>
    <comp name="--.HHZ">
      <acc value="0.0225173657" flag="0"/>
      <vel value="0.0130549606" flag="0"/>
      <psa03 value="0.0821504445" flag="0"/>
      <psa10 value="0.0139729233" flag="0"/>
      <psa30 value="0.0030939784" flag="0"/>
    </comp>
  </station>
  <station code="KMRS" name="KMRS" netid="KO" insttype="CMG-3T" lat="37.5087" lon="36.9">
    <comp name="--.HHZ">
      <acc value="0.0379572954" flag="0"/>
      <vel value="0.0230582527" flag="0"/>
      <psa03 value="0.1057485018" flag="0"/>
      <psa10 value="0.0322565198" flag="0"/>
      <psa30 value="0.0029681555" flag="0"/>
    </comp>
    <comp name="--.HHE">
      <acc value="0.0432043100" flag="0"/>
      <vel value="0.0375115867" flag="0"/>
      <psa03 value="0.1264340281" flag="0"/>
      <psa10 value="0.0429842719" flag="0"/>
      <psa30 value="0.0045385531" flag="0"/>
    </comp>
    <comp name="--.HHN">
      <acc value="0.0439941886" flag="0"/>
      <vel value="0.0456379367" flag="0"/>
      <psa03 value="0.1151468682" flag="0"/>
      <psa10 value="0.0553020553" flag="0"/>
      <psa30 value="0.0053594216" flag="0"/>
    </comp>
  </station>
  <station code="SARI" name="SARI" netid="KO" insttype="CMG-3T" lat="38.4072" lon="36.4181">
    <comp name="--.HHZ">
      <acc value="0.0686951714" flag="0"/>
      <vel value="0.0493852798" flag="0"/>
      <psa03 value="0.1289571586" flag="0"/>
      <psa10 value="0.1231780624" flag="0"/>
      <psa30 value="0.0052033967" flag="0"/>
    </comp>
    <comp name="--.HHN">
      <acc value="0.1227193634" flag="0"/>
      <vel value="0.0433434390" flag="0"/>
      <psa03 value="0.2520808403" flag="0"/>
      <psa10 value="0.0804351361" flag="0"/>
      <psa30 value="0.0058139609" flag="0"/>
    </comp>
    <comp name="--.HHE">
      <acc value="0.0932251047" flag="0"/>
      <vel value="0.0699605609" flag="0"/>
      <psa03 value="0.2311078053" flag="0"/>
      <psa10 value="0.1393055712" flag="0"/>
      <psa30 value="0.0078101080" flag="0"/>
    </comp>
  </station>
  <station code="TAHT" name="TAHT" netid="KO" insttype="CMG-3ESPC" lat="36.3755" lon="36.1855">
    <comp name="--.HHN">
      <acc value="0.0289283942" flag="0"/>
      <vel value="0.0231287604" flag="0"/>
      <psa03 value="0.0700569956" flag="0"/>
      <psa10 value="0.0326447618" flag="0"/>
      <psa30 value="0.0021355121" flag="0"/>
    </comp>
    <comp name="--.HHZ">
      <acc value="0.0259976605" flag="0"/>
      <vel value="0.0163831710" flag="0"/>
      <psa03 value="0.0461606365" flag="0"/>
      <psa10 value="0.0279781603" flag="0"/>
      <psa30 value="0.0029469277" flag="0"/>
    </comp>
    <comp name="--.HHE">
      <acc value="0.0338354765" flag="0"/>
      <vel value="0.0193553744" flag="0"/>
      <psa03 value="0.0958016527" flag="0"/>
      <psa10 value="0.0226405633" flag="0"/>
      <psa30 value="0.0034458790" flag="0"/>
    </comp>
  </station>
  <station code="ANDN" name="ANDN" netid="TU" insttype="T" lat="37.58" lon="36.3452">
    <comp name="--.HHE">
      <acc value="0.5743113367" flag="0"/>
      <vel value="0.2813312782" flag="0"/>
      <psa03 value="1.0661231337" flag="0"/>
      <psa10 value="0.3612390617" flag="0"/>
      <psa30 value="0.0303054512" flag="0"/>
    </comp>
    <comp name="--.HHN">
      <acc value="1.2693154145" flag="0"/>
      <vel value="0.5664200267" flag="0"/>
      <psa03 value="3.1610993598" flag="0"/>
      <psa10 value="0.5207845081" flag="0"/>
      <psa30 value="0.0403143369" flag="0"/>
    </comp>
    <comp name="--.HHZ">
      <acc value="0.3757921635" flag="0"/>
      <vel value="0.2522758305" flag="0"/>
      <psa03 value="1.0666597114" flag="0"/>
      <psa10 value="0.3336645215" flag="0"/>
      <psa30 value="0.0298675577" flag="0"/>
    </comp>
  </station>
</stationlist>
