<stationlist created="1778136267">
	<station code="S2114" name="S2114" netid="S2" source="IceSMN Icelandic Strong Motion Network (IceSMN)" insttype="" lat="63.7515" lon="-20.2168">
		<comp name="00.HN1" depth="0.0">
			<acc value="0.207088395990394" flag="0"/>
			<vel value="0.165463162768546" flag="0"/>
			<psa03 value="0.316502195883863" flag="0"/>
			<psa10 value="0.248824183380816" flag="0"/>
			<psa30 value="0.0227007854822806" flag="0"/>
		</comp>
		<comp name="00.HN2" depth="0.0">
			<acc value="0.133051968038247" flag="0"/>
			<vel value="0.083252101279969" flag="0"/>
			<psa03 value="0.305149297976664" flag="0"/>
			<psa10 value="0.0760879504532298" flag="0"/>
			<psa30 value="0.014014411719333" flag="0"/>
		</comp>
		<comp name="00.HNZ" depth="0.0">
			<acc value="0.0572321965987804" flag="0"/>
			<vel value="0.0413326764830202" flag="0"/>
			<psa03 value="0.11611894230988" flag="0"/>
			<psa10 value="0.0707389486081474" flag="0"/>
			<psa30 value="0.0200020483708584" flag="0"/>
		</comp>
	</station>
	<station code="S2119" name="S2119" netid="S2" source="IceSMN Icelandic Strong Motion Network (IceSMN)" insttype="" lat="64.1301" lon="-20.32">
		<comp name="00.HN1" depth="0.0">
			<acc value="0.0885585193871893" flag="0"/>
			<vel value="0.0613563818351863" flag="0"/>
			<psa03 value="0.308102931140581" flag="0"/>
			<psa10 value="0.0385143951396575" flag="0"/>
			<psa30 value="0.0297901167823608" flag="0"/>
		</comp>
		<comp name="00.HN2" depth="0.0">
			<acc value="0.0664178621371542" flag="0"/>
			<vel value="0.0556851554006925" flag="0"/>
			<psa03 value="0.210242240016603" flag="0"/>
			<psa10 value="0.0498268357834466" flag="0"/>
			<psa30 value="0.0144474320714778" flag="0"/>
		</comp>
		<comp name="00.HNZ" depth="0.0">
			<acc value="0.0417475823529387" flag="0"/>
			<vel value="0.0301836890403251" flag="0"/>
			<psa03 value="0.0930704883799206" flag="0"/>
			<psa10 value="0.0328504586816562" flag="0"/>
			<psa30 value="0.014235359689401" flag="0"/>
		</comp>
	</station>
	<station code="S2405" name="S2405" netid="S2" source="IceSMN Icelandic Strong Motion Network (IceSMN)" insttype="" lat="64.0447" lon="-21.9848">
		<comp name="00.HN1" depth="0.0">
			<acc value="1.03984056062697" flag="0"/>
			<vel value="0.727159405463626" flag="0"/>
			<psa03 value="2.60047243520155" flag="0"/>
			<psa10 value="1.10295178514112" flag="0"/>
			<psa30 value="0.0833235331086177" flag="0"/>
		</comp>
		<comp name="00.HN2" depth="0.0">
			<acc value="2.26236039032618" flag="0"/>
			<vel value="1.02107864170344" flag="0"/>
			<psa03 value="5.15437645216153" flag="0"/>
			<psa10 value="0.494885993766773" flag="0"/>
			<psa30 value="0.0960404155396173" flag="0"/>
		</comp>
		<comp name="00.HNZ" depth="0.0">
			<acc value="1.75940020751286" flag="0"/>
			<vel value="0.394224169493719" flag="0"/>
			<psa03 value="0.961330433425303" flag="0"/>
			<psa10 value="0.245575088144301" flag="0"/>
			<psa30 value="0.0745733601193087" flag="0"/>
		</comp>
	</station>
	<station code="S2602" name="S2602" netid="S2" source="IceSMN Icelandic Strong Motion Network (IceSMN)" insttype="" lat="63.8464" lon="-22.4268">
		<comp name="00.HN1" depth="0.0">
			<acc value="0.722428186611395" flag="0"/>
			<vel value="0.597944292762212" flag="0"/>
			<psa03 value="1.48787606448628" flag="0"/>
			<psa10 value="1.44538894992487" flag="0"/>
			<psa30 value="0.243493650259441" flag="0"/>
		</comp>
		<comp name="00.HN2" depth="0.0">
			<acc value="1.90660236708974" flag="0"/>
			<vel value="1.16507145776389" flag="0"/>
			<psa03 value="3.29282213330773" flag="0"/>
			<psa10 value="1.00898148007171" flag="0"/>
			<psa30 value="0.11814932014582" flag="0"/>
		</comp>
		<comp name="00.HNZ" depth="0.0">
			<acc value="0.783508507268851" flag="0"/>
			<vel value="0.470921353439727" flag="0"/>
			<psa03 value="0.875255648056967" flag="0"/>
			<psa10 value="0.572517666487513" flag="0"/>
			<psa30 value="0.174033635540934" flag="0"/>
		</comp>
	</station>
	<station code="S2604" name="S2604" netid="S2" source="IceSMN Icelandic Strong Motion Network (IceSMN)" insttype="" lat="63.9843" lon="-21.6486">
		<comp name="00.HN1" depth="0.0">
			<acc value="0.613474313706512" flag="0"/>
			<vel value="0.524359547124129" flag="0"/>
			<psa03 value="1.1508089021068" flag="0"/>
			<psa10 value="0.980557357113753" flag="0"/>
			<psa30 value="0.178623406257355" flag="0"/>
		</comp>
		<comp name="00.HN2" depth="0.0">
			<acc value="0.510274415794558" flag="0"/>
			<vel value="0.419686797478346" flag="0"/>
			<psa03 value="0.725205958003729" flag="0"/>
			<psa10 value="0.869573704991265" flag="0"/>
			<psa30 value="0.056648119326776" flag="0"/>
		</comp>
		<comp name="00.HNZ" depth="0.0">
			<acc value="0.570635778981334" flag="0"/>
			<vel value="0.193695674580229" flag="0"/>
			<psa03 value="0.716417459142688" flag="0"/>
			<psa10 value="0.257565352440546" flag="0"/>
			<psa30 value="0.0640650373277021" flag="0"/>
		</comp>
	</station>
</stationlist>
