<?xml version="1.0" encoding="UTF-8" standalone="yes"?>
<!DOCTYPE earthquake SYSTEM "stationlist.dtd">
<stationlist created="" xmlns="ch.ethz.sed.shakemap.usgs.xml">
  <station code="ASB" name="ASB" netid="VI" source="ODC" insttype="STS-2.5" lat="64.7482" lon="-21.3254">
    <comp name="--.HHE">
      <acc value="0.2605535083" flag="0"/>
      <vel value="0.1038002238" flag="0"/>
      <psa03 value="0.4442399545" flag="0"/>
      <psa10 value="0.1350353853" flag="0"/>
      <psa30 value="0.0193331522" flag="0"/>
    </comp>
    <comp name="--.HHN">
      <acc value="0.1765175617" flag="0"/>
      <vel value="0.0757571049" flag="0"/>
      <psa03 value="0.2465575632" flag="0"/>
      <psa10 value="0.0805296355" flag="0"/>
      <psa30 value="0.0117782632" flag="0"/>
    </comp>
    <comp name="--.HHZ">
      <acc value="0.0768428121" flag="0"/>
      <vel value="0.0530724296" flag="0"/>
      <psa03 value="0.2627109849" flag="0"/>
      <psa10 value="0.0469242176" flag="0"/>
      <psa30 value="0.0171158646" flag="0"/>
    </comp>
  </station>
</stationlist>
