<?xml version="1.0" encoding="UTF-8" standalone="yes"?>
<!DOCTYPE earthquake SYSTEM "stationlist.dtd">
<stationlist created="" xmlns="ch.ethz.sed.shakemap.usgs.xml">
  <station code="AKS" name="AKS" netid="KO" insttype="CMG-5T" commtype="DIG" lat="38.8785" lon="27.8129">
    <comp name="--.HNN">
      <acc value="0.1882690274" flag="0"/>
      <vel value="0.0594568376" flag="0"/>
      <psa03 value="0.2975382382" flag="0"/>
      <psa10 value="0.0585743509" flag="0"/>
      <psa30 value="0.0044080009" flag="0"/>
    </comp>
    <comp name="--.HNZ">
      <acc value="0.1474498684" flag="0"/>
      <vel value="0.0362875403" flag="0"/>
      <psa03 value="0.1019086403" flag="0"/>
      <psa10 value="0.0255990909" flag="0"/>
      <psa30 value="0.0043604070" flag="0"/>
    </comp>
  </station>
  <station code="AYDB" name="AYDB" netid="KO" insttype="CMG-3ESPC" commtype="DIG" lat="37.9467" lon="27.8908">
    <comp name="--.HHN">
      <acc value="0.0531998061" flag="0"/>
      <vel value="0.0341141236" flag="0"/>
      <psa03 value="0.1658172631" flag="0"/>
      <psa10 value="0.0429525546" flag="0"/>
      <psa30 value="0.0022419651" flag="0"/>
    </comp>
    <comp name="--.HHZ">
      <acc value="0.0454825100" flag="0"/>
      <vel value="0.0184492249" flag="0"/>
      <psa03 value="0.1088234207" flag="0"/>
      <psa10 value="0.0196143123" flag="0"/>
      <psa30 value="0.0016446368" flag="0"/>
    </comp>
  </station>
  <station code="AYVL" name="AYVL" netid="KO" insttype="CMG-6T" commtype="DIG" lat="39.2907" lon="26.69">
    <comp name="--.HHE">
      <acc value="0.0544457239" flag="0"/>
      <vel value="0.0180310859" flag="0"/>
      <psa03 value="0.0838945275" flag="0"/>
      <psa10 value="0.0177670209" flag="0"/>
      <psa30 value="0.0006225590" flag="0"/>
    </comp>
    <comp name="--.HHN">
      <acc value="0.0651089882" flag="0"/>
      <vel value="0.0259739725" flag="0"/>
      <psa03 value="0.1448723071" flag="0"/>
      <psa10 value="0.0334046080" flag="0"/>
      <psa30 value="0.0011015165" flag="0"/>
    </comp>
    <comp name="--.HHZ">
      <acc value="0.0242464438" flag="0"/>
      <vel value="0.0086229061" flag="0"/>
      <psa03 value="0.0469926263" flag="0"/>
      <psa10 value="0.0087021696" flag="0"/>
      <psa30 value="0.0003251660" flag="0"/>
    </comp>
  </station>
  <station code="BALB" name="BALB" netid="KO" insttype="CMG-5T" commtype="DIG" lat="39.6507" lon="27.8642">
    <comp name="--.HNZ">
      <acc value="0.0624552940" flag="0"/>
      <vel value="0.0141628647" flag="0"/>
      <psa03 value="0.0587309169" flag="0"/>
      <psa10 value="0.0096338360" flag="0"/>
      <psa30 value="0.0025484497" flag="0"/>
    </comp>
    <comp name="--.HNE">
      <acc value="0.0703913882" flag="0"/>
      <vel value="0.0259857029" flag="0"/>
      <psa03 value="0.1089561986" flag="0"/>
      <psa10 value="0.0366230496" flag="0"/>
      <psa30 value="0.0032991191" flag="0"/>
    </comp>
    <comp name="--.HNN">
      <acc value="0.0637468598" flag="0"/>
      <vel value="0.0314518161" flag="0"/>
      <psa03 value="0.1178200663" flag="0"/>
      <psa10 value="0.0271596831" flag="0"/>
      <psa30 value="0.0040738608" flag="0"/>
    </comp>
  </station>
  <station code="BLCB" name="BLCB" netid="KO" insttype="CMG-3T" commtype="DIG" lat="38.3853" lon="27.042">
    <comp name="--.HHE">
      <acc value="0.0403150694" flag="0"/>
      <vel value="0.0279879976" flag="0"/>
      <psa03 value="0.1276468822" flag="0"/>
      <psa10 value="0.0414469297" flag="0"/>
      <psa30 value="0.0027419963" flag="0"/>
    </comp>
    <comp name="--.HHN">
      <acc value="0.0000547799" flag="0"/>
      <vel value="0.0000134932" flag="0"/>
      <psa03 value="0.0000393350" flag="0"/>
      <psa10 value="0.0000174280" flag="0"/>
      <psa30 value="0.0000014708" flag="0"/>
    </comp>
    <comp name="--.HHZ">
      <acc value="0.0268190585" flag="0"/>
      <vel value="0.0123723890" flag="0"/>
      <psa03 value="0.0691400442" flag="0"/>
      <psa10 value="0.0127636911" flag="0"/>
      <psa30 value="0.0015037711" flag="0"/>
    </comp>
  </station>
  <station code="CANM" name="CANM" netid="KO" insttype="CMG-5T" commtype="DIG" lat="40.0113" lon="27.0529">
    <comp name="--.HNE">
      <acc value="0.0172767432" flag="0"/>
      <vel value="0.0113664770" flag="0"/>
      <psa03 value="0.0257864313" flag="0"/>
      <psa10 value="0.0173613205" flag="0"/>
      <psa30 value="0.0008486037" flag="0"/>
    </comp>
    <comp name="--.HNN">
      <acc value="0.0203309928" flag="0"/>
      <vel value="0.0100996284" flag="0"/>
      <psa03 value="0.0313616964" flag="0"/>
      <psa10 value="0.0154984510" flag="0"/>
      <psa30 value="0.0014773890" flag="0"/>
    </comp>
    <comp name="--.HNZ">
      <acc value="0.0174841050" flag="0"/>
      <vel value="0.0072084125" flag="0"/>
      <psa03 value="0.0422722425" flag="0"/>
      <psa10 value="0.0071896097" flag="0"/>
      <psa30 value="0.0011982645" flag="0"/>
    </comp>
  </station>
  <station code="DKL" name="DKL" netid="KO" insttype="CMG-3ESPC" commtype="DIG" lat="39.0713" lon="26.9053">
    <comp name="--.HHZ">
      <acc value="0.0208677589" flag="0"/>
      <vel value="0.0068097322" flag="0"/>
      <psa03 value="0.0259943932" flag="0"/>
      <psa10 value="0.0081752769" flag="0"/>
      <psa30 value="0.0019301124" flag="0"/>
    </comp>
    <comp name="--.HHN">
      <acc value="0.0202404266" flag="0"/>
      <vel value="0.0160034414" flag="0"/>
      <psa03 value="0.0443797445" flag="0"/>
      <psa10 value="0.0217377163" flag="0"/>
      <psa30 value="0.0032225893" flag="0"/>
    </comp>
  </station>
  <station code="DST" name="DST" netid="KO" insttype="CMG-5T" commtype="DIG" lat="39.6041" lon="28.6267">
    <comp name="--.HNE">
      <acc value="0.1208723837" flag="0"/>
      <vel value="0.0289076392" flag="0"/>
      <psa03 value="0.1212017649" flag="0"/>
      <psa10 value="0.0375676002" flag="0"/>
      <psa30 value="0.0015978481" flag="0"/>
    </comp>
    <comp name="--.HNN">
      <acc value="0.1189326172" flag="0"/>
      <vel value="0.0370631500" flag="0"/>
      <psa03 value="0.1525940807" flag="0"/>
      <psa10 value="0.0248034628" flag="0"/>
      <psa30 value="0.0031615717" flag="0"/>
    </comp>
    <comp name="--.HNZ">
      <acc value="0.1049507191" flag="0"/>
      <vel value="0.0241290833" flag="0"/>
      <psa03 value="0.1549388538" flag="0"/>
      <psa10 value="0.0146806763" flag="0"/>
      <psa30 value="0.0024553739" flag="0"/>
    </comp>
  </station>
  <station code="EDC" name="EDC" netid="KO" insttype="CMG-3T" commtype="DIG" lat="40.3465" lon="27.8618">
    <comp name="--.HHE">
      <acc value="0.0604829364" flag="0"/>
      <vel value="0.0200153441" flag="0"/>
      <psa03 value="0.0590600802" flag="0"/>
      <psa10 value="0.0245894462" flag="0"/>
      <psa30 value="0.0023471418" flag="0"/>
    </comp>
    <comp name="--.HHN">
      <acc value="0.0528881385" flag="0"/>
      <vel value="0.0248402691" flag="0"/>
      <psa03 value="0.1039255663" flag="0"/>
      <psa10 value="0.0393338940" flag="0"/>
      <psa30 value="0.0030428121" flag="0"/>
    </comp>
    <comp name="--.HHZ">
      <acc value="0.0210692036" flag="0"/>
      <vel value="0.0085364944" flag="0"/>
      <psa03 value="0.0319956246" flag="0"/>
      <psa10 value="0.0104343115" flag="0"/>
      <psa30 value="0.0019232553" flag="0"/>
    </comp>
  </station>
  <station code="FOCM" name="FOCM" netid="KO" insttype="CMG-5T" commtype="DIG" lat="38.7131" lon="26.7309">
    <comp name="--.HNZ">
      <acc value="0.0205723446" flag="0"/>
      <vel value="0.0138996780" flag="0"/>
      <psa03 value="0.0587158663" flag="0"/>
      <psa10 value="0.0173875115" flag="0"/>
      <psa30 value="0.0015590929" flag="0"/>
    </comp>
    <comp name="--.HNE">
      <acc value="0.0265579468" flag="0"/>
      <vel value="0.0205530693" flag="0"/>
      <psa03 value="0.0855727302" flag="0"/>
      <psa10 value="0.0232894818" flag="0"/>
      <psa30 value="0.0019931799" flag="0"/>
    </comp>
    <comp name="--.HNN">
      <acc value="0.0292642079" flag="0"/>
      <vel value="0.0132479129" flag="0"/>
      <psa03 value="0.0383883326" flag="0"/>
      <psa10 value="0.0249364153" flag="0"/>
      <psa30 value="0.0016728506" flag="0"/>
    </comp>
  </station>
  <station code="GOMA" name="GOMA" netid="KO" insttype="CMG-5T" commtype="DIG" lat="38.7077" lon="27.9175">
    <comp name="--.HNE">
      <acc value="0.2237868578" flag="0"/>
      <vel value="0.1429556533" flag="0"/>
      <psa03 value="0.6825769418" flag="0"/>
      <psa10 value="0.0941317903" flag="0"/>
      <psa30 value="0.0051452974" flag="0"/>
    </comp>
    <comp name="--.HNZ">
      <acc value="0.1687435420" flag="0"/>
      <vel value="0.0506729255" flag="0"/>
      <psa03 value="0.2063961830" flag="0"/>
      <psa10 value="0.0448055204" flag="0"/>
      <psa30 value="0.0060688122" flag="0"/>
    </comp>
    <comp name="--.HNN">
      <acc value="0.1550753613" flag="0"/>
      <vel value="0.0824225952" flag="0"/>
      <psa03 value="0.5229629336" flag="0"/>
      <psa10 value="0.0422391693" flag="0"/>
      <psa30 value="0.0067033653" flag="0"/>
    </comp>
  </station>
  <station code="GONE" name="GONE" netid="KO" insttype="CMG-5T" commtype="DIG" lat="40.0466" lon="27.686">
    <comp name="--.HNE">
      <acc value="0.0646961437" flag="0"/>
      <vel value="0.0308126046" flag="0"/>
      <psa03 value="0.1268338871" flag="0"/>
      <psa10 value="0.0296126746" flag="0"/>
      <psa30 value="0.0017474828" flag="0"/>
    </comp>
    <comp name="--.HNN">
      <acc value="0.0971525762" flag="0"/>
      <vel value="0.0386711789" flag="0"/>
      <psa03 value="0.3503079639" flag="0"/>
      <psa10 value="0.0455278887" flag="0"/>
      <psa30 value="0.0032905114" flag="0"/>
    </comp>
    <comp name="--.HNZ">
      <acc value="0.0303524954" flag="0"/>
      <vel value="0.0146354960" flag="0"/>
      <psa03 value="0.0744577719" flag="0"/>
      <psa10 value="0.0128946946" flag="0"/>
      <psa30 value="0.0008534368" flag="0"/>
    </comp>
  </station>
  <station code="GORD" name="GORD" netid="KO" insttype="CMG-5T" commtype="DIG" lat="38.9088" lon="28.1769">
    <comp name="--.HNE">
      <acc value="0.4279136234" flag="0"/>
      <vel value="0.2670965880" flag="0"/>
      <psa03 value="0.5958671986" flag="0"/>
      <psa10 value="0.3021583471" flag="0"/>
      <psa30 value="0.0143967588" flag="0"/>
    </comp>
    <comp name="--.HNN">
      <acc value="0.7185061848" flag="0"/>
      <vel value="0.3217421006" flag="0"/>
      <psa03 value="1.0511791065" flag="0"/>
      <psa10 value="0.3633601626" flag="0"/>
      <psa30 value="0.0240189322" flag="0"/>
    </comp>
    <comp name="--.HNZ">
      <acc value="0.4191270065" flag="0"/>
      <vel value="0.2124302612" flag="0"/>
      <psa03 value="0.8378215326" flag="0"/>
      <psa10 value="0.2190743053" flag="0"/>
      <psa30 value="0.0195699602" flag="0"/>
    </comp>
  </station>
  <station code="KCTX" name="KCTX" netid="KO" insttype="CMG-3ESP" commtype="DIG" lat="40.2626" lon="28.3353">
    <comp name="--.HHE">
      <acc value="0.0390916431" flag="0"/>
      <vel value="0.0135501504" flag="0"/>
      <psa03 value="0.0450980886" flag="0"/>
      <psa10 value="0.0217087767" flag="0"/>
      <psa30 value="0.0014613374" flag="0"/>
    </comp>
    <comp name="--.HHN">
      <acc value="0.0562334706" flag="0"/>
      <vel value="0.0177417366" flag="0"/>
      <psa03 value="0.1024457699" flag="0"/>
      <psa10 value="0.0195951165" flag="0"/>
      <psa30 value="0.0020032673" flag="0"/>
    </comp>
    <comp name="--.HHZ">
      <acc value="0.0404138256" flag="0"/>
      <vel value="0.0114693082" flag="0"/>
      <psa03 value="0.0524166548" flag="0"/>
      <psa10 value="0.0084559231" flag="0"/>
      <psa30 value="0.0018421468" flag="0"/>
    </comp>
  </station>
  <station code="KULA" name="KULA" netid="KO" insttype="CMG-3T" commtype="DIG" lat="38.5145" lon="28.6607">
    <comp name="--.HHZ">
      <acc value="0.2249555271" flag="0"/>
      <vel value="0.0570324440" flag="0"/>
      <psa03 value="0.3524045892" flag="0"/>
      <psa10 value="0.0229157990" flag="0"/>
      <psa30 value="0.0022771156" flag="0"/>
    </comp>
    <comp name="--.HHN">
      <acc value="0.2692151926" flag="0"/>
      <vel value="0.0704249625" flag="0"/>
      <psa03 value="0.2815638950" flag="0"/>
      <psa10 value="0.0234901163" flag="0"/>
      <psa30 value="0.0017476056" flag="0"/>
    </comp>
  </station>
  <station code="MDNY" name="MDNY" netid="KO" insttype="CMG-3ESP" commtype="DIG" lat="40.3709" lon="28.8846">
    <comp name="--.HHN">
      <acc value="0.2161432292" flag="0"/>
      <vel value="0.1225558121" flag="0"/>
      <psa03 value="0.6454931032" flag="0"/>
      <psa10 value="0.0618323790" flag="0"/>
      <psa30 value="0.0030675025" flag="0"/>
    </comp>
    <comp name="--.HHE">
      <acc value="0.1478372969" flag="0"/>
      <vel value="0.0619443250" flag="0"/>
      <psa03 value="0.3345360376" flag="0"/>
      <psa10 value="0.0394919687" flag="0"/>
      <psa30 value="0.0035750391" flag="0"/>
    </comp>
    <comp name="--.HHZ">
      <acc value="0.0934524182" flag="0"/>
      <vel value="0.0303996229" flag="0"/>
      <psa03 value="0.1405864068" flag="0"/>
      <psa10 value="0.0201954256" flag="0"/>
      <psa30 value="0.0043640459" flag="0"/>
    </comp>
  </station>
  <station code="NAZL" name="NAZL" netid="KO" insttype="CMG-5T" commtype="DIG" lat="37.9641" lon="28.2922">
    <comp name="--.HNE">
      <acc value="0.0850631570" flag="0"/>
      <vel value="0.0405683604" flag="0"/>
      <psa03 value="0.2167569727" flag="0"/>
      <psa10 value="0.0331579019" flag="0"/>
      <psa30 value="0.0034687147" flag="0"/>
    </comp>
    <comp name="--.HNZ">
      <acc value="0.0291827003" flag="0"/>
      <vel value="0.0186944606" flag="0"/>
      <psa03 value="0.0588494463" flag="0"/>
      <psa10 value="0.0186751729" flag="0"/>
      <psa30 value="0.0015694017" flag="0"/>
    </comp>
    <comp name="--.HNN">
      <acc value="0.0967478615" flag="0"/>
      <vel value="0.0491956377" flag="0"/>
      <psa03 value="0.2438687939" flag="0"/>
      <psa10 value="0.0355834465" flag="0"/>
      <psa30 value="0.0020846951" flag="0"/>
    </comp>
  </station>
  <station code="ORLT" name="ORLT" netid="KO" insttype="CMG-5T" commtype="DIG" lat="40.0452" lon="28.8914">
    <comp name="--.HNE">
      <acc value="0.0922878619" flag="0"/>
      <vel value="0.0600572020" flag="0"/>
      <psa03 value="0.1441599216" flag="0"/>
      <psa10 value="0.0837201371" flag="0"/>
      <psa30 value="0.0036016801" flag="0"/>
    </comp>
    <comp name="--.HNN">
      <acc value="0.0993786683" flag="0"/>
      <vel value="0.0747505720" flag="0"/>
      <psa03 value="0.2091228120" flag="0"/>
      <psa10 value="0.1410095184" flag="0"/>
      <psa30 value="0.0058304022" flag="0"/>
    </comp>
    <comp name="--.HNZ">
      <acc value="0.0439518200" flag="0"/>
      <vel value="0.0383818532" flag="0"/>
      <psa03 value="0.0964637188" flag="0"/>
      <psa10 value="0.0744810637" flag="0"/>
      <psa30 value="0.0046780461" flag="0"/>
    </comp>
  </station>
  <station code="SHAP" name="SHAP" netid="KO" insttype="CMG-5T" commtype="DIG" lat="39.0231" lon="29.222">
    <comp name="--.HNE">
      <acc value="0.5589624370" flag="0"/>
      <vel value="0.1651165285" flag="0"/>
      <psa03 value="1.3143895002" flag="0"/>
      <psa10 value="0.1011332898" flag="0"/>
      <psa30 value="0.0047121374" flag="0"/>
    </comp>
    <comp name="--.HNZ">
      <acc value="0.3142412679" flag="0"/>
      <vel value="0.0705417685" flag="0"/>
      <psa03 value="0.3327336352" flag="0"/>
      <psa10 value="0.0464970074" flag="0"/>
      <psa30 value="0.0024065525" flag="0"/>
    </comp>
    <comp name="--.HNN">
      <acc value="0.4360617822" flag="0"/>
      <vel value="0.1913625135" flag="0"/>
      <psa03 value="0.7973260613" flag="0"/>
      <psa10 value="0.0773113907" flag="0"/>
      <psa30 value="0.0046761681" flag="0"/>
    </comp>
  </station>
  <station code="SIMA" name="SIMA" netid="KO" insttype="CMG-6T" commtype="DIG" lat="39.0833" lon="28.9825">
    <comp name="--.HHZ">
      <acc value="0.4032201941" flag="0"/>
      <vel value="0.0798421805" flag="0"/>
      <psa03 value="0.3701431588" flag="0"/>
      <psa10 value="0.0340770694" flag="0"/>
      <psa30 value="0.0024705153" flag="0"/>
    </comp>
    <comp name="--.HHN">
      <acc value="0.4227936349" flag="0"/>
      <vel value="0.1366121059" flag="0"/>
      <psa03 value="0.6776571819" flag="0"/>
      <psa10 value="0.0734418357" flag="0"/>
      <psa30 value="0.0074419202" flag="0"/>
    </comp>
    <comp name="--.HHE">
      <acc value="0.6521269971" flag="0"/>
      <vel value="0.1655249413" flag="0"/>
      <psa03 value="0.5525604580" flag="0"/>
      <psa10 value="0.0421274473" flag="0"/>
      <psa30 value="0.0044606403" flag="0"/>
    </comp>
  </station>
  <station code="SMAA" name="SMAA" netid="KO" insttype="CMG-5T" commtype="DIG" lat="39.1005" lon="28.9805">
    <comp name="--.HNE">
      <acc value="0.6473208706" flag="0"/>
      <vel value="0.3105820999" flag="0"/>
      <psa03 value="1.5473252991" flag="0"/>
      <psa10 value="0.2421142389" flag="0"/>
      <psa30 value="0.0217098067" flag="0"/>
    </comp>
    <comp name="--.HNN">
      <acc value="0.5247624338" flag="0"/>
      <vel value="0.2910688133" flag="0"/>
      <psa03 value="1.2014940634" flag="0"/>
      <psa10 value="0.2421577451" flag="0"/>
      <psa30 value="0.0133703427" flag="0"/>
    </comp>
    <comp name="--.HNZ">
      <acc value="0.2873255800" flag="0"/>
      <vel value="0.0839232148" flag="0"/>
      <psa03 value="0.3380449072" flag="0"/>
      <psa10 value="0.1833541665" flag="0"/>
      <psa30 value="0.0056504623" flag="0"/>
    </comp>
  </station>
  <station code="SOMA" name="SOMA" netid="KO" insttype="CMG-5T" commtype="DIG" lat="39.1564" lon="27.5341">
    <comp name="--.HNE">
      <acc value="0.1500567556" flag="0"/>
      <vel value="0.0558284814" flag="0"/>
      <psa03 value="0.3960292247" flag="0"/>
      <psa10 value="0.0383691311" flag="0"/>
      <psa30 value="0.0022689754" flag="0"/>
    </comp>
    <comp name="--.HNZ">
      <acc value="0.1319561649" flag="0"/>
      <vel value="0.0343513734" flag="0"/>
      <psa03 value="0.1784911641" flag="0"/>
      <psa10 value="0.0180685101" flag="0"/>
      <psa30 value="0.0022125358" flag="0"/>
    </comp>
    <comp name="--.HNN">
      <acc value="0.1874047756" flag="0"/>
      <vel value="0.0709907578" flag="0"/>
      <psa03 value="0.3058744085" flag="0"/>
      <psa10 value="0.0599302104" flag="0"/>
      <psa30 value="0.0030535846" flag="0"/>
    </comp>
  </station>
  <station code="SUSR" name="SUSR" netid="KO" insttype="CMG-5T" commtype="DIG" lat="39.9627" lon="28.0835">
    <comp name="--.HNN">
      <acc value="0.1247544110" flag="0"/>
      <vel value="0.0305499126" flag="0"/>
      <psa03 value="0.1821249480" flag="0"/>
      <psa10 value="0.0105952324" flag="0"/>
      <psa30 value="0.0009947951" flag="0"/>
    </comp>
    <comp name="--.HNE">
      <acc value="0.0775943083" flag="0"/>
      <vel value="0.0231802435" flag="0"/>
      <psa03 value="0.0838356975" flag="0"/>
      <psa10 value="0.0110091925" flag="0"/>
      <psa30 value="0.0011114053" flag="0"/>
    </comp>
    <comp name="--.HNZ">
      <acc value="0.0922510620" flag="0"/>
      <vel value="0.0208891554" flag="0"/>
      <psa03 value="0.0729383767" flag="0"/>
      <psa10 value="0.0093121891" flag="0"/>
      <psa30 value="0.0008316687" flag="0"/>
    </comp>
  </station>
  <station code="TVSB" name="TVSB" netid="KO" insttype="CMG-3T" commtype="DIG" lat="39.4497" lon="29.4615">
    <comp name="--.HHE">
      <acc value="0.1336521230" flag="0"/>
      <vel value="0.0839350043" flag="0"/>
      <psa03 value="0.2954182202" flag="0"/>
