<?xml version="1.0" encoding="UTF-8" standalone="yes"?>
<!DOCTYPE earthquake SYSTEM "stationlist.dtd">
<stationlist created="" xmlns="ch.ethz.sed.shakemap.usgs.xml">
  <station code="DYBB" name="DYBB" netid="KO" insttype="CMG-3T" lat="37.9532" lon="40.1393">
    <comp name="--.HHE">
      <acc value="0.0257726106" flag="0"/>
      <vel value="0.0362585832" flag="0"/>
      <psa03 value="0.0383052524" flag="0"/>
      <psa10 value="0.0508212956" flag="0"/>
      <psa30 value="0.0126591837" flag="0"/>
    </comp>
    <comp name="--.HHZ">
      <acc value="0.0208316778" flag="0"/>
      <vel value="0.0282851813" flag="0"/>
      <psa03 value="0.0262621815" flag="0"/>
      <psa10 value="0.0481853039" flag="0"/>
      <psa30 value="0.0064411265" flag="0"/>
    </comp>
    <comp name="--.HHN">
      <acc value="0.0342510384" flag="0"/>
      <vel value="0.0475698311" flag="0"/>
      <psa03 value="0.0638395863" flag="0"/>
      <psa10 value="0.0642575131" flag="0"/>
      <psa30 value="0.0139150285" flag="0"/>
    </comp>
  </station>
  <station code="KARO" name="KARO" netid="KO" insttype="CMG-3T" lat="39.3089" lon="41.0493">
    <comp name="--.HHE">
      <acc value="0.0246787268" flag="0"/>
      <vel value="0.0301515307" flag="0"/>
      <psa03 value="0.0538785541" flag="0"/>
      <psa10 value="0.0684391201" flag="0"/>
      <psa30 value="0.0074669741" flag="0"/>
    </comp>
    <comp name="--.HHZ">
      <acc value="0.0094164416" flag="0"/>
      <vel value="0.0128088432" flag="0"/>
      <psa03 value="0.0253325374" flag="0"/>
      <psa10 value="0.0240354826" flag="0"/>
      <psa30 value="0.0042646651" flag="0"/>
    </comp>
    <comp name="--.HHN">
      <acc value="0.0285507790" flag="0"/>
      <vel value="0.0259662153" flag="0"/>
      <psa03 value="0.0708598601" flag="0"/>
      <psa10 value="0.0448332986" flag="0"/>
      <psa30 value="0.0071425929" flag="0"/>
    </comp>
  </station>
  <station code="MAZI" name="MAZI" netid="KO" insttype="CMG-3T" lat="37.4593" lon="40.4465">
    <comp name="--.HHE">
      <acc value="0.0845514068" flag="0"/>
      <vel value="0.0405388033" flag="0"/>
      <psa03 value="0.2577569554" flag="0"/>
      <psa10 value="0.0558208753" flag="0"/>
      <psa30 value="0.0086186506" flag="0"/>
    </comp>
    <comp name="--.HHN">
      <acc value="0.0833631159" flag="0"/>
      <vel value="0.0729644803" flag="0"/>
      <psa03 value="0.2062387275" flag="0"/>
      <psa10 value="0.0603496934" flag="0"/>
      <psa30 value="0.0073805261" flag="0"/>
    </comp>
    <comp name="--.HHZ">
      <acc value="0.0896206188" flag="0"/>
      <vel value="0.0435982459" flag="0"/>
      <psa03 value="0.2071304732" flag="0"/>
      <psa10 value="0.0474717960" flag="0"/>
      <psa30 value="0.0031103168" flag="0"/>
    </comp>
  </station>
  <station code="SVAN" name="SVAN" netid="KO" insttype="CMG-3T" lat="38.1511" lon="41.1984">
    <comp name="--.HHE">
      <acc value="0.0278051012" flag="0"/>
      <vel value="0.0166870213" flag="0"/>
      <psa03 value="0.0606235212" flag="0"/>
      <psa10 value="0.0240883566" flag="0"/>
      <psa30 value="0.0048241816" flag="0"/>
    </comp>
    <comp name="--.HHZ">
      <acc value="0.0169627595" flag="0"/>
      <vel value="0.0213758305" flag="0"/>
      <psa03 value="0.0374290593" flag="0"/>
      <psa10 value="0.0179119903" flag="0"/>
      <psa30 value="0.0179299394" flag="0"/>
    </comp>
  </station>
  <station code="SVRC" name="SVRC" netid="KO" insttype="CMG-3T" lat="38.3775" lon="39.306">
    <comp name="--.HHZ">
      <acc value="0.0216158634" flag="0"/>
      <vel value="0.0277184893" flag="0"/>
      <psa03 value="0.0543775159" flag="0"/>
      <psa10 value="0.0384390784" flag="0"/>
      <psa30 value="0.0102297876" flag="0"/>
    </comp>
    <comp name="--.HHE">
      <acc value="0.0328173623" flag="0"/>
      <vel value="0.0335870943" flag="0"/>
      <psa03 value="0.0993191364" flag="0"/>
      <psa10 value="0.0441812303" flag="0"/>
      <psa30 value="0.0075905943" flag="0"/>
    </comp>
    <comp name="--.HHN">
      <acc value="0.0300738571" flag="0"/>
      <vel value="0.0289898866" flag="0"/>
      <psa03 value="0.1116058789" flag="0"/>
      <psa10 value="0.0567183305" flag="0"/>
      <psa30 value="0.0137994141" flag="0"/>
    </comp>
  </station>
  <station code="VRTB" name="VRTB" netid="KO" insttype="CMG-3ESPC" lat="39.1603" lon="41.4558">
    <comp name="--.HHE">
      <acc value="0.0054418980" flag="0"/>
      <vel value="0.0089510422" flag="0"/>
      <psa03 value="0.0064943681" flag="0"/>
      <psa10 value="0.0211772122" flag="0"/>
      <psa30 value="0.0053658118" flag="0"/>
    </comp>
    <comp name="--.HHZ">
      <acc value="0.0101765425" flag="0"/>
      <vel value="0.0246587670" flag="0"/>
      <psa03 value="0.0184975945" flag="0"/>
      <psa10 value="0.0290523324" flag="0"/>
      <psa30 value="0.0075687615" flag="0"/>
    </comp>
    <comp name="--.HHN">
      <acc value="0.0189229298" flag="0"/>
      <vel value="0.0385912300" flag="0"/>
      <psa03 value="0.0251219291" flag="0"/>
      <psa10 value="0.0456062192" flag="0"/>
      <psa30 value="0.0266496140" flag="0"/>
    </comp>
  </station>
</stationlist>
