<?xml version="1.0" encoding="UTF-8" standalone="yes"?>
<!DOCTYPE earthquake SYSTEM "stationlist.dtd">
<stationlist created="" xmlns="ch.ethz.sed.shakemap.usgs.xml">
  <station code="ARPRA" name="ARPRA" netid="KO" insttype="CMG-5T" lat="39.0929" lon="38.3356">
    <comp name="--.HNE">
      <acc value="0.0125915696" flag="0"/>
      <vel value="0.0169184870" flag="0"/>
      <psa03 value="0.0268894053" flag="0"/>
      <psa10 value="0.0284473356" flag="0"/>
      <psa30 value="0.0044599702" flag="0"/>
    </comp>
    <comp name="--.HNN">
      <acc value="0.0106495231" flag="0"/>
      <vel value="0.0183585749" flag="0"/>
      <psa03 value="0.0206159920" flag="0"/>
      <psa10 value="0.0309990503" flag="0"/>
      <psa30 value="0.0055367293" flag="0"/>
    </comp>
    <comp name="--.HNZ">
      <acc value="0.0086723941" flag="0"/>
      <vel value="0.0126771905" flag="0"/>
      <psa03 value="0.0161956742" flag="0"/>
      <psa10 value="0.0241677133" flag="0"/>
      <psa30 value="0.0049437407" flag="0"/>
    </comp>
  </station>
  <station code="DYBB" name="DYBB" netid="KO" insttype="CMG-3T" lat="37.9532" lon="40.1393">
    <comp name="--.HHN">
      <acc value="0.0342510384" flag="0"/>
      <vel value="0.0475698323" flag="0"/>
      <psa03 value="0.0638395863" flag="0"/>
      <psa10 value="0.0642575131" flag="0"/>
      <psa30 value="0.0139149912" flag="0"/>
    </comp>
    <comp name="--.HHE">
      <acc value="0.0257726105" flag="0"/>
      <vel value="0.0362585836" flag="0"/>
      <psa03 value="0.0383052524" flag="0"/>
      <psa10 value="0.0508212956" flag="0"/>
      <psa30 value="0.0126591846" flag="0"/>
    </comp>
    <comp name="--.HHZ">
      <acc value="0.0208316778" flag="0"/>
      <vel value="0.0282851821" flag="0"/>
      <psa03 value="0.0262621815" flag="0"/>
      <psa10 value="0.0481853039" flag="0"/>
      <psa30 value="0.0064411158" flag="0"/>
    </comp>
  </station>
  <station code="ERZN" name="ERZN" netid="KO" insttype="CMG-3ESP" lat="39.5867" lon="39.722">
    <comp name="--.HHE">
      <acc value="0.0170307878" flag="0"/>
      <vel value="0.0125515870" flag="0"/>
      <psa03 value="0.0443435295" flag="0"/>
      <psa10 value="0.0206000152" flag="0"/>
      <psa30 value="0.0034029273" flag="0"/>
    </comp>
    <comp name="--.HHN">
      <acc value="0.0194360700" flag="0"/>
      <vel value="0.0083795128" flag="0"/>
      <psa03 value="0.0460485188" flag="0"/>
      <psa10 value="0.0141879996" flag="0"/>
      <psa30 value="0.0020719050" flag="0"/>
    </comp>
    <comp name="--.HHZ">
      <acc value="0.0074267887" flag="0"/>
      <vel value="0.0063472263" flag="0"/>
      <psa03 value="0.0211400940" flag="0"/>
      <psa10 value="0.0083832292" flag="0"/>
      <psa30 value="0.0029588091" flag="0"/>
    </comp>
  </station>
  <station code="KARO" name="KARO" netid="KO" insttype="CMG-3T" lat="39.3089" lon="41.0493">
    <comp name="--.HHZ">
      <acc value="0.0061617063" flag="0"/>
      <vel value="0.0038525609" flag="0"/>
      <psa03 value="0.0177154969" flag="0"/>
      <psa10 value="0.0065539865" flag="0"/>
      <psa30 value="0.0004519959" flag="0"/>
    </comp>
    <comp name="--.HHE">
      <acc value="0.0246787272" flag="0"/>
      <vel value="0.0301515355" flag="0"/>
      <psa03 value="0.0538785541" flag="0"/>
      <psa10 value="0.0684391201" flag="0"/>
      <psa30 value="0.0067598496" flag="0"/>
    </comp>
    <comp name="--.HHN">
      <acc value="0.0285507793" flag="0"/>
      <vel value="0.0259662111" flag="0"/>
      <psa03 value="0.0708598601" flag="0"/>
      <psa10 value="0.0448332986" flag="0"/>
      <psa30 value="0.0071445009" flag="0"/>
    </comp>
  </station>
  <station code="MAZI" name="MAZI" netid="KO" insttype="CMG-3T" lat="37.4593" lon="40.4465">
    <comp name="--.HHE">
      <acc value="0.0845514067" flag="0"/>
      <vel value="0.0405388053" flag="0"/>
      <psa03 value="0.2577569554" flag="0"/>
      <psa10 value="0.0558208753" flag="0"/>
      <psa30 value="0.0086186467" flag="0"/>
    </comp>
    <comp name="--.HHN">
      <acc value="0.0833631158" flag="0"/>
      <vel value="0.0729644802" flag="0"/>
      <psa03 value="0.2062387275" flag="0"/>
      <psa10 value="0.0603496934" flag="0"/>
      <psa30 value="0.0073805261" flag="0"/>
    </comp>
    <comp name="--.HHZ">
      <acc value="0.0896206187" flag="0"/>
      <vel value="0.0435982456" flag="0"/>
      <psa03 value="0.2071304732" flag="0"/>
      <psa10 value="0.0474717960" flag="0"/>
      <psa30 value="0.0031103170" flag="0"/>
    </comp>
  </station>
  <station code="SVAN" name="SVAN" netid="KO" insttype="CMG-3T" lat="38.1511" lon="41.1984">
    <comp name="--.HHZ">
      <acc value="0.0169627596" flag="0"/>
      <vel value="0.0213758305" flag="0"/>
      <psa03 value="0.0374290593" flag="0"/>
      <psa10 value="0.0179119903" flag="0"/>
      <psa30 value="0.0179299380" flag="0"/>
    </comp>
    <comp name="--.HHE">
      <acc value="0.0278051012" flag="0"/>
      <vel value="0.0166870215" flag="0"/>
      <psa03 value="0.0606235212" flag="0"/>
      <psa10 value="0.0240883566" flag="0"/>
      <psa30 value="0.0048241822" flag="0"/>
    </comp>
  </station>
  <station code="SVRC" name="SVRC" netid="KO" insttype="CMG-3T" lat="38.3775" lon="39.306">
    <comp name="--.HHZ">
      <acc value="0.0216158637" flag="0"/>
      <vel value="0.0277184894" flag="0"/>
      <psa03 value="0.0543775159" flag="0"/>
      <psa10 value="0.0384390784" flag="0"/>
      <psa30 value="0.0102297267" flag="0"/>
    </comp>
    <comp name="--.HHE">
      <acc value="0.0328173623" flag="0"/>
      <vel value="0.0335870944" flag="0"/>
      <psa03 value="0.0993191364" flag="0"/>
      <psa10 value="0.0441812303" flag="0"/>
      <psa30 value="0.0075905930" flag="0"/>
    </comp>
    <comp name="--.HHN">
      <acc value="0.0300738570" flag="0"/>
      <vel value="0.0289898867" flag="0"/>
      <psa03 value="0.1116058789" flag="0"/>
      <psa10 value="0.0567183305" flag="0"/>
      <psa30 value="0.0137994081" flag="0"/>
    </comp>
  </station>
  <station code="VRTB" name="VRTB" netid="KO" insttype="CMG-3ESPC" lat="39.1603" lon="41.4558">
    <comp name="--.HHN">
      <acc value="0.0189229296" flag="0"/>
      <vel value="0.0385912168" flag="0"/>
      <psa03 value="0.0251219291" flag="0"/>
      <psa10 value="0.0456062193" flag="0"/>
      <psa30 value="0.0266496662" flag="0"/>
    </comp>
    <comp name="--.HHZ">
      <acc value="0.0101765425" flag="0"/>
      <vel value="0.0246587022" flag="0"/>
      <psa03 value="0.0184975945" flag="0"/>
      <psa10 value="0.0290523323" flag="0"/>
      <psa30 value="0.0075687125" flag="0"/>
    </comp>
    <comp name="--.HHE">
      <acc value="0.0054418982" flag="0"/>
      <vel value="0.0089510398" flag="0"/>
      <psa03 value="0.0064943681" flag="0"/>
      <psa10 value="0.0211772121" flag="0"/>
      <psa30 value="0.0046640391" flag="0"/>
    </comp>
  </station>
</stationlist>
