<?xml version="1.0" encoding="UTF-8" standalone="yes"?>
<!DOCTYPE earthquake SYSTEM "stationlist.dtd">
<stationlist created="" xmlns="ch.ethz.sed.shakemap.usgs.xml">
  <station code="DYBB" name="DYBB" netid="KO" insttype="CMG-3T" lat="37.9532" lon="40.1393">
    <comp name="--.HHN">
      <acc value="0.0342510385" flag="0"/>
      <vel value="0.0475698319" flag="0"/>
      <psa03 value="0.0638395863" flag="0"/>
      <psa10 value="0.0642575131" flag="0"/>
      <psa30 value="0.0139149858" flag="0"/>
    </comp>
    <comp name="--.HHE">
      <acc value="0.0257726105" flag="0"/>
      <vel value="0.0362585834" flag="0"/>
      <psa03 value="0.0383052524" flag="0"/>
      <psa10 value="0.0508212956" flag="0"/>
      <psa30 value="0.0126591824" flag="0"/>
    </comp>
    <comp name="--.HHZ">
      <acc value="0.0208316779" flag="0"/>
      <vel value="0.0282851825" flag="0"/>
      <psa03 value="0.0262621815" flag="0"/>
      <psa10 value="0.0481853039" flag="0"/>
      <psa30 value="0.0064411068" flag="0"/>
    </comp>
  </station>
  <station code="ERZN" name="ERZN" netid="KO" insttype="CMG-3ESP" lat="39.5867" lon="39.722">
    <comp name="--.HHE">
      <acc value="0.0170307876" flag="0"/>
      <vel value="0.0125516000" flag="0"/>
      <psa03 value="0.0443435295" flag="0"/>
      <psa10 value="0.0206000152" flag="0"/>
      <psa30 value="0.0034029315" flag="0"/>
    </comp>
    <comp name="--.HHN">
      <acc value="0.0194360699" flag="0"/>
      <vel value="0.0083795253" flag="0"/>
      <psa03 value="0.0460485188" flag="0"/>
      <psa10 value="0.0141879996" flag="0"/>
      <psa30 value="0.0020719070" flag="0"/>
    </comp>
    <comp name="--.HHZ">
      <acc value="0.0074267886" flag="0"/>
      <vel value="0.0063472690" flag="0"/>
      <psa03 value="0.0211400940" flag="0"/>
      <psa10 value="0.0083832293" flag="0"/>
      <psa30 value="0.0029588107" flag="0"/>
    </comp>
  </station>
  <station code="KARO" name="KARO" netid="KO" insttype="CMG-3T" lat="39.3089" lon="41.0493">
    <comp name="--.HHE">
      <acc value="0.0246787270" flag="0"/>
      <vel value="0.0301515330" flag="0"/>
      <psa03 value="0.0538785541" flag="0"/>
      <psa10 value="0.0684391201" flag="0"/>
      <psa30 value="0.0074383359" flag="0"/>
    </comp>
    <comp name="--.HHN">
      <acc value="0.0285507799" flag="0"/>
      <vel value="0.0259662173" flag="0"/>
      <psa03 value="0.0708598601" flag="0"/>
      <psa10 value="0.0448332986" flag="0"/>
      <psa30 value="0.0071381468" flag="0"/>
    </comp>
    <comp name="--.HHZ">
      <acc value="0.0094164413" flag="0"/>
      <vel value="0.0128088432" flag="0"/>
      <psa03 value="0.0253325374" flag="0"/>
      <psa10 value="0.0240354826" flag="0"/>
      <psa30 value="0.0042646644" flag="0"/>
    </comp>
  </station>
  <station code="MAZI" name="MAZI" netid="KO" insttype="CMG-3T" lat="37.4593" lon="40.4465">
    <comp name="--.HHE">
      <acc value="0.0845514067" flag="0"/>
      <vel value="0.0405388062" flag="0"/>
      <psa03 value="0.2577569554" flag="0"/>
      <psa10 value="0.0558208753" flag="0"/>
      <psa30 value="0.0086186482" flag="0"/>
    </comp>
    <comp name="--.HHZ">
      <acc value="0.0896206186" flag="0"/>
      <vel value="0.0435982458" flag="0"/>
      <psa03 value="0.2071304732" flag="0"/>
      <psa10 value="0.0474717960" flag="0"/>
      <psa30 value="0.0031103172" flag="0"/>
    </comp>
    <comp name="--.HHN">
      <acc value="0.0833631158" flag="0"/>
      <vel value="0.0729644804" flag="0"/>
      <psa03 value="0.2062387275" flag="0"/>
      <psa10 value="0.0603496934" flag="0"/>
      <psa30 value="0.0073805257" flag="0"/>
    </comp>
  </station>
  <station code="SVAN" name="SVAN" netid="KO" insttype="CMG-3T" lat="38.1511" lon="41.1984">
    <comp name="--.HHE">
      <acc value="0.0278051012" flag="0"/>
      <vel value="0.0166870214" flag="0"/>
      <psa03 value="0.0606235212" flag="0"/>
      <psa10 value="0.0240883566" flag="0"/>
      <psa30 value="0.0048241823" flag="0"/>
    </comp>
    <comp name="--.HHZ">
      <acc value="0.0169627596" flag="0"/>
      <vel value="0.0213758304" flag="0"/>
      <psa03 value="0.0374290593" flag="0"/>
      <psa10 value="0.0179119903" flag="0"/>
      <psa30 value="0.0179299378" flag="0"/>
    </comp>
  </station>
  <station code="SVRC" name="SVRC" netid="KO" insttype="CMG-3T" lat="38.3775" lon="39.306">
    <comp name="--.HHZ">
      <acc value="0.0216158637" flag="0"/>
      <vel value="0.0277184893" flag="0"/>
      <psa03 value="0.0543775159" flag="0"/>
      <psa10 value="0.0384390784" flag="0"/>
      <psa30 value="0.0102297358" flag="0"/>
    </comp>
    <comp name="--.HHN">
      <acc value="0.0300738571" flag="0"/>
      <vel value="0.0289898866" flag="0"/>
      <psa03 value="0.1116058789" flag="0"/>
      <psa10 value="0.0567183305" flag="0"/>
      <psa30 value="0.0137994061" flag="0"/>
    </comp>
    <comp name="--.HHE">
      <acc value="0.0328173623" flag="0"/>
      <vel value="0.0335870944" flag="0"/>
      <psa03 value="0.0993191364" flag="0"/>
      <psa10 value="0.0441812303" flag="0"/>
      <psa30 value="0.0075905877" flag="0"/>
    </comp>
  </station>
  <station code="VRTB" name="VRTB" netid="KO" insttype="CMG-3ESPC" lat="39.1603" lon="41.4558">
    <comp name="--.HHN">
      <acc value="0.0189229297" flag="0"/>
      <vel value="0.0385912173" flag="0"/>
      <psa03 value="0.0251219291" flag="0"/>
      <psa10 value="0.0456062193" flag="0"/>
      <psa30 value="0.0266496254" flag="0"/>
    </comp>
    <comp name="--.HHE">
      <acc value="0.0054418982" flag="0"/>
      <vel value="0.0089510280" flag="0"/>
      <psa03 value="0.0064943681" flag="0"/>
      <psa10 value="0.0211772121" flag="0"/>
      <psa30 value="0.0049259109" flag="0"/>
    </comp>
    <comp name="--.HHZ">
      <acc value="0.0101765426" flag="0"/>
      <vel value="0.0246587661" flag="0"/>
      <psa03 value="0.0184975945" flag="0"/>
      <psa10 value="0.0290523324" flag="0"/>
      <psa30 value="0.0075687641" flag="0"/>
    </comp>
  </station>
</stationlist>
