<?xml version="1.0" encoding="UTF-8" standalone="yes"?>
<!DOCTYPE earthquake SYSTEM "stationlist.dtd">
<stationlist created="" xmlns="ch.ethz.sed.shakemap.usgs.xml">
  <station code="GVD" name="GVD" netid="GE" insttype="STS-2/N" lat="34.8391" lon="24.0874">
    <comp name="--.HHE">
      <acc value="0.1129876378" flag="0"/>
      <vel value="0.0198168280" flag="0"/>
      <psa03 value="0.1114677438" flag="0"/>
      <psa10 value="0.0164165482" flag="0"/>
      <psa30 value="0.0037442450" flag="0"/>
    </comp>
    <comp name="--.HHN">
      <acc value="0.0315174921" flag="0"/>
      <vel value="0.0133212064" flag="0"/>
      <psa03 value="0.0776348607" flag="0"/>
      <psa10 value="0.0120944955" flag="0"/>
      <psa30 value="0.0008130236" flag="0"/>
    </comp>
    <comp name="--.HHZ">
      <acc value="0.0222133310" flag="0"/>
      <vel value="0.0092045598" flag="0"/>
      <psa03 value="0.0482816371" flag="0"/>
      <psa10 value="0.0047533862" flag="0"/>
      <psa30 value="0.0004254218" flag="0"/>
    </comp>
  </station>
  <station code="IMMV" name="IMMV" netid="GE" insttype="STS-2/N" lat="35.4606" lon="23.9811">
    <comp name="--.HHE">
      <acc value="0.0105415536" flag="0"/>
      <vel value="0.0077572674" flag="0"/>
      <psa03 value="0.0306927892" flag="0"/>
      <psa10 value="0.0151874037" flag="0"/>
      <psa30 value="0.0005307083" flag="0"/>
    </comp>
    <comp name="--.HHN">
      <acc value="0.0081431277" flag="0"/>
      <vel value="0.0069395194" flag="0"/>
      <psa03 value="0.0252077858" flag="0"/>
      <psa10 value="0.0094255221" flag="0"/>
      <psa30 value="0.0009765658" flag="0"/>
    </comp>
    <comp name="--.HHZ">
      <acc value="0.0065690845" flag="0"/>
      <vel value="0.0041815492" flag="0"/>
      <psa03 value="0.0195433761" flag="0"/>
      <psa10 value="0.0076275812" flag="0"/>
      <psa30 value="0.0004794579" flag="0"/>
    </comp>
  </station>
  <station code="GVD" name="GVD" netid="HL" insttype="120" lat="34.8391" lon="24.0874">
    <comp name="--.HHE">
      <acc value="0.1217592041" flag="0"/>
      <vel value="0.0194552630" flag="0"/>
      <psa03 value="0.1084577449" flag="0"/>
      <psa10 value="0.0162898490" flag="0"/>
      <psa30 value="0.0037444546" flag="0"/>
    </comp>
    <comp name="--.HHN">
      <acc value="0.0306970804" flag="0"/>
      <vel value="0.0129993266" flag="0"/>
      <psa03 value="0.0755650243" flag="0"/>
      <psa10 value="0.0119954784" flag="0"/>
      <psa30 value="0.0008083311" flag="0"/>
    </comp>
    <comp name="--.HHZ">
      <acc value="0.0216249956" flag="0"/>
      <vel value="0.0089612931" flag="0"/>
      <psa03 value="0.0468732276" flag="0"/>
      <psa10 value="0.0046988556" flag="0"/>
      <psa30 value="0.0004248878" flag="0"/>
    </comp>
  </station>
  <station code="IACM" name="IACM" netid="HL" insttype="120" lat="35.3058" lon="25.0709">
    <comp name="--.HHE">
      <acc value="0.1127891688" flag="0"/>
      <vel value="0.0594799064" flag="0"/>
      <psa03 value="0.3911434991" flag="0"/>
      <psa10 value="0.0826684192" flag="0"/>
      <psa30 value="0.0024242944" flag="0"/>
    </comp>
    <comp name="--.HHN">
      <acc value="0.0932707268" flag="0"/>
      <vel value="0.0579112785" flag="0"/>
      <psa03 value="0.2857181986" flag="0"/>
      <psa10 value="0.0506014505" flag="0"/>
      <psa30 value="0.0029795116" flag="0"/>
    </comp>
    <comp name="--.HHZ">
      <acc value="0.0831848185" flag="0"/>
      <vel value="0.0276090548" flag="0"/>
      <psa03 value="0.1533861874" flag="0"/>
      <psa10 value="0.0252289312" flag="0"/>
      <psa30 value="0.0011227353" flag="0"/>
    </comp>
  </station>
  <station code="IDI" name="IDI" netid="HL" insttype="120" lat="35.288" lon="24.89">
    <comp name="--.HHN">
      <acc value="0.0307280453" flag="0"/>
      <vel value="0.0112240489" flag="0"/>
      <psa03 value="0.0519145744" flag="0"/>
      <psa10 value="0.0059823513" flag="0"/>
      <psa30 value="0.0004854101" flag="0"/>
    </comp>
    <comp name="--.HHE">
      <acc value="0.0279887224" flag="0"/>
      <vel value="0.0100708466" flag="0"/>
      <psa03 value="0.0677168933" flag="0"/>
      <psa10 value="0.0095441168" flag="0"/>
      <psa30 value="0.0004955110" flag="0"/>
    </comp>
    <comp name="--.HHZ">
      <acc value="0.0346822752" flag="0"/>
      <vel value="0.0163798274" flag="0"/>
      <psa03 value="0.0853436845" flag="0"/>
      <psa10 value="0.0071240634" flag="0"/>
      <psa30 value="0.0004555053" flag="0"/>
    </comp>
  </station>
  <station code="IMMV" name="IMMV" netid="HL" insttype="120" lat="35.4606" lon="23.9811">
    <comp name="--.HHE">
      <acc value="0.0103327290" flag="0"/>
      <vel value="0.0076499620" flag="0"/>
      <psa03 value="0.0298201115" flag="0"/>
      <psa10 value="0.0150993885" flag="0"/>
      <psa30 value="0.0005275902" flag="0"/>
    </comp>
    <comp name="--.HHN">
      <acc value="0.0080035949" flag="0"/>
      <vel value="0.0068364979" flag="0"/>
      <psa03 value="0.0245252105" flag="0"/>
      <psa10 value="0.0093693741" flag="0"/>
      <psa30 value="0.0009732532" flag="0"/>
    </comp>
    <comp name="--.HHZ">
      <acc value="0.0064074008" flag="0"/>
      <vel value="0.0041372295" flag="0"/>
      <psa03 value="0.0190137657" flag="0"/>
      <psa10 value="0.0075864454" flag="0"/>
      <psa30 value="0.0004771909" flag="0"/>
    </comp>
  </station>
  <station code="NPS" name="NPS" netid="HL" insttype="CMG3ESPC-120s" lat="35.2613" lon="25.6104">
    <comp name="--.HHE">
      <acc value="0.0076829606" flag="0"/>
      <vel value="0.0029244461" flag="0"/>
      <psa03 value="0.0174793765" flag="0"/>
      <psa10 value="0.0043557726" flag="0"/>
      <psa30 value="0.0001978194" flag="0"/>
    </comp>
    <comp name="--.HHN">
      <acc value="0.0155581298" flag="0"/>
      <vel value="0.0057993378" flag="0"/>
      <psa03 value="0.0349575439" flag="0"/>
      <psa10 value="0.0094776124" flag="0"/>
      <psa30 value="0.0004834800" flag="0"/>
    </comp>
    <comp name="--.HHZ">
      <acc value="0.0104455869" flag="0"/>
      <vel value="0.0035766310" flag="0"/>
      <psa03 value="0.0169887088" flag="0"/>
      <psa10 value="0.0058944064" flag="0"/>
      <psa30 value="0.0002983869" flag="0"/>
    </comp>
  </station>
  <station code="VAM" name="VAM" netid="HL" insttype="CMG3ESPC-120s" lat="35.407" lon="24.1997">
    <comp name="--.HHE">
      <acc value="0.0171234925" flag="0"/>
      <vel value="0.0099778523" flag="0"/>
      <psa03 value="0.0413258098" flag="0"/>
      <psa10 value="0.0150102502" flag="0"/>
      <psa30 value="0.0008091657" flag="0"/>
    </comp>
    <comp name="--.HHN">
      <acc value="0.0157459913" flag="0"/>
      <vel value="0.0088172358" flag="0"/>
      <psa03 value="0.0496804539" flag="0"/>
      <psa10 value="0.0116838246" flag="0"/>
      <psa30 value="0.0006098356" flag="0"/>
    </comp>
    <comp name="--.HHZ">
      <acc value="0.0088209865" flag="0"/>
      <vel value="0.0051785460" flag="0"/>
      <psa03 value="0.0275545809" flag="0"/>
      <psa10 value="0.0056360426" flag="0"/>
      <psa30 value="0.0005212793" flag="0"/>
    </comp>
  </station>
  <station code="IDI" name="IDI" netid="MN" insttype="" lat="35.288" lon="24.89">
    <comp name="--.HHE">
      <acc value="0.0288424531" flag="0"/>
      <vel value="0.0101798869" flag="0"/>
      <psa03 value="0.0686315770" flag="0"/>
      <psa10 value="0.0094690808" flag="0"/>
      <psa30 value="0.0004911333" flag="0"/>
    </comp>
    <comp name="--.HHN">
      <acc value="0.0322285252" flag="0"/>
      <vel value="0.0113435090" flag="0"/>
      <psa03 value="0.0523062628" flag="0"/>
      <psa10 value="0.0059506662" flag="0"/>
      <psa30 value="0.0004820571" flag="0"/>
    </comp>
    <comp name="--.HHZ">
      <acc value="0.0357839612" flag="0"/>
      <vel value="0.0164678581" flag="0"/>
      <psa03 value="0.0871649339" flag="0"/>
      <psa10 value="0.0071821998" flag="0"/>
      <psa30 value="0.0004546204" flag="0"/>
    </comp>
  </station>
</stationlist>
