<stationlist created="1778069369">
	<station code="IMMV" name="IMMV" netid="GE" source="GEOFON" insttype="" lat="35.4606" lon="23.9811">
		<comp name="--.HNE" depth="0.0">
			<acc value="0.0102636730421669" flag="0"/>
			<vel value="0.00772812921036077" flag="0"/>
			<psa03 value="0.0304247005004248" flag="0"/>
			<psa10 value="0.0152051914971535" flag="0"/>
			<psa30 value="0.000557935316529849" flag="0"/>
		</comp>
		<comp name="--.HNN" depth="0.0">
			<acc value="0.00810351788217245" flag="0"/>
			<vel value="0.0069602627760309" flag="0"/>
			<psa03 value="0.0246082136400495" flag="0"/>
			<psa10 value="0.00940257472082981" flag="0"/>
			<psa30 value="0.00106531193958105" flag="0"/>
		</comp>
		<comp name="--.HNZ" depth="0.0">
			<acc value="0.00640496431462381" flag="0"/>
			<vel value="0.0041868730707138" flag="0"/>
			<psa03 value="0.0190601800193838" flag="0"/>
			<psa10 value="0.00767507812329834" flag="0"/>
			<psa30 value="0.000494848805198085" flag="0"/>
		</comp>
	</station>
	<station code="IACM" name="IACM" netid="HL" source="National Observatory of Athens Seismic Network" insttype="" lat="35.3058" lon="25.0709">
		<comp name="--.HNE" depth="0.0">
			<acc value="0.110115852170603" flag="0"/>
			<vel value="0.0591321898113592" flag="0"/>
			<psa03 value="0.373418456436096" flag="0"/>
			<psa10 value="0.0850620935343935" flag="0"/>
			<psa30 value="0.00240041938507028" flag="0"/>
		</comp>
		<comp name="--.HNN" depth="0.0">
			<acc value="0.0929210883710108" flag="0"/>
			<vel value="0.058786956056763" flag="0"/>
			<psa03 value="0.298027838284308" flag="0"/>
			<psa10 value="0.0502423660778559" flag="0"/>
			<psa30 value="0.00292077124804078" flag="0"/>
		</comp>
		<comp name="--.HNZ" depth="0.0">
			<acc value="0.084955985983459" flag="0"/>
			<vel value="0.0268195977862163" flag="0"/>
			<psa03 value="0.157313598469843" flag="0"/>
			<psa10 value="0.0241205235879103" flag="0"/>
			<psa30 value="0.00108097171189745" flag="0"/>
		</comp>
	</station>
	<station code="IMMV" name="IMMV" netid="HL" source="National Observatory of Athens Seismic Network" insttype="" lat="35.4606" lon="23.9811">
		<comp name="--.HNE" depth="0.0">
			<acc value="0.0100554909589679" flag="0"/>
			<vel value="0.00757133114220971" flag="0"/>
			<psa03 value="0.029798309607769" flag="0"/>
			<psa10 value="0.0148991548038845" flag="0"/>
			<psa30 value="0.000546749764875281" flag="0"/>
		</comp>
		<comp name="--.HNN" depth="0.0">
			<acc value="0.0079390895007394" flag="0"/>
			<vel value="0.00681902343359277" flag="0"/>
			<psa03 value="0.0240713071606302" flag="0"/>
			<psa10 value="0.00920928838823887" flag="0"/>
			<psa30 value="0.0010433882583381" flag="0"/>
		</comp>
		<comp name="--.HNZ" depth="0.0">
			<acc value="0.0062750063008778" flag="0"/>
			<vel value="0.00410193393216056" flag="0"/>
			<psa03 value="0.0186575001598193" flag="0"/>
			<psa10 value="0.0075180329780682" flag="0"/>
			<psa30 value="0.000484558097675883" flag="0"/>
		</comp>
	</station>
</stationlist>
