<?xml version="1.0" encoding="UTF-8" standalone="yes"?>
<!DOCTYPE earthquake SYSTEM "stationlist.dtd">
<stationlist created="" xmlns="ch.ethz.sed.shakemap.usgs.xml">
  <station code="IDI" name="IDI" netid="MN" insttype="" lat="35.288" lon="24.89">
    <comp name="--.HHN">
      <acc value="0.0497218351" flag="0"/>
      <vel value="0.0158372418" flag="0"/>
      <psa03 value="0.1174383028" flag="0"/>
      <psa10 value="0.0065707855" flag="0"/>
      <psa30 value="0.0004635954" flag="0"/>
    </comp>
    <comp name="--.HHE">
      <acc value="0.0464944163" flag="0"/>
      <vel value="0.0208641749" flag="0"/>
      <psa03 value="0.1124420401" flag="0"/>
      <psa10 value="0.0129389562" flag="0"/>
      <psa30 value="0.0012093639" flag="0"/>
    </comp>
    <comp name="--.HHZ">
      <acc value="0.0441337673" flag="0"/>
      <vel value="0.0130686413" flag="0"/>
      <psa03 value="0.1363908659" flag="0"/>
      <psa10 value="0.0072671176" flag="0"/>
      <psa30 value="0.0006327507" flag="0"/>
    </comp>
  </station>
</stationlist>
