<?xml version="1.0" encoding="UTF-8" standalone="yes"?>
<!DOCTYPE earthquake SYSTEM "stationlist.dtd">
<stationlist created="" xmlns="ch.ethz.sed.shakemap.usgs.xml">
  <station code="IMMV" name="IMMV" netid="GE" insttype="STS-2/N" lat="35.4606" lon="23.9811">
    <comp name="--.HHE">
      <acc value="0.0238139983" flag="0"/>
      <vel value="0.0093505474" flag="0"/>
      <psa03 value="0.0647518939" flag="0"/>
      <psa10 value="0.0150800120" flag="0"/>
      <psa30 value="0.0011065641" flag="0"/>
    </comp>
    <comp name="--.HHN">
      <acc value="0.0198154580" flag="0"/>
      <vel value="0.0108021965" flag="0"/>
      <psa03 value="0.0774758956" flag="0"/>
      <psa10 value="0.0085017141" flag="0"/>
      <psa30 value="0.0010241247" flag="0"/>
    </comp>
    <comp name="--.HHZ">
      <acc value="0.0155236380" flag="0"/>
      <vel value="0.0071438195" flag="0"/>
      <psa03 value="0.0535306272" flag="0"/>
      <psa10 value="0.0079237961" flag="0"/>
      <psa30 value="0.0005199110" flag="0"/>
    </comp>
  </station>
  <station code="CHAN" name="CHAN" netid="HC" insttype="120" lat="35.5193" lon="24.0428">
    <comp name="--.HHN">
      <acc value="0.0196600036" flag="0"/>
      <vel value="0.0219048402" flag="0"/>
      <psa03 value="0.0632384304" flag="0"/>
      <psa10 value="0.0350645144" flag="0"/>
      <psa30 value="0.0017635434" flag="0"/>
    </comp>
    <comp name="--.HHE">
      <acc value="0.0186578632" flag="0"/>
      <vel value="0.0154648245" flag="0"/>
      <psa03 value="0.0668895167" flag="0"/>
      <psa10 value="0.0248504906" flag="0"/>
      <psa30 value="0.0023655327" flag="0"/>
    </comp>
    <comp name="--.HHZ">
      <acc value="0.0153731846" flag="0"/>
      <vel value="0.0094009281" flag="0"/>
      <psa03 value="0.0429107075" flag="0"/>
      <psa10 value="0.0171455783" flag="0"/>
      <psa30 value="0.0015901363" flag="0"/>
    </comp>
  </station>
  <station code="IPPL" name="IPPL" netid="HC" insttype="60" lat="35.3486" lon="24.4632">
    <comp name="--.HHN">
      <acc value="0.0000000000" flag="0"/>
      <vel value="-100.0000000000" flag="0"/>
      <psa03 value="0.0000000000" flag="0"/>
      <psa10 value="0.0000000000" flag="0"/>
      <psa30 value="0.0000000000" flag="0"/>
    </comp>
    <comp name="--.HHE">
      <acc value="0.0000000000" flag="0"/>
      <vel value="-100.0000000000" flag="0"/>
      <psa03 value="0.0000000000" flag="0"/>
      <psa10 value="0.0000000000" flag="0"/>
      <psa30 value="0.0000000000" flag="0"/>
    </comp>
    <comp name="--.HHZ">
      <acc value="0.0327833755" flag="0"/>
      <vel value="0.0112625378" flag="0"/>
      <psa03 value="0.1003759559" flag="0"/>
      <psa10 value="0.0060882001" flag="0"/>
      <psa30 value="0.0006106315" flag="0"/>
    </comp>
  </station>
  <station code="KNSS" name="KNSS" netid="HC" insttype="60" lat="35.3042" lon="25.1802">
    <comp name="--.HHZ">
      <acc value="0.0805714862" flag="0"/>
      <vel value="0.0265812930" flag="0"/>
      <psa03 value="0.1419051475" flag="0"/>
      <psa10 value="0.0051740152" flag="0"/>
      <psa30 value="0.0008874144" flag="0"/>
    </comp>
    <comp name="--.HHE">
      <acc value="0.0950148191" flag="0"/>
      <vel value="0.0333071286" flag="0"/>
      <psa03 value="0.1614367271" flag="0"/>
      <psa10 value="0.0111974682" flag="0"/>
      <psa30 value="0.0009868452" flag="0"/>
    </comp>
    <comp name="--.HHN">
      <acc value="0.1004347175" flag="0"/>
      <vel value="0.0360470968" flag="0"/>
      <psa03 value="0.2425728957" flag="0"/>
      <psa10 value="0.0098710467" flag="0"/>
      <psa30 value="0.0014284797" flag="0"/>
    </comp>
  </station>
  <station code="PFKS" name="PFKS" netid="HC" insttype="120" lat="35.0429" lon="25.4733">
    <comp name="--.HHE">
      <acc value="0.0707092287" flag="0"/>
      <vel value="0.0216878232" flag="0"/>
      <psa03 value="0.1555209987" flag="0"/>
      <psa10 value="0.0194630110" flag="0"/>
      <psa30 value="0.0011646361" flag="0"/>
    </comp>
    <comp name="--.HHZ">
      <acc value="0.0432142911" flag="0"/>
      <vel value="0.0128736766" flag="0"/>
      <psa03 value="0.0872221523" flag="0"/>
      <psa10 value="0.0061419856" flag="0"/>
      <psa30 value="0.0011183885" flag="0"/>
    </comp>
    <comp name="--.HHN">
      <acc value="0.0706181247" flag="0"/>
      <vel value="0.0270433273" flag="0"/>
      <psa03 value="0.1859085800" flag="0"/>
      <psa10 value="0.0126321834" flag="0"/>
      <psa30 value="0.0008424903" flag="0"/>
    </comp>
  </station>
  <station code="IACM" name="IACM" netid="HL" insttype="120" lat="35.3058" lon="25.0709">
    <comp name="--.HHN">
      <acc value="0.1716330008" flag="0"/>
      <vel value="0.0647581344" flag="0"/>
      <psa03 value="0.4291604235" flag="0"/>
      <psa10 value="0.0567532185" flag="0"/>
      <psa30 value="0.0048089164" flag="0"/>
    </comp>
    <comp name="--.HHE">
      <acc value="0.1964839280" flag="0"/>
      <vel value="0.0785092410" flag="0"/>
      <psa03 value="0.3698094757" flag="0"/>
      <psa10 value="0.0854729602" flag="0"/>
      <psa30 value="0.0039694665" flag="0"/>
    </comp>
    <comp name="--.HHZ">
      <acc value="0.1939858742" flag="0"/>
      <vel value="0.0545261753" flag="0"/>
      <psa03 value="0.2514481937" flag="0"/>
      <psa10 value="0.0304693268" flag="0"/>
      <psa30 value="0.0018883021" flag="0"/>
    </comp>
  </station>
  <station code="IDI" name="IDI" netid="HL" insttype="120" lat="35.288" lon="24.89">
    <comp name="--.HHE">
      <acc value="0.0458616839" flag="0"/>
      <vel value="0.0208101993" flag="0"/>
      <psa03 value="0.1113623334" flag="0"/>
      <psa10 value="0.0129361326" flag="0"/>
      <psa30 value="0.0012088197" flag="0"/>
    </comp>
    <comp name="--.HHN">
      <acc value="0.0466387419" flag="0"/>
      <vel value="0.0156542260" flag="0"/>
      <psa03 value="0.1157812837" flag="0"/>
      <psa10 value="0.0066014992" flag="0"/>
      <psa30 value="0.0004664784" flag="0"/>
    </comp>
    <comp name="--.HHZ">
      <acc value="0.0414058416" flag="0"/>
      <vel value="0.0126074436" flag="0"/>
      <psa03 value="0.1340206292" flag="0"/>
      <psa10 value="0.0072977515" flag="0"/>
      <psa30 value="0.0006384615" flag="0"/>
    </comp>
  </station>
  <station code="IMMV" name="IMMV" netid="HL" insttype="120" lat="35.4606" lon="23.9811">
    <comp name="--.HHN">
      <acc value="0.0190884177" flag="0"/>
      <vel value="0.0105755718" flag="0"/>
      <psa03 value="0.0751987594" flag="0"/>
      <psa10 value="0.0084472687" flag="0"/>
      <psa30 value="0.0010209072" flag="0"/>
    </comp>
    <comp name="--.HHE">
      <acc value="0.0230074987" flag="0"/>
      <vel value="0.0091144468" flag="0"/>
      <psa03 value="0.0628681475" flag="0"/>
      <psa10 value="0.0149754697" flag="0"/>
      <psa30 value="0.0011053888" flag="0"/>
    </comp>
    <comp name="--.HHZ">
      <acc value="0.0150623425" flag="0"/>
      <vel value="0.0069484304" flag="0"/>
      <psa03 value="0.0519870170" flag="0"/>
      <psa10 value="0.0078804777" flag="0"/>
      <psa30 value="0.0005191850" flag="0"/>
    </comp>
  </station>
  <station code="SIVA" name="SIVA" netid="HL" insttype="60" lat="35.0178" lon="24.812">
    <comp name="--.HHE">
      <acc value="0.7099432078" flag="0"/>
      <vel value="0.3259392603" flag="0"/>
      <psa03 value="2.0182615040" flag="0"/>
      <psa10 value="0.1952289528" flag="0"/>
      <psa30 value="0.0090455921" flag="0"/>
    </comp>
    <comp name="--.HHN">
      <acc value="0.7025722357" flag="0"/>
      <vel value="0.2853814465" flag="0"/>
      <psa03 value="1.2669204742" flag="0"/>
      <psa10 value="0.1570815590" flag="0"/>
      <psa30 value="0.0074863938" flag="0"/>
    </comp>
    <comp name="--.HHZ">
      <acc value="0.3078855835" flag="0"/>
      <vel value="0.1472412460" flag="0"/>
      <psa03 value="0.5038097788" flag="0"/>
      <psa10 value="0.0795559703" flag="0"/>
      <psa30 value="0.0044113888" flag="0"/>
    </comp>
  </station>
  <station code="VAM" name="VAM" netid="HL" insttype="CMG3ESPC-120s" lat="35.407" lon="24.1997">
    <comp name="--.HHE">
      <acc value="0.0322292106" flag="0"/>
      <vel value="0.0126683601" flag="0"/>
      <psa03 value="0.0846394526" flag="0"/>
      <psa10 value="0.0081870643" flag="0"/>
      <psa30 value="0.0007543905" flag="0"/>
    </comp>
    <comp name="--.HHN">
      <acc value="0.0445888741" flag="0"/>
      <vel value="0.0192621500" flag="0"/>
      <psa03 value="0.0837051000" flag="0"/>
      <psa10 value="0.0096850425" flag="0"/>
      <psa30 value="0.0007468514" flag="0"/>
    </comp>
    <comp name="--.HHZ">
      <acc value="0.0179673980" flag="0"/>
      <vel value="0.0083793780" flag="0"/>
      <psa03 value="0.0436439023" flag="0"/>
      <psa10 value="0.0069545886" flag="0"/>
      <psa30 value="0.0006133660" flag="0"/>
    </comp>
  </station>
  <station code="IDI" name="IDI" netid="MN" insttype="" lat="35.288" lon="24.89">
    <comp name="--.HHE">
      <acc value="0.0464944163" flag="0"/>
      <vel value="0.0208641749" flag="0"/>
      <psa03 value="0.1124420401" flag="0"/>
      <psa10 value="0.0129389591" flag="0"/>
      <psa30 value="0.0012093445" flag="0"/>
    </comp>
    <comp name="--.HHZ">
      <acc value="0.0441337674" flag="0"/>
      <vel value="0.0130686415" flag="0"/>
      <psa03 value="0.1363908659" flag="0"/>
      <psa10 value="0.0072671177" flag="0"/>
      <psa30 value="0.0006327484" flag="0"/>
    </comp>
    <comp name="--.HHN">
      <acc value="0.0497218351" flag="0"/>
      <vel value="0.0158372411" flag="0"/>
      <psa03 value="0.1174383028" flag="0"/>
      <psa10 value="0.0065707840" flag="0"/>
      <psa30 value="0.0004636845" flag="0"/>
    </comp>
  </station>
</stationlist>
