<?xml version="1.0" encoding="UTF-8" standalone="yes"?>
<!DOCTYPE earthquake SYSTEM "stationlist.dtd">
<stationlist created="" xmlns="ch.ethz.sed.shakemap.usgs.xml">
  <station code="IDI" name="IDI" netid="MN" insttype="" lat="35.288" lon="24.89">
    <comp name="--.HHE">
      <acc value="0.0464944163" flag="0"/>
      <vel value="0.0208641824" flag="0"/>
      <psa03 value="0.1124420401" flag="0"/>
      <psa10 value="0.0129389562" flag="0"/>
      <psa30 value="0.0012094451" flag="0"/>
    </comp>
    <comp name="--.HHZ">
      <acc value="0.0441337672" flag="0"/>
      <vel value="0.0130686413" flag="0"/>
      <psa03 value="0.1363908659" flag="0"/>
      <psa10 value="0.0072671159" flag="0"/>
      <psa30 value="0.0006326874" flag="0"/>
    </comp>
    <comp name="--.HHN">
      <acc value="0.0497218351" flag="0"/>
      <vel value="0.0158372407" flag="0"/>
      <psa03 value="0.1174383028" flag="0"/>
      <psa10 value="0.0065707849" flag="0"/>
      <psa30 value="0.0004637143" flag="0"/>
    </comp>
  </station>
</stationlist>
