<?xml version="1.0" encoding="UTF-8" standalone="yes"?>
<!DOCTYPE earthquake SYSTEM "stationlist.dtd">
<stationlist created="" xmlns="ch.ethz.sed.shakemap.usgs.xml">
  <station code="IMMV" name="IMMV" netid="GE" insttype="STS-2/N" lat="35.4606" lon="23.9811">
    <comp name="--.HHE">
      <acc value="0.0238139982" flag="0"/>
      <vel value="0.0093505474" flag="0"/>
      <psa03 value="0.0647518939" flag="0"/>
      <psa10 value="0.0150800120" flag="0"/>
      <psa30 value="0.0011065561" flag="0"/>
    </comp>
    <comp name="--.HHN">
      <acc value="0.0198154582" flag="0"/>
      <vel value="0.0108021965" flag="0"/>
      <psa03 value="0.0774758956" flag="0"/>
      <psa10 value="0.0085017141" flag="0"/>
      <psa30 value="0.0010241209" flag="0"/>
    </comp>
    <comp name="--.HHZ">
      <acc value="0.0155236383" flag="0"/>
      <vel value="0.0071438202" flag="0"/>
      <psa03 value="0.0535306272" flag="0"/>
      <psa10 value="0.0079237961" flag="0"/>
      <psa30 value="0.0005199264" flag="0"/>
    </comp>
  </station>
  <station code="CHAN" name="CHAN" netid="HC" insttype="120" lat="35.5193" lon="24.0428">
    <comp name="--.HHE">
      <acc value="0.0186578635" flag="0"/>
      <vel value="0.0154648217" flag="0"/>
      <psa03 value="0.0668895167" flag="0"/>
      <psa10 value="0.0248504906" flag="0"/>
      <psa30 value="0.0023654755" flag="0"/>
    </comp>
    <comp name="--.HHN">
      <acc value="0.0196600031" flag="0"/>
      <vel value="0.0219048394" flag="0"/>
      <psa03 value="0.0632384304" flag="0"/>
      <psa10 value="0.0350645144" flag="0"/>
      <psa30 value="0.0017635363" flag="0"/>
    </comp>
    <comp name="--.HHZ">
      <acc value="0.0153731848" flag="0"/>
      <vel value="0.0094009286" flag="0"/>
      <psa03 value="0.0429107075" flag="0"/>
      <psa10 value="0.0171455783" flag="0"/>
      <psa30 value="0.0015900981" flag="0"/>
    </comp>
  </station>
  <station code="KNSS" name="KNSS" netid="HC" insttype="60" lat="35.3042" lon="25.1802">
    <comp name="--.HHZ">
      <acc value="0.0805714861" flag="0"/>
      <vel value="0.0265812930" flag="0"/>
      <psa03 value="0.1419051475" flag="0"/>
      <psa10 value="0.0051740137" flag="0"/>
      <psa30 value="0.0008874436" flag="0"/>
    </comp>
    <comp name="--.HHN">
      <acc value="0.1004347175" flag="0"/>
      <vel value="0.0360470982" flag="0"/>
      <psa03 value="0.2425728957" flag="0"/>
      <psa10 value="0.0098710468" flag="0"/>
      <psa30 value="0.0014284892" flag="0"/>
    </comp>
    <comp name="--.HHE">
      <acc value="0.0950148191" flag="0"/>
      <vel value="0.0333071322" flag="0"/>
      <psa03 value="0.1614367271" flag="0"/>
      <psa10 value="0.0111974683" flag="0"/>
      <psa30 value="0.0009868568" flag="0"/>
    </comp>
  </station>
  <station code="PFKS" name="PFKS" netid="HC" insttype="120" lat="35.0429" lon="25.4733">
    <comp name="--.HHN">
      <acc value="0.0706181247" flag="0"/>
      <vel value="0.0270433274" flag="0"/>
      <psa03 value="0.1859085800" flag="0"/>
      <psa10 value="0.0126321834" flag="0"/>
      <psa30 value="0.0008424669" flag="0"/>
    </comp>
    <comp name="--.HHE">
      <acc value="0.0707092287" flag="0"/>
      <vel value="0.0216878224" flag="0"/>
      <psa03 value="0.1555209987" flag="0"/>
      <psa10 value="0.0194630110" flag="0"/>
      <psa30 value="0.0011646425" flag="0"/>
    </comp>
    <comp name="--.HHZ">
      <acc value="0.0432142909" flag="0"/>
      <vel value="0.0128736771" flag="0"/>
      <psa03 value="0.0872221523" flag="0"/>
      <psa10 value="0.0061419856" flag="0"/>
      <psa30 value="0.0011183764" flag="0"/>
    </comp>
  </station>
  <station code="IACM" name="IACM" netid="HL" insttype="120" lat="35.3058" lon="25.0709">
    <comp name="--.HHZ">
      <acc value="0.1939858742" flag="0"/>
      <vel value="0.0545261755" flag="0"/>
      <psa03 value="0.2514481937" flag="0"/>
      <psa10 value="0.0304693264" flag="0"/>
      <psa30 value="0.0018883219" flag="0"/>
    </comp>
    <comp name="--.HHN">
      <acc value="0.1716330007" flag="0"/>
      <vel value="0.0647581280" flag="0"/>
      <psa03 value="0.4291604235" flag="0"/>
      <psa10 value="0.0567532185" flag="0"/>
      <psa30 value="0.0048088503" flag="0"/>
    </comp>
    <comp name="--.HHE">
      <acc value="0.1964839280" flag="0"/>
      <vel value="0.0785092361" flag="0"/>
      <psa03 value="0.3698094757" flag="0"/>
      <psa10 value="0.0854729602" flag="0"/>
      <psa30 value="0.0039694667" flag="0"/>
    </comp>
  </station>
  <station code="IDI" name="IDI" netid="HL" insttype="120" lat="35.288" lon="24.89">
    <comp name="--.HHE">
      <acc value="0.0458616839" flag="0"/>
      <vel value="0.0208101997" flag="0"/>
      <psa03 value="0.1113623334" flag="0"/>
      <psa10 value="0.0129361326" flag="0"/>
      <psa30 value="0.0012088365" flag="0"/>
    </comp>
    <comp name="--.HHZ">
      <acc value="0.0414058416" flag="0"/>
      <vel value="0.0126074436" flag="0"/>
      <psa03 value="0.1340206292" flag="0"/>
      <psa10 value="0.0072977517" flag="0"/>
      <psa30 value="0.0006384583" flag="0"/>
    </comp>
    <comp name="--.HHN">
      <acc value="0.0466387419" flag="0"/>
      <vel value="0.0156542259" flag="0"/>
      <psa03 value="0.1157812837" flag="0"/>
      <psa10 value="0.0066014992" flag="0"/>
      <psa30 value="0.0004664503" flag="0"/>
    </comp>
  </station>
  <station code="IMMV" name="IMMV" netid="HL" insttype="120" lat="35.4606" lon="23.9811">
    <comp name="--.HHN">
      <acc value="0.0190884179" flag="0"/>
      <vel value="0.0105755718" flag="0"/>
      <psa03 value="0.0751987594" flag="0"/>
      <psa10 value="0.0084472687" flag="0"/>
      <psa30 value="0.0010209034" flag="0"/>
    </comp>
    <comp name="--.HHE">
      <acc value="0.0230074986" flag="0"/>
      <vel value="0.0091144468" flag="0"/>
      <psa03 value="0.0628681475" flag="0"/>
      <psa10 value="0.0149754697" flag="0"/>
      <psa30 value="0.0011053808" flag="0"/>
    </comp>
    <comp name="--.HHZ">
      <acc value="0.0150623422" flag="0"/>
      <vel value="0.0069484311" flag="0"/>
      <psa03 value="0.0519870170" flag="0"/>
      <psa10 value="0.0078804777" flag="0"/>
      <psa30 value="0.0005192004" flag="0"/>
    </comp>
  </station>
  <station code="SIVA" name="SIVA" netid="HL" insttype="60" lat="35.0178" lon="24.812">
    <comp name="--.HHE">
      <acc value="0.7099432078" flag="0"/>
      <vel value="0.3259392618" flag="0"/>
      <psa03 value="2.0182615040" flag="0"/>
      <psa10 value="0.1952289563" flag="0"/>
      <psa30 value="0.0090456094" flag="0"/>
    </comp>
    <comp name="--.HHN">
      <acc value="0.7025722356" flag="0"/>
      <vel value="0.2853814462" flag="0"/>
      <psa03 value="1.2669204742" flag="0"/>
      <psa10 value="0.1570815607" flag="0"/>
      <psa30 value="0.0074864946" flag="0"/>
    </comp>
    <comp name="--.HHZ">
      <acc value="0.3078855838" flag="0"/>
      <vel value="0.1472412463" flag="0"/>
      <psa03 value="0.5038097788" flag="0"/>
      <psa10 value="0.0795559675" flag="0"/>
      <psa30 value="0.0044114656" flag="0"/>
    </comp>
  </station>
  <station code="VAM" name="VAM" netid="HL" insttype="CMG3ESPC-120s" lat="35.407" lon="24.1997">
    <comp name="--.HHZ">
      <acc value="0.0179673977" flag="0"/>
      <vel value="0.0083793776" flag="0"/>
      <psa03 value="0.0436439023" flag="0"/>
      <psa10 value="0.0069545886" flag="0"/>
      <psa30 value="0.0006133611" flag="0"/>
    </comp>
    <comp name="--.HHN">
      <acc value="0.0445888737" flag="0"/>
      <vel value="0.0192621502" flag="0"/>
      <psa03 value="0.0837051000" flag="0"/>
      <psa10 value="0.0096850424" flag="0"/>
      <psa30 value="0.0007467232" flag="0"/>
    </comp>
    <comp name="--.HHE">
      <acc value="0.0322292111" flag="0"/>
      <vel value="0.0126683595" flag="0"/>
      <psa03 value="0.0846394526" flag="0"/>
      <psa10 value="0.0081870643" flag="0"/>
      <psa30 value="0.0007543503" flag="0"/>
    </comp>
  </station>
  <station code="IDI" name="IDI" netid="MN" insttype="" lat="35.288" lon="24.89">
    <comp name="--.HHN">
      <acc value="0.0497218351" flag="0"/>
      <vel value="0.0158372410" flag="0"/>
      <psa03 value="0.1174383028" flag="0"/>
      <psa10 value="0.0065707841" flag="0"/>
      <psa30 value="0.0004636563" flag="0"/>
    </comp>
    <comp name="--.HHZ">
      <acc value="0.0441337673" flag="0"/>
      <vel value="0.0130686416" flag="0"/>
      <psa03 value="0.1363908659" flag="0"/>
      <psa10 value="0.0072671178" flag="0"/>
      <psa30 value="0.0006327452" flag="0"/>
    </comp>
    <comp name="--.HHE">
      <acc value="0.0464944163" flag="0"/>
      <vel value="0.0208641753" flag="0"/>
      <psa03 value="0.1124420401" flag="0"/>
      <psa10 value="0.0129389592" flag="0"/>
      <psa30 value="0.0012093604" flag="0"/>
    </comp>
  </station>
</stationlist>
