<?xml version="1.0" encoding="UTF-8" standalone="yes"?>
<!DOCTYPE earthquake SYSTEM "stationlist.dtd">
<stationlist created="" xmlns="ch.ethz.sed.shakemap.usgs.xml">
  <station code="AGRB" name="AGRB" netid="KO" insttype="120s," lat="39.5755" lon="42.992">
    <comp name="--.HHN">
      <acc value="0.0157374177" flag="0"/>
      <vel value="0.0071038841" flag="0"/>
      <psa03 value="0.0304963679" flag="0"/>
      <psa10 value="0.0052144633" flag="0"/>
      <psa30 value="0.0007291032" flag="0"/>
    </comp>
    <comp name="--.HHE">
      <acc value="0.0279909323" flag="0"/>
      <vel value="0.0110899983" flag="0"/>
      <psa03 value="0.0372049470" flag="0"/>
      <psa10 value="0.0062936464" flag="0"/>
      <psa30 value="0.0005259469" flag="0"/>
    </comp>
    <comp name="--.HHZ">
      <acc value="0.0101410866" flag="0"/>
      <vel value="0.0052021051" flag="0"/>
      <psa03 value="0.0293982291" flag="0"/>
      <psa10 value="0.0057272609" flag="0"/>
      <psa30 value="0.0006307135" flag="0"/>
    </comp>
  </station>
  <station code="AKDM" name="AKDM" netid="KO" insttype="30s," lat="38.3285" lon="42.98">
    <comp name="--.HHN">
      <acc value="0.0239967543" flag="0"/>
      <vel value="0.0075134983" flag="0"/>
      <psa03 value="0.0268895198" flag="0"/>
      <psa10 value="0.0068047559" flag="0"/>
      <psa30 value="0.0006261960" flag="0"/>
    </comp>
    <comp name="--.HHE">
      <acc value="0.0257775207" flag="0"/>
      <vel value="0.0103067307" flag="0"/>
      <psa03 value="0.0287093475" flag="0"/>
      <psa10 value="0.0091970759" flag="0"/>
      <psa30 value="0.0009292509" flag="0"/>
    </comp>
    <comp name="--.HHZ">
      <acc value="0.0226220038" flag="0"/>
      <vel value="0.0073443419" flag="0"/>
      <psa03 value="0.0201687727" flag="0"/>
      <psa10 value="0.0040185113" flag="0"/>
      <psa30 value="0.0006135035" flag="0"/>
    </comp>
  </station>
  <station code="ERCV" name="ERCV" netid="KO" insttype="CMG-5T" lat="39.0198" lon="43.3381">
    <comp name="--.HNN">
      <acc value="0.0657970331" flag="0"/>
      <vel value="0.0281773375" flag="0"/>
      <psa03 value="0.1691770321" flag="0"/>
      <psa10 value="0.0186848550" flag="0"/>
      <psa30 value="0.0061981207" flag="0"/>
    </comp>
    <comp name="--.HNE">
      <acc value="0.0522359792" flag="0"/>
      <vel value="0.0250183520" flag="0"/>
      <psa03 value="0.2251032632" flag="0"/>
      <psa10 value="0.0214666571" flag="0"/>
      <psa30 value="0.0037092874" flag="0"/>
    </comp>
    <comp name="--.HNZ">
      <acc value="0.0348130916" flag="0"/>
      <vel value="0.0140455338" flag="0"/>
      <psa03 value="0.0722865341" flag="0"/>
      <psa10 value="0.0125303991" flag="0"/>
      <psa30 value="0.0010613590" flag="0"/>
    </comp>
  </station>
  <station code="GURO" name="GURO" netid="KO" insttype="120s," lat="38.5509" lon="42.0322">
    <comp name="--.HHE">
      <acc value="0.0591264312" flag="0"/>
      <vel value="0.0148213658" flag="0"/>
      <psa03 value="0.0624872638" flag="0"/>
      <psa10 value="0.0059600078" flag="0"/>
      <psa30 value="0.0004436729" flag="0"/>
    </comp>
    <comp name="--.HHN">
      <acc value="0.0755698412" flag="0"/>
      <vel value="0.0172219910" flag="0"/>
      <psa03 value="0.0599926683" flag="0"/>
      <psa10 value="0.0055969308" flag="0"/>
      <psa30 value="0.0004661370" flag="0"/>
    </comp>
    <comp name="--.HHZ">
      <acc value="0.0767306830" flag="0"/>
      <vel value="0.0215246746" flag="0"/>
      <psa03 value="0.0821549356" flag="0"/>
      <psa10 value="0.0059686192" flag="0"/>
      <psa30 value="0.0005556243" flag="0"/>
    </comp>
  </station>
  <station code="MLAZ" name="MLAZ" netid="KO" insttype="120s," lat="39.141" lon="42.5496">
    <comp name="--.HHN">
      <acc value="0.2990038286" flag="0"/>
      <vel value="0.1443005669" flag="0"/>
      <psa03 value="0.6843619947" flag="0"/>
      <psa10 value="0.2120457560" flag="0"/>
      <psa30 value="0.0096240201" flag="0"/>
    </comp>
    <comp name="--.HHE">
      <acc value="0.1666604219" flag="0"/>
      <vel value="0.1106307957" flag="0"/>
      <psa03 value="0.6465799528" flag="0"/>
      <psa10 value="0.1033460559" flag="0"/>
      <psa30 value="0.0057951716" flag="0"/>
    </comp>
    <comp name="--.HHZ">
      <acc value="0.0972568246" flag="0"/>
      <vel value="0.0451148329" flag="0"/>
      <psa03 value="0.2239234614" flag="0"/>
      <psa10 value="0.0593359991" flag="0"/>
      <psa30 value="0.0032220278" flag="0"/>
    </comp>
  </station>
  <station code="VANB" name="VANB" netid="KO" insttype="360s," lat="38.509" lon="43.4058">
    <comp name="--.HHE">
      <acc value="0.0109503287" flag="0"/>
      <vel value="0.0093110753" flag="0"/>
      <psa03 value="0.0281584743" flag="0"/>
      <psa10 value="0.0137327650" flag="0"/>
      <psa30 value="0.0010374921" flag="0"/>
    </comp>
    <comp name="--.HHZ">
      <acc value="0.0064653765" flag="0"/>
      <vel value="0.0049368420" flag="0"/>
      <psa03 value="0.0125139752" flag="0"/>
      <psa10 value="0.0151010298" flag="0"/>
      <psa30 value="0.0006713199" flag="0"/>
    </comp>
    <comp name="--.HHN">
      <acc value="0.0061124412" flag="0"/>
      <vel value="0.0065549096" flag="0"/>
      <psa03 value="0.0201300258" flag="0"/>
      <psa10 value="0.0121800315" flag="0"/>
      <psa30 value="0.0010232814" flag="0"/>
    </comp>
  </station>
</stationlist>
