<stationlist created="1778136421">
	<station code="MALA" name="MALA" netid="CL" source="Corinth Riff Laboratory (CRLNET)" insttype="" lat="38.39341" lon="21.87263">
		<comp name="01.HNE" depth="0.0">
			<acc value="0.0116532172750724" flag="0"/>
			<vel value="0.0148915283950353" flag="0"/>
			<psa03 value="0.0241160493672485" flag="0"/>
			<psa10 value="0.0272332389023435" flag="0"/>
			<psa30 value="0.003168643072706" flag="0"/>
		</comp>
		<comp name="01.HNN" depth="0.0">
			<acc value="0.00833839290747513" flag="0"/>
			<vel value="0.0115716634691111" flag="0"/>
			<psa03 value="0.0180758514737818" flag="0"/>
			<psa10 value="0.0222319550465531" flag="0"/>
			<psa30 value="0.00174091925951695" flag="0"/>
		</comp>
		<comp name="01.HNZ" depth="0.0">
			<acc value="0.00531190837837308" flag="0"/>
			<vel value="0.00517662531839675" flag="0"/>
			<psa03 value="0.00912741015012744" flag="0"/>
			<psa10 value="0.00740528261739016" flag="0"/>
			<psa30 value="0.00169080798810449" flag="0"/>
		</comp>
	</station>
	<station code="ROD3" name="ROD3" netid="CL" source="Corinth Riff Laboratory (CRLNET)" insttype="" lat="38.30811" lon="21.89204">
		<comp name="00.HNE" depth="0.0">
			<acc value="0.00545391034375164" flag="0"/>
			<vel value="0.00340926079774437" flag="0"/>
			<psa03 value="0.0204024462179319" flag="0"/>
			<psa10 value="0.00431270129593521" flag="0"/>
			<psa30 value="0.000655025904891498" flag="0"/>
		</comp>
		<comp name="00.HNN" depth="0.0">
			<acc value="0.00461911390585751" flag="0"/>
			<vel value="0.00341058125045704" flag="0"/>
			<psa03 value="0.0157045145230134" flag="0"/>
			<psa10 value="0.00555698206198935" flag="0"/>
			<psa30 value="0.000739588675400032" flag="0"/>
		</comp>
		<comp name="00.HNZ" depth="0.0">
			<acc value="0.00285555428275325" flag="0"/>
			<vel value="0.00171468261093112" flag="0"/>
			<psa03 value="0.00438473624859063" flag="0"/>
			<psa10 value="0.00304023293971157" flag="0"/>
			<psa30 value="0.00064384035323693" flag="0"/>
		</comp>
	</station>
	<station code="E02" name="E02" netid="EG" source="EUROSEISTEST Strong Motion Network" insttype="" lat="40.674206" lon="23.315498">
		<comp name="--.EN1" depth="0.0">
			<acc value="0.00992743924534386" flag="0"/>
			<vel value="0.0128311578917074" flag="0"/>
			<psa03 value="0.0315446313436809" flag="0"/>
			<psa10 value="0.0284360825009052" flag="0"/>
			<psa30 value="0.00141820321983799" flag="0"/>
		</comp>
		<comp name="--.EN2" depth="0.0">
			<acc value="0.0113211264148677" flag="0"/>
			<vel value="0.00906800512836161" flag="0"/>
			<psa03 value="0.0274028673888049" flag="0"/>
			<psa10 value="0.014175829391621" flag="0"/>
			<psa30 value="0.000888392393302053" flag="0"/>
		</comp>
		<comp name="--.EN3" depth="0.0">
			<acc value="0.00619842437537225" flag="0"/>
			<vel value="0.00522114443581342" flag="0"/>
			<psa03 value="0.012400240725916" flag="0"/>
			<psa10 value="0.0071847592363038" flag="0"/>
			<psa30 value="0.000805241937077554" flag="0"/>
		</comp>
	</station>
	<station code="STC" name="STC" netid="EG" source="EUROSEISTEST Strong Motion Network" insttype="" lat="40.64865" lon="23.304856">
		<comp name="--.EN1" depth="0.0">
			<acc value="0.0081387189064828" flag="0"/>
			<vel value="0.00625669451525351" flag="0"/>
			<psa03 value="0.0326107071742932" flag="0"/>
			<psa10 value="0.00854297217998142" flag="0"/>
			<psa30 value="0.00101807963028089" flag="0"/>
		</comp>
		<comp name="--.EN2" depth="0.0">
			<acc value="0.00729938559418315" flag="0"/>
			<vel value="0.00462393499754309" flag="0"/>
			<psa03 value="0.0244358895910737" flag="0"/>
			<psa10 value="0.0087503102901077" flag="0"/>
			<psa30 value="0.000624444074687547" flag="0"/>
		</comp>
		<comp name="--.EN3" depth="0.0">
			<acc value="0.00432859561301747" flag="0"/>
			<vel value="0.00450120324593045" flag="0"/>
			<psa03 value="0.00980175218256283" flag="0"/>
			<psa10 value="0.0054807204145724" flag="0"/>
			<psa30 value="0.000791726875102158" flag="0"/>
		</comp>
	</station>
	<station code="AIGS" name="AIGS" netid="HA" source="Hellenic Seismological Network, University of Athens, Seismological Laboratory (HA)" insttype="" lat="38.25001" lon="22.0878">
		<comp name="--.HNE" depth="0.0">
			<acc value="0.00473663757872246" flag="0"/>
			<vel value="0.0034745909308403" flag="0"/>
			<psa03 value="0.0090379257368909" flag="0"/>
			<psa10 value="0.00414357575491815" flag="0"/>
			<psa30 value="0.00221384438347209" flag="0"/>
		</comp>
		<comp name="--.HNN" depth="0.0">
			<acc value="0.00660138880984925" flag="0"/>
			<vel value="0.00209742521121012" flag="0"/>
			<psa03 value="0.00782988615819756" flag="0"/>
			<psa10 value="0.00382143186726659" flag="0"/>
			<psa30 value="0.00088902764550506" flag="0"/>
		</comp>
		<comp name="--.HNZ" depth="0.0">
			<acc value="0.011330351170907" flag="0"/>
			<vel value="0.00283418309690176" flag="0"/>
			<psa03 value="0.00340040770298865" flag="0"/>
			<psa10 value="0.00401069140126188" flag="0"/>
			<psa30 value="0.00148678352592517" flag="0"/>
		</comp>
	</station>
	<station code="KIAS" name="KIAS" netid="HA" source="Hellenic Seismological Network, University of Athens, Seismological Laboratory (HA)" insttype="" lat="37.9875" lon="22.7543">
		<comp name="--.HNE" depth="0.0">
			<acc value="0.00270702896147903" flag="0"/>
			<vel value="0.00324567734944458" flag="0"/>
			<psa03 value="0.004116283008881" flag="0"/>
			<psa10 value="0.00337445722315006" flag="0"/>
			<psa30 value="0.00161564108098579" flag="0"/>
		</comp>
		<comp name="--.HNN" depth="0.0">
			<acc value="0.00312628982442731" flag="0"/>
			<vel value="0.00257699513249567" flag="0"/>
			<psa03 value="0.00384782976917137" flag="0"/>
			<psa10 value="0.00590731353981042" flag="0"/>
			<psa30 value="0.00132481673796703" flag="0"/>
		</comp>
		<comp name="--.HNZ" depth="0.0">
			<acc value="0.00347112011426174" flag="0"/>
			<vel value="0.00226151059330786" flag="0"/>
			<psa03 value="0.0034898921162252" flag="0"/>
			<psa10 value="0.00287513419729014" flag="0"/>
			<psa30 value="0.00117582518992818" flag="0"/>
		</comp>
	</station>
	<station code="LTRS" name="LTRS" netid="HA" source="Hellenic Seismological Network, University of Athens, Seismological Laboratory (HA)" insttype="" lat="37.97528" lon="22.9765">
		<comp name="--.HNE" depth="0.0">
			<acc value="0.00985438491795098" flag="0"/>
			<vel value="0.00314685274014449" flag="0"/>
			<psa03 value="0.00720349526554175" flag="0"/>
			<psa10 value="0.00673683405051318" flag="0"/>
			<psa30 value="0.000944955403777899" flag="0"/>
		</comp>
		<comp name="--.HNN" depth="0.0">
			<acc value="0.00959863412419346" flag="0"/>
			<vel value="0.00231962096051622" flag="0"/>
			<psa03 value="0.00684555761259558" flag="0"/>
			<psa10 value="0.00490464068949495" flag="0"/>
			<psa30 value="0.000759722668378254" flag="0"/>
		</comp>
		<comp name="--.HNZ" depth="0.0">
			<acc value="0.0212189506105455" flag="0"/>
			<vel value="0.00277463063058981" flag="0"/>
			<psa03 value="0.0034898921162252" flag="0"/>
			<psa10 value="0.0038496194574361" flag="0"/>
			<psa30 value="0.00059775588042011" flag="0"/>
		</comp>
	</station>
	<station code="XLKS" name="XLKS" netid="HA" source="Hellenic Seismological Network, University of Athens, Seismological Laboratory (HA)" insttype="" lat="38.0772" lon="22.6361">
		<comp name="--.HNE" depth="0.0">
			<acc value="0.00589100592975186" flag="0"/>
			<vel value="0.00812940295531242" flag="0"/>
			<psa03 value="0.00948534780307361" flag="0"/>
			<psa10 value="0.0167998037410287" flag="0"/>
			<psa30 value="0.00157984731569118" flag="0"/>
		</comp>
		<comp name="--.HNN" depth="0.0">
			<acc value="0.00456010720029773" flag="0"/>
			<vel value="0.00501970673703585" flag="0"/>
			<psa03 value="0.0109170984148583" flag="0"/>
			<psa10 value="0.0103690063837845" flag="0"/>
			<psa30 value="0.00153555253113909" flag="0"/>
		</comp>
		<comp name="--.HNZ" depth="0.0">
			<acc value="0.0047411145577809" flag="0"/>
			<vel value="0.00228272907954194" flag="0"/>
			<psa03 value="0.00809833939790719" flag="0"/>
			<psa10 value="0.00342680560489343" flag="0"/>
			<psa30 value="0.0013771651197104" flag="0"/>
		</comp>
	</station>
	<station code="LMS2" name="LMS2" netid="HI" source="ITSAK Strong Motion Network" insttype="" lat="40.834985" lon="21.141815">
		<comp name="--.HNE" depth="0.0">
			<acc value="0.00549282349242964" flag="0"/>
			<vel value="0.00328401296548848" flag="0"/>
			<psa03 value="0.0108800430150854" flag="0"/>
			<psa10 value="0.0040159408801229" flag="0"/>
			<psa30 value="0.000483528229290923" flag="0"/>
		</comp>
		<comp name="--.HNN" depth="0.0">
			<acc value="0.00528806097601901" flag="0"/>
			<vel value="0.00386644932165934" flag="0"/>
			<psa03 value="0.0128205927909315" flag="0"/>
			<psa10 value="0.00386530230730751" flag="0"/>
			<psa30 value="0.000325660661962463" flag="0"/>
		</comp>
		<comp name="--.HNZ" depth="0.0">
			<acc value="0.00302375219183598" flag="0"/>
			<vel value="0.00283671415242469" flag="0"/>
			<psa03 value="0.00638279913121379" flag="0"/>
			<psa10 value="0.00917356426609935" flag="0"/>
			<psa30 value="0.000841517621413429" flag="0"/>
		</comp>
	</station>
	<station code="SKO1" name="SKO1" netid="HI" source="ITSAK Strong Motion Network" insttype="" lat="39.123383" lon="23.728705">
		<comp name="--.HNE" depth="0.0">
			<acc value="0.00198992172358093" flag="0"/>
			<vel value="0.001877458525646" flag="0"/>
			<psa03 value="0.00718505800607525" flag="0"/>
			<psa10 value="0.00251623809467323" flag="0"/>
			<psa30 value="0.000229632243258982" flag="0"/>
		</comp>
		<comp name="--.HNN" depth="0.0">
			<acc value="0.00191915365623441" flag="0"/>
			<vel value="0.00194062825118637" flag="0"/>
			<psa03 value="0.00559282166885135" flag="0"/>
			<psa10 value="0.00235924566344607" flag="0"/>
			<psa30 value="0.000170917741732537" flag="0"/>
		</comp>
		<comp name="--.HNZ" depth="0.0">
			<acc value="0.00195491120088112" flag="0"/>
			<vel value="0.00235737535574844" flag="0"/>
			<psa03 value="0.0035915901387618" flag="0"/>
			<psa10 value="0.00300710694044973" flag="0"/>
			<psa30 value="0.000350980255927806" flag="0"/>
		</comp>
	</station>
	<station code="VAS2" name="VAS2" netid="HI" source="ITSAK Strong Motion Network" insttype="" lat="38.630558" lon="20.608081">
		<comp name="--.HNE" depth="0.0">
			<acc value="0.00924520355534773" flag="0"/>
			<vel value="0.0108307982766321" flag="0"/>
			<psa03 value="0.0173035981013649" flag="0"/>
			<psa10 value="0.0237753562506868" flag="0"/>
			<psa30 value="0.00131963012735456" flag="0"/>
		</comp>
		<comp name="--.HNN" depth="0.0">
			<acc value="0.0108786442522951" flag="0"/>
			<vel value="0.0119140122024856" flag="0"/>
			<psa03 value="0.0396809776283663" flag="0"/>
			<psa10 value="0.0254886910006802" flag="0"/>
			<psa30 value="0.00246885313273536" flag="0"/>
		</comp>
		<comp name="--.HNZ" depth="0.0">
			<acc value="0.00511387333174765" flag="0"/>
			<vel value="0.00642041458454683" flag="0"/>
			<psa03 value="0.0112432031403548" flag="0"/>
			<psa10 value="0.0101706165659411" flag="0"/>
			<psa30 value="0.000557317752898724" flag="0"/>
		</comp>
	</station>
	<station code="GINA" name="GINA" netid="HL" source="National Observatory of Athens Seismic Network" insttype="" lat="39.66886" lon="22.389">
		<comp name="00.HNE" depth="0.0">
			<acc value="0.176332834538542" flag="0"/>
			<vel value="0.06298362348178" flag="0"/>
			<psa03 value="0.149483712311646" flag="0"/>
			<psa10 value="0.057603353910694" flag="0"/>
			<psa30 value="0.00890772591563172" flag="0"/>
		</comp>
		<comp name="00.HNN" depth="0.0">
			<acc value="0.0878294810659611" flag="0"/>
			<vel value="0.0509290637342019" flag="0"/>
			<psa03 value="0.175881614216426" flag="0"/>
			<psa10 value="0.0504275988132555" flag="0"/>
			<psa30 value="0.0104043527270129" flag="0"/>
		</comp>
		<comp name="00.HNZ" depth="0.0">
			<acc value="0.115739209961746" flag="0"/>
			<vel value="0.0394106911812212" flag="0"/>
			<psa03 value="0.0679186696465365" flag="0"/>
			<psa10 value="0.0418706517975111" flag="0"/>
			<psa30 value="0.00270824576660399" flag="0"/>
		</comp>
	</station>
	<station code="TRKA" name="TRKA" netid="HL" source="National Observatory of Athens Seismic Network" insttype="" lat="39.55381" lon="21.76624">
		<comp name="00.HNE" depth="0.0">
			<acc value="0.0696770204318599" flag="0"/>
			<vel value="0.0443165977664588" flag="0"/>
			<psa03 value="0.147022890947641" flag="0"/>
			<psa10 value="0.0614811609582996" flag="0"/>
			<psa30 value="0.00803480546450924" flag="0"/>
		</comp>
		<comp name="00.HNN" depth="0.0">
			<acc value="0.0831722903760728" flag="0"/>
			<vel value="0.0486185165123016" flag="0"/>
			<psa03 value="0.14755979742706" flag="0"/>
			<psa10 value="0.0606073456630447" flag="0"/>
			<psa30 value="0.00350420962234304" flag="0"/>
		</comp>
		<comp name="00.HNZ" depth="0.0">
			<acc value="0.06430287146887" flag="0"/>
			<vel value="0.0267453646254493" flag="0"/>
			<psa03 value="0.0970905883616497" flag="0"/>
			<psa10 value="0.0264842543635536" flag="0"/>
			<psa30 value="0.00576190136830104" flag="0"/>
		</comp>
	</station>
	<station code="ANX" name="ANX" netid="HP" source="University of Patras, Seismological Laboratory (PSLNET)" insttype="" lat="38.5933" lon="21.9209">
		<comp name="--.HNE" depth="0.0">
			<acc value="0.0122988182252701" flag="0"/>
			<vel value="0.00822249054555218" flag="0"/>
			<psa03 value="0.0350871316419254" flag="0"/>
			<psa10 value="0.0140170148084309" flag="0"/>
			<psa30 value="0.000882103226675036" flag="0"/>
		</comp>
		<comp name="--.HNN" depth="0.0">
			<acc value="0.0139935742343604" flag="0"/>
			<vel value="0.0100730037427494" flag="0"/>
			<psa03 value="0.0428163884589183" flag="0"/>
			<psa10 value="0.00951058971740459" flag="0"/>
			<psa30 value="0.000998614694989945" flag="0"/>
		</comp>
		<comp name="--.HNZ" depth="0.0">
			<acc value="0.00810260203865468" flag="0"/>
			<vel value="0.00682386972970218" flag="0"/>
			<psa03 value="0.0235731032690789" flag="0"/>
			<psa10 value="0.00906907203152526" flag="0"/>
			<psa30 value="0.00109449750508976" flag="0"/>
		</comp>
	</station>
	<station code="PDO" name="PDO" netid="HP" source="University of Patras, Seismological Laboratory (PSLNET)" insttype="" lat="38.5986" lon="21.1833">
		<comp name="--.HNE" depth="0.0">
			<acc value="0.00482700420845458" flag="0"/>
			<vel value="0.00442410500631218" flag="0"/>
			<psa03 value="0.0181523235961225" flag="0"/>
			<psa10 value="0.00647184450919893" flag="0"/>
			<psa30 value="0.000536906713268878" flag="0"/>
		</comp>
		<comp name="--.HNN" depth="0.0">
			<acc value="0.00581782303824207" flag="0"/>
			<vel value="0.00465311116930408" flag="0"/>
			<psa03 value="0.0170303000488127" flag="0"/>
			<psa10 value="0.00380747089813483" flag="0"/>
			<psa30 value="0.000412869538080761" flag="0"/>
		</comp>
		<comp name="--.HNZ" depth="0.0">
			<acc value="0.00274154897817821" flag="0"/>
			<vel value="0.00175322033615932" flag="0"/>
			<psa03 value="0.0103157002916185" flag="0"/>
			<psa10 value="0.00219883019295928" flag="0"/>
			<psa30 value="0.00034741957734188" flag="0"/>
		</comp>
	</station>
	<station code="SERG" name="SERG" netid="HP" source="University of Patras, Seismological Laboratory (PSLNET)" insttype="" lat="38.4133" lon="22.0566">
		<comp name="--.HNE" depth="0.0">
			<acc value="0.00738169773756628" flag="0"/>
			<vel value="0.0047948973396209" flag="0"/>
			<psa03 value="0.0146856369138623" flag="0"/>
			<psa10 value="0.0133983860148103" flag="0"/>
			<psa30 value="0.000493008023946341" flag="0"/>
		</comp>
		<comp name="--.HNN" depth="0.0">
			<acc value="0.00674650275601746" flag="0"/>
			<vel value="0.00494573346844413" flag="0"/>
			<psa03 value="0.0154088580007852" flag="0"/>
			<psa10 value="0.00777625779516111" flag="0"/>
			<psa30 value="0.00135034882898416" flag="0"/>
		</comp>
		<comp name="--.HNZ" depth="0.0">
			<acc value="0.00384209061730682" flag="0"/>
			<vel value="0.00341526925373792" flag="0"/>
			<psa03 value="0.00866984842347227" flag="0"/>
			<psa10 value="0.00707289870106955" flag="0"/>
			<psa30 value="0.000808173954225538" flag="0"/>
		</comp>
	</station>
</stationlist>
