<?xml version="1.0" encoding="UTF-8" standalone="yes"?>
<!DOCTYPE earthquake SYSTEM "stationlist.dtd">
<stationlist created="" xmlns="ch.ethz.sed.shakemap.usgs.xml">
  <station code="THL" name="THL" netid="HL" insttype="120" lat="39.5647" lon="22.0144">
    <comp name="--.HHE">
      <acc value="0.0752403350" flag="0"/>
      <vel value="0.0209562614" flag="0"/>
      <psa03 value="0.0547744672" flag="0"/>
      <psa10 value="0.0131287710" flag="0"/>
      <psa30 value="0.0020071432" flag="0"/>
    </comp>
    <comp name="--.HHN">
      <acc value="0.0842069826" flag="0"/>
      <vel value="0.0212028945" flag="0"/>
      <psa03 value="0.0608889045" flag="0"/>
      <psa10 value="0.0247342180" flag="0"/>
      <psa30 value="0.0050333074" flag="0"/>
    </comp>
    <comp name="--.HHZ">
      <acc value="0.0640346493" flag="0"/>
      <vel value="0.0183207894" flag="0"/>
      <psa03 value="0.0413590707" flag="0"/>
      <psa10 value="0.0236190974" flag="0"/>
      <psa30 value="0.0037310941" flag="0"/>
    </comp>
  </station>
  <station code="TYRN" name="TYRN" netid="HT" insttype="120P," lat="39.711" lon="22.2325">
    <comp name="--.HHE">
      <acc value="0.1188331345" flag="0"/>
      <vel value="0.0554496373" flag="0"/>
      <psa03 value="0.1709063269" flag="0"/>
      <psa10 value="0.0549217232" flag="0"/>
      <psa30 value="0.0044177011" flag="0"/>
    </comp>
    <comp name="--.HHN">
      <acc value="0.0878775527" flag="0"/>
      <vel value="0.0608138336" flag="0"/>
      <psa03 value="0.1727247381" flag="0"/>
      <psa10 value="0.0442982299" flag="0"/>
      <psa30 value="0.0044823031" flag="0"/>
    </comp>
    <comp name="--.HHZ">
      <acc value="0.0804950297" flag="0"/>
      <vel value="0.0351489290" flag="0"/>
      <psa03 value="0.1176656501" flag="0"/>
      <psa10 value="0.0494898901" flag="0"/>
      <psa30 value="0.0050876807" flag="0"/>
    </comp>
  </station>
  <station code="THL" name="THL" netid="MN" insttype="" lat="39.5647" lon="22.0144">
    <comp name="--.HHE">
      <acc value="0.0752403350" flag="0"/>
      <vel value="0.0209562614" flag="0"/>
      <psa03 value="0.0547744672" flag="0"/>
      <psa10 value="0.0131287710" flag="0"/>
      <psa30 value="0.0020071432" flag="0"/>
    </comp>
    <comp name="--.HHN">
      <acc value="0.0842069826" flag="0"/>
      <vel value="0.0212028945" flag="0"/>
      <psa03 value="0.0608889045" flag="0"/>
      <psa10 value="0.0247342180" flag="0"/>
      <psa30 value="0.0050333074" flag="0"/>
    </comp>
    <comp name="--.HHZ">
      <acc value="0.0640346493" flag="0"/>
      <vel value="0.0183207894" flag="0"/>
      <psa03 value="0.0413590707" flag="0"/>
      <psa10 value="0.0236190974" flag="0"/>
      <psa30 value="0.0037310941" flag="0"/>
    </comp>
  </station>
</stationlist>
