<?xml version="1.0" encoding="UTF-8" standalone="yes"?>
<!DOCTYPE earthquake SYSTEM "stationlist.dtd">
<stationlist created="" xmlns="ch.ethz.sed.shakemap.usgs.xml">
  <station code="ARPRA" name="ARPRA" netid="KO" insttype="CMG-5T" lat="39.0929" lon="38.3356">
    <comp name="--.HNE">
      <acc value="0.0271241081" flag="0"/>
      <vel value="0.0104230470" flag="0"/>
      <psa03 value="0.0650039617" flag="0"/>
      <psa10 value="0.0098572941" flag="0"/>
      <psa30 value="0.0005499744" flag="0"/>
    </comp>
    <comp name="--.HNN">
      <acc value="0.0184704392" flag="0"/>
      <vel value="0.0093879686" flag="0"/>
      <psa03 value="0.0729016539" flag="0"/>
      <psa10 value="0.0099756037" flag="0"/>
      <psa30 value="0.0007063580" flag="0"/>
    </comp>
    <comp name="--.HNZ">
      <acc value="0.0133913101" flag="0"/>
      <vel value="0.0050293460" flag="0"/>
      <psa03 value="0.0350338522" flag="0"/>
      <psa10 value="0.0063367776" flag="0"/>
      <psa30 value="0.0004521979" flag="0"/>
    </comp>
  </station>
  <station code="DYBB" name="DYBB" netid="KO" insttype="CMG-3T" lat="37.9532" lon="40.1393">
    <comp name="--.HHZ">
      <acc value="0.0103896235" flag="0"/>
      <vel value="0.0034825933" flag="0"/>
      <psa03 value="0.0173044383" flag="0"/>
      <psa10 value="0.0045285035" flag="0"/>
      <psa30 value="0.0006953381" flag="0"/>
    </comp>
    <comp name="--.HHE">
      <acc value="0.0147919893" flag="0"/>
      <vel value="0.0048463036" flag="0"/>
      <psa03 value="0.0271773150" flag="0"/>
      <psa10 value="0.0054501909" flag="0"/>
      <psa30 value="0.0009913709" flag="0"/>
    </comp>
    <comp name="--.HHN">
      <acc value="0.0191284252" flag="0"/>
      <vel value="0.0074830374" flag="0"/>
      <psa03 value="0.0467867982" flag="0"/>
      <psa10 value="0.0049471916" flag="0"/>
      <psa30 value="0.0008064133" flag="0"/>
    </comp>
  </station>
  <station code="SINE" name="SINE" netid="KO" insttype="CMG-6T" lat="39.1636" lon="39.3871">
    <comp name="--.HHE">
      <acc value="0.0081790265" flag="0"/>
      <vel value="0.0039031732" flag="0"/>
      <psa03 value="0.0276266002" flag="0"/>
      <psa10 value="0.0020116207" flag="0"/>
      <psa30 value="0.0001103576" flag="0"/>
    </comp>
    <comp name="--.HHN">
      <acc value="0.0091924066" flag="0"/>
      <vel value="0.0037943317" flag="0"/>
      <psa03 value="0.0171804698" flag="0"/>
      <psa10 value="0.0018882130" flag="0"/>
      <psa30 value="0.0001298615" flag="0"/>
    </comp>
    <comp name="--.HHZ">
      <acc value="0.0057789909" flag="0"/>
      <vel value="0.0028603831" flag="0"/>
      <psa03 value="0.0209754312" flag="0"/>
      <psa10 value="0.0019682948" flag="0"/>
      <psa30 value="0.0001368632" flag="0"/>
    </comp>
  </station>
  <station code="URFA" name="URFA" netid="KO" insttype="CMG-3ESP" lat="37.4409" lon="38.8213">
    <comp name="--.HHE">
      <acc value="0.0176587471" flag="0"/>
      <vel value="0.0065991863" flag="0"/>
      <psa03 value="0.0261478699" flag="0"/>
      <psa10 value="0.0066764522" flag="0"/>
      <psa30 value="0.0004039857" flag="0"/>
    </comp>
    <comp name="--.HHN">
      <acc value="0.0191625109" flag="0"/>
      <vel value="0.0088142231" flag="0"/>
      <psa03 value="0.0258893465" flag="0"/>
      <psa10 value="0.0080535097" flag="0"/>
      <psa30 value="0.0005831257" flag="0"/>
    </comp>
    <comp name="--.HHZ">
      <acc value="0.0138587792" flag="0"/>
      <vel value="0.0042415331" flag="0"/>
      <psa03 value="0.0168267797" flag="0"/>
      <psa10 value="0.0032642076" flag="0"/>
      <psa30 value="0.0002893851" flag="0"/>
    </comp>
  </station>
</stationlist>
