<?xml version="1.0" encoding="UTF-8" standalone="yes"?>
<!DOCTYPE earthquake SYSTEM "stationlist.dtd">
<stationlist created="" xmlns="ch.ethz.sed.shakemap.usgs.xml">
  <station code="SVRC" name="SVRC" netid="KO" insttype="CMG-3T" lat="38.3775" lon="39.306">
    <comp name="--.HHZ">
      <acc value="0.0062732550" flag="0"/>
      <vel value="0.0027108080" flag="0"/>
      <psa03 value="0.0154761696" flag="0"/>
      <psa10 value="0.0031027360" flag="0"/>
      <psa30 value="0.0003506713" flag="0"/>
    </comp>
  </station>
  <station code="URFA" name="URFA" netid="KO" insttype="CMG-3ESP" lat="37.4409" lon="38.8213">
    <comp name="--.HHE">
      <acc value="0.0161423477" flag="0"/>
      <vel value="0.0061274965" flag="0"/>
      <psa03 value="0.0237906516" flag="0"/>
      <psa10 value="0.0052089093" flag="0"/>
      <psa30 value="0.0012464497" flag="0"/>
    </comp>
    <comp name="--.HHN">
      <acc value="0.0197049664" flag="0"/>
      <vel value="0.0067542765" flag="0"/>
      <psa03 value="0.0287251611" flag="0"/>
      <psa10 value="0.0035206292" flag="0"/>
      <psa30 value="0.0005964783" flag="0"/>
    </comp>
    <comp name="--.HHZ">
      <acc value="0.0079874462" flag="0"/>
      <vel value="0.0030730542" flag="0"/>
      <psa03 value="0.0140906919" flag="0"/>
      <psa10 value="0.0024745921" flag="0"/>
      <psa30 value="0.0005564760" flag="0"/>
    </comp>
  </station>
</stationlist>
