<?xml version="1.0" encoding="UTF-8" standalone="yes"?>
<!DOCTYPE earthquake SYSTEM "stationlist.dtd">
<stationlist created="" xmlns="ch.ethz.sed.shakemap.usgs.xml">
  <station code="CEYT" name="CEYT" netid="KO" insttype="CMG-3ESP" lat="37.0105" lon="35.7478">
    <comp name="--.HHE">
      <acc value="0.0151441714" flag="0"/>
      <vel value="0.0071175937" flag="0"/>
      <psa03 value="0.0612740619" flag="0"/>
      <psa10 value="0.0030138921" flag="0"/>
      <psa30 value="0.0002927343" flag="0"/>
    </comp>
    <comp name="--.HHN">
      <acc value="0.0090714155" flag="0"/>
      <vel value="0.0040621206" flag="0"/>
      <psa03 value="0.0272108165" flag="0"/>
      <psa10 value="0.0043396154" flag="0"/>
      <psa30 value="0.0003404415" flag="0"/>
    </comp>
    <comp name="--.HHZ">
      <acc value="0.0055180220" flag="0"/>
      <vel value="0.0025097831" flag="0"/>
      <psa03 value="0.0196276666" flag="0"/>
      <psa10 value="0.0029997409" flag="0"/>
      <psa30 value="0.0001843698" flag="0"/>
    </comp>
  </station>
  <station code="GAZ" name="GAZ" netid="KO" insttype="CMG-3T" lat="37.1721" lon="37.2096">
    <comp name="--.HHE">
      <acc value="0.0361517516" flag="0"/>
      <vel value="0.0109219461" flag="0"/>
      <psa03 value="0.0847440100" flag="0"/>
      <psa10 value="0.0049527617" flag="0"/>
      <psa30 value="0.0003377791" flag="0"/>
    </comp>
    <comp name="--.HHN">
      <acc value="0.0382591886" flag="0"/>
      <vel value="0.0122154796" flag="0"/>
      <psa03 value="0.0571059821" flag="0"/>
      <psa10 value="0.0058765653" flag="0"/>
      <psa30 value="0.0003698052" flag="0"/>
    </comp>
    <comp name="--.HHZ">
      <acc value="0.0204467495" flag="0"/>
      <vel value="0.0077593936" flag="0"/>
      <psa03 value="0.0417480654" flag="0"/>
      <psa10 value="0.0036018528" flag="0"/>
      <psa30 value="0.0001929629" flag="0"/>
    </comp>
  </station>
</stationlist>
