<?xml version="1.0" encoding="UTF-8" standalone="yes"?>
<!DOCTYPE earthquake SYSTEM "stationlist.dtd">
<stationlist created="" xmlns="ch.ethz.sed.shakemap.usgs.xml">
  <station code="KTHR" name="KTHR" netid="HC" insttype="120s" lat="36.2447" lon="22.9939">
    <comp name="--.HHE">
      <acc value="0.0193652891" flag="0"/>
      <vel value="0.0067624642" flag="0"/>
      <psa03 value="0.0543985128" flag="0"/>
      <psa10 value="0.0025283493" flag="0"/>
      <psa30 value="0.0002083506" flag="0"/>
    </comp>
    <comp name="--.HHN">
      <acc value="0.0223270593" flag="0"/>
      <vel value="0.0084655264" flag="0"/>
      <psa03 value="0.0535976382" flag="0"/>
      <psa10 value="0.0027669842" flag="0"/>
      <psa30 value="0.0002438027" flag="0"/>
    </comp>
    <comp name="--.HHZ">
      <acc value="0.0162834999" flag="0"/>
      <vel value="0.0045596648" flag="0"/>
      <psa03 value="0.0283425745" flag="0"/>
      <psa10 value="0.0010894142" flag="0"/>
      <psa30 value="0.0001211965" flag="0"/>
    </comp>
  </station>
  <station code="ITM" name="ITM" netid="HL" insttype="DR24" lat="37.1787" lon="21.9252">
    <comp name="--.HHN">
      <acc value="0.0158768836" flag="0"/>
      <vel value="0.0049153959" flag="0"/>
      <psa03 value="0.0186975755" flag="0"/>
      <psa10 value="0.0012414234" flag="0"/>
      <psa30 value="0.0000984254" flag="0"/>
    </comp>
    <comp name="--.HHE">
      <acc value="0.0154226158" flag="0"/>
      <vel value="0.0053861760" flag="0"/>
      <psa03 value="0.0260722408" flag="0"/>
      <psa10 value="0.0015030244" flag="0"/>
      <psa30 value="0.0001294448" flag="0"/>
    </comp>
    <comp name="--.HHZ">
      <acc value="0.0142831181" flag="0"/>
      <vel value="0.0031952392" flag="0"/>
      <psa03 value="0.0174430829" flag="0"/>
      <psa10 value="0.0011098377" flag="0"/>
      <psa30 value="0.0000756909" flag="0"/>
    </comp>
  </station>
  <station code="KTHA" name="KTHA" netid="HL" insttype="120" lat="36.2566" lon="23.0621">
    <comp name="--.HHN">
      <acc value="0.0104360785" flag="0"/>
      <vel value="0.0033458828" flag="0"/>
      <psa03 value="0.0135662497" flag="0"/>
      <psa10 value="0.0015306689" flag="0"/>
      <psa30 value="0.0000979482" flag="0"/>
    </comp>
    <comp name="--.HHE">
      <acc value="0.0088537366" flag="0"/>
      <vel value="0.0028530244" flag="0"/>
      <psa03 value="0.0163334685" flag="0"/>
      <psa10 value="0.0028078746" flag="0"/>
      <psa30 value="0.0000919135" flag="0"/>
    </comp>
    <comp name="--.HHZ">
      <acc value="0.0041187518" flag="0"/>
      <vel value="0.0010472238" flag="0"/>
      <psa03 value="0.0076001421" flag="0"/>
      <psa10 value="0.0006178749" flag="0"/>
      <psa30 value="0.0000658131" flag="0"/>
    </comp>
  </station>
  <station code="VLI" name="VLI" netid="HL" insttype="60" lat="36.718" lon="22.9469">
    <comp name="--.HHN">
      <acc value="0.0126906866" flag="0"/>
      <vel value="0.0047577814" flag="0"/>
      <psa03 value="0.0279249540" flag="0"/>
      <psa10 value="0.0024933694" flag="0"/>
      <psa30 value="0.0001847991" flag="0"/>
    </comp>
    <comp name="--.HHE">
      <acc value="0.0120781582" flag="0"/>
      <vel value="0.0045344963" flag="0"/>
      <psa03 value="0.0223152299" flag="0"/>
      <psa10 value="0.0040761789" flag="0"/>
      <psa30 value="0.0001663618" flag="0"/>
    </comp>
    <comp name="--.HHZ">
      <acc value="0.0114762945" flag="0"/>
      <vel value="0.0038948985" flag="0"/>
      <psa03 value="0.0231731208" flag="0"/>
      <psa10 value="0.0013111354" flag="0"/>
      <psa30 value="0.0001366941" flag="0"/>
    </comp>
  </station>
  <station code="PYL" name="PYL" netid="HP" insttype="120s" lat="36.8955" lon="21.742">
    <comp name="--.HHN">
      <acc value="0.0228122600" flag="0"/>
      <vel value="0.0078583839" flag="0"/>
      <psa03 value="0.0214412324" flag="0"/>
      <psa10 value="0.0020422052" flag="0"/>
      <psa30 value="0.0001338641" flag="0"/>
    </comp>
    <comp name="--.HHE">
      <acc value="0.0388109924" flag="0"/>
      <vel value="0.0084228233" flag="0"/>
      <psa03 value="0.0263302773" flag="0"/>
      <psa10 value="0.0023901573" flag="0"/>
      <psa30 value="0.0002044052" flag="0"/>
    </comp>
    <comp name="--.HHZ">
      <acc value="0.0203845623" flag="0"/>
      <vel value="0.0045180507" flag="0"/>
      <psa03 value="0.0135662983" flag="0"/>
      <psa10 value="0.0013646099" flag="0"/>
      <psa30 value="0.0000952983" flag="0"/>
    </comp>
  </station>
  <station code="VALY" name="VALY" netid="HP" insttype="DC_100" lat="37.1641" lon="21.9836">
    <comp name="--.HNE">
      <acc value="0.0104018137" flag="0"/>
      <vel value="0.0024536774" flag="0"/>
      <psa03 value="0.0138915833" flag="0"/>
      <psa10 value="0.0014139494" flag="0"/>
      <psa30 value="0.0000967675" flag="0"/>
    </comp>
    <comp name="--.HNN">
      <acc value="0.0104676697" flag="0"/>
      <vel value="0.0031431456" flag="0"/>
      <psa03 value="0.0191863115" flag="0"/>
      <psa10 value="0.0014934279" flag="0"/>
      <psa30 value="0.0002153898" flag="0"/>
    </comp>
    <comp name="--.HNZ">
      <acc value="0.0090325076" flag="0"/>
      <vel value="0.0020565959" flag="0"/>
      <psa03 value="0.0080509533" flag="0"/>
      <psa10 value="0.0008371838" flag="0"/>
      <psa30 value="0.0000837907" flag="0"/>
    </comp>
  </station>
</stationlist>
