<stationlist created="1675762261">
	<station code="TUNC" name="TUNC" netid="KO" source="Bogazici University Kandilli Observatory And Earthquake Research Institute (KOERI)" insttype="" lat="39.6942" lon="37.5388">
		<comp name=".HNE" depth="0.0">
			<acc value="0.0133175940782" flag="0"/>
			<vel value="0.00671647247347" flag="0"/>
			<psa03 value="0.0296631603513" flag="0"/>
			<psa10 value="0.00689072053893" flag="0"/>
			<psa30 value="0.00043033832551" flag="0"/>
		</comp>
		<comp name=".HNN" depth="0.0">
			<acc value="0.00718908066526" flag="0"/>
			<vel value="0.00436150094252" flag="0"/>
			<psa03 value="0.0209119751595" flag="0"/>
			<psa10 value="0.0038255890515" flag="0"/>
			<psa30 value="0.000444436212551" flag="0"/>
		</comp>
		<comp name=".HNZ" depth="0.0">
			<acc value="0.00892469713069" flag="0"/>
			<vel value="0.00544071890573" flag="0"/>
			<psa03 value="0.0122540031738" flag="0"/>
			<psa10 value="0.00402660658668" flag="0"/>
			<psa30 value="0.000528566577443" flag="0"/>
		</comp>
	</station>
</stationlist>
