<?xml version="1.0" encoding="UTF-8" standalone="yes"?>
<!DOCTYPE earthquake SYSTEM "stationlist.dtd">
<stationlist created="" xmlns="ch.ethz.sed.shakemap.usgs.xml">
  <station code="DARE" name="DARE" netid="KO" insttype="CMG-3ESP" lat="38.5712" lon="37.4832">
    <comp name="--.HHE">
      <acc value="0.0720404520" flag="0"/>
      <vel value="0.0230186746" flag="0"/>
      <psa03 value="0.1028937184" flag="0"/>
      <psa10 value="0.0058058695" flag="0"/>
      <psa30 value="0.0005869539" flag="0"/>
    </comp>
    <comp name="--.HHZ">
      <acc value="0.0416699673" flag="0"/>
      <vel value="0.0187561537" flag="0"/>
      <psa03 value="0.0864818054" flag="0"/>
      <psa10 value="0.0179970491" flag="0"/>
      <psa30 value="0.0006779595" flag="0"/>
    </comp>
  </station>
  <station code="KMRS" name="KMRS" netid="KO" insttype="CMG-3T" lat="37.5053" lon="36.9">
    <comp name="--.HHE">
      <acc value="0.0259218430" flag="0"/>
      <vel value="0.0085296596" flag="0"/>
      <psa03 value="0.0409716397" flag="0"/>
      <psa10 value="0.0080261930" flag="0"/>
      <psa30 value="0.0004339408" flag="0"/>
    </comp>
    <comp name="--.HHN">
      <acc value="0.0280097641" flag="0"/>
      <vel value="0.0115563275" flag="0"/>
      <psa03 value="0.0561831391" flag="0"/>
      <psa10 value="0.0093525736" flag="0"/>
      <psa30 value="0.0006858534" flag="0"/>
    </comp>
    <comp name="--.HHZ">
      <acc value="0.0190643237" flag="0"/>
      <vel value="0.0075508946" flag="0"/>
      <psa03 value="0.0421680374" flag="0"/>
      <psa10 value="0.0050956208" flag="0"/>
      <psa30 value="0.0004774353" flag="0"/>
    </comp>
  </station>
</stationlist>
