<stationlist created="1675760466">
	<station code="ARPRA" name="ARPRA" netid="KO" source="Bogazici University Kandilli Observatory And Earthquake Research Institute (KOERI)" insttype="" lat="39.0929" lon="38.3356">
		<comp name=".HNE" depth="0.0">
			<acc value="0.028802977888" flag="0"/>
			<vel value="0.014046030008" flag="0"/>
			<psa03 value="0.0789757161285" flag="0"/>
			<psa10 value="0.0105004931061" flag="0"/>
			<psa30 value="0.000934405337268" flag="0"/>
		</comp>
		<comp name=".HNN" depth="0.0">
			<acc value="0.0170838819803" flag="0"/>
			<vel value="0.0145473335884" flag="0"/>
			<psa03 value="0.0553095441943" flag="0"/>
			<psa10 value="0.0224258912302" flag="0"/>
			<psa30 value="0.000840608134079" flag="0"/>
		</comp>
		<comp name=".HNZ" depth="0.0">
			<acc value="0.0107351664991" flag="0"/>
			<vel value="0.00672523662275" flag="0"/>
			<psa03 value="0.0280172726735" flag="0"/>
			<psa10 value="0.00832682379871" flag="0"/>
			<psa30 value="0.000585141002304" flag="0"/>
		</comp>
	</station>
	<station code="TUNC" name="TUNC" netid="KO" source="Bogazici University Kandilli Observatory And Earthquake Research Institute (KOERI)" insttype="" lat="39.6942" lon="37.5388">
		<comp name=".HNE" depth="0.0">
			<acc value="0.0133175940782" flag="0"/>
			<vel value="0.00671647247347" flag="0"/>
			<psa03 value="0.0296631603513" flag="0"/>
			<psa10 value="0.00689072053893" flag="0"/>
			<psa30 value="0.00043033832551" flag="0"/>
		</comp>
		<comp name=".HNN" depth="0.0">
			<acc value="0.00718908066526" flag="0"/>
			<vel value="0.00436150094252" flag="0"/>
			<psa03 value="0.0209119751595" flag="0"/>
			<psa10 value="0.0038255890515" flag="0"/>
			<psa30 value="0.000444436212551" flag="0"/>
		</comp>
		<comp name=".HNZ" depth="0.0">
			<acc value="0.00892469713069" flag="0"/>
			<vel value="0.00544071890573" flag="0"/>
			<psa03 value="0.0122540031738" flag="0"/>
			<psa10 value="0.00402660658668" flag="0"/>
			<psa30 value="0.000528566577443" flag="0"/>
		</comp>
	</station>
</stationlist>
