<stationlist created="1778069615">
	<station code="KARP" name="KARP" netid="GE" source="GEOFON" insttype="" lat="35.5471" lon="27.16106">
		<comp name="--.HNE" depth="0.0">
			<acc value="0.262066575546379" flag="0"/>
			<vel value="0.0667477559090534" flag="0"/>
			<psa03 value="0.294672172787938" flag="0"/>
			<psa10 value="0.0580060337702584" flag="0"/>
			<psa30 value="0.00251943365467488" flag="0"/>
		</comp>
		<comp name="--.HNN" depth="0.0">
			<acc value="0.316788729182319" flag="0"/>
			<vel value="0.0756405141387344" flag="0"/>
			<psa03 value="0.229751230984825" flag="0"/>
			<psa10 value="0.0540678247437181" flag="0"/>
			<psa30 value="0.00319951519527261" flag="0"/>
		</comp>
		<comp name="--.HNZ" depth="0.0">
			<acc value="0.165391626628063" flag="0"/>
			<vel value="0.0428328942170446" flag="0"/>
			<psa03 value="0.214941560594178" flag="0"/>
			<psa10 value="0.0200534570063094" flag="0"/>
			<psa30 value="0.00219728976702333" flag="0"/>
		</comp>
	</station>
	<station code="KSS1" name="KSS1" netid="HI" source="ITSAK Strong Motion Network" insttype="" lat="35.4189" lon="26.9207">
		<comp name="--.HNE" depth="0.0">
			<acc value="0.477799116298663" flag="0"/>
			<vel value="0.0825633442105909" flag="0"/>
			<psa03 value="0.583706827541973" flag="0"/>
			<psa10 value="0.058871795468322" flag="0"/>
			<psa30 value="0.0064281128248471" flag="0"/>
		</comp>
		<comp name="--.HNN" depth="0.0">
			<acc value="0.404688806888361" flag="0"/>
			<vel value="0.105595906325454" flag="0"/>
			<psa03 value="0.403037797217392" flag="0"/>
			<psa10 value="0.0706823957493472" flag="0"/>
			<psa30 value="0.00527286904996333" flag="0"/>
		</comp>
		<comp name="--.HNZ" depth="0.0">
			<acc value="0.318324406232318" flag="0"/>
			<vel value="0.0559297307740926" flag="0"/>
			<psa03 value="0.145322687096147" flag="0"/>
			<psa10 value="0.0527752223945163" flag="0"/>
			<psa30 value="0.00248811411004209" flag="0"/>
		</comp>
	</station>
	<station code="RDI1" name="RDI1" netid="HI" source="ITSAK Strong Motion Network" insttype="" lat="36.4514" lon="28.224">
		<comp name="--.HNE" depth="0.0">
			<acc value="0.015598758345508" flag="0"/>
			<vel value="0.00993395529353414" flag="0"/>
			<psa03 value="0.0528405460161789" flag="0"/>
			<psa10 value="0.0100992108778763" flag="0"/>
			<psa30 value="0.00193420559210789" flag="0"/>
		</comp>
		<comp name="--.HNN" depth="0.0">
			<acc value="0.0130588155594959" flag="0"/>
			<vel value="0.0116157309678654" flag="0"/>
			<psa03 value="0.0423261274608851" flag="0"/>
			<psa10 value="0.0117139571147297" flag="0"/>
			<psa30 value="0.0032670759272662" flag="0"/>
		</comp>
		<comp name="--.HNZ" depth="0.0">
			<acc value="0.011017868577205" flag="0"/>
			<vel value="0.00590282944863762" flag="0"/>
			<psa03 value="0.0311405758063171" flag="0"/>
			<psa10 value="0.00777977488678509" flag="0"/>
			<psa30 value="0.00112705618471427" flag="0"/>
		</comp>
	</station>
	<station code="SIT2" name="SIT2" netid="HI" source="ITSAK Strong Motion Network" insttype="" lat="35.2059" lon="26.107">
		<comp name="--.HNE" depth="0.0">
			<acc value="0.118745977549754" flag="0"/>
			<vel value="0.0635835052415057" flag="0"/>
			<psa03 value="0.351092095333578" flag="0"/>
			<psa10 value="0.0502463928764515" flag="0"/>
			<psa30 value="0.00372299901270639" flag="0"/>
		</comp>
		<comp name="--.HNN" depth="0.0">
			<acc value="0.123704711731261" flag="0"/>
			<vel value="0.0801164723705195" flag="0"/>
			<psa03 value="0.316416885204418" flag="0"/>
			<psa10 value="0.0561778672078358" flag="0"/>
			<psa30 value="0.00390778432603985" flag="0"/>
		</comp>
		<comp name="--.HNZ" depth="0.0">
			<acc value="0.0964144427563289" flag="0"/>
			<vel value="0.0342381301205362" flag="0"/>
			<psa03 value="0.202682195980771" flag="0"/>
			<psa10 value="0.0183380408045649" flag="0"/>
			<psa30 value="0.00112034485372152" flag="0"/>
		</comp>
	</station>
	<station code="HERG" name="HERG" netid="HL" source="National Observatory of Athens Seismic Network" insttype="" lat="35.32622" lon="25.06586">
		<comp name="00.HNE" depth="0.0">
			<acc value="0.0319298655087142" flag="0"/>
			<vel value="0.0273117845114151" flag="0"/>
			<psa03 value="0.069922876839215" flag="0"/>
			<psa10 value="0.0627586712038107" flag="0"/>
			<psa30 value="0.00265847590264832" flag="0"/>
		</comp>
		<comp name="00.HNN" depth="0.0">
			<acc value="0.026547504460559" flag="0"/>
			<vel value="0.0267716345663084" flag="0"/>
			<psa03 value="0.102445557348701" flag="0"/>
			<psa10 value="0.0658779215891481" flag="0"/>
			<psa30 value="0.00301093383458965" flag="0"/>
		</comp>
		<comp name="00.HNZ" depth="0.0">
			<acc value="0.0262343522098844" flag="0"/>
			<vel value="0.0221216802815412" flag="0"/>
			<psa03 value="0.0756954936214861" flag="0"/>
			<psa10 value="0.0256331261938131" flag="0"/>
			<psa30 value="0.00117003146717771" flag="0"/>
		</comp>
	</station>
	<station code="IACM" name="IACM" netid="HL" source="National Observatory of Athens Seismic Network" insttype="" lat="35.3058" lon="25.0709">
		<comp name="--.HNE" depth="0.0">
			<acc value="0.0621797501843754" flag="0"/>
			<vel value="0.0439329178755767" flag="0"/>
			<psa03 value="0.158342669222064" flag="0"/>
			<psa10 value="0.0842084122321169" flag="0"/>
			<psa30 value="0.00349570860308557" flag="0"/>
		</comp>
		<comp name="--.HNN" depth="0.0">
			<acc value="0.0697938570239826" flag="0"/>
			<vel value="0.0687728491758014" flag="0"/>
			<psa03 value="0.212928161296355" flag="0"/>
			<psa10 value="0.0856177917405925" flag="0"/>
			<psa30 value="0.00381158858181057" flag="0"/>
		</comp>
		<comp name="--.HNZ" depth="0.0">
			<acc value="0.0338495619160897" flag="0"/>
			<vel value="0.0221125192837975" flag="0"/>
			<psa03 value="0.0908714216417099" flag="0"/>
			<psa10 value="0.0275312219984212" flag="0"/>
			<psa30 value="0.0011028953931404" flag="0"/>
		</comp>
	</station>
	<station code="KARP" name="KARP" netid="HL" source="National Observatory of Athens Seismic Network" insttype="" lat="35.5471" lon="27.16106">
		<comp name="--.HNE" depth="0.0">
			<acc value="0.270971257906293" flag="0"/>
			<vel value="0.0666563228594337" flag="0"/>
			<psa03 value="0.288676717101089" flag="0"/>
			<psa10 value="0.0568261817817346" flag="0"/>
			<psa30 value="0.00246842753913005" flag="0"/>
		</comp>
		<comp name="--.HNN" depth="0.0">
			<acc value="0.326227740218423" flag="0"/>
			<vel value="0.0739263896295107" flag="0"/>
			<psa03 value="0.225098041496525" flag="0"/>
			<psa10 value="0.0529725355257028" flag="0"/>
			<psa30 value="0.00313463899567612" flag="0"/>
		</comp>
		<comp name="--.HNZ" depth="0.0">
			<acc value="0.166846064704909" flag="0"/>
			<vel value="0.0433794581289225" flag="0"/>
			<psa03 value="0.210556824345587" flag="0"/>
			<psa10 value="0.0196467503481493" flag="0"/>
			<psa30 value="0.00215299498247124" flag="0"/>
		</comp>
	</station>
	<station code="RODB" name="RODB" netid="HL" source="National Observatory of Athens Seismic Network" insttype="" lat="36.4471" lon="28.22116">
		<comp name="00.HNE" depth="0.0">
			<acc value="0.0163216029222893" flag="0"/>
			<vel value="0.0104766230993228" flag="0"/>
			<psa03 value="0.043131487180014" flag="0"/>
			<psa10 value="0.0124387808619457" flag="0"/>
			<psa30 value="0.00266529324825045" flag="0"/>
		</comp>
		<comp name="00.HNN" depth="0.0">
			<acc value="0.0151726488048569" flag="0"/>
			<vel value="0.00979415992711422" flag="0"/>
			<psa03 value="0.0626390892655805" flag="0"/>
			<psa10 value="0.00972874540707701" flag="0"/>
			<psa30 value="0.00204113946592556" flag="0"/>
		</comp>
		<comp name="00.HNZ" depth="0.0">
			<acc value="0.0135121060213277" flag="0"/>
			<vel value="0.00652580790285617" flag="0"/>
			<psa03 value="0.0255030577724149" flag="0"/>
			<psa10 value="0.00763481013734189" flag="0"/>
			<psa30 value="0.000809833939790719" flag="0"/>
		</comp>
	</station>
	<station code="SIVA" name="SIVA" netid="HL" source="National Observatory of Athens Seismic Network" insttype="" lat="35.01777" lon="24.81204">
		<comp name="00.HNE" depth="0.0">
			<acc value="0.0131880360912189" flag="0"/>
			<vel value="0.00861130949685048" flag="0"/>
			<psa03 value="0.0371807736997838" flag="0"/>
			<psa10 value="0.00899989486126536" flag="0"/>
			<psa30 value="0.000815650426651094" flag="0"/>
		</comp>
		<comp name="00.HNN" depth="0.0">
			<acc value="0.0131972404659424" flag="0"/>
			<vel value="0.00829335361971502" flag="0"/>
			<psa03 value="0.0357490230879991" flag="0"/>
			<psa10 value="0.0113112772551653" flag="0"/>
			<psa30 value="0.000663079502082787" flag="0"/>
		</comp>
		<comp name="00.HNZ" depth="0.0">
			<acc value="0.0054695493115216" flag="0"/>
			<vel value="0.00442476263842237" flag="0"/>
			<psa03 value="0.013825341845046" flag="0"/>
			<psa10 value="0.00827909791264501" flag="0"/>
			<psa30 value="0.000672475365472624" flag="0"/>
		</comp>
	</station>
</stationlist>
