<?xml version="1.0" encoding="UTF-8" standalone="yes"?>
<!DOCTYPE earthquake SYSTEM "stationlist.dtd">
<stationlist created="" xmlns="ch.ethz.sed.shakemap.usgs.xml">
  <station code="AKDM" name="AKDM" netid="KO" insttype="30s," lat="38.3285" lon="42.98">
    <comp name="--.HHE">
      <acc value="0.0437916793" flag="0"/>
      <vel value="0.0218586720" flag="0"/>
      <psa03 value="0.0835892082" flag="0"/>
      <psa10 value="0.0298441168" flag="0"/>
      <psa30 value="0.0020295205" flag="0"/>
    </comp>
    <comp name="--.HHZ">
      <acc value="0.0328483149" flag="0"/>
      <vel value="0.0167321415" flag="0"/>
      <psa03 value="0.0588144731" flag="0"/>
      <psa10 value="0.0166268943" flag="0"/>
      <psa30 value="0.0011577686" flag="0"/>
    </comp>
    <comp name="--.HHN">
      <acc value="0.0576808604" flag="0"/>
      <vel value="0.0211434012" flag="0"/>
      <psa03 value="0.0886357675" flag="0"/>
      <psa10 value="0.0201865192" flag="0"/>
      <psa30 value="0.0018339000" flag="0"/>
    </comp>
  </station>
  <station code="MLAZ" name="MLAZ" netid="KO" insttype="120s," lat="39.141" lon="42.5496">
    <comp name="--.HHE">
      <acc value="0.0064574115" flag="0"/>
      <vel value="0.0071518832" flag="0"/>
      <psa03 value="0.0233333631" flag="0"/>
      <psa10 value="0.0108737811" flag="0"/>
      <psa30 value="0.0006195383" flag="0"/>
    </comp>
    <comp name="--.HHZ">
      <acc value="0.0048117302" flag="0"/>
      <vel value="0.0039247049" flag="0"/>
      <psa03 value="0.0126699776" flag="0"/>
      <psa10 value="0.0050278266" flag="0"/>
      <psa30 value="0.0003641018" flag="0"/>
    </comp>
    <comp name="--.HHN">
      <acc value="0.0081404797" flag="0"/>
      <vel value="0.0085719356" flag="0"/>
      <psa03 value="0.0158569738" flag="0"/>
      <psa10 value="0.0136802658" flag="0"/>
      <psa30 value="0.0007185032" flag="0"/>
    </comp>
  </station>
  <station code="VANB" name="VANB" netid="KO" insttype="360s," lat="38.509" lon="43.4058">
    <comp name="--.HHZ">
      <acc value="0.0035865202" flag="0"/>
      <vel value="0.0032423332" flag="0"/>
      <psa03 value="0.0061445836" flag="0"/>
      <psa10 value="0.0084452568" flag="0"/>
      <psa30 value="0.0007743605" flag="0"/>
    </comp>
    <comp name="--.HHN">
      <acc value="0.0048200547" flag="0"/>
      <vel value="0.0054271185" flag="0"/>
      <psa03 value="0.0094143376" flag="0"/>
      <psa10 value="0.0111482066" flag="0"/>
      <psa30 value="0.0006358040" flag="0"/>
    </comp>
    <comp name="--.HHE">
      <acc value="0.0061269664" flag="0"/>
      <vel value="0.0055514139" flag="0"/>
      <psa03 value="0.0118018074" flag="0"/>
      <psa10 value="0.0151998444" flag="0"/>
      <psa30 value="0.0017199874" flag="0"/>
    </comp>
  </station>
</stationlist>
