<?xml version="1.0" encoding="UTF-8" standalone="yes"?>
<!DOCTYPE earthquake SYSTEM "stationlist.dtd">
<stationlist created="" xmlns="ch.ethz.sed.shakemap.usgs.xml">
  <station code="GVD" name="GVD" netid="GE" insttype="STS-2/N" lat="34.8391" lon="24.0874">
    <comp name="--.HHN">
      <acc value="0.0436157905" flag="0"/>
      <vel value="0.0293592860" flag="0"/>
      <psa03 value="0.1108035108" flag="0"/>
      <psa10 value="0.0340321096" flag="0"/>
      <psa30 value="0.0052694689" flag="0"/>
    </comp>
    <comp name="--.HHE">
      <acc value="0.5227422329" flag="0"/>
      <vel value="0.0721655671" flag="0"/>
      <psa03 value="0.3665822845" flag="0"/>
      <psa10 value="0.0670340617" flag="0"/>
      <psa30 value="0.0062209109" flag="0"/>
    </comp>
    <comp name="--.HHZ">
      <acc value="0.0362188375" flag="0"/>
      <vel value="0.0117791107" flag="0"/>
      <psa03 value="0.0672083914" flag="0"/>
      <psa10 value="0.0182924821" flag="0"/>
      <psa30 value="0.0022154486" flag="0"/>
    </comp>
  </station>
  <station code="IMMV" name="IMMV" netid="GE" insttype="STS-2/N" lat="35.4606" lon="23.9811">
    <comp name="--.HHE">
      <acc value="0.0914890111" flag="0"/>
      <vel value="0.0593527192" flag="0"/>
      <psa03 value="0.2229315043" flag="0"/>
      <psa10 value="0.1133095044" flag="0"/>
      <psa30 value="0.0103469727" flag="0"/>
    </comp>
    <comp name="--.HHN">
      <acc value="0.0661229061" flag="0"/>
      <vel value="0.0562681732" flag="0"/>
      <psa03 value="0.1877005399" flag="0"/>
      <psa10 value="0.0998775423" flag="0"/>
      <psa30 value="0.0076149988" flag="0"/>
    </comp>
    <comp name="--.HHZ">
      <acc value="0.0485683881" flag="0"/>
      <vel value="0.0288535899" flag="0"/>
      <psa03 value="0.1395661516" flag="0"/>
      <psa10 value="0.0600227330" flag="0"/>
      <psa30 value="0.0051701910" flag="0"/>
    </comp>
  </station>
  <station code="THERA" name="THERA" netid="GE" insttype="STS-2/N" lat="36.367" lon="25.4753">
    <comp name="--.HHN">
      <acc value="0.0534196299" flag="0"/>
      <vel value="0.0197663004" flag="0"/>
      <psa03 value="0.1282241039" flag="0"/>
      <psa10 value="0.0149841901" flag="0"/>
      <psa30 value="0.0011468727" flag="0"/>
    </comp>
    <comp name="--.HHZ">
      <acc value="0.0598832884" flag="0"/>
      <vel value="0.0325102861" flag="0"/>
      <psa03 value="0.1210543409" flag="0"/>
      <psa10 value="0.0350990635" flag="0"/>
      <psa30 value="0.0037875813" flag="0"/>
    </comp>
    <comp name="--.HHE">
      <acc value="0.0861799404" flag="0"/>
      <vel value="0.0376048101" flag="0"/>
      <psa03 value="0.1166014567" flag="0"/>
      <psa10 value="0.0487408124" flag="0"/>
      <psa30 value="0.0056947536" flag="0"/>
    </comp>
  </station>
  <station code="ZKR" name="ZKR" netid="GE" insttype="STS-2/N" lat="35.1147" lon="26.2169">
    <comp name="--.HHE">
      <acc value="0.1139211205" flag="0"/>
      <vel value="0.0715451738" flag="0"/>
      <psa03 value="0.2882990173" flag="0"/>
      <psa10 value="0.1343612680" flag="0"/>
      <psa30 value="0.0135366976" flag="0"/>
    </comp>
    <comp name="--.HHZ">
      <acc value="0.0676551130" flag="0"/>
      <vel value="0.0415309939" flag="0"/>
      <psa03 value="0.1644024050" flag="0"/>
      <psa10 value="0.0707050737" flag="0"/>
      <psa30 value="0.0078621452" flag="0"/>
    </comp>
    <comp name="--.HHN">
      <acc value="0.0617680096" flag="0"/>
      <vel value="0.0335784604" flag="0"/>
      <psa03 value="0.2321984882" flag="0"/>
      <psa10 value="0.0388811144" flag="0"/>
      <psa30 value="0.0072536149" flag="0"/>
    </comp>
  </station>
  <station code="SNT1" name="SNT1" netid="HA" insttype="30" lat="36.4159" lon="25.4282">
    <comp name="--.HHE">
      <acc value="0.0354283610" flag="0"/>
      <vel value="0.0242564373" flag="0"/>
      <psa03 value="0.0462514429" flag="0"/>
      <psa10 value="0.0323662342" flag="0"/>
      <psa30 value="0.0067799870" flag="0"/>
    </comp>
    <comp name="--.HHZ">
      <acc value="0.0200601463" flag="0"/>
      <vel value="0.0109693010" flag="0"/>
      <psa03 value="0.0513709954" flag="0"/>
      <psa10 value="0.0122613187" flag="0"/>
      <psa30 value="0.0018133632" flag="0"/>
    </comp>
    <comp name="--.HHN">
      <acc value="0.0310286318" flag="0"/>
      <vel value="0.0182345506" flag="0"/>
      <psa03 value="0.0452343315" flag="0"/>
      <psa10 value="0.0194181147" flag="0"/>
      <psa30 value="0.0029004029" flag="0"/>
    </comp>
  </station>
  <station code="SNT5" name="SNT5" netid="HA" insttype="1s-100Hz," lat="36.4037" lon="25.3953">
    <comp name="--.HHZ">
      <acc value="0.0411853427" flag="0"/>
      <vel value="0.0162744768" flag="0"/>
      <psa03 value="0.0604207381" flag="0"/>
      <psa10 value="0.0158816046" flag="0"/>
      <psa30 value="0.0025890751" flag="0"/>
    </comp>
    <comp name="--.HHE">
      <acc value="0.1524087768" flag="0"/>
      <vel value="0.0560586023" flag="0"/>
      <psa03 value="0.2709874907" flag="0"/>
      <psa10 value="0.0288889219" flag="0"/>
      <psa30 value="0.0143244014" flag="0"/>
    </comp>
    <comp name="--.HHN">
      <acc value="0.0821834952" flag="0"/>
      <vel value="0.0394689471" flag="0"/>
      <psa03 value="0.2271439863" flag="0"/>
      <psa10 value="0.0176067060" flag="0"/>
      <psa30 value="0.0075266052" flag="0"/>
    </comp>
  </station>
  <station code="ABEA" name="ABEA" netid="HC" insttype="DC" lat="35.5163" lon="24.0113">
    <comp name="--.HNE">
      <acc value="0.0698904693" flag="0"/>
      <vel value="0.0690542657" flag="0"/>
      <psa03 value="0.2323492564" flag="0"/>
      <psa10 value="0.1331306220" flag="0"/>
      <psa30 value="0.0214670158" flag="0"/>
    </comp>
    <comp name="--.HNZ">
      <acc value="0.0440480340" flag="0"/>
      <vel value="0.0457487748" flag="0"/>
      <psa03 value="0.0697871350" flag="0"/>
      <psa10 value="0.0873450172" flag="0"/>
      <psa30 value="0.0126290040" flag="0"/>
    </comp>
    <comp name="--.HNN">
      <acc value="0.0674043135" flag="0"/>
      <vel value="0.0696687043" flag="0"/>
      <psa03 value="0.1513400261" flag="0"/>
      <psa10 value="0.1160549143" flag="0"/>
      <psa30 value="0.0201341726" flag="0"/>
    </comp>
  </station>
  <station code="ATEI" name="ATEI" netid="HC" insttype="DC" lat="35.5193" lon="24.0432">
    <comp name="--.HNE">
      <acc value="0.0598549107" flag="0"/>
      <vel value="0.0420520926" flag="0"/>
      <psa03 value="0.1375467608" flag="0"/>
      <psa10 value="0.0500662577" flag="0"/>
      <psa30 value="0.0103528361" flag="0"/>
    </comp>
    <comp name="--.HNZ">
      <acc value="0.0492007196" flag="0"/>
      <vel value="0.0344119000" flag="0"/>
      <psa03 value="0.1046267502" flag="0"/>
      <psa10 value="0.0555830968" flag="0"/>
      <psa30 value="0.0097029956" flag="0"/>
    </comp>
    <comp name="--.HNN">
      <acc value="0.0592739506" flag="0"/>
      <vel value="0.0543373165" flag="0"/>
      <psa03 value="0.1011385327" flag="0"/>
      <psa10 value="0.0586670466" flag="0"/>
      <psa30 value="0.0123576320" flag="0"/>
    </comp>
  </station>
  <station code="CHAN" name="CHAN" netid="HC" insttype="120" lat="35.5193" lon="24.0428">
    <comp name="--.HHE">
      <acc value="0.1226423692" flag="0"/>
      <vel value="0.0897328381" flag="0"/>
      <psa03 value="0.2803166936" flag="0"/>
      <psa10 value="0.1034523890" flag="0"/>
      <psa30 value="0.0194227167" flag="0"/>
    </comp>
    <comp name="--.HHN">
      <acc value="0.1084298396" flag="0"/>
      <vel value="0.0955703699" flag="0"/>
      <psa03 value="0.2018246562" flag="0"/>
      <psa10 value="0.1145305249" flag="0"/>
      <psa30 value="0.0264284774" flag="0"/>
    </comp>
    <comp name="--.HHZ">
      <acc value="0.0941045115" flag="0"/>
      <vel value="0.0657852336" flag="0"/>
      <psa03 value="0.1985902016" flag="0"/>
      <psa10 value="0.1045646615" flag="0"/>
      <psa30 value="0.0181427911" flag="0"/>
    </comp>
  </station>
  <station code="GVDS" name="GVDS" netid="HC" insttype="60" lat="34.8389" lon="24.0585">
    <comp name="--.HHZ">
      <acc value="0.0179584242" flag="0"/>
      <vel value="0.0079700440" flag="0"/>
      <psa03 value="0.0318062205" flag="0"/>
      <psa10 value="0.0114224946" flag="0"/>
      <psa30 value="0.0017208747" flag="0"/>
    </comp>
    <comp name="--.HHE">
      <acc value="0.0324110733" flag="0"/>
      <vel value="0.0218572667" flag="0"/>
      <psa03 value="0.1038504429" flag="0"/>
      <psa10 value="0.0232904407" flag="0"/>
      <psa30 value="0.0031833811" flag="0"/>
    </comp>
    <comp name="--.HHN">
      <acc value="0.0443627812" flag="0"/>
      <vel value="0.0231928551" flag="0"/>
      <psa03 value="0.0982540627" flag="0"/>
      <psa10 value="0.0202017254" flag="0"/>
      <psa30 value="0.0052347521" flag="0"/>
    </comp>
  </station>
  <station code="IMOD" name="IMOD" netid="HC" insttype="120" lat="34.9731" lon="24.7995">
    <comp name="--.HHN">
      <acc value="0.3079710847" flag="0"/>
      <vel value="0.3013139937" flag="0"/>
      <psa03 value="0.6510670131" flag="0"/>
      <psa10 value="0.1914323106" flag="0"/>
      <psa30 value="0.0265172474" flag="0"/>
    </comp>
    <comp name="--.HHE">
      <acc value="0.2202873126" flag="0"/>
      <vel value="0.1396410811" flag="0"/>
      <psa03 value="0.6560009606" flag="0"/>
      <psa10 value="0.0970765067" flag="0"/>
      <psa30 value="0.0094498539" flag="0"/>
    </comp>
    <comp name="--.HHZ">
      <acc value="0.2004594362" flag="0"/>
      <vel value="0.0903432953" flag="0"/>
      <psa03 value="0.3918426788" flag="0"/>
      <psa10 value="0.0758310118" flag="0"/>
      <psa30 value="0.0080480027" flag="0"/>
    </comp>
  </station>
  <station code="KNDR" name="KNDR" netid="HC" insttype="120" lat="35.2348" lon="23.6248">
    <comp name="--.HHE">
      <acc value="0.0307956808" flag="0"/>
      <vel value="0.0382566439" flag="0"/>
      <psa03 value="0.0927668342" flag="0"/>
      <psa10 value="0.0787155137" flag="0"/>
      <psa30 value="0.0042447213" flag="0"/>
    </comp>
    <comp name="--.HHN">
      <acc value="0.0313683862" flag="0"/>
      <vel value="0.0241755607" flag="0"/>
      <psa03 value="0.0703063177" flag="0"/>
      <psa10 value="0.0481014660" flag="0"/>
      <psa30 value="0.0046573671" flag="0"/>
    </comp>
    <comp name="--.HHZ">
      <acc value="0.0260208858" flag="0"/>
      <vel value="0.0137587520" flag="0"/>
      <psa03 value="0.0607858749" flag="0"/>
      <psa10 value="0.0261840361" flag="0"/>
      <psa30 value="0.0027652127" flag="0"/>
    </comp>
  </station>
  <station code="PASK" name="PASK" netid="HC" insttype="DC" lat="35.4996" lon="24.0121">
    <comp name="--.HNE">
      <acc value="0.1131803466" flag="0"/>
      <vel value="0.0886214206" flag="0"/>
      <psa03 value="0.2130406840" flag="0"/>
      <psa10 value="0.1171884434" flag="0"/>
      <psa30 value="0.0178096035" flag="0"/>
    </comp>
    <comp name="--.HNN">
      <acc value="0.0822845460" flag="0"/>
      <vel value="0.0803703794" flag="0"/>
      <psa03 value="0.1684506139" flag="0"/>
      <psa10 value="0.1222188394" flag="0"/>
      <psa30 value="0.0235760813" flag="0"/>
    </comp>
    <comp name="--.HNZ">
      <acc value="0.0589418844" flag="0"/>
      <vel value="0.0435304632" flag="0"/>
      <psa03 value="0.1830302739" flag="0"/>
      <psa10 value="0.0754400858" flag="0"/>
      <psa30 value="0.0101883171" flag="0"/>
    </comp>
  </station>
  <station code="PFKS" name="PFKS" netid="HC" insttype="120" lat="35.0429" lon="25.4733">
    <comp name="--.HHE">
      <acc value="1.7184542589" flag="0"/>
      <vel value="0.6171642705" flag="0"/>
      <psa03 value="2.9471483839" flag="0"/>
      <psa10 value="0.3339127414" flag="0"/>
      <psa30 value="0.0249344509" flag="0"/>
    </comp>
    <comp name="--.HHZ">
      <acc value="1.2809390736" flag="0"/>
      <vel value="0.3346651552" flag="0"/>
      <psa03 value="1.4540818891" flag="0"/>
      <psa10 value="0.2427946500" flag="0"/>
      <psa30 value="0.0255203268" flag="0"/>
    </comp>
    <comp name="--.HHN">
      <acc value="2.0835608710" flag="0"/>
      <vel value="0.6676564511" flag="0"/>
      <psa03 value="5.2872509669" flag="0"/>
      <psa10 value="0.3342466194" flag="0"/>
      <psa30 value="0.0302389281" flag="0"/>
    </comp>
  </station>
  <station code="RODP" name="RODP" netid="HC" insttype="120" lat="35.5604" lon="23.7577">
    <comp name="--.HHE">
      <acc value="0.0580631493" flag="0"/>
      <vel value="0.0387488651" flag="0"/>
      <psa03 value="0.1593276711" flag="0"/>
      <psa10 value="0.0371455172" flag="0"/>
      <psa30 value="0.0064997711" flag="0"/>
    </comp>
    <comp name="--.HHN">
      <acc value="0.0475415195" flag="0"/>
      <vel value="0.0291005852" flag="0"/>
      <psa03 value="0.1415022899" flag="0"/>
      <psa10 value="0.0356887329" flag="0"/>
      <psa30 value="0.0068703294" flag="0"/>
    </comp>
    <comp name="--.HHZ">
      <acc value="0.0295232417" flag="0"/>
      <vel value="0.0205664833" flag="0"/>
      <psa03 value="0.1067634303" flag="0"/>
      <psa10 value="0.0277077648" flag="0"/>
      <psa30 value="0.0046785208" flag="0"/>
    </comp>
  </station>
  <station code="STIA" name="STIA" netid="HC" insttype="120" lat="35.2021" lon="26.0909">
    <comp name="--.HHE">
      <acc value="0.2014358661" flag="0"/>
      <vel value="0.1072426937" flag="0"/>
      <psa03 value="0.4455953012" flag="0"/>
      <psa10 value="0.2054552620" flag="0"/>
      <psa30 value="0.0071702106" flag="0"/>
    </comp>
    <comp name="--.HHN">
      <acc value="0.1662503253" flag="0"/>
      <vel value="0.1453438916" flag="0"/>
      <psa03 value="0.4851832592" flag="0"/>
      <psa10 value="0.1641846781" flag="0"/>
      <psa30 value="0.0097942054" flag="0"/>
    </comp>
    <comp name="--.HHZ">
      <acc value="0.1949991496" flag="0"/>
      <vel value="0.0832383727" flag="0"/>
      <psa03 value="0.5782099520" flag="0"/>
      <psa10 value="0.0935104507" flag="0"/>
      <psa30 value="0.0072819919" flag="0"/>
    </comp>
  </station>
  <station code="CH01" name="CH01" netid="HI" insttype="CMG-5TD,ACCELEROMETER,GURALP" lat="35.517" lon="24.0208">
    <comp name="--.HNE">
      <acc value="0.0623125936" flag="0"/>
      <vel value="0.0646688973" flag="0"/>
      <psa03 value="0.1537200048" flag="0"/>
      <psa10 value="0.1040449979" flag="0"/>
      <psa30 value="0.0182997254" flag="0"/>
    </comp>
    <comp name="--.HNZ">
      <acc value="0.0510078392" flag="0"/>
      <vel value="0.0451870401" flag="0"/>
      <psa03 value="0.0936583838" flag="0"/>
      <psa10 value="0.1281785915" flag="0"/>
      <psa30 value="0.0112773645" flag="0"/>
    </comp>
    <comp name="--.HNN">
      <acc value="0.0699218071" flag="0"/>
      <vel value="0.0644058592" flag="0"/>
      <psa03 value="0.2002776265" flag="0"/>
      <psa10 value="0.0697857773" flag="0"/>
      <psa30 value="0.0174112937" flag="0"/>
    </comp>
  </station>
  <station code="SIT2" name="SIT2" netid="HI" insttype="CMG-5TD,ACCELEROMETER,GURALP" lat="35.2059" lon="26.107">
    <comp name="--.HNZ">
      <acc value="0.2313916283" flag="0"/>
      <vel value="0.1167510359" flag="0"/>
      <psa03 value="0.6334768818" flag="0"/>
      <psa10 value="0.0650664976" flag="0"/>
      <psa30 value="0.0059821429" flag="0"/>
    </comp>
    <comp name="--.HNN">
      <acc value="0.3946784427" flag="0"/>
      <vel value="0.2986262670" flag="0"/>
      <psa03 value="1.1380411186" flag="0"/>
      <psa10 value="0.3308377240" flag="0"/>
      <psa30 value="0.0140392714" flag="0"/>
    </comp>
    <comp name="--.HNE">
      <acc value="0.4046075501" flag="0"/>
      <vel value="0.3329198550" flag="0"/>
      <psa03 value="1.1220794410" flag="0"/>
      <psa10 value="0.2456398373" flag="0"/>
      <psa30 value="0.0136702128" flag="0"/>
    </comp>
  </station>
  <station code="GVD" name="GVD" netid="HL" insttype="120" lat="34.8391" lon="24.0874">
    <comp name="--.HHN">
      <acc value="0.0423623384" flag="0"/>
      <vel value="0.0287665107" flag="0"/>
      <psa03 value="0.1076905073" flag="0"/>
      <psa10 value="0.0338318931" flag="0"/>
      <psa30 value="0.0052630086" flag="0"/>
    </comp>
    <comp name="--.HHZ">
      <acc value="0.0352204056" flag="0"/>
      <vel value="0.0114677749" flag="0"/>
      <psa03 value="0.0653617957" flag="0"/>
      <psa10 value="0.0182001266" flag="0"/>
      <psa30 value="0.0022158299" flag="0"/>
    </comp>
    <comp name="--.HHE">
      <acc value="0.5318136858" flag="0"/>
      <vel value="0.0711438938" flag="0"/>
      <psa03 value="0.3564939846" flag="0"/>
      <psa10 value="0.0667378061" flag="0"/>
      <psa30 value="0.0062175039" flag="0"/>
    </comp>
  </station>
  <station code="IMMV" name="IMMV" netid="HL" insttype="120" lat="35.4606" lon="23.9811">
    <comp name="--.HHE">
      <acc value="0.0886967986" flag="0"/>
      <vel value="0.0590432813" flag="0"/>
      <psa03 value="0.2166864121" flag="0"/>
      <psa10 value="0.1127144601" flag="0"/>
      <psa30 value="0.0103444998" flag="0"/>
    </comp>
    <comp name="--.HHZ">
      <acc value="0.0471435768" flag="0"/>
      <vel value="0.0284973948" flag="0"/>
      <psa03 value="0.1358257180" flag="0"/>
      <psa10 value="0.0597033076" flag="0"/>
      <psa30 value="0.0051626001" flag="0"/>
    </comp>
    <comp name="--.HHN">
      <acc value="0.0641631176" flag="0"/>
      <vel value="0.0556623124" flag="0"/>
      <psa03 value="0.1824455930" flag="0"/>
      <psa10 value="0.0991370716" flag="0"/>
      <psa30 value="0.0075884732" flag="0"/>
    </comp>
  </station>
  <station code="NPS" name="NPS" netid="HL" insttype="CMG3ESPC-120s" lat="35.2613" lon="25.6104">
    <comp name="--.HHN">
      <acc value="0.7221312826" flag="0"/>
      <vel value="0.4758000345" flag="0"/>
      <psa03 value="1.5876661106" flag="0"/>
      <psa10 value="0.3590365978" flag="0"/>
      <psa30 value="0.0266242230" flag="0"/>
    </comp>
    <comp name="--.HHZ">
      <acc value="0.4056639243" flag="0"/>
      <vel value="0.2313376601" flag="0"/>
      <psa03 value="0.5901110742" flag="0"/>
      <psa10 value="0.2317188972" flag="0"/>
      <psa30 value="0.0141063331" flag="0"/>
    </comp>
    <comp name="--.HHE">
      <acc value="0.3018263761" flag="0"/>
      <vel value="0.1410910383" flag="0"/>
      <psa03 value="0.6745131586" flag="0"/>
      <psa10 value="0.1430908586" flag="0"/>
      <psa30 value="0.0089231260" flag="0"/>
    </comp>
  </station>
  <station code="SAP3" name="SAP3" netid="HL" insttype="LE3D20_SMART24" lat="36.4356" lon="25.3454">
    <comp name="--.HHE">
      <acc value="0.2155385759" flag="0"/>
      <vel value="0.1255311000" flag="0"/>
      <psa03 value="0.4882542101" flag="0"/>
      <psa10 value="0.1514942489" flag="0"/>
      <psa30 value="0.0328068917" flag="0"/>
    </comp>
    <comp name="--.HHZ">
      <acc value="0.1861588698" flag="0"/>
      <vel value="0.0792685604" flag="0"/>
      <psa03 value="0.4650513699" flag="0"/>
      <psa10 value="0.0662818802" flag="0"/>
      <psa30 value="0.0089298204" flag="0"/>
    </comp>
    <comp name="--.HHN">
      <acc value="0.3150751242" flag="0"/>
      <vel value="0.1468297168" flag="0"/>
      <psa03 value="0.6257035662" flag="0"/>
      <psa10 value="0.2561679956" flag="0"/>
      <psa30 value="0.0275168725" flag="0"/>
    </comp>
  </station>
  <station code="SIVA" name="SIVA" netid="HL" insttype="60" lat="35.0178" lon="24.812">
    <comp name="--.HHE">
      <acc value="0.4963334569" flag="0"/>
      <vel value="0.2596831665" flag="0"/>
      <psa03 value="1.1122536224" flag="0"/>
      <psa10 value="0.2503416281" flag="0"/>
      <psa30 value="0.0266245416" flag="0"/>
    </comp>
    <comp name="--.HHZ">
      <acc value="0.2184147438" flag="0"/>
      <vel value="0.1171291100" flag="0"/>
