<stationlist created="1778136831">
	<station code="ABEA" name="ABEA" netid="HC" source="Seismological Network of Crete (HC)" insttype="" lat="35.5163" lon="24.0113">
		<comp name="--.HNE" depth="0.0">
			<acc value="0.069509235464916" flag="0"/>
			<vel value="0.0746588871272916" flag="0"/>
			<psa03 value="0.231092787929914" flag="0"/>
			<psa10 value="0.132466545258538" flag="0"/>
			<psa30 value="0.0241678526682902" flag="0"/>
		</comp>
		<comp name="--.HNN" depth="0.0">
			<acc value="0.0674503860055978" flag="0"/>
			<vel value="0.0697178492612985" flag="0"/>
			<psa03 value="0.150059003172628" flag="0"/>
			<psa10 value="0.116100236070781" flag="0"/>
			<psa30 value="0.0211649637416243" flag="0"/>
		</comp>
		<comp name="--.HNZ" depth="0.0">
			<acc value="0.0438842377616077" flag="0"/>
			<vel value="0.04720748802238" flag="0"/>
			<psa03 value="0.0698880151547542" flag="0"/>
			<psa10 value="0.0874360822114098" flag="0"/>
			<psa30 value="0.0143539358778147" flag="0"/>
		</comp>
	</station>
	<station code="ATEI" name="ATEI" netid="HC" source="Seismological Network of Crete (HC)" insttype="" lat="35.5193" lon="24.0432">
		<comp name="--.HNE" depth="0.0">
			<acc value="0.0588884758247438" flag="0"/>
			<vel value="0.0484576130157965" flag="0"/>
			<psa03 value="0.136346990652414" flag="0"/>
			<psa10 value="0.0501055617477118" flag="0"/>
			<psa30 value="0.0118689562601033" flag="0"/>
		</comp>
		<comp name="--.HNN" depth="0.0">
			<acc value="0.059459843085123" flag="0"/>
			<vel value="0.0556054519863899" flag="0"/>
			<psa03 value="0.100981429107552" flag="0"/>
			<psa10 value="0.0587411125602231" flag="0"/>
			<psa30 value="0.013604672076068" flag="0"/>
		</comp>
		<comp name="--.HNZ" depth="0.0">
			<acc value="0.049086484942034" flag="0"/>
			<vel value="0.0382354444907652" flag="0"/>
			<psa03 value="0.104894990444851" flag="0"/>
			<psa10 value="0.0561112208429233" flag="0"/>
			<psa30 value="0.011288878666137" flag="0"/>
		</comp>
	</station>
	<station code="DEYA" name="DEYA" netid="HC" source="Seismological Network of Crete (HC)" insttype="" lat="35.4825" lon="24.014">
		<comp name="--.HNE" depth="0.0">
			<acc value="0.13257053007808" flag="0"/>
			<vel value="0.12757773729602" flag="0"/>
			<psa03 value="0.277038748290594" flag="0"/>
			<psa10 value="0.217352308523599" flag="0"/>
			<psa30 value="0.0234256818364336" flag="0"/>
		</comp>
		<comp name="--.HNN" depth="0.0">
			<acc value="0.0986732108160897" flag="0"/>
			<vel value="0.0833269953187928" flag="0"/>
			<psa03 value="0.276597219041476" flag="0"/>
			<psa10 value="0.156454259326817" flag="0"/>
			<psa30 value="0.0187770555544223" flag="0"/>
		</comp>
		<comp name="--.HNZ" depth="0.0">
			<acc value="0.0834679100809375" flag="0"/>
			<vel value="0.0865661912047408" flag="0"/>
			<psa03 value="0.143355350755062" flag="0"/>
			<psa10 value="0.112421954902741" flag="0"/>
			<psa30 value="0.00728766860561088" flag="0"/>
		</comp>
	</station>
	<station code="G0LD" name="G0LD" netid="HC" source="Seismological Network of Crete (HC)" insttype="" lat="35.4955" lon="24.0306">
		<comp name="--.HNE" depth="0.0">
			<acc value="0.151376906618744" flag="0"/>
			<vel value="0.188915883738031" flag="0"/>
			<psa03 value="0.432409853364031" flag="0"/>
			<psa10 value="0.198393182574686" flag="0"/>
			<psa30 value="0.043742271044122" flag="0"/>
		</comp>
		<comp name="--.HNN" depth="0.0">
			<acc value="0.182222328122764" flag="0"/>
			<vel value="0.250266834475796" flag="0"/>
			<psa03 value="0.443028348453816" flag="0"/>
			<psa10 value="0.521762644214726" flag="0"/>
			<psa30 value="0.0461515673148865" flag="0"/>
		</comp>
		<comp name="--.HNZ" depth="0.0">
			<acc value="0.0992760672481834" flag="0"/>
			<vel value="0.105475073241862" flag="0"/>
			<psa03 value="0.202463370538032" flag="0"/>
			<psa10 value="0.190054130153449" flag="0"/>
			<psa30 value="0.0110587050849183" flag="0"/>
		</comp>
	</station>
	<station code="LENT" name="LENT" netid="HC" source="Seismological Network of Crete (HC)" insttype="" lat="35.5074" lon="24.0402">
		<comp name="--.HNE" depth="0.0">
			<acc value="0.0667532061370964" flag="0"/>
			<vel value="0.0712724487041942" flag="0"/>
			<psa03 value="0.104699477493082" flag="0"/>
			<psa10 value="0.0903678014235004" flag="0"/>
			<psa30 value="0.0196133676226973" flag="0"/>
		</comp>
		<comp name="--.HNN" depth="0.0">
			<acc value="0.0832100988589929" flag="0"/>
			<vel value="0.0789665238894883" flag="0"/>
			<psa03 value="0.17996077568492" flag="0"/>
			<psa10 value="0.158486218934257" flag="0"/>
			<psa30 value="0.0166264930902453" flag="0"/>
		</comp>
		<comp name="--.HNZ" depth="0.0">
			<acc value="0.0649361420621702" flag="0"/>
			<vel value="0.038159735169401" flag="0"/>
			<psa03 value="0.156530025595972" flag="0"/>
			<psa10 value="0.0546116352529528" flag="0"/>
			<psa30 value="0.0118069638200619" flag="0"/>
		</comp>
	</station>
	<station code="MULT" name="MULT" netid="HC" source="Seismological Network of Crete (HC)" insttype="" lat="35.5091" lon="24.0118">
		<comp name="--.HNE" depth="0.0">
			<acc value="0.111929490430761" flag="0"/>
			<vel value="0.0823758163044509" flag="0"/>
			<psa03 value="0.185922274771589" flag="0"/>
			<psa10 value="0.113224560571493" flag="0"/>
			<psa30 value="0.0117116400053334" flag="0"/>
		</comp>
		<comp name="--.HNN" depth="0.0">
			<acc value="0.092587777514558" flag="0"/>
			<vel value="0.0884402702833874" flag="0"/>
			<psa03 value="0.168159483490681" flag="0"/>
			<psa10 value="0.121138769849128" flag="0"/>
			<psa30 value="0.0236218148292815" flag="0"/>
		</comp>
		<comp name="--.HNZ" depth="0.0">
			<acc value="0.0802912594992997" flag="0"/>
			<vel value="0.0512639891533146" flag="0"/>
			<psa03 value="0.0880838142872365" flag="0"/>
			<psa10 value="0.0849024968738701" flag="0"/>
			<psa30 value="0.0134851066554524" flag="0"/>
		</comp>
	</station>
	<station code="NERO" name="NERO" netid="HC" source="Seismological Network of Crete (HC)" insttype="" lat="35.474" lon="24.0423">
		<comp name="--.HNE" depth="0.0">
			<acc value="0.0609675860671178" flag="0"/>
			<vel value="0.0445057613049918" flag="0"/>
			<psa03 value="0.147640113766192" flag="0"/>
			<psa10 value="0.0814351746805553" flag="0"/>
			<psa30 value="0.00917538615762546" flag="0"/>
		</comp>
		<comp name="--.HNN" depth="0.0">
			<acc value="0.0538827001336677" flag="0"/>
			<vel value="0.0571993410541862" flag="0"/>
			<psa03 value="0.121173120874364" flag="0"/>
			<psa10 value="0.0810367932899698" flag="0"/>
			<psa30 value="0.0117148052150234" flag="0"/>
		</comp>
		<comp name="--.HNZ" depth="0.0">
			<acc value="0.049007473290561" flag="0"/>
			<vel value="0.0384741718251456" flag="0"/>
			<psa03 value="0.103951282095408" flag="0"/>
			<psa10 value="0.0521359199988252" flag="0"/>
			<psa30 value="0.00685449574339091" flag="0"/>
		</comp>
	</station>
	<station code="PASK" name="PASK" netid="HC" source="Seismological Network of Crete (HC)" insttype="" lat="35.4996" lon="24.0121">
		<comp name="--.HNE" depth="0.0">
			<acc value="0.111300819233012" flag="0"/>
			<vel value="0.0922193219579332" flag="0"/>
			<psa03 value="0.212603417266372" flag="0"/>
			<psa10 value="0.117114250744438" flag="0"/>
			<psa30 value="0.0186201451599222" flag="0"/>
		</comp>
		<comp name="--.HNN" depth="0.0">
			<acc value="0.0828092200342885" flag="0"/>
			<vel value="0.0820613177121191" flag="0"/>
			<psa03 value="0.169224356116379" flag="0"/>
			<psa10 value="0.122045077387486" flag="0"/>
			<psa30 value="0.0254272777657024" flag="0"/>
		</comp>
		<comp name="--.HNZ" depth="0.0">
			<acc value="0.0588031192432192" flag="0"/>
			<vel value="0.0462065530276325" flag="0"/>
			<psa03 value="0.18370387781356" flag="0"/>
			<psa10 value="0.0758927875245751" flag="0"/>
			<psa30 value="0.0115962123588402" flag="0"/>
		</comp>
	</station>
	<station code="POLY" name="POLY" netid="HC" source="Seismological Network of Crete (HC)" insttype="" lat="35.5226" lon="24.0602">
		<comp name="--.HNE" depth="0.0">
			<acc value="0.0507507137937023" flag="0"/>
			<vel value="0.0621280707531631" flag="0"/>
			<psa03 value="0.11577373194136" flag="0"/>
			<psa10 value="0.0796198519244644" flag="0"/>
			<psa30 value="0.0180494540210888" flag="0"/>
		</comp>
		<comp name="--.HNN" depth="0.0">
			<acc value="0.05480674007329" flag="0"/>
			<vel value="0.0519937894596697" flag="0"/>
			<psa03 value="0.118004921413478" flag="0"/>
			<psa10 value="0.0844663504812421" flag="0"/>
			<psa30 value="0.00996600519893579" flag="0"/>
		</comp>
		<comp name="--.HNZ" depth="0.0">
			<acc value="0.0454629163690835" flag="0"/>
			<vel value="0.0315450723883979" flag="0"/>
			<psa03 value="0.103492324608728" flag="0"/>
			<psa10 value="0.0393478728534736" flag="0"/>
			<psa30 value="0.0120338696848239" flag="0"/>
		</comp>
	</station>
	<station code="SOUD" name="SOUD" netid="HC" source="Seismological Network of Crete (HC)" insttype="" lat="35.4878" lon="24.0678">
		<comp name="--.HNE" depth="0.0">
			<acc value="0.147632428061467" flag="0"/>
			<vel value="0.0889476075368989" flag="0"/>
			<psa03 value="0.376301219775581" flag="0"/>
			<psa10 value="0.138950034757671" flag="0"/>
			<psa30 value="0.0203086086789947" flag="0"/>
		</comp>
		<comp name="--.HNN" depth="0.0">
			<acc value="0.121091234280375" flag="0"/>
			<vel value="0.0919113103216964" flag="0"/>
			<psa03 value="0.230268691670833" flag="0"/>
			<psa10 value="0.11377440699612" flag="0"/>
			<psa30 value="0.0155498551015906" flag="0"/>
		</comp>
		<comp name="--.HNZ" depth="0.0">
			<acc value="0.00630435763864914" flag="0"/>
			<vel value="0.00564699432796779" flag="0"/>
			<psa03 value="0.00724485037848494" flag="0"/>
			<psa10 value="0.00421342943152998" flag="0"/>
			<psa30 value="0.00172988220037375" flag="0"/>
		</comp>
	</station>
	<station code="CH01" name="CH01" netid="HI" source="ITSAK Strong Motion Network" insttype="" lat="35.517" lon="24.0208">
		<comp name="--.HNE" depth="0.0">
			<acc value="0.0632193027640925" flag="0"/>
			<vel value="0.06465966152768" flag="0"/>
			<psa03 value="0.152975790145514" flag="0"/>
			<psa10 value="0.104120862496168" flag="0"/>
			<psa30 value="0.0208021880428706" flag="0"/>
		</comp>
		<comp name="--.HNN" depth="0.0">
			<acc value="0.0702646403208478" flag="0"/>
			<vel value="0.0635013681536564" flag="0"/>
			<psa03 value="0.200426152249118" flag="0"/>
			<psa10 value="0.0699195493268573" flag="0"/>
			<psa30 value="0.0183424050942962" flag="0"/>
		</comp>
		<comp name="--.HNZ" depth="0.0">
			<acc value="0.0510467391105028" flag="0"/>
			<vel value="0.046028152906261" flag="0"/>
			<psa03 value="0.0933799359626493" flag="0"/>
			<psa10 value="0.128135938377015" flag="0"/>
			<psa30 value="0.0129659122613762" flag="0"/>
		</comp>
	</station>
	<station code="KSS1" name="KSS1" netid="HI" source="ITSAK Strong Motion Network" insttype="" lat="35.4189" lon="26.9207">
		<comp name="--.HNE" depth="0.0">
			<acc value="0.0300117284025735" flag="0"/>
			<vel value="0.0198600673251664" flag="0"/>
			<psa03 value="0.100626843117912" flag="0"/>
			<psa10 value="0.0271356519787645" flag="0"/>
			<psa30 value="0.00412114383888767" flag="0"/>
		</comp>
		<comp name="--.HNN" depth="0.0">
			<acc value="0.0405725013121851" flag="0"/>
			<vel value="0.0261168487762772" flag="0"/>
			<psa03 value="0.150061732520162" flag="0"/>
			<psa10 value="0.0350174272327107" flag="0"/>
			<psa30 value="0.00583835801256751" flag="0"/>
		</comp>
		<comp name="--.HNZ" depth="0.0">
			<acc value="0.0188366192864346" flag="0"/>
			<vel value="0.0167146704581431" flag="0"/>
			<psa03 value="0.035082404766318" flag="0"/>
			<psa10 value="0.0257664887784061" flag="0"/>
			<psa30 value="0.0058762326049181" flag="0"/>
		</comp>
	</station>
	<station code="NAX1" name="NAX1" netid="HI" source="ITSAK Strong Motion Network" insttype="" lat="37.101394" lon="25.374103">
		<comp name="--.HNE" depth="0.0">
			<acc value="0.0173877591579483" flag="0"/>
			<vel value="0.0122158220389925" flag="0"/>
			<psa03 value="0.0294827942362387" flag="0"/>
			<psa10 value="0.0211875648221931" flag="0"/>
			<psa30 value="0.00360329203374451" flag="0"/>
		</comp>
		<comp name="--.HNN" depth="0.0">
			<acc value="0.0158075067385505" flag="0"/>
			<vel value="0.00768961528000796" flag="0"/>
			<psa03 value="0.0283510395755853" flag="0"/>
			<psa10 value="0.00838593240186979" flag="0"/>
			<psa30 value="0.0016953582466655" flag="0"/>
		</comp>
		<comp name="--.HNZ" depth="0.0">
			<acc value="0.0099985946386427" flag="0"/>
			<vel value="0.00719189254205273" flag="0"/>
			<psa03 value="0.0236804905912905" flag="0"/>
			<psa10 value="0.010286442988845" flag="0"/>
			<psa30 value="0.00138544886252181" flag="0"/>
		</comp>
	</station>
	<station code="SIT2" name="SIT2" netid="HI" source="ITSAK Strong Motion Network" insttype="" lat="35.2059" lon="26.107">
		<comp name="--.HNE" depth="0.0">
			<acc value="0.404992140734856" flag="0"/>
			<vel value="0.337832430363352" flag="0"/>
			<psa03 value="1.12358709879793" flag="0"/>
			<psa10 value="0.246977036016373" flag="0"/>
			<psa30 value="0.0128903280876332" flag="0"/>
		</comp>
		<comp name="--.HNN" depth="0.0">
			<acc value="0.395956840508653" flag="0"/>
			<vel value="0.294918933625884" flag="0"/>
			<psa03 value="1.14409554071272" flag="0"/>
			<psa10 value="0.33163689931709" flag="0"/>
			<psa30 value="0.0141077129000617" flag="0"/>
		</comp>
		<comp name="--.HNZ" depth="0.0">
			<acc value="0.23117725464358" flag="0"/>
			<vel value="0.113827696450786" flag="0"/>
			<psa03 value="0.640857120306948" flag="0"/>
			<psa10 value="0.0653868640586751" flag="0"/>
			<psa30 value="0.00679737529274264" flag="0"/>
		</comp>
	</station>
	<station code="AGNA" name="AGNA" netid="HL" source="National Observatory of Athens Seismic Network" insttype="" lat="35.1895" lon="25.71853">
		<comp name="00.HNE" depth="0.0">
			<acc value="0.370398239667081" flag="0"/>
			<vel value="0.241202196946434" flag="0"/>
			<psa03 value="0.791207080252815" flag="0"/>
			<psa10 value="0.239729455899755" flag="0"/>
			<psa30 value="0.0207621637248058" flag="0"/>
		</comp>
		<comp name="00.HNN" depth="0.0">
			<acc value="0.294772738497836" flag="0"/>
			<vel value="0.245163898112094" flag="0"/>
			<psa03 value="0.758911357484801" flag="0"/>
			<psa10 value="0.344585187077604" flag="0"/>
			<psa30 value="0.0265107828759236" flag="0"/>
		</comp>
		<comp name="00.HNZ" depth="0.0">
			<acc value="0.195810705531822" flag="0"/>
			<vel value="0.157315626015352" flag="0"/>
			<psa03 value="0.369982384517082" flag="0"/>
			<psa10 value="0.222020632777284" flag="0"/>
			<psa30 value="0.0126682117068747" flag="0"/>
		</comp>
	</station>
	<station code="ANKY" name="ANKY" netid="HL" source="National Observatory of Athens Seismic Network" insttype="" lat="35.86704" lon="23.30117">
		<comp name="00.HNE" depth="0.0">
			<acc value="0.0135869478663903" flag="0"/>
			<vel value="0.0168106549821616" flag="0"/>
			<psa03 value="0.052975457280832" flag="0"/>
			<psa10 value="0.021543193380817" flag="0"/>
			<psa30 value="0.00400503406385325" flag="0"/>
		</comp>
		<comp name="00.HNN" depth="0.0">
			<acc value="0.0156738083155485" flag="0"/>
			<vel value="0.013050636646463" flag="0"/>
			<psa03 value="0.0511468413522944" flag="0"/>
			<psa10 value="0.0239498084322688" flag="0"/>
			<psa30 value="0.00305968060549061" flag="0"/>
		</comp>
		<comp name="00.HNZ" depth="0.0">
			<acc value="0.0095760306989389" flag="0"/>
			<vel value="0.00872958096178283" flag="0"/>
			<psa03 value="0.0262689615439309" flag="0"/>
			<psa10 value="0.0120507698668688" flag="0"/>
			<psa30 value="0.00354875633769251" flag="0"/>
		</comp>
	</station>
	<station code="CHNB" name="CHNB" netid="HL" source="National Observatory of Athens Seismic Network" insttype="" lat="35.48765" lon="24.06605">
		<comp name="00.HNE" depth="0.0">
			<acc value="0.160509329433724" flag="0"/>
			<vel value="0.10928160410263" flag="0"/>
			<psa03 value="0.487272154390262" flag="0"/>
			<psa10 value="0.164043187055872" flag="0"/>
			<psa30 value="0.0165504447190616" flag="0"/>
		</comp>
		<comp name="00.HNN" depth="0.0">
			<acc value="0.179964303676131" flag="0"/>
			<vel value="0.130888215652332" flag="0"/>
			<psa03 value="0.251554268402267" flag="0"/>
			<psa10 value="0.189290024535334" flag="0"/>
			<psa30 value="0.0234534070064571" flag="0"/>
		</comp>
		<comp name="00.HNZ" depth="0.0">
			<acc value="0.128214200820344" flag="0"/>
			<vel value="0.0629294231777254" flag="0"/>
			<psa03 value="0.27865295939097" flag="0"/>
			<psa10 value="0.0633058211999388" flag="0"/>
			<psa30 value="0.00632526943474239" flag="0"/>
		</comp>
	</station>
	<station code="HERG" name="HERG" netid="HL" source="National Observatory of Athens Seismic Network" insttype="" lat="35.32622" lon="25.06586">
		<comp name="00.HNE" depth="0.0">
			<acc value="0.848709594208559" flag="0"/>
			<vel value="0.898233438658741" flag="0"/>
			<psa03 value="1.9653733630059" flag="0"/>
			<psa10 value="1.64668704493408" flag="0"/>
			<psa30 value="0.124322729104115" flag="0"/>
		</comp>
		<comp name="00.HNN" depth="0.0">
			<acc value="0.92534633924187" flag="0"/>
			<vel value="1.30196061592534" flag="0"/>
			<psa03 value="1.85345828251624" flag="0"/>
			<psa10 value="1.9894566317391" flag="0"/>
			<psa30 value="0.141537509498862" flag="0"/>
		</comp>
		<comp name="00.HNZ" depth="0.0">
			<acc value="0.758017005364823" flag="0"/>
			<vel value="0.420697262582917" flag="0"/>
			<psa03 value="1.20002907936993" flag="0"/>
			<psa10 value="0.724940303738927" flag="0"/>
			<psa30 value="0.0356345572811868" flag="0"/>
		</comp>
	</station>
	<station code="IACM" name="IACM" netid="HL" source="National Observatory of Athens Seismic Network" insttype="" lat="35.3058" lon="25.0709">
		<comp name="--.HNE" depth="0.0">
			<acc value="2.40192611384563" flag="0"/>
			<vel value="1.82011090097655" flag="0"/>
			<psa03 value="6.16404700453145" flag="0"/>
			<psa10 value="2.69709850953919" flag="0"/>
			<psa30 value="0.147998977539415" flag="0"/>
		</comp>
		<comp name="--.HNN" depth="0.0">
			<acc value="2.05791210190916" flag="0"/>
			<vel value="1.28407570124385" flag="0"/>
			<psa03 value="4.66863827435661" flag="0"/>
			<psa10 value="3.16077322571218" flag="0"/>
			<psa30 value="0.142169004665669" flag="0"/>
		</comp>
		<comp name="--.HNZ" depth="0.0">
			<acc value="1.80996973010843" flag="0"/>
			<vel value="0.753389575577858" flag="0"/>
			<psa03 value="4.16876049325488" flag="0"/>
			<psa10 value="1.05936033742351" flag="0"/>
			<psa30 value="0.0422080760778842" flag="0"/>
		</comp>
	</station>
	<station code="IMMV" name="IMMV" netid="HL" source="National Observatory of Athens Seismic Network" insttype="" lat="35.4606" lon="23.9811">
		<comp name="--.HNE" depth="0.0">
			<acc value="0.0856088147432691" flag="0"/>
			<vel value="0.0624422536026161" flag="0"/>
			<psa03 value="0.206772239312745" flag="0"/>
			<psa10 value="0.108185674269881" flag="0"/>
			<psa30 value="0.00988471231367294" flag="0"/>
		</comp>
		<comp name="--.HNN" depth="0.0">
			<acc value="0.0626454230573991" flag="0"/>
			<vel value="0.0551657570949503" flag="0"/>
			<psa03 value="0.178837701286799" flag="0"/>
			<psa10 value="0.0975597728560598" flag="0"/>
			<psa30 value="0.00759180375308518" flag="0"/>
		</comp>
		<comp name="--.HNZ" depth="0.0">
			<acc value="0.0466020457964665" flag="0"/>
			<vel value="0.0281808279382735" flag="0"/>
			<psa03 value="0.132700853280048" flag="0"/>
			<psa10 value="0.0590106054131569" flag="0"/>
			<psa30 value="0.00586338050351553" flag="0"/>
		</comp>
	</station>
	<station code="KARP" name="KARP" netid="HL" source="National Observatory of Athens Seismic Network" insttype="" lat="35.5471" lon="27.16106">
		<comp name="--.HNE" depth="0.0">
			<acc value="0.0406502035105068" flag="0"/>
			<vel value="0.0249650295277757" flag="0"/>
			<psa03 value="0.110577668978024" flag="0"/>
