<?xml version="1.0" encoding="UTF-8" standalone="yes"?>
<!DOCTYPE earthquake SYSTEM "stationlist.dtd">
<stationlist created="" xmlns="ch.ethz.sed.shakemap.usgs.xml">
  <station code="PRK" name="PRK" netid="HL" insttype="120" lat="39.2456" lon="26.265">
    <comp name="--.HHE">
      <acc value="0.0208619696" flag="0"/>
      <vel value="0.0112813976" flag="0"/>
      <psa03 value="0.0595894555" flag="0"/>
      <psa10 value="0.0184380274" flag="0"/>
      <psa30 value="0.0013439986" flag="0"/>
    </comp>
    <comp name="--.HHN">
      <acc value="0.0280297660" flag="0"/>
      <vel value="0.0106807091" flag="0"/>
      <psa03 value="0.0652834687" flag="0"/>
      <psa10 value="0.0166217005" flag="0"/>
      <psa30 value="0.0013667666" flag="0"/>
    </comp>
    <comp name="--.HHZ">
      <acc value="0.0166696121" flag="0"/>
      <vel value="0.0064534670" flag="0"/>
      <psa03 value="0.0397739571" flag="0"/>
      <psa10 value="0.0045838796" flag="0"/>
      <psa30 value="0.0005949166" flag="0"/>
    </comp>
  </station>
  <station code="CHOS" name="CHOS" netid="HT" insttype="100" lat="38.3869" lon="26.0506">
    <comp name="--.HHZ">
      <acc value="0.0061746691" flag="0"/>
      <vel value="0.0024989308" flag="0"/>
      <psa03 value="0.0087833365" flag="0"/>
      <psa10 value="0.0039335732" flag="0"/>
      <psa30 value="0.0004785056" flag="0"/>
    </comp>
    <comp name="--.HHN">
      <acc value="0.0098815892" flag="0"/>
      <vel value="0.0055541252" flag="0"/>
      <psa03 value="0.0119917331" flag="0"/>
      <psa10 value="0.0053787558" flag="0"/>
      <psa30 value="0.0006504865" flag="0"/>
    </comp>
    <comp name="--.HHE">
      <acc value="0.0128117689" flag="0"/>
      <vel value="0.0066505367" flag="0"/>
      <psa03 value="0.0318251679" flag="0"/>
      <psa10 value="0.0085014084" flag="0"/>
      <psa30 value="0.0006938971" flag="0"/>
    </comp>
  </station>
  <station code="SIGR" name="SIGR" netid="HT" insttype="100" lat="39.2114" lon="25.8553">
    <comp name="--.HHN">
      <acc value="0.0192174219" flag="0"/>
      <vel value="0.0130247448" flag="0"/>
      <psa03 value="0.0386410276" flag="0"/>
      <psa10 value="0.0150365733" flag="0"/>
      <psa30 value="0.0007723488" flag="0"/>
    </comp>
    <comp name="--.HHZ">
      <acc value="0.0158323557" flag="0"/>
      <vel value="0.0059473114" flag="0"/>
      <psa03 value="0.0254066501" flag="0"/>
      <psa10 value="0.0044670353" flag="0"/>
      <psa30 value="0.0004396602" flag="0"/>
    </comp>
    <comp name="--.HHE">
      <acc value="0.0207472384" flag="0"/>
      <vel value="0.0122779957" flag="0"/>
      <psa03 value="0.0478639696" flag="0"/>
      <psa10 value="0.0175743301" flag="0"/>
      <psa30 value="0.0007851238" flag="0"/>
    </comp>
  </station>
</stationlist>
