<stationlist created="1778069617">
	<station code="ROD3" name="ROD3" netid="CL" source="Corinth Riff Laboratory (CRLNET)" insttype="" lat="38.30811" lon="21.89204">
		<comp name="00.HNE" depth="0.0">
			<acc value="0.00808515916392259" flag="0"/>
			<vel value="0.00541808578863459" flag="0"/>
			<psa03 value="0.0252793467393235" flag="0"/>
			<psa10 value="0.0063220737951618" flag="0"/>
			<psa30 value="0.00140177333335045" flag="0"/>
		</comp>
		<comp name="00.HNN" depth="0.0">
			<acc value="0.00760632641754586" flag="0"/>
			<vel value="0.0055038703935346" flag="0"/>
			<psa03 value="0.0291719187151132" flag="0"/>
			<psa10 value="0.0085327862241706" flag="0"/>
			<psa30 value="0.00104696763486756" flag="0"/>
		</comp>
		<comp name="00.HNZ" depth="0.0">
			<acc value="0.0038157119243319" flag="0"/>
			<vel value="0.00229117979373243" flag="0"/>
			<psa03 value="0.00774040174496101" flag="0"/>
			<psa10 value="0.00488450669651673" flag="0"/>
			<psa30 value="0.000600440412817207" flag="0"/>
		</comp>
	</station>
	<station code="ARG2" name="ARG2" netid="HI" source="ITSAK Strong Motion Network" insttype="" lat="38.1783" lon="20.4878">
		<comp name="--.HNE" depth="0.0">
			<acc value="0.0205657178352598" flag="0"/>
			<vel value="0.00991632839525712" flag="0"/>
			<psa03 value="0.0421024164277937" flag="0"/>
			<psa10 value="0.013296488962818" flag="0"/>
			<psa30 value="0.000958378065763381" flag="0"/>
		</comp>
		<comp name="--.HNN" depth="0.0">
			<acc value="0.0194441487970902" flag="0"/>
			<vel value="0.0114768877305846" flag="0"/>
			<psa03 value="0.0494401383131903" flag="0"/>
			<psa10 value="0.0102280684329369" flag="0"/>
			<psa30 value="0.00124025396745849" flag="0"/>
		</comp>
		<comp name="--.HNZ" depth="0.0">
			<acc value="0.0133553873704575" flag="0"/>
			<vel value="0.00483725696501551" flag="0"/>
			<psa03 value="0.0411180878821917" flag="0"/>
			<psa10 value="0.00800930240673683" flag="0"/>
			<psa30 value="0.00174091925951695" flag="0"/>
		</comp>
	</station>
	<station code="PYL1" name="PYL1" netid="HI" source="ITSAK Strong Motion Network" insttype="" lat="36.914188" lon="21.695161">
		<comp name="--.HNE" depth="0.0">
			<acc value="0.00626865818794614" flag="0"/>
			<vel value="0.00332559751701511" flag="0"/>
			<psa03 value="0.0194628598789482" flag="0"/>
			<psa10 value="0.00535161533361148" flag="0"/>
			<psa30 value="0.000707374286634876" flag="0"/>
		</comp>
		<comp name="--.HNN" depth="0.0">
			<acc value="0.00653079295114862" flag="0"/>
			<vel value="0.00434593182792872" flag="0"/>
			<psa03 value="0.01449647494432" flag="0"/>
			<psa10 value="0.00322546567511121" flag="0"/>
			<psa30 value="0.000489927162470076" flag="0"/>
		</comp>
		<comp name="--.HNZ" depth="0.0">
			<acc value="0.00295753354337207" flag="0"/>
			<vel value="0.00155706435207589" flag="0"/>
			<psa03 value="0.00675607319935904" flag="0"/>
			<psa10 value="0.00196910451327014" flag="0"/>
			<psa30 value="0.000403574703696811" flag="0"/>
		</comp>
	</station>
	<station code="PATC" name="PATC" netid="HL" source="National Observatory of Athens Seismic Network" insttype="" lat="38.26933" lon="21.76001">
		<comp name="00.HNE" depth="0.0">
			<acc value="0.00904793275489169" flag="0"/>
			<vel value="0.0117984156246067" flag="0"/>
			<psa03 value="0.0233554318547379" flag="0"/>
			<psa10 value="0.0155233085862094" flag="0"/>
			<psa30 value="0.00292837742316589" flag="0"/>
		</comp>
		<comp name="00.HNN" depth="0.0">
			<acc value="0.00805373318174209" flag="0"/>
			<vel value="0.0100030086980121" flag="0"/>
			<psa03 value="0.028321816789366" flag="0"/>
			<psa10 value="0.0158212916822871" flag="0"/>
			<psa30 value="0.0026380005022133" flag="0"/>
		</comp>
		<comp name="00.HNZ" depth="0.0">
			<acc value="0.00604580624654438" flag="0"/>
			<vel value="0.00564382742259865" flag="0"/>
			<psa03 value="0.0176731716142173" flag="0"/>
			<psa10 value="0.0118548950655773" flag="0"/>
			<psa30 value="0.00116642932653834" flag="0"/>
		</comp>
	</station>
	<station code="ANX" name="ANX" netid="HP" source="University of Patras, Seismological Laboratory (PSLNET)" insttype="" lat="38.5933" lon="21.9209">
		<comp name="--.HNE" depth="0.0">
			<acc value="0.00449405911094004" flag="0"/>
			<vel value="0.00425665226697044" flag="0"/>
			<psa03 value="0.00848878239223744" flag="0"/>
			<psa10 value="0.00503390831548316" flag="0"/>
			<psa30 value="0.000639729306010284" flag="0"/>
		</comp>
		<comp name="--.HNN" depth="0.0">
			<acc value="0.00635395511273645" flag="0"/>
			<vel value="0.00598425652424404" flag="0"/>
			<psa03 value="0.012847469571403" flag="0"/>
			<psa10 value="0.0068961837133315" flag="0"/>
			<psa30 value="0.000768453041658823" flag="0"/>
		</comp>
		<comp name="--.HNZ" depth="0.0">
			<acc value="0.00194771315183861" flag="0"/>
			<vel value="0.00206892126576903" flag="0"/>
			<psa03 value="0.00449077177545332" flag="0"/>
			<psa10 value="0.00294213365191676" flag="0"/>
			<psa30 value="0.000756639446567146" flag="0"/>
		</comp>
	</station>
	<station code="GUR" name="GUR" netid="HP" source="University of Patras, Seismological Laboratory (PSLNET)" insttype="" lat="37.9363" lon="22.3423">
		<comp name="--.HNE" depth="0.0">
			<acc value="0.00475968877127878" flag="0"/>
			<vel value="0.00352095178008168" flag="0"/>
			<psa03 value="0.010600068739005" flag="0"/>
			<psa10 value="0.00349257847555934" flag="0"/>
			<psa30 value="0.000181050131703344" flag="0"/>
		</comp>
		<comp name="--.HNN" depth="0.0">
			<acc value="0.00441694287162247" flag="0"/>
			<vel value="0.0036544274870918" flag="0"/>
			<psa03 value="0.010504038939996" flag="0"/>
			<psa10 value="0.00514463721319919" flag="0"/>
			<psa30 value="0.000180805180581024" flag="0"/>
		</comp>
		<comp name="--.HNZ" depth="0.0">
			<acc value="0.00235382258943996" flag="0"/>
			<vel value="0.00206431179210134" flag="0"/>
			<psa03 value="0.00427459697315429" flag="0"/>
			<psa10 value="0.0029144254101286" flag="0"/>
			<psa30 value="0.000132601818073688" flag="0"/>
		</comp>
	</station>
	<station code="PVO" name="PVO" netid="HP" source="University of Patras, Seismological Laboratory (PSLNET)" insttype="" lat="38.616" lon="21.525">
		<comp name="--.HNE" depth="0.0">
			<acc value="0.00488853140076023" flag="0"/>
			<vel value="0.00297126975735203" flag="0"/>
			<psa03 value="0.0129873968096284" flag="0"/>
			<psa10 value="0.00463166979413203" flag="0"/>
			<psa30 value="0.000430281837393552" flag="0"/>
		</comp>
		<comp name="--.HNN" depth="0.0">
			<acc value="0.00369978002334245" flag="0"/>
			<vel value="0.00267906073765867" flag="0"/>
			<psa03 value="0.00779880178858026" flag="0"/>
			<psa10 value="0.00375817810148068" flag="0"/>
			<psa30 value="0.00041409045229339" flag="0"/>
		</comp>
		<comp name="--.HNZ" depth="0.0">
			<acc value="0.00215072159882786" flag="0"/>
			<vel value="0.00218724123193716" flag="0"/>
			<psa03 value="0.00633502838847666" flag="0"/>
			<psa10 value="0.00394910864031734" flag="0"/>
			<psa30 value="0.000455117284701604" flag="0"/>
		</comp>
	</station>
	<station code="PYL" name="PYL" netid="HP" source="University of Patras, Seismological Laboratory (PSLNET)" insttype="" lat="36.8955" lon="21.742">
		<comp name="--.HNE" depth="0.0">
			<acc value="0.00970960613551139" flag="0"/>
			<vel value="0.00359463036747459" flag="0"/>
			<psa03 value="0.0121248748280354" flag="0"/>
			<psa10 value="0.0032479490669372" flag="0"/>
			<psa30 value="0.000272670927694055" flag="0"/>
		</comp>
		<comp name="--.HNN" depth="0.0">
			<acc value="0.0067737411413837" flag="0"/>
			<vel value="0.00264288171040638" flag="0"/>
			<psa03 value="0.0110283308332245" flag="0"/>
			<psa10 value="0.00300733664316764" flag="0"/>
			<psa30 value="0.000225238384479379" flag="0"/>
		</comp>
		<comp name="--.HNZ" depth="0.0">
			<acc value="0.00346685971662221" flag="0"/>
			<vel value="0.0017108537637358" flag="0"/>
			<psa03 value="0.00721395249832215" flag="0"/>
			<psa10 value="0.00173726039747669" flag="0"/>
			<psa30 value="0.000206697104126955" flag="0"/>
		</comp>
	</station>
	<station code="SERG" name="SERG" netid="HP" source="University of Patras, Seismological Laboratory (PSLNET)" insttype="" lat="38.4133" lon="22.0566">
		<comp name="--.HNE" depth="0.0">
			<acc value="0.00360902724384607" flag="0"/>
			<vel value="0.00264617239134306" flag="0"/>
			<psa03 value="0.00958015937810393" flag="0"/>
			<psa10 value="0.00390058323824596" flag="0"/>
			<psa30 value="0.000286759621417377" flag="0"/>
		</comp>
		<comp name="--.HNN" depth="0.0">
			<acc value="0.00341224764126691" flag="0"/>
			<vel value="0.00241328610625423" flag="0"/>
			<psa03 value="0.0116562474296227" flag="0"/>
			<psa10 value="0.00230143253673632" flag="0"/>
			<psa30 value="0.000437021763046875" flag="0"/>
		</comp>
		<comp name="--.HNZ" depth="0.0">
			<acc value="0.00207504264167908" flag="0"/>
			<vel value="0.00181007009127199" flag="0"/>
			<psa03 value="0.00321815947633406" flag="0"/>
			<psa10 value="0.00267249078939986" flag="0"/>
			<psa30 value="0.000528548190807578" flag="0"/>
		</comp>
	</station>
	<station code="VALY" name="VALY" netid="HP" source="University of Patras, Seismological Laboratory (PSLNET)" insttype="" lat="37.1641" lon="21.9836">
		<comp name="--.HNE" depth="0.0">
			<acc value="0.00617579143764255" flag="0"/>
			<vel value="0.00336407427574891" flag="0"/>
			<psa03 value="0.0136614909442439" flag="0"/>
			<psa10 value="0.00417079848242651" flag="0"/>
			<psa30 value="0.000326291120393731" flag="0"/>
		</comp>
		<comp name="--.HNN" depth="0.0">
			<acc value="0.00606400909050605" flag="0"/>
			<vel value="0.00282863767598441" flag="0"/>
			<psa03 value="0.0130100884170233" flag="0"/>
			<psa10 value="0.00468739239173225" flag="0"/>
			<psa30 value="0.000286426604565023" flag="0"/>
		</comp>
		<comp name="--.HNZ" depth="0.0">
			<acc value="0.00290790161733435" flag="0"/>
			<vel value="0.00208800103131115" flag="0"/>
			<psa03 value="0.00602464063932625" flag="0"/>
			<psa10 value="0.00319233077312117" flag="0"/>
			<psa30 value="0.000350084988287189" flag="0"/>
		</comp>
	</station>
</stationlist>
