<?xml version="1.0" encoding="UTF-8" standalone="yes"?>
<!DOCTYPE earthquake SYSTEM "stationlist.dtd">
<stationlist created="" xmlns="ch.ethz.sed.shakemap.usgs.xml">
  <station code="DARE" name="DARE" netid="KO" insttype="CMG-3ESP" lat="38.5712" lon="37.4832">
    <comp name="--.HHN">
      <acc value="0.0000010615" flag="0"/>
      <vel value="-100.0000000000" flag="0"/>
      <psa03 value="0.0000000419" flag="0"/>
      <psa10 value="0.0000000424" flag="0"/>
      <psa30 value="0.0000000480" flag="0"/>
    </comp>
  </station>
</stationlist>
