<?xml version="1.0" encoding="UTF-8" standalone="yes"?>
<!DOCTYPE earthquake SYSTEM "stationlist.dtd">
<stationlist created="" xmlns="ch.ethz.sed.shakemap.usgs.xml">
  <station code="AKDG" name="AKDG" netid="KO" insttype="CMG-6T" commtype="DIG" lat="38.3618" lon="37.9703">
    <comp name="--.HHE">
      <acc value="0.0124447966" flag="0"/>
      <vel value="0.0079256836" flag="0"/>
      <psa03 value="0.0495253694" flag="0"/>
      <psa10 value="0.0127788635" flag="0"/>
      <psa30 value="0.0005851951" flag="0"/>
    </comp>
    <comp name="--.HHZ">
      <acc value="0.0118887980" flag="0"/>
      <vel value="0.0069088547" flag="0"/>
      <psa03 value="0.0323663708" flag="0"/>
      <psa10 value="0.0106234845" flag="0"/>
      <psa30 value="0.0004698710" flag="0"/>
    </comp>
    <comp name="--.HHN">
      <acc value="0.0177002776" flag="0"/>
      <vel value="0.0149123834" flag="0"/>
      <psa03 value="0.0477607950" flag="0"/>
      <psa10 value="0.0210867715" flag="0"/>
      <psa30 value="0.0014790036" flag="0"/>
    </comp>
  </station>
  <station code="BNN" name="BNN" netid="KO" insttype="CMG-3T" commtype="DIG" lat="38.8521" lon="35.8472">
    <comp name="--.HHE">
      <acc value="0.0043954246" flag="0"/>
      <vel value="0.0022855947" flag="0"/>
      <psa03 value="0.0105701023" flag="0"/>
      <psa10 value="0.0029998162" flag="0"/>
      <psa30 value="0.0002698654" flag="0"/>
    </comp>
    <comp name="--.HHN">
      <acc value="0.0043572099" flag="0"/>
      <vel value="0.0023143584" flag="0"/>
      <psa03 value="0.0088301025" flag="0"/>
      <psa10 value="0.0022499129" flag="0"/>
      <psa30 value="0.0003415525" flag="0"/>
    </comp>
    <comp name="--.HHZ">
      <acc value="0.0029072184" flag="0"/>
      <vel value="0.0013412912" flag="0"/>
      <psa03 value="0.0057327310" flag="0"/>
      <psa10 value="0.0020380991" flag="0"/>
      <psa30 value="0.0001488944" flag="0"/>
    </comp>
  </station>
  <station code="DARE" name="DARE" netid="KO" insttype="CMG-3ESP" commtype="DIG" lat="38.5712" lon="37.4832">
    <comp name="--.HHN">
      <acc value="0.0134632413" flag="0"/>
      <vel value="0.0045320906" flag="0"/>
      <psa03 value="0.0146138194" flag="0"/>
      <psa10 value="0.0042179199" flag="0"/>
      <psa30 value="0.0002232962" flag="0"/>
    </comp>
    <comp name="--.HHE">
      <acc value="0.0085910429" flag="0"/>
      <vel value="0.0029606927" flag="0"/>
      <psa03 value="0.0108839894" flag="0"/>
      <psa10 value="0.0023519244" flag="0"/>
      <psa30 value="0.0001510687" flag="0"/>
    </comp>
    <comp name="--.HHZ">
      <acc value="0.0108594285" flag="0"/>
      <vel value="0.0029499940" flag="0"/>
      <psa03 value="0.0084291642" flag="0"/>
      <psa10 value="0.0040060545" flag="0"/>
      <psa30 value="0.0002000485" flag="0"/>
    </comp>
  </station>
  <station code="GAZ" name="GAZ" netid="KO" insttype="CMG-3T" commtype="DIG" lat="37.1721" lon="37.2096">
    <comp name="--.HHE">
      <acc value="0.0143382108" flag="0"/>
      <vel value="0.0056840582" flag="0"/>
      <psa03 value="0.0257382155" flag="0"/>
      <psa10 value="0.0047772594" flag="0"/>
      <psa30 value="0.0002635082" flag="0"/>
    </comp>
    <comp name="--.HHN">
      <acc value="0.0093762261" flag="0"/>
      <vel value="0.0053141888" flag="0"/>
      <psa03 value="0.0227763447" flag="0"/>
      <psa10 value="0.0048527252" flag="0"/>
      <psa30 value="0.0003471876" flag="0"/>
    </comp>
    <comp name="--.HHZ">
      <acc value="0.0098078694" flag="0"/>
      <vel value="0.0049940789" flag="0"/>
      <psa03 value="0.0197928873" flag="0"/>
      <psa10 value="0.0019651697" flag="0"/>
      <psa30 value="0.0001676478" flag="0"/>
    </comp>
  </station>
  <station code="NURH" name="NURH" netid="KO" insttype="CMG-6T" commtype="DIG" lat="37.9693" lon="37.4363">
    <comp name="--.HHN">
      <acc value="0.0823412814" flag="0"/>
      <vel value="0.0334990794" flag="0"/>
      <psa03 value="0.2730611515" flag="0"/>
      <psa10 value="0.0076841581" flag="0"/>
      <psa30 value="0.0007768873" flag="0"/>
    </comp>
    <comp name="--.HHE">
      <acc value="0.0430348683" flag="0"/>
      <vel value="0.0213185241" flag="0"/>
      <psa03 value="0.1331475414" flag="0"/>
      <psa10 value="0.0078858394" flag="0"/>
      <psa30 value="0.0005749637" flag="0"/>
    </comp>
    <comp name="--.HHZ">
      <acc value="0.0303479172" flag="0"/>
      <vel value="0.0105974593" flag="0"/>
      <psa03 value="0.0470595521" flag="0"/>
      <psa10 value="0.0067370545" flag="0"/>
      <psa30 value="0.0004135793" flag="0"/>
    </comp>
  </station>
  <station code="SARI" name="SARI" netid="KO" insttype="CMG-3T" commtype="DIG" lat="38.4072" lon="36.4181">
    <comp name="--.HHE">
      <acc value="0.1859929527" flag="0"/>
      <vel value="0.0322228266" flag="0"/>
      <psa03 value="0.2286441472" flag="0"/>
      <psa10 value="0.0095183597" flag="0"/>
      <psa30 value="0.0011797977" flag="0"/>
    </comp>
    <comp name="--.HHN">
      <acc value="0.1184298752" flag="0"/>
      <vel value="0.0257928924" flag="0"/>
      <psa03 value="0.1519368408" flag="0"/>
      <psa10 value="0.0127994486" flag="0"/>
      <psa30 value="0.0007781616" flag="0"/>
    </comp>
    <comp name="--.HHZ">
      <acc value="0.1360156919" flag="0"/>
      <vel value="0.0304978365" flag="0"/>
      <psa03 value="0.1741866253" flag="0"/>
      <psa10 value="0.0093963401" flag="0"/>
      <psa30 value="0.0010495950" flag="0"/>
    </comp>
  </station>
  <station code="ANDN" name="ANDN" netid="TU" insttype="T" commtype="DIG" lat="37.58" lon="36.3452">
    <comp name="--.HHZ">
      <acc value="0.0325883526" flag="0"/>
      <vel value="0.0154233563" flag="0"/>
      <psa03 value="0.0593090535" flag="0"/>
      <psa10 value="0.0190932816" flag="0"/>
      <psa30 value="0.0009717674" flag="0"/>
    </comp>
    <comp name="--.HHN">
      <acc value="0.1408404613" flag="0"/>
      <vel value="0.0325591291" flag="0"/>
      <psa03 value="0.1299766995" flag="0"/>
      <psa10 value="0.0194919351" flag="0"/>
      <psa30 value="0.0009698973" flag="0"/>
    </comp>
    <comp name="--.HHE">
      <acc value="0.0722517038" flag="0"/>
      <vel value="0.0188173872" flag="0"/>
      <psa03 value="0.0872395258" flag="0"/>
      <psa10 value="0.0228392868" flag="0"/>
      <psa30 value="0.0012453448" flag="0"/>
    </comp>
  </station>
</stationlist>
