<stationlist created="1775808495">
	<station code="CMRD" name="CMRD" netid="KO" source="Bogazici University Kandilli Observatory And Earthquake Research Institute (KOERI)" insttype="" lat="37.6623" lon="34.9902">
		<comp name="--.HNE" depth="0.0">
			<acc value="0.00226053372973229" flag="0"/>
			<vel value="0.0015889833348151" flag="0"/>
			<psa03 value="0.00403598871861167" flag="0"/>
			<psa10 value="0.00187795014716825" flag="0"/>
			<psa30 value="0.000188550446270874" flag="0"/>
		</comp>
		<comp name="--.HNN" depth="0.0">
			<acc value="0.00264546950840788" flag="0"/>
			<vel value="0.00180892600301592" flag="0"/>
			<psa03 value="0.00726628864762848" flag="0"/>
			<psa10 value="0.00184865074528917" flag="0"/>
			<psa30 value="0.000233034604065511" flag="0"/>
		</comp>
		<comp name="--.HNZ" depth="0.0">
			<acc value="0.0018068954675626" flag="0"/>
			<vel value="0.00159890176216928" flag="0"/>
			<psa03 value="0.00490250705869905" flag="0"/>
			<psa10 value="0.00206102520467982" flag="0"/>
			<psa30 value="0.000244366682885118" flag="0"/>
		</comp>
	</station>
	<station code="KHMN" name="KHMN" netid="KO" source="Bogazici University Kandilli Observatory And Earthquake Research Institute (KOERI)" insttype="" lat="37.3916" lon="37.1574">
		<comp name="--.HNE" depth="0.0">
			<acc value="0.0323244352743015" flag="0"/>
			<vel value="0.00925486661975936" flag="0"/>
			<psa03 value="0.0688468888935062" flag="0"/>
			<psa10 value="0.0043101722465081" flag="0"/>
			<psa30 value="0.000535400207219453" flag="0"/>
		</comp>
		<comp name="--.HNN" depth="0.0">
			<acc value="0.0225465394364384" flag="0"/>
			<vel value="0.00841851478868919" flag="0"/>
			<psa03 value="0.0376720007935013" flag="0"/>
			<psa10 value="0.00514369965110792" flag="0"/>
			<psa30 value="0.000373759343055495" flag="0"/>
		</comp>
		<comp name="--.HNZ" depth="0.0">
			<acc value="0.015674397570376" flag="0"/>
			<vel value="0.0041315888482276" flag="0"/>
			<psa03 value="0.0266992999475882" flag="0"/>
			<psa10 value="0.00170442380814991" flag="0"/>
			<psa30 value="0.000263317703922255" flag="0"/>
		</comp>
	</station>
</stationlist>
