<stationlist created="1770374096">
	<station code="ARPRA" name="ARPRA" netid="KO" source="Bogazici University Kandilli Observatory And Earthquake Research Institute (KOERI)" insttype="" lat="39.0929" lon="38.3356">
		<comp name="--.HNE" depth="0.0">
			<acc value="0.0039467351463744" flag="0"/>
			<vel value="0.00219227492396" flag="0"/>
			<psa03 value="0.0145376596631912" flag="0"/>
			<psa10 value="0.00341062617162054" flag="0"/>
			<psa30 value="0.00037566532869279" flag="0"/>
		</comp>
		<comp name="--.HNN" depth="0.0">
			<acc value="0.0032392368529368" flag="0"/>
			<vel value="0.00292135926585" flag="0"/>
			<psa03 value="0.0136121881990012" flag="0"/>
			<psa10 value="0.00330332804802008" flag="0"/>
			<psa30 value="0.00054639031026019" flag="0"/>
		</comp>
		<comp name="--.HNZ" depth="0.0">
			<acc value="0.001770669234855" flag="0"/>
			<vel value="0.00187199521119" flag="0"/>
			<psa03 value="0.00608037805561689" flag="0"/>
			<psa10 value="0.00387541649294736" flag="0"/>
			<psa30 value="0.000509455207238526" flag="0"/>
		</comp>
	</station>
	<station code="CMRD" name="CMRD" netid="KO" source="Bogazici University Kandilli Observatory And Earthquake Research Institute (KOERI)" insttype="" lat="37.6623" lon="34.9902">
		<comp name="--.HNE" depth="0.0">
			<acc value="0.002291866869162" flag="0"/>
			<vel value="0.00205182238062" flag="0"/>
			<psa03 value="0.00406371321147369" flag="0"/>
			<psa10 value="0.00188155390152394" flag="0"/>
			<psa30 value="0.000265831698586947" flag="0"/>
		</comp>
		<comp name="--.HNN" depth="0.0">
			<acc value="0.0026524416520338" flag="0"/>
			<vel value="0.00178242557177" flag="0"/>
			<psa03 value="0.0072514204751992" flag="0"/>
			<psa10 value="0.00185123677597575" flag="0"/>
			<psa30 value="0.000269684584029943" flag="0"/>
		</comp>
		<comp name="--.HNZ" depth="0.0">
			<acc value="0.001804525277886" flag="0"/>
			<vel value="0.00162064294898" flag="0"/>
			<psa03 value="0.00490070876249793" flag="0"/>
			<psa10 value="0.00209063294729746" flag="0"/>
			<psa30 value="0.000320788047508674" flag="0"/>
		</comp>
	</station>
	<station code="KHMN" name="KHMN" netid="KO" source="Bogazici University Kandilli Observatory And Earthquake Research Institute (KOERI)" insttype="" lat="37.3916" lon="37.1574">
		<comp name="--.HNE" depth="0.0">
			<acc value="0.031505099267868" flag="0"/>
			<vel value="0.00918836271877" flag="0"/>
			<psa03 value="0.0687560964205813" flag="0"/>
			<psa10 value="0.00431262959681309" flag="0"/>
			<psa30 value="0.000552966006282638" flag="0"/>
		</comp>
		<comp name="--.HNN" depth="0.0">
			<acc value="0.022294191246432" flag="0"/>
			<vel value="0.0082631026491" flag="0"/>
			<psa03 value="0.0376179216901964" flag="0"/>
			<psa10 value="0.00515090715980466" flag="0"/>
			<psa30 value="0.000386213631632552" flag="0"/>
		</comp>
		<comp name="--.HNZ" depth="0.0">
			<acc value="0.015598982730684" flag="0"/>
			<vel value="0.00410521129982" flag="0"/>
			<psa03 value="0.0266413325658472" flag="0"/>
			<psa10 value="0.00169864350335934" flag="0"/>
			<psa30 value="0.000279692668891836" flag="0"/>
		</comp>
	</station>
	<station code="KOZK" name="KOZK" netid="KO" source="Bogazici University Kandilli Observatory And Earthquake Research Institute (KOERI)" insttype="" lat="39.2101" lon="34.868">
		<comp name="--.HNE" depth="0.0">
			<acc value="0.0044511847290726" flag="0"/>
			<vel value="0.00238542614035" flag="0"/>
			<psa03 value="0.0105107509731729" flag="0"/>
			<psa10 value="0.00361779716130587" flag="0"/>
			<psa30 value="0.000337123686956287" flag="0"/>
		</comp>
		<comp name="--.HNN" depth="0.0">
			<acc value="0.0032058535682778" flag="0"/>
			<vel value="0.00325519076936" flag="0"/>
			<psa03 value="0.00653966108502696" flag="0"/>
			<psa10 value="0.00720272198874089" flag="0"/>
			<psa30 value="0.000344502430970508" flag="0"/>
		</comp>
		<comp name="--.HNZ" depth="0.0">
			<acc value="0.0034523952120456" flag="0"/>
			<vel value="0.00105789890246" flag="0"/>
			<psa03 value="0.00764071123775518" flag="0"/>
			<psa10 value="0.000910638313601121" flag="0"/>
			<psa30 value="0.000148850785113246" flag="0"/>
		</comp>
	</station>
	<station code="TUNC" name="TUNC" netid="KO" source="Bogazici University Kandilli Observatory And Earthquake Research Institute (KOERI)" insttype="" lat="39.6942" lon="37.5388">
		<comp name="--.HNE" depth="0.0">
			<acc value="0.0047480683882722" flag="0"/>
			<vel value="0.00408776195283" flag="0"/>
			<psa03 value="0.00950557826561837" flag="0"/>
			<psa10 value="0.00420764139184511" flag="0"/>
			<psa30 value="0.000434341012543853" flag="0"/>
		</comp>
		<comp name="--.HNN" depth="0.0">
			<acc value="0.0027999711058422" flag="0"/>
			<vel value="0.00287843892358" flag="0"/>
			<psa03 value="0.011035326088283" flag="0"/>
			<psa10 value="0.00235675971751293" flag="0"/>
			<psa30 value="0.000411070955391525" flag="0"/>
		</comp>
		<comp name="--.HNZ" depth="0.0">
			<acc value="0.0016401110580336" flag="0"/>
			<vel value="0.00146993062807" flag="0"/>
			<psa03 value="0.00591306228428544" flag="0"/>
			<psa10 value="0.00203809032598162" flag="0"/>
			<psa30 value="0.000412722575219985" flag="0"/>
		</comp>
	</station>
</stationlist>
