<stationlist created="1631873496">
	<station code="KRL1" name="KRL1" netid="HI" source="ITSAK Strong Motion Network" insttype="" lat="37.7951" lon="26.7065">
		<comp name="--.HNE" depth="0.0">
			<acc value="-6.484313196" flag="0"/>
			<vel value="2.273798" flag="0"/>
			<psa03 value="11.7672450828" flag="0"/>
			<psa10 value="1.17572854676" flag="0"/>
			<psa30 value="0.260083315118" flag="0"/>
		</comp>
		<comp name="--.HNN" depth="0.0">
			<acc value="-3.710196654" flag="0"/>
			<vel value="-1.529706" flag="0"/>
			<psa03 value="5.15667353938" flag="0"/>
			<psa10 value="1.1942639007" flag="0"/>
			<psa30 value="0.0632453461653" flag="0"/>
		</comp>
		<comp name="--.HNZ" depth="0.0">
			<acc value="-2.840592288" flag="0"/>
			<vel value="0.741312" flag="0"/>
			<psa03 value="3.07687680693" flag="0"/>
			<psa10 value="0.42500040418" flag="0"/>
			<psa30 value="0.0572096224925" flag="0"/>
		</comp>
	</station>
	<station code="DIDI" name="DIDI" netid="KO" source="Bogazici University Kandilli Observatory And Earthquake Research Institute (KOERI)" insttype="" lat="37.3767" lon="27.2398">
		<comp name="--.HNE" depth="0.0">
			<acc value="0.398835504" flag="0"/>
			<vel value="-0.218688" flag="0"/>
			<psa03 value="1.45246625345" flag="0"/>
			<psa10 value="0.160705505154" flag="0"/>
			<psa30 value="0.0402384561001" flag="0"/>
		</comp>
		<comp name="--.HNN" depth="0.0">
			<acc value="-0.427402032" flag="0"/>
			<vel value="-0.246939" flag="0"/>
			<psa03 value="2.48529535103" flag="0"/>
			<psa10 value="0.218622949355" flag="0"/>
			<psa30 value="0.075202700884" flag="0"/>
		</comp>
		<comp name="--.HNZ" depth="0.0">
			<acc value="0.312145908" flag="0"/>
			<vel value="-0.128167" flag="0"/>
			<psa03 value="0.922763269295" flag="0"/>
			<psa10 value="0.0633012739235" flag="0"/>
			<psa30 value="0.0133506270328" flag="0"/>
		</comp>
	</station>
	<station code="GMLD" name="GMLD" netid="KO" source="Bogazici University Kandilli Observatory And Earthquake Research Institute (KOERI)" insttype="" lat="38.0766" lon="26.9157">
		<comp name="--.HNE" depth="0.0">
			<acc value="-3.53749821" flag="0"/>
			<vel value="-1.427012" flag="0"/>
			<psa03 value="6.69647658014" flag="0"/>
			<psa10 value="0.824559494833" flag="0"/>
			<psa30 value="0.183553112963" flag="0"/>
		</comp>
		<comp name="--.HNN" depth="0.0">
			<acc value="-4.6919235" flag="0"/>
			<vel value="-1.648526" flag="0"/>
			<psa03 value="9.01246742133" flag="0"/>
			<psa10 value="0.799484619978" flag="0"/>
			<psa30 value="0.483426119848" flag="0"/>
		</comp>
		<comp name="--.HNZ" depth="0.0">
			<acc value="2.668597848" flag="0"/>
			<vel value="-0.879705" flag="0"/>
			<psa03 value="4.48809074588" flag="0"/>
			<psa10 value="0.416000509319" flag="0"/>
			<psa30 value="0.239658497796" flag="0"/>
		</comp>
	</station>
</stationlist>
