<?xml version="1.0" encoding="UTF-8" standalone="yes"?>
<!DOCTYPE earthquake SYSTEM "stationlist.dtd">
<stationlist created="" xmlns="ch.ethz.sed.shakemap.usgs.xml">
  <station code="KRL1" name="KRL1" netid="HI" insttype="CMG-5TD,ACCELEROMETER,GURALP" lat="37.7951" lon="26.7065">
    <comp name="--.HNE">
      <acc value="6.5152371900" flag="0"/>
      <vel value="2.1657797694" flag="0"/>
      <psa03 value="11.6348324783" flag="0"/>
      <psa10 value="1.1590823788" flag="0"/>
      <psa30 value="0.2206599706" flag="0"/>
    </comp>
    <comp name="--.HNN">
      <acc value="3.7108198534" flag="0"/>
      <vel value="1.5021794004" flag="0"/>
      <psa03 value="5.0817716994" flag="0"/>
      <psa10 value="1.1929690929" flag="0"/>
      <psa30 value="0.0584883485" flag="0"/>
    </comp>
    <comp name="--.HNZ">
      <acc value="2.9843925631" flag="0"/>
      <vel value="0.7181070830" flag="0"/>
      <psa03 value="3.0586602873" flag="0"/>
      <psa10 value="0.4225858121" flag="0"/>
      <psa30 value="0.0489540258" flag="0"/>
    </comp>
  </station>
  <station code="MYT1" name="MYT1" netid="HI" insttype="CMG-5TD,ACCELEROMETER,GURALP" lat="39.085" lon="26.5694">
    <comp name="--.HNE">
      <acc value="0.0450880129" flag="0"/>
      <vel value="0.0394998491" flag="0"/>
      <psa03 value="0.1278062834" flag="0"/>
      <psa10 value="0.0674917056" flag="0"/>
      <psa30 value="0.0145267029" flag="0"/>
    </comp>
    <comp name="--.HNN">
      <acc value="0.0438261069" flag="0"/>
      <vel value="0.0311098254" flag="0"/>
      <psa03 value="0.1232218105" flag="0"/>
      <psa10 value="0.0454690514" flag="0"/>
      <psa30 value="0.0181213157" flag="0"/>
    </comp>
    <comp name="--.HNZ">
      <acc value="0.0312588903" flag="0"/>
      <vel value="0.0327164850" flag="0"/>
      <psa03 value="0.0816483328" flag="0"/>
      <psa10 value="0.0584597199" flag="0"/>
      <psa30 value="0.0101559004" flag="0"/>
    </comp>
  </station>
  <station code="EAG2" name="EAG2" netid="HL" insttype="SMART24" lat="38.5438" lon="26.1079">
    <comp name="--.HHN">
      <acc value="0.7404087305" flag="0"/>
      <vel value="0.5547817303" flag="0"/>
      <psa03 value="2.4586869121" flag="0"/>
      <psa10 value="0.6262980842" flag="0"/>
      <psa30 value="0.0348363226" flag="0"/>
    </comp>
    <comp name="--.HHZ">
      <acc value="0.5390620648" flag="0"/>
      <vel value="0.1911266380" flag="0"/>
      <psa03 value="0.7865956911" flag="0"/>
      <psa10 value="0.2317253282" flag="0"/>
      <psa30 value="0.0179043851" flag="0"/>
    </comp>
    <comp name="--.HHE">
      <acc value="0.8943798956" flag="0"/>
      <vel value="0.5826463748" flag="0"/>
      <psa03 value="3.1106824210" flag="0"/>
      <psa10 value="0.3532480418" flag="0"/>
      <psa30 value="0.0350508704" flag="0"/>
    </comp>
  </station>
  <station code="KLNA" name="KLNA" netid="HL" insttype="CMG-5" lat="36.9571" lon="26.9727">
    <comp name="00.HNN">
      <acc value="0.2093368405" flag="0"/>
      <vel value="0.1025372203" flag="0"/>
      <psa03 value="0.7597768147" flag="0"/>
      <psa10 value="0.0500599212" flag="0"/>
      <psa30 value="0.0082098518" flag="0"/>
    </comp>
    <comp name="00.HNE">
      <acc value="0.2853084720" flag="0"/>
      <vel value="0.1370066986" flag="0"/>
      <psa03 value="0.7001265227" flag="0"/>
      <psa10 value="0.0531642421" flag="0"/>
      <psa30 value="0.0098380236" flag="0"/>
    </comp>
    <comp name="00.HNZ">
      <acc value="0.1871610160" flag="0"/>
      <vel value="0.0616868634" flag="0"/>
      <psa03 value="0.2082058426" flag="0"/>
      <psa10 value="0.0423157878" flag="0"/>
      <psa30 value="0.0093447710" flag="0"/>
    </comp>
  </station>
  <station code="CHOS" name="CHOS" netid="HT" insttype="100" lat="38.3869" lon="26.0506">
    <comp name="--.HHZ">
      <acc value="0.0371310065" flag="0"/>
      <vel value="0.0303145111" flag="0"/>
      <psa03 value="0.0625567683" flag="0"/>
      <psa10 value="0.0425968191" flag="0"/>
      <psa30 value="0.0055394150" flag="0"/>
    </comp>
    <comp name="--.HHN">
      <acc value="0.0685669163" flag="0"/>
      <vel value="0.0563750527" flag="0"/>
      <psa03 value="0.1688602745" flag="0"/>
      <psa10 value="0.1432854759" flag="0"/>
      <psa30 value="0.0064448849" flag="0"/>
    </comp>
    <comp name="--.HHE">
      <acc value="0.1573752775" flag="0"/>
      <vel value="0.0710820297" flag="0"/>
      <psa03 value="0.2213510532" flag="0"/>
      <psa10 value="0.1230075409" flag="0"/>
      <psa30 value="0.0055219984" flag="0"/>
    </comp>
  </station>
  <station code="AKS" name="AKS" netid="KO" insttype="100" lat="38.8785" lon="27.8129">
    <comp name="--.HNE">
      <acc value="0.0102823157" flag="0"/>
      <vel value="0.0060289274" flag="0"/>
      <psa03 value="0.0492102700" flag="0"/>
      <psa10 value="0.0031906602" flag="0"/>
      <psa30 value="0.0011657425" flag="0"/>
    </comp>
    <comp name="--.HNZ">
      <acc value="0.0029436833" flag="0"/>
      <vel value="0.0022713688" flag="0"/>
      <psa03 value="0.0096990437" flag="0"/>
      <psa10 value="0.0019555925" flag="0"/>
      <psa30 value="0.0008689872" flag="0"/>
    </comp>
    <comp name="--.HNN">
      <acc value="0.0092082337" flag="0"/>
      <vel value="0.0085885588" flag="0"/>
      <psa03 value="0.0342318953" flag="0"/>
      <psa10 value="0.0038522313" flag="0"/>
      <psa30 value="0.0015472749" flag="0"/>
    </comp>
  </station>
  <station code="CESE" name="CESE" netid="KO" insttype="100" lat="38.3306" lon="26.2997">
    <comp name="--.HNZ">
      <acc value="0.0067939791" flag="0"/>
      <vel value="0.0042807434" flag="0"/>
      <psa03 value="0.0109869103" flag="0"/>
      <psa10 value="0.0042612212" flag="0"/>
      <psa30 value="0.0012489625" flag="0"/>
    </comp>
    <comp name="--.HNE">
      <acc value="0.0064929505" flag="0"/>
      <vel value="0.0041828952" flag="0"/>
      <psa03 value="0.0148265488" flag="0"/>
      <psa10 value="0.0051213858" flag="0"/>
      <psa30 value="0.0017797032" flag="0"/>
    </comp>
    <comp name="--.HNN">
      <acc value="0.0143308503" flag="0"/>
      <vel value="0.0123536545" flag="0"/>
      <psa03 value="0.0396818516" flag="0"/>
      <psa10 value="0.0174416774" flag="0"/>
      <psa30 value="0.0011615655" flag="0"/>
    </comp>
  </station>
  <station code="FOCM" name="FOCM" netid="KO" insttype="100" lat="38.7131" lon="26.7309">
    <comp name="--.HNN">
      <acc value="0.0191544202" flag="0"/>
      <vel value="0.0147828497" flag="0"/>
      <psa03 value="0.0403767760" flag="0"/>
      <psa10 value="0.0205618274" flag="0"/>
      <psa30 value="0.0021287502" flag="0"/>
    </comp>
    <comp name="--.HNZ">
      <acc value="0.0119516132" flag="0"/>
      <vel value="0.0058303943" flag="0"/>
      <psa03 value="0.0264546823" flag="0"/>
      <psa10 value="0.0036142507" flag="0"/>
      <psa30 value="0.0011657394" flag="0"/>
    </comp>
    <comp name="--.HNE">
      <acc value="0.0165704370" flag="0"/>
      <vel value="0.0098072390" flag="0"/>
      <psa03 value="0.0455423391" flag="0"/>
      <psa10 value="0.0101657495" flag="0"/>
      <psa30 value="0.0017129398" flag="0"/>
    </comp>
  </station>
  <station code="GMLD" name="GMLD" netid="KO" insttype="100" lat="38.0764" lon="26.8747">
    <comp name="--.HNE">
      <acc value="0.5638928377" flag="0"/>
      <vel value="0.2235095902" flag="0"/>
      <psa03 value="1.0630378985" flag="0"/>
      <psa10 value="0.1311058758" flag="0"/>
      <psa30 value="0.0256589956" flag="0"/>
    </comp>
    <comp name="--.HNN">
      <acc value="0.7578513164" flag="0"/>
      <vel value="0.2622140476" flag="0"/>
      <psa03 value="1.4283784379" flag="0"/>
      <psa10 value="0.1252285581" flag="0"/>
      <psa30 value="0.0648782829" flag="0"/>
    </comp>
    <comp name="--.HNZ">
      <acc value="0.4251350522" flag="0"/>
      <vel value="0.1177341627" flag="0"/>
      <psa03 value="0.7104648132" flag="0"/>
      <psa10 value="0.0672446286" flag="0"/>
      <psa30 value="0.0315747089" flag="0"/>
    </comp>
  </station>
  <station code="KRBN" name="KRBN" netid="KO" insttype="100" lat="38.5936" lon="26.5537">
    <comp name="--.HNZ">
      <acc value="0.0683633553" flag="0"/>
      <vel value="0.0361377025" flag="0"/>
      <psa03 value="0.1780447383" flag="0"/>
      <psa10 value="0.0407993915" flag="0"/>
      <psa30 value="0.0058495556" flag="0"/>
    </comp>
    <comp name="--.HNE">
      <acc value="0.1272928246" flag="0"/>
      <vel value="0.0848306532" flag="0"/>
      <psa03 value="0.3460596974" flag="0"/>
      <psa10 value="0.0634598556" flag="0"/>
      <psa30 value="0.0129242173" flag="0"/>
    </comp>
    <comp name="--.HNN">
      <acc value="0.1660833171" flag="0"/>
      <vel value="0.1088575762" flag="0"/>
      <psa03 value="0.3547185342" flag="0"/>
      <psa10 value="0.0994801812" flag="0"/>
      <psa30 value="0.0084353940" flag="0"/>
    </comp>
  </station>
  <station code="AYDN" name="AYDN" netid="TU" source="ODC" insttype="T" lat="37.6608" lon="27.8792">
    <comp name="--.HHZ">
      <acc value="0.0831276559" flag="0"/>
      <vel value="0.0815464348" flag="0"/>
      <psa03 value="0.1914421596" flag="0"/>
      <psa10 value="0.0871888019" flag="0"/>
      <psa30 value="0.0122217603" flag="0"/>
    </comp>
    <comp name="--.HHN">
      <acc value="0.1855677794" flag="0"/>
      <vel value="0.1192228166" flag="0"/>
      <psa03 value="0.3942680483" flag="0"/>
      <psa10 value="0.1242160095" flag="0"/>
      <psa30 value="0.0159222280" flag="0"/>
    </comp>
    <comp name="--.HHE">
      <acc value="0.1978645391" flag="0"/>
      <vel value="0.1472461652" flag="0"/>
      <psa03 value="0.5002072360" flag="0"/>
      <psa10 value="0.1311683091" flag="0"/>
      <psa30 value="0.0140256616" flag="0"/>
    </comp>
  </station>
</stationlist>
