<?xml version="1.0" encoding="UTF-8" standalone="yes"?>
<!DOCTYPE earthquake SYSTEM "stationlist.dtd">
<stationlist created="" xmlns="ch.ethz.sed.shakemap.usgs.xml">
  <station code="PLN1" name="PLN1" netid="HI" insttype="CMG-5TD,ACCELEROMETER,GURALP" lat="39.998" lon="23.575">
    <comp name="--.HNE">
      <acc value="0.0750630291" flag="0"/>
      <vel value="0.0308201406" flag="0"/>
      <psa03 value="0.1576068472" flag="0"/>
      <psa10 value="0.0130509055" flag="0"/>
      <psa30 value="0.0008427858" flag="0"/>
    </comp>
    <comp name="--.HNN">
      <acc value="0.0623940571" flag="0"/>
      <vel value="0.0274681200" flag="0"/>
      <psa03 value="0.1740644759" flag="0"/>
      <psa10 value="0.0183319591" flag="0"/>
      <psa30 value="0.0009569288" flag="0"/>
    </comp>
    <comp name="--.HNZ">
      <acc value="0.0989558936" flag="0"/>
      <vel value="0.0214993774" flag="0"/>
      <psa03 value="0.0929997890" flag="0"/>
      <psa10 value="0.0082818770" flag="0"/>
      <psa30 value="0.0004073958" flag="0"/>
    </comp>
  </station>
  <station code="GINA" name="GINA" netid="HL" insttype="CMG-5" lat="39.6689" lon="22.389">
    <comp name="00.HNZ">
      <acc value="0.0175754234" flag="0"/>
      <vel value="0.0069507875" flag="0"/>
      <psa03 value="0.0382684485" flag="0"/>
      <psa10 value="0.0152861654" flag="0"/>
      <psa30 value="0.0005070577" flag="0"/>
    </comp>
    <comp name="00.HNN">
      <acc value="0.0320209539" flag="0"/>
      <vel value="0.0149336822" flag="0"/>
      <psa03 value="0.0541023377" flag="0"/>
      <psa10 value="0.0114228066" flag="0"/>
      <psa30 value="0.0011563431" flag="0"/>
    </comp>
    <comp name="00.HNE">
      <acc value="0.0318607668" flag="0"/>
      <vel value="0.0157544157" flag="0"/>
      <psa03 value="0.0613607475" flag="0"/>
      <psa10 value="0.0123544046" flag="0"/>
      <psa30 value="0.0010165703" flag="0"/>
    </comp>
  </station>
  <station code="NEO" name="NEO" netid="HL" insttype="120" lat="39.3057" lon="23.2219">
    <comp name="--.HHN">
      <acc value="0.0174536472" flag="0"/>
      <vel value="0.0085554325" flag="0"/>
      <psa03 value="0.0438929503" flag="0"/>
      <psa10 value="0.0051896687" flag="0"/>
      <psa30 value="0.0004471367" flag="0"/>
    </comp>
    <comp name="--.HHZ">
      <acc value="0.0123304230" flag="0"/>
      <vel value="0.0060623859" flag="0"/>
      <psa03 value="0.0265464738" flag="0"/>
      <psa10 value="0.0051715110" flag="0"/>
      <psa30 value="0.0002941213" flag="0"/>
    </comp>
    <comp name="--.HHE">
      <acc value="0.0234452845" flag="0"/>
      <vel value="0.0094427125" flag="0"/>
      <psa03 value="0.0775340268" flag="0"/>
      <psa10 value="0.0049681420" flag="0"/>
      <psa30 value="0.0003304452" flag="0"/>
    </comp>
  </station>
  <station code="PLG" name="PLG" netid="HL" insttype="120" lat="40.3733" lon="23.4444">
    <comp name="--.HHE">
      <acc value="0.5084866582" flag="0"/>
      <vel value="0.1388829659" flag="0"/>
      <psa03 value="0.7056651655" flag="0"/>
      <psa10 value="0.0347754846" flag="0"/>
      <psa30 value="0.0035031247" flag="0"/>
    </comp>
    <comp name="--.HHN">
      <acc value="0.2829024525" flag="0"/>
      <vel value="0.0774370836" flag="0"/>
      <psa03 value="0.3607304738" flag="0"/>
      <psa10 value="0.0245816186" flag="0"/>
      <psa30 value="0.0024293144" flag="0"/>
    </comp>
    <comp name="--.HHZ">
      <acc value="0.3558981236" flag="0"/>
      <vel value="0.1205025194" flag="0"/>
      <psa03 value="0.4276014398" flag="0"/>
      <psa10 value="0.0205024828" flag="0"/>
      <psa30 value="0.0019252564" flag="0"/>
    </comp>
  </station>
  <station code="THL" name="THL" netid="HL" insttype="120" lat="39.5647" lon="22.0144">
    <comp name="--.HHE">
      <acc value="0.0028210984" flag="0"/>
      <vel value="0.0014041008" flag="0"/>
      <psa03 value="0.0105575038" flag="0"/>
      <psa10 value="0.0021658179" flag="0"/>
      <psa30 value="0.0002093386" flag="0"/>
    </comp>
    <comp name="--.HHN">
      <acc value="0.0029440549" flag="0"/>
      <vel value="0.0019599323" flag="0"/>
      <psa03 value="0.0069415523" flag="0"/>
      <psa10 value="0.0020888611" flag="0"/>
      <psa30 value="0.0001900291" flag="0"/>
    </comp>
    <comp name="--.HHZ">
      <acc value="0.0027372304" flag="0"/>
      <vel value="0.0016186357" flag="0"/>
      <psa03 value="0.0066553025" flag="0"/>
      <psa10 value="0.0019603084" flag="0"/>
      <psa30 value="0.0002457277" flag="0"/>
    </comp>
  </station>
  <station code="GRG" name="GRG" netid="HT" insttype="100" lat="40.957" lon="22.401">
    <comp name="--.HHE">
      <acc value="0.0114466018" flag="0"/>
      <vel value="0.0057687543" flag="0"/>
      <psa03 value="0.0318634711" flag="0"/>
      <psa10 value="0.0033439071" flag="0"/>
      <psa30 value="0.0002509495" flag="0"/>
    </comp>
    <comp name="--.HHN">
      <acc value="0.0156380947" flag="0"/>
      <vel value="0.0088941780" flag="0"/>
      <psa03 value="0.0341671590" flag="0"/>
      <psa10 value="0.0041756113" flag="0"/>
      <psa30 value="0.0004263418" flag="0"/>
    </comp>
    <comp name="--.HHZ">
      <acc value="0.0085281365" flag="0"/>
      <vel value="0.0043392464" flag="0"/>
      <psa03 value="0.0284183716" flag="0"/>
      <psa10 value="0.0029177293" flag="0"/>
      <psa30 value="0.0002066829" flag="0"/>
    </comp>
  </station>
  <station code="KNT" name="KNT" netid="HT" insttype="100" lat="41.162" lon="22.898">
    <comp name="--.HHN">
      <acc value="0.0519688452" flag="0"/>
      <vel value="0.0178751940" flag="0"/>
      <psa03 value="0.0975843988" flag="0"/>
      <psa10 value="0.0120267397" flag="0"/>
      <psa30 value="0.0008994758" flag="0"/>
    </comp>
    <comp name="--.HHE">
      <acc value="0.0605871557" flag="0"/>
      <vel value="0.0196313009" flag="0"/>
      <psa03 value="0.1122910395" flag="0"/>
      <psa10 value="0.0109111936" flag="0"/>
      <psa30 value="0.0011146555" flag="0"/>
    </comp>
    <comp name="--.HHZ">
      <acc value="0.0326758223" flag="0"/>
      <vel value="0.0153557033" flag="0"/>
      <psa03 value="0.0643463044" flag="0"/>
      <psa10 value="0.0145963249" flag="0"/>
      <psa30 value="0.0013215626" flag="0"/>
    </comp>
  </station>
  <station code="KOKK" name="KOKK" netid="HT" insttype="Compact," lat="40.8178" lon="23.9992">
    <comp name="--.HHE">
      <acc value="0.0174767484" flag="0"/>
      <vel value="0.0058885959" flag="0"/>
      <psa03 value="0.0343150897" flag="0"/>
      <psa10 value="0.0038985547" flag="0"/>
      <psa30 value="0.0002691198" flag="0"/>
    </comp>
    <comp name="--.HHZ">
      <acc value="0.0216445314" flag="0"/>
      <vel value="0.0066560377" flag="0"/>
      <psa03 value="0.0391590750" flag="0"/>
      <psa10 value="0.0030513204" flag="0"/>
      <psa30 value="0.0002987007" flag="0"/>
    </comp>
    <comp name="--.HHN">
      <acc value="0.0252358145" flag="0"/>
      <vel value="0.0072357388" flag="0"/>
      <psa03 value="0.0436337305" flag="0"/>
      <psa10 value="0.0029690922" flag="0"/>
      <psa30 value="0.0002624504" flag="0"/>
    </comp>
  </station>
  <station code="LIT" name="LIT" netid="HT" insttype="100" lat="40.1033" lon="22.4892">
    <comp name="--.HHZ">
      <acc value="0.0079284890" flag="0"/>
      <vel value="0.0030025886" flag="0"/>
      <psa03 value="0.0290581095" flag="0"/>
      <psa10 value="0.0020865126" flag="0"/>
      <psa30 value="0.0003397034" flag="0"/>
    </comp>
    <comp name="--.HHE">
      <acc value="0.0152923910" flag="0"/>
      <vel value="0.0047467121" flag="0"/>
      <psa03 value="0.0276506689" flag="0"/>
      <psa10 value="0.0018082843" flag="0"/>
      <psa30 value="0.0003280587" flag="0"/>
    </comp>
    <comp name="--.HHN">
      <acc value="0.0219085182" flag="0"/>
      <vel value="0.0078587689" flag="0"/>
      <psa03 value="0.0618485214" flag="0"/>
      <psa10 value="0.0046166763" flag="0"/>
      <psa30 value="0.0005107669" flag="0"/>
    </comp>
  </station>
  <station code="NESN" name="NESN" netid="HT" insttype="1s-100Hz," lat="39.7267" lon="22.5399">
    <comp name="--.HHZ">
      <acc value="0.0276783149" flag="0"/>
      <vel value="0.0136907288" flag="0"/>
      <psa03 value="0.0610387787" flag="0"/>
      <psa10 value="0.0148035114" flag="0"/>
      <psa30 value="0.0008612124" flag="0"/>
    </comp>
    <comp name="--.HHE">
      <acc value="0.0513532996" flag="0"/>
      <vel value="0.0434008869" flag="0"/>
      <psa03 value="0.1818052607" flag="0"/>
      <psa10 value="0.0654177148" flag="0"/>
      <psa30 value="0.0023758021" flag="0"/>
    </comp>
    <comp name="--.HHN">
      <acc value="0.0525489054" flag="0"/>
      <vel value="0.0451859154" flag="0"/>
      <psa03 value="0.1278444862" flag="0"/>
      <psa10 value="0.0545585206" flag="0"/>
      <psa30 value="0.0023239658" flag="0"/>
    </comp>
  </station>
  <station code="OUR" name="OUR" netid="HT" insttype="100" lat="40.3325" lon="23.9791">
    <comp name="--.HHZ">
      <acc value="0.0710578294" flag="0"/>
      <vel value="0.0209270263" flag="0"/>
      <psa03 value="0.0924192181" flag="0"/>
      <psa10 value="0.0069534734" flag="0"/>
      <psa30 value="0.0005290079" flag="0"/>
    </comp>
    <comp name="--.HHE">
      <acc value="0.0965595907" flag="0"/>
      <vel value="0.0429150450" flag="0"/>
      <psa03 value="0.2298884141" flag="0"/>
      <psa10 value="0.0173504767" flag="0"/>
      <psa30 value="0.0015055813" flag="0"/>
    </comp>
    <comp name="--.HHN">
      <acc value="0.0976653420" flag="0"/>
      <vel value="0.0381680260" flag="0"/>
      <psa03 value="0.2878619059" flag="0"/>
      <psa10 value="0.0185220293" flag="0"/>
      <psa30 value="0.0013521308" flag="0"/>
    </comp>
  </station>
  <station code="PAIG" name="PAIG" netid="HT" insttype="100" lat="39.9363" lon="23.6768">
    <comp name="--.HHZ">
      <acc value="0.0298100520" flag="0"/>
      <vel value="0.0116219042" flag="0"/>
      <psa03 value="0.0378104788" flag="0"/>
      <psa10 value="0.0063852559" flag="0"/>
      <psa30 value="0.0003847638" flag="0"/>
    </comp>
    <comp name="--.HHE">
      <acc value="0.0537279373" flag="0"/>
      <vel value="0.0095063122" flag="0"/>
      <psa03 value="0.0623548927" flag="0"/>
      <psa10 value="0.0037015597" flag="0"/>
      <psa30 value="0.0002988690" flag="0"/>
    </comp>
    <comp name="--.HHN">
      <acc value="0.0462743815" flag="0"/>
      <vel value="0.0165889402" flag="0"/>
      <psa03 value="0.0441612265" flag="0"/>
      <psa10 value="0.0086385803" flag="0"/>
      <psa30 value="0.0005426393" flag="0"/>
    </comp>
  </station>
  <station code="SOH" name="SOH" netid="HT" insttype="120P," lat="40.8217" lon="23.3539">
    <comp name="--.HHE">
      <acc value="0.0786273279" flag="0"/>
      <vel value="0.0294459591" flag="0"/>
      <psa03 value="0.1754297782" flag="0"/>
      <psa10 value="0.0113285004" flag="0"/>
      <psa30 value="0.0007877016" flag="0"/>
    </comp>
    <comp name="--.HHN">
      <acc value="0.0506713753" flag="0"/>
      <vel value="0.0171931731" flag="0"/>
      <psa03 value="0.1376753120" flag="0"/>
      <psa10 value="0.0055867425" flag="0"/>
      <psa30 value="0.0003872892" flag="0"/>
    </comp>
    <comp name="--.HHZ">
      <acc value="0.0370511286" flag="0"/>
      <vel value="0.0144558545" flag="0"/>
      <psa03 value="0.0856701816" flag="0"/>
      <psa10 value="0.0050076848" flag="0"/>
      <psa30 value="0.0003143402" flag="0"/>
    </comp>
  </station>
  <station code="THE" name="THE" netid="HT" insttype="30s-100Hz," lat="40.6319" lon="22.9628">
    <comp name="--.HHZ">
      <acc value="0.0312730520" flag="0"/>
      <vel value="0.0068437929" flag="0"/>
      <psa03 value="0.0306634459" flag="0"/>
      <psa10 value="0.0046934142" flag="0"/>
      <psa30 value="0.0003223869" flag="0"/>
    </comp>
    <comp name="--.HHN">
      <acc value="0.0446103261" flag="0"/>
      <vel value="0.0112615694" flag="0"/>
      <psa03 value="0.0343432639" flag="0"/>
      <psa10 value="0.0030389164" flag="0"/>
      <psa30 value="0.0002519620" flag="0"/>
    </comp>
    <comp name="--.HHE">
      <acc value="0.0446507713" flag="0"/>
      <vel value="0.0121849380" flag="0"/>
      <psa03 value="0.0593623104" flag="0"/>
      <psa10 value="0.0048375480" flag="0"/>
      <psa30 value="0.0004617617" flag="0"/>
    </comp>
  </station>
  <station code="XOR" name="XOR" netid="HT" insttype="Compact," lat="39.366" lon="23.1918">
    <comp name="--.HHN">
      <acc value="0.0204061355" flag="0"/>
      <vel value="0.0131481880" flag="0"/>
      <psa03 value="0.0988774151" flag="0"/>
      <psa10 value="0.0065618089" flag="0"/>
      <psa30 value="0.0007525475" flag="0"/>
    </comp>
    <comp name="--.HHZ">
      <acc value="0.0085630885" flag="0"/>
      <vel value="0.0043630118" flag="0"/>
      <psa03 value="0.0228611062" flag="0"/>
      <psa10 value="0.0021439686" flag="0"/>
      <psa30 value="0.0002778044" flag="0"/>
    </comp>
    <comp name="--.HHE">
      <acc value="0.0102019847" flag="0"/>
      <vel value="0.0046216499" flag="0"/>
      <psa03 value="0.0460731158" flag="0"/>
      <psa10 value="0.0024808549" flag="0"/>
      <psa30 value="0.0002389546" flag="0"/>
    </comp>
  </station>
  <station code="THL" name="THL" netid="MN" insttype="" lat="39.5647" lon="22.0144">
    <comp name="--.HHE">
      <acc value="0.0028210984" flag="0"/>
      <vel value="0.0014041008" flag="0"/>
      <psa03 value="0.0105575038" flag="0"/>
      <psa10 value="0.0021658179" flag="0"/>
      <psa30 value="0.0002093386" flag="0"/>
    </comp>
    <comp name="--.HHN">
      <acc value="0.0029440549" flag="0"/>
      <vel value="0.0019599323" flag="0"/>
      <psa03 value="0.0069415523" flag="0"/>
      <psa10 value="0.0020888611" flag="0"/>
      <psa30 value="0.0001900291" flag="0"/>
    </comp>
    <comp name="--.HHZ">
      <acc value="0.0027372304" flag="0"/>
      <vel value="0.0016186357" flag="0"/>
      <psa03 value="0.0066553025" flag="0"/>
      <psa10 value="0.0019603084" flag="0"/>
      <psa30 value="0.0002457277" flag="0"/>
    </comp>
  </station>
</stationlist>
