<?xml version="1.0" encoding="UTF-8" standalone="yes"?>
<!DOCTYPE earthquake SYSTEM "stationlist.dtd">
<stationlist created="" xmlns="ch.ethz.sed.shakemap.usgs.xml">
  <station code="ARMT" name="ARMT" netid="KO" insttype="CMG-3ESP" lat="40.5683" lon="28.866">
    <comp name="--.HHE">
      <acc value="0.0556319233" flag="0"/>
      <vel value="0.0135510589" flag="0"/>
      <psa03 value="0.0838967712" flag="0"/>
      <psa10 value="0.0039970222" flag="0"/>
      <psa30 value="0.0002390472" flag="0"/>
    </comp>
    <comp name="--.HHZ">
      <acc value="0.0427640489" flag="0"/>
      <vel value="0.0066560966" flag="0"/>
      <psa03 value="0.0472085525" flag="0"/>
      <psa10 value="0.0022823310" flag="0"/>
      <psa30 value="0.0001599277" flag="0"/>
    </comp>
    <comp name="--.HHN">
      <acc value="0.0856989261" flag="0"/>
      <vel value="0.0182183417" flag="0"/>
      <psa03 value="0.1014691982" flag="0"/>
      <psa10 value="0.0051504856" flag="0"/>
      <psa30 value="0.0003073004" flag="0"/>
    </comp>
  </station>
  <station code="AVCI" name="AVCI" netid="KO" insttype="CMG-5T" lat="40.9958" lon="28.7225">
    <comp name="--.HNE">
      <acc value="0.0265655228" flag="0"/>
      <vel value="0.0166857823" flag="0"/>
      <psa03 value="0.0750909330" flag="0"/>
      <psa10 value="0.0205237586" flag="0"/>
      <psa30 value="0.0013269984" flag="0"/>
    </comp>
    <comp name="--.HNN">
      <acc value="0.0278466512" flag="0"/>
      <vel value="0.0152141522" flag="0"/>
      <psa03 value="0.0654880856" flag="0"/>
      <psa10 value="0.0082931155" flag="0"/>
      <psa30 value="0.0011415484" flag="0"/>
    </comp>
    <comp name="--.HNZ">
      <acc value="0.0301633249" flag="0"/>
      <vel value="0.0080466594" flag="0"/>
      <psa03 value="0.0539344752" flag="0"/>
      <psa10 value="0.0038432712" flag="0"/>
      <psa30 value="0.0004142897" flag="0"/>
    </comp>
  </station>
  <station code="BGKT" name="BGKT" netid="KO" insttype="CMG-3ESP" lat="41.181" lon="28.773">
    <comp name="--.HHE">
      <acc value="0.0340287397" flag="0"/>
      <vel value="0.0068132474" flag="0"/>
      <psa03 value="0.0385741381" flag="0"/>
      <psa10 value="0.0024224571" flag="0"/>
      <psa30 value="0.0002752150" flag="0"/>
    </comp>
    <comp name="--.HHN">
      <acc value="0.0244847574" flag="0"/>
      <vel value="0.0049116482" flag="0"/>
      <psa03 value="0.0334564330" flag="0"/>
      <psa10 value="0.0026091273" flag="0"/>
      <psa30 value="0.0002280849" flag="0"/>
    </comp>
    <comp name="--.HHZ">
      <acc value="0.0166004868" flag="0"/>
      <vel value="0.0036542580" flag="0"/>
      <psa03 value="0.0188004868" flag="0"/>
      <psa10 value="0.0016564232" flag="0"/>
      <psa30 value="0.0001169797" flag="0"/>
    </comp>
  </station>
  <station code="BIGA" name="BIGA" netid="KO" insttype="CMG-5T" lat="40.2813" lon="27.1505">
    <comp name="--.HNZ">
      <acc value="0.0625256542" flag="0"/>
      <vel value="0.0154919173" flag="0"/>
      <psa03 value="0.0588445183" flag="0"/>
      <psa10 value="0.0033622804" flag="0"/>
      <psa30 value="0.0003561033" flag="0"/>
    </comp>
    <comp name="--.HNN">
      <acc value="0.2407833045" flag="0"/>
      <vel value="0.0782456531" flag="0"/>
      <psa03 value="0.3943436672" flag="0"/>
      <psa10 value="0.0185034322" flag="0"/>
      <psa30 value="0.0015913142" flag="0"/>
    </comp>
    <comp name="--.HNE">
      <acc value="0.1583566040" flag="0"/>
      <vel value="0.0455958295" flag="0"/>
      <psa03 value="0.2296856232" flag="0"/>
      <psa10 value="0.0099300712" flag="0"/>
      <psa30 value="0.0006999471" flag="0"/>
    </comp>
  </station>
  <station code="BOTS" name="BOTS" netid="KO" insttype="CMG-5T" lat="40.9902" lon="27.981">
    <comp name="--.HNN">
      <acc value="0.0421370893" flag="0"/>
      <vel value="0.0196396774" flag="0"/>
      <psa03 value="0.0921495413" flag="0"/>
      <psa10 value="0.0052311384" flag="0"/>
      <psa30 value="0.0007474575" flag="0"/>
    </comp>
    <comp name="--.HNZ">
      <acc value="0.0322663618" flag="0"/>
      <vel value="0.0050773616" flag="0"/>
      <psa03 value="0.0226186768" flag="0"/>
      <psa10 value="0.0028149908" flag="0"/>
      <psa30 value="0.0004253048" flag="0"/>
    </comp>
    <comp name="--.HNE">
      <acc value="0.0394690255" flag="0"/>
      <vel value="0.0091607024" flag="0"/>
      <psa03 value="0.0469829336" flag="0"/>
      <psa10 value="0.0043576995" flag="0"/>
      <psa30 value="0.0004199438" flag="0"/>
    </comp>
  </station>
  <station code="BRGA" name="BRGA" netid="KO" insttype="CMG-5T" lat="40.8846" lon="29.065">
    <comp name="--.HNN">
      <acc value="0.0292753312" flag="0"/>
      <vel value="0.0118399438" flag="0"/>
      <psa03 value="0.0565413356" flag="0"/>
      <psa10 value="0.0074702784" flag="0"/>
      <psa30 value="0.0005702027" flag="0"/>
    </comp>
    <comp name="--.HNZ">
      <acc value="0.0277923132" flag="0"/>
      <vel value="0.0080240831" flag="0"/>
      <psa03 value="0.0569080887" flag="0"/>
      <psa10 value="0.0019636838" flag="0"/>
      <psa30 value="0.0002515555" flag="0"/>
    </comp>
    <comp name="--.HNE">
      <acc value="0.0296671786" flag="0"/>
      <vel value="0.0087745586" flag="0"/>
      <psa03 value="0.0379479226" flag="0"/>
      <psa10 value="0.0058417533" flag="0"/>
      <psa30 value="0.0003731205" flag="0"/>
    </comp>
  </station>
  <station code="BUYA" name="BUYA" netid="KO" insttype="CMG-5T" lat="40.8694" lon="29.1278">
    <comp name="--.HNN">
      <acc value="0.0477575253" flag="0"/>
      <vel value="0.0160863908" flag="0"/>
      <psa03 value="0.0855819407" flag="0"/>
      <psa10 value="0.0084502219" flag="0"/>
      <psa30 value="0.0006051350" flag="0"/>
    </comp>
    <comp name="--.HNZ">
      <acc value="0.0435398398" flag="0"/>
      <vel value="0.0101706279" flag="0"/>
      <psa03 value="0.0516901846" flag="0"/>
      <psa10 value="0.0022519953" flag="0"/>
      <psa30 value="0.0005405784" flag="0"/>
    </comp>
  </station>
  <station code="CANM" name="CANM" netid="KO" insttype="CMG-5T" lat="40.0113" lon="27.0529">
    <comp name="--.HNE">
      <acc value="0.0920519517" flag="0"/>
      <vel value="0.0342047446" flag="0"/>
      <psa03 value="0.1692926533" flag="0"/>
      <psa10 value="0.0064140458" flag="0"/>
      <psa30 value="0.0009430809" flag="0"/>
    </comp>
    <comp name="--.HNZ">
      <acc value="0.0991749065" flag="0"/>
      <vel value="0.0253142630" flag="0"/>
      <psa03 value="0.0677255808" flag="0"/>
      <psa10 value="0.0054879454" flag="0"/>
      <psa30 value="0.0004264607" flag="0"/>
    </comp>
    <comp name="--.HNN">
      <acc value="0.1090161761" flag="0"/>
      <vel value="0.0372137059" flag="0"/>
      <psa03 value="0.2089951191" flag="0"/>
      <psa10 value="0.0122663105" flag="0"/>
      <psa30 value="0.0011548167" flag="0"/>
    </comp>
  </station>
  <station code="CTKS" name="CTKS" netid="KO" insttype="CMG-3ESP" lat="41.2373" lon="28.5072">
    <comp name="--.HHZ">
      <acc value="0.0000200276" flag="0"/>
      <vel value="0.0000023451" flag="0"/>
      <psa03 value="0.0000069152" flag="0"/>
      <psa10 value="0.0000017830" flag="0"/>
      <psa30 value="0.0000003644" flag="0"/>
    </comp>
    <comp name="--.HHE">
      <acc value="0.0604585271" flag="0"/>
      <vel value="0.0083272592" flag="0"/>
      <psa03 value="0.0224912857" flag="0"/>
      <psa10 value="0.0009280208" flag="0"/>
      <psa30 value="0.0001492400" flag="0"/>
    </comp>
  </station>
  <station code="CTYL" name="CTYL" netid="KO" insttype="CMG-3T" lat="41.476" lon="28.2897">
    <comp name="--.HHN">
      <acc value="0.0621023476" flag="0"/>
      <vel value="0.0195341262" flag="0"/>
      <psa03 value="0.1077064145" flag="0"/>
      <psa10 value="0.0063613281" flag="0"/>
      <psa30 value="0.0004446343" flag="0"/>
    </comp>
    <comp name="--.HHZ">
      <acc value="0.0439611574" flag="0"/>
      <vel value="0.0111342629" flag="0"/>
      <psa03 value="0.0892069460" flag="0"/>
      <psa10 value="0.0033921102" flag="0"/>
      <psa30 value="0.0002520951" flag="0"/>
    </comp>
  </station>
  <station code="DST" name="DST" netid="KO" insttype="CMG-5T" lat="39.6041" lon="28.6267">
    <comp name="--.HNE">
      <acc value="0.0362299848" flag="0"/>
      <vel value="0.0168243279" flag="0"/>
      <psa03 value="0.0999731445" flag="0"/>
      <psa10 value="0.0064476397" flag="0"/>
      <psa30 value="0.0006862645" flag="0"/>
    </comp>
    <comp name="--.HNZ">
      <acc value="0.0245110161" flag="0"/>
      <vel value="0.0091834418" flag="0"/>
      <psa03 value="0.0658068525" flag="0"/>
      <psa10 value="0.0027214521" flag="0"/>
      <psa30 value="0.0002247936" flag="0"/>
    </comp>
    <comp name="--.HNN">
      <acc value="0.0413830752" flag="0"/>
      <vel value="0.0137872435" flag="0"/>
      <psa03 value="0.1143592740" flag="0"/>
      <psa10 value="0.0060967162" flag="0"/>
      <psa30 value="0.0006156335" flag="0"/>
    </comp>
  </station>
  <station code="EDC" name="EDC" netid="KO" insttype="CMG-3T" lat="40.3465" lon="27.8618">
    <comp name="--.HHZ">
      <acc value="0.2359584253" flag="0"/>
      <vel value="0.0517803099" flag="0"/>
      <psa03 value="0.1738968942" flag="0"/>
      <psa10 value="0.0148125388" flag="0"/>
      <psa30 value="0.0009237432" flag="0"/>
    </comp>
    <comp name="--.HHN">
      <acc value="0.4208322444" flag="0"/>
      <vel value="0.1101861352" flag="0"/>
      <psa03 value="0.5788857581" flag="0"/>
      <psa10 value="0.0513577618" flag="0"/>
      <psa30 value="0.0037093687" flag="0"/>
    </comp>
    <comp name="--.HHE">
      <acc value="0.3712288057" flag="0"/>
      <vel value="0.0979457830" flag="0"/>
      <psa03 value="0.6322367931" flag="0"/>
      <psa10 value="0.0333698591" flag="0"/>
      <psa30 value="0.0025401743" flag="0"/>
    </comp>
  </station>
  <station code="GAZK" name="GAZK" netid="KO" insttype="CMG-6T" lat="40.7479" lon="27.3275">
    <comp name="--.HHZ">
      <acc value="0.1240200502" flag="0"/>
      <vel value="0.0278246240" flag="0"/>
      <psa03 value="0.0873968948" flag="0"/>
      <psa10 value="0.0068214038" flag="0"/>
      <psa30 value="0.0005536224" flag="0"/>
    </comp>
    <comp name="--.HHN">
      <acc value="0.2829290403" flag="0"/>
      <vel value="0.0652775269" flag="0"/>
      <psa03 value="0.2212347471" flag="0"/>
      <psa10 value="0.0166935254" flag="0"/>
      <psa30 value="0.0012547383" flag="0"/>
    </comp>
    <comp name="--.HHE">
      <acc value="0.2721889678" flag="0"/>
      <vel value="0.0666418879" flag="0"/>
      <psa03 value="0.2098074990" flag="0"/>
      <psa10 value="0.0171157388" flag="0"/>
      <psa30 value="0.0014174794" flag="0"/>
    </comp>
  </station>
  <station code="GEML" name="GEML" netid="KO" insttype="CMG-3T" lat="40.4646" lon="29.2116">
    <comp name="--.HHE">
      <acc value="0.0943636123" flag="0"/>
      <vel value="0.0159906280" flag="0"/>
      <psa03 value="0.1070253151" flag="0"/>
      <psa10 value="0.0046635096" flag="0"/>
      <psa30 value="0.0004345746" flag="0"/>
    </comp>
    <comp name="--.HHN">
      <acc value="0.0837916768" flag="0"/>
      <vel value="0.0138632512" flag="0"/>
      <psa03 value="0.0850701319" flag="0"/>
      <psa10 value="0.0081818930" flag="0"/>
      <psa30 value="0.0003352656" flag="0"/>
    </comp>
    <comp name="--.HHZ">
      <acc value="0.0558488196" flag="0"/>
      <vel value="0.0081300093" flag="0"/>
      <psa03 value="0.0243524645" flag="0"/>
      <psa10 value="0.0025520277" flag="0"/>
      <psa30 value="0.0002155538" flag="0"/>
    </comp>
  </station>
  <station code="HYBA" name="HYBA" netid="KO" insttype="CMG-5T" lat="40.8754" lon="29.0854">
    <comp name="--.HNZ">
      <acc value="0.0208374250" flag="0"/>
      <vel value="0.0056399062" flag="0"/>
      <psa03 value="0.0275244137" flag="0"/>
      <psa10 value="0.0019767547" flag="0"/>
      <psa30 value="0.0003226753" flag="0"/>
    </comp>
    <comp name="--.HNE">
      <acc value="0.0215818585" flag="0"/>
      <vel value="0.0086222241" flag="0"/>
      <psa03 value="0.0676539603" flag="0"/>
      <psa10 value="0.0033681137" flag="0"/>
      <psa30 value="0.0003110150" flag="0"/>
    </comp>
  </station>
  <station code="ISK" name="ISK" netid="KO" insttype="CMG-3T" lat="41.0615" lon="29.0592">
    <comp name="--.HHE">
      <acc value="0.0223679902" flag="0"/>
      <vel value="0.0068924001" flag="0"/>
      <psa03 value="0.0440972464" flag="0"/>
      <psa10 value="0.0023651363" flag="0"/>
      <psa30 value="0.0002187307" flag="0"/>
    </comp>
    <comp name="--.HHN">
      <acc value="0.0216622220" flag="0"/>
      <vel value="0.0075662149" flag="0"/>
      <psa03 value="0.0415253731" flag="0"/>
      <psa10 value="0.0040291680" flag="0"/>
      <psa30 value="0.0002225090" flag="0"/>
    </comp>
    <comp name="--.HHZ">
      <acc value="0.0140469081" flag="0"/>
      <vel value="0.0035324896" flag="0"/>
      <psa03 value="0.0230839575" flag="0"/>
      <psa10 value="0.0018604809" flag="0"/>
      <psa30 value="0.0001217892" flag="0"/>
    </comp>
  </station>
  <station code="IZI" name="IZI" netid="KO" insttype="CMG-5T" lat="40.3483" lon="29.4612">
    <comp name="--.HNE">
      <acc value="0.0223535841" flag="0"/>
      <vel value="0.0087742254" flag="0"/>
      <psa03 value="0.0619229224" flag="0"/>
      <psa10 value="0.0059094583" flag="0"/>
      <psa30 value="0.0004992275" flag="0"/>
    </comp>
    <comp name="--.HNN">
      <acc value="0.0297088223" flag="0"/>
      <vel value="0.0085164870" flag="0"/>
      <psa03 value="0.0573766282" flag="0"/>
      <psa10 value="0.0055434064" flag="0"/>
      <psa30 value="0.0003831078" flag="0"/>
    </comp>
    <comp name="--.HNZ">
      <acc value="0.0147037625" flag="0"/>
      <vel value="0.0054616966" flag="0"/>
      <psa03 value="0.0312530173" flag="0"/>
      <psa10 value="0.0027796463" flag="0"/>
      <psa30 value="0.0003270094" flag="0"/>
    </comp>
  </station>
  <station code="KCTX" name="KCTX" netid="KO" insttype="CMG-3ESP" lat="40.2626" lon="28.3353">
    <comp name="--.HHE">
      <acc value="0.1674960434" flag="0"/>
      <vel value="0.0442426834" flag="0"/>
      <psa03 value="0.1866598492" flag="0"/>
      <psa10 value="0.0212109812" flag="0"/>
      <psa30 value="0.0021913811" flag="0"/>
    </comp>
    <comp name="--.HHZ">
      <acc value="0.1601463265" flag="0"/>
      <vel value="0.0389463136" flag="0"/>
      <psa03 value="0.1376550125" flag="0"/>
      <psa10 value="0.0089704369" flag="0"/>
      <psa30 value="0.0005353656" flag="0"/>
    </comp>
  </station>
  <station code="KLYT" name="KLYT" netid="KO" insttype="CMG-3T" lat="41.253" lon="29.042">
    <comp name="--.HHE">
      <acc value="0.0405843800" flag="0"/>
      <vel value="0.0108436190" flag="0"/>
      <psa03 value="0.0745038632" flag="0"/>
      <psa10 value="0.0046803431" flag="0"/>
      <psa30 value="0.0003103748" flag="0"/>
    </comp>
    <comp name="--.HHN">
      <acc value="0.0353443007" flag="0"/>
      <vel value="0.0121006842" flag="0"/>
      <psa03 value="0.0732191661" flag="0"/>
      <psa10 value="0.0034950917" flag="0"/>
      <psa30 value="0.0003264022" flag="0"/>
    </comp>
    <comp name="--.HHZ">
      <acc value="0.0214583639" flag="0"/>
      <vel value="0.0041596596" flag="0"/>
      <psa03 value="0.0264412895" flag="0"/>
      <psa10 value="0.0021611572" flag="0"/>
      <psa30 value="0.0001472190" flag="0"/>
    </comp>
  </station>
  <station code="KOUK" name="KOUK" netid="KO" insttype="CMG-5T" lat="40.6572" lon="29.1918">
    <comp name="--.HNE">
      <acc value="0.0363475610" flag="0"/>
      <vel value="0.0225992497" flag="0"/>
      <psa03 value="0.0834489463" flag="0"/>
      <psa10 value="0.0200028367" flag="0"/>
      <psa30 value="0.0011373234" flag="0"/>
    </comp>
    <comp name="--.HNN">
      <acc value="0.0281622211" flag="0"/>
      <vel value="0.0218367011" flag="0"/>
      <psa03 value="0.0892519866" flag="0"/>
      <psa10 value="0.0225717835" flag="0"/>
      <psa30 value="0.0011839203" flag="0"/>
    </comp>
    <comp name="--.HNZ">
      <acc value="0.0229599349" flag="0"/>
      <vel value="0.0116034153" flag="0"/>
      <psa03 value="0.0682916061" flag="0"/>
      <psa10 value="0.0087578068" flag="0"/>
      <psa30 value="0.0005801661" flag="0"/>
    </comp>
  </station>
  <station code="KRBG" name="KRBG" netid="KO" insttype="CMG-3ESP" lat="40.3932" lon="27.2977">
    <comp name="--.HHE">
      <acc value="0.1098754291" flag="0"/>
      <vel value="0.0328036492" flag="0"/>
      <psa03 value="0.1375766987" flag="0"/>
      <psa10 value="0.0052013091" flag="0"/>
      <psa30 value="0.0004458172" flag="0"/>
    </comp>
    <comp name="--.HHZ">
      <acc value="0.0496477670" flag="0"/>
      <vel value="0.0126158013" flag="0"/>
      <psa03 value="0.0376562432" flag="0"/>
      <psa10 value="0.0016400447" flag="0"/>
      <psa30 value="0.0002081843" flag="0"/>
    </comp>
  </station>
  <station code="KUMB" name="KUMB" netid="KO" insttype="CMG-5T" lat="40.8626" lon="27.4592">
    <comp name="--.HNE">
      <acc value="0.0993370759" flag="0"/>
      <vel value="0.0214192399" flag="0"/>
      <psa03 value="0.0690001477" flag="0"/>
      <psa10 value="0.0039569634" flag="0"/>
      <psa30 value="0.0004704714" flag="0"/>
    </comp>
    <comp name="--.HNN">
      <acc value="0.0924808074" flag="0"/>
      <vel value="0.0249492563" flag="0"/>
      <psa03 value="0.1195186380" flag="0"/>
      <psa10 value="0.0070179038" flag="0"/>
      <psa30 value="0.0006540697" flag="0"/>
    </comp>
    <comp name="--.HNZ">
      <acc value="0.0331158107" flag="0"/>
      <vel value="0.0069102731" flag="0"/>
      <psa03 value="0.0478917733" flag="0"/>
      <psa10 value="0.0026966633" flag="0"/>
      <psa30 value="0.0010920865" flag="0"/>
    </comp>
  </station>
  <station code="MAEG" name="MAEG" netid="KO" insttype="CMG-5T" lat="40.9653" lon="27.9448">
    <comp name="--.HNE">
      <acc value="0.0490212368" flag="0"/>
      <vel value="0.0103990479" flag="0"/>
      <psa03 value="0.0484963076" flag="0"/>
      <psa10 value="0.0033537075" flag="0"/>
      <psa30 value="0.0003983544" flag="0"/>
    </comp>
    <comp name="--.HNN">
      <acc value="0.0496275797" flag="0"/>
      <vel value="0.0216554868" flag="0"/>
      <psa03 value="0.1034658787" flag="0"/>
      <psa10 value="0.0085758104" flag="0"/>
      <psa30 value="0.0006837823" flag="0"/>
    </comp>
    <comp name="--.HNZ">
      <acc value="0.0225033898" flag="0"/>
      <vel value="0.0044923011" flag="0"/>
      <psa03 value="0.0186484284" flag="0"/>
      <psa10 value="0.0021189754" flag="0"/>
      <psa30 value="0.0003350303" flag="0"/>
    </comp>
  </station>
  <station code="MDNY" name="MDNY" netid="KO" insttype="CMG-3ESP" lat="40.3709" lon="28.8846">
    <comp name="--.HHN">
      <acc value="0.1116720995" flag="0"/>
      <vel value="0.0318902646" flag="0"/>
      <psa03 value="0.1480053328" flag="0"/>
      <psa10 value="0.0065151590" flag="0"/>
      <psa30 value="0.0005567514" flag="0"/>
    </comp>
    <comp name="--.HHZ">
      <acc value="0.0755174859" flag="0"/>
      <vel value="0.0140300817" flag="0"/>
      <psa03 value="0.0408615313" flag="0"/>
      <psa10 value="0.0028095001" flag="0"/>
      <psa30 value="0.0003396785" flag="0"/>
    </comp>
    <comp name="--.HHE">
      <acc value="0.0956522857" flag="0"/>
      <vel value="0.0293217132" flag="0"/>
      <psa03 value="0.1950506776" flag="0"/>
      <psa10 value="0.0094980933" flag="0"/>
      <psa30 value="0.0005968203" flag="0"/>
    </comp>
  </station>
  <station code="MRMT" name="MRMT" netid="KO" insttype="CMG-3T" lat="40.609" lon="27.5832">
    <comp name="--.HHE">
      <acc value="0.1394759991" flag="0"/>
      <vel value="0.0232388930" flag="0"/>
      <psa03 value="0.0756973193" flag="0"/>
