<stationlist created="1678384841">
	<station code="MYT1" name="MYT1" netid="HI" source="ITSAK Strong Motion Network" insttype="" lat="39.085" lon="26.5694">
		<comp name=".HNE" depth="0.0">
			<acc value="0.0105740339784" flag="0"/>
			<vel value="0.00602970400201" flag="0"/>
			<psa03 value="0.0299025277707" flag="0"/>
			<psa10 value="0.00586227444068" flag="0"/>
			<psa30 value="0.00044780987354" flag="0"/>
		</comp>
		<comp name=".HNN" depth="0.0">
			<acc value="0.0081819471458" flag="0"/>
			<vel value="0.00547755259482" flag="0"/>
			<psa03 value="0.0199753519149" flag="0"/>
			<psa10 value="0.0045700597753" flag="0"/>
			<psa30 value="0.000465925552782" flag="0"/>
		</comp>
		<comp name=".HNZ" depth="0.0">
			<acc value="0.00502297635688" flag="0"/>
			<vel value="0.00247974295868" flag="0"/>
			<psa03 value="0.0175072613326" flag="0"/>
			<psa10 value="0.00263896872498" flag="0"/>
			<psa30 value="0.000277307328583" flag="0"/>
		</comp>
	</station>
	<station code="PRK" name="PRK" netid="HL" source="National Observatory of Athens Seismic Network" insttype="" lat="39.24565" lon="26.26499">
		<comp name=".HNE" depth="0.0">
			<acc value="0.00492653038765" flag="0"/>
			<vel value="0.00242194541433" flag="0"/>
			<psa03 value="0.0170127246658" flag="0"/>
			<psa10 value="0.00285509812062" flag="0"/>
			<psa30 value="0.000230184675689" flag="0"/>
		</comp>
		<comp name=".HNN" depth="0.0">
			<acc value="0.00851314452762" flag="0"/>
			<vel value="0.00410759676208" flag="0"/>
			<psa03 value="0.0152994757548" flag="0"/>
			<psa10 value="0.00565272555909" flag="0"/>
			<psa30 value="0.000475944081045" flag="0"/>
		</comp>
		<comp name=".HNZ" depth="0.0">
			<acc value="0.00401140037337" flag="0"/>
			<vel value="0.00246320311396" flag="0"/>
			<psa03 value="0.0141673278388" flag="0"/>
			<psa10 value="0.00170920080429" flag="0"/>
			<psa30 value="0.000184098081011" flag="0"/>
		</comp>
	</station>
	<station code="AKS" name="AKS" netid="KO" source="Bogazici University Kandilli Observatory And Earthquake Research Institute (KOERI)" insttype="" lat="38.8785" lon="27.8129">
		<comp name=".HNE" depth="0.0">
			<acc value="0.00706388086491" flag="0"/>
			<vel value="0.0031849269877" flag="0"/>
			<psa03 value="0.0150230616103" flag="0"/>
			<psa10 value="0.00154005874008" flag="0"/>
			<psa30 value="0.000358727800414" flag="0"/>
		</comp>
		<comp name=".HNN" depth="0.0">
			<acc value="0.0088843819344" flag="0"/>
			<vel value="0.00391969747408" flag="0"/>
			<psa03 value="0.0203898129646" flag="0"/>
			<psa10 value="0.00311110742372" flag="0"/>
			<psa30 value="0.000658446066735" flag="0"/>
		</comp>
		<comp name=".HNZ" depth="0.0">
			<acc value="0.00395134575281" flag="0"/>
			<vel value="0.0013597562916" flag="0"/>
			<psa03 value="0.00923928393223" flag="0"/>
			<psa10 value="0.00113266433033" flag="0"/>
			<psa30 value="0.000266087366565" flag="0"/>
		</comp>
	</station>
	<station code="AVCI" name="AVCI" netid="KO" source="Bogazici University Kandilli Observatory And Earthquake Research Institute (KOERI)" insttype="" lat="40.9958" lon="28.7225">
		<comp name=".HNE" depth="0.0">
			<acc value="0.0263871217816" flag="0"/>
			<vel value="0.016854038593" flag="0"/>
			<psa03 value="0.0762722974572" flag="0"/>
			<psa10 value="0.0205501988498" flag="0"/>
			<psa30 value="0.00128116445419" flag="0"/>
		</comp>
		<comp name=".HNN" depth="0.0">
			<acc value="0.0275340362639" flag="0"/>
			<vel value="0.0153654756886" flag="0"/>
			<psa03 value="0.0655059488226" flag="0"/>
			<psa10 value="0.00832109435668" flag="0"/>
			<psa30 value="0.00132920649091" flag="0"/>
		</comp>
		<comp name=".HNZ" depth="0.0">
			<acc value="0.0303865110154" flag="0"/>
			<vel value="0.00815171803074" flag="0"/>
			<psa03 value="0.0553745380829" flag="0"/>
			<psa10 value="0.00385748491444" flag="0"/>
			<psa30 value="0.000471472170217" flag="0"/>
		</comp>
	</station>
	<station code="BIGA" name="BIGA" netid="KO" source="Bogazici University Kandilli Observatory And Earthquake Research Institute (KOERI)" insttype="" lat="40.28134" lon="27.15048">
		<comp name=".HNE" depth="0.0">
			<acc value="0.158229465926" flag="0"/>
			<vel value="0.0461791477968" flag="0"/>
			<psa03 value="0.235564146635" flag="0"/>
			<psa10 value="0.00998247222728" flag="0"/>
			<psa30 value="0.00070078689244" flag="0"/>
		</comp>
		<comp name=".HNN" depth="0.0">
			<acc value="0.240088607425" flag="0"/>
			<vel value="0.0781958389025" flag="0"/>
			<psa03 value="0.399661933975" flag="0"/>
			<psa10 value="0.0186372214995" flag="0"/>
			<psa30 value="0.00156068838795" flag="0"/>
		</comp>
		<comp name=".HNZ" depth="0.0">
			<acc value="0.062538755707" flag="0"/>
			<vel value="0.0162653870441" flag="0"/>
			<psa03 value="0.0599296210851" flag="0"/>
			<psa10 value="0.00334190240026" flag="0"/>
			<psa30 value="0.000487539380423" flag="0"/>
		</comp>
	</station>
	<station code="BOTS" name="BOTS" netid="KO" source="Bogazici University Kandilli Observatory And Earthquake Research Institute (KOERI)" insttype="" lat="40.9902" lon="27.981">
		<comp name=".HNE" depth="0.0">
			<acc value="0.0378796183723" flag="0"/>
			<vel value="0.00943944272005" flag="0"/>
			<psa03 value="0.0467741610586" flag="0"/>
			<psa10 value="0.00436891754433" flag="0"/>
			<psa30 value="0.000470145415659" flag="0"/>
		</comp>
		<comp name=".HNN" depth="0.0">
			<acc value="0.0408868629344" flag="0"/>
			<vel value="0.0197020590137" flag="0"/>
			<psa03 value="0.0933650703945" flag="0"/>
			<psa10 value="0.00523486350278" flag="0"/>
			<psa30 value="0.000768873277832" flag="0"/>
		</comp>
		<comp name=".HNZ" depth="0.0">
			<acc value="0.0292902892157" flag="0"/>
			<vel value="0.00499848061312" flag="0"/>
			<psa03 value="0.0227606900757" flag="0"/>
			<psa10 value="0.00280360252178" flag="0"/>
			<psa30 value="0.000510021130149" flag="0"/>
		</comp>
	</station>
	<station code="BRGA" name="BRGA" netid="KO" source="Bogazici University Kandilli Observatory And Earthquake Research Institute (KOERI)" insttype="" lat="40.8846" lon="29.065">
		<comp name=".HNE" depth="0.0">
			<acc value="0.0295504910317" flag="0"/>
			<vel value="0.00875159339494" flag="0"/>
			<psa03 value="0.0383785397857" flag="0"/>
			<psa10 value="0.00583399756744" flag="0"/>
			<psa30 value="0.000404267327601" flag="0"/>
		</comp>
		<comp name=".HNN" depth="0.0">
			<acc value="0.0284387986171" flag="0"/>
			<vel value="0.0119834632296" flag="0"/>
			<psa03 value="0.055858439931" flag="0"/>
			<psa10 value="0.00751046174999" flag="0"/>
			<psa30 value="0.000572466516849" flag="0"/>
		</comp>
		<comp name=".HNZ" depth="0.0">
			<acc value="0.0270586128179" flag="0"/>
			<vel value="0.00805132147732" flag="0"/>
			<psa03 value="0.0569447462682" flag="0"/>
			<psa10 value="0.0019898843982" flag="0"/>
			<psa30 value="0.000283797419978" flag="0"/>
		</comp>
	</station>
	<station code="BUYA" name="BUYA" netid="KO" source="Bogazici University Kandilli Observatory And Earthquake Research Institute (KOERI)" insttype="" lat="40.8694" lon="29.1278">
		<comp name=".HNE" depth="0.0">
			<acc value="0.0344755895063" flag="0"/>
			<vel value="0.0096720108988" flag="0"/>
			<psa03 value="0.0431223253924" flag="0"/>
			<psa10 value="0.00472745535823" flag="0"/>
			<psa30 value="0.000360975892048" flag="0"/>
		</comp>
		<comp name=".HNN" depth="0.0">
			<acc value="0.0468786459744" flag="0"/>
			<vel value="0.0159410885986" flag="0"/>
			<psa03 value="0.0870205876034" flag="0"/>
			<psa10 value="0.0084471945852" flag="0"/>
			<psa30 value="0.000645884401255" flag="0"/>
		</comp>
		<comp name=".HNZ" depth="0.0">
			<acc value="0.0414806317515" flag="0"/>
			<vel value="0.0105384683403" flag="0"/>
			<psa03 value="0.0531377024038" flag="0"/>
			<psa10 value="0.00225004780463" flag="0"/>
			<psa30 value="0.000596392424738" flag="0"/>
		</comp>
	</station>
	<station code="CANM" name="CANM" netid="KO" source="Bogazici University Kandilli Observatory And Earthquake Research Institute (KOERI)" insttype="" lat="40.0113" lon="27.0529">
		<comp name=".HNE" depth="0.0">
			<acc value="0.0921101936011" flag="0"/>
			<vel value="0.0346463404315" flag="0"/>
			<psa03 value="0.172350146518" flag="0"/>
			<psa10 value="0.00646518500555" flag="0"/>
			<psa30 value="0.000939222218862" flag="0"/>
		</comp>
		<comp name=".HNN" depth="0.0">
			<acc value="0.108038578689" flag="0"/>
			<vel value="0.0373725416651" flag="0"/>
			<psa03 value="0.211162050949" flag="0"/>
			<psa10 value="0.0123229694613" flag="0"/>
			<psa30 value="0.00115854185188" flag="0"/>
		</comp>
		<comp name=".HNZ" depth="0.0">
			<acc value="0.0997204384091" flag="0"/>
			<vel value="0.0254381393641" flag="0"/>
			<psa03 value="0.0695933966793" flag="0"/>
			<psa10 value="0.00554422712159" flag="0"/>
			<psa30 value="0.000435648208514" flag="0"/>
		</comp>
	</station>
	<station code="CTYL" name="CTYL" netid="KO" source="Bogazici University Kandilli Observatory And Earthquake Research Institute (KOERI)" insttype="" lat="41.476" lon="28.2897">
		<comp name=".HNE" depth="0.0">
			<acc value="0.0369076743373" flag="0"/>
			<vel value="0.00745254707779" flag="0"/>
			<psa03 value="0.0570885370439" flag="0"/>
			<psa10 value="0.00227964124942" flag="0"/>
			<psa30 value="0.000965799187789" flag="0"/>
		</comp>
		<comp name=".HNN" depth="0.0">
			<acc value="0.062326834753" flag="0"/>
			<vel value="0.0199947555069" flag="0"/>
			<psa03 value="0.111017906475" flag="0"/>
			<psa10 value="0.00657761839118" flag="0"/>
			<psa30 value="0.000708825497878" flag="0"/>
		</comp>
		<comp name=".HNZ" depth="0.0">
			<acc value="0.0379333386222" flag="0"/>
			<vel value="0.0113737930166" flag="0"/>
			<psa03 value="0.0891767825243" flag="0"/>
			<psa10 value="0.00339627162695" flag="0"/>
			<psa30 value="0.000797656278312" flag="0"/>
		</comp>
	</station>
	<station code="DST" name="DST" netid="KO" source="Bogazici University Kandilli Observatory And Earthquake Research Institute (KOERI)" insttype="" lat="39.6041" lon="28.6267">
		<comp name=".HNE" depth="0.0">
			<acc value="0.0361984384129" flag="0"/>
			<vel value="0.0167631194125" flag="0"/>
			<psa03 value="0.101696955674" flag="0"/>
			<psa10 value="0.0065189405978" flag="0"/>
			<psa30 value="0.000744187684197" flag="0"/>
		</comp>
		<comp name=".HNN" depth="0.0">
			<acc value="0.0409333083113" flag="0"/>
			<vel value="0.0140121233128" flag="0"/>
			<psa03 value="0.115753209749" flag="0"/>
			<psa10 value="0.00610231237324" flag="0"/>
			<psa30 value="0.000718901686206" flag="0"/>
		</comp>
		<comp name=".HNZ" depth="0.0">
			<acc value="0.0242126095899" flag="0"/>
			<vel value="0.00935431126558" flag="0"/>
			<psa03 value="0.0672010506979" flag="0"/>
			<psa10 value="0.00271990049256" flag="0"/>
			<psa30 value="0.00028183775891" flag="0"/>
		</comp>
	</station>
	<station code="EDC" name="EDC" netid="KO" source="Bogazici University Kandilli Observatory And Earthquake Research Institute (KOERI)" insttype="" lat="40.3465" lon="27.8618">
		<comp name=".HNE" depth="0.0">
			<acc value="0.348065244032" flag="0"/>
			<vel value="0.0910972216552" flag="0"/>
			<psa03 value="0.621028723437" flag="0"/>
			<psa10 value="0.0299123227946" flag="0"/>
			<psa30 value="0.00249156317883" flag="0"/>
		</comp>
		<comp name=".HNN" depth="0.0">
			<acc value="0.408803496774" flag="0"/>
			<vel value="0.108373488932" flag="0"/>
			<psa03 value="0.590673754238" flag="0"/>
			<psa10 value="0.0519126827104" flag="0"/>
			<psa30 value="0.00380275316373" flag="0"/>
		</comp>
		<comp name=".HNZ" depth="0.0">
			<acc value="0.229454878809" flag="0"/>
			<vel value="0.0522456416818" flag="0"/>
			<psa03 value="0.16821115358" flag="0"/>
			<psa10 value="0.0158111880386" flag="0"/>
			<psa30 value="0.000918020189331" flag="0"/>
		</comp>
	</station>
	<station code="ENZZ" name="ENZZ" netid="KO" source="Bogazici University Kandilli Observatory And Earthquake Research Institute (KOERI)" insttype="" lat="40.607" lon="26.1406">
		<comp name=".HNE" depth="0.0">
			<acc value="0.0350654614271" flag="0"/>
			<vel value="0.0174390627443" flag="0"/>
			<psa03 value="0.0760083580972" flag="0"/>
			<psa10 value="0.0102958429866" flag="0"/>
			<psa30 value="0.000770887577934" flag="0"/>
		</comp>
		<comp name=".HNN" depth="0.0">
			<acc value="0.0343878930128" flag="0"/>
			<vel value="0.0124001977002" flag="0"/>
			<psa03 value="0.0704080964826" flag="0"/>
			<psa10 value="0.0106031524068" flag="0"/>
			<psa30 value="0.000906788507786" flag="0"/>
		</comp>
		<comp name=".HNZ" depth="0.0">
			<acc value="0.0148615023534" flag="0"/>
			<vel value="0.00595755129004" flag="0"/>
			<psa03 value="0.0282506032346" flag="0"/>
			<psa10 value="0.00422358276037" flag="0"/>
			<psa30 value="0.000646271770667" flag="0"/>
		</comp>
	</station>
	<station code="EZNE" name="EZNE" netid="KO" source="Bogazici University Kandilli Observatory And Earthquake Research Institute (KOERI)" insttype="" lat="39.756" lon="26.3655">
		<comp name=".HNE" depth="0.0">
			<acc value="0.0125965392345" flag="0"/>
			<vel value="0.0043430361801" flag="0"/>
			<psa03 value="0.0206603517198" flag="0"/>
			<psa10 value="0.00291870092774" flag="0"/>
			<psa30 value="0.000424165494716" flag="0"/>
		</comp>
		<comp name=".HNN" depth="0.0">
			<acc value="0.0189137313662" flag="0"/>
			<vel value="0.00696761696074" flag="0"/>
			<psa03 value="0.0313219030473" flag="0"/>
			<psa10 value="0.00286030510618" flag="0"/>
			<psa30 value="0.000381363388453" flag="0"/>
		</comp>
		<comp name=".HNZ" depth="0.0">
			<acc value="0.013567777578" flag="0"/>
			<vel value="0.00377639174995" flag="0"/>
			<psa03 value="0.0242053612989" flag="0"/>
			<psa10 value="0.00261483212605" flag="0"/>
			<psa30 value="0.000227530255054" flag="0"/>
		</comp>
	</station>
	<station code="GOKC" name="GOKC" netid="KO" source="Bogazici University Kandilli Observatory And Earthquake Research Institute (KOERI)" insttype="" lat="40.1998" lon="25.9183">
		<comp name=".HNE" depth="0.0">
			<acc value="0.030934238666" flag="0"/>
			<vel value="0.0208781352454" flag="0"/>
			<psa03 value="0.0395962793092" flag="0"/>
			<psa10 value="0.0170317026417" flag="0"/>
			<psa30 value="0.010829677413" flag="0"/>
		</comp>
		<comp name=".HNN" depth="0.0">
			<acc value="0.0271666121861" flag="0"/>
			<vel value="0.0176397593388" flag="0"/>
			<psa03 value="0.0387399231006" flag="0"/>
			<psa10 value="0.0142070586479" flag="0"/>
			<psa30 value="0.00917668624378" flag="0"/>
		</comp>
		<comp name=".HNZ" depth="0.0">
			<acc value="0.0346762417468" flag="0"/>
			<vel value="0.0250937724754" flag="0"/>
			<psa03 value="0.0475541606463" flag="0"/>
			<psa10 value="0.0209660882754" flag="0"/>
			<psa30 value="0.0136091665405" flag="0"/>
		</comp>
	</station>
	<station code="GOMA" name="GOMA" netid="KO" source="Bogazici University Kandilli Observatory And Earthquake Research Institute (KOERI)" insttype="" lat="38.7077" lon="27.9175">
		<comp name=".HNE" depth="0.0">
			<acc value="0.0117034611606" flag="0"/>
			<vel value="0.00254558270116" flag="0"/>
			<psa03 value="0.0198179808127" flag="0"/>
			<psa10 value="0.00133780631841" flag="0"/>
			<psa30 value="0.000306450300829" flag="0"/>
		</comp>
		<comp name=".HNN" depth="0.0">
			<acc value="0.00880496560239" flag="0"/>
			<vel value="0.00200078476613" flag="0"/>
			<psa03 value="0.0108158929321" flag="0"/>
			<psa10 value="0.00101124781052" flag="0"/>
			<psa30 value="0.000241609625244" flag="0"/>
		</comp>
		<comp name=".HNZ" depth="0.0">
			<acc value="0.00999721323671" flag="0"/>
			<vel value="0.00190409324749" flag="0"/>
			<psa03 value="0.0112831680274" flag="0"/>
			<psa10 value="0.000658980705018" flag="0"/>
			<psa30 value="0.000303741814113" flag="0"/>
		</comp>
	</station>
	<station code="GORD" name="GORD" netid="KO" source="Bogazici University Kandilli Observatory And Earthquake Research Institute (KOERI)" insttype="" lat="38.9088" lon="28.1769">
		<comp name=".HNE" depth="0.0">
			<acc value="0.00229168959805" flag="0"/>
			<vel value="0.00141404512137" flag="0"/>
			<psa03 value="0.00627239923963" flag="0"/>
			<psa10 value="0.00178592936374" flag="0"/>
			<psa30 value="0.000368282417736" flag="0"/>
		</comp>
		<comp name=".HNN" depth="0.0">
			<acc value="0.00259284395157" flag="0"/>
			<vel value="0.00160257538599" flag="0"/>
			<psa03 value="0.00615126230865" flag="0"/>
			<psa10 value="0.00180360440182" flag="0"/>
			<psa30 value="0.000103985130692" flag="0"/>
		</comp>
		<comp name=".HNZ" depth="0.0">
			<acc value="0.00308394258157" flag="0"/>
			<vel value="0.00113761173674" flag="0"/>
			<psa03 value="0.00635535786025" flag="0"/>
			<psa10 value="0.00123859267569" flag="0"/>
			<psa30 value="0.000254416645521" flag="0"/>
		</comp>
	</station>
	<station code="GPA" name="GPA" netid="KO" source="Bogazici University Kandilli Observatory And Earthquake Research Institute (KOERI)" insttype="" lat="40.2911" lon="30.3171">
		<comp name=".HNE" depth="0.0">
			<acc value="0.00321356148777" flag="0"/>
			<vel value="0.0032375670313" flag="0"/>
			<psa03 value="0.0149059744268" flag="0"/>
			<psa10 value="0.00231385148443" flag="0"/>
			<psa30 value="0.000576811960962" flag="0"/>
		</comp>
		<comp name=".HNN" depth="0.0">
			<acc value="0.0033707132535" flag="0"/>
			<vel value="0.0019683815374" flag="0"/>
			<psa03 value="0.00946514524857" flag="0"/>
			<psa10 value="0.00236386081293" flag="0"/>
			<psa30 value="0.000348379302377" flag="0"/>
		</comp>
		<comp name=".HNZ" depth="0.0">
			<acc value="0.00147117395942" flag="0"/>
			<vel value="0.00216726552591" flag="0"/>
			<psa03 value="0.00397475451892" flag="0"/>
			<psa10 value="0.00103696021696" flag="0"/>
			<psa30 value="0.000961700478771" flag="0"/>
		</comp>
	</station>
	<station code="GPNR" name="GPNR" netid="KO" source="Bogazici University Kandilli Observatory And Earthquake Research Institute (KOERI)" insttype="" lat="39.456" lon="26.1331">
		<comp name=".HNE" depth="0.0">
			<acc value="0.0124964249028" flag="0"/>
			<vel value="0.00479741415524" flag="0"/>
			<psa03 value="0.0285172016246" flag="0"/>
			<psa10 value="0.00272473268767" flag="0"/>
			<psa30 value="0.000574462847013" flag="0"/>
		</comp>
		<comp name=".HNN" depth="0.0">
			<acc value="0.0150009444531" flag="0"/>
			<vel value="0.00530979433408" flag="0"/>
			<psa03 value="0.0259139302124" flag="0"/>
			<psa10 value="0.003083130336" flag="0"/>
			<psa30 value="0.000492615810461" flag="0"/>
		</comp>
		<comp name=".HNZ" depth="0.0">
			<acc value="0.00735942481565" flag="0"/>
			<vel value="0.00191584357818" flag="0"/>
			<psa03 value="0.0162113655901" flag="0"/>
			<psa10 value="0.00123760178973" flag="0"/>
			<psa30 value="0.000738203746125" flag="0"/>
		</comp>
	</station>
	<station code="HVHR" name="HVHR" netid="KO" source="Bogazici University Kandilli Observatory And Earthquake Research Institute (KOERI)" insttype="" lat="40.9908" lon="28.6678">
		<comp name=".HNE" depth="0.0">
			<acc value="0.0754614336073" flag="0"/>
			<vel value="0.0335135696363" flag="0"/>
			<psa03 value="0.175676283525" flag="0"/>
			<psa10 value="0.0168496130792" flag="0"/>
			<psa30 value="0.00187191317173" flag="0"/>
		</comp>
		<comp name=".HNN" depth="0.0">
			<acc value="0.109623579452" flag="0"/>
			<vel value="0.0471633534056" flag="0"/>
			<psa03 value="0.292441581153" flag="0"/>
			<psa10 value="0.0209409691114" flag="0"/>
			<psa30 value="0.00159062922555" flag="0"/>
		</comp>
		<comp name=".HNZ" depth="0.0">
			<acc value="0.136118225338" flag="0"/>
			<vel value="0.0450060097555" flag="0"/>
			<psa03 value="0.231457082896" flag="0"/>
			<psa10 value="0.0105954400209" flag="0"/>
			<psa30 value="0.00104229300513" flag="0"/>
		</comp>
	</station>
	<station code="HYBA" name="HYBA" netid="KO" source="Bogazici University Kandilli Observatory And Earthquake Research Institute (KOERI)" insttype="" lat="40.8754" lon="29.0854">
		<comp name=".HNE" depth="0.0">
			<acc value="0.021206719638" flag="0"/>
