<?xml version="1.0" encoding="UTF-8" standalone="yes"?>
<!DOCTYPE earthquake SYSTEM "stationlist.dtd">
<stationlist created="" xmlns="ch.ethz.sed.shakemap.usgs.xml">
  <station code="ARMT" name="ARMT" netid="KO" insttype="CMG-3ESP" lat="40.5683" lon="28.866">
    <comp name="--.HHE">
      <acc value="0.0556319235" flag="0"/>
      <vel value="0.0135510598" flag="0"/>
      <psa03 value="0.0838967712" flag="0"/>
      <psa10 value="0.0039970227" flag="0"/>
      <psa30 value="0.0002390485" flag="0"/>
    </comp>
    <comp name="--.HHN">
      <acc value="0.0856989261" flag="0"/>
      <vel value="0.0182183447" flag="0"/>
      <psa03 value="0.1014691982" flag="0"/>
      <psa10 value="0.0051504855" flag="0"/>
      <psa30 value="0.0003074192" flag="0"/>
    </comp>
    <comp name="--.HHZ">
      <acc value="0.0427640489" flag="0"/>
      <vel value="0.0066560961" flag="0"/>
      <psa03 value="0.0472085525" flag="0"/>
      <psa10 value="0.0022823306" flag="0"/>
      <psa30 value="0.0001599802" flag="0"/>
    </comp>
  </station>
  <station code="AVCI" name="AVCI" netid="KO" insttype="CMG-5T" lat="40.9958" lon="28.7225">
    <comp name="--.HNE">
      <acc value="0.0265655176" flag="0"/>
      <vel value="0.0166857808" flag="0"/>
      <psa03 value="0.0750909330" flag="0"/>
      <psa10 value="0.0205237596" flag="0"/>
      <psa30 value="0.0013269842" flag="0"/>
    </comp>
    <comp name="--.HNN">
      <acc value="0.0278466682" flag="0"/>
      <vel value="0.0152141473" flag="0"/>
      <psa03 value="0.0654880856" flag="0"/>
      <psa10 value="0.0082931120" flag="0"/>
      <psa30 value="0.0011415533" flag="0"/>
    </comp>
    <comp name="--.HNZ">
      <acc value="0.0301633060" flag="0"/>
      <vel value="0.0080466570" flag="0"/>
      <psa03 value="0.0539344752" flag="0"/>
      <psa10 value="0.0038432701" flag="0"/>
      <psa30 value="0.0004141492" flag="0"/>
    </comp>
  </station>
  <station code="BGKT" name="BGKT" netid="KO" insttype="CMG-3ESP" lat="41.181" lon="28.773">
    <comp name="--.HHN">
      <acc value="0.0244847574" flag="0"/>
      <vel value="0.0049116490" flag="0"/>
      <psa03 value="0.0334564330" flag="0"/>
      <psa10 value="0.0026091272" flag="0"/>
      <psa30 value="0.0002280713" flag="0"/>
    </comp>
    <comp name="--.HHZ">
      <acc value="0.0166004868" flag="0"/>
      <vel value="0.0036542593" flag="0"/>
      <psa03 value="0.0188004868" flag="0"/>
      <psa10 value="0.0016564232" flag="0"/>
      <psa30 value="0.0001169841" flag="0"/>
    </comp>
    <comp name="--.HHE">
      <acc value="0.0340287398" flag="0"/>
      <vel value="0.0068132498" flag="0"/>
      <psa03 value="0.0385741381" flag="0"/>
      <psa10 value="0.0024224570" flag="0"/>
      <psa30 value="0.0002752190" flag="0"/>
    </comp>
  </station>
  <station code="BIGA" name="BIGA" netid="KO" insttype="CMG-5T" lat="40.2813" lon="27.1505">
    <comp name="--.HNN">
      <acc value="0.2407833072" flag="0"/>
      <vel value="0.0782456532" flag="0"/>
      <psa03 value="0.3943436672" flag="0"/>
      <psa10 value="0.0185034323" flag="0"/>
      <psa30 value="0.0015914638" flag="0"/>
    </comp>
    <comp name="--.HNZ">
      <acc value="0.0625256530" flag="0"/>
      <vel value="0.0154919174" flag="0"/>
      <psa03 value="0.0588445183" flag="0"/>
      <psa10 value="0.0033622804" flag="0"/>
      <psa30 value="0.0003561087" flag="0"/>
    </comp>
    <comp name="--.HNE">
      <acc value="0.1583566051" flag="0"/>
      <vel value="0.0455958294" flag="0"/>
      <psa03 value="0.2296856232" flag="0"/>
      <psa10 value="0.0099300711" flag="0"/>
      <psa30 value="0.0006998445" flag="0"/>
    </comp>
  </station>
  <station code="BOTS" name="BOTS" netid="KO" insttype="CMG-5T" lat="40.9902" lon="27.981">
    <comp name="--.HNE">
      <acc value="0.0394690517" flag="0"/>
      <vel value="0.0091607213" flag="0"/>
      <psa03 value="0.0469829336" flag="0"/>
      <psa10 value="0.0043576945" flag="0"/>
      <psa30 value="0.0004195776" flag="0"/>
    </comp>
    <comp name="--.HNZ">
      <acc value="0.0322663808" flag="0"/>
      <vel value="0.0050773450" flag="0"/>
      <psa03 value="0.0226186768" flag="0"/>
      <psa10 value="0.0028149908" flag="0"/>
      <psa30 value="0.0004258972" flag="0"/>
    </comp>
    <comp name="--.HNN">
      <acc value="0.0421371458" flag="0"/>
      <vel value="0.0196396571" flag="0"/>
      <psa03 value="0.0921495413" flag="0"/>
      <psa10 value="0.0052311285" flag="0"/>
      <psa30 value="0.0007483936" flag="0"/>
    </comp>
  </station>
  <station code="BRGA" name="BRGA" netid="KO" insttype="CMG-5T" lat="40.8846" lon="29.065">
    <comp name="--.HNE">
      <acc value="0.0296671851" flag="0"/>
      <vel value="0.0087745621" flag="0"/>
      <psa03 value="0.0379479226" flag="0"/>
      <psa10 value="0.0058417534" flag="0"/>
      <psa30 value="0.0003731417" flag="0"/>
    </comp>
    <comp name="--.HNN">
      <acc value="0.0292753342" flag="0"/>
      <vel value="0.0118399437" flag="0"/>
      <psa03 value="0.0565413356" flag="0"/>
      <psa10 value="0.0074702792" flag="0"/>
      <psa30 value="0.0005714281" flag="0"/>
    </comp>
    <comp name="--.HNZ">
      <acc value="0.0277923347" flag="0"/>
      <vel value="0.0080240877" flag="0"/>
      <psa03 value="0.0569080887" flag="0"/>
      <psa10 value="0.0019636839" flag="0"/>
      <psa30 value="0.0002516281" flag="0"/>
    </comp>
  </station>
  <station code="BUYA" name="BUYA" netid="KO" insttype="CMG-5T" lat="40.8694" lon="29.1278">
    <comp name="--.HNN">
      <acc value="0.0477575081" flag="0"/>
      <vel value="0.0160863976" flag="0"/>
      <psa03 value="0.0855819407" flag="0"/>
      <psa10 value="0.0084502214" flag="0"/>
      <psa30 value="0.0006062171" flag="0"/>
    </comp>
    <comp name="--.HNZ">
      <acc value="0.0435398612" flag="0"/>
      <vel value="0.0101706302" flag="0"/>
      <psa03 value="0.0516901846" flag="0"/>
      <psa10 value="0.0022519953" flag="0"/>
      <psa30 value="0.0005404932" flag="0"/>
    </comp>
  </station>
  <station code="CANM" name="CANM" netid="KO" insttype="CMG-5T" lat="40.0113" lon="27.0529">
    <comp name="--.HNE">
      <acc value="0.0920519519" flag="0"/>
      <vel value="0.0342047462" flag="0"/>
      <psa03 value="0.1692926533" flag="0"/>
      <psa10 value="0.0064140459" flag="0"/>
      <psa30 value="0.0009429397" flag="0"/>
    </comp>
    <comp name="--.HNN">
      <acc value="0.1090161759" flag="0"/>
      <vel value="0.0372137059" flag="0"/>
      <psa03 value="0.2089951191" flag="0"/>
      <psa10 value="0.0122663106" flag="0"/>
      <psa30 value="0.0011548771" flag="0"/>
    </comp>
    <comp name="--.HNZ">
      <acc value="0.0991749073" flag="0"/>
      <vel value="0.0253142614" flag="0"/>
      <psa03 value="0.0677255808" flag="0"/>
      <psa10 value="0.0054879453" flag="0"/>
      <psa30 value="0.0004265863" flag="0"/>
    </comp>
  </station>
  <station code="CTKS" name="CTKS" netid="KO" insttype="CMG-3ESP" lat="41.2373" lon="28.5072">
    <comp name="--.HHZ">
      <acc value="0.0000204094" flag="0"/>
      <vel value="0.0000023450" flag="0"/>
      <psa03 value="0.0000069152" flag="0"/>
      <psa10 value="0.0000017833" flag="0"/>
      <psa30 value="0.0000003651" flag="0"/>
    </comp>
    <comp name="--.HHE">
      <acc value="0.0604585271" flag="0"/>
      <vel value="0.0083272589" flag="0"/>
      <psa03 value="0.0224912857" flag="0"/>
      <psa10 value="0.0009280209" flag="0"/>
      <psa30 value="0.0001492393" flag="0"/>
    </comp>
  </station>
  <station code="CTYL" name="CTYL" netid="KO" insttype="CMG-3T" lat="41.476" lon="28.2897">
    <comp name="--.HHN">
      <acc value="0.0621023478" flag="0"/>
      <vel value="0.0195341263" flag="0"/>
      <psa03 value="0.1077064145" flag="0"/>
      <psa10 value="0.0063613279" flag="0"/>
      <psa30 value="0.0004446481" flag="0"/>
    </comp>
    <comp name="--.HHZ">
      <acc value="0.0439611575" flag="0"/>
      <vel value="0.0111342625" flag="0"/>
      <psa03 value="0.0892069460" flag="0"/>
      <psa10 value="0.0033921103" flag="0"/>
      <psa30 value="0.0002520409" flag="0"/>
    </comp>
  </station>
  <station code="DST" name="DST" netid="KO" insttype="CMG-5T" lat="39.6041" lon="28.6267">
    <comp name="--.HNN">
      <acc value="0.0413831572" flag="0"/>
      <vel value="0.0137872393" flag="0"/>
      <psa03 value="0.1143592740" flag="0"/>
      <psa10 value="0.0060967159" flag="0"/>
      <psa30 value="0.0006175851" flag="0"/>
    </comp>
    <comp name="--.HNE">
      <acc value="0.0362300523" flag="0"/>
      <vel value="0.0168243127" flag="0"/>
      <psa03 value="0.0999731445" flag="0"/>
      <psa10 value="0.0064476424" flag="0"/>
      <psa30 value="0.0006868459" flag="0"/>
    </comp>
    <comp name="--.HNZ">
      <acc value="0.0245110301" flag="0"/>
      <vel value="0.0091834106" flag="0"/>
      <psa03 value="0.0658068525" flag="0"/>
      <psa10 value="0.0027214520" flag="0"/>
      <psa30 value="0.0002264144" flag="0"/>
    </comp>
  </station>
  <station code="EDC" name="EDC" netid="KO" insttype="CMG-3T" lat="40.3465" lon="27.8618">
    <comp name="--.HHN">
      <acc value="0.4208322447" flag="0"/>
      <vel value="0.1101861369" flag="0"/>
      <psa03 value="0.5788857581" flag="0"/>
      <psa10 value="0.0513577614" flag="0"/>
      <psa30 value="0.0037094104" flag="0"/>
    </comp>
    <comp name="--.HHE">
      <acc value="0.3712288052" flag="0"/>
      <vel value="0.0979457829" flag="0"/>
      <psa03 value="0.6322367931" flag="0"/>
      <psa10 value="0.0333698601" flag="0"/>
      <psa30 value="0.0025401610" flag="0"/>
    </comp>
    <comp name="--.HHZ">
      <acc value="0.2359584253" flag="0"/>
      <vel value="0.0517803102" flag="0"/>
      <psa03 value="0.1738968942" flag="0"/>
      <psa10 value="0.0148125387" flag="0"/>
      <psa30 value="0.0009237403" flag="0"/>
    </comp>
  </station>
  <station code="GAZK" name="GAZK" netid="KO" insttype="CMG-6T" lat="40.7479" lon="27.3275">
    <comp name="--.HHE">
      <acc value="0.2721889664" flag="0"/>
      <vel value="0.0666418871" flag="0"/>
      <psa03 value="0.2098074990" flag="0"/>
      <psa10 value="0.0171157386" flag="0"/>
      <psa30 value="0.0014174066" flag="0"/>
    </comp>
    <comp name="--.HHZ">
      <acc value="0.1240200490" flag="0"/>
      <vel value="0.0278246235" flag="0"/>
      <psa03 value="0.0873968948" flag="0"/>
      <psa10 value="0.0068214036" flag="0"/>
      <psa30 value="0.0005536221" flag="0"/>
    </comp>
    <comp name="--.HHN">
      <acc value="0.2829290378" flag="0"/>
      <vel value="0.0652775281" flag="0"/>
      <psa03 value="0.2212347471" flag="0"/>
      <psa10 value="0.0166935252" flag="0"/>
      <psa30 value="0.0012548004" flag="0"/>
    </comp>
  </station>
  <station code="GEML" name="GEML" netid="KO" insttype="CMG-3T" lat="40.4646" lon="29.2116">
    <comp name="--.HHE">
      <acc value="0.0943636120" flag="0"/>
      <vel value="0.0159906280" flag="0"/>
      <psa03 value="0.1070253151" flag="0"/>
      <psa10 value="0.0046635094" flag="0"/>
      <psa30 value="0.0004345483" flag="0"/>
    </comp>
    <comp name="--.HHZ">
      <acc value="0.0558488193" flag="0"/>
      <vel value="0.0081300092" flag="0"/>
      <psa03 value="0.0243524645" flag="0"/>
      <psa10 value="0.0025520277" flag="0"/>
      <psa30 value="0.0002155379" flag="0"/>
    </comp>
    <comp name="--.HHN">
      <acc value="0.0837916769" flag="0"/>
      <vel value="0.0138632514" flag="0"/>
      <psa03 value="0.0850701319" flag="0"/>
      <psa10 value="0.0081818934" flag="0"/>
      <psa30 value="0.0003352903" flag="0"/>
    </comp>
  </station>
  <station code="HYBA" name="HYBA" netid="KO" insttype="CMG-5T" lat="40.8754" lon="29.0854">
    <comp name="--.HNE">
      <acc value="0.0215818595" flag="0"/>
      <vel value="0.0086222261" flag="0"/>
      <psa03 value="0.0676539603" flag="0"/>
      <psa10 value="0.0033681126" flag="0"/>
      <psa30 value="0.0003129685" flag="0"/>
    </comp>
    <comp name="--.HNZ">
      <acc value="0.0208374224" flag="0"/>
      <vel value="0.0056399087" flag="0"/>
      <psa03 value="0.0275244137" flag="0"/>
      <psa10 value="0.0019767547" flag="0"/>
      <psa30 value="0.0003224162" flag="0"/>
    </comp>
  </station>
  <station code="ISK" name="ISK" netid="KO" insttype="CMG-3T" lat="41.0615" lon="29.0592">
    <comp name="--.HHN">
      <acc value="0.0216622220" flag="0"/>
      <vel value="0.0075662150" flag="0"/>
      <psa03 value="0.0415253731" flag="0"/>
      <psa10 value="0.0040291681" flag="0"/>
      <psa30 value="0.0002225210" flag="0"/>
    </comp>
    <comp name="--.HHE">
      <acc value="0.0223679902" flag="0"/>
      <vel value="0.0068924003" flag="0"/>
      <psa03 value="0.0440972464" flag="0"/>
      <psa10 value="0.0023651363" flag="0"/>
      <psa30 value="0.0002187230" flag="0"/>
    </comp>
    <comp name="--.HHZ">
      <acc value="0.0140469081" flag="0"/>
      <vel value="0.0035324895" flag="0"/>
      <psa03 value="0.0230839575" flag="0"/>
      <psa10 value="0.0018604810" flag="0"/>
      <psa30 value="0.0001217920" flag="0"/>
    </comp>
  </station>
  <station code="IZI" name="IZI" netid="KO" insttype="CMG-5T" lat="40.3483" lon="29.4612">
    <comp name="--.HNE">
      <acc value="0.0223535844" flag="0"/>
      <vel value="0.0087742131" flag="0"/>
      <psa03 value="0.0619229224" flag="0"/>
      <psa10 value="0.0059094567" flag="0"/>
      <psa30 value="0.0004982400" flag="0"/>
    </comp>
    <comp name="--.HNN">
      <acc value="0.0297088229" flag="0"/>
      <vel value="0.0085164956" flag="0"/>
      <psa03 value="0.0573766282" flag="0"/>
      <psa10 value="0.0055434071" flag="0"/>
      <psa30 value="0.0003820111" flag="0"/>
    </comp>
    <comp name="--.HNZ">
      <acc value="0.0147037613" flag="0"/>
      <vel value="0.0054616843" flag="0"/>
      <psa03 value="0.0312530173" flag="0"/>
      <psa10 value="0.0027796438" flag="0"/>
      <psa30 value="0.0003316893" flag="0"/>
    </comp>
  </station>
  <station code="KCTX" name="KCTX" netid="KO" insttype="CMG-3ESP" lat="40.2626" lon="28.3353">
    <comp name="--.HHE">
      <acc value="0.1674960432" flag="0"/>
      <vel value="0.0442426855" flag="0"/>
      <psa03 value="0.1866598492" flag="0"/>
      <psa10 value="0.0212109774" flag="0"/>
      <psa30 value="0.0021912524" flag="0"/>
    </comp>
    <comp name="--.HHZ">
      <acc value="0.1601463265" flag="0"/>
      <vel value="0.0389463136" flag="0"/>
      <psa03 value="0.1376550125" flag="0"/>
      <psa10 value="0.0089704380" flag="0"/>
      <psa30 value="0.0005354523" flag="0"/>
    </comp>
  </station>
  <station code="KLYT" name="KLYT" netid="KO" insttype="CMG-3T" lat="41.253" lon="29.042">
    <comp name="--.HHE">
      <acc value="0.0405843800" flag="0"/>
      <vel value="0.0108436192" flag="0"/>
      <psa03 value="0.0745038632" flag="0"/>
      <psa10 value="0.0046803432" flag="0"/>
      <psa30 value="0.0003103703" flag="0"/>
    </comp>
    <comp name="--.HHN">
      <acc value="0.0353443007" flag="0"/>
      <vel value="0.0121006813" flag="0"/>
      <psa03 value="0.0732191661" flag="0"/>
      <psa10 value="0.0034950916" flag="0"/>
      <psa30 value="0.0003264109" flag="0"/>
    </comp>
    <comp name="--.HHZ">
      <acc value="0.0214583638" flag="0"/>
      <vel value="0.0041596597" flag="0"/>
      <psa03 value="0.0264412895" flag="0"/>
      <psa10 value="0.0021611573" flag="0"/>
      <psa30 value="0.0001472195" flag="0"/>
    </comp>
  </station>
  <station code="KOUK" name="KOUK" netid="KO" insttype="CMG-5T" lat="40.6572" lon="29.1918">
    <comp name="--.HNE">
      <acc value="0.0363475647" flag="0"/>
      <vel value="0.0225992390" flag="0"/>
      <psa03 value="0.0834489463" flag="0"/>
      <psa10 value="0.0200028366" flag="0"/>
      <psa30 value="0.0011363087" flag="0"/>
    </comp>
    <comp name="--.HNN">
      <acc value="0.0281622180" flag="0"/>
      <vel value="0.0218366793" flag="0"/>
      <psa03 value="0.0892519866" flag="0"/>
      <psa10 value="0.0225717831" flag="0"/>
      <psa30 value="0.0011841408" flag="0"/>
    </comp>
    <comp name="--.HNZ">
      <acc value="0.0229599277" flag="0"/>
      <vel value="0.0116034305" flag="0"/>
      <psa03 value="0.0682916061" flag="0"/>
      <psa10 value="0.0087578072" flag="0"/>
      <psa30 value="0.0005816549" flag="0"/>
    </comp>
  </station>
  <station code="KRBG" name="KRBG" netid="KO" insttype="CMG-3ESP" lat="40.3932" lon="27.2977">
    <comp name="--.HHE">
      <acc value="0.1098754294" flag="0"/>
      <vel value="0.0328036474" flag="0"/>
      <psa03 value="0.1375766987" flag="0"/>
      <psa10 value="0.0052013090" flag="0"/>
      <psa30 value="0.0004458129" flag="0"/>
    </comp>
    <comp name="--.HHN">
      <acc value="0.1478212884" flag="0"/>
      <vel value="0.0492930952" flag="0"/>
      <psa03 value="0.2553756840" flag="0"/>
      <psa10 value="0.0136167932" flag="0"/>
      <psa30 value="0.0011118135" flag="0"/>
    </comp>
    <comp name="--.HHZ">
      <acc value="0.0496477669" flag="0"/>
      <vel value="0.0126158017" flag="0"/>
      <psa03 value="0.0376562432" flag="0"/>
      <psa10 value="0.0016400447" flag="0"/>
      <psa30 value="0.0002081789" flag="0"/>
    </comp>
  </station>
  <station code="KUMB" name="KUMB" netid="KO" insttype="CMG-5T" lat="40.8626" lon="27.4592">
    <comp name="--.HNE">
      <acc value="0.0993371522" flag="0"/>
      <vel value="0.0214192220" flag="0"/>
      <psa03 value="0.0690001477" flag="0"/>
      <psa10 value="0.0039569615" flag="0"/>
      <psa30 value="0.0004735737" flag="0"/>
    </comp>
    <comp name="--.HNN">
      <acc value="0.0924809363" flag="0"/>
      <vel value="0.0249492468" flag="0"/>
      <psa03 value="0.1195186380" flag="0"/>
      <psa10 value="0.0070179006" flag="0"/>
      <psa30 value="0.0006618956" flag="0"/>
    </comp>
    <comp name="--.HNZ">
      <acc value="0.0331156696" flag="0"/>
      <vel value="0.0069102481" flag="0"/>
      <psa03 value="0.0478917733" flag="0"/>
      <psa10 value="0.0026966624" flag="0"/>
      <psa30 value="0.0011049478" flag="0"/>
    </comp>
  </station>
  <station code="LAP" name="LAP" netid="KO" insttype="CMG-3ESP" lat="40.3703" lon="26.7593">
    <comp name="--.HHE">
      <acc value="0.0208072688" flag="0"/>
      <vel value="0.0052812539" flag="0"/>
      <psa03 value="0.0296616405" flag="0"/>
      <psa10 value="0.0067092373" flag="0"/>
      <psa30 value="0.0003164265" flag="0"/>
    </comp>
    <comp name="--.HHN">
      <acc value="0.0224647934" flag="0"/>
      <vel value="0.0077943961" flag="0"/>
      <psa03 value="0.0318574514" flag="0"/>
      <psa10 value="0.0051592878" flag="0"/>
      <psa30 value="0.0004677619" flag="0"/>
    </comp>
    <comp name="--.HHZ">
      <acc value="0.0280494986" flag="0"/>
      <vel value="0.0070272977" flag="0"/>
      <psa03 value="0.0219574714" flag="0"/>
      <psa10 value="0.0028183939" flag="0"/>
      <psa30 value="0.0002428102" flag="0"/>
    </comp>
  </station>
  <station code="MAEG" name="MAEG" netid="KO" insttype="CMG-5T" lat="40.9653" lon="27.9448">
    <comp name="--.HNE">
      <acc value="0.0490212416" flag="0"/>
      <vel value="0.0103990378" flag="0"/>
      <psa03 value="0.0484963076" flag="0"/>
      <psa10 value="0.0033536965" flag="0"/>
      <psa30 value="0.0003982804" flag="0"/>
    </comp>
    <comp name="--.HNN">
      <acc value="0.0496276144" flag="0"/>
      <vel value="0.0216554804" flag="0"/>
      <psa03 value="0.1034658787" flag="0"/>
      <psa10 value="0.0085758132" flag="0"/>
      <psa30 value="0.0006844142" flag="0"/>
    </comp>
    <comp name="--.HNZ">
      <acc value="0.0225032992" flag="0"/>
      <vel value="0.0044923018" flag="0"/>
      <psa03 value="0.0186484284" flag="0"/>
      <psa10 value="0.0021189754" flag="0"/>
      <psa30 value="0.0003402100" flag="0"/>
    </comp>
  </station>
