<?xml version="1.0" encoding="UTF-8" standalone="yes"?>
<!DOCTYPE earthquake SYSTEM "stationlist.dtd">
<stationlist created="" xmlns="ch.ethz.sed.shakemap.usgs.xml">
  <station code="ARMT" name="ARMT" netid="KO" insttype="CMG-3ESP" lat="40.5683" lon="28.866">
    <comp name="--.HHN">
      <acc value="0.0856989261" flag="0"/>
      <vel value="0.0182183446" flag="0"/>
      <psa03 value="0.1014691982" flag="0"/>
      <psa10 value="0.0051504856" flag="0"/>
      <psa30 value="0.0003072027" flag="0"/>
    </comp>
    <comp name="--.HHE">
      <acc value="0.0556319233" flag="0"/>
      <vel value="0.0135510589" flag="0"/>
      <psa03 value="0.0838967712" flag="0"/>
      <psa10 value="0.0039970228" flag="0"/>
      <psa30 value="0.0002389635" flag="0"/>
    </comp>
    <comp name="--.HHZ">
      <acc value="0.0427640490" flag="0"/>
      <vel value="0.0066560947" flag="0"/>
      <psa03 value="0.0472085525" flag="0"/>
      <psa10 value="0.0022823316" flag="0"/>
      <psa30 value="0.0001599093" flag="0"/>
    </comp>
  </station>
  <station code="AVCI" name="AVCI" netid="KO" insttype="CMG-5T" lat="40.9958" lon="28.7225">
    <comp name="--.HNN">
      <acc value="0.0278467120" flag="0"/>
      <vel value="0.0152141433" flag="0"/>
      <psa03 value="0.0654880856" flag="0"/>
      <psa10 value="0.0082931057" flag="0"/>
      <psa30 value="0.0011415662" flag="0"/>
    </comp>
    <comp name="--.HNE">
      <acc value="0.0265655708" flag="0"/>
      <vel value="0.0166857784" flag="0"/>
      <psa03 value="0.0750909330" flag="0"/>
      <psa10 value="0.0205237626" flag="0"/>
      <psa30 value="0.0013295873" flag="0"/>
    </comp>
    <comp name="--.HNZ">
      <acc value="0.0301632249" flag="0"/>
      <vel value="0.0080466566" flag="0"/>
      <psa03 value="0.0539344752" flag="0"/>
      <psa10 value="0.0038432749" flag="0"/>
      <psa30 value="0.0004138133" flag="0"/>
    </comp>
  </station>
  <station code="BGKT" name="BGKT" netid="KO" insttype="CMG-3ESP" lat="41.181" lon="28.773">
    <comp name="--.HHE">
      <acc value="0.0340287398" flag="0"/>
      <vel value="0.0068132475" flag="0"/>
      <psa03 value="0.0385741381" flag="0"/>
      <psa10 value="0.0024224570" flag="0"/>
      <psa30 value="0.0002752339" flag="0"/>
    </comp>
    <comp name="--.HHN">
      <acc value="0.0244847577" flag="0"/>
      <vel value="0.0049116486" flag="0"/>
      <psa03 value="0.0334564330" flag="0"/>
      <psa10 value="0.0026091272" flag="0"/>
      <psa30 value="0.0002280650" flag="0"/>
    </comp>
    <comp name="--.HHZ">
      <acc value="0.0166004868" flag="0"/>
      <vel value="0.0036542579" flag="0"/>
      <psa03 value="0.0188004868" flag="0"/>
      <psa10 value="0.0016564232" flag="0"/>
      <psa30 value="0.0001169856" flag="0"/>
    </comp>
  </station>
  <station code="BIGA" name="BIGA" netid="KO" insttype="CMG-5T" lat="40.2813" lon="27.1505">
    <comp name="--.HNZ">
      <acc value="0.0625256584" flag="0"/>
      <vel value="0.0154919247" flag="0"/>
      <psa03 value="0.0588445183" flag="0"/>
      <psa10 value="0.0033622805" flag="0"/>
      <psa30 value="0.0003562187" flag="0"/>
    </comp>
    <comp name="--.HNE">
      <acc value="0.1583566043" flag="0"/>
      <vel value="0.0455958315" flag="0"/>
      <psa03 value="0.2296856232" flag="0"/>
      <psa10 value="0.0099300712" flag="0"/>
      <psa30 value="0.0006986284" flag="0"/>
    </comp>
    <comp name="--.HNN">
      <acc value="0.2407832832" flag="0"/>
      <vel value="0.0782456447" flag="0"/>
      <psa03 value="0.3943436672" flag="0"/>
      <psa10 value="0.0185034331" flag="0"/>
      <psa30 value="0.0015933315" flag="0"/>
    </comp>
  </station>
  <station code="BOTS" name="BOTS" netid="KO" insttype="CMG-5T" lat="40.9902" lon="27.981">
    <comp name="--.HNE">
      <acc value="0.0394690470" flag="0"/>
      <vel value="0.0091607145" flag="0"/>
      <psa03 value="0.0469829336" flag="0"/>
      <psa10 value="0.0043576929" flag="0"/>
      <psa30 value="0.0004194186" flag="0"/>
    </comp>
    <comp name="--.HNN">
      <acc value="0.0421371369" flag="0"/>
      <vel value="0.0196396617" flag="0"/>
      <psa03 value="0.0921495413" flag="0"/>
      <psa10 value="0.0052311308" flag="0"/>
      <psa30 value="0.0007483236" flag="0"/>
    </comp>
    <comp name="--.HNZ">
      <acc value="0.0322663783" flag="0"/>
      <vel value="0.0050773506" flag="0"/>
      <psa03 value="0.0226186768" flag="0"/>
      <psa10 value="0.0028149908" flag="0"/>
      <psa30 value="0.0004259103" flag="0"/>
    </comp>
  </station>
  <station code="BRGA" name="BRGA" netid="KO" insttype="CMG-5T" lat="40.8846" lon="29.065">
    <comp name="--.HNN">
      <acc value="0.0292753363" flag="0"/>
      <vel value="0.0118399522" flag="0"/>
      <psa03 value="0.0565413356" flag="0"/>
      <psa10 value="0.0074702781" flag="0"/>
      <psa30 value="0.0005675621" flag="0"/>
    </comp>
    <comp name="--.HNE">
      <acc value="0.0296671628" flag="0"/>
      <vel value="0.0087745621" flag="0"/>
      <psa03 value="0.0379479226" flag="0"/>
      <psa10 value="0.0058417523" flag="0"/>
      <psa30 value="0.0003730829" flag="0"/>
    </comp>
    <comp name="--.HNZ">
      <acc value="0.0277923324" flag="0"/>
      <vel value="0.0080240785" flag="0"/>
      <psa03 value="0.0569080887" flag="0"/>
      <psa10 value="0.0019636829" flag="0"/>
      <psa30 value="0.0002517125" flag="0"/>
    </comp>
  </station>
  <station code="BUYA" name="BUYA" netid="KO" insttype="CMG-5T" lat="40.8694" lon="29.1278">
    <comp name="--.HNZ">
      <acc value="0.0435398596" flag="0"/>
      <vel value="0.0101706334" flag="0"/>
      <psa03 value="0.0516901846" flag="0"/>
      <psa10 value="0.0022519959" flag="0"/>
      <psa30 value="0.0005391389" flag="0"/>
    </comp>
    <comp name="--.HNN">
      <acc value="0.0477575112" flag="0"/>
      <vel value="0.0160863929" flag="0"/>
      <psa03 value="0.0855819407" flag="0"/>
      <psa10 value="0.0084502237" flag="0"/>
      <psa30 value="0.0006048456" flag="0"/>
    </comp>
  </station>
  <station code="CANM" name="CANM" netid="KO" insttype="CMG-5T" lat="40.0113" lon="27.0529">
    <comp name="--.HNZ">
      <acc value="0.0991749038" flag="0"/>
      <vel value="0.0253142608" flag="0"/>
      <psa03 value="0.0677255808" flag="0"/>
      <psa10 value="0.0054879455" flag="0"/>
      <psa30 value="0.0004264777" flag="0"/>
    </comp>
    <comp name="--.HNN">
      <acc value="0.1090161769" flag="0"/>
      <vel value="0.0372137055" flag="0"/>
      <psa03 value="0.2089951191" flag="0"/>
      <psa10 value="0.0122663102" flag="0"/>
      <psa30 value="0.0011547028" flag="0"/>
    </comp>
    <comp name="--.HNE">
      <acc value="0.0920519511" flag="0"/>
      <vel value="0.0342047434" flag="0"/>
      <psa03 value="0.1692926533" flag="0"/>
      <psa10 value="0.0064140455" flag="0"/>
      <psa30 value="0.0009433728" flag="0"/>
    </comp>
  </station>
  <station code="CTKS" name="CTKS" netid="KO" insttype="CMG-3ESP" lat="41.2373" lon="28.5072">
    <comp name="--.HHZ">
      <acc value="0.0000204094" flag="0"/>
      <vel value="0.0000023448" flag="0"/>
      <psa03 value="0.0000069152" flag="0"/>
      <psa10 value="0.0000017834" flag="0"/>
      <psa30 value="0.0000003650" flag="0"/>
    </comp>
    <comp name="--.HHE">
      <acc value="0.0604585271" flag="0"/>
      <vel value="0.0083272590" flag="0"/>
      <psa03 value="0.0224912857" flag="0"/>
      <psa10 value="0.0009280209" flag="0"/>
      <psa30 value="0.0001492382" flag="0"/>
    </comp>
  </station>
  <station code="CTYL" name="CTYL" netid="KO" insttype="CMG-3T" lat="41.476" lon="28.2897">
    <comp name="--.HHZ">
      <acc value="0.0439611575" flag="0"/>
      <vel value="0.0111342626" flag="0"/>
      <psa03 value="0.0892069460" flag="0"/>
      <psa10 value="0.0033921103" flag="0"/>
      <psa30 value="0.0002520494" flag="0"/>
    </comp>
    <comp name="--.HHN">
      <acc value="0.0621023477" flag="0"/>
      <vel value="0.0195341262" flag="0"/>
      <psa03 value="0.1077064145" flag="0"/>
      <psa10 value="0.0063613279" flag="0"/>
      <psa30 value="0.0004446479" flag="0"/>
    </comp>
  </station>
  <station code="DST" name="DST" netid="KO" insttype="CMG-5T" lat="39.6041" lon="28.6267">
    <comp name="--.HNE">
      <acc value="0.0362300428" flag="0"/>
      <vel value="0.0168243270" flag="0"/>
      <psa03 value="0.0999731445" flag="0"/>
      <psa10 value="0.0064476395" flag="0"/>
      <psa30 value="0.0006862950" flag="0"/>
    </comp>
    <comp name="--.HNZ">
      <acc value="0.0245110391" flag="0"/>
      <vel value="0.0091834443" flag="0"/>
      <psa03 value="0.0658068525" flag="0"/>
      <psa10 value="0.0027214520" flag="0"/>
      <psa30 value="0.0002234525" flag="0"/>
    </comp>
    <comp name="--.HNN">
      <acc value="0.0413831454" flag="0"/>
      <vel value="0.0137872454" flag="0"/>
      <psa03 value="0.1143592740" flag="0"/>
      <psa10 value="0.0060967162" flag="0"/>
      <psa30 value="0.0006111171" flag="0"/>
    </comp>
  </station>
  <station code="EDC" name="EDC" netid="KO" insttype="CMG-3T" lat="40.3465" lon="27.8618">
    <comp name="--.HHN">
      <acc value="0.4208322439" flag="0"/>
      <vel value="0.1101861354" flag="0"/>
      <psa03 value="0.5788857581" flag="0"/>
      <psa10 value="0.0513577639" flag="0"/>
      <psa30 value="0.0037096246" flag="0"/>
    </comp>
    <comp name="--.HHE">
      <acc value="0.3712288054" flag="0"/>
      <vel value="0.0979457836" flag="0"/>
      <psa03 value="0.6322367931" flag="0"/>
      <psa10 value="0.0333698551" flag="0"/>
      <psa30 value="0.0025402350" flag="0"/>
    </comp>
    <comp name="--.HHZ">
      <acc value="0.2359584253" flag="0"/>
      <vel value="0.0517803108" flag="0"/>
      <psa03 value="0.1738968942" flag="0"/>
      <psa10 value="0.0148125386" flag="0"/>
      <psa30 value="0.0009237246" flag="0"/>
    </comp>
  </station>
  <station code="GAZK" name="GAZK" netid="KO" insttype="CMG-6T" lat="40.7479" lon="27.3275">
    <comp name="--.HHZ">
      <acc value="0.1240200494" flag="0"/>
      <vel value="0.0278246235" flag="0"/>
      <psa03 value="0.0873968948" flag="0"/>
      <psa10 value="0.0068214036" flag="0"/>
      <psa30 value="0.0005536245" flag="0"/>
    </comp>
    <comp name="--.HHN">
      <acc value="0.2829290377" flag="0"/>
      <vel value="0.0652775276" flag="0"/>
      <psa03 value="0.2212347471" flag="0"/>
      <psa10 value="0.0166935252" flag="0"/>
      <psa30 value="0.0012548136" flag="0"/>
    </comp>
    <comp name="--.HHE">
      <acc value="0.2721889660" flag="0"/>
      <vel value="0.0666418868" flag="0"/>
      <psa03 value="0.2098074990" flag="0"/>
      <psa10 value="0.0171157385" flag="0"/>
      <psa30 value="0.0014173936" flag="0"/>
    </comp>
  </station>
  <station code="GEML" name="GEML" netid="KO" insttype="CMG-3T" lat="40.4646" lon="29.2116">
    <comp name="--.HHE">
      <acc value="0.0943636121" flag="0"/>
      <vel value="0.0159906271" flag="0"/>
      <psa03 value="0.1070253151" flag="0"/>
      <psa10 value="0.0046635094" flag="0"/>
      <psa30 value="0.0004345980" flag="0"/>
    </comp>
    <comp name="--.HHZ">
      <acc value="0.0558488195" flag="0"/>
      <vel value="0.0081300096" flag="0"/>
      <psa03 value="0.0243524645" flag="0"/>
      <psa10 value="0.0025520279" flag="0"/>
      <psa30 value="0.0002155643" flag="0"/>
    </comp>
    <comp name="--.HHN">
      <acc value="0.0837916768" flag="0"/>
      <vel value="0.0138632513" flag="0"/>
      <psa03 value="0.0850701319" flag="0"/>
      <psa10 value="0.0081818932" flag="0"/>
      <psa30 value="0.0003352424" flag="0"/>
    </comp>
  </station>
  <station code="HYBA" name="HYBA" netid="KO" insttype="CMG-5T" lat="40.8754" lon="29.0854">
    <comp name="--.HNZ">
      <acc value="0.0208374256" flag="0"/>
      <vel value="0.0056399027" flag="0"/>
      <psa03 value="0.0275244137" flag="0"/>
      <psa10 value="0.0019767548" flag="0"/>
      <psa30 value="0.0003235763" flag="0"/>
    </comp>
    <comp name="--.HNE">
      <acc value="0.0215818608" flag="0"/>
      <vel value="0.0086222300" flag="0"/>
      <psa03 value="0.0676539603" flag="0"/>
      <psa10 value="0.0033681152" flag="0"/>
      <psa30 value="0.0003101956" flag="0"/>
    </comp>
  </station>
  <station code="ISK" name="ISK" netid="KO" insttype="CMG-3T" lat="41.0615" lon="29.0592">
    <comp name="--.HHE">
      <acc value="0.0223679902" flag="0"/>
      <vel value="0.0068924002" flag="0"/>
      <psa03 value="0.0440972464" flag="0"/>
      <psa10 value="0.0023651362" flag="0"/>
      <psa30 value="0.0002187726" flag="0"/>
    </comp>
    <comp name="--.HHN">
      <acc value="0.0216622219" flag="0"/>
      <vel value="0.0075662146" flag="0"/>
      <psa03 value="0.0415253731" flag="0"/>
      <psa10 value="0.0040291676" flag="0"/>
      <psa30 value="0.0002224599" flag="0"/>
    </comp>
    <comp name="--.HHZ">
      <acc value="0.0140469081" flag="0"/>
      <vel value="0.0035324897" flag="0"/>
      <psa03 value="0.0230839575" flag="0"/>
      <psa10 value="0.0018604809" flag="0"/>
      <psa30 value="0.0001217565" flag="0"/>
    </comp>
  </station>
  <station code="IZI" name="IZI" netid="KO" insttype="CMG-5T" lat="40.3483" lon="29.4612">
    <comp name="--.HNE">
      <acc value="0.0223535867" flag="0"/>
      <vel value="0.0087742156" flag="0"/>
      <psa03 value="0.0619229224" flag="0"/>
      <psa10 value="0.0059094581" flag="0"/>
      <psa30 value="0.0004999201" flag="0"/>
    </comp>
    <comp name="--.HNZ">
      <acc value="0.0147037652" flag="0"/>
      <vel value="0.0054617087" flag="0"/>
      <psa03 value="0.0312530173" flag="0"/>
      <psa10 value="0.0027796461" flag="0"/>
      <psa30 value="0.0003261099" flag="0"/>
    </comp>
    <comp name="--.HNN">
      <acc value="0.0297088223" flag="0"/>
      <vel value="0.0085164909" flag="0"/>
      <psa03 value="0.0573766282" flag="0"/>
      <psa10 value="0.0055434056" flag="0"/>
      <psa30 value="0.0003833476" flag="0"/>
    </comp>
  </station>
  <station code="KCTX" name="KCTX" netid="KO" insttype="CMG-3ESP" lat="40.2626" lon="28.3353">
    <comp name="--.HHE">
      <acc value="0.1674960434" flag="0"/>
      <vel value="0.0442426847" flag="0"/>
      <psa03 value="0.1866598492" flag="0"/>
      <psa10 value="0.0212109796" flag="0"/>
      <psa30 value="0.0021913831" flag="0"/>
    </comp>
    <comp name="--.HHZ">
      <acc value="0.1601463266" flag="0"/>
      <vel value="0.0389463132" flag="0"/>
      <psa03 value="0.1376550125" flag="0"/>
      <psa10 value="0.0089704374" flag="0"/>
      <psa30 value="0.0005353983" flag="0"/>
    </comp>
  </station>
  <station code="KLYT" name="KLYT" netid="KO" insttype="CMG-3T" lat="41.253" lon="29.042">
    <comp name="--.HHN">
      <acc value="0.0353443006" flag="0"/>
      <vel value="0.0121006849" flag="0"/>
      <psa03 value="0.0732191661" flag="0"/>
      <psa10 value="0.0034950914" flag="0"/>
      <psa30 value="0.0003264528" flag="0"/>
    </comp>
    <comp name="--.HHE">
      <acc value="0.0405843799" flag="0"/>
      <vel value="0.0108436193" flag="0"/>
      <psa03 value="0.0745038632" flag="0"/>
      <psa10 value="0.0046803438" flag="0"/>
      <psa30 value="0.0003103284" flag="0"/>
    </comp>
    <comp name="--.HHZ">
      <acc value="0.0214583638" flag="0"/>
      <vel value="0.0041596576" flag="0"/>
      <psa03 value="0.0264412895" flag="0"/>
      <psa10 value="0.0021611575" flag="0"/>
      <psa30 value="0.0001471999" flag="0"/>
    </comp>
  </station>
  <station code="KOUK" name="KOUK" netid="KO" insttype="CMG-5T" lat="40.6572" lon="29.1918">
    <comp name="--.HNZ">
      <acc value="0.0229599365" flag="0"/>
      <vel value="0.0116034070" flag="0"/>
      <psa03 value="0.0682916061" flag="0"/>
      <psa10 value="0.0087578067" flag="0"/>
      <psa30 value="0.0005798849" flag="0"/>
    </comp>
    <comp name="--.HNE">
      <acc value="0.0363475554" flag="0"/>
      <vel value="0.0225992607" flag="0"/>
      <psa03 value="0.0834489463" flag="0"/>
      <psa10 value="0.0200028368" flag="0"/>
      <psa30 value="0.0011378997" flag="0"/>
    </comp>
    <comp name="--.HNN">
      <acc value="0.0281622229" flag="0"/>
      <vel value="0.0218367045" flag="0"/>
      <psa03 value="0.0892519866" flag="0"/>
      <psa10 value="0.0225717835" flag="0"/>
      <psa30 value="0.0011839214" flag="0"/>
    </comp>
  </station>
  <station code="KRBG" name="KRBG" netid="KO" insttype="CMG-3ESP" lat="40.3932" lon="27.2977">
    <comp name="--.HHE">
      <acc value="0.1098754291" flag="0"/>
      <vel value="0.0328036455" flag="0"/>
      <psa03 value="0.1375766987" flag="0"/>
      <psa10 value="0.0052013090" flag="0"/>
      <psa30 value="0.0004458107" flag="0"/>
    </comp>
    <comp name="--.HHZ">
      <acc value="0.0496477671" flag="0"/>
      <vel value="0.0126157997" flag="0"/>
      <psa03 value="0.0376562432" flag="0"/>
      <psa10 value="0.0016400448" flag="0"/>
      <psa30 value="0.0002081504" flag="0"/>
    </comp>
  </station>
  <station code="KUMB" name="KUMB" netid="KO" insttype="CMG-5T" lat="40.8626" lon="27.4592">
    <comp name="--.HNN">
      <acc value="0.0924809295" flag="0"/>
      <vel value="0.0249492487" flag="0"/>
      <psa03 value="0.1195186380" flag="0"/>
      <psa10 value="0.0070179015" flag="0"/>
      <psa30 value="0.0006613251" flag="0"/>
    </comp>
    <comp name="--.HNZ">
      <acc value="0.0331156767" flag="0"/>
      <vel value="0.0069102510" flag="0"/>
      <psa03 value="0.0478917733" flag="0"/>
      <psa10 value="0.0026966630" flag="0"/>
      <psa30 value="0.0011040080" flag="0"/>
    </comp>
    <comp name="--.HNE">
      <acc value="0.0993371482" flag="0"/>
      <vel value="0.0214192236" flag="0"/>
      <psa03 value="0.0690001477" flag="0"/>
      <psa10 value="0.0039569618" flag="0"/>
      <psa30 value="0.0004729566" flag="0"/>
    </comp>
  </station>
  <station code="MAEG" name="MAEG" netid="KO" insttype="CMG-5T" lat="40.9653" lon="27.9448">
    <comp name="--.HNE">
      <acc value="0.0490212382" flag="0"/>
      <vel value="0.0103990365" flag="0"/>
      <psa03 value="0.0484963076" flag="0"/>
      <psa10 value="0.0033536976" flag="0"/>
      <psa30 value="0.0003984186" flag="0"/>
    </comp>
    <comp name="--.HNN">
      <acc value="0.0496276054" flag="0"/>
      <vel value="0.0216554815" flag="0"/>
      <psa03 value="0.1034658787" flag="0"/>
      <psa10 value="0.0085758125" flag="0"/>
      <psa30 value="0.0006838440" flag="0"/>
    </comp>
    <comp name="--.HNZ">
      <acc value="0.0225033193" flag="0"/>
      <vel value="0.0044923043" flag="0"/>
      <psa03 value="0.0186484284" flag="0"/>
      <psa10 value="0.0021189754" flag="0"/>
      <psa30 value="0.0003398121" flag="0"/>
    </comp>
  </station>
  <station code="MDNY" name="MDNY" netid="KO" insttype="CMG-3ESP" lat="40.3709" lon="28.8846">
    <comp name="--.HHE">
      <acc value="0.0956522859" flag="0"/>
      <vel value="0.0293217138" flag="0"/>
      <psa03 value="0.1950506776" flag="0"/>
      <psa10 value="0.0094980930" flag="0"/>
      <psa30 value="0.0005968146" flag="0"/>
    </comp>
    <comp name="--.HHZ">
      <acc value="0.0755174859" flag="0"/>
      <vel value="0.0140300848" flag="0"/>
      <psa03 value="0.0408615313" flag="0"/>
      <psa10 value="0.0028095004" flag="0"/>
      <psa30 value="0.0003396628" flag="0"/>
    </comp>
    <comp name="--.HHN">
      <acc value="0.1116720996" flag="0"/>
      <vel value="0.0318902642" flag="0"/>
      <psa03 value="0.1480053328" flag="0"/>
      <psa10 value="0.0065151590" flag="0"/>
      <psa30 value="0.0005567501" flag="0"/>
    </comp>
  </station>
  <station code="MRMT" name="MRMT" netid="KO" insttype="CMG-3T" lat="40.609" lon="27.5832">
    <comp name="--.HHE">
      <acc value="0.1394759984" flag="0"/>
      <vel value="0.0232388931" flag="0"/>
      <psa03 value="0.0756973193" flag="0"/>
