<?xml version="1.0" encoding="UTF-8" standalone="yes"?>
<!DOCTYPE earthquake SYSTEM "stationlist.dtd">
<stationlist created="" xmlns="ch.ethz.sed.shakemap.usgs.xml">
  <station code="ARPRA" name="ARPRA" netid="KO" insttype="CMG-5T" lat="39.0929" lon="38.3356">
    <comp name="--.HNE">
      <acc value="0.0332038746" flag="0"/>
      <vel value="0.0182462809" flag="0"/>
      <psa03 value="0.0708741711" flag="0"/>
      <psa10 value="0.0163838247" flag="0"/>
      <psa30 value="0.0011070233" flag="0"/>
    </comp>
    <comp name="--.HNN">
      <acc value="0.0358241155" flag="0"/>
      <vel value="0.0158605419" flag="0"/>
      <psa03 value="0.1078999603" flag="0"/>
      <psa10 value="0.0144995515" flag="0"/>
      <psa30 value="0.0007719417" flag="0"/>
    </comp>
    <comp name="--.HNZ">
      <acc value="0.0193348076" flag="0"/>
      <vel value="0.0072507931" flag="0"/>
      <psa03 value="0.0365705161" flag="0"/>
      <psa10 value="0.0061729504" flag="0"/>
      <psa30 value="0.0006555522" flag="0"/>
    </comp>
  </station>
  <station code="DARE" name="DARE" netid="KO" insttype="CMG-3ESP" lat="38.5712" lon="37.4832">
    <comp name="--.HHZ">
      <acc value="0.0241776503" flag="0"/>
      <vel value="0.0107720342" flag="0"/>
      <psa03 value="0.0838782188" flag="0"/>
      <psa10 value="0.0043418370" flag="0"/>
      <psa30 value="0.0006204358" flag="0"/>
    </comp>
    <comp name="--.HHN">
      <acc value="0.0226377236" flag="0"/>
      <vel value="0.0095709353" flag="0"/>
      <psa03 value="0.0409124433" flag="0"/>
      <psa10 value="0.0045823859" flag="0"/>
      <psa30 value="0.0002816041" flag="0"/>
    </comp>
    <comp name="--.HHE">
      <acc value="0.0318085134" flag="0"/>
      <vel value="0.0092121805" flag="0"/>
      <psa03 value="0.0467212710" flag="0"/>
      <psa10 value="0.0060995084" flag="0"/>
      <psa30 value="0.0004281387" flag="0"/>
    </comp>
  </station>
  <station code="URFA" name="URFA" netid="KO" insttype="CMG-3ESP" lat="37.4409" lon="38.8213">
    <comp name="--.HHE">
      <acc value="0.0204052160" flag="0"/>
      <vel value="0.0082848004" flag="0"/>
      <psa03 value="0.0467208869" flag="0"/>
      <psa10 value="0.0074017740" flag="0"/>
      <psa30 value="0.0020317918" flag="0"/>
    </comp>
    <comp name="--.HHN">
      <acc value="0.0161254146" flag="0"/>
      <vel value="0.0046592025" flag="0"/>
      <psa03 value="0.0272882140" flag="0"/>
      <psa10 value="0.0046097459" flag="0"/>
      <psa30 value="0.0009340241" flag="0"/>
    </comp>
    <comp name="--.HHZ">
      <acc value="0.0101912406" flag="0"/>
      <vel value="0.0043131510" flag="0"/>
      <psa03 value="0.0207004916" flag="0"/>
      <psa10 value="0.0040030132" flag="0"/>
      <psa30 value="0.0003286782" flag="0"/>
    </comp>
  </station>
</stationlist>
