<?xml version="1.0" encoding="UTF-8" standalone="yes"?>
<!DOCTYPE earthquake SYSTEM "stationlist.dtd">
<stationlist created="" xmlns="ch.ethz.sed.shakemap.usgs.xml">
  <station code="ARPRA" name="ARPRA" netid="KO" insttype="CMG-5T" lat="39.0929" lon="38.3356">
    <comp name="--.HNE">
      <acc value="0.0332038717" flag="0"/>
      <vel value="0.0182462843" flag="0"/>
      <psa03 value="0.0708741711" flag="0"/>
      <psa10 value="0.0163838248" flag="0"/>
      <psa30 value="0.0011065345" flag="0"/>
    </comp>
    <comp name="--.HNZ">
      <acc value="0.0193348065" flag="0"/>
      <vel value="0.0072507898" flag="0"/>
      <psa03 value="0.0365705161" flag="0"/>
      <psa10 value="0.0061729500" flag="0"/>
      <psa30 value="0.0006555919" flag="0"/>
    </comp>
    <comp name="--.HNN">
      <acc value="0.0358241145" flag="0"/>
      <vel value="0.0158605496" flag="0"/>
      <psa03 value="0.1078999603" flag="0"/>
      <psa10 value="0.0144995510" flag="0"/>
      <psa30 value="0.0007717665" flag="0"/>
    </comp>
  </station>
  <station code="DARE" name="DARE" netid="KO" insttype="CMG-3ESP" lat="38.5712" lon="37.4832">
    <comp name="--.HHN">
      <acc value="0.0226377236" flag="0"/>
      <vel value="0.0095709345" flag="0"/>
      <psa03 value="0.0409124433" flag="0"/>
      <psa10 value="0.0045823863" flag="0"/>
      <psa30 value="0.0002816030" flag="0"/>
    </comp>
    <comp name="--.HHE">
      <acc value="0.0318085135" flag="0"/>
      <vel value="0.0092121803" flag="0"/>
      <psa03 value="0.0467212710" flag="0"/>
      <psa10 value="0.0060995089" flag="0"/>
      <psa30 value="0.0004281425" flag="0"/>
    </comp>
    <comp name="--.HHZ">
      <acc value="0.0241776503" flag="0"/>
      <vel value="0.0107720329" flag="0"/>
      <psa03 value="0.0838782188" flag="0"/>
      <psa10 value="0.0043418370" flag="0"/>
      <psa30 value="0.0006204296" flag="0"/>
    </comp>
  </station>
  <station code="URFA" name="URFA" netid="KO" insttype="CMG-3ESP" lat="37.4409" lon="38.8213">
    <comp name="--.HHZ">
      <acc value="0.0101912407" flag="0"/>
      <vel value="0.0043131498" flag="0"/>
      <psa03 value="0.0207004916" flag="0"/>
      <psa10 value="0.0040030132" flag="0"/>
      <psa30 value="0.0003286784" flag="0"/>
    </comp>
    <comp name="--.HHN">
      <acc value="0.0161254145" flag="0"/>
      <vel value="0.0046591991" flag="0"/>
      <psa03 value="0.0272882140" flag="0"/>
      <psa10 value="0.0046097458" flag="0"/>
      <psa30 value="0.0009340269" flag="0"/>
    </comp>
    <comp name="--.HHE">
      <acc value="0.0204052160" flag="0"/>
      <vel value="0.0082848001" flag="0"/>
      <psa03 value="0.0467208869" flag="0"/>
      <psa10 value="0.0074017741" flag="0"/>
      <psa30 value="0.0020317927" flag="0"/>
    </comp>
  </station>
</stationlist>
