<?xml version="1.0" encoding="UTF-8" standalone="yes"?>
<!DOCTYPE earthquake SYSTEM "stationlist.dtd">
<stationlist created="" xmlns="ch.ethz.sed.shakemap.usgs.xml">
  <station code="APE" name="APE" netid="GE" insttype="STS-2/N" commtype="DIG" lat="37.0727" lon="25.523">
    <comp name="--.HHN">
      <acc value="0.0551297904" flag="0"/>
      <vel value="0.0106569054" flag="0"/>
      <psa03 value="0.0250787612" flag="0"/>
      <psa10 value="0.0041848548" flag="0"/>
      <psa30 value="0.0007790705" flag="0"/>
    </comp>
    <comp name="--.HHZ">
      <acc value="0.0221514246" flag="0"/>
      <vel value="0.0048820826" flag="0"/>
      <psa03 value="0.0197042478" flag="0"/>
      <psa10 value="0.0036762844" flag="0"/>
      <psa30 value="0.0009162769" flag="0"/>
    </comp>
    <comp name="--.HHE">
      <acc value="0.0475438807" flag="0"/>
      <vel value="0.0074371081" flag="0"/>
      <psa03 value="0.0346094583" flag="0"/>
      <psa10 value="0.0034989337" flag="0"/>
      <psa30 value="0.0007611727" flag="0"/>
    </comp>
  </station>
  <station code="THERA" name="THERA" netid="GE" insttype="STS-2/N" commtype="DIG" lat="36.367" lon="25.4753">
    <comp name="--.HHN">
      <acc value="0.0378666061" flag="0"/>
      <vel value="0.0102664782" flag="0"/>
      <psa03 value="0.0588828092" flag="0"/>
      <psa10 value="0.0050256351" flag="0"/>
      <psa30 value="0.0006641867" flag="0"/>
    </comp>
    <comp name="--.HHE">
      <acc value="0.0555480748" flag="0"/>
      <vel value="0.0154014110" flag="0"/>
      <psa03 value="0.0598568995" flag="0"/>
      <psa10 value="0.0057632485" flag="0"/>
      <psa30 value="0.0012288148" flag="0"/>
    </comp>
    <comp name="--.HHZ">
      <acc value="0.0456692450" flag="0"/>
      <vel value="0.0104798489" flag="0"/>
      <psa03 value="0.0539462940" flag="0"/>
      <psa10 value="0.0070883531" flag="0"/>
      <psa30 value="0.0010623979" flag="0"/>
    </comp>
  </station>
  <station code="SERI" name="SERI" netid="HA" insttype="30" commtype="DIG" lat="37.1609" lon="24.4853">
    <comp name="--.HHE">
      <acc value="0.0136993296" flag="0"/>
      <vel value="0.0028326565" flag="0"/>
      <psa03 value="0.0167298426" flag="0"/>
      <psa10 value="0.0017314446" flag="0"/>
      <psa30 value="0.0002523279" flag="0"/>
    </comp>
    <comp name="--.HHN">
      <acc value="0.0146529057" flag="0"/>
      <vel value="0.0043911400" flag="0"/>
      <psa03 value="0.0153094532" flag="0"/>
      <psa10 value="0.0030221445" flag="0"/>
      <psa30 value="0.0001861283" flag="0"/>
    </comp>
    <comp name="--.HHZ">
      <acc value="0.0075681055" flag="0"/>
      <vel value="0.0021425821" flag="0"/>
      <psa03 value="0.0065107551" flag="0"/>
      <psa10 value="0.0017370916" flag="0"/>
      <psa30 value="0.0004266045" flag="0"/>
    </comp>
  </station>
  <station code="SNT1" name="SNT1" netid="HA" insttype="30" commtype="DIG" lat="36.4159" lon="25.4282">
    <comp name="--.HHZ">
      <acc value="0.0487811327" flag="0"/>
      <vel value="0.0154559649" flag="0"/>
      <psa03 value="0.1202485943" flag="0"/>
      <psa10 value="0.0096076908" flag="0"/>
      <psa30 value="0.0012116476" flag="0"/>
    </comp>
    <comp name="--.HHE">
      <acc value="0.0573657584" flag="0"/>
      <vel value="0.0190883146" flag="0"/>
      <psa03 value="0.0864870073" flag="0"/>
      <psa10 value="0.0191008339" flag="0"/>
      <psa30 value="0.0025368739" flag="0"/>
    </comp>
    <comp name="--.HHN">
      <acc value="0.0645094512" flag="0"/>
      <vel value="0.0231519491" flag="0"/>
      <psa03 value="0.0864712870" flag="0"/>
      <psa10 value="0.0215038262" flag="0"/>
      <psa30 value="0.0031933018" flag="0"/>
    </comp>
  </station>
  <station code="SNT5" name="SNT5" netid="HA" insttype="1s-100Hz," commtype="DIG" lat="36.4037" lon="25.3953">
    <comp name="--.HHE">
      <acc value="0.2837659149" flag="0"/>
      <vel value="0.0958741800" flag="0"/>
      <psa03 value="0.3262849243" flag="0"/>
      <psa10 value="0.0204348563" flag="0"/>
      <psa30 value="0.0033936312" flag="0"/>
    </comp>
    <comp name="--.HHZ">
      <acc value="0.0829391511" flag="0"/>
      <vel value="0.0151604904" flag="0"/>
      <psa03 value="0.0868136568" flag="0"/>
      <psa10 value="0.0090899000" flag="0"/>
      <psa30 value="0.0006834993" flag="0"/>
    </comp>
    <comp name="--.HHN">
      <acc value="0.1999817066" flag="0"/>
      <vel value="0.0538722060" flag="0"/>
      <psa03 value="0.2430630476" flag="0"/>
      <psa10 value="0.0122256348" flag="0"/>
      <psa30 value="0.0018592418" flag="0"/>
    </comp>
  </station>
  <station code="NAX1" name="NAX1" netid="HI" insttype="CMG-5TD,ACCELEROMETER,GURALP" commtype="DIG" lat="37.1014" lon="25.3741">
    <comp name="--.HNN">
      <acc value="0.0487824804" flag="0"/>
      <vel value="0.0085467354" flag="0"/>
      <psa03 value="0.0241460656" flag="0"/>
      <psa10 value="0.0035626796" flag="0"/>
      <psa30 value="0.0004892181" flag="0"/>
    </comp>
    <comp name="--.HNE">
      <acc value="0.0350287743" flag="0"/>
      <vel value="0.0110959940" flag="0"/>
      <psa03 value="0.0544091417" flag="0"/>
      <psa10 value="0.0063064613" flag="0"/>
      <psa30 value="0.0004290239" flag="0"/>
    </comp>
    <comp name="--.HNZ">
      <acc value="0.0215998131" flag="0"/>
      <vel value="0.0045659369" flag="0"/>
      <psa03 value="0.0191067754" flag="0"/>
      <psa10 value="0.0039125819" flag="0"/>
      <psa30 value="0.0007413648" flag="0"/>
    </comp>
  </station>
  <station code="SFR2" name="SFR2" netid="HI" insttype="unknown" commtype="DIG" lat="36.3998" lon="25.4382">
    <comp name="--.HNN">
      <acc value="0.1588463156" flag="0"/>
      <vel value="0.0541454108" flag="0"/>
      <psa03 value="0.3305605029" flag="0"/>
      <psa10 value="0.0238368022" flag="0"/>
      <psa30 value="0.0021899646" flag="0"/>
    </comp>
    <comp name="--.HNE">
      <acc value="0.1008586841" flag="0"/>
      <vel value="0.0428509715" flag="0"/>
      <psa03 value="0.2553956026" flag="0"/>
      <psa10 value="0.0204707206" flag="0"/>
      <psa30 value="0.0033159553" flag="0"/>
    </comp>
    <comp name="--.HNZ">
      <acc value="0.1658866716" flag="0"/>
      <vel value="0.0380986511" flag="0"/>
      <psa03 value="0.2482653310" flag="0"/>
      <psa10 value="0.0198762033" flag="0"/>
      <psa30 value="0.0016436766" flag="0"/>
    </comp>
  </station>
  <station code="AMGA" name="AMGA" netid="HL" insttype="SMART24" commtype="DIG" lat="36.8316" lon="25.8938">
    <comp name="--.HHE">
      <acc value="0.4564112808" flag="0"/>
      <vel value="0.0644977555" flag="0"/>
      <psa03 value="0.1465555538" flag="0"/>
      <psa10 value="0.0125178647" flag="0"/>
      <psa30 value="0.0013287183" flag="0"/>
    </comp>
    <comp name="--.HHZ">
      <acc value="0.2391456551" flag="0"/>
      <vel value="0.0479684323" flag="0"/>
      <psa03 value="0.1515677078" flag="0"/>
      <psa10 value="0.0114743746" flag="0"/>
      <psa30 value="0.0017544971" flag="0"/>
    </comp>
    <comp name="--.HHN">
      <acc value="0.3456178527" flag="0"/>
      <vel value="0.0791164390" flag="0"/>
      <psa03 value="0.2030767937" flag="0"/>
      <psa10 value="0.0180526236" flag="0"/>
      <psa30 value="0.0016409334" flag="0"/>
    </comp>
  </station>
  <station code="APE" name="APE" netid="HL" insttype="120" commtype="DIG" lat="37.0727" lon="25.523">
    <comp name="--.HHE">
      <acc value="0.0435008909" flag="0"/>
      <vel value="0.0070138292" flag="0"/>
      <psa03 value="0.0334574382" flag="0"/>
      <psa10 value="0.0034647620" flag="0"/>
      <psa30 value="0.0007591684" flag="0"/>
    </comp>
    <comp name="--.HHZ">
      <acc value="0.0195883321" flag="0"/>
      <vel value="0.0046709812" flag="0"/>
      <psa03 value="0.0191232346" flag="0"/>
      <psa10 value="0.0036501582" flag="0"/>
      <psa30 value="0.0009150646" flag="0"/>
    </comp>
    <comp name="--.HHN">
      <acc value="0.0506498594" flag="0"/>
      <vel value="0.0104152336" flag="0"/>
      <psa03 value="0.0244412261" flag="0"/>
      <psa10 value="0.0041345676" flag="0"/>
      <psa30 value="0.0007778764" flag="0"/>
    </comp>
  </station>
  <station code="MHLO" name="MHLO" netid="HL" insttype="20" commtype="DIG" lat="36.6898" lon="24.4017">
    <comp name="--.HHZ">
      <acc value="0.0191672593" flag="0"/>
      <vel value="0.0097960216" flag="0"/>
      <psa03 value="0.0421352571" flag="0"/>
      <psa10 value="0.0105073364" flag="0"/>
      <psa30 value="0.0006827322" flag="0"/>
    </comp>
    <comp name="--.HHE">
      <acc value="0.0508435750" flag="0"/>
      <vel value="0.0249216768" flag="0"/>
      <psa03 value="0.1308382117" flag="0"/>
      <psa10 value="0.0174655429" flag="0"/>
      <psa30 value="0.0013725259" flag="0"/>
    </comp>
    <comp name="--.HHN">
      <acc value="0.0462017359" flag="0"/>
      <vel value="0.0220110260" flag="0"/>
      <psa03 value="0.0975843874" flag="0"/>
      <psa10 value="0.0168308563" flag="0"/>
      <psa30 value="0.0008312039" flag="0"/>
    </comp>
  </station>
  <station code="MILA" name="MILA" netid="HL" insttype="CMG-5" commtype="DIG" lat="36.7429" lon="24.4282">
    <comp name="00.HNE">
      <acc value="0.0375832698" flag="0"/>
      <vel value="0.0192537060" flag="0"/>
      <psa03 value="0.1277660043" flag="0"/>
      <psa10 value="0.0070626824" flag="0"/>
      <psa30 value="0.0010047997" flag="0"/>
    </comp>
    <comp name="00.HNN">
      <acc value="0.0667290331" flag="0"/>
      <vel value="0.0326692146" flag="0"/>
      <psa03 value="0.1583161602" flag="0"/>
      <psa10 value="0.0116832249" flag="0"/>
      <psa30 value="0.0010453101" flag="0"/>
    </comp>
    <comp name="00.HNZ">
      <acc value="0.0331546422" flag="0"/>
      <vel value="0.0126993644" flag="0"/>
      <psa03 value="0.0803109361" flag="0"/>
      <psa10 value="0.0100325165" flag="0"/>
      <psa30 value="0.0004538406" flag="0"/>
    </comp>
  </station>
  <station code="SANT" name="SANT" netid="HL" insttype="30" commtype="DIG" lat="36.3705" lon="25.4593">
    <comp name="--.HHE">
      <acc value="0.1273489566" flag="0"/>
      <vel value="0.0265262548" flag="0"/>
      <psa03 value="0.1567809269" flag="0"/>
      <psa10 value="0.0136551094" flag="0"/>
      <psa30 value="0.0012783364" flag="0"/>
    </comp>
    <comp name="--.HHN">
      <acc value="0.1312141261" flag="0"/>
      <vel value="0.0198698556" flag="0"/>
      <psa03 value="0.0536756057" flag="0"/>
      <psa10 value="0.0109076463" flag="0"/>
      <psa30 value="0.0014405922" flag="0"/>
    </comp>
    <comp name="--.HHZ">
      <acc value="0.1037604128" flag="0"/>
      <vel value="0.0177676314" flag="0"/>
      <psa03 value="0.0748783970" flag="0"/>
      <psa10 value="0.0071325549" flag="0"/>
      <psa30 value="0.0008025063" flag="0"/>
    </comp>
  </station>
  <station code="SAP3" name="SAP3" netid="HL" insttype="65535" commtype="DIG" lat="36.4356" lon="25.3454">
    <comp name="--.HHZ">
      <acc value="0.1838381229" flag="0"/>
      <vel value="0.0444196274" flag="0"/>
      <psa03 value="0.2799168609" flag="0"/>
      <psa10 value="0.0089083562" flag="0"/>
      <psa30 value="0.0012249029" flag="0"/>
    </comp>
    <comp name="--.HHN">
      <acc value="0.2273179569" flag="0"/>
      <vel value="0.0772264690" flag="0"/>
      <psa03 value="0.3375229765" flag="0"/>
      <psa10 value="0.0167217768" flag="0"/>
      <psa30 value="0.0019504735" flag="0"/>
    </comp>
    <comp name="--.HHE">
      <acc value="0.2597657591" flag="0"/>
      <vel value="0.0837493340" flag="0"/>
      <psa03 value="0.3677872195" flag="0"/>
      <psa10 value="0.0200946626" flag="0"/>
      <psa30 value="0.0031755023" flag="0"/>
    </comp>
  </station>
  <station code="THERA" name="THERA" netid="HL" insttype="120" commtype="DIG" lat="36.367" lon="25.4753">
    <comp name="--.HHE">
      <acc value="0.0563401912" flag="0"/>
      <vel value="0.0148416441" flag="0"/>
      <psa03 value="0.0581890530" flag="0"/>
      <psa10 value="0.0056282575" flag="0"/>
      <psa30 value="0.0012272969" flag="0"/>
    </comp>
    <comp name="--.HHZ">
      <acc value="0.0458817327" flag="0"/>
      <vel value="0.0101847948" flag="0"/>
      <psa03 value="0.0525852801" flag="0"/>
      <psa10 value="0.0070112568" flag="0"/>
      <psa30 value="0.0010618541" flag="0"/>
    </comp>
    <comp name="--.HHN">
      <acc value="0.0746786408" flag="0"/>
      <vel value="0.0200052581" flag="0"/>
      <psa03 value="0.1146623143" flag="0"/>
      <psa10 value="0.0099653519" flag="0"/>
      <psa30 value="0.0013294432" flag="0"/>
    </comp>
  </station>
  <station code="THRA" name="THRA" netid="HL" insttype="CMG-5" commtype="DIG" lat="36.415" lon="25.4324">
    <comp name="00.HNE">
      <acc value="0.1878665987" flag="0"/>
      <vel value="0.0699837559" flag="0"/>
      <psa03 value="0.4875409011" flag="0"/>
      <psa10 value="0.0493912241" flag="0"/>
      <psa30 value="0.0050004060" flag="0"/>
    </comp>
    <comp name="00.HNN">
      <acc value="0.1846502115" flag="0"/>
      <vel value="0.0667099669" flag="0"/>
      <psa03 value="0.3932061830" flag="0"/>
      <psa10 value="0.0672473726" flag="0"/>
      <psa30 value="0.0046435718" flag="0"/>
    </comp>
    <comp name="00.HNZ">
      <acc value="0.1511246478" flag="0"/>
      <vel value="0.0477123051" flag="0"/>
      <psa03 value="0.2577045188" flag="0"/>
      <psa10 value="0.0189682327" flag="0"/>
      <psa30 value="0.0018948446" flag="0"/>
    </comp>
  </station>
  <station code="AKRO" name="AKRO" netid="HT" insttype="Compact," commtype="DIG" lat="36.3584" lon="25.3967">
    <comp name="--.HHE">
      <acc value="0.2517181923" flag="0"/>
      <vel value="0.0632424265" flag="0"/>
      <psa03 value="0.3014913266" flag="0"/>
      <psa10 value="0.0196108388" flag="0"/>
      <psa30 value="0.0019067217" flag="0"/>
    </comp>
    <comp name="--.HHZ">
      <acc value="0.1195943187" flag="0"/>
      <vel value="0.0212205531" flag="0"/>
      <psa03 value="0.0935003634" flag="0"/>
      <psa10 value="0.0097215318" flag="0"/>
      <psa30 value="0.0008276132" flag="0"/>
    </comp>
    <comp name="--.HHN">
      <acc value="0.2032967344" flag="0"/>
      <vel value="0.0412666871" flag="0"/>
      <psa03 value="0.1929938317" flag="0"/>
      <psa10 value="0.0188810625" flag="0"/>
      <psa30 value="0.0018632363" flag="0"/>
    </comp>
  </station>
  <station code="CMBO" name="CMBO" netid="HT" insttype="120P," commtype="DIG" lat="36.4709" lon="25.4056">
    <comp name="--.HHN">
      <acc value="0.2426986943" flag="0"/>
      <vel value="0.0855833625" flag="0"/>
      <psa03 value="0.4015559845" flag="0"/>
      <psa10 value="0.0488919434" flag="0"/>
      <psa30 value="0.0031520482" flag="0"/>
    </comp>
    <comp name="--.HHE">
      <acc value="0.2393748748" flag="0"/>
      <vel value="0.0856212509" flag="0"/>
      <psa03 value="0.2093632390" flag="0"/>
      <psa10 value="0.0196349142" flag="0"/>
      <psa30 value="0.0031117695" flag="0"/>
    </comp>
    <comp name="--.HHZ">
      <acc value="0.1884502204" flag="0"/>
      <vel value="0.0541148580" flag="0"/>
      <psa03 value="0.2768223008" flag="0"/>
      <psa10 value="0.0131183619" flag="0"/>
      <psa30 value="0.0025574419" flag="0"/>
    </comp>
  </station>
</stationlist>
