<?xml version="1.0" encoding="UTF-8" standalone="yes"?>
<!DOCTYPE earthquake SYSTEM "stationlist.dtd">
<stationlist created="" xmlns="ch.ethz.sed.shakemap.usgs.xml">
  <station code="APE" name="APE" netid="GE" insttype="STS-2/N" commtype="DIG" lat="37.0727" lon="25.523">
    <comp name="--.HHN">
      <acc value="0.0551297903" flag="0"/>
      <vel value="0.0106569056" flag="0"/>
      <psa03 value="0.0250787612" flag="0"/>
      <psa10 value="0.0041848549" flag="0"/>
      <psa30 value="0.0007790676" flag="0"/>
    </comp>
    <comp name="--.HHZ">
      <acc value="0.0221514246" flag="0"/>
      <vel value="0.0048820827" flag="0"/>
      <psa03 value="0.0197042478" flag="0"/>
      <psa10 value="0.0036762844" flag="0"/>
      <psa30 value="0.0009162760" flag="0"/>
    </comp>
    <comp name="--.HHE">
      <acc value="0.0475438808" flag="0"/>
      <vel value="0.0074371079" flag="0"/>
      <psa03 value="0.0346094583" flag="0"/>
      <psa10 value="0.0034989338" flag="0"/>
      <psa30 value="0.0007611642" flag="0"/>
    </comp>
  </station>
  <station code="THERA" name="THERA" netid="GE" insttype="STS-2/N" commtype="DIG" lat="36.367" lon="25.4753">
    <comp name="--.HHZ">
      <acc value="0.0456692450" flag="0"/>
      <vel value="0.0104798489" flag="0"/>
      <psa03 value="0.0539462940" flag="0"/>
      <psa10 value="0.0070883531" flag="0"/>
      <psa30 value="0.0010623939" flag="0"/>
    </comp>
    <comp name="--.HHE">
      <acc value="0.0555480749" flag="0"/>
      <vel value="0.0154014108" flag="0"/>
      <psa03 value="0.0598568995" flag="0"/>
      <psa10 value="0.0057632484" flag="0"/>
      <psa30 value="0.0012288133" flag="0"/>
    </comp>
    <comp name="--.HHN">
      <acc value="0.0378666061" flag="0"/>
      <vel value="0.0102664782" flag="0"/>
      <psa03 value="0.0588828092" flag="0"/>
      <psa10 value="0.0050256351" flag="0"/>
      <psa30 value="0.0006641896" flag="0"/>
    </comp>
  </station>
  <station code="SERI" name="SERI" netid="HA" insttype="30" commtype="DIG" lat="37.1609" lon="24.4853">
    <comp name="--.HHN">
      <acc value="0.0146529055" flag="0"/>
      <vel value="0.0043911474" flag="0"/>
      <psa03 value="0.0153094532" flag="0"/>
      <psa10 value="0.0030221445" flag="0"/>
      <psa30 value="0.0001861634" flag="0"/>
    </comp>
    <comp name="--.HHE">
      <acc value="0.0136993294" flag="0"/>
      <vel value="0.0028326554" flag="0"/>
      <psa03 value="0.0167298427" flag="0"/>
      <psa10 value="0.0017314446" flag="0"/>
      <psa30 value="0.0002523310" flag="0"/>
    </comp>
    <comp name="--.HHZ">
      <acc value="0.0075681054" flag="0"/>
      <vel value="0.0021425996" flag="0"/>
      <psa03 value="0.0065107550" flag="0"/>
      <psa10 value="0.0017370916" flag="0"/>
      <psa30 value="0.0004265229" flag="0"/>
    </comp>
  </station>
  <station code="SNT1" name="SNT1" netid="HA" insttype="30" commtype="DIG" lat="36.4159" lon="25.4282">
    <comp name="--.HHE">
      <acc value="0.0573657584" flag="0"/>
      <vel value="0.0190883146" flag="0"/>
      <psa03 value="0.0864870073" flag="0"/>
      <psa10 value="0.0191008339" flag="0"/>
      <psa30 value="0.0025368727" flag="0"/>
    </comp>
    <comp name="--.HHN">
      <acc value="0.0645094512" flag="0"/>
      <vel value="0.0231519489" flag="0"/>
      <psa03 value="0.0864712870" flag="0"/>
      <psa10 value="0.0215038261" flag="0"/>
      <psa30 value="0.0031933025" flag="0"/>
    </comp>
    <comp name="--.HHZ">
      <acc value="0.0487811327" flag="0"/>
      <vel value="0.0154559652" flag="0"/>
      <psa03 value="0.1202485943" flag="0"/>
      <psa10 value="0.0096076908" flag="0"/>
      <psa30 value="0.0012116494" flag="0"/>
    </comp>
  </station>
  <station code="SNT5" name="SNT5" netid="HA" insttype="1s-100Hz," commtype="DIG" lat="36.4037" lon="25.3953">
    <comp name="--.HHE">
      <acc value="0.2837659168" flag="0"/>
      <vel value="0.0958746322" flag="0"/>
      <psa03 value="0.3262849261" flag="0"/>
      <psa10 value="0.0204348582" flag="0"/>
      <psa30 value="0.0033936311" flag="0"/>
    </comp>
    <comp name="--.HHZ">
      <acc value="0.0829391511" flag="0"/>
      <vel value="0.0151604897" flag="0"/>
      <psa03 value="0.0868136568" flag="0"/>
      <psa10 value="0.0090898999" flag="0"/>
      <psa30 value="0.0006835018" flag="0"/>
    </comp>
    <comp name="--.HHN">
      <acc value="0.1999817066" flag="0"/>
      <vel value="0.0538722097" flag="0"/>
      <psa03 value="0.2430630476" flag="0"/>
      <psa10 value="0.0122256349" flag="0"/>
      <psa30 value="0.0018592393" flag="0"/>
    </comp>
  </station>
  <station code="NAX1" name="NAX1" netid="HI" insttype="CMG-5TD,ACCELEROMETER,GURALP" commtype="DIG" lat="37.1014" lon="25.3741">
    <comp name="--.HNE">
      <acc value="0.0350287742" flag="0"/>
      <vel value="0.0110959913" flag="0"/>
      <psa03 value="0.0544091417" flag="0"/>
      <psa10 value="0.0063064621" flag="0"/>
      <psa30 value="0.0004291033" flag="0"/>
    </comp>
    <comp name="--.HNZ">
      <acc value="0.0215998141" flag="0"/>
      <vel value="0.0045659381" flag="0"/>
      <psa03 value="0.0191067754" flag="0"/>
      <psa10 value="0.0039125819" flag="0"/>
      <psa30 value="0.0007413386" flag="0"/>
    </comp>
    <comp name="--.HNN">
      <acc value="0.0487824789" flag="0"/>
      <vel value="0.0085467344" flag="0"/>
      <psa03 value="0.0241460656" flag="0"/>
      <psa10 value="0.0035626809" flag="0"/>
      <psa30 value="0.0004891053" flag="0"/>
    </comp>
  </station>
  <station code="SFR2" name="SFR2" netid="HI" insttype="unknown" commtype="DIG" lat="36.3998" lon="25.4382">
    <comp name="--.HNE">
      <acc value="0.1008586901" flag="0"/>
      <vel value="0.0428509717" flag="0"/>
      <psa03 value="0.2553956026" flag="0"/>
      <psa10 value="0.0204707205" flag="0"/>
      <psa30 value="0.0033161214" flag="0"/>
    </comp>
    <comp name="--.HNZ">
      <acc value="0.1658866717" flag="0"/>
      <vel value="0.0380986512" flag="0"/>
      <psa03 value="0.2482653310" flag="0"/>
      <psa10 value="0.0198762033" flag="0"/>
      <psa30 value="0.0016436596" flag="0"/>
    </comp>
    <comp name="--.HNN">
      <acc value="0.1588463157" flag="0"/>
      <vel value="0.0541454108" flag="0"/>
      <psa03 value="0.3305605029" flag="0"/>
      <psa10 value="0.0238368022" flag="0"/>
      <psa30 value="0.0021899704" flag="0"/>
    </comp>
  </station>
  <station code="AMGA" name="AMGA" netid="HL" insttype="SMART24" commtype="DIG" lat="36.8316" lon="25.8938">
    <comp name="--.HHE">
      <acc value="0.4564112814" flag="0"/>
      <vel value="0.0644977707" flag="0"/>
      <psa03 value="0.1465555538" flag="0"/>
      <psa10 value="0.0125178675" flag="0"/>
      <psa30 value="0.0013287748" flag="0"/>
    </comp>
    <comp name="--.HHN">
      <acc value="0.3456178532" flag="0"/>
      <vel value="0.0791164263" flag="0"/>
      <psa03 value="0.2030767937" flag="0"/>
      <psa10 value="0.0180526236" flag="0"/>
      <psa30 value="0.0016410864" flag="0"/>
    </comp>
    <comp name="--.HHZ">
      <acc value="0.2391456556" flag="0"/>
      <vel value="0.0479684308" flag="0"/>
      <psa03 value="0.1515677078" flag="0"/>
      <psa10 value="0.0114743740" flag="0"/>
      <psa30 value="0.0017548925" flag="0"/>
    </comp>
  </station>
  <station code="APE" name="APE" netid="HL" insttype="120" commtype="DIG" lat="37.0727" lon="25.523">
    <comp name="--.HHE">
      <acc value="0.0435008908" flag="0"/>
      <vel value="0.0070138284" flag="0"/>
      <psa03 value="0.0334574382" flag="0"/>
      <psa10 value="0.0034647622" flag="0"/>
      <psa30 value="0.0007591665" flag="0"/>
    </comp>
    <comp name="--.HHN">
      <acc value="0.0506498595" flag="0"/>
      <vel value="0.0104152342" flag="0"/>
      <psa03 value="0.0244412261" flag="0"/>
      <psa10 value="0.0041345673" flag="0"/>
      <psa30 value="0.0007778517" flag="0"/>
    </comp>
    <comp name="--.HHZ">
      <acc value="0.0195883322" flag="0"/>
      <vel value="0.0046709810" flag="0"/>
      <psa03 value="0.0191232346" flag="0"/>
      <psa10 value="0.0036501581" flag="0"/>
      <psa30 value="0.0009150604" flag="0"/>
    </comp>
  </station>
  <station code="MHLO" name="MHLO" netid="HL" insttype="20" commtype="DIG" lat="36.6898" lon="24.4017">
    <comp name="--.HHN">
      <acc value="0.0462017357" flag="0"/>
      <vel value="0.0220110321" flag="0"/>
      <psa03 value="0.0975843874" flag="0"/>
      <psa10 value="0.0168308562" flag="0"/>
      <psa30 value="0.0008311293" flag="0"/>
    </comp>
    <comp name="--.HHE">
      <acc value="0.0508435751" flag="0"/>
      <vel value="0.0249216753" flag="0"/>
      <psa03 value="0.1308382117" flag="0"/>
      <psa10 value="0.0174655428" flag="0"/>
      <psa30 value="0.0013725473" flag="0"/>
    </comp>
    <comp name="--.HHZ">
      <acc value="0.0191672596" flag="0"/>
      <vel value="0.0097960224" flag="0"/>
      <psa03 value="0.0421352571" flag="0"/>
      <psa10 value="0.0105073363" flag="0"/>
      <psa30 value="0.0006827150" flag="0"/>
    </comp>
  </station>
  <station code="MILA" name="MILA" netid="HL" insttype="CMG-5" commtype="DIG" lat="36.7429" lon="24.4282">
    <comp name="00.HNZ">
      <acc value="0.0331546424" flag="0"/>
      <vel value="0.0126993621" flag="0"/>
      <psa03 value="0.0803109361" flag="0"/>
      <psa10 value="0.0100325164" flag="0"/>
      <psa30 value="0.0004539834" flag="0"/>
    </comp>
    <comp name="00.HNE">
      <acc value="0.0375832687" flag="0"/>
      <vel value="0.0192537065" flag="0"/>
      <psa03 value="0.1277660043" flag="0"/>
      <psa10 value="0.0070626823" flag="0"/>
      <psa30 value="0.0010048104" flag="0"/>
    </comp>
    <comp name="00.HNN">
      <acc value="0.0667290333" flag="0"/>
      <vel value="0.0326692149" flag="0"/>
      <psa03 value="0.1583161602" flag="0"/>
      <psa10 value="0.0116832249" flag="0"/>
      <psa30 value="0.0010453034" flag="0"/>
    </comp>
  </station>
  <station code="SANT" name="SANT" netid="HL" insttype="30" commtype="DIG" lat="36.3705" lon="25.4593">
    <comp name="--.HHE">
      <acc value="0.1273489566" flag="0"/>
      <vel value="0.0265262518" flag="0"/>
      <psa03 value="0.1567809269" flag="0"/>
      <psa10 value="0.0136551094" flag="0"/>
      <psa30 value="0.0012783488" flag="0"/>
    </comp>
    <comp name="--.HHN">
      <acc value="0.1312141261" flag="0"/>
      <vel value="0.0198698525" flag="0"/>
      <psa03 value="0.0536756057" flag="0"/>
      <psa10 value="0.0109076459" flag="0"/>
      <psa30 value="0.0014406163" flag="0"/>
    </comp>
    <comp name="--.HHZ">
      <acc value="0.1037604128" flag="0"/>
      <vel value="0.0177676415" flag="0"/>
      <psa03 value="0.0748783970" flag="0"/>
      <psa10 value="0.0071325551" flag="0"/>
      <psa30 value="0.0008025547" flag="0"/>
    </comp>
  </station>
  <station code="SAP3" name="SAP3" netid="HL" insttype="65535" commtype="DIG" lat="36.4356" lon="25.3454">
    <comp name="--.HHE">
      <acc value="0.2597657591" flag="0"/>
      <vel value="0.0837493340" flag="0"/>
      <psa03 value="0.3677872195" flag="0"/>
      <psa10 value="0.0200946626" flag="0"/>
      <psa30 value="0.0031755023" flag="0"/>
    </comp>
    <comp name="--.HHN">
      <acc value="0.2273179569" flag="0"/>
      <vel value="0.0772264690" flag="0"/>
      <psa03 value="0.3375229765" flag="0"/>
      <psa10 value="0.0167217768" flag="0"/>
      <psa30 value="0.0019504735" flag="0"/>
    </comp>
    <comp name="--.HHZ">
      <acc value="0.1838381229" flag="0"/>
      <vel value="0.0444196274" flag="0"/>
      <psa03 value="0.2799168609" flag="0"/>
      <psa10 value="0.0089083562" flag="0"/>
      <psa30 value="0.0012249029" flag="0"/>
    </comp>
  </station>
  <station code="THERA" name="THERA" netid="HL" insttype="120" commtype="DIG" lat="36.367" lon="25.4753">
    <comp name="--.HHE">
      <acc value="0.0563401912" flag="0"/>
      <vel value="0.0148416442" flag="0"/>
      <psa03 value="0.0581890530" flag="0"/>
      <psa10 value="0.0056282573" flag="0"/>
      <psa30 value="0.0012272961" flag="0"/>
    </comp>
    <comp name="--.HHZ">
      <acc value="0.0458817327" flag="0"/>
      <vel value="0.0101847952" flag="0"/>
      <psa03 value="0.0525852801" flag="0"/>
      <psa10 value="0.0070112568" flag="0"/>
      <psa30 value="0.0010618583" flag="0"/>
    </comp>
    <comp name="--.HHN">
      <acc value="0.0746786407" flag="0"/>
      <vel value="0.0200052578" flag="0"/>
      <psa03 value="0.1146623143" flag="0"/>
      <psa10 value="0.0099653521" flag="0"/>
      <psa30 value="0.0013294550" flag="0"/>
    </comp>
  </station>
  <station code="THRA" name="THRA" netid="HL" insttype="CMG-5" commtype="DIG" lat="36.415" lon="25.4324">
    <comp name="00.HNE">
      <acc value="0.1878665987" flag="0"/>
      <vel value="0.0699837559" flag="0"/>
      <psa03 value="0.4875409011" flag="0"/>
      <psa10 value="0.0493912241" flag="0"/>
      <psa30 value="0.0050004055" flag="0"/>
    </comp>
    <comp name="00.HNZ">
      <acc value="0.1511246478" flag="0"/>
      <vel value="0.0477123052" flag="0"/>
      <psa03 value="0.2577045188" flag="0"/>
      <psa10 value="0.0189682326" flag="0"/>
      <psa30 value="0.0018948455" flag="0"/>
    </comp>
    <comp name="00.HNN">
      <acc value="0.1846502115" flag="0"/>
      <vel value="0.0667099670" flag="0"/>
      <psa03 value="0.3932061830" flag="0"/>
      <psa10 value="0.0672473727" flag="0"/>
      <psa30 value="0.0046435707" flag="0"/>
    </comp>
  </station>
  <station code="AKRO" name="AKRO" netid="HT" insttype="Compact," commtype="DIG" lat="36.3584" lon="25.3967">
    <comp name="--.HHN">
      <acc value="0.2032967344" flag="0"/>
      <vel value="0.0412666859" flag="0"/>
      <psa03 value="0.1929938317" flag="0"/>
      <psa10 value="0.0188810623" flag="0"/>
      <psa30 value="0.0018632449" flag="0"/>
    </comp>
    <comp name="--.HHZ">
      <acc value="0.1195943187" flag="0"/>
      <vel value="0.0212205526" flag="0"/>
      <psa03 value="0.0935003634" flag="0"/>
      <psa10 value="0.0097215317" flag="0"/>
      <psa30 value="0.0008276383" flag="0"/>
    </comp>
    <comp name="--.HHE">
      <acc value="0.2517181923" flag="0"/>
      <vel value="0.0632424312" flag="0"/>
      <psa03 value="0.3014913266" flag="0"/>
      <psa10 value="0.0196108388" flag="0"/>
      <psa30 value="0.0019066378" flag="0"/>
    </comp>
  </station>
  <station code="CMBO" name="CMBO" netid="HT" insttype="120P," commtype="DIG" lat="36.4709" lon="25.4056">
    <comp name="--.HHZ">
      <acc value="0.1884502204" flag="0"/>
      <vel value="0.0541148581" flag="0"/>
      <psa03 value="0.2768223008" flag="0"/>
      <psa10 value="0.0131183620" flag="0"/>
      <psa30 value="0.0025574527" flag="0"/>
    </comp>
    <comp name="--.HHN">
      <acc value="0.2426986943" flag="0"/>
      <vel value="0.0855833623" flag="0"/>
      <psa03 value="0.4015559845" flag="0"/>
      <psa10 value="0.0488919425" flag="0"/>
      <psa30 value="0.0031520728" flag="0"/>
    </comp>
    <comp name="--.HHE">
      <acc value="0.2393748748" flag="0"/>
      <vel value="0.0856212513" flag="0"/>
      <psa03 value="0.2093632390" flag="0"/>
      <psa10 value="0.0196349136" flag="0"/>
      <psa30 value="0.0031117766" flag="0"/>
    </comp>
  </station>
</stationlist>
