<?xml version="1.0" encoding="UTF-8" standalone="yes"?>
<!DOCTYPE earthquake SYSTEM "stationlist.dtd">
<stationlist created="" xmlns="ch.ethz.sed.shakemap.usgs.xml">
  <station code="APE" name="APE" netid="GE" insttype="STS-2/N" commtype="DIG" lat="37.0727" lon="25.523">
    <comp name="--.HHN">
      <acc value="0.0551297903" flag="0"/>
      <vel value="0.0106569056" flag="0"/>
      <psa03 value="0.0250787612" flag="0"/>
      <psa10 value="0.0041848549" flag="0"/>
      <psa30 value="0.0007790676" flag="0"/>
    </comp>
    <comp name="--.HHZ">
      <acc value="0.0221514246" flag="0"/>
      <vel value="0.0048820827" flag="0"/>
      <psa03 value="0.0197042478" flag="0"/>
      <psa10 value="0.0036762844" flag="0"/>
      <psa30 value="0.0009162760" flag="0"/>
    </comp>
    <comp name="--.HHE">
      <acc value="0.0475438808" flag="0"/>
      <vel value="0.0074371079" flag="0"/>
      <psa03 value="0.0346094583" flag="0"/>
      <psa10 value="0.0034989338" flag="0"/>
      <psa30 value="0.0007611642" flag="0"/>
    </comp>
  </station>
  <station code="THERA" name="THERA" netid="GE" insttype="STS-2/N" commtype="DIG" lat="36.367" lon="25.4753">
    <comp name="--.HHZ">
      <acc value="0.0456692450" flag="0"/>
      <vel value="0.0104798489" flag="0"/>
      <psa03 value="0.0539462940" flag="0"/>
      <psa10 value="0.0070883531" flag="0"/>
      <psa30 value="0.0010623939" flag="0"/>
    </comp>
    <comp name="--.HHE">
      <acc value="0.0555480749" flag="0"/>
      <vel value="0.0154014108" flag="0"/>
      <psa03 value="0.0598568995" flag="0"/>
      <psa10 value="0.0057632484" flag="0"/>
      <psa30 value="0.0012288133" flag="0"/>
    </comp>
    <comp name="--.HHN">
      <acc value="0.0378666061" flag="0"/>
      <vel value="0.0102664782" flag="0"/>
      <psa03 value="0.0588828092" flag="0"/>
      <psa10 value="0.0050256351" flag="0"/>
      <psa30 value="0.0006641896" flag="0"/>
    </comp>
  </station>
</stationlist>
