<?xml version="1.0" encoding="UTF-8" standalone="yes"?>
<!DOCTYPE earthquake SYSTEM "stationlist.dtd">
<stationlist created="" xmlns="ch.ethz.sed.shakemap.usgs.xml">
  <station code="APE" name="APE" netid="GE" insttype="STS-2/N" commtype="DIG" lat="37.0727" lon="25.523">
    <comp name="--.HHE">
      <acc value="0.0475438804" flag="0"/>
      <vel value="0.0074371081" flag="0"/>
      <psa03 value="0.0346094583" flag="0"/>
      <psa10 value="0.0034989337" flag="0"/>
      <psa30 value="0.0007611714" flag="0"/>
    </comp>
    <comp name="--.HHN">
      <acc value="0.0551297912" flag="0"/>
      <vel value="0.0106569054" flag="0"/>
      <psa03 value="0.0250787612" flag="0"/>
      <psa10 value="0.0041848548" flag="0"/>
      <psa30 value="0.0007790702" flag="0"/>
    </comp>
    <comp name="--.HHZ">
      <acc value="0.0221514252" flag="0"/>
      <vel value="0.0048820826" flag="0"/>
      <psa03 value="0.0197042478" flag="0"/>
      <psa10 value="0.0036762844" flag="0"/>
      <psa30 value="0.0009162770" flag="0"/>
    </comp>
  </station>
  <station code="THERA" name="THERA" netid="GE" insttype="STS-2/N" commtype="DIG" lat="36.367" lon="25.4753">
    <comp name="--.HHE">
      <acc value="0.0555480747" flag="0"/>
      <vel value="0.0154014109" flag="0"/>
      <psa03 value="0.0598568995" flag="0"/>
      <psa10 value="0.0057632486" flag="0"/>
      <psa30 value="0.0012288146" flag="0"/>
    </comp>
    <comp name="--.HHN">
      <acc value="0.0378666056" flag="0"/>
      <vel value="0.0102664783" flag="0"/>
      <psa03 value="0.0588828092" flag="0"/>
      <psa10 value="0.0050256350" flag="0"/>
      <psa30 value="0.0006641839" flag="0"/>
    </comp>
    <comp name="--.HHZ">
      <acc value="0.0456692463" flag="0"/>
      <vel value="0.0104798490" flag="0"/>
      <psa03 value="0.0539462940" flag="0"/>
      <psa10 value="0.0070883530" flag="0"/>
      <psa30 value="0.0010624035" flag="0"/>
    </comp>
  </station>
  <station code="SNT1" name="SNT1" netid="HA" insttype="30" commtype="DIG" lat="36.4159" lon="25.4282">
    <comp name="--.HHN">
      <acc value="0.0645094527" flag="0"/>
      <vel value="0.0231519486" flag="0"/>
      <psa03 value="0.0864712870" flag="0"/>
      <psa10 value="0.0215038260" flag="0"/>
      <psa30 value="0.0031933042" flag="0"/>
    </comp>
    <comp name="--.HHE">
      <acc value="0.0573657561" flag="0"/>
      <vel value="0.0190883140" flag="0"/>
      <psa03 value="0.0864870073" flag="0"/>
      <psa10 value="0.0191008339" flag="0"/>
      <psa30 value="0.0025368699" flag="0"/>
    </comp>
    <comp name="--.HHZ">
      <acc value="0.0487811291" flag="0"/>
      <vel value="0.0154559643" flag="0"/>
      <psa03 value="0.1202485943" flag="0"/>
      <psa10 value="0.0096076908" flag="0"/>
      <psa30 value="0.0012116509" flag="0"/>
    </comp>
  </station>
  <station code="SNT5" name="SNT5" netid="HA" insttype="1s-100Hz," commtype="DIG" lat="36.4037" lon="25.3953">
    <comp name="--.HHZ">
      <acc value="0.0829391517" flag="0"/>
      <vel value="0.0151603021" flag="0"/>
      <psa03 value="0.0868136576" flag="0"/>
      <psa10 value="0.0090898993" flag="0"/>
      <psa30 value="0.0006834893" flag="0"/>
    </comp>
    <comp name="--.HHE">
      <acc value="0.2837659151" flag="0"/>
      <vel value="0.0958741187" flag="0"/>
      <psa03 value="0.3262849242" flag="0"/>
      <psa10 value="0.0204348560" flag="0"/>
      <psa30 value="0.0033936183" flag="0"/>
    </comp>
    <comp name="--.HHN">
      <acc value="0.1999817070" flag="0"/>
      <vel value="0.0538720887" flag="0"/>
      <psa03 value="0.2430630480" flag="0"/>
      <psa10 value="0.0122256343" flag="0"/>
      <psa30 value="0.0018592477" flag="0"/>
    </comp>
  </station>
  <station code="NAX1" name="NAX1" netid="HI" insttype="CMG-5TD,ACCELEROMETER,GURALP" commtype="DIG" lat="37.1014" lon="25.3741">
    <comp name="--.HNE">
      <acc value="0.0350287723" flag="0"/>
      <vel value="0.0110959940" flag="0"/>
      <psa03 value="0.0544091417" flag="0"/>
      <psa10 value="0.0063064612" flag="0"/>
      <psa30 value="0.0004290243" flag="0"/>
    </comp>
    <comp name="--.HNZ">
      <acc value="0.0215998000" flag="0"/>
      <vel value="0.0045659370" flag="0"/>
      <psa03 value="0.0191067754" flag="0"/>
      <psa10 value="0.0039125819" flag="0"/>
      <psa30 value="0.0007413704" flag="0"/>
    </comp>
    <comp name="--.HNN">
      <acc value="0.0487824804" flag="0"/>
      <vel value="0.0085467354" flag="0"/>
      <psa03 value="0.0241460656" flag="0"/>
      <psa10 value="0.0035626795" flag="0"/>
      <psa30 value="0.0004892175" flag="0"/>
    </comp>
  </station>
  <station code="SFR2" name="SFR2" netid="HI" insttype="unknown" commtype="DIG" lat="36.3998" lon="25.4382">
    <comp name="--.HNE">
      <acc value="0.1008586938" flag="0"/>
      <vel value="0.0428509715" flag="0"/>
      <psa03 value="0.2553956026" flag="0"/>
      <psa10 value="0.0204707196" flag="0"/>
      <psa30 value="0.0033160712" flag="0"/>
    </comp>
    <comp name="--.HNZ">
      <acc value="0.1658866754" flag="0"/>
      <vel value="0.0380986514" flag="0"/>
      <psa03 value="0.2482653310" flag="0"/>
      <psa10 value="0.0198762033" flag="0"/>
      <psa30 value="0.0016436523" flag="0"/>
    </comp>
    <comp name="--.HNN">
      <acc value="0.1588463040" flag="0"/>
      <vel value="0.0541454108" flag="0"/>
      <psa03 value="0.3305605029" flag="0"/>
      <psa10 value="0.0238368019" flag="0"/>
      <psa30 value="0.0021899389" flag="0"/>
    </comp>
  </station>
  <station code="AMGA" name="AMGA" netid="HL" insttype="SMART24" commtype="DIG" lat="36.8316" lon="25.8938">
    <comp name="--.HHE">
      <acc value="0.4564112795" flag="0"/>
      <vel value="0.0644977551" flag="0"/>
      <psa03 value="0.1465555538" flag="0"/>
      <psa10 value="0.0125178646" flag="0"/>
      <psa30 value="0.0013287184" flag="0"/>
    </comp>
    <comp name="--.HHZ">
      <acc value="0.2391456536" flag="0"/>
      <vel value="0.0479684373" flag="0"/>
      <psa03 value="0.1515677078" flag="0"/>
      <psa10 value="0.0114743746" flag="0"/>
      <psa30 value="0.0017544838" flag="0"/>
    </comp>
    <comp name="--.HHN">
      <acc value="0.3456178546" flag="0"/>
      <vel value="0.0791164374" flag="0"/>
      <psa03 value="0.2030767937" flag="0"/>
      <psa10 value="0.0180526235" flag="0"/>
      <psa30 value="0.0016409321" flag="0"/>
    </comp>
  </station>
  <station code="APE" name="APE" netid="HL" insttype="120" commtype="DIG" lat="37.0727" lon="25.523">
    <comp name="--.HHE">
      <acc value="0.0435008907" flag="0"/>
      <vel value="0.0070138292" flag="0"/>
      <psa03 value="0.0334574382" flag="0"/>
      <psa10 value="0.0034647620" flag="0"/>
      <psa30 value="0.0007591671" flag="0"/>
    </comp>
    <comp name="--.HHN">
      <acc value="0.0506498600" flag="0"/>
      <vel value="0.0104152337" flag="0"/>
      <psa03 value="0.0244412261" flag="0"/>
      <psa10 value="0.0041345677" flag="0"/>
      <psa30 value="0.0007778761" flag="0"/>
    </comp>
    <comp name="--.HHZ">
      <acc value="0.0195883316" flag="0"/>
      <vel value="0.0046709812" flag="0"/>
      <psa03 value="0.0191232346" flag="0"/>
      <psa10 value="0.0036501582" flag="0"/>
      <psa30 value="0.0009150646" flag="0"/>
    </comp>
  </station>
  <station code="SANT" name="SANT" netid="HL" insttype="30" commtype="DIG" lat="36.3705" lon="25.4593">
    <comp name="--.HHN">
      <acc value="0.1312141237" flag="0"/>
      <vel value="0.0198698458" flag="0"/>
      <psa03 value="0.0536756058" flag="0"/>
      <psa10 value="0.0109076465" flag="0"/>
      <psa30 value="0.0014405592" flag="0"/>
    </comp>
    <comp name="--.HHZ">
      <acc value="0.1037604116" flag="0"/>
      <vel value="0.0177676317" flag="0"/>
      <psa03 value="0.0748783970" flag="0"/>
      <psa10 value="0.0071325548" flag="0"/>
      <psa30 value="0.0008024917" flag="0"/>
    </comp>
    <comp name="--.HHE">
      <acc value="0.1273489566" flag="0"/>
      <vel value="0.0265262440" flag="0"/>
      <psa03 value="0.1567809270" flag="0"/>
      <psa10 value="0.0136551095" flag="0"/>
      <psa30 value="0.0012783218" flag="0"/>
    </comp>
  </station>
  <station code="SAP3" name="SAP3" netid="HL" insttype="65535" commtype="DIG" lat="36.4356" lon="25.3454">
    <comp name="--.HHE">
      <acc value="0.2597657588" flag="0"/>
      <vel value="0.0837493342" flag="0"/>
      <psa03 value="0.3677872195" flag="0"/>
      <psa10 value="0.0200946626" flag="0"/>
      <psa30 value="0.0031754866" flag="0"/>
    </comp>
    <comp name="--.HHN">
      <acc value="0.2273179564" flag="0"/>
      <vel value="0.0772264691" flag="0"/>
      <psa03 value="0.3375229765" flag="0"/>
      <psa10 value="0.0167217767" flag="0"/>
      <psa30 value="0.0019504753" flag="0"/>
    </comp>
    <comp name="--.HHZ">
      <acc value="0.1838381226" flag="0"/>
      <vel value="0.0444196278" flag="0"/>
      <psa03 value="0.2799168609" flag="0"/>
      <psa10 value="0.0089083559" flag="0"/>
      <psa30 value="0.0012248827" flag="0"/>
    </comp>
  </station>
  <station code="THERA" name="THERA" netid="HL" insttype="120" commtype="DIG" lat="36.367" lon="25.4753">
    <comp name="--.HHZ">
      <acc value="0.0458817340" flag="0"/>
      <vel value="0.0101847948" flag="0"/>
      <psa03 value="0.0525852801" flag="0"/>
      <psa10 value="0.0070112567" flag="0"/>
      <psa30 value="0.0010618597" flag="0"/>
    </comp>
    <comp name="--.HHN">
      <acc value="0.0746786418" flag="0"/>
      <vel value="0.0200052581" flag="0"/>
      <psa03 value="0.1146623143" flag="0"/>
      <psa10 value="0.0099653518" flag="0"/>
      <psa30 value="0.0013294376" flag="0"/>
    </comp>
    <comp name="--.HHE">
      <acc value="0.0563401909" flag="0"/>
      <vel value="0.0148416441" flag="0"/>
      <psa03 value="0.0581890530" flag="0"/>
      <psa10 value="0.0056282576" flag="0"/>
      <psa30 value="0.0012272968" flag="0"/>
    </comp>
  </station>
  <station code="THRA" name="THRA" netid="HL" insttype="CMG-5" commtype="DIG" lat="36.415" lon="25.4324">
    <comp name="00.HNZ">
      <acc value="0.1511246483" flag="0"/>
      <vel value="0.0477123049" flag="0"/>
      <psa03 value="0.2577045188" flag="0"/>
      <psa10 value="0.0189682326" flag="0"/>
      <psa30 value="0.0018948573" flag="0"/>
    </comp>
    <comp name="00.HNE">
      <acc value="0.1878665941" flag="0"/>
      <vel value="0.0699837558" flag="0"/>
      <psa03 value="0.4875409011" flag="0"/>
      <psa10 value="0.0493912241" flag="0"/>
      <psa30 value="0.0050004097" flag="0"/>
    </comp>
    <comp name="00.HNN">
      <acc value="0.1846502155" flag="0"/>
      <vel value="0.0667099670" flag="0"/>
      <psa03 value="0.3932061830" flag="0"/>
      <psa10 value="0.0672473728" flag="0"/>
      <psa30 value="0.0046435750" flag="0"/>
    </comp>
  </station>
  <station code="AKRO" name="AKRO" netid="HT" insttype="Compact," commtype="DIG" lat="36.3584" lon="25.3967">
    <comp name="--.HHE">
      <acc value="0.2517181931" flag="0"/>
      <vel value="0.0632424264" flag="0"/>
      <psa03 value="0.3014913266" flag="0"/>
      <psa10 value="0.0196108389" flag="0"/>
      <psa30 value="0.0019067364" flag="0"/>
    </comp>
    <comp name="--.HHZ">
      <acc value="0.1195943169" flag="0"/>
      <vel value="0.0212205526" flag="0"/>
      <psa03 value="0.0935003634" flag="0"/>
      <psa10 value="0.0097215318" flag="0"/>
      <psa30 value="0.0008276103" flag="0"/>
    </comp>
    <comp name="--.HHN">
      <acc value="0.2032967323" flag="0"/>
      <vel value="0.0412666859" flag="0"/>
      <psa03 value="0.1929938317" flag="0"/>
      <psa10 value="0.0188810626" flag="0"/>
      <psa30 value="0.0018632368" flag="0"/>
    </comp>
  </station>
  <station code="CMBO" name="CMBO" netid="HT" insttype="120P," commtype="DIG" lat="36.4709" lon="25.4056">
    <comp name="--.HHE">
      <acc value="0.2393748751" flag="0"/>
      <vel value="0.0856212510" flag="0"/>
      <psa03 value="0.2093632390" flag="0"/>
      <psa10 value="0.0196349140" flag="0"/>
      <psa30 value="0.0031117722" flag="0"/>
    </comp>
    <comp name="--.HHN">
      <acc value="0.2426986942" flag="0"/>
      <vel value="0.0855833622" flag="0"/>
      <psa03 value="0.4015559845" flag="0"/>
      <psa10 value="0.0488919430" flag="0"/>
      <psa30 value="0.0031520602" flag="0"/>
    </comp>
    <comp name="--.HHZ">
      <acc value="0.1884502204" flag="0"/>
      <vel value="0.0541148582" flag="0"/>
      <psa03 value="0.2768223008" flag="0"/>
      <psa10 value="0.0131183620" flag="0"/>
      <psa30 value="0.0025574493" flag="0"/>
    </comp>
  </station>
</stationlist>
