<?xml version="1.0" encoding="UTF-8" standalone="yes"?>
<!DOCTYPE earthquake SYSTEM "stationlist.dtd">
<stationlist created="" xmlns="ch.ethz.sed.shakemap.usgs.xml">
  <station code="APE" name="APE" netid="GE" insttype="STS-2/N" commtype="DIG" lat="37.0727" lon="25.523">
    <comp name="--.HHZ">
      <acc value="0.1755197373" flag="0"/>
      <vel value="0.0403965368" flag="0"/>
      <psa03 value="0.1304872728" flag="0"/>
      <psa10 value="0.0457506424" flag="0"/>
      <psa30 value="0.0051584884" flag="0"/>
    </comp>
    <comp name="--.HHE">
      <acc value="0.3507571504" flag="0"/>
      <vel value="0.0826053200" flag="0"/>
      <psa03 value="0.2785818800" flag="0"/>
      <psa10 value="0.0549637108" flag="0"/>
      <psa30 value="0.0046588209" flag="0"/>
    </comp>
    <comp name="--.HHN">
      <acc value="0.5026523230" flag="0"/>
      <vel value="0.0925971211" flag="0"/>
      <psa03 value="0.1958978082" flag="0"/>
      <psa10 value="0.0360934584" flag="0"/>
      <psa30 value="0.0071576060" flag="0"/>
    </comp>
  </station>
  <station code="THERA" name="THERA" netid="GE" insttype="STS-2/N" commtype="DIG" lat="36.367" lon="25.4753">
    <comp name="--.HHN">
      <acc value="0.2029882463" flag="0"/>
      <vel value="0.0461986659" flag="0"/>
      <psa03 value="0.3017564219" flag="0"/>
      <psa10 value="0.0358480061" flag="0"/>
      <psa30 value="0.0022936448" flag="0"/>
    </comp>
    <comp name="--.HHZ">
      <acc value="0.2551442651" flag="0"/>
      <vel value="0.0525214067" flag="0"/>
      <psa03 value="0.2369075835" flag="0"/>
      <psa10 value="0.0258062812" flag="0"/>
      <psa30 value="0.0052735869" flag="0"/>
    </comp>
    <comp name="--.HHE">
      <acc value="0.2637224892" flag="0"/>
      <vel value="0.0755238623" flag="0"/>
      <psa03 value="0.4598588564" flag="0"/>
      <psa10 value="0.0297444846" flag="0"/>
      <psa30 value="0.0059373349" flag="0"/>
    </comp>
  </station>
  <station code="IOSI" name="IOSI" netid="HA" insttype="60s," commtype="DIG" lat="36.7225" lon="25.2887">
    <comp name="--.HHE">
      <acc value="0.4380782190" flag="0"/>
      <vel value="0.0731548703" flag="0"/>
      <psa03 value="0.2115301550" flag="0"/>
      <psa10 value="0.0567928737" flag="0"/>
      <psa30 value="0.0055684136" flag="0"/>
    </comp>
    <comp name="--.HHN">
      <acc value="0.5174935107" flag="0"/>
      <vel value="0.0681741654" flag="0"/>
      <psa03 value="0.1191851659" flag="0"/>
      <psa10 value="0.0242359000" flag="0"/>
      <psa30 value="0.0040834303" flag="0"/>
    </comp>
    <comp name="--.HHZ">
      <acc value="0.4863160834" flag="0"/>
      <vel value="0.0521695988" flag="0"/>
      <psa03 value="0.1298779930" flag="0"/>
      <psa10 value="0.0211914045" flag="0"/>
      <psa30 value="0.0041346625" flag="0"/>
    </comp>
  </station>
  <station code="SERI" name="SERI" netid="HA" insttype="30" commtype="DIG" lat="37.1609" lon="24.4853">
    <comp name="--.HHE">
      <acc value="0.0612688268" flag="0"/>
      <vel value="0.0113078089" flag="0"/>
      <psa03 value="0.0448729024" flag="0"/>
      <psa10 value="0.0064779981" flag="0"/>
      <psa30 value="0.0018618065" flag="0"/>
    </comp>
    <comp name="--.HHN">
      <acc value="0.0904915404" flag="0"/>
      <vel value="0.0158358933" flag="0"/>
      <psa03 value="0.0484535459" flag="0"/>
      <psa10 value="0.0122226412" flag="0"/>
      <psa30 value="0.0033237713" flag="0"/>
    </comp>
    <comp name="--.HHZ">
      <acc value="0.0451428132" flag="0"/>
      <vel value="0.0116973615" flag="0"/>
      <psa03 value="0.0384833142" flag="0"/>
      <psa10 value="0.0074214245" flag="0"/>
      <psa30 value="0.0024624108" flag="0"/>
    </comp>
  </station>
  <station code="SNT1" name="SNT1" netid="HA" insttype="30" commtype="DIG" lat="36.4159" lon="25.4282">
    <comp name="--.HHE">
      <acc value="0.1196439122" flag="0"/>
      <vel value="0.0286967931" flag="0"/>
      <psa03 value="0.1750960532" flag="0"/>
      <psa10 value="0.0223889823" flag="0"/>
      <psa30 value="0.0073088530" flag="0"/>
    </comp>
    <comp name="--.HHZ">
      <acc value="0.1263320785" flag="0"/>
      <vel value="0.0274804149" flag="0"/>
      <psa03 value="0.1077626958" flag="0"/>
      <psa10 value="0.0173680908" flag="0"/>
      <psa30 value="0.0029658226" flag="0"/>
    </comp>
    <comp name="--.HHN">
      <acc value="0.1007589164" flag="0"/>
      <vel value="0.0315445475" flag="0"/>
      <psa03 value="0.1654891194" flag="0"/>
      <psa10 value="0.0359960026" flag="0"/>
      <psa30 value="0.0069385721" flag="0"/>
    </comp>
  </station>
  <station code="SNT5" name="SNT5" netid="HA" insttype="1s-100Hz," commtype="DIG" lat="36.4037" lon="25.3953">
    <comp name="--.HHZ">
      <acc value="0.1426986770" flag="0"/>
      <vel value="0.0243911318" flag="0"/>
      <psa03 value="0.0753186331" flag="0"/>
      <psa10 value="0.0174823536" flag="0"/>
      <psa30 value="0.0026928073" flag="0"/>
    </comp>
    <comp name="--.HHN">
      <acc value="0.2072669184" flag="0"/>
      <vel value="0.0628548968" flag="0"/>
      <psa03 value="0.4122884136" flag="0"/>
      <psa10 value="0.0155091991" flag="0"/>
      <psa30 value="0.0068302441" flag="0"/>
    </comp>
    <comp name="--.HHE">
      <acc value="0.4370055826" flag="0"/>
      <vel value="0.0782288772" flag="0"/>
      <psa03 value="0.5057064738" flag="0"/>
      <psa10 value="0.0326438674" flag="0"/>
      <psa30 value="0.0110137016" flag="0"/>
    </comp>
  </station>
  <station code="KOSP" name="KOSP" netid="HC" insttype="60" commtype="DIG" lat="36.881" lon="27.281">
    <comp name="--.HHN">
      <acc value="0.0647100900" flag="0"/>
      <vel value="0.0422655291" flag="0"/>
      <psa03 value="0.2136908571" flag="0"/>
      <psa10 value="0.0592651384" flag="0"/>
      <psa30 value="0.0033971336" flag="0"/>
    </comp>
    <comp name="--.HHE">
      <acc value="0.0747668588" flag="0"/>
      <vel value="0.0370446512" flag="0"/>
      <psa03 value="0.1550796618" flag="0"/>
      <psa10 value="0.0427658467" flag="0"/>
      <psa30 value="0.0039242881" flag="0"/>
    </comp>
    <comp name="--.HHZ">
      <acc value="0.0447228296" flag="0"/>
      <vel value="0.0288955999" flag="0"/>
      <psa03 value="0.1185828991" flag="0"/>
      <psa10 value="0.0293342910" flag="0"/>
      <psa30 value="0.0038064967" flag="0"/>
    </comp>
  </station>
  <station code="THNO" name="THNO" netid="HC" insttype="60" commtype="DIG" lat="37.6541" lon="25.0221">
    <comp name="--.HHE">
      <acc value="0.0948663426" flag="0"/>
      <vel value="0.0222904434" flag="0"/>
      <psa03 value="0.0748016210" flag="0"/>
      <psa10 value="0.0138208571" flag="0"/>
      <psa30 value="0.0021044444" flag="0"/>
    </comp>
    <comp name="--.HHZ">
      <acc value="0.0641501822" flag="0"/>
      <vel value="0.0309304237" flag="0"/>
      <psa03 value="0.0885463964" flag="0"/>
      <psa10 value="0.0164077084" flag="0"/>
      <psa30 value="0.0022068674" flag="0"/>
    </comp>
    <comp name="--.HHN">
      <acc value="0.1102648149" flag="0"/>
      <vel value="0.0265948323" flag="0"/>
      <psa03 value="0.1423386696" flag="0"/>
      <psa10 value="0.0272838321" flag="0"/>
      <psa30 value="0.0022804311" flag="0"/>
    </comp>
  </station>
  <station code="KOS2" name="KOS2" netid="HI" insttype="unknown" commtype="DIG" lat="36.8941" lon="27.2888">
    <comp name="--.HNN">
      <acc value="0.1204339054" flag="0"/>
      <vel value="0.0662490858" flag="0"/>
      <psa03 value="0.3343334995" flag="0"/>
      <psa10 value="0.0593985555" flag="0"/>
      <psa30 value="0.0044901793" flag="0"/>
    </comp>
    <comp name="--.HNE">
      <acc value="0.1010139900" flag="0"/>
      <vel value="0.0678126456" flag="0"/>
      <psa03 value="0.4019300917" flag="0"/>
      <psa10 value="0.0637916387" flag="0"/>
      <psa30 value="0.0065396657" flag="0"/>
    </comp>
    <comp name="--.HNZ">
      <acc value="0.0444845268" flag="0"/>
      <vel value="0.0348927299" flag="0"/>
      <psa03 value="0.1127548042" flag="0"/>
      <psa10 value="0.0339974342" flag="0"/>
      <psa30 value="0.0041113264" flag="0"/>
    </comp>
  </station>
  <station code="NAX1" name="NAX1" netid="HI" insttype="CMG-5TD,ACCELEROMETER,GURALP" commtype="DIG" lat="37.1014" lon="25.3741">
    <comp name="--.HNE">
      <acc value="0.2281502215" flag="0"/>
      <vel value="0.0827381257" flag="0"/>
      <psa03 value="0.1821568979" flag="0"/>
      <psa10 value="0.0331225475" flag="0"/>
      <psa30 value="0.0023847287" flag="0"/>
    </comp>
    <comp name="--.HNZ">
      <acc value="0.1459272812" flag="0"/>
      <vel value="0.0353614853" flag="0"/>
      <psa03 value="0.1403339921" flag="0"/>
      <psa10 value="0.0363517795" flag="0"/>
      <psa30 value="0.0065995705" flag="0"/>
    </comp>
    <comp name="--.HNN">
      <acc value="0.2223091604" flag="0"/>
      <vel value="0.0853980893" flag="0"/>
      <psa03 value="0.1343973421" flag="0"/>
      <psa10 value="0.0501526099" flag="0"/>
      <psa30 value="0.0065949660" flag="0"/>
    </comp>
  </station>
  <station code="SFR2" name="SFR2" netid="HI" insttype="unknown" commtype="DIG" lat="36.3998" lon="25.4382">
    <comp name="--.HNE">
      <acc value="0.5302320538" flag="0"/>
      <vel value="0.2310832939" flag="0"/>
      <psa03 value="1.4999910340" flag="0"/>
      <psa10 value="0.1395865654" flag="0"/>
      <psa30 value="0.0176088964" flag="0"/>
    </comp>
    <comp name="--.HNN">
      <acc value="0.5881614556" flag="0"/>
      <vel value="0.2310337428" flag="0"/>
      <psa03 value="0.8600856361" flag="0"/>
      <psa10 value="0.2159316968" flag="0"/>
      <psa30 value="0.0111828523" flag="0"/>
    </comp>
    <comp name="--.HNZ">
      <acc value="0.5641943342" flag="0"/>
      <vel value="0.1341764728" flag="0"/>
      <psa03 value="0.9315565440" flag="0"/>
      <psa10 value="0.0664697413" flag="0"/>
      <psa30 value="0.0062776774" flag="0"/>
    </comp>
  </station>
  <station code="AMGA" name="AMGA" netid="HL" insttype="LE3D20_SMART24" commtype="DIG" lat="36.8316" lon="25.8938">
    <comp name="--.HHN">
      <acc value="2.7524847859" flag="0"/>
      <vel value="0.9476364183" flag="0"/>
      <psa03 value="1.8781908399" flag="0"/>
      <psa10 value="0.5185228248" flag="0"/>
      <psa30 value="0.0743430486" flag="0"/>
    </comp>
    <comp name="--.HHZ">
      <acc value="2.4060989106" flag="0"/>
      <vel value="0.4749445622" flag="0"/>
      <psa03 value="2.4003477129" flag="0"/>
      <psa10 value="0.3115840829" flag="0"/>
      <psa30 value="0.0293016552" flag="0"/>
    </comp>
    <comp name="--.HHE">
      <acc value="2.8416739223" flag="0"/>
      <vel value="1.0600837046" flag="0"/>
      <psa03 value="1.9002955186" flag="0"/>
      <psa10 value="0.4824207744" flag="0"/>
      <psa30 value="0.0994013508" flag="0"/>
    </comp>
  </station>
  <station code="ANAF" name="ANAF" netid="HL" insttype="LE3D20_SMART24" commtype="DIG" lat="36.3567" lon="25.7726">
    <comp name="--.HHE">
      <acc value="2.8856774113" flag="0"/>
      <vel value="0.9352339556" flag="0"/>
      <psa03 value="2.8672711891" flag="0"/>
      <psa10 value="0.2362617614" flag="0"/>
      <psa30 value="0.0690271518" flag="0"/>
    </comp>
    <comp name="--.HHN">
      <acc value="2.7337326084" flag="0"/>
      <vel value="0.7592274562" flag="0"/>
      <psa03 value="4.3636321466" flag="0"/>
      <psa10 value="0.2563548105" flag="0"/>
      <psa30 value="0.0479179986" flag="0"/>
    </comp>
    <comp name="--.HHZ">
      <acc value="2.7836362185" flag="0"/>
      <vel value="0.4741679807" flag="0"/>
      <psa03 value="2.4805493504" flag="0"/>
      <psa10 value="0.1371605477" flag="0"/>
      <psa30 value="0.0248685141" flag="0"/>
    </comp>
  </station>
  <station code="APE" name="APE" netid="HL" insttype="120" commtype="DIG" lat="37.0727" lon="25.523">
    <comp name="--.HHE">
      <acc value="0.3160610012" flag="0"/>
      <vel value="0.0807837485" flag="0"/>
      <psa03 value="0.2681675404" flag="0"/>
      <psa10 value="0.0543579200" flag="0"/>
      <psa30 value="0.0046411663" flag="0"/>
    </comp>
    <comp name="--.HHN">
      <acc value="0.4231096576" flag="0"/>
      <vel value="0.0885416650" flag="0"/>
      <psa03 value="0.1845582291" flag="0"/>
      <psa10 value="0.0358874943" flag="0"/>
      <psa30 value="0.0071258840" flag="0"/>
    </comp>
    <comp name="--.HHZ">
      <acc value="0.1653126195" flag="0"/>
      <vel value="0.0390799015" flag="0"/>
      <psa03 value="0.1262827030" flag="0"/>
      <psa10 value="0.0454218849" flag="0"/>
      <psa30 value="0.0051451711" flag="0"/>
    </comp>
  </station>
  <station code="ASTA" name="ASTA" netid="HL" insttype="LE3D20_SMART24" commtype="DIG" lat="36.5475" lon="26.3471">
    <comp name="--.HHN">
      <acc value="0.4475645466" flag="0"/>
      <vel value="0.1360242064" flag="0"/>
      <psa03 value="0.7163642175" flag="0"/>
      <psa10 value="0.0779639957" flag="0"/>
      <psa30 value="0.0073433731" flag="0"/>
    </comp>
    <comp name="--.HHE">
      <acc value="0.4077790529" flag="0"/>
      <vel value="0.1218854423" flag="0"/>
      <psa03 value="0.6396771736" flag="0"/>
      <psa10 value="0.0525593715" flag="0"/>
      <psa30 value="0.0039652854" flag="0"/>
    </comp>
    <comp name="--.HHZ">
      <acc value="0.3165830481" flag="0"/>
      <vel value="0.0805420375" flag="0"/>
      <psa03 value="0.5236014073" flag="0"/>
      <psa10 value="0.0345929255" flag="0"/>
      <psa30 value="0.0038255238" flag="0"/>
    </comp>
  </station>
  <station code="KLNA" name="KLNA" netid="HL" insttype="CMG-5" commtype="DIG" lat="36.9571" lon="26.9727">
    <comp name="00.HNE">
      <acc value="0.1795547348" flag="0"/>
      <vel value="0.0708214808" flag="0"/>
      <psa03 value="0.5102328013" flag="0"/>
      <psa10 value="0.0225045033" flag="0"/>
      <psa30 value="0.0020895023" flag="0"/>
    </comp>
    <comp name="00.HNN">
      <acc value="0.1941275508" flag="0"/>
      <vel value="0.0630601658" flag="0"/>
      <psa03 value="0.3231369971" flag="0"/>
      <psa10 value="0.0302885556" flag="0"/>
      <psa30 value="0.0019866258" flag="0"/>
    </comp>
    <comp name="00.HNZ">
      <acc value="0.2063651404" flag="0"/>
      <vel value="0.0500830749" flag="0"/>
      <psa03 value="0.3197447384" flag="0"/>
      <psa10 value="0.0192389726" flag="0"/>
      <psa30 value="0.0023949555" flag="0"/>
    </comp>
  </station>
  <station code="MHLO" name="MHLO" netid="HL" insttype="20" commtype="DIG" lat="36.6898" lon="24.4017">
    <comp name="--.HHN">
      <acc value="0.0955361298" flag="0"/>
      <vel value="0.0493084312" flag="0"/>
      <psa03 value="0.3159768500" flag="0"/>
      <psa10 value="0.0816057239" flag="0"/>
      <psa30 value="0.0050040675" flag="0"/>
    </comp>
    <comp name="--.HHZ">
      <acc value="0.0336731925" flag="0"/>
      <vel value="0.0177066703" flag="0"/>
      <psa03 value="0.1160754177" flag="0"/>
      <psa10 value="0.0318049299" flag="0"/>
      <psa30 value="0.0033470188" flag="0"/>
    </comp>
    <comp name="--.HHE">
      <acc value="0.0879955849" flag="0"/>
      <vel value="0.0470653056" flag="0"/>
      <psa03 value="0.3887376981" flag="0"/>
      <psa10 value="0.0647456684" flag="0"/>
      <psa30 value="0.0040105569" flag="0"/>
    </comp>
  </station>
  <station code="MILA" name="MILA" netid="HL" insttype="CMG-5" commtype="DIG" lat="36.7429" lon="24.4282">
    <comp name="00.HNE">
      <acc value="0.0912677122" flag="0"/>
      <vel value="0.0361546254" flag="0"/>
      <psa03 value="0.2436557655" flag="0"/>
      <psa10 value="0.0632065731" flag="0"/>
      <psa30 value="0.0058226212" flag="0"/>
    </comp>
    <comp name="00.HNZ">
      <acc value="0.0813373300" flag="0"/>
      <vel value="0.0239881006" flag="0"/>
      <psa03 value="0.2312125255" flag="0"/>
      <psa10 value="0.0490652971" flag="0"/>
      <psa30 value="0.0026510270" flag="0"/>
    </comp>
    <comp name="00.HNN">
      <acc value="0.1076519908" flag="0"/>
      <vel value="0.0434948284" flag="0"/>
      <psa03 value="0.2707194647" flag="0"/>
      <psa10 value="0.0408732758" flag="0"/>
      <psa30 value="0.0061889735" flag="0"/>
    </comp>
  </station>
  <station code="NISR" name="NISR" netid="HL" insttype="65535" commtype="DIG" lat="36.6106" lon="27.131">
    <comp name="--.HHE">
      <acc value="0.0000000000" flag="0"/>
      <vel value="-100.0000000000" flag="0"/>
      <psa03 value="0.0000000000" flag="0"/>
      <psa10 value="0.0000000000" flag="0"/>
      <psa30 value="0.0000000000" flag="0"/>
    </comp>
    <comp name="--.HHN">
      <acc value="0.1658535969" flag="0"/>
      <vel value="0.0610838580" flag="0"/>
      <psa03 value="0.4933335566" flag="0"/>
      <psa10 value="0.0613144787" flag="0"/>
      <psa30 value="0.0062888502" flag="0"/>
    </comp>
    <comp name="--.HHZ">
      <acc value="0.1154363230" flag="0"/>
      <vel value="0.0457878040" flag="0"/>
      <psa03 value="0.3065096447" flag="0"/>
      <psa10 value="0.0443895711" flag="0"/>
      <psa30 value="0.0020206853" flag="0"/>
    </comp>
  </station>
  <station code="NISR2" name="NISR2" netid="HL" insttype="120" commtype="DIG" lat="36.5744" lon="27.1767">
    <comp name="--.HHZ">
      <acc value="0.0764339975" flag="0"/>
      <vel value="0.0415733323" flag="0"/>
      <psa03 value="0.2362272541" flag="0"/>
      <psa10 value="0.0412531926" flag="0"/>
      <psa30 value="0.0031396736" flag="0"/>
    </comp>
    <comp name="--.HHN">
      <acc value="0.1947462009" flag="0"/>
      <vel value="0.1466502701" flag="0"/>
      <psa03 value="0.9760879333" flag="0"/>
      <psa10 value="0.1687798939" flag="0"/>
      <psa30 value="0.0096532557" flag="0"/>
    </comp>
    <comp name="--.HHE">
      <acc value="0.1833319942" flag="0"/>
      <vel value="0.1188846960" flag="0"/>
      <psa03 value="0.5929978850" flag="0"/>
      <psa10 value="0.2045622489" flag="0"/>
      <psa30 value="0.0083731871" flag="0"/>
    </comp>
  </station>
  <station code="SANT" name="SANT" netid="HL" insttype="30" commtype="DIG" lat="36.3705" lon="25.4593">
    <comp name="--.HHE">
      <acc value="0.6172565777" flag="0"/>
      <vel value="0.1228062085" flag="0"/>
      <psa03 value="0.7284988707" flag="0"/>
      <psa10 value="0.0605240994" flag="0"/>
      <psa30 value="0.0080851507" flag="0"/>
    </comp>
    <comp name="--.HHN">
      <acc value="0.6989706521" flag="0"/>
      <vel value="0.0893608836" flag="0"/>
      <psa03 value="0.3568800257" flag="0"/>
      <psa10 value="0.0380734742" flag="0"/>
      <psa30 value="0.0034181986" flag="0"/>
    </comp>
    <comp name="--.HHZ">
      <acc value="0.6090455822" flag="0"/>
      <vel value="0.0823568151" flag="0"/>
      <psa03 value="0.4442036171" flag="0"/>
      <psa10 value="0.0389641194" flag="0"/>
      <psa30 value="0.0048186301" flag="0"/>
    </comp>
  </station>
  <station code="SAP3" name="SAP3" netid="HL" insttype="65535" commtype="DIG" lat="36.4356" lon="25.3454">
    <comp name="--.HHE">
      <acc value="0.2314320744" flag="0"/>
      <vel value="0.0862395546" flag="0"/>
      <psa03 value="0.5893320273" flag="0"/>
      <psa10 value="0.0703887872" flag="0"/>
      <psa30 value="0.0121187785" flag="0"/>
    </comp>
    <comp name="--.HHN">
      <acc value="0.3055435946" flag="0"/>
      <vel value="0.0898682400" flag="0"/>
      <psa03 value="0.6704530110" flag="0"/>
      <psa10 value="0.0556908168" flag="0"/>
      <psa30 value="0.0140486205" flag="0"/>
    </comp>
    <comp name="--.HHZ">
      <acc value="0.2477655642" flag="0"/>
      <vel value="0.0606389841" flag="0"/>
      <psa03 value="0.4496977500" flag="0"/>
      <psa10 value="0.0330285811" flag="0"/>
      <psa30 value="0.0083678704" flag="0"/>
    </comp>
  </station>
  <station code="SMG" name="SMG" netid="HL" insttype="120" commtype="DIG" lat="37.7043" lon="26.8377">
    <comp name="--.HHE">
