<?xml version="1.0" encoding="UTF-8" standalone="yes"?>
<!DOCTYPE earthquake SYSTEM "stationlist.dtd">
<stationlist created="" xmlns="ch.ethz.sed.shakemap.usgs.xml">
  <station code="APE" name="APE" netid="GE" insttype="STS-2/N" commtype="DIG" lat="37.0727" lon="25.523">
    <comp name="--.HHZ">
      <acc value="0.1755197373" flag="0"/>
      <vel value="0.0403965368" flag="0"/>
      <psa03 value="0.1304872728" flag="0"/>
      <psa10 value="0.0457506424" flag="0"/>
      <psa30 value="0.0051584884" flag="0"/>
    </comp>
    <comp name="--.HHE">
      <acc value="0.3507571504" flag="0"/>
      <vel value="0.0826053200" flag="0"/>
      <psa03 value="0.2785818800" flag="0"/>
      <psa10 value="0.0549637108" flag="0"/>
      <psa30 value="0.0046588209" flag="0"/>
    </comp>
    <comp name="--.HHN">
      <acc value="0.5026523230" flag="0"/>
      <vel value="0.0925971211" flag="0"/>
      <psa03 value="0.1958978082" flag="0"/>
      <psa10 value="0.0360934584" flag="0"/>
      <psa30 value="0.0071576060" flag="0"/>
    </comp>
  </station>
  <station code="THERA" name="THERA" netid="GE" insttype="STS-2/N" commtype="DIG" lat="36.367" lon="25.4753">
    <comp name="--.HHN">
      <acc value="0.2029882463" flag="0"/>
      <vel value="0.0461986659" flag="0"/>
      <psa03 value="0.3017564219" flag="0"/>
      <psa10 value="0.0358480061" flag="0"/>
      <psa30 value="0.0022936448" flag="0"/>
    </comp>
    <comp name="--.HHZ">
      <acc value="0.2551442651" flag="0"/>
      <vel value="0.0525214067" flag="0"/>
      <psa03 value="0.2369075835" flag="0"/>
      <psa10 value="0.0258062812" flag="0"/>
      <psa30 value="0.0052735869" flag="0"/>
    </comp>
    <comp name="--.HHE">
      <acc value="0.2637224892" flag="0"/>
      <vel value="0.0755238623" flag="0"/>
      <psa03 value="0.4598588564" flag="0"/>
      <psa10 value="0.0297444846" flag="0"/>
      <psa30 value="0.0059373349" flag="0"/>
    </comp>
  </station>
  <station code="BODT" name="BODT" netid="KO" insttype="CMG-3ESP" commtype="DIG" lat="37.0622" lon="27.3103">
    <comp name="--.HHE">
      <acc value="0.0954390799" flag="0"/>
      <vel value="0.0413959840" flag="0"/>
      <psa03 value="0.2448751973" flag="0"/>
      <psa10 value="0.0214115075" flag="0"/>
      <psa30 value="0.0020967722" flag="0"/>
    </comp>
    <comp name="--.HHZ">
      <acc value="0.0498262402" flag="0"/>
      <vel value="0.0211377782" flag="0"/>
      <psa03 value="0.1410152271" flag="0"/>
      <psa10 value="0.0259604976" flag="0"/>
      <psa30 value="0.0017410899" flag="0"/>
    </comp>
    <comp name="--.HHN">
      <acc value="0.0916019547" flag="0"/>
      <vel value="0.0365969091" flag="0"/>
      <psa03 value="0.1539247451" flag="0"/>
      <psa10 value="0.0317792610" flag="0"/>
      <psa30 value="0.0021841266" flag="0"/>
    </comp>
  </station>
</stationlist>
