<stationlist xmlns:esm="https://esm-db.eu/esmws/shakemap/1/" created="1780710937">
	<station code="IMMV" name="IMMV" netid="GE" source="GEOFON" insttype="" lat="35.4606" lon="23.9811" esm:processing="automatic (Paolucci et al 2011)" esm:quality="best">
		<comp name="--.HNE" depth="0.0">
			<acc value="1.47333425747301" flag="0"/>
			<vel value="0.438443197508612" flag="0"/>
			<psa03 value="2.51375139443436" flag="0"/>
			<psa10 value="0.264830463239749" flag="0"/>
			<psa30 value="0.018904029718286" flag="0"/>
		</comp>
		<comp name="--.HNN" depth="0.0">
			<acc value="1.4237289599869" flag="0"/>
			<vel value="0.358929663160843" flag="0"/>
			<psa03 value="2.46077662179833" flag="0"/>
			<psa10 value="0.195650063366577" flag="0"/>
			<psa30 value="0.0133318353060464" flag="0"/>
		</comp>
		<comp name="--.HNZ" depth="0.0">
			<acc value="0.925572111488132" flag="0"/>
			<vel value="0.378131917779802" flag="0"/>
			<psa03 value="1.92096189894888" flag="0"/>
			<psa10 value="0.119442899944006" flag="0"/>
			<psa30 value="0.0107135213747452" flag="0"/>
		</comp>
	</station>
	<station code="ARK1" name="ARK1" netid="HI" source="ITSAK Strong Motion Network" insttype="" lat="35.148777" lon="25.264194" esm:processing="automatic (Paolucci et al 2011)" esm:quality="best">
		<comp name="--.HNE" depth="0.0">
			<acc value="0.0283557168346796" flag="0"/>
			<vel value="0.0237486041708712" flag="0"/>
			<psa03 value="0.0666305701982697" flag="0"/>
			<psa10 value="0.0349303202122849" flag="0"/>
			<psa30 value="0.00361998772308734" flag="0"/>
		</comp>
		<comp name="--.HNN" depth="0.0">
			<acc value="0.0304080775349219" flag="0"/>
			<vel value="0.0229611258096082" flag="0"/>
			<psa03 value="0.0775345164895311" flag="0"/>
			<psa10 value="0.0447159447118827" flag="0"/>
			<psa30 value="0.00421890864865931" flag="0"/>
		</comp>
		<comp name="--.HNZ" depth="0.0">
			<acc value="0.0215961652861566" flag="0"/>
			<vel value="0.0152543117187159" flag="0"/>
			<psa03 value="0.0403807739864314" flag="0"/>
			<psa10 value="0.0304183606921103" flag="0"/>
			<psa30 value="0.00183717462046889" flag="0"/>
		</comp>
	</station>
	<station code="CH02" name="CH02" netid="HI" source="ITSAK Strong Motion Network" insttype="" lat="35.5145" lon="24.0315" esm:processing="automatic (Paolucci et al 2011)" esm:quality="best">
		<comp name="--.HNE" depth="0.0">
			<acc value="0.425942440090313" flag="0"/>
			<vel value="0.195983468721011" flag="0"/>
			<psa03 value="1.03831653337454" flag="0"/>
			<psa10 value="0.178531191815272" flag="0"/>
			<psa30 value="0.0316358523866266" flag="0"/>
		</comp>
		<comp name="--.HNN" depth="0.0">
			<acc value="0.623999346013516" flag="0"/>
			<vel value="0.225090260656752" flag="0"/>
			<psa03 value="1.0301999123549" flag="0"/>
			<psa10 value="0.26044374311979" flag="0"/>
			<psa30 value="0.0205042983091331" flag="0"/>
		</comp>
		<comp name="--.HNZ" depth="0.0">
			<acc value="0.358999266653976" flag="0"/>
			<vel value="0.173695812757539" flag="0"/>
			<psa03 value="0.993827086167008" flag="0"/>
			<psa10 value="0.111808159241824" flag="0"/>
			<psa30 value="0.00606716525325526" flag="0"/>
		</comp>
	</station>
	<station code="CH03" name="CH03" netid="HI" source="ITSAK Strong Motion Network" insttype="" lat="35.53303" lon="24.0705" esm:processing="automatic (Paolucci et al 2011)" esm:quality="best">
		<comp name="--.HNE" depth="0.0">
			<acc value="0.389721259817877" flag="0"/>
			<vel value="0.155343565523292" flag="0"/>
			<psa03 value="0.484483677999278" flag="0"/>
			<psa10 value="0.177093136551168" flag="0"/>
			<psa30 value="0.0142323828255133" flag="0"/>
		</comp>
		<comp name="--.HNN" depth="0.0">
			<acc value="0.302398048731654" flag="0"/>
			<vel value="0.184017370712412" flag="0"/>
			<psa03 value="0.791706946699723" flag="0"/>
			<psa10 value="0.250983561429181" flag="0"/>
			<psa30 value="0.0200258866167064" flag="0"/>
		</comp>
		<comp name="--.HNZ" depth="0.0">
			<acc value="0.252618596293304" flag="0"/>
			<vel value="0.121473316597021" flag="0"/>
			<psa03 value="0.367316624590349" flag="0"/>
			<psa10 value="0.163403154657055" flag="0"/>
			<psa30 value="0.00755875573047069" flag="0"/>
		</comp>
	</station>
	<station code="GOR1" name="GOR1" netid="HI" source="ITSAK Strong Motion Network" insttype="" lat="35.0582" lon="24.9628" esm:processing="automatic (Paolucci et al 2011)" esm:quality="best">
		<comp name="--.HNE" depth="0.0">
			<acc value="0.0232956763812468" flag="0"/>
			<vel value="0.0314946494190024" flag="0"/>
			<psa03 value="0.0611710887427504" flag="0"/>
			<psa10 value="0.0472337902567931" flag="0"/>
			<psa30 value="0.0045611113179067" flag="0"/>
		</comp>
		<comp name="--.HNN" depth="0.0">
			<acc value="0.0326750952968411" flag="0"/>
			<vel value="0.0292487568086705" flag="0"/>
			<psa03 value="0.0820146153574272" flag="0"/>
			<psa10 value="0.0476622973932879" flag="0"/>
			<psa30 value="0.00497567586410664" flag="0"/>
		</comp>
		<comp name="--.HNZ" depth="0.0">
			<acc value="0.0215835854579162" flag="0"/>
			<vel value="0.0177591110848082" flag="0"/>
			<psa03 value="0.046750445945938" flag="0"/>
			<psa10 value="0.0282874939076436" flag="0"/>
			<psa30 value="0.00315026389785587" flag="0"/>
		</comp>
	</station>
	<station code="HER1" name="HER1" netid="HI" source="ITSAK Strong Motion Network" insttype="" lat="35.317672" lon="25.10217" esm:processing="manual (Paolucci et al 2011)" esm:quality="good">
		<comp name="--.HNE" depth="0.0">
			<acc value="0.0720223574894989" flag="0"/>
			<vel value="0.0779189599664297" flag="0"/>
			<psa03 value="0.135829893897185" flag="0"/>
			<psa10 value="0.133892704734577" flag="0"/>
			<psa30 value="0.00731066262885362" flag="0"/>
		</comp>
		<comp name="--.HNN" depth="0.0">
			<acc value="0.0712927402028423" flag="0"/>
			<vel value="0.0846272895838492" flag="0"/>
			<psa03 value="0.192943281545486" flag="0"/>
			<psa10 value="0.16707824811396" flag="0"/>
			<psa30 value="0.00783819174173504" flag="0"/>
		</comp>
		<comp name="--.HNZ" depth="0.0">
			<acc value="0.0735280427469777" flag="0"/>
			<vel value="0.0670371905444454" flag="0"/>
			<psa03 value="0.141429410671024" flag="0"/>
			<psa10 value="0.155619574033038" flag="0"/>
			<psa30 value="0.00353576964405293" flag="0"/>
		</comp>
	</station>
	<station code="HER2" name="HER2" netid="HI" source="ITSAK Strong Motion Network" insttype="" lat="35.337866" lon="25.135624" esm:processing="automatic (Paolucci et al 2011)" esm:quality="best">
		<comp name="--.HNE" depth="0.0">
			<acc value="0.0767310462268728" flag="0"/>
			<vel value="0.0458711700237344" flag="0"/>
			<psa03 value="0.151822651255539" flag="0"/>
			<psa10 value="0.0659788182729033" flag="0"/>
			<psa30 value="0.00298956471065672" flag="0"/>
		</comp>
		<comp name="--.HNN" depth="0.0">
			<acc value="0.0627750490760224" flag="0"/>
			<vel value="0.043610360304474" flag="0"/>
			<psa03 value="0.139638500365339" flag="0"/>
			<psa10 value="0.0587845966910309" flag="0"/>
			<psa30 value="0.00306383525571583" flag="0"/>
		</comp>
		<comp name="--.HNZ" depth="0.0">
			<acc value="0.0476071995659973" flag="0"/>
			<vel value="0.0222302534301751" flag="0"/>
			<psa03 value="0.135480276986781" flag="0"/>
			<psa10 value="0.0198521313562731" flag="0"/>
			<psa30 value="0.00153506544055173" flag="0"/>
		</comp>
	</station>
	<station code="KIS1" name="KIS1" netid="HI" source="ITSAK Strong Motion Network" insttype="" lat="35.493933" lon="23.658993" esm:processing="manual (Paolucci et al 2011)" esm:quality="good">
		<comp name="--.HNE" depth="0.0">
			<acc value="0.532445213478108" flag="0"/>
			<vel value="0.189122824766641" flag="0"/>
			<psa03 value="1.10471768212477" flag="0"/>
			<psa10 value="0.233460180591201" flag="0"/>
			<psa30 value="0.0264356112295047" flag="0"/>
		</comp>
		<comp name="--.HNN" depth="0.0">
			<acc value="0.35830165639708" flag="0"/>
			<vel value="0.181769967552537" flag="0"/>
			<psa03 value="0.6634698682893" flag="0"/>
			<psa10 value="0.252718141336587" flag="0"/>
			<psa30 value="0.0150187949214551" flag="0"/>
		</comp>
		<comp name="--.HNZ" depth="0.0">
			<acc value="0.303381564332938" flag="0"/>
			<vel value="0.130651577493592" flag="0"/>
			<psa03 value="0.559608988015704" flag="0"/>
			<psa10 value="0.126329188688759" flag="0"/>
			<psa30 value="0.00850362165653447" flag="0"/>
		</comp>
	</station>
	<station code="RTH1" name="RTH1" netid="HI" source="ITSAK Strong Motion Network" insttype="" lat="35.365393" lon="24.471773" esm:processing="automatic (Paolucci et al 2011)" esm:quality="best">
		<comp name="--.HNE" depth="0.0">
			<acc value="0.158736047199698" flag="0"/>
			<vel value="0.0722114617216631" flag="0"/>
			<psa03 value="0.478998856323427" flag="0"/>
			<psa10 value="0.079931992602224" flag="0"/>
			<psa30 value="0.00431846316032379" flag="0"/>
		</comp>
		<comp name="--.HNN" depth="0.0">
			<acc value="0.187606626240769" flag="0"/>
			<vel value="0.07990762327086" flag="0"/>
			<psa03 value="0.442103912214451" flag="0"/>
			<psa10 value="0.0646416521922129" flag="0"/>
			<psa30 value="0.00484877662432146" flag="0"/>
		</comp>
		<comp name="--.HNZ" depth="0.0">
			<acc value="0.112018210368872" flag="0"/>
			<vel value="0.0425262415077314" flag="0"/>
			<psa03 value="0.161287747021681" flag="0"/>
			<psa10 value="0.0317928773720945" flag="0"/>
			<psa30 value="0.00275850002875555" flag="0"/>
		</comp>
	</station>
	<station code="SFK2" name="SFK2" netid="HI" source="ITSAK Strong Motion Network" insttype="" lat="35.211556" lon="24.188889" esm:processing="automatic (Paolucci et al 2011)" esm:quality="best">
		<comp name="--.HNE" depth="0.0">
			<acc value="1.13149662565197" flag="0"/>
			<vel value="0.36814629607268" flag="0"/>
			<psa03 value="1.7842288630723" flag="0"/>
			<psa10 value="0.155862935154518" flag="0"/>
			<psa30 value="0.00824219183809202" flag="0"/>
		</comp>
		<comp name="--.HNN" depth="0.0">
			<acc value="0.870244887907252" flag="0"/>
			<vel value="0.259631831784933" flag="0"/>
			<psa03 value="1.10883270472482" flag="0"/>
			<psa10 value="0.114634946502607" flag="0"/>
			<psa30 value="0.00887169687304447" flag="0"/>
		</comp>
		<comp name="--.HNZ" depth="0.0">
			<acc value="0.660794179493332" flag="0"/>
			<vel value="0.168348433810823" flag="0"/>
			<psa03 value="0.789335039572516" flag="0"/>
			<psa10 value="0.0585595517829102" flag="0"/>
			<psa30 value="0.00620668824596878" flag="0"/>
		</comp>
	</station>
	<station code="SIT2" name="SIT2" netid="HI" source="ITSAK Strong Motion Network" insttype="" lat="35.2059" lon="26.107" esm:processing="manual (Paolucci et al 2011)" esm:quality="good">
		<comp name="--.HNE" depth="0.0">
			<acc value="0.0250801009238331" flag="0"/>
			<vel value="0.0160012679953115" flag="0"/>
			<psa03 value="0.0590149705295005" flag="0"/>
			<psa10 value="0.0189742749826767" flag="0"/>
			<psa30 value="0.00123667459092903" flag="0"/>
		</comp>
		<comp name="--.HNN" depth="0.0">
			<acc value="0.0214972766032831" flag="0"/>
			<vel value="0.018733088251196" flag="0"/>
			<psa03 value="0.0654131060759133" flag="0"/>
			<psa10 value="0.0152535130803012" flag="0"/>
			<psa30 value="0.00139774653475481" flag="0"/>
		</comp>
		<comp name="--.HNZ" depth="0.0">
			<acc value="0.0122102012979016" flag="0"/>
			<vel value="0.00472421367321426" flag="0"/>
			<psa03 value="0.0269795505908179" flag="0"/>
			<psa10 value="0.00528315975748553" flag="0"/>
			<psa30 value="0.00105412638792648" flag="0"/>
		</comp>
	</station>
	<station code="IACM" name="IACM" netid="HL" source="National Observatory of Athens Seismic Network" insttype="" lat="35.3058" lon="25.0709" esm:processing="manual (Paolucci et al 2011)" esm:quality="good">
		<comp name="--.HNE" depth="0.0">
			<acc value="0.109035212540273" flag="0"/>
			<vel value="0.0897704283317261" flag="0"/>
			<psa03 value="0.325898860033473" flag="0"/>
			<psa10 value="0.16715806840178" flag="0"/>
			<psa30 value="0.00535107531580376" flag="0"/>
		</comp>
		<comp name="--.HNN" depth="0.0">
			<acc value="0.120858651808008" flag="0"/>
			<vel value="0.0857352817509402" flag="0"/>
			<psa03 value="0.489557722463807" flag="0"/>
			<psa10 value="0.10686396671331" flag="0"/>
			<psa30 value="0.00477560011008476" flag="0"/>
		</comp>
		<comp name="--.HNZ" depth="0.0">
			<acc value="0.107037034725787" flag="0"/>
			<vel value="0.0420106707896332" flag="0"/>
			<psa03 value="0.21759647719855" flag="0"/>
			<psa10 value="0.0584841267862796" flag="0"/>
			<psa30 value="0.00216906473155971" flag="0"/>
		</comp>
	</station>
	<station code="IMMV" name="IMMV" netid="HL" source="National Observatory of Athens Seismic Network" insttype="" lat="35.4606" lon="23.9811" esm:processing="manual (Paolucci et al 2011)" esm:quality="best">
		<comp name="--.HNE" depth="0.0">
			<acc value="1.43576781747624" flag="0"/>
			<vel value="0.432960354860549" flag="0"/>
			<psa03 value="2.46274527888953" flag="0"/>
			<psa10 value="0.259458713913159" flag="0"/>
			<psa30 value="0.0185161147869056" flag="0"/>
		</comp>
		<comp name="--.HNN" depth="0.0">
			<acc value="1.39699149216267" flag="0"/>
			<vel value="0.352488620017601" flag="0"/>
			<psa03 value="2.41084431921234" flag="0"/>
			<psa10 value="0.191679639951272" flag="0"/>
			<psa30 value="0.0130598026898073" flag="0"/>
		</comp>
		<comp name="--.HNZ" depth="0.0">
			<acc value="0.902090090953213" flag="0"/>
			<vel value="0.371419615307396" flag="0"/>
			<psa03 value="1.88199143698437" flag="0"/>
			<psa10 value="0.117018767189428" flag="0"/>
			<psa30 value="0.0104983113609113" flag="0"/>
		</comp>
	</station>
	<station code="KTHA" name="KTHA" netid="HL" source="National Observatory of Athens Seismic Network" insttype="" lat="36.2566" lon="23.0621" esm:processing="manual (Paolucci et al 2011)" esm:quality="good">
		<comp name="--.HNE" depth="0.0">
			<acc value="0.413317414893356" flag="0"/>
			<vel value="0.18494502647827" flag="0"/>
			<psa03 value="1.12495330100321" flag="0"/>
			<psa10 value="0.235007992840406" flag="0"/>
			<psa30 value="0.00952874774349333" flag="0"/>
		</comp>
		<comp name="--.HNN" depth="0.0">
			<acc value="0.234533795475606" flag="0"/>
			<vel value="0.100071393232749" flag="0"/>
			<psa03 value="0.748939796583251" flag="0"/>
			<psa10 value="0.0577885866460936" flag="0"/>
			<psa30 value="0.00407333049052746" flag="0"/>
		</comp>
		<comp name="--.HNZ" depth="0.0">
			<acc value="0.134385464979251" flag="0"/>
			<vel value="0.0623396765178735" flag="0"/>
			<psa03 value="0.405543360788015" flag="0"/>
			<psa10 value="0.0654556111722007" flag="0"/>
			<psa30 value="0.0066222940015704" flag="0"/>
		</comp>
	</station>
</stationlist>
