<?xml version="1.0" encoding="UTF-8" standalone="yes"?>
<!DOCTYPE earthquake SYSTEM "stationlist.dtd">
<stationlist created="" xmlns="ch.ethz.sed.shakemap.usgs.xml">
  <station code="GVD" name="GVD" netid="GE" source="GFZ" insttype="STS-2/N" lat="34.8391" lon="24.0874">
    <comp name="--.HHE">
      <acc value="0.2446494637" flag="0"/>
      <vel value="0.0859421955" flag="0"/>
      <psa03 value="0.7260378705" flag="0"/>
      <psa10 value="0.0708718594" flag="0"/>
      <psa30 value="0.0043269242" flag="0"/>
    </comp>
    <comp name="--.HHN">
      <acc value="0.3215515128" flag="0"/>
      <vel value="0.0969809203" flag="0"/>
      <psa03 value="0.5280394958" flag="0"/>
      <psa10 value="0.0552383267" flag="0"/>
      <psa30 value="0.0070277955" flag="0"/>
    </comp>
    <comp name="--.HHZ">
      <acc value="0.1840313194" flag="0"/>
      <vel value="0.0531388005" flag="0"/>
      <psa03 value="0.2543093294" flag="0"/>
      <psa10 value="0.0551567596" flag="0"/>
      <psa30 value="0.0022859557" flag="0"/>
    </comp>
  </station>
  <station code="IMMV" name="IMMV" netid="GE" source="GFZ" insttype="STS-2/N" lat="35.4606" lon="23.9811">
    <comp name="--.HHE">
      <acc value="1.5198568234" flag="0"/>
      <vel value="0.4424546881" flag="0"/>
      <psa03 value="2.5544953545" flag="0"/>
      <psa10 value="0.2664312501" flag="0"/>
      <psa30 value="0.0192259516" flag="0"/>
    </comp>
    <comp name="--.HHN">
      <acc value="1.4638384031" flag="0"/>
      <vel value="0.3653640811" flag="0"/>
      <psa03 value="2.5260101429" flag="0"/>
      <psa10 value="0.1953700074" flag="0"/>
      <psa30 value="0.0126956616" flag="0"/>
    </comp>
    <comp name="--.HHZ">
      <acc value="0.9278212417" flag="0"/>
      <vel value="0.3758139538" flag="0"/>
      <psa03 value="1.9486207489" flag="0"/>
      <psa10 value="0.1171571613" flag="0"/>
      <psa30 value="0.0101766578" flag="0"/>
    </comp>
  </station>
  <station code="CHAN" name="CHAN" netid="HC" source="NOA" insttype="120" lat="35.5193" lon="24.0428">
    <comp name="--.HHE">
      <acc value="1.3135411791" flag="0"/>
      <vel value="0.6283655896" flag="0"/>
      <psa03 value="2.1438453833" flag="0"/>
      <psa10 value="0.5625126630" flag="0"/>
      <psa30 value="0.0443919496" flag="0"/>
    </comp>
    <comp name="--.HHN">
      <acc value="0.7650103198" flag="0"/>
      <vel value="0.4561954338" flag="0"/>
      <psa03 value="1.7402615483" flag="0"/>
      <psa10 value="0.3677558689" flag="0"/>
      <psa30 value="0.0214286721" flag="0"/>
    </comp>
    <comp name="--.HHZ">
      <acc value="0.5880258969" flag="0"/>
      <vel value="0.2781278298" flag="0"/>
      <psa03 value="1.6762206377" flag="0"/>
      <psa10 value="0.1913499247" flag="0"/>
      <psa30 value="0.0123148187" flag="0"/>
    </comp>
  </station>
  <station code="KNDR" name="KNDR" netid="HC" source="NOA" insttype="60" lat="35.2348" lon="23.6248">
    <comp name="--.HHE">
      <acc value="1.5835127893" flag="0"/>
      <vel value="0.6655033728" flag="0"/>
      <psa03 value="2.2140890319" flag="0"/>
      <psa10 value="0.5356895198" flag="0"/>
      <psa30 value="0.0239140290" flag="0"/>
    </comp>
    <comp name="--.HHN">
      <acc value="1.6420307966" flag="0"/>
      <vel value="0.6563377355" flag="0"/>
      <psa03 value="1.4864094157" flag="0"/>
      <psa10 value="0.5124020257" flag="0"/>
      <psa30 value="0.0434905142" flag="0"/>
    </comp>
    <comp name="--.HHZ">
      <acc value="1.4345274396" flag="0"/>
      <vel value="0.2906292186" flag="0"/>
      <psa03 value="1.5736446241" flag="0"/>
      <psa10 value="0.2018146538" flag="0"/>
      <psa30 value="0.0187174736" flag="0"/>
    </comp>
  </station>
  <station code="ANKY" name="ANKY" netid="HL" source="NOA" insttype="60" lat="35.867" lon="23.3012">
    <comp name="--.HHE">
      <acc value="0.0356098575" flag="0"/>
      <vel value="0.0267971948" flag="0"/>
      <psa03 value="0.1075412235" flag="0"/>
      <psa10 value="0.0435712506" flag="0"/>
      <psa30 value="0.0025630571" flag="0"/>
    </comp>
    <comp name="--.HHN">
      <acc value="0.0536560991" flag="0"/>
      <vel value="0.0293648085" flag="0"/>
      <psa03 value="0.1510418391" flag="0"/>
      <psa10 value="0.0336174012" flag="0"/>
      <psa30 value="0.0026177372" flag="0"/>
    </comp>
    <comp name="--.HHZ">
      <acc value="0.0372914140" flag="0"/>
      <vel value="0.0189558576" flag="0"/>
      <psa03 value="0.0638901892" flag="0"/>
      <psa10 value="0.0121881246" flag="0"/>
      <psa30 value="0.0017818629" flag="0"/>
    </comp>
  </station>
  <station code="GVD" name="GVD" netid="HL" source="NOA" insttype="120" lat="34.8391" lon="24.0874">
    <comp name="--.HHN">
      <acc value="0.3154114802" flag="0"/>
      <vel value="0.0959956076" flag="0"/>
      <psa03 value="0.5133940582" flag="0"/>
      <psa10 value="0.0543737795" flag="0"/>
      <psa30 value="0.0070148136" flag="0"/>
    </comp>
    <comp name="--.HHZ">
      <acc value="0.1821317157" flag="0"/>
      <vel value="0.0522121476" flag="0"/>
      <psa03 value="0.2463803831" flag="0"/>
      <psa10 value="0.0544602299" flag="0"/>
      <psa30 value="0.0022669256" flag="0"/>
    </comp>
    <comp name="--.HHE">
      <acc value="0.2427441680" flag="0"/>
      <vel value="0.0835677585" flag="0"/>
      <psa03 value="0.7051319158" flag="0"/>
      <psa10 value="0.0700421555" flag="0"/>
      <psa30 value="0.0043193471" flag="0"/>
    </comp>
  </station>
  <station code="IACM" name="IACM" netid="HL" source="NOA" insttype="120" lat="35.3058" lon="25.0709">
    <comp name="--.HHE">
      <acc value="0.1111261101" flag="0"/>
      <vel value="0.0875606854" flag="0"/>
      <psa03 value="0.3490936360" flag="0"/>
      <psa10 value="0.1648535347" flag="0"/>
      <psa30 value="0.0054274726" flag="0"/>
    </comp>
    <comp name="--.HHN">
      <acc value="0.1199620383" flag="0"/>
      <vel value="0.0856855688" flag="0"/>
      <psa03 value="0.5001827429" flag="0"/>
      <psa10 value="0.1125824593" flag="0"/>
      <psa30 value="0.0049019955" flag="0"/>
    </comp>
    <comp name="--.HHZ">
      <acc value="0.1071062264" flag="0"/>
      <vel value="0.0425265255" flag="0"/>
      <psa03 value="0.2236051807" flag="0"/>
      <psa10 value="0.0601320158" flag="0"/>
      <psa30 value="0.0023475340" flag="0"/>
    </comp>
  </station>
  <station code="IMMV" name="IMMV" netid="HL" source="NOA" insttype="120" lat="35.4606" lon="23.9811">
    <comp name="--.HHE">
      <acc value="1.4772172860" flag="0"/>
      <vel value="0.4346697569" flag="0"/>
      <psa03 value="2.4803390531" flag="0"/>
      <psa10 value="0.2637442840" flag="0"/>
      <psa30 value="0.0189431379" flag="0"/>
    </comp>
    <comp name="--.HHN">
      <acc value="1.4305284677" flag="0"/>
      <vel value="0.3545866246" flag="0"/>
      <psa03 value="2.4536648909" flag="0"/>
      <psa10 value="0.1939820634" flag="0"/>
      <psa30 value="0.0125967462" flag="0"/>
    </comp>
    <comp name="--.HHZ">
      <acc value="0.9118260299" flag="0"/>
      <vel value="0.3671310408" flag="0"/>
      <psa03 value="1.8944341719" flag="0"/>
      <psa10 value="0.1164232606" flag="0"/>
      <psa30 value="0.0101251738" flag="0"/>
    </comp>
  </station>
  <station code="KTHA" name="KTHA" netid="HL" source="NOA" insttype="120" lat="36.2566" lon="23.0621">
    <comp name="--.HHZ">
      <acc value="0.0119644138" flag="0"/>
      <vel value="0.0068556830" flag="0"/>
      <psa03 value="0.0383019382" flag="0"/>
      <psa10 value="0.0123510178" flag="0"/>
      <psa30 value="0.0009083287" flag="0"/>
    </comp>
  </station>
  <station code="VAM" name="VAM" netid="HL" source="NOA" insttype="CMG3ESPC-120s" lat="35.407" lon="24.1997">
    <comp name="--.HHE">
      <acc value="0.4893265652" flag="0"/>
      <vel value="0.2243399130" flag="0"/>
      <psa03 value="0.8554611589" flag="0"/>
      <psa10 value="0.3242701799" flag="0"/>
      <psa30 value="0.0143163914" flag="0"/>
    </comp>
    <comp name="--.HHZ">
      <acc value="0.4987374201" flag="0"/>
      <vel value="0.1955396162" flag="0"/>
      <psa03 value="0.4895565231" flag="0"/>
      <psa10 value="0.0909506205" flag="0"/>
      <psa30 value="0.0070253025" flag="0"/>
    </comp>
    <comp name="--.HHN">
      <acc value="0.6352296604" flag="0"/>
      <vel value="0.3172840607" flag="0"/>
      <psa03 value="1.3906197604" flag="0"/>
      <psa10 value="0.2221762427" flag="0"/>
      <psa30 value="0.0158462213" flag="0"/>
    </comp>
  </station>
</stationlist>
