<?xml version="1.0" encoding="UTF-8" standalone="yes"?>
<!DOCTYPE earthquake SYSTEM "stationlist.dtd">
<stationlist created="" xmlns="ch.ethz.sed.shakemap.usgs.xml">
  <station code="AKS" name="AKS" netid="KO" insttype="CMG-5T" commtype="DIG" lat="38.8785" lon="27.8129">
    <comp name="--.HNN">
      <acc value="0.0855301750" flag="0"/>
      <vel value="0.0322751164" flag="0"/>
      <psa03 value="0.2690411243" flag="0"/>
      <psa10 value="0.0129472682" flag="0"/>
      <psa30 value="0.0009919639" flag="0"/>
    </comp>
    <comp name="--.HNZ">
      <acc value="0.0470577115" flag="0"/>
      <vel value="0.0117685232" flag="0"/>
      <psa03 value="0.0939843448" flag="0"/>
      <psa10 value="0.0046929415" flag="0"/>
      <psa30 value="0.0005209844" flag="0"/>
    </comp>
  </station>
  <station code="BALB" name="BALB" netid="KO" insttype="CMG-5T" commtype="DIG" lat="39.6507" lon="27.8642">
    <comp name="--.HNN">
      <acc value="0.0905453563" flag="0"/>
      <vel value="0.0393198715" flag="0"/>
      <psa03 value="0.2095371275" flag="0"/>
      <psa10 value="0.0236502491" flag="0"/>
      <psa30 value="0.0010128219" flag="0"/>
    </comp>
    <comp name="--.HNZ">
      <acc value="0.0523864552" flag="0"/>
      <vel value="0.0151582960" flag="0"/>
      <psa03 value="0.0926470506" flag="0"/>
      <psa10 value="0.0075614107" flag="0"/>
      <psa30 value="0.0006690262" flag="0"/>
    </comp>
    <comp name="--.HNE">
      <acc value="0.0793982890" flag="0"/>
      <vel value="0.0277846762" flag="0"/>
      <psa03 value="0.2207047964" flag="0"/>
      <psa10 value="0.0110205853" flag="0"/>
      <psa30 value="0.0010229011" flag="0"/>
    </comp>
  </station>
  <station code="DST" name="DST" netid="KO" insttype="CMG-5T" commtype="DIG" lat="39.6041" lon="28.6267">
    <comp name="--.HNN">
      <acc value="0.0269750292" flag="0"/>
      <vel value="0.0103954455" flag="0"/>
      <psa03 value="0.0435147801" flag="0"/>
      <psa10 value="0.0073346598" flag="0"/>
      <psa30 value="0.0009642308" flag="0"/>
    </comp>
    <comp name="--.HNZ">
      <acc value="0.0268714324" flag="0"/>
      <vel value="0.0086329689" flag="0"/>
      <psa03 value="0.0378102473" flag="0"/>
      <psa10 value="0.0032355676" flag="0"/>
      <psa30 value="0.0006236000" flag="0"/>
    </comp>
    <comp name="--.HNE">
      <acc value="0.0241139508" flag="0"/>
      <vel value="0.0080274795" flag="0"/>
      <psa03 value="0.0387501438" flag="0"/>
      <psa10 value="0.0057241827" flag="0"/>
      <psa30 value="0.0004933498" flag="0"/>
    </comp>
  </station>
  <station code="GOMA" name="GOMA" netid="KO" insttype="CMG-5T" commtype="DIG" lat="38.7077" lon="27.9175">
    <comp name="--.HNN">
      <acc value="0.0548378254" flag="0"/>
      <vel value="0.0277787602" flag="0"/>
      <psa03 value="0.1066322906" flag="0"/>
      <psa10 value="0.0150775552" flag="0"/>
      <psa30 value="0.0012249341" flag="0"/>
    </comp>
    <comp name="--.HNZ">
      <acc value="0.0279218211" flag="0"/>
      <vel value="0.0089143139" flag="0"/>
      <psa03 value="0.0505561987" flag="0"/>
      <psa10 value="0.0053283143" flag="0"/>
      <psa30 value="0.0005082171" flag="0"/>
    </comp>
    <comp name="--.HNE">
      <acc value="0.0517667706" flag="0"/>
      <vel value="0.0281215037" flag="0"/>
      <psa03 value="0.1651574585" flag="0"/>
      <psa10 value="0.0175673763" flag="0"/>
      <psa30 value="0.0011781757" flag="0"/>
    </comp>
  </station>
  <station code="GONE" name="GONE" netid="KO" insttype="CMG-5T" commtype="DIG" lat="40.0466" lon="27.686">
    <comp name="--.HNZ">
      <acc value="0.0118131874" flag="0"/>
      <vel value="0.0045356621" flag="0"/>
      <psa03 value="0.0264008146" flag="0"/>
      <psa10 value="0.0046111881" flag="0"/>
      <psa30 value="0.0002488588" flag="0"/>
    </comp>
    <comp name="--.HNE">
      <acc value="0.0228717184" flag="0"/>
      <vel value="0.0106327105" flag="0"/>
      <psa03 value="0.0513084543" flag="0"/>
      <psa10 value="0.0135190112" flag="0"/>
      <psa30 value="0.0008130011" flag="0"/>
    </comp>
    <comp name="--.HNN">
      <acc value="0.0327366370" flag="0"/>
      <vel value="0.0175396195" flag="0"/>
      <psa03 value="0.0832607778" flag="0"/>
      <psa10 value="0.0110528284" flag="0"/>
      <psa30 value="0.0008240091" flag="0"/>
    </comp>
  </station>
  <station code="GORD" name="GORD" netid="KO" insttype="CMG-5T" commtype="DIG" lat="38.9088" lon="28.1769">
    <comp name="--.HNE">
      <acc value="0.0290776518" flag="0"/>
      <vel value="0.0221426464" flag="0"/>
      <psa03 value="0.0873463616" flag="0"/>
      <psa10 value="0.0269435713" flag="0"/>
      <psa30 value="0.0021145476" flag="0"/>
    </comp>
    <comp name="--.HNN">
      <acc value="0.0463061320" flag="0"/>
      <vel value="0.0366613351" flag="0"/>
      <psa03 value="0.0983939399" flag="0"/>
      <psa10 value="0.0381428209" flag="0"/>
      <psa30 value="0.0015146468" flag="0"/>
    </comp>
    <comp name="--.HNZ">
      <acc value="0.0324779007" flag="0"/>
      <vel value="0.0165753256" flag="0"/>
      <psa03 value="0.0822624403" flag="0"/>
      <psa10 value="0.0204033538" flag="0"/>
      <psa30 value="0.0017434032" flag="0"/>
    </comp>
  </station>
  <station code="KCTX" name="KCTX" netid="KO" insttype="CMG-3ESP" commtype="DIG" lat="40.2626" lon="28.3353">
    <comp name="--.HHE">
      <acc value="0.0126059716" flag="0"/>
      <vel value="0.0121156225" flag="0"/>
      <psa03 value="0.0282023485" flag="0"/>
      <psa10 value="0.0143548594" flag="0"/>
      <psa30 value="0.0006982279" flag="0"/>
    </comp>
    <comp name="--.HHN">
      <acc value="0.0135133127" flag="0"/>
      <vel value="0.0051345149" flag="0"/>
      <psa03 value="0.0471917130" flag="0"/>
      <psa10 value="0.0051041802" flag="0"/>
      <psa30 value="0.0003095075" flag="0"/>
    </comp>
    <comp name="--.HHZ">
      <acc value="0.0129818068" flag="0"/>
      <vel value="0.0052063223" flag="0"/>
      <psa03 value="0.0296118883" flag="0"/>
      <psa10 value="0.0029477113" flag="0"/>
      <psa30 value="0.0002638943" flag="0"/>
    </comp>
  </station>
  <station code="KULA" name="KULA" netid="KO" insttype="CMG-3T" commtype="DIG" lat="38.5145" lon="28.6607">
    <comp name="--.HHZ">
      <acc value="0.0124043722" flag="0"/>
      <vel value="0.0040806073" flag="0"/>
      <psa03 value="0.0105518542" flag="0"/>
      <psa10 value="0.0028539894" flag="0"/>
      <psa30 value="0.0002185077" flag="0"/>
    </comp>
    <comp name="--.HHN">
      <acc value="0.0114677581" flag="0"/>
      <vel value="0.0054484110" flag="0"/>
      <psa03 value="0.0190506921" flag="0"/>
      <psa10 value="0.0031966150" flag="0"/>
      <psa30 value="0.0001975981" flag="0"/>
    </comp>
    <comp name="--.HHE">
      <acc value="0.0188912065" flag="0"/>
      <vel value="0.0094559529" flag="0"/>
      <psa03 value="0.0407291043" flag="0"/>
      <psa10 value="0.0078706841" flag="0"/>
      <psa30 value="0.0004773371" flag="0"/>
    </comp>
  </station>
  <station code="ORLT" name="ORLT" netid="KO" insttype="CMG-5T" commtype="DIG" lat="40.0452" lon="28.8914">
    <comp name="--.HNE">
      <acc value="0.0245190841" flag="0"/>
      <vel value="0.0121495348" flag="0"/>
      <psa03 value="0.0903722611" flag="0"/>
      <psa10 value="0.0156370706" flag="0"/>
      <psa30 value="0.0006777790" flag="0"/>
    </comp>
    <comp name="--.HNN">
      <acc value="0.0433912339" flag="0"/>
      <vel value="0.0194299476" flag="0"/>
      <psa03 value="0.1154885003" flag="0"/>
      <psa10 value="0.0223779930" flag="0"/>
      <psa30 value="0.0013706530" flag="0"/>
    </comp>
    <comp name="--.HNZ">
      <acc value="0.0134068056" flag="0"/>
      <vel value="0.0087406770" flag="0"/>
      <psa03 value="0.0352011645" flag="0"/>
      <psa10 value="0.0108508181" flag="0"/>
      <psa30 value="0.0005466214" flag="0"/>
    </comp>
  </station>
  <station code="SHAP" name="SHAP" netid="KO" insttype="CMG-5T" commtype="DIG" lat="39.0231" lon="29.222">
    <comp name="--.HNN">
      <acc value="0.0300284065" flag="0"/>
      <vel value="0.0087647272" flag="0"/>
      <psa03 value="0.0485539214" flag="0"/>
      <psa10 value="0.0048003609" flag="0"/>
      <psa30 value="0.0002963039" flag="0"/>
    </comp>
    <comp name="--.HNE">
      <acc value="0.0357657861" flag="0"/>
      <vel value="0.0096999673" flag="0"/>
      <psa03 value="0.0636425491" flag="0"/>
      <psa10 value="0.0029908853" flag="0"/>
      <psa30 value="0.0002781010" flag="0"/>
    </comp>
    <comp name="--.HNZ">
      <acc value="0.0163687115" flag="0"/>
      <vel value="0.0048077719" flag="0"/>
      <psa03 value="0.0214506231" flag="0"/>
      <psa10 value="0.0030826049" flag="0"/>
      <psa30 value="0.0001973560" flag="0"/>
    </comp>
  </station>
  <station code="SIMA" name="SIMA" netid="KO" insttype="CMG-6T" commtype="DIG" lat="39.0833" lon="28.9825">
    <comp name="--.HHE">
      <acc value="0.0301076561" flag="0"/>
      <vel value="0.0099591369" flag="0"/>
      <psa03 value="0.0551915073" flag="0"/>
      <psa10 value="0.0047200781" flag="0"/>
      <psa30 value="0.0003702680" flag="0"/>
    </comp>
    <comp name="--.HHN">
      <acc value="0.0428287417" flag="0"/>
      <vel value="0.0202718138" flag="0"/>
      <psa03 value="0.0832528929" flag="0"/>
      <psa10 value="0.0100658725" flag="0"/>
      <psa30 value="0.0007187563" flag="0"/>
    </comp>
    <comp name="--.HHZ">
      <acc value="0.0216146462" flag="0"/>
      <vel value="0.0053477822" flag="0"/>
      <psa03 value="0.0281811378" flag="0"/>
      <psa10 value="0.0026226080" flag="0"/>
      <psa30 value="0.0002270670" flag="0"/>
    </comp>
  </station>
  <station code="SMAA" name="SMAA" netid="KO" insttype="CMG-5T" commtype="DIG" lat="39.1005" lon="28.9805">
    <comp name="--.HNE">
      <acc value="0.0452560541" flag="0"/>
      <vel value="0.0301172434" flag="0"/>
      <psa03 value="0.1144078582" flag="0"/>
      <psa10 value="0.0373018772" flag="0"/>
      <psa30 value="0.0019108342" flag="0"/>
    </comp>
    <comp name="--.HNN">
      <acc value="0.0389901356" flag="0"/>
      <vel value="0.0219932398" flag="0"/>
      <psa03 value="0.1101253801" flag="0"/>
      <psa10 value="0.0275461669" flag="0"/>
      <psa30 value="0.0016630319" flag="0"/>
    </comp>
    <comp name="--.HNZ">
      <acc value="0.0147914861" flag="0"/>
      <vel value="0.0086539920" flag="0"/>
      <psa03 value="0.0272414283" flag="0"/>
      <psa10 value="0.0176044494" flag="0"/>
      <psa30 value="0.0006895378" flag="0"/>
    </comp>
  </station>
  <station code="SUSR" name="SUSR" netid="KO" insttype="CMG-5T" commtype="DIG" lat="39.9627" lon="28.0835">
    <comp name="--.HNZ">
      <acc value="0.0169168570" flag="0"/>
      <vel value="0.0040353077" flag="0"/>
      <psa03 value="0.0253668826" flag="0"/>
      <psa10 value="0.0034262964" flag="0"/>
      <psa30 value="0.0004094838" flag="0"/>
    </comp>
    <comp name="--.HNE">
      <acc value="0.0245139896" flag="0"/>
      <vel value="0.0099526994" flag="0"/>
      <psa03 value="0.0543900758" flag="0"/>
      <psa10 value="0.0042508029" flag="0"/>
      <psa30 value="0.0004565319" flag="0"/>
    </comp>
    <comp name="--.HNN">
      <acc value="0.0275093368" flag="0"/>
      <vel value="0.0084058502" flag="0"/>
      <psa03 value="0.0501861007" flag="0"/>
      <psa10 value="0.0031655433" flag="0"/>
      <psa30 value="0.0003258722" flag="0"/>
    </comp>
  </station>
  <station code="TVSB" name="TVSB" netid="KO" insttype="CMG-3T" commtype="DIG" lat="39.4497" lon="29.4615">
    <comp name="--.HHE">
      <acc value="0.0161363652" flag="0"/>
      <vel value="0.0076616398" flag="0"/>
      <psa03 value="0.0353685832" flag="0"/>
      <psa10 value="0.0061938881" flag="0"/>
      <psa30 value="0.0003028341" flag="0"/>
    </comp>
    <comp name="--.HHN">
      <acc value="0.0163454325" flag="0"/>
      <vel value="0.0052443339" flag="0"/>
      <psa03 value="0.0217548292" flag="0"/>
      <psa10 value="0.0040616678" flag="0"/>
      <psa30 value="0.0003965403" flag="0"/>
    </comp>
    <comp name="--.HHZ">
      <acc value="0.0084475486" flag="0"/>
      <vel value="0.0033931163" flag="0"/>
      <psa03 value="0.0104378685" flag="0"/>
      <psa10 value="0.0038712352" flag="0"/>
      <psa30 value="0.0002431218" flag="0"/>
    </comp>
  </station>
  <station code="YAYO" name="YAYO" netid="KO" insttype="CMG-6T" commtype="DIG" lat="39.6113" lon="27.0726">
    <comp name="--.HHN">
      <acc value="0.0191398606" flag="0"/>
      <vel value="0.0104290562" flag="0"/>
      <psa03 value="0.0471202531" flag="0"/>
      <psa10 value="0.0037598024" flag="0"/>
      <psa30 value="0.0003189541" flag="0"/>
    </comp>
    <comp name="--.HHZ">
      <acc value="0.0252834971" flag="0"/>
      <vel value="0.0134758525" flag="0"/>
      <psa03 value="0.0456269579" flag="0"/>
      <psa10 value="0.0044856574" flag="0"/>
      <psa30 value="0.0003055947" flag="0"/>
    </comp>
    <comp name="--.HHE">
      <acc value="0.0172622847" flag="0"/>
      <vel value="0.0110026188" flag="0"/>
      <psa03 value="0.0459303778" flag="0"/>
      <psa10 value="0.0094110812" flag="0"/>
      <psa30 value="0.0005499042" flag="0"/>
    </comp>
  </station>
  <station code="YENI" name="YENI" netid="KO" insttype="CMG-5T" commtype="DIG" lat="39.9364" lon="27.2422">
    <comp name="--.HNE">
      <acc value="0.0279227121" flag="0"/>
      <vel value="0.0103813900" flag="0"/>
      <psa03 value="0.0770723738" flag="0"/>
      <psa10 value="0.0085367947" flag="0"/>
      <psa30 value="0.0005372687" flag="0"/>
    </comp>
    <comp name="--.HNN">
      <acc value="0.0330706554" flag="0"/>
      <vel value="0.0155939338" flag="0"/>
      <psa03 value="0.0407309147" flag="0"/>
      <psa10 value="0.0125051032" flag="0"/>
      <psa30 value="0.0007255862" flag="0"/>
    </comp>
    <comp name="--.HNZ">
      <acc value="0.0185533959" flag="0"/>
      <vel value="0.0047148458" flag="0"/>
      <psa03 value="0.0174773804" flag="0"/>
      <psa10 value="0.0036359923" flag="0"/>
      <psa30 value="0.0003678550" flag="0"/>
    </comp>
  </station>
</stationlist>
