<stationlist xmlns:esm="https://esm-db.eu/esmws/shakemap/1/" created="1780711030">
	<station code="ARE2" name="ARE2" netid="HI" source="ITSAK Strong Motion Network" insttype="" lat="36.66629" lon="22.382635" esm:processing="automatic (Paolucci et al 2011)" esm:quality="best">
		<comp name="--.HNE" depth="0.0">
			<acc value="0.00371380144911817" flag="0"/>
			<vel value="0.00255447436258546" flag="0"/>
			<psa03 value="0.0115893146102155" flag="0"/>
			<psa10 value="0.00411379048718034" flag="0"/>
			<psa30 value="0.000225229451595799" flag="0"/>
		</comp>
		<comp name="--.HNN" depth="0.0">
			<acc value="0.00464542059008084" flag="0"/>
			<vel value="0.00233119927244061" flag="0"/>
			<psa03 value="0.0163141419297539" flag="0"/>
			<psa10 value="0.00173934940304917" flag="0"/>
			<psa30 value="0.000169016704339671" flag="0"/>
		</comp>
		<comp name="--.HNZ" depth="0.0">
			<acc value="0.00353913395076299" flag="0"/>
			<vel value="0.00116354665965408" flag="0"/>
			<psa03 value="0.00642248600505291" flag="0"/>
			<psa10 value="0.0018622346139038" flag="0"/>
			<psa30 value="0.000107781573594036" flag="0"/>
		</comp>
	</station>
</stationlist>
