<?xml version="1.0" encoding="UTF-8" standalone="yes"?>
<!DOCTYPE earthquake SYSTEM "stationlist.dtd">
<stationlist created="" xmlns="ch.ethz.sed.shakemap.usgs.xml">
  <station code="KOSP" name="KOSP" netid="HC" insttype="60" lat="36.881" lon="27.281">
    <comp name="--.HHE">
      <acc value="0.2561351949" flag="0"/>
      <vel value="0.2392112733" flag="0"/>
      <psa03 value="0.6474732202" flag="0"/>
      <psa10 value="0.3356210441" flag="0"/>
      <psa30 value="0.0671805897" flag="0"/>
    </comp>
    <comp name="--.HHZ">
      <acc value="0.1658193625" flag="0"/>
      <vel value="0.1654220597" flag="0"/>
      <psa03 value="0.4839627833" flag="0"/>
      <psa10 value="0.3083930656" flag="0"/>
      <psa30 value="0.0381834918" flag="0"/>
    </comp>
    <comp name="--.HHN">
      <acc value="0.2473276043" flag="0"/>
      <vel value="0.2528387436" flag="0"/>
      <psa03 value="0.8200791453" flag="0"/>
      <psa10 value="0.3419108751" flag="0"/>
      <psa30 value="0.0600703511" flag="0"/>
    </comp>
  </station>
  <station code="KSS1" name="KSS1" netid="HI" insttype="CMG-5TD,ACCELEROMETER,GURALP" lat="35.4189" lon="26.9207">
    <comp name="--.HNE">
      <acc value="0.1508645827" flag="0"/>
      <vel value="0.1323652851" flag="0"/>
      <psa03 value="0.3735519388" flag="0"/>
      <psa10 value="0.1512802431" flag="0"/>
      <psa30 value="0.0451172528" flag="0"/>
    </comp>
    <comp name="--.HNN">
      <acc value="0.1595988776" flag="0"/>
      <vel value="0.1443803031" flag="0"/>
      <psa03 value="0.4908531909" flag="0"/>
      <psa10 value="0.1815893966" flag="0"/>
      <psa30 value="0.0275071768" flag="0"/>
    </comp>
    <comp name="--.HNZ">
      <acc value="0.1244568685" flag="0"/>
      <vel value="0.1082090295" flag="0"/>
      <psa03 value="0.1551469836" flag="0"/>
      <psa10 value="0.1867314408" flag="0"/>
      <psa30 value="0.0274235309" flag="0"/>
    </comp>
  </station>
  <station code="ARG" name="ARG" netid="HL" insttype="LE3D20_DR24" lat="36.2136" lon="28.1212">
    <comp name="--.HHE">
      <acc value="1.3239224644" flag="0"/>
      <vel value="1.4549175055" flag="0"/>
      <psa03 value="4.8279434785" flag="0"/>
      <psa10 value="2.1078888241" flag="0"/>
      <psa30 value="0.1868694004" flag="0"/>
    </comp>
    <comp name="--.HHZ">
      <acc value="0.6294762889" flag="0"/>
      <vel value="0.6066337534" flag="0"/>
      <psa03 value="1.4662517457" flag="0"/>
      <psa10 value="0.9371178830" flag="0"/>
      <psa30 value="0.0696743334" flag="0"/>
    </comp>
    <comp name="--.HHN">
      <acc value="1.0244600849" flag="0"/>
      <vel value="1.1236520369" flag="0"/>
      <psa03 value="2.0652982642" flag="0"/>
      <psa10 value="1.5054355508" flag="0"/>
      <psa30 value="0.1382876567" flag="0"/>
    </comp>
  </station>
  <station code="KLNA" name="KLNA" netid="HL" insttype="CMG-5" lat="36.9571" lon="26.9727">
    <comp name="00.HNN">
      <acc value="0.1051276561" flag="0"/>
      <vel value="0.0467783940" flag="0"/>
      <psa03 value="0.2698090547" flag="0"/>
      <psa10 value="0.0478061626" flag="0"/>
      <psa30 value="0.0098300623" flag="0"/>
    </comp>
    <comp name="00.HNZ">
      <acc value="0.1487944219" flag="0"/>
      <vel value="0.0554484892" flag="0"/>
      <psa03 value="0.2096157213" flag="0"/>
      <psa10 value="0.0719916005" flag="0"/>
      <psa30 value="0.0102491015" flag="0"/>
    </comp>
    <comp name="00.HNE">
      <acc value="0.1535428031" flag="0"/>
      <vel value="0.0778333522" flag="0"/>
      <psa03 value="0.5085911991" flag="0"/>
      <psa10 value="0.0660857003" flag="0"/>
      <psa30 value="0.0143741382" flag="0"/>
    </comp>
  </station>
  <station code="NISR" name="NISR" netid="HL" insttype="65535" lat="36.6106" lon="27.131">
    <comp name="--.HHN">
      <acc value="0.1456955498" flag="0"/>
      <vel value="0.1317787399" flag="0"/>
      <psa03 value="0.3154103843" flag="0"/>
      <psa10 value="0.1538088533" flag="0"/>
      <psa30 value="0.0297014072" flag="0"/>
    </comp>
    <comp name="--.HHE">
      <acc value="0.2737068192" flag="0"/>
      <vel value="0.2108032854" flag="0"/>
      <psa03 value="0.7413065797" flag="0"/>
      <psa10 value="0.3246923600" flag="0"/>
      <psa30 value="0.0623765944" flag="0"/>
    </comp>
    <comp name="--.HHZ">
      <acc value="0.1132455711" flag="0"/>
      <vel value="0.1091355803" flag="0"/>
      <psa03 value="0.2501359861" flag="0"/>
      <psa10 value="0.2102894988" flag="0"/>
      <psa30 value="0.0248068050" flag="0"/>
    </comp>
  </station>
  <station code="NISR2" name="NISR2" netid="HL" insttype="120" lat="36.5744" lon="27.1767">
    <comp name="--.HHZ">
      <acc value="0.2920998556" flag="0"/>
      <vel value="0.1888128402" flag="0"/>
      <psa03 value="0.6958289612" flag="0"/>
      <psa10 value="0.2864944410" flag="0"/>
      <psa30 value="0.0340808772" flag="0"/>
    </comp>
    <comp name="--.HHE">
      <acc value="0.6888792352" flag="0"/>
      <vel value="0.6144071453" flag="0"/>
      <psa03 value="1.6172781073" flag="0"/>
      <psa10 value="1.2837948579" flag="0"/>
      <psa30 value="0.0849545333" flag="0"/>
    </comp>
    <comp name="--.HHN">
      <acc value="0.7348047974" flag="0"/>
      <vel value="0.6930381600" flag="0"/>
      <psa03 value="2.2117468254" flag="0"/>
      <psa10 value="1.2226398515" flag="0"/>
      <psa30 value="0.0927929332" flag="0"/>
    </comp>
  </station>
  <station code="RODB" name="RODB" netid="HL" insttype="CMG-5" lat="36.4471" lon="28.2212">
    <comp name="00.HNZ">
      <acc value="0.8224137594" flag="0"/>
      <vel value="0.5271990086" flag="0"/>
      <psa03 value="1.9530669959" flag="0"/>
      <psa10 value="1.1661441595" flag="0"/>
      <psa30 value="0.1005322637" flag="0"/>
    </comp>
    <comp name="00.HNN">
      <acc value="1.2795898544" flag="0"/>
      <vel value="1.3434967504" flag="0"/>
      <psa03 value="3.3352071099" flag="0"/>
      <psa10 value="1.2454867395" flag="0"/>
      <psa30 value="0.2774786373" flag="0"/>
    </comp>
    <comp name="00.HNE">
      <acc value="0.6337578033" flag="0"/>
      <vel value="0.6956167621" flag="0"/>
      <psa03 value="2.7516433434" flag="0"/>
      <psa10 value="0.7969911080" flag="0"/>
      <psa30 value="0.1540228556" flag="0"/>
    </comp>
  </station>
  <station code="APMY" name="APMY" netid="KO" insttype="CMG-6T" lat="37.4717" lon="29.3018">
    <comp name="--.HHN">
      <acc value="0.0894928789" flag="0"/>
      <vel value="0.0393172810" flag="0"/>
      <psa03 value="0.2088016754" flag="0"/>
      <psa10 value="0.0559861433" flag="0"/>
      <psa30 value="0.0104724124" flag="0"/>
    </comp>
    <comp name="--.HHZ">
      <acc value="0.1961959281" flag="0"/>
      <vel value="0.0641846339" flag="0"/>
      <psa03 value="0.3774087837" flag="0"/>
      <psa10 value="0.0835715720" flag="0"/>
      <psa30 value="0.0066105648" flag="0"/>
    </comp>
    <comp name="--.HHE">
      <acc value="0.0807202200" flag="0"/>
      <vel value="0.0393482494" flag="0"/>
      <psa03 value="0.1599561591" flag="0"/>
      <psa10 value="0.0288208116" flag="0"/>
      <psa30 value="0.0060007161" flag="0"/>
    </comp>
  </station>
  <station code="BODA" name="BODA" netid="KO" insttype="ACEBOX" lat="37.0348" lon="27.4304">
    <comp name="--.HNE">
      <acc value="0.3691054078" flag="0"/>
      <vel value="0.1784768479" flag="0"/>
      <psa03 value="1.3276740174" flag="0"/>
      <psa10 value="0.1312105751" flag="0"/>
      <psa30 value="0.0158032271" flag="0"/>
    </comp>
    <comp name="--.HNN">
      <acc value="0.2770755873" flag="0"/>
      <vel value="0.1410130967" flag="0"/>
      <psa03 value="1.1473844014" flag="0"/>
      <psa10 value="0.1612709985" flag="0"/>
      <psa30 value="0.0184239177" flag="0"/>
    </comp>
    <comp name="--.HNZ">
      <acc value="0.0909198570" flag="0"/>
      <vel value="0.0601323065" flag="0"/>
      <psa03 value="0.2054015551" flag="0"/>
      <psa10 value="0.0803272395" flag="0"/>
      <psa30 value="0.0103164873" flag="0"/>
    </comp>
  </station>
  <station code="CAME" name="CAME" netid="KO" insttype="CMG-5T" lat="36.9435" lon="29.3023">
    <comp name="--.HNE">
      <acc value="0.2858952092" flag="0"/>
      <vel value="0.1370638883" flag="0"/>
      <psa03 value="0.6710308388" flag="0"/>
      <psa10 value="0.1943903690" flag="0"/>
      <psa30 value="0.0290668107" flag="0"/>
    </comp>
    <comp name="--.HNN">
      <acc value="0.2000187872" flag="0"/>
      <vel value="0.1142361101" flag="0"/>
      <psa03 value="0.6382407006" flag="0"/>
      <psa10 value="0.1927367435" flag="0"/>
      <psa30 value="0.0268127741" flag="0"/>
    </comp>
    <comp name="--.HNZ">
      <acc value="0.1305825984" flag="0"/>
      <vel value="0.0812517366" flag="0"/>
      <psa03 value="0.3912147093" flag="0"/>
      <psa10 value="0.1085629267" flag="0"/>
      <psa30 value="0.0270083184" flag="0"/>
    </comp>
  </station>
  <station code="DALY" name="DALY" netid="KO" insttype="CMG-3T" lat="36.8162" lon="28.6532">
    <comp name="--.HHZ">
      <acc value="0.1474619324" flag="0"/>
      <vel value="0.1079793056" flag="0"/>
      <psa03 value="0.5994829871" flag="0"/>
      <psa10 value="0.1865931882" flag="0"/>
      <psa30 value="0.0212816211" flag="0"/>
    </comp>
  </station>
  <station code="DAT" name="DAT" netid="KO" insttype="CMG-3T" lat="36.7308" lon="27.5767">
    <comp name="--.HHN">
      <acc value="0.6306368454" flag="0"/>
      <vel value="0.2832380249" flag="0"/>
      <psa03 value="2.2701248457" flag="0"/>
      <psa10 value="0.2814647660" flag="0"/>
      <psa30 value="0.0310497725" flag="0"/>
    </comp>
    <comp name="--.HHZ">
      <acc value="0.0000307512" flag="0"/>
      <vel value="0.0000057573" flag="0"/>
      <psa03 value="0.0000115852" flag="0"/>
      <psa10 value="0.0000042265" flag="0"/>
      <psa30 value="0.0000009556" flag="0"/>
    </comp>
    <comp name="--.HHE">
      <acc value="0.6209590506" flag="0"/>
      <vel value="0.2876539584" flag="0"/>
      <psa03 value="2.5124066225" flag="0"/>
      <psa10 value="0.3145838288" flag="0"/>
      <psa30 value="0.0310317165" flag="0"/>
    </comp>
  </station>
  <station code="ELL" name="ELL" netid="KO" insttype="CMG-3T" lat="36.7483" lon="29.9085">
    <comp name="--.HHN">
      <acc value="0.1283851237" flag="0"/>
      <vel value="0.1634657381" flag="0"/>
      <psa03 value="0.4353122863" flag="0"/>
      <psa10 value="0.2753217104" flag="0"/>
      <psa30 value="0.0334329904" flag="0"/>
    </comp>
    <comp name="--.HHE">
      <acc value="0.1540151813" flag="0"/>
      <vel value="0.1537703972" flag="0"/>
      <psa03 value="0.3269473216" flag="0"/>
      <psa10 value="0.2587456278" flag="0"/>
      <psa30 value="0.0410144676" flag="0"/>
    </comp>
    <comp name="--.HHZ">
      <acc value="0.1239517273" flag="0"/>
      <vel value="0.1324743757" flag="0"/>
      <psa03 value="0.2616001313" flag="0"/>
      <psa10 value="0.1239399810" flag="0"/>
      <psa30 value="0.0367377560" flag="0"/>
    </comp>
  </station>
  <station code="FETI" name="FETI" netid="KO" insttype="CMG-5T" lat="36.6903" lon="29.096">
    <comp name="--.HNE">
      <acc value="0.2704410338" flag="0"/>
      <vel value="0.1234441692" flag="0"/>
      <psa03 value="0.3519600800" flag="0"/>
      <psa10 value="0.1718186210" flag="0"/>
      <psa30 value="0.0225480493" flag="0"/>
    </comp>
    <comp name="--.HNN">
      <acc value="0.0166400219" flag="0"/>
      <vel value="0.1277649254" flag="0"/>
      <psa03 value="0.0167067530" flag="0"/>
      <psa10 value="0.0193521943" flag="0"/>
      <psa30 value="0.0284528950" flag="0"/>
    </comp>
    <comp name="--.HNZ">
      <acc value="0.1924384667" flag="0"/>
      <vel value="0.1184909218" flag="0"/>
      <psa03 value="0.4329173990" flag="0"/>
      <psa10 value="0.2987484572" flag="0"/>
      <psa30 value="0.0257153250" flag="0"/>
    </comp>
  </station>
  <station code="FETY" name="FETY" netid="KO" insttype="CMG-3ESP" lat="36.6353" lon="29.0835">
    <comp name="--.HHE">
      <acc value="0.3116522045" flag="0"/>
      <vel value="0.1944599684" flag="0"/>
      <psa03 value="0.8027880234" flag="0"/>
      <psa10 value="0.2208687086" flag="0"/>
      <psa30 value="0.0350249391" flag="0"/>
    </comp>
    <comp name="--.HHN">
      <acc value="0.2967904189" flag="0"/>
      <vel value="0.1651410250" flag="0"/>
      <psa03 value="0.9037382179" flag="0"/>
      <psa10 value="0.2418025285" flag="0"/>
      <psa30 value="0.0381723989" flag="0"/>
    </comp>
    <comp name="--.HHZ">
      <acc value="0.2076269300" flag="0"/>
      <vel value="0.1325611269" flag="0"/>
      <psa03 value="0.5584276025" flag="0"/>
      <psa10 value="0.2054843138" flag="0"/>
      <psa30 value="0.0233215743" flag="0"/>
    </comp>
  </station>
  <station code="MLSB" name="MLSB" netid="KO" insttype="CMG-3ESP" lat="37.2953" lon="27.7767">
    <comp name="--.HHE">
      <acc value="0.0864116532" flag="0"/>
      <vel value="0.0933608659" flag="0"/>
      <psa03 value="0.2690306880" flag="0"/>
      <psa10 value="0.1427258955" flag="0"/>
      <psa30 value="0.0193281669" flag="0"/>
    </comp>
    <comp name="--.HHZ">
      <acc value="0.0587761681" flag="0"/>
      <vel value="0.0611665164" flag="0"/>
      <psa03 value="0.1677981234" flag="0"/>
      <psa10 value="0.1198052812" flag="0"/>
      <psa30 value="0.0193661732" flag="0"/>
    </comp>
  </station>
  <station code="YER" name="YER" netid="KO" insttype="CMG-3T" lat="37.1336" lon="28.284">
    <comp name="--.HHZ">
      <acc value="0.0903272375" flag="0"/>
      <vel value="0.0762967002" flag="0"/>
      <psa03 value="0.3076638131" flag="0"/>
      <psa10 value="0.0995495138" flag="0"/>
      <psa30 value="0.0258072787" flag="0"/>
    </comp>
    <comp name="--.HHE">
      <acc value="0.2106263486" flag="0"/>
      <vel value="0.1459007478" flag="0"/>
      <psa03 value="0.5145389149" flag="0"/>
      <psa10 value="0.1903760061" flag="0"/>
      <psa30 value="0.0323218862" flag="0"/>
    </comp>
    <comp name="--.HHN">
      <acc value="0.1558746490" flag="0"/>
      <vel value="0.1584843650" flag="0"/>
      <psa03 value="0.4051899279" flag="0"/>
      <psa10 value="0.1733657825" flag="0"/>
      <psa30 value="0.0436315781" flag="0"/>
    </comp>
  </station>
  <station code="YKAV" name="YKAV" netid="KO" insttype="CMG-5T" lat="37.1246" lon="27.2801">
    <comp name="--.HNE">
      <acc value="0.2476269343" flag="0"/>
      <vel value="0.1329063013" flag="0"/>
      <psa03 value="0.8482601029" flag="0"/>
      <psa10 value="0.1882764290" flag="0"/>
      <psa30 value="0.0188989347" flag="0"/>
    </comp>
    <comp name="--.HNN">
      <acc value="0.1856536205" flag="0"/>
      <vel value="0.0968003377" flag="0"/>
      <psa03 value="0.6970518678" flag="0"/>
      <psa10 value="0.1647396222" flag="0"/>
      <psa30 value="0.0141235425" flag="0"/>
    </comp>
    <comp name="--.HNZ">
      <acc value="0.1187358731" flag="0"/>
      <vel value="0.0791259119" flag="0"/>
      <psa03 value="0.3730420168" flag="0"/>
      <psa10 value="0.1350649967" flag="0"/>
      <psa30 value="0.0115652302" flag="0"/>
    </comp>
  </station>
</stationlist>
