<stationlist created="1674721820">
	<station code="KRL1" name="KRL1" netid="HI" source="ITSAK Strong Motion Network" insttype="" lat="37.7951" lon="26.7065">
		<comp name=".HNE" depth="0.0">
			<acc value="0.105862132838" flag="0"/>
			<vel value="0.0782942337509" flag="0"/>
			<psa03 value="0.26663485075" flag="0"/>
			<psa10 value="0.105184830479" flag="0"/>
			<psa30 value="0.0223446052204" flag="0"/>
		</comp>
		<comp name=".HNN" depth="0.0">
			<acc value="0.0750876661198" flag="0"/>
			<vel value="0.0924868708407" flag="0"/>
			<psa03 value="0.19665175638" flag="0"/>
			<psa10 value="0.19339938176" flag="0"/>
			<psa30 value="0.0176205289403" flag="0"/>
		</comp>
		<comp name=".HNZ" depth="0.0">
			<acc value="0.0487195428693" flag="0"/>
			<vel value="0.0553181338294" flag="0"/>
			<psa03 value="0.131177971147" flag="0"/>
			<psa10 value="0.145473816926" flag="0"/>
			<psa30 value="0.0116248084199" flag="0"/>
		</comp>
	</station>
	<station code="KSS1" name="KSS1" netid="HI" source="ITSAK Strong Motion Network" insttype="" lat="35.4189" lon="26.9207">
		<comp name=".HNE" depth="0.0">
			<acc value="0.150139327881" flag="0"/>
			<vel value="0.137906977472" flag="0"/>
			<psa03 value="0.378708712593" flag="0"/>
			<psa10 value="0.151444647465" flag="0"/>
			<psa30 value="0.0465507870945" flag="0"/>
		</comp>
		<comp name=".HNN" depth="0.0">
			<acc value="0.158937303954" flag="0"/>
			<vel value="0.136007989891" flag="0"/>
			<psa03 value="0.487511836933" flag="0"/>
			<psa10 value="0.18157586851" flag="0"/>
			<psa30 value="0.0283110187994" flag="0"/>
		</comp>
		<comp name=".HNZ" depth="0.0">
			<acc value="0.12052067549" flag="0"/>
			<vel value="0.112199953479" flag="0"/>
			<psa03 value="0.156538171969" flag="0"/>
			<psa10 value="0.186814860568" flag="0"/>
			<psa30 value="0.0283382372691" flag="0"/>
		</comp>
	</station>
	<station code="NAX1" name="NAX1" netid="HI" source="ITSAK Strong Motion Network" insttype="" lat="37.101394" lon="25.374103">
		<comp name=".HNE" depth="0.0">
			<acc value="0.0106714943924" flag="0"/>
			<vel value="0.0166573020722" flag="0"/>
			<psa03 value="0.0260072723333" flag="0"/>
			<psa10 value="0.0273595999392" flag="0"/>
			<psa30 value="0.00699234404183" flag="0"/>
		</comp>
		<comp name=".HNN" depth="0.0">
			<acc value="0.00984698591269" flag="0"/>
			<vel value="0.0188772425241" flag="0"/>
			<psa03 value="0.0211258278678" flag="0"/>
			<psa10 value="0.0359447774151" flag="0"/>
			<psa30 value="0.00651161844609" flag="0"/>
		</comp>
		<comp name=".HNZ" depth="0.0">
			<acc value="0.0121390492485" flag="0"/>
			<vel value="0.0130413347004" flag="0"/>
			<psa03 value="0.0392823626804" flag="0"/>
			<psa10 value="0.0221572009308" flag="0"/>
			<psa30 value="0.00845316414731" flag="0"/>
		</comp>
	</station>
	<station code="IACM" name="IACM" netid="HL" source="National Observatory of Athens Seismic Network" insttype="" lat="35.3058" lon="25.0709">
		<comp name=".HNE" depth="0.0">
			<acc value="0.186206188847" flag="0"/>
			<vel value="0.272152911615" flag="0"/>
			<psa03 value="0.36890506315" flag="0"/>
			<psa10 value="0.549781440321" flag="0"/>
			<psa30 value="0.0353982382929" flag="0"/>
		</comp>
		<comp name=".HNN" depth="0.0">
			<acc value="0.193419273575" flag="0"/>
			<vel value="0.190314239238" flag="0"/>
			<psa03 value="0.411727858283" flag="0"/>
			<psa10 value="0.255919863435" flag="0"/>
			<psa30 value="0.024954528115" flag="0"/>
		</comp>
		<comp name=".HNZ" depth="0.0">
			<acc value="0.121669927043" flag="0"/>
			<vel value="0.0879563607248" flag="0"/>
			<psa03 value="0.281945719187" flag="0"/>
			<psa10 value="0.132780186036" flag="0"/>
			<psa30 value="0.011232349088" flag="0"/>
		</comp>
	</station>
	<station code="KLNA" name="KLNA" netid="HL" source="National Observatory of Athens Seismic Network" insttype="" lat="36.95708" lon="26.97274">
		<comp name="00.HNE" depth="0.0">
			<acc value="0.153825173302" flag="0"/>
			<vel value="0.0836921549792" flag="0"/>
			<psa03 value="0.508353217571" flag="0"/>
			<psa10 value="0.0661943600516" flag="0"/>
			<psa30 value="0.0152226550929" flag="0"/>
		</comp>
		<comp name="00.HNN" depth="0.0">
			<acc value="0.108659636863" flag="0"/>
			<vel value="0.0584478566078" flag="0"/>
			<psa03 value="0.433958955984" flag="0"/>
			<psa10 value="0.0826968257587" flag="0"/>
			<psa30 value="0.00983148212075" flag="0"/>
		</comp>
		<comp name="00.HNZ" depth="0.0">
			<acc value="0.14913777508" flag="0"/>
			<vel value="0.0572631700623" flag="0"/>
			<psa03 value="0.209646096359" flag="0"/>
			<psa10 value="0.0720936208487" flag="0"/>
			<psa30 value="0.0103826803016" flag="0"/>
		</comp>
	</station>
	<station code="NISR" name="NISR" netid="HL" source="National Observatory of Athens Seismic Network" insttype="" lat="36.6106" lon="27.131">
		<comp name=".HNE" depth="0.0">
			<acc value="0.261150468777" flag="0"/>
			<vel value="0.21195956827" flag="0"/>
			<psa03 value="0.691593481339" flag="0"/>
			<psa10 value="0.318396182184" flag="0"/>
			<psa30 value="0.0685977375967" flag="0"/>
		</comp>
		<comp name=".HNN" depth="0.0">
			<acc value="0.139747707671" flag="0"/>
			<vel value="0.16239173513" flag="0"/>
			<psa03 value="0.337243924088" flag="0"/>
			<psa10 value="0.165292574822" flag="0"/>
			<psa30 value="0.0373604316119" flag="0"/>
		</comp>
		<comp name=".HNZ" depth="0.0">
			<acc value="0.11106024265" flag="0"/>
			<vel value="0.108445559829" flag="0"/>
			<psa03 value="0.246208372596" flag="0"/>
			<psa10 value="0.221233125609" flag="0"/>
			<psa30 value="0.0253751343115" flag="0"/>
		</comp>
	</station>
	<station code="RODB" name="RODB" netid="HL" source="National Observatory of Athens Seismic Network" insttype="" lat="36.4471" lon="28.22116">
		<comp name="00.HNE" depth="0.0">
			<acc value="0.631495305774" flag="0"/>
			<vel value="0.701858106099" flag="0"/>
			<psa03 value="2.75222282125" flag="0"/>
			<psa10 value="0.797516791573" flag="0"/>
			<psa30 value="0.156966358251" flag="0"/>
		</comp>
		<comp name="00.HNN" depth="0.0">
			<acc value="1.28144952276" flag="0"/>
			<vel value="1.4282657941" flag="0"/>
			<psa03 value="3.35410285952" flag="0"/>
			<psa10 value="1.24529333457" flag="0"/>
			<psa30 value="0.284415401124" flag="0"/>
		</comp>
		<comp name="00.HNZ" depth="0.0">
			<acc value="0.821242365464" flag="0"/>
			<vel value="0.535177855369" flag="0"/>
			<psa03 value="1.94530053328" flag="0"/>
			<psa10 value="1.16660748202" flag="0"/>
			<psa30 value="0.0994833502836" flag="0"/>
		</comp>
	</station>
	<station code="SMG" name="SMG" netid="HL" source="National Observatory of Athens Seismic Network" insttype="" lat="37.70425" lon="26.83772">
		<comp name="00.HNE" depth="0.0">
			<acc value="0.103901559156" flag="0"/>
			<vel value="0.0512147602317" flag="0"/>
			<psa03 value="0.265982015837" flag="0"/>
			<psa10 value="0.0637324569623" flag="0"/>
			<psa30 value="0.0138549903251" flag="0"/>
		</comp>
		<comp name="00.HNN" depth="0.0">
			<acc value="0.0852066072324" flag="0"/>
			<vel value="0.040204738478" flag="0"/>
			<psa03 value="0.228413214588" flag="0"/>
			<psa10 value="0.0504121933103" flag="0"/>
			<psa30 value="0.00907490950157" flag="0"/>
		</comp>
		<comp name="00.HNZ" depth="0.0">
			<acc value="0.039861081058" flag="0"/>
			<vel value="0.0335369637466" flag="0"/>
			<psa03 value="0.153678117921" flag="0"/>
			<psa10 value="0.0464006988184" flag="0"/>
			<psa30 value="0.00878548782879" flag="0"/>
		</comp>
	</station>
	<station code="THRA" name="THRA" netid="HL" source="National Observatory of Athens Seismic Network" insttype="" lat="36.41502" lon="25.43244">
		<comp name="00.HNE" depth="0.0">
			<acc value="0.153521155036" flag="0"/>
			<vel value="0.13768251906" flag="0"/>
			<psa03 value="0.327362186138" flag="0"/>
			<psa10 value="0.227245388892" flag="0"/>
			<psa30 value="0.0378599813713" flag="0"/>
		</comp>
		<comp name="00.HNN" depth="0.0">
			<acc value="0.127673298883" flag="0"/>
			<vel value="0.0990217565588" flag="0"/>
			<psa03 value="0.223209432363" flag="0"/>
			<psa10 value="0.182781063349" flag="0"/>
			<psa30 value="0.0225515189274" flag="0"/>
		</comp>
		<comp name="00.HNZ" depth="0.0">
			<acc value="0.0878469166391" flag="0"/>
			<vel value="0.0691975329162" flag="0"/>
			<psa03 value="0.221829840972" flag="0"/>
			<psa10 value="0.107167346811" flag="0"/>
			<psa30 value="0.0117049012256" flag="0"/>
		</comp>
	</station>
	<station code="ALAN" name="ALAN" netid="KO" source="Bogazici University Kandilli Observatory And Earthquake Research Institute (KOERI)" insttype="" lat="36.557" lon="32.0327">
		<comp name=".HNE" depth="0.0">
			<acc value="0.210443104336" flag="0"/>
			<vel value="0.0835586328" flag="0"/>
			<psa03 value="0.410006369243" flag="0"/>
			<psa10 value="0.0893744581191" flag="0"/>
			<psa30 value="0.00671998849961" flag="0"/>
		</comp>
		<comp name=".HNN" depth="0.0">
			<acc value="0.180824322561" flag="0"/>
			<vel value="0.10512526036" flag="0"/>
			<psa03 value="0.457526725565" flag="0"/>
			<psa10 value="0.145581899086" flag="0"/>
			<psa30 value="0.00765084766444" flag="0"/>
		</comp>
		<comp name=".HNZ" depth="0.0">
			<acc value="0.0839083833117" flag="0"/>
			<vel value="0.048168450765" flag="0"/>
			<psa03 value="0.146579803943" flag="0"/>
			<psa10 value="0.0618040042119" flag="0"/>
			<psa30 value="0.00432065622227" flag="0"/>
		</comp>
	</station>
	<station code="BASM" name="BASM" netid="KO" source="Bogazici University Kandilli Observatory And Earthquake Research Institute (KOERI)" insttype="" lat="37.9194" lon="30.035">
		<comp name=".HNE" depth="0.0">
			<acc value="0.0474957380714" flag="0"/>
			<vel value="0.0647018054202" flag="0"/>
			<psa03 value="0.129196975332" flag="0"/>
			<psa10 value="0.127145332754" flag="0"/>
			<psa30 value="0.015164952937" flag="0"/>
		</comp>
		<comp name=".HNN" depth="0.0">
			<acc value="0.0618393644933" flag="0"/>
			<vel value="0.0769934658607" flag="0"/>
			<psa03 value="0.131811908975" flag="0"/>
			<psa10 value="0.116118559785" flag="0"/>
			<psa30 value="0.0171484943369" flag="0"/>
		</comp>
		<comp name=".HNZ" depth="0.0">
			<acc value="0.0376489380627" flag="0"/>
			<vel value="0.0378628903541" flag="0"/>
			<psa03 value="0.096163912054" flag="0"/>
			<psa10 value="0.057776383652" flag="0"/>
			<psa30 value="0.00876692326562" flag="0"/>
		</comp>
	</station>
	<station code="CAME" name="CAME" netid="KO" source="Bogazici University Kandilli Observatory And Earthquake Research Institute (KOERI)" insttype="" lat="36.9435" lon="29.3023">
		<comp name=".HNE" depth="0.0">
			<acc value="0.283016609755" flag="0"/>
			<vel value="0.143229840183" flag="0"/>
			<psa03 value="0.668434280489" flag="0"/>
			<psa10 value="0.195034190058" flag="0"/>
			<psa30 value="0.0294288428497" flag="0"/>
		</comp>
		<comp name=".HNN" depth="0.0">
			<acc value="0.199021191407" flag="0"/>
			<vel value="0.115618429603" flag="0"/>
			<psa03 value="0.638188151831" flag="0"/>
			<psa10 value="0.19303935791" flag="0"/>
			<psa30 value="0.0262066760637" flag="0"/>
		</comp>
		<comp name=".HNZ" depth="0.0">
			<acc value="0.128024680181" flag="0"/>
			<vel value="0.0836573135367" flag="0"/>
			<psa03 value="0.388936681813" flag="0"/>
			<psa10 value="0.108803115172" flag="0"/>
			<psa30 value="0.0273116409288" flag="0"/>
		</comp>
	</station>
	<station code="DEMR" name="DEMR" netid="KO" source="Bogazici University Kandilli Observatory And Earthquake Research Institute (KOERI)" insttype="" lat="36.2365" lon="29.9056">
		<comp name=".HNE" depth="0.0">
			<acc value="0.135833469212" flag="0"/>
			<vel value="0.148434370023" flag="0"/>
			<psa03 value="0.380807101602" flag="0"/>
			<psa10 value="0.197414382734" flag="0"/>
			<psa30 value="0.0330170305495" flag="0"/>
		</comp>
		<comp name=".HNN" depth="0.0">
			<acc value="0.129470580821" flag="0"/>
			<vel value="0.205965899077" flag="0"/>
			<psa03 value="0.277146359586" flag="0"/>
			<psa10 value="0.277986445238" flag="0"/>
			<psa30 value="0.0636965862531" flag="0"/>
		</comp>
		<comp name=".HNZ" depth="0.0">
			<acc value="0.0923450714126" flag="0"/>
			<vel value="0.0949363865503" flag="0"/>
			<psa03 value="0.241798684643" flag="0"/>
			<psa10 value="0.14171797312" flag="0"/>
			<psa30 value="0.0451915570521" flag="0"/>
		</comp>
	</station>
	<station code="DIDI" name="DIDI" netid="KO" source="Bogazici University Kandilli Observatory And Earthquake Research Institute (KOERI)" insttype="" lat="37.3767" lon="27.2398">
		<comp name=".HNE" depth="0.0">
			<acc value="0.191560316439" flag="0"/>
			<vel value="0.186924973144" flag="0"/>
			<psa03 value="0.545295498151" flag="0"/>
			<psa10 value="0.29823265645" flag="0"/>
			<psa30 value="0.0945355958526" flag="0"/>
		</comp>
		<comp name=".HNN" depth="0.0">
			<acc value="0.21643596175" flag="0"/>
			<vel value="0.257469794107" flag="0"/>
			<psa03 value="0.614352322828" flag="0"/>
			<psa10 value="0.328861835483" flag="0"/>
			<psa30 value="0.152669126914" flag="0"/>
		</comp>
		<comp name=".HNZ" depth="0.0">
			<acc value="0.191607642913" flag="0"/>
			<vel value="0.147387803215" flag="0"/>
			<psa03 value="0.561573826512" flag="0"/>
			<psa10 value="0.401820608643" flag="0"/>
			<psa30 value="0.0284313734389" flag="0"/>
		</comp>
	</station>
	<station code="GMLD" name="GMLD" netid="KO" source="Bogazici University Kandilli Observatory And Earthquake Research Institute (KOERI)" insttype="" lat="38.0766" lon="26.9157">
		<comp name=".HNE" depth="0.0">
			<acc value="0.141350442658" flag="0"/>
			<vel value="0.0841543646871" flag="0"/>
			<psa03 value="0.338916118196" flag="0"/>
			<psa10 value="0.12473693071" flag="0"/>
			<psa30 value="0.0113860884391" flag="0"/>
		</comp>
		<comp name=".HNN" depth="0.0">
			<acc value="0.235092121582" flag="0"/>
			<vel value="0.0801272710782" flag="0"/>
			<psa03 value="0.283024728166" flag="0"/>
			<psa10 value="0.0853360105919" flag="0"/>
			<psa30 value="0.0157783985748" flag="0"/>
		</comp>
		<comp name=".HNZ" depth="0.0">
			<acc value="0.0884480696972" flag="0"/>
			<vel value="0.0376392550352" flag="0"/>
			<psa03 value="0.319530875686" flag="0"/>
			<psa10 value="0.0358063407443" flag="0"/>
			<psa30 value="0.0118143768111" flag="0"/>
		</comp>
	</station>
	<station code="KEMT" name="KEMT" netid="KO" source="Bogazici University Kandilli Observatory And Earthquake Research Institute (KOERI)" insttype="" lat="36.6037" lon="30.5558">
		<comp name=".HNE" depth="0.0">
			<acc value="0.177351385091" flag="0"/>
			<vel value="0.125209100702" flag="0"/>
			<psa03 value="0.640555808677" flag="0"/>
			<psa10 value="0.119741539789" flag="0"/>
			<psa30 value="0.0200154375912" flag="0"/>
		</comp>
		<comp name=".HNN" depth="0.0">
			<acc value="0.292294127424" flag="0"/>
			<vel value="0.205134193569" flag="0"/>
			<psa03 value="0.900284722776" flag="0"/>
			<psa10 value="0.133800988659" flag="0"/>
			<psa30 value="0.027938497455" flag="0"/>
		</comp>
		<comp name=".HNZ" depth="0.0">
			<acc value="0.0680193085821" flag="0"/>
			<vel value="0.0523013315481" flag="0"/>
			<psa03 value="0.158790300328" flag="0"/>
			<psa10 value="0.0627148120484" flag="0"/>
			<psa30 value="0.0225855345142" flag="0"/>
		</comp>
	</station>
	<station code="KHL" name="KHL" netid="KO" source="Bogazici University Kandilli Observatory And Earthquake Research Institute (KOERI)" insttype="" lat="38.3231" lon="29.5286">
		<comp name=".HNE" depth="0.0">
			<acc value="0.0453171324651" flag="0"/>
			<vel value="0.0269959399176" flag="0"/>
			<psa03 value="0.132223009125" flag="0"/>
			<psa10 value="0.025939204595" flag="0"/>
			<psa30 value="0.00823714483707" flag="0"/>
		</comp>
		<comp name=".HNN" depth="0.0">
			<acc value="0.053249264856" flag="0"/>
			<vel value="0.0264601129499" flag="0"/>
			<psa03 value="0.235269731299" flag="0"/>
			<psa10 value="0.022679612413" flag="0"/>
			<psa30 value="0.00544572741936" flag="0"/>
		</comp>
		<comp name=".HNZ" depth="0.0">
			<acc value="0.0309117118379" flag="0"/>
			<vel value="0.0200332641924" flag="0"/>
			<psa03 value="0.094676761454" flag="0"/>
			<psa10 value="0.0204541981152" flag="0"/>
			<psa30 value="0.00471795712482" flag="0"/>
		</comp>
	</station>
	<station code="KUSD" name="KUSD" netid="KO" source="Bogazici University Kandilli Observatory And Earthquake Research Institute (KOERI)" insttype="" lat="37.8606" lon="27.2868">
		<comp name=".HNE" depth="0.0">
			<acc value="0.0836636523307" flag="0"/>
			<vel value="0.0668950978462" flag="0"/>
			<psa03 value="0.225224274169" flag="0"/>
			<psa10 value="0.092828669444" flag="0"/>
			<psa30 value="0.0257197204719" flag="0"/>
		</comp>
		<comp name=".HNN" depth="0.0">
			<acc value="0.0759902317507" flag="0"/>
			<vel value="0.0747862030261" flag="0"/>
			<psa03 value="0.237190150183" flag="0"/>
			<psa10 value="0.102899159064" flag="0"/>
			<psa30 value="0.0129125003898" flag="0"/>
		</comp>
		<comp name=".HNZ" depth="0.0">
			<acc value="0.0486192094863" flag="0"/>
			<vel value="0.0401376723474" flag="0"/>
			<psa03 value="0.131252507335" flag="0"/>
			<psa10 value="0.0593309553846" flag="0"/>
			<psa30 value="0.00761414689985" flag="0"/>
		</comp>
	</station>
	<station code="MNVG" name="MNVG" netid="KO" source="Bogazici University Kandilli Observatory And Earthquake Research Institute (KOERI)" insttype="" lat="36.7935" lon="31.4161">
		<comp name=".HNE" depth="0.0">
			<acc value="0.128800575112" flag="0"/>
			<vel value="0.114496998819" flag="0"/>
			<psa03 value="0.34815429268" flag="0"/>
			<psa10 value="0.195645705568" flag="0"/>
			<psa30 value="0.0300076645272" flag="0"/>
		</comp>
		<comp name=".HNN" depth="0.0">
			<acc value="0.12367517396" flag="0"/>
			<vel value="0.10202879472" flag="0"/>
			<psa03 value="0.225920007759" flag="0"/>
			<psa10 value="0.136398875756" flag="0"/>
			<psa30 value="0.0206887955312" flag="0"/>
		</comp>
		<comp name=".HNZ" depth="0.0">
			<acc value="0.0890927905071" flag="0"/>
			<vel value="0.0595952125551" flag="0"/>
			<psa03 value="0.214246692792" flag="0"/>
			<psa10 value="0.0704433765279" flag="0"/>
			<psa30 value="0.0148832359414" flag="0"/>
		</comp>
	</station>
	<station code="NAZL" name="NAZL" netid="KO" source="Bogazici University Kandilli Observatory And Earthquake Research Institute (KOERI)" insttype="" lat="37.9641" lon="28.2922">
		<comp name=".HNE" depth="0.0">
			<acc value="0.148841005637" flag="0"/>
			<vel value="0.10885198886" flag="0"/>
			<psa03 value="0.443362995623" flag="0"/>
			<psa10 value="0.19262618554" flag="0"/>
			<psa30 value="0.016916845658" flag="0"/>
		</comp>
		<comp name=".HNN" depth="0.0">
			<acc value="0.136787814997" flag="0"/>
			<vel value="0.0855228702839" flag="0"/>
			<psa03 value="0.502117221137" flag="0"/>
			<psa10 value="0.114962125677" flag="0"/>
			<psa30 value="0.0151924530921" flag="0"/>
		</comp>
		<comp name=".HNZ" depth="0.0">
			<acc value="0.0556942876296" flag="0"/>
			<vel value="0.0532346517421" flag="0"/>
			<psa03 value="0.164850087176" flag="0"/>
			<psa10 value="0.0816183668164" flag="0"/>
			<psa30 value="0.0063441748538" flag="0"/>
		</comp>
	</station>
	<station code="ODEM" name="ODEM" netid="KO" source="Bogazici University Kandilli Observatory And Earthquake Research Institute (KOERI)" insttype="" lat="38.2762" lon="28.0747">
		<comp name=".HNE" depth="0.0">
			<acc value="0.0482162792318" flag="0"/>
			<vel value="0.0562277344437" flag="0"/>
			<psa03 value="0.153488647036" flag="0"/>
			<psa10 value="0.0559650699114" flag="0"/>
			<psa30 value="0.0163087737096" flag="0"/>
		</comp>
		<comp name=".HNN" depth="0.0">
			<acc value="0.058017055486" flag="0"/>
			<vel value="0.0471270282831" flag="0"/>
			<psa03 value="0.117680879114" flag="0"/>
			<psa10 value="0.0444188500308" flag="0"/>
			<psa30 value="0.00802576333408" flag="0"/>
		</comp>
		<comp name=".HNZ" depth="0.0">
			<acc value="0.0414617667676" flag="0"/>
			<vel value="0.0389636863118" flag="0"/>
			<psa03 value="0.0769269554084" flag="0"/>
