<?xml version="1.0" encoding="UTF-8" standalone="yes"?>
<!DOCTYPE earthquake SYSTEM "stationlist.dtd">
<stationlist created="" xmlns="ch.ethz.sed.shakemap.usgs.xml">
  <station code="DIVS" name="DIVS" netid="MN" insttype="" lat="44.0981" lon="19.9917">
    <comp name="--.HHE">
      <acc value="0.0124397260" flag="0"/>
      <vel value="0.0044646263" flag="0"/>
      <psa03 value="0.0181055707" flag="0"/>
      <psa10 value="0.0040975425" flag="0"/>
      <psa30 value="0.0002555703" flag="0"/>
    </comp>
    <comp name="--.HHN">
      <acc value="0.0162164227" flag="0"/>
      <vel value="0.0046135329" flag="0"/>
      <psa03 value="0.0188051207" flag="0"/>
      <psa10 value="0.0029774446" flag="0"/>
      <psa30 value="0.0002555454" flag="0"/>
    </comp>
    <comp name="--.HHZ">
      <acc value="0.0128180028" flag="0"/>
      <vel value="0.0040021513" flag="0"/>
      <psa03 value="0.0122056258" flag="0"/>
      <psa10 value="0.0024665445" flag="0"/>
      <psa30 value="0.0003103292" flag="0"/>
    </comp>
  </station>
</stationlist>
