<stationlist created="1778205385">
	<station code="TEFL" name="TEFL" netid="HC" source="Seismological Network of Crete (HC)" insttype="" lat="35.093273" lon="25.163418">
		<comp name="--.HNE" depth="0.0">
			<acc value="0.257977805551376" flag="0"/>
			<vel value="0.142896600298784" flag="0"/>
			<psa03 value="0.354586114589873" flag="0"/>
			<psa10 value="0.146591510968168" flag="0"/>
			<psa30 value="0.0689675620958469" flag="0"/>
		</comp>
		<comp name="--.HNN" depth="0.0">
			<acc value="0.216247010555371" flag="0"/>
			<vel value="0.130405406683523" flag="0"/>
			<psa03 value="0.371154712178149" flag="0"/>
			<psa10 value="0.147272616088039" flag="0"/>
			<psa30 value="0.071040599424396" flag="0"/>
		</comp>
		<comp name="--.HNZ" depth="0.0">
			<acc value="0.217378628485987" flag="0"/>
			<vel value="0.140752818160437" flag="0"/>
			<psa03 value="0.371147920061538" flag="0"/>
			<psa10 value="0.154123554929115" flag="0"/>
			<psa30 value="0.0733643600287983" flag="0"/>
		</comp>
	</station>
	<station code="AGN1" name="AGN1" netid="HI" source="ITSAK Strong Motion Network" insttype="" lat="35.1879" lon="25.7155">
		<comp name="--.HNE" depth="0.0">
			<acc value="0.00943088651645741" flag="0"/>
			<vel value="0.00285552884357759" flag="0"/>
			<psa03 value="0.003165580797942" flag="0"/>
			<psa10 value="0.00233666448005405" flag="0"/>
			<psa30 value="0.00110545614771115" flag="0"/>
		</comp>
		<comp name="--.HNN" depth="0.0">
			<acc value="0.136331966828714" flag="0"/>
			<vel value="0.0327828040558622" flag="0"/>
			<psa03 value="0.153108653113517" flag="0"/>
			<psa10 value="0.0257672650798524" flag="0"/>
			<psa30 value="0.00100563234737429" flag="0"/>
		</comp>
		<comp name="--.HNZ" depth="0.0">
			<acc value="0.0712905270387356" flag="0"/>
			<vel value="0.0203455602812752" flag="0"/>
			<psa03 value="0.0472918568117507" flag="0"/>
			<psa10 value="0.0101643630266664" flag="0"/>
			<psa30 value="0.000678417441826021" flag="0"/>
		</comp>
	</station>
	<station code="ARK1" name="ARK1" netid="HI" source="ITSAK Strong Motion Network" insttype="" lat="35.148777" lon="25.264194">
		<comp name="--.HNE" depth="0.0">
			<acc value="0.0290080954743939" flag="0"/>
			<vel value="0.013477670402434" flag="0"/>
			<psa03 value="0.0811174465493968" flag="0"/>
			<psa10 value="0.0127667813616091" flag="0"/>
			<psa30 value="0.00101830933299571" flag="0"/>
		</comp>
		<comp name="--.HNN" depth="0.0">
			<acc value="0.0383690206797665" flag="0"/>
			<vel value="0.0171355343061914" flag="0"/>
			<psa03 value="0.0797463609300368" flag="0"/>
			<psa10 value="0.0173752422745274" flag="0"/>
			<psa30 value="0.00106816930264066" flag="0"/>
		</comp>
		<comp name="--.HNZ" depth="0.0">
			<acc value="0.0212647232549705" flag="0"/>
			<vel value="0.0104843629009825" flag="0"/>
			<psa03 value="0.0553350146314825" flag="0"/>
			<psa10 value="0.0123765586362686" flag="0"/>
			<psa30 value="0.000971320491048871" flag="0"/>
		</comp>
	</station>
	<station code="GOR1" name="GOR1" netid="HI" source="ITSAK Strong Motion Network" insttype="" lat="35.0582" lon="24.9628">
		<comp name="--.HNE" depth="0.0">
			<acc value="0.0115808987808009" flag="0"/>
			<vel value="0.00765035817687923" flag="0"/>
			<psa03 value="0.0402698317412188" flag="0"/>
			<psa10 value="0.0134954583828856" flag="0"/>
			<psa30 value="0.000779503982063204" flag="0"/>
		</comp>
		<comp name="--.HNN" depth="0.0">
			<acc value="0.0106984547721277" flag="0"/>
			<vel value="0.00812549374159459" flag="0"/>
			<psa03 value="0.0396338885714381" flag="0"/>
			<psa10 value="0.0157157001505063" flag="0"/>
			<psa30 value="0.000777559217815451" flag="0"/>
		</comp>
		<comp name="--.HNZ" depth="0.0">
			<acc value="0.00857668860082784" flag="0"/>
			<vel value="0.00505392193849279" flag="0"/>
			<psa03 value="0.0244031322127447" flag="0"/>
			<psa10 value="0.00558312141689333" flag="0"/>
			<psa30 value="0.000422303105716531" flag="0"/>
		</comp>
	</station>
	<station code="HER1" name="HER1" netid="HI" source="ITSAK Strong Motion Network" insttype="" lat="35.317672" lon="25.10217">
		<comp name="--.HNE" depth="0.0">
			<acc value="0.0216572434050971" flag="0"/>
			<vel value="0.0271422669374828" flag="0"/>
			<psa03 value="0.0663212632498691" flag="0"/>
			<psa10 value="0.0421975591311975" flag="0"/>
			<psa30 value="0.0020678011483445" flag="0"/>
		</comp>
		<comp name="--.HNN" depth="0.0">
			<acc value="0.0215681099415668" flag="0"/>
			<vel value="0.0300373751248383" flag="0"/>
			<psa03 value="0.0676213650002295" flag="0"/>
			<psa10 value="0.0448327874521408" flag="0"/>
			<psa30 value="0.00262691943718713" flag="0"/>
		</comp>
		<comp name="--.HNZ" depth="0.0">
			<acc value="0.0311498772786365" flag="0"/>
			<vel value="0.0300187324247696" flag="0"/>
			<psa03 value="0.0483069657244009" flag="0"/>
			<psa10 value="0.0353331681489837" flag="0"/>
			<psa30 value="0.00163066864879508" flag="0"/>
		</comp>
	</station>
	<station code="KSS1" name="KSS1" netid="HI" source="ITSAK Strong Motion Network" insttype="" lat="35.4189" lon="26.9207">
		<comp name="--.HNE" depth="0.0">
			<acc value="0.00871117904054649" flag="0"/>
			<vel value="0.00276615380516491" flag="0"/>
			<psa03 value="0.019150896257056" flag="0"/>
			<psa10 value="0.00428688882909597" flag="0"/>
			<psa30 value="0.000200781894565128" flag="0"/>
		</comp>
		<comp name="--.HNN" depth="0.0">
			<acc value="0.0147671121491084" flag="0"/>
			<vel value="0.0049519258293308" flag="0"/>
			<psa03 value="0.0408280041340671" flag="0"/>
			<psa10 value="0.00472637763057217" flag="0"/>
			<psa30 value="0.00029782136982912" flag="0"/>
		</comp>
		<comp name="--.HNZ" depth="0.0">
			<acc value="0.00862226519296129" flag="0"/>
			<vel value="0.00241472038686737" flag="0"/>
			<psa03 value="0.0113470264243956" flag="0"/>
			<psa10 value="0.00210984031344121" flag="0"/>
			<psa30 value="0.000186761135029453" flag="0"/>
		</comp>
	</station>
	<station code="RTH1" name="RTH1" netid="HI" source="ITSAK Strong Motion Network" insttype="" lat="35.365393" lon="24.471773">
		<comp name="--.HNE" depth="0.0">
			<acc value="0.00557244057541112" flag="0"/>
			<vel value="0.00335199173176942" flag="0"/>
			<psa03 value="0.0223536552991242" flag="0"/>
			<psa10 value="0.00340147251836078" flag="0"/>
			<psa30 value="0.000429863710736174" flag="0"/>
		</comp>
		<comp name="--.HNN" depth="0.0">
			<acc value="0.00555372073433139" flag="0"/>
			<vel value="0.00396831208323713" flag="0"/>
			<psa03 value="0.0144714156915175" flag="0"/>
			<psa10 value="0.00333056422728449" flag="0"/>
			<psa30 value="0.000371320457532965" flag="0"/>
		</comp>
		<comp name="--.HNZ" depth="0.0">
			<acc value="0.00490766626720157" flag="0"/>
			<vel value="0.00149304794177064" flag="0"/>
			<psa03 value="0.00898622419950111" flag="0"/>
			<psa10 value="0.00134214711378437" flag="0"/>
			<psa30 value="0.000236553222573386" flag="0"/>
		</comp>
	</station>
	<station code="SIT2" name="SIT2" netid="HI" source="ITSAK Strong Motion Network" insttype="" lat="35.2059" lon="26.107">
		<comp name="--.HNE" depth="0.0">
			<acc value="0.59612703264339" flag="0"/>
			<vel value="0.217583578578983" flag="0"/>
			<psa03 value="1.78890017252363" flag="0"/>
			<psa10 value="0.0900311191197918" flag="0"/>
			<psa30 value="0.00510900344640463" flag="0"/>
		</comp>
		<comp name="--.HNN" depth="0.0">
			<acc value="0.376496789048354" flag="0"/>
			<vel value="0.168007856751178" flag="0"/>
			<psa03 value="0.930642150475114" flag="0"/>
			<psa10 value="0.0820135904978686" flag="0"/>
			<psa30 value="0.00650472590616774" flag="0"/>
		</comp>
		<comp name="--.HNZ" depth="0.0">
			<acc value="0.447475639888437" flag="0"/>
			<vel value="0.156501356767274" flag="0"/>
			<psa03 value="1.02646458157424" flag="0"/>
			<psa10 value="0.0459007794513693" flag="0"/>
			<psa30 value="0.00379191744592103" flag="0"/>
		</comp>
	</station>
	<station code="HERG" name="HERG" netid="HL" source="National Observatory of Athens Seismic Network" insttype="" lat="35.32622" lon="25.06586">
		<comp name="00.HNE" depth="0.0">
			<acc value="0.0164394820426571" flag="0"/>
			<vel value="0.0171096434423915" flag="0"/>
			<psa03 value="0.0366474329209081" flag="0"/>
			<psa10 value="0.026073564745702" flag="0"/>
			<psa30 value="0.00162440948415614" flag="0"/>
		</comp>
		<comp name="00.HNN" depth="0.0">
			<acc value="0.0186749302507065" flag="0"/>
			<vel value="0.016476208097272" flag="0"/>
			<psa03 value="0.0668593249354817" flag="0"/>
			<psa10 value="0.0203522982398745" flag="0"/>
			<psa30 value="0.00200586371195998" flag="0"/>
		</comp>
		<comp name="00.HNZ" depth="0.0">
			<acc value="0.0142459172264767" flag="0"/>
			<vel value="0.0123500831459621" flag="0"/>
			<psa03 value="0.0323872991454531" flag="0"/>
			<psa10 value="0.0124008236812088" flag="0"/>
			<psa30 value="0.000821963773982704" flag="0"/>
		</comp>
	</station>
	<station code="KARP" name="KARP" netid="HL" source="National Observatory of Athens Seismic Network" insttype="" lat="35.5471" lon="27.16106">
		<comp name="--.HNE" depth="0.0">
			<acc value="0.00857842867284268" flag="0"/>
			<vel value="0.00338052764230802" flag="0"/>
			<psa03 value="0.0172316389073424" flag="0"/>
			<psa10 value="0.00470309468194109" flag="0"/>
			<psa30 value="0.000236397743523662" flag="0"/>
		</comp>
		<comp name="--.HNN" depth="0.0">
			<acc value="0.00911614754877002" flag="0"/>
			<vel value="0.0040164655772902" flag="0"/>
			<psa03 value="0.0164241205694657" flag="0"/>
			<psa10 value="0.00535201329461445" flag="0"/>
			<psa30 value="0.000319999193167739" flag="0"/>
		</comp>
		<comp name="--.HNZ" depth="0.0">
			<acc value="0.00479020266623252" flag="0"/>
			<vel value="0.00226319489853068" flag="0"/>
			<psa03 value="0.0131614539129787" flag="0"/>
			<psa10 value="0.00257270792927412" flag="0"/>
			<psa30 value="0.000225799906052274" flag="0"/>
		</comp>
	</station>
	<station code="SIVA" name="SIVA" netid="HL" source="National Observatory of Athens Seismic Network" insttype="" lat="35.01777" lon="24.81204">
		<comp name="00.HNE" depth="0.0">
			<acc value="0.0159243418878719" flag="0"/>
			<vel value="0.0102964611155983" flag="0"/>
			<psa03 value="0.0391181825334441" flag="0"/>
			<psa10 value="0.0099104046406697" flag="0"/>
			<psa30 value="0.000605240823400849" flag="0"/>
		</comp>
		<comp name="00.HNN" depth="0.0">
			<acc value="0.0120261648382503" flag="0"/>
			<vel value="0.00630228841401231" flag="0"/>
			<psa03 value="0.0322042844174589" flag="0"/>
			<psa10 value="0.00958576625997022" flag="0"/>
			<psa30 value="0.000689399002633863" flag="0"/>
		</comp>
		<comp name="00.HNZ" depth="0.0">
			<acc value="0.00753294596255079" flag="0"/>
			<vel value="0.0048355747262147" flag="0"/>
			<psa03 value="0.0200999369909303" flag="0"/>
			<psa10 value="0.00551828102778577" flag="0"/>
			<psa30 value="0.000335319947675868" flag="0"/>
		</comp>
	</station>
</stationlist>
