<?xml version="1.0" encoding="UTF-8" standalone="yes"?>
<!DOCTYPE earthquake SYSTEM "stationlist.dtd">
<stationlist created="" xmlns="ch.ethz.sed.shakemap.usgs.xml">
  <station code="ZKR" name="ZKR" netid="GE" insttype="STS-2/N" commtype="DIG" lat="35.1147" lon="26.2169">
    <comp name="--.HHN">
      <acc value="0.8383130649" flag="0"/>
      <vel value="0.2336191298" flag="0"/>
      <psa03 value="0.8882666872" flag="0"/>
      <psa10 value="0.0431575598" flag="0"/>
      <psa30 value="0.0041927851" flag="0"/>
    </comp>
    <comp name="--.HHE">
      <acc value="1.1645152241" flag="0"/>
      <vel value="0.2379314973" flag="0"/>
      <psa03 value="0.9537447586" flag="0"/>
      <psa10 value="0.0541483871" flag="0"/>
      <psa30 value="0.0049410749" flag="0"/>
    </comp>
    <comp name="--.HHZ">
      <acc value="0.6205177349" flag="0"/>
      <vel value="0.1264557602" flag="0"/>
      <psa03 value="0.5705409925" flag="0"/>
      <psa10 value="0.0361522769" flag="0"/>
      <psa30 value="0.0032153407" flag="0"/>
    </comp>
  </station>
  <station code="KNSS" name="KNSS" netid="HC" insttype="60" commtype="DIG" lat="35.3042" lon="25.1802">
    <comp name="--.HHE">
      <acc value="0.0000000000" flag="0"/>
      <vel value="-100.0000000000" flag="0"/>
      <psa03 value="0.0000000000" flag="0"/>
      <psa10 value="0.0000000000" flag="0"/>
      <psa30 value="0.0000000000" flag="0"/>
    </comp>
    <comp name="--.HHZ">
      <acc value="0.0111015331" flag="0"/>
      <vel value="0.0042199964" flag="0"/>
      <psa03 value="0.0229691681" flag="0"/>
      <psa10 value="0.0036531896" flag="0"/>
      <psa30 value="0.0003802725" flag="0"/>
    </comp>
    <comp name="--.HHN">
      <acc value="0.0119966282" flag="0"/>
      <vel value="0.0065009019" flag="0"/>
      <psa03 value="0.0477760632" flag="0"/>
      <psa10 value="0.0062468285" flag="0"/>
      <psa30 value="0.0003037757" flag="0"/>
    </comp>
  </station>
  <station code="PFKS" name="PFKS" netid="HC" insttype="120" commtype="DIG" lat="35.0429" lon="25.4733">
    <comp name="--.HHE">
      <acc value="0.1011958521" flag="0"/>
      <vel value="0.0414674121" flag="0"/>
      <psa03 value="0.3234587786" flag="0"/>
      <psa10 value="0.0172594951" flag="0"/>
      <psa30 value="0.0013075431" flag="0"/>
    </comp>
    <comp name="--.HHN">
      <acc value="0.1190756057" flag="0"/>
      <vel value="0.0410581524" flag="0"/>
      <psa03 value="0.2098006240" flag="0"/>
      <psa10 value="0.0166849531" flag="0"/>
      <psa30 value="0.0013918649" flag="0"/>
    </comp>
    <comp name="--.HHZ">
      <acc value="0.0759402415" flag="0"/>
      <vel value="0.0227337861" flag="0"/>
      <psa03 value="0.1499433283" flag="0"/>
      <psa10 value="0.0113721648" flag="0"/>
      <psa30 value="0.0009137795" flag="0"/>
    </comp>
  </station>
  <station code="STIA" name="STIA" netid="HC" insttype="120" commtype="DIG" lat="35.2021" lon="26.0909">
    <comp name="--.HHE">
      <acc value="0.3801322781" flag="0"/>
      <vel value="0.0965417531" flag="0"/>
      <psa03 value="0.5207290949" flag="0"/>
      <psa10 value="0.0450539531" flag="0"/>
      <psa30 value="0.0027330594" flag="0"/>
    </comp>
    <comp name="--.HHN">
      <acc value="0.3818971976" flag="0"/>
      <vel value="0.1412284624" flag="0"/>
      <psa03 value="0.7269794729" flag="0"/>
      <psa10 value="0.0532051499" flag="0"/>
      <psa30 value="0.0029710433" flag="0"/>
    </comp>
    <comp name="--.HHZ">
      <acc value="0.6263063243" flag="0"/>
      <vel value="0.1477329353" flag="0"/>
      <psa03 value="0.6168652357" flag="0"/>
      <psa10 value="0.0347793391" flag="0"/>
      <psa30 value="0.0027892852" flag="0"/>
    </comp>
  </station>
  <station code="AGN1" name="AGN1" netid="HI" insttype="unknown" commtype="DIG" lat="35.1879" lon="25.7155">
    <comp name="--.HNE">
      <acc value="0.0053598460" flag="0"/>
      <vel value="0.0019807614" flag="0"/>
      <psa03 value="0.0031172248" flag="0"/>
      <psa10 value="0.0021587498" flag="0"/>
      <psa30 value="0.0010118641" flag="0"/>
    </comp>
    <comp name="--.HNN">
      <acc value="0.1346601964" flag="0"/>
      <vel value="0.0324234132" flag="0"/>
      <psa03 value="0.1500366043" flag="0"/>
      <psa10 value="0.0257443946" flag="0"/>
      <psa30 value="0.0010217709" flag="0"/>
    </comp>
    <comp name="--.HNZ">
      <acc value="0.0711841870" flag="0"/>
      <vel value="0.0196980869" flag="0"/>
      <psa03 value="0.0465861616" flag="0"/>
      <psa10 value="0.0100995078" flag="0"/>
      <psa30 value="0.0006863111" flag="0"/>
    </comp>
  </station>
  <station code="ARK1" name="ARK1" netid="HI" insttype="unknown" commtype="DIG" lat="35.1488" lon="25.2642">
    <comp name="--.HNE">
      <acc value="0.0290558084" flag="0"/>
      <vel value="0.0131517312" flag="0"/>
      <psa03 value="0.0803046601" flag="0"/>
      <psa10 value="0.0127142459" flag="0"/>
      <psa30 value="0.0009288133" flag="0"/>
    </comp>
    <comp name="--.HNZ">
      <acc value="0.0214061006" flag="0"/>
      <vel value="0.0102798009" flag="0"/>
      <psa03 value="0.0545667498" flag="0"/>
      <psa10 value="0.0124041461" flag="0"/>
      <psa30 value="0.0008706657" flag="0"/>
    </comp>
    <comp name="--.HNN">
      <acc value="0.0385330190" flag="0"/>
      <vel value="0.0171342224" flag="0"/>
      <psa03 value="0.0801583746" flag="0"/>
      <psa10 value="0.0173765318" flag="0"/>
      <psa30 value="0.0009148391" flag="0"/>
    </comp>
  </station>
  <station code="KSS1" name="KSS1" netid="HI" insttype="CMG-5TD,ACCELEROMETER,GURALP" commtype="DIG" lat="35.4189" lon="26.9207">
    <comp name="--.HNE">
      <acc value="0.0088358444" flag="0"/>
      <vel value="0.0027634151" flag="0"/>
      <psa03 value="0.0190081034" flag="0"/>
      <psa10 value="0.0042725113" flag="0"/>
      <psa30 value="0.0001522487" flag="0"/>
    </comp>
    <comp name="--.HNN">
      <acc value="0.0147661417" flag="0"/>
      <vel value="0.0049149293" flag="0"/>
      <psa03 value="0.0408242015" flag="0"/>
      <psa10 value="0.0047318151" flag="0"/>
      <psa30 value="0.0003051608" flag="0"/>
    </comp>
    <comp name="--.HNZ">
      <acc value="0.0086400312" flag="0"/>
      <vel value="0.0024040200" flag="0"/>
      <psa03 value="0.0112565039" flag="0"/>
      <psa10 value="0.0021067459" flag="0"/>
      <psa30 value="0.0001968413" flag="0"/>
    </comp>
  </station>
  <station code="SIT2" name="SIT2" netid="HI" insttype="CMG-5TD,ACCELEROMETER,GURALP" commtype="DIG" lat="35.2059" lon="26.107">
    <comp name="--.HNE">
      <acc value="0.5955725350" flag="0"/>
      <vel value="0.2155108987" flag="0"/>
      <psa03 value="1.7723664400" flag="0"/>
      <psa10 value="0.0894707592" flag="0"/>
      <psa30 value="0.0051000802" flag="0"/>
    </comp>
    <comp name="--.HNN">
      <acc value="0.3803268333" flag="0"/>
      <vel value="0.1674625012" flag="0"/>
      <psa03 value="0.9108143284" flag="0"/>
      <psa10 value="0.0817205331" flag="0"/>
      <psa30 value="0.0064573710" flag="0"/>
    </comp>
    <comp name="--.HNZ">
      <acc value="0.4540980402" flag="0"/>
      <vel value="0.1551731247" flag="0"/>
      <psa03 value="0.9831089301" flag="0"/>
      <psa10 value="0.0455424341" flag="0"/>
      <psa30 value="0.0037863401" flag="0"/>
    </comp>
  </station>
</stationlist>
