<?xml version="1.0" encoding="UTF-8" standalone="yes"?>
<!DOCTYPE earthquake SYSTEM "stationlist.dtd">
<stationlist created="" xmlns="ch.ethz.sed.shakemap.usgs.xml">
  <station code="TAHT" name="TAHT" netid="KO" insttype="CMG-3ESPC" lat="36.3755" lon="36.1855">
    <comp name="--.HHZ">
      <acc value="0.2646090302" flag="0"/>
      <vel value="0.0865398537" flag="0"/>
      <psa03 value="0.3857432849" flag="0"/>
      <psa10 value="0.0917268008" flag="0"/>
      <psa30 value="0.0073829331" flag="0"/>
    </comp>
    <comp name="--.HHE">
      <acc value="0.5040170056" flag="0"/>
      <vel value="0.1698919416" flag="0"/>
      <psa03 value="1.1353447258" flag="0"/>
      <psa10 value="0.0881792467" flag="0"/>
      <psa30 value="0.0099255353" flag="0"/>
    </comp>
    <comp name="--.HHN">
      <acc value="0.3984846317" flag="0"/>
      <vel value="0.1380247720" flag="0"/>
      <psa03 value="0.7473090064" flag="0"/>
      <psa10 value="0.1626550200" flag="0"/>
      <psa30 value="0.0080097564" flag="0"/>
    </comp>
  </station>
</stationlist>
