<?xml version="1.0" encoding="UTF-8" standalone="yes"?>
<!DOCTYPE earthquake SYSTEM "stationlist.dtd">
<stationlist created="" xmlns="ch.ethz.sed.shakemap.usgs.xml">
  <station code="TRIZ" name="TRIZ" netid="CL" insttype="STS-2" lat="38.3654" lon="22.0727">
    <comp name="00.HH2">
      <acc value="0.0180758953" flag="0"/>
      <vel value="0.0092084840" flag="0"/>
      <psa03 value="0.0629142629" flag="0"/>
      <psa10 value="0.0142652619" flag="0"/>
      <psa30 value="0.0007200590" flag="0"/>
    </comp>
    <comp name="00.HH3">
      <acc value="0.0219155766" flag="0"/>
      <vel value="0.0097421867" flag="0"/>
      <psa03 value="0.0694222701" flag="0"/>
      <psa10 value="0.0095708785" flag="0"/>
      <psa30 value="0.0007804188" flag="0"/>
    </comp>
    <comp name="00.HHZ">
      <acc value="0.0147672219" flag="0"/>
      <vel value="0.0047249557" flag="0"/>
      <psa03 value="0.0167554714" flag="0"/>
      <psa10 value="0.0070359053" flag="0"/>
      <psa30 value="0.0006343860" flag="0"/>
    </comp>
  </station>
  <station code="ZIRI" name="ZIRI" netid="CL" insttype="TRILLIUM-40" lat="38.3051" lon="21.9476">
    <comp name="01.HHN">
      <acc value="0.0194503280" flag="0"/>
      <vel value="0.0077219414" flag="0"/>
      <psa03 value="0.0580392003" flag="0"/>
      <psa10 value="0.0050828679" flag="0"/>
      <psa30 value="0.0007602173" flag="0"/>
    </comp>
    <comp name="01.HHE">
      <acc value="0.0179839912" flag="0"/>
      <vel value="0.0080011578" flag="0"/>
      <psa03 value="0.0444097245" flag="0"/>
      <psa10 value="0.0066803848" flag="0"/>
      <psa30 value="0.0007485324" flag="0"/>
    </comp>
    <comp name="01.HHZ">
      <acc value="0.0162724342" flag="0"/>
      <vel value="0.0059253191" flag="0"/>
      <psa03 value="0.0466539306" flag="0"/>
      <psa10 value="0.0027461703" flag="0"/>
      <psa30 value="0.0007106243" flag="0"/>
    </comp>
  </station>
  <station code="ANTK" name="ANTK" netid="HA" insttype="25" lat="38.3605" lon="22.6385">
    <comp name="--.HHZ">
      <acc value="0.0035208103" flag="0"/>
      <vel value="0.0016462215" flag="0"/>
      <psa03 value="0.0035956473" flag="0"/>
      <psa10 value="0.0018663809" flag="0"/>
      <psa30 value="0.0001155624" flag="0"/>
    </comp>
    <comp name="--.HHE">
      <acc value="0.0038729333" flag="0"/>
      <vel value="0.0013803925" flag="0"/>
      <psa03 value="0.0040357477" flag="0"/>
      <psa10 value="0.0017538711" flag="0"/>
      <psa30 value="0.0001859746" flag="0"/>
    </comp>
    <comp name="--.HHN">
      <acc value="0.0002893914" flag="0"/>
      <vel value="0.0000579321" flag="0"/>
      <psa03 value="0.0002068705" flag="0"/>
      <psa10 value="0.0000256247" flag="0"/>
      <psa30 value="0.0000021589" flag="0"/>
    </comp>
  </station>
  <station code="AXAR" name="AXAR" netid="HA" insttype="Horizon,120s,1200" lat="38.7664" lon="22.659">
    <comp name="--.HHZ">
      <acc value="0.0237612635" flag="0"/>
      <vel value="0.0084661998" flag="0"/>
      <psa03 value="0.0559512025" flag="0"/>
      <psa10 value="0.0059322307" flag="0"/>
      <psa30 value="0.0003157211" flag="0"/>
    </comp>
    <comp name="--.HHE">
      <acc value="0.0618975311" flag="0"/>
      <vel value="0.0229103481" flag="0"/>
      <psa03 value="0.1164620807" flag="0"/>
      <psa10 value="0.0100078757" flag="0"/>
      <psa30 value="0.0007511376" flag="0"/>
    </comp>
    <comp name="--.HHN">
      <acc value="0.0512300795" flag="0"/>
      <vel value="0.0256658985" flag="0"/>
      <psa03 value="0.1299143742" flag="0"/>
      <psa10 value="0.0112514029" flag="0"/>
      <psa30 value="0.0010660514" flag="0"/>
    </comp>
  </station>
  <station code="KALE" name="KALE" netid="HA" insttype="40," lat="38.3911" lon="22.1398">
    <comp name="--.HHZ">
      <acc value="0.0175325595" flag="0"/>
      <vel value="0.0045464319" flag="0"/>
      <psa03 value="0.0196724134" flag="0"/>
      <psa10 value="0.0037618424" flag="0"/>
      <psa30 value="0.0006471494" flag="0"/>
    </comp>
    <comp name="--.HHE">
      <acc value="0.0273406442" flag="0"/>
      <vel value="0.0077648163" flag="0"/>
      <psa03 value="0.0487219947" flag="0"/>
      <psa10 value="0.0122173312" flag="0"/>
      <psa30 value="0.0008118726" flag="0"/>
    </comp>
    <comp name="--.HHN">
      <acc value="0.0297970799" flag="0"/>
      <vel value="0.0091850071" flag="0"/>
      <psa03 value="0.0441603565" flag="0"/>
      <psa10 value="0.0095790029" flag="0"/>
      <psa30 value="0.0006460975" flag="0"/>
    </comp>
  </station>
  <station code="ART2" name="ART2" netid="HI" insttype="CMG-5TD,ACCELEROMETER,GURALP" lat="39.1474" lon="20.9937">
    <comp name="--.HNN">
      <acc value="0.1309445905" flag="0"/>
      <vel value="0.0176503642" flag="0"/>
      <psa03 value="0.0571582658" flag="0"/>
      <psa10 value="0.0105616338" flag="0"/>
      <psa30 value="0.0005728792" flag="0"/>
    </comp>
    <comp name="--.HNZ">
      <acc value="0.1282517982" flag="0"/>
      <vel value="0.0146693128" flag="0"/>
      <psa03 value="0.0429883188" flag="0"/>
      <psa10 value="0.0082600950" flag="0"/>
      <psa30 value="0.0007534105" flag="0"/>
    </comp>
    <comp name="--.HNE">
      <acc value="0.1276799883" flag="0"/>
      <vel value="0.0183271615" flag="0"/>
      <psa03 value="0.0493247465" flag="0"/>
      <psa10 value="0.0101037183" flag="0"/>
      <psa30 value="0.0009623943" flag="0"/>
    </comp>
  </station>
  <station code="LAM2" name="LAM2" netid="HI" insttype="CMG-5TD,ACCELEROMETER,GURALP" lat="38.902" lon="22.4313">
    <comp name="--.HNN">
      <acc value="0.0658824412" flag="0"/>
      <vel value="0.0208228859" flag="0"/>
      <psa03 value="0.0836123140" flag="0"/>
      <psa10 value="0.0151272907" flag="0"/>
      <psa30 value="0.0009823825" flag="0"/>
    </comp>
    <comp name="--.HNZ">
      <acc value="0.0460181191" flag="0"/>
      <vel value="0.0091533040" flag="0"/>
      <psa03 value="0.0383102482" flag="0"/>
      <psa10 value="0.0068706412" flag="0"/>
      <psa30 value="0.0007606616" flag="0"/>
    </comp>
    <comp name="--.HNE">
      <acc value="0.0743322275" flag="0"/>
      <vel value="0.0179760145" flag="0"/>
      <psa03 value="0.1057637488" flag="0"/>
      <psa10 value="0.0094580506" flag="0"/>
      <psa30 value="0.0010094108" flag="0"/>
    </comp>
  </station>
  <station code="MSL1" name="MSL1" netid="HI" insttype="CMG-5TD,ACCELEROMETER,GURALP" lat="38.3727" lon="21.4243">
    <comp name="--.HNE">
      <acc value="0.0325704640" flag="0"/>
      <vel value="0.0203533585" flag="0"/>
      <psa03 value="0.0901969281" flag="0"/>
      <psa10 value="0.0389219691" flag="0"/>
      <psa30 value="0.0029870639" flag="0"/>
    </comp>
    <comp name="--.HNN">
      <acc value="0.0298580989" flag="0"/>
      <vel value="0.0196509722" flag="0"/>
      <psa03 value="0.1046997341" flag="0"/>
      <psa10 value="0.0355593320" flag="0"/>
      <psa30 value="0.0023435061" flag="0"/>
    </comp>
    <comp name="--.HNZ">
      <acc value="0.0150770577" flag="0"/>
      <vel value="0.0109146169" flag="0"/>
      <psa03 value="0.0376559113" flag="0"/>
      <psa10 value="0.0221054364" flag="0"/>
      <psa30 value="0.0012139459" flag="0"/>
    </comp>
  </station>
  <station code="VAS2" name="VAS2" netid="HI" insttype="CMG-5TD,ACCELEROMETER,GURALP" lat="38.6306" lon="20.6081">
    <comp name="--.HNN">
      <acc value="0.0660900624" flag="0"/>
      <vel value="0.0477061183" flag="0"/>
      <psa03 value="0.1464774990" flag="0"/>
      <psa10 value="0.0861634133" flag="0"/>
      <psa30 value="0.0028148280" flag="0"/>
    </comp>
    <comp name="--.HNE">
      <acc value="0.0589313031" flag="0"/>
      <vel value="0.0320463737" flag="0"/>
      <psa03 value="0.1618335022" flag="0"/>
      <psa10 value="0.0743226664" flag="0"/>
      <psa30 value="0.0030892234" flag="0"/>
    </comp>
    <comp name="--.HNZ">
      <acc value="0.0310225097" flag="0"/>
      <vel value="0.0194631690" flag="0"/>
      <psa03 value="0.0637370100" flag="0"/>
      <psa10 value="0.0315406313" flag="0"/>
      <psa30 value="0.0014082338" flag="0"/>
    </comp>
  </station>
  <station code="VOL2" name="VOL2" netid="HI" insttype="CMG-5TD,ACCELEROMETER,GURALP" lat="39.366" lon="22.9506">
    <comp name="--.HNZ">
      <acc value="0.0192655025" flag="0"/>
      <vel value="0.0086462935" flag="0"/>
      <psa03 value="0.0324864525" flag="0"/>
      <psa10 value="0.0086287690" flag="0"/>
      <psa30 value="0.0011290849" flag="0"/>
    </comp>
    <comp name="--.HNN">
      <acc value="0.0338739893" flag="0"/>
      <vel value="0.0213489575" flag="0"/>
      <psa03 value="0.1105714490" flag="0"/>
      <psa10 value="0.0105406158" flag="0"/>
      <psa30 value="0.0009015224" flag="0"/>
    </comp>
    <comp name="--.HNE">
      <acc value="0.0281320312" flag="0"/>
      <vel value="0.0153241318" flag="0"/>
      <psa03 value="0.0969060195" flag="0"/>
      <psa10 value="0.0131373343" flag="0"/>
      <psa30 value="0.0008273888" flag="0"/>
    </comp>
  </station>
  <station code="EVR" name="EVR" netid="HL" insttype="DR24" lat="38.9166" lon="21.8105">
    <comp name="--.HHE">
      <acc value="0.1734121375" flag="0"/>
      <vel value="0.0340854828" flag="0"/>
      <psa03 value="0.1334924010" flag="0"/>
      <psa10 value="0.0289075972" flag="0"/>
      <psa30 value="0.0040205684" flag="0"/>
    </comp>
    <comp name="--.HHN">
      <acc value="0.1881101139" flag="0"/>
      <vel value="0.0376947654" flag="0"/>
      <psa03 value="0.0905437432" flag="0"/>
      <psa10 value="0.0274525282" flag="0"/>
      <psa30 value="0.0041386581" flag="0"/>
    </comp>
    <comp name="--.HHZ">
      <acc value="0.1246165993" flag="0"/>
      <vel value="0.0315070354" flag="0"/>
      <psa03 value="0.1049540164" flag="0"/>
      <psa10 value="0.0310373805" flag="0"/>
      <psa30 value="0.0025626754" flag="0"/>
    </comp>
  </station>
  <station code="GINA" name="GINA" netid="HL" insttype="CMG-5" lat="39.6689" lon="22.389">
    <comp name="00.HNN">
      <acc value="0.0799697426" flag="0"/>
      <vel value="0.0485204120" flag="0"/>
      <psa03 value="0.2661526316" flag="0"/>
      <psa10 value="0.0370132110" flag="0"/>
      <psa30 value="0.0021150661" flag="0"/>
    </comp>
    <comp name="00.HNE">
      <acc value="0.0974620523" flag="0"/>
      <vel value="0.0654709937" flag="0"/>
      <psa03 value="0.2731908730" flag="0"/>
      <psa10 value="0.0377994669" flag="0"/>
      <psa30 value="0.0033737960" flag="0"/>
    </comp>
    <comp name="00.HNZ">
      <acc value="0.1313115333" flag="0"/>
      <vel value="0.0286103388" flag="0"/>
      <psa03 value="0.0790852478" flag="0"/>
      <psa10 value="0.0216462416" flag="0"/>
      <psa30 value="0.0015122663" flag="0"/>
    </comp>
  </station>
  <station code="JAN" name="JAN" netid="HL" insttype="CMG3EPSC60_DR24" lat="39.6562" lon="20.8487">
    <comp name="--.HHE">
      <acc value="0.0312188745" flag="0"/>
      <vel value="0.0131695700" flag="0"/>
      <psa03 value="0.0568666724" flag="0"/>
      <psa10 value="0.0043894848" flag="0"/>
      <psa30 value="0.0004550670" flag="0"/>
    </comp>
    <comp name="--.HHZ">
      <acc value="0.0000584808" flag="0"/>
      <vel value="0.0000074714" flag="0"/>
      <psa03 value="0.0000582405" flag="0"/>
      <psa10 value="0.0000095059" flag="0"/>
      <psa30 value="0.0000006754" flag="0"/>
    </comp>
    <comp name="--.HHN">
      <acc value="0.0381577063" flag="0"/>
      <vel value="0.0097780164" flag="0"/>
      <psa03 value="0.0661863349" flag="0"/>
      <psa10 value="0.0074276608" flag="0"/>
      <psa30 value="0.0005490634" flag="0"/>
    </comp>
  </station>
  <station code="PENT" name="PENT" netid="HL" insttype="30s-100Hz," lat="40.1959" lon="21.1384">
    <comp name="--.HHE">
      <acc value="0.0088777188" flag="0"/>
      <vel value="0.0046152562" flag="0"/>
      <psa03 value="0.0220718444" flag="0"/>
      <psa10 value="0.0049392246" flag="0"/>
      <psa30 value="0.0003448316" flag="0"/>
    </comp>
    <comp name="--.HHN">
      <acc value="0.0102609271" flag="0"/>
      <vel value="0.0037790120" flag="0"/>
      <psa03 value="0.0199158971" flag="0"/>
      <psa10 value="0.0060955773" flag="0"/>
      <psa30 value="0.0005486231" flag="0"/>
    </comp>
    <comp name="--.HHZ">
      <acc value="0.0069436769" flag="0"/>
      <vel value="0.0048156588" flag="0"/>
      <psa03 value="0.0149963628" flag="0"/>
      <psa10 value="0.0050316031" flag="0"/>
      <psa30 value="0.0005442488" flag="0"/>
    </comp>
  </station>
  <station code="TETR" name="TETR" netid="HL" insttype="60" lat="39.3445" lon="21.2747">
    <comp name="--.HHE">
      <acc value="0.7964635518" flag="0"/>
      <vel value="0.1983506923" flag="0"/>
      <psa03 value="0.4987769593" flag="0"/>
      <psa10 value="0.0610496218" flag="0"/>
      <psa30 value="0.0030974847" flag="0"/>
    </comp>
    <comp name="--.HHN">
      <acc value="0.4815479280" flag="0"/>
      <vel value="0.0891124522" flag="0"/>
      <psa03 value="0.3965776935" flag="0"/>
      <psa10 value="0.0312120900" flag="0"/>
      <psa30 value="0.0029761265" flag="0"/>
    </comp>
    <comp name="--.HHZ">
      <acc value="0.2152589683" flag="0"/>
      <vel value="0.0430946261" flag="0"/>
      <psa03 value="0.1983203352" flag="0"/>
      <psa10 value="0.0387450692" flag="0"/>
      <psa30 value="0.0021836092" flag="0"/>
    </comp>
  </station>
  <station code="THL" name="THL" netid="HL" insttype="120" lat="39.5647" lon="22.0144">
    <comp name="--.HHN">
      <acc value="0.0478103228" flag="0"/>
      <vel value="0.0134487688" flag="0"/>
      <psa03 value="0.0699484269" flag="0"/>
      <psa10 value="0.0093953631" flag="0"/>
      <psa30 value="0.0011453886" flag="0"/>
    </comp>
    <comp name="--.HHE">
      <acc value="0.0451201099" flag="0"/>
      <vel value="0.0143366787" flag="0"/>
      <psa03 value="0.0771991408" flag="0"/>
      <psa10 value="0.0105600498" flag="0"/>
      <psa30 value="0.0008270966" flag="0"/>
    </comp>
    <comp name="--.HHZ">
      <acc value="0.0272177853" flag="0"/>
      <vel value="0.0137451830" flag="0"/>
      <psa03 value="0.0535156138" flag="0"/>
      <psa10 value="0.0182906345" flag="0"/>
      <psa30 value="0.0013468685" flag="0"/>
    </comp>
  </station>
  <station code="TRKA" name="TRKA" netid="HL" insttype="CMG-5" lat="39.5538" lon="21.7662">
    <comp name="00.HNE">
      <acc value="0.1292133685" flag="0"/>
      <vel value="0.0535988285" flag="0"/>
      <psa03 value="0.2406263024" flag="0"/>
      <psa10 value="0.1034435973" flag="0"/>
      <psa30 value="0.0047860646" flag="0"/>
    </comp>
    <comp name="00.HNN">
      <acc value="0.1405986648" flag="0"/>
      <vel value="0.0626584062" flag="0"/>
      <psa03 value="0.2472329381" flag="0"/>
      <psa10 value="0.0704476759" flag="0"/>
      <psa30 value="0.0032678677" flag="0"/>
    </comp>
    <comp name="00.HNZ">
      <acc value="0.1007583023" flag="0"/>
      <vel value="0.0431057841" flag="0"/>
      <psa03 value="0.2312034378" flag="0"/>
      <psa10 value="0.0310406649" flag="0"/>
      <psa30 value="0.0029944263" flag="0"/>
    </comp>
  </station>
  <station code="AMPL" name="AMPL" netid="HP" insttype="Compact," lat="38.9224" lon="21.2135">
    <comp name="--.HHE">
      <acc value="0.1622713279" flag="0"/>
      <vel value="0.0396375420" flag="0"/>
      <psa03 value="0.1792319720" flag="0"/>
      <psa10 value="0.0185260654" flag="0"/>
      <psa30 value="0.0018966632" flag="0"/>
    </comp>
    <comp name="--.HHN">
      <acc value="0.1411804821" flag="0"/>
      <vel value="0.0384172014" flag="0"/>
      <psa03 value="0.1224949504" flag="0"/>
      <psa10 value="0.0174179208" flag="0"/>
      <psa30 value="0.0018200733" flag="0"/>
    </comp>
    <comp name="--.HHZ">
      <acc value="0.0737073856" flag="0"/>
      <vel value="0.0171963743" flag="0"/>
      <psa03 value="0.0561883944" flag="0"/>
      <psa10 value="0.0206846720" flag="0"/>
      <psa30 value="0.0016604576" flag="0"/>
    </comp>
  </station>
  <station code="ANX" name="ANX" netid="HP" insttype="120" lat="38.5933" lon="21.9209">
    <comp name="--.HHE">
      <acc value="0.0568035993" flag="0"/>
      <vel value="0.0147651558" flag="0"/>
      <psa03 value="0.0894928944" flag="0"/>
      <psa10 value="0.0139291396" flag="0"/>
      <psa30 value="0.0009209191" flag="0"/>
    </comp>
    <comp name="--.HHN">
      <acc value="0.0420438629" flag="0"/>
      <vel value="0.0164739839" flag="0"/>
      <psa03 value="0.0965792443" flag="0"/>
      <psa10 value="0.0133500466" flag="0"/>
      <psa30 value="0.0008233578" flag="0"/>
    </comp>
    <comp name="--.HHZ">
      <acc value="0.0344937949" flag="0"/>
      <vel value="0.0105797102" flag="0"/>
      <psa03 value="0.0661993089" flag="0"/>
      <psa10 value="0.0096561756" flag="0"/>
      <psa30 value="0.0008105073" flag="0"/>
    </comp>
  </station>
  <station code="AXS" name="AXS" netid="HP" insttype="Compact," lat="38.1962" lon="21.3763">
    <comp name="--.HHN">
      <acc value="0.0074152589" flag="0"/>
      <vel value="0.0042795569" flag="0"/>
      <psa03 value="0.0255917081" flag="0"/>
      <psa10 value="0.0032498594" flag="0"/>
      <psa30 value="0.0003073956" flag="0"/>
    </comp>
    <comp name="--.HHE">
      <acc value="0.0078176225" flag="0"/>
      <vel value="0.0047239067" flag="0"/>
      <psa03 value="0.0287921295" flag="0"/>
      <psa10 value="0.0055978816" flag="0"/>
      <psa30 value="0.0005158379" flag="0"/>
    </comp>
    <comp name="--.HHZ">
      <acc value="0.0039055406" flag="0"/>
      <vel value="0.0026970710" flag="0"/>
      <psa03 value="0.0099198860" flag="0"/>
      <psa10 value="0.0021161198" flag="0"/>
      <psa30 value="0.0003500352" flag="0"/>
    </comp>
  </station>
  <station code="DSF" name="DSF" netid="HP" insttype="Compact," lat="38.4112" lon="22.5271">
    <comp name="--.HHE">
      <acc value="0.0292004740" flag="0"/>
      <vel value="0.0054855259" flag="0"/>
      <psa03 value="0.0200499675" flag="0"/>
      <psa10 value="0.0032672363" flag="0"/>
      <psa30 value="0.0002480666" flag="0"/>
    </comp>
    <comp name="--.HHN">
      <acc value="0.0451764230" flag="0"/>
      <vel value="0.0073699355" flag="0"/>
      <psa03 value="0.0257320527" flag="0"/>
      <psa10 value="0.0037913522" flag="0"/>
      <psa30 value="0.0002963099" flag="0"/>
    </comp>
    <comp name="--.HHZ">
      <acc value="0.0182731930" flag="0"/>
      <vel value="0.0045613263" flag="0"/>
      <psa03 value="0.0135154907" flag="0"/>
      <psa10 value="0.0029755933" flag="0"/>
      <psa30 value="0.0003574116" flag="0"/>
    </comp>
  </station>
  <station code="EFP" name="EFP" netid="HP" insttype="40," lat="38.4269" lon="21.9058">
    <comp name="--.HHE">
      <acc value="0.0428811779" flag="0"/>
      <vel value="0.0128594852" flag="0"/>
      <psa03 value="0.0838737175" flag="0"/>
      <psa10 value="0.0082099354" flag="0"/>
      <psa30 value="0.0006889727" flag="0"/>
    </comp>
    <comp name="--.HHZ">
      <acc value="0.0215370894" flag="0"/>
      <vel value="0.0092430244" flag="0"/>
      <psa03 value="0.0340139815" flag="0"/>
      <psa10 value="0.0064894139" flag="0"/>
      <psa30 value="0.0006391656" flag="0"/>
    </comp>
    <comp name="--.HHN">
      <acc value="0.0294665498" flag="0"/>
      <vel value="0.0097406395" flag="0"/>
      <psa03 value="0.0464174919" flag="0"/>
      <psa10 value="0.0117114350" flag="0"/>
      <psa30 value="0.0008577424" flag="0"/>
    </comp>
  </station>
  <station code="FSK" name="FSK" netid="HP" insttype="40," lat="38.4593" lon="20.5623">
    <comp name="--.HHE">
      <acc value="0.0136904816" flag="0"/>
      <vel value="0.0054042237" flag="0"/>
      <psa03 value="0.0266864043" flag="0"/>
      <psa10 value="0.0079558386" flag="0"/>
      <psa30 value="0.0008885308" flag="0"/>
    </comp>
    <comp name="--.HHZ">
