<?xml version="1.0" encoding="UTF-8" standalone="yes"?>
<!DOCTYPE earthquake SYSTEM "stationlist.dtd">
<stationlist created="" xmlns="ch.ethz.sed.shakemap.usgs.xml">
  <station code="PSAM" name="PSAM" netid="CL" insttype="CMG40-T" lat="38.3218" lon="22.1842">
    <comp name="00.HHE">
      <acc value="0.0228168392" flag="0"/>
      <vel value="0.0178713657" flag="0"/>
      <psa03 value="0.0706882106" flag="0"/>
      <psa10 value="0.0178294928" flag="0"/>
      <psa30 value="0.0011331621" flag="0"/>
    </comp>
    <comp name="00.HHN">
      <acc value="0.0161092105" flag="0"/>
      <vel value="0.0068876325" flag="0"/>
      <psa03 value="0.0284495699" flag="0"/>
      <psa10 value="0.0101601495" flag="0"/>
      <psa30 value="0.0011334449" flag="0"/>
    </comp>
    <comp name="00.HHZ">
      <acc value="0.0085091919" flag="0"/>
      <vel value="0.0040287873" flag="0"/>
      <psa03 value="0.0172363711" flag="0"/>
      <psa10 value="0.0043076392" flag="0"/>
      <psa30 value="0.0005572686" flag="0"/>
    </comp>
  </station>
  <station code="TRIZ" name="TRIZ" netid="CL" insttype="STS-2" lat="38.3654" lon="22.0727">
    <comp name="00.HH2">
      <acc value="0.0180758952" flag="0"/>
      <vel value="0.0092084844" flag="0"/>
      <psa03 value="0.0629142629" flag="0"/>
      <psa10 value="0.0142652617" flag="0"/>
      <psa30 value="0.0007201124" flag="0"/>
    </comp>
    <comp name="00.HH3">
      <acc value="0.0219155766" flag="0"/>
      <vel value="0.0097421860" flag="0"/>
      <psa03 value="0.0694222701" flag="0"/>
      <psa10 value="0.0095708785" flag="0"/>
      <psa30 value="0.0007804154" flag="0"/>
    </comp>
    <comp name="00.HHZ">
      <acc value="0.0147672219" flag="0"/>
      <vel value="0.0047249554" flag="0"/>
      <psa03 value="0.0167554714" flag="0"/>
      <psa10 value="0.0070359053" flag="0"/>
      <psa30 value="0.0006343739" flag="0"/>
    </comp>
  </station>
  <station code="ZIRI" name="ZIRI" netid="CL" insttype="TRILLIUM-40" lat="38.3051" lon="21.9476">
    <comp name="01.HHZ">
      <acc value="0.0162724343" flag="0"/>
      <vel value="0.0059253194" flag="0"/>
      <psa03 value="0.0466539306" flag="0"/>
      <psa10 value="0.0027461702" flag="0"/>
      <psa30 value="0.0007106638" flag="0"/>
    </comp>
    <comp name="01.HHN">
      <acc value="0.0194503280" flag="0"/>
      <vel value="0.0077219393" flag="0"/>
      <psa03 value="0.0580392003" flag="0"/>
      <psa10 value="0.0050828678" flag="0"/>
      <psa30 value="0.0007601518" flag="0"/>
    </comp>
    <comp name="01.HHE">
      <acc value="0.0179839914" flag="0"/>
      <vel value="0.0080011579" flag="0"/>
      <psa03 value="0.0444097245" flag="0"/>
      <psa10 value="0.0066803849" flag="0"/>
      <psa30 value="0.0007485316" flag="0"/>
    </comp>
  </station>
  <station code="THL" name="THL" netid="MN" insttype="" lat="39.5647" lon="22.0144">
    <comp name="--.HHE">
      <acc value="0.0451201098" flag="0"/>
      <vel value="0.0143366789" flag="0"/>
      <psa03 value="0.0771991408" flag="0"/>
      <psa10 value="0.0105600498" flag="0"/>
      <psa30 value="0.0008271061" flag="0"/>
    </comp>
    <comp name="--.HHZ">
      <acc value="0.0272177852" flag="0"/>
      <vel value="0.0137451835" flag="0"/>
      <psa03 value="0.0535156138" flag="0"/>
      <psa10 value="0.0182906345" flag="0"/>
      <psa30 value="0.0013467908" flag="0"/>
    </comp>
    <comp name="--.HHN">
      <acc value="0.0478103229" flag="0"/>
      <vel value="0.0134487689" flag="0"/>
      <psa03 value="0.0699484269" flag="0"/>
      <psa10 value="0.0093953630" flag="0"/>
      <psa30 value="0.0011453601" flag="0"/>
    </comp>
  </station>
</stationlist>
