<?xml version="1.0" encoding="UTF-8" standalone="yes"?>
<!DOCTYPE earthquake SYSTEM "stationlist.dtd">
<stationlist created="" xmlns="ch.ethz.sed.shakemap.usgs.xml">
  <station code="PSAM" name="PSAM" netid="CL" insttype="CMG40-T" lat="38.3218" lon="22.1842">
    <comp name="00.HHE">
      <acc value="0.0228168392" flag="0"/>
      <vel value="0.0178713657" flag="0"/>
      <psa03 value="0.0706882106" flag="0"/>
      <psa10 value="0.0178294928" flag="0"/>
      <psa30 value="0.0011331621" flag="0"/>
    </comp>
    <comp name="00.HHN">
      <acc value="0.0161092105" flag="0"/>
      <vel value="0.0068876325" flag="0"/>
      <psa03 value="0.0284495699" flag="0"/>
      <psa10 value="0.0101601495" flag="0"/>
      <psa30 value="0.0011334449" flag="0"/>
    </comp>
    <comp name="00.HHZ">
      <acc value="0.0085091919" flag="0"/>
      <vel value="0.0040287873" flag="0"/>
      <psa03 value="0.0172363711" flag="0"/>
      <psa10 value="0.0043076392" flag="0"/>
      <psa30 value="0.0005572686" flag="0"/>
    </comp>
  </station>
  <station code="TRIZ" name="TRIZ" netid="CL" insttype="STS-2" lat="38.3654" lon="22.0727">
    <comp name="00.HH2">
      <acc value="0.0180758952" flag="0"/>
      <vel value="0.0092084844" flag="0"/>
      <psa03 value="0.0629142629" flag="0"/>
      <psa10 value="0.0142652617" flag="0"/>
      <psa30 value="0.0007201124" flag="0"/>
    </comp>
    <comp name="00.HH3">
      <acc value="0.0219155766" flag="0"/>
      <vel value="0.0097421860" flag="0"/>
      <psa03 value="0.0694222701" flag="0"/>
      <psa10 value="0.0095708785" flag="0"/>
      <psa30 value="0.0007804154" flag="0"/>
    </comp>
    <comp name="00.HHZ">
      <acc value="0.0147672219" flag="0"/>
      <vel value="0.0047249554" flag="0"/>
      <psa03 value="0.0167554714" flag="0"/>
      <psa10 value="0.0070359053" flag="0"/>
      <psa30 value="0.0006343739" flag="0"/>
    </comp>
  </station>
  <station code="ZIRI" name="ZIRI" netid="CL" insttype="TRILLIUM-40" lat="38.3051" lon="21.9476">
    <comp name="01.HHZ">
      <acc value="0.0162724343" flag="0"/>
      <vel value="0.0059253194" flag="0"/>
      <psa03 value="0.0466539306" flag="0"/>
      <psa10 value="0.0027461702" flag="0"/>
      <psa30 value="0.0007106638" flag="0"/>
    </comp>
    <comp name="01.HHN">
      <acc value="0.0194503280" flag="0"/>
      <vel value="0.0077219393" flag="0"/>
      <psa03 value="0.0580392003" flag="0"/>
      <psa10 value="0.0050828678" flag="0"/>
      <psa30 value="0.0007601518" flag="0"/>
    </comp>
    <comp name="01.HHE">
      <acc value="0.0179839914" flag="0"/>
      <vel value="0.0080011579" flag="0"/>
      <psa03 value="0.0444097245" flag="0"/>
      <psa10 value="0.0066803849" flag="0"/>
      <psa30 value="0.0007485316" flag="0"/>
    </comp>
  </station>
  <station code="ANTK" name="ANTK" netid="HA" insttype="25" lat="38.3605" lon="22.6385">
    <comp name="--.HHN">
      <acc value="0.0002893916" flag="0"/>
      <vel value="0.0000579328" flag="0"/>
      <psa03 value="0.0002068705" flag="0"/>
      <psa10 value="0.0000256247" flag="0"/>
      <psa30 value="0.0000021635" flag="0"/>
    </comp>
    <comp name="--.HHE">
      <acc value="0.0038729332" flag="0"/>
      <vel value="0.0013803944" flag="0"/>
      <psa03 value="0.0040357477" flag="0"/>
      <psa10 value="0.0017538711" flag="0"/>
      <psa30 value="0.0001859751" flag="0"/>
    </comp>
    <comp name="--.HHZ">
      <acc value="0.0035208105" flag="0"/>
      <vel value="0.0016462232" flag="0"/>
      <psa03 value="0.0035956473" flag="0"/>
      <psa10 value="0.0018663809" flag="0"/>
      <psa30 value="0.0001155639" flag="0"/>
    </comp>
  </station>
  <station code="AXAR" name="AXAR" netid="HA" insttype="Horizon,120s,1200" lat="38.7664" lon="22.659">
    <comp name="--.HHN">
      <acc value="0.0512300792" flag="0"/>
      <vel value="0.0256659000" flag="0"/>
      <psa03 value="0.1299143742" flag="0"/>
      <psa10 value="0.0112514029" flag="0"/>
      <psa30 value="0.0010662151" flag="0"/>
    </comp>
    <comp name="--.HHE">
      <acc value="0.0618975312" flag="0"/>
      <vel value="0.0229103455" flag="0"/>
      <psa03 value="0.1164620807" flag="0"/>
      <psa10 value="0.0100078756" flag="0"/>
      <psa30 value="0.0007511020" flag="0"/>
    </comp>
    <comp name="--.HHZ">
      <acc value="0.0237612634" flag="0"/>
      <vel value="0.0084661994" flag="0"/>
      <psa03 value="0.0559512025" flag="0"/>
      <psa10 value="0.0059322307" flag="0"/>
      <psa30 value="0.0003157201" flag="0"/>
    </comp>
  </station>
  <station code="KALE" name="KALE" netid="HA" insttype="40," lat="38.3911" lon="22.1398">
    <comp name="--.HHE">
      <acc value="0.0273406442" flag="0"/>
      <vel value="0.0077648160" flag="0"/>
      <psa03 value="0.0487219947" flag="0"/>
      <psa10 value="0.0122173311" flag="0"/>
      <psa30 value="0.0008118612" flag="0"/>
    </comp>
    <comp name="--.HHN">
      <acc value="0.0297970798" flag="0"/>
      <vel value="0.0091850049" flag="0"/>
      <psa03 value="0.0441603566" flag="0"/>
      <psa10 value="0.0095790029" flag="0"/>
      <psa30 value="0.0006460960" flag="0"/>
    </comp>
    <comp name="--.HHZ">
      <acc value="0.0175325595" flag="0"/>
      <vel value="0.0045464333" flag="0"/>
      <psa03 value="0.0196724134" flag="0"/>
      <psa10 value="0.0037618424" flag="0"/>
      <psa30 value="0.0006471514" flag="0"/>
    </comp>
  </station>
  <station code="ART2" name="ART2" netid="HI" insttype="CMG-5TD,ACCELEROMETER,GURALP" lat="39.1474" lon="20.9937">
    <comp name="--.HNN">
      <acc value="0.1309445909" flag="0"/>
      <vel value="0.0176503638" flag="0"/>
      <psa03 value="0.0571582658" flag="0"/>
      <psa10 value="0.0105616337" flag="0"/>
      <psa30 value="0.0005730032" flag="0"/>
    </comp>
    <comp name="--.HNE">
      <acc value="0.1276799873" flag="0"/>
      <vel value="0.0183271636" flag="0"/>
      <psa03 value="0.0493247465" flag="0"/>
      <psa10 value="0.0101037182" flag="0"/>
      <psa30 value="0.0009624786" flag="0"/>
    </comp>
    <comp name="--.HNZ">
      <acc value="0.1282517957" flag="0"/>
      <vel value="0.0146693112" flag="0"/>
      <psa03 value="0.0429883188" flag="0"/>
      <psa10 value="0.0082600949" flag="0"/>
      <psa30 value="0.0007533744" flag="0"/>
    </comp>
  </station>
  <station code="LAM2" name="LAM2" netid="HI" insttype="CMG-5TD,ACCELEROMETER,GURALP" lat="38.902" lon="22.4313">
    <comp name="--.HNN">
      <acc value="0.0658824427" flag="0"/>
      <vel value="0.0208228859" flag="0"/>
      <psa03 value="0.0836123140" flag="0"/>
      <psa10 value="0.0151272905" flag="0"/>
      <psa30 value="0.0009825684" flag="0"/>
    </comp>
    <comp name="--.HNE">
      <acc value="0.0743322265" flag="0"/>
      <vel value="0.0179760140" flag="0"/>
      <psa03 value="0.1057637488" flag="0"/>
      <psa10 value="0.0094580506" flag="0"/>
      <psa30 value="0.0010093941" flag="0"/>
    </comp>
    <comp name="--.HNZ">
      <acc value="0.0460181191" flag="0"/>
      <vel value="0.0091533062" flag="0"/>
      <psa03 value="0.0383102482" flag="0"/>
      <psa10 value="0.0068706413" flag="0"/>
      <psa30 value="0.0007606299" flag="0"/>
    </comp>
  </station>
  <station code="MSL1" name="MSL1" netid="HI" insttype="CMG-5TD,ACCELEROMETER,GURALP" lat="38.3727" lon="21.4243">
    <comp name="--.HNE">
      <acc value="0.0325704603" flag="0"/>
      <vel value="0.0203533581" flag="0"/>
      <psa03 value="0.0901969281" flag="0"/>
      <psa10 value="0.0389219691" flag="0"/>
      <psa30 value="0.0029870561" flag="0"/>
    </comp>
    <comp name="--.HNN">
      <acc value="0.0298580982" flag="0"/>
      <vel value="0.0196509730" flag="0"/>
      <psa03 value="0.1046997341" flag="0"/>
      <psa10 value="0.0355593320" flag="0"/>
      <psa30 value="0.0023434207" flag="0"/>
    </comp>
    <comp name="--.HNZ">
      <acc value="0.0150770592" flag="0"/>
      <vel value="0.0109146160" flag="0"/>
      <psa03 value="0.0376559113" flag="0"/>
      <psa10 value="0.0221054363" flag="0"/>
      <psa30 value="0.0012140022" flag="0"/>
    </comp>
  </station>
  <station code="VAS2" name="VAS2" netid="HI" insttype="CMG-5TD,ACCELEROMETER,GURALP" lat="38.6306" lon="20.6081">
    <comp name="--.HNE">
      <acc value="0.0589313019" flag="0"/>
      <vel value="0.0320463724" flag="0"/>
      <psa03 value="0.1618335022" flag="0"/>
      <psa10 value="0.0743226664" flag="0"/>
      <psa30 value="0.0030892998" flag="0"/>
    </comp>
    <comp name="--.HNN">
      <acc value="0.0660900557" flag="0"/>
      <vel value="0.0477061213" flag="0"/>
      <psa03 value="0.1464774990" flag="0"/>
      <psa10 value="0.0861634133" flag="0"/>
      <psa30 value="0.0028145712" flag="0"/>
    </comp>
    <comp name="--.HNZ">
      <acc value="0.0310225099" flag="0"/>
      <vel value="0.0194631690" flag="0"/>
      <psa03 value="0.0637370100" flag="0"/>
      <psa10 value="0.0315406313" flag="0"/>
      <psa30 value="0.0014082088" flag="0"/>
    </comp>
  </station>
  <station code="VOL2" name="VOL2" netid="HI" insttype="CMG-5TD,ACCELEROMETER,GURALP" lat="39.366" lon="22.9506">
    <comp name="--.HNN">
      <acc value="0.0338739903" flag="0"/>
      <vel value="0.0213489600" flag="0"/>
      <psa03 value="0.1105714490" flag="0"/>
      <psa10 value="0.0105406159" flag="0"/>
      <psa30 value="0.0009016006" flag="0"/>
    </comp>
    <comp name="--.HNE">
      <acc value="0.0281320319" flag="0"/>
      <vel value="0.0153241307" flag="0"/>
      <psa03 value="0.0969060195" flag="0"/>
      <psa10 value="0.0131373344" flag="0"/>
      <psa30 value="0.0008273941" flag="0"/>
    </comp>
    <comp name="--.HNZ">
      <acc value="0.0192654972" flag="0"/>
      <vel value="0.0086462944" flag="0"/>
      <psa03 value="0.0324864525" flag="0"/>
      <psa10 value="0.0086287686" flag="0"/>
      <psa30 value="0.0011290079" flag="0"/>
    </comp>
  </station>
  <station code="EVR" name="EVR" netid="HL" insttype="DR24" lat="38.9166" lon="21.8105">
    <comp name="--.HHE">
      <acc value="0.1734121374" flag="0"/>
      <vel value="0.0340854826" flag="0"/>
      <psa03 value="0.1334924010" flag="0"/>
      <psa10 value="0.0289075972" flag="0"/>
      <psa30 value="0.0040205987" flag="0"/>
    </comp>
    <comp name="--.HHN">
      <acc value="0.1881101138" flag="0"/>
      <vel value="0.0376947658" flag="0"/>
      <psa03 value="0.0905437432" flag="0"/>
      <psa10 value="0.0274525281" flag="0"/>
      <psa30 value="0.0041385886" flag="0"/>
    </comp>
    <comp name="--.HHZ">
      <acc value="0.1246165993" flag="0"/>
      <vel value="0.0315070363" flag="0"/>
      <psa03 value="0.1049540164" flag="0"/>
      <psa10 value="0.0310373806" flag="0"/>
      <psa30 value="0.0025629062" flag="0"/>
    </comp>
  </station>
  <station code="GINA" name="GINA" netid="HL" insttype="CMG-5" lat="39.6689" lon="22.389">
    <comp name="00.HNE">
      <acc value="0.0974620530" flag="0"/>
      <vel value="0.0654709951" flag="0"/>
      <psa03 value="0.2731908730" flag="0"/>
      <psa10 value="0.0377994671" flag="0"/>
      <psa30 value="0.0033738908" flag="0"/>
    </comp>
    <comp name="00.HNN">
      <acc value="0.0799697404" flag="0"/>
      <vel value="0.0485204078" flag="0"/>
      <psa03 value="0.2661526316" flag="0"/>
      <psa10 value="0.0370132110" flag="0"/>
      <psa30 value="0.0021151777" flag="0"/>
    </comp>
    <comp name="00.HNZ">
      <acc value="0.1313115277" flag="0"/>
      <vel value="0.0286103399" flag="0"/>
      <psa03 value="0.0790852478" flag="0"/>
      <psa10 value="0.0216462407" flag="0"/>
      <psa30 value="0.0015123851" flag="0"/>
    </comp>
  </station>
  <station code="JAN" name="JAN" netid="HL" insttype="CMG3EPSC60_DR24" lat="39.6562" lon="20.8487">
    <comp name="--.HHE">
      <acc value="0.0312188744" flag="0"/>
      <vel value="0.0131695694" flag="0"/>
      <psa03 value="0.0568666724" flag="0"/>
      <psa10 value="0.0043894847" flag="0"/>
      <psa30 value="0.0004550688" flag="0"/>
    </comp>
    <comp name="--.HHN">
      <acc value="0.0381577063" flag="0"/>
      <vel value="0.0097780159" flag="0"/>
      <psa03 value="0.0661863349" flag="0"/>
      <psa10 value="0.0074276608" flag="0"/>
      <psa30 value="0.0005490581" flag="0"/>
    </comp>
    <comp name="--.HHZ">
      <acc value="0.0000584811" flag="0"/>
      <vel value="0.0000074714" flag="0"/>
      <psa03 value="0.0000582405" flag="0"/>
      <psa10 value="0.0000095060" flag="0"/>
      <psa30 value="0.0000006759" flag="0"/>
    </comp>
  </station>
  <station code="PENT" name="PENT" netid="HL" insttype="30s-100Hz," lat="40.1959" lon="21.1384">
    <comp name="--.HHN">
      <acc value="0.0102609266" flag="0"/>
      <vel value="0.0037790119" flag="0"/>
      <psa03 value="0.0199158971" flag="0"/>
      <psa10 value="0.0060955773" flag="0"/>
      <psa30 value="0.0005486268" flag="0"/>
    </comp>
    <comp name="--.HHE">
      <acc value="0.0088777191" flag="0"/>
      <vel value="0.0046152564" flag="0"/>
      <psa03 value="0.0220718444" flag="0"/>
      <psa10 value="0.0049392246" flag="0"/>
      <psa30 value="0.0003448319" flag="0"/>
    </comp>
    <comp name="--.HHZ">
      <acc value="0.0069436773" flag="0"/>
      <vel value="0.0048156569" flag="0"/>
      <psa03 value="0.0149963628" flag="0"/>
      <psa10 value="0.0050316031" flag="0"/>
      <psa30 value="0.0005442440" flag="0"/>
    </comp>
  </station>
  <station code="TETR" name="TETR" netid="HL" insttype="60" lat="39.3445" lon="21.2747">
    <comp name="--.HHE">
      <acc value="0.7964635519" flag="0"/>
      <vel value="0.1983506922" flag="0"/>
      <psa03 value="0.4987769593" flag="0"/>
      <psa10 value="0.0610496218" flag="0"/>
      <psa30 value="0.0030974868" flag="0"/>
    </comp>
    <comp name="--.HHN">
      <acc value="0.4815479283" flag="0"/>
      <vel value="0.0891124514" flag="0"/>
      <psa03 value="0.3965776935" flag="0"/>
      <psa10 value="0.0312120901" flag="0"/>
      <psa30 value="0.0029759950" flag="0"/>
    </comp>
    <comp name="--.HHZ">
      <acc value="0.2152589683" flag="0"/>
      <vel value="0.0430946260" flag="0"/>
      <psa03 value="0.1983203352" flag="0"/>
      <psa10 value="0.0387450692" flag="0"/>
      <psa30 value="0.0021836234" flag="0"/>
    </comp>
  </station>
  <station code="THL" name="THL" netid="HL" insttype="120" lat="39.5647" lon="22.0144">
    <comp name="--.HHE">
      <acc value="0.0451201098" flag="0"/>
      <vel value="0.0143366789" flag="0"/>
      <psa03 value="0.0771991408" flag="0"/>
      <psa10 value="0.0105600498" flag="0"/>
      <psa30 value="0.0008271061" flag="0"/>
    </comp>
    <comp name="--.HHN">
      <acc value="0.0478103229" flag="0"/>
      <vel value="0.0134487689" flag="0"/>
      <psa03 value="0.0699484269" flag="0"/>
      <psa10 value="0.0093953630" flag="0"/>
      <psa30 value="0.0011453601" flag="0"/>
    </comp>
    <comp name="--.HHZ">
      <acc value="0.0272177852" flag="0"/>
      <vel value="0.0137451835" flag="0"/>
      <psa03 value="0.0535156138" flag="0"/>
      <psa10 value="0.0182906345" flag="0"/>
      <psa30 value="0.0013467908" flag="0"/>
    </comp>
  </station>
  <station code="TRKA" name="TRKA" netid="HL" insttype="CMG-5" lat="39.5538" lon="21.7662">
    <comp name="00.HNN">
      <acc value="0.1405986682" flag="0"/>
      <vel value="0.0626584057" flag="0"/>
      <psa03 value="0.2472329381" flag="0"/>
      <psa10 value="0.0704476762" flag="0"/>
      <psa30 value="0.0032679144" flag="0"/>
    </comp>
    <comp name="00.HNE">
      <acc value="0.1292133710" flag="0"/>
      <vel value="0.0535988284" flag="0"/>
      <psa03 value="0.2406263024" flag="0"/>
      <psa10 value="0.1034435979" flag="0"/>
      <psa30 value="0.0047859907" flag="0"/>
    </comp>
    <comp name="00.HNZ">
      <acc value="0.1007583046" flag="0"/>
      <vel value="0.0431057860" flag="0"/>
      <psa03 value="0.2312034378" flag="0"/>
      <psa10 value="0.0310406651" flag="0"/>
      <psa30 value="0.0029945052" flag="0"/>
    </comp>
  </station>
  <station code="AMPL" name="AMPL" netid="HP" insttype="Compact," lat="38.9224" lon="21.2135">
    <comp name="--.HHN">
      <acc value="0.1411804817" flag="0"/>
      <vel value="0.0384172009" flag="0"/>
      <psa03 value="0.1224949504" flag="0"/>
      <psa10 value="0.0174179216" flag="0"/>
      <psa30 value="0.0018202119" flag="0"/>
    </comp>
    <comp name="--.HHE">
      <acc value="0.1622713279" flag="0"/>
      <vel value="0.0396375421" flag="0"/>
      <psa03 value="0.1792319720" flag="0"/>
      <psa10 value="0.0185260653" flag="0"/>
      <psa30 value="0.0018966455" flag="0"/>
    </comp>
    <comp name="--.HHZ">
      <acc value="0.0737073852" flag="0"/>
      <vel value="0.0171963745" flag="0"/>
      <psa03 value="0.0561883944" flag="0"/>
      <psa10 value="0.0206846720" flag="0"/>
      <psa30 value="0.0016604190" flag="0"/>
    </comp>
  </station>
  <station code="ANX" name="ANX" netid="HP" insttype="120" lat="38.5933" lon="21.9209">
    <comp name="--.HHN">
      <acc value="0.0420438627" flag="0"/>
      <vel value="0.0164739835" flag="0"/>
      <psa03 value="0.0965792443" flag="0"/>
      <psa10 value="0.0133500466" flag="0"/>
      <psa30 value="0.0008233395" flag="0"/>
    </comp>
    <comp name="--.HHE">
      <acc value="0.0568035995" flag="0"/>
      <vel value="0.0147651562" flag="0"/>
      <psa03 value="0.0894928944" flag="0"/>
      <psa10 value="0.0139291397" flag="0"/>
      <psa30 value="0.0009208899" flag="0"/>
    </comp>
    <comp name="--.HHZ">
      <acc value="0.0344937955" flag="0"/>
      <vel value="0.0105797101" flag="0"/>
      <psa03 value="0.0661993089" flag="0"/>
      <psa10 value="0.0096561757" flag="0"/>
      <psa30 value="0.0008104495" flag="0"/>
    </comp>
  </station>
  <station code="AXS" name="AXS" netid="HP" insttype="Compact," lat="38.1962" lon="21.3763">
    <comp name="--.HHN">
      <acc value="0.0074152589" flag="0"/>
      <vel value="0.0042795564" flag="0"/>
      <psa03 value="0.0255917081" flag="0"/>
      <psa10 value="0.0032498594" flag="0"/>
      <psa30 value="0.0003073941" flag="0"/>
    </comp>
    <comp name="--.HHE">
      <acc value="0.0078176226" flag="0"/>
      <vel value="0.0047239067" flag="0"/>
      <psa03 value="0.0287921295" flag="0"/>
      <psa10 value="0.0055978816" flag="0"/>
      <psa30 value="0.0005158381" flag="0"/>
    </comp>
    <comp name="--.HHZ">
      <acc value="0.0039055405" flag="0"/>
      <vel value="0.0026970708" flag="0"/>
      <psa03 value="0.0099198860" flag="0"/>
      <psa10 value="0.0021161198" flag="0"/>
      <psa30 value="0.0003500364" flag="0"/>
    </comp>
  </station>
  <station code="DSF" name="DSF" netid="HP" insttype="Compact," lat="38.4112" lon="22.5271">
    <comp name="--.HHN">
      <acc value="0.0451764247" flag="0"/>
      <vel value="0.0073699356" flag="0"/>
      <psa03 value="0.0257320527" flag="0"/>
      <psa10 value="0.0037913523" flag="0"/>
      <psa30 value="0.0002962647" flag="0"/>
    </comp>
    <comp name="--.HHE">
      <acc value="0.0292004746" flag="0"/>
      <vel value="0.0054855262" flag="0"/>
      <psa03 value="0.0200499675" flag="0"/>
      <psa10 value="0.0032672363" flag="0"/>
      <psa30 value="0.0002480810" flag="0"/>
    </comp>
    <comp name="--.HHZ">
      <acc value="0.0182731932" flag="0"/>
      <vel value="0.0045613272" flag="0"/>
      <psa03 value="0.0135154907" flag="0"/>
      <psa10 value="0.0029755933" flag="0"/>
      <psa30 value="0.0003574617" flag="0"/>
    </comp>
  </station>
  <station code="EFP" name="EFP" netid="HP" insttype="40," lat="38.4269" lon="21.9058">
    <comp name="--.HHE">
      <acc value="0.0428811779" flag="0"/>
      <vel value="0.0128594855" flag="0"/>
      <psa03 value="0.0838737175" flag="0"/>
      <psa10 value="0.0082099354" flag="0"/>
      <psa30 value="0.0006889845" flag="0"/>
    </comp>
