<?xml version="1.0" encoding="UTF-8" standalone="yes"?>
<!DOCTYPE earthquake SYSTEM "stationlist.dtd">
<stationlist created="" xmlns="ch.ethz.sed.shakemap.usgs.xml">
  <station code="ADVT" name="ADVT" netid="KO" source="KOERI" insttype="120s," lat="40.4332" lon="29.7383">
    <comp name="--.HHE">
      <acc value="0.0190957149" flag="0"/>
      <vel value="0.0064921685" flag="0"/>
      <psa03 value="0.0296089095" flag="0"/>
      <psa10 value="0.0051878699" flag="0"/>
      <psa30 value="0.0013345394" flag="0"/>
    </comp>
    <comp name="--.HHN">
      <acc value="0.0387576464" flag="0"/>
      <vel value="0.0170830979" flag="0"/>
      <psa03 value="0.0653301574" flag="0"/>
      <psa10 value="0.0112033290" flag="0"/>
      <psa30 value="0.0006723653" flag="0"/>
    </comp>
    <comp name="--.HHZ">
      <acc value="0.0207415689" flag="0"/>
      <vel value="0.0088454151" flag="0"/>
      <psa03 value="0.0231394905" flag="0"/>
      <psa10 value="0.0073378224" flag="0"/>
      <psa30 value="0.0009314039" flag="0"/>
    </comp>
  </station>
  <station code="ARMT" name="ARMT" netid="KO" source="KOERI" insttype="120s," lat="40.5683" lon="28.866">
    <comp name="--.HHE">
      <acc value="0.0974255448" flag="0"/>
      <vel value="0.0282396459" flag="0"/>
      <psa03 value="0.1076717448" flag="0"/>
      <psa10 value="0.0193053967" flag="0"/>
      <psa30 value="0.0033300395" flag="0"/>
    </comp>
    <comp name="--.HHN">
      <acc value="0.1256525757" flag="0"/>
      <vel value="0.0303179872" flag="0"/>
      <psa03 value="0.1375213531" flag="0"/>
      <psa10 value="0.0197542998" flag="0"/>
      <psa30 value="0.0020925048" flag="0"/>
    </comp>
    <comp name="--.HHZ">
      <acc value="0.0650846693" flag="0"/>
      <vel value="0.0155880348" flag="0"/>
      <psa03 value="0.0737479081" flag="0"/>
      <psa10 value="0.0125566177" flag="0"/>
      <psa30 value="0.0025277958" flag="0"/>
    </comp>
  </station>
  <station code="BGKT" name="BGKT" netid="KO" source="KOERI" insttype="120s," lat="41.181" lon="28.773">
    <comp name="--.HHE">
      <acc value="0.0326208927" flag="0"/>
      <vel value="0.0063977656" flag="0"/>
      <psa03 value="0.0199501680" flag="0"/>
      <psa10 value="0.0063681111" flag="0"/>
      <psa30 value="0.0005384841" flag="0"/>
    </comp>
    <comp name="--.HHN">
      <acc value="0.0216395651" flag="0"/>
      <vel value="0.0049179836" flag="0"/>
      <psa03 value="0.0193047479" flag="0"/>
      <psa10 value="0.0019881612" flag="0"/>
      <psa30 value="0.0003364318" flag="0"/>
    </comp>
    <comp name="--.HHZ">
      <acc value="0.0148765322" flag="0"/>
      <vel value="0.0031074013" flag="0"/>
      <psa03 value="0.0179229281" flag="0"/>
      <psa10 value="0.0032731784" flag="0"/>
      <psa30 value="0.0004166739" flag="0"/>
    </comp>
  </station>
  <station code="CAVI" name="CAVI" netid="KO" source="KOERI" insttype="120s," lat="40.2018" lon="29.8377">
    <comp name="--.HHE">
      <acc value="0.0086084688" flag="0"/>
      <vel value="0.0058392582" flag="0"/>
      <psa03 value="0.0202869143" flag="0"/>
      <psa10 value="0.0092561657" flag="0"/>
      <psa30 value="0.0004680787" flag="0"/>
    </comp>
    <comp name="--.HHN">
      <acc value="0.0082981969" flag="0"/>
      <vel value="0.0049653482" flag="0"/>
      <psa03 value="0.0127705193" flag="0"/>
      <psa10 value="0.0074901718" flag="0"/>
      <psa30 value="0.0005364694" flag="0"/>
    </comp>
    <comp name="--.HHZ">
      <acc value="0.0059256822" flag="0"/>
      <vel value="0.0026374570" flag="0"/>
      <psa03 value="0.0072199140" flag="0"/>
      <psa10 value="0.0054940791" flag="0"/>
      <psa30 value="0.0006990306" flag="0"/>
    </comp>
  </station>
  <station code="CTKS" name="CTKS" netid="KO" source="KOERI" insttype="30s," lat="41.2373" lon="28.5072">
    <comp name="--.HHE">
      <acc value="0.0135256058" flag="0"/>
      <vel value="0.0038841461" flag="0"/>
      <psa03 value="0.0102981227" flag="0"/>
      <psa10 value="0.0020937642" flag="0"/>
      <psa30 value="0.0001798296" flag="0"/>
    </comp>
    <comp name="--.HHN">
      <acc value="0.0187483097" flag="0"/>
      <vel value="0.0035172068" flag="0"/>
      <psa03 value="0.0118684948" flag="0"/>
      <psa10 value="0.0013395337" flag="0"/>
      <psa30 value="0.0001376426" flag="0"/>
    </comp>
    <comp name="--.HHZ">
      <acc value="0.0124453758" flag="0"/>
      <vel value="0.0024889728" flag="0"/>
      <psa03 value="0.0068942276" flag="0"/>
      <psa10 value="0.0013340885" flag="0"/>
      <psa30 value="0.0001157386" flag="0"/>
    </comp>
  </station>
  <station code="CTYL" name="CTYL" netid="KO" source="KOERI" insttype="360s," lat="41.476" lon="28.2897">
    <comp name="--.HHE">
      <acc value="0.0191516031" flag="0"/>
      <vel value="0.0049435909" flag="0"/>
      <psa03 value="0.0265011583" flag="0"/>
      <psa10 value="0.0022002683" flag="0"/>
      <psa30 value="0.0001779765" flag="0"/>
    </comp>
    <comp name="--.HHN">
      <acc value="0.0149756768" flag="0"/>
      <vel value="0.0047203747" flag="0"/>
      <psa03 value="0.0246663136" flag="0"/>
      <psa10 value="0.0029605506" flag="0"/>
      <psa30 value="0.0002130513" flag="0"/>
    </comp>
    <comp name="--.HHZ">
      <acc value="0.0123347626" flag="0"/>
      <vel value="0.0036406444" flag="0"/>
      <psa03 value="0.0199018452" flag="0"/>
      <psa10 value="0.0011550454" flag="0"/>
      <psa30 value="0.0002118200" flag="0"/>
    </comp>
  </station>
  <station code="DST" name="DST" netid="KO" source="KOERI" insttype="100" lat="39.6041" lon="28.6267">
    <comp name="--.HNE">
      <acc value="0.0144092981" flag="0"/>
      <vel value="0.0093505842" flag="0"/>
      <psa03 value="0.0256666565" flag="0"/>
      <psa10 value="0.0086934471" flag="0"/>
      <psa30 value="0.0006171190" flag="0"/>
    </comp>
    <comp name="--.HNN">
      <acc value="0.0145661065" flag="0"/>
      <vel value="0.0089269725" flag="0"/>
      <psa03 value="0.0370300500" flag="0"/>
      <psa10 value="0.0131407155" flag="0"/>
      <psa30 value="0.0008971022" flag="0"/>
    </comp>
    <comp name="--.HNZ">
      <acc value="0.0090703824" flag="0"/>
      <vel value="0.0045466854" flag="0"/>
      <psa03 value="0.0239876108" flag="0"/>
      <psa10 value="0.0059138557" flag="0"/>
      <psa30 value="0.0005454105" flag="0"/>
    </comp>
  </station>
  <station code="EDC" name="EDC" netid="KO" source="KOERI" insttype="120s," lat="40.3465" lon="27.8618">
    <comp name="--.HHE">
      <acc value="0.0208785048" flag="0"/>
      <vel value="0.0111755278" flag="0"/>
      <psa03 value="0.0409323692" flag="0"/>
      <psa10 value="0.0186000250" flag="0"/>
      <psa30 value="0.0007369610" flag="0"/>
    </comp>
    <comp name="--.HHN">
      <acc value="0.0321290864" flag="0"/>
      <vel value="0.0116248975" flag="0"/>
      <psa03 value="0.0455359454" flag="0"/>
      <psa10 value="0.0171988475" flag="0"/>
      <psa30 value="0.0008777999" flag="0"/>
    </comp>
    <comp name="--.HHZ">
      <acc value="0.0148463234" flag="0"/>
      <vel value="0.0052654385" flag="0"/>
      <psa03 value="0.0231476486" flag="0"/>
      <psa10 value="0.0054703844" flag="0"/>
      <psa30 value="0.0004590397" flag="0"/>
    </comp>
  </station>
  <station code="GEMT" name="GEMT" netid="KO" source="KOERI" insttype="120s," lat="40.435" lon="29.189">
    <comp name="--.HHE">
      <acc value="0.8135100786" flag="0"/>
      <vel value="0.0933765632" flag="0"/>
      <psa03 value="0.2736049239" flag="0"/>
      <psa10 value="0.0514640684" flag="0"/>
      <psa30 value="0.0039427833" flag="0"/>
    </comp>
    <comp name="--.HHN">
      <acc value="0.6012707152" flag="0"/>
      <vel value="0.0911863699" flag="0"/>
      <psa03 value="0.3063928162" flag="0"/>
      <psa10 value="0.0286806954" flag="0"/>
      <psa30 value="0.0034771018" flag="0"/>
    </comp>
    <comp name="--.HHZ">
      <acc value="0.3148246083" flag="0"/>
      <vel value="0.0537450073" flag="0"/>
      <psa03 value="0.3327156871" flag="0"/>
      <psa10 value="0.0338159385" flag="0"/>
      <psa30 value="0.0059600148" flag="0"/>
    </comp>
  </station>
  <station code="GULT" name="GULT" netid="KO" source="KOERI" insttype="30s," lat="40.432" lon="30.5156">
    <comp name="--.HHE">
      <acc value="0.0283071160" flag="0"/>
      <vel value="0.0153154356" flag="0"/>
      <psa03 value="0.0669938823" flag="0"/>
      <psa10 value="0.0126356784" flag="0"/>
      <psa30 value="0.0008077229" flag="0"/>
    </comp>
    <comp name="--.HHN">
      <acc value="0.0224168196" flag="0"/>
      <vel value="0.0137760966" flag="0"/>
      <psa03 value="0.0713401867" flag="0"/>
      <psa10 value="0.0164078869" flag="0"/>
      <psa30 value="0.0007995421" flag="0"/>
    </comp>
    <comp name="--.HHZ">
      <acc value="0.0121571888" flag="0"/>
      <vel value="0.0068094870" flag="0"/>
      <psa03 value="0.0291981959" flag="0"/>
      <psa10 value="0.0069499280" flag="0"/>
      <psa30 value="0.0004605992" flag="0"/>
    </comp>
  </station>
  <station code="ISK" name="ISK" netid="KO" source="KOERI" insttype="120s," lat="41.0657" lon="29.0592">
    <comp name="--.HHE">
      <acc value="0.0175630931" flag="0"/>
      <vel value="0.0104234257" flag="0"/>
      <psa03 value="0.0301921412" flag="0"/>
      <psa10 value="0.0085013628" flag="0"/>
      <psa30 value="0.0006330449" flag="0"/>
    </comp>
    <comp name="--.HHN">
      <acc value="0.0250824285" flag="0"/>
      <vel value="0.0066531384" flag="0"/>
      <psa03 value="0.0364455540" flag="0"/>
      <psa10 value="0.0058805983" flag="0"/>
      <psa30 value="0.0005659913" flag="0"/>
    </comp>
    <comp name="--.HHZ">
      <acc value="0.0165430756" flag="0"/>
      <vel value="0.0064344885" flag="0"/>
      <psa03 value="0.0271892035" flag="0"/>
      <psa10 value="0.0039770646" flag="0"/>
      <psa30 value="0.0005060484" flag="0"/>
    </comp>
  </station>
  <station code="KCTX" name="KCTX" netid="KO" source="KOERI" insttype="30s," lat="40.2627" lon="28.3353">
    <comp name="--.HHE">
      <acc value="0.0238588817" flag="0"/>
      <vel value="0.0082332686" flag="0"/>
      <psa03 value="0.0387093489" flag="0"/>
      <psa10 value="0.0029074699" flag="0"/>
      <psa30 value="0.0009361933" flag="0"/>
    </comp>
    <comp name="--.HHN">
      <acc value="0.0286176860" flag="0"/>
      <vel value="0.0101580789" flag="0"/>
      <psa03 value="0.0587072673" flag="0"/>
      <psa10 value="0.0046346294" flag="0"/>
      <psa30 value="0.0004951978" flag="0"/>
    </comp>
    <comp name="--.HHZ">
      <acc value="0.0223038243" flag="0"/>
      <vel value="0.0039250243" flag="0"/>
      <psa03 value="0.0136517995" flag="0"/>
      <psa10 value="0.0016212865" flag="0"/>
      <psa30 value="0.0007097865" flag="0"/>
    </comp>
  </station>
  <station code="KLYT" name="KLYT" netid="KO" source="KOERI" insttype="120s," lat="41.253" lon="29.042">
    <comp name="--.HHE">
      <acc value="0.0592510815" flag="0"/>
      <vel value="0.0154047166" flag="0"/>
      <psa03 value="0.0596391468" flag="0"/>
      <psa10 value="0.0066883595" flag="0"/>
      <psa30 value="0.0005390267" flag="0"/>
    </comp>
    <comp name="--.HHN">
      <acc value="0.0675758784" flag="0"/>
      <vel value="0.0136764822" flag="0"/>
      <psa03 value="0.0634477986" flag="0"/>
      <psa10 value="0.0068874293" flag="0"/>
      <psa30 value="0.0004871922" flag="0"/>
    </comp>
    <comp name="--.HHZ">
      <acc value="0.0289949071" flag="0"/>
      <vel value="0.0054743174" flag="0"/>
      <psa03 value="0.0213844156" flag="0"/>
      <psa10 value="0.0054387124" flag="0"/>
      <psa30 value="0.0005700986" flag="0"/>
    </comp>
  </station>
  <station code="MDNY" name="MDNY" netid="KO" source="KOERI" insttype="30s," lat="40.371" lon="28.8847">
    <comp name="--.HHE">
      <acc value="0.1031694172" flag="0"/>
      <vel value="0.0329195809" flag="0"/>
      <psa03 value="0.2449726100" flag="0"/>
      <psa10 value="0.0149828733" flag="0"/>
      <psa30 value="0.0015384680" flag="0"/>
    </comp>
    <comp name="--.HHN">
      <acc value="0.0939339793" flag="0"/>
      <vel value="0.0366446445" flag="0"/>
      <psa03 value="0.2097902368" flag="0"/>
      <psa10 value="0.0163751941" flag="0"/>
      <psa30 value="0.0016600008" flag="0"/>
    </comp>
    <comp name="--.HHZ">
      <acc value="0.0714852228" flag="0"/>
      <vel value="0.0156971883" flag="0"/>
      <psa03 value="0.0470169027" flag="0"/>
      <psa10 value="0.0064037334" flag="0"/>
      <psa30 value="0.0016951020" flag="0"/>
    </comp>
  </station>
  <station code="ORLT" name="ORLT" netid="KO" source="KOERI" insttype="100" lat="40.0452" lon="28.8914">
    <comp name="--.HNE">
      <acc value="0.0273718550" flag="0"/>
      <vel value="0.0103167713" flag="0"/>
      <psa03 value="0.0541424819" flag="0"/>
      <psa10 value="0.0072134663" flag="0"/>
      <psa30 value="0.0006185909" flag="0"/>
    </comp>
    <comp name="--.HNN">
      <acc value="0.0280352799" flag="0"/>
      <vel value="0.0147932481" flag="0"/>
      <psa03 value="0.0913682165" flag="0"/>
      <psa10 value="0.0148403537" flag="0"/>
      <psa30 value="0.0013058563" flag="0"/>
    </comp>
    <comp name="--.HNZ">
      <acc value="0.0124436147" flag="0"/>
      <vel value="0.0056928763" flag="0"/>
      <psa03 value="0.0282780609" flag="0"/>
      <psa10 value="0.0035835391" flag="0"/>
      <psa30 value="0.0007711784" flag="0"/>
    </comp>
  </station>
  <station code="OSMT" name="OSMT" netid="KO" source="KOERI" insttype="100" lat="40.601" lon="29.7">
    <comp name="--.HNE">
      <acc value="0.0344110976" flag="0"/>
      <vel value="0.0082991026" flag="0"/>
      <psa03 value="0.0327950889" flag="0"/>
      <psa10 value="0.0040192177" flag="0"/>
      <psa30 value="0.0007738681" flag="0"/>
    </comp>
    <comp name="--.HNN">
      <acc value="0.0317641296" flag="0"/>
      <vel value="0.0093872841" flag="0"/>
      <psa03 value="0.0345360416" flag="0"/>
      <psa10 value="0.0046335186" flag="0"/>
      <psa30 value="0.0008936556" flag="0"/>
    </comp>
    <comp name="--.HNZ">
      <acc value="0.0226911191" flag="0"/>
      <vel value="0.0060753730" flag="0"/>
      <psa03 value="0.0230483007" flag="0"/>
      <psa10 value="0.0039606102" flag="0"/>
      <psa30 value="0.0008337198" flag="0"/>
    </comp>
  </station>
  <station code="SAUV" name="SAUV" netid="KO" source="KOERI" insttype="30s," lat="40.7402" lon="30.3272">
    <comp name="--.HHE">
      <acc value="0.0174040954" flag="0"/>
      <vel value="0.0043558018" flag="0"/>
      <psa03 value="0.0213614411" flag="0"/>
      <psa10 value="0.0027841153" flag="0"/>
      <psa30 value="0.0003667706" flag="0"/>
    </comp>
    <comp name="--.HHN">
      <acc value="0.0172523911" flag="0"/>
      <vel value="0.0054206932" flag="0"/>
      <psa03 value="0.0261422979" flag="0"/>
      <psa10 value="0.0055281898" flag="0"/>
      <psa30 value="0.0003421126" flag="0"/>
    </comp>
    <comp name="--.HHZ">
      <acc value="0.0114941082" flag="0"/>
      <vel value="0.0035037518" flag="0"/>
      <psa03 value="0.0119593392" flag="0"/>
      <psa10 value="0.0027732257" flag="0"/>
      <psa30 value="0.0001749220" flag="0"/>
    </comp>
  </station>
  <station code="SILT" name="SILT" netid="KO" source="KOERI" insttype="30s," lat="41.153" lon="29.643">
    <comp name="--.HHE">
      <acc value="0.0150945951" flag="0"/>
      <vel value="0.0076182524" flag="0"/>
      <psa03 value="0.0400203337" flag="0"/>
      <psa10 value="0.0037942324" flag="0"/>
      <psa30 value="0.0011329928" flag="0"/>
    </comp>
    <comp name="--.HHN">
      <acc value="0.0115029636" flag="0"/>
      <vel value="0.0065265766" flag="0"/>
      <psa03 value="0.0214522995" flag="0"/>
      <psa10 value="0.0036816638" flag="0"/>
      <psa30 value="0.0010394759" flag="0"/>
    </comp>
    <comp name="--.HHZ">
      <acc value="0.0127069015" flag="0"/>
      <vel value="0.0080424339" flag="0"/>
      <psa03 value="0.0246166325" flag="0"/>
      <psa10 value="0.0048016118" flag="0"/>
      <psa30 value="0.0015435888" flag="0"/>
    </comp>
  </station>
  <station code="SLVT" name="SLVT" netid="KO" source="KOERI" insttype="30s," lat="41.23" lon="28.21">
    <comp name="--.HHE">
      <acc value="0.0177497833" flag="0"/>
      <vel value="0.0089716687" flag="0"/>
      <psa03 value="0.0563493041" flag="0"/>
      <psa10 value="0.0057965906" flag="0"/>
      <psa30 value="0.0004218132" flag="0"/>
    </comp>
    <comp name="--.HHN">
      <acc value="0.0124285057" flag="0"/>
      <vel value="0.0054585237" flag="0"/>
      <psa03 value="0.0300654384" flag="0"/>
      <psa10 value="0.0047855234" flag="0"/>
      <psa30 value="0.0007271887" flag="0"/>
    </comp>
    <comp name="--.HHZ">
      <acc value="0.0092194760" flag="0"/>
      <vel value="0.0032905728" flag="0"/>
      <psa03 value="0.0233465575" flag="0"/>
      <psa10 value="0.0035088077" flag="0"/>
      <psa30 value="0.0003235329" flag="0"/>
    </comp>
  </station>
  <station code="SPNC" name="SPNC" netid="KO" source="KOERI" insttype="30s," lat="40.686" lon="30.3083">
    <comp name="--.HHE">
      <acc value="0.0479646969" flag="0"/>
      <vel value="0.0184760817" flag="0"/>
      <psa03 value="0.0911936440" flag="0"/>
      <psa10 value="0.0155721415" flag="0"/>
      <psa30 value="0.0014943710" flag="0"/>
    </comp>
    <comp name="--.HHN">
      <acc value="0.0512814142" flag="0"/>
      <vel value="0.0202189534" flag="0"/>
      <psa03 value="0.1080115172" flag="0"/>
      <psa10 value="0.0124475856" flag="0"/>
      <psa30 value="0.0010395941" flag="0"/>
    </comp>
    <comp name="--.HHZ">
      <acc value="0.0268699292" flag="0"/>
      <vel value="0.0059740229" flag="0"/>
      <psa03 value="0.0324795177" flag="0"/>
      <psa10 value="0.0065512874" flag="0"/>
      <psa30 value="0.0005264924" flag="0"/>
    </comp>
  </station>
</stationlist>
