<?xml version="1.0" encoding="UTF-8" standalone="yes"?>
<!DOCTYPE earthquake SYSTEM "stationlist.dtd">
<stationlist created="" xmlns="ch.ethz.sed.shakemap.usgs.xml">
  <station code="CEYT" name="CEYT" netid="KO" insttype="CMG-3ESP" lat="37.0105" lon="35.7478">
    <comp name="--.HHE">
      <acc value="0.0255312518" flag="0"/>
      <vel value="0.0118791244" flag="0"/>
      <psa03 value="0.0838388491" flag="0"/>
      <psa10 value="0.0092860357" flag="0"/>
      <psa30 value="0.0006257171" flag="0"/>
    </comp>
    <comp name="--.HHN">
      <acc value="0.0216689959" flag="0"/>
      <vel value="0.0104623129" flag="0"/>
      <psa03 value="0.0544557890" flag="0"/>
      <psa10 value="0.0163080351" flag="0"/>
      <psa30 value="0.0007137212" flag="0"/>
    </comp>
    <comp name="--.HHZ">
      <acc value="0.0155601279" flag="0"/>
      <vel value="0.0056637652" flag="0"/>
      <psa03 value="0.0363436061" flag="0"/>
      <psa10 value="0.0051561562" flag="0"/>
      <psa30 value="0.0003927919" flag="0"/>
    </comp>
  </station>
</stationlist>
