<?xml version="1.0" encoding="UTF-8" standalone="yes"?>
<!DOCTYPE earthquake SYSTEM "stationlist.dtd">
<stationlist created="" xmlns="ch.ethz.sed.shakemap.usgs.xml">
  <station code="CEYT" name="CEYT" netid="KO" insttype="CMG-3ESP" lat="37.0105" lon="35.7478">
    <comp name="--.HHZ">
      <acc value="0.0155601278" flag="0"/>
      <vel value="0.0056637615" flag="0"/>
      <psa03 value="0.0363436061" flag="0"/>
      <psa10 value="0.0051561563" flag="0"/>
      <psa30 value="0.0003929085" flag="0"/>
    </comp>
    <comp name="--.HHE">
      <acc value="0.0255312516" flag="0"/>
      <vel value="0.0118791251" flag="0"/>
      <psa03 value="0.0838388491" flag="0"/>
      <psa10 value="0.0092860355" flag="0"/>
      <psa30 value="0.0006260921" flag="0"/>
    </comp>
    <comp name="--.HHN">
      <acc value="0.0216689959" flag="0"/>
      <vel value="0.0104623092" flag="0"/>
      <psa03 value="0.0544557890" flag="0"/>
      <psa10 value="0.0163080358" flag="0"/>
      <psa30 value="0.0007127728" flag="0"/>
    </comp>
  </station>
  <station code="KRTS" name="KRTS" netid="KO" insttype="CMG-5T" lat="36.573" lon="35.375">
    <comp name="--.HNE">
      <acc value="0.0543258085" flag="0"/>
      <vel value="0.0233173494" flag="0"/>
      <psa03 value="0.1963962452" flag="0"/>
      <psa10 value="0.0102981375" flag="0"/>
      <psa30 value="0.0008725893" flag="0"/>
    </comp>
    <comp name="--.HNN">
      <acc value="0.0654324190" flag="0"/>
      <vel value="0.0292679497" flag="0"/>
      <psa03 value="0.2424798954" flag="0"/>
      <psa10 value="0.0180839752" flag="0"/>
      <psa30 value="0.0014014450" flag="0"/>
    </comp>
    <comp name="--.HNZ">
      <acc value="0.0336721731" flag="0"/>
      <vel value="0.0163509821" flag="0"/>
      <psa03 value="0.1033903714" flag="0"/>
      <psa10 value="0.0064951318" flag="0"/>
      <psa30 value="0.0008449655" flag="0"/>
    </comp>
  </station>
</stationlist>
