<?xml version="1.0" encoding="UTF-8" standalone="yes"?>
<!DOCTYPE earthquake SYSTEM "stationlist.dtd">
<stationlist created="" xmlns="ch.ethz.sed.shakemap.usgs.xml">
  <station code="KZN" name="KZN" netid="HL" source="NOA" insttype="120" lat="40.3033" lon="21.7821">
    <comp name="--.HHE">
      <acc value="0.0376586722" flag="0"/>
      <vel value="0.0093079312" flag="0"/>
      <psa03 value="0.0338343964" flag="0"/>
      <psa10 value="0.0034471444" flag="0"/>
      <psa30 value="0.0005183918" flag="0"/>
    </comp>
    <comp name="--.HHN">
      <acc value="0.0222283582" flag="0"/>
      <vel value="0.0058260414" flag="0"/>
      <psa03 value="0.0292189849" flag="0"/>
      <psa10 value="0.0027374261" flag="0"/>
      <psa30 value="0.0002953189" flag="0"/>
    </comp>
    <comp name="--.HHZ">
      <acc value="0.0107790943" flag="0"/>
      <vel value="0.0039141172" flag="0"/>
      <psa03 value="0.0131974983" flag="0"/>
      <psa10 value="0.0021160565" flag="0"/>
      <psa30 value="0.0003827562" flag="0"/>
    </comp>
  </station>
  <station code="PENT" name="PENT" netid="HL" source="NOA" insttype="30" lat="40.1959" lon="21.1384">
    <comp name="--.HHE">
      <acc value="0.0204944812" flag="0"/>
      <vel value="0.0086162435" flag="0"/>
      <psa03 value="0.0491654049" flag="0"/>
      <psa10 value="0.0072380607" flag="0"/>
      <psa30 value="0.0006340750" flag="0"/>
    </comp>
    <comp name="--.HHN">
      <acc value="0.0013506942" flag="0"/>
      <vel value="0.0003832032" flag="0"/>
      <psa03 value="0.0023690592" flag="0"/>
      <psa10 value="0.0002897610" flag="0"/>
      <psa30 value="0.0001102029" flag="0"/>
    </comp>
    <comp name="--.HHZ">
      <acc value="0.0131621740" flag="0"/>
      <vel value="0.0055182174" flag="0"/>
      <psa03 value="0.0333691941" flag="0"/>
      <psa10 value="0.0062497633" flag="0"/>
      <psa30 value="0.0006245582" flag="0"/>
    </comp>
  </station>
  <station code="NEST" name="NEST" netid="HT" source="NOA" insttype="120P," lat="40.4147" lon="21.0489">
    <comp name="--.HHE">
      <acc value="0.0623889327" flag="0"/>
      <vel value="0.0205727113" flag="0"/>
      <psa03 value="0.0721699668" flag="0"/>
      <psa10 value="0.0351690081" flag="0"/>
      <psa30 value="0.0021509985" flag="0"/>
    </comp>
    <comp name="--.HHN">
      <acc value="0.0560594603" flag="0"/>
      <vel value="0.0215238188" flag="0"/>
      <psa03 value="0.1076430053" flag="0"/>
      <psa10 value="0.0186199352" flag="0"/>
      <psa30 value="0.0016458536" flag="0"/>
    </comp>
    <comp name="--.HHZ">
      <acc value="0.0913045679" flag="0"/>
      <vel value="0.0273186991" flag="0"/>
      <psa03 value="0.1085270855" flag="0"/>
      <psa10 value="0.0180970992" flag="0"/>
      <psa30 value="0.0020376876" flag="0"/>
    </comp>
  </station>
</stationlist>
