<?xml version="1.0" encoding="UTF-8" standalone="yes"?>
<!DOCTYPE earthquake SYSTEM "stationlist.dtd">
<stationlist created="" xmlns="ch.ethz.sed.shakemap.usgs.xml">
  <station code="APMY" name="APMY" netid="KO" insttype="CMG-6T" lat="37.4717" lon="29.3018">
    <comp name="--.HHE">
      <acc value="0.0074825156" flag="0"/>
      <vel value="0.0044001855" flag="0"/>
      <psa03 value="0.0144309774" flag="0"/>
      <psa10 value="0.0026533941" flag="0"/>
      <psa30 value="0.0002610653" flag="0"/>
    </comp>
    <comp name="--.HHN">
      <acc value="0.0104825441" flag="0"/>
      <vel value="0.0045340033" flag="0"/>
      <psa03 value="0.0289107207" flag="0"/>
      <psa10 value="0.0037071036" flag="0"/>
      <psa30 value="0.0001752587" flag="0"/>
    </comp>
    <comp name="--.HHZ">
      <acc value="0.0064737854" flag="0"/>
      <vel value="0.0032923191" flag="0"/>
      <psa03 value="0.0174984957" flag="0"/>
      <psa10 value="0.0019658250" flag="0"/>
      <psa30 value="0.0001922445" flag="0"/>
    </comp>
  </station>
  <station code="CAME" name="CAME" netid="KO" insttype="CMG-5T" lat="36.9435" lon="29.3023">
    <comp name="--.HNN">
      <acc value="0.0601986495" flag="0"/>
      <vel value="0.0185619280" flag="0"/>
      <psa03 value="0.0817745348" flag="0"/>
      <psa10 value="0.0082553094" flag="0"/>
      <psa30 value="0.0005320066" flag="0"/>
    </comp>
    <comp name="--.HNE">
      <acc value="0.0617388255" flag="0"/>
      <vel value="0.0207826244" flag="0"/>
      <psa03 value="0.1132847310" flag="0"/>
      <psa10 value="0.0128609267" flag="0"/>
      <psa30 value="0.0006894186" flag="0"/>
    </comp>
    <comp name="--.HNZ">
      <acc value="0.0320588288" flag="0"/>
      <vel value="0.0132778101" flag="0"/>
      <psa03 value="0.0782411475" flag="0"/>
      <psa10 value="0.0050925398" flag="0"/>
      <psa30 value="0.0004728733" flag="0"/>
    </comp>
  </station>
  <station code="DAT" name="DAT" netid="KO" insttype="CMG-3T" lat="36.7308" lon="27.5767">
    <comp name="--.HHE">
      <acc value="0.0217549999" flag="0"/>
      <vel value="0.0102461235" flag="0"/>
      <psa03 value="0.0640248991" flag="0"/>
      <psa10 value="0.0164813053" flag="0"/>
      <psa30 value="0.0006807339" flag="0"/>
    </comp>
    <comp name="--.HHN">
      <acc value="0.0355235353" flag="0"/>
      <vel value="0.0125273335" flag="0"/>
      <psa03 value="0.0903401070" flag="0"/>
      <psa10 value="0.0074099839" flag="0"/>
      <psa30 value="0.0005698261" flag="0"/>
    </comp>
    <comp name="--.HHZ">
      <acc value="0.0000300883" flag="0"/>
      <vel value="0.0000040359" flag="0"/>
      <psa03 value="0.0000139662" flag="0"/>
      <psa10 value="0.0000032539" flag="0"/>
      <psa30 value="0.0000005054" flag="0"/>
    </comp>
  </station>
  <station code="ELL" name="ELL" netid="KO" insttype="CMG-3T" lat="36.7483" lon="29.9085">
    <comp name="--.HHZ">
      <acc value="0.0049879475" flag="0"/>
      <vel value="0.0033364362" flag="0"/>
      <psa03 value="0.0134056743" flag="0"/>
      <psa10 value="0.0056767336" flag="0"/>
      <psa30 value="0.0002675656" flag="0"/>
    </comp>
    <comp name="--.HHN">
      <acc value="0.0085461314" flag="0"/>
      <vel value="0.0060294609" flag="0"/>
      <psa03 value="0.0216190137" flag="0"/>
      <psa10 value="0.0048477729" flag="0"/>
      <psa30 value="0.0006218408" flag="0"/>
    </comp>
  </station>
  <station code="FETI" name="FETI" netid="KO" insttype="CMG-5T" lat="36.6903" lon="29.096">
    <comp name="--.HNZ">
      <acc value="0.6180144221" flag="0"/>
      <vel value="0.0631441780" flag="0"/>
      <psa03 value="0.1706879993" flag="0"/>
      <psa10 value="0.0231526651" flag="0"/>
      <psa30 value="0.0021542705" flag="0"/>
    </comp>
    <comp name="--.HNN">
      <acc value="0.0079294049" flag="0"/>
      <vel value="0.0394506527" flag="0"/>
      <psa03 value="0.0081573230" flag="0"/>
      <psa10 value="0.0085045492" flag="0"/>
      <psa30 value="0.0115183833" flag="0"/>
    </comp>
    <comp name="--.HNE">
      <acc value="1.1348361190" flag="0"/>
      <vel value="0.0936021877" flag="0"/>
      <psa03 value="0.2369095406" flag="0"/>
      <psa10 value="0.0208033217" flag="0"/>
      <psa30 value="0.0015216539" flag="0"/>
    </comp>
  </station>
  <station code="FETY" name="FETY" netid="KO" insttype="CMG-3ESP" lat="36.6353" lon="29.0835">
    <comp name="--.HHE">
      <acc value="0.9282855589" flag="0"/>
      <vel value="0.1647333253" flag="0"/>
      <psa03 value="0.6167892631" flag="0"/>
      <psa10 value="0.0303370752" flag="0"/>
      <psa30 value="0.0024915197" flag="0"/>
    </comp>
  </station>
  <station code="YER" name="YER" netid="KO" insttype="CMG-3T" lat="37.1336" lon="28.284">
    <comp name="--.HHN">
      <acc value="0.0207456899" flag="0"/>
      <vel value="0.0083455311" flag="0"/>
      <psa03 value="0.0645604454" flag="0"/>
      <psa10 value="0.0116853104" flag="0"/>
      <psa30 value="0.0006860080" flag="0"/>
    </comp>
    <comp name="--.HHZ">
      <acc value="0.0110167045" flag="0"/>
      <vel value="0.0057182571" flag="0"/>
      <psa03 value="0.0413391031" flag="0"/>
      <psa10 value="0.0047897051" flag="0"/>
      <psa30 value="0.0006161315" flag="0"/>
    </comp>
    <comp name="--.HHE">
      <acc value="0.0184356909" flag="0"/>
      <vel value="0.0081785247" flag="0"/>
      <psa03 value="0.0444915481" flag="0"/>
      <psa10 value="0.0076246439" flag="0"/>
      <psa30 value="0.0004834323" flag="0"/>
    </comp>
  </station>
</stationlist>
