<?xml version="1.0" encoding="UTF-8" standalone="yes"?>
<!DOCTYPE earthquake SYSTEM "stationlist.dtd">
<stationlist created="" xmlns="ch.ethz.sed.shakemap.usgs.xml">
  <station code="CEYT" name="CEYT" netid="KO" insttype="CMG-3ESP" lat="37.0105" lon="35.7478">
    <comp name="--.HHZ">
      <acc value="0.0079221758" flag="0"/>
      <vel value="0.0031370782" flag="0"/>
      <psa03 value="0.0281582697" flag="0"/>
      <psa10 value="0.0030744069" flag="0"/>
      <psa30 value="0.0004088141" flag="0"/>
    </comp>
    <comp name="--.HHE">
      <acc value="0.0170204875" flag="0"/>
      <vel value="0.0076598265" flag="0"/>
      <psa03 value="0.0660992924" flag="0"/>
      <psa10 value="0.0023719264" flag="0"/>
      <psa30 value="0.0005029802" flag="0"/>
    </comp>
    <comp name="--.HHN">
      <acc value="0.0172146591" flag="0"/>
      <vel value="0.0067953746" flag="0"/>
      <psa03 value="0.0370729630" flag="0"/>
      <psa10 value="0.0029732371" flag="0"/>
      <psa30 value="0.0003895506" flag="0"/>
    </comp>
  </station>
  <station code="GAZ" name="GAZ" netid="KO" insttype="CMG-3T" lat="37.1721" lon="37.2096">
    <comp name="--.HHE">
      <acc value="0.0565429319" flag="0"/>
      <vel value="0.0534465477" flag="0"/>
      <psa03 value="0.1282771928" flag="0"/>
      <psa10 value="0.0791693594" flag="0"/>
      <psa30 value="0.0036428876" flag="0"/>
    </comp>
    <comp name="--.HHN">
      <acc value="0.0538672037" flag="0"/>
      <vel value="0.0349747246" flag="0"/>
      <psa03 value="0.0920228442" flag="0"/>
      <psa10 value="0.0363792381" flag="0"/>
      <psa30 value="0.0017945847" flag="0"/>
    </comp>
    <comp name="--.HHZ">
      <acc value="0.0434653178" flag="0"/>
      <vel value="0.0246096972" flag="0"/>
      <psa03 value="0.0929224257" flag="0"/>
      <psa10 value="0.0302927283" flag="0"/>
      <psa30 value="0.0033232168" flag="0"/>
    </comp>
  </station>
  <station code="KMRS" name="KMRS" netid="KO" insttype="CMG-3T" lat="37.5053" lon="36.9">
    <comp name="--.HHE">
      <acc value="0.0315024204" flag="0"/>
      <vel value="0.0115531436" flag="0"/>
      <psa03 value="0.0438382704" flag="0"/>
      <psa10 value="0.0116553752" flag="0"/>
      <psa30 value="0.0013241527" flag="0"/>
    </comp>
    <comp name="--.HHN">
      <acc value="0.0331715624" flag="0"/>
      <vel value="0.0108881519" flag="0"/>
      <psa03 value="0.0417945318" flag="0"/>
      <psa10 value="0.0066619644" flag="0"/>
      <psa30 value="0.0014171791" flag="0"/>
    </comp>
  </station>
  <station code="ANDN" name="ANDN" netid="TU" insttype="T" lat="37.58" lon="36.3452">
    <comp name="--.HHN">
      <acc value="0.1919879376" flag="0"/>
      <vel value="0.0560308727" flag="0"/>
      <psa03 value="0.2636985667" flag="0"/>
      <psa10 value="0.0206265516" flag="0"/>
      <psa30 value="0.0019439746" flag="0"/>
    </comp>
    <comp name="--.HHZ">
      <acc value="0.0603253096" flag="0"/>
      <vel value="0.0289086888" flag="0"/>
      <psa03 value="0.0484572685" flag="0"/>
      <psa10 value="0.0332743673" flag="0"/>
      <psa30 value="0.0016128260" flag="0"/>
    </comp>
    <comp name="--.HHE">
      <acc value="0.1209952480" flag="0"/>
      <vel value="0.0309986522" flag="0"/>
      <psa03 value="0.1647181929" flag="0"/>
      <psa10 value="0.0183282790" flag="0"/>
      <psa30 value="0.0018130204" flag="0"/>
    </comp>
  </station>
</stationlist>
