<?xml version="1.0" encoding="UTF-8" standalone="yes"?>
<!DOCTYPE earthquake SYSTEM "stationlist.dtd">
<stationlist created="" xmlns="ch.ethz.sed.shakemap.usgs.xml">
  <station code="AGRP" name="AGRP" netid="CL" source="RESIF" insttype="30" lat="38.3959" lon="21.7228">
    <comp name="00.HHE">
      <acc value="0.0045920610" flag="0"/>
      <vel value="0.0032623887" flag="0"/>
      <psa03 value="0.0120711538" flag="0"/>
      <psa10 value="0.0022254912" flag="0"/>
      <psa30 value="0.0005366409" flag="0"/>
    </comp>
    <comp name="00.HHN">
      <acc value="0.0039733330" flag="0"/>
      <vel value="0.0031787389" flag="0"/>
      <psa03 value="0.0096910192" flag="0"/>
      <psa10 value="0.0040124684" flag="0"/>
      <psa30 value="0.0005569922" flag="0"/>
    </comp>
    <comp name="00.HHZ">
      <acc value="0.0022040864" flag="0"/>
      <vel value="0.0018996142" flag="0"/>
      <psa03 value="0.0063348831" flag="0"/>
      <psa10 value="0.0037981560" flag="0"/>
      <psa30 value="0.0003801092" flag="0"/>
    </comp>
  </station>
  <station code="MALA" name="MALA" netid="CL" source="RESIF" insttype="30" lat="38.3935" lon="21.8726">
    <comp name="00.HH2">
      <acc value="0.0030357299" flag="0"/>
      <vel value="0.0022876127" flag="0"/>
      <psa03 value="0.0090001753" flag="0"/>
      <psa10 value="0.0040248716" flag="0"/>
      <psa30 value="0.0006045003" flag="0"/>
    </comp>
    <comp name="00.HH3">
      <acc value="0.0028043007" flag="0"/>
      <vel value="0.0025505589" flag="0"/>
      <psa03 value="0.0088811800" flag="0"/>
      <psa10 value="0.0026433618" flag="0"/>
      <psa30 value="0.0014329502" flag="0"/>
    </comp>
    <comp name="00.HHZ">
      <acc value="0.0016595224" flag="0"/>
      <vel value="0.0013867062" flag="0"/>
      <psa03 value="0.0051552627" flag="0"/>
      <psa10 value="0.0028513112" flag="0"/>
      <psa30 value="0.0004062027" flag="0"/>
    </comp>
  </station>
  <station code="ROD3" name="ROD3" netid="CL" source="RESIF" insttype="30" lat="38.3081" lon="21.892">
    <comp name="00.HHE">
      <acc value="0.0205383630" flag="0"/>
      <vel value="0.0080795453" flag="0"/>
      <psa03 value="0.0679532544" flag="0"/>
      <psa10 value="0.0059529006" flag="0"/>
      <psa30 value="0.0008157093" flag="0"/>
    </comp>
    <comp name="00.HHN">
      <acc value="0.0168670709" flag="0"/>
      <vel value="0.0091274007" flag="0"/>
      <psa03 value="0.0606344995" flag="0"/>
      <psa10 value="0.0076866929" flag="0"/>
      <psa30 value="0.0008393846" flag="0"/>
    </comp>
    <comp name="00.HHZ">
      <acc value="0.0096102586" flag="0"/>
      <vel value="0.0043914425" flag="0"/>
      <psa03 value="0.0237076446" flag="0"/>
      <psa10 value="0.0087221919" flag="0"/>
      <psa30 value="0.0004104817" flag="0"/>
    </comp>
  </station>
  <station code="ITM" name="ITM" netid="HL" source="NOA" insttype="DR24" lat="37.1787" lon="21.9252">
    <comp name="--.HHE">
      <acc value="0.0122064122" flag="0"/>
      <vel value="0.0076589857" flag="0"/>
      <psa03 value="0.0364920679" flag="0"/>
      <psa10 value="0.0045860236" flag="0"/>
      <psa30 value="0.0006058337" flag="0"/>
    </comp>
    <comp name="--.HHN">
      <acc value="0.0158360122" flag="0"/>
      <vel value="0.0054605423" flag="0"/>
      <psa03 value="0.0454074737" flag="0"/>
      <psa10 value="0.0048337037" flag="0"/>
      <psa30 value="0.0006749499" flag="0"/>
    </comp>
    <comp name="--.HHZ">
      <acc value="0.0115569891" flag="0"/>
      <vel value="0.0052430414" flag="0"/>
      <psa03 value="0.0309233980" flag="0"/>
      <psa10 value="0.0045364423" flag="0"/>
      <psa30 value="0.0003877479" flag="0"/>
    </comp>
  </station>
  <station code="KLV" name="KLV" netid="HL" source="NOA" insttype="120" lat="38.0435" lon="22.1504">
    <comp name="--.HHE">
      <acc value="0.0033894197" flag="0"/>
      <vel value="0.0016124809" flag="0"/>
      <psa03 value="0.0088086865" flag="0"/>
      <psa10 value="0.0026538942" flag="0"/>
      <psa30 value="0.0001904293" flag="0"/>
    </comp>
    <comp name="--.HHN">
      <acc value="0.0032143287" flag="0"/>
      <vel value="0.0019031997" flag="0"/>
      <psa03 value="0.0101183840" flag="0"/>
      <psa10 value="0.0032798318" flag="0"/>
      <psa30 value="0.0001935199" flag="0"/>
    </comp>
    <comp name="--.HHZ">
      <acc value="0.0033315977" flag="0"/>
      <vel value="0.0016598906" flag="0"/>
      <psa03 value="0.0099993717" flag="0"/>
      <psa10 value="0.0031618231" flag="0"/>
      <psa30 value="0.0002767281" flag="0"/>
    </comp>
  </station>
  <station code="VLS" name="VLS" netid="HL" source="NOA" insttype="120P," lat="38.1768" lon="20.5886">
    <comp name="--.HHE">
      <acc value="0.0524740945" flag="0"/>
      <vel value="0.0125701814" flag="0"/>
      <psa03 value="0.0602164961" flag="0"/>
      <psa10 value="0.0064522380" flag="0"/>
      <psa30 value="0.0004296022" flag="0"/>
    </comp>
    <comp name="--.HHN">
      <acc value="0.0378345219" flag="0"/>
      <vel value="0.0123069743" flag="0"/>
      <psa03 value="0.0858468339" flag="0"/>
      <psa10 value="0.0053960851" flag="0"/>
      <psa30 value="0.0005497522" flag="0"/>
    </comp>
    <comp name="--.HHZ">
      <acc value="0.0377477152" flag="0"/>
      <vel value="0.0094187096" flag="0"/>
      <psa03 value="0.0405717063" flag="0"/>
      <psa10 value="0.0060359070" flag="0"/>
      <psa30 value="0.0004567086" flag="0"/>
    </comp>
  </station>
  <station code="AMT" name="AMT" netid="HP" source="NOA" insttype="CMG-3T," lat="37.5324" lon="21.7089">
    <comp name="00.HHE">
      <acc value="0.0301894683" flag="0"/>
      <vel value="0.0141096792" flag="0"/>
      <psa03 value="0.1251950997" flag="0"/>
      <psa10 value="0.0196020475" flag="0"/>
      <psa30 value="0.0010217978" flag="0"/>
    </comp>
    <comp name="00.HHN">
      <acc value="0.0353512908" flag="0"/>
      <vel value="0.0129538534" flag="0"/>
      <psa03 value="0.0737765799" flag="0"/>
      <psa10 value="0.0099737673" flag="0"/>
      <psa30 value="0.0009114015" flag="0"/>
    </comp>
    <comp name="00.HHZ">
      <acc value="0.0252395264" flag="0"/>
      <vel value="0.0134336508" flag="0"/>
      <psa03 value="0.0811489392" flag="0"/>
      <psa10 value="0.0076831493" flag="0"/>
      <psa30 value="0.0008149661" flag="0"/>
    </comp>
  </station>
  <station code="DRO" name="DRO" netid="HP" source="NOA" insttype="120P," lat="37.952" lon="21.71">
    <comp name="--.HHE">
      <acc value="0.0452651095" flag="0"/>
      <vel value="0.0210699038" flag="0"/>
      <psa03 value="0.2137539798" flag="0"/>
      <psa10 value="0.0138820025" flag="0"/>
      <psa30 value="0.0007720611" flag="0"/>
    </comp>
    <comp name="--.HHN">
      <acc value="0.0408871919" flag="0"/>
      <vel value="0.0162206251" flag="0"/>
      <psa03 value="0.1292237494" flag="0"/>
      <psa10 value="0.0149370754" flag="0"/>
      <psa30 value="0.0007133749" flag="0"/>
    </comp>
    <comp name="--.HHZ">
      <acc value="0.0243009735" flag="0"/>
      <vel value="0.0094369192" flag="0"/>
      <psa03 value="0.1023010031" flag="0"/>
      <psa10 value="0.0062371428" flag="0"/>
      <psa30 value="0.0004927648" flag="0"/>
    </comp>
  </station>
  <station code="FSK" name="FSK" netid="HP" source="NOA" insttype="40," lat="38.4593" lon="20.5623">
    <comp name="--.HHE">
      <acc value="0.0125319033" flag="0"/>
      <vel value="0.0079571696" flag="0"/>
      <psa03 value="0.0216271127" flag="0"/>
      <psa10 value="0.0068420166" flag="0"/>
      <psa30 value="0.0006874354" flag="0"/>
    </comp>
    <comp name="--.HHN">
      <acc value="0.0078311021" flag="0"/>
      <vel value="0.0068771953" flag="0"/>
      <psa03 value="0.0133876467" flag="0"/>
      <psa10 value="0.0140901783" flag="0"/>
      <psa30 value="0.0007049291" flag="0"/>
    </comp>
    <comp name="--.HHZ">
      <acc value="0.0069849905" flag="0"/>
      <vel value="0.0045342370" flag="0"/>
      <psa03 value="0.0157942387" flag="0"/>
      <psa10 value="0.0044584193" flag="0"/>
      <psa30 value="0.0003883268" flag="0"/>
    </comp>
  </station>
  <station code="LTHK" name="LTHK" netid="HP" source="NOA" insttype="40," lat="37.7095" lon="20.8367">
    <comp name="--.HHE">
      <acc value="0.1794378640" flag="0"/>
      <vel value="0.0365774171" flag="0"/>
      <psa03 value="0.1917423619" flag="0"/>
      <psa10 value="0.0346676546" flag="0"/>
      <psa30 value="0.0022636624" flag="0"/>
    </comp>
  </station>
  <station code="DMLN" name="DMLN" netid="HT" source="NOA" insttype="1s-100Hz," lat="38.2385" lon="20.3734">
    <comp name="--.HHE">
      <acc value="0.0490421254" flag="0"/>
      <vel value="0.0266623855" flag="0"/>
      <psa03 value="0.1099658378" flag="0"/>
      <psa10 value="0.0198737769" flag="0"/>
      <psa30 value="0.0013487295" flag="0"/>
    </comp>
    <comp name="--.HHN">
      <acc value="0.0724083680" flag="0"/>
      <vel value="0.0248356572" flag="0"/>
      <psa03 value="0.2258830730" flag="0"/>
      <psa10 value="0.0201025631" flag="0"/>
      <psa30 value="0.0013954725" flag="0"/>
    </comp>
    <comp name="--.HHZ">
      <acc value="0.0272772900" flag="0"/>
      <vel value="0.0143142904" flag="0"/>
      <psa03 value="0.0518441281" flag="0"/>
      <psa10 value="0.0099249518" flag="0"/>
      <psa30 value="0.0006602393" flag="0"/>
    </comp>
  </station>
  <station code="EVGI" name="EVGI" netid="HT" source="NOA" insttype="30" lat="38.621" lon="20.656">
    <comp name="--.HHE">
      <acc value="0.0119642188" flag="0"/>
      <vel value="0.0032404375" flag="0"/>
      <psa03 value="0.0214393991" flag="0"/>
      <psa10 value="0.0032918649" flag="0"/>
      <psa30 value="0.0003492520" flag="0"/>
    </comp>
    <comp name="--.HHN">
      <acc value="nan" flag="0"/>
      <vel value="-100.0000000000" flag="0"/>
      <psa03 value="0.0000000000" flag="0"/>
      <psa10 value="0.0000000000" flag="0"/>
      <psa30 value="0.0000000000" flag="0"/>
    </comp>
    <comp name="--.HHZ">
      <acc value="0.0092417778" flag="0"/>
      <vel value="0.0028014058" flag="0"/>
      <psa03 value="0.0152642442" flag="0"/>
      <psa10 value="0.0019072557" flag="0"/>
      <psa30 value="0.0001879853" flag="0"/>
    </comp>
  </station>
  <station code="NYDR" name="NYDR" netid="HT" source="NOA" insttype="1s-100Hz," lat="38.7135" lon="20.6983">
    <comp name="--.HHE">
      <acc value="0.0050739962" flag="0"/>
      <vel value="0.0030432717" flag="0"/>
      <psa03 value="0.0102230910" flag="0"/>
      <psa10 value="0.0042480140" flag="0"/>
      <psa30 value="0.0003705428" flag="0"/>
    </comp>
    <comp name="--.HHN">
      <acc value="0.0060387147" flag="0"/>
      <vel value="0.0041162802" flag="0"/>
      <psa03 value="0.0150859036" flag="0"/>
      <psa10 value="0.0056679448" flag="0"/>
      <psa30 value="0.0002447701" flag="0"/>
    </comp>
    <comp name="--.HHZ">
      <acc value="0.0043771911" flag="0"/>
      <vel value="0.0025395531" flag="0"/>
      <psa03 value="0.0091299796" flag="0"/>
      <psa10 value="0.0034890247" flag="0"/>
      <psa30 value="0.0001810275" flag="0"/>
    </comp>
  </station>
  <station code="PSDA" name="PSDA" netid="HT" source="NOA" insttype="30" lat="38.114" lon="20.5841">
    <comp name="--.HHE">
      <acc value="0.0547884290" flag="0"/>
      <vel value="0.0224602588" flag="0"/>
      <psa03 value="0.1253959795" flag="0"/>
      <psa10 value="0.0124031261" flag="0"/>
      <psa30 value="0.0007203089" flag="0"/>
    </comp>
    <comp name="--.HHN">
      <acc value="0.0481002457" flag="0"/>
      <vel value="0.0225365828" flag="0"/>
      <psa03 value="0.1263008510" flag="0"/>
      <psa10 value="0.0112964356" flag="0"/>
      <psa30 value="0.0007744761" flag="0"/>
    </comp>
    <comp name="--.HHZ">
      <acc value="0.0367515218" flag="0"/>
      <vel value="0.0098466801" flag="0"/>
      <psa03 value="0.0458289921" flag="0"/>
      <psa10 value="0.0047180723" flag="0"/>
      <psa30 value="0.0004056108" flag="0"/>
    </comp>
  </station>
  <station code="KLV" name="KLV" netid="MN" source="INGV" insttype="" lat="38.0437" lon="22.1504">
    <comp name="--.HHE">
      <acc value="0.0035615674" flag="0"/>
      <vel value="0.0016292940" flag="0"/>
      <psa03 value="0.0090142246" flag="0"/>
      <psa10 value="0.0026681793" flag="0"/>
      <psa30 value="0.0001913330" flag="0"/>
    </comp>
    <comp name="--.HHN">
      <acc value="0.0033414974" flag="0"/>
      <vel value="0.0019423279" flag="0"/>
      <psa03 value="0.0104273466" flag="0"/>
      <psa10 value="0.0033006376" flag="0"/>
      <psa30 value="0.0001941515" flag="0"/>
    </comp>
    <comp name="--.HHZ">
      <acc value="0.0034379123" flag="0"/>
      <vel value="0.0016812012" flag="0"/>
      <psa03 value="0.0102784931" flag="0"/>
      <psa10 value="0.0031807328" flag="0"/>
      <psa30 value="0.0002774690" flag="0"/>
    </comp>
  </station>
</stationlist>
