<?xml version="1.0" encoding="UTF-8" standalone="yes"?>
<!DOCTYPE earthquake SYSTEM "stationlist.dtd">
<stationlist created="" xmlns="ch.ethz.sed.shakemap.usgs.xml">
  <station code="ERZN" name="ERZN" netid="KO" insttype="CMG-3ESP" lat="39.5867" lon="39.722">
    <comp name="--.HHE">
      <acc value="0.0647836671" flag="0"/>
      <vel value="0.0360767839" flag="0"/>
      <psa03 value="0.1896979554" flag="0"/>
      <psa10 value="0.0387221151" flag="0"/>
      <psa30 value="0.0026075509" flag="0"/>
    </comp>
    <comp name="--.HHN">
      <acc value="0.0343854052" flag="0"/>
      <vel value="0.0245015620" flag="0"/>
      <psa03 value="0.1722408058" flag="0"/>
      <psa10 value="0.0268789118" flag="0"/>
      <psa30 value="0.0018666383" flag="0"/>
    </comp>
    <comp name="--.HHZ">
      <acc value="0.0171424778" flag="0"/>
      <vel value="0.0130655989" flag="0"/>
      <psa03 value="0.0571363211" flag="0"/>
      <psa10 value="0.0120271074" flag="0"/>
      <psa30 value="0.0018892261" flag="0"/>
    </comp>
  </station>
  <station code="KARO" name="KARO" netid="KO" insttype="CMG-3T" lat="39.3089" lon="41.0493">
    <comp name="--.HHE">
      <acc value="0.0347882903" flag="0"/>
      <vel value="0.0384204940" flag="0"/>
      <psa03 value="0.1062630943" flag="0"/>
      <psa10 value="0.0515489937" flag="0"/>
      <psa30 value="0.0079621616" flag="0"/>
    </comp>
    <comp name="--.HHN">
      <acc value="0.0346438673" flag="0"/>
      <vel value="0.0300961151" flag="0"/>
      <psa03 value="0.0899673974" flag="0"/>
      <psa10 value="0.0395719990" flag="0"/>
      <psa30 value="0.0055431863" flag="0"/>
    </comp>
    <comp name="--.HHZ">
      <acc value="0.0154721008" flag="0"/>
      <vel value="0.0138892141" flag="0"/>
      <psa03 value="0.0440177200" flag="0"/>
      <psa10 value="0.0200097992" flag="0"/>
      <psa30 value="0.0036387071" flag="0"/>
    </comp>
  </station>
  <station code="MAZI" name="MAZI" netid="KO" insttype="CMG-3T" lat="37.4593" lon="40.4465">
    <comp name="--.HHZ">
      <acc value="0.1016083717" flag="0"/>
      <vel value="0.0471667407" flag="0"/>
      <psa03 value="0.3232918218" flag="0"/>
      <psa10 value="0.0304340344" flag="0"/>
      <psa30 value="0.0019267064" flag="0"/>
    </comp>
  </station>
</stationlist>
