<?xml version="1.0" encoding="UTF-8" standalone="yes"?>
<!DOCTYPE earthquake SYSTEM "stationlist.dtd">
<stationlist created="" xmlns="ch.ethz.sed.shakemap.usgs.xml">
  <station code="ZKR" name="ZKR" netid="GE" insttype="STS-2/N" lat="35.1147" lon="26.2169">
    <comp name="--.HHN">
      <acc value="0.0063883215" flag="0"/>
      <vel value="0.0033802234" flag="0"/>
      <psa03 value="0.0190909727" flag="0"/>
      <psa10 value="0.0043295359" flag="0"/>
      <psa30 value="0.0004165526" flag="0"/>
    </comp>
    <comp name="--.HHZ">
      <acc value="0.0078044775" flag="0"/>
      <vel value="0.0042749223" flag="0"/>
      <psa03 value="0.0183616385" flag="0"/>
      <psa10 value="0.0043437754" flag="0"/>
      <psa30 value="0.0007283095" flag="0"/>
    </comp>
    <comp name="--.HHE">
      <acc value="0.0119624636" flag="0"/>
      <vel value="0.0059207902" flag="0"/>
      <psa03 value="0.0251044151" flag="0"/>
      <psa10 value="0.0081084430" flag="0"/>
      <psa30 value="0.0005168166" flag="0"/>
    </comp>
  </station>
  <station code="PFKS" name="PFKS" netid="HC" insttype="120" lat="35.0429" lon="25.4733">
    <comp name="--.HHE">
      <acc value="0.0105341274" flag="0"/>
      <vel value="0.0078107718" flag="0"/>
      <psa03 value="0.0264144101" flag="0"/>
      <psa10 value="0.0058420335" flag="0"/>
      <psa30 value="0.0004574730" flag="0"/>
    </comp>
    <comp name="--.HHN">
      <acc value="0.0084035060" flag="0"/>
      <vel value="0.0055711456" flag="0"/>
      <psa03 value="0.0234630861" flag="0"/>
      <psa10 value="0.0054165549" flag="0"/>
      <psa30 value="0.0004961543" flag="0"/>
    </comp>
    <comp name="--.HHZ">
      <acc value="0.0055401013" flag="0"/>
      <vel value="0.0029913944" flag="0"/>
      <psa03 value="0.0230591719" flag="0"/>
      <psa10 value="0.0033053570" flag="0"/>
      <psa30 value="0.0003237724" flag="0"/>
    </comp>
  </station>
  <station code="ZKR" name="ZKR" netid="HL" insttype="120" lat="35.1147" lon="26.2169">
    <comp name="--.HHN">
      <acc value="0.0062122617" flag="0"/>
      <vel value="0.0033027368" flag="0"/>
      <psa03 value="0.0185416510" flag="0"/>
      <psa10 value="0.0043013925" flag="0"/>
      <psa30 value="0.0004143496" flag="0"/>
    </comp>
    <comp name="--.HHZ">
      <acc value="0.0076256557" flag="0"/>
      <vel value="0.0042247313" flag="0"/>
      <psa03 value="0.0178742325" flag="0"/>
      <psa10 value="0.0043199132" flag="0"/>
      <psa30 value="0.0007261954" flag="0"/>
    </comp>
    <comp name="--.HHE">
      <acc value="0.0115958111" flag="0"/>
      <vel value="0.0058209871" flag="0"/>
      <psa03 value="0.0244455220" flag="0"/>
      <psa10 value="0.0080549310" flag="0"/>
      <psa30 value="0.0005138138" flag="0"/>
    </comp>
  </station>
</stationlist>
