<stationlist created="1778138362">
	<station code="SIT2" name="SIT2" netid="HI" source="ITSAK Strong Motion Network" insttype="" lat="35.2059" lon="26.107">
		<comp name="--.HNE" depth="0.0">
			<acc value="0.0356244210228698" flag="0"/>
			<vel value="0.0269711456829723" flag="0"/>
			<psa03 value="0.108600256734066" flag="0"/>
			<psa10 value="0.0178398586781015" flag="0"/>
			<psa30 value="0.00119989052852319" flag="0"/>
		</comp>
		<comp name="--.HNN" depth="0.0">
			<acc value="0.0405713865666596" flag="0"/>
			<vel value="0.0317977863768968" flag="0"/>
			<psa03 value="0.108482978131433" flag="0"/>
			<psa10 value="0.022718151841045" flag="0"/>
			<psa30 value="0.00151139835189066" flag="0"/>
		</comp>
		<comp name="--.HNZ" depth="0.0">
			<acc value="0.0253790651345769" flag="0"/>
			<vel value="0.0108915771797028" flag="0"/>
			<psa03 value="0.0570824428900499" flag="0"/>
			<psa10 value="0.00555796756308054" flag="0"/>
			<psa30 value="0.000941730614197798" flag="0"/>
		</comp>
	</station>
</stationlist>
