<?xml version="1.0" encoding="UTF-8" standalone="yes"?>
<!DOCTYPE earthquake SYSTEM "stationlist.dtd">
<stationlist created="" xmlns="ch.ethz.sed.shakemap.usgs.xml">
  <station code="KARP" name="KARP" netid="GE" insttype="STS-2/N" lat="35.5471" lon="27.1611">
    <comp name="--.HHE">
      <acc value="0.0279232056" flag="0"/>
      <vel value="0.0087175833" flag="0"/>
      <psa03 value="0.0467150155" flag="0"/>
      <psa10 value="0.0133317786" flag="0"/>
      <psa30 value="0.0005112253" flag="0"/>
    </comp>
    <comp name="--.HHN">
      <acc value="0.0300359995" flag="0"/>
      <vel value="0.0115218617" flag="0"/>
      <psa03 value="0.0380612325" flag="0"/>
      <psa10 value="0.0181697287" flag="0"/>
      <psa30 value="0.0007608211" flag="0"/>
    </comp>
    <comp name="--.HHZ">
      <acc value="0.0161284825" flag="0"/>
      <vel value="0.0045861987" flag="0"/>
      <psa03 value="0.0203716348" flag="0"/>
      <psa10 value="0.0093100217" flag="0"/>
      <psa30 value="0.0003978232" flag="0"/>
    </comp>
  </station>
  <station code="ZKR" name="ZKR" netid="GE" insttype="STS-2/N" lat="35.1147" lon="26.2169">
    <comp name="--.HHE">
      <acc value="1.6141830769" flag="0"/>
      <vel value="0.5111450560" flag="0"/>
      <psa03 value="2.6621768876" flag="0"/>
      <psa10 value="0.1526231992" flag="0"/>
      <psa30 value="0.0168054397" flag="0"/>
    </comp>
    <comp name="--.HHZ">
      <acc value="0.6492778684" flag="0"/>
      <vel value="0.1156250126" flag="0"/>
      <psa03 value="1.0272141217" flag="0"/>
      <psa10 value="0.0371607886" flag="0"/>
      <psa30 value="0.0040658741" flag="0"/>
    </comp>
    <comp name="--.HHN">
      <acc value="0.5678933980" flag="0"/>
      <vel value="0.1635035189" flag="0"/>
      <psa03 value="0.6295745321" flag="0"/>
      <psa10 value="0.0343879554" flag="0"/>
      <psa30 value="0.0022436163" flag="0"/>
    </comp>
  </station>
  <station code="KNSS" name="KNSS" netid="HC" insttype="60" lat="35.3042" lon="25.1802">
    <comp name="--.HHE">
      <acc value="0.0208659042" flag="0"/>
      <vel value="0.0113214702" flag="0"/>
      <psa03 value="0.0730626215" flag="0"/>
      <psa10 value="0.0084614707" flag="0"/>
      <psa30 value="0.0006409877" flag="0"/>
    </comp>
    <comp name="--.HHZ">
      <acc value="0.0115778581" flag="0"/>
      <vel value="0.0060559955" flag="0"/>
      <psa03 value="0.0319465074" flag="0"/>
      <psa10 value="0.0039518668" flag="0"/>
      <psa30 value="0.0003298163" flag="0"/>
    </comp>
    <comp name="--.HHN">
      <acc value="0.0163387937" flag="0"/>
      <vel value="0.0073145469" flag="0"/>
      <psa03 value="0.0452756390" flag="0"/>
      <psa10 value="0.0056219655" flag="0"/>
      <psa30 value="0.0004269496" flag="0"/>
    </comp>
  </station>
  <station code="PFKS" name="PFKS" netid="HC" insttype="120" lat="35.0429" lon="25.4733">
    <comp name="--.HHZ">
      <acc value="0.0318540862" flag="0"/>
      <vel value="0.0164825493" flag="0"/>
      <psa03 value="0.0664852305" flag="0"/>
      <psa10 value="0.0072695813" flag="0"/>
      <psa30 value="0.0006579843" flag="0"/>
    </comp>
    <comp name="--.HHE">
      <acc value="0.0619858854" flag="0"/>
      <vel value="0.0282921485" flag="0"/>
      <psa03 value="0.2947940501" flag="0"/>
      <psa10 value="0.0145035222" flag="0"/>
      <psa30 value="0.0009127835" flag="0"/>
    </comp>
    <comp name="--.HHN">
      <acc value="0.0637561843" flag="0"/>
      <vel value="0.0274160604" flag="0"/>
      <psa03 value="0.1774339740" flag="0"/>
      <psa10 value="0.0158092902" flag="0"/>
      <psa30 value="0.0008723452" flag="0"/>
    </comp>
  </station>
  <station code="STIA" name="STIA" netid="HC" insttype="120" lat="35.2021" lon="26.0909">
    <comp name="--.HHE">
      <acc value="0.1878544716" flag="0"/>
      <vel value="0.0686833650" flag="0"/>
      <psa03 value="0.3035467268" flag="0"/>
      <psa10 value="0.0367891083" flag="0"/>
      <psa30 value="0.0032851892" flag="0"/>
    </comp>
    <comp name="--.HHZ">
      <acc value="0.2461312333" flag="0"/>
      <vel value="0.0416228223" flag="0"/>
      <psa03 value="0.2329039763" flag="0"/>
      <psa10 value="0.0228864431" flag="0"/>
      <psa30 value="0.0024881793" flag="0"/>
    </comp>
    <comp name="--.HHN">
      <acc value="0.1654888744" flag="0"/>
      <vel value="0.0647188472" flag="0"/>
      <psa03 value="0.2815105012" flag="0"/>
      <psa10 value="0.0445013505" flag="0"/>
      <psa30 value="0.0036299818" flag="0"/>
    </comp>
  </station>
  <station code="TEFL" name="TEFL" netid="HC" insttype="GEOtiny," lat="35.0933" lon="25.1634">
    <comp name="--.HHN">
      <acc value="0.0438959550" flag="0"/>
      <vel value="0.0212777901" flag="0"/>
      <psa03 value="0.0982420473" flag="0"/>
      <psa10 value="0.0189715994" flag="0"/>
      <psa30 value="0.0012228730" flag="0"/>
    </comp>
    <comp name="--.HHZ">
      <acc value="0.0192551665" flag="0"/>
      <vel value="0.0095476210" flag="0"/>
      <psa03 value="0.0501958342" flag="0"/>
      <psa10 value="0.0068009058" flag="0"/>
      <psa30 value="0.0004484677" flag="0"/>
    </comp>
    <comp name="--.HHE">
      <acc value="0.0414038878" flag="0"/>
      <vel value="0.0194655812" flag="0"/>
      <psa03 value="0.1060740320" flag="0"/>
      <psa10 value="0.0177175829" flag="0"/>
      <psa30 value="0.0016649859" flag="0"/>
    </comp>
  </station>
  <station code="SIT2" name="SIT2" netid="HI" insttype="CMG-5TD,ACCELEROMETER,GURALP" lat="35.2059" lon="26.107">
    <comp name="--.HNE">
      <acc value="0.3659035219" flag="0"/>
      <vel value="0.2092831500" flag="0"/>
      <psa03 value="0.8184744981" flag="0"/>
      <psa10 value="0.0900720628" flag="0"/>
      <psa30 value="0.0068298107" flag="0"/>
    </comp>
    <comp name="--.HNN">
      <acc value="0.4078150118" flag="0"/>
      <vel value="0.2128402247" flag="0"/>
      <psa03 value="0.9288825075" flag="0"/>
      <psa10 value="0.0992368729" flag="0"/>
      <psa30 value="0.0061532695" flag="0"/>
    </comp>
    <comp name="--.HNZ">
      <acc value="0.3397859675" flag="0"/>
      <vel value="0.1180000309" flag="0"/>
      <psa03 value="0.8046145746" flag="0"/>
      <psa10 value="0.0334080350" flag="0"/>
      <psa30 value="0.0031719008" flag="0"/>
    </comp>
  </station>
  <station code="KARP" name="KARP" netid="HL" insttype="120" lat="35.5471" lon="27.1611">
    <comp name="--.HHE">
      <acc value="0.0269778964" flag="0"/>
      <vel value="0.0086308302" flag="0"/>
      <psa03 value="0.0451782116" flag="0"/>
      <psa10 value="0.0132307603" flag="0"/>
      <psa30 value="0.0005057071" flag="0"/>
    </comp>
    <comp name="--.HHN">
      <acc value="0.0264241108" flag="0"/>
      <vel value="0.0113358688" flag="0"/>
      <psa03 value="0.0370450099" flag="0"/>
      <psa10 value="0.0180562559" flag="0"/>
      <psa30 value="0.0007588251" flag="0"/>
    </comp>
    <comp name="--.HHZ">
      <acc value="0.0149197618" flag="0"/>
      <vel value="0.0045369156" flag="0"/>
      <psa03 value="0.0197163692" flag="0"/>
      <psa10 value="0.0092502694" flag="0"/>
      <psa30 value="0.0003951254" flag="0"/>
    </comp>
  </station>
  <station code="ZKR" name="ZKR" netid="HL" insttype="120" lat="35.1147" lon="26.2169">
    <comp name="--.HHE">
      <acc value="1.5862419472" flag="0"/>
      <vel value="0.4994740255" flag="0"/>
      <psa03 value="2.5825864488" flag="0"/>
      <psa10 value="0.1484530382" flag="0"/>
      <psa30 value="0.0165262762" flag="0"/>
    </comp>
    <comp name="--.HHN">
      <acc value="0.5501607807" flag="0"/>
      <vel value="0.1590803299" flag="0"/>
      <psa03 value="0.6100363550" flag="0"/>
      <psa10 value="0.0340962217" flag="0"/>
      <psa30 value="0.0022104085" flag="0"/>
    </comp>
    <comp name="--.HHZ">
      <acc value="0.6527609444" flag="0"/>
      <vel value="0.1134313167" flag="0"/>
      <psa03 value="0.9989094909" flag="0"/>
      <psa10 value="0.0367586691" flag="0"/>
      <psa30 value="0.0039953592" flag="0"/>
    </comp>
  </station>
</stationlist>
