<?xml version="1.0" encoding="UTF-8" standalone="yes"?>
<!DOCTYPE earthquake SYSTEM "stationlist.dtd">
<stationlist created="" xmlns="ch.ethz.sed.shakemap.usgs.xml">
  <station code="KARP" name="KARP" netid="GE" insttype="STS-2/N" lat="35.5471" lon="27.1611">
    <comp name="--.HHE">
      <acc value="0.0279232054" flag="0"/>
      <vel value="0.0087175827" flag="0"/>
      <psa03 value="0.0467150155" flag="0"/>
      <psa10 value="0.0133317785" flag="0"/>
      <psa30 value="0.0005111974" flag="0"/>
    </comp>
    <comp name="--.HHZ">
      <acc value="0.0161284825" flag="0"/>
      <vel value="0.0045861985" flag="0"/>
      <psa03 value="0.0203716348" flag="0"/>
      <psa10 value="0.0093100217" flag="0"/>
      <psa30 value="0.0003978187" flag="0"/>
    </comp>
    <comp name="--.HHN">
      <acc value="0.0300359992" flag="0"/>
      <vel value="0.0115218632" flag="0"/>
      <psa03 value="0.0380612325" flag="0"/>
      <psa10 value="0.0181697287" flag="0"/>
      <psa30 value="0.0007608497" flag="0"/>
    </comp>
  </station>
  <station code="ZKR" name="ZKR" netid="GE" insttype="STS-2/N" lat="35.1147" lon="26.2169">
    <comp name="--.HHZ">
      <acc value="0.6492778686" flag="0"/>
      <vel value="0.1156250127" flag="0"/>
      <psa03 value="1.0272141217" flag="0"/>
      <psa10 value="0.0371607944" flag="0"/>
      <psa30 value="0.0040653655" flag="0"/>
    </comp>
    <comp name="--.HHE">
      <acc value="1.6141830767" flag="0"/>
      <vel value="0.5111450584" flag="0"/>
      <psa03 value="2.6621768876" flag="0"/>
      <psa10 value="0.1526232072" flag="0"/>
      <psa30 value="0.0168056784" flag="0"/>
    </comp>
    <comp name="--.HHN">
      <acc value="0.5678933978" flag="0"/>
      <vel value="0.1635035197" flag="0"/>
      <psa03 value="0.6295745321" flag="0"/>
      <psa10 value="0.0343879599" flag="0"/>
      <psa30 value="0.0022435689" flag="0"/>
    </comp>
  </station>
</stationlist>
