<?xml version="1.0" encoding="UTF-8" standalone="yes"?>
<!DOCTYPE earthquake SYSTEM "stationlist.dtd">
<stationlist created="" xmlns="ch.ethz.sed.shakemap.usgs.xml">
  <station code="AKDM" name="AKDM" netid="KO" insttype="30s," lat="38.3285" lon="42.98">
    <comp name="--.HHE">
      <acc value="0.0116538954" flag="0"/>
      <vel value="0.0036737378" flag="0"/>
      <psa03 value="0.0151504917" flag="0"/>
      <psa10 value="0.0028138449" flag="0"/>
      <psa30 value="0.0008455504" flag="0"/>
    </comp>
    <comp name="--.HHN">
      <acc value="0.0083731032" flag="0"/>
      <vel value="0.0037476968" flag="0"/>
      <psa03 value="0.0144904616" flag="0"/>
      <psa10 value="0.0029250921" flag="0"/>
      <psa30 value="0.0003244516" flag="0"/>
    </comp>
    <comp name="--.HHZ">
      <acc value="0.0087287455" flag="0"/>
      <vel value="0.0033016535" flag="0"/>
      <psa03 value="0.0128319317" flag="0"/>
      <psa10 value="0.0022015769" flag="0"/>
      <psa30 value="0.0004466983" flag="0"/>
    </comp>
  </station>
  <station code="MLAZ" name="MLAZ" netid="KO" insttype="120s," lat="39.141" lon="42.5496">
    <comp name="--.HHE">
      <acc value="0.0417618485" flag="0"/>
      <vel value="0.0203503640" flag="0"/>
      <psa03 value="0.0939658180" flag="0"/>
      <psa10 value="0.0327533469" flag="0"/>
      <psa30 value="0.0039450753" flag="0"/>
    </comp>
    <comp name="--.HHN">
      <acc value="0.0261264502" flag="0"/>
      <vel value="0.0167558929" flag="0"/>
      <psa03 value="0.0764972190" flag="0"/>
      <psa10 value="0.0248105928" flag="0"/>
      <psa30 value="0.0025990239" flag="0"/>
    </comp>
    <comp name="--.HHZ">
      <acc value="0.0152200813" flag="0"/>
      <vel value="0.0122913978" flag="0"/>
      <psa03 value="0.0507176177" flag="0"/>
      <psa10 value="0.0155815043" flag="0"/>
      <psa30 value="0.0014118885" flag="0"/>
    </comp>
  </station>
</stationlist>
