<?xml version="1.0" encoding="UTF-8" standalone="yes"?>
<!DOCTYPE earthquake SYSTEM "stationlist.dtd">
<stationlist created="" xmlns="ch.ethz.sed.shakemap.usgs.xml">
  <station code="ERBG" name="ERBG" netid="KO" insttype="CMG-5T" lat="40.712" lon="36.6768">
    <comp name="--.HNZ">
      <acc value="0.4560677912" flag="0"/>
      <vel value="0.1160489884" flag="0"/>
      <psa03 value="0.8002273766" flag="0"/>
      <psa10 value="0.1366887716" flag="0"/>
      <psa30 value="0.0047859024" flag="0"/>
    </comp>
    <comp name="--.HNN">
      <acc value="0.9037459201" flag="0"/>
      <vel value="0.2168751403" flag="0"/>
      <psa03 value="1.0833242062" flag="0"/>
      <psa10 value="0.1844589043" flag="0"/>
      <psa30 value="0.0117904104" flag="0"/>
    </comp>
    <comp name="--.HNE">
      <acc value="0.6380130574" flag="0"/>
      <vel value="0.2672836286" flag="0"/>
      <psa03 value="1.1111285584" flag="0"/>
      <psa10 value="0.1706004915" flag="0"/>
      <psa30 value="0.0114751664" flag="0"/>
    </comp>
  </station>
  <station code="KYHL" name="KYHL" netid="KO" insttype="CMG-5T" lat="40.3244" lon="37.8955">
    <comp name="--.HNZ">
      <acc value="0.1153871132" flag="0"/>
      <vel value="0.0295589213" flag="0"/>
      <psa03 value="0.2407792781" flag="0"/>
      <psa10 value="0.0192103088" flag="0"/>
      <psa30 value="0.0015790863" flag="0"/>
    </comp>
    <comp name="--.HNN">
      <acc value="0.1548363064" flag="0"/>
      <vel value="0.0691113034" flag="0"/>
      <psa03 value="0.4386746771" flag="0"/>
      <psa10 value="0.0407516142" flag="0"/>
      <psa30 value="0.0032329142" flag="0"/>
    </comp>
    <comp name="--.HNE">
      <acc value="0.1828789182" flag="0"/>
      <vel value="0.0625510862" flag="0"/>
      <psa03 value="0.2985750728" flag="0"/>
      <psa10 value="0.0459436174" flag="0"/>
      <psa30 value="0.0026300752" flag="0"/>
    </comp>
  </station>
  <station code="TUNC" name="TUNC" netid="KO" insttype="CMG-5T" lat="39.6942" lon="37.5388">
    <comp name="--.HNE">
      <acc value="0.0205357772" flag="0"/>
      <vel value="0.0135101051" flag="0"/>
      <psa03 value="0.0471725680" flag="0"/>
      <psa10 value="0.0145339643" flag="0"/>
      <psa30 value="0.0008753386" flag="0"/>
    </comp>
    <comp name="--.HNZ">
      <acc value="0.0146326859" flag="0"/>
      <vel value="0.0079854313" flag="0"/>
      <psa03 value="0.0281923005" flag="0"/>
      <psa10 value="0.0084891775" flag="0"/>
      <psa30 value="0.0015901475" flag="0"/>
    </comp>
    <comp name="--.HNN">
      <acc value="0.0317449589" flag="0"/>
      <vel value="0.0156628835" flag="0"/>
      <psa03 value="0.0763506939" flag="0"/>
      <psa10 value="0.0176815755" flag="0"/>
      <psa30 value="0.0007830931" flag="0"/>
    </comp>
  </station>
</stationlist>
