<stationlist created="1775820625">
	<station code="ERBG" name="ERBG" netid="KO" source="Bogazici University Kandilli Observatory And Earthquake Research Institute (KOERI)" insttype="" lat="40.712" lon="36.6768">
		<comp name="--.HNE" depth="0.0">
			<acc value="0.5952168286274" flag="0"/>
			<vel value="0.267392441806182" flag="0"/>
			<psa03 value="1.10217309689386" flag="0"/>
			<psa10 value="0.171207676668406" flag="0"/>
			<psa30 value="0.0116808729671767" flag="0"/>
		</comp>
		<comp name="--.HNN" depth="0.0">
			<acc value="0.874936891278466" flag="0"/>
			<vel value="0.222235634065752" flag="0"/>
			<psa03 value="1.09140996722169" flag="0"/>
			<psa10 value="0.184853765654772" flag="0"/>
			<psa30 value="0.0115251726528132" flag="0"/>
		</comp>
		<comp name="--.HNZ" depth="0.0">
			<acc value="0.455905197546465" flag="0"/>
			<vel value="0.116836402462799" flag="0"/>
			<psa03 value="0.795146341208901" flag="0"/>
			<psa10 value="0.1369181051527" flag="0"/>
			<psa30 value="0.00465727852182882" flag="0"/>
		</comp>
	</station>
	<station code="GUMT" name="GUMT" netid="KO" source="Bogazici University Kandilli Observatory And Earthquake Research Institute (KOERI)" insttype="" lat="40.4665" lon="39.478">
		<comp name="--.HNE" depth="0.0">
			<acc value="0.00250203742125076" flag="0"/>
			<vel value="0.00727057224702899" flag="0"/>
			<psa03 value="0.00585539440155365" flag="0"/>
			<psa10 value="0.00528889005050273" flag="0"/>
			<psa30 value="0.00423219369539558" flag="0"/>
		</comp>
		<comp name="--.HNN" depth="0.0">
			<acc value="0.00063205983214153" flag="0"/>
			<vel value="0.00074430764903665" flag="0"/>
			<psa03 value="0.000862620946486047" flag="0"/>
			<psa10 value="0.00061390353918993" flag="0"/>
			<psa30 value="0.000409200831505387" flag="0"/>
		</comp>
		<comp name="--.HNZ" depth="0.0">
			<acc value="0.000406455000934633" flag="0"/>
			<vel value="0.000705381169693317" flag="0"/>
			<psa03 value="0.000662561673035983" flag="0"/>
			<psa10 value="0.000576871418023353" flag="0"/>
			<psa30 value="0.000512866058193117" flag="0"/>
		</comp>
	</station>
	<station code="KYHL" name="KYHL" netid="KO" source="Bogazici University Kandilli Observatory And Earthquake Research Institute (KOERI)" insttype="" lat="40.3244" lon="37.8955">
		<comp name="--.HNE" depth="0.0">
			<acc value="0.182904778797827" flag="0"/>
			<vel value="0.062712230975477" flag="0"/>
			<psa03 value="0.304021452429359" flag="0"/>
			<psa10 value="0.0460333207315262" flag="0"/>
			<psa30 value="0.00268350214384783" flag="0"/>
		</comp>
		<comp name="--.HNN" depth="0.0">
			<acc value="0.154560631270198" flag="0"/>
			<vel value="0.070640231098995" flag="0"/>
			<psa03 value="0.438546551556558" flag="0"/>
			<psa10 value="0.0408805993890226" flag="0"/>
			<psa30 value="0.00329352609660513" flag="0"/>
		</comp>
		<comp name="--.HNZ" depth="0.0">
			<acc value="0.114181436119213" flag="0"/>
			<vel value="0.0298133804014706" flag="0"/>
			<psa03 value="0.242499751918253" flag="0"/>
			<psa10 value="0.0192750243757533" flag="0"/>
			<psa30 value="0.00156704485069755" flag="0"/>
		</comp>
	</station>
	<station code="RFHY" name="RFHY" netid="KO" source="Bogazici University Kandilli Observatory And Earthquake Research Institute (KOERI)" insttype="" lat="39.927" lon="38.833">
		<comp name="--.HNE" depth="0.0">
			<acc value="0.0115039143463927" flag="0"/>
			<vel value="0.00966219480374236" flag="0"/>
			<psa03 value="0.025378178575621" flag="0"/>
			<psa10 value="0.0137126662093339" flag="0"/>
			<psa30 value="0.00238819112260807" flag="0"/>
		</comp>
		<comp name="--.HNN" depth="0.0">
			<acc value="0.0107748610017308" flag="0"/>
			<vel value="0.0118239378257793" flag="0"/>
			<psa03 value="0.0220965340994426" flag="0"/>
			<psa10 value="0.0177042703210139" flag="0"/>
			<psa30 value="0.0025429242895855" flag="0"/>
		</comp>
		<comp name="--.HNZ" depth="0.0">
			<acc value="0.00672124657248368" flag="0"/>
			<vel value="0.00541147507900708" flag="0"/>
			<psa03 value="0.0139917745426668" flag="0"/>
			<psa10 value="0.00722258799227264" flag="0"/>
			<psa30 value="0.0010766655946454" flag="0"/>
		</comp>
	</station>
	<station code="SINP" name="SINP" netid="KO" source="Bogazici University Kandilli Observatory And Earthquake Research Institute (KOERI)" insttype="" lat="41.9824" lon="35.0956">
		<comp name="--.HNE" depth="0.0">
			<acc value="0.0384608596734026" flag="0"/>
			<vel value="0.0194445525519055" flag="0"/>
			<psa03 value="0.0490594114034307" flag="0"/>
			<psa10 value="0.0257770382272859" flag="0"/>
			<psa30 value="0.00309674931111257" flag="0"/>
		</comp>
		<comp name="--.HNN" depth="0.0">
			<acc value="0.0467578290275752" flag="0"/>
			<vel value="0.0204778973048172" flag="0"/>
			<psa03 value="0.0723435788651914" flag="0"/>
			<psa10 value="0.019337685401747" flag="0"/>
			<psa30 value="0.00401913291449863" flag="0"/>
		</comp>
		<comp name="--.HNZ" depth="0.0">
			<acc value="0.0141720284636686" flag="0"/>
			<vel value="0.00819408637424784" flag="0"/>
			<psa03 value="0.0244109374172908" flag="0"/>
			<psa10 value="0.0155634719411197" flag="0"/>
			<psa30 value="0.00209384412356501" flag="0"/>
		</comp>
	</station>
	<station code="TUNC" name="TUNC" netid="KO" source="Bogazici University Kandilli Observatory And Earthquake Research Institute (KOERI)" insttype="" lat="39.6942" lon="37.5388">
		<comp name="--.HNE" depth="0.0">
			<acc value="0.0204335013580567" flag="0"/>
			<vel value="0.0135692798478206" flag="0"/>
			<psa03 value="0.0471273094529668" flag="0"/>
			<psa10 value="0.0146029986269878" flag="0"/>
			<psa30 value="0.0010007567118859" flag="0"/>
		</comp>
		<comp name="--.HNN" depth="0.0">
			<acc value="0.0317450075767966" flag="0"/>
			<vel value="0.0157709591391965" flag="0"/>
			<psa03 value="0.0763021327668101" flag="0"/>
			<psa10 value="0.017697184226614" flag="0"/>
			<psa30 value="0.000813714529593287" flag="0"/>
		</comp>
		<comp name="--.HNZ" depth="0.0">
			<acc value="0.0146887394103383" flag="0"/>
			<vel value="0.00800245639505633" flag="0"/>
			<psa03 value="0.028370061669025" flag="0"/>
			<psa10 value="0.00848658906986926" flag="0"/>
			<psa30 value="0.0017309862318431" flag="0"/>
		</comp>
	</station>
</stationlist>
