<stationlist created="1778723788">
	<station code="0904" name="0904" netid="TK" source="Turkish National Strong Motion Network (TNSMN)" insttype="" lat="37.85716" lon="28.05025">
		<comp name="00.HNE" depth="None">
			<acc value="0.305312714107289" flag="0"/>
			<vel value="0.698118507192866" flag="0"/>
			<psa03 value="0.691177607839062" flag="0"/>
			<psa10 value="0.751046259670839" flag="0"/>
			<psa30 value="0.16503341879976" flag="0"/>
		</comp>
		<comp name="00.HNN" depth="None">
			<acc value="0.423157715221116" flag="0"/>
			<vel value="0.548999284796202" flag="0"/>
			<psa03 value="0.991755751900612" flag="0"/>
			<psa10 value="0.850882677252652" flag="0"/>
			<psa30 value="0.197412458885271" flag="0"/>
		</comp>
		<comp name="00.HNZ" depth="None">
			<acc value="0.25632458597249" flag="0"/>
			<vel value="0.339355167774162" flag="0"/>
			<psa03 value="0.707195317808403" flag="0"/>
			<psa10 value="0.52295630681775" flag="0"/>
			<psa30 value="0.0959595053783398" flag="0"/>
		</comp>
	</station>
	<station code="0908" name="0908" netid="TK" source="Turkish National Strong Motion Network (TNSMN)" insttype="" lat="37.91333" lon="28.34308">
		<comp name="00.HNE" depth="None">
			<acc value="0.619435684996819" flag="0"/>
			<vel value="1.03864189676138" flag="0"/>
			<psa03 value="1.13014339697093" flag="0"/>
			<psa10 value="1.47275326477381" flag="0"/>
			<psa30 value="0.326230640804069" flag="0"/>
		</comp>
		<comp name="00.HNN" depth="None">
			<acc value="0.499622277654593" flag="0"/>
			<vel value="0.599212978895559" flag="0"/>
			<psa03 value="1.18119425472237" flag="0"/>
			<psa10 value="0.885815155069868" flag="0"/>
			<psa30 value="0.256653377558194" flag="0"/>
		</comp>
		<comp name="00.HNZ" depth="None">
			<acc value="0.202967159283242" flag="0"/>
			<vel value="0.317745674872831" flag="0"/>
			<psa03 value="0.501336425157735" flag="0"/>
			<psa10 value="0.418646115996176" flag="0"/>
			<psa30 value="0.144169680431594" flag="0"/>
		</comp>
	</station>
	<station code="1001" name="1001" netid="TK" source="Turkish National Strong Motion Network (TNSMN)" insttype="" lat="39.65003" lon="27.85686">
		<comp name="00.HNE" depth="None">
			<acc value="0.443435355195923" flag="0"/>
			<vel value="0.303295878604973" flag="0"/>
			<psa03 value="1.73640029664851" flag="0"/>
			<psa10 value="0.216210896995938" flag="0"/>
			<psa30 value="0.0810187403223003" flag="0"/>
		</comp>
		<comp name="00.HNN" depth="None">
			<acc value="0.45817597205329" flag="0"/>
			<vel value="0.353862906674941" flag="0"/>
			<psa03 value="1.19403526802182" flag="0"/>
			<psa10 value="0.493987517720684" flag="0"/>
			<psa30 value="0.0863895948047576" flag="0"/>
		</comp>
		<comp name="00.HNZ" depth="None">
			<acc value="0.219201694791059" flag="0"/>
			<vel value="0.14939361750413" flag="0"/>
			<psa03 value="0.904776902234692" flag="0"/>
			<psa10 value="0.185993800334222" flag="0"/>
			<psa30 value="0.0246372960743513" flag="0"/>
		</comp>
	</station>
	<station code="1601" name="1601" netid="TK" source="Turkish National Strong Motion Network (TNSMN)" insttype="" lat="40.22566" lon="29.07518">
		<comp name="00.HNE" depth="None">
			<acc value="0.227584073987765" flag="0"/>
			<vel value="0.507453238896222" flag="0"/>
			<psa03 value="0.379413912122945" flag="0"/>
			<psa10 value="0.701226707445526" flag="0"/>
			<psa30 value="0.167803408811497" flag="0"/>
		</comp>
		<comp name="00.HNN" depth="None">
			<acc value="0.230730411239066" flag="0"/>
			<vel value="0.57882063693852" flag="0"/>
			<psa03 value="0.376058246626574" flag="0"/>
			<psa10 value="0.652607141201715" flag="0"/>
			<psa30 value="0.254945120109508" flag="0"/>
		</comp>
		<comp name="00.HNZ" depth="None">
			<acc value="0.132392050455435" flag="0"/>
			<vel value="0.347053833993256" flag="0"/>
			<psa03 value="0.159774419833848" flag="0"/>
			<psa10 value="0.477743412185854" flag="0"/>
			<psa30 value="0.175022563849355" flag="0"/>
		</comp>
	</station>
	<station code="1606" name="1606" netid="TK" source="Turkish National Strong Motion Network (TNSMN)" insttype="" lat="40.36298" lon="29.12207">
		<comp name="00.HNE" depth="None">
			<acc value="0.107023560151553" flag="0"/>
			<vel value="0.101435273448803" flag="0"/>
			<psa03 value="0.45435710820855" flag="0"/>
			<psa10 value="0.110366495909423" flag="0"/>
			<psa30 value="0.0379355747254341" flag="0"/>
		</comp>
		<comp name="00.HNN" depth="None">
			<acc value="0.181250146463193" flag="0"/>
			<vel value="0.131454088303889" flag="0"/>
			<psa03 value="0.48232098734497" flag="0"/>
			<psa10 value="0.144590257173806" flag="0"/>
			<psa30 value="0.0497117235073632" flag="0"/>
		</comp>
		<comp name="00.HNZ" depth="None">
			<acc value="0.0501474245364097" flag="0"/>
			<vel value="0.0747427797411927" flag="0"/>
			<psa03 value="0.11780623002591" flag="0"/>
			<psa10 value="0.0957572706044252" flag="0"/>
			<psa30 value="0.0486414899250541" flag="0"/>
		</comp>
	</station>
	<station code="1609" name="1609" netid="TK" source="Turkish National Strong Motion Network (TNSMN)" insttype="" lat="40.42539" lon="29.16658">
		<comp name="00.HNE" depth="None">
			<acc value="0.256471260721955" flag="0"/>
			<vel value="0.370211885706326" flag="0"/>
			<psa03 value="0.520038667524173" flag="0"/>
			<psa10 value="1.22357094087674" flag="0"/>
			<psa30 value="0.0656421861737988" flag="0"/>
		</comp>
		<comp name="00.HNN" depth="None">
			<acc value="0.24876256562999" flag="0"/>
			<vel value="0.339370454830296" flag="0"/>
			<psa03 value="0.592968464311956" flag="0"/>
			<psa10 value="0.956066683369481" flag="0"/>
			<psa30 value="0.0777355572006515" flag="0"/>
		</comp>
		<comp name="00.HNZ" depth="None">
			<acc value="0.110908958454306" flag="0"/>
			<vel value="0.124015684268958" flag="0"/>
			<psa03 value="0.276372610281065" flag="0"/>
			<psa10 value="0.208894203947652" flag="0"/>
			<psa30 value="0.0160427656050475" flag="0"/>
		</comp>
	</station>
	<station code="2007" name="2007" netid="TK" source="Turkish National Strong Motion Network (TNSMN)" insttype="" lat="37.93252" lon="28.92294">
		<comp name="00.HNE" depth="None">
			<acc value="0.372867550158118" flag="0"/>
			<vel value="0.605403676050697" flag="0"/>
			<psa03 value="0.649164675824505" flag="0"/>
			<psa10 value="1.0417489038876" flag="0"/>
			<psa30 value="0.234991438223957" flag="0"/>
		</comp>
		<comp name="00.HNN" depth="None">
			<acc value="0.349959975220377" flag="0"/>
			<vel value="0.659604616979317" flag="0"/>
			<psa03 value="0.631402019797051" flag="0"/>
			<psa10 value="1.02402293646958" flag="0"/>
			<psa30 value="0.245048591427613" flag="0"/>
		</comp>
		<comp name="00.HNZ" depth="None">
			<acc value="0.149566201343802" flag="0"/>
			<vel value="0.255590460715185" flag="0"/>
			<psa03 value="0.299235877863002" flag="0"/>
			<psa10 value="0.375426486669124" flag="0"/>
			<psa30 value="0.0798075687891437" flag="0"/>
		</comp>
	</station>
	<station code="3502" name="3502" netid="TK" source="Turkish National Strong Motion Network (TNSMN)" insttype="" lat="38.45514" lon="27.22673">
		<comp name="00.HNE" depth="None">
			<acc value="3.25426949056844" flag="0"/>
			<vel value="2.73734202114879" flag="0"/>
			<psa03 value="5.7032890776311" flag="0"/>
			<psa10 value="2.80748398088332" flag="0"/>
			<psa30 value="0.384287233267807" flag="0"/>
		</comp>
		<comp name="00.HNN" depth="None">
			<acc value="2.42394309252441" flag="0"/>
			<vel value="2.16273789205831" flag="0"/>
			<psa03 value="7.3529789778534" flag="0"/>
			<psa10 value="2.38103795600738" flag="0"/>
			<psa30 value="0.187149044109106" flag="0"/>
		</comp>
		<comp name="00.HNZ" depth="None">
			<acc value="1.46699278580104" flag="0"/>
			<vel value="0.77999709107954" flag="0"/>
			<psa03 value="2.88631974894471" flag="0"/>
			<psa10 value="1.14059875581348" flag="0"/>
			<psa30 value="0.107523128678832" flag="0"/>
		</comp>
	</station>
	<station code="4302" name="4302" netid="TK" source="Turkish National Strong Motion Network (TNSMN)" insttype="" lat="39.4193" lon="29.99716">
		<comp name="00.HNE" depth="None">
			<acc value="0.250978473371708" flag="0"/>
			<vel value="0.490860035805523" flag="0"/>
			<psa03 value="0.403932641349757" flag="0"/>
			<psa10 value="0.662658030496443" flag="0"/>
			<psa30 value="0.123745757954485" flag="0"/>
		</comp>
		<comp name="00.HNN" depth="None">
			<acc value="0.257256639432712" flag="0"/>
			<vel value="0.387669434770432" flag="0"/>
			<psa03 value="0.329839547189899" flag="0"/>
			<psa10 value="0.737125616925696" flag="0"/>
			<psa30 value="0.152866223131987" flag="0"/>
		</comp>
		<comp name="00.HNZ" depth="None">
			<acc value="0.108040161176431" flag="0"/>
			<vel value="0.151494053239497" flag="0"/>
			<psa03 value="0.1625931788508" flag="0"/>
			<psa10 value="0.278042389432059" flag="0"/>
			<psa30 value="0.0464978908059727" flag="0"/>
		</comp>
	</station>
	<station code="4501" name="4501" netid="TK" source="Turkish National Strong Motion Network (TNSMN)" insttype="" lat="38.61259" lon="27.38138">
		<comp name="00.HNE" depth="0.0">
			<acc value="2.26288973381073" flag="0"/>
			<vel value="1.67395465460269" flag="0"/>
			<psa03 value="4.74007885355295" flag="0"/>
			<psa10 value="1.20092825237343" flag="0"/>
			<psa30 value="0.22702911513417" flag="0"/>
		</comp>
		<comp name="00.HNN" depth="0.0">
			<acc value="1.27392977085078" flag="0"/>
			<vel value="0.910442813407933" flag="0"/>
			<psa03 value="3.99570276204476" flag="0"/>
			<psa10 value="0.778102319434974" flag="0"/>
			<psa30 value="0.141899908289849" flag="0"/>
		</comp>
		<comp name="00.HNZ" depth="0.0">
			<acc value="1.25265376470112" flag="0"/>
			<vel value="0.927025347935859" flag="0"/>
			<psa03 value="3.2144143500765" flag="0"/>
			<psa10 value="0.910149098983347" flag="0"/>
			<psa30 value="0.0953671185627139" flag="0"/>
		</comp>
	</station>
</stationlist>
