<?xml version="1.0" encoding="UTF-8" standalone="yes"?>
<!DOCTYPE earthquake SYSTEM "stationlist.dtd">
<stationlist created="" xmlns="ch.ethz.sed.shakemap.usgs.xml">
  <station code="APE" name="APE" netid="GE" source="GFZ" insttype="STS-2/N" lat="37.0689" lon="25.5306">
    <comp name="--.HHE">
      <acc value="0.2404603050" flag="0"/>
      <vel value="0.1096093294" flag="0"/>
      <psa03 value="0.2939653344" flag="0"/>
      <psa10 value="0.0718693780" flag="0"/>
      <psa30 value="0.0299643607" flag="0"/>
    </comp>
    <comp name="--.HHN">
      <acc value="0.3061955772" flag="0"/>
      <vel value="0.1302483449" flag="0"/>
      <psa03 value="0.4874185336" flag="0"/>
      <psa10 value="0.1244697668" flag="0"/>
      <psa30 value="0.0199649765" flag="0"/>
    </comp>
    <comp name="--.HHZ">
      <acc value="0.1049145340" flag="0"/>
      <vel value="0.0624051524" flag="0"/>
      <psa03 value="0.2065525997" flag="0"/>
      <psa10 value="0.0680414685" flag="0"/>
      <psa30 value="0.0186592928" flag="0"/>
    </comp>
  </station>
  <station code="AMOE" name="AMOE" netid="Z3" source="GFZ" insttype="L4-3D" lat="36.915" lon="25.9788">
    <comp name="--.HHE">
      <acc value="0.2377072127" flag="0"/>
      <vel value="0.1366832509" flag="0"/>
      <psa03 value="0.6405746939" flag="0"/>
      <psa10 value="0.2587159222" flag="0"/>
      <psa30 value="0.0346832613" flag="0"/>
    </comp>
    <comp name="--.HHN">
      <acc value="0.2247609935" flag="0"/>
      <vel value="0.1555311968" flag="0"/>
      <psa03 value="0.5770606489" flag="0"/>
      <psa10 value="0.1379092678" flag="0"/>
      <psa30 value="0.0284069325" flag="0"/>
    </comp>
    <comp name="--.HHZ">
      <acc value="0.1276588939" flag="0"/>
      <vel value="0.1170462401" flag="0"/>
      <psa03 value="0.3821406869" flag="0"/>
      <psa10 value="0.0931442823" flag="0"/>
      <psa30 value="0.0524056036" flag="0"/>
    </comp>
  </station>
  <station code="AMOS" name="AMOS" netid="Z3" source="GFZ" insttype="CMG-3ESP/60" lat="36.7956" lon="25.769">
    <comp name="--.HHE">
      <acc value="0.0404857439" flag="0"/>
      <vel value="0.0236909972" flag="0"/>
      <psa03 value="0.1152796281" flag="0"/>
      <psa10 value="0.0218838712" flag="0"/>
      <psa30 value="0.0060600825" flag="0"/>
    </comp>
    <comp name="--.HHN">
      <acc value="0.0397331171" flag="0"/>
      <vel value="0.0187877827" flag="0"/>
      <psa03 value="0.1318120045" flag="0"/>
      <psa10 value="0.0138979161" flag="0"/>
      <psa30 value="0.0029528389" flag="0"/>
    </comp>
    <comp name="--.HHZ">
      <acc value="0.0385186371" flag="0"/>
      <vel value="0.0173919909" flag="0"/>
      <psa03 value="0.1073859885" flag="0"/>
      <psa10 value="0.0163138384" flag="0"/>
      <psa30 value="0.0078099308" flag="0"/>
    </comp>
  </station>
  <station code="ANDR" name="ANDR" netid="Z3" source="GFZ" insttype="CMG-3ESP/60" lat="37.8361" lon="24.9482">
    <comp name="--.HHE">
      <acc value="0.0367409600" flag="0"/>
      <vel value="0.0230733406" flag="0"/>
      <psa03 value="0.0855392690" flag="0"/>
      <psa10 value="0.0204354549" flag="0"/>
      <psa30 value="0.0096339518" flag="0"/>
    </comp>
    <comp name="--.HHN">
      <acc value="0.0417162201" flag="0"/>
      <vel value="0.0359822691" flag="0"/>
      <psa03 value="0.0958210623" flag="0"/>
      <psa10 value="0.0459600120" flag="0"/>
      <psa30 value="0.0103030856" flag="0"/>
    </comp>
    <comp name="--.HHZ">
      <acc value="0.0312462833" flag="0"/>
      <vel value="0.0223081598" flag="0"/>
      <psa03 value="0.0435687073" flag="0"/>
      <psa10 value="0.0196680037" flag="0"/>
      <psa30 value="0.0135328397" flag="0"/>
    </comp>
  </station>
  <station code="ANID" name="ANID" netid="Z3" source="GFZ" insttype="L4-3D" lat="36.6251" lon="25.6847">
    <comp name="--.HHE">
      <acc value="0.0991853391" flag="0"/>
      <vel value="0.0873937668" flag="0"/>
      <psa03 value="0.2112385380" flag="0"/>
      <psa10 value="0.1641433379" flag="0"/>
      <psa30 value="0.0384444651" flag="0"/>
    </comp>
    <comp name="--.HHN">
      <acc value="0.1168397688" flag="0"/>
      <vel value="0.1126853759" flag="0"/>
      <psa03 value="0.1748337104" flag="0"/>
      <psa10 value="0.1826449025" flag="0"/>
      <psa30 value="0.0210811875" flag="0"/>
    </comp>
    <comp name="--.HHZ">
      <acc value="0.0775831355" flag="0"/>
      <vel value="0.0496244534" flag="0"/>
      <psa03 value="0.1670913958" flag="0"/>
      <psa10 value="0.0518127256" flag="0"/>
      <psa30 value="0.0158621871" flag="0"/>
    </comp>
  </station>
  <station code="ANPA" name="ANPA" netid="Z3" source="GFZ" insttype="CMG-3ESP/60" lat="37.0323" lon="25.0763">
    <comp name="--.HHE">
      <acc value="0.0340557027" flag="0"/>
      <vel value="0.0598464091" flag="0"/>
      <psa03 value="0.0973018587" flag="0"/>
      <psa10 value="0.0749711752" flag="0"/>
      <psa30 value="0.0228994475" flag="0"/>
    </comp>
    <comp name="--.HHN">
      <acc value="0.0359324606" flag="0"/>
      <vel value="0.0480663165" flag="0"/>
      <psa03 value="0.1083145516" flag="0"/>
      <psa10 value="0.1046748035" flag="0"/>
      <psa30 value="0.0110354843" flag="0"/>
    </comp>
    <comp name="--.HHZ">
      <acc value="0.0190405584" flag="0"/>
      <vel value="0.0308265455" flag="0"/>
      <psa03 value="0.0650951579" flag="0"/>
      <psa10 value="0.0511916317" flag="0"/>
      <psa30 value="0.0121403379" flag="0"/>
    </comp>
  </station>
  <station code="ASTY" name="ASTY" netid="Z3" source="GFZ" insttype="STS-2/N" lat="36.5795" lon="26.4114">
    <comp name="--.HHE">
      <acc value="0.0106591960" flag="0"/>
      <vel value="0.0091263751" flag="0"/>
      <psa03 value="0.0373405498" flag="0"/>
      <psa10 value="0.0217272009" flag="0"/>
      <psa30 value="0.0026780350" flag="0"/>
    </comp>
    <comp name="--.HHN">
      <acc value="0.0069540778" flag="0"/>
      <vel value="0.0066184123" flag="0"/>
      <psa03 value="0.0181873237" flag="0"/>
      <psa10 value="0.0073455114" flag="0"/>
      <psa30 value="0.0031039513" flag="0"/>
    </comp>
    <comp name="--.HHZ">
      <acc value="0.0085612018" flag="0"/>
      <vel value="0.0067621508" flag="0"/>
      <psa03 value="0.0166719780" flag="0"/>
      <psa10 value="0.0113270202" flag="0"/>
      <psa30 value="0.0031957027" flag="0"/>
    </comp>
  </station>
  <station code="IKAR" name="IKAR" netid="Z3" source="GFZ" insttype="CMG-3ESP/60" lat="37.6435" lon="26.305">
    <comp name="--.HHE">
      <acc value="1.1505488000" flag="0"/>
      <vel value="0.3536240020" flag="0"/>
      <psa03 value="2.6709435613" flag="0"/>
      <psa10 value="0.1805132736" flag="0"/>
      <psa30 value="0.0376022195" flag="0"/>
    </comp>
    <comp name="--.HHN">
      <acc value="1.2275147273" flag="0"/>
      <vel value="0.3428032681" flag="0"/>
      <psa03 value="2.1218788546" flag="0"/>
      <psa10 value="0.1304808733" flag="0"/>
      <psa30 value="0.0445582999" flag="0"/>
    </comp>
    <comp name="--.HHZ">
      <acc value="0.6200074892" flag="0"/>
      <vel value="0.2131878319" flag="0"/>
      <psa03 value="1.4580137188" flag="0"/>
      <psa10 value="0.1032455515" flag="0"/>
      <psa30 value="0.0142557655" flag="0"/>
    </comp>
  </station>
  <station code="IOSI" name="IOSI" netid="Z3" source="GFZ" insttype="STS-2/N" lat="36.7347" lon="25.3618">
    <comp name="--.HHE">
      <acc value="0.0307832975" flag="0"/>
      <vel value="0.0141506653" flag="0"/>
      <psa03 value="0.0448730240" flag="0"/>
      <psa10 value="0.0126177650" flag="0"/>
      <psa30 value="0.0034458816" flag="0"/>
    </comp>
    <comp name="--.HHN">
      <acc value="0.0234231531" flag="0"/>
      <vel value="0.0124915224" flag="0"/>
      <psa03 value="0.0704714063" flag="0"/>
      <psa10 value="0.0169788395" flag="0"/>
      <psa30 value="0.0018370826" flag="0"/>
    </comp>
    <comp name="--.HHZ">
      <acc value="0.0207271510" flag="0"/>
      <vel value="0.0111269716" flag="0"/>
      <psa03 value="0.0632819267" flag="0"/>
      <psa10 value="0.0171215532" flag="0"/>
      <psa30 value="0.0026091564" flag="0"/>
    </comp>
  </station>
  <station code="KOSI" name="KOSI" netid="Z3" source="GFZ" insttype="CMG-3ESP/60" lat="36.7449" lon="26.9517">
    <comp name="--.HHE">
      <acc value="0.0848920455" flag="0"/>
      <vel value="0.0884187377" flag="0"/>
      <psa03 value="0.2403367784" flag="0"/>
      <psa10 value="0.1426060706" flag="0"/>
      <psa30 value="0.0310473701" flag="0"/>
    </comp>
    <comp name="--.HHZ">
      <acc value="0.0587163768" flag="0"/>
      <vel value="0.0426620871" flag="0"/>
      <psa03 value="0.1487608669" flag="0"/>
      <psa10 value="0.0443861896" flag="0"/>
      <psa30 value="0.0120443229" flag="0"/>
    </comp>
  </station>
  <station code="LERO" name="LERO" netid="Z3" source="GFZ" insttype="CMG-3ESP/60" lat="37.1634" lon="26.8353">
    <comp name="--.HHE">
      <acc value="0.0808368316" flag="0"/>
      <vel value="0.1209972460" flag="0"/>
      <psa03 value="0.2281953567" flag="0"/>
      <psa10 value="0.0763538177" flag="0"/>
      <psa30 value="0.0280527806" flag="0"/>
    </comp>
    <comp name="--.HHN">
      <acc value="0.0697837618" flag="0"/>
      <vel value="0.0667946357" flag="0"/>
      <psa03 value="0.1797263834" flag="0"/>
      <psa10 value="0.1033918118" flag="0"/>
      <psa30 value="0.0120241336" flag="0"/>
    </comp>
    <comp name="--.HHZ">
      <acc value="0.0526978259" flag="0"/>
      <vel value="0.0558459821" flag="0"/>
      <psa03 value="0.1359360067" flag="0"/>
      <psa10 value="0.0463715255" flag="0"/>
      <psa30 value="0.0282968851" flag="0"/>
    </comp>
  </station>
  <station code="MYKO" name="MYKO" netid="Z3" source="GFZ" insttype="STS-2/N" lat="37.4822" lon="25.3844">
    <comp name="--.HHE">
      <acc value="0.1193293481" flag="0"/>
      <vel value="0.0987462574" flag="0"/>
      <psa03 value="0.4078007828" flag="0"/>
      <psa10 value="0.1644356129" flag="0"/>
      <psa30 value="0.0278802750" flag="0"/>
    </comp>
    <comp name="--.HHN">
      <acc value="0.0922755995" flag="0"/>
      <vel value="0.0897388317" flag="0"/>
      <psa03 value="0.3125326532" flag="0"/>
      <psa10 value="0.1890203817" flag="0"/>
      <psa30 value="0.0286678557" flag="0"/>
    </comp>
    <comp name="--.HHZ">
      <acc value="0.0956313239" flag="0"/>
      <vel value="0.0494427221" flag="0"/>
      <psa03 value="0.1884776585" flag="0"/>
      <psa10 value="0.0742872276" flag="0"/>
      <psa30 value="0.0180104537" flag="0"/>
    </comp>
  </station>
  <station code="NAXO" name="NAXO" netid="Z3" source="GFZ" insttype="L4-3D" lat="36.98" lon="25.44">
    <comp name="--.HHE">
      <acc value="0.1782409266" flag="0"/>
      <vel value="0.1142401953" flag="0"/>
      <psa03 value="0.4859366905" flag="0"/>
      <psa10 value="0.2542555190" flag="0"/>
      <psa30 value="0.0189872346" flag="0"/>
    </comp>
    <comp name="--.HHN">
      <acc value="0.1326396083" flag="0"/>
      <vel value="0.0890387600" flag="0"/>
      <psa03 value="0.4703263955" flag="0"/>
      <psa10 value="0.1218803786" flag="0"/>
      <psa30 value="0.0169503730" flag="0"/>
    </comp>
    <comp name="--.HHZ">
      <acc value="0.1155517497" flag="0"/>
      <vel value="0.0887195074" flag="0"/>
      <psa03 value="0.4049681476" flag="0"/>
      <psa10 value="0.1687118896" flag="0"/>
      <psa30 value="0.0123335706" flag="0"/>
    </comp>
  </station>
  <station code="PARO" name="PARO" netid="Z3" source="GFZ" insttype="L4-3D" lat="37.115" lon="25.1825">
    <comp name="--.HHE">
      <acc value="0.2675599749" flag="0"/>
      <vel value="0.1817131926" flag="0"/>
      <psa03 value="0.8030658355" flag="0"/>
      <psa10 value="0.1404935713" flag="0"/>
      <psa30 value="0.0768649086" flag="0"/>
    </comp>
    <comp name="--.HHN">
      <acc value="0.2061317939" flag="0"/>
      <vel value="0.1152940574" flag="0"/>
      <psa03 value="0.4398438902" flag="0"/>
      <psa10 value="0.2017478299" flag="0"/>
      <psa30 value="0.0401853850" flag="0"/>
    </comp>
    <comp name="--.HHZ">
      <acc value="0.1151150276" flag="0"/>
      <vel value="0.0890517652" flag="0"/>
      <psa03 value="0.2214028622" flag="0"/>
      <psa10 value="0.1173330884" flag="0"/>
      <psa30 value="0.0453764608" flag="0"/>
    </comp>
  </station>
  <station code="PARS" name="PARS" netid="Z3" source="GFZ" insttype="L4-3D" lat="37.0285" lon="25.2253">
    <comp name="--.HHE">
      <acc value="0.2288508415" flag="0"/>
      <vel value="0.1322830475" flag="0"/>
      <psa03 value="0.5489661309" flag="0"/>
      <psa10 value="0.1013506126" flag="0"/>
      <psa30 value="0.0348968973" flag="0"/>
    </comp>
    <comp name="--.HHN">
      <acc value="0.3088590813" flag="0"/>
      <vel value="0.1358256137" flag="0"/>
      <psa03 value="0.6677967529" flag="0"/>
      <psa10 value="0.1485342219" flag="0"/>
      <psa30 value="0.0187552850" flag="0"/>
    </comp>
    <comp name="--.HHZ">
      <acc value="0.2929125816" flag="0"/>
      <vel value="0.1025055133" flag="0"/>
      <psa03 value="0.4971453031" flag="0"/>
      <psa10 value="0.1143529090" flag="0"/>
      <psa30 value="0.0195010331" flag="0"/>
    </comp>
  </station>
  <station code="SAMO" name="SAMO" netid="Z3" source="GFZ" insttype="CMG-3ESP/60" lat="37.7043" lon="26.8377">
    <comp name="--.HHE">
      <acc value="0.7412484600" flag="0"/>
      <vel value="0.2702017634" flag="0"/>
      <psa03 value="2.1832436984" flag="0"/>
      <psa10 value="0.3223959088" flag="0"/>
      <psa30 value="0.0542992545" flag="0"/>
    </comp>
    <comp name="--.HHN">
      <acc value="1.2881493782" flag="0"/>
      <vel value="0.3357392676" flag="0"/>
      <psa03 value="1.6093048523" flag="0"/>
      <psa10 value="0.3203592456" flag="0"/>
      <psa30 value="0.0291069871" flag="0"/>
    </comp>
    <comp name="--.HHZ">
      <acc value="0.4236376575" flag="0"/>
      <vel value="0.1623988629" flag="0"/>
      <psa03 value="0.5779821382" flag="0"/>
      <psa10 value="0.1101630367" flag="0"/>
      <psa30 value="0.0228863977" flag="0"/>
    </comp>
  </station>
  <station code="SCHI" name="SCHI" netid="Z3" source="GFZ" insttype="L4-3D" lat="36.8744" lon="25.518">
    <comp name="--.HHE">
      <acc value="0.1728849174" flag="0"/>
      <vel value="0.1677200943" flag="0"/>
      <psa03 value="0.3241897399" flag="0"/>
      <psa10 value="0.2769047930" flag="0"/>
      <psa30 value="0.0376214026" flag="0"/>
    </comp>
    <comp name="--.HHN">
      <acc value="0.2704988243" flag="0"/>
      <vel value="0.1865692198" flag="0"/>
      <psa03 value="0.7449609334" flag="0"/>
      <psa10 value="0.2149819981" flag="0"/>
      <psa30 value="0.0278918486" flag="0"/>
    </comp>
    <comp name="--.HHZ">
      <acc value="0.1034254456" flag="0"/>
      <vel value="0.0378994887" flag="0"/>
      <psa03 value="0.2153687482" flag="0"/>
      <psa10 value="0.0836740983" flag="0"/>
      <psa30 value="0.0105681443" flag="0"/>
    </comp>
  </station>
  <station code="SYRO" name="SYRO" netid="Z3" source="GFZ" insttype="CMG-3ESP/60" lat="37.4569" lon="24.9266">
    <comp name="--.HHE">
      <acc value="0.0433538143" flag="0"/>
      <vel value="0.0325472788" flag="0"/>
      <psa03 value="0.1307050393" flag="0"/>
      <psa10 value="0.0264862179" flag="0"/>
      <psa30 value="0.0103469888" flag="0"/>
    </comp>
    <comp name="--.HHN">
      <acc value="0.0485774455" flag="0"/>
      <vel value="0.0440749211" flag="0"/>
      <psa03 value="0.1404470893" flag="0"/>
      <psa10 value="0.0366246139" flag="0"/>
      <psa30 value="0.0160641906" flag="0"/>
    </comp>
    <comp name="--.HHZ">
      <acc value="0.0301774456" flag="0"/>
      <vel value="0.0276094290" flag="0"/>
      <psa03 value="0.0817113432" flag="0"/>
      <psa10 value="0.0399576075" flag="0"/>
      <psa30 value="0.0100799164" flag="0"/>
    </comp>
  </station>
  <station code="TILO" name="TILO" netid="Z3" source="GFZ" insttype="CMG-3ESP/60" lat="36.4485" lon="27.3535">
    <comp name="--.HHE">
      <acc value="0.0220268977" flag="0"/>
      <vel value="0.0141007508" flag="0"/>
      <psa03 value="0.0459594589" flag="0"/>
      <psa10 value="0.0132351103" flag="0"/>
      <psa30 value="0.0035795904" flag="0"/>
    </comp>
    <comp name="--.HHN">
      <acc value="0.0266235082" flag="0"/>
      <vel value="0.0362503313" flag="0"/>
      <psa03 value="0.0919088827" flag="0"/>
      <psa10 value="0.0572705711" flag="0"/>
      <psa30 value="0.0055479491" flag="0"/>
    </comp>
    <comp name="--.HHZ">
      <acc value="0.0200379711" flag="0"/>
      <vel value="0.0128686486" flag="0"/>
      <psa03 value="0.0285950457" flag="0"/>
      <psa10 value="0.0095159818" flag="0"/>
      <psa30 value="0.0079950940" flag="0"/>
    </comp>
  </station>
  <station code="TUR2" name="TUR2" netid="Z3" source="GFZ" insttype="CMG-3ESP/60" lat="37.642" lon="27.2418">
    <comp name="--.HHE">
      <acc value="0.3134740868" flag="0"/>
      <vel value="0.2796883069" flag="0"/>
      <psa03 value="0.5616058524" flag="0"/>
      <psa10 value="0.6176500975" flag="0"/>
      <psa30 value="0.0824433649" flag="0"/>
    </comp>
    <comp name="--.HHN">
      <acc value="0.4464633007" flag="0"/>
      <vel value="0.3534031162" flag="0"/>
      <psa03 value="0.7750270283" flag="0"/>
      <psa10 value="0.7427448654" flag="0"/>
      <psa30 value="0.0616474553" flag="0"/>
    </comp>
    <comp name="--.HHZ">
      <acc value="0.2750149633" flag="0"/>
      <vel value="0.2238823431" flag="0"/>
      <psa03 value="0.5290675858" flag="0"/>
      <psa10 value="0.5981338940" flag="0"/>
      <psa30 value="0.0327963236" flag="0"/>
    </comp>
  </station>
  <station code="TUR3" name="TUR3" netid="Z3" source="GFZ" insttype="CMG-3ESP/60" lat="37.4663" lon="27.538">
    <comp name="--.HHE">
      <acc value="0.4002654802" flag="0"/>
      <vel value="0.3645132468" flag="0"/>
      <psa03 value="0.7417113932" flag="0"/>
      <psa10 value="0.6613455092" flag="0"/>
      <psa30 value="0.0610519548" flag="0"/>
    </comp>
    <comp name="--.HHN">
      <acc value="0.4893423371" flag="0"/>
      <vel value="0.2657979883" flag="0"/>
      <psa03 value="0.7964245431" flag="0"/>
      <psa10 value="0.6053825309" flag="0"/>
      <psa30 value="0.0564771969" flag="0"/>
    </comp>
    <comp name="--.HHZ">
      <acc value="0.1694905471" flag="0"/>
      <vel value="0.1485010003" flag="0"/>
      <psa03 value="0.3406757143" flag="0"/>
      <psa10 value="0.1790868776" flag="0"/>
      <psa30 value="0.0163888183" flag="0"/>
    </comp>
  </station>
  <station code="TUR4" name="TUR4" netid="Z3" source="GFZ" insttype="CMG-3ESP/60" lat="37.08" lon="27.8077">
    <comp name="--.HHE">
      <acc value="0.1077604852" flag="0"/>
      <vel value="0.1277474107" flag="0"/>
      <psa03 value="0.3220518725" flag="0"/>
      <psa10 value="0.2302026289" flag="0"/>
      <psa30 value="0.0261324559" flag="0"/>
    </comp>
    <comp name="--.HHN">
      <acc value="0.1000310940" flag="0"/>
      <vel value="0.1038095337" flag="0"/>
      <psa03 value="0.2456711681" flag="0"/>
      <psa10 value="0.2098308036" flag="0"/>
      <psa30 value="0.0365728811" flag="0"/>
    </comp>
    <comp name="--.HHZ">
      <acc value="0.0660460283" flag="0"/>
      <vel value="0.0577855858" flag="0"/>
      <psa03 value="0.1001182979" flag="0"/>
      <psa10 value="0.0919298326" flag="0"/>
      <psa30 value="0.0243907622" flag="0"/>
    </comp>
  </station>
  <station code="TUR5" name="TUR5" netid="Z3" source="GFZ" insttype="CMG-3ESP/60" lat="37.0302" lon="27.3167">
    <comp name="--.HHE">
      <acc value="0.0711164047" flag="0"/>
      <vel value="0.1566961516" flag="0"/>
      <psa03 value="0.1628923810" flag="0"/>
      <psa10 value="0.2327719836" flag="0"/>
      <psa30 value="0.0578045507" flag="0"/>
    </comp>
    <comp name="--.HHN">
