<stationlist created="1778136327">
	<station code="MALA" name="MALA" netid="CL" source="Corinth Riff Laboratory (CRLNET)" insttype="" lat="38.39341" lon="21.87263">
		<comp name="01.HNE" depth="0.0">
			<acc value="0.503267536647001" flag="0"/>
			<vel value="1.02847097759894" flag="0"/>
			<psa03 value="0.86348478496273" flag="0"/>
			<psa10 value="1.39555276852336" flag="0"/>
			<psa30 value="0.473769784924308" flag="0"/>
		</comp>
		<comp name="01.HNN" depth="0.0">
			<acc value="0.427719004658518" flag="0"/>
			<vel value="0.69448981474365" flag="0"/>
			<psa03 value="0.725640236769316" flag="0"/>
			<psa10 value="1.24610314821702" flag="0"/>
			<psa30 value="0.225731380262824" flag="0"/>
		</comp>
		<comp name="01.HNZ" depth="0.0">
			<acc value="0.285892752612599" flag="0"/>
			<vel value="0.430761264846168" flag="0"/>
			<psa03 value="0.384967793893635" flag="0"/>
			<psa10 value="0.497122521929096" flag="0"/>
			<psa30 value="0.191844402083308" flag="0"/>
		</comp>
	</station>
	<station code="ROD3" name="ROD3" netid="CL" source="Corinth Riff Laboratory (CRLNET)" insttype="" lat="38.30811" lon="21.89204">
		<comp name="00.HNE" depth="0.0">
			<acc value="0.200688022985412" flag="0"/>
			<vel value="0.252336328377826" flag="0"/>
			<psa03 value="0.755466295936578" flag="0"/>
			<psa10 value="0.333385445149391" flag="0"/>
			<psa30 value="0.124811561486534" flag="0"/>
		</comp>
		<comp name="00.HNN" depth="0.0">
			<acc value="0.214976503647128" flag="0"/>
			<vel value="0.235860444071964" flag="0"/>
			<psa03 value="0.616600680101028" flag="0"/>
			<psa10 value="0.311653475513309" flag="0"/>
			<psa30 value="0.0973754773140517" flag="0"/>
		</comp>
		<comp name="00.HNZ" depth="0.0">
			<acc value="0.101283111426241" flag="0"/>
			<vel value="0.139488695500216" flag="0"/>
			<psa03 value="0.18748506579884" flag="0"/>
			<psa10 value="0.19393482723038" flag="0"/>
			<psa30 value="0.0760594852341336" flag="0"/>
		</comp>
	</station>
	<station code="MMAA" name="MMAA" netid="EG" source="EUROSEISTEST Strong Motion Network" insttype="" lat="40.630855" lon="22.943725">
		<comp name="--.EN1" depth="0.0">
			<acc value="0.411346288081107" flag="0"/>
			<vel value="0.374067734951125" flag="0"/>
			<psa03 value="0.880337734722716" flag="0"/>
			<psa10 value="0.553675998319453" flag="0"/>
			<psa30 value="0.0866631143391967" flag="0"/>
		</comp>
		<comp name="--.EN2" depth="0.0">
			<acc value="0.40574591372588" flag="0"/>
			<vel value="0.472360077091724" flag="0"/>
			<psa03 value="1.45773323433952" flag="0"/>
			<psa10 value="0.832211869950303" flag="0"/>
			<psa30 value="0.0736544592465029" flag="0"/>
		</comp>
		<comp name="--.EN3" depth="0.0">
			<acc value="0.198037057325916" flag="0"/>
			<vel value="0.237387198015761" flag="0"/>
			<psa03 value="0.514014009238878" flag="0"/>
			<psa10 value="0.211267455432206" flag="0"/>
			<psa30 value="0.0671088389644259" flag="0"/>
		</comp>
	</station>
	<station code="PRR" name="PRR" netid="EG" source="EUROSEISTEST Strong Motion Network" insttype="" lat="40.682635" lon="23.300668">
		<comp name="--.EN1" depth="0.0">
			<acc value="0.0362289708995134" flag="0"/>
			<vel value="0.044150213359034" flag="0"/>
			<psa03 value="0.0783988289541797" flag="0"/>
			<psa10 value="0.0535248920113432" flag="0"/>
			<psa30 value="0.0140032409793174" flag="0"/>
		</comp>
		<comp name="--.EN2" depth="0.0">
			<acc value="0.112805476035674" flag="0"/>
			<vel value="0.159157571419685" flag="0"/>
			<psa03 value="0.197458747339598" flag="0"/>
			<psa10 value="0.0905894261047681" flag="0"/>
			<psa30 value="0.0702645813502566" flag="0"/>
		</comp>
		<comp name="--.EN3" depth="0.0">
			<acc value="0.0513439770712285" flag="0"/>
			<vel value="0.105566087738552" flag="0"/>
			<psa03 value="0.122682231262505" flag="0"/>
			<psa10 value="0.086062973749812" flag="0"/>
			<psa30 value="0.0464128946266571" flag="0"/>
		</comp>
	</station>
	<station code="SHTA" name="SHTA" netid="EG" source="EUROSEISTEST Strong Motion Network" insttype="" lat="40.613764" lon="22.952972">
		<comp name="--.EN1" depth="0.0">
			<acc value="0.39624880298182" flag="0"/>
			<vel value="0.712952275816608" flag="0"/>
			<psa03 value="0.849205255680872" flag="0"/>
			<psa10 value="0.744559203394985" flag="0"/>
			<psa30 value="0.149718904809266" flag="0"/>
		</comp>
		<comp name="--.EN2" depth="0.0">
			<acc value="0.370602986862927" flag="0"/>
			<vel value="0.593273314753428" flag="0"/>
			<psa03 value="0.734631582401596" flag="0"/>
			<psa10 value="0.519528456210299" flag="0"/>
			<psa30 value="0.202156991908713" flag="0"/>
		</comp>
		<comp name="--.EN3" depth="0.0">
			<acc value="0.204172198349771" flag="0"/>
			<vel value="0.332158642047579" flag="0"/>
			<psa03 value="0.367539055992123" flag="0"/>
			<psa10 value="0.313034887025023" flag="0"/>
			<psa30 value="0.104926630874326" flag="0"/>
		</comp>
	</station>
	<station code="STC" name="STC" netid="EG" source="EUROSEISTEST Strong Motion Network" insttype="" lat="40.64865" lon="23.304856">
		<comp name="--.EN1" depth="0.0">
			<acc value="0.464892176371749" flag="0"/>
			<vel value="0.388783448765236" flag="0"/>
			<psa03 value="1.10955508591312" flag="0"/>
			<psa10 value="0.421065833543273" flag="0"/>
			<psa30 value="0.0494213072521945" flag="0"/>
		</comp>
		<comp name="--.EN2" depth="0.0">
			<acc value="0.472464546168471" flag="0"/>
			<vel value="0.469103254252282" flag="0"/>
			<psa03 value="0.804775562431885" flag="0"/>
			<psa10 value="0.330992516629742" flag="0"/>
			<psa30 value="0.0625290422420015" flag="0"/>
		</comp>
		<comp name="--.EN3" depth="0.0">
			<acc value="0.277826045745388" flag="0"/>
			<vel value="0.334888084720501" flag="0"/>
			<psa03 value="0.377327621103058" flag="0"/>
			<psa10 value="0.23606112789101" flag="0"/>
			<psa30 value="0.0505566457965283" flag="0"/>
		</comp>
	</station>
	<station code="TST" name="TST" netid="EG" source="EUROSEISTEST Strong Motion Network" insttype="" lat="40.6638" lon="23.2906">
		<comp name="00.EN1" depth="0.0">
			<acc value="0.257623928568292" flag="0"/>
			<vel value="0.335789291010375" flag="0"/>
			<psa03 value="0.666907346004901" flag="0"/>
			<psa10 value="0.381214643599069" flag="0"/>
			<psa30 value="0.0401607337848688" flag="0"/>
		</comp>
		<comp name="00.EN2" depth="0.0">
			<acc value="0.0984034793410679" flag="0"/>
			<vel value="0.130070575717444" flag="0"/>
			<psa03 value="0.215734749701571" flag="0"/>
			<psa10 value="0.17274260835002" flag="0"/>
			<psa30 value="0.0323453860564275" flag="0"/>
		</comp>
		<comp name="00.EN3" depth="0.0">
			<acc value="0.350903439806587" flag="0"/>
			<vel value="0.405940293817528" flag="0"/>
			<psa03 value="0.881538397591166" flag="0"/>
			<psa10 value="0.500225777504375" flag="0"/>
			<psa30 value="0.100062415310786" flag="0"/>
		</comp>
	</station>
	<station code="AIGS" name="AIGS" netid="HA" source="Hellenic Seismological Network, University of Athens, Seismological Laboratory (HA)" insttype="" lat="38.25001" lon="22.0878">
		<comp name="--.HNE" depth="0.0">
			<acc value="0.177264939862446" flag="0"/>
			<vel value="0.321645221130407" flag="0"/>
			<psa03 value="0.378921747850144" flag="0"/>
			<psa10 value="0.236087174864039" flag="0"/>
			<psa30 value="0.130603843384934" flag="0"/>
		</comp>
		<comp name="--.HNN" depth="0.0">
			<acc value="0.164738076625229" flag="0"/>
			<vel value="0.333310130641365" flag="0"/>
			<psa03 value="0.35001828237474" flag="0"/>
			<psa10 value="0.283446353147413" flag="0"/>
			<psa30 value="0.197834377893681" flag="0"/>
		</comp>
		<comp name="--.HNZ" depth="0.0">
			<acc value="0.108731677725702" flag="0"/>
			<vel value="0.253646676520787" flag="0"/>
			<psa03 value="0.176373778489227" flag="0"/>
			<psa10 value="0.286257058567173" flag="0"/>
			<psa30 value="0.165476366645281" flag="0"/>
		</comp>
	</station>
	<station code="KIAS" name="KIAS" netid="HA" source="Hellenic Seismological Network, University of Athens, Seismological Laboratory (HA)" insttype="" lat="37.9875" lon="22.7543">
		<comp name="--.HNE" depth="0.0">
			<acc value="0.167810256540294" flag="0"/>
			<vel value="0.306808325274457" flag="0"/>
			<psa03 value="0.224605877223724" flag="0"/>
			<psa10 value="0.37789894100685" flag="0"/>
			<psa30 value="0.12791080996858" flag="0"/>
		</comp>
		<comp name="--.HNN" depth="0.0">
			<acc value="0.129410460258264" flag="0"/>
			<vel value="0.302014479685972" flag="0"/>
			<psa03 value="0.253598827112364" flag="0"/>
			<psa10 value="0.442009601448105" flag="0"/>
			<psa30 value="0.117371783199646" flag="0"/>
		</comp>
		<comp name="--.HNZ" depth="0.0">
			<acc value="0.0770124591948207" flag="0"/>
			<vel value="0.174650723941436" flag="0"/>
			<psa03 value="0.118522105331802" flag="0"/>
			<psa10 value="0.178073087496589" flag="0"/>
			<psa30 value="0.0614404455502769" flag="0"/>
		</comp>
	</station>
	<station code="LTRS" name="LTRS" netid="HA" source="Hellenic Seismological Network, University of Athens, Seismological Laboratory (HA)" insttype="" lat="37.97528" lon="22.9765">
		<comp name="--.HNE" depth="0.0">
			<acc value="0.147053549273377" flag="0"/>
			<vel value="0.302446404488332" flag="0"/>
			<psa03 value="0.273016944784694" flag="0"/>
			<psa10 value="0.408969718970842" flag="0"/>
			<psa30 value="0.0783498676975204" flag="0"/>
		</comp>
		<comp name="--.HNN" depth="0.0">
			<acc value="0.117119357649898" flag="0"/>
			<vel value="0.266642855062199" flag="0"/>
			<psa03 value="0.209930433452931" flag="0"/>
			<psa10 value="0.271639779664984" flag="0"/>
			<psa30 value="0.067988467488861" flag="0"/>
		</comp>
		<comp name="--.HNZ" depth="0.0">
			<acc value="0.0847739516569784" flag="0"/>
			<vel value="0.161528030505441" flag="0"/>
			<psa03 value="0.142817123525523" flag="0"/>
			<psa10 value="0.286691952815503" flag="0"/>
			<psa30 value="0.0355141265032532" flag="0"/>
		</comp>
	</station>
	<station code="XLKS" name="XLKS" netid="HA" source="Hellenic Seismological Network, University of Athens, Seismological Laboratory (HA)" insttype="" lat="38.0772" lon="22.6361">
		<comp name="--.HNE" depth="0.0">
			<acc value="0.226565027066508" flag="0"/>
			<vel value="0.405304291866129" flag="0"/>
			<psa03 value="0.366438672203646" flag="0"/>
			<psa10 value="0.552186837823533" flag="0"/>
			<psa30 value="0.218846212965754" flag="0"/>
		</comp>
		<comp name="--.HNN" depth="0.0">
			<acc value="0.283580288469698" flag="0"/>
			<vel value="0.452780582977712" flag="0"/>
			<psa03 value="0.472925123955132" flag="0"/>
			<psa10 value="0.905312913869978" flag="0"/>
			<psa30 value="0.157622767117576" flag="0"/>
		</comp>
		<comp name="--.HNZ" depth="0.0">
			<acc value="0.12789909527049" flag="0"/>
			<vel value="0.154716809907084" flag="0"/>
			<psa03 value="0.27104828769349" flag="0"/>
			<psa10 value="0.216742434410563" flag="0"/>
			<psa30 value="0.0407646244499074" flag="0"/>
		</comp>
	</station>
	<station code="ARS1" name="ARS1" netid="HI" source="ITSAK Strong Motion Network" insttype="" lat="37.6349" lon="22.7293">
		<comp name="--.HNE" depth="0.0">
			<acc value="0.0791992267297481" flag="0"/>
			<vel value="0.149823945580986" flag="0"/>
			<psa03 value="0.138118462170225" flag="0"/>
			<psa10 value="0.122225254323425" flag="0"/>
			<psa30 value="0.0511987216638906" flag="0"/>
		</comp>
		<comp name="--.HNN" depth="0.0">
			<acc value="0.072146351154061" flag="0"/>
			<vel value="0.119830673129365" flag="0"/>
			<psa03 value="0.148309835215291" flag="0"/>
			<psa10 value="0.171245074145749" flag="0"/>
			<psa30 value="0.0501539424526744" flag="0"/>
		</comp>
		<comp name="--.HNZ" depth="0.0">
			<acc value="0.0307277046668094" flag="0"/>
			<vel value="0.0781513407312244" flag="0"/>
			<psa03 value="0.0831289912627298" flag="0"/>
			<psa10 value="0.0497102855624614" flag="0"/>
			<psa30 value="0.0311022637056548" flag="0"/>
		</comp>
	</station>
	<station code="ART2" name="ART2" netid="HI" source="ITSAK Strong Motion Network" insttype="" lat="39.1474" lon="20.9937">
		<comp name="--.HNE" depth="0.0">
			<acc value="0.109039076636768" flag="0"/>
			<vel value="0.216950537691912" flag="0"/>
			<psa03 value="0.350957868713724" flag="0"/>
			<psa10 value="0.149265370343349" flag="0"/>
			<psa30 value="0.0942024789244403" flag="0"/>
		</comp>
		<comp name="--.HNN" depth="0.0">
			<acc value="0.111197814361632" flag="0"/>
			<vel value="0.32264749216879" flag="0"/>
			<psa03 value="0.300712370681404" flag="0"/>
			<psa10 value="0.13496218173162" flag="0"/>
			<psa30 value="0.0958932869125447" flag="0"/>
		</comp>
		<comp name="--.HNZ" depth="0.0">
			<acc value="0.0789109746768371" flag="0"/>
			<vel value="0.17059703024097" flag="0"/>
			<psa03 value="0.289258365787127" flag="0"/>
			<psa10 value="0.117006686793641" flag="0"/>
			<psa30 value="0.0452665852798379" flag="0"/>
		</comp>
	</station>
	<station code="ATH5" name="ATH5" netid="HI" source="ITSAK Strong Motion Network" insttype="" lat="37.975421" lon="23.737098">
		<comp name="--.HNE" depth="0.0">
			<acc value="0.0363637194869515" flag="0"/>
			<vel value="0.0773722355143502" flag="0"/>
			<psa03 value="0.0800396199404639" flag="0"/>
			<psa10 value="0.067767506764669" flag="0"/>
			<psa30 value="0.0250685540019845" flag="0"/>
		</comp>
		<comp name="--.HNN" depth="0.0">
			<acc value="0.0380234178482976" flag="0"/>
			<vel value="0.0896810084052648" flag="0"/>
			<psa03 value="0.0855423855132271" flag="0"/>
			<psa10 value="0.0768913511747073" flag="0"/>
			<psa30 value="0.0276655693748518" flag="0"/>
		</comp>
		<comp name="--.HNZ" depth="0.0">
			<acc value="0.0249467371676838" flag="0"/>
			<vel value="0.0654419737275293" flag="0"/>
			<psa03 value="0.0404155236842413" flag="0"/>
			<psa10 value="0.0673676627772102" flag="0"/>
			<psa30 value="0.024478839936343" flag="0"/>
		</comp>
	</station>
	<station code="DRA2" name="DRA2" netid="HI" source="ITSAK Strong Motion Network" insttype="" lat="41.1593" lon="24.1485">
		<comp name="--.HNE" depth="0.0">
			<acc value="0.0861794969457791" flag="0"/>
			<vel value="0.0653972032656831" flag="0"/>
			<psa03 value="0.18008774242896" flag="0"/>
			<psa10 value="0.0815789592055311" flag="0"/>
			<psa30 value="0.0149208500997418" flag="0"/>
		</comp>
		<comp name="--.HNN" depth="0.0">
			<acc value="0.0782752440288267" flag="0"/>
			<vel value="0.0610826839639117" flag="0"/>
			<psa03 value="0.206035148817556" flag="0"/>
			<psa10 value="0.0694219063606994" flag="0"/>
			<psa30 value="0.0167003346485517" flag="0"/>
		</comp>
		<comp name="--.HNZ" depth="0.0">
			<acc value="0.0306534267756417" flag="0"/>
			<vel value="0.0529561420676953" flag="0"/>
			<psa03 value="0.0616330933064353" flag="0"/>
			<psa10 value="0.0447349172188196" flag="0"/>
			<psa30 value="0.0161689211116741" flag="0"/>
		</comp>
	</station>
	<station code="KLV1" name="KLV1" netid="HI" source="ITSAK Strong Motion Network" insttype="" lat="38.03256" lon="22.10797">
		<comp name="--.HNE" depth="0.0">
			<acc value="0.205361883285537" flag="0"/>
			<vel value="0.225304857407874" flag="0"/>
			<psa03 value="0.426930135551549" flag="0"/>
			<psa10 value="0.198939957819219" flag="0"/>
			<psa30 value="0.0840169155877907" flag="0"/>
		</comp>
		<comp name="--.HNN" depth="0.0">
			<acc value="0.162032115832942" flag="0"/>
			<vel value="0.167592364874434" flag="0"/>
			<psa03 value="0.492522210453936" flag="0"/>
			<psa10 value="0.326057935886523" flag="0"/>
			<psa30 value="0.0563747329169562" flag="0"/>
		</comp>
		<comp name="--.HNZ" depth="0.0">
			<acc value="0.0564078642512277" flag="0"/>
			<vel value="0.0997227364302512" flag="0"/>
			<psa03 value="0.117179839133254" flag="0"/>
			<psa10 value="0.132340735845855" flag="0"/>
			<psa30 value="0.0449480207687158" flag="0"/>
		</comp>
	</station>
	<station code="KRK1" name="KRK1" netid="HI" source="ITSAK Strong Motion Network" insttype="" lat="39.618861" lon="19.9202">
		<comp name="--.HNE" depth="0.0">
			<acc value="0.410358088128956" flag="0"/>
			<vel value="0.30213139061148" flag="0"/>
			<psa03 value="0.893114164432121" flag="0"/>
			<psa10 value="0.368046141250748" flag="0"/>
			<psa30 value="0.0678684692862319" flag="0"/>
		</comp>
		<comp name="--.HNN" depth="0.0">
			<acc value="0.350980002907077" flag="0"/>
			<vel value="0.478775932047242" flag="0"/>
			<psa03 value="0.648786478918299" flag="0"/>
			<psa10 value="0.524215906729675" flag="0"/>
			<psa30 value="0.125604654025033" flag="0"/>
		</comp>
		<comp name="--.HNZ" depth="0.0">
			<acc value="0.130238779411352" flag="0"/>
			<vel value="0.271347379952208" flag="0"/>
			<psa03 value="0.461890722995639" flag="0"/>
			<psa10 value="0.152979504141276" flag="0"/>
			<psa30 value="0.088083461763838" flag="0"/>
		</comp>
	</station>
	<station code="LAM2" name="LAM2" netid="HI" source="ITSAK Strong Motion Network" insttype="" lat="38.90203" lon="22.431301">
		<comp name="--.HNE" depth="0.0">
			<acc value="0.661983043460368" flag="0"/>
			<vel value="0.656524444351769" flag="0"/>
			<psa03 value="1.70185907314648" flag="0"/>
			<psa10 value="0.398395851769951" flag="0"/>
			<psa30 value="0.10453336482246" flag="0"/>
		</comp>
		<comp name="--.HNN" depth="0.0">
			<acc value="0.696605737821595" flag="0"/>
			<vel value="0.844970865990949" flag="0"/>
			<psa03 value="1.52631211068501" flag="0"/>
			<psa10 value="1.21689801352126" flag="0"/>
			<psa30 value="0.152169680494654" flag="0"/>
		</comp>
		<comp name="--.HNZ" depth="0.0">
			<acc value="0.450535303618519" flag="0"/>
			<vel value="0.781050522713363" flag="0"/>
			<psa03 value="0.843009928601895" flag="0"/>
			<psa10 value="0.913287020784521" flag="0"/>
			<psa30 value="0.145844448145787" flag="0"/>
		</comp>
	</station>
	<station code="LMS2" name="LMS2" netid="HI" source="ITSAK Strong Motion Network" insttype="" lat="40.834985" lon="21.141815">
		<comp name="--.HNE" depth="0.0">
			<acc value="0.210721565920479" flag="0"/>
			<vel value="0.30019319122193" flag="0"/>
			<psa03 value="0.579366833500001" flag="0"/>
			<psa10 value="0.472568975990451" flag="0"/>
			<psa30 value="0.103321835477376" flag="0"/>
		</comp>
		<comp name="--.HNN" depth="0.0">
			<acc value="0.301685519789029" flag="0"/>
			<vel value="0.307046674957334" flag="0"/>
			<psa03 value="0.926745325684263" flag="0"/>
			<psa10 value="0.581570387175951" flag="0"/>
			<psa30 value="0.0676493215626945" flag="0"/>
		</comp>
		<comp name="--.HNZ" depth="0.0">
			<acc value="0.129022210626564" flag="0"/>
			<vel value="0.33319561476326" flag="0"/>
			<psa03 value="0.389212455372346" flag="0"/>
			<psa10 value="0.379815697138377" flag="0"/>
			<psa30 value="0.181255600653347" flag="0"/>
		</comp>
	</station>
	<station code="MSL1" name="MSL1" netid="HI" source="ITSAK Strong Motion Network" insttype="" lat="38.3727" lon="21.4243">
		<comp name="--.HNE" depth="0.0">
			<acc value="0.361747749529613" flag="0"/>
			<vel value="0.5892105117661" flag="0"/>
			<psa03 value="0.815292488998148" flag="0"/>
			<psa10 value="1.0516427480371" flag="0"/>
			<psa30 value="0.165891574322699" flag="0"/>
		</comp>
		<comp name="--.HNN" depth="0.0">
			<acc value="0.46757129630262" flag="0"/>
			<vel value="0.664316431345797" flag="0"/>
			<psa03 value="0.908937927450191" flag="0"/>
			<psa10 value="1.05224274102785" flag="0"/>
			<psa30 value="0.134011409840981" flag="0"/>
		</comp>
		<comp name="--.HNZ" depth="0.0">
			<acc value="0.170353647676408" flag="0"/>
			<vel value="0.337600895708761" flag="0"/>
			<psa03 value="0.398250381109237" flag="0"/>
			<psa10 value="0.49102379395429" flag="0"/>
			<psa30 value="0.152836245853553" flag="0"/>
		</comp>
	</station>
	<station code="SKO1" name="SKO1" netid="HI" source="ITSAK Strong Motion Network" insttype="" lat="39.123383" lon="23.728705">
		<comp name="--.HNE" depth="0.0">
			<acc value="0.115780411206124" flag="0"/>
			<vel value="0.138840358229268" flag="0"/>
			<psa03 value="0.422097977236776" flag="0"/>
			<psa10 value="0.22035044595226" flag="0"/>
