<?xml version="1.0" encoding="UTF-8" standalone="yes"?>
<!DOCTYPE earthquake SYSTEM "stationlist.dtd">
<stationlist created="" xmlns="ch.ethz.sed.shakemap.usgs.xml">
  <station code="KALE" name="KALE" netid="HA" insttype="40," lat="38.3911" lon="22.1398">
    <comp name="--.HHZ">
      <acc value="0.1767689159" flag="0"/>
      <vel value="0.2874792703" flag="0"/>
      <psa03 value="0.3613828470" flag="0"/>
      <psa10 value="0.1857137217" flag="0"/>
      <psa30 value="0.1239638116" flag="0"/>
    </comp>
    <comp name="--.HHN">
      <acc value="0.2532346333" flag="0"/>
      <vel value="0.4183981138" flag="0"/>
      <psa03 value="0.5812920527" flag="0"/>
      <psa10 value="0.3890960737" flag="0"/>
      <psa30 value="0.2067777527" flag="0"/>
    </comp>
    <comp name="--.HHE">
      <acc value="0.3040103239" flag="0"/>
      <vel value="0.3091878364" flag="0"/>
      <psa03 value="0.5846526915" flag="0"/>
      <psa10 value="0.3123680056" flag="0"/>
      <psa30 value="0.0777413359" flag="0"/>
    </comp>
  </station>
  <station code="LAKA" name="LAKA" netid="HA" insttype="120s" lat="38.2401" lon="21.9785">
    <comp name="--.HHZ">
      <acc value="0.0511578971" flag="0"/>
      <vel value="0.1234475420" flag="0"/>
      <psa03 value="0.0778906885" flag="0"/>
      <psa10 value="0.1402101401" flag="0"/>
      <psa30 value="0.0757288593" flag="0"/>
    </comp>
    <comp name="--.HHN">
      <acc value="0.0522904291" flag="0"/>
      <vel value="0.1422468268" flag="0"/>
      <psa03 value="0.1031132633" flag="0"/>
      <psa10 value="0.1124388293" flag="0"/>
      <psa30 value="0.0840783234" flag="0"/>
    </comp>
    <comp name="--.HHE">
      <acc value="0.0528067624" flag="0"/>
      <vel value="0.1285570242" flag="0"/>
      <psa03 value="0.1023095975" flag="0"/>
      <psa10 value="0.1098779446" flag="0"/>
      <psa30 value="0.0671736246" flag="0"/>
    </comp>
  </station>
  <station code="THAL" name="THAL" netid="HA" insttype="30" lat="38.0357" lon="22.6634">
    <comp name="--.HHN">
      <acc value="0.1359875633" flag="0"/>
      <vel value="0.1853306414" flag="0"/>
      <psa03 value="0.3118215299" flag="0"/>
      <psa10 value="0.3019904337" flag="0"/>
      <psa30 value="0.0663363069" flag="0"/>
    </comp>
    <comp name="--.HHE">
      <acc value="0.1529135164" flag="0"/>
      <vel value="0.1851989545" flag="0"/>
      <psa03 value="0.3587598544" flag="0"/>
      <psa10 value="0.3215539190" flag="0"/>
      <psa30 value="0.0404026306" flag="0"/>
    </comp>
    <comp name="--.HHZ">
      <acc value="0.0749581495" flag="0"/>
      <vel value="0.0849027927" flag="0"/>
      <psa03 value="0.1870909298" flag="0"/>
      <psa10 value="0.1830407580" flag="0"/>
      <psa30 value="0.0250966414" flag="0"/>
    </comp>
  </station>
  <station code="ART2" name="ART2" netid="HI" insttype="CMG-5TD,ACCELEROMETER,GURALP" lat="39.1474" lon="20.9937">
    <comp name="--.HNE">
      <acc value="0.1072936339" flag="0"/>
      <vel value="0.1528223463" flag="0"/>
      <psa03 value="0.3402878701" flag="0"/>
      <psa10 value="0.1477773402" flag="0"/>
      <psa30 value="0.0918783761" flag="0"/>
    </comp>
    <comp name="--.HNN">
      <acc value="0.1070898633" flag="0"/>
      <vel value="0.2201241890" flag="0"/>
      <psa03 value="0.2945796872" flag="0"/>
      <psa10 value="0.1254974679" flag="0"/>
      <psa30 value="0.0841075561" flag="0"/>
    </comp>
    <comp name="--.HNZ">
      <acc value="0.0772727819" flag="0"/>
      <vel value="0.1052271661" flag="0"/>
      <psa03 value="0.2897180630" flag="0"/>
      <psa10 value="0.1166000750" flag="0"/>
      <psa30 value="0.0436203550" flag="0"/>
    </comp>
  </station>
  <station code="KLV1" name="KLV1" netid="HI" insttype="CMG-5TD,ACCELEROMETER,GURALP" lat="38.0326" lon="22.108">
    <comp name="--.HNE">
      <acc value="0.2074520774" flag="0"/>
      <vel value="0.2145398450" flag="0"/>
      <psa03 value="0.4289638541" flag="0"/>
      <psa10 value="0.1967613368" flag="0"/>
      <psa30 value="0.0778303426" flag="0"/>
    </comp>
    <comp name="--.HNN">
      <acc value="0.1622644006" flag="0"/>
      <vel value="0.1633713981" flag="0"/>
      <psa03 value="0.4949626961" flag="0"/>
      <psa10 value="0.3257108082" flag="0"/>
      <psa30 value="0.0551240598" flag="0"/>
    </comp>
    <comp name="--.HNZ">
      <acc value="0.0574529709" flag="0"/>
      <vel value="0.0925672090" flag="0"/>
      <psa03 value="0.1153133074" flag="0"/>
      <psa10 value="0.1325893456" flag="0"/>
      <psa30 value="0.0430503547" flag="0"/>
    </comp>
  </station>
  <station code="LAM2" name="LAM2" netid="HI" insttype="CMG-5TD,ACCELEROMETER,GURALP" lat="38.902" lon="22.4313">
    <comp name="--.HNE">
      <acc value="0.6571430757" flag="0"/>
      <vel value="0.5777904024" flag="0"/>
      <psa03 value="1.7096487396" flag="0"/>
      <psa10 value="0.4046430988" flag="0"/>
      <psa30 value="0.1021430547" flag="0"/>
    </comp>
    <comp name="--.HNN">
      <acc value="0.7016724359" flag="0"/>
      <vel value="0.7563716116" flag="0"/>
      <psa03 value="1.5461425756" flag="0"/>
      <psa10 value="1.2114584095" flag="0"/>
      <psa30 value="0.1505417839" flag="0"/>
    </comp>
    <comp name="--.HNZ">
      <acc value="0.4510276852" flag="0"/>
      <vel value="0.7570158980" flag="0"/>
      <psa03 value="0.8347793430" flag="0"/>
      <psa10 value="0.9162253912" flag="0"/>
      <psa30 value="0.1433471883" flag="0"/>
    </comp>
  </station>
  <station code="LMS2" name="LMS2" netid="HI" insttype="CMG-5TD,ACCELEROMETER,GURALP" lat="40.835" lon="21.1418">
    <comp name="--.HNZ">
      <acc value="0.1300015828" flag="0"/>
      <vel value="0.3281184307" flag="0"/>
      <psa03 value="0.3939749837" flag="0"/>
      <psa10 value="0.3785162332" flag="0"/>
      <psa30 value="0.1778542554" flag="0"/>
    </comp>
    <comp name="--.HNN">
      <acc value="0.3003260588" flag="0"/>
      <vel value="0.2978607197" flag="0"/>
      <psa03 value="0.9287460632" flag="0"/>
      <psa10 value="0.5840035082" flag="0"/>
      <psa30 value="0.0658319441" flag="0"/>
    </comp>
    <comp name="--.HNE">
      <acc value="0.2108018876" flag="0"/>
      <vel value="0.2747849227" flag="0"/>
      <psa03 value="0.5768638969" flag="0"/>
      <psa10 value="0.4709836397" flag="0"/>
      <psa30 value="0.0999919217" flag="0"/>
    </comp>
  </station>
  <station code="MSL1" name="MSL1" netid="HI" insttype="CMG-5TD,ACCELEROMETER,GURALP" lat="38.3727" lon="21.4243">
    <comp name="--.HNE">
      <acc value="0.3642415130" flag="0"/>
      <vel value="0.5985261464" flag="0"/>
      <psa03 value="0.8120367718" flag="0"/>
      <psa10 value="1.0500006784" flag="0"/>
      <psa30 value="0.1645780720" flag="0"/>
    </comp>
    <comp name="--.HNN">
      <acc value="0.4695711290" flag="0"/>
      <vel value="0.6865410301" flag="0"/>
      <psa03 value="0.9064102688" flag="0"/>
      <psa10 value="1.0522382722" flag="0"/>
      <psa30 value="0.1319002708" flag="0"/>
    </comp>
    <comp name="--.HNZ">
      <acc value="0.1687691317" flag="0"/>
      <vel value="0.3245140671" flag="0"/>
      <psa03 value="0.3980504445" flag="0"/>
      <psa10 value="0.4888238164" flag="0"/>
      <psa30 value="0.1508512451" flag="0"/>
    </comp>
  </station>
  <station code="VOL2" name="VOL2" netid="HI" insttype="CMG-5TD,ACCELEROMETER,GURALP" lat="39.366" lon="22.9506">
    <comp name="--.HNN">
      <acc value="0.6812132603" flag="0"/>
      <vel value="0.3999427964" flag="0"/>
      <psa03 value="1.5522383066" flag="0"/>
      <psa10 value="0.6671814306" flag="0"/>
      <psa30 value="0.0713195726" flag="0"/>
    </comp>
    <comp name="--.HNE">
      <acc value="0.7174731820" flag="0"/>
      <vel value="0.4754241039" flag="0"/>
      <psa03 value="1.5244211880" flag="0"/>
      <psa10 value="0.3159683942" flag="0"/>
      <psa30 value="0.0518706343" flag="0"/>
    </comp>
    <comp name="--.HNZ">
      <acc value="0.3350653393" flag="0"/>
      <vel value="0.2358316741" flag="0"/>
      <psa03 value="0.6939636035" flag="0"/>
      <psa10 value="0.2673886054" flag="0"/>
      <psa30 value="0.0505322803" flag="0"/>
    </comp>
  </station>
  <station code="DLFA" name="DLFA" netid="HL" insttype="CMG-5" lat="38.4784" lon="22.4958">
    <comp name="00.HNE">
      <acc value="0.3791973786" flag="0"/>
      <vel value="0.5222834908" flag="0"/>
      <psa03 value="0.5904747957" flag="0"/>
      <psa10 value="0.5090733305" flag="0"/>
      <psa30 value="0.1391264534" flag="0"/>
    </comp>
    <comp name="00.HNZ">
      <acc value="0.1621611007" flag="0"/>
      <vel value="0.1958920107" flag="0"/>
      <psa03 value="0.2647238202" flag="0"/>
      <psa10 value="0.3142192328" flag="0"/>
      <psa30 value="0.0350691180" flag="0"/>
    </comp>
    <comp name="00.HNN">
      <acc value="0.2982704251" flag="0"/>
      <vel value="0.3276245824" flag="0"/>
      <psa03 value="0.4378765335" flag="0"/>
      <psa10 value="0.6587698998" flag="0"/>
      <psa30 value="0.0613502116" flag="0"/>
    </comp>
  </station>
  <station code="EVR" name="EVR" netid="HL" insttype="DR24" lat="38.9166" lon="21.8105">
    <comp name="--.HHZ">
      <acc value="0.2737825975" flag="0"/>
      <vel value="0.3672739654" flag="0"/>
      <psa03 value="0.6527643670" flag="0"/>
      <psa10 value="0.8291185764" flag="0"/>
      <psa30 value="0.1579133422" flag="0"/>
    </comp>
    <comp name="--.HHN">
      <acc value="0.5134913960" flag="0"/>
      <vel value="0.6484158561" flag="0"/>
      <psa03 value="1.1584288486" flag="0"/>
      <psa10 value="0.5794140780" flag="0"/>
      <psa30 value="0.2576918044" flag="0"/>
    </comp>
    <comp name="--.HHE">
      <acc value="0.3207270972" flag="0"/>
      <vel value="0.3694366211" flag="0"/>
      <psa03 value="1.3104972310" flag="0"/>
      <psa10 value="0.5218711705" flag="0"/>
      <psa30 value="0.1872985645" flag="0"/>
    </comp>
  </station>
  <station code="JAN" name="JAN" netid="HL" insttype="CMG3EPSC60_DR24" lat="39.6562" lon="20.8487">
    <comp name="--.HHN">
      <acc value="0.3760893067" flag="0"/>
      <vel value="0.3962276041" flag="0"/>
      <psa03 value="0.6735639166" flag="0"/>
      <psa10 value="0.4188805207" flag="0"/>
      <psa30 value="0.1162093721" flag="0"/>
    </comp>
    <comp name="--.HHZ">
      <acc value="0.1927951555" flag="0"/>
      <vel value="0.3896606171" flag="0"/>
      <psa03 value="0.3807726225" flag="0"/>
      <psa10 value="0.2658673580" flag="0"/>
      <psa30 value="0.2536343056" flag="0"/>
    </comp>
    <comp name="--.HHE">
      <acc value="0.2946757360" flag="0"/>
      <vel value="0.4831660154" flag="0"/>
      <psa03 value="0.7490833651" flag="0"/>
      <psa10 value="0.4164971302" flag="0"/>
      <psa30 value="0.2924171553" flag="0"/>
    </comp>
  </station>
  <station code="KLV" name="KLV" netid="HL" insttype="120" lat="38.0435" lon="22.1504">
    <comp name="--.HHN">
      <acc value="0.0655160842" flag="0"/>
      <vel value="0.1087675369" flag="0"/>
      <psa03 value="0.0850307941" flag="0"/>
      <psa10 value="0.1069816721" flag="0"/>
      <psa30 value="0.0306653838" flag="0"/>
    </comp>
    <comp name="--.HHE">
      <acc value="0.0587786240" flag="0"/>
      <vel value="0.0792736227" flag="0"/>
      <psa03 value="0.1050105843" flag="0"/>
      <psa10 value="0.1303979924" flag="0"/>
      <psa30 value="0.0443749796" flag="0"/>
    </comp>
    <comp name="--.HHZ">
      <acc value="0.0529092337" flag="0"/>
      <vel value="0.0802929035" flag="0"/>
      <psa03 value="0.0828037150" flag="0"/>
      <psa10 value="0.1185225810" flag="0"/>
      <psa30 value="0.0353071910" flag="0"/>
    </comp>
  </station>
  <station code="KZN" name="KZN" netid="HL" insttype="120" lat="40.3033" lon="21.7821">
    <comp name="--.HHN">
      <acc value="1.8379238036" flag="0"/>
      <vel value="1.0112447329" flag="0"/>
      <psa03 value="6.0838948774" flag="0"/>
      <psa10 value="0.4832955656" flag="0"/>
      <psa30 value="0.2944301086" flag="0"/>
    </comp>
    <comp name="--.HHZ">
      <acc value="0.5794712976" flag="0"/>
      <vel value="0.6913018393" flag="0"/>
      <psa03 value="1.5809351108" flag="0"/>
      <psa10 value="0.7136558645" flag="0"/>
      <psa30 value="0.2446251923" flag="0"/>
    </comp>
    <comp name="--.HHE">
      <acc value="2.2534982030" flag="0"/>
      <vel value="1.3479366742" flag="0"/>
      <psa03 value="8.3772527404" flag="0"/>
      <psa10 value="0.6310764799" flag="0"/>
      <psa30 value="0.1034153075" flag="0"/>
    </comp>
  </station>
  <station code="LKR" name="LKR" netid="HL" insttype="30" lat="38.6496" lon="22.9989">
    <comp name="--.HHZ">
      <acc value="0.0495628342" flag="0"/>
      <vel value="0.1075702319" flag="0"/>
      <psa03 value="0.0980170010" flag="0"/>
      <psa10 value="0.0740162512" flag="0"/>
      <psa30 value="0.0603477452" flag="0"/>
    </comp>
    <comp name="--.HHE">
      <acc value="0.0638188144" flag="0"/>
      <vel value="0.0833125802" flag="0"/>
      <psa03 value="0.1725984161" flag="0"/>
      <psa10 value="0.1179138500" flag="0"/>
      <psa30 value="0.0346046046" flag="0"/>
    </comp>
    <comp name="--.HHN">
      <acc value="0.0613545274" flag="0"/>
      <vel value="0.0904612469" flag="0"/>
      <psa03 value="0.1373003362" flag="0"/>
      <psa10 value="0.1194756988" flag="0"/>
      <psa30 value="0.0339964262" flag="0"/>
    </comp>
  </station>
  <station code="NEO" name="NEO" netid="HL" insttype="120" lat="39.3057" lon="23.2219">
    <comp name="--.HHN">
      <acc value="0.6767139235" flag="0"/>
      <vel value="0.6755569617" flag="0"/>
      <psa03 value="1.6209555818" flag="0"/>
      <psa10 value="1.1161192803" flag="0"/>
      <psa30 value="0.0849331222" flag="0"/>
    </comp>
    <comp name="--.HHE">
      <acc value="0.6083087452" flag="0"/>
      <vel value="0.6200975093" flag="0"/>
      <psa03 value="2.0940244893" flag="0"/>
      <psa10 value="0.9321674660" flag="0"/>
      <psa30 value="0.0619522682" flag="0"/>
    </comp>
    <comp name="--.HHZ">
      <acc value="0.3470060361" flag="0"/>
      <vel value="0.3501569136" flag="0"/>
      <psa03 value="0.6251940492" flag="0"/>
      <psa10 value="0.7957049890" flag="0"/>
      <psa30 value="0.0812756432" flag="0"/>
    </comp>
  </station>
  <station code="PATC" name="PATC" netid="HL" insttype="CMG-5" lat="38.2693" lon="21.76">
    <comp name="00.HNN">
      <acc value="0.2991415014" flag="0"/>
      <vel value="0.6235038691" flag="0"/>
      <psa03 value="0.3917210382" flag="0"/>
      <psa10 value="0.5251014012" flag="0"/>
      <psa30 value="0.3697171428" flag="0"/>
    </comp>
    <comp name="00.HNE">
      <acc value="0.2215761431" flag="0"/>
      <vel value="0.4844231655" flag="0"/>
      <psa03 value="0.3871363980" flag="0"/>
      <psa10 value="0.7578082465" flag="0"/>
      <psa30 value="0.2807852595" flag="0"/>
    </comp>
    <comp name="00.HNZ">
      <acc value="0.1627218848" flag="0"/>
      <vel value="0.2659056244" flag="0"/>
      <psa03 value="0.2761679066" flag="0"/>
      <psa10 value="0.4061519242" flag="0"/>
      <psa30 value="0.1217891936" flag="0"/>
    </comp>
  </station>
  <station code="PENT" name="PENT" netid="HL" insttype="30" lat="40.1959" lon="21.1384">
    <comp name="--.HHN">
      <acc value="0.0133111452" flag="0"/>
      <vel value="0.0148104242" flag="0"/>
      <psa03 value="0.0442036622" flag="0"/>
      <psa10 value="0.0227239643" flag="0"/>
      <psa30 value="0.0035659372" flag="0"/>
    </comp>
    <comp name="--.HHE">
      <acc value="0.3327303077" flag="0"/>
      <vel value="0.3599892561" flag="0"/>
      <psa03 value="0.8744811270" flag="0"/>
      <psa10 value="0.7322851408" flag="0"/>
      <psa30 value="0.1252219356" flag="0"/>
    </comp>
    <comp name="--.HHZ">
      <acc value="0.2923522259" flag="0"/>
      <vel value="0.4127870308" flag="0"/>
      <psa03 value="0.5945568928" flag="0"/>
      <psa10 value="0.4058531994" flag="0"/>
      <psa30 value="0.1781973699" flag="0"/>
    </comp>
  </station>
  <station code="PLG" name="PLG" netid="HL" insttype="CMG3ESPC-120s" lat="40.3733" lon="23.4444">
    <comp name="--.HHZ">
      <acc value="0.1019649929" flag="0"/>
      <vel value="0.1151229258" flag="0"/>
      <psa03 value="0.3050422248" flag="0"/>
      <psa10 value="0.1648250881" flag="0"/>
      <psa30 value="0.0388427729" flag="0"/>
    </comp>
  </station>
  <station code="THL" name="THL" netid="HL" insttype="120" lat="39.5647" lon="22.0144">
    <comp name="--.HHE">
      <acc value="3.0668896543" flag="0"/>
      <vel value="1.2685097951" flag="0"/>
      <psa03 value="2.9044542938" flag="0"/>
      <psa10 value="2.4729980863" flag="0"/>
      <psa30 value="0.2385841309" flag="0"/>
    </comp>
    <comp name="--.HHZ">
      <acc value="1.7812831570" flag="0"/>
      <vel value="1.3748060045" flag="0"/>
      <psa03 value="1.9233210666" flag="0"/>
      <psa10 value="1.3751586894" flag="0"/>
      <psa30 value="0.1839296410" flag="0"/>
    </comp>
    <comp name="--.HHN">
      <acc value="2.9021023062" flag="0"/>
      <vel value="1.5455498500" flag="0"/>
      <psa03 value="3.7652886021" flag="0"/>
      <psa10 value="1.3194101854" flag="0"/>
      <psa30 value="0.3570936966" flag="0"/>
    </comp>
  </station>
  <station code="AMPL" name="AMPL" netid="HP" insttype="Compact," lat="38.9224" lon="21.2135">
    <comp name="--.HHN">
      <acc value="0.1766778902" flag="0"/>
      <vel value="0.1964481983" flag="0"/>
      <psa03 value="0.3663657220" flag="0"/>
      <psa10 value="0.2141606485" flag="0"/>
      <psa30 value="0.0841175137" flag="0"/>
    </comp>
    <comp name="--.HHE">
      <acc value="0.2512133104" flag="0"/>
      <vel value="0.3134690952" flag="0"/>
      <psa03 value="0.5641673114" flag="0"/>
      <psa10 value="0.4767393200" flag="0"/>
      <psa30 value="0.0733595758" flag="0"/>
    </comp>
    <comp name="--.HHZ">
      <acc value="0.1183295540" flag="0"/>
      <vel value="0.1782540361" flag="0"/>
      <psa03 value="0.2974033652" flag="0"/>
      <psa10 value="0.2720636037" flag="0"/>
      <psa30 value="0.0460937092" flag="0"/>
    </comp>
  </station>
  <station code="ANX" name="ANX" netid="HP" insttype="120" lat="38.5933" lon="21.9209">
    <comp name="--.HHN">
      <acc value="0.5136178261" flag="0"/>
      <vel value="0.5699498898" flag="0"/>
      <psa03 value="1.6025681646" flag="0"/>
      <psa10 value="0.5120342192" flag="0"/>
      <psa30 value="0.0806502322" flag="0"/>
    </comp>
    <comp name="--.HHE">
      <acc value="0.4704991726" flag="0"/>
      <vel value="0.4600727806" flag="0"/>
      <psa03 value="0.8570352260" flag="0"/>
      <psa10 value="0.7666799068" flag="0"/>
      <psa30 value="0.0798667198" flag="0"/>
    </comp>
    <comp name="--.HHZ">
      <acc value="0.2789001225" flag="0"/>
      <vel value="0.3755496182" flag="0"/>
      <psa03 value="0.5388454800" flag="0"/>
      <psa10 value="0.4200502941" flag="0"/>
      <psa30 value="0.0882778174" flag="0"/>
    </comp>
  </station>
  <station code="AXS" name="AXS" netid="HP" insttype="40," lat="38.1962" lon="21.3763">
    <comp name="--.HHE">
      <acc value="0.0621589892" flag="0"/>
      <vel value="0.1212783484" flag="0"/>
      <psa03 value="0.1507803323" flag="0"/>
      <psa10 value="0.1489853889" flag="0"/>
      <psa30 value="0.0614471874" flag="0"/>
    </comp>
    <comp name="--.HHZ">
      <acc value="0.0367908431" flag="0"/>
      <vel value="0.1453577533" flag="0"/>
      <psa03 value="0.1178317208" flag="0"/>
      <psa10 value="0.0805092223" flag="0"/>
      <psa30 value="0.0760488120" flag="0"/>
    </comp>
    <comp name="--.HHN">
      <acc value="0.0584619480" flag="0"/>
      <vel value="0.0984918759" flag="0"/>
      <psa03 value="0.1483114401" flag="0"/>
      <psa10 value="0.0831997509" flag="0"/>
      <psa30 value="0.0797972750" flag="0"/>
    </comp>
  </station>
