<?xml version="1.0" encoding="UTF-8" standalone="yes"?>
<!DOCTYPE earthquake SYSTEM "stationlist.dtd">
<stationlist created="" xmlns="ch.ethz.sed.shakemap.usgs.xml">
  <station code="ATAL" name="ATAL" netid="HA" insttype="120s," lat="38.6926" lon="23.0213">
    <comp name="--.HHE">
      <acc value="0.0163245083" flag="0"/>
      <vel value="0.0090729668" flag="0"/>
      <psa03 value="0.0459800615" flag="0"/>
      <psa10 value="0.0093455902" flag="0"/>
      <psa30 value="0.0020645208" flag="0"/>
    </comp>
    <comp name="--.HHN">
      <acc value="0.0233279519" flag="0"/>
      <vel value="0.0234000697" flag="0"/>
      <psa03 value="0.0686109660" flag="0"/>
      <psa10 value="0.0364515435" flag="0"/>
      <psa30 value="0.0046658227" flag="0"/>
    </comp>
    <comp name="--.HHZ">
      <acc value="0.0134038091" flag="0"/>
      <vel value="0.0060169215" flag="0"/>
      <psa03 value="0.0286869877" flag="0"/>
      <psa10 value="0.0076417183" flag="0"/>
      <psa30 value="0.0009732776" flag="0"/>
    </comp>
  </station>
  <station code="ATHU" name="ATHU" netid="HA" insttype="60s," lat="37.9665" lon="23.7845">
    <comp name="--.HHE">
      <acc value="0.0213835056" flag="0"/>
      <vel value="0.0167719892" flag="0"/>
      <psa03 value="0.0539858652" flag="0"/>
      <psa10 value="0.0278982964" flag="0"/>
      <psa30 value="0.0028518617" flag="0"/>
    </comp>
    <comp name="--.HHN">
      <acc value="0.0165756969" flag="0"/>
      <vel value="0.0109848009" flag="0"/>
      <psa03 value="0.0492206648" flag="0"/>
      <psa10 value="0.0135492808" flag="0"/>
      <psa30 value="0.0019043905" flag="0"/>
    </comp>
    <comp name="--.HHZ">
      <acc value="0.0140062938" flag="0"/>
      <vel value="0.0102521700" flag="0"/>
      <psa03 value="0.0314222033" flag="0"/>
      <psa10 value="0.0132244497" flag="0"/>
      <psa30 value="0.0035904211" flag="0"/>
    </comp>
  </station>
  <station code="AXAR" name="AXAR" netid="HA" insttype="Horizon,120s,1200" lat="38.7664" lon="22.659">
    <comp name="--.HHE">
      <acc value="0.0395661238" flag="0"/>
      <vel value="0.0231497337" flag="0"/>
      <psa03 value="0.1118345638" flag="0"/>
      <psa10 value="0.0288834577" flag="0"/>
      <psa30 value="0.0074147584" flag="0"/>
    </comp>
    <comp name="--.HHZ">
      <acc value="0.0226970746" flag="0"/>
      <vel value="0.0174774778" flag="0"/>
      <psa03 value="0.0647358077" flag="0"/>
      <psa10 value="0.0324871126" flag="0"/>
      <psa30 value="0.0026231545" flag="0"/>
    </comp>
  </station>
  <station code="KARY" name="KARY" netid="HA" insttype="60" lat="38.0321" lon="24.437">
    <comp name="--.HHZ">
      <acc value="0.0456024735" flag="0"/>
      <vel value="0.0163711002" flag="0"/>
      <psa03 value="0.1037837831" flag="0"/>
      <psa10 value="0.0090302870" flag="0"/>
      <psa30 value="0.0014366561" flag="0"/>
    </comp>
    <comp name="--.HHN">
      <acc value="0.0639581878" flag="0"/>
      <vel value="0.0196283428" flag="0"/>
      <psa03 value="0.1120169594" flag="0"/>
      <psa10 value="0.0093951943" flag="0"/>
      <psa30 value="0.0018739459" flag="0"/>
    </comp>
    <comp name="--.HHE">
      <acc value="0.0453321474" flag="0"/>
      <vel value="0.0221215528" flag="0"/>
      <psa03 value="0.0671797342" flag="0"/>
      <psa10 value="0.0134773931" flag="0"/>
      <psa30 value="0.0027276550" flag="0"/>
    </comp>
  </station>
  <station code="MDRA" name="MDRA" netid="HA" insttype="60" lat="38.0606" lon="23.4662">
    <comp name="--.HHN">
      <acc value="0.0482140457" flag="0"/>
      <vel value="0.0365574166" flag="0"/>
      <psa03 value="0.1514185740" flag="0"/>
      <psa10 value="0.0222360981" flag="0"/>
      <psa30 value="0.0075693460" flag="0"/>
    </comp>
    <comp name="--.HHE">
      <acc value="0.0340909555" flag="0"/>
      <vel value="0.0304557932" flag="0"/>
      <psa03 value="0.1025500989" flag="0"/>
      <psa10 value="0.0162166751" flag="0"/>
      <psa30 value="0.0053601961" flag="0"/>
    </comp>
    <comp name="--.HHZ">
      <acc value="0.0462498713" flag="0"/>
      <vel value="0.0302346181" flag="0"/>
      <psa03 value="0.1293192186" flag="0"/>
      <psa10 value="0.0172599206" flag="0"/>
      <psa30 value="0.0039921973" flag="0"/>
    </comp>
  </station>
  <station code="MRKA" name="MRKA" netid="HA" insttype="Horizon,120s,1200" lat="38.7047" lon="23.5863">
    <comp name="--.HHZ">
      <acc value="0.0785161178" flag="0"/>
      <vel value="0.0295925522" flag="0"/>
      <psa03 value="0.1550984308" flag="0"/>
      <psa10 value="0.0281386910" flag="0"/>
      <psa30 value="0.0035956209" flag="0"/>
    </comp>
    <comp name="--.HHN">
      <acc value="0.1548142690" flag="0"/>
      <vel value="0.0707040112" flag="0"/>
      <psa03 value="0.2510701380" flag="0"/>
      <psa10 value="0.0753564663" flag="0"/>
      <psa30 value="0.0057137777" flag="0"/>
    </comp>
    <comp name="--.HHE">
      <acc value="0.1581468141" flag="0"/>
      <vel value="0.0632093206" flag="0"/>
      <psa03 value="0.2940416130" flag="0"/>
      <psa10 value="0.0559220044" flag="0"/>
      <psa30 value="0.0026167224" flag="0"/>
    </comp>
  </station>
  <station code="MRTH" name="MRTH" netid="HA" insttype="S100," lat="38.1225" lon="23.9409">
    <comp name="--.HHE">
      <acc value="0.1730634247" flag="0"/>
      <vel value="0.0628801589" flag="0"/>
      <psa03 value="0.4361079873" flag="0"/>
      <psa10 value="0.0311960855" flag="0"/>
      <psa30 value="0.0024632596" flag="0"/>
    </comp>
    <comp name="--.HHN">
      <acc value="0.1185198634" flag="0"/>
      <vel value="0.0449054416" flag="0"/>
      <psa03 value="0.2242870148" flag="0"/>
      <psa10 value="0.0304111770" flag="0"/>
      <psa30 value="0.0041308584" flag="0"/>
    </comp>
    <comp name="--.HHZ">
      <acc value="0.0722298120" flag="0"/>
      <vel value="0.0290959771" flag="0"/>
      <psa03 value="0.2645799650" flag="0"/>
      <psa10 value="0.0219735063" flag="0"/>
      <psa30 value="0.0032525719" flag="0"/>
    </comp>
  </station>
  <station code="VILL" name="VILL" netid="HA" insttype="Horizon,120s,1200" lat="38.1642" lon="23.3122">
    <comp name="--.HHE">
      <acc value="0.0494030573" flag="0"/>
      <vel value="0.0377310635" flag="0"/>
      <psa03 value="0.1024294004" flag="0"/>
      <psa10 value="0.0627376474" flag="0"/>
      <psa30 value="0.0090339991" flag="0"/>
    </comp>
    <comp name="--.HHN">
      <acc value="0.0434315890" flag="0"/>
      <vel value="0.0331319309" flag="0"/>
      <psa03 value="0.0712301117" flag="0"/>
      <psa10 value="0.0384331517" flag="0"/>
      <psa30 value="0.0060417355" flag="0"/>
    </comp>
    <comp name="--.HHZ">
      <acc value="0.0215296937" flag="0"/>
      <vel value="0.0175217072" flag="0"/>
      <psa03 value="0.0718455827" flag="0"/>
      <psa10 value="0.0171350416" flag="0"/>
      <psa30 value="0.0025322691" flag="0"/>
    </comp>
  </station>
  <station code="ATH5" name="ATH5" netid="HI" insttype="CMG-5TD,ACCELEROMETER,GURALP" lat="37.9754" lon="23.7371">
    <comp name="--.HNZ">
      <acc value="0.0182908239" flag="0"/>
      <vel value="0.0109035997" flag="0"/>
      <psa03 value="0.0444894944" flag="0"/>
      <psa10 value="0.0182498300" flag="0"/>
      <psa30 value="0.0020059388" flag="0"/>
    </comp>
    <comp name="--.HNN">
      <acc value="0.0372998222" flag="0"/>
      <vel value="0.0217366191" flag="0"/>
      <psa03 value="0.1104098854" flag="0"/>
      <psa10 value="0.0416130373" flag="0"/>
      <psa30 value="0.0033923856" flag="0"/>
    </comp>
    <comp name="--.HNE">
      <acc value="0.0290572131" flag="0"/>
      <vel value="0.0265424911" flag="0"/>
      <psa03 value="0.1068801325" flag="0"/>
      <psa10 value="0.0293519948" flag="0"/>
      <psa30 value="0.0057044567" flag="0"/>
    </comp>
  </station>
  <station code="SKY1" name="SKY1" netid="HI" insttype="CMG-5TD,ACCELEROMETER,GURALP" lat="38.9045" lon="24.5646">
    <comp name="--.HNZ">
      <acc value="0.3041593719" flag="0"/>
      <vel value="0.0702899018" flag="0"/>
      <psa03 value="0.4208000584" flag="0"/>
      <psa10 value="0.0488180199" flag="0"/>
      <psa30 value="0.0057012924" flag="0"/>
    </comp>
    <comp name="--.HNN">
      <acc value="0.2992423032" flag="0"/>
      <vel value="0.1111367845" flag="0"/>
      <psa03 value="0.4197709642" flag="0"/>
      <psa10 value="0.0625398280" flag="0"/>
      <psa30 value="0.0247205899" flag="0"/>
    </comp>
    <comp name="--.HNE">
      <acc value="0.4414118757" flag="0"/>
      <vel value="0.0810462060" flag="0"/>
      <psa03 value="0.3673627741" flag="0"/>
      <psa10 value="0.0530046045" flag="0"/>
      <psa30 value="0.0132867697" flag="0"/>
    </comp>
  </station>
  <station code="VOL2" name="VOL2" netid="HI" insttype="CMG-5TD,ACCELEROMETER,GURALP" lat="39.366" lon="22.9506">
    <comp name="--.HNE">
      <acc value="0.1744548841" flag="0"/>
      <vel value="0.0694273919" flag="0"/>
      <psa03 value="0.2446665845" flag="0"/>
      <psa10 value="0.0507706290" flag="0"/>
      <psa30 value="0.0041972035" flag="0"/>
    </comp>
    <comp name="--.HNZ">
      <acc value="0.1132511495" flag="0"/>
      <vel value="0.0389713842" flag="0"/>
      <psa03 value="0.1270131307" flag="0"/>
      <psa10 value="0.0393531179" flag="0"/>
      <psa30 value="0.0036202771" flag="0"/>
    </comp>
    <comp name="--.HNN">
      <acc value="0.1133406012" flag="0"/>
      <vel value="0.0718228937" flag="0"/>
      <psa03 value="0.2731762269" flag="0"/>
      <psa10 value="0.0600944585" flag="0"/>
      <psa30 value="0.0095714640" flag="0"/>
    </comp>
  </station>
  <station code="ALNA" name="ALNA" netid="HL" insttype="CMG-5" lat="39.148" lon="23.8667">
    <comp name="00.HNN">
      <acc value="0.5140387134" flag="0"/>
      <vel value="0.3741462619" flag="0"/>
      <psa03 value="1.2348606946" flag="0"/>
      <psa10 value="0.3564204282" flag="0"/>
      <psa30 value="0.0414660120" flag="0"/>
    </comp>
    <comp name="00.HNE">
      <acc value="0.5810415637" flag="0"/>
      <vel value="0.3495283175" flag="0"/>
      <psa03 value="0.9680272503" flag="0"/>
      <psa10 value="0.3890144327" flag="0"/>
      <psa30 value="0.0322270951" flag="0"/>
    </comp>
    <comp name="00.HNZ">
      <acc value="0.3667494009" flag="0"/>
      <vel value="0.1586154365" flag="0"/>
      <psa03 value="0.5838246357" flag="0"/>
      <psa10 value="0.1769093998" flag="0"/>
      <psa30 value="0.0113121313" flag="0"/>
    </comp>
  </station>
  <station code="ATH" name="ATH" netid="HL" insttype="DR24" lat="37.9738" lon="23.7177">
    <comp name="--.HHE">
      <acc value="0.0508724244" flag="0"/>
      <vel value="0.0426481499" flag="0"/>
      <psa03 value="0.1481762254" flag="0"/>
      <psa10 value="0.0344118805" flag="0"/>
      <psa30 value="0.0058970149" flag="0"/>
    </comp>
    <comp name="--.HHN">
      <acc value="0.0676073455" flag="0"/>
      <vel value="0.0327467100" flag="0"/>
      <psa03 value="0.1727568098" flag="0"/>
      <psa10 value="0.0249782193" flag="0"/>
      <psa30 value="0.0054117559" flag="0"/>
    </comp>
    <comp name="--.HHZ">
      <acc value="0.0365060552" flag="0"/>
      <vel value="0.0151675117" flag="0"/>
      <psa03 value="0.0602466573" flag="0"/>
      <psa10 value="0.0223662826" flag="0"/>
      <psa30 value="0.0021053774" flag="0"/>
    </comp>
  </station>
  <station code="ATHP" name="ATHP" netid="HL" insttype="CMG-5" lat="38.0008" lon="23.7735">
    <comp name="00.HNE">
      <acc value="0.0452141228" flag="0"/>
      <vel value="0.0234738889" flag="0"/>
      <psa03 value="0.0911713114" flag="0"/>
      <psa10 value="0.0378505143" flag="0"/>
      <psa30 value="0.0072240352" flag="0"/>
    </comp>
    <comp name="00.HNN">
      <acc value="0.0557496499" flag="0"/>
      <vel value="0.0340584676" flag="0"/>
      <psa03 value="0.2583293722" flag="0"/>
      <psa10 value="0.0370256801" flag="0"/>
      <psa30 value="0.0028886812" flag="0"/>
    </comp>
    <comp name="00.HNZ">
      <acc value="0.0193993742" flag="0"/>
      <vel value="0.0152952939" flag="0"/>
      <psa03 value="0.0532024742" flag="0"/>
      <psa10 value="0.0173547291" flag="0"/>
      <psa30 value="0.0031550810" flag="0"/>
    </comp>
  </station>
  <station code="EFSA" name="EFSA" netid="HL" insttype="CMG-5" lat="39.5401" lon="24.9886">
    <comp name="00.HNZ">
      <acc value="0.0341225838" flag="0"/>
      <vel value="0.0135951079" flag="0"/>
      <psa03 value="0.0635875253" flag="0"/>
      <psa10 value="0.0117175088" flag="0"/>
      <psa30 value="0.0017613972" flag="0"/>
    </comp>
    <comp name="00.HNE">
      <acc value="0.0850274747" flag="0"/>
      <vel value="0.0397625480" flag="0"/>
      <psa03 value="0.1613365059" flag="0"/>
      <psa10 value="0.0324048750" flag="0"/>
      <psa30 value="0.0033883286" flag="0"/>
    </comp>
  </station>
  <station code="LIA" name="LIA" netid="HL" insttype="P6C" lat="39.8972" lon="25.1806">
    <comp name="--.HHE">
      <acc value="0.0277493297" flag="0"/>
      <vel value="0.0152179934" flag="0"/>
      <psa03 value="0.0728483579" flag="0"/>
      <psa10 value="0.0159484200" flag="0"/>
      <psa30 value="0.0022590210" flag="0"/>
    </comp>
    <comp name="--.HHN">
      <acc value="0.0316626358" flag="0"/>
      <vel value="0.0155987551" flag="0"/>
      <psa03 value="0.1077194402" flag="0"/>
      <psa10 value="0.0101020401" flag="0"/>
      <psa30 value="0.0031520352" flag="0"/>
    </comp>
    <comp name="--.HHZ">
      <acc value="0.0117338937" flag="0"/>
      <vel value="0.0069367561" flag="0"/>
      <psa03 value="0.0286968841" flag="0"/>
      <psa10 value="0.0074399917" flag="0"/>
      <psa30 value="0.0011115650" flag="0"/>
    </comp>
  </station>
  <station code="LKR" name="LKR" netid="HL" insttype="65535" lat="38.6496" lon="22.9988">
    <comp name="--.HHE">
      <acc value="0.0018495747" flag="0"/>
      <vel value="0.0001861858" flag="0"/>
      <psa03 value="0.0006138203" flag="0"/>
      <psa10 value="0.0000758574" flag="0"/>
      <psa30 value="0.0000141299" flag="0"/>
    </comp>
    <comp name="--.HHN">
      <acc value="0.0469223302" flag="0"/>
      <vel value="0.0183031489" flag="0"/>
      <psa03 value="0.0821869091" flag="0"/>
      <psa10 value="0.0147868624" flag="0"/>
      <psa30 value="0.0031531991" flag="0"/>
    </comp>
    <comp name="--.HHZ">
      <acc value="0.0180953054" flag="0"/>
      <vel value="0.0146519746" flag="0"/>
      <psa03 value="0.0309943073" flag="0"/>
      <psa10 value="0.0158483762" flag="0"/>
      <psa30 value="0.0032538151" flag="0"/>
    </comp>
  </station>
  <station code="NEO" name="NEO" netid="HL" insttype="120" lat="39.3057" lon="23.2219">
    <comp name="--.HHZ">
      <acc value="0.1047885768" flag="0"/>
      <vel value="0.0622299919" flag="0"/>
      <psa03 value="0.1674412806" flag="0"/>
      <psa10 value="0.0936863620" flag="0"/>
      <psa30 value="0.0047446773" flag="0"/>
    </comp>
    <comp name="--.HHE">
      <acc value="0.1868475864" flag="0"/>
      <vel value="0.0730723342" flag="0"/>
      <psa03 value="0.3331260826" flag="0"/>
      <psa10 value="0.0604816724" flag="0"/>
      <psa30 value="0.0047490363" flag="0"/>
    </comp>
    <comp name="--.HHN">
      <acc value="0.1743108721" flag="0"/>
      <vel value="0.1183876239" flag="0"/>
      <psa03 value="0.4577024740" flag="0"/>
      <psa10 value="0.1105555921" flag="0"/>
      <psa30 value="0.0149917899" flag="0"/>
    </comp>
  </station>
  <station code="PTL" name="PTL" netid="HL" insttype="120" lat="38.0473" lon="23.8638">
    <comp name="--.HHE">
      <acc value="0.0302400569" flag="0"/>
      <vel value="0.0323104548" flag="0"/>
      <psa03 value="0.0807300735" flag="0"/>
      <psa10 value="0.0602789912" flag="0"/>
      <psa30 value="0.0044209539" flag="0"/>
    </comp>
    <comp name="--.HHZ">
      <acc value="0.0185598786" flag="0"/>
      <vel value="0.0115180308" flag="0"/>
      <psa03 value="0.0574454394" flag="0"/>
      <psa10 value="0.0139461418" flag="0"/>
      <psa30 value="0.0025201069" flag="0"/>
    </comp>
  </station>
  <station code="VLY" name="VLY" netid="HL" insttype="120P," lat="37.8524" lon="23.7942">
    <comp name="--.HHE">
      <acc value="0.0551120466" flag="0"/>
      <vel value="0.0265112286" flag="0"/>
      <psa03 value="0.1735211015" flag="0"/>
      <psa10 value="0.0226096454" flag="0"/>
      <psa30 value="0.0021967650" flag="0"/>
    </comp>
    <comp name="--.HHN">
      <acc value="0.0495692355" flag="0"/>
      <vel value="0.0282126303" flag="0"/>
      <psa03 value="0.0810580585" flag="0"/>
      <psa10 value="0.0334633696" flag="0"/>
      <psa30 value="0.0019612811" flag="0"/>
    </comp>
    <comp name="--.HHZ">
      <acc value="0.0533514131" flag="0"/>
      <vel value="0.0243188462" flag="0"/>
      <psa03 value="0.1177124659" flag="0"/>
      <psa10 value="0.0204382450" flag="0"/>
      <psa30 value="0.0013778699" flag="0"/>
    </comp>
  </station>
  <station code="LTK" name="LTK" netid="HP" insttype="DC_100" lat="38.0228" lon="22.9673">
    <comp name="--.HNE">
      <acc value="0.0285143745" flag="0"/>
      <vel value="0.0204332832" flag="0"/>
      <psa03 value="0.0773409007" flag="0"/>
      <psa10 value="0.0192611862" flag="0"/>
      <psa30 value="0.0025494177" flag="0"/>
    </comp>
    <comp name="--.HNN">
      <acc value="0.0318930138" flag="0"/>
      <vel value="0.0185119418" flag="0"/>
      <psa03 value="0.1058147324" flag="0"/>
      <psa10 value="0.0160435831" flag="0"/>
      <psa30 value="0.0027929634" flag="0"/>
    </comp>
    <comp name="--.HNZ">
      <acc value="0.0130880214" flag="0"/>
      <vel value="0.0108335554" flag="0"/>
      <psa03 value="0.0441764560" flag="0"/>
      <psa10 value="0.0105939786" flag="0"/>
      <psa30 value="0.0016238002" flag="0"/>
    </comp>
  </station>
  <station code="AOS2" name="AOS2" netid="HT" insttype="100" lat="39.1478" lon="23.8436">
    <comp name="--.HHZ">
      <acc value="0.6243395701" flag="0"/>
      <vel value="0.2548329702" flag="0"/>
      <psa03 value="1.6608280088" flag="0"/>
      <psa10 value="0.0719839484" flag="0"/>
      <psa30 value="0.0079848036" flag="0"/>
    </comp>
    <comp name="--.HHN">
      <acc value="0.4366239191" flag="0"/>
      <vel value="0.3537884450" flag="0"/>
      <psa03 value="0.9906865467" flag="0"/>
      <psa10 value="0.3153056388" flag="0"/>
      <psa30 value="0.0300723561" flag="0"/>
    </comp>
  </station>
  <station code="PAIG" name="PAIG" netid="HT" insttype="100" lat="39.9363" lon="23.6768">
    <comp name="--.HHZ">
      <acc value="0.0163395868" flag="0"/>
      <vel value="0.0121118506" flag="0"/>
      <psa03 value="0.0404378423" flag="0"/>
      <psa10 value="0.0180176767" flag="0"/>
      <psa30 value="0.0014699077" flag="0"/>
    </comp>
    <comp name="--.HHE">
      <acc value="0.0327368994" flag="0"/>
      <vel value="0.0294427576" flag="0"/>
      <psa03 value="0.0453983544" flag="0"/>
      <psa10 value="0.0396512195" flag="0"/>
      <psa30 value="0.0063657738" flag="0"/>
    </comp>
    <comp name="--.HHN">
      <acc value="0.0226549904" flag="0"/>
      <vel value="0.0232801441" flag="0"/>
      <psa03 value="0.0687352747" flag="0"/>
      <psa10 value="0.0410141143" flag="0"/>
      <psa30 value="0.0033288613" flag="0"/>
    </comp>
  </station>
  <station code="SIGR" name="SIGR" netid="HT" insttype="100" lat="39.2114" lon="25.8553">
    <comp name="--.HHE">
      <acc value="0.0102694974" flag="0"/>
      <vel value="0.0065044757" flag="0"/>
      <psa03 value="0.0242725942" flag="0"/>
      <psa10 value="0.0099866953" flag="0"/>
      <psa30 value="0.0009706140" flag="0"/>
    </comp>
    <comp name="--.HHZ">
      <acc value="0.0075773691" flag="0"/>
      <vel value="0.0058583524" flag="0"/>
      <psa03 value="0.0150228816" flag="0"/>
      <psa10 value="0.0055115777" flag="0"/>
