<?xml version="1.0" encoding="UTF-8" standalone="yes"?>
<!DOCTYPE earthquake SYSTEM "stationlist.dtd">
<stationlist created="" xmlns="ch.ethz.sed.shakemap.usgs.xml">
  <station code="ZKR" name="ZKR" netid="GE" insttype="STS-2/N" lat="35.1147" lon="26.2169">
    <comp name="--.HHE">
      <acc value="0.0242316476" flag="0"/>
      <vel value="0.0205741701" flag="0"/>
      <psa03 value="0.0630149262" flag="0"/>
      <psa10 value="0.0330586686" flag="0"/>
      <psa30 value="0.0059118824" flag="0"/>
    </comp>
    <comp name="--.HHZ">
      <acc value="0.0107689371" flag="0"/>
      <vel value="0.0096195829" flag="0"/>
      <psa03 value="0.0302770702" flag="0"/>
      <psa10 value="0.0104024560" flag="0"/>
      <psa30 value="0.0053194137" flag="0"/>
    </comp>
    <comp name="--.HHN">
      <acc value="0.0107154232" flag="0"/>
      <vel value="0.0059581468" flag="0"/>
      <psa03 value="0.0298641908" flag="0"/>
      <psa10 value="0.0120066589" flag="0"/>
      <psa30 value="0.0017824952" flag="0"/>
    </comp>
  </station>
  <station code="SNT5" name="SNT5" netid="HA" insttype="1s-100Hz," lat="36.4037" lon="25.3953">
    <comp name="--.HHZ">
      <acc value="0.0091958723" flag="0"/>
      <vel value="0.0045005716" flag="0"/>
      <psa03 value="0.0156202586" flag="0"/>
      <psa10 value="0.0028220724" flag="0"/>
      <psa30 value="0.0009188083" flag="0"/>
    </comp>
    <comp name="--.HHN">
      <acc value="0.0194632347" flag="0"/>
      <vel value="0.0071383370" flag="0"/>
      <psa03 value="0.0355937419" flag="0"/>
      <psa10 value="0.0047078886" flag="0"/>
      <psa30 value="0.0031986973" flag="0"/>
    </comp>
    <comp name="--.HHE">
      <acc value="0.0330699193" flag="0"/>
      <vel value="0.0133355188" flag="0"/>
      <psa03 value="0.0613997835" flag="0"/>
      <psa10 value="0.0087693911" flag="0"/>
      <psa30 value="0.0047742615" flag="0"/>
    </comp>
  </station>
  <station code="IMOD" name="IMOD" netid="HC" insttype="120" lat="34.9731" lon="24.7995">
    <comp name="--.HHZ">
      <acc value="0.0876195776" flag="0"/>
      <vel value="0.0311454455" flag="0"/>
      <psa03 value="0.1876941475" flag="0"/>
      <psa10 value="0.0201016844" flag="0"/>
      <psa30 value="0.0038810458" flag="0"/>
    </comp>
    <comp name="--.HHE">
      <acc value="0.1222887277" flag="0"/>
      <vel value="0.0851390793" flag="0"/>
      <psa03 value="0.3680161588" flag="0"/>
      <psa10 value="0.0478528052" flag="0"/>
      <psa30 value="0.0053450985" flag="0"/>
    </comp>
    <comp name="--.HHN">
      <acc value="0.1846034164" flag="0"/>
      <vel value="0.1036081984" flag="0"/>
      <psa03 value="0.4832690515" flag="0"/>
      <psa10 value="0.1089488470" flag="0"/>
      <psa30 value="0.0062449194" flag="0"/>
    </comp>
  </station>
  <station code="KNSS" name="KNSS" netid="HC" insttype="60" lat="35.3042" lon="25.1802">
    <comp name="--.HHN">
      <acc value="0.0000000000" flag="0"/>
      <vel value="-100.0000000000" flag="0"/>
      <psa03 value="0.0000000000" flag="0"/>
      <psa10 value="0.0000000000" flag="0"/>
      <psa30 value="0.0000000000" flag="0"/>
    </comp>
    <comp name="--.HHE">
      <acc value="0.2517543043" flag="0"/>
      <vel value="0.1503532737" flag="0"/>
      <psa03 value="0.7074562231" flag="0"/>
      <psa10 value="0.2156405223" flag="0"/>
      <psa30 value="0.0148471436" flag="0"/>
    </comp>
    <comp name="--.HHZ">
      <acc value="0.2320926836" flag="0"/>
      <vel value="0.0779297699" flag="0"/>
      <psa03 value="0.3481735314" flag="0"/>
      <psa10 value="0.0624838474" flag="0"/>
      <psa30 value="0.0247047032" flag="0"/>
    </comp>
  </station>
  <station code="PFKS" name="PFKS" netid="HC" insttype="120" lat="35.0429" lon="25.4733">
    <comp name="--.HHN">
      <acc value="0.9865031403" flag="0"/>
      <vel value="0.3218067126" flag="0"/>
      <psa03 value="0.9527825344" flag="0"/>
      <psa10 value="0.2945059473" flag="0"/>
      <psa30 value="0.0157268871" flag="0"/>
    </comp>
    <comp name="--.HHZ">
      <acc value="0.5462970576" flag="0"/>
      <vel value="0.1772660725" flag="0"/>
      <psa03 value="0.5945230577" flag="0"/>
      <psa10 value="0.1450619339" flag="0"/>
      <psa30 value="0.0216112858" flag="0"/>
    </comp>
    <comp name="--.HHE">
      <acc value="0.5982913255" flag="0"/>
      <vel value="0.3233744363" flag="0"/>
      <psa03 value="1.5538916604" flag="0"/>
      <psa10 value="0.1990764494" flag="0"/>
      <psa30 value="0.0181281797" flag="0"/>
    </comp>
  </station>
  <station code="STIA" name="STIA" netid="HC" insttype="120" lat="35.2021" lon="26.0909">
    <comp name="--.HHE">
      <acc value="0.0273931247" flag="0"/>
      <vel value="0.0239888154" flag="0"/>
      <psa03 value="0.0709917356" flag="0"/>
      <psa10 value="0.0404973746" flag="0"/>
      <psa30 value="0.0039641721" flag="0"/>
    </comp>
    <comp name="--.HHN">
      <acc value="0.0328346095" flag="0"/>
      <vel value="0.0214956330" flag="0"/>
      <psa03 value="0.0603217427" flag="0"/>
      <psa10 value="0.0264579826" flag="0"/>
      <psa30 value="0.0025697892" flag="0"/>
    </comp>
    <comp name="--.HHZ">
      <acc value="0.0297671030" flag="0"/>
      <vel value="0.0164793573" flag="0"/>
      <psa03 value="0.0512293121" flag="0"/>
      <psa10 value="0.0178319344" flag="0"/>
      <psa30 value="0.0044752504" flag="0"/>
    </comp>
  </station>
  <station code="IACM" name="IACM" netid="HL" insttype="120" lat="35.3058" lon="25.0709">
    <comp name="--.HHZ">
      <acc value="0.2671959482" flag="0"/>
      <vel value="0.1480550170" flag="0"/>
      <psa03 value="0.5194365573" flag="0"/>
      <psa10 value="0.1849681023" flag="0"/>
      <psa30 value="0.0219331756" flag="0"/>
    </comp>
    <comp name="--.HHN">
      <acc value="0.3561736321" flag="0"/>
      <vel value="0.3122779481" flag="0"/>
      <psa03 value="0.8351494111" flag="0"/>
      <psa10 value="0.5684665644" flag="0"/>
      <psa30 value="0.0359766859" flag="0"/>
    </comp>
    <comp name="--.HHE">
      <acc value="0.4378048467" flag="0"/>
      <vel value="0.2809403401" flag="0"/>
      <psa03 value="1.0514605339" flag="0"/>
      <psa10 value="0.4412893860" flag="0"/>
      <psa30 value="0.0372999668" flag="0"/>
    </comp>
  </station>
  <station code="IDI" name="IDI" netid="HL" insttype="120" lat="35.288" lon="24.89">
    <comp name="--.HHE">
      <acc value="0.0895054973" flag="0"/>
      <vel value="0.0261467654" flag="0"/>
      <psa03 value="0.1201514286" flag="0"/>
      <psa10 value="0.0210063759" flag="0"/>
      <psa30 value="0.0047549580" flag="0"/>
    </comp>
    <comp name="--.HHN">
      <acc value="0.0911219058" flag="0"/>
      <vel value="0.0353794450" flag="0"/>
      <psa03 value="0.0954541056" flag="0"/>
      <psa10 value="0.0207553345" flag="0"/>
      <psa30 value="0.0038594838" flag="0"/>
    </comp>
    <comp name="--.HHZ">
      <acc value="0.0728460602" flag="0"/>
      <vel value="0.0302391350" flag="0"/>
      <psa03 value="0.1065082346" flag="0"/>
      <psa10 value="0.0331507843" flag="0"/>
      <psa30 value="0.0064307094" flag="0"/>
    </comp>
  </station>
  <station code="IMMV" name="IMMV" netid="HL" insttype="DC" lat="35.4606" lon="23.9811">
    <comp name="--.HNZ">
      <acc value="0.0185416750" flag="0"/>
      <vel value="0.0123018581" flag="0"/>
      <psa03 value="0.0416947126" flag="0"/>
      <psa10 value="0.0218273939" flag="0"/>
      <psa30 value="0.0021542629" flag="0"/>
    </comp>
    <comp name="--.HNE">
      <acc value="0.0225091206" flag="0"/>
      <vel value="0.0189182008" flag="0"/>
      <psa03 value="0.0655679750" flag="0"/>
      <psa10 value="0.0307941189" flag="0"/>
      <psa30 value="0.0022702976" flag="0"/>
    </comp>
    <comp name="--.HNN">
      <acc value="0.0252229437" flag="0"/>
      <vel value="0.0162460230" flag="0"/>
      <psa03 value="0.0903164512" flag="0"/>
      <psa10 value="0.0331113114" flag="0"/>
      <psa30 value="0.0024764659" flag="0"/>
    </comp>
  </station>
  <station code="NPS" name="NPS" netid="HL" insttype="CMG3ESPC-120s" lat="35.2613" lon="25.6104">
    <comp name="--.HHE">
      <acc value="0.0487365921" flag="0"/>
      <vel value="0.0207886012" flag="0"/>
      <psa03 value="0.0827725795" flag="0"/>
      <psa10 value="0.0349833866" flag="0"/>
      <psa30 value="0.0023441517" flag="0"/>
    </comp>
    <comp name="--.HHZ">
      <acc value="0.1194838262" flag="0"/>
      <vel value="0.0493926818" flag="0"/>
      <psa03 value="0.0900837409" flag="0"/>
      <psa10 value="0.0756002614" flag="0"/>
      <psa30 value="0.0084622959" flag="0"/>
    </comp>
    <comp name="--.HHN">
      <acc value="0.1060700773" flag="0"/>
      <vel value="0.0377333068" flag="0"/>
      <psa03 value="0.1467793927" flag="0"/>
      <psa10 value="0.0285573102" flag="0"/>
      <psa30 value="0.0067657013" flag="0"/>
    </comp>
  </station>
  <station code="SIVA" name="SIVA" netid="HL" insttype="60" lat="35.0178" lon="24.812">
    <comp name="--.HHN">
      <acc value="0.4390154387" flag="0"/>
      <vel value="0.2231235956" flag="0"/>
      <psa03 value="0.7197006221" flag="0"/>
      <psa10 value="0.1553710459" flag="0"/>
      <psa30 value="0.0087109707" flag="0"/>
    </comp>
    <comp name="--.HHE">
      <acc value="0.3015315320" flag="0"/>
      <vel value="0.1198441633" flag="0"/>
      <psa03 value="0.9315411076" flag="0"/>
      <psa10 value="0.0757611769" flag="0"/>
      <psa30 value="0.0085383720" flag="0"/>
    </comp>
    <comp name="--.HHZ">
      <acc value="0.1427563100" flag="0"/>
      <vel value="0.0651528746" flag="0"/>
      <psa03 value="0.3694598953" flag="0"/>
      <psa10 value="0.0435596004" flag="0"/>
      <psa30 value="0.0065197864" flag="0"/>
    </comp>
  </station>
  <station code="ZKR" name="ZKR" netid="HL" insttype="120" lat="35.1147" lon="26.2169">
    <comp name="--.HHE">
      <acc value="0.0238361186" flag="0"/>
      <vel value="0.0204300005" flag="0"/>
      <psa03 value="0.0615791968" flag="0"/>
      <psa10 value="0.0328563800" flag="0"/>
      <psa30 value="0.0059143576" flag="0"/>
    </comp>
    <comp name="--.HHN">
      <acc value="0.0104276760" flag="0"/>
      <vel value="0.0058772204" flag="0"/>
      <psa03 value="0.0290826141" flag="0"/>
      <psa10 value="0.0119398916" flag="0"/>
      <psa30 value="0.0017821702" flag="0"/>
    </comp>
    <comp name="--.HHZ">
      <acc value="0.0106277747" flag="0"/>
      <vel value="0.0094988554" flag="0"/>
      <psa03 value="0.0295461512" flag="0"/>
      <psa10 value="0.0103359754" flag="0"/>
      <psa30 value="0.0053205195" flag="0"/>
    </comp>
  </station>
  <station code="IDI" name="IDI" netid="MN" insttype="" lat="35.288" lon="24.89">
    <comp name="--.HHZ">
      <acc value="0.0754259316" flag="0"/>
      <vel value="0.0303015457" flag="0"/>
      <psa03 value="0.1077357358" flag="0"/>
      <psa10 value="0.0329796196" flag="0"/>
      <psa30 value="0.0063555808" flag="0"/>
    </comp>
    <comp name="--.HHN">
      <acc value="0.1056330011" flag="0"/>
      <vel value="0.0354822921" flag="0"/>
      <psa03 value="0.0970164725" flag="0"/>
      <psa10 value="0.0206071209" flag="0"/>
      <psa30 value="0.0038156972" flag="0"/>
    </comp>
    <comp name="--.HHE">
      <acc value="0.1036707742" flag="0"/>
      <vel value="0.0263700490" flag="0"/>
      <psa03 value="0.1208579544" flag="0"/>
      <psa10 value="0.0209305401" flag="0"/>
      <psa30 value="0.0046952954" flag="0"/>
    </comp>
  </station>
</stationlist>
