<stationlist created="1778138440">
	<station code="ABEA" name="ABEA" netid="HC" source="Seismological Network of Crete (HC)" insttype="" lat="35.5163" lon="24.0113">
		<comp name="--.HNE" depth="0.0">
			<acc value="0.0188120280893593" flag="0"/>
			<vel value="0.028696313701797" flag="0"/>
			<psa03 value="0.066540600696669" flag="0"/>
			<psa10 value="0.045149747198994" flag="0"/>
			<psa30 value="0.00936067426539837" flag="0"/>
		</comp>
		<comp name="--.HNN" depth="0.0">
			<acc value="0.0280595346786414" flag="0"/>
			<vel value="0.0215869544404868" flag="0"/>
			<psa03 value="0.0487253059373961" flag="0"/>
			<psa10 value="0.0473735920180773" flag="0"/>
			<psa30 value="0.00477851530318768" flag="0"/>
		</comp>
		<comp name="--.HNZ" depth="0.0">
			<acc value="0.0137596975350077" flag="0"/>
			<vel value="0.0158642680046922" flag="0"/>
			<psa03 value="0.0247170149851158" flag="0"/>
			<psa10 value="0.030935109299172" flag="0"/>
			<psa30 value="0.00307396071814373" flag="0"/>
		</comp>
	</station>
	<station code="ATEI" name="ATEI" netid="HC" source="Seismological Network of Crete (HC)" insttype="" lat="35.5193" lon="24.0432">
		<comp name="--.HNE" depth="0.0">
			<acc value="0.0131248536648982" flag="0"/>
			<vel value="0.01515728488448" flag="0"/>
			<psa03 value="0.0413036632483091" flag="0"/>
			<psa10 value="0.0246593779377553" flag="0"/>
			<psa30 value="0.0058211864583595" flag="0"/>
		</comp>
		<comp name="--.HNN" depth="0.0">
			<acc value="0.0160464244100258" flag="0"/>
			<vel value="0.0166335318872152" flag="0"/>
			<psa03 value="0.0436325102313382" flag="0"/>
			<psa10 value="0.0226394753791271" flag="0"/>
			<psa30 value="0.00447096034584778" flag="0"/>
		</comp>
		<comp name="--.HNZ" depth="0.0">
			<acc value="0.0127179868019889" flag="0"/>
			<vel value="0.0105464974060941" flag="0"/>
			<psa03 value="0.0314238394876388" flag="0"/>
			<psa10 value="0.0183082740832995" flag="0"/>
			<psa30 value="0.00284599228302093" flag="0"/>
		</comp>
	</station>
	<station code="DEYA" name="DEYA" netid="HC" source="Seismological Network of Crete (HC)" insttype="" lat="35.4825" lon="24.014">
		<comp name="--.HNE" depth="0.0">
			<acc value="0.0449752620878778" flag="0"/>
			<vel value="0.0303439538571951" flag="0"/>
			<psa03 value="0.137671026280043" flag="0"/>
			<psa10 value="0.0802606868766142" flag="0"/>
			<psa30 value="0.00716702311345184" flag="0"/>
		</comp>
		<comp name="--.HNN" depth="0.0">
			<acc value="0.0322405336999428" flag="0"/>
			<vel value="0.0212316955315657" flag="0"/>
			<psa03 value="0.0864450390595066" flag="0"/>
			<psa10 value="0.0693338730289897" flag="0"/>
			<psa30 value="0.00566091334104059" flag="0"/>
		</comp>
		<comp name="--.HNZ" depth="0.0">
			<acc value="0.0254536138414103" flag="0"/>
			<vel value="0.0175080259449176" flag="0"/>
			<psa03 value="0.0544428669892385" flag="0"/>
			<psa10 value="0.0379452011833605" flag="0"/>
			<psa30 value="0.00363339402785378" flag="0"/>
		</comp>
	</station>
	<station code="G0LD" name="G0LD" netid="HC" source="Seismological Network of Crete (HC)" insttype="" lat="35.4955" lon="24.0306">
		<comp name="--.HNE" depth="0.0">
			<acc value="0.0550266151043656" flag="0"/>
			<vel value="0.0737873069650039" flag="0"/>
			<psa03 value="0.108915913061265" flag="0"/>
			<psa10 value="0.167978202731664" flag="0"/>
			<psa30 value="0.0102831537084791" flag="0"/>
		</comp>
		<comp name="--.HNN" depth="0.0">
			<acc value="0.0539012444124432" flag="0"/>
			<vel value="0.0538961761797951" flag="0"/>
			<psa03 value="0.133419671731871" flag="0"/>
			<psa10 value="0.138364335958053" flag="0"/>
			<psa30 value="0.0104094229065292" flag="0"/>
		</comp>
		<comp name="--.HNZ" depth="0.0">
			<acc value="0.0310121523696588" flag="0"/>
			<vel value="0.0298368766768512" flag="0"/>
			<psa03 value="0.0800211864273966" flag="0"/>
			<psa10 value="0.0589881676766217" flag="0"/>
			<psa30 value="0.00359254423842564" flag="0"/>
		</comp>
	</station>
	<station code="MULT" name="MULT" netid="HC" source="Seismological Network of Crete (HC)" insttype="" lat="35.5091" lon="24.0118">
		<comp name="--.HNE" depth="0.0">
			<acc value="0.0314730331957609" flag="0"/>
			<vel value="0.0260343906115547" flag="0"/>
			<psa03 value="0.0454510734105134" flag="0"/>
			<psa10 value="0.0356410897972707" flag="0"/>
			<psa30 value="0.00663355485713272" flag="0"/>
		</comp>
		<comp name="--.HNN" depth="0.0">
			<acc value="0.0258127742300897" flag="0"/>
			<vel value="0.0233001777722551" flag="0"/>
			<psa03 value="0.0576733674525121" flag="0"/>
			<psa10 value="0.0521629517894769" flag="0"/>
			<psa30 value="0.00694776692214355" flag="0"/>
		</comp>
		<comp name="--.HNZ" depth="0.0">
			<acc value="0.0256036375755729" flag="0"/>
			<vel value="0.0230474991732873" flag="0"/>
			<psa03 value="0.0352701802263307" flag="0"/>
			<psa10 value="0.039644555007219" flag="0"/>
			<psa30 value="0.00409603467552936" flag="0"/>
		</comp>
	</station>
	<station code="NERO" name="NERO" netid="HC" source="Seismological Network of Crete (HC)" insttype="" lat="35.474" lon="24.0423">
		<comp name="--.HNE" depth="0.0">
			<acc value="0.0228436653403738" flag="0"/>
			<vel value="0.0203156851867225" flag="0"/>
			<psa03 value="0.0631068680201264" flag="0"/>
			<psa10 value="0.0236001540193972" flag="0"/>
			<psa30 value="0.0040956759017609" flag="0"/>
		</comp>
		<comp name="--.HNN" depth="0.0">
			<acc value="0.0235263107767091" flag="0"/>
			<vel value="0.0216857403009836" flag="0"/>
			<psa03 value="0.0491477037106831" flag="0"/>
			<psa10 value="0.0252237415740919" flag="0"/>
			<psa30 value="0.00363197143361825" flag="0"/>
		</comp>
		<comp name="--.HNZ" depth="0.0">
			<acc value="0.0156869687118218" flag="0"/>
			<vel value="0.0122349549978498" flag="0"/>
			<psa03 value="0.0341407356145297" flag="0"/>
			<psa10 value="0.0165701126886384" flag="0"/>
			<psa30 value="0.00334032357170995" flag="0"/>
		</comp>
	</station>
	<station code="PASK" name="PASK" netid="HC" source="Seismological Network of Crete (HC)" insttype="" lat="35.4996" lon="24.0121">
		<comp name="--.HNE" depth="0.0">
			<acc value="0.0319118541571732" flag="0"/>
			<vel value="0.0288557358319743" flag="0"/>
			<psa03 value="0.0749302762629356" flag="0"/>
			<psa10 value="0.0525641796188902" flag="0"/>
			<psa30 value="0.00475563878775155" flag="0"/>
		</comp>
		<comp name="--.HNN" depth="0.0">
			<acc value="0.027349549076757" flag="0"/>
			<vel value="0.0275948096018796" flag="0"/>
			<psa03 value="0.0668976816432923" flag="0"/>
			<psa10 value="0.0386446375175605" flag="0"/>
			<psa30 value="0.00524998236891889" flag="0"/>
		</comp>
		<comp name="--.HNZ" depth="0.0">
			<acc value="0.016771669981681" flag="0"/>
			<vel value="0.0236677827863955" flag="0"/>
			<psa03 value="0.0510033110107026" flag="0"/>
			<psa10 value="0.0304801160331066" flag="0"/>
			<psa30 value="0.00312374547447576" flag="0"/>
		</comp>
	</station>
	<station code="POLY" name="POLY" netid="HC" source="Seismological Network of Crete (HC)" insttype="" lat="35.5226" lon="24.0602">
		<comp name="--.HNE" depth="0.0">
			<acc value="0.0140460477550992" flag="0"/>
			<vel value="0.015310172808236" flag="0"/>
			<psa03 value="0.0300242103107611" flag="0"/>
			<psa10 value="0.0256325561560563" flag="0"/>
			<psa30 value="0.00371320098134363" flag="0"/>
		</comp>
		<comp name="--.HNN" depth="0.0">
			<acc value="0.0185606269266443" flag="0"/>
			<vel value="0.0188918013244931" flag="0"/>
			<psa03 value="0.0423452400601579" flag="0"/>
			<psa10 value="0.0397116131994682" flag="0"/>
			<psa30 value="0.003414401812361" flag="0"/>
		</comp>
		<comp name="--.HNZ" depth="0.0">
			<acc value="0.0117624843556806" flag="0"/>
			<vel value="0.0102775125265718" flag="0"/>
			<psa03 value="0.0272774918957954" flag="0"/>
			<psa10 value="0.0149122366124962" flag="0"/>
			<psa30 value="0.00299394000049788" flag="0"/>
		</comp>
	</station>
	<station code="SOUD" name="SOUD" netid="HC" source="Seismological Network of Crete (HC)" insttype="" lat="35.4878" lon="24.0678">
		<comp name="--.HNE" depth="0.0">
			<acc value="0.0458481493852465" flag="0"/>
			<vel value="0.0362972347182238" flag="0"/>
			<psa03 value="0.0913760323802943" flag="0"/>
			<psa10 value="0.0518595116882901" flag="0"/>
			<psa30 value="0.0039261584220608" flag="0"/>
		</comp>
		<comp name="--.HNN" depth="0.0">
			<acc value="0.0380467963568606" flag="0"/>
			<vel value="0.036408762202207" flag="0"/>
			<psa03 value="0.078632401719044" flag="0"/>
			<psa10 value="0.0508160838159628" flag="0"/>
			<psa30 value="0.00435046736377733" flag="0"/>
		</comp>
		<comp name="--.HNZ" depth="0.0">
			<acc value="0.00615780742555565" flag="0"/>
			<vel value="0.0055880063636572" flag="0"/>
			<psa03 value="0.00658613551789668" flag="0"/>
			<psa10 value="0.00405810586084576" flag="0"/>
			<psa30 value="0.00196928608053606" flag="0"/>
		</comp>
	</station>
	<station code="CH01" name="CH01" netid="HI" source="ITSAK Strong Motion Network" insttype="" lat="35.517" lon="24.0208">
		<comp name="--.HNE" depth="0.0">
			<acc value="0.0200320036625094" flag="0"/>
			<vel value="0.0196509363783807" flag="0"/>
			<psa03 value="0.0491390520958695" flag="0"/>
			<psa10 value="0.0358363952352942" flag="0"/>
			<psa30 value="0.00759647406246297" flag="0"/>
		</comp>
		<comp name="--.HNN" depth="0.0">
			<acc value="0.0207162779761618" flag="0"/>
			<vel value="0.0194809851855728" flag="0"/>
			<psa03 value="0.0458283952813042" flag="0"/>
			<psa10 value="0.0346704317459581" flag="0"/>
			<psa30 value="0.00423950501306595" flag="0"/>
		</comp>
		<comp name="--.HNZ" depth="0.0">
			<acc value="0.0131340450231952" flag="0"/>
			<vel value="0.0127295486893225" flag="0"/>
			<psa03 value="0.0292010125487897" flag="0"/>
			<psa10 value="0.031266745643434" flag="0"/>
			<psa30 value="0.00316278285217309" flag="0"/>
		</comp>
	</station>
	<station code="KSS1" name="KSS1" netid="HI" source="ITSAK Strong Motion Network" insttype="" lat="35.4189" lon="26.9207">
		<comp name="--.HNE" depth="0.0">
			<acc value="0.00599204471837461" flag="0"/>
			<vel value="0.00519047116820052" flag="0"/>
			<psa03 value="0.0286843324879356" flag="0"/>
			<psa10 value="0.00662285154390718" flag="0"/>
			<psa30 value="0.00102150652396082" flag="0"/>
		</comp>
		<comp name="--.HNN" depth="0.0">
			<acc value="0.00606812643857984" flag="0"/>
			<vel value="0.00437913750431169" flag="0"/>
			<psa03 value="0.0198231946997738" flag="0"/>
			<psa10 value="0.0073262753297665" flag="0"/>
			<psa30 value="0.00142437362859509" flag="0"/>
		</comp>
		<comp name="--.HNZ" depth="0.0">
			<acc value="0.00378047713915358" flag="0"/>
			<vel value="0.00294037134036492" flag="0"/>
			<psa03 value="0.0108616114555523" flag="0"/>
			<psa10 value="0.00416172381877428" flag="0"/>
			<psa30 value="0.00139213649304422" flag="0"/>
		</comp>
	</station>
	<station code="SIT2" name="SIT2" netid="HI" source="ITSAK Strong Motion Network" insttype="" lat="35.2059" lon="26.107">
		<comp name="--.HNE" depth="0.0">
			<acc value="0.0914494307411316" flag="0"/>
			<vel value="0.0701291380629045" flag="0"/>
			<psa03 value="0.215275781797563" flag="0"/>
			<psa10 value="0.0475284172742071" flag="0"/>
			<psa30 value="0.00661993770507033" flag="0"/>
		</comp>
		<comp name="--.HNN" depth="0.0">
			<acc value="0.10378952758514" flag="0"/>
			<vel value="0.0588317277992693" flag="0"/>
			<psa03 value="0.214192230850919" flag="0"/>
			<psa10 value="0.0633417560804082" flag="0"/>
			<psa30 value="0.00348499044684775" flag="0"/>
		</comp>
		<comp name="--.HNZ" depth="0.0">
			<acc value="0.0441368062529486" flag="0"/>
			<vel value="0.0198165791164786" flag="0"/>
			<psa03 value="0.112053766762116" flag="0"/>
			<psa10 value="0.0193323581738332" flag="0"/>
			<psa30 value="0.00456809969750554" flag="0"/>
		</comp>
	</station>
	<station code="AGNA" name="AGNA" netid="HL" source="National Observatory of Athens Seismic Network" insttype="" lat="35.1895" lon="25.71853">
		<comp name="00.HNE" depth="0.0">
			<acc value="0.0605371602329753" flag="0"/>
			<vel value="0.0560321147602062" flag="0"/>
			<psa03 value="0.12073455015489" flag="0"/>
			<psa10 value="0.0576024133773862" flag="0"/>
			<psa30 value="0.00694112231529302" flag="0"/>
		</comp>
		<comp name="00.HNN" depth="0.0">
			<acc value="0.0628358239905541" flag="0"/>
			<vel value="0.0649122220029673" flag="0"/>
			<psa03 value="0.123775834958376" flag="0"/>
			<psa10 value="0.0855036766990784" flag="0"/>
			<psa30 value="0.0107890980581506" flag="0"/>
		</comp>
		<comp name="00.HNZ" depth="0.0">
			<acc value="0.057843232497953" flag="0"/>
			<vel value="0.0417883856293721" flag="0"/>
			<psa03 value="0.100201085746736" flag="0"/>
			<psa10 value="0.0638552475968561" flag="0"/>
			<psa30 value="0.0073429564348047" flag="0"/>
		</comp>
	</station>
	<station code="ANKY" name="ANKY" netid="HL" source="National Observatory of Athens Seismic Network" insttype="" lat="35.86704" lon="23.30117">
		<comp name="00.HNE" depth="0.0">
			<acc value="0.00348578098354259" flag="0"/>
			<vel value="0.0046374992075361" flag="0"/>
			<psa03 value="0.0129258302311444" flag="0"/>
			<psa10 value="0.00623791385616206" flag="0"/>
			<psa30 value="0.00233413004132473" flag="0"/>
		</comp>
		<comp name="00.HNN" depth="0.0">
			<acc value="0.00320771536773228" flag="0"/>
			<vel value="0.0043464253084011" flag="0"/>
			<psa03 value="0.0101010265653004" flag="0"/>
			<psa10 value="0.00737018980139236" flag="0"/>
			<psa30 value="0.00142767863920224" flag="0"/>
		</comp>
		<comp name="00.HNZ" depth="0.0">
			<acc value="0.0031334277364083" flag="0"/>
			<vel value="0.00229877161408104" flag="0"/>
			<psa03 value="0.0065334718729459" flag="0"/>
			<psa10 value="0.00240614462964936" flag="0"/>
			<psa30 value="0.00110311682607482" flag="0"/>
		</comp>
	</station>
	<station code="CHNB" name="CHNB" netid="HL" source="National Observatory of Athens Seismic Network" insttype="" lat="35.48765" lon="24.06605">
		<comp name="00.HNE" depth="0.0">
			<acc value="0.048762025326471" flag="0"/>
			<vel value="0.0439336056039688" flag="0"/>
			<psa03 value="0.133980031769516" flag="0"/>
			<psa10 value="0.0881519296326167" flag="0"/>
			<psa30 value="0.00394142901699524" flag="0"/>
		</comp>
		<comp name="00.HNN" depth="0.0">
			<acc value="0.0488095905092357" flag="0"/>
			<vel value="0.0461915921741718" flag="0"/>
			<psa03 value="0.124350987642449" flag="0"/>
			<psa10 value="0.0647871768324058" flag="0"/>
			<psa30 value="0.0049473685722177" flag="0"/>
		</comp>
		<comp name="00.HNZ" depth="0.0">
			<acc value="0.0273906164155759" flag="0"/>
			<vel value="0.018005307115097" flag="0"/>
			<psa03 value="0.113410148282566" flag="0"/>
			<psa10 value="0.0172815498178773" flag="0"/>
			<psa30 value="0.00300859992998012" flag="0"/>
		</comp>
	</station>
	<station code="HERG" name="HERG" netid="HL" source="National Observatory of Athens Seismic Network" insttype="" lat="35.32622" lon="25.06586">
		<comp name="00.HNE" depth="0.0">
			<acc value="0.148359316030153" flag="0"/>
			<vel value="0.200050117122306" flag="0"/>
			<psa03 value="0.321553968038876" flag="0"/>
			<psa10 value="0.284271051561966" flag="0"/>
			<psa30 value="0.0531653452763893" flag="0"/>
		</comp>
		<comp name="00.HNN" depth="0.0">
			<acc value="0.160240777032638" flag="0"/>
			<vel value="0.243311378713847" flag="0"/>
			<psa03 value="0.386822416753254" flag="0"/>
			<psa10 value="0.403143936308101" flag="0"/>
			<psa30 value="0.0347521454923983" flag="0"/>
		</comp>
		<comp name="00.HNZ" depth="0.0">
			<acc value="0.134450311847132" flag="0"/>
			<vel value="0.092371830923143" flag="0"/>
			<psa03 value="0.219003757923937" flag="0"/>
			<psa10 value="0.120807142880179" flag="0"/>
			<psa30 value="0.0207334634902001" flag="0"/>
		</comp>
	</station>
	<station code="IACM" name="IACM" netid="HL" source="National Observatory of Athens Seismic Network" insttype="" lat="35.3058" lon="25.0709">
		<comp name="--.HNE" depth="0.0">
			<acc value="0.450231828674309" flag="0"/>
			<vel value="0.285031531902574" flag="0"/>
			<psa03 value="1.02700786756317" flag="0"/>
			<psa10 value="0.45141134378537" flag="0"/>
			<psa30 value="0.0408102234770306" flag="0"/>
		</comp>
		<comp name="--.HNN" depth="0.0">
			<acc value="0.358993930184077" flag="0"/>
			<vel value="0.319986587134923" flag="0"/>
			<psa03 value="0.888640784758232" flag="0"/>
			<psa10 value="0.558378029804061" flag="0"/>
			<psa30 value="0.0406770579888063" flag="0"/>
		</comp>
		<comp name="--.HNZ" depth="0.0">
			<acc value="0.273367729000148" flag="0"/>
			<vel value="0.14482046217065" flag="0"/>
			<psa03 value="0.517631582216975" flag="0"/>
			<psa10 value="0.183497150785861" flag="0"/>
			<psa30 value="0.0239501615806668" flag="0"/>
		</comp>
	</station>
	<station code="IMMV" name="IMMV" netid="HL" source="National Observatory of Athens Seismic Network" insttype="" lat="35.4606" lon="23.9811">
		<comp name="--.HNE" depth="0.0">
			<acc value="0.0226396639504844" flag="0"/>
			<vel value="0.019910583575081" flag="0"/>
			<psa03 value="0.065920507534916" flag="0"/>
			<psa10 value="0.0308920733232297" flag="0"/>
			<psa30 value="0.00248650076013792" flag="0"/>
		</comp>
		<comp name="--.HNN" depth="0.0">
			<acc value="0.0252996178612196" flag="0"/>
			<vel value="0.0178743111173078" flag="0"/>
			<psa03 value="0.0907399589935927" flag="0"/>
			<psa10 value="0.0332902503157131" flag="0"/>
			<psa30 value="0.00285498037844062" flag="0"/>
		</comp>
		<comp name="--.HNZ" depth="0.0">
			<acc value="0.0185668085439448" flag="0"/>
			<vel value="0.0131774688340564" flag="0"/>
			<psa03 value="0.0422041135237282" flag="0"/>
			<psa10 value="0.0217655774876694" flag="0"/>
			<psa30 value="0.00243853487430241" flag="0"/>
		</comp>
	</station>
	<station code="KARP" name="KARP" netid="HL" source="National Observatory of Athens Seismic Network" insttype="" lat="35.5471" lon="27.16106">
		<comp name="--.HNE" depth="0.0">
			<acc value="0.0119697224166758" flag="0"/>
			<vel value="0.00487072483005556" flag="0"/>
			<psa03 value="0.0115247569481841" flag="0"/>
			<psa10 value="0.00860853214801504" flag="0"/>
			<psa30 value="0.00113064052438485" flag="0"/>
		</comp>
		<comp name="--.HNN" depth="0.0">
			<acc value="0.0172142477217405" flag="0"/>
			<vel value="0.00432949655249691" flag="0"/>
			<psa03 value="0.00878981926154409" flag="0"/>
			<psa10 value="0.00794781337862211" flag="0"/>
			<psa30 value="0.000765794063432996" flag="0"/>
		</comp>
		<comp name="--.HNZ" depth="0.0">
			<acc value="0.0064095594576597" flag="0"/>
			<vel value="0.00468023822607252" flag="0"/>
			<psa03 value="0.00949544673507332" flag="0"/>
			<psa10 value="0.00655033486504942" flag="0"/>
			<psa30 value="0.00145117207052761" flag="0"/>
		</comp>
	</station>
	<station code="SIVA" name="SIVA" netid="HL" source="National Observatory of Athens Seismic Network" insttype="" lat="35.01777" lon="24.81204">
		<comp name="00.HNE" depth="0.0">
			<acc value="0.279697768234314" flag="0"/>
			<vel value="0.113738100204023" flag="0"/>
			<psa03 value="0.874580770017102" flag="0"/>
			<psa10 value="0.0712821645935892" flag="0"/>
			<psa30 value="0.00940821491471612" flag="0"/>
		</comp>
		<comp name="00.HNN" depth="0.0">
			<acc value="0.442789734942228" flag="0"/>
			<vel value="0.251262079119985" flag="0"/>
			<psa03 value="0.776881297905031" flag="0"/>
			<psa10 value="0.180044852087643" flag="0"/>
			<psa30 value="0.0102839912639295" flag="0"/>
		</comp>
		<comp name="00.HNZ" depth="0.0">
			<acc value="0.140283117739864" flag="0"/>
			<vel value="0.063212412491114" flag="0"/>
			<psa03 value="0.365317283810437" flag="0"/>
			<psa10 value="0.0424437104376802" flag="0"/>
			<psa30 value="0.00759641489187905" flag="0"/>
		</comp>
	</station>
	<station code="THRA" name="THRA" netid="HL" source="National Observatory of Athens Seismic Network" insttype="" lat="36.41502" lon="25.43244">
