<?xml version="1.0" encoding="UTF-8" standalone="yes"?>
<!DOCTYPE earthquake SYSTEM "stationlist.dtd">
<stationlist created="" xmlns="ch.ethz.sed.shakemap.usgs.xml">
  <station code="ACOR" name="ACOR" netid="HA" insttype="Horizon,120s,1200" lat="37.8905" lon="22.8694">
    <comp name="--.HHE">
      <acc value="0.0123114856" flag="0"/>
      <vel value="0.0060593393" flag="0"/>
      <psa03 value="0.0305281796" flag="0"/>
      <psa10 value="0.0070445729" flag="0"/>
      <psa30 value="0.0006402283" flag="0"/>
    </comp>
    <comp name="--.HHN">
      <acc value="0.0121617012" flag="0"/>
      <vel value="0.0060899554" flag="0"/>
      <psa03 value="0.0213763807" flag="0"/>
      <psa10 value="0.0071546981" flag="0"/>
      <psa30 value="0.0012766927" flag="0"/>
    </comp>
    <comp name="--.HHZ">
      <acc value="0.0127746912" flag="0"/>
      <vel value="0.0051263302" flag="0"/>
      <psa03 value="0.0170432022" flag="0"/>
      <psa10 value="0.0058442163" flag="0"/>
      <psa30 value="0.0008249797" flag="0"/>
    </comp>
  </station>
  <station code="AIGS" name="AIGS" netid="HA" insttype="DC" lat="38.25" lon="22.0878">
    <comp name="--.HNE">
      <acc value="4.4037389274" flag="0"/>
      <vel value="1.3960628952" flag="0"/>
      <psa03 value="5.3825196000" flag="0"/>
      <psa10 value="0.3988218566" flag="0"/>
      <psa30 value="0.0448827198" flag="0"/>
    </comp>
    <comp name="--.HNZ">
      <acc value="1.9213857739" flag="0"/>
      <vel value="0.4302359350" flag="0"/>
      <psa03 value="2.0841731386" flag="0"/>
      <psa10 value="0.2134801037" flag="0"/>
      <psa30 value="0.0203734124" flag="0"/>
    </comp>
    <comp name="--.HNN">
      <acc value="5.0529010819" flag="0"/>
      <vel value="1.7602139696" flag="0"/>
      <psa03 value="8.6479955487" flag="0"/>
      <psa10 value="0.3638471809" flag="0"/>
      <psa30 value="0.0465809355" flag="0"/>
    </comp>
  </station>
  <station code="AMPE" name="AMPE" netid="HA" insttype="1s-100Hz," lat="38.3015" lon="23.2688">
    <comp name="--.HHE">
      <acc value="0.0164322226" flag="0"/>
      <vel value="0.0112058965" flag="0"/>
      <psa03 value="0.0387605057" flag="0"/>
      <psa10 value="0.0168749915" flag="0"/>
      <psa30 value="0.0021381382" flag="0"/>
    </comp>
    <comp name="--.HHN">
      <acc value="0.0131697939" flag="0"/>
      <vel value="0.0097697540" flag="0"/>
      <psa03 value="0.0284030987" flag="0"/>
      <psa10 value="0.0140889973" flag="0"/>
      <psa30 value="0.0025418866" flag="0"/>
    </comp>
    <comp name="--.HHZ">
      <acc value="0.0085027931" flag="0"/>
      <vel value="0.0057739751" flag="0"/>
      <psa03 value="0.0242576142" flag="0"/>
      <psa10 value="0.0097743360" flag="0"/>
      <psa30 value="0.0007758269" flag="0"/>
    </comp>
  </station>
  <station code="AXAR" name="AXAR" netid="HA" insttype="Horizon,120s,1200" lat="38.7664" lon="22.659">
    <comp name="--.HHN">
      <acc value="0.2719537777" flag="0"/>
      <vel value="0.0932829737" flag="0"/>
      <psa03 value="0.4457445329" flag="0"/>
      <psa10 value="0.1469922309" flag="0"/>
      <psa30 value="0.0065098672" flag="0"/>
    </comp>
    <comp name="--.HHE">
      <acc value="0.3252543057" flag="0"/>
      <vel value="0.1072279191" flag="0"/>
      <psa03 value="0.7907085726" flag="0"/>
      <psa10 value="0.0675887820" flag="0"/>
      <psa30 value="0.0060344156" flag="0"/>
    </comp>
    <comp name="--.HHZ">
      <acc value="0.2007857981" flag="0"/>
      <vel value="0.0487173688" flag="0"/>
      <psa03 value="0.3062004069" flag="0"/>
      <psa10 value="0.0309408313" flag="0"/>
      <psa30 value="0.0027929415" flag="0"/>
    </comp>
  </station>
  <station code="DOMV" name="DOMV" netid="HA" insttype="60" lat="38.2569" lon="22.9795">
    <comp name="--.HHE">
      <acc value="0.0304228930" flag="0"/>
      <vel value="0.0083900091" flag="0"/>
      <psa03 value="0.0436391894" flag="0"/>
      <psa10 value="0.0075759529" flag="0"/>
      <psa30 value="0.0003747033" flag="0"/>
    </comp>
    <comp name="--.HHN">
      <acc value="0.0292772277" flag="0"/>
      <vel value="0.0099771226" flag="0"/>
      <psa03 value="0.0429384486" flag="0"/>
      <psa10 value="0.0103284488" flag="0"/>
      <psa30 value="0.0006337023" flag="0"/>
    </comp>
    <comp name="--.HHZ">
      <acc value="0.0240910971" flag="0"/>
      <vel value="0.0060278122" flag="0"/>
      <psa03 value="0.0284429210" flag="0"/>
      <psa10 value="0.0045582144" flag="0"/>
      <psa30 value="0.0003890708" flag="0"/>
    </comp>
  </station>
  <station code="DRES" name="DRES" netid="HA" insttype="DC" lat="38.3197" lon="21.8532">
    <comp name="--.HNN">
      <acc value="0.8356276184" flag="0"/>
      <vel value="0.3359328404" flag="0"/>
      <psa03 value="1.7086486600" flag="0"/>
      <psa10 value="0.1338273278" flag="0"/>
      <psa30 value="0.0116617230" flag="0"/>
    </comp>
    <comp name="--.HNZ">
      <acc value="0.7086692526" flag="0"/>
      <vel value="0.1717688631" flag="0"/>
      <psa03 value="0.8683113961" flag="0"/>
      <psa10 value="0.0621071993" flag="0"/>
      <psa30 value="0.0062409196" flag="0"/>
    </comp>
    <comp name="--.HNE">
      <acc value="0.5168532119" flag="0"/>
      <vel value="0.2056679372" flag="0"/>
      <psa03 value="1.0936777532" flag="0"/>
      <psa10 value="0.2381097790" flag="0"/>
      <psa30 value="0.0148619334" flag="0"/>
    </comp>
  </station>
  <station code="KALE" name="KALE" netid="HA" insttype="40," lat="38.3911" lon="22.1398">
    <comp name="--.HHZ">
      <acc value="2.3136823922" flag="0"/>
      <vel value="0.4258423978" flag="0"/>
      <psa03 value="1.2836285632" flag="0"/>
      <psa10 value="0.2473057562" flag="0"/>
      <psa30 value="0.0363519303" flag="0"/>
    </comp>
    <comp name="--.HHE">
      <acc value="2.5968495146" flag="0"/>
      <vel value="0.5068784940" flag="0"/>
      <psa03 value="2.5622208757" flag="0"/>
      <psa10 value="0.6907636420" flag="0"/>
      <psa30 value="0.1442113906" flag="0"/>
    </comp>
    <comp name="--.HHN">
      <acc value="2.4470411281" flag="0"/>
      <vel value="0.5862783359" flag="0"/>
      <psa03 value="1.8697219113" flag="0"/>
      <psa10 value="0.5017945821" flag="0"/>
      <psa30 value="0.1314157409" flag="0"/>
    </comp>
  </station>
  <station code="KIAS" name="KIAS" netid="HA" insttype="DC" lat="37.9875" lon="22.7543">
    <comp name="--.HNZ">
      <acc value="0.0767245172" flag="0"/>
      <vel value="0.0137105535" flag="0"/>
      <psa03 value="0.0597381760" flag="0"/>
      <psa10 value="0.0178342838" flag="0"/>
      <psa30 value="0.0033041814" flag="0"/>
    </comp>
    <comp name="--.HNN">
      <acc value="0.1160564128" flag="0"/>
      <vel value="0.0284735061" flag="0"/>
      <psa03 value="0.1206128614" flag="0"/>
      <psa10 value="0.0253689838" flag="0"/>
      <psa30 value="0.0029292211" flag="0"/>
    </comp>
    <comp name="--.HNE">
      <acc value="0.1274527068" flag="0"/>
      <vel value="0.0253006964" flag="0"/>
      <psa03 value="0.1305785123" flag="0"/>
      <psa10 value="0.0395229871" flag="0"/>
      <psa30 value="0.0029880050" flag="0"/>
    </comp>
  </station>
  <station code="LAKA" name="LAKA" netid="HA" insttype="120s," lat="38.2401" lon="21.9785">
    <comp name="--.HHZ">
      <acc value="0.2431666750" flag="0"/>
      <vel value="0.0662778306" flag="0"/>
      <psa03 value="0.3719987565" flag="0"/>
      <psa10 value="0.0376824399" flag="0"/>
      <psa30 value="0.0043049717" flag="0"/>
    </comp>
    <comp name="--.HHE">
      <acc value="0.2548677594" flag="0"/>
      <vel value="0.0647943080" flag="0"/>
      <psa03 value="0.2778026055" flag="0"/>
      <psa10 value="0.0157863666" flag="0"/>
      <psa30 value="0.0033940327" flag="0"/>
    </comp>
    <comp name="--.HHN">
      <acc value="0.2934720843" flag="0"/>
      <vel value="0.0853499077" flag="0"/>
      <psa03 value="0.2580403564" flag="0"/>
      <psa10 value="0.0422756206" flag="0"/>
      <psa30 value="0.0058788332" flag="0"/>
    </comp>
  </station>
  <station code="LOUT" name="LOUT" netid="HA" insttype="30" lat="37.9879" lon="22.9743">
    <comp name="--.HHZ">
      <acc value="0.0190752060" flag="0"/>
      <vel value="0.0078543711" flag="0"/>
      <psa03 value="0.0304431468" flag="0"/>
      <psa10 value="0.0087202876" flag="0"/>
      <psa30 value="0.0008105803" flag="0"/>
    </comp>
    <comp name="--.HHE">
      <acc value="0.0371346961" flag="0"/>
      <vel value="0.0161803804" flag="0"/>
      <psa03 value="0.0666573586" flag="0"/>
      <psa10 value="0.0262627293" flag="0"/>
      <psa30 value="0.0011019779" flag="0"/>
    </comp>
    <comp name="--.HHN">
      <acc value="0.0274033239" flag="0"/>
      <vel value="0.0127870805" flag="0"/>
      <psa03 value="0.0491503552" flag="0"/>
      <psa10 value="0.0180536124" flag="0"/>
      <psa30 value="0.0009939089" flag="0"/>
    </comp>
  </station>
  <station code="THAL" name="THAL" netid="HA" insttype="30" lat="38.0357" lon="22.6634">
    <comp name="--.HHE">
      <acc value="0.2310172904" flag="0"/>
      <vel value="0.0573637027" flag="0"/>
      <psa03 value="0.2240037527" flag="0"/>
      <psa10 value="0.0391297547" flag="0"/>
      <psa30 value="0.0023157880" flag="0"/>
    </comp>
    <comp name="--.HHZ">
      <acc value="0.1287277818" flag="0"/>
      <vel value="0.0274616968" flag="0"/>
      <psa03 value="0.1542840523" flag="0"/>
      <psa10 value="0.0237312532" flag="0"/>
      <psa30 value="0.0014573036" flag="0"/>
    </comp>
    <comp name="--.HHN">
      <acc value="0.2363751688" flag="0"/>
      <vel value="0.0512086870" flag="0"/>
      <psa03 value="0.3861641041" flag="0"/>
      <psa10 value="0.0295930010" flag="0"/>
      <psa30 value="0.0021312289" flag="0"/>
    </comp>
  </station>
  <station code="THIV" name="THIV" netid="HA" insttype="25" lat="38.299" lon="23.332">
    <comp name="--.HHE">
      <acc value="0.0058886375" flag="0"/>
      <vel value="0.0042451357" flag="0"/>
      <psa03 value="0.0132281566" flag="0"/>
      <psa10 value="0.0066926128" flag="0"/>
      <psa30 value="0.0006485641" flag="0"/>
    </comp>
    <comp name="--.HHN">
      <acc value="0.0046161289" flag="0"/>
      <vel value="0.0032961629" flag="0"/>
      <psa03 value="0.0122951858" flag="0"/>
      <psa10 value="0.0059500798" flag="0"/>
      <psa30 value="0.0004080697" flag="0"/>
    </comp>
    <comp name="--.HHZ">
      <acc value="0.0035180382" flag="0"/>
      <vel value="0.0024500203" flag="0"/>
      <psa03 value="0.0081292531" flag="0"/>
      <psa10 value="0.0041983907" flag="0"/>
      <psa30 value="0.0005424494" flag="0"/>
    </comp>
  </station>
  <station code="VILL" name="VILL" netid="HA" insttype="Horizon,120s,1200" lat="38.1642" lon="23.3122">
    <comp name="--.HHZ">
      <acc value="0.0102500008" flag="0"/>
      <vel value="0.0099716318" flag="0"/>
      <psa03 value="0.0203897110" flag="0"/>
      <psa10 value="0.0153386288" flag="0"/>
      <psa30 value="0.0009638620" flag="0"/>
    </comp>
    <comp name="--.HHE">
      <acc value="0.0174496498" flag="0"/>
      <vel value="0.0203656550" flag="0"/>
      <psa03 value="0.0502686855" flag="0"/>
      <psa10 value="0.0237664547" flag="0"/>
      <psa30 value="0.0014817501" flag="0"/>
    </comp>
    <comp name="--.HHN">
      <acc value="0.0140737399" flag="0"/>
      <vel value="0.0115262334" flag="0"/>
      <psa03 value="0.0381367206" flag="0"/>
      <psa10 value="0.0110490889" flag="0"/>
      <psa30 value="0.0010549320" flag="0"/>
    </comp>
  </station>
  <station code="KLV1" name="KLV1" netid="HI" insttype="CMG-5TD,ACCELEROMETER,GURALP" lat="38.0326" lon="22.108">
    <comp name="--.HNE">
      <acc value="0.5097460254" flag="0"/>
      <vel value="0.1595454478" flag="0"/>
      <psa03 value="0.9840734293" flag="0"/>
      <psa10 value="0.0718804894" flag="0"/>
      <psa30 value="0.0061766420" flag="0"/>
    </comp>
    <comp name="--.HNZ">
      <acc value="0.3330831796" flag="0"/>
      <vel value="0.0916433265" flag="0"/>
      <psa03 value="0.3225117823" flag="0"/>
      <psa10 value="0.0658127159" flag="0"/>
      <psa30 value="0.0031494865" flag="0"/>
    </comp>
    <comp name="--.HNN">
      <acc value="0.4901533785" flag="0"/>
      <vel value="0.1556818771" flag="0"/>
      <psa03 value="0.7678086079" flag="0"/>
      <psa10 value="0.0895401254" flag="0"/>
      <psa30 value="0.0058071330" flag="0"/>
    </comp>
  </station>
  <station code="LAM2" name="LAM2" netid="HI" insttype="CMG-5TD,ACCELEROMETER,GURALP" lat="38.902" lon="22.4313">
    <comp name="--.HNE">
      <acc value="0.1040896790" flag="0"/>
      <vel value="0.0351097464" flag="0"/>
      <psa03 value="0.1685137831" flag="0"/>
      <psa10 value="0.0149080341" flag="0"/>
      <psa30 value="0.0012158583" flag="0"/>
    </comp>
    <comp name="--.HNZ">
      <acc value="0.0651332040" flag="0"/>
      <vel value="0.0132596778" flag="0"/>
      <psa03 value="0.0640919917" flag="0"/>
      <psa10 value="0.0142225072" flag="0"/>
      <psa30 value="0.0013732870" flag="0"/>
    </comp>
    <comp name="--.HNN">
      <acc value="0.1090154956" flag="0"/>
      <vel value="0.0355926035" flag="0"/>
      <psa03 value="0.2384310439" flag="0"/>
      <psa10 value="0.0200643691" flag="0"/>
      <psa30 value="0.0011509003" flag="0"/>
    </comp>
  </station>
  <station code="MSL1" name="MSL1" netid="HI" insttype="CMG-5TD,ACCELEROMETER,GURALP" lat="38.3727" lon="21.4243">
    <comp name="--.HNE">
      <acc value="0.1165867619" flag="0"/>
      <vel value="0.0667755080" flag="0"/>
      <psa03 value="0.6126517881" flag="0"/>
      <psa10 value="0.0820602800" flag="0"/>
      <psa30 value="0.0064702700" flag="0"/>
    </comp>
    <comp name="--.HNN">
      <acc value="0.1033729504" flag="0"/>
      <vel value="0.0608162980" flag="0"/>
      <psa03 value="0.2729984081" flag="0"/>
      <psa10 value="0.1091186205" flag="0"/>
      <psa30 value="0.0050521184" flag="0"/>
    </comp>
    <comp name="--.HNZ">
      <acc value="0.0538706000" flag="0"/>
      <vel value="0.0324368192" flag="0"/>
      <psa03 value="0.1620224188" flag="0"/>
      <psa10 value="0.0598351869" flag="0"/>
      <psa30 value="0.0020903969" flag="0"/>
    </comp>
  </station>
  <station code="DLFA" name="DLFA" netid="HL" insttype="CMG-5" lat="38.4784" lon="22.4958">
    <comp name="00.HNN">
      <acc value="0.1810515503" flag="0"/>
      <vel value="0.0471138779" flag="0"/>
      <psa03 value="0.1298183799" flag="0"/>
      <psa10 value="0.0534392941" flag="0"/>
      <psa30 value="0.0038563367" flag="0"/>
    </comp>
    <comp name="00.HNE">
      <acc value="0.1594886399" flag="0"/>
      <vel value="0.0425973997" flag="0"/>
      <psa03 value="0.1274193929" flag="0"/>
      <psa10 value="0.0311884649" flag="0"/>
      <psa30 value="0.0026987628" flag="0"/>
    </comp>
    <comp name="00.HNZ">
      <acc value="0.1757651868" flag="0"/>
      <vel value="0.0415107087" flag="0"/>
      <psa03 value="0.1063600571" flag="0"/>
      <psa10 value="0.0275366909" flag="0"/>
      <psa30 value="0.0026789759" flag="0"/>
    </comp>
  </station>
  <station code="EVR" name="EVR" netid="HL" insttype="DR24" lat="38.9166" lon="21.8105">
    <comp name="--.HHZ">
      <acc value="0.0698607618" flag="0"/>
      <vel value="0.0285906549" flag="0"/>
      <psa03 value="0.1373389137" flag="0"/>
      <psa10 value="0.0238500842" flag="0"/>
      <psa30 value="0.0022203710" flag="0"/>
    </comp>
    <comp name="--.HHN">
      <acc value="0.1463585015" flag="0"/>
      <vel value="0.0380308393" flag="0"/>
      <psa03 value="0.1562271660" flag="0"/>
      <psa10 value="0.0309678946" flag="0"/>
      <psa30 value="0.0023019520" flag="0"/>
    </comp>
    <comp name="--.HHE">
      <acc value="0.1032129154" flag="0"/>
      <vel value="0.0362934816" flag="0"/>
      <psa03 value="0.1472607715" flag="0"/>
      <psa10 value="0.0332525724" flag="0"/>
      <psa30 value="0.0044259085" flag="0"/>
    </comp>
  </station>
  <station code="KLV" name="KLV" netid="HL" insttype="120" lat="38.0435" lon="22.1504">
    <comp name="--.HHZ">
      <acc value="0.2038619134" flag="0"/>
      <vel value="0.0409480481" flag="0"/>
      <psa03 value="0.1457725950" flag="0"/>
      <psa10 value="0.0252954154" flag="0"/>
      <psa30 value="0.0029760536" flag="0"/>
    </comp>
    <comp name="--.HHN">
      <acc value="0.2455149458" flag="0"/>
      <vel value="0.0604300165" flag="0"/>
      <psa03 value="0.2471494602" flag="0"/>
      <psa10 value="0.0227668117" flag="0"/>
      <psa30 value="0.0020088193" flag="0"/>
    </comp>
    <comp name="--.HHE">
      <acc value="0.3069652181" flag="0"/>
      <vel value="0.0781911999" flag="0"/>
      <psa03 value="0.3899831315" flag="0"/>
      <psa10 value="0.0237798754" flag="0"/>
      <psa30 value="0.0028410057" flag="0"/>
    </comp>
  </station>
  <station code="LKR" name="LKR" netid="HL" insttype="65535" lat="38.6496" lon="22.9988">
    <comp name="--.HHN">
      <acc value="0.1153851486" flag="0"/>
      <vel value="0.0302617537" flag="0"/>
      <psa03 value="0.1219947787" flag="0"/>
      <psa10 value="0.0163823306" flag="0"/>
      <psa30 value="0.0013792557" flag="0"/>
    </comp>
    <comp name="--.HHZ">
      <acc value="0.0646919225" flag="0"/>
      <vel value="0.0151961864" flag="0"/>
      <psa03 value="0.0566227259" flag="0"/>
      <psa10 value="0.0082372053" flag="0"/>
      <psa30 value="0.0009456699" flag="0"/>
    </comp>
    <comp name="--.HHE">
      <acc value="0.1301574698" flag="0"/>
      <vel value="0.0365584865" flag="0"/>
      <psa03 value="0.0958315348" flag="0"/>
      <psa10 value="0.0120744129" flag="0"/>
      <psa30 value="0.0014714688" flag="0"/>
    </comp>
  </station>
  <station code="PATC" name="PATC" netid="HL" insttype="CMG-5" lat="38.2693" lon="21.76">
    <comp name="00.HNN">
      <acc value="0.7677876974" flag="0"/>
      <vel value="0.2833209051" flag="0"/>
      <psa03 value="0.9853639306" flag="0"/>
      <psa10 value="0.2210377560" flag="0"/>
      <psa30 value="0.0139988922" flag="0"/>
    </comp>
    <comp name="00.HNE">
      <acc value="0.6590828442" flag="0"/>
      <vel value="0.2653420276" flag="0"/>
      <psa03 value="1.3615525042" flag="0"/>
      <psa10 value="0.1828632061" flag="0"/>
      <psa30 value="0.0141180710" flag="0"/>
    </comp>
    <comp name="00.HNZ">
      <acc value="0.5238791724" flag="0"/>
      <vel value="0.1381403639" flag="0"/>
      <psa03 value="0.5883636114" flag="0"/>
      <psa10 value="0.1054760400" flag="0"/>
      <psa30 value="0.0091519915" flag="0"/>
    </comp>
  </station>
  <station code="PATG" name="PATG" netid="HL" insttype="CMG-5" lat="38.2386" lon="21.7266">
    <comp name="00.HNZ">
      <acc value="0.3787001024" flag="0"/>
      <vel value="0.0868155028" flag="0"/>
      <psa03 value="0.4244606472" flag="0"/>
      <psa10 value="0.1418656133" flag="0"/>
      <psa30 value="0.0132759894" flag="0"/>
    </comp>
    <comp name="00.HNN">
      <acc value="0.4593332607" flag="0"/>
      <vel value="0.1702085950" flag="0"/>
      <psa03 value="0.7820366609" flag="0"/>
      <psa10 value="0.1687983897" flag="0"/>
      <psa30 value="0.0281503957" flag="0"/>
    </comp>
    <comp name="00.HNE">
      <acc value="0.7173558057" flag="0"/>
      <vel value="0.2484381010" flag="0"/>
      <psa03 value="0.9835173683" flag="0"/>
      <psa10 value="0.2170864847" flag="0"/>
      <psa30 value="0.0217729513" flag="0"/>
    </comp>
  </station>
  <station code="RIOA" name="RIOA" netid="HL" insttype="CMG-5" lat="38.2959" lon="21.7912">
    <comp name="00.HNE">
      <acc value="0.5327882046" flag="0"/>
      <vel value="0.1689869377" flag="0"/>
      <psa03 value="0.9917740748" flag="0"/>
      <psa10 value="0.0859780940" flag="0"/>
      <psa30 value="0.0072399823" flag="0"/>
    </comp>
    <comp name="00.HNN">
      <acc value="0.6952595980" flag="0"/>
