<?xml version="1.0" encoding="UTF-8" standalone="yes"?>
<!DOCTYPE earthquake SYSTEM "stationlist.dtd">
<stationlist created="" xmlns="ch.ethz.sed.shakemap.usgs.xml">
  <station code="KLV" name="KLV" netid="MN" insttype="" lat="38.0437" lon="22.1504">
    <comp name="--.HHZ">
      <acc value="0.2140319365" flag="0"/>
      <vel value="0.0423120402" flag="0"/>
      <psa03 value="0.1489335618" flag="0"/>
      <psa10 value="0.0254924967" flag="0"/>
      <psa30 value="0.0030010402" flag="0"/>
    </comp>
    <comp name="--.HHE">
      <acc value="0.3502372856" flag="0"/>
      <vel value="0.0811429256" flag="0"/>
      <psa03 value="0.4020833862" flag="0"/>
      <psa10 value="0.0239886767" flag="0"/>
      <psa30 value="0.0028520560" flag="0"/>
    </comp>
    <comp name="--.HHN">
      <acc value="0.2706070931" flag="0"/>
      <vel value="0.0666405069" flag="0"/>
      <psa03 value="0.2549258546" flag="0"/>
      <psa10 value="0.0229204715" flag="0"/>
      <psa30 value="0.0020119774" flag="0"/>
    </comp>
  </station>
</stationlist>
