<stationlist xmlns:esm="https://esm-db.eu/esmws/shakemap/1/" created="1783994144">
	<station code="ARG2" name="ARG2" netid="HI" source="ITSAK Strong Motion Network" insttype="" lat="38.1783" lon="20.4878" esm:processing="manual (Paolucci et al 2011)" esm:quality="best">
		<comp name="--.HNE" depth="0.0">
			<acc value="0.0332560713050522" flag="0"/>
			<vel value="0.0164821462008101" flag="0"/>
			<psa03 value="0.0693504202583212" flag="0"/>
			<psa10 value="0.0143877513822376" flag="0"/>
			<psa30 value="0.00236507304184184" flag="0"/>
		</comp>
		<comp name="--.HNN" depth="0.0">
			<acc value="0.0282930803395903" flag="0"/>
			<vel value="0.0142953655492868" flag="0"/>
			<psa03 value="0.0612968230670323" flag="0"/>
			<psa10 value="0.0117582518992818" flag="0"/>
			<psa30 value="0.00160490295139741" flag="0"/>
		</comp>
		<comp name="--.HNZ" depth="0.0">
			<acc value="0.0132917579989472" flag="0"/>
			<vel value="0.00594448089280897" flag="0"/>
			<psa03 value="0.0442053001388525" flag="0"/>
			<psa10 value="0.00569792001283691" flag="0"/>
			<psa30 value="0.00299728042135802" flag="0"/>
		</comp>
	</station>
	<station code="KRI1" name="KRI1" netid="HI" source="ITSAK Strong Motion Network" insttype="" lat="37.6621" lon="20.8172" esm:processing="manual (Paolucci et al 2011)" esm:quality="best">
		<comp name="--.HNE" depth="0.0">
			<acc value="0.218411971616827" flag="0"/>
			<vel value="0.0862058459617986" flag="0"/>
			<psa03 value="0.488047989792108" flag="0"/>
			<psa10 value="0.0262064052604541" flag="0"/>
			<psa30 value="0.0111081476371183" flag="0"/>
		</comp>
		<comp name="--.HNN" depth="0.0">
			<acc value="0.235546758605545" flag="0"/>
			<vel value="0.0724494162711553" flag="0"/>
			<psa03 value="0.307378959467527" flag="0"/>
			<psa10 value="0.0300238103291251" flag="0"/>
			<psa30 value="0.0152427749507128" flag="0"/>
		</comp>
		<comp name="--.HNZ" depth="0.0">
			<acc value="0.106038980851219" flag="0"/>
			<vel value="0.035834484681803" flag="0"/>
			<psa03 value="0.2531961472528" flag="0"/>
			<psa10 value="0.0160790067924083" flag="0"/>
			<psa30 value="0.0103260538654309" flag="0"/>
		</comp>
	</station>
	<station code="MSL1" name="MSL1" netid="HI" source="ITSAK Strong Motion Network" insttype="" lat="38.3727" lon="21.4243" esm:processing="manual (Paolucci et al 2011)" esm:quality="good">
		<comp name="--.HNE" depth="0.0">
			<acc value="0.0105970618604605" flag="0"/>
			<vel value="0.0108091381759709" flag="0"/>
			<psa03 value="0.04381590779717" flag="0"/>
			<psa10 value="0.0153648981615999" flag="0"/>
			<psa30 value="0.00205531782138711" flag="0"/>
		</comp>
		<comp name="--.HNN" depth="0.0">
			<acc value="0.00977034300606075" flag="0"/>
			<vel value="0.00801345467908442" flag="0"/>
			<psa03 value="0.0301723503326403" flag="0"/>
			<psa10 value="0.0158075071697771" flag="0"/>
			<psa30 value="0.00286659468949796" flag="0"/>
		</comp>
		<comp name="--.HNZ" depth="0.0">
			<acc value="0.0118350190332732" flag="0"/>
			<vel value="0.00516720434339896" flag="0"/>
			<psa03 value="0.0113927260663471" flag="0"/>
			<psa10 value="0.0116335237888526" flag="0"/>
			<psa30 value="0.000842677958694805" flag="0"/>
		</comp>
	</station>
	<station code="PYL1" name="PYL1" netid="HI" source="ITSAK Strong Motion Network" insttype="" lat="36.914188" lon="21.695161" esm:processing="manual (Paolucci et al 2011)" esm:quality="best">
		<comp name="--.HNE" depth="0.0">
			<acc value="0.011528452308124" flag="0"/>
			<vel value="0.00638863152743742" flag="0"/>
			<psa03 value="0.0284388500800994" flag="0"/>
			<psa10 value="0.00513400057108292" flag="0"/>
			<psa30 value="0.000913237580840389" flag="0"/>
		</comp>
		<comp name="--.HNN" depth="0.0">
			<acc value="0.0158820109570042" flag="0"/>
			<vel value="0.0061047322915649" flag="0"/>
			<psa03 value="0.0199483514283144" flag="0"/>
			<psa10 value="0.00548984664415914" flag="0"/>
			<psa30 value="0.000666625462747587" flag="0"/>
		</comp>
		<comp name="--.HNZ" depth="0.0">
			<acc value="0.00671925952308415" flag="0"/>
			<vel value="0.00270566085379736" flag="0"/>
			<psa03 value="0.0113732052419551" flag="0"/>
			<psa10 value="0.00296544566497269" flag="0"/>
			<psa30 value="0.000538116272561361" flag="0"/>
		</comp>
	</station>
	<station code="ITM" name="ITM" netid="HL" source="National Observatory of Athens Seismic Network" insttype="" lat="37.17872" lon="21.92522" esm:processing="manual (Paolucci et al 2011)" esm:quality="best">
		<comp name="--.HNE" depth="0.0">
			<acc value="0.00611043143926633" flag="0"/>
			<vel value="0.00569119396507942" flag="0"/>
			<psa03 value="0.0169033814848364" flag="0"/>
			<psa10 value="0.00454573003854195" flag="0"/>
			<psa30 value="0.00162168326188965" flag="0"/>
		</comp>
		<comp name="--.HNN" depth="0.0">
			<acc value="0.00871701262046315" flag="0"/>
			<vel value="0.00697539373131447" flag="0"/>
			<psa03 value="0.0244111639948228" flag="0"/>
			<psa10 value="0.00681522053742944" flag="0"/>
			<psa30 value="0.00152035259089602" flag="0"/>
		</comp>
		<comp name="--.HNZ" depth="0.0">
			<acc value="0.00776906330656534" flag="0"/>
			<vel value="0.00359810929461752" flag="0"/>
			<psa03 value="0.010592757056726" flag="0"/>
			<psa10 value="0.00554539907420367" flag="0"/>
			<psa30 value="0.00107012589058727" flag="0"/>
		</comp>
	</station>
	<station code="PATC" name="PATC" netid="HL" source="National Observatory of Athens Seismic Network" insttype="" lat="38.26933" lon="21.76001" esm:processing="manual (Paolucci et al 2011)" esm:quality="good">
		<comp name="00.HNE" depth="0.0">
			<acc value="0.00763362659678857" flag="0"/>
			<vel value="0.00847181983123337" flag="0"/>
			<psa03 value="0.0224948209006633" flag="0"/>
			<psa10 value="0.0123343158378994" flag="0"/>
			<psa30 value="0.00268913626708023" flag="0"/>
		</comp>
		<comp name="00.HNN" depth="0.0">
			<acc value="0.00727777870140568" flag="0"/>
			<vel value="0.00794673391439238" flag="0"/>
			<psa03 value="0.0214255886109074" flag="0"/>
			<psa10 value="0.0113166821746413" flag="0"/>
			<psa30 value="0.00337771896563627" flag="0"/>
		</comp>
		<comp name="00.HNZ" depth="0.0">
			<acc value="0.00555243410296888" flag="0"/>
			<vel value="0.00546972249815054" flag="0"/>
			<psa03 value="0.0102488651349518" flag="0"/>
			<psa10 value="0.00673479927241813" flag="0"/>
			<psa30 value="0.000978615453471083" flag="0"/>
		</comp>
	</station>
	<station code="SMHA" name="SMHA" netid="HL" source="National Observatory of Athens Seismic Network" insttype="" lat="38.25123" lon="20.6477" esm:processing="manual (Paolucci et al 2011)" esm:quality="good">
		<comp name="00.HNE" depth="0.0">
			<acc value="0.0324427719022116" flag="0"/>
			<vel value="0.0182022192922761" flag="0"/>
			<psa03 value="0.0968896997169758" flag="0"/>
			<psa10 value="0.015245630885725" flag="0"/>
			<psa30 value="0.00180793935044388" flag="0"/>
		</comp>
		<comp name="00.HNN" depth="0.0">
			<acc value="0.0395887855116539" flag="0"/>
			<vel value="0.0202180078601159" flag="0"/>
			<psa03 value="0.20159825072822" flag="0"/>
			<psa10 value="0.0183794969264802" flag="0"/>
			<psa30 value="0.00135712896563395" flag="0"/>
		</comp>
		<comp name="00.HNZ" depth="0.0">
			<acc value="0.023066607197407" flag="0"/>
			<vel value="0.0108795162039352" flag="0"/>
			<psa03 value="0.0484815658322484" flag="0"/>
			<psa10 value="0.00864056020722539" flag="0"/>
			<psa30 value="0.00119223543808138" flag="0"/>
		</comp>
	</station>
	<station code="ZARA" name="ZARA" netid="HL" source="National Observatory of Athens Seismic Network" insttype="" lat="37.4865" lon="21.6491" esm:processing="manual (Paolucci et al 2011)" esm:quality="good">
		<comp name="00.HNE" depth="0.0">
			<acc value="0.0223715266380927" flag="0"/>
			<vel value="0.0150665335177548" flag="0"/>
			<psa03 value="0.0604492805100438" flag="0"/>
			<psa10 value="0.0252307376625366" flag="0"/>
			<psa30 value="0.0027800006197307" flag="0"/>
		</comp>
		<comp name="00.HNN" depth="0.0">
			<acc value="0.0184272537166825" flag="0"/>
			<vel value="0.0150495743390123" flag="0"/>
			<psa03 value="0.0532839881360151" flag="0"/>
			<psa10 value="0.0161251419615143" flag="0"/>
			<psa30 value="0.00214540962285687" flag="0"/>
		</comp>
		<comp name="00.HNZ" depth="0.0">
			<acc value="0.00884878597240752" flag="0"/>
			<vel value="0.00660657725142062" flag="0"/>
			<psa03 value="0.0236831444129055" flag="0"/>
			<psa10 value="0.0171632632319552" flag="0"/>
			<psa30 value="0.001611876258059" flag="0"/>
		</comp>
	</station>
	<station code="ANX" name="ANX" netid="HP" source="University of Patras, Seismological Laboratory (PSLNET)" insttype="" lat="38.5933" lon="21.9209" esm:processing="automatic (Paolucci et al 2011)" esm:quality="best">
		<comp name="--.HNE" depth="0.0">
			<acc value="0.00430083071422487" flag="0"/>
			<vel value="0.00327135140192271" flag="0"/>
			<psa03 value="0.013574832859824" flag="0"/>
			<psa10 value="0.0040467116685458" flag="0"/>
			<psa30 value="0.000795538221337807" flag="0"/>
		</comp>
		<comp name="--.HNN" depth="0.0">
			<acc value="0.00501894366543492" flag="0"/>
			<vel value="0.00453558352920411" flag="0"/>
			<psa03 value="0.0120013978983051" flag="0"/>
			<psa10 value="0.00569652799201155" flag="0"/>
			<psa30 value="0.000802668068653876" flag="0"/>
		</comp>
		<comp name="--.HNZ" depth="0.0">
			<acc value="0.00277786470700789" flag="0"/>
			<vel value="0.00197871419958988" flag="0"/>
			<psa03 value="0.00587108554518141" flag="0"/>
			<psa10 value="0.00201829792108135" flag="0"/>
			<psa30 value="0.000803603078509411" flag="0"/>
		</comp>
	</station>
	<station code="FSK" name="FSK" netid="HP" source="University of Patras, Seismological Laboratory (PSLNET)" insttype="" lat="38.4593" lon="20.5623" esm:processing="manual (Paolucci et al 2011)" esm:quality="good">
		<comp name="--.HNE" depth="0.0">
			<acc value="0.012580267286665" flag="0"/>
			<vel value="0.0049866660025686" flag="0"/>
			<psa03 value="0.0178149822384752" flag="0"/>
			<psa10 value="0.00703144157974613" flag="0"/>
			<psa30 value="0.00177756942191701" flag="0"/>
		</comp>
		<comp name="--.HNN" depth="0.0">
			<acc value="0.00467233117462342" flag="0"/>
			<vel value="0.00468388387265355" flag="0"/>
			<psa03 value="0.0101241491908221" flag="0"/>
			<psa10 value="0.00958622285271725" flag="0"/>
			<psa30 value="0.00145505368183205" flag="0"/>
		</comp>
		<comp name="--.HNZ" depth="0.0">
			<acc value="0.00493941386027029" flag="0"/>
			<vel value="0.00303389090120692" flag="0"/>
			<psa03 value="0.00983489044551654" flag="0"/>
			<psa10 value="0.00349128510862911" flag="0"/>
			<psa30 value="0.000896310730353687" flag="0"/>
		</comp>
	</station>
	<station code="ARS1" name="ARS1" netid="HI" source="ITSAK Strong Motion Network" insttype="" lat="37.6349" lon="22.7293" esm:processing="discarded" esm:quality="bad">
		<comp name="--.HNE" depth="0.0">
			<acc value="0" flag="1"/>
			<vel value="0" flag="1"/>
			<psa03 value="0" flag="1"/>
			<psa10 value="0" flag="1"/>
			<psa30 value="0" flag="1"/>
		</comp>
		<comp name="--.HNN" depth="0.0">
			<acc value="0" flag="1"/>
			<vel value="0" flag="1"/>
			<psa03 value="0" flag="1"/>
			<psa10 value="0" flag="1"/>
			<psa30 value="0" flag="1"/>
		</comp>
		<comp name="--.HNZ" depth="0.0">
			<acc value="0" flag="1"/>
			<vel value="0" flag="1"/>
			<psa03 value="0" flag="1"/>
			<psa10 value="0" flag="1"/>
			<psa30 value="0" flag="1"/>
		</comp>
	</station>
	<station code="ART2" name="ART2" netid="HI" source="ITSAK Strong Motion Network" insttype="" lat="39.1474" lon="20.9937" esm:processing="discarded" esm:quality="bad">
		<comp name="--.HNE" depth="0.0">
			<acc value="0" flag="1"/>
			<vel value="0" flag="1"/>
			<psa03 value="0" flag="1"/>
			<psa10 value="0" flag="1"/>
			<psa30 value="0" flag="1"/>
		</comp>
		<comp name="--.HNN" depth="0.0">
			<acc value="0" flag="1"/>
			<vel value="0" flag="1"/>
			<psa03 value="0" flag="1"/>
			<psa10 value="0" flag="1"/>
			<psa30 value="0" flag="1"/>
		</comp>
		<comp name="--.HNZ" depth="0.0">
			<acc value="0" flag="1"/>
			<vel value="0" flag="1"/>
			<psa03 value="0" flag="1"/>
			<psa10 value="0" flag="1"/>
			<psa30 value="0" flag="1"/>
		</comp>
	</station>
	<station code="KLV1" name="KLV1" netid="HI" source="ITSAK Strong Motion Network" insttype="" lat="38.03256" lon="22.10797" esm:processing="discarded" esm:quality="bad">
		<comp name="--.HNE" depth="0.0">
			<acc value="0" flag="1"/>
			<vel value="0" flag="1"/>
			<psa03 value="0" flag="1"/>
			<psa10 value="0" flag="1"/>
			<psa30 value="0" flag="1"/>
		</comp>
		<comp name="--.HNN" depth="0.0">
			<acc value="0" flag="1"/>
			<vel value="0" flag="1"/>
			<psa03 value="0" flag="1"/>
			<psa10 value="0" flag="1"/>
			<psa30 value="0" flag="1"/>
		</comp>
		<comp name="--.HNZ" depth="0.0">
			<acc value="0" flag="1"/>
			<vel value="0" flag="1"/>
			<psa03 value="0" flag="1"/>
			<psa10 value="0" flag="1"/>
			<psa30 value="0" flag="1"/>
		</comp>
	</station>
	<station code="LAM2" name="LAM2" netid="HI" source="ITSAK Strong Motion Network" insttype="" lat="38.90203" lon="22.431301" esm:processing="discarded" esm:quality="bad">
		<comp name="--.HNE" depth="0.0">
			<acc value="0" flag="1"/>
			<vel value="0" flag="1"/>
			<psa03 value="0" flag="1"/>
			<psa10 value="0" flag="1"/>
			<psa30 value="0" flag="1"/>
		</comp>
		<comp name="--.HNN" depth="0.0">
			<acc value="0" flag="1"/>
			<vel value="0" flag="1"/>
			<psa03 value="0" flag="1"/>
			<psa10 value="0" flag="1"/>
			<psa30 value="0" flag="1"/>
		</comp>
		<comp name="--.HNZ" depth="0.0">
			<acc value="0" flag="1"/>
			<vel value="0" flag="1"/>
			<psa03 value="0" flag="1"/>
			<psa10 value="0" flag="1"/>
			<psa30 value="0" flag="1"/>
		</comp>
	</station>
	<station code="ARTB" name="ARTB" netid="HL" source="National Observatory of Athens Seismic Network" insttype="" lat="39.15702" lon="20.9785" esm:processing="discarded" esm:quality="bad">
		<comp name="00.HNE" depth="0.0">
			<acc value="0" flag="1"/>
			<vel value="0" flag="1"/>
			<psa03 value="0" flag="1"/>
			<psa10 value="0" flag="1"/>
			<psa30 value="0" flag="1"/>
		</comp>
		<comp name="00.HNN" depth="0.0">
			<acc value="0" flag="1"/>
			<vel value="0" flag="1"/>
			<psa03 value="0" flag="1"/>
			<psa10 value="0" flag="1"/>
			<psa30 value="0" flag="1"/>
		</comp>
		<comp name="00.HNZ" depth="0.0">
			<acc value="0" flag="1"/>
			<vel value="0" flag="1"/>
			<psa03 value="0" flag="1"/>
			<psa10 value="0" flag="1"/>
			<psa30 value="0" flag="1"/>
		</comp>
	</station>
	<station code="DLFA" name="DLFA" netid="HL" source="National Observatory of Athens Seismic Network" insttype="" lat="38.47836" lon="22.49583" esm:processing="discarded" esm:quality="bad">
		<comp name="00.HNE" depth="0.0">
			<acc value="0" flag="1"/>
			<vel value="0" flag="1"/>
			<psa03 value="0" flag="1"/>
			<psa10 value="0" flag="1"/>
			<psa30 value="0" flag="1"/>
		</comp>
		<comp name="00.HNN" depth="0.0">
			<acc value="0" flag="1"/>
			<vel value="0" flag="1"/>
			<psa03 value="0" flag="1"/>
			<psa10 value="0" flag="1"/>
			<psa30 value="0" flag="1"/>
		</comp>
		<comp name="00.HNZ" depth="0.0">
			<acc value="0" flag="1"/>
			<vel value="0" flag="1"/>
			<psa03 value="0" flag="1"/>
			<psa10 value="0" flag="1"/>
			<psa30 value="0" flag="1"/>
		</comp>
	</station>
	<station code="KIAA" name="KIAA" netid="HL" source="National Observatory of Athens Seismic Network" insttype="" lat="38.0139" lon="22.7495" esm:processing="discarded" esm:quality="bad">
		<comp name="00.HNE" depth="0.0">
			<acc value="0" flag="1"/>
			<vel value="0" flag="1"/>
			<psa03 value="0" flag="1"/>
			<psa10 value="0" flag="1"/>
			<psa30 value="0" flag="1"/>
		</comp>
		<comp name="00.HNN" depth="0.0">
			<acc value="0" flag="1"/>
			<vel value="0" flag="1"/>
			<psa03 value="0" flag="1"/>
			<psa10 value="0" flag="1"/>
			<psa30 value="0" flag="1"/>
		</comp>
		<comp name="00.HNZ" depth="0.0">
			<acc value="0" flag="1"/>
			<vel value="0" flag="1"/>
			<psa03 value="0" flag="1"/>
			<psa10 value="0" flag="1"/>
			<psa30 value="0" flag="1"/>
		</comp>
	</station>
	<station code="LXRA" name="LXRA" netid="HL" source="National Observatory of Athens Seismic Network" insttype="" lat="38.20006" lon="20.43718" esm:processing="discarded" esm:quality="bad">
		<comp name="00.HNE" depth="0.0">
			<acc value="0" flag="1"/>
			<vel value="0" flag="1"/>
			<psa03 value="0" flag="1"/>
			<psa10 value="0" flag="1"/>
			<psa30 value="0" flag="1"/>
		</comp>
		<comp name="00.HNN" depth="0.0">
			<acc value="0" flag="1"/>
			<vel value="0" flag="1"/>
			<psa03 value="0" flag="1"/>
			<psa10 value="0" flag="1"/>
			<psa30 value="0" flag="1"/>
		</comp>
		<comp name="00.HNZ" depth="0.0">
			<acc value="0" flag="1"/>
			<vel value="0" flag="1"/>
			<psa03 value="0" flag="1"/>
			<psa10 value="0" flag="1"/>
			<psa30 value="0" flag="1"/>
		</comp>
	</station>
	<station code="PATG" name="PATG" netid="HL" source="National Observatory of Athens Seismic Network" insttype="" lat="38.23865" lon="21.72657" esm:processing="discarded" esm:quality="bad">
		<comp name="00.HNE" depth="0.0">
			<acc value="0" flag="1"/>
			<vel value="0" flag="1"/>
			<psa03 value="0" flag="1"/>
			<psa10 value="0" flag="1"/>
			<psa30 value="0" flag="1"/>
		</comp>
		<comp name="00.HNN" depth="0.0">
			<acc value="0" flag="1"/>
			<vel value="0" flag="1"/>
			<psa03 value="0" flag="1"/>
			<psa10 value="0" flag="1"/>
			<psa30 value="0" flag="1"/>
		</comp>
		<comp name="00.HNZ" depth="0.0">
			<acc value="0" flag="1"/>
			<vel value="0" flag="1"/>
			<psa03 value="0" flag="1"/>
			<psa10 value="0" flag="1"/>
			<psa30 value="0" flag="1"/>
		</comp>
	</station>
	<station code="PRGA" name="PRGA" netid="HL" source="National Observatory of Athens Seismic Network" insttype="" lat="39.28557" lon="20.40157" esm:processing="discarded" esm:quality="bad">
		<comp name="00.HNE" depth="0.0">
			<acc value="0" flag="1"/>
			<vel value="0" flag="1"/>
			<psa03 value="0" flag="1"/>
			<psa10 value="0" flag="1"/>
			<psa30 value="0" flag="1"/>
		</comp>
		<comp name="00.HNN" depth="0.0">
			<acc value="0" flag="1"/>
			<vel value="0" flag="1"/>
			<psa03 value="0" flag="1"/>
			<psa10 value="0" flag="1"/>
			<psa30 value="0" flag="1"/>
		</comp>
		<comp name="00.HNZ" depth="0.0">
			<acc value="0" flag="1"/>
			<vel value="0" flag="1"/>
			<psa03 value="0" flag="1"/>
			<psa10 value="0" flag="1"/>
			<psa30 value="0" flag="1"/>
		</comp>
	</station>
	<station code="RIOA" name="RIOA" netid="HL" source="National Observatory of Athens Seismic Network" insttype="" lat="38.29585" lon="21.79118" esm:processing="discarded" esm:quality="bad">
		<comp name="00.HNE" depth="0.0">
			<acc value="0" flag="1"/>
			<vel value="0" flag="1"/>
			<psa03 value="0" flag="1"/>
			<psa10 value="0" flag="1"/>
			<psa30 value="0" flag="1"/>
		</comp>
		<comp name="00.HNN" depth="0.0">
			<acc value="0" flag="1"/>
			<vel value="0" flag="1"/>
			<psa03 value="0" flag="1"/>
			<psa10 value="0" flag="1"/>
			<psa30 value="0" flag="1"/>
		</comp>
		<comp name="00.HNZ" depth="0.0">
			<acc value="0" flag="1"/>
			<vel value="0" flag="1"/>
			<psa03 value="0" flag="1"/>
			<psa10 value="0" flag="1"/>
			<psa30 value="0" flag="1"/>
		</comp>
	</station>
</stationlist>
