<?xml version="1.0" encoding="UTF-8" standalone="yes"?>
<!DOCTYPE earthquake SYSTEM "stationlist.dtd">
<stationlist created="" xmlns="ch.ethz.sed.shakemap.usgs.xml">
  <station code="ITM" name="ITM" netid="HL" source="NOA" insttype="DR24" lat="37.1787" lon="21.9252">
    <comp name="--.HHE">
      <acc value="0.0061185992" flag="0"/>
      <vel value="0.0055271638" flag="0"/>
      <psa03 value="0.0171281446" flag="0"/>
      <psa10 value="0.0047299866" flag="0"/>
      <psa30 value="0.0015969419" flag="0"/>
    </comp>
    <comp name="--.HHN">
      <acc value="0.0089195913" flag="0"/>
      <vel value="0.0072005687" flag="0"/>
      <psa03 value="0.0251653582" flag="0"/>
      <psa10 value="0.0069826859" flag="0"/>
      <psa30 value="0.0014761311" flag="0"/>
    </comp>
    <comp name="--.HHZ">
      <acc value="0.0083505055" flag="0"/>
      <vel value="0.0038680654" flag="0"/>
      <psa03 value="0.0111952339" flag="0"/>
      <psa10 value="0.0058793215" flag="0"/>
      <psa30 value="0.0010275469" flag="0"/>
    </comp>
  </station>
  <station code="AMT" name="AMT" netid="HP" source="NOA" insttype="CMG-3T," lat="37.5324" lon="21.7089">
    <comp name="00.HHE">
      <acc value="0.0142086707" flag="0"/>
      <vel value="0.0135029999" flag="0"/>
      <psa03 value="0.0593825492" flag="0"/>
      <psa10 value="0.0263741104" flag="0"/>
      <psa30 value="0.0014315056" flag="0"/>
    </comp>
    <comp name="00.HHN">
      <acc value="0.0217304221" flag="0"/>
      <vel value="0.0151487452" flag="0"/>
      <psa03 value="0.0533139935" flag="0"/>
      <psa10 value="0.0271846355" flag="0"/>
      <psa30 value="0.0021247985" flag="0"/>
    </comp>
    <comp name="00.HHZ">
      <acc value="0.0106178454" flag="0"/>
      <vel value="0.0060249340" flag="0"/>
      <psa03 value="0.0338821585" flag="0"/>
      <psa10 value="0.0096873134" flag="0"/>
      <psa30 value="0.0010993194" flag="0"/>
    </comp>
  </station>
  <station code="DRO" name="DRO" netid="HP" source="NOA" insttype="120P," lat="37.952" lon="21.71">
    <comp name="--.HHE">
      <acc value="0.0127246524" flag="0"/>
      <vel value="0.0082989004" flag="0"/>
      <psa03 value="0.0417240550" flag="0"/>
      <psa10 value="0.0096579163" flag="0"/>
      <psa30 value="0.0011399264" flag="0"/>
    </comp>
    <comp name="--.HHN">
      <acc value="0.0105978585" flag="0"/>
      <vel value="0.0070533326" flag="0"/>
      <psa03 value="0.0376539059" flag="0"/>
      <psa10 value="0.0085033530" flag="0"/>
      <psa30 value="0.0011329743" flag="0"/>
    </comp>
    <comp name="--.HHZ">
      <acc value="0.0060815188" flag="0"/>
      <vel value="0.0029639713" flag="0"/>
      <psa03 value="0.0188291239" flag="0"/>
      <psa10 value="0.0069344684" flag="0"/>
      <psa30 value="0.0010982586" flag="0"/>
    </comp>
  </station>
  <station code="LTHK" name="LTHK" netid="HP" source="NOA" insttype="40," lat="37.7095" lon="20.8367">
    <comp name="--.HHE">
      <acc value="0.3088304288" flag="0"/>
      <vel value="0.0842347159" flag="0"/>
      <psa03 value="0.3137483189" flag="0"/>
      <psa10 value="0.0248457889" flag="0"/>
      <psa30 value="0.0040320310" flag="0"/>
    </comp>
    <comp name="--.HHN">
      <acc value="0.1941204996" flag="0"/>
      <vel value="0.0478068815" flag="0"/>
      <psa03 value="0.2384632900" flag="0"/>
      <psa10 value="0.0283329722" flag="0"/>
      <psa30 value="0.0030664057" flag="0"/>
    </comp>
    <comp name="--.HHZ">
      <acc value="0.1553489390" flag="0"/>
      <vel value="0.0439735814" flag="0"/>
      <psa03 value="0.1973434251" flag="0"/>
      <psa10 value="0.0185621971" flag="0"/>
      <psa30 value="0.0124843682" flag="0"/>
    </comp>
  </station>
  <station code="DMLN" name="DMLN" netid="HT" source="NOA" insttype="1s-100Hz," lat="38.2385" lon="20.3734">
    <comp name="--.HHE">
      <acc value="0.0248605846" flag="0"/>
      <vel value="0.0193868561" flag="0"/>
      <psa03 value="0.0636858651" flag="0"/>
      <psa10 value="0.0286314626" flag="0"/>
      <psa30 value="0.0016401143" flag="0"/>
    </comp>
    <comp name="--.HHN">
      <acc value="0.0309499105" flag="0"/>
      <vel value="0.0224474454" flag="0"/>
      <psa03 value="0.0946079146" flag="0"/>
      <psa10 value="0.0297896195" flag="0"/>
      <psa30 value="0.0018301666" flag="0"/>
    </comp>
    <comp name="--.HHZ">
      <acc value="0.0172893882" flag="0"/>
      <vel value="0.0100480068" flag="0"/>
      <psa03 value="0.0375922080" flag="0"/>
      <psa10 value="0.0112205718" flag="0"/>
      <psa30 value="0.0009120406" flag="0"/>
    </comp>
  </station>
</stationlist>
