<?xml version="1.0" encoding="UTF-8" standalone="yes"?>
<!DOCTYPE earthquake SYSTEM "stationlist.dtd">
<stationlist created="" xmlns="ch.ethz.sed.shakemap.usgs.xml">
  <station code="AGRP" name="AGRP" netid="CL" source="RESIF" insttype="30" lat="38.3959" lon="21.7228">
    <comp name="00.HHE">
      <acc value="0.0082339396" flag="0"/>
      <vel value="0.0028237277" flag="0"/>
      <psa03 value="0.0235759437" flag="0"/>
      <psa10 value="0.0049019706" flag="0"/>
      <psa30 value="0.0003613277" flag="0"/>
    </comp>
    <comp name="00.HHN">
      <acc value="0.0066586165" flag="0"/>
      <vel value="0.0036632425" flag="0"/>
      <psa03 value="0.0277160894" flag="0"/>
      <psa10 value="0.0036024286" flag="0"/>
      <psa30 value="0.0004056810" flag="0"/>
    </comp>
    <comp name="00.HHZ">
      <acc value="0.0036056486" flag="0"/>
      <vel value="0.0018103147" flag="0"/>
      <psa03 value="0.0100965153" flag="0"/>
      <psa10 value="0.0020663447" flag="0"/>
      <psa30 value="0.0002550432" flag="0"/>
    </comp>
  </station>
  <station code="MG00" name="MG00" netid="CL" source="RESIF" insttype="40" lat="38.4145" lon="21.9467">
    <comp name="00.HHE">
      <acc value="0.0402617953" flag="0"/>
      <vel value="0.0176074360" flag="0"/>
      <psa03 value="0.0850721398" flag="0"/>
      <psa10 value="0.0073248249" flag="0"/>
      <psa30 value="0.0006443361" flag="0"/>
    </comp>
    <comp name="00.HHN">
      <acc value="0.0447366085" flag="0"/>
      <vel value="0.0237670717" flag="0"/>
      <psa03 value="0.1930033454" flag="0"/>
      <psa10 value="0.0121531037" flag="0"/>
      <psa30 value="0.0013993355" flag="0"/>
    </comp>
    <comp name="00.HHZ">
      <acc value="0.0204142563" flag="0"/>
      <vel value="0.0069878146" flag="0"/>
      <psa03 value="0.0430780306" flag="0"/>
      <psa10 value="0.0045511624" flag="0"/>
      <psa30 value="0.0003370051" flag="0"/>
    </comp>
  </station>
  <station code="MG02" name="MG02" netid="CL" source="RESIF" insttype="40" lat="38.415" lon="21.947">
    <comp name="02.HHE">
      <acc value="0.0377035421" flag="0"/>
      <vel value="0.0210163216" flag="0"/>
      <psa03 value="0.1132281825" flag="0"/>
      <psa10 value="0.0100233469" flag="0"/>
      <psa30 value="0.0008236906" flag="0"/>
    </comp>
    <comp name="02.HHN">
      <acc value="0.0261804767" flag="0"/>
      <vel value="0.0144837742" flag="0"/>
      <psa03 value="0.0843131837" flag="0"/>
      <psa10 value="0.0061084287" flag="0"/>
      <psa30 value="0.0007102645" flag="0"/>
    </comp>
    <comp name="02.HHZ">
      <acc value="0.0295816873" flag="0"/>
      <vel value="0.0113274890" flag="0"/>
      <psa03 value="0.0671023941" flag="0"/>
      <psa10 value="0.0043184780" flag="0"/>
      <psa30 value="0.0004405084" flag="0"/>
    </comp>
  </station>
  <station code="MG03" name="MG03" netid="CL" source="RESIF" insttype="40" lat="38.4141" lon="21.946">
    <comp name="03.HHE">
      <acc value="0.0317498982" flag="0"/>
      <vel value="0.0156262887" flag="0"/>
      <psa03 value="0.1101513327" flag="0"/>
      <psa10 value="0.0076248825" flag="0"/>
      <psa30 value="0.0005748038" flag="0"/>
    </comp>
    <comp name="03.HHN">
      <acc value="0.0173095648" flag="0"/>
      <vel value="0.0073282862" flag="0"/>
      <psa03 value="0.0571374881" flag="0"/>
      <psa10 value="0.0032143483" flag="0"/>
      <psa30 value="0.0006289785" flag="0"/>
    </comp>
    <comp name="03.HHZ">
      <acc value="0.0151158410" flag="0"/>
      <vel value="0.0044024891" flag="0"/>
      <psa03 value="0.0252400574" flag="0"/>
      <psa10 value="0.0035775746" flag="0"/>
      <psa30 value="0.0002945457" flag="0"/>
    </comp>
  </station>
  <station code="MG04" name="MG04" netid="CL" source="RESIF" insttype="40" lat="38.4142" lon="21.9481">
    <comp name="04.HHE">
      <acc value="0.0438735815" flag="0"/>
      <vel value="0.0155769240" flag="0"/>
      <psa03 value="0.0688310492" flag="0"/>
      <psa10 value="0.0076759795" flag="0"/>
      <psa30 value="0.0006438273" flag="0"/>
    </comp>
    <comp name="04.HHN">
      <acc value="0.0374960398" flag="0"/>
      <vel value="0.0152737768" flag="0"/>
      <psa03 value="0.0846564151" flag="0"/>
      <psa10 value="0.0074012211" flag="0"/>
      <psa30 value="0.0012967075" flag="0"/>
    </comp>
    <comp name="04.HHZ">
      <acc value="0.0170953241" flag="0"/>
      <vel value="0.0064074888" flag="0"/>
      <psa03 value="0.0501840275" flag="0"/>
      <psa10 value="0.0040633397" flag="0"/>
      <psa30 value="0.0003097473" flag="0"/>
    </comp>
  </station>
  <station code="MG05" name="MG05" netid="CL" source="RESIF" insttype="30" lat="38.4155" lon="21.9458">
    <comp name="05.HHE">
      <acc value="0.0808507341" flag="0"/>
      <vel value="0.0398848188" flag="0"/>
      <psa03 value="0.2709026473" flag="0"/>
      <psa10 value="0.0186467081" flag="0"/>
      <psa30 value="0.0018426596" flag="0"/>
    </comp>
    <comp name="05.HHN">
      <acc value="0.0859292040" flag="0"/>
      <vel value="0.0427836933" flag="0"/>
      <psa03 value="0.2056550685" flag="0"/>
      <psa10 value="0.0244462894" flag="0"/>
      <psa30 value="0.0020907903" flag="0"/>
    </comp>
    <comp name="05.HHZ">
      <acc value="0.0413280917" flag="0"/>
      <vel value="0.0227912638" flag="0"/>
      <psa03 value="0.1633362638" flag="0"/>
      <psa10 value="0.0126642843" flag="0"/>
      <psa30 value="0.0007141698" flag="0"/>
    </comp>
  </station>
  <station code="MG06" name="MG06" netid="CL" source="RESIF" insttype="40" lat="38.4129" lon="21.9462">
    <comp name="06.HHE">
      <acc value="0.0205891558" flag="0"/>
      <vel value="0.0067857547" flag="0"/>
      <psa03 value="0.0336744070" flag="0"/>
      <psa10 value="0.0030987444" flag="0"/>
      <psa30 value="0.0012351097" flag="0"/>
    </comp>
    <comp name="06.HHN">
      <acc value="0.0188433563" flag="0"/>
      <vel value="0.0062941184" flag="0"/>
      <psa03 value="0.0342909825" flag="0"/>
      <psa10 value="0.0044131676" flag="0"/>
      <psa30 value="0.0004382404" flag="0"/>
    </comp>
    <comp name="06.HHZ">
      <acc value="0.0082756093" flag="0"/>
      <vel value="0.0037967806" flag="0"/>
      <psa03 value="0.0195936786" flag="0"/>
      <psa10 value="0.0034789385" flag="0"/>
      <psa30 value="0.0002682988" flag="0"/>
    </comp>
  </station>
  <station code="MG07" name="MG07" netid="CL" source="RESIF" insttype="40" lat="38.4155" lon="21.9488">
    <comp name="07.HHE">
      <acc value="0.0518432168" flag="0"/>
      <vel value="0.0237243998" flag="0"/>
      <psa03 value="0.1065089583" flag="0"/>
      <psa10 value="0.0135860730" flag="0"/>
      <psa30 value="0.0010260302" flag="0"/>
    </comp>
    <comp name="07.HHN">
      <acc value="0.0336125406" flag="0"/>
      <vel value="0.0234759852" flag="0"/>
      <psa03 value="0.1174172489" flag="0"/>
      <psa10 value="0.0114752771" flag="0"/>
      <psa30 value="0.0013950302" flag="0"/>
    </comp>
    <comp name="07.HHZ">
      <acc value="0.0208717982" flag="0"/>
      <vel value="0.0081787625" flag="0"/>
      <psa03 value="0.0407988253" flag="0"/>
      <psa10 value="0.0050885463" flag="0"/>
      <psa30 value="0.0003604517" flag="0"/>
    </comp>
  </station>
  <station code="PSAM" name="PSAM" netid="CL" source="RESIF" insttype="30" lat="38.3322" lon="22.1843">
    <comp name="00.HHE">
      <acc value="0.0203471664" flag="0"/>
      <vel value="0.0169383455" flag="0"/>
      <psa03 value="0.0429429635" flag="0"/>
      <psa10 value="0.0146446623" flag="0"/>
      <psa30 value="0.0015573854" flag="0"/>
    </comp>
    <comp name="00.HHN">
      <acc value="0.0130331631" flag="0"/>
      <vel value="0.0134331268" flag="0"/>
      <psa03 value="0.0268655512" flag="0"/>
      <psa10 value="0.0190404498" flag="0"/>
      <psa30 value="0.0017548165" flag="0"/>
    </comp>
    <comp name="00.HHZ">
      <acc value="0.0127315289" flag="0"/>
      <vel value="0.0061373484" flag="0"/>
      <psa03 value="0.0187603656" flag="0"/>
      <psa10 value="0.0043289787" flag="0"/>
      <psa30 value="0.0004103569" flag="0"/>
    </comp>
  </station>
  <station code="ROD3" name="ROD3" netid="CL" source="RESIF" insttype="with" lat="38.3081" lon="21.892">
    <comp name="00.HNE">
      <acc value="0.0199739707" flag="0"/>
      <vel value="0.0095251235" flag="0"/>
      <psa03 value="0.0661281753" flag="0"/>
      <psa10 value="0.0039471106" flag="0"/>
      <psa30 value="0.0004931844" flag="0"/>
    </comp>
    <comp name="00.HNN">
      <acc value="0.0250120602" flag="0"/>
      <vel value="0.0109211690" flag="0"/>
      <psa03 value="0.0852985727" flag="0"/>
      <psa10 value="0.0051789147" flag="0"/>
      <psa30 value="0.0005358168" flag="0"/>
    </comp>
    <comp name="00.HNZ">
      <acc value="0.0094291107" flag="0"/>
      <vel value="0.0043787498" flag="0"/>
      <psa03 value="0.0132821207" flag="0"/>
      <psa10 value="0.0024589365" flag="0"/>
      <psa30 value="0.0003770462" flag="0"/>
    </comp>
  </station>
  <station code="KLV" name="KLV" netid="MN" source="INGV" insttype="" lat="38.0437" lon="22.1504">
    <comp name="--.HHE">
      <acc value="0.0080852293" flag="0"/>
      <vel value="0.0092689158" flag="0"/>
      <psa03 value="0.0212877008" flag="0"/>
      <psa10 value="0.0107828252" flag="0"/>
      <psa30 value="0.0013296150" flag="0"/>
    </comp>
    <comp name="--.HHN">
      <acc value="0.0143457450" flag="0"/>
      <vel value="0.0100400820" flag="0"/>
      <psa03 value="0.0320753402" flag="0"/>
      <psa10 value="0.0127068252" flag="0"/>
      <psa30 value="0.0009171834" flag="0"/>
    </comp>
    <comp name="--.HHZ">
      <acc value="0.0054492532" flag="0"/>
      <vel value="0.0031581317" flag="0"/>
      <psa03 value="0.0113457141" flag="0"/>
      <psa10 value="0.0052499614" flag="0"/>
      <psa30 value="0.0004413425" flag="0"/>
    </comp>
  </station>
</stationlist>
