<stationlist xmlns:esm="https://esm-db.eu/esmws/shakemap/1/" created="1781661267">
	<station code="ARS1" name="ARS1" netid="HI" source="ITSAK Strong Motion Network" insttype="" lat="37.6349" lon="22.7293" esm:processing="manual (Paolucci et al 2011)" esm:quality="good">
		<comp name="--.HNE" depth="0.0">
			<acc value="0.0121721204436733" flag="0"/>
			<vel value="0.0120411532901548" flag="0"/>
			<psa03 value="0.0357937652946174" flag="0"/>
			<psa10 value="0.0177299942166225" flag="0"/>
			<psa30 value="0.000973590416013593" flag="0"/>
		</comp>
		<comp name="--.HNN" depth="0.0">
			<acc value="0.0116008056574097" flag="0"/>
			<vel value="0.0111157557224661" flag="0"/>
			<psa03 value="0.0495296227264268" flag="0"/>
			<psa10 value="0.00962404864359026" flag="0"/>
			<psa30 value="0.00141519599533594" flag="0"/>
		</comp>
		<comp name="--.HNZ" depth="0.0">
			<acc value="0.00711344202887173" flag="0"/>
			<vel value="0.00583805896638574" flag="0"/>
			<psa03 value="0.0297535674011507" flag="0"/>
			<psa10 value="0.00569792001283691" flag="0"/>
			<psa30 value="0.00115569119694996" flag="0"/>
		</comp>
	</station>
	<station code="ATH5" name="ATH5" netid="HI" source="ITSAK Strong Motion Network" insttype="" lat="37.975421" lon="23.737098" esm:processing="manual (Paolucci et al 2011)" esm:quality="good">
		<comp name="--.HNE" depth="0.0">
			<acc value="0.0450945896062072" flag="0"/>
			<vel value="0.0279206139086086" flag="0"/>
			<psa03 value="0.0510061155448298" flag="0"/>
			<psa10 value="0.0209433794959468" flag="0"/>
			<psa30 value="0.00119998598150205" flag="0"/>
		</comp>
		<comp name="--.HNN" depth="0.0">
			<acc value="0.0280672160159272" flag="0"/>
			<vel value="0.0170473866785711" flag="0"/>
			<psa03 value="0.0705137176303963" flag="0"/>
			<psa10 value="0.0155434425791876" flag="0"/>
			<psa30 value="0.00160669263966214" flag="0"/>
		</comp>
		<comp name="--.HNZ" depth="0.0">
			<acc value="0.0100121066861762" flag="0"/>
			<vel value="0.00700321307456592" flag="0"/>
			<psa03 value="0.0190601800193838" flag="0"/>
			<psa10 value="0.0103931671753583" flag="0"/>
			<psa30 value="0.000865761698063558" flag="0"/>
		</comp>
	</station>
	<station code="KLV1" name="KLV1" netid="HI" source="ITSAK Strong Motion Network" insttype="" lat="38.03256" lon="22.10797" esm:processing="manual (Paolucci et al 2011)" esm:quality="best">
		<comp name="--.HNE" depth="0.0">
			<acc value="0.0196415963385994" flag="0"/>
			<vel value="0.0175141197796359" flag="0"/>
			<psa03 value="0.0681423806796279" flag="0"/>
			<psa10 value="0.0196467503481493" flag="0"/>
			<psa30 value="0.00148767837005754" flag="0"/>
		</comp>
		<comp name="--.HNN" depth="0.0">
			<acc value="0.0261271064993143" flag="0"/>
			<vel value="0.0187483091804609" flag="0"/>
			<psa03 value="0.0808491673592171" flag="0"/>
			<psa10 value="0.01474613645725" flag="0"/>
			<psa30 value="0.00178789857646614" flag="0"/>
		</comp>
		<comp name="--.HNZ" depth="0.0">
			<acc value="0.00980737956438024" flag="0"/>
			<vel value="0.0073602944398125" flag="0"/>
			<psa03 value="0.0226842987554638" flag="0"/>
			<psa10 value="0.0112226876860611" flag="0"/>
			<psa30 value="0.000996408941388912" flag="0"/>
		</comp>
	</station>
	<station code="DLFA" name="DLFA" netid="HL" source="National Observatory of Athens Seismic Network" insttype="" lat="38.47836" lon="22.49583" esm:processing="manual (Paolucci et al 2011)" esm:quality="best">
		<comp name="00.HNE" depth="0.0">
			<acc value="0.132508142592837" flag="0"/>
			<vel value="0.0418047064185057" flag="0"/>
			<psa03 value="0.155792363444822" flag="0"/>
			<psa10 value="0.0230534219600645" flag="0"/>
			<psa30 value="0.00207961776361727" flag="0"/>
		</comp>
		<comp name="00.HNN" depth="0.0">
			<acc value="0.120183978940634" flag="0"/>
			<vel value="0.037725548104226" flag="0"/>
			<psa03 value="0.175971098629663" flag="0"/>
			<psa10 value="0.0175810026685837" flag="0"/>
			<psa30 value="0.0014058001319461" flag="0"/>
		</comp>
		<comp name="00.HNZ" depth="0.0">
			<acc value="0.103130058473192" flag="0"/>
			<vel value="0.0251211984454133" flag="0"/>
			<psa03 value="0.0816097848717277" flag="0"/>
			<psa10 value="0.0129662914779752" flag="0"/>
			<psa30 value="0.000896186398563983" flag="0"/>
		</comp>
	</station>
	<station code="KYMI" name="KYMI" netid="HL" source="National Observatory of Athens Seismic Network" insttype="" lat="38.633147" lon="24.100138" esm:processing="manual (Paolucci et al 2011)" esm:quality="best">
		<comp name="--.HNE" depth="1.0">
			<acc value="0.0121025669256236" flag="0"/>
			<vel value="0.00624221959756717" flag="0"/>
			<psa03 value="0.0378966490056762" flag="0"/>
			<psa10 value="0.00796098082358909" flag="0"/>
			<psa30 value="0.000453685975109275" flag="0"/>
		</comp>
		<comp name="--.HNN" depth="1.0">
			<acc value="0.0133536003342986" flag="0"/>
			<vel value="0.0080625169447472" flag="0"/>
			<psa03 value="0.0511850843713029" flag="0"/>
			<psa10 value="0.00773950690082865" flag="0"/>
			<psa30 value="0.000486347785940614" flag="0"/>
		</comp>
		<comp name="--.HNZ" depth="1.0">
			<acc value="0.0075024655500548" flag="0"/>
			<vel value="0.00328664347685207" flag="0"/>
			<psa03 value="0.0226842987554638" flag="0"/>
			<psa10 value="0.00837574107894047" flag="0"/>
			<psa30 value="0.000365096406005097" flag="0"/>
		</comp>
	</station>
	<station code="NOAC" name="NOAC" netid="HL" source="National Observatory of Athens Seismic Network" insttype="" lat="37.97384" lon="23.71767" esm:processing="manual (Paolucci et al 2011)" esm:quality="best">
		<comp name="00.HNE" depth="0.0">
			<acc value="0.043185165651674" flag="0"/>
			<vel value="0.0202088683134796" flag="0"/>
			<psa03 value="0.0723481481017454" flag="0"/>
			<psa10 value="0.0228037604471346" flag="0"/>
			<psa30 value="0.0012814167975473" flag="0"/>
		</comp>
		<comp name="00.HNN" depth="0.0">
			<acc value="0.0280997362685126" flag="0"/>
			<vel value="0.0186078123848955" flag="0"/>
			<psa03 value="0.114450564529539" flag="0"/>
			<psa10 value="0.00888714450058732" flag="0"/>
			<psa30 value="0.00145814851368948" flag="0"/>
		</comp>
		<comp name="00.HNZ" depth="0.0">
			<acc value="0.0211163930611504" flag="0"/>
			<vel value="0.00985070896151576" flag="0"/>
			<psa03 value="0.0473372546021315" flag="0"/>
			<psa10 value="0.0095555930674643" flag="0"/>
			<psa30 value="0.00100535738271257" flag="0"/>
		</comp>
	</station>
	<station code="PATC" name="PATC" netid="HL" source="National Observatory of Athens Seismic Network" insttype="" lat="38.26933" lon="21.76001" esm:processing="manual (Paolucci et al 2011)" esm:quality="best">
		<comp name="00.HNE" depth="0.0">
			<acc value="0.0122605990220764" flag="0"/>
			<vel value="0.00844190975949393" flag="0"/>
			<psa03 value="0.0331987173107576" flag="0"/>
			<psa10 value="0.014440099763981" flag="0"/>
			<psa30 value="0.00109842117247857" flag="0"/>
		</comp>
		<comp name="00.HNN" depth="0.0">
			<acc value="0.0122546937385766" flag="0"/>
			<vel value="0.0083017932557657" flag="0"/>
			<psa03 value="0.032438099798247" flag="0"/>
			<psa10 value="0.0166185978042247" flag="0"/>
			<psa30 value="0.00158924317908101" flag="0"/>
		</comp>
		<comp name="00.HNZ" depth="0.0">
			<acc value="0.00737714099108106" flag="0"/>
			<vel value="0.00567449994801784" flag="0"/>
			<psa03 value="0.0155702879031586" flag="0"/>
			<psa10 value="0.0085327862241706" flag="0"/>
			<psa30 value="0.000599098146618659" flag="0"/>
		</comp>
	</station>
	<station code="PATG" name="PATG" netid="HL" source="National Observatory of Athens Seismic Network" insttype="" lat="38.23865" lon="21.72657" esm:processing="manual (Paolucci et al 2011)" esm:quality="good">
		<comp name="00.HNE" depth="0.0">
			<acc value="0.0129313782795007" flag="0"/>
			<vel value="0.00860216808206871" flag="0"/>
			<psa03 value="0.0204024462179319" flag="0"/>
			<psa10 value="0.0158696132654348" flag="0"/>
			<psa30 value="0.00132660642623176" flag="0"/>
		</comp>
		<comp name="00.HNN" depth="0.0">
			<acc value="0.0125886389729612" flag="0"/>
			<vel value="0.00915107604552148" flag="0"/>
			<psa03 value="0.0342277880629779" flag="0"/>
			<psa10 value="0.0145045285415113" flag="0"/>
			<psa30 value="0.00281338995215693" flag="0"/>
		</comp>
		<comp name="00.HNZ" depth="0.0">
			<acc value="0.00909525266106606" flag="0"/>
			<vel value="0.00488245237378928" flag="0"/>
			<psa03 value="0.0137358574318094" flag="0"/>
			<psa10 value="0.00963612903937719" flag="0"/>
			<psa30 value="0.000668001144810797" flag="0"/>
		</comp>
	</station>
	<station code="ANX" name="ANX" netid="HP" source="University of Patras, Seismological Laboratory (PSLNET)" insttype="" lat="38.5933" lon="21.9209" esm:processing="manual (Paolucci et al 2011)" esm:quality="best">
		<comp name="--.HNE" depth="0.0">
			<acc value="0.0445328638428823" flag="0"/>
			<vel value="0.0206542356944309" flag="0"/>
			<psa03 value="0.0671580521340259" flag="0"/>
			<psa10 value="0.0211406926271334" flag="0"/>
			<psa30 value="0.000981644013204882" flag="0"/>
		</comp>
		<comp name="--.HNN" depth="0.0">
			<acc value="0.0285059576398729" flag="0"/>
			<vel value="0.0157638796226148" flag="0"/>
			<psa03 value="0.105323154379412" flag="0"/>
			<psa10 value="0.0272211585065565" flag="0"/>
			<psa30 value="0.00113555720397174" flag="0"/>
		</comp>
		<comp name="--.HNZ" depth="0.0">
			<acc value="0.0169854585141782" flag="0"/>
			<vel value="0.00926835278961432" flag="0"/>
			<psa03 value="0.0399100483034984" flag="0"/>
			<psa10 value="0.0126441475903236" flag="0"/>
			<psa30 value="0.000548092031073829" flag="0"/>
		</comp>
	</station>
	<station code="GUR" name="GUR" netid="HP" source="University of Patras, Seismological Laboratory (PSLNET)" insttype="" lat="37.9363" lon="22.3423" esm:processing="manual (Paolucci et al 2011)" esm:quality="best">
		<comp name="--.HNE" depth="0.0">
			<acc value="0.0384243243141183" flag="0"/>
			<vel value="0.0298034506405421" flag="0"/>
			<psa03 value="0.110826445793459" flag="0"/>
			<psa10 value="0.0282520189470415" flag="0"/>
			<psa30 value="0.00169080798810449" flag="0"/>
		</comp>
		<comp name="--.HNN" depth="0.0">
			<acc value="0.0497951787219392" flag="0"/>
			<vel value="0.0394751755683777" flag="0"/>
			<psa03 value="0.137179605491621" flag="0"/>
			<psa10 value="0.0204802976574477" flag="0"/>
			<psa30 value="0.00156284527717623" flag="0"/>
		</comp>
		<comp name="--.HNZ" depth="0.0">
			<acc value="0.0210209310456881" flag="0"/>
			<vel value="0.0125492660515113" flag="0"/>
			<psa03 value="0.0537801323551627" flag="0"/>
			<psa10 value="0.014315269007516" flag="0"/>
			<psa30 value="0.000650999106295854" flag="0"/>
		</comp>
	</station>
	<station code="PVO" name="PVO" netid="HP" source="University of Patras, Seismological Laboratory (PSLNET)" insttype="" lat="38.616" lon="21.525" esm:processing="manual (Paolucci et al 2011)" esm:quality="best">
		<comp name="--.HNE" depth="0.0">
			<acc value="0.0016851155591175" flag="0"/>
			<vel value="0.00125134373328834" flag="0"/>
			<psa03 value="0.00425050962873582" flag="0"/>
			<psa10 value="0.00237178437283459" flag="0"/>
			<psa30 value="0.000154360612833038" flag="0"/>
		</comp>
		<comp name="--.HNN" depth="0.0">
			<acc value="0.00173701782179315" flag="0"/>
			<vel value="0.00151955602315807" flag="0"/>
			<psa03 value="0.00420576742211754" flag="0"/>
			<psa10 value="0.00248453473351263" flag="0"/>
			<psa30 value="0.000257715110121245" flag="0"/>
		</comp>
		<comp name="--.HNZ" depth="0.0">
			<acc value="0.00196041275141441" flag="0"/>
			<vel value="0.00196164418912856" flag="0"/>
			<psa03 value="0.00322143887651557" flag="0"/>
			<psa10 value="0.00448182683695228" flag="0"/>
			<psa30 value="0.000230869786150282" flag="0"/>
		</comp>
	</station>
</stationlist>
