<?xml version="1.0" encoding="UTF-8" standalone="yes"?>
<!DOCTYPE earthquake SYSTEM "stationlist.dtd">
<stationlist created="" xmlns="ch.ethz.sed.shakemap.usgs.xml">
  <station code="SMG" name="SMG" netid="HL" insttype="120" lat="37.7043" lon="26.8377">
    <comp name="--.HHZ">
      <acc value="0.0373115002" flag="0"/>
      <vel value="0.0165149813" flag="0"/>
      <psa03 value="0.0838003809" flag="0"/>
      <psa10 value="0.0080899034" flag="0"/>
      <psa30 value="0.0008345678" flag="0"/>
    </comp>
    <comp name="--.HHE">
      <acc value="0.0812452607" flag="0"/>
      <vel value="0.0350790116" flag="0"/>
      <psa03 value="0.2864971455" flag="0"/>
      <psa10 value="0.0268925651" flag="0"/>
      <psa30 value="0.0016336800" flag="0"/>
    </comp>
    <comp name="--.HHN">
      <acc value="0.0864459947" flag="0"/>
      <vel value="0.0567942236" flag="0"/>
      <psa03 value="0.2433685959" flag="0"/>
      <psa10 value="0.0312052294" flag="0"/>
      <psa30 value="0.0026113585" flag="0"/>
    </comp>
  </station>
  <station code="AKS" name="AKS" netid="KO" insttype="CMG-5T" lat="38.8785" lon="27.8129">
    <comp name="--.HNE">
      <acc value="0.0655650589" flag="0"/>
      <vel value="0.0219267753" flag="0"/>
      <psa03 value="0.0849034687" flag="0"/>
      <psa10 value="0.0177908643" flag="0"/>
      <psa30 value="0.0008778034" flag="0"/>
    </comp>
    <comp name="--.HNZ">
      <acc value="0.0716863923" flag="0"/>
      <vel value="0.0143888124" flag="0"/>
      <psa03 value="0.0559721339" flag="0"/>
      <psa10 value="0.0093292567" flag="0"/>
      <psa30 value="0.0004776979" flag="0"/>
    </comp>
    <comp name="--.HNN">
      <acc value="0.0991274851" flag="0"/>
      <vel value="0.0274788423" flag="0"/>
      <psa03 value="0.1078173933" flag="0"/>
      <psa10 value="0.0259178098" flag="0"/>
      <psa30 value="0.0018763335" flag="0"/>
    </comp>
  </station>
  <station code="BLCB" name="BLCB" netid="KO" insttype="CMG-3T" lat="38.3853" lon="27.042">
    <comp name="--.HHE">
      <acc value="0.1795661063" flag="0"/>
      <vel value="0.0473209949" flag="0"/>
      <psa03 value="0.2258660169" flag="0"/>
      <psa10 value="0.0246977131" flag="0"/>
      <psa30 value="0.0014173890" flag="0"/>
    </comp>
    <comp name="--.HHN">
      <acc value="0.0000759839" flag="0"/>
      <vel value="0.0000239455" flag="0"/>
      <psa03 value="0.0001130711" flag="0"/>
      <psa10 value="0.0000154962" flag="0"/>
      <psa30 value="0.0000010185" flag="0"/>
    </comp>
    <comp name="--.HHZ">
      <acc value="0.1563125473" flag="0"/>
      <vel value="0.0278543268" flag="0"/>
      <psa03 value="0.1563008257" flag="0"/>
      <psa10 value="0.0147333831" flag="0"/>
      <psa30 value="0.0010341561" flag="0"/>
    </comp>
  </station>
  <station code="FOCM" name="FOCM" netid="KO" insttype="CMG-5T" lat="38.7131" lon="26.7309">
    <comp name="--.HNZ">
      <acc value="0.0665505945" flag="0"/>
      <vel value="0.0289327731" flag="0"/>
      <psa03 value="0.1550743132" flag="0"/>
      <psa10 value="0.0147327929" flag="0"/>
      <psa30 value="0.0008262083" flag="0"/>
    </comp>
    <comp name="--.HNN">
      <acc value="0.1060881776" flag="0"/>
      <vel value="0.0490141963" flag="0"/>
      <psa03 value="0.2166209535" flag="0"/>
      <psa10 value="0.0364778197" flag="0"/>
      <psa30 value="0.0023440514" flag="0"/>
    </comp>
    <comp name="--.HNE">
      <acc value="0.1503125031" flag="0"/>
      <vel value="0.0633937302" flag="0"/>
      <psa03 value="0.2810943069" flag="0"/>
      <psa10 value="0.0310266012" flag="0"/>
      <psa30 value="0.0022942886" flag="0"/>
    </comp>
  </station>
  <station code="GOMA" name="GOMA" netid="KO" insttype="CMG-5T" lat="38.7077" lon="27.9175">
    <comp name="--.HNN">
      <acc value="0.0580729266" flag="0"/>
      <vel value="0.0238582681" flag="0"/>
      <psa03 value="0.1051797350" flag="0"/>
      <psa10 value="0.0135981853" flag="0"/>
      <psa30 value="0.0012723600" flag="0"/>
    </comp>
    <comp name="--.HNE">
      <acc value="0.0554978686" flag="0"/>
      <vel value="0.0274703713" flag="0"/>
      <psa03 value="0.1736943634" flag="0"/>
      <psa10 value="0.0128566305" flag="0"/>
      <psa30 value="0.0013609615" flag="0"/>
    </comp>
    <comp name="--.HNZ">
      <acc value="0.0633072245" flag="0"/>
      <vel value="0.0153522057" flag="0"/>
      <psa03 value="0.1412722104" flag="0"/>
      <psa10 value="0.0110911439" flag="0"/>
      <psa30 value="0.0009963047" flag="0"/>
    </comp>
  </station>
  <station code="GORD" name="GORD" netid="KO" insttype="CMG-5T" lat="38.9088" lon="28.1769">
    <comp name="--.HNE">
      <acc value="0.0534776119" flag="0"/>
      <vel value="0.0372912391" flag="0"/>
      <psa03 value="0.0938795190" flag="0"/>
      <psa10 value="0.0453494594" flag="0"/>
      <psa30 value="0.0023689870" flag="0"/>
    </comp>
  </station>
  <station code="KULA" name="KULA" netid="KO" insttype="CMG-3T" lat="38.5145" lon="28.6607">
    <comp name="--.HHE">
      <acc value="0.0319405906" flag="0"/>
      <vel value="0.0122670484" flag="0"/>
      <psa03 value="0.0552693920" flag="0"/>
      <psa10 value="0.0057538245" flag="0"/>
      <psa30 value="0.0005348928" flag="0"/>
    </comp>
    <comp name="--.HHZ">
      <acc value="0.0209169089" flag="0"/>
      <vel value="0.0073925439" flag="0"/>
      <psa03 value="0.0362425869" flag="0"/>
      <psa10 value="0.0035779652" flag="0"/>
      <psa30 value="0.0006014505" flag="0"/>
    </comp>
    <comp name="--.HHN">
      <acc value="0.0588372805" flag="0"/>
      <vel value="0.0174880248" flag="0"/>
      <psa03 value="0.1005675627" flag="0"/>
      <psa10 value="0.0112267689" flag="0"/>
      <psa30 value="0.0007383588" flag="0"/>
    </comp>
  </station>
  <station code="KUSD" name="KUSD" netid="KO" insttype="CMG-5T" lat="37.8606" lon="27.2868">
    <comp name="--.HNN">
      <acc value="0.1266750780" flag="0"/>
      <vel value="0.0704710345" flag="0"/>
      <psa03 value="0.4137628591" flag="0"/>
      <psa10 value="0.0773422844" flag="0"/>
      <psa30 value="0.0044483776" flag="0"/>
    </comp>
    <comp name="--.HNZ">
      <acc value="0.0406281064" flag="0"/>
      <vel value="0.0229023115" flag="0"/>
      <psa03 value="0.0917722172" flag="0"/>
      <psa10 value="0.0179796665" flag="0"/>
      <psa30 value="0.0020449686" flag="0"/>
    </comp>
    <comp name="--.HNE">
      <acc value="0.0704226560" flag="0"/>
      <vel value="0.0495498906" flag="0"/>
      <psa03 value="0.1851356407" flag="0"/>
      <psa10 value="0.0530888733" flag="0"/>
      <psa30 value="0.0039992336" flag="0"/>
    </comp>
  </station>
  <station code="MLSB" name="MLSB" netid="KO" insttype="CMG-3ESP" lat="37.2953" lon="27.7767">
    <comp name="--.HHE">
      <acc value="0.0156644940" flag="0"/>
      <vel value="0.0112110414" flag="0"/>
      <psa03 value="0.0488160206" flag="0"/>
      <psa10 value="0.0169653371" flag="0"/>
      <psa30 value="0.0015140128" flag="0"/>
    </comp>
    <comp name="--.HHZ">
      <acc value="0.0138427357" flag="0"/>
      <vel value="0.0081824004" flag="0"/>
      <psa03 value="0.0392649645" flag="0"/>
      <psa10 value="0.0151462941" flag="0"/>
      <psa30 value="0.0016112239" flag="0"/>
    </comp>
    <comp name="--.HHN">
      <acc value="0.0160906457" flag="0"/>
      <vel value="0.0097423537" flag="0"/>
      <psa03 value="0.0403550837" flag="0"/>
      <psa10 value="0.0148499626" flag="0"/>
      <psa30 value="0.0017155967" flag="0"/>
    </comp>
  </station>
  <station code="NAZL" name="NAZL" netid="KO" insttype="CMG-5T" lat="37.9641" lon="28.2922">
    <comp name="--.HNE">
      <acc value="0.4078750303" flag="0"/>
      <vel value="0.1057764969" flag="0"/>
      <psa03 value="0.8855006776" flag="0"/>
      <psa10 value="0.0377488732" flag="0"/>
      <psa30 value="0.0029230388" flag="0"/>
    </comp>
    <comp name="--.HNN">
      <acc value="0.4740350120" flag="0"/>
      <vel value="0.0951894572" flag="0"/>
      <psa03 value="0.4536782952" flag="0"/>
      <psa10 value="0.0274828435" flag="0"/>
      <psa30 value="0.0024141946" flag="0"/>
    </comp>
    <comp name="--.HNZ">
      <acc value="0.1622232413" flag="0"/>
      <vel value="0.0441525701" flag="0"/>
      <psa03 value="0.1834338857" flag="0"/>
      <psa10 value="0.0114823944" flag="0"/>
      <psa30 value="0.0006805037" flag="0"/>
    </comp>
  </station>
  <station code="ODEM" name="ODEM" netid="KO" insttype="CMG-5T" lat="38.2762" lon="28.0747">
    <comp name="--.HNE">
      <acc value="0.4551999035" flag="0"/>
      <vel value="0.1122395334" flag="0"/>
      <psa03 value="0.3788616678" flag="0"/>
      <psa10 value="0.0221129571" flag="0"/>
      <psa30 value="0.0025976267" flag="0"/>
    </comp>
    <comp name="--.HNZ">
      <acc value="0.3090187202" flag="0"/>
      <vel value="0.0697815672" flag="0"/>
      <psa03 value="0.2545520059" flag="0"/>
      <psa10 value="0.0194413496" flag="0"/>
      <psa30 value="0.0014543403" flag="0"/>
    </comp>
    <comp name="--.HNN">
      <acc value="0.4496757299" flag="0"/>
      <vel value="0.1191000458" flag="0"/>
      <psa03 value="0.4050091793" flag="0"/>
      <psa10 value="0.0213240122" flag="0"/>
      <psa30 value="0.0026045635" flag="0"/>
    </comp>
  </station>
  <station code="SOMA" name="SOMA" netid="KO" insttype="CMG-5T" lat="39.1564" lon="27.5341">
    <comp name="--.HNN">
      <acc value="0.0321899017" flag="0"/>
      <vel value="0.0242654801" flag="0"/>
      <psa03 value="0.0655775635" flag="0"/>
      <psa10 value="0.0254414131" flag="0"/>
      <psa30 value="0.0020744678" flag="0"/>
    </comp>
    <comp name="--.HNZ">
      <acc value="0.0380079298" flag="0"/>
      <vel value="0.0135664018" flag="0"/>
      <psa03 value="0.0404936176" flag="0"/>
      <psa10 value="0.0128652942" flag="0"/>
      <psa30 value="0.0013063196" flag="0"/>
    </comp>
    <comp name="--.HNE">
      <acc value="0.0259153163" flag="0"/>
      <vel value="0.0146977013" flag="0"/>
      <psa03 value="0.0515484439" flag="0"/>
      <psa10 value="0.0117257559" flag="0"/>
      <psa30 value="0.0011358656" flag="0"/>
    </comp>
  </station>
  <station code="AYDN" name="AYDN" netid="TU" insttype="T" lat="37.6608" lon="27.8792">
    <comp name="--.HHZ">
      <acc value="0.1344669927" flag="0"/>
      <vel value="0.0562559964" flag="0"/>
      <psa03 value="0.3228469187" flag="0"/>
      <psa10 value="0.0432381335" flag="0"/>
      <psa30 value="0.0025806680" flag="0"/>
    </comp>
    <comp name="--.HHE">
      <acc value="0.3931412132" flag="0"/>
      <vel value="0.1467913189" flag="0"/>
      <psa03 value="0.8760019808" flag="0"/>
      <psa10 value="0.0686789560" flag="0"/>
      <psa30 value="0.0046347591" flag="0"/>
    </comp>
    <comp name="--.HHN">
      <acc value="0.3950317471" flag="0"/>
      <vel value="0.2268805098" flag="0"/>
      <psa03 value="1.5484536661" flag="0"/>
      <psa10 value="0.0874438209" flag="0"/>
      <psa30 value="0.0076832643" flag="0"/>
    </comp>
  </station>
</stationlist>
