<?xml version="1.0" encoding="UTF-8" standalone="yes"?>
<!DOCTYPE earthquake SYSTEM "stationlist.dtd">
<stationlist created="" xmlns="ch.ethz.sed.shakemap.usgs.xml">
  <station code="AYDN" name="AYDN" netid="TU" insttype="T" lat="37.6608" lon="27.8792">
    <comp name="--.HHE">
      <acc value="0.3931412132" flag="0"/>
      <vel value="0.1467913189" flag="0"/>
      <psa03 value="0.8760019808" flag="0"/>
      <psa10 value="0.0686789560" flag="0"/>
      <psa30 value="0.0046347658" flag="0"/>
    </comp>
  </station>
</stationlist>
