<?xml version="1.0" encoding="UTF-8" standalone="yes"?>
<!DOCTYPE earthquake SYSTEM "stationlist.dtd">
<stationlist created="" xmlns="ch.ethz.sed.shakemap.usgs.xml">
  <station code="KARP" name="KARP" netid="GE" insttype="STS-2/N" commtype="DIG" lat="35.5471" lon="27.1611">
    <comp name="--.HHE">
      <acc value="5.4386177736" flag="0"/>
      <vel value="1.1620426057" flag="0"/>
      <psa03 value="3.7988448916" flag="0"/>
      <psa10 value="1.1165170968" flag="0"/>
      <psa30 value="0.0848496079" flag="0"/>
    </comp>
    <comp name="--.HHZ">
      <acc value="2.2517964697" flag="0"/>
      <vel value="0.6178432934" flag="0"/>
      <psa03 value="3.4318068381" flag="0"/>
      <psa10 value="0.5183189296" flag="0"/>
      <psa30 value="0.0374809810" flag="0"/>
    </comp>
    <comp name="--.HHN">
      <acc value="3.3296280566" flag="0"/>
      <vel value="1.1371262989" flag="0"/>
      <psa03 value="5.9874557647" flag="0"/>
      <psa10 value="0.5786760440" flag="0"/>
      <psa30 value="0.0569470093" flag="0"/>
    </comp>
  </station>
  <station code="ZKR" name="ZKR" netid="GE" insttype="STS-2/N" commtype="DIG" lat="35.1147" lon="26.2169">
    <comp name="--.HHN">
      <acc value="0.0736685004" flag="0"/>
      <vel value="0.0660839371" flag="0"/>
      <psa03 value="0.2754157601" flag="0"/>
      <psa10 value="0.1133021581" flag="0"/>
      <psa30 value="0.0062625829" flag="0"/>
    </comp>
    <comp name="--.HHE">
      <acc value="0.1341166957" flag="0"/>
      <vel value="0.1163754276" flag="0"/>
      <psa03 value="0.4719358041" flag="0"/>
      <psa10 value="0.2391674395" flag="0"/>
      <psa30 value="0.0117736915" flag="0"/>
    </comp>
    <comp name="--.HHZ">
      <acc value="0.0915800089" flag="0"/>
      <vel value="0.0885275356" flag="0"/>
      <psa03 value="0.3203237886" flag="0"/>
      <psa10 value="0.2054842861" flag="0"/>
      <psa30 value="0.0111491568" flag="0"/>
    </comp>
  </station>
</stationlist>
