<?xml version="1.0" encoding="UTF-8" standalone="yes"?>
<!DOCTYPE earthquake SYSTEM "stationlist.dtd">
<stationlist created="" xmlns="ch.ethz.sed.shakemap.usgs.xml">
  <station code="KARP" name="KARP" netid="GE" insttype="STS-2/N" commtype="DIG" lat="35.5471" lon="27.1611">
    <comp name="--.HHZ">
      <acc value="2.2517964693" flag="0"/>
      <vel value="0.6178432930" flag="0"/>
      <psa03 value="3.4318068381" flag="0"/>
      <psa10 value="0.5183189114" flag="0"/>
      <psa30 value="0.0374813196" flag="0"/>
    </comp>
    <comp name="--.HHE">
      <acc value="5.4386177744" flag="0"/>
      <vel value="1.1620426036" flag="0"/>
      <psa03 value="3.7988448916" flag="0"/>
      <psa10 value="1.1165171012" flag="0"/>
      <psa30 value="0.0848499583" flag="0"/>
    </comp>
    <comp name="--.HHN">
      <acc value="3.3296280574" flag="0"/>
      <vel value="1.1371263000" flag="0"/>
      <psa03 value="5.9874557647" flag="0"/>
      <psa10 value="0.5786760556" flag="0"/>
      <psa30 value="0.0569467872" flag="0"/>
    </comp>
  </station>
  <station code="ZKR" name="ZKR" netid="GE" insttype="STS-2/N" commtype="DIG" lat="35.1147" lon="26.2169">
    <comp name="--.HHN">
      <acc value="0.0736684999" flag="0"/>
      <vel value="0.0660839356" flag="0"/>
      <psa03 value="0.2754157601" flag="0"/>
      <psa10 value="0.1133021581" flag="0"/>
      <psa30 value="0.0062625690" flag="0"/>
    </comp>
    <comp name="--.HHE">
      <acc value="0.1341166962" flag="0"/>
      <vel value="0.1163754256" flag="0"/>
      <psa03 value="0.4719358041" flag="0"/>
      <psa10 value="0.2391674396" flag="0"/>
      <psa30 value="0.0117736606" flag="0"/>
    </comp>
    <comp name="--.HHZ">
      <acc value="0.0915800096" flag="0"/>
      <vel value="0.0885275346" flag="0"/>
      <psa03 value="0.3203237886" flag="0"/>
      <psa10 value="0.2054842861" flag="0"/>
      <psa30 value="0.0111492064" flag="0"/>
    </comp>
  </station>
</stationlist>
