<?xml version="1.0" encoding="UTF-8" standalone="yes"?>
<!DOCTYPE earthquake SYSTEM "stationlist.dtd">
<stationlist created="" xmlns="ch.ethz.sed.shakemap.usgs.xml">
  <station code="IMMV" name="IMMV" netid="GE" insttype="STS-2/N" lat="35.4606" lon="23.9811">
    <comp name="--.HHE">
      <acc value="0.0121633694" flag="0"/>
      <vel value="0.0056306776" flag="0"/>
      <psa03 value="0.0305333896" flag="0"/>
      <psa10 value="0.0052757580" flag="0"/>
      <psa30 value="0.0003087077" flag="0"/>
    </comp>
    <comp name="--.HHN">
      <acc value="0.0099960066" flag="0"/>
      <vel value="0.0049357533" flag="0"/>
      <psa03 value="0.0303564351" flag="0"/>
      <psa10 value="0.0055477545" flag="0"/>
      <psa30 value="0.0002716165" flag="0"/>
    </comp>
    <comp name="--.HHZ">
      <acc value="0.0059120897" flag="0"/>
      <vel value="0.0035525623" flag="0"/>
      <psa03 value="0.0179979355" flag="0"/>
      <psa10 value="0.0023877123" flag="0"/>
      <psa30 value="0.0001884403" flag="0"/>
    </comp>
  </station>
  <station code="KTHA" name="KTHA" netid="GE" insttype="STS-2/N" lat="36.2566" lon="23.0621">
    <comp name="--.HHN">
      <acc value="0.0055481418" flag="0"/>
      <vel value="0.0033688911" flag="0"/>
      <psa03 value="0.0150389354" flag="0"/>
      <psa10 value="0.0039121551" flag="0"/>
      <psa30 value="0.0003301610" flag="0"/>
    </comp>
    <comp name="--.HHE">
      <acc value="0.0174611351" flag="0"/>
      <vel value="0.0122172262" flag="0"/>
      <psa03 value="0.0363066663" flag="0"/>
      <psa10 value="0.0131670007" flag="0"/>
      <psa30 value="0.0004745006" flag="0"/>
    </comp>
    <comp name="--.HHZ">
      <acc value="0.0046763570" flag="0"/>
      <vel value="0.0035761462" flag="0"/>
      <psa03 value="0.0086489005" flag="0"/>
      <psa10 value="0.0039372202" flag="0"/>
      <psa30 value="0.0003831451" flag="0"/>
    </comp>
  </station>
  <station code="CHAN" name="CHAN" netid="HC" insttype="120" lat="35.5193" lon="24.0428">
    <comp name="--.HHN">
      <acc value="0.0133595518" flag="0"/>
      <vel value="0.0088430449" flag="0"/>
      <psa03 value="0.0435994594" flag="0"/>
      <psa10 value="0.0145656214" flag="0"/>
      <psa30 value="0.0006017306" flag="0"/>
    </comp>
    <comp name="--.HHZ">
      <acc value="0.0096499400" flag="0"/>
      <vel value="0.0057042963" flag="0"/>
      <psa03 value="0.0248683682" flag="0"/>
      <psa10 value="0.0064951269" flag="0"/>
      <psa30 value="0.0003613437" flag="0"/>
    </comp>
    <comp name="--.HHE">
      <acc value="0.0170776259" flag="0"/>
      <vel value="0.0097815449" flag="0"/>
      <psa03 value="0.0543554067" flag="0"/>
      <psa10 value="0.0165325739" flag="0"/>
      <psa30 value="0.0008430553" flag="0"/>
    </comp>
  </station>
  <station code="KNDR" name="KNDR" netid="HC" insttype="120" lat="35.2348" lon="23.6248">
    <comp name="--.HHZ">
      <acc value="0.0110064398" flag="0"/>
      <vel value="0.0057913366" flag="0"/>
      <psa03 value="0.0346438507" flag="0"/>
      <psa10 value="0.0054995878" flag="0"/>
      <psa30 value="0.0003327333" flag="0"/>
    </comp>
    <comp name="--.HHN">
      <acc value="0.0163085570" flag="0"/>
      <vel value="0.0113696830" flag="0"/>
      <psa03 value="0.0469436297" flag="0"/>
      <psa10 value="0.0153803910" flag="0"/>
      <psa30 value="0.0007229272" flag="0"/>
    </comp>
    <comp name="--.HHE">
      <acc value="0.0179799338" flag="0"/>
      <vel value="0.0128286408" flag="0"/>
      <psa03 value="0.0506210916" flag="0"/>
      <psa10 value="0.0144890055" flag="0"/>
      <psa30 value="0.0004961556" flag="0"/>
    </comp>
  </station>
  <station code="KTHR" name="KTHR" netid="HC" insttype="120s" lat="36.2447" lon="22.9939">
    <comp name="--.HHZ">
      <acc value="0.0112921643" flag="0"/>
      <vel value="0.0038506866" flag="0"/>
      <psa03 value="0.0235489117" flag="0"/>
      <psa10 value="0.0043258938" flag="0"/>
      <psa30 value="0.0004392655" flag="0"/>
    </comp>
    <comp name="--.HHE">
      <acc value="0.0230450235" flag="0"/>
      <vel value="0.0103639195" flag="0"/>
      <psa03 value="0.0863838961" flag="0"/>
      <psa10 value="0.0080498589" flag="0"/>
      <psa30 value="0.0005122035" flag="0"/>
    </comp>
    <comp name="--.HHN">
      <acc value="0.0226656673" flag="0"/>
      <vel value="0.0122860223" flag="0"/>
      <psa03 value="0.0798462232" flag="0"/>
      <psa10 value="0.0122443680" flag="0"/>
      <psa30 value="0.0005999459" flag="0"/>
    </comp>
  </station>
  <station code="RODP" name="RODP" netid="HC" insttype="120" lat="35.5604" lon="23.7577">
    <comp name="--.HHZ">
      <acc value="0.0070642221" flag="0"/>
      <vel value="0.0034550483" flag="0"/>
      <psa03 value="0.0251659720" flag="0"/>
      <psa10 value="0.0030880754" flag="0"/>
      <psa30 value="0.0002402773" flag="0"/>
    </comp>
    <comp name="--.HHN">
      <acc value="0.0123823933" flag="0"/>
      <vel value="0.0057594981" flag="0"/>
      <psa03 value="0.0368642547" flag="0"/>
      <psa10 value="0.0066304423" flag="0"/>
      <psa30 value="0.0003519565" flag="0"/>
    </comp>
    <comp name="--.HHE">
      <acc value="0.0136564119" flag="0"/>
      <vel value="0.0082448968" flag="0"/>
      <psa03 value="0.0370131379" flag="0"/>
      <psa10 value="0.0118971536" flag="0"/>
      <psa30 value="0.0006440511" flag="0"/>
    </comp>
  </station>
  <station code="ANKY" name="ANKY" netid="HL" insttype="60" lat="35.867" lon="23.3012">
    <comp name="--.HHE">
      <acc value="0.0127318951" flag="0"/>
      <vel value="0.0083655814" flag="0"/>
      <psa03 value="0.0419851906" flag="0"/>
      <psa10 value="0.0055873582" flag="0"/>
      <psa30 value="0.0003674532" flag="0"/>
    </comp>
    <comp name="--.HHZ">
      <acc value="0.0099953941" flag="0"/>
      <vel value="0.0044972921" flag="0"/>
      <psa03 value="0.0316577681" flag="0"/>
      <psa10 value="0.0035566792" flag="0"/>
      <psa30 value="0.0002963727" flag="0"/>
    </comp>
    <comp name="--.HHN">
      <acc value="0.0133748061" flag="0"/>
      <vel value="0.0085367705" flag="0"/>
      <psa03 value="0.0380490219" flag="0"/>
      <psa10 value="0.0052566690" flag="0"/>
      <psa30 value="0.0004296528" flag="0"/>
    </comp>
  </station>
  <station code="IMMV" name="IMMV" netid="HL" insttype="120" lat="35.4606" lon="23.9811">
    <comp name="--.HHN">
      <acc value="0.0097308070" flag="0"/>
      <vel value="0.0048226886" flag="0"/>
      <psa03 value="0.0295555149" flag="0"/>
      <psa10 value="0.0055188108" flag="0"/>
      <psa30 value="0.0002710584" flag="0"/>
    </comp>
    <comp name="--.HHZ">
      <acc value="0.0057214528" flag="0"/>
      <vel value="0.0034733369" flag="0"/>
      <psa03 value="0.0174600981" flag="0"/>
      <psa10 value="0.0023696186" flag="0"/>
      <psa30 value="0.0001884754" flag="0"/>
    </comp>
    <comp name="--.HHE">
      <acc value="0.0118739385" flag="0"/>
      <vel value="0.0054996733" flag="0"/>
      <psa03 value="0.0296876861" flag="0"/>
      <psa10 value="0.0052305135" flag="0"/>
      <psa30 value="0.0003071762" flag="0"/>
    </comp>
  </station>
  <station code="KTHA" name="KTHA" netid="HL" insttype="120" lat="36.2566" lon="23.0621">
    <comp name="--.HHZ">
      <acc value="0.0045269243" flag="0"/>
      <vel value="0.0035463606" flag="0"/>
      <psa03 value="0.0084160741" flag="0"/>
      <psa10 value="0.0039077777" flag="0"/>
      <psa30 value="0.0003818786" flag="0"/>
    </comp>
    <comp name="--.HHE">
      <acc value="0.0171125870" flag="0"/>
      <vel value="0.0120222346" flag="0"/>
      <psa03 value="0.0356383589" flag="0"/>
      <psa10 value="0.0130953237" flag="0"/>
      <psa30 value="0.0004672891" flag="0"/>
    </comp>
    <comp name="--.HHN">
      <acc value="0.0051262448" flag="0"/>
      <vel value="0.0032797868" flag="0"/>
      <psa03 value="0.0147011814" flag="0"/>
      <psa10 value="0.0038765572" flag="0"/>
      <psa30 value="0.0003282410" flag="0"/>
    </comp>
  </station>
</stationlist>
