<?xml version="1.0" encoding="UTF-8" standalone="yes"?>
<!DOCTYPE earthquake SYSTEM "stationlist.dtd">
<stationlist created="" xmlns="ch.ethz.sed.shakemap.usgs.xml">
  <station code="SVRC" name="SVRC" netid="KO" insttype="CMG-3T" lat="38.3775" lon="39.306">
    <comp name="--.HHE">
      <acc value="0.0053850311" flag="0"/>
      <vel value="0.0037034656" flag="0"/>
      <psa03 value="0.0150255935" flag="0"/>
      <psa10 value="0.0031755292" flag="0"/>
      <psa30 value="0.0001783305" flag="0"/>
    </comp>
    <comp name="--.HHN">
      <acc value="0.0050639918" flag="0"/>
      <vel value="0.0030625460" flag="0"/>
      <psa03 value="0.0164827499" flag="0"/>
      <psa10 value="0.0040002041" flag="0"/>
      <psa30 value="0.0003516973" flag="0"/>
    </comp>
    <comp name="--.HHZ">
      <acc value="0.0033759683" flag="0"/>
      <vel value="0.0024377974" flag="0"/>
      <psa03 value="0.0088191022" flag="0"/>
      <psa10 value="0.0026046768" flag="0"/>
      <psa30 value="0.0002684892" flag="0"/>
    </comp>
  </station>
</stationlist>
