<?xml version="1.0" encoding="UTF-8" standalone="yes"?>
<!DOCTYPE earthquake SYSTEM "stationlist.dtd">
<stationlist created="" xmlns="ch.ethz.sed.shakemap.usgs.xml">
  <station code="AYVL" name="AYVL" netid="KO" insttype="CMG-6T" commtype="DIG" lat="39.2907" lon="26.69">
    <comp name="--.HHE">
      <acc value="0.0213660033" flag="0"/>
      <vel value="0.0071088795" flag="0"/>
      <psa03 value="0.0503769300" flag="0"/>
      <psa10 value="0.0060297935" flag="0"/>
      <psa30 value="0.0001832803" flag="0"/>
    </comp>
    <comp name="--.HHN">
      <acc value="0.0255142996" flag="0"/>
      <vel value="0.0104170990" flag="0"/>
      <psa03 value="0.0530192347" flag="0"/>
      <psa10 value="0.0080919723" flag="0"/>
      <psa30 value="0.0003334440" flag="0"/>
    </comp>
    <comp name="--.HHZ">
      <acc value="0.0091934110" flag="0"/>
      <vel value="0.0040513859" flag="0"/>
      <psa03 value="0.0189214405" flag="0"/>
      <psa10 value="0.0021822995" flag="0"/>
      <psa30 value="0.0001195275" flag="0"/>
    </comp>
  </station>
  <station code="BALB" name="BALB" netid="KO" insttype="CMG-5T" commtype="DIG" lat="39.6507" lon="27.8642">
    <comp name="--.HNZ">
      <acc value="0.0204698193" flag="0"/>
      <vel value="0.0076952762" flag="0"/>
      <psa03 value="0.0278289677" flag="0"/>
      <psa10 value="0.0090776081" flag="0"/>
      <psa30 value="0.0012616656" flag="0"/>
    </comp>
    <comp name="--.HNE">
      <acc value="0.0248456313" flag="0"/>
      <vel value="0.0119848627" flag="0"/>
      <psa03 value="0.0619596645" flag="0"/>
      <psa10 value="0.0106368661" flag="0"/>
      <psa30 value="0.0016166113" flag="0"/>
    </comp>
    <comp name="--.HNN">
      <acc value="0.0264204719" flag="0"/>
      <vel value="0.0183741622" flag="0"/>
      <psa03 value="0.0471394544" flag="0"/>
      <psa10 value="0.0302729144" flag="0"/>
      <psa30 value="0.0013594427" flag="0"/>
    </comp>
  </station>
  <station code="GONE" name="GONE" netid="KO" insttype="CMG-5T" commtype="DIG" lat="40.0466" lon="27.686">
    <comp name="--.HNZ">
      <acc value="0.0084823355" flag="0"/>
      <vel value="0.0026935877" flag="0"/>
      <psa03 value="0.0194367751" flag="0"/>
      <psa10 value="0.0021824100" flag="0"/>
      <psa30 value="0.0003225880" flag="0"/>
    </comp>
    <comp name="--.HNN">
      <acc value="0.0172802005" flag="0"/>
      <vel value="0.0081022908" flag="0"/>
      <psa03 value="0.0347460597" flag="0"/>
      <psa10 value="0.0079049334" flag="0"/>
      <psa30 value="0.0008671537" flag="0"/>
    </comp>
    <comp name="--.HNE">
      <acc value="0.0132322116" flag="0"/>
      <vel value="0.0062763581" flag="0"/>
      <psa03 value="0.0415541160" flag="0"/>
      <psa10 value="0.0058342064" flag="0"/>
      <psa30 value="0.0006038654" flag="0"/>
    </comp>
  </station>
  <station code="ORLT" name="ORLT" netid="KO" insttype="CMG-5T" commtype="DIG" lat="40.0452" lon="28.8914">
    <comp name="--.HNN">
      <acc value="0.0321724173" flag="0"/>
      <vel value="0.0123416935" flag="0"/>
      <psa03 value="0.0741268957" flag="0"/>
      <psa10 value="0.0078929843" flag="0"/>
      <psa30 value="0.0011992952" flag="0"/>
    </comp>
    <comp name="--.HNZ">
      <acc value="0.0090563419" flag="0"/>
      <vel value="0.0051558964" flag="0"/>
      <psa03 value="0.0248383262" flag="0"/>
      <psa10 value="0.0053661836" flag="0"/>
      <psa30 value="0.0010055326" flag="0"/>
    </comp>
    <comp name="--.HNE">
      <acc value="0.0211821061" flag="0"/>
      <vel value="0.0092866068" flag="0"/>
      <psa03 value="0.0622136090" flag="0"/>
      <psa10 value="0.0072905128" flag="0"/>
      <psa30 value="0.0006428692" flag="0"/>
    </comp>
  </station>
  <station code="SHAP" name="SHAP" netid="KO" insttype="CMG-5T" commtype="DIG" lat="39.0231" lon="29.222">
    <comp name="--.HNE">
      <acc value="0.0204918578" flag="0"/>
      <vel value="0.0058456666" flag="0"/>
      <psa03 value="0.0488830313" flag="0"/>
      <psa10 value="0.0032775358" flag="0"/>
      <psa30 value="0.0002924003" flag="0"/>
    </comp>
    <comp name="--.HNN">
      <acc value="0.0228239268" flag="0"/>
      <vel value="0.0062022589" flag="0"/>
      <psa03 value="0.0444291241" flag="0"/>
      <psa10 value="0.0035329063" flag="0"/>
      <psa30 value="0.0003097653" flag="0"/>
    </comp>
    <comp name="--.HNZ">
      <acc value="0.0164708034" flag="0"/>
      <vel value="0.0036723153" flag="0"/>
      <psa03 value="0.0144499245" flag="0"/>
      <psa10 value="0.0017720331" flag="0"/>
      <psa30 value="0.0002023004" flag="0"/>
    </comp>
  </station>
  <station code="SOMA" name="SOMA" netid="KO" insttype="CMG-5T" commtype="DIG" lat="39.1564" lon="27.5341">
    <comp name="--.HNE">
      <acc value="0.0542556235" flag="0"/>
      <vel value="0.0149733035" flag="0"/>
      <psa03 value="0.0920092363" flag="0"/>
      <psa10 value="0.0138781234" flag="0"/>
      <psa30 value="0.0013619961" flag="0"/>
    </comp>
    <comp name="--.HNN">
      <acc value="0.0665675176" flag="0"/>
      <vel value="0.0277182088" flag="0"/>
      <psa03 value="0.0805927208" flag="0"/>
      <psa10 value="0.0178115646" flag="0"/>
      <psa30 value="0.0014636877" flag="0"/>
    </comp>
    <comp name="--.HNZ">
      <acc value="0.0461901131" flag="0"/>
      <vel value="0.0154845383" flag="0"/>
      <psa03 value="0.0480666455" flag="0"/>
      <psa10 value="0.0120756879" flag="0"/>
      <psa30 value="0.0014405879" flag="0"/>
    </comp>
  </station>
  <station code="YENI" name="YENI" netid="KO" insttype="CMG-5T" commtype="DIG" lat="39.9364" lon="27.2422">
    <comp name="--.HNE">
      <acc value="0.0218994952" flag="0"/>
      <vel value="0.0082091014" flag="0"/>
      <psa03 value="0.0510934425" flag="0"/>
      <psa10 value="0.0080317179" flag="0"/>
      <psa30 value="0.0004151542" flag="0"/>
    </comp>
    <comp name="--.HNZ">
      <acc value="0.0090716278" flag="0"/>
      <vel value="0.0025928035" flag="0"/>
      <psa03 value="0.0131570282" flag="0"/>
      <psa10 value="0.0022822946" flag="0"/>
      <psa30 value="0.0003804370" flag="0"/>
    </comp>
    <comp name="--.HNN">
      <acc value="0.0267595898" flag="0"/>
      <vel value="0.0072058809" flag="0"/>
      <psa03 value="0.0387147450" flag="0"/>
      <psa10 value="0.0080638002" flag="0"/>
      <psa30 value="0.0004451011" flag="0"/>
    </comp>
  </station>
</stationlist>
