<?xml version="1.0" encoding="UTF-8" standalone="yes"?>
<!DOCTYPE earthquake SYSTEM "stationlist.dtd">
<stationlist created="" xmlns="ch.ethz.sed.shakemap.usgs.xml">
  <station code="CARD" name="CARD" netid="GU" insttype="" lat="44.0261" lon="10.4821">
    <comp name="--.HHN">
      <acc value="0.0235429850" flag="0"/>
      <vel value="0.0066688683" flag="0"/>
      <psa03 value="0.0502846072" flag="0"/>
      <psa10 value="0.0029681265" flag="0"/>
      <psa30 value="0.0002019869" flag="0"/>
    </comp>
    <comp name="--.HHE">
      <acc value="0.0232722887" flag="0"/>
      <vel value="0.0055450675" flag="0"/>
      <psa03 value="0.0457624022" flag="0"/>
      <psa10 value="0.0029238765" flag="0"/>
      <psa30 value="0.0002011320" flag="0"/>
    </comp>
    <comp name="--.HHZ">
      <acc value="0.0126262051" flag="0"/>
      <vel value="0.0033886296" flag="0"/>
      <psa03 value="0.0195360456" flag="0"/>
      <psa10 value="0.0024075334" flag="0"/>
      <psa30 value="0.0001755927" flag="0"/>
    </comp>
  </station>
  <station code="GSCL" name="GSCL" netid="GU" insttype="" lat="44.3506" lon="10.588">
    <comp name="--.HHE">
      <acc value="0.0056131853" flag="0"/>
      <vel value="0.0031411915" flag="0"/>
      <psa03 value="0.0132753988" flag="0"/>
      <psa10 value="0.0057340572" flag="0"/>
      <psa30 value="0.0003901417" flag="0"/>
    </comp>
    <comp name="--.HHN">
      <acc value="0.0076029291" flag="0"/>
      <vel value="0.0030923920" flag="0"/>
      <psa03 value="0.0214504829" flag="0"/>
      <psa10 value="0.0044682507" flag="0"/>
      <psa30 value="0.0002571689" flag="0"/>
    </comp>
    <comp name="--.HHZ">
      <acc value="0.0029243378" flag="0"/>
      <vel value="0.0018401797" flag="0"/>
      <psa03 value="0.0099806410" flag="0"/>
      <psa10 value="0.0026674840" flag="0"/>
      <psa30 value="0.0002278301" flag="0"/>
    </comp>
  </station>
  <station code="MAIM" name="MAIM" netid="GU" insttype="" lat="43.9142" lon="10.4915">
    <comp name="--.HHN">
      <acc value="0.0117133296" flag="0"/>
      <vel value="0.0039392620" flag="0"/>
      <psa03 value="0.0290763219" flag="0"/>
      <psa10 value="0.0032621116" flag="0"/>
      <psa30 value="0.0002225031" flag="0"/>
    </comp>
    <comp name="--.HHE">
      <acc value="0.0068051624" flag="0"/>
      <vel value="0.0020979923" flag="0"/>
      <psa03 value="0.0134434938" flag="0"/>
      <psa10 value="0.0014908173" flag="0"/>
      <psa30 value="0.0002802138" flag="0"/>
    </comp>
    <comp name="--.HHZ">
      <acc value="0.0087171220" flag="0"/>
      <vel value="0.0024570347" flag="0"/>
      <psa03 value="0.0170697813" flag="0"/>
      <psa10 value="0.0033012548" flag="0"/>
      <psa30 value="0.0003169484" flag="0"/>
    </comp>
  </station>
  <station code="POPM" name="POPM" netid="GU" insttype="" lat="44.045" lon="10.757">
    <comp name="--.HHZ">
      <acc value="0.0181847324" flag="0"/>
      <vel value="0.0061240238" flag="0"/>
      <psa03 value="0.0332145514" flag="0"/>
      <psa10 value="0.0048513530" flag="0"/>
      <psa30 value="0.0003628310" flag="0"/>
    </comp>
    <comp name="--.HHE">
      <acc value="0.0361586079" flag="0"/>
      <vel value="0.0111958329" flag="0"/>
      <psa03 value="0.0456267857" flag="0"/>
      <psa10 value="0.0066844328" flag="0"/>
      <psa30 value="0.0002817173" flag="0"/>
    </comp>
    <comp name="--.HHN">
      <acc value="0.0330074273" flag="0"/>
      <vel value="0.0108211681" flag="0"/>
      <psa03 value="0.0777007932" flag="0"/>
      <psa10 value="0.0036761033" flag="0"/>
      <psa30 value="0.0003559721" flag="0"/>
    </comp>
  </station>
  <station code="APEC" name="APEC" netid="IV" insttype="" lat="43.5585" lon="12.4199">
    <comp name="--.HHE">
      <acc value="0.0134924094" flag="0"/>
      <vel value="0.0093192422" flag="0"/>
      <psa03 value="0.0545547099" flag="0"/>
      <psa10 value="0.0071814882" flag="0"/>
      <psa30 value="0.0004602430" flag="0"/>
    </comp>
    <comp name="--.HHZ">
      <acc value="0.0065128023" flag="0"/>
      <vel value="0.0047296446" flag="0"/>
      <psa03 value="0.0179088226" flag="0"/>
      <psa10 value="0.0079287651" flag="0"/>
      <psa30 value="0.0003519957" flag="0"/>
    </comp>
    <comp name="--.HHN">
      <acc value="0.0168045473" flag="0"/>
      <vel value="0.0089023629" flag="0"/>
      <psa03 value="0.0388248541" flag="0"/>
      <psa10 value="0.0094610319" flag="0"/>
      <psa30 value="0.0004157005" flag="0"/>
    </comp>
  </station>
  <station code="ARCI" name="ARCI" netid="IV" insttype="" lat="42.8519" lon="11.4754">
    <comp name="--.HHN">
      <acc value="0.0116041308" flag="0"/>
      <vel value="0.0055640377" flag="0"/>
      <psa03 value="0.0272163306" flag="0"/>
      <psa10 value="0.0034662832" flag="0"/>
      <psa30 value="0.0002789984" flag="0"/>
    </comp>
    <comp name="--.HHE">
      <acc value="0.0089497555" flag="0"/>
      <vel value="0.0044247653" flag="0"/>
      <psa03 value="0.0269846622" flag="0"/>
      <psa10 value="0.0038966119" flag="0"/>
      <psa30 value="0.0002765259" flag="0"/>
    </comp>
    <comp name="--.HHZ">
      <acc value="0.0058455682" flag="0"/>
      <vel value="0.0026909541" flag="0"/>
      <psa03 value="0.0124170088" flag="0"/>
      <psa10 value="0.0011014474" flag="0"/>
      <psa30 value="0.0001377908" flag="0"/>
    </comp>
  </station>
  <station code="ATMI" name="ATMI" netid="IV" insttype="" lat="43.3342" lon="12.268">
    <comp name="--.HHE">
      <acc value="0.0156307003" flag="0"/>
      <vel value="0.0119686799" flag="0"/>
      <psa03 value="0.0701533380" flag="0"/>
      <psa10 value="0.0125053360" flag="0"/>
      <psa30 value="0.0009416706" flag="0"/>
    </comp>
    <comp name="--.HHN">
      <acc value="0.0208769857" flag="0"/>
      <vel value="0.0137993063" flag="0"/>
      <psa03 value="0.0658125944" flag="0"/>
      <psa10 value="0.0201677332" flag="0"/>
      <psa30 value="0.0008720524" flag="0"/>
    </comp>
    <comp name="--.HHZ">
      <acc value="0.0098236661" flag="0"/>
      <vel value="0.0061181937" flag="0"/>
      <psa03 value="0.0288232091" flag="0"/>
      <psa10 value="0.0057897853" flag="0"/>
      <psa30 value="0.0005399867" flag="0"/>
    </comp>
  </station>
  <station code="ATPC" name="ATPC" netid="IV" insttype="" lat="43.4807" lon="12.457">
    <comp name="--.HHN">
      <acc value="0.0089106572" flag="0"/>
      <vel value="0.0073085238" flag="0"/>
      <psa03 value="0.0270737363" flag="0"/>
      <psa10 value="0.0061443446" flag="0"/>
      <psa30 value="0.0005135334" flag="0"/>
    </comp>
    <comp name="--.HHE">
      <acc value="0.0140696979" flag="0"/>
      <vel value="0.0073216682" flag="0"/>
      <psa03 value="0.0389390989" flag="0"/>
      <psa10 value="0.0083391092" flag="0"/>
      <psa30 value="0.0004671103" flag="0"/>
    </comp>
    <comp name="--.HHZ">
      <acc value="0.0072933537" flag="0"/>
      <vel value="0.0045673991" flag="0"/>
      <psa03 value="0.0331333455" flag="0"/>
      <psa10 value="0.0044912250" flag="0"/>
      <psa30 value="0.0004675853" flag="0"/>
    </comp>
  </station>
  <station code="ATVO" name="ATVO" netid="IV" insttype="" lat="43.3821" lon="12.4066">
    <comp name="--.HHE">
      <acc value="0.0094068807" flag="0"/>
      <vel value="0.0072926466" flag="0"/>
      <psa03 value="0.0215030742" flag="0"/>
      <psa10 value="0.0093964239" flag="0"/>
      <psa30 value="0.0003933954" flag="0"/>
    </comp>
    <comp name="--.HHN">
      <acc value="0.0082471427" flag="0"/>
      <vel value="0.0065565428" flag="0"/>
      <psa03 value="0.0246494569" flag="0"/>
      <psa10 value="0.0067182985" flag="0"/>
      <psa30 value="0.0007603306" flag="0"/>
    </comp>
    <comp name="--.HHZ">
      <acc value="0.0041416969" flag="0"/>
      <vel value="0.0026475925" flag="0"/>
      <psa03 value="0.0127797252" flag="0"/>
      <psa10 value="0.0035040441" flag="0"/>
      <psa30 value="0.0004257345" flag="0"/>
    </comp>
  </station>
  <station code="BDI" name="BDI" netid="IV" insttype="" lat="44.0624" lon="10.597">
    <comp name="--.HHE">
      <acc value="0.0188030716" flag="0"/>
      <vel value="0.0065163032" flag="0"/>
      <psa03 value="0.0462574177" flag="0"/>
      <psa10 value="0.0037706885" flag="0"/>
      <psa30 value="0.0002674720" flag="0"/>
    </comp>
    <comp name="--.HHN">
      <acc value="0.0206344122" flag="0"/>
      <vel value="0.0068208036" flag="0"/>
      <psa03 value="0.0411745393" flag="0"/>
      <psa10 value="0.0069607085" flag="0"/>
      <psa30 value="0.0003742000" flag="0"/>
    </comp>
    <comp name="--.HHZ">
      <acc value="0.0135711557" flag="0"/>
      <vel value="0.0052613938" flag="0"/>
      <psa03 value="0.0316432379" flag="0"/>
      <psa10 value="0.0027303586" flag="0"/>
      <psa30 value="0.0002201692" flag="0"/>
    </comp>
  </station>
  <station code="BOSL" name="BOSL" netid="IV" insttype="" lat="43.931" lon="11.3743">
    <comp name="--.HHE">
      <acc value="0.1085606074" flag="0"/>
      <vel value="0.0325382926" flag="0"/>
      <psa03 value="0.1196384340" flag="0"/>
      <psa10 value="0.0100005108" flag="0"/>
      <psa30 value="0.0006998646" flag="0"/>
    </comp>
    <comp name="--.HHN">
      <acc value="0.0575076824" flag="0"/>
      <vel value="0.0190074703" flag="0"/>
      <psa03 value="0.1016476790" flag="0"/>
      <psa10 value="0.0047061576" flag="0"/>
      <psa30 value="0.0003469334" flag="0"/>
    </comp>
    <comp name="--.HHZ">
      <acc value="0.0335372162" flag="0"/>
      <vel value="0.0076688829" flag="0"/>
      <psa03 value="0.0576702152" flag="0"/>
      <psa10 value="0.0034247762" flag="0"/>
      <psa30 value="0.0003887083" flag="0"/>
    </comp>
  </station>
  <station code="BRIS" name="BRIS" netid="IV" insttype="" lat="44.2245" lon="11.7666">
    <comp name="--.HHE">
      <acc value="0.0057044594" flag="0"/>
      <vel value="0.0039693784" flag="0"/>
      <psa03 value="0.0196900098" flag="0"/>
      <psa10 value="0.0051535348" flag="0"/>
      <psa30 value="0.0004620967" flag="0"/>
    </comp>
    <comp name="--.HHN">
      <acc value="0.0088116788" flag="0"/>
      <vel value="0.0050898996" flag="0"/>
      <psa03 value="0.0267629274" flag="0"/>
      <psa10 value="0.0032624131" flag="0"/>
      <psa30 value="0.0004186030" flag="0"/>
    </comp>
    <comp name="--.HHZ">
      <acc value="0.0053256648" flag="0"/>
      <vel value="0.0037362544" flag="0"/>
      <psa03 value="0.0149079899" flag="0"/>
      <psa10 value="0.0046891313" flag="0"/>
      <psa30 value="0.0003856962" flag="0"/>
    </comp>
  </station>
  <station code="CAFI" name="CAFI" netid="IV" insttype="" lat="43.3292" lon="11.9663">
    <comp name="--.HHN">
      <acc value="0.0094820458" flag="0"/>
      <vel value="0.0042855872" flag="0"/>
      <psa03 value="0.0279903493" flag="0"/>
      <psa10 value="0.0041079491" flag="0"/>
      <psa30 value="0.0003385295" flag="0"/>
    </comp>
    <comp name="--.HHE">
      <acc value="0.0111404296" flag="0"/>
      <vel value="0.0064687082" flag="0"/>
      <psa03 value="0.0343025362" flag="0"/>
      <psa10 value="0.0034109921" flag="0"/>
      <psa30 value="0.0003655770" flag="0"/>
    </comp>
    <comp name="--.HHZ">
      <acc value="0.0090290797" flag="0"/>
      <vel value="0.0043685319" flag="0"/>
      <psa03 value="0.0194803493" flag="0"/>
      <psa10 value="0.0060298100" flag="0"/>
      <psa30 value="0.0004465588" flag="0"/>
    </comp>
  </station>
  <station code="CRE" name="CRE" netid="IV" insttype="" lat="43.6189" lon="11.9517">
    <comp name="--.HHE">
      <acc value="0.0337723842" flag="0"/>
      <vel value="0.0132248626" flag="0"/>
      <psa03 value="0.0854870805" flag="0"/>
      <psa10 value="0.0076945761" flag="0"/>
      <psa30 value="0.0008611109" flag="0"/>
    </comp>
    <comp name="--.HHN">
      <acc value="0.0418225017" flag="0"/>
      <vel value="0.0158895028" flag="0"/>
      <psa03 value="0.0694852067" flag="0"/>
      <psa10 value="0.0117733035" flag="0"/>
      <psa30 value="0.0007126016" flag="0"/>
    </comp>
    <comp name="--.HHZ">
      <acc value="0.0197694529" flag="0"/>
      <vel value="0.0055100656" flag="0"/>
      <psa03 value="0.0558822105" flag="0"/>
      <psa10 value="0.0056033415" flag="0"/>
      <psa30 value="0.0006635376" flag="0"/>
    </comp>
  </station>
  <station code="CSNT" name="CSNT" netid="IV" insttype="" lat="43.4731" lon="11.2902">
    <comp name="--.HHE">
      <acc value="0.2470681534" flag="0"/>
      <vel value="0.0832239374" flag="0"/>
      <psa03 value="0.8223388201" flag="0"/>
      <psa10 value="0.0495086785" flag="0"/>
      <psa30 value="0.0031743652" flag="0"/>
    </comp>
    <comp name="--.HHN">
      <acc value="0.2418514736" flag="0"/>
      <vel value="0.0803431872" flag="0"/>
      <psa03 value="0.3310588104" flag="0"/>
      <psa10 value="0.0270714803" flag="0"/>
      <psa30 value="0.0017421553" flag="0"/>
    </comp>
    <comp name="--.HHZ">
      <acc value="0.1598486652" flag="0"/>
      <vel value="0.0344623172" flag="0"/>
      <psa03 value="0.2513943481" flag="0"/>
      <psa10 value="0.0307563966" flag="0"/>
      <psa30 value="0.0018438560" flag="0"/>
    </comp>
  </station>
  <station code="FIR" name="FIR" netid="IV" insttype="" lat="43.7744" lon="11.2551">
    <comp name="--.HHE">
      <acc value="0.9144385788" flag="0"/>
      <vel value="0.2432744851" flag="0"/>
      <psa03 value="1.1396804800" flag="0"/>
      <psa10 value="0.0610228981" flag="0"/>
      <psa30 value="0.0042527866" flag="0"/>
    </comp>
    <comp name="--.HHN">
      <acc value="0.8534194093" flag="0"/>
      <vel value="0.2714063043" flag="0"/>
      <psa03 value="0.6624068476" flag="0"/>
      <psa10 value="0.1632889018" flag="0"/>
      <psa30 value="0.0108388005" flag="0"/>
    </comp>
    <comp name="--.HHZ">
      <acc value="0.6022849052" flag="0"/>
      <vel value="0.0769085890" flag="0"/>
      <psa03 value="0.3094207274" flag="0"/>
      <psa10 value="0.0501730044" flag="0"/>
      <psa30 value="0.0018852723" flag="0"/>
    </comp>
  </station>
  <station code="FNVD" name="FNVD" netid="IV" insttype="" lat="44.1678" lon="11.1229">
    <comp name="--.HHE">
      <acc value="0.0470379402" flag="0"/>
      <vel value="0.0188446651" flag="0"/>
      <psa03 value="0.1094693363" flag="0"/>
      <psa10 value="0.0143719723" flag="0"/>
      <psa30 value="0.0007906576" flag="0"/>
    </comp>
    <comp name="--.HHN">
      <acc value="0.0658036049" flag="0"/>
      <vel value="0.0214638216" flag="0"/>
      <psa03 value="0.1126026923" flag="0"/>
      <psa10 value="0.0215583840" flag="0"/>
      <psa30 value="0.0010884258" flag="0"/>
    </comp>
    <comp name="--.HHZ">
      <acc value="0.0222892416" flag="0"/>
      <vel value="0.0085494758" flag="0"/>
      <psa03 value="0.0626380602" flag="0"/>
      <psa10 value="0.0117375615" flag="0"/>
      <psa30 value="0.0004456865" flag="0"/>
    </comp>
  </station>
  <station code="LMD" name="LMD" netid="IV" insttype="" lat="44.0775" lon="11.7073">
    <comp name="--.HHE">
      <acc value="0.0503343039" flag="0"/>
      <vel value="0.0179554197" flag="0"/>
      <psa03 value="0.0869056728" flag="0"/>
      <psa10 value="0.0083610708" flag="0"/>
      <psa30 value="0.0006141538" flag="0"/>
    </comp>
    <comp name="--.HHN">
      <acc value="0.0585202955" flag="0"/>
      <vel value="0.0161689122" flag="0"/>
      <psa03 value="0.0822557005" flag="0"/>
      <psa10 value="0.0107491219" flag="0"/>
      <psa30 value="0.0005814795" flag="0"/>
    </comp>
    <comp name="--.HHZ">
      <acc value="0.0318689230" flag="0"/>
      <vel value="0.0112474021" flag="0"/>
      <psa03 value="0.0514792971" flag="0"/>
      <psa10 value="0.0052154369" flag="0"/>
      <psa30 value="0.0006955651" flag="0"/>
    </comp>
  </station>
  <station code="MTRZ" name="MTRZ" netid="IV" insttype="" lat="44.3128" lon="11.4248">
    <comp name="--.HHN">
      <acc value="0.0182949356" flag="0"/>
      <vel value="0.0130700380" flag="0"/>
      <psa03 value="0.0542096896" flag="0"/>
      <psa10 value="0.0146890095" flag="0"/>
      <psa30 value="0.0008157421" flag="0"/>
    </comp>
    <comp name="--.HHE">
      <acc value="0.0142302586" flag="0"/>
      <vel value="0.0114646824" flag="0"/>
      <psa03 value="0.0446541294" flag="0"/>
      <psa10 value="0.0233817258" flag="0"/>
      <psa30 value="0.0013531557" flag="0"/>
    </comp>
    <comp name="--.HHZ">
      <acc value="0.0061472430" flag="0"/>
      <vel value="0.0066061150" flag="0"/>
      <psa03 value="0.0232611002" flag="0"/>
      <psa10 value="0.0139631777" flag="0"/>
      <psa30 value="0.0009778087" flag="0"/>
    </comp>
  </station>
  <station code="OSSC" name="OSSC" netid="IV" insttype="" lat="43.5236" lon="11.2458">
    <comp name="--.HHE">
      <acc value="1.3791948624" flag="0"/>
      <vel value="0.5076248352" flag="0"/>
      <psa03 value="2.0763516039" flag="0"/>
      <psa10 value="0.1124161570" flag="0"/>
      <psa30 value="0.0124737873" flag="0"/>
    </comp>
    <comp name="--.HHN">
      <acc value="0.9341920158" flag="0"/>
      <vel value="0.2312168016" flag="0"/>
      <psa03 value="1.1486557845" flag="0"/>
      <psa10 value="0.0552618403" flag="0"/>
      <psa30 value="0.0038132526" flag="0"/>
    </comp>
    <comp name="--.HHZ">
      <acc value="0.4384019039" flag="0"/>
      <vel value="0.1163387429" flag="0"/>
      <psa03 value="0.7744086576" flag="0"/>
      <psa10 value="0.0711804888" flag="0"/>
      <psa30 value="0.0031034201" flag="0"/>
    </comp>
  </station>
  <station code="PARC" name="PARC" netid="IV" insttype="" lat="43.6486" lon="12.2386">
    <comp name="--.HHN">
      <acc value="0.0180627220" flag="0"/>
      <vel value="0.0079619938" flag="0"/>
      <psa03 value="0.0307282715" flag="0"/>
      <psa10 value="0.0060562072" flag="0"/>
      <psa30 value="0.0004091729" flag="0"/>
    </comp>
    <comp name="--.HHZ">
      <acc value="0.0085523628" flag="0"/>
      <vel value="0.0054710838" flag="0"/>
      <psa03 value="0.0262036726" flag="0"/>
      <psa10 value="0.0037991167" flag="0"/>
      <psa30 value="0.0003721245" flag="0"/>
    </comp>
    <comp name="--.HHE">
      <acc value="0.0089093265" flag="0"/>
      <vel value="0.0045056151" flag="0"/>
      <psa03 value="0.0198325419" flag="0"/>
      <psa10 value="0.0052238772" flag="0"/>
      <psa30 value="0.0002314251" flag="0"/>
    </comp>
  </station>
  <station code="PII" name="PII" netid="IV" insttype="" lat="43.7219" lon="10.525">
    <comp name="--.HHE">
      <acc value="0.0478349108" flag="0"/>
      <vel value="0.0211514551" flag="0"/>
      <psa03 value="0.1692735396" flag="0"/>
      <psa10 value="0.0087396499" flag="0"/>
      <psa30 value="0.0006494873" flag="0"/>
    </comp>
    <comp name="--.HHN">
      <acc value="0.0672304919" flag="0"/>
      <vel value="0.0253669465" flag="0"/>
      <psa03 value="0.2029459505" flag="0"/>
      <psa10 value="0.0107984873" flag="0"/>
      <psa30 value="0.0009288756" flag="0"/>
    </comp>
    <comp name="--.HHZ">
      <acc value="0.0328784753" flag="0"/>
      <vel value="0.0114503347" flag="0"/>
      <psa03 value="0.0905761618" flag="0"/>
      <psa10 value="0.0055841434" flag="0"/>
      <psa30 value="0.0003427626" flag="0"/>
    </comp>
  </station>
  <station code="SEI" name="SEI" netid="IV" insttype="" lat="44.0543" lon="11.3585">
    <comp name="--.HHN">
      <acc value="0.1420587496" flag="0"/>
      <vel value="0.0778936238" flag="0"/>
      <psa03 value="0.4839619983" flag="0"/>
      <psa10 value="0.0309569405" flag="0"/>
      <psa30 value="0.0025328363" flag="0"/>
    </comp>
    <comp name="--.HHE">
      <acc value="0.0700854747" flag="0"/>
      <vel value="0.0310152371" flag="0"/>
      <psa03 value="0.2462731563" flag="0"/>
      <psa10 value="0.0234518781" flag="0"/>
      <psa30 value="0.0015028490" flag="0"/>
    </comp>
