<?xml version="1.0" encoding="UTF-8" standalone="yes"?>
<!DOCTYPE earthquake SYSTEM "stationlist.dtd">
<stationlist created="" xmlns="ch.ethz.sed.shakemap.usgs.xml">
  <station code="CARD" name="CARD" netid="GU" insttype="" lat="44.0261" lon="10.4821">
    <comp name="--.HHE">
      <acc value="0.0232722880" flag="0"/>
      <vel value="0.0055450674" flag="0"/>
      <psa03 value="0.0457624022" flag="0"/>
      <psa10 value="0.0029238765" flag="0"/>
      <psa30 value="0.0002011289" flag="0"/>
    </comp>
    <comp name="--.HHZ">
      <acc value="0.0126262047" flag="0"/>
      <vel value="0.0033886297" flag="0"/>
      <psa03 value="0.0195360456" flag="0"/>
      <psa10 value="0.0024075335" flag="0"/>
      <psa30 value="0.0001755869" flag="0"/>
    </comp>
    <comp name="--.HHN">
      <acc value="0.0235429846" flag="0"/>
      <vel value="0.0066688680" flag="0"/>
      <psa03 value="0.0502846072" flag="0"/>
      <psa10 value="0.0029681265" flag="0"/>
      <psa30 value="0.0002019767" flag="0"/>
    </comp>
  </station>
  <station code="EQUI" name="EQUI" netid="GU" insttype="" lat="44.166" lon="10.153">
    <comp name="--.HHE">
      <acc value="0.0045850882" flag="0"/>
      <vel value="0.0021510626" flag="0"/>
      <psa03 value="0.0109094671" flag="0"/>
      <psa10 value="0.0013415164" flag="0"/>
      <psa30 value="0.0001900522" flag="0"/>
    </comp>
    <comp name="--.HHN">
      <acc value="0.0061722399" flag="0"/>
      <vel value="0.0024770607" flag="0"/>
      <psa03 value="0.0141383968" flag="0"/>
      <psa10 value="0.0031445268" flag="0"/>
      <psa30 value="0.0002095250" flag="0"/>
    </comp>
    <comp name="--.HHZ">
      <acc value="0.0045976581" flag="0"/>
      <vel value="0.0026715334" flag="0"/>
      <psa03 value="0.0064327690" flag="0"/>
      <psa10 value="0.0026053183" flag="0"/>
      <psa30 value="0.0002626941" flag="0"/>
    </comp>
  </station>
  <station code="FIVI" name="FIVI" netid="GU" insttype="" lat="44.2394" lon="10.1271">
    <comp name="--.HNE">
      <acc value="0.0071528857" flag="0"/>
      <vel value="0.0025169519" flag="0"/>
      <psa03 value="0.0151806106" flag="0"/>
      <psa10 value="0.0023592764" flag="0"/>
      <psa30 value="0.0002040704" flag="0"/>
    </comp>
    <comp name="--.HNN">
      <acc value="0.0104547347" flag="0"/>
      <vel value="0.0037329780" flag="0"/>
      <psa03 value="0.0158752680" flag="0"/>
      <psa10 value="0.0025954969" flag="0"/>
      <psa30 value="0.0001829213" flag="0"/>
    </comp>
    <comp name="--.HNZ">
      <acc value="0.0065171608" flag="0"/>
      <vel value="0.0017607982" flag="0"/>
      <psa03 value="0.0080009090" flag="0"/>
      <psa10 value="0.0020394164" flag="0"/>
      <psa30 value="0.0002289820" flag="0"/>
    </comp>
  </station>
  <station code="GRAM" name="GRAM" netid="GU" insttype="" lat="44.4904" lon="10.065">
    <comp name="--.HHZ">
      <acc value="0.0059300899" flag="0"/>
      <vel value="0.0016019236" flag="0"/>
      <psa03 value="0.0068078004" flag="0"/>
      <psa10 value="0.0017675975" flag="0"/>
      <psa30 value="0.0000970794" flag="0"/>
    </comp>
    <comp name="--.HHN">
      <acc value="0.0049348321" flag="0"/>
      <vel value="0.0026121834" flag="0"/>
      <psa03 value="0.0152084844" flag="0"/>
      <psa10 value="0.0017363535" flag="0"/>
      <psa30 value="0.0000963667" flag="0"/>
    </comp>
    <comp name="--.HHE">
      <acc value="0.0061131433" flag="0"/>
      <vel value="0.0028547355" flag="0"/>
      <psa03 value="0.0195632202" flag="0"/>
      <psa10 value="0.0030578448" flag="0"/>
      <psa30 value="0.0001617649" flag="0"/>
    </comp>
  </station>
  <station code="GSCL" name="GSCL" netid="GU" insttype="" lat="44.3506" lon="10.588">
    <comp name="--.HHZ">
      <acc value="0.0029243379" flag="0"/>
      <vel value="0.0018401798" flag="0"/>
      <psa03 value="0.0099806410" flag="0"/>
      <psa10 value="0.0026674840" flag="0"/>
      <psa30 value="0.0002278311" flag="0"/>
    </comp>
    <comp name="--.HHE">
      <acc value="0.0056131857" flag="0"/>
      <vel value="0.0031411914" flag="0"/>
      <psa03 value="0.0132753988" flag="0"/>
      <psa10 value="0.0057340572" flag="0"/>
      <psa30 value="0.0003901416" flag="0"/>
    </comp>
    <comp name="--.HHN">
      <acc value="0.0076029290" flag="0"/>
      <vel value="0.0030923921" flag="0"/>
      <psa03 value="0.0214504829" flag="0"/>
      <psa10 value="0.0044682507" flag="0"/>
      <psa30 value="0.0002571650" flag="0"/>
    </comp>
  </station>
  <station code="MAIM" name="MAIM" netid="GU" insttype="" lat="43.9142" lon="10.4915">
    <comp name="--.HHE">
      <acc value="0.0068051617" flag="0"/>
      <vel value="0.0020979934" flag="0"/>
      <psa03 value="0.0134434938" flag="0"/>
      <psa10 value="0.0014908173" flag="0"/>
      <psa30 value="0.0002864042" flag="0"/>
    </comp>
    <comp name="--.HHN">
      <acc value="0.0117133301" flag="0"/>
      <vel value="0.0039392620" flag="0"/>
      <psa03 value="0.0290763220" flag="0"/>
      <psa10 value="0.0032621116" flag="0"/>
      <psa30 value="0.0002225039" flag="0"/>
    </comp>
    <comp name="--.HHZ">
      <acc value="0.0087171225" flag="0"/>
      <vel value="0.0024570344" flag="0"/>
      <psa03 value="0.0170697813" flag="0"/>
      <psa10 value="0.0033012548" flag="0"/>
      <psa30 value="0.0003170371" flag="0"/>
    </comp>
  </station>
  <station code="POPM" name="POPM" netid="GU" insttype="" lat="44.045" lon="10.757">
    <comp name="--.HHE">
      <acc value="0.0361586072" flag="0"/>
      <vel value="0.0111958326" flag="0"/>
      <psa03 value="0.0456267857" flag="0"/>
      <psa10 value="0.0066844327" flag="0"/>
      <psa30 value="0.0002817148" flag="0"/>
    </comp>
    <comp name="--.HHN">
      <acc value="0.0330074273" flag="0"/>
      <vel value="0.0108211680" flag="0"/>
      <psa03 value="0.0777007932" flag="0"/>
      <psa10 value="0.0036761033" flag="0"/>
      <psa30 value="0.0003559723" flag="0"/>
    </comp>
    <comp name="--.HHZ">
      <acc value="0.0181847323" flag="0"/>
      <vel value="0.0061240247" flag="0"/>
      <psa03 value="0.0332145514" flag="0"/>
      <psa10 value="0.0048513531" flag="0"/>
      <psa30 value="0.0003628247" flag="0"/>
    </comp>
  </station>
  <station code="APEC" name="APEC" netid="IV" insttype="" lat="43.5585" lon="12.4199">
    <comp name="--.HHN">
      <acc value="0.0168045484" flag="0"/>
      <vel value="0.0089023648" flag="0"/>
      <psa03 value="0.0388248541" flag="0"/>
      <psa10 value="0.0094610319" flag="0"/>
      <psa30 value="0.0004157152" flag="0"/>
    </comp>
    <comp name="--.HHE">
      <acc value="0.0134924091" flag="0"/>
      <vel value="0.0093192400" flag="0"/>
      <psa03 value="0.0545547099" flag="0"/>
      <psa10 value="0.0071814882" flag="0"/>
      <psa30 value="0.0004602649" flag="0"/>
    </comp>
    <comp name="--.HHZ">
      <acc value="0.0065128023" flag="0"/>
      <vel value="0.0047296441" flag="0"/>
      <psa03 value="0.0179088226" flag="0"/>
      <psa10 value="0.0079287651" flag="0"/>
      <psa30 value="0.0003519808" flag="0"/>
    </comp>
  </station>
  <station code="ARCI" name="ARCI" netid="IV" insttype="" lat="42.8519" lon="11.4754">
    <comp name="--.HHE">
      <acc value="0.0089497565" flag="0"/>
      <vel value="0.0044247653" flag="0"/>
      <psa03 value="0.0269846622" flag="0"/>
      <psa10 value="0.0038966119" flag="0"/>
      <psa30 value="0.0002764919" flag="0"/>
    </comp>
    <comp name="--.HHN">
      <acc value="0.0116041307" flag="0"/>
      <vel value="0.0055640384" flag="0"/>
      <psa03 value="0.0272163306" flag="0"/>
      <psa10 value="0.0034662832" flag="0"/>
      <psa30 value="0.0002789981" flag="0"/>
    </comp>
    <comp name="--.HHZ">
      <acc value="0.0058455681" flag="0"/>
      <vel value="0.0026909540" flag="0"/>
      <psa03 value="0.0124170088" flag="0"/>
      <psa10 value="0.0011014474" flag="0"/>
      <psa30 value="0.0001378060" flag="0"/>
    </comp>
  </station>
  <station code="ATFO" name="ATFO" netid="IV" insttype="" lat="43.3666" lon="12.5715">
    <comp name="--.HHE">
      <acc value="0.0063622149" flag="0"/>
      <vel value="0.0036237632" flag="0"/>
      <psa03 value="0.0208496204" flag="0"/>
      <psa10 value="0.0046865270" flag="0"/>
      <psa30 value="0.0004289900" flag="0"/>
    </comp>
    <comp name="--.HHN">
      <acc value="0.0049098938" flag="0"/>
      <vel value="0.0035476542" flag="0"/>
      <psa03 value="0.0227033489" flag="0"/>
      <psa10 value="0.0026183405" flag="0"/>
      <psa30 value="0.0003889769" flag="0"/>
    </comp>
    <comp name="--.HHZ">
      <acc value="0.0027740580" flag="0"/>
      <vel value="0.0019487935" flag="0"/>
      <psa03 value="0.0106342496" flag="0"/>
      <psa10 value="0.0021387573" flag="0"/>
      <psa30 value="0.0002446403" flag="0"/>
    </comp>
  </station>
  <station code="ATMI" name="ATMI" netid="IV" insttype="" lat="43.3342" lon="12.268">
    <comp name="--.HHN">
      <acc value="0.0208769852" flag="0"/>
      <vel value="0.0137993069" flag="0"/>
      <psa03 value="0.0658125944" flag="0"/>
      <psa10 value="0.0201677332" flag="0"/>
      <psa30 value="0.0008720509" flag="0"/>
    </comp>
    <comp name="--.HHE">
      <acc value="0.0156307003" flag="0"/>
      <vel value="0.0119686792" flag="0"/>
      <psa03 value="0.0701533380" flag="0"/>
      <psa10 value="0.0125053360" flag="0"/>
      <psa30 value="0.0009416730" flag="0"/>
    </comp>
    <comp name="--.HHZ">
      <acc value="0.0098236654" flag="0"/>
      <vel value="0.0061181934" flag="0"/>
      <psa03 value="0.0288232091" flag="0"/>
      <psa10 value="0.0057897853" flag="0"/>
      <psa30 value="0.0005399869" flag="0"/>
    </comp>
  </station>
  <station code="ATPC" name="ATPC" netid="IV" insttype="" lat="43.4807" lon="12.457">
    <comp name="--.HHE">
      <acc value="0.0140696976" flag="0"/>
      <vel value="0.0073216693" flag="0"/>
      <psa03 value="0.0389390989" flag="0"/>
      <psa10 value="0.0083391092" flag="0"/>
      <psa30 value="0.0004671062" flag="0"/>
    </comp>
    <comp name="--.HHN">
      <acc value="0.0089106573" flag="0"/>
      <vel value="0.0073085246" flag="0"/>
      <psa03 value="0.0270737363" flag="0"/>
      <psa10 value="0.0061443446" flag="0"/>
      <psa30 value="0.0005135413" flag="0"/>
    </comp>
    <comp name="--.HHZ">
      <acc value="0.0072933542" flag="0"/>
      <vel value="0.0045673986" flag="0"/>
      <psa03 value="0.0331333455" flag="0"/>
      <psa10 value="0.0044912250" flag="0"/>
      <psa30 value="0.0004675833" flag="0"/>
    </comp>
  </station>
  <station code="ATVO" name="ATVO" netid="IV" insttype="" lat="43.3821" lon="12.4066">
    <comp name="--.HHE">
      <acc value="0.0094068799" flag="0"/>
      <vel value="0.0072926464" flag="0"/>
      <psa03 value="0.0215030742" flag="0"/>
      <psa10 value="0.0093964239" flag="0"/>
      <psa30 value="0.0003934004" flag="0"/>
    </comp>
    <comp name="--.HHN">
      <acc value="0.0082471426" flag="0"/>
      <vel value="0.0065565418" flag="0"/>
      <psa03 value="0.0246494569" flag="0"/>
      <psa10 value="0.0067182985" flag="0"/>
      <psa30 value="0.0007603333" flag="0"/>
    </comp>
    <comp name="--.HHZ">
      <acc value="0.0041416960" flag="0"/>
      <vel value="0.0026475926" flag="0"/>
      <psa03 value="0.0127797252" flag="0"/>
      <psa10 value="0.0035040441" flag="0"/>
      <psa30 value="0.0004257324" flag="0"/>
    </comp>
  </station>
  <station code="BDI" name="BDI" netid="IV" insttype="" lat="44.0624" lon="10.597">
    <comp name="--.HHE">
      <acc value="0.0188030708" flag="0"/>
      <vel value="0.0065163034" flag="0"/>
      <psa03 value="0.0462574177" flag="0"/>
      <psa10 value="0.0037706885" flag="0"/>
      <psa30 value="0.0002674689" flag="0"/>
    </comp>
    <comp name="--.HHZ">
      <acc value="0.0135711558" flag="0"/>
      <vel value="0.0052613937" flag="0"/>
      <psa03 value="0.0316432379" flag="0"/>
      <psa10 value="0.0027303585" flag="0"/>
      <psa30 value="0.0002201664" flag="0"/>
    </comp>
    <comp name="--.HHN">
      <acc value="0.0206344123" flag="0"/>
      <vel value="0.0068208038" flag="0"/>
      <psa03 value="0.0411745393" flag="0"/>
      <psa10 value="0.0069607085" flag="0"/>
      <psa30 value="0.0003742008" flag="0"/>
    </comp>
  </station>
  <station code="BRIS" name="BRIS" netid="IV" insttype="" lat="44.2245" lon="11.7666">
    <comp name="--.HHE">
      <acc value="0.0057044590" flag="0"/>
      <vel value="0.0039693783" flag="0"/>
      <psa03 value="0.0196900098" flag="0"/>
      <psa10 value="0.0051535348" flag="0"/>
      <psa30 value="0.0004621101" flag="0"/>
    </comp>
    <comp name="--.HHN">
      <acc value="0.0088116790" flag="0"/>
      <vel value="0.0050898999" flag="0"/>
      <psa03 value="0.0267629274" flag="0"/>
      <psa10 value="0.0032624131" flag="0"/>
      <psa30 value="0.0004186035" flag="0"/>
    </comp>
    <comp name="--.HHZ">
      <acc value="0.0053256654" flag="0"/>
      <vel value="0.0037362542" flag="0"/>
      <psa03 value="0.0149079899" flag="0"/>
      <psa10 value="0.0046891313" flag="0"/>
      <psa30 value="0.0003856955" flag="0"/>
    </comp>
  </station>
  <station code="CAFI" name="CAFI" netid="IV" insttype="" lat="43.3292" lon="11.9663">
    <comp name="--.HHN">
      <acc value="0.0094820460" flag="0"/>
      <vel value="0.0042855874" flag="0"/>
      <psa03 value="0.0279903493" flag="0"/>
      <psa10 value="0.0041079491" flag="0"/>
      <psa30 value="0.0003385289" flag="0"/>
    </comp>
    <comp name="--.HHE">
      <acc value="0.0111404297" flag="0"/>
      <vel value="0.0064687082" flag="0"/>
      <psa03 value="0.0343025362" flag="0"/>
      <psa10 value="0.0034109921" flag="0"/>
      <psa30 value="0.0003655772" flag="0"/>
    </comp>
    <comp name="--.HHZ">
      <acc value="0.0090290794" flag="0"/>
      <vel value="0.0043685319" flag="0"/>
      <psa03 value="0.0194803493" flag="0"/>
      <psa10 value="0.0060298100" flag="0"/>
      <psa30 value="0.0004465589" flag="0"/>
    </comp>
  </station>
  <station code="CASP" name="CASP" netid="IV" insttype="" lat="42.7908" lon="10.8652">
    <comp name="--.HHE">
      <acc value="0.0055445672" flag="0"/>
      <vel value="0.0027046778" flag="0"/>
      <psa03 value="0.0131551526" flag="0"/>
      <psa10 value="0.0019545655" flag="0"/>
      <psa30 value="0.0001515967" flag="0"/>
    </comp>
    <comp name="--.HHN">
      <acc value="0.0039841407" flag="0"/>
      <vel value="0.0017074709" flag="0"/>
      <psa03 value="0.0125518049" flag="0"/>
      <psa10 value="0.0017942428" flag="0"/>
      <psa30 value="0.0000827501" flag="0"/>
    </comp>
    <comp name="--.HHZ">
      <acc value="0.0044492785" flag="0"/>
      <vel value="0.0019269831" flag="0"/>
      <psa03 value="0.0138653702" flag="0"/>
      <psa10 value="0.0015445446" flag="0"/>
      <psa30 value="0.0000648880" flag="0"/>
    </comp>
  </station>
  <station code="CRE" name="CRE" netid="IV" insttype="" lat="43.6189" lon="11.9517">
    <comp name="--.HHE">
      <acc value="0.0337723849" flag="0"/>
      <vel value="0.0132248623" flag="0"/>
      <psa03 value="0.0854870805" flag="0"/>
      <psa10 value="0.0076945761" flag="0"/>
      <psa30 value="0.0008611097" flag="0"/>
    </comp>
    <comp name="--.HHN">
      <acc value="0.0418225020" flag="0"/>
      <vel value="0.0158895026" flag="0"/>
      <psa03 value="0.0694852067" flag="0"/>
      <psa10 value="0.0117733036" flag="0"/>
      <psa30 value="0.0007125874" flag="0"/>
    </comp>
    <comp name="--.HHZ">
      <acc value="0.0197694524" flag="0"/>
      <vel value="0.0055100656" flag="0"/>
      <psa03 value="0.0558822105" flag="0"/>
      <psa10 value="0.0056033415" flag="0"/>
      <psa30 value="0.0006635316" flag="0"/>
    </comp>
  </station>
  <station code="CSNT" name="CSNT" netid="IV" insttype="" lat="43.4731" lon="11.2902">
    <comp name="--.HHE">
      <acc value="0.2470681530" flag="0"/>
      <vel value="0.0832239372" flag="0"/>
      <psa03 value="0.8223388201" flag="0"/>
      <psa10 value="0.0495086786" flag="0"/>
      <psa30 value="0.0031744171" flag="0"/>
    </comp>
    <comp name="--.HHZ">
      <acc value="0.1598486651" flag="0"/>
      <vel value="0.0344623172" flag="0"/>
      <psa03 value="0.2513943481" flag="0"/>
      <psa10 value="0.0307563966" flag="0"/>
      <psa30 value="0.0018438855" flag="0"/>
    </comp>
    <comp name="--.HHN">
      <acc value="0.2418514740" flag="0"/>
      <vel value="0.0803431872" flag="0"/>
      <psa03 value="0.3310588104" flag="0"/>
      <psa10 value="0.0270714804" flag="0"/>
      <psa30 value="0.0017421487" flag="0"/>
    </comp>
  </station>
  <station code="FIR" name="FIR" netid="IV" insttype="" lat="43.7744" lon="11.2551">
    <comp name="--.HHE">
      <acc value="0.9144385778" flag="0"/>
      <vel value="0.2432744885" flag="0"/>
      <psa03 value="1.1396804800" flag="0"/>
      <psa10 value="0.0610228963" flag="0"/>
      <psa30 value="0.0042528777" flag="0"/>
    </comp>
    <comp name="--.HHN">
      <acc value="0.8534194087" flag="0"/>
      <vel value="0.2714063045" flag="0"/>
      <psa03 value="0.6624068476" flag="0"/>
      <psa10 value="0.1632889016" flag="0"/>
      <psa30 value="0.0108388491" flag="0"/>
    </comp>
    <comp name="--.HHZ">
      <acc value="0.6022849046" flag="0"/>
      <vel value="0.0769085881" flag="0"/>
      <psa03 value="0.3094207274" flag="0"/>
      <psa10 value="0.0501730043" flag="0"/>
      <psa30 value="0.0018852263" flag="0"/>
    </comp>
  </station>
  <station code="FNVD" name="FNVD" netid="IV" insttype="" lat="44.1678" lon="11.1229">
    <comp name="--.HHN">
      <acc value="0.0658036045" flag="0"/>
      <vel value="0.0214638225" flag="0"/>
      <psa03 value="0.1126026923" flag="0"/>
      <psa10 value="0.0215583839" flag="0"/>
      <psa30 value="0.0010884119" flag="0"/>
    </comp>
    <comp name="--.HHZ">
      <acc value="0.0222892416" flag="0"/>
      <vel value="0.0085494762" flag="0"/>
      <psa03 value="0.0626380602" flag="0"/>
      <psa10 value="0.0117375615" flag="0"/>
      <psa30 value="0.0004456781" flag="0"/>
    </comp>
    <comp name="--.HHE">
      <acc value="0.0470379402" flag="0"/>
      <vel value="0.0188446652" flag="0"/>
      <psa03 value="0.1094693363" flag="0"/>
      <psa10 value="0.0143719723" flag="0"/>
      <psa30 value="0.0007906546" flag="0"/>
    </comp>
  </station>
  <station code="LATE" name="LATE" netid="IV" insttype="" lat="42.6137" lon="11.804">
    <comp name="--.HHE">
      <acc value="0.0011518451" flag="0"/>
      <vel value="0.0006604361" flag="0"/>
      <psa03 value="0.0037214700" flag="0"/>
      <psa10 value="0.0009722955" flag="0"/>
      <psa30 value="0.0002182904" flag="0"/>
    </comp>
    <comp name="--.HHN">
      <acc value="0.0013439359" flag="0"/>
      <vel value="0.0008787109" flag="0"/>
      <psa03 value="0.0043855215" flag="0"/>
      <psa10 value="0.0015331519" flag="0"/>
      <psa30 value="0.0001832191" flag="0"/>
    </comp>
    <comp name="--.HHZ">
      <acc value="0.0006266951" flag="0"/>
      <vel value="0.0003129630" flag="0"/>
      <psa03 value="0.0019158361" flag="0"/>
      <psa10 value="0.0005886397" flag="0"/>
      <psa30 value="0.0000995868" flag="0"/>
    </comp>
  </station>
  <station code="LMD" name="LMD" netid="IV" insttype="" lat="44.0775" lon="11.7073">
    <comp name="--.HHE">
      <acc value="0.0503343031" flag="0"/>
      <vel value="0.0179554199" flag="0"/>
      <psa03 value="0.0869056728" flag="0"/>
      <psa10 value="0.0083610710" flag="0"/>
      <psa30 value="0.0006141583" flag="0"/>
    </comp>
    <comp name="--.HHN">
      <acc value="0.0585202970" flag="0"/>
      <vel value="0.0161689125" flag="0"/>
      <psa03 value="0.0822557005" flag="0"/>
      <psa10 value="0.0107491221" flag="0"/>
      <psa30 value="0.0005814690" flag="0"/>
    </comp>
