<?xml version="1.0" encoding="UTF-8" standalone="yes"?>
<!DOCTYPE earthquake SYSTEM "stationlist.dtd">
<stationlist created="" xmlns="ch.ethz.sed.shakemap.usgs.xml">
  <station code="KNSS" name="KNSS" netid="HC" insttype="60" commtype="DIG" lat="35.3042" lon="25.1802">
    <comp name="--.HHE">
      <acc value="0.0000000000" flag="0"/>
      <vel value="-100.0000000000" flag="0"/>
      <psa03 value="0.0000000000" flag="0"/>
      <psa10 value="0.0000000000" flag="0"/>
      <psa30 value="0.0000000000" flag="0"/>
    </comp>
    <comp name="--.HHZ">
      <acc value="0.0031136397" flag="0"/>
      <vel value="0.0018342702" flag="0"/>
      <psa03 value="0.0076691337" flag="0"/>
      <psa10 value="0.0028232770" flag="0"/>
      <psa30 value="0.0003869600" flag="0"/>
    </comp>
    <comp name="--.HHN">
      <acc value="0.0027106242" flag="0"/>
      <vel value="0.0024735090" flag="0"/>
      <psa03 value="0.0081296426" flag="0"/>
      <psa10 value="0.0029167518" flag="0"/>
      <psa30 value="0.0003496064" flag="0"/>
    </comp>
  </station>
  <station code="PFKS" name="PFKS" netid="HC" insttype="120" commtype="DIG" lat="35.0429" lon="25.4733">
    <comp name="--.HHZ">
      <acc value="0.0084718766" flag="0"/>
      <vel value="0.0055244729" flag="0"/>
      <psa03 value="0.0298423936" flag="0"/>
      <psa10 value="0.0084794586" flag="0"/>
      <psa30 value="0.0005360329" flag="0"/>
    </comp>
    <comp name="--.HHN">
      <acc value="0.0129848973" flag="0"/>
      <vel value="0.0095420032" flag="0"/>
      <psa03 value="0.0393084514" flag="0"/>
      <psa10 value="0.0085079099" flag="0"/>
      <psa30 value="0.0005879652" flag="0"/>
    </comp>
    <comp name="--.HHE">
      <acc value="0.0189115144" flag="0"/>
      <vel value="0.0127583308" flag="0"/>
      <psa03 value="0.0623710284" flag="0"/>
      <psa10 value="0.0203720306" flag="0"/>
      <psa30 value="0.0007591883" flag="0"/>
    </comp>
  </station>
  <station code="STIA" name="STIA" netid="HC" insttype="120" commtype="DIG" lat="35.2021" lon="26.0909">
    <comp name="--.HHE">
      <acc value="0.0133184593" flag="0"/>
      <vel value="0.0134793501" flag="0"/>
      <psa03 value="0.0401495076" flag="0"/>
      <psa10 value="0.0183035845" flag="0"/>
      <psa30 value="0.0009531483" flag="0"/>
    </comp>
    <comp name="--.HHZ">
      <acc value="0.0178045222" flag="0"/>
      <vel value="0.0067194804" flag="0"/>
      <psa03 value="0.0397962465" flag="0"/>
      <psa10 value="0.0091296223" flag="0"/>
      <psa30 value="0.0007307876" flag="0"/>
    </comp>
    <comp name="--.HHN">
      <acc value="0.0000000000" flag="0"/>
      <vel value="-100.0000000000" flag="0"/>
      <psa03 value="0.0000000000" flag="0"/>
      <psa10 value="0.0000000000" flag="0"/>
      <psa30 value="0.0000000000" flag="0"/>
    </comp>
  </station>
  <station code="SIT2" name="SIT2" netid="HI" insttype="CMG-5TD,ACCELEROMETER,GURALP" commtype="DIG" lat="35.2059" lon="26.107">
    <comp name="--.HNN">
      <acc value="0.0415250676" flag="0"/>
      <vel value="0.0303444395" flag="0"/>
      <psa03 value="0.1501939454" flag="0"/>
      <psa10 value="0.0294337346" flag="0"/>
      <psa30 value="0.0016812033" flag="0"/>
    </comp>
    <comp name="--.HNE">
      <acc value="0.0475314615" flag="0"/>
      <vel value="0.0319189894" flag="0"/>
      <psa03 value="0.2089453431" flag="0"/>
      <psa10 value="0.0241044899" flag="0"/>
      <psa30 value="0.0016427146" flag="0"/>
    </comp>
    <comp name="--.HNZ">
      <acc value="0.0254624155" flag="0"/>
      <vel value="0.0122965237" flag="0"/>
      <psa03 value="0.0595651979" flag="0"/>
      <psa10 value="0.0083636623" flag="0"/>
      <psa30 value="0.0007757489" flag="0"/>
    </comp>
  </station>
  <station code="IDI" name="IDI" netid="HL" insttype="120" commtype="DIG" lat="35.288" lon="24.89">
    <comp name="--.HHE">
      <acc value="0.0015256972" flag="0"/>
      <vel value="0.0015014526" flag="0"/>
      <psa03 value="0.0033003179" flag="0"/>
      <psa10 value="0.0022825270" flag="0"/>
      <psa30 value="0.0002390909" flag="0"/>
    </comp>
    <comp name="--.HHZ">
      <acc value="0.0013268226" flag="0"/>
      <vel value="0.0010150298" flag="0"/>
      <psa03 value="0.0031001027" flag="0"/>
      <psa10 value="0.0013794926" flag="0"/>
      <psa30 value="0.0002518946" flag="0"/>
    </comp>
    <comp name="--.HHN">
      <acc value="0.0018064047" flag="0"/>
      <vel value="0.0015196979" flag="0"/>
      <psa03 value="0.0052681726" flag="0"/>
      <psa10 value="0.0018566313" flag="0"/>
      <psa30 value="0.0002778494" flag="0"/>
    </comp>
  </station>
  <station code="NPS" name="NPS" netid="HL" insttype="CMG3ESPC-120s" commtype="DIG" lat="35.2613" lon="25.6104">
    <comp name="--.HHZ">
      <acc value="0.0063331181" flag="0"/>
      <vel value="0.0034750453" flag="0"/>
      <psa03 value="0.0088682949" flag="0"/>
      <psa10 value="0.0079632444" flag="0"/>
      <psa30 value="0.0006020501" flag="0"/>
    </comp>
    <comp name="--.HHE">
      <acc value="0.0030269057" flag="0"/>
      <vel value="0.0024099433" flag="0"/>
      <psa03 value="0.0073743082" flag="0"/>
      <psa10 value="0.0045578701" flag="0"/>
      <psa30 value="0.0002627262" flag="0"/>
    </comp>
    <comp name="--.HHN">
      <acc value="0.0049899863" flag="0"/>
      <vel value="0.0050731823" flag="0"/>
      <psa03 value="0.0188330358" flag="0"/>
      <psa10 value="0.0124159125" flag="0"/>
      <psa30 value="0.0005808721" flag="0"/>
    </comp>
  </station>
  <station code="IDI" name="IDI" netid="MN" insttype="" commtype="DIG" lat="35.288" lon="24.89">
    <comp name="--.HHE">
      <acc value="0.0015768125" flag="0"/>
      <vel value="0.0014944078" flag="0"/>
      <psa03 value="0.0033509076" flag="0"/>
      <psa10 value="0.0022649412" flag="0"/>
      <psa30 value="0.0002364558" flag="0"/>
    </comp>
    <comp name="--.HHZ">
      <acc value="0.0013567360" flag="0"/>
      <vel value="0.0010115221" flag="0"/>
      <psa03 value="0.0031333690" flag="0"/>
      <psa10 value="0.0013692138" flag="0"/>
      <psa30 value="0.0002487713" flag="0"/>
    </comp>
    <comp name="--.HHN">
      <acc value="0.0018186197" flag="0"/>
      <vel value="0.0015093430" flag="0"/>
      <psa03 value="0.0053082222" flag="0"/>
      <psa10 value="0.0018406413" flag="0"/>
      <psa30 value="0.0002745830" flag="0"/>
    </comp>
  </station>
</stationlist>
