<stationlist created="1775808392">
	<station code="TEFL" name="TEFL" netid="HC" source="Seismological Network of Crete (HC)" insttype="" lat="35.093273" lon="25.163418">
		<comp name="--.HNE" depth="0.0">
			<acc value="0.224777893866458" flag="0"/>
			<vel value="0.125840208017702" flag="0"/>
			<psa03 value="0.288107773226017" flag="0"/>
			<psa10 value="0.159772224125727" flag="0"/>
			<psa30 value="0.0854852163093741" flag="0"/>
		</comp>
		<comp name="--.HNN" depth="0.0">
			<acc value="0.220043121012473" flag="0"/>
			<vel value="0.124834975548479" flag="0"/>
			<psa03 value="0.268756220447284" flag="0"/>
			<psa10 value="0.149206364189361" flag="0"/>
			<psa30 value="0.0577223504890999" flag="0"/>
		</comp>
		<comp name="--.HNZ" depth="0.0">
			<acc value="0.207750020808079" flag="0"/>
			<vel value="0.127180048671153" flag="0"/>
			<psa03 value="0.264320343258857" flag="0"/>
			<psa10 value="0.131860880136169" flag="0"/>
			<psa30 value="0.0615322762113142" flag="0"/>
		</comp>
	</station>
	<station code="AGN1" name="AGN1" netid="HI" source="ITSAK Strong Motion Network" insttype="" lat="35.1879" lon="25.7155">
		<comp name="--.HNE" depth="0.0">
			<acc value="0.000235508140753482" flag="0"/>
			<vel value="0.000168567733221028" flag="0"/>
			<psa03 value="0.000304066448248457" flag="0"/>
			<psa10 value="0.000148930993877116" flag="0"/>
			<psa30 value="7.5666594571788e-05" flag="0"/>
		</comp>
		<comp name="--.HNN" depth="0.0">
			<acc value="0.0111854140995678" flag="0"/>
			<vel value="0.00621699943235003" flag="0"/>
			<psa03 value="0.0357048574590763" flag="0"/>
			<psa10 value="0.00929971418542415" flag="0"/>
			<psa30 value="0.000607021930973818" flag="0"/>
		</comp>
		<comp name="--.HNZ" depth="0.0">
			<acc value="0.00839835990381681" flag="0"/>
			<vel value="0.00284504074357693" flag="0"/>
			<psa03 value="0.0145387079097134" flag="0"/>
			<psa10 value="0.00387612575868347" flag="0"/>
			<psa30 value="0.000525250264002195" flag="0"/>
		</comp>
	</station>
	<station code="ARK1" name="ARK1" netid="HI" source="ITSAK Strong Motion Network" insttype="" lat="35.148777" lon="25.264194">
		<comp name="--.HNE" depth="0.0">
			<acc value="0.00625932510824417" flag="0"/>
			<vel value="0.00715390543746005" flag="0"/>
			<psa03 value="0.0181393604977763" flag="0"/>
			<psa10 value="0.0100686323099762" flag="0"/>
			<psa30 value="0.00104117022241744" flag="0"/>
		</comp>
		<comp name="--.HNN" depth="0.0">
			<acc value="0.00813187614356549" flag="0"/>
			<vel value="0.00865954266988614" flag="0"/>
			<psa03 value="0.0244731576849219" flag="0"/>
			<psa10 value="0.0201236512181314" flag="0"/>
			<psa30 value="0.00104844778785376" flag="0"/>
		</comp>
		<comp name="--.HNZ" depth="0.0">
			<acc value="0.00563709388433087" flag="0"/>
			<vel value="0.00622952199672439" flag="0"/>
			<psa03 value="0.0177306758723422" flag="0"/>
			<psa10 value="0.00839352946763392" flag="0"/>
			<psa30 value="0.000977765709679641" flag="0"/>
		</comp>
	</station>
	<station code="GOR1" name="GOR1" netid="HI" source="ITSAK Strong Motion Network" insttype="" lat="35.0582" lon="24.9628">
		<comp name="--.HNE" depth="0.0">
			<acc value="0.00552269652958421" flag="0"/>
			<vel value="0.00840494912011803" flag="0"/>
			<psa03 value="0.0176377882085737" flag="0"/>
			<psa10 value="0.0135871219551474" flag="0"/>
			<psa30 value="0.00146455389450785" flag="0"/>
		</comp>
		<comp name="--.HNN" depth="0.0">
			<acc value="0.00513333162347939" flag="0"/>
			<vel value="0.00735926118159348" flag="0"/>
			<psa03 value="0.0134108714773349" flag="0"/>
			<psa10 value="0.0179679240367854" flag="0"/>
			<psa30 value="0.00129757918741964" flag="0"/>
		</comp>
		<comp name="--.HNZ" depth="0.0">
			<acc value="0.00498748139794078" flag="0"/>
			<vel value="0.00441928172989917" flag="0"/>
			<psa03 value="0.00935118848076026" flag="0"/>
			<psa10 value="0.00888381913441813" flag="0"/>
			<psa30 value="0.000650504551067331" flag="0"/>
		</comp>
	</station>
	<station code="HER1" name="HER1" netid="HI" source="ITSAK Strong Motion Network" insttype="" lat="35.317672" lon="25.10217">
		<comp name="--.HNE" depth="0.0">
			<acc value="0.0146534985910053" flag="0"/>
			<vel value="0.0238978908328864" flag="0"/>
			<psa03 value="0.0188054697284104" flag="0"/>
			<psa10 value="0.0390296080199839" flag="0"/>
			<psa30 value="0.00287416831621193" flag="0"/>
		</comp>
		<comp name="--.HNN" depth="0.0">
			<acc value="0.0176123390484332" flag="0"/>
			<vel value="0.0255033356866693" flag="0"/>
			<psa03 value="0.0293443006867395" flag="0"/>
			<psa10 value="0.0505842247066323" flag="0"/>
			<psa30 value="0.00309296385200905" flag="0"/>
		</comp>
		<comp name="--.HNZ" depth="0.0">
			<acc value="0.0123535226374124" flag="0"/>
			<vel value="0.0128271825372666" flag="0"/>
			<psa03 value="0.0189661366218036" flag="0"/>
			<psa10 value="0.0205199812230492" flag="0"/>
			<psa30 value="0.000908866770463056" flag="0"/>
		</comp>
	</station>
	<station code="HER3" name="HER3" netid="HI" source="ITSAK Strong Motion Network" insttype="" lat="35.3296" lon="25.1065">
		<comp name="--.HNE" depth="0.0">
			<acc value="0.0358972835048703" flag="0"/>
			<vel value="0.0167895018590307" flag="0"/>
			<psa03 value="0.0307194074058109" flag="0"/>
			<psa10 value="0.0416497340904772" flag="0"/>
			<psa30 value="0.0016778984442039" flag="0"/>
		</comp>
		<comp name="--.HNN" depth="0.0">
			<acc value="0.0230859059618495" flag="0"/>
			<vel value="0.026876336507955" flag="0"/>
			<psa03 value="0.0309047269739895" flag="0"/>
			<psa10 value="0.0472167866303863" flag="0"/>
			<psa30 value="0.00265224799007945" flag="0"/>
		</comp>
		<comp name="--.HNZ" depth="0.0">
			<acc value="0.028960715534781" flag="0"/>
			<vel value="0.00795287753993344" flag="0"/>
			<psa03 value="0.0158781677361032" flag="0"/>
			<psa10 value="0.021175783416726" flag="0"/>
			<psa30 value="0.000658387469105296" flag="0"/>
		</comp>
	</station>
	<station code="KSS1" name="KSS1" netid="HI" source="ITSAK Strong Motion Network" insttype="" lat="35.4189" lon="26.9207">
		<comp name="--.HNE" depth="0.0">
			<acc value="0.00290584074841971" flag="0"/>
			<vel value="0.00173892120413877" flag="0"/>
			<psa03 value="0.00789076491194955" flag="0"/>
			<psa10 value="0.00262083463305705" flag="0"/>
			<psa30 value="0.000398172314461705" flag="0"/>
		</comp>
		<comp name="--.HNN" depth="0.0">
			<acc value="0.00348029676716926" flag="0"/>
			<vel value="0.0025562959819781" flag="0"/>
			<psa03 value="0.0145401077420288" flag="0"/>
			<psa10 value="0.00327655877468831" flag="0"/>
			<psa30 value="0.000453718910817771" flag="0"/>
		</comp>
		<comp name="--.HNZ" depth="0.0">
			<acc value="0.00264724857522336" flag="0"/>
			<vel value="0.0013704070180799" flag="0"/>
			<psa03 value="0.0035868141062272" flag="0"/>
			<psa10 value="0.00214490583948521" flag="0"/>
			<psa30 value="0.000557522089352243" flag="0"/>
		</comp>
	</station>
	<station code="SIT2" name="SIT2" netid="HI" source="ITSAK Strong Motion Network" insttype="" lat="35.2059" lon="26.107">
		<comp name="--.HNE" depth="0.0">
			<acc value="0.0468727996722075" flag="0"/>
			<vel value="0.0319501951125336" flag="0"/>
			<psa03 value="0.20512087991828" flag="0"/>
			<psa10 value="0.024104354295174" flag="0"/>
			<psa30 value="0.00168661641756018" flag="0"/>
		</comp>
		<comp name="--.HNN" depth="0.0">
			<acc value="0.0416256389615329" flag="0"/>
			<vel value="0.0303201165444202" flag="0"/>
			<psa03 value="0.149158297671856" flag="0"/>
			<psa10 value="0.0295416538645856" flag="0"/>
			<psa30 value="0.00173877872722386" flag="0"/>
		</comp>
		<comp name="--.HNZ" depth="0.0">
			<acc value="0.0248028075716138" flag="0"/>
			<vel value="0.0122061731230702" flag="0"/>
			<psa03 value="0.0598265413397503" flag="0"/>
			<psa10 value="0.0083713861257462" flag="0"/>
			<psa30 value="0.000817395346346794" flag="0"/>
		</comp>
	</station>
	<station code="HERG" name="HERG" netid="HL" source="National Observatory of Athens Seismic Network" insttype="" lat="35.32622" lon="25.06586">
		<comp name="00.HNE" depth="0.0">
			<acc value="0.00896352036444805" flag="0"/>
			<vel value="0.013926091281387" flag="0"/>
			<psa03 value="0.0188029370085468" flag="0"/>
			<psa10 value="0.0279628761533105" flag="0"/>
			<psa30 value="0.00226868674769623" flag="0"/>
		</comp>
		<comp name="00.HNN" depth="0.0">
			<acc value="0.0110867627013916" flag="0"/>
			<vel value="0.0145120004233972" flag="0"/>
			<psa03 value="0.0178319338822718" flag="0"/>
			<psa10 value="0.0283123411786533" flag="0"/>
			<psa30 value="0.00181357847400665" flag="0"/>
		</comp>
		<comp name="00.HNZ" depth="0.0">
			<acc value="0.0208193587406274" flag="0"/>
			<vel value="0.00841800805785352" flag="0"/>
			<psa03 value="0.0126333355943986" flag="0"/>
			<psa10 value="0.0129561754705393" flag="0"/>
			<psa30 value="0.000680356580701121" flag="0"/>
		</comp>
	</station>
	<station code="IACM" name="IACM" netid="HL" source="National Observatory of Athens Seismic Network" insttype="" lat="35.3058" lon="25.0709">
		<comp name="--.HNE" depth="0.0">
			<acc value="0.0154181977383485" flag="0"/>
			<vel value="0.0167860121467793" flag="0"/>
			<psa03 value="0.0318100369463321" flag="0"/>
			<psa10 value="0.0380054826767061" flag="0"/>
			<psa30 value="0.00209405663764181" flag="0"/>
		</comp>
		<comp name="--.HNN" depth="0.0">
			<acc value="0.0165523944495555" flag="0"/>
			<vel value="0.0153631969657053" flag="0"/>
			<psa03 value="0.0396286903104122" flag="0"/>
			<psa10 value="0.0380242939228588" flag="0"/>
			<psa30 value="0.00185934817269123" flag="0"/>
		</comp>
		<comp name="--.HNZ" depth="0.0">
			<acc value="0.0121249780420906" flag="0"/>
			<vel value="0.00756691540408358" flag="0"/>
			<psa03 value="0.0257373143457632" flag="0"/>
			<psa10 value="0.0131794315101562" flag="0"/>
			<psa30 value="0.000749077643550936" flag="0"/>
		</comp>
	</station>
	<station code="KARP" name="KARP" netid="HL" source="National Observatory of Athens Seismic Network" insttype="" lat="35.5471" lon="27.16106">
		<comp name="--.HNE" depth="0.0">
			<acc value="0.0057360126884649" flag="0"/>
			<vel value="0.00341417906874814" flag="0"/>
			<psa03 value="0.00640348279305838" flag="0"/>
			<psa10 value="0.00738268797309586" flag="0"/>
			<psa30 value="0.00045385131542226" flag="0"/>
		</comp>
		<comp name="--.HNN" depth="0.0">
			<acc value="0.00482184532217272" flag="0"/>
			<vel value="0.00310713847250203" flag="0"/>
			<psa03 value="0.00513851064850779" flag="0"/>
			<psa10 value="0.00657469554131268" flag="0"/>
			<psa30 value="0.000354080018563495" flag="0"/>
		</comp>
		<comp name="--.HNZ" depth="0.0">
			<acc value="0.00400036274830085" flag="0"/>
			<vel value="0.00154622168177652" flag="0"/>
			<psa03 value="0.00486769257793139" flag="0"/>
			<psa10 value="0.00304279641407916" flag="0"/>
			<psa30 value="0.000489791352523333" flag="0"/>
		</comp>
	</station>
	<station code="SIVA" name="SIVA" netid="HL" source="National Observatory of Athens Seismic Network" insttype="" lat="35.01777" lon="24.81204">
		<comp name="00.HNE" depth="0.0">
			<acc value="0.00659589905808046" flag="0"/>
			<vel value="0.00592750820199359" flag="0"/>
			<psa03 value="0.0223390553736174" flag="0"/>
			<psa10 value="0.0110505336061182" flag="0"/>
			<psa30 value="0.000671828932452943" flag="0"/>
		</comp>
		<comp name="00.HNN" depth="0.0">
			<acc value="0.00666938816435545" flag="0"/>
			<vel value="0.00724907964049607" flag="0"/>
			<psa03 value="0.0138853820780001" flag="0"/>
			<psa10 value="0.0133759895311605" flag="0"/>
			<psa30 value="0.000663780899310245" flag="0"/>
		</comp>
		<comp name="00.HNZ" depth="0.0">
			<acc value="0.00352595880629911" flag="0"/>
			<vel value="0.00300440938683451" flag="0"/>
			<psa03 value="0.0115907639249755" flag="0"/>
			<psa10 value="0.00712407974782012" flag="0"/>
			<psa30 value="0.000457529319488645" flag="0"/>
		</comp>
	</station>
</stationlist>
