<stationlist created="1778136175">
	<station code="ERCV" name="ERCV" netid="KO" source="Bogazici University Kandilli Observatory And Earthquake Research Institute (KOERI)" insttype="" lat="39.0198" lon="43.3381">
		<comp name="--.HNE" depth="0.0">
			<acc value="0.0286091005349402" flag="0"/>
			<vel value="0.0592455959580651" flag="0"/>
			<psa03 value="0.062123808105789" flag="0"/>
			<psa10 value="0.0664956100076739" flag="0"/>
			<psa30 value="0.0407972359500066" flag="0"/>
		</comp>
		<comp name="--.HNN" depth="0.0">
			<acc value="0.0254177187827447" flag="0"/>
			<vel value="0.0576252013501179" flag="0"/>
			<psa03 value="0.067099846077089" flag="0"/>
			<psa10 value="0.072861326705473" flag="0"/>
			<psa30 value="0.0324319151218624" flag="0"/>
		</comp>
		<comp name="--.HNZ" depth="0.0">
			<acc value="0.017028172399406" flag="0"/>
			<vel value="0.0287765916615995" flag="0"/>
			<psa03 value="0.0326624814374192" flag="0"/>
			<psa10 value="0.0391388752584117" flag="0"/>
			<psa30 value="0.00548749435290981" flag="0"/>
		</comp>
	</station>
</stationlist>
