<?xml version="1.0" encoding="UTF-8" standalone="yes"?>
<!DOCTYPE earthquake SYSTEM "stationlist.dtd">
<stationlist created="" xmlns="ch.ethz.sed.shakemap.usgs.xml">
  <station code="AGRB" name="AGRB" netid="KO" insttype="120s," lat="39.5755" lon="42.992">
    <comp name="--.HHZ">
      <acc value="0.0159217657" flag="0"/>
      <vel value="0.0169378889" flag="0"/>
      <psa03 value="0.0391029132" flag="0"/>
      <psa10 value="0.0217626185" flag="0"/>
      <psa30 value="0.0013351022" flag="0"/>
    </comp>
    <comp name="--.HHE">
      <acc value="0.0195807958" flag="0"/>
      <vel value="0.0223467515" flag="0"/>
      <psa03 value="0.0441615702" flag="0"/>
      <psa10 value="0.0358012811" flag="0"/>
      <psa30 value="0.0028395364" flag="0"/>
    </comp>
    <comp name="--.HHN">
      <acc value="0.0105898835" flag="0"/>
      <vel value="0.0139592100" flag="0"/>
      <psa03 value="0.0321499356" flag="0"/>
      <psa10 value="0.0347255955" flag="0"/>
      <psa30 value="0.0027269538" flag="0"/>
    </comp>
  </station>
  <station code="KARS" name="KARS" netid="KO" insttype="120s," lat="40.6152" lon="43.0937">
    <comp name="--.HHN">
      <acc value="0.0172069088" flag="0"/>
      <vel value="0.0169466464" flag="0"/>
      <psa03 value="0.0390214121" flag="0"/>
      <psa10 value="0.0246970371" flag="0"/>
      <psa30 value="0.0051611488" flag="0"/>
    </comp>
    <comp name="--.HHZ">
      <acc value="0.0147741459" flag="0"/>
      <vel value="0.0165785349" flag="0"/>
      <psa03 value="0.0313659999" flag="0"/>
      <psa10 value="0.0301742435" flag="0"/>
      <psa30 value="0.0079554756" flag="0"/>
    </comp>
    <comp name="--.HHE">
      <acc value="0.0177286403" flag="0"/>
      <vel value="0.0167144916" flag="0"/>
      <psa03 value="0.0491778454" flag="0"/>
      <psa10 value="0.0165273022" flag="0"/>
      <psa30 value="0.0072582275" flag="0"/>
    </comp>
  </station>
  <station code="TASB" name="TASB" netid="KO" insttype="120s," lat="39.9839" lon="44.2384">
    <comp name="--.HHZ">
      <acc value="0.5357937847" flag="0"/>
      <vel value="0.1110830498" flag="0"/>
      <psa03 value="0.4130436754" flag="0"/>
      <psa10 value="0.1324107835" flag="0"/>
      <psa30 value="0.0305121743" flag="0"/>
    </comp>
    <comp name="--.HHN">
      <acc value="0.6940014572" flag="0"/>
      <vel value="0.1933333345" flag="0"/>
      <psa03 value="0.7453623672" flag="0"/>
      <psa10 value="0.1392539829" flag="0"/>
      <psa30 value="0.0313097062" flag="0"/>
    </comp>
    <comp name="--.HHE">
      <acc value="0.5198180748" flag="0"/>
      <vel value="0.2826276760" flag="0"/>
      <psa03 value="0.6833994883" flag="0"/>
      <psa10 value="0.2767781070" flag="0"/>
      <psa30 value="0.0364232661" flag="0"/>
    </comp>
  </station>
</stationlist>
