<stationlist created="1778135848">
	<station code="BUT" name="BUT" netid="EG" source="EUROSEISTEST Strong Motion Network" insttype="" lat="40.652694" lon="23.300668">
		<comp name="--.EN1" depth="0.0">
			<acc value="0.205982735762615" flag="0"/>
			<vel value="0.0904529552552201" flag="0"/>
			<psa03 value="0.793486147896706" flag="0"/>
			<psa10 value="0.0846613033958402" flag="0"/>
			<psa30 value="0.00643979952178812" flag="0"/>
		</comp>
		<comp name="--.EN2" depth="0.0">
			<acc value="0.199852124102281" flag="0"/>
			<vel value="0.146197132238391" flag="0"/>
			<psa03 value="0.801568099951378" flag="0"/>
			<psa10 value="0.172997985267322" flag="0"/>
			<psa30 value="0.00581892047494307" flag="0"/>
		</comp>
		<comp name="--.EN3" depth="0.0">
			<acc value="0.158756317822788" flag="0"/>
			<vel value="0.0718977413191983" flag="0"/>
			<psa03 value="0.587379952707787" flag="0"/>
			<psa10 value="0.0729072897499992" flag="0"/>
			<psa30 value="0.00329728676239928" flag="0"/>
		</comp>
	</station>
	<station code="E03" name="E03" netid="EG" source="EUROSEISTEST Strong Motion Network" insttype="" lat="40.676239" lon="23.324046">
		<comp name="--.EN1" depth="0.0">
			<acc value="0.122936645379933" flag="0"/>
			<vel value="0.0499521182111816" flag="0"/>
			<psa03 value="0.318085238252609" flag="0"/>
			<psa10 value="0.0900409447705017" flag="0"/>
			<psa30 value="0.00356415902470799" flag="0"/>
		</comp>
		<comp name="--.EN2" depth="0.0">
			<acc value="0.0928125683102177" flag="0"/>
			<vel value="0.0673823232135851" flag="0"/>
			<psa03 value="0.222740797151146" flag="0"/>
			<psa10 value="0.0624031889049546" flag="0"/>
			<psa30 value="0.0060617719793306" flag="0"/>
		</comp>
		<comp name="--.EN3" depth="0.0">
			<acc value="0.049915655841665" flag="0"/>
			<vel value="0.0475077174578185" flag="0"/>
			<psa03 value="0.0876972261774923" flag="0"/>
			<psa10 value="0.0556474238687517" flag="0"/>
			<psa30 value="0.00240748969271054" flag="0"/>
		</comp>
	</station>
	<station code="GRA" name="GRA" netid="EG" source="EUROSEISTEST Strong Motion Network" insttype="" lat="40.675442" lon="23.289389">
		<comp name="--.EN1" depth="0.0">
			<acc value="0.0497500514168993" flag="0"/>
			<vel value="0.0205054270202262" flag="0"/>
			<psa03 value="0.151105280816451" flag="0"/>
			<psa10 value="0.0151942084167488" flag="0"/>
			<psa30 value="0.00128989346994379" flag="0"/>
		</comp>
		<comp name="--.EN2" depth="0.0">
			<acc value="0.0930297945214548" flag="0"/>
			<vel value="0.0300706476710579" flag="0"/>
			<psa03 value="0.183399149293376" flag="0"/>
			<psa10 value="0.0269077175042293" flag="0"/>
			<psa30 value="0.00143505714882591" flag="0"/>
		</comp>
		<comp name="--.EN3" depth="0.0">
			<acc value="0.0955841621301601" flag="0"/>
			<vel value="0.0404792125934646" flag="0"/>
			<psa03 value="0.286262838508152" flag="0"/>
			<psa10 value="0.0392955043843273" flag="0"/>
			<psa30 value="0.00245516555933456" flag="0"/>
		</comp>
	</station>
	<station code="MMAA" name="MMAA" netid="EG" source="EUROSEISTEST Strong Motion Network" insttype="" lat="40.630855" lon="22.943725">
		<comp name="--.EN1" depth="0.0">
			<acc value="0.0811465444198751" flag="0"/>
			<vel value="0.0333433622196705" flag="0"/>
			<psa03 value="0.206384255277473" flag="0"/>
			<psa10 value="0.0536305365096643" flag="0"/>
			<psa30 value="0.00210667559858662" flag="0"/>
		</comp>
		<comp name="--.EN2" depth="0.0">
			<acc value="0.0784042588650118" flag="0"/>
			<vel value="0.0336100519421371" flag="0"/>
			<psa03 value="0.24925465773125" flag="0"/>
			<psa10 value="0.0491194226706881" flag="0"/>
			<psa30 value="0.00208774205266281" flag="0"/>
		</comp>
		<comp name="--.EN3" depth="0.0">
			<acc value="0.0923825058922814" flag="0"/>
			<vel value="0.0425499543136941" flag="0"/>
			<psa03 value="0.150529805194316" flag="0"/>
			<psa10 value="0.0160041926992351" flag="0"/>
			<psa30 value="0.00104412093872284" flag="0"/>
		</comp>
	</station>
	<station code="PRR" name="PRR" netid="EG" source="EUROSEISTEST Strong Motion Network" insttype="" lat="40.682635" lon="23.300668">
		<comp name="--.EN1" depth="0.0">
			<acc value="0.013142766739281" flag="0"/>
			<vel value="0.00756504269688344" flag="0"/>
			<psa03 value="0.05611731124636" flag="0"/>
			<psa10 value="0.00283087198450117" flag="0"/>
			<psa30 value="0.000924658337411671" flag="0"/>
		</comp>
		<comp name="--.EN2" depth="0.0">
			<acc value="0.0587928121360753" flag="0"/>
			<vel value="0.0251870243026206" flag="0"/>
			<psa03 value="0.179678840341414" flag="0"/>
			<psa10 value="0.0194237404774798" flag="0"/>
			<psa30 value="0.00217637334072034" flag="0"/>
		</comp>
		<comp name="--.EN3" depth="0.0">
			<acc value="0.0432958099095775" flag="0"/>
			<vel value="0.0152343980412362" flag="0"/>
			<psa03 value="0.112771866416072" flag="0"/>
			<psa10 value="0.0184590546968005" flag="0"/>
			<psa30 value="0.00131792366014" flag="0"/>
		</comp>
	</station>
	<station code="SHTA" name="SHTA" netid="EG" source="EUROSEISTEST Strong Motion Network" insttype="" lat="40.613764" lon="22.952972">
		<comp name="--.EN1" depth="0.0">
			<acc value="0.0712426732999736" flag="0"/>
			<vel value="0.0376798570042009" flag="0"/>
			<psa03 value="0.161488354060959" flag="0"/>
			<psa10 value="0.0537438502661768" flag="0"/>
			<psa30 value="0.00353527002762284" flag="0"/>
		</comp>
		<comp name="--.EN2" depth="0.0">
			<acc value="0.0666134363194235" flag="0"/>
			<vel value="0.0318007160172104" flag="0"/>
			<psa03 value="0.161460143858974" flag="0"/>
			<psa10 value="0.0394442729895076" flag="0"/>
			<psa30 value="0.00205234679123627" flag="0"/>
		</comp>
		<comp name="--.EN3" depth="0.0">
			<acc value="0.0456649866975192" flag="0"/>
			<vel value="0.0174876233145062" flag="0"/>
			<psa03 value="0.089308030802227" flag="0"/>
			<psa10 value="0.0300740728847255" flag="0"/>
			<psa30 value="0.00145338294615382" flag="0"/>
		</comp>
	</station>
	<station code="STC" name="STC" netid="EG" source="EUROSEISTEST Strong Motion Network" insttype="" lat="40.64865" lon="23.304856">
		<comp name="--.EN1" depth="0.0">
			<acc value="0.105201861705459" flag="0"/>
			<vel value="0.0677718510104282" flag="0"/>
			<psa03 value="0.5968162028115" flag="0"/>
			<psa10 value="0.0458403029449256" flag="0"/>
			<psa30 value="0.00332431542791521" flag="0"/>
		</comp>
		<comp name="--.EN2" depth="0.0">
			<acc value="0.131562781024329" flag="0"/>
			<vel value="0.0620671764393973" flag="0"/>
			<psa03 value="0.441882397540393" flag="0"/>
			<psa10 value="0.0671056029169057" flag="0"/>
			<psa30 value="0.00290699549085137" flag="0"/>
		</comp>
		<comp name="--.EN3" depth="0.0">
			<acc value="0.110254844479283" flag="0"/>
			<vel value="0.0498501667883137" flag="0"/>
			<psa03 value="0.369863501641916" flag="0"/>
			<psa10 value="0.0509473837641016" flag="0"/>
			<psa30 value="0.00211469696329539" flag="0"/>
		</comp>
	</station>
	<station code="TST" name="TST" netid="EG" source="EUROSEISTEST Strong Motion Network" insttype="" lat="40.6638" lon="23.2906">
		<comp name="00.EN1" depth="0.0">
			<acc value="0.110755293253233" flag="0"/>
			<vel value="0.0574544963764125" flag="0"/>
			<psa03 value="0.356992065638816" flag="0"/>
			<psa10 value="0.0836440860103365" flag="0"/>
			<psa30 value="0.00386568649942421" flag="0"/>
		</comp>
		<comp name="00.EN2" depth="0.0">
			<acc value="0.0516992638232505" flag="0"/>
			<vel value="0.0309900353394433" flag="0"/>
			<psa03 value="0.212613626275967" flag="0"/>
			<psa10 value="0.0606109826800194" flag="0"/>
			<psa30 value="0.00201062298557115" flag="0"/>
		</comp>
		<comp name="00.EN3" depth="0.0">
			<acc value="0.0961742091560773" flag="0"/>
			<vel value="0.0535883159793778" flag="0"/>
			<psa03 value="0.321916783740428" flag="0"/>
			<psa10 value="0.0776778982795153" flag="0"/>
			<psa30 value="0.00499394999135436" flag="0"/>
		</comp>
	</station>
	<station code="W02" name="W02" netid="EG" source="EUROSEISTEST Strong Motion Network" insttype="" lat="40.661088" lon="23.260065">
		<comp name="--.EN1" depth="0.0">
			<acc value="0.0760253164841673" flag="0"/>
			<vel value="0.0433304320869028" flag="0"/>
			<psa03 value="0.258529855500751" flag="0"/>
			<psa10 value="0.0727439814317623" flag="0"/>
			<psa30 value="0.00603560024556667" flag="0"/>
		</comp>
		<comp name="--.EN2" depth="0.0">
			<acc value="0.13307208976426" flag="0"/>
			<vel value="0.0601374546684318" flag="0"/>
			<psa03 value="0.473794344883478" flag="0"/>
			<psa10 value="0.13538014327011" flag="0"/>
			<psa30 value="0.00668609792116554" flag="0"/>
		</comp>
		<comp name="--.EN3" depth="0.0">
			<acc value="0.048308424415164" flag="0"/>
			<vel value="0.0290991935771058" flag="0"/>
			<psa03 value="0.120317939223172" flag="0"/>
			<psa10 value="0.0466270150610944" flag="0"/>
			<psa30 value="0.0027735293577097" flag="0"/>
		</comp>
	</station>
	<station code="LMN1" name="LMN1" netid="HI" source="ITSAK Strong Motion Network" insttype="" lat="39.875" lon="25.0588">
		<comp name="--.HNE" depth="0.0">
			<acc value="0.0835245871457645" flag="0"/>
			<vel value="0.0372971673375413" flag="0"/>
			<psa03 value="0.282323323761295" flag="0"/>
			<psa10 value="0.0443350525380455" flag="0"/>
			<psa30 value="0.00234628131506217" flag="0"/>
		</comp>
		<comp name="--.HNN" depth="0.0">
			<acc value="0.0865608471611041" flag="0"/>
			<vel value="0.0408524944235518" flag="0"/>
			<psa03 value="0.25579119523666" flag="0"/>
			<psa10 value="0.0246279002109615" flag="0"/>
			<psa30 value="0.00469122036392579" flag="0"/>
		</comp>
		<comp name="--.HNZ" depth="0.0">
			<acc value="0.0660754407675165" flag="0"/>
			<vel value="0.0222222097250724" flag="0"/>
			<psa03 value="0.0514535376110125" flag="0"/>
			<psa10 value="0.0186319971020469" flag="0"/>
			<psa30 value="0.00129976110226079" flag="0"/>
		</comp>
	</station>
	<station code="SKO1" name="SKO1" netid="HI" source="ITSAK Strong Motion Network" insttype="" lat="39.123383" lon="23.728705">
		<comp name="--.HNE" depth="0.0">
			<acc value="0.032795740283775" flag="0"/>
			<vel value="0.0226453980121183" flag="0"/>
			<psa03 value="0.0621021827861612" flag="0"/>
			<psa10 value="0.0236775757423894" flag="0"/>
			<psa30 value="0.00269348083841996" flag="0"/>
		</comp>
		<comp name="--.HNN" depth="0.0">
			<acc value="0.0210996456820684" flag="0"/>
			<vel value="0.014968111333553" flag="0"/>
			<psa03 value="0.0740483519532398" flag="0"/>
			<psa10 value="0.0252480271946908" flag="0"/>
			<psa30 value="0.00227782573893621" flag="0"/>
		</comp>
		<comp name="--.HNZ" depth="0.0">
			<acc value="0.0194820516293651" flag="0"/>
			<vel value="0.0133367318969093" flag="0"/>
			<psa03 value="0.0317222244923547" flag="0"/>
			<psa10 value="0.0202547969360916" flag="0"/>
			<psa30 value="0.00199773952550583" flag="0"/>
		</comp>
	</station>
	<station code="SKY1" name="SKY1" netid="HI" source="ITSAK Strong Motion Network" insttype="" lat="38.904483" lon="24.564572">
		<comp name="--.HNE" depth="0.0">
			<acc value="0.0185589638727236" flag="0"/>
			<vel value="0.014740942025385" flag="0"/>
			<psa03 value="0.07870154144154" flag="0"/>
			<psa10 value="0.0174199307247579" flag="0"/>
			<psa30 value="0.00213599294395629" flag="0"/>
		</comp>
		<comp name="--.HNN" depth="0.0">
			<acc value="0.0280066180798458" flag="0"/>
			<vel value="0.0229838051674344" flag="0"/>
			<psa03 value="0.079685869987142" flag="0"/>
			<psa10 value="0.0197595007088274" flag="0"/>
			<psa30 value="0.00122369935100973" flag="0"/>
		</comp>
		<comp name="--.HNZ" depth="0.0">
			<acc value="0.0102288232085677" flag="0"/>
			<vel value="0.00724625467000521" flag="0"/>
			<psa03 value="0.0272032616239092" flag="0"/>
			<psa10 value="0.00730863945109469" flag="0"/>
			<psa30 value="0.00124204365572322" flag="0"/>
		</comp>
	</station>
	<station code="THS1" name="THS1" netid="HI" source="ITSAK Strong Motion Network" insttype="" lat="40.738476" lon="24.575145">
		<comp name="--.HNE" depth="0.0">
			<acc value="0.105481362249017" flag="0"/>
			<vel value="0.029160263964357" flag="0"/>
			<psa03 value="0.0947639936174996" flag="0"/>
			<psa10 value="0.0266654603003576" flag="0"/>
			<psa30 value="0.00146485984468222" flag="0"/>
		</comp>
		<comp name="--.HNN" depth="0.0">
			<acc value="0.178674594165852" flag="0"/>
			<vel value="0.0573660133472477" flag="0"/>
			<psa03 value="0.217849804024365" flag="0"/>
			<psa10 value="0.0361606513888872" flag="0"/>
			<psa30 value="0.00291092796258476" flag="0"/>
		</comp>
		<comp name="--.HNZ" depth="0.0">
			<acc value="0.0885304450128287" flag="0"/>
			<vel value="0.0266858794783421" flag="0"/>
			<psa03 value="0.105054701139702" flag="0"/>
			<psa10 value="0.0129783718737621" flag="0"/>
			<psa30 value="0.00143264545591706" flag="0"/>
		</comp>
	</station>
	<station code="VOL2" name="VOL2" netid="HI" source="ITSAK Strong Motion Network" insttype="" lat="39.366" lon="22.9506">
		<comp name="--.HNE" depth="0.0">
			<acc value="0.0354119026769708" flag="0"/>
			<vel value="0.0255424097815379" flag="0"/>
			<psa03 value="0.0920794612204033" flag="0"/>
			<psa10 value="0.0411820692376559" flag="0"/>
			<psa30 value="0.00198655397385127" flag="0"/>
		</comp>
		<comp name="--.HNN" depth="0.0">
			<acc value="0.0382213394188721" flag="0"/>
			<vel value="0.0288290007074798" flag="0"/>
			<psa03 value="0.11391365805012" flag="0"/>
			<psa10 value="0.0285661092375018" flag="0"/>
			<psa30 value="0.00207917034155109" flag="0"/>
		</comp>
		<comp name="--.HNZ" depth="0.0">
			<acc value="0.0222997506343391" flag="0"/>
			<vel value="0.0103188693070488" flag="0"/>
			<psa03 value="0.0322591309717739" flag="0"/>
			<psa10 value="0.0126199867987497" flag="0"/>
			<psa30 value="0.00149260001278555" flag="0"/>
		</comp>
	</station>
	<station code="EFSA" name="EFSA" netid="HL" source="National Observatory of Athens Seismic Network" insttype="" lat="39.54015" lon="24.98864">
		<comp name="00.HNE" depth="0.0">
			<acc value="0.0327696173056098" flag="0"/>
			<vel value="0.0242275249567482" flag="0"/>
			<psa03 value="0.0742273207797128" flag="0"/>
			<psa10 value="0.030454677778859" flag="0"/>
			<psa30 value="0.00164159156082439" flag="0"/>
		</comp>
		<comp name="00.HNN" depth="0.0">
			<acc value="0.0319743457098701" flag="0"/>
			<vel value="0.0372296203822554" flag="0"/>
			<psa03 value="0.0527958038095607" flag="0"/>
			<psa10 value="0.0382948546445788" flag="0"/>
			<psa30 value="0.00280533635496564" flag="0"/>
		</comp>
		<comp name="00.HNZ" depth="0.0">
			<acc value="0.0138179853807217" flag="0"/>
			<vel value="0.0109797399618355" flag="0"/>
			<psa03 value="0.0466661215028574" flag="0"/>
			<psa10 value="0.016989063275024" flag="0"/>
			<psa30 value="0.00116911385893544" flag="0"/>
		</comp>
	</station>
	<station code="KYMI" name="KYMI" netid="HL" source="National Observatory of Athens Seismic Network" insttype="" lat="38.633147" lon="24.100138">
		<comp name="--.HNE" depth="1.0">
			<acc value="0.00592841456305199" flag="0"/>
			<vel value="0.00508637197993941" flag="0"/>
			<psa03 value="0.0182100780936366" flag="0"/>
			<psa10 value="0.0067207268561306" flag="0"/>
			<psa30 value="0.0014550165592262" flag="0"/>
		</comp>
		<comp name="--.HNN" depth="1.0">
			<acc value="0.00761335447564002" flag="0"/>
			<vel value="0.00608160207977639" flag="0"/>
			<psa03 value="0.014988639217121" flag="0"/>
			<psa10 value="0.0111381249155526" flag="0"/>
			<psa30 value="0.0012970765698637" flag="0"/>
		</comp>
		<comp name="--.HNZ" depth="1.0">
			<acc value="0.00398272073392093" flag="0"/>
			<vel value="0.00397957681761919" flag="0"/>
			<psa03 value="0.00988802766263806" flag="0"/>
			<psa10 value="0.00559322324935015" flag="0"/>
			<psa30 value="0.00142772381318905" flag="0"/>
		</comp>
	</station>
	<station code="PRK" name="PRK" netid="HL" source="National Observatory of Athens Seismic Network" insttype="" lat="39.24565" lon="26.26499">
		<comp name="--.HNE" depth="0.0">
			<acc value="0.0109737876853639" flag="0"/>
			<vel value="0.00876975594817429" flag="0"/>
			<psa03 value="0.0241607915738668" flag="0"/>
			<psa10 value="0.00908043083317825" flag="0"/>
			<psa30 value="0.000634891911913276" flag="0"/>
		</comp>
		<comp name="--.HNN" depth="0.0">
			<acc value="0.00856805641693879" flag="0"/>
			<vel value="0.00864321208546825" flag="0"/>
			<psa03 value="0.0176731716142173" flag="0"/>
			<psa10 value="0.0142307062370075" flag="0"/>
			<psa30 value="0.00113824173636883" flag="0"/>
		</comp>
		<comp name="--.HNZ" depth="0.0">
			<acc value="0.00534748593697052" flag="0"/>
			<vel value="0.00409709831535059" flag="0"/>
			<psa03 value="0.0148991548038845" flag="0"/>
			<psa10 value="0.00448988043414357" flag="0"/>
			<psa30 value="0.000812518472187815" flag="0"/>
		</comp>
	</station>
</stationlist>
