<?xml version="1.0" encoding="UTF-8" standalone="yes"?>
<!DOCTYPE earthquake SYSTEM "stationlist.dtd">
<stationlist created="" xmlns="ch.ethz.sed.shakemap.usgs.xml">
  <station code="LMN1" name="LMN1" netid="HI" insttype="CMG-5TD,ACCELEROMETER,GURALP" lat="39.875" lon="25.0588">
    <comp name="--.HNE">
      <acc value="0.0837666448" flag="0"/>
      <vel value="0.0370232309" flag="0"/>
      <psa03 value="0.2838731008" flag="0"/>
      <psa10 value="0.0442269185" flag="0"/>
      <psa30 value="0.0022291247" flag="0"/>
    </comp>
    <comp name="--.HNZ">
      <acc value="0.0655209160" flag="0"/>
      <vel value="0.0217420894" flag="0"/>
      <psa03 value="0.0504472945" flag="0"/>
      <psa10 value="0.0185803330" flag="0"/>
      <psa30 value="0.0011788145" flag="0"/>
    </comp>
    <comp name="--.HNN">
      <acc value="0.0863193824" flag="0"/>
      <vel value="0.0398231452" flag="0"/>
      <psa03 value="0.2531698187" flag="0"/>
      <psa10 value="0.0244144462" flag="0"/>
      <psa30 value="0.0043114053" flag="0"/>
    </comp>
  </station>
  <station code="SKO1" name="SKO1" netid="HI" insttype="CMG-5TD,ACCELEROMETER,GURALP" lat="39.1234" lon="23.7287">
    <comp name="--.HNZ">
      <acc value="0.0194336844" flag="0"/>
      <vel value="0.0135270290" flag="0"/>
      <psa03 value="0.0321192584" flag="0"/>
      <psa10 value="0.0201811546" flag="0"/>
      <psa30 value="0.0017979359" flag="0"/>
    </comp>
    <comp name="--.HNE">
      <acc value="0.0329450884" flag="0"/>
      <vel value="0.0230829675" flag="0"/>
      <psa03 value="0.0627756717" flag="0"/>
      <psa10 value="0.0237472757" flag="0"/>
      <psa30 value="0.0024256265" flag="0"/>
    </comp>
    <comp name="--.HNN">
      <acc value="0.0210697890" flag="0"/>
      <vel value="0.0148880683" flag="0"/>
      <psa03 value="0.0737030792" flag="0"/>
      <psa10 value="0.0251979291" flag="0"/>
      <psa30 value="0.0021193947" flag="0"/>
    </comp>
  </station>
  <station code="THS1" name="THS1" netid="HI" insttype="CMG-5TD,ACCELEROMETER,GURALP" lat="40.7385" lon="24.5751">
    <comp name="--.HNE">
      <acc value="0.1033911829" flag="0"/>
      <vel value="0.0285625964" flag="0"/>
      <psa03 value="0.0938856522" flag="0"/>
      <psa10 value="0.0265592004" flag="0"/>
      <psa30 value="0.0015378777" flag="0"/>
    </comp>
    <comp name="--.HNN">
      <acc value="0.1792675747" flag="0"/>
      <vel value="0.0567760406" flag="0"/>
      <psa03 value="0.2152055034" flag="0"/>
      <psa10 value="0.0361064063" flag="0"/>
      <psa30 value="0.0027834001" flag="0"/>
    </comp>
    <comp name="--.HNZ">
      <acc value="0.0881529175" flag="0"/>
      <vel value="0.0259467108" flag="0"/>
      <psa03 value="0.1035862037" flag="0"/>
      <psa10 value="0.0129461168" flag="0"/>
      <psa30 value="0.0012805119" flag="0"/>
    </comp>
  </station>
  <station code="VOL2" name="VOL2" netid="HI" insttype="CMG-5TD,ACCELEROMETER,GURALP" lat="39.366" lon="22.9506">
    <comp name="--.HNZ">
      <acc value="0.0222505272" flag="0"/>
      <vel value="0.0104138716" flag="0"/>
      <psa03 value="0.0318223813" flag="0"/>
      <psa10 value="0.0126080205" flag="0"/>
      <psa30 value="0.0014406643" flag="0"/>
    </comp>
    <comp name="--.HNN">
      <acc value="0.0383081262" flag="0"/>
      <vel value="0.0290931734" flag="0"/>
      <psa03 value="0.1145297773" flag="0"/>
      <psa10 value="0.0285574177" flag="0"/>
      <psa30 value="0.0019373399" flag="0"/>
    </comp>
    <comp name="--.HNE">
      <acc value="0.0353783275" flag="0"/>
      <vel value="0.0252098280" flag="0"/>
      <psa03 value="0.0925033171" flag="0"/>
      <psa10 value="0.0411297697" flag="0"/>
      <psa30 value="0.0018971483" flag="0"/>
    </comp>
  </station>
  <station code="KYMI" name="KYMI" netid="HL" insttype="DC_100" lat="38.6331" lon="24.1001">
    <comp name="--.HNN">
      <acc value="0.0076033186" flag="0"/>
      <vel value="0.0061296531" flag="0"/>
      <psa03 value="0.0151136589" flag="0"/>
      <psa10 value="0.0111053685" flag="0"/>
      <psa30 value="0.0011413964" flag="0"/>
    </comp>
    <comp name="--.HNE">
      <acc value="0.0059919711" flag="0"/>
      <vel value="0.0051330557" flag="0"/>
      <psa03 value="0.0180029283" flag="0"/>
      <psa10 value="0.0066706566" flag="0"/>
      <psa30 value="0.0012726094" flag="0"/>
    </comp>
    <comp name="--.HNZ">
      <acc value="0.0039777699" flag="0"/>
      <vel value="0.0039882156" flag="0"/>
      <psa03 value="0.0099332959" flag="0"/>
      <psa10 value="0.0056147287" flag="0"/>
      <psa30 value="0.0012610145" flag="0"/>
    </comp>
  </station>
  <station code="LIA" name="LIA" netid="HL" insttype="P6C" lat="39.8972" lon="25.1806">
    <comp name="--.HHE">
      <acc value="0.0376114418" flag="0"/>
      <vel value="0.0270485546" flag="0"/>
      <psa03 value="0.0724804545" flag="0"/>
      <psa10 value="0.0266004561" flag="0"/>
      <psa30 value="0.0018960055" flag="0"/>
    </comp>
    <comp name="--.HHN">
      <acc value="0.0393164548" flag="0"/>
      <vel value="0.0240503066" flag="0"/>
      <psa03 value="0.0813191119" flag="0"/>
      <psa10 value="0.0224379841" flag="0"/>
      <psa30 value="0.0030418023" flag="0"/>
    </comp>
    <comp name="--.HHZ">
      <acc value="0.0308457386" flag="0"/>
      <vel value="0.0197307495" flag="0"/>
      <psa03 value="0.0547038194" flag="0"/>
      <psa10 value="0.0240342286" flag="0"/>
      <psa30 value="0.0013823110" flag="0"/>
    </comp>
  </station>
  <station code="NEO" name="NEO" netid="HL" insttype="120" lat="39.3057" lon="23.2219">
    <comp name="--.HHN">
      <acc value="0.0803075214" flag="0"/>
      <vel value="0.0599952466" flag="0"/>
      <psa03 value="0.1669783724" flag="0"/>
      <psa10 value="0.0520429501" flag="0"/>
      <psa30 value="0.0032815954" flag="0"/>
    </comp>
    <comp name="--.HHZ">
      <acc value="0.0411715021" flag="0"/>
      <vel value="0.0262801084" flag="0"/>
      <psa03 value="0.1003786889" flag="0"/>
      <psa10 value="0.0478608057" flag="0"/>
      <psa30 value="0.0022586263" flag="0"/>
    </comp>
    <comp name="--.HHE">
      <acc value="0.0974260754" flag="0"/>
      <vel value="0.0497262336" flag="0"/>
      <psa03 value="0.2176271529" flag="0"/>
      <psa10 value="0.0490186764" flag="0"/>
      <psa30 value="0.0026231144" flag="0"/>
    </comp>
  </station>
  <station code="PLG" name="PLG" netid="HL" insttype="CMG3ESPC-120s" lat="40.3733" lon="23.4444">
    <comp name="--.HHZ">
      <acc value="0.1465810163" flag="0"/>
      <vel value="0.0419626893" flag="0"/>
      <psa03 value="0.2204005881" flag="0"/>
      <psa10 value="0.0134688854" flag="0"/>
      <psa30 value="0.0015645436" flag="0"/>
    </comp>
  </station>
  <station code="SMTH" name="SMTH" netid="HL" insttype="CMG3ESPC60_P6C" lat="40.4709" lon="25.5304">
    <comp name="--.HHE">
      <acc value="0.0064120731" flag="0"/>
      <vel value="0.0036351975" flag="0"/>
      <psa03 value="0.0181410715" flag="0"/>
      <psa10 value="0.0040049600" flag="0"/>
      <psa30 value="0.0004522150" flag="0"/>
    </comp>
    <comp name="--.HHZ">
      <acc value="0.0046079446" flag="0"/>
      <vel value="0.0027248099" flag="0"/>
      <psa03 value="0.0138124615" flag="0"/>
      <psa10 value="0.0033114903" flag="0"/>
      <psa30 value="0.0004434419" flag="0"/>
    </comp>
    <comp name="--.HHN">
      <acc value="0.0071673591" flag="0"/>
      <vel value="0.0040270654" flag="0"/>
      <psa03 value="0.0123914395" flag="0"/>
      <psa10 value="0.0035924549" flag="0"/>
      <psa30 value="0.0004063383" flag="0"/>
    </comp>
  </station>
  <station code="AOS2" name="AOS2" netid="HT" insttype="100" lat="39.1478" lon="23.8436">
    <comp name="--.HHE">
      <acc value="0.0560052096" flag="0"/>
      <vel value="0.0513149399" flag="0"/>
      <psa03 value="0.0907815235" flag="0"/>
      <psa10 value="0.0488657662" flag="0"/>
      <psa30 value="0.0041216446" flag="0"/>
    </comp>
    <comp name="--.HHN">
      <acc value="0.0476986111" flag="0"/>
      <vel value="0.0452670309" flag="0"/>
      <psa03 value="0.1058708712" flag="0"/>
      <psa10 value="0.0360398990" flag="0"/>
      <psa30 value="0.0032201578" flag="0"/>
    </comp>
    <comp name="--.HHZ">
      <acc value="0.0287820626" flag="0"/>
      <vel value="0.0217071912" flag="0"/>
      <psa03 value="0.0541592835" flag="0"/>
      <psa10 value="0.0184238176" flag="0"/>
      <psa30 value="0.0027525842" flag="0"/>
    </comp>
  </station>
  <station code="KAVA" name="KAVA" netid="HT" insttype="Compact," lat="40.9967" lon="24.5137">
    <comp name="--.HHE">
      <acc value="0.0538406655" flag="0"/>
      <vel value="0.0172880972" flag="0"/>
      <psa03 value="0.0910049757" flag="0"/>
      <psa10 value="0.0122022706" flag="0"/>
      <psa30 value="0.0022370079" flag="0"/>
    </comp>
    <comp name="--.HHN">
      <acc value="0.0564476756" flag="0"/>
      <vel value="0.0205820602" flag="0"/>
      <psa03 value="0.1091941783" flag="0"/>
      <psa10 value="0.0139199802" flag="0"/>
      <psa30 value="0.0018215180" flag="0"/>
    </comp>
    <comp name="--.HHZ">
      <acc value="0.0338976560" flag="0"/>
      <vel value="0.0200140491" flag="0"/>
      <psa03 value="0.0662669349" flag="0"/>
      <psa10 value="0.0272627436" flag="0"/>
      <psa30 value="0.0028084754" flag="0"/>
    </comp>
  </station>
  <station code="OUR" name="OUR" netid="HT" insttype="100" lat="40.3325" lon="23.9791">
    <comp name="--.HHN">
      <acc value="0.4319833308" flag="0"/>
      <vel value="0.2210170048" flag="0"/>
      <psa03 value="1.4357753450" flag="0"/>
      <psa10 value="0.1079751364" flag="0"/>
      <psa30 value="0.0072524095" flag="0"/>
    </comp>
    <comp name="--.HHE">
      <acc value="0.3979368019" flag="0"/>
      <vel value="0.1564539505" flag="0"/>
      <psa03 value="1.2251332126" flag="0"/>
      <psa10 value="0.0783989626" flag="0"/>
      <psa30 value="0.0065262694" flag="0"/>
    </comp>
    <comp name="--.HHZ">
      <acc value="0.2595854356" flag="0"/>
      <vel value="0.1034641243" flag="0"/>
      <psa03 value="0.5480838891" flag="0"/>
      <psa10 value="0.0681189876" flag="0"/>
      <psa30 value="0.0053017751" flag="0"/>
    </comp>
  </station>
  <station code="PAIG" name="PAIG" netid="HT" insttype="100" lat="39.9363" lon="23.6768">
    <comp name="--.HHN">
      <acc value="0.3698995925" flag="0"/>
      <vel value="0.1292088090" flag="0"/>
      <psa03 value="0.5005905347" flag="0"/>
      <psa10 value="0.0960336048" flag="0"/>
      <psa30 value="0.0072826583" flag="0"/>
    </comp>
    <comp name="--.HHE">
      <acc value="0.9300761778" flag="0"/>
      <vel value="0.0833489958" flag="0"/>
      <psa03 value="0.4694546021" flag="0"/>
      <psa10 value="0.0315233892" flag="0"/>
      <psa30 value="0.0039279039" flag="0"/>
    </comp>
    <comp name="--.HHZ">
      <acc value="0.3156390997" flag="0"/>
      <vel value="0.0602730024" flag="0"/>
      <psa03 value="0.1441039742" flag="0"/>
      <psa10 value="0.0914661531" flag="0"/>
      <psa30 value="0.0040876711" flag="0"/>
    </comp>
  </station>
  <station code="SOH" name="SOH" netid="HT" insttype="120P," lat="40.8217" lon="23.3539">
    <comp name="--.HHE">
      <acc value="0.0319897185" flag="0"/>
      <vel value="0.0133602481" flag="0"/>
      <psa03 value="0.0625798272" flag="0"/>
      <psa10 value="0.0187026558" flag="0"/>
      <psa30 value="0.0021463287" flag="0"/>
    </comp>
    <comp name="--.HHN">
      <acc value="0.0377532653" flag="0"/>
      <vel value="0.0170078059" flag="0"/>
      <psa03 value="0.1269952499" flag="0"/>
      <psa10 value="0.0109935128" flag="0"/>
      <psa30 value="0.0013385669" flag="0"/>
    </comp>
    <comp name="--.HHZ">
      <acc value="0.0186168533" flag="0"/>
      <vel value="0.0116320101" flag="0"/>
      <psa03 value="0.0397825036" flag="0"/>
      <psa10 value="0.0155294599" flag="0"/>
      <psa30 value="0.0011708926" flag="0"/>
    </comp>
  </station>
  <station code="SRS" name="SRS" netid="HT" insttype="100" lat="41.1087" lon="23.595">
    <comp name="--.HHE">
      <acc value="0.0206132685" flag="0"/>
      <vel value="0.0086198710" flag="0"/>
      <psa03 value="0.0335410126" flag="0"/>
      <psa10 value="0.0058399808" flag="0"/>
      <psa30 value="0.0030149604" flag="0"/>
    </comp>
    <comp name="--.HHN">
      <acc value="0.0223075959" flag="0"/>
      <vel value="0.0079214585" flag="0"/>
      <psa03 value="0.0343861004" flag="0"/>
      <psa10 value="0.0075288545" flag="0"/>
      <psa30 value="0.0010203484" flag="0"/>
    </comp>
    <comp name="--.HHZ">
      <acc value="0.0124334374" flag="0"/>
      <vel value="0.0052121852" flag="0"/>
      <psa03 value="0.0165825546" flag="0"/>
      <psa10 value="0.0060952046" flag="0"/>
      <psa30 value="0.0014081480" flag="0"/>
    </comp>
  </station>
  <station code="THAS" name="THAS" netid="HT" insttype="100" lat="40.6064" lon="24.7194">
    <comp name="--.HHZ">
      <acc value="0.0554569956" flag="0"/>
      <vel value="0.0191994891" flag="0"/>
      <psa03 value="0.1839312844" flag="0"/>
      <psa10 value="0.0157609593" flag="0"/>
      <psa30 value="0.0017468632" flag="0"/>
    </comp>
    <comp name="--.HHN">
      <acc value="0.0422163770" flag="0"/>
      <vel value="0.0152231756" flag="0"/>
      <psa03 value="0.1533727368" flag="0"/>
      <psa10 value="0.0135179576" flag="0"/>
      <psa30 value="0.0018348997" flag="0"/>
    </comp>
    <comp name="--.HHE">
      <acc value="0.0715994668" flag="0"/>
      <vel value="0.0221196194" flag="0"/>
      <psa03 value="0.1231889646" flag="0"/>
      <psa10 value="0.0120878552" flag="0"/>
      <psa30 value="0.0015242430" flag="0"/>
    </comp>
  </station>
  <station code="THE" name="THE" netid="HT" insttype="30s-100Hz," lat="40.6319" lon="22.9628">
    <comp name="--.HHE">
      <acc value="0.0137626269" flag="0"/>
      <vel value="0.0039463913" flag="0"/>
      <psa03 value="0.0190308412" flag="0"/>
      <psa10 value="0.0053515181" flag="0"/>
      <psa30 value="0.0003468885" flag="0"/>
    </comp>
    <comp name="--.HHZ">
      <acc value="0.0091517130" flag="0"/>
      <vel value="0.0034604185" flag="0"/>
      <psa03 value="0.0140893084" flag="0"/>
      <psa10 value="0.0057537347" flag="0"/>
      <psa30 value="0.0003484686" flag="0"/>
    </comp>
    <comp name="--.HHN">
      <acc value="0.0146803318" flag="0"/>
      <vel value="0.0054508196" flag="0"/>
      <psa03 value="0.0276537110" flag="0"/>
      <psa10 value="0.0063441269" flag="0"/>
      <psa30 value="0.0004478143" flag="0"/>
    </comp>
  </station>
  <station code="TYRN" name="TYRN" netid="HT" insttype="120P," lat="39.711" lon="22.2325">
    <comp name="--.HHZ">
      <acc value="0.0034723162" flag="0"/>
      <vel value="0.0033013140" flag="0"/>
      <psa03 value="0.0094886290" flag="0"/>
      <psa10 value="0.0040436212" flag="0"/>
      <psa30 value="0.0006618703" flag="0"/>
    </comp>
    <comp name="--.HHN">
      <acc value="0.0033710984" flag="0"/>
      <vel value="0.0031935957" flag="0"/>
      <psa03 value="0.0111060254" flag="0"/>
      <psa10 value="0.0047674480" flag="0"/>
      <psa30 value="0.0007679325" flag="0"/>
    </comp>
    <comp name="--.HHE">
      <acc value="0.0045710228" flag="0"/>
      <vel value="0.0042117329" flag="0"/>
      <psa03 value="0.0109281347" flag="0"/>
      <psa10 value="0.0048321042" flag="0"/>
      <psa30 value="0.0007033069" flag="0"/>
    </comp>
  </station>
  <station code="XOR" name="XOR" netid="HT" insttype="Compact," lat="39.366" lon="23.1918">
    <comp name="--.HHZ">
      <acc value="0.0430904707" flag="0"/>
      <vel value="0.0300116719" flag="0"/>
      <psa03 value="0.0663176470" flag="0"/>
      <psa10 value="0.0332325932" flag="0"/>
      <psa30 value="0.0024636604" flag="0"/>
    </comp>
    <comp name="--.HHN">
      <acc value="0.0410269630" flag="0"/>
      <vel value="0.0430368236" flag="0"/>
      <psa03 value="0.0858042832" flag="0"/>
      <psa10 value="0.0378858129" flag="0"/>
      <psa30 value="0.0021427690" flag="0"/>
    </comp>
    <comp name="--.HHE">
      <acc value="0.0431410997" flag="0"/>
      <vel value="0.0359551025" flag="0"/>
      <psa03 value="0.0826462709" flag="0"/>
      <psa10 value="0.0411381802" flag="0"/>
      <psa30 value="0.0022910721" flag="0"/>
    </comp>
  </station>
</stationlist>
