<stationlist xmlns:esm="https://esm-db.eu/esmws/shakemap/1/" created="1780711002">
	<station code="BUT" name="BUT" netid="EG" source="EUROSEISTEST Strong Motion Network" insttype="" lat="40.652694" lon="23.300668" esm:processing="automatic (Paolucci et al 2011)" esm:quality="best">
		<comp name="--.EN1" depth="0.0">
			<acc value="0.205982735762615" flag="0"/>
			<vel value="0.0904529552552201" flag="0"/>
			<psa03 value="0.793486147896706" flag="0"/>
			<psa10 value="0.0846613033958402" flag="0"/>
			<psa30 value="0.00643979952178812" flag="0"/>
		</comp>
		<comp name="--.EN2" depth="0.0">
			<acc value="0.199852124102281" flag="0"/>
			<vel value="0.146197132238391" flag="0"/>
			<psa03 value="0.801568099951378" flag="0"/>
			<psa10 value="0.172997985267322" flag="0"/>
			<psa30 value="0.00581892047494307" flag="0"/>
		</comp>
		<comp name="--.EN3" depth="0.0">
			<acc value="0.158756317822788" flag="0"/>
			<vel value="0.0718977413191983" flag="0"/>
			<psa03 value="0.587379952707787" flag="0"/>
			<psa10 value="0.0729072897499992" flag="0"/>
			<psa30 value="0.00329728676239928" flag="0"/>
		</comp>
	</station>
	<station code="E03" name="E03" netid="EG" source="EUROSEISTEST Strong Motion Network" insttype="" lat="40.676239" lon="23.324046" esm:processing="manual (Paolucci et al 2011)" esm:quality="best">
		<comp name="--.EN1" depth="0.0">
			<acc value="0.122936645379933" flag="0"/>
			<vel value="0.0499521182111816" flag="0"/>
			<psa03 value="0.318085238252609" flag="0"/>
			<psa10 value="0.0900409447705017" flag="0"/>
			<psa30 value="0.00356415902470799" flag="0"/>
		</comp>
		<comp name="--.EN2" depth="0.0">
			<acc value="0.0928125683102177" flag="0"/>
			<vel value="0.0673823232135851" flag="0"/>
			<psa03 value="0.222740797151146" flag="0"/>
			<psa10 value="0.0624031889049546" flag="0"/>
			<psa30 value="0.0060617719793306" flag="0"/>
		</comp>
		<comp name="--.EN3" depth="0.0">
			<acc value="0.049915655841665" flag="0"/>
			<vel value="0.0475077174578185" flag="0"/>
			<psa03 value="0.0876972261774923" flag="0"/>
			<psa10 value="0.0556474238687517" flag="0"/>
			<psa30 value="0.00240748969271054" flag="0"/>
		</comp>
	</station>
	<station code="GRA" name="GRA" netid="EG" source="EUROSEISTEST Strong Motion Network" insttype="" lat="40.675442" lon="23.289389" esm:processing="manual (Paolucci et al 2011)" esm:quality="good">
		<comp name="--.EN1" depth="0.0">
			<acc value="0.0497500514168993" flag="0"/>
			<vel value="0.0205054270202262" flag="0"/>
			<psa03 value="0.151105280816451" flag="0"/>
			<psa10 value="0.0151942084167488" flag="0"/>
			<psa30 value="0.00128989346994379" flag="0"/>
		</comp>
		<comp name="--.EN2" depth="0.0">
			<acc value="0.0930297945214548" flag="0"/>
			<vel value="0.0300706476710579" flag="0"/>
			<psa03 value="0.183399149293376" flag="0"/>
			<psa10 value="0.0269077175042293" flag="0"/>
			<psa30 value="0.00143505714882591" flag="0"/>
		</comp>
		<comp name="--.EN3" depth="0.0">
			<acc value="0.0955841621301601" flag="0"/>
			<vel value="0.0404792125934646" flag="0"/>
			<psa03 value="0.286262838508152" flag="0"/>
			<psa10 value="0.0392955043843273" flag="0"/>
			<psa30 value="0.00245516555933456" flag="0"/>
		</comp>
	</station>
	<station code="MMAA" name="MMAA" netid="EG" source="EUROSEISTEST Strong Motion Network" insttype="" lat="40.630855" lon="22.943725" esm:processing="manual (Paolucci et al 2011)" esm:quality="best">
		<comp name="--.EN1" depth="0.0">
			<acc value="0.0811465444198751" flag="0"/>
			<vel value="0.0333433622196705" flag="0"/>
			<psa03 value="0.206384255277473" flag="0"/>
			<psa10 value="0.0536305365096643" flag="0"/>
			<psa30 value="0.00210667559858662" flag="0"/>
		</comp>
		<comp name="--.EN2" depth="0.0">
			<acc value="0.0784042588650118" flag="0"/>
			<vel value="0.0336100519421371" flag="0"/>
			<psa03 value="0.24925465773125" flag="0"/>
			<psa10 value="0.0491194226706881" flag="0"/>
			<psa30 value="0.00208774205266281" flag="0"/>
		</comp>
		<comp name="--.EN3" depth="0.0">
			<acc value="0.0923825058922814" flag="0"/>
			<vel value="0.0425499543136941" flag="0"/>
			<psa03 value="0.150529805194316" flag="0"/>
			<psa10 value="0.0160041926992351" flag="0"/>
			<psa30 value="0.00104412093872284" flag="0"/>
		</comp>
	</station>
	<station code="PRR" name="PRR" netid="EG" source="EUROSEISTEST Strong Motion Network" insttype="" lat="40.682635" lon="23.300668" esm:processing="manual (Paolucci et al 2011)" esm:quality="good">
		<comp name="--.EN1" depth="0.0">
			<acc value="0.013142766739281" flag="0"/>
			<vel value="0.00756504269688344" flag="0"/>
			<psa03 value="0.05611731124636" flag="0"/>
			<psa10 value="0.00283087198450117" flag="0"/>
			<psa30 value="0.000924658337411671" flag="0"/>
		</comp>
		<comp name="--.EN2" depth="0.0">
			<acc value="0.0587928121360753" flag="0"/>
			<vel value="0.0251870243026206" flag="0"/>
			<psa03 value="0.179678840341414" flag="0"/>
			<psa10 value="0.0194237404774798" flag="0"/>
			<psa30 value="0.00217637334072034" flag="0"/>
		</comp>
		<comp name="--.EN3" depth="0.0">
			<acc value="0.0432958099095775" flag="0"/>
			<vel value="0.0152343980412362" flag="0"/>
			<psa03 value="0.112771866416072" flag="0"/>
			<psa10 value="0.0184590546968005" flag="0"/>
			<psa30 value="0.00131792366014" flag="0"/>
		</comp>
	</station>
	<station code="SHTA" name="SHTA" netid="EG" source="EUROSEISTEST Strong Motion Network" insttype="" lat="40.613764" lon="22.952972" esm:processing="manual (Paolucci et al 2011)" esm:quality="good">
		<comp name="--.EN1" depth="0.0">
			<acc value="0.0712426732999736" flag="0"/>
			<vel value="0.0376798570042009" flag="0"/>
			<psa03 value="0.161488354060959" flag="0"/>
			<psa10 value="0.0537438502661768" flag="0"/>
			<psa30 value="0.00353527002762284" flag="0"/>
		</comp>
		<comp name="--.EN2" depth="0.0">
			<acc value="0.0666134363194235" flag="0"/>
			<vel value="0.0318007160172104" flag="0"/>
			<psa03 value="0.161460143858974" flag="0"/>
			<psa10 value="0.0394442729895076" flag="0"/>
			<psa30 value="0.00205234679123627" flag="0"/>
		</comp>
		<comp name="--.EN3" depth="0.0">
			<acc value="0.0456649866975192" flag="0"/>
			<vel value="0.0174876233145062" flag="0"/>
			<psa03 value="0.089308030802227" flag="0"/>
			<psa10 value="0.0300740728847255" flag="0"/>
			<psa30 value="0.00145338294615382" flag="0"/>
		</comp>
	</station>
	<station code="STC" name="STC" netid="EG" source="EUROSEISTEST Strong Motion Network" insttype="" lat="40.64865" lon="23.304856" esm:processing="manual (Paolucci et al 2011)" esm:quality="best">
		<comp name="--.EN1" depth="0.0">
			<acc value="0.105201861705459" flag="0"/>
			<vel value="0.0677718510104282" flag="0"/>
			<psa03 value="0.5968162028115" flag="0"/>
			<psa10 value="0.0458403029449256" flag="0"/>
			<psa30 value="0.00332431542791521" flag="0"/>
		</comp>
		<comp name="--.EN2" depth="0.0">
			<acc value="0.131562781024329" flag="0"/>
			<vel value="0.0620671764393973" flag="0"/>
			<psa03 value="0.441882397540393" flag="0"/>
			<psa10 value="0.0671056029169057" flag="0"/>
			<psa30 value="0.00290699549085137" flag="0"/>
		</comp>
		<comp name="--.EN3" depth="0.0">
			<acc value="0.110254844479283" flag="0"/>
			<vel value="0.0498501667883137" flag="0"/>
			<psa03 value="0.369863501641916" flag="0"/>
			<psa10 value="0.0509473837641016" flag="0"/>
			<psa30 value="0.00211469696329539" flag="0"/>
		</comp>
	</station>
	<station code="TST" name="TST" netid="EG" source="EUROSEISTEST Strong Motion Network" insttype="" lat="40.6638" lon="23.2906" esm:processing="manual (Paolucci et al 2011)" esm:quality="good">
		<comp name="00.EN1" depth="0.0">
			<acc value="0.110755293253233" flag="0"/>
			<vel value="0.0574544963764125" flag="0"/>
			<psa03 value="0.356992065638816" flag="0"/>
			<psa10 value="0.0836440860103365" flag="0"/>
			<psa30 value="0.00386568649942421" flag="0"/>
		</comp>
		<comp name="00.EN2" depth="0.0">
			<acc value="0.0516992638232505" flag="0"/>
			<vel value="0.0309900353394433" flag="0"/>
			<psa03 value="0.212613626275967" flag="0"/>
			<psa10 value="0.0606109826800194" flag="0"/>
			<psa30 value="0.00201062298557115" flag="0"/>
		</comp>
		<comp name="00.EN3" depth="0.0">
			<acc value="0.0961742091560773" flag="0"/>
			<vel value="0.0535883159793778" flag="0"/>
			<psa03 value="0.321916783740428" flag="0"/>
			<psa10 value="0.0776778982795153" flag="0"/>
			<psa30 value="0.00499394999135436" flag="0"/>
		</comp>
	</station>
	<station code="W02" name="W02" netid="EG" source="EUROSEISTEST Strong Motion Network" insttype="" lat="40.661088" lon="23.260065" esm:processing="manual (Paolucci et al 2011)" esm:quality="bad">
		<comp name="--.EN1" depth="0.0">
			<acc value="0.0760253164841673" flag="0"/>
			<vel value="0.0433304320869028" flag="0"/>
			<psa03 value="0.258529855500751" flag="0"/>
			<psa10 value="0.0727439814317623" flag="0"/>
			<psa30 value="0.00603560024556667" flag="0"/>
		</comp>
		<comp name="--.EN2" depth="0.0">
			<acc value="0.13307208976426" flag="0"/>
			<vel value="0.0601374546684318" flag="0"/>
			<psa03 value="0.473794344883478" flag="0"/>
			<psa10 value="0.13538014327011" flag="0"/>
			<psa30 value="0.00668609792116554" flag="0"/>
		</comp>
		<comp name="--.EN3" depth="0.0">
			<acc value="0.048308424415164" flag="0"/>
			<vel value="0.0290991935771058" flag="0"/>
			<psa03 value="0.120317939223172" flag="0"/>
			<psa10 value="0.0466270150610944" flag="0"/>
			<psa30 value="0.0027735293577097" flag="0"/>
		</comp>
	</station>
	<station code="ALX2" name="ALX2" netid="HI" source="ITSAK Strong Motion Network" insttype="" lat="40.845417" lon="25.873947" esm:processing="manual (Paolucci et al 2011)" esm:quality="good">
		<comp name="--.HNE" depth="0.0">
			<acc value="0.0173460903511146" flag="0"/>
			<vel value="0.0169752030059222" flag="0"/>
			<psa03 value="0.0571929137498477" flag="0"/>
			<psa10 value="0.0207871282952316" flag="0"/>
			<psa30 value="0.00299084458710892" flag="0"/>
		</comp>
		<comp name="--.HNN" depth="0.0">
			<acc value="0.0155038225470825" flag="0"/>
			<vel value="0.0167983886320652" flag="0"/>
			<psa03 value="0.041660069670992" flag="0"/>
			<psa10 value="0.0372604695732443" flag="0"/>
			<psa30 value="0.00225636676489117" flag="0"/>
		</comp>
		<comp name="--.HNZ" depth="0.0">
			<acc value="0.00909750273390596" flag="0"/>
			<vel value="0.00974753870212906" flag="0"/>
			<psa03 value="0.0241945220391779" flag="0"/>
			<psa10 value="0.0198291029557546" flag="0"/>
			<psa30 value="0.00141554668968772" flag="0"/>
		</comp>
	</station>
	<station code="FRS1" name="FRS1" netid="HI" source="ITSAK Strong Motion Network" insttype="" lat="39.2934" lon="22.3844" esm:processing="automatic (Paolucci et al 2011)" esm:quality="best">
		<comp name="--.HNE" depth="0.0">
			<acc value="0.00280178189579405" flag="0"/>
			<vel value="0.00246069781042268" flag="0"/>
			<psa03 value="0.00592507544987812" flag="0"/>
			<psa10 value="0.0039408599688822" flag="0"/>
			<psa30 value="0.00104525309705451" flag="0"/>
		</comp>
		<comp name="--.HNN" depth="0.0">
			<acc value="0.00320390202603909" flag="0"/>
			<vel value="0.00411250202794711" flag="0"/>
			<psa03 value="0.00901557445110291" flag="0"/>
			<psa10 value="0.00566461244027369" flag="0"/>
			<psa30 value="0.00106397162873203" flag="0"/>
		</comp>
		<comp name="--.HNZ" depth="0.0">
			<acc value="0.00270727421954187" flag="0"/>
			<vel value="0.00283120099333805" flag="0"/>
			<psa03 value="0.00684633634868302" flag="0"/>
			<psa10 value="0.00639549085738186" flag="0"/>
			<psa30 value="0.000774003305170356" flag="0"/>
		</comp>
	</station>
	<station code="ITS1" name="ITS1" netid="HI" source="ITSAK Strong Motion Network" insttype="" lat="40.605" lon="23.0123" esm:processing="automatic (Paolucci et al 2011)" esm:quality="best">
		<comp name="--.HNE" depth="0.0">
			<acc value="0.0256168747603981" flag="0"/>
			<vel value="0.00928636464312045" flag="0"/>
			<psa03 value="0.0583742993025092" flag="0"/>
			<psa10 value="0.0116144744019282" flag="0"/>
			<psa30 value="0.000683906086671805" flag="0"/>
		</comp>
		<comp name="--.HNN" depth="0.0">
			<acc value="0.0301782982596845" flag="0"/>
			<vel value="0.0134187211232211" flag="0"/>
			<psa03 value="0.087436240138461" flag="0"/>
			<psa10 value="0.00966193661838264" flag="0"/>
			<psa30 value="0.000997522435132408" flag="0"/>
		</comp>
		<comp name="--.HNZ" depth="0.0">
			<acc value="0.0185406112809323" flag="0"/>
			<vel value="0.00923485562787205" flag="0"/>
			<psa03 value="0.0699903188067929" flag="0"/>
			<psa10 value="0.00902971317418225" flag="0"/>
			<psa30 value="0.000709057752846251" flag="0"/>
		</comp>
	</station>
	<station code="KIF1" name="KIF1" netid="HI" source="ITSAK Strong Motion Network" insttype="" lat="38.077273" lon="23.814551" esm:processing="automatic (Paolucci et al 2011)" esm:quality="best">
		<comp name="--.HNE" depth="0.0">
			<acc value="0.00485392812552787" flag="0"/>
			<vel value="0.00689193746955191" flag="0"/>
			<psa03 value="0.00847516495370923" flag="0"/>
			<psa10 value="0.00564518099678592" flag="0"/>
			<psa30 value="0.00143323786164103" flag="0"/>
		</comp>
		<comp name="--.HNN" depth="0.0">
			<acc value="0.00491084543346653" flag="0"/>
			<vel value="0.00564616888249413" flag="0"/>
			<psa03 value="0.00995692196700594" flag="0"/>
			<psa10 value="0.00874399674687117" flag="0"/>
			<psa30 value="0.000957468948452154" flag="0"/>
		</comp>
		<comp name="--.HNZ" depth="0.0">
			<acc value="0.00356850045735356" flag="0"/>
			<vel value="0.00305568672495907" flag="0"/>
			<psa03 value="0.0044209061445854" flag="0"/>
			<psa10 value="0.00682576717357612" flag="0"/>
			<psa30 value="0.00100380326787342" flag="0"/>
		</comp>
	</station>
	<station code="KLR1" name="KLR1" netid="HI" source="ITSAK Strong Motion Network" insttype="" lat="40.58251" lon="22.949554" esm:processing="manual (Paolucci et al 2011)" esm:quality="good">
		<comp name="--.HNE" depth="0.0">
			<acc value="0.0312100160883561" flag="0"/>
			<vel value="0.0114699961190366" flag="0"/>
			<psa03 value="0.0640291791188777" flag="0"/>
			<psa10 value="0.0290616276902074" flag="0"/>
			<psa30 value="0.00170529359233134" flag="0"/>
		</comp>
		<comp name="--.HNN" depth="0.0">
			<acc value="0.0319379244369983" flag="0"/>
			<vel value="0.0151371272931973" flag="0"/>
			<psa03 value="0.0665793011769487" flag="0"/>
			<psa10 value="0.0260357866180864" flag="0"/>
			<psa30 value="0.00197599339986507" flag="0"/>
		</comp>
		<comp name="--.HNZ" depth="0.0">
			<acc value="0.0242805210708529" flag="0"/>
			<vel value="0.00813725572626159" flag="0"/>
			<psa03 value="0.0417102787262622" flag="0"/>
			<psa10 value="0.0118820405643734" flag="0"/>
			<psa30 value="0.000676972085661601" flag="0"/>
		</comp>
	</station>
	<station code="KMT1" name="KMT1" netid="HI" source="ITSAK Strong Motion Network" insttype="" lat="41.1159" lon="25.4066" esm:processing="manual (Paolucci et al 2011)" esm:quality="good">
		<comp name="--.HNE" depth="0.0">
			<acc value="0.0265655014371433" flag="0"/>
			<vel value="0.0242872565390551" flag="0"/>
			<psa03 value="0.0658721241216061" flag="0"/>
			<psa10 value="0.0357343359743833" flag="0"/>
			<psa30 value="0.00303309863623231" flag="0"/>
		</comp>
		<comp name="--.HNN" depth="0.0">
			<acc value="0.0385378801579718" flag="0"/>
			<vel value="0.0308864163635278" flag="0"/>
			<psa03 value="0.107586502077755" flag="0"/>
			<psa10 value="0.0325911740053287" flag="0"/>
			<psa30 value="0.00309770395768445" flag="0"/>
		</comp>
		<comp name="--.HNZ" depth="0.0">
			<acc value="0.0190798238599768" flag="0"/>
			<vel value="0.0111611127283106" flag="0"/>
			<psa03 value="0.0344905608720535" flag="0"/>
			<psa10 value="0.0169695891519989" flag="0"/>
			<psa30 value="0.00339840408592552" flag="0"/>
		</comp>
	</station>
	<station code="KMV1" name="KMV1" netid="HI" source="ITSAK Strong Motion Network" insttype="" lat="38.7794" lon="22.7846" esm:processing="manual (Paolucci et al 2011)" esm:quality="good">
		<comp name="--.HNE" depth="0.0">
			<acc value="0.00565318125414323" flag="0"/>
			<vel value="0.00636063014718221" flag="0"/>
			<psa03 value="0.0172758410542677" flag="0"/>
			<psa10 value="0.01864370005363" flag="0"/>
			<psa30 value="0.000880165494144358" flag="0"/>
		</comp>
		<comp name="--.HNN" depth="0.0">
			<acc value="0.00830156914941248" flag="0"/>
			<vel value="0.010038747399414" flag="0"/>
			<psa03 value="0.0272045209159978" flag="0"/>
			<psa10 value="0.0203162977300174" flag="0"/>
			<psa30 value="0.00153616113813631" flag="0"/>
		</comp>
		<comp name="--.HNZ" depth="0.0">
			<acc value="0.00438741811790062" flag="0"/>
			<vel value="0.00449996501612601" flag="0"/>
			<psa03 value="0.0111545566429672" flag="0"/>
			<psa10 value="0.00850018559557896" flag="0"/>
			<psa30 value="0.00082685810862502" flag="0"/>
		</comp>
	</station>
	<station code="LAR4" name="LAR4" netid="HI" source="ITSAK Strong Motion Network" insttype="" lat="39.6422" lon="22.4219" esm:processing="manual (Paolucci et al 2011)" esm:quality="good">
		<comp name="--.HNE" depth="0.0">
			<acc value="0.0145455848596747" flag="0"/>
			<vel value="0.0168919969688425" flag="0"/>
			<psa03 value="0.0484102850688004" flag="0"/>
			<psa10 value="0.0370033337892606" flag="0"/>
			<psa30 value="0.00809019843594174" flag="0"/>
		</comp>
		<comp name="--.HNN" depth="0.0">
			<acc value="0.0258132606066967" flag="0"/>
			<vel value="0.0198760203528475" flag="0"/>
			<psa03 value="0.0589040010593177" flag="0"/>
			<psa10 value="0.028103435464675" flag="0"/>
			<psa30 value="0.00579184409791325" flag="0"/>
		</comp>
		<comp name="--.HNZ" depth="0.0">
			<acc value="0.00807079994529798" flag="0"/>
			<vel value="0.00807058311747115" flag="0"/>
			<psa03 value="0.0207700230475096" flag="0"/>
			<psa10 value="0.0139924769329253" flag="0"/>
			<psa30 value="0.00304805441864616" flag="0"/>
		</comp>
	</station>
	<station code="LMN1" name="LMN1" netid="HI" source="ITSAK Strong Motion Network" insttype="" lat="39.875" lon="25.0588" esm:processing="manual (Paolucci et al 2011)" esm:quality="best">
		<comp name="--.HNE" depth="0.0">
			<acc value="0.0835245871457645" flag="0"/>
			<vel value="0.0372971673375413" flag="0"/>
			<psa03 value="0.282323323761295" flag="0"/>
			<psa10 value="0.0443350525380455" flag="0"/>
			<psa30 value="0.00234628131506217" flag="0"/>
		</comp>
		<comp name="--.HNN" depth="0.0">
			<acc value="0.0865608471611041" flag="0"/>
			<vel value="0.0408524944235518" flag="0"/>
			<psa03 value="0.25579119523666" flag="0"/>
			<psa10 value="0.0246279002109615" flag="0"/>
			<psa30 value="0.00469122036392579" flag="0"/>
		</comp>
		<comp name="--.HNZ" depth="0.0">
			<acc value="0.0660754407675165" flag="0"/>
			<vel value="0.0222222097250724" flag="0"/>
			<psa03 value="0.0514535376110125" flag="0"/>
			<psa10 value="0.0186319971020469" flag="0"/>
			<psa30 value="0.00129976110226079" flag="0"/>
		</comp>
	</station>
	<station code="PLA1" name="PLA1" netid="HI" source="ITSAK Strong Motion Network" insttype="" lat="40.555907" lon="22.988593" esm:processing="manual (Paolucci et al 2011)" esm:quality="good">
		<comp name="--.HNE" depth="0.0">
			<acc value="0.018414690377268" flag="0"/>
			<vel value="0.0122377741207706" flag="0"/>
			<psa03 value="0.0447108004127648" flag="0"/>
			<psa10 value="0.031365095908672" flag="0"/>
			<psa30 value="0.00211951061550959" flag="0"/>
		</comp>
		<comp name="--.HNN" depth="0.0">
			<acc value="0.0162687004055895" flag="0"/>
			<vel value="0.0131165262144241" flag="0"/>
			<psa03 value="0.0515892404506597" flag="0"/>
			<psa10 value="0.0299021671218196" flag="0"/>
			<psa30 value="0.00239682731971358" flag="0"/>
		</comp>
		<comp name="--.HNZ" depth="0.0">
			<acc value="0.020677614786207" flag="0"/>
			<vel value="0.00845670236771228" flag="0"/>
			<psa03 value="0.0394270597658782" flag="0"/>
			<psa10 value="0.0170146465118278" flag="0"/>
