<stationlist created="1644241278">
	<station code="LMN1" name="LMN1" netid="HI" source="ITSAK Strong Motion Network" insttype="" lat="39.875" lon="25.0588">
		<comp name=".HNE" depth="0.0">
			<acc value="0.083186304" flag="0"/>
			<vel value="0.037265" flag="0"/>
			<psa03 value="0.282323323761" flag="0"/>
			<psa10 value="0.044335052538" flag="0"/>
			<psa30 value="0.00234628131506" flag="0"/>
		</comp>
		<comp name=".HNN" depth="0.0">
			<acc value="0.086253648" flag="0"/>
			<vel value="0.040808" flag="0"/>
			<psa03 value="0.255791195237" flag="0"/>
			<psa10 value="0.024627900211" flag="0"/>
			<psa30 value="0.00469122036393" flag="0"/>
		</comp>
		<comp name=".HNZ" depth="0.0">
			<acc value="0.065550606" flag="0"/>
			<vel value="0.022061" flag="0"/>
			<psa03 value="0.051453537611" flag="0"/>
			<psa10 value="0.018631997102" flag="0"/>
			<psa30 value="0.00129976110226" flag="0"/>
		</comp>
	</station>
	<station code="SKO1" name="SKO1" netid="HI" source="ITSAK Strong Motion Network" insttype="" lat="39.123383" lon="23.728705">
		<comp name=".HNE" depth="0.0">
			<acc value="0.032712114" flag="0"/>
			<vel value="0.02263" flag="0"/>
			<psa03 value="0.0621021827862" flag="0"/>
			<psa10 value="0.0236775757424" flag="0"/>
			<psa30 value="0.00269348083842" flag="0"/>
		</comp>
		<comp name=".HNN" depth="0.0">
			<acc value="0.021057798" flag="0"/>
			<vel value="0.01495" flag="0"/>
			<psa03 value="0.0740483519532" flag="0"/>
			<psa10 value="0.0252480271947" flag="0"/>
			<psa30 value="0.00227782573894" flag="0"/>
		</comp>
		<comp name=".HNZ" depth="0.0">
			<acc value="0.01941825" flag="0"/>
			<vel value="0.013319" flag="0"/>
			<psa03 value="0.0317222244924" flag="0"/>
			<psa10 value="0.0202547969361" flag="0"/>
			<psa30 value="0.00199773952551" flag="0"/>
		</comp>
	</station>
	<station code="SKY1" name="SKY1" netid="HI" source="ITSAK Strong Motion Network" insttype="" lat="38.904483" lon="24.564572">
		<comp name=".HNE" depth="0.0">
			<acc value="0.018531156" flag="0"/>
			<vel value="0.014729" flag="0"/>
			<psa03 value="0.0787015414415" flag="0"/>
			<psa10 value="0.0174199307248" flag="0"/>
			<psa30 value="0.00213599294396" flag="0"/>
		</comp>
		<comp name=".HNN" depth="0.0">
			<acc value="0.0279939" flag="0"/>
			<vel value="0.022953" flag="0"/>
			<psa03 value="0.0796858699871" flag="0"/>
			<psa10 value="0.0197595007088" flag="0"/>
			<psa30 value="0.00122369935101" flag="0"/>
		</comp>
		<comp name=".HNZ" depth="0.0">
			<acc value="0.010195818" flag="0"/>
			<vel value="0.00724" flag="0"/>
			<psa03 value="0.0272032616239" flag="0"/>
			<psa10 value="0.00730863945109" flag="0"/>
			<psa30 value="0.00124204365572" flag="0"/>
		</comp>
	</station>
	<station code="THS1" name="THS1" netid="HI" source="ITSAK Strong Motion Network" insttype="" lat="40.764347" lon="24.7161">
		<comp name=".HNE" depth="0.0">
			<acc value="0.104273478" flag="0"/>
			<vel value="0.029064" flag="0"/>
			<psa03 value="0.0947639936175" flag="0"/>
			<psa10 value="0.0266654603004" flag="0"/>
			<psa30 value="0.00146485984468" flag="0"/>
		</comp>
		<comp name=".HNN" depth="0.0">
			<acc value="0.17820828" flag="0"/>
			<vel value="0.057033" flag="0"/>
			<psa03 value="0.217849804024" flag="0"/>
			<psa10 value="0.0361606513889" flag="0"/>
			<psa30 value="0.00291092796258" flag="0"/>
		</comp>
		<comp name=".HNZ" depth="0.0">
			<acc value="0.088166556" flag="0"/>
			<vel value="0.026377" flag="0"/>
			<psa03 value="0.10505470114" flag="0"/>
			<psa10 value="0.0129783718738" flag="0"/>
			<psa30 value="0.00143264545592" flag="0"/>
		</comp>
	</station>
	<station code="VOL2" name="VOL2" netid="HI" source="ITSAK Strong Motion Network" insttype="" lat="39.366" lon="22.9506">
		<comp name=".HNE" depth="0.0">
			<acc value="0.035356158" flag="0"/>
			<vel value="0.025497" flag="0"/>
			<psa03 value="0.0920794612204" flag="0"/>
			<psa10 value="0.0411820692377" flag="0"/>
			<psa30 value="0.00198655397385" flag="0"/>
		</comp>
		<comp name=".HNN" depth="0.0">
			<acc value="0.038018766" flag="0"/>
			<vel value="0.028801" flag="0"/>
			<psa03 value="0.11391365805" flag="0"/>
			<psa10 value="0.0285661092375" flag="0"/>
			<psa30 value="0.00207917034155" flag="0"/>
		</comp>
		<comp name=".HNZ" depth="0.0">
			<acc value="0.022127676" flag="0"/>
			<vel value="0.010294" flag="0"/>
			<psa03 value="0.0322591309718" flag="0"/>
			<psa10 value="0.0126199867987" flag="0"/>
			<psa30 value="0.00149260001279" flag="0"/>
		</comp>
	</station>
	<station code="EFSA" name="EFSA" netid="HL" source="National Observatory of Athens Seismic Network" insttype="" lat="39.54015" lon="24.98864">
		<comp name="00.HNE" depth="0.0">
			<acc value="0.032769642" flag="0"/>
			<vel value="0.024227" flag="0"/>
			<psa03 value="0.0742273207797" flag="0"/>
			<psa10 value="0.0304546777789" flag="0"/>
			<psa30 value="0.00164159156082" flag="0"/>
		</comp>
		<comp name="00.HNN" depth="0.0">
			<acc value="0.031974348" flag="0"/>
			<vel value="0.03723" flag="0"/>
			<psa03 value="0.0527958038096" flag="0"/>
			<psa10 value="0.0382948546446" flag="0"/>
			<psa30 value="0.00280533635497" flag="0"/>
		</comp>
		<comp name="00.HNZ" depth="0.0">
			<acc value="0.01381794" flag="0"/>
			<vel value="0.01098" flag="0"/>
			<psa03 value="0.0466661215029" flag="0"/>
			<psa10 value="0.016989063275" flag="0"/>
			<psa30 value="0.00116911385894" flag="0"/>
		</comp>
	</station>
	<station code="KYMI" name="KYMI" netid="HL" source="National Observatory of Athens Seismic Network" insttype="" lat="38.633147" lon="24.100138">
		<comp name=".HNE" depth="1.0">
			<acc value="0.005915592" flag="0"/>
			<vel value="0.005083" flag="0"/>
			<psa03 value="0.0182100780936" flag="0"/>
			<psa10 value="0.00672072685613" flag="0"/>
			<psa30 value="0.00145501655923" flag="0"/>
		</comp>
		<comp name=".HNN" depth="1.0">
			<acc value="0.007602978" flag="0"/>
			<vel value="0.006074" flag="0"/>
			<psa03 value="0.0149886392171" flag="0"/>
			<psa10 value="0.0111381249156" flag="0"/>
			<psa30 value="0.00129707656986" flag="0"/>
		</comp>
		<comp name=".HNZ" depth="1.0">
			<acc value="0.003975246" flag="0"/>
			<vel value="0.003976" flag="0"/>
			<psa03 value="0.00988802766264" flag="0"/>
			<psa10 value="0.00559322324935" flag="0"/>
			<psa30 value="0.00142772381319" flag="0"/>
		</comp>
	</station>
	<station code="PRK" name="PRK" netid="HL" source="National Observatory of Athens Seismic Network" insttype="" lat="39.24565" lon="26.26499">
		<comp name=".HNE" depth="0.0">
			<acc value="0.010965204" flag="0"/>
			<vel value="0.008763" flag="0"/>
			<psa03 value="0.0241607915739" flag="0"/>
			<psa10 value="0.00908043083318" flag="0"/>
			<psa30 value="0.000634891911913" flag="0"/>
		</comp>
		<comp name=".HNN" depth="0.0">
			<acc value="0.00856239" flag="0"/>
			<vel value="0.008637" flag="0"/>
			<psa03 value="0.0176731716142" flag="0"/>
			<psa10 value="0.014230706237" flag="0"/>
			<psa30 value="0.00113824173637" flag="0"/>
		</comp>
		<comp name=".HNZ" depth="0.0">
			<acc value="0.005346126" flag="0"/>
			<vel value="0.004093" flag="0"/>
			<psa03 value="0.0148991548039" flag="0"/>
			<psa10 value="0.00448988043414" flag="0"/>
			<psa30 value="0.000812518472188" flag="0"/>
		</comp>
	</station>
</stationlist>
