<stationlist created="1778138814">
	<station code="ABEA" name="ABEA" netid="HC" source="Seismological Network of Crete (HC)" insttype="" lat="35.5163" lon="24.0113">
		<comp name="--.HNE" depth="0.0">
			<acc value="0.0158927379924079" flag="0"/>
			<vel value="0.00721549799952071" flag="0"/>
			<psa03 value="0.0275280814127835" flag="0"/>
			<psa10 value="0.0107789518651549" flag="0"/>
			<psa30 value="0.00114871703436548" flag="0"/>
		</comp>
		<comp name="--.HNN" depth="0.0">
			<acc value="0.0206444678051004" flag="0"/>
			<vel value="0.00880762772408916" flag="0"/>
			<psa03 value="0.0265055657594662" flag="0"/>
			<psa10 value="0.00790858015463104" flag="0"/>
			<psa30 value="0.00119991282166768" flag="0"/>
		</comp>
		<comp name="--.HNZ" depth="0.0">
			<acc value="0.0120215867569022" flag="0"/>
			<vel value="0.00530729681740326" flag="0"/>
			<psa03 value="0.0111268178262574" flag="0"/>
			<psa10 value="0.00839902733184498" flag="0"/>
			<psa30 value="0.000797470380582456" flag="0"/>
		</comp>
	</station>
	<station code="ATEI" name="ATEI" netid="HC" source="Seismological Network of Crete (HC)" insttype="" lat="35.5193" lon="24.0432">
		<comp name="--.HNE" depth="0.0">
			<acc value="0.0123222828388027" flag="0"/>
			<vel value="0.00590629526185479" flag="0"/>
			<psa03 value="0.021204606524012" flag="0"/>
			<psa10 value="0.00759383071026042" flag="0"/>
			<psa30 value="0.00127457255917657" flag="0"/>
		</comp>
		<comp name="--.HNN" depth="0.0">
			<acc value="0.0114063433077124" flag="0"/>
			<vel value="0.00551228989827063" flag="0"/>
			<psa03 value="0.0186995838077415" flag="0"/>
			<psa10 value="0.00616487870544174" flag="0"/>
			<psa30 value="0.00112537694653283" flag="0"/>
		</comp>
		<comp name="--.HNZ" depth="0.0">
			<acc value="0.0109797140169248" flag="0"/>
			<vel value="0.00468975392553905" flag="0"/>
			<psa03 value="0.0161955793880762" flag="0"/>
			<psa10 value="0.00578100515072827" flag="0"/>
			<psa30 value="0.000968128612938136" flag="0"/>
		</comp>
	</station>
	<station code="G0LD" name="G0LD" netid="HC" source="Seismological Network of Crete (HC)" insttype="" lat="35.4955" lon="24.0306">
		<comp name="--.HNE" depth="0.0">
			<acc value="0.0310378453632696" flag="0"/>
			<vel value="0.0166380020802872" flag="0"/>
			<psa03 value="0.0497055427482483" flag="0"/>
			<psa10 value="0.0343262076927888" flag="0"/>
			<psa30 value="0.00215441959472346" flag="0"/>
		</comp>
		<comp name="--.HNN" depth="0.0">
			<acc value="0.0278222013459465" flag="0"/>
			<vel value="0.0154466546828008" flag="0"/>
			<psa03 value="0.0493949284216553" flag="0"/>
			<psa10 value="0.0406990686135973" flag="0"/>
			<psa30 value="0.00199020100771562" flag="0"/>
		</comp>
		<comp name="--.HNZ" depth="0.0">
			<acc value="0.0143583451639999" flag="0"/>
			<vel value="0.00911542388082058" flag="0"/>
			<psa03 value="0.0296314759606934" flag="0"/>
			<psa10 value="0.0110866991269239" flag="0"/>
			<psa30 value="0.0016236437042625" flag="0"/>
		</comp>
	</station>
	<station code="LENT" name="LENT" netid="HC" source="Seismological Network of Crete (HC)" insttype="" lat="35.5074" lon="24.0402">
		<comp name="--.HNE" depth="0.0">
			<acc value="0.0131127475721377" flag="0"/>
			<vel value="0.00737791826351385" flag="0"/>
			<psa03 value="0.0193016666615056" flag="0"/>
			<psa10 value="0.0102949551152568" flag="0"/>
			<psa30 value="0.000982950532313205" flag="0"/>
		</comp>
		<comp name="--.HNN" depth="0.0">
			<acc value="0.0201253290846395" flag="0"/>
			<vel value="0.00860570248692821" flag="0"/>
			<psa03 value="0.0185582945001038" flag="0"/>
			<psa10 value="0.0106600830532023" flag="0"/>
			<psa30 value="0.000988306303777235" flag="0"/>
		</comp>
		<comp name="--.HNZ" depth="0.0">
			<acc value="0.0148491990135502" flag="0"/>
			<vel value="0.00761754914413836" flag="0"/>
			<psa03 value="0.0298399949824021" flag="0"/>
			<psa10 value="0.0050997631467701" flag="0"/>
			<psa30 value="0.00087756386346773" flag="0"/>
		</comp>
	</station>
	<station code="MULT" name="MULT" netid="HC" source="Seismological Network of Crete (HC)" insttype="" lat="35.5091" lon="24.0118">
		<comp name="--.HNE" depth="0.0">
			<acc value="0.0481942299837126" flag="0"/>
			<vel value="0.0115353659711366" flag="0"/>
			<psa03 value="0.0288456973442232" flag="0"/>
			<psa10 value="0.00997360101460698" flag="0"/>
			<psa30 value="0.00120589946825386" flag="0"/>
		</comp>
		<comp name="--.HNN" depth="0.0">
			<acc value="0.0360726249317086" flag="0"/>
			<vel value="0.00958771134229967" flag="0"/>
			<psa03 value="0.0342782942062427" flag="0"/>
			<psa10 value="0.0166474259352737" flag="0"/>
			<psa30 value="0.00234202306419948" flag="0"/>
		</comp>
		<comp name="--.HNZ" depth="0.0">
			<acc value="0.0368998847679421" flag="0"/>
			<vel value="0.00856938520950516" flag="0"/>
			<psa03 value="0.0158124198910299" flag="0"/>
			<psa10 value="0.012380292008581" flag="0"/>
			<psa30 value="0.00265536673834833" flag="0"/>
		</comp>
	</station>
	<station code="NERO" name="NERO" netid="HC" source="Seismological Network of Crete (HC)" insttype="" lat="35.474" lon="24.0423">
		<comp name="--.HNE" depth="0.0">
			<acc value="0.0136654949873557" flag="0"/>
			<vel value="0.00497557291183726" flag="0"/>
			<psa03 value="0.0224135056180782" flag="0"/>
			<psa10 value="0.00776102616112723" flag="0"/>
			<psa30 value="0.000733694176556155" flag="0"/>
		</comp>
		<comp name="--.HNN" depth="0.0">
			<acc value="0.0154557590867714" flag="0"/>
			<vel value="0.00618480587446994" flag="0"/>
			<psa03 value="0.0189697045664943" flag="0"/>
			<psa10 value="0.00996859255781485" flag="0"/>
			<psa30 value="0.000899996391177861" flag="0"/>
		</comp>
		<comp name="--.HNZ" depth="0.0">
			<acc value="0.010372011362378" flag="0"/>
			<vel value="0.00462359038053584" flag="0"/>
			<psa03 value="0.0138317222732825" flag="0"/>
			<psa10 value="0.00602743163151769" flag="0"/>
			<psa30 value="0.000673881620516482" flag="0"/>
		</comp>
	</station>
	<station code="PASK" name="PASK" netid="HC" source="Seismological Network of Crete (HC)" insttype="" lat="35.4996" lon="24.0121">
		<comp name="--.HNE" depth="0.0">
			<acc value="0.0200081329604603" flag="0"/>
			<vel value="0.013256507957368" flag="0"/>
			<psa03 value="0.0356641229897982" flag="0"/>
			<psa10 value="0.0161128936501185" flag="0"/>
			<psa30 value="0.00101024681972732" flag="0"/>
		</comp>
		<comp name="--.HNN" depth="0.0">
			<acc value="0.0168929413009511" flag="0"/>
			<vel value="0.00836832962584793" flag="0"/>
			<psa03 value="0.0285425314276185" flag="0"/>
			<psa10 value="0.00915868609301008" flag="0"/>
			<psa30 value="0.000907930562609945" flag="0"/>
		</comp>
		<comp name="--.HNZ" depth="0.0">
			<acc value="0.0130466087975764" flag="0"/>
			<vel value="0.00535319120399274" flag="0"/>
			<psa03 value="0.0351583993839014" flag="0"/>
			<psa10 value="0.00592563582552387" flag="0"/>
			<psa30 value="0.000815361201179777" flag="0"/>
		</comp>
	</station>
	<station code="POLY" name="POLY" netid="HC" source="Seismological Network of Crete (HC)" insttype="" lat="35.5226" lon="24.0602">
		<comp name="--.HNE" depth="0.0">
			<acc value="0.011293054356761" flag="0"/>
			<vel value="0.00536098393780586" flag="0"/>
			<psa03 value="0.0148942614112963" flag="0"/>
			<psa10 value="0.00607598703555804" flag="0"/>
			<psa30 value="0.00105554877909503" flag="0"/>
		</comp>
		<comp name="--.HNN" depth="0.0">
			<acc value="0.0114088035784663" flag="0"/>
			<vel value="0.00587828507522016" flag="0"/>
			<psa03 value="0.0165022872059435" flag="0"/>
			<psa10 value="0.00711060135494107" flag="0"/>
			<psa30 value="0.001065077118633" flag="0"/>
		</comp>
		<comp name="--.HNZ" depth="0.0">
			<acc value="0.0111832027928354" flag="0"/>
			<vel value="0.00323608037184708" flag="0"/>
			<psa03 value="0.0133204344967276" flag="0"/>
			<psa10 value="0.00458342191045889" flag="0"/>
			<psa30 value="0.000570325489597225" flag="0"/>
		</comp>
	</station>
	<station code="SOUD" name="SOUD" netid="HC" source="Seismological Network of Crete (HC)" insttype="" lat="35.4878" lon="24.0678">
		<comp name="--.HNE" depth="0.0">
			<acc value="0.0242101941812257" flag="0"/>
			<vel value="0.0153500599222554" flag="0"/>
			<psa03 value="0.0298877403327737" flag="0"/>
			<psa10 value="0.0148301071093335" flag="0"/>
			<psa30 value="0.00118020193258783" flag="0"/>
		</comp>
		<comp name="--.HNN" depth="0.0">
			<acc value="0.0299727699901326" flag="0"/>
			<vel value="0.0142686775348416" flag="0"/>
			<psa03 value="0.0345263028231354" flag="0"/>
			<psa10 value="0.0155568611907238" flag="0"/>
			<psa30 value="0.00103890455149626" flag="0"/>
		</comp>
		<comp name="--.HNZ" depth="0.0">
			<acc value="0.00678946367367317" flag="0"/>
			<vel value="0.00399186389517209" flag="0"/>
			<psa03 value="0.00769935053898206" flag="0"/>
			<psa10 value="0.00475385663843678" flag="0"/>
			<psa30 value="0.00415333013773937" flag="0"/>
		</comp>
	</station>
	<station code="SIT2" name="SIT2" netid="HI" source="ITSAK Strong Motion Network" insttype="" lat="35.2059" lon="26.107">
		<comp name="--.HNE" depth="0.0">
			<acc value="0.0685709244184789" flag="0"/>
			<vel value="0.0346747650711793" flag="0"/>
			<psa03 value="0.247923215362855" flag="0"/>
			<psa10 value="0.0190996627589029" flag="0"/>
			<psa30 value="0.0016326399252159" flag="0"/>
		</comp>
		<comp name="--.HNN" depth="0.0">
			<acc value="0.0759927411615152" flag="0"/>
			<vel value="0.02971130570938" flag="0"/>
			<psa03 value="0.206264976542502" flag="0"/>
			<psa10 value="0.017580077093826" flag="0"/>
			<psa30 value="0.00106518118802574" flag="0"/>
		</comp>
		<comp name="--.HNZ" depth="0.0">
			<acc value="0.0824299703828171" flag="0"/>
			<vel value="0.0235909694172926" flag="0"/>
			<psa03 value="0.125684378056543" flag="0"/>
			<psa10 value="0.00416722965227943" flag="0"/>
			<psa30 value="0.000537749321170315" flag="0"/>
		</comp>
	</station>
	<station code="AGNA" name="AGNA" netid="HL" source="National Observatory of Athens Seismic Network" insttype="" lat="35.1895" lon="25.71853">
		<comp name="00.HNE" depth="0.0">
			<acc value="0.0950825736580193" flag="0"/>
			<vel value="0.037866696759564" flag="0"/>
			<psa03 value="0.125406963845902" flag="0"/>
			<psa10 value="0.0157151854289173" flag="0"/>
			<psa30 value="0.00148784918770854" flag="0"/>
		</comp>
		<comp name="00.HNN" depth="0.0">
			<acc value="0.104200655120593" flag="0"/>
			<vel value="0.0349931674819353" flag="0"/>
			<psa03 value="0.13478881451398" flag="0"/>
			<psa10 value="0.0180846317681123" flag="0"/>
			<psa30 value="0.00126037297269234" flag="0"/>
		</comp>
		<comp name="00.HNZ" depth="0.0">
			<acc value="0.0715158044998183" flag="0"/>
			<vel value="0.0230751894404755" flag="0"/>
			<psa03 value="0.096326558245158" flag="0"/>
			<psa10 value="0.0093575045762484" flag="0"/>
			<psa30 value="0.000847840696534701" flag="0"/>
		</comp>
	</station>
	<station code="CHNB" name="CHNB" netid="HL" source="National Observatory of Athens Seismic Network" insttype="" lat="35.48765" lon="24.06605">
		<comp name="00.HNE" depth="0.0">
			<acc value="0.0259360344672552" flag="0"/>
			<vel value="0.0202870457640531" flag="0"/>
			<psa03 value="0.04013960436428" flag="0"/>
			<psa10 value="0.0231144930967256" flag="0"/>
			<psa30 value="0.0012591794561252" flag="0"/>
		</comp>
		<comp name="00.HNN" depth="0.0">
			<acc value="0.0251879582612107" flag="0"/>
			<vel value="0.0197943962248066" flag="0"/>
			<psa03 value="0.0426298266209695" flag="0"/>
			<psa10 value="0.0208316812466556" flag="0"/>
			<psa30 value="0.00112651097999174" flag="0"/>
		</comp>
		<comp name="00.HNZ" depth="0.0">
			<acc value="0.0171247738848689" flag="0"/>
			<vel value="0.00800250060123913" flag="0"/>
			<psa03 value="0.0249522883833121" flag="0"/>
			<psa10 value="0.00566826658861038" flag="0"/>
			<psa30 value="0.000322384689736888" flag="0"/>
		</comp>
	</station>
	<station code="HERG" name="HERG" netid="HL" source="National Observatory of Athens Seismic Network" insttype="" lat="35.32622" lon="25.06586">
		<comp name="00.HNE" depth="0.0">
			<acc value="0.17531620795047" flag="0"/>
			<vel value="0.0623371625791059" flag="0"/>
			<psa03 value="0.156747862943319" flag="0"/>
			<psa10 value="0.0790332155625105" flag="0"/>
			<psa30 value="0.00439973729433843" flag="0"/>
		</comp>
		<comp name="00.HNN" depth="0.0">
			<acc value="0.147503844482883" flag="0"/>
			<vel value="0.0750910705478213" flag="0"/>
			<psa03 value="0.224945776553617" flag="0"/>
			<psa10 value="0.0599471024513177" flag="0"/>
			<psa30 value="0.0071786580508633" flag="0"/>
		</comp>
		<comp name="00.HNZ" depth="0.0">
			<acc value="0.217072958465447" flag="0"/>
			<vel value="0.0477185322205988" flag="0"/>
			<psa03 value="0.130160778762701" flag="0"/>
			<psa10 value="0.0477578049700205" flag="0"/>
			<psa30 value="0.00257506266859879" flag="0"/>
		</comp>
	</station>
	<station code="IACM" name="IACM" netid="HL" source="National Observatory of Athens Seismic Network" insttype="" lat="35.3058" lon="25.0709">
		<comp name="--.HNE" depth="0.0">
			<acc value="0.302329054433636" flag="0"/>
			<vel value="0.103722146477392" flag="0"/>
			<psa03 value="0.411467382694604" flag="0"/>
			<psa10 value="0.162701858199528" flag="0"/>
			<psa30 value="0.00620081827379815" flag="0"/>
		</comp>
		<comp name="--.HNN" depth="0.0">
			<acc value="0.474986710268125" flag="0"/>
			<vel value="0.126733914443368" flag="0"/>
			<psa03 value="0.539657916354675" flag="0"/>
			<psa10 value="0.134945789496272" flag="0"/>
			<psa30 value="0.0065228091874426" flag="0"/>
		</comp>
		<comp name="--.HNZ" depth="0.0">
			<acc value="0.434672542309324" flag="0"/>
			<vel value="0.0751139684140246" flag="0"/>
			<psa03 value="0.224692676453565" flag="0"/>
			<psa10 value="0.067109878199981" flag="0"/>
			<psa30 value="0.00301862642751953" flag="0"/>
		</comp>
	</station>
	<station code="IMMV" name="IMMV" netid="HL" source="National Observatory of Athens Seismic Network" insttype="" lat="35.4606" lon="23.9811">
		<comp name="--.HNE" depth="0.0">
			<acc value="0.0159994266145097" flag="0"/>
			<vel value="0.00657441392952408" flag="0"/>
			<psa03 value="0.0285778749147729" flag="0"/>
			<psa10 value="0.010396419961815" flag="0"/>
			<psa30 value="0.000426538829020864" flag="0"/>
		</comp>
		<comp name="--.HNN" depth="0.0">
			<acc value="0.0149490521643667" flag="0"/>
			<vel value="0.00873261204735807" flag="0"/>
			<psa03 value="0.0334365431318876" flag="0"/>
			<psa10 value="0.00737671288979224" flag="0"/>
			<psa30 value="0.000420424413554155" flag="0"/>
		</comp>
		<comp name="--.HNZ" depth="0.0">
			<acc value="0.0164312776284258" flag="0"/>
			<vel value="0.00571070555235381" flag="0"/>
			<psa03 value="0.0175923867634669" flag="0"/>
			<psa10 value="0.00560340838578799" flag="0"/>
			<psa30 value="0.000289115923344235" flag="0"/>
		</comp>
	</station>
	<station code="KSTE" name="KSTE" netid="HL" source="National Observatory of Athens Seismic Network" insttype="" lat="35.1801" lon="25.3372">
		<comp name="--.HNE" depth="0.0">
			<acc value="0.772495606381488" flag="0"/>
			<vel value="0.269120700110986" flag="0"/>
			<psa03 value="0.510230675280011" flag="0"/>
			<psa10 value="0.0808187238438134" flag="0"/>
			<psa30 value="0.0103462178861568" flag="0"/>
		</comp>
		<comp name="--.HNN" depth="0.0">
			<acc value="1.55145756861377" flag="0"/>
			<vel value="0.267653599485265" flag="0"/>
			<psa03 value="0.679554558821161" flag="0"/>
			<psa10 value="0.0526732668455832" flag="0"/>
			<psa30 value="0.00336778289075417" flag="0"/>
		</comp>
		<comp name="--.HNZ" depth="0.0">
			<acc value="1.18091351434586" flag="0"/>
			<vel value="0.258082505691235" flag="0"/>
			<psa03 value="0.456516491975446" flag="0"/>
			<psa10 value="0.0782209792560644" flag="0"/>
			<psa30 value="0.00728077064865517" flag="0"/>
		</comp>
	</station>
	<station code="SIVA" name="SIVA" netid="HL" source="National Observatory of Athens Seismic Network" insttype="" lat="35.01777" lon="24.81204">
		<comp name="00.HNE" depth="0.0">
			<acc value="0.0770943313919957" flag="0"/>
			<vel value="0.0212467484781581" flag="0"/>
			<psa03 value="0.0730956286849505" flag="0"/>
			<psa10 value="0.0190184117514237" flag="0"/>
			<psa30 value="0.00102976727952846" flag="0"/>
		</comp>
		<comp name="00.HNN" depth="0.0">
			<acc value="0.050943475642686" flag="0"/>
			<vel value="0.0142752374359113" flag="0"/>
			<psa03 value="0.0716253750379554" flag="0"/>
			<psa10 value="0.0183014992595049" flag="0"/>
			<psa30 value="0.0012795186159952" flag="0"/>
		</comp>
		<comp name="00.HNZ" depth="0.0">
			<acc value="0.0384982555779483" flag="0"/>
			<vel value="0.00877609327033175" flag="0"/>
			<psa03 value="0.0426775954103961" flag="0"/>
			<psa10 value="0.00621618913575364" flag="0"/>
			<psa30 value="0.000516685009096078" flag="0"/>
		</comp>
	</station>
</stationlist>
