<?xml version="1.0" encoding="UTF-8" standalone="yes"?>
<!DOCTYPE earthquake SYSTEM "stationlist.dtd">
<stationlist created="" xmlns="ch.ethz.sed.shakemap.usgs.xml">
  <station code="IMMV" name="IMMV" netid="GE" insttype="STS-2/N" lat="35.4606" lon="23.9811">
    <comp name="--.HHE">
      <acc value="0.0167602435" flag="0"/>
      <vel value="0.0068805912" flag="0"/>
      <psa03 value="0.0297998196" flag="0"/>
      <psa10 value="0.0106925986" flag="0"/>
      <psa30 value="0.0004112019" flag="0"/>
    </comp>
    <comp name="--.HHZ">
      <acc value="0.0169140713" flag="0"/>
      <vel value="0.0057870890" flag="0"/>
      <psa03 value="0.0183262006" flag="0"/>
      <psa10 value="0.0056332637" flag="0"/>
      <psa30 value="0.0002658134" flag="0"/>
    </comp>
    <comp name="--.HHN">
      <acc value="0.0160899856" flag="0"/>
      <vel value="0.0091025906" flag="0"/>
      <psa03 value="0.0347888763" flag="0"/>
      <psa10 value="0.0077817068" flag="0"/>
      <psa30 value="0.0004247887" flag="0"/>
    </comp>
  </station>
  <station code="IDI" name="IDI" netid="MN" insttype="" lat="35.288" lon="24.89">
    <comp name="--.HHZ">
      <acc value="0.0686255735" flag="0"/>
      <vel value="0.0090435902" flag="0"/>
      <psa03 value="0.0375229191" flag="0"/>
      <psa10 value="0.0059951607" flag="0"/>
      <psa30 value="0.0005861067" flag="0"/>
    </comp>
    <comp name="--.HHN">
      <acc value="0.1138240597" flag="0"/>
      <vel value="0.0153124667" flag="0"/>
      <psa03 value="0.0737548173" flag="0"/>
      <psa10 value="0.0058630704" flag="0"/>
      <psa30 value="0.0006196509" flag="0"/>
    </comp>
    <comp name="--.HHE">
      <acc value="0.0945839937" flag="0"/>
      <vel value="0.0157648498" flag="0"/>
      <psa03 value="0.0491895622" flag="0"/>
      <psa10 value="0.0063434574" flag="0"/>
      <psa30 value="0.0005681352" flag="0"/>
    </comp>
  </station>
</stationlist>
