<?xml version="1.0" encoding="UTF-8" standalone="yes"?>
<!DOCTYPE earthquake SYSTEM "stationlist.dtd">
<stationlist created="" xmlns="ch.ethz.sed.shakemap.usgs.xml">
  <station code="RDI1" name="RDI1" netid="HI" insttype="CMG-5TD,ACCELEROMETER,GURALP" lat="36.4514" lon="28.224">
    <comp name="--.HNE">
      <acc value="0.1370452367" flag="0"/>
      <vel value="0.0563514630" flag="0"/>
      <psa03 value="0.4069197451" flag="0"/>
      <psa10 value="0.0768582942" flag="0"/>
      <psa30 value="0.0077364985" flag="0"/>
    </comp>
    <comp name="--.HNN">
      <acc value="0.1448400321" flag="0"/>
      <vel value="0.1158774706" flag="0"/>
      <psa03 value="0.4889849689" flag="0"/>
      <psa10 value="0.0969542526" flag="0"/>
      <psa30 value="0.0122392386" flag="0"/>
    </comp>
    <comp name="--.HNZ">
      <acc value="0.1211834040" flag="0"/>
      <vel value="0.0443615097" flag="0"/>
      <psa03 value="0.3216379069" flag="0"/>
      <psa10 value="0.0553190361" flag="0"/>
      <psa30 value="0.0050733300" flag="0"/>
    </comp>
  </station>
  <station code="ARG" name="ARG" netid="HL" insttype="LE3D20_DR24" lat="36.2136" lon="28.1212">
    <comp name="--.HHN">
      <acc value="0.3641882803" flag="0"/>
      <vel value="0.1202879923" flag="0"/>
      <psa03 value="0.5089268872" flag="0"/>
      <psa10 value="0.0870824968" flag="0"/>
      <psa30 value="0.0074062238" flag="0"/>
    </comp>
    <comp name="--.HHE">
      <acc value="0.5787383295" flag="0"/>
      <vel value="0.1679345960" flag="0"/>
      <psa03 value="0.9105512958" flag="0"/>
      <psa10 value="0.0572746519" flag="0"/>
      <psa30 value="0.0066458033" flag="0"/>
    </comp>
    <comp name="--.HHZ">
      <acc value="0.1907276367" flag="0"/>
      <vel value="0.0635837889" flag="0"/>
      <psa03 value="0.3515584737" flag="0"/>
      <psa10 value="0.0650499387" flag="0"/>
      <psa30 value="0.0029006580" flag="0"/>
    </comp>
  </station>
  <station code="KARP" name="KARP" netid="HL" insttype="120" lat="35.5471" lon="27.1611">
    <comp name="--.HHE">
      <acc value="0.3079677451" flag="0"/>
      <vel value="0.0716309409" flag="0"/>
      <psa03 value="0.3019172035" flag="0"/>
      <psa10 value="0.0832180041" flag="0"/>
      <psa30 value="0.0038408001" flag="0"/>
    </comp>
    <comp name="--.HHN">
      <acc value="0.3170779119" flag="0"/>
      <vel value="0.0882253061" flag="0"/>
      <psa03 value="0.5817356394" flag="0"/>
      <psa10 value="0.0478239385" flag="0"/>
      <psa30 value="0.0022907853" flag="0"/>
    </comp>
    <comp name="--.HHZ">
      <acc value="0.1731464259" flag="0"/>
      <vel value="0.0597638350" flag="0"/>
      <psa03 value="0.1833768075" flag="0"/>
      <psa10 value="0.0382545608" flag="0"/>
      <psa30 value="0.0020420323" flag="0"/>
    </comp>
  </station>
  <station code="RODB" name="RODB" netid="HL" insttype="CMG-5" lat="36.4471" lon="28.2212">
    <comp name="00.HNE">
      <acc value="0.1822441252" flag="0"/>
      <vel value="0.1193873696" flag="0"/>
      <psa03 value="0.4856799753" flag="0"/>
      <psa10 value="0.0872110807" flag="0"/>
      <psa30 value="0.0103839852" flag="0"/>
    </comp>
    <comp name="00.HNZ">
      <acc value="0.1429269011" flag="0"/>
      <vel value="0.0535873685" flag="0"/>
      <psa03 value="0.2306434330" flag="0"/>
      <psa10 value="0.0486413403" flag="0"/>
      <psa30 value="0.0045082995" flag="0"/>
    </comp>
    <comp name="00.HNN">
      <acc value="0.1957850275" flag="0"/>
      <vel value="0.0880920651" flag="0"/>
      <psa03 value="0.5999333302" flag="0"/>
      <psa10 value="0.0656951865" flag="0"/>
      <psa30 value="0.0088944474" flag="0"/>
    </comp>
  </station>
</stationlist>
