<stationlist created="1778069352">
	<station code="KARP" name="KARP" netid="GE" source="GEOFON" insttype="" lat="35.5471" lon="27.16106">
		<comp name="--.HNE" depth="0.0">
			<acc value="0.278395767506105" flag="0"/>
			<vel value="0.0634011995064403" flag="0"/>
			<psa03 value="0.263486854775002" flag="0"/>
			<psa10 value="0.0702434747024219" flag="0"/>
			<psa30 value="0.00316730080650746" flag="0"/>
		</comp>
		<comp name="--.HNN" depth="0.0">
			<acc value="0.28841102942939" flag="0"/>
			<vel value="0.0811002087120001" flag="0"/>
			<psa03 value="0.520709800623447" flag="0"/>
			<psa10 value="0.050411491618873" flag="0"/>
			<psa30 value="0.00231988341315739" flag="0"/>
		</comp>
		<comp name="--.HNZ" depth="0.0">
			<acc value="0.140315318457259" flag="0"/>
			<vel value="0.0508609183177838" flag="0"/>
			<psa03 value="0.15274989339478" flag="0"/>
			<psa10 value="0.0321741207791992" flag="0"/>
			<psa30 value="0.00170467807215615" flag="0"/>
		</comp>
	</station>
	<station code="KSS1" name="KSS1" netid="HI" source="ITSAK Strong Motion Network" insttype="" lat="35.4189" lon="26.9207">
		<comp name="--.HNE" depth="0.0">
			<acc value="0.0607981477678817" flag="0"/>
			<vel value="0.0180054785511703" flag="0"/>
			<psa03 value="0.147783508460152" flag="0"/>
			<psa10 value="0.0149192887968627" flag="0"/>
			<psa30 value="0.00133510744548923" flag="0"/>
		</comp>
		<comp name="--.HNN" depth="0.0">
			<acc value="0.0566552040581389" flag="0"/>
			<vel value="0.0192418177927132" flag="0"/>
			<psa03 value="0.146933406534404" flag="0"/>
			<psa10 value="0.0101878004469805" flag="0"/>
			<psa30 value="0.0010304130184188" flag="0"/>
		</comp>
		<comp name="--.HNZ" depth="0.0">
			<acc value="0.0331286610638914" flag="0"/>
			<vel value="0.0137576003228112" flag="0"/>
			<psa03 value="0.0390599463777512" flag="0"/>
			<psa10 value="0.0160951139867909" flag="0"/>
			<psa30 value="0.0012711260900251" flag="0"/>
		</comp>
	</station>
	<station code="RDI1" name="RDI1" netid="HI" source="ITSAK Strong Motion Network" insttype="" lat="36.4514" lon="28.224">
		<comp name="--.HNE" depth="0.0">
			<acc value="0.137178426346941" flag="0"/>
			<vel value="0.0570376412169813" flag="0"/>
			<psa03 value="0.419010764980115" flag="0"/>
			<psa10 value="0.0765655484975837" flag="0"/>
			<psa30 value="0.00831623394413817" flag="0"/>
		</comp>
		<comp name="--.HNN" depth="0.0">
			<acc value="0.144404411426198" flag="0"/>
			<vel value="0.118712166790328" flag="0"/>
			<psa03 value="0.495654164917215" flag="0"/>
			<psa10 value="0.0977666431036518" flag="0"/>
			<psa30 value="0.0140839517992996" flag="0"/>
		</comp>
		<comp name="--.HNZ" depth="0.0">
			<acc value="0.121613939508988" flag="0"/>
			<vel value="0.0453897075743816" flag="0"/>
			<psa03 value="0.31972780849417" flag="0"/>
			<psa10 value="0.0551711675589247" flag="0"/>
			<psa30 value="0.00584646413880957" flag="0"/>
		</comp>
	</station>
	<station code="KARP" name="KARP" netid="HL" source="National Observatory of Athens Seismic Network" insttype="" lat="35.5471" lon="27.16106">
		<comp name="--.HNE" depth="0.0">
			<acc value="0.27258023828696" flag="0"/>
			<vel value="0.0621953994155162" flag="0"/>
			<psa03 value="0.257894078947718" flag="0"/>
			<psa10 value="0.0687857736107986" flag="0"/>
			<psa30 value="0.00314314001493359" flag="0"/>
		</comp>
		<comp name="--.HNN" depth="0.0">
			<acc value="0.283308402327673" flag="0"/>
			<vel value="0.0798228692145919" flag="0"/>
			<psa03 value="0.510195382068153" flag="0"/>
			<psa10 value="0.0493725775811967" flag="0"/>
			<psa30 value="0.00218923616983204" flag="0"/>
		</comp>
		<comp name="--.HNZ" depth="0.0">
			<acc value="0.138959749953026" flag="0"/>
			<vel value="0.0501065445286984" flag="0"/>
			<psa03 value="0.149617938931501" flag="0"/>
			<psa10 value="0.031485538219344" flag="0"/>
			<psa30 value="0.00166172555380261" flag="0"/>
		</comp>
	</station>
	<station code="KLNA" name="KLNA" netid="HL" source="National Observatory of Athens Seismic Network" insttype="" lat="36.95708" lon="26.97274">
		<comp name="00.HNE" depth="0.0">
			<acc value="0.0545096477183449" flag="0"/>
			<vel value="0.0190202241121072" flag="0"/>
			<psa03 value="0.0957483221631016" flag="0"/>
			<psa10 value="0.00502544464736428" flag="0"/>
			<psa30 value="0.000515877642308673" flag="0"/>
		</comp>
		<comp name="00.HNN" depth="0.0">
			<acc value="0.0596148182046594" flag="0"/>
			<vel value="0.0200790116620705" flag="0"/>
			<psa03 value="0.0722586636885089" flag="0"/>
			<psa10 value="0.00607643908082749" flag="0"/>
			<psa30 value="0.00044294784552089" flag="0"/>
		</comp>
		<comp name="00.HNZ" depth="0.0">
			<acc value="0.0441301506459051" flag="0"/>
			<vel value="0.0126285401526022" flag="0"/>
			<psa03 value="0.0328855218644297" flag="0"/>
			<psa10 value="0.00329794804983281" flag="0"/>
			<psa30 value="0.000387020087248051" flag="0"/>
		</comp>
	</station>
	<station code="KSL" name="KSL" netid="HL" source="National Observatory of Athens Seismic Network" insttype="" lat="36.15031" lon="29.58561">
		<comp name="00.HNE" depth="0.0">
			<acc value="0.0266289485123284" flag="0"/>
			<vel value="0.0147422539280787" flag="0"/>
			<psa03 value="0.0448764332381266" flag="0"/>
			<psa10 value="0.00854083982136189" flag="0"/>
			<psa30 value="0.000805359719128891" flag="0"/>
		</comp>
		<comp name="00.HNN" depth="0.0">
			<acc value="0.0168584326199699" flag="0"/>
			<vel value="0.00741931722665876" flag="0"/>
			<psa03 value="0.0302009894673334" flag="0"/>
			<psa10 value="0.00627777901060971" flag="0"/>
			<psa30 value="0.000644735197369296" flag="0"/>
		</comp>
		<comp name="00.HNZ" depth="0.0">
			<acc value="0.0112157811470262" flag="0"/>
			<vel value="0.00541877276899295" flag="0"/>
			<psa03 value="0.0282770745827477" flag="0"/>
			<psa10 value="0.00306842052988108" flag="0"/>
			<psa30 value="0.000324828420048653" flag="0"/>
		</comp>
	</station>
	<station code="RODB" name="RODB" netid="HL" source="National Observatory of Athens Seismic Network" insttype="" lat="36.4471" lon="28.22116">
		<comp name="00.HNE" depth="0.0">
			<acc value="0.181925263904981" flag="0"/>
			<vel value="0.121540954501838" flag="0"/>
			<psa03 value="0.48670572359356" flag="0"/>
			<psa10 value="0.0871077072209809" flag="0"/>
			<psa30 value="0.0109323107651085" flag="0"/>
		</comp>
		<comp name="00.HNN" depth="0.0">
			<acc value="0.195694741158031" flag="0"/>
			<vel value="0.0870583362187954" flag="0"/>
			<psa03 value="0.60424350037976" flag="0"/>
			<psa10 value="0.0655925223244526" flag="0"/>
			<psa30 value="0.00976364432823926" flag="0"/>
		</comp>
		<comp name="00.HNZ" depth="0.0">
			<acc value="0.143200187972101" flag="0"/>
			<vel value="0.0531830678114171" flag="0"/>
			<psa03 value="0.231630403662793" flag="0"/>
			<psa10 value="0.0486356734381938" flag="0"/>
			<psa30 value="0.00497980759661364" flag="0"/>
		</comp>
	</station>
	<station code="CAME" name="CAME" netid="KO" source="Bogazici University Kandilli Observatory And Earthquake Research Institute (KOERI)" insttype="" lat="36.9435" lon="29.3023">
		<comp name="--.HNE" depth="0.0">
			<acc value="0.0385846412486863" flag="0"/>
			<vel value="0.0154076579502421" flag="0"/>
			<psa03 value="0.0837574107894047" flag="0"/>
			<psa10 value="0.00437310327486988" flag="0"/>
			<psa30 value="0.000393731418240791" flag="0"/>
		</comp>
		<comp name="--.HNN" depth="0.0">
			<acc value="0.0259845453033002" flag="0"/>
			<vel value="0.0105275403884363" flag="0"/>
			<psa03 value="0.0754801025650245" flag="0"/>
			<psa10 value="0.00329392125123717" flag="0"/>
			<psa30 value="0.000391494307909878" flag="0"/>
		</comp>
		<comp name="--.HNZ" depth="0.0">
			<acc value="0.0112675261839802" flag="0"/>
			<vel value="0.00470711777984098" flag="0"/>
			<psa03 value="0.0253240889459418" flag="0"/>
			<psa10 value="0.00302815254392463" flag="0"/>
			<psa30 value="0.000309168647732258" flag="0"/>
		</comp>
	</station>
	<station code="YKAV" name="YKAV" netid="KO" source="Bogazici University Kandilli Observatory And Earthquake Research Institute (KOERI)" insttype="" lat="37.1246" lon="27.2801">
		<comp name="--.HNE" depth="0.0">
			<acc value="0.0310453964076406" flag="0"/>
			<vel value="0.0108333407849463" flag="0"/>
			<psa03 value="0.0627407812686438" flag="0"/>
			<psa10 value="0.00631368996972093" flag="0"/>
			<psa30 value="0.000647025883123547" flag="0"/>
		</comp>
		<comp name="--.HNN" depth="0.0">
			<acc value="0.0261421805593522" flag="0"/>
			<vel value="0.0141915029618729" flag="0"/>
			<psa03 value="0.0510035766532369" flag="0"/>
			<psa10 value="0.00774144517649401" flag="0"/>
			<psa30 value="0.000874762948752385" flag="0"/>
		</comp>
		<comp name="--.HNZ" depth="0.0">
			<acc value="0.0231612417205815" flag="0"/>
			<vel value="0.00819237190058173" flag="0"/>
			<psa03 value="0.0336794628699747" flag="0"/>
			<psa10 value="0.00899307887235432" flag="0"/>
			<psa30 value="0.000511061459480649" flag="0"/>
		</comp>
	</station>
</stationlist>
