<?xml version="1.0" encoding="UTF-8" standalone="yes"?>
<!DOCTYPE earthquake SYSTEM "stationlist.dtd">
<stationlist created="" xmlns="ch.ethz.sed.shakemap.usgs.xml">
  <station code="APE" name="APE" netid="GE" insttype="STS-2/N" lat="37.0727" lon="25.523">
    <comp name="--.HHN">
      <acc value="0.1909662954" flag="0"/>
      <vel value="0.0398377812" flag="0"/>
      <psa03 value="0.1361948435" flag="0"/>
      <psa10 value="0.0204753876" flag="0"/>
      <psa30 value="0.0049454943" flag="0"/>
    </comp>
    <comp name="--.HHE">
      <acc value="0.2583922720" flag="0"/>
      <vel value="0.0563247753" flag="0"/>
      <psa03 value="0.2200300327" flag="0"/>
      <psa10 value="0.0174186671" flag="0"/>
      <psa30 value="0.0042297778" flag="0"/>
    </comp>
    <comp name="--.HHZ">
      <acc value="0.0909896738" flag="0"/>
      <vel value="0.0239222223" flag="0"/>
      <psa03 value="0.0670548130" flag="0"/>
      <psa10 value="0.0158614834" flag="0"/>
      <psa30 value="0.0048370487" flag="0"/>
    </comp>
  </station>
  <station code="THERA" name="THERA" netid="GE" insttype="STS-2/N" lat="36.367" lon="25.4753">
    <comp name="--.HHE">
      <acc value="0.4199523924" flag="0"/>
      <vel value="0.1120963727" flag="0"/>
      <psa03 value="0.2700232435" flag="0"/>
      <psa10 value="0.0748413009" flag="0"/>
      <psa30 value="0.0060245861" flag="0"/>
    </comp>
    <comp name="--.HHN">
      <acc value="0.2754686259" flag="0"/>
      <vel value="0.0951078047" flag="0"/>
      <psa03 value="0.3090516091" flag="0"/>
      <psa10 value="0.0234880065" flag="0"/>
      <psa30 value="0.0025105428" flag="0"/>
    </comp>
    <comp name="--.HHZ">
      <acc value="0.3329134478" flag="0"/>
      <vel value="0.1006362674" flag="0"/>
      <psa03 value="0.2289395938" flag="0"/>
      <psa10 value="0.0563234589" flag="0"/>
      <psa30 value="0.0048504153" flag="0"/>
    </comp>
  </station>
  <station code="SERI" name="SERI" netid="HA" insttype="30" lat="37.1609" lon="24.4853">
    <comp name="--.HHE">
      <acc value="0.0644628625" flag="0"/>
      <vel value="0.0278793196" flag="0"/>
      <psa03 value="0.1005744118" flag="0"/>
      <psa10 value="0.0145530178" flag="0"/>
      <psa30 value="0.0018392816" flag="0"/>
    </comp>
    <comp name="--.HHZ">
      <acc value="0.0505221754" flag="0"/>
      <vel value="0.0319139225" flag="0"/>
      <psa03 value="0.0690663838" flag="0"/>
      <psa10 value="0.0259845878" flag="0"/>
      <psa30 value="0.0028985453" flag="0"/>
    </comp>
    <comp name="--.HHN">
      <acc value="0.0644404040" flag="0"/>
      <vel value="0.0389467732" flag="0"/>
      <psa03 value="0.1075292527" flag="0"/>
      <psa10 value="0.0262533952" flag="0"/>
      <psa30 value="0.0027000515" flag="0"/>
    </comp>
  </station>
  <station code="SNT1" name="SNT1" netid="HA" insttype="30" lat="36.4159" lon="25.4282">
    <comp name="--.HHZ">
      <acc value="0.2552780102" flag="0"/>
      <vel value="0.0684289895" flag="0"/>
      <psa03 value="0.3195615352" flag="0"/>
      <psa10 value="0.0650356228" flag="0"/>
      <psa30 value="0.0074668143" flag="0"/>
    </comp>
    <comp name="--.HHE">
      <acc value="0.3072635724" flag="0"/>
      <vel value="0.1135842923" flag="0"/>
      <psa03 value="0.4922082619" flag="0"/>
      <psa10 value="0.1501776687" flag="0"/>
      <psa30 value="0.0126563618" flag="0"/>
    </comp>
    <comp name="--.HHN">
      <acc value="0.2872605412" flag="0"/>
      <vel value="0.1372617920" flag="0"/>
      <psa03 value="0.4080418726" flag="0"/>
      <psa10 value="0.1496684875" flag="0"/>
      <psa30 value="0.0147568374" flag="0"/>
    </comp>
  </station>
  <station code="KNSS" name="KNSS" netid="HC" insttype="60" lat="35.3042" lon="25.1802">
    <comp name="--.HHN">
      <acc value="0.0361147776" flag="0"/>
      <vel value="0.0171435890" flag="0"/>
      <psa03 value="0.0679616972" flag="0"/>
      <psa10 value="0.0098783186" flag="0"/>
      <psa30 value="0.0016675326" flag="0"/>
    </comp>
    <comp name="--.HHE">
      <acc value="0.0000000000" flag="0"/>
      <vel value="-100.0000000000" flag="0"/>
      <psa03 value="0.0000000000" flag="0"/>
      <psa10 value="0.0000000000" flag="0"/>
      <psa30 value="0.0000000000" flag="0"/>
    </comp>
    <comp name="--.HHZ">
      <acc value="0.0298180240" flag="0"/>
      <vel value="0.0120661440" flag="0"/>
      <psa03 value="0.0779306030" flag="0"/>
      <psa10 value="0.0096238591" flag="0"/>
      <psa30 value="0.0012186201" flag="0"/>
    </comp>
  </station>
  <station code="HER1" name="HER1" netid="HI" insttype="unknown" lat="35.3177" lon="25.1022">
    <comp name="--.HNE">
      <acc value="0.0536871010" flag="0"/>
      <vel value="0.0457071473" flag="0"/>
      <psa03 value="0.1598602691" flag="0"/>
      <psa10 value="0.1179857467" flag="0"/>
      <psa30 value="0.0050218890" flag="0"/>
    </comp>
    <comp name="--.HNN">
      <acc value="0.0517252875" flag="0"/>
      <vel value="0.0414248035" flag="0"/>
      <psa03 value="0.1834130091" flag="0"/>
      <psa10 value="0.0944028154" flag="0"/>
      <psa30 value="0.0041978067" flag="0"/>
    </comp>
    <comp name="--.HNZ">
      <acc value="0.0565616126" flag="0"/>
      <vel value="0.0315621342" flag="0"/>
      <psa03 value="0.1123588677" flag="0"/>
      <psa10 value="0.0580432020" flag="0"/>
      <psa30 value="0.0020343603" flag="0"/>
    </comp>
  </station>
  <station code="NAX1" name="NAX1" netid="HI" insttype="CMG-5TD,ACCELEROMETER,GURALP" lat="37.1014" lon="25.3741">
    <comp name="--.HNE">
      <acc value="0.2202523084" flag="0"/>
      <vel value="0.0794307738" flag="0"/>
      <psa03 value="0.4632810174" flag="0"/>
      <psa10 value="0.0320153261" flag="0"/>
      <psa30 value="0.0025611574" flag="0"/>
    </comp>
    <comp name="--.HNN">
      <acc value="0.2426707149" flag="0"/>
      <vel value="0.0563018323" flag="0"/>
      <psa03 value="0.1456569063" flag="0"/>
      <psa10 value="0.0219479512" flag="0"/>
      <psa30 value="0.0037105812" flag="0"/>
    </comp>
    <comp name="--.HNZ">
      <acc value="0.0806128489" flag="0"/>
      <vel value="0.0373169877" flag="0"/>
      <psa03 value="0.2012602733" flag="0"/>
      <psa10 value="0.0368561129" flag="0"/>
      <psa30 value="0.0039580398" flag="0"/>
    </comp>
  </station>
  <station code="SFR2" name="SFR2" netid="HI" insttype="unknown" lat="36.3998" lon="25.4382">
    <comp name="--.HNE">
      <acc value="0.8989978268" flag="0"/>
      <vel value="0.3423946053" flag="0"/>
      <psa03 value="1.7457053673" flag="0"/>
      <psa10 value="0.1955756521" flag="0"/>
      <psa30 value="0.0211997369" flag="0"/>
    </comp>
    <comp name="--.HNZ">
      <acc value="0.7745215946" flag="0"/>
      <vel value="0.1924483658" flag="0"/>
      <psa03 value="1.0801658578" flag="0"/>
      <psa10 value="0.1103555314" flag="0"/>
      <psa30 value="0.0115327261" flag="0"/>
    </comp>
    <comp name="--.HNN">
      <acc value="0.9055203761" flag="0"/>
      <vel value="0.3093042013" flag="0"/>
      <psa03 value="1.9013653190" flag="0"/>
      <psa10 value="0.2465706952" flag="0"/>
      <psa30 value="0.0130833631" flag="0"/>
    </comp>
  </station>
  <station code="AMGA" name="AMGA" netid="HL" insttype="SMART24" lat="36.8316" lon="25.8938">
    <comp name="--.HHE">
      <acc value="0.5785843650" flag="0"/>
      <vel value="0.1183544126" flag="0"/>
      <psa03 value="0.3077408954" flag="0"/>
      <psa10 value="0.0263670629" flag="0"/>
      <psa30 value="0.0138661873" flag="0"/>
    </comp>
    <comp name="--.HHN">
      <acc value="0.5107503378" flag="0"/>
      <vel value="0.1024186313" flag="0"/>
      <psa03 value="0.3433337559" flag="0"/>
      <psa10 value="0.0528769080" flag="0"/>
      <psa30 value="0.0072162027" flag="0"/>
    </comp>
    <comp name="--.HHZ">
      <acc value="0.4616371259" flag="0"/>
      <vel value="0.1047615901" flag="0"/>
      <psa03 value="0.3076253278" flag="0"/>
      <psa10 value="0.0573260841" flag="0"/>
      <psa30 value="0.0087521133" flag="0"/>
    </comp>
  </station>
  <station code="APE" name="APE" netid="HL" insttype="120" lat="37.0727" lon="25.523">
    <comp name="--.HHE">
      <acc value="0.2441784651" flag="0"/>
      <vel value="0.0542141636" flag="0"/>
      <psa03 value="0.2144587956" flag="0"/>
      <psa10 value="0.0173021652" flag="0"/>
      <psa30 value="0.0042205790" flag="0"/>
    </comp>
    <comp name="--.HHZ">
      <acc value="0.0793080954" flag="0"/>
      <vel value="0.0234084984" flag="0"/>
      <psa03 value="0.0648968285" flag="0"/>
      <psa10 value="0.0156794499" flag="0"/>
      <psa30 value="0.0048306387" flag="0"/>
    </comp>
    <comp name="--.HHN">
      <acc value="0.1552030342" flag="0"/>
      <vel value="0.0388519609" flag="0"/>
      <psa03 value="0.1331927990" flag="0"/>
      <psa10 value="0.0203095376" flag="0"/>
      <psa30 value="0.0049306361" flag="0"/>
    </comp>
  </station>
  <station code="IACM" name="IACM" netid="HL" insttype="120" lat="35.3058" lon="25.0709">
    <comp name="--.HHE">
      <acc value="0.0878891215" flag="0"/>
      <vel value="0.0591770969" flag="0"/>
      <psa03 value="0.2706437957" flag="0"/>
      <psa10 value="0.0856138447" flag="0"/>
      <psa30 value="0.0051147827" flag="0"/>
    </comp>
    <comp name="--.HHN">
      <acc value="0.1179184906" flag="0"/>
      <vel value="0.0601979724" flag="0"/>
      <psa03 value="0.2752689657" flag="0"/>
      <psa10 value="0.0763965710" flag="0"/>
      <psa30 value="0.0038737050" flag="0"/>
    </comp>
    <comp name="--.HHZ">
      <acc value="0.0663291325" flag="0"/>
      <vel value="0.0399961069" flag="0"/>
      <psa03 value="0.1484361964" flag="0"/>
      <psa10 value="0.0323742430" flag="0"/>
      <psa30 value="0.0018689716" flag="0"/>
    </comp>
  </station>
  <station code="MHLO" name="MHLO" netid="HL" insttype="20" lat="36.6898" lon="24.4017">
    <comp name="--.HHN">
      <acc value="0.1231733420" flag="0"/>
      <vel value="0.0888585245" flag="0"/>
      <psa03 value="0.3127692378" flag="0"/>
      <psa10 value="0.1787267321" flag="0"/>
      <psa30 value="0.0066860316" flag="0"/>
    </comp>
    <comp name="--.HHE">
      <acc value="0.1408291209" flag="0"/>
      <vel value="0.0932552367" flag="0"/>
      <psa03 value="0.4549163386" flag="0"/>
      <psa10 value="0.1774004794" flag="0"/>
      <psa30 value="0.0078258680" flag="0"/>
    </comp>
    <comp name="--.HHZ">
      <acc value="0.0549274508" flag="0"/>
      <vel value="0.0381435496" flag="0"/>
      <psa03 value="0.1448380844" flag="0"/>
      <psa10 value="0.0825024589" flag="0"/>
      <psa30 value="0.0044281502" flag="0"/>
    </comp>
  </station>
  <station code="MILA" name="MILA" netid="HL" insttype="CMG-5" lat="36.7429" lon="24.4282">
    <comp name="00.HNN">
      <acc value="0.3400631789" flag="0"/>
      <vel value="0.1733721039" flag="0"/>
      <psa03 value="0.6794547942" flag="0"/>
      <psa10 value="0.1285302926" flag="0"/>
      <psa30 value="0.0093815194" flag="0"/>
    </comp>
    <comp name="00.HNE">
      <acc value="0.2252771653" flag="0"/>
      <vel value="0.1278744814" flag="0"/>
      <psa03 value="0.4539603374" flag="0"/>
      <psa10 value="0.1185383808" flag="0"/>
      <psa30 value="0.0061580446" flag="0"/>
    </comp>
    <comp name="00.HNZ">
      <acc value="0.1356540078" flag="0"/>
      <vel value="0.1102814445" flag="0"/>
      <psa03 value="0.2825020711" flag="0"/>
      <psa10 value="0.1211728331" flag="0"/>
      <psa30 value="0.0075989580" flag="0"/>
    </comp>
  </station>
  <station code="NISR" name="NISR" netid="HL" insttype="65535" lat="36.6106" lon="27.131">
    <comp name="--.HHE">
      <acc value="0.0000000000" flag="0"/>
      <vel value="-100.0000000000" flag="0"/>
      <psa03 value="0.0000000000" flag="0"/>
      <psa10 value="0.0000000000" flag="0"/>
      <psa30 value="0.0000000000" flag="0"/>
    </comp>
    <comp name="--.HHZ">
      <acc value="0.0243243494" flag="0"/>
      <vel value="0.0113427069" flag="0"/>
      <psa03 value="0.0416583481" flag="0"/>
      <psa10 value="0.0185193831" flag="0"/>
      <psa30 value="0.0013589322" flag="0"/>
    </comp>
    <comp name="--.HHN">
      <acc value="0.0435721999" flag="0"/>
      <vel value="0.0264147577" flag="0"/>
      <psa03 value="0.0905818289" flag="0"/>
      <psa10 value="0.0151356877" flag="0"/>
      <psa30 value="0.0047597891" flag="0"/>
    </comp>
  </station>
  <station code="NISR2" name="NISR2" netid="HL" insttype="120" lat="36.5744" lon="27.1767">
    <comp name="--.HHE">
      <acc value="0.0487800055" flag="0"/>
      <vel value="0.0496545778" flag="0"/>
      <psa03 value="0.1460528227" flag="0"/>
      <psa10 value="0.0788718438" flag="0"/>
      <psa30 value="0.0048737338" flag="0"/>
    </comp>
    <comp name="--.HHN">
      <acc value="0.0596361566" flag="0"/>
      <vel value="0.0450956078" flag="0"/>
      <psa03 value="0.1936544264" flag="0"/>
      <psa10 value="0.0697286025" flag="0"/>
      <psa30 value="0.0051437893" flag="0"/>
    </comp>
    <comp name="--.HHZ">
      <acc value="0.0204809529" flag="0"/>
      <vel value="0.0125479884" flag="0"/>
      <psa03 value="0.0605265912" flag="0"/>
      <psa10 value="0.0104844427" flag="0"/>
      <psa30 value="0.0013610836" flag="0"/>
    </comp>
  </station>
  <station code="NPS" name="NPS" netid="HL" insttype="CMG3ESPC-120s" lat="35.2613" lon="25.6104">
    <comp name="--.HHE">
      <acc value="0.0214936418" flag="0"/>
      <vel value="0.0110747882" flag="0"/>
      <psa03 value="0.0632536412" flag="0"/>
      <psa10 value="0.0083370127" flag="0"/>
      <psa30 value="0.0006369505" flag="0"/>
    </comp>
    <comp name="--.HHN">
      <acc value="0.0354211037" flag="0"/>
      <vel value="0.0143113216" flag="0"/>
      <psa03 value="0.0730164155" flag="0"/>
      <psa10 value="0.0179133927" flag="0"/>
      <psa30 value="0.0012010344" flag="0"/>
    </comp>
    <comp name="--.HHZ">
      <acc value="0.0242331433" flag="0"/>
      <vel value="0.0106011156" flag="0"/>
      <psa03 value="0.0549504190" flag="0"/>
      <psa10 value="0.0123124112" flag="0"/>
      <psa30 value="0.0011160269" flag="0"/>
    </comp>
  </station>
  <station code="SANT" name="SANT" netid="HL" insttype="30" lat="36.3705" lon="25.4593">
    <comp name="--.HHN">
      <acc value="0.6392403305" flag="0"/>
      <vel value="0.1117748972" flag="0"/>
      <psa03 value="0.3940580559" flag="0"/>
      <psa10 value="0.0870798495" flag="0"/>
      <psa30 value="0.0055792305" flag="0"/>
    </comp>
    <comp name="--.HHE">
      <acc value="0.8008898399" flag="0"/>
      <vel value="0.1593201806" flag="0"/>
      <psa03 value="0.9665170013" flag="0"/>
      <psa10 value="0.0957632680" flag="0"/>
      <psa30 value="0.0092308383" flag="0"/>
    </comp>
    <comp name="--.HHZ">
      <acc value="0.7392826002" flag="0"/>
      <vel value="0.1166388484" flag="0"/>
      <psa03 value="0.3627579793" flag="0"/>
      <psa10 value="0.0487899345" flag="0"/>
      <psa30 value="0.0042735980" flag="0"/>
    </comp>
  </station>
  <station code="SAP3" name="SAP3" netid="HL" insttype="65535" lat="36.4356" lon="25.3454">
    <comp name="--.HHN">
      <acc value="0.3508816991" flag="0"/>
      <vel value="0.1130641864" flag="0"/>
      <psa03 value="0.4795442747" flag="0"/>
      <psa10 value="0.1197778670" flag="0"/>
      <psa30 value="0.0161019719" flag="0"/>
    </comp>
    <comp name="--.HHZ">
      <acc value="0.3516229631" flag="0"/>
      <vel value="0.0963434289" flag="0"/>
      <psa03 value="0.3595526083" flag="0"/>
      <psa10 value="0.0520159094" flag="0"/>
      <psa30 value="0.0062376813" flag="0"/>
    </comp>
    <comp name="--.HHE">
      <acc value="0.3654059633" flag="0"/>
      <vel value="0.1023508140" flag="0"/>
      <psa03 value="0.4771331169" flag="0"/>
      <psa10 value="0.1783159230" flag="0"/>
      <psa30 value="0.0208715179" flag="0"/>
    </comp>
  </station>
  <station code="THERA" name="THERA" netid="HL" insttype="120" lat="36.367" lon="25.4753">
    <comp name="--.HHE">
      <acc value="0.4086156182" flag="0"/>
      <vel value="0.1093464056" flag="0"/>
      <psa03 value="0.2626500335" flag="0"/>
      <psa10 value="0.0741088081" flag="0"/>
      <psa30 value="0.0060237858" flag="0"/>
    </comp>
    <comp name="--.HHN">
      <acc value="0.5389231079" flag="0"/>
      <vel value="0.1863706362" flag="0"/>
      <psa03 value="0.6002732282" flag="0"/>
      <psa10 value="0.0461022043" flag="0"/>
      <psa30 value="0.0050064544" flag="0"/>
    </comp>
    <comp name="--.HHZ">
      <acc value="0.3280568782" flag="0"/>
      <vel value="0.0972830219" flag="0"/>
      <psa03 value="0.2226914977" flag="0"/>
      <psa10 value="0.0554777092" flag="0"/>
      <psa30 value="0.0048305665" flag="0"/>
    </comp>
  </station>
  <station code="THRA" name="THRA" netid="HL" insttype="CMG-5" lat="36.415" lon="25.4324">
    <comp name="00.HNN">
      <acc value="0.9761164848" flag="0"/>
      <vel value="0.4001192244" flag="0"/>
      <psa03 value="1.7487761520" flag="0"/>
      <psa10 value="0.4772823825" flag="0"/>
      <psa30 value="0.0248670211" flag="0"/>
    </comp>
    <comp name="00.HNE">
      <acc value="1.0996010734" flag="0"/>
      <vel value="0.4242735038" flag="0"/>
      <psa03 value="2.1143565597" flag="0"/>
      <psa10 value="0.3412663210" flag="0"/>
      <psa30 value="0.0264865731" flag="0"/>
    </comp>
    <comp name="00.HNZ">
      <acc value="0.5623133823" flag="0"/>
      <vel value="0.2041638392" flag="0"/>
      <psa03 value="0.9944089180" flag="0"/>
      <psa10 value="0.1241066099" flag="0"/>
      <psa30 value="0.0114075284" flag="0"/>
    </comp>
  </station>
  <station code="TNSA" name="TNSA" netid="HL" insttype="CMG-5" lat="37.5394" lon="25.1631">
    <comp name="00.HNE">
      <acc value="0.0583759310" flag="0"/>
      <vel value="0.0236910232" flag="0"/>
      <psa03 value="0.0793786412" flag="0"/>
      <psa10 value="0.0205297817" flag="0"/>
      <psa30 value="0.0013585338" flag="0"/>
    </comp>
    <comp name="00.HNN">
      <acc value="0.1105571116" flag="0"/>
      <vel value="0.0420837396" flag="0"/>
      <psa03 value="0.3516897646" flag="0"/>
      <psa10 value="0.0269428837" flag="0"/>
      <psa30 value="0.0026736144" flag="0"/>
    </comp>
    <comp name="00.HNZ">
      <acc value="0.0736904782" flag="0"/>
      <vel value="0.0626910904" flag="0"/>
      <psa03 value="0.1798477706" flag="0"/>
      <psa10 value="0.0364239146" flag="0"/>
      <psa30 value="0.0037251906" flag="0"/>
    </comp>
  </station>
  <station code="AKRO" name="AKRO" netid="HT" insttype="Compact," lat="36.3584" lon="25.3967">
    <comp name="--.HHE">
      <acc value="1.3119900497" flag="0"/>
      <vel value="0.5310449399" flag="0"/>
      <psa03 value="2.0762805588" flag="0"/>
      <psa10 value="0.2261930907" flag="0"/>
      <psa30 value="0.0199347987" flag="0"/>
    </comp>
    <comp name="--.HHN">
      <acc value="0.8061386682" flag="0"/>
      <vel value="0.2521600291" flag="0"/>
      <psa03 value="0.6518055673" flag="0"/>
      <psa10 value="0.1118968970" flag="0"/>
      <psa30 value="0.0084363894" flag="0"/>
    </comp>
    <comp name="--.HHZ">
      <acc value="0.6726286647" flag="0"/>
      <vel value="0.2220985754" flag="0"/>
      <psa03 value="0.7152184521" flag="0"/>
      <psa10 value="0.1126317178" flag="0"/>
      <psa30 value="0.0096585151" flag="0"/>
    </comp>
  </station>
  <station code="CMBO" name="CMBO" netid="HT" insttype="120P," lat="36.4709" lon="25.4056">
    <comp name="--.HHN">
      <acc value="0.7244903008" flag="0"/>
      <vel value="0.2846341984" flag="0"/>
      <psa03 value="0.8940340462" flag="0"/>
      <psa10 value="0.1750681479" flag="0"/>
      <psa30 value="0.0118732435" flag="0"/>
    </comp>
    <comp name="--.HHE">
      <acc value="0.6182123094" flag="0"/>
      <vel value="0.2006828967" flag="0"/>
