<?xml version="1.0" encoding="UTF-8" standalone="yes"?>
<!DOCTYPE earthquake SYSTEM "stationlist.dtd">
<stationlist created="" xmlns="ch.ethz.sed.shakemap.usgs.xml">
  <station code="APE" name="APE" netid="GE" insttype="STS-2/N" lat="37.0727" lon="25.523">
    <comp name="--.HHE">
      <acc value="0.2583922720" flag="0"/>
      <vel value="0.0563247847" flag="0"/>
      <psa03 value="0.2200300327" flag="0"/>
      <psa10 value="0.0174186670" flag="0"/>
      <psa30 value="0.0042298079" flag="0"/>
    </comp>
    <comp name="--.HHZ">
      <acc value="0.0909896745" flag="0"/>
      <vel value="0.0239222144" flag="0"/>
      <psa03 value="0.0670548130" flag="0"/>
      <psa10 value="0.0158614752" flag="0"/>
      <psa30 value="0.0048364147" flag="0"/>
    </comp>
    <comp name="--.HHN">
      <acc value="0.1909662954" flag="0"/>
      <vel value="0.0398377839" flag="0"/>
      <psa03 value="0.1361948435" flag="0"/>
      <psa10 value="0.0204753950" flag="0"/>
      <psa30 value="0.0049456768" flag="0"/>
    </comp>
  </station>
  <station code="THERA" name="THERA" netid="GE" insttype="STS-2/N" lat="36.367" lon="25.4753">
    <comp name="--.HHE">
      <acc value="0.4199523924" flag="0"/>
      <vel value="0.1120963793" flag="0"/>
      <psa03 value="0.2700232435" flag="0"/>
      <psa10 value="0.0748413054" flag="0"/>
      <psa30 value="0.0060249803" flag="0"/>
    </comp>
    <comp name="--.HHN">
      <acc value="0.2754686257" flag="0"/>
      <vel value="0.0951078004" flag="0"/>
      <psa03 value="0.3090516091" flag="0"/>
      <psa10 value="0.0234880036" flag="0"/>
      <psa30 value="0.0025106810" flag="0"/>
    </comp>
    <comp name="--.HHZ">
      <acc value="0.3329134478" flag="0"/>
      <vel value="0.1006362640" flag="0"/>
      <psa03 value="0.2289395938" flag="0"/>
      <psa10 value="0.0563234617" flag="0"/>
      <psa30 value="0.0048494128" flag="0"/>
    </comp>
  </station>
  <station code="SERI" name="SERI" netid="HA" insttype="30" lat="37.1609" lon="24.4853">
    <comp name="--.HHZ">
      <acc value="0.0505221756" flag="0"/>
      <vel value="0.0319139171" flag="0"/>
      <psa03 value="0.0690663838" flag="0"/>
      <psa10 value="0.0259845882" flag="0"/>
      <psa30 value="0.0028988006" flag="0"/>
    </comp>
    <comp name="--.HHE">
      <acc value="0.0644628626" flag="0"/>
      <vel value="0.0278793187" flag="0"/>
      <psa03 value="0.1005744118" flag="0"/>
      <psa10 value="0.0145530179" flag="0"/>
      <psa30 value="0.0018390038" flag="0"/>
    </comp>
    <comp name="--.HHN">
      <acc value="0.0644404041" flag="0"/>
      <vel value="0.0389467757" flag="0"/>
      <psa03 value="0.1075292527" flag="0"/>
      <psa10 value="0.0262533950" flag="0"/>
      <psa30 value="0.0027003276" flag="0"/>
    </comp>
  </station>
  <station code="SNT1" name="SNT1" netid="HA" insttype="30" lat="36.4159" lon="25.4282">
    <comp name="--.HHN">
      <acc value="0.2872605414" flag="0"/>
      <vel value="0.1372617908" flag="0"/>
      <psa03 value="0.4080418726" flag="0"/>
      <psa10 value="0.1496684833" flag="0"/>
      <psa30 value="0.0147570396" flag="0"/>
    </comp>
    <comp name="--.HHZ">
      <acc value="0.2552780102" flag="0"/>
      <vel value="0.0684289999" flag="0"/>
      <psa03 value="0.3195615352" flag="0"/>
      <psa10 value="0.0650356235" flag="0"/>
      <psa30 value="0.0074669329" flag="0"/>
    </comp>
    <comp name="--.HHE">
      <acc value="0.3072635725" flag="0"/>
      <vel value="0.1135843184" flag="0"/>
      <psa03 value="0.4922082619" flag="0"/>
      <psa10 value="0.1501776693" flag="0"/>
      <psa30 value="0.0126564960" flag="0"/>
    </comp>
  </station>
  <station code="KNSS" name="KNSS" netid="HC" insttype="60" lat="35.3042" lon="25.1802">
    <comp name="--.HHE">
      <acc value="0.0000000000" flag="0"/>
      <vel value="-100.0000000000" flag="0"/>
      <psa03 value="0.0000000000" flag="0"/>
      <psa10 value="0.0000000000" flag="0"/>
      <psa30 value="0.0000000000" flag="0"/>
    </comp>
    <comp name="--.HHN">
      <acc value="0.0361147776" flag="0"/>
      <vel value="0.0171435863" flag="0"/>
      <psa03 value="0.0679616972" flag="0"/>
      <psa10 value="0.0098783186" flag="0"/>
      <psa30 value="0.0016675294" flag="0"/>
    </comp>
    <comp name="--.HHZ">
      <acc value="0.0298180240" flag="0"/>
      <vel value="0.0120661410" flag="0"/>
      <psa03 value="0.0779306030" flag="0"/>
      <psa10 value="0.0096238591" flag="0"/>
      <psa30 value="0.0012186204" flag="0"/>
    </comp>
  </station>
  <station code="HER1" name="HER1" netid="HI" insttype="unknown" lat="35.3177" lon="25.1022">
    <comp name="--.HNZ">
      <acc value="0.0565616120" flag="0"/>
      <vel value="0.0315621355" flag="0"/>
      <psa03 value="0.1123588677" flag="0"/>
      <psa10 value="0.0580432020" flag="0"/>
      <psa30 value="0.0020343544" flag="0"/>
    </comp>
    <comp name="--.HNE">
      <acc value="0.0536871009" flag="0"/>
      <vel value="0.0457071496" flag="0"/>
      <psa03 value="0.1598602691" flag="0"/>
      <psa10 value="0.1179857467" flag="0"/>
      <psa30 value="0.0050218728" flag="0"/>
    </comp>
    <comp name="--.HNN">
      <acc value="0.0517252877" flag="0"/>
      <vel value="0.0414248028" flag="0"/>
      <psa03 value="0.1834130091" flag="0"/>
      <psa10 value="0.0944028154" flag="0"/>
      <psa30 value="0.0041978070" flag="0"/>
    </comp>
  </station>
  <station code="SFR2" name="SFR2" netid="HI" insttype="unknown" lat="36.3998" lon="25.4382">
    <comp name="--.HNE">
      <acc value="0.8989978264" flag="0"/>
      <vel value="0.3423946020" flag="0"/>
      <psa03 value="1.7457053673" flag="0"/>
      <psa10 value="0.1955756528" flag="0"/>
      <psa30 value="0.0211997378" flag="0"/>
    </comp>
    <comp name="--.HNN">
      <acc value="0.9055203760" flag="0"/>
      <vel value="0.3093042008" flag="0"/>
      <psa03 value="1.9013653190" flag="0"/>
      <psa10 value="0.2465707019" flag="0"/>
      <psa30 value="0.0130826047" flag="0"/>
    </comp>
    <comp name="--.HNZ">
      <acc value="0.7745215935" flag="0"/>
      <vel value="0.1924483614" flag="0"/>
      <psa03 value="1.0801658578" flag="0"/>
      <psa10 value="0.1103555343" flag="0"/>
      <psa30 value="0.0115328974" flag="0"/>
    </comp>
  </station>
  <station code="AMGA" name="AMGA" netid="HL" insttype="SMART24" lat="36.8316" lon="25.8938">
    <comp name="--.HHE">
      <acc value="0.5785843655" flag="0"/>
      <vel value="0.1183544550" flag="0"/>
      <psa03 value="0.3077408953" flag="0"/>
      <psa10 value="0.0263670600" flag="0"/>
      <psa30 value="0.0138692342" flag="0"/>
    </comp>
    <comp name="--.HHN">
      <acc value="0.5107503382" flag="0"/>
      <vel value="0.1024186732" flag="0"/>
      <psa03 value="0.3433337558" flag="0"/>
      <psa10 value="0.0528769113" flag="0"/>
      <psa30 value="0.0072178497" flag="0"/>
    </comp>
    <comp name="--.HHZ">
      <acc value="0.4616371275" flag="0"/>
      <vel value="0.1047608625" flag="0"/>
      <psa03 value="0.3076253259" flag="0"/>
      <psa10 value="0.0573260597" flag="0"/>
      <psa30 value="0.0087610063" flag="0"/>
    </comp>
  </station>
  <station code="IACM" name="IACM" netid="HL" insttype="120" lat="35.3058" lon="25.0709">
    <comp name="--.HHN">
      <acc value="0.1179184906" flag="0"/>
      <vel value="0.0601979725" flag="0"/>
      <psa03 value="0.2752689657" flag="0"/>
      <psa10 value="0.0763965710" flag="0"/>
      <psa30 value="0.0038737047" flag="0"/>
    </comp>
    <comp name="--.HHZ">
      <acc value="0.0663291325" flag="0"/>
      <vel value="0.0399961061" flag="0"/>
      <psa03 value="0.1484361964" flag="0"/>
      <psa10 value="0.0323742430" flag="0"/>
      <psa30 value="0.0018689903" flag="0"/>
    </comp>
    <comp name="--.HHE">
      <acc value="0.0878891215" flag="0"/>
      <vel value="0.0591770977" flag="0"/>
      <psa03 value="0.2706437957" flag="0"/>
      <psa10 value="0.0856138447" flag="0"/>
      <psa30 value="0.0051147750" flag="0"/>
    </comp>
  </station>
  <station code="MHLO" name="MHLO" netid="HL" insttype="20" lat="36.6898" lon="24.4017">
    <comp name="--.HHE">
      <acc value="0.1408291211" flag="0"/>
      <vel value="0.0932551796" flag="0"/>
      <psa03 value="0.4549163387" flag="0"/>
      <psa10 value="0.1774004794" flag="0"/>
      <psa30 value="0.0078257614" flag="0"/>
    </comp>
    <comp name="--.HHZ">
      <acc value="0.0549274510" flag="0"/>
      <vel value="0.0381435131" flag="0"/>
      <psa03 value="0.1448380844" flag="0"/>
      <psa10 value="0.0825024589" flag="0"/>
      <psa30 value="0.0044278886" flag="0"/>
    </comp>
    <comp name="--.HHN">
      <acc value="0.1231733419" flag="0"/>
      <vel value="0.0888585203" flag="0"/>
      <psa03 value="0.3127692378" flag="0"/>
      <psa10 value="0.1787267321" flag="0"/>
      <psa30 value="0.0066857485" flag="0"/>
    </comp>
  </station>
  <station code="MILA" name="MILA" netid="HL" insttype="CMG-5" lat="36.7429" lon="24.4282">
    <comp name="00.HNN">
      <acc value="0.3400631801" flag="0"/>
      <vel value="0.1733720975" flag="0"/>
      <psa03 value="0.6794547942" flag="0"/>
      <psa10 value="0.1285302930" flag="0"/>
      <psa30 value="0.0093812444" flag="0"/>
    </comp>
    <comp name="00.HNZ">
      <acc value="0.1356540074" flag="0"/>
      <vel value="0.1102814506" flag="0"/>
      <psa03 value="0.2825020711" flag="0"/>
      <psa10 value="0.1211728347" flag="0"/>
      <psa30 value="0.0075985967" flag="0"/>
    </comp>
    <comp name="00.HNE">
      <acc value="0.2252771671" flag="0"/>
      <vel value="0.1278744803" flag="0"/>
      <psa03 value="0.4539603374" flag="0"/>
      <psa10 value="0.1185383799" flag="0"/>
      <psa30 value="0.0061576813" flag="0"/>
    </comp>
  </station>
  <station code="NISR" name="NISR" netid="HL" insttype="65535" lat="36.6106" lon="27.131">
    <comp name="--.HHE">
      <acc value="0.0000000000" flag="0"/>
      <vel value="-100.0000000000" flag="0"/>
      <psa03 value="0.0000000000" flag="0"/>
      <psa10 value="0.0000000000" flag="0"/>
      <psa30 value="0.0000000000" flag="0"/>
    </comp>
    <comp name="--.HHZ">
      <acc value="0.0243243494" flag="0"/>
      <vel value="0.0113427058" flag="0"/>
      <psa03 value="0.0416583481" flag="0"/>
      <psa10 value="0.0185193831" flag="0"/>
      <psa30 value="0.0013589267" flag="0"/>
    </comp>
    <comp name="--.HHN">
      <acc value="0.0435722006" flag="0"/>
      <vel value="0.0264147648" flag="0"/>
      <psa03 value="0.0905818289" flag="0"/>
      <psa10 value="0.0151356877" flag="0"/>
      <psa30 value="0.0047596669" flag="0"/>
    </comp>
  </station>
  <station code="NISR2" name="NISR2" netid="HL" insttype="120" lat="36.5744" lon="27.1767">
    <comp name="--.HHE">
      <acc value="0.0487800053" flag="0"/>
      <vel value="0.0496545716" flag="0"/>
      <psa03 value="0.1460528227" flag="0"/>
      <psa10 value="0.0788718439" flag="0"/>
      <psa30 value="0.0048742470" flag="0"/>
    </comp>
    <comp name="--.HHZ">
      <acc value="0.0204809528" flag="0"/>
      <vel value="0.0125479942" flag="0"/>
      <psa03 value="0.0605265912" flag="0"/>
      <psa10 value="0.0104844427" flag="0"/>
      <psa30 value="0.0013610311" flag="0"/>
    </comp>
    <comp name="--.HHN">
      <acc value="0.0596361565" flag="0"/>
      <vel value="0.0450956233" flag="0"/>
      <psa03 value="0.1936544264" flag="0"/>
      <psa10 value="0.0697286024" flag="0"/>
      <psa30 value="0.0051438391" flag="0"/>
    </comp>
  </station>
  <station code="NPS" name="NPS" netid="HL" insttype="CMG3ESPC-120s" lat="35.2613" lon="25.6104">
    <comp name="--.HHN">
      <acc value="0.0354211037" flag="0"/>
      <vel value="0.0143113224" flag="0"/>
      <psa03 value="0.0730164155" flag="0"/>
      <psa10 value="0.0179133927" flag="0"/>
      <psa30 value="0.0012010336" flag="0"/>
    </comp>
    <comp name="--.HHE">
      <acc value="0.0214936418" flag="0"/>
      <vel value="0.0110747882" flag="0"/>
      <psa03 value="0.0632536412" flag="0"/>
      <psa10 value="0.0083370127" flag="0"/>
      <psa30 value="0.0006369508" flag="0"/>
    </comp>
    <comp name="--.HHZ">
      <acc value="0.0242331433" flag="0"/>
      <vel value="0.0106011157" flag="0"/>
      <psa03 value="0.0549504190" flag="0"/>
      <psa10 value="0.0123124112" flag="0"/>
      <psa30 value="0.0011160275" flag="0"/>
    </comp>
  </station>
  <station code="SANT" name="SANT" netid="HL" insttype="30" lat="36.3705" lon="25.4593">
    <comp name="--.HHN">
      <acc value="0.6392403305" flag="0"/>
      <vel value="0.1117748799" flag="0"/>
      <psa03 value="0.3940580559" flag="0"/>
      <psa10 value="0.0870798488" flag="0"/>
      <psa30 value="0.0055787995" flag="0"/>
    </comp>
    <comp name="--.HHE">
      <acc value="0.8008898401" flag="0"/>
      <vel value="0.1593201707" flag="0"/>
      <psa03 value="0.9665170013" flag="0"/>
      <psa10 value="0.0957632689" flag="0"/>
      <psa30 value="0.0092307981" flag="0"/>
    </comp>
    <comp name="--.HHZ">
      <acc value="0.7392826002" flag="0"/>
      <vel value="0.1166388462" flag="0"/>
      <psa03 value="0.3627579793" flag="0"/>
      <psa10 value="0.0487899290" flag="0"/>
      <psa30 value="0.0042733702" flag="0"/>
    </comp>
  </station>
  <station code="SAP3" name="SAP3" netid="HL" insttype="65535" lat="36.4356" lon="25.3454">
    <comp name="--.HHN">
      <acc value="0.3508816990" flag="0"/>
      <vel value="0.1130642133" flag="0"/>
      <psa03 value="0.4795442747" flag="0"/>
      <psa10 value="0.1197778669" flag="0"/>
      <psa30 value="0.0161020677" flag="0"/>
    </comp>
    <comp name="--.HHE">
      <acc value="0.3654059634" flag="0"/>
      <vel value="0.1023508140" flag="0"/>
      <psa03 value="0.4771331169" flag="0"/>
      <psa10 value="0.1783159227" flag="0"/>
      <psa30 value="0.0208715161" flag="0"/>
    </comp>
    <comp name="--.HHZ">
      <acc value="0.3516229631" flag="0"/>
      <vel value="0.0963434382" flag="0"/>
      <psa03 value="0.3595526083" flag="0"/>
      <psa10 value="0.0520159094" flag="0"/>
      <psa30 value="0.0062376778" flag="0"/>
    </comp>
  </station>
  <station code="THERA" name="THERA" netid="HL" insttype="120" lat="36.367" lon="25.4753">
    <comp name="--.HHZ">
      <acc value="0.3280568782" flag="0"/>
      <vel value="0.0972830194" flag="0"/>
      <psa03 value="0.2226914977" flag="0"/>
      <psa10 value="0.0554777111" flag="0"/>
      <psa30 value="0.0048301280" flag="0"/>
    </comp>
    <comp name="--.HHN">
      <acc value="0.5389231076" flag="0"/>
      <vel value="0.1863706360" flag="0"/>
      <psa03 value="0.6002732282" flag="0"/>
      <psa10 value="0.0461022004" flag="0"/>
      <psa30 value="0.0050065702" flag="0"/>
    </comp>
    <comp name="--.HHE">
      <acc value="0.4086156182" flag="0"/>
      <vel value="0.1093464138" flag="0"/>
      <psa03 value="0.2626500335" flag="0"/>
      <psa10 value="0.0741088103" flag="0"/>
      <psa30 value="0.0060240084" flag="0"/>
    </comp>
  </station>
  <station code="THRA" name="THRA" netid="HL" insttype="CMG-5" lat="36.415" lon="25.4324">
    <comp name="00.HNZ">
      <acc value="0.5623133810" flag="0"/>
      <vel value="0.2041638391" flag="0"/>
      <psa03 value="0.9944089180" flag="0"/>
      <psa10 value="0.1241066087" flag="0"/>
      <psa30 value="0.0114072268" flag="0"/>
    </comp>
    <comp name="00.HNN">
      <acc value="0.9761164851" flag="0"/>
      <vel value="0.4001192160" flag="0"/>
      <psa03 value="1.7487761520" flag="0"/>
      <psa10 value="0.4772824200" flag="0"/>
      <psa30 value="0.0248656223" flag="0"/>
    </comp>
    <comp name="00.HNE">
      <acc value="1.0996010731" flag="0"/>
      <vel value="0.4242735040" flag="0"/>
      <psa03 value="2.1143565597" flag="0"/>
      <psa10 value="0.3412663236" flag="0"/>
      <psa30 value="0.0264874058" flag="0"/>
    </comp>
  </station>
  <station code="AKRO" name="AKRO" netid="HT" insttype="Compact," lat="36.3584" lon="25.3967">
    <comp name="--.HHN">
      <acc value="0.8061386682" flag="0"/>
      <vel value="0.2521599938" flag="0"/>
      <psa03 value="0.6518055673" flag="0"/>
      <psa10 value="0.1118968970" flag="0"/>
      <psa30 value="0.0084347791" flag="0"/>
    </comp>
    <comp name="--.HHE">
      <acc value="1.3119900497" flag="0"/>
      <vel value="0.5310449347" flag="0"/>
      <psa03 value="2.0762805588" flag="0"/>
      <psa10 value="0.2261930993" flag="0"/>
      <psa30 value="0.0199320805" flag="0"/>
    </comp>
    <comp name="--.HHZ">
      <acc value="0.6726286648" flag="0"/>
      <vel value="0.2220985711" flag="0"/>
      <psa03 value="0.7152184521" flag="0"/>
      <psa10 value="0.1126317144" flag="0"/>
      <psa30 value="0.0096586205" flag="0"/>
    </comp>
  </station>
  <station code="CMBO" name="CMBO" netid="HT" insttype="120P," lat="36.4709" lon="25.4056">
    <comp name="--.HHN">
      <acc value="0.7244903009" flag="0"/>
      <vel value="0.2846341835" flag="0"/>
      <psa03 value="0.8940340462" flag="0"/>
      <psa10 value="0.1750681480" flag="0"/>
      <psa30 value="0.0118764693" flag="0"/>
    </comp>
    <comp name="--.HHE">
      <acc value="0.6182123094" flag="0"/>
      <vel value="0.2006828897" flag="0"/>
      <psa03 value="1.0375711944" flag="0"/>
      <psa10 value="0.1473238784" flag="0"/>
      <psa30 value="0.0130831235" flag="0"/>
    </comp>
    <comp name="--.HHZ">
      <acc value="0.4871803304" flag="0"/>
      <vel value="0.1683903591" flag="0"/>
      <psa03 value="0.7856213361" flag="0"/>
      <psa10 value="0.0693740603" flag="0"/>
      <psa30 value="0.0104596019" flag="0"/>
    </comp>
  </station>
</stationlist>
