<stationlist created="1775467527">
	<station code="AKIN" name="AKIN" netid="KO" source="Bogazici University Kandilli Observatory And Earthquake Research Institute (KOERI)" insttype="" lat="35.0157" lon="33.4662">
		<comp name="--.HNE" depth="0.0">
			<acc value="0.00605874572462165" flag="0"/>
			<vel value="0.00646715682108455" flag="0"/>
			<psa03 value="0.0154954913440036" flag="0"/>
			<psa10 value="0.00727356840070972" flag="0"/>
			<psa30 value="0.000378909293589443" flag="0"/>
		</comp>
		<comp name="--.HNN" depth="0.0">
			<acc value="0.00622537927521785" flag="0"/>
			<vel value="0.00463290932018243" flag="0"/>
			<psa03 value="0.0142924077393692" flag="0"/>
			<psa10 value="0.00273123819675131" flag="0"/>
			<psa30 value="0.000216934344794017" flag="0"/>
		</comp>
		<comp name="--.HNZ" depth="0.0">
			<acc value="0.00666769677702025" flag="0"/>
			<vel value="0.00325445274807793" flag="0"/>
			<psa03 value="0.0232673616610197" flag="0"/>
			<psa10 value="0.00216409914219732" flag="0"/>
			<psa30 value="0.000135280966908466" flag="0"/>
		</comp>
	</station>
</stationlist>
