<?xml version="1.0" encoding="UTF-8" standalone="yes"?>
<!DOCTYPE earthquake SYSTEM "stationlist.dtd">
<stationlist created="" xmlns="ch.ethz.sed.shakemap.usgs.xml">
  <station code="ARPRA" name="ARPRA" netid="KO" insttype="CMG-5T" lat="39.0929" lon="38.3356">
    <comp name="--.HNE">
      <acc value="0.2302883361" flag="0"/>
      <vel value="0.0626423900" flag="0"/>
      <psa03 value="0.4943799263" flag="0"/>
      <psa10 value="0.0287790774" flag="0"/>
      <psa30 value="0.0028825110" flag="0"/>
    </comp>
    <comp name="--.HNZ">
      <acc value="0.1197485955" flag="0"/>
      <vel value="0.0414100298" flag="0"/>
      <psa03 value="0.2804984643" flag="0"/>
      <psa10 value="0.0181460290" flag="0"/>
      <psa30 value="0.0011793714" flag="0"/>
    </comp>
    <comp name="--.HNN">
      <acc value="0.1938466695" flag="0"/>
      <vel value="0.0763324098" flag="0"/>
      <psa03 value="0.4488090702" flag="0"/>
      <psa10 value="0.0262636666" flag="0"/>
      <psa30 value="0.0020410838" flag="0"/>
    </comp>
  </station>
  <station code="DYBB" name="DYBB" netid="KO" insttype="CMG-3T" lat="37.9532" lon="40.1393">
    <comp name="--.HHZ">
      <acc value="0.0214619553" flag="0"/>
      <vel value="0.0091350817" flag="0"/>
      <psa03 value="0.0539900368" flag="0"/>
      <psa10 value="0.0159640824" flag="0"/>
      <psa30 value="0.0024572142" flag="0"/>
    </comp>
    <comp name="--.HHE">
      <acc value="0.0439727784" flag="0"/>
      <vel value="0.0195883725" flag="0"/>
      <psa03 value="0.1970714390" flag="0"/>
      <psa10 value="0.0200869024" flag="0"/>
      <psa30 value="0.0045174715" flag="0"/>
    </comp>
    <comp name="--.HHN">
      <acc value="0.0339841637" flag="0"/>
      <vel value="0.0150633084" flag="0"/>
      <psa03 value="0.1114804215" flag="0"/>
      <psa10 value="0.0160514690" flag="0"/>
      <psa30 value="0.0025058220" flag="0"/>
    </comp>
  </station>
  <station code="SINE" name="SINE" netid="KO" insttype="CMG-6T" lat="39.1636" lon="39.3871">
    <comp name="--.HHN">
      <acc value="0.0215472273" flag="0"/>
      <vel value="0.0065714834" flag="0"/>
      <psa03 value="0.0445726430" flag="0"/>
      <psa10 value="0.0070982943" flag="0"/>
      <psa30 value="0.0002988514" flag="0"/>
    </comp>
    <comp name="--.HHZ">
      <acc value="0.0135606969" flag="0"/>
      <vel value="0.0062685409" flag="0"/>
      <psa03 value="0.0286276911" flag="0"/>
      <psa10 value="0.0059124602" flag="0"/>
      <psa30 value="0.0002298344" flag="0"/>
    </comp>
    <comp name="--.HHE">
      <acc value="0.0231130726" flag="0"/>
      <vel value="0.0094446489" flag="0"/>
      <psa03 value="0.0419539402" flag="0"/>
      <psa10 value="0.0054055791" flag="0"/>
      <psa30 value="0.0002461371" flag="0"/>
    </comp>
  </station>
  <station code="URFA" name="URFA" netid="KO" insttype="CMG-3ESP" lat="37.4409" lon="38.8213">
    <comp name="--.HHE">
      <acc value="0.0406090348" flag="0"/>
      <vel value="0.0100925548" flag="0"/>
      <psa03 value="0.0376449173" flag="0"/>
      <psa10 value="0.0077870710" flag="0"/>
      <psa30 value="0.0009434879" flag="0"/>
    </comp>
    <comp name="--.HHN">
      <acc value="0.0270523304" flag="0"/>
      <vel value="0.0084480320" flag="0"/>
      <psa03 value="0.0385449776" flag="0"/>
      <psa10 value="0.0074485008" flag="0"/>
      <psa30 value="0.0014161618" flag="0"/>
    </comp>
    <comp name="--.HHZ">
      <acc value="0.0233448690" flag="0"/>
      <vel value="0.0049951746" flag="0"/>
      <psa03 value="0.0250994798" flag="0"/>
      <psa10 value="0.0039785792" flag="0"/>
      <psa30 value="0.0008363916" flag="0"/>
    </comp>
  </station>
</stationlist>
