<?xml version="1.0" encoding="UTF-8" standalone="yes"?>
<!DOCTYPE earthquake SYSTEM "stationlist.dtd">
<stationlist created="" xmlns="ch.ethz.sed.shakemap.usgs.xml">
  <station code="ARPRA" name="ARPRA" netid="KO" insttype="CMG-5T" lat="39.0929" lon="38.3356">
    <comp name="--.HNE">
      <acc value="0.2302883476" flag="0"/>
      <vel value="0.0626423932" flag="0"/>
      <psa03 value="0.4943799263" flag="0"/>
      <psa10 value="0.0287790753" flag="0"/>
      <psa30 value="0.0028768150" flag="0"/>
    </comp>
    <comp name="--.HNN">
      <acc value="0.1938466778" flag="0"/>
      <vel value="0.0763324037" flag="0"/>
      <psa03 value="0.4488090702" flag="0"/>
      <psa10 value="0.0262636633" flag="0"/>
      <psa30 value="0.0020400107" flag="0"/>
    </comp>
    <comp name="--.HNZ">
      <acc value="0.1197485970" flag="0"/>
      <vel value="0.0414100272" flag="0"/>
      <psa03 value="0.2804984643" flag="0"/>
      <psa10 value="0.0181460286" flag="0"/>
      <psa30 value="0.0011790298" flag="0"/>
    </comp>
  </station>
  <station code="DYBB" name="DYBB" netid="KO" insttype="CMG-3T" lat="37.9532" lon="40.1393">
    <comp name="--.HHN">
      <acc value="0.0339841637" flag="0"/>
      <vel value="0.0150633098" flag="0"/>
      <psa03 value="0.1114804215" flag="0"/>
      <psa10 value="0.0160514691" flag="0"/>
      <psa30 value="0.0025058223" flag="0"/>
    </comp>
    <comp name="--.HHE">
      <acc value="0.0439727783" flag="0"/>
      <vel value="0.0195883715" flag="0"/>
      <psa03 value="0.1970714390" flag="0"/>
      <psa10 value="0.0200869024" flag="0"/>
      <psa30 value="0.0045174701" flag="0"/>
    </comp>
    <comp name="--.HHZ">
      <acc value="0.0214619552" flag="0"/>
      <vel value="0.0091350826" flag="0"/>
      <psa03 value="0.0539900368" flag="0"/>
      <psa10 value="0.0159640825" flag="0"/>
      <psa30 value="0.0024572220" flag="0"/>
    </comp>
  </station>
  <station code="URFA" name="URFA" netid="KO" insttype="CMG-3ESP" lat="37.4409" lon="38.8213">
    <comp name="--.HHE">
      <acc value="0.0406090347" flag="0"/>
      <vel value="0.0100925558" flag="0"/>
      <psa03 value="0.0376449173" flag="0"/>
      <psa10 value="0.0077870710" flag="0"/>
      <psa30 value="0.0009434929" flag="0"/>
    </comp>
    <comp name="--.HHZ">
      <acc value="0.0233448690" flag="0"/>
      <vel value="0.0049951731" flag="0"/>
      <psa03 value="0.0250994798" flag="0"/>
      <psa10 value="0.0039785793" flag="0"/>
      <psa30 value="0.0008363911" flag="0"/>
    </comp>
    <comp name="--.HHN">
      <acc value="0.0270523303" flag="0"/>
      <vel value="0.0084480318" flag="0"/>
      <psa03 value="0.0385449776" flag="0"/>
      <psa10 value="0.0074485007" flag="0"/>
      <psa30 value="0.0014161852" flag="0"/>
    </comp>
  </station>
</stationlist>
