<stationlist created="1778069311">
	<station code="KRTS" name="KRTS" netid="KO" source="Bogazici University Kandilli Observatory And Earthquake Research Institute (KOERI)" insttype="" lat="36.573" lon="35.375">
		<comp name="--.HNE" depth="0.0">
			<acc value="0.0968369624365306" flag="0"/>
			<vel value="0.0570175540243113" flag="0"/>
			<psa03 value="0.352702814771836" flag="0"/>
			<psa10 value="0.0334143747466577" flag="0"/>
			<psa30 value="0.00381382569214148" flag="0"/>
		</comp>
		<comp name="--.HNN" depth="0.0">
			<acc value="0.151235364418066" flag="0"/>
			<vel value="0.0959278280976029" flag="0"/>
			<psa03 value="0.319951519527261" flag="0"/>
			<psa10 value="0.114808054760419" flag="0"/>
			<psa30 value="0.00797127153111129" flag="0"/>
		</comp>
		<comp name="--.HNZ" depth="0.0">
			<acc value="0.0534037440015676" flag="0"/>
			<vel value="0.0233084806545263" flag="0"/>
			<psa03 value="0.124875498671596" flag="0"/>
			<psa10 value="0.0257956718036984" flag="0"/>
			<psa30 value="0.00283799816579698" flag="0"/>
		</comp>
	</station>
</stationlist>
