<stationlist created="1778069850">
	<station code="KRMN" name="KRMN" netid="KO" source="Bogazici University Kandilli Observatory And Earthquake Research Institute (KOERI)" insttype="" lat="37.174" lon="33.2636">
		<comp name="--.HNE" depth="0.0">
			<acc value="0.0473698287199937" flag="0"/>
			<vel value="0.034430055333931" flag="0"/>
			<psa03 value="0.145188460476292" flag="0"/>
			<psa10 value="0.0533228670035239" flag="0"/>
			<psa30 value="0.00390017815091475" flag="0"/>
		</comp>
		<comp name="--.HNN" depth="0.0">
			<acc value="0.044447304047887" flag="0"/>
			<vel value="0.0336187467339867" flag="0"/>
			<psa03 value="0.106486451751487" flag="0"/>
			<psa10 value="0.0513014141085104" flag="0"/>
			<psa30 value="0.00328676249817824" flag="0"/>
		</comp>
		<comp name="--.HNZ" depth="0.0">
			<acc value="0.0323201491878957" flag="0"/>
			<vel value="0.0215685024875725" flag="0"/>
			<psa03 value="0.0756590713914976" flag="0"/>
			<psa10 value="0.0154467994128921" flag="0"/>
			<psa30 value="0.00268676950742722" flag="0"/>
		</comp>
	</station>
	<station code="KRTS" name="KRTS" netid="KO" source="Bogazici University Kandilli Observatory And Earthquake Research Institute (KOERI)" insttype="" lat="36.573" lon="35.375">
		<comp name="--.HNE" depth="0.0">
			<acc value="0.025216667265165" flag="0"/>
			<vel value="0.0331224966174937" flag="0"/>
			<psa03 value="0.0877394671784309" flag="0"/>
			<psa10 value="0.0482329935786293" flag="0"/>
			<psa30 value="0.00943836848612442" flag="0"/>
		</comp>
		<comp name="--.HNN" depth="0.0">
			<acc value="0.0323476600084762" flag="0"/>
			<vel value="0.0253244103561115" flag="0"/>
			<psa03 value="0.0762854622841533" flag="0"/>
			<psa10 value="0.0444598832945105" flag="0"/>
			<psa30 value="0.00669567122042437" flag="0"/>
		</comp>
		<comp name="--.HNZ" depth="0.0">
			<acc value="0.0376380441358882" flag="0"/>
			<vel value="0.0202502055848369" flag="0"/>
			<psa03 value="0.0666658878612249" flag="0"/>
			<psa10 value="0.033728465037118" flag="0"/>
			<psa30 value="0.00638784483889066" flag="0"/>
		</comp>
	</station>
	<station code="SLFK" name="SLFK" netid="KO" source="Bogazici University Kandilli Observatory And Earthquake Research Institute (KOERI)" insttype="" lat="36.3925" lon="33.9464">
		<comp name="--.HNE" depth="0.0">
			<acc value="0.0447009246486248" flag="0"/>
			<vel value="0.0311941280451432" flag="0"/>
			<psa03 value="0.109976343867712" flag="0"/>
			<psa10 value="0.0507577962980984" flag="0"/>
			<psa30 value="0.00543752037031857" flag="0"/>
		</comp>
		<comp name="--.HNN" depth="0.0">
			<acc value="0.0375451359179109" flag="0"/>
			<vel value="0.0282238771554638" flag="0"/>
			<psa03 value="0.0936901806586611" flag="0"/>
			<psa10 value="0.0287593955700927" flag="0"/>
			<psa30 value="0.00488182216411963" flag="0"/>
		</comp>
		<comp name="--.HNZ" depth="0.0">
			<acc value="0.0300041958168833" flag="0"/>
			<vel value="0.0204152144070053" flag="0"/>
			<psa03 value="0.0818782381114373" flag="0"/>
			<psa10 value="0.0234762358126072" flag="0"/>
			<psa30 value="0.00543886263651711" flag="0"/>
		</comp>
	</station>
</stationlist>
