<?xml version="1.0" encoding="UTF-8" standalone="yes"?>
<!DOCTYPE earthquake SYSTEM "stationlist.dtd">
<stationlist created="" xmlns="ch.ethz.sed.shakemap.usgs.xml">
  <station code="GULA" name="GULA" netid="KO" insttype="30s," lat="38.3444" lon="34.236">
    <comp name="--.HHE">
      <acc value="0.2305431494" flag="0"/>
      <vel value="0.1162002817" flag="0"/>
      <psa03 value="0.5883609189" flag="0"/>
      <psa10 value="0.0601276464" flag="0"/>
      <psa30 value="0.0049725159" flag="0"/>
    </comp>
    <comp name="--.HHN">
      <acc value="0.2508567950" flag="0"/>
      <vel value="0.1158997486" flag="0"/>
      <psa03 value="0.6904015747" flag="0"/>
      <psa10 value="0.0412934655" flag="0"/>
      <psa30 value="0.0033293139" flag="0"/>
    </comp>
    <comp name="--.HHZ">
      <acc value="0.0836259906" flag="0"/>
      <vel value="0.0283862690" flag="0"/>
      <psa03 value="0.2306124581" flag="0"/>
      <psa10 value="0.0096244536" flag="0"/>
      <psa30 value="0.0011651372" flag="0"/>
    </comp>
  </station>
  <station code="KRMN" name="KRMN" netid="KO" insttype="100" lat="37.174" lon="33.2636">
    <comp name="--.HNE">
      <acc value="0.0474679840" flag="0"/>
      <vel value="0.0351110466" flag="0"/>
      <psa03 value="0.1451892090" flag="0"/>
      <psa10 value="0.0532116437" flag="0"/>
      <psa30 value="0.0036912849" flag="0"/>
    </comp>
    <comp name="--.HNN">
      <acc value="0.0442125239" flag="0"/>
      <vel value="0.0332209888" flag="0"/>
      <psa03 value="0.1052491372" flag="0"/>
      <psa10 value="0.0512058029" flag="0"/>
      <psa30 value="0.0028272572" flag="0"/>
    </comp>
    <comp name="--.HNZ">
      <acc value="0.0322828407" flag="0"/>
      <vel value="0.0224076146" flag="0"/>
      <psa03 value="0.0759156847" flag="0"/>
      <psa10 value="0.0152946322" flag="0"/>
      <psa30 value="0.0023468907" flag="0"/>
    </comp>
  </station>
  <station code="SERE" name="SERE" netid="KO" insttype="30s," lat="38.9463" lon="33.564">
    <comp name="--.HHN">
      <acc value="0.0180457365" flag="0"/>
      <vel value="0.0088753090" flag="0"/>
      <psa03 value="0.0581432865" flag="0"/>
      <psa10 value="0.0107352460" flag="0"/>
      <psa30 value="0.0040199405" flag="0"/>
    </comp>
    <comp name="--.HHE">
      <acc value="0.0165956566" flag="0"/>
      <vel value="0.0082148460" flag="0"/>
      <psa03 value="0.0498250250" flag="0"/>
      <psa10 value="0.0076955070" flag="0"/>
      <psa30 value="0.0023967202" flag="0"/>
    </comp>
    <comp name="--.HHZ">
      <acc value="0.0095688908" flag="0"/>
      <vel value="0.0046517250" flag="0"/>
      <psa03 value="0.0205713617" flag="0"/>
      <psa10 value="0.0060973229" flag="0"/>
      <psa30 value="0.0012394660" flag="0"/>
    </comp>
  </station>
  <station code="YESY" name="YESY" netid="KO" insttype="30s," lat="37.7825" lon="33.7432">
    <comp name="--.HHZ">
      <acc value="0.0463608998" flag="0"/>
      <vel value="0.0480631147" flag="0"/>
      <psa03 value="0.1532081106" flag="0"/>
      <psa10 value="0.0655448894" flag="0"/>
      <psa30 value="0.0053374741" flag="0"/>
    </comp>
    <comp name="--.HHN">
      <acc value="0.0560351385" flag="0"/>
      <vel value="0.0543861356" flag="0"/>
      <psa03 value="0.2160500905" flag="0"/>
      <psa10 value="0.0813666782" flag="0"/>
      <psa30 value="0.0077054946" flag="0"/>
    </comp>
    <comp name="--.HHE">
      <acc value="0.0840019923" flag="0"/>
      <vel value="0.0513912281" flag="0"/>
      <psa03 value="0.3020870962" flag="0"/>
      <psa10 value="0.1146488869" flag="0"/>
      <psa30 value="0.0129091906" flag="0"/>
    </comp>
  </station>
</stationlist>
