<?xml version="1.0" encoding="UTF-8" standalone="yes"?>
<!DOCTYPE earthquake SYSTEM "stationlist.dtd">
<stationlist created="" xmlns="ch.ethz.sed.shakemap.usgs.xml">
  <station code="ACOR" name="ACOR" netid="HA" insttype="Horizon,120s,1200" commtype="DIG" lat="37.8905" lon="22.8694">
    <comp name="--.HHE">
      <acc value="0.0105981795" flag="0"/>
      <vel value="0.0061201509" flag="0"/>
      <psa03 value="0.0261040364" flag="0"/>
      <psa10 value="0.0124454379" flag="0"/>
      <psa30 value="0.0005491675" flag="0"/>
    </comp>
    <comp name="--.HHZ">
      <acc value="0.0073502197" flag="0"/>
      <vel value="0.0049389846" flag="0"/>
      <psa03 value="0.0171663289" flag="0"/>
      <psa10 value="0.0044795026" flag="0"/>
      <psa30 value="0.0005339983" flag="0"/>
    </comp>
    <comp name="--.HHN">
      <acc value="0.0110141729" flag="0"/>
      <vel value="0.0046122228" flag="0"/>
      <psa03 value="0.0169284153" flag="0"/>
      <psa10 value="0.0050233329" flag="0"/>
      <psa30 value="0.0004619790" flag="0"/>
    </comp>
  </station>
  <station code="ALIO" name="ALIO" netid="HA" insttype="25" commtype="DIG" lat="38.0657" lon="23.6727">
    <comp name="--.HHZ">
      <acc value="0.0184159100" flag="0"/>
      <vel value="0.0075502334" flag="0"/>
      <psa03 value="0.0370664634" flag="0"/>
      <psa10 value="0.0042260038" flag="0"/>
      <psa30 value="0.0003310742" flag="0"/>
    </comp>
    <comp name="--.HHN">
      <acc value="0.0138782702" flag="0"/>
      <vel value="0.0060137579" flag="0"/>
      <psa03 value="0.0278821688" flag="0"/>
      <psa10 value="0.0058911484" flag="0"/>
      <psa30 value="0.0002899303" flag="0"/>
    </comp>
    <comp name="--.HHE">
      <acc value="0.0183687334" flag="0"/>
      <vel value="0.0089769879" flag="0"/>
      <psa03 value="0.0340466713" flag="0"/>
      <psa10 value="0.0063633259" flag="0"/>
      <psa30 value="0.0003960884" flag="0"/>
    </comp>
  </station>
  <station code="AMPE" name="AMPE" netid="HA" insttype="1s-100Hz," commtype="DIG" lat="38.3015" lon="23.2688">
    <comp name="--.HHE">
      <acc value="0.0924522150" flag="0"/>
      <vel value="0.0447971882" flag="0"/>
      <psa03 value="0.1904382940" flag="0"/>
      <psa10 value="0.0608118373" flag="0"/>
      <psa30 value="0.0038468309" flag="0"/>
    </comp>
    <comp name="--.HHN">
      <acc value="0.0725412977" flag="0"/>
      <vel value="0.0365102543" flag="0"/>
      <psa03 value="0.1535529352" flag="0"/>
      <psa10 value="0.0400747088" flag="0"/>
      <psa30 value="0.0032054338" flag="0"/>
    </comp>
    <comp name="--.HHZ">
      <acc value="0.0604209486" flag="0"/>
      <vel value="0.0219104342" flag="0"/>
      <psa03 value="0.1110447245" flag="0"/>
      <psa10 value="0.0174110017" flag="0"/>
      <psa30 value="0.0011569028" flag="0"/>
    </comp>
  </station>
  <station code="ANTK" name="ANTK" netid="HA" insttype="25" commtype="DIG" lat="38.3605" lon="22.6385">
    <comp name="--.HHN">
      <acc value="0.0101366139" flag="0"/>
      <vel value="0.0037238301" flag="0"/>
      <psa03 value="0.0200914942" flag="0"/>
      <psa10 value="0.0038443491" flag="0"/>
      <psa30 value="0.0003601355" flag="0"/>
    </comp>
    <comp name="--.HHE">
      <acc value="0.0099535584" flag="0"/>
      <vel value="0.0044212785" flag="0"/>
      <psa03 value="0.0285046803" flag="0"/>
      <psa10 value="0.0051318641" flag="0"/>
      <psa30 value="0.0002300674" flag="0"/>
    </comp>
    <comp name="--.HHZ">
      <acc value="0.0080644091" flag="0"/>
      <vel value="0.0042091102" flag="0"/>
      <psa03 value="0.0156972068" flag="0"/>
      <psa10 value="0.0054160674" flag="0"/>
      <psa30 value="0.0003026703" flag="0"/>
    </comp>
  </station>
  <station code="ATAL" name="ATAL" netid="HA" insttype="120s," commtype="DIG" lat="38.6926" lon="23.0213">
    <comp name="--.HHE">
      <acc value="0.3507705327" flag="0"/>
      <vel value="0.0839841318" flag="0"/>
      <psa03 value="0.4300352564" flag="0"/>
      <psa10 value="0.0135498543" flag="0"/>
      <psa30 value="0.0011299977" flag="0"/>
    </comp>
    <comp name="--.HHN">
      <acc value="0.3884004087" flag="0"/>
      <vel value="0.0753230043" flag="0"/>
      <psa03 value="0.3260868369" flag="0"/>
      <psa10 value="0.0283463634" flag="0"/>
      <psa30 value="0.0018384900" flag="0"/>
    </comp>
    <comp name="--.HHZ">
      <acc value="0.3012632997" flag="0"/>
      <vel value="0.0629251304" flag="0"/>
      <psa03 value="0.3637249164" flag="0"/>
      <psa10 value="0.0127425487" flag="0"/>
      <psa30 value="0.0016250240" flag="0"/>
    </comp>
  </station>
  <station code="ATHU" name="ATHU" netid="HA" insttype="60s," commtype="DIG" lat="37.9665" lon="23.7845">
    <comp name="--.HHN">
      <acc value="0.0193290132" flag="0"/>
      <vel value="0.0147978426" flag="0"/>
      <psa03 value="0.0369839767" flag="0"/>
      <psa10 value="0.0146686183" flag="0"/>
      <psa30 value="0.0009783380" flag="0"/>
    </comp>
    <comp name="--.HHE">
      <acc value="0.0194296402" flag="0"/>
      <vel value="0.0117083772" flag="0"/>
      <psa03 value="0.0341672199" flag="0"/>
      <psa10 value="0.0071593694" flag="0"/>
      <psa30 value="0.0005422975" flag="0"/>
    </comp>
    <comp name="--.HHZ">
      <acc value="0.0092697169" flag="0"/>
      <vel value="0.0046640223" flag="0"/>
      <psa03 value="0.0167986491" flag="0"/>
      <psa10 value="0.0070364925" flag="0"/>
      <psa30 value="0.0004671607" flag="0"/>
    </comp>
  </station>
  <station code="AXAR" name="AXAR" netid="HA" insttype="Horizon,120s,1200" commtype="DIG" lat="38.7664" lon="22.659">
    <comp name="--.HHN">
      <acc value="0.0641156955" flag="0"/>
      <vel value="0.0192446615" flag="0"/>
      <psa03 value="0.0942526706" flag="0"/>
      <psa10 value="0.0062568812" flag="0"/>
      <psa30 value="0.0005153227" flag="0"/>
    </comp>
    <comp name="--.HHE">
      <acc value="0.0700497667" flag="0"/>
      <vel value="0.0139757872" flag="0"/>
      <psa03 value="0.0771883119" flag="0"/>
      <psa10 value="0.0069944574" flag="0"/>
      <psa30 value="0.0008872181" flag="0"/>
    </comp>
    <comp name="--.HHZ">
      <acc value="0.0360879787" flag="0"/>
      <vel value="0.0098392444" flag="0"/>
      <psa03 value="0.0663319654" flag="0"/>
      <psa10 value="0.0045153232" flag="0"/>
      <psa30 value="0.0003101915" flag="0"/>
    </comp>
  </station>
  <station code="DOMV" name="DOMV" netid="HA" insttype="60" commtype="DIG" lat="38.2569" lon="22.9795">
    <comp name="--.HHE">
      <acc value="0.1746550508" flag="0"/>
      <vel value="0.0516705154" flag="0"/>
      <psa03 value="0.2134369025" flag="0"/>
      <psa10 value="0.0158487919" flag="0"/>
      <psa30 value="0.0011337444" flag="0"/>
    </comp>
    <comp name="--.HHZ">
      <acc value="0.1474195720" flag="0"/>
      <vel value="0.0305296165" flag="0"/>
      <psa03 value="0.1291640692" flag="0"/>
      <psa10 value="0.0070631614" flag="0"/>
      <psa30 value="0.0006539041" flag="0"/>
    </comp>
    <comp name="--.HHN">
      <acc value="0.2294332363" flag="0"/>
      <vel value="0.0668226103" flag="0"/>
      <psa03 value="0.2966268363" flag="0"/>
      <psa10 value="0.0167138093" flag="0"/>
      <psa30 value="0.0012717589" flag="0"/>
    </comp>
  </station>
  <station code="EPID" name="EPID" netid="HA" insttype="30" commtype="DIG" lat="37.6144" lon="23.1189">
    <comp name="--.HHE">
      <acc value="0.0117241674" flag="0"/>
      <vel value="0.0052025552" flag="0"/>
      <psa03 value="0.0371375201" flag="0"/>
      <psa10 value="0.0039460663" flag="0"/>
      <psa30 value="0.0005595213" flag="0"/>
    </comp>
    <comp name="--.HHN">
      <acc value="0.0143681200" flag="0"/>
      <vel value="0.0059733111" flag="0"/>
      <psa03 value="0.0314731404" flag="0"/>
      <psa10 value="0.0032854872" flag="0"/>
      <psa30 value="0.0003383897" flag="0"/>
    </comp>
    <comp name="--.HHZ">
      <acc value="0.0098870523" flag="0"/>
      <vel value="0.0043110400" flag="0"/>
      <psa03 value="0.0278440688" flag="0"/>
      <psa10 value="0.0038324860" flag="0"/>
      <psa30 value="0.0006115474" flag="0"/>
    </comp>
  </station>
  <station code="ERTR" name="ERTR" netid="HA" insttype="Horizon,120s,1200" commtype="DIG" lat="38.4066" lon="23.7865">
    <comp name="--.HHE">
      <acc value="0.0320406164" flag="0"/>
      <vel value="0.0084169505" flag="0"/>
      <psa03 value="0.0355204945" flag="0"/>
      <psa10 value="0.0030939146" flag="0"/>
      <psa30 value="0.0003869533" flag="0"/>
    </comp>
    <comp name="--.HHN">
      <acc value="0.0233755949" flag="0"/>
      <vel value="0.0044454545" flag="0"/>
      <psa03 value="0.0246501310" flag="0"/>
      <psa10 value="0.0052695735" flag="0"/>
      <psa30 value="0.0002243978" flag="0"/>
    </comp>
    <comp name="--.HHZ">
      <acc value="0.0215753072" flag="0"/>
      <vel value="0.0065184518" flag="0"/>
      <psa03 value="0.0200620091" flag="0"/>
      <psa10 value="0.0030478716" flag="0"/>
      <psa30 value="0.0006166986" flag="0"/>
    </comp>
  </station>
  <station code="KALE" name="KALE" netid="HA" insttype="40," commtype="DIG" lat="38.3911" lon="22.1398">
    <comp name="--.HHE">
      <acc value="0.0129457986" flag="0"/>
      <vel value="0.0075685811" flag="0"/>
      <psa03 value="0.0355289733" flag="0"/>
      <psa10 value="0.0035728966" flag="0"/>
      <psa30 value="0.0003281707" flag="0"/>
    </comp>
    <comp name="--.HHZ">
      <acc value="0.0072354928" flag="0"/>
      <vel value="0.0030609831" flag="0"/>
      <psa03 value="0.0151144988" flag="0"/>
      <psa10 value="0.0047305974" flag="0"/>
      <psa30 value="0.0004286257" flag="0"/>
    </comp>
    <comp name="--.HHN">
      <acc value="0.0194009978" flag="0"/>
      <vel value="0.0081778361" flag="0"/>
      <psa03 value="0.0491189226" flag="0"/>
      <psa10 value="0.0049850403" flag="0"/>
      <psa30 value="0.0004251472" flag="0"/>
    </comp>
  </station>
  <station code="KARY" name="KARY" netid="HA" insttype="60" commtype="DIG" lat="38.0321" lon="24.437">
    <comp name="--.HHE">
      <acc value="0.0103964566" flag="0"/>
      <vel value="0.0033575820" flag="0"/>
      <psa03 value="0.0136444794" flag="0"/>
      <psa10 value="0.0043210563" flag="0"/>
      <psa30 value="0.0002537086" flag="0"/>
    </comp>
    <comp name="--.HHN">
      <acc value="0.0127125260" flag="0"/>
      <vel value="0.0058532274" flag="0"/>
      <psa03 value="0.0179170724" flag="0"/>
      <psa10 value="0.0087686648" flag="0"/>
      <psa30 value="0.0005581427" flag="0"/>
    </comp>
    <comp name="--.HHZ">
      <acc value="0.0098888749" flag="0"/>
      <vel value="0.0035315438" flag="0"/>
      <psa03 value="0.0172873323" flag="0"/>
      <psa10 value="0.0038677865" flag="0"/>
      <psa30 value="0.0003422155" flag="0"/>
    </comp>
  </station>
  <station code="LOUT" name="LOUT" netid="HA" insttype="30" commtype="DIG" lat="37.9879" lon="22.9743">
    <comp name="--.HHE">
      <acc value="0.0668714284" flag="0"/>
      <vel value="0.0215546288" flag="0"/>
      <psa03 value="0.1666328109" flag="0"/>
      <psa10 value="0.0128854529" flag="0"/>
      <psa30 value="0.0011522798" flag="0"/>
    </comp>
    <comp name="--.HHN">
      <acc value="0.0422828161" flag="0"/>
      <vel value="0.0222755811" flag="0"/>
      <psa03 value="0.0958145177" flag="0"/>
      <psa10 value="0.0213608043" flag="0"/>
      <psa30 value="0.0013949426" flag="0"/>
    </comp>
    <comp name="--.HHZ">
      <acc value="0.0299977276" flag="0"/>
      <vel value="0.0157528230" flag="0"/>
      <psa03 value="0.0635730089" flag="0"/>
      <psa10 value="0.0136204439" flag="0"/>
      <psa30 value="0.0008292520" flag="0"/>
    </comp>
  </station>
  <station code="MDRA" name="MDRA" netid="HA" insttype="60" commtype="DIG" lat="38.0606" lon="23.4662">
    <comp name="--.HHE">
      <acc value="0.0267458565" flag="0"/>
      <vel value="0.0129832084" flag="0"/>
      <psa03 value="0.0905064809" flag="0"/>
      <psa10 value="0.0076973585" flag="0"/>
      <psa30 value="0.0005307443" flag="0"/>
    </comp>
    <comp name="--.HHZ">
      <acc value="0.0304180677" flag="0"/>
      <vel value="0.0152402951" flag="0"/>
      <psa03 value="0.0753986074" flag="0"/>
      <psa10 value="0.0157943947" flag="0"/>
      <psa30 value="0.0010391512" flag="0"/>
    </comp>
    <comp name="--.HHN">
      <acc value="0.0755775489" flag="0"/>
      <vel value="0.0393364688" flag="0"/>
      <psa03 value="0.1486033774" flag="0"/>
      <psa10 value="0.0254731961" flag="0"/>
      <psa30 value="0.0020455153" flag="0"/>
    </comp>
  </station>
  <station code="MRKA" name="MRKA" netid="HA" insttype="Horizon,120s,1200" commtype="DIG" lat="38.7047" lon="23.5863">
    <comp name="--.HHZ">
      <acc value="1.2610046466" flag="0"/>
      <vel value="0.2402823319" flag="0"/>
      <psa03 value="1.3333261604" flag="0"/>
      <psa10 value="0.2645397262" flag="0"/>
      <psa30 value="0.0159181274" flag="0"/>
    </comp>
    <comp name="--.HHN">
      <acc value="1.6078830910" flag="0"/>
      <vel value="0.5147107506" flag="0"/>
      <psa03 value="1.8840008905" flag="0"/>
      <psa10 value="0.4194178072" flag="0"/>
      <psa30 value="0.0253365301" flag="0"/>
    </comp>
    <comp name="--.HHE">
      <acc value="2.1371388882" flag="0"/>
      <vel value="0.4265854355" flag="0"/>
      <psa03 value="1.0616452571" flag="0"/>
      <psa10 value="0.2253858355" flag="0"/>
      <psa30 value="0.0187463035" flag="0"/>
    </comp>
  </station>
  <station code="MRTH" name="MRTH" netid="HA" insttype="S100," commtype="DIG" lat="38.1225" lon="23.9409">
    <comp name="--.HHZ">
      <acc value="0.0302734894" flag="0"/>
      <vel value="0.0123972192" flag="0"/>
      <psa03 value="0.0687310345" flag="0"/>
      <psa10 value="0.0104041938" flag="0"/>
      <psa30 value="0.0005791166" flag="0"/>
    </comp>
    <comp name="--.HHE">
      <acc value="0.0544286642" flag="0"/>
      <vel value="0.0254848760" flag="0"/>
      <psa03 value="0.0984164177" flag="0"/>
      <psa10 value="0.0235991428" flag="0"/>
      <psa30 value="0.0009649141" flag="0"/>
    </comp>
    <comp name="--.HHN">
      <acc value="0.0375782949" flag="0"/>
      <vel value="0.0198802559" flag="0"/>
      <psa03 value="0.0942622451" flag="0"/>
      <psa10 value="0.0306314483" flag="0"/>
      <psa30 value="0.0011963252" flag="0"/>
    </comp>
  </station>
  <station code="PRDM" name="PRDM" netid="HA" insttype="25" commtype="DIG" lat="38.2804" lon="22.847">
    <comp name="--.HHE">
      <acc value="0.0376227223" flag="0"/>
      <vel value="0.0089201704" flag="0"/>
      <psa03 value="0.0623191773" flag="0"/>
      <psa10 value="0.0042282924" flag="0"/>
      <psa30 value="0.0002520164" flag="0"/>
    </comp>
    <comp name="--.HHN">
      <acc value="0.0309639321" flag="0"/>
      <vel value="0.0069650214" flag="0"/>
      <psa03 value="0.0657923069" flag="0"/>
      <psa10 value="0.0033728129" flag="0"/>
      <psa30 value="0.0002264574" flag="0"/>
    </comp>
    <comp name="--.HHZ">
      <acc value="0.0169380154" flag="0"/>
      <vel value="0.0039927174" flag="0"/>
      <psa03 value="0.0382172113" flag="0"/>
      <psa10 value="0.0020286129" flag="0"/>
      <psa30 value="0.0001778589" flag="0"/>
    </comp>
  </station>
  <station code="PSAH" name="PSAH" netid="HA" insttype="25" commtype="DIG" lat="38.5694" lon="23.6473">
    <comp name="--.HHN">
      <acc value="0.0415239369" flag="0"/>
      <vel value="0.0168250235" flag="0"/>
      <psa03 value="0.0996365119" flag="0"/>
      <psa10 value="0.0206057649" flag="0"/>
      <psa30 value="0.0009031657" flag="0"/>
    </comp>
    <comp name="--.HHE">
      <acc value="0.0441270213" flag="0"/>
      <vel value="0.0209147584" flag="0"/>
      <psa03 value="0.0651841619" flag="0"/>
      <psa10 value="0.0260018819" flag="0"/>
      <psa30 value="0.0013528739" flag="0"/>
    </comp>
    <comp name="--.HHZ">
      <acc value="0.0357509878" flag="0"/>
      <vel value="0.0144950011" flag="0"/>
      <psa03 value="0.0433415899" flag="0"/>
      <psa10 value="0.0210127153" flag="0"/>
      <psa30 value="0.0017602087" flag="0"/>
    </comp>
  </station>
  <station code="THAL" name="THAL" netid="HA" insttype="30" commtype="DIG" lat="38.0357" lon="22.6634">
    <comp name="--.HHE">
      <acc value="0.0660172740" flag="0"/>
      <vel value="0.0281979991" flag="0"/>
      <psa03 value="0.2587687342" flag="0"/>
      <psa10 value="0.0155788563" flag="0"/>
      <psa30 value="0.0013056927" flag="0"/>
    </comp>
    <comp name="--.HHZ">
      <acc value="0.0324226017" flag="0"/>
      <vel value="0.0139339797" flag="0"/>
      <psa03 value="0.1013636480" flag="0"/>
      <psa10 value="0.0099661606" flag="0"/>
      <psa30 value="0.0005519467" flag="0"/>
    </comp>
    <comp name="--.HHN">
      <acc value="0.0768288684" flag="0"/>
      <vel value="0.0306923495" flag="0"/>
      <psa03 value="0.2963187826" flag="0"/>
      <psa10 value="0.0143363841" flag="0"/>
      <psa30 value="0.0014483255" flag="0"/>
    </comp>
  </station>
  <station code="THIV" name="THIV" netid="HA" insttype="25" commtype="DIG" lat="38.299" lon="23.332">
    <comp name="--.HHE">
      <acc value="0.0497595344" flag="0"/>
      <vel value="0.0145945988" flag="0"/>
      <psa03 value="0.0600146450" flag="0"/>
      <psa10 value="0.0176147007" flag="0"/>
      <psa30 value="0.0013184312" flag="0"/>
    </comp>
    <comp name="--.HHZ">
      <acc value="0.0409860213" flag="0"/>
      <vel value="0.0140801875" flag="0"/>
      <psa03 value="0.1119579541" flag="0"/>
      <psa10 value="0.0104339704" flag="0"/>
      <psa30 value="0.0007397971" flag="0"/>
    </comp>
    <comp name="--.HHN">
      <acc value="0.0672741297" flag="0"/>
      <vel value="0.0257707195" flag="0"/>
      <psa03 value="0.1963452901" flag="0"/>
      <psa10 value="0.0115147693" flag="0"/>
      <psa30 value="0.0009250922" flag="0"/>
    </comp>
  </station>
  <station code="VILL" name="VILL" netid="HA" insttype="Horizon,120s,1200" commtype="DIG" lat="38.1642" lon="23.3122">
    <comp name="--.HHE">
      <acc value="0.0477289287" flag="0"/>
      <vel value="0.0297935063" flag="0"/>
      <psa03 value="0.0799654895" flag="0"/>
      <psa10 value="0.0192627144" flag="0"/>
      <psa30 value="0.0012452192" flag="0"/>
    </comp>
    <comp name="--.HHN">
      <acc value="0.0708381648" flag="0"/>
      <vel value="0.0235996484" flag="0"/>
      <psa03 value="0.1148218071" flag="0"/>
      <psa10 value="0.0088361823" flag="0"/>
      <psa30 value="0.0009023476" flag="0"/>
    </comp>
    <comp name="--.HHZ">
      <acc value="0.0228258394" flag="0"/>
      <vel value="0.0110345847" flag="0"/>
      <psa03 value="0.0604065737" flag="0"/>
      <psa10 value="0.0049664114" flag="0"/>
      <psa30 value="0.0004544899" flag="0"/>
    </comp>
  </station>
  <station code="ATH5" name="ATH5" netid="HI" insttype="CMG-5TD,ACCELEROMETER,GURALP" commtype="DIG" lat="37.9754" lon="23.7371">
    <comp name="--.HNN">
      <acc value="0.0368850101" flag="0"/>
      <vel value="0.0218498921" flag="0"/>
      <psa03 value="0.0492901963" flag="0"/>
      <psa10 value="0.0197926286" flag="0"/>
      <psa30 value="0.0013645416" flag="0"/>
    </comp>
    <comp name="--.HNE">
      <acc value="0.0441071399" flag="0"/>
      <vel value="0.0318917498" flag="0"/>
      <psa03 value="0.0854465101" flag="0"/>
      <psa10 value="0.0267152904" flag="0"/>
      <psa30 value="0.0017158252" flag="0"/>
    </comp>
    <comp name="--.HNZ">
      <acc value="0.0132080224" flag="0"/>
      <vel value="0.0053863754" flag="0"/>
      <psa03 value="0.0268828234" flag="0"/>
      <psa10 value="0.0044057331" flag="0"/>
      <psa30 value="0.0005359959" flag="0"/>
    </comp>
  </station>
  <station code="KIF1" name="KIF1" netid="HI" insttype="unknown" commtype="DIG" lat="38.0773" lon="23.8146">
