<stationlist xmlns:esm="https://esm-db.eu/esmws/shakemap/1/" created="1780955651">
	<station code="ATHU" name="ATHU" netid="HA" source="Hellenic Seismological Network, University of Athens, Seismological Laboratory (HA)" insttype="" lat="37.9665" lon="23.7845" esm:processing="automatic (Paolucci et al 2011)" esm:quality="best">
		<comp name="--.HNE" depth="0.0">
			<acc value="0.00107635711742205" flag="0"/>
			<vel value="0.000815362863952361" flag="0"/>
			<psa03 value="0.00210465911734781" flag="0"/>
			<psa10 value="0.000812609983767091" flag="0"/>
			<psa30 value="5.11641445818113e-05" flag="0"/>
		</comp>
		<comp name="--.HNN" depth="0.0">
			<acc value="0.000542516633759932" flag="0"/>
			<vel value="0.000273364121543722" flag="0"/>
			<psa03 value="0.000981867452754156" flag="0"/>
			<psa10 value="0.000404809082239998" flag="0"/>
			<psa30 value="2.57014324114695e-05" flag="0"/>
		</comp>
		<comp name="--.HNZ" depth="0.0">
			<acc value="0.00107574404148975" flag="0"/>
			<vel value="0.00067384713875686" flag="0"/>
			<psa03 value="0.00197041845372933" flag="0"/>
			<psa10 value="0.000398411978775789" flag="0"/>
			<psa30 value="3.01848837149897e-05" flag="0"/>
		</comp>
	</station>
	<station code="AKR1" name="AKR1" netid="HI" source="ITSAK Strong Motion Network" insttype="" lat="38.153583" lon="22.31326" esm:processing="automatic (Paolucci et al 2011)" esm:quality="best">
		<comp name="--.HNE" depth="0.0">
			<acc value="0.0139796963907114" flag="0"/>
			<vel value="0.00714267880017499" flag="0"/>
			<psa03 value="0.036162158586365" flag="0"/>
			<psa10 value="0.00625450964306831" flag="0"/>
			<psa30 value="0.000662718328920171" flag="0"/>
		</comp>
		<comp name="--.HNN" depth="0.0">
			<acc value="0.0163606318751106" flag="0"/>
			<vel value="0.00783558141884688" flag="0"/>
			<psa03 value="0.0631530742062269" flag="0"/>
			<psa10 value="0.00740264163867828" flag="0"/>
			<psa30 value="0.00082018464570752" flag="0"/>
		</comp>
		<comp name="--.HNZ" depth="0.0">
			<acc value="0.00786195575334709" flag="0"/>
			<vel value="0.00296601368453153" flag="0"/>
			<psa03 value="0.0143127997152376" flag="0"/>
			<psa10 value="0.0042610702437414" flag="0"/>
			<psa30 value="0.000391550261199842" flag="0"/>
		</comp>
	</station>
	<station code="FRS1" name="FRS1" netid="HI" source="ITSAK Strong Motion Network" insttype="" lat="39.2934" lon="22.3844" esm:processing="automatic (Paolucci et al 2011)" esm:quality="best">
		<comp name="--.HNE" depth="0.0">
			<acc value="0.00910200069307064" flag="0"/>
			<vel value="0.00387976614492227" flag="0"/>
			<psa03 value="0.0266330221195073" flag="0"/>
			<psa10 value="0.0026779420098905" flag="0"/>
			<psa30 value="0.000193010390157769" flag="0"/>
		</comp>
		<comp name="--.HNN" depth="0.0">
			<acc value="0.0115180215175217" flag="0"/>
			<vel value="0.00554059311655723" flag="0"/>
			<psa03 value="0.0233487915345159" flag="0"/>
			<psa10 value="0.00739942720698796" flag="0"/>
			<psa30 value="0.000477840456668468" flag="0"/>
		</comp>
		<comp name="--.HNZ" depth="0.0">
			<acc value="0.00786006293157114" flag="0"/>
			<vel value="0.00457255724517437" flag="0"/>
			<psa03 value="0.0173932199237918" flag="0"/>
			<psa10 value="0.0031433745612628" flag="0"/>
			<psa30 value="0.000410473546024591" flag="0"/>
		</comp>
	</station>
	<station code="KIF1" name="KIF1" netid="HI" source="ITSAK Strong Motion Network" insttype="" lat="38.077273" lon="23.814551" esm:processing="automatic (Paolucci et al 2011)" esm:quality="best">
		<comp name="--.HNE" depth="0.0">
			<acc value="0.0327212418590403" flag="0"/>
			<vel value="0.0153383928497022" flag="0"/>
			<psa03 value="0.0872371696593521" flag="0"/>
			<psa10 value="0.0212768882394243" flag="0"/>
			<psa30 value="0.000917844969391339" flag="0"/>
		</comp>
		<comp name="--.HNN" depth="0.0">
			<acc value="0.037247577311009" flag="0"/>
			<vel value="0.0190908325703248" flag="0"/>
			<psa03 value="0.0757625449384455" flag="0"/>
			<psa10 value="0.0139371157655196" flag="0"/>
			<psa30 value="0.000950710063209177" flag="0"/>
		</comp>
		<comp name="--.HNZ" depth="0.0">
			<acc value="0.0312268944775098" flag="0"/>
			<vel value="0.00943415005209646" flag="0"/>
			<psa03 value="0.0344796617125377" flag="0"/>
			<psa10 value="0.00921847630381319" flag="0"/>
			<psa30 value="0.000638745803358004" flag="0"/>
		</comp>
	</station>
	<station code="KMV1" name="KMV1" netid="HI" source="ITSAK Strong Motion Network" insttype="" lat="38.7794" lon="22.7846" esm:processing="automatic (Paolucci et al 2011)" esm:quality="best">
		<comp name="--.HNE" depth="0.0">
			<acc value="0.165575547258262" flag="0"/>
			<vel value="0.0468690889527326" flag="0"/>
			<psa03 value="0.309287509612941" flag="0"/>
			<psa10 value="0.0148454531259119" flag="0"/>
			<psa30 value="0.000953422534563759" flag="0"/>
		</comp>
		<comp name="--.HNN" depth="0.0">
			<acc value="0.218746680529542" flag="0"/>
			<vel value="0.072150181178095" flag="0"/>
			<psa03 value="0.350866743199772" flag="0"/>
			<psa10 value="0.0255659236169686" flag="0"/>
			<psa30 value="0.00178486823876114" flag="0"/>
		</comp>
		<comp name="--.HNZ" depth="0.0">
			<acc value="0.121950102477778" flag="0"/>
			<vel value="0.0420597932391245" flag="0"/>
			<psa03 value="0.124598535291465" flag="0"/>
			<psa10 value="0.00868520878995754" flag="0"/>
			<psa30 value="0.000956778173525039" flag="0"/>
		</comp>
	</station>
	<station code="KOR2" name="KOR2" netid="HI" source="ITSAK Strong Motion Network" insttype="" lat="37.9401" lon="22.9495" esm:processing="automatic (Paolucci et al 2011)" esm:quality="best">
		<comp name="--.HNE" depth="0.0">
			<acc value="0.0376731549652101" flag="0"/>
			<vel value="0.0231453234593035" flag="0"/>
			<psa03 value="0.132080072573259" flag="0"/>
			<psa10 value="0.0268685517846917" flag="0"/>
			<psa30 value="0.00243195798028076" flag="0"/>
		</comp>
		<comp name="--.HNN" depth="0.0">
			<acc value="0.037553339179526" flag="0"/>
			<vel value="0.0253763605523819" flag="0"/>
			<psa03 value="0.0911511945692933" flag="0"/>
			<psa10 value="0.0329307665016649" flag="0"/>
			<psa30 value="0.00217475010818821" flag="0"/>
		</comp>
		<comp name="--.HNZ" depth="0.0">
			<acc value="0.0270649578167291" flag="0"/>
			<vel value="0.0175479902092881" flag="0"/>
			<psa03 value="0.0854747977025259" flag="0"/>
			<psa10 value="0.0229840482053937" flag="0"/>
			<psa30 value="0.000976849711499257" flag="0"/>
		</comp>
	</station>
	<station code="LAM2" name="LAM2" netid="HI" source="ITSAK Strong Motion Network" insttype="" lat="38.90203" lon="22.431301" esm:processing="automatic (Paolucci et al 2011)" esm:quality="best">
		<comp name="--.HNE" depth="0.0">
			<acc value="0.0264215882872459" flag="0"/>
			<vel value="0.00801159474480084" flag="0"/>
			<psa03 value="0.0385633775511702" flag="0"/>
			<psa10 value="0.00735230111636573" flag="0"/>
			<psa30 value="0.000405480090232651" flag="0"/>
		</comp>
		<comp name="--.HNN" depth="0.0">
			<acc value="0.0303108322884834" flag="0"/>
			<vel value="0.0124738871654522" flag="0"/>
			<psa03 value="0.0377298978580644" flag="0"/>
			<psa10 value="0.0079601770101604" flag="0"/>
			<psa30 value="0.000664221605588206" flag="0"/>
		</comp>
		<comp name="--.HNZ" depth="0.0">
			<acc value="0.0244452634829927" flag="0"/>
			<vel value="0.00655831955236628" flag="0"/>
			<psa03 value="0.0243646843532627" flag="0"/>
			<psa10 value="0.00480157011170501" flag="0"/>
			<psa30 value="0.000600410347155504" flag="0"/>
		</comp>
	</station>
	<station code="NMA1" name="NMA1" netid="HI" source="ITSAK Strong Motion Network" insttype="" lat="37.81873" lon="22.662702" esm:processing="automatic (Paolucci et al 2011)" esm:quality="best">
		<comp name="--.HNE" depth="0.0">
			<acc value="0.0244901631923539" flag="0"/>
			<vel value="0.0105601390235538" flag="0"/>
			<psa03 value="0.057202377918469" flag="0"/>
			<psa10 value="0.00593961347024229" flag="0"/>
			<psa30 value="0.0011296377496236" flag="0"/>
		</comp>
		<comp name="--.HNN" depth="0.0">
			<acc value="0.021015174487405" flag="0"/>
			<vel value="0.00908604588375771" flag="0"/>
			<psa03 value="0.0537713641723136" flag="0"/>
			<psa10 value="0.00914858104859556" flag="0"/>
			<psa30 value="0.000833296191366405" flag="0"/>
		</comp>
		<comp name="--.HNZ" depth="0.0">
			<acc value="0.010143203619622" flag="0"/>
			<vel value="0.00497911721025013" flag="0"/>
			<psa03 value="0.0311314685570066" flag="0"/>
			<psa10 value="0.00557880206825768" flag="0"/>
			<psa30 value="0.000596104020215812" flag="0"/>
		</comp>
	</station>
	<station code="SKY1" name="SKY1" netid="HI" source="ITSAK Strong Motion Network" insttype="" lat="38.904483" lon="24.564572" esm:processing="automatic (Paolucci et al 2011)" esm:quality="best">
		<comp name="--.HNE" depth="0.0">
			<acc value="0.00877068839156007" flag="0"/>
			<vel value="0.00594072376544586" flag="0"/>
			<psa03 value="0.0353476280652155" flag="0"/>
			<psa10 value="0.00834973500396564" flag="0"/>
			<psa30 value="0.000533178549628875" flag="0"/>
		</comp>
		<comp name="--.HNN" depth="0.0">
			<acc value="0.0110951816971332" flag="0"/>
			<vel value="0.00611847921966105" flag="0"/>
			<psa03 value="0.0239822319343336" flag="0"/>
			<psa10 value="0.00587888475976326" flag="0"/>
			<psa30 value="0.000380441322162151" flag="0"/>
		</comp>
		<comp name="--.HNZ" depth="0.0">
			<acc value="0.00643367633433028" flag="0"/>
			<vel value="0.00398483205252198" flag="0"/>
			<psa03 value="0.0215568577235286" flag="0"/>
			<psa10 value="0.0047679992940531" flag="0"/>
			<psa30 value="0.000440153949705671" flag="0"/>
		</comp>
	</station>
	<station code="THV2" name="THV2" netid="HI" source="ITSAK Strong Motion Network" insttype="" lat="38.316117" lon="23.319807" esm:processing="automatic (Paolucci et al 2011)" esm:quality="best">
		<comp name="--.HNE" depth="0.0">
			<acc value="0.0698217189822801" flag="0"/>
			<vel value="0.0359604815270241" flag="0"/>
			<psa03 value="0.17237939845582" flag="0"/>
			<psa10 value="0.0365590231058584" flag="0"/>
			<psa30 value="0.00194955789864285" flag="0"/>
		</comp>
		<comp name="--.HNN" depth="0.0">
			<acc value="0.0721395606257516" flag="0"/>
			<vel value="0.0409620391391745" flag="0"/>
			<psa03 value="0.152991843292106" flag="0"/>
			<psa10 value="0.0252895228067714" flag="0"/>
			<psa30 value="0.00210084187879741" flag="0"/>
		</comp>
		<comp name="--.HNZ" depth="0.0">
			<acc value="0.0561039594625845" flag="0"/>
			<vel value="0.0214918468701664" flag="0"/>
			<psa03 value="0.107336475098028" flag="0"/>
			<psa10 value="0.0245051883484628" flag="0"/>
			<psa30 value="0.0010049717827818" flag="0"/>
		</comp>
	</station>
	<station code="VOL2" name="VOL2" netid="HI" source="ITSAK Strong Motion Network" insttype="" lat="39.366" lon="22.9506" esm:processing="automatic (Paolucci et al 2011)" esm:quality="best">
		<comp name="--.HNE" depth="0.0">
			<acc value="0.0884018010791835" flag="0"/>
			<vel value="0.0303091295100784" flag="0"/>
			<psa03 value="0.152338706274984" flag="0"/>
			<psa10 value="0.011736704374064" flag="0"/>
			<psa30 value="0.00123282771045208" flag="0"/>
		</comp>
		<comp name="--.HNN" depth="0.0">
			<acc value="0.0573583188800812" flag="0"/>
			<vel value="0.0267778342543527" flag="0"/>
			<psa03 value="0.142533296298029" flag="0"/>
			<psa10 value="0.012786799250196" flag="0"/>
			<psa30 value="0.00114506825098526" flag="0"/>
		</comp>
		<comp name="--.HNZ" depth="0.0">
			<acc value="0.0542517346358082" flag="0"/>
			<vel value="0.0155376549351261" flag="0"/>
			<psa03 value="0.0579895290216998" flag="0"/>
			<psa10 value="0.00487687838175831" flag="0"/>
			<psa30 value="0.000698719984686512" flag="0"/>
		</comp>
	</station>
	<station code="VOL3" name="VOL3" netid="HI" source="ITSAK Strong Motion Network" insttype="" lat="39.373969" lon="22.935352" esm:processing="automatic (Paolucci et al 2011)" esm:quality="best">
		<comp name="--.HNE" depth="0.0">
			<acc value="0.0334617926905851" flag="0"/>
			<vel value="0.0152069280872453" flag="0"/>
			<psa03 value="0.0812640395937999" flag="0"/>
			<psa10 value="0.00782168642958911" flag="0"/>
			<psa30 value="0.00058124772355907" flag="0"/>
		</comp>
		<comp name="--.HNN" depth="0.0">
			<acc value="0.0286006641595938" flag="0"/>
			<vel value="0.0164489699400881" flag="0"/>
			<psa03 value="0.0840245505891054" flag="0"/>
			<psa10 value="0.0148453284301514" flag="0"/>
			<psa30 value="0.000896233954434326" flag="0"/>
		</comp>
		<comp name="--.HNZ" depth="0.0">
			<acc value="0.0195403268079356" flag="0"/>
			<vel value="0.00755761275311326" flag="0"/>
			<psa03 value="0.0389794363630246" flag="0"/>
			<psa10 value="0.00347291170398122" flag="0"/>
			<psa30 value="0.000499589918296893" flag="0"/>
		</comp>
	</station>
	<station code="ACHA" name="ACHA" netid="HL" source="National Observatory of Athens Seismic Network" insttype="" lat="38.07458" lon="23.74127" esm:processing="automatic (Paolucci et al 2011)" esm:quality="best">
		<comp name="00.HNE" depth="0.0">
			<acc value="0.089996552944466" flag="0"/>
			<vel value="0.034376698468507" flag="0"/>
			<psa03 value="0.139350575041699" flag="0"/>
			<psa10 value="0.0324217565322525" flag="0"/>
			<psa30 value="0.00163004787850542" flag="0"/>
		</comp>
		<comp name="00.HNN" depth="0.0">
			<acc value="0.0554001347322736" flag="0"/>
			<vel value="0.0250957269007787" flag="0"/>
			<psa03 value="0.121382228476923" flag="0"/>
			<psa10 value="0.0215200730992278" flag="0"/>
			<psa30 value="0.00101642858340528" flag="0"/>
		</comp>
		<comp name="00.HNZ" depth="0.0">
			<acc value="0.0515342612568466" flag="0"/>
			<vel value="0.0167790608075708" flag="0"/>
			<psa03 value="0.0794796609708067" flag="0"/>
			<psa10 value="0.0141958979085666" flag="0"/>
			<psa30 value="0.000738875717723418" flag="0"/>
		</comp>
	</station>
	<station code="ALNA" name="ALNA" netid="HL" source="National Observatory of Athens Seismic Network" insttype="" lat="39.14804" lon="23.86669" esm:processing="automatic (Paolucci et al 2011)" esm:quality="best">
		<comp name="00.HNE" depth="0.0">
			<acc value="0.0329853107242037" flag="0"/>
			<vel value="0.0232243954294022" flag="0"/>
			<psa03 value="0.0754560506763715" flag="0"/>
			<psa10 value="0.0151106510064699" flag="0"/>
			<psa30 value="0.000939346602102315" flag="0"/>
		</comp>
		<comp name="00.HNN" depth="0.0">
			<acc value="0.0305686515667362" flag="0"/>
			<vel value="0.0197261083543211" flag="0"/>
			<psa03 value="0.125790082975651" flag="0"/>
			<psa10 value="0.0135162188206627" flag="0"/>
			<psa30 value="0.000745570067441233" flag="0"/>
		</comp>
		<comp name="00.HNZ" depth="0.0">
			<acc value="0.0251695627193578" flag="0"/>
			<vel value="0.0114758384409663" flag="0"/>
			<psa03 value="0.0635356672594724" flag="0"/>
			<psa10 value="0.00935698797953192" flag="0"/>
			<psa30 value="0.000546064872034491" flag="0"/>
		</comp>
	</station>
</stationlist>
