<stationlist xmlns:esm="https://esm-db.eu/esmws/shakemap/1/" created="1782266088">
	<station code="TRIZ" name="TRIZ" netid="CL" source="Corinth Riff Laboratory (CRLNET)" insttype="" lat="38.36543" lon="22.07272" esm:processing="automatic (Paolucci et al 2011)" esm:quality="best">
		<comp name="00.HNE" depth="0.0">
			<acc value="0.0133058530806687" flag="0"/>
			<vel value="0.00649477656371298" flag="0"/>
			<psa03 value="0.0250000128989942" flag="0"/>
			<psa10 value="0.00479715653807742" flag="0"/>
			<psa30 value="0.000596024275349773" flag="0"/>
		</comp>
		<comp name="00.HNN" depth="0.0">
			<acc value="0.0199253980238056" flag="0"/>
			<vel value="0.0104192794431285" flag="0"/>
			<psa03 value="0.0749238852146881" flag="0"/>
			<psa10 value="0.00731449673701114" flag="0"/>
			<psa30 value="0.000653866232095534" flag="0"/>
		</comp>
		<comp name="00.HNZ" depth="0.0">
			<acc value="0.00781338114902037" flag="0"/>
			<vel value="0.00374586811597618" flag="0"/>
			<psa03 value="0.0201149913736259" flag="0"/>
			<psa10 value="0.00378046067134094" flag="0"/>
			<psa30 value="0.00046535968196173" flag="0"/>
		</comp>
	</station>
	<station code="ATHU" name="ATHU" netid="HA" source="Hellenic Seismological Network, University of Athens, Seismological Laboratory (HA)" insttype="" lat="37.9665" lon="23.7845" esm:processing="automatic (Paolucci et al 2011)" esm:quality="best">
		<comp name="--.HNE" depth="0.0">
			<acc value="0.00107635711742205" flag="0"/>
			<vel value="0.000815362863952361" flag="0"/>
			<psa03 value="0.00210465911734781" flag="0"/>
			<psa10 value="0.000812609983767091" flag="0"/>
			<psa30 value="5.11641445818113e-05" flag="0"/>
		</comp>
		<comp name="--.HNN" depth="0.0">
			<acc value="0.000542516633759932" flag="0"/>
			<vel value="0.000273364121543722" flag="0"/>
			<psa03 value="0.000981867452754156" flag="0"/>
			<psa10 value="0.000404809082239998" flag="0"/>
			<psa30 value="2.57014324114695e-05" flag="0"/>
		</comp>
		<comp name="--.HNZ" depth="0.0">
			<acc value="0.00107574404148975" flag="0"/>
			<vel value="0.00067384713875686" flag="0"/>
			<psa03 value="0.00197041845372933" flag="0"/>
			<psa10 value="0.000398411978775789" flag="0"/>
			<psa30 value="3.01848837149897e-05" flag="0"/>
		</comp>
	</station>
	<station code="AKR1" name="AKR1" netid="HI" source="ITSAK Strong Motion Network" insttype="" lat="38.153583" lon="22.31326" esm:processing="automatic (Paolucci et al 2011)" esm:quality="best">
		<comp name="--.HNE" depth="0.0">
			<acc value="0.0139796963907114" flag="0"/>
			<vel value="0.00714267880017499" flag="0"/>
			<psa03 value="0.036162158586365" flag="0"/>
			<psa10 value="0.00625450964306831" flag="0"/>
			<psa30 value="0.000662718328920171" flag="0"/>
		</comp>
		<comp name="--.HNN" depth="0.0">
			<acc value="0.0163606318751106" flag="0"/>
			<vel value="0.00783558141884688" flag="0"/>
			<psa03 value="0.0631530742062269" flag="0"/>
			<psa10 value="0.00740264163867828" flag="0"/>
			<psa30 value="0.00082018464570752" flag="0"/>
		</comp>
		<comp name="--.HNZ" depth="0.0">
			<acc value="0.00786195575334709" flag="0"/>
			<vel value="0.00296601368453153" flag="0"/>
			<psa03 value="0.0143127997152376" flag="0"/>
			<psa10 value="0.0042610702437414" flag="0"/>
			<psa30 value="0.000391550261199842" flag="0"/>
		</comp>
	</station>
	<station code="ARS1" name="ARS1" netid="HI" source="ITSAK Strong Motion Network" insttype="" lat="37.6349" lon="22.7293" esm:processing="manual (Paolucci et al 2011)" esm:quality="good">
		<comp name="--.HNE" depth="0.0">
			<acc value="0.00949040200715159" flag="0"/>
			<vel value="0.0084843331355423" flag="0"/>
			<psa03 value="0.026580633232334" flag="0"/>
			<psa10 value="0.0104734181875541" flag="0"/>
			<psa30 value="0.000535585792430229" flag="0"/>
		</comp>
		<comp name="--.HNN" depth="0.0">
			<acc value="0.00999637648940594" flag="0"/>
			<vel value="0.00828989778418249" flag="0"/>
			<psa03 value="0.0353970454013715" flag="0"/>
			<psa10 value="0.00987283746452865" flag="0"/>
			<psa30 value="0.000682626522740307" flag="0"/>
		</comp>
		<comp name="--.HNZ" depth="0.0">
			<acc value="0.00572681125218368" flag="0"/>
			<vel value="0.00344175310135592" flag="0"/>
			<psa03 value="0.0262751650799014" flag="0"/>
			<psa10 value="0.00244753166821116" flag="0"/>
			<psa30 value="0.000449688279224876" flag="0"/>
		</comp>
	</station>
	<station code="ATH5" name="ATH5" netid="HI" source="ITSAK Strong Motion Network" insttype="" lat="37.975421" lon="23.737098" esm:processing="manual (Paolucci et al 2011)" esm:quality="good">
		<comp name="--.HNE" depth="0.0">
			<acc value="0.0441631563512259" flag="0"/>
			<vel value="0.031945897070066" flag="0"/>
			<psa03 value="0.0871665035197338" flag="0"/>
			<psa10 value="0.0267238803259176" flag="0"/>
			<psa30 value="0.00169523823871352" flag="0"/>
		</comp>
		<comp name="--.HNN" depth="0.0">
			<acc value="0.0370875670022935" flag="0"/>
			<vel value="0.0219293074693483" flag="0"/>
			<psa03 value="0.0491030549197365" flag="0"/>
			<psa10 value="0.0198098341792927" flag="0"/>
			<psa30 value="0.00136210742043173" flag="0"/>
		</comp>
		<comp name="--.HNZ" depth="0.0">
			<acc value="0.0130398552552618" flag="0"/>
			<vel value="0.00544426574455613" flag="0"/>
			<psa03 value="0.0270442785298928" flag="0"/>
			<psa10 value="0.00441351127971189" flag="0"/>
			<psa30 value="0.000542968937777374" flag="0"/>
		</comp>
	</station>
	<station code="FRS1" name="FRS1" netid="HI" source="ITSAK Strong Motion Network" insttype="" lat="39.2934" lon="22.3844" esm:processing="automatic (Paolucci et al 2011)" esm:quality="best">
		<comp name="--.HNE" depth="0.0">
			<acc value="0.00910200069307064" flag="0"/>
			<vel value="0.00387976614492227" flag="0"/>
			<psa03 value="0.0266330221195073" flag="0"/>
			<psa10 value="0.0026779420098905" flag="0"/>
			<psa30 value="0.000193010390157769" flag="0"/>
		</comp>
		<comp name="--.HNN" depth="0.0">
			<acc value="0.0115180215175217" flag="0"/>
			<vel value="0.00554059311655723" flag="0"/>
			<psa03 value="0.0233487915345159" flag="0"/>
			<psa10 value="0.00739942720698796" flag="0"/>
			<psa30 value="0.000477840456668468" flag="0"/>
		</comp>
		<comp name="--.HNZ" depth="0.0">
			<acc value="0.00786006293157114" flag="0"/>
			<vel value="0.00457255724517437" flag="0"/>
			<psa03 value="0.0173932199237918" flag="0"/>
			<psa10 value="0.0031433745612628" flag="0"/>
			<psa30 value="0.000410473546024591" flag="0"/>
		</comp>
	</station>
	<station code="KIF1" name="KIF1" netid="HI" source="ITSAK Strong Motion Network" insttype="" lat="38.077273" lon="23.814551" esm:processing="automatic (Paolucci et al 2011)" esm:quality="best">
		<comp name="--.HNE" depth="0.0">
			<acc value="0.0327212418590403" flag="0"/>
			<vel value="0.0153383928497022" flag="0"/>
			<psa03 value="0.0872371696593521" flag="0"/>
			<psa10 value="0.0212768882394243" flag="0"/>
			<psa30 value="0.000917844969391339" flag="0"/>
		</comp>
		<comp name="--.HNN" depth="0.0">
			<acc value="0.037247577311009" flag="0"/>
			<vel value="0.0190908325703248" flag="0"/>
			<psa03 value="0.0757625449384455" flag="0"/>
			<psa10 value="0.0139371157655196" flag="0"/>
			<psa30 value="0.000950710063209177" flag="0"/>
		</comp>
		<comp name="--.HNZ" depth="0.0">
			<acc value="0.0312268944775098" flag="0"/>
			<vel value="0.00943415005209646" flag="0"/>
			<psa03 value="0.0344796617125377" flag="0"/>
			<psa10 value="0.00921847630381319" flag="0"/>
			<psa30 value="0.000638745803358004" flag="0"/>
		</comp>
	</station>
	<station code="KMV1" name="KMV1" netid="HI" source="ITSAK Strong Motion Network" insttype="" lat="38.7794" lon="22.7846" esm:processing="automatic (Paolucci et al 2011)" esm:quality="best">
		<comp name="--.HNE" depth="0.0">
			<acc value="0.165575547258262" flag="0"/>
			<vel value="0.0468690889527326" flag="0"/>
			<psa03 value="0.309287509612941" flag="0"/>
			<psa10 value="0.0148454531259119" flag="0"/>
			<psa30 value="0.000953422534563759" flag="0"/>
		</comp>
		<comp name="--.HNN" depth="0.0">
			<acc value="0.218746680529542" flag="0"/>
			<vel value="0.072150181178095" flag="0"/>
			<psa03 value="0.350866743199772" flag="0"/>
			<psa10 value="0.0255659236169686" flag="0"/>
			<psa30 value="0.00178486823876114" flag="0"/>
		</comp>
		<comp name="--.HNZ" depth="0.0">
			<acc value="0.121950102477778" flag="0"/>
			<vel value="0.0420597932391245" flag="0"/>
			<psa03 value="0.124598535291465" flag="0"/>
			<psa10 value="0.00868520878995754" flag="0"/>
			<psa30 value="0.000956778173525039" flag="0"/>
		</comp>
	</station>
	<station code="KOR2" name="KOR2" netid="HI" source="ITSAK Strong Motion Network" insttype="" lat="37.9401" lon="22.9495" esm:processing="automatic (Paolucci et al 2011)" esm:quality="best">
		<comp name="--.HNE" depth="0.0">
			<acc value="0.0376731549652101" flag="0"/>
			<vel value="0.0231453234593035" flag="0"/>
			<psa03 value="0.132080072573259" flag="0"/>
			<psa10 value="0.0268685517846917" flag="0"/>
			<psa30 value="0.00243195798028076" flag="0"/>
		</comp>
		<comp name="--.HNN" depth="0.0">
			<acc value="0.037553339179526" flag="0"/>
			<vel value="0.0253763605523819" flag="0"/>
			<psa03 value="0.0911511945692933" flag="0"/>
			<psa10 value="0.0329307665016649" flag="0"/>
			<psa30 value="0.00217475010818821" flag="0"/>
		</comp>
		<comp name="--.HNZ" depth="0.0">
			<acc value="0.0270649578167291" flag="0"/>
			<vel value="0.0175479902092881" flag="0"/>
			<psa03 value="0.0854747977025259" flag="0"/>
			<psa10 value="0.0229840482053937" flag="0"/>
			<psa30 value="0.000976849711499257" flag="0"/>
		</comp>
	</station>
	<station code="LAM2" name="LAM2" netid="HI" source="ITSAK Strong Motion Network" insttype="" lat="38.90203" lon="22.431301" esm:processing="automatic (Paolucci et al 2011)" esm:quality="best">
		<comp name="--.HNE" depth="0.0">
			<acc value="0.0264215882872459" flag="0"/>
			<vel value="0.00801159474480084" flag="0"/>
			<psa03 value="0.0385633775511702" flag="0"/>
			<psa10 value="0.00735230111636573" flag="0"/>
			<psa30 value="0.000405480090232651" flag="0"/>
		</comp>
		<comp name="--.HNN" depth="0.0">
			<acc value="0.0303108322884834" flag="0"/>
			<vel value="0.0124738871654522" flag="0"/>
			<psa03 value="0.0377298978580644" flag="0"/>
			<psa10 value="0.0079601770101604" flag="0"/>
			<psa30 value="0.000664221605588206" flag="0"/>
		</comp>
		<comp name="--.HNZ" depth="0.0">
			<acc value="0.0244452634829927" flag="0"/>
			<vel value="0.00655831955236628" flag="0"/>
			<psa03 value="0.0243646843532627" flag="0"/>
			<psa10 value="0.00480157011170501" flag="0"/>
			<psa30 value="0.000600410347155504" flag="0"/>
		</comp>
	</station>
	<station code="NMA1" name="NMA1" netid="HI" source="ITSAK Strong Motion Network" insttype="" lat="37.81873" lon="22.662702" esm:processing="automatic (Paolucci et al 2011)" esm:quality="best">
		<comp name="--.HNE" depth="0.0">
			<acc value="0.0244901631923539" flag="0"/>
			<vel value="0.0105601390235538" flag="0"/>
			<psa03 value="0.057202377918469" flag="0"/>
			<psa10 value="0.00593961347024229" flag="0"/>
			<psa30 value="0.0011296377496236" flag="0"/>
		</comp>
		<comp name="--.HNN" depth="0.0">
			<acc value="0.021015174487405" flag="0"/>
			<vel value="0.00908604588375771" flag="0"/>
			<psa03 value="0.0537713641723136" flag="0"/>
			<psa10 value="0.00914858104859556" flag="0"/>
			<psa30 value="0.000833296191366405" flag="0"/>
		</comp>
		<comp name="--.HNZ" depth="0.0">
			<acc value="0.010143203619622" flag="0"/>
			<vel value="0.00497911721025013" flag="0"/>
			<psa03 value="0.0311314685570066" flag="0"/>
			<psa10 value="0.00557880206825768" flag="0"/>
			<psa30 value="0.000596104020215812" flag="0"/>
		</comp>
	</station>
	<station code="PER1" name="PER1" netid="HI" source="ITSAK Strong Motion Network" insttype="" lat="38.0119" lon="23.7027" esm:processing="manual (Paolucci et al 2011)" esm:quality="good">
		<comp name="--.HNE" depth="0.0">
			<acc value="0.0266486802218615" flag="0"/>
			<vel value="0.0156187159761431" flag="0"/>
			<psa03 value="0.0438603430324705" flag="0"/>
			<psa10 value="0.0107221065369367" flag="0"/>
			<psa30 value="0.000865675680098624" flag="0"/>
		</comp>
		<comp name="--.HNN" depth="0.0">
			<acc value="0.0348305981893259" flag="0"/>
			<vel value="0.0112710471278891" flag="0"/>
			<psa03 value="0.0417562270826153" flag="0"/>
			<psa10 value="0.0111974355251494" flag="0"/>
			<psa30 value="0.000824481492852556" flag="0"/>
		</comp>
		<comp name="--.HNZ" depth="0.0">
			<acc value="0.0263030953958694" flag="0"/>
			<vel value="0.00973518024600515" flag="0"/>
			<psa03 value="0.0202082618752556" flag="0"/>
			<psa10 value="0.00846816222418777" flag="0"/>
			<psa30 value="0.000725895430759778" flag="0"/>
		</comp>
	</station>
	<station code="PIR1" name="PIR1" netid="HI" source="ITSAK Strong Motion Network" insttype="" lat="37.93723" lon="23.642595" esm:processing="manual (Paolucci et al 2011)" esm:quality="good">
		<comp name="--.HNE" depth="0.0">
			<acc value="0.0585768503773842" flag="0"/>
			<vel value="0.0243595748063966" flag="0"/>
			<psa03 value="0.0919485807255462" flag="0"/>
			<psa10 value="0.0183889925555083" flag="0"/>
			<psa30 value="0.00119650144984893" flag="0"/>
		</comp>
		<comp name="--.HNN" depth="0.0">
			<acc value="0.0483107775932241" flag="0"/>
			<vel value="0.0258405967825846" flag="0"/>
			<psa03 value="0.0863335056293784" flag="0"/>
			<psa10 value="0.0319203520666674" flag="0"/>
			<psa30 value="0.00180370427822298" flag="0"/>
		</comp>
		<comp name="--.HNZ" depth="0.0">
			<acc value="0.0259400013976095" flag="0"/>
			<vel value="0.0111504836008455" flag="0"/>
			<psa03 value="0.033592941513343" flag="0"/>
			<psa10 value="0.0171322111749098" flag="0"/>
			<psa30 value="0.000935262269035294" flag="0"/>
		</comp>
	</station>
	<station code="PIR2" name="PIR2" netid="HI" source="ITSAK Strong Motion Network" insttype="" lat="37.9458" lon="23.6709" esm:processing="manual (Paolucci et al 2011)" esm:quality="good">
		<comp name="--.HNE" depth="0.0">
			<acc value="0.0815474767272877" flag="0"/>
			<vel value="0.0549203399933853" flag="0"/>
			<psa03 value="0.181659679895587" flag="0"/>
			<psa10 value="0.0525069658287953" flag="0"/>
			<psa30 value="0.00316661539772916" flag="0"/>
		</comp>
		<comp name="--.HNN" depth="0.0">
			<acc value="0.101495212922385" flag="0"/>
			<vel value="0.0599718540024937" flag="0"/>
			<psa03 value="0.248947137359414" flag="0"/>
			<psa10 value="0.0407240827706201" flag="0"/>
			<psa30 value="0.002526424654901" flag="0"/>
		</comp>
		<comp name="--.HNZ" depth="0.0">
			<acc value="0.078710537037148" flag="0"/>
			<vel value="0.0276080825030642" flag="0"/>
			<psa03 value="0.186198293056434" flag="0"/>
			<psa10 value="0.0208439970625084" flag="0"/>
			<psa30 value="0.00146302921017167" flag="0"/>
		</comp>
	</station>
	<station code="PLN1" name="PLN1" netid="HI" source="ITSAK Strong Motion Network" insttype="" lat="39.998" lon="23.575" esm:processing="manual (Paolucci et al 2011)" esm:quality="good">
		<comp name="--.HNE" depth="0.0">
			<acc value="0.0053655470414171" flag="0"/>
			<vel value="0.00601313349969068" flag="0"/>
			<psa03 value="0.0127719710804025" flag="0"/>
			<psa10 value="0.00817421962693329" flag="0"/>
			<psa30 value="0.000617715764387799" flag="0"/>
		</comp>
		<comp name="--.HNN" depth="0.0">
			<acc value="0.00408536592787739" flag="0"/>
			<vel value="0.00423995578310315" flag="0"/>
			<psa03 value="0.0124887374738161" flag="0"/>
			<psa10 value="0.00637151223766598" flag="0"/>
			<psa30 value="0.000578934028621468" flag="0"/>
		</comp>
		<comp name="--.HNZ" depth="0.0">
			<acc value="0.00388172597172531" flag="0"/>
			<vel value="0.00168304398959623" flag="0"/>
			<psa03 value="0.00735125977134007" flag="0"/>
			<psa10 value="0.00336500182110607" flag="0"/>
			<psa30 value="0.000242943515690609" flag="0"/>
		</comp>
	</station>
	<station code="SKY1" name="SKY1" netid="HI" source="ITSAK Strong Motion Network" insttype="" lat="38.904483" lon="24.564572" esm:processing="automatic (Paolucci et al 2011)" esm:quality="best">
		<comp name="--.HNE" depth="0.0">
			<acc value="0.00877068839156007" flag="0"/>
			<vel value="0.00594072376544586" flag="0"/>
			<psa03 value="0.0353476280652155" flag="0"/>
			<psa10 value="0.00834973500396564" flag="0"/>
			<psa30 value="0.000533178549628875" flag="0"/>
		</comp>
		<comp name="--.HNN" depth="0.0">
			<acc value="0.0110951816971332" flag="0"/>
			<vel value="0.00611847921966105" flag="0"/>
			<psa03 value="0.0239822319343336" flag="0"/>
			<psa10 value="0.00587888475976326" flag="0"/>
			<psa30 value="0.000380441322162151" flag="0"/>
		</comp>
		<comp name="--.HNZ" depth="0.0">
			<acc value="0.00643367633433028" flag="0"/>
			<vel value="0.00398483205252198" flag="0"/>
			<psa03 value="0.0215568577235286" flag="0"/>
			<psa10 value="0.0047679992940531" flag="0"/>
			<psa30 value="0.000440153949705671" flag="0"/>
		</comp>
	</station>
	<station code="THV2" name="THV2" netid="HI" source="ITSAK Strong Motion Network" insttype="" lat="38.316117" lon="23.319807" esm:processing="automatic (Paolucci et al 2011)" esm:quality="best">
		<comp name="--.HNE" depth="0.0">
			<acc value="0.0698217189822801" flag="0"/>
			<vel value="0.0359604815270241" flag="0"/>
			<psa03 value="0.17237939845582" flag="0"/>
			<psa10 value="0.0365590231058584" flag="0"/>
			<psa30 value="0.00194955789864285" flag="0"/>
		</comp>
		<comp name="--.HNN" depth="0.0">
			<acc value="0.0721395606257516" flag="0"/>
			<vel value="0.0409620391391745" flag="0"/>
			<psa03 value="0.152991843292106" flag="0"/>
			<psa10 value="0.0252895228067714" flag="0"/>
			<psa30 value="0.00210084187879741" flag="0"/>
		</comp>
		<comp name="--.HNZ" depth="0.0">
			<acc value="0.0561039594625845" flag="0"/>
			<vel value="0.0214918468701664" flag="0"/>
			<psa03 value="0.107336475098028" flag="0"/>
			<psa10 value="0.0245051883484628" flag="0"/>
			<psa30 value="0.0010049717827818" flag="0"/>
		</comp>
	</station>
	<station code="TRP1" name="TRP1" netid="HI" source="ITSAK Strong Motion Network" insttype="" lat="37.511219" lon="22.363399" esm:processing="manual (Paolucci et al 2011)" esm:quality="good">
		<comp name="--.HNE" depth="0.0">
			<acc value="0.00407631248364585" flag="0"/>
			<vel value="0.00310636286094915" flag="0"/>
			<psa03 value="0.0179478282784567" flag="0"/>
			<psa10 value="0.00336094592742302" flag="0"/>
			<psa30 value="0.000197966747137927" flag="0"/>
		</comp>
		<comp name="--.HNN" depth="0.0">
			<acc value="0.00426952196489427" flag="0"/>
			<vel value="0.00251752515957881" flag="0"/>
			<psa03 value="0.020378853905307" flag="0"/>
			<psa10 value="0.00254431995496014" flag="0"/>
			<psa30 value="0.000282628462331894" flag="0"/>
		</comp>
		<comp name="--.HNZ" depth="0.0">
			<acc value="0.00243910114451343" flag="0"/>
			<vel value="0.00120879904418426" flag="0"/>
			<psa03 value="0.00907016009838415" flag="0"/>
			<psa10 value="0.0018026539482271" flag="0"/>
			<psa30 value="0.000192254402577302" flag="0"/>
		</comp>
	</station>
	<station code="VOL2" name="VOL2" netid="HI" source="ITSAK Strong Motion Network" insttype="" lat="39.366" lon="22.9506" esm:processing="automatic (Paolucci et al 2011)" esm:quality="best">
		<comp name="--.HNE" depth="0.0">
			<acc value="0.0884018010791835" flag="0"/>
			<vel value="0.0303091295100784" flag="0"/>
			<psa03 value="0.152338706274984" flag="0"/>
			<psa10 value="0.011736704374064" flag="0"/>
			<psa30 value="0.00123282771045208" flag="0"/>
		</comp>
		<comp name="--.HNN" depth="0.0">
			<acc value="0.0573583188800812" flag="0"/>
			<vel value="0.0267778342543527" flag="0"/>
			<psa03 value="0.142533296298029" flag="0"/>
			<psa10 value="0.012786799250196" flag="0"/>
			<psa30 value="0.00114506825098526" flag="0"/>
		</comp>
		<comp name="--.HNZ" depth="0.0">
			<acc value="0.0542517346358082" flag="0"/>
