<?xml version="1.0" encoding="UTF-8" standalone="yes"?>
<!DOCTYPE earthquake SYSTEM "stationlist.dtd">
<stationlist created="" xmlns="ch.ethz.sed.shakemap.usgs.xml">
  <station code="ACOR" name="ACOR" netid="HA" insttype="Horizon,120s,1200" commtype="DIG" lat="37.8905" lon="22.8694">
    <comp name="--.HHZ">
      <acc value="0.0073502197" flag="0"/>
      <vel value="0.0049389850" flag="0"/>
      <psa03 value="0.0171663289" flag="0"/>
      <psa10 value="0.0044795026" flag="0"/>
      <psa30 value="0.0005339978" flag="0"/>
    </comp>
    <comp name="--.HHE">
      <acc value="0.0105981794" flag="0"/>
      <vel value="0.0061201510" flag="0"/>
      <psa03 value="0.0261040364" flag="0"/>
      <psa10 value="0.0124454379" flag="0"/>
      <psa30 value="0.0005491665" flag="0"/>
    </comp>
    <comp name="--.HHN">
      <acc value="0.0110141731" flag="0"/>
      <vel value="0.0046122228" flag="0"/>
      <psa03 value="0.0169284153" flag="0"/>
      <psa10 value="0.0050233329" flag="0"/>
      <psa30 value="0.0004619902" flag="0"/>
    </comp>
  </station>
  <station code="ALIO" name="ALIO" netid="HA" insttype="25" commtype="DIG" lat="38.0657" lon="23.6727">
    <comp name="--.HHE">
      <acc value="0.0183687334" flag="0"/>
      <vel value="0.0089769883" flag="0"/>
      <psa03 value="0.0340466713" flag="0"/>
      <psa10 value="0.0063633259" flag="0"/>
      <psa30 value="0.0003960867" flag="0"/>
    </comp>
    <comp name="--.HHN">
      <acc value="0.0138782701" flag="0"/>
      <vel value="0.0060137579" flag="0"/>
      <psa03 value="0.0278821688" flag="0"/>
      <psa10 value="0.0058911484" flag="0"/>
      <psa30 value="0.0002899193" flag="0"/>
    </comp>
    <comp name="--.HHZ">
      <acc value="0.0184159100" flag="0"/>
      <vel value="0.0075502342" flag="0"/>
      <psa03 value="0.0370664634" flag="0"/>
      <psa10 value="0.0042260038" flag="0"/>
      <psa30 value="0.0003310540" flag="0"/>
    </comp>
  </station>
  <station code="AMPE" name="AMPE" netid="HA" insttype="1s-100Hz," commtype="DIG" lat="38.3015" lon="23.2688">
    <comp name="--.HHN">
      <acc value="0.0725412972" flag="0"/>
      <vel value="0.0365104285" flag="0"/>
      <psa03 value="0.1535529358" flag="0"/>
      <psa10 value="0.0400747082" flag="0"/>
      <psa30 value="0.0032054105" flag="0"/>
    </comp>
    <comp name="--.HHZ">
      <acc value="0.0604209501" flag="0"/>
      <vel value="0.0219108958" flag="0"/>
      <psa03 value="0.1110447233" flag="0"/>
      <psa10 value="0.0174110031" flag="0"/>
      <psa30 value="0.0011569197" flag="0"/>
    </comp>
    <comp name="--.HHE">
      <acc value="0.0924522177" flag="0"/>
      <vel value="0.0447981002" flag="0"/>
      <psa03 value="0.1904382967" flag="0"/>
      <psa10 value="0.0608118344" flag="0"/>
      <psa30 value="0.0038470228" flag="0"/>
    </comp>
  </station>
  <station code="ANTK" name="ANTK" netid="HA" insttype="25" commtype="DIG" lat="38.3605" lon="22.6385">
    <comp name="--.HHE">
      <acc value="0.0099535585" flag="0"/>
      <vel value="0.0044212802" flag="0"/>
      <psa03 value="0.0285046803" flag="0"/>
      <psa10 value="0.0051318641" flag="0"/>
      <psa30 value="0.0002300782" flag="0"/>
    </comp>
    <comp name="--.HHN">
      <acc value="0.0101366140" flag="0"/>
      <vel value="0.0037238272" flag="0"/>
      <psa03 value="0.0200914942" flag="0"/>
      <psa10 value="0.0038443491" flag="0"/>
      <psa30 value="0.0003601590" flag="0"/>
    </comp>
    <comp name="--.HHZ">
      <acc value="0.0080644092" flag="0"/>
      <vel value="0.0042091126" flag="0"/>
      <psa03 value="0.0156972068" flag="0"/>
      <psa10 value="0.0054160675" flag="0"/>
      <psa30 value="0.0003026894" flag="0"/>
    </comp>
  </station>
  <station code="ATAL" name="ATAL" netid="HA" insttype="120s," commtype="DIG" lat="38.6926" lon="23.0213">
    <comp name="--.HHZ">
      <acc value="0.3012632996" flag="0"/>
      <vel value="0.0629251310" flag="0"/>
      <psa03 value="0.3637249164" flag="0"/>
      <psa10 value="0.0127425485" flag="0"/>
      <psa30 value="0.0016250634" flag="0"/>
    </comp>
    <comp name="--.HHN">
      <acc value="0.3884004085" flag="0"/>
      <vel value="0.0753230047" flag="0"/>
      <psa03 value="0.3260868369" flag="0"/>
      <psa10 value="0.0283463576" flag="0"/>
      <psa30 value="0.0018383747" flag="0"/>
    </comp>
    <comp name="--.HHE">
      <acc value="0.3507705327" flag="0"/>
      <vel value="0.0839841320" flag="0"/>
      <psa03 value="0.4300352564" flag="0"/>
      <psa10 value="0.0135498535" flag="0"/>
      <psa30 value="0.0011299942" flag="0"/>
    </comp>
  </station>
  <station code="ATHU" name="ATHU" netid="HA" insttype="60s," commtype="DIG" lat="37.9665" lon="23.7845">
    <comp name="--.HHE">
      <acc value="0.0194296403" flag="0"/>
      <vel value="0.0117083771" flag="0"/>
      <psa03 value="0.0341672199" flag="0"/>
      <psa10 value="0.0071593694" flag="0"/>
      <psa30 value="0.0005422792" flag="0"/>
    </comp>
    <comp name="--.HHZ">
      <acc value="0.0092697174" flag="0"/>
      <vel value="0.0046640231" flag="0"/>
      <psa03 value="0.0167986491" flag="0"/>
      <psa10 value="0.0070364925" flag="0"/>
      <psa30 value="0.0004671856" flag="0"/>
    </comp>
    <comp name="--.HHN">
      <acc value="0.0193290135" flag="0"/>
      <vel value="0.0147978427" flag="0"/>
      <psa03 value="0.0369839767" flag="0"/>
      <psa10 value="0.0146686183" flag="0"/>
      <psa30 value="0.0009783605" flag="0"/>
    </comp>
  </station>
  <station code="AXAR" name="AXAR" netid="HA" insttype="Horizon,120s,1200" commtype="DIG" lat="38.7664" lon="22.659">
    <comp name="--.HHE">
      <acc value="0.0700497667" flag="0"/>
      <vel value="0.0139757871" flag="0"/>
      <psa03 value="0.0771883119" flag="0"/>
      <psa10 value="0.0069944574" flag="0"/>
      <psa30 value="0.0008872232" flag="0"/>
    </comp>
    <comp name="--.HHN">
      <acc value="0.0641156955" flag="0"/>
      <vel value="0.0192446615" flag="0"/>
      <psa03 value="0.0942526706" flag="0"/>
      <psa10 value="0.0062568812" flag="0"/>
      <psa30 value="0.0005153150" flag="0"/>
    </comp>
    <comp name="--.HHZ">
      <acc value="0.0360879788" flag="0"/>
      <vel value="0.0098392444" flag="0"/>
      <psa03 value="0.0663319654" flag="0"/>
      <psa10 value="0.0045153232" flag="0"/>
      <psa30 value="0.0003101921" flag="0"/>
    </comp>
  </station>
  <station code="DOMV" name="DOMV" netid="HA" insttype="60" commtype="DIG" lat="38.2569" lon="22.9795">
    <comp name="--.HHN">
      <acc value="0.2294332366" flag="0"/>
      <vel value="0.0668226099" flag="0"/>
      <psa03 value="0.2966268363" flag="0"/>
      <psa10 value="0.0167138094" flag="0"/>
      <psa30 value="0.0012717475" flag="0"/>
    </comp>
    <comp name="--.HHE">
      <acc value="0.1746550508" flag="0"/>
      <vel value="0.0516705138" flag="0"/>
      <psa03 value="0.2134369025" flag="0"/>
      <psa10 value="0.0158487919" flag="0"/>
      <psa30 value="0.0011337635" flag="0"/>
    </comp>
    <comp name="--.HHZ">
      <acc value="0.1474195722" flag="0"/>
      <vel value="0.0305296164" flag="0"/>
      <psa03 value="0.1291640692" flag="0"/>
      <psa10 value="0.0070631615" flag="0"/>
      <psa30 value="0.0006539087" flag="0"/>
    </comp>
  </station>
  <station code="EPID" name="EPID" netid="HA" insttype="30" commtype="DIG" lat="37.6144" lon="23.1189">
    <comp name="--.HHE">
      <acc value="0.0117241677" flag="0"/>
      <vel value="0.0052025551" flag="0"/>
      <psa03 value="0.0371375201" flag="0"/>
      <psa10 value="0.0039460663" flag="0"/>
      <psa30 value="0.0005595285" flag="0"/>
    </comp>
    <comp name="--.HHN">
      <acc value="0.0143681205" flag="0"/>
      <vel value="0.0059733119" flag="0"/>
      <psa03 value="0.0314731404" flag="0"/>
      <psa10 value="0.0032854872" flag="0"/>
      <psa30 value="0.0003384263" flag="0"/>
    </comp>
    <comp name="--.HHZ">
      <acc value="0.0098870533" flag="0"/>
      <vel value="0.0043110387" flag="0"/>
      <psa03 value="0.0278440688" flag="0"/>
      <psa10 value="0.0038324860" flag="0"/>
      <psa30 value="0.0006115587" flag="0"/>
    </comp>
  </station>
  <station code="ERTR" name="ERTR" netid="HA" insttype="Horizon,120s,1200" commtype="DIG" lat="38.4066" lon="23.7865">
    <comp name="--.HHN">
      <acc value="0.0233755949" flag="0"/>
      <vel value="0.0044454546" flag="0"/>
      <psa03 value="0.0246501310" flag="0"/>
      <psa10 value="0.0052695735" flag="0"/>
      <psa30 value="0.0002243913" flag="0"/>
    </comp>
    <comp name="--.HHE">
      <acc value="0.0320406163" flag="0"/>
      <vel value="0.0084169506" flag="0"/>
      <psa03 value="0.0355204945" flag="0"/>
      <psa10 value="0.0030939145" flag="0"/>
      <psa30 value="0.0003869670" flag="0"/>
    </comp>
    <comp name="--.HHZ">
      <acc value="0.0215753071" flag="0"/>
      <vel value="0.0065184518" flag="0"/>
      <psa03 value="0.0200620091" flag="0"/>
      <psa10 value="0.0030478716" flag="0"/>
      <psa30 value="0.0006166996" flag="0"/>
    </comp>
  </station>
  <station code="KALE" name="KALE" netid="HA" insttype="40," commtype="DIG" lat="38.3911" lon="22.1398">
    <comp name="--.HHE">
      <acc value="0.0129457985" flag="0"/>
      <vel value="0.0075685845" flag="0"/>
      <psa03 value="0.0355289732" flag="0"/>
      <psa10 value="0.0035728966" flag="0"/>
      <psa30 value="0.0003281911" flag="0"/>
    </comp>
    <comp name="--.HHN">
      <acc value="0.0194009975" flag="0"/>
      <vel value="0.0081778370" flag="0"/>
      <psa03 value="0.0491189226" flag="0"/>
      <psa10 value="0.0049850403" flag="0"/>
      <psa30 value="0.0004251508" flag="0"/>
    </comp>
    <comp name="--.HHZ">
      <acc value="0.0072354928" flag="0"/>
      <vel value="0.0030609827" flag="0"/>
      <psa03 value="0.0151144988" flag="0"/>
      <psa10 value="0.0047305974" flag="0"/>
      <psa30 value="0.0004286315" flag="0"/>
    </comp>
  </station>
  <station code="KARY" name="KARY" netid="HA" insttype="60" commtype="DIG" lat="38.0321" lon="24.437">
    <comp name="--.HHZ">
      <acc value="0.0098888748" flag="0"/>
      <vel value="0.0035315424" flag="0"/>
      <psa03 value="0.0172873323" flag="0"/>
      <psa10 value="0.0038677865" flag="0"/>
      <psa30 value="0.0003422113" flag="0"/>
    </comp>
    <comp name="--.HHN">
      <acc value="0.0127125254" flag="0"/>
      <vel value="0.0058532271" flag="0"/>
      <psa03 value="0.0179170724" flag="0"/>
      <psa10 value="0.0087686648" flag="0"/>
      <psa30 value="0.0005581422" flag="0"/>
    </comp>
    <comp name="--.HHE">
      <acc value="0.0103964570" flag="0"/>
      <vel value="0.0033575816" flag="0"/>
      <psa03 value="0.0136444794" flag="0"/>
      <psa10 value="0.0043210563" flag="0"/>
      <psa30 value="0.0002536857" flag="0"/>
    </comp>
  </station>
  <station code="LOUT" name="LOUT" netid="HA" insttype="30" commtype="DIG" lat="37.9879" lon="22.9743">
    <comp name="--.HHE">
      <acc value="0.0668714284" flag="0"/>
      <vel value="0.0215546282" flag="0"/>
      <psa03 value="0.1666328109" flag="0"/>
      <psa10 value="0.0128854529" flag="0"/>
      <psa30 value="0.0011523013" flag="0"/>
    </comp>
    <comp name="--.HHZ">
      <acc value="0.0299977276" flag="0"/>
      <vel value="0.0157528225" flag="0"/>
      <psa03 value="0.0635730089" flag="0"/>
      <psa10 value="0.0136204440" flag="0"/>
      <psa30 value="0.0008292553" flag="0"/>
    </comp>
    <comp name="--.HHN">
      <acc value="0.0422828159" flag="0"/>
      <vel value="0.0222755804" flag="0"/>
      <psa03 value="0.0958145177" flag="0"/>
      <psa10 value="0.0213608043" flag="0"/>
      <psa30 value="0.0013949857" flag="0"/>
    </comp>
  </station>
  <station code="MDRA" name="MDRA" netid="HA" insttype="60" commtype="DIG" lat="38.0606" lon="23.4662">
    <comp name="--.HHZ">
      <acc value="0.0304180677" flag="0"/>
      <vel value="0.0152402955" flag="0"/>
      <psa03 value="0.0753986074" flag="0"/>
      <psa10 value="0.0157943946" flag="0"/>
      <psa30 value="0.0010391641" flag="0"/>
    </comp>
    <comp name="--.HHE">
      <acc value="0.0267458568" flag="0"/>
      <vel value="0.0129832080" flag="0"/>
      <psa03 value="0.0905064809" flag="0"/>
      <psa10 value="0.0076973585" flag="0"/>
      <psa30 value="0.0005307344" flag="0"/>
    </comp>
    <comp name="--.HHN">
      <acc value="0.0755775488" flag="0"/>
      <vel value="0.0393364687" flag="0"/>
      <psa03 value="0.1486033774" flag="0"/>
      <psa10 value="0.0254731959" flag="0"/>
      <psa30 value="0.0020455786" flag="0"/>
    </comp>
  </station>
  <station code="MRKA" name="MRKA" netid="HA" insttype="Horizon,120s,1200" commtype="DIG" lat="38.7047" lon="23.5863">
    <comp name="--.HHE">
      <acc value="2.1371388881" flag="0"/>
      <vel value="0.4265854372" flag="0"/>
      <psa03 value="1.0616452571" flag="0"/>
      <psa10 value="0.2253858347" flag="0"/>
      <psa30 value="0.0187461410" flag="0"/>
    </comp>
    <comp name="--.HHZ">
      <acc value="1.2610046467" flag="0"/>
      <vel value="0.2402823290" flag="0"/>
      <psa03 value="1.3333261604" flag="0"/>
      <psa10 value="0.2645397459" flag="0"/>
      <psa30 value="0.0159181393" flag="0"/>
    </comp>
    <comp name="--.HHN">
      <acc value="1.6078830911" flag="0"/>
      <vel value="0.5147107505" flag="0"/>
      <psa03 value="1.8840008905" flag="0"/>
      <psa10 value="0.4194178049" flag="0"/>
      <psa30 value="0.0253369238" flag="0"/>
    </comp>
  </station>
  <station code="MRTH" name="MRTH" netid="HA" insttype="S100," commtype="DIG" lat="38.1225" lon="23.9409">
    <comp name="--.HHN">
      <acc value="0.0375782947" flag="0"/>
      <vel value="0.0198800137" flag="0"/>
      <psa03 value="0.0942622450" flag="0"/>
      <psa10 value="0.0306314484" flag="0"/>
      <psa30 value="0.0011963132" flag="0"/>
    </comp>
    <comp name="--.HHZ">
      <acc value="0.0302734872" flag="0"/>
      <vel value="0.0123972600" flag="0"/>
      <psa03 value="0.0687310347" flag="0"/>
      <psa10 value="0.0104041940" flag="0"/>
      <psa30 value="0.0005791561" flag="0"/>
    </comp>
    <comp name="--.HHE">
      <acc value="0.0544286639" flag="0"/>
      <vel value="0.0254845897" flag="0"/>
      <psa03 value="0.0984164179" flag="0"/>
      <psa10 value="0.0235991429" flag="0"/>
      <psa30 value="0.0009649027" flag="0"/>
    </comp>
  </station>
  <station code="PRDM" name="PRDM" netid="HA" insttype="25" commtype="DIG" lat="38.2804" lon="22.847">
    <comp name="--.HHE">
      <acc value="0.0376227224" flag="0"/>
      <vel value="0.0089201724" flag="0"/>
      <psa03 value="0.0623191773" flag="0"/>
      <psa10 value="0.0042282924" flag="0"/>
      <psa30 value="0.0002520580" flag="0"/>
    </comp>
    <comp name="--.HHN">
      <acc value="0.0309639320" flag="0"/>
      <vel value="0.0069650201" flag="0"/>
      <psa03 value="0.0657923069" flag="0"/>
      <psa10 value="0.0033728129" flag="0"/>
      <psa30 value="0.0002264825" flag="0"/>
    </comp>
    <comp name="--.HHZ">
      <acc value="0.0169380155" flag="0"/>
      <vel value="0.0039927154" flag="0"/>
      <psa03 value="0.0382172113" flag="0"/>
      <psa10 value="0.0020286129" flag="0"/>
      <psa30 value="0.0001778449" flag="0"/>
    </comp>
  </station>
  <station code="PSAH" name="PSAH" netid="HA" insttype="25" commtype="DIG" lat="38.5694" lon="23.6473">
    <comp name="--.HHN">
      <acc value="0.0415239370" flag="0"/>
      <vel value="0.0168250227" flag="0"/>
      <psa03 value="0.0996365119" flag="0"/>
      <psa10 value="0.0206057650" flag="0"/>
      <psa30 value="0.0009031704" flag="0"/>
    </comp>
    <comp name="--.HHE">
      <acc value="0.0441270214" flag="0"/>
      <vel value="0.0209147587" flag="0"/>
      <psa03 value="0.0651841619" flag="0"/>
      <psa10 value="0.0260018821" flag="0"/>
      <psa30 value="0.0013528572" flag="0"/>
    </comp>
    <comp name="--.HHZ">
      <acc value="0.0357509878" flag="0"/>
      <vel value="0.0144950006" flag="0"/>
      <psa03 value="0.0433415899" flag="0"/>
      <psa10 value="0.0210127152" flag="0"/>
      <psa30 value="0.0017601932" flag="0"/>
    </comp>
  </station>
  <station code="THAL" name="THAL" netid="HA" insttype="30" commtype="DIG" lat="38.0357" lon="22.6634">
    <comp name="--.HHZ">
      <acc value="0.0324226023" flag="0"/>
      <vel value="0.0139339800" flag="0"/>
      <psa03 value="0.1013636480" flag="0"/>
      <psa10 value="0.0099661606" flag="0"/>
      <psa30 value="0.0005519461" flag="0"/>
    </comp>
    <comp name="--.HHE">
      <acc value="0.0660172743" flag="0"/>
      <vel value="0.0281979996" flag="0"/>
      <psa03 value="0.2587687342" flag="0"/>
      <psa10 value="0.0155788563" flag="0"/>
      <psa30 value="0.0013056334" flag="0"/>
    </comp>
    <comp name="--.HHN">
      <acc value="0.0768288686" flag="0"/>
      <vel value="0.0306923492" flag="0"/>
      <psa03 value="0.2963187826" flag="0"/>
      <psa10 value="0.0143363841" flag="0"/>
      <psa30 value="0.0014483495" flag="0"/>
    </comp>
  </station>
  <station code="THIV" name="THIV" netid="HA" insttype="25" commtype="DIG" lat="38.299" lon="23.332">
    <comp name="--.HHE">
      <acc value="0.0497595346" flag="0"/>
      <vel value="0.0145945987" flag="0"/>
      <psa03 value="0.0600146450" flag="0"/>
      <psa10 value="0.0176147011" flag="0"/>
      <psa30 value="0.0013184199" flag="0"/>
    </comp>
    <comp name="--.HHN">
      <acc value="0.0672741299" flag="0"/>
      <vel value="0.0257707212" flag="0"/>
      <psa03 value="0.1963452901" flag="0"/>
      <psa10 value="0.0115147694" flag="0"/>
      <psa30 value="0.0009250484" flag="0"/>
    </comp>
    <comp name="--.HHZ">
      <acc value="0.0409860213" flag="0"/>
      <vel value="0.0140801864" flag="0"/>
      <psa03 value="0.1119579541" flag="0"/>
      <psa10 value="0.0104339705" flag="0"/>
      <psa30 value="0.0007397979" flag="0"/>
    </comp>
  </station>
  <station code="VILL" name="VILL" netid="HA" insttype="Horizon,120s,1200" commtype="DIG" lat="38.1642" lon="23.3122">
    <comp name="--.HHZ">
      <acc value="0.0228258392" flag="0"/>
      <vel value="0.0110345849" flag="0"/>
      <psa03 value="0.0604065737" flag="0"/>
      <psa10 value="0.0049664115" flag="0"/>
      <psa30 value="0.0004545167" flag="0"/>
    </comp>
    <comp name="--.HHN">
      <acc value="0.0708381648" flag="0"/>
      <vel value="0.0235996482" flag="0"/>
      <psa03 value="0.1148218071" flag="0"/>
      <psa10 value="0.0088361828" flag="0"/>
      <psa30 value="0.0009023212" flag="0"/>
    </comp>
    <comp name="--.HHE">
      <acc value="0.0477289288" flag="0"/>
      <vel value="0.0297935059" flag="0"/>
      <psa03 value="0.0799654895" flag="0"/>
      <psa10 value="0.0192627145" flag="0"/>
      <psa30 value="0.0012453107" flag="0"/>
    </comp>
  </station>
  <station code="ATH5" name="ATH5" netid="HI" insttype="CMG-5TD,ACCELEROMETER,GURALP" commtype="DIG" lat="37.9754" lon="23.7371">
    <comp name="--.HNE">
      <acc value="0.0441071392" flag="0"/>
      <vel value="0.0318917507" flag="0"/>
      <psa03 value="0.0854465101" flag="0"/>
      <psa10 value="0.0267152903" flag="0"/>
      <psa30 value="0.0017158439" flag="0"/>
    </comp>
    <comp name="--.HNN">
      <acc value="0.0368850092" flag="0"/>
      <vel value="0.0218498922" flag="0"/>
      <psa03 value="0.0492901963" flag="0"/>
      <psa10 value="0.0197926287" flag="0"/>
      <psa30 value="0.0013647314" flag="0"/>
    </comp>
    <comp name="--.HNZ">
      <acc value="0.0132080233" flag="0"/>
      <vel value="0.0053863762" flag="0"/>
      <psa03 value="0.0268828234" flag="0"/>
      <psa10 value="0.0044057331" flag="0"/>
      <psa30 value="0.0005360172" flag="0"/>
    </comp>
  </station>
  <station code="FRS1" name="FRS1" netid="HI" insttype="unknown" commtype="DIG" lat="39.2934" lon="22.3844">
