<?xml version="1.0" encoding="UTF-8" standalone="yes"?>
<!DOCTYPE earthquake SYSTEM "stationlist.dtd">
<stationlist created="" xmlns="ch.ethz.sed.shakemap.usgs.xml">
  <station code="SRN" name="SRN" netid="AC" insttype="" lat="39.88" lon="20.0005">
    <comp name="--.HHZ">
      <acc value="0.0046730969" flag="0"/>
      <vel value="0.0027935452" flag="0"/>
      <psa03 value="0.0162015058" flag="0"/>
      <psa10 value="0.0029491756" flag="0"/>
      <psa30 value="0.0009501188" flag="0"/>
    </comp>
    <comp name="--.HHE">
      <acc value="0.0034328054" flag="0"/>
      <vel value="0.0036707797" flag="0"/>
      <psa03 value="0.0111884000" flag="0"/>
      <psa10 value="0.0045273972" flag="0"/>
      <psa30 value="0.0009253095" flag="0"/>
    </comp>
    <comp name="--.HHN">
      <acc value="0.0043277131" flag="0"/>
      <vel value="0.0030223439" flag="0"/>
      <psa03 value="0.0087304162" flag="0"/>
      <psa10 value="0.0033583952" flag="0"/>
      <psa30 value="0.0006309744" flag="0"/>
    </comp>
  </station>
  <station code="ART2" name="ART2" netid="HI" insttype="CMG-5TD,ACCELEROMETER,GURALP" lat="39.1474" lon="20.9937">
    <comp name="--.HNN">
      <acc value="0.0588406309" flag="0"/>
      <vel value="0.0176793550" flag="0"/>
      <psa03 value="0.0711214907" flag="0"/>
      <psa10 value="0.0242306502" flag="0"/>
      <psa30 value="0.0031903454" flag="0"/>
    </comp>
    <comp name="--.HNZ">
      <acc value="0.0262963237" flag="0"/>
      <vel value="0.0128284605" flag="0"/>
      <psa03 value="0.0411796669" flag="0"/>
      <psa10 value="0.0188046354" flag="0"/>
      <psa30 value="0.0026032136" flag="0"/>
    </comp>
    <comp name="--.HNE">
      <acc value="0.0531156206" flag="0"/>
      <vel value="0.0164276998" flag="0"/>
      <psa03 value="0.0653862948" flag="0"/>
      <psa10 value="0.0349597152" flag="0"/>
      <psa30 value="0.0032692233" flag="0"/>
    </comp>
  </station>
  <station code="MSL1" name="MSL1" netid="HI" insttype="CMG-5TD,ACCELEROMETER,GURALP" lat="38.3727" lon="21.4243">
    <comp name="--.HNN">
      <acc value="0.2878693289" flag="0"/>
      <vel value="0.1380591389" flag="0"/>
      <psa03 value="0.8281653796" flag="0"/>
      <psa10 value="0.1267875042" flag="0"/>
      <psa30 value="0.0149796096" flag="0"/>
    </comp>
    <comp name="--.HNE">
      <acc value="0.2968039273" flag="0"/>
      <vel value="0.1266075418" flag="0"/>
      <psa03 value="0.6724643223" flag="0"/>
      <psa10 value="0.1448904848" flag="0"/>
      <psa30 value="0.0209735562" flag="0"/>
    </comp>
    <comp name="--.HNZ">
      <acc value="0.2042404385" flag="0"/>
      <vel value="0.0658833614" flag="0"/>
      <psa03 value="0.2924249072" flag="0"/>
      <psa10 value="0.0806406496" flag="0"/>
      <psa30 value="0.0043526056" flag="0"/>
    </comp>
  </station>
  <station code="EVR" name="EVR" netid="HL" insttype="DR24" lat="38.9166" lon="21.8105">
    <comp name="--.HHZ">
      <acc value="0.0131669139" flag="0"/>
      <vel value="0.0112714171" flag="0"/>
      <psa03 value="0.0308907498" flag="0"/>
      <psa10 value="0.0115800797" flag="0"/>
      <psa30 value="0.0013261166" flag="0"/>
    </comp>
    <comp name="--.HHN">
      <acc value="0.0135372387" flag="0"/>
      <vel value="0.0129934683" flag="0"/>
      <psa03 value="0.0404725524" flag="0"/>
      <psa10 value="0.0235698836" flag="0"/>
      <psa30 value="0.0029520812" flag="0"/>
    </comp>
    <comp name="--.HHE">
      <acc value="0.0186037490" flag="0"/>
      <vel value="0.0122580671" flag="0"/>
      <psa03 value="0.0612449192" flag="0"/>
      <psa10 value="0.0124893966" flag="0"/>
      <psa30 value="0.0018405736" flag="0"/>
    </comp>
  </station>
  <station code="JAN" name="JAN" netid="HL" insttype="CMG3EPSC60_DR24" lat="39.6562" lon="20.8487">
    <comp name="--.HHZ">
      <acc value="0.0199324815" flag="0"/>
      <vel value="0.0173627693" flag="0"/>
      <psa03 value="0.0376231460" flag="0"/>
      <psa10 value="0.0219535096" flag="0"/>
      <psa30 value="0.0019421226" flag="0"/>
    </comp>
    <comp name="--.HHE">
      <acc value="0.0317738435" flag="0"/>
      <vel value="0.0324010861" flag="0"/>
      <psa03 value="0.0957147532" flag="0"/>
      <psa10 value="0.0443130507" flag="0"/>
      <psa30 value="0.0061017990" flag="0"/>
    </comp>
    <comp name="--.HHN">
      <acc value="0.0325710883" flag="0"/>
      <vel value="0.0207289600" flag="0"/>
      <psa03 value="0.0606642276" flag="0"/>
      <psa10 value="0.0256537670" flag="0"/>
      <psa30 value="0.0019235091" flag="0"/>
    </comp>
  </station>
  <station code="KEK" name="KEK" netid="HL" insttype="120" lat="39.7127" lon="19.7962">
    <comp name="--.HHE">
      <acc value="0.0238066360" flag="0"/>
      <vel value="0.0188522970" flag="0"/>
      <psa03 value="0.0852138619" flag="0"/>
      <psa10 value="0.0200578268" flag="0"/>
      <psa30 value="0.0016696272" flag="0"/>
    </comp>
    <comp name="--.HHZ">
      <acc value="0.0173962568" flag="0"/>
      <vel value="0.0120572453" flag="0"/>
      <psa03 value="0.0358820827" flag="0"/>
      <psa10 value="0.0113756067" flag="0"/>
      <psa30 value="0.0029980831" flag="0"/>
    </comp>
    <comp name="--.HHN">
      <acc value="0.0196363413" flag="0"/>
      <vel value="0.0143939363" flag="0"/>
      <psa03 value="0.0453563013" flag="0"/>
      <psa10 value="0.0156841298" flag="0"/>
      <psa30 value="0.0014723462" flag="0"/>
    </comp>
  </station>
  <station code="RIOA" name="RIOA" netid="HL" insttype="CMG-5" lat="38.2959" lon="21.7912">
    <comp name="00.HNN">
      <acc value="0.0984020921" flag="0"/>
      <vel value="0.0387128671" flag="0"/>
      <psa03 value="0.1082885838" flag="0"/>
      <psa10 value="0.0440309507" flag="0"/>
      <psa30 value="0.0063511530" flag="0"/>
    </comp>
    <comp name="00.HNZ">
      <acc value="0.0577640195" flag="0"/>
      <vel value="0.0185738231" flag="0"/>
      <psa03 value="0.0592535808" flag="0"/>
      <psa10 value="0.0175922725" flag="0"/>
      <psa30 value="0.0043747172" flag="0"/>
    </comp>
    <comp name="00.HNE">
      <acc value="0.0773839643" flag="0"/>
      <vel value="0.0499239344" flag="0"/>
      <psa03 value="0.0984428323" flag="0"/>
      <psa10 value="0.0527147413" flag="0"/>
      <psa30 value="0.0056230028" flag="0"/>
    </comp>
  </station>
  <station code="RLS" name="RLS" netid="HL" insttype="CMG3ESPC-120s" lat="38.0559" lon="21.4647">
    <comp name="--.HHE">
      <acc value="0.0202505498" flag="0"/>
      <vel value="0.0139345745" flag="0"/>
      <psa03 value="0.0561390260" flag="0"/>
      <psa10 value="0.0137347214" flag="0"/>
      <psa30 value="0.0020998271" flag="0"/>
    </comp>
    <comp name="--.HHN">
      <acc value="0.0261341241" flag="0"/>
      <vel value="0.0181839692" flag="0"/>
      <psa03 value="0.0348519521" flag="0"/>
      <psa10 value="0.0228781213" flag="0"/>
      <psa30 value="0.0032095658" flag="0"/>
    </comp>
    <comp name="--.HHZ">
      <acc value="0.0098342731" flag="0"/>
      <vel value="0.0074469035" flag="0"/>
      <psa03 value="0.0238689708" flag="0"/>
      <psa10 value="0.0087511049" flag="0"/>
      <psa30 value="0.0020334441" flag="0"/>
    </comp>
  </station>
  <station code="TETR" name="TETR" netid="HL" insttype="60" lat="39.3445" lon="21.2747">
    <comp name="--.HHN">
      <acc value="0.0445921226" flag="0"/>
      <vel value="0.0242186651" flag="0"/>
      <psa03 value="0.1200351461" flag="0"/>
      <psa10 value="0.0328040811" flag="0"/>
      <psa30 value="0.0033686595" flag="0"/>
    </comp>
    <comp name="--.HHZ">
      <acc value="0.0213222854" flag="0"/>
      <vel value="0.0120051844" flag="0"/>
      <psa03 value="0.0549823853" flag="0"/>
      <psa10 value="0.0215206092" flag="0"/>
      <psa30 value="0.0037869587" flag="0"/>
    </comp>
    <comp name="--.HHE">
      <acc value="0.0784648487" flag="0"/>
      <vel value="0.0387805138" flag="0"/>
      <psa03 value="0.1651783957" flag="0"/>
      <psa10 value="0.0546694442" flag="0"/>
      <psa30 value="0.0042036283" flag="0"/>
    </comp>
  </station>
  <station code="VLS" name="VLS" netid="HL" insttype="120P," lat="38.1768" lon="20.5886">
    <comp name="--.HHE">
      <acc value="0.1176462609" flag="0"/>
      <vel value="0.0614833258" flag="0"/>
      <psa03 value="0.2152179537" flag="0"/>
      <psa10 value="0.0415113220" flag="0"/>
      <psa30 value="0.0025934194" flag="0"/>
    </comp>
    <comp name="--.HHN">
      <acc value="0.0822246270" flag="0"/>
      <vel value="0.0459443012" flag="0"/>
      <psa03 value="0.1551663222" flag="0"/>
      <psa10 value="0.0226791614" flag="0"/>
      <psa30 value="0.0018432738" flag="0"/>
    </comp>
    <comp name="--.HHZ">
      <acc value="0.0577543016" flag="0"/>
      <vel value="0.0229057901" flag="0"/>
      <psa03 value="0.0984529755" flag="0"/>
      <psa10 value="0.0339967062" flag="0"/>
      <psa30 value="0.0015957310" flag="0"/>
    </comp>
  </station>
  <station code="AMPL" name="AMPL" netid="HP" insttype="Compact," lat="38.9224" lon="21.2135">
    <comp name="--.HHN">
      <acc value="0.1793970461" flag="0"/>
      <vel value="0.0677956345" flag="0"/>
      <psa03 value="0.1940291676" flag="0"/>
      <psa10 value="0.0510529575" flag="0"/>
      <psa30 value="0.0060361035" flag="0"/>
    </comp>
    <comp name="--.HHE">
      <acc value="0.1575551733" flag="0"/>
      <vel value="0.0428275995" flag="0"/>
      <psa03 value="0.2817722757" flag="0"/>
      <psa10 value="0.0325898213" flag="0"/>
      <psa30 value="0.0024931683" flag="0"/>
    </comp>
    <comp name="--.HHZ">
      <acc value="0.1006210025" flag="0"/>
      <vel value="0.0255091453" flag="0"/>
      <psa03 value="0.1191512370" flag="0"/>
      <psa10 value="0.0174365520" flag="0"/>
      <psa30 value="0.0026787402" flag="0"/>
    </comp>
  </station>
  <station code="ANX" name="ANX" netid="HP" insttype="120" lat="38.5933" lon="21.9209">
    <comp name="--.HHN">
      <acc value="0.0338676900" flag="0"/>
      <vel value="0.0245524048" flag="0"/>
      <psa03 value="0.0778396001" flag="0"/>
      <psa10 value="0.0237791639" flag="0"/>
      <psa30 value="0.0030411159" flag="0"/>
    </comp>
    <comp name="--.HHE">
      <acc value="0.0377865779" flag="0"/>
      <vel value="0.0259065173" flag="0"/>
      <psa03 value="0.0706373874" flag="0"/>
      <psa10 value="0.0255220046" flag="0"/>
      <psa30 value="0.0020375783" flag="0"/>
    </comp>
    <comp name="--.HHZ">
      <acc value="0.0179741945" flag="0"/>
      <vel value="0.0107268604" flag="0"/>
      <psa03 value="0.0448545481" flag="0"/>
      <psa10 value="0.0129664301" flag="0"/>
      <psa30 value="0.0011569616" flag="0"/>
    </comp>
  </station>
  <station code="AXS" name="AXS" netid="HP" insttype="40," lat="38.1962" lon="21.3763">
    <comp name="--.HHE">
      <acc value="0.0151237957" flag="0"/>
      <vel value="0.0069132724" flag="0"/>
      <psa03 value="0.0453073255" flag="0"/>
      <psa10 value="0.0054918621" flag="0"/>
      <psa30 value="0.0006227097" flag="0"/>
    </comp>
    <comp name="--.HHN">
      <acc value="0.0224534299" flag="0"/>
      <vel value="0.0084657406" flag="0"/>
      <psa03 value="0.0395531230" flag="0"/>
      <psa10 value="0.0080173946" flag="0"/>
      <psa30 value="0.0009091685" flag="0"/>
    </comp>
    <comp name="--.HHZ">
      <acc value="0.0102480435" flag="0"/>
      <vel value="0.0046157526" flag="0"/>
      <psa03 value="0.0239972341" flag="0"/>
      <psa10 value="0.0050990693" flag="0"/>
      <psa30 value="0.0003460989" flag="0"/>
    </comp>
  </station>
  <station code="EFP" name="EFP" netid="HP" insttype="40," lat="38.4269" lon="21.9058">
    <comp name="--.HHE">
      <acc value="0.0381169128" flag="0"/>
      <vel value="0.0174388061" flag="0"/>
      <psa03 value="0.0733159636" flag="0"/>
      <psa10 value="0.0240474078" flag="0"/>
      <psa30 value="0.0046513819" flag="0"/>
    </comp>
    <comp name="--.HHN">
      <acc value="0.0359386083" flag="0"/>
      <vel value="0.0296065925" flag="0"/>
      <psa03 value="0.0731885324" flag="0"/>
      <psa10 value="0.0411907352" flag="0"/>
      <psa30 value="0.0043256368" flag="0"/>
    </comp>
    <comp name="--.HHZ">
      <acc value="0.0241172968" flag="0"/>
      <vel value="0.0137657036" flag="0"/>
      <psa03 value="0.0438294724" flag="0"/>
      <psa10 value="0.0212795355" flag="0"/>
      <psa30 value="0.0020848175" flag="0"/>
    </comp>
  </station>
  <station code="FSK" name="FSK" netid="HP" insttype="40," lat="38.4593" lon="20.5623">
    <comp name="--.HHE">
      <acc value="0.1881309777" flag="0"/>
      <vel value="0.0656597907" flag="0"/>
      <psa03 value="0.4394290019" flag="0"/>
      <psa10 value="0.0701162654" flag="0"/>
      <psa30 value="0.0072129614" flag="0"/>
    </comp>
    <comp name="--.HHZ">
      <acc value="0.0588039828" flag="0"/>
      <vel value="0.0361523426" flag="0"/>
      <psa03 value="0.1296125505" flag="0"/>
      <psa10 value="0.0281552406" flag="0"/>
      <psa30 value="0.0030042705" flag="0"/>
    </comp>
    <comp name="--.HHN">
      <acc value="0.0648853887" flag="0"/>
      <vel value="0.0347458542" flag="0"/>
      <psa03 value="0.1708060578" flag="0"/>
      <psa10 value="0.0588270851" flag="0"/>
      <psa30 value="0.0045625318" flag="0"/>
    </comp>
  </station>
  <station code="KSTR" name="KSTR" netid="HP" insttype="Compact," lat="39.2492" lon="20.576">
    <comp name="--.HHE">
      <acc value="0.0692020710" flag="0"/>
      <vel value="0.0314868929" flag="0"/>
      <psa03 value="0.1550697884" flag="0"/>
      <psa10 value="0.0402407285" flag="0"/>
      <psa30 value="0.0055419321" flag="0"/>
    </comp>
    <comp name="--.HHZ">
      <acc value="0.0464151639" flag="0"/>
      <vel value="0.0209332048" flag="0"/>
      <psa03 value="0.0833311868" flag="0"/>
      <psa10 value="0.0343418718" flag="0"/>
      <psa30 value="0.0043956911" flag="0"/>
    </comp>
    <comp name="--.HHN">
      <acc value="0.0534744572" flag="0"/>
      <vel value="0.0227407127" flag="0"/>
      <psa03 value="0.0794385513" flag="0"/>
      <psa10 value="0.0388646638" flag="0"/>
      <psa30 value="0.0035400820" flag="0"/>
    </comp>
  </station>
  <station code="PDO" name="PDO" netid="HP" insttype="120s" lat="38.5986" lon="21.1833">
    <comp name="--.HHE">
      <acc value="0.1331350401" flag="0"/>
      <vel value="0.0639966247" flag="0"/>
      <psa03 value="0.2951311570" flag="0"/>
      <psa10 value="0.0539160232" flag="0"/>
      <psa30 value="0.0043652262" flag="0"/>
    </comp>
    <comp name="--.HHZ">
      <acc value="0.1290126948" flag="0"/>
      <vel value="0.0446301400" flag="0"/>
      <psa03 value="0.1717289700" flag="0"/>
      <psa10 value="0.0274666698" flag="0"/>
      <psa30 value="0.0042870339" flag="0"/>
    </comp>
    <comp name="--.HHN">
      <acc value="0.1436004462" flag="0"/>
      <vel value="0.0664788225" flag="0"/>
      <psa03 value="0.3364424564" flag="0"/>
      <psa10 value="0.0579733449" flag="0"/>
      <psa30 value="0.0065869608" flag="0"/>
    </comp>
  </station>
  <station code="PLEV" name="PLEV" netid="HP" insttype="Compact," lat="38.4124" lon="21.4073">
    <comp name="--.HHE">
      <acc value="0.1347058100" flag="0"/>
      <vel value="0.0429529573" flag="0"/>
      <psa03 value="0.1922306051" flag="0"/>
      <psa10 value="0.0316834861" flag="0"/>
      <psa30 value="0.0039579387" flag="0"/>
    </comp>
    <comp name="--.HHN">
      <acc value="0.0926536307" flag="0"/>
      <vel value="0.0351121424" flag="0"/>
      <psa03 value="0.1908800508" flag="0"/>
      <psa10 value="0.0325071517" flag="0"/>
      <psa30 value="0.0025312194" flag="0"/>
    </comp>
    <comp name="--.HHZ">
      <acc value="0.0610479410" flag="0"/>
      <vel value="0.0250360174" flag="0"/>
      <psa03 value="0.0960584117" flag="0"/>
      <psa10 value="0.0130525136" flag="0"/>
      <psa30 value="0.0015396389" flag="0"/>
    </comp>
  </station>
  <station code="PRMD" name="PRMD" netid="HP" insttype="120P," lat="39.5299" lon="21.0965">
    <comp name="--.HHE">
      <acc value="0.0352147682" flag="0"/>
      <vel value="0.0255158767" flag="0"/>
      <psa03 value="0.0679969596" flag="0"/>
      <psa10 value="0.0429554453" flag="0"/>
      <psa30 value="0.0044264373" flag="0"/>
    </comp>
    <comp name="--.HHZ">
      <acc value="0.0136653009" flag="0"/>
      <vel value="0.0126681790" flag="0"/>
      <psa03 value="0.0461847848" flag="0"/>
      <psa10 value="0.0210767279" flag="0"/>
      <psa30 value="0.0024536856" flag="0"/>
    </comp>
    <comp name="--.HHN">
      <acc value="0.0227545052" flag="0"/>
      <vel value="0.0198064684" flag="0"/>
      <psa03 value="0.0658443017" flag="0"/>
      <psa10 value="0.0337958803" flag="0"/>
      <psa30 value="0.0044082309" flag="0"/>
    </comp>
  </station>
  <station code="PVO" name="PVO" netid="HP" insttype="120P," lat="38.616" lon="21.525">
    <comp name="--.HHE">
      <acc value="0.1306907145" flag="0"/>
      <vel value="0.0493493154" flag="0"/>
      <psa03 value="0.2523022782" flag="0"/>
      <psa10 value="0.0343119686" flag="0"/>
      <psa30 value="0.0038396300" flag="0"/>
    </comp>
    <comp name="--.HHN">
      <acc value="0.1281675885" flag="0"/>
      <vel value="0.0547636277" flag="0"/>
      <psa03 value="0.2982067611" flag="0"/>
      <psa10 value="0.0379426067" flag="0"/>
      <psa30 value="0.0117302805" flag="0"/>
    </comp>
    <comp name="--.HHZ">
      <acc value="0.0932740396" flag="0"/>
      <vel value="0.0384474798" flag="0"/>
      <psa03 value="0.1754188027" flag="0"/>
      <psa10 value="0.0221439768" flag="0"/>
      <psa30 value="0.0029500603" flag="0"/>
    </comp>
  </station>
  <station code="VVK" name="VVK" netid="HP" insttype="40," lat="38.4222" lon="21.8115">
    <comp name="--.HHE">
      <acc value="0.0341630798" flag="0"/>
      <vel value="0.0196592127" flag="0"/>
      <psa03 value="0.0665662335" flag="0"/>
      <psa10 value="0.0193743889" flag="0"/>
      <psa30 value="0.0065261292" flag="0"/>
    </comp>
    <comp name="--.HHN">
      <acc value="0.0314881996" flag="0"/>
      <vel value="0.0150144322" flag="0"/>
      <psa03 value="0.0527223053" flag="0"/>
      <psa10 value="0.0135501789" flag="0"/>
      <psa30 value="0.0036269917" flag="0"/>
    </comp>
    <comp name="--.HHZ">
      <acc value="0.0138649282" flag="0"/>
      <vel value="0.0064229788" flag="0"/>
      <psa03 value="0.0281036023" flag="0"/>
      <psa10 value="0.0084814625" flag="0"/>
      <psa30 value="0.0031472418" flag="0"/>
    </comp>
  </station>
  <station code="DRAG" name="DRAG" netid="HT" insttype="30s-100Hz," lat="38.6839" lon="20.5746">
    <comp name="--.HHN">
      <acc value="1.0181487753" flag="0"/>
      <vel value="0.3378634712" flag="0"/>
      <psa03 value="1.6766363557" flag="0"/>
      <psa10 value="0.4092606798" flag="0"/>
      <psa30 value="0.0212809530" flag="0"/>
    </comp>
    <comp name="--.HHE">
      <acc value="1.1298826006" flag="0"/>
      <vel value="0.5691904916" flag="0"/>
      <psa03 value="3.1346656893" flag="0"/>
      <psa10 value="0.6578190029" flag="0"/>
      <psa30 value="0.0329981312" flag="0"/>
    </comp>
    <comp name="--.HHZ">
      <acc value="0.5203273765" flag="0"/>
      <vel value="0.1632009892" flag="0"/>
      <psa03 value="1.2625962459" flag="0"/>
      <psa10 value="0.1820898267" flag="0"/>
      <psa30 value="0.0125043410" flag="0"/>
    </comp>
  </station>
  <station code="EVGI" name="EVGI" netid="HT" insttype="30" lat="38.621" lon="20.656">
    <comp name="--.HHE">
      <acc value="0.6424406584" flag="0"/>
      <vel value="0.2260484241" flag="0"/>
      <psa03 value="1.7601715306" flag="0"/>
      <psa10 value="0.1270484855" flag="0"/>
      <psa30 value="0.0104727632" flag="0"/>
    </comp>
    <comp name="--.HHZ">
      <acc value="0.6242634198" flag="0"/>
      <vel value="0.1902132559" flag="0"/>
