<stationlist created="1775820757">
	<station code="AGRP" name="AGRP" netid="CL" source="Corinth Riff Laboratory (CRLNET)" insttype="" lat="38.3959" lon="21.72277">
		<comp name="00.HNE" depth="0.0">
			<acc value="0.0395045353756438" flag="0"/>
			<vel value="0.0164615731680493" flag="0"/>
			<psa03 value="0.067657591358255" flag="0"/>
			<psa10 value="0.0217745630829259" flag="0"/>
			<psa30 value="0.00242554172190333" flag="0"/>
		</comp>
		<comp name="00.HNN" depth="0.0">
			<acc value="0.0356200912992517" flag="0"/>
			<vel value="0.0187615610667709" flag="0"/>
			<psa03 value="0.0576043628814573" flag="0"/>
			<psa10 value="0.0182632411001094" flag="0"/>
			<psa30 value="0.00268109010906378" flag="0"/>
		</comp>
		<comp name="00.HNZ" depth="0.0">
			<acc value="0.0231929832539175" flag="0"/>
			<vel value="0.0146997862086225" flag="0"/>
			<psa03 value="0.0511115785995883" flag="0"/>
			<psa10 value="0.0134540434518428" flag="0"/>
			<psa30 value="0.00098811504110333" flag="0"/>
		</comp>
	</station>
	<station code="ROD3" name="ROD3" netid="CL" source="Corinth Riff Laboratory (CRLNET)" insttype="" lat="38.30811" lon="21.89204">
		<comp name="00.HNE" depth="0.0">
			<acc value="0.14077294580507" flag="0"/>
			<vel value="0.0402289593030572" flag="0"/>
			<psa03 value="0.255577618262809" flag="0"/>
			<psa10 value="0.0163586924330999" flag="0"/>
			<psa30 value="0.00448626594308025" flag="0"/>
		</comp>
		<comp name="00.HNN" depth="0.0">
			<acc value="0.112897304243779" flag="0"/>
			<vel value="0.0424665460023332" flag="0"/>
			<psa03 value="0.216178945794255" flag="0"/>
			<psa10 value="0.0185493194263619" flag="0"/>
			<psa30 value="0.00524029672725883" flag="0"/>
		</comp>
		<comp name="00.HNZ" depth="0.0">
			<acc value="0.0444293610158962" flag="0"/>
			<vel value="0.0150685603857738" flag="0"/>
			<psa03 value="0.0389782175323017" flag="0"/>
			<psa10 value="0.0143869421267922" flag="0"/>
			<psa30 value="0.00177810779091582" flag="0"/>
		</comp>
	</station>
	<station code="AIGS" name="AIGS" netid="HA" source="Hellenic Seismological Network, University of Athens, Seismological Laboratory (HA)" insttype="" lat="38.25001" lon="22.0878">
		<comp name="--.HNE" depth="0.0">
			<acc value="0.0455499013504261" flag="0"/>
			<vel value="0.0168519005405918" flag="0"/>
			<psa03 value="0.0657993640933168" flag="0"/>
			<psa10 value="0.0173291873486136" flag="0"/>
			<psa30 value="0.00566728334635634" flag="0"/>
		</comp>
		<comp name="--.HNN" depth="0.0">
			<acc value="0.0595110269329476" flag="0"/>
			<vel value="0.0178005211320396" flag="0"/>
			<psa03 value="0.0734313332155259" flag="0"/>
			<psa10 value="0.0142376550497897" flag="0"/>
			<psa30 value="0.00557079945479974" flag="0"/>
		</comp>
		<comp name="--.HNZ" depth="0.0">
			<acc value="0.0182565008132141" flag="0"/>
			<vel value="0.010318882541145" flag="0"/>
			<psa03 value="0.0202780008701189" flag="0"/>
			<psa10 value="0.0170536059677067" flag="0"/>
			<psa30 value="0.0035621905609747" flag="0"/>
		</comp>
	</station>
	<station code="CORS" name="CORS" netid="HA" source="Hellenic Seismological Network, University of Athens, Seismological Laboratory (HA)" insttype="" lat="38.2562" lon="22.0748">
		<comp name="00.HNE" depth="0.0">
			<acc value="0.0242198193010087" flag="0"/>
			<vel value="0.0209481476063075" flag="0"/>
			<psa03 value="0.0545815636772309" flag="0"/>
			<psa10 value="0.0310433414690084" flag="0"/>
			<psa30 value="0.0046042437585737" flag="0"/>
		</comp>
		<comp name="00.HNN" depth="0.0">
			<acc value="0.018408790461203" flag="0"/>
			<vel value="0.0161804672209744" flag="0"/>
			<psa03 value="0.0577561646042733" flag="0"/>
			<psa10 value="0.0296597341868252" flag="0"/>
			<psa30 value="0.00305404314870431" flag="0"/>
		</comp>
		<comp name="00.HNZ" depth="0.0">
			<acc value="0.0174660354044598" flag="0"/>
			<vel value="0.0111050210594593" flag="0"/>
			<psa03 value="0.0336477263925839" flag="0"/>
			<psa10 value="0.00894268303386802" flag="0"/>
			<psa30 value="0.00103375952316313" flag="0"/>
		</comp>
	</station>
	<station code="DRES" name="DRES" netid="HA" source="Hellenic Seismological Network, University of Athens, Seismological Laboratory (HA)" insttype="" lat="38.319719" lon="21.853176">
		<comp name="--.HNE" depth="0.0">
			<acc value="0.0544737107217243" flag="0"/>
			<vel value="0.0306739404572288" flag="0"/>
			<psa03 value="0.0786283285326234" flag="0"/>
			<psa10 value="0.0326217235290788" flag="0"/>
			<psa30 value="0.00440124572759802" flag="0"/>
		</comp>
		<comp name="--.HNN" depth="0.0">
			<acc value="0.0394051221650784" flag="0"/>
			<vel value="0.0286257523956993" flag="0"/>
			<psa03 value="0.0782087121935097" flag="0"/>
			<psa10 value="0.0323573535158827" flag="0"/>
			<psa30 value="0.00414460705987693" flag="0"/>
		</comp>
		<comp name="--.HNZ" depth="0.0">
			<acc value="0.0305850296762739" flag="0"/>
			<vel value="0.0103502198393368" flag="0"/>
			<psa03 value="0.0375414270394835" flag="0"/>
			<psa10 value="0.0144425723745585" flag="0"/>
			<psa30 value="0.00135344236724746" flag="0"/>
		</comp>
	</station>
	<station code="KIAS" name="KIAS" netid="HA" source="Hellenic Seismological Network, University of Athens, Seismological Laboratory (HA)" insttype="" lat="37.9875" lon="22.7543">
		<comp name="--.HNE" depth="0.0">
			<acc value="0.00958331051917945" flag="0"/>
			<vel value="0.0176205449148067" flag="0"/>
			<psa03 value="0.0160347445148143" flag="0"/>
			<psa10 value="0.0215189423993438" flag="0"/>
			<psa30 value="0.00827324639532138" flag="0"/>
		</comp>
		<comp name="--.HNN" depth="0.0">
			<acc value="0.00841668061488231" flag="0"/>
			<vel value="0.0122212964625572" flag="0"/>
			<psa03 value="0.0198286117253053" flag="0"/>
			<psa10 value="0.01413387817506" flag="0"/>
			<psa30 value="0.00575123182422014" flag="0"/>
		</comp>
		<comp name="--.HNZ" depth="0.0">
			<acc value="0.00772337564457595" flag="0"/>
			<vel value="0.00796772380630244" flag="0"/>
			<psa03 value="0.0110605048395979" flag="0"/>
			<psa10 value="0.0110553723641651" flag="0"/>
			<psa30 value="0.00448063557010829" flag="0"/>
		</comp>
	</station>
	<station code="ARG2" name="ARG2" netid="HI" source="ITSAK Strong Motion Network" insttype="" lat="38.1783" lon="20.4878">
		<comp name="--.HNE" depth="0.0">
			<acc value="0.155511400786736" flag="0"/>
			<vel value="0.0676472980716796" flag="0"/>
			<psa03 value="0.253693305936606" flag="0"/>
			<psa10 value="0.0404025927236705" flag="0"/>
			<psa30 value="0.00291430243323505" flag="0"/>
		</comp>
		<comp name="--.HNN" depth="0.0">
			<acc value="0.138117431679156" flag="0"/>
			<vel value="0.0694005510384825" flag="0"/>
			<psa03 value="0.258282547451155" flag="0"/>
			<psa10 value="0.0553367607889922" flag="0"/>
			<psa30 value="0.00292793791985283" flag="0"/>
		</comp>
		<comp name="--.HNZ" depth="0.0">
			<acc value="0.0688231233664137" flag="0"/>
			<vel value="0.0321019368801378" flag="0"/>
			<psa03 value="0.27151713251075" flag="0"/>
			<psa10 value="0.0229739169092357" flag="0"/>
			<psa30 value="0.00286393972195011" flag="0"/>
		</comp>
	</station>
	<station code="ART2" name="ART2" netid="HI" source="ITSAK Strong Motion Network" insttype="" lat="39.1474" lon="20.9937">
		<comp name="--.HNE" depth="0.0">
			<acc value="0.0503338165335541" flag="0"/>
			<vel value="0.0167713830554194" flag="0"/>
			<psa03 value="0.0656994981024787" flag="0"/>
			<psa10 value="0.0351765615245819" flag="0"/>
			<psa30 value="0.00377620098811549" flag="0"/>
		</comp>
		<comp name="--.HNN" depth="0.0">
			<acc value="0.0572597285255363" flag="0"/>
			<vel value="0.0179161339137027" flag="0"/>
			<psa03 value="0.0713594303371732" flag="0"/>
			<psa10 value="0.0242246585147391" flag="0"/>
			<psa30 value="0.00337896508985283" flag="0"/>
		</comp>
		<comp name="--.HNZ" depth="0.0">
			<acc value="0.0259741900119371" flag="0"/>
			<vel value="0.0141878496854855" flag="0"/>
			<psa03 value="0.0413033481232656" flag="0"/>
			<psa10 value="0.0189980704039283" flag="0"/>
			<psa30 value="0.00305329039050491" flag="0"/>
		</comp>
	</station>
	<station code="KLV1" name="KLV1" netid="HI" source="ITSAK Strong Motion Network" insttype="" lat="38.03256" lon="22.10797">
		<comp name="--.HNE" depth="0.0">
			<acc value="0.0333924686842873" flag="0"/>
			<vel value="0.0174663897170406" flag="0"/>
			<psa03 value="0.0623871640936364" flag="0"/>
			<psa10 value="0.0285485224494914" flag="0"/>
			<psa30 value="0.00302777849213331" flag="0"/>
		</comp>
		<comp name="--.HNN" depth="0.0">
			<acc value="0.0226994792184123" flag="0"/>
			<vel value="0.0131760388139783" flag="0"/>
			<psa03 value="0.053583346508644" flag="0"/>
			<psa10 value="0.017763280480141" flag="0"/>
			<psa30 value="0.00274177100387208" flag="0"/>
		</comp>
		<comp name="--.HNZ" depth="0.0">
			<acc value="0.0173871788635778" flag="0"/>
			<vel value="0.00736053855029356" flag="0"/>
			<psa03 value="0.0187111223325433" flag="0"/>
			<psa10 value="0.0173857354696437" flag="0"/>
			<psa30 value="0.0017833795984793" flag="0"/>
		</comp>
	</station>
	<station code="KRK1" name="KRK1" netid="HI" source="ITSAK Strong Motion Network" insttype="" lat="39.618861" lon="19.9202">
		<comp name="--.HNE" depth="0.0">
			<acc value="0.146143177605435" flag="0"/>
			<vel value="0.0677083615567844" flag="0"/>
			<psa03 value="0.226763271953902" flag="0"/>
			<psa10 value="0.0257355586044505" flag="0"/>
			<psa30 value="0.00167236276499053" flag="0"/>
		</comp>
		<comp name="--.HNN" depth="0.0">
			<acc value="0.135126014162318" flag="0"/>
			<vel value="0.0504035277923281" flag="0"/>
			<psa03 value="0.180045364621566" flag="0"/>
			<psa10 value="0.0351032666691506" flag="0"/>
			<psa30 value="0.00289496281874406" flag="0"/>
		</comp>
		<comp name="--.HNZ" depth="0.0">
			<acc value="0.0442132970018676" flag="0"/>
			<vel value="0.0182556619635232" flag="0"/>
			<psa03 value="0.121715844327439" flag="0"/>
			<psa10 value="0.0100402326161484" flag="0"/>
			<psa30 value="0.00140934440381631" flag="0"/>
		</comp>
	</station>
	<station code="LAM2" name="LAM2" netid="HI" source="ITSAK Strong Motion Network" insttype="" lat="38.90203" lon="22.431301">
		<comp name="--.HNE" depth="0.0">
			<acc value="0.0115465536898295" flag="0"/>
			<vel value="0.0145501125896872" flag="0"/>
			<psa03 value="0.0377907690779801" flag="0"/>
			<psa10 value="0.0122792500025328" flag="0"/>
			<psa30 value="0.00267552682385395" flag="0"/>
		</comp>
		<comp name="--.HNN" depth="0.0">
			<acc value="0.0151985444262482" flag="0"/>
			<vel value="0.0175127291860952" flag="0"/>
			<psa03 value="0.0429657108508327" flag="0"/>
			<psa10 value="0.0145276411349412" flag="0"/>
			<psa30 value="0.00665050181311442" flag="0"/>
		</comp>
		<comp name="--.HNZ" depth="0.0">
			<acc value="0.00803522374541319" flag="0"/>
			<vel value="0.0106117925934958" flag="0"/>
			<psa03 value="0.0145272305869051" flag="0"/>
			<psa10 value="0.0100899374713378" flag="0"/>
			<psa30 value="0.00205710981509695" flag="0"/>
		</comp>
	</station>
	<station code="LMS2" name="LMS2" netid="HI" source="ITSAK Strong Motion Network" insttype="" lat="40.834985" lon="21.141815">
		<comp name="--.HNE" depth="0.0">
			<acc value="0.00395891368837087" flag="0"/>
			<vel value="0.00487450165326231" flag="0"/>
			<psa03 value="0.00961158268371696" flag="0"/>
			<psa10 value="0.00690543041961819" flag="0"/>
			<psa30 value="0.00172369626975323" flag="0"/>
		</comp>
		<comp name="--.HNN" depth="0.0">
			<acc value="0.00406166704607133" flag="0"/>
			<vel value="0.0031708268254574" flag="0"/>
			<psa03 value="0.0111092385366785" flag="0"/>
			<psa10 value="0.0048522472188018" flag="0"/>
			<psa30 value="0.000686259680087787" flag="0"/>
		</comp>
		<comp name="--.HNZ" depth="0.0">
			<acc value="0.00235374700748397" flag="0"/>
			<vel value="0.00372848235543027" flag="0"/>
			<psa03 value="0.00535092804043254" flag="0"/>
			<psa10 value="0.0043944975201457" flag="0"/>
			<psa30 value="0.00125120986567959" flag="0"/>
		</comp>
	</station>
	<station code="MSL1" name="MSL1" netid="HI" source="ITSAK Strong Motion Network" insttype="" lat="38.3727" lon="21.4243">
		<comp name="--.HNE" depth="0.0">
			<acc value="0.295786424493234" flag="0"/>
			<vel value="0.126329068162549" flag="0"/>
			<psa03 value="0.684226201628561" flag="0"/>
			<psa10 value="0.145186052863657" flag="0"/>
			<psa30 value="0.0222648899396975" flag="0"/>
		</comp>
		<comp name="--.HNN" depth="0.0">
			<acc value="0.290052563984257" flag="0"/>
			<vel value="0.139728169601034" flag="0"/>
			<psa03 value="0.841693174709333" flag="0"/>
			<psa10 value="0.127065242448877" flag="0"/>
			<psa30 value="0.0164350870772093" flag="0"/>
		</comp>
		<comp name="--.HNZ" depth="0.0">
			<acc value="0.202800800271684" flag="0"/>
			<vel value="0.0662910203134206" flag="0"/>
			<psa03 value="0.30108502873867" flag="0"/>
			<psa10 value="0.080470423270589" flag="0"/>
			<psa30 value="0.00448603801133584" flag="0"/>
		</comp>
	</station>
	<station code="VAS2" name="VAS2" netid="HI" source="ITSAK Strong Motion Network" insttype="" lat="38.630558" lon="20.608081">
		<comp name="--.HNE" depth="0.0">
			<acc value="0.634711843702878" flag="0"/>
			<vel value="0.605071750426701" flag="0"/>
			<psa03 value="1.63263165383602" flag="0"/>
			<psa10 value="0.95023248823723" flag="0"/>
			<psa30 value="0.0650797445470492" flag="0"/>
		</comp>
		<comp name="--.HNN" depth="0.0">
			<acc value="0.898939704697679" flag="0"/>
			<vel value="0.458350068624362" flag="0"/>
			<psa03 value="1.6813698825012" flag="0"/>
			<psa10 value="1.1225754851156" flag="0"/>
			<psa30 value="0.0587272037225749" flag="0"/>
		</comp>
		<comp name="--.HNZ" depth="0.0">
			<acc value="0.441699699224665" flag="0"/>
			<vel value="0.301563054230306" flag="0"/>
			<psa03 value="0.928501508667032" flag="0"/>
			<psa10 value="0.321915655332447" flag="0"/>
			<psa30 value="0.0238870657341868" flag="0"/>
		</comp>
	</station>
	<station code="VOL2" name="VOL2" netid="HI" source="ITSAK Strong Motion Network" insttype="" lat="39.366" lon="22.9506">
		<comp name="--.HNE" depth="0.0">
			<acc value="0.00553114907736776" flag="0"/>
			<vel value="0.00470029519244851" flag="0"/>
			<psa03 value="0.0177070532137071" flag="0"/>
			<psa10 value="0.00369390446866813" flag="0"/>
			<psa30 value="0.000459282248112707" flag="0"/>
		</comp>
		<comp name="--.HNN" depth="0.0">
			<acc value="0.00704530000563773" flag="0"/>
			<vel value="0.00548168782859967" flag="0"/>
			<psa03 value="0.0154710678510832" flag="0"/>
			<psa10 value="0.00589893593178685" flag="0"/>
			<psa30 value="0.000816753376737108" flag="0"/>
		</comp>
		<comp name="--.HNZ" depth="0.0">
			<acc value="0.0030453595616911" flag="0"/>
			<vel value="0.00326256385991328" flag="0"/>
			<psa03 value="0.00560399102856979" flag="0"/>
			<psa10 value="0.00547529099238936" flag="0"/>
			<psa30 value="0.000417434059207589" flag="0"/>
		</comp>
	</station>
	<station code="GINA" name="GINA" netid="HL" source="National Observatory of Athens Seismic Network" insttype="" lat="39.66886" lon="22.389">
		<comp name="00.HNE" depth="0.0">
			<acc value="0.0125845032394078" flag="0"/>
			<vel value="0.0120677609405946" flag="0"/>
			<psa03 value="0.0340458074509733" flag="0"/>
			<psa10 value="0.0144110731003654" flag="0"/>
			<psa30 value="0.00385427491012839" flag="0"/>
		</comp>
		<comp name="00.HNN" depth="0.0">
			<acc value="0.0128488352717143" flag="0"/>
			<vel value="0.0145733547738918" flag="0"/>
			<psa03 value="0.0279867993006078" flag="0"/>
			<psa10 value="0.0149021428188302" flag="0"/>
			<psa30 value="0.00396288418829308" flag="0"/>
		</comp>
		<comp name="00.HNZ" depth="0.0">
			<acc value="0.008505260176134" flag="0"/>
			<vel value="0.00684539095431535" flag="0"/>
			<psa03 value="0.0142116133246188" flag="0"/>
			<psa10 value="0.0107784371435707" flag="0"/>
			<psa30 value="0.002483131578616" flag="0"/>
		</comp>
	</station>
	<station code="ITM" name="ITM" netid="HL" source="National Observatory of Athens Seismic Network" insttype="" lat="37.17872" lon="21.92522">
		<comp name="--.HNE" depth="0.0">
			<acc value="0.00398145696928984" flag="0"/>
			<vel value="0.00549681960099991" flag="0"/>
			<psa03 value="0.0130317695407866" flag="0"/>
			<psa10 value="0.00452319479569619" flag="0"/>
			<psa30 value="0.00169111629899043" flag="0"/>
		</comp>
		<comp name="--.HNN" depth="0.0">
			<acc value="0.00500544519023855" flag="0"/>
			<vel value="0.00490340399164731" flag="0"/>
			<psa03 value="0.0137901505089553" flag="0"/>
			<psa10 value="0.00641120346076182" flag="0"/>
			<psa30 value="0.00130364188070993" flag="0"/>
		</comp>
		<comp name="--.HNZ" depth="0.0">
			<acc value="0.00318863189548095" flag="0"/>
			<vel value="0.00475242204960312" flag="0"/>
			<psa03 value="0.0091771613273126" flag="0"/>
			<psa10 value="0.00504613225025095" flag="0"/>
			<psa30 value="0.00188242824329984" flag="0"/>
		</comp>
	</station>
	<station code="PATC" name="PATC" netid="HL" source="National Observatory of Athens Seismic Network" insttype="" lat="38.26933" lon="21.76001">
		<comp name="00.HNE" depth="0.0">
			<acc value="0.0789058700942891" flag="0"/>
			<vel value="0.059625920496658" flag="0"/>
			<psa03 value="0.137308106404763" flag="0"/>
			<psa10 value="0.0877975086541137" flag="0"/>
			<psa30 value="0.0110080400619436" flag="0"/>
		</comp>
		<comp name="00.HNN" depth="0.0">
			<acc value="0.0547417551431809" flag="0"/>
			<vel value="0.0507186178216745" flag="0"/>
			<psa03 value="0.121617931591188" flag="0"/>
			<psa10 value="0.0614869057055506" flag="0"/>
			<psa30 value="0.0108451359370162" flag="0"/>
		</comp>
		<comp name="00.HNZ" depth="0.0">
			<acc value="0.0544740445369294" flag="0"/>
			<vel value="0.0277453882947641" flag="0"/>
			<psa03 value="0.0694165047529744" flag="0"/>
			<psa10 value="0.0333116117307818" flag="0"/>
			<psa30 value="0.00481907590679952" flag="0"/>
		</comp>
	</station>
	<station code="PATG" name="PATG" netid="HL" source="National Observatory of Athens Seismic Network" insttype="" lat="38.23865" lon="21.72657">
		<comp name="00.HNE" depth="0.0">
			<acc value="0.0626154344267821" flag="0"/>
			<vel value="0.0460301188875719" flag="0"/>
			<psa03 value="0.114188460258613" flag="0"/>
			<psa10 value="0.052417432397787" flag="0"/>
			<psa30 value="0.00912820886571837" flag="0"/>
		</comp>
		<comp name="00.HNN" depth="0.0">
			<acc value="0.0723653283787729" flag="0"/>
			<vel value="0.0533084648407065" flag="0"/>
			<psa03 value="0.16738816156094" flag="0"/>
			<psa10 value="0.0600803150261061" flag="0"/>
			<psa30 value="0.0101443378459505" flag="0"/>
		</comp>
		<comp name="00.HNZ" depth="0.0">
			<acc value="0.0323689412117763" flag="0"/>
			<vel value="0.0261032092880064" flag="0"/>
			<psa03 value="0.067299999961219" flag="0"/>
			<psa10 value="0.0422020931813795" flag="0"/>
			<psa30 value="0.00512741008240107" flag="0"/>
		</comp>
	</station>
	<station code="RIOA" name="RIOA" netid="HL" source="National Observatory of Athens Seismic Network" insttype="" lat="38.29585" lon="21.79118">
		<comp name="00.HNE" depth="0.0">
			<acc value="0.077344087434914" flag="0"/>
			<vel value="0.0508831056257027" flag="0"/>
			<psa03 value="0.0987679803941781" flag="0"/>
			<psa10 value="0.0526477726565663" flag="0"/>
			<psa30 value="0.00615650200470958" flag="0"/>
		</comp>
		<comp name="00.HNN" depth="0.0">
			<acc value="0.0974177453118267" flag="0"/>
			<vel value="0.0382632540293911" flag="0"/>
			<psa03 value="0.108765038483323" flag="0"/>
			<psa10 value="0.0440594074693322" flag="0"/>
			<psa30 value="0.00721039265310814" flag="0"/>
		</comp>
		<comp name="00.HNZ" depth="0.0">
			<acc value="0.0579040310338512" flag="0"/>
			<vel value="0.0181085401695268" flag="0"/>
			<psa03 value="0.0596713696022429" flag="0"/>
			<psa10 value="0.0175544028930194" flag="0"/>
			<psa30 value="0.00477756065662194" flag="0"/>
		</comp>
	</station>
