<?xml version="1.0" encoding="UTF-8" standalone="yes"?>
<!DOCTYPE earthquake SYSTEM "stationlist.dtd">
<stationlist created="" xmlns="ch.ethz.sed.shakemap.usgs.xml">
  <station code="BSZH" name="BSZH" netid="HU" insttype="" lat="47.2996" lon="20.267">
    <comp name="--.HHE">
      <acc value="0.0966239924" flag="0"/>
      <vel value="0.0570151590" flag="0"/>
      <psa03 value="0.2328767627" flag="0"/>
      <psa10 value="0.0262287109" flag="0"/>
      <psa30 value="0.0019510968" flag="0"/>
    </comp>
    <comp name="--.HHZ">
      <acc value="0.0438038807" flag="0"/>
      <vel value="0.0136701155" flag="0"/>
      <psa03 value="0.0723788110" flag="0"/>
      <psa10 value="0.0115659159" flag="0"/>
      <psa30 value="0.0005166034" flag="0"/>
    </comp>
    <comp name="--.HHN">
      <acc value="0.0682300903" flag="0"/>
      <vel value="0.0459615457" flag="0"/>
      <psa03 value="0.1557591347" flag="0"/>
      <psa10 value="0.0314595982" flag="0"/>
      <psa30 value="0.0025416519" flag="0"/>
    </comp>
  </station>
  <station code="LTVH" name="LTVH" netid="HU" insttype="" lat="47.3849" lon="21.9007">
    <comp name="--.HHN">
      <acc value="0.0088963073" flag="0"/>
      <vel value="0.0056996346" flag="0"/>
      <psa03 value="0.0305881533" flag="0"/>
      <psa10 value="0.0138798420" flag="0"/>
      <psa30 value="0.0014296450" flag="0"/>
    </comp>
    <comp name="--.HHZ">
      <acc value="0.0067823654" flag="0"/>
      <vel value="0.0034753315" flag="0"/>
      <psa03 value="0.0122662594" flag="0"/>
      <psa10 value="0.0051889063" flag="0"/>
      <psa30 value="0.0004705994" flag="0"/>
    </comp>
    <comp name="--.HHE">
      <acc value="0.0136412860" flag="0"/>
      <vel value="0.0108533192" flag="0"/>
      <psa03 value="0.0462123816" flag="0"/>
      <psa10 value="0.0124465660" flag="0"/>
      <psa30 value="0.0014930925" flag="0"/>
    </comp>
  </station>
  <station code="BORR" name="BORR" netid="RO" insttype="CMG40T.1to100/Quanterra" lat="47.0902" lon="21.7856">
    <comp name="--.HHE">
      <acc value="0.0168182054" flag="0"/>
      <vel value="0.0102824709" flag="0"/>
      <psa03 value="0.0390464786" flag="0"/>
      <psa10 value="0.0105956728" flag="0"/>
      <psa30 value="0.0015900623" flag="0"/>
    </comp>
    <comp name="--.HHN">
      <acc value="0.0182543362" flag="0"/>
      <vel value="0.0139704567" flag="0"/>
      <psa03 value="0.0488842279" flag="0"/>
      <psa10 value="0.0118909190" flag="0"/>
      <psa30 value="0.0023050986" flag="0"/>
    </comp>
    <comp name="--.HHZ">
      <acc value="0.0136559968" flag="0"/>
      <vel value="0.0040563122" flag="0"/>
      <psa03 value="0.0161017370" flag="0"/>
      <psa10 value="0.0056991580" flag="0"/>
      <psa30 value="0.0005257187" flag="0"/>
    </comp>
  </station>
</stationlist>
