<?xml version="1.0" encoding="UTF-8" standalone="yes"?>
<!DOCTYPE earthquake SYSTEM "stationlist.dtd">
<stationlist created="" xmlns="ch.ethz.sed.shakemap.usgs.xml">
  <station code="BSZH" name="BSZH" netid="HU" insttype="" lat="47.2996" lon="20.267">
    <comp name="--.HHE">
      <acc value="0.0966239919" flag="0"/>
      <vel value="0.0570151589" flag="0"/>
      <psa03 value="0.2328767627" flag="0"/>
      <psa10 value="0.0262287109" flag="0"/>
      <psa30 value="0.0019507589" flag="0"/>
    </comp>
    <comp name="--.HHN">
      <acc value="0.0682300901" flag="0"/>
      <vel value="0.0459615446" flag="0"/>
      <psa03 value="0.1557591347" flag="0"/>
      <psa10 value="0.0314595981" flag="0"/>
      <psa30 value="0.0025416531" flag="0"/>
    </comp>
    <comp name="--.HHZ">
      <acc value="0.0438038808" flag="0"/>
      <vel value="0.0136701143" flag="0"/>
      <psa03 value="0.0723788110" flag="0"/>
      <psa10 value="0.0115659159" flag="0"/>
      <psa30 value="0.0005166879" flag="0"/>
    </comp>
  </station>
  <station code="LTVH" name="LTVH" netid="HU" insttype="" lat="47.3849" lon="21.9007">
    <comp name="--.HHN">
      <acc value="0.0088963073" flag="0"/>
      <vel value="0.0056996343" flag="0"/>
      <psa03 value="0.0305881533" flag="0"/>
      <psa10 value="0.0138798420" flag="0"/>
      <psa30 value="0.0014296437" flag="0"/>
    </comp>
    <comp name="--.HHE">
      <acc value="0.0136412858" flag="0"/>
      <vel value="0.0108533189" flag="0"/>
      <psa03 value="0.0462123816" flag="0"/>
      <psa10 value="0.0124465660" flag="0"/>
      <psa30 value="0.0014930973" flag="0"/>
    </comp>
    <comp name="--.HHZ">
      <acc value="0.0067823654" flag="0"/>
      <vel value="0.0034753319" flag="0"/>
      <psa03 value="0.0122662594" flag="0"/>
      <psa10 value="0.0051889063" flag="0"/>
      <psa30 value="0.0004705300" flag="0"/>
    </comp>
  </station>
  <station code="BORR" name="BORR" netid="RO" insttype="CMG40T.1to100/Quanterra" lat="47.0902" lon="21.7856">
    <comp name="--.HHE">
      <acc value="0.0168182053" flag="0"/>
      <vel value="0.0102824685" flag="0"/>
      <psa03 value="0.0390464786" flag="0"/>
      <psa10 value="0.0105956729" flag="0"/>
      <psa30 value="0.0015900490" flag="0"/>
    </comp>
    <comp name="--.HHZ">
      <acc value="0.0136559967" flag="0"/>
      <vel value="0.0040563110" flag="0"/>
      <psa03 value="0.0161017370" flag="0"/>
      <psa10 value="0.0056991580" flag="0"/>
      <psa30 value="0.0005257214" flag="0"/>
    </comp>
    <comp name="--.HHN">
      <acc value="0.0182543360" flag="0"/>
      <vel value="0.0139704525" flag="0"/>
      <psa03 value="0.0488842279" flag="0"/>
      <psa10 value="0.0118909190" flag="0"/>
      <psa30 value="0.0023050976" flag="0"/>
    </comp>
  </station>
</stationlist>
