<?xml version="1.0" encoding="UTF-8" standalone="yes"?>
<!DOCTYPE earthquake SYSTEM "stationlist.dtd">
<stationlist created="" xmlns="ch.ethz.sed.shakemap.usgs.xml">
  <station code="MARCO" name="MARCO" netid="GE" insttype="VBB" lat="40.2972" lon="15.8063">
    <comp name="--.HHZ">
      <acc value="0.0085725398" flag="0"/>
      <vel value="0.0121170544" flag="0"/>
      <psa03 value="0.0235799583" flag="0"/>
      <psa10 value="0.0112405654" flag="0"/>
      <psa30 value="0.0039303407" flag="0"/>
    </comp>
    <comp name="--.HHN">
      <acc value="0.0240565067" flag="0"/>
      <vel value="0.0260086432" flag="0"/>
      <psa03 value="0.0555635284" flag="0"/>
      <psa10 value="0.0345307343" flag="0"/>
      <psa30 value="0.0078729224" flag="0"/>
    </comp>
    <comp name="--.HHE">
      <acc value="0.0179002544" flag="0"/>
      <vel value="0.0157038573" flag="0"/>
      <psa03 value="0.0505639582" flag="0"/>
      <psa10 value="0.0239082898" flag="0"/>
      <psa30 value="0.0073394706" flag="0"/>
    </comp>
  </station>
  <station code="ACER" name="ACER" netid="IV" insttype="" lat="40.7867" lon="15.9427">
    <comp name="--.HHE">
      <acc value="0.0454416848" flag="0"/>
      <vel value="0.0387811491" flag="0"/>
      <psa03 value="0.1551341646" flag="0"/>
      <psa10 value="0.0445052462" flag="0"/>
      <psa30 value="0.0043802813" flag="0"/>
    </comp>
    <comp name="--.HHZ">
      <acc value="0.0248516481" flag="0"/>
      <vel value="0.0178237031" flag="0"/>
      <psa03 value="0.0461480673" flag="0"/>
      <psa10 value="0.0279613628" flag="0"/>
      <psa30 value="0.0036180629" flag="0"/>
    </comp>
    <comp name="--.HHN">
      <acc value="0.0439556203" flag="0"/>
      <vel value="0.0393685590" flag="0"/>
      <psa03 value="0.1122206560" flag="0"/>
      <psa10 value="0.0506650498" flag="0"/>
      <psa30 value="0.0050511576" flag="0"/>
    </comp>
  </station>
  <station code="AMUR" name="AMUR" netid="IV" insttype="" lat="40.9071" lon="16.6041">
    <comp name="--.HHE">
      <acc value="0.0058332758" flag="0"/>
      <vel value="0.0037418379" flag="0"/>
      <psa03 value="0.0128729422" flag="0"/>
      <psa10 value="0.0049810175" flag="0"/>
      <psa30 value="0.0005962808" flag="0"/>
    </comp>
    <comp name="--.HHZ">
      <acc value="0.0046272491" flag="0"/>
      <vel value="0.0030832556" flag="0"/>
      <psa03 value="0.0085797927" flag="0"/>
      <psa10 value="0.0037336055" flag="0"/>
      <psa30 value="0.0004203403" flag="0"/>
    </comp>
    <comp name="--.HHN">
      <acc value="0.0077708800" flag="0"/>
      <vel value="0.0060716255" flag="0"/>
      <psa03 value="0.0120573504" flag="0"/>
      <psa10 value="0.0089696857" flag="0"/>
      <psa30 value="0.0007664956" flag="0"/>
    </comp>
  </station>
  <station code="APRC" name="APRC" netid="IV" insttype="" lat="41.7574" lon="15.5431">
    <comp name="--.HHE">
      <acc value="0.0070146006" flag="0"/>
      <vel value="0.0051305927" flag="0"/>
      <psa03 value="0.0209822793" flag="0"/>
      <psa10 value="0.0081425130" flag="0"/>
      <psa30 value="0.0006239456" flag="0"/>
    </comp>
    <comp name="--.HHN">
      <acc value="0.0062004229" flag="0"/>
      <vel value="0.0040956631" flag="0"/>
      <psa03 value="0.0181896029" flag="0"/>
      <psa10 value="0.0087083289" flag="0"/>
      <psa30 value="0.0007661381" flag="0"/>
    </comp>
    <comp name="--.HHZ">
      <acc value="0.0038652955" flag="0"/>
      <vel value="0.0030103276" flag="0"/>
      <psa03 value="0.0122911418" flag="0"/>
      <psa10 value="0.0036208511" flag="0"/>
      <psa30 value="0.0006128102" flag="0"/>
    </comp>
  </station>
  <station code="BULG" name="BULG" netid="IV" insttype="" lat="40.0783" lon="15.3776">
    <comp name="--.HHE">
      <acc value="0.0163673248" flag="0"/>
      <vel value="0.0121680132" flag="0"/>
      <psa03 value="0.0406916303" flag="0"/>
      <psa10 value="0.0206233943" flag="0"/>
      <psa30 value="0.0024063530" flag="0"/>
    </comp>
    <comp name="--.HHZ">
      <acc value="0.0068389513" flag="0"/>
      <vel value="0.0097140756" flag="0"/>
      <psa03 value="0.0126359407" flag="0"/>
      <psa10 value="0.0100098383" flag="0"/>
      <psa30 value="0.0026136193" flag="0"/>
    </comp>
    <comp name="--.HHN">
      <acc value="0.0234095852" flag="0"/>
      <vel value="0.0250943577" flag="0"/>
      <psa03 value="0.0584419206" flag="0"/>
      <psa10 value="0.0274505684" flag="0"/>
      <psa30 value="0.0023315466" flag="0"/>
    </comp>
  </station>
  <station code="CAAM" name="CAAM" netid="IV" insttype="" lat="40.8201" lon="14.142">
    <comp name="--.HNE">
      <acc value="0.0070627477" flag="0"/>
      <vel value="0.0079600273" flag="0"/>
      <psa03 value="0.0073170066" flag="0"/>
      <psa10 value="0.0104814483" flag="0"/>
      <psa30 value="0.0027859168" flag="0"/>
    </comp>
    <comp name="--.HNN">
      <acc value="0.0077565267" flag="0"/>
      <vel value="0.0070743387" flag="0"/>
      <psa03 value="0.0094741090" flag="0"/>
      <psa10 value="0.0086073067" flag="0"/>
      <psa30 value="0.0031889482" flag="0"/>
    </comp>
    <comp name="--.HNZ">
      <acc value="0.0287901580" flag="0"/>
      <vel value="0.1121465048" flag="0"/>
      <psa03 value="0.0662729458" flag="0"/>
      <psa10 value="0.0577845572" flag="0"/>
      <psa30 value="0.0334900139" flag="0"/>
    </comp>
  </station>
  <station code="CAFE" name="CAFE" netid="IV" insttype="" lat="41.028" lon="15.2366">
    <comp name="--.HHE">
      <acc value="0.0340585396" flag="0"/>
      <vel value="0.0203430396" flag="0"/>
      <psa03 value="0.0928558635" flag="0"/>
      <psa10 value="0.0332233384" flag="0"/>
      <psa30 value="0.0074841838" flag="0"/>
    </comp>
    <comp name="--.HHN">
      <acc value="0.0173393230" flag="0"/>
      <vel value="0.0198928895" flag="0"/>
      <psa03 value="0.0460011550" flag="0"/>
      <psa10 value="0.0200400164" flag="0"/>
      <psa30 value="0.0067972886" flag="0"/>
    </comp>
    <comp name="--.HHZ">
      <acc value="0.0158149919" flag="0"/>
      <vel value="0.0141588234" flag="0"/>
      <psa03 value="0.0382774362" flag="0"/>
      <psa10 value="0.0137189567" flag="0"/>
      <psa30 value="0.0051573987" flag="0"/>
    </comp>
  </station>
  <station code="CAPA" name="CAPA" netid="IV" insttype="" lat="41.1583" lon="15.8169">
    <comp name="--.HHE">
      <acc value="0.0110976412" flag="0"/>
      <vel value="0.0196866094" flag="0"/>
      <psa03 value="0.0194769410" flag="0"/>
      <psa10 value="0.0321486555" flag="0"/>
      <psa30 value="0.0078656580" flag="0"/>
    </comp>
    <comp name="--.HHN">
      <acc value="0.0096127058" flag="0"/>
      <vel value="0.0199934155" flag="0"/>
      <psa03 value="0.0262735634" flag="0"/>
      <psa10 value="0.0171549547" flag="0"/>
      <psa30 value="0.0089064034" flag="0"/>
    </comp>
    <comp name="--.HHZ">
      <acc value="0.0098226553" flag="0"/>
      <vel value="0.0106417840" flag="0"/>
      <psa03 value="0.0191975546" flag="0"/>
      <psa10 value="0.0120710463" flag="0"/>
      <psa30 value="0.0025960408" flag="0"/>
    </comp>
  </station>
  <station code="CDRU" name="CDRU" netid="IV" insttype="" lat="40.4896" lon="15.3046">
    <comp name="--.HHE">
      <acc value="0.0785260254" flag="0"/>
      <vel value="0.0343190712" flag="0"/>
      <psa03 value="0.1524320861" flag="0"/>
      <psa10 value="0.0338891589" flag="0"/>
      <psa30 value="0.0038930543" flag="0"/>
    </comp>
    <comp name="--.HHN">
      <acc value="0.0459330162" flag="0"/>
      <vel value="0.0259735937" flag="0"/>
      <psa03 value="0.1318179534" flag="0"/>
      <psa10 value="0.0248085039" flag="0"/>
      <psa30 value="0.0053709857" flag="0"/>
    </comp>
    <comp name="--.HHZ">
      <acc value="0.0316439224" flag="0"/>
      <vel value="0.0282295952" flag="0"/>
      <psa03 value="0.0796192622" flag="0"/>
      <psa10 value="0.0235826401" flag="0"/>
      <psa30 value="0.0039966628" flag="0"/>
    </comp>
  </station>
  <station code="CMPR" name="CMPR" netid="IV" insttype="" lat="40.3181" lon="15.303">
    <comp name="--.HHN">
      <acc value="0.0160239952" flag="0"/>
      <vel value="0.0150664763" flag="0"/>
      <psa03 value="0.0483793066" flag="0"/>
      <psa10 value="0.0193898579" flag="0"/>
      <psa30 value="0.0040960438" flag="0"/>
    </comp>
    <comp name="--.HHE">
      <acc value="0.0224167265" flag="0"/>
      <vel value="0.0121728129" flag="0"/>
      <psa03 value="0.0424522674" flag="0"/>
      <psa10 value="0.0147848421" flag="0"/>
      <psa30 value="0.0017832088" flag="0"/>
    </comp>
    <comp name="--.HHZ">
      <acc value="0.0085234769" flag="0"/>
      <vel value="0.0087365910" flag="0"/>
      <psa03 value="0.0226117140" flag="0"/>
      <psa10 value="0.0169656573" flag="0"/>
      <psa30 value="0.0025180114" flag="0"/>
    </comp>
  </station>
  <station code="GATE" name="GATE" netid="IV" insttype="" lat="41.5131" lon="14.9102">
    <comp name="--.HHE">
      <acc value="0.0050821651" flag="0"/>
      <vel value="0.0042062736" flag="0"/>
      <psa03 value="0.0105767364" flag="0"/>
      <psa10 value="0.0044933356" flag="0"/>
      <psa30 value="0.0010349316" flag="0"/>
    </comp>
    <comp name="--.HHZ">
      <acc value="0.0020853150" flag="0"/>
      <vel value="0.0020636980" flag="0"/>
      <psa03 value="0.0051062375" flag="0"/>
      <psa10 value="0.0028004729" flag="0"/>
      <psa30 value="0.0003583690" flag="0"/>
    </comp>
    <comp name="--.HHN">
      <acc value="0.0046729640" flag="0"/>
      <vel value="0.0034878628" flag="0"/>
      <psa03 value="0.0087092102" flag="0"/>
      <psa10 value="0.0053571126" flag="0"/>
      <psa30 value="0.0010562519" flag="0"/>
    </comp>
  </station>
  <station code="MCEL" name="MCEL" netid="IV" insttype="" lat="40.3249" lon="15.8019">
    <comp name="--.HHE">
      <acc value="0.0155673234" flag="0"/>
      <vel value="0.0162281410" flag="0"/>
      <psa03 value="0.0501320266" flag="0"/>
      <psa10 value="0.0218779519" flag="0"/>
      <psa30 value="0.0041959176" flag="0"/>
    </comp>
    <comp name="--.HHN">
      <acc value="0.0136625733" flag="0"/>
      <vel value="0.0135877569" flag="0"/>
      <psa03 value="0.0289204971" flag="0"/>
      <psa10 value="0.0228520762" flag="0"/>
      <psa30 value="0.0049922738" flag="0"/>
    </comp>
    <comp name="--.HHZ">
      <acc value="0.0084528122" flag="0"/>
      <vel value="0.0076046412" flag="0"/>
      <psa03 value="0.0197353658" flag="0"/>
      <psa10 value="0.0071925231" flag="0"/>
      <psa30 value="0.0036611976" flag="0"/>
    </comp>
  </station>
  <station code="MIGL" name="MIGL" netid="IV" insttype="" lat="40.6044" lon="16.441">
    <comp name="--.HHE">
      <acc value="0.0199681657" flag="0"/>
      <vel value="0.0219493713" flag="0"/>
      <psa03 value="0.0460716933" flag="0"/>
      <psa10 value="0.0248599427" flag="0"/>
      <psa30 value="0.0105823294" flag="0"/>
    </comp>
    <comp name="--.HHZ">
      <acc value="0.0121531949" flag="0"/>
      <vel value="0.0099650198" flag="0"/>
      <psa03 value="0.0267151268" flag="0"/>
      <psa10 value="0.0125579853" flag="0"/>
      <psa30 value="0.0027681689" flag="0"/>
    </comp>
    <comp name="--.HHN">
      <acc value="0.0254657630" flag="0"/>
      <vel value="0.0202029150" flag="0"/>
      <psa03 value="0.0449433290" flag="0"/>
      <psa10 value="0.0316054943" flag="0"/>
      <psa30 value="0.0056575592" flag="0"/>
    </comp>
  </station>
  <station code="MRLC" name="MRLC" netid="IV" insttype="" lat="40.7564" lon="15.4889">
    <comp name="--.HHE">
      <acc value="0.6114188067" flag="0"/>
      <vel value="0.2989529216" flag="0"/>
      <psa03 value="0.8889100166" flag="0"/>
      <psa10 value="0.2623623203" flag="0"/>
      <psa30 value="0.0184774941" flag="0"/>
    </comp>
    <comp name="--.HHZ">
      <acc value="0.4019323055" flag="0"/>
      <vel value="0.1987840394" flag="0"/>
      <psa03 value="0.5625669152" flag="0"/>
      <psa10 value="0.1092382855" flag="0"/>
      <psa30 value="0.0163175610" flag="0"/>
    </comp>
    <comp name="--.HHN">
      <acc value="1.0510546233" flag="0"/>
      <vel value="0.3920163581" flag="0"/>
      <psa03 value="1.1684175402" flag="0"/>
      <psa10 value="0.2118557421" flag="0"/>
      <psa30 value="0.0531305740" flag="0"/>
    </comp>
  </station>
  <station code="MRVN" name="MRVN" netid="IV" insttype="" lat="41.0609" lon="16.1958">
    <comp name="--.HHN">
      <acc value="0.0094655104" flag="0"/>
      <vel value="0.0059513033" flag="0"/>
      <psa03 value="0.0148235373" flag="0"/>
      <psa10 value="0.0086447526" flag="0"/>
      <psa30 value="0.0008963475" flag="0"/>
    </comp>
    <comp name="--.HHE">
      <acc value="0.0101757474" flag="0"/>
      <vel value="0.0070775627" flag="0"/>
      <psa03 value="0.0199624697" flag="0"/>
      <psa10 value="0.0072751247" flag="0"/>
      <psa30 value="0.0010689964" flag="0"/>
    </comp>
    <comp name="--.HHZ">
      <acc value="0.0063739430" flag="0"/>
      <vel value="0.0046667637" flag="0"/>
      <psa03 value="0.0123844257" flag="0"/>
      <psa10 value="0.0064397270" flag="0"/>
      <psa30 value="0.0011243185" flag="0"/>
    </comp>
  </station>
  <station code="MSAG" name="MSAG" netid="IV" insttype="" lat="41.712" lon="15.9096">
    <comp name="--.HHE">
      <acc value="0.0063431497" flag="0"/>
      <vel value="0.0041141759" flag="0"/>
      <psa03 value="0.0139267584" flag="0"/>
      <psa10 value="0.0036033039" flag="0"/>
      <psa30 value="0.0008045394" flag="0"/>
    </comp>
    <comp name="--.HHN">
      <acc value="0.0093841948" flag="0"/>
      <vel value="0.0067322431" flag="0"/>
      <psa03 value="0.0282876374" flag="0"/>
      <psa10 value="0.0087232602" flag="0"/>
      <psa30 value="0.0012642357" flag="0"/>
    </comp>
    <comp name="--.HHZ">
      <acc value="0.0034396514" flag="0"/>
      <vel value="0.0036111180" flag="0"/>
      <psa03 value="0.0060659870" flag="0"/>
      <psa10 value="0.0062669673" flag="0"/>
      <psa30 value="0.0008882414" flag="0"/>
    </comp>
  </station>
  <station code="MTMR" name="MTMR" netid="IV" insttype="" lat="40.9184" lon="15.0026">
    <comp name="--.HNE">
      <acc value="0.0246842169" flag="0"/>
      <vel value="0.0202789765" flag="0"/>
      <psa03 value="0.0672559065" flag="0"/>
      <psa10 value="0.0209508182" flag="0"/>
      <psa30 value="0.0034795429" flag="0"/>
    </comp>
    <comp name="--.HNZ">
      <acc value="0.0119852383" flag="0"/>
      <vel value="0.0092082800" flag="0"/>
      <psa03 value="0.0319435602" flag="0"/>
      <psa10 value="0.0099846797" flag="0"/>
      <psa30 value="0.0016382857" flag="0"/>
    </comp>
    <comp name="--.HNN">
      <acc value="0.0220153907" flag="0"/>
      <vel value="0.0166601619" flag="0"/>
      <psa03 value="0.0734244422" flag="0"/>
      <psa10 value="0.0162734321" flag="0"/>
      <psa30 value="0.0030353301" flag="0"/>
    </comp>
  </station>
  <station code="MTSN" name="MTSN" netid="IV" insttype="" lat="40.2663" lon="15.7515">
    <comp name="--.HHE">
      <acc value="0.0245516740" flag="0"/>
      <vel value="0.0186257837" flag="0"/>
      <psa03 value="0.0548999651" flag="0"/>
      <psa10 value="0.0172395825" flag="0"/>
      <psa30 value="0.0049078885" flag="0"/>
    </comp>
    <comp name="--.HHN">
      <acc value="0.0246501125" flag="0"/>
      <vel value="0.0208115693" flag="0"/>
      <psa03 value="0.0862439700" flag="0"/>
      <psa10 value="0.0162593355" flag="0"/>
      <psa30 value="0.0051240704" flag="0"/>
    </comp>
    <comp name="--.HHZ">
      <acc value="0.0118389843" flag="0"/>
      <vel value="0.0090109776" flag="0"/>
      <psa03 value="0.0324682089" flag="0"/>
      <psa10 value="0.0119125961" flag="0"/>
      <psa30 value="0.0025323519" flag="0"/>
    </comp>
  </station>
  <station code="ORI" name="ORI" netid="IV" insttype="" lat="40.051" lon="16.4504">
    <comp name="--.HHE">
      <acc value="0.0076532085" flag="0"/>
      <vel value="0.0077764025" flag="0"/>
      <psa03 value="0.0228219512" flag="0"/>
      <psa10 value="0.0102511920" flag="0"/>
      <psa30 value="0.0012759919" flag="0"/>
    </comp>
    <comp name="--.HHZ">
      <acc value="0.0028084770" flag="0"/>
      <vel value="0.0025808604" flag="0"/>
      <psa03 value="0.0062566507" flag="0"/>
      <psa10 value="0.0061347573" flag="0"/>
      <psa30 value="0.0008947183" flag="0"/>
    </comp>
    <comp name="--.HHN">
      <acc value="0.0089498150" flag="0"/>
      <vel value="0.0071797673" flag="0"/>
      <psa03 value="0.0269069645" flag="0"/>
      <psa10 value="0.0076257712" flag="0"/>
      <psa30 value="0.0013166567" flag="0"/>
    </comp>
  </station>
  <station code="PALZ" name="PALZ" netid="IV" insttype="" lat="40.9441" lon="15.9602">
    <comp name="--.HHN">
      <acc value="0.0188841929" flag="0"/>
      <vel value="0.0406648392" flag="0"/>
      <psa03 value="0.0420357792" flag="0"/>
      <psa10 value="0.0287960725" flag="0"/>
      <psa30 value="0.0107505663" flag="0"/>
    </comp>
    <comp name="--.HHE">
      <acc value="0.0184069055" flag="0"/>
      <vel value="0.0411115553" flag="0"/>
      <psa03 value="0.0444682584" flag="0"/>
      <psa10 value="0.0411908541" flag="0"/>
      <psa30 value="0.0139832968" flag="0"/>
    </comp>
    <comp name="--.HHZ">
      <acc value="0.0140773672" flag="0"/>
      <vel value="0.0313633902" flag="0"/>
      <psa03 value="0.0492606554" flag="0"/>
      <psa10 value="0.0291173799" flag="0"/>
      <psa30 value="0.0084299512" flag="0"/>
    </comp>
  </station>
  <station code="PAOL" name="PAOL" netid="IV" insttype="" lat="41.0312" lon="14.5675">
    <comp name="--.HHE">
      <acc value="0.0077933985" flag="0"/>
      <vel value="0.0076487190" flag="0"/>
      <psa03 value="0.0238407815" flag="0"/>
      <psa10 value="0.0088226532" flag="0"/>
      <psa30 value="0.0011738630" flag="0"/>
    </comp>
    <comp name="--.HHN">
      <acc value="0.0080474723" flag="0"/>
      <vel value="0.0070801266" flag="0"/>
      <psa03 value="0.0229702278" flag="0"/>
      <psa10 value="0.0060376806" flag="0"/>
      <psa30 value="0.0014771763" flag="0"/>
    </comp>
    <comp name="--.HHZ">
      <acc value="0.0044454540" flag="0"/>
      <vel value="0.0059038559" flag="0"/>
      <psa03 value="0.0110520166" flag="0"/>
      <psa10 value="0.0044648644" flag="0"/>
      <psa30 value="0.0017700822" flag="0"/>
    </comp>
  </station>
  <station code="PTRJ" name="PTRJ" netid="IV" insttype="" lat="41.3641" lon="14.529">
    <comp name="--.HHE">
      <acc value="0.0039506935" flag="0"/>
      <vel value="0.0033450344" flag="0"/>
      <psa03 value="0.0130730754" flag="0"/>
      <psa10 value="0.0045837543" flag="0"/>
      <psa30 value="0.0002900051" flag="0"/>
    </comp>
    <comp name="--.HHN">
      <acc value="0.0047151665" flag="0"/>
      <vel value="0.0033052758" flag="0"/>
      <psa03 value="0.0143846340" flag="0"/>
      <psa10 value="0.0053123246" flag="0"/>
      <psa30 value="0.0001837840" flag="0"/>
    </comp>
    <comp name="--.HHZ">
      <acc value="0.0022307837" flag="0"/>
      <vel value="0.0013392752" flag="0"/>
      <psa03 value="0.0063478663" flag="0"/>
      <psa10 value="0.0021090330" flag="0"/>
      <psa30 value="0.0001121793" flag="0"/>
    </comp>
  </station>
  <station code="PTRP" name="PTRP" netid="IV" insttype="" lat="40.5215" lon="16.0612">
    <comp name="--.HHE">
      <acc value="0.0099762055" flag="0"/>
      <vel value="0.0205754467" flag="0"/>
      <psa03 value="0.0224416044" flag="0"/>
      <psa10 value="0.0243549633" flag="0"/>
      <psa30 value="0.0092657470" flag="0"/>
    </comp>
    <comp name="--.HHN">
      <acc value="0.0113764105" flag="0"/>
      <vel value="0.0125676985" flag="0"/>
      <psa03 value="0.0256966121" flag="0"/>
      <psa10 value="0.0207982318" flag="0"/>
      <psa30 value="0.0048383999" flag="0"/>
    </comp>
