<?xml version="1.0" encoding="UTF-8" standalone="yes"?>
<!DOCTYPE earthquake SYSTEM "stationlist.dtd">
<stationlist created="" xmlns="ch.ethz.sed.shakemap.usgs.xml">
  <station code="KRL1" name="KRL1" netid="HI" insttype="CMG-5TD,ACCELEROMETER,GURALP" lat="37.7951" lon="26.7065">
    <comp name="--.HNE">
      <acc value="1.6488511390" flag="0"/>
      <vel value="0.5461124009" flag="0"/>
      <psa03 value="2.1495734771" flag="0"/>
      <psa10 value="0.1325548180" flag="0"/>
      <psa30 value="0.0145767823" flag="0"/>
    </comp>
    <comp name="--.HNZ">
      <acc value="0.2348510452" flag="0"/>
      <vel value="0.0757372793" flag="0"/>
      <psa03 value="0.2976027932" flag="0"/>
      <psa10 value="0.0590166720" flag="0"/>
      <psa30 value="0.0046368520" flag="0"/>
    </comp>
    <comp name="--.HNN">
      <acc value="0.3655092692" flag="0"/>
      <vel value="0.1127147937" flag="0"/>
      <psa03 value="0.5112397611" flag="0"/>
      <psa10 value="0.1135761727" flag="0"/>
      <psa30 value="0.0058089962" flag="0"/>
    </comp>
  </station>
  <station code="EAG2" name="EAG2" netid="HL" insttype="SMART24" lat="38.5438" lon="26.1079">
    <comp name="--.HHZ">
      <acc value="0.1152839842" flag="0"/>
      <vel value="0.0534043584" flag="0"/>
      <psa03 value="0.2767674914" flag="0"/>
      <psa10 value="0.0506337675" flag="0"/>
      <psa30 value="0.0035083985" flag="0"/>
    </comp>
    <comp name="--.HHE">
      <acc value="0.2520534706" flag="0"/>
      <vel value="0.1595336542" flag="0"/>
      <psa03 value="0.6621395212" flag="0"/>
      <psa10 value="0.0768404417" flag="0"/>
      <psa30 value="0.0074030547" flag="0"/>
    </comp>
    <comp name="--.HHN">
      <acc value="0.2711164627" flag="0"/>
      <vel value="0.1559656273" flag="0"/>
      <psa03 value="1.0255117661" flag="0"/>
      <psa10 value="0.1481989490" flag="0"/>
      <psa30 value="0.0072387270" flag="0"/>
    </comp>
  </station>
  <station code="CHOS" name="CHOS" netid="HT" insttype="100" lat="38.3869" lon="26.0506">
    <comp name="--.HHN">
      <acc value="0.0373610005" flag="0"/>
      <vel value="0.0152317912" flag="0"/>
      <psa03 value="0.0796364361" flag="0"/>
      <psa10 value="0.0211924644" flag="0"/>
      <psa30 value="0.0010865706" flag="0"/>
    </comp>
    <comp name="--.HHE">
      <acc value="0.0506298765" flag="0"/>
      <vel value="0.0182796239" flag="0"/>
      <psa03 value="0.1025606779" flag="0"/>
      <psa10 value="0.0224955588" flag="0"/>
      <psa30 value="0.0009560257" flag="0"/>
    </comp>
    <comp name="--.HHZ">
      <acc value="0.0172169021" flag="0"/>
      <vel value="0.0086381805" flag="0"/>
      <psa03 value="0.0259989854" flag="0"/>
      <psa10 value="0.0093994647" flag="0"/>
      <psa30 value="0.0005977732" flag="0"/>
    </comp>
  </station>
  <station code="GMLD" name="GMLD" netid="KO" insttype="100" lat="38.0764" lon="26.8747">
    <comp name="--.HNN">
      <acc value="0.1245947941" flag="0"/>
      <vel value="0.0564336807" flag="0"/>
      <psa03 value="0.3169899877" flag="0"/>
      <psa10 value="0.0382044575" flag="0"/>
      <psa30 value="0.0031252324" flag="0"/>
    </comp>
    <comp name="--.HNE">
      <acc value="0.1291951905" flag="0"/>
      <vel value="0.0531254391" flag="0"/>
      <psa03 value="0.2497132617" flag="0"/>
      <psa10 value="0.0309453520" flag="0"/>
      <psa30 value="0.0019478614" flag="0"/>
    </comp>
    <comp name="--.HNZ">
      <acc value="0.0999145212" flag="0"/>
      <vel value="0.0333544573" flag="0"/>
      <psa03 value="0.1626963567" flag="0"/>
      <psa10 value="0.0064606585" flag="0"/>
      <psa30 value="0.0018150497" flag="0"/>
    </comp>
  </station>
  <station code="KUSD" name="KUSD" netid="KO" insttype="100" lat="37.86" lon="27.2815">
    <comp name="--.HNZ">
      <acc value="0.0126758480" flag="0"/>
      <vel value="0.0049648961" flag="0"/>
      <psa03 value="0.0187580215" flag="0"/>
      <psa10 value="0.0050721589" flag="0"/>
      <psa30 value="0.0005342049" flag="0"/>
    </comp>
    <comp name="--.HNE">
      <acc value="0.0232013428" flag="0"/>
      <vel value="0.0117835337" flag="0"/>
      <psa03 value="0.0309595806" flag="0"/>
      <psa10 value="0.0096653119" flag="0"/>
      <psa30 value="0.0006996426" flag="0"/>
    </comp>
    <comp name="--.HNN">
      <acc value="0.0240059104" flag="0"/>
      <vel value="0.0066503067" flag="0"/>
      <psa03 value="0.0329868195" flag="0"/>
      <psa10 value="0.0050569380" flag="0"/>
      <psa30 value="0.0008655251" flag="0"/>
    </comp>
  </station>
  <station code="AYDN" name="AYDN" netid="TU" source="ODC" insttype="T" lat="37.6608" lon="27.8792">
    <comp name="--.HHZ">
      <acc value="0.0164615266" flag="0"/>
      <vel value="0.0066281363" flag="0"/>
      <psa03 value="0.0311050968" flag="0"/>
      <psa10 value="0.0061651816" flag="0"/>
      <psa30 value="0.0008935116" flag="0"/>
    </comp>
    <comp name="--.HHE">
      <acc value="0.0312781202" flag="0"/>
      <vel value="0.0143279343" flag="0"/>
      <psa03 value="0.0856761379" flag="0"/>
      <psa10 value="0.0114329637" flag="0"/>
      <psa30 value="0.0007488345" flag="0"/>
    </comp>
    <comp name="--.HHN">
      <acc value="0.0315187159" flag="0"/>
      <vel value="0.0117028088" flag="0"/>
      <psa03 value="0.0915284025" flag="0"/>
      <psa10 value="0.0093844842" flag="0"/>
      <psa30 value="0.0006780380" flag="0"/>
    </comp>
  </station>
</stationlist>
