<stationlist created="1778135801">
	<station code="KRL1" name="KRL1" netid="HI" source="ITSAK Strong Motion Network" insttype="" lat="37.7951" lon="26.7065">
		<comp name="--.HNE" depth="0.0">
			<acc value="1.66630792172884" flag="0"/>
			<vel value="0.550592792374489" flag="0"/>
			<psa03 value="2.17178670925091" flag="0"/>
			<psa10 value="0.132775630094185" flag="0"/>
			<psa30 value="0.0147206333994776" flag="0"/>
		</comp>
		<comp name="--.HNN" depth="0.0">
			<acc value="0.369113770720224" flag="0"/>
			<vel value="0.112820126845345" flag="0"/>
			<psa03 value="0.51699619747413" flag="0"/>
			<psa10 value="0.113636256369087" flag="0"/>
			<psa30 value="0.00618292553257897" flag="0"/>
		</comp>
		<comp name="--.HNZ" depth="0.0">
			<acc value="0.21992173752301" flag="0"/>
			<vel value="0.0775566870416105" flag="0"/>
			<psa03 value="0.298430518143873" flag="0"/>
			<psa10 value="0.0591214569812519" flag="0"/>
			<psa30 value="0.00507600334084293" flag="0"/>
		</comp>
	</station>
	<station code="MYT1" name="MYT1" netid="HI" source="ITSAK Strong Motion Network" insttype="" lat="39.085" lon="26.5694">
		<comp name="--.HNE" depth="0.0">
			<acc value="0.0104826065261459" flag="0"/>
			<vel value="0.00581638777550738" flag="0"/>
			<psa03 value="0.0225234061276193" flag="0"/>
			<psa10 value="0.00905164650214107" flag="0"/>
			<psa30 value="0.000933944681749837" flag="0"/>
		</comp>
		<comp name="--.HNN" depth="0.0">
			<acc value="0.00755348617696026" flag="0"/>
			<vel value="0.00526705104975724" flag="0"/>
			<psa03 value="0.022165825147956" flag="0"/>
			<psa10 value="0.0114878238244681" flag="0"/>
			<psa30 value="0.00120567757855519" flag="0"/>
		</comp>
		<comp name="--.HNZ" depth="0.0">
			<acc value="0.00678997147797436" flag="0"/>
			<vel value="0.00478241685747788" flag="0"/>
			<psa03 value="0.0132228108421549" flag="0"/>
			<psa10 value="0.00950784266040906" flag="0"/>
			<psa30 value="0.000697365207437843" flag="0"/>
		</comp>
	</station>
	<station code="NAX1" name="NAX1" netid="HI" source="ITSAK Strong Motion Network" insttype="" lat="37.101394" lon="25.374103">
		<comp name="--.HNE" depth="0.0">
			<acc value="0.00871648900653321" flag="0"/>
			<vel value="0.00409531424395965" flag="0"/>
			<psa03 value="0.0140701807783412" flag="0"/>
			<psa10 value="0.00184460598515755" flag="0"/>
			<psa30 value="0.000114533720109328" flag="0"/>
		</comp>
		<comp name="--.HNN" depth="0.0">
			<acc value="0.00544868847184755" flag="0"/>
			<vel value="0.00297806334257226" flag="0"/>
			<psa03 value="0.0126615796529424" flag="0"/>
			<psa10 value="0.00183591923782864" flag="0"/>
			<psa30 value="0.000157684977105814" flag="0"/>
		</comp>
		<comp name="--.HNZ" depth="0.0">
			<acc value="0.00441350321100218" flag="0"/>
			<vel value="0.0016391511846958" flag="0"/>
			<psa03 value="0.0051171358601449" flag="0"/>
			<psa10 value="0.00125542472822499" flag="0"/>
			<psa30 value="0.000166326916779662" flag="0"/>
		</comp>
	</station>
	<station code="KLNA" name="KLNA" netid="HL" source="National Observatory of Athens Seismic Network" insttype="" lat="36.95708" lon="26.97274">
		<comp name="00.HNE" depth="0.0">
			<acc value="0.0317440148380947" flag="0"/>
			<vel value="0.0145028977724795" flag="0"/>
			<psa03 value="0.0803122608797978" flag="0"/>
			<psa10 value="0.00633012739235309" flag="0"/>
			<psa30 value="0.000584780640500812" flag="0"/>
		</comp>
		<comp name="00.HNN" depth="0.0">
			<acc value="0.031466866048606" flag="0"/>
			<vel value="0.0144737294917941" flag="0"/>
			<psa03 value="0.0825493712107114" flag="0"/>
			<psa10 value="0.00933009234610821" flag="0"/>
			<psa30 value="0.000617889873398333" flag="0"/>
		</comp>
		<comp name="00.HNZ" depth="0.0">
			<acc value="0.0333681527933568" flag="0"/>
			<vel value="0.00954798084755104" flag="0"/>
			<psa03 value="0.0424603540807399" flag="0"/>
			<psa10 value="0.00736501463143371" flag="0"/>
			<psa30 value="0.000581648686037533" flag="0"/>
		</comp>
	</station>
	<station code="PRK" name="PRK" netid="HL" source="National Observatory of Athens Seismic Network" insttype="" lat="39.24565" lon="26.26499">
		<comp name="--.HNE" depth="0.0">
			<acc value="0.0103804880723051" flag="0"/>
			<vel value="0.008696489377921" flag="0"/>
			<psa03 value="0.0355121493806233" flag="0"/>
			<psa10 value="0.0135884054776594" flag="0"/>
			<psa30 value="0.000585328514726824" flag="0"/>
		</comp>
		<comp name="--.HNN" depth="0.0">
			<acc value="0.0126112941040277" flag="0"/>
			<vel value="0.00935086790058926" flag="0"/>
			<psa03 value="0.0414869253885193" flag="0"/>
			<psa10 value="0.00910107102626978" flag="0"/>
			<psa30 value="0.000762878870316658" flag="0"/>
		</comp>
		<comp name="--.HNZ" depth="0.0">
			<acc value="0.00720114368790267" flag="0"/>
			<vel value="0.00403028699481651" flag="0"/>
			<psa03 value="0.0239137820873602" flag="0"/>
			<psa10 value="0.00355106500625458" flag="0"/>
			<psa30 value="0.000292969433828699" flag="0"/>
		</comp>
	</station>
	<station code="THRA" name="THRA" netid="HL" source="National Observatory of Athens Seismic Network" insttype="" lat="36.41502" lon="25.43244">
		<comp name="00.HNE" depth="0.0">
			<acc value="0.00773924160847702" flag="0"/>
			<vel value="0.00818468131191726" flag="0"/>
			<psa03 value="0.0233020358330185" flag="0"/>
			<psa10 value="0.00987551139165229" flag="0"/>
			<psa30 value="0.000981703366363855" flag="0"/>
		</comp>
		<comp name="00.HNN" depth="0.0">
			<acc value="0.00897755634149467" flag="0"/>
			<vel value="0.0097907807369393" flag="0"/>
			<psa03 value="0.0190574004800876" flag="0"/>
			<psa10 value="0.01719655043706" flag="0"/>
			<psa30 value="0.00125281632626827" flag="0"/>
		</comp>
		<comp name="00.HNZ" depth="0.0">
			<acc value="0.00576080966569291" flag="0"/>
			<vel value="0.00418310710007681" flag="0"/>
			<psa03 value="0.0110117346817353" flag="0"/>
			<psa10 value="0.00358205635615184" flag="0"/>
			<psa30 value="0.000485373455694317" flag="0"/>
		</comp>
	</station>
	<station code="AKS" name="AKS" netid="KO" source="Bogazici University Kandilli Observatory And Earthquake Research Institute (KOERI)" insttype="" lat="38.8785" lon="27.8129">
		<comp name="--.HNE" depth="0.0">
			<acc value="0.0100438442234937" flag="0"/>
			<vel value="0.00363331901502149" flag="0"/>
			<psa03 value="0.0144517327377018" flag="0"/>
			<psa10 value="0.00398250381109237" flag="0"/>
			<psa30 value="0.00045279113097691" flag="0"/>
		</comp>
		<comp name="--.HNN" depth="0.0">
			<acc value="0.00834458080593131" flag="0"/>
			<vel value="0.00394949428400623" flag="0"/>
			<psa03 value="0.018925953399529" flag="0"/>
			<psa10 value="0.0033060016470241" flag="0"/>
			<psa30 value="0.000665764034479884" flag="0"/>
		</comp>
		<comp name="--.HNZ" depth="0.0">
			<acc value="0.00261403650793527" flag="0"/>
			<vel value="0.00132310141099528" flag="0"/>
			<psa03 value="0.00657710437288595" flag="0"/>
			<psa10 value="0.00152615666774925" flag="0"/>
			<psa30 value="0.000420129320145572" flag="0"/>
		</comp>
	</station>
	<station code="CESE" name="CESE" netid="KO" source="Bogazici University Kandilli Observatory And Earthquake Research Institute (KOERI)" insttype="" lat="38.3306" lon="26.2997">
		<comp name="--.HNE" depth="0.0">
			<acc value="0.0170247322011954" flag="0"/>
			<vel value="0.00781103953973341" flag="0"/>
			<psa03 value="0.0247424402599043" flag="0"/>
			<psa10 value="0.00601201030329718" flag="0"/>
			<psa30 value="0.000464424104697661" flag="0"/>
		</comp>
		<comp name="--.HNN" depth="0.0">
			<acc value="0.0258442232813626" flag="0"/>
			<vel value="0.0223636167821256" flag="0"/>
			<psa03 value="0.076061751251062" flag="0"/>
			<psa10 value="0.0287916099588579" flag="0"/>
			<psa30 value="0.00190825511226929" flag="0"/>
		</comp>
		<comp name="--.HNZ" depth="0.0">
			<acc value="0.0178990901708267" flag="0"/>
			<vel value="0.0071656346440868" flag="0"/>
			<psa03 value="0.0406259236093908" flag="0"/>
			<psa10 value="0.0108804098054313" flag="0"/>
			<psa30 value="0.000415207677417562" flag="0"/>
		</comp>
	</station>
	<station code="DATC" name="DATC" netid="KO" source="Bogazici University Kandilli Observatory And Earthquake Research Institute (KOERI)" insttype="" lat="36.7584" lon="27.6602">
		<comp name="--.HNE" depth="0.0">
			<acc value="0.0431132036063716" flag="0"/>
			<vel value="0.0275138542160956" flag="0"/>
			<psa03 value="0.0730640234076378" flag="0"/>
			<psa10 value="0.0346063071309685" flag="0"/>
			<psa30 value="0.00496996431115763" flag="0"/>
		</comp>
		<comp name="--.HNN" depth="0.0">
			<acc value="0.0545339939051931" flag="0"/>
			<vel value="0.0415163232349483" flag="0"/>
			<psa03 value="0.107336553677234" flag="0"/>
			<psa10 value="0.0472544815198877" flag="0"/>
			<psa30 value="0.00593550112997993" flag="0"/>
		</comp>
		<comp name="--.HNZ" depth="0.0">
			<acc value="0.0628620243615819" flag="0"/>
			<vel value="0.0209127884791877" flag="0"/>
			<psa03 value="0.0560172426860762" flag="0"/>
			<psa10 value="0.0269956577852004" flag="0"/>
			<psa30 value="0.00256999234815353" flag="0"/>
		</comp>
	</station>
	<station code="EZNE" name="EZNE" netid="KO" source="Bogazici University Kandilli Observatory And Earthquake Research Institute (KOERI)" insttype="" lat="39.756" lon="26.3655">
		<comp name="--.HNE" depth="0.0">
			<acc value="0.0108905056138368" flag="0"/>
			<vel value="0.00583159320590983" flag="0"/>
			<psa03 value="0.0392836574108426" flag="0"/>
			<psa10 value="0.00842808946068385" flag="0"/>
			<psa30 value="0.00144293616343926" flag="0"/>
		</comp>
		<comp name="--.HNN" depth="0.0">
			<acc value="0.0176314435238898" flag="0"/>
			<vel value="0.0103138594047267" flag="0"/>
			<psa03 value="0.0608494010008496" flag="0"/>
			<psa10 value="0.00550060688165033" flag="0"/>
			<psa30 value="0.00110334281520658" flag="0"/>
		</comp>
		<comp name="--.HNZ" depth="0.0">
			<acc value="0.0191400532324193" flag="0"/>
			<vel value="0.0038374438410729" flag="0"/>
			<psa03 value="0.0303799582938065" flag="0"/>
			<psa10 value="0.00434491568470037" flag="0"/>
			<psa30 value="0.00124920240878215" flag="0"/>
		</comp>
	</station>
	<station code="FOCM" name="FOCM" netid="KO" source="Bogazici University Kandilli Observatory And Earthquake Research Institute (KOERI)" insttype="" lat="38.7131" lon="26.7309">
		<comp name="--.HNE" depth="0.0">
			<acc value="0.0193145189706919" flag="0"/>
			<vel value="0.00813464109957716" flag="0"/>
			<psa03 value="0.0569396782240771" flag="0"/>
			<psa10 value="0.00759098052143614" flag="0"/>
			<psa30 value="0.000449608117664921" flag="0"/>
		</comp>
		<comp name="--.HNN" depth="0.0">
			<acc value="0.0303390591866745" flag="0"/>
			<vel value="0.0122587411663194" flag="0"/>
			<psa03 value="0.0644029486709759" flag="0"/>
			<psa10 value="0.0062020071025185" flag="0"/>
			<psa30 value="0.000591664194850729" flag="0"/>
		</comp>
		<comp name="--.HNZ" depth="0.0">
			<acc value="0.0147353781778697" flag="0"/>
			<vel value="0.00651994499088105" flag="0"/>
			<psa03 value="0.0323887002799515" flag="0"/>
			<psa10 value="0.00241833270267101" flag="0"/>
			<psa30 value="0.000359444514560138" flag="0"/>
		</comp>
	</station>
	<station code="GMLD" name="GMLD" netid="KO" source="Bogazici University Kandilli Observatory And Earthquake Research Institute (KOERI)" insttype="" lat="38.0766" lon="26.9157">
		<comp name="--.HNE" depth="0.0">
			<acc value="0.807689892923794" flag="0"/>
			<vel value="0.335928909477634" flag="0"/>
			<psa03 value="1.58646916227068" flag="0"/>
			<psa10 value="0.195186981528078" flag="0"/>
			<psa30 value="0.0132204272115669" flag="0"/>
		</comp>
		<comp name="--.HNN" depth="0.0">
			<acc value="0.777363666647311" flag="0"/>
			<vel value="0.352222516867967" flag="0"/>
			<psa03 value="2.01313084458252" flag="0"/>
			<psa10 value="0.240013303494792" flag="0"/>
			<psa30 value="0.0216726774638247" flag="0"/>
		</comp>
		<comp name="--.HNZ" depth="0.0">
			<acc value="0.616741652221959" flag="0"/>
			<vel value="0.209147834409353" flag="0"/>
			<psa03 value="1.03618476307256" flag="0"/>
			<psa10 value="0.0410934796685517" flag="0"/>
			<psa30 value="0.0128020875796861" flag="0"/>
		</comp>
	</station>
	<station code="GOMA" name="GOMA" netid="KO" source="Bogazici University Kandilli Observatory And Earthquake Research Institute (KOERI)" insttype="" lat="38.7077" lon="27.9175">
		<comp name="--.HNE" depth="0.0">
			<acc value="0.0110737284517356" flag="0"/>
			<vel value="0.00612563840764114" flag="0"/>
			<psa03 value="0.0387914931380416" flag="0"/>
			<psa10 value="0.00525497216731602" flag="0"/>
			<psa30 value="0.000588807439096456" flag="0"/>
		</comp>
		<comp name="--.HNN" depth="0.0">
			<acc value="0.00981067307648226" flag="0"/>
			<vel value="0.00471508457689197" flag="0"/>
			<psa03 value="0.0228185253753186" flag="0"/>
			<psa10 value="0.00609657307380571" flag="0"/>
			<psa30 value="0.000438921046925246" flag="0"/>
		</comp>
		<comp name="--.HNZ" depth="0.0">
			<acc value="0.00997855341066387" flag="0"/>
			<vel value="0.00439039081197046" flag="0"/>
			<psa03 value="0.023713369507684" flag="0"/>
			<psa10 value="0.0043207548931265" flag="0"/>
			<psa30 value="0.000527063193963241" flag="0"/>
		</comp>
	</station>
	<station code="GORD" name="GORD" netid="KO" source="Bogazici University Kandilli Observatory And Earthquake Research Institute (KOERI)" insttype="" lat="38.9088" lon="28.1769">
		<comp name="--.HNE" depth="0.0">
			<acc value="0.015561660413617" flag="0"/>
			<vel value="0.0205448650457522" flag="0"/>
			<psa03 value="0.0410733456755735" flag="0"/>
			<psa10 value="0.0366076260330038" flag="0"/>
			<psa30 value="0.00351271064160051" flag="0"/>
		</comp>
		<comp name="--.HNN" depth="0.0">
			<acc value="0.0147850099979127" flag="0"/>
			<vel value="0.0161582060171363" flag="0"/>
			<psa03 value="0.0413417989152831" flag="0"/>
			<psa10 value="0.0238467012834065" flag="0"/>
			<psa30 value="0.00207648580915399" flag="0"/>
		</comp>
		<comp name="--.HNZ" depth="0.0">
			<acc value="0.0143332852573693" flag="0"/>
			<vel value="0.0180534808245921" flag="0"/>
			<psa03 value="0.0258609954253611" flag="0"/>
			<psa10 value="0.0177259674180269" flag="0"/>
			<psa30 value="0.00138611356103406" flag="0"/>
		</comp>
	</station>
	<station code="KRBN" name="KRBN" netid="KO" source="Bogazici University Kandilli Observatory And Earthquake Research Institute (KOERI)" insttype="" lat="38.5936" lon="26.5537">
		<comp name="--.HNE" depth="0.0">
			<acc value="0.157911154846074" flag="0"/>
			<vel value="0.0911867419784273" flag="0"/>
			<psa03 value="0.426930135551549" flag="0"/>
			<psa10 value="0.0778339900552117" flag="0"/>
			<psa30 value="0.00836187099488881" flag="0"/>
		</comp>
		<comp name="--.HNN" depth="0.0">
			<acc value="0.214165788230227" flag="0"/>
			<vel value="0.103937508527188" flag="0"/>
			<psa03 value="0.46290286967264" flag="0"/>
			<psa10 value="0.110708773790053" flag="0"/>
			<psa30 value="0.00771579353132096" flag="0"/>
		</comp>
		<comp name="--.HNZ" depth="0.0">
			<acc value="0.0856562085391473" flag="0"/>
			<vel value="0.0625305470351508" flag="0"/>
			<psa03 value="0.172436464306819" flag="0"/>
			<psa10 value="0.0727159290401476" flag="0"/>
			<psa30 value="0.00322725536337594" flag="0"/>
		</comp>
	</station>
	<station code="KUSD" name="KUSD" netid="KO" source="Bogazici University Kandilli Observatory And Earthquake Research Institute (KOERI)" insttype="" lat="37.8606" lon="27.2868">
		<comp name="--.HNE" depth="0.0">
			<acc value="0.147210406367698" flag="0"/>
			<vel value="0.0736664004043559" flag="0"/>
			<psa03 value="0.197984264285853" flag="0"/>
			<psa10 value="0.0604382201220277" flag="0"/>
			<psa30 value="0.00508942600282841" flag="0"/>
		</comp>
		<comp name="--.HNN" depth="0.0">
			<acc value="0.152714857015235" flag="0"/>
			<vel value="0.0425756978440102" flag="0"/>
			<psa03 value="0.210914761998533" flag="0"/>
			<psa10 value="0.0318278160999738" flag="0"/>
			<psa30 value="0.00618292553257897" flag="0"/>
		</comp>
		<comp name="--.HNZ" depth="0.0">
			<acc value="0.0813854619407152" flag="0"/>
			<vel value="0.0308745725441465" flag="0"/>
			<psa03 value="0.118790558571512" flag="0"/>
			<psa10 value="0.0318801644817172" flag="0"/>
			<psa30 value="0.00407288306846128" flag="0"/>
		</comp>
	</station>
	<station code="NAZL" name="NAZL" netid="KO" source="Bogazici University Kandilli Observatory And Earthquake Research Institute (KOERI)" insttype="" lat="37.9641" lon="28.2922">
		<comp name="--.HNE" depth="0.0">
			<acc value="0.0546504266710948" flag="0"/>
			<vel value="0.027566114234421" flag="0"/>
			<psa03 value="0.31972780849417" flag="0"/>
			<psa10 value="0.0186964258795772" flag="0"/>
			<psa30 value="0.00141698568360067" flag="0"/>
		</comp>
		<comp name="--.HNN" depth="0.0">
			<acc value="0.0428821558654359" flag="0"/>
			<vel value="0.0237367957356738" flag="0"/>
			<psa03 value="0.180982225770909" flag="0"/>
			<psa10 value="0.0185353539357514" flag="0"/>
			<psa30 value="0.00152436697948452" flag="0"/>
		</comp>
		<comp name="--.HNZ" depth="0.0">
			<acc value="0.0186282118712686" flag="0"/>
			<vel value="0.0118556119116913" flag="0"/>
			<psa03 value="0.0656815593156229" flag="0"/>
			<psa10 value="0.00833144629438838" flag="0"/>
			<psa30 value="0.000982538857337247" flag="0"/>
		</comp>
	</station>
	<station code="SOMA" name="SOMA" netid="KO" source="Bogazici University Kandilli Observatory And Earthquake Research Institute (KOERI)" insttype="" lat="39.1564" lon="27.5341">
		<comp name="--.HNE" depth="0.0">
			<acc value="0.034139935447619" flag="0"/>
			<vel value="0.0137825864720492" flag="0"/>
			<psa03 value="0.1128845872979" flag="0"/>
			<psa10 value="0.00955156626886865" flag="0"/>
			<psa30 value="0.00145277944889528" flag="0"/>
		</comp>
		<comp name="--.HNN" depth="0.0">
			<acc value="0.0414155952900152" flag="0"/>
			<vel value="0.0157007295204231" flag="0"/>
			<psa03 value="0.110423765933895" flag="0"/>
			<psa10 value="0.0126159600001541" flag="0"/>
			<psa30 value="0.00236641530804039" flag="0"/>
		</comp>
		<comp name="--.HNZ" depth="0.0">
			<acc value="0.0219035889685178" flag="0"/>
			<vel value="0.00805535947691618" flag="0"/>
			<psa03 value="0.0759275246312072" flag="0"/>
			<psa10 value="0.00649119933617887" flag="0"/>
			<psa30 value="0.00178924084266469" flag="0"/>
		</comp>
	</station>
	<station code="YKAV" name="YKAV" netid="KO" source="Bogazici University Kandilli Observatory And Earthquake Research Institute (KOERI)" insttype="" lat="37.1246" lon="27.2801">
		<comp name="--.HNE" depth="0.0">
			<acc value="0.015229619067416" flag="0"/>
			<vel value="0.00841618750010118" flag="0"/>
			<psa03 value="0.0277849103099468" flag="0"/>
			<psa10 value="0.0136347400448521" flag="0"/>
			<psa30 value="0.000814755582518728" flag="0"/>
		</comp>
		<comp name="--.HNN" depth="0.0">
			<acc value="0.0192087624938387" flag="0"/>
			<vel value="0.0176761502333147" flag="0"/>
			<psa03 value="0.0238475961275388" flag="0"/>
			<psa10 value="0.0225057773510569" flag="0"/>
			<psa30 value="0.00129260234920187" flag="0"/>
		</comp>
		<comp name="--.HNZ" depth="0.0">
			<acc value="0.00921249864075529" flag="0"/>
			<vel value="0.00576233182125669" flag="0"/>
			<psa03 value="0.0122146224067882" flag="0"/>
			<psa10 value="0.00969250421971621" flag="0"/>
			<psa30 value="0.000639366132575103" flag="0"/>
		</comp>
	</station>
</stationlist>
