<stationlist created="1642764325">
	<station code="KRL1" name="KRL1" netid="HI" source="ITSAK Strong Motion Network" insttype="" lat="37.7951" lon="26.7065">
		<comp name=".HNE" depth="0.0">
			<acc value="1.655159406" flag="0"/>
			<vel value="0.547345" flag="0"/>
			<psa03 value="2.17178670925" flag="0"/>
			<psa10 value="0.132775630094" flag="0"/>
			<psa30 value="0.0147206333995" flag="0"/>
		</comp>
		<comp name=".HNN" depth="0.0">
			<acc value="0.366293832" flag="0"/>
			<vel value="0.11247" flag="0"/>
			<psa03 value="0.516996197474" flag="0"/>
			<psa10 value="0.113636256369" flag="0"/>
			<psa30 value="0.00618292553258" flag="0"/>
		</comp>
		<comp name=".HNZ" depth="0.0">
			<acc value="0.213922968" flag="0"/>
			<vel value="0.077086" flag="0"/>
			<psa03 value="0.298430518144" flag="0"/>
			<psa10 value="0.0591214569813" flag="0"/>
			<psa30 value="0.00507600334084" flag="0"/>
		</comp>
	</station>
	<station code="MYT1" name="MYT1" netid="HI" source="ITSAK Strong Motion Network" insttype="" lat="39.085" lon="26.5694">
		<comp name=".HNE" depth="0.0">
			<acc value="0.010394412" flag="0"/>
			<vel value="0.005722" flag="0"/>
			<psa03 value="0.0225500721356" flag="0"/>
			<psa10 value="0.0090602968402" flag="0"/>
			<psa30 value="0.00100893675924" flag="0"/>
		</comp>
		<comp name=".HNN" depth="0.0">
			<acc value="0.007536474" flag="0"/>
			<vel value="0.005385" flag="0"/>
			<psa03 value="0.0221921344827" flag="0"/>
			<psa10 value="0.0115166439835" flag="0"/>
			<psa30 value="0.00128902297267" flag="0"/>
		</comp>
		<comp name=".HNZ" depth="0.0">
			<acc value="0.006824106" flag="0"/>
			<vel value="0.004869" flag="0"/>
			<psa03 value="0.013243693159" flag="0"/>
			<psa10 value="0.00952740547729" flag="0"/>
			<psa30 value="0.000748089694658" flag="0"/>
		</comp>
	</station>
	<station code="NAX1" name="NAX1" netid="HI" source="ITSAK Strong Motion Network" insttype="" lat="37.101394" lon="25.374103">
		<comp name=".HNE" depth="0.0">
			<acc value="0.008766186" flag="0"/>
			<vel value="0.004083" flag="0"/>
			<psa03 value="0.0140937950848" flag="0"/>
			<psa10 value="0.001852327354" flag="0"/>
			<psa30 value="0.000146754437708" flag="0"/>
		</comp>
		<comp name=".HNN" depth="0.0">
			<acc value="0.005693232" flag="0"/>
			<vel value="0.003069" flag="0"/>
			<psa03 value="0.012662044473" flag="0"/>
			<psa10 value="0.00186038095119" flag="0"/>
			<psa30 value="0.000219684234496" flag="0"/>
		</comp>
		<comp name=".HNZ" depth="0.0">
			<acc value="0.00462162" flag="0"/>
			<vel value="0.00159" flag="0"/>
			<psa03 value="0.0051453537611" flag="0"/>
			<psa10 value="0.00127246835622" flag="0"/>
			<psa30 value="0.000202682195981" flag="0"/>
		</comp>
	</station>
	<station code="RDI1" name="RDI1" netid="HI" source="ITSAK Strong Motion Network" insttype="" lat="36.4514" lon="28.224">
		<comp name=".HNE" depth="0.0">
			<acc value="0.002674032" flag="0"/>
			<vel value="0.003795" flag="0"/>
			<psa03 value="0.00344514990961" flag="0"/>
			<psa10 value="0.00624556462184" flag="0"/>
			<psa30 value="0.000957930643697" flag="0"/>
		</comp>
		<comp name=".HNN" depth="0.0">
			<acc value="0.002155158" flag="0"/>
			<vel value="0.003379" flag="0"/>
			<psa03 value="0.00304247005004" flag="0"/>
			<psa10 value="0.00410733456756" flag="0"/>
			<psa30 value="0.00142056506013" flag="0"/>
		</comp>
		<comp name=".HNZ" depth="0.0">
			<acc value="0.002287452" flag="0"/>
			<vel value="0.001357" flag="0"/>
			<psa03 value="0.00210288371106" flag="0"/>
			<psa10 value="0.00280265182257" flag="0"/>
			<psa30 value="0.000465766370896" flag="0"/>
		</comp>
	</station>
	<station code="ASTA" name="ASTA" netid="HL" source="National Observatory of Athens Seismic Network" insttype="" lat="36.54543" lon="26.3528">
		<comp name="00.HNE" depth="0.0">
			<acc value="0.00392241" flag="0"/>
			<vel value="0.002276" flag="0"/>
			<psa03 value="0.00675607319936" flag="0"/>
			<psa10 value="0.0034187520077" flag="0"/>
			<psa30 value="0.000336461393769" flag="0"/>
		</comp>
		<comp name="00.HNN" depth="0.0">
			<acc value="0.003991668" flag="0"/>
			<vel value="0.002767" flag="0"/>
			<psa03 value="0.00595071348023" flag="0"/>
			<psa10 value="0.0029596969678" flag="0"/>
			<psa30 value="0.00044652722205" flag="0"/>
		</comp>
		<comp name="00.HNZ" depth="0.0">
			<acc value="0.002908836" flag="0"/>
			<vel value="0.002172" flag="0"/>
			<psa03 value="0.00778514395158" flag="0"/>
			<psa10 value="0.00207782807535" flag="0"/>
			<psa30 value="0.000369123204601" flag="0"/>
		</comp>
	</station>
	<station code="KLNA" name="KLNA" netid="HL" source="National Observatory of Athens Seismic Network" insttype="" lat="36.95708" lon="26.97274">
		<comp name="00.HNE" depth="0.0">
			<acc value="0.031744032" flag="0"/>
			<vel value="0.014503" flag="0"/>
			<psa03 value="0.0803122608798" flag="0"/>
			<psa10 value="0.00633012739235" flag="0"/>
			<psa30 value="0.000584780640501" flag="0"/>
		</comp>
		<comp name="00.HNN" depth="0.0">
			<acc value="0.031466898" flag="0"/>
			<vel value="0.014474" flag="0"/>
			<psa03 value="0.0825493712107" flag="0"/>
			<psa10 value="0.00933009234611" flag="0"/>
			<psa30 value="0.000617889873398" flag="0"/>
		</comp>
		<comp name="00.HNZ" depth="0.0">
			<acc value="0.033368178" flag="0"/>
			<vel value="0.009548" flag="0"/>
			<psa03 value="0.0424603540807" flag="0"/>
			<psa10 value="0.00736501463143" flag="0"/>
			<psa30 value="0.000581648686038" flag="0"/>
		</comp>
	</station>
	<station code="PRK" name="PRK" netid="HL" source="National Observatory of Athens Seismic Network" insttype="" lat="39.24565" lon="26.26499">
		<comp name=".HNE" depth="0.0">
			<acc value="0.010365138" flag="0"/>
			<vel value="0.008685" flag="0"/>
			<psa03 value="0.0355253120549" flag="0"/>
			<psa10 value="0.0135864184617" flag="0"/>
			<psa30 value="0.000585228062567" flag="0"/>
		</comp>
		<comp name=".HNN" depth="0.0">
			<acc value="0.012595776" flag="0"/>
			<vel value="0.009342" flag="0"/>
			<psa03 value="0.0414760255351" flag="0"/>
			<psa10 value="0.00910056482616" flag="0"/>
			<psa30 value="0.000762407200775" flag="0"/>
		</comp>
		<comp name=".HNZ" depth="0.0">
			<acc value="0.007186206" flag="0"/>
			<vel value="0.004024" flag="0"/>
			<psa03 value="0.0238923383342" flag="0"/>
			<psa10 value="0.00355163636136" flag="0"/>
			<psa30 value="0.000292614031283" flag="0"/>
		</comp>
	</station>
	<station code="RODB" name="RODB" netid="HL" source="National Observatory of Athens Seismic Network" insttype="" lat="36.4471" lon="28.22116">
		<comp name="00.HNE" depth="0.0">
			<acc value="0.00315843" flag="0"/>
			<vel value="0.003264" flag="0"/>
			<psa03 value="0.00348989211623" flag="0"/>
			<psa10 value="0.00399861100547" flag="0"/>
			<psa30 value="0.00114271595703" flag="0"/>
		</comp>
		<comp name="00.HNN" depth="0.0">
			<acc value="0.002502774" flag="0"/>
			<vel value="0.002936" flag="0"/>
			<psa03 value="0.00281875901695" flag="0"/>
			<psa10 value="0.00511806101506" flag="0"/>
			<psa30 value="0.00124651787639" flag="0"/>
		</comp>
		<comp name="00.HNZ" depth="0.0">
			<acc value="0.005376828" flag="0"/>
			<vel value="0.001369" flag="0"/>
			<psa03 value="0.00232659474415" flag="0"/>
			<psa10 value="0.00292345578044" flag="0"/>
			<psa30 value="0.000459949884036" flag="0"/>
		</comp>
	</station>
	<station code="THRA" name="THRA" netid="HL" source="National Observatory of Athens Seismic Network" insttype="" lat="36.41502" lon="25.43244">
		<comp name="00.HNE" depth="0.0">
			<acc value="0.007850226" flag="0"/>
			<vel value="0.008182" flag="0"/>
			<psa03 value="0.0233106896481" flag="0"/>
			<psa10 value="0.00987371015652" flag="0"/>
			<psa30 value="0.000980301747006" flag="0"/>
		</comp>
		<comp name="00.HNN" depth="0.0">
			<acc value="0.009091872" flag="0"/>
			<vel value="0.009792" flag="0"/>
			<psa03 value="0.0190601800194" flag="0"/>
			<psa10 value="0.0171944300034" flag="0"/>
			<psa30 value="0.00125143951911" flag="0"/>
		</comp>
		<comp name="00.HNZ" depth="0.0">
			<acc value="0.005927526" flag="0"/>
			<vel value="0.004203" flag="0"/>
			<psa03 value="0.0110065828281" flag="0"/>
			<psa10 value="0.00357982395153" flag="0"/>
			<psa30 value="0.000484558097676" flag="0"/>
		</comp>
	</station>
	<station code="TNSA" name="TNSA" netid="HL" source="National Observatory of Athens Seismic Network" insttype="" lat="37.53942" lon="25.1631">
		<comp name="00.HNE" depth="0.0">
			<acc value="0.004725252" flag="0"/>
			<vel value="0.001657" flag="0"/>
			<psa03 value="0.0108276140016" flag="0"/>
			<psa10 value="0.000849654503681" flag="0"/>
			<psa30 value="0.000142727639112" flag="0"/>
		</comp>
		<comp name="00.HNN" depth="0.0">
			<acc value="0.00464712" flag="0"/>
			<vel value="0.001941" flag="0"/>
			<psa03 value="0.00809833939791" flag="0"/>
			<psa10 value="0.000869788496659" flag="0"/>
			<psa30 value="0.000124383334399" flag="0"/>
		</comp>
		<comp name="00.HNZ" depth="0.0">
			<acc value="0.003637524" flag="0"/>
			<vel value="0.001008" flag="0"/>
			<psa03 value="0.00568226024052" flag="0"/>
			<psa10 value="0.0011999859815" flag="0"/>
			<psa30 value="0.000129304977127" flag="0"/>
		</comp>
	</station>
	<station code="AKS" name="AKS" netid="KO" source="Bogazici University Kandilli Observatory And Earthquake Research Institute (KOERI)" insttype="" lat="38.8785" lon="27.8129">
		<comp name=".HNE" depth="0.0">
			<acc value="0.01005924" flag="0"/>
			<vel value="0.003808" flag="0"/>
			<psa03 value="0.0144517327377" flag="0"/>
			<psa10 value="0.00398250381109" flag="0"/>
			<psa30 value="0.000452791130977" flag="0"/>
		</comp>
		<comp name=".HNN" depth="0.0">
			<acc value="0.00833697" flag="0"/>
			<vel value="0.003943" flag="0"/>
			<psa03 value="0.0189259533995" flag="0"/>
			<psa10 value="0.00330600164702" flag="0"/>
			<psa30 value="0.00066576403448" flag="0"/>
		</comp>
		<comp name=".HNZ" depth="0.0">
			<acc value="0.002574684" flag="0"/>
			<vel value="0.001356" flag="0"/>
			<psa03 value="0.00657710437289" flag="0"/>
			<psa10 value="0.00152615666775" flag="0"/>
			<psa30 value="0.000420129320146" flag="0"/>
		</comp>
	</station>
	<station code="CESE" name="CESE" netid="KO" source="Bogazici University Kandilli Observatory And Earthquake Research Institute (KOERI)" insttype="" lat="38.3306" lon="26.2997">
		<comp name=".HNE" depth="0.0">
			<acc value="0.016834998" flag="0"/>
			<vel value="0.007804" flag="0"/>
			<psa03 value="0.0247424402599" flag="0"/>
			<psa10 value="0.0060120103033" flag="0"/>
			<psa30 value="0.000464424104698" flag="0"/>
		</comp>
		<comp name=".HNN" depth="0.0">
			<acc value="0.02583609" flag="0"/>
			<vel value="0.022333" flag="0"/>
			<psa03 value="0.0760617512511" flag="0"/>
			<psa10 value="0.0287916099589" flag="0"/>
			<psa30 value="0.00190825511227" flag="0"/>
		</comp>
		<comp name=".HNZ" depth="0.0">
			<acc value="0.017754732" flag="0"/>
			<vel value="0.007151" flag="0"/>
			<psa03 value="0.0406259236094" flag="0"/>
			<psa10 value="0.0108804098054" flag="0"/>
			<psa30 value="0.000415207677418" flag="0"/>
		</comp>
	</station>
	<station code="DATC" name="DATC" netid="KO" source="Bogazici University Kandilli Observatory And Earthquake Research Institute (KOERI)" insttype="" lat="36.7584" lon="27.6602">
		<comp name=".HNE" depth="0.0">
			<acc value="0.042334794" flag="0"/>
			<vel value="0.027613" flag="0"/>
			<psa03 value="0.0730640234076" flag="0"/>
			<psa10 value="0.034606307131" flag="0"/>
			<psa30 value="0.00496996431116" flag="0"/>
		</comp>
		<comp name=".HNN" depth="0.0">
			<acc value="0.054251454" flag="0"/>
			<vel value="0.041636" flag="0"/>
			<psa03 value="0.107336553677" flag="0"/>
			<psa10 value="0.0472544815199" flag="0"/>
			<psa30 value="0.00593550112998" flag="0"/>
		</comp>
		<comp name=".HNZ" depth="0.0">
			<acc value="0.061345146" flag="0"/>
			<vel value="0.021573" flag="0"/>
			<psa03 value="0.0560172426861" flag="0"/>
			<psa10 value="0.0269956577852" flag="0"/>
			<psa30 value="0.00256999234815" flag="0"/>
		</comp>
	</station>
	<station code="EZNE" name="EZNE" netid="KO" source="Bogazici University Kandilli Observatory And Earthquake Research Institute (KOERI)" insttype="" lat="39.756" lon="26.3655">
		<comp name=".HNE" depth="0.0">
			<acc value="0.010863102" flag="0"/>
			<vel value="0.005922" flag="0"/>
			<psa03 value="0.0392836574108" flag="0"/>
			<psa10 value="0.00842808946068" flag="0"/>
			<psa30 value="0.00144293616344" flag="0"/>
		</comp>
		<comp name=".HNN" depth="0.0">
			<acc value="0.017250546" flag="0"/>
			<vel value="0.010695" flag="0"/>
			<psa03 value="0.0608494010008" flag="0"/>
			<psa10 value="0.00550060688165" flag="0"/>
			<psa30 value="0.00110334281521" flag="0"/>
		</comp>
		<comp name=".HNZ" depth="0.0">
			<acc value="0.01365117" flag="0"/>
			<vel value="0.004187" flag="0"/>
			<psa03 value="0.0303799582938" flag="0"/>
			<psa10 value="0.0043449156847" flag="0"/>
			<psa30 value="0.00124920240878" flag="0"/>
		</comp>
	</station>
	<station code="FOCM" name="FOCM" netid="KO" source="Bogazici University Kandilli Observatory And Earthquake Research Institute (KOERI)" insttype="" lat="38.7131" lon="26.7309">
		<comp name=".HNE" depth="0.0">
			<acc value="0.019398156" flag="0"/>
			<vel value="0.008134" flag="0"/>
			<psa03 value="0.0569568290251" flag="0"/>
			<psa10 value="0.00761467614436" flag="0"/>
			<psa30 value="0.000502902402389" flag="0"/>
		</comp>
		<comp name=".HNN" depth="0.0">
			<acc value="0.030379068" flag="0"/>
			<vel value="0.012196" flag="0"/>
			<psa03 value="0.0643840353237" flag="0"/>
			<psa10 value="0.00621335023308" flag="0"/>
			<psa30 value="0.000617442451332" flag="0"/>
		</comp>
		<comp name=".HNZ" depth="0.0">
			<acc value="0.014726352" flag="0"/>
			<vel value="0.00667" flag="0"/>
			<psa03 value="0.0323933575916" flag="0"/>
			<psa10 value="0.00241205235879" flag="0"/>
			<psa30 value="0.000438026202793" flag="0"/>
		</comp>
	</station>
	<station code="GMLD" name="GMLD" netid="KO" source="Bogazici University Kandilli Observatory And Earthquake Research Institute (KOERI)" insttype="" lat="38.0766" lon="26.9157">
		<comp name=".HNE" depth="0.0">
			<acc value="0.800611668" flag="0"/>
			<vel value="0.335099" flag="0"/>
			<psa03 value="1.58646916227" flag="0"/>
			<psa10 value="0.195186981528" flag="0"/>
			<psa30 value="0.0132204272116" flag="0"/>
		</comp>
		<comp name=".HNN" depth="0.0">
			<acc value="0.770771874" flag="0"/>
			<vel value="0.351398" flag="0"/>
			<psa03 value="2.01313084458" flag="0"/>
			<psa10 value="0.240013303495" flag="0"/>
			<psa30 value="0.0216726774638" flag="0"/>
		</comp>
		<comp name=".HNZ" depth="0.0">
			<acc value="0.61166544" flag="0"/>
			<vel value="0.208527" flag="0"/>
			<psa03 value="1.03618476307" flag="0"/>
			<psa10 value="0.0410934796686" flag="0"/>
			<psa30 value="0.0128020875797" flag="0"/>
		</comp>
	</station>
	<station code="GOMA" name="GOMA" netid="KO" source="Bogazici University Kandilli Observatory And Earthquake Research Institute (KOERI)" insttype="" lat="38.7077" lon="27.9175">
		<comp name=".HNE" depth="0.0">
			<acc value="0.01113432" flag="0"/>
			<vel value="0.006122" flag="0"/>
			<psa03 value="0.038791493138" flag="0"/>
			<psa10 value="0.00525497216732" flag="0"/>
			<psa30 value="0.000588807439096" flag="0"/>
		</comp>
		<comp name=".HNN" depth="0.0">
			<acc value="0.009811584" flag="0"/>
			<vel value="0.004772" flag="0"/>
			<psa03 value="0.0228185253753" flag="0"/>
			<psa10 value="0.00609657307381" flag="0"/>
			<psa30 value="0.000438921046925" flag="0"/>
		</comp>
		<comp name=".HNZ" depth="0.0">
			<acc value="0.009992736" flag="0"/>
			<vel value="0.004519" flag="0"/>
			<psa03 value="0.0237133695077" flag="0"/>
			<psa10 value="0.00432075489313" flag="0"/>
			<psa30 value="0.000527063193963" flag="0"/>
		</comp>
	</station>
	<station code="GORD" name="GORD" netid="KO" source="Bogazici University Kandilli Observatory And Earthquake Research Institute (KOERI)" insttype="" lat="38.9088" lon="28.1769">
		<comp name=".HNE" depth="0.0">
			<acc value="0.015480438" flag="0"/>
			<vel value="0.020525" flag="0"/>
			<psa03 value="0.0410733456756" flag="0"/>
			<psa10 value="0.036607626033" flag="0"/>
			<psa30 value="0.0035127106416" flag="0"/>
		</comp>
		<comp name=".HNN" depth="0.0">
			<acc value="0.014724006" flag="0"/>
			<vel value="0.016134" flag="0"/>
			<psa03 value="0.0413417989153" flag="0"/>
			<psa10 value="0.0238467012834" flag="0"/>
			<psa30 value="0.00207648580915" flag="0"/>
		</comp>
		<comp name=".HNZ" depth="0.0">
			<acc value="0.014347524" flag="0"/>
			<vel value="0.018014" flag="0"/>
			<psa03 value="0.0258609954254" flag="0"/>
			<psa10 value="0.017725967418" flag="0"/>
			<psa30 value="0.00138611356103" flag="0"/>
		</comp>
	</station>
	<station code="KRBN" name="KRBN" netid="KO" source="Bogazici University Kandilli Observatory And Earthquake Research Institute (KOERI)" insttype="" lat="38.5936" lon="26.5537">
		<comp name=".HNE" depth="0.0">
			<acc value="0.157465254" flag="0"/>
			<vel value="0.090659" flag="0"/>
			<psa03 value="0.426930135552" flag="0"/>
			<psa10 value="0.0778339900552" flag="0"/>
			<psa30 value="0.00836187099489" flag="0"/>
		</comp>
		<comp name=".HNN" depth="0.0">
			<acc value="0.213233244" flag="0"/>
			<vel value="0.10419" flag="0"/>
			<psa03 value="0.462902869673" flag="0"/>
			<psa10 value="0.11070877379" flag="0"/>
			<psa30 value="0.00771579353132" flag="0"/>
		</comp>
		<comp name=".HNZ" depth="0.0">
			<acc value="0.08570652" flag="0"/>
			<vel value="0.062162" flag="0"/>
			<psa03 value="0.172436464307" flag="0"/>
			<psa10 value="0.0727159290401" flag="0"/>
			<psa30 value="0.00322725536338" flag="0"/>
		</comp>
	</station>
	<station code="KUSD" name="KUSD" netid="KO" source="Bogazici University Kandilli Observatory And Earthquake Research Institute (KOERI)" insttype="" lat="37.8606" lon="27.2868">
		<comp name=".HNE" depth="0.0">
			<acc value="0.146765964" flag="0"/>
			<vel value="0.073423" flag="0"/>
			<psa03 value="0.197984264286" flag="0"/>
			<psa10 value="0.060438220122" flag="0"/>
			<psa30 value="0.00508942600283" flag="0"/>
		</comp>
		<comp name=".HNN" depth="0.0">
			<acc value="0.151799766" flag="0"/>
			<vel value="0.042527" flag="0"/>
			<psa03 value="0.210914761999" flag="0"/>
			<psa10 value="0.0318278161" flag="0"/>
			<psa30 value="0.00618292553258" flag="0"/>
		</comp>
		<comp name=".HNZ" depth="0.0">
			<acc value="0.080518086" flag="0"/>
			<vel value="0.030801" flag="0"/>
			<psa03 value="0.118790558572" flag="0"/>
			<psa10 value="0.0318801644817" flag="0"/>
			<psa30 value="0.00407288306846" flag="0"/>
		</comp>
	</station>
	<station code="NAZL" name="NAZL" netid="KO" source="Bogazici University Kandilli Observatory And Earthquake Research Institute (KOERI)" insttype="" lat="37.9641" lon="28.2922">
		<comp name=".HNE" depth="0.0">
			<acc value="0.05450574" flag="0"/>
			<vel value="0.027498" flag="0"/>
			<psa03 value="0.319727808494" flag="0"/>
			<psa10 value="0.0186964258796" flag="0"/>
			<psa30 value="0.0014169856836" flag="0"/>
		</comp>
		<comp name=".HNN" depth="0.0">
			<acc value="0.042761358" flag="0"/>
			<vel value="0.023672" flag="0"/>
			<psa03 value="0.180982225771" flag="0"/>
			<psa10 value="0.0185353539358" flag="0"/>
			<psa30 value="0.00152436697948" flag="0"/>
		</comp>
		<comp name=".HNZ" depth="0.0">
			<acc value="0.018587256" flag="0"/>
			<vel value="0.011828" flag="0"/>
			<psa03 value="0.0656815593156" flag="0"/>
			<psa10 value="0.00833144629439" flag="0"/>
			<psa30 value="0.000982538857337" flag="0"/>
		</comp>
	</station>
	<station code="SOMA" name="SOMA" netid="KO" source="Bogazici University Kandilli Observatory And Earthquake Research Institute (KOERI)" insttype="" lat="39.1564" lon="27.5341">
		<comp name=".HNE" depth="0.0">
			<acc value="0.034240584" flag="0"/>
			<vel value="0.013585" flag="0"/>
			<psa03 value="0.112884587298" flag="0"/>
