<stationlist created="1631873499">
	<station code="KRL1" name="KRL1" netid="HI" source="ITSAK Strong Motion Network" insttype="" lat="37.7951" lon="26.7065">
		<comp name="--.HNE" depth="0.0">
			<acc value="1.655159406" flag="0"/>
			<vel value="-0.547345" flag="0"/>
			<psa03 value="2.17178670925" flag="0"/>
			<psa10 value="0.132775630094" flag="0"/>
			<psa30 value="0.0147206333995" flag="0"/>
		</comp>
		<comp name="--.HNN" depth="0.0">
			<acc value="-0.366293832" flag="0"/>
			<vel value="-0.11247" flag="0"/>
			<psa03 value="0.516996197474" flag="0"/>
			<psa10 value="0.113636256369" flag="0"/>
			<psa30 value="0.00618292553258" flag="0"/>
		</comp>
		<comp name="--.HNZ" depth="0.0">
			<acc value="-0.213922968" flag="0"/>
			<vel value="-0.077086" flag="0"/>
			<psa03 value="0.298430518144" flag="0"/>
			<psa10 value="0.0591214569813" flag="0"/>
			<psa30 value="0.00507600334084" flag="0"/>
		</comp>
	</station>
	<station code="KLNA" name="KLNA" netid="HL" source="National Observatory of Athens Seismic Network" insttype="" lat="36.95708" lon="26.97274">
		<comp name="--.HNE" depth="0.0">
			<acc value="0.031744032" flag="0"/>
			<vel value="0.014503" flag="0"/>
			<psa03 value="0.0803122608798" flag="0"/>
			<psa10 value="0.00633012739235" flag="0"/>
			<psa30 value="0.000584780640501" flag="0"/>
		</comp>
		<comp name="--.HNN" depth="0.0">
			<acc value="0.031466898" flag="0"/>
			<vel value="-0.014474" flag="0"/>
			<psa03 value="0.0825493712107" flag="0"/>
			<psa10 value="0.00933009234611" flag="0"/>
			<psa30 value="0.000617889873398" flag="0"/>
		</comp>
		<comp name="--.HNZ" depth="0.0">
			<acc value="0.033368178" flag="0"/>
			<vel value="-0.009548" flag="0"/>
			<psa03 value="0.0424603540807" flag="0"/>
			<psa10 value="0.00736501463143" flag="0"/>
			<psa30 value="0.000581648686038" flag="0"/>
		</comp>
	</station>
	<station code="CESE" name="CESE" netid="KO" source="Bogazici University Kandilli Observatory And Earthquake Research Institute (KOERI)" insttype="" lat="38.3306" lon="26.2997">
		<comp name="--.HNE" depth="0.0">
			<acc value="-0.016834998" flag="0"/>
			<vel value="0.007804" flag="0"/>
			<psa03 value="0.0247424402599" flag="0"/>
			<psa10 value="0.0060120103033" flag="0"/>
			<psa30 value="0.000464424104698" flag="0"/>
		</comp>
		<comp name="--.HNN" depth="0.0">
			<acc value="0.02583609" flag="0"/>
			<vel value="-0.022333" flag="0"/>
			<psa03 value="0.0760617512511" flag="0"/>
			<psa10 value="0.0287916099589" flag="0"/>
			<psa30 value="0.00190825511227" flag="0"/>
		</comp>
		<comp name="--.HNZ" depth="0.0">
			<acc value="0.017754732" flag="0"/>
			<vel value="-0.007151" flag="0"/>
			<psa03 value="0.0406259236094" flag="0"/>
			<psa10 value="0.0108804098054" flag="0"/>
			<psa30 value="0.000415207677418" flag="0"/>
		</comp>
	</station>
	<station code="GMLD" name="GMLD" netid="KO" source="Bogazici University Kandilli Observatory And Earthquake Research Institute (KOERI)" insttype="" lat="38.0766" lon="26.9157">
		<comp name="--.HNE" depth="0.0">
			<acc value="-0.800611668" flag="0"/>
			<vel value="0.335099" flag="0"/>
			<psa03 value="1.58646916227" flag="0"/>
			<psa10 value="0.195186981528" flag="0"/>
			<psa30 value="0.0132204272116" flag="0"/>
		</comp>
		<comp name="--.HNN" depth="0.0">
			<acc value="0.770771874" flag="0"/>
			<vel value="-0.351398" flag="0"/>
			<psa03 value="2.01313084458" flag="0"/>
			<psa10 value="0.240013303495" flag="0"/>
			<psa30 value="0.0216726774638" flag="0"/>
		</comp>
		<comp name="--.HNZ" depth="0.0">
			<acc value="-0.61166544" flag="0"/>
			<vel value="-0.208527" flag="0"/>
			<psa03 value="1.03618476307" flag="0"/>
			<psa10 value="0.0410934796686" flag="0"/>
			<psa30 value="0.0128020875797" flag="0"/>
		</comp>
	</station>
	<station code="KUSD" name="KUSD" netid="KO" source="Bogazici University Kandilli Observatory And Earthquake Research Institute (KOERI)" insttype="" lat="37.8606" lon="27.2868">
		<comp name="--.HNE" depth="0.0">
			<acc value="-0.146765964" flag="0"/>
			<vel value="0.073423" flag="0"/>
			<psa03 value="0.197984264286" flag="0"/>
			<psa10 value="0.060438220122" flag="0"/>
			<psa30 value="0.00508942600283" flag="0"/>
		</comp>
		<comp name="--.HNN" depth="0.0">
			<acc value="-0.151799766" flag="0"/>
			<vel value="0.042527" flag="0"/>
			<psa03 value="0.210914761999" flag="0"/>
			<psa10 value="0.0318278161" flag="0"/>
			<psa30 value="0.00618292553258" flag="0"/>
		</comp>
		<comp name="--.HNZ" depth="0.0">
			<acc value="-0.080518086" flag="0"/>
			<vel value="0.030801" flag="0"/>
			<psa03 value="0.118790558572" flag="0"/>
			<psa10 value="0.0318801644817" flag="0"/>
			<psa30 value="0.00407288306846" flag="0"/>
		</comp>
	</station>
</stationlist>
