<stationlist created="1739408563">
	<station code="ABEA" name="ABEA" netid="HC" source="Seismological Network of Crete (HC)" insttype="" lat="35.5163" lon="24.0113">
		<comp name=".HNE" depth="0.0">
			<acc value="0.0056147332348158" flag="0"/>
			<vel value="0.00294880589209" flag="0"/>
			<psa03 value="0.0144515341661513" flag="0"/>
			<psa10 value="0.00373386500648202" flag="0"/>
			<psa30 value="0.000988904260053524" flag="0"/>
		</comp>
		<comp name=".HNN" depth="0.0">
			<acc value="0.0053519865644688" flag="0"/>
			<vel value="0.00383867321074" flag="0"/>
			<psa03 value="0.0144999084644326" flag="0"/>
			<psa10 value="0.00409114883103191" flag="0"/>
			<psa30 value="0.00138431295393939" flag="0"/>
		</comp>
		<comp name=".HNZ" depth="0.0">
			<acc value="0.0078186263934516" flag="0"/>
			<vel value="0.00256898210412" flag="0"/>
			<psa03 value="0.00527482241287078" flag="0"/>
			<psa10 value="0.00249500489120468" flag="0"/>
			<psa30 value="0.000829871797851742" flag="0"/>
		</comp>
	</station>
	<station code="ATEI" name="ATEI" netid="HC" source="Seismological Network of Crete (HC)" insttype="" lat="35.5193" lon="24.0432">
		<comp name=".HNE" depth="0.0">
			<acc value="0.014863689094506" flag="0"/>
			<vel value="0.00993595023585" flag="0"/>
			<psa03 value="0.0380576799886829" flag="0"/>
			<psa10 value="0.0162441879727392" flag="0"/>
			<psa30 value="0.00198831359101763" flag="0"/>
		</comp>
		<comp name=".HNN" depth="0.0">
			<acc value="0.0101967621211596" flag="0"/>
			<vel value="0.00913341812971" flag="0"/>
			<psa03 value="0.0269425061629526" flag="0"/>
			<psa10 value="0.015800278565928" flag="0"/>
			<psa30 value="0.00176653806614298" flag="0"/>
		</comp>
		<comp name=".HNZ" depth="0.0">
			<acc value="0.0099682697963568" flag="0"/>
			<vel value="0.00580369035519" flag="0"/>
			<psa03 value="0.0146984489605202" flag="0"/>
			<psa10 value="0.010705243544849" flag="0"/>
			<psa30 value="0.00124265461143602" flag="0"/>
		</comp>
	</station>
	<station code="G0LD" name="G0LD" netid="HC" source="Seismological Network of Crete (HC)" insttype="" lat="35.4955" lon="24.0306">
		<comp name=".HNE" depth="0.0">
			<acc value="0.005133255860241" flag="0"/>
			<vel value="0.00414728808402" flag="0"/>
			<psa03 value="0.0106863211976042" flag="0"/>
			<psa10 value="0.00551156198893212" flag="0"/>
			<psa30 value="0.00178180095223683" flag="0"/>
		</comp>
		<comp name=".HNN" depth="0.0">
			<acc value="0.0079884691802838" flag="0"/>
			<vel value="0.00468019640974" flag="0"/>
			<psa03 value="0.0143240582735628" flag="0"/>
			<psa10 value="0.00470243838845828" flag="0"/>
			<psa30 value="0.00117658283867" flag="0"/>
		</comp>
		<comp name=".HNZ" depth="0.0">
			<acc value="0.0080299914889794" flag="0"/>
			<vel value="0.00525253669178" flag="0"/>
			<psa03 value="0.00540533789482713" flag="0"/>
			<psa10 value="0.00256542072778212" flag="0"/>
			<psa30 value="0.00281399120477502" flag="0"/>
		</comp>
	</station>
	<station code="PASK" name="PASK" netid="HC" source="Seismological Network of Crete (HC)" insttype="" lat="35.4996" lon="24.0121">
		<comp name=".HNE" depth="0.0">
			<acc value="0.022126688590326" flag="0"/>
			<vel value="0.0157294327391" flag="0"/>
			<psa03 value="0.0415097914866275" flag="0"/>
			<psa10 value="0.0284711191969009" flag="0"/>
			<psa30 value="0.00330949298766926" flag="0"/>
		</comp>
		<comp name=".HNN" depth="0.0">
			<acc value="0.01715712951369" flag="0"/>
			<vel value="0.015855424744" flag="0"/>
			<psa03 value="0.0468706361995782" flag="0"/>
			<psa10 value="0.0282354385842537" flag="0"/>
			<psa30 value="0.00323462615310769" flag="0"/>
		</comp>
		<comp name=".HNZ" depth="0.0">
			<acc value="0.037929017175528" flag="0"/>
			<vel value="0.00820596171853" flag="0"/>
			<psa03 value="0.0260707583098094" flag="0"/>
			<psa10 value="0.0141045334186369" flag="0"/>
			<psa30 value="0.00157741876708662" flag="0"/>
		</comp>
	</station>
	<station code="ARK1" name="ARK1" netid="HI" source="ITSAK Strong Motion Network" insttype="" lat="35.148777" lon="25.264194">
		<comp name=".HNE" depth="0.0">
			<acc value="0.02916340086858" flag="0"/>
			<vel value="0.0239033073028" flag="0"/>
			<psa03 value="0.0790005979850327" flag="0"/>
			<psa10 value="0.020765900013972" flag="0"/>
			<psa30 value="0.00535171535821479" flag="0"/>
		</comp>
		<comp name=".HNN" depth="0.0">
			<acc value="0.03082216061346" flag="0"/>
			<vel value="0.0171543405633" flag="0"/>
			<psa03 value="0.0816674465260759" flag="0"/>
			<psa10 value="0.0232728998403982" flag="0"/>
			<psa30 value="0.00238414085429555" flag="0"/>
		</comp>
		<comp name=".HNZ" depth="0.0">
			<acc value="0.01656726729381" flag="0"/>
			<vel value="0.0138666830155" flag="0"/>
			<psa03 value="0.044773757708298" flag="0"/>
			<psa10 value="0.0274445880692627" flag="0"/>
			<psa30 value="0.00211578307691143" flag="0"/>
		</comp>
	</station>
	<station code="CH01" name="CH01" netid="HI" source="ITSAK Strong Motion Network" insttype="" lat="35.517" lon="24.0208">
		<comp name=".HNE" depth="0.0">
			<acc value="0.012271501339932" flag="0"/>
			<vel value="0.00989432396286" flag="0"/>
			<psa03 value="0.0267730652508546" flag="0"/>
			<psa10 value="0.0220353028556855" flag="0"/>
			<psa30 value="0.0018332404015113" flag="0"/>
		</comp>
		<comp name=".HNN" depth="0.0">
			<acc value="0.012779880856752" flag="0"/>
			<vel value="0.00866418781551" flag="0"/>
			<psa03 value="0.0432677881536223" flag="0"/>
			<psa10 value="0.0185437165552253" flag="0"/>
			<psa30 value="0.00204623117777193" flag="0"/>
		</comp>
		<comp name=".HNZ" depth="0.0">
			<acc value="0.008224794398961" flag="0"/>
			<vel value="0.00624339152077" flag="0"/>
			<psa03 value="0.0160109161133618" flag="0"/>
			<psa10 value="0.0103960477496397" flag="0"/>
			<psa30 value="0.000926456164838589" flag="0"/>
		</comp>
	</station>
	<station code="CH02" name="CH02" netid="HI" source="ITSAK Strong Motion Network" insttype="" lat="35.5145" lon="24.0315">
		<comp name=".HNE" depth="0.0">
			<acc value="0.013015229225142" flag="0"/>
			<vel value="0.0131959218343" flag="0"/>
			<psa03 value="0.0345560730243914" flag="0"/>
			<psa10 value="0.0175785469924661" flag="0"/>
			<psa30 value="0.00294403086092988" flag="0"/>
		</comp>
		<comp name=".HNN" depth="0.0">
			<acc value="0.015606399436692" flag="0"/>
			<vel value="0.010073318631" flag="0"/>
			<psa03 value="0.0358386006939277" flag="0"/>
			<psa10 value="0.0156158844757244" flag="0"/>
			<psa30 value="0.00215836152252535" flag="0"/>
		</comp>
		<comp name=".HNZ" depth="0.0">
			<acc value="0.0082753065341544" flag="0"/>
			<vel value="0.00544471612775" flag="0"/>
			<psa03 value="0.0201002234682508" flag="0"/>
			<psa10 value="0.00891997059179033" flag="0"/>
			<psa30 value="0.000824968608456254" flag="0"/>
		</comp>
	</station>
	<station code="CH03" name="CH03" netid="HI" source="ITSAK Strong Motion Network" insttype="" lat="35.53303" lon="24.0705">
		<comp name=".HNE" depth="0.0">
			<acc value="0.009362864100753" flag="0"/>
			<vel value="0.00822581066519" flag="0"/>
			<psa03 value="0.0235491459528461" flag="0"/>
			<psa10 value="0.0121706156185361" flag="0"/>
			<psa30 value="0.00148973785449036" flag="0"/>
		</comp>
		<comp name=".HNN" depth="0.0">
			<acc value="0.012993997290804" flag="0"/>
			<vel value="0.00987309984498" flag="0"/>
			<psa03 value="0.0326506681548429" flag="0"/>
			<psa10 value="0.0163032056323424" flag="0"/>
			<psa30 value="0.00136805052246652" flag="0"/>
		</comp>
		<comp name=".HNZ" depth="0.0">
			<acc value="0.0081538371897126" flag="0"/>
			<vel value="0.00508372182171" flag="0"/>
			<psa03 value="0.0173494045212331" flag="0"/>
			<psa10 value="0.00519942553018368" flag="0"/>
			<psa30 value="0.000872524467131003" flag="0"/>
		</comp>
	</station>
	<station code="GOR1" name="GOR1" netid="HI" source="ITSAK Strong Motion Network" insttype="" lat="35.0582" lon="24.9628">
		<comp name=".HNE" depth="0.0">
			<acc value="0.0101523284190078" flag="0"/>
			<vel value="0.0100209914869" flag="0"/>
			<psa03 value="0.0249583434719488" flag="0"/>
			<psa10 value="0.0151737292476017" flag="0"/>
			<psa30 value="0.00277358581978388" flag="0"/>
		</comp>
		<comp name=".HNN" depth="0.0">
			<acc value="0.0093515201844414" flag="0"/>
			<vel value="0.0117756740179" flag="0"/>
			<psa03 value="0.0191148352744462" flag="0"/>
			<psa10 value="0.0206885848922177" flag="0"/>
			<psa30 value="0.00373550454217559" flag="0"/>
		</comp>
		<comp name=".HNZ" depth="0.0">
			<acc value="0.009888916287258" flag="0"/>
			<vel value="0.00855122594727" flag="0"/>
			<psa03 value="0.0195526090664965" flag="0"/>
			<psa10 value="0.0177631960995831" flag="0"/>
			<psa30 value="0.00156471532137918" flag="0"/>
		</comp>
	</station>
	<station code="KIS1" name="KIS1" netid="HI" source="ITSAK Strong Motion Network" insttype="" lat="35.493933" lon="23.658993">
		<comp name=".HNE" depth="0.0">
			<acc value="0.0072942720465288" flag="0"/>
			<vel value="0.00804281981265" flag="0"/>
			<psa03 value="0.0162703629879502" flag="0"/>
			<psa10 value="0.0123851232661412" flag="0"/>
			<psa30 value="0.00164188762116441" flag="0"/>
		</comp>
		<comp name=".HNN" depth="0.0">
			<acc value="0.0093838224974478" flag="0"/>
			<vel value="0.00679513182877" flag="0"/>
			<psa03 value="0.0183532483647144" flag="0"/>
			<psa10 value="0.0146962991826814" flag="0"/>
			<psa30 value="0.00155947476588461" flag="0"/>
		</comp>
		<comp name=".HNZ" depth="0.0">
			<acc value="0.0088801276564872" flag="0"/>
			<vel value="0.00559427454923" flag="0"/>
			<psa03 value="0.00902362706786843" flag="0"/>
			<psa10 value="0.00971518358321389" flag="0"/>
			<psa30 value="0.0017417470488622" flag="0"/>
		</comp>
	</station>
	<station code="KRL1" name="KRL1" netid="HI" source="ITSAK Strong Motion Network" insttype="" lat="37.7951" lon="26.7065">
		<comp name=".HNE" depth="0.0">
			<acc value="0.065999017877454" flag="0"/>
			<vel value="0.0358015469468" flag="0"/>
			<psa03 value="0.196804474830379" flag="0"/>
			<psa10 value="0.0442962206570571" flag="0"/>
			<psa30 value="0.00414111891213853" flag="0"/>
		</comp>
		<comp name=".HNN" depth="0.0">
			<acc value="0.03497525945049" flag="0"/>
			<vel value="0.0219563292164" flag="0"/>
			<psa03 value="0.12254212823121" flag="0"/>
			<psa10 value="0.0437385549647153" flag="0"/>
			<psa30 value="0.00263002901818355" flag="0"/>
		</comp>
		<comp name=".HNZ" depth="0.0">
			<acc value="0.01628267821224" flag="0"/>
			<vel value="0.0134094161985" flag="0"/>
			<psa03 value="0.0500444349896826" flag="0"/>
			<psa10 value="0.0171182396243604" flag="0"/>
			<psa30 value="0.00239470905438811" flag="0"/>
		</comp>
	</station>
	<station code="KTL1" name="KTL1" netid="HI" source="ITSAK Strong Motion Network" insttype="" lat="35.20778" lon="25.34272">
		<comp name=".HNE" depth="0.0">
			<acc value="0.020065732254378" flag="0"/>
			<vel value="0.0141252438516" flag="0"/>
			<psa03 value="0.0678906432553787" flag="0"/>
			<psa10 value="0.0136505292805599" flag="0"/>
			<psa30 value="0.0034980225601608" flag="0"/>
		</comp>
		<comp name=".HNN" depth="0.0">
			<acc value="0.030132501819" flag="0"/>
			<vel value="0.0144711409767" flag="0"/>
			<psa03 value="0.0636022393780566" flag="0"/>
			<psa10 value="0.0221178270724921" flag="0"/>
			<psa30 value="0.00147653572991061" flag="0"/>
		</comp>
		<comp name=".HNZ" depth="0.0">
			<acc value="0.015663298250202" flag="0"/>
			<vel value="0.00780463461992" flag="0"/>
			<psa03 value="0.0340694340161259" flag="0"/>
			<psa10 value="0.0108474632787225" flag="0"/>
			<psa30 value="0.00131105758029735" flag="0"/>
		</comp>
	</station>
	<station code="NAX1" name="NAX1" netid="HI" source="ITSAK Strong Motion Network" insttype="" lat="37.101394" lon="25.374103">
		<comp name=".HNE" depth="0.0">
			<acc value="0.32958081736086" flag="0"/>
			<vel value="0.121044908955" flag="0"/>
			<psa03 value="0.995261931218065" flag="0"/>
			<psa10 value="0.0560905832258956" flag="0"/>
			<psa30 value="0.00722141921691087" flag="0"/>
		</comp>
		<comp name=".HNN" depth="0.0">
			<acc value="0.23000413476948" flag="0"/>
			<vel value="0.10244492258" flag="0"/>
			<psa03 value="0.385426490946669" flag="0"/>
			<psa10 value="0.0463159319532217" flag="0"/>
			<psa30 value="0.0111949382763655" flag="0"/>
		</comp>
		<comp name=".HNZ" depth="0.0">
			<acc value="0.12330670714446" flag="0"/>
			<vel value="0.0573319507942" flag="0"/>
			<psa03 value="0.421586303023661" flag="0"/>
			<psa10 value="0.0589444360297862" flag="0"/>
			<psa30 value="0.012353951722021" flag="0"/>
		</comp>
	</station>
	<station code="RTH1" name="RTH1" netid="HI" source="ITSAK Strong Motion Network" insttype="" lat="35.365393" lon="24.471773">
		<comp name=".HNE" depth="0.0">
			<acc value="0.010352228001678" flag="0"/>
			<vel value="0.00558929226085" flag="0"/>
			<psa03 value="0.0274198320542889" flag="0"/>
			<psa10 value="0.00543453329239547" flag="0"/>
			<psa30 value="0.00215811421447486" flag="0"/>
		</comp>
		<comp name=".HNN" depth="0.0">
			<acc value="0.012214134793896" flag="0"/>
			<vel value="0.00870952598354" flag="0"/>
			<psa03 value="0.0257473071952367" flag="0"/>
			<psa10 value="0.00629506623601228" flag="0"/>
			<psa30 value="0.00176002305122372" flag="0"/>
		</comp>
		<comp name=".HNZ" depth="0.0">
			<acc value="0.008353835222793" flag="0"/>
			<vel value="0.00457978494258" flag="0"/>
			<psa03 value="0.0144363782142131" flag="0"/>
			<psa10 value="0.00670079717618837" flag="0"/>
			<psa30 value="0.0015382904458611" flag="0"/>
		</comp>
	</station>
	<station code="SFR2" name="SFR2" netid="HI" source="ITSAK Strong Motion Network" insttype="" lat="36.399841" lon="25.438209">
		<comp name=".HNE" depth="0.0">
			<acc value="0.39746547143232" flag="0"/>
			<vel value="0.188746076343" flag="0"/>
			<psa03 value="0.65299154915393" flag="0"/>
			<psa10 value="0.115588529672808" flag="0"/>
			<psa30 value="0.0215519327097827" flag="0"/>
		</comp>
		<comp name=".HNN" depth="0.0">
			<acc value="0.57187228396044" flag="0"/>
			<vel value="0.225971761463" flag="0"/>
			<psa03 value="0.925687155562816" flag="0"/>
			<psa10 value="0.219933064486188" flag="0"/>
			<psa30 value="0.0211739360026697" flag="0"/>
		</comp>
		<comp name=".HNZ" depth="0.0">
			<acc value="0.76815285048678" flag="0"/>
			<vel value="0.21600907162" flag="0"/>
			<psa03 value="0.7427248685431" flag="0"/>
			<psa10 value="0.0869624933383408" flag="0"/>
			<psa30 value="0.0133991034581918" flag="0"/>
		</comp>
	</station>
	<station code="AMGA" name="AMGA" netid="HL" source="National Observatory of Athens Seismic Network" insttype="" lat="36.831561" lon="25.893836">
		<comp name="00.HNE" depth="0.0">
			<acc value="0.76734518586762" flag="0"/>
			<vel value="0.18941888581" flag="0"/>
			<psa03 value="1.00044144100073" flag="0"/>
			<psa10 value="0.068895003955954" flag="0"/>
			<psa30 value="0.0209294198046646" flag="0"/>
		</comp>
		<comp name="00.HNN" depth="0.0">
			<acc value="0.8065944772452" flag="0"/>
			<vel value="0.168639712171" flag="0"/>
			<psa03 value="0.669820497319588" flag="0"/>
			<psa10 value="0.0589644473552042" flag="0"/>
			<psa30 value="0.0186309025391739" flag="0"/>
		</comp>
		<comp name="00.HNZ" depth="0.0">
			<acc value="0.56814732766266" flag="0"/>
			<vel value="0.169599058653" flag="0"/>
			<psa03 value="0.751378191784187" flag="0"/>
			<psa10 value="0.129150890612605" flag="0"/>
			<psa30 value="0.0196376392305605" flag="0"/>
		</comp>
	</station>
	<station code="ANAF" name="ANAF" netid="HL" source="National Observatory of Athens Seismic Network" insttype="" lat="36.35675" lon="25.77262">
		<comp name=".HNE" depth="0.0">
			<acc value="3.028589713836" flag="0"/>
			<vel value="0.886509519772" flag="0"/>
			<psa03 value="2.34427779689724" flag="0"/>
			<psa10 value="0.24912370822291" flag="0"/>
			<psa30 value="0.0289269129326709" flag="0"/>
		</comp>
		<comp name=".HNN" depth="0.0">
			<acc value="3.4976427523584" flag="0"/>
			<vel value="0.953083188109" flag="0"/>
			<psa03 value="3.44823276182951" flag="0"/>
			<psa10 value="0.16317878479374" flag="0"/>
			<psa30 value="0.0385280689621317" flag="0"/>
		</comp>
		<comp name=".HNZ" depth="0.0">
			<acc value="1.9148934996966" flag="0"/>
			<vel value="0.538996037521" flag="0"/>
			<psa03 value="1.18547011490955" flag="0"/>
			<psa10 value="0.0895246105661889" flag="0"/>
			<psa30 value="0.0232341541486669" flag="0"/>
		</comp>
	</station>
	<station code="ASTA" name="ASTA" netid="HL" source="National Observatory of Athens Seismic Network" insttype="" lat="36.54552" lon="26.35295">
		<comp name="00.HNE" depth="0.0">
			<acc value="0.097927269634758" flag="0"/>
			<vel value="0.0477277908171" flag="0"/>
			<psa03 value="0.162742905918658" flag="0"/>
			<psa10 value="0.0601509772069238" flag="0"/>
			<psa30 value="0.00388895804105092" flag="0"/>
		</comp>
		<comp name="00.HNN" depth="0.0">
			<acc value="0.076645543352322" flag="0"/>
			<vel value="0.0331512916377" flag="0"/>
			<psa03 value="0.130661436929116" flag="0"/>
			<psa10 value="0.0388491348145382" flag="0"/>
			<psa30 value="0.0100452929513367" flag="0"/>
		</comp>
		<comp name="00.HNZ" depth="0.0">
			<acc value="0.098279238375516" flag="0"/>
			<vel value="0.0369715723571" flag="0"/>
			<psa03 value="0.150037355905158" flag="0"/>
			<psa10 value="0.0448511786704266" flag="0"/>
			<psa30 value="0.00909530001898101" flag="0"/>
		</comp>
	</station>
	<station code="HERG" name="HERG" netid="HL" source="National Observatory of Athens Seismic Network" insttype="" lat="35.32622" lon="25.06586">
		<comp name="00.HNE" depth="0.0">
			<acc value="0.042257813266656" flag="0"/>
			<vel value="0.0332941483987" flag="0"/>
			<psa03 value="0.067530541275144" flag="0"/>
			<psa10 value="0.0503809799924976" flag="0"/>
			<psa30 value="0.00649699914430791" flag="0"/>
		</comp>
		<comp name="00.HNN" depth="0.0">
			<acc value="0.043765057772088" flag="0"/>
			<vel value="0.0323677037998" flag="0"/>
			<psa03 value="0.0895951644067063" flag="0"/>
			<psa10 value="0.0464927224147626" flag="0"/>
			<psa30 value="0.00715218046353595" flag="0"/>
		</comp>
		<comp name="00.HNZ" depth="0.0">
			<acc value="0.027276452330436" flag="0"/>
			<vel value="0.0170700995039" flag="0"/>
			<psa03 value="0.0535375882691525" flag="0"/>
			<psa10 value="0.0221999762644851" flag="0"/>
			<psa30 value="0.00126417166183648" flag="0"/>
		</comp>
	</station>
	<station code="IACM" name="IACM" netid="HL" source="National Observatory of Athens Seismic Network" insttype="" lat="35.3058" lon="25.0709">
		<comp name=".HNE" depth="0.0">
			<acc value="0.062720001673482" flag="0"/>
			<vel value="0.04259624395" flag="0"/>
			<psa03 value="0.185818476228929" flag="0"/>
			<psa10 value="0.0832582979535725" flag="0"/>
			<psa30 value="0.00676986555371473" flag="0"/>
		</comp>
		<comp name=".HNN" depth="0.0">
			<acc value="0.060036900638058" flag="0"/>
			<vel value="0.0378002618639" flag="0"/>
			<psa03 value="0.19167290572256" flag="0"/>
			<psa10 value="0.0758633030717035" flag="0"/>
			<psa30 value="0.0037751463349194" flag="0"/>
		</comp>
		<comp name=".HNZ" depth="0.0">
			<acc value="0.05619333067269" flag="0"/>
			<vel value="0.0207545346966" flag="0"/>
			<psa03 value="0.0810666671440642" flag="0"/>
			<psa10 value="0.0234830393860928" flag="0"/>
			<psa30 value="0.00152617245560061" flag="0"/>
		</comp>
	</station>
	<station code="KARA" name="KARA" netid="HL" source="National Observatory of Athens Seismic Network" insttype="" lat="38.01581" lon="24.42014">
		<comp name="00.HNE" depth="0.0">
			<acc value="0.015341190473238" flag="0"/>
			<vel value="0.0114058852356" flag="0"/>
			<psa03 value="0.0401373646325927" flag="0"/>
			<psa10 value="0.0237329409408763" flag="0"/>
			<psa30 value="0.00189673752455181" flag="0"/>
		</comp>
		<comp name="00.HNN" depth="0.0">
			<acc value="0.015864495680556" flag="0"/>
			<vel value="0.0119956558717" flag="0"/>
