<?xml version="1.0" encoding="UTF-8" standalone="yes"?>
<!DOCTYPE earthquake SYSTEM "stationlist.dtd">
<stationlist created="" xmlns="ch.ethz.sed.shakemap.usgs.xml">
  <station code="KBS" name="KBS" netid="GE" insttype="" lat="78.9154" lon="11.9385">
    <comp name="10.HH1">
      <acc value="0.0229050060" flag="0"/>
      <vel value="0.0103664640" flag="0"/>
      <psa03 value="0.0472085558" flag="0"/>
      <psa10 value="0.0065291492" flag="0"/>
      <psa30 value="0.0004948786" flag="0"/>
    </comp>
    <comp name="10.HH2">
      <acc value="0.0201191662" flag="0"/>
      <vel value="0.0084675199" flag="0"/>
      <psa03 value="0.0589171014" flag="0"/>
      <psa10 value="0.0044647355" flag="0"/>
      <psa30 value="0.0003475259" flag="0"/>
    </comp>
    <comp name="10.HHZ">
      <acc value="0.0156391160" flag="0"/>
      <vel value="0.0068724454" flag="0"/>
      <psa03 value="0.0442553128" flag="0"/>
      <psa10 value="0.0049960388" flag="0"/>
      <psa30 value="0.0002674534" flag="0"/>
    </comp>
  </station>
</stationlist>
