<?xml version="1.0" encoding="UTF-8" standalone="yes"?>
<!DOCTYPE earthquake SYSTEM "stationlist.dtd">
<stationlist created="" xmlns="ch.ethz.sed.shakemap.usgs.xml">
  <station code="DARE" name="DARE" netid="KO" insttype="CMG-3ESP" lat="38.5712" lon="37.4832">
    <comp name="--.HHN">
      <acc value="0.0000612513" flag="0"/>
      <vel value="0.0000208939" flag="0"/>
      <psa03 value="0.0000874936" flag="0"/>
      <psa10 value="0.0000234645" flag="0"/>
      <psa30 value="0.0000052791" flag="0"/>
    </comp>
    <comp name="--.HHE">
      <acc value="0.1486174818" flag="0"/>
      <vel value="0.0455798042" flag="0"/>
      <psa03 value="0.1742937681" flag="0"/>
      <psa10 value="0.0508664591" flag="0"/>
      <psa30 value="0.0089281496" flag="0"/>
    </comp>
    <comp name="--.HHZ">
      <acc value="0.0783871123" flag="0"/>
      <vel value="0.0503820685" flag="0"/>
      <psa03 value="0.1502724858" flag="0"/>
      <psa10 value="0.0709889418" flag="0"/>
      <psa30 value="0.0062542114" flag="0"/>
    </comp>
  </station>
</stationlist>
