<stationlist xmlns:esm="https://esm-db.eu/esmws/shakemap/1/" created="1784426010">
	<station code="CGAU" name="CGAU" netid="2I" source="INGV temporary seismic network of Osservatorio Vesuviano (Mobile_Seismic_Network_OV)" insttype="" lat="40.852368" lon="14.112998" esm:processing="automatic (Paolucci et al 2011)" esm:quality="best">
		<comp name="--.HNE" depth="0.0">
			<acc value="1.60787491462109" flag="0"/>
			<vel value="0.382436629287723" flag="0"/>
			<psa03 value="1.38753591744486" flag="0"/>
			<psa10 value="0.34091930423076" flag="0"/>
			<psa30 value="0.0609320964523507" flag="0"/>
		</comp>
		<comp name="--.HNN" depth="0.0">
			<acc value="1.40270115900801" flag="0"/>
			<vel value="0.297074573910498" flag="0"/>
			<psa03 value="1.09901588774221" flag="0"/>
			<psa10 value="0.277170451182109" flag="0"/>
			<psa30 value="0.0271125677412179" flag="0"/>
		</comp>
		<comp name="--.HNZ" depth="0.0">
			<acc value="0.859805689801041" flag="0"/>
			<vel value="0.289964697871307" flag="0"/>
			<psa03 value="0.801961125988776" flag="0"/>
			<psa10 value="0.300844839494146" flag="0"/>
			<psa30 value="0.0225346711447022" flag="0"/>
		</comp>
	</station>
	<station code="CREM" name="CREM" netid="2I" source="INGV temporary seismic network of Osservatorio Vesuviano (Mobile_Seismic_Network_OV)" insttype="" lat="40.8235" lon="14.1282" esm:processing="automatic (Paolucci et al 2011)" esm:quality="best">
		<comp name="--.HNE" depth="0.0">
			<acc value="2.30302017866913" flag="0"/>
			<vel value="0.877792450007119" flag="0"/>
			<psa03 value="3.80701386265121" flag="0"/>
			<psa10 value="0.490660003817218" flag="0"/>
			<psa30 value="0.0416317178969928" flag="0"/>
		</comp>
		<comp name="--.HNN" depth="0.0">
			<acc value="1.85662087709505" flag="0"/>
			<vel value="0.800881332367577" flag="0"/>
			<psa03 value="2.67328442530671" flag="0"/>
			<psa10 value="0.556781204022226" flag="0"/>
			<psa30 value="0.0425559391221131" flag="0"/>
		</comp>
		<comp name="--.HNZ" depth="0.0">
			<acc value="1.58247462546876" flag="0"/>
			<vel value="0.525408824979136" flag="0"/>
			<psa03 value="3.45861144936787" flag="0"/>
			<psa10 value="0.508438761572666" flag="0"/>
			<psa30 value="0.0379845562904357" flag="0"/>
		</comp>
	</station>
	<station code="CSOC" name="CSOC" netid="2I" source="INGV temporary seismic network of Osservatorio Vesuviano (Mobile_Seismic_Network_OV)" insttype="" lat="40.841637" lon="14.212459" esm:processing="manual (Paolucci et al 2011)" esm:quality="good">
		<comp name="--.HNE" depth="0.0">
			<acc value="0.0932195794087868" flag="0"/>
			<vel value="0.0785746313977877" flag="0"/>
			<psa03 value="0.35887819058551" flag="0"/>
			<psa10 value="0.08214106894269" flag="0"/>
			<psa30 value="0.0158830921769065" flag="0"/>
		</comp>
		<comp name="--.HNN" depth="0.0">
			<acc value="0.098091359852778" flag="0"/>
			<vel value="0.0862594616941877" flag="0"/>
			<psa03 value="0.307160535378003" flag="0"/>
			<psa10 value="0.0578233555135204" flag="0"/>
			<psa30 value="0.0228397696893168" flag="0"/>
		</comp>
		<comp name="--.HNZ" depth="0.0">
			<acc value="0.0627035383581913" flag="0"/>
			<vel value="0.0581888728319677" flag="0"/>
			<psa03 value="0.150886297560035" flag="0"/>
			<psa10 value="0.0780564033536412" flag="0"/>
			<psa30 value="0.00972917367667443" flag="0"/>
		</comp>
	</station>
	<station code="ATSA" name="ATSA" netid="IT" source="Italian Strong Motion Network (RAN)" insttype="" lat="42.0683" lon="14.4433" esm:processing="automatic (Paolucci et al 2011)" esm:quality="good">
		<comp name="--.HNE" depth="0.0">
			<acc value="0.00486315454353502" flag="0"/>
			<vel value="0.000786800621988832" flag="0"/>
			<psa03 value="0.000762731598188629" flag="0"/>
			<psa10 value="5.77801765300778e-05" flag="0"/>
			<psa30 value="6.34638762080946e-06" flag="0"/>
		</comp>
		<comp name="--.HNN" depth="0.0">
			<acc value="0.00499403982682429" flag="0"/>
			<vel value="0.000766926423042956" flag="0"/>
			<psa03 value="0.000672605469897342" flag="0"/>
			<psa10 value="5.27175462337918e-05" flag="0"/>
			<psa30 value="5.81600214357772e-06" flag="0"/>
		</comp>
		<comp name="--.HNZ" depth="0.0">
			<acc value="0.00592838183594974" flag="0"/>
			<vel value="0.000820637381907425" flag="0"/>
			<psa03 value="0.000617886024690146" flag="0"/>
			<psa10 value="4.897518650442e-05" flag="0"/>
			<psa30 value="5.39403327224216e-06" flag="0"/>
		</comp>
	</station>
	<station code="AVZ" name="AVZ" netid="IT" source="Italian Strong Motion Network (RAN)" insttype="" lat="42.0274" lon="13.4259" esm:processing="automatic (Paolucci et al 2011)" esm:quality="good">
		<comp name="--.HNE" depth="0.0">
			<acc value="0.00621394261251351" flag="0"/>
			<vel value="0.000794738784226842" flag="0"/>
			<psa03 value="0.000745096396739957" flag="0"/>
			<psa10 value="4.72150894378775e-05" flag="0"/>
			<psa30 value="5.18595389555674e-06" flag="0"/>
		</comp>
		<comp name="--.HNN" depth="0.0">
			<acc value="0.00558345588076701" flag="0"/>
			<vel value="0.00076046309669938" flag="0"/>
			<psa03 value="0.000669293889844332" flag="0"/>
			<psa10 value="4.55976776047814e-05" flag="0"/>
			<psa30 value="5.01763097741137e-06" flag="0"/>
		</comp>
		<comp name="--.HNZ" depth="0.0">
			<acc value="0.0109917439689339" flag="0"/>
			<vel value="0.00147231503694852" flag="0"/>
			<psa03 value="0.00122367473106524" flag="0"/>
			<psa10 value="8.99307450681598e-05" flag="0"/>
			<psa30 value="9.86893013537477e-06" flag="0"/>
		</comp>
	</station>
	<station code="BAIP" name="BAIP" netid="IT" source="Italian Strong Motion Network (RAN)" insttype="" lat="40.8183" lon="14.0705" esm:processing="automatic (Paolucci et al 2011)" esm:quality="best">
		<comp name="--.HNE" depth="0.0">
			<acc value="0.074964634944588" flag="0"/>
			<vel value="0.0570704840278611" flag="0"/>
			<psa03 value="0.170178867264762" flag="0"/>
			<psa10 value="0.0819433108421864" flag="0"/>
			<psa30 value="0.0172045947199644" flag="0"/>
		</comp>
		<comp name="--.HNN" depth="0.0">
			<acc value="0.11402828411046" flag="0"/>
			<vel value="0.0677251543886807" flag="0"/>
			<psa03 value="0.220166355773883" flag="0"/>
			<psa10 value="0.0877855078590667" flag="0"/>
			<psa30 value="0.0162779033312079" flag="0"/>
		</comp>
		<comp name="--.HNZ" depth="0.0">
			<acc value="0.0643350826305432" flag="0"/>
			<vel value="0.0461814559343355" flag="0"/>
			<psa03 value="0.128703463472811" flag="0"/>
			<psa10 value="0.0620818713692962" flag="0"/>
			<psa30 value="0.00633024518100934" flag="0"/>
		</comp>
	</station>
	<station code="BAN" name="BAN" netid="IT" source="Italian Strong Motion Network (RAN)" insttype="" lat="40.8138" lon="14.1652" esm:processing="automatic (Paolucci et al 2011)" esm:quality="best">
		<comp name="--.HNE" depth="0.0">
			<acc value="1.41616574248842" flag="0"/>
			<vel value="0.480542898946365" flag="0"/>
			<psa03 value="2.89831199894575" flag="0"/>
			<psa10 value="0.343560829218827" flag="0"/>
			<psa30 value="0.0545278155335038" flag="0"/>
		</comp>
		<comp name="--.HNN" depth="0.0">
			<acc value="1.13870618820359" flag="0"/>
			<vel value="0.827323106642176" flag="0"/>
			<psa03 value="1.12264686984546" flag="0"/>
			<psa10 value="0.51190015087272" flag="0"/>
			<psa30 value="0.102188589492538" flag="0"/>
		</comp>
		<comp name="--.HNZ" depth="0.0">
			<acc value="0.789695383655211" flag="0"/>
			<vel value="0.332591005938548" flag="0"/>
			<psa03 value="1.218710150233" flag="0"/>
			<psa10 value="0.533752818504703" flag="0"/>
			<psa30 value="0.0228885195854248" flag="0"/>
		</comp>
	</station>
	<station code="BCLI" name="BCLI" netid="IT" source="Italian Strong Motion Network (RAN)" insttype="" lat="40.7968" lon="14.0777" esm:processing="automatic (Paolucci et al 2011)" esm:quality="best">
		<comp name="--.HNE" depth="0.0">
			<acc value="0.321600531089212" flag="0"/>
			<vel value="0.194462000000082" flag="0"/>
			<psa03 value="0.6754217433757" flag="0"/>
			<psa10 value="0.339773078298917" flag="0"/>
			<psa30 value="0.0551807754555607" flag="0"/>
		</comp>
		<comp name="--.HNN" depth="0.0">
			<acc value="0.300781775436631" flag="0"/>
			<vel value="0.200384579038318" flag="0"/>
			<psa03 value="0.92967758657749" flag="0"/>
			<psa10 value="0.188468825134708" flag="0"/>
			<psa30 value="0.0501135364425115" flag="0"/>
		</comp>
		<comp name="--.HNZ" depth="0.0">
			<acc value="0.227759040251837" flag="0"/>
			<vel value="0.119642332214324" flag="0"/>
			<psa03 value="0.805242009997906" flag="0"/>
			<psa10 value="0.138939459057283" flag="0"/>
			<psa30 value="0.0100915893516009" flag="0"/>
		</comp>
	</station>
	<station code="BVN" name="BVN" netid="IT" source="Italian Strong Motion Network (RAN)" insttype="" lat="41.249" lon="15.3422" esm:processing="automatic (Paolucci et al 2011)" esm:quality="good">
		<comp name="--.HGE" depth="0.0">
			<acc value="0.0284841018070037" flag="0"/>
			<vel value="0.00259757213880406" flag="0"/>
			<psa03 value="0.00140023598792886" flag="0"/>
			<psa10 value="0.00011496601193016" flag="0"/>
			<psa30 value="1.27059125051273e-05" flag="0"/>
		</comp>
		<comp name="--.HGN" depth="0.0">
			<acc value="0.0410905871433457" flag="0"/>
			<vel value="0.00371210775312548" flag="0"/>
			<psa03 value="0.00161716507195772" flag="0"/>
			<psa10 value="0.000137298030867596" flag="0"/>
			<psa30 value="1.51924501101549e-05" flag="0"/>
		</comp>
		<comp name="--.HGZ" depth="0.0">
			<acc value="0.0691938990182768" flag="0"/>
			<vel value="0.00786648765980752" flag="0"/>
			<psa03 value="0.00429124618806211" flag="0"/>
			<psa10 value="0.000365970923465087" flag="0"/>
			<psa30 value="4.04945282668858e-05" flag="0"/>
		</comp>
	</station>
	<station code="CLT" name="CLT" netid="IT" source="Italian Strong Motion Network (RAN)" insttype="" lat="40.8988" lon="15.4388" esm:processing="automatic (Paolucci et al 2011)" esm:quality="good">
		<comp name="--.HGE" depth="0.0">
			<acc value="0.0106305424127549" flag="0"/>
			<vel value="0.00102970594523882" flag="0"/>
			<psa03 value="0.000557873789082916" flag="0"/>
			<psa10 value="4.10240005976886e-05" flag="0"/>
			<psa30 value="4.51236191011227e-06" flag="0"/>
		</comp>
		<comp name="--.HGN" depth="0.0">
			<acc value="0.0131910734968759" flag="0"/>
			<vel value="0.00134183660007575" flag="0"/>
			<psa03 value="0.000895063525336643" flag="0"/>
			<psa10 value="7.23158721145884e-05" flag="0"/>
			<psa30 value="7.98459550927654e-06" flag="0"/>
		</comp>
		<comp name="--.HGZ" depth="0.0">
			<acc value="0.0101873356867325" flag="0"/>
			<vel value="0.000927284416679816" flag="0"/>
			<psa03 value="0.000471865894216361" flag="0"/>
			<psa10 value="3.96286737891354e-05" flag="0"/>
			<psa30 value="4.39622343851371e-06" flag="0"/>
		</comp>
	</station>
	<station code="MPCD" name="MPCD" netid="IT" source="Italian Strong Motion Network (RAN)" insttype="" lat="40.7944" lon="14.0552" esm:processing="automatic (Paolucci et al 2011)" esm:quality="best">
		<comp name="--.HNE" depth="0.0">
			<acc value="0.108348841266171" flag="0"/>
			<vel value="0.0963529644775463" flag="0"/>
			<psa03 value="0.222453423947592" flag="0"/>
			<psa10 value="0.108083697514513" flag="0"/>
			<psa30 value="0.0183127797984538" flag="0"/>
		</comp>
		<comp name="--.HNN" depth="0.0">
			<acc value="0.134703545046708" flag="0"/>
			<vel value="0.0932012890708642" flag="0"/>
			<psa03 value="0.295877767116645" flag="0"/>
			<psa10 value="0.154287380781774" flag="0"/>
			<psa30 value="0.027451771878494" flag="0"/>
		</comp>
		<comp name="--.HNZ" depth="0.0">
			<acc value="0.100208117723863" flag="0"/>
			<vel value="0.0512415793568457" flag="0"/>
			<psa03 value="0.26314486955616" flag="0"/>
			<psa10 value="0.0918492470618451" flag="0"/>
			<psa30 value="0.00503024322892676" flag="0"/>
		</comp>
	</station>
	<station code="NAAG" name="NAAG" netid="IT" source="Italian Strong Motion Network (RAN)" insttype="" lat="40.8334" lon="14.1657" esm:processing="automatic (Paolucci et al 2011)" esm:quality="best">
		<comp name="--.HNE" depth="0.0">
			<acc value="0.614762864220819" flag="0"/>
			<vel value="0.500061805167634" flag="0"/>
			<psa03 value="1.7708328089828" flag="0"/>
			<psa10 value="0.294879724334542" flag="0"/>
			<psa30 value="0.0420888048434264" flag="0"/>
		</comp>
		<comp name="--.HNN" depth="0.0">
			<acc value="0.775003516154504" flag="0"/>
			<vel value="0.429200590252621" flag="0"/>
			<psa03 value="2.57118299492137" flag="0"/>
			<psa10 value="0.277861186939963" flag="0"/>
			<psa30 value="0.0323880155470778" flag="0"/>
		</comp>
		<comp name="--.HNZ" depth="0.0">
			<acc value="0.301266596020967" flag="0"/>
			<vel value="0.1356725857596" flag="0"/>
			<psa03 value="0.670883484404983" flag="0"/>
			<psa10 value="0.120863674125243" flag="0"/>
			<psa30 value="0.00816320243876531" flag="0"/>
		</comp>
	</station>
	<station code="NACO" name="NACO" netid="IT" source="Italian Strong Motion Network (RAN)" insttype="" lat="40.8049" lon="14.1744" esm:processing="automatic (Paolucci et al 2011)" esm:quality="best">
		<comp name="--.HNE" depth="0.0">
			<acc value="0.434224621316032" flag="0"/>
			<vel value="0.436088638505826" flag="0"/>
			<psa03 value="1.68775630557217" flag="0"/>
			<psa10 value="0.487956194703134" flag="0"/>
			<psa30 value="0.0731712205675902" flag="0"/>
		</comp>
		<comp name="--.HNN" depth="0.0">
			<acc value="0.394039784545662" flag="0"/>
			<vel value="0.379019146634049" flag="0"/>
			<psa03 value="1.43165217326363" flag="0"/>
			<psa10 value="0.294961119726588" flag="0"/>
			<psa30 value="0.07200903691196" flag="0"/>
		</comp>
		<comp name="--.HNZ" depth="0.0">
			<acc value="0.352611338276593" flag="0"/>
			<vel value="0.24279578352684" flag="0"/>
			<psa03 value="1.21789226271863" flag="0"/>
			<psa10 value="0.434751210134023" flag="0"/>
			<psa30 value="0.019008247536445" flag="0"/>
		</comp>
	</station>
	<station code="NAFG" name="NAFG" netid="IT" source="Italian Strong Motion Network (RAN)" insttype="" lat="40.8202" lon="14.1786" esm:processing="automatic (Paolucci et al 2011)" esm:quality="best">
		<comp name="--.HNE" depth="0.0">
			<acc value="0.346749622311856" flag="0"/>
			<vel value="0.265896372544041" flag="0"/>
			<psa03 value="0.505688999414418" flag="0"/>
			<psa10 value="0.309756359838634" flag="0"/>
			<psa30 value="0.0359691161107484" flag="0"/>
		</comp>
		<comp name="--.HNN" depth="0.0">
			<acc value="0.546038169958341" flag="0"/>
			<vel value="0.453638346903837" flag="0"/>
			<psa03 value="0.856042291933936" flag="0"/>
			<psa10 value="0.410525445295996" flag="0"/>
			<psa30 value="0.082325566998114" flag="0"/>
		</comp>
		<comp name="--.HNZ" depth="0.0">
			<acc value="0.316236071436031" flag="0"/>
			<vel value="0.243252955308609" flag="0"/>
			<psa03 value="0.558057176882499" flag="0"/>
			<psa10 value="0.183409289965334" flag="0"/>
			<psa30 value="0.00972872531363925" flag="0"/>
		</comp>
	</station>
	<station code="NAP" name="NAP" netid="IT" source="Italian Strong Motion Network (RAN)" insttype="" lat="40.7992" lon="14.1796" esm:processing="automatic (Paolucci et al 2011)" esm:quality="best">
		<comp name="--.HGE" depth="0.0">
			<acc value="0.266621609190199" flag="0"/>
			<vel value="0.157380310090561" flag="0"/>
			<psa03 value="0.568685589295993" flag="0"/>
			<psa10 value="0.165714222753974" flag="0"/>
			<psa30 value="0.0442541882894525" flag="0"/>
		</comp>
		<comp name="--.HGN" depth="0.0">
			<acc value="0.270830742076838" flag="0"/>
			<vel value="0.199825633830338" flag="0"/>
			<psa03 value="0.771005158641196" flag="0"/>
			<psa10 value="0.243493655259656" flag="0"/>
			<psa30 value="0.0430883910611076" flag="0"/>
		</comp>
		<comp name="--.HGZ" depth="0.0">
			<acc value="0.143087631611742" flag="0"/>
			<vel value="0.0837222271456136" flag="0"/>
			<psa03 value="0.232407916717217" flag="0"/>
			<psa10 value="0.116980516885133" flag="0"/>
			<psa30 value="0.0127517164052963" flag="0"/>
		</comp>
	</station>
	<station code="ORC" name="ORC" netid="IT" source="Italian Strong Motion Network (RAN)" insttype="" lat="41.9536" lon="13.6423" esm:processing="automatic (Paolucci et al 2011)" esm:quality="good">
		<comp name="--.HNE" depth="0.0">
			<acc value="0.00277147538527122" flag="0"/>
			<vel value="0.00019655333936543" flag="0"/>
			<psa03 value="0.000236125017123543" flag="0"/>
			<psa10 value="0.00019684816717812" flag="0"/>
			<psa30 value="6.23618134557522e-05" flag="0"/>
		</comp>
		<comp name="--.HNN" depth="0.0">
			<acc value="0.00689706359377813" flag="0"/>
			<vel value="0.000330890771315048" flag="0"/>
			<psa03 value="0.000282424491300283" flag="0"/>
			<psa10 value="0.000281727686514084" flag="0"/>
			<psa30 value="9.76656690900089e-05" flag="0"/>
		</comp>
		<comp name="--.HNZ" depth="0.0">
			<acc value="0.00276615131293602" flag="0"/>
			<vel value="0.000175803198650183" flag="0"/>
			<psa03 value="0.000213849575013471" flag="0"/>
			<psa10 value="0.000176134783299344" flag="0"/>
			<psa30 value="8.57142588781535e-05" flag="0"/>
		</comp>
	</station>
	<station code="POZB" name="POZB" netid="IT" source="Italian Strong Motion Network (RAN)" insttype="" lat="40.8401" lon="14.1012" esm:processing="automatic (Paolucci et al 2011)" esm:quality="best">
		<comp name="--.HNE" depth="0.0">
			<acc value="0.69781574617995" flag="0"/>
			<vel value="0.307968786246735" flag="0"/>
			<psa03 value="1.68418340221819" flag="0"/>
			<psa10 value="0.283138386528536" flag="0"/>
			<psa30 value="0.0254333748362624" flag="0"/>
		</comp>
		<comp name="--.HNN" depth="0.0">
			<acc value="0.615380593673933" flag="0"/>
			<vel value="0.195707582791682" flag="0"/>
			<psa03 value="0.936264856285112" flag="0"/>
			<psa10 value="0.143491165585502" flag="0"/>
			<psa30 value="0.0254293195676207" flag="0"/>
		</comp>
		<comp name="--.HNZ" depth="0.0">
			<acc value="0.649532697157382" flag="0"/>
			<vel value="0.203429303350883" flag="0"/>
			<psa03 value="0.872926493762777" flag="0"/>
			<psa10 value="0.119665724766977" flag="0"/>
			<psa30 value="0.0122724413223409" flag="0"/>
		</comp>
	</station>
	<station code="POZL" name="POZL" netid="IT" source="Italian Strong Motion Network (RAN)" insttype="" lat="40.8321" lon="14.0843" esm:processing="automatic (Paolucci et al 2011)" esm:quality="best">
		<comp name="--.HNE" depth="0.0">
			<acc value="0.117253851203421" flag="0"/>
			<vel value="0.110349603571663" flag="0"/>
			<psa03 value="0.19619220510406" flag="0"/>
			<psa10 value="0.203957186162613" flag="0"/>
			<psa30 value="0.0239423010599425" flag="0"/>
		</comp>
		<comp name="--.HNN" depth="0.0">
			<acc value="0.134614019612433" flag="0"/>
			<vel value="0.166387756721707" flag="0"/>
			<psa03 value="0.24070015353721" flag="0"/>
			<psa10 value="0.123967567242929" flag="0"/>
			<psa30 value="0.0408387953697668" flag="0"/>
		</comp>
		<comp name="--.HNZ" depth="0.0">
			<acc value="0.203967850645742" flag="0"/>
			<vel value="0.130730812713372" flag="0"/>
			<psa03 value="0.205141672962384" flag="0"/>
			<psa10 value="0.32096387228133" flag="0"/>
			<psa30 value="0.0145243538338263" flag="0"/>
		</comp>
	</station>
	<station code="POZS" name="POZS" netid="IT" source="Italian Strong Motion Network (RAN)" insttype="" lat="40.8288" lon="14.13" esm:processing="automatic (Paolucci et al 2011)" esm:quality="best">
		<comp name="--.HNE" depth="0.0">
			<acc value="2.66214614357706" flag="0"/>
			<vel value="0.805737636204372" flag="0"/>
			<psa03 value="2.42449211070354" flag="0"/>
			<psa10 value="0.396269070881158" flag="0"/>
			<psa30 value="0.0485774646852962" flag="0"/>
		</comp>
		<comp name="--.HNN" depth="0.0">
			<acc value="2.75882991975599" flag="0"/>
			<vel value="0.653886907497002" flag="0"/>
			<psa03 value="2.55635034566448" flag="0"/>
			<psa10 value="0.512273015573176" flag="0"/>
			<psa30 value="0.0301026808215348" flag="0"/>
		</comp>
		<comp name="--.HNZ" depth="0.0">
			<acc value="2.17639203784239" flag="0"/>
			<vel value="0.54797627284059" flag="0"/>
