<?xml version="1.0" encoding="UTF-8" standalone="yes"?>
<!DOCTYPE earthquake SYSTEM "stationlist.dtd">
<stationlist created="" xmlns="ch.ethz.sed.shakemap.usgs.xml">
  <station code="CGAU" name="CGAU" netid="2I" insttype="" commtype="DIG" lat="40.8524" lon="14.113">
    <comp name="--.HHE">
      <acc value="0.6514461784" flag="0"/>
      <vel value="0.1491415231" flag="0"/>
      <psa03 value="0.5115224918" flag="0"/>
      <psa10 value="0.1299421220" flag="0"/>
      <psa30 value="0.0208018119" flag="0"/>
    </comp>
    <comp name="--.HHN">
      <acc value="0.3926362143" flag="0"/>
      <vel value="0.0941536487" flag="0"/>
      <psa03 value="0.4147153488" flag="0"/>
      <psa10 value="0.1057988270" flag="0"/>
      <psa30 value="0.0147771624" flag="0"/>
    </comp>
    <comp name="--.HHZ">
      <acc value="0.3355394839" flag="0"/>
      <vel value="0.1084185502" flag="0"/>
      <psa03 value="0.3049195209" flag="0"/>
      <psa10 value="0.1136783620" flag="0"/>
      <psa30 value="0.0083787840" flag="0"/>
    </comp>
  </station>
  <station code="CLAC" name="CLAC" netid="2I" insttype="" commtype="DIG" lat="40.8836" lon="14.0706">
    <comp name="--.HHE">
      <acc value="0.0726502705" flag="0"/>
      <vel value="0.0618452032" flag="0"/>
      <psa03 value="0.2912707478" flag="0"/>
      <psa10 value="0.0753435430" flag="0"/>
      <psa30 value="0.0094458275" flag="0"/>
    </comp>
    <comp name="--.HHN">
      <acc value="0.0702768283" flag="0"/>
      <vel value="0.0530056029" flag="0"/>
      <psa03 value="0.2988944474" flag="0"/>
      <psa10 value="0.0714384538" flag="0"/>
      <psa30 value="0.0093308858" flag="0"/>
    </comp>
    <comp name="--.HHZ">
      <acc value="0.0800963339" flag="0"/>
      <vel value="0.0464053405" flag="0"/>
      <psa03 value="0.2831543245" flag="0"/>
      <psa10 value="0.0713426000" flag="0"/>
      <psa30 value="0.0062771971" flag="0"/>
    </comp>
  </station>
  <station code="CREM" name="CREM" netid="2I" insttype="" commtype="DIG" lat="40.8235" lon="14.1282">
    <comp name="--.HHZ">
      <acc value="0.0168668910" flag="0"/>
      <vel value="0.0046265786" flag="0"/>
      <psa03 value="0.0297395701" flag="0"/>
      <psa10 value="0.0041918318" flag="0"/>
      <psa30 value="0.0003175948" flag="0"/>
    </comp>
    <comp name="--.HHN">
      <acc value="0.0247593043" flag="0"/>
      <vel value="0.0070270273" flag="0"/>
      <psa03 value="0.0236172486" flag="0"/>
      <psa10 value="0.0045820038" flag="0"/>
      <psa30 value="0.0003453616" flag="0"/>
    </comp>
    <comp name="--.HHE">
      <acc value="0.0259380586" flag="0"/>
      <vel value="0.0083400586" flag="0"/>
      <psa03 value="0.0332800698" flag="0"/>
      <psa10 value="0.0041742334" flag="0"/>
      <psa30 value="0.0003470941" flag="0"/>
    </comp>
  </station>
  <station code="CSOC" name="CSOC" netid="2I" insttype="" commtype="DIG" lat="40.8416" lon="14.2125">
    <comp name="--.HNE">
      <acc value="0.0933463625" flag="0"/>
      <vel value="0.0768947249" flag="0"/>
      <psa03 value="0.3608332611" flag="0"/>
      <psa10 value="0.0818790614" flag="0"/>
      <psa30 value="0.0143951231" flag="0"/>
    </comp>
    <comp name="--.HNZ">
      <acc value="0.0625493863" flag="0"/>
      <vel value="0.0573708164" flag="0"/>
      <psa03 value="0.1505962691" flag="0"/>
      <psa10 value="0.0780694619" flag="0"/>
      <psa30 value="0.0097362903" flag="0"/>
    </comp>
    <comp name="--.HNN">
      <acc value="0.0974141967" flag="0"/>
      <vel value="0.0840094364" flag="0"/>
      <psa03 value="0.3088646515" flag="0"/>
      <psa10 value="0.0579277867" flag="0"/>
      <psa30 value="0.0211693375" flag="0"/>
    </comp>
  </station>
  <station code="CAWE" name="CAWE" netid="IV" insttype="" commtype="DIG" lat="40.8405" lon="14.1393">
    <comp name="--.HHZ">
      <acc value="0.7681961608" flag="0"/>
      <vel value="0.3509946566" flag="0"/>
      <psa03 value="1.6311780416" flag="0"/>
      <psa10 value="0.4517647227" flag="0"/>
      <psa30 value="0.0209468441" flag="0"/>
    </comp>
    <comp name="--.HHN">
      <acc value="1.0489661972" flag="0"/>
      <vel value="0.5188593601" flag="0"/>
      <psa03 value="2.2442301684" flag="0"/>
      <psa10 value="0.7072616868" flag="0"/>
      <psa30 value="0.0466385135" flag="0"/>
    </comp>
    <comp name="--.HHE">
      <acc value="0.9008280918" flag="0"/>
      <vel value="0.5311822063" flag="0"/>
      <psa03 value="2.2455882434" flag="0"/>
      <psa10 value="0.5051326307" flag="0"/>
      <psa30 value="0.0458910782" flag="0"/>
    </comp>
  </station>
  <station code="CBAC" name="CBAC" netid="IV" insttype="" commtype="DIG" lat="40.8109" lon="14.0806">
    <comp name="--.HHE">
      <acc value="0.1198106889" flag="0"/>
      <vel value="0.1503986667" flag="0"/>
      <psa03 value="0.2151671573" flag="0"/>
      <psa10 value="0.1666704606" flag="0"/>
      <psa30 value="0.0419034394" flag="0"/>
    </comp>
    <comp name="--.HHN">
      <acc value="0.1226137977" flag="0"/>
      <vel value="0.1503733263" flag="0"/>
      <psa03 value="0.2994045319" flag="0"/>
      <psa10 value="0.4251868050" flag="0"/>
      <psa30 value="0.0464585140" flag="0"/>
    </comp>
    <comp name="--.HHZ">
      <acc value="0.0921795537" flag="0"/>
      <vel value="0.1108135412" flag="0"/>
      <psa03 value="0.2360343012" flag="0"/>
      <psa10 value="0.1653872121" flag="0"/>
      <psa30 value="0.0145245906" flag="0"/>
    </comp>
  </station>
  <station code="CFMN" name="CFMN" netid="IV" insttype="" commtype="DIG" lat="40.8329" lon="14.0904">
    <comp name="--.HHE">
      <acc value="0.3280024081" flag="0"/>
      <vel value="0.0802716959" flag="0"/>
      <psa03 value="0.4985663919" flag="0"/>
      <psa10 value="0.0977604972" flag="0"/>
      <psa30 value="0.0136069712" flag="0"/>
    </comp>
    <comp name="--.HHN">
      <acc value="0.3508190673" flag="0"/>
      <vel value="0.1479457983" flag="0"/>
      <psa03 value="0.3762435872" flag="0"/>
      <psa10 value="0.1327283897" flag="0"/>
      <psa30 value="0.0293727624" flag="0"/>
    </comp>
    <comp name="--.HHZ">
      <acc value="0.1747516964" flag="0"/>
      <vel value="0.1030139753" flag="0"/>
      <psa03 value="0.2592288512" flag="0"/>
      <psa10 value="0.2712851307" flag="0"/>
      <psa30 value="0.0099003369" flag="0"/>
    </comp>
  </station>
  <station code="CMIS" name="CMIS" netid="IV" insttype="" commtype="DIG" lat="40.7782" lon="14.089">
    <comp name="--.HHN">
      <acc value="0.1974763845" flag="0"/>
      <vel value="0.1329549676" flag="0"/>
      <psa03 value="0.4771525816" flag="0"/>
      <psa10 value="0.1484438829" flag="0"/>
      <psa30 value="0.0387524500" flag="0"/>
    </comp>
    <comp name="--.HHE">
      <acc value="0.2011781894" flag="0"/>
      <vel value="0.1931600921" flag="0"/>
      <psa03 value="0.5488949097" flag="0"/>
      <psa10 value="0.1314156338" flag="0"/>
      <psa30 value="0.0384287980" flag="0"/>
    </comp>
    <comp name="--.HHZ">
      <acc value="0.0865598734" flag="0"/>
      <vel value="0.0842100592" flag="0"/>
      <psa03 value="0.3001195389" flag="0"/>
      <psa10 value="0.0962367888" flag="0"/>
      <psa30 value="0.0105894322" flag="0"/>
    </comp>
  </station>
  <station code="CNIS" name="CNIS" netid="IV" insttype="" commtype="DIG" lat="40.7982" lon="14.1632">
    <comp name="--.HHE">
      <acc value="0.2063827700" flag="0"/>
      <vel value="0.2284103669" flag="0"/>
      <psa03 value="0.3563247804" flag="0"/>
      <psa10 value="0.3341224196" flag="0"/>
      <psa30 value="0.0653508406" flag="0"/>
    </comp>
    <comp name="--.HHN">
      <acc value="0.1290519451" flag="0"/>
      <vel value="0.1053533113" flag="0"/>
      <psa03 value="0.2627813537" flag="0"/>
      <psa10 value="0.2352035586" flag="0"/>
      <psa30 value="0.0300610444" flag="0"/>
    </comp>
    <comp name="--.HHZ">
      <acc value="0.1046152220" flag="0"/>
      <vel value="0.1581340120" flag="0"/>
      <psa03 value="0.1784293307" flag="0"/>
      <psa10 value="0.2156254640" flag="0"/>
      <psa30 value="0.0237098220" flag="0"/>
    </comp>
  </station>
  <station code="CPIS" name="CPIS" netid="IV" insttype="" commtype="DIG" lat="40.8294" lon="14.1468">
    <comp name="--.HHE">
      <acc value="1.8269209713" flag="0"/>
      <vel value="0.4212171263" flag="0"/>
      <psa03 value="1.0277530417" flag="0"/>
      <psa10 value="0.4894104656" flag="0"/>
      <psa30 value="0.0281616458" flag="0"/>
    </comp>
    <comp name="--.HHZ">
      <acc value="2.5410842406" flag="0"/>
      <vel value="0.4696403319" flag="0"/>
      <psa03 value="1.7035610914" flag="0"/>
      <psa10 value="0.3731424535" flag="0"/>
      <psa30 value="0.0194944808" flag="0"/>
    </comp>
    <comp name="--.HHN">
      <acc value="2.7443868111" flag="0"/>
      <vel value="0.4044305753" flag="0"/>
      <psa03 value="1.4594886960" flag="0"/>
      <psa10 value="0.3767644731" flag="0"/>
      <psa30 value="0.0400007790" flag="0"/>
    </comp>
  </station>
  <station code="CPOZ" name="CPOZ" netid="IV" insttype="" commtype="DIG" lat="40.8211" lon="14.1191">
    <comp name="--.HHN">
      <acc value="0.4786632079" flag="0"/>
      <vel value="0.2915586596" flag="0"/>
      <psa03 value="0.5712616120" flag="0"/>
      <psa10 value="0.4627592040" flag="0"/>
      <psa30 value="0.0859765399" flag="0"/>
    </comp>
    <comp name="--.HHE">
      <acc value="0.3879392174" flag="0"/>
      <vel value="0.3086992860" flag="0"/>
      <psa03 value="1.0057545202" flag="0"/>
      <psa10 value="0.6478912404" flag="0"/>
      <psa30 value="0.0423478446" flag="0"/>
    </comp>
    <comp name="--.HHZ">
      <acc value="0.3629957726" flag="0"/>
      <vel value="0.2903797700" flag="0"/>
      <psa03 value="0.9937582240" flag="0"/>
      <psa10 value="0.4758106707" flag="0"/>
      <psa30 value="0.0299562575" flag="0"/>
    </comp>
  </station>
  <station code="CSFT" name="CSFT" netid="IV" insttype="" commtype="DIG" lat="40.8292" lon="14.1396">
    <comp name="--.HHE">
      <acc value="6.9616432942" flag="0"/>
      <vel value="2.0229064102" flag="0"/>
      <psa03 value="11.2241302367" flag="0"/>
      <psa10 value="0.3357123310" flag="0"/>
      <psa30 value="0.0435145235" flag="0"/>
    </comp>
    <comp name="--.HHZ">
      <acc value="5.9783477356" flag="0"/>
      <vel value="1.0443657188" flag="0"/>
      <psa03 value="3.3563509376" flag="0"/>
      <psa10 value="0.2621775827" flag="0"/>
      <psa30 value="0.0240022905" flag="0"/>
    </comp>
    <comp name="--.HHN">
      <acc value="6.8937610096" flag="0"/>
      <vel value="1.8276262729" flag="0"/>
      <psa03 value="10.1506229081" flag="0"/>
      <psa10 value="0.3624547461" flag="0"/>
      <psa30 value="0.0541971824" flag="0"/>
    </comp>
  </station>
  <station code="CSOB" name="CSOB" netid="IV" insttype="" commtype="DIG" lat="40.8265" lon="14.144">
    <comp name="--.HNE">
      <acc value="3.5655887418" flag="0"/>
      <vel value="0.6794928757" flag="0"/>
      <psa03 value="4.0840981221" flag="0"/>
      <psa10 value="0.7457046946" flag="0"/>
      <psa30 value="0.0429734100" flag="0"/>
    </comp>
    <comp name="--.HNN">
      <acc value="2.9017191894" flag="0"/>
      <vel value="0.9367118845" flag="0"/>
      <psa03 value="3.0880689241" flag="0"/>
      <psa10 value="0.6989120156" flag="0"/>
      <psa30 value="0.0848891320" flag="0"/>
    </comp>
    <comp name="--.HNZ">
      <acc value="2.5116036619" flag="0"/>
      <vel value="0.5850371108" flag="0"/>
      <psa03 value="3.2358707068" flag="0"/>
      <psa10 value="0.4959731122" flag="0"/>
      <psa30 value="0.0341624513" flag="0"/>
    </comp>
  </station>
  <station code="CSTH" name="CSTH" netid="IV" insttype="" commtype="DIG" lat="40.8294" lon="14.1493">
    <comp name="--.HNE">
      <acc value="2.1903288942" flag="0"/>
      <vel value="0.4819853811" flag="0"/>
      <psa03 value="1.7377556508" flag="0"/>
      <psa10 value="0.3219115828" flag="0"/>
      <psa30 value="0.0289717349" flag="0"/>
    </comp>
    <comp name="--.HNN">
      <acc value="2.5181231038" flag="0"/>
      <vel value="0.5676751510" flag="0"/>
      <psa03 value="2.0993275121" flag="0"/>
      <psa10 value="0.2404189816" flag="0"/>
      <psa30 value="0.0362669586" flag="0"/>
    </comp>
    <comp name="--.HNZ">
      <acc value="1.8183827492" flag="0"/>
      <vel value="0.4004236466" flag="0"/>
      <psa03 value="1.4866438370" flag="0"/>
      <psa10 value="0.2303823517" flag="0"/>
      <psa30 value="0.0158256212" flag="0"/>
    </comp>
  </station>
  <station code="CUMA" name="CUMA" netid="IV" insttype="" commtype="DIG" lat="40.8479" lon="14.0534">
    <comp name="--.HHE">
      <acc value="0.0427804328" flag="0"/>
      <vel value="0.0313356571" flag="0"/>
      <psa03 value="0.1158598042" flag="0"/>
      <psa10 value="0.0382746535" flag="0"/>
      <psa30 value="0.0061553253" flag="0"/>
    </comp>
    <comp name="--.HHN">
      <acc value="0.0425039518" flag="0"/>
      <vel value="0.0692793987" flag="0"/>
      <psa03 value="0.0936303062" flag="0"/>
      <psa10 value="0.0814924752" flag="0"/>
      <psa30 value="0.0149933522" flag="0"/>
    </comp>
    <comp name="--.HHZ">
      <acc value="0.0315764671" flag="0"/>
      <vel value="0.0237211504" flag="0"/>
      <psa03 value="0.0622353078" flag="0"/>
      <psa10 value="0.0513235783" flag="0"/>
      <psa30 value="0.0041812708" flag="0"/>
    </comp>
  </station>
  <station code="IBRN" name="IBRN" netid="IV" insttype="" commtype="DIG" lat="40.714" lon="13.9269">
    <comp name="--.HHE">
      <acc value="0.0067532415" flag="0"/>
      <vel value="0.0052946071" flag="0"/>
      <psa03 value="0.0150937361" flag="0"/>
      <psa10 value="0.0097045051" flag="0"/>
      <psa30 value="0.0008372101" flag="0"/>
    </comp>
    <comp name="--.HHN">
      <acc value="0.0072383700" flag="0"/>
      <vel value="0.0038084761" flag="0"/>
      <psa03 value="0.0131641098" flag="0"/>
      <psa10 value="0.0093205210" flag="0"/>
      <psa30 value="0.0008193496" flag="0"/>
    </comp>
    <comp name="--.HHZ">
      <acc value="0.0066474232" flag="0"/>
      <vel value="0.0029185251" flag="0"/>
      <psa03 value="0.0102147102" flag="0"/>
      <psa10 value="0.0042775103" flag="0"/>
      <psa30 value="0.0003516028" flag="0"/>
    </comp>
  </station>
  <station code="IFOR" name="IFOR" netid="IV" insttype="" commtype="DIG" lat="40.7115" lon="13.8552">
    <comp name="--.HHE">
      <acc value="0.0040006073" flag="0"/>
      <vel value="0.0048686558" flag="0"/>
      <psa03 value="0.0118266248" flag="0"/>
      <psa10 value="0.0158259527" flag="0"/>
      <psa30 value="0.0012925585" flag="0"/>
    </comp>
    <comp name="--.HHN">
      <acc value="0.0065980729" flag="0"/>
      <vel value="0.0076757217" flag="0"/>
      <psa03 value="0.0172896360" flag="0"/>
      <psa10 value="0.0145485280" flag="0"/>
      <psa30 value="0.0011505326" flag="0"/>
    </comp>
    <comp name="--.HHZ">
      <acc value="0.0028357428" flag="0"/>
      <vel value="0.0022906172" flag="0"/>
      <psa03 value="0.0060986694" flag="0"/>
      <psa10 value="0.0041139476" flag="0"/>
      <psa30 value="0.0003629789" flag="0"/>
    </comp>
  </station>
  <station code="PTMR" name="PTMR" netid="IV" insttype="" commtype="DIG" lat="40.7614" lon="14.0349">
    <comp name="--.HHE">
      <acc value="0.0354619650" flag="0"/>
      <vel value="0.0398823861" flag="0"/>
      <psa03 value="0.0966866278" flag="0"/>
      <psa10 value="0.0533322913" flag="0"/>
      <psa30 value="0.0170334034" flag="0"/>
    </comp>
    <comp name="--.HHN">
      <acc value="0.0410438735" flag="0"/>
      <vel value="0.0520972396" flag="0"/>
      <psa03 value="0.0985307371" flag="0"/>
      <psa10 value="0.0537081544" flag="0"/>
      <psa30 value="0.0106772754" flag="0"/>
    </comp>
    <comp name="--.HHZ">
      <acc value="0.0276037424" flag="0"/>
      <vel value="0.0367734974" flag="0"/>
      <psa03 value="0.0690187012" flag="0"/>
      <psa10 value="0.0432144760" flag="0"/>
      <psa30 value="0.0052549563" flag="0"/>
    </comp>
  </station>
  <station code="SORR" name="SORR" netid="IV" insttype="" commtype="DIG" lat="40.5826" lon="14.3357">
    <comp name="--.HHE">
      <acc value="0.0016485848" flag="0"/>
      <vel value="0.0010113008" flag="0"/>
      <psa03 value="0.0063390053" flag="0"/>
      <psa10 value="0.0008176293" flag="0"/>
      <psa30 value="0.0005221580" flag="0"/>
    </comp>
    <comp name="--.HHZ">
      <acc value="0.0009176433" flag="0"/>
      <vel value="0.0004163047" flag="0"/>
      <psa03 value="0.0033307309" flag="0"/>
      <psa10 value="0.0006242004" flag="0"/>
      <psa30 value="0.0002221961" flag="0"/>
    </comp>
    <comp name="--.HHN">
      <acc value="0.0013438075" flag="0"/>
      <vel value="0.0006194325" flag="0"/>
      <psa03 value="0.0039166342" flag="0"/>
      <psa10 value="0.0010139430" flag="0"/>
      <psa30 value="0.0001655045" flag="0"/>
    </comp>
  </station>
  <station code="VBKE" name="VBKE" netid="IV" insttype="" commtype="DIG" lat="40.8185" lon="14.4386">
    <comp name="--.HHE">
      <acc value="0.0040810919" flag="0"/>
      <vel value="0.0052918299" flag="0"/>
      <psa03 value="0.0119117989" flag="0"/>
      <psa10 value="0.0086025356" flag="0"/>
      <psa30 value="0.0016921685" flag="0"/>
    </comp>
    <comp name="--.HHN">
      <acc value="0.0035545322" flag="0"/>
      <vel value="0.0044387052" flag="0"/>
      <psa03 value="0.0101241301" flag="0"/>
      <psa10 value="0.0074240269" flag="0"/>
      <psa30 value="0.0022927783" flag="0"/>
    </comp>
    <comp name="--.HHZ">
      <acc value="0.0030233016" flag="0"/>
      <vel value="0.0025643831" flag="0"/>
      <psa03 value="0.0102522247" flag="0"/>
      <psa10 value="0.0032724762" flag="0"/>
      <psa30 value="0.0010835978" flag="0"/>
    </comp>
  </station>
</stationlist>
