<stationlist created="1767924006">
	<station code="BAIP" name="BAIP" netid="IT" source="Italian Strong Motion Network (RAN)" insttype="" lat="40.8183" lon="14.0705">
		<comp name="--.HNE" depth="0.0">
			<acc value="0.075177963398394" flag="0"/>
			<vel value="0.0570740545253" flag="0"/>
			<psa03 value="0.170179461053937" flag="0"/>
			<psa10 value="0.0819423657797336" flag="0"/>
			<psa30 value="0.0172021978945348" flag="0"/>
		</comp>
		<comp name="--.HNN" depth="0.0">
			<acc value="0.11420543842098" flag="0"/>
			<vel value="0.0677741782973" flag="0"/>
			<psa03 value="0.220164688996587" flag="0"/>
			<psa10 value="0.087777699841632" flag="0"/>
			<psa30 value="0.01627463811492" flag="0"/>
		</comp>
		<comp name="--.HNZ" depth="0.0">
			<acc value="0.064551211700442" flag="0"/>
			<vel value="0.0461802560694" flag="0"/>
			<psa03 value="0.128709213853532" flag="0"/>
			<psa10 value="0.0620812113256958" flag="0"/>
			<psa30 value="0.00632757958775468" flag="0"/>
		</comp>
	</station>
	<station code="BAN" name="BAN" netid="IT" source="Italian Strong Motion Network (RAN)" insttype="" lat="40.8138" lon="14.1652">
		<comp name="--.HNE" depth="0.0">
			<acc value="1.3978927343784" flag="0"/>
			<vel value="0.479735997075" flag="0"/>
			<psa03 value="2.89804998158743" flag="0"/>
			<psa10 value="0.343501725303565" flag="0"/>
			<psa30 value="0.0543443500466226" flag="0"/>
		</comp>
		<comp name="--.HNN" depth="0.0">
			<acc value="1.122412755138" flag="0"/>
			<vel value="0.825128055217" flag="0"/>
			<psa03 value="1.12261028408849" flag="0"/>
			<psa10 value="0.51167459593262" flag="0"/>
			<psa30 value="0.102009044265144" flag="0"/>
		</comp>
		<comp name="--.HNZ" depth="0.0">
			<acc value="0.78153333556632" flag="0"/>
			<vel value="0.33239963568" flag="0"/>
			<psa03 value="1.21889341237523" flag="0"/>
			<psa10 value="0.533725636703392" flag="0"/>
			<psa30 value="0.0228422215184056" flag="0"/>
		</comp>
	</station>
	<station code="BCLI" name="BCLI" netid="IT" source="Italian Strong Motion Network (RAN)" insttype="" lat="40.7968" lon="14.0777">
		<comp name="--.HNE" depth="0.0">
			<acc value="0.3213742129101" flag="0"/>
			<vel value="0.194554869313" flag="0"/>
			<psa03 value="0.675417576434408" flag="0"/>
			<psa10 value="0.339818711321955" flag="0"/>
			<psa30 value="0.054966611268059" flag="0"/>
		</comp>
		<comp name="--.HNN" depth="0.0">
			<acc value="0.30026645507754" flag="0"/>
			<vel value="0.200480069269" flag="0"/>
			<psa03 value="0.929671086144712" flag="0"/>
			<psa10 value="0.18849414681228" flag="0"/>
			<psa30 value="0.0498628031661313" flag="0"/>
		</comp>
		<comp name="--.HNZ" depth="0.0">
			<acc value="0.2278521111234" flag="0"/>
			<vel value="0.119514784842" flag="0"/>
			<psa03 value="0.805229175812764" flag="0"/>
			<psa10 value="0.138926498198805" flag="0"/>
			<psa30 value="0.0100885374827442" flag="0"/>
		</comp>
	</station>
	<station code="NAAG" name="NAAG" netid="IT" source="Italian Strong Motion Network (RAN)" insttype="" lat="40.8334" lon="14.1657">
		<comp name="--.HNE" depth="0.0">
			<acc value="0.61467501765966" flag="0"/>
			<vel value="0.5000764147" flag="0"/>
			<psa03 value="1.77080880739219" flag="0"/>
			<psa10 value="0.294850382390842" flag="0"/>
			<psa30 value="0.0420630231355115" flag="0"/>
		</comp>
		<comp name="--.HNN" depth="0.0">
			<acc value="0.77453736160122" flag="0"/>
			<vel value="0.429229623786" flag="0"/>
			<psa03 value="2.57117266090177" flag="0"/>
			<psa10 value="0.277845465898468" flag="0"/>
			<psa30 value="0.0323884655768768" flag="0"/>
		</comp>
		<comp name="--.HNZ" depth="0.0">
			<acc value="0.30079431305598" flag="0"/>
			<vel value="0.135613709922" flag="0"/>
			<psa03 value="0.670878650752192" flag="0"/>
			<psa10 value="0.120864814200813" flag="0"/>
			<psa30 value="0.00815926301115069" flag="0"/>
		</comp>
	</station>
	<station code="NACO" name="NACO" netid="IT" source="Italian Strong Motion Network (RAN)" insttype="" lat="40.8049" lon="14.1744">
		<comp name="--.HNE" depth="0.0">
			<acc value="0.43242913047228" flag="0"/>
			<vel value="0.434883219383" flag="0"/>
			<psa03 value="1.68778230729455" flag="0"/>
			<psa10 value="0.4878962507312" flag="0"/>
			<psa30 value="0.0729439855141972" flag="0"/>
		</comp>
		<comp name="--.HNN" depth="0.0">
			<acc value="0.39436293949782" flag="0"/>
			<vel value="0.379211489463" flag="0"/>
			<psa03 value="1.43162517147383" flag="0"/>
			<psa10 value="0.294836461468637" flag="0"/>
			<psa30 value="0.0718573735317253" flag="0"/>
		</comp>
		<comp name="--.HNZ" depth="0.0">
			<acc value="0.35230794411012" flag="0"/>
			<vel value="0.24303345302" flag="0"/>
			<psa03 value="1.21787809511335" flag="0"/>
			<psa10 value="0.434721418162064" flag="0"/>
			<psa30 value="0.0190026721670867" flag="0"/>
		</comp>
	</station>
	<station code="NAFG" name="NAFG" netid="IT" source="Italian Strong Motion Network (RAN)" insttype="" lat="40.8202" lon="14.1786">
		<comp name="--.HNE" depth="0.0">
			<acc value="0.34611122252226" flag="0"/>
			<vel value="0.266210805067" flag="0"/>
			<psa03 value="0.505659539128448" flag="0"/>
			<psa10 value="0.3096986360146" flag="0"/>
			<psa30 value="0.0359200828625274" flag="0"/>
		</comp>
		<comp name="--.HNN" depth="0.0">
			<acc value="0.54348372164466" flag="0"/>
			<vel value="0.453821985946" flag="0"/>
			<psa03 value="0.856048792364056" flag="0"/>
			<psa10 value="0.410508254158413" flag="0"/>
			<psa30 value="0.0820939249863671" flag="0"/>
		</comp>
		<comp name="--.HNZ" depth="0.0">
			<acc value="0.31608726124722" flag="0"/>
			<vel value="0.243221657829" flag="0"/>
			<psa03 value="0.558066135811433" flag="0"/>
			<psa10 value="0.183397589190035" flag="0"/>
			<psa30 value="0.00970679386079045" flag="0"/>
		</comp>
	</station>
	<station code="NAP" name="NAP" netid="IT" source="Italian Strong Motion Network (RAN)" insttype="" lat="40.7992" lon="14.1796">
		<comp name="--.HGE" depth="0.0">
			<acc value="0.2684828565462" flag="0"/>
			<vel value="0.156390732981" flag="0"/>
			<psa03 value="0.56873450920354" flag="0"/>
			<psa10 value="0.165436929384743" flag="0"/>
			<psa30 value="0.0433398843879779" flag="0"/>
		</comp>
		<comp name="--.HGN" depth="0.0">
			<acc value="0.26718063033594" flag="0"/>
			<vel value="0.199447751485" flag="0"/>
			<psa03 value="0.770975323329444" flag="0"/>
			<psa10 value="0.243440956768575" flag="0"/>
			<psa30 value="0.0424934349815299" flag="0"/>
		</comp>
		<comp name="--.HGZ" depth="0.0">
			<acc value="0.1416002238729" flag="0"/>
			<vel value="0.0834189273575" flag="0"/>
			<psa03 value="0.232376831324518" flag="0"/>
			<psa10 value="0.116874092334853" flag="0"/>
			<psa30 value="0.012569915195196" flag="0"/>
		</comp>
	</station>
	<station code="POZB" name="POZB" netid="IT" source="Italian Strong Motion Network (RAN)" insttype="" lat="40.8401" lon="14.1012">
		<comp name="--.HNE" depth="0.0">
			<acc value="0.69616110978186" flag="0"/>
			<vel value="0.307854354365" flag="0"/>
			<psa03 value="1.68418423560542" flag="0"/>
			<psa10 value="0.283107154459402" flag="0"/>
			<psa30 value="0.0253629301696398" flag="0"/>
		</comp>
		<comp name="--.HNN" depth="0.0">
			<acc value="0.61537556350164" flag="0"/>
			<vel value="0.195487222635" flag="0"/>
			<psa03 value="0.936248105176313" flag="0"/>
			<psa10 value="0.143478879771521" flag="0"/>
			<psa30 value="0.0253658153607666" flag="0"/>
		</comp>
		<comp name="--.HNZ" depth="0.0">
			<acc value="0.64869130738776" flag="0"/>
			<vel value="0.203395205836" flag="0"/>
			<psa03 value="0.872950578689988" flag="0"/>
			<psa10 value="0.11966562726058" flag="0"/>
			<psa30 value="0.0122388382629537" flag="0"/>
		</comp>
	</station>
	<station code="POZL" name="POZL" netid="IT" source="Italian Strong Motion Network (RAN)" insttype="" lat="40.8321" lon="14.0843">
		<comp name="--.HNE" depth="0.0">
			<acc value="0.11659748965026" flag="0"/>
			<vel value="0.110255998749" flag="0"/>
			<psa03 value="0.19618576717772" flag="0"/>
			<psa10 value="0.203930424389701" flag="0"/>
			<psa30 value="0.0238585055089074" flag="0"/>
		</comp>
		<comp name="--.HNN" depth="0.0">
			<acc value="0.13444438608606" flag="0"/>
			<vel value="0.166276183721" flag="0"/>
			<psa03 value="0.240709737505654" flag="0"/>
			<psa10 value="0.123877936305427" flag="0"/>
			<psa30 value="0.0407411689024884" flag="0"/>
		</comp>
		<comp name="--.HNZ" depth="0.0">
			<acc value="0.20358542022378" flag="0"/>
			<vel value="0.130739548223" flag="0"/>
			<psa03 value="0.20511746302541" flag="0"/>
			<psa10 value="0.320948721277644" flag="0"/>
			<psa30 value="0.0145501155404082" flag="0"/>
		</comp>
	</station>
	<station code="POZM" name="POZM" netid="IT" source="Italian Strong Motion Network (RAN)" insttype="" lat="40.8239" lon="14.1435">
		<comp name="--.HNE" depth="0.0">
			<acc value="3.0706948901484" flag="0"/>
			<vel value="0.842930261376" flag="0"/>
			<psa03 value="3.33735074977691" flag="0"/>
			<psa10 value="0.651592584809689" flag="0"/>
			<psa30 value="0.0836511814800631" flag="0"/>
		</comp>
		<comp name="--.HNN" depth="0.0">
			<acc value="2.608807972857" flag="0"/>
			<vel value="0.851217056881" flag="0"/>
			<psa03 value="2.12582299200774" flag="0"/>
			<psa10 value="0.910128831566424" flag="0"/>
			<psa30 value="0.123768145698763" flag="0"/>
		</comp>
		<comp name="--.HNZ" depth="0.0">
			<acc value="2.4231039427446" flag="0"/>
			<vel value="0.75761869098" flag="0"/>
			<psa03 value="3.32861250424379" flag="0"/>
			<psa10 value="0.629986653522272" flag="0"/>
			<psa30 value="0.086180555705411" flag="0"/>
		</comp>
	</station>
	<station code="POZS" name="POZS" netid="IT" source="Italian Strong Motion Network (RAN)" insttype="" lat="40.8288" lon="14.13">
		<comp name="--.HNE" depth="0.0">
			<acc value="2.6405280699552" flag="0"/>
			<vel value="0.806324206132" flag="0"/>
			<psa03 value="2.42406008208466" flag="0"/>
			<psa10 value="0.396269430904955" flag="0"/>
			<psa30 value="0.0484074767577284" flag="0"/>
		</comp>
		<comp name="--.HNN" depth="0.0">
			<acc value="2.6596231864236" flag="0"/>
			<vel value="0.647987344527" flag="0"/>
			<psa03 value="2.5564211836926" flag="0"/>
			<psa10 value="0.512242413546231" flag="0"/>
			<psa30 value="0.0299516741514329" flag="0"/>
		</comp>
		<comp name="--.HNZ" depth="0.0">
			<acc value="2.1325577758704" flag="0"/>
			<vel value="0.547319949866" flag="0"/>
			<psa03 value="1.48161614979942" flag="0"/>
			<psa10 value="0.300534798955389" flag="0"/>
			<psa30 value="0.0229920414432549" flag="0"/>
		</comp>
	</station>
	<station code="POZT" name="POZT" netid="IT" source="Italian Strong Motion Network (RAN)" insttype="" lat="40.8208" lon="14.121">
		<comp name="--.HNE" depth="0.0">
			<acc value="0.828639096981" flag="0"/>
			<vel value="0.441567557074" flag="0"/>
			<psa03 value="2.51592650111825" flag="0"/>
			<psa10 value="0.74528477145968" flag="0"/>
			<psa30 value="0.0511138627093701" flag="0"/>
		</comp>
		<comp name="--.HNN" depth="0.0">
			<acc value="0.56277556547634" flag="0"/>
			<vel value="0.430113178755" flag="0"/>
			<psa03 value="1.40157518081073" flag="0"/>
			<psa10 value="0.465145203586378" flag="0"/>
			<psa30 value="0.0966327547790653" flag="0"/>
		</comp>
		<comp name="--.HNZ" depth="0.0">
			<acc value="0.5154961216563" flag="0"/>
			<vel value="0.330344333765" flag="0"/>
			<psa03 value="1.09021488805087" flag="0"/>
			<psa10 value="0.542465095651421" flag="0"/>
			<psa30 value="0.0329326749614069" flag="0"/>
		</comp>
	</station>
	<station code="POZU" name="POZU" netid="IT" source="Italian Strong Motion Network (RAN)" insttype="" lat="40.8558" lon="14.1208">
		<comp name="--.HNE" depth="0.0">
			<acc value="0.78367102671504" flag="0"/>
			<vel value="0.374310870573" flag="0"/>
			<psa03 value="3.37579362976158" flag="0"/>
			<psa10 value="0.374370890234255" flag="0"/>
			<psa30 value="0.031483975658851" flag="0"/>
		</comp>
		<comp name="--.HNN" depth="0.0">
			<acc value="0.8563782661335" flag="0"/>
			<vel value="0.301304563295" flag="0"/>
			<psa03 value="2.61695102682927" flag="0"/>
			<psa10 value="0.307937549351488" flag="0"/>
			<psa30 value="0.021828117672323" flag="0"/>
		</comp>
		<comp name="--.HNZ" depth="0.0">
			<acc value="0.46872694949388" flag="0"/>
			<vel value="0.16528130015" flag="0"/>
			<psa03 value="0.91104618567117" flag="0"/>
			<psa10 value="0.268135622668961" flag="0"/>
			<psa30 value="0.010783731869296" flag="0"/>
		</comp>
	</station>
	<station code="APRC" name="APRC" netid="IV" source="Italian National Seismic Network (INSN)" insttype="" lat="41.75738" lon="15.54308">
		<comp name="--.HNE" depth="0.0">
			<acc value="0.00027089187515214" flag="0"/>
			<vel value="0.000234038388225" flag="0"/>
			<psa03 value="0.000328677433260375" flag="0"/>
			<psa10 value="0.000224871092895439" flag="0"/>
			<psa30 value="7.45085751504138e-05" flag="0"/>
		</comp>
		<comp name="--.HNN" depth="0.0">
			<acc value="0.002251626183051" flag="0"/>
			<vel value="0.00221702207672" flag="0"/>
			<psa03 value="0.00215274791497275" flag="0"/>
			<psa10 value="0.00121822824070609" flag="0"/>
			<psa30 value="0.000510172494340006" flag="0"/>
		</comp>
		<comp name="--.HNZ" depth="0.0">
			<acc value="0.00027330232096758" flag="0"/>
			<vel value="0.000204123789129" flag="0"/>
			<psa03 value="0.00037504311462248" flag="0"/>
			<psa10 value="0.000153104287915471" flag="0"/>
			<psa30 value="0.000103586543089702" flag="0"/>
		</comp>
	</station>
	<station code="CAWE" name="CAWE" netid="IV" source="Italian National Seismic Network (INSN)" insttype="" lat="40.840439" lon="14.139376">
		<comp name="--.HNE" depth="0.0">
			<acc value="0.85050943588254" flag="0"/>
			<vel value="0.542201432475" flag="0"/>
			<psa03 value="2.27794323589469" flag="0"/>
			<psa10 value="0.535666405271178" flag="0"/>
			<psa30 value="0.0496056261293662" flag="0"/>
		</comp>
		<comp name="--.HNN" depth="0.0">
			<acc value="0.997597125348" flag="0"/>
			<vel value="0.497952177837" flag="0"/>
			<psa03 value="2.32479633968297" flag="0"/>
			<psa10 value="0.696535982091925" flag="0"/>
			<psa30 value="0.0474094006402901" flag="0"/>
		</comp>
		<comp name="--.HNZ" depth="0.0">
			<acc value="0.77582433630534" flag="0"/>
			<vel value="0.363306893748" flag="0"/>
			<psa03 value="1.61418026485226" flag="0"/>
			<psa10 value="0.446360059163364" flag="0"/>
			<psa30 value="0.020018441123471" flag="0"/>
		</comp>
	</station>
	<station code="CBAC" name="CBAC" netid="IV" source="Italian National Seismic Network (INSN)" insttype="" lat="40.810901" lon="14.08057">
		<comp name="--.HNE" depth="0.0">
			<acc value="0.11092953993126" flag="0"/>
			<vel value="0.183559668991" flag="0"/>
			<psa03 value="0.229779055067832" flag="0"/>
			<psa10 value="0.186156541957468" flag="0"/>
			<psa30 value="0.0490177505187576" flag="0"/>
		</comp>
		<comp name="--.HNN" depth="0.0">
			<acc value="0.13793086376346" flag="0"/>
			<vel value="0.166787652219" flag="0"/>
			<psa03 value="0.338697874572101" flag="0"/>
			<psa10 value="0.477441578161609" flag="0"/>
			<psa30 value="0.0572094498452531" flag="0"/>
		</comp>
		<comp name="--.HNZ" depth="0.0">
			<acc value="0.1098505499265" flag="0"/>
			<vel value="0.113361710636" flag="0"/>
			<psa03 value="0.258746911546263" flag="0"/>
			<psa10 value="0.183099804463318" flag="0"/>
			<psa30 value="0.0163199911193245" flag="0"/>
		</comp>
	</station>
	<station code="CERT" name="CERT" netid="IV" source="Italian National Seismic Network (INSN)" insttype="" lat="41.94903" lon="12.98176">
		<comp name="--.HNE" depth="0.0">
			<acc value="0.00035424519879204" flag="0"/>
			<vel value="0.00018359100994" flag="0"/>
			<psa03 value="0.000302676524629689" flag="0"/>
			<psa10 value="0.000164968652972834" flag="0"/>
			<psa30 value="5.67974734911603e-05" flag="0"/>
		</comp>
		<comp name="--.HNN" depth="0.0">
			<acc value="0.00036187965426234" flag="0"/>
			<vel value="0.000226167084907" flag="0"/>
			<psa03 value="0.000310101861899598" flag="0"/>
			<psa10 value="0.000311230744462618" flag="0"/>
			<psa30 value="6.48499405216028e-05" flag="0"/>
		</comp>
		<comp name="--.HNZ" depth="0.0">
			<acc value="0.0002594387968932" flag="0"/>
			<vel value="0.000185554512496" flag="0"/>
			<psa03 value="0.000283671461112731" flag="0"/>
			<psa10 value="0.00017360124144116" flag="0"/>
			<psa30 value="6.43337279395828e-05" flag="0"/>
		</comp>
	</station>
	<station code="CFMN" name="CFMN" netid="IV" source="Italian National Seismic Network (INSN)" insttype="" lat="40.832942" lon="14.090403">
		<comp name="--.HNE" depth="0.0">
			<acc value="0.38562931160508" flag="0"/>
			<vel value="0.0975269889396" flag="0"/>
			<psa03 value="0.581918007544504" flag="0"/>
			<psa10 value="0.10778776541042" flag="0"/>
			<psa30 value="0.0166127971829508" flag="0"/>
		</comp>
		<comp name="--.HNN" depth="0.0">
			<acc value="0.41022224998512" flag="0"/>
			<vel value="0.191781174271" flag="0"/>
			<psa03 value="0.42592588216623" flag="0"/>
			<psa10 value="0.162569654441679" flag="0"/>
			<psa30 value="0.0350961449473682" flag="0"/>
		</comp>
		<comp name="--.HNZ" depth="0.0">
			<acc value="0.19284858009168" flag="0"/>
			<vel value="0.114442375967" flag="0"/>
			<psa03 value="0.286573921615846" flag="0"/>
			<psa10 value="0.306731199436412" flag="0"/>
			<psa30 value="0.0116745192129463" flag="0"/>
		</comp>
	</station>
	<station code="CMIS" name="CMIS" netid="IV" source="Italian National Seismic Network (INSN)" insttype="" lat="40.778154" lon="14.089047">
		<comp name="--.HNE" depth="0.0">
			<acc value="0.2424418105206" flag="0"/>
			<vel value="0.21283257017" flag="0"/>
			<psa03 value="0.616122565095868" flag="0"/>
			<psa10 value="0.156364808401333" flag="0"/>
			<psa30 value="0.0478694077800329" flag="0"/>
		</comp>
		<comp name="--.HNN" depth="0.0">
			<acc value="0.20376310323846" flag="0"/>
			<vel value="0.136997573522" flag="0"/>
			<psa03 value="0.486019654749306" flag="0"/>
			<psa10 value="0.147688368629448" flag="0"/>
			<psa30 value="0.0431063189154221" flag="0"/>
		</comp>
		<comp name="--.HNZ" depth="0.0">
			<acc value="0.100507982896578" flag="0"/>
			<vel value="0.0955282630336" flag="0"/>
			<psa03 value="0.315487607838962" flag="0"/>
			<psa10 value="0.106032214113918" flag="0"/>
			<psa30 value="0.0104314735339401" flag="0"/>
		</comp>
	</station>
	<station code="CNIS" name="CNIS" netid="IV" source="Italian National Seismic Network (INSN)" insttype="" lat="40.79817" lon="14.163176">
		<comp name="--.HNE" depth="0.0">
			<acc value="0.20881030338726" flag="0"/>
			<vel value="0.229327874184" flag="0"/>
			<psa03 value="0.351635752476417" flag="0"/>
			<psa10 value="0.329685330035077" flag="0"/>
			<psa30 value="0.0715072503378245" flag="0"/>
		</comp>
		<comp name="--.HNN" depth="0.0">
			<acc value="0.12481510128414" flag="0"/>
			<vel value="0.098673680133" flag="0"/>
			<psa03 value="0.262755447925721" flag="0"/>
			<psa10 value="0.2453986614569" flag="0"/>
			<psa30 value="0.0299267224984941" flag="0"/>
		</comp>
		<comp name="--.HNZ" depth="0.0">
			<acc value="0.10402230433722" flag="0"/>
			<vel value="0.158893088823" flag="0"/>
			<psa03 value="0.179149138584539" flag="0"/>
			<psa10 value="0.21391364572917" flag="0"/>
			<psa30 value="0.0243628605866305" flag="0"/>
		</comp>
	</station>
	<station code="CPOZ" name="CPOZ" netid="IV" source="Italian National Seismic Network (INSN)" insttype="" lat="40.821072" lon="14.11911">
		<comp name="--.HNE" depth="0.0">
			<acc value="0.39670175054802" flag="0"/>
			<vel value="0.315600007797" flag="0"/>
			<psa03 value="1.02845029645289" flag="0"/>
			<psa10 value="0.661027429823328" flag="0"/>
			<psa30 value="0.042598601948338" flag="0"/>
		</comp>
		<comp name="--.HNN" depth="0.0">
			<acc value="0.48388952876682" flag="0"/>
			<vel value="0.312792965922" flag="0"/>
			<psa03 value="0.573396109676355" flag="0"/>
			<psa10 value="0.470732473717354" flag="0"/>
			<psa30 value="0.0949027268397408" flag="0"/>
