<?xml version="1.0" encoding="UTF-8" standalone="yes"?>
<!DOCTYPE earthquake SYSTEM "stationlist.dtd">
<stationlist created="" xmlns="ch.ethz.sed.shakemap.usgs.xml">
  <station code="AMGA" name="AMGA" netid="HL" insttype="SMART24" lat="36.8316" lon="25.8938">
    <comp name="--.HHE">
      <acc value="0.1261898053" flag="0"/>
      <vel value="0.0217056873" flag="0"/>
      <psa03 value="0.0394208003" flag="0"/>
      <psa10 value="0.0026395112" flag="0"/>
      <psa30 value="0.0005447238" flag="0"/>
    </comp>
    <comp name="--.HHN">
      <acc value="0.0611905609" flag="0"/>
      <vel value="0.0115179126" flag="0"/>
      <psa03 value="0.0273260398" flag="0"/>
      <psa10 value="0.0023341425" flag="0"/>
      <psa30 value="0.0002689265" flag="0"/>
    </comp>
    <comp name="--.HHZ">
      <acc value="0.0595840690" flag="0"/>
      <vel value="0.0094669413" flag="0"/>
      <psa03 value="0.0148194507" flag="0"/>
      <psa10 value="0.0011876348" flag="0"/>
      <psa30 value="0.0002211254" flag="0"/>
    </comp>
  </station>
</stationlist>
