<?xml version="1.0" encoding="UTF-8" standalone="yes"?>
<!DOCTYPE earthquake SYSTEM "stationlist.dtd">
<stationlist created="" xmlns="ch.ethz.sed.shakemap.usgs.xml">
  <station code="ARPRA" name="ARPRA" netid="KO" insttype="CMG-5T" lat="39.0929" lon="38.3356">
    <comp name="--.HNE">
      <acc value="0.0976266718" flag="0"/>
      <vel value="0.0396657653" flag="0"/>
      <psa03 value="0.2184654514" flag="0"/>
      <psa10 value="0.0240569192" flag="0"/>
      <psa30 value="0.0018527025" flag="0"/>
    </comp>
    <comp name="--.HNZ">
      <acc value="0.0429250005" flag="0"/>
      <vel value="0.0173724343" flag="0"/>
      <psa03 value="0.0925780861" flag="0"/>
      <psa10 value="0.0163588694" flag="0"/>
      <psa30 value="0.0014092177" flag="0"/>
    </comp>
    <comp name="--.HNN">
      <acc value="0.0751857068" flag="0"/>
      <vel value="0.0291945890" flag="0"/>
      <psa03 value="0.2068302765" flag="0"/>
      <psa10 value="0.0501117122" flag="0"/>
      <psa30 value="0.0018595009" flag="0"/>
    </comp>
  </station>
  <station code="DARE" name="DARE" netid="KO" insttype="CMG-3ESP" lat="38.5712" lon="37.4832">
    <comp name="--.HHZ">
      <acc value="0.0623150002" flag="0"/>
      <vel value="0.0265073707" flag="0"/>
      <psa03 value="0.1403035314" flag="0"/>
      <psa10 value="0.0147763318" flag="0"/>
      <psa30 value="0.0013794165" flag="0"/>
    </comp>
    <comp name="--.HHE">
      <acc value="0.0796632980" flag="0"/>
      <vel value="0.0252950693" flag="0"/>
      <psa03 value="0.2518992068" flag="0"/>
      <psa10 value="0.0219297975" flag="0"/>
      <psa30 value="0.0017981453" flag="0"/>
    </comp>
    <comp name="--.HHN">
      <acc value="0.0747618607" flag="0"/>
      <vel value="0.0264351961" flag="0"/>
      <psa03 value="0.1860632946" flag="0"/>
      <psa10 value="0.0196382252" flag="0"/>
      <psa30 value="0.0015611469" flag="0"/>
    </comp>
  </station>
  <station code="URFA" name="URFA" netid="KO" insttype="CMG-3ESP" lat="37.4409" lon="38.8213">
    <comp name="--.HHE">
      <acc value="0.0690449551" flag="0"/>
      <vel value="0.0199222986" flag="0"/>
      <psa03 value="0.0461164291" flag="0"/>
      <psa10 value="0.0143168759" flag="0"/>
      <psa30 value="0.0015719777" flag="0"/>
    </comp>
    <comp name="--.HHN">
      <acc value="0.0653037984" flag="0"/>
      <vel value="0.0254978632" flag="0"/>
      <psa03 value="0.0592543553" flag="0"/>
      <psa10 value="0.0193875855" flag="0"/>
      <psa30 value="0.0010475511" flag="0"/>
    </comp>
    <comp name="--.HHZ">
      <acc value="0.0389140971" flag="0"/>
      <vel value="0.0111055383" flag="0"/>
      <psa03 value="0.0479408523" flag="0"/>
      <psa10 value="0.0096744955" flag="0"/>
      <psa30 value="0.0016901233" flag="0"/>
    </comp>
  </station>
</stationlist>
