<?xml version="1.0" encoding="UTF-8" standalone="yes"?>
<!DOCTYPE earthquake SYSTEM "stationlist.dtd">
<stationlist created="" xmlns="ch.ethz.sed.shakemap.usgs.xml">
  <station code="ARPRA" name="ARPRA" netid="KO" insttype="CMG-5T" lat="39.0929" lon="38.3356">
    <comp name="--.HNZ">
      <acc value="0.0429249990" flag="0"/>
      <vel value="0.0173724331" flag="0"/>
      <psa03 value="0.0925780861" flag="0"/>
      <psa10 value="0.0163588695" flag="0"/>
      <psa30 value="0.0014092627" flag="0"/>
    </comp>
    <comp name="--.HNN">
      <acc value="0.0751857092" flag="0"/>
      <vel value="0.0291945929" flag="0"/>
      <psa03 value="0.2068302765" flag="0"/>
      <psa10 value="0.0501117130" flag="0"/>
      <psa30 value="0.0018594206" flag="0"/>
    </comp>
    <comp name="--.HNE">
      <acc value="0.0976266721" flag="0"/>
      <vel value="0.0396657665" flag="0"/>
      <psa03 value="0.2184654514" flag="0"/>
      <psa10 value="0.0240569192" flag="0"/>
      <psa30 value="0.0018538048" flag="0"/>
    </comp>
  </station>
  <station code="DARE" name="DARE" netid="KO" insttype="CMG-3ESP" lat="38.5712" lon="37.4832">
    <comp name="--.HHZ">
      <acc value="0.0623150002" flag="0"/>
      <vel value="0.0265073705" flag="0"/>
      <psa03 value="0.1403035314" flag="0"/>
      <psa10 value="0.0147763294" flag="0"/>
      <psa30 value="0.0013795021" flag="0"/>
    </comp>
    <comp name="--.HHE">
      <acc value="0.0796632981" flag="0"/>
      <vel value="0.0252950717" flag="0"/>
      <psa03 value="0.2518992068" flag="0"/>
      <psa10 value="0.0219297996" flag="0"/>
      <psa30 value="0.0017987566" flag="0"/>
    </comp>
  </station>
</stationlist>
