<?xml version="1.0" encoding="UTF-8" standalone="yes"?>
<!DOCTYPE earthquake SYSTEM "stationlist.dtd">
<stationlist created="" xmlns="ch.ethz.sed.shakemap.usgs.xml">
  <station code="KARO" name="KARO" netid="KO" insttype="120s," lat="39.3089" lon="41.0493">
    <comp name="--.HHN">
      <acc value="0.0101961425" flag="0"/>
      <vel value="0.0069354853" flag="0"/>
      <psa03 value="0.0227707974" flag="0"/>
      <psa10 value="0.0133539575" flag="0"/>
      <psa30 value="0.0011234195" flag="0"/>
    </comp>
    <comp name="--.HHZ">
      <acc value="0.0074180962" flag="0"/>
      <vel value="0.0040967582" flag="0"/>
      <psa03 value="0.0091295727" flag="0"/>
      <psa10 value="0.0074419228" flag="0"/>
      <psa30 value="0.0015345032" flag="0"/>
    </comp>
    <comp name="--.HHE">
      <acc value="0.0127393786" flag="0"/>
      <vel value="0.0093674631" flag="0"/>
      <psa03 value="0.0255423763" flag="0"/>
      <psa10 value="0.0244140971" flag="0"/>
      <psa30 value="0.0021269366" flag="0"/>
    </comp>
  </station>
  <station code="RFHY" name="RFHY" netid="KO" insttype="CMG-5T" lat="39.927" lon="38.833">
    <comp name="--.HNZ">
      <acc value="0.0092213469" flag="0"/>
      <vel value="0.0091417066" flag="0"/>
      <psa03 value="0.0140051161" flag="0"/>
      <psa10 value="0.0224253624" flag="0"/>
      <psa30 value="0.0015604460" flag="0"/>
    </comp>
    <comp name="--.HNE">
      <acc value="0.0156990951" flag="0"/>
      <vel value="0.0141346159" flag="0"/>
      <psa03 value="0.0237380402" flag="0"/>
      <psa10 value="0.0258584499" flag="0"/>
      <psa30 value="0.0022797376" flag="0"/>
    </comp>
    <comp name="--.HNN">
      <acc value="0.0125630551" flag="0"/>
      <vel value="0.0143559916" flag="0"/>
      <psa03 value="0.0212403733" flag="0"/>
      <psa10 value="0.0219605461" flag="0"/>
      <psa30 value="0.0023810983" flag="0"/>
    </comp>
  </station>
</stationlist>
