<stationlist created="1778136668">
	<station code="ARPRA" name="ARPRA" netid="KO" source="Bogazici University Kandilli Observatory And Earthquake Research Institute (KOERI)" insttype="" lat="39.0929" lon="38.3356">
		<comp name="--.HNE" depth="0.0">
			<acc value="0.00326265761259427" flag="0"/>
			<vel value="0.00307365844236688" flag="0"/>
			<psa03 value="0.00739715473874002" flag="0"/>
			<psa10 value="0.00416656070169158" flag="0"/>
			<psa30 value="0.000492850513509008" flag="0"/>
		</comp>
		<comp name="--.HNN" depth="0.0">
			<acc value="0.00289872267001046" flag="0"/>
			<vel value="0.00338974994515308" flag="0"/>
			<psa03 value="0.00785762599789309" flag="0"/>
			<psa10 value="0.00465034696889422" flag="0"/>
			<psa30 value="0.00102335998007568" flag="0"/>
		</comp>
		<comp name="--.HNZ" depth="0.0">
			<acc value="0.00210303126492398" flag="0"/>
			<vel value="0.00266650856102335" flag="0"/>
			<psa03 value="0.00345012634039735" flag="0"/>
			<psa10 value="0.0046414799752589" flag="0"/>
			<psa30 value="0.000741249520807517" flag="0"/>
		</comp>
	</station>
	<station code="CHAY" name="CHAY" netid="KO" source="Bogazici University Kandilli Observatory And Earthquake Research Institute (KOERI)" insttype="" lat="41.0862" lon="40.7253">
		<comp name="--.HNE" depth="0.0">
			<acc value="0.156145767838214" flag="0"/>
			<vel value="0.0346957948874764" flag="0"/>
			<psa03 value="0.0744032621842823" flag="0"/>
			<psa10 value="0.018888941924697" flag="0"/>
			<psa30 value="0.00121093876041731" flag="0"/>
		</comp>
		<comp name="--.HNN" depth="0.0">
			<acc value="0.134158146510703" flag="0"/>
			<vel value="0.0338477761050731" flag="0"/>
			<psa03 value="0.0962662938359809" flag="0"/>
			<psa10 value="0.0142434210567252" flag="0"/>
			<psa30 value="0.00104398561725671" flag="0"/>
		</comp>
		<comp name="--.HNZ" depth="0.0">
			<acc value="0.0559431662466241" flag="0"/>
			<vel value="0.0102238937131928" flag="0"/>
			<psa03 value="0.0401509228224357" flag="0"/>
			<psa10 value="0.00707088528642962" flag="0"/>
			<psa30 value="0.000662253662723711" flag="0"/>
		</comp>
	</station>
	<station code="GUMT" name="GUMT" netid="KO" source="Bogazici University Kandilli Observatory And Earthquake Research Institute (KOERI)" insttype="" lat="40.4665" lon="39.478">
		<comp name="--.HNE" depth="0.0">
			<acc value="0.00116988283600051" flag="0"/>
			<vel value="0.00140982061087214" flag="0"/>
			<psa03 value="0.00132090163085405" flag="0"/>
			<psa10 value="0.000916134947256704" flag="0"/>
			<psa30 value="0.000555483412632138" flag="0"/>
		</comp>
		<comp name="--.HNN" depth="0.0">
			<acc value="0.00063241246379461" flag="0"/>
			<vel value="0.000881297585383548" flag="0"/>
			<psa03 value="0.000805673651873094" flag="0"/>
			<psa10 value="0.000697903420177617" flag="0"/>
			<psa30 value="0.000505499788963364" flag="0"/>
		</comp>
		<comp name="--.HNZ" depth="0.0">
			<acc value="0.00059546203893357" flag="0"/>
			<vel value="0.000671281040636818" flag="0"/>
			<psa03 value="0.000801532020086517" flag="0"/>
			<psa10 value="0.000539784976853771" flag="0"/>
			<psa30 value="0.000388432137972748" flag="0"/>
		</comp>
	</station>
	<station code="HOPA" name="HOPA" netid="KO" source="Bogazici University Kandilli Observatory And Earthquake Research Institute (KOERI)" insttype="" lat="41.3867" lon="41.4458">
		<comp name="--.HNE" depth="0.0">
			<acc value="0.0326982420154505" flag="0"/>
			<vel value="0.00992755391743926" flag="0"/>
			<psa03 value="0.0507999694152662" flag="0"/>
			<psa10 value="0.00826540691766002" flag="0"/>
			<psa30 value="0.000563698279742568" flag="0"/>
		</comp>
		<comp name="--.HNN" depth="0.0">
			<acc value="0.0394239507676967" flag="0"/>
			<vel value="0.0108211731868532" flag="0"/>
			<psa03 value="0.039762248637151" flag="0"/>
			<psa10 value="0.00448640767125006" flag="0"/>
			<psa30 value="0.000777303419618008" flag="0"/>
		</comp>
		<comp name="--.HNZ" depth="0.0">
			<acc value="0.0104881690068711" flag="0"/>
			<vel value="0.00239030232946193" flag="0"/>
			<psa03 value="0.00941198482593247" flag="0"/>
			<psa10 value="0.00383245481882427" flag="0"/>
			<psa30 value="0.000544535551972624" flag="0"/>
		</comp>
	</station>
	<station code="KYHL" name="KYHL" netid="KO" source="Bogazici University Kandilli Observatory And Earthquake Research Institute (KOERI)" insttype="" lat="40.3244" lon="37.8955">
		<comp name="--.HNE" depth="0.0">
			<acc value="0.00656802545560222" flag="0"/>
			<vel value="0.00619094940297922" flag="0"/>
			<psa03 value="0.0261894510684496" flag="0"/>
			<psa10 value="0.00770602970540648" flag="0"/>
			<psa30 value="0.00121664132568236" flag="0"/>
		</comp>
		<comp name="--.HNN" depth="0.0">
			<acc value="0.00870105193699456" flag="0"/>
			<vel value="0.00607561577101237" flag="0"/>
			<psa03 value="0.0242854291029694" flag="0"/>
			<psa10 value="0.00514243112957517" flag="0"/>
			<psa30 value="0.00067739435321599" flag="0"/>
		</comp>
		<comp name="--.HNZ" depth="0.0">
			<acc value="0.00521819232984498" flag="0"/>
			<vel value="0.00366405959014289" flag="0"/>
			<psa03 value="0.0160427242100949" flag="0"/>
			<psa10 value="0.00380836978580833" flag="0"/>
			<psa30 value="0.000610960473132096" flag="0"/>
		</comp>
	</station>
	<station code="RFHY" name="RFHY" netid="KO" source="Bogazici University Kandilli Observatory And Earthquake Research Institute (KOERI)" insttype="" lat="39.927" lon="38.833">
		<comp name="--.HNE" depth="0.0">
			<acc value="0.0156257449901138" flag="0"/>
			<vel value="0.0137280784074149" flag="0"/>
			<psa03 value="0.0242180730784725" flag="0"/>
			<psa10 value="0.0259312428175658" flag="0"/>
			<psa30 value="0.00231838816517106" flag="0"/>
		</comp>
		<comp name="--.HNN" depth="0.0">
			<acc value="0.0125297979156428" flag="0"/>
			<vel value="0.014228467990328" flag="0"/>
			<psa03 value="0.0212472799238366" flag="0"/>
			<psa10 value="0.0219522179767173" flag="0"/>
			<psa30 value="0.00238125858002955" flag="0"/>
		</comp>
		<comp name="--.HNZ" depth="0.0">
			<acc value="0.00898107627043167" flag="0"/>
			<vel value="0.00911948481911837" flag="0"/>
			<psa03 value="0.0143357582673954" flag="0"/>
			<psa10 value="0.0224098232908051" flag="0"/>
			<psa30 value="0.00164211451119392" flag="0"/>
		</comp>
	</station>
	<station code="TUNC" name="TUNC" netid="KO" source="Bogazici University Kandilli Observatory And Earthquake Research Institute (KOERI)" insttype="" lat="39.6942" lon="37.5388">
		<comp name="--.HNE" depth="0.0">
			<acc value="0.00232774469833717" flag="0"/>
			<vel value="0.00349957935913468" flag="0"/>
			<psa03 value="0.0043064815723314" flag="0"/>
			<psa10 value="0.00775999062380178" flag="0"/>
			<psa30 value="0.000688257833286313" flag="0"/>
		</comp>
		<comp name="--.HNN" depth="0.0">
			<acc value="0.00330971445797455" flag="0"/>
			<vel value="0.00356652902809163" flag="0"/>
			<psa03 value="0.00533586747243602" flag="0"/>
			<psa10 value="0.00499400192186627" flag="0"/>
			<psa30 value="0.000975706510769423" flag="0"/>
		</comp>
		<comp name="--.HNZ" depth="0.0">
			<acc value="0.00138161488820066" flag="0"/>
			<vel value="0.00336526925192139" flag="0"/>
			<psa03 value="0.00414698305060778" flag="0"/>
			<psa10 value="0.00406620733502136" flag="0"/>
			<psa30 value="0.00107770472598255" flag="0"/>
		</comp>
	</station>
</stationlist>
