<?xml version="1.0" encoding="UTF-8" standalone="yes"?>
<!DOCTYPE earthquake SYSTEM "stationlist.dtd">
<stationlist created="" xmlns="ch.ethz.sed.shakemap.usgs.xml">
  <station code="IMMV" name="IMMV" netid="GE" insttype="STS-2/N" lat="35.4606" lon="23.9811">
    <comp name="--.HHE">
      <acc value="0.0047393708" flag="0"/>
      <vel value="0.0036394252" flag="0"/>
      <psa03 value="0.0191856601" flag="0"/>
      <psa10 value="0.0041235901" flag="0"/>
      <psa30 value="0.0003122713" flag="0"/>
    </comp>
    <comp name="--.HHN">
      <acc value="0.0056875751" flag="0"/>
      <vel value="0.0033483399" flag="0"/>
      <psa03 value="0.0154284532" flag="0"/>
      <psa10 value="0.0036893799" flag="0"/>
      <psa30 value="0.0005462599" flag="0"/>
    </comp>
    <comp name="--.HHZ">
      <acc value="0.0035530756" flag="0"/>
      <vel value="0.0019646066" flag="0"/>
      <psa03 value="0.0105350019" flag="0"/>
      <psa10 value="0.0020968991" flag="0"/>
      <psa30 value="0.0002714283" flag="0"/>
    </comp>
  </station>
</stationlist>
