<?xml version="1.0" encoding="UTF-8" standalone="yes"?>
<!DOCTYPE earthquake SYSTEM "stationlist.dtd">
<stationlist created="" xmlns="ch.ethz.sed.shakemap.usgs.xml">
  <station code="IMMV" name="IMMV" netid="GE" insttype="STS-2/N" lat="35.4606" lon="23.9811">
    <comp name="--.HHE">
      <acc value="0.0047393708" flag="0"/>
      <vel value="0.0036394252" flag="0"/>
      <psa03 value="0.0191856601" flag="0"/>
      <psa10 value="0.0041235901" flag="0"/>
      <psa30 value="0.0003122713" flag="0"/>
    </comp>
    <comp name="--.HHN">
      <acc value="0.0056875751" flag="0"/>
      <vel value="0.0033483399" flag="0"/>
      <psa03 value="0.0154284532" flag="0"/>
      <psa10 value="0.0036893799" flag="0"/>
      <psa30 value="0.0005462599" flag="0"/>
    </comp>
    <comp name="--.HHZ">
      <acc value="0.0035530756" flag="0"/>
      <vel value="0.0019646066" flag="0"/>
      <psa03 value="0.0105350019" flag="0"/>
      <psa10 value="0.0020968991" flag="0"/>
      <psa30 value="0.0002714283" flag="0"/>
    </comp>
  </station>
  <station code="RODP" name="RODP" netid="HC" insttype="120" lat="35.5604" lon="23.7577">
    <comp name="--.HHN">
      <acc value="0.0061270295" flag="0"/>
      <vel value="0.0032300790" flag="0"/>
      <psa03 value="0.0207433801" flag="0"/>
      <psa10 value="0.0038811972" flag="0"/>
      <psa30 value="0.0006324979" flag="0"/>
    </comp>
    <comp name="--.HHE">
      <acc value="0.0103696584" flag="0"/>
      <vel value="0.0068160576" flag="0"/>
      <psa03 value="0.0356220116" flag="0"/>
      <psa10 value="0.0063287729" flag="0"/>
      <psa30 value="0.0003749742" flag="0"/>
    </comp>
    <comp name="--.HHZ">
      <acc value="0.0070699288" flag="0"/>
      <vel value="0.0048930006" flag="0"/>
      <psa03 value="0.0177793953" flag="0"/>
      <psa10 value="0.0041128552" flag="0"/>
      <psa30 value="0.0002664085" flag="0"/>
    </comp>
  </station>
  <station code="ANKY" name="ANKY" netid="HL" insttype="60" lat="35.867" lon="23.3012">
    <comp name="--.HHN">
      <acc value="0.0167751376" flag="0"/>
      <vel value="0.0071466043" flag="0"/>
      <psa03 value="0.0365517325" flag="0"/>
      <psa10 value="0.0044585795" flag="0"/>
      <psa30 value="0.0003748603" flag="0"/>
    </comp>
    <comp name="--.HHZ">
      <acc value="0.0101493853" flag="0"/>
      <vel value="0.0043489560" flag="0"/>
      <psa03 value="0.0272351597" flag="0"/>
      <psa10 value="0.0032899255" flag="0"/>
      <psa30 value="0.0003671824" flag="0"/>
    </comp>
    <comp name="--.HHE">
      <acc value="0.0132602441" flag="0"/>
      <vel value="0.0077079323" flag="0"/>
      <psa03 value="0.0336242871" flag="0"/>
      <psa10 value="0.0070782600" flag="0"/>
      <psa30 value="0.0005163352" flag="0"/>
    </comp>
  </station>
  <station code="IMMV" name="IMMV" netid="HL" insttype="120" lat="35.4606" lon="23.9811">
    <comp name="--.HHE">
      <acc value="0.0046307947" flag="0"/>
      <vel value="0.0036121921" flag="0"/>
      <psa03 value="0.0186507395" flag="0"/>
      <psa10 value="0.0040859829" flag="0"/>
      <psa30 value="0.0003113319" flag="0"/>
    </comp>
    <comp name="--.HHZ">
      <acc value="0.0034787677" flag="0"/>
      <vel value="0.0019299136" flag="0"/>
      <psa03 value="0.0102400314" flag="0"/>
      <psa10 value="0.0020782936" flag="0"/>
      <psa30 value="0.0002708322" flag="0"/>
    </comp>
    <comp name="--.HHN">
      <acc value="0.0056093410" flag="0"/>
      <vel value="0.0032607981" flag="0"/>
      <psa03 value="0.0149651129" flag="0"/>
      <psa10 value="0.0036618304" flag="0"/>
      <psa30 value="0.0005463600" flag="0"/>
    </comp>
  </station>
</stationlist>
