<?xml version="1.0" encoding="UTF-8" standalone="yes"?>
<!DOCTYPE earthquake SYSTEM "stationlist.dtd">
<stationlist created="" xmlns="ch.ethz.sed.shakemap.usgs.xml">
  <station code="IMMV" name="IMMV" netid="GE" insttype="STS-2/N" lat="35.4606" lon="23.9811">
    <comp name="--.HHE">
      <acc value="0.0047393708" flag="0"/>
      <vel value="0.0036394260" flag="0"/>
      <psa03 value="0.0191856601" flag="0"/>
      <psa10 value="0.0041235900" flag="0"/>
      <psa30 value="0.0003122646" flag="0"/>
    </comp>
    <comp name="--.HHZ">
      <acc value="0.0035530757" flag="0"/>
      <vel value="0.0019646062" flag="0"/>
      <psa03 value="0.0105350019" flag="0"/>
      <psa10 value="0.0020968991" flag="0"/>
      <psa30 value="0.0002714461" flag="0"/>
    </comp>
    <comp name="--.HHN">
      <acc value="0.0056875753" flag="0"/>
      <vel value="0.0033483412" flag="0"/>
      <psa03 value="0.0154284532" flag="0"/>
      <psa10 value="0.0036893799" flag="0"/>
      <psa30 value="0.0005462840" flag="0"/>
    </comp>
  </station>
  <station code="KNDR" name="KNDR" netid="HC" insttype="120" lat="35.2348" lon="23.6248">
    <comp name="--.HHN">
      <acc value="0.0117517307" flag="0"/>
      <vel value="0.0075263064" flag="0"/>
      <psa03 value="0.0433899575" flag="0"/>
      <psa10 value="0.0090111296" flag="0"/>
      <psa30 value="0.0008515926" flag="0"/>
    </comp>
    <comp name="--.HHZ">
      <acc value="0.0104784550" flag="0"/>
      <vel value="0.0048350138" flag="0"/>
      <psa03 value="0.0342043118" flag="0"/>
      <psa10 value="0.0044949705" flag="0"/>
      <psa30 value="0.0003570735" flag="0"/>
    </comp>
    <comp name="--.HHE">
      <acc value="0.0164193128" flag="0"/>
      <vel value="0.0111174789" flag="0"/>
      <psa03 value="0.0563990782" flag="0"/>
      <psa10 value="0.0105318293" flag="0"/>
      <psa30 value="0.0005796641" flag="0"/>
    </comp>
  </station>
  <station code="KTHR" name="KTHR" netid="HC" insttype="120s" lat="36.2447" lon="22.9939">
    <comp name="--.HHN">
      <acc value="0.0346772195" flag="0"/>
      <vel value="0.0177537647" flag="0"/>
      <psa03 value="0.1419816088" flag="0"/>
      <psa10 value="0.0062501774" flag="0"/>
      <psa30 value="0.0005504945" flag="0"/>
    </comp>
    <comp name="--.HHZ">
      <acc value="0.0316156418" flag="0"/>
      <vel value="0.0124931802" flag="0"/>
      <psa03 value="0.1147167143" flag="0"/>
      <psa10 value="0.0035029619" flag="0"/>
      <psa30 value="0.0003490890" flag="0"/>
    </comp>
    <comp name="--.HHE">
      <acc value="0.0452823626" flag="0"/>
      <vel value="0.0192340046" flag="0"/>
      <psa03 value="0.1748571078" flag="0"/>
      <psa10 value="0.0061617981" flag="0"/>
      <psa30 value="0.0004259732" flag="0"/>
    </comp>
  </station>
  <station code="RODP" name="RODP" netid="HC" insttype="120" lat="35.5604" lon="23.7577">
    <comp name="--.HHN">
      <acc value="0.0061270295" flag="0"/>
      <vel value="0.0032300772" flag="0"/>
      <psa03 value="0.0207433801" flag="0"/>
      <psa10 value="0.0038811972" flag="0"/>
      <psa30 value="0.0006324223" flag="0"/>
    </comp>
    <comp name="--.HHE">
      <acc value="0.0103696584" flag="0"/>
      <vel value="0.0068160571" flag="0"/>
      <psa03 value="0.0356220116" flag="0"/>
      <psa10 value="0.0063287729" flag="0"/>
      <psa30 value="0.0003750388" flag="0"/>
    </comp>
    <comp name="--.HHZ">
      <acc value="0.0070699289" flag="0"/>
      <vel value="0.0048929996" flag="0"/>
      <psa03 value="0.0177793953" flag="0"/>
      <psa10 value="0.0041128578" flag="0"/>
      <psa30 value="0.0002670147" flag="0"/>
    </comp>
  </station>
  <station code="ANKY" name="ANKY" netid="HL" insttype="60" lat="35.867" lon="23.3012">
    <comp name="--.HHZ">
      <acc value="0.0101493854" flag="0"/>
      <vel value="0.0043489559" flag="0"/>
      <psa03 value="0.0272351597" flag="0"/>
      <psa10 value="0.0032899255" flag="0"/>
      <psa30 value="0.0003672036" flag="0"/>
    </comp>
    <comp name="--.HHN">
      <acc value="0.0167751376" flag="0"/>
      <vel value="0.0071466049" flag="0"/>
      <psa03 value="0.0365517325" flag="0"/>
      <psa10 value="0.0044585795" flag="0"/>
      <psa30 value="0.0003748786" flag="0"/>
    </comp>
    <comp name="--.HHE">
      <acc value="0.0132602441" flag="0"/>
      <vel value="0.0077079338" flag="0"/>
      <psa03 value="0.0336242871" flag="0"/>
      <psa10 value="0.0070782600" flag="0"/>
      <psa30 value="0.0005163686" flag="0"/>
    </comp>
  </station>
  <station code="IMMV" name="IMMV" netid="HL" insttype="120" lat="35.4606" lon="23.9811">
    <comp name="--.HHE">
      <acc value="0.0046307947" flag="0"/>
      <vel value="0.0036121909" flag="0"/>
      <psa03 value="0.0186507395" flag="0"/>
      <psa10 value="0.0040859829" flag="0"/>
      <psa30 value="0.0003113728" flag="0"/>
    </comp>
    <comp name="--.HHZ">
      <acc value="0.0034787681" flag="0"/>
      <vel value="0.0019299126" flag="0"/>
      <psa03 value="0.0102400314" flag="0"/>
      <psa10 value="0.0020782936" flag="0"/>
      <psa30 value="0.0002708161" flag="0"/>
    </comp>
    <comp name="--.HHN">
      <acc value="0.0056093410" flag="0"/>
      <vel value="0.0032607998" flag="0"/>
      <psa03 value="0.0149651129" flag="0"/>
      <psa10 value="0.0036618304" flag="0"/>
      <psa30 value="0.0005463230" flag="0"/>
    </comp>
  </station>
  <station code="VAM" name="VAM" netid="HL" insttype="CMG3ESPC-120s" lat="35.407" lon="24.1997">
    <comp name="--.HHE">
      <acc value="0.0035494351" flag="0"/>
      <vel value="0.0027109940" flag="0"/>
      <psa03 value="0.0128127720" flag="0"/>
      <psa10 value="0.0064612773" flag="0"/>
      <psa30 value="0.0002513209" flag="0"/>
    </comp>
    <comp name="--.HHN">
      <acc value="0.0043131348" flag="0"/>
      <vel value="0.0019194083" flag="0"/>
      <psa03 value="0.0087956313" flag="0"/>
      <psa10 value="0.0032172519" flag="0"/>
      <psa30 value="0.0002529393" flag="0"/>
    </comp>
    <comp name="--.HHZ">
      <acc value="0.0022233491" flag="0"/>
      <vel value="0.0012136981" flag="0"/>
      <psa03 value="0.0079128753" flag="0"/>
      <psa10 value="0.0019387907" flag="0"/>
      <psa30 value="0.0001777403" flag="0"/>
    </comp>
  </station>
</stationlist>
