<stationlist xmlns:esm="https://esm-db.eu/esmws/shakemap/1/" created="1783994167">
	<station code="ARG2" name="ARG2" netid="HI" source="ITSAK Strong Motion Network" insttype="" lat="38.1783" lon="20.4878" esm:processing="manual (Paolucci et al 2011)" esm:quality="best">
		<comp name="--.HNE" depth="0.0">
			<acc value="0.0664115768283153" flag="0"/>
			<vel value="0.0298364915191447" flag="0"/>
			<psa03 value="0.128947039473859" flag="0"/>
			<psa10 value="0.0124186468689675" flag="0"/>
			<psa30 value="0.00118387878711947" flag="0"/>
		</comp>
		<comp name="--.HNN" depth="0.0">
			<acc value="0.0604638465205464" flag="0"/>
			<vel value="0.0234752485209508" flag="0"/>
			<psa03 value="0.108186655602981" flag="0"/>
			<psa10 value="0.010815981027901" flag="0"/>
			<psa30 value="0.000998646051719825" flag="0"/>
		</comp>
		<comp name="--.HNZ" depth="0.0">
			<acc value="0.0553602371907551" flag="0"/>
			<vel value="0.0173188325773579" flag="0"/>
			<psa03 value="0.0833547309298403" flag="0"/>
			<psa10 value="0.00656368171090047" flag="0"/>
			<psa30 value="0.000964194552623756" flag="0"/>
		</comp>
	</station>
	<station code="ART2" name="ART2" netid="HI" source="ITSAK Strong Motion Network" insttype="" lat="39.1474" lon="20.9937" esm:processing="manual (Paolucci et al 2011)" esm:quality="bad">
		<comp name="--.HNE" depth="0.0">
			<acc value="0.00300196077709783" flag="0"/>
			<vel value="0.00181759556627606" flag="0"/>
			<psa03 value="0.00668347920603087" flag="0"/>
			<psa10 value="0.00159928043666922" flag="0"/>
			<psa30 value="0.000405276300690867" flag="0"/>
		</comp>
		<comp name="--.HNN" depth="0.0">
			<acc value="0.00234769919416172" flag="0"/>
			<vel value="0.00177498095711947" flag="0"/>
			<psa03 value="0.00447425766063432" flag="0"/>
			<psa10 value="0.0023340268834493" flag="0"/>
			<psa30 value="0.000216528315292262" flag="0"/>
		</comp>
		<comp name="--.HNZ" depth="0.0">
			<acc value="0.00213661136355063" flag="0"/>
			<vel value="0.00105431269537382" flag="0"/>
			<psa03 value="0.00502991035532914" flag="0"/>
			<psa10 value="0.000853249433744626" flag="0"/>
			<psa30 value="0.000500725566446045" flag="0"/>
		</comp>
	</station>
	<station code="KLV1" name="KLV1" netid="HI" source="ITSAK Strong Motion Network" insttype="" lat="38.03256" lon="22.10797" esm:processing="manual (Paolucci et al 2011)" esm:quality="good">
		<comp name="--.HNE" depth="0.0">
			<acc value="0.00593922511928484" flag="0"/>
			<vel value="0.004121364547901" flag="0"/>
			<psa03 value="0.0149808739197832" flag="0"/>
			<psa10 value="0.00219580514881394" flag="0"/>
			<psa30 value="0.000630078458355381" flag="0"/>
		</comp>
		<comp name="--.HNN" depth="0.0">
			<acc value="0.0049693746456684" flag="0"/>
			<vel value="0.00290158308898916" flag="0"/>
			<psa03 value="0.0153683787567598" flag="0"/>
			<psa10 value="0.002689909990211" flag="0"/>
			<psa30 value="0.000407283777426558" flag="0"/>
		</comp>
		<comp name="--.HNZ" depth="0.0">
			<acc value="0.00263919720061842" flag="0"/>
			<vel value="0.00168113617834299" flag="0"/>
			<psa03 value="0.00697262401148916" flag="0"/>
			<psa10 value="0.00118751616711808" flag="0"/>
			<psa30 value="0.000444982707087001" flag="0"/>
		</comp>
	</station>
	<station code="KRI1" name="KRI1" netid="HI" source="ITSAK Strong Motion Network" insttype="" lat="37.6621" lon="20.8172" esm:processing="manual (Paolucci et al 2011)" esm:quality="best">
		<comp name="--.HNE" depth="0.0">
			<acc value="0.253166153083256" flag="0"/>
			<vel value="0.0883657550141066" flag="0"/>
			<psa03 value="0.266350355998572" flag="0"/>
			<psa10 value="0.0320573436199255" flag="0"/>
			<psa30 value="0.00218207741677311" flag="0"/>
		</comp>
		<comp name="--.HNN" depth="0.0">
			<acc value="0.253796670451991" flag="0"/>
			<vel value="0.109893969935892" flag="0"/>
			<psa03 value="0.47091172465731" flag="0"/>
			<psa10 value="0.0401230212070014" flag="0"/>
			<psa30 value="0.00440129086503939" flag="0"/>
		</comp>
		<comp name="--.HNZ" depth="0.0">
			<acc value="0.147506134007511" flag="0"/>
			<vel value="0.0423991988215234" flag="0"/>
			<psa03 value="0.147694024046915" flag="0"/>
			<psa10 value="0.0121206637728898" flag="0"/>
			<psa30 value="0.00225098041496525" flag="0"/>
		</comp>
	</station>
	<station code="MSL1" name="MSL1" netid="HI" source="ITSAK Strong Motion Network" insttype="" lat="38.3727" lon="21.4243" esm:processing="manual (Paolucci et al 2011)" esm:quality="best">
		<comp name="--.HNE" depth="0.0">
			<acc value="0.0183628737333936" flag="0"/>
			<vel value="0.0123414884780361" flag="0"/>
			<psa03 value="0.039591026357049" flag="0"/>
			<psa10 value="0.0160845136450962" flag="0"/>
			<psa30 value="0.0025849385311597" flag="0"/>
		</comp>
		<comp name="--.HNN" depth="0.0">
			<acc value="0.0190454215028737" flag="0"/>
			<vel value="0.0139172084511761" flag="0"/>
			<psa03 value="0.0530768337882521" flag="0"/>
			<psa10 value="0.0149774028044454" flag="0"/>
			<psa30 value="0.00138861271794574" flag="0"/>
		</comp>
		<comp name="--.HNZ" depth="0.0">
			<acc value="0.0104367383807767" flag="0"/>
			<vel value="0.00588939121409092" flag="0"/>
			<psa03 value="0.0258596115098504" flag="0"/>
			<psa10 value="0.00631094666300373" flag="0"/>
			<psa30 value="0.000759466248411839" flag="0"/>
		</comp>
	</station>
	<station code="PYL1" name="PYL1" netid="HI" source="ITSAK Strong Motion Network" insttype="" lat="36.914188" lon="21.695161" esm:processing="manual (Paolucci et al 2011)" esm:quality="good">
		<comp name="--.HNE" depth="0.0">
			<acc value="0.00699028823602853" flag="0"/>
			<vel value="0.0028304598176895" flag="0"/>
			<psa03 value="0.0138455851707962" flag="0"/>
			<psa10 value="0.00144012856551072" flag="0"/>
			<psa30 value="0.000219555325712617" flag="0"/>
		</comp>
		<comp name="--.HNN" depth="0.0">
			<acc value="0.0063577484514452" flag="0"/>
			<vel value="0.00221686080543271" flag="0"/>
			<psa03 value="0.0100164786466989" flag="0"/>
			<psa10 value="0.000954766080596963" flag="0"/>
			<psa30 value="0.000207476504716682" flag="0"/>
		</comp>
		<comp name="--.HNZ" depth="0.0">
			<acc value="0.00463937422915595" flag="0"/>
			<vel value="0.00144763757015655" flag="0"/>
			<psa03 value="0.00780173687885566" flag="0"/>
			<psa10 value="0.00079758267968666" flag="0"/>
			<psa30 value="0.00013042067097938" flag="0"/>
		</comp>
	</station>
	<station code="ITM" name="ITM" netid="HL" source="National Observatory of Athens Seismic Network" insttype="" lat="37.17872" lon="21.92522" esm:processing="manual (Paolucci et al 2011)" esm:quality="bad">
		<comp name="--.HNE" depth="0.0">
			<acc value="0.00411037755279742" flag="0"/>
			<vel value="0.00194037274082027" flag="0"/>
			<psa03 value="0.00735482836712091" flag="0"/>
			<psa10 value="0.00116673791565951" flag="0"/>
			<psa30 value="0.000554811024339473" flag="0"/>
		</comp>
		<comp name="--.HNN" depth="0.0">
			<acc value="0.00528688983622849" flag="0"/>
			<vel value="0.0021192407416158" flag="0"/>
			<psa03 value="0.00983494253232033" flag="0"/>
			<psa10 value="0.00168232793034398" flag="0"/>
			<psa30 value="0.000522778850282335" flag="0"/>
		</comp>
		<comp name="--.HNZ" depth="0.0">
			<acc value="0.0030001354746482" flag="0"/>
			<vel value="0.00154886649263402" flag="0"/>
			<psa03 value="0.00688246439303089" flag="0"/>
			<psa10 value="0.00107743852345033" flag="0"/>
			<psa30 value="0.000560768241895847" flag="0"/>
		</comp>
	</station>
	<station code="LXRA" name="LXRA" netid="HL" source="National Observatory of Athens Seismic Network" insttype="" lat="38.20006" lon="20.43718" esm:processing="manual (Paolucci et al 2011)" esm:quality="best">
		<comp name="00.HNE" depth="0.0">
			<acc value="0.0924307258481966" flag="0"/>
			<vel value="0.0327178320291847" flag="0"/>
			<psa03 value="0.151362884989613" flag="0"/>
			<psa10 value="0.0260574137124153" flag="0"/>
			<psa30 value="0.00413283762532976" flag="0"/>
		</comp>
		<comp name="00.HNN" depth="0.0">
			<acc value="0.0708320803604077" flag="0"/>
			<vel value="0.0316413091888532" flag="0"/>
			<psa03 value="0.149617938931501" flag="0"/>
			<psa10 value="0.0251151428410345" flag="0"/>
			<psa30 value="0.00265276543039733" flag="0"/>
		</comp>
		<comp name="00.HNZ" depth="0.0">
			<acc value="0.0559170170026456" flag="0"/>
			<vel value="0.0199819070105965" flag="0"/>
			<psa03 value="0.0949877046505909" flag="0"/>
			<psa10 value="0.0108763830068357" flag="0"/>
			<psa30 value="0.00176910684968646" flag="0"/>
		</comp>
	</station>
	<station code="PATC" name="PATC" netid="HL" source="National Observatory of Athens Seismic Network" insttype="" lat="38.26933" lon="21.76001" esm:processing="manual (Paolucci et al 2011)" esm:quality="good">
		<comp name="00.HNE" depth="0.0">
			<acc value="0.0102807189933684" flag="0"/>
			<vel value="0.0107582481824693" flag="0"/>
			<psa03 value="0.0299328917613227" flag="0"/>
			<psa10 value="0.00927431562789191" flag="0"/>
			<psa30 value="0.0029002167084587" flag="0"/>
		</comp>
		<comp name="00.HNN" depth="0.0">
			<acc value="0.0110291882474923" flag="0"/>
			<vel value="0.00709796165571237" flag="0"/>
			<psa03 value="0.0337406856756514" flag="0"/>
			<psa10 value="0.00700591457622358" flag="0"/>
			<psa30 value="0.00219763204067134" flag="0"/>
		</comp>
		<comp name="00.HNZ" depth="0.0">
			<acc value="0.0140519420019927" flag="0"/>
			<vel value="0.00418855407163287" flag="0"/>
			<psa03 value="0.0188219994692435" flag="0"/>
			<psa10 value="0.00401761208458476" flag="0"/>
			<psa30 value="0.000731648572292276" flag="0"/>
		</comp>
	</station>
	<station code="SMHA" name="SMHA" netid="HL" source="National Observatory of Athens Seismic Network" insttype="" lat="38.25123" lon="20.6477" esm:processing="manual (Paolucci et al 2011)" esm:quality="best">
		<comp name="00.HNE" depth="0.0">
			<acc value="0.091474072151558" flag="0"/>
			<vel value="0.0333894532999669" flag="0"/>
			<psa03 value="0.199467692922559" flag="0"/>
			<psa10 value="0.0150533247088917" flag="0"/>
			<psa30 value="0.00180417701787278" flag="0"/>
		</comp>
		<comp name="00.HNN" depth="0.0">
			<acc value="0.0945818347111794" flag="0"/>
			<vel value="0.0402076359467144" flag="0"/>
			<psa03 value="0.252606963138462" flag="0"/>
			<psa10 value="0.0189594409699172" flag="0"/>
			<psa30 value="0.00137899999781411" flag="0"/>
		</comp>
		<comp name="00.HNZ" depth="0.0">
			<acc value="0.0610327367889198" flag="0"/>
			<vel value="0.0208419730017163" flag="0"/>
			<psa03 value="0.132354705349774" flag="0"/>
			<psa10 value="0.0106090393592776" flag="0"/>
			<psa30 value="0.000884389628139292" flag="0"/>
		</comp>
	</station>
	<station code="ZARA" name="ZARA" netid="HL" source="National Observatory of Athens Seismic Network" insttype="" lat="37.4865" lon="21.6491" esm:processing="manual (Paolucci et al 2011)" esm:quality="best">
		<comp name="00.HNE" depth="0.0">
			<acc value="0.0207750790800094" flag="0"/>
			<vel value="0.0130006863757855" flag="0"/>
			<psa03 value="0.0553885494279234" flag="0"/>
			<psa10 value="0.00832020085996134" flag="0"/>
			<psa30 value="0.00246793661368842" flag="0"/>
		</comp>
		<comp name="00.HNN" depth="0.0">
			<acc value="0.0200417925106034" flag="0"/>
			<vel value="0.0109464602412823" flag="0"/>
			<psa03 value="0.0458238428964548" flag="0"/>
			<psa10 value="0.00434908716818296" flag="0"/>
			<psa30 value="0.00111065138770544" flag="0"/>
		</comp>
		<comp name="00.HNZ" depth="0.0">
			<acc value="0.00904072021797282" flag="0"/>
			<vel value="0.00527507890456167" flag="0"/>
			<psa03 value="0.0274570636873945" flag="0"/>
			<psa10 value="0.00340236460870841" flag="0"/>
			<psa30 value="0.000540592790784498" flag="0"/>
		</comp>
	</station>
	<station code="ANX" name="ANX" netid="HP" source="University of Patras, Seismological Laboratory (PSLNET)" insttype="" lat="38.5933" lon="21.9209" esm:processing="automatic (Paolucci et al 2011)" esm:quality="best">
		<comp name="--.HNE" depth="0.0">
			<acc value="0.00764806565760279" flag="0"/>
			<vel value="0.00535261233043561" flag="0"/>
			<psa03 value="0.0205764620479493" flag="0"/>
			<psa10 value="0.00394685380344541" flag="0"/>
			<psa30 value="0.000658263450474706" flag="0"/>
		</comp>
		<comp name="--.HNN" depth="0.0">
			<acc value="0.00760666458723764" flag="0"/>
			<vel value="0.0079525365220455" flag="0"/>
			<psa03 value="0.0214419178176405" flag="0"/>
			<psa10 value="0.00680692780054861" flag="0"/>
			<psa30 value="0.000943395411984166" flag="0"/>
		</comp>
		<comp name="--.HNZ" depth="0.0">
			<acc value="0.00531561340954459" flag="0"/>
			<vel value="0.00301011897818192" flag="0"/>
			<psa03 value="0.0123872633037403" flag="0"/>
			<psa10 value="0.0022028354582897" flag="0"/>
			<psa30 value="0.000490205911236043" flag="0"/>
		</comp>
	</station>
	<station code="FSK" name="FSK" netid="HP" source="University of Patras, Seismological Laboratory (PSLNET)" insttype="" lat="38.4593" lon="20.5623" esm:processing="manual (Paolucci et al 2011)" esm:quality="good">
		<comp name="--.HNE" depth="0.0">
			<acc value="0.0440196791463996" flag="0"/>
			<vel value="0.0117313860280664" flag="0"/>
			<psa03 value="0.0509968574581937" flag="0"/>
			<psa10 value="0.00550706825374452" flag="0"/>
			<psa30 value="0.000792700168745808" flag="0"/>
		</comp>
		<comp name="--.HNN" depth="0.0">
			<acc value="0.0152288776402645" flag="0"/>
			<vel value="0.00817761944673054" flag="0"/>
			<psa03 value="0.0329819088479277" flag="0"/>
			<psa10 value="0.0100937589744945" flag="0"/>
			<psa30 value="0.00078243943693935" flag="0"/>
		</comp>
		<comp name="--.HNZ" depth="0.0">
			<acc value="0.0144657160807284" flag="0"/>
			<vel value="0.00598555327268343" flag="0"/>
			<psa03 value="0.0259896461656746" flag="0"/>
			<psa10 value="0.00444860938603918" flag="0"/>
			<psa30 value="0.000444236563908825" flag="0"/>
		</comp>
	</station>
	<station code="AGRP" name="AGRP" netid="CL" source="Corinth Riff Laboratory (CRLNET)" insttype="" lat="38.3959" lon="21.72277" esm:processing="discarded" esm:quality="bad">
		<comp name="00.HNE" depth="0.0">
			<acc value="0" flag="1"/>
			<vel value="0" flag="1"/>
			<psa03 value="0" flag="1"/>
			<psa10 value="0" flag="1"/>
			<psa30 value="0" flag="1"/>
		</comp>
		<comp name="00.HNN" depth="0.0">
			<acc value="0" flag="1"/>
			<vel value="0" flag="1"/>
			<psa03 value="0" flag="1"/>
			<psa10 value="0" flag="1"/>
			<psa30 value="0" flag="1"/>
		</comp>
		<comp name="00.HNZ" depth="0.0">
			<acc value="0" flag="1"/>
			<vel value="0" flag="1"/>
			<psa03 value="0" flag="1"/>
			<psa10 value="0" flag="1"/>
			<psa30 value="0" flag="1"/>
		</comp>
	</station>
	<station code="ROD3" name="ROD3" netid="CL" source="Corinth Riff Laboratory (CRLNET)" insttype="" lat="38.30811" lon="21.89204" esm:processing="discarded" esm:quality="good">
		<comp name="00.HNE" depth="0.0">
			<acc value="0" flag="1"/>
			<vel value="0" flag="1"/>
			<psa03 value="0" flag="1"/>
			<psa10 value="0" flag="1"/>
			<psa30 value="0" flag="1"/>
		</comp>
		<comp name="00.HNN" depth="0.0">
			<acc value="0" flag="1"/>
			<vel value="0" flag="1"/>
			<psa03 value="0" flag="1"/>
			<psa10 value="0" flag="1"/>
			<psa30 value="0" flag="1"/>
		</comp>
		<comp name="00.HNZ" depth="0.0">
			<acc value="0" flag="1"/>
			<vel value="0" flag="1"/>
			<psa03 value="0" flag="1"/>
			<psa10 value="0" flag="1"/>
			<psa30 value="0" flag="1"/>
		</comp>
	</station>
	<station code="ARS1" name="ARS1" netid="HI" source="ITSAK Strong Motion Network" insttype="" lat="37.6349" lon="22.7293" esm:processing="discarded" esm:quality="bad">
		<comp name="--.HNE" depth="0.0">
			<acc value="0" flag="1"/>
			<vel value="0" flag="1"/>
			<psa03 value="0" flag="1"/>
			<psa10 value="0" flag="1"/>
			<psa30 value="0" flag="1"/>
		</comp>
		<comp name="--.HNN" depth="0.0">
			<acc value="0" flag="1"/>
			<vel value="0" flag="1"/>
			<psa03 value="0" flag="1"/>
			<psa10 value="0" flag="1"/>
			<psa30 value="0" flag="1"/>
		</comp>
		<comp name="--.HNZ" depth="0.0">
			<acc value="0" flag="1"/>
			<vel value="0" flag="1"/>
			<psa03 value="0" flag="1"/>
			<psa10 value="0" flag="1"/>
			<psa30 value="0" flag="1"/>
		</comp>
	</station>
	<station code="LAM2" name="LAM2" netid="HI" source="ITSAK Strong Motion Network" insttype="" lat="38.90203" lon="22.431301" esm:processing="discarded" esm:quality="bad">
		<comp name="--.HNE" depth="0.0">
			<acc value="0" flag="1"/>
			<vel value="0" flag="1"/>
			<psa03 value="0" flag="1"/>
			<psa10 value="0" flag="1"/>
			<psa30 value="0" flag="1"/>
		</comp>
		<comp name="--.HNN" depth="0.0">
			<acc value="0" flag="1"/>
			<vel value="0" flag="1"/>
			<psa03 value="0" flag="1"/>
			<psa10 value="0" flag="1"/>
			<psa30 value="0" flag="1"/>
		</comp>
		<comp name="--.HNZ" depth="0.0">
			<acc value="0" flag="1"/>
			<vel value="0" flag="1"/>
			<psa03 value="0" flag="1"/>
			<psa10 value="0" flag="1"/>
			<psa30 value="0" flag="1"/>
		</comp>
	</station>
	<station code="ARTB" name="ARTB" netid="HL" source="National Observatory of Athens Seismic Network" insttype="" lat="39.15702" lon="20.9785" esm:processing="discarded" esm:quality="good">
		<comp name="00.HNE" depth="0.0">
			<acc value="0" flag="1"/>
			<vel value="0" flag="1"/>
			<psa03 value="0" flag="1"/>
			<psa10 value="0" flag="1"/>
			<psa30 value="0" flag="1"/>
		</comp>
		<comp name="00.HNN" depth="0.0">
			<acc value="0" flag="1"/>
			<vel value="0" flag="1"/>
			<psa03 value="0" flag="1"/>
			<psa10 value="0" flag="1"/>
			<psa30 value="0" flag="1"/>
		</comp>
		<comp name="00.HNZ" depth="0.0">
			<acc value="0" flag="1"/>
			<vel value="0" flag="1"/>
			<psa03 value="0" flag="1"/>
			<psa10 value="0" flag="1"/>
			<psa30 value="0" flag="1"/>
		</comp>
	</station>
	<station code="DLFA" name="DLFA" netid="HL" source="National Observatory of Athens Seismic Network" insttype="" lat="38.47836" lon="22.49583" esm:processing="discarded" esm:quality="bad">
		<comp name="00.HNE" depth="0.0">
			<acc value="0" flag="1"/>
			<vel value="0" flag="1"/>
			<psa03 value="0" flag="1"/>
			<psa10 value="0" flag="1"/>
			<psa30 value="0" flag="1"/>
		</comp>
		<comp name="00.HNN" depth="0.0">
			<acc value="0" flag="1"/>
			<vel value="0" flag="1"/>
			<psa03 value="0" flag="1"/>
			<psa10 value="0" flag="1"/>
			<psa30 value="0" flag="1"/>
		</comp>
		<comp name="00.HNZ" depth="0.0">
			<acc value="0" flag="1"/>
			<vel value="0" flag="1"/>
			<psa03 value="0" flag="1"/>
			<psa10 value="0" flag="1"/>
			<psa30 value="0" flag="1"/>
		</comp>
	</station>
	<station code="JAN" name="JAN" netid="HL" source="National Observatory of Athens Seismic Network" insttype="" lat="39.65616" lon="20.84874" esm:processing="discarded" esm:quality="bad">
		<comp name="00.HNE" depth="0.0">
			<acc value="0" flag="1"/>
			<vel value="0" flag="1"/>
			<psa03 value="0" flag="1"/>
			<psa10 value="0" flag="1"/>
			<psa30 value="0" flag="1"/>
		</comp>
		<comp name="00.HNN" depth="0.0">
			<acc value="0" flag="1"/>
			<vel value="0" flag="1"/>
			<psa03 value="0" flag="1"/>
			<psa10 value="0" flag="1"/>
			<psa30 value="0" flag="1"/>
		</comp>
		<comp name="00.HNZ" depth="0.0">
			<acc value="0" flag="1"/>
			<vel value="0" flag="1"/>
			<psa03 value="0" flag="1"/>
			<psa10 value="0" flag="1"/>
			<psa30 value="0" flag="1"/>
		</comp>
	</station>
	<station code="KIAA" name="KIAA" netid="HL" source="National Observatory of Athens Seismic Network" insttype="" lat="38.0139" lon="22.7495" esm:processing="discarded" esm:quality="bad">
		<comp name="00.HNE" depth="0.0">
			<acc value="0" flag="1"/>
			<vel value="0" flag="1"/>
			<psa03 value="0" flag="1"/>
			<psa10 value="0" flag="1"/>
			<psa30 value="0" flag="1"/>
		</comp>
		<comp name="00.HNN" depth="0.0">
			<acc value="0" flag="1"/>
			<vel value="0" flag="1"/>
			<psa03 value="0" flag="1"/>
			<psa10 value="0" flag="1"/>
			<psa30 value="0" flag="1"/>
		</comp>
		<comp name="00.HNZ" depth="0.0">
			<acc value="0" flag="1"/>
