<?xml version="1.0" encoding="UTF-8" standalone="yes"?>
<!DOCTYPE earthquake SYSTEM "stationlist.dtd">
<stationlist created="" xmlns="ch.ethz.sed.shakemap.usgs.xml">
  <station code="AGRP" name="AGRP" netid="CL" source="RESIF" insttype="30" lat="38.3959" lon="21.7228">
    <comp name="00.HHE">
      <acc value="0.0050959391" flag="0"/>
      <vel value="0.0032738792" flag="0"/>
      <psa03 value="0.0130952595" flag="0"/>
      <psa10 value="0.0024610185" flag="0"/>
      <psa30 value="0.0011937423" flag="0"/>
    </comp>
    <comp name="00.HHN">
      <acc value="0.0047918493" flag="0"/>
      <vel value="0.0025383216" flag="0"/>
      <psa03 value="0.0135399097" flag="0"/>
      <psa10 value="0.0022352525" flag="0"/>
      <psa30 value="0.0006388551" flag="0"/>
    </comp>
    <comp name="00.HHZ">
      <acc value="0.0041168896" flag="0"/>
      <vel value="0.0017012205" flag="0"/>
      <psa03 value="0.0084294787" flag="0"/>
      <psa10 value="0.0015197568" flag="0"/>
      <psa30 value="0.0004380884" flag="0"/>
    </comp>
  </station>
  <station code="MALA" name="MALA" netid="CL" source="RESIF" insttype="30" lat="38.3935" lon="21.8726">
    <comp name="00.HH2">
      <acc value="0.0040436626" flag="0"/>
      <vel value="0.0026810705" flag="0"/>
      <psa03 value="0.0133747673" flag="0"/>
      <psa10 value="0.0020013408" flag="0"/>
      <psa30 value="0.0007514357" flag="0"/>
    </comp>
    <comp name="00.HH3">
      <acc value="0.0031285246" flag="0"/>
      <vel value="0.0026461145" flag="0"/>
      <psa03 value="0.0093071759" flag="0"/>
      <psa10 value="0.0021676305" flag="0"/>
      <psa30 value="0.0007908875" flag="0"/>
    </comp>
    <comp name="00.HHZ">
      <acc value="0.0030869368" flag="0"/>
      <vel value="0.0009852179" flag="0"/>
      <psa03 value="0.0028588119" flag="0"/>
      <psa10 value="0.0007539214" flag="0"/>
      <psa30 value="0.0001584728" flag="0"/>
    </comp>
  </station>
  <station code="ROD3" name="ROD3" netid="CL" source="RESIF" insttype="30" lat="38.3081" lon="21.892">
    <comp name="00.HHE">
      <acc value="0.0149792281" flag="0"/>
      <vel value="0.0092862051" flag="0"/>
      <psa03 value="0.0577935693" flag="0"/>
      <psa10 value="0.0039609175" flag="0"/>
      <psa30 value="0.0007498102" flag="0"/>
    </comp>
    <comp name="00.HHN">
      <acc value="0.0145721645" flag="0"/>
      <vel value="0.0071770022" flag="0"/>
      <psa03 value="0.0501311233" flag="0"/>
      <psa10 value="0.0029433455" flag="0"/>
      <psa30 value="0.0007403320" flag="0"/>
    </comp>
    <comp name="00.HHZ">
      <acc value="0.0124743917" flag="0"/>
      <vel value="0.0033664202" flag="0"/>
      <psa03 value="0.0185933783" flag="0"/>
      <psa10 value="0.0021552330" flag="0"/>
      <psa30 value="0.0002860046" flag="0"/>
    </comp>
  </station>
  <station code="RLS" name="RLS" netid="HL" source="NOA" insttype="120" lat="38.0559" lon="21.4647">
    <comp name="--.HHE">
      <acc value="0.0086074743" flag="0"/>
      <vel value="0.0033392895" flag="0"/>
      <psa03 value="0.0179647671" flag="0"/>
      <psa10 value="0.0022121922" flag="0"/>
      <psa30 value="0.0003187271" flag="0"/>
    </comp>
    <comp name="--.HHN">
      <acc value="0.0106856810" flag="0"/>
      <vel value="0.0036396549" flag="0"/>
      <psa03 value="0.0253637330" flag="0"/>
      <psa10 value="0.0023896411" flag="0"/>
      <psa30 value="0.0003755985" flag="0"/>
    </comp>
    <comp name="--.HHZ">
      <acc value="0.0053447698" flag="0"/>
      <vel value="0.0020210193" flag="0"/>
      <psa03 value="0.0118028420" flag="0"/>
      <psa10 value="0.0017191122" flag="0"/>
      <psa30 value="0.0004037568" flag="0"/>
    </comp>
  </station>
  <station code="VLS" name="VLS" netid="HL" source="NOA" insttype="120P," lat="38.1768" lon="20.5886">
    <comp name="--.HHE">
      <acc value="0.0984080339" flag="0"/>
      <vel value="0.0201874055" flag="0"/>
      <psa03 value="0.0908747504" flag="0"/>
      <psa10 value="0.0054313688" flag="0"/>
      <psa30 value="0.0006241783" flag="0"/>
    </comp>
    <comp name="--.HHN">
      <acc value="0.0603280439" flag="0"/>
      <vel value="0.0172299347" flag="0"/>
      <psa03 value="0.0739489256" flag="0"/>
      <psa10 value="0.0065710735" flag="0"/>
      <psa30 value="0.0005065756" flag="0"/>
    </comp>
    <comp name="--.HHZ">
      <acc value="0.0318879761" flag="0"/>
      <vel value="0.0104490897" flag="0"/>
      <psa03 value="0.0403887830" flag="0"/>
      <psa10 value="0.0073779542" flag="0"/>
      <psa30 value="0.0004595935" flag="0"/>
    </comp>
  </station>
  <station code="AMT" name="AMT" netid="HP" source="NOA" insttype="CMG-3T," lat="37.5324" lon="21.7089">
    <comp name="00.HHE">
      <acc value="0.0134846129" flag="0"/>
      <vel value="0.0066610977" flag="0"/>
      <psa03 value="0.0335886986" flag="0"/>
      <psa10 value="0.0063002094" flag="0"/>
      <psa30 value="0.0005291544" flag="0"/>
    </comp>
    <comp name="00.HHN">
      <acc value="0.0143216926" flag="0"/>
      <vel value="0.0069039203" flag="0"/>
      <psa03 value="0.0389312982" flag="0"/>
      <psa10 value="0.0062808779" flag="0"/>
      <psa30 value="0.0010858218" flag="0"/>
    </comp>
    <comp name="00.HHZ">
      <acc value="0.0114958621" flag="0"/>
      <vel value="0.0055049785" flag="0"/>
      <psa03 value="0.0251597383" flag="0"/>
      <psa10 value="0.0030408478" flag="0"/>
      <psa30 value="0.0003343963" flag="0"/>
    </comp>
  </station>
  <station code="DRO" name="DRO" netid="HP" source="NOA" insttype="120P," lat="37.952" lon="21.71">
    <comp name="--.HHE">
      <acc value="0.0193590631" flag="0"/>
      <vel value="0.0083904982" flag="0"/>
      <psa03 value="0.0470935206" flag="0"/>
      <psa10 value="0.0043934883" flag="0"/>
      <psa30 value="0.0006268841" flag="0"/>
    </comp>
    <comp name="--.HHN">
      <acc value="0.0162653296" flag="0"/>
      <vel value="0.0091331773" flag="0"/>
      <psa03 value="0.0466649643" flag="0"/>
      <psa10 value="0.0040919473" flag="0"/>
      <psa30 value="0.0004351676" flag="0"/>
    </comp>
    <comp name="--.HHZ">
      <acc value="0.0064239428" flag="0"/>
      <vel value="0.0035162787" flag="0"/>
      <psa03 value="0.0214772193" flag="0"/>
      <psa10 value="0.0024490112" flag="0"/>
      <psa30 value="0.0004022989" flag="0"/>
    </comp>
  </station>
  <station code="FSK" name="FSK" netid="HP" source="NOA" insttype="40," lat="38.4593" lon="20.5623">
    <comp name="--.HHE">
      <acc value="0.0430436912" flag="0"/>
      <vel value="0.0113899717" flag="0"/>
      <psa03 value="0.0490590043" flag="0"/>
      <psa10 value="0.0052808698" flag="0"/>
      <psa30 value="0.0016451632" flag="0"/>
    </comp>
    <comp name="--.HHN">
      <acc value="0.0164066877" flag="0"/>
      <vel value="0.0073072119" flag="0"/>
      <psa03 value="0.0327976840" flag="0"/>
      <psa10 value="0.0102851997" flag="0"/>
      <psa30 value="0.0008167508" flag="0"/>
    </comp>
    <comp name="--.HHZ">
      <acc value="0.0144862035" flag="0"/>
      <vel value="0.0063411530" flag="0"/>
      <psa03 value="0.0257567149" flag="0"/>
      <psa10 value="0.0045033000" flag="0"/>
      <psa30 value="0.0007085173" flag="0"/>
    </comp>
  </station>
  <station code="LTHK" name="LTHK" netid="HP" source="NOA" insttype="40," lat="37.7095" lon="20.8367">
    <comp name="--.HHE">
      <acc value="0.5884236669" flag="0"/>
      <vel value="0.0958786384" flag="0"/>
      <psa03 value="0.3004108281" flag="0"/>
      <psa10 value="0.0277922591" flag="0"/>
      <psa30 value="0.0017853557" flag="0"/>
    </comp>
  </station>
  <station code="DMLN" name="DMLN" netid="HT" source="NOA" insttype="1s-100Hz," lat="38.2385" lon="20.3734">
    <comp name="--.HHE">
      <acc value="0.0737625779" flag="0"/>
      <vel value="0.0325993526" flag="0"/>
      <psa03 value="0.1568448677" flag="0"/>
      <psa10 value="0.0202148878" flag="0"/>
      <psa30 value="0.0025344283" flag="0"/>
    </comp>
    <comp name="--.HHN">
      <acc value="0.0823120440" flag="0"/>
      <vel value="0.0448194925" flag="0"/>
      <psa03 value="0.1553135724" flag="0"/>
      <psa10 value="0.0323151708" flag="0"/>
      <psa30 value="0.0021540782" flag="0"/>
    </comp>
    <comp name="--.HHZ">
      <acc value="0.0524645147" flag="0"/>
      <vel value="0.0147462531" flag="0"/>
      <psa03 value="0.0825573974" flag="0"/>
      <psa10 value="0.0130030345" flag="0"/>
      <psa30 value="0.0008126896" flag="0"/>
    </comp>
  </station>
  <station code="EVGI" name="EVGI" netid="HT" source="NOA" insttype="30" lat="38.621" lon="20.656">
    <comp name="--.HHE">
      <acc value="0.0553922884" flag="0"/>
      <vel value="0.0113939425" flag="0"/>
      <psa03 value="0.0667568706" flag="0"/>
      <psa10 value="0.0046844609" flag="0"/>
      <psa30 value="0.0014980471" flag="0"/>
    </comp>
    <comp name="--.HHN">
      <acc value="nan" flag="0"/>
      <vel value="-100.0000000000" flag="0"/>
      <psa03 value="0.0000000000" flag="0"/>
      <psa10 value="0.0000000000" flag="0"/>
      <psa30 value="0.0000000000" flag="0"/>
    </comp>
    <comp name="--.HHZ">
      <acc value="0.0305807578" flag="0"/>
      <vel value="0.0069042738" flag="0"/>
      <psa03 value="0.0513669491" flag="0"/>
      <psa10 value="0.0029146293" flag="0"/>
      <psa30 value="0.0006991160" flag="0"/>
    </comp>
  </station>
  <station code="LKD2" name="LKD2" netid="HT" source="NOA" insttype="100" lat="38.7889" lon="20.6578">
    <comp name="--.HHE">
      <acc value="0.0132874793" flag="0"/>
      <vel value="0.0110360220" flag="0"/>
      <psa03 value="0.0281423025" flag="0"/>
      <psa10 value="0.0074813596" flag="0"/>
      <psa30 value="0.0013257574" flag="0"/>
    </comp>
    <comp name="--.HHN">
      <acc value="0.0112749341" flag="0"/>
      <vel value="0.0049775842" flag="0"/>
      <psa03 value="0.0284948365" flag="0"/>
      <psa10 value="0.0071008978" flag="0"/>
      <psa30 value="0.0010829290" flag="0"/>
    </comp>
    <comp name="--.HHZ">
      <acc value="0.0086694491" flag="0"/>
      <vel value="0.0037389030" flag="0"/>
      <psa03 value="0.0230739014" flag="0"/>
      <psa10 value="0.0032051787" flag="0"/>
      <psa30 value="0.0004189176" flag="0"/>
    </comp>
  </station>
  <station code="NYDR" name="NYDR" netid="HT" source="NOA" insttype="1s-100Hz," lat="38.7135" lon="20.6983">
    <comp name="--.HHE">
      <acc value="0.0119237256" flag="0"/>
      <vel value="0.0073821289" flag="0"/>
      <psa03 value="0.0220499274" flag="0"/>
      <psa10 value="0.0055565260" flag="0"/>
      <psa30 value="0.0010325810" flag="0"/>
    </comp>
    <comp name="--.HHN">
      <acc value="0.0143544578" flag="0"/>
      <vel value="0.0077544535" flag="0"/>
      <psa03 value="0.0297773477" flag="0"/>
      <psa10 value="0.0042007047" flag="0"/>
      <psa30 value="0.0005132987" flag="0"/>
    </comp>
    <comp name="--.HHZ">
      <acc value="0.0105895729" flag="0"/>
      <vel value="0.0051456081" flag="0"/>
      <psa03 value="0.0199409719" flag="0"/>
      <psa10 value="0.0031701862" flag="0"/>
      <psa30 value="0.0006211941" flag="0"/>
    </comp>
  </station>
  <station code="PSDA" name="PSDA" netid="HT" source="NOA" insttype="30" lat="38.114" lon="20.5841">
    <comp name="--.HHE">
      <acc value="0.1324518008" flag="0"/>
      <vel value="0.0293662978" flag="0"/>
      <psa03 value="0.1827055459" flag="0"/>
      <psa10 value="0.0116030347" flag="0"/>
      <psa30 value="0.0011043441" flag="0"/>
    </comp>
    <comp name="--.HHN">
      <acc value="0.1100584204" flag="0"/>
      <vel value="0.0304619344" flag="0"/>
      <psa03 value="0.1412588156" flag="0"/>
      <psa10 value="0.0115345519" flag="0"/>
      <psa30 value="0.0010002864" flag="0"/>
    </comp>
    <comp name="--.HHZ">
      <acc value="0.0809721521" flag="0"/>
      <vel value="0.0216583758" flag="0"/>
      <psa03 value="0.0502994233" flag="0"/>
      <psa10 value="0.0064926035" flag="0"/>
      <psa30 value="0.0006960455" flag="0"/>
    </comp>
  </station>
</stationlist>
