<?xml version="1.0" encoding="UTF-8" standalone="yes"?>
<!DOCTYPE earthquake SYSTEM "stationlist.dtd">
<stationlist created="" xmlns="ch.ethz.sed.shakemap.usgs.xml">
  <station code="GAZ" name="GAZ" netid="KO" insttype="CMG-3T" lat="37.1721" lon="37.2096">
    <comp name="--.HHE">
      <acc value="0.0325773505" flag="0"/>
      <vel value="0.0237026043" flag="0"/>
      <psa03 value="0.0590554712" flag="0"/>
      <psa10 value="0.0280080527" flag="0"/>
      <psa30 value="0.0041161160" flag="0"/>
    </comp>
    <comp name="--.HHN">
      <acc value="0.0237450507" flag="0"/>
      <vel value="0.0213846985" flag="0"/>
      <psa03 value="0.0430991250" flag="0"/>
      <psa10 value="0.0294409526" flag="0"/>
      <psa30 value="0.0036109924" flag="0"/>
    </comp>
    <comp name="--.HHZ">
      <acc value="0.0187180970" flag="0"/>
      <vel value="0.0104648322" flag="0"/>
      <psa03 value="0.0344658596" flag="0"/>
      <psa10 value="0.0171676502" flag="0"/>
      <psa30 value="0.0080047545" flag="0"/>
    </comp>
  </station>
  <station code="SARI" name="SARI" netid="KO" insttype="CMG-3T" lat="38.4072" lon="36.4181">
    <comp name="--.HHN">
      <acc value="0.1269093762" flag="0"/>
      <vel value="0.0545751849" flag="0"/>
      <psa03 value="0.1936736143" flag="0"/>
      <psa10 value="0.0960970405" flag="0"/>
      <psa30 value="0.0072422526" flag="0"/>
    </comp>
    <comp name="--.HHE">
      <acc value="0.1338849237" flag="0"/>
      <vel value="0.0750419361" flag="0"/>
      <psa03 value="0.2536205846" flag="0"/>
      <psa10 value="0.1699604192" flag="0"/>
      <psa30 value="0.0128482614" flag="0"/>
    </comp>
  </station>
  <station code="ANDN" name="ANDN" netid="TU" insttype="T" lat="37.58" lon="36.3452">
    <comp name="--.HHN">
      <acc value="0.2889303571" flag="0"/>
      <vel value="0.1035239212" flag="0"/>
      <psa03 value="0.7298660869" flag="0"/>
      <psa10 value="0.1005817464" flag="0"/>
      <psa30 value="0.0214099738" flag="0"/>
    </comp>
    <comp name="--.HHZ">
      <acc value="0.0777979836" flag="0"/>
      <vel value="0.0510651272" flag="0"/>
      <psa03 value="0.2104707450" flag="0"/>
      <psa10 value="0.1197176569" flag="0"/>
      <psa30 value="0.0097440152" flag="0"/>
    </comp>
    <comp name="--.HHE">
      <acc value="0.1345013842" flag="0"/>
      <vel value="0.0743432467" flag="0"/>
      <psa03 value="0.3580823572" flag="0"/>
      <psa10 value="0.1304744820" flag="0"/>
      <psa30 value="0.0218823360" flag="0"/>
    </comp>
  </station>
</stationlist>
