<?xml version="1.0" encoding="UTF-8" standalone="yes"?>
<!DOCTYPE earthquake SYSTEM "stationlist.dtd">
<stationlist created="" xmlns="ch.ethz.sed.shakemap.usgs.xml">
  <station code="SARI" name="SARI" netid="KO" insttype="CMG-3T" lat="38.4072" lon="36.4181">
    <comp name="--.HHE">
      <acc value="0.1338849237" flag="0"/>
      <vel value="0.0750419278" flag="0"/>
      <psa03 value="0.2536205846" flag="0"/>
      <psa10 value="0.1699603604" flag="0"/>
      <psa30 value="0.0128478443" flag="0"/>
    </comp>
    <comp name="--.HHN">
      <acc value="0.1269093761" flag="0"/>
      <vel value="0.0545751916" flag="0"/>
      <psa03 value="0.1936736143" flag="0"/>
      <psa10 value="0.0960969495" flag="0"/>
      <psa30 value="0.0072420761" flag="0"/>
    </comp>
    <comp name="--.HHZ">
      <acc value="0.0560872498" flag="0"/>
      <vel value="0.0563241655" flag="0"/>
      <psa03 value="0.1329913497" flag="0"/>
      <psa10 value="0.0785479296" flag="0"/>
      <psa30 value="0.0135208017" flag="0"/>
    </comp>
  </station>
</stationlist>
