<stationlist created="1675764113">
	<station code="CMRD" name="CMRD" netid="KO" source="Bogazici University Kandilli Observatory And Earthquake Research Institute (KOERI)" insttype="" lat="37.6623" lon="34.9902">
		<comp name=".HNE" depth="0.0">
			<acc value="0.00669895534044" flag="0"/>
			<vel value="0.00881096499377" flag="0"/>
			<psa03 value="0.0222596074023" flag="0"/>
			<psa10 value="0.0180604051632" flag="0"/>
			<psa30 value="0.00319646883371" flag="0"/>
		</comp>
		<comp name=".HNN" depth="0.0">
			<acc value="0.0082364938831" flag="0"/>
			<vel value="0.00971055135483" flag="0"/>
			<psa03 value="0.0236423865046" flag="0"/>
			<psa10 value="0.0151895065428" flag="0"/>
			<psa30 value="0.00298834733835" flag="0"/>
		</comp>
		<comp name=".HNZ" depth="0.0">
			<acc value="0.00404136278737" flag="0"/>
			<vel value="0.00933514292204" flag="0"/>
			<psa03 value="0.00956789294055" flag="0"/>
			<psa10 value="0.00784147977204" flag="0"/>
			<psa30 value="0.00622884096348" flag="0"/>
		</comp>
	</station>
	<station code="KOZK" name="KOZK" netid="KO" source="Bogazici University Kandilli Observatory And Earthquake Research Institute (KOERI)" insttype="" lat="39.2101" lon="34.868">
		<comp name=".HNE" depth="0.0">
			<acc value="0.0120547378524" flag="0"/>
			<vel value="0.0139780318654" flag="0"/>
			<psa03 value="0.0246173104635" flag="0"/>
			<psa10 value="0.0265716446161" flag="0"/>
			<psa30 value="0.00237464897551" flag="0"/>
		</comp>
		<comp name=".HNN" depth="0.0">
			<acc value="0.0137723383732" flag="0"/>
			<vel value="0.0240912689239" flag="0"/>
			<psa03 value="0.0281944198253" flag="0"/>
			<psa10 value="0.0421251268327" flag="0"/>
			<psa30 value="0.00345575705194" flag="0"/>
		</comp>
		<comp name=".HNZ" depth="0.0">
			<acc value="0.00651077144237" flag="0"/>
			<vel value="0.00693556196157" flag="0"/>
			<psa03 value="0.0208853679281" flag="0"/>
			<psa10 value="0.013327485693" flag="0"/>
			<psa30 value="0.00256861765832" flag="0"/>
		</comp>
	</station>
	<station code="KRTS" name="KRTS" netid="KO" source="Bogazici University Kandilli Observatory And Earthquake Research Institute (KOERI)" insttype="" lat="36.573" lon="35.375">
		<comp name=".HNE" depth="0.0">
			<acc value="0.00329193122113" flag="0"/>
			<vel value="0.00485425911455" flag="0"/>
			<psa03 value="0.00791456596783" flag="0"/>
			<psa10 value="0.00370172490861" flag="0"/>
			<psa30 value="0.00241294755427" flag="0"/>
		</comp>
		<comp name=".HNN" depth="0.0">
			<acc value="0.00345404204889" flag="0"/>
			<vel value="0.00472138621185" flag="0"/>
			<psa03 value="0.0114767798116" flag="0"/>
			<psa10 value="0.00616024667986" flag="0"/>
			<psa30 value="0.00190075820757" flag="0"/>
		</comp>
		<comp name=".HNZ" depth="0.0">
			<acc value="0.00428785626146" flag="0"/>
			<vel value="0.00342545873541" flag="0"/>
			<psa03 value="0.00653537824924" flag="0"/>
			<psa10 value="0.00264893336946" flag="0"/>
			<psa30 value="0.00175814250998" flag="0"/>
		</comp>
	</station>
</stationlist>
