<?xml version="1.0" encoding="UTF-8" standalone="yes"?>
<!DOCTYPE earthquake SYSTEM "stationlist.dtd">
<stationlist created="" xmlns="ch.ethz.sed.shakemap.usgs.xml">
  <station code="ARPRA" name="ARPRA" netid="KO" insttype="CMG-5T" lat="39.0929" lon="38.3356">
    <comp name="--.HNZ">
      <acc value="0.0526017922" flag="0"/>
      <vel value="0.0261347506" flag="0"/>
      <psa03 value="0.1429222631" flag="0"/>
      <psa10 value="0.0164987059" flag="0"/>
      <psa30 value="0.0014754952" flag="0"/>
    </comp>
    <comp name="--.HNE">
      <acc value="0.1284848286" flag="0"/>
      <vel value="0.0559477585" flag="0"/>
      <psa03 value="0.3313631368" flag="0"/>
      <psa10 value="0.0472682938" flag="0"/>
      <psa30 value="0.0049988742" flag="0"/>
    </comp>
    <comp name="--.HNN">
      <acc value="0.0817396484" flag="0"/>
      <vel value="0.0363770396" flag="0"/>
      <psa03 value="0.1121424547" flag="0"/>
      <psa10 value="0.0385044636" flag="0"/>
      <psa30 value="0.0028693658" flag="0"/>
    </comp>
  </station>
  <station code="DARE" name="DARE" netid="KO" insttype="CMG-3ESP" lat="38.5712" lon="37.4832">
    <comp name="--.HHE">
      <acc value="0.0060868118" flag="0"/>
      <vel value="0.0049531509" flag="0"/>
      <psa03 value="0.0119304912" flag="0"/>
      <psa10 value="0.0065764716" flag="0"/>
      <psa30 value="0.0005176276" flag="0"/>
    </comp>
    <comp name="--.HHN">
      <acc value="0.0068683167" flag="0"/>
      <vel value="0.0055768432" flag="0"/>
      <psa03 value="0.0202800926" flag="0"/>
      <psa10 value="0.0070045971" flag="0"/>
      <psa30 value="0.0005280784" flag="0"/>
    </comp>
    <comp name="--.HHZ">
      <acc value="0.0059761592" flag="0"/>
      <vel value="0.0040568782" flag="0"/>
      <psa03 value="0.0150616530" flag="0"/>
      <psa10 value="0.0062557856" flag="0"/>
      <psa30 value="0.0003770381" flag="0"/>
    </comp>
  </station>
  <station code="SINE" name="SINE" netid="KO" insttype="CMG-6T" lat="39.1636" lon="39.3871">
    <comp name="--.HHZ">
      <acc value="0.0099686128" flag="0"/>
      <vel value="0.0034742274" flag="0"/>
      <psa03 value="0.0244315109" flag="0"/>
      <psa10 value="0.0037601506" flag="0"/>
      <psa30 value="0.0002074319" flag="0"/>
    </comp>
    <comp name="--.HHN">
      <acc value="0.0165667594" flag="0"/>
      <vel value="0.0066686419" flag="0"/>
      <psa03 value="0.0287802666" flag="0"/>
      <psa10 value="0.0071559279" flag="0"/>
      <psa30 value="0.0003192702" flag="0"/>
    </comp>
    <comp name="--.HHE">
      <acc value="0.0134458673" flag="0"/>
      <vel value="0.0053862238" flag="0"/>
      <psa03 value="0.0276718945" flag="0"/>
      <psa10 value="0.0029945562" flag="0"/>
      <psa30 value="0.0001970661" flag="0"/>
    </comp>
  </station>
  <station code="SVRC" name="SVRC" netid="KO" insttype="CMG-3T" lat="38.3775" lon="39.306">
    <comp name="--.HHE">
      <acc value="0.1144040698" flag="0"/>
      <vel value="0.0477246702" flag="0"/>
      <psa03 value="0.3443813326" flag="0"/>
      <psa10 value="0.0413021356" flag="0"/>
      <psa30 value="0.0020280128" flag="0"/>
    </comp>
    <comp name="--.HHZ">
      <acc value="0.1170817165" flag="0"/>
      <vel value="0.0399915173" flag="0"/>
      <psa03 value="0.1728613685" flag="0"/>
      <psa10 value="0.0240488837" flag="0"/>
      <psa30 value="0.0026349803" flag="0"/>
    </comp>
  </station>
  <station code="URFA" name="URFA" netid="KO" insttype="CMG-3ESP" lat="37.4409" lon="38.8213">
    <comp name="--.HHN">
      <acc value="0.0618375337" flag="0"/>
      <vel value="0.0245928015" flag="0"/>
      <psa03 value="0.0677508097" flag="0"/>
      <psa10 value="0.0143330044" flag="0"/>
      <psa30 value="0.0014948966" flag="0"/>
    </comp>
    <comp name="--.HHE">
      <acc value="0.0603869978" flag="0"/>
      <vel value="0.0258390154" flag="0"/>
      <psa03 value="0.0683439785" flag="0"/>
      <psa10 value="0.0328329435" flag="0"/>
      <psa30 value="0.0033377727" flag="0"/>
    </comp>
  </station>
</stationlist>
