<?xml version="1.0" encoding="UTF-8" standalone="yes"?>
<!DOCTYPE earthquake SYSTEM "stationlist.dtd">
<stationlist created="" xmlns="ch.ethz.sed.shakemap.usgs.xml">
  <station code="KARP" name="KARP" netid="GE" insttype="STS-2/N" lat="35.5471" lon="27.1611">
    <comp name="--.HHZ">
      <acc value="0.0223559234" flag="0"/>
      <vel value="0.0038774612" flag="0"/>
      <psa03 value="0.0183964382" flag="0"/>
      <psa10 value="0.0029865589" flag="0"/>
      <psa30 value="0.0003540399" flag="0"/>
    </comp>
    <comp name="--.HHE">
      <acc value="0.0286524362" flag="0"/>
      <vel value="0.0069973274" flag="0"/>
      <psa03 value="0.0302413377" flag="0"/>
      <psa10 value="0.0118984068" flag="0"/>
      <psa30 value="0.0010204303" flag="0"/>
    </comp>
    <comp name="--.HHN">
      <acc value="0.0227180576" flag="0"/>
      <vel value="0.0054142739" flag="0"/>
      <psa03 value="0.0292794357" flag="0"/>
      <psa10 value="0.0060295966" flag="0"/>
      <psa30 value="0.0005351080" flag="0"/>
    </comp>
  </station>
  <station code="ARG" name="ARG" netid="HL" insttype="LE3D20_DR24" lat="36.2136" lon="28.1212">
    <comp name="--.HHZ">
      <acc value="0.0160600053" flag="0"/>
      <vel value="0.0073688767" flag="0"/>
      <psa03 value="0.0146770353" flag="0"/>
      <psa10 value="0.0115050434" flag="0"/>
      <psa30 value="0.0011283871" flag="0"/>
    </comp>
    <comp name="--.HHE">
      <acc value="0.0229399414" flag="0"/>
      <vel value="0.0134575943" flag="0"/>
      <psa03 value="0.0531605246" flag="0"/>
      <psa10 value="0.0140461048" flag="0"/>
      <psa30 value="0.0017984483" flag="0"/>
    </comp>
    <comp name="--.HHN">
      <acc value="0.0202487241" flag="0"/>
      <vel value="0.0143362387" flag="0"/>
      <psa03 value="0.0472817427" flag="0"/>
      <psa10 value="0.0161198809" flag="0"/>
      <psa30 value="0.0014004630" flag="0"/>
    </comp>
  </station>
  <station code="KARP" name="KARP" netid="HL" insttype="120" lat="35.5471" lon="27.1611">
    <comp name="--.HHE">
      <acc value="0.0246233830" flag="0"/>
      <vel value="0.0068892129" flag="0"/>
      <psa03 value="0.0294894145" flag="0"/>
      <psa10 value="0.0118086628" flag="0"/>
      <psa30 value="0.0010160381" flag="0"/>
    </comp>
    <comp name="--.HHN">
      <acc value="0.0177240566" flag="0"/>
      <vel value="0.0051672972" flag="0"/>
      <psa03 value="0.0284809517" flag="0"/>
      <psa10 value="0.0059772469" flag="0"/>
      <psa30 value="0.0005324195" flag="0"/>
    </comp>
    <comp name="--.HHZ">
      <acc value="0.0212342812" flag="0"/>
      <vel value="0.0036029018" flag="0"/>
      <psa03 value="0.0178502702" flag="0"/>
      <psa10 value="0.0029637151" flag="0"/>
      <psa30 value="0.0003526289" flag="0"/>
    </comp>
  </station>
  <station code="KLNA" name="KLNA" netid="HL" insttype="CMG-5" lat="36.9571" lon="26.9727">
    <comp name="00.HNE">
      <acc value="0.0461046968" flag="0"/>
      <vel value="0.0244647361" flag="0"/>
      <psa03 value="0.1874394720" flag="0"/>
      <psa10 value="0.0122505056" flag="0"/>
      <psa30 value="0.0008896477" flag="0"/>
    </comp>
    <comp name="00.HNZ">
      <acc value="0.0770948984" flag="0"/>
      <vel value="0.0180165518" flag="0"/>
      <psa03 value="0.0639484641" flag="0"/>
      <psa10 value="0.0063047002" flag="0"/>
      <psa30 value="0.0005035332" flag="0"/>
    </comp>
    <comp name="00.HNN">
      <acc value="0.0674960056" flag="0"/>
      <vel value="0.0247945359" flag="0"/>
      <psa03 value="0.1935816362" flag="0"/>
      <psa10 value="0.0110155644" flag="0"/>
      <psa30 value="0.0007676724" flag="0"/>
    </comp>
  </station>
  <station code="NISR" name="NISR" netid="HL" insttype="65535" lat="36.6106" lon="27.131">
    <comp name="--.HHE">
      <acc value="1.6167230659" flag="0"/>
      <vel value="0.4508379838" flag="0"/>
      <psa03 value="2.2069912737" flag="0"/>
      <psa10 value="0.2196914798" flag="0"/>
      <psa30 value="0.0219966692" flag="0"/>
    </comp>
    <comp name="--.HHN">
      <acc value="1.3477025291" flag="0"/>
      <vel value="0.3748258741" flag="0"/>
      <psa03 value="1.0991174324" flag="0"/>
      <psa10 value="0.1859960372" flag="0"/>
      <psa30 value="0.0517114865" flag="0"/>
    </comp>
    <comp name="--.HHZ">
      <acc value="1.0934514002" flag="0"/>
      <vel value="0.1420169951" flag="0"/>
      <psa03 value="0.4838136019" flag="0"/>
      <psa10 value="0.1772647440" flag="0"/>
      <psa30 value="0.0089447312" flag="0"/>
    </comp>
  </station>
</stationlist>
