<stationlist created="1778136631">
	<station code="KRL1" name="KRL1" netid="HI" source="ITSAK Strong Motion Network" insttype="" lat="37.7951" lon="26.7065">
		<comp name="--.HNE" depth="0.0">
			<acc value="0.00743850810215513" flag="0"/>
			<vel value="0.00542006502448865" flag="0"/>
			<psa03 value="0.0194793802570945" flag="0"/>
			<psa10 value="0.0064197994989719" flag="0"/>
			<psa30 value="0.000543617470322015" flag="0"/>
		</comp>
		<comp name="--.HNN" depth="0.0">
			<acc value="0.00645212015899399" flag="0"/>
			<vel value="0.0067879801477149" flag="0"/>
			<psa03 value="0.0133882540936165" flag="0"/>
			<psa10 value="0.0128838434914055" flag="0"/>
			<psa30 value="0.000681292007253216" flag="0"/>
		</comp>
		<comp name="--.HNZ" depth="0.0">
			<acc value="0.003531163141089" flag="0"/>
			<vel value="0.00344878648826444" flag="0"/>
			<psa03 value="0.00856094081821552" flag="0"/>
			<psa10 value="0.00522973035020985" flag="0"/>
			<psa30 value="0.000634911486852383" flag="0"/>
		</comp>
	</station>
	<station code="NAX1" name="NAX1" netid="HI" source="ITSAK Strong Motion Network" insttype="" lat="37.101394" lon="25.374103">
		<comp name="--.HNE" depth="0.0">
			<acc value="0.00234181697727909" flag="0"/>
			<vel value="0.0018413727754898" flag="0"/>
			<psa03 value="0.00517028033120116" flag="0"/>
			<psa10 value="0.00228783577664241" flag="0"/>
			<psa30 value="0.000254818495058121" flag="0"/>
		</comp>
		<comp name="--.HNN" depth="0.0">
			<acc value="0.00341019471547614" flag="0"/>
			<vel value="0.00161175694632952" flag="0"/>
			<psa03 value="0.00838964561659412" flag="0"/>
			<psa10 value="0.00214879976931553" flag="0"/>
			<psa30 value="0.00031595874321604" flag="0"/>
		</comp>
		<comp name="--.HNZ" depth="0.0">
			<acc value="0.0029175135742228" flag="0"/>
			<vel value="0.0014076430973712" flag="0"/>
			<psa03 value="0.0111453568147816" flag="0"/>
			<psa10 value="0.00219796599508456" flag="0"/>
			<psa30 value="0.000320253272499209" flag="0"/>
		</comp>
	</station>
	<station code="KARP" name="KARP" netid="HL" source="National Observatory of Athens Seismic Network" insttype="" lat="35.5471" lon="27.16106">
		<comp name="--.HNE" depth="0.0">
			<acc value="0.0186375067253015" flag="0"/>
			<vel value="0.00610007064927986" flag="0"/>
			<psa03 value="0.023211527233089" flag="0"/>
			<psa10 value="0.00999271884359048" flag="0"/>
			<psa30 value="0.000940545119000032" flag="0"/>
		</comp>
		<comp name="--.HNN" depth="0.0">
			<acc value="0.0132684435157364" flag="0"/>
			<vel value="0.00444115027533623" flag="0"/>
			<psa03 value="0.0268569952899629" flag="0"/>
			<psa10 value="0.00520148535412037" flag="0"/>
			<psa30 value="0.000483953205359817" flag="0"/>
		</comp>
		<comp name="--.HNZ" depth="0.0">
			<acc value="0.0174529060506147" flag="0"/>
			<vel value="0.00303619637617708" flag="0"/>
			<psa03 value="0.0148116687003681" flag="0"/>
			<psa10 value="0.00242583976247794" flag="0"/>
			<psa30 value="0.000304837641914589" flag="0"/>
		</comp>
	</station>
	<station code="KLNA" name="KLNA" netid="HL" source="National Observatory of Athens Seismic Network" insttype="" lat="36.95708" lon="26.97274">
		<comp name="00.HNE" depth="0.0">
			<acc value="0.0456209853236941" flag="0"/>
			<vel value="0.0244285508603366" flag="0"/>
			<psa03 value="0.187136376033383" flag="0"/>
			<psa10 value="0.0122579617173077" flag="0"/>
			<psa30 value="0.000873858149228491" flag="0"/>
		</comp>
		<comp name="00.HNN" depth="0.0">
			<acc value="0.0676718768236601" flag="0"/>
			<vel value="0.0249326234737002" flag="0"/>
			<psa03 value="0.192972533483202" flag="0"/>
			<psa10 value="0.0110183864765376" flag="0"/>
			<psa30 value="0.000753151871784028" flag="0"/>
		</comp>
		<comp name="00.HNZ" depth="0.0">
			<acc value="0.0774805022344618" flag="0"/>
			<vel value="0.0181078297118987" flag="0"/>
			<psa03 value="0.064044445755282" flag="0"/>
			<psa10 value="0.00631734271170651" flag="0"/>
			<psa30 value="0.000522532063102717" flag="0"/>
		</comp>
	</station>
	<station code="NISR" name="NISR" netid="HL" source="National Observatory of Athens Seismic Network" insttype="" lat="36.6106" lon="27.131">
		<comp name="--.HNE" depth="0.0">
			<acc value="1.39930845193091" flag="0"/>
			<vel value="0.444217050928514" flag="0"/>
			<psa03 value="2.05457810571543" flag="0"/>
			<psa10 value="0.226399062826972" flag="0"/>
			<psa30 value="0.023144519877539" flag="0"/>
		</comp>
		<comp name="--.HNN" depth="0.0">
			<acc value="1.23975162828708" flag="0"/>
			<vel value="0.243515863058125" flag="0"/>
			<psa03 value="1.03381681862354" flag="0"/>
			<psa10 value="0.125821682569166" flag="0"/>
			<psa30 value="0.0124396348980984" flag="0"/>
		</comp>
		<comp name="--.HNZ" depth="0.0">
			<acc value="0.927421172870867" flag="0"/>
			<vel value="0.149448048760866" flag="0"/>
			<psa03 value="0.456678752724176" flag="0"/>
			<psa10 value="0.180331161054463" flag="0"/>
			<psa30 value="0.00940277455433424" flag="0"/>
		</comp>
	</station>
	<station code="THRA" name="THRA" netid="HL" source="National Observatory of Athens Seismic Network" insttype="" lat="36.41502" lon="25.43244">
		<comp name="00.HNE" depth="0.0">
			<acc value="0.0167910317739629" flag="0"/>
			<vel value="0.0117769063672482" flag="0"/>
			<psa03 value="0.0349858801428435" flag="0"/>
			<psa10 value="0.0179634068625297" flag="0"/>
			<psa30 value="0.00282191881327259" flag="0"/>
		</comp>
		<comp name="00.HNN" depth="0.0">
			<acc value="0.0147882182230879" flag="0"/>
			<vel value="0.0113009248845239" flag="0"/>
			<psa03 value="0.0438079541452988" flag="0"/>
			<psa10 value="0.0188314356151828" flag="0"/>
			<psa30 value="0.00200123403026616" flag="0"/>
		</comp>
		<comp name="00.HNZ" depth="0.0">
			<acc value="0.0171525670303053" flag="0"/>
			<vel value="0.0058289378335587" flag="0"/>
			<psa03 value="0.0343742120186853" flag="0"/>
			<psa10 value="0.00685559618085304" flag="0"/>
			<psa30 value="0.000953157725352563" flag="0"/>
		</comp>
	</station>
	<station code="CAME" name="CAME" netid="KO" source="Bogazici University Kandilli Observatory And Earthquake Research Institute (KOERI)" insttype="" lat="36.9435" lon="29.3023">
		<comp name="--.HNE" depth="0.0">
			<acc value="0.00354707675558169" flag="0"/>
			<vel value="0.00313404786514869" flag="0"/>
			<psa03 value="0.0115991811492589" flag="0"/>
			<psa10 value="0.00358350113936216" flag="0"/>
			<psa30 value="0.00044049016989508" flag="0"/>
		</comp>
		<comp name="--.HNN" depth="0.0">
			<acc value="0.00307702644082195" flag="0"/>
			<vel value="0.0024971808320091" flag="0"/>
			<psa03 value="0.0137108015024601" flag="0"/>
			<psa10 value="0.00144703652313126" flag="0"/>
			<psa30 value="0.00031692505722981" flag="0"/>
		</comp>
		<comp name="--.HNZ" depth="0.0">
			<acc value="0.00306276842430321" flag="0"/>
			<vel value="0.00156990396866514" flag="0"/>
			<psa03 value="0.00588000475583983" flag="0"/>
			<psa10 value="0.00245441079579348" flag="0"/>
			<psa30 value="0.000224684832184129" flag="0"/>
		</comp>
	</station>
	<station code="CESE" name="CESE" netid="KO" source="Bogazici University Kandilli Observatory And Earthquake Research Institute (KOERI)" insttype="" lat="38.3306" lon="26.2997">
		<comp name="--.HNE" depth="0.0">
			<acc value="0.00206549357220879" flag="0"/>
			<vel value="0.000810122934772218" flag="0"/>
			<psa03 value="0.00114264625134833" flag="0"/>
			<psa10 value="0.00108242752582409" flag="0"/>
			<psa30 value="0.000416022481322559" flag="0"/>
		</comp>
		<comp name="--.HNN" depth="0.0">
			<acc value="0.00214332656127077" flag="0"/>
			<vel value="0.00131981299587809" flag="0"/>
			<psa03 value="0.00202155481652084" flag="0"/>
			<psa10 value="0.00209579586744082" flag="0"/>
			<psa30 value="0.000726708349195197" flag="0"/>
		</comp>
		<comp name="--.HNZ" depth="0.0">
			<acc value="0.00105841725994023" flag="0"/>
			<vel value="0.0014553325632189" flag="0"/>
			<psa03 value="0.00134211836839147" flag="0"/>
			<psa10 value="0.00146313118307234" flag="0"/>
			<psa30 value="0.000495854879203299" flag="0"/>
		</comp>
	</station>
	<station code="DIDI" name="DIDI" netid="KO" source="Bogazici University Kandilli Observatory And Earthquake Research Institute (KOERI)" insttype="" lat="37.3767" lon="27.2398">
		<comp name="--.HNE" depth="0.0">
			<acc value="0.0505358033576801" flag="0"/>
			<vel value="0.0163868005132383" flag="0"/>
			<psa03 value="0.0786343758082865" flag="0"/>
			<psa10 value="0.017907113758413" flag="0"/>
			<psa30 value="0.00170865881526298" flag="0"/>
		</comp>
		<comp name="--.HNN" depth="0.0">
			<acc value="0.0614072701212376" flag="0"/>
			<vel value="0.0151410116240973" flag="0"/>
			<psa03 value="0.0473570486304012" flag="0"/>
			<psa10 value="0.0258903313574085" flag="0"/>
			<psa30 value="0.00205814425862309" flag="0"/>
		</comp>
		<comp name="--.HNZ" depth="0.0">
			<acc value="0.0787848701247578" flag="0"/>
			<vel value="0.0137094085961722" flag="0"/>
			<psa03 value="0.0330709277658154" flag="0"/>
			<psa10 value="0.00919154764492635" flag="0"/>
			<psa30 value="0.00125365877790755" flag="0"/>
		</comp>
	</station>
	<station code="FETI" name="FETI" netid="KO" source="Bogazici University Kandilli Observatory And Earthquake Research Institute (KOERI)" insttype="" lat="36.6903" lon="29.096">
		<comp name="--.HNE" depth="0.0">
			<acc value="0.0182425570030159" flag="0"/>
			<vel value="0.00255664004832206" flag="0"/>
			<psa03 value="0.0090368994314755" flag="0"/>
			<psa10 value="0.00387863936269843" flag="0"/>
			<psa30 value="0.000469170924022806" flag="0"/>
		</comp>
		<comp name="--.HNN" depth="0.0">
			<acc value="0.00540255192952145" flag="0"/>
			<vel value="0.0057135517385295" flag="0"/>
			<psa03 value="0.0124784529383537" flag="0"/>
			<psa10 value="0.00544356014039153" flag="0"/>
			<psa30 value="0.00154729791756003" flag="0"/>
		</comp>
		<comp name="--.HNZ" depth="0.0">
			<acc value="0.0493388461956976" flag="0"/>
			<vel value="0.0039565762450573" flag="0"/>
			<psa03 value="0.0088017907577531" flag="0"/>
			<psa10 value="0.00405256815023648" flag="0"/>
			<psa30 value="0.000726256808863925" flag="0"/>
		</comp>
	</station>
	<station code="GMLD" name="GMLD" netid="KO" source="Bogazici University Kandilli Observatory And Earthquake Research Institute (KOERI)" insttype="" lat="38.0766" lon="26.9157">
		<comp name="--.HNE" depth="0.0">
			<acc value="0.0062439843437647" flag="0"/>
			<vel value="0.000730166925244468" flag="0"/>
			<psa03 value="0.0219332368234481" flag="0"/>
			<psa10 value="0.00737293685838789" flag="0"/>
			<psa30 value="0.000473769301556353" flag="0"/>
		</comp>
		<comp name="--.HNN" depth="0.0">
			<acc value="0.0152895418543514" flag="0"/>
			<vel value="0.00211679199611701" flag="0"/>
			<psa03 value="0.0136284601102515" flag="0"/>
			<psa10 value="0.00412070547650983" flag="0"/>
			<psa30 value="0.000348751879142293" flag="0"/>
		</comp>
		<comp name="--.HNZ" depth="0.0">
			<acc value="0.0212947985578318" flag="0"/>
			<vel value="0.00286807510178414" flag="0"/>
			<psa03 value="0.0100384755465943" flag="0"/>
			<psa10 value="0.00118893821444769" flag="0"/>
			<psa30 value="0.000348484726027887" flag="0"/>
		</comp>
	</station>
	<station code="KUSD" name="KUSD" netid="KO" source="Bogazici University Kandilli Observatory And Earthquake Research Institute (KOERI)" insttype="" lat="37.8606" lon="27.2868">
		<comp name="--.HNE" depth="0.0">
			<acc value="0.00374191730823297" flag="0"/>
			<vel value="0.00124279433711622" flag="0"/>
			<psa03 value="0.00356419216492486" flag="0"/>
			<psa10 value="0.00212034405613869" flag="0"/>
			<psa30 value="0.00044316680554237" flag="0"/>
		</comp>
		<comp name="--.HNN" depth="0.0">
			<acc value="0.00437267768848339" flag="0"/>
			<vel value="0.00151293489670726" flag="0"/>
			<psa03 value="0.00439749378634177" flag="0"/>
			<psa10 value="0.00314311227826209" flag="0"/>
			<psa30 value="0.000332890281513867" flag="0"/>
		</comp>
		<comp name="--.HNZ" depth="0.0">
			<acc value="0.0106795348245522" flag="0"/>
			<vel value="0.00132744308038035" flag="0"/>
			<psa03 value="0.00212896004357031" flag="0"/>
			<psa10 value="0.00207649122922624" flag="0"/>
			<psa30 value="0.000317384592879759" flag="0"/>
		</comp>
	</station>
	<station code="NAZL" name="NAZL" netid="KO" source="Bogazici University Kandilli Observatory And Earthquake Research Institute (KOERI)" insttype="" lat="37.9641" lon="28.2922">
		<comp name="--.HNE" depth="0.0">
			<acc value="0.00446457060940065" flag="0"/>
			<vel value="0.00333674784365077" flag="0"/>
			<psa03 value="0.0168059974294333" flag="0"/>
			<psa10 value="0.0044652511134794" flag="0"/>
			<psa30 value="0.000332779779402092" flag="0"/>
		</comp>
		<comp name="--.HNN" depth="0.0">
			<acc value="0.00563264579457957" flag="0"/>
			<vel value="0.00374181455686376" flag="0"/>
			<psa03 value="0.0214214151573808" flag="0"/>
			<psa10 value="0.00341956699828326" flag="0"/>
			<psa30 value="0.000372816702485156" flag="0"/>
		</comp>
		<comp name="--.HNZ" depth="0.0">
			<acc value="0.0017936573417325" flag="0"/>
			<vel value="0.00139362904575397" flag="0"/>
			<psa03 value="0.0050563860675106" flag="0"/>
			<psa10 value="0.00179047009423316" flag="0"/>
			<psa30 value="0.000278301196505262" flag="0"/>
		</comp>
	</station>
	<station code="YKAV" name="YKAV" netid="KO" source="Bogazici University Kandilli Observatory And Earthquake Research Institute (KOERI)" insttype="" lat="37.1246" lon="27.2801">
		<comp name="--.HNE" depth="0.0">
			<acc value="0.0229243326935194" flag="0"/>
			<vel value="0.0139421326728301" flag="0"/>
			<psa03 value="0.0511140735565714" flag="0"/>
			<psa10 value="0.0135716643686555" flag="0"/>
			<psa30 value="0.000814504165236601" flag="0"/>
		</comp>
		<comp name="--.HNN" depth="0.0">
			<acc value="0.0177630845094164" flag="0"/>
			<vel value="0.0081728639286495" flag="0"/>
			<psa03 value="0.0500384866793063" flag="0"/>
			<psa10 value="0.0116115998365032" flag="0"/>
			<psa30 value="0.000542492760400719" flag="0"/>
		</comp>
		<comp name="--.HNZ" depth="0.0">
			<acc value="0.0198808040962467" flag="0"/>
			<vel value="0.0122602806781468" flag="0"/>
			<psa03 value="0.0260673049560135" flag="0"/>
			<psa10 value="0.0259792347468063" flag="0"/>
			<psa30 value="0.00106240517079583" flag="0"/>
		</comp>
	</station>
</stationlist>
