<?xml version="1.0" encoding="UTF-8" standalone="yes"?>
<!DOCTYPE earthquake SYSTEM "stationlist.dtd">
<stationlist created="" xmlns="ch.ethz.sed.shakemap.usgs.xml">
  <station code="DRO" name="DRO" netid="HP" source="NOA" insttype="120P," lat="37.952" lon="21.71">
    <comp name="--.HHE">
      <acc value="0.0123186659" flag="0"/>
      <vel value="0.0096852943" flag="0"/>
      <psa03 value="0.0276904895" flag="0"/>
      <psa10 value="0.0145846856" flag="0"/>
      <psa30 value="0.0008331530" flag="0"/>
    </comp>
    <comp name="--.HHN">
      <acc value="0.0130371360" flag="0"/>
      <vel value="0.0093364471" flag="0"/>
      <psa03 value="0.0260751233" flag="0"/>
      <psa10 value="0.0117053002" flag="0"/>
      <psa30 value="0.0010491412" flag="0"/>
    </comp>
    <comp name="--.HHZ">
      <acc value="0.0058537411" flag="0"/>
      <vel value="0.0036439593" flag="0"/>
      <psa03 value="0.0113182426" flag="0"/>
      <psa10 value="0.0061273134" flag="0"/>
      <psa30 value="0.0005671589" flag="0"/>
    </comp>
  </station>
  <station code="LTHK" name="LTHK" netid="HP" source="NOA" insttype="40," lat="37.7095" lon="20.8367">
    <comp name="--.HHE">
      <acc value="0.3189719269" flag="0"/>
      <vel value="0.0943058754" flag="0"/>
      <psa03 value="0.3133820378" flag="0"/>
      <psa10 value="0.0360346731" flag="0"/>
      <psa30 value="0.0024944290" flag="0"/>
    </comp>
    <comp name="--.HHN">
      <acc value="0.2630717385" flag="0"/>
      <vel value="0.0731127410" flag="0"/>
      <psa03 value="0.1837042637" flag="0"/>
      <psa10 value="0.0447245204" flag="0"/>
      <psa30 value="0.0026463346" flag="0"/>
    </comp>
    <comp name="--.HHZ">
      <acc value="0.1597000004" flag="0"/>
      <vel value="0.0420451285" flag="0"/>
      <psa03 value="0.1351917061" flag="0"/>
      <psa10 value="0.0282065871" flag="0"/>
      <psa30 value="0.0040968788" flag="0"/>
    </comp>
  </station>
  <station code="DMLN" name="DMLN" netid="HT" source="NOA" insttype="1s-100Hz," lat="38.2385" lon="20.3734">
    <comp name="--.HHE">
      <acc value="0.0378519690" flag="0"/>
      <vel value="0.0315766171" flag="0"/>
      <psa03 value="0.0594377689" flag="0"/>
      <psa10 value="0.0310266491" flag="0"/>
      <psa30 value="0.0036944155" flag="0"/>
    </comp>
    <comp name="--.HHN">
      <acc value="0.0581548819" flag="0"/>
      <vel value="0.0376469513" flag="0"/>
      <psa03 value="0.1198394083" flag="0"/>
      <psa10 value="0.0526228727" flag="0"/>
      <psa30 value="0.0022717719" flag="0"/>
    </comp>
    <comp name="--.HHZ">
      <acc value="0.0228960727" flag="0"/>
      <vel value="0.0118689479" flag="0"/>
      <psa03 value="0.0538630498" flag="0"/>
      <psa10 value="0.0135554906" flag="0"/>
      <psa30 value="0.0014709301" flag="0"/>
    </comp>
  </station>
  <station code="EVGI" name="EVGI" netid="HT" source="NOA" insttype="30" lat="38.621" lon="20.656">
    <comp name="--.HHE">
      <acc value="0.0173792891" flag="0"/>
      <vel value="0.0053398159" flag="0"/>
      <psa03 value="0.0210476667" flag="0"/>
      <psa10 value="0.0037512044" flag="0"/>
      <psa30 value="0.0004884632" flag="0"/>
    </comp>
    <comp name="--.HHN">
      <acc value="nan" flag="0"/>
      <vel value="-100.0000000000" flag="0"/>
      <psa03 value="0.0000000000" flag="0"/>
      <psa10 value="0.0000000000" flag="0"/>
      <psa30 value="0.0000000000" flag="0"/>
    </comp>
    <comp name="--.HHZ">
      <acc value="0.0125028112" flag="0"/>
      <vel value="0.0048395190" flag="0"/>
      <psa03 value="0.0190604516" flag="0"/>
      <psa10 value="0.0032273370" flag="0"/>
      <psa30 value="0.0004723058" flag="0"/>
    </comp>
  </station>
  <station code="LKD2" name="LKD2" netid="HT" source="NOA" insttype="100" lat="38.7889" lon="20.6578">
    <comp name="--.HHE">
      <acc value="0.0041688686" flag="0"/>
      <vel value="0.0034117209" flag="0"/>
      <psa03 value="0.0159093087" flag="0"/>
      <psa10 value="0.0058177079" flag="0"/>
      <psa30 value="0.0008564193" flag="0"/>
    </comp>
    <comp name="--.HHN">
      <acc value="0.0049352835" flag="0"/>
      <vel value="0.0036636235" flag="0"/>
      <psa03 value="0.0108273175" flag="0"/>
      <psa10 value="0.0054922398" flag="0"/>
      <psa30 value="0.0007398470" flag="0"/>
    </comp>
    <comp name="--.HHZ">
      <acc value="0.0040718373" flag="0"/>
      <vel value="0.0036920643" flag="0"/>
      <psa03 value="0.0096131338" flag="0"/>
      <psa10 value="0.0040680427" flag="0"/>
      <psa30 value="0.0004173066" flag="0"/>
    </comp>
  </station>
  <station code="NYDR" name="NYDR" netid="HT" source="NOA" insttype="1s-100Hz," lat="38.7135" lon="20.6983">
    <comp name="--.HHE">
      <acc value="0.0050176285" flag="0"/>
      <vel value="0.0041310281" flag="0"/>
      <psa03 value="0.0128119942" flag="0"/>
      <psa10 value="0.0043153036" flag="0"/>
      <psa30 value="0.0004267725" flag="0"/>
    </comp>
    <comp name="--.HHN">
      <acc value="0.0052937908" flag="0"/>
      <vel value="0.0040832070" flag="0"/>
      <psa03 value="0.0127845251" flag="0"/>
      <psa10 value="0.0047921204" flag="0"/>
      <psa30 value="0.0004882574" flag="0"/>
    </comp>
    <comp name="--.HHZ">
      <acc value="0.0042271985" flag="0"/>
      <vel value="0.0033975412" flag="0"/>
      <psa03 value="0.0117935124" flag="0"/>
      <psa10 value="0.0051465943" flag="0"/>
      <psa30 value="0.0005969618" flag="0"/>
    </comp>
  </station>
  <station code="PSDA" name="PSDA" netid="HT" source="NOA" insttype="30" lat="38.114" lon="20.5841">
    <comp name="--.HHE">
      <acc value="0.0877327159" flag="0"/>
      <vel value="0.0204176428" flag="0"/>
      <psa03 value="0.0863019081" flag="0"/>
      <psa10 value="0.0097645803" flag="0"/>
      <psa30 value="0.0012685422" flag="0"/>
    </comp>
    <comp name="--.HHN">
      <acc value="0.0453029378" flag="0"/>
      <vel value="0.0163108258" flag="0"/>
      <psa03 value="0.0697388942" flag="0"/>
      <psa10 value="0.0136531562" flag="0"/>
      <psa30 value="0.0014636628" flag="0"/>
    </comp>
    <comp name="--.HHZ">
      <acc value="0.0495874421" flag="0"/>
      <vel value="0.0116347726" flag="0"/>
      <psa03 value="0.0352652381" flag="0"/>
      <psa10 value="0.0076441691" flag="0"/>
      <psa30 value="0.0017635939" flag="0"/>
    </comp>
  </station>
  <station code="TSLK" name="TSLK" netid="HT" source="NOA" insttype="1s-100Hz," lat="38.8249" lon="20.6554">
    <comp name="--.HHE">
      <acc value="0.0078501545" flag="0"/>
      <vel value="0.0071503034" flag="0"/>
      <psa03 value="0.0234694605" flag="0"/>
      <psa10 value="0.0071674109" flag="0"/>
      <psa30 value="0.0012615273" flag="0"/>
    </comp>
    <comp name="--.HHN">
      <acc value="0.0062765615" flag="0"/>
      <vel value="0.0059912890" flag="0"/>
      <psa03 value="0.0212413963" flag="0"/>
      <psa10 value="0.0049131793" flag="0"/>
      <psa30 value="0.0014738623" flag="0"/>
    </comp>
    <comp name="--.HHZ">
      <acc value="0.0041318659" flag="0"/>
      <vel value="0.0027419487" flag="0"/>
      <psa03 value="0.0137044815" flag="0"/>
      <psa10 value="0.0050278559" flag="0"/>
      <psa30 value="0.0011027506" flag="0"/>
    </comp>
  </station>
</stationlist>
