<stationlist xmlns:esm="https://esm-db.eu/esmws/shakemap/1/" created="1783994140">
	<station code="ARG2" name="ARG2" netid="HI" source="ITSAK Strong Motion Network" insttype="" lat="38.1783" lon="20.4878" esm:processing="manual (Paolucci et al 2011)" esm:quality="best">
		<comp name="--.HNE" depth="0.0">
			<acc value="0.0500692363830455" flag="0"/>
			<vel value="0.0276282420955398" flag="0"/>
			<psa03 value="0.0775829862760832" flag="0"/>
			<psa10 value="0.0157890772935219" flag="0"/>
			<psa30 value="0.00168230696884702" flag="0"/>
		</comp>
		<comp name="--.HNN" depth="0.0">
			<acc value="0.0505142523250264" flag="0"/>
			<vel value="0.0227668417523188" flag="0"/>
			<psa03 value="0.0841600906489692" flag="0"/>
			<psa10 value="0.0187809886500858" flag="0"/>
			<psa30 value="0.0022782731610024" flag="0"/>
		</comp>
		<comp name="--.HNZ" depth="0.0">
			<acc value="0.0254899363207996" flag="0"/>
			<vel value="0.00932854712193765" flag="0"/>
			<psa03 value="0.0516772486441039" flag="0"/>
			<psa10 value="0.00908848443036954" flag="0"/>
			<psa30 value="0.00136821667838675" flag="0"/>
		</comp>
	</station>
	<station code="KLV1" name="KLV1" netid="HI" source="ITSAK Strong Motion Network" insttype="" lat="38.03256" lon="22.10797" esm:processing="manual (Paolucci et al 2011)" esm:quality="good">
		<comp name="--.HNE" depth="0.0">
			<acc value="0.00461990947916449" flag="0"/>
			<vel value="0.00361897655915439" flag="0"/>
			<psa03 value="0.0135111033776143" flag="0"/>
			<psa10 value="0.00425843710057279" flag="0"/>
			<psa30 value="0.000517841648219314" flag="0"/>
		</comp>
		<comp name="--.HNN" depth="0.0">
			<acc value="0.00414507334803482" flag="0"/>
			<vel value="0.00304267692999721" flag="0"/>
			<psa03 value="0.0142176553915732" flag="0"/>
			<psa10 value="0.00448666081300421" flag="0"/>
			<psa30 value="0.000364644077755514" flag="0"/>
		</comp>
		<comp name="--.HNZ" depth="0.0">
			<acc value="0.00212102917277198" flag="0"/>
			<vel value="0.00221273163893532" flag="0"/>
			<psa03 value="0.00467369242166643" flag="0"/>
			<psa10 value="0.00380877668776219" flag="0"/>
			<psa30 value="0.00032941400956157" flag="0"/>
		</comp>
	</station>
	<station code="KRI1" name="KRI1" netid="HI" source="ITSAK Strong Motion Network" insttype="" lat="37.6621" lon="20.8172" esm:processing="manual (Paolucci et al 2011)" esm:quality="good">
		<comp name="--.HNE" depth="0.0">
			<acc value="0.197118729176793" flag="0"/>
			<vel value="0.0746498086885063" flag="0"/>
			<psa03 value="0.316909049477219" flag="0"/>
			<psa10 value="0.0446934376130578" flag="0"/>
			<psa30 value="0.00405453876374779" flag="0"/>
		</comp>
		<comp name="--.HNN" depth="0.0">
			<acc value="0.192881935055455" flag="0"/>
			<vel value="0.0832598773212674" flag="0"/>
			<psa03 value="0.417176334508766" flag="0"/>
			<psa10 value="0.0475041430328177" flag="0"/>
			<psa30 value="0.00387333282694378" flag="0"/>
		</comp>
		<comp name="--.HNZ" depth="0.0">
			<acc value="0.109343607525198" flag="0"/>
			<vel value="0.0315211971852421" flag="0"/>
			<psa03 value="0.13409239323496" flag="0"/>
			<psa10 value="0.0172910731696973" flag="0"/>
			<psa30 value="0.00355342604962314" flag="0"/>
		</comp>
	</station>
	<station code="MSL1" name="MSL1" netid="HI" source="ITSAK Strong Motion Network" insttype="" lat="38.3727" lon="21.4243" esm:processing="manual (Paolucci et al 2011)" esm:quality="good">
		<comp name="--.HNE" depth="0.0">
			<acc value="0.0128976762074796" flag="0"/>
			<vel value="0.0130550258432645" flag="0"/>
			<psa03 value="0.044398592230526" flag="0"/>
			<psa10 value="0.0370724133654313" flag="0"/>
			<psa30 value="0.0020462705553835" flag="0"/>
		</comp>
		<comp name="--.HNN" depth="0.0">
			<acc value="0.0147523140168222" flag="0"/>
			<vel value="0.0142528538892917" flag="0"/>
			<psa03 value="0.0439269411942818" flag="0"/>
			<psa10 value="0.0261835239049672" flag="0"/>
			<psa30 value="0.00202158496174809" flag="0"/>
		</comp>
		<comp name="--.HNZ" depth="0.0">
			<acc value="0.00613917411578339" flag="0"/>
			<vel value="0.00623056050018673" flag="0"/>
			<psa03 value="0.0133325915521111" flag="0"/>
			<psa10 value="0.0146283662449868" flag="0"/>
			<psa30 value="0.000776604414983038" flag="0"/>
		</comp>
	</station>
	<station code="PYL1" name="PYL1" netid="HI" source="ITSAK Strong Motion Network" insttype="" lat="36.914188" lon="21.695161" esm:processing="manual (Paolucci et al 2011)" esm:quality="good">
		<comp name="--.HNE" depth="0.0">
			<acc value="0.00880733487677959" flag="0"/>
			<vel value="0.00364242610600933" flag="0"/>
			<psa03 value="0.021966212966312" flag="0"/>
			<psa10 value="0.00407915647410911" flag="0"/>
			<psa30 value="0.000437670972720832" flag="0"/>
		</comp>
		<comp name="--.HNN" depth="0.0">
			<acc value="0.00733640230395842" flag="0"/>
			<vel value="0.00259885197995494" flag="0"/>
			<psa03 value="0.0112057722753485" flag="0"/>
			<psa10 value="0.0019086962073812" flag="0"/>
			<psa30 value="0.000370028470903523" flag="0"/>
		</comp>
		<comp name="--.HNZ" depth="0.0">
			<acc value="0.00380257564803045" flag="0"/>
			<vel value="0.00146292851123932" flag="0"/>
			<psa03 value="0.00750151061014651" flag="0"/>
			<psa10 value="0.00260828137959142" flag="0"/>
			<psa30 value="0.00020026921737374" flag="0"/>
		</comp>
	</station>
	<station code="ITM" name="ITM" netid="HL" source="National Observatory of Athens Seismic Network" insttype="" lat="37.17872" lon="21.92522" esm:processing="manual (Paolucci et al 2011)" esm:quality="good">
		<comp name="--.HNE" depth="0.0">
			<acc value="0.00478238628489025" flag="0"/>
			<vel value="0.00322364884859821" flag="0"/>
			<psa03 value="0.0112544187270902" flag="0"/>
			<psa10 value="0.0034184013741894" flag="0"/>
			<psa30 value="0.000640650773302913" flag="0"/>
		</comp>
		<comp name="--.HNN" depth="0.0">
			<acc value="0.00639907427359411" flag="0"/>
			<vel value="0.00429977236236178" flag="0"/>
			<psa03 value="0.0159432710072087" flag="0"/>
			<psa10 value="0.0044908826551858" flag="0"/>
			<psa30 value="0.000784728338567849" flag="0"/>
		</comp>
		<comp name="--.HNZ" depth="0.0">
			<acc value="0.00349594030041186" flag="0"/>
			<vel value="0.00218917425497338" flag="0"/>
			<psa03 value="0.00827198547844115" flag="0"/>
			<psa10 value="0.00418918735685293" flag="0"/>
			<psa30 value="0.000416798652531855" flag="0"/>
		</comp>
	</station>
	<station code="PATC" name="PATC" netid="HL" source="National Observatory of Athens Seismic Network" insttype="" lat="38.26933" lon="21.76001" esm:processing="manual (Paolucci et al 2011)" esm:quality="good">
		<comp name="00.HNE" depth="0.0">
			<acc value="0.0101910059359238" flag="0"/>
			<vel value="0.0114886764228727" flag="0"/>
			<psa03 value="0.0249294483286044" flag="0"/>
			<psa10 value="0.024772307293782" flag="0"/>
			<psa30 value="0.00228070441880796" flag="0"/>
		</comp>
		<comp name="00.HNN" depth="0.0">
			<acc value="0.00912848235898847" flag="0"/>
			<vel value="0.0109935882459239" flag="0"/>
			<psa03 value="0.0249274950742109" flag="0"/>
			<psa10 value="0.0195870975490841" flag="0"/>
			<psa30 value="0.00199374645091757" flag="0"/>
		</comp>
		<comp name="00.HNZ" depth="0.0">
			<acc value="0.00605403966395671" flag="0"/>
			<vel value="0.005224300566354" flag="0"/>
			<psa03 value="0.0116136716925027" flag="0"/>
			<psa10 value="0.0105860634622507" flag="0"/>
			<psa30 value="0.000708169673181998" flag="0"/>
		</comp>
	</station>
	<station code="PATG" name="PATG" netid="HL" source="National Observatory of Athens Seismic Network" insttype="" lat="38.23865" lon="21.72657" esm:processing="manual (Paolucci et al 2011)" esm:quality="good">
		<comp name="00.HNE" depth="0.0">
			<acc value="0.010961720554435" flag="0"/>
			<vel value="0.0144585333124438" flag="0"/>
			<psa03 value="0.0209845320493449" flag="0"/>
			<psa10 value="0.0183840722295609" flag="0"/>
			<psa30 value="0.00285664611378534" flag="0"/>
		</comp>
		<comp name="00.HNN" depth="0.0">
			<acc value="0.0129450329432307" flag="0"/>
			<vel value="0.0162574021426016" flag="0"/>
			<psa03 value="0.0244005148518574" flag="0"/>
			<psa10 value="0.0212998303842288" flag="0"/>
			<psa30 value="0.00438412834365325" flag="0"/>
		</comp>
		<comp name="00.HNZ" depth="0.0">
			<acc value="0.00649232912380361" flag="0"/>
			<vel value="0.00726017858088458" flag="0"/>
			<psa03 value="0.0131180018157405" flag="0"/>
			<psa10 value="0.0134241577220667" flag="0"/>
			<psa30 value="0.00193838424177625" flag="0"/>
		</comp>
	</station>
	<station code="RIOA" name="RIOA" netid="HL" source="National Observatory of Athens Seismic Network" insttype="" lat="38.29585" lon="21.79118" esm:processing="manual (Paolucci et al 2011)" esm:quality="good">
		<comp name="00.HNE" depth="0.0">
			<acc value="0.00492954447996723" flag="0"/>
			<vel value="0.00498343408725956" flag="0"/>
			<psa03 value="0.0128727707266344" flag="0"/>
			<psa10 value="0.00830256062889481" flag="0"/>
			<psa30 value="0.00136706233200363" flag="0"/>
		</comp>
		<comp name="00.HNN" depth="0.0">
			<acc value="0.0056533000648332" flag="0"/>
			<vel value="0.00519197317264981" flag="0"/>
			<psa03 value="0.0124787368113213" flag="0"/>
			<psa10 value="0.00892645758400616" flag="0"/>
			<psa30 value="0.00148130760852585" flag="0"/>
		</comp>
		<comp name="00.HNZ" depth="0.0">
			<acc value="0.00420589024079099" flag="0"/>
			<vel value="0.00323014714099949" flag="0"/>
			<psa03 value="0.00868308497739038" flag="0"/>
			<psa10 value="0.0047279639856604" flag="0"/>
			<psa30 value="0.000660241446088839" flag="0"/>
		</comp>
	</station>
	<station code="ARS1" name="ARS1" netid="HI" source="ITSAK Strong Motion Network" insttype="" lat="37.6349" lon="22.7293" esm:processing="discarded" esm:quality="bad">
		<comp name="--.HNE" depth="0.0">
			<acc value="0" flag="1"/>
			<vel value="0" flag="1"/>
			<psa03 value="0" flag="1"/>
			<psa10 value="0" flag="1"/>
			<psa30 value="0" flag="1"/>
		</comp>
		<comp name="--.HNN" depth="0.0">
			<acc value="0" flag="1"/>
			<vel value="0" flag="1"/>
			<psa03 value="0" flag="1"/>
			<psa10 value="0" flag="1"/>
			<psa30 value="0" flag="1"/>
		</comp>
		<comp name="--.HNZ" depth="0.0">
			<acc value="0" flag="1"/>
			<vel value="0" flag="1"/>
			<psa03 value="0" flag="1"/>
			<psa10 value="0" flag="1"/>
			<psa30 value="0" flag="1"/>
		</comp>
	</station>
	<station code="ART2" name="ART2" netid="HI" source="ITSAK Strong Motion Network" insttype="" lat="39.1474" lon="20.9937" esm:processing="discarded" esm:quality="bad">
		<comp name="--.HNE" depth="0.0">
			<acc value="0" flag="1"/>
			<vel value="0" flag="1"/>
			<psa03 value="0" flag="1"/>
			<psa10 value="0" flag="1"/>
			<psa30 value="0" flag="1"/>
		</comp>
		<comp name="--.HNN" depth="0.0">
			<acc value="0" flag="1"/>
			<vel value="0" flag="1"/>
			<psa03 value="0" flag="1"/>
			<psa10 value="0" flag="1"/>
			<psa30 value="0" flag="1"/>
		</comp>
		<comp name="--.HNZ" depth="0.0">
			<acc value="0" flag="1"/>
			<vel value="0" flag="1"/>
			<psa03 value="0" flag="1"/>
			<psa10 value="0" flag="1"/>
			<psa30 value="0" flag="1"/>
		</comp>
	</station>
</stationlist>
