<?xml version="1.0" encoding="UTF-8" standalone="yes"?>
<!DOCTYPE earthquake SYSTEM "stationlist.dtd">
<stationlist created="" xmlns="ch.ethz.sed.shakemap.usgs.xml">
  <station code="BLY" name="BLY" netid="MN" insttype="" lat="44.7488" lon="17.1839">
    <comp name="--.HHE">
      <acc value="0.0555273942" flag="0"/>
      <vel value="0.0247674360" flag="0"/>
      <psa03 value="0.1361280647" flag="0"/>
      <psa10 value="0.0185853843" flag="0"/>
      <psa30 value="0.0016760679" flag="0"/>
    </comp>
    <comp name="--.HHZ">
      <acc value="0.0235206526" flag="0"/>
      <vel value="0.0098197424" flag="0"/>
      <psa03 value="0.0591816258" flag="0"/>
      <psa10 value="0.0095556405" flag="0"/>
      <psa30 value="0.0015430374" flag="0"/>
    </comp>
    <comp name="--.HHN">
      <acc value="0.0259168146" flag="0"/>
      <vel value="0.0149627287" flag="0"/>
      <psa03 value="0.0875502467" flag="0"/>
      <psa10 value="0.0123875443" flag="0"/>
      <psa30 value="0.0015472205" flag="0"/>
    </comp>
  </station>
  <station code="BH09A" name="BH09A" netid="Y5" insttype="STS2_gen3" lat="44.7856" lon="16.6156">
    <comp name="--.HH1">
      <acc value="0.2221120486" flag="0"/>
      <vel value="0.0613200200" flag="0"/>
      <psa03 value="0.3267420370" flag="0"/>
      <psa10 value="0.0331084781" flag="0"/>
      <psa30 value="0.0033866268" flag="0"/>
    </comp>
    <comp name="--.HH2">
      <acc value="0.2057660196" flag="0"/>
      <vel value="0.0519958520" flag="0"/>
      <psa03 value="0.3389819269" flag="0"/>
      <psa10 value="0.0482946120" flag="0"/>
      <psa30 value="0.0031907621" flag="0"/>
    </comp>
    <comp name="--.HHZ">
      <acc value="0.1317856275" flag="0"/>
      <vel value="0.0440959138" flag="0"/>
      <psa03 value="0.2823737788" flag="0"/>
      <psa10 value="0.0289042933" flag="0"/>
      <psa30 value="0.0040055519" flag="0"/>
    </comp>
  </station>
  <station code="BH12A" name="BH12A" netid="Y5" insttype="STS2_gen3" lat="44.3931" lon="17.1573">
    <comp name="--.HH2">
      <acc value="0.0665944513" flag="0"/>
      <vel value="0.0231830074" flag="0"/>
      <psa03 value="0.2183167711" flag="0"/>
      <psa10 value="0.0097801187" flag="0"/>
      <psa30 value="0.0012702475" flag="0"/>
    </comp>
    <comp name="--.HH1">
      <acc value="0.0626196242" flag="0"/>
      <vel value="0.0215773568" flag="0"/>
      <psa03 value="0.1268903080" flag="0"/>
      <psa10 value="0.0138169484" flag="0"/>
      <psa30 value="0.0016072180" flag="0"/>
    </comp>
    <comp name="--.HHZ">
      <acc value="0.0395583675" flag="0"/>
      <vel value="0.0172405417" flag="0"/>
      <psa03 value="0.1119429040" flag="0"/>
      <psa10 value="0.0101627573" flag="0"/>
      <psa30 value="0.0017183767" flag="0"/>
    </comp>
  </station>
  <station code="BH13A" name="BH13A" netid="Y5" insttype="STS2_gen2" lat="44.8908" lon="16.3202">
    <comp name="--.HH1">
      <acc value="0.2102054367" flag="0"/>
      <vel value="0.0459299119" flag="0"/>
      <psa03 value="0.2789148642" flag="0"/>
      <psa10 value="0.0407767032" flag="0"/>
      <psa30 value="0.0020137829" flag="0"/>
    </comp>
    <comp name="--.HHZ">
      <acc value="0.2298345021" flag="0"/>
      <vel value="0.0487986696" flag="0"/>
      <psa03 value="0.1867067040" flag="0"/>
      <psa10 value="0.0119066447" flag="0"/>
      <psa30 value="0.0023916195" flag="0"/>
    </comp>
    <comp name="--.HH2">
      <acc value="0.2905380332" flag="0"/>
      <vel value="0.0729684654" flag="0"/>
      <psa03 value="0.2960906082" flag="0"/>
      <psa10 value="0.0144514013" flag="0"/>
      <psa30 value="0.0015146148" flag="0"/>
    </comp>
  </station>
</stationlist>
