<?xml version="1.0" encoding="UTF-8" standalone="yes"?>
<!DOCTYPE earthquake SYSTEM "stationlist.dtd">
<stationlist created="" xmlns="ch.ethz.sed.shakemap.usgs.xml">
  <station code="ZKR" name="ZKR" netid="GE" insttype="STS-2/N" lat="35.1147" lon="26.2169">
    <comp name="--.HHE">
      <acc value="0.0041601859" flag="0"/>
      <vel value="0.0022423331" flag="0"/>
      <psa03 value="0.0104354919" flag="0"/>
      <psa10 value="0.0022909818" flag="0"/>
      <psa30 value="0.0004140095" flag="0"/>
    </comp>
    <comp name="--.HHN">
      <acc value="0.0020577666" flag="0"/>
      <vel value="0.0008647117" flag="0"/>
      <psa03 value="0.0043205965" flag="0"/>
      <psa10 value="0.0011292256" flag="0"/>
      <psa30 value="0.0001210876" flag="0"/>
    </comp>
    <comp name="--.HHZ">
      <acc value="0.0021172346" flag="0"/>
      <vel value="0.0015301792" flag="0"/>
      <psa03 value="0.0045976132" flag="0"/>
      <psa10 value="0.0015763290" flag="0"/>
      <psa30 value="0.0001817083" flag="0"/>
    </comp>
  </station>
  <station code="ZKR" name="ZKR" netid="HL" insttype="120" lat="35.1147" lon="26.2169">
    <comp name="--.HHN">
      <acc value="0.0019891586" flag="0"/>
      <vel value="0.0008382621" flag="0"/>
      <psa03 value="0.0041830258" flag="0"/>
      <psa10 value="0.0011224344" flag="0"/>
      <psa30 value="0.0001209359" flag="0"/>
    </comp>
    <comp name="--.HHZ">
      <acc value="0.0020705426" flag="0"/>
      <vel value="0.0015139052" flag="0"/>
      <psa03 value="0.0044669926" flag="0"/>
      <psa10 value="0.0015671718" flag="0"/>
      <psa30 value="0.0001815548" flag="0"/>
    </comp>
    <comp name="--.HHE">
      <acc value="0.0040290125" flag="0"/>
      <vel value="0.0022232799" flag="0"/>
      <psa03 value="0.0101610902" flag="0"/>
      <psa10 value="0.0022794953" flag="0"/>
      <psa30 value="0.0004141365" flag="0"/>
    </comp>
  </station>
</stationlist>
