<?xml version="1.0" encoding="UTF-8" standalone="yes"?>
<!DOCTYPE earthquake SYSTEM "stationlist.dtd">
<stationlist created="" xmlns="ch.ethz.sed.shakemap.usgs.xml">
  <station code="GAZ" name="GAZ" netid="KO" insttype="CMG-3T" lat="37.1721" lon="37.2096">
    <comp name="--.HHE">
      <acc value="0.1075085923" flag="0"/>
      <vel value="0.0530158070" flag="0"/>
      <psa03 value="0.2051451744" flag="0"/>
      <psa10 value="0.0733539391" flag="0"/>
      <psa30 value="0.0084416797" flag="0"/>
    </comp>
    <comp name="--.HHN">
      <acc value="0.0739094165" flag="0"/>
      <vel value="0.0553253287" flag="0"/>
      <psa03 value="0.1947734760" flag="0"/>
      <psa10 value="0.1090480710" flag="0"/>
      <psa30 value="0.0059691418" flag="0"/>
    </comp>
    <comp name="--.HHZ">
      <acc value="0.0582706115" flag="0"/>
      <vel value="0.0484739076" flag="0"/>
      <psa03 value="0.1567094324" flag="0"/>
      <psa10 value="0.0675533221" flag="0"/>
      <psa30 value="0.0031362620" flag="0"/>
    </comp>
  </station>
  <station code="KYHL" name="KYHL" netid="KO" insttype="CMG-5T" lat="40.3244" lon="37.8955">
    <comp name="--.HNE">
      <acc value="0.0061196344" flag="0"/>
      <vel value="0.0067731061" flag="0"/>
      <psa03 value="0.0155009511" flag="0"/>
      <psa10 value="0.0139078169" flag="0"/>
      <psa30 value="0.0022067062" flag="0"/>
    </comp>
    <comp name="--.HNN">
      <acc value="0.0075091823" flag="0"/>
      <vel value="0.0063989481" flag="0"/>
      <psa03 value="0.0155982639" flag="0"/>
      <psa10 value="0.0079196117" flag="0"/>
      <psa30 value="0.0008659669" flag="0"/>
    </comp>
    <comp name="--.HNZ">
      <acc value="0.0037301112" flag="0"/>
      <vel value="0.0036529717" flag="0"/>
      <psa03 value="0.0157875179" flag="0"/>
      <psa10 value="0.0072592394" flag="0"/>
      <psa30 value="0.0016165969" flag="0"/>
    </comp>
  </station>
</stationlist>
