<?xml version="1.0" encoding="UTF-8" standalone="yes"?>
<!DOCTYPE earthquake SYSTEM "stationlist.dtd">
<stationlist created="" xmlns="ch.ethz.sed.shakemap.usgs.xml">
  <station code="ARPRA" name="ARPRA" netid="KO" insttype="CMG-5T" lat="39.0929" lon="38.3356">
    <comp name="--.HNE">
      <acc value="0.0615980315" flag="0"/>
      <vel value="0.0382596879" flag="0"/>
      <psa03 value="0.1459688437" flag="0"/>
      <psa10 value="0.0510707194" flag="0"/>
      <psa30 value="0.0044730671" flag="0"/>
    </comp>
    <comp name="--.HNN">
      <acc value="0.0446567809" flag="0"/>
      <vel value="0.0300105151" flag="0"/>
      <psa03 value="0.2104180365" flag="0"/>
      <psa10 value="0.0533111353" flag="0"/>
      <psa30 value="0.0031646462" flag="0"/>
    </comp>
    <comp name="--.HNZ">
      <acc value="0.0330235876" flag="0"/>
      <vel value="0.0235715912" flag="0"/>
      <psa03 value="0.0634410652" flag="0"/>
      <psa10 value="0.0309952748" flag="0"/>
      <psa30 value="0.0025262430" flag="0"/>
    </comp>
  </station>
</stationlist>
