<?xml version="1.0" encoding="UTF-8" standalone="yes"?>
<!DOCTYPE earthquake SYSTEM "stationlist.dtd">
<stationlist created="" xmlns="ch.ethz.sed.shakemap.usgs.xml">
  <station code="DARE" name="DARE" netid="KO" insttype="CMG-3ESP" lat="38.5712" lon="37.4832">
    <comp name="--.HHZ">
      <acc value="0.0118585793" flag="0"/>
      <vel value="0.0134078574" flag="0"/>
      <psa03 value="0.0200879808" flag="0"/>
      <psa10 value="0.0224510392" flag="0"/>
      <psa30 value="0.0009979718" flag="0"/>
    </comp>
    <comp name="--.HHE">
      <acc value="0.0142992774" flag="0"/>
      <vel value="0.0098653973" flag="0"/>
      <psa03 value="0.0213853034" flag="0"/>
      <psa10 value="0.0264531010" flag="0"/>
      <psa30 value="0.0012163717" flag="0"/>
    </comp>
  </station>
  <station code="GAZ" name="GAZ" netid="KO" insttype="CMG-3T" lat="37.1721" lon="37.2096">
    <comp name="--.HHZ">
      <acc value="0.0259533132" flag="0"/>
      <vel value="0.0161878528" flag="0"/>
      <psa03 value="0.0652858907" flag="0"/>
      <psa10 value="0.0142725701" flag="0"/>
      <psa30 value="0.0013690417" flag="0"/>
    </comp>
    <comp name="--.HHN">
      <acc value="0.0343430603" flag="0"/>
      <vel value="0.0258049157" flag="0"/>
      <psa03 value="0.0702948747" flag="0"/>
      <psa10 value="0.0426434229" flag="0"/>
      <psa30 value="0.0021086697" flag="0"/>
    </comp>
    <comp name="--.HHE">
      <acc value="0.0388659504" flag="0"/>
      <vel value="0.0310783445" flag="0"/>
      <psa03 value="0.1009097393" flag="0"/>
      <psa10 value="0.0331933112" flag="0"/>
      <psa30 value="0.0028496899" flag="0"/>
    </comp>
  </station>
  <station code="KMRS" name="KMRS" netid="KO" insttype="CMG-3T" lat="37.5053" lon="36.9">
    <comp name="--.HHZ">
      <acc value="0.0585437290" flag="0"/>
      <vel value="0.0275292761" flag="0"/>
      <psa03 value="0.1114405749" flag="0"/>
      <psa10 value="0.0214088544" flag="0"/>
      <psa30 value="0.0012611008" flag="0"/>
    </comp>
  </station>
  <station code="ANDN" name="ANDN" netid="TU" insttype="T" lat="37.58" lon="36.3452">
    <comp name="--.HHE">
      <acc value="0.3395267454" flag="0"/>
      <vel value="0.2292523757" flag="0"/>
      <psa03 value="0.6071495241" flag="0"/>
      <psa10 value="0.3636975583" flag="0"/>
      <psa30 value="0.0250613332" flag="0"/>
    </comp>
    <comp name="--.HHZ">
      <acc value="0.1834076828" flag="0"/>
      <vel value="0.1173995659" flag="0"/>
      <psa03 value="0.4358632695" flag="0"/>
      <psa10 value="0.2885975859" flag="0"/>
      <psa30 value="0.0097353432" flag="0"/>
    </comp>
    <comp name="--.HHN">
      <acc value="0.3469487937" flag="0"/>
      <vel value="0.1657648737" flag="0"/>
      <psa03 value="0.7108698589" flag="0"/>
      <psa10 value="0.3475577623" flag="0"/>
      <psa30 value="0.0131210121" flag="0"/>
    </comp>
  </station>
</stationlist>
