<?xml version="1.0" encoding="UTF-8" standalone="yes"?>
<!DOCTYPE earthquake SYSTEM "stationlist.dtd">
<stationlist created="" xmlns="ch.ethz.sed.shakemap.usgs.xml">
  <station code="BNN" name="BNN" netid="KO" insttype="CMG-3T" lat="38.8521" lon="35.8472">
    <comp name="--.HHN">
      <acc value="0.0161625450" flag="0"/>
      <vel value="0.0155704341" flag="0"/>
      <psa03 value="0.0643321746" flag="0"/>
      <psa10 value="0.0305213303" flag="0"/>
      <psa30 value="0.0016193171" flag="0"/>
    </comp>
  </station>
  <station code="DARE" name="DARE" netid="KO" insttype="CMG-3ESP" lat="38.5712" lon="37.4832">
    <comp name="--.HHE">
      <acc value="0.0142992777" flag="0"/>
      <vel value="0.0098653985" flag="0"/>
      <psa03 value="0.0213853034" flag="0"/>
      <psa10 value="0.0264531010" flag="0"/>
      <psa30 value="0.0012163622" flag="0"/>
    </comp>
    <comp name="--.HHZ">
      <acc value="0.0118585790" flag="0"/>
      <vel value="0.0134078584" flag="0"/>
      <psa03 value="0.0200879808" flag="0"/>
      <psa10 value="0.0224510391" flag="0"/>
      <psa30 value="0.0009979475" flag="0"/>
    </comp>
  </station>
  <station code="GAZ" name="GAZ" netid="KO" insttype="CMG-3T" lat="37.1721" lon="37.2096">
    <comp name="--.HHE">
      <acc value="0.0388659506" flag="0"/>
      <vel value="0.0310783424" flag="0"/>
      <psa03 value="0.1009097393" flag="0"/>
      <psa10 value="0.0331933112" flag="0"/>
      <psa30 value="0.0028497293" flag="0"/>
    </comp>
    <comp name="--.HHN">
      <acc value="0.0343430612" flag="0"/>
      <vel value="0.0258049157" flag="0"/>
      <psa03 value="0.0702948747" flag="0"/>
      <psa10 value="0.0426434229" flag="0"/>
      <psa30 value="0.0021086697" flag="0"/>
    </comp>
    <comp name="--.HHZ">
      <acc value="0.0259533128" flag="0"/>
      <vel value="0.0161878535" flag="0"/>
      <psa03 value="0.0652858907" flag="0"/>
      <psa10 value="0.0142725700" flag="0"/>
      <psa30 value="0.0013690491" flag="0"/>
    </comp>
  </station>
  <station code="KMRS" name="KMRS" netid="KO" insttype="CMG-3T" lat="37.5053" lon="36.9">
    <comp name="--.HHE">
      <acc value="0.1082623717" flag="0"/>
      <vel value="0.0763602990" flag="0"/>
      <psa03 value="0.2044508496" flag="0"/>
      <psa10 value="0.0776888752" flag="0"/>
      <psa30 value="0.0047726241" flag="0"/>
    </comp>
    <comp name="--.HHZ">
      <acc value="0.0585437291" flag="0"/>
      <vel value="0.0275292759" flag="0"/>
      <psa03 value="0.1114405749" flag="0"/>
      <psa10 value="0.0214088534" flag="0"/>
      <psa30 value="0.0012610973" flag="0"/>
    </comp>
  </station>
  <station code="ANDN" name="ANDN" netid="TU" insttype="T" lat="37.58" lon="36.3452">
    <comp name="--.HHE">
      <acc value="0.3395267448" flag="0"/>
      <vel value="0.2292523762" flag="0"/>
      <psa03 value="0.6071495241" flag="0"/>
      <psa10 value="0.3636975208" flag="0"/>
      <psa30 value="0.0250626307" flag="0"/>
    </comp>
    <comp name="--.HHZ">
      <acc value="0.1834076841" flag="0"/>
      <vel value="0.1173995690" flag="0"/>
      <psa03 value="0.4358632695" flag="0"/>
      <psa10 value="0.2885975849" flag="0"/>
      <psa30 value="0.0097358688" flag="0"/>
    </comp>
    <comp name="--.HHN">
      <acc value="0.3469487936" flag="0"/>
      <vel value="0.1657648738" flag="0"/>
      <psa03 value="0.7108698589" flag="0"/>
      <psa10 value="0.3475577749" flag="0"/>
      <psa30 value="0.0131241297" flag="0"/>
    </comp>
  </station>
</stationlist>
