<stationlist created="1775820716">
	<station code="AUL" name="AUL" netid="IT" source="Italian Strong Motion Network (RAN)" insttype="" lat="44.2087" lon="9.9731">
		<comp name="--.HNE" depth="0.0">
			<acc value="0.011684844714036" flag="0"/>
			<vel value="0.00632740543489" flag="0"/>
			<psa03 value="0.0325336161299212" flag="0"/>
			<psa10 value="0.00856059928518525" flag="0"/>
			<psa30 value="0.000334950886768943" flag="0"/>
		</comp>
		<comp name="--.HNN" depth="0.0">
			<acc value="0.011952350462796" flag="0"/>
			<vel value="0.00714592603123" flag="0"/>
			<psa03 value="0.0452653215218945" flag="0"/>
			<psa10 value="0.00869362247230688" flag="0"/>
			<psa30 value="0.000310603336363411" flag="0"/>
		</comp>
		<comp name="--.HNZ" depth="0.0">
			<acc value="0.0055064742969132" flag="0"/>
			<vel value="0.00215177908705" flag="0"/>
			<psa03 value="0.0118199744215368" flag="0"/>
			<psa10 value="0.00335142146835004" flag="0"/>
			<psa30 value="0.000197704815723586" flag="0"/>
		</comp>
	</station>
	<station code="CRP" name="CRP" netid="IT" source="Italian Strong Motion Network (RAN)" insttype="" lat="44.7823" lon="10.8703">
		<comp name="--.HGE" depth="0.0">
			<acc value="2.6207227237638" flag="0"/>
			<vel value="0.633803519724" flag="0"/>
			<psa03 value="3.20810485453708" flag="0"/>
			<psa10 value="0.22667224592391" flag="0"/>
			<psa30 value="0.0259171135482557" flag="0"/>
		</comp>
		<comp name="--.HGN" depth="0.0">
			<acc value="8.5136105870628" flag="0"/>
			<vel value="2.13755318488" flag="0"/>
			<psa03 value="6.70405744424438" flag="0"/>
			<psa10 value="0.411171868118681" flag="0"/>
			<psa30 value="0.0492183204722999" flag="0"/>
		</comp>
		<comp name="--.HGZ" depth="0.0">
			<acc value="1.6233967232898" flag="0"/>
			<vel value="0.279223453425" flag="0"/>
			<psa03 value="1.69225193671695" flag="0"/>
			<psa10 value="0.0701639680184847" flag="0"/>
			<psa30 value="0.00522356478554381" flag="0"/>
		</comp>
	</station>
	<station code="CRR" name="CRR" netid="IT" source="Italian Strong Motion Network (RAN)" insttype="" lat="44.09" lon="10.105">
		<comp name="--.HNE" depth="0.0">
			<acc value="0.01116228077703" flag="0"/>
			<vel value="0.00470457769156" flag="0"/>
			<psa03 value="0.0262779152621057" flag="0"/>
			<psa10 value="0.00379616319593186" flag="0"/>
			<psa30 value="0.0003168358065257" flag="0"/>
		</comp>
		<comp name="--.HNN" depth="0.0">
			<acc value="0.019548490995204" flag="0"/>
			<vel value="0.00557407186326" flag="0"/>
			<psa03 value="0.0414768205524723" flag="0"/>
			<psa10 value="0.00537388568104174" flag="0"/>
			<psa30 value="0.000377361612938172" flag="0"/>
		</comp>
		<comp name="--.HNZ" depth="0.0">
			<acc value="0.012940154390256" flag="0"/>
			<vel value="0.00502536156647" flag="0"/>
			<psa03 value="0.0189542413025311" flag="0"/>
			<psa10 value="0.00287492591848169" flag="0"/>
			<psa30 value="0.000192973265302393" flag="0"/>
		</comp>
	</station>
	<station code="GAI" name="GAI" netid="IT" source="Italian Strong Motion Network (RAN)" insttype="" lat="45.6592" lon="10.6162">
		<comp name="--.HNE" depth="0.0">
			<acc value="0.06904440870438" flag="0"/>
			<vel value="0.0286306949688" flag="0"/>
			<psa03 value="0.155504374318346" flag="0"/>
			<psa10 value="0.0133406096874303" flag="0"/>
			<psa30 value="0.000667426922091699" flag="0"/>
		</comp>
		<comp name="--.HNN" depth="0.0">
			<acc value="0.088320943939398" flag="0"/>
			<vel value="0.0249438065328" flag="0"/>
			<psa03 value="0.140732666598304" flag="0"/>
			<psa10 value="0.0189473576694393" flag="0"/>
			<psa30 value="0.000914324215327296" flag="0"/>
		</comp>
		<comp name="--.HNZ" depth="0.0">
			<acc value="0.041397928290324" flag="0"/>
			<vel value="0.0126866949248" flag="0"/>
			<psa03 value="0.0589899390438477" flag="0"/>
			<psa10 value="0.00755893746127351" flag="0"/>
			<psa30 value="0.000558205363782257" flag="0"/>
		</comp>
	</station>
	<station code="ISD" name="ISD" netid="IT" source="Italian Strong Motion Network (RAN)" insttype="" lat="45.2733" lon="10.9602">
		<comp name="--.HGE" depth="0.0">
			<acc value="0.045016105202664" flag="0"/>
			<vel value="0.0251193055708" flag="0"/>
			<psa03 value="0.151196224341054" flag="0"/>
			<psa10 value="0.0290698126074245" flag="0"/>
			<psa30 value="0.00180783976051111" flag="0"/>
		</comp>
		<comp name="--.HGN" depth="0.0">
			<acc value="0.080608175900028" flag="0"/>
			<vel value="0.0418639341514" flag="0"/>
			<psa03 value="0.20141344681913" flag="0"/>
			<psa10 value="0.0431293946105896" flag="0"/>
			<psa30 value="0.00261118506153082" flag="0"/>
		</comp>
		<comp name="--.HGZ" depth="0.0">
			<acc value="0.02653995632091" flag="0"/>
			<vel value="0.0103788681837" flag="0"/>
			<psa03 value="0.0371976933312973" flag="0"/>
			<psa10 value="0.0105077554622298" flag="0"/>
			<psa30 value="0.000664640539591373" flag="0"/>
		</comp>
	</station>
	<station code="MDN" name="MDN" netid="IT" source="Italian Strong Motion Network (RAN)" insttype="" lat="44.646" lon="10.8899">
		<comp name="--.HNE" depth="0.0">
			<acc value="0.3217579231095" flag="0"/>
			<vel value="0.195307603195" flag="0"/>
			<psa03 value="0.66854891308279" flag="0"/>
			<psa10 value="0.108632246353332" flag="0"/>
			<psa30 value="0.00863685464922594" flag="0"/>
		</comp>
		<comp name="--.HNN" depth="0.0">
			<acc value="0.40176886942818" flag="0"/>
			<vel value="0.223322449448" flag="0"/>
			<psa03 value="0.613736532034904" flag="0"/>
			<psa10 value="0.131703129685919" flag="0"/>
			<psa30 value="0.00884978875506135" flag="0"/>
		</comp>
		<comp name="--.HNZ" depth="0.0">
			<acc value="0.26395936609908" flag="0"/>
			<vel value="0.061488992624" flag="0"/>
			<psa03 value="0.197932070361813" flag="0"/>
			<psa10 value="0.0214369619685067" flag="0"/>
			<psa30 value="0.00220605926560074" flag="0"/>
		</comp>
	</station>
	<station code="MRN" name="MRN" netid="IT" source="Italian Strong Motion Network (RAN)" insttype="" lat="44.8782" lon="11.0617">
		<comp name="--.HGE" depth="0.0">
			<acc value="0.53544698257464" flag="0"/>
			<vel value="0.164087821255" flag="0"/>
			<psa03 value="1.27253079892147" flag="0"/>
			<psa10 value="0.0363510755803506" flag="0"/>
			<psa30 value="0.00376201796522747" flag="0"/>
		</comp>
		<comp name="--.HGN" depth="0.0">
			<acc value="0.31172946709608" flag="0"/>
			<vel value="0.078795392808" flag="0"/>
			<psa03 value="0.554796044183379" flag="0"/>
			<psa10 value="0.0228899113442849" flag="0"/>
			<psa30 value="0.00177175716188378" flag="0"/>
		</comp>
		<comp name="--.HGZ" depth="0.0">
			<acc value="0.27604830265374" flag="0"/>
			<vel value="0.0735103304511" flag="0"/>
			<psa03 value="0.238918868869031" flag="0"/>
			<psa10 value="0.0127428707151527" flag="0"/>
			<psa30 value="0.00126322107802866" flag="0"/>
		</comp>
	</station>
	<station code="MRZ" name="MRZ" netid="IT" source="Italian Strong Motion Network (RAN)" insttype="" lat="44.3614" lon="11.1901">
		<comp name="--.HNE" depth="0.0">
			<acc value="0.1035656414367" flag="0"/>
			<vel value="0.00759814875888" flag="0"/>
			<psa03 value="0.0478342833697823" flag="0"/>
			<psa10 value="0.00523943130535098" flag="0"/>
			<psa30 value="0.00152565002515789" flag="0"/>
		</comp>
		<comp name="--.HNN" depth="0.0">
			<acc value="0.16865536446876" flag="0"/>
			<vel value="0.014199770337" flag="0"/>
			<psa03 value="0.0548315229441768" flag="0"/>
			<psa10 value="0.00725775547816323" flag="0"/>
			<psa30 value="0.00208538606325982" flag="0"/>
		</comp>
		<comp name="--.HNZ" depth="0.0">
			<acc value="0.12900778587696" flag="0"/>
			<vel value="0.0092040151773" flag="0"/>
			<psa03 value="0.022657638978229" flag="0"/>
			<psa10 value="0.00546390758204398" flag="0"/>
			<psa30 value="0.000695759215635631" flag="0"/>
		</comp>
	</station>
	<station code="SLOB" name="SLOB" netid="IT" source="Italian Strong Motion Network (RAN)" insttype="" lat="45.6044" lon="10.5165">
		<comp name="--.HNE" depth="0.0">
			<acc value="0.10867071845712" flag="0"/>
			<vel value="0.0498954944329" flag="0"/>
			<psa03 value="0.341051342977699" flag="0"/>
			<psa10 value="0.0324598403051332" flag="0"/>
			<psa30 value="0.00181933010502561" flag="0"/>
		</comp>
		<comp name="--.HNN" depth="0.0">
			<acc value="0.09803528889762" flag="0"/>
			<vel value="0.0557056540036" flag="0"/>
			<psa03 value="0.243079206971304" flag="0"/>
			<psa10 value="0.0446321041578908" flag="0"/>
			<psa30 value="0.00305793215633248" flag="0"/>
		</comp>
		<comp name="--.HNZ" depth="0.0">
			<acc value="0.10553661128226" flag="0"/>
			<vel value="0.0415198763278" flag="0"/>
			<psa03 value="0.33612585002129" flag="0"/>
			<psa10 value="0.0300759048810955" flag="0"/>
			<psa30 value="0.00172515574143267" flag="0"/>
		</comp>
	</station>
	<station code="SSU" name="SSU" netid="IT" source="Italian Strong Motion Network (RAN)" insttype="" lat="44.507" lon="10.7848">
		<comp name="--.HNE" depth="0.0">
			<acc value="0.21810554083608" flag="0"/>
			<vel value="0.113000330005" flag="0"/>
			<psa03 value="0.879510846610792" flag="0"/>
			<psa10 value="0.0495654959707035" flag="0"/>
			<psa30 value="0.00393292887056873" flag="0"/>
		</comp>
		<comp name="--.HNN" depth="0.0">
			<acc value="0.18014508944478" flag="0"/>
			<vel value="0.0742984119607" flag="0"/>
			<psa03 value="0.466111585937157" flag="0"/>
			<psa10 value="0.0491338573769581" flag="0"/>
			<psa30 value="0.00263303734246695" flag="0"/>
		</comp>
		<comp name="--.HNZ" depth="0.0">
			<acc value="0.1290014108586" flag="0"/>
			<vel value="0.0381174658616" flag="0"/>
			<psa03 value="0.298114436118291" flag="0"/>
			<psa10 value="0.0217792527685963" flag="0"/>
			<psa30 value="0.00133051845281696" flag="0"/>
		</comp>
	</station>
	<station code="SUZR" name="SUZR" netid="IT" source="Italian Strong Motion Network (RAN)" insttype="" lat="44.9879" lon="10.7442">
		<comp name="--.HNE" depth="0.0">
			<acc value="0.60286563415638" flag="0"/>
			<vel value="0.236673979135" flag="0"/>
			<psa03 value="1.40825979029908" flag="0"/>
			<psa10 value="0.103981728279282" flag="0"/>
			<psa30 value="0.00915062201712689" flag="0"/>
		</comp>
		<comp name="--.HNN" depth="0.0">
			<acc value="0.40944680438748" flag="0"/>
			<vel value="0.148373442568" flag="0"/>
			<psa03 value="0.807660503543691" flag="0"/>
			<psa10 value="0.0813237848015677" flag="0"/>
			<psa30 value="0.00590830847977568" flag="0"/>
		</comp>
		<comp name="--.HNZ" depth="0.0">
			<acc value="0.27220327957638" flag="0"/>
			<vel value="0.0702277806054" flag="0"/>
			<psa03 value="0.249940015632579" flag="0"/>
			<psa10 value="0.016892902196855" flag="0"/>
			<psa30 value="0.00143638306999393" flag="0"/>
		</comp>
	</station>
	<station code="VRNA" name="VRNA" netid="IT" source="Italian Strong Motion Network (RAN)" insttype="" lat="45.4262" lon="10.9922">
		<comp name="--.HNE" depth="0.0">
			<acc value="0.079436940080808" flag="0"/>
			<vel value="0.0298695781583" flag="0"/>
			<psa03 value="0.148786908485865" flag="0"/>
			<psa10 value="0.0156131842968255" flag="0"/>
			<psa30 value="0.00110346830769133" flag="0"/>
		</comp>
		<comp name="--.HNN" depth="0.0">
			<acc value="0.06764312478306" flag="0"/>
			<vel value="0.0232411938733" flag="0"/>
			<psa03 value="0.098935824846358" flag="0"/>
			<psa10 value="0.0159814024394759" flag="0"/>
			<psa30 value="0.00065614752905466" flag="0"/>
		</comp>
		<comp name="--.HNZ" depth="0.0">
			<acc value="0.036602484449928" flag="0"/>
			<vel value="0.00882882887905" flag="0"/>
			<psa03 value="0.0474290690261797" flag="0"/>
			<psa10 value="0.00802333869430548" flag="0"/>
			<psa30 value="0.000298608974087299" flag="0"/>
		</comp>
	</station>
	<station code="ASOL" name="ASOL" netid="IV" source="Italian National Seismic Network (INSN)" insttype="" lat="45.8003" lon="11.9023">
		<comp name="--.HNE" depth="0.0">
			<acc value="0.031831151344518" flag="0"/>
			<vel value="0.0132733440776944" flag="0"/>
			<psa03 value="0.0732824223090506" flag="0"/>
			<psa10 value="0.0122464709560956" flag="0"/>
			<psa30 value="0.00117816721446076" flag="0"/>
		</comp>
		<comp name="--.HNN" depth="0.0">
			<acc value="0.0304822344638696" flag="0"/>
			<vel value="0.0140139550988787" flag="0"/>
			<psa03 value="0.0736505352364156" flag="0"/>
			<psa10 value="0.00998635935978939" flag="0"/>
			<psa30 value="0.000941277250831895" flag="0"/>
		</comp>
		<comp name="--.HNZ" depth="0.0">
			<acc value="0.0175811525299643" flag="0"/>
			<vel value="0.00709495744951537" flag="0"/>
			<psa03 value="0.0469783464598517" flag="0"/>
			<psa10 value="0.00511311074973982" flag="0"/>
			<psa30 value="0.00051290548788909" flag="0"/>
		</comp>
	</station>
	<station code="BAG8" name="BAG8" netid="IV" source="Italian National Seismic Network (INSN)" insttype="" lat="45.8228" lon="10.4664">
		<comp name="--.HNE" depth="0.0">
			<acc value="0.0555340201754454" flag="0"/>
			<vel value="0.0185180941103295" flag="0"/>
			<psa03 value="0.0571117937928038" flag="0"/>
			<psa10 value="0.0055580392865648" flag="0"/>
			<psa30 value="0.000505188466255785" flag="0"/>
		</comp>
		<comp name="--.HNN" depth="0.0">
			<acc value="0.0611905718921021" flag="0"/>
			<vel value="0.0197739334584261" flag="0"/>
			<psa03 value="0.133331645067153" flag="0"/>
			<psa10 value="0.00914405918655594" flag="0"/>
			<psa30 value="0.000684783957327502" flag="0"/>
		</comp>
		<comp name="--.HNZ" depth="0.0">
			<acc value="0.0330042543912854" flag="0"/>
			<vel value="0.0116818538629156" flag="0"/>
			<psa03 value="0.0885440322741806" flag="0"/>
			<psa10 value="0.00381516523597273" flag="0"/>
			<psa30 value="0.000573903278691093" flag="0"/>
		</comp>
	</station>
	<station code="BDI" name="BDI" netid="IV" source="Italian National Seismic Network (INSN)" insttype="" lat="44.0628" lon="10.5956">
		<comp name="--.HNE" depth="0.0">
			<acc value="0.0177026333745745" flag="0"/>
			<vel value="0.0142449041420387" flag="0"/>
			<psa03 value="0.038099268681224" flag="0"/>
			<psa10 value="0.0117503271515115" flag="0"/>
			<psa30 value="0.000677077196791327" flag="0"/>
		</comp>
		<comp name="--.HNN" depth="0.0">
			<acc value="0.0195477891338496" flag="0"/>
			<vel value="0.0127060820733913" flag="0"/>
			<psa03 value="0.0650255732501362" flag="0"/>
			<psa10 value="0.00657831312471135" flag="0"/>
			<psa30 value="0.000459762436171949" flag="0"/>
		</comp>
		<comp name="--.HNZ" depth="0.0">
			<acc value="0.00969181119775827" flag="0"/>
			<vel value="0.00517709938233961" flag="0"/>
			<psa03 value="0.0246478541535599" flag="0"/>
			<psa10 value="0.00317186332350423" flag="0"/>
			<psa30 value="0.000342267673553494" flag="0"/>
		</comp>
	</station>
	<station code="MDI" name="MDI" netid="IV" source="Italian National Seismic Network (INSN)" insttype="" lat="45.76972" lon="9.716">
		<comp name="--.HNE" depth="0.0">
			<acc value="0.0257183949024229" flag="0"/>
			<vel value="0.00857472482332848" flag="0"/>
			<psa03 value="0.0568483700921009" flag="0"/>
			<psa10 value="0.00577147764458101" flag="0"/>
			<psa30 value="0.000328451419753063" flag="0"/>
		</comp>
		<comp name="--.HNN" depth="0.0">
			<acc value="0.0197375834518771" flag="0"/>
			<vel value="0.00868639865556015" flag="0"/>
			<psa03 value="0.0797965777985272" flag="0"/>
			<psa10 value="0.00628919615964819" flag="0"/>
			<psa30 value="0.000408956648662682" flag="0"/>
		</comp>
		<comp name="--.HNZ" depth="0.0">
			<acc value="0.0150910352215618" flag="0"/>
			<vel value="0.00791977889792927" flag="0"/>
			<psa03 value="0.0390636815271813" flag="0"/>
			<psa10 value="0.00669687676021571" flag="0"/>
			<psa30 value="0.000478631290305638" flag="0"/>
		</comp>
	</station>
	<station code="MODE" name="MODE" netid="IV" source="Italian National Seismic Network (INSN)" insttype="" lat="44.629722" lon="10.949167">
		<comp name="--.HNE" depth="0.0">
			<acc value="0.208761740983929" flag="0"/>
			<vel value="0.150394532144226" flag="0"/>
			<psa03 value="0.381271132341482" flag="0"/>
			<psa10 value="0.148340071801881" flag="0"/>
			<psa30 value="0.00907482199574889" flag="0"/>
		</comp>
		<comp name="--.HNN" depth="0.0">
			<acc value="0.267988189677309" flag="0"/>
			<vel value="0.0933131403011826" flag="0"/>
			<psa03 value="0.575459496367842" flag="0"/>
			<psa10 value="0.100294078990615" flag="0"/>
			<psa30 value="0.00657498472713357" flag="0"/>
		</comp>
		<comp name="--.HNZ" depth="0.0">
			<acc value="0.132891192067562" flag="0"/>
			<vel value="0.0639784028994184" flag="0"/>
			<psa03 value="0.386633987604189" flag="0"/>
			<psa10 value="0.0251345437901602" flag="0"/>
			<psa30 value="0.00302552209265861" flag="0"/>
		</comp>
	</station>
	<station code="MTRZ" name="MTRZ" netid="IV" source="Italian National Seismic Network (INSN)" insttype="" lat="44.3128" lon="11.4248">
		<comp name="--.HNE" depth="1.0">
			<acc value="0.0152337785298886" flag="0"/>
			<vel value="0.0124300265709634" flag="0"/>
			<psa03 value="0.0325447548886101" flag="0"/>
			<psa10 value="0.017774714987621" flag="0"/>
			<psa30 value="0.00156034878211712" flag="0"/>
		</comp>
		<comp name="--.HNN" depth="1.0">
			<acc value="0.0147033006003293" flag="0"/>
			<vel value="0.0111593741471358" flag="0"/>
			<psa03 value="0.02874535215518" flag="0"/>
			<psa10 value="0.0164855708381539" flag="0"/>
			<psa30 value="0.00279299002188276" flag="0"/>
		</comp>
		<comp name="--.HNZ" depth="1.0">
			<acc value="0.00733144695000113" flag="0"/>
			<vel value="0.00613176767517909" flag="0"/>
			<psa03 value="0.0257346396893958" flag="0"/>
			<psa10 value="0.00928973289919338" flag="0"/>
			<psa30 value="0.00143043100903503" flag="0"/>
		</comp>
	</station>
	<station code="NDIM" name="NDIM" netid="IV" source="Italian National Seismic Network (INSN)" insttype="" lat="44.8873" lon="10.8987">
		<comp name="--.HNE" depth="0.0">
			<acc value="1.61143844132975" flag="0"/>
			<vel value="0.270635379963038" flag="0"/>
			<psa03 value="0.997752596211059" flag="0"/>
			<psa10 value="0.0776158166669138" flag="0"/>
			<psa30 value="0.00873046335034429" flag="0"/>
		</comp>
		<comp name="--.HNN" depth="0.0">
			<acc value="2.41694818849339" flag="0"/>
			<vel value="0.546658659365786" flag="0"/>
			<psa03 value="1.07722094393397" flag="0"/>
			<psa10 value="0.0668503760091261" flag="0"/>
			<psa30 value="0.00710862007787649" flag="0"/>
		</comp>
		<comp name="--.HNZ" depth="0.0">
			<acc value="0.578732818994013" flag="0"/>
			<vel value="0.0964452105342057" flag="0"/>
			<psa03 value="0.300282017210006" flag="0"/>
			<psa10 value="0.0134330776879775" flag="0"/>
			<psa30 value="0.00176160294755003" flag="0"/>
		</comp>
	</station>
	<station code="NEVI" name="NEVI" netid="IV" source="Italian National Seismic Network (INSN)" insttype="" lat="44.5834" lon="10.3163">
		<comp name="--.HNE" depth="0.0">
			<acc value="0.0200993357607904" flag="0"/>
			<vel value="0.013198852876265" flag="0"/>
			<psa03 value="0.0544289181486124" flag="0"/>
			<psa10 value="0.0149650222967953" flag="0"/>
			<psa30 value="0.00108516449098807" flag="0"/>
		</comp>
		<comp name="--.HNN" depth="0.0">
			<acc value="0.0167524279791165" flag="0"/>
			<vel value="0.0120801993370638" flag="0"/>
			<psa03 value="0.0574294762958852" flag="0"/>
			<psa10 value="0.019286340750412" flag="0"/>
			<psa30 value="0.00117734799352548" flag="0"/>
		</comp>
		<comp name="--.HNZ" depth="0.0">
			<acc value="0.00815230443380367" flag="0"/>
			<vel value="0.004983478566966" flag="0"/>
			<psa03 value="0.0165196815873918" flag="0"/>
			<psa10 value="0.00726755112709745" flag="0"/>
			<psa30 value="0.000834935206194308" flag="0"/>
		</comp>
	</station>
	<station code="OPPE" name="OPPE" netid="IV" source="Italian National Seismic Network (INSN)" insttype="" lat="45.3082" lon="11.1724">
		<comp name="--.HNE" depth="0.0">
			<acc value="0.0527118077772653" flag="0"/>
			<vel value="0.0190205641190549" flag="0"/>
			<psa03 value="0.0690361983094438" flag="0"/>
			<psa10 value="0.0136803240668397" flag="0"/>
