<?xml version="1.0" encoding="UTF-8" standalone="yes"?>
<!DOCTYPE earthquake SYSTEM "stationlist.dtd">
<stationlist created="" xmlns="ch.ethz.sed.shakemap.usgs.xml">
  <station code="CARD" name="CARD" netid="GU" insttype="" lat="44.0261" lon="10.4821">
    <comp name="--.HHE">
      <acc value="0.0115929552" flag="0"/>
      <vel value="0.0045117777" flag="0"/>
      <psa03 value="0.0169213982" flag="0"/>
      <psa10 value="0.0059659829" flag="0"/>
      <psa30 value="0.0002610901" flag="0"/>
    </comp>
    <comp name="--.HHZ">
      <acc value="0.0039359754" flag="0"/>
      <vel value="0.0021892155" flag="0"/>
      <psa03 value="0.0077750442" flag="0"/>
      <psa10 value="0.0025663295" flag="0"/>
      <psa30 value="0.0002479697" flag="0"/>
    </comp>
    <comp name="--.HHN">
      <acc value="0.0114590790" flag="0"/>
      <vel value="0.0053902807" flag="0"/>
      <psa03 value="0.0238616247" flag="0"/>
      <psa10 value="0.0058591022" flag="0"/>
      <psa30 value="0.0003046060" flag="0"/>
    </comp>
  </station>
  <station code="GORR" name="GORR" netid="GU" insttype="" lat="44.6071" lon="9.2926">
    <comp name="--.HHE">
      <acc value="0.0072350119" flag="0"/>
      <vel value="0.0038466286" flag="0"/>
      <psa03 value="0.0156370855" flag="0"/>
      <psa10 value="0.0036465357" flag="0"/>
      <psa30 value="0.0002402663" flag="0"/>
    </comp>
    <comp name="--.HHN">
      <acc value="0.0092851698" flag="0"/>
      <vel value="0.0035625544" flag="0"/>
      <psa03 value="0.0208840776" flag="0"/>
      <psa10 value="0.0023299893" flag="0"/>
      <psa30 value="0.0002427036" flag="0"/>
    </comp>
    <comp name="--.HHZ">
      <acc value="0.0040303015" flag="0"/>
      <vel value="0.0024317858" flag="0"/>
      <psa03 value="0.0103138660" flag="0"/>
      <psa10 value="0.0019196293" flag="0"/>
      <psa30 value="0.0001601385" flag="0"/>
    </comp>
  </station>
  <station code="GRAM" name="GRAM" netid="GU" insttype="" lat="44.4904" lon="10.065">
    <comp name="--.HHE">
      <acc value="0.0279839726" flag="0"/>
      <vel value="0.0154115223" flag="0"/>
      <psa03 value="0.0980262762" flag="0"/>
      <psa10 value="0.0129897321" flag="0"/>
      <psa30 value="0.0005402686" flag="0"/>
    </comp>
    <comp name="--.HHZ">
      <acc value="0.0120749971" flag="0"/>
      <vel value="0.0054452649" flag="0"/>
      <psa03 value="0.0225403322" flag="0"/>
      <psa10 value="0.0050407735" flag="0"/>
      <psa30 value="0.0003620627" flag="0"/>
    </comp>
    <comp name="--.HHN">
      <acc value="0.0266287572" flag="0"/>
      <vel value="0.0156696574" flag="0"/>
      <psa03 value="0.1133918391" flag="0"/>
      <psa10 value="0.0133819785" flag="0"/>
      <psa30 value="0.0007018746" flag="0"/>
    </comp>
  </station>
  <station code="GSCL" name="GSCL" netid="GU" insttype="" lat="44.3506" lon="10.588">
    <comp name="--.HHE">
      <acc value="0.0240449306" flag="0"/>
      <vel value="0.0135838403" flag="0"/>
      <psa03 value="0.0736329220" flag="0"/>
      <psa10 value="0.0192093290" flag="0"/>
      <psa30 value="0.0010509331" flag="0"/>
    </comp>
    <comp name="--.HHN">
      <acc value="0.0163925195" flag="0"/>
      <vel value="0.0119935581" flag="0"/>
      <psa03 value="0.0643647568" flag="0"/>
      <psa10 value="0.0157044111" flag="0"/>
      <psa30 value="0.0009974020" flag="0"/>
    </comp>
    <comp name="--.HHZ">
      <acc value="0.0100611148" flag="0"/>
      <vel value="0.0084827640" flag="0"/>
      <psa03 value="0.0361850339" flag="0"/>
      <psa10 value="0.0142346337" flag="0"/>
      <psa30 value="0.0005752419" flag="0"/>
    </comp>
  </station>
  <station code="MAIM" name="MAIM" netid="GU" insttype="" lat="43.9142" lon="10.4915">
    <comp name="--.HHE">
      <acc value="0.0044654055" flag="0"/>
      <vel value="0.0018944749" flag="0"/>
      <psa03 value="0.0130670829" flag="0"/>
      <psa10 value="0.0023582519" flag="0"/>
      <psa30 value="0.0001551647" flag="0"/>
    </comp>
    <comp name="--.HHN">
      <acc value="0.0096258390" flag="0"/>
      <vel value="0.0052519010" flag="0"/>
      <psa03 value="0.0290790820" flag="0"/>
      <psa10 value="0.0037729358" flag="0"/>
      <psa30 value="0.0002447399" flag="0"/>
    </comp>
    <comp name="--.HHZ">
      <acc value="0.0078598528" flag="0"/>
      <vel value="0.0053746369" flag="0"/>
      <psa03 value="0.0178752989" flag="0"/>
      <psa10 value="0.0047824104" flag="0"/>
      <psa30 value="0.0002792713" flag="0"/>
    </comp>
  </station>
  <station code="POPM" name="POPM" netid="GU" insttype="" lat="44.045" lon="10.757">
    <comp name="--.HHN">
      <acc value="0.0179449086" flag="0"/>
      <vel value="0.0078964171" flag="0"/>
      <psa03 value="0.0482277985" flag="0"/>
      <psa10 value="0.0077562148" flag="0"/>
      <psa30 value="0.0004898459" flag="0"/>
    </comp>
    <comp name="--.HHZ">
      <acc value="0.0094542611" flag="0"/>
      <vel value="0.0043227519" flag="0"/>
      <psa03 value="0.0265477109" flag="0"/>
      <psa10 value="0.0029042303" flag="0"/>
      <psa30 value="0.0003524695" flag="0"/>
    </comp>
    <comp name="--.HHE">
      <acc value="0.0143676370" flag="0"/>
      <vel value="0.0066871978" flag="0"/>
      <psa03 value="0.0447098445" flag="0"/>
      <psa10 value="0.0053581320" flag="0"/>
      <psa30 value="0.0004467522" flag="0"/>
    </comp>
  </station>
  <station code="BAG8" name="BAG8" netid="IV" insttype="" lat="45.8228" lon="10.4664">
    <comp name="--.HNE">
      <acc value="0.0557479772" flag="0"/>
      <vel value="0.0185711639" flag="0"/>
      <psa03 value="0.0571243979" flag="0"/>
      <psa10 value="0.0055525574" flag="0"/>
      <psa30 value="0.0004855498" flag="0"/>
    </comp>
    <comp name="--.HNN">
      <acc value="0.0617102380" flag="0"/>
      <vel value="0.0197189161" flag="0"/>
      <psa03 value="0.1338514656" flag="0"/>
      <psa10 value="0.0091369185" flag="0"/>
      <psa30 value="0.0007023267" flag="0"/>
    </comp>
    <comp name="--.HNZ">
      <acc value="0.0328622356" flag="0"/>
      <vel value="0.0117893112" flag="0"/>
      <psa03 value="0.0889211506" flag="0"/>
      <psa10 value="0.0038194185" flag="0"/>
      <psa30 value="0.0005128240" flag="0"/>
    </comp>
  </station>
  <station code="BDI" name="BDI" netid="IV" insttype="" lat="44.0624" lon="10.597">
    <comp name="--.HHE">
      <acc value="0.0170917519" flag="0"/>
      <vel value="0.0138087817" flag="0"/>
      <psa03 value="0.0479544439" flag="0"/>
      <psa10 value="0.0108554761" flag="0"/>
      <psa30 value="0.0005747701" flag="0"/>
    </comp>
    <comp name="--.HHN">
      <acc value="0.0177136118" flag="0"/>
      <vel value="0.0124580272" flag="0"/>
      <psa03 value="0.0555586000" flag="0"/>
      <psa10 value="0.0086252981" flag="0"/>
      <psa30 value="0.0005339280" flag="0"/>
    </comp>
    <comp name="--.HHZ">
      <acc value="0.0098956857" flag="0"/>
      <vel value="0.0053166771" flag="0"/>
      <psa03 value="0.0251803099" flag="0"/>
      <psa10 value="0.0031561436" flag="0"/>
      <psa30 value="0.0003181070" flag="0"/>
    </comp>
  </station>
  <station code="BOSL" name="BOSL" netid="IV" insttype="" lat="43.931" lon="11.3743">
    <comp name="--.HHE">
      <acc value="0.0015315700" flag="0"/>
      <vel value="0.0016384673" flag="0"/>
      <psa03 value="0.0032368414" flag="0"/>
      <psa10 value="0.0014263618" flag="0"/>
      <psa30 value="0.0001880585" flag="0"/>
    </comp>
    <comp name="--.HHN">
      <acc value="0.0012838010" flag="0"/>
      <vel value="0.0012647113" flag="0"/>
      <psa03 value="0.0049411398" flag="0"/>
      <psa10 value="0.0017149122" flag="0"/>
      <psa30 value="0.0001676300" flag="0"/>
    </comp>
    <comp name="--.HHZ">
      <acc value="0.0012068698" flag="0"/>
      <vel value="0.0005080440" flag="0"/>
      <psa03 value="0.0025463207" flag="0"/>
      <psa10 value="0.0006027940" flag="0"/>
      <psa30 value="0.0001247628" flag="0"/>
    </comp>
  </station>
  <station code="BOZZ" name="BOZZ" netid="IV" insttype="" lat="45.1071" lon="10.482">
    <comp name="--.HNN">
      <acc value="0.1158590031" flag="0"/>
      <vel value="0.0914281796" flag="0"/>
      <psa03 value="0.3111487627" flag="0"/>
      <psa10 value="0.0787752552" flag="0"/>
      <psa30 value="0.0059061408" flag="0"/>
    </comp>
    <comp name="--.HNE">
      <acc value="0.1450534928" flag="0"/>
      <vel value="0.0914249451" flag="0"/>
      <psa03 value="0.3706055211" flag="0"/>
      <psa10 value="0.0597762117" flag="0"/>
      <psa30 value="0.0040952807" flag="0"/>
    </comp>
    <comp name="--.HNZ">
      <acc value="0.1489412048" flag="0"/>
      <vel value="0.0508934135" flag="0"/>
      <psa03 value="0.2071408922" flag="0"/>
      <psa10 value="0.0152362138" flag="0"/>
      <psa30 value="0.0011960455" flag="0"/>
    </comp>
  </station>
  <station code="CAVE" name="CAVE" netid="IV" insttype="" lat="44.8658" lon="11.0031">
    <comp name="--.HHE">
      <acc value="1.0130171583" flag="0"/>
      <vel value="0.3239208904" flag="0"/>
      <psa03 value="1.4688839208" flag="0"/>
      <psa10 value="0.0991385477" flag="0"/>
      <psa30 value="0.0092563844" flag="0"/>
    </comp>
    <comp name="--.HHN">
      <acc value="1.3549397524" flag="0"/>
      <vel value="0.3555070871" flag="0"/>
      <psa03 value="1.3398290265" flag="0"/>
      <psa10 value="0.0930160915" flag="0"/>
      <psa30 value="0.0093921768" flag="0"/>
    </comp>
    <comp name="--.HHZ">
      <acc value="0.4352966984" flag="0"/>
      <vel value="0.0603930034" flag="0"/>
      <psa03 value="0.2796036685" flag="0"/>
      <psa10 value="0.0124968018" flag="0"/>
      <psa30 value="0.0010041325" flag="0"/>
    </comp>
  </station>
  <station code="CNCS" name="CNCS" netid="IV" insttype="" lat="45.606" lon="10.217">
    <comp name="--.HNN">
      <acc value="0.1252626179" flag="0"/>
      <vel value="0.0544919522" flag="0"/>
      <psa03 value="0.3955703047" flag="0"/>
      <psa10 value="0.0261274695" flag="0"/>
      <psa30 value="0.0016829559" flag="0"/>
    </comp>
    <comp name="--.HNE">
      <acc value="0.1062963877" flag="0"/>
      <vel value="0.0495421344" flag="0"/>
      <psa03 value="0.2934427492" flag="0"/>
      <psa10 value="0.0187973307" flag="0"/>
      <psa30 value="0.0014073890" flag="0"/>
    </comp>
    <comp name="--.HNZ">
      <acc value="0.0561811885" flag="0"/>
      <vel value="0.0202745098" flag="0"/>
      <psa03 value="0.1037718459" flag="0"/>
      <psa10 value="0.0062449015" flag="0"/>
      <psa30 value="0.0006113651" flag="0"/>
    </comp>
  </station>
  <station code="FNVD" name="FNVD" netid="IV" insttype="" lat="44.1678" lon="11.1229">
    <comp name="--.HHZ">
      <acc value="0.0079860030" flag="0"/>
      <vel value="0.0031789377" flag="0"/>
      <psa03 value="0.0176432625" flag="0"/>
      <psa10 value="0.0035146674" flag="0"/>
      <psa30 value="0.0004785490" flag="0"/>
    </comp>
    <comp name="--.HHE">
      <acc value="0.0099353695" flag="0"/>
      <vel value="0.0063091780" flag="0"/>
      <psa03 value="0.0204324291" flag="0"/>
      <psa10 value="0.0063382925" flag="0"/>
      <psa30 value="0.0004103798" flag="0"/>
    </comp>
    <comp name="--.HHN">
      <acc value="0.0108229695" flag="0"/>
      <vel value="0.0065268412" flag="0"/>
      <psa03 value="0.0255660030" flag="0"/>
      <psa10 value="0.0071511452" flag="0"/>
      <psa30 value="0.0008697596" flag="0"/>
    </comp>
  </station>
  <station code="LMD" name="LMD" netid="IV" insttype="" lat="44.0775" lon="11.7073">
    <comp name="--.HHE">
      <acc value="0.0071517657" flag="0"/>
      <vel value="0.0038725746" flag="0"/>
      <psa03 value="0.0138754087" flag="0"/>
      <psa10 value="0.0055478561" flag="0"/>
      <psa30 value="0.0004303832" flag="0"/>
    </comp>
    <comp name="--.HHN">
      <acc value="0.0063314399" flag="0"/>
      <vel value="0.0047998935" flag="0"/>
      <psa03 value="0.0216472471" flag="0"/>
      <psa10 value="0.0041448273" flag="0"/>
      <psa30 value="0.0006329509" flag="0"/>
    </comp>
    <comp name="--.HHZ">
      <acc value="0.0037057071" flag="0"/>
      <vel value="0.0028351204" flag="0"/>
      <psa03 value="0.0074563468" flag="0"/>
      <psa10 value="0.0038635131" flag="0"/>
      <psa30 value="0.0003826425" flag="0"/>
    </comp>
  </station>
  <station code="MAGA" name="MAGA" netid="IV" insttype="" lat="45.7753" lon="10.6286">
    <comp name="--.HHN">
      <acc value="0.1802787806" flag="0"/>
      <vel value="0.0717868828" flag="0"/>
      <psa03 value="0.4227138083" flag="0"/>
      <psa10 value="0.0271933226" flag="0"/>
      <psa30 value="0.0018411652" flag="0"/>
    </comp>
    <comp name="--.HHE">
      <acc value="0.1419289426" flag="0"/>
      <vel value="0.0739675606" flag="0"/>
      <psa03 value="0.3164845977" flag="0"/>
      <psa10 value="0.0456301762" flag="0"/>
      <psa30 value="0.0023464622" flag="0"/>
    </comp>
    <comp name="--.HHZ">
      <acc value="0.0832898186" flag="0"/>
      <vel value="0.0299037396" flag="0"/>
      <psa03 value="0.2120140916" flag="0"/>
      <psa10 value="0.0154089155" flag="0"/>
      <psa30 value="0.0011498629" flag="0"/>
    </comp>
  </station>
  <station code="MBAL" name="MBAL" netid="IV" insttype="" lat="45.6975" lon="10.8589">
    <comp name="--.HNE">
      <acc value="0.2508555932" flag="0"/>
      <vel value="0.0374088790" flag="0"/>
      <psa03 value="0.0652718954" flag="0"/>
      <psa10 value="0.0075620199" flag="0"/>
      <psa30 value="0.0006639929" flag="0"/>
    </comp>
    <comp name="--.HNN">
      <acc value="0.1843865445" flag="0"/>
      <vel value="0.0344540351" flag="0"/>
      <psa03 value="0.1226088404" flag="0"/>
      <psa10 value="0.0154560821" flag="0"/>
      <psa30 value="0.0007808854" flag="0"/>
    </comp>
    <comp name="--.HNZ">
      <acc value="0.0503813545" flag="0"/>
      <vel value="0.0144331771" flag="0"/>
      <psa03 value="0.0611186301" flag="0"/>
      <psa10 value="0.0077117800" flag="0"/>
      <psa30 value="0.0005642833" flag="0"/>
    </comp>
  </station>
  <station code="MODE" name="MODE" netid="IV" insttype="" lat="44.6297" lon="10.9492">
    <comp name="--.HNE">
      <acc value="0.2097605614" flag="0"/>
      <vel value="0.1468923495" flag="0"/>
      <psa03 value="0.3787242233" flag="0"/>
      <psa10 value="0.1477105552" flag="0"/>
      <psa30 value="0.0097345757" flag="0"/>
    </comp>
    <comp name="--.HNN">
      <acc value="0.2668835330" flag="0"/>
      <vel value="0.0904862616" flag="0"/>
      <psa03 value="0.5715476061" flag="0"/>
      <psa10 value="0.1004361496" flag="0"/>
      <psa30 value="0.0067032763" flag="0"/>
    </comp>
    <comp name="--.HNZ">
      <acc value="0.1329812732" flag="0"/>
      <vel value="0.0639156189" flag="0"/>
      <psa03 value="0.3846668827" flag="0"/>
      <psa10 value="0.0250328615" flag="0"/>
      <psa30 value="0.0029010097" flag="0"/>
    </comp>
  </station>
  <station code="MSSA" name="MSSA" netid="IV" insttype="" lat="44.3162" lon="9.51739">
    <comp name="--.HHE">
      <acc value="0.1030175450" flag="0"/>
      <vel value="0.0178334562" flag="0"/>
      <psa03 value="0.0222847957" flag="0"/>
      <psa10 value="0.0025792829" flag="0"/>
      <psa30 value="0.0002196879" flag="0"/>
    </comp>
    <comp name="--.HHN">
      <acc value="0.1028472636" flag="0"/>
      <vel value="0.0175337879" flag="0"/>
      <psa03 value="0.0184528901" flag="0"/>
      <psa10 value="0.0019574541" flag="0"/>
      <psa30 value="0.0001685441" flag="0"/>
    </comp>
    <comp name="--.HHZ">
      <acc value="0.0129288736" flag="0"/>
      <vel value="0.0017735777" flag="0"/>
      <psa03 value="0.0061770748" flag="0"/>
      <psa10 value="0.0014019618" flag="0"/>
      <psa30 value="0.0000945884" flag="0"/>
    </comp>
  </station>
  <station code="MTRZ" name="MTRZ" netid="IV" insttype="" lat="44.3128" lon="11.4248">
    <comp name="--.HHN">
      <acc value="0.0152221951" flag="0"/>
      <vel value="0.0115462696" flag="0"/>
      <psa03 value="0.0291341335" flag="0"/>
      <psa10 value="0.0168072376" flag="0"/>
      <psa30 value="0.0025898717" flag="0"/>
    </comp>
    <comp name="--.HHE">
      <acc value="0.0154120730" flag="0"/>
      <vel value="0.0132480088" flag="0"/>
      <psa03 value="0.0336089113" flag="0"/>
      <psa10 value="0.0178884086" flag="0"/>
      <psa30 value="0.0016025316" flag="0"/>
    </comp>
    <comp name="--.HHZ">
      <acc value="0.0074610582" flag="0"/>
      <vel value="0.0061050642" flag="0"/>
      <psa03 value="0.0266770539" flag="0"/>
      <psa10 value="0.0095079972" flag="0"/>
      <psa30 value="0.0012867723" flag="0"/>
    </comp>
  </station>
  <station code="NDIM" name="NDIM" netid="IV" insttype="" lat="44.8873" lon="10.8987">
    <comp name="--.HNE">
      <acc value="1.5819816584" flag="0"/>
      <vel value="0.2647622976" flag="0"/>
      <psa03 value="0.9751576013" flag="0"/>
      <psa10 value="0.0771811896" flag="0"/>
      <psa30 value="0.0082637601" flag="0"/>
    </comp>
    <comp name="--.HNN">
      <acc value="2.4283987619" flag="0"/>
      <vel value="0.5206268920" flag="0"/>
      <psa03 value="1.0614168808" flag="0"/>
      <psa10 value="0.0659564143" flag="0"/>
      <psa30 value="0.0072607782" flag="0"/>
    </comp>
    <comp name="--.HNZ">
      <acc value="0.5862603606" flag="0"/>
      <vel value="0.0942236477" flag="0"/>
      <psa03 value="0.2998995470" flag="0"/>
      <psa10 value="0.0133439924" flag="0"/>
      <psa30 value="0.0017662849" flag="0"/>
    </comp>
  </station>
  <station code="NEVI" name="NEVI" netid="IV" insttype="" lat="44.5834" lon="10.3163">
    <comp name="--.HNE">
      <acc value="0.0201366383" flag="0"/>
      <vel value="0.0128987845" flag="0"/>
      <psa03 value="0.0534564319" flag="0"/>
      <psa10 value="0.0149897531" flag="0"/>
      <psa30 value="0.0009825014" flag="0"/>
    </comp>
    <comp name="--.HNN">
      <acc value="0.0168562720" flag="0"/>
      <vel value="0.0113815990" flag="0"/>
      <psa03 value="0.0570255363" flag="0"/>
      <psa10 value="0.0192191329" flag="0"/>
      <psa30 value="0.0010918849" flag="0"/>
    </comp>
    <comp name="--.HNZ">
      <acc value="0.0080420276" flag="0"/>
      <vel value="0.0046795675" flag="0"/>
      <psa03 value="0.0164611105" flag="0"/>
      <psa10 value="0.0072377381" flag="0"/>
      <psa30 value="0.0007197080" flag="0"/>
    </comp>
  </station>
  <station code="OPPE" name="OPPE" netid="IV" insttype="" lat="45.3082" lon="11.1724">
    <comp name="--.HHN">
      <acc value="0.0877743548" flag="0"/>
      <vel value="0.0195037250" flag="0"/>
      <psa03 value="0.0975285186" flag="0"/>
      <psa10 value="0.0184974425" flag="0"/>
      <psa30 value="0.0008283516" flag="0"/>
    </comp>
    <comp name="--.HHE">
      <acc value="0.0569186213" flag="0"/>
      <vel value="0.0191071195" flag="0"/>
      <psa03 value="0.0719914359" flag="0"/>
      <psa10 value="0.0138035649" flag="0"/>
      <psa30 value="0.0013130818" flag="0"/>
    </comp>
    <comp name="--.HHZ">
      <acc value="0.0479127338" flag="0"/>
      <vel value="0.0077448921" flag="0"/>
      <psa03 value="0.0461656756" flag="0"/>
      <psa10 value="0.0049579588" flag="0"/>
      <psa30 value="0.0003836958" flag="0"/>
    </comp>
  </station>
  <station code="PII" name="PII" netid="IV" insttype="" lat="43.7219" lon="10.525">
    <comp name="--.HHN">
      <acc value="0.0179528784" flag="0"/>
      <vel value="0.0073993440" flag="0"/>
      <psa03 value="0.0506938333" flag="0"/>
      <psa10 value="0.0072584698" flag="0"/>
      <psa30 value="0.0004980572" flag="0"/>
    </comp>
    <comp name="--.HHZ">
      <acc value="0.0097959355" flag="0"/>
      <vel value="0.0039503503" flag="0"/>
      <psa03 value="0.0146635962" flag="0"/>
      <psa10 value="0.0057577866" flag="0"/>
      <psa30 value="0.0003296224" flag="0"/>
    </comp>
