<?xml version="1.0" encoding="UTF-8" standalone="yes"?>
<!DOCTYPE earthquake SYSTEM "stationlist.dtd">
<stationlist created="" xmlns="ch.ethz.sed.shakemap.usgs.xml">
  <station code="GAZ" name="GAZ" netid="KO" insttype="CMG-3T" lat="37.1721" lon="37.2096">
    <comp name="--.HHE">
      <acc value="0.0128306066" flag="0"/>
      <vel value="0.0117502151" flag="0"/>
      <psa03 value="0.0199999253" flag="0"/>
      <psa10 value="0.0113505399" flag="0"/>
      <psa30 value="0.0007282611" flag="0"/>
    </comp>
    <comp name="--.HHZ">
      <acc value="0.0067240401" flag="0"/>
      <vel value="0.0065638936" flag="0"/>
      <psa03 value="0.0157220108" flag="0"/>
      <psa10 value="0.0061852867" flag="0"/>
      <psa30 value="0.0004257792" flag="0"/>
    </comp>
    <comp name="--.HHN">
      <acc value="0.0098658634" flag="0"/>
      <vel value="0.0107455143" flag="0"/>
      <psa03 value="0.0235472609" flag="0"/>
      <psa10 value="0.0141376784" flag="0"/>
      <psa30 value="0.0009847214" flag="0"/>
    </comp>
  </station>
  <station code="SARI" name="SARI" netid="KO" insttype="CMG-3T" lat="38.4072" lon="36.4181">
    <comp name="--.HHE">
      <acc value="0.1341773915" flag="0"/>
      <vel value="0.0456015542" flag="0"/>
      <psa03 value="0.2895227308" flag="0"/>
      <psa10 value="0.0544387057" flag="0"/>
      <psa30 value="0.0023350913" flag="0"/>
    </comp>
    <comp name="--.HHN">
      <acc value="0.1295038672" flag="0"/>
      <vel value="0.0633467101" flag="0"/>
      <psa03 value="0.3547366294" flag="0"/>
      <psa10 value="0.0458607811" flag="0"/>
      <psa30 value="0.0027980145" flag="0"/>
    </comp>
    <comp name="--.HHZ">
      <acc value="0.1009808797" flag="0"/>
      <vel value="0.0442472558" flag="0"/>
      <psa03 value="0.2010097066" flag="0"/>
      <psa10 value="0.0529749698" flag="0"/>
      <psa30 value="0.0031236844" flag="0"/>
    </comp>
  </station>
  <station code="ANDN" name="ANDN" netid="TU" insttype="T" lat="37.58" lon="36.3452">
    <comp name="--.HHZ">
      <acc value="0.0986485982" flag="0"/>
      <vel value="0.0567904733" flag="0"/>
      <psa03 value="0.2184393494" flag="0"/>
      <psa10 value="0.0764110843" flag="0"/>
      <psa30 value="0.0040418451" flag="0"/>
    </comp>
    <comp name="--.HHE">
      <acc value="0.1869271891" flag="0"/>
      <vel value="0.0813890083" flag="0"/>
      <psa03 value="0.4408481634" flag="0"/>
      <psa10 value="0.0585001468" flag="0"/>
      <psa30 value="0.0037224147" flag="0"/>
    </comp>
    <comp name="--.HHN">
      <acc value="0.2326155774" flag="0"/>
      <vel value="0.0929588204" flag="0"/>
      <psa03 value="0.4873997344" flag="0"/>
      <psa10 value="0.0859845266" flag="0"/>
      <psa30 value="0.0034897650" flag="0"/>
    </comp>
  </station>
</stationlist>
