<?xml version="1.0" encoding="UTF-8" standalone="yes"?>
<!DOCTYPE earthquake SYSTEM "stationlist.dtd">
<stationlist created="" xmlns="ch.ethz.sed.shakemap.usgs.xml">
  <station code="BNN" name="BNN" netid="KO" insttype="CMG-3T" lat="38.8521" lon="35.8472">
    <comp name="--.HHZ">
      <acc value="0.0087529936" flag="0"/>
      <vel value="0.0059266302" flag="0"/>
      <psa03 value="0.0199694301" flag="0"/>
      <psa10 value="0.0100945401" flag="0"/>
      <psa30 value="0.0006414789" flag="0"/>
    </comp>
    <comp name="--.HHE">
      <acc value="0.0144996785" flag="0"/>
      <vel value="0.0074772096" flag="0"/>
      <psa03 value="0.0389154159" flag="0"/>
      <psa10 value="0.0112838178" flag="0"/>
      <psa30 value="0.0006064836" flag="0"/>
    </comp>
    <comp name="--.HHN">
      <acc value="0.0166907712" flag="0"/>
      <vel value="0.0079402699" flag="0"/>
      <psa03 value="0.0278167853" flag="0"/>
      <psa10 value="0.0112846053" flag="0"/>
      <psa30 value="0.0008052510" flag="0"/>
    </comp>
  </station>
  <station code="GAZ" name="GAZ" netid="KO" insttype="CMG-3T" lat="37.1721" lon="37.2096">
    <comp name="--.HHE">
      <acc value="0.0128306061" flag="0"/>
      <vel value="0.0117502154" flag="0"/>
      <psa03 value="0.0199999253" flag="0"/>
      <psa10 value="0.0113505399" flag="0"/>
      <psa30 value="0.0007282895" flag="0"/>
    </comp>
    <comp name="--.HHZ">
      <acc value="0.0067240398" flag="0"/>
      <vel value="0.0065638948" flag="0"/>
      <psa03 value="0.0157220108" flag="0"/>
      <psa10 value="0.0061852866" flag="0"/>
      <psa30 value="0.0004257791" flag="0"/>
    </comp>
    <comp name="--.HHN">
      <acc value="0.0098658639" flag="0"/>
      <vel value="0.0107455150" flag="0"/>
      <psa03 value="0.0235472609" flag="0"/>
      <psa10 value="0.0141376784" flag="0"/>
      <psa30 value="0.0009847189" flag="0"/>
    </comp>
  </station>
  <station code="SARI" name="SARI" netid="KO" insttype="CMG-3T" lat="38.4072" lon="36.4181">
    <comp name="--.HHN">
      <acc value="0.1295038672" flag="0"/>
      <vel value="0.0633467089" flag="0"/>
      <psa03 value="0.3547366294" flag="0"/>
      <psa10 value="0.0458607811" flag="0"/>
      <psa30 value="0.0027979348" flag="0"/>
    </comp>
    <comp name="--.HHE">
      <acc value="0.1341773912" flag="0"/>
      <vel value="0.0456015538" flag="0"/>
      <psa03 value="0.2895227308" flag="0"/>
      <psa10 value="0.0544387058" flag="0"/>
      <psa30 value="0.0023350645" flag="0"/>
    </comp>
    <comp name="--.HHZ">
      <acc value="0.1009808796" flag="0"/>
      <vel value="0.0442472554" flag="0"/>
      <psa03 value="0.2010097066" flag="0"/>
      <psa10 value="0.0529749699" flag="0"/>
      <psa30 value="0.0031234853" flag="0"/>
    </comp>
  </station>
  <station code="ANDN" name="ANDN" netid="TU" insttype="T" lat="37.58" lon="36.3452">
    <comp name="--.HHZ">
      <acc value="0.0986485985" flag="0"/>
      <vel value="0.0567904717" flag="0"/>
      <psa03 value="0.2184393494" flag="0"/>
      <psa10 value="0.0764110825" flag="0"/>
      <psa30 value="0.0040412487" flag="0"/>
    </comp>
    <comp name="--.HHE">
      <acc value="0.1869271893" flag="0"/>
      <vel value="0.0813890100" flag="0"/>
      <psa03 value="0.4408481634" flag="0"/>
      <psa10 value="0.0585001469" flag="0"/>
      <psa30 value="0.0037224175" flag="0"/>
    </comp>
    <comp name="--.HHN">
      <acc value="0.2326155778" flag="0"/>
      <vel value="0.0929588203" flag="0"/>
      <psa03 value="0.4873997344" flag="0"/>
      <psa10 value="0.0859845270" flag="0"/>
      <psa30 value="0.0034897792" flag="0"/>
    </comp>
  </station>
</stationlist>
