<stationlist created="1778069350">
	<station code="ARG2" name="ARG2" netid="HI" source="ITSAK Strong Motion Network" insttype="" lat="38.1783" lon="20.4878">
		<comp name="--.HNE" depth="0.0">
			<acc value="0.307613528045129" flag="0"/>
			<vel value="0.0954739350885936" flag="0"/>
			<psa03 value="0.526168349830876" flag="0"/>
			<psa10 value="0.044669276821484" flag="0"/>
			<psa30 value="0.00296640829879142" flag="0"/>
		</comp>
		<comp name="--.HNN" depth="0.0">
			<acc value="0.237672444036649" flag="0"/>
			<vel value="0.0979510017848503" flag="0"/>
			<psa03 value="0.710819436544483" flag="0"/>
			<psa10 value="0.0576355682994591" flag="0"/>
			<psa30 value="0.00391404823496641" flag="0"/>
		</comp>
		<comp name="--.HNZ" depth="0.0">
			<acc value="0.209276497603247" flag="0"/>
			<vel value="0.0490661672378642" flag="0"/>
			<psa03 value="0.236909984043749" flag="0"/>
			<psa10 value="0.021700417631928" flag="0"/>
			<psa30 value="0.00160624521759596" flag="0"/>
		</comp>
	</station>
	<station code="KRK1" name="KRK1" netid="HI" source="ITSAK Strong Motion Network" insttype="" lat="39.618861" lon="19.9202">
		<comp name="--.HNE" depth="0.0">
			<acc value="0.0118221024867568" flag="0"/>
			<vel value="0.00447646011584991" flag="0"/>
			<psa03 value="0.0168230696884702" flag="0"/>
			<psa10 value="0.00269392826048614" flag="0"/>
			<psa30 value="0.000456817929572554" flag="0"/>
		</comp>
		<comp name="--.HNN" depth="0.0">
			<acc value="0.0104029997436736" flag="0"/>
			<vel value="0.00429248922886758" flag="0"/>
			<psa03 value="0.0158834833494865" flag="0"/>
			<psa10 value="0.00312076891162445" flag="0"/>
			<psa30 value="0.000268900661775813" flag="0"/>
		</comp>
		<comp name="--.HNZ" depth="0.0">
			<acc value="0.00644285048045301" flag="0"/>
			<vel value="0.00188465998189816" flag="0"/>
			<psa03 value="0.00854576146408991" flag="0"/>
			<psa10 value="0.00106710162784578" flag="0"/>
			<psa30 value="0.00020581415044405" flag="0"/>
		</comp>
	</station>
	<station code="MSL1" name="MSL1" netid="HI" source="ITSAK Strong Motion Network" insttype="" lat="38.3727" lon="21.4243">
		<comp name="--.HNE" depth="0.0">
			<acc value="0.0312164080562819" flag="0"/>
			<vel value="0.0207574473322515" flag="0"/>
			<psa03 value="0.0684555761259558" flag="0"/>
			<psa10 value="0.0234077802364812" flag="0"/>
			<psa30 value="0.0014187753718654" flag="0"/>
		</comp>
		<comp name="--.HNN" depth="0.0">
			<acc value="0.0318362631741032" flag="0"/>
			<vel value="0.0174927684400618" flag="0"/>
			<psa03 value="0.0690372248119933" flag="0"/>
			<psa10 value="0.0189662213854854" flag="0"/>
			<psa30 value="0.00166441008619971" flag="0"/>
		</comp>
		<comp name="--.HNZ" depth="0.0">
			<acc value="0.0153859820324345" flag="0"/>
			<vel value="0.00729040419310385" flag="0"/>
			<psa03 value="0.0286797544423122" flag="0"/>
			<psa10 value="0.0136065524546826" flag="0"/>
			<psa30 value="0.000575832199177157" flag="0"/>
		</comp>
	</station>
	<station code="VAS2" name="VAS2" netid="HI" source="ITSAK Strong Motion Network" insttype="" lat="38.630558" lon="20.608081">
		<comp name="--.HNE" depth="0.0">
			<acc value="0.0386568581581475" flag="0"/>
			<vel value="0.0205990828658806" flag="0"/>
			<psa03 value="0.110915930206696" flag="0"/>
			<psa10 value="0.0298305239965341" flag="0"/>
			<psa30 value="0.00149170516865318" flag="0"/>
		</comp>
		<comp name="--.HNN" depth="0.0">
			<acc value="0.0536180686987754" flag="0"/>
			<vel value="0.0296623884901128" flag="0"/>
			<psa03 value="0.206798478989652" flag="0"/>
			<psa10 value="0.0498316326211002" flag="0"/>
			<psa30 value="0.00211943832750753" flag="0"/>
		</comp>
		<comp name="--.HNZ" depth="0.0">
			<acc value="0.0292175783640449" flag="0"/>
			<vel value="0.0141842236246183" flag="0"/>
			<psa03 value="0.107783975743417" flag="0"/>
			<psa10 value="0.0176856994320705" flag="0"/>
			<psa30 value="0.000912293592946561" flag="0"/>
		</comp>
	</station>
	<station code="PATC" name="PATC" netid="HL" source="National Observatory of Athens Seismic Network" insttype="" lat="38.26933" lon="21.76001">
		<comp name="00.HNE" depth="0.0">
			<acc value="0.0138821559996511" flag="0"/>
			<vel value="0.00847532298842402" flag="0"/>
			<psa03 value="0.0448764332381266" flag="0"/>
			<psa10 value="0.00963210224078154" flag="0"/>
			<psa30 value="0.00114226853496448" flag="0"/>
		</comp>
		<comp name="00.HNN" depth="0.0">
			<acc value="0.00917594751066896" flag="0"/>
			<vel value="0.00760874392668596" flag="0"/>
			<psa03 value="0.0306036693268979" flag="0"/>
			<psa10 value="0.0129501842835926" flag="0"/>
			<psa30 value="0.000680528962663913" flag="0"/>
		</comp>
		<comp name="00.HNZ" depth="0.0">
			<acc value="0.0096744923658151" flag="0"/>
			<vel value="0.00391042085196216" flag="0"/>
			<psa03 value="0.0157492567296317" flag="0"/>
			<psa10 value="0.00703884394518651" flag="0"/>
			<psa30 value="0.000481426143212604" flag="0"/>
		</comp>
	</station>
	<station code="ANX" name="ANX" netid="HP" source="University of Patras, Seismological Laboratory (PSLNET)" insttype="" lat="38.5933" lon="21.9209">
		<comp name="--.HNE" depth="0.0">
			<acc value="0.00545239298481608" flag="0"/>
			<vel value="0.00365344488260786" flag="0"/>
			<psa03 value="0.0140796748968696" flag="0"/>
			<psa10 value="0.00397512880152401" flag="0"/>
			<psa30 value="0.000200274816702959" flag="0"/>
		</comp>
		<comp name="--.HNN" depth="0.0">
			<acc value="0.00625560824896696" flag="0"/>
			<vel value="0.00539365987155156" flag="0"/>
			<psa03 value="0.0191079832580276" flag="0"/>
			<psa10 value="0.00573052165016539" flag="0"/>
			<psa30 value="0.000348043498882175" flag="0"/>
		</comp>
		<comp name="--.HNZ" depth="0.0">
			<acc value="0.0035376766712668" flag="0"/>
			<vel value="0.0024100169490846" flag="0"/>
			<psa03 value="0.00894732969583526" flag="0"/>
			<psa10 value="0.00359336312079529" flag="0"/>
			<psa30 value="0.000241394767260482" flag="0"/>
		</comp>
	</station>
	<station code="LTHK" name="LTHK" netid="HP" source="University of Patras, Seismological Laboratory (PSLNET)" insttype="" lat="37.7095" lon="20.8367">
		<comp name="--.HNE" depth="0.0">
			<acc value="0.147613691935198" flag="0"/>
			<vel value="0.0292213158243148" flag="0"/>
			<psa03 value="0.102101715502896" flag="0"/>
			<psa10 value="0.00990592454528537" flag="0"/>
			<psa30 value="0.000558830160662214" flag="0"/>
		</comp>
		<comp name="--.HNN" depth="0.0">
			<acc value="0.183044267332165" flag="0"/>
			<vel value="0.0326025866287863" flag="0"/>
			<psa03 value="0.17838717778705" flag="0"/>
			<psa10 value="0.0108884634026226" flag="0"/>
			<psa30 value="0.000603572367280486" flag="0"/>
		</comp>
		<comp name="--.HNZ" depth="0.0">
			<acc value="0.0654477475386702" flag="0"/>
			<vel value="0.0155099694968036" flag="0"/>
			<psa03 value="0.0776277284827015" flag="0"/>
			<psa10 value="0.00587107235244962" flag="0"/>
			<psa30 value="0.000383440710718589" flag="0"/>
		</comp>
	</station>
	<station code="PVO" name="PVO" netid="HP" source="University of Patras, Seismological Laboratory (PSLNET)" insttype="" lat="38.616" lon="21.525">
		<comp name="--.HNE" depth="0.0">
			<acc value="0.00752928225778656" flag="0"/>
			<vel value="0.00459658971357352" flag="0"/>
			<psa03 value="0.0184785313333462" flag="0"/>
			<psa10 value="0.00426035291419184" flag="0"/>
			<psa30 value="0.000394178840306974" flag="0"/>
		</comp>
		<comp name="--.HNN" depth="0.0">
			<acc value="0.00508208610328942" flag="0"/>
			<vel value="0.0031554875154381" flag="0"/>
			<psa03 value="0.0140043106715191" flag="0"/>
			<psa10 value="0.00302009894673334" flag="0"/>
			<psa30 value="0.000268005817643448" flag="0"/>
		</comp>
		<comp name="--.HNZ" depth="0.0">
			<acc value="0.00346262881106696" flag="0"/>
			<vel value="0.00174708091067037" flag="0"/>
			<psa03 value="0.00635339333979459" flag="0"/>
			<psa10 value="0.00228319480373041" flag="0"/>
			<psa30 value="0.000272480038305275" flag="0"/>
		</comp>
	</station>
	<station code="SERG" name="SERG" netid="HP" source="University of Patras, Seismological Laboratory (PSLNET)" insttype="" lat="38.4133" lon="22.0566">
		<comp name="--.HNE" depth="0.0">
			<acc value="0.0058037648842846" flag="0"/>
			<vel value="0.00223319329031736" flag="0"/>
			<psa03 value="0.0149438970105028" flag="0"/>
			<psa10 value="0.00190064893714418" flag="0"/>
			<psa30 value="0.00016957296308325" flag="0"/>
		</comp>
		<comp name="--.HNN" depth="0.0">
			<acc value="0.00777119319484814" flag="0"/>
			<vel value="0.00347432107380643" flag="0"/>
			<psa03 value="0.0145859593575566" flag="0"/>
			<psa10 value="0.00234762358126072" flag="0"/>
			<psa30 value="0.000196865709120396" flag="0"/>
		</comp>
		<comp name="--.HNZ" depth="0.0">
			<acc value="0.00362563976046582" flag="0"/>
			<vel value="0.00157511324237046" flag="0"/>
			<psa03 value="0.00563751803390224" flag="0"/>
			<psa10 value="0.00153421026494054" flag="0"/>
			<psa30 value="0.000114540048942776" flag="0"/>
		</comp>
	</station>
</stationlist>
