<?xml version="1.0" encoding="UTF-8" standalone="yes"?>
<!DOCTYPE earthquake SYSTEM "stationlist.dtd">
<stationlist created="" xmlns="ch.ethz.sed.shakemap.usgs.xml">
  <station code="ARG2" name="ARG2" netid="HI" insttype="CMG-5TD,ACCELEROMETER,GURALP" lat="38.1783" lon="20.4878">
    <comp name="--.HNN">
      <acc value="0.2351125821" flag="0"/>
      <vel value="0.0970888033" flag="0"/>
      <psa03 value="0.7042150180" flag="0"/>
      <psa10 value="0.0573777785" flag="0"/>
      <psa30 value="0.0039594237" flag="0"/>
    </comp>
    <comp name="--.HNE">
      <acc value="0.3055428620" flag="0"/>
      <vel value="0.0940765939" flag="0"/>
      <psa03 value="0.5193207485" flag="0"/>
      <psa10 value="0.0446772053" flag="0"/>
      <psa30 value="0.0029541112" flag="0"/>
    </comp>
    <comp name="--.HNZ">
      <acc value="0.2088132897" flag="0"/>
      <vel value="0.0480580891" flag="0"/>
      <psa03 value="0.2309172872" flag="0"/>
      <psa10 value="0.0215647107" flag="0"/>
      <psa30 value="0.0015369032" flag="0"/>
    </comp>
  </station>
  <station code="ORTH" name="ORTH" netid="HL" insttype="30" lat="37.8511" lon="20.6963">
    <comp name="--.HHE">
      <acc value="0.2415734362" flag="0"/>
      <vel value="0.0433825124" flag="0"/>
      <psa03 value="0.2143425706" flag="0"/>
      <psa10 value="0.0129932460" flag="0"/>
      <psa30 value="0.0006723917" flag="0"/>
    </comp>
    <comp name="--.HHN">
      <acc value="0.2308349923" flag="0"/>
      <vel value="0.0422992914" flag="0"/>
      <psa03 value="0.2606074757" flag="0"/>
      <psa10 value="0.0118160750" flag="0"/>
      <psa30 value="0.0006887358" flag="0"/>
    </comp>
    <comp name="--.HHZ">
      <acc value="0.1296291389" flag="0"/>
      <vel value="0.0215358848" flag="0"/>
      <psa03 value="0.1018394729" flag="0"/>
      <psa10 value="0.0065646858" flag="0"/>
      <psa30 value="0.0003500531" flag="0"/>
    </comp>
  </station>
  <station code="VLS" name="VLS" netid="HL" insttype="120P," lat="38.1768" lon="20.5886">
    <comp name="--.HHZ">
      <acc value="0.1897906065" flag="0"/>
      <vel value="0.0396704568" flag="0"/>
      <psa03 value="0.2407082389" flag="0"/>
      <psa10 value="0.0136762396" flag="0"/>
      <psa30 value="0.0010978576" flag="0"/>
    </comp>
    <comp name="--.HHE">
      <acc value="1.0625662071" flag="0"/>
      <vel value="0.0795669457" flag="0"/>
      <psa03 value="0.3052320049" flag="0"/>
      <psa10 value="0.0106923723" flag="0"/>
      <psa30 value="0.0009312723" flag="0"/>
    </comp>
    <comp name="--.HHN">
      <acc value="0.4067691095" flag="0"/>
      <vel value="0.0956718219" flag="0"/>
      <psa03 value="0.5294439929" flag="0"/>
      <psa10 value="0.0291560325" flag="0"/>
      <psa30 value="0.0032164566" flag="0"/>
    </comp>
  </station>
  <station code="FSK" name="FSK" netid="HP" insttype="40," lat="38.4593" lon="20.5623">
    <comp name="--.HHE">
      <acc value="0.0464714933" flag="0"/>
      <vel value="0.0137678156" flag="0"/>
      <psa03 value="0.0695172820" flag="0"/>
      <psa10 value="0.0078644005" flag="0"/>
      <psa30 value="0.0007500405" flag="0"/>
    </comp>
    <comp name="--.HHN">
      <acc value="0.0220182948" flag="0"/>
      <vel value="0.0097840894" flag="0"/>
      <psa03 value="0.0298826703" flag="0"/>
      <psa10 value="0.0073216478" flag="0"/>
      <psa30 value="0.0005082251" flag="0"/>
    </comp>
    <comp name="--.HHZ">
      <acc value="0.0197641676" flag="0"/>
      <vel value="0.0055541660" flag="0"/>
      <psa03 value="0.0327106005" flag="0"/>
      <psa10 value="0.0043401520" flag="0"/>
      <psa30 value="0.0004951056" flag="0"/>
    </comp>
  </station>
  <station code="LTHK" name="LTHK" netid="HP" insttype="40," lat="37.7095" lon="20.8367">
    <comp name="--.HHZ">
      <acc value="0.0682745047" flag="0"/>
      <vel value="0.0151477525" flag="0"/>
      <psa03 value="0.0772856836" flag="0"/>
      <psa10 value="0.0058091721" flag="0"/>
      <psa30 value="0.0003799494" flag="0"/>
    </comp>
    <comp name="--.HHE">
      <acc value="0.1517821036" flag="0"/>
      <vel value="0.0289108577" flag="0"/>
      <psa03 value="0.1050588574" flag="0"/>
      <psa10 value="0.0098803217" flag="0"/>
      <psa30 value="0.0005362696" flag="0"/>
    </comp>
    <comp name="--.HHN">
      <acc value="0.1908964879" flag="0"/>
      <vel value="0.0322359053" flag="0"/>
      <psa03 value="0.1763573249" flag="0"/>
      <psa10 value="0.0108519736" flag="0"/>
      <psa30 value="0.0005547274" flag="0"/>
    </comp>
  </station>
  <station code="DMLN" name="DMLN" netid="HT" insttype="1s-100Hz," lat="38.2385" lon="20.3734">
    <comp name="--.HHE">
      <acc value="0.1519210516" flag="0"/>
      <vel value="0.0508148107" flag="0"/>
      <psa03 value="0.2618397084" flag="0"/>
      <psa10 value="0.0709293905" flag="0"/>
      <psa30 value="0.0025610458" flag="0"/>
    </comp>
    <comp name="--.HHN">
      <acc value="0.1975257639" flag="0"/>
      <vel value="0.0615072275" flag="0"/>
      <psa03 value="0.3275173455" flag="0"/>
      <psa10 value="0.0561320000" flag="0"/>
      <psa30 value="0.0028614118" flag="0"/>
    </comp>
    <comp name="--.HHZ">
      <acc value="0.1174963970" flag="0"/>
      <vel value="0.0324606965" flag="0"/>
      <psa03 value="0.1813045559" flag="0"/>
      <psa10 value="0.0217968527" flag="0"/>
      <psa30 value="0.0014866052" flag="0"/>
    </comp>
  </station>
  <station code="DRAG" name="DRAG" netid="HT" insttype="1s-100Hz," lat="38.6839" lon="20.5746">
    <comp name="--.HHE">
      <acc value="0.0000000000" flag="0"/>
      <vel value="-100.0000000000" flag="0"/>
      <psa03 value="0.0000000000" flag="0"/>
      <psa10 value="0.0000000000" flag="0"/>
      <psa30 value="0.0000000000" flag="0"/>
    </comp>
    <comp name="--.HHN">
      <acc value="0.0630659175" flag="0"/>
      <vel value="0.0161157661" flag="0"/>
      <psa03 value="0.0659745171" flag="0"/>
      <psa10 value="0.0091295398" flag="0"/>
      <psa30 value="0.0010509787" flag="0"/>
    </comp>
    <comp name="--.HHZ">
      <acc value="0.0338632856" flag="0"/>
      <vel value="0.0066619885" flag="0"/>
      <psa03 value="0.0363474302" flag="0"/>
      <psa10 value="0.0073229768" flag="0"/>
      <psa30 value="0.0004511043" flag="0"/>
    </comp>
  </station>
  <station code="EVGI" name="EVGI" netid="HT" insttype="30" lat="38.621" lon="20.656">
    <comp name="--.HHE">
      <acc value="0.0534595811" flag="0"/>
      <vel value="0.0103259659" flag="0"/>
      <psa03 value="0.0454296284" flag="0"/>
      <psa10 value="0.0056429734" flag="0"/>
      <psa30 value="0.0003398514" flag="0"/>
    </comp>
    <comp name="--.HHZ">
      <acc value="0.0349007596" flag="0"/>
      <vel value="0.0082647969" flag="0"/>
      <psa03 value="0.0405870228" flag="0"/>
      <psa10 value="0.0035547125" flag="0"/>
      <psa30 value="0.0003996176" flag="0"/>
    </comp>
  </station>
  <station code="LKD2" name="LKD2" netid="HT" insttype="100" lat="38.7889" lon="20.6578">
    <comp name="--.HHE">
      <acc value="0.0214497292" flag="0"/>
      <vel value="0.0079001461" flag="0"/>
      <psa03 value="0.0323578898" flag="0"/>
      <psa10 value="0.0054676865" flag="0"/>
      <psa30 value="0.0003934347" flag="0"/>
    </comp>
    <comp name="--.HHN">
      <acc value="0.0208457424" flag="0"/>
      <vel value="0.0061445752" flag="0"/>
      <psa03 value="0.0214555041" flag="0"/>
      <psa10 value="0.0040191886" flag="0"/>
      <psa30 value="0.0003944723" flag="0"/>
    </comp>
    <comp name="--.HHZ">
      <acc value="0.0153403582" flag="0"/>
      <vel value="0.0043943556" flag="0"/>
      <psa03 value="0.0191219908" flag="0"/>
      <psa10 value="0.0039872740" flag="0"/>
      <psa30 value="0.0003539483" flag="0"/>
    </comp>
  </station>
  <station code="NYDR" name="NYDR" netid="HT" insttype="1s-100Hz," lat="38.7135" lon="20.6983">
    <comp name="--.HHE">
      <acc value="0.0261547467" flag="0"/>
      <vel value="0.0140874178" flag="0"/>
      <psa03 value="0.0398597200" flag="0"/>
      <psa10 value="0.0072943511" flag="0"/>
      <psa30 value="0.0005467550" flag="0"/>
    </comp>
    <comp name="--.HHN">
      <acc value="0.0357692456" flag="0"/>
      <vel value="0.0202147304" flag="0"/>
      <psa03 value="0.0450058550" flag="0"/>
      <psa10 value="0.0224909269" flag="0"/>
      <psa30 value="0.0010740936" flag="0"/>
    </comp>
    <comp name="--.HHZ">
      <acc value="0.0175969872" flag="0"/>
      <vel value="0.0118359929" flag="0"/>
      <psa03 value="0.0333561727" flag="0"/>
      <psa10 value="0.0069347768" flag="0"/>
      <psa30 value="0.0006335055" flag="0"/>
    </comp>
  </station>
  <station code="RTZL" name="RTZL" netid="HT" insttype="Compact," lat="38.076" lon="20.7715">
    <comp name="--.HHE">
      <acc value="0.1613462278" flag="0"/>
      <vel value="0.0319172693" flag="0"/>
      <psa03 value="0.1517305996" flag="0"/>
      <psa10 value="0.0097307945" flag="0"/>
      <psa30 value="0.0008469019" flag="0"/>
    </comp>
    <comp name="--.HHN">
      <acc value="0.1349001245" flag="0"/>
      <vel value="0.0333014649" flag="0"/>
      <psa03 value="0.1209615814" flag="0"/>
      <psa10 value="0.0101493457" flag="0"/>
      <psa30 value="0.0008285238" flag="0"/>
    </comp>
    <comp name="--.HHZ">
      <acc value="0.0635883884" flag="0"/>
      <vel value="0.0126313396" flag="0"/>
      <psa03 value="0.0652344636" flag="0"/>
      <psa10 value="0.0051557261" flag="0"/>
      <psa30 value="0.0003736193" flag="0"/>
    </comp>
  </station>
  <station code="TSLK" name="TSLK" netid="HT" insttype="1s-100Hz," lat="38.8249" lon="20.6554">
    <comp name="--.HHN">
      <acc value="0.0203546093" flag="0"/>
      <vel value="0.0115501791" flag="0"/>
      <psa03 value="0.0645701991" flag="0"/>
      <psa10 value="0.0115356813" flag="0"/>
      <psa30 value="0.0009694024" flag="0"/>
    </comp>
    <comp name="--.HHZ">
      <acc value="0.0161546832" flag="0"/>
      <vel value="0.0057894437" flag="0"/>
      <psa03 value="0.0312047123" flag="0"/>
      <psa10 value="0.0066279679" flag="0"/>
      <psa30 value="0.0004566918" flag="0"/>
    </comp>
    <comp name="--.HHE">
      <acc value="0.0332160240" flag="0"/>
      <vel value="0.0141818294" flag="0"/>
      <psa03 value="0.0747333664" flag="0"/>
      <psa10 value="0.0172616117" flag="0"/>
      <psa30 value="0.0006131059" flag="0"/>
    </comp>
  </station>
</stationlist>
