<stationlist created="1778136470">
	<station code="ACER" name="ACER" netid="IV" source="Italian National Seismic Network (INSN)" insttype="" lat="40.7867" lon="15.9427">
		<comp name="--.HNE" depth="1.0">
			<acc value="0.105948510444299" flag="0"/>
			<vel value="0.106555202683674" flag="0"/>
			<psa03 value="0.28192064390173" flag="0"/>
			<psa10 value="0.1360896853384" flag="0"/>
			<psa30 value="0.0237357406109932" flag="0"/>
		</comp>
		<comp name="--.HNN" depth="1.0">
			<acc value="0.0904331878794773" flag="0"/>
			<vel value="0.142223139508926" flag="0"/>
			<psa03 value="0.267200457924319" flag="0"/>
			<psa10 value="0.240943493970386" flag="0"/>
			<psa30 value="0.0275177993364357" flag="0"/>
		</comp>
		<comp name="--.HNZ" depth="1.0">
			<acc value="0.0503430733121314" flag="0"/>
			<vel value="0.0578056004247823" flag="0"/>
			<psa03 value="0.170065127356051" flag="0"/>
			<psa10 value="0.0539510475844444" flag="0"/>
			<psa30 value="0.0285441855562588" flag="0"/>
		</comp>
	</station>
	<station code="APRC" name="APRC" netid="IV" source="Italian National Seismic Network (INSN)" insttype="" lat="41.75738" lon="15.54308">
		<comp name="--.HNE" depth="0.0">
			<acc value="0.39235691935269" flag="0"/>
			<vel value="0.279641644992513" flag="0"/>
			<psa03 value="1.51291297459024" flag="0"/>
			<psa10 value="0.407157659602802" flag="0"/>
			<psa30 value="0.0334716447711291" flag="0"/>
		</comp>
		<comp name="--.HNN" depth="0.0">
			<acc value="0.210196676520493" flag="0"/>
			<vel value="0.134385115225791" flag="0"/>
			<psa03 value="0.718112416223262" flag="0"/>
			<psa10 value="0.18957362428575" flag="0"/>
			<psa30 value="0.0190310975850819" flag="0"/>
		</comp>
		<comp name="--.HNZ" depth="0.0">
			<acc value="0.21206429131259" flag="0"/>
			<vel value="0.205910469503447" flag="0"/>
			<psa03 value="0.704108105551743" flag="0"/>
			<psa10 value="0.179321395061239" flag="0"/>
			<psa30 value="0.039769557774717" flag="0"/>
		</comp>
	</station>
	<station code="BSSO" name="BSSO" netid="IV" source="Italian National Seismic Network (INSN)" insttype="" lat="41.5461" lon="14.5938">
		<comp name="--.HNE" depth="0.0">
			<acc value="0.0665492477636315" flag="0"/>
			<vel value="0.178633502457526" flag="0"/>
			<psa03 value="0.117493034579582" flag="0"/>
			<psa10 value="0.13865072924523" flag="0"/>
			<psa30 value="0.0977071359688495" flag="0"/>
		</comp>
		<comp name="--.HNN" depth="0.0">
			<acc value="0.056981669589586" flag="0"/>
			<vel value="0.15486999222641" flag="0"/>
			<psa03 value="0.103622950527917" flag="0"/>
			<psa10 value="0.203574803002806" flag="0"/>
			<psa30 value="0.0840737381901959" flag="0"/>
		</comp>
		<comp name="--.HNZ" depth="0.0">
			<acc value="0.0412886817087299" flag="0"/>
			<vel value="0.102300002013818" flag="0"/>
			<psa03 value="0.077538244069465" flag="0"/>
			<psa10 value="0.0699857595923007" flag="0"/>
			<psa30 value="0.0645527134426439" flag="0"/>
		</comp>
	</station>
	<station code="CADA" name="CADA" netid="IV" source="Italian National Seismic Network (INSN)" insttype="" lat="43.1942" lon="13.7614">
		<comp name="--.HNE" depth="0.0">
			<acc value="0.147743638819929" flag="0"/>
			<vel value="0.301340811964139" flag="0"/>
			<psa03 value="0.18899108075558" flag="0"/>
			<psa10 value="0.690104689724356" flag="0"/>
			<psa30 value="0.0577299743554237" flag="0"/>
		</comp>
		<comp name="--.HNN" depth="0.0">
			<acc value="0.154057961341183" flag="0"/>
			<vel value="0.198528423649436" flag="0"/>
			<psa03 value="0.213375583362538" flag="0"/>
			<psa10 value="0.413427385016221" flag="0"/>
			<psa30 value="0.0437851708187069" flag="0"/>
		</comp>
		<comp name="--.HNZ" depth="0.0">
			<acc value="0.0520949266032397" flag="0"/>
			<vel value="0.0988384604704903" flag="0"/>
			<psa03 value="0.0679186696465365" flag="0"/>
			<psa10 value="0.151045215322624" flag="0"/>
			<psa30 value="0.0263715040028756" flag="0"/>
		</comp>
	</station>
	<station code="CAFE" name="CAFE" netid="IV" source="Italian National Seismic Network (INSN)" insttype="" lat="41.028" lon="15.2366">
		<comp name="--.HNE" depth="0.0">
			<acc value="0.0723803198485887" flag="0"/>
			<vel value="0.108427855565955" flag="0"/>
			<psa03 value="0.246619042879914" flag="0"/>
			<psa10 value="0.121693880358971" flag="0"/>
			<psa30 value="0.0557461049139695" flag="0"/>
		</comp>
		<comp name="--.HNN" depth="0.0">
			<acc value="0.038903257821909" flag="0"/>
			<vel value="0.101545923827636" flag="0"/>
			<psa03 value="0.0978959480807786" flag="0"/>
			<psa10 value="0.108341016215814" flag="0"/>
			<psa30 value="0.0501269311847807" flag="0"/>
		</comp>
		<comp name="--.HNZ" depth="0.0">
			<acc value="0.023529050546801" flag="0"/>
			<vel value="0.0759835201256709" flag="0"/>
			<psa03 value="0.0598650724552476" flag="0"/>
			<psa10 value="0.0578691226180065" flag="0"/>
			<psa30 value="0.0578700174621389" flag="0"/>
		</comp>
	</station>
	<station code="CAPA" name="CAPA" netid="IV" source="Italian National Seismic Network (INSN)" insttype="" lat="41.158295" lon="15.816928">
		<comp name="--.HNE" depth="0.0">
			<acc value="0.0440132491438056" flag="0"/>
			<vel value="0.0727627065072612" flag="0"/>
			<psa03 value="0.0718559838289444" flag="0"/>
			<psa10 value="0.156513607815509" flag="0"/>
			<psa30 value="0.0468580655692498" flag="0"/>
		</comp>
		<comp name="--.HNN" depth="0.0">
			<acc value="0.0396137216828296" flag="0"/>
			<vel value="0.0802851018212383" flag="0"/>
			<psa03 value="0.0696636157046491" flag="0"/>
			<psa10 value="0.142145990426249" flag="0"/>
			<psa30 value="0.0400107182683895" flag="0"/>
		</comp>
		<comp name="--.HNZ" depth="0.0">
			<acc value="0.0247313543598937" flag="0"/>
			<vel value="0.0471211482567166" flag="0"/>
			<psa03 value="0.0544065232478185" flag="0"/>
			<psa10 value="0.0798755769432035" flag="0"/>
			<psa30 value="0.0102898126780701" flag="0"/>
		</comp>
	</station>
	<station code="CERA" name="CERA" netid="IV" source="Italian National Seismic Network (INSN)" insttype="" lat="41.5978" lon="14.0183">
		<comp name="--.HNE" depth="0.0">
			<acc value="0.0735173152647023" flag="0"/>
			<vel value="0.113937640921246" flag="0"/>
			<psa03 value="0.1040703725941" flag="0"/>
			<psa10 value="0.221010840921946" flag="0"/>
			<psa30 value="0.0429744420347838" flag="0"/>
		</comp>
		<comp name="--.HNN" depth="0.0">
			<acc value="0.0597483045983252" flag="0"/>
			<vel value="0.093710406903437" flag="0"/>
			<psa03 value="0.126351991489999" flag="0"/>
			<psa10 value="0.12578108093355" flag="0"/>
			<psa30 value="0.0397431598728122" flag="0"/>
		</comp>
		<comp name="--.HNZ" depth="0.0">
			<acc value="0.0380484589258918" flag="0"/>
			<vel value="0.0641468733909724" flag="0"/>
			<psa03 value="0.0748984538789869" flag="0"/>
			<psa10 value="0.113962427055334" flag="0"/>
			<psa30 value="0.0259070798981779" flag="0"/>
		</comp>
	</station>
	<station code="INTR" name="INTR" netid="IV" source="Italian National Seismic Network (INSN)" insttype="" lat="42.01154" lon="13.9046">
		<comp name="--.HNE" depth="0.0">
			<acc value="0.0779039101463974" flag="0"/>
			<vel value="0.0920653741189137" flag="0"/>
			<psa03 value="0.179103053092942" flag="0"/>
			<psa10 value="0.27064516041186" flag="0"/>
			<psa30 value="0.0238637033219214" flag="0"/>
		</comp>
		<comp name="--.HNN" depth="0.0">
			<acc value="0.102408221408825" flag="0"/>
			<vel value="0.162541662969514" flag="0"/>
			<psa03 value="0.181429647837092" flag="0"/>
			<psa10 value="0.259937902946041" flag="0"/>
			<psa30 value="0.0662207029053731" flag="0"/>
		</comp>
		<comp name="--.HNZ" depth="0.0">
			<acc value="0.0558759754778602" flag="0"/>
			<vel value="0.0558685506646583" flag="0"/>
			<psa03 value="0.11055799255375" flag="0"/>
			<psa10 value="0.104233681648257" flag="0"/>
			<psa30 value="0.0167935398321021" flag="0"/>
		</comp>
	</station>
	<station code="LPEL" name="LPEL" netid="IV" source="Italian National Seismic Network (INSN)" insttype="" lat="42.0468" lon="14.1832">
		<comp name="--.HNE" depth="0.0">
			<acc value="0.0738910446239055" flag="0"/>
			<vel value="0.0930373835447515" flag="0"/>
			<psa03 value="0.303710098524829" flag="0"/>
			<psa10 value="0.132630665344741" flag="0"/>
			<psa30 value="0.0193648744464542" flag="0"/>
		</comp>
		<comp name="--.HNN" depth="0.0">
			<acc value="0.0683329557742242" flag="0"/>
			<vel value="0.0740375095922181" flag="0"/>
			<psa03 value="0.169617705289868" flag="0"/>
			<psa10 value="0.170482572143799" flag="0"/>
			<psa30 value="0.0218945988086513" flag="0"/>
		</comp>
		<comp name="--.HNZ" depth="0.0">
			<acc value="0.0588446306536287" flag="0"/>
			<vel value="0.0790000908113632" flag="0"/>
			<psa03 value="0.0915872969476023" flag="0"/>
			<psa10 value="0.21444313241245" flag="0"/>
			<psa30 value="0.0366510259734235" flag="0"/>
		</comp>
	</station>
	<station code="MELA" name="MELA" netid="IV" source="Italian National Seismic Network (INSN)" insttype="" lat="41.7059" lon="15.127">
		<comp name="--.HNE" depth="1.0">
			<acc value="0.326197935731068" flag="0"/>
			<vel value="0.452338279392945" flag="0"/>
			<psa03 value="0.861511188434823" flag="0"/>
			<psa10 value="0.521571088100848" flag="0"/>
			<psa30 value="0.0995415664401986" flag="0"/>
		</comp>
		<comp name="--.HNN" depth="1.0">
			<acc value="0.241466258812016" flag="0"/>
			<vel value="0.299113082243046" flag="0"/>
			<psa03 value="0.709432428139317" flag="0"/>
			<psa10 value="0.467982452390012" flag="0"/>
			<psa30 value="0.191431768126607" flag="0"/>
		</comp>
		<comp name="--.HNZ" depth="1.0">
			<acc value="0.143066021981213" flag="0"/>
			<vel value="0.161275994592854" flag="0"/>
			<psa03 value="0.388362353446599" flag="0"/>
			<psa10 value="0.197880909788564" flag="0"/>
			<psa30 value="0.140725872788185" flag="0"/>
		</comp>
	</station>
	<station code="MGR" name="MGR" netid="IV" source="Italian National Seismic Network (INSN)" insttype="" lat="40.1376" lon="15.55352">
		<comp name="--.HNE" depth="0.0">
			<acc value="0.012319898226019" flag="0"/>
			<vel value="0.0150170184176074" flag="0"/>
			<psa03 value="0.0243397604003398" flag="0"/>
			<psa10 value="0.0240037464286366" flag="0"/>
			<psa30 value="0.00633415419094873" flag="0"/>
		</comp>
		<comp name="--.HNN" depth="0.0">
			<acc value="0.0129167217181006" flag="0"/>
			<vel value="0.0148849947029055" flag="0"/>
			<psa03 value="0.0289034654754036" flag="0"/>
			<psa10 value="0.0230574487586602" flag="0"/>
			<psa30 value="0.00583975280781683" flag="0"/>
		</comp>
		<comp name="--.HNZ" depth="0.0">
			<acc value="0.0057861314974067" flag="0"/>
			<vel value="0.0138460060448693" flag="0"/>
			<psa03 value="0.0119909113736968" flag="0"/>
			<psa10 value="0.0136870884265955" flag="0"/>
			<psa30 value="0.00656815593156229" flag="0"/>
		</comp>
	</station>
	<station code="MIDA" name="MIDA" netid="IV" source="Italian National Seismic Network (INSN)" insttype="" lat="41.64188" lon="14.25402">
		<comp name="--.HNE" depth="0.0">
			<acc value="0.0763409577576707" flag="0"/>
			<vel value="0.130174292322854" flag="0"/>
			<psa03 value="0.228319480373041" flag="0"/>
			<psa10 value="0.125257597116117" flag="0"/>
			<psa30 value="0.0865546935471791" flag="0"/>
		</comp>
		<comp name="--.HNN" depth="0.0">
			<acc value="0.0697892776856429" flag="0"/>
			<vel value="0.0895453607255138" flag="0"/>
			<psa03 value="0.156329269924242" flag="0"/>
			<psa10 value="0.138711131224165" flag="0"/>
			<psa30 value="0.0444370647691351" flag="0"/>
		</comp>
		<comp name="--.HNZ" depth="0.0">
			<acc value="0.034601263717686" flag="0"/>
			<vel value="0.0583164111820919" flag="0"/>
			<psa03 value="0.121072411109043" flag="0"/>
			<psa10 value="0.055779214146867" flag="0"/>
			<psa30 value="0.0436916596068747" flag="0"/>
		</comp>
	</station>
	<station code="MOCO" name="MOCO" netid="IV" source="Italian National Seismic Network (INSN)" insttype="" lat="41.37" lon="15.158">
		<comp name="--.HNE" depth="1.0">
			<acc value="0.0816635223958684" flag="0"/>
			<vel value="0.25675476297593" flag="0"/>
			<psa03 value="0.168454407917793" flag="0"/>
			<psa10 value="0.313421841893391" flag="0"/>
			<psa30 value="0.147082398082443" flag="0"/>
		</comp>
		<comp name="--.HNN" depth="1.0">
			<acc value="0.0582060094580011" flag="0"/>
			<vel value="0.121135207411344" flag="0"/>
			<psa03 value="0.117224581339872" flag="0"/>
			<psa10 value="0.207190868141694" flag="0"/>
			<psa30 value="0.10993204908316" flag="0"/>
		</comp>
		<comp name="--.HNZ" depth="1.0">
			<acc value="0.0607463683266995" flag="0"/>
			<vel value="0.111051230526388" flag="0"/>
			<psa03 value="0.091542554740984" flag="0"/>
			<psa10 value="0.121395897262893" flag="0"/>
			<psa30 value="0.0682005455482316" flag="0"/>
		</comp>
	</station>
	<station code="MRLC" name="MRLC" netid="IV" source="Italian National Seismic Network (INSN)" insttype="" lat="40.7564" lon="15.48892">
		<comp name="--.HNE" depth="0.0">
			<acc value="0.0214856710750925" flag="0"/>
			<vel value="0.031141932632047" flag="0"/>
			<psa03 value="0.0599545568684842" flag="0"/>
			<psa10 value="0.0382545866586223" flag="0"/>
			<psa30 value="0.00784509850844777" flag="0"/>
		</comp>
		<comp name="--.HNN" depth="0.0">
			<acc value="0.0245696275655095" flag="0"/>
			<vel value="0.0366523514266555" flag="0"/>
			<psa03 value="0.0891264755835973" flag="0"/>
			<psa10 value="0.0400062440477277" flag="0"/>
			<psa30 value="0.00907953598904588" flag="0"/>
		</comp>
		<comp name="--.HNZ" depth="0.0">
			<acc value="0.012855477896839" flag="0"/>
			<vel value="0.0181590142076832" flag="0"/>
			<psa03 value="0.0330197484842846" flag="0"/>
			<psa10 value="0.0331083380533887" flag="0"/>
			<psa30 value="0.00577353434202179" flag="0"/>
		</comp>
	</station>
	<station code="MTMR" name="MTMR" netid="IV" source="Italian National Seismic Network (INSN)" insttype="" lat="40.918446" lon="15.002567">
		<comp name="--.HNE" depth="0.0">
			<acc value="0.0289979377012463" flag="0"/>
			<vel value="0.0426500635311191" flag="0"/>
			<psa03 value="0.0731535078208743" flag="0"/>
			<psa10 value="0.0510235650054109" flag="0"/>
			<psa30 value="0.017785027130763" flag="0"/>
		</comp>
		<comp name="--.HNN" depth="0.0">
			<acc value="0.0313303154246958" flag="0"/>
			<vel value="0.0434873103525124" flag="0"/>
			<psa03 value="0.0807596829459805" flag="0"/>
			<psa10 value="0.0465256309740761" flag="0"/>
			<psa30 value="0.029590258346994" flag="0"/>
		</comp>
		<comp name="--.HNZ" depth="0.0">
			<acc value="0.0145692664306205" flag="0"/>
			<vel value="0.0332742861351942" flag="0"/>
			<psa03 value="0.0391046885843695" flag="0"/>
			<psa10 value="0.027499007609656" flag="0"/>
			<psa30 value="0.0101188974487883" flag="0"/>
		</comp>
	</station>
	<station code="MTRA" name="MTRA" netid="IV" source="Italian National Seismic Network (INSN)" insttype="" lat="42.75669" lon="13.39654">
		<comp name="--.HNE" depth="0.0">
			<acc value="0.0507510834576955" flag="0"/>
			<vel value="0.0958005938755494" flag="0"/>
			<psa03 value="0.108813046495637" flag="0"/>
			<psa10 value="0.104133011683366" flag="0"/>
			<psa30 value="0.0152776738718751" flag="0"/>
		</comp>
		<comp name="--.HNN" depth="0.0">
			<acc value="0.0553320342725713" flag="0"/>
			<vel value="0.0968065656211652" flag="0"/>
			<psa03 value="0.10639696733825" flag="0"/>
			<psa10 value="0.169129567815663" flag="0"/>
			<psa30 value="0.0197572635984964" flag="0"/>
		</comp>
		<comp name="--.HNZ" depth="0.0">
			<acc value="0.0264395260197703" flag="0"/>
			<vel value="0.0544694018694745" flag="0"/>
			<psa03 value="0.0499770447926096" flag="0"/>
			<psa10 value="0.0759655555068327" flag="0"/>
			<psa30 value="0.0204310812301676" flag="0"/>
		</comp>
	</station>
	<station code="NRCA" name="NRCA" netid="IV" source="Italian National Seismic Network (INSN)" insttype="" lat="42.83355" lon="13.11427">
		<comp name="--.HNE" depth="0.0">
			<acc value="0.0348929021238187" flag="0"/>
			<vel value="0.062093337147147" flag="0"/>
			<psa03 value="0.0510508577514481" flag="0"/>
			<psa10 value="0.112045670923807" flag="0"/>
			<psa30 value="0.0168964469073241" flag="0"/>
		</comp>
		<comp name="--.HNN" depth="0.0">
			<acc value="0.0499414694735729" flag="0"/>
			<vel value="0.10634351970135" flag="0"/>
			<psa03 value="0.068813513778902" flag="0"/>
			<psa10 value="0.111828223799642" flag="0"/>
			<psa30 value="0.028973263317728" flag="0"/>
		</comp>
		<comp name="--.HNZ" depth="0.0">
			<acc value="0.0211482837728643" flag="0"/>
			<vel value="0.0351333226779215" flag="0"/>
			<psa03 value="0.0399100483034984" flag="0"/>
			<psa10 value="0.0731508232884772" flag="0"/>
			<psa30 value="0.0137497275158611" flag="0"/>
		</comp>
	</station>
	<station code="PAOL" name="PAOL" netid="IV" source="Italian National Seismic Network (INSN)" insttype="" lat="41.031206" lon="14.567486">
		<comp name="--.HNE" depth="0.0">
			<acc value="0.0259004137772105" flag="0"/>
			<vel value="0.0329772860598119" flag="0"/>
			<psa03 value="0.0682766072994827" flag="0"/>
			<psa10 value="0.0527309276099642" flag="0"/>
			<psa30 value="0.0157644690798819" flag="0"/>
		</comp>
		<comp name="--.HNN" depth="0.0">
			<acc value="0.0263805297615045" flag="0"/>
			<vel value="0.0434870872470983" flag="0"/>
			<psa03 value="0.0876499827651944" flag="0"/>
			<psa10 value="0.052279926167252" flag="0"/>
			<psa30 value="0.0233603534974659" flag="0"/>
		</comp>
		<comp name="--.HNZ" depth="0.0">
			<acc value="0.0152920194772574" flag="0"/>
			<vel value="0.0305120799974563" flag="0"/>
			<psa03 value="0.0331092328975211" flag="0"/>
			<psa10 value="0.0316949317463175" flag="0"/>
			<psa30 value="0.0182328966190119" flag="0"/>
		</comp>
	</station>
	<station code="PIGN" name="PIGN" netid="IV" source="Italian National Seismic Network (INSN)" insttype="" lat="41.200001" lon="14.17989">
		<comp name="--.HNE" depth="2.0">
			<acc value="0.0213316894493118" flag="0"/>
			<vel value="0.0398824738723326" flag="0"/>
			<psa03 value="0.0462186994366747" flag="0"/>
			<psa10 value="0.0435941215964469" flag="0"/>
			<psa30 value="0.0264887285842154" flag="0"/>
		</comp>
		<comp name="--.HNN" depth="2.0">
			<acc value="0.0201766924414393" flag="0"/>
			<vel value="0.0371681092411544" flag="0"/>
			<psa03 value="0.039015204171133" flag="0"/>
			<psa10 value="0.0496021051011484" flag="0"/>
			<psa30 value="0.0217380010854873" flag="0"/>
		</comp>
		<comp name="--.HNZ" depth="2.0">
			<acc value="0.0176024730710438" flag="0"/>
			<vel value="0.0395689520359546" flag="0"/>
			<psa03 value="0.0365991250137463" flag="0"/>
			<psa10 value="0.0280828934060244" flag="0"/>
			<psa30 value="0.0202377948975767" flag="0"/>
		</comp>
	</station>
	<station code="PZUN" name="PZUN" netid="IV" source="Italian National Seismic Network (INSN)" insttype="" lat="40.6458" lon="15.807">
		<comp name="--.HNE" depth="0.0">
			<acc value="0.0283157546617807" flag="0"/>
			<vel value="0.0641236164495899" flag="0"/>
			<psa03 value="0.070961139696579" flag="0"/>
			<psa10 value="0.0644489115232895" flag="0"/>
			<psa30 value="0.0171966671137327" flag="0"/>
		</comp>
		<comp name="--.HNN" depth="0.0">
			<acc value="0.0358970831609901" flag="0"/>
			<vel value="0.0711591745295018" flag="0"/>
			<psa03 value="0.128052195341494" flag="0"/>
			<psa10 value="0.0795252454653824" flag="0"/>
			<psa30 value="0.0318622675990699" flag="0"/>
		</comp>
		<comp name="--.HNZ" depth="0.0">
			<acc value="0.0198076598414986" flag="0"/>
			<vel value="0.0384662362077195" flag="0"/>
			<psa03 value="0.0442053001388525" flag="0"/>
			<psa10 value="0.0556221690016369" flag="0"/>
			<psa30 value="0.0175617635197378" flag="0"/>
		</comp>
	</station>
	<station code="RM33" name="RM33" netid="IV" source="Italian National Seismic Network (INSN)" insttype="" lat="42.50898" lon="13.21452">
		<comp name="--.HNE" depth="0.0">
			<acc value="0.0373037237405763" flag="0"/>
			<vel value="0.0660564177326032" flag="0"/>
