<?xml version="1.0" encoding="UTF-8" standalone="yes"?>
<!DOCTYPE earthquake SYSTEM "stationlist.dtd">
<stationlist created="" xmlns="ch.ethz.sed.shakemap.usgs.xml">
  <station code="AMUR" name="AMUR" netid="IV" insttype="" lat="40.9071" lon="16.6041">
    <comp name="--.HHE">
      <acc value="0.0543757944" flag="0"/>
      <vel value="0.0420053103" flag="0"/>
      <psa03 value="0.1787170987" flag="0"/>
      <psa10 value="0.0639418138" flag="0"/>
      <psa30 value="0.0108186414" flag="0"/>
    </comp>
    <comp name="--.HHZ">
      <acc value="0.0243944194" flag="0"/>
      <vel value="0.0293275937" flag="0"/>
      <psa03 value="0.0698458005" flag="0"/>
      <psa10 value="0.0355768306" flag="0"/>
      <psa30 value="0.0115989131" flag="0"/>
    </comp>
    <comp name="--.HHN">
      <acc value="0.0413506686" flag="0"/>
      <vel value="0.0315735785" flag="0"/>
      <psa03 value="0.1201026776" flag="0"/>
      <psa10 value="0.0292944757" flag="0"/>
      <psa30 value="0.0067030402" flag="0"/>
    </comp>
  </station>
  <station code="APRC" name="APRC" netid="IV" insttype="" lat="41.7574" lon="15.5431">
    <comp name="--.HHN">
      <acc value="0.4747872123" flag="0"/>
      <vel value="0.3047205986" flag="0"/>
      <psa03 value="1.6379473695" flag="0"/>
      <psa10 value="0.4314794033" flag="0"/>
      <psa30 value="0.0445076869" flag="0"/>
    </comp>
    <comp name="--.HHE">
      <acc value="0.3956123473" flag="0"/>
      <vel value="0.2879521595" flag="0"/>
      <psa03 value="1.4341323524" flag="0"/>
      <psa10 value="0.4009808704" flag="0"/>
      <psa30 value="0.0341255227" flag="0"/>
    </comp>
    <comp name="--.HHZ">
      <acc value="0.2100811037" flag="0"/>
      <vel value="0.2013987523" flag="0"/>
      <psa03 value="0.6993550792" flag="0"/>
      <psa10 value="0.1777347265" flag="0"/>
      <psa30 value="0.0390338172" flag="0"/>
    </comp>
  </station>
  <station code="BIOG" name="BIOG" netid="IV" insttype="" lat="41.1999" lon="15.1326">
    <comp name="--.HHE">
      <acc value="0.1647234133" flag="0"/>
      <vel value="0.2954102612" flag="0"/>
      <psa03 value="0.2034760856" flag="0"/>
      <psa10 value="0.5921419787" flag="0"/>
      <psa30 value="0.1461706730" flag="0"/>
    </comp>
    <comp name="--.HHN">
      <acc value="0.1629793940" flag="0"/>
      <vel value="0.3956889765" flag="0"/>
      <psa03 value="0.2081794527" flag="0"/>
      <psa10 value="0.5415839349" flag="0"/>
      <psa30 value="0.1671619472" flag="0"/>
    </comp>
    <comp name="--.HHZ">
      <acc value="0.0680561529" flag="0"/>
      <vel value="0.1852118556" flag="0"/>
      <psa03 value="0.0933775724" flag="0"/>
      <psa10 value="0.2317110712" flag="0"/>
      <psa30 value="0.1342187401" flag="0"/>
    </comp>
  </station>
  <station code="BSSO" name="BSSO" netid="IV" insttype="" lat="41.5461" lon="14.5938">
    <comp name="--.HHE">
      <acc value="0.0672882783" flag="0"/>
      <vel value="0.1748460013" flag="0"/>
      <psa03 value="0.1201595834" flag="0"/>
      <psa10 value="0.1410909194" flag="0"/>
      <psa30 value="0.0984870372" flag="0"/>
    </comp>
    <comp name="--.HHN">
      <acc value="0.0571802848" flag="0"/>
      <vel value="0.1509115278" flag="0"/>
      <psa03 value="0.1064710356" flag="0"/>
      <psa10 value="0.2063463683" flag="0"/>
      <psa30 value="0.0822014418" flag="0"/>
    </comp>
    <comp name="--.HHZ">
      <acc value="0.0419111229" flag="0"/>
      <vel value="0.0935531835" flag="0"/>
      <psa03 value="0.0790069568" flag="0"/>
      <psa10 value="0.0718635465" flag="0"/>
      <psa30 value="0.0629228758" flag="0"/>
    </comp>
  </station>
  <station code="CAPA" name="CAPA" netid="IV" insttype="" lat="41.1583" lon="15.8169">
    <comp name="--.HHE">
      <acc value="0.0662836716" flag="0"/>
      <vel value="0.1556829891" flag="0"/>
      <psa03 value="0.1263515616" flag="0"/>
      <psa10 value="0.1913398038" flag="0"/>
      <psa30 value="0.0746720000" flag="0"/>
    </comp>
    <comp name="--.HHN">
      <acc value="0.0000000000" flag="0"/>
      <vel value="0.0000000000" flag="0"/>
    </comp>
    <comp name="--.HHZ">
      <acc value="0.0492913411" flag="0"/>
      <vel value="0.0946698467" flag="0"/>
      <psa03 value="0.1081956007" flag="0"/>
      <psa10 value="0.1587934864" flag="0"/>
      <psa30 value="0.0205422721" flag="0"/>
    </comp>
  </station>
  <station code="CIGN" name="CIGN" netid="IV" insttype="" lat="41.6542" lon="14.905">
    <comp name="--.HHE">
      <acc value="0.0825700327" flag="0"/>
      <vel value="0.1822285298" flag="0"/>
      <psa03 value="0.1226997191" flag="0"/>
      <psa10 value="0.1433227486" flag="0"/>
      <psa30 value="0.1065875305" flag="0"/>
    </comp>
    <comp name="--.HHN">
      <acc value="0.0940734696" flag="0"/>
      <vel value="0.1946630693" flag="0"/>
      <psa03 value="0.1597162586" flag="0"/>
      <psa10 value="0.1629646397" flag="0"/>
      <psa30 value="0.1370185877" flag="0"/>
    </comp>
    <comp name="--.HHZ">
      <acc value="0.0788837723" flag="0"/>
      <vel value="0.1622409533" flag="0"/>
      <psa03 value="0.1401576874" flag="0"/>
      <psa10 value="0.1649591104" flag="0"/>
      <psa30 value="0.0858528031" flag="0"/>
    </comp>
  </station>
  <station code="LPEL" name="LPEL" netid="IV" insttype="" lat="42.0468" lon="14.1832">
    <comp name="--.HHE">
      <acc value="0.0763125043" flag="0"/>
      <vel value="0.1000493063" flag="0"/>
      <psa03 value="0.2969007224" flag="0"/>
      <psa10 value="0.1407439298" flag="0"/>
      <psa30 value="0.0198136538" flag="0"/>
    </comp>
    <comp name="--.HHN">
      <acc value="0.0734524773" flag="0"/>
      <vel value="0.0733752735" flag="0"/>
      <psa03 value="0.1762281950" flag="0"/>
      <psa10 value="0.1688420245" flag="0"/>
      <psa30 value="0.0228129310" flag="0"/>
    </comp>
    <comp name="--.HHZ">
      <acc value="0.0602117948" flag="0"/>
      <vel value="0.0806955885" flag="0"/>
      <psa03 value="0.0951177594" flag="0"/>
      <psa10 value="0.2201855541" flag="0"/>
      <psa30 value="0.0369464139" flag="0"/>
    </comp>
  </station>
  <station code="MELA" name="MELA" netid="IV" insttype="" lat="41.7059" lon="15.127">
    <comp name="--.HHE">
      <acc value="0.3384457159" flag="0"/>
      <vel value="0.4430945709" flag="0"/>
      <psa03 value="0.8929999084" flag="0"/>
      <psa10 value="0.5359425596" flag="0"/>
      <psa30 value="0.1031902571" flag="0"/>
    </comp>
    <comp name="--.HHN">
      <acc value="0.2515254493" flag="0"/>
      <vel value="0.3031428831" flag="0"/>
      <psa03 value="0.7291973236" flag="0"/>
      <psa10 value="0.4766539066" flag="0"/>
      <psa30 value="0.1948835543" flag="0"/>
    </comp>
    <comp name="--.HHZ">
      <acc value="0.1491788374" flag="0"/>
      <vel value="0.1728387950" flag="0"/>
      <psa03 value="0.4070943103" flag="0"/>
      <psa10 value="0.2050930831" flag="0"/>
      <psa30 value="0.1458582228" flag="0"/>
    </comp>
  </station>
  <station code="MOCO" name="MOCO" netid="IV" insttype="" lat="41.37" lon="15.158">
    <comp name="--.HHE">
      <acc value="0.0819356130" flag="0"/>
      <vel value="0.2343587210" flag="0"/>
      <psa03 value="0.1708068533" flag="0"/>
      <psa10 value="0.3131419949" flag="0"/>
      <psa30 value="0.1431815091" flag="0"/>
    </comp>
    <comp name="--.HHN">
      <acc value="0.0606991369" flag="0"/>
      <vel value="0.1236457063" flag="0"/>
      <psa03 value="0.1198464415" flag="0"/>
      <psa10 value="0.2192033910" flag="0"/>
      <psa30 value="0.1134907774" flag="0"/>
    </comp>
    <comp name="--.HHZ">
      <acc value="0.0622673076" flag="0"/>
      <vel value="0.1039439178" flag="0"/>
      <psa03 value="0.0954903093" flag="0"/>
      <psa10 value="0.1228979338" flag="0"/>
      <psa30 value="0.0685885737" flag="0"/>
    </comp>
  </station>
  <station code="MRVN" name="MRVN" netid="IV" insttype="" lat="41.0609" lon="16.1958">
    <comp name="--.HHE">
      <acc value="0.0399856695" flag="0"/>
      <vel value="0.0359968576" flag="0"/>
      <psa03 value="0.0799933878" flag="0"/>
      <psa10 value="0.0520221936" flag="0"/>
      <psa30 value="0.0091174238" flag="0"/>
    </comp>
    <comp name="--.HHN">
      <acc value="0.0306900711" flag="0"/>
      <vel value="0.0295574385" flag="0"/>
      <psa03 value="0.1002555433" flag="0"/>
      <psa10 value="0.0512766203" flag="0"/>
      <psa30 value="0.0090912291" flag="0"/>
    </comp>
    <comp name="--.HHZ">
      <acc value="0.0372577375" flag="0"/>
      <vel value="0.0351504994" flag="0"/>
      <psa03 value="0.0953746472" flag="0"/>
      <psa10 value="0.0493206218" flag="0"/>
      <psa30 value="0.0098390624" flag="0"/>
    </comp>
  </station>
  <station code="MSAG" name="MSAG" netid="IV" insttype="" lat="41.712" lon="15.9096">
    <comp name="--.HHE">
      <acc value="0.0955902268" flag="0"/>
      <vel value="0.0856943574" flag="0"/>
      <psa03 value="0.2113823122" flag="0"/>
      <psa10 value="0.1282464674" flag="0"/>
      <psa30 value="0.0152914573" flag="0"/>
    </comp>
    <comp name="--.HHN">
      <acc value="0.2188564239" flag="0"/>
      <vel value="0.1750236914" flag="0"/>
      <psa03 value="0.7182946967" flag="0"/>
      <psa10 value="0.1981433550" flag="0"/>
      <psa30 value="0.0205831467" flag="0"/>
    </comp>
    <comp name="--.HHZ">
      <acc value="0.0639261185" flag="0"/>
      <vel value="0.0524812571" flag="0"/>
      <psa03 value="0.1284262475" flag="0"/>
      <psa10 value="0.0632004402" flag="0"/>
      <psa30 value="0.0167919305" flag="0"/>
    </comp>
  </station>
  <station code="PALZ" name="PALZ" netid="IV" insttype="" lat="40.9441" lon="15.9602">
    <comp name="--.HHE">
      <acc value="0.0685175193" flag="0"/>
      <vel value="0.1217585146" flag="0"/>
      <psa03 value="0.1324500352" flag="0"/>
      <psa10 value="0.2084611589" flag="0"/>
      <psa30 value="0.0592596799" flag="0"/>
    </comp>
    <comp name="--.HHN">
      <acc value="0.0721787475" flag="0"/>
      <vel value="0.1579655662" flag="0"/>
      <psa03 value="0.1945622442" flag="0"/>
      <psa10 value="0.2201064610" flag="0"/>
      <psa30 value="0.0607367425" flag="0"/>
    </comp>
    <comp name="--.HHZ">
      <acc value="0.0377579152" flag="0"/>
      <vel value="0.0632956026" flag="0"/>
      <psa03 value="0.0954478686" flag="0"/>
      <psa10 value="0.1136586140" flag="0"/>
      <psa30 value="0.0235225370" flag="0"/>
    </comp>
  </station>
  <station code="ROSPO" name="ROSPO" netid="IV" insttype="" lat="42.2364" lon="14.9315">
    <comp name="--.HHN">
      <acc value="0.3590851097" flag="0"/>
      <vel value="0.4287061250" flag="0"/>
      <psa03 value="1.2946672233" flag="0"/>
      <psa10 value="0.9260267728" flag="0"/>
      <psa30 value="0.1262125704" flag="0"/>
    </comp>
    <comp name="--.HHE">
      <acc value="0.6972094119" flag="0"/>
      <vel value="0.6257797767" flag="0"/>
      <psa03 value="0.6696277651" flag="0"/>
      <psa10 value="1.3697056807" flag="0"/>
      <psa30 value="0.2137983441" flag="0"/>
    </comp>
    <comp name="--.HHZ">
      <acc value="0.4441444515" flag="0"/>
      <vel value="0.1716931480" flag="0"/>
      <psa03 value="0.3635272380" flag="0"/>
      <psa10 value="0.2294528825" flag="0"/>
      <psa30 value="0.0788866417" flag="0"/>
    </comp>
  </station>
  <station code="SACR" name="SACR" netid="IV" insttype="" lat="41.3974" lon="14.7057">
    <comp name="--.HHE">
      <acc value="0.0540743581" flag="0"/>
      <vel value="0.0872486362" flag="0"/>
      <psa03 value="0.1023665307" flag="0"/>
      <psa10 value="0.1026585701" flag="0"/>
      <psa30 value="0.0597226418" flag="0"/>
    </comp>
    <comp name="--.HHZ">
      <acc value="0.0313686250" flag="0"/>
      <vel value="0.0859007005" flag="0"/>
      <psa03 value="0.0667052008" flag="0"/>
      <psa10 value="0.0741983101" flag="0"/>
      <psa30 value="0.0439748007" flag="0"/>
    </comp>
    <comp name="--.HHN">
      <acc value="0.0668413691" flag="0"/>
      <vel value="0.1375582903" flag="0"/>
      <psa03 value="0.1215290789" flag="0"/>
      <psa10 value="0.1395026297" flag="0"/>
      <psa30 value="0.0512890421" flag="0"/>
    </comp>
  </station>
  <station code="SGRT" name="SGRT" netid="IV" insttype="" lat="41.7546" lon="15.7437">
    <comp name="--.HHE">
      <acc value="0.4201271545" flag="0"/>
      <vel value="0.2785113919" flag="0"/>
      <psa03 value="0.6774808597" flag="0"/>
      <psa10 value="0.5799918805" flag="0"/>
      <psa30 value="0.0276613508" flag="0"/>
    </comp>
    <comp name="--.HHN">
      <acc value="0.3171215544" flag="0"/>
      <vel value="0.2772354056" flag="0"/>
      <psa03 value="0.9168276323" flag="0"/>
      <psa10 value="0.5334339171" flag="0"/>
      <psa30 value="0.0430560460" flag="0"/>
    </comp>
    <comp name="--.HHZ">
      <acc value="0.1455382201" flag="0"/>
      <vel value="0.1391143279" flag="0"/>
      <psa03 value="0.5276651812" flag="0"/>
      <psa10 value="0.1360049344" flag="0"/>
      <psa30 value="0.0378334371" flag="0"/>
    </comp>
  </station>
  <station code="SGTA" name="SGTA" netid="IV" insttype="" lat="41.135" lon="15.365">
    <comp name="--.HHE">
      <acc value="0.0714855050" flag="0"/>
      <vel value="0.0884651320" flag="0"/>
      <psa03 value="0.2176657223" flag="0"/>
      <psa10 value="0.1559553078" flag="0"/>
      <psa30 value="0.0336095133" flag="0"/>
    </comp>
    <comp name="--.HHN">
      <acc value="0.0793531447" flag="0"/>
      <vel value="0.1213111864" flag="0"/>
      <psa03 value="0.1821882534" flag="0"/>
      <psa10 value="0.0968354041" flag="0"/>
      <psa30 value="0.0487647532" flag="0"/>
    </comp>
    <comp name="--.HHZ">
      <acc value="0.0368800373" flag="0"/>
      <vel value="0.0680110151" flag="0"/>
      <psa03 value="0.1074370389" flag="0"/>
      <psa10 value="0.0697874068" flag="0"/>
      <psa30 value="0.0278551292" flag="0"/>
    </comp>
  </station>
  <station code="TREM" name="TREM" netid="IV" insttype="" lat="42.123" lon="15.51">
    <comp name="--.HHE">
      <acc value="0.3481624871" flag="0"/>
      <vel value="0.4550078303" flag="0"/>
      <psa03 value="0.8448984398" flag="0"/>
      <psa10 value="0.5013238987" flag="0"/>
      <psa30 value="0.1340210174" flag="0"/>
    </comp>
    <comp name="--.HHN">
      <acc value="0.3929459640" flag="0"/>
      <vel value="0.2739824077" flag="0"/>
      <psa03 value="0.9098190359" flag="0"/>
      <psa10 value="0.3893911600" flag="0"/>
      <psa30 value="0.0831885099" flag="0"/>
    </comp>
    <comp name="--.HHZ">
      <acc value="0.2851036740" flag="0"/>
      <vel value="0.2434820696" flag="0"/>
      <psa03 value="0.8462698891" flag="0"/>
      <psa10 value="0.1416531857" flag="0"/>
      <psa30 value="0.0627287789" flag="0"/>
    </comp>
  </station>
  <station code="TRIV" name="TRIV" netid="IV" insttype="" lat="41.7666" lon="14.5502">
    <comp name="--.HHE">
      <acc value="0.1006075639" flag="0"/>
      <vel value="0.2655541577" flag="0"/>
      <psa03 value="0.1930519422" flag="0"/>
      <psa10 value="0.2645414789" flag="0"/>
      <psa30 value="0.1925062682" flag="0"/>
    </comp>
    <comp name="--.HHN">
      <acc value="0.1054540595" flag="0"/>
      <vel value="0.2213554138" flag="0"/>
      <psa03 value="0.1675117783" flag="0"/>
      <psa10 value="0.2367695830" flag="0"/>
      <psa30 value="0.1540670392" flag="0"/>
    </comp>
    <comp name="--.HHZ">
      <acc value="0.0917697375" flag="0"/>
      <vel value="0.1896417971" flag="0"/>
      <psa03 value="0.1268006074" flag="0"/>
      <psa10 value="0.2227863034" flag="0"/>
      <psa30 value="0.1170797786" flag="0"/>
    </comp>
  </station>
</stationlist>
