<?xml version="1.0" encoding="UTF-8" standalone="yes"?>
<!DOCTYPE earthquake SYSTEM "stationlist.dtd">
<stationlist created="" xmlns="ch.ethz.sed.shakemap.usgs.xml">
  <station code="APE" name="APE" netid="GE" insttype="STS-2/N" lat="37.0727" lon="25.523">
    <comp name="--.HHN">
      <acc value="0.1824753494" flag="0"/>
      <vel value="0.0419384187" flag="0"/>
      <psa03 value="0.2017734553" flag="0"/>
      <psa10 value="0.0135933446" flag="0"/>
      <psa30 value="0.0019713310" flag="0"/>
    </comp>
    <comp name="--.HHZ">
      <acc value="0.0962005292" flag="0"/>
      <vel value="0.0245127471" flag="0"/>
      <psa03 value="0.0763801139" flag="0"/>
      <psa10 value="0.0101876342" flag="0"/>
      <psa30 value="0.0014783807" flag="0"/>
    </comp>
    <comp name="--.HHE">
      <acc value="0.1746546487" flag="0"/>
      <vel value="0.0365061378" flag="0"/>
      <psa03 value="0.1567274876" flag="0"/>
      <psa10 value="0.0148500693" flag="0"/>
      <psa30 value="0.0040704229" flag="0"/>
    </comp>
  </station>
  <station code="THERA" name="THERA" netid="GE" insttype="STS-2/N" lat="36.367" lon="25.4753">
    <comp name="--.HHZ">
      <acc value="0.2245220271" flag="0"/>
      <vel value="0.0646843363" flag="0"/>
      <psa03 value="0.3318767682" flag="0"/>
      <psa10 value="0.0541000127" flag="0"/>
      <psa30 value="0.0049841159" flag="0"/>
    </comp>
    <comp name="--.HHE">
      <acc value="0.3844678891" flag="0"/>
      <vel value="0.1286885775" flag="0"/>
      <psa03 value="0.6114338324" flag="0"/>
      <psa10 value="0.1314839057" flag="0"/>
      <psa30 value="0.0120785096" flag="0"/>
    </comp>
    <comp name="--.HHN">
      <acc value="0.1885942647" flag="0"/>
      <vel value="0.0846774219" flag="0"/>
      <psa03 value="0.2302681634" flag="0"/>
      <psa10 value="0.0690541741" flag="0"/>
      <psa30 value="0.0034218314" flag="0"/>
    </comp>
  </station>
</stationlist>
