<?xml version="1.0" encoding="UTF-8" standalone="yes"?>
<!DOCTYPE earthquake SYSTEM "stationlist.dtd">
<stationlist created="" xmlns="ch.ethz.sed.shakemap.usgs.xml">
  <station code="APE" name="APE" netid="GE" insttype="STS-2/N" lat="37.0727" lon="25.523">
    <comp name="--.HHN">
      <acc value="0.1824753494" flag="0"/>
      <vel value="0.0419384187" flag="0"/>
      <psa03 value="0.2017734553" flag="0"/>
      <psa10 value="0.0135933446" flag="0"/>
      <psa30 value="0.0019713310" flag="0"/>
    </comp>
    <comp name="--.HHZ">
      <acc value="0.0962005292" flag="0"/>
      <vel value="0.0245127471" flag="0"/>
      <psa03 value="0.0763801139" flag="0"/>
      <psa10 value="0.0101876342" flag="0"/>
      <psa30 value="0.0014783807" flag="0"/>
    </comp>
    <comp name="--.HHE">
      <acc value="0.1746546487" flag="0"/>
      <vel value="0.0365061378" flag="0"/>
      <psa03 value="0.1567274876" flag="0"/>
      <psa10 value="0.0148500693" flag="0"/>
      <psa30 value="0.0040704229" flag="0"/>
    </comp>
  </station>
  <station code="THERA" name="THERA" netid="GE" insttype="STS-2/N" lat="36.367" lon="25.4753">
    <comp name="--.HHZ">
      <acc value="0.2245220271" flag="0"/>
      <vel value="0.0646843363" flag="0"/>
      <psa03 value="0.3318767682" flag="0"/>
      <psa10 value="0.0541000127" flag="0"/>
      <psa30 value="0.0049841159" flag="0"/>
    </comp>
    <comp name="--.HHE">
      <acc value="0.3844678891" flag="0"/>
      <vel value="0.1286885775" flag="0"/>
      <psa03 value="0.6114338324" flag="0"/>
      <psa10 value="0.1314839057" flag="0"/>
      <psa30 value="0.0120785096" flag="0"/>
    </comp>
    <comp name="--.HHN">
      <acc value="0.1885942647" flag="0"/>
      <vel value="0.0846774219" flag="0"/>
      <psa03 value="0.2302681634" flag="0"/>
      <psa10 value="0.0690541741" flag="0"/>
      <psa30 value="0.0034218314" flag="0"/>
    </comp>
  </station>
  <station code="SNT1" name="SNT1" netid="HA" insttype="30" lat="36.4159" lon="25.4282">
    <comp name="--.HHN">
      <acc value="0.2203716319" flag="0"/>
      <vel value="0.1303795786" flag="0"/>
      <psa03 value="0.3810484787" flag="0"/>
      <psa10 value="0.1703772528" flag="0"/>
      <psa30 value="0.0150894913" flag="0"/>
    </comp>
    <comp name="--.HHE">
      <acc value="0.2846683393" flag="0"/>
      <vel value="0.1450831398" flag="0"/>
      <psa03 value="0.6385986769" flag="0"/>
      <psa10 value="0.2014815112" flag="0"/>
      <psa30 value="0.0152839205" flag="0"/>
    </comp>
    <comp name="--.HHZ">
      <acc value="0.2532679494" flag="0"/>
      <vel value="0.1472662549" flag="0"/>
      <psa03 value="0.4885233788" flag="0"/>
      <psa10 value="0.1157849612" flag="0"/>
      <psa30 value="0.0053923849" flag="0"/>
    </comp>
  </station>
  <station code="NAX1" name="NAX1" netid="HI" insttype="CMG-5TD,ACCELEROMETER,GURALP" lat="37.1014" lon="25.3741">
    <comp name="--.HNZ">
      <acc value="0.0923382803" flag="0"/>
      <vel value="0.0192317753" flag="0"/>
      <psa03 value="0.0596516241" flag="0"/>
      <psa10 value="0.0160325049" flag="0"/>
      <psa30 value="0.0020176176" flag="0"/>
    </comp>
    <comp name="--.HNE">
      <acc value="0.1872261529" flag="0"/>
      <vel value="0.0324908453" flag="0"/>
      <psa03 value="0.1070894921" flag="0"/>
      <psa10 value="0.0232989082" flag="0"/>
      <psa30 value="0.0017189075" flag="0"/>
    </comp>
    <comp name="--.HNN">
      <acc value="0.1760968209" flag="0"/>
      <vel value="0.0354408676" flag="0"/>
      <psa03 value="0.1101945345" flag="0"/>
      <psa10 value="0.0115707453" flag="0"/>
      <psa30 value="0.0020797292" flag="0"/>
    </comp>
  </station>
  <station code="APE" name="APE" netid="HL" insttype="120" lat="37.0727" lon="25.523">
    <comp name="--.HHE">
      <acc value="0.1552893650" flag="0"/>
      <vel value="0.0355756957" flag="0"/>
      <psa03 value="0.1527040623" flag="0"/>
      <psa10 value="0.0145865092" flag="0"/>
      <psa30 value="0.0040633316" flag="0"/>
    </comp>
    <comp name="--.HHZ">
      <acc value="0.0886612623" flag="0"/>
      <vel value="0.0228842452" flag="0"/>
      <psa03 value="0.0744988662" flag="0"/>
      <psa10 value="0.0100788179" flag="0"/>
      <psa30 value="0.0014683382" flag="0"/>
    </comp>
    <comp name="--.HHN">
      <acc value="0.1702306641" flag="0"/>
      <vel value="0.0400535728" flag="0"/>
      <psa03 value="0.1963094680" flag="0"/>
      <psa10 value="0.0135053820" flag="0"/>
      <psa30 value="0.0019662042" flag="0"/>
    </comp>
  </station>
  <station code="KLNA" name="KLNA" netid="HL" insttype="CMG-5" lat="36.9571" lon="26.9727">
    <comp name="00.HNN">
      <acc value="0.0305068730" flag="0"/>
      <vel value="0.0090774840" flag="0"/>
      <psa03 value="0.0566090656" flag="0"/>
      <psa10 value="0.0060176049" flag="0"/>
      <psa30 value="0.0009615960" flag="0"/>
    </comp>
    <comp name="00.HNZ">
      <acc value="0.0301067109" flag="0"/>
      <vel value="0.0072190997" flag="0"/>
      <psa03 value="0.0323886777" flag="0"/>
      <psa10 value="0.0039798603" flag="0"/>
      <psa30 value="0.0005421458" flag="0"/>
    </comp>
  </station>
  <station code="MHLO" name="MHLO" netid="HL" insttype="20" lat="36.6898" lon="24.4017">
    <comp name="--.HHZ">
      <acc value="0.1087836525" flag="0"/>
      <vel value="0.0442351618" flag="0"/>
      <psa03 value="0.2524088930" flag="0"/>
      <psa10 value="0.0839928288" flag="0"/>
      <psa30 value="0.0053350359" flag="0"/>
    </comp>
    <comp name="--.HHE">
      <acc value="0.2050740974" flag="0"/>
      <vel value="0.0862105984" flag="0"/>
      <psa03 value="0.4400396995" flag="0"/>
      <psa10 value="0.1024696116" flag="0"/>
      <psa30 value="0.0075063757" flag="0"/>
    </comp>
    <comp name="--.HHN">
      <acc value="0.2037826108" flag="0"/>
      <vel value="0.1374873312" flag="0"/>
      <psa03 value="0.7458701742" flag="0"/>
      <psa10 value="0.1874395790" flag="0"/>
      <psa30 value="0.0093975078" flag="0"/>
    </comp>
  </station>
  <station code="NISR" name="NISR" netid="HL" insttype="65535" lat="36.6106" lon="27.131">
    <comp name="--.HHN">
      <acc value="0.0438748863" flag="0"/>
      <vel value="0.0230886664" flag="0"/>
      <psa03 value="0.1368480168" flag="0"/>
      <psa10 value="0.0215535588" flag="0"/>
      <psa30 value="0.0064088946" flag="0"/>
    </comp>
    <comp name="--.HHE">
      <acc value="0.0000000000" flag="0"/>
      <vel value="-100.0000000000" flag="0"/>
      <psa03 value="0.0000000000" flag="0"/>
      <psa10 value="0.0000000000" flag="0"/>
      <psa30 value="0.0000000000" flag="0"/>
    </comp>
    <comp name="--.HHZ">
      <acc value="0.0219081387" flag="0"/>
      <vel value="0.0142508129" flag="0"/>
      <psa03 value="0.0641720967" flag="0"/>
      <psa10 value="0.0318923922" flag="0"/>
      <psa30 value="0.0013739602" flag="0"/>
    </comp>
  </station>
  <station code="NISR2" name="NISR2" netid="HL" insttype="120" lat="36.5744" lon="27.1767">
    <comp name="--.HHE">
      <acc value="0.0624054677" flag="0"/>
      <vel value="0.0667804126" flag="0"/>
      <psa03 value="0.1927671564" flag="0"/>
      <psa10 value="0.0902216572" flag="0"/>
      <psa30 value="0.0072265743" flag="0"/>
    </comp>
    <comp name="--.HHN">
      <acc value="0.0677082157" flag="0"/>
      <vel value="0.0559798364" flag="0"/>
      <psa03 value="0.2316317308" flag="0"/>
      <psa10 value="0.0808129852" flag="0"/>
      <psa30 value="0.0064938340" flag="0"/>
    </comp>
    <comp name="--.HHZ">
      <acc value="0.0263140533" flag="0"/>
      <vel value="0.0140208405" flag="0"/>
      <psa03 value="0.0817823035" flag="0"/>
      <psa10 value="0.0156822687" flag="0"/>
      <psa30 value="0.0019869956" flag="0"/>
    </comp>
  </station>
  <station code="NPS" name="NPS" netid="HL" insttype="CMG3ESPC-120s" lat="35.2613" lon="25.6104">
    <comp name="--.HHE">
      <acc value="0.0194203997" flag="0"/>
      <vel value="0.0099456934" flag="0"/>
      <psa03 value="0.0459579606" flag="0"/>
      <psa10 value="0.0207504713" flag="0"/>
      <psa30 value="0.0007684668" flag="0"/>
    </comp>
    <comp name="--.HHZ">
      <acc value="0.0263081870" flag="0"/>
      <vel value="0.0144597934" flag="0"/>
      <psa03 value="0.0538374308" flag="0"/>
      <psa10 value="0.0101334421" flag="0"/>
      <psa30 value="0.0013439203" flag="0"/>
    </comp>
    <comp name="--.HHN">
      <acc value="0.0377912210" flag="0"/>
      <vel value="0.0213278362" flag="0"/>
      <psa03 value="0.0743964049" flag="0"/>
      <psa10 value="0.0233351308" flag="0"/>
      <psa30 value="0.0011599901" flag="0"/>
    </comp>
  </station>
  <station code="SAP3" name="SAP3" netid="HL" insttype="LE3D20_SMART24" lat="36.4356" lon="25.3454">
    <comp name="--.HHN">
      <acc value="1.0280446515" flag="0"/>
      <vel value="0.3889434981" flag="0"/>
      <psa03 value="1.8737102558" flag="0"/>
      <psa10 value="0.3799595574" flag="0"/>
      <psa30 value="0.0510811185" flag="0"/>
    </comp>
    <comp name="--.HHE">
      <acc value="1.1952870316" flag="0"/>
      <vel value="0.4886340710" flag="0"/>
      <psa03 value="2.5845357179" flag="0"/>
      <psa10 value="0.5233763698" flag="0"/>
      <psa30 value="0.0416565459" flag="0"/>
    </comp>
    <comp name="--.HHZ">
      <acc value="1.3561233464" flag="0"/>
      <vel value="0.3492355708" flag="0"/>
      <psa03 value="1.4061684875" flag="0"/>
      <psa10 value="0.1878738574" flag="0"/>
      <psa30 value="0.0148458052" flag="0"/>
    </comp>
  </station>
  <station code="THERA" name="THERA" netid="HL" insttype="120" lat="36.367" lon="25.4753">
    <comp name="--.HHE">
      <acc value="0.3798707593" flag="0"/>
      <vel value="0.1279875320" flag="0"/>
      <psa03 value="0.5955417447" flag="0"/>
      <psa10 value="0.1308207785" flag="0"/>
      <psa30 value="0.0119921289" flag="0"/>
    </comp>
    <comp name="--.HHN">
      <acc value="0.1854008395" flag="0"/>
      <vel value="0.0831066576" flag="0"/>
      <psa03 value="0.2238258092" flag="0"/>
      <psa10 value="0.0685984835" flag="0"/>
      <psa30 value="0.0033990485" flag="0"/>
    </comp>
    <comp name="--.HHZ">
      <acc value="0.2323191954" flag="0"/>
      <vel value="0.0628967369" flag="0"/>
      <psa03 value="0.3215386049" flag="0"/>
      <psa10 value="0.0535849498" flag="0"/>
      <psa30 value="0.0049782893" flag="0"/>
    </comp>
  </station>
  <station code="THRA" name="THRA" netid="HL" insttype="CMG-5" lat="36.415" lon="25.4324">
    <comp name="00.HNE">
      <acc value="0.9685293817" flag="0"/>
      <vel value="0.5467402797" flag="0"/>
      <psa03 value="2.7879090906" flag="0"/>
      <psa10 value="0.6218685886" flag="0"/>
      <psa30 value="0.0332629553" flag="0"/>
    </comp>
    <comp name="00.HNN">
      <acc value="0.7462612831" flag="0"/>
      <vel value="0.4584637662" flag="0"/>
      <psa03 value="2.6978219279" flag="0"/>
      <psa10 value="0.4666549837" flag="0"/>
      <psa30 value="0.0384445029" flag="0"/>
    </comp>
    <comp name="00.HNZ">
      <acc value="0.7239745425" flag="0"/>
      <vel value="0.3253450578" flag="0"/>
      <psa03 value="2.3729634687" flag="0"/>
      <psa10 value="0.2506009227" flag="0"/>
      <psa30 value="0.0136388678" flag="0"/>
    </comp>
  </station>
  <station code="TNSA" name="TNSA" netid="HL" insttype="CMG-5" lat="37.5394" lon="25.1631">
    <comp name="00.HNZ">
      <acc value="0.0622756394" flag="0"/>
      <vel value="0.0201132155" flag="0"/>
      <psa03 value="0.1620346723" flag="0"/>
      <psa10 value="0.0151726679" flag="0"/>
      <psa30 value="0.0018294299" flag="0"/>
    </comp>
    <comp name="00.HNN">
      <acc value="0.0726165951" flag="0"/>
      <vel value="0.0255497290" flag="0"/>
      <psa03 value="0.1373086466" flag="0"/>
      <psa10 value="0.0144258437" flag="0"/>
      <psa30 value="0.0013689732" flag="0"/>
    </comp>
    <comp name="00.HNE">
      <acc value="0.0633217339" flag="0"/>
      <vel value="0.0220131299" flag="0"/>
      <psa03 value="0.1774863646" flag="0"/>
      <psa10 value="0.0068637680" flag="0"/>
      <psa30 value="0.0011663238" flag="0"/>
    </comp>
  </station>
  <station code="CMBO" name="CMBO" netid="HT" insttype="120P," lat="36.4709" lon="25.4056">
    <comp name="--.HHE">
      <acc value="1.0357234143" flag="0"/>
      <vel value="0.7270450729" flag="0"/>
      <psa03 value="1.9822845616" flag="0"/>
      <psa10 value="0.4300917126" flag="0"/>
      <psa30 value="0.0395687084" flag="0"/>
    </comp>
    <comp name="--.HHN">
      <acc value="1.8004737885" flag="0"/>
      <vel value="0.7600718059" flag="0"/>
      <psa03 value="2.8293374410" flag="0"/>
      <psa10 value="0.7228390785" flag="0"/>
      <psa30 value="0.0432671305" flag="0"/>
    </comp>
    <comp name="--.HHZ">
      <acc value="1.4479453675" flag="0"/>
      <vel value="0.4321099614" flag="0"/>
      <psa03 value="2.3586901641" flag="0"/>
      <psa10 value="0.2725636519" flag="0"/>
      <psa30 value="0.0201638325" flag="0"/>
    </comp>
  </station>
</stationlist>
