<?xml version="1.0" encoding="UTF-8" standalone="yes"?>
<!DOCTYPE earthquake SYSTEM "stationlist.dtd">
<stationlist created="" xmlns="ch.ethz.sed.shakemap.usgs.xml">
  <station code="THERA" name="THERA" netid="GE" insttype="STS-2/N" lat="36.367" lon="25.4753">
    <comp name="--.HHE">
      <acc value="0.3844678890" flag="0"/>
      <vel value="0.1286885822" flag="0"/>
      <psa03 value="0.6114338324" flag="0"/>
      <psa10 value="0.1314839104" flag="0"/>
      <psa30 value="0.0120787255" flag="0"/>
    </comp>
    <comp name="--.HHN">
      <acc value="0.1885942646" flag="0"/>
      <vel value="0.0846774218" flag="0"/>
      <psa03 value="0.2302681634" flag="0"/>
      <psa10 value="0.0690541731" flag="0"/>
      <psa30 value="0.0034218340" flag="0"/>
    </comp>
    <comp name="--.HHZ">
      <acc value="0.2245220272" flag="0"/>
      <vel value="0.0646843361" flag="0"/>
      <psa03 value="0.3318767682" flag="0"/>
      <psa10 value="0.0541000125" flag="0"/>
      <psa30 value="0.0049841031" flag="0"/>
    </comp>
  </station>
</stationlist>
