<stationlist created="1775820316">
	<station code="KOZK" name="KOZK" netid="KO" source="Bogazici University Kandilli Observatory And Earthquake Research Institute (KOERI)" insttype="" lat="39.2101" lon="34.868">
		<comp name="--.HNE" depth="0.0">
			<acc value="0.0123181706359459" flag="0"/>
			<vel value="0.0129208596241107" flag="0"/>
			<psa03 value="0.0341830458563596" flag="0"/>
			<psa10 value="0.0369257431220597" flag="0"/>
			<psa30 value="0.00184964282159935" flag="0"/>
		</comp>
		<comp name="--.HNN" depth="0.0">
			<acc value="0.0118105612591438" flag="0"/>
			<vel value="0.0155522002978884" flag="0"/>
			<psa03 value="0.0298877940210055" flag="0"/>
			<psa10 value="0.0309620544019102" flag="0"/>
			<psa30 value="0.00180355834878253" flag="0"/>
		</comp>
		<comp name="--.HNZ" depth="0.0">
			<acc value="0.0083664453467627" flag="0"/>
			<vel value="0.00530905999115431" flag="0"/>
			<psa03 value="0.0235344006812109" flag="0"/>
			<psa10 value="0.0111099373253831" flag="0"/>
			<psa30 value="0.000739141253333849" flag="0"/>
		</comp>
	</station>
	<station code="KRTS" name="KRTS" netid="KO" source="Bogazici University Kandilli Observatory And Earthquake Research Institute (KOERI)" insttype="" lat="36.573" lon="35.375">
		<comp name="--.HNE" depth="0.0">
			<acc value="0.0139075654236126" flag="0"/>
			<vel value="0.0116070044605395" flag="0"/>
			<psa03 value="0.0247871824665226" flag="0"/>
			<psa10 value="0.0227594656625825" flag="0"/>
			<psa30 value="0.00328989445264152" flag="0"/>
		</comp>
		<comp name="--.HNN" depth="0.0">
			<acc value="0.0138073955337567" flag="0"/>
			<vel value="0.0108260069464386" flag="0"/>
			<psa03 value="0.0226395565488455" flag="0"/>
			<psa10 value="0.0209715670861163" flag="0"/>
			<psa30 value="0.00214046716461812" flag="0"/>
		</comp>
		<comp name="--.HNZ" depth="0.0">
			<acc value="0.0233546109108585" flag="0"/>
			<vel value="0.00908964649239936" flag="0"/>
			<psa03 value="0.0208498682841146" flag="0"/>
			<psa10 value="0.01384010677323" flag="0"/>
			<psa30 value="0.00411315105441772" flag="0"/>
		</comp>
	</station>
</stationlist>
