<?xml version="1.0" encoding="UTF-8" standalone="yes"?>
<!DOCTYPE earthquake SYSTEM "stationlist.dtd">
<stationlist created="" xmlns="ch.ethz.sed.shakemap.usgs.xml">
  <station code="GULA" name="GULA" netid="KO" insttype="30s," lat="38.3444" lon="34.236">
    <comp name="--.HHZ">
      <acc value="0.0083903476" flag="0"/>
      <vel value="0.0017447501" flag="0"/>
      <psa03 value="0.0158326269" flag="0"/>
      <psa10 value="0.0017208271" flag="0"/>
      <psa30 value="0.0003937757" flag="0"/>
    </comp>
    <comp name="--.HHN">
      <acc value="0.0091126072" flag="0"/>
      <vel value="0.0039561858" flag="0"/>
      <psa03 value="0.0191016625" flag="0"/>
      <psa10 value="0.0022845007" flag="0"/>
      <psa30 value="0.0003942308" flag="0"/>
    </comp>
    <comp name="--.HHE">
      <acc value="0.0077849994" flag="0"/>
      <vel value="0.0036650953" flag="0"/>
      <psa03 value="0.0183320926" flag="0"/>
      <psa10 value="0.0028901745" flag="0"/>
      <psa30 value="0.0004523442" flag="0"/>
    </comp>
  </station>
  <station code="YESY" name="YESY" netid="KO" insttype="30s," lat="37.7825" lon="33.7432">
    <comp name="--.HHE">
      <acc value="0.0427284241" flag="0"/>
      <vel value="0.0285357117" flag="0"/>
      <psa03 value="0.1541624847" flag="0"/>
      <psa10 value="0.0469874924" flag="0"/>
      <psa30 value="0.0037560175" flag="0"/>
    </comp>
    <comp name="--.HHZ">
      <acc value="0.0313196804" flag="0"/>
      <vel value="0.0246761536" flag="0"/>
      <psa03 value="0.0802420166" flag="0"/>
      <psa10 value="0.0255052152" flag="0"/>
      <psa30 value="0.0034634654" flag="0"/>
    </comp>
    <comp name="--.HHN">
      <acc value="0.0625662649" flag="0"/>
      <vel value="0.0304492012" flag="0"/>
      <psa03 value="0.1763526380" flag="0"/>
      <psa10 value="0.0548340622" flag="0"/>
      <psa30 value="0.0029881905" flag="0"/>
    </comp>
  </station>
</stationlist>
