<stationlist created="1774520739">
	<station code="FIVI" name="FIVI" netid="GU" source="Regional Seismic Network of North Western Italy (RSNI)" insttype="" lat="44.2394" lon="10.1271">
		<comp name="--.HNE" depth="0.0">
			<acc value="0.116139623811354" flag="0"/>
			<vel value="0.0351710715446054" flag="0"/>
			<psa03 value="0.1654904108442" flag="0"/>
			<psa10 value="0.0102426991535504" flag="0"/>
			<psa30 value="0.000766474681435982" flag="0"/>
		</comp>
		<comp name="--.HNN" depth="0.0">
			<acc value="0.166495852804949" flag="0"/>
			<vel value="0.0511209026186124" flag="0"/>
			<psa03 value="0.242348408559349" flag="0"/>
			<psa10 value="0.0113945710844127" flag="0"/>
			<psa30 value="0.000811187799710627" flag="0"/>
		</comp>
		<comp name="--.HNZ" depth="0.0">
			<acc value="0.106070456169407" flag="0"/>
			<vel value="0.0263779916370425" flag="0"/>
			<psa03 value="0.0855048934462212" flag="0"/>
			<psa10 value="0.00474021323461303" flag="0"/>
			<psa30 value="0.000385546087411129" flag="0"/>
		</comp>
	</station>
	<station code="APEC" name="APEC" netid="IV" source="Italian National Seismic Network (INSN)" insttype="" lat="43.55846" lon="12.41991">
		<comp name="--.HNE" depth="0.0">
			<acc value="0.00648442004475442" flag="0"/>
			<vel value="0.00304350682264416" flag="0"/>
			<psa03 value="0.0168808435334539" flag="0"/>
			<psa10 value="0.00312583207103392" flag="0"/>
			<psa30 value="0.000779808481401458" flag="0"/>
		</comp>
		<comp name="--.HNN" depth="0.0">
			<acc value="0.00610153417026189" flag="0"/>
			<vel value="0.00361365346025513" flag="0"/>
			<psa03 value="0.015636025393278" flag="0"/>
			<psa10 value="0.00271021383524054" flag="0"/>
			<psa30 value="0.000530149807322895" flag="0"/>
		</comp>
		<comp name="--.HNZ" depth="0.0">
			<acc value="0.00448011353673344" flag="0"/>
			<vel value="0.00352487785845467" flag="0"/>
			<psa03 value="0.00917084971128517" flag="0"/>
			<psa10 value="0.00172252051478041" flag="0"/>
			<psa30 value="0.00124607817156343" flag="0"/>
		</comp>
	</station>
	<station code="ARCI" name="ARCI" netid="IV" source="Italian National Seismic Network (INSN)" insttype="" lat="42.8519" lon="11.4754">
		<comp name="--.HNE" depth="0.0">
			<acc value="0.00191728369127183" flag="0"/>
			<vel value="0.00103097958690076" flag="0"/>
			<psa03 value="0.00311221560911431" flag="0"/>
			<psa10 value="0.00195246523967743" flag="0"/>
			<psa30 value="6.64099071429253e-05" flag="0"/>
		</comp>
		<comp name="--.HNN" depth="0.0">
			<acc value="0.00299933694325971" flag="0"/>
			<vel value="0.000821777022994324" flag="0"/>
			<psa03 value="0.00606058637993719" flag="0"/>
			<psa10 value="0.00155485030588946" flag="0"/>
			<psa30 value="0.000107524668554505" flag="0"/>
		</comp>
		<comp name="--.HNZ" depth="0.0">
			<acc value="0.00260714420529969" flag="0"/>
			<vel value="0.000777591820870597" flag="0"/>
			<psa03 value="0.00356099957062007" flag="0"/>
			<psa10 value="0.000644537091950367" flag="0"/>
			<psa30 value="5.72673418574278e-05" flag="0"/>
		</comp>
	</station>
	<station code="ATBU" name="ATBU" netid="IV" source="Italian National Seismic Network (INSN)" insttype="" lat="43.47571" lon="12.54828">
		<comp name="--.HNE" depth="1.0">
			<acc value="0.00495974309735447" flag="0"/>
			<vel value="0.00372436019976829" flag="0"/>
			<psa03 value="0.0172625771547662" flag="0"/>
			<psa10 value="0.00831421171322196" flag="0"/>
			<psa30 value="0.000435133903610588" flag="0"/>
		</comp>
		<comp name="--.HNN" depth="1.0">
			<acc value="0.00624778216341724" flag="0"/>
			<vel value="0.004751546802232" flag="0"/>
			<psa03 value="0.020345346477271" flag="0"/>
			<psa10 value="0.00557974291183395" flag="0"/>
			<psa30 value="0.000318815390788308" flag="0"/>
		</comp>
		<comp name="--.HNZ" depth="1.0">
			<acc value="0.00240706780838128" flag="0"/>
			<vel value="0.00187416906978815" flag="0"/>
			<psa03 value="0.00753852608306417" flag="0"/>
			<psa10 value="0.00264807901598871" flag="0"/>
			<psa30 value="0.00025713888314737" flag="0"/>
		</comp>
	</station>
	<station code="ATCC" name="ATCC" netid="IV" source="Italian National Seismic Network (INSN)" insttype="" lat="43.18514" lon="12.63994">
		<comp name="--.HNE" depth="1.0">
			<acc value="0.00564377801644156" flag="0"/>
			<vel value="0.00310998482530302" flag="0"/>
			<psa03 value="0.0124588162208466" flag="0"/>
			<psa10 value="0.00392871877396262" flag="0"/>
			<psa30 value="0.000243053991759107" flag="0"/>
		</comp>
		<comp name="--.HNN" depth="1.0">
			<acc value="0.00524127335835224" flag="0"/>
			<vel value="0.00204518758455708" flag="0"/>
			<psa03 value="0.0110229906356982" flag="0"/>
			<psa10 value="0.0024541921094327" flag="0"/>
			<psa30 value="0.000168423735370887" flag="0"/>
		</comp>
		<comp name="--.HNZ" depth="1.0">
			<acc value="0.00320932416168897" flag="0"/>
			<vel value="0.0012545614740779" flag="0"/>
			<psa03 value="0.00613847500321789" flag="0"/>
			<psa10 value="0.00174629017534127" flag="0"/>
			<psa30 value="0.000251377642118426" flag="0"/>
		</comp>
	</station>
	<station code="ATFO" name="ATFO" netid="IV" source="Italian National Seismic Network (INSN)" insttype="" lat="43.3666" lon="12.5715">
		<comp name="--.HNE" depth="1.0">
			<acc value="0.00412857719138749" flag="0"/>
			<vel value="0.00230398702772394" flag="0"/>
			<psa03 value="0.0083943308228031" flag="0"/>
			<psa10 value="0.00355258034101243" flag="0"/>
			<psa30 value="0.00032589731826458" flag="0"/>
		</comp>
		<comp name="--.HNN" depth="1.0">
			<acc value="0.00329357256399553" flag="0"/>
			<vel value="0.0020670405997455" flag="0"/>
			<psa03 value="0.0112164149074403" flag="0"/>
			<psa10 value="0.00192455682838214" flag="0"/>
			<psa30 value="0.000283632122569459" flag="0"/>
		</comp>
		<comp name="--.HNZ" depth="1.0">
			<acc value="0.00220553583530639" flag="0"/>
			<vel value="0.00144770896850463" flag="0"/>
			<psa03 value="0.00439063981667304" flag="0"/>
			<psa10 value="0.00179388223433161" flag="0"/>
			<psa30 value="0.000151035096479733" flag="0"/>
		</comp>
	</station>
	<station code="ATLO" name="ATLO" netid="IV" source="Italian National Seismic Network (INSN)" insttype="" lat="43.31516" lon="12.40726">
		<comp name="--.HNE" depth="1.0">
			<acc value="0.00492764984405632" flag="0"/>
			<vel value="0.00145499807764015" flag="0"/>
			<psa03 value="0.0123536738390131" flag="0"/>
			<psa10 value="0.00174130703273253" flag="0"/>
			<psa30 value="8.09369176631607e-05" flag="0"/>
		</comp>
		<comp name="--.HNN" depth="1.0">
			<acc value="0.00529254996486518" flag="0"/>
			<vel value="0.00192109170437064" flag="0"/>
			<psa03 value="0.0103107898100555" flag="0"/>
			<psa10 value="0.00191321959297094" flag="0"/>
			<psa30 value="0.000128572566780714" flag="0"/>
		</comp>
		<comp name="--.HNZ" depth="1.0">
			<acc value="0.000865971021161394" flag="0"/>
			<vel value="0.000350038206121018" flag="0"/>
			<psa03 value="0.00164123323536584" flag="0"/>
			<psa10 value="0.00027249357870601" flag="0"/>
			<psa30 value="2.1589875861339e-05" flag="0"/>
		</comp>
	</station>
	<station code="ATPC" name="ATPC" netid="IV" source="Italian National Seismic Network (INSN)" insttype="" lat="43.4807" lon="12.457">
		<comp name="--.HNE" depth="1.0">
			<acc value="0.0124189598479818" flag="0"/>
			<vel value="0.00323679049166287" flag="0"/>
			<psa03 value="0.0202605075237734" flag="0"/>
			<psa10 value="0.00285857881994264" flag="0"/>
			<psa30 value="0.000286017150357512" flag="0"/>
		</comp>
		<comp name="--.HNN" depth="1.0">
			<acc value="0.00827351952544874" flag="0"/>
			<vel value="0.00274122402577019" flag="0"/>
			<psa03 value="0.0130155249750694" flag="0"/>
			<psa10 value="0.00200934279659893" flag="0"/>
			<psa30 value="0.000256176605859555" flag="0"/>
		</comp>
		<comp name="--.HNZ" depth="1.0">
			<acc value="0.00349454770786684" flag="0"/>
			<vel value="0.00155383374508679" flag="0"/>
			<psa03 value="0.00938860697517688" flag="0"/>
			<psa10 value="0.00135669608539484" flag="0"/>
			<psa30 value="0.000202622133659437" flag="0"/>
		</comp>
	</station>
	<station code="ATPI" name="ATPI" netid="IV" source="Italian National Seismic Network (INSN)" insttype="" lat="43.45068" lon="12.40222">
		<comp name="--.HNE" depth="1.0">
			<acc value="0.00440458915030969" flag="0"/>
			<vel value="0.00245376905952217" flag="0"/>
			<psa03 value="0.0101421673115175" flag="0"/>
			<psa10 value="0.0018174623901512" flag="0"/>
			<psa30 value="0.000152150222434688" flag="0"/>
		</comp>
		<comp name="--.HNN" depth="1.0">
			<acc value="0.00617461621885984" flag="0"/>
			<vel value="0.00239377750641306" flag="0"/>
			<psa03 value="0.0139650631377292" flag="0"/>
			<psa10 value="0.00251956433064652" flag="0"/>
			<psa30 value="0.00019685594438603" flag="0"/>
		</comp>
		<comp name="--.HNZ" depth="1.0">
			<acc value="0.00317968729047483" flag="0"/>
			<vel value="0.00129816808566627" flag="0"/>
			<psa03 value="0.00624333220990989" flag="0"/>
			<psa10 value="0.00136663154825799" flag="0"/>
			<psa30 value="0.000111085913584094" flag="0"/>
		</comp>
	</station>
	<station code="ATVO" name="ATVO" netid="IV" source="Italian National Seismic Network (INSN)" insttype="" lat="43.38211" lon="12.40663">
		<comp name="--.HNE" depth="1.0">
			<acc value="0.00295364184449622" flag="0"/>
			<vel value="0.00180517096591515" flag="0"/>
			<psa03 value="0.00750484221104796" flag="0"/>
			<psa10 value="0.00347277036649331" flag="0"/>
			<psa30 value="0.000268366137314524" flag="0"/>
		</comp>
		<comp name="--.HNN" depth="1.0">
			<acc value="0.00273224334670471" flag="0"/>
			<vel value="0.00154955212567266" flag="0"/>
			<psa03 value="0.00575383103285925" flag="0"/>
			<psa10 value="0.00202489953028119" flag="0"/>
			<psa30 value="0.000236575255282945" flag="0"/>
		</comp>
		<comp name="--.HNZ" depth="1.0">
			<acc value="0.00150700205427281" flag="0"/>
			<vel value="0.000862965914724455" flag="0"/>
			<psa03 value="0.00310554589644524" flag="0"/>
			<psa10 value="0.00151565892059002" flag="0"/>
			<psa30 value="0.000252880996916637" flag="0"/>
		</comp>
	</station>
	<station code="BRSN" name="BRSN" netid="IV" source="Italian National Seismic Network (INSN)" insttype="" lat="44.28418" lon="12.08023">
		<comp name="--.HNE" depth="0.0">
			<acc value="0.0356436502482299" flag="0"/>
			<vel value="0.0115808390040202" flag="0"/>
			<psa03 value="0.0691858123871909" flag="0"/>
			<psa10 value="0.0100130986311426" flag="0"/>
			<psa30 value="0.00214921279146631" flag="0"/>
		</comp>
		<comp name="--.HNN" depth="0.0">
			<acc value="0.0416435516288942" flag="0"/>
			<vel value="0.0146408302987922" flag="0"/>
			<psa03 value="0.0831562951547774" flag="0"/>
			<psa10 value="0.0129728406370248" flag="0"/>
			<psa30 value="0.00167420444949488" flag="0"/>
		</comp>
		<comp name="--.HNZ" depth="0.0">
			<acc value="0.0156648350069824" flag="0"/>
			<vel value="0.00357040141674052" flag="0"/>
			<psa03 value="0.0179920317275516" flag="0"/>
			<psa10 value="0.00416926697472537" flag="0"/>
			<psa30 value="0.0014271935028986" flag="0"/>
		</comp>
	</station>
	<station code="CAFI" name="CAFI" netid="IV" source="Italian National Seismic Network (INSN)" insttype="" lat="43.3292" lon="11.9663">
		<comp name="--.HNE" depth="0.0">
			<acc value="0.00435601655126908" flag="0"/>
			<vel value="0.00195034453963613" flag="0"/>
			<psa03 value="0.00834357876281154" flag="0"/>
			<psa10 value="0.00230040989086544" flag="0"/>
			<psa30 value="0.00016414448053709" flag="0"/>
		</comp>
		<comp name="--.HNN" depth="0.0">
			<acc value="0.00549801540032818" flag="0"/>
			<vel value="0.003233485648833" flag="0"/>
			<psa03 value="0.0073969008156686" flag="0"/>
			<psa10 value="0.00214205213481628" flag="0"/>
			<psa30 value="0.00020229648708695" flag="0"/>
		</comp>
		<comp name="--.HNZ" depth="0.0">
			<acc value="0.0050925584934238" flag="0"/>
			<vel value="0.0011107845477532" flag="0"/>
			<psa03 value="0.00418483809738166" flag="0"/>
			<psa10 value="0.00081315289082577" flag="0"/>
			<psa30 value="0.000111232160251384" flag="0"/>
		</comp>
	</station>
	<station code="CASP" name="CASP" netid="IV" source="Italian National Seismic Network (INSN)" insttype="" lat="42.7908" lon="10.8652">
		<comp name="--.HNE" depth="0.0">
			<acc value="0.0073777144190128" flag="0"/>
			<vel value="0.00184979060284103" flag="0"/>
			<psa03 value="0.00561044848759432" flag="0"/>
			<psa10 value="0.001334879015121" flag="0"/>
			<psa30 value="7.58664906264205e-05" flag="0"/>
		</comp>
		<comp name="--.HNN" depth="0.0">
			<acc value="0.00781151892536334" flag="0"/>
			<vel value="0.00149642001353881" flag="0"/>
			<psa03 value="0.0049737513616178" flag="0"/>
			<psa10 value="0.00210148171284994" flag="0"/>
			<psa30 value="0.000108133680252707" flag="0"/>
		</comp>
		<comp name="--.HNZ" depth="0.0">
			<acc value="0.0246242101420788" flag="0"/>
			<vel value="0.0024503138502097" flag="0"/>
			<psa03 value="0.00772256171202139" flag="0"/>
			<psa10 value="0.0011010756361696" flag="0"/>
			<psa30 value="7.65714006044971e-05" flag="0"/>
		</comp>
	</station>
	<station code="CDCA" name="CDCA" netid="IV" source="Italian National Seismic Network (INSN)" insttype="" lat="43.4584" lon="12.2336">
		<comp name="--.HNE" depth="0.0">
			<acc value="0.0851357119443944" flag="0"/>
			<vel value="0.0120372311747175" flag="0"/>
			<psa03 value="0.0310658626484371" flag="0"/>
			<psa10 value="0.00795726775493652" flag="0"/>
			<psa30 value="0.000540009679241019" flag="0"/>
		</comp>
		<comp name="--.HNN" depth="0.0">
			<acc value="0.10830779762039" flag="0"/>
			<vel value="0.0157302114570741" flag="0"/>
			<psa03 value="0.0590698453790233" flag="0"/>
			<psa10 value="0.00873735130664337" flag="0"/>
			<psa30 value="0.000597480517652012" flag="0"/>
		</comp>
		<comp name="--.HNZ" depth="0.0">
			<acc value="0.0267395595553475" flag="0"/>
			<vel value="0.00482099800328269" flag="0"/>
			<psa03 value="0.0279486379184306" flag="0"/>
			<psa10 value="0.00341902672811602" flag="0"/>
			<psa30 value="0.000369810956494263" flag="0"/>
		</comp>
	</station>
	<station code="CPGN" name="CPGN" netid="IV" source="Italian National Seismic Network (INSN)" insttype="" lat="43.8011" lon="12.3205">
		<comp name="--.HNE" depth="1.0">
			<acc value="0.00559528376176627" flag="0"/>
			<vel value="0.00279775264525539" flag="0"/>
			<psa03 value="0.0121365644044953" flag="0"/>
			<psa10 value="0.00357557358295186" flag="0"/>
			<psa30 value="0.000616303952112164" flag="0"/>
		</comp>
		<comp name="--.HNN" depth="1.0">
			<acc value="0.00848583631785916" flag="0"/>
			<vel value="0.00340856331064268" flag="0"/>
			<psa03 value="0.0176343713155546" flag="0"/>
			<psa10 value="0.00385485153687069" flag="0"/>
			<psa30 value="0.000582480617732258" flag="0"/>
		</comp>
		<comp name="--.HNZ" depth="1.0">
			<acc value="0.00782394084843218" flag="0"/>
			<vel value="0.00147344804121738" flag="0"/>
			<psa03 value="0.00554544548354765" flag="0"/>
			<psa10 value="0.0021805859374916" flag="0"/>
			<psa30 value="0.000544696812657272" flag="0"/>
		</comp>
	</station>
	<station code="CRMI" name="CRMI" netid="IV" source="Italian National Seismic Network (INSN)" insttype="" lat="43.795597222222" lon="10.979505555556">
		<comp name="--.HNE" depth="0.0">
			<acc value="5.69637594494108e-05" flag="0"/>
			<vel value="4.61349721911953e-05" flag="0"/>
			<psa03 value="9.72317829253049e-05" flag="0"/>
			<psa10 value="6.1227742560892e-05" flag="0"/>
			<psa30 value="2.36954954915348e-05" flag="0"/>
		</comp>
		<comp name="--.HNN" depth="0.0">
			<acc value="6.03152938883448e-05" flag="0"/>
			<vel value="4.30437814049782e-05" flag="0"/>
			<psa03 value="7.36744870998874e-05" flag="0"/>
			<psa10 value="3.85702577270001e-05" flag="0"/>
			<psa30 value="1.88436636648212e-05" flag="0"/>
		</comp>
		<comp name="--.HNZ" depth="0.0">
			<acc value="5.95557702511296e-05" flag="0"/>
			<vel value="3.28004681855209e-05" flag="0"/>
			<psa03 value="6.88466678909101e-05" flag="0"/>
			<psa10 value="4.27254963700736e-05" flag="0"/>
			<psa30 value="2.53987316949701e-05" flag="0"/>
		</comp>
	</station>
	<station code="FAEN" name="FAEN" netid="IV" source="Italian National Seismic Network (INSN)" insttype="" lat="44.2895" lon="11.877">
		<comp name="--.HNE" depth="0.0">
			<acc value="0.0310242676187321" flag="0"/>
			<vel value="0.0116196155568163" flag="0"/>
			<psa03 value="0.0478879275485117" flag="0"/>
			<psa10 value="0.0143556706802286" flag="0"/>
			<psa30 value="0.00303632989195381" flag="0"/>
		</comp>
		<comp name="--.HNN" depth="0.0">
			<acc value="0.0434033363176631" flag="0"/>
			<vel value="0.0165700171792413" flag="0"/>
			<psa03 value="0.0958494641399278" flag="0"/>
			<psa10 value="0.00869542165400966" flag="0"/>
			<psa30 value="0.00111174135574201" flag="0"/>
		</comp>
		<comp name="--.HNZ" depth="0.0">
			<acc value="0.0376107671793319" flag="0"/>
			<vel value="0.00328317031333816" flag="0"/>
			<psa03 value="0.00970772772473537" flag="0"/>
			<psa10 value="0.00271039712863283" flag="0"/>
			<psa30 value="0.000518780043715189" flag="0"/>
		</comp>
	</station>
	<station code="FERS" name="FERS" netid="IV" source="Italian National Seismic Network (INSN)" insttype="" lat="44.9035" lon="11.5406">
		<comp name="--.HNE" depth="0.0">
			<acc value="0.0595164857266391" flag="0"/>
			<vel value="0.0121781685652459" flag="0"/>
			<psa03 value="0.0785615636930345" flag="0"/>
			<psa10 value="0.00284764918965828" flag="0"/>
			<psa30 value="0.000222738375115875" flag="0"/>
		</comp>
		<comp name="--.HNN" depth="0.0">
			<acc value="0.0640301174834629" flag="0"/>
			<vel value="0.0125243550820293" flag="0"/>
			<psa03 value="0.057126773951744" flag="0"/>
			<psa10 value="0.00268015067182851" flag="0"/>
			<psa30 value="0.000221333490382489" flag="0"/>
		</comp>
		<comp name="--.HNZ" depth="0.0">
			<acc value="0.0431313017127346" flag="0"/>
			<vel value="0.00748403744181179" flag="0"/>
			<psa03 value="0.0231417621948382" flag="0"/>
			<psa10 value="0.00109230825849885" flag="0"/>
			<psa30 value="7.9270563785811e-05" flag="0"/>
		</comp>
	</station>
	<station code="FIR" name="FIR" netid="IV" source="Italian National Seismic Network (INSN)" insttype="" lat="43.774366" lon="11.255134">
		<comp name="--.HNE" depth="0.0">
			<acc value="0.0916612255333369" flag="0"/>
			<vel value="0.0408710015995728" flag="0"/>
			<psa03 value="0.145093153375998" flag="0"/>
			<psa10 value="0.0247806947244081" flag="0"/>
			<psa30 value="0.00206513722187245" flag="0"/>
		</comp>
		<comp name="--.HNN" depth="0.0">
			<acc value="0.108769155652216" flag="0"/>
			<vel value="0.0541022900353268" flag="0"/>
			<psa03 value="0.260090667230245" flag="0"/>
			<psa10 value="0.021232447795463" flag="0"/>
			<psa30 value="0.00167288269526848" flag="0"/>
		</comp>
		<comp name="--.HNZ" depth="0.0">
			<acc value="0.0849781144966258" flag="0"/>
			<vel value="0.0179505861810484" flag="0"/>
			<psa03 value="0.0830425219928638" flag="0"/>
			<psa10 value="0.00849642503396021" flag="0"/>
			<psa30 value="0.000686404220910938" flag="0"/>
		</comp>
	</station>
	<station code="IMOL" name="IMOL" netid="IV" source="Italian National Seismic Network (INSN)" insttype="" lat="44.35955" lon="11.74248">
		<comp name="--.HNE" depth="1.0">
			<acc value="0.044131622614205" flag="0"/>
			<vel value="0.0137240478240814" flag="0"/>
			<psa03 value="0.0609775811321542" flag="0"/>
			<psa10 value="0.0112053232351715" flag="0"/>
			<psa30 value="0.00188888283755116" flag="0"/>
		</comp>
		<comp name="--.HNN" depth="1.0">
			<acc value="0.058841334242026" flag="0"/>
			<vel value="0.0131353487331227" flag="0"/>
			<psa03 value="0.0821197994086877" flag="0"/>
			<psa10 value="0.0174434742945639" flag="0"/>
			<psa30 value="0.00125713702915847" flag="0"/>
		</comp>
		<comp name="--.HNZ" depth="1.0">
			<acc value="0.0643477512136876" flag="0"/>
			<vel value="0.00578150087038538" flag="0"/>
			<psa03 value="0.0334029028825497" flag="0"/>
