<stationlist created="1774522540">
	<station code="FIVI" name="FIVI" netid="GU" source="Regional Seismic Network of North Western Italy (RSNI)" insttype="" lat="44.2394" lon="10.1271">
		<comp name="--.HNE" depth="0.0">
			<acc value="0.116139623811354" flag="0"/>
			<vel value="0.0351710715446054" flag="0"/>
			<psa03 value="0.1654904108442" flag="0"/>
			<psa10 value="0.0102426991535504" flag="0"/>
			<psa30 value="0.000766474681435982" flag="0"/>
		</comp>
		<comp name="--.HNN" depth="0.0">
			<acc value="0.166495852804949" flag="0"/>
			<vel value="0.0511209026186124" flag="0"/>
			<psa03 value="0.242348408559349" flag="0"/>
			<psa10 value="0.0113945710844127" flag="0"/>
			<psa30 value="0.000811187799710627" flag="0"/>
		</comp>
		<comp name="--.HNZ" depth="0.0">
			<acc value="0.106070456169407" flag="0"/>
			<vel value="0.0263779916370425" flag="0"/>
			<psa03 value="0.0855048934462212" flag="0"/>
			<psa10 value="0.00474021323461303" flag="0"/>
			<psa30 value="0.000385546087411129" flag="0"/>
		</comp>
	</station>
	<station code="0REN" name="0REN" netid="IT" source="Italian Strong Motion Network (RAN)" insttype="" lat="43.5462" lon="12.264">
		<comp name="--.HNE" depth="0.0">
			<acc value="0.0105701380857233" flag="0"/>
			<vel value="0.00198296286836974" flag="0"/>
			<psa03 value="0.00915034054015324" flag="0"/>
			<psa10 value="0.00195868643305095" flag="0"/>
			<psa30 value="0.000124371038450083" flag="0"/>
		</comp>
		<comp name="--.HNN" depth="0.0">
			<acc value="0.00884269467443428" flag="0"/>
			<vel value="0.00283087054242594" flag="0"/>
			<psa03 value="0.0118486586133996" flag="0"/>
			<psa10 value="0.00192351906432287" flag="0"/>
			<psa30 value="0.000184908707627729" flag="0"/>
		</comp>
		<comp name="--.HNZ" depth="0.0">
			<acc value="0.00552311523739988" flag="0"/>
			<vel value="0.00140021959568145" flag="0"/>
			<psa03 value="0.0101417024369719" flag="0"/>
			<psa10 value="0.000888466200275402" flag="0"/>
			<psa30 value="0.000128383387581854" flag="0"/>
		</comp>
	</station>
	<station code="ALF" name="ALF" netid="IT" source="Italian Strong Motion Network (RAN)" insttype="" lat="44.5022" lon="12.0334">
		<comp name="--.HGE" depth="0.0">
			<acc value="0.0490216678801901" flag="0"/>
			<vel value="0.0131440203606153" flag="0"/>
			<psa03 value="0.0613274376417643" flag="0"/>
			<psa10 value="0.0112414437529785" flag="0"/>
			<psa30 value="0.00420841420345382" flag="0"/>
		</comp>
		<comp name="--.HGN" depth="0.0">
			<acc value="0.0401179293845274" flag="0"/>
			<vel value="0.0110898904179239" flag="0"/>
			<psa03 value="0.0607268093114185" flag="0"/>
			<psa10 value="0.00869163765333819" flag="0"/>
			<psa30 value="0.0019389451122645" flag="0"/>
		</comp>
		<comp name="--.HGZ" depth="0.0">
			<acc value="0.0329041339013578" flag="0"/>
			<vel value="0.00742809627877832" flag="0"/>
			<psa03 value="0.0307970453614445" flag="0"/>
			<psa10 value="0.00323165986285575" flag="0"/>
			<psa30 value="0.00286058679150257" flag="0"/>
		</comp>
	</station>
	<station code="ARG" name="ARG" netid="IT" source="Italian Strong Motion Network (RAN)" insttype="" lat="44.6306" lon="11.8251">
		<comp name="--.HNE" depth="0.0">
			<acc value="0.233554347246178" flag="0"/>
			<vel value="0.0242203070223405" flag="0"/>
			<psa03 value="0.0830240728540322" flag="0"/>
			<psa10 value="0.0081213420615541" flag="0"/>
			<psa30 value="0.00310039830283826" flag="0"/>
		</comp>
		<comp name="--.HNN" depth="0.0">
			<acc value="0.193178198396164" flag="0"/>
			<vel value="0.0199909269583289" flag="0"/>
			<psa03 value="0.0669179486106792" flag="0"/>
			<psa10 value="0.0104991964577379" flag="0"/>
			<psa30 value="0.00168603273306061" flag="0"/>
		</comp>
		<comp name="--.HNZ" depth="0.0">
			<acc value="0.207549899220524" flag="0"/>
			<vel value="0.0225168322533535" flag="0"/>
			<psa03 value="0.0381062014321627" flag="0"/>
			<psa10 value="0.00311738627716652" flag="0"/>
			<psa30 value="0.000441483516949642" flag="0"/>
		</comp>
	</station>
	<station code="ARO" name="ARO" netid="IT" source="Italian Strong Motion Network (RAN)" insttype="" lat="43.4662" lon="11.8828">
		<comp name="--.HNE" depth="0.0">
			<acc value="0.00967909597304402" flag="0"/>
			<vel value="0.00457468661974241" flag="0"/>
			<psa03 value="0.0238230026361741" flag="0"/>
			<psa10 value="0.00714763927727332" flag="0"/>
			<psa30 value="0.000338164068376573" flag="0"/>
		</comp>
		<comp name="--.HNN" depth="0.0">
			<acc value="0.00950157373901141" flag="0"/>
			<vel value="0.00493147948284284" flag="0"/>
			<psa03 value="0.0287843443215451" flag="0"/>
			<psa10 value="0.00631089650342108" flag="0"/>
			<psa30 value="0.000339216924581463" flag="0"/>
		</comp>
		<comp name="--.HNZ" depth="0.0">
			<acc value="0.00755130978540154" flag="0"/>
			<vel value="0.00232153328787202" flag="0"/>
			<psa03 value="0.0114510984228214" flag="0"/>
			<psa10 value="0.00376190467647234" flag="0"/>
			<psa30 value="0.000294062422900667" flag="0"/>
		</comp>
	</station>
	<station code="AUL" name="AUL" netid="IT" source="Italian Strong Motion Network (RAN)" insttype="" lat="44.2087" lon="9.9731">
		<comp name="--.HNE" depth="0.0">
			<acc value="0.0386086571990024" flag="0"/>
			<vel value="0.0157237688653297" flag="0"/>
			<psa03 value="0.113541563237998" flag="0"/>
			<psa10 value="0.0099777759786902" flag="0"/>
			<psa30 value="0.000548309656157089" flag="0"/>
		</comp>
		<comp name="--.HNN" depth="0.0">
			<acc value="0.0421788502433618" flag="0"/>
			<vel value="0.0144004386616401" flag="0"/>
			<psa03 value="0.0983411812872935" flag="0"/>
			<psa10 value="0.00609393619336532" flag="0"/>
			<psa30 value="0.000408069115909563" flag="0"/>
		</comp>
		<comp name="--.HNZ" depth="0.0">
			<acc value="0.0196572688348301" flag="0"/>
			<vel value="0.00533023235570019" flag="0"/>
			<psa03 value="0.0357496989712731" flag="0"/>
			<psa10 value="0.00374740949748788" flag="0"/>
			<psa30 value="0.000236469467024992" flag="0"/>
		</comp>
	</station>
	<station code="BBN" name="BBN" netid="IT" source="Italian Strong Motion Network (RAN)" insttype="" lat="43.7476" lon="11.8214">
		<comp name="--.HNE" depth="0.0">
			<acc value="0.00798178004899519" flag="0"/>
			<vel value="0.00400895498887483" flag="0"/>
			<psa03 value="0.0241909645118425" flag="0"/>
			<psa10 value="0.00538316520202543" flag="0"/>
			<psa30 value="0.000405160016946034" flag="0"/>
		</comp>
		<comp name="--.HNN" depth="0.0">
			<acc value="0.0132407552838115" flag="0"/>
			<vel value="0.00420541432160942" flag="0"/>
			<psa03 value="0.0177662810955969" flag="0"/>
			<psa10 value="0.00486382704842153" flag="0"/>
			<psa30 value="0.000346785915573303" flag="0"/>
		</comp>
		<comp name="--.HNZ" depth="0.0">
			<acc value="0.0114456650519508" flag="0"/>
			<vel value="0.00522667875313548" flag="0"/>
			<psa03 value="0.0275951353339526" flag="0"/>
			<psa10 value="0.00806785883105256" flag="0"/>
			<psa30 value="0.000345803689047283" flag="0"/>
		</comp>
	</station>
	<station code="BDG" name="BDG" netid="IT" source="Italian Strong Motion Network (RAN)" insttype="" lat="44.5067" lon="9.6229">
		<comp name="--.HGE" depth="0.0">
			<acc value="0.0351715079834174" flag="0"/>
			<vel value="0.0133774078358557" flag="0"/>
			<psa03 value="0.09818083733196" flag="0"/>
			<psa10 value="0.00462771000057591" flag="0"/>
			<psa30 value="0.000418396987580374" flag="0"/>
		</comp>
		<comp name="--.HGN" depth="0.0">
			<acc value="0.0417845546265947" flag="0"/>
			<vel value="0.0137364788323118" flag="0"/>
			<psa03 value="0.0601263789108512" flag="0"/>
			<psa10 value="0.00698292602207854" flag="0"/>
			<psa30 value="0.000530522227827259" flag="0"/>
		</comp>
		<comp name="--.HGZ" depth="0.0">
			<acc value="0.0181896526550215" flag="0"/>
			<vel value="0.00601766120019029" flag="0"/>
			<psa03 value="0.0393675089459286" flag="0"/>
			<psa10 value="0.00204462700900484" flag="0"/>
			<psa30 value="0.000151543072839007" flag="0"/>
		</comp>
	</station>
	<station code="BDT" name="BDT" netid="IT" source="Italian Strong Motion Network (RAN)" insttype="" lat="43.7068" lon="12.188">
		<comp name="--.HNE" depth="0.0">
			<acc value="0.0159935250071555" flag="0"/>
			<vel value="0.00645578099079966" flag="0"/>
			<psa03 value="0.0595168281144358" flag="0"/>
			<psa10 value="0.00466715464484001" flag="0"/>
			<psa30 value="0.000381772504096421" flag="0"/>
		</comp>
		<comp name="--.HNN" depth="0.0">
			<acc value="0.0192368359143353" flag="0"/>
			<vel value="0.00927492869730377" flag="0"/>
			<psa03 value="0.0718302219413458" flag="0"/>
			<psa10 value="0.00586379563518281" flag="0"/>
			<psa30 value="0.000400120308090055" flag="0"/>
		</comp>
		<comp name="--.HNZ" depth="0.0">
			<acc value="0.00816318679391129" flag="0"/>
			<vel value="0.00388383757464857" flag="0"/>
			<psa03 value="0.0318953811416329" flag="0"/>
			<psa10 value="0.0024245339728517" flag="0"/>
			<psa30 value="0.000312608625453899" flag="0"/>
		</comp>
	</station>
	<station code="BGL" name="BGL" netid="IT" source="Italian Strong Motion Network (RAN)" insttype="" lat="43.9958" lon="10.5769">
		<comp name="--.HNE" depth="0.0">
			<acc value="0.0888583385106065" flag="0"/>
			<vel value="0.0406765761836611" flag="0"/>
			<psa03 value="0.230108326880676" flag="0"/>
			<psa10 value="0.0142206814253529" flag="0"/>
			<psa30 value="0.000984125610158501" flag="0"/>
		</comp>
		<comp name="--.HNN" depth="0.0">
			<acc value="0.166896418651366" flag="0"/>
			<vel value="0.046260149476767" flag="0"/>
			<psa03 value="0.195024190228807" flag="0"/>
			<psa10 value="0.023883577169773" flag="0"/>
			<psa30 value="0.00178693795920329" flag="0"/>
		</comp>
		<comp name="--.HNZ" depth="0.0">
			<acc value="0.0880505457349856" flag="0"/>
			<vel value="0.0302367141673481" flag="0"/>
			<psa03 value="0.211386940847398" flag="0"/>
			<psa10 value="0.00855720624791733" flag="0"/>
			<psa30 value="0.000702227560796215" flag="0"/>
		</comp>
	</station>
	<station code="BGN" name="BGN" netid="IT" source="Italian Strong Motion Network (RAN)" insttype="" lat="44.3224" lon="9.9917">
		<comp name="--.HGE" depth="0.0">
			<acc value="0.0442123169369444" flag="0"/>
			<vel value="0.0129723997467568" flag="0"/>
			<psa03 value="0.0460659318502385" flag="0"/>
			<psa10 value="0.00323980212099039" flag="0"/>
			<psa30 value="0.000390675567839033" flag="0"/>
		</comp>
		<comp name="--.HGN" depth="0.0">
			<acc value="0.0467079278476068" flag="0"/>
			<vel value="0.0140320783646462" flag="0"/>
			<psa03 value="0.0834203543140674" flag="0"/>
			<psa10 value="0.00394860985727427" flag="0"/>
			<psa30 value="0.000378205392792803" flag="0"/>
		</comp>
		<comp name="--.HGZ" depth="0.0">
			<acc value="0.0284725042407272" flag="0"/>
			<vel value="0.00862819073986235" flag="0"/>
			<psa03 value="0.0310072806426667" flag="0"/>
			<psa10 value="0.00597351102828915" flag="0"/>
			<psa30 value="0.000272301606353367" flag="0"/>
		</comp>
	</station>
	<station code="BOZL" name="BOZL" netid="IT" source="Italian Strong Motion Network (RAN)" insttype="" lat="45.0995" lon="10.4798">
		<comp name="--.HNE" depth="0.0">
			<acc value="0.090360895063883" flag="0"/>
			<vel value="0.015493767857368" flag="0"/>
			<psa03 value="0.0706149122663776" flag="0"/>
			<psa10 value="0.00658484136967401" flag="0"/>
			<psa30 value="0.0014007315415902" flag="0"/>
		</comp>
		<comp name="--.HNN" depth="0.0">
			<acc value="0.104701641721828" flag="0"/>
			<vel value="0.0173480168616896" flag="0"/>
			<psa03 value="0.0752701946143196" flag="0"/>
			<psa10 value="0.00572183513724653" flag="0"/>
			<psa30 value="0.00104526820222182" flag="0"/>
		</comp>
		<comp name="--.HNZ" depth="0.0">
			<acc value="0.0501721161878714" flag="0"/>
			<vel value="0.00817358219708945" flag="0"/>
			<psa03 value="0.0234713204847908" flag="0"/>
			<psa10 value="0.00325433667758343" flag="0"/>
			<psa30 value="0.00085829336814002" flag="0"/>
		</comp>
	</station>
	<station code="BRB" name="BRB" netid="IT" source="Italian Strong Motion Network (RAN)" insttype="" lat="43.9542" lon="11.2128">
		<comp name="--.HNE" depth="0.0">
			<acc value="0.224956381416379" flag="0"/>
			<vel value="0.0863261926252121" flag="0"/>
			<psa03 value="0.350813614680269" flag="0"/>
			<psa10 value="0.030745558617367" flag="0"/>
			<psa30 value="0.00265492608415671" flag="0"/>
		</comp>
		<comp name="--.HNN" depth="0.0">
			<acc value="0.133895908266273" flag="0"/>
			<vel value="0.0719445637831178" flag="0"/>
			<psa03 value="0.36257147691427" flag="0"/>
			<psa10 value="0.0279659682331456" flag="0"/>
			<psa30 value="0.00287123062160408" flag="0"/>
		</comp>
		<comp name="--.HNZ" depth="0.0">
			<acc value="0.104538538736931" flag="0"/>
			<vel value="0.0296809560858738" flag="0"/>
			<psa03 value="0.191696553122513" flag="0"/>
			<psa10 value="0.0168143307418912" flag="0"/>
			<psa30 value="0.00108213585285607" flag="0"/>
		</comp>
	</station>
	<station code="BRH" name="BRH" netid="IT" source="Italian Strong Motion Network (RAN)" insttype="" lat="44.2076" lon="11.7639">
		<comp name="--.HGE" depth="0.0">
			<acc value="0.0788822900514008" flag="0"/>
			<vel value="0.0258335312654978" flag="0"/>
			<psa03 value="0.0896699714455309" flag="0"/>
			<psa10 value="0.0297046471620916" flag="0"/>
			<psa30 value="0.000907730341013516" flag="0"/>
		</comp>
		<comp name="--.HGN" depth="0.0">
			<acc value="0.0788739498843509" flag="0"/>
			<vel value="0.0262902135242569" flag="0"/>
			<psa03 value="0.171337412762715" flag="0"/>
			<psa10 value="0.0258135225191807" flag="0"/>
			<psa30 value="0.00120499242900129" flag="0"/>
		</comp>
		<comp name="--.HGZ" depth="0.0">
			<acc value="0.029126819373493" flag="0"/>
			<vel value="0.00918876509405422" flag="0"/>
			<psa03 value="0.0515232152434804" flag="0"/>
			<psa10 value="0.009626353323664" flag="0"/>
			<psa30 value="0.000984160195782963" flag="0"/>
		</comp>
	</station>
	<station code="BRM" name="BRM" netid="IT" source="Italian Strong Motion Network (RAN)" insttype="" lat="44.1293" lon="11.1176">
		<comp name="--.HGE" depth="0.0">
			<acc value="0.0471460746113772" flag="0"/>
			<vel value="0.02044366422965" flag="0"/>
			<psa03 value="0.125139237777018" flag="0"/>
			<psa10 value="0.00830074175840356" flag="0"/>
			<psa30 value="0.000903850604833368" flag="0"/>
		</comp>
		<comp name="--.HGN" depth="0.0">
			<acc value="0.0646984415927104" flag="0"/>
			<vel value="0.0178527847530875" flag="0"/>
			<psa03 value="0.0507650087660223" flag="0"/>
			<psa10 value="0.0141648861666909" flag="0"/>
			<psa30 value="0.00119224220936182" flag="0"/>
		</comp>
		<comp name="--.HGZ" depth="0.0">
			<acc value="0.0479062014826044" flag="0"/>
			<vel value="0.0132216985359916" flag="0"/>
			<psa03 value="0.0830600023175162" flag="0"/>
			<psa10 value="0.00554184055723897" flag="0"/>
			<psa30 value="0.000418069830491156" flag="0"/>
		</comp>
	</station>
	<station code="BRR" name="BRR" netid="IT" source="Italian Strong Motion Network (RAN)" insttype="" lat="44.5063" lon="9.9872">
		<comp name="--.HGE" depth="0.0">
			<acc value="0.0362681737808253" flag="0"/>
			<vel value="0.0205677903488301" flag="0"/>
			<psa03 value="0.122511865809853" flag="0"/>
			<psa10 value="0.00874530652113728" flag="0"/>
			<psa30 value="0.000978717126873027" flag="0"/>
		</comp>
		<comp name="--.HGN" depth="0.0">
			<acc value="0.0257595104088885" flag="0"/>
			<vel value="0.0125974738552232" flag="0"/>
			<psa03 value="0.118680257817961" flag="0"/>
			<psa10 value="0.00771567721949921" flag="0"/>
			<psa30 value="0.000910021117766233" flag="0"/>
		</comp>
		<comp name="--.HGZ" depth="0.0">
			<acc value="0.0191329454105787" flag="0"/>
			<vel value="0.0110360746820045" flag="0"/>
			<psa03 value="0.0838222663554344" flag="0"/>
			<psa10 value="0.00533657070911895" flag="0"/>
			<psa30 value="0.000522822082313742" flag="0"/>
		</comp>
	</station>
	<station code="BSZ" name="BSZ" netid="IT" source="Italian Strong Motion Network (RAN)" insttype="" lat="44.031" lon="11.467">
		<comp name="--.HNE" depth="0.0">
			<acc value="0.0397881649646743" flag="0"/>
			<vel value="0.00864068839388387" flag="0"/>
			<psa03 value="0.0327913154928866" flag="0"/>
			<psa10 value="0.00335814683574694" flag="0"/>
			<psa30 value="0.000243020317653363" flag="0"/>
		</comp>
		<comp name="--.HNN" depth="0.0">
			<acc value="0.0890007357388843" flag="0"/>
			<vel value="0.0226999157064557" flag="0"/>
			<psa03 value="0.098991672295797" flag="0"/>
			<psa10 value="0.00470080749917645" flag="0"/>
			<psa30 value="0.000497575514019163" flag="0"/>
		</comp>
		<comp name="--.HNZ" depth="0.0">
			<acc value="0.0286290144915436" flag="0"/>
			<vel value="0.00789436044914028" flag="0"/>
			<psa03 value="0.0358024654876292" flag="0"/>
			<psa10 value="0.0026045899631774" flag="0"/>
			<psa30 value="0.000305498102333306" flag="0"/>
		</comp>
	</station>
	<station code="BTTL" name="BTTL" netid="IT" source="Italian Strong Motion Network (RAN)" insttype="" lat="44.7778" lon="9.605">
		<comp name="--.HNE" depth="0.0">
			<acc value="0.0143683735238994" flag="0"/>
			<vel value="0.00613424974522472" flag="0"/>
			<psa03 value="0.0293901787259344" flag="0"/>
			<psa10 value="0.00453050262356426" flag="0"/>
			<psa30 value="0.000523663492219686" flag="0"/>
		</comp>
		<comp name="--.HNN" depth="0.0">
			<acc value="0.0149638571800539" flag="0"/>
			<vel value="0.00486163397105576" flag="0"/>
			<psa03 value="0.0346586240887502" flag="0"/>
			<psa10 value="0.0043488152751691" flag="0"/>
			<psa30 value="0.000360229514479086" flag="0"/>
		</comp>
		<comp name="--.HNZ" depth="0.0">
			<acc value="0.0130276149139528" flag="0"/>
			<vel value="0.00375473937130907" flag="0"/>
			<psa03 value="0.0163482431471255" flag="0"/>
			<psa10 value="0.00205506090332413" flag="0"/>
			<psa30 value="0.000263127691334854" flag="0"/>
		</comp>
	</station>
	<station code="BVT" name="BVT" netid="IT" source="Italian Strong Motion Network (RAN)" insttype="" lat="44.5304" lon="9.7428">
		<comp name="--.HNE" depth="0.0">
			<acc value="0.0241421616407553" flag="0"/>
			<vel value="0.0135129105577629" flag="0"/>
			<psa03 value="0.0693745644744237" flag="0"/>
			<psa10 value="0.00644034898526268" flag="0"/>
			<psa30 value="0.000819593512797866" flag="0"/>
		</comp>
		<comp name="--.HNN" depth="0.0">
			<acc value="0.0281085377677845" flag="0"/>
			<vel value="0.0141181538859718" flag="0"/>
			<psa03 value="0.0714154809251223" flag="0"/>
			<psa10 value="0.00593028144579147" flag="0"/>
			<psa30 value="0.000610210319272228" flag="0"/>
		</comp>
		<comp name="--.HNZ" depth="0.0">
			<acc value="0.0145126403025698" flag="0"/>
			<vel value="0.0062517052100119" flag="0"/>
			<psa03 value="0.0367720791989456" flag="0"/>
			<psa10 value="0.00660341963164269" flag="0"/>
			<psa30 value="0.00070312220339523" flag="0"/>
		</comp>
	</station>
	<station code="CAGL" name="CAGL" netid="IT" source="Italian Strong Motion Network (RAN)" insttype="" lat="43.5475" lon="12.6495">
		<comp name="--.HNE" depth="0.0">
			<acc value="0.00873274687229807" flag="0"/>
			<vel value="0.0031487771804768" flag="0"/>
			<psa03 value="0.0234903243478702" flag="0"/>
			<psa10 value="0.00229487241465982" flag="0"/>
			<psa30 value="0.000291301797314437" flag="0"/>
		</comp>
		<comp name="--.HNN" depth="0.0">
			<acc value="0.00917448195363883" flag="0"/>
			<vel value="0.00314328785510838" flag="0"/>
			<psa03 value="0.013025951447022" flag="0"/>
			<psa10 value="0.00404707216116868" flag="0"/>
			<psa30 value="0.000232113813901015" flag="0"/>
		</comp>
		<comp name="--.HNZ" depth="0.0">
			<acc value="0.00807159378443294" flag="0"/>
			<vel value="0.00244235510033993" flag="0"/>
			<psa03 value="0.0082921886397181" flag="0"/>
			<psa10 value="0.0025412853008042" flag="0"/>
			<psa30 value="0.000244607089435872" flag="0"/>
		</comp>
	</station>
