<?xml version="1.0" encoding="UTF-8" standalone="yes"?>
<!DOCTYPE earthquake SYSTEM "stationlist.dtd">
<stationlist created="" xmlns="ch.ethz.sed.shakemap.usgs.xml">
  <station code="CARD" name="CARD" netid="GU" insttype="" commtype="DIG" lat="44.0261" lon="10.4821">
    <comp name="--.HHN">
      <acc value="0.3194888060" flag="0"/>
      <vel value="0.0791528970" flag="0"/>
      <psa03 value="0.4250810513" flag="0"/>
      <psa10 value="0.0213020751" flag="0"/>
      <psa30 value="0.0024820344" flag="0"/>
    </comp>
    <comp name="--.HHE">
      <acc value="0.3631722855" flag="0"/>
      <vel value="0.0888520710" flag="0"/>
      <psa03 value="0.1936868422" flag="0"/>
      <psa10 value="0.0107909579" flag="0"/>
      <psa30 value="0.0009971502" flag="0"/>
    </comp>
    <comp name="--.HHZ">
      <acc value="0.1082985808" flag="0"/>
      <vel value="0.0176013401" flag="0"/>
      <psa03 value="0.0582206776" flag="0"/>
      <psa10 value="0.0054147395" flag="0"/>
      <psa30 value="0.0003111462" flag="0"/>
    </comp>
  </station>
  <station code="EQUI" name="EQUI" netid="GU" insttype="" commtype="DIG" lat="44.166" lon="10.153">
    <comp name="--.HHN">
      <acc value="0.0632144068" flag="0"/>
      <vel value="0.0150316814" flag="0"/>
      <psa03 value="0.0626318342" flag="0"/>
      <psa10 value="0.0044019259" flag="0"/>
      <psa30 value="0.0004165894" flag="0"/>
    </comp>
    <comp name="--.HHE">
      <acc value="0.0376047405" flag="0"/>
      <vel value="0.0063134892" flag="0"/>
      <psa03 value="0.0191997508" flag="0"/>
      <psa10 value="0.0010513135" flag="0"/>
      <psa30 value="0.0001245175" flag="0"/>
    </comp>
    <comp name="--.HHZ">
      <acc value="0.0398851903" flag="0"/>
      <vel value="0.0092185689" flag="0"/>
      <psa03 value="0.0523942016" flag="0"/>
      <psa10 value="0.0051639545" flag="0"/>
      <psa30 value="0.0003119845" flag="0"/>
    </comp>
  </station>
  <station code="FIVI" name="FIVI" netid="GU" insttype="" commtype="DIG" lat="44.2394" lon="10.1271">
    <comp name="--.HNZ">
      <acc value="0.1064847634" flag="0"/>
      <vel value="0.0262374171" flag="0"/>
      <psa03 value="0.0852874759" flag="0"/>
      <psa10 value="0.0047570865" flag="0"/>
      <psa30 value="0.0003967002" flag="0"/>
    </comp>
    <comp name="--.HNN">
      <acc value="0.1665089477" flag="0"/>
      <vel value="0.0508855312" flag="0"/>
      <psa03 value="0.2414433168" flag="0"/>
      <psa10 value="0.0114010587" flag="0"/>
      <psa30 value="0.0008395765" flag="0"/>
    </comp>
    <comp name="--.HNE">
      <acc value="0.1158708996" flag="0"/>
      <vel value="0.0351988894" flag="0"/>
      <psa03 value="0.1656501903" flag="0"/>
      <psa10 value="0.0102551467" flag="0"/>
      <psa30 value="0.0008054043" flag="0"/>
    </comp>
  </station>
  <station code="GRAM" name="GRAM" netid="GU" insttype="" commtype="DIG" lat="44.4904" lon="10.065">
    <comp name="--.HHN">
      <acc value="0.0000000000" flag="0"/>
      <vel value="-100.0000000000" flag="0"/>
      <psa03 value="0.0000000000" flag="0"/>
      <psa10 value="0.0000000000" flag="0"/>
      <psa30 value="0.0000000000" flag="0"/>
    </comp>
    <comp name="--.HHE">
      <acc value="0.0768488864" flag="0"/>
      <vel value="0.0399766865" flag="0"/>
      <psa03 value="0.2271924576" flag="0"/>
      <psa10 value="0.0142729157" flag="0"/>
      <psa30 value="0.0014474024" flag="0"/>
    </comp>
    <comp name="--.HHZ">
      <acc value="0.0348917702" flag="0"/>
      <vel value="0.0133318839" flag="0"/>
      <psa03 value="0.0867546535" flag="0"/>
      <psa10 value="0.0050945969" flag="0"/>
      <psa30 value="0.0005889091" flag="0"/>
    </comp>
  </station>
  <station code="GSCL" name="GSCL" netid="GU" insttype="" commtype="DIG" lat="44.3506" lon="10.588">
    <comp name="--.HHN">
      <acc value="0.0947300418" flag="0"/>
      <vel value="0.0555794824" flag="0"/>
      <psa03 value="0.2141106180" flag="0"/>
      <psa10 value="0.0328045030" flag="0"/>
      <psa30 value="0.0023165462" flag="0"/>
    </comp>
    <comp name="--.HHE">
      <acc value="0.1073993756" flag="0"/>
      <vel value="0.0446897978" flag="0"/>
      <psa03 value="0.2184634089" flag="0"/>
      <psa10 value="0.0236590569" flag="0"/>
      <psa30 value="0.0019620926" flag="0"/>
    </comp>
    <comp name="--.HHZ">
      <acc value="0.1595593011" flag="0"/>
      <vel value="0.0321151451" flag="0"/>
      <psa03 value="0.1204056118" flag="0"/>
      <psa10 value="0.0234587933" flag="0"/>
      <psa30 value="0.0012320270" flag="0"/>
    </comp>
  </station>
  <station code="MAIM" name="MAIM" netid="GU" insttype="" commtype="DIG" lat="43.9142" lon="10.4915">
    <comp name="--.HHN">
      <acc value="0.1041790582" flag="0"/>
      <vel value="0.0316957405" flag="0"/>
      <psa03 value="0.1203837135" flag="0"/>
      <psa10 value="0.0126614518" flag="0"/>
      <psa30 value="0.0012395418" flag="0"/>
    </comp>
    <comp name="--.HHE">
      <acc value="0.0942723530" flag="0"/>
      <vel value="0.0266530675" flag="0"/>
      <psa03 value="0.1019444228" flag="0"/>
      <psa10 value="0.0062363018" flag="0"/>
      <psa30 value="0.0006527345" flag="0"/>
    </comp>
    <comp name="--.HHZ">
      <acc value="0.0766319537" flag="0"/>
      <vel value="0.0226207373" flag="0"/>
      <psa03 value="0.0596438758" flag="0"/>
      <psa10 value="0.0056399138" flag="0"/>
      <psa30 value="0.0003966834" flag="0"/>
    </comp>
  </station>
  <station code="POPM" name="POPM" netid="GU" insttype="" commtype="DIG" lat="44.045" lon="10.757">
    <comp name="--.HHE">
      <acc value="0.4374014433" flag="0"/>
      <vel value="0.1321378056" flag="0"/>
      <psa03 value="0.8234114577" flag="0"/>
      <psa10 value="0.0242143310" flag="0"/>
      <psa30 value="0.0023252386" flag="0"/>
    </comp>
    <comp name="--.HHN">
      <acc value="0.6719926636" flag="0"/>
      <vel value="0.1664637697" flag="0"/>
      <psa03 value="0.9637256936" flag="0"/>
      <psa10 value="0.0432739104" flag="0"/>
      <psa30 value="0.0038082315" flag="0"/>
    </comp>
    <comp name="--.HHZ">
      <acc value="0.3047740947" flag="0"/>
      <vel value="0.0709236124" flag="0"/>
      <psa03 value="0.3137575525" flag="0"/>
      <psa10 value="0.0099558450" flag="0"/>
      <psa30 value="0.0011098770" flag="0"/>
    </comp>
  </station>
  <station code="BOSL" name="BOSL" netid="IV" insttype="" commtype="DIG" lat="43.931" lon="11.3743">
    <comp name="--.HHN">
      <acc value="0.0378328932" flag="0"/>
      <vel value="0.0102479887" flag="0"/>
      <psa03 value="0.0327101753" flag="0"/>
      <psa10 value="0.0045827723" flag="0"/>
      <psa30 value="0.0003860353" flag="0"/>
    </comp>
    <comp name="--.HHE">
      <acc value="0.0411775509" flag="0"/>
      <vel value="0.0128879965" flag="0"/>
      <psa03 value="0.0356838864" flag="0"/>
      <psa10 value="0.0033557156" flag="0"/>
      <psa30 value="0.0003157332" flag="0"/>
    </comp>
    <comp name="--.HHZ">
      <acc value="0.0272922031" flag="0"/>
      <vel value="0.0041880841" flag="0"/>
      <psa03 value="0.0168107599" flag="0"/>
      <psa10 value="0.0012686878" flag="0"/>
      <psa30 value="0.0001415314" flag="0"/>
    </comp>
  </station>
  <station code="CRMI" name="CRMI" netid="IV" insttype="" commtype="DIG" lat="43.7956" lon="10.9795">
    <comp name="--.HHE">
      <acc value="0.0294250950" flag="0"/>
      <vel value="0.0074116628" flag="0"/>
      <psa03 value="0.0495815487" flag="0"/>
      <psa10 value="0.0039452465" flag="0"/>
      <psa30 value="0.0002960953" flag="0"/>
    </comp>
    <comp name="--.HHN">
      <acc value="0.0372726630" flag="0"/>
      <vel value="0.0115421338" flag="0"/>
      <psa03 value="0.0420271979" flag="0"/>
      <psa10 value="0.0090544223" flag="0"/>
      <psa30 value="0.0006260004" flag="0"/>
    </comp>
    <comp name="--.HHZ">
      <acc value="0.0167191155" flag="0"/>
      <vel value="0.0042830898" flag="0"/>
      <psa03 value="0.0207217772" flag="0"/>
      <psa10 value="0.0029709104" flag="0"/>
      <psa30 value="0.0002668642" flag="0"/>
    </comp>
  </station>
  <station code="FNVD" name="FNVD" netid="IV" insttype="" commtype="DIG" lat="44.1678" lon="11.1229">
    <comp name="--.HHE">
      <acc value="0.1554511649" flag="0"/>
      <vel value="0.0625688575" flag="0"/>
      <psa03 value="0.3946906026" flag="0"/>
      <psa10 value="0.0780553159" flag="0"/>
      <psa30 value="0.0055949439" flag="0"/>
    </comp>
    <comp name="--.HHZ">
      <acc value="0.2286322796" flag="0"/>
      <vel value="0.1044535473" flag="0"/>
      <psa03 value="0.6199618129" flag="0"/>
      <psa10 value="0.0358311430" flag="0"/>
      <psa30 value="0.0025886521" flag="0"/>
    </comp>
    <comp name="--.HHN">
      <acc value="0.1895024842" flag="0"/>
      <vel value="0.0629936452" flag="0"/>
      <psa03 value="0.3739364138" flag="0"/>
      <psa10 value="0.0506834817" flag="0"/>
      <psa30 value="0.0038063881" flag="0"/>
    </comp>
  </station>
  <station code="LMD" name="LMD" netid="IV" insttype="" commtype="DIG" lat="44.0775" lon="11.7073">
    <comp name="--.HHN">
      <acc value="0.0234126424" flag="0"/>
      <vel value="0.0083068370" flag="0"/>
      <psa03 value="0.0476627891" flag="0"/>
      <psa10 value="0.0057041844" flag="0"/>
      <psa30 value="0.0005368341" flag="0"/>
    </comp>
    <comp name="--.HHE">
      <acc value="0.0181469388" flag="0"/>
      <vel value="0.0073036849" flag="0"/>
      <psa03 value="0.0380438880" flag="0"/>
      <psa10 value="0.0047152318" flag="0"/>
      <psa30 value="0.0004538788" flag="0"/>
    </comp>
    <comp name="--.HHZ">
      <acc value="0.0110786589" flag="0"/>
      <vel value="0.0051033355" flag="0"/>
      <psa03 value="0.0276164628" flag="0"/>
      <psa10 value="0.0038606470" flag="0"/>
      <psa30 value="0.0002860601" flag="0"/>
    </comp>
  </station>
  <station code="LOCA" name="LOCA" netid="IV" insttype="" commtype="DIG" lat="43.3064" lon="11.2623">
    <comp name="--.HHE">
      <acc value="0.0051779567" flag="0"/>
      <vel value="0.0027466129" flag="0"/>
      <psa03 value="0.0146876424" flag="0"/>
      <psa10 value="0.0034060590" flag="0"/>
      <psa30 value="0.0002123471" flag="0"/>
    </comp>
    <comp name="--.HHZ">
      <acc value="0.0063157845" flag="0"/>
      <vel value="0.0025760348" flag="0"/>
      <psa03 value="0.0087003573" flag="0"/>
      <psa10 value="0.0027026043" flag="0"/>
      <psa30 value="0.0001354130" flag="0"/>
    </comp>
    <comp name="--.HHN">
      <acc value="0.0057640071" flag="0"/>
      <vel value="0.0023976473" flag="0"/>
      <psa03 value="0.0143333531" flag="0"/>
      <psa10 value="0.0026677405" flag="0"/>
      <psa30 value="0.0001995299" flag="0"/>
    </comp>
  </station>
  <station code="MODE" name="MODE" netid="IV" insttype="" commtype="DIG" lat="44.6297" lon="10.9492">
    <comp name="--.HNN">
      <acc value="0.0894693018" flag="0"/>
      <vel value="0.0252407971" flag="0"/>
      <psa03 value="0.1591884090" flag="0"/>
      <psa10 value="0.0192279936" flag="0"/>
      <psa30 value="0.0021718700" flag="0"/>
    </comp>
    <comp name="--.HNE">
      <acc value="0.0608711710" flag="0"/>
      <vel value="0.0318035274" flag="0"/>
      <psa03 value="0.1394593237" flag="0"/>
      <psa10 value="0.0207940562" flag="0"/>
      <psa30 value="0.0022503126" flag="0"/>
    </comp>
    <comp name="--.HNZ">
      <acc value="0.0513891235" flag="0"/>
      <vel value="0.0245390805" flag="0"/>
      <psa03 value="0.1684588646" flag="0"/>
      <psa10 value="0.0079046215" flag="0"/>
      <psa30 value="0.0015797368" flag="0"/>
    </comp>
  </station>
  <station code="MTRZ" name="MTRZ" netid="IV" insttype="" commtype="DIG" lat="44.3128" lon="11.4248">
    <comp name="--.HHE">
      <acc value="0.0846618226" flag="0"/>
      <vel value="0.0375889488" flag="0"/>
      <psa03 value="0.2191699900" flag="0"/>
      <psa10 value="0.0358281156" flag="0"/>
      <psa30 value="0.0025375411" flag="0"/>
    </comp>
    <comp name="--.HHN">
      <acc value="0.0819242814" flag="0"/>
      <vel value="0.0263121637" flag="0"/>
      <psa03 value="0.2177763582" flag="0"/>
      <psa10 value="0.0225950597" flag="0"/>
      <psa30 value="0.0025923021" flag="0"/>
    </comp>
    <comp name="--.HHZ">
      <acc value="0.0521078764" flag="0"/>
      <vel value="0.0203808873" flag="0"/>
      <psa03 value="0.1011678579" flag="0"/>
      <psa10 value="0.0089912426" flag="0"/>
      <psa30 value="0.0011208757" flag="0"/>
    </comp>
  </station>
  <station code="NEVI" name="NEVI" netid="IV" insttype="LK-307-115 Accelerometers, 80 Hz, +/-20V Single-ended" commtype="DIG" lat="44.5834" lon="10.3163">
    <comp name="--.HNE">
      <acc value="0.0155995642" flag="0"/>
      <vel value="0.0056818389" flag="0"/>
      <psa03 value="0.0346951825" flag="0"/>
      <psa10 value="0.0081359198" flag="0"/>
      <psa30 value="0.0006448150" flag="0"/>
    </comp>
    <comp name="--.HNN">
      <acc value="0.0159945339" flag="0"/>
      <vel value="0.0052444749" flag="0"/>
      <psa03 value="0.0261482524" flag="0"/>
      <psa10 value="0.0030312371" flag="0"/>
      <psa30 value="0.0005027978" flag="0"/>
    </comp>
    <comp name="--.HNZ">
      <acc value="0.0094106325" flag="0"/>
      <vel value="0.0030946005" flag="0"/>
      <psa03 value="0.0162527741" flag="0"/>
      <psa10 value="0.0029316803" flag="0"/>
      <psa30 value="0.0002675583" flag="0"/>
    </comp>
  </station>
  <station code="OSSC" name="OSSC" netid="IV" insttype="" commtype="DIG" lat="43.5236" lon="11.2458">
    <comp name="--.HHE">
      <acc value="0.0307383134" flag="0"/>
      <vel value="0.0156241071" flag="0"/>
      <psa03 value="0.0669134871" flag="0"/>
      <psa10 value="0.0074557387" flag="0"/>
      <psa30 value="0.0006341027" flag="0"/>
    </comp>
    <comp name="--.HHN">
      <acc value="0.0319796655" flag="0"/>
      <vel value="0.0103636827" flag="0"/>
      <psa03 value="0.0796459322" flag="0"/>
      <psa10 value="0.0104872425" flag="0"/>
      <psa30 value="0.0006929728" flag="0"/>
    </comp>
    <comp name="--.HHZ">
      <acc value="0.0204021085" flag="0"/>
      <vel value="0.0091416951" flag="0"/>
      <psa03 value="0.0338782454" flag="0"/>
      <psa10 value="0.0062811981" flag="0"/>
      <psa30 value="0.0003286765" flag="0"/>
    </comp>
  </station>
  <station code="PII" name="PII" netid="IV" insttype="" commtype="DIG" lat="43.7219" lon="10.525">
    <comp name="--.HHN">
      <acc value="0.5783954860" flag="0"/>
      <vel value="0.1894467628" flag="0"/>
      <psa03 value="1.2176230602" flag="0"/>
      <psa10 value="0.0577819229" flag="0"/>
      <psa30 value="0.0042698485" flag="0"/>
    </comp>
    <comp name="--.HHZ">
      <acc value="0.2675980207" flag="0"/>
      <vel value="0.0787079092" flag="0"/>
      <psa03 value="0.6057627984" flag="0"/>
      <psa10 value="0.0289209509" flag="0"/>
      <psa30 value="0.0019693521" flag="0"/>
    </comp>
    <comp name="--.HHE">
      <acc value="0.4659803829" flag="0"/>
      <vel value="0.2152919901" flag="0"/>
      <psa03 value="0.8610226518" flag="0"/>
      <psa10 value="0.0565033983" flag="0"/>
      <psa30 value="0.0044630118" flag="0"/>
    </comp>
  </station>
  <station code="PRMA" name="PRMA" netid="IV" insttype="" commtype="DIG" lat="44.7637" lon="10.3131">
    <comp name="--.HHE">
      <acc value="0.0268557082" flag="0"/>
      <vel value="0.0096230471" flag="0"/>
      <psa03 value="0.0461333387" flag="0"/>
      <psa10 value="0.0053549093" flag="0"/>
      <psa30 value="0.0005691670" flag="0"/>
    </comp>
    <comp name="--.HHN">
      <acc value="0.0326643865" flag="0"/>
      <vel value="0.0099011184" flag="0"/>
      <psa03 value="0.0419266382" flag="0"/>
      <psa10 value="0.0064495428" flag="0"/>
      <psa30 value="0.0006211236" flag="0"/>
    </comp>
    <comp name="--.HHZ">
      <acc value="0.0319564405" flag="0"/>
      <vel value="0.0048528784" flag="0"/>
      <psa03 value="0.0274782455" flag="0"/>
      <psa10 value="0.0027853761" flag="0"/>
      <psa30 value="0.0002809239" flag="0"/>
    </comp>
  </station>
  <station code="VISG" name="VISG" netid="IV" insttype="" commtype="DIG" lat="44.189" lon="11.4343">
    <comp name="--.HHE">
      <acc value="0.0312791296" flag="0"/>
      <vel value="0.0106619181" flag="0"/>
      <psa03 value="0.0819262727" flag="0"/>
      <psa10 value="0.0066405808" flag="0"/>
      <psa30 value="0.0004158123" flag="0"/>
    </comp>
    <comp name="--.HHN">
      <acc value="0.0289563755" flag="0"/>
      <vel value="0.0140337069" flag="0"/>
      <psa03 value="0.0862503604" flag="0"/>
      <psa10 value="0.0074182568" flag="0"/>
      <psa30 value="0.0005577518" flag="0"/>
    </comp>
    <comp name="--.HHZ">
      <acc value="0.0436568386" flag="0"/>
      <vel value="0.0078419719" flag="0"/>
      <psa03 value="0.0404062116" flag="0"/>
      <psa10 value="0.0026732754" flag="0"/>
      <psa30 value="0.0002398674" flag="0"/>
    </comp>
  </station>
  <station code="VMGN" name="VMGN" netid="IV" insttype="" commtype="DIG" lat="43.9545" lon="11.5327">
    <comp name="--.HHE">
      <acc value="0.1254867293" flag="0"/>
      <vel value="0.0373002867" flag="0"/>
      <psa03 value="0.2620917754" flag="0"/>
      <psa10 value="0.0113904298" flag="0"/>
      <psa30 value="0.0009491748" flag="0"/>
    </comp>
    <comp name="--.HHN">
      <acc value="0.0991695341" flag="0"/>
      <vel value="0.0294263335" flag="0"/>
      <psa03 value="0.1567553896" flag="0"/>
      <psa10 value="0.0092138042" flag="0"/>
      <psa30 value="0.0007874074" flag="0"/>
    </comp>
    <comp name="--.HHZ">
      <acc value="0.0348302540" flag="0"/>
      <vel value="0.0125939259" flag="0"/>
      <psa03 value="0.1004694956" flag="0"/>
      <psa10 value="0.0060274028" flag="0"/>
      <psa30 value="0.0003161622" flag="0"/>
    </comp>
  </station>
  <station code="ZCCA" name="ZCCA" netid="IV" insttype="" commtype="DIG" lat="44.3509" lon="10.9765">
    <comp name="--.HHE">
      <acc value="0.0649938739" flag="0"/>
      <vel value="0.0417693435" flag="0"/>
      <psa03 value="0.2091160076" flag="0"/>
      <psa10 value="0.0314622772" flag="0"/>
      <psa30 value="0.0016749002" flag="0"/>
    </comp>
    <comp name="--.HHN">
      <acc value="0.0721598854" flag="0"/>
      <vel value="0.0439055744" flag="0"/>
      <psa03 value="0.1613688629" flag="0"/>
      <psa10 value="0.0590791359" flag="0"/>
      <psa30 value="0.0037510523" flag="0"/>
    </comp>
    <comp name="--.HHZ">
      <acc value="0.0877237876" flag="0"/>
      <vel value="0.0274277529" flag="0"/>
      <psa03 value="0.1679450236" flag="0"/>
      <psa10 value="0.0131281293" flag="0"/>
      <psa30 value="0.0011702001" flag="0"/>
    </comp>
  </station>
  <station code="VLC" name="VLC" netid="MN" insttype="" commtype="DIG" lat="44.1594" lon="10.3864">
    <comp name="--.HHE">
      <acc value="0.0354149137" flag="0"/>
      <vel value="0.0078116442" flag="0"/>
      <psa03 value="0.0457884176" flag="0"/>
      <psa10 value="0.0050380378" flag="0"/>
      <psa30 value="0.0005449955" flag="0"/>
    </comp>
    <comp name="--.HHZ">
      <acc value="0.0245111528" flag="0"/>
      <vel value="0.0059821701" flag="0"/>
      <psa03 value="0.0242575430" flag="0"/>
      <psa10 value="0.0040393914" flag="0"/>
      <psa30 value="0.0002395664" flag="0"/>
    </comp>
    <comp name="--.HHN">
      <acc value="0.0315495680" flag="0"/>
      <vel value="0.0112015113" flag="0"/>
      <psa03 value="0.0433588745" flag="0"/>
      <psa10 value="0.0077812957" flag="0"/>
      <psa30 value="0.0005369758" flag="0"/>
    </comp>
  </station>
</stationlist>
