<?xml version="1.0" encoding="UTF-8" standalone="yes"?>
<!DOCTYPE earthquake SYSTEM "stationlist.dtd">
<stationlist created="" xmlns="ch.ethz.sed.shakemap.usgs.xml">
  <station code="CARD" name="CARD" netid="GU" insttype="" commtype="DIG" lat="44.0261" lon="10.4821">
    <comp name="--.HHE">
      <acc value="0.3631722854" flag="0"/>
      <vel value="0.0888520632" flag="0"/>
      <psa03 value="0.1936868422" flag="0"/>
      <psa10 value="0.0107909892" flag="0"/>
      <psa30 value="0.0009952902" flag="0"/>
    </comp>
    <comp name="--.HHN">
      <acc value="0.3194888058" flag="0"/>
      <vel value="0.0791528846" flag="0"/>
      <psa03 value="0.4250810513" flag="0"/>
      <psa10 value="0.0213020306" flag="0"/>
      <psa30 value="0.0024800307" flag="0"/>
    </comp>
    <comp name="--.HHZ">
      <acc value="0.1082985807" flag="0"/>
      <vel value="0.0176013391" flag="0"/>
      <psa03 value="0.0582206776" flag="0"/>
      <psa10 value="0.0054147503" flag="0"/>
      <psa30 value="0.0003115953" flag="0"/>
    </comp>
  </station>
  <station code="EQUI" name="EQUI" netid="GU" insttype="" commtype="DIG" lat="44.166" lon="10.153">
    <comp name="--.HHE">
      <acc value="0.0376047403" flag="0"/>
      <vel value="0.0063134937" flag="0"/>
      <psa03 value="0.0191997508" flag="0"/>
      <psa10 value="0.0010513136" flag="0"/>
      <psa30 value="0.0001243055" flag="0"/>
    </comp>
    <comp name="--.HHN">
      <acc value="0.0632144072" flag="0"/>
      <vel value="0.0150316853" flag="0"/>
      <psa03 value="0.0626318342" flag="0"/>
      <psa10 value="0.0044019267" flag="0"/>
      <psa30 value="0.0004162969" flag="0"/>
    </comp>
    <comp name="--.HHZ">
      <acc value="0.0398851904" flag="0"/>
      <vel value="0.0092185686" flag="0"/>
      <psa03 value="0.0523942016" flag="0"/>
      <psa10 value="0.0051639544" flag="0"/>
      <psa30 value="0.0003112874" flag="0"/>
    </comp>
  </station>
  <station code="FIVI" name="FIVI" netid="GU" insttype="" commtype="DIG" lat="44.2394" lon="10.1271">
    <comp name="--.HNE">
      <acc value="0.1158709001" flag="0"/>
      <vel value="0.0351988915" flag="0"/>
      <psa03 value="0.1656501903" flag="0"/>
      <psa10 value="0.0102551474" flag="0"/>
      <psa30 value="0.0008058969" flag="0"/>
    </comp>
    <comp name="--.HNN">
      <acc value="0.1665089469" flag="0"/>
      <vel value="0.0508855343" flag="0"/>
      <psa03 value="0.2414433168" flag="0"/>
      <psa10 value="0.0114010581" flag="0"/>
      <psa30 value="0.0008400713" flag="0"/>
    </comp>
    <comp name="--.HNZ">
      <acc value="0.1064847660" flag="0"/>
      <vel value="0.0262374199" flag="0"/>
      <psa03 value="0.0852874759" flag="0"/>
      <psa10 value="0.0047570870" flag="0"/>
      <psa30 value="0.0003965965" flag="0"/>
    </comp>
  </station>
  <station code="GRAM" name="GRAM" netid="GU" insttype="" commtype="DIG" lat="44.4904" lon="10.065">
    <comp name="--.HHE">
      <acc value="0.0768488890" flag="0"/>
      <vel value="0.0399766877" flag="0"/>
      <psa03 value="0.2271924576" flag="0"/>
      <psa10 value="0.0142729158" flag="0"/>
      <psa30 value="0.0014470966" flag="0"/>
    </comp>
    <comp name="--.HHN">
      <acc value="0.0000000000" flag="0"/>
      <vel value="-100.0000000000" flag="0"/>
      <psa03 value="0.0000000000" flag="0"/>
      <psa10 value="0.0000000000" flag="0"/>
      <psa30 value="0.0000000000" flag="0"/>
    </comp>
    <comp name="--.HHZ">
      <acc value="0.0348917668" flag="0"/>
      <vel value="0.0133318853" flag="0"/>
      <psa03 value="0.0867546535" flag="0"/>
      <psa10 value="0.0050945969" flag="0"/>
      <psa30 value="0.0005884326" flag="0"/>
    </comp>
  </station>
  <station code="GSCL" name="GSCL" netid="GU" insttype="" commtype="DIG" lat="44.3506" lon="10.588">
    <comp name="--.HHE">
      <acc value="0.1073993755" flag="0"/>
      <vel value="0.0446898012" flag="0"/>
      <psa03 value="0.2184634089" flag="0"/>
      <psa10 value="0.0236590567" flag="0"/>
      <psa30 value="0.0019619392" flag="0"/>
    </comp>
    <comp name="--.HHZ">
      <acc value="0.1595593009" flag="0"/>
      <vel value="0.0321151469" flag="0"/>
      <psa03 value="0.1204056118" flag="0"/>
      <psa10 value="0.0234587941" flag="0"/>
      <psa30 value="0.0012315714" flag="0"/>
    </comp>
    <comp name="--.HHN">
      <acc value="0.0947300417" flag="0"/>
      <vel value="0.0555794799" flag="0"/>
      <psa03 value="0.2141106180" flag="0"/>
      <psa10 value="0.0328045031" flag="0"/>
      <psa30 value="0.0023167894" flag="0"/>
    </comp>
  </station>
  <station code="MAIM" name="MAIM" netid="GU" insttype="" commtype="DIG" lat="43.9142" lon="10.4915">
    <comp name="--.HHE">
      <acc value="0.0942723530" flag="0"/>
      <vel value="0.0266530667" flag="0"/>
      <psa03 value="0.1019444228" flag="0"/>
      <psa10 value="0.0062363027" flag="0"/>
      <psa30 value="0.0006537420" flag="0"/>
    </comp>
    <comp name="--.HHZ">
      <acc value="0.0766319536" flag="0"/>
      <vel value="0.0226207321" flag="0"/>
      <psa03 value="0.0596438758" flag="0"/>
      <psa10 value="0.0056399137" flag="0"/>
      <psa30 value="0.0003967962" flag="0"/>
    </comp>
    <comp name="--.HHN">
      <acc value="0.1041790579" flag="0"/>
      <vel value="0.0316957467" flag="0"/>
      <psa03 value="0.1203837135" flag="0"/>
      <psa10 value="0.0126614515" flag="0"/>
      <psa30 value="0.0012392983" flag="0"/>
    </comp>
  </station>
  <station code="POPM" name="POPM" netid="GU" insttype="" commtype="DIG" lat="44.045" lon="10.757">
    <comp name="--.HHE">
      <acc value="0.4374014434" flag="0"/>
      <vel value="0.1321378116" flag="0"/>
      <psa03 value="0.8234114577" flag="0"/>
      <psa10 value="0.0242143303" flag="0"/>
      <psa30 value="0.0023262599" flag="0"/>
    </comp>
    <comp name="--.HHN">
      <acc value="0.6719926638" flag="0"/>
      <vel value="0.1664637641" flag="0"/>
      <psa03 value="0.9637256937" flag="0"/>
      <psa10 value="0.0432739114" flag="0"/>
      <psa30 value="0.0038093230" flag="0"/>
    </comp>
    <comp name="--.HHZ">
      <acc value="0.3047740945" flag="0"/>
      <vel value="0.0709236027" flag="0"/>
      <psa03 value="0.3137575525" flag="0"/>
      <psa10 value="0.0099558468" flag="0"/>
      <psa30 value="0.0011109590" flag="0"/>
    </comp>
  </station>
  <station code="BOSL" name="BOSL" netid="IV" insttype="" commtype="DIG" lat="43.931" lon="11.3743">
    <comp name="--.HHE">
      <acc value="0.0411775466" flag="0"/>
      <vel value="0.0128879965" flag="0"/>
      <psa03 value="0.0356838864" flag="0"/>
      <psa10 value="0.0033557154" flag="0"/>
      <psa30 value="0.0003153515" flag="0"/>
    </comp>
    <comp name="--.HHN">
      <acc value="0.0378328920" flag="0"/>
      <vel value="0.0102479891" flag="0"/>
      <psa03 value="0.0327101753" flag="0"/>
      <psa10 value="0.0045827722" flag="0"/>
      <psa30 value="0.0003863508" flag="0"/>
    </comp>
    <comp name="--.HHZ">
      <acc value="0.0272922072" flag="0"/>
      <vel value="0.0041880853" flag="0"/>
      <psa03 value="0.0168107599" flag="0"/>
      <psa10 value="0.0012686879" flag="0"/>
      <psa30 value="0.0001414525" flag="0"/>
    </comp>
  </station>
  <station code="CRMI" name="CRMI" netid="IV" insttype="" commtype="DIG" lat="43.7956" lon="10.9795">
    <comp name="--.HHE">
      <acc value="0.0294250947" flag="0"/>
      <vel value="0.0074116657" flag="0"/>
      <psa03 value="0.0495815487" flag="0"/>
      <psa10 value="0.0039452463" flag="0"/>
      <psa30 value="0.0002957079" flag="0"/>
    </comp>
    <comp name="--.HHN">
      <acc value="0.0372726630" flag="0"/>
      <vel value="0.0115421339" flag="0"/>
      <psa03 value="0.0420271979" flag="0"/>
      <psa10 value="0.0090544226" flag="0"/>
      <psa30 value="0.0006261151" flag="0"/>
    </comp>
    <comp name="--.HHZ">
      <acc value="0.0167191155" flag="0"/>
      <vel value="0.0042830910" flag="0"/>
      <psa03 value="0.0207217772" flag="0"/>
      <psa10 value="0.0029709101" flag="0"/>
      <psa30 value="0.0002666550" flag="0"/>
    </comp>
  </station>
  <station code="FNVD" name="FNVD" netid="IV" insttype="" commtype="DIG" lat="44.1678" lon="11.1229">
    <comp name="--.HHE">
      <acc value="0.1554511663" flag="0"/>
      <vel value="0.0625688260" flag="0"/>
      <psa03 value="0.3946906026" flag="0"/>
      <psa10 value="0.0780552621" flag="0"/>
      <psa30 value="0.0055975408" flag="0"/>
    </comp>
    <comp name="--.HHZ">
      <acc value="0.2286322809" flag="0"/>
      <vel value="0.1044535351" flag="0"/>
      <psa03 value="0.6199618129" flag="0"/>
      <psa10 value="0.0358310513" flag="0"/>
      <psa30 value="0.0025847853" flag="0"/>
    </comp>
    <comp name="--.HHN">
      <acc value="0.1895024840" flag="0"/>
      <vel value="0.0629936202" flag="0"/>
      <psa03 value="0.3739364138" flag="0"/>
      <psa10 value="0.0506834520" flag="0"/>
      <psa30 value="0.0038107588" flag="0"/>
    </comp>
  </station>
  <station code="LMD" name="LMD" netid="IV" insttype="" commtype="DIG" lat="44.0775" lon="11.7073">
    <comp name="--.HHN">
      <acc value="0.0234126424" flag="0"/>
      <vel value="0.0083068354" flag="0"/>
      <psa03 value="0.0476627891" flag="0"/>
      <psa10 value="0.0057041844" flag="0"/>
      <psa30 value="0.0005362257" flag="0"/>
    </comp>
    <comp name="--.HHE">
      <acc value="0.0181469386" flag="0"/>
      <vel value="0.0073036851" flag="0"/>
      <psa03 value="0.0380438880" flag="0"/>
      <psa10 value="0.0047152317" flag="0"/>
      <psa30 value="0.0004548152" flag="0"/>
    </comp>
    <comp name="--.HHZ">
      <acc value="0.0110786594" flag="0"/>
      <vel value="0.0051033398" flag="0"/>
      <psa03 value="0.0276164628" flag="0"/>
      <psa10 value="0.0038606470" flag="0"/>
      <psa30 value="0.0002854257" flag="0"/>
    </comp>
  </station>
  <station code="MODE" name="MODE" netid="IV" insttype="" commtype="DIG" lat="44.6297" lon="10.9492">
    <comp name="--.HNE">
      <acc value="0.0608711725" flag="0"/>
      <vel value="0.0318035779" flag="0"/>
      <psa03 value="0.1394593237" flag="0"/>
      <psa10 value="0.0207940458" flag="0"/>
      <psa30 value="0.0022493031" flag="0"/>
    </comp>
    <comp name="--.HNN">
      <acc value="0.0894693039" flag="0"/>
      <vel value="0.0252408307" flag="0"/>
      <psa03 value="0.1591884090" flag="0"/>
      <psa10 value="0.0192280016" flag="0"/>
      <psa30 value="0.0021720514" flag="0"/>
    </comp>
    <comp name="--.HNZ">
      <acc value="0.0513891284" flag="0"/>
      <vel value="0.0245390170" flag="0"/>
      <psa03 value="0.1684588646" flag="0"/>
      <psa10 value="0.0079046351" flag="0"/>
      <psa30 value="0.0015801187" flag="0"/>
    </comp>
  </station>
  <station code="MTRZ" name="MTRZ" netid="IV" insttype="" commtype="DIG" lat="44.3128" lon="11.4248">
    <comp name="--.HHE">
      <acc value="0.0846618230" flag="0"/>
      <vel value="0.0375889385" flag="0"/>
      <psa03 value="0.2191699900" flag="0"/>
      <psa10 value="0.0358281156" flag="0"/>
      <psa30 value="0.0025391348" flag="0"/>
    </comp>
    <comp name="--.HHN">
      <acc value="0.0819242810" flag="0"/>
      <vel value="0.0263121399" flag="0"/>
      <psa03 value="0.2177763583" flag="0"/>
      <psa10 value="0.0225950602" flag="0"/>
      <psa30 value="0.0025931495" flag="0"/>
    </comp>
    <comp name="--.HHZ">
      <acc value="0.0521078768" flag="0"/>
      <vel value="0.0203808753" flag="0"/>
      <psa03 value="0.1011678579" flag="0"/>
      <psa10 value="0.0089912426" flag="0"/>
      <psa30 value="0.0011212338" flag="0"/>
    </comp>
  </station>
  <station code="NEVI" name="NEVI" netid="IV" insttype="LK-307-115 Accelerometers, 80 Hz, +/-20V Single-ended" commtype="DIG" lat="44.5834" lon="10.3163">
    <comp name="--.HNE">
      <acc value="0.0155995608" flag="0"/>
      <vel value="0.0056818417" flag="0"/>
      <psa03 value="0.0346951825" flag="0"/>
      <psa10 value="0.0081359198" flag="0"/>
      <psa30 value="0.0006448432" flag="0"/>
    </comp>
    <comp name="--.HNN">
      <acc value="0.0159945368" flag="0"/>
      <vel value="0.0052444783" flag="0"/>
      <psa03 value="0.0261482524" flag="0"/>
      <psa10 value="0.0030312371" flag="0"/>
      <psa30 value="0.0005028639" flag="0"/>
    </comp>
    <comp name="--.HNZ">
      <acc value="0.0094106299" flag="0"/>
      <vel value="0.0030945984" flag="0"/>
      <psa03 value="0.0162527741" flag="0"/>
      <psa10 value="0.0029316803" flag="0"/>
      <psa30 value="0.0002675434" flag="0"/>
    </comp>
  </station>
  <station code="OSSC" name="OSSC" netid="IV" insttype="" commtype="DIG" lat="43.5236" lon="11.2458">
    <comp name="--.HHN">
      <acc value="0.0319796656" flag="0"/>
      <vel value="0.0103636791" flag="0"/>
      <psa03 value="0.0796459322" flag="0"/>
      <psa10 value="0.0104872425" flag="0"/>
      <psa30 value="0.0006921412" flag="0"/>
    </comp>
    <comp name="--.HHZ">
      <acc value="0.0204021086" flag="0"/>
      <vel value="0.0091416913" flag="0"/>
      <psa03 value="0.0338782454" flag="0"/>
      <psa10 value="0.0062811977" flag="0"/>
      <psa30 value="0.0003282465" flag="0"/>
    </comp>
    <comp name="--.HHE">
      <acc value="0.0307383131" flag="0"/>
      <vel value="0.0156241038" flag="0"/>
      <psa03 value="0.0669134871" flag="0"/>
      <psa10 value="0.0074557389" flag="0"/>
      <psa30 value="0.0006333515" flag="0"/>
    </comp>
  </station>
  <station code="PII" name="PII" netid="IV" insttype="" commtype="DIG" lat="43.7219" lon="10.525">
    <comp name="--.HHE">
      <acc value="0.4659803829" flag="0"/>
      <vel value="0.2152919976" flag="0"/>
      <psa03 value="0.8610226518" flag="0"/>
      <psa10 value="0.0565033978" flag="0"/>
      <psa30 value="0.0044617630" flag="0"/>
    </comp>
    <comp name="--.HHN">
      <acc value="0.5783954857" flag="0"/>
      <vel value="0.1894467614" flag="0"/>
      <psa03 value="1.2176230602" flag="0"/>
      <psa10 value="0.0577819242" flag="0"/>
      <psa30 value="0.0042713472" flag="0"/>
    </comp>
    <comp name="--.HHZ">
      <acc value="0.2675980209" flag="0"/>
      <vel value="0.0787079227" flag="0"/>
      <psa03 value="0.6057627984" flag="0"/>
      <psa10 value="0.0289209514" flag="0"/>
      <psa30 value="0.0019688750" flag="0"/>
    </comp>
  </station>
  <station code="PRMA" name="PRMA" netid="IV" insttype="" commtype="DIG" lat="44.7637" lon="10.3131">
    <comp name="--.HHE">
      <acc value="0.0268557081" flag="0"/>
      <vel value="0.0096230463" flag="0"/>
      <psa03 value="0.0461333387" flag="0"/>
      <psa10 value="0.0053549093" flag="0"/>
      <psa30 value="0.0005691621" flag="0"/>
    </comp>
    <comp name="--.HHN">
      <acc value="0.0326643867" flag="0"/>
      <vel value="0.0099011112" flag="0"/>
      <psa03 value="0.0419266383" flag="0"/>
      <psa10 value="0.0064495429" flag="0"/>
      <psa30 value="0.0006220055" flag="0"/>
    </comp>
    <comp name="--.HHZ">
      <acc value="0.0319564411" flag="0"/>
      <vel value="0.0048528728" flag="0"/>
      <psa03 value="0.0274782455" flag="0"/>
      <psa10 value="0.0026021118" flag="0"/>
      <psa30 value="0.0002809569" flag="0"/>
    </comp>
  </station>
  <station code="SERM" name="SERM" netid="IV" insttype="" commtype="DIG" lat="45.01" lon="11.2958">
    <comp name="--.HNN">
      <acc value="0.2933748796" flag="0"/>
      <vel value="0.0488723526" flag="0"/>
      <psa03 value="0.2455701678" flag="0"/>
      <psa10 value="0.0090183015" flag="0"/>
      <psa30 value="0.0018009556" flag="0"/>
    </comp>
    <comp name="--.HNE">
      <acc value="0.3098462664" flag="0"/>
      <vel value="0.0584638962" flag="0"/>
      <psa03 value="0.2199580689" flag="0"/>
      <psa10 value="0.0112290461" flag="0"/>
      <psa30 value="0.0012886630" flag="0"/>
    </comp>
    <comp name="--.HNZ">
      <acc value="0.1923596651" flag="0"/>
      <vel value="0.0225201681" flag="0"/>
      <psa03 value="0.0612971440" flag="0"/>
      <psa10 value="0.0035009836" flag="0"/>
      <psa30 value="0.0017925450" flag="0"/>
    </comp>
  </station>
  <station code="VISG" name="VISG" netid="IV" insttype="" commtype="DIG" lat="44.189" lon="11.4343">
    <comp name="--.HHE">
      <acc value="0.0312791230" flag="0"/>
      <vel value="0.0106619158" flag="0"/>
      <psa03 value="0.0819262727" flag="0"/>
      <psa10 value="0.0066405808" flag="0"/>
      <psa30 value="0.0004162663" flag="0"/>
    </comp>
    <comp name="--.HHN">
      <acc value="0.0289563770" flag="0"/>
      <vel value="0.0140337063" flag="0"/>
      <psa03 value="0.0862503604" flag="0"/>
      <psa10 value="0.0074182571" flag="0"/>
      <psa30 value="0.0005580658" flag="0"/>
    </comp>
    <comp name="--.HHZ">
      <acc value="0.0436568390" flag="0"/>
      <vel value="0.0078419715" flag="0"/>
      <psa03 value="0.0404062116" flag="0"/>
      <psa10 value="0.0026732753" flag="0"/>
      <psa30 value="0.0002398235" flag="0"/>
    </comp>
  </station>
  <station code="VMGN" name="VMGN" netid="IV" insttype="" commtype="DIG" lat="43.9545" lon="11.5327">
    <comp name="--.HHE">
      <acc value="0.1254867288" flag="0"/>
      <vel value="0.0373002659" flag="0"/>
      <psa03 value="0.2620917754" flag="0"/>
      <psa10 value="0.0113904296" flag="0"/>
      <psa30 value="0.0009492439" flag="0"/>
    </comp>
    <comp name="--.HHZ">
      <acc value="0.0348302523" flag="0"/>
      <vel value="0.0125939112" flag="0"/>
      <psa03 value="0.1004694956" flag="0"/>
      <psa10 value="0.0060274029" flag="0"/>
      <psa30 value="0.0003169921" flag="0"/>
    </comp>
    <comp name="--.HHN">
      <acc value="0.0991695341" flag="0"/>
      <vel value="0.0294263271" flag="0"/>
      <psa03 value="0.1567553896" flag="0"/>
      <psa10 value="0.0092138044" flag="0"/>
      <psa30 value="0.0007876934" flag="0"/>
    </comp>
  </station>
  <station code="ZCCA" name="ZCCA" netid="IV" insttype="" commtype="DIG" lat="44.3509" lon="10.9765">
    <comp name="--.HHE">
      <acc value="0.0649938741" flag="0"/>
      <vel value="0.0417693560" flag="0"/>
      <psa03 value="0.2091160076" flag="0"/>
      <psa10 value="0.0314622776" flag="0"/>
      <psa30 value="0.0016749415" flag="0"/>
    </comp>
    <comp name="--.HHN">
      <acc value="0.0721598856" flag="0"/>
      <vel value="0.0439055771" flag="0"/>
      <psa03 value="0.1613688629" flag="0"/>
      <psa10 value="0.0590791358" flag="0"/>
      <psa30 value="0.0037549212" flag="0"/>
    </comp>
    <comp name="--.HHZ">
      <acc value="0.0877237878" flag="0"/>
      <vel value="0.0274277448" flag="0"/>
      <psa03 value="0.1679450236" flag="0"/>
      <psa10 value="0.0131281292" flag="0"/>
      <psa30 value="0.0011712844" flag="0"/>
    </comp>
  </station>
  <station code="VLC" name="VLC" netid="MN" insttype="" commtype="DIG" lat="44.1594" lon="10.3864">
    <comp name="--.HHE">
      <acc value="0.0354149139" flag="0"/>
      <vel value="0.0078116365" flag="0"/>
      <psa03 value="0.0457884176" flag="0"/>
      <psa10 value="0.0050380371" flag="0"/>
      <psa30 value="0.0005455274" flag="0"/>
    </comp>
    <comp name="--.HHN">
      <acc value="0.0315495678" flag="0"/>
      <vel value="0.0112015105" flag="0"/>
      <psa03 value="0.0433588745" flag="0"/>
      <psa10 value="0.0077812949" flag="0"/>
      <psa30 value="0.0005396660" flag="0"/>
    </comp>
    <comp name="--.HHZ">
      <acc value="0.0245111529" flag="0"/>
      <vel value="0.0059821779" flag="0"/>
      <psa03 value="0.0242575430" flag="0"/>
      <psa10 value="0.0040393918" flag="0"/>
      <psa30 value="0.0002387270" flag="0"/>
    </comp>
  </station>
</stationlist>
