<?xml version="1.0" encoding="UTF-8" standalone="yes"?>
<!DOCTYPE earthquake SYSTEM "stationlist.dtd">
<stationlist created="" xmlns="ch.ethz.sed.shakemap.usgs.xml">
  <station code="CRND" name="CRND" netid="IV" insttype="" lat="45.8361" lon="12.0131">
    <comp name="--.HNE">
      <acc value="0.0203462741" flag="0"/>
      <vel value="0.0055498136" flag="0"/>
      <psa03 value="0.0229526977" flag="0"/>
      <psa10 value="0.0017847431" flag="0"/>
      <psa30 value="0.0006572615" flag="0"/>
    </comp>
    <comp name="--.HNN">
      <acc value="0.0318605713" flag="0"/>
      <vel value="0.0089992413" flag="0"/>
      <psa03 value="0.0326527749" flag="0"/>
      <psa10 value="0.0018726684" flag="0"/>
      <psa30 value="0.0004837308" flag="0"/>
    </comp>
    <comp name="--.HNZ">
      <acc value="0.0118536943" flag="0"/>
      <vel value="0.0032447573" flag="0"/>
      <psa03 value="0.0132394864" flag="0"/>
      <psa10 value="0.0012122349" flag="0"/>
      <psa30 value="0.0001824126" flag="0"/>
    </comp>
  </station>
  <station code="CTI" name="CTI" netid="IV" insttype="" lat="46.0482" lon="11.6497">
    <comp name="--.HHE">
      <acc value="0.0503095383" flag="0"/>
      <vel value="0.0155123489" flag="0"/>
      <psa03 value="0.0769565774" flag="0"/>
      <psa10 value="0.0031291276" flag="0"/>
      <psa30 value="0.0003466024" flag="0"/>
    </comp>
    <comp name="--.HHN">
      <acc value="0.0338794878" flag="0"/>
      <vel value="0.0111257668" flag="0"/>
      <psa03 value="0.1064697123" flag="0"/>
      <psa10 value="0.0051470752" flag="0"/>
      <psa30 value="0.0005452025" flag="0"/>
    </comp>
    <comp name="--.HHZ">
      <acc value="0.0174761270" flag="0"/>
      <vel value="0.0044958402" flag="0"/>
      <psa03 value="0.0281734147" flag="0"/>
      <psa10 value="0.0021274729" flag="0"/>
      <psa30 value="0.0003224856" flag="0"/>
    </comp>
  </station>
  <station code="FVI" name="FVI" netid="IV" insttype="" lat="46.5966" lon="12.7804">
    <comp name="--.HHE">
      <acc value="0.7424619909" flag="0"/>
      <vel value="0.2048572777" flag="0"/>
      <psa03 value="0.8544533250" flag="0"/>
      <psa10 value="0.0373401632" flag="0"/>
      <psa30 value="0.0031053932" flag="0"/>
    </comp>
    <comp name="--.HHN">
      <acc value="0.5906994017" flag="0"/>
      <vel value="0.1898610528" flag="0"/>
      <psa03 value="0.9274481964" flag="0"/>
      <psa10 value="0.0713357170" flag="0"/>
      <psa30 value="0.0044814012" flag="0"/>
    </comp>
    <comp name="--.HHZ">
      <acc value="0.6242154030" flag="0"/>
      <vel value="0.1862313685" flag="0"/>
      <psa03 value="1.1878704314" flag="0"/>
      <psa10 value="0.0656126810" flag="0"/>
      <psa30 value="0.0079590142" flag="0"/>
    </comp>
  </station>
  <station code="STAL" name="STAL" netid="IV" insttype="" lat="46.2601" lon="12.7104">
    <comp name="--.HHE">
      <acc value="0.5180586697" flag="0"/>
      <vel value="0.1246073102" flag="0"/>
      <psa03 value="0.4146580676" flag="0"/>
      <psa10 value="0.0269611367" flag="0"/>
      <psa30 value="0.0025998818" flag="0"/>
    </comp>
    <comp name="--.HHN">
      <acc value="0.6627293301" flag="0"/>
      <vel value="0.1803492776" flag="0"/>
      <psa03 value="0.5037456403" flag="0"/>
      <psa10 value="0.0273603130" flag="0"/>
      <psa30 value="0.0037519238" flag="0"/>
    </comp>
    <comp name="--.HHZ">
      <acc value="0.2552411265" flag="0"/>
      <vel value="0.0503101608" flag="0"/>
      <psa03 value="0.1221740726" flag="0"/>
      <psa10 value="0.0165933614" flag="0"/>
      <psa30 value="0.0029622327" flag="0"/>
    </comp>
  </station>
  <station code="TRI" name="TRI" netid="MN" insttype="" lat="45.709" lon="13.764">
    <comp name="--.HHE">
      <acc value="0.0238848417" flag="0"/>
      <vel value="0.0039885368" flag="0"/>
      <psa03 value="0.0104307026" flag="0"/>
      <psa10 value="0.0007494492" flag="0"/>
      <psa30 value="0.0004118854" flag="0"/>
    </comp>
    <comp name="--.HHZ">
      <acc value="0.0248090263" flag="0"/>
      <vel value="0.0039058980" flag="0"/>
      <psa03 value="0.0112116581" flag="0"/>
      <psa10 value="0.0007503759" flag="0"/>
      <psa30 value="0.0005036091" flag="0"/>
    </comp>
    <comp name="--.HHN">
      <acc value="0.0138184142" flag="0"/>
      <vel value="0.0020037378" flag="0"/>
      <psa03 value="0.0079465312" flag="0"/>
      <psa10 value="0.0007676590" flag="0"/>
      <psa30 value="0.0003529245" flag="0"/>
    </comp>
  </station>
  <station code="DST2" name="DST2" netid="NI" insttype="" lat="45.6589" lon="13.8013">
    <comp name="--.HHN">
      <acc value="0.0169196147" flag="0"/>
      <vel value="0.0035624513" flag="0"/>
      <psa03 value="0.0156835321" flag="0"/>
      <psa10 value="0.0010890940" flag="0"/>
      <psa30 value="0.0001450142" flag="0"/>
    </comp>
    <comp name="--.HHE">
      <acc value="0.0212663815" flag="0"/>
      <vel value="0.0039921899" flag="0"/>
      <psa03 value="0.0154270644" flag="0"/>
      <psa10 value="0.0015894473" flag="0"/>
      <psa30 value="0.0003997871" flag="0"/>
    </comp>
    <comp name="--.HHZ">
      <acc value="0.0067162366" flag="0"/>
      <vel value="0.0018403301" flag="0"/>
      <psa03 value="0.0102857951" flag="0"/>
      <psa10 value="0.0009718059" flag="0"/>
      <psa30 value="0.0004513616" flag="0"/>
    </comp>
  </station>
  <station code="PALA" name="PALA" netid="NI" insttype="" lat="46.245" lon="12.924">
    <comp name="--.HHE">
      <acc value="0.2132414491" flag="0"/>
      <vel value="0.0477209454" flag="0"/>
      <psa03 value="0.2202729207" flag="0"/>
      <psa10 value="0.0316324525" flag="0"/>
      <psa30 value="0.0064932477" flag="0"/>
    </comp>
    <comp name="--.HHN">
      <acc value="0.1887011366" flag="0"/>
      <vel value="0.0519897944" flag="0"/>
      <psa03 value="0.2920051195" flag="0"/>
      <psa10 value="0.0238064655" flag="0"/>
      <psa30 value="0.0082303755" flag="0"/>
    </comp>
    <comp name="--.HHZ">
      <acc value="0.1265374836" flag="0"/>
      <vel value="0.0264957415" flag="0"/>
      <psa03 value="0.1098962163" flag="0"/>
      <psa10 value="0.0170599785" flag="0"/>
      <psa30 value="0.0043756995" flag="0"/>
    </comp>
  </station>
  <station code="POLC" name="POLC" netid="NI" insttype="" lat="46.0266" lon="12.5005">
    <comp name="--.HHE">
      <acc value="0.0786172032" flag="0"/>
      <vel value="0.0265556988" flag="0"/>
      <psa03 value="0.1396433205" flag="0"/>
      <psa10 value="0.0142511852" flag="0"/>
      <psa30 value="0.0010261321" flag="0"/>
    </comp>
    <comp name="--.HHN">
      <acc value="0.0854559711" flag="0"/>
      <vel value="0.0255526706" flag="0"/>
      <psa03 value="0.1093979794" flag="0"/>
      <psa10 value="0.0121334550" flag="0"/>
      <psa30 value="0.0006701685" flag="0"/>
    </comp>
    <comp name="--.HHZ">
      <acc value="0.0484342910" flag="0"/>
      <vel value="0.0134030672" flag="0"/>
      <psa03 value="0.0762099046" flag="0"/>
      <psa10 value="0.0059180550" flag="0"/>
      <psa30 value="0.0003487628" flag="0"/>
    </comp>
  </station>
  <station code="PURA" name="PURA" netid="NI" insttype="" lat="46.4258" lon="12.7419">
    <comp name="--.HHE">
      <acc value="2.1968912310" flag="0"/>
      <vel value="0.3765689411" flag="0"/>
      <psa03 value="1.2818593839" flag="0"/>
      <psa10 value="0.0689680354" flag="0"/>
      <psa30 value="0.0065487491" flag="0"/>
    </comp>
    <comp name="--.HHN">
      <acc value="2.0954129541" flag="0"/>
      <vel value="0.5408355929" flag="0"/>
      <psa03 value="2.2563970274" flag="0"/>
      <psa10 value="0.1126170033" flag="0"/>
      <psa30 value="0.0083476406" flag="0"/>
    </comp>
    <comp name="--.HHZ">
      <acc value="0.6655503884" flag="0"/>
      <vel value="0.1207061970" flag="0"/>
      <psa03 value="0.5668794986" flag="0"/>
      <psa10 value="0.0436483228" flag="0"/>
      <psa30 value="0.0038255092" flag="0"/>
    </comp>
  </station>
  <station code="VINO" name="VINO" netid="NI" insttype="" lat="46.2538" lon="13.2755">
    <comp name="--.HHE">
      <acc value="0.0375054087" flag="0"/>
      <vel value="0.0108899785" flag="0"/>
      <psa03 value="0.0374538538" flag="0"/>
      <psa10 value="0.0061873159" flag="0"/>
      <psa30 value="0.0012336834" flag="0"/>
    </comp>
    <comp name="--.HHN">
      <acc value="0.0306078469" flag="0"/>
      <vel value="0.0086513980" flag="0"/>
      <psa03 value="0.0416135794" flag="0"/>
      <psa10 value="0.0064201739" flag="0"/>
      <psa30 value="0.0013284941" flag="0"/>
    </comp>
    <comp name="--.HHZ">
      <acc value="0.0318426616" flag="0"/>
      <vel value="0.0126865223" flag="0"/>
      <psa03 value="0.0265870136" flag="0"/>
      <psa10 value="0.0065689303" flag="0"/>
      <psa30 value="0.0025970606" flag="0"/>
    </comp>
  </station>
  <station code="ABTA" name="ABTA" netid="OE" insttype="STS-2" lat="46.7474" lon="12.5123">
    <comp name="--.HHZ">
      <acc value="0.0511851804" flag="0"/>
      <vel value="0.0223675298" flag="0"/>
      <psa03 value="0.1055969008" flag="0"/>
      <psa10 value="0.0128677037" flag="0"/>
      <psa30 value="0.0014516644" flag="0"/>
    </comp>
    <comp name="--.HHE">
      <acc value="0.0688289058" flag="0"/>
      <vel value="0.0306554622" flag="0"/>
      <psa03 value="0.1681052454" flag="0"/>
      <psa10 value="0.0195613050" flag="0"/>
      <psa30 value="0.0013389725" flag="0"/>
    </comp>
    <comp name="--.HHN">
      <acc value="0.0605794611" flag="0"/>
      <vel value="0.0238805118" flag="0"/>
      <psa03 value="0.1291122758" flag="0"/>
      <psa10 value="0.0102202002" flag="0"/>
      <psa30 value="0.0019229051" flag="0"/>
    </comp>
  </station>
  <station code="KBA" name="KBA" netid="OE" insttype="STS-2" lat="47.0784" lon="13.3447">
    <comp name="--.HHZ">
      <acc value="0.0124080726" flag="0"/>
      <vel value="0.0053210901" flag="0"/>
      <psa03 value="0.0245697125" flag="0"/>
      <psa10 value="0.0010509169" flag="0"/>
      <psa30 value="0.0005733090" flag="0"/>
    </comp>
    <comp name="--.HHE">
      <acc value="0.0118345217" flag="0"/>
      <vel value="0.0033857037" flag="0"/>
      <psa03 value="0.0192917258" flag="0"/>
      <psa10 value="0.0010343489" flag="0"/>
      <psa30 value="0.0003654661" flag="0"/>
    </comp>
    <comp name="--.HHN">
      <acc value="0.0091768016" flag="0"/>
      <vel value="0.0025121173" flag="0"/>
      <psa03 value="0.0178508082" flag="0"/>
      <psa10 value="0.0008828596" flag="0"/>
      <psa30 value="0.0001802738" flag="0"/>
    </comp>
  </station>
  <station code="LESA" name="LESA" netid="OE" insttype="STS-2.5/Quanterra" lat="47.4243" lon="12.677">
    <comp name="--.HHN">
      <acc value="0.0059012368" flag="0"/>
      <vel value="0.0024732044" flag="0"/>
      <psa03 value="0.0213654280" flag="0"/>
      <psa10 value="0.0009400637" flag="0"/>
      <psa30 value="0.0002282774" flag="0"/>
    </comp>
    <comp name="--.HHE">
      <acc value="0.0096409602" flag="0"/>
      <vel value="0.0027435462" flag="0"/>
      <psa03 value="0.0250859715" flag="0"/>
      <psa10 value="0.0009436138" flag="0"/>
      <psa30 value="0.0002156366" flag="0"/>
    </comp>
    <comp name="--.HHZ">
      <acc value="0.0050096940" flag="0"/>
      <vel value="0.0019204323" flag="0"/>
      <psa03 value="0.0101880607" flag="0"/>
      <psa10 value="0.0009110255" flag="0"/>
      <psa30 value="0.0004625004" flag="0"/>
    </comp>
  </station>
  <station code="MYKA" name="MYKA" netid="OE" insttype="STS-2" lat="46.6299" lon="13.6416">
    <comp name="--.HHN">
      <acc value="0.0065282005" flag="0"/>
      <vel value="0.0022952982" flag="0"/>
      <psa03 value="0.0137438238" flag="0"/>
      <psa10 value="0.0009390270" flag="0"/>
      <psa30 value="0.0003482171" flag="0"/>
    </comp>
    <comp name="--.HHE">
      <acc value="0.0069326428" flag="0"/>
      <vel value="0.0016729178" flag="0"/>
      <psa03 value="0.0102529073" flag="0"/>
      <psa10 value="0.0007934865" flag="0"/>
      <psa30 value="0.0003659066" flag="0"/>
    </comp>
    <comp name="--.HHZ">
      <acc value="0.0050413969" flag="0"/>
      <vel value="0.0028008532" flag="0"/>
      <psa03 value="0.0089883659" flag="0"/>
      <psa10 value="0.0010636955" flag="0"/>
      <psa30 value="0.0005964469" flag="0"/>
    </comp>
  </station>
  <station code="ACOM" name="ACOM" netid="OX" insttype="" lat="46.548" lon="13.5137">
    <comp name="--.HHE">
      <acc value="0.0549583242" flag="0"/>
      <vel value="0.0184246509" flag="0"/>
      <psa03 value="0.0931747212" flag="0"/>
      <psa10 value="0.0069708823" flag="0"/>
      <psa30 value="0.0012990974" flag="0"/>
    </comp>
    <comp name="--.HHN">
      <acc value="0.0480530676" flag="0"/>
      <vel value="0.0194788535" flag="0"/>
      <psa03 value="0.0728955049" flag="0"/>
      <psa10 value="0.0102600364" flag="0"/>
      <psa30 value="0.0007102089" flag="0"/>
    </comp>
    <comp name="--.HHZ">
      <acc value="0.0236575581" flag="0"/>
      <vel value="0.0072588071" flag="0"/>
      <psa03 value="0.0476859563" flag="0"/>
      <psa10 value="0.0061042649" flag="0"/>
      <psa30 value="0.0008193335" flag="0"/>
    </comp>
  </station>
  <station code="AGOR" name="AGOR" netid="OX" insttype="" lat="46.2329" lon="12.0472">
    <comp name="--.HHE">
      <acc value="0.0255092843" flag="0"/>
      <vel value="0.0103844447" flag="0"/>
      <psa03 value="0.0450374385" flag="0"/>
      <psa10 value="0.0050286039" flag="0"/>
      <psa30 value="0.0006591747" flag="0"/>
    </comp>
    <comp name="--.HHN">
      <acc value="0.0256757771" flag="0"/>
      <vel value="0.0128379594" flag="0"/>
      <psa03 value="0.1104877809" flag="0"/>
      <psa10 value="0.0045080202" flag="0"/>
      <psa30 value="0.0006551707" flag="0"/>
    </comp>
    <comp name="--.HHZ">
      <acc value="0.0149871054" flag="0"/>
      <vel value="0.0062922157" flag="0"/>
      <psa03 value="0.0456205987" flag="0"/>
      <psa10 value="0.0043082732" flag="0"/>
      <psa30 value="0.0005078311" flag="0"/>
    </comp>
  </station>
  <station code="BAD" name="BAD" netid="OX" insttype="" lat="46.234" lon="13.2438">
    <comp name="--.HHE">
      <acc value="0.0606570512" flag="0"/>
      <vel value="0.0132648782" flag="0"/>
      <psa03 value="0.0556637954" flag="0"/>
      <psa10 value="0.0082117110" flag="0"/>
      <psa30 value="0.0010224763" flag="0"/>
    </comp>
    <comp name="--.HHN">
      <acc value="0.0457702433" flag="0"/>
      <vel value="0.0109570872" flag="0"/>
      <psa03 value="0.0599406405" flag="0"/>
      <psa10 value="0.0045007402" flag="0"/>
      <psa30 value="0.0011876300" flag="0"/>
    </comp>
    <comp name="--.HHZ">
      <acc value="0.0297007061" flag="0"/>
      <vel value="0.0093113176" flag="0"/>
      <psa03 value="0.0302596939" flag="0"/>
      <psa10 value="0.0090039007" flag="0"/>
      <psa30 value="0.0032338971" flag="0"/>
    </comp>
  </station>
  <station code="BOO" name="BOO" netid="OX" insttype="" lat="46.3195" lon="13.0984">
    <comp name="--.HHE">
      <acc value="0.1309227280" flag="0"/>
      <vel value="0.0325578358" flag="0"/>
      <psa03 value="0.0797461914" flag="0"/>
      <psa10 value="0.0101489257" flag="0"/>
      <psa30 value="0.0036898366" flag="0"/>
    </comp>
    <comp name="--.HHN">
      <acc value="0.2783632501" flag="0"/>
      <vel value="0.0484242759" flag="0"/>
      <psa03 value="0.2151298883" flag="0"/>
      <psa10 value="0.0165567308" flag="0"/>
      <psa30 value="0.0021688656" flag="0"/>
    </comp>
    <comp name="--.HHZ">
      <acc value="0.1375865804" flag="0"/>
      <vel value="0.0341682870" flag="0"/>
      <psa03 value="0.0818083750" flag="0"/>
      <psa10 value="0.0126011639" flag="0"/>
      <psa30 value="0.0038237765" flag="0"/>
    </comp>
  </station>
  <station code="CAE" name="CAE" netid="OX" insttype="" lat="46.009" lon="12.4379">
    <comp name="--.HHE">
      <acc value="0.0323673151" flag="0"/>
      <vel value="0.0109879748" flag="0"/>
      <psa03 value="0.0739401785" flag="0"/>
      <psa10 value="0.0067428214" flag="0"/>
      <psa30 value="0.0014765060" flag="0"/>
    </comp>
    <comp name="--.HHN">
      <acc value="0.0170915174" flag="0"/>
      <vel value="0.0048498843" flag="0"/>
      <psa03 value="0.0209588361" flag="0"/>
      <psa10 value="0.0042296281" flag="0"/>
      <psa30 value="0.0007698943" flag="0"/>
    </comp>
    <comp name="--.HHZ">
      <acc value="0.0120362589" flag="0"/>
      <vel value="0.0046018767" flag="0"/>
      <psa03 value="0.0221217375" flag="0"/>
      <psa10 value="0.0025872822" flag="0"/>
      <psa30 value="0.0007545816" flag="0"/>
    </comp>
  </station>
  <station code="CIMO" name="CIMO" netid="OX" insttype="" lat="46.3116" lon="12.4448">
    <comp name="--.HHE">
      <acc value="0.0559895483" flag="0"/>
      <vel value="0.0125307268" flag="0"/>
      <psa03 value="0.0506069708" flag="0"/>
      <psa10 value="0.0031906836" flag="0"/>
      <psa30 value="0.0007282574" flag="0"/>
    </comp>
    <comp name="--.HHZ">
      <acc value="0.0571903313" flag="0"/>
      <vel value="0.0149160966" flag="0"/>
      <psa03 value="0.0383676864" flag="0"/>
      <psa10 value="0.0031250415" flag="0"/>
      <psa30 value="0.0004871995" flag="0"/>
    </comp>
    <comp name="--.HHN">
      <acc value="0.0620781954" flag="0"/>
      <vel value="0.0132161912" flag="0"/>
      <psa03 value="0.0758386932" flag="0"/>
      <psa10 value="0.0043427236" flag="0"/>
      <psa30 value="0.0010235475" flag="0"/>
    </comp>
  </station>
  <station code="CLUD" name="CLUD" netid="OX" insttype="" lat="46.4569" lon="12.8814">
    <comp name="--.HHN">
      <acc value="0.9602558146" flag="0"/>
      <vel value="0.1399384222" flag="0"/>
      <psa03 value="0.5000113421" flag="0"/>
      <psa10 value="0.0572091341" flag="0"/>
      <psa30 value="0.0078881203" flag="0"/>
    </comp>
    <comp name="--.HHE">
      <acc value="0.6963414470" flag="0"/>
      <vel value="0.1362179584" flag="0"/>
      <psa03 value="0.6093411408" flag="0"/>
      <psa10 value="0.0380878887" flag="0"/>
      <psa30 value="0.0051898852" flag="0"/>
    </comp>
    <comp name="--.HHZ">
      <acc value="0.4827753705" flag="0"/>
      <vel value="0.1409872530" flag="0"/>
      <psa03 value="0.7052073886" flag="0"/>
      <psa10 value="0.0560824048" flag="0"/>
      <psa30 value="0.0052281138" flag="0"/>
    </comp>
  </station>
  <station code="DRE" name="DRE" netid="OX" insttype="" lat="46.1733" lon="13.645">
    <comp name="--.HHE">
      <acc value="0.0428387641" flag="0"/>
      <vel value="0.0086862358" flag="0"/>
      <psa03 value="0.0315385917" flag="0"/>
      <psa10 value="0.0045159543" flag="0"/>
      <psa30 value="0.0011204012" flag="0"/>
    </comp>
    <comp name="--.HHN">
      <acc value="0.0417315320" flag="0"/>
      <vel value="0.0080731589" flag="0"/>
      <psa03 value="0.0240396055" flag="0"/>
      <psa10 value="0.0038197759" flag="0"/>
      <psa30 value="0.0009249669" flag="0"/>
    </comp>
    <comp name="--.HHZ">
      <acc value="0.0141010155" flag="0"/>
      <vel value="0.0039212186" flag="0"/>
      <psa03 value="0.0158350549" flag="0"/>
      <psa10 value="0.0025597184" flag="0"/>
      <psa30 value="0.0012790763" flag="0"/>
    </comp>
  </station>
  <station code="FUSE" name="FUSE" netid="OX" insttype="" lat="46.4142" lon="13.0011">
    <comp name="--.HHE">
      <acc value="0.8207324503" flag="0"/>
      <vel value="0.1710634906" flag="0"/>
      <psa03 value="0.4539132442" flag="0"/>
      <psa10 value="0.0490768037" flag="0"/>
      <psa30 value="0.0085894200" flag="0"/>
    </comp>
    <comp name="--.HHN">
      <acc value="1.1688574027" flag="0"/>
      <vel value="0.2163006078" flag="0"/>
      <psa03 value="0.4035019123" flag="0"/>
      <psa10 value="0.0485901511" flag="0"/>
      <psa30 value="0.0059706948" flag="0"/>
