<stationlist created="1736758947">
	<station code="FUORN" name="FUORN" netid="CH" source="Switzerland Seismological Network" insttype="" lat="46.620334" lon="10.263551">
		<comp name=".HGE" depth="0.0">
			<acc value="0.002403222579258" flag="0"/>
			<vel value="0.00148282924123" flag="0"/>
			<psa03 value="0.010574401023022" flag="0"/>
			<psa10 value="0.00118969728817063" flag="0"/>
			<psa30 value="0.000171894694471687" flag="0"/>
		</comp>
		<comp name=".HGN" depth="0.0">
			<acc value="0.0031006142620086" flag="0"/>
			<vel value="0.00176877305036" flag="0"/>
			<psa03 value="0.0085472263680504" flag="0"/>
			<psa10 value="0.00157443890822505" flag="0"/>
			<psa30 value="0.000240152862073387" flag="0"/>
		</comp>
		<comp name=".HGZ" depth="0.0">
			<acc value="0.0024178770867828" flag="0"/>
			<vel value="0.00182894369892" flag="0"/>
			<psa03 value="0.0134110837309873" flag="0"/>
			<psa10 value="0.00113327913667992" flag="0"/>
			<psa30 value="0.000271109704478914" flag="0"/>
		</comp>
	</station>
	<station code="SARD" name="SARD" netid="CH" source="Switzerland Seismological Network" insttype="" lat="46.776631" lon="10.204926">
		<comp name=".HGE" depth="0.0">
			<acc value="0.003357932106306" flag="0"/>
			<vel value="0.00138055368771" flag="0"/>
			<psa03 value="0.00709920010488016" flag="0"/>
			<psa10 value="0.00149762585098939" flag="0"/>
			<psa30 value="0.000202584305632625" flag="0"/>
		</comp>
		<comp name=".HGN" depth="0.0">
			<acc value="0.0044529398102796" flag="0"/>
			<vel value="0.00191728570236" flag="0"/>
			<psa03 value="0.00682356075135742" flag="0"/>
			<psa10 value="0.00169777660999396" flag="0"/>
			<psa30 value="0.000208955899594695" flag="0"/>
		</comp>
		<comp name=".HGZ" depth="0.0">
			<acc value="0.0035972487263826" flag="0"/>
			<vel value="0.00141359101875" flag="0"/>
			<psa03 value="0.00503573105341548" flag="0"/>
			<psa10 value="0.000870144830325965" flag="0"/>
			<psa30 value="0.000237546361280592" flag="0"/>
		</comp>
	</station>
	<station code="SCUC" name="SCUC" netid="CH" source="Switzerland Seismological Network" insttype="" lat="46.798" lon="10.3038">
		<comp name=".HGE" depth="0.0">
			<acc value="0.0063655450743816" flag="0"/>
			<vel value="0.00225979439998" flag="0"/>
			<psa03 value="0.0146861486665416" flag="0"/>
			<psa10 value="0.001558875611608" flag="0"/>
			<psa30 value="0.000140014574757679" flag="0"/>
		</comp>
		<comp name=".HGN" depth="0.0">
			<acc value="0.0060627946373628" flag="0"/>
			<vel value="0.00247828005144" flag="0"/>
			<psa03 value="0.0166163754929155" flag="0"/>
			<psa10 value="0.00158720850414986" flag="0"/>
			<psa30 value="0.000217712104650001" flag="0"/>
		</comp>
		<comp name=".HGZ" depth="0.0">
			<acc value="0.0032013630245508" flag="0"/>
			<vel value="0.00125080163133" flag="0"/>
			<psa03 value="0.00689478096413483" flag="0"/>
			<psa10 value="0.00075056089285241" flag="0"/>
			<psa30 value="0.000265461674074755" flag="0"/>
		</comp>
	</station>
	<station code="STSP" name="STSP" netid="CH" source="Switzerland Seismological Network" insttype="" lat="46.62645" lon="10.33317">
		<comp name=".HGE" depth="1.0">
			<acc value="0.006528704543019" flag="0"/>
			<vel value="0.00257639984169" flag="0"/>
			<psa03 value="0.0248479351162599" flag="0"/>
			<psa10 value="0.00154861891652694" flag="0"/>
			<psa30 value="0.000170239063960775" flag="0"/>
		</comp>
		<comp name=".HGN" depth="1.0">
			<acc value="0.0079081644763458" flag="0"/>
			<vel value="0.00394945652893" flag="0"/>
			<psa03 value="0.0212597703346099" flag="0"/>
			<psa10 value="0.00282758676687308" flag="0"/>
			<psa30 value="0.000216820261715685" flag="0"/>
		</comp>
		<comp name=".HGZ" depth="1.0">
			<acc value="0.0057540698196342" flag="0"/>
			<vel value="0.00240917708665" flag="0"/>
			<psa03 value="0.0189625686771057" flag="0"/>
			<psa10 value="0.00093814099489135" flag="0"/>
			<psa30 value="0.000210833901607144" flag="0"/>
		</comp>
	</station>
	<station code="SZER" name="SZER" netid="CH" source="Switzerland Seismological Network" insttype="" lat="46.69749" lon="10.09768">
		<comp name=".HGE" depth="0.0">
			<acc value="0.0046106528118348" flag="0"/>
			<vel value="0.00188075087831" flag="0"/>
			<psa03 value="0.0117834472622148" flag="0"/>
			<psa10 value="0.00155133327602659" flag="0"/>
			<psa30 value="0.000173373711720107" flag="0"/>
		</comp>
		<comp name=".HGN" depth="0.0">
			<acc value="0.0064481042497008" flag="0"/>
			<vel value="0.0022613380356" flag="0"/>
			<psa03 value="0.0102789543677828" flag="0"/>
			<psa10 value="0.00241082540847621" flag="0"/>
			<psa30 value="0.000159572914672439" flag="0"/>
		</comp>
		<comp name=".HGZ" depth="0.0">
			<acc value="0.0043966007312556" flag="0"/>
			<vel value="0.00112384787018" flag="0"/>
			<psa03 value="0.00515317893791849" flag="0"/>
			<psa10 value="0.00102525627757148" flag="0"/>
			<psa30 value="0.000228000025757776" flag="0"/>
		</comp>
	</station>
	<station code="AVS" name="AVS" netid="IT" source="Italian Strong Motion Network (RAN)" insttype="" lat="46.2946" lon="13.0497">
		<comp name=".HNE" depth="0.0">
			<acc value="0.13925248937616" flag="0"/>
			<vel value="0.024777378692" flag="0"/>
			<psa03 value="0.0570347313959718" flag="0"/>
			<psa10 value="0.0120970066798209" flag="0"/>
			<psa30 value="0.00337310011799734" flag="0"/>
		</comp>
		<comp name=".HNN" depth="0.0">
			<acc value="0.1957706843292" flag="0"/>
			<vel value="0.0357460291354" flag="0"/>
			<psa03 value="0.0923344604548694" flag="0"/>
			<psa10 value="0.011810673336655" flag="0"/>
			<psa30 value="0.00290445157232837" flag="0"/>
		</comp>
		<comp name=".HNZ" depth="0.0">
			<acc value="0.084400585309848" flag="0"/>
			<vel value="0.0285101626858" flag="0"/>
			<psa03 value="0.0484911029226238" flag="0"/>
			<psa10 value="0.0150878935613998" flag="0"/>
			<psa30 value="0.00525237377731303" flag="0"/>
		</comp>
	</station>
	<station code="BLL" name="BLL" netid="IT" source="Italian Strong Motion Network (RAN)" insttype="" lat="46.1594" lon="12.2364">
		<comp name=".HNE" depth="0.0">
			<acc value="0.038242338458802" flag="0"/>
			<vel value="0.0175512457998" flag="0"/>
			<psa03 value="0.0736644163641861" flag="0"/>
			<psa10 value="0.00547884763426271" flag="0"/>
			<psa30 value="0.00115421364848841" flag="0"/>
		</comp>
		<comp name=".HNN" depth="0.0">
			<acc value="0.04345703217918" flag="0"/>
			<vel value="0.014727493104" flag="0"/>
			<psa03 value="0.0999156189192056" flag="0"/>
			<psa10 value="0.00567714248908125" flag="0"/>
			<psa30 value="0.00099674769630846" flag="0"/>
		</comp>
		<comp name=".HNZ" depth="0.0">
			<acc value="0.021488797214286" flag="0"/>
			<vel value="0.00758247305073" flag="0"/>
			<psa03 value="0.0260581819558342" flag="0"/>
			<psa10 value="0.00264370177289259" flag="0"/>
			<psa30 value="0.000769781098385785" flag="0"/>
		</comp>
	</station>
	<station code="CHF" name="CHF" netid="IT" source="Italian Strong Motion Network (RAN)" insttype="" lat="46.3887" lon="13.4737">
		<comp name=".HGE" depth="0.0">
			<acc value="0.029223382854654" flag="0"/>
			<vel value="0.0091163942662" flag="0"/>
			<psa03 value="0.0210836545011162" flag="0"/>
			<psa10 value="0.00630826945437343" flag="0"/>
			<psa30 value="0.0015714143068204" flag="0"/>
		</comp>
		<comp name=".HGN" depth="0.0">
			<acc value="0.039177777423996" flag="0"/>
			<vel value="0.0124628898152" flag="0"/>
			<psa03 value="0.0404656337746385" flag="0"/>
			<psa10 value="0.00467766752876304" flag="0"/>
			<psa30 value="0.000515890581468477" flag="0"/>
		</comp>
		<comp name=".HGZ" depth="0.0">
			<acc value="0.065970197175348" flag="0"/>
			<vel value="0.0130857806477" flag="0"/>
			<psa03 value="0.0301628314728797" flag="0"/>
			<psa10 value="0.00648404922393622" flag="0"/>
			<psa30 value="0.00265316138391937" flag="0"/>
		</comp>
	</station>
	<station code="CLA" name="CLA" netid="IT" source="Italian Strong Motion Network (RAN)" insttype="" lat="46.2713" lon="12.5141">
		<comp name=".HNE" depth="0.0">
			<acc value="0.09165138513861" flag="0"/>
			<vel value="0.0208533813007" flag="0"/>
			<psa03 value="0.0799154606736936" flag="0"/>
			<psa10 value="0.00568102587135232" flag="0"/>
			<psa30 value="0.00128184231159649" flag="0"/>
		</comp>
		<comp name=".HNN" depth="0.0">
			<acc value="0.093759613745634" flag="0"/>
			<vel value="0.0190101687014" flag="0"/>
			<psa03 value="0.102093096499782" flag="0"/>
			<psa10 value="0.00719265960337912" flag="0"/>
			<psa30 value="0.00142566319319008" flag="0"/>
		</comp>
		<comp name=".HNZ" depth="0.0">
			<acc value="0.089415970651908" flag="0"/>
			<vel value="0.0208638173258" flag="0"/>
			<psa03 value="0.09442001527933" flag="0"/>
			<psa10 value="0.00523701239511257" flag="0"/>
			<psa30 value="0.00169881545485482" flag="0"/>
		</comp>
	</station>
	<station code="CRD" name="CRD" netid="IT" source="Italian Strong Motion Network (RAN)" insttype="" lat="46.5248" lon="12.1172">
		<comp name=".HGE" depth="0.0">
			<acc value="0.027177612342252" flag="0"/>
			<vel value="0.0180988370962" flag="0"/>
			<psa03 value="0.0747747815872883" flag="0"/>
			<psa10 value="0.0179938701305974" flag="0"/>
			<psa30 value="0.00163970633083016" flag="0"/>
		</comp>
		<comp name=".HGN" depth="0.0">
			<acc value="0.029065313055222" flag="0"/>
			<vel value="0.0165967202005" flag="0"/>
			<psa03 value="0.0476059713703062" flag="0"/>
			<psa10 value="0.0204670802186084" flag="0"/>
			<psa30 value="0.00241728409154303" flag="0"/>
		</comp>
		<comp name=".HGZ" depth="0.0">
			<acc value="0.01441810221762" flag="0"/>
			<vel value="0.0104210669385" flag="0"/>
			<psa03 value="0.0322702132640979" flag="0"/>
			<psa10 value="0.0108311984512418" flag="0"/>
			<psa30 value="0.00191667509531908" flag="0"/>
		</comp>
	</station>
	<station code="FDS" name="FDS" netid="IT" source="Italian Strong Motion Network (RAN)" insttype="" lat="46.4513" lon="12.5627">
		<comp name=".HNE" depth="0.0">
			<acc value="0.076256612079534" flag="0"/>
			<vel value="0.0275953993957" flag="0"/>
			<psa03 value="0.163393219832063" flag="0"/>
			<psa10 value="0.0173431382728037" flag="0"/>
			<psa30 value="0.00176998371106694" flag="0"/>
		</comp>
		<comp name=".HNN" depth="0.0">
			<acc value="0.045512055533964" flag="0"/>
			<vel value="0.0200383778323" flag="0"/>
			<psa03 value="0.177196655075309" flag="0"/>
			<psa10 value="0.00865817512411523" flag="0"/>
			<psa30 value="0.00478980646783664" flag="0"/>
		</comp>
		<comp name=".HNZ" depth="0.0">
			<acc value="0.03949037703534" flag="0"/>
			<vel value="0.0136587511003" flag="0"/>
			<psa03 value="0.198195441975428" flag="0"/>
			<psa10 value="0.0112530695231204" flag="0"/>
			<psa30 value="0.00139256204206839" flag="0"/>
		</comp>
	</station>
	<station code="MAI" name="MAI" netid="IT" source="Italian Strong Motion Network (RAN)" insttype="" lat="46.1853" lon="13.0692">
		<comp name=".HGE" depth="0.0">
			<acc value="0.10791523389432" flag="0"/>
			<vel value="0.0358790534794" flag="0"/>
			<psa03 value="0.126212413036469" flag="0"/>
			<psa10 value="0.0444593752156137" flag="0"/>
			<psa30 value="0.00325383721741363" flag="0"/>
		</comp>
		<comp name=".HGN" depth="0.0">
			<acc value="0.091755446092572" flag="0"/>
			<vel value="0.0349298359849" flag="0"/>
			<psa03 value="0.174000880871232" flag="0"/>
			<psa10 value="0.0545707237926344" flag="0"/>
			<psa30 value="0.00501821951575195" flag="0"/>
		</comp>
		<comp name=".HGZ" depth="0.0">
			<acc value="0.081220594857174" flag="0"/>
			<vel value="0.0257079583317" flag="0"/>
			<psa03 value="0.073238747540969" flag="0"/>
			<psa10 value="0.0155705824121878" flag="0"/>
			<psa30 value="0.00921113019218113" flag="0"/>
		</comp>
	</station>
	<station code="MAJ" name="MAJ" netid="IT" source="Italian Strong Motion Network (RAN)" insttype="" lat="46.1822" lon="13.0689">
		<comp name=".HNE" depth="0.0">
			<acc value="0.072717022825266" flag="0"/>
			<vel value="0.0279719465993" flag="0"/>
			<psa03 value="0.158118078713341" flag="0"/>
			<psa10 value="0.0456647275642234" flag="0"/>
			<psa30 value="0.00341086991172434" flag="0"/>
		</comp>
		<comp name=".HNN" depth="0.0">
			<acc value="0.089695166391474" flag="0"/>
			<vel value="0.034757835012" flag="0"/>
			<psa03 value="0.138959101191755" flag="0"/>
			<psa10 value="0.0658106721342339" flag="0"/>
			<psa30 value="0.00538735896942461" flag="0"/>
		</comp>
		<comp name=".HNZ" depth="0.0">
			<acc value="0.062715919441314" flag="0"/>
			<vel value="0.0313679344833" flag="0"/>
			<psa03 value="0.110986643987313" flag="0"/>
			<psa10 value="0.0256834732790435" flag="0"/>
			<psa30 value="0.00996488429135934" flag="0"/>
		</comp>
	</station>
	<station code="MOV" name="MOV" netid="IT" source="Italian Strong Motion Network (RAN)" insttype="" lat="46.1551" lon="12.6551">
		<comp name=".HNE" depth="0.0">
			<acc value="0.1564198816071" flag="0"/>
			<vel value="0.047737439751" flag="0"/>
			<psa03 value="0.111519418863992" flag="0"/>
			<psa10 value="0.0162953338608928" flag="0"/>
			<psa30 value="0.00198961867747155" flag="0"/>
		</comp>
		<comp name=".HNN" depth="0.0">
			<acc value="0.1940295292587" flag="0"/>
			<vel value="0.0456666038922" flag="0"/>
			<psa03 value="0.198993828197947" flag="0"/>
			<psa10 value="0.0097337445003141" flag="0"/>
			<psa30 value="0.00303134747856044" flag="0"/>
		</comp>
		<comp name=".HNZ" depth="0.0">
			<acc value="0.15224449532484" flag="0"/>
			<vel value="0.0301301602654" flag="0"/>
			<psa03 value="0.107951192903596" flag="0"/>
			<psa10 value="0.00878451255583796" flag="0"/>
			<psa30 value="0.00324165224355086" flag="0"/>
		</comp>
	</station>
	<station code="PNAL" name="PNAL" netid="IT" source="Italian Strong Motion Network (RAN)" insttype="" lat="46.1729" lon="12.2987">
		<comp name=".HNE" depth="0.0">
			<acc value="0.0292712588112" flag="0"/>
			<vel value="0.00768335419092" flag="0"/>
			<psa03 value="0.0470588934625082" flag="0"/>
			<psa10 value="0.00264760695346873" flag="0"/>
			<psa30 value="0.000910793668943273" flag="0"/>
		</comp>
		<comp name=".HNN" depth="0.0">
			<acc value="0.0233967014367" flag="0"/>
			<vel value="0.00624445811607" flag="0"/>
			<psa03 value="0.0251782434559151" flag="0"/>
			<psa10 value="0.00275514767126065" flag="0"/>
			<psa30 value="0.000811035185435357" flag="0"/>
		</comp>
		<comp name=".HNZ" depth="0.0">
			<acc value="0.012279630660066" flag="0"/>
			<vel value="0.00451826658052" flag="0"/>
			<psa03 value="0.016917318606002" flag="0"/>
			<psa10 value="0.00311695921762543" flag="0"/>
			<psa30 value="0.00205874659019055" flag="0"/>
		</comp>
	</station>
	<station code="PVC" name="PVC" netid="IT" source="Italian Strong Motion Network (RAN)" insttype="" lat="46.417" lon="12.3735">
		<comp name=".HNE" depth="0.0">
			<acc value="0.06265219551282" flag="0"/>
			<vel value="0.0201440990396" flag="0"/>
			<psa03 value="0.0963186618886354" flag="0"/>
			<psa10 value="0.0108245614490586" flag="0"/>
			<psa30 value="0.00184480575099297" flag="0"/>
		</comp>
		<comp name=".HNN" depth="0.0">
			<acc value="0.08050545313272" flag="0"/>
			<vel value="0.0187103273761" flag="0"/>
			<psa03 value="0.0962394274728821" flag="0"/>
			<psa10 value="0.00981477330554342" flag="0"/>
			<psa30 value="0.00191507332254141" flag="0"/>
		</comp>
		<comp name=".HNZ" depth="0.0">
			<acc value="0.042803699295174" flag="0"/>
			<vel value="0.0179076653348" flag="0"/>
			<psa03 value="0.0544418252537572" flag="0"/>
			<psa10 value="0.00991614439590827" flag="0"/>
			<psa30 value="0.00233895661106496" flag="0"/>
		</comp>
	</station>
	<station code="SDF" name="SDF" netid="IT" source="Italian Strong Motion Network (RAN)" insttype="" lat="46.1669" lon="13.0075">
		<comp name=".HNE" depth="0.0">
			<acc value="0.21002060403348" flag="0"/>
			<vel value="0.047790090444" flag="0"/>
			<psa03 value="0.179162139445635" flag="0"/>
			<psa10 value="0.0182471337830706" flag="0"/>
			<psa30 value="0.00384860286771928" flag="0"/>
		</comp>
		<comp name=".HNN" depth="0.0">
			<acc value="0.21766582034874" flag="0"/>
			<vel value="0.0576575241107" flag="0"/>
			<psa03 value="0.251658316961693" flag="0"/>
			<psa10 value="0.0265089592134294" flag="0"/>
			<psa30 value="0.0051601772530754" flag="0"/>
		</comp>
		<comp name=".HNZ" depth="0.0">
			<acc value="0.060363738680016" flag="0"/>
			<vel value="0.0329437155707" flag="0"/>
			<psa03 value="0.0916973870019984" flag="0"/>
			<psa10 value="0.0190520514799136" flag="0"/>
			<psa30 value="0.0145963152675833" flag="0"/>
		</comp>
	</station>
	<station code="SPI" name="SPI" netid="IT" source="Italian Strong Motion Network (RAN)" insttype="" lat="46.1082" lon="12.9058">
		<comp name=".HNE" depth="0.0">
			<acc value="0.11337348491514" flag="0"/>
			<vel value="0.0217088628173" flag="0"/>
			<psa03 value="0.117570934330837" flag="0"/>
			<psa10 value="0.0160982039270157" flag="0"/>
			<psa30 value="0.00296122366653616" flag="0"/>
		</comp>
		<comp name=".HNN" depth="0.0">
			<acc value="0.11231113996908" flag="0"/>
			<vel value="0.0351743884349" flag="0"/>
			<psa03 value="0.198849776988615" flag="0"/>
			<psa10 value="0.0203865248822237" flag="0"/>
			<psa30 value="0.00429114760080401" flag="0"/>
		</comp>
		<comp name=".HNZ" depth="0.0">
			<acc value="0.049016297849808" flag="0"/>
			<vel value="0.0178233164789" flag="0"/>
			<psa03 value="0.0566905471371653" flag="0"/>
			<psa10 value="0.0129792376232992" flag="0"/>
			<psa30 value="0.00487926447731005" flag="0"/>
		</comp>
	</station>
	<station code="SPP" name="SPP" netid="IT" source="Italian Strong Motion Network (RAN)" insttype="" lat="46.5725" lon="12.709">
		<comp name=".HNE" depth="0.0">
			<acc value="0.61996511649378" flag="0"/>
			<vel value="0.179184230632" flag="0"/>
			<psa03 value="0.713477431045785" flag="0"/>
			<psa10 value="0.0314628330082691" flag="0"/>
			<psa30 value="0.00473879475522073" flag="0"/>
		</comp>
		<comp name=".HNN" depth="0.0">
			<acc value="0.7660970582868" flag="0"/>
			<vel value="0.154965248211" flag="0"/>
			<psa03 value="0.6074890765045" flag="0"/>
			<psa10 value="0.0327777038619966" flag="0"/>
			<psa30 value="0.00345990899365788" flag="0"/>
		</comp>
		<comp name=".HNZ" depth="0.0">
			<acc value="0.48883719674646" flag="0"/>
			<vel value="0.126239104531" flag="0"/>
			<psa03 value="0.809728390531598" flag="0"/>
			<psa10 value="0.0344654056639632" flag="0"/>
			<psa30 value="0.005390037896876" flag="0"/>
		</comp>
	</station>
	<station code="TLM2" name="TLM2" netid="IT" source="Italian Strong Motion Network (RAN)" insttype="" lat="46.3814" lon="12.9839">
		<comp name=".HGE" depth="0.0">
			<acc value="0.67781511292122" flag="0"/>
			<vel value="0.150030692295" flag="0"/>
			<psa03 value="0.956800383330677" flag="0"/>
			<psa10 value="0.0892890424609657" flag="0"/>
			<psa30 value="0.00780949900763986" flag="0"/>
		</comp>
		<comp name=".HGN" depth="0.0">
			<acc value="0.60563516964888" flag="0"/>
			<vel value="0.171207181104" flag="0"/>
			<psa03 value="0.538680476605554" flag="0"/>
			<psa10 value="0.0352845686794899" flag="0"/>
			<psa30 value="0.00350264078276005" flag="0"/>
		</comp>
		<comp name=".HGZ" depth="0.0">
			<acc value="0.36230677995288" flag="0"/>
			<vel value="0.0629416694422" flag="0"/>
			<psa03 value="0.270496919093535" flag="0"/>
			<psa10 value="0.0288790955983618" flag="0"/>
			<psa30 value="0.00695073961904897" flag="0"/>
		</comp>
	</station>
	<station code="VNZE" name="VNZE" netid="IT" source="Italian Strong Motion Network (RAN)" insttype="" lat="46.3342" lon="13.1431">
		<comp name=".HNE" depth="0.0">
			<acc value="0.5217917934717" flag="0"/>
			<vel value="0.0855661388823" flag="0"/>
			<psa03 value="0.210665288874901" flag="0"/>
			<psa10 value="0.020979632297682" flag="0"/>
			<psa30 value="0.00397674552320758" flag="0"/>
		</comp>
		<comp name=".HNN" depth="0.0">
			<acc value="0.61508436364758" flag="0"/>
			<vel value="0.0838139013408" flag="0"/>
