<stationlist xmlns:esm="https://esm-db.eu/esmws/shakemap/1/" created="1781661335">
	<station code="FUORN" name="FUORN" netid="CH" source="Switzerland Seismological Network" insttype="" lat="46.620334" lon="10.263551" esm:processing="manual (Paolucci et al 2011)" esm:quality="best">
		<comp name="--.HGE" depth="0.0">
			<acc value="0.00237166620374043" flag="0"/>
			<vel value="0.00148298524735952" flag="0"/>
			<psa03 value="0.0105739739113673" flag="0"/>
			<psa10 value="0.00118976162837067" flag="0"/>
			<psa30 value="0.000172146508027933" flag="0"/>
		</comp>
		<comp name="--.HGN" depth="0.0">
			<acc value="0.00309680597923648" flag="0"/>
			<vel value="0.00176802777842058" flag="0"/>
			<psa03 value="0.00854677777060645" flag="0"/>
			<psa10 value="0.00157463075687376" flag="0"/>
			<psa30 value="0.00024046707559686" flag="0"/>
		</comp>
		<comp name="--.HGZ" depth="0.0">
			<acc value="0.00238992419340076" flag="0"/>
			<vel value="0.00182877442557972" flag="0"/>
			<psa03 value="0.0134099742824716" flag="0"/>
			<psa10 value="0.00113342246648873" flag="0"/>
			<psa30 value="0.000271475744352197" flag="0"/>
		</comp>
	</station>
	<station code="ASGO" name="ASGO" netid="IT" source="Italian Strong Motion Network (RAN)" insttype="" lat="45.8667" lon="11.5253" esm:processing="automatic (Paolucci et al 2011)" esm:quality="best">
		<comp name="--.HNE" depth="0.0">
			<acc value="0.0256118509352003" flag="0"/>
			<vel value="0.00732646258904766" flag="0"/>
			<psa03 value="0.0253985002343263" flag="0"/>
			<psa10 value="0.00363048729884215" flag="0"/>
			<psa30 value="0.000551268341739287" flag="0"/>
		</comp>
		<comp name="--.HNN" depth="0.0">
			<acc value="0.0317023434880697" flag="0"/>
			<vel value="0.00965431030136444" flag="0"/>
			<psa03 value="0.0549055070118699" flag="0"/>
			<psa10 value="0.00350701013471052" flag="0"/>
			<psa30 value="0.000320326454430411" flag="0"/>
		</comp>
		<comp name="--.HNZ" depth="0.0">
			<acc value="0.0165587140450781" flag="0"/>
			<vel value="0.00419432642240088" flag="0"/>
			<psa03 value="0.0164662574753965" flag="0"/>
			<psa10 value="0.00198677708298311" flag="0"/>
			<psa30 value="0.000402912836831569" flag="0"/>
		</comp>
	</station>
	<station code="AVI" name="AVI" netid="IT" source="Italian Strong Motion Network (RAN)" insttype="" lat="46.0643" lon="12.6023" esm:processing="manual (Paolucci et al 2011)" esm:quality="good">
		<comp name="--.HNE" depth="0.0">
			<acc value="0.162840724029593" flag="0"/>
			<vel value="0.0484793616906844" flag="0"/>
			<psa03 value="0.174714094784502" flag="0"/>
			<psa10 value="0.0148397574360996" flag="0"/>
			<psa30 value="0.00250069357534107" flag="0"/>
		</comp>
		<comp name="--.HNN" depth="0.0">
			<acc value="0.131693960111915" flag="0"/>
			<vel value="0.0409661703688989" flag="0"/>
			<psa03 value="0.183951248367572" flag="0"/>
			<psa10 value="0.0108071621714617" flag="0"/>
			<psa30 value="0.00271035183917265" flag="0"/>
		</comp>
		<comp name="--.HNZ" depth="0.0">
			<acc value="0.0547145014533023" flag="0"/>
			<vel value="0.0171125590168638" flag="0"/>
			<psa03 value="0.0759263787081288" flag="0"/>
			<psa10 value="0.00622623230108491" flag="0"/>
			<psa30 value="0.00312674504818129" flag="0"/>
		</comp>
	</station>
	<station code="AVS" name="AVS" netid="IT" source="Italian Strong Motion Network (RAN)" insttype="" lat="46.2946" lon="13.0497" esm:processing="manual (Paolucci et al 2011)" esm:quality="best">
		<comp name="--.HNE" depth="0.0">
			<acc value="0.139252493884451" flag="0"/>
			<vel value="0.0247781560245033" flag="0"/>
			<psa03 value="0.0570347105613159" flag="0"/>
			<psa10 value="0.0120970019920233" flag="0"/>
			<psa30 value="0.00337711309216836" flag="0"/>
		</comp>
		<comp name="--.HNN" depth="0.0">
			<acc value="0.195770669923845" flag="0"/>
			<vel value="0.0357483089108549" flag="0"/>
			<psa03 value="0.0923344604548694" flag="0"/>
			<psa10 value="0.0118106714615359" flag="0"/>
			<psa30 value="0.00290309002380028" flag="0"/>
		</comp>
		<comp name="--.HNZ" depth="0.0">
			<acc value="0.0844005911472181" flag="0"/>
			<vel value="0.0285094707812062" flag="0"/>
			<psa03 value="0.0484911029226238" flag="0"/>
			<psa10 value="0.0150879113750709" flag="0"/>
			<psa30 value="0.00525025405357499" flag="0"/>
		</comp>
	</station>
	<station code="BRC" name="BRC" netid="IT" source="Italian Strong Motion Network (RAN)" insttype="" lat="46.1857" lon="12.5518" esm:processing="manual (Paolucci et al 2011)" esm:quality="good">
		<comp name="--.HGE" depth="0.0">
			<acc value="0.155250505655965" flag="0"/>
			<vel value="0.0355613695339004" flag="0"/>
			<psa03 value="0.0661479861459176" flag="0"/>
			<psa10 value="0.0168390598800809" flag="0"/>
			<psa30 value="0.00145525265334505" flag="0"/>
		</comp>
		<comp name="--.HGN" depth="0.0">
			<acc value="0.129752362362865" flag="0"/>
			<vel value="0.0256464810845751" flag="0"/>
			<psa03 value="0.0507433562900559" flag="0"/>
			<psa10 value="0.0107952832595224" flag="0"/>
			<psa30 value="0.00118557864293476" flag="0"/>
		</comp>
		<comp name="--.HGZ" depth="0.0">
			<acc value="0.0554308880038015" flag="0"/>
			<vel value="0.0106619022137787" flag="0"/>
			<psa03 value="0.0432594386421698" flag="0"/>
			<psa10 value="0.00473392922457546" flag="0"/>
			<psa30 value="0.00137207068461621" flag="0"/>
		</comp>
	</station>
	<station code="CDN" name="CDN" netid="IT" source="Italian Strong Motion Network (RAN)" insttype="" lat="45.9643" lon="12.9918" esm:processing="manual (Paolucci et al 2011)" esm:quality="best">
		<comp name="--.HGE" depth="0.0">
			<acc value="0.0416372498781657" flag="0"/>
			<vel value="0.0115463475121365" flag="0"/>
			<psa03 value="0.0828111212468501" flag="0"/>
			<psa10 value="0.00869220862864921" flag="0"/>
			<psa30 value="0.00279487077147295" flag="0"/>
		</comp>
		<comp name="--.HGN" depth="0.0">
			<acc value="0.0449874269597912" flag="0"/>
			<vel value="0.0146452543172674" flag="0"/>
			<psa03 value="0.0718163564395313" flag="0"/>
			<psa10 value="0.0143410944021269" flag="0"/>
			<psa30 value="0.00314045783158735" flag="0"/>
		</comp>
		<comp name="--.HGZ" depth="0.0">
			<acc value="0.0195049387086583" flag="0"/>
			<vel value="0.0163642063796868" flag="0"/>
			<psa03 value="0.0317907335842313" flag="0"/>
			<psa10 value="0.00665163610700877" flag="0"/>
			<psa30 value="0.00987326488865705" flag="0"/>
		</comp>
	</station>
	<station code="CHF" name="CHF" netid="IT" source="Italian Strong Motion Network (RAN)" insttype="" lat="46.3887" lon="13.4737" esm:processing="manual (Paolucci et al 2011)" esm:quality="best">
		<comp name="--.HGE" depth="0.0">
			<acc value="0.0292233821233494" flag="0"/>
			<vel value="0.00911621764562877" flag="0"/>
			<psa03 value="0.0210836545011162" flag="0"/>
			<psa10 value="0.00630827836124924" flag="0"/>
			<psa30 value="0.00156926374768867" flag="0"/>
		</comp>
		<comp name="--.HGN" depth="0.0">
			<acc value="0.0391777780256242" flag="0"/>
			<vel value="0.0124628587917448" flag="0"/>
			<psa03 value="0.0404656337746385" flag="0"/>
			<psa10 value="0.00467767831071762" flag="0"/>
			<psa30 value="0.00051560399998417" flag="0"/>
		</comp>
		<comp name="--.HGZ" depth="0.0">
			<acc value="0.0659701981971703" flag="0"/>
			<vel value="0.0130855989617778" flag="0"/>
			<psa03 value="0.0301628314728797" flag="0"/>
			<psa10 value="0.00648403094146524" flag="0"/>
			<psa30 value="0.00265115916794951" flag="0"/>
		</comp>
	</station>
	<station code="CLA" name="CLA" netid="IT" source="Italian Strong Motion Network (RAN)" insttype="" lat="46.2713" lon="12.5141" esm:processing="manual (Paolucci et al 2011)" esm:quality="best">
		<comp name="--.HNE" depth="0.0">
			<acc value="0.0916513846996055" flag="0"/>
			<vel value="0.0208534730215467" flag="0"/>
			<psa03 value="0.0799154606736936" flag="0"/>
			<psa10 value="0.0056809110199692" flag="0"/>
			<psa30 value="0.00128088839423477" flag="0"/>
		</comp>
		<comp name="--.HNN" depth="0.0">
			<acc value="0.0937596139221839" flag="0"/>
			<vel value="0.0190101058809516" flag="0"/>
			<psa03 value="0.102093096499782" flag="0"/>
			<psa10 value="0.00719230473615563" flag="0"/>
			<psa30 value="0.00142734632552288" flag="0"/>
		</comp>
		<comp name="--.HNZ" depth="0.0">
			<acc value="0.0894159723982058" flag="0"/>
			<vel value="0.0208641576720055" flag="0"/>
			<psa03 value="0.0944200465313139" flag="0"/>
			<psa10 value="0.00523698661216545" flag="0"/>
			<psa30 value="0.00169798008701198" flag="0"/>
		</comp>
	</station>
	<station code="CMO" name="CMO" netid="IT" source="Italian Strong Motion Network (RAN)" insttype="" lat="46.0941" lon="13.5207" esm:processing="manual (Paolucci et al 2011)" esm:quality="best">
		<comp name="--.HNE" depth="0.0">
			<acc value="0.0116672639318657" flag="0"/>
			<vel value="0.00430431253144532" flag="0"/>
			<psa03 value="0.012037224490375" flag="0"/>
			<psa10 value="0.00514932689886964" flag="0"/>
			<psa30 value="0.00144647311341291" flag="0"/>
		</comp>
		<comp name="--.HNN" depth="0.0">
			<acc value="0.0196371003496445" flag="0"/>
			<vel value="0.00593366721232688" flag="0"/>
			<psa03 value="0.0290984719017702" flag="0"/>
			<psa10 value="0.00453101265733267" flag="0"/>
			<psa30 value="0.000657259998582038" flag="0"/>
		</comp>
		<comp name="--.HNZ" depth="0.0">
			<acc value="0.0177551335205669" flag="0"/>
			<vel value="0.00593239649600313" flag="0"/>
			<psa03 value="0.0254409874238877" flag="0"/>
			<psa10 value="0.00564169889112767" flag="0"/>
			<psa30 value="0.00178946395987026" flag="0"/>
		</comp>
	</station>
	<station code="CRD" name="CRD" netid="IT" source="Italian Strong Motion Network (RAN)" insttype="" lat="46.5248" lon="12.1172" esm:processing="manual (Paolucci et al 2011)" esm:quality="best">
		<comp name="--.HGE" depth="0.0">
			<acc value="0.0272254711920376" flag="0"/>
			<vel value="0.0180942314112428" flag="0"/>
			<psa03 value="0.0747807767763116" flag="0"/>
			<psa10 value="0.017995936517491" flag="0"/>
			<psa30 value="0.00164095214252688" flag="0"/>
		</comp>
		<comp name="--.HGN" depth="0.0">
			<acc value="0.0283677654227968" flag="0"/>
			<vel value="0.0166149279950303" flag="0"/>
			<psa03 value="0.047604637948747" flag="0"/>
			<psa10 value="0.02046810403646" flag="0"/>
			<psa30 value="0.00242078474010631" flag="0"/>
		</comp>
		<comp name="--.HGZ" depth="0.0">
			<acc value="0.0141178565574348" flag="0"/>
			<vel value="0.0104237603260595" flag="0"/>
			<psa03 value="0.0322523943753493" flag="0"/>
			<psa10 value="0.0108319203740834" flag="0"/>
			<psa30 value="0.00191793997077519" flag="0"/>
		</comp>
	</station>
	<station code="CVF" name="CVF" netid="IT" source="Italian Strong Motion Network (RAN)" insttype="" lat="46.0918" lon="13.429" esm:processing="manual (Paolucci et al 2011)" esm:quality="best">
		<comp name="--.HNE" depth="0.0">
			<acc value="0.0287519209500454" flag="0"/>
			<vel value="0.00754213537296107" flag="0"/>
			<psa03 value="0.0310376185898912" flag="0"/>
			<psa10 value="0.0064211402127859" flag="0"/>
			<psa30 value="0.00230051156426892" flag="0"/>
		</comp>
		<comp name="--.HNN" depth="0.0">
			<acc value="0.0354638351008016" flag="0"/>
			<vel value="0.0113368700557602" flag="0"/>
			<psa03 value="0.0499768471792582" flag="0"/>
			<psa10 value="0.00902536382355689" flag="0"/>
			<psa30 value="0.00165577020748165" flag="0"/>
		</comp>
		<comp name="--.HNZ" depth="0.0">
			<acc value="0.017766137754991" flag="0"/>
			<vel value="0.00625791677400664" flag="0"/>
			<psa03 value="0.0237701736156744" flag="0"/>
			<psa10 value="0.00683296202521649" flag="0"/>
			<psa30 value="0.00324225853371637" flag="0"/>
		</comp>
	</station>
	<station code="DANT" name="DANT" netid="IT" source="Italian Strong Motion Network (RAN)" insttype="" lat="46.5675" lon="12.5199" esm:processing="manual (Paolucci et al 2011)" esm:quality="best">
		<comp name="--.HNE" depth="0.0">
			<acc value="0.205917695167792" flag="0"/>
			<vel value="0.0802633815737418" flag="0"/>
			<psa03 value="0.667846366542888" flag="0"/>
			<psa10 value="0.0356250987379341" flag="0"/>
			<psa30 value="0.00337060974468774" flag="0"/>
		</comp>
		<comp name="--.HNN" depth="0.0">
			<acc value="0.209182139372976" flag="0"/>
			<vel value="0.0840711966952927" flag="0"/>
			<psa03 value="0.458011382672881" flag="0"/>
			<psa10 value="0.0268311974351601" flag="0"/>
			<psa30 value="0.0032241490007166" flag="0"/>
		</comp>
		<comp name="--.HNZ" depth="0.0">
			<acc value="0.0774301744905183" flag="0"/>
			<vel value="0.0507044973568732" flag="0"/>
			<psa03 value="0.139176136402611" flag="0"/>
			<psa10 value="0.0289972359245563" flag="0"/>
			<psa30 value="0.00317766175449769" flag="0"/>
		</comp>
	</station>
	<station code="DRN" name="DRN" netid="IT" source="Italian Strong Motion Network (RAN)" insttype="" lat="46.1666" lon="13.6417" esm:processing="manual (Paolucci et al 2011)" esm:quality="best">
		<comp name="--.HNE" depth="0.0">
			<acc value="0.0141614745041402" flag="0"/>
			<vel value="0.00478964016992092" flag="0"/>
			<psa03 value="0.0208551862412285" flag="0"/>
			<psa10 value="0.00540311183588389" flag="0"/>
			<psa30 value="0.000942180018970125" flag="0"/>
		</comp>
		<comp name="--.HNN" depth="0.0">
			<acc value="0.0185420929025073" flag="0"/>
			<vel value="0.00531036352839992" flag="0"/>
			<psa03 value="0.0201126136119628" flag="0"/>
			<psa10 value="0.00314856185801905" flag="0"/>
			<psa30 value="0.000711674801214119" flag="0"/>
		</comp>
		<comp name="--.HNZ" depth="0.0">
			<acc value="0.0150034900049414" flag="0"/>
			<vel value="0.00435993015681609" flag="0"/>
			<psa03 value="0.0134691917470114" flag="0"/>
			<psa10 value="0.00387123801301899" flag="0"/>
			<psa30 value="0.00109192993916516" flag="0"/>
		</comp>
	</station>
	<station code="FAG" name="FAG" netid="IT" source="Italian Strong Motion Network (RAN)" insttype="" lat="46.098" lon="13.0914" esm:processing="manual (Paolucci et al 2011)" esm:quality="best">
		<comp name="--.HNE" depth="0.0">
			<acc value="0.0600782634718365" flag="0"/>
			<vel value="0.0107395163066127" flag="0"/>
			<psa03 value="0.0365038452839166" flag="0"/>
			<psa10 value="0.00572538662251632" flag="0"/>
			<psa30 value="0.00214386285372746" flag="0"/>
		</comp>
		<comp name="--.HNN" depth="0.0">
			<acc value="0.054171159782957" flag="0"/>
			<vel value="0.0132844846459127" flag="0"/>
			<psa03 value="0.0446819599605651" flag="0"/>
			<psa10 value="0.00914055082913865" flag="0"/>
			<psa30 value="0.0040727406324116" flag="0"/>
		</comp>
		<comp name="--.HNZ" depth="0.0">
			<acc value="0.0352272705981585" flag="0"/>
			<vel value="0.0256988306755647" flag="0"/>
			<psa03 value="0.0242954948739694" flag="0"/>
			<psa10 value="0.013542719013674" flag="0"/>
			<psa30 value="0.009002614712355" flag="0"/>
		</comp>
	</station>
	<station code="FDS" name="FDS" netid="IT" source="Italian Strong Motion Network (RAN)" insttype="" lat="46.4513" lon="12.5627" esm:processing="manual (Paolucci et al 2011)" esm:quality="bad">
		<comp name="--.HNE" depth="0.0">
			<acc value="0.201529339153808" flag="0"/>
			<vel value="0.0613399561666936" flag="0"/>
			<psa03 value="0.346030276974227" flag="0"/>
			<psa10 value="0.0262991159373475" flag="0"/>
			<psa30 value="0.00381740580106507" flag="0"/>
		</comp>
		<comp name="--.HNN" depth="0.0">
			<acc value="0.335190758911391" flag="0"/>
			<vel value="0.106479604183003" flag="0"/>
			<psa03 value="0.501519764890641" flag="0"/>
			<psa10 value="0.0214126078551644" flag="0"/>
			<psa30 value="0.00605667122473528" flag="0"/>
		</comp>
		<comp name="--.HNZ" depth="0.0">
			<acc value="0.212896301238552" flag="0"/>
			<vel value="0.0489678450060015" flag="0"/>
			<psa03 value="0.405776589041021" flag="0"/>
			<psa10 value="0.0282746511818951" flag="0"/>
			<psa30 value="0.00286849835727232" flag="0"/>
		</comp>
	</station>
	<station code="GAI" name="GAI" netid="IT" source="Italian Strong Motion Network (RAN)" insttype="" lat="45.6592" lon="10.6162" esm:processing="automatic (Paolucci et al 2011)" esm:quality="best">
		<comp name="--.HNE" depth="0.0">
			<acc value="0.0122052840189281" flag="0"/>
			<vel value="0.00753774819068509" flag="0"/>
			<psa03 value="0.0404229642813455" flag="0"/>
			<psa10 value="0.0051007166474566" flag="0"/>
			<psa30 value="0.000467927039538476" flag="0"/>
		</comp>
		<comp name="--.HNN" depth="0.0">
			<acc value="0.0130421686696256" flag="0"/>
			<vel value="0.00689602418525785" flag="0"/>
			<psa03 value="0.0443139876675303" flag="0"/>
			<psa10 value="0.00585272912081979" flag="0"/>
			<psa30 value="0.000742242763691933" flag="0"/>
		</comp>
		<comp name="--.HNZ" depth="0.0">
			<acc value="0.00899978577686834" flag="0"/>
			<vel value="0.00735232051026463" flag="0"/>
			<psa03 value="0.0153753753139955" flag="0"/>
			<psa10 value="0.00541710729429193" flag="0"/>
			<psa30 value="0.000537712860419524" flag="0"/>
		</comp>
	</station>
	<station code="MAI" name="MAI" netid="IT" source="Italian Strong Motion Network (RAN)" insttype="" lat="46.1853" lon="13.0692" esm:processing="manual (Paolucci et al 2011)" esm:quality="best">
		<comp name="--.HGE" depth="0.0">
			<acc value="0.107915231667135" flag="0"/>
			<vel value="0.0358785106569758" flag="0"/>
			<psa03 value="0.126212413036469" flag="0"/>
			<psa10 value="0.04445931896164" flag="0"/>
			<psa30 value="0.00325543607333053" flag="0"/>
		</comp>
		<comp name="--.HGN" depth="0.0">
			<acc value="0.0917554475625598" flag="0"/>
			<vel value="0.034930162727839" flag="0"/>
			<psa03 value="0.174000880871232" flag="0"/>
			<psa10 value="0.0545707425438247" flag="0"/>
			<psa30 value="0.00501305209007867" flag="0"/>
		</comp>
		<comp name="--.HGZ" depth="0.0">
			<acc value="0.081220594774761" flag="0"/>
			<vel value="0.0257078806386988" flag="0"/>
			<psa03 value="0.073238747540969" flag="0"/>
			<psa10 value="0.0155705627233575" flag="0"/>
			<psa30 value="0.00920939007689432" flag="0"/>
		</comp>
	</station>
	<station code="MAJ" name="MAJ" netid="IT" source="Italian Strong Motion Network (RAN)" insttype="" lat="46.1822" lon="13.0689" esm:processing="manual (Paolucci et al 2011)" esm:quality="best">
		<comp name="--.HNE" depth="0.0">
			<acc value="0.0727170224330515" flag="0"/>
			<vel value="0.027971848780827" flag="0"/>
			<psa03 value="0.158118078713341" flag="0"/>
			<psa10 value="0.0456647313143809" flag="0"/>
			<psa30 value="0.00340991922374771" flag="0"/>
		</comp>
		<comp name="--.HNN" depth="0.0">
			<acc value="0.0896951675315718" flag="0"/>
			<vel value="0.0347580591884424" flag="0"/>
			<psa03 value="0.138959101191755" flag="0"/>
			<psa10 value="0.0658106571332011" flag="0"/>
			<psa30 value="0.00538936660243633" flag="0"/>
		</comp>
		<comp name="--.HNZ" depth="0.0">
			<acc value="0.0627159194706647" flag="0"/>
			<vel value="0.0313677425583567" flag="0"/>
			<psa03 value="0.110986643987313" flag="0"/>
			<psa10 value="0.0256834507775748" flag="0"/>
			<psa30 value="0.0099603423237932" flag="0"/>
		</comp>
	</station>
	<station code="MLC" name="MLC" netid="IT" source="Italian Strong Motion Network (RAN)" insttype="" lat="45.8079" lon="10.8485" esm:processing="automatic (Paolucci et al 2011)" esm:quality="best">
		<comp name="--.HNE" depth="0.0">
			<acc value="0.0292150808404831" flag="0"/>
			<vel value="0.00992299389979058" flag="0"/>
			<psa03 value="0.0558183226899925" flag="0"/>
			<psa10 value="0.0037379593402122" flag="0"/>
			<psa30 value="0.000283639258458952" flag="0"/>
		</comp>
		<comp name="--.HNN" depth="0.0">
			<acc value="0.0265017449807309" flag="0"/>
			<vel value="0.0112067518428803" flag="0"/>
			<psa03 value="0.0581661865579316" flag="0"/>
			<psa10 value="0.00403575953674602" flag="0"/>
			<psa30 value="0.00040152972437373" flag="0"/>
		</comp>
		<comp name="--.HNZ" depth="0.0">
			<acc value="0.012131988484224" flag="0"/>
			<vel value="0.00513992235414336" flag="0"/>
			<psa03 value="0.0287719033932353" flag="0"/>
