<stationlist created="1778550953">
	<station code="0904" name="0904" netid="TK" source="Turkish National Strong Motion Network (TNSMN)" insttype="" lat="37.85716" lon="28.05025">
		<comp name="00.HNE" depth="None">
			<acc value="0.136536518074901" flag="0"/>
			<vel value="0.124236777845161" flag="0"/>
			<psa03 value="0.354000338763766" flag="0"/>
			<psa10 value="0.164474588639098" flag="0"/>
			<psa30 value="0.0410147333849035" flag="0"/>
		</comp>
		<comp name="00.HNN" depth="None">
			<acc value="0.154581801253783" flag="0"/>
			<vel value="0.0900809968271135" flag="0"/>
			<psa03 value="0.292971968936443" flag="0"/>
			<psa10 value="0.139383606589637" flag="0"/>
			<psa30 value="0.0206615035942517" flag="0"/>
		</comp>
		<comp name="00.HNZ" depth="None">
			<acc value="0.117322232256753" flag="0"/>
			<vel value="0.0751527928318899" flag="0"/>
			<psa03 value="0.333239954892888" flag="0"/>
			<psa10 value="0.169173862600215" flag="0"/>
			<psa30 value="0.0196892554444367" flag="0"/>
		</comp>
	</station>
	<station code="2007" name="2007" netid="TK" source="Turkish National Strong Motion Network (TNSMN)" insttype="" lat="37.93252" lon="28.92294">
		<comp name="00.HNE" depth="None">
			<acc value="0.109563635432635" flag="0"/>
			<vel value="0.14073832633924" flag="0"/>
			<psa03 value="0.449927629753341" flag="0"/>
			<psa10 value="0.157246485159916" flag="0"/>
			<psa30 value="0.0396335414665975" flag="0"/>
		</comp>
		<comp name="00.HNN" depth="None">
			<acc value="0.148858433539399" flag="0"/>
			<vel value="0.177429020320092" flag="0"/>
			<psa03 value="0.402187695291645" flag="0"/>
			<psa10 value="0.264137853881298" flag="0"/>
			<psa30 value="0.0546731867992633" flag="0"/>
		</comp>
		<comp name="00.HNZ" depth="None">
			<acc value="0.0486489045267497" flag="0"/>
			<vel value="0.0390770441295849" flag="0"/>
			<psa03 value="0.130289305672407" flag="0"/>
			<psa10 value="0.084433912953473" flag="0"/>
			<psa30 value="0.0149416599001718" flag="0"/>
		</comp>
	</station>
	<station code="4802" name="4802" netid="TK" source="Turkish National Strong Motion Network (TNSMN)" insttype="" lat="37.03304" lon="27.43997">
		<comp name="00.HNE" depth="None">
			<acc value="1.63966125761905" flag="0"/>
			<vel value="0.445948877984325" flag="0"/>
			<psa03 value="1.86704753997386" flag="0"/>
			<psa10 value="0.195875564087933" flag="0"/>
			<psa30 value="0.0201335455561561" flag="0"/>
		</comp>
		<comp name="00.HNN" depth="None">
			<acc value="0.903991439279008" flag="0"/>
			<vel value="0.349782849809327" flag="0"/>
			<psa03 value="1.96673317631937" flag="0"/>
			<psa10 value="0.265096231947062" flag="0"/>
			<psa30 value="0.0222825137400317" flag="0"/>
		</comp>
		<comp name="00.HNZ" depth="None">
			<acc value="0.876768293188095" flag="0"/>
			<vel value="0.318054480491215" flag="0"/>
			<psa03 value="2.14905766828883" flag="0"/>
			<psa10 value="0.124810622472" flag="0"/>
			<psa30 value="0.0223585754912828" flag="0"/>
		</comp>
	</station>
</stationlist>
