<?xml version="1.0" encoding="UTF-8" standalone="yes"?>
<!DOCTYPE earthquake SYSTEM "stationlist.dtd">
<stationlist created="" xmlns="ch.ethz.sed.shakemap.usgs.xml">
  <station code="CEYT" name="CEYT" netid="KO" insttype="CMG-3ESP" lat="37.0105" lon="35.7478">
    <comp name="--.HHZ">
      <acc value="0.0032142879" flag="0"/>
      <vel value="0.0013950189" flag="0"/>
      <psa03 value="0.0033847194" flag="0"/>
      <psa10 value="0.0032733251" flag="0"/>
      <psa30 value="0.0002136226" flag="0"/>
    </comp>
    <comp name="--.HHE">
      <acc value="0.0104222745" flag="0"/>
      <vel value="0.0025154052" flag="0"/>
      <psa03 value="0.0104687304" flag="0"/>
      <psa10 value="0.0036098422" flag="0"/>
      <psa30 value="0.0002322075" flag="0"/>
    </comp>
    <comp name="--.HHN">
      <acc value="0.0105883148" flag="0"/>
      <vel value="0.0022852265" flag="0"/>
      <psa03 value="0.0075662828" flag="0"/>
      <psa10 value="0.0025574566" flag="0"/>
      <psa30 value="0.0002157475" flag="0"/>
    </comp>
  </station>
  <station code="DARE" name="DARE" netid="KO" insttype="CMG-3ESP" lat="38.5712" lon="37.4832">
    <comp name="--.HHN">
      <acc value="0.0024847976" flag="0"/>
      <vel value="0.0015536516" flag="0"/>
      <psa03 value="0.0053125859" flag="0"/>
      <psa10 value="0.0026602178" flag="0"/>
      <psa30 value="0.0001533244" flag="0"/>
    </comp>
    <comp name="--.HHZ">
      <acc value="0.0021222145" flag="0"/>
      <vel value="0.0017522249" flag="0"/>
      <psa03 value="0.0066262786" flag="0"/>
      <psa10 value="0.0019595048" flag="0"/>
      <psa30 value="0.0002300705" flag="0"/>
    </comp>
  </station>
  <station code="GAZ" name="GAZ" netid="KO" insttype="CMG-3T" lat="37.1721" lon="37.2096">
    <comp name="--.HHE">
      <acc value="0.0178130560" flag="0"/>
      <vel value="0.0066833551" flag="0"/>
      <psa03 value="0.0250671034" flag="0"/>
      <psa10 value="0.0086877452" flag="0"/>
      <psa30 value="0.0004245440" flag="0"/>
    </comp>
    <comp name="--.HHN">
      <acc value="0.0122663189" flag="0"/>
      <vel value="0.0090198522" flag="0"/>
      <psa03 value="0.0173362088" flag="0"/>
      <psa10 value="0.0070640277" flag="0"/>
      <psa30 value="0.0005741850" flag="0"/>
    </comp>
  </station>
  <station code="KHMN" name="KHMN" netid="KO" insttype="CMG-5T" lat="37.3916" lon="37.1574">
    <comp name="--.HNE">
      <acc value="0.0556130898" flag="0"/>
      <vel value="0.0074847761" flag="0"/>
      <psa03 value="0.0452367750" flag="0"/>
      <psa10 value="0.0078757726" flag="0"/>
      <psa30 value="0.0006660041" flag="0"/>
    </comp>
    <comp name="--.HNN">
      <acc value="0.0856158140" flag="0"/>
      <vel value="0.0077132267" flag="0"/>
      <psa03 value="0.0426646957" flag="0"/>
      <psa10 value="0.0046891721" flag="0"/>
      <psa30 value="0.0006746324" flag="0"/>
    </comp>
    <comp name="--.HNZ">
      <acc value="0.0459211980" flag="0"/>
      <vel value="0.0056258137" flag="0"/>
      <psa03 value="0.0289448739" flag="0"/>
      <psa10 value="0.0026661448" flag="0"/>
      <psa30 value="0.0004636965" flag="0"/>
    </comp>
  </station>
  <station code="KMRS" name="KMRS" netid="KO" insttype="CMG-3T" lat="37.5053" lon="36.9">
    <comp name="--.HHE">
      <acc value="0.0472602360" flag="0"/>
      <vel value="0.0230938084" flag="0"/>
      <psa03 value="0.0703357683" flag="0"/>
      <psa10 value="0.0160122806" flag="0"/>
      <psa30 value="0.0017374993" flag="0"/>
    </comp>
    <comp name="--.HHN">
      <acc value="0.0209921338" flag="0"/>
      <vel value="0.0122475353" flag="0"/>
      <psa03 value="0.0688277329" flag="0"/>
      <psa10 value="0.0127918713" flag="0"/>
      <psa30 value="0.0016846800" flag="0"/>
    </comp>
    <comp name="--.HHZ">
      <acc value="0.0198114328" flag="0"/>
      <vel value="0.0134008791" flag="0"/>
      <psa03 value="0.0502120320" flag="0"/>
      <psa10 value="0.0137788574" flag="0"/>
      <psa30 value="0.0013151095" flag="0"/>
    </comp>
  </station>
  <station code="SARI" name="SARI" netid="KO" insttype="CMG-3T" lat="38.4072" lon="36.4181">
    <comp name="--.HHN">
      <acc value="0.0216432511" flag="0"/>
      <vel value="0.0105176405" flag="0"/>
      <psa03 value="0.0369241965" flag="0"/>
      <psa10 value="0.0070637564" flag="0"/>
      <psa30 value="0.0006804193" flag="0"/>
    </comp>
  </station>
  <station code="ANDN" name="ANDN" netid="TU" insttype="T" lat="37.58" lon="36.3452">
    <comp name="--.HHZ">
      <acc value="0.0788561254" flag="0"/>
      <vel value="0.0435181382" flag="0"/>
      <psa03 value="0.1727439420" flag="0"/>
      <psa10 value="0.0881308797" flag="0"/>
      <psa30 value="0.0045422053" flag="0"/>
    </comp>
    <comp name="--.HHE">
      <acc value="0.1423058931" flag="0"/>
      <vel value="0.0817905000" flag="0"/>
      <psa03 value="0.2187901265" flag="0"/>
      <psa10 value="0.0954267460" flag="0"/>
      <psa30 value="0.0042544947" flag="0"/>
    </comp>
    <comp name="--.HHN">
      <acc value="0.1550843677" flag="0"/>
      <vel value="0.0593947743" flag="0"/>
      <psa03 value="0.3057443620" flag="0"/>
      <psa10 value="0.0698510914" flag="0"/>
      <psa30 value="0.0029203407" flag="0"/>
    </comp>
  </station>
</stationlist>
