<?xml version="1.0" encoding="UTF-8" standalone="yes"?>
<!DOCTYPE earthquake SYSTEM "stationlist.dtd">
<stationlist created="" xmlns="ch.ethz.sed.shakemap.usgs.xml">
  <station code="DARE" name="DARE" netid="KO" insttype="CMG-3ESP" lat="38.5712" lon="37.4832">
    <comp name="--.HHN">
      <acc value="0.0024847977" flag="0"/>
      <vel value="0.0015536517" flag="0"/>
      <psa03 value="0.0053125859" flag="0"/>
      <psa10 value="0.0026602178" flag="0"/>
      <psa30 value="0.0001533193" flag="0"/>
    </comp>
    <comp name="--.HHZ">
      <acc value="0.0021222147" flag="0"/>
      <vel value="0.0017522255" flag="0"/>
      <psa03 value="0.0066262786" flag="0"/>
      <psa10 value="0.0019595048" flag="0"/>
      <psa30 value="0.0002300707" flag="0"/>
    </comp>
  </station>
  <station code="GAZ" name="GAZ" netid="KO" insttype="CMG-3T" lat="37.1721" lon="37.2096">
    <comp name="--.HHE">
      <acc value="0.0178130560" flag="0"/>
      <vel value="0.0066833540" flag="0"/>
      <psa03 value="0.0250671034" flag="0"/>
      <psa10 value="0.0086877452" flag="0"/>
      <psa30 value="0.0004245664" flag="0"/>
    </comp>
    <comp name="--.HHN">
      <acc value="0.0122663186" flag="0"/>
      <vel value="0.0090198523" flag="0"/>
      <psa03 value="0.0173362088" flag="0"/>
      <psa10 value="0.0070640277" flag="0"/>
      <psa30 value="0.0005741990" flag="0"/>
    </comp>
  </station>
  <station code="KHMN" name="KHMN" netid="KO" insttype="CMG-5T" lat="37.3916" lon="37.1574">
    <comp name="--.HNZ">
      <acc value="0.0459211830" flag="0"/>
      <vel value="0.0056258116" flag="0"/>
      <psa03 value="0.0289448739" flag="0"/>
      <psa10 value="0.0026661448" flag="0"/>
      <psa30 value="0.0004636471" flag="0"/>
    </comp>
    <comp name="--.HNE">
      <acc value="0.0556130835" flag="0"/>
      <vel value="0.0074847726" flag="0"/>
      <psa03 value="0.0452367750" flag="0"/>
      <psa10 value="0.0078757736" flag="0"/>
      <psa30 value="0.0006659034" flag="0"/>
    </comp>
    <comp name="--.HNN">
      <acc value="0.0856158142" flag="0"/>
      <vel value="0.0077132209" flag="0"/>
      <psa03 value="0.0426646957" flag="0"/>
      <psa10 value="0.0046891708" flag="0"/>
      <psa30 value="0.0006742983" flag="0"/>
    </comp>
  </station>
  <station code="KMRS" name="KMRS" netid="KO" insttype="CMG-3T" lat="37.5053" lon="36.9">
    <comp name="--.HHE">
      <acc value="0.0472602360" flag="0"/>
      <vel value="0.0230938081" flag="0"/>
      <psa03 value="0.0703357683" flag="0"/>
      <psa10 value="0.0160122806" flag="0"/>
      <psa30 value="0.0017375029" flag="0"/>
    </comp>
    <comp name="--.HHN">
      <acc value="0.0209921337" flag="0"/>
      <vel value="0.0122475353" flag="0"/>
      <psa03 value="0.0688277329" flag="0"/>
      <psa10 value="0.0127918716" flag="0"/>
      <psa30 value="0.0016846865" flag="0"/>
    </comp>
    <comp name="--.HHZ">
      <acc value="0.0198114328" flag="0"/>
      <vel value="0.0134008789" flag="0"/>
      <psa03 value="0.0502120320" flag="0"/>
      <psa10 value="0.0137788574" flag="0"/>
      <psa30 value="0.0013151134" flag="0"/>
    </comp>
  </station>
  <station code="ANDN" name="ANDN" netid="TU" insttype="T" lat="37.58" lon="36.3452">
    <comp name="--.HHZ">
      <acc value="0.0788561255" flag="0"/>
      <vel value="0.0435181394" flag="0"/>
      <psa03 value="0.1727439420" flag="0"/>
      <psa10 value="0.0881308746" flag="0"/>
      <psa30 value="0.0045417535" flag="0"/>
    </comp>
    <comp name="--.HHN">
      <acc value="0.1550843675" flag="0"/>
      <vel value="0.0593947742" flag="0"/>
      <psa03 value="0.3057443620" flag="0"/>
      <psa10 value="0.0698510926" flag="0"/>
      <psa30 value="0.0029202656" flag="0"/>
    </comp>
    <comp name="--.HHE">
      <acc value="0.1423058930" flag="0"/>
      <vel value="0.0817905005" flag="0"/>
      <psa03 value="0.2187901265" flag="0"/>
      <psa10 value="0.0954267461" flag="0"/>
      <psa30 value="0.0042545805" flag="0"/>
    </comp>
  </station>
</stationlist>
