<?xml version="1.0" encoding="UTF-8" standalone="yes"?>
<!DOCTYPE earthquake SYSTEM "stationlist.dtd">
<stationlist created="" xmlns="ch.ethz.sed.shakemap.usgs.xml">
  <station code="THERA" name="THERA" netid="GE" insttype="STS-2/N" lat="36.367" lon="25.4753">
    <comp name="--.HHZ">
      <acc value="0.0726589826" flag="0"/>
      <vel value="0.0152633949" flag="0"/>
      <psa03 value="0.0484939859" flag="0"/>
      <psa10 value="0.0044335067" flag="0"/>
      <psa30 value="0.0005063790" flag="0"/>
    </comp>
    <comp name="--.HHN">
      <acc value="0.0993429070" flag="0"/>
      <vel value="0.0156340598" flag="0"/>
      <psa03 value="0.0727821294" flag="0"/>
      <psa10 value="0.0030545579" flag="0"/>
      <psa30 value="0.0003823923" flag="0"/>
    </comp>
    <comp name="--.HHE">
      <acc value="0.1181140849" flag="0"/>
      <vel value="0.0232333386" flag="0"/>
      <psa03 value="0.0682593447" flag="0"/>
      <psa10 value="0.0050557467" flag="0"/>
      <psa30 value="0.0007772300" flag="0"/>
    </comp>
  </station>
  <station code="SNT1" name="SNT1" netid="HA" insttype="30" lat="36.4159" lon="25.4282">
    <comp name="--.HHZ">
      <acc value="0.0665278798" flag="0"/>
      <vel value="0.0134854010" flag="0"/>
      <psa03 value="0.0424883502" flag="0"/>
      <psa10 value="0.0057483756" flag="0"/>
      <psa30 value="0.0005216915" flag="0"/>
    </comp>
    <comp name="--.HHN">
      <acc value="0.0684514006" flag="0"/>
      <vel value="0.0136682356" flag="0"/>
      <psa03 value="0.0537364740" flag="0"/>
      <psa10 value="0.0093234674" flag="0"/>
      <psa30 value="0.0010948327" flag="0"/>
    </comp>
    <comp name="--.HHE">
      <acc value="0.0668780714" flag="0"/>
      <vel value="0.0150950660" flag="0"/>
      <psa03 value="0.0654216305" flag="0"/>
      <psa10 value="0.0114148926" flag="0"/>
      <psa30 value="0.0012586713" flag="0"/>
    </comp>
  </station>
  <station code="NAX1" name="NAX1" netid="HI" insttype="CMG-5TD,ACCELEROMETER,GURALP" lat="37.1014" lon="25.3741">
    <comp name="--.HNE">
      <acc value="0.1078678134" flag="0"/>
      <vel value="0.0241678341" flag="0"/>
      <psa03 value="0.1044628570" flag="0"/>
      <psa10 value="0.0065958292" flag="0"/>
      <psa30 value="0.0006630184" flag="0"/>
    </comp>
    <comp name="--.HNZ">
      <acc value="0.0608325293" flag="0"/>
      <vel value="0.0125438982" flag="0"/>
      <psa03 value="0.0827960550" flag="0"/>
      <psa10 value="0.0060087386" flag="0"/>
      <psa30 value="0.0005823838" flag="0"/>
    </comp>
    <comp name="--.HNN">
      <acc value="0.0800449270" flag="0"/>
      <vel value="0.0165057796" flag="0"/>
      <psa03 value="0.0398769621" flag="0"/>
      <psa10 value="0.0037912848" flag="0"/>
      <psa30 value="0.0005494857" flag="0"/>
    </comp>
  </station>
  <station code="AMGA" name="AMGA" netid="HL" insttype="SMART24" lat="36.8316" lon="25.8938">
    <comp name="--.HHE">
      <acc value="0.4234016408" flag="0"/>
      <vel value="0.0721420268" flag="0"/>
      <psa03 value="0.2358155777" flag="0"/>
      <psa10 value="0.0150274361" flag="0"/>
      <psa30 value="0.0018178459" flag="0"/>
    </comp>
    <comp name="--.HHZ">
      <acc value="0.3049813778" flag="0"/>
      <vel value="0.0729021676" flag="0"/>
      <psa03 value="0.1266949601" flag="0"/>
      <psa10 value="0.0181814021" flag="0"/>
      <psa30 value="0.0014881774" flag="0"/>
    </comp>
    <comp name="--.HHN">
      <acc value="0.4443028810" flag="0"/>
      <vel value="0.0750326212" flag="0"/>
      <psa03 value="0.1794270400" flag="0"/>
      <psa10 value="0.0161268288" flag="0"/>
      <psa30 value="0.0013824312" flag="0"/>
    </comp>
  </station>
  <station code="APE" name="APE" netid="HL" insttype="120" lat="37.0727" lon="25.523">
    <comp name="--.HHE">
      <acc value="0.1269300167" flag="0"/>
      <vel value="0.0250122167" flag="0"/>
      <psa03 value="0.0738154875" flag="0"/>
      <psa10 value="0.0057839368" flag="0"/>
      <psa30 value="0.0007998431" flag="0"/>
    </comp>
    <comp name="--.HHN">
      <acc value="0.1526620392" flag="0"/>
      <vel value="0.0252116996" flag="0"/>
      <psa03 value="0.0637522293" flag="0"/>
      <psa10 value="0.0057160104" flag="0"/>
      <psa30 value="0.0007761337" flag="0"/>
    </comp>
    <comp name="--.HHZ">
      <acc value="0.0554378081" flag="0"/>
      <vel value="0.0090260964" flag="0"/>
      <psa03 value="0.0425329712" flag="0"/>
      <psa10 value="0.0077639567" flag="0"/>
      <psa30 value="0.0007347198" flag="0"/>
    </comp>
  </station>
  <station code="MHLO" name="MHLO" netid="HL" insttype="20" lat="36.6898" lon="24.4017">
    <comp name="--.HHZ">
      <acc value="0.0330971876" flag="0"/>
      <vel value="0.0121490253" flag="0"/>
      <psa03 value="0.0686500075" flag="0"/>
      <psa10 value="0.0139580560" flag="0"/>
      <psa30 value="0.0006021544" flag="0"/>
    </comp>
    <comp name="--.HHN">
      <acc value="0.0925058483" flag="0"/>
      <vel value="0.0323529391" flag="0"/>
      <psa03 value="0.2343663776" flag="0"/>
      <psa10 value="0.0203362233" flag="0"/>
      <psa30 value="0.0008981992" flag="0"/>
    </comp>
    <comp name="--.HHE">
      <acc value="0.0776915329" flag="0"/>
      <vel value="0.0262488767" flag="0"/>
      <psa03 value="0.1548112397" flag="0"/>
      <psa10 value="0.0202077386" flag="0"/>
      <psa30 value="0.0010604883" flag="0"/>
    </comp>
  </station>
  <station code="SAP3" name="SAP3" netid="HL" insttype="LE3D20_SMART24" lat="36.4356" lon="25.3454">
    <comp name="--.HHE">
      <acc value="0.3115571180" flag="0"/>
      <vel value="0.0685222751" flag="0"/>
      <psa03 value="0.3015033398" flag="0"/>
      <psa10 value="0.0478192452" flag="0"/>
      <psa30 value="0.0054846499" flag="0"/>
    </comp>
    <comp name="--.HHN">
      <acc value="0.3026362154" flag="0"/>
      <vel value="0.0742589388" flag="0"/>
      <psa03 value="0.4649162918" flag="0"/>
      <psa10 value="0.0410002543" flag="0"/>
      <psa30 value="0.0039938482" flag="0"/>
    </comp>
    <comp name="--.HHZ">
      <acc value="0.3245172797" flag="0"/>
      <vel value="0.0665104680" flag="0"/>
      <psa03 value="0.2795925054" flag="0"/>
      <psa10 value="0.0153286180" flag="0"/>
      <psa30 value="0.0019067366" flag="0"/>
    </comp>
  </station>
  <station code="THERA" name="THERA" netid="HL" insttype="120" lat="36.367" lon="25.4753">
    <comp name="--.HHE">
      <acc value="0.1222536510" flag="0"/>
      <vel value="0.0228352060" flag="0"/>
      <psa03 value="0.0663045872" flag="0"/>
      <psa10 value="0.0049542341" flag="0"/>
      <psa30 value="0.0007765847" flag="0"/>
    </comp>
    <comp name="--.HHN">
      <acc value="0.0990117719" flag="0"/>
      <vel value="0.0153019820" flag="0"/>
      <psa03 value="0.0705838575" flag="0"/>
      <psa10 value="0.0029908851" flag="0"/>
      <psa30 value="0.0003827859" flag="0"/>
    </comp>
    <comp name="--.HHZ">
      <acc value="0.0740357419" flag="0"/>
      <vel value="0.0148503377" flag="0"/>
      <psa03 value="0.0470294260" flag="0"/>
      <psa10 value="0.0043867622" flag="0"/>
      <psa30 value="0.0005049229" flag="0"/>
    </comp>
  </station>
  <station code="THRA" name="THRA" netid="HL" insttype="CMG-5" lat="36.415" lon="25.4324">
    <comp name="00.HNE">
      <acc value="0.2257658014" flag="0"/>
      <vel value="0.0580627035" flag="0"/>
      <psa03 value="0.2956729513" flag="0"/>
      <psa10 value="0.0256631117" flag="0"/>
      <psa30 value="0.0024899867" flag="0"/>
    </comp>
    <comp name="00.HNN">
      <acc value="0.1894754100" flag="0"/>
      <vel value="0.0686731708" flag="0"/>
      <psa03 value="0.2409282982" flag="0"/>
      <psa10 value="0.0261004621" flag="0"/>
      <psa30 value="0.0025294056" flag="0"/>
    </comp>
    <comp name="00.HNZ">
      <acc value="0.1952212128" flag="0"/>
      <vel value="0.0343174054" flag="0"/>
      <psa03 value="0.1367127745" flag="0"/>
      <psa10 value="0.0129552214" flag="0"/>
      <psa30 value="0.0009769481" flag="0"/>
    </comp>
  </station>
  <station code="TNSA" name="TNSA" netid="HL" insttype="CMG-5" lat="37.5394" lon="25.1631">
    <comp name="00.HNE">
      <acc value="0.0402767722" flag="0"/>
      <vel value="0.0072016585" flag="0"/>
      <psa03 value="0.0289156978" flag="0"/>
      <psa10 value="0.0028354377" flag="0"/>
      <psa30 value="0.0003985351" flag="0"/>
    </comp>
    <comp name="00.HNN">
      <acc value="0.0368130823" flag="0"/>
      <vel value="0.0143798730" flag="0"/>
      <psa03 value="0.0681525338" flag="0"/>
      <psa10 value="0.0043159114" flag="0"/>
      <psa30 value="0.0004641788" flag="0"/>
    </comp>
    <comp name="00.HNZ">
      <acc value="0.0243099361" flag="0"/>
      <vel value="0.0066026918" flag="0"/>
      <psa03 value="0.0303915690" flag="0"/>
      <psa10 value="0.0042260996" flag="0"/>
      <psa30 value="0.0003034517" flag="0"/>
    </comp>
  </station>
</stationlist>
