<?xml version="1.0" encoding="UTF-8" standalone="yes"?>
<!DOCTYPE earthquake SYSTEM "stationlist.dtd">
<stationlist created="" xmlns="ch.ethz.sed.shakemap.usgs.xml">
  <station code="THERA" name="THERA" netid="GE" insttype="STS-2/N" lat="36.367" lon="25.4753">
    <comp name="--.HHZ">
      <acc value="0.0726589826" flag="0"/>
      <vel value="0.0152633949" flag="0"/>
      <psa03 value="0.0484939859" flag="0"/>
      <psa10 value="0.0044335067" flag="0"/>
      <psa30 value="0.0005063790" flag="0"/>
    </comp>
    <comp name="--.HHN">
      <acc value="0.0993429070" flag="0"/>
      <vel value="0.0156340598" flag="0"/>
      <psa03 value="0.0727821294" flag="0"/>
      <psa10 value="0.0030545579" flag="0"/>
      <psa30 value="0.0003823923" flag="0"/>
    </comp>
    <comp name="--.HHE">
      <acc value="0.1181140849" flag="0"/>
      <vel value="0.0232333386" flag="0"/>
      <psa03 value="0.0682593447" flag="0"/>
      <psa10 value="0.0050557467" flag="0"/>
      <psa30 value="0.0007772300" flag="0"/>
    </comp>
  </station>
  <station code="SAP3" name="SAP3" netid="HL" insttype="LE3D20_SMART24" lat="36.4356" lon="25.3454">
    <comp name="--.HHE">
      <acc value="0.3115571180" flag="0"/>
      <vel value="0.0685222751" flag="0"/>
      <psa03 value="0.3015033398" flag="0"/>
      <psa10 value="0.0478192452" flag="0"/>
      <psa30 value="0.0054846499" flag="0"/>
    </comp>
    <comp name="--.HHN">
      <acc value="0.3026362154" flag="0"/>
      <vel value="0.0742589388" flag="0"/>
      <psa03 value="0.4649162918" flag="0"/>
      <psa10 value="0.0410002543" flag="0"/>
      <psa30 value="0.0039938482" flag="0"/>
    </comp>
    <comp name="--.HHZ">
      <acc value="0.3245172797" flag="0"/>
      <vel value="0.0665104680" flag="0"/>
      <psa03 value="0.2795925054" flag="0"/>
      <psa10 value="0.0153286180" flag="0"/>
      <psa30 value="0.0019067366" flag="0"/>
    </comp>
  </station>
  <station code="THERA" name="THERA" netid="HL" insttype="120" lat="36.367" lon="25.4753">
    <comp name="--.HHE">
      <acc value="0.1222536510" flag="0"/>
      <vel value="0.0228352060" flag="0"/>
      <psa03 value="0.0663045872" flag="0"/>
      <psa10 value="0.0049542341" flag="0"/>
      <psa30 value="0.0007765847" flag="0"/>
    </comp>
    <comp name="--.HHN">
      <acc value="0.0990117719" flag="0"/>
      <vel value="0.0153019820" flag="0"/>
      <psa03 value="0.0705838575" flag="0"/>
      <psa10 value="0.0029908851" flag="0"/>
      <psa30 value="0.0003827859" flag="0"/>
    </comp>
    <comp name="--.HHZ">
      <acc value="0.0740357419" flag="0"/>
      <vel value="0.0148503377" flag="0"/>
      <psa03 value="0.0470294260" flag="0"/>
      <psa10 value="0.0043867622" flag="0"/>
      <psa30 value="0.0005049229" flag="0"/>
    </comp>
  </station>
  <station code="THRA" name="THRA" netid="HL" insttype="CMG-5" lat="36.415" lon="25.4324">
    <comp name="00.HNE">
      <acc value="0.2257658014" flag="0"/>
      <vel value="0.0580627035" flag="0"/>
      <psa03 value="0.2956729513" flag="0"/>
      <psa10 value="0.0256631117" flag="0"/>
      <psa30 value="0.0024899867" flag="0"/>
    </comp>
    <comp name="00.HNN">
      <acc value="0.1894754100" flag="0"/>
      <vel value="0.0686731708" flag="0"/>
      <psa03 value="0.2409282982" flag="0"/>
      <psa10 value="0.0261004621" flag="0"/>
      <psa30 value="0.0025294056" flag="0"/>
    </comp>
    <comp name="00.HNZ">
      <acc value="0.1952212128" flag="0"/>
      <vel value="0.0343174054" flag="0"/>
      <psa03 value="0.1367127745" flag="0"/>
      <psa10 value="0.0129552214" flag="0"/>
      <psa30 value="0.0009769481" flag="0"/>
    </comp>
  </station>
  <station code="TNSA" name="TNSA" netid="HL" insttype="CMG-5" lat="37.5394" lon="25.1631">
    <comp name="00.HNE">
      <acc value="0.0402767722" flag="0"/>
      <vel value="0.0072016585" flag="0"/>
      <psa03 value="0.0289156978" flag="0"/>
      <psa10 value="0.0028354377" flag="0"/>
      <psa30 value="0.0003985351" flag="0"/>
    </comp>
    <comp name="00.HNN">
      <acc value="0.0368130823" flag="0"/>
      <vel value="0.0143798730" flag="0"/>
      <psa03 value="0.0681525338" flag="0"/>
      <psa10 value="0.0043159114" flag="0"/>
      <psa30 value="0.0004641788" flag="0"/>
    </comp>
    <comp name="00.HNZ">
      <acc value="0.0243099361" flag="0"/>
      <vel value="0.0066026918" flag="0"/>
      <psa03 value="0.0303915690" flag="0"/>
      <psa10 value="0.0042260996" flag="0"/>
      <psa30 value="0.0003034517" flag="0"/>
    </comp>
  </station>
</stationlist>
