<?xml version="1.0" encoding="UTF-8" standalone="yes"?>
<!DOCTYPE earthquake SYSTEM "stationlist.dtd">
<stationlist created="" xmlns="ch.ethz.sed.shakemap.usgs.xml">
  <station code="CAYL" name="CAYL" netid="KO" insttype="CMG-6T" lat="40.3745" lon="36.159">
    <comp name="--.HHN">
      <acc value="0.0511620212" flag="0"/>
      <vel value="0.0247973510" flag="0"/>
      <psa03 value="0.0934011614" flag="0"/>
      <psa10 value="0.0243288201" flag="0"/>
      <psa30 value="0.0009169864" flag="0"/>
    </comp>
    <comp name="--.HHE">
      <acc value="0.0606753572" flag="0"/>
      <vel value="0.0199519500" flag="0"/>
      <psa03 value="0.1198619552" flag="0"/>
      <psa10 value="0.0170213930" flag="0"/>
      <psa30 value="0.0009295256" flag="0"/>
    </comp>
    <comp name="--.HHZ">
      <acc value="0.0417618032" flag="0"/>
      <vel value="0.0192224339" flag="0"/>
      <psa03 value="0.0457449924" flag="0"/>
      <psa10 value="0.0184829032" flag="0"/>
      <psa30 value="0.0009215695" flag="0"/>
    </comp>
  </station>
  <station code="CORM" name="CORM" netid="KO" insttype="CMG-3ESP" lat="40.1785" lon="34.6302">
    <comp name="--.HHE">
      <acc value="0.0035321564" flag="0"/>
      <vel value="0.0024874880" flag="0"/>
      <psa03 value="0.0096277100" flag="0"/>
      <psa10 value="0.0049343659" flag="0"/>
      <psa30 value="0.0007298090" flag="0"/>
    </comp>
    <comp name="--.HHN">
      <acc value="0.0052124365" flag="0"/>
      <vel value="0.0039900383" flag="0"/>
      <psa03 value="0.0104807131" flag="0"/>
      <psa10 value="0.0059812607" flag="0"/>
      <psa30 value="0.0011180253" flag="0"/>
    </comp>
    <comp name="--.HHZ">
      <acc value="0.0036088888" flag="0"/>
      <vel value="0.0026351192" flag="0"/>
      <psa03 value="0.0092335478" flag="0"/>
      <psa10 value="0.0025671033" flag="0"/>
      <psa30 value="0.0009563084" flag="0"/>
    </comp>
  </station>
  <station code="KVT" name="KVT" netid="KO" insttype="CMG-3T" lat="41.0807" lon="36.0463">
    <comp name="--.HHE">
      <acc value="0.0056816587" flag="0"/>
      <vel value="0.0058352421" flag="0"/>
      <psa03 value="0.0141249178" flag="0"/>
      <psa10 value="0.0098270910" flag="0"/>
      <psa30 value="0.0007729324" flag="0"/>
    </comp>
    <comp name="--.HHN">
      <acc value="0.0046215064" flag="0"/>
      <vel value="0.0054339549" flag="0"/>
      <psa03 value="0.0113308528" flag="0"/>
      <psa10 value="0.0141186855" flag="0"/>
      <psa30 value="0.0010465627" flag="0"/>
    </comp>
    <comp name="--.HHZ">
      <acc value="0.0035354664" flag="0"/>
      <vel value="0.0036586534" flag="0"/>
      <psa03 value="0.0087909576" flag="0"/>
      <psa10 value="0.0051623635" flag="0"/>
      <psa30 value="0.0006745285" flag="0"/>
    </comp>
  </station>
  <station code="RSDY" name="RSDY" netid="KO" insttype="CMG-3T" lat="40.3971" lon="37.3273">
    <comp name="--.HHN">
      <acc value="0.0108416598" flag="0"/>
      <vel value="0.0116283976" flag="0"/>
      <psa03 value="0.0146945137" flag="0"/>
      <psa10 value="0.0255638301" flag="0"/>
      <psa30 value="0.0014923991" flag="0"/>
    </comp>
    <comp name="--.HHE">
      <acc value="0.0138160240" flag="0"/>
      <vel value="0.0120769630" flag="0"/>
      <psa03 value="0.0309404043" flag="0"/>
      <psa10 value="0.0110971389" flag="0"/>
      <psa30 value="0.0010593688" flag="0"/>
    </comp>
  </station>
  <station code="TOKT" name="TOKT" netid="KO" insttype="CMG-3T" lat="40.3173" lon="36.5443">
    <comp name="--.HHZ">
      <acc value="0.0000530289" flag="0"/>
      <vel value="0.0000058091" flag="0"/>
      <psa03 value="0.0000150285" flag="0"/>
      <psa10 value="0.0000045466" flag="0"/>
      <psa30 value="0.0000006464" flag="0"/>
    </comp>
    <comp name="--.HHE">
      <acc value="0.0167652983" flag="0"/>
      <vel value="0.0075939420" flag="0"/>
      <psa03 value="0.0218372526" flag="0"/>
      <psa10 value="0.0133339548" flag="0"/>
      <psa30 value="0.0021669956" flag="0"/>
    </comp>
  </station>
  <station code="YOZ" name="YOZ" netid="KO" insttype="CMG-3T" lat="39.6376" lon="35.3152">
    <comp name="--.HHN">
      <acc value="0.0597614797" flag="0"/>
      <vel value="0.0204303735" flag="0"/>
      <psa03 value="0.1048475862" flag="0"/>
      <psa10 value="0.0186488204" flag="0"/>
      <psa30 value="0.0014940139" flag="0"/>
    </comp>
    <comp name="--.HHZ">
      <acc value="0.0462743898" flag="0"/>
      <vel value="0.0111883000" flag="0"/>
      <psa03 value="0.0461912183" flag="0"/>
      <psa10 value="0.0129280972" flag="0"/>
      <psa30 value="0.0031987380" flag="0"/>
    </comp>
  </station>
</stationlist>
