<?xml version="1.0" encoding="UTF-8" standalone="yes"?>
<!DOCTYPE earthquake SYSTEM "stationlist.dtd">
<stationlist created="" xmlns="ch.ethz.sed.shakemap.usgs.xml">
  <station code="ARPRA" name="ARPRA" netid="KO" insttype="CMG-5T" lat="39.0929" lon="38.3356">
    <comp name="--.HNN">
      <acc value="0.0321627480" flag="0"/>
      <vel value="0.0316728755" flag="0"/>
      <psa03 value="0.1048349511" flag="0"/>
      <psa10 value="0.0313669301" flag="0"/>
      <psa30 value="0.0017903251" flag="0"/>
    </comp>
    <comp name="--.HNZ">
      <acc value="0.0177960305" flag="0"/>
      <vel value="0.0117396992" flag="0"/>
      <psa03 value="0.0404729475" flag="0"/>
      <psa10 value="0.0239082925" flag="0"/>
      <psa30 value="0.0009132553" flag="0"/>
    </comp>
    <comp name="--.HNE">
      <acc value="0.0363549381" flag="0"/>
      <vel value="0.0280496369" flag="0"/>
      <psa03 value="0.1116708545" flag="0"/>
      <psa10 value="0.0286553560" flag="0"/>
      <psa30 value="0.0039004753" flag="0"/>
    </comp>
  </station>
  <station code="DARE" name="DARE" netid="KO" insttype="CMG-3ESP" lat="38.5712" lon="37.4832">
    <comp name="--.HHZ">
      <acc value="0.0055588454" flag="0"/>
      <vel value="0.0051507513" flag="0"/>
      <psa03 value="0.0167123615" flag="0"/>
      <psa10 value="0.0066921015" flag="0"/>
      <psa30 value="0.0007052788" flag="0"/>
    </comp>
    <comp name="--.HHE">
      <acc value="0.0045641038" flag="0"/>
      <vel value="0.0047800935" flag="0"/>
      <psa03 value="0.0133561523" flag="0"/>
      <psa10 value="0.0115500631" flag="0"/>
      <psa30 value="0.0005070122" flag="0"/>
    </comp>
  </station>
  <station code="SVRC" name="SVRC" netid="KO" insttype="CMG-3T" lat="38.3775" lon="39.306">
    <comp name="--.HHZ">
      <acc value="0.0381296166" flag="0"/>
      <vel value="0.0197137134" flag="0"/>
      <psa03 value="0.0925113204" flag="0"/>
      <psa10 value="0.0197660161" flag="0"/>
      <psa30 value="0.0020525768" flag="0"/>
    </comp>
  </station>
  <station code="URFA" name="URFA" netid="KO" insttype="CMG-3ESP" lat="37.4409" lon="38.8213">
    <comp name="--.HHZ">
      <acc value="0.0297285188" flag="0"/>
      <vel value="0.0115073829" flag="0"/>
      <psa03 value="0.0232001636" flag="0"/>
      <psa10 value="0.0139827351" flag="0"/>
      <psa30 value="0.0015630883" flag="0"/>
    </comp>
    <comp name="--.HHE">
      <acc value="0.0527563153" flag="0"/>
      <vel value="0.0152437562" flag="0"/>
      <psa03 value="0.0528975899" flag="0"/>
      <psa10 value="0.0129154030" flag="0"/>
      <psa30 value="0.0018932999" flag="0"/>
    </comp>
    <comp name="--.HHN">
      <acc value="0.0454146663" flag="0"/>
      <vel value="0.0150871529" flag="0"/>
      <psa03 value="0.0357955826" flag="0"/>
      <psa10 value="0.0109736577" flag="0"/>
      <psa30 value="0.0018519124" flag="0"/>
    </comp>
  </station>
</stationlist>
