<?xml version="1.0" encoding="UTF-8" standalone="yes"?>
<!DOCTYPE earthquake SYSTEM "stationlist.dtd">
<stationlist created="" xmlns="ch.ethz.sed.shakemap.usgs.xml">
  <station code="ARPRA" name="ARPRA" netid="KO" insttype="CMG-5T" lat="39.0929" lon="38.3356">
    <comp name="--.HNE">
      <acc value="0.0363549340" flag="0"/>
      <vel value="0.0280496284" flag="0"/>
      <psa03 value="0.1116708545" flag="0"/>
      <psa10 value="0.0286553541" flag="0"/>
      <psa30 value="0.0039012247" flag="0"/>
    </comp>
    <comp name="--.HNN">
      <acc value="0.0321627519" flag="0"/>
      <vel value="0.0316728759" flag="0"/>
      <psa03 value="0.1048349511" flag="0"/>
      <psa10 value="0.0313669298" flag="0"/>
      <psa30 value="0.0017894739" flag="0"/>
    </comp>
    <comp name="--.HNZ">
      <acc value="0.0177960244" flag="0"/>
      <vel value="0.0117397080" flag="0"/>
      <psa03 value="0.0404729475" flag="0"/>
      <psa10 value="0.0239082927" flag="0"/>
      <psa30 value="0.0009133013" flag="0"/>
    </comp>
  </station>
  <station code="DARE" name="DARE" netid="KO" insttype="CMG-3ESP" lat="38.5712" lon="37.4832">
    <comp name="--.HHE">
      <acc value="0.0045641038" flag="0"/>
      <vel value="0.0047800936" flag="0"/>
      <psa03 value="0.0133561523" flag="0"/>
      <psa10 value="0.0115500631" flag="0"/>
      <psa30 value="0.0005070160" flag="0"/>
    </comp>
    <comp name="--.HHZ">
      <acc value="0.0055588454" flag="0"/>
      <vel value="0.0051507523" flag="0"/>
      <psa03 value="0.0167123615" flag="0"/>
      <psa10 value="0.0066921015" flag="0"/>
      <psa30 value="0.0007052741" flag="0"/>
    </comp>
  </station>
  <station code="SVRC" name="SVRC" netid="KO" insttype="CMG-3T" lat="38.3775" lon="39.306">
    <comp name="--.HHZ">
      <acc value="0.0381296165" flag="0"/>
      <vel value="0.0197137135" flag="0"/>
      <psa03 value="0.0925113204" flag="0"/>
      <psa10 value="0.0197660161" flag="0"/>
      <psa30 value="0.0020526535" flag="0"/>
    </comp>
  </station>
  <station code="URFA" name="URFA" netid="KO" insttype="CMG-3ESP" lat="37.4409" lon="38.8213">
    <comp name="--.HHN">
      <acc value="0.0454146662" flag="0"/>
      <vel value="0.0150871521" flag="0"/>
      <psa03 value="0.0357955826" flag="0"/>
      <psa10 value="0.0109736575" flag="0"/>
      <psa30 value="0.0018519128" flag="0"/>
    </comp>
    <comp name="--.HHE">
      <acc value="0.0527563152" flag="0"/>
      <vel value="0.0152437555" flag="0"/>
      <psa03 value="0.0528975899" flag="0"/>
      <psa10 value="0.0129154030" flag="0"/>
      <psa30 value="0.0018933002" flag="0"/>
    </comp>
    <comp name="--.HHZ">
      <acc value="0.0297285188" flag="0"/>
      <vel value="0.0115073845" flag="0"/>
      <psa03 value="0.0232001636" flag="0"/>
      <psa10 value="0.0139827349" flag="0"/>
      <psa30 value="0.0015630931" flag="0"/>
    </comp>
  </station>
</stationlist>
