<?xml version="1.0" encoding="UTF-8" standalone="yes"?>
<!DOCTYPE earthquake SYSTEM "stationlist.dtd">
<stationlist created="" xmlns="ch.ethz.sed.shakemap.usgs.xml">
  <station code="ARPRA" name="ARPRA" netid="KO" insttype="CMG-5T" lat="39.0929" lon="38.3356">
    <comp name="--.HNE">
      <acc value="0.0363549338" flag="0"/>
      <vel value="0.0280496368" flag="0"/>
      <psa03 value="0.1116708545" flag="0"/>
      <psa10 value="0.0286553561" flag="0"/>
      <psa30 value="0.0039004578" flag="0"/>
    </comp>
    <comp name="--.HNZ">
      <acc value="0.0177960198" flag="0"/>
      <vel value="0.0117396988" flag="0"/>
      <psa03 value="0.0404729475" flag="0"/>
      <psa10 value="0.0239082925" flag="0"/>
      <psa30 value="0.0009132771" flag="0"/>
    </comp>
    <comp name="--.HNN">
      <acc value="0.0321627586" flag="0"/>
      <vel value="0.0316728749" flag="0"/>
      <psa03 value="0.1048349511" flag="0"/>
      <psa10 value="0.0313669301" flag="0"/>
      <psa30 value="0.0017902505" flag="0"/>
    </comp>
  </station>
  <station code="DARE" name="DARE" netid="KO" insttype="CMG-3ESP" lat="38.5712" lon="37.4832">
    <comp name="--.HHE">
      <acc value="0.0045641038" flag="0"/>
      <vel value="0.0047800919" flag="0"/>
      <psa03 value="0.0133561523" flag="0"/>
      <psa10 value="0.0115500631" flag="0"/>
      <psa30 value="0.0005070129" flag="0"/>
    </comp>
    <comp name="--.HHZ">
      <acc value="0.0055588456" flag="0"/>
      <vel value="0.0051507526" flag="0"/>
      <psa03 value="0.0167123615" flag="0"/>
      <psa10 value="0.0066921015" flag="0"/>
      <psa30 value="0.0007052800" flag="0"/>
    </comp>
  </station>
  <station code="SVRC" name="SVRC" netid="KO" insttype="CMG-3T" lat="38.3775" lon="39.306">
    <comp name="--.HHZ">
      <acc value="0.0381296161" flag="0"/>
      <vel value="0.0197137131" flag="0"/>
      <psa03 value="0.0925113204" flag="0"/>
      <psa10 value="0.0197660161" flag="0"/>
      <psa30 value="0.0020525926" flag="0"/>
    </comp>
  </station>
  <station code="URFA" name="URFA" netid="KO" insttype="CMG-3ESP" lat="37.4409" lon="38.8213">
    <comp name="--.HHN">
      <acc value="0.0454146658" flag="0"/>
      <vel value="0.0150871520" flag="0"/>
      <psa03 value="0.0357955826" flag="0"/>
      <psa10 value="0.0109736579" flag="0"/>
      <psa30 value="0.0018519126" flag="0"/>
    </comp>
    <comp name="--.HHZ">
      <acc value="0.0297285186" flag="0"/>
      <vel value="0.0115073849" flag="0"/>
      <psa03 value="0.0232001636" flag="0"/>
      <psa10 value="0.0139827349" flag="0"/>
      <psa30 value="0.0015630949" flag="0"/>
    </comp>
    <comp name="--.HHE">
      <acc value="0.0527563147" flag="0"/>
      <vel value="0.0152437559" flag="0"/>
      <psa03 value="0.0528975899" flag="0"/>
      <psa10 value="0.0129154030" flag="0"/>
      <psa30 value="0.0018933007" flag="0"/>
    </comp>
  </station>
</stationlist>
