<?xml version="1.0" encoding="UTF-8" standalone="yes"?>
<!DOCTYPE earthquake SYSTEM "stationlist.dtd">
<stationlist created="" xmlns="ch.ethz.sed.shakemap.usgs.xml">
  <station code="KARY" name="KARY" netid="HA" insttype="60" lat="38.0321" lon="24.437">
    <comp name="--.HHE">
      <acc value="0.0090133626" flag="0"/>
      <vel value="0.0045738006" flag="0"/>
      <psa03 value="0.0245558366" flag="0"/>
      <psa10 value="0.0054702407" flag="0"/>
      <psa30 value="0.0004878546" flag="0"/>
    </comp>
    <comp name="--.HHN">
      <acc value="0.0076285401" flag="0"/>
      <vel value="0.0032879260" flag="0"/>
      <psa03 value="0.0244954757" flag="0"/>
      <psa10 value="0.0025448092" flag="0"/>
      <psa30 value="0.0002816549" flag="0"/>
    </comp>
    <comp name="--.HHZ">
      <acc value="0.0085483701" flag="0"/>
      <vel value="0.0055036165" flag="0"/>
      <psa03 value="0.0207290081" flag="0"/>
      <psa10 value="0.0061298176" flag="0"/>
      <psa30 value="0.0003617686" flag="0"/>
    </comp>
  </station>
  <station code="LMN1" name="LMN1" netid="HI" insttype="CMG-5TD,ACCELEROMETER,GURALP" lat="39.875" lon="25.0588">
    <comp name="--.HNE">
      <acc value="0.0304655177" flag="0"/>
      <vel value="0.0126554441" flag="0"/>
      <psa03 value="0.1477884104" flag="0"/>
      <psa10 value="0.0048208175" flag="0"/>
      <psa30 value="0.0007813087" flag="0"/>
    </comp>
    <comp name="--.HNZ">
      <acc value="0.0272934983" flag="0"/>
      <vel value="0.0065220636" flag="0"/>
      <psa03 value="0.0215056758" flag="0"/>
      <psa10 value="0.0031292513" flag="0"/>
      <psa30 value="0.0002860982" flag="0"/>
    </comp>
    <comp name="--.HNN">
      <acc value="0.0323017892" flag="0"/>
      <vel value="0.0161552222" flag="0"/>
      <psa03 value="0.1189219098" flag="0"/>
      <psa10 value="0.0075374488" flag="0"/>
      <psa30 value="0.0010199849" flag="0"/>
    </comp>
  </station>
  <station code="EAG2" name="EAG2" netid="HL" insttype="SMART24" lat="38.5438" lon="26.1079">
    <comp name="--.HHZ">
      <acc value="0.1066977817" flag="0"/>
      <vel value="0.0244448878" flag="0"/>
      <psa03 value="0.1085403756" flag="0"/>
      <psa10 value="0.0127149515" flag="0"/>
      <psa30 value="0.0011398401" flag="0"/>
    </comp>
    <comp name="--.HHN">
      <acc value="0.1484631227" flag="0"/>
      <vel value="0.0865199016" flag="0"/>
      <psa03 value="0.4718208082" flag="0"/>
      <psa10 value="0.0422903127" flag="0"/>
      <psa30 value="0.0023228526" flag="0"/>
    </comp>
    <comp name="--.HHE">
      <acc value="0.1414371850" flag="0"/>
      <vel value="0.0820029409" flag="0"/>
      <psa03 value="0.5771541260" flag="0"/>
      <psa10 value="0.0548463892" flag="0"/>
      <psa30 value="0.0034473266" flag="0"/>
    </comp>
  </station>
  <station code="EFSA" name="EFSA" netid="HL" insttype="CMG-5" lat="39.5401" lon="24.9886">
    <comp name="00.HNN">
      <acc value="0.0367761191" flag="0"/>
      <vel value="0.0292727580" flag="0"/>
      <psa03 value="0.0884563981" flag="0"/>
      <psa10 value="0.0349738703" flag="0"/>
      <psa30 value="0.0021332574" flag="0"/>
    </comp>
    <comp name="00.HNE">
      <acc value="0.0270597720" flag="0"/>
      <vel value="0.0133817327" flag="0"/>
      <psa03 value="0.0733893718" flag="0"/>
      <psa10 value="0.0181359957" flag="0"/>
      <psa30 value="0.0007911130" flag="0"/>
    </comp>
    <comp name="00.HNZ">
      <acc value="0.0185372448" flag="0"/>
      <vel value="0.0104177760" flag="0"/>
      <psa03 value="0.0532659785" flag="0"/>
      <psa10 value="0.0150925974" flag="0"/>
      <psa30 value="0.0007819238" flag="0"/>
    </comp>
  </station>
  <station code="KYMI" name="KYMI" netid="HL" insttype="60" lat="38.6331" lon="24.1001">
    <comp name="--.HHN">
      <acc value="0.0134078311" flag="0"/>
      <vel value="0.0072737537" flag="0"/>
      <psa03 value="0.0504150188" flag="0"/>
      <psa10 value="0.0051843904" flag="0"/>
      <psa30 value="0.0009196164" flag="0"/>
    </comp>
    <comp name="--.HHZ">
      <acc value="0.0051341217" flag="0"/>
      <vel value="0.0036916720" flag="0"/>
      <psa03 value="0.0185462529" flag="0"/>
      <psa10 value="0.0019278138" flag="0"/>
      <psa30 value="0.0001964822" flag="0"/>
    </comp>
    <comp name="--.HHE">
      <acc value="0.0126470646" flag="0"/>
      <vel value="0.0068548443" flag="0"/>
      <psa03 value="0.0421246064" flag="0"/>
      <psa10 value="0.0046328403" flag="0"/>
      <psa30 value="0.0002859596" flag="0"/>
    </comp>
  </station>
  <station code="LIA" name="LIA" netid="HL" insttype="P6C" lat="39.8972" lon="25.1806">
    <comp name="--.HHZ">
      <acc value="0.0059752553" flag="0"/>
      <vel value="0.0038538743" flag="0"/>
      <psa03 value="0.0220158560" flag="0"/>
      <psa10 value="0.0039034301" flag="0"/>
      <psa30 value="0.0001998128" flag="0"/>
    </comp>
    <comp name="--.HHN">
      <acc value="0.0133878739" flag="0"/>
      <vel value="0.0057731547" flag="0"/>
      <psa03 value="0.0431331660" flag="0"/>
      <psa10 value="0.0050376391" flag="0"/>
      <psa30 value="0.0005866060" flag="0"/>
    </comp>
    <comp name="--.HHE">
      <acc value="0.0122165940" flag="0"/>
      <vel value="0.0118110442" flag="0"/>
      <psa03 value="0.0339184222" flag="0"/>
      <psa10 value="0.0070393508" flag="0"/>
      <psa30 value="0.0005255190" flag="0"/>
    </comp>
  </station>
  <station code="PRK" name="PRK" netid="HL" insttype="120" lat="39.2456" lon="26.265">
    <comp name="--.HHE">
      <acc value="0.0205211013" flag="0"/>
      <vel value="0.0158922707" flag="0"/>
      <psa03 value="0.0690642981" flag="0"/>
      <psa10 value="0.0290730619" flag="0"/>
      <psa30 value="0.0012073071" flag="0"/>
    </comp>
    <comp name="--.HHZ">
      <acc value="0.0180465417" flag="0"/>
      <vel value="0.0106429071" flag="0"/>
      <psa03 value="0.0845731231" flag="0"/>
      <psa10 value="0.0084883831" flag="0"/>
      <psa30 value="0.0004448490" flag="0"/>
    </comp>
    <comp name="--.HHN">
      <acc value="0.0286966986" flag="0"/>
      <vel value="0.0203787110" flag="0"/>
      <psa03 value="0.1075791581" flag="0"/>
      <psa10 value="0.0285834446" flag="0"/>
      <psa30 value="0.0013592204" flag="0"/>
    </comp>
  </station>
  <station code="SKY" name="SKY" netid="HL" insttype="120" lat="38.8831" lon="24.5482">
    <comp name="--.HHE">
      <acc value="0.0649082238" flag="0"/>
      <vel value="0.0204758023" flag="0"/>
      <psa03 value="0.0827897286" flag="0"/>
      <psa10 value="0.0067453967" flag="0"/>
      <psa30 value="0.0004190516" flag="0"/>
    </comp>
    <comp name="--.HHZ">
      <acc value="0.0187873730" flag="0"/>
      <vel value="0.0052578985" flag="0"/>
      <psa03 value="0.0270887721" flag="0"/>
      <psa10 value="0.0033142548" flag="0"/>
      <psa30 value="0.0002000268" flag="0"/>
    </comp>
    <comp name="--.HHN">
      <acc value="0.0456521460" flag="0"/>
      <vel value="0.0203484204" flag="0"/>
      <psa03 value="0.0951353538" flag="0"/>
      <psa10 value="0.0091566186" flag="0"/>
      <psa30 value="0.0004394770" flag="0"/>
    </comp>
  </station>
  <station code="CHOS" name="CHOS" netid="HT" insttype="100" lat="38.3869" lon="26.0506">
    <comp name="--.HHZ">
      <acc value="0.0177157066" flag="0"/>
      <vel value="0.0069211317" flag="0"/>
      <psa03 value="0.0267389620" flag="0"/>
      <psa10 value="0.0090390551" flag="0"/>
      <psa30 value="0.0003971919" flag="0"/>
    </comp>
    <comp name="--.HHE">
      <acc value="0.0449690325" flag="0"/>
      <vel value="0.0242098830" flag="0"/>
      <psa03 value="0.0853768980" flag="0"/>
      <psa10 value="0.0256313953" flag="0"/>
      <psa30 value="0.0011239642" flag="0"/>
    </comp>
    <comp name="--.HHN">
      <acc value="0.0259218753" flag="0"/>
      <vel value="0.0109028374" flag="0"/>
      <psa03 value="0.0395630678" flag="0"/>
      <psa10 value="0.0157094558" flag="0"/>
      <psa30 value="0.0008179694" flag="0"/>
    </comp>
  </station>
</stationlist>
