<stationlist created="1778069711">
	<station code="LMN1" name="LMN1" netid="HI" source="ITSAK Strong Motion Network" insttype="" lat="39.875" lon="25.0588">
		<comp name="--.HNE" depth="0.0">
			<acc value="0.0306025201710541" flag="0"/>
			<vel value="0.0125484670490994" flag="0"/>
			<psa03 value="0.147380828600587" flag="0"/>
			<psa10 value="0.00486034590494286" flag="0"/>
			<psa30 value="0.000910951326748013" flag="0"/>
		</comp>
		<comp name="--.HNN" depth="0.0">
			<acc value="0.0324723084268934" flag="0"/>
			<vel value="0.0161692789358478" flag="0"/>
			<psa03 value="0.117761487819291" flag="0"/>
			<psa10 value="0.007554274165429" flag="0"/>
			<psa30 value="0.00105904803065449" flag="0"/>
		</comp>
		<comp name="--.HNZ" depth="0.0">
			<acc value="0.0270525863125965" flag="0"/>
			<vel value="0.00666570887658195" flag="0"/>
			<psa03 value="0.0220131656561897" flag="0"/>
			<psa10 value="0.00313687610600703" flag="0"/>
			<psa30 value="0.000308721225666075" flag="0"/>
		</comp>
	</station>
	<station code="SKY1" name="SKY1" netid="HI" source="ITSAK Strong Motion Network" insttype="" lat="38.904483" lon="24.564572">
		<comp name="--.HNE" depth="0.0">
			<acc value="0.0403248470073824" flag="0"/>
			<vel value="0.019303313795767" flag="0"/>
			<psa03 value="0.109931601661094" flag="0"/>
			<psa10 value="0.00650730653056144" flag="0"/>
			<psa30 value="0.000640260976707469" flag="0"/>
		</comp>
		<comp name="--.HNN" depth="0.0">
			<acc value="0.0211576666210543" flag="0"/>
			<vel value="0.0109039583948155" flag="0"/>
			<psa03 value="0.0823704023842383" flag="0"/>
			<psa10 value="0.00618918944150553" flag="0"/>
			<psa30 value="0.00040670665816009" flag="0"/>
		</comp>
		<comp name="--.HNZ" depth="0.0">
			<acc value="0.016081015245951" flag="0"/>
			<vel value="0.00757256952699585" flag="0"/>
			<psa03 value="0.0459502461969651" flag="0"/>
			<psa10 value="0.00288721459307708" flag="0"/>
			<psa30 value="0.000245634714334312" flag="0"/>
		</comp>
	</station>
	<station code="EFSA" name="EFSA" netid="HL" source="National Observatory of Athens Seismic Network" insttype="" lat="39.54015" lon="24.98864">
		<comp name="00.HNE" depth="0.0">
			<acc value="0.0269899091396828" flag="0"/>
			<vel value="0.0134496972150123" flag="0"/>
			<psa03 value="0.0732429922341109" flag="0"/>
			<psa10 value="0.0181367008747826" flag="0"/>
			<psa30 value="0.00079685869987142" flag="0"/>
		</comp>
		<comp name="00.HNN" depth="0.0">
			<acc value="0.0367692533191487" flag="0"/>
			<vel value="0.0294502299320803" flag="0"/>
			<psa03 value="0.0882763736578502" flag="0"/>
			<psa10 value="0.0349485850115982" flag="0"/>
			<psa30 value="0.00213196614536065" flag="0"/>
		</comp>
		<comp name="00.HNZ" depth="0.0">
			<acc value="0.0183817202301728" flag="0"/>
			<vel value="0.0104181468974541" flag="0"/>
			<psa03 value="0.0530642570492703" flag="0"/>
			<psa10 value="0.0150964679350711" flag="0"/>
			<psa30 value="0.000790594790944862" flag="0"/>
		</comp>
	</station>
	<station code="KYMI" name="KYMI" netid="HL" source="National Observatory of Athens Seismic Network" insttype="" lat="38.633147" lon="24.100138">
		<comp name="--.HNE" depth="1.0">
			<acc value="0.0122935258456079" flag="0"/>
			<vel value="0.00671682613666458" flag="0"/>
			<psa03 value="0.041654994361611" flag="0"/>
			<psa10 value="0.00456236280886517" flag="0"/>
			<psa30 value="0.000322143887651557" flag="0"/>
		</comp>
		<comp name="--.HNN" depth="1.0">
			<acc value="0.0134153451278613" flag="0"/>
			<vel value="0.00738168531669702" flag="0"/>
			<psa03 value="0.0504244668587923" flag="0"/>
			<psa10 value="0.00519054338978571" flag="0"/>
			<psa30 value="0.000996408941388912" flag="0"/>
		</comp>
		<comp name="--.HNZ" depth="1.0">
			<acc value="0.00498628547645984" flag="0"/>
			<vel value="0.00366592865150127" flag="0"/>
			<psa03 value="0.0181653358870183" flag="0"/>
			<psa10 value="0.00193286332590934" flag="0"/>
			<psa30 value="0.000195523442921848" flag="0"/>
		</comp>
	</station>
	<station code="NOAC" name="NOAC" netid="HL" source="National Observatory of Athens Seismic Network" insttype="" lat="37.97384" lon="23.71767">
		<comp name="00.HNE" depth="0.0">
			<acc value="0.00833381348350094" flag="0"/>
			<vel value="0.0052261983899348" flag="0"/>
			<psa03 value="0.0244739870201947" flag="0"/>
			<psa10 value="0.00511806101506411" flag="0"/>
			<psa30 value="0.000382098444520041" flag="0"/>
		</comp>
		<comp name="00.HNN" depth="0.0">
			<acc value="0.00742061337818877" flag="0"/>
			<vel value="0.00546375215345362" flag="0"/>
			<psa03 value="0.0292166609217315" flag="0"/>
			<psa10 value="0.00677710203646962" flag="0"/>
			<psa30 value="0.000596413614221562" flag="0"/>
		</comp>
		<comp name="00.HNZ" depth="0.0">
			<acc value="0.00383218520150296" flag="0"/>
			<vel value="0.00248023030585758" flag="0"/>
			<psa03 value="0.0134674041920998" flag="0"/>
			<psa10 value="0.00477175633583868" flag="0"/>
			<psa30 value="0.000230869786150282" flag="0"/>
		</comp>
	</station>
	<station code="PRK" name="PRK" netid="HL" source="National Observatory of Athens Seismic Network" insttype="" lat="39.24565" lon="26.26499">
		<comp name="--.HNE" depth="0.0">
			<acc value="0.0197335599003309" flag="0"/>
			<vel value="0.0147479984491298" flag="0"/>
			<psa03 value="0.0693504202583212" flag="0"/>
			<psa10 value="0.0295768356850085" flag="0"/>
			<psa30 value="0.0012192251303479" flag="0"/>
		</comp>
		<comp name="--.HNN" depth="0.0">
			<acc value="0.0347618826459445" flag="0"/>
			<vel value="0.0233312375125817" flag="0"/>
			<psa03 value="0.114808502182485" flag="0"/>
			<psa10 value="0.0326251222219114" flag="0"/>
			<psa30 value="0.00151765564849178" flag="0"/>
		</comp>
		<comp name="--.HNZ" depth="0.0">
			<acc value="0.0180614174405727" flag="0"/>
			<vel value="0.0107458195313296" flag="0"/>
			<psa03 value="0.0837126685827865" flag="0"/>
			<psa10 value="0.00844822345366207" flag="0"/>
			<psa30 value="0.000463976682631478" flag="0"/>
		</comp>
	</station>
	<station code="CANM" name="CANM" netid="KO" source="Bogazici University Kandilli Observatory And Earthquake Research Institute (KOERI)" insttype="" lat="40.0113" lon="27.0529">
		<comp name="--.HNE" depth="0.0">
			<acc value="0.0246434570045793" flag="0"/>
			<vel value="0.0138941855893422" flag="0"/>
			<psa03 value="0.0492164272800989" flag="0"/>
			<psa10 value="0.0133125961572006" flag="0"/>
			<psa30 value="0.000989697610396171" flag="0"/>
		</comp>
		<comp name="--.HNN" depth="0.0">
			<acc value="0.0381405688951005" flag="0"/>
			<vel value="0.0190887126013758" flag="0"/>
			<psa03 value="0.0816992692849642" flag="0"/>
			<psa10 value="0.0236493881522199" flag="0"/>
			<psa30 value="0.00129752399192988" flag="0"/>
		</comp>
		<comp name="--.HNZ" depth="0.0">
			<acc value="0.0261788327467763" flag="0"/>
			<vel value="0.0147562754971695" flag="0"/>
			<psa03 value="0.0610283698273227" flag="0"/>
			<psa10 value="0.0133287033515832" flag="0"/>
			<psa30 value="0.000844285438886788" flag="0"/>
		</comp>
	</station>
	<station code="EZNE" name="EZNE" netid="KO" source="Bogazici University Kandilli Observatory And Earthquake Research Institute (KOERI)" insttype="" lat="39.756" lon="26.3655">
		<comp name="--.HNE" depth="0.0">
			<acc value="0.0609779831215923" flag="0"/>
			<vel value="0.0399313593468096" flag="0"/>
			<psa03 value="0.186753970424666" flag="0"/>
			<psa10 value="0.022662822496287" flag="0"/>
			<psa30 value="0.00191138706673257" flag="0"/>
		</comp>
		<comp name="--.HNN" depth="0.0">
			<acc value="0.0750468928806522" flag="0"/>
			<vel value="0.0363838918466118" flag="0"/>
			<psa03 value="0.321428012345664" flag="0"/>
			<psa10 value="0.0430142625986741" flag="0"/>
			<psa30 value="0.0022187660262001" flag="0"/>
		</comp>
		<comp name="--.HNZ" depth="0.0">
			<acc value="0.0599895118769953" flag="0"/>
			<vel value="0.0236882495893826" flag="0"/>
			<psa03 value="0.105770576445594" flag="0"/>
			<psa10 value="0.0502665268694298" flag="0"/>
			<psa30 value="0.00245545229921075" flag="0"/>
		</comp>
	</station>
	<station code="SOMA" name="SOMA" netid="KO" source="Bogazici University Kandilli Observatory And Earthquake Research Institute (KOERI)" insttype="" lat="39.1564" lon="27.5341">
		<comp name="--.HNE" depth="0.0">
			<acc value="0.0119735914620058" flag="0"/>
			<vel value="0.0122200352661872" flag="0"/>
			<psa03 value="0.0387467509314233" flag="0"/>
			<psa10 value="0.0186440774978338" flag="0"/>
			<psa30 value="0.0011624025279427" flag="0"/>
		</comp>
		<comp name="--.HNN" depth="0.0">
			<acc value="0.0135551910858881" flag="0"/>
			<vel value="0.009962353761254" flag="0"/>
			<psa03 value="0.0332882017239942" flag="0"/>
			<psa10 value="0.012515290035263" flag="0"/>
			<psa30 value="0.00102728106395552" flag="0"/>
		</comp>
		<comp name="--.HNZ" depth="0.0">
			<acc value="0.00947511425263926" flag="0"/>
			<vel value="0.00588356507308318" flag="0"/>
			<psa03 value="0.0289034654754036" flag="0"/>
			<psa10 value="0.0103931671753583" flag="0"/>
			<psa30 value="0.000886790535174146" flag="0"/>
		</comp>
	</station>
	<station code="YENI" name="YENI" netid="KO" source="Bogazici University Kandilli Observatory And Earthquake Research Institute (KOERI)" insttype="" lat="39.9364" lon="27.24216">
		<comp name="--.HNE" depth="0.0">
			<acc value="0.062927337492952" flag="0"/>
			<vel value="0.0319217436112239" flag="0"/>
			<psa03 value="0.15999813086694" flag="0"/>
			<psa10 value="0.020001108624566" flag="0"/>
			<psa30 value="0.00208543425047765" flag="0"/>
		</comp>
		<comp name="--.HNN" depth="0.0">
			<acc value="0.0348171298255421" flag="0"/>
			<vel value="0.0199962838384024" flag="0"/>
			<psa03 value="0.160087615280176" flag="0"/>
			<psa10 value="0.0175085202938621" flag="0"/>
			<psa30 value="0.00259594282799213" flag="0"/>
		</comp>
		<comp name="--.HNZ" depth="0.0">
			<acc value="0.0205772798950519" flag="0"/>
			<vel value="0.014349102801162" flag="0"/>
			<psa03 value="0.0558830160662214" flag="0"/>
			<psa10 value="0.0123703252858198" flag="0"/>
			<psa30 value="0.00139729911268863" flag="0"/>
		</comp>
	</station>
</stationlist>
