<?xml version="1.0" encoding="UTF-8" standalone="yes"?>
<!DOCTYPE earthquake SYSTEM "stationlist.dtd">
<stationlist created="" xmlns="ch.ethz.sed.shakemap.usgs.xml">
  <station code="ZKR" name="ZKR" netid="GE" insttype="STS-2/N" lat="35.1147" lon="26.2169">
    <comp name="--.HHE">
      <acc value="0.0040328442" flag="0"/>
      <vel value="0.0021074507" flag="0"/>
      <psa03 value="0.0131623687" flag="0"/>
      <psa10 value="0.0020996880" flag="0"/>
      <psa30 value="0.0001529254" flag="0"/>
    </comp>
    <comp name="--.HHZ">
      <acc value="0.0038327359" flag="0"/>
      <vel value="0.0013114930" flag="0"/>
      <psa03 value="0.0080597124" flag="0"/>
      <psa10 value="0.0014438465" flag="0"/>
      <psa30 value="0.0001393254" flag="0"/>
    </comp>
    <comp name="--.HHN">
      <acc value="0.0022976876" flag="0"/>
      <vel value="0.0011284677" flag="0"/>
      <psa03 value="0.0061023154" flag="0"/>
      <psa10 value="0.0008403141" flag="0"/>
      <psa30 value="0.0001023783" flag="0"/>
    </comp>
  </station>
  <station code="ZKR" name="ZKR" netid="HL" insttype="120" lat="35.1147" lon="26.2169">
    <comp name="--.HHN">
      <acc value="0.0022347910" flag="0"/>
      <vel value="0.0011000449" flag="0"/>
      <psa03 value="0.0059336996" flag="0"/>
      <psa10 value="0.0008301157" flag="0"/>
      <psa30 value="0.0001019667" flag="0"/>
    </comp>
    <comp name="--.HHZ">
      <acc value="0.0038284369" flag="0"/>
      <vel value="0.0012754372" flag="0"/>
      <psa03 value="0.0078274374" flag="0"/>
      <psa10 value="0.0014317259" flag="0"/>
      <psa30 value="0.0001387896" flag="0"/>
    </comp>
    <comp name="--.HHE">
      <acc value="0.0039118080" flag="0"/>
      <vel value="0.0020598102" flag="0"/>
      <psa03 value="0.0127932558" flag="0"/>
      <psa10 value="0.0020836537" flag="0"/>
      <psa30 value="0.0001521482" flag="0"/>
    </comp>
  </station>
</stationlist>
