<?xml version="1.0" encoding="UTF-8" standalone="yes"?>
<!DOCTYPE earthquake SYSTEM "stationlist.dtd">
<stationlist created="" xmlns="ch.ethz.sed.shakemap.usgs.xml">
  <station code="BIGA" name="BIGA" netid="KO" insttype="CMG-5T" lat="40.2813" lon="27.1505">
    <comp name="--.HNE">
      <acc value="0.1079534729" flag="0"/>
      <vel value="0.0625788069" flag="0"/>
      <psa03 value="0.2819663822" flag="0"/>
      <psa10 value="0.0670109012" flag="0"/>
      <psa30 value="0.0160865181" flag="0"/>
    </comp>
    <comp name="--.HNN">
      <acc value="0.1709633570" flag="0"/>
      <vel value="0.0751867211" flag="0"/>
      <psa03 value="0.3198058526" flag="0"/>
      <psa10 value="0.0717658240" flag="0"/>
      <psa30 value="0.0123908859" flag="0"/>
    </comp>
    <comp name="--.HNZ">
      <acc value="0.0642103143" flag="0"/>
      <vel value="0.0295133856" flag="0"/>
      <psa03 value="0.1196281548" flag="0"/>
      <psa10 value="0.0372475089" flag="0"/>
      <psa30 value="0.0122489971" flag="0"/>
    </comp>
  </station>
  <station code="BLCB" name="BLCB" netid="KO" insttype="CMG-3T" lat="38.3853" lon="27.042">
    <comp name="--.HHE">
      <acc value="0.0622270282" flag="0"/>
      <vel value="0.0293518398" flag="0"/>
      <psa03 value="0.1459532403" flag="0"/>
      <psa10 value="0.0330656954" flag="0"/>
      <psa30 value="0.0076942163" flag="0"/>
    </comp>
    <comp name="--.HHN">
      <acc value="0.0000618751" flag="0"/>
      <vel value="0.0000152373" flag="0"/>
      <psa03 value="0.0000714811" flag="0"/>
      <psa10 value="0.0000256724" flag="0"/>
      <psa30 value="0.0000049501" flag="0"/>
    </comp>
    <comp name="--.HHZ">
      <acc value="0.0422751349" flag="0"/>
      <vel value="0.0236651733" flag="0"/>
      <psa03 value="0.0951775845" flag="0"/>
      <psa10 value="0.0473955774" flag="0"/>
      <psa30 value="0.0068891255" flag="0"/>
    </comp>
  </station>
  <station code="BMYO" name="BMYO" netid="KO" insttype="CMG-5T" lat="39.8098" lon="26.6009">
    <comp name="--.HNE">
      <acc value="0.3981435617" flag="0"/>
      <vel value="0.2012894631" flag="0"/>
      <psa03 value="0.7953595538" flag="0"/>
      <psa10 value="0.1481436201" flag="0"/>
      <psa30 value="0.0661959314" flag="0"/>
    </comp>
    <comp name="--.HNN">
      <acc value="0.2031397287" flag="0"/>
      <vel value="0.1953497495" flag="0"/>
      <psa03 value="0.7467249847" flag="0"/>
      <psa10 value="0.1762930493" flag="0"/>
      <psa30 value="0.0515753307" flag="0"/>
    </comp>
    <comp name="--.HNZ">
      <acc value="0.1557387193" flag="0"/>
      <vel value="0.1146736293" flag="0"/>
      <psa03 value="0.3662259119" flag="0"/>
      <psa10 value="0.0874253336" flag="0"/>
      <psa30 value="0.0350568519" flag="0"/>
    </comp>
  </station>
  <station code="CANM" name="CANM" netid="KO" insttype="CMG-5T" lat="40.0113" lon="27.0529">
    <comp name="--.HNE">
      <acc value="0.1355368376" flag="0"/>
      <vel value="0.0571806466" flag="0"/>
      <psa03 value="0.2163058315" flag="0"/>
      <psa10 value="0.0395033319" flag="0"/>
      <psa30 value="0.0112600269" flag="0"/>
    </comp>
    <comp name="--.HNN">
      <acc value="0.1414822407" flag="0"/>
      <vel value="0.0811933754" flag="0"/>
      <psa03 value="0.3563848123" flag="0"/>
      <psa10 value="0.0950570057" flag="0"/>
      <psa30 value="0.0276670913" flag="0"/>
    </comp>
    <comp name="--.HNZ">
      <acc value="0.1130129083" flag="0"/>
      <vel value="0.0419758763" flag="0"/>
      <psa03 value="0.1616826171" flag="0"/>
      <psa10 value="0.0308943562" flag="0"/>
      <psa30 value="0.0114798483" flag="0"/>
    </comp>
  </station>
  <station code="CESE" name="CESE" netid="KO" insttype="CMG-5T" lat="38.3306" lon="26.2997">
    <comp name="--.HNZ">
      <acc value="0.0567175068" flag="0"/>
      <vel value="0.0492594335" flag="0"/>
      <psa03 value="0.1354691829" flag="0"/>
      <psa10 value="0.0550103623" flag="0"/>
      <psa30 value="0.0121691760" flag="0"/>
    </comp>
    <comp name="--.HNE">
      <acc value="0.0613735875" flag="0"/>
      <vel value="0.0485085945" flag="0"/>
      <psa03 value="0.1578605046" flag="0"/>
      <psa10 value="0.0859414944" flag="0"/>
      <psa30 value="0.0107823521" flag="0"/>
    </comp>
    <comp name="--.HNN">
      <acc value="0.0615730209" flag="0"/>
      <vel value="0.0651948543" flag="0"/>
      <psa03 value="0.1679668794" flag="0"/>
      <psa10 value="0.0926767943" flag="0"/>
      <psa30 value="0.0096100634" flag="0"/>
    </comp>
  </station>
  <station code="EDC" name="EDC" netid="KO" insttype="CMG-3T" lat="40.3465" lon="27.8618">
    <comp name="--.HHE">
      <acc value="0.0412703051" flag="0"/>
      <vel value="0.0323894284" flag="0"/>
      <psa03 value="0.1827021510" flag="0"/>
      <psa10 value="0.0429951998" flag="0"/>
      <psa30 value="0.0059628398" flag="0"/>
    </comp>
    <comp name="--.HHN">
      <acc value="0.0579313850" flag="0"/>
      <vel value="0.0445235508" flag="0"/>
      <psa03 value="0.1990819119" flag="0"/>
      <psa10 value="0.0631014582" flag="0"/>
      <psa30 value="0.0132389735" flag="0"/>
    </comp>
    <comp name="--.HHZ">
      <acc value="0.0294023599" flag="0"/>
      <vel value="0.0184262113" flag="0"/>
      <psa03 value="0.0570213466" flag="0"/>
      <psa10 value="0.0292008837" flag="0"/>
      <psa30 value="0.0068357364" flag="0"/>
    </comp>
  </station>
  <station code="ENZZ" name="ENZZ" netid="KO" insttype="CMG-5T" lat="40.607" lon="26.1406">
    <comp name="--.HNE">
      <acc value="0.4537176550" flag="0"/>
      <vel value="0.3165537153" flag="0"/>
      <psa03 value="1.0731255278" flag="0"/>
      <psa10 value="0.5244161226" flag="0"/>
      <psa30 value="0.0363066429" flag="0"/>
    </comp>
    <comp name="--.HNN">
      <acc value="0.4409596144" flag="0"/>
      <vel value="0.3728537896" flag="0"/>
      <psa03 value="0.8914468595" flag="0"/>
      <psa10 value="0.5832184084" flag="0"/>
      <psa30 value="0.0566980718" flag="0"/>
    </comp>
    <comp name="--.HNZ">
      <acc value="0.1339143305" flag="0"/>
      <vel value="0.0857572509" flag="0"/>
      <psa03 value="0.4729157007" flag="0"/>
      <psa10 value="0.1290754394" flag="0"/>
      <psa30 value="0.0262774827" flag="0"/>
    </comp>
  </station>
  <station code="ERIK" name="ERIK" netid="KO" insttype="CMG-3ESP" lat="40.6708" lon="26.5132">
    <comp name="--.HHZ">
      <acc value="0.0702807893" flag="0"/>
      <vel value="0.0487298030" flag="0"/>
      <psa03 value="0.2076890409" flag="0"/>
      <psa10 value="0.0831334971" flag="0"/>
      <psa30 value="0.0076672812" flag="0"/>
    </comp>
  </station>
  <station code="EZN" name="EZN" netid="KO" insttype="CMG-3ESP" lat="39.8255" lon="26.3246">
    <comp name="--.HHE">
      <acc value="0.6646513024" flag="0"/>
      <vel value="0.2518366547" flag="0"/>
      <psa03 value="0.8575582815" flag="0"/>
      <psa10 value="0.2675374647" flag="0"/>
      <psa30 value="0.0226284735" flag="0"/>
    </comp>
    <comp name="--.HHN">
      <acc value="0.6010575369" flag="0"/>
      <vel value="0.2692744315" flag="0"/>
      <psa03 value="0.8596295463" flag="0"/>
      <psa10 value="0.4535712115" flag="0"/>
      <psa30 value="0.0297988837" flag="0"/>
    </comp>
    <comp name="--.HHZ">
      <acc value="0.4960860485" flag="0"/>
      <vel value="0.1187359082" flag="0"/>
      <psa03 value="0.4731808099" flag="0"/>
      <psa10 value="0.2023580621" flag="0"/>
      <psa30 value="0.0275494817" flag="0"/>
    </comp>
  </station>
  <station code="EZNE" name="EZNE" netid="KO" insttype="CMG-5T" lat="39.756" lon="26.3655">
    <comp name="--.HNE">
      <acc value="0.8717880149" flag="0"/>
      <vel value="0.2381770876" flag="0"/>
      <psa03 value="2.1595844431" flag="0"/>
      <psa10 value="0.2762120360" flag="0"/>
      <psa30 value="0.0436887616" flag="0"/>
    </comp>
    <comp name="--.HNZ">
      <acc value="0.5889013402" flag="0"/>
      <vel value="0.1721782120" flag="0"/>
      <psa03 value="1.1283496348" flag="0"/>
      <psa10 value="0.1785264812" flag="0"/>
      <psa30 value="0.0297437186" flag="0"/>
    </comp>
    <comp name="--.HNN">
      <acc value="1.0085661339" flag="0"/>
      <vel value="0.4279570681" flag="0"/>
      <psa03 value="2.6768418291" flag="0"/>
      <psa10 value="0.3219216487" flag="0"/>
      <psa30 value="0.0596413206" flag="0"/>
    </comp>
  </station>
  <station code="GADA" name="GADA" netid="KO" insttype="CMG-3T" lat="40.1908" lon="25.8987">
    <comp name="--.HHE">
      <acc value="0.1329262492" flag="0"/>
      <vel value="0.0618175144" flag="0"/>
      <psa03 value="0.1385366897" flag="0"/>
      <psa10 value="0.0828495968" flag="0"/>
      <psa30 value="0.0094211797" flag="0"/>
    </comp>
    <comp name="--.HHZ">
      <acc value="0.0715625539" flag="0"/>
      <vel value="0.0840712469" flag="0"/>
      <psa03 value="0.1491384701" flag="0"/>
      <psa10 value="0.0967184354" flag="0"/>
      <psa30 value="0.0074719369" flag="0"/>
    </comp>
  </station>
  <station code="GAZK" name="GAZK" netid="KO" insttype="CMG-6T" lat="40.7479" lon="27.3275">
    <comp name="--.HHE">
      <acc value="0.1488917610" flag="0"/>
      <vel value="0.1047959798" flag="0"/>
      <psa03 value="0.3179158831" flag="0"/>
      <psa10 value="0.1597146350" flag="0"/>
      <psa30 value="0.0214979272" flag="0"/>
    </comp>
    <comp name="--.HHN">
      <acc value="0.1105029527" flag="0"/>
      <vel value="0.0853726461" flag="0"/>
      <psa03 value="0.3242233435" flag="0"/>
      <psa10 value="0.1216772730" flag="0"/>
      <psa30 value="0.0180021013" flag="0"/>
    </comp>
    <comp name="--.HHZ">
      <acc value="0.0744028806" flag="0"/>
      <vel value="0.0507927457" flag="0"/>
      <psa03 value="0.1864660436" flag="0"/>
      <psa10 value="0.0778440069" flag="0"/>
      <psa30 value="0.0153597590" flag="0"/>
    </comp>
  </station>
  <station code="GELI" name="GELI" netid="KO" insttype="CMG-3ESP" lat="40.398" lon="26.4742">
    <comp name="--.HHZ">
      <acc value="0.0922603157" flag="0"/>
      <vel value="0.0551787928" flag="0"/>
      <psa03 value="0.2418156192" flag="0"/>
      <psa10 value="0.0529662930" flag="0"/>
      <psa30 value="0.0141748631" flag="0"/>
    </comp>
  </station>
  <station code="GOMA" name="GOMA" netid="KO" insttype="CMG-5T" lat="38.7077" lon="27.9175">
    <comp name="--.HNE">
      <acc value="0.0225337697" flag="0"/>
      <vel value="0.0215098506" flag="0"/>
      <psa03 value="0.0785650438" flag="0"/>
      <psa10 value="0.0349477464" flag="0"/>
      <psa30 value="0.0067550852" flag="0"/>
    </comp>
    <comp name="--.HNN">
      <acc value="0.0155872478" flag="0"/>
      <vel value="0.0182601353" flag="0"/>
      <psa03 value="0.0542723490" flag="0"/>
      <psa10 value="0.0372269085" flag="0"/>
      <psa30 value="0.0077978492" flag="0"/>
    </comp>
    <comp name="--.HNZ">
      <acc value="0.0139582492" flag="0"/>
      <vel value="0.0154830877" flag="0"/>
      <psa03 value="0.0233791804" flag="0"/>
      <psa10 value="0.0151978497" flag="0"/>
      <psa30 value="0.0046888592" flag="0"/>
    </comp>
  </station>
  <station code="GONE" name="GONE" netid="KO" insttype="CMG-5T" lat="40.0466" lon="27.686">
    <comp name="--.HNN">
      <acc value="0.1061070925" flag="0"/>
      <vel value="0.0829083804" flag="0"/>
      <psa03 value="0.2143272229" flag="0"/>
      <psa10 value="0.1334602950" flag="0"/>
      <psa30 value="0.0189847604" flag="0"/>
    </comp>
    <comp name="--.HNZ">
      <acc value="0.0417335146" flag="0"/>
      <vel value="0.0313185958" flag="0"/>
      <psa03 value="0.0716776914" flag="0"/>
      <psa10 value="0.0382104983" flag="0"/>
      <psa30 value="0.0115955526" flag="0"/>
    </comp>
    <comp name="--.HNE">
      <acc value="0.0567725974" flag="0"/>
      <vel value="0.0728694494" flag="0"/>
      <psa03 value="0.1219984050" flag="0"/>
      <psa10 value="0.0790048788" flag="0"/>
      <psa30 value="0.0188807799" flag="0"/>
    </comp>
  </station>
  <station code="GPNR" name="GPNR" netid="KO" insttype="CMG-5T" lat="39.456" lon="26.1331">
    <comp name="--.HNE">
      <acc value="3.4276473567" flag="0"/>
      <vel value="1.5597729081" flag="0"/>
      <psa03 value="5.0551352406" flag="0"/>
      <psa10 value="1.4599829908" flag="0"/>
      <psa30 value="0.2156760526" flag="0"/>
    </comp>
    <comp name="--.HNZ">
      <acc value="1.7500508053" flag="0"/>
      <vel value="0.8558466988" flag="0"/>
      <psa03 value="3.5970807976" flag="0"/>
      <psa10 value="0.8907690841" flag="0"/>
      <psa30 value="0.0780764076" flag="0"/>
    </comp>
  </station>
  <station code="KRBN" name="KRBN" netid="KO" insttype="CMG-5T" lat="38.5936" lon="26.5537">
    <comp name="--.HNZ">
      <acc value="0.1673869474" flag="0"/>
      <vel value="0.1065323633" flag="0"/>
      <psa03 value="0.2840772286" flag="0"/>
      <psa10 value="0.1059340682" flag="0"/>
      <psa30 value="0.0120355812" flag="0"/>
    </comp>
    <comp name="--.HNN">
      <acc value="0.4615723833" flag="0"/>
      <vel value="0.3312643879" flag="0"/>
      <psa03 value="0.9869634681" flag="0"/>
      <psa10 value="0.3421745253" flag="0"/>
      <psa30 value="0.0291682478" flag="0"/>
    </comp>
    <comp name="--.HNE">
      <acc value="0.2624586515" flag="0"/>
      <vel value="0.1644822393" flag="0"/>
      <psa03 value="0.6846329161" flag="0"/>
      <psa10 value="0.2581438932" flag="0"/>
      <psa30 value="0.0216762037" flag="0"/>
    </comp>
  </station>
  <station code="LAP" name="LAP" netid="KO" insttype="CMG-3ESP" lat="40.3703" lon="26.7593">
    <comp name="--.HHE">
      <acc value="0.0935430171" flag="0"/>
      <vel value="0.0752981350" flag="0"/>
      <psa03 value="0.1923033141" flag="0"/>
      <psa10 value="0.1031881236" flag="0"/>
      <psa30 value="0.0188431716" flag="0"/>
    </comp>
    <comp name="--.HHN">
      <acc value="0.0916697971" flag="0"/>
      <vel value="0.1081093814" flag="0"/>
      <psa03 value="0.2152660203" flag="0"/>
      <psa10 value="0.1773370910" flag="0"/>
      <psa30 value="0.0341212053" flag="0"/>
    </comp>
    <comp name="--.HHZ">
      <acc value="0.0564996602" flag="0"/>
      <vel value="0.0433015659" flag="0"/>
      <psa03 value="0.1496737530" flag="0"/>
      <psa10 value="0.0743742664" flag="0"/>
      <psa30 value="0.0133033102" flag="0"/>
    </comp>
  </station>
  <station code="LAPK" name="LAPK" netid="KO" insttype="CMG-5T" lat="40.3151" lon="26.6425">
    <comp name="--.HNE">
      <acc value="0.2994439121" flag="0"/>
      <vel value="0.1780507653" flag="0"/>
      <psa03 value="0.8381907891" flag="0"/>
      <psa10 value="0.2758343047" flag="0"/>
      <psa30 value="0.0459944968" flag="0"/>
    </comp>
    <comp name="--.HNN">
      <acc value="0.2203010303" flag="0"/>
      <vel value="0.1960045373" flag="0"/>
      <psa03 value="0.7709963519" flag="0"/>
      <psa10 value="0.3967493427" flag="0"/>
      <psa30 value="0.0502482514" flag="0"/>
    </comp>
    <comp name="--.HNZ">
      <acc value="0.1316726686" flag="0"/>
      <vel value="0.0925985496" flag="0"/>
      <psa03 value="0.3195474237" flag="0"/>
      <psa10 value="0.1475773548" flag="0"/>
      <psa30 value="0.0093341955" flag="0"/>
    </comp>
  </station>
  <station code="MRMT" name="MRMT" netid="KO" insttype="CMG-3T" lat="40.609" lon="27.5832">
    <comp name="--.HHE">
      <acc value="0.0504756912" flag="0"/>
      <vel value="0.0333186184" flag="0"/>
      <psa03 value="0.0971494877" flag="0"/>
      <psa10 value="0.0277427312" flag="0"/>
      <psa30 value="0.0063133771" flag="0"/>
    </comp>
    <comp name="--.HHN">
      <acc value="0.0509663601" flag="0"/>
      <vel value="0.0373734437" flag="0"/>
      <psa03 value="0.1616600120" flag="0"/>
      <psa10 value="0.0332391168" flag="0"/>
      <psa30 value="0.0125957617" flag="0"/>
    </comp>
    <comp name="--.HHZ">
      <acc value="0.0018364709" flag="0"/>
      <vel value="0.0002076369" flag="0"/>
      <psa03 value="0.0007550688" flag="0"/>
      <psa10 value="0.0002244239" flag="0"/>
      <psa30 value="0.0000702298" flag="0"/>
    </comp>
  </station>
  <station code="RKY" name="RKY" netid="KO" insttype="CMG-3ESP" lat="40.6874" lon="27.1776">
    <comp name="--.HHZ">
      <acc value="0.0317896440" flag="0"/>
      <vel value="0.0268372213" flag="0"/>
      <psa03 value="0.0669050968" flag="0"/>
      <psa10 value="0.0488685197" flag="0"/>
      <psa30 value="0.0096500565" flag="0"/>
    </comp>
    <comp name="--.HHE">
      <acc value="0.0696037871" flag="0"/>
      <vel value="0.0621891430" flag="0"/>
      <psa03 value="0.1279053729" flag="0"/>
      <psa10 value="0.0619467065" flag="0"/>
      <psa30 value="0.0130602563" flag="0"/>
    </comp>
  </station>
  <station code="SOMA" name="SOMA" netid="KO" insttype="CMG-5T" lat="39.1564" lon="27.5341">
    <comp name="--.HNE">
      <acc value="0.0874157342" flag="0"/>
      <vel value="0.0520006961" flag="0"/>
      <psa03 value="0.2040065447" flag="0"/>
      <psa10 value="0.0630650052" flag="0"/>
      <psa30 value="0.0116108794" flag="0"/>
    </comp>
    <comp name="--.HNZ">
      <acc value="0.0601639757" flag="0"/>
      <vel value="0.0412720234" flag="0"/>
      <psa03 value="0.1431072889" flag="0"/>
      <psa10 value="0.0587318036" flag="0"/>
      <psa30 value="0.0090997976" flag="0"/>
    </comp>
    <comp name="--.HNN">
      <acc value="0.0865746896" flag="0"/>
      <vel value="0.0600133919" flag="0"/>
      <psa03 value="0.1598344541" flag="0"/>
      <psa10 value="0.0995495771" flag="0"/>
      <psa30 value="0.0116516187" flag="0"/>
    </comp>
  </station>
  <station code="SUSR" name="SUSR" netid="KO" insttype="CMG-5T" lat="39.9627" lon="28.0835">
    <comp name="--.HNE">
      <acc value="0.0867479059" flag="0"/>
      <vel value="0.0422060795" flag="0"/>
      <psa03 value="0.1819183224" flag="0"/>
      <psa10 value="0.0214441761" flag="0"/>
      <psa30 value="0.0039485201" flag="0"/>
    </comp>
    <comp name="--.HNN">
      <acc value="0.0892103883" flag="0"/>
      <vel value="0.0546610667" flag="0"/>
      <psa03 value="0.2021738708" flag="0"/>
      <psa10 value="0.0339101129" flag="0"/>
      <psa30 value="0.0113500758" flag="0"/>
    </comp>
    <comp name="--.HNZ">
      <acc value="0.0591039457" flag="0"/>
      <vel value="0.0389098681" flag="0"/>
      <psa03 value="0.1655362676" flag="0"/>
      <psa10 value="0.0363191235" flag="0"/>
      <psa30 value="0.0084077984" flag="0"/>
    </comp>
  </station>
  <station code="YAYO" name="YAYO" netid="KO" insttype="CMG-6T" lat="39.6113" lon="27.0726">
    <comp name="--.HHE">
      <acc value="0.1714467720" flag="0"/>
      <vel value="0.0921072952" flag="0"/>
      <psa03 value="0.5087108012" flag="0"/>
      <psa10 value="0.0631001875" flag="0"/>
      <psa30 value="0.0139781559" flag="0"/>
    </comp>
    <comp name="--.HHN">
      <acc value="0.3452700370" flag="0"/>
      <vel value="0.1456054949" flag="0"/>
      <psa03 value="1.1643571853" flag="0"/>
      <psa10 value="0.0555521414" flag="0"/>
      <psa30 value="0.0201210713" flag="0"/>
    </comp>
    <comp name="--.HHZ">
      <acc value="0.1074255182" flag="0"/>
      <vel value="0.0545115218" flag="0"/>
      <psa03 value="0.4111524906" flag="0"/>
      <psa10 value="0.0382715986" flag="0"/>
      <psa30 value="0.0087634647" flag="0"/>
    </comp>
  </station>
  <station code="YENI" name="YENI" netid="KO" insttype="CMG-5T" lat="39.9364" lon="27.2422">
    <comp name="--.HNE">
      <acc value="0.2082320277" flag="0"/>
      <vel value="0.1100018711" flag="0"/>
      <psa03 value="0.8690472430" flag="0"/>
      <psa10 value="0.1046735535" flag="0"/>
      <psa30 value="0.0162101367" flag="0"/>
    </comp>
    <comp name="--.HNN">
      <acc value="0.2431435684" flag="0"/>
      <vel value="0.1065634452" flag="0"/>
      <psa03 value="0.6396599494" flag="0"/>
