<?xml version="1.0" encoding="UTF-8" standalone="yes"?>
<!DOCTYPE earthquake SYSTEM "stationlist.dtd">
<stationlist created="" xmlns="ch.ethz.sed.shakemap.usgs.xml">
  <station code="MYT1" name="MYT1" netid="HI" insttype="CMG-5TD,ACCELEROMETER,GURALP" lat="39.085" lon="26.5694">
    <comp name="--.HNN">
      <acc value="0.2109946273" flag="0"/>
      <vel value="0.1887194242" flag="0"/>
      <psa03 value="0.6811930415" flag="0"/>
      <psa10 value="0.2067926063" flag="0"/>
      <psa30 value="0.0593731474" flag="0"/>
    </comp>
    <comp name="--.HNE">
      <acc value="0.2906781500" flag="0"/>
      <vel value="0.2188191226" flag="0"/>
      <psa03 value="0.7132309153" flag="0"/>
      <psa10 value="0.2607517310" flag="0"/>
      <psa30 value="0.0617670860" flag="0"/>
    </comp>
    <comp name="--.HNZ">
      <acc value="0.2105787357" flag="0"/>
      <vel value="0.1476502565" flag="0"/>
      <psa03 value="0.4800048936" flag="0"/>
      <psa10 value="0.2731935009" flag="0"/>
      <psa30 value="0.0460693567" flag="0"/>
    </comp>
  </station>
  <station code="SKY1" name="SKY1" netid="HI" insttype="CMG-5TD,ACCELEROMETER,GURALP" lat="38.9045" lon="24.5646">
    <comp name="--.HNN">
      <acc value="0.0696882694" flag="0"/>
      <vel value="0.0815669818" flag="0"/>
      <psa03 value="0.1802484393" flag="0"/>
      <psa10 value="0.1494724271" flag="0"/>
      <psa30 value="0.0085052635" flag="0"/>
    </comp>
    <comp name="--.HNZ">
      <acc value="0.0565157292" flag="0"/>
      <vel value="0.0705935272" flag="0"/>
      <psa03 value="0.1196646420" flag="0"/>
      <psa10 value="0.1347721757" flag="0"/>
      <psa30 value="0.0073492270" flag="0"/>
    </comp>
    <comp name="--.HNE">
      <acc value="0.1235653550" flag="0"/>
      <vel value="0.1368388565" flag="0"/>
      <psa03 value="0.1575097361" flag="0"/>
      <psa10 value="0.2298538320" flag="0"/>
      <psa30 value="0.0158671981" flag="0"/>
    </comp>
  </station>
  <station code="EFSA" name="EFSA" netid="HL" insttype="CMG-5" lat="39.5401" lon="24.9886">
    <comp name="00.HNE">
      <acc value="0.1125806638" flag="0"/>
      <vel value="0.0927531217" flag="0"/>
      <psa03 value="0.2356119771" flag="0"/>
      <psa10 value="0.1794543976" flag="0"/>
      <psa30 value="0.0100774348" flag="0"/>
    </comp>
    <comp name="00.HNN">
      <acc value="0.1804661360" flag="0"/>
      <vel value="0.1857615284" flag="0"/>
      <psa03 value="0.2775312930" flag="0"/>
      <psa10 value="0.2859429908" flag="0"/>
      <psa30 value="0.0246205157" flag="0"/>
    </comp>
    <comp name="00.HNZ">
      <acc value="0.0857428734" flag="0"/>
      <vel value="0.0722760995" flag="0"/>
      <psa03 value="0.1763412123" flag="0"/>
      <psa10 value="0.1087367622" flag="0"/>
      <psa30 value="0.0091060445" flag="0"/>
    </comp>
  </station>
  <station code="LIA" name="LIA" netid="HL" insttype="P6C" lat="39.8972" lon="25.1806">
    <comp name="--.HHN">
      <acc value="0.1749327408" flag="0"/>
      <vel value="0.1351872043" flag="0"/>
      <psa03 value="0.4163269692" flag="0"/>
      <psa10 value="0.2400702826" flag="0"/>
      <psa30 value="0.0137138425" flag="0"/>
    </comp>
    <comp name="--.HHZ">
      <acc value="0.0798531118" flag="0"/>
      <vel value="0.0693370305" flag="0"/>
      <psa03 value="0.1877457601" flag="0"/>
      <psa10 value="0.1281263960" flag="0"/>
      <psa30 value="0.0083260853" flag="0"/>
    </comp>
    <comp name="--.HHE">
      <acc value="0.1503298146" flag="0"/>
      <vel value="0.1291833395" flag="0"/>
      <psa03 value="0.3211194233" flag="0"/>
      <psa10 value="0.2493125477" flag="0"/>
      <psa30 value="0.0104491881" flag="0"/>
    </comp>
  </station>
  <station code="PRK" name="PRK" netid="HL" insttype="CMG5T" lat="39.2456" lon="26.265">
    <comp name="--.HNZ">
      <acc value="1.1846579896" flag="0"/>
      <vel value="0.6571053093" flag="0"/>
      <psa03 value="1.7856631429" flag="0"/>
      <psa10 value="0.9850595918" flag="0"/>
      <psa30 value="0.0999959184" flag="0"/>
    </comp>
    <comp name="--.HNE">
      <acc value="1.7370480461" flag="0"/>
      <vel value="1.1143854548" flag="0"/>
      <psa03 value="4.0189330642" flag="0"/>
      <psa10 value="1.6888715884" flag="0"/>
      <psa30 value="0.0947844562" flag="0"/>
    </comp>
    <comp name="--.HNN">
      <acc value="1.4314157675" flag="0"/>
      <vel value="1.1784759230" flag="0"/>
      <psa03 value="2.9679425030" flag="0"/>
      <psa10 value="2.1707681278" flag="0"/>
      <psa30 value="0.1332285572" flag="0"/>
    </comp>
  </station>
  <station code="PSRA" name="PSRA" netid="HL" insttype="CMG-5" lat="38.5398" lon="25.562">
    <comp name="00.HNE">
      <acc value="0.5083826551" flag="0"/>
      <vel value="0.2137170073" flag="0"/>
      <psa03 value="1.0903218417" flag="0"/>
      <psa10 value="0.2440105717" flag="0"/>
      <psa30 value="0.0210966024" flag="0"/>
    </comp>
    <comp name="00.HNZ">
      <acc value="0.3010575884" flag="0"/>
      <vel value="0.0924186889" flag="0"/>
      <psa03 value="0.2817460386" flag="0"/>
      <psa10 value="0.0803055727" flag="0"/>
      <psa30 value="0.0164523234" flag="0"/>
    </comp>
    <comp name="00.HNN">
      <acc value="0.3923942924" flag="0"/>
      <vel value="0.1918058096" flag="0"/>
      <psa03 value="1.4030790959" flag="0"/>
      <psa10 value="0.1585443064" flag="0"/>
      <psa30 value="0.0118763600" flag="0"/>
    </comp>
  </station>
  <station code="ALN" name="ALN" netid="HT" insttype="100" lat="40.885" lon="26.046">
    <comp name="--.HHZ">
      <acc value="0.0466578366" flag="0"/>
      <vel value="0.0411765125" flag="0"/>
      <psa03 value="0.1068347818" flag="0"/>
      <psa10 value="0.0364181975" flag="0"/>
      <psa30 value="0.0059801992" flag="0"/>
    </comp>
    <comp name="--.HHN">
      <acc value="0.1181679675" flag="0"/>
      <vel value="0.1119073205" flag="0"/>
      <psa03 value="0.3222655125" flag="0"/>
      <psa10 value="0.1467763385" flag="0"/>
      <psa30 value="0.0175295540" flag="0"/>
    </comp>
    <comp name="--.HHE">
      <acc value="0.1028528213" flag="0"/>
      <vel value="0.0699804175" flag="0"/>
      <psa03 value="0.2430627249" flag="0"/>
      <psa10 value="0.1266450448" flag="0"/>
      <psa30 value="0.0111300360" flag="0"/>
    </comp>
  </station>
  <station code="SIGR" name="SIGR" netid="HT" insttype="100" lat="39.2114" lon="25.8553">
    <comp name="--.HHN">
      <acc value="0.4076167103" flag="0"/>
      <vel value="0.3153637261" flag="0"/>
      <psa03 value="0.8775261502" flag="0"/>
      <psa10 value="0.4334632014" flag="0"/>
      <psa30 value="0.0307208635" flag="0"/>
    </comp>
    <comp name="--.HHZ">
      <acc value="0.3243673622" flag="0"/>
      <vel value="0.2023746790" flag="0"/>
      <psa03 value="0.7226739990" flag="0"/>
      <psa10 value="0.2201631849" flag="0"/>
      <psa30 value="0.0514526878" flag="0"/>
    </comp>
    <comp name="--.HHE">
      <acc value="0.4510953501" flag="0"/>
      <vel value="0.3509978417" flag="0"/>
      <psa03 value="0.8099774239" flag="0"/>
      <psa10 value="0.5511185469" flag="0"/>
      <psa30 value="0.0394537802" flag="0"/>
    </comp>
  </station>
  <station code="BIGA" name="BIGA" netid="KO" insttype="CMG-5T" lat="40.2813" lon="27.1505">
    <comp name="--.HNE">
      <acc value="0.1079534729" flag="0"/>
      <vel value="0.0625788069" flag="0"/>
      <psa03 value="0.2819663822" flag="0"/>
      <psa10 value="0.0670109012" flag="0"/>
      <psa30 value="0.0160865181" flag="0"/>
    </comp>
    <comp name="--.HNN">
      <acc value="0.1709633570" flag="0"/>
      <vel value="0.0751867211" flag="0"/>
      <psa03 value="0.3198058526" flag="0"/>
      <psa10 value="0.0717658240" flag="0"/>
      <psa30 value="0.0123908859" flag="0"/>
    </comp>
    <comp name="--.HNZ">
      <acc value="0.0642103143" flag="0"/>
      <vel value="0.0295133856" flag="0"/>
      <psa03 value="0.1196281548" flag="0"/>
      <psa10 value="0.0372475089" flag="0"/>
      <psa30 value="0.0122489971" flag="0"/>
    </comp>
  </station>
  <station code="BLCB" name="BLCB" netid="KO" insttype="CMG-3T" lat="38.3853" lon="27.042">
    <comp name="--.HHE">
      <acc value="0.0622270282" flag="0"/>
      <vel value="0.0293518398" flag="0"/>
      <psa03 value="0.1459532403" flag="0"/>
      <psa10 value="0.0330656954" flag="0"/>
      <psa30 value="0.0076942163" flag="0"/>
    </comp>
    <comp name="--.HHN">
      <acc value="0.0000618751" flag="0"/>
      <vel value="0.0000152373" flag="0"/>
      <psa03 value="0.0000714811" flag="0"/>
      <psa10 value="0.0000256724" flag="0"/>
      <psa30 value="0.0000049501" flag="0"/>
    </comp>
    <comp name="--.HHZ">
      <acc value="0.0422751349" flag="0"/>
      <vel value="0.0236651733" flag="0"/>
      <psa03 value="0.0951775845" flag="0"/>
      <psa10 value="0.0473955774" flag="0"/>
      <psa30 value="0.0068891255" flag="0"/>
    </comp>
  </station>
  <station code="BMYO" name="BMYO" netid="KO" insttype="CMG-5T" lat="39.8098" lon="26.6009">
    <comp name="--.HNE">
      <acc value="0.3981435617" flag="0"/>
      <vel value="0.2012894631" flag="0"/>
      <psa03 value="0.7953595538" flag="0"/>
      <psa10 value="0.1481436201" flag="0"/>
      <psa30 value="0.0661959314" flag="0"/>
    </comp>
    <comp name="--.HNN">
      <acc value="0.2031397287" flag="0"/>
      <vel value="0.1953497495" flag="0"/>
      <psa03 value="0.7467249847" flag="0"/>
      <psa10 value="0.1762930493" flag="0"/>
      <psa30 value="0.0515753307" flag="0"/>
    </comp>
    <comp name="--.HNZ">
      <acc value="0.1557387193" flag="0"/>
      <vel value="0.1146736293" flag="0"/>
      <psa03 value="0.3662259119" flag="0"/>
      <psa10 value="0.0874253336" flag="0"/>
      <psa30 value="0.0350568519" flag="0"/>
    </comp>
  </station>
  <station code="CANM" name="CANM" netid="KO" insttype="CMG-5T" lat="40.0113" lon="27.0529">
    <comp name="--.HNE">
      <acc value="0.1355368376" flag="0"/>
      <vel value="0.0571806466" flag="0"/>
      <psa03 value="0.2163058315" flag="0"/>
      <psa10 value="0.0395033319" flag="0"/>
      <psa30 value="0.0112600269" flag="0"/>
    </comp>
    <comp name="--.HNN">
      <acc value="0.1414822407" flag="0"/>
      <vel value="0.0811933754" flag="0"/>
      <psa03 value="0.3563848123" flag="0"/>
      <psa10 value="0.0950570057" flag="0"/>
      <psa30 value="0.0276670913" flag="0"/>
    </comp>
    <comp name="--.HNZ">
      <acc value="0.1130129083" flag="0"/>
      <vel value="0.0419758763" flag="0"/>
      <psa03 value="0.1616826171" flag="0"/>
      <psa10 value="0.0308943562" flag="0"/>
      <psa30 value="0.0114798483" flag="0"/>
    </comp>
  </station>
  <station code="CESE" name="CESE" netid="KO" insttype="CMG-5T" lat="38.3306" lon="26.2997">
    <comp name="--.HNZ">
      <acc value="0.0567175068" flag="0"/>
      <vel value="0.0492594335" flag="0"/>
      <psa03 value="0.1354691829" flag="0"/>
      <psa10 value="0.0550103623" flag="0"/>
      <psa30 value="0.0121691760" flag="0"/>
    </comp>
    <comp name="--.HNE">
      <acc value="0.0613735875" flag="0"/>
      <vel value="0.0485085945" flag="0"/>
      <psa03 value="0.1578605046" flag="0"/>
      <psa10 value="0.0859414944" flag="0"/>
      <psa30 value="0.0107823521" flag="0"/>
    </comp>
    <comp name="--.HNN">
      <acc value="0.0615730209" flag="0"/>
      <vel value="0.0651948543" flag="0"/>
      <psa03 value="0.1679668794" flag="0"/>
      <psa10 value="0.0926767943" flag="0"/>
      <psa30 value="0.0096100634" flag="0"/>
    </comp>
  </station>
  <station code="EDC" name="EDC" netid="KO" insttype="CMG-3T" lat="40.3465" lon="27.8618">
    <comp name="--.HHE">
      <acc value="0.0412703051" flag="0"/>
      <vel value="0.0323894284" flag="0"/>
      <psa03 value="0.1827021510" flag="0"/>
      <psa10 value="0.0429951998" flag="0"/>
      <psa30 value="0.0059628398" flag="0"/>
    </comp>
    <comp name="--.HHN">
      <acc value="0.0579313850" flag="0"/>
      <vel value="0.0445235508" flag="0"/>
      <psa03 value="0.1990819119" flag="0"/>
      <psa10 value="0.0631014582" flag="0"/>
      <psa30 value="0.0132389735" flag="0"/>
    </comp>
    <comp name="--.HHZ">
      <acc value="0.0294023599" flag="0"/>
      <vel value="0.0184262113" flag="0"/>
      <psa03 value="0.0570213466" flag="0"/>
      <psa10 value="0.0292008837" flag="0"/>
      <psa30 value="0.0068357364" flag="0"/>
    </comp>
  </station>
  <station code="ENZZ" name="ENZZ" netid="KO" insttype="CMG-5T" lat="40.607" lon="26.1406">
    <comp name="--.HNE">
      <acc value="0.4537176550" flag="0"/>
      <vel value="0.3165537153" flag="0"/>
      <psa03 value="1.0731255278" flag="0"/>
      <psa10 value="0.5244161226" flag="0"/>
      <psa30 value="0.0363066429" flag="0"/>
    </comp>
    <comp name="--.HNN">
      <acc value="0.4409596144" flag="0"/>
      <vel value="0.3728537896" flag="0"/>
      <psa03 value="0.8914468595" flag="0"/>
      <psa10 value="0.5832184084" flag="0"/>
      <psa30 value="0.0566980718" flag="0"/>
    </comp>
    <comp name="--.HNZ">
      <acc value="0.1339143305" flag="0"/>
      <vel value="0.0857572509" flag="0"/>
      <psa03 value="0.4729157007" flag="0"/>
      <psa10 value="0.1290754394" flag="0"/>
      <psa30 value="0.0262774827" flag="0"/>
    </comp>
  </station>
  <station code="ERIK" name="ERIK" netid="KO" insttype="CMG-3ESP" lat="40.6708" lon="26.5132">
    <comp name="--.HHZ">
      <acc value="0.0702807893" flag="0"/>
      <vel value="0.0487298030" flag="0"/>
      <psa03 value="0.2076890409" flag="0"/>
      <psa10 value="0.0831334971" flag="0"/>
      <psa30 value="0.0076672812" flag="0"/>
    </comp>
  </station>
  <station code="EZN" name="EZN" netid="KO" insttype="CMG-3ESP" lat="39.8255" lon="26.3246">
    <comp name="--.HHE">
      <acc value="0.6646513024" flag="0"/>
      <vel value="0.2518366547" flag="0"/>
      <psa03 value="0.8575582815" flag="0"/>
      <psa10 value="0.2675374647" flag="0"/>
      <psa30 value="0.0226284735" flag="0"/>
    </comp>
    <comp name="--.HHN">
      <acc value="0.6010575369" flag="0"/>
      <vel value="0.2692744315" flag="0"/>
      <psa03 value="0.8596295463" flag="0"/>
      <psa10 value="0.4535712115" flag="0"/>
      <psa30 value="0.0297988837" flag="0"/>
    </comp>
    <comp name="--.HHZ">
      <acc value="0.4960860485" flag="0"/>
      <vel value="0.1187359082" flag="0"/>
      <psa03 value="0.4731808099" flag="0"/>
      <psa10 value="0.2023580621" flag="0"/>
      <psa30 value="0.0275494817" flag="0"/>
    </comp>
  </station>
  <station code="EZNE" name="EZNE" netid="KO" insttype="CMG-5T" lat="39.756" lon="26.3655">
    <comp name="--.HNE">
      <acc value="0.8717880149" flag="0"/>
      <vel value="0.2381770876" flag="0"/>
      <psa03 value="2.1595844431" flag="0"/>
      <psa10 value="0.2762120360" flag="0"/>
      <psa30 value="0.0436887616" flag="0"/>
    </comp>
    <comp name="--.HNZ">
      <acc value="0.5889013402" flag="0"/>
      <vel value="0.1721782120" flag="0"/>
      <psa03 value="1.1283496348" flag="0"/>
      <psa10 value="0.1785264812" flag="0"/>
      <psa30 value="0.0297437186" flag="0"/>
    </comp>
    <comp name="--.HNN">
      <acc value="1.0085661339" flag="0"/>
      <vel value="0.4279570681" flag="0"/>
      <psa03 value="2.6768418291" flag="0"/>
      <psa10 value="0.3219216487" flag="0"/>
      <psa30 value="0.0596413206" flag="0"/>
    </comp>
  </station>
  <station code="GADA" name="GADA" netid="KO" insttype="CMG-3T" lat="40.1908" lon="25.8987">
    <comp name="--.HHE">
      <acc value="0.1329262492" flag="0"/>
      <vel value="0.0618175144" flag="0"/>
      <psa03 value="0.1385366897" flag="0"/>
      <psa10 value="0.0828495968" flag="0"/>
      <psa30 value="0.0094211797" flag="0"/>
    </comp>
    <comp name="--.HHZ">
      <acc value="0.0715625539" flag="0"/>
      <vel value="0.0840712469" flag="0"/>
      <psa03 value="0.1491384701" flag="0"/>
      <psa10 value="0.0967184354" flag="0"/>
      <psa30 value="0.0074719369" flag="0"/>
    </comp>
  </station>
  <station code="GAZK" name="GAZK" netid="KO" insttype="CMG-6T" lat="40.7479" lon="27.3275">
    <comp name="--.HHE">
      <acc value="0.1488917610" flag="0"/>
      <vel value="0.1047959798" flag="0"/>
      <psa03 value="0.3179158831" flag="0"/>
      <psa10 value="0.1597146350" flag="0"/>
      <psa30 value="0.0214979272" flag="0"/>
    </comp>
    <comp name="--.HHN">
      <acc value="0.1105029527" flag="0"/>
      <vel value="0.0853726461" flag="0"/>
      <psa03 value="0.3242233435" flag="0"/>
      <psa10 value="0.1216772730" flag="0"/>
      <psa30 value="0.0180021013" flag="0"/>
    </comp>
    <comp name="--.HHZ">
      <acc value="0.0744028806" flag="0"/>
      <vel value="0.0507927457" flag="0"/>
      <psa03 value="0.1864660436" flag="0"/>
      <psa10 value="0.0778440069" flag="0"/>
      <psa30 value="0.0153597590" flag="0"/>
    </comp>
  </station>
  <station code="GELI" name="GELI" netid="KO" insttype="CMG-3ESP" lat="40.398" lon="26.4742">
    <comp name="--.HHZ">
      <acc value="0.0922603157" flag="0"/>
      <vel value="0.0551787928" flag="0"/>
      <psa03 value="0.2418156192" flag="0"/>
      <psa10 value="0.0529662930" flag="0"/>
      <psa30 value="0.0141748631" flag="0"/>
    </comp>
  </station>
  <station code="GOMA" name="GOMA" netid="KO" insttype="CMG-5T" lat="38.7077" lon="27.9175">
    <comp name="--.HNE">
      <acc value="0.0225337697" flag="0"/>
      <vel value="0.0215098506" flag="0"/>
      <psa03 value="0.0785650438" flag="0"/>
      <psa10 value="0.0349477464" flag="0"/>
      <psa30 value="0.0067550852" flag="0"/>
    </comp>
    <comp name="--.HNN">
      <acc value="0.0155872478" flag="0"/>
      <vel value="0.0182601353" flag="0"/>
      <psa03 value="0.0542723490" flag="0"/>
      <psa10 value="0.0372269085" flag="0"/>
      <psa30 value="0.0077978492" flag="0"/>
    </comp>
    <comp name="--.HNZ">
      <acc value="0.0139582492" flag="0"/>
      <vel value="0.0154830877" flag="0"/>
      <psa03 value="0.0233791804" flag="0"/>
      <psa10 value="0.0151978497" flag="0"/>
      <psa30 value="0.0046888592" flag="0"/>
    </comp>
  </station>
  <station code="GONE" name="GONE" netid="KO" insttype="CMG-5T" lat="40.0466" lon="27.686">
    <comp name="--.HNN">
      <acc value="0.1061070925" flag="0"/>
      <vel value="0.0829083804" flag="0"/>
      <psa03 value="0.2143272229" flag="0"/>
      <psa10 value="0.1334602950" flag="0"/>
      <psa30 value="0.0189847604" flag="0"/>
    </comp>
    <comp name="--.HNZ">
      <acc value="0.0417335146" flag="0"/>
      <vel value="0.0313185958" flag="0"/>
      <psa03 value="0.0716776914" flag="0"/>
      <psa10 value="0.0382104983" flag="0"/>
      <psa30 value="0.0115955526" flag="0"/>
    </comp>
    <comp name="--.HNE">
      <acc value="0.0567725974" flag="0"/>
      <vel value="0.0728694494" flag="0"/>
      <psa03 value="0.1219984050" flag="0"/>
      <psa10 value="0.0790048788" flag="0"/>
      <psa30 value="0.0188807799" flag="0"/>
    </comp>
  </station>
  <station code="GPNR" name="GPNR" netid="KO" insttype="CMG-5T" lat="39.456" lon="26.1331">
    <comp name="--.HNE">
      <acc value="3.4276473567" flag="0"/>
      <vel value="1.5597729081" flag="0"/>
      <psa03 value="5.0551352406" flag="0"/>
      <psa10 value="1.4599829908" flag="0"/>
      <psa30 value="0.2156760526" flag="0"/>
    </comp>
    <comp name="--.HNZ">
      <acc value="1.7500508053" flag="0"/>
      <vel value="0.8558466988" flag="0"/>
      <psa03 value="3.5970807976" flag="0"/>
      <psa10 value="0.8907690841" flag="0"/>
      <psa30 value="0.0780764076" flag="0"/>
    </comp>
  </station>
  <station code="KRBN" name="KRBN" netid="KO" insttype="CMG-5T" lat="38.5936" lon="26.5537">
    <comp name="--.HNZ">
      <acc value="0.1673869474" flag="0"/>
      <vel value="0.1065323633" flag="0"/>
