<?xml version="1.0" encoding="UTF-8" standalone="yes"?>
<!DOCTYPE earthquake SYSTEM "stationlist.dtd">
<stationlist created="" xmlns="ch.ethz.sed.shakemap.usgs.xml">
  <station code="AIO" name="AIO" netid="IV" insttype="" commtype="DIG" lat="37.9712" lon="15.233">
    <comp name="--.HHE">
      <acc value="0.0029064646" flag="0"/>
      <vel value="0.0016523885" flag="0"/>
      <psa03 value="0.0095417109" flag="0"/>
      <psa10 value="0.0019393351" flag="0"/>
      <psa30 value="0.0002217817" flag="0"/>
    </comp>
    <comp name="--.HHN">
      <acc value="0.0037260079" flag="0"/>
      <vel value="0.0021806728" flag="0"/>
      <psa03 value="0.0122885794" flag="0"/>
      <psa10 value="0.0018864995" flag="0"/>
      <psa30 value="0.0001662905" flag="0"/>
    </comp>
    <comp name="--.HHZ">
      <acc value="0.0014539654" flag="0"/>
      <vel value="0.0007124849" flag="0"/>
      <psa03 value="0.0042722628" flag="0"/>
      <psa10 value="0.0007116990" flag="0"/>
      <psa30 value="0.0001017218" flag="0"/>
    </comp>
  </station>
  <station code="BASIC" name="BASIC" netid="IV" insttype="" commtype="DIG" lat="38.067" lon="15.0688">
    <comp name="--.HHE">
      <acc value="0.0206773702" flag="0"/>
      <vel value="0.0111550565" flag="0"/>
      <psa03 value="0.0574883582" flag="0"/>
      <psa10 value="0.0074629481" flag="0"/>
      <psa30 value="0.0006439799" flag="0"/>
    </comp>
    <comp name="--.HHN">
      <acc value="0.0105898318" flag="0"/>
      <vel value="0.0085835575" flag="0"/>
      <psa03 value="0.0410681239" flag="0"/>
      <psa10 value="0.0099849753" flag="0"/>
      <psa30 value="0.0005267867" flag="0"/>
    </comp>
    <comp name="--.HHZ">
      <acc value="0.0132468949" flag="0"/>
      <vel value="0.0043461971" flag="0"/>
      <psa03 value="0.0250148969" flag="0"/>
      <psa10 value="0.0027413607" flag="0"/>
      <psa30 value="0.0003227090" flag="0"/>
    </comp>
  </station>
  <station code="CSLB" name="CSLB" netid="IV" insttype="" commtype="DIG" lat="37.9374" lon="14.0579">
    <comp name="--.HHN">
      <acc value="0.0103100165" flag="0"/>
      <vel value="0.0050149336" flag="0"/>
      <psa03 value="0.0218796749" flag="0"/>
      <psa10 value="0.0037819711" flag="0"/>
      <psa30 value="0.0005587157" flag="0"/>
    </comp>
    <comp name="--.HHE">
      <acc value="0.0116451289" flag="0"/>
      <vel value="0.0048768985" flag="0"/>
      <psa03 value="0.0262928404" flag="0"/>
      <psa10 value="0.0037684235" flag="0"/>
      <psa30 value="0.0004614569" flag="0"/>
    </comp>
    <comp name="--.HHZ">
      <acc value="0.0095616958" flag="0"/>
      <vel value="0.0041762773" flag="0"/>
      <psa03 value="0.0274577808" flag="0"/>
      <psa10 value="0.0043008741" flag="0"/>
      <psa30 value="0.0004545306" flag="0"/>
    </comp>
  </station>
  <station code="ECTS" name="ECTS" netid="IV" insttype="" commtype="DIG" lat="37.882" lon="15.121">
    <comp name="--.HHE">
      <acc value="0.0054537055" flag="0"/>
      <vel value="0.0044153446" flag="0"/>
      <psa03 value="0.0149535373" flag="0"/>
      <psa10 value="0.0049888186" flag="0"/>
      <psa30 value="0.0004899289" flag="0"/>
    </comp>
    <comp name="--.HHN">
      <acc value="0.0097162292" flag="0"/>
      <vel value="0.0048623695" flag="0"/>
      <psa03 value="0.0359744795" flag="0"/>
      <psa10 value="0.0052420543" flag="0"/>
      <psa30 value="0.0002655502" flag="0"/>
    </comp>
    <comp name="--.HHZ">
      <acc value="0.0051771792" flag="0"/>
      <vel value="0.0028189930" flag="0"/>
      <psa03 value="0.0119787995" flag="0"/>
      <psa10 value="0.0046002069" flag="0"/>
      <psa30 value="0.0001902463" flag="0"/>
    </comp>
  </station>
  <station code="EMCO" name="EMCO" netid="IV" insttype="" commtype="DIG" lat="37.9264" lon="14.9029">
    <comp name="--.HHN">
      <acc value="0.0198364229" flag="0"/>
      <vel value="0.0095494963" flag="0"/>
      <psa03 value="0.0773342486" flag="0"/>
      <psa10 value="0.0056238587" flag="0"/>
      <psa30 value="0.0004011370" flag="0"/>
    </comp>
    <comp name="--.HHE">
      <acc value="0.0193921376" flag="0"/>
      <vel value="0.0106384851" flag="0"/>
      <psa03 value="0.0432071489" flag="0"/>
      <psa10 value="0.0049849723" flag="0"/>
      <psa30 value="0.0007304818" flag="0"/>
    </comp>
    <comp name="--.HHZ">
      <acc value="0.0102327525" flag="0"/>
      <vel value="0.0037218844" flag="0"/>
      <psa03 value="0.0177149072" flag="0"/>
      <psa10 value="0.0023350800" flag="0"/>
      <psa30 value="0.0002639421" flag="0"/>
    </comp>
  </station>
  <station code="EPIT" name="EPIT" netid="IV" insttype="" commtype="DIG" lat="37.8113" lon="15.0567">
    <comp name="--.HHZ">
      <acc value="0.0090099500" flag="0"/>
      <vel value="0.0048170798" flag="0"/>
      <psa03 value="0.0349099128" flag="0"/>
      <psa10 value="0.0064408993" flag="0"/>
      <psa30 value="0.0005659853" flag="0"/>
    </comp>
  </station>
  <station code="EPMN" name="EPMN" netid="IV" insttype="" commtype="DIG" lat="37.8204" lon="15.1773">
    <comp name="--.HHE">
      <acc value="0.0000361780" flag="0"/>
      <vel value="0.0000039400" flag="0"/>
      <psa03 value="0.0000142004" flag="0"/>
      <psa10 value="0.0000022992" flag="0"/>
      <psa30 value="0.0000005761" flag="0"/>
    </comp>
    <comp name="--.HHZ">
      <acc value="0.0029056291" flag="0"/>
      <vel value="0.0020692562" flag="0"/>
      <psa03 value="0.0095214844" flag="0"/>
      <psa10 value="0.0026713183" flag="0"/>
      <psa30 value="0.0001882143" flag="0"/>
    </comp>
    <comp name="--.HHN">
      <acc value="0.0000000000" flag="0"/>
      <vel value="-100.0000000000" flag="0"/>
      <psa03 value="0.0000000000" flag="0"/>
      <psa10 value="0.0000000000" flag="0"/>
      <psa30 value="0.0000000000" flag="0"/>
    </comp>
  </station>
  <station code="ESAL" name="ESAL" netid="IV" insttype="" commtype="DIG" lat="37.7551" lon="15.1345">
    <comp name="--.HHE">
      <acc value="0.0083576683" flag="0"/>
      <vel value="0.0067391238" flag="0"/>
      <psa03 value="0.0269553856" flag="0"/>
      <psa10 value="0.0111576216" flag="0"/>
      <psa30 value="0.0007156520" flag="0"/>
    </comp>
    <comp name="--.HHN">
      <acc value="0.0079660263" flag="0"/>
      <vel value="0.0051266422" flag="0"/>
      <psa03 value="0.0326166570" flag="0"/>
      <psa10 value="0.0073905771" flag="0"/>
      <psa30 value="0.0004884903" flag="0"/>
    </comp>
    <comp name="--.HHZ">
      <acc value="0.0055433009" flag="0"/>
      <vel value="0.0032242012" flag="0"/>
      <psa03 value="0.0153055211" flag="0"/>
      <psa10 value="0.0032433818" flag="0"/>
      <psa30 value="0.0004691421" flag="0"/>
    </comp>
  </station>
  <station code="ESCV" name="ESCV" netid="IV" insttype="" commtype="DIG" lat="37.747" lon="14.8152">
    <comp name="--.HHE">
      <acc value="0.0328542881" flag="0"/>
      <vel value="0.0180132712" flag="0"/>
      <psa03 value="0.0847090569" flag="0"/>
      <psa10 value="0.0098659759" flag="0"/>
      <psa30 value="0.0006981147" flag="0"/>
    </comp>
    <comp name="--.HHN">
      <acc value="0.0436389127" flag="0"/>
      <vel value="0.0161669972" flag="0"/>
      <psa03 value="0.0972162907" flag="0"/>
      <psa10 value="0.0098994067" flag="0"/>
      <psa30 value="0.0005858027" flag="0"/>
    </comp>
    <comp name="--.HHZ">
      <acc value="0.0152600731" flag="0"/>
      <vel value="0.0067587694" flag="0"/>
      <psa03 value="0.0432151195" flag="0"/>
      <psa10 value="0.0057297829" flag="0"/>
      <psa30 value="0.0007153256" flag="0"/>
    </comp>
  </station>
  <station code="ESLN" name="ESLN" netid="IV" insttype="" commtype="DIG" lat="37.6934" lon="14.9744">
    <comp name="--.HHE">
      <acc value="0.0087411516" flag="0"/>
      <vel value="0.0056488041" flag="0"/>
      <psa03 value="0.0333407442" flag="0"/>
      <psa10 value="0.0082967862" flag="0"/>
      <psa30 value="0.0007678708" flag="0"/>
    </comp>
    <comp name="--.HHN">
      <acc value="0.0059589589" flag="0"/>
      <vel value="0.0045709721" flag="0"/>
      <psa03 value="0.0218849261" flag="0"/>
      <psa10 value="0.0063585393" flag="0"/>
      <psa30 value="0.0006249012" flag="0"/>
    </comp>
    <comp name="--.HHZ">
      <acc value="0.0059332774" flag="0"/>
      <vel value="0.0032671867" flag="0"/>
      <psa03 value="0.0186482393" flag="0"/>
      <psa10 value="0.0066173730" flag="0"/>
      <psa30 value="0.0003064973" flag="0"/>
    </comp>
  </station>
  <station code="GALF" name="GALF" netid="IV" insttype="" commtype="DIG" lat="37.7107" lon="14.5665">
    <comp name="--.HHE">
      <acc value="0.0589278958" flag="0"/>
      <vel value="0.0316417859" flag="0"/>
      <psa03 value="0.2638451321" flag="0"/>
      <psa10 value="0.0282912932" flag="0"/>
      <psa30 value="0.0015666103" flag="0"/>
    </comp>
    <comp name="--.HHZ">
      <acc value="0.1351542180" flag="0"/>
      <vel value="0.0606725487" flag="0"/>
      <psa03 value="0.3564040916" flag="0"/>
      <psa10 value="0.0149595482" flag="0"/>
      <psa30 value="0.0014835537" flag="0"/>
    </comp>
    <comp name="--.HHN">
      <acc value="0.1204948187" flag="0"/>
      <vel value="0.0572849056" flag="0"/>
      <psa03 value="0.3741037140" flag="0"/>
      <psa10 value="0.0248446009" flag="0"/>
      <psa30 value="0.0014655928" flag="0"/>
    </comp>
  </station>
  <station code="HCRL" name="HCRL" netid="IV" insttype="" commtype="DIG" lat="37.2831" lon="15.0325">
    <comp name="--.HHE">
      <acc value="0.0083433585" flag="0"/>
      <vel value="0.0023461323" flag="0"/>
      <psa03 value="0.0103291279" flag="0"/>
      <psa10 value="0.0023369046" flag="0"/>
      <psa30 value="0.0001974145" flag="0"/>
    </comp>
    <comp name="--.HHN">
      <acc value="0.0073536862" flag="0"/>
      <vel value="0.0021510111" flag="0"/>
      <psa03 value="0.0082519713" flag="0"/>
      <psa10 value="0.0029131583" flag="0"/>
      <psa30 value="0.0001313621" flag="0"/>
    </comp>
    <comp name="--.HHZ">
      <acc value="0.0045351970" flag="0"/>
      <vel value="0.0019228354" flag="0"/>
      <psa03 value="0.0071897612" flag="0"/>
      <psa10 value="0.0011814074" flag="0"/>
      <psa30 value="0.0001727080" flag="0"/>
    </comp>
  </station>
  <station code="HVIT" name="HVIT" netid="IV" insttype="" commtype="DIG" lat="36.9926" lon="14.5216">
    <comp name="--.HHE">
      <acc value="0.0082302770" flag="0"/>
      <vel value="0.0042679653" flag="0"/>
      <psa03 value="0.0168687223" flag="0"/>
      <psa10 value="0.0036191084" flag="0"/>
      <psa30 value="0.0002934144" flag="0"/>
    </comp>
    <comp name="--.HHN">
      <acc value="0.0069105063" flag="0"/>
      <vel value="0.0026476332" flag="0"/>
      <psa03 value="0.0182329270" flag="0"/>
      <psa10 value="0.0041380177" flag="0"/>
      <psa30 value="0.0003191627" flag="0"/>
    </comp>
    <comp name="--.HHZ">
      <acc value="0.0052708210" flag="0"/>
      <vel value="0.0014974434" flag="0"/>
      <psa03 value="0.0072125794" flag="0"/>
      <psa10 value="0.0016199379" flag="0"/>
      <psa30 value="0.0001952263" flag="0"/>
    </comp>
  </station>
  <station code="IACL" name="IACL" netid="IV" insttype="" commtype="DIG" lat="38.533" lon="14.355">
    <comp name="--.HHN">
      <acc value="0.0216045245" flag="0"/>
      <vel value="0.0070450533" flag="0"/>
      <psa03 value="0.0503957672" flag="0"/>
      <psa10 value="0.0041628375" flag="0"/>
      <psa30 value="0.0002819010" flag="0"/>
    </comp>
    <comp name="--.HHE">
      <acc value="0.0175940639" flag="0"/>
      <vel value="0.0076617407" flag="0"/>
      <psa03 value="0.0341310622" flag="0"/>
      <psa10 value="0.0084515663" flag="0"/>
      <psa30 value="0.0004387085" flag="0"/>
    </comp>
    <comp name="--.HHZ">
      <acc value="0.0105804061" flag="0"/>
      <vel value="0.0031724124" flag="0"/>
      <psa03 value="0.0177902734" flag="0"/>
      <psa10 value="0.0017915609" flag="0"/>
      <psa30 value="0.0002219516" flag="0"/>
    </comp>
  </station>
  <station code="ILOS" name="ILOS" netid="IV" insttype="" commtype="DIG" lat="38.4457" lon="14.9483">
    <comp name="--.HHE">
      <acc value="0.0261912676" flag="0"/>
      <vel value="0.0127925444" flag="0"/>
      <psa03 value="0.0876328435" flag="0"/>
      <psa10 value="0.0105279250" flag="0"/>
      <psa30 value="0.0006566586" flag="0"/>
    </comp>
    <comp name="--.HHN">
      <acc value="0.0501084950" flag="0"/>
      <vel value="0.0232932015" flag="0"/>
      <psa03 value="0.1056955974" flag="0"/>
      <psa10 value="0.0185551679" flag="0"/>
      <psa30 value="0.0008076530" flag="0"/>
    </comp>
    <comp name="--.HHZ">
      <acc value="0.0219668806" flag="0"/>
      <vel value="0.0078319135" flag="0"/>
      <psa03 value="0.0524728494" flag="0"/>
      <psa10 value="0.0033741394" flag="0"/>
      <psa30 value="0.0002660335" flag="0"/>
    </comp>
  </station>
  <station code="IVLT" name="IVLT" netid="IV" insttype="" commtype="DIG" lat="38.3961" lon="14.9482">
    <comp name="--.HHE">
      <acc value="0.0073848688" flag="0"/>
      <vel value="0.0042806726" flag="0"/>
      <psa03 value="0.0278732470" flag="0"/>
      <psa10 value="0.0062063894" flag="0"/>
      <psa30 value="0.0002257430" flag="0"/>
    </comp>
    <comp name="--.HHN">
      <acc value="0.0104184425" flag="0"/>
      <vel value="0.0050637069" flag="0"/>
      <psa03 value="0.0222853593" flag="0"/>
      <psa10 value="0.0044965162" flag="0"/>
      <psa30 value="0.0002476076" flag="0"/>
    </comp>
    <comp name="--.HHZ">
      <acc value="0.0053556209" flag="0"/>
      <vel value="0.0024309577" flag="0"/>
      <psa03 value="0.0197945489" flag="0"/>
      <psa10 value="0.0013238259" flag="0"/>
      <psa30 value="0.0001757870" flag="0"/>
    </comp>
  </station>
  <station code="IVPL" name="IVPL" netid="IV" insttype="" commtype="DIG" lat="38.3763" lon="14.9801">
    <comp name="--.HHE">
      <acc value="0.0112277605" flag="0"/>
      <vel value="0.0047354687" flag="0"/>
      <psa03 value="0.0311750368" flag="0"/>
      <psa10 value="0.0040826050" flag="0"/>
      <psa30 value="0.0003200601" flag="0"/>
    </comp>
    <comp name="--.HHN">
      <acc value="0.0116735508" flag="0"/>
      <vel value="0.0063071056" flag="0"/>
      <psa03 value="0.0261453884" flag="0"/>
      <psa10 value="0.0049384870" flag="0"/>
      <psa30 value="0.0002612082" flag="0"/>
    </comp>
    <comp name="--.HHZ">
      <acc value="0.0070243122" flag="0"/>
      <vel value="0.0029970523" flag="0"/>
      <psa03 value="0.0279405875" flag="0"/>
      <psa10 value="0.0014457568" flag="0"/>
      <psa30 value="0.0001625754" flag="0"/>
    </comp>
  </station>
  <station code="IVUG" name="IVUG" netid="IV" insttype="" commtype="DIG" lat="38.396" lon="14.986">
    <comp name="--.HHE">
      <acc value="0.0129230518" flag="0"/>
      <vel value="0.0066011195" flag="0"/>
      <psa03 value="0.0333006078" flag="0"/>
      <psa10 value="0.0058372936" flag="0"/>
      <psa30 value="0.0005418058" flag="0"/>
    </comp>
    <comp name="--.HHN">
      <acc value="0.0133081399" flag="0"/>
      <vel value="0.0069550874" flag="0"/>
      <psa03 value="0.0321506454" flag="0"/>
      <psa10 value="0.0037484843" flag="0"/>
      <psa30 value="0.0003349019" flag="0"/>
    </comp>
    <comp name="--.HHZ">
      <acc value="0.0093545272" flag="0"/>
      <vel value="0.0034872977" flag="0"/>
      <psa03 value="0.0156119423" flag="0"/>
      <psa10 value="0.0018835157" flag="0"/>
      <psa30 value="0.0002739021" flag="0"/>
    </comp>
  </station>
  <station code="LIBRI" name="LIBRI" netid="IV" insttype="" commtype="DIG" lat="38.0837" lon="14.9287">
    <comp name="--.HHN">
      <acc value="0.0061316018" flag="0"/>
      <vel value="0.0035882492" flag="0"/>
      <psa03 value="0.0204964306" flag="0"/>
      <psa10 value="0.0036858495" flag="0"/>
      <psa30 value="0.0002700962" flag="0"/>
    </comp>
    <comp name="--.HHE">
      <acc value="0.0066622731" flag="0"/>
      <vel value="0.0034064361" flag="0"/>
      <psa03 value="0.0174348981" flag="0"/>
      <psa10 value="0.0052270501" flag="0"/>
      <psa30 value="0.0002994524" flag="0"/>
    </comp>
    <comp name="--.HHZ">
      <acc value="0.0046740553" flag="0"/>
      <vel value="0.0026152287" flag="0"/>
      <psa03 value="0.0168730830" flag="0"/>
      <psa10 value="0.0021896110" flag="0"/>
      <psa30 value="0.0001307016" flag="0"/>
    </comp>
  </station>
  <station code="MCPD" name="MCPD" netid="IV" insttype="" commtype="DIG" lat="38.1199" lon="14.731">
    <comp name="--.HHE">
      <acc value="0.0054133558" flag="0"/>
      <vel value="0.0024196348" flag="0"/>
      <psa03 value="0.0206105693" flag="0"/>
      <psa10 value="0.0016469325" flag="0"/>
      <psa30 value="0.0001214263" flag="0"/>
    </comp>
    <comp name="--.HHN">
      <acc value="0.0049219454" flag="0"/>
      <vel value="0.0025475275" flag="0"/>
      <psa03 value="0.0186594112" flag="0"/>
      <psa10 value="0.0023150377" flag="0"/>
      <psa30 value="0.0001068740" flag="0"/>
    </comp>
    <comp name="--.HHZ">
      <acc value="0.0056671103" flag="0"/>
      <vel value="0.0020019494" flag="0"/>
      <psa03 value="0.0092508568" flag="0"/>
      <psa10 value="0.0019557474" flag="0"/>
      <psa30 value="0.0001404451" flag="0"/>
    </comp>
  </station>
  <station code="MILZ" name="MILZ" netid="IV" insttype="" commtype="DIG" lat="38.2713" lon="15.2313">
    <comp name="--.HHE">
      <acc value="0.0039809269" flag="0"/>
      <vel value="0.0030513345" flag="0"/>
      <psa03 value="0.0094012234" flag="0"/>
      <psa10 value="0.0048839196" flag="0"/>
      <psa30 value="0.0003873682" flag="0"/>
    </comp>
    <comp name="--.HHN">
      <acc value="0.0061497891" flag="0"/>
      <vel value="0.0034476617" flag="0"/>
      <psa03 value="0.0182892835" flag="0"/>
      <psa10 value="0.0046631808" flag="0"/>
      <psa30 value="0.0002224426" flag="0"/>
    </comp>
    <comp name="--.HHZ">
      <acc value="0.0059040183" flag="0"/>
      <vel value="0.0026654855" flag="0"/>
      <psa03 value="0.0095380527" flag="0"/>
      <psa10 value="0.0014669853" flag="0"/>
      <psa30 value="0.0001898877" flag="0"/>
    </comp>
  </station>
  <station code="MMGO" name="MMGO" netid="IV" insttype="" commtype="DIG" lat="37.6619" lon="12.9767">
    <comp name="--.HHE">
      <acc value="0.0005778963" flag="0"/>
      <vel value="0.0005289348" flag="0"/>
      <psa03 value="0.0012897169" flag="0"/>
      <psa10 value="0.0006871873" flag="0"/>
      <psa30 value="0.0001215172" flag="0"/>
    </comp>
    <comp name="--.HHN">
      <acc value="0.0004074960" flag="0"/>
      <vel value="0.0004915722" flag="0"/>
      <psa03 value="0.0009875515" flag="0"/>
      <psa10 value="0.0006802763" flag="0"/>
      <psa30 value="0.0001551844" flag="0"/>
    </comp>
    <comp name="--.HHZ">
      <acc value="0.0010144198" flag="0"/>
      <vel value="0.0005079107" flag="0"/>
      <psa03 value="0.0022965526" flag="0"/>
      <psa10 value="0.0004268606" flag="0"/>
      <psa30 value="0.0000447803" flag="0"/>
    </comp>
  </station>
</stationlist>
