<stationlist created="1774124747">
	<station code="SPAOL" name="SPAOL" netid="7C" source="Urban Seismic Network (RUSN-CAL-INGV)" insttype="" lat="37.54939" lon="15.071367">
		<comp name="--.HNE" depth="0.0">
			<acc value="0.0148558462400824" flag="0"/>
			<vel value="0.00167047485691498" flag="0"/>
			<psa03 value="0.000486497519414201" flag="0"/>
			<psa10 value="0.000669058442932026" flag="0"/>
			<psa30 value="0.000697390104921838" flag="0"/>
		</comp>
		<comp name="--.HNN" depth="0.0">
			<acc value="0.0164376583227959" flag="0"/>
			<vel value="0.00162300361266761" flag="0"/>
			<psa03 value="0.000585128239413263" flag="0"/>
			<psa10 value="0.000692392430100408" flag="0"/>
			<psa30 value="0.000519121316322824" flag="0"/>
		</comp>
		<comp name="--.HNZ" depth="0.0">
			<acc value="0.0130623267237675" flag="0"/>
			<vel value="0.00495444789741198" flag="0"/>
			<psa03 value="0.00157834348980176" flag="0"/>
			<psa10 value="0.00211520410626616" flag="0"/>
			<psa30 value="0.00203439143511497" flag="0"/>
		</comp>
	</station>
	<station code="AGR" name="AGR" netid="IT" source="Italian Strong Motion Network (RAN)" insttype="" lat="37.3231" lon="13.586">
		<comp name="--.HNE" depth="0.0">
			<acc value="0.00393281006520675" flag="0"/>
			<vel value="0.00640819076727265" flag="0"/>
			<psa03 value="0.00712297186192812" flag="0"/>
			<psa10 value="0.00850626381073088" flag="0"/>
			<psa30 value="0.002566098949795" flag="0"/>
		</comp>
		<comp name="--.HNN" depth="0.0">
			<acc value="0.00784702161541615" flag="0"/>
			<vel value="0.0105635074132529" flag="0"/>
			<psa03 value="0.0175538685868106" flag="0"/>
			<psa10 value="0.0166293347368138" flag="0"/>
			<psa30 value="0.00427457858651948" flag="0"/>
		</comp>
		<comp name="--.HNZ" depth="0.0">
			<acc value="0.00481571304939445" flag="0"/>
			<vel value="0.00678782296161064" flag="0"/>
			<psa03 value="0.00891971002763866" flag="0"/>
			<psa10 value="0.0123169625008172" flag="0"/>
			<psa30 value="0.00289817053124088" flag="0"/>
		</comp>
	</station>
	<station code="BCL" name="BCL" netid="IT" source="Italian Strong Motion Network (RAN)" insttype="" lat="38.1827" lon="15.2316">
		<comp name="--.HGE" depth="0.0">
			<acc value="0.0190217394277619" flag="0"/>
			<vel value="0.00850493506586292" flag="0"/>
			<psa03 value="0.0355676895182067" flag="0"/>
			<psa10 value="0.0112678154999773" flag="0"/>
			<psa30 value="0.000967300953940931" flag="0"/>
		</comp>
		<comp name="--.HGN" depth="0.0">
			<acc value="0.0163430644532097" flag="0"/>
			<vel value="0.00932933745882884" flag="0"/>
			<psa03 value="0.023927566854707" flag="0"/>
			<psa10 value="0.0138812183125877" flag="0"/>
			<psa30 value="0.00126688007042047" flag="0"/>
		</comp>
		<comp name="--.HGZ" depth="0.0">
			<acc value="0.0207661694308408" flag="0"/>
			<vel value="0.00478774313126654" flag="0"/>
			<psa03 value="0.0188757738648811" flag="0"/>
			<psa10 value="0.0105790936255332" flag="0"/>
			<psa30 value="0.000709229170451826" flag="0"/>
		</comp>
	</station>
	<station code="BNT" name="BNT" netid="IT" source="Italian Strong Motion Network (RAN)" insttype="" lat="37.7805" lon="14.8444">
		<comp name="--.HNE" depth="0.0">
			<acc value="0.0153562204287113" flag="0"/>
			<vel value="0.0105172616648469" flag="0"/>
			<psa03 value="0.0492093588368493" flag="0"/>
			<psa10 value="0.0101379631528043" flag="0"/>
			<psa30 value="0.000631938425319284" flag="0"/>
		</comp>
		<comp name="--.HNN" depth="0.0">
			<acc value="0.0157458243226558" flag="0"/>
			<vel value="0.00853197647208384" flag="0"/>
			<psa03 value="0.066186728295922" flag="0"/>
			<psa10 value="0.00803943101034895" flag="0"/>
			<psa30 value="0.000718846474217668" flag="0"/>
		</comp>
		<comp name="--.HNZ" depth="0.0">
			<acc value="0.00889214811064002" flag="0"/>
			<vel value="0.00354080044431382" flag="0"/>
			<psa03 value="0.0281079349294091" flag="0"/>
			<psa10 value="0.00880380383379716" flag="0"/>
			<psa30 value="0.000540851922535504" flag="0"/>
		</comp>
	</station>
	<station code="CDI1" name="CDI1" netid="IT" source="Italian Strong Motion Network (RAN)" insttype="" lat="37.5032" lon="14.6473">
		<comp name="--.HNE" depth="0.0">
			<acc value="0.00480755653310157" flag="0"/>
			<vel value="0.00304310315112919" flag="0"/>
			<psa03 value="0.0124198136371168" flag="0"/>
			<psa10 value="0.00303184029766522" flag="0"/>
			<psa30 value="0.000396393915401495" flag="0"/>
		</comp>
		<comp name="--.HNN" depth="0.0">
			<acc value="0.00493266128164942" flag="0"/>
			<vel value="0.00320511503932824" flag="0"/>
			<psa03 value="0.0145254830752997" flag="0"/>
			<psa10 value="0.00373798652951249" flag="0"/>
			<psa30 value="0.000755934451947507" flag="0"/>
		</comp>
		<comp name="--.HNZ" depth="0.0">
			<acc value="0.00195787444394684" flag="0"/>
			<vel value="0.00155652422942437" flag="0"/>
			<psa03 value="0.00479389146501152" flag="0"/>
			<psa10 value="0.00263914076762362" flag="0"/>
			<psa30 value="0.000403364871984823" flag="0"/>
		</comp>
	</station>
	<station code="CFL" name="CFL" netid="IT" source="Italian Strong Motion Network (RAN)" insttype="" lat="38.037" lon="14.0232">
		<comp name="--.HNE" depth="0.0">
			<acc value="0.00871452915784315" flag="0"/>
			<vel value="0.013468050156719" flag="0"/>
			<psa03 value="0.0206268117375465" flag="0"/>
			<psa10 value="0.00290438927653557" flag="0"/>
			<psa30 value="0.00443606761770858" flag="0"/>
		</comp>
		<comp name="--.HNN" depth="0.0">
			<acc value="0.0101525329624717" flag="0"/>
			<vel value="0.00585382039052004" flag="0"/>
			<psa03 value="0.0161233766883262" flag="0"/>
			<psa10 value="0.0069788668469281" flag="0"/>
			<psa30 value="0.000436249394173029" flag="0"/>
		</comp>
		<comp name="--.HNZ" depth="0.0">
			<acc value="0.00625517149381363" flag="0"/>
			<vel value="0.00332579149638675" flag="0"/>
			<psa03 value="0.0102318353609608" flag="0"/>
			<psa10 value="0.00266637741566789" flag="0"/>
			<psa30 value="0.000435676673941458" flag="0"/>
		</comp>
	</station>
	<station code="CLG1" name="CLG1" netid="IT" source="Italian Strong Motion Network (RAN)" insttype="" lat="37.2214" lon="14.5182">
		<comp name="--.HNE" depth="0.0">
			<acc value="0.0137464455753049" flag="0"/>
			<vel value="0.00705040483502735" flag="0"/>
			<psa03 value="0.0262968071385816" flag="0"/>
			<psa10 value="0.00604121004426671" flag="0"/>
			<psa30 value="0.000907246038097491" flag="0"/>
		</comp>
		<comp name="--.HNN" depth="0.0">
			<acc value="0.0201797988519495" flag="0"/>
			<vel value="0.00991844609501399" flag="0"/>
			<psa03 value="0.0659420975069995" flag="0"/>
			<psa10 value="0.00559608461939187" flag="0"/>
			<psa30 value="0.000621820775907999" flag="0"/>
		</comp>
		<comp name="--.HNZ" depth="0.0">
			<acc value="0.0119235255855285" flag="0"/>
			<vel value="0.00316810378722364" flag="0"/>
			<psa03 value="0.0108128211140406" flag="0"/>
			<psa10 value="0.00281197729532035" flag="0"/>
			<psa30 value="0.000234845687582573" flag="0"/>
		</comp>
	</station>
	<station code="CLTS" name="CLTS" netid="IT" source="Italian Strong Motion Network (RAN)" insttype="" lat="37.4787" lon="14.0537">
		<comp name="--.HNE" depth="0.0">
			<acc value="0.0160180143121534" flag="0"/>
			<vel value="0.00808605798945797" flag="0"/>
			<psa03 value="0.0252958996875418" flag="0"/>
			<psa10 value="0.0124085979462157" flag="0"/>
			<psa30 value="0.00196414865687564" flag="0"/>
		</comp>
		<comp name="--.HNN" depth="0.0">
			<acc value="0.0195725814680443" flag="0"/>
			<vel value="0.00963305656188816" flag="0"/>
			<psa03 value="0.025332527113929" flag="0"/>
			<psa10 value="0.0137128218446482" flag="0"/>
			<psa30 value="0.00163236751133638" flag="0"/>
		</comp>
		<comp name="--.HNZ" depth="0.0">
			<acc value="0.0174381863010765" flag="0"/>
			<vel value="0.00936777507910768" flag="0"/>
			<psa03 value="0.0255093435146478" flag="0"/>
			<psa10 value="0.0144087029433557" flag="0"/>
			<psa30 value="0.00240293522433228" flag="0"/>
		</comp>
	</station>
	<station code="CLV" name="CLV" netid="IT" source="Italian Strong Motion Network (RAN)" insttype="" lat="37.8192" lon="13.8902">
		<comp name="--.HGE" depth="0.0">
			<acc value="0.0308896522619764" flag="0"/>
			<vel value="0.012781228886002" flag="0"/>
			<psa03 value="0.0748476562065571" flag="0"/>
			<psa10 value="0.0121120920541555" flag="0"/>
			<psa30 value="0.000527387593089758" flag="0"/>
		</comp>
		<comp name="--.HGN" depth="0.0">
			<acc value="0.0296631482918141" flag="0"/>
			<vel value="0.0127719492301878" flag="0"/>
			<psa03 value="0.0897399135788539" flag="0"/>
			<psa10 value="0.00625810050594535" flag="0"/>
			<psa30 value="0.000576638095277152" flag="0"/>
		</comp>
		<comp name="--.HGZ" depth="0.0">
			<acc value="0.0148706013460559" flag="0"/>
			<vel value="0.00564606385686025" flag="0"/>
			<psa03 value="0.0275873900291975" flag="0"/>
			<psa10 value="0.00411717602395553" flag="0"/>
			<psa30 value="0.000476274988380544" flag="0"/>
		</comp>
	</station>
	<station code="CNCT" name="CNCT" netid="IT" source="Italian Strong Motion Network (RAN)" insttype="" lat="37.3597" lon="13.8517">
		<comp name="--.HNE" depth="0.0">
			<acc value="0.00841528906668326" flag="0"/>
			<vel value="0.00418566073364677" flag="0"/>
			<psa03 value="0.00717255392253796" flag="0"/>
			<psa10 value="0.0054794823638147" flag="0"/>
			<psa30 value="0.00273503597437711" flag="0"/>
		</comp>
		<comp name="--.HNN" depth="0.0">
			<acc value="0.00735760122274766" flag="0"/>
			<vel value="0.00733229494971041" flag="0"/>
			<psa03 value="0.00653879904876288" flag="0"/>
			<psa10 value="0.0112022358431469" flag="0"/>
			<psa30 value="0.00204238613139103" flag="0"/>
		</comp>
		<comp name="--.HNZ" depth="0.0">
			<acc value="0.00619946776732036" flag="0"/>
			<vel value="0.00479146378988876" flag="0"/>
			<psa03 value="0.00597233964860766" flag="0"/>
			<psa10 value="0.0107193651053303" flag="0"/>
			<psa30 value="0.00191836041529602" flag="0"/>
		</comp>
	</station>
	<station code="CON" name="CON" netid="IT" source="Italian Strong Motion Network (RAN)" insttype="" lat="37.8138" lon="13.308">
		<comp name="--.HNE" depth="0.0">
			<acc value="0.00163831778903672" flag="0"/>
			<vel value="0.00130108249307522" flag="0"/>
			<psa03 value="0.00373184812808186" flag="0"/>
			<psa10 value="0.00247097634630602" flag="0"/>
			<psa30 value="0.000193802942660482" flag="0"/>
		</comp>
		<comp name="--.HNN" depth="0.0">
			<acc value="0.0010703361300332" flag="0"/>
			<vel value="0.000855033745025494" flag="0"/>
			<psa03 value="0.00289341074978288" flag="0"/>
			<psa10 value="0.00169797009937338" flag="0"/>
			<psa30 value="0.000229239352648731" flag="0"/>
		</comp>
		<comp name="--.HNZ" depth="0.0">
			<acc value="0.00129702248998694" flag="0"/>
			<vel value="0.00108891568907486" flag="0"/>
			<psa03 value="0.00224916803931301" flag="0"/>
			<psa10 value="0.0018279410530612" flag="0"/>
			<psa30 value="0.000181507375535337" flag="0"/>
		</comp>
	</station>
	<station code="CRL" name="CRL" netid="IT" source="Italian Strong Motion Network (RAN)" insttype="" lat="37.813" lon="13.307">
		<comp name="--.HGE" depth="0.0">
			<acc value="0.0513111535740401" flag="0"/>
			<vel value="0.00281345916632" flag="0"/>
			<psa03 value="0.00702551814047235" flag="0"/>
			<psa10 value="0.00269433551775494" flag="0"/>
			<psa30 value="0.000213175879668315" flag="0"/>
		</comp>
		<comp name="--.HGN" depth="0.0">
			<acc value="0.0440156414218765" flag="0"/>
			<vel value="0.00341586447570949" flag="0"/>
			<psa03 value="0.00419340734994842" flag="0"/>
			<psa10 value="0.00192392256761548" flag="0"/>
			<psa30 value="0.000252048650111079" flag="0"/>
		</comp>
		<comp name="--.HGZ" depth="0.0">
			<acc value="0.0607470471284384" flag="0"/>
			<vel value="0.0043258273872657" flag="0"/>
			<psa03 value="0.00373497561390828" flag="0"/>
			<psa10 value="0.00192438748122623" flag="0"/>
			<psa30 value="0.000198889750990736" flag="0"/>
		</comp>
	</station>
	<station code="CSLA" name="CSLA" netid="IT" source="Italian Strong Motion Network (RAN)" insttype="" lat="37.789" lon="14.0412">
		<comp name="--.HNE" depth="0.0">
			<acc value="0.032197270650646" flag="0"/>
			<vel value="0.0194934988014155" flag="0"/>
			<psa03 value="0.11798467007202" flag="0"/>
			<psa10 value="0.0292452567297301" flag="0"/>
			<psa30 value="0.00174816851591795" flag="0"/>
		</comp>
		<comp name="--.HNN" depth="0.0">
			<acc value="0.0446742609862029" flag="0"/>
			<vel value="0.0206626943915089" flag="0"/>
			<psa03 value="0.11241488443439" flag="0"/>
			<psa10 value="0.018440918495347" flag="0"/>
			<psa30 value="0.00241842750061956" flag="0"/>
		</comp>
		<comp name="--.HNZ" depth="0.0">
			<acc value="0.0162927557363324" flag="0"/>
			<vel value="0.0127383833549829" flag="0"/>
			<psa03 value="0.0361645988521873" flag="0"/>
			<psa10 value="0.0131225383662647" flag="0"/>
			<psa30 value="0.0014361742019925" flag="0"/>
		</comp>
	</station>
	<station code="CSM" name="CSM" netid="IT" source="Italian Strong Motion Network (RAN)" insttype="" lat="37.5404" lon="13.6273">
		<comp name="--.HGE" depth="0.0">
			<acc value="0.00210931495499558" flag="0"/>
			<vel value="0.00226976317116901" flag="0"/>
			<psa03 value="0.00417125418970195" flag="0"/>
			<psa10 value="0.00437309813378931" flag="0"/>
			<psa30 value="0.000769239343747959" flag="0"/>
		</comp>
		<comp name="--.HGN" depth="0.0">
			<acc value="0.00187443560330179" flag="0"/>
			<vel value="0.00222573987951908" flag="0"/>
			<psa03 value="0.00531653774140815" flag="0"/>
			<psa10 value="0.00372649248683858" flag="0"/>
			<psa30 value="0.000848717473367321" flag="0"/>
		</comp>
		<comp name="--.HGZ" depth="0.0">
			<acc value="0.00125536268596041" flag="0"/>
			<vel value="0.00117460791520145" flag="0"/>
			<psa03 value="0.00308680018848826" flag="0"/>
			<psa10 value="0.00226517161900287" flag="0"/>
			<psa30 value="0.000338967220539796" flag="0"/>
		</comp>
	</station>
	<station code="CTU" name="CTU" netid="IT" source="Italian Strong Motion Network (RAN)" insttype="" lat="37.8232" lon="13.8904">
		<comp name="--.HNE" depth="0.0">
			<acc value="0.013653381949652" flag="0"/>
			<vel value="0.00497170440629903" flag="0"/>
			<psa03 value="0.0235016063452471" flag="0"/>
			<psa10 value="0.00593312507166773" flag="0"/>
			<psa30 value="0.000450573494116018" flag="0"/>
		</comp>
		<comp name="--.HNN" depth="0.0">
			<acc value="0.0113757826954262" flag="0"/>
			<vel value="0.00570462743782206" flag="0"/>
			<psa03 value="0.0250825418036291" flag="0"/>
			<psa10 value="0.00385128153475057" flag="0"/>
			<psa30 value="0.000564390721448743" flag="0"/>
		</comp>
		<comp name="--.HNZ" depth="0.0">
			<acc value="0.00912717121128884" flag="0"/>
			<vel value="0.0042495634153871" flag="0"/>
			<psa03 value="0.0201716005924588" flag="0"/>
			<psa10 value="0.00353249447917266" flag="0"/>
			<psa30 value="0.000534029699763394" flag="0"/>
		</comp>
	</station>
	<station code="GEA" name="GEA" netid="IT" source="Italian Strong Motion Network (RAN)" insttype="" lat="37.0562" lon="14.3146">
		<comp name="--.HNE" depth="0.0">
			<acc value="0.0153360376266672" flag="0"/>
			<vel value="0.00986369538047121" flag="0"/>
			<psa03 value="0.0319631069823041" flag="0"/>
			<psa10 value="0.0109631875073678" flag="0"/>
			<psa30 value="0.000744090698606975" flag="0"/>
		</comp>
		<comp name="--.HNN" depth="0.0">
			<acc value="0.00752906326297134" flag="0"/>
			<vel value="0.0063826163439292" flag="0"/>
			<psa03 value="0.0209088877153623" flag="0"/>
			<psa10 value="0.00622083147455493" flag="0"/>
			<psa30 value="0.000830604033857516" flag="0"/>
		</comp>
		<comp name="--.HNZ" depth="0.0">
			<acc value="0.00502607577798133" flag="0"/>
			<vel value="0.00226251438843122" flag="0"/>
			<psa03 value="0.00822160128136036" flag="0"/>
			<psa10 value="0.00296356913441071" flag="0"/>
			<psa30 value="0.000243178348955494" flag="0"/>
		</comp>
	</station>
	<station code="GEL" name="GEL" netid="IT" source="Italian Strong Motion Network (RAN)" insttype="" lat="37.0846" lon="14.2691">
		<comp name="--.HNE" depth="0.0">
			<acc value="0.00604798306534995" flag="0"/>
			<vel value="0.00323591220286348" flag="0"/>
			<psa03 value="0.0202031521617621" flag="0"/>
			<psa10 value="0.00435282757221409" flag="0"/>
			<psa30 value="0.000418681433506854" flag="0"/>
		</comp>
		<comp name="--.HNN" depth="0.0">
			<acc value="0.00642513702763298" flag="0"/>
			<vel value="0.00401196689114074" flag="0"/>
			<psa03 value="0.0144167271728382" flag="0"/>
			<psa10 value="0.00523392922212417" flag="0"/>
			<psa30 value="0.000934100004540975" flag="0"/>
		</comp>
		<comp name="--.HNZ" depth="0.0">
			<acc value="0.00506922755914615" flag="0"/>
			<vel value="0.00136141389648877" flag="0"/>
			<psa03 value="0.00641370547546925" flag="0"/>
			<psa10 value="0.00232900764470128" flag="0"/>
			<psa30 value="0.000239922299924892" flag="0"/>
		</comp>
	</station>
	<station code="GNGI" name="GNGI" netid="IT" source="Italian Strong Motion Network (RAN)" insttype="" lat="37.7949" lon="14.2003">
		<comp name="--.HNE" depth="0.0">
			<acc value="0.0746623988540663" flag="0"/>
			<vel value="0.0319500292354746" flag="0"/>
			<psa03 value="0.14626880417376" flag="0"/>
			<psa10 value="0.0300772512202818" flag="0"/>
			<psa30 value="0.0024123039699657" flag="0"/>
		</comp>
		<comp name="--.HNN" depth="0.0">
			<acc value="0.136997099826404" flag="0"/>
			<vel value="0.0502346125448645" flag="0"/>
			<psa03 value="0.353954781100461" flag="0"/>
			<psa10 value="0.0276736851208238" flag="0"/>
			<psa30 value="0.00321024745480547" flag="0"/>
		</comp>
		<comp name="--.HNZ" depth="0.0">
			<acc value="0.0582030502868573" flag="0"/>
			<vel value="0.0242441973895066" flag="0"/>
			<psa03 value="0.134197796195389" flag="0"/>
			<psa10 value="0.0160172773160135" flag="0"/>
			<psa30 value="0.00138300192959041" flag="0"/>
		</comp>
	</station>
	<station code="GSM" name="GSM" netid="IT" source="Italian Strong Motion Network (RAN)" insttype="" lat="38.172" lon="14.8985">
		<comp name="--.HNE" depth="0.0">
			<acc value="0.000777131022348753" flag="0"/>
			<vel value="0.00145633079166962" flag="0"/>
			<psa03 value="0.000965540199278743" flag="0"/>
			<psa10 value="0.000793094159689525" flag="0"/>
			<psa30 value="0.000902142679191676" flag="0"/>
		</comp>
		<comp name="--.HNN" depth="0.0">
			<acc value="0.00604687125131428" flag="0"/>
			<vel value="0.00374981373744952" flag="0"/>
			<psa03 value="0.00715378184564667" flag="0"/>
			<psa10 value="0.00360206768180589" flag="0"/>
			<psa30 value="0.00189351251924485" flag="0"/>
		</comp>
		<comp name="--.HNZ" depth="0.0">
			<acc value="0.00360232771228397" flag="0"/>
			<vel value="0.00357675430794839" flag="0"/>
			<psa03 value="0.00678679008632705" flag="0"/>
			<psa10 value="0.0045954152049542" flag="0"/>
			<psa30 value="0.00158049199150445" flag="0"/>
		</comp>
	</station>
	<station code="ISNL" name="ISNL" netid="IT" source="Italian Strong Motion Network (RAN)" insttype="" lat="37.9442" lon="14.0061">
		<comp name="--.HNE" depth="0.0">
			<acc value="0.036843921508777" flag="0"/>
			<vel value="0.0110851828202437" flag="0"/>
			<psa03 value="0.076617726590033" flag="0"/>
			<psa10 value="0.004317688213154" flag="0"/>
			<psa30 value="0.000364070341831715" flag="0"/>
		</comp>
		<comp name="--.HNN" depth="0.0">
			<acc value="0.0316234649422886" flag="0"/>
			<vel value="0.00864635951462929" flag="0"/>
			<psa03 value="0.0527378165381885" flag="0"/>
			<psa10 value="0.00468975176678844" flag="0"/>
			<psa30 value="0.000419305980088334" flag="0"/>
		</comp>
		<comp name="--.HNZ" depth="0.0">
			<acc value="0.0230716023054645" flag="0"/>
			<vel value="0.00544334959581096" flag="0"/>
			<psa03 value="0.0251990130609449" flag="0"/>
			<psa10 value="0.00470684211769031" flag="0"/>
			<psa30 value="0.000481538514146627" flag="0"/>
		</comp>
	</station>
