<stationlist created="1778136475">
	<station code="ACER" name="ACER" netid="IV" source="Italian National Seismic Network (INSN)" insttype="" lat="40.7867" lon="15.9427">
		<comp name="--.HNE" depth="1.0">
			<acc value="0.0124357439795823" flag="0"/>
			<vel value="0.0106205774869372" flag="0"/>
			<psa03 value="0.0382098444520041" flag="0"/>
			<psa10 value="0.0123985128759893" flag="0"/>
			<psa30 value="0.000929743053527687" flag="0"/>
		</comp>
		<comp name="--.HNN" depth="1.0">
			<acc value="0.00888158522537688" flag="0"/>
			<vel value="0.0104167486015648" flag="0"/>
			<psa03 value="0.0190154378127655" flag="0"/>
			<psa10 value="0.0118387878711947" flag="0"/>
			<psa30 value="0.00129976110226079" flag="0"/>
		</comp>
		<comp name="--.HNZ" depth="1.0">
			<acc value="0.00510550516509188" flag="0"/>
			<vel value="0.00322614142892953" flag="0"/>
			<psa03 value="0.0125278178531161" flag="0"/>
			<psa10 value="0.00470732755830837" flag="0"/>
			<psa30 value="0.000504692090654105" flag="0"/>
		</comp>
	</station>
	<station code="APRC" name="APRC" netid="IV" source="Italian National Seismic Network (INSN)" insttype="" lat="41.75738" lon="15.54308">
		<comp name="--.HNE" depth="0.0">
			<acc value="0.0501609599480495" flag="0"/>
			<vel value="0.0246262980531972" flag="0"/>
			<psa03 value="0.170065127356051" flag="0"/>
			<psa10 value="0.00927774396436483" flag="0"/>
			<psa30 value="0.00140624755401228" flag="0"/>
		</comp>
		<comp name="--.HNN" depth="0.0">
			<acc value="0.0260969245109191" flag="0"/>
			<vel value="0.0128416042881907" flag="0"/>
			<psa03 value="0.130915696565063" flag="0"/>
			<psa10 value="0.00717575509743842" flag="0"/>
			<psa30 value="0.00101296355783767" flag="0"/>
		</comp>
		<comp name="--.HNZ" depth="0.0">
			<acc value="0.0221323461798249" flag="0"/>
			<vel value="0.0150250037374628" flag="0"/>
			<psa03 value="0.113018813917754" flag="0"/>
			<psa10 value="0.00775964089380687" flag="0"/>
			<psa30 value="0.00155255456965403" flag="0"/>
		</comp>
	</station>
	<station code="CAPA" name="CAPA" netid="IV" source="Italian National Seismic Network (INSN)" insttype="" lat="41.158295" lon="15.816928">
		<comp name="--.HNE" depth="0.0">
			<acc value="0.00305235540680335" flag="0"/>
			<vel value="0.00381660298089202" flag="0"/>
			<psa03 value="0.00559277582728397" flag="0"/>
			<psa10 value="0.0085327862241706" flag="0"/>
			<psa30 value="0.00138566613896788" flag="0"/>
		</comp>
		<comp name="--.HNN" depth="0.0">
			<acc value="0.00283199555794203" flag="0"/>
			<vel value="0.00313892999959328" flag="0"/>
			<psa03 value="0.00657710437288595" flag="0"/>
			<psa10 value="0.00651133332915709" flag="0"/>
			<psa30 value="0.00108499851049309" flag="0"/>
		</comp>
		<comp name="--.HNZ" depth="0.0">
			<acc value="0.00209438570555912" flag="0"/>
			<vel value="0.00214732126403761" flag="0"/>
			<psa03 value="0.00684555761259558" flag="0"/>
			<psa10 value="0.00395431622092286" flag="0"/>
			<psa30 value="0.000414760255351379" flag="0"/>
		</comp>
	</station>
	<station code="MIDA" name="MIDA" netid="IV" source="Italian National Seismic Network (INSN)" insttype="" lat="41.64188" lon="14.25402">
		<comp name="--.HNE" depth="0.0">
			<acc value="0.00353612451281858" flag="0"/>
			<vel value="0.00271658467545856" flag="0"/>
			<psa03 value="0.0096643166295467" flag="0"/>
			<psa10 value="0.0020375600893961" flag="0"/>
			<psa30 value="0.000821466913511469" flag="0"/>
		</comp>
		<comp name="--.HNN" depth="0.0">
			<acc value="0.00209749747761142" flag="0"/>
			<vel value="0.00198070067763767" flag="0"/>
			<psa03 value="0.00527958038095607" flag="0"/>
			<psa10 value="0.00179192537506178" flag="0"/>
			<psa30 value="0.000476057078418411" flag="0"/>
		</comp>
		<comp name="--.HNZ" depth="0.0">
			<acc value="0.001461841061502" flag="0"/>
			<vel value="0.0011494505372097" flag="0"/>
			<psa03 value="0.00577174465375706" flag="0"/>
			<psa10 value="0.000797306121937603" flag="0"/>
			<psa30 value="0.000470688013624219" flag="0"/>
		</comp>
	</station>
	<station code="TREM" name="TREM" netid="IV" source="Italian National Seismic Network (INSN)" insttype="" lat="42.123" lon="15.51">
		<comp name="--.HNE" depth="0.0">
			<acc value="0.0201451577167844" flag="0"/>
			<vel value="0.0136312117388456" flag="0"/>
			<psa03 value="0.0454580819241641" flag="0"/>
			<psa10 value="0.0117501983020905" flag="0"/>
			<psa30 value="0.00160579779552977" flag="0"/>
		</comp>
		<comp name="--.HNN" depth="0.0">
			<acc value="0.0241241850100011" flag="0"/>
			<vel value="0.0135556511567693" flag="0"/>
			<psa03 value="0.113510978190555" flag="0"/>
			<psa10 value="0.0117542251006862" flag="0"/>
			<psa30 value="0.00120714473456097" flag="0"/>
		</comp>
		<comp name="--.HNZ" depth="0.0">
			<acc value="0.0156979780502709" flag="0"/>
			<vel value="0.00805867757787486" flag="0"/>
			<psa03 value="0.0681423806796279" flag="0"/>
			<psa10 value="0.00285500020431192" flag="0"/>
			<psa30 value="0.000891712177902156" flag="0"/>
		</comp>
	</station>
	<station code="AND3" name="AND3" netid="IX" source="Irpinia Seismic Network (ISNet)" insttype="" lat="40.9298" lon="15.3331">
		<comp name="01.HNE" depth="0.0">
			<acc value="0.00507149731807683" flag="0"/>
			<vel value="0.00500020674324411" flag="0"/>
			<psa03 value="0.0119014269604603" flag="0"/>
			<psa10 value="0.00922539558262145" flag="0"/>
			<psa30 value="0.000872473029056299" flag="0"/>
		</comp>
		<comp name="01.HNN" depth="0.0">
			<acc value="0.00674405458059023" flag="0"/>
			<vel value="0.00485259228894236" flag="0"/>
			<psa03 value="0.0254583155657966" flag="0"/>
			<psa10 value="0.00805359719128892" flag="0"/>
			<psa30 value="0.00123667459092903" flag="0"/>
		</comp>
		<comp name="01.HNZ" depth="0.0">
			<acc value="0.00393926780731699" flag="0"/>
			<vel value="0.00253133842974235" flag="0"/>
			<psa03 value="0.0144517327377018" flag="0"/>
			<psa10 value="0.00259325829559503" flag="0"/>
			<psa30 value="0.000774040174496101" flag="0"/>
		</comp>
	</station>
	<station code="BEL3" name="BEL3" netid="IX" source="Irpinia Seismic Network (ISNet)" insttype="" lat="40.7153" lon="15.6369">
		<comp name="01.HNE" depth="0.0">
			<acc value="0.00637142423883834" flag="0"/>
			<vel value="0.0057224343810809" flag="0"/>
			<psa03 value="0.0274269726570006" flag="0"/>
			<psa10 value="0.0080254096011194" flag="0"/>
			<psa30 value="0.000855918412607539" flag="0"/>
		</comp>
		<comp name="01.HNN" depth="0.0">
			<acc value="0.00595083123970713" flag="0"/>
			<vel value="0.00470289997116901" flag="0"/>
			<psa03 value="0.0209840949039695" flag="0"/>
			<psa10 value="0.00767910492189398" flag="0"/>
			<psa30 value="0.000878736937982857" flag="0"/>
		</comp>
		<comp name="01.HNZ" depth="0.0">
			<acc value="0.00383764977621866" flag="0"/>
			<vel value="0.00276519187294468" flag="0"/>
			<psa03 value="0.0123041068200247" flag="0"/>
			<psa10 value="0.0030885545228593" flag="0"/>
			<psa30 value="0.001128845872979" flag="0"/>
		</comp>
		<comp name="02.HNE" depth="0.0">
			<acc value="0.00314214509423799" flag="0"/>
			<vel value="0.00278649420363683" flag="0"/>
			<psa03 value="0.0135568886053363" flag="0"/>
			<psa10 value="0.00398250381109237" flag="0"/>
			<psa30 value="0.000393283996174609" flag="0"/>
		</comp>
		<comp name="02.HNN" depth="0.0">
			<acc value="0.00298436805287738" flag="0"/>
			<vel value="0.00225701275431737" flag="0"/>
			<psa03 value="0.0105144185552939" flag="0"/>
			<psa10 value="0.00378116388131015" flag="0"/>
			<psa30 value="0.000400442749233532" flag="0"/>
		</comp>
		<comp name="02.HNZ" depth="0.0">
			<acc value="0.00183714411604756" flag="0"/>
			<vel value="0.00137132807650909" flag="0"/>
			<psa03 value="0.00590597127361187" flag="0"/>
			<psa10 value="0.00140132591128427" flag="0"/>
			<psa30 value="0.000490822006602441" flag="0"/>
		</comp>
	</station>
	<station code="BSC3" name="BSC3" netid="IX" source="Irpinia Seismic Network (ISNet)" insttype="" lat="41.012" lon="15.3852">
		<comp name="01.HNE" depth="0.0">
			<acc value="0.0195546525100715" flag="0"/>
			<vel value="0.00473617073154539" flag="0"/>
			<psa03 value="0.0131094665391536" flag="0"/>
			<psa10 value="0.00705897793816473" flag="0"/>
			<psa30 value="0.00118790558571511" flag="0"/>
		</comp>
		<comp name="01.HNN" depth="0.0">
			<acc value="0.015367738768004" flag="0"/>
			<vel value="0.00762691138269859" flag="0"/>
			<psa03 value="0.0111408094479497" flag="0"/>
			<psa10 value="0.00889922489637425" flag="0"/>
			<psa30 value="0.00250645841475558" flag="0"/>
		</comp>
		<comp name="01.HNZ" depth="0.0">
			<acc value="0.00327409449259177" flag="0"/>
			<vel value="0.0036194364839915" flag="0"/>
			<psa03 value="0.0055480336206657" flag="0"/>
			<psa10 value="0.00323754607089814" flag="0"/>
			<psa30 value="0.00113242524950846" flag="0"/>
		</comp>
	</station>
	<station code="CLT3" name="CLT3" netid="IX" source="Irpinia Seismic Network (ISNet)" insttype="" lat="40.903" lon="15.4043">
		<comp name="01.HNE" depth="0.0">
			<acc value="0.013194699649655" flag="0"/>
			<vel value="0.00582785890113448" flag="0"/>
			<psa03 value="0.0350331477821068" flag="0"/>
			<psa10 value="0.00518248979259442" flag="0"/>
			<psa30 value="0.000845180283019153" flag="0"/>
		</comp>
		<comp name="01.HNN" depth="0.0">
			<acc value="0.00904146557978986" flag="0"/>
			<vel value="0.00686429496390413" flag="0"/>
			<psa03 value="0.0289482076820218" flag="0"/>
			<psa10 value="0.00684958441119122" flag="0"/>
			<psa30 value="0.000878289515916674" flag="0"/>
		</comp>
		<comp name="01.HNZ" depth="0.0">
			<acc value="0.00548064155518041" flag="0"/>
			<vel value="0.00408439470077215" flag="0"/>
			<psa03 value="0.0164203898289057" flag="0"/>
			<psa10 value="0.00530329375046375" flag="0"/>
			<psa30 value="0.00064876199596494" flag="0"/>
		</comp>
	</station>
	<station code="CMP3" name="CMP3" netid="IX" source="Irpinia Seismic Network (ISNet)" insttype="" lat="40.6519" lon="15.0802">
		<comp name="01.HNE" depth="0.0">
			<acc value="0.0149292947100458" flag="0"/>
			<vel value="0.00315402625983893" flag="0"/>
			<psa03 value="0.014317506117847" flag="0"/>
			<psa10 value="0.00240802556019539" flag="0"/>
			<psa30 value="0.000720796948620358" flag="0"/>
		</comp>
		<comp name="01.HNN" depth="0.0">
			<acc value="0.0101285404556218" flag="0"/>
			<vel value="0.00337874363732922" flag="0"/>
			<psa03 value="0.0159282255561047" flag="0"/>
			<psa10 value="0.00444558564959148" flag="0"/>
			<psa30 value="0.000866209120129741" flag="0"/>
		</comp>
		<comp name="01.HNZ" depth="0.0">
			<acc value="0.00308157529996804" flag="0"/>
			<vel value="0.00150426022421211" flag="0"/>
			<psa03 value="0.00402679859564446" flag="0"/>
			<psa10 value="0.00147380828600587" flag="0"/>
			<psa30 value="0.000867551386328289" flag="0"/>
		</comp>
	</station>
	<station code="COL3" name="COL3" netid="IX" source="Irpinia Seismic Network (ISNet)" insttype="" lat="40.6871" lon="15.3304">
		<comp name="01.HNE" depth="0.0">
			<acc value="0.0077455280246176" flag="0"/>
			<vel value="0.0028128598855757" flag="0"/>
			<psa03 value="0.0152570924568307" flag="0"/>
			<psa10 value="0.00264963347593405" flag="0"/>
			<psa30 value="0.000541828122147271" flag="0"/>
		</comp>
		<comp name="01.HNN" depth="0.0">
			<acc value="0.00849060275631647" flag="0"/>
			<vel value="0.00435969608335958" flag="0"/>
			<psa03 value="0.0162414210024326" flag="0"/>
			<psa10 value="0.00433283528891344" flag="0"/>
			<psa30 value="0.00099282956485945" flag="0"/>
		</comp>
		<comp name="01.HNZ" depth="0.0">
			<acc value="0.00202806121220759" flag="0"/>
			<vel value="0.00141231740126895" flag="0"/>
			<psa03 value="0.00501112714124644" flag="0"/>
			<psa10 value="0.00124025396745849" flag="0"/>
			<psa30 value="0.0004841106756097" flag="0"/>
		</comp>
	</station>
	<station code="LIO3" name="LIO3" netid="IX" source="Irpinia Seismic Network (ISNet)" insttype="" lat="40.8969" lon="15.1804">
		<comp name="01.HNE" depth="0.0">
			<acc value="0.0029467537924872" flag="0"/>
			<vel value="0.00339359343690595" flag="0"/>
			<psa03 value="0.00836679263761682" flag="0"/>
			<psa10 value="0.0027986250239729" flag="0"/>
			<psa30 value="0.00140445786574755" flag="0"/>
		</comp>
		<comp name="01.HNN" depth="0.0">
			<acc value="0.00338016647377716" flag="0"/>
			<vel value="0.00310029412534628" flag="0"/>
			<psa03 value="0.00577174465375706" flag="0"/>
			<psa10 value="0.00573013440160206" flag="0"/>
			<psa30 value="0.000749879382922234" flag="0"/>
		</comp>
		<comp name="01.HNZ" depth="0.0">
			<acc value="0.00136105946939645" flag="0"/>
			<vel value="0.00204176292196029" flag="0"/>
			<psa03 value="0.00290824343018766" flag="0"/>
			<psa10 value="0.00296775056498997" flag="0"/>
			<psa30 value="0.00054496007661055" flag="0"/>
		</comp>
	</station>
	<station code="PGN3" name="PGN3" netid="IX" source="Irpinia Seismic Network (ISNet)" insttype="" lat="40.5722" lon="15.7967">
		<comp name="01.HNE" depth="0.0">
			<acc value="0.0026398392610607" flag="0"/>
			<vel value="0.00169431308305246" flag="0"/>
			<psa03 value="0.0093511211832188" flag="0"/>
			<psa10 value="0.00230332879670863" flag="0"/>
			<psa30 value="0.00034898921162252" flag="0"/>
		</comp>
		<comp name="01.HNN" depth="0.0">
			<acc value="0.00313056214845534" flag="0"/>
			<vel value="0.00194316487308033" flag="0"/>
			<psa03 value="0.0090379257368909" flag="0"/>
			<psa10 value="0.00308050092566801" flag="0"/>
			<psa30 value="0.000437578780726698" flag="0"/>
		</comp>
		<comp name="01.HNZ" depth="0.0">
			<acc value="0.00186932568494752" flag="0"/>
			<vel value="0.00144453615728668" flag="0"/>
			<psa03 value="0.00474267390153681" flag="0"/>
			<psa10 value="0.00157045145230134" flag="0"/>
			<psa30 value="0.000391046885843695" flag="0"/>
		</comp>
	</station>
	<station code="PST3" name="PST3" netid="IX" source="Irpinia Seismic Network (ISNet)" insttype="" lat="40.5609" lon="15.2433">
		<comp name="01.HNE" depth="0.0">
			<acc value="0.0357797915336144" flag="0"/>
			<vel value="0.00270196739031245" flag="0"/>
			<psa03 value="0.0183890469201097" flag="0"/>
			<psa10 value="0.00270198185767743" flag="0"/>
			<psa30 value="0.000414312833285196" flag="0"/>
		</comp>
		<comp name="01.HNN" depth="0.0">
			<acc value="0.0353140296138355" flag="0"/>
			<vel value="0.0016289678966867" flag="0"/>
			<psa03 value="0.011364520481041" flag="0"/>
			<psa10 value="0.0019650777146745" flag="0"/>
			<psa30 value="0.000402679859564446" flag="0"/>
		</comp>
		<comp name="01.HNZ" depth="0.0">
			<acc value="0.00550645966882148" flag="0"/>
			<vel value="0.000616623291979708" flag="0"/>
			<psa03 value="0.00210288371105877" flag="0"/>
			<psa10 value="0.000567778601985869" flag="0"/>
			<psa30 value="0.000318564511122095" flag="0"/>
		</comp>
	</station>
	<station code="SCL3" name="SCL3" netid="IX" source="Irpinia Seismic Network (ISNet)" insttype="" lat="40.6951" lon="15.5114">
		<comp name="01.HNE" depth="0.0">
			<acc value="0.0278404382257948" flag="0"/>
			<vel value="0.00311237025190012" flag="0"/>
			<psa03 value="0.0102459653155842" flag="0"/>
			<psa10 value="0.0025086955250865" flag="0"/>
			<psa30 value="0.000552566251735656" flag="0"/>
		</comp>
		<comp name="01.HNN" depth="0.0">
			<acc value="0.0226872501192611" flag="0"/>
			<vel value="0.00548904495312736" flag="0"/>
			<psa03 value="0.0180311092671635" flag="0"/>
			<psa10 value="0.00458652360043904" flag="0"/>
			<psa30 value="0.000529300304294155" flag="0"/>
		</comp>
		<comp name="01.HNZ" depth="0.0">
			<acc value="0.00468996571157798" flag="0"/>
			<vel value="0.00207875646402449" flag="0"/>
			<psa03 value="0.004116283008881" flag="0"/>
			<psa10 value="0.00197313131186578" flag="0"/>
			<psa30 value="0.000853681302276625" flag="0"/>
		</comp>
	</station>
	<station code="SFL3" name="SFL3" netid="IX" source="Irpinia Seismic Network (ISNet)" insttype="" lat="40.7889" lon="15.5782">
		<comp name="01.HNE" depth="0.0">
			<acc value="0.0206728250176129" flag="0"/>
			<vel value="0.001997667872757" flag="0"/>
			<psa03 value="0.00774040174496101" flag="0"/>
			<psa10 value="0.00403485219283575" flag="0"/>
			<psa30 value="0.000599545568684841" flag="0"/>
		</comp>
		<comp name="01.HNN" depth="0.0">
			<acc value="0.0118603690280958" flag="0"/>
			<vel value="0.00136922644588209" flag="0"/>
			<psa03 value="0.00711401085230521" flag="0"/>
			<psa10 value="0.00366035992344081" flag="0"/>
			<psa30 value="0.000539591011816357" flag="0"/>
		</comp>
		<comp name="01.HNZ" depth="0.0">
			<acc value="0.00263913534503192" flag="0"/>
			<vel value="0.000530335400910031" flag="0"/>
			<psa03 value="0.00456370507506372" flag="0"/>
			<psa10 value="0.00148991548038845" flag="0"/>
			<psa30 value="0.000435789092461967" flag="0"/>
		</comp>
		<comp name="02.HNE" depth="0.0">
			<acc value="0.0178145524363277" flag="0"/>
			<vel value="0.00184800298881814" flag="0"/>
			<psa03 value="0.00733772188539657" flag="0"/>
			<psa10 value="0.00424021892121361" flag="0"/>
			<psa30 value="0.000525720927764693" flag="0"/>
		</comp>
		<comp name="02.HNN" depth="0.0">
			<acc value="0.0103797828663614" flag="0"/>
			<vel value="0.00128119955201815" flag="0"/>
			<psa03 value="0.00800885498467064" flag="0"/>
			<psa10 value="0.00354760956276277" flag="0"/>
			<psa30 value="0.000566883757853503" flag="0"/>
		</comp>
		<comp name="02.HNZ" depth="0.0">
			<acc value="0.00496070955756566" flag="0"/>
			<vel value="0.000511946253631613" flag="0"/>
			<psa03 value="0.00505586934786471" flag="0"/>
			<psa10 value="0.00142548670285814" flag="0"/>
			<psa30 value="0.000230869786150282" flag="0"/>
		</comp>
	</station>
	<station code="SRN3" name="SRN3" netid="IX" source="Irpinia Seismic Network (ISNet)" insttype="" lat="40.4861" lon="15.458">
		<comp name="01.HNE" depth="0.0">
			<acc value="0.00355169655570924" flag="0"/>
			<vel value="0.00232071709390591" flag="0"/>
			<psa03 value="0.00859050367070818" flag="0"/>
			<psa10 value="0.00366035992344081" flag="0"/>
			<psa30 value="0.000319011933188278" flag="0"/>
		</comp>
		<comp name="01.HNN" depth="0.0">
			<acc value="0.0041366891183059" flag="0"/>
			<vel value="0.00348091443783666" flag="0"/>
			<psa03 value="0.0119014269604603" flag="0"/>
			<psa10 value="0.00314895650179397" flag="0"/>
			<psa30 value="0.000393731418240791" flag="0"/>
		</comp>
		<comp name="01.HNZ" depth="0.0">
			<acc value="0.00095412689403949" flag="0"/>
			<vel value="0.000767148221069043" flag="0"/>
			<psa03 value="0.00304247005004248" flag="0"/>
			<psa10 value="0.00103086044048498" flag="0"/>
			<psa30 value="0.000403574703696811" flag="0"/>
		</comp>
	</station>
	<station code="SSB3" name="SSB3" netid="IX" source="Irpinia Seismic Network (ISNet)" insttype="" lat="41.0785" lon="15.2292">
		<comp name="01.HNE" depth="0.0">
			<acc value="0.00634539969978358" flag="0"/>
			<vel value="0.00768647028263332" flag="0"/>
			<psa03 value="0.0153913190766855" flag="0"/>
			<psa10 value="0.0120683153911464" flag="0"/>
			<psa30 value="0.00129215492713569" flag="0"/>
		</comp>
		<comp name="01.HNN" depth="0.0">
			<acc value="0.00380086656659415" flag="0"/>
			<vel value="0.00447295501991568" flag="0"/>
			<psa03 value="0.0106486451751487" flag="0"/>
			<psa10 value="0.00631804699656615" flag="0"/>
			<psa30 value="0.00131631571870955" flag="0"/>
		</comp>
		<comp name="01.HNZ" depth="0.0">
			<acc value="0.00179333422243464" flag="0"/>
			<vel value="0.00217840908416137" flag="0"/>
			<psa03 value="0.00483215831477335" flag="0"/>
			<psa10 value="0.00344693959787166" flag="0"/>
			<psa30 value="0.000592834237692101" flag="0"/>
		</comp>
	</station>
	<station code="VDP3" name="VDP3" netid="IX" source="Irpinia Seismic Network (ISNet)" insttype="" lat="40.6052" lon="15.5721">
		<comp name="01.HNE" depth="0.0">
			<acc value="0.0177614210882124" flag="0"/>
			<vel value="0.00321796521870358" flag="0"/>
			<psa03 value="0.00514535376110125" flag="0"/>
