<?xml version="1.0" encoding="UTF-8" standalone="yes"?>
<!DOCTYPE earthquake SYSTEM "stationlist.dtd">
<stationlist created="" xmlns="ch.ethz.sed.shakemap.usgs.xml">
  <station code="APRC" name="APRC" netid="IV" insttype="" lat="41.7574" lon="15.5431">
    <comp name="--.HHZ">
      <acc value="0.0218314411" flag="0"/>
      <vel value="0.0146229719" flag="0"/>
      <psa03 value="0.1110647449" flag="0"/>
      <psa10 value="0.0077448325" flag="0"/>
      <psa30 value="0.0015123838" flag="0"/>
    </comp>
    <comp name="--.HHE">
      <acc value="0.0527121495" flag="0"/>
      <vel value="0.0242154112" flag="0"/>
      <psa03 value="0.1737229114" flag="0"/>
      <psa10 value="0.0094683929" flag="0"/>
      <psa30 value="0.0013301116" flag="0"/>
    </comp>
    <comp name="--.HHN">
      <acc value="0.0579975150" flag="0"/>
      <vel value="0.0277278520" flag="0"/>
      <psa03 value="0.2906274855" flag="0"/>
      <psa10 value="0.0164266863" flag="0"/>
      <psa30 value="0.0026539265" flag="0"/>
    </comp>
  </station>
  <station code="MELA" name="MELA" netid="IV" insttype="" lat="41.7059" lon="15.127">
    <comp name="--.HHE">
      <acc value="0.0136147820" flag="0"/>
      <vel value="0.0111447830" flag="0"/>
      <psa03 value="0.0422378118" flag="0"/>
      <psa10 value="0.0176163586" flag="0"/>
      <psa30 value="0.0021719797" flag="0"/>
    </comp>
    <comp name="--.HHN">
      <acc value="0.0127663512" flag="0"/>
      <vel value="0.0115970098" flag="0"/>
      <psa03 value="0.0454229783" flag="0"/>
      <psa10 value="0.0104434974" flag="0"/>
      <psa30 value="0.0029399176" flag="0"/>
    </comp>
    <comp name="--.HHZ">
      <acc value="0.0058486984" flag="0"/>
      <vel value="0.0055784288" flag="0"/>
      <psa03 value="0.0168589945" flag="0"/>
      <psa10 value="0.0073738195" flag="0"/>
      <psa30 value="0.0022195297" flag="0"/>
    </comp>
  </station>
  <station code="MSAG" name="MSAG" netid="IV" insttype="" lat="41.712" lon="15.9096">
    <comp name="--.HHE">
      <acc value="0.0104111137" flag="0"/>
      <vel value="0.0048224498" flag="0"/>
      <psa03 value="0.0336530417" flag="0"/>
      <psa10 value="0.0060106592" flag="0"/>
      <psa30 value="0.0004522007" flag="0"/>
    </comp>
    <comp name="--.HHN">
      <acc value="0.0276340089" flag="0"/>
      <vel value="0.0144167722" flag="0"/>
      <psa03 value="0.0700838011" flag="0"/>
      <psa10 value="0.0118160096" flag="0"/>
      <psa30 value="0.0010536113" flag="0"/>
    </comp>
    <comp name="--.HHZ">
      <acc value="0.0055950011" flag="0"/>
      <vel value="0.0033563222" flag="0"/>
      <psa03 value="0.0126286350" flag="0"/>
      <psa10 value="0.0050271094" flag="0"/>
      <psa30 value="0.0006435319" flag="0"/>
    </comp>
  </station>
  <station code="SGRT" name="SGRT" netid="IV" insttype="" lat="41.7546" lon="15.7437">
    <comp name="--.HHE">
      <acc value="0.0489387429" flag="0"/>
      <vel value="0.0220430627" flag="0"/>
      <psa03 value="0.1128252077" flag="0"/>
      <psa10 value="0.0352318062" flag="0"/>
      <psa30 value="0.0014410565" flag="0"/>
    </comp>
    <comp name="--.HHN">
      <acc value="0.0399352474" flag="0"/>
      <vel value="0.0267361889" flag="0"/>
      <psa03 value="0.0652203680" flag="0"/>
      <psa10 value="0.0254067294" flag="0"/>
      <psa30 value="0.0024559663" flag="0"/>
    </comp>
    <comp name="--.HHZ">
      <acc value="0.0249674279" flag="0"/>
      <vel value="0.0152148397" flag="0"/>
      <psa03 value="0.0589958572" flag="0"/>
      <psa10 value="0.0110396541" flag="0"/>
      <psa30 value="0.0013376113" flag="0"/>
    </comp>
  </station>
  <station code="TREM" name="TREM" netid="IV" insttype="" lat="42.123" lon="15.51">
    <comp name="--.HHE">
      <acc value="0.0221185412" flag="0"/>
      <vel value="0.0132596966" flag="0"/>
      <psa03 value="0.0528797600" flag="0"/>
      <psa10 value="0.0106851768" flag="0"/>
      <psa30 value="0.0013790748" flag="0"/>
    </comp>
    <comp name="--.HHN">
      <acc value="0.0246485390" flag="0"/>
      <vel value="0.0155214670" flag="0"/>
      <psa03 value="0.1150752860" flag="0"/>
      <psa10 value="0.0119996649" flag="0"/>
      <psa30 value="0.0010360963" flag="0"/>
    </comp>
    <comp name="--.HHZ">
      <acc value="0.0155149635" flag="0"/>
      <vel value="0.0073694371" flag="0"/>
      <psa03 value="0.0661347326" flag="0"/>
      <psa10 value="0.0029433404" flag="0"/>
      <psa30 value="0.0006493172" flag="0"/>
    </comp>
  </station>
</stationlist>
