<stationlist created="1778136047">
	<station code="MALA" name="MALA" netid="CL" source="Corinth Riff Laboratory (CRLNET)" insttype="" lat="38.39341" lon="21.87263">
		<comp name="01.HNE" depth="0.0">
			<acc value="2.88352427861298" flag="0"/>
			<vel value="1.12705437280534" flag="0"/>
			<psa03 value="6.10664007029482" flag="0"/>
			<psa10 value="0.683122220959508" flag="0"/>
			<psa30 value="0.0435923319081822" flag="0"/>
		</comp>
		<comp name="01.HNN" depth="0.0">
			<acc value="4.75508857982529" flag="0"/>
			<vel value="1.41037282131613" flag="0"/>
			<psa03 value="3.21544342082872" flag="0"/>
			<psa10 value="0.750498615061831" flag="0"/>
			<psa30 value="0.0502316279482675" flag="0"/>
		</comp>
		<comp name="01.HNZ" depth="0.0">
			<acc value="0.969025591715621" flag="0"/>
			<vel value="0.351406406707784" flag="0"/>
			<psa03 value="1.65496948060325" flag="0"/>
			<psa10 value="0.244064262882011" flag="0"/>
			<psa30 value="0.0381637599791873" flag="0"/>
		</comp>
	</station>
	<station code="AIGS" name="AIGS" netid="HA" source="Hellenic Seismological Network, University of Athens, Seismological Laboratory (HA)" insttype="" lat="38.25001" lon="22.0878">
		<comp name="--.HNE" depth="0.0">
			<acc value="6.10805538027459" flag="0"/>
			<vel value="2.04622493073917" flag="0"/>
			<psa03 value="7.70979807563412" flag="0"/>
			<psa10 value="0.40092820217534" flag="0"/>
			<psa30 value="0.101649819216052" flag="0"/>
		</comp>
		<comp name="--.HNN" depth="0.0">
			<acc value="5.28783342339963" flag="0"/>
			<vel value="1.55570169131865" flag="0"/>
			<psa03 value="7.27226403711404" flag="0"/>
			<psa10 value="0.473660238409871" flag="0"/>
			<psa30 value="0.11957488945353" flag="0"/>
		</comp>
		<comp name="--.HNZ" depth="0.0">
			<acc value="3.54262111097504" flag="0"/>
			<vel value="0.549024247633164" flag="0"/>
			<psa03 value="1.6029342943062" flag="0"/>
			<psa10 value="0.277027636185956" flag="0"/>
			<psa30 value="0.0748863734832" flag="0"/>
		</comp>
	</station>
	<station code="XLKS" name="XLKS" netid="HA" source="Hellenic Seismological Network, University of Athens, Seismological Laboratory (HA)" insttype="" lat="38.0772" lon="22.6361">
		<comp name="--.HNE" depth="0.0">
			<acc value="0.143924376038001" flag="0"/>
			<vel value="0.0782749088887911" flag="0"/>
			<psa03 value="0.435744350255349" flag="0"/>
			<psa10 value="0.114038936228651" flag="0"/>
			<psa30 value="0.0262963370957569" flag="0"/>
		</comp>
		<comp name="--.HNN" depth="0.0">
			<acc value="0.188015357756856" flag="0"/>
			<vel value="0.0709973406975404" flag="0"/>
			<psa03 value="0.281115284182601" flag="0"/>
			<psa10 value="0.0933734058358037" flag="0"/>
			<psa30 value="0.0180109752741853" flag="0"/>
		</comp>
		<comp name="--.HNZ" depth="0.0">
			<acc value="0.122231723743032" flag="0"/>
			<vel value="0.0714737110116125" flag="0"/>
			<psa03 value="0.515206509209399" flag="0"/>
			<psa10 value="0.0394465190429331" flag="0"/>
			<psa30 value="0.00910638131301685" flag="0"/>
		</comp>
	</station>
	<station code="ARS1" name="ARS1" netid="HI" source="ITSAK Strong Motion Network" insttype="" lat="37.6349" lon="22.7293">
		<comp name="--.HNE" depth="0.0">
			<acc value="0.036025031330727" flag="0"/>
			<vel value="0.0348645990697565" flag="0"/>
			<psa03 value="0.137627027557804" flag="0"/>
			<psa10 value="0.0574543623626551" flag="0"/>
			<psa30 value="0.00348586531762955" flag="0"/>
		</comp>
		<comp name="--.HNN" depth="0.0">
			<acc value="0.0486125452979382" flag="0"/>
			<vel value="0.0402270172903091" flag="0"/>
			<psa03 value="0.150960205130049" flag="0"/>
			<psa10 value="0.0846876012649986" flag="0"/>
			<psa30 value="0.00564333452076262" flag="0"/>
		</comp>
		<comp name="--.HNZ" depth="0.0">
			<acc value="0.0262898348761053" flag="0"/>
			<vel value="0.015006550195322" flag="0"/>
			<psa03 value="0.116061283967797" flag="0"/>
			<psa10 value="0.00967237022673799" flag="0"/>
			<psa30 value="0.00434178373023709" flag="0"/>
		</comp>
	</station>
	<station code="KLV1" name="KLV1" netid="HI" source="ITSAK Strong Motion Network" insttype="" lat="38.03256" lon="22.10797">
		<comp name="--.HNE" depth="0.0">
			<acc value="0.274407687009483" flag="0"/>
			<vel value="0.1411929828598" flag="0"/>
			<psa03 value="0.705360887337054" flag="0"/>
			<psa10 value="0.172898651301186" flag="0"/>
			<psa30 value="0.0105546865412503" flag="0"/>
		</comp>
		<comp name="--.HNN" depth="0.0">
			<acc value="0.250113052392281" flag="0"/>
			<vel value="0.0982030663136158" flag="0"/>
			<psa03 value="0.415878810516836" flag="0"/>
			<psa10 value="0.136492365197965" flag="0"/>
			<psa30 value="0.0125680858390725" flag="0"/>
		</comp>
		<comp name="--.HNZ" depth="0.0">
			<acc value="0.158123005786719" flag="0"/>
			<vel value="0.0694735831504232" flag="0"/>
			<psa03 value="0.201474156402078" flag="0"/>
			<psa10 value="0.0764930661228621" flag="0"/>
			<psa30 value="0.01241014584971" flag="0"/>
		</comp>
	</station>
	<station code="LAM2" name="LAM2" netid="HI" source="ITSAK Strong Motion Network" insttype="" lat="38.90203" lon="22.431301">
		<comp name="--.HNE" depth="0.0">
			<acc value="0.0839373130201325" flag="0"/>
			<vel value="0.0424023334185487" flag="0"/>
			<psa03 value="0.159774419833848" flag="0"/>
			<psa10 value="0.0284573856754194" flag="0"/>
			<psa30 value="0.0153429974935377" flag="0"/>
		</comp>
		<comp name="--.HNN" depth="0.0">
			<acc value="0.102342517830953" flag="0"/>
			<vel value="0.0384788531147171" flag="0"/>
			<psa03 value="0.248185020111553" flag="0"/>
			<psa10 value="0.0187970958444683" flag="0"/>
			<psa30 value="0.014253972184449" flag="0"/>
		</comp>
		<comp name="--.HNZ" depth="0.0">
			<acc value="0.0546995671511346" flag="0"/>
			<vel value="0.0214387794723898" flag="0"/>
			<psa03 value="0.0661737235884239" flag="0"/>
			<psa10 value="0.0208990847113947" flag="0"/>
			<psa30 value="0.0101300830004429" flag="0"/>
		</comp>
	</station>
	<station code="MSL1" name="MSL1" netid="HI" source="ITSAK Strong Motion Network" insttype="" lat="38.3727" lon="21.4243">
		<comp name="--.HNE" depth="0.0">
			<acc value="0.113994029275326" flag="0"/>
			<vel value="0.0650654842550876" flag="0"/>
			<psa03 value="0.413462731359449" flag="0"/>
			<psa10 value="0.111973188549085" flag="0"/>
			<psa30 value="0.0121918038814129" flag="0"/>
		</comp>
		<comp name="--.HNN" depth="0.0">
			<acc value="0.10969573604257" flag="0"/>
			<vel value="0.0692433338767658" flag="0"/>
			<psa03 value="0.436415483354623" flag="0"/>
			<psa10 value="0.120743555890399" flag="0"/>
			<psa30 value="0.0110777229366179" flag="0"/>
		</comp>
		<comp name="--.HNZ" depth="0.0">
			<acc value="0.0761901197140646" flag="0"/>
			<vel value="0.0484822206802506" flag="0"/>
			<psa03 value="0.143398772211561" flag="0"/>
			<psa10 value="0.0713588979134154" flag="0"/>
			<psa30 value="0.00423753438881652" flag="0"/>
		</comp>
	</station>
	<station code="PYL1" name="PYL1" netid="HI" source="ITSAK Strong Motion Network" insttype="" lat="36.914188" lon="21.695161">
		<comp name="--.HNE" depth="0.0">
			<acc value="0.00707637149499708" flag="0"/>
			<vel value="0.0117598178269819" flag="0"/>
			<psa03 value="0.0173152339612712" flag="0"/>
			<psa10 value="0.0143716441878551" flag="0"/>
			<psa30 value="0.00452343708910727" flag="0"/>
		</comp>
		<comp name="--.HNN" depth="0.0">
			<acc value="0.0062765994111543" flag="0"/>
			<vel value="0.00852519805561148" flag="0"/>
			<psa03 value="0.0122593646134065" flag="0"/>
			<psa10 value="0.0130669614428663" flag="0"/>
			<psa30 value="0.00312032148955827" flag="0"/>
		</comp>
		<comp name="--.HNZ" depth="0.0">
			<acc value="0.00432608808466381" flag="0"/>
			<vel value="0.00785451019071931" flag="0"/>
			<psa03 value="0.00890369911703608" flag="0"/>
			<psa10 value="0.00844822345366207" flag="0"/>
			<psa30 value="0.00318922448775041" flag="0"/>
		</comp>
	</station>
	<station code="VAS2" name="VAS2" netid="HI" source="ITSAK Strong Motion Network" insttype="" lat="38.630558" lon="20.608081">
		<comp name="--.HNE" depth="0.0">
			<acc value="0.041089100295369" flag="0"/>
			<vel value="0.0369616316338468" flag="0"/>
			<psa03 value="0.137492800937949" flag="0"/>
			<psa10 value="0.0978834202629255" flag="0"/>
			<psa30 value="0.00474401616773535" flag="0"/>
		</comp>
		<comp name="--.HNN" depth="0.0">
			<acc value="0.0597140689820903" flag="0"/>
			<vel value="0.0687106288712246" flag="0"/>
			<psa03 value="0.169438736463395" flag="0"/>
			<psa10 value="0.106166544974166" flag="0"/>
			<psa30 value="0.00846433064804465" flag="0"/>
		</comp>
		<comp name="--.HNZ" depth="0.0">
			<acc value="0.0293894156512651" flag="0"/>
			<vel value="0.0240088120021511" flag="0"/>
			<psa03 value="0.0813413316320181" flag="0"/>
			<psa10 value="0.0385686769490826" flag="0"/>
			<psa30 value="0.00358161363979265" flag="0"/>
		</comp>
	</station>
	<station code="ATHP" name="ATHP" netid="HL" source="National Observatory of Athens Seismic Network" insttype="" lat="38.000799" lon="23.773487">
		<comp name="00.HNE" depth="0.0">
			<acc value="0.0119892933233783" flag="0"/>
			<vel value="0.0115358756979762" flag="0"/>
			<psa03 value="0.0233106896481196" flag="0"/>
			<psa10 value="0.0214990777021458" flag="0"/>
			<psa30 value="0.00386975345041432" flag="0"/>
		</comp>
		<comp name="00.HNN" depth="0.0">
			<acc value="0.0102895482101756" flag="0"/>
			<vel value="0.0108420699421206" flag="0"/>
			<psa03 value="0.0249214090863774" flag="0"/>
			<psa10 value="0.0144843945485331" flag="0"/>
			<psa30 value="0.00312255859988919" flag="0"/>
		</comp>
		<comp name="00.HNZ" depth="0.0">
			<acc value="0.00644799283653779" flag="0"/>
			<vel value="0.00798813695166295" flag="0"/>
			<psa03 value="0.0152123502502124" flag="0"/>
			<psa10 value="0.0114965099905649" flag="0"/>
			<psa30 value="0.00206172088096996" flag="0"/>
		</comp>
	</station>
	<station code="DLFA" name="DLFA" netid="HL" source="National Observatory of Athens Seismic Network" insttype="" lat="38.47836" lon="22.49583">
		<comp name="00.HNE" depth="0.0">
			<acc value="0.20042373460178" flag="0"/>
			<vel value="0.114130552208217" flag="0"/>
			<psa03 value="0.36970485328678" flag="0"/>
			<psa10 value="0.137668190387893" flag="0"/>
			<psa30 value="0.0141313785383149" flag="0"/>
		</comp>
		<comp name="00.HNN" depth="0.0">
			<acc value="0.251835469373722" flag="0"/>
			<vel value="0.117659927247667" flag="0"/>
			<psa03 value="0.403574703696811" flag="0"/>
			<psa10 value="0.117413393451801" flag="0"/>
			<psa30 value="0.0114660852900645" flag="0"/>
		</comp>
		<comp name="00.HNZ" depth="0.0">
			<acc value="0.231926464443532" flag="0"/>
			<vel value="0.0755712833515844" flag="0"/>
			<psa03 value="0.366483414410264" flag="0"/>
			<psa10 value="0.0705656185900735" flag="0"/>
			<psa30 value="0.0137891006576852" flag="0"/>
		</comp>
	</station>
	<station code="ITM" name="ITM" netid="HL" source="National Observatory of Athens Seismic Network" insttype="" lat="37.17872" lon="21.92522">
		<comp name="--.HNE" depth="0.0">
			<acc value="0.0130334654647949" flag="0"/>
			<vel value="0.0155562895973164" flag="0"/>
			<psa03 value="0.0351226321953433" flag="0"/>
			<psa10 value="0.0260211725250545" flag="0"/>
			<psa30 value="0.00442589907867944" flag="0"/>
		</comp>
		<comp name="--.HNN" depth="0.0">
			<acc value="0.0108631644979551" flag="0"/>
			<vel value="0.0152147620477835" flag="0"/>
			<psa03 value="0.028321816789366" flag="0"/>
			<psa10 value="0.0261862712674759" flag="0"/>
			<psa30 value="0.00363754139806549" flag="0"/>
		</comp>
		<comp name="--.HNZ" depth="0.0">
			<acc value="0.00980564867636315" flag="0"/>
			<vel value="0.0138916663661573" flag="0"/>
			<psa03 value="0.0201339929782223" flag="0"/>
			<psa10 value="0.0188937390107638" flag="0"/>
			<psa30 value="0.00384335554850954" flag="0"/>
		</comp>
	</station>
	<station code="KYMI" name="KYMI" netid="HL" source="National Observatory of Athens Seismic Network" insttype="" lat="38.633147" lon="24.100138">
		<comp name="--.HNE" depth="1.0">
			<acc value="0.00435801711360951" flag="0"/>
			<vel value="0.00638770155965403" flag="0"/>
			<psa03 value="0.0108276140016218" flag="0"/>
			<psa10 value="0.00803748999690634" flag="0"/>
			<psa30 value="0.00311003078203607" flag="0"/>
		</comp>
		<comp name="--.HNN" depth="1.0">
			<acc value="0.00502756491596403" flag="0"/>
			<vel value="0.010491455638646" flag="0"/>
			<psa03 value="0.0115882315141324" flag="0"/>
			<psa10 value="0.013046827449888" flag="0"/>
			<psa30 value="0.00189125307375435" flag="0"/>
		</comp>
		<comp name="--.HNZ" depth="1.0">
			<acc value="0.00312632913192178" flag="0"/>
			<vel value="0.00451166897230636" flag="0"/>
			<psa03 value="0.00836679263761682" flag="0"/>
			<psa10 value="0.00562946443671095" flag="0"/>
			<psa30 value="0.00333911087992162" flag="0"/>
		</comp>
	</station>
	<station code="PATC" name="PATC" netid="HL" source="National Observatory of Athens Seismic Network" insttype="" lat="38.26933" lon="21.76001">
		<comp name="00.HNE" depth="0.0">
			<acc value="0.349055165203959" flag="0"/>
			<vel value="0.196526105345299" flag="0"/>
			<psa03 value="0.785807374836707" flag="0"/>
			<psa10 value="0.152027754179961" flag="0"/>
			<psa30 value="0.0661943050034683" flag="0"/>
		</comp>
		<comp name="00.HNN" depth="0.0">
			<acc value="0.453400089716966" flag="0"/>
			<vel value="0.16225883261936" flag="0"/>
			<psa03 value="0.708716552833425" flag="0"/>
			<psa10 value="0.245570285556782" flag="0"/>
			<psa30 value="0.0586118432478698" flag="0"/>
		</comp>
		<comp name="00.HNZ" depth="0.0">
			<acc value="0.383393828618046" flag="0"/>
			<vel value="0.13082368735817" flag="0"/>
			<psa03 value="0.526928967343386" flag="0"/>
			<psa10 value="0.165743030196726" flag="0"/>
			<psa30 value="0.0261213950678794" flag="0"/>
		</comp>
	</station>
	<station code="PATG" name="PATG" netid="HL" source="National Observatory of Athens Seismic Network" insttype="" lat="38.23865" lon="21.72657">
		<comp name="00.HNE" depth="0.0">
			<acc value="0.313611253943871" flag="0"/>
			<vel value="0.18895313662679" flag="0"/>
			<psa03 value="0.847148940110357" flag="0"/>
			<psa10 value="0.197280916797813" flag="0"/>
			<psa30 value="0.0746232893082845" flag="0"/>
		</comp>
		<comp name="00.HNN" depth="0.0">
			<acc value="0.364750246448538" flag="0"/>
			<vel value="0.231010291878586" flag="0"/>
			<psa03 value="0.652967763387058" flag="0"/>
			<psa10 value="0.233952971608347" flag="0"/>
			<psa30 value="0.126871448508838" flag="0"/>
		</comp>
		<comp name="00.HNZ" depth="0.0">
			<acc value="0.180202809475924" flag="0"/>
			<vel value="0.0827942687680121" flag="0"/>
			<psa03 value="0.391807503356206" flag="0"/>
			<psa10 value="0.168255752520408" flag="0"/>
			<psa30 value="0.0252985858881694" flag="0"/>
		</comp>
	</station>
	<station code="RIOA" name="RIOA" netid="HL" source="National Observatory of Athens Seismic Network" insttype="" lat="38.29585" lon="21.79118">
		<comp name="00.HNE" depth="0.0">
			<acc value="0.671089628653403" flag="0"/>
			<vel value="0.159098804050532" flag="0"/>
			<psa03 value="0.682631846374972" flag="0"/>
			<psa10 value="0.159682698310281" flag="0"/>
			<psa30 value="0.028534789692869" flag="0"/>
		</comp>
		<comp name="00.HNN" depth="0.0">
			<acc value="0.617871432864481" flag="0"/>
			<vel value="0.231402039297235" flag="0"/>
			<psa03 value="1.28383287670469" flag="0"/>
			<psa10 value="0.165948396925104" flag="0"/>
			<psa30 value="0.0476124191728339" flag="0"/>
		</comp>
		<comp name="00.HNZ" depth="0.0">
			<acc value="0.549371499608874" flag="0"/>
			<vel value="0.159200024531045" flag="0"/>
			<psa03 value="0.715517368239402" flag="0"/>
			<psa10 value="0.0683750401540429" flag="0"/>
			<psa30 value="0.0339861801472392" flag="0"/>
		</comp>
	</station>
	<station code="YDRA" name="YDRA" netid="HL" source="National Observatory of Athens Seismic Network" insttype="" lat="37.34923" lon="23.46525">
		<comp name="00.HNE" depth="0.0">
			<acc value="0.0100130679890527" flag="0"/>
			<vel value="0.0112213858560334" flag="0"/>
			<psa03 value="0.0327512952445749" flag="0"/>
			<psa10 value="0.00790863244184572" flag="0"/>
			<psa30 value="0.0031377709501394" flag="0"/>
		</comp>
		<comp name="00.HNN" depth="0.0">
			<acc value="0.00876783838146272" flag="0"/>
			<vel value="0.00821788928712782" flag="0"/>
			<psa03 value="0.0373597425262569" flag="0"/>
			<psa10 value="0.0108763830068357" flag="0"/>
			<psa30 value="0.00189617471648236" flag="0"/>
		</comp>
		<comp name="00.HNZ" depth="0.0">
			<acc value="0.00584405220231851" flag="0"/>
			<vel value="0.00513454489840031" flag="0"/>
			<psa03 value="0.0179863670605452" flag="0"/>
			<psa10 value="0.00449793403133486" flag="0"/>
			<psa30 value="0.00137895480797514" flag="0"/>
		</comp>
	</station>
	<station code="ANX" name="ANX" netid="HP" source="University of Patras, Seismological Laboratory (PSLNET)" insttype="" lat="38.5933" lon="21.9209">
		<comp name="--.HNE" depth="0.0">
			<acc value="1.37682764492008" flag="0"/>
			<vel value="0.513645420389489" flag="0"/>
			<psa03 value="2.05438315908457" flag="0"/>
			<psa10 value="0.2471246298147" flag="0"/>
			<psa30 value="0.0197577110205626" flag="0"/>
		</comp>
		<comp name="--.HNN" depth="0.0">
			<acc value="0.765735387907553" flag="0"/>
			<vel value="0.396035845023035" flag="0"/>
			<psa03 value="2.05393573701838" flag="0"/>
			<psa10 value="0.364546076863693" flag="0"/>
			<psa30 value="0.021467758157513" flag="0"/>
		</comp>
		<comp name="--.HNZ" depth="0.0">
			<acc value="0.813648499020922" flag="0"/>
			<vel value="0.180252571019113" flag="0"/>
			<psa03 value="0.876141889998998" flag="0"/>
			<psa10 value="0.108163837077606" flag="0"/>
			<psa30 value="0.0153389706949421" flag="0"/>
		</comp>
	</station>
	<station code="GUR" name="GUR" netid="HP" source="University of Patras, Seismological Laboratory (PSLNET)" insttype="" lat="37.9363" lon="22.3423">
		<comp name="--.HNE" depth="0.0">
			<acc value="0.101760034027831" flag="0"/>
			<vel value="0.0456087232037466" flag="0"/>
			<psa03 value="0.214180943081667" flag="0"/>
			<psa10 value="0.0511967173450236" flag="0"/>
			<psa30 value="0.00588941665716311" flag="0"/>
		</comp>
		<comp name="--.HNN" depth="0.0">
			<acc value="0.0874803952334911" flag="0"/>
			<vel value="0.0483499958221968" flag="0"/>
			<psa03 value="0.291674444944514" flag="0"/>
			<psa10 value="0.0411256940573168" flag="0"/>
			<psa30 value="0.00621379765514558" flag="0"/>
		</comp>
		<comp name="--.HNZ" depth="0.0">
			<acc value="0.0662857360355823" flag="0"/>
			<vel value="0.0271523319645417" flag="0"/>
			<psa03 value="0.0913188437078927" flag="0"/>
			<psa10 value="0.0292667721931439" flag="0"/>
			<psa30 value="0.00754040408137734" flag="0"/>
		</comp>
	</station>
	<station code="LTK" name="LTK" netid="HP" source="University of Patras, Seismological Laboratory (PSLNET)" insttype="" lat="38.0228" lon="22.9673">
		<comp name="--.HNE" depth="0.0">
			<acc value="0.0198076465941814" flag="0"/>
			<vel value="0.0169759517418728" flag="0"/>
			<psa03 value="0.0572700244713879" flag="0"/>
			<psa10 value="0.0224010805875701" flag="0"/>
			<psa30 value="0.0041552087286389" flag="0"/>
		</comp>
		<comp name="--.HNN" depth="0.0">
			<acc value="0.0205889029089356" flag="0"/>
			<vel value="0.0132927344080587" flag="0"/>
			<psa03 value="0.0574489932978609" flag="0"/>
			<psa10 value="0.0148911012066932" flag="0"/>
			<psa30 value="0.00384604008090664" flag="0"/>
		</comp>
		<comp name="--.HNZ" depth="0.0">
			<acc value="0.0155664999815823" flag="0"/>
			<vel value="0.0117834968249049" flag="0"/>
			<psa03 value="0.0504692090654105" flag="0"/>
			<psa10 value="0.0105502123205885" flag="0"/>
			<psa30 value="0.00333105728273033" flag="0"/>
		</comp>
	</station>
