<?xml version="1.0" encoding="UTF-8" standalone="yes"?>
<!DOCTYPE earthquake SYSTEM "stationlist.dtd">
<stationlist created="" xmlns="ch.ethz.sed.shakemap.usgs.xml">
  <station code="ACOR" name="ACOR" netid="HA" insttype="30" lat="37.8902" lon="22.8692">
    <comp name="--.HHZ">
      <acc value="0.0117415277" flag="0"/>
      <vel value="0.0064501303" flag="0"/>
      <psa03 value="0.0320683772" flag="0"/>
      <psa10 value="0.0069257544" flag="0"/>
      <psa30 value="0.0026001567" flag="0"/>
    </comp>
    <comp name="--.HHN">
      <acc value="0.0804019965" flag="0"/>
      <vel value="0.0415743454" flag="0"/>
      <psa03 value="0.1523196935" flag="0"/>
      <psa10 value="0.0733268008" flag="0"/>
      <psa30 value="0.0164061953" flag="0"/>
    </comp>
    <comp name="--.HHE">
      <acc value="0.0214577015" flag="0"/>
      <vel value="0.0105720527" flag="0"/>
      <psa03 value="0.0526689907" flag="0"/>
      <psa10 value="0.0091878090" flag="0"/>
      <psa30 value="0.0034228912" flag="0"/>
    </comp>
  </station>
  <station code="EPID" name="EPID" netid="HA" insttype="30" lat="37.6144" lon="23.1189">
    <comp name="--.HHZ">
      <acc value="0.0163931619" flag="0"/>
      <vel value="0.0094345424" flag="0"/>
      <psa03 value="0.0512548821" flag="0"/>
      <psa10 value="0.0111108544" flag="0"/>
      <psa30 value="0.0015559965" flag="0"/>
    </comp>
    <comp name="--.HHE">
      <acc value="0.0302858617" flag="0"/>
      <vel value="0.0125746863" flag="0"/>
      <psa03 value="0.0753475691" flag="0"/>
      <psa10 value="0.0107374917" flag="0"/>
      <psa30 value="0.0017672427" flag="0"/>
    </comp>
    <comp name="--.HHN">
      <acc value="0.0241945988" flag="0"/>
      <vel value="0.0115017596" flag="0"/>
      <psa03 value="0.0517998347" flag="0"/>
      <psa10 value="0.0167716202" flag="0"/>
      <psa30 value="0.0027208954" flag="0"/>
    </comp>
  </station>
  <station code="KALE" name="KALE" netid="HA" insttype="40," lat="38.3911" lon="22.1398">
    <comp name="--.HHZ">
      <acc value="2.7245517196" flag="0"/>
      <vel value="0.3767632785" flag="0"/>
      <psa03 value="0.8641507793" flag="0"/>
      <psa10 value="0.4450525653" flag="0"/>
      <psa30 value="0.0745277988" flag="0"/>
    </comp>
    <comp name="--.HHE">
      <acc value="1.7446943195" flag="0"/>
      <vel value="0.4995906268" flag="0"/>
      <psa03 value="2.1181960656" flag="0"/>
      <psa10 value="0.3330472857" flag="0"/>
      <psa30 value="0.0704179745" flag="0"/>
    </comp>
    <comp name="--.HHN">
      <acc value="2.3784110388" flag="0"/>
      <vel value="0.6162487202" flag="0"/>
      <psa03 value="2.6292020548" flag="0"/>
      <psa10 value="0.6474715543" flag="0"/>
      <psa30 value="0.1002537197" flag="0"/>
    </comp>
  </station>
  <station code="LAKA" name="LAKA" netid="HA" insttype="120s" lat="38.2401" lon="21.9785">
    <comp name="--.HHE">
      <acc value="0.4859949414" flag="0"/>
      <vel value="0.1288855941" flag="0"/>
      <psa03 value="0.2847463380" flag="0"/>
      <psa10 value="0.0792745087" flag="0"/>
      <psa30 value="0.0244946618" flag="0"/>
    </comp>
    <comp name="--.HHN">
      <acc value="0.5436715238" flag="0"/>
      <vel value="0.1333602827" flag="0"/>
      <psa03 value="0.4644223291" flag="0"/>
      <psa10 value="0.1161870034" flag="0"/>
      <psa30 value="0.0607590018" flag="0"/>
    </comp>
    <comp name="--.HHZ">
      <acc value="0.2615027202" flag="0"/>
      <vel value="0.1149556429" flag="0"/>
      <psa03 value="0.2601322759" flag="0"/>
      <psa10 value="0.1530161046" flag="0"/>
      <psa30 value="0.0585908734" flag="0"/>
    </comp>
  </station>
  <station code="STFN" name="STFN" netid="HA" insttype="1s-100Hz," lat="38.1766" lon="23.544">
    <comp name="--.HHZ">
      <acc value="0.0119655482" flag="0"/>
      <vel value="0.0138526694" flag="0"/>
      <psa03 value="0.0404377195" flag="0"/>
      <psa10 value="0.0327133371" flag="0"/>
      <psa30 value="0.0036538468" flag="0"/>
    </comp>
    <comp name="--.HHE">
      <acc value="0.0151918190" flag="0"/>
      <vel value="0.0165506435" flag="0"/>
      <psa03 value="0.0346709367" flag="0"/>
      <psa10 value="0.0262246796" flag="0"/>
      <psa30 value="0.0031630913" flag="0"/>
    </comp>
    <comp name="--.HHN">
      <acc value="0.0198394567" flag="0"/>
      <vel value="0.0131323527" flag="0"/>
      <psa03 value="0.0524765637" flag="0"/>
      <psa10 value="0.0163962710" flag="0"/>
      <psa30 value="0.0030883495" flag="0"/>
    </comp>
  </station>
  <station code="THAL" name="THAL" netid="HA" insttype="30" lat="38.0357" lon="22.6634">
    <comp name="--.HHZ">
      <acc value="0.1010145404" flag="0"/>
      <vel value="0.0255647448" flag="0"/>
      <psa03 value="0.1930851706" flag="0"/>
      <psa10 value="0.0291386790" flag="0"/>
      <psa30 value="0.0029414030" flag="0"/>
    </comp>
    <comp name="--.HHN">
      <acc value="0.1583193856" flag="0"/>
      <vel value="0.0559336569" flag="0"/>
      <psa03 value="0.3554045683" flag="0"/>
      <psa10 value="0.0461618756" flag="0"/>
      <psa30 value="0.0071929532" flag="0"/>
    </comp>
    <comp name="--.HHE">
      <acc value="0.1780705058" flag="0"/>
      <vel value="0.0661040384" flag="0"/>
      <psa03 value="0.3827452961" flag="0"/>
      <psa10 value="0.0499284691" flag="0"/>
      <psa30 value="0.0061806889" flag="0"/>
    </comp>
  </station>
  <station code="VILL" name="VILL" netid="HA" insttype="30" lat="38.1642" lon="23.3122">
    <comp name="--.HHN">
      <acc value="0.0415351929" flag="0"/>
      <vel value="0.0327485531" flag="0"/>
      <psa03 value="0.1000476678" flag="0"/>
      <psa10 value="0.0389285781" flag="0"/>
      <psa30 value="0.0037474181" flag="0"/>
    </comp>
    <comp name="--.HHZ">
      <acc value="0.0195207042" flag="0"/>
      <vel value="0.0163213180" flag="0"/>
      <psa03 value="0.0377292963" flag="0"/>
      <psa10 value="0.0310662742" flag="0"/>
      <psa30 value="0.0030080628" flag="0"/>
    </comp>
    <comp name="--.HHE">
      <acc value="0.0417510460" flag="0"/>
      <vel value="0.0362923499" flag="0"/>
      <psa03 value="0.0983245260" flag="0"/>
      <psa10 value="0.0680491801" flag="0"/>
      <psa30 value="0.0049530258" flag="0"/>
    </comp>
  </station>
  <station code="KLV1" name="KLV1" netid="HI" insttype="CMG-5TD,ACCELEROMETER,GURALP" lat="38.0326" lon="22.108">
    <comp name="--.HNE">
      <acc value="0.2736164800" flag="0"/>
      <vel value="0.1400179786" flag="0"/>
      <psa03 value="0.6935413149" flag="0"/>
      <psa10 value="0.1723602286" flag="0"/>
      <psa30 value="0.0095044367" flag="0"/>
    </comp>
    <comp name="--.HNN">
      <acc value="0.2520199050" flag="0"/>
      <vel value="0.0931709977" flag="0"/>
      <psa03 value="0.4168675989" flag="0"/>
      <psa10 value="0.1365657719" flag="0"/>
      <psa30 value="0.0108323946" flag="0"/>
    </comp>
    <comp name="--.HNZ">
      <acc value="0.1592759012" flag="0"/>
      <vel value="0.0611449290" flag="0"/>
      <psa03 value="0.2043903758" flag="0"/>
      <psa10 value="0.0752227811" flag="0"/>
      <psa30 value="0.0097777281" flag="0"/>
    </comp>
  </station>
  <station code="LAM2" name="LAM2" netid="HI" insttype="CMG-5TD,ACCELEROMETER,GURALP" lat="38.902" lon="22.4313">
    <comp name="--.HNE">
      <acc value="0.0837014504" flag="0"/>
      <vel value="0.0387871820" flag="0"/>
      <psa03 value="0.1613233948" flag="0"/>
      <psa10 value="0.0283983009" flag="0"/>
      <psa30 value="0.0134112844" flag="0"/>
    </comp>
    <comp name="--.HNN">
      <acc value="0.1017935742" flag="0"/>
      <vel value="0.0379915266" flag="0"/>
      <psa03 value="0.2484219387" flag="0"/>
      <psa10 value="0.0182160780" flag="0"/>
      <psa30 value="0.0120442405" flag="0"/>
    </comp>
    <comp name="--.HNZ">
      <acc value="0.0547134772" flag="0"/>
      <vel value="0.0215524622" flag="0"/>
      <psa03 value="0.0684179026" flag="0"/>
      <psa10 value="0.0213051858" flag="0"/>
      <psa30 value="0.0086297152" flag="0"/>
    </comp>
  </station>
  <station code="MSL1" name="MSL1" netid="HI" insttype="CMG-5TD,ACCELEROMETER,GURALP" lat="38.3727" lon="21.4243">
    <comp name="--.HNE">
      <acc value="0.1147933307" flag="0"/>
      <vel value="0.0642625271" flag="0"/>
      <psa03 value="0.4119072752" flag="0"/>
      <psa10 value="0.1119692294" flag="0"/>
      <psa30 value="0.0114348917" flag="0"/>
    </comp>
    <comp name="--.HNN">
      <acc value="0.1096723907" flag="0"/>
      <vel value="0.0694866011" flag="0"/>
      <psa03 value="0.4423603689" flag="0"/>
      <psa10 value="0.1203942007" flag="0"/>
      <psa30 value="0.0102506831" flag="0"/>
    </comp>
    <comp name="--.HNZ">
      <acc value="0.0767542959" flag="0"/>
      <vel value="0.0483056898" flag="0"/>
      <psa03 value="0.1431749225" flag="0"/>
      <psa10 value="0.0711844614" flag="0"/>
      <psa30 value="0.0039337640" flag="0"/>
    </comp>
  </station>
  <station code="DLFA" name="DLFA" netid="HL" insttype="CMG-5" lat="38.4784" lon="22.4958">
    <comp name="00.HNE">
      <acc value="0.2039134129" flag="0"/>
      <vel value="0.1149448042" flag="0"/>
      <psa03 value="0.3668406744" flag="0"/>
      <psa10 value="0.1371363002" flag="0"/>
      <psa30 value="0.0122246141" flag="0"/>
    </comp>
    <comp name="00.HNN">
      <acc value="0.2537666780" flag="0"/>
      <vel value="0.1227065009" flag="0"/>
      <psa03 value="0.4035462399" flag="0"/>
      <psa10 value="0.1165272542" flag="0"/>
      <psa30 value="0.0100985073" flag="0"/>
    </comp>
    <comp name="00.HNZ">
      <acc value="0.2376258412" flag="0"/>
      <vel value="0.0689139431" flag="0"/>
      <psa03 value="0.3636717314" flag="0"/>
      <psa10 value="0.0696704955" flag="0"/>
      <psa30 value="0.0117637739" flag="0"/>
    </comp>
  </station>
  <station code="EVR" name="EVR" netid="HL" insttype="DR24" lat="38.9166" lon="21.8105">
    <comp name="--.HHN">
      <acc value="0.1096563642" flag="0"/>
      <vel value="0.0471213620" flag="0"/>
      <psa03 value="0.2976318811" flag="0"/>
      <psa10 value="0.0517605148" flag="0"/>
      <psa30 value="0.0066515896" flag="0"/>
    </comp>
    <comp name="--.HHE">
      <acc value="0.1163221611" flag="0"/>
      <vel value="0.0405173295" flag="0"/>
      <psa03 value="0.2721648765" flag="0"/>
      <psa10 value="0.0330678455" flag="0"/>
      <psa30 value="0.0081340718" flag="0"/>
    </comp>
    <comp name="--.HHZ">
      <acc value="0.0691999834" flag="0"/>
      <vel value="0.0416715869" flag="0"/>
      <psa03 value="0.1949108300" flag="0"/>
      <psa10 value="0.0341822269" flag="0"/>
      <psa30 value="0.0084847170" flag="0"/>
    </comp>
  </station>
  <station code="ITM" name="ITM" netid="HL" insttype="DR24" lat="37.1787" lon="21.9252">
    <comp name="--.HHE">
      <acc value="0.0131481292" flag="0"/>
      <vel value="0.0154665197" flag="0"/>
      <psa03 value="0.0361475942" flag="0"/>
      <psa10 value="0.0270764239" flag="0"/>
      <psa30 value="0.0038115395" flag="0"/>
    </comp>
    <comp name="--.HHZ">
      <acc value="0.0104876124" flag="0"/>
      <vel value="0.0140298175" flag="0"/>
      <psa03 value="0.0211987551" flag="0"/>
      <psa10 value="0.0205809304" flag="0"/>
      <psa30 value="0.0033696195" flag="0"/>
    </comp>
    <comp name="--.HHN">
      <acc value="0.0111919993" flag="0"/>
      <vel value="0.0125974754" flag="0"/>
      <psa03 value="0.0299622950" flag="0"/>
      <psa10 value="0.0268481804" flag="0"/>
      <psa30 value="0.0029822407" flag="0"/>
    </comp>
  </station>
  <station code="KLV" name="KLV" netid="HL" insttype="120" lat="38.0435" lon="22.1504">
    <comp name="--.HHZ">
      <acc value="0.0910976704" flag="0"/>
      <vel value="0.0353850033" flag="0"/>
      <psa03 value="0.0685444140" flag="0"/>
      <psa10 value="0.0436134227" flag="0"/>
      <psa30 value="0.0081634065" flag="0"/>
    </comp>
    <comp name="--.HHN">
      <acc value="0.0882946059" flag="0"/>
      <vel value="0.0335427914" flag="0"/>
      <psa03 value="0.1064108136" flag="0"/>
      <psa10 value="0.0437380086" flag="0"/>
      <psa30 value="0.0105999328" flag="0"/>
    </comp>
    <comp name="--.HHE">
      <acc value="0.1047203718" flag="0"/>
      <vel value="0.0319816495" flag="0"/>
      <psa03 value="0.1429450898" flag="0"/>
      <psa10 value="0.0561981702" flag="0"/>
      <psa30 value="0.0047567571" flag="0"/>
    </comp>
  </station>
  <station code="LKR" name="LKR" netid="HL" insttype="30" lat="38.6496" lon="22.9989">
    <comp name="--.HHN">
      <acc value="0.0906130496" flag="0"/>
      <vel value="0.0290227356" flag="0"/>
      <psa03 value="0.1935775536" flag="0"/>
      <psa10 value="0.0215941071" flag="0"/>
      <psa30 value="0.0041540411" flag="0"/>
    </comp>
    <comp name="--.HHE">
      <acc value="0.1368967001" flag="0"/>
      <vel value="0.0360161798" flag="0"/>
      <psa03 value="0.1835402375" flag="0"/>
      <psa10 value="0.0228438499" flag="0"/>
      <psa30 value="0.0091394978" flag="0"/>
    </comp>
    <comp name="--.HHZ">
      <acc value="0.0657463196" flag="0"/>
      <vel value="0.0170196277" flag="0"/>
      <psa03 value="0.0872064649" flag="0"/>
      <psa10 value="0.0186057656" flag="0"/>
      <psa30 value="0.0069872675" flag="0"/>
    </comp>
  </station>
  <station code="NEO" name="NEO" netid="HL" insttype="120" lat="39.3057" lon="23.2219">
    <comp name="--.HHN">
      <acc value="0.0149361978" flag="0"/>
      <vel value="0.0133215013" flag="0"/>
      <psa03 value="0.0614845941" flag="0"/>
      <psa10 value="0.0124422453" flag="0"/>
      <psa30 value="0.0033196265" flag="0"/>
    </comp>
    <comp name="--.HHE">
      <acc value="0.0121301737" flag="0"/>
      <vel value="0.0084852458" flag="0"/>
      <psa03 value="0.0429487730" flag="0"/>
      <psa10 value="0.0110690590" flag="0"/>
      <psa30 value="0.0021277312" flag="0"/>
    </comp>
    <comp name="--.HHZ">
      <acc value="0.0092657984" flag="0"/>
      <vel value="0.0082938404" flag="0"/>
      <psa03 value="0.0218512510" flag="0"/>
      <psa10 value="0.0132722481" flag="0"/>
      <psa30 value="0.0024318124" flag="0"/>
    </comp>
  </station>
  <station code="PATC" name="PATC" netid="HL" insttype="CMG-5" lat="38.2693" lon="21.76">
    <comp name="00.HNN">
      <acc value="0.4546672894" flag="0"/>
      <vel value="0.1645056120" flag="0"/>
      <psa03 value="0.7077247824" flag="0"/>
      <psa10 value="0.2453434031" flag="0"/>
      <psa30 value="0.0524500085" flag="0"/>
    </comp>
    <comp name="00.HNE">
      <acc value="0.3528559701" flag="0"/>
      <vel value="0.2003944019" flag="0"/>
      <psa03 value="0.7856471460" flag="0"/>
      <psa10 value="0.1528194295" flag="0"/>
      <psa30 value="0.0567926134" flag="0"/>
    </comp>
    <comp name="00.HNZ">
      <acc value="0.3809967076" flag="0"/>
      <vel value="0.1204697682" flag="0"/>
      <psa03 value="0.5276835412" flag="0"/>
      <psa10 value="0.1661933224" flag="0"/>
      <psa30 value="0.0232043879" flag="0"/>
    </comp>
  </station>
  <station code="PATG" name="PATG" netid="HL" insttype="CMG-5" lat="38.2386" lon="21.7266">
    <comp name="00.HNE">
      <acc value="0.3113682407" flag="0"/>
      <vel value="0.1696578651" flag="0"/>
      <psa03 value="0.8518507259" flag="0"/>
      <psa10 value="0.1993117324" flag="0"/>
      <psa30 value="0.0618639369" flag="0"/>
    </comp>
    <comp name="00.HNZ">
      <acc value="0.1920642857" flag="0"/>
      <vel value="0.0816902663" flag="0"/>
      <psa03 value="0.3961321210" flag="0"/>
      <psa10 value="0.1681223485" flag="0"/>
      <psa30 value="0.0239237793" flag="0"/>
    </comp>
    <comp name="00.HNN">
      <acc value="0.3596790299" flag="0"/>
      <vel value="0.1833683768" flag="0"/>
      <psa03 value="0.6533515157" flag="0"/>
      <psa10 value="0.2320119844" flag="0"/>
      <psa30 value="0.1080831960" flag="0"/>
    </comp>
  </station>
  <station code="RIOA" name="RIOA" netid="HL" insttype="CMG-5" lat="38.2959" lon="21.7912">
    <comp name="00.HNE">
      <acc value="0.6743544895" flag="0"/>
      <vel value="0.1558238162" flag="0"/>
      <psa03 value="0.6762634528" flag="0"/>
      <psa10 value="0.1598364403" flag="0"/>
      <psa30 value="0.0251653340" flag="0"/>
    </comp>
    <comp name="00.HNZ">
      <acc value="0.5530356108" flag="0"/>
      <vel value="0.1472692076" flag="0"/>
      <psa03 value="0.7168128736" flag="0"/>
      <psa10 value="0.0680625923" flag="0"/>
      <psa30 value="0.0288939467" flag="0"/>
    </comp>
    <comp name="00.HNN">
      <acc value="0.6203869599" flag="0"/>
      <vel value="0.2433196125" flag="0"/>
      <psa03 value="1.2847115222" flag="0"/>
      <psa10 value="0.1652239949" flag="0"/>
      <psa30 value="0.0404681635" flag="0"/>
    </comp>
  </station>
  <station code="RLS" name="RLS" netid="HL" insttype="CMG3ESPC-120s" lat="38.0559" lon="21.4647">
    <comp name="--.HHE">
      <acc value="0.0563398389" flag="0"/>
      <vel value="0.0242901947" flag="0"/>
      <psa03 value="0.1230822936" flag="0"/>
      <psa10 value="0.0240830449" flag="0"/>
      <psa30 value="0.0042597319" flag="0"/>
    </comp>
    <comp name="--.HHN">
      <acc value="0.0721652313" flag="0"/>
      <vel value="0.0254340531" flag="0"/>
      <psa03 value="0.1137468215" flag="0"/>
      <psa10 value="0.0168463349" flag="0"/>
      <psa30 value="0.0033347866" flag="0"/>
    </comp>
    <comp name="--.HHZ">
      <acc value="0.0298596172" flag="0"/>
      <vel value="0.0176143527" flag="0"/>
      <psa03 value="0.0705655087" flag="0"/>
      <psa10 value="0.0176974310" flag="0"/>
      <psa30 value="0.0089143331" flag="0"/>
    </comp>
  </station>
  <station code="TETR" name="TETR" netid="HL" insttype="60" lat="39.3445" lon="21.2747">
    <comp name="--.HHZ">
      <acc value="0.0072324935" flag="0"/>
      <vel value="0.0085133685" flag="0"/>
      <psa03 value="0.0187407947" flag="0"/>
      <psa10 value="0.0113944205" flag="0"/>
      <psa30 value="0.0017304737" flag="0"/>
    </comp>
    <comp name="--.HHN">
      <acc value="0.0153085945" flag="0"/>
      <vel value="0.0100582352" flag="0"/>
      <psa03 value="0.0426135031" flag="0"/>
      <psa10 value="0.0137433001" flag="0"/>
      <psa30 value="0.0028663619" flag="0"/>
    </comp>
    <comp name="--.HHE">
      <acc value="0.0247011232" flag="0"/>
      <vel value="0.0150526204" flag="0"/>
      <psa03 value="0.0663615425" flag="0"/>
      <psa10 value="0.0180775343" flag="0"/>
      <psa30 value="0.0027168332" flag="0"/>
    </comp>
  </station>
  <station code="THL" name="THL" netid="HL" insttype="120" lat="39.5647" lon="22.0144">
    <comp name="--.HHZ">
      <acc value="0.0034410829" flag="0"/>
      <vel value="0.0044644523" flag="0"/>
      <psa03 value="0.0108873755" flag="0"/>
      <psa10 value="0.0038354726" flag="0"/>
      <psa30 value="0.0017211745" flag="0"/>
    </comp>
    <comp name="--.HHN">
      <acc value="0.0061235069" flag="0"/>
      <vel value="0.0046080889" flag="0"/>
      <psa03 value="0.0114852103" flag="0"/>
      <psa10 value="0.0087677285" flag="0"/>
      <psa30 value="0.0018031367" flag="0"/>
    </comp>
    <comp name="--.HHE">
      <acc value="0.0088515995" flag="0"/>
      <vel value="0.0092917697" flag="0"/>
      <psa03 value="0.0204169466" flag="0"/>
      <psa10 value="0.0163454131" flag="0"/>
      <psa30 value="0.0026049157" flag="0"/>
    </comp>
  </station>
  <station code="VLS" name="VLS" netid="HL" insttype="120P," lat="38.1768" lon="20.5886">
    <comp name="--.HHN">
      <acc value="0.0356701959" flag="0"/>
      <vel value="0.0089670044" flag="0"/>
      <psa03 value="0.0571547279" flag="0"/>
      <psa10 value="0.0140610706" flag="0"/>
      <psa30 value="0.0009598270" flag="0"/>
    </comp>
    <comp name="--.HHE">
      <acc value="0.0443967068" flag="0"/>
      <vel value="0.0096047750" flag="0"/>
