<?xml version="1.0" encoding="UTF-8" standalone="yes"?>
<!DOCTYPE earthquake SYSTEM "stationlist.dtd">
<stationlist created="" xmlns="ch.ethz.sed.shakemap.usgs.xml">
  <station code="ACB" name="ACB" netid="CH" insttype="Trillium 240s_g2" lat="47.5877" lon="8.25474">
    <comp name="--.HHN">
      <acc value="0.0416565657" flag="0"/>
      <vel value="0.0118797042" flag="0"/>
      <psa03 value="0.0494785803" flag="0"/>
      <psa10 value="0.0095054798" flag="0"/>
      <psa30 value="0.0004589719" flag="0"/>
    </comp>
    <comp name="--.HHZ">
      <acc value="0.0396089117" flag="0"/>
      <vel value="0.0100575067" flag="0"/>
      <psa03 value="0.0280278982" flag="0"/>
      <psa10 value="0.0064214723" flag="0"/>
      <psa30 value="0.0004027088" flag="0"/>
    </comp>
    <comp name="--.HHE">
      <acc value="0.0387721525" flag="0"/>
      <vel value="0.0124101325" flag="0"/>
      <psa03 value="0.0824805826" flag="0"/>
      <psa10 value="0.0056427542" flag="0"/>
      <psa30 value="0.0004780769" flag="0"/>
    </comp>
  </station>
  <station code="AIGLE" name="AIGLE" netid="CH" insttype="Trillium 240s_g2" lat="46.3418" lon="6.95295">
    <comp name="--.HHE">
      <acc value="0.0373890883" flag="0"/>
      <vel value="0.0107061144" flag="0"/>
      <psa03 value="0.0468521761" flag="0"/>
      <psa10 value="0.0102675005" flag="0"/>
      <psa30 value="0.0006429488" flag="0"/>
    </comp>
    <comp name="--.HHZ">
      <acc value="0.0471682581" flag="0"/>
      <vel value="0.0145718051" flag="0"/>
      <psa03 value="0.0470932814" flag="0"/>
      <psa10 value="0.0043927601" flag="0"/>
      <psa30 value="0.0005072175" flag="0"/>
    </comp>
    <comp name="--.HHN">
      <acc value="0.0392349375" flag="0"/>
      <vel value="0.0154885128" flag="0"/>
      <psa03 value="0.0452680578" flag="0"/>
      <psa10 value="0.0124447801" flag="0"/>
      <psa30 value="0.0008948310" flag="0"/>
    </comp>
  </station>
  <station code="BALST" name="BALST" netid="CH" insttype="STS2_gen3" lat="47.336" lon="7.69485">
    <comp name="--.HHZ">
      <acc value="0.0428921014" flag="0"/>
      <vel value="0.0083895171" flag="0"/>
      <psa03 value="0.0277573547" flag="0"/>
      <psa10 value="0.0028771637" flag="0"/>
      <psa30 value="0.0008076660" flag="0"/>
    </comp>
    <comp name="--.HHN">
      <acc value="0.0743313928" flag="0"/>
      <vel value="0.0109119234" flag="0"/>
      <psa03 value="0.0448926243" flag="0"/>
      <psa10 value="0.0024026669" flag="0"/>
      <psa30 value="0.0004944344" flag="0"/>
    </comp>
    <comp name="--.HHE">
      <acc value="0.0673135903" flag="0"/>
      <vel value="0.0108213660" flag="0"/>
      <psa03 value="0.0398843606" flag="0"/>
      <psa10 value="0.0043128504" flag="0"/>
      <psa30 value="0.0005272294" flag="0"/>
    </comp>
  </station>
  <station code="BAULM" name="BAULM" netid="CH" insttype="Trillium Compact 120s" lat="46.7872" lon="6.46757">
    <comp name="--.HHN">
      <acc value="0.0660458964" flag="0"/>
      <vel value="0.0123188033" flag="0"/>
      <psa03 value="0.0196610485" flag="0"/>
      <psa10 value="0.0058882628" flag="0"/>
      <psa30 value="0.0006341834" flag="0"/>
    </comp>
    <comp name="--.HHZ">
      <acc value="0.0499869474" flag="0"/>
      <vel value="0.0083781200" flag="0"/>
      <psa03 value="0.0213899682" flag="0"/>
      <psa10 value="0.0048356674" flag="0"/>
      <psa30 value="0.0009480521" flag="0"/>
    </comp>
    <comp name="--.HHE">
      <acc value="0.0583307292" flag="0"/>
      <vel value="0.0106472279" flag="0"/>
      <psa03 value="0.0247193637" flag="0"/>
      <psa10 value="0.0048348383" flag="0"/>
      <psa30 value="0.0008673705" flag="0"/>
    </comp>
  </station>
  <station code="BERGE" name="BERGE" netid="CH" insttype="Trillium Compact 120s" lat="47.8716" lon="8.17798">
    <comp name="--.HHZ">
      <acc value="0.0498137371" flag="0"/>
      <vel value="0.0092688951" flag="0"/>
      <psa03 value="0.0492434330" flag="0"/>
      <psa10 value="0.0059681468" flag="0"/>
      <psa30 value="0.0004626597" flag="0"/>
    </comp>
    <comp name="--.HHE">
      <acc value="0.0869741086" flag="0"/>
      <vel value="0.0153408782" flag="0"/>
      <psa03 value="0.0876816370" flag="0"/>
      <psa10 value="0.0050249372" flag="0"/>
      <psa30 value="0.0004407886" flag="0"/>
    </comp>
    <comp name="--.HHN">
      <acc value="0.0759520511" flag="0"/>
      <vel value="0.0117244767" flag="0"/>
      <psa03 value="0.0447838710" flag="0"/>
      <psa10 value="0.0055176747" flag="0"/>
      <psa30 value="0.0003815252" flag="0"/>
    </comp>
  </station>
  <station code="BLOTZ" name="BLOTZ" netid="CH" insttype="EpiSensor ES-T" lat="47.6207" lon="7.44006">
    <comp name="SF.HGN">
      <acc value="0.0782088905" flag="0"/>
      <vel value="0.0154418427" flag="0"/>
      <psa03 value="0.0488601863" flag="0"/>
      <psa10 value="0.0054414533" flag="0"/>
      <psa30 value="0.0002942509" flag="0"/>
    </comp>
    <comp name="SF.HGZ">
      <acc value="0.0312011095" flag="0"/>
      <vel value="0.0053228910" flag="0"/>
      <psa03 value="0.0143941833" flag="0"/>
      <psa10 value="0.0020300846" flag="0"/>
      <psa30 value="0.0005083122" flag="0"/>
    </comp>
    <comp name="SF.HGE">
      <acc value="0.0839963261" flag="0"/>
      <vel value="0.0147734441" flag="0"/>
      <psa03 value="0.0481018415" flag="0"/>
      <psa10 value="0.0034404477" flag="0"/>
      <psa30 value="0.0003756200" flag="0"/>
    </comp>
  </station>
  <station code="BOBI" name="BOBI" netid="CH" insttype="EpiSensor ES-T" lat="47.5463" lon="8.33992">
    <comp name="SF.HGZ">
      <acc value="0.0436325208" flag="0"/>
      <vel value="0.0087315516" flag="0"/>
      <psa03 value="0.0460391631" flag="0"/>
      <psa10 value="0.0032499546" flag="0"/>
      <psa30 value="0.0009047745" flag="0"/>
    </comp>
    <comp name="SF.HGE">
      <acc value="0.0827080096" flag="0"/>
      <vel value="0.0188185489" flag="0"/>
      <psa03 value="0.0917552240" flag="0"/>
      <psa10 value="0.0100732535" flag="0"/>
      <psa30 value="0.0007490142" flag="0"/>
    </comp>
    <comp name="SF.HGN">
      <acc value="0.0872366569" flag="0"/>
      <vel value="0.0154798208" flag="0"/>
      <psa03 value="0.0901898650" flag="0"/>
      <psa10 value="0.0061540792" flag="0"/>
      <psa30 value="0.0005491398" flag="0"/>
    </comp>
  </station>
  <station code="BRANT" name="BRANT" netid="CH" insttype="STS2.5" lat="46.938" lon="6.47298">
    <comp name="--.HHN">
      <acc value="0.0478077892" flag="0"/>
      <vel value="0.0082304182" flag="0"/>
      <psa03 value="0.0203316839" flag="0"/>
      <psa10 value="0.0053150218" flag="0"/>
      <psa30 value="0.0010004177" flag="0"/>
    </comp>
    <comp name="--.HHE">
      <acc value="0.0474247187" flag="0"/>
      <vel value="0.0097112736" flag="0"/>
      <psa03 value="0.0314521594" flag="0"/>
      <psa10 value="0.0064250593" flag="0"/>
      <psa30 value="0.0008491409" flag="0"/>
    </comp>
    <comp name="--.HHZ">
      <acc value="0.0444026563" flag="0"/>
      <vel value="0.0077643807" flag="0"/>
      <psa03 value="0.0277808380" flag="0"/>
      <psa10 value="0.0055846710" flag="0"/>
      <psa30 value="0.0015690266" flag="0"/>
    </comp>
  </station>
  <station code="BULAC" name="BULAC" netid="CH" insttype="ABBT" lat="47.5424" lon="8.52044">
    <comp name="BT.HGZ">
      <acc value="0.0185294751" flag="0"/>
      <vel value="0.0029915518" flag="0"/>
      <psa03 value="0.0164084270" flag="0"/>
      <psa10 value="0.0014865876" flag="0"/>
      <psa30 value="0.0008531075" flag="0"/>
    </comp>
    <comp name="BT.HG2">
      <acc value="0.0302376644" flag="0"/>
      <vel value="0.0082473538" flag="0"/>
      <psa03 value="0.0208429953" flag="0"/>
      <psa10 value="0.0023241853" flag="0"/>
      <psa30 value="0.0002257648" flag="0"/>
    </comp>
    <comp name="BT.HG1">
      <acc value="0.0245239701" flag="0"/>
      <vel value="0.0056412795" flag="0"/>
      <psa03 value="0.0261556385" flag="0"/>
      <psa10 value="0.0018811384" flag="0"/>
      <psa30 value="0.0004484362" flag="0"/>
    </comp>
  </station>
  <station code="CHAMB" name="CHAMB" netid="CH" insttype="Trillium Compact 120s" lat="46.7823" lon="6.61184">
    <comp name="--.HHE">
      <acc value="0.1092126890" flag="0"/>
      <vel value="0.0242444516" flag="0"/>
      <psa03 value="0.0600061507" flag="0"/>
      <psa10 value="0.0053566960" flag="0"/>
      <psa30 value="0.0005955218" flag="0"/>
    </comp>
    <comp name="--.HHN">
      <acc value="0.0657066698" flag="0"/>
      <vel value="0.0126398593" flag="0"/>
      <psa03 value="0.0277997157" flag="0"/>
      <psa10 value="0.0050080470" flag="0"/>
      <psa30 value="0.0010771585" flag="0"/>
    </comp>
    <comp name="--.HHZ">
      <acc value="0.0685256317" flag="0"/>
      <vel value="0.0102293781" flag="0"/>
      <psa03 value="0.0230673091" flag="0"/>
      <psa10 value="0.0045237562" flag="0"/>
      <psa30 value="0.0013567800" flag="0"/>
    </comp>
  </station>
  <station code="CHASS" name="CHASS" netid="CH" insttype="Trillium 240s_g2" lat="47.1609" lon="7.12129">
    <comp name="--.HHE">
      <acc value="0.0861685560" flag="0"/>
      <vel value="0.0165782700" flag="0"/>
      <psa03 value="0.0914546910" flag="0"/>
      <psa10 value="0.0082049840" flag="0"/>
      <psa30 value="0.0024138005" flag="0"/>
    </comp>
    <comp name="--.HHN">
      <acc value="0.1766129573" flag="0"/>
      <vel value="0.0313271260" flag="0"/>
      <psa03 value="0.1467077967" flag="0"/>
      <psa10 value="0.0101476629" flag="0"/>
      <psa30 value="0.0010810571" flag="0"/>
    </comp>
    <comp name="--.HHZ">
      <acc value="0.0673397342" flag="0"/>
      <vel value="0.0103040853" flag="0"/>
      <psa03 value="0.0329256504" flag="0"/>
      <psa10 value="0.0064014573" flag="0"/>
      <psa30 value="0.0022889973" flag="0"/>
    </comp>
  </station>
  <station code="DAGMA" name="DAGMA" netid="CH" insttype="Trillium Compact 120s" lat="47.2309" lon="8.01248">
    <comp name="--.HHZ">
      <acc value="0.0409736678" flag="0"/>
      <vel value="0.0114949375" flag="0"/>
      <psa03 value="0.0958906849" flag="0"/>
      <psa10 value="0.0036512275" flag="0"/>
      <psa30 value="0.0005346135" flag="0"/>
    </comp>
    <comp name="--.HHN">
      <acc value="0.0717026783" flag="0"/>
      <vel value="0.0171074922" flag="0"/>
      <psa03 value="0.0829126342" flag="0"/>
      <psa10 value="0.0054666720" flag="0"/>
      <psa30 value="0.0004280691" flag="0"/>
    </comp>
    <comp name="--.HHE">
      <acc value="0.0815277282" flag="0"/>
      <vel value="0.0222262232" flag="0"/>
      <psa03 value="0.1378489115" flag="0"/>
      <psa10 value="0.0059930448" flag="0"/>
      <psa30 value="0.0006524278" flag="0"/>
    </comp>
  </station>
  <station code="GIMEL" name="GIMEL" netid="CH" insttype="Trillium 240s_g2" lat="46.5336" lon="6.26545">
    <comp name="--.HHN">
      <acc value="0.0973125132" flag="0"/>
      <vel value="0.0270258324" flag="0"/>
      <psa03 value="0.0850739392" flag="0"/>
      <psa10 value="0.0085498062" flag="0"/>
      <psa30 value="0.0009418866" flag="0"/>
    </comp>
    <comp name="--.HHZ">
      <acc value="0.0816643719" flag="0"/>
      <vel value="0.0179383949" flag="0"/>
      <psa03 value="0.0386716602" flag="0"/>
      <psa10 value="0.0096026095" flag="0"/>
      <psa30 value="0.0006127613" flag="0"/>
    </comp>
    <comp name="--.HHE">
      <acc value="0.1080227899" flag="0"/>
      <vel value="0.0276053231" flag="0"/>
      <psa03 value="0.0557988731" flag="0"/>
      <psa10 value="0.0099555208" flag="0"/>
      <psa30 value="0.0006250677" flag="0"/>
    </comp>
  </station>
  <station code="HASLI" name="HASLI" netid="CH" insttype="STS2_gen3" lat="46.7567" lon="8.15108">
    <comp name="--.HHZ">
      <acc value="0.0203493163" flag="0"/>
      <vel value="0.0063942349" flag="0"/>
      <psa03 value="0.0422774879" flag="0"/>
      <psa10 value="0.0072937481" flag="0"/>
      <psa30 value="0.0004490854" flag="0"/>
    </comp>
    <comp name="--.HHN">
      <acc value="0.0362689686" flag="0"/>
      <vel value="0.0124401382" flag="0"/>
      <psa03 value="0.1056889220" flag="0"/>
      <psa10 value="0.0079269187" flag="0"/>
      <psa30 value="0.0005935097" flag="0"/>
    </comp>
    <comp name="--.HHE">
      <acc value="0.0206851188" flag="0"/>
      <vel value="0.0072853212" flag="0"/>
      <psa03 value="0.0556115523" flag="0"/>
      <psa10 value="0.0089821527" flag="0"/>
      <psa30 value="0.0004543235" flag="0"/>
    </comp>
  </station>
  <station code="HAUIG" name="HAUIG" netid="CH" insttype="Trillium Compact 120s" lat="47.6604" lon="7.70018">
    <comp name="--.HHZ">
      <acc value="0.3788508857" flag="0"/>
      <vel value="0.0780073154" flag="0"/>
      <psa03 value="0.1341036406" flag="0"/>
      <psa10 value="0.0073031889" flag="0"/>
      <psa30 value="0.0007973444" flag="0"/>
    </comp>
    <comp name="--.HHE">
      <acc value="0.5091613816" flag="0"/>
      <vel value="0.1370281203" flag="0"/>
      <psa03 value="0.4569720454" flag="0"/>
      <psa10 value="0.0186371203" flag="0"/>
      <psa30 value="0.0017339706" flag="0"/>
    </comp>
    <comp name="--.HHN">
      <acc value="0.7893456376" flag="0"/>
      <vel value="0.1703981845" flag="0"/>
      <psa03 value="0.2417259207" flag="0"/>
      <psa10 value="0.0177098336" flag="0"/>
      <psa30 value="0.0019876354" flag="0"/>
    </comp>
  </station>
  <station code="JAUN" name="JAUN" netid="CH" insttype="Trillium 240s_g2" lat="46.6339" lon="7.29096">
    <comp name="--.HHE">
      <acc value="0.0660770158" flag="0"/>
      <vel value="0.0173439745" flag="0"/>
      <psa03 value="0.0653883177" flag="0"/>
      <psa10 value="0.0074782299" flag="0"/>
      <psa30 value="0.0004158727" flag="0"/>
    </comp>
    <comp name="--.HHN">
      <acc value="0.0823279487" flag="0"/>
      <vel value="0.0177238406" flag="0"/>
      <psa03 value="0.0770494567" flag="0"/>
      <psa10 value="0.0059856081" flag="0"/>
      <psa30 value="0.0005419708" flag="0"/>
    </comp>
    <comp name="--.HHZ">
      <acc value="0.0407101143" flag="0"/>
      <vel value="0.0090131077" flag="0"/>
      <psa03 value="0.0597940004" flag="0"/>
      <psa10 value="0.0042463521" flag="0"/>
      <psa30 value="0.0009462856" flag="0"/>
    </comp>
  </station>
  <station code="LADOL" name="LADOL" netid="CH" insttype="Trillium 240s_g2" lat="46.4321" lon="6.13151">
    <comp name="--.HHE">
      <acc value="0.0351007576" flag="0"/>
      <vel value="0.0106695848" flag="0"/>
      <psa03 value="0.0326645030" flag="0"/>
      <psa10 value="0.0097786309" flag="0"/>
      <psa30 value="0.0005224815" flag="0"/>
    </comp>
    <comp name="--.HHN">
      <acc value="0.0452436811" flag="0"/>
      <vel value="0.0110171200" flag="0"/>
      <psa03 value="0.0295994207" flag="0"/>
      <psa10 value="0.0109119967" flag="0"/>
      <psa30 value="0.0007752067" flag="0"/>
    </comp>
    <comp name="--.HHZ">
      <acc value="0.0259141691" flag="0"/>
      <vel value="0.0067928933" flag="0"/>
      <psa03 value="0.0160664841" flag="0"/>
      <psa10 value="0.0062762836" flag="0"/>
      <psa30 value="0.0007850963" flag="0"/>
    </comp>
  </station>
  <station code="LKBD2" name="LKBD2" netid="CH" insttype="Trillium 240s_g2" lat="46.3745" lon="7.64433">
    <comp name="--.HHE">
      <acc value="0.0224373364" flag="0"/>
      <vel value="0.0081262151" flag="0"/>
      <psa03 value="0.0476255572" flag="0"/>
      <psa10 value="0.0051496621" flag="0"/>
      <psa30 value="0.0001982405" flag="0"/>
    </comp>
    <comp name="--.HHN">
      <acc value="0.0191561770" flag="0"/>
      <vel value="0.0041676136" flag="0"/>
      <psa03 value="0.0213873171" flag="0"/>
      <psa10 value="0.0022676937" flag="0"/>
      <psa30 value="0.0002076235" flag="0"/>
    </comp>
    <comp name="--.HHZ">
      <acc value="0.0200343837" flag="0"/>
      <vel value="0.0056294160" flag="0"/>
      <psa03 value="0.0291330269" flag="0"/>
      <psa10 value="0.0065764156" flag="0"/>
      <psa30 value="0.0004133869" flag="0"/>
    </comp>
  </station>
  <station code="MESRY" name="MESRY" netid="CH" insttype="Trillium Compact 120s" lat="46.3465" lon="6.30845">
    <comp name="--.HHZ">
      <acc value="0.0427344672" flag="0"/>
      <vel value="0.0079798729" flag="0"/>
      <psa03 value="0.0188338112" flag="0"/>
      <psa10 value="0.0060417670" flag="0"/>
      <psa30 value="0.0006016323" flag="0"/>
    </comp>
    <comp name="--.HHN">
      <acc value="0.1055636165" flag="0"/>
      <vel value="0.0208747842" flag="0"/>
      <psa03 value="0.0623136856" flag="0"/>
      <psa10 value="0.0084000506" flag="0"/>
      <psa30 value="0.0004472471" flag="0"/>
    </comp>
    <comp name="--.HHE">
      <acc value="0.1657495393" flag="0"/>
      <vel value="0.0243064717" flag="0"/>
      <psa03 value="0.0521133846" flag="0"/>
      <psa10 value="0.0069407133" flag="0"/>
      <psa30 value="0.0005003362" flag="0"/>
    </comp>
  </station>
  <station code="METMA" name="METMA" netid="CH" insttype="Trillium Compact 120s" lat="47.7122" lon="8.25262">
    <comp name="--.HHE">
      <acc value="0.0406496582" flag="0"/>
      <vel value="0.0084386630" flag="0"/>
      <psa03 value="0.0338370346" flag="0"/>
      <psa10 value="0.0020166401" flag="0"/>
      <psa30 value="0.0002027084" flag="0"/>
    </comp>
    <comp name="--.HHN">
      <acc value="0.0408384452" flag="0"/>
      <vel value="0.0079234542" flag="0"/>
      <psa03 value="0.0426263869" flag="0"/>
      <psa10 value="0.0048314557" flag="0"/>
      <psa30 value="0.0002833358" flag="0"/>
    </comp>
    <comp name="--.HHZ">
      <acc value="0.0320205002" flag="0"/>
      <vel value="0.0071643456" flag="0"/>
      <psa03 value="0.0315768689" flag="0"/>
      <psa10 value="0.0046536702" flag="0"/>
      <psa30 value="0.0002833838" flag="0"/>
    </comp>
  </station>
  <station code="MOUTI" name="MOUTI" netid="CH" insttype="Trillium Compact 120s" lat="47.2975" lon="7.33701">
    <comp name="--.HHZ">
      <acc value="0.0379053190" flag="0"/>
      <vel value="0.0096135998" flag="0"/>
      <psa03 value="0.0347731510" flag="0"/>
      <psa10 value="0.0072339265" flag="0"/>
      <psa30 value="0.0011963519" flag="0"/>
    </comp>
    <comp name="--.HHN">
      <acc value="0.0703391442" flag="0"/>
      <vel value="0.0167654154" flag="0"/>
      <psa03 value="0.0885700412" flag="0"/>
      <psa10 value="0.0108754278" flag="0"/>
      <psa30 value="0.0009945446" flag="0"/>
    </comp>
    <comp name="--.HHE">
      <acc value="0.0660704288" flag="0"/>
      <vel value="0.0199276187" flag="0"/>
      <psa03 value="0.0518735029" flag="0"/>
      <psa10 value="0.0085896170" flag="0"/>
      <psa30 value="0.0015848489" flag="0"/>
    </comp>
  </station>
  <station code="MTI01" name="MTI01" netid="CH" insttype="EpiSensor ES-T" lat="47.3791" lon="7.16541">
    <comp name="--.HGE">
      <acc value="0.1331730891" flag="0"/>
      <vel value="0.0238759513" flag="0"/>
      <psa03 value="0.1048110312" flag="0"/>
      <psa10 value="0.0131894764" flag="0"/>
      <psa30 value="0.0017453279" flag="0"/>
    </comp>
    <comp name="--.HGN">
      <acc value="0.1030294571" flag="0"/>
      <vel value="0.0197620497" flag="0"/>
      <psa03 value="0.1167538200" flag="0"/>
      <psa10 value="0.0177744133" flag="0"/>
      <psa30 value="0.0021149233" flag="0"/>
    </comp>
    <comp name="--.HGZ">
      <acc value="0.1305703604" flag="0"/>
      <vel value="0.0216271898" flag="0"/>
      <psa03 value="0.1406174937" flag="0"/>
      <psa10 value="0.0140801705" flag="0"/>
      <psa30 value="0.0022333527" flag="0"/>
    </comp>
  </station>
  <station code="MTI02" name="MTI02" netid="CH" insttype="STS2.5" lat="47.3793" lon="7.16525">
    <comp name="--.HHZ">
      <acc value="0.1000056763" flag="0"/>
      <vel value="0.0188856285" flag="0"/>
