<?xml version="1.0" encoding="UTF-8" standalone="yes"?>
<!DOCTYPE earthquake SYSTEM "stationlist.dtd">
<stationlist created="" xmlns="ch.ethz.sed.shakemap.usgs.xml">
  <station code="ARPRA" name="ARPRA" netid="KO" insttype="CMG-5T" lat="39.0929" lon="38.3356">
    <comp name="--.HNE">
      <acc value="0.0678961510" flag="0"/>
      <vel value="0.0426009634" flag="0"/>
      <psa03 value="0.2325482655" flag="0"/>
      <psa10 value="0.0261137131" flag="0"/>
      <psa30 value="0.0023295944" flag="0"/>
    </comp>
    <comp name="--.HNZ">
      <acc value="0.0301399820" flag="0"/>
      <vel value="0.0168372089" flag="0"/>
      <psa03 value="0.1325398015" flag="0"/>
      <psa10 value="0.0156757373" flag="0"/>
      <psa30 value="0.0016708445" flag="0"/>
    </comp>
    <comp name="--.HNN">
      <acc value="0.0855548691" flag="0"/>
      <vel value="0.0441094680" flag="0"/>
      <psa03 value="0.3596478030" flag="0"/>
      <psa10 value="0.0440348910" flag="0"/>
      <psa30 value="0.0023905277" flag="0"/>
    </comp>
  </station>
  <station code="DARE" name="DARE" netid="KO" insttype="CMG-3ESP" lat="38.5712" lon="37.4832">
    <comp name="--.HHN">
      <acc value="0.0372664260" flag="0"/>
      <vel value="0.0174014198" flag="0"/>
      <psa03 value="0.0665762527" flag="0"/>
      <psa10 value="0.0208371965" flag="0"/>
      <psa30 value="0.0023350785" flag="0"/>
    </comp>
    <comp name="--.HHZ">
      <acc value="0.0258036432" flag="0"/>
      <vel value="0.0151094798" flag="0"/>
      <psa03 value="0.0731984582" flag="0"/>
      <psa10 value="0.0149686183" flag="0"/>
      <psa30 value="0.0026268999" flag="0"/>
    </comp>
  </station>
</stationlist>
