<?xml version="1.0" encoding="UTF-8" standalone="yes"?>
<!DOCTYPE earthquake SYSTEM "stationlist.dtd">
<stationlist created="" xmlns="ch.ethz.sed.shakemap.usgs.xml">
  <station code="ACOR" name="ACOR" netid="HA" insttype="30" lat="37.8902" lon="22.8692">
    <comp name="--.HHE">
      <acc value="0.0040330229" flag="0"/>
      <vel value="0.0015605020" flag="0"/>
      <psa03 value="0.0158341598" flag="0"/>
      <psa10 value="0.0014081125" flag="0"/>
      <psa30 value="0.0002104779" flag="0"/>
    </comp>
    <comp name="--.HHZ">
      <acc value="0.0036982941" flag="0"/>
      <vel value="0.0017759004" flag="0"/>
      <psa03 value="0.0130900418" flag="0"/>
      <psa10 value="0.0011687635" flag="0"/>
      <psa30 value="0.0001134573" flag="0"/>
    </comp>
    <comp name="--.HHN">
      <acc value="0.0131278303" flag="0"/>
      <vel value="0.0077225280" flag="0"/>
      <psa03 value="0.0530135839" flag="0"/>
      <psa10 value="0.0055617496" flag="0"/>
      <psa30 value="0.0009898122" flag="0"/>
    </comp>
  </station>
  <station code="AIGS" name="AIGS" netid="HA" insttype="DC" lat="38.25" lon="22.0878">
    <comp name="--.HNN">
      <acc value="0.1902722215" flag="0"/>
      <vel value="0.0505766178" flag="0"/>
      <psa03 value="0.2603965331" flag="0"/>
      <psa10 value="0.0127318699" flag="0"/>
      <psa30 value="0.0016644167" flag="0"/>
    </comp>
    <comp name="--.HNZ">
      <acc value="0.1907226542" flag="0"/>
      <vel value="0.0300805367" flag="0"/>
      <psa03 value="0.1557706359" flag="0"/>
      <psa10 value="0.0154487552" flag="0"/>
      <psa30 value="0.0009130957" flag="0"/>
    </comp>
    <comp name="--.HNE">
      <acc value="0.2836417226" flag="0"/>
      <vel value="0.0737858350" flag="0"/>
      <psa03 value="0.3907482633" flag="0"/>
      <psa10 value="0.0300274531" flag="0"/>
      <psa30 value="0.0023624248" flag="0"/>
    </comp>
  </station>
  <station code="ATAL" name="ATAL" netid="HA" insttype="120" lat="38.6926" lon="23.0213">
    <comp name="--.HHZ">
      <acc value="0.0050065751" flag="0"/>
      <vel value="0.0028663803" flag="0"/>
      <psa03 value="0.0117228025" flag="0"/>
      <psa10 value="0.0025073125" flag="0"/>
      <psa30 value="0.0002787783" flag="0"/>
    </comp>
    <comp name="--.HHE">
      <acc value="0.0042798091" flag="0"/>
      <vel value="0.0022518060" flag="0"/>
      <psa03 value="0.0102416353" flag="0"/>
      <psa10 value="0.0027908007" flag="0"/>
      <psa30 value="0.0002189770" flag="0"/>
    </comp>
    <comp name="--.HHN">
      <acc value="0.0059504452" flag="0"/>
      <vel value="0.0029945541" flag="0"/>
      <psa03 value="0.0113891444" flag="0"/>
      <psa10 value="0.0030204469" flag="0"/>
      <psa30 value="0.0002181808" flag="0"/>
    </comp>
  </station>
  <station code="AXAR" name="AXAR" netid="HA" insttype="30" lat="38.7664" lon="22.659">
    <comp name="--.HHE">
      <acc value="0.0101768803" flag="0"/>
      <vel value="0.0033567604" flag="0"/>
      <psa03 value="0.0263706298" flag="0"/>
      <psa10 value="0.0019420509" flag="0"/>
      <psa30 value="0.0001340343" flag="0"/>
    </comp>
    <comp name="--.HHN">
      <acc value="0.0101061595" flag="0"/>
      <vel value="0.0039600750" flag="0"/>
      <psa03 value="0.0234464749" flag="0"/>
      <psa10 value="0.0024874805" flag="0"/>
      <psa30 value="0.0001577767" flag="0"/>
    </comp>
    <comp name="--.HHZ">
      <acc value="0.0039780287" flag="0"/>
      <vel value="0.0014206013" flag="0"/>
      <psa03 value="0.0080576839" flag="0"/>
      <psa10 value="0.0009217075" flag="0"/>
      <psa30 value="0.0000813259" flag="0"/>
    </comp>
  </station>
  <station code="KALE" name="KALE" netid="HA" insttype="40," lat="38.3911" lon="22.1398">
    <comp name="--.HHE">
      <acc value="0.1561947289" flag="0"/>
      <vel value="0.0509925305" flag="0"/>
      <psa03 value="0.1543640629" flag="0"/>
      <psa10 value="0.0161189931" flag="0"/>
      <psa30 value="0.0008978664" flag="0"/>
    </comp>
    <comp name="--.HHN">
      <acc value="0.1910345666" flag="0"/>
      <vel value="0.0592801793" flag="0"/>
      <psa03 value="0.2379805313" flag="0"/>
      <psa10 value="0.0124808310" flag="0"/>
      <psa30 value="0.0009961149" flag="0"/>
    </comp>
    <comp name="--.HHZ">
      <acc value="0.0936174801" flag="0"/>
      <vel value="0.0253370171" flag="0"/>
      <psa03 value="0.0959352415" flag="0"/>
      <psa10 value="0.0062819798" flag="0"/>
      <psa30 value="0.0008423852" flag="0"/>
    </comp>
  </station>
  <station code="LOUT" name="LOUT" netid="HA" insttype="30" lat="37.9879" lon="22.9743">
    <comp name="--.HHE">
      <acc value="0.0128275820" flag="0"/>
      <vel value="0.0071791588" flag="0"/>
      <psa03 value="0.0324630529" flag="0"/>
      <psa10 value="0.0039312407" flag="0"/>
      <psa30 value="0.0002348917" flag="0"/>
    </comp>
    <comp name="--.HHZ">
      <acc value="0.0059301887" flag="0"/>
      <vel value="0.0023688211" flag="0"/>
      <psa03 value="0.0216194739" flag="0"/>
      <psa10 value="0.0011729706" flag="0"/>
      <psa30 value="0.0001291749" flag="0"/>
    </comp>
    <comp name="--.HHN">
      <acc value="0.0104322075" flag="0"/>
      <vel value="0.0059114146" flag="0"/>
      <psa03 value="0.0335652512" flag="0"/>
      <psa10 value="0.0033631950" flag="0"/>
      <psa30 value="0.0002793885" flag="0"/>
    </comp>
  </station>
  <station code="THAL" name="THAL" netid="HA" insttype="30" lat="38.0357" lon="22.6634">
    <comp name="--.HHN">
      <acc value="0.0504347138" flag="0"/>
      <vel value="0.0147473320" flag="0"/>
      <psa03 value="0.1091619720" flag="0"/>
      <psa10 value="0.0078168592" flag="0"/>
      <psa30 value="0.0005251735" flag="0"/>
    </comp>
    <comp name="--.HHE">
      <acc value="0.0462310392" flag="0"/>
      <vel value="0.0187179142" flag="0"/>
      <psa03 value="0.0891663398" flag="0"/>
      <psa10 value="0.0089390909" flag="0"/>
      <psa30 value="0.0005599124" flag="0"/>
    </comp>
    <comp name="--.HHZ">
      <acc value="0.0287336687" flag="0"/>
      <vel value="0.0106647081" flag="0"/>
      <psa03 value="0.0481930479" flag="0"/>
      <psa10 value="0.0040798775" flag="0"/>
      <psa30 value="0.0003501741" flag="0"/>
    </comp>
  </station>
  <station code="KLV1" name="KLV1" netid="HI" insttype="CMG-5TD,ACCELEROMETER,GURALP" lat="38.0326" lon="22.108">
    <comp name="--.HNE">
      <acc value="0.0842901464" flag="0"/>
      <vel value="0.0343191389" flag="0"/>
      <psa03 value="0.2440324773" flag="0"/>
      <psa10 value="0.0117600023" flag="0"/>
      <psa30 value="0.0007790813" flag="0"/>
    </comp>
    <comp name="--.HNN">
      <acc value="0.0756839265" flag="0"/>
      <vel value="0.0263441908" flag="0"/>
      <psa03 value="0.1727913878" flag="0"/>
      <psa10 value="0.0108721914" flag="0"/>
      <psa30 value="0.0007854687" flag="0"/>
    </comp>
    <comp name="--.HNZ">
      <acc value="0.0462756213" flag="0"/>
      <vel value="0.0113805938" flag="0"/>
      <psa03 value="0.0602331914" flag="0"/>
      <psa10 value="0.0059867058" flag="0"/>
      <psa30 value="0.0004130885" flag="0"/>
    </comp>
  </station>
  <station code="MSL1" name="MSL1" netid="HI" insttype="CMG-5TD,ACCELEROMETER,GURALP" lat="38.3727" lon="21.4243">
    <comp name="--.HNE">
      <acc value="0.1888312371" flag="0"/>
      <vel value="0.0809808348" flag="0"/>
      <psa03 value="0.4485075972" flag="0"/>
      <psa10 value="0.0755871268" flag="0"/>
      <psa30 value="0.0052499719" flag="0"/>
    </comp>
    <comp name="--.HNN">
      <acc value="0.2113853673" flag="0"/>
      <vel value="0.0890566128" flag="0"/>
      <psa03 value="0.3756438465" flag="0"/>
      <psa10 value="0.0643870690" flag="0"/>
      <psa30 value="0.0035701761" flag="0"/>
    </comp>
    <comp name="--.HNZ">
      <acc value="0.1331498869" flag="0"/>
      <vel value="0.0484439078" flag="0"/>
      <psa03 value="0.2029610445" flag="0"/>
      <psa10 value="0.0496457892" flag="0"/>
      <psa30 value="0.0018675302" flag="0"/>
    </comp>
  </station>
  <station code="DLFA" name="DLFA" netid="HL" insttype="CMG-5" lat="38.4784" lon="22.4958">
    <comp name="00.HNE">
      <acc value="0.0272207890" flag="0"/>
      <vel value="0.0066177323" flag="0"/>
      <psa03 value="0.0431664660" flag="0"/>
      <psa10 value="0.0043885878" flag="0"/>
      <psa30 value="0.0002711053" flag="0"/>
    </comp>
    <comp name="00.HNN">
      <acc value="0.0365263944" flag="0"/>
      <vel value="0.0116663671" flag="0"/>
      <psa03 value="0.0471037840" flag="0"/>
      <psa10 value="0.0051702043" flag="0"/>
      <psa30 value="0.0003215021" flag="0"/>
    </comp>
    <comp name="00.HNZ">
      <acc value="0.0231773955" flag="0"/>
      <vel value="0.0063334621" flag="0"/>
      <psa03 value="0.0356514982" flag="0"/>
      <psa10 value="0.0022341967" flag="0"/>
      <psa30 value="0.0002862237" flag="0"/>
    </comp>
  </station>
  <station code="EVR" name="EVR" netid="HL" insttype="DR24" lat="38.9166" lon="21.8105">
    <comp name="--.HHZ">
      <acc value="0.0210791249" flag="0"/>
      <vel value="0.0098773045" flag="0"/>
      <psa03 value="0.0350174374" flag="0"/>
      <psa10 value="0.0090756977" flag="0"/>
      <psa30 value="0.0008469623" flag="0"/>
    </comp>
    <comp name="--.HHN">
      <acc value="0.0436182152" flag="0"/>
      <vel value="0.0134575734" flag="0"/>
      <psa03 value="0.0646559373" flag="0"/>
      <psa10 value="0.0098627355" flag="0"/>
      <psa30 value="0.0008144842" flag="0"/>
    </comp>
    <comp name="--.HHE">
      <acc value="0.0469585394" flag="0"/>
      <vel value="0.0174201183" flag="0"/>
      <psa03 value="0.1221114115" flag="0"/>
      <psa10 value="0.0114292816" flag="0"/>
      <psa30 value="0.0007270161" flag="0"/>
    </comp>
  </station>
  <station code="KLV" name="KLV" netid="HL" insttype="120" lat="38.0435" lon="22.1504">
    <comp name="--.HHZ">
      <acc value="0.0425717180" flag="0"/>
      <vel value="0.0090232783" flag="0"/>
      <psa03 value="0.0367295342" flag="0"/>
      <psa10 value="0.0061238333" flag="0"/>
      <psa30 value="0.0003565767" flag="0"/>
    </comp>
    <comp name="--.HHN">
      <acc value="0.0267584646" flag="0"/>
      <vel value="0.0063387582" flag="0"/>
      <psa03 value="0.0391501446" flag="0"/>
      <psa10 value="0.0054065347" flag="0"/>
      <psa30 value="0.0004437356" flag="0"/>
    </comp>
    <comp name="--.HHE">
      <acc value="0.0369363534" flag="0"/>
      <vel value="0.0084570933" flag="0"/>
      <psa03 value="0.0612343052" flag="0"/>
      <psa10 value="0.0042904415" flag="0"/>
      <psa30 value="0.0003624537" flag="0"/>
    </comp>
  </station>
  <station code="LKR" name="LKR" netid="HL" insttype="30" lat="38.6496" lon="22.9989">
    <comp name="--.HHZ">
      <acc value="0.0164677193" flag="0"/>
      <vel value="0.0042159468" flag="0"/>
      <psa03 value="0.0231240540" flag="0"/>
      <psa10 value="0.0016846798" flag="0"/>
      <psa30 value="0.0002781840" flag="0"/>
    </comp>
    <comp name="--.HHN">
      <acc value="0.0215728268" flag="0"/>
      <vel value="0.0075678764" flag="0"/>
      <psa03 value="0.0586780599" flag="0"/>
      <psa10 value="0.0021290534" flag="0"/>
      <psa30 value="0.0002437000" flag="0"/>
    </comp>
    <comp name="--.HHE">
      <acc value="0.0223112264" flag="0"/>
      <vel value="0.0070055337" flag="0"/>
      <psa03 value="0.0483455202" flag="0"/>
      <psa10 value="0.0019367094" flag="0"/>
      <psa30 value="0.0002483652" flag="0"/>
    </comp>
  </station>
  <station code="PATC" name="PATC" netid="HL" insttype="CMG-5" lat="38.2693" lon="21.76">
    <comp name="00.HNZ">
      <acc value="0.7863143297" flag="0"/>
      <vel value="0.1630305021" flag="0"/>
      <psa03 value="0.6745768475" flag="0"/>
      <psa10 value="0.0850783159" flag="0"/>
      <psa30 value="0.0073489748" flag="0"/>
    </comp>
    <comp name="00.HNN">
      <acc value="0.6697724448" flag="0"/>
      <vel value="0.3116271741" flag="0"/>
      <psa03 value="1.1349630452" flag="0"/>
      <psa10 value="0.2316182780" flag="0"/>
      <psa30 value="0.0201361721" flag="0"/>
    </comp>
    <comp name="00.HNE">
      <acc value="0.5590943180" flag="0"/>
      <vel value="0.2081020893" flag="0"/>
      <psa03 value="1.4029774329" flag="0"/>
      <psa10 value="0.2417581104" flag="0"/>
      <psa30 value="0.0156499793" flag="0"/>
    </comp>
  </station>
  <station code="PATG" name="PATG" netid="HL" insttype="CMG-5" lat="38.2386" lon="21.7266">
    <comp name="00.HNN">
      <acc value="2.0586399952" flag="0"/>
      <vel value="0.6681610893" flag="0"/>
      <psa03 value="3.3186047571" flag="0"/>
      <psa10 value="0.3429500690" flag="0"/>
      <psa30 value="0.0379783316" flag="0"/>
    </comp>
    <comp name="00.HNE">
      <acc value="0.7830733616" flag="0"/>
      <vel value="0.3035578865" flag="0"/>
      <psa03 value="1.9108172489" flag="0"/>
      <psa10 value="0.1401505860" flag="0"/>
      <psa30 value="0.0136279600" flag="0"/>
    </comp>
    <comp name="00.HNZ">
      <acc value="1.3949422572" flag="0"/>
      <vel value="0.1958293442" flag="0"/>
      <psa03 value="1.1921836543" flag="0"/>
      <psa10 value="0.0788192220" flag="0"/>
      <psa30 value="0.0056968279" flag="0"/>
    </comp>
  </station>
  <station code="RIOA" name="RIOA" netid="HL" insttype="CMG-5" lat="38.2959" lon="21.7912">
    <comp name="00.HNZ">
      <acc value="1.8795576768" flag="0"/>
      <vel value="0.3646806732" flag="0"/>
      <psa03 value="1.1424756662" flag="0"/>
      <psa10 value="0.1020342193" flag="0"/>
      <psa30 value="0.0075040111" flag="0"/>
    </comp>
    <comp name="00.HNE">
      <acc value="1.8544009638" flag="0"/>
      <vel value="0.6966522545" flag="0"/>
      <psa03 value="3.4840699321" flag="0"/>
      <psa10 value="0.3310757240" flag="0"/>
      <psa30 value="0.0352067264" flag="0"/>
    </comp>
    <comp name="00.HNN">
      <acc value="1.1061262507" flag="0"/>
      <vel value="0.3560776116" flag="0"/>
      <psa03 value="2.8272585005" flag="0"/>
      <psa10 value="0.1259304025" flag="0"/>
      <psa30 value="0.0142784435" flag="0"/>
    </comp>
  </station>
  <station code="RLS" name="RLS" netid="HL" insttype="CMG3ESPC-120s" lat="38.0559" lon="21.4647">
    <comp name="--.HHE">
      <acc value="0.1165747607" flag="0"/>
      <vel value="0.0373070621" flag="0"/>
      <psa03 value="0.2763330705" flag="0"/>
      <psa10 value="0.0199902281" flag="0"/>
      <psa30 value="0.0011794444" flag="0"/>
    </comp>
    <comp name="--.HHZ">
      <acc value="0.0866646314" flag="0"/>
      <vel value="0.0326835867" flag="0"/>
      <psa03 value="0.2549534321" flag="0"/>
      <psa10 value="0.0142101154" flag="0"/>
      <psa30 value="0.0010877749" flag="0"/>
    </comp>
    <comp name="--.HHN">
      <acc value="0.1721839770" flag="0"/>
      <vel value="0.0352296812" flag="0"/>
      <psa03 value="0.1128041250" flag="0"/>
      <psa10 value="0.0226484229" flag="0"/>
      <psa30 value="0.0016822257" flag="0"/>
    </comp>
  </station>
  <station code="TETR" name="TETR" netid="HL" insttype="60" lat="39.3445" lon="21.2747">
    <comp name="--.HHZ">
      <acc value="0.0047903441" flag="0"/>
      <vel value="0.0031505807" flag="0"/>
      <psa03 value="0.0163398315" flag="0"/>
      <psa10 value="0.0037807095" flag="0"/>
      <psa30 value="0.0002039137" flag="0"/>
    </comp>
    <comp name="--.HHN">
      <acc value="0.0103641487" flag="0"/>
      <vel value="0.0067576988" flag="0"/>
      <psa03 value="0.0253375023" flag="0"/>
      <psa10 value="0.0046963247" flag="0"/>
      <psa30 value="0.0002932624" flag="0"/>
    </comp>
    <comp name="--.HHE">
      <acc value="0.0106569331" flag="0"/>
      <vel value="0.0066697877" flag="0"/>
      <psa03 value="0.0390533801" flag="0"/>
      <psa10 value="0.0068516906" flag="0"/>
      <psa30 value="0.0003852962" flag="0"/>
    </comp>
  </station>
  <station code="VLS" name="VLS" netid="HL" insttype="120P," lat="38.1768" lon="20.5886">
    <comp name="--.HHN">
      <acc value="0.0846621051" flag="0"/>
      <vel value="0.0235206394" flag="0"/>
      <psa03 value="0.1049859063" flag="0"/>
      <psa10 value="0.0051041731" flag="0"/>
      <psa30 value="0.0003706060" flag="0"/>
    </comp>
    <comp name="--.HHZ">
      <acc value="0.0388615934" flag="0"/>
      <vel value="0.0114750558" flag="0"/>
      <psa03 value="0.0391199885" flag="0"/>
      <psa10 value="0.0046252101" flag="0"/>
      <psa30 value="0.0003405192" flag="0"/>
    </comp>
    <comp name="--.HHE">
      <acc value="0.1158093277" flag="0"/>
      <vel value="0.0157134827" flag="0"/>
      <psa03 value="0.0638661000" flag="0"/>
      <psa10 value="0.0039838736" flag="0"/>
      <psa30 value="0.0002265282" flag="0"/>
    </comp>
  </station>
  <station code="AMPL" name="AMPL" netid="HP" insttype="Compact," lat="38.9224" lon="21.2135">
    <comp name="--.HHN">
      <acc value="0.0273005824" flag="0"/>
      <vel value="0.0099066976" flag="0"/>
      <psa03 value="0.0796901827" flag="0"/>
      <psa10 value="0.0048100402" flag="0"/>
      <psa30 value="0.0002966344" flag="0"/>
    </comp>
    <comp name="--.HHZ">
      <acc value="0.0189554370" flag="0"/>
      <vel value="0.0068636451" flag="0"/>
      <psa03 value="0.0445576983" flag="0"/>
      <psa10 value="0.0033700888" flag="0"/>
      <psa30 value="0.0002340320" flag="0"/>
    </comp>
    <comp name="--.HHE">
      <acc value="0.0429008423" flag="0"/>
      <vel value="0.0122979650" flag="0"/>
      <psa03 value="0.0771812517" flag="0"/>
      <psa10 value="0.0063637336" flag="0"/>
      <psa30 value="0.0004149246" flag="0"/>
    </comp>
  </station>
  <station code="AMT" name="AMT" netid="HP" insttype="CMG-3T," lat="37.5324" lon="21.7089">
    <comp name="00.HHE">
      <acc value="0.0233299840" flag="0"/>
      <vel value="0.0143758376" flag="0"/>
      <psa03 value="0.0876779036" flag="0"/>
      <psa10 value="0.0157063453" flag="0"/>
      <psa30 value="0.0006219916" flag="0"/>
    </comp>
    <comp name="00.HHN">
      <acc value="0.0262204282" flag="0"/>
      <vel value="0.0159055758" flag="0"/>
      <psa03 value="0.0729249634" flag="0"/>
      <psa10 value="0.0218830180" flag="0"/>
      <psa30 value="0.0007684611" flag="0"/>
    </comp>
    <comp name="00.HHZ">
      <acc value="0.0204521770" flag="0"/>
      <vel value="0.0088998011" flag="0"/>
      <psa03 value="0.0651501375" flag="0"/>
      <psa10 value="0.0059738633" flag="0"/>
      <psa30 value="0.0004541802" flag="0"/>
    </comp>
  </station>
  <station code="ANX" name="ANX" netid="HP" insttype="120" lat="38.5933" lon="21.9209">
    <comp name="--.HHN">
      <acc value="0.2228206334" flag="0"/>
      <vel value="0.0755858707" flag="0"/>
      <psa03 value="0.4207834444" flag="0"/>
      <psa10 value="0.0444619793" flag="0"/>
      <psa30 value="0.0026266284" flag="0"/>
    </comp>
    <comp name="--.HHE">
      <acc value="0.3331411281" flag="0"/>
      <vel value="0.0943939385" flag="0"/>
      <psa03 value="0.5515401493" flag="0"/>
      <psa10 value="0.0390861299" flag="0"/>
      <psa30 value="0.0019828198" flag="0"/>
    </comp>
    <comp name="--.HHZ">
      <acc value="0.1144491798" flag="0"/>
      <vel value="0.0508844194" flag="0"/>
      <psa03 value="0.2845725670" flag="0"/>
      <psa10 value="0.0529482693" flag="0"/>
      <psa30 value="0.0027851234" flag="0"/>
    </comp>
  </station>
  <station code="AXS" name="AXS" netid="HP" insttype="40," lat="38.1962" lon="21.3763">
    <comp name="--.HHE">
      <acc value="0.0924265547" flag="0"/>
      <vel value="0.0267882598" flag="0"/>
      <psa03 value="0.0913759662" flag="0"/>
      <psa10 value="0.0075238615" flag="0"/>
      <psa30 value="0.0006584685" flag="0"/>
    </comp>
    <comp name="--.HHZ">
      <acc value="0.0757661324" flag="0"/>
      <vel value="0.0208604365" flag="0"/>
