<stationlist created="1778136672">
	<station code="AGRP" name="AGRP" netid="CL" source="Corinth Riff Laboratory (CRLNET)" insttype="" lat="38.3959" lon="21.72277">
		<comp name="00.HNE" depth="0.0">
			<acc value="5.02975057015697" flag="0"/>
			<vel value="1.23467761029416" flag="0"/>
			<psa03 value="4.54106682337659" flag="0"/>
			<psa10 value="0.282482303066033" flag="0"/>
			<psa30 value="0.0354046120484415" flag="0"/>
		</comp>
		<comp name="00.HNN" depth="0.0">
			<acc value="6.50012880959437" flag="0"/>
			<vel value="1.14929420600653" flag="0"/>
			<psa03 value="2.90128986287937" flag="0"/>
			<psa10 value="0.252097280207409" flag="0"/>
			<psa30 value="0.0273525103029039" flag="0"/>
		</comp>
		<comp name="00.HNZ" depth="0.0">
			<acc value="1.26279121453655" flag="0"/>
			<vel value="0.194067514971364" flag="0"/>
			<psa03 value="0.798610070664321" flag="0"/>
			<psa10 value="0.125257157671988" flag="0"/>
			<psa30 value="0.00731008009028273" flag="0"/>
		</comp>
	</station>
	<station code="ROD3" name="ROD3" netid="CL" source="Corinth Riff Laboratory (CRLNET)" insttype="" lat="38.30811" lon="21.89204">
		<comp name="00.HNE" depth="0.0">
			<acc value="1.63849808227036" flag="0"/>
			<vel value="0.685600539940706" flag="0"/>
			<psa03 value="3.29397587640216" flag="0"/>
			<psa10 value="0.126450921753156" flag="0"/>
			<psa30 value="0.0128106244743186" flag="0"/>
		</comp>
		<comp name="00.HNN" depth="0.0">
			<acc value="0.948452478277146" flag="0"/>
			<vel value="0.324812856552264" flag="0"/>
			<psa03 value="2.01872039698437" flag="0"/>
			<psa10 value="0.106056035692005" flag="0"/>
			<psa30 value="0.0100891041869516" flag="0"/>
		</comp>
		<comp name="00.HNZ" depth="0.0">
			<acc value="0.730206139564155" flag="0"/>
			<vel value="0.21689806180071" flag="0"/>
			<psa03 value="0.632450563413508" flag="0"/>
			<psa10 value="0.0426900192542066" flag="0"/>
			<psa30 value="0.00430083282573516" flag="0"/>
		</comp>
	</station>
	<station code="AIGS" name="AIGS" netid="HA" source="Hellenic Seismological Network, University of Athens, Seismological Laboratory (HA)" insttype="" lat="38.25001" lon="22.0878">
		<comp name="--.HNE" depth="0.0">
			<acc value="0.281392378546848" flag="0"/>
			<vel value="0.0741768821336093" flag="0"/>
			<psa03 value="0.38602594732445" flag="0"/>
			<psa10 value="0.0301064262779741" flag="0"/>
			<psa30 value="0.00240801451914316" flag="0"/>
		</comp>
		<comp name="--.HNN" depth="0.0">
			<acc value="0.195324091234822" flag="0"/>
			<vel value="0.0512792755057114" flag="0"/>
			<psa03 value="0.263971424311471" flag="0"/>
			<psa10 value="0.012814096371012" flag="0"/>
			<psa30 value="0.00175643281338491" flag="0"/>
		</comp>
		<comp name="--.HNZ" depth="0.0">
			<acc value="0.184562525103968" flag="0"/>
			<vel value="0.0309609022330626" flag="0"/>
			<psa03 value="0.154304055219483" flag="0"/>
			<psa10 value="0.0154500681786923" flag="0"/>
			<psa30 value="0.000878509655286793" flag="0"/>
		</comp>
	</station>
	<station code="KIAS" name="KIAS" netid="HA" source="Hellenic Seismological Network, University of Athens, Seismological Laboratory (HA)" insttype="" lat="37.9875" lon="22.7543">
		<comp name="--.HNE" depth="0.0">
			<acc value="0.0219143809692815" flag="0"/>
			<vel value="0.00794109395239288" flag="0"/>
			<psa03 value="0.0449168557296606" flag="0"/>
			<psa10 value="0.0114065971935767" flag="0"/>
			<psa30 value="0.000843591612969842" flag="0"/>
		</comp>
		<comp name="--.HNN" depth="0.0">
			<acc value="0.0243349218675459" flag="0"/>
			<vel value="0.00790819086506647" flag="0"/>
			<psa03 value="0.0378162785803752" flag="0"/>
			<psa10 value="0.00581169437124366" flag="0"/>
			<psa30 value="0.000687394234413094" flag="0"/>
		</comp>
		<comp name="--.HNZ" depth="0.0">
			<acc value="0.0153606814782031" flag="0"/>
			<vel value="0.00369156692584287" flag="0"/>
			<psa03 value="0.027583538211547" flag="0"/>
			<psa10 value="0.00642331816954388" flag="0"/>
			<psa30 value="0.000585430656907178" flag="0"/>
		</comp>
	</station>
	<station code="LTRS" name="LTRS" netid="HA" source="Hellenic Seismological Network, University of Athens, Seismological Laboratory (HA)" insttype="" lat="37.97528" lon="22.9765">
		<comp name="--.HNE" depth="0.0">
			<acc value="0.0111452167474013" flag="0"/>
			<vel value="0.00626983291704193" flag="0"/>
			<psa03 value="0.0442836002378697" flag="0"/>
			<psa10 value="0.00714248127934505" flag="0"/>
			<psa30 value="0.000680091667320591" flag="0"/>
		</comp>
		<comp name="--.HNN" depth="0.0">
			<acc value="0.0116425364171505" flag="0"/>
			<vel value="0.00607621426569382" flag="0"/>
			<psa03 value="0.04872088376937" flag="0"/>
			<psa10 value="0.00912622581765434" flag="0"/>
			<psa30 value="0.0005917994121391" flag="0"/>
		</comp>
		<comp name="--.HNZ" depth="0.0">
			<acc value="0.00780458379960734" flag="0"/>
			<vel value="0.00408914232152743" flag="0"/>
			<psa03 value="0.0204368121718529" flag="0"/>
			<psa10 value="0.00790470052259804" flag="0"/>
			<psa30 value="0.00073817265031371" flag="0"/>
		</comp>
	</station>
	<station code="XLKS" name="XLKS" netid="HA" source="Hellenic Seismological Network, University of Athens, Seismological Laboratory (HA)" insttype="" lat="38.0772" lon="22.6361">
		<comp name="--.HNE" depth="0.0">
			<acc value="0.0344404026813917" flag="0"/>
			<vel value="0.0158687362929615" flag="0"/>
			<psa03 value="0.0893082078972499" flag="0"/>
			<psa10 value="0.0173314206215442" flag="0"/>
			<psa30 value="0.00134612084056436" flag="0"/>
		</comp>
		<comp name="--.HNN" depth="0.0">
			<acc value="0.0291207759085034" flag="0"/>
			<vel value="0.0146740246142809" flag="0"/>
			<psa03 value="0.0886186101313574" flag="0"/>
			<psa10 value="0.0149758389508221" flag="0"/>
			<psa30 value="0.000951363127306263" flag="0"/>
		</comp>
		<comp name="--.HNZ" depth="0.0">
			<acc value="0.0407529736224635" flag="0"/>
			<vel value="0.0151483246805611" flag="0"/>
			<psa03 value="0.083855107072704" flag="0"/>
			<psa10 value="0.01006917797113" flag="0"/>
			<psa30 value="0.000736481757051434" flag="0"/>
		</comp>
	</station>
	<station code="ART2" name="ART2" netid="HI" source="ITSAK Strong Motion Network" insttype="" lat="39.1474" lon="20.9937">
		<comp name="--.HNE" depth="0.0">
			<acc value="0.00631223147317131" flag="0"/>
			<vel value="0.00319021765866281" flag="0"/>
			<psa03 value="0.0141899556399105" flag="0"/>
			<psa10 value="0.00321321965690878" flag="0"/>
			<psa30 value="0.000224222822411406" flag="0"/>
		</comp>
		<comp name="--.HNN" depth="0.0">
			<acc value="0.0107751899608709" flag="0"/>
			<vel value="0.00639923096342979" flag="0"/>
			<psa03 value="0.0368582307393894" flag="0"/>
			<psa10 value="0.00335072837556234" flag="0"/>
			<psa30 value="0.000244141173154445" flag="0"/>
		</comp>
		<comp name="--.HNZ" depth="0.0">
			<acc value="0.00602983773217008" flag="0"/>
			<vel value="0.00282935217549681" flag="0"/>
			<psa03 value="0.0162276505230339" flag="0"/>
			<psa10 value="0.00129691571899067" flag="0"/>
			<psa30 value="0.000110229684988215" flag="0"/>
		</comp>
	</station>
	<station code="KLV1" name="KLV1" netid="HI" source="ITSAK Strong Motion Network" insttype="" lat="38.03256" lon="22.10797">
		<comp name="--.HNE" depth="0.0">
			<acc value="0.0844199100653716" flag="0"/>
			<vel value="0.0346122115685182" flag="0"/>
			<psa03 value="0.243499318134615" flag="0"/>
			<psa10 value="0.0118013839712693" flag="0"/>
			<psa30 value="0.000789681843798029" flag="0"/>
		</comp>
		<comp name="--.HNN" depth="0.0">
			<acc value="0.0768074348549994" flag="0"/>
			<vel value="0.0264723995913709" flag="0"/>
			<psa03 value="0.172120443801324" flag="0"/>
			<psa10 value="0.0109265907080165" flag="0"/>
			<psa30 value="0.000783460910857112" flag="0"/>
		</comp>
		<comp name="--.HNZ" depth="0.0">
			<acc value="0.0459483953213918" flag="0"/>
			<vel value="0.0115320843271345" flag="0"/>
			<psa03 value="0.0606222190494696" flag="0"/>
			<psa10 value="0.00600687745740785" flag="0"/>
			<psa30 value="0.000409048451619303" flag="0"/>
		</comp>
	</station>
	<station code="MSL1" name="MSL1" netid="HI" source="ITSAK Strong Motion Network" insttype="" lat="38.3727" lon="21.4243">
		<comp name="--.HNE" depth="0.0">
			<acc value="0.187623716135402" flag="0"/>
			<vel value="0.0808999942070375" flag="0"/>
			<psa03 value="0.45374376663101" flag="0"/>
			<psa10 value="0.0755469621153212" flag="0"/>
			<psa30 value="0.00566278304823629" flag="0"/>
		</comp>
		<comp name="--.HNN" depth="0.0">
			<acc value="0.211203653073902" flag="0"/>
			<vel value="0.0897237592340818" flag="0"/>
			<psa03 value="0.381580652845506" flag="0"/>
			<psa10 value="0.0644846067887058" flag="0"/>
			<psa30 value="0.00375664010896999" flag="0"/>
		</comp>
		<comp name="--.HNZ" depth="0.0">
			<acc value="0.133174478468047" flag="0"/>
			<vel value="0.049614719771547" flag="0"/>
			<psa03 value="0.204217986772661" flag="0"/>
			<psa10 value="0.049610615209651" flag="0"/>
			<psa30 value="0.00193506548025935" flag="0"/>
		</comp>
	</station>
	<station code="PYL1" name="PYL1" netid="HI" source="ITSAK Strong Motion Network" insttype="" lat="36.914188" lon="21.695161">
		<comp name="--.HNE" depth="0.0">
			<acc value="0.0023568169415127" flag="0"/>
			<vel value="0.00174031488908765" flag="0"/>
			<psa03 value="0.00923857555196114" flag="0"/>
			<psa10 value="0.00355157035223156" flag="0"/>
			<psa30 value="0.000212619267274498" flag="0"/>
		</comp>
		<comp name="--.HNN" depth="0.0">
			<acc value="0.00179994751634091" flag="0"/>
			<vel value="0.00132687768080387" flag="0"/>
			<psa03 value="0.00560820159396718" flag="0"/>
			<psa10 value="0.00159703169395026" flag="0"/>
			<psa30 value="0.000139438403776778" flag="0"/>
		</comp>
		<comp name="--.HNZ" depth="0.0">
			<acc value="0.00206813565611099" flag="0"/>
			<vel value="0.00118441245949529" flag="0"/>
			<psa03 value="0.0055533463975716" flag="0"/>
			<psa10 value="0.00205131018610675" flag="0"/>
			<psa30 value="0.000236596480647551" flag="0"/>
		</comp>
	</station>
	<station code="SKO1" name="SKO1" netid="HI" source="ITSAK Strong Motion Network" insttype="" lat="39.123383" lon="23.728705">
		<comp name="--.HNE" depth="0.0">
			<acc value="0.000773880360380618" flag="0"/>
			<vel value="0.000542442850915007" flag="0"/>
			<psa03 value="0.00181616848933389" flag="0"/>
			<psa10 value="0.000670012060790427" flag="0"/>
			<psa30 value="8.22624351596289e-05" flag="0"/>
		</comp>
		<comp name="--.HNN" depth="0.0">
			<acc value="0.000918931803037249" flag="0"/>
			<vel value="0.000674368802112876" flag="0"/>
			<psa03 value="0.00372217333352889" flag="0"/>
			<psa10 value="0.000648004255228666" flag="0"/>
			<psa30 value="5.86220800396908e-05" flag="0"/>
		</comp>
		<comp name="--.HNZ" depth="0.0">
			<acc value="0.000759806378454965" flag="0"/>
			<vel value="0.00035566579817477" flag="0"/>
			<psa03 value="0.0018515035123948" flag="0"/>
			<psa10 value="0.000652673900505039" flag="0"/>
			<psa30 value="5.69526269985337e-05" flag="0"/>
		</comp>
	</station>
	<station code="VAS2" name="VAS2" netid="HI" source="ITSAK Strong Motion Network" insttype="" lat="38.630558" lon="20.608081">
		<comp name="--.HNE" depth="0.0">
			<acc value="0.0577808269610206" flag="0"/>
			<vel value="0.0276719925278126" flag="0"/>
			<psa03 value="0.193434293239159" flag="0"/>
			<psa10 value="0.0393452589302919" flag="0"/>
			<psa30 value="0.00162262874118887" flag="0"/>
		</comp>
		<comp name="--.HNN" depth="0.0">
			<acc value="0.0745240778145955" flag="0"/>
			<vel value="0.0354839417015709" flag="0"/>
			<psa03 value="0.18949303214984" flag="0"/>
			<psa10 value="0.0571049916753549" flag="0"/>
			<psa30 value="0.00246413198664944" flag="0"/>
		</comp>
		<comp name="--.HNZ" depth="0.0">
			<acc value="0.0315279107475504" flag="0"/>
			<vel value="0.0187464298395789" flag="0"/>
			<psa03 value="0.080004325935774" flag="0"/>
			<psa10 value="0.0130330433751716" flag="0"/>
			<psa30 value="0.00105350603960306" flag="0"/>
		</comp>
	</station>
	<station code="ATHP" name="ATHP" netid="HL" source="National Observatory of Athens Seismic Network" insttype="" lat="38.000799" lon="23.773487">
		<comp name="00.HNE" depth="0.0">
			<acc value="0.00265938820152859" flag="0"/>
			<vel value="0.00189403329439165" flag="0"/>
			<psa03 value="0.0117569298805872" flag="0"/>
			<psa10 value="0.00172469530728629" flag="0"/>
			<psa30 value="0.000180072592988042" flag="0"/>
		</comp>
		<comp name="00.HNN" depth="0.0">
			<acc value="0.00248876736911013" flag="0"/>
			<vel value="0.00160624639678052" flag="0"/>
			<psa03 value="0.006605334706404" flag="0"/>
			<psa10 value="0.00184530810198078" flag="0"/>
			<psa30 value="0.00016485661104558" flag="0"/>
		</comp>
		<comp name="00.HNZ" depth="0.0">
			<acc value="0.00710054689720156" flag="0"/>
			<vel value="0.00102559361840077" flag="0"/>
			<psa03 value="0.00455932286607867" flag="0"/>
			<psa10 value="0.00133783514845224" flag="0"/>
			<psa30 value="0.000120678632387999" flag="0"/>
		</comp>
	</station>
	<station code="DLFA" name="DLFA" netid="HL" source="National Observatory of Athens Seismic Network" insttype="" lat="38.47836" lon="22.49583">
		<comp name="00.HNE" depth="0.0">
			<acc value="0.0274335321706943" flag="0"/>
			<vel value="0.00663517689031346" flag="0"/>
			<psa03 value="0.0433540074068824" flag="0"/>
			<psa10 value="0.0043941660919504" flag="0"/>
			<psa30 value="0.000283292100044734" flag="0"/>
		</comp>
		<comp name="00.HNN" depth="0.0">
			<acc value="0.0366472431338469" flag="0"/>
			<vel value="0.0117257207719006" flag="0"/>
			<psa03 value="0.0471163347677527" flag="0"/>
			<psa10 value="0.00516539530708787" flag="0"/>
			<psa30 value="0.000320481152178456" flag="0"/>
		</comp>
		<comp name="00.HNZ" depth="0.0">
			<acc value="0.0229789012645056" flag="0"/>
			<vel value="0.00633703448336146" flag="0"/>
			<psa03 value="0.0356982059767788" flag="0"/>
			<psa10 value="0.00223271204684072" flag="0"/>
			<psa30 value="0.000300316977859306" flag="0"/>
		</comp>
	</station>
	<station code="ITM" name="ITM" netid="HL" source="National Observatory of Athens Seismic Network" insttype="" lat="37.17872" lon="21.92522">
		<comp name="--.HNE" depth="0.0">
			<acc value="0.00577661244749736" flag="0"/>
			<vel value="0.00340819852831547" flag="0"/>
			<psa03 value="0.0187753974237706" flag="0"/>
			<psa10 value="0.00417776925672395" flag="0"/>
			<psa30 value="0.000246659204544965" flag="0"/>
		</comp>
		<comp name="--.HNN" depth="0.0">
			<acc value="0.00581500645744771" flag="0"/>
			<vel value="0.00285800953184616" flag="0"/>
			<psa03 value="0.0207992841005087" flag="0"/>
			<psa10 value="0.00311885871845787" flag="0"/>
			<psa30 value="0.000176619747066328" flag="0"/>
		</comp>
		<comp name="--.HNZ" depth="0.0">
			<acc value="0.00550446392523331" flag="0"/>
			<vel value="0.00236396411048835" flag="0"/>
			<psa03 value="0.0150929959306653" flag="0"/>
			<psa10 value="0.0030519552239317" flag="0"/>
			<psa30 value="0.000274971314458467" flag="0"/>
		</comp>
	</station>
	<station code="JAN" name="JAN" netid="HL" source="National Observatory of Athens Seismic Network" insttype="" lat="39.65616" lon="20.84874">
		<comp name="00.HNE" depth="0.0">
			<acc value="0.00395766609070197" flag="0"/>
			<vel value="0.00223995648347409" flag="0"/>
			<psa03 value="0.0097691862231397" flag="0"/>
			<psa10 value="0.00339691526333933" flag="0"/>
			<psa30 value="0.000249250548083957" flag="0"/>
		</comp>
		<comp name="00.HNN" depth="0.0">
			<acc value="0.00299929988991155" flag="0"/>
			<vel value="0.00158671413634861" flag="0"/>
			<psa03 value="0.0109770357684826" flag="0"/>
			<psa10 value="0.00227859047668695" flag="0"/>
			<psa30 value="0.000164687576410436" flag="0"/>
		</comp>
		<comp name="00.HNZ" depth="0.0">
			<acc value="0.00221970468010884" flag="0"/>
			<vel value="0.00136490288306127" flag="0"/>
			<psa03 value="0.0048316397338964" flag="0"/>
			<psa10 value="0.00206451574841099" flag="0"/>
			<psa30 value="0.000116291050065722" flag="0"/>
		</comp>
	</station>
	<station code="NOAC" name="NOAC" netid="HL" source="National Observatory of Athens Seismic Network" insttype="" lat="37.97384" lon="23.71767">
		<comp name="00.HNE" depth="0.0">
			<acc value="0.00573719785608803" flag="0"/>
			<vel value="0.00294022435736505" flag="0"/>
			<psa03 value="0.0161431683640222" flag="0"/>
			<psa10 value="0.00214288703387262" flag="0"/>
			<psa30 value="0.000140151836454829" flag="0"/>
		</comp>
		<comp name="00.HNN" depth="0.0">
			<acc value="0.00351830616544967" flag="0"/>
			<vel value="0.00174885819706032" flag="0"/>
			<psa03 value="0.00859655580774629" flag="0"/>
			<psa10 value="0.0014877659790712" flag="0"/>
			<psa30 value="0.000178278841348409" flag="0"/>
		</comp>
		<comp name="00.HNZ" depth="0.0">
			<acc value="0.00275055384222182" flag="0"/>
			<vel value="0.00115351371940296" flag="0"/>
			<psa03 value="0.00752250223511911" flag="0"/>
			<psa10 value="0.00100730782295126" flag="0"/>
			<psa30 value="7.41698808386582e-05" flag="0"/>
		</comp>
	</station>
	<station code="PATC" name="PATC" netid="HL" source="National Observatory of Athens Seismic Network" insttype="" lat="38.26933" lon="21.76001">
		<comp name="00.HNE" depth="0.0">
			<acc value="0.560881041702414" flag="0"/>
			<vel value="0.208942286350969" flag="0"/>
			<psa03 value="1.40054977955032" flag="0"/>
			<psa10 value="0.241690250792785" flag="0"/>
			<psa30 value="0.0158388309114839" flag="0"/>
		</comp>
		<comp name="00.HNN" depth="0.0">
			<acc value="0.669457986350465" flag="0"/>
			<vel value="0.313541646781245" flag="0"/>
			<psa03 value="1.13429980846404" flag="0"/>
			<psa10 value="0.231238428410971" flag="0"/>
			<psa30 value="0.0204549700413841" flag="0"/>
		</comp>
		<comp name="00.HNZ" depth="0.0">
			<acc value="0.78580741814456" flag="0"/>
			<vel value="0.164689495559909" flag="0"/>
			<psa03 value="0.678909474419817" flag="0"/>
			<psa10 value="0.0850041886103146" flag="0"/>
			<psa30 value="0.00739044291392754" flag="0"/>
		</comp>
	</station>
	<station code="PATG" name="PATG" netid="HL" source="National Observatory of Athens Seismic Network" insttype="" lat="38.23865" lon="21.72657">
		<comp name="00.HNE" depth="0.0">
			<acc value="0.786263366861376" flag="0"/>
			<vel value="0.305009374055939" flag="0"/>
			<psa03 value="1.92182831169527" flag="0"/>
			<psa10 value="0.14041522681977" flag="0"/>
			<psa30 value="0.0134828756743563" flag="0"/>
		</comp>
		<comp name="00.HNN" depth="0.0">
			<acc value="2.05350964023744" flag="0"/>
			<vel value="0.670287504303163" flag="0"/>
			<psa03 value="3.31983158921809" flag="0"/>
			<psa10 value="0.343025053726509" flag="0"/>
			<psa30 value="0.0378453270671989" flag="0"/>
		</comp>
		<comp name="00.HNZ" depth="0.0">
			<acc value="1.40615102245684" flag="0"/>
			<vel value="0.197290644448174" flag="0"/>
			<psa03 value="1.19799777813807" flag="0"/>
			<psa10 value="0.0788547262385342" flag="0"/>
			<psa30 value="0.00578725379382869" flag="0"/>
		</comp>
	</station>
	<station code="RIOA" name="RIOA" netid="HL" source="National Observatory of Athens Seismic Network" insttype="" lat="38.29585" lon="21.79118">
		<comp name="00.HNE" depth="0.0">
			<acc value="1.85734415118507" flag="0"/>
			<vel value="0.698948907633341" flag="0"/>
			<psa03 value="3.50234834672222" flag="0"/>
			<psa10 value="0.331203430601772" flag="0"/>
			<psa30 value="0.0350590058204302" flag="0"/>
		</comp>
		<comp name="00.HNN" depth="0.0">
			<acc value="1.10833752606837" flag="0"/>
			<vel value="0.356343515565843" flag="0"/>
			<psa03 value="2.8350121389757" flag="0"/>
			<psa10 value="0.125974175170936" flag="0"/>
			<psa30 value="0.0145538141187666" flag="0"/>
		</comp>
		<comp name="00.HNZ" depth="0.0">
			<acc value="1.81258209841432" flag="0"/>
			<vel value="0.36654560931664" flag="0"/>
			<psa03 value="1.13872468492379" flag="0"/>
