<?xml version="1.0" encoding="UTF-8" standalone="yes"?>
<!DOCTYPE earthquake SYSTEM "stationlist.dtd">
<stationlist created="" xmlns="ch.ethz.sed.shakemap.usgs.xml">
  <station code="APRC" name="APRC" netid="IV" insttype="" lat="41.7574" lon="15.5431">
    <comp name="--.HNE">
      <acc value="0.0259527472" flag="0"/>
      <vel value="0.0119365857" flag="0"/>
      <psa03 value="0.0717950506" flag="0"/>
      <psa10 value="0.0037658997" flag="0"/>
      <psa30 value="0.0004653577" flag="0"/>
    </comp>
    <comp name="--.HNN">
      <acc value="0.0136957458" flag="0"/>
      <vel value="0.0058902897" flag="0"/>
      <psa03 value="0.0367733368" flag="0"/>
      <psa10 value="0.0065090755" flag="0"/>
      <psa30 value="0.0005885762" flag="0"/>
    </comp>
    <comp name="--.HNZ">
      <acc value="0.0097991811" flag="0"/>
      <vel value="0.0061901625" flag="0"/>
      <psa03 value="0.0228667345" flag="0"/>
      <psa10 value="0.0062295899" flag="0"/>
      <psa30 value="0.0006237325" flag="0"/>
    </comp>
  </station>
  <station code="MSAG" name="MSAG" netid="IV" insttype="" lat="41.712" lon="15.9096">
    <comp name="--.HHE">
      <acc value="0.0070717277" flag="0"/>
      <vel value="0.0029337463" flag="0"/>
      <psa03 value="0.0110455715" flag="0"/>
      <psa10 value="0.0023369748" flag="0"/>
      <psa30 value="0.0001083028" flag="0"/>
    </comp>
    <comp name="--.HHN">
      <acc value="0.0153598715" flag="0"/>
      <vel value="0.0060725883" flag="0"/>
      <psa03 value="0.0407269693" flag="0"/>
      <psa10 value="0.0055226294" flag="0"/>
      <psa30 value="0.0003539381" flag="0"/>
    </comp>
    <comp name="--.HHZ">
      <acc value="0.0043474603" flag="0"/>
      <vel value="0.0015881215" flag="0"/>
      <psa03 value="0.0091590168" flag="0"/>
      <psa10 value="0.0014361507" flag="0"/>
      <psa30 value="0.0002520774" flag="0"/>
    </comp>
  </station>
  <station code="SGRT" name="SGRT" netid="IV" insttype="" lat="41.7546" lon="15.7437">
    <comp name="--.HHE">
      <acc value="0.0193973305" flag="0"/>
      <vel value="0.0123572466" flag="0"/>
      <psa03 value="0.0626925407" flag="0"/>
      <psa10 value="0.0134069911" flag="0"/>
      <psa30 value="0.0006134582" flag="0"/>
    </comp>
    <comp name="--.HHN">
      <acc value="0.0190074199" flag="0"/>
      <vel value="0.0104966790" flag="0"/>
      <psa03 value="0.0502010226" flag="0"/>
      <psa10 value="0.0143362805" flag="0"/>
      <psa30 value="0.0007495427" flag="0"/>
    </comp>
    <comp name="--.HHZ">
      <acc value="0.0103508479" flag="0"/>
      <vel value="0.0060783029" flag="0"/>
      <psa03 value="0.0231006802" flag="0"/>
      <psa10 value="0.0049213070" flag="0"/>
      <psa30 value="0.0005291304" flag="0"/>
    </comp>
  </station>
</stationlist>
