<stationlist created="1778136478">
	<station code="ACER" name="ACER" netid="IV" source="Italian National Seismic Network (INSN)" insttype="" lat="40.7867" lon="15.9427">
		<comp name="--.HNE" depth="1.0">
			<acc value="0.00420575655026297" flag="0"/>
			<vel value="0.00331039055926186" flag="0"/>
			<psa03 value="0.0195523442921848" flag="0"/>
			<psa10 value="0.00340264481331957" flag="0"/>
			<psa30 value="0.000379413912122944" flag="0"/>
		</comp>
		<comp name="--.HNN" depth="1.0">
			<acc value="0.00329049117233534" flag="0"/>
			<vel value="0.00252585541899602" flag="0"/>
			<psa03 value="0.0093511211832188" flag="0"/>
			<psa10 value="0.00437310327486988" flag="0"/>
			<psa30 value="0.000401337593365898" flag="0"/>
		</comp>
		<comp name="--.HNZ" depth="1.0">
			<acc value="0.0020428056749175" flag="0"/>
			<vel value="0.00154450597695313" flag="0"/>
			<psa03 value="0.00630865113317632" flag="0"/>
			<psa10 value="0.00139327231409298" flag="0"/>
			<psa30 value="0.000248319246731408" flag="0"/>
		</comp>
	</station>
	<station code="LPEL" name="LPEL" netid="IV" source="Italian National Seismic Network (INSN)" insttype="" lat="42.0468" lon="14.1832">
		<comp name="--.HNE" depth="0.0">
			<acc value="0.00712811566153662" flag="0"/>
			<vel value="0.00407626354382698" flag="0"/>
			<psa03 value="0.0239370805407754" flag="0"/>
			<psa10 value="0.00339459121612828" flag="0"/>
			<psa30 value="0.000285007856158391" flag="0"/>
		</comp>
		<comp name="--.HNN" depth="0.0">
			<acc value="0.00553094368984488" flag="0"/>
			<vel value="0.00290856866928056" flag="0"/>
			<psa03 value="0.0149438970105028" flag="0"/>
			<psa10 value="0.00270600865627308" flag="0"/>
			<psa30 value="0.000223711033091359" flag="0"/>
		</comp>
		<comp name="--.HNZ" depth="0.0">
			<acc value="0.00302350957867265" flag="0"/>
			<vel value="0.00225156733851887" flag="0"/>
			<psa03 value="0.00782988615819756" flag="0"/>
			<psa10 value="0.00329392125123717" flag="0"/>
			<psa30 value="0.000327065530379566" flag="0"/>
		</comp>
	</station>
	<station code="MELA" name="MELA" netid="IV" source="Italian National Seismic Network (INSN)" insttype="" lat="41.7059" lon="15.127">
		<comp name="--.HNE" depth="1.0">
			<acc value="0.0204047761139328" flag="0"/>
			<vel value="0.0119946419200072" flag="0"/>
			<psa03 value="0.0609836276207044" flag="0"/>
			<psa10 value="0.0124065664731806" flag="0"/>
			<psa30 value="0.000991934720727084" flag="0"/>
		</comp>
		<comp name="--.HNN" depth="1.0">
			<acc value="0.0191052288920696" flag="0"/>
			<vel value="0.0100148100140949" flag="0"/>
			<psa03 value="0.0511850843713029" flag="0"/>
			<psa10 value="0.0114240276158433" flag="0"/>
			<psa30 value="0.00153421026494054" flag="0"/>
		</comp>
		<comp name="--.HNZ" depth="1.0">
			<acc value="0.00639195025399386" flag="0"/>
			<vel value="0.0039765796051117" flag="0"/>
			<psa03 value="0.0169125541017067" flag="0"/>
			<psa10 value="0.00573013440160206" flag="0"/>
			<psa30 value="0.00118343136505329" flag="0"/>
		</comp>
	</station>
	<station code="MIDA" name="MIDA" netid="IV" source="Italian National Seismic Network (INSN)" insttype="" lat="41.64188" lon="14.25402">
		<comp name="--.HNE" depth="0.0">
			<acc value="0.00493349333011962" flag="0"/>
			<vel value="0.00315105507443073" flag="0"/>
			<psa03 value="0.0121698802001699" flag="0"/>
			<psa10 value="0.00290332178745965" flag="0"/>
			<psa30 value="0.000524378661566145" flag="0"/>
		</comp>
		<comp name="--.HNN" depth="0.0">
			<acc value="0.00361645390423919" flag="0"/>
			<vel value="0.0024613707519735" flag="0"/>
			<psa03 value="0.00809833939790719" flag="0"/>
			<psa10 value="0.00246842753913005" flag="0"/>
			<psa30 value="0.000391494307909878" flag="0"/>
		</comp>
		<comp name="--.HNZ" depth="0.0">
			<acc value="0.00178113466754783" flag="0"/>
			<vel value="0.00145824827456391" flag="0"/>
			<psa03 value="0.00756143291848793" flag="0"/>
			<psa10 value="0.00171138940314889" flag="0"/>
			<psa30 value="0.000310958335996989" flag="0"/>
		</comp>
	</station>
	<station code="MOCO" name="MOCO" netid="IV" source="Italian National Seismic Network (INSN)" insttype="" lat="41.37" lon="15.158">
		<comp name="--.HNE" depth="1.0">
			<acc value="0.00339150712459695" flag="0"/>
			<vel value="0.00390964601994829" flag="0"/>
			<psa03 value="0.00894844132365435" flag="0"/>
			<psa10 value="0.00616502864993166" flag="0"/>
			<psa30 value="0.00131049923184918" flag="0"/>
		</comp>
		<comp name="--.HNN" depth="1.0">
			<acc value="0.00168949057121265" flag="0"/>
			<vel value="0.00209876076806946" flag="0"/>
			<psa03 value="0.0038030875625531" flag="0"/>
			<psa10 value="0.0029435897734161" flag="0"/>
			<psa30 value="0.0008957389764978" flag="0"/>
		</comp>
		<comp name="--.HNZ" depth="1.0">
			<acc value="0.00125957021751952" flag="0"/>
			<vel value="0.00159086968998341" flag="0"/>
			<psa03 value="0.00375834535593483" flag="0"/>
			<psa10 value="0.00216641764445672" flag="0"/>
			<psa30 value="0.000596413614221562" flag="0"/>
		</comp>
	</station>
	<station code="TRIV" name="TRIV" netid="IV" source="Italian National Seismic Network (INSN)" insttype="" lat="41.7666" lon="14.5502">
		<comp name="--.HNE" depth="0.0">
			<acc value="0.00307079372330969" flag="0"/>
			<vel value="0.00312730614506652" flag="0"/>
			<psa03 value="0.00859050367070818" flag="0"/>
			<psa10 value="0.00413552215772686" flag="0"/>
			<psa30 value="0.00114003142463356" flag="0"/>
		</comp>
		<comp name="--.HNN" depth="0.0">
			<acc value="0.00300736581941747" flag="0"/>
			<vel value="0.0030133124051581" flag="0"/>
			<psa03 value="0.00957483221631016" flag="0"/>
			<psa10 value="0.00440129086503939" flag="0"/>
			<psa30 value="0.00098790792213144" flag="0"/>
		</comp>
		<comp name="--.HNZ" depth="0.0">
			<acc value="0.00289413743171563" flag="0"/>
			<vel value="0.00329280739793097" flag="0"/>
			<psa03 value="0.00863524587732645" flag="0"/>
			<psa10 value="0.00531134734765504" flag="0"/>
			<psa30 value="0.000687240293656654" flag="0"/>
		</comp>
	</station>
	<station code="AND3" name="AND3" netid="IX" source="Irpinia Seismic Network (ISNet)" insttype="" lat="40.9298" lon="15.3331">
		<comp name="01.HNE" depth="0.0">
			<acc value="0.00425012642513789" flag="0"/>
			<vel value="0.0031037826603128" flag="0"/>
			<psa03 value="0.00818782381114373" flag="0"/>
			<psa10 value="0.00504960543893815" flag="0"/>
			<psa30 value="0.00039686337270407" flag="0"/>
		</comp>
		<comp name="01.HNN" depth="0.0">
			<acc value="0.00532420733961161" flag="0"/>
			<vel value="0.00284338370936937" flag="0"/>
			<psa03 value="0.0111855516545679" flag="0"/>
			<psa10 value="0.00407914697738784" flag="0"/>
			<psa30 value="0.000604914633479034" flag="0"/>
		</comp>
		<comp name="01.HNZ" depth="0.0">
			<acc value="0.00272596874468102" flag="0"/>
			<vel value="0.001568366184133" flag="0"/>
			<psa03 value="0.0072929796787783" flag="0"/>
			<psa10 value="0.00174360379191405" flag="0"/>
			<psa30 value="0.000404916969895359" flag="0"/>
		</comp>
	</station>
	<station code="BEL3" name="BEL3" netid="IX" source="Irpinia Seismic Network (ISNet)" insttype="" lat="40.7153" lon="15.6369">
		<comp name="01.HNE" depth="0.0">
			<acc value="0.00356873915072255" flag="0"/>
			<vel value="0.00260249388882149" flag="0"/>
			<psa03 value="0.0114092626876593" flag="0"/>
			<psa10 value="0.0037408958953537" flag="0"/>
			<psa30 value="0.000507824045117384" flag="0"/>
		</comp>
		<comp name="01.HNN" depth="0.0">
			<acc value="0.00295473429675879" flag="0"/>
			<vel value="0.00226532652090841" flag="0"/>
			<psa03 value="0.00970905883616497" flag="0"/>
			<psa10 value="0.0027261426492513" flag="0"/>
			<psa30 value="0.00044294784552089" flag="0"/>
		</comp>
		<comp name="01.HNZ" depth="0.0">
			<acc value="0.00181632407633029" flag="0"/>
			<vel value="0.00141039966060232" flag="0"/>
			<psa03 value="0.00505586934786471" flag="0"/>
			<psa10 value="0.00113153040537609" flag="0"/>
			<psa30 value="0.000412523145020466" flag="0"/>
		</comp>
		<comp name="02.HNE" depth="0.0">
			<acc value="0.00175773100435369" flag="0"/>
			<vel value="0.00123563172551315" flag="0"/>
			<psa03 value="0.00568226024052051" flag="0"/>
			<psa10 value="0.00186038095118774" flag="0"/>
			<psa30 value="0.000217447124164801" flag="0"/>
		</comp>
		<comp name="02.HNN" depth="0.0">
			<acc value="0.00147725316201392" flag="0"/>
			<vel value="0.00118591314761357" flag="0"/>
			<psa03 value="0.00487690052139162" flag="0"/>
			<psa10 value="0.0013409239323496" flag="0"/>
			<psa30 value="0.000202682195980771" flag="0"/>
		</comp>
		<comp name="02.HNZ" depth="0.0">
			<acc value="0.000895370319528975" flag="0"/>
			<vel value="0.000572863937056879" flag="0"/>
			<psa03 value="0.00246082136400495" flag="0"/>
			<psa10 value="0.000523483817433779" flag="0"/>
			<psa30 value="0.000213867747635339" flag="0"/>
		</comp>
	</station>
	<station code="BSC3" name="BSC3" netid="IX" source="Irpinia Seismic Network (ISNet)" insttype="" lat="41.012" lon="15.3852">
		<comp name="01.HNE" depth="0.0">
			<acc value="0.0101854668817306" flag="0"/>
			<vel value="0.00229110394075563" flag="0"/>
			<psa03 value="0.00510061155448298" flag="0"/>
			<psa10 value="0.00351942197259326" flag="0"/>
			<psa30 value="0.000965984240888487" flag="0"/>
		</comp>
		<comp name="01.HNN" depth="0.0">
			<acc value="0.0116882561714191" flag="0"/>
			<vel value="0.00321649870872902" flag="0"/>
			<psa03 value="0.00715875305892348" flag="0"/>
			<psa10 value="0.00408720057457912" flag="0"/>
			<psa30 value="0.00275164570702371" flag="0"/>
		</comp>
		<comp name="01.HNZ" depth="0.0">
			<acc value="0.00185695727521554" flag="0"/>
			<vel value="0.00145733450307237" flag="0"/>
			<psa03 value="0.00286350122356939" flag="0"/>
			<psa10 value="0.00205769408237432" flag="0"/>
			<psa30 value="0.000528405460161789" flag="0"/>
		</comp>
	</station>
	<station code="CLT3" name="CLT3" netid="IX" source="Irpinia Seismic Network (ISNet)" insttype="" lat="40.903" lon="15.4043">
		<comp name="01.HNE" depth="0.0">
			<acc value="0.00825776237688694" flag="0"/>
			<vel value="0.00439761193467864" flag="0"/>
			<psa03 value="0.0252346045327053" flag="0"/>
			<psa10 value="0.00269795505908179" flag="0"/>
			<psa30 value="0.000564199225456407" flag="0"/>
		</comp>
		<comp name="01.HNN" depth="0.0">
			<acc value="0.00568272194758767" flag="0"/>
			<vel value="0.00358879173370963" flag="0"/>
			<psa03 value="0.01449647494432" flag="0"/>
			<psa10 value="0.00335029643157619" flag="0"/>
			<psa30 value="0.000399547905101167" flag="0"/>
		</comp>
		<comp name="01.HNZ" depth="0.0">
			<acc value="0.003501956156216" flag="0"/>
			<vel value="0.00213328017645326" flag="0"/>
			<psa03 value="0.00805359719128892" flag="0"/>
			<psa10 value="0.0036684135206321" flag="0"/>
			<psa30 value="0.0003753871135273" flag="0"/>
		</comp>
	</station>
	<station code="COL3" name="COL3" netid="IX" source="Irpinia Seismic Network (ISNet)" insttype="" lat="40.6871" lon="15.3304">
		<comp name="01.HNE" depth="0.0">
			<acc value="0.00432832755756693" flag="0"/>
			<vel value="0.00156648745146715" flag="0"/>
			<psa03 value="0.00845627705085336" flag="0"/>
			<psa10 value="0.00201339929782223" flag="0"/>
			<psa30 value="0.000252346045327053" flag="0"/>
		</comp>
		<comp name="01.HNN" depth="0.0">
			<acc value="0.00547706394290974" flag="0"/>
			<vel value="0.0027410161715347" flag="0"/>
			<psa03 value="0.00778514395157929" flag="0"/>
			<psa10 value="0.00286708060009885" flag="0"/>
			<psa30 value="0.000402232437498263" flag="0"/>
		</comp>
		<comp name="01.HNZ" depth="0.0">
			<acc value="0.00163258020826344" flag="0"/>
			<vel value="0.000719600582108353" flag="0"/>
			<psa03 value="0.00290824343018766" flag="0"/>
			<psa10 value="0.00103488723908063" flag="0"/>
			<psa30 value="0.000245634714334312" flag="0"/>
		</comp>
	</station>
	<station code="LGS3" name="LGS3" netid="IX" source="Irpinia Seismic Network (ISNet)" insttype="" lat="40.9865" lon="14.9906">
		<comp name="01.HNE" depth="0.0">
			<acc value="0.00320519201077724" flag="0"/>
			<vel value="0.000820936300974327" flag="0"/>
			<psa03 value="0.00304247005004248" flag="0"/>
			<psa10 value="0.000797306121937603" flag="0"/>
			<psa30 value="0.000306931537401344" flag="0"/>
		</comp>
		<comp name="01.HNN" depth="0.0">
			<acc value="0.00257889062629942" flag="0"/>
			<vel value="0.00101141054720005" flag="0"/>
			<psa03 value="0.00335566549637038" flag="0"/>
			<psa10 value="0.00101072644750676" flag="0"/>
			<psa30 value="0.000442500423454708" flag="0"/>
		</comp>
		<comp name="01.HNZ" depth="0.0">
			<acc value="0.00554598423557323" flag="0"/>
			<vel value="0.00056078703349256" flag="0"/>
			<psa03 value="0.00120803957869334" flag="0"/>
			<psa10 value="0.000644287775303113" flag="0"/>
			<psa30 value="0.000238028539209206" flag="0"/>
		</comp>
	</station>
	<station code="PGN3" name="PGN3" netid="IX" source="Irpinia Seismic Network (ISNet)" insttype="" lat="40.5722" lon="15.7967">
		<comp name="01.HNE" depth="0.0">
			<acc value="0.00140932485657579" flag="0"/>
			<vel value="0.00118376187263939" flag="0"/>
			<psa03 value="0.00653236216626768" flag="0"/>
			<psa10 value="0.00104294083627191" flag="0"/>
			<psa30 value="0.000271585194172909" flag="0"/>
		</comp>
		<comp name="01.HNN" depth="0.0">
			<acc value="0.00182960300226077" flag="0"/>
			<vel value="0.00112019928912535" flag="0"/>
			<psa03 value="0.00541380700081088" flag="0"/>
			<psa10 value="0.00109126241941965" flag="0"/>
			<psa30 value="0.000222368766892811" flag="0"/>
		</comp>
		<comp name="01.HNZ" depth="0.0">
			<acc value="0.000818847726188083" flag="0"/>
			<vel value="0.000573699897653839" flag="0"/>
			<psa03 value="0.0017449460581126" flag="0"/>
			<psa10 value="0.000938244072785159" flag="0"/>
			<psa30 value="0.000254583155657966" flag="0"/>
		</comp>
	</station>
	<station code="SCL3" name="SCL3" netid="IX" source="Irpinia Seismic Network (ISNet)" insttype="" lat="40.6951" lon="15.5114">
		<comp name="01.HNE" depth="0.0">
			<acc value="0.0140250655490119" flag="0"/>
			<vel value="0.0015019092909763" flag="0"/>
			<psa03 value="0.00689029981921385" flag="0"/>
			<psa10 value="0.00107112842644143" flag="0"/>
			<psa30 value="0.000248766668797591" flag="0"/>
		</comp>
		<comp name="01.HNN" depth="0.0">
			<acc value="0.0161191137538445" flag="0"/>
			<vel value="0.00254781600432827" flag="0"/>
			<psa03 value="0.0102907075222025" flag="0"/>
			<psa10 value="0.00328989445264152" flag="0"/>
			<psa30 value="0.000313642868394085" flag="0"/>
		</comp>
		<comp name="01.HNZ" depth="0.0">
			<acc value="0.00357573085426155" flag="0"/>
			<vel value="0.000893806307078589" flag="0"/>
			<psa03 value="0.00246082136400495" flag="0"/>
			<psa10 value="0.00107515522503707" flag="0"/>
			<psa30 value="0.000317669666989729" flag="0"/>
		</comp>
	</station>
	<station code="SFL3" name="SFL3" netid="IX" source="Irpinia Seismic Network (ISNet)" insttype="" lat="40.7889" lon="15.5782">
		<comp name="01.HNE" depth="0.0">
			<acc value="0.0186687300738817" flag="0"/>
			<vel value="0.00277355336201796" flag="0"/>
			<psa03 value="0.00425050962873582" flag="0"/>
			<psa10 value="0.00122817357167156" flag="0"/>
			<psa30 value="0.000316774822857364" flag="0"/>
		</comp>
		<comp name="01.HNN" depth="0.0">
			<acc value="0.0138334151572846" flag="0"/>
			<vel value="0.00184270926932599" flag="0"/>
			<psa03 value="0.00353463432284347" flag="0"/>
			<psa10 value="0.00120803957869334" flag="0"/>
			<psa30 value="0.00034898921162252" flag="0"/>
		</comp>
		<comp name="01.HNZ" depth="0.0">
			<acc value="0.00183483669162577" flag="0"/>
			<vel value="0.000548303904965067" flag="0"/>
			<psa03 value="0.00250556357062322" flag="0"/>
			<psa10 value="0.000728850545811647" flag="0"/>
			<psa30 value="0.000203129618046954" flag="0"/>
		</comp>
		<comp name="02.HNE" depth="0.0">
			<acc value="0.0216232929112276" flag="0"/>
			<vel value="0.00287111694535647" flag="0"/>
			<psa03 value="0.00393731418240792" flag="0"/>
			<psa10 value="0.00123622716886285" flag="0"/>
			<psa30 value="0.000266216129378717" flag="0"/>
		</comp>
		<comp name="02.HNN" depth="0.0">
			<acc value="0.0135450132891876" flag="0"/>
			<vel value="0.0018775667411787" flag="0"/>
			<psa03 value="0.00407154080226273" flag="0"/>
			<psa10 value="0.00110334281520658" flag="0"/>
			<psa30 value="0.000268900661775813" flag="0"/>
		</comp>
		<comp name="02.HNZ" depth="0.0">
			<acc value="0.00507271109093551" flag="0"/>
			<vel value="0.000931897668735272" flag="0"/>
			<psa03 value="0.00259504798385976" flag="0"/>
			<psa10 value="0.000680528962663913" flag="0"/>
			<psa30 value="0.000126620444729709" flag="0"/>
		</comp>
	</station>
	<station code="SSB3" name="SSB3" netid="IX" source="Irpinia Seismic Network (ISNet)" insttype="" lat="41.0785" lon="15.2292">
		<comp name="01.HNE" depth="0.0">
			<acc value="0.00283108755394283" flag="0"/>
			<vel value="0.00271137132877544" flag="0"/>
			<psa03 value="0.00894844132365435" flag="0"/>
			<psa10 value="0.00492074788387753" flag="0"/>
			<psa30 value="0.000600440412817207" flag="0"/>
		</comp>
		<comp name="01.HNN" depth="0.0">
			<acc value="0.00237537609867232" flag="0"/>
			<vel value="0.00184592462439314" flag="0"/>
			<psa03 value="0.00644287775303113" flag="0"/>
			<psa10 value="0.00296775056498997" flag="0"/>
			<psa30 value="0.000705137176303963" flag="0"/>
		</comp>
		<comp name="01.HNZ" depth="0.0">
			<acc value="0.00138819568485054" flag="0"/>
			<vel value="0.00123295617873503" flag="0"/>
			<psa03 value="0.00353463432284347" flag="0"/>
			<psa10 value="0.0013046827449888" flag="0"/>
			<psa30 value="0.000377624223858214" flag="0"/>
		</comp>
	</station>
	<station code="VDP3" name="VDP3" netid="IX" source="Irpinia Seismic Network (ISNet)" insttype="" lat="40.6052" lon="15.5721">
		<comp name="01.HNE" depth="0.0">
			<acc value="0.0144205082550803" flag="0"/>
			<vel value="0.0013455641171557" flag="0"/>
			<psa03 value="0.00165546164487605" flag="0"/>
			<psa10 value="0.00180803256944436" flag="0"/>
			<psa30 value="0.000439368468991429" flag="0"/>
		</comp>
		<comp name="01.HNN" depth="0.0">
			<acc value="0.00504740126439581" flag="0"/>
			<vel value="0.000853837538846656" flag="0"/>
			<psa03 value="0.00129752399192988" flag="0"/>
			<psa10 value="0.0013771651197104" flag="0"/>
			<psa30 value="0.000243397604003398" flag="0"/>
		</comp>
		<comp name="01.HNZ" depth="0.0">
			<acc value="0.00234870847439694" flag="0"/>
			<vel value="0.000637167016114695" flag="0"/>
			<psa03 value="0.00116329737207507" flag="0"/>
			<psa10 value="0.00113958400256738" flag="0"/>
			<psa30 value="0.000263979019047803" flag="0"/>
		</comp>
	</station>
	<station code="VDS3" name="VDS3" netid="IX" source="Irpinia Seismic Network (ISNet)" insttype="" lat="40.7408" lon="15.427">
		<comp name="01.HNE" depth="0.0">
			<acc value="0.00420119095860297" flag="0"/>
			<vel value="0.00404023859357738" flag="0"/>
			<psa03 value="0.0120356535803151" flag="0"/>
			<psa10 value="0.00547644609007646" flag="0"/>
			<psa30 value="0.000342277880629779" flag="0"/>
		</comp>
		<comp name="01.HNN" depth="0.0">
			<acc value="0.00299979573063726" flag="0"/>
			<vel value="0.0023220652024267" flag="0"/>
			<psa03 value="0.00948534780307361" flag="0"/>
			<psa10 value="0.00380532467288401" flag="0"/>
			<psa30 value="0.000313195446327902" flag="0"/>
		</comp>
		<comp name="01.HNZ" depth="0.0">
			<acc value="0.00154169121331841" flag="0"/>
			<vel value="0.000870960493827257" flag="0"/>
			<psa03 value="0.00384782976917137" flag="0"/>
			<psa10 value="0.00198923850624836" flag="0"/>
			<psa30 value="0.00021565743590007" flag="0"/>
		</comp>
		<comp name="02.HNE" depth="0.0">
			<acc value="0.00403092775830768" flag="0"/>
			<vel value="0.00386411818851412" flag="0"/>
			<psa03 value="0.0114092626876593" flag="0"/>
			<psa10 value="0.00514624860523362" flag="0"/>
