<?xml version="1.0" encoding="UTF-8" standalone="yes"?>
<!DOCTYPE earthquake SYSTEM "stationlist.dtd">
<stationlist created="" xmlns="ch.ethz.sed.shakemap.usgs.xml">
  <station code="AOI" name="AOI" netid="IV" insttype="" lat="43.5502" lon="13.602">
    <comp name="--.HHE">
      <acc value="1.5113572564" flag="0"/>
      <vel value="0.3284095954" flag="0"/>
      <psa03 value="1.7719512918" flag="0"/>
      <psa10 value="0.2908678354" flag="0"/>
      <psa30 value="0.1854204577" flag="0"/>
    </comp>
    <comp name="--.HHN">
      <acc value="1.1779426441" flag="0"/>
      <vel value="0.3957763637" flag="0"/>
      <psa03 value="2.0861666620" flag="0"/>
      <psa10 value="0.3373400002" flag="0"/>
      <psa30 value="0.0889149148" flag="0"/>
    </comp>
    <comp name="--.HHZ">
      <acc value="0.8071088335" flag="0"/>
      <vel value="0.4074434942" flag="0"/>
      <psa03 value="1.8728492712" flag="0"/>
      <psa10 value="0.2110258116" flag="0"/>
      <psa30 value="0.1081464498" flag="0"/>
    </comp>
  </station>
  <station code="APEC" name="APEC" netid="IV" insttype="" lat="43.5585" lon="12.4199">
    <comp name="--.HHE">
      <acc value="0.5172080532" flag="0"/>
      <vel value="0.3603887151" flag="0"/>
      <psa03 value="1.6366732941" flag="0"/>
      <psa10 value="0.4565835767" flag="0"/>
      <psa30 value="0.0337724770" flag="0"/>
    </comp>
    <comp name="--.HHN">
      <acc value="0.6307760213" flag="0"/>
      <vel value="0.5876554775" flag="0"/>
      <psa03 value="1.4436196738" flag="0"/>
      <psa10 value="0.5437979261" flag="0"/>
      <psa30 value="0.0394078301" flag="0"/>
    </comp>
    <comp name="--.HHZ">
      <acc value="0.4370891150" flag="0"/>
      <vel value="0.3717703476" flag="0"/>
      <psa03 value="1.2771877733" flag="0"/>
      <psa10 value="0.3728595367" flag="0"/>
      <psa30 value="0.0309457380" flag="0"/>
    </comp>
  </station>
  <station code="ARCI" name="ARCI" netid="IV" insttype="" lat="42.8519" lon="11.4754">
    <comp name="--.HHE">
      <acc value="0.0282337779" flag="0"/>
      <vel value="0.0569798188" flag="0"/>
      <psa03 value="0.0472161419" flag="0"/>
      <psa10 value="0.0935152203" flag="0"/>
      <psa30 value="0.0118985575" flag="0"/>
    </comp>
    <comp name="--.HHN">
      <acc value="0.0241565937" flag="0"/>
      <vel value="0.0519666965" flag="0"/>
      <psa03 value="0.0610560217" flag="0"/>
      <psa10 value="0.0965615063" flag="0"/>
      <psa30 value="0.0139152040" flag="0"/>
    </comp>
    <comp name="--.HHZ">
      <acc value="0.0135554649" flag="0"/>
      <vel value="0.0342387013" flag="0"/>
      <psa03 value="0.0315374729" flag="0"/>
      <psa10 value="0.0330469798" flag="0"/>
      <psa30 value="0.0106686399" flag="0"/>
    </comp>
  </station>
  <station code="ARVD" name="ARVD" netid="IV" insttype="" lat="43.4981" lon="12.9415">
    <comp name="--.HHE">
      <acc value="0.4652978236" flag="0"/>
      <vel value="0.3331394442" flag="0"/>
      <psa03 value="1.0307475027" flag="0"/>
      <psa10 value="0.4881138350" flag="0"/>
      <psa30 value="0.1451083528" flag="0"/>
    </comp>
    <comp name="--.HHN">
      <acc value="0.6035548367" flag="0"/>
      <vel value="0.3389583879" flag="0"/>
      <psa03 value="1.2569192157" flag="0"/>
      <psa10 value="0.3840778501" flag="0"/>
      <psa30 value="0.1752871854" flag="0"/>
    </comp>
    <comp name="--.HHZ">
      <acc value="0.4400513266" flag="0"/>
      <vel value="0.3403624875" flag="0"/>
      <psa03 value="1.2237128477" flag="0"/>
      <psa10 value="0.4707096609" flag="0"/>
      <psa30 value="0.1458243919" flag="0"/>
    </comp>
  </station>
  <station code="ASCOL" name="ASCOL" netid="IV" insttype="" lat="42.8512" lon="13.5897">
    <comp name="--.HNE">
      <acc value="0.1594187258" flag="0"/>
      <vel value="0.0839915985" flag="0"/>
      <psa03 value="0.2596161492" flag="0"/>
      <psa10 value="0.1115644465" flag="0"/>
      <psa30 value="0.0372177698" flag="0"/>
    </comp>
    <comp name="--.HNN">
      <acc value="0.1177524229" flag="0"/>
      <vel value="0.0891933645" flag="0"/>
      <psa03 value="0.2712436098" flag="0"/>
      <psa10 value="0.1493375388" flag="0"/>
      <psa30 value="0.0263049028" flag="0"/>
    </comp>
    <comp name="--.HNZ">
      <acc value="0.0602321666" flag="0"/>
      <vel value="0.0640923810" flag="0"/>
      <psa03 value="0.1809179956" flag="0"/>
      <psa10 value="0.1016808793" flag="0"/>
      <psa30 value="0.0205745108" flag="0"/>
    </comp>
  </station>
  <station code="ATBU" name="ATBU" netid="IV" insttype="" lat="43.4757" lon="12.5483">
    <comp name="--.HNE">
      <acc value="1.4735839405" flag="0"/>
      <vel value="1.4294743878" flag="0"/>
      <psa03 value="2.8045543137" flag="0"/>
      <psa10 value="1.6721314586" flag="0"/>
      <psa30 value="0.0849577638" flag="0"/>
    </comp>
    <comp name="--.HNN">
      <acc value="0.9207337658" flag="0"/>
      <vel value="0.8596716495" flag="0"/>
      <psa03 value="2.5749232708" flag="0"/>
      <psa10 value="0.9819249082" flag="0"/>
      <psa30 value="0.0861534552" flag="0"/>
    </comp>
    <comp name="--.HNZ">
      <acc value="0.4413013961" flag="0"/>
      <vel value="0.3812924103" flag="0"/>
      <psa03 value="1.0631251742" flag="0"/>
      <psa10 value="0.7061908792" flag="0"/>
      <psa30 value="0.0584202888" flag="0"/>
    </comp>
  </station>
  <station code="ATCC" name="ATCC" netid="IV" insttype="" lat="43.1851" lon="12.6399">
    <comp name="--.HNN">
      <acc value="0.5425457150" flag="0"/>
      <vel value="0.3718743793" flag="0"/>
      <psa03 value="0.9673427464" flag="0"/>
      <psa10 value="1.0298725850" flag="0"/>
      <psa30 value="0.0709117282" flag="0"/>
    </comp>
    <comp name="--.HNE">
      <acc value="0.6398757565" flag="0"/>
      <vel value="0.5504672227" flag="0"/>
      <psa03 value="1.2665303723" flag="0"/>
      <psa10 value="1.3108320049" flag="0"/>
      <psa30 value="0.1100390429" flag="0"/>
    </comp>
    <comp name="--.HNZ">
      <acc value="0.2726398898" flag="0"/>
      <vel value="0.3271956346" flag="0"/>
      <psa03 value="0.4867305201" flag="0"/>
      <psa10 value="0.5934997229" flag="0"/>
      <psa30 value="0.0770090640" flag="0"/>
    </comp>
  </station>
  <station code="ATFO" name="ATFO" netid="IV" insttype="" lat="43.3666" lon="12.5715">
    <comp name="--.HHE">
      <acc value="0.7295350935" flag="0"/>
      <vel value="0.5837949067" flag="0"/>
      <psa03 value="1.5718240691" flag="0"/>
      <psa10 value="1.1445862041" flag="0"/>
      <psa30 value="0.0714956448" flag="0"/>
    </comp>
    <comp name="--.HHZ">
      <acc value="0.2461078365" flag="0"/>
      <vel value="0.2797651164" flag="0"/>
      <psa03 value="0.8321442328" flag="0"/>
      <psa10 value="0.4596548423" flag="0"/>
      <psa30 value="0.0574301560" flag="0"/>
    </comp>
    <comp name="--.HHN">
      <acc value="0.5185796832" flag="0"/>
      <vel value="0.5020145616" flag="0"/>
      <psa03 value="1.4129056862" flag="0"/>
      <psa10 value="0.8440176221" flag="0"/>
      <psa30 value="0.0700487495" flag="0"/>
    </comp>
  </station>
  <station code="ATLO" name="ATLO" netid="IV" insttype="" lat="43.3152" lon="12.4073">
    <comp name="--.HNE">
      <acc value="0.2358058171" flag="0"/>
      <vel value="0.2491429344" flag="0"/>
      <psa03 value="0.7486294967" flag="0"/>
      <psa10 value="0.3102886251" flag="0"/>
      <psa30 value="0.0266965804" flag="0"/>
    </comp>
    <comp name="--.HNN">
      <acc value="0.5242615497" flag="0"/>
      <vel value="0.3935477610" flag="0"/>
      <psa03 value="2.2656612216" flag="0"/>
      <psa10 value="0.3105609231" flag="0"/>
      <psa30 value="0.0393630369" flag="0"/>
    </comp>
    <comp name="--.HNZ">
      <acc value="0.0710203592" flag="0"/>
      <vel value="0.0668429834" flag="0"/>
      <psa03 value="0.1781549019" flag="0"/>
      <psa10 value="0.0974208935" flag="0"/>
      <psa30 value="0.0108197154" flag="0"/>
    </comp>
  </station>
  <station code="ATMI" name="ATMI" netid="IV" insttype="" lat="43.3342" lon="12.268">
    <comp name="--.HHE">
      <acc value="0.4676413208" flag="0"/>
      <vel value="0.4819013412" flag="0"/>
      <psa03 value="1.4312169225" flag="0"/>
      <psa10 value="0.7843309753" flag="0"/>
      <psa30 value="0.0548765654" flag="0"/>
    </comp>
    <comp name="--.HHN">
      <acc value="0.4707300567" flag="0"/>
      <vel value="0.5053950756" flag="0"/>
      <psa03 value="0.8603992217" flag="0"/>
      <psa10 value="0.7478658590" flag="0"/>
      <psa30 value="0.0455363971" flag="0"/>
    </comp>
    <comp name="--.HHZ">
      <acc value="0.3071958785" flag="0"/>
      <vel value="0.2496813452" flag="0"/>
      <psa03 value="0.6475133757" flag="0"/>
      <psa10 value="0.2815854701" flag="0"/>
      <psa30 value="0.0315620848" flag="0"/>
    </comp>
  </station>
  <station code="ATPC" name="ATPC" netid="IV" insttype="" lat="43.4807" lon="12.457">
    <comp name="--.HHE">
      <acc value="1.9721011846" flag="0"/>
      <vel value="0.6489588480" flag="0"/>
      <psa03 value="1.4413591638" flag="0"/>
      <psa10 value="1.3504730630" flag="0"/>
      <psa30 value="0.0640971138" flag="0"/>
    </comp>
    <comp name="--.HHN">
      <acc value="0.8828354108" flag="0"/>
      <vel value="0.5373407686" flag="0"/>
      <psa03 value="1.6754061565" flag="0"/>
      <psa10 value="1.1038984325" flag="0"/>
      <psa30 value="0.0474554690" flag="0"/>
    </comp>
    <comp name="--.HHZ">
      <acc value="0.9235929542" flag="0"/>
      <vel value="0.3839316019" flag="0"/>
      <psa03 value="0.7056618739" flag="0"/>
      <psa10 value="0.3856304104" flag="0"/>
      <psa30 value="0.0509901987" flag="0"/>
    </comp>
  </station>
  <station code="ATPI" name="ATPI" netid="IV" insttype="" lat="43.4507" lon="12.4022">
    <comp name="--.HNE">
      <acc value="0.5289814345" flag="0"/>
      <vel value="0.5545375027" flag="0"/>
      <psa03 value="0.9765175482" flag="0"/>
      <psa10 value="0.8859920982" flag="0"/>
      <psa30 value="0.0566423603" flag="0"/>
    </comp>
    <comp name="--.HNN">
      <acc value="0.4475092939" flag="0"/>
      <vel value="0.4013820295" flag="0"/>
      <psa03 value="0.8586470629" flag="0"/>
      <psa10 value="0.6903119498" flag="0"/>
      <psa30 value="0.0411358411" flag="0"/>
    </comp>
    <comp name="--.HNZ">
      <acc value="0.2564486826" flag="0"/>
      <vel value="0.3511608457" flag="0"/>
      <psa03 value="0.4314988448" flag="0"/>
      <psa10 value="0.8690175325" flag="0"/>
      <psa30 value="0.0372594704" flag="0"/>
    </comp>
  </station>
  <station code="ATVO" name="ATVO" netid="IV" insttype="" lat="43.3821" lon="12.4066">
    <comp name="--.HHE">
      <acc value="0.2857499242" flag="0"/>
      <vel value="0.2497989359" flag="0"/>
      <psa03 value="0.6960111394" flag="0"/>
      <psa10 value="0.4832084483" flag="0"/>
      <psa30 value="0.0342924079" flag="0"/>
    </comp>
    <comp name="--.HHN">
      <acc value="0.3540210590" flag="0"/>
      <vel value="0.3329047383" flag="0"/>
      <psa03 value="0.6187945327" flag="0"/>
      <psa10 value="0.4888513422" flag="0"/>
      <psa30 value="0.0407141696" flag="0"/>
    </comp>
    <comp name="--.HHZ">
      <acc value="0.1626044343" flag="0"/>
      <vel value="0.2591866828" flag="0"/>
      <psa03 value="0.3445424651" flag="0"/>
      <psa10 value="0.2599136644" flag="0"/>
      <psa30 value="0.0390777734" flag="0"/>
    </comp>
  </station>
  <station code="BOSL" name="BOSL" netid="IV" insttype="" lat="43.931" lon="11.3743">
    <comp name="--.HHE">
      <acc value="0.0195104991" flag="0"/>
      <vel value="0.0311011688" flag="0"/>
      <psa03 value="0.0531087443" flag="0"/>
      <psa10 value="0.0387390764" flag="0"/>
      <psa30 value="0.0084129727" flag="0"/>
    </comp>
    <comp name="--.HHN">
      <acc value="0.0237974122" flag="0"/>
      <vel value="0.0269458635" flag="0"/>
      <psa03 value="0.0761748433" flag="0"/>
      <psa10 value="0.0430684601" flag="0"/>
      <psa30 value="0.0103426992" flag="0"/>
    </comp>
    <comp name="--.HHZ">
      <acc value="0.0166278567" flag="0"/>
      <vel value="0.0291039376" flag="0"/>
      <psa03 value="0.0392638057" flag="0"/>
      <psa10 value="0.0382476926" flag="0"/>
      <psa30 value="0.0118807492" flag="0"/>
    </comp>
  </station>
  <station code="BRIS" name="BRIS" netid="IV" insttype="" lat="44.2245" lon="11.7666">
    <comp name="--.HHE">
      <acc value="0.0798751068" flag="0"/>
      <vel value="0.0638321834" flag="0"/>
      <psa03 value="0.2361992605" flag="0"/>
      <psa10 value="0.0855828465" flag="0"/>
      <psa30 value="0.0163377310" flag="0"/>
    </comp>
    <comp name="--.HHN">
      <acc value="0.0736495396" flag="0"/>
      <vel value="0.0611731496" flag="0"/>
      <psa03 value="0.2449753492" flag="0"/>
      <psa10 value="0.0857914579" flag="0"/>
      <psa30 value="0.0232333317" flag="0"/>
    </comp>
    <comp name="--.HHZ">
      <acc value="0.0649508260" flag="0"/>
      <vel value="0.0531188754" flag="0"/>
      <psa03 value="0.1676967935" flag="0"/>
      <psa10 value="0.1046623580" flag="0"/>
      <psa30 value="0.0124907072" flag="0"/>
    </comp>
  </station>
  <station code="BRSN" name="BRSN" netid="IV" insttype="" lat="44.2842" lon="12.0802">
    <comp name="--.HNE">
      <acc value="0.3836824725" flag="0"/>
      <vel value="0.3994158227" flag="0"/>
      <psa03 value="1.1605657169" flag="0"/>
      <psa10 value="1.2885911553" flag="0"/>
      <psa30 value="0.1524947359" flag="0"/>
    </comp>
    <comp name="--.HNZ">
      <acc value="0.0933552890" flag="0"/>
      <vel value="0.2135331468" flag="0"/>
      <psa03 value="0.3470484442" flag="0"/>
      <psa10 value="0.1765702592" flag="0"/>
      <psa30 value="0.0691245154" flag="0"/>
    </comp>
    <comp name="--.HNN">
      <acc value="0.4100703164" flag="0"/>
      <vel value="0.4766137087" flag="0"/>
      <psa03 value="1.2831818478" flag="0"/>
      <psa10 value="1.0960326792" flag="0"/>
      <psa30 value="0.2090612575" flag="0"/>
    </comp>
  </station>
  <station code="CADA" name="CADA" netid="IV" insttype="" lat="43.1942" lon="13.7614">
    <comp name="--.HNE">
      <acc value="0.8248781952" flag="0"/>
      <vel value="0.5803596578" flag="0"/>
      <psa03 value="2.5965112663" flag="0"/>
      <psa10 value="0.7674365524" flag="0"/>
      <psa30 value="0.2234691576" flag="0"/>
    </comp>
    <comp name="--.HNN">
      <acc value="0.9763996675" flag="0"/>
      <vel value="0.6418916579" flag="0"/>
      <psa03 value="2.4805052587" flag="0"/>
      <psa10 value="0.6330423294" flag="0"/>
      <psa30 value="0.2902506327" flag="0"/>
    </comp>
    <comp name="--.HNZ">
      <acc value="0.4273157088" flag="0"/>
      <vel value="0.3304151910" flag="0"/>
      <psa03 value="1.5609246270" flag="0"/>
      <psa10 value="0.5244736276" flag="0"/>
      <psa30 value="0.1391232503" flag="0"/>
    </comp>
  </station>
  <station code="CAFI" name="CAFI" netid="IV" insttype="" lat="43.3292" lon="11.9663">
    <comp name="--.HHE">
      <acc value="0.2371836590" flag="0"/>
      <vel value="0.3501425653" flag="0"/>
      <psa03 value="0.3833014290" flag="0"/>
      <psa10 value="0.4059653685" flag="0"/>
      <psa30 value="0.0848602391" flag="0"/>
    </comp>
    <comp name="--.HHN">
      <acc value="0.1670175450" flag="0"/>
      <vel value="0.2785329341" flag="0"/>
      <psa03 value="0.3472425949" flag="0"/>
      <psa10 value="0.4073276164" flag="0"/>
      <psa30 value="0.0463526027" flag="0"/>
    </comp>
    <comp name="--.HHZ">
      <acc value="0.1014366308" flag="0"/>
      <vel value="0.1616574217" flag="0"/>
      <psa03 value="0.2319337433" flag="0"/>
      <psa10 value="0.1744352796" flag="0"/>
      <psa30 value="0.0272216305" flag="0"/>
    </comp>
  </station>
  <station code="CAMP" name="CAMP" netid="IV" insttype="" lat="42.5358" lon="13.409">
    <comp name="--.HHE">
      <acc value="0.1584903442" flag="0"/>
      <vel value="0.1415578406" flag="0"/>
      <psa03 value="0.3498898069" flag="0"/>
      <psa10 value="0.1859794332" flag="0"/>
      <psa30 value="0.0494086729" flag="0"/>
    </comp>
    <comp name="--.HHZ">
      <acc value="0.0882569268" flag="0"/>
      <vel value="0.1114349738" flag="0"/>
      <psa03 value="0.2247635285" flag="0"/>
      <psa10 value="0.1423111400" flag="0"/>
      <psa30 value="0.0445282957" flag="0"/>
    </comp>
    <comp name="--.HHN">
      <acc value="0.1769068650" flag="0"/>
      <vel value="0.1658142196" flag="0"/>
      <psa03 value="0.4735857894" flag="0"/>
      <psa10 value="0.1792294290" flag="0"/>
      <psa30 value="0.0633230676" flag="0"/>
    </comp>
  </station>
  <station code="CDCA" name="CDCA" netid="IV" insttype="" lat="43.4584" lon="12.2336">
    <comp name="--.HNE">
      <acc value="0.6889387986" flag="0"/>
      <vel value="0.8250242109" flag="0"/>
      <psa03 value="1.1961411569" flag="0"/>
      <psa10 value="1.1229192203" flag="0"/>
      <psa30 value="0.0975199783" flag="0"/>
    </comp>
    <comp name="--.HNN">
      <acc value="0.9933589185" flag="0"/>
      <vel value="0.8945665563" flag="0"/>
      <psa03 value="2.0670342914" flag="0"/>
      <psa10 value="1.4710430883" flag="0"/>
      <psa30 value="0.1423738374" flag="0"/>
    </comp>
    <comp name="--.HNZ">
      <acc value="0.6466399948" flag="0"/>
      <vel value="0.7051230959" flag="0"/>
      <psa03 value="1.5618449760" flag="0"/>
      <psa10 value="1.2103923600" flag="0"/>
      <psa30 value="0.0544427963" flag="0"/>
    </comp>
  </station>
  <station code="CESI" name="CESI" netid="IV" insttype="" lat="43.0049" lon="12.9046">
    <comp name="--.HHE">
      <acc value="0.7325366774" flag="0"/>
      <vel value="0.2875030920" flag="0"/>
      <psa03 value="2.0033243765" flag="0"/>
      <psa10 value="0.4448010739" flag="0"/>
      <psa30 value="0.1161279793" flag="0"/>
    </comp>
    <comp name="--.HHN">
      <acc value="0.6729444195" flag="0"/>
      <vel value="0.3499460409" flag="0"/>
      <psa03 value="2.2245642219" flag="0"/>
      <psa10 value="0.3369693636" flag="0"/>
      <psa30 value="0.1142266715" flag="0"/>
    </comp>
    <comp name="--.HHZ">
      <acc value="0.5881896800" flag="0"/>
      <vel value="0.2797365740" flag="0"/>
      <psa03 value="0.9923987330" flag="0"/>
      <psa10 value="0.3520188835" flag="0"/>
      <psa30 value="0.1205432256" flag="0"/>
    </comp>
  </station>
  <station code="CESX" name="CESX" netid="IV" insttype="" lat="42.6085" lon="12.5868">
    <comp name="--.HHE">
      <acc value="0.1486986829" flag="0"/>
      <vel value="0.1836459648" flag="0"/>
      <psa03 value="0.4791209172" flag="0"/>
      <psa10 value="0.3246240236" flag="0"/>
      <psa30 value="0.0863289728" flag="0"/>
    </comp>
    <comp name="--.HHN">
      <acc value="0.2099645763" flag="0"/>
      <vel value="0.2150399874" flag="0"/>
      <psa03 value="0.7501479632" flag="0"/>
      <psa10 value="0.4028030268" flag="0"/>
      <psa30 value="0.0779917517" flag="0"/>
    </comp>
    <comp name="--.HHZ">
      <acc value="0.1004458278" flag="0"/>
      <vel value="0.1420789019" flag="0"/>
      <psa03 value="0.2821393721" flag="0"/>
      <psa10 value="0.1251981407" flag="0"/>
      <psa30 value="0.0616461494" flag="0"/>
    </comp>
  </station>
  <station code="CIMA" name="CIMA" netid="IV" insttype="" lat="43.3053" lon="13.6701">
    <comp name="--.HNE">
      <acc value="0.7336839469" flag="0"/>
      <vel value="0.8106817214" flag="0"/>
      <psa03 value="1.5880195206" flag="0"/>
      <psa10 value="0.9277009836" flag="0"/>
      <psa30 value="0.6124382357" flag="0"/>
    </comp>
    <comp name="--.HNZ">
      <acc value="0.4630822585" flag="0"/>
      <vel value="0.3499695477" flag="0"/>
      <psa03 value="1.0649328158" flag="0"/>
      <psa10 value="0.6018847496" flag="0"/>
      <psa30 value="0.2093344684" flag="0"/>
    </comp>
