<stationlist xmlns:esm="https://esm-db.eu/esmws/shakemap/1/" created="1784339669">
	<station code="ANB" name="ANB" netid="IT" source="Italian Strong Motion Network (RAN)" insttype="" lat="43.5922" lon="13.5074" esm:processing="manual (Paolucci et al 2011)" esm:quality="bad">
		<comp name="--.HGE" depth="0.0">
			<acc value="13.554875148456" flag="0"/>
			<vel value="6.40962364324" flag="0"/>
			<psa03 value="26.8537709305389" flag="0"/>
			<psa10 value="2.70434098931754" flag="0"/>
			<psa30 value="0.465361441246372" flag="0"/>
		</comp>
		<comp name="--.HGN" depth="0.0">
			<acc value="16.975294953966" flag="0"/>
			<vel value="8.32882460176" flag="0"/>
			<psa03 value="33.0560804697793" flag="0"/>
			<psa10 value="5.09872832573159" flag="0"/>
			<psa30 value="0.400524106089815" flag="0"/>
		</comp>
		<comp name="--.HGZ" depth="0.0">
			<acc value="5.4482158448742" flag="0"/>
			<vel value="2.91422121674" flag="0"/>
			<psa03 value="25.0252844689451" flag="0"/>
			<psa10 value="0.897118829721231" flag="0"/>
			<psa30 value="0.200584301058859" flag="0"/>
		</comp>
	</station>
	<station code="APNO" name="APNO" netid="IT" source="Italian Strong Motion Network (RAN)" insttype="" lat="43.3638" lon="13.3451" esm:processing="manual (Paolucci et al 2011)" esm:quality="good">
		<comp name="--.HNE" depth="0.0">
			<acc value="1.5004156892046" flag="0"/>
			<vel value="1.14551163936" flag="0"/>
			<psa03 value="2.70563690183299" flag="0"/>
			<psa10 value="1.2845912578657" flag="0"/>
			<psa30 value="0.538252723267091" flag="0"/>
		</comp>
		<comp name="--.HNN" depth="0.0">
			<acc value="1.9138126543914" flag="0"/>
			<vel value="1.18117757428" flag="0"/>
			<psa03 value="4.05163140069658" flag="0"/>
			<psa10 value="0.99240310183522" flag="0"/>
			<psa30 value="0.483038558935296" flag="0"/>
		</comp>
		<comp name="--.HNZ" depth="0.0">
			<acc value="1.048627141143" flag="0"/>
			<vel value="0.603901223503" flag="0"/>
			<psa03 value="1.74107600440618" flag="0"/>
			<psa10 value="0.603772956993976" flag="0"/>
			<psa30 value="0.265541164132264" flag="0"/>
		</comp>
	</station>
	<station code="ARCV" name="ARCV" netid="IT" source="Italian Strong Motion Network (RAN)" insttype="" lat="43.495" lon="12.9396" esm:processing="manual (Paolucci et al 2011)" esm:quality="good">
		<comp name="--.HNE" depth="0.0">
			<acc value="0.62494026775836" flag="0"/>
			<vel value="0.420357304719" flag="0"/>
			<psa03 value="1.03890490568452" flag="0"/>
			<psa10 value="0.487686266823204" flag="0"/>
			<psa30 value="0.160720486943655" flag="0"/>
		</comp>
		<comp name="--.HNN" depth="0.0">
			<acc value="0.54548918511786" flag="0"/>
			<vel value="0.673932987679" flag="0"/>
			<psa03 value="0.659733079077997" flag="0"/>
			<psa10 value="0.527335873414429" flag="0"/>
			<psa30 value="0.197375888517416" flag="0"/>
		</comp>
		<comp name="--.HNZ" depth="0.0">
			<acc value="0.35514221696976" flag="0"/>
			<vel value="0.484628507178" flag="0"/>
			<psa03 value="0.65539495836537" flag="0"/>
			<psa10 value="0.521871011393052" flag="0"/>
			<psa30 value="0.135467160701249" flag="0"/>
		</comp>
	</station>
	<station code="CAGL" name="CAGL" netid="IT" source="Italian Strong Motion Network (RAN)" insttype="" lat="43.5475" lon="12.6495" esm:processing="manual (Paolucci et al 2011)" esm:quality="good">
		<comp name="--.HNE" depth="0.0">
			<acc value="0.56715861013038" flag="0"/>
			<vel value="0.469101640687" flag="0"/>
			<psa03 value="1.82948386099335" flag="0"/>
			<psa10 value="0.5474285644577" flag="0"/>
			<psa30 value="0.0584416581398125" flag="0"/>
		</comp>
		<comp name="--.HNN" depth="0.0">
			<acc value="0.59511198721542" flag="0"/>
			<vel value="0.390052024709" flag="0"/>
			<psa03 value="1.74293996121716" flag="0"/>
			<psa10 value="0.569316814445665" flag="0"/>
			<psa30 value="0.0358612422979694" flag="0"/>
		</comp>
		<comp name="--.HNZ" depth="0.0">
			<acc value="0.4334081876274" flag="0"/>
			<vel value="0.370648939641" flag="0"/>
			<psa03 value="0.697591962046117" flag="0"/>
			<psa10 value="0.70814651123103" flag="0"/>
			<psa30 value="0.0453696555169122" flag="0"/>
		</comp>
	</station>
	<station code="CES" name="CES" netid="IT" source="Italian Strong Motion Network (RAN)" insttype="" lat="44.2103" lon="12.3867" esm:processing="manual (Paolucci et al 2011)" esm:quality="good">
		<comp name="--.HNE" depth="0.0">
			<acc value="0.5137940207589" flag="0"/>
			<vel value="0.736939906438" flag="0"/>
			<psa03 value="0.962456091326576" flag="0"/>
			<psa10 value="0.899132083087872" flag="0"/>
			<psa30 value="0.169555072191584" flag="0"/>
		</comp>
		<comp name="--.HNN" depth="0.0">
			<acc value="1.0225944610758" flag="0"/>
			<vel value="0.632662486369" flag="0"/>
			<psa03 value="2.25957835264307" flag="0"/>
			<psa10 value="1.13010730406416" flag="0"/>
			<psa30 value="0.202262892257245" flag="0"/>
		</comp>
		<comp name="--.HNZ" depth="0.0">
			<acc value="0.2523739594998" flag="0"/>
			<vel value="0.263328259931" flag="0"/>
			<psa03 value="0.563665256723429" flag="0"/>
			<psa10 value="0.551815935098782" flag="0"/>
			<psa30 value="0.123456578392252" flag="0"/>
		</comp>
	</station>
	<station code="CMRN" name="CMRN" netid="IT" source="Italian Strong Motion Network (RAN)" insttype="" lat="43.1392" lon="13.0718" esm:processing="manual (Paolucci et al 2011)" esm:quality="good">
		<comp name="--.HNE" depth="0.0">
			<acc value="1.8210329233284" flag="0"/>
			<vel value="1.0783183735" flag="0"/>
			<psa03 value="6.92067446070176" flag="0"/>
			<psa10 value="0.914636810201221" flag="0"/>
			<psa30 value="0.194120206177852" flag="0"/>
		</comp>
		<comp name="--.HNN" depth="0.0">
			<acc value="1.4493330201222" flag="0"/>
			<vel value="0.993338632142" flag="0"/>
			<psa03 value="4.49395970277502" flag="0"/>
			<psa10 value="1.15728670456458" flag="0"/>
			<psa30 value="0.44610488559268" flag="0"/>
		</comp>
		<comp name="--.HNZ" depth="0.0">
			<acc value="0.63495219560406" flag="0"/>
			<vel value="0.550172085633" flag="0"/>
			<psa03 value="2.96419369661814" flag="0"/>
			<psa10 value="0.646275752595907" flag="0"/>
			<psa30 value="0.339286556069045" flag="0"/>
		</comp>
	</station>
	<station code="CNTN" name="CNTN" netid="IT" source="Italian Strong Motion Network (RAN)" insttype="" lat="43.4729" lon="12.6303" esm:processing="manual (Paolucci et al 2011)" esm:quality="good">
		<comp name="--.HNE" depth="0.0">
			<acc value="0.83672978182632" flag="0"/>
			<vel value="0.473988080457" flag="0"/>
			<psa03 value="2.18750241129871" flag="0"/>
			<psa10 value="0.524109339671259" flag="0"/>
			<psa30 value="0.042310936225198" flag="0"/>
		</comp>
		<comp name="--.HNN" depth="0.0">
			<acc value="1.0204465032048" flag="0"/>
			<vel value="0.380143398695" flag="0"/>
			<psa03 value="1.24344170524325" flag="0"/>
			<psa10 value="0.327643994806696" flag="0"/>
			<psa30 value="0.0410801280235442" flag="0"/>
		</comp>
		<comp name="--.HNZ" depth="0.0">
			<acc value="0.65254488912294" flag="0"/>
			<vel value="0.40569371067" flag="0"/>
			<psa03 value="0.908091989972438" flag="0"/>
			<psa10 value="0.401441083501735" flag="0"/>
			<psa30 value="0.0424536190105614" flag="0"/>
		</comp>
	</station>
	<station code="CTL" name="CTL" netid="IT" source="Italian Strong Motion Network (RAN)" insttype="" lat="43.955" lon="12.7358" esm:processing="manual (Paolucci et al 2011)" esm:quality="good">
		<comp name="--.HNE" depth="0.0">
			<acc value="3.238398528054" flag="0"/>
			<vel value="1.59853589252" flag="0"/>
			<psa03 value="6.17503173222336" flag="0"/>
			<psa10 value="2.24205932542632" flag="0"/>
			<psa30 value="0.198314804049023" flag="0"/>
		</comp>
		<comp name="--.HNN" depth="0.0">
			<acc value="1.9690242853914" flag="0"/>
			<vel value="1.35389601197" flag="0"/>
			<psa03 value="5.73446054654408" flag="0"/>
			<psa10 value="3.05761895224867" flag="0"/>
			<psa30 value="0.233776739894865" flag="0"/>
		</comp>
		<comp name="--.HNZ" depth="0.0">
			<acc value="1.1276611825494" flag="0"/>
			<vel value="0.715604307318" flag="0"/>
			<psa03 value="2.00171560383494" flag="0"/>
			<psa10 value="0.715450975117482" flag="0"/>
			<psa30 value="0.140321322265463" flag="0"/>
		</comp>
	</station>
	<station code="FBR" name="FBR" netid="IT" source="Italian Strong Motion Network (RAN)" insttype="" lat="43.3436" lon="12.9119" esm:processing="manual (Paolucci et al 2011)" esm:quality="good">
		<comp name="--.HGE" depth="0.0">
			<acc value="0.91845771807114" flag="0"/>
			<vel value="0.702863028421" flag="0"/>
			<psa03 value="2.23040525340037" flag="0"/>
			<psa10 value="0.935512313098171" flag="0"/>
			<psa30 value="0.131605878243597" flag="0"/>
		</comp>
		<comp name="--.HGN" depth="0.0">
			<acc value="0.8501989362372" flag="0"/>
			<vel value="0.571398349981" flag="0"/>
			<psa03 value="2.4013964140591" flag="0"/>
			<psa10 value="0.964606920475736" flag="0"/>
			<psa30 value="0.108030796510114" flag="0"/>
		</comp>
		<comp name="--.HGZ" depth="0.0">
			<acc value="0.51776754595158" flag="0"/>
			<vel value="0.430900274906" flag="0"/>
			<psa03 value="0.817308059313113" flag="0"/>
			<psa10 value="0.859896743940305" flag="0"/>
			<psa30 value="0.121022403806886" flag="0"/>
		</comp>
	</station>
	<station code="FSS" name="FSS" netid="IT" source="Italian Strong Motion Network (RAN)" insttype="" lat="43.6905" lon="12.8101" esm:processing="manual (Paolucci et al 2011)" esm:quality="good">
		<comp name="--.HGE" depth="0.0">
			<acc value="1.2600011848146" flag="0"/>
			<vel value="0.467287331403" flag="0"/>
			<psa03 value="1.29039614907809" flag="0"/>
			<psa10 value="0.601220987940864" flag="0"/>
			<psa30 value="0.07831590804458" flag="0"/>
		</comp>
		<comp name="--.HGN" depth="0.0">
			<acc value="1.1529412733136" flag="0"/>
			<vel value="0.543695660062" flag="0"/>
			<psa03 value="1.11497036131289" flag="0"/>
			<psa10 value="0.719241546224465" flag="0"/>
			<psa30 value="0.0869982698752908" flag="0"/>
		</comp>
		<comp name="--.HGZ" depth="0.0">
			<acc value="0.61349586032664" flag="0"/>
			<vel value="0.581842222809" flag="0"/>
			<psa03 value="1.09250753992981" flag="0"/>
			<psa10 value="0.629949091037596" flag="0"/>
			<psa30 value="0.0804085600058171" flag="0"/>
		</comp>
	</station>
	<station code="GBB" name="GBB" netid="IT" source="Italian Strong Motion Network (RAN)" insttype="" lat="43.3569" lon="12.5972" esm:processing="manual (Paolucci et al 2011)" esm:quality="good">
		<comp name="--.HGE" depth="0.0">
			<acc value="0.81574052978064" flag="0"/>
			<vel value="0.398002401184" flag="0"/>
			<psa03 value="2.33880510102733" flag="0"/>
			<psa10 value="0.469973783458392" flag="0"/>
			<psa30 value="0.0564575667031888" flag="0"/>
		</comp>
		<comp name="--.HGN" depth="0.0">
			<acc value="0.78697721783184" flag="0"/>
			<vel value="0.401749777072" flag="0"/>
			<psa03 value="2.0771677688382" flag="0"/>
			<psa10 value="0.448201521151675" flag="0"/>
			<psa30 value="0.0554673611072282" flag="0"/>
		</comp>
		<comp name="--.HGZ" depth="0.0">
			<acc value="0.46394152089558" flag="0"/>
			<vel value="0.428951546402" flag="0"/>
			<psa03 value="1.17798320227038" flag="0"/>
			<psa10 value="0.652170003060136" flag="0"/>
			<psa30 value="0.0826878043277337" flag="0"/>
		</comp>
	</station>
	<station code="GBP" name="GBP" netid="IT" source="Italian Strong Motion Network (RAN)" insttype="" lat="43.3138" lon="12.5894" esm:processing="manual (Paolucci et al 2011)" esm:quality="good">
		<comp name="--.HGE" depth="0.0">
			<acc value="1.0553851876692" flag="0"/>
			<vel value="1.13860732541" flag="0"/>
			<psa03 value="2.86898205597959" flag="0"/>
			<psa10 value="1.62322705082703" flag="0"/>
			<psa30 value="0.339299410254002" flag="0"/>
		</comp>
		<comp name="--.HGN" depth="0.0">
			<acc value="1.2606787909902" flag="0"/>
			<vel value="1.52507380045" flag="0"/>
			<psa03 value="2.647588723092" flag="0"/>
			<psa10 value="2.81789059142109" flag="0"/>
			<psa30 value="0.488214635156283" flag="0"/>
		</comp>
		<comp name="--.HGZ" depth="0.0">
			<acc value="0.60669085537398" flag="0"/>
			<vel value="0.97825884153" flag="0"/>
			<psa03 value="1.00464205260388" flag="0"/>
			<psa10 value="1.56604266263934" flag="0"/>
			<psa30 value="0.179591217036637" flag="0"/>
		</comp>
	</station>
	<station code="GBSL" name="GBSL" netid="IT" source="Italian Strong Motion Network (RAN)" insttype="" lat="43.3558" lon="12.5717" esm:processing="manual (Paolucci et al 2011)" esm:quality="good">
		<comp name="--.HNE" depth="0.0">
			<acc value="0.49339723484724" flag="0"/>
			<vel value="0.366363439038" flag="0"/>
			<psa03 value="1.18557995551898" flag="0"/>
			<psa10 value="0.665732881537779" flag="0"/>
			<psa30 value="0.0690643485076563" flag="0"/>
		</comp>
		<comp name="--.HNN" depth="0.0">
			<acc value="0.52388816386758" flag="0"/>
			<vel value="0.450440662119" flag="0"/>
			<psa03 value="0.758503663813563" flag="0"/>
			<psa10 value="0.695373585087407" flag="0"/>
			<psa30 value="0.0756495714129929" flag="0"/>
		</comp>
		<comp name="--.HNZ" depth="0.0">
			<acc value="0.34233257114376" flag="0"/>
			<vel value="0.413089419436" flag="0"/>
			<psa03 value="0.750262284529632" flag="0"/>
			<psa10 value="0.540406059247816" flag="0"/>
			<psa30 value="0.0692100114901059" flag="0"/>
		</comp>
	</station>
	<station code="GLT" name="GLT" netid="IT" source="Italian Strong Motion Network (RAN)" insttype="" lat="43.2331" lon="12.789" esm:processing="manual (Paolucci et al 2011)" esm:quality="good">
		<comp name="--.HNE" depth="0.0">
			<acc value="0.4885662239973" flag="0"/>
			<vel value="0.645760486182" flag="0"/>
			<psa03 value="1.02578036958092" flag="0"/>
			<psa10 value="1.55031610083429" flag="0"/>
			<psa30 value="0.0936440034558313" flag="0"/>
		</comp>
		<comp name="--.HNN" depth="0.0">
			<acc value="0.27088808860308" flag="0"/>
			<vel value="0.295020487619" flag="0"/>
			<psa03 value="0.601155115241947" flag="0"/>
			<psa10 value="0.670095950566113" flag="0"/>
			<psa30 value="0.0477652008765953" flag="0"/>
		</comp>
		<comp name="--.HNZ" depth="0.0">
			<acc value="0.2484145570068" flag="0"/>
			<vel value="0.27245639967" flag="0"/>
			<psa03 value="0.700422399548561" flag="0"/>
			<psa10 value="0.661694193992433" flag="0"/>
			<psa30 value="0.0720501529691193" flag="0"/>
		</comp>
	</station>
	<station code="JESI" name="JESI" netid="IT" source="Italian Strong Motion Network (RAN)" insttype="" lat="43.5292" lon="13.2289" esm:processing="manual (Paolucci et al 2011)" esm:quality="good">
		<comp name="--.HNE" depth="0.0">
			<acc value="2.9703465855834" flag="0"/>
			<vel value="2.43159493685" flag="0"/>
			<psa03 value="6.455085617754" flag="0"/>
			<psa10 value="2.24198564054484" flag="0"/>
			<psa30 value="0.936095931759405" flag="0"/>
		</comp>
		<comp name="--.HNN" depth="0.0">
			<acc value="3.9176581803558" flag="0"/>
			<vel value="3.36078788551" flag="0"/>
			<psa03 value="11.5953721364859" flag="0"/>
			<psa10 value="2.26393293444573" flag="0"/>
			<psa30 value="1.10120724291095" flag="0"/>
		</comp>
		<comp name="--.HNZ" depth="0.0">
			<acc value="1.3888111434378" flag="0"/>
			<vel value="1.72814079631" flag="0"/>
			<psa03 value="2.8488797243004" flag="0"/>
			<psa10 value="0.975277667357341" flag="0"/>
			<psa30 value="0.665425254491277" flag="0"/>
		</comp>
	</station>
	<station code="MCR" name="MCR" netid="IT" source="Italian Strong Motion Network (RAN)" insttype="" lat="43.7998" lon="12.4475" esm:processing="manual (Paolucci et al 2011)" esm:quality="good">
		<comp name="--.HGE" depth="0.0">
			<acc value="1.2869177101818" flag="0"/>
			<vel value="0.629791211817" flag="0"/>
			<psa03 value="2.9957467868537" flag="0"/>
			<psa10 value="0.42380540502625" flag="0"/>
			<psa30 value="0.0590659528296635" flag="0"/>
		</comp>
		<comp name="--.HGN" depth="0.0">
			<acc value="1.5561453914748" flag="0"/>
			<vel value="0.668331009183" flag="0"/>
			<psa03 value="3.35811112504834" flag="0"/>
			<psa10 value="0.440968882023466" flag="0"/>
			<psa30 value="0.0445773263624254" flag="0"/>
		</comp>
		<comp name="--.HGZ" depth="0.0">
			<acc value="0.49403086583118" flag="0"/>
			<vel value="0.270375889416" flag="0"/>
			<psa03 value="0.750578388801038" flag="0"/>
			<psa10 value="0.276957347065076" flag="0"/>
			<psa30 value="0.0389503236011177" flag="0"/>
		</comp>
	</station>
	<station code="MCT" name="MCT" netid="IT" source="Italian Strong Motion Network (RAN)" insttype="" lat="43.2925" lon="13.4189" esm:processing="manual (Paolucci et al 2011)" esm:quality="good">
		<comp name="--.HNE" depth="0.0">
			<acc value="1.2835507464246" flag="0"/>
			<vel value="0.855473872295" flag="0"/>
			<psa03 value="3.3576880970238" flag="0"/>
			<psa10 value="0.967985864313587" flag="0"/>
			<psa30 value="0.353225372780846" flag="0"/>
		</comp>
		<comp name="--.HNN" depth="0.0">
			<acc value="1.2216574452438" flag="0"/>
			<vel value="0.797964522757" flag="0"/>
			<psa03 value="3.90737384434302" flag="0"/>
			<psa10 value="0.886083438678002" flag="0"/>
			<psa30 value="0.332957496800231" flag="0"/>
		</comp>
		<comp name="--.HNZ" depth="0.0">
			<acc value="0.59671350866376" flag="0"/>
			<vel value="0.498452859882" flag="0"/>
			<psa03 value="2.03090770433666" flag="0"/>
			<psa10 value="0.34207399072294" flag="0"/>
			<psa30 value="0.355575688477413" flag="0"/>
		</comp>
	</station>
	<station code="MTL" name="MTL" netid="IT" source="Italian Strong Motion Network (RAN)" insttype="" lat="43.2494" lon="13.0083" esm:processing="manual (Paolucci et al 2011)" esm:quality="good">
		<comp name="--.HGE" depth="0.0">
			<acc value="1.2842222189424" flag="0"/>
			<vel value="0.852610002172" flag="0"/>
			<psa03 value="2.97676086246349" flag="0"/>
			<psa10 value="1.47160144637457" flag="0"/>
			<psa30 value="0.188201134068026" flag="0"/>
		</comp>
		<comp name="--.HGN" depth="0.0">
			<acc value="0.95202451003764" flag="0"/>
			<vel value="0.900500248587" flag="0"/>
			<psa03 value="2.87863102851099" flag="0"/>
			<psa10 value="1.05029925716964" flag="0"/>
			<psa30 value="0.228817531371703" flag="0"/>
		</comp>
		<comp name="--.HGZ" depth="0.0">
			<acc value="0.4375086365823" flag="0"/>
			<vel value="0.562946204357" flag="0"/>
			<psa03 value="0.996240329367623" flag="0"/>
			<psa10 value="0.587635367961106" flag="0"/>
			<psa30 value="0.278917703595709" flag="0"/>
		</comp>
	</station>
	<station code="PIBC" name="PIBC" netid="IT" source="Italian Strong Motion Network (RAN)" insttype="" lat="43.5878" lon="12.5135" esm:processing="manual (Paolucci et al 2011)" esm:quality="good">
		<comp name="--.HNE" depth="0.0">
			<acc value="0.62564173437678" flag="0"/>
			<vel value="0.346012499203" flag="0"/>
			<psa03 value="1.42779025076191" flag="0"/>
			<psa10 value="0.256371153330635" flag="0"/>
			<psa30 value="0.0227236419964291" flag="0"/>
		</comp>
		<comp name="--.HNN" depth="0.0">
			<acc value="0.6813896808729" flag="0"/>
			<vel value="0.32937283358" flag="0"/>
			<psa03 value="2.03768498663053" flag="0"/>
			<psa10 value="0.235034414876302" flag="0"/>
			<psa30 value="0.0315429228971516" flag="0"/>
		</comp>
		<comp name="--.HNZ" depth="0.0">
			<acc value="0.43425508274808" flag="0"/>
			<vel value="0.299676899085" flag="0"/>
			<psa03 value="1.47602944637547" flag="0"/>
			<psa10 value="0.351618853023281" flag="0"/>
			<psa30 value="0.0261371281231428" flag="0"/>
		</comp>
	</station>
	<station code="PRGL" name="PRGL" netid="IT" source="Italian Strong Motion Network (RAN)" insttype="" lat="43.5451" lon="12.836" esm:processing="manual (Paolucci et al 2011)" esm:quality="good">
		<comp name="--.HNE" depth="0.0">
			<acc value="1.4309673131304" flag="0"/>
			<vel value="0.685734953089" flag="0"/>
			<psa03 value="3.07125845580163" flag="0"/>
			<psa10 value="0.939968808319643" flag="0"/>
			<psa30 value="0.133461374494355" flag="0"/>
		</comp>
		<comp name="--.HNN" depth="0.0">
			<acc value="1.427515652694" flag="0"/>
			<vel value="0.742088068699" flag="0"/>
