<?xml version="1.0" encoding="UTF-8" standalone="yes"?>
<!DOCTYPE earthquake SYSTEM "stationlist.dtd">
<stationlist created="" xmlns="ch.ethz.sed.shakemap.usgs.xml">
  <station code="AOI" name="AOI" netid="IV" insttype="" lat="43.5502" lon="13.602">
    <comp name="--.HHE">
      <acc value="1.5113572563" flag="0"/>
      <vel value="0.3284095866" flag="0"/>
      <psa03 value="1.7719512918" flag="0"/>
      <psa10 value="0.2908678356" flag="0"/>
      <psa30 value="0.1854204569" flag="0"/>
    </comp>
    <comp name="--.HHN">
      <acc value="1.1779426442" flag="0"/>
      <vel value="0.3957762928" flag="0"/>
      <psa03 value="2.0861666619" flag="0"/>
      <psa10 value="0.3373400004" flag="0"/>
      <psa30 value="0.0889149149" flag="0"/>
    </comp>
    <comp name="--.HHZ">
      <acc value="0.8071088334" flag="0"/>
      <vel value="0.4074434158" flag="0"/>
      <psa03 value="1.8728492711" flag="0"/>
      <psa10 value="0.2110258111" flag="0"/>
      <psa30 value="0.1081464491" flag="0"/>
    </comp>
  </station>
  <station code="APEC" name="APEC" netid="IV" insttype="" lat="43.5585" lon="12.4199">
    <comp name="--.HHE">
      <acc value="0.5172080533" flag="0"/>
      <vel value="0.3603886385" flag="0"/>
      <psa03 value="1.6366732942" flag="0"/>
      <psa10 value="0.4565835768" flag="0"/>
      <psa30 value="0.0337724716" flag="0"/>
    </comp>
    <comp name="--.HHN">
      <acc value="0.6307760213" flag="0"/>
      <vel value="0.5876553766" flag="0"/>
      <psa03 value="1.4436196739" flag="0"/>
      <psa10 value="0.5437979261" flag="0"/>
      <psa30 value="0.0394078308" flag="0"/>
    </comp>
    <comp name="--.HHZ">
      <acc value="0.4370891148" flag="0"/>
      <vel value="0.3717702479" flag="0"/>
      <psa03 value="1.2771877732" flag="0"/>
      <psa10 value="0.3728595368" flag="0"/>
      <psa30 value="0.0309457382" flag="0"/>
    </comp>
  </station>
  <station code="ARCI" name="ARCI" netid="IV" insttype="" lat="42.8519" lon="11.4754">
    <comp name="--.HHE">
      <acc value="0.0282337780" flag="0"/>
      <vel value="0.0569799134" flag="0"/>
      <psa03 value="0.0472161420" flag="0"/>
      <psa10 value="0.0935152202" flag="0"/>
      <psa30 value="0.0118985587" flag="0"/>
    </comp>
    <comp name="--.HHN">
      <acc value="0.0241565939" flag="0"/>
      <vel value="0.0519667561" flag="0"/>
      <psa03 value="0.0610560217" flag="0"/>
      <psa10 value="0.0965615064" flag="0"/>
      <psa30 value="0.0139152049" flag="0"/>
    </comp>
    <comp name="--.HHZ">
      <acc value="0.0135554650" flag="0"/>
      <vel value="0.0342387321" flag="0"/>
      <psa03 value="0.0315374730" flag="0"/>
      <psa10 value="0.0330469798" flag="0"/>
      <psa30 value="0.0106686403" flag="0"/>
    </comp>
  </station>
  <station code="ARVD" name="ARVD" netid="IV" insttype="" lat="43.4981" lon="12.9415">
    <comp name="--.HHE">
      <acc value="0.4652978236" flag="0"/>
      <vel value="0.3331393656" flag="0"/>
      <psa03 value="1.0307475028" flag="0"/>
      <psa10 value="0.4881138351" flag="0"/>
      <psa30 value="0.1451083543" flag="0"/>
    </comp>
    <comp name="--.HHN">
      <acc value="0.6035548366" flag="0"/>
      <vel value="0.3389584113" flag="0"/>
      <psa03 value="1.2569192157" flag="0"/>
      <psa10 value="0.3840778501" flag="0"/>
      <psa30 value="0.1752871858" flag="0"/>
    </comp>
    <comp name="--.HHZ">
      <acc value="0.4400513266" flag="0"/>
      <vel value="0.3403626568" flag="0"/>
      <psa03 value="1.2237128475" flag="0"/>
      <psa10 value="0.4707096607" flag="0"/>
      <psa30 value="0.1458243920" flag="0"/>
    </comp>
  </station>
  <station code="ASCOL" name="ASCOL" netid="IV" insttype="" lat="42.8512" lon="13.5897">
    <comp name="--.HNE">
      <acc value="0.1594187257" flag="0"/>
      <vel value="0.0839915692" flag="0"/>
      <psa03 value="0.2596161492" flag="0"/>
      <psa10 value="0.1115644465" flag="0"/>
      <psa30 value="0.0372177767" flag="0"/>
    </comp>
    <comp name="--.HNN">
      <acc value="0.1177524232" flag="0"/>
      <vel value="0.0891933782" flag="0"/>
      <psa03 value="0.2712436098" flag="0"/>
      <psa10 value="0.1493375388" flag="0"/>
      <psa30 value="0.0263049228" flag="0"/>
    </comp>
    <comp name="--.HNZ">
      <acc value="0.0602321667" flag="0"/>
      <vel value="0.0640923677" flag="0"/>
      <psa03 value="0.1809179956" flag="0"/>
      <psa10 value="0.1016808793" flag="0"/>
      <psa30 value="0.0205745105" flag="0"/>
    </comp>
  </station>
  <station code="ATBU" name="ATBU" netid="IV" insttype="" lat="43.4757" lon="12.5483">
    <comp name="--.HNE">
      <acc value="1.4735839394" flag="0"/>
      <vel value="1.4294743929" flag="0"/>
      <psa03 value="2.8045543137" flag="0"/>
      <psa10 value="1.6721314582" flag="0"/>
      <psa30 value="0.0849577366" flag="0"/>
    </comp>
    <comp name="--.HNN">
      <acc value="0.9207337677" flag="0"/>
      <vel value="0.8596716196" flag="0"/>
      <psa03 value="2.5749232708" flag="0"/>
      <psa10 value="0.9819249082" flag="0"/>
      <psa30 value="0.0861534771" flag="0"/>
    </comp>
    <comp name="--.HNZ">
      <acc value="0.4413013966" flag="0"/>
      <vel value="0.3812924129" flag="0"/>
      <psa03 value="1.0631251742" flag="0"/>
      <psa10 value="0.7061908791" flag="0"/>
      <psa30 value="0.0584201593" flag="0"/>
    </comp>
  </station>
  <station code="ATCC" name="ATCC" netid="IV" insttype="" lat="43.1851" lon="12.6399">
    <comp name="--.HNE">
      <acc value="0.6398757567" flag="0"/>
      <vel value="0.5504672746" flag="0"/>
      <psa03 value="1.2665303723" flag="0"/>
      <psa10 value="1.3108320050" flag="0"/>
      <psa30 value="0.1100389905" flag="0"/>
    </comp>
    <comp name="--.HNN">
      <acc value="0.5425457154" flag="0"/>
      <vel value="0.3718743946" flag="0"/>
      <psa03 value="0.9673427464" flag="0"/>
      <psa10 value="1.0298725850" flag="0"/>
      <psa30 value="0.0709117141" flag="0"/>
    </comp>
    <comp name="--.HNZ">
      <acc value="0.2726398904" flag="0"/>
      <vel value="0.3271956318" flag="0"/>
      <psa03 value="0.4867305201" flag="0"/>
      <psa10 value="0.5934997228" flag="0"/>
      <psa30 value="0.0770090641" flag="0"/>
    </comp>
  </station>
  <station code="ATFO" name="ATFO" netid="IV" insttype="" lat="43.3666" lon="12.5715">
    <comp name="--.HHN">
      <acc value="0.5185796831" flag="0"/>
      <vel value="0.5020145974" flag="0"/>
      <psa03 value="1.4129056868" flag="0"/>
      <psa10 value="0.8440176221" flag="0"/>
      <psa30 value="0.0700487479" flag="0"/>
    </comp>
    <comp name="--.HHZ">
      <acc value="0.2461078363" flag="0"/>
      <vel value="0.2797651235" flag="0"/>
      <psa03 value="0.8321442328" flag="0"/>
      <psa10 value="0.4596548423" flag="0"/>
      <psa30 value="0.0574301578" flag="0"/>
    </comp>
    <comp name="--.HHE">
      <acc value="0.7295350937" flag="0"/>
      <vel value="0.5837947089" flag="0"/>
      <psa03 value="1.5718240689" flag="0"/>
      <psa10 value="1.1445862043" flag="0"/>
      <psa30 value="0.0714956154" flag="0"/>
    </comp>
  </station>
  <station code="ATLO" name="ATLO" netid="IV" insttype="" lat="43.3152" lon="12.4073">
    <comp name="--.HNE">
      <acc value="0.2358058177" flag="0"/>
      <vel value="0.2491429642" flag="0"/>
      <psa03 value="0.7486294967" flag="0"/>
      <psa10 value="0.3102886254" flag="0"/>
      <psa30 value="0.0266965601" flag="0"/>
    </comp>
    <comp name="--.HNZ">
      <acc value="0.0710203590" flag="0"/>
      <vel value="0.0668429843" flag="0"/>
      <psa03 value="0.1781549019" flag="0"/>
      <psa10 value="0.0974208935" flag="0"/>
      <psa30 value="0.0108197640" flag="0"/>
    </comp>
    <comp name="--.HNN">
      <acc value="0.5242615476" flag="0"/>
      <vel value="0.3935477612" flag="0"/>
      <psa03 value="2.2656612216" flag="0"/>
      <psa10 value="0.3105609231" flag="0"/>
      <psa30 value="0.0393630300" flag="0"/>
    </comp>
  </station>
  <station code="ATMI" name="ATMI" netid="IV" insttype="" lat="43.3342" lon="12.268">
    <comp name="--.HHE">
      <acc value="0.4676413208" flag="0"/>
      <vel value="0.4819013718" flag="0"/>
      <psa03 value="1.4312169225" flag="0"/>
      <psa10 value="0.7843309753" flag="0"/>
      <psa30 value="0.0548765598" flag="0"/>
    </comp>
    <comp name="--.HHN">
      <acc value="0.4707300567" flag="0"/>
      <vel value="0.5053951391" flag="0"/>
      <psa03 value="0.8603992218" flag="0"/>
      <psa10 value="0.7478658591" flag="0"/>
      <psa30 value="0.0455363967" flag="0"/>
    </comp>
    <comp name="--.HHZ">
      <acc value="0.3071958785" flag="0"/>
      <vel value="0.2496813784" flag="0"/>
      <psa03 value="0.6475133756" flag="0"/>
      <psa10 value="0.2815854700" flag="0"/>
      <psa30 value="0.0315620855" flag="0"/>
    </comp>
  </station>
  <station code="ATPC" name="ATPC" netid="IV" insttype="" lat="43.4807" lon="12.457">
    <comp name="--.HHE">
      <acc value="1.9721011845" flag="0"/>
      <vel value="0.6489586396" flag="0"/>
      <psa03 value="1.4413591636" flag="0"/>
      <psa10 value="1.3504730632" flag="0"/>
      <psa30 value="0.0640971622" flag="0"/>
    </comp>
    <comp name="--.HHN">
      <acc value="0.8828354109" flag="0"/>
      <vel value="0.5373409805" flag="0"/>
      <psa03 value="1.6754061567" flag="0"/>
      <psa10 value="1.1038984327" flag="0"/>
      <psa30 value="0.0474554461" flag="0"/>
    </comp>
    <comp name="--.HHZ">
      <acc value="0.9235929544" flag="0"/>
      <vel value="0.3839315091" flag="0"/>
      <psa03 value="0.7056618740" flag="0"/>
      <psa10 value="0.3856304103" flag="0"/>
      <psa30 value="0.0509901981" flag="0"/>
    </comp>
  </station>
  <station code="ATPI" name="ATPI" netid="IV" insttype="" lat="43.4507" lon="12.4022">
    <comp name="--.HNE">
      <acc value="0.5289814350" flag="0"/>
      <vel value="0.5545375365" flag="0"/>
      <psa03 value="0.9765175482" flag="0"/>
      <psa10 value="0.8859920983" flag="0"/>
      <psa30 value="0.0566421622" flag="0"/>
    </comp>
    <comp name="--.HNN">
      <acc value="0.4475092938" flag="0"/>
      <vel value="0.4013820325" flag="0"/>
      <psa03 value="0.8586470629" flag="0"/>
      <psa10 value="0.6903119495" flag="0"/>
      <psa30 value="0.0411359309" flag="0"/>
    </comp>
    <comp name="--.HNZ">
      <acc value="0.2564486829" flag="0"/>
      <vel value="0.3511608944" flag="0"/>
      <psa03 value="0.4314988438" flag="0"/>
      <psa10 value="0.8690175326" flag="0"/>
      <psa30 value="0.0372594462" flag="0"/>
    </comp>
  </station>
  <station code="ATVO" name="ATVO" netid="IV" insttype="" lat="43.3821" lon="12.4066">
    <comp name="--.HHE">
      <acc value="0.2857499244" flag="0"/>
      <vel value="0.2497990481" flag="0"/>
      <psa03 value="0.6960111377" flag="0"/>
      <psa10 value="0.4832084482" flag="0"/>
      <psa30 value="0.0342924571" flag="0"/>
    </comp>
    <comp name="--.HHZ">
      <acc value="0.1626044341" flag="0"/>
      <vel value="0.2591867180" flag="0"/>
      <psa03 value="0.3445424651" flag="0"/>
      <psa10 value="0.2599136644" flag="0"/>
      <psa30 value="0.0390777926" flag="0"/>
    </comp>
    <comp name="--.HHN">
      <acc value="0.3540210590" flag="0"/>
      <vel value="0.3329047350" flag="0"/>
      <psa03 value="0.6187945327" flag="0"/>
      <psa10 value="0.4888513422" flag="0"/>
      <psa30 value="0.0407141705" flag="0"/>
    </comp>
  </station>
  <station code="BOSL" name="BOSL" netid="IV" insttype="" lat="43.931" lon="11.3743">
    <comp name="--.HHE">
      <acc value="0.0195104987" flag="0"/>
      <vel value="0.0311011679" flag="0"/>
      <psa03 value="0.0531087443" flag="0"/>
      <psa10 value="0.0387390764" flag="0"/>
      <psa30 value="0.0084129730" flag="0"/>
    </comp>
    <comp name="--.HHN">
      <acc value="0.0237974119" flag="0"/>
      <vel value="0.0269458626" flag="0"/>
      <psa03 value="0.0761748433" flag="0"/>
      <psa10 value="0.0430684601" flag="0"/>
      <psa30 value="0.0103426981" flag="0"/>
    </comp>
    <comp name="--.HHZ">
      <acc value="0.0166278572" flag="0"/>
      <vel value="0.0291039400" flag="0"/>
      <psa03 value="0.0392638057" flag="0"/>
      <psa10 value="0.0382476926" flag="0"/>
      <psa30 value="0.0118807491" flag="0"/>
    </comp>
  </station>
  <station code="BRIS" name="BRIS" netid="IV" insttype="" lat="44.2245" lon="11.7666">
    <comp name="--.HHE">
      <acc value="0.0798751068" flag="0"/>
      <vel value="0.0638322055" flag="0"/>
      <psa03 value="0.2361992605" flag="0"/>
      <psa10 value="0.0855828465" flag="0"/>
      <psa30 value="0.0163377348" flag="0"/>
    </comp>
    <comp name="--.HHZ">
      <acc value="0.0649508260" flag="0"/>
      <vel value="0.0531188953" flag="0"/>
      <psa03 value="0.1676967934" flag="0"/>
      <psa10 value="0.1046623580" flag="0"/>
      <psa30 value="0.0124907080" flag="0"/>
    </comp>
    <comp name="--.HHN">
      <acc value="0.0736495396" flag="0"/>
      <vel value="0.0611731180" flag="0"/>
      <psa03 value="0.2449753492" flag="0"/>
      <psa10 value="0.0857914579" flag="0"/>
      <psa30 value="0.0232333310" flag="0"/>
    </comp>
  </station>
  <station code="BRSN" name="BRSN" netid="IV" insttype="" lat="44.2842" lon="12.0802">
    <comp name="--.HNE">
      <acc value="0.3836824728" flag="0"/>
      <vel value="0.3994158459" flag="0"/>
      <psa03 value="1.1605657169" flag="0"/>
      <psa10 value="1.2885911553" flag="0"/>
      <psa30 value="0.1523129314" flag="0"/>
    </comp>
    <comp name="--.HNN">
      <acc value="0.4100703163" flag="0"/>
      <vel value="0.4766136950" flag="0"/>
      <psa03 value="1.2831818478" flag="0"/>
      <psa10 value="1.0960326792" flag="0"/>
      <psa30 value="0.2090612858" flag="0"/>
    </comp>
    <comp name="--.HNZ">
      <acc value="0.0933552889" flag="0"/>
      <vel value="0.2135331433" flag="0"/>
      <psa03 value="0.3470484442" flag="0"/>
      <psa10 value="0.1765702592" flag="0"/>
      <psa30 value="0.0691245164" flag="0"/>
    </comp>
  </station>
  <station code="CADA" name="CADA" netid="IV" insttype="" lat="43.1942" lon="13.7614">
    <comp name="--.HNE">
      <acc value="0.8248781953" flag="0"/>
      <vel value="0.5803594493" flag="0"/>
      <psa03 value="2.5965112662" flag="0"/>
      <psa10 value="0.7674365524" flag="0"/>
      <psa30 value="0.2234691525" flag="0"/>
    </comp>
    <comp name="--.HNN">
      <acc value="0.9763996682" flag="0"/>
      <vel value="0.6418915605" flag="0"/>
      <psa03 value="2.4805052587" flag="0"/>
      <psa10 value="0.6330423294" flag="0"/>
      <psa30 value="0.2904667274" flag="0"/>
    </comp>
    <comp name="--.HNZ">
      <acc value="0.4273157087" flag="0"/>
      <vel value="0.3304152570" flag="0"/>
      <psa03 value="1.5609246270" flag="0"/>
      <psa10 value="0.5244736276" flag="0"/>
      <psa30 value="0.1391232516" flag="0"/>
    </comp>
  </station>
  <station code="CAFI" name="CAFI" netid="IV" insttype="" lat="43.3292" lon="11.9663">
    <comp name="--.HHE">
      <acc value="0.2371836589" flag="0"/>
      <vel value="0.3501426463" flag="0"/>
      <psa03 value="0.3833014289" flag="0"/>
      <psa10 value="0.4059653685" flag="0"/>
      <psa30 value="0.0848602514" flag="0"/>
    </comp>
    <comp name="--.HHN">
      <acc value="0.1670175450" flag="0"/>
      <vel value="0.2785328989" flag="0"/>
      <psa03 value="0.3472425949" flag="0"/>
      <psa10 value="0.4073276164" flag="0"/>
      <psa30 value="0.0463525998" flag="0"/>
    </comp>
    <comp name="--.HHZ">
      <acc value="0.1014366308" flag="0"/>
      <vel value="0.1616574601" flag="0"/>
      <psa03 value="0.2319337433" flag="0"/>
      <psa10 value="0.1744352796" flag="0"/>
      <psa30 value="0.0272216165" flag="0"/>
    </comp>
  </station>
  <station code="CAMP" name="CAMP" netid="IV" insttype="" lat="42.5358" lon="13.409">
    <comp name="--.HHE">
      <acc value="0.1584903442" flag="0"/>
      <vel value="0.1415578343" flag="0"/>
      <psa03 value="0.3498898069" flag="0"/>
      <psa10 value="0.1859794332" flag="0"/>
      <psa30 value="0.0494086747" flag="0"/>
    </comp>
    <comp name="--.HHN">
      <acc value="0.1769068649" flag="0"/>
      <vel value="0.1658142006" flag="0"/>
      <psa03 value="0.4735857894" flag="0"/>
      <psa10 value="0.1792294290" flag="0"/>
      <psa30 value="0.0633230684" flag="0"/>
    </comp>
    <comp name="--.HHZ">
      <acc value="0.0882569268" flag="0"/>
      <vel value="0.1114349854" flag="0"/>
      <psa03 value="0.2247635285" flag="0"/>
      <psa10 value="0.1423111400" flag="0"/>
      <psa30 value="0.0445282944" flag="0"/>
    </comp>
  </station>
  <station code="CDCA" name="CDCA" netid="IV" insttype="" lat="43.4584" lon="12.2336">
    <comp name="--.HNE">
      <acc value="0.6889387990" flag="0"/>
      <vel value="0.8250241888" flag="0"/>
      <psa03 value="1.1961411569" flag="0"/>
      <psa10 value="1.1229192203" flag="0"/>
      <psa30 value="0.0975199076" flag="0"/>
    </comp>
    <comp name="--.HNN">
      <acc value="0.9933589188" flag="0"/>
      <vel value="0.8945666576" flag="0"/>
      <psa03 value="2.0670342914" flag="0"/>
      <psa10 value="1.4710430883" flag="0"/>
      <psa30 value="0.1423738643" flag="0"/>
    </comp>
    <comp name="--.HNZ">
      <acc value="0.6466399941" flag="0"/>
      <vel value="0.7051230831" flag="0"/>
      <psa03 value="1.5618449760" flag="0"/>
      <psa10 value="1.2103923600" flag="0"/>
      <psa30 value="0.0544427469" flag="0"/>
    </comp>
  </station>
  <station code="CESI" name="CESI" netid="IV" insttype="" lat="43.0049" lon="12.9046">
    <comp name="--.HHE">
      <acc value="0.7325366777" flag="0"/>
      <vel value="0.2875029146" flag="0"/>
      <psa03 value="2.0033243767" flag="0"/>
      <psa10 value="0.4448010737" flag="0"/>
      <psa30 value="0.1161279801" flag="0"/>
    </comp>
    <comp name="--.HHZ">
      <acc value="0.5881896800" flag="0"/>
      <vel value="0.2797366858" flag="0"/>
      <psa03 value="0.9923987331" flag="0"/>
      <psa10 value="0.3520188834" flag="0"/>
      <psa30 value="0.1205432266" flag="0"/>
    </comp>
    <comp name="--.HHN">
      <acc value="0.6729444195" flag="0"/>
      <vel value="0.3499461922" flag="0"/>
      <psa03 value="2.2245642217" flag="0"/>
      <psa10 value="0.3369693638" flag="0"/>
      <psa30 value="0.1142266655" flag="0"/>
    </comp>
  </station>
  <station code="CESX" name="CESX" netid="IV" insttype="" lat="42.6085" lon="12.5868">
    <comp name="--.HHE">
      <acc value="0.1486986827" flag="0"/>
      <vel value="0.1836459617" flag="0"/>
      <psa03 value="0.4791209172" flag="0"/>
      <psa10 value="0.3246240236" flag="0"/>
      <psa30 value="0.0863289739" flag="0"/>
    </comp>
    <comp name="--.HHN">
      <acc value="0.2099645764" flag="0"/>
      <vel value="0.2150400055" flag="0"/>
      <psa03 value="0.7501479632" flag="0"/>
      <psa10 value="0.4028030268" flag="0"/>
      <psa30 value="0.0779917523" flag="0"/>
    </comp>
    <comp name="--.HHZ">
      <acc value="0.1004458277" flag="0"/>
      <vel value="0.1420788805" flag="0"/>
      <psa03 value="0.2821393721" flag="0"/>
      <psa10 value="0.1251981407" flag="0"/>
      <psa30 value="0.0616461493" flag="0"/>
    </comp>
  </station>
  <station code="CIMA" name="CIMA" netid="IV" insttype="" lat="43.3053" lon="13.6701">
    <comp name="--.HNE">
      <acc value="0.7336839470" flag="0"/>
      <vel value="0.8106816357" flag="0"/>
      <psa03 value="1.5880195206" flag="0"/>
      <psa10 value="0.9277009837" flag="0"/>
      <psa30 value="0.6124378358" flag="0"/>
    </comp>
    <comp name="--.HNN">
      <acc value="0.7173190110" flag="0"/>
      <vel value="0.7828311001" flag="0"/>
      <psa03 value="1.5311035696" flag="0"/>
      <psa10 value="0.8045316766" flag="0"/>
      <psa30 value="0.4308729797" flag="0"/>
    </comp>
