<stationlist created="1668009630">
	<station code="APNO" name="APNO" netid="IT" source="Italian Strong Motion Network (RAN)" insttype="" lat="43.3638000488" lon="13.3451004028">
		<comp name="00.HNE" depth="0.0">
			<acc value="1.5004156892" flag="0"/>
			<vel value="1.14551163936" flag="0"/>
			<psa03 value="2.70563690183" flag="0"/>
			<psa10 value="1.28459125787" flag="0"/>
			<psa30 value="0.538252723267" flag="0"/>
		</comp>
		<comp name="00.HNN" depth="0.0">
			<acc value="1.91381265439" flag="0"/>
			<vel value="1.18117757428" flag="0"/>
			<psa03 value="4.0516314007" flag="0"/>
			<psa10 value="0.992403101835" flag="0"/>
			<psa30 value="0.483038558935" flag="0"/>
		</comp>
		<comp name="00.HNZ" depth="0.0">
			<acc value="1.04862714114" flag="0"/>
			<vel value="0.603901223503" flag="0"/>
			<psa03 value="1.74107600441" flag="0"/>
			<psa10 value="0.603772956994" flag="0"/>
			<psa30 value="0.265541164132" flag="0"/>
		</comp>
	</station>
	<station code="CES" name="CES" netid="IT" source="Italian Strong Motion Network (RAN)" insttype="" lat="44.210281" lon="12.38678">
		<comp name="00.HNE" depth="0.0">
			<acc value="0.513794020759" flag="0"/>
			<vel value="0.736939906438" flag="0"/>
			<psa03 value="0.962456091327" flag="0"/>
			<psa10 value="0.899132083088" flag="0"/>
			<psa30 value="0.169555072192" flag="0"/>
		</comp>
		<comp name="00.HNN" depth="0.0">
			<acc value="1.02259446108" flag="0"/>
			<vel value="0.632662486369" flag="0"/>
			<psa03 value="2.25957835264" flag="0"/>
			<psa10 value="1.13010730406" flag="0"/>
			<psa30 value="0.202262892257" flag="0"/>
		</comp>
		<comp name="00.HNZ" depth="0.0">
			<acc value="0.2523739595" flag="0"/>
			<vel value="0.263328259931" flag="0"/>
			<psa03 value="0.563665256723" flag="0"/>
			<psa10 value="0.551815935099" flag="0"/>
			<psa30 value="0.123456578392" flag="0"/>
		</comp>
	</station>
	<station code="CMRN" name="CMRN" netid="IT" source="Italian Strong Motion Network (RAN)" insttype="" lat="43.139198" lon="13.0718">
		<comp name="00.HNE" depth="0.0">
			<acc value="1.82103292333" flag="0"/>
			<vel value="1.0783183735" flag="0"/>
			<psa03 value="6.9206744607" flag="0"/>
			<psa10 value="0.914636810201" flag="0"/>
			<psa30 value="0.194120206178" flag="0"/>
		</comp>
		<comp name="00.HNN" depth="0.0">
			<acc value="1.44933302012" flag="0"/>
			<vel value="0.993338632142" flag="0"/>
			<psa03 value="4.49395970278" flag="0"/>
			<psa10 value="1.15728670456" flag="0"/>
			<psa30 value="0.446104885593" flag="0"/>
		</comp>
		<comp name="00.HNZ" depth="0.0">
			<acc value="0.634952195604" flag="0"/>
			<vel value="0.550172085633" flag="0"/>
			<psa03 value="2.96419369662" flag="0"/>
			<psa10 value="0.646275752596" flag="0"/>
			<psa30 value="0.339286556069" flag="0"/>
		</comp>
	</station>
	<station code="CNTN" name="CNTN" netid="IT" source="Italian Strong Motion Network (RAN)" insttype="" lat="43.4729" lon="12.6303">
		<comp name="00.HNE" depth="0.0">
			<acc value="0.836729781826" flag="0"/>
			<vel value="0.473988080457" flag="0"/>
			<psa03 value="2.1875024113" flag="0"/>
			<psa10 value="0.524109339671" flag="0"/>
			<psa30 value="0.0423109362252" flag="0"/>
		</comp>
		<comp name="00.HNN" depth="0.0">
			<acc value="1.0204465032" flag="0"/>
			<vel value="0.380143398695" flag="0"/>
			<psa03 value="1.24344170524" flag="0"/>
			<psa10 value="0.327643994807" flag="0"/>
			<psa30 value="0.0410801280235" flag="0"/>
		</comp>
		<comp name="00.HNZ" depth="0.0">
			<acc value="0.652544889123" flag="0"/>
			<vel value="0.40569371067" flag="0"/>
			<psa03 value="0.908091989972" flag="0"/>
			<psa10 value="0.401441083502" flag="0"/>
			<psa30 value="0.0424536190106" flag="0"/>
		</comp>
	</station>
	<station code="CTL" name="CTL" netid="IT" source="Italian Strong Motion Network (RAN)" insttype="" lat="43.955116" lon="12.735809">
		<comp name="00.HNE" depth="0.0">
			<acc value="3.23839852805" flag="0"/>
			<vel value="1.59853589252" flag="0"/>
			<psa03 value="6.17503173222" flag="0"/>
			<psa10 value="2.24205932543" flag="0"/>
			<psa30 value="0.198314804049" flag="0"/>
		</comp>
		<comp name="00.HNN" depth="0.0">
			<acc value="1.96902428539" flag="0"/>
			<vel value="1.35389601197" flag="0"/>
			<psa03 value="5.73446054654" flag="0"/>
			<psa10 value="3.05761895225" flag="0"/>
			<psa30 value="0.233776739895" flag="0"/>
		</comp>
		<comp name="00.HNZ" depth="0.0">
			<acc value="1.12766118255" flag="0"/>
			<vel value="0.715604307318" flag="0"/>
			<psa03 value="2.00171560383" flag="0"/>
			<psa10 value="0.715450975117" flag="0"/>
			<psa30 value="0.140321322265" flag="0"/>
		</comp>
	</station>
	<station code="FBR" name="FBR" netid="IT" source="Italian Strong Motion Network (RAN)" insttype="" lat="43.343601" lon="12.9119">
		<comp name="00.HGE" depth="0.0">
			<acc value="0.918457718071" flag="0"/>
			<vel value="0.702863028421" flag="0"/>
			<psa03 value="2.2304052534" flag="0"/>
			<psa10 value="0.935512313098" flag="0"/>
			<psa30 value="0.131605878244" flag="0"/>
		</comp>
		<comp name="00.HGN" depth="0.0">
			<acc value="0.850198936237" flag="0"/>
			<vel value="0.571398349981" flag="0"/>
			<psa03 value="2.40139641406" flag="0"/>
			<psa10 value="0.964606920476" flag="0"/>
			<psa30 value="0.10803079651" flag="0"/>
		</comp>
		<comp name="00.HGZ" depth="0.0">
			<acc value="0.517767545952" flag="0"/>
			<vel value="0.430900274906" flag="0"/>
			<psa03 value="0.817308059313" flag="0"/>
			<psa10 value="0.85989674394" flag="0"/>
			<psa30 value="0.121022403807" flag="0"/>
		</comp>
	</station>
	<station code="FSS" name="FSS" netid="IT" source="Italian Strong Motion Network (RAN)" insttype="" lat="43.690477" lon="12.810074">
		<comp name="00.HGE" depth="0.0">
			<acc value="1.26000118481" flag="0"/>
			<vel value="0.467287331403" flag="0"/>
			<psa03 value="1.29039614908" flag="0"/>
			<psa10 value="0.601220987941" flag="0"/>
			<psa30 value="0.0783159080446" flag="0"/>
		</comp>
		<comp name="00.HGN" depth="0.0">
			<acc value="1.15294127331" flag="0"/>
			<vel value="0.543695660062" flag="0"/>
			<psa03 value="1.11497036131" flag="0"/>
			<psa10 value="0.719241546224" flag="0"/>
			<psa30 value="0.0869982698753" flag="0"/>
		</comp>
		<comp name="00.HGZ" depth="0.0">
			<acc value="0.613495860327" flag="0"/>
			<vel value="0.581842222809" flag="0"/>
			<psa03 value="1.09250753993" flag="0"/>
			<psa10 value="0.629949091038" flag="0"/>
			<psa30 value="0.0804085600058" flag="0"/>
		</comp>
	</station>
	<station code="GBB" name="GBB" netid="IT" source="Italian Strong Motion Network (RAN)" insttype="" lat="43.356972" lon="12.597252">
		<comp name="00.HGE" depth="0.0">
			<acc value="0.815740529781" flag="0"/>
			<vel value="0.398002401184" flag="0"/>
			<psa03 value="2.33880510103" flag="0"/>
			<psa10 value="0.469973783458" flag="0"/>
			<psa30 value="0.0564575667032" flag="0"/>
		</comp>
		<comp name="00.HGN" depth="0.0">
			<acc value="0.786977217832" flag="0"/>
			<vel value="0.401749777072" flag="0"/>
			<psa03 value="2.07716776884" flag="0"/>
			<psa10 value="0.448201521152" flag="0"/>
			<psa30 value="0.0554673611072" flag="0"/>
		</comp>
		<comp name="00.HGZ" depth="0.0">
			<acc value="0.463941520896" flag="0"/>
			<vel value="0.428951546402" flag="0"/>
			<psa03 value="1.17798320227" flag="0"/>
			<psa10 value="0.65217000306" flag="0"/>
			<psa30 value="0.0826878043277" flag="0"/>
		</comp>
	</station>
	<station code="GBP" name="GBP" netid="IT" source="Italian Strong Motion Network (RAN)" insttype="" lat="43.31381" lon="12.58949">
		<comp name="00.HGE" depth="0.0">
			<acc value="1.05538518767" flag="0"/>
			<vel value="1.13860732541" flag="0"/>
			<psa03 value="2.86898205598" flag="0"/>
			<psa10 value="1.62322705083" flag="0"/>
			<psa30 value="0.339299410254" flag="0"/>
		</comp>
		<comp name="00.HGN" depth="0.0">
			<acc value="1.26067879099" flag="0"/>
			<vel value="1.52507380045" flag="0"/>
			<psa03 value="2.64758872309" flag="0"/>
			<psa10 value="2.81789059142" flag="0"/>
			<psa30 value="0.488214635156" flag="0"/>
		</comp>
		<comp name="00.HGZ" depth="0.0">
			<acc value="0.606690855374" flag="0"/>
			<vel value="0.97825884153" flag="0"/>
			<psa03 value="1.0046420526" flag="0"/>
			<psa10 value="1.56604266264" flag="0"/>
			<psa30 value="0.179591217037" flag="0"/>
		</comp>
	</station>
	<station code="GLT" name="GLT" netid="IT" source="Italian Strong Motion Network (RAN)" insttype="" lat="43.233101" lon="12.789001">
		<comp name="00.HNE" depth="0.0">
			<acc value="0.488566223997" flag="0"/>
			<vel value="0.645760486182" flag="0"/>
			<psa03 value="1.02578036958" flag="0"/>
			<psa10 value="1.55031610083" flag="0"/>
			<psa30 value="0.0936440034558" flag="0"/>
		</comp>
		<comp name="00.HNN" depth="0.0">
			<acc value="0.270888088603" flag="0"/>
			<vel value="0.295020487619" flag="0"/>
			<psa03 value="0.601155115242" flag="0"/>
			<psa10 value="0.670095950566" flag="0"/>
			<psa30 value="0.0477652008766" flag="0"/>
		</comp>
		<comp name="00.HNZ" depth="0.0">
			<acc value="0.248414557007" flag="0"/>
			<vel value="0.27245639967" flag="0"/>
			<psa03 value="0.700422399549" flag="0"/>
			<psa10 value="0.661694193992" flag="0"/>
			<psa30 value="0.0720501529691" flag="0"/>
		</comp>
	</station>
	<station code="MCT" name="MCT" netid="IT" source="Italian Strong Motion Network (RAN)" insttype="" lat="43.292511" lon="13.418895">
		<comp name="00.HNE" depth="0.0">
			<acc value="1.28355074642" flag="0"/>
			<vel value="0.855473872295" flag="0"/>
			<psa03 value="3.35768809702" flag="0"/>
			<psa10 value="0.967985864314" flag="0"/>
			<psa30 value="0.353225372781" flag="0"/>
		</comp>
		<comp name="00.HNN" depth="0.0">
			<acc value="1.22165744524" flag="0"/>
			<vel value="0.797964522757" flag="0"/>
			<psa03 value="3.90737384434" flag="0"/>
			<psa10 value="0.886083438678" flag="0"/>
			<psa30 value="0.3329574968" flag="0"/>
		</comp>
		<comp name="00.HNZ" depth="0.0">
			<acc value="0.596713508664" flag="0"/>
			<vel value="0.498452859882" flag="0"/>
			<psa03 value="2.03090770434" flag="0"/>
			<psa10 value="0.342073990723" flag="0"/>
			<psa30 value="0.355575688477" flag="0"/>
		</comp>
	</station>
	<station code="MTL" name="MTL" netid="IT" source="Italian Strong Motion Network (RAN)" insttype="" lat="43.249435" lon="13.008338">
		<comp name="00.HGE" depth="0.0">
			<acc value="1.28422221894" flag="0"/>
			<vel value="0.852610002172" flag="0"/>
			<psa03 value="2.97676086246" flag="0"/>
			<psa10 value="1.47160144637" flag="0"/>
			<psa30 value="0.188201134068" flag="0"/>
		</comp>
		<comp name="00.HGN" depth="0.0">
			<acc value="0.952024510038" flag="0"/>
			<vel value="0.900500248587" flag="0"/>
			<psa03 value="2.87863102851" flag="0"/>
			<psa10 value="1.05029925717" flag="0"/>
			<psa30 value="0.228817531372" flag="0"/>
		</comp>
		<comp name="00.HGZ" depth="0.0">
			<acc value="0.437508636582" flag="0"/>
			<vel value="0.562946204357" flag="0"/>
			<psa03 value="0.996240329368" flag="0"/>
			<psa10 value="0.587635367961" flag="0"/>
			<psa30 value="0.278917703596" flag="0"/>
		</comp>
	</station>
	<station code="PIBC" name="PIBC" netid="IT" source="Italian Strong Motion Network (RAN)" insttype="" lat="43.587799" lon="12.5135">
		<comp name="00.HNE" depth="0.0">
			<acc value="0.625641734377" flag="0"/>
			<vel value="0.346012499203" flag="0"/>
			<psa03 value="1.42779025076" flag="0"/>
			<psa10 value="0.256371153331" flag="0"/>
			<psa30 value="0.0227236419964" flag="0"/>
		</comp>
		<comp name="00.HNN" depth="0.0">
			<acc value="0.681389680873" flag="0"/>
			<vel value="0.32937283358" flag="0"/>
			<psa03 value="2.03768498663" flag="0"/>
			<psa10 value="0.235034414876" flag="0"/>
			<psa30 value="0.0315429228972" flag="0"/>
		</comp>
		<comp name="00.HNZ" depth="0.0">
			<acc value="0.434255082748" flag="0"/>
			<vel value="0.299676899085" flag="0"/>
			<psa03 value="1.47602944638" flag="0"/>
			<psa10 value="0.351618853023" flag="0"/>
			<psa30 value="0.0261371281231" flag="0"/>
		</comp>
	</station>
	<station code="PTL" name="PTL" netid="IT" source="Italian Strong Motion Network (RAN)" insttype="" lat="43.427334" lon="12.448597">
		<comp name="00.HGE" depth="0.0">
			<acc value="0.930462359245" flag="0"/>
			<vel value="0.611654532997" flag="0"/>
			<psa03 value="1.97907027036" flag="0"/>
			<psa10 value="1.10168846146" flag="0"/>
			<psa30 value="0.0666826440646" flag="0"/>
		</comp>
		<comp name="00.HGN" depth="0.0">
			<acc value="0.604548828492" flag="0"/>
			<vel value="0.577783105851" flag="0"/>
			<psa03 value="1.18945821244" flag="0"/>
			<psa10 value="0.942188355356" flag="0"/>
			<psa30 value="0.0643052999106" flag="0"/>
		</comp>
		<comp name="00.HGZ" depth="0.0">
			<acc value="0.487490329255" flag="0"/>
			<vel value="0.539339901782" flag="0"/>
			<psa03 value="0.857297708432" flag="0"/>
			<psa10 value="0.680651429818" flag="0"/>
			<psa30 value="0.0524634454457" flag="0"/>
		</comp>
	</station>
	<station code="RIM" name="RIM" netid="IT" source="Italian Strong Motion Network (RAN)" insttype="" lat="44.005657" lon="12.485725">
		<comp name="00.HNE" depth="0.0">
			<acc value="1.05548344545" flag="0"/>
			<vel value="0.741980786155" flag="0"/>
			<psa03 value="2.14926104466" flag="0"/>
			<psa10 value="1.07225627171" flag="0"/>
			<psa30 value="0.14232102807" flag="0"/>
		</comp>
		<comp name="00.HNN" depth="0.0">
			<acc value="1.03847634287" flag="0"/>
			<vel value="0.76796019911" flag="0"/>
			<psa03 value="2.78105756475" flag="0"/>
			<psa10 value="1.82602872544" flag="0"/>
			<psa30 value="0.118453833652" flag="0"/>
		</comp>
		<comp name="00.HNZ" depth="0.0">
			<acc value="0.537455036801" flag="0"/>
			<vel value="0.31284009957" flag="0"/>
			<psa03 value="1.09410697922" flag="0"/>
			<psa10 value="0.408368182387" flag="0"/>
			<psa30 value="0.0935125614151" flag="0"/>
		</comp>
	</station>
	<station code="SIG" name="SIG" netid="IT" source="Italian Strong Motion Network (RAN)" insttype="" lat="43.330799" lon="12.7408">
		<comp name="00.HNE" depth="0.0">
			<acc value="0.599180430986" flag="0"/>
			<vel value="0.445399132704" flag="0"/>
			<psa03 value="1.65611770967" flag="0"/>
			<psa10 value="0.606276262826" flag="0"/>
			<psa30 value="0.0581963885586" flag="0"/>
		</comp>
		<comp name="00.HNN" depth="0.0">
			<acc value="0.735650609004" flag="0"/>
			<vel value="0.46715495285" flag="0"/>
			<psa03 value="2.3321214916" flag="0"/>
			<psa10 value="0.516552619077" flag="0"/>
			<psa30 value="0.0708874759473" flag="0"/>
		</comp>
		<comp name="00.HNZ" depth="0.0">
			<acc value="0.517851194796" flag="0"/>
			<vel value="0.415456834787" flag="0"/>
			<psa03 value="1.81444836497" flag="0"/>
			<psa10 value="0.554668824089" flag="0"/>
			<psa30 value="0.0688436005505" flag="0"/>
		</comp>
	</station>
	<station code="SLD" name="SLD" netid="IT" source="Italian Strong Motion Network (RAN)" insttype="" lat="43.873901" lon="12.6739">
		<comp name="00.HGE" depth="0.0">
			<acc value="2.67397848276" flag="0"/>
			<vel value="1.48361786939" flag="0"/>
			<psa03 value="5.20714328101" flag="0"/>
			<psa10 value="1.45455791732" flag="0"/>
			<psa30 value="0.185223270133" flag="0"/>
		</comp>
		<comp name="00.HGN" depth="0.0">
			<acc value="3.5114295642" flag="0"/>
			<vel value="1.69710911684" flag="0"/>
			<psa03 value="4.34957047103" flag="0"/>
			<psa10 value="1.87184332043" flag="0"/>
			<psa30 value="0.233084614045" flag="0"/>
		</comp>
		<comp name="00.HGZ" depth="0.0">
			<acc value="1.13474199619" flag="0"/>
			<vel value="0.75026499974" flag="0"/>
			<psa03 value="2.659799532" flag="0"/>
			<psa10 value="0.822631395294" flag="0"/>
			<psa30 value="0.177793391273" flag="0"/>
		</comp>
	</station>
	<station code="SNG" name="SNG" netid="IT" source="Italian Strong Motion Network (RAN)" insttype="" lat="43.68558" lon="13.226162">
		<comp name="00.HGE" depth="0.0">
			<acc value="13.2923546986" flag="0"/>
			<vel value="9.01423980203" flag="0"/>
			<psa03 value="36.014612458" flag="0"/>
			<psa10 value="9.88775741538" flag="0"/>
			<psa30 value="1.81804278308" flag="0"/>
		</comp>
		<comp name="00.HGN" depth="0.0">
			<acc value="10.8680527888" flag="0"/>
			<vel value="7.88994952049" flag="0"/>
			<psa03 value="30.1718760721" flag="0"/>
			<psa10 value="12.6538139331" flag="0"/>
			<psa30 value="2.00329004147" flag="0"/>
		</comp>
		<comp name="00.HGZ" depth="0.0">
			<acc value="5.59630246687" flag="0"/>
			<vel value="2.92760435496" flag="0"/>
			<psa03 value="12.0553452741" flag="0"/>
			<psa10 value="1.9595368497" flag="0"/>
			<psa30 value="0.961271252837" flag="0"/>
		</comp>
	</station>
	<station code="SNM" name="SNM" netid="IT" source="Italian Strong Motion Network (RAN)" insttype="" lat="43.934326" lon="12.44929">
		<comp name="00.HGE" depth="0.0">
			<acc value="0.354154001603" flag="0"/>
			<vel value="0.408078831955" flag="0"/>
			<psa03 value="0.539838428313" flag="0"/>
			<psa10 value="0.633703419741" flag="0"/>
			<psa30 value="0.113074970662" flag="0"/>
		</comp>
		<comp name="00.HGN" depth="0.0">
			<acc value="0.201057846402" flag="0"/>
			<vel value="0.542040563646" flag="0"/>
			<psa03 value="0.532496316935" flag="0"/>
			<psa10 value="0.588574910197" flag="0"/>
			<psa30 value="0.154097834892" flag="0"/>
		</comp>
		<comp name="00.HGZ" depth="0.0">
			<acc value="0.153226614886" flag="0"/>
			<vel value="0.23743979942" flag="0"/>
			<psa03 value="0.343383184951" flag="0"/>
			<psa10 value="0.263670636885" flag="0"/>
			<psa30 value="0.0580082894312" flag="0"/>
		</comp>
	</station>
	<station code="TLN" name="TLN" netid="IT" source="Italian Strong Motion Network (RAN)" insttype="" lat="43.215904" lon="13.25838">
		<comp name="00.HNE" depth="0.0">
			<acc value="0.928801118528" flag="0"/>
			<vel value="0.733586157306" flag="0"/>
			<psa03 value="2.31318707062" flag="0"/>
			<psa10 value="0.70955522455" flag="0"/>
			<psa30 value="0.247387534877" flag="0"/>
		</comp>
		<comp name="00.HNN" depth="0.0">
			<acc value="0.654248416732" flag="0"/>
			<vel value="0.564618013037" flag="0"/>
			<psa03 value="1.64901223897" flag="0"/>
			<psa10 value="0.613529903344" flag="0"/>
			<psa30 value="0.194547914511" flag="0"/>
		</comp>
		<comp name="00.HNZ" depth="0.0">
			<acc value="0.536722038711" flag="0"/>
			<vel value="0.302320726986" flag="0"/>
			<psa03 value="0.832174377467" flag="0"/>
			<psa10 value="0.356445242748" flag="0"/>
			<psa30 value="0.166176875069" flag="0"/>
		</comp>
	</station>
	<station code="URBN" name="URBN" netid="IT" source="Italian Strong Motion Network (RAN)" insttype="" lat="43.6708984375" lon="12.518699646">
		<comp name="00.HNE" depth="0.0">
			<acc value="0.965359764798" flag="0"/>
			<vel value="0.620088461232" flag="0"/>
			<psa03 value="2.04500397148" flag="0"/>
			<psa10 value="0.691387161007" flag="0"/>
			<psa30 value="0.0955894656663" flag="0"/>
		</comp>
		<comp name="00.HNN" depth="0.0">
			<acc value="0.849287860183" flag="0"/>
			<vel value="0.524805839761" flag="0"/>
			<psa03 value="2.55274694029" flag="0"/>
			<psa10 value="0.65814777906" flag="0"/>
			<psa30 value="0.0698041175134" flag="0"/>
		</comp>
		<comp name="00.HNZ" depth="0.0">
			<acc value="0.448504234535" flag="0"/>
			<vel value="0.361640685127" flag="0"/>
			<psa03 value="1.13384977865" flag="0"/>
			<psa10 value="0.678333236248" flag="0"/>
			<psa30 value="0.0471232716854" flag="0"/>
		</comp>
	</station>
	<station code="APEC" name="APEC" netid="IV" source="Italian National Seismic Network (INSN)" insttype="" lat="43.55846" lon="12.41991">
		<comp name=".HNE" depth="0.0">
			<acc value="0.596006432901" flag="0"/>
			<vel value="0.40512253849" flag="0"/>
			<psa03 value="1.63987980066" flag="0"/>
			<psa10 value="0.588695038156" flag="0"/>
			<psa30 value="0.0429741034901" flag="0"/>
		</comp>
		<comp name=".HNN" depth="0.0">
			<acc value="0.666347496674" flag="0"/>
			<vel value="0.572362862304" flag="0"/>
			<psa03 value="1.57821021535" flag="0"/>
