<?xml version="1.0" encoding="UTF-8" standalone="yes"?>
<!DOCTYPE earthquake SYSTEM "stationlist.dtd">
<stationlist created="" xmlns="ch.ethz.sed.shakemap.usgs.xml">
  <station code="ZKR" name="ZKR" netid="GE" insttype="STS-2/N" lat="35.1147" lon="26.2169">
    <comp name="--.HHN">
      <acc value="0.0061625254" flag="0"/>
      <vel value="0.0025147703" flag="0"/>
      <psa03 value="0.0199736113" flag="0"/>
      <psa10 value="0.0017505167" flag="0"/>
      <psa30 value="0.0001333614" flag="0"/>
    </comp>
    <comp name="--.HHZ">
      <acc value="0.0040657705" flag="0"/>
      <vel value="0.0022686081" flag="0"/>
      <psa03 value="0.0107806963" flag="0"/>
      <psa10 value="0.0018374933" flag="0"/>
      <psa30 value="0.0001985717" flag="0"/>
    </comp>
    <comp name="--.HHE">
      <acc value="0.0077691141" flag="0"/>
      <vel value="0.0033728871" flag="0"/>
      <psa03 value="0.0257651172" flag="0"/>
      <psa10 value="0.0032058006" flag="0"/>
      <psa30 value="0.0002741066" flag="0"/>
    </comp>
  </station>
  <station code="STIA" name="STIA" netid="HC" insttype="120" lat="35.2021" lon="26.0909">
    <comp name="--.HHN">
      <acc value="0.0063069475" flag="0"/>
      <vel value="0.0037389217" flag="0"/>
      <psa03 value="0.0112719609" flag="0"/>
      <psa10 value="0.0038279554" flag="0"/>
      <psa30 value="0.0002500237" flag="0"/>
    </comp>
    <comp name="--.HHZ">
      <acc value="0.0052321724" flag="0"/>
      <vel value="0.0024533927" flag="0"/>
      <psa03 value="0.0096775393" flag="0"/>
      <psa10 value="0.0020515494" flag="0"/>
      <psa30 value="0.0001482555" flag="0"/>
    </comp>
    <comp name="--.HHE">
      <acc value="0.0055178799" flag="0"/>
      <vel value="0.0040358161" flag="0"/>
      <psa03 value="0.0121702038" flag="0"/>
      <psa10 value="0.0063449217" flag="0"/>
      <psa30 value="0.0002447385" flag="0"/>
    </comp>
  </station>
  <station code="SIT2" name="SIT2" netid="HI" insttype="CMG-5TD,ACCELEROMETER,GURALP" lat="35.2059" lon="26.107">
    <comp name="--.HNE">
      <acc value="0.0197946552" flag="0"/>
      <vel value="0.0147041572" flag="0"/>
      <psa03 value="0.0486896966" flag="0"/>
      <psa10 value="0.0070283211" flag="0"/>
      <psa30 value="0.0005210626" flag="0"/>
    </comp>
    <comp name="--.HNZ">
      <acc value="0.0102719482" flag="0"/>
      <vel value="0.0033213215" flag="0"/>
      <psa03 value="0.0158816197" flag="0"/>
      <psa10 value="0.0018915960" flag="0"/>
      <psa30 value="0.0001808447" flag="0"/>
    </comp>
    <comp name="--.HNN">
      <acc value="0.0183651413" flag="0"/>
      <vel value="0.0127816814" flag="0"/>
      <psa03 value="0.0640861544" flag="0"/>
      <psa10 value="0.0080114111" flag="0"/>
      <psa30 value="0.0006128503" flag="0"/>
    </comp>
  </station>
  <station code="SIVA" name="SIVA" netid="HL" insttype="60" lat="35.0178" lon="24.812">
    <comp name="--.HHE">
      <acc value="0.0102387771" flag="0"/>
      <vel value="0.0077018556" flag="0"/>
      <psa03 value="0.0324141745" flag="0"/>
      <psa10 value="0.0107324813" flag="0"/>
      <psa30 value="0.0004379384" flag="0"/>
    </comp>
    <comp name="--.HHZ">
      <acc value="0.0045666138" flag="0"/>
      <vel value="0.0032949625" flag="0"/>
      <psa03 value="0.0114499106" flag="0"/>
      <psa10 value="0.0034959891" flag="0"/>
      <psa30 value="0.0002328888" flag="0"/>
    </comp>
    <comp name="--.HHN">
      <acc value="0.0069045961" flag="0"/>
      <vel value="0.0057372274" flag="0"/>
      <psa03 value="0.0131275196" flag="0"/>
      <psa10 value="0.0096681764" flag="0"/>
      <psa30 value="0.0003717065" flag="0"/>
    </comp>
  </station>
  <station code="ZKR" name="ZKR" netid="HL" insttype="120" lat="35.1147" lon="26.2169">
    <comp name="--.HHE">
      <acc value="0.0076034127" flag="0"/>
      <vel value="0.0032802428" flag="0"/>
      <psa03 value="0.0250502193" flag="0"/>
      <psa10 value="0.0031773895" flag="0"/>
      <psa30 value="0.0002729696" flag="0"/>
    </comp>
    <comp name="--.HHN">
      <acc value="0.0060161706" flag="0"/>
      <vel value="0.0024472898" flag="0"/>
      <psa03 value="0.0194303762" flag="0"/>
      <psa10 value="0.0017367627" flag="0"/>
      <psa30 value="0.0001331668" flag="0"/>
    </comp>
    <comp name="--.HHZ">
      <acc value="0.0040044221" flag="0"/>
      <vel value="0.0022116224" flag="0"/>
      <psa03 value="0.0104618361" flag="0"/>
      <psa10 value="0.0018282062" flag="0"/>
      <psa30 value="0.0001981007" flag="0"/>
    </comp>
  </station>
</stationlist>
