<?xml version="1.0" encoding="UTF-8" standalone="yes"?>
<!DOCTYPE earthquake SYSTEM "stationlist.dtd">
<stationlist created="" xmlns="ch.ethz.sed.shakemap.usgs.xml">
  <station code="SILAM" name="SILAM" netid="BS" insttype="200" lat="44.1046" lon="27.2665">
    <comp name="--.HNE">
      <acc value="0.2310530114" flag="0"/>
      <vel value="0.1186286890" flag="0"/>
      <psa03 value="1.1294202756" flag="0"/>
      <psa10 value="0.0638011105" flag="0"/>
      <psa30 value="0.0057394457" flag="0"/>
    </comp>
    <comp name="--.HNN">
      <acc value="0.3250849590" flag="0"/>
      <vel value="0.1226943066" flag="0"/>
      <psa03 value="1.2353701594" flag="0"/>
      <psa10 value="0.0292984820" flag="0"/>
      <psa30 value="0.0050741597" flag="0"/>
    </comp>
    <comp name="--.HNZ">
      <acc value="0.3900676556" flag="0"/>
      <vel value="0.0695761997" flag="0"/>
      <psa03 value="0.3025173813" flag="0"/>
      <psa10 value="0.0125132941" flag="0"/>
      <psa30 value="0.0014979181" flag="0"/>
    </comp>
  </station>
  <station code="AMRR" name="AMRR" netid="RO" insttype="330" lat="44.6102" lon="27.3351">
    <comp name="--.HHE">
      <acc value="0.7554823624" flag="0"/>
      <vel value="0.2771463134" flag="0"/>
      <psa03 value="1.2078498217" flag="0"/>
      <psa10 value="0.1042781491" flag="0"/>
      <psa30 value="0.0105125143" flag="0"/>
    </comp>
    <comp name="--.HHN">
      <acc value="0.4632441530" flag="0"/>
      <vel value="0.1671613011" flag="0"/>
      <psa03 value="0.7065161907" flag="0"/>
      <psa10 value="0.0954879725" flag="0"/>
      <psa30 value="0.0096882365" flag="0"/>
    </comp>
    <comp name="--.HHZ">
      <acc value="0.4092751801" flag="0"/>
      <vel value="0.0988037576" flag="0"/>
      <psa03 value="0.3913611199" flag="0"/>
      <psa10 value="0.0297505439" flag="0"/>
      <psa30 value="0.0039683410" flag="0"/>
    </comp>
  </station>
  <station code="ARR" name="ARR" netid="RO" insttype="w/attenuator" lat="45.3657" lon="24.6332">
    <comp name="--.HHN">
      <acc value="0.0720821962" flag="0"/>
      <vel value="0.0345548711" flag="0"/>
      <psa03 value="0.1939329861" flag="0"/>
      <psa10 value="0.0159981038" flag="0"/>
      <psa30 value="0.0047162894" flag="0"/>
    </comp>
    <comp name="--.HHZ">
      <acc value="0.1304926218" flag="0"/>
      <vel value="0.0375642049" flag="0"/>
      <psa03 value="0.2056280789" flag="0"/>
      <psa10 value="0.0108066318" flag="0"/>
      <psa30 value="0.0025785626" flag="0"/>
    </comp>
  </station>
  <station code="BAC" name="BAC" netid="RO" insttype="2.5V" lat="46.5669" lon="26.9124">
    <comp name="--.HNN">
      <acc value="0.2652264912" flag="0"/>
      <vel value="0.1270156715" flag="0"/>
      <psa03 value="0.9055581839" flag="0"/>
      <psa10 value="0.0583483290" flag="0"/>
      <psa30 value="0.0107038181" flag="0"/>
    </comp>
    <comp name="--.HNE">
      <acc value="0.3759509693" flag="0"/>
      <vel value="0.1651297769" flag="0"/>
      <psa03 value="0.7184710636" flag="0"/>
      <psa10 value="0.1119470936" flag="0"/>
      <psa30 value="0.0103578442" flag="0"/>
    </comp>
    <comp name="--.HNZ">
      <acc value="0.3021564370" flag="0"/>
      <vel value="0.0492158511" flag="0"/>
      <psa03 value="0.2452401457" flag="0"/>
      <psa10 value="0.0420565977" flag="0"/>
      <psa30 value="0.0026373703" flag="0"/>
    </comp>
  </station>
  <station code="BAPR" name="BAPR" netid="RO" insttype="2.5V" lat="44.4059" lon="26.119">
    <comp name="--.HNE">
      <acc value="0.9032890585" flag="0"/>
      <vel value="0.5187449361" flag="0"/>
      <psa03 value="3.5862838552" flag="0"/>
      <psa10 value="0.2251305036" flag="0"/>
      <psa30 value="0.0216540524" flag="0"/>
    </comp>
    <comp name="--.HNN">
      <acc value="0.6308990114" flag="0"/>
      <vel value="0.1885465677" flag="0"/>
      <psa03 value="1.5038497945" flag="0"/>
      <psa10 value="0.1281182821" flag="0"/>
      <psa30 value="0.0133924216" flag="0"/>
    </comp>
    <comp name="--.HNZ">
      <acc value="0.3921980724" flag="0"/>
      <vel value="0.1271322974" flag="0"/>
      <psa03 value="1.0486853240" flag="0"/>
      <psa10 value="0.0388481619" flag="0"/>
      <psa30 value="0.0045418765" flag="0"/>
    </comp>
  </station>
  <station code="BIR" name="BIR" netid="RO" insttype="MBB2/Quanterra" lat="46.2334" lon="27.6436">
    <comp name="--.HHZ">
      <acc value="0.7263570715" flag="0"/>
      <vel value="0.2622757258" flag="0"/>
      <psa03 value="2.1831971243" flag="0"/>
      <psa10 value="0.0534343364" flag="0"/>
      <psa30 value="0.0071221307" flag="0"/>
    </comp>
  </station>
  <station code="BISRR" name="BISRR" netid="RO" insttype="200" lat="45.5481" lon="26.7099">
    <comp name="--.HNE">
      <acc value="0.5744351643" flag="0"/>
      <vel value="0.2420783613" flag="0"/>
      <psa03 value="1.1446167288" flag="0"/>
      <psa10 value="0.1674679752" flag="0"/>
      <psa30 value="0.0182562985" flag="0"/>
    </comp>
    <comp name="--.HNZ">
      <acc value="0.3192812370" flag="0"/>
      <vel value="0.1392636762" flag="0"/>
      <psa03 value="0.6033965944" flag="0"/>
      <psa10 value="0.1247844621" flag="0"/>
      <psa30 value="0.0086904672" flag="0"/>
    </comp>
    <comp name="--.HNN">
      <acc value="0.3805098173" flag="0"/>
      <vel value="0.2458475855" flag="0"/>
      <psa03 value="1.1136915220" flag="0"/>
      <psa10 value="0.1923240421" flag="0"/>
      <psa30 value="0.0150645385" flag="0"/>
    </comp>
  </station>
  <station code="BIZ" name="BIZ" netid="RO" insttype="PBB.1to100/Quanterra" lat="46.9387" lon="26.1029">
    <comp name="--.HHZ">
      <acc value="0.0226929552" flag="0"/>
      <vel value="0.0174280421" flag="0"/>
      <psa03 value="0.0769251383" flag="0"/>
      <psa10 value="0.0238438069" flag="0"/>
      <psa30 value="0.0053815043" flag="0"/>
    </comp>
    <comp name="--.HHE">
      <acc value="0.0373907875" flag="0"/>
      <vel value="0.0693333231" flag="0"/>
      <psa03 value="0.0640399352" flag="0"/>
      <psa10 value="0.0811703209" flag="0"/>
      <psa30 value="0.0149702015" flag="0"/>
    </comp>
    <comp name="--.HHN">
      <acc value="0.0338884521" flag="0"/>
      <vel value="0.0334649052" flag="0"/>
      <psa03 value="0.0744173357" flag="0"/>
      <psa10 value="0.0621864863" flag="0"/>
      <psa30 value="0.0107683483" flag="0"/>
    </comp>
  </station>
  <station code="BOSR" name="BOSR" netid="RO" insttype="Seismometer/Basalt" lat="46.0749" lon="25.6611">
    <comp name="--.HHE">
      <acc value="0.2159332857" flag="0"/>
      <vel value="0.1149441921" flag="0"/>
      <psa03 value="0.4197692423" flag="0"/>
      <psa10 value="0.1597241325" flag="0"/>
      <psa30 value="0.0163244805" flag="0"/>
    </comp>
    <comp name="--.HHN">
      <acc value="0.2636434693" flag="0"/>
      <vel value="0.1278190180" flag="0"/>
      <psa03 value="0.3561581046" flag="0"/>
      <psa10 value="0.0872610124" flag="0"/>
      <psa30 value="0.0132608896" flag="0"/>
    </comp>
    <comp name="--.HHZ">
      <acc value="0.0898536880" flag="0"/>
      <vel value="0.0524398573" flag="0"/>
      <psa03 value="0.1974226175" flag="0"/>
      <psa10 value="0.0401574787" flag="0"/>
      <psa30 value="0.0067547487" flag="0"/>
    </comp>
  </station>
  <station code="BSTR" name="BSTR" netid="RO" insttype="2.5V" lat="44.4458" lon="26.0984">
    <comp name="--.HNZ">
      <acc value="0.2769841552" flag="0"/>
      <vel value="0.0793762296" flag="0"/>
      <psa03 value="0.5150575467" flag="0"/>
      <psa10 value="0.0347959778" flag="0"/>
      <psa30 value="0.0035190739" flag="0"/>
    </comp>
    <comp name="--.HNE">
      <acc value="0.7325981763" flag="0"/>
      <vel value="0.3038013902" flag="0"/>
      <psa03 value="1.3093523780" flag="0"/>
      <psa10 value="0.1328038374" flag="0"/>
      <psa30 value="0.0173830761" flag="0"/>
    </comp>
    <comp name="--.HNN">
      <acc value="0.3846810265" flag="0"/>
      <vel value="0.1757262878" flag="0"/>
      <psa03 value="0.9435776039" flag="0"/>
      <psa10 value="0.1240076283" flag="0"/>
      <psa30 value="0.0142256613" flag="0"/>
    </comp>
  </station>
  <station code="BTMR" name="BTMR" netid="RO" insttype="2.5V" lat="44.437" lon="26.1067">
    <comp name="--.HNE">
      <acc value="0.7226690272" flag="0"/>
      <vel value="0.3675553869" flag="0"/>
      <psa03 value="2.5337728281" flag="0"/>
      <psa10 value="0.1524717186" flag="0"/>
      <psa30 value="0.0164804580" flag="0"/>
    </comp>
    <comp name="--.HNN">
      <acc value="0.5284079045" flag="0"/>
      <vel value="0.1644596798" flag="0"/>
      <psa03 value="1.0653656793" flag="0"/>
      <psa10 value="0.1100843425" flag="0"/>
      <psa30 value="0.0149153272" flag="0"/>
    </comp>
    <comp name="--.HNZ">
      <acc value="0.5985339571" flag="0"/>
      <vel value="0.1197382329" flag="0"/>
      <psa03 value="0.6587614506" flag="0"/>
      <psa10 value="0.0302136916" flag="0"/>
      <psa30 value="0.0041831762" flag="0"/>
    </comp>
  </station>
  <station code="BUC" name="BUC" netid="RO" insttype="200" lat="44.4107" lon="26.0938">
    <comp name="--.HNE">
      <acc value="1.2342819651" flag="0"/>
      <vel value="0.6880231651" flag="0"/>
      <psa03 value="4.4623237372" flag="0"/>
      <psa10 value="0.2259327488" flag="0"/>
      <psa30 value="0.0214015963" flag="0"/>
    </comp>
    <comp name="--.HNN">
      <acc value="0.5801960995" flag="0"/>
      <vel value="0.1957393205" flag="0"/>
      <psa03 value="1.7390587882" flag="0"/>
      <psa10 value="0.0959903565" flag="0"/>
      <psa30 value="0.0170183246" flag="0"/>
    </comp>
  </station>
  <station code="BUC1" name="BUC1" netid="RO" insttype="2.5V" lat="44.3479" lon="26.0281">
    <comp name="--.HNZ">
      <acc value="0.5365537151" flag="0"/>
      <vel value="0.1189108487" flag="0"/>
      <psa03 value="0.5744210848" flag="0"/>
      <psa10 value="0.0571921557" flag="0"/>
      <psa30 value="0.0035102252" flag="0"/>
    </comp>
  </station>
  <station code="CFR" name="CFR" netid="RO" insttype="CMG3T_100sec/Quanterra" lat="45.178" lon="28.1362">
    <comp name="--.HHE">
      <acc value="0.9460174806" flag="0"/>
      <vel value="0.3288585361" flag="0"/>
      <psa03 value="1.7068188105" flag="0"/>
      <psa10 value="0.0726724940" flag="0"/>
      <psa30 value="0.0118534111" flag="0"/>
    </comp>
    <comp name="--.HHN">
      <acc value="0.9759279999" flag="0"/>
      <vel value="0.2479736506" flag="0"/>
      <psa03 value="1.0076626952" flag="0"/>
      <psa10 value="0.0363535898" flag="0"/>
      <psa30 value="0.0051608742" flag="0"/>
    </comp>
    <comp name="--.HHZ">
      <acc value="0.4285810145" flag="0"/>
      <vel value="0.1116473681" flag="0"/>
      <psa03 value="0.6835908800" flag="0"/>
      <psa10 value="0.0391895610" flag="0"/>
      <psa30 value="0.0066311745" flag="0"/>
    </comp>
  </station>
  <station code="CICN" name="CICN" netid="RO" insttype="Seismometer/Basalt" lat="44.197" lon="27.0261">
    <comp name="--.HHE">
      <acc value="0.4144326455" flag="0"/>
      <vel value="0.2600196309" flag="0"/>
      <psa03 value="0.8447184854" flag="0"/>
      <psa10 value="0.1263447604" flag="0"/>
      <psa30 value="0.0130969773" flag="0"/>
    </comp>
    <comp name="--.HHN">
      <acc value="0.2224473944" flag="0"/>
      <vel value="0.1138951657" flag="0"/>
      <psa03 value="0.5544244019" flag="0"/>
      <psa10 value="0.0569091544" flag="0"/>
      <psa30 value="0.0057118955" flag="0"/>
    </comp>
    <comp name="--.HHZ">
      <acc value="0.2229756148" flag="0"/>
      <vel value="0.1141888713" flag="0"/>
      <psa03 value="0.5536737714" flag="0"/>
      <psa10 value="0.0568654702" flag="0"/>
      <psa30 value="0.0057215905" flag="0"/>
    </comp>
  </station>
  <station code="CIOR" name="CIOR" netid="RO" insttype="200" lat="44.4489" lon="25.8799">
    <comp name="--.HNN">
      <acc value="0.9565479584" flag="0"/>
      <vel value="0.3555874179" flag="0"/>
      <psa03 value="1.2108504345" flag="0"/>
      <psa10 value="0.2320004560" flag="0"/>
      <psa30 value="0.0233872210" flag="0"/>
    </comp>
    <comp name="--.HNZ">
      <acc value="0.4055046533" flag="0"/>
      <vel value="0.1158709766" flag="0"/>
      <psa03 value="0.7611238763" flag="0"/>
      <psa10 value="0.0445858822" flag="0"/>
      <psa30 value="0.0048770070" flag="0"/>
    </comp>
    <comp name="--.HNE">
      <acc value="1.9538495031" flag="0"/>
      <vel value="0.6966498098" flag="0"/>
      <psa03 value="4.1687174779" flag="0"/>
      <psa10 value="0.2578605886" flag="0"/>
      <psa30 value="0.0256870167" flag="0"/>
    </comp>
  </station>
  <station code="CLISU" name="CLISU" netid="RO" insttype="200" lat="44.1901" lon="27.3557">
    <comp name="--.HNE">
      <acc value="0.3238145861" flag="0"/>
      <vel value="0.2404446852" flag="0"/>
      <psa03 value="1.1897413470" flag="0"/>
      <psa10 value="0.1112879492" flag="0"/>
      <psa30 value="0.0100185009" flag="0"/>
    </comp>
    <comp name="--.HNZ">
      <acc value="0.3178269049" flag="0"/>
      <vel value="0.1031375443" flag="0"/>
      <psa03 value="0.4861686641" flag="0"/>
      <psa10 value="0.0278055882" flag="0"/>
      <psa30 value="0.0027391968" flag="0"/>
    </comp>
    <comp name="--.HNN">
      <acc value="0.2690210993" flag="0"/>
      <vel value="0.1762971186" flag="0"/>
      <psa03 value="0.9723601155" flag="0"/>
      <psa10 value="0.0806160895" flag="0"/>
      <psa30 value="0.0095533120" flag="0"/>
    </comp>
  </station>
  <station code="COPR" name="COPR" netid="RO" insttype="200" lat="45.8442" lon="26.1687">
    <comp name="--.HNE">
      <acc value="0.6337855836" flag="0"/>
      <vel value="0.4400731990" flag="0"/>
      <psa03 value="1.2418790708" flag="0"/>
      <psa10 value="0.6447073434" flag="0"/>
      <psa30 value="0.0488907196" flag="0"/>
    </comp>
    <comp name="--.HNN">
      <acc value="0.6125697174" flag="0"/>
      <vel value="0.4173854044" flag="0"/>
      <psa03 value="1.1033373859" flag="0"/>
      <psa10 value="0.3102642291" flag="0"/>
      <psa30 value="0.0226629532" flag="0"/>
    </comp>
    <comp name="--.HNZ">
      <acc value="0.2473675128" flag="0"/>
      <vel value="0.2107326872" flag="0"/>
      <psa03 value="0.6657177685" flag="0"/>
      <psa10 value="0.1166569274" flag="0"/>
      <psa30 value="0.0102425346" flag="0"/>
    </comp>
  </station>
  <station code="CVDA" name="CVDA" netid="RO" insttype="200" lat="44.3336" lon="28.0374">
    <comp name="--.HNE">
      <acc value="0.5234788327" flag="0"/>
      <vel value="0.2760334931" flag="0"/>
      <psa03 value="2.2618040385" flag="0"/>
      <psa10 value="0.1117143339" flag="0"/>
      <psa30 value="0.0092723809" flag="0"/>
    </comp>
    <comp name="--.HNZ">
      <acc value="0.3590523296" flag="0"/>
      <vel value="0.1168407126" flag="0"/>
      <psa03 value="0.8411549619" flag="0"/>
      <psa10 value="0.0327687422" flag="0"/>
      <psa30 value="0.0031030659" flag="0"/>
    </comp>
    <comp name="--.HNN">
      <acc value="0.9038002502" flag="0"/>
      <vel value="0.6238372712" flag="0"/>
      <psa03 value="3.5394428598" flag="0"/>
      <psa10 value="0.2722323599" flag="0"/>
      <psa30 value="0.0252872899" flag="0"/>
    </comp>
  </station>
  <station code="DOPR" name="DOPR" netid="RO" insttype="330" lat="45.9675" lon="25.3886">
    <comp name="--.HHE">
      <acc value="0.2160354997" flag="0"/>
      <vel value="0.0790659087" flag="0"/>
      <psa03 value="0.2605122287" flag="0"/>
      <psa10 value="0.0602177952" flag="0"/>
      <psa30 value="0.0137696422" flag="0"/>
    </comp>
    <comp name="--.HHN">
      <acc value="0.1543129521" flag="0"/>
      <vel value="0.0813506399" flag="0"/>
      <psa03 value="0.1982978883" flag="0"/>
      <psa10 value="0.0540738018" flag="0"/>
      <psa30 value="0.0081027031" flag="0"/>
    </comp>
    <comp name="--.HHZ">
      <acc value="0.0621878205" flag="0"/>
      <vel value="0.0332294172" flag="0"/>
      <psa03 value="0.0807884728" flag="0"/>
      <psa10 value="0.0236805618" flag="0"/>
      <psa30 value="0.0063760915" flag="0"/>
    </comp>
  </station>
  <station code="GIRR" name="GIRR" netid="RO" insttype="CMG40T.1to100/Quanterra" lat="46.9551" lon="26.5009">
    <comp name="--.HHE">
      <acc value="0.1465083972" flag="0"/>
      <vel value="0.0408652890" flag="0"/>
      <psa03 value="0.1762714768" flag="0"/>
      <psa10 value="0.0640714849" flag="0"/>
      <psa30 value="0.0041556168" flag="0"/>
    </comp>
    <comp name="--.HHN">
      <acc value="0.1435343898" flag="0"/>
      <vel value="0.0402638359" flag="0"/>
      <psa03 value="0.2503504311" flag="0"/>
      <psa10 value="0.0300957279" flag="0"/>
      <psa30 value="0.0018400840" flag="0"/>
    </comp>
    <comp name="--.HHZ">
      <acc value="0.1042870766" flag="0"/>
      <vel value="0.0127236127" flag="0"/>
      <psa03 value="0.1036269353" flag="0"/>
      <psa10 value="0.0126073547" flag="0"/>
      <psa30 value="0.0006877416" flag="0"/>
    </comp>
  </station>
  <station code="GISR" name="GISR" netid="RO" insttype="2.5V" lat="45.4411" lon="28.0541">
    <comp name="--.HNN">
      <acc value="1.0503505517" flag="0"/>
      <vel value="0.5227485758" flag="0"/>
      <psa03 value="1.5374818941" flag="0"/>
      <psa10 value="0.2375000139" flag="0"/>
      <psa30 value="0.0167801369" flag="0"/>
    </comp>
    <comp name="--.HNE">
      <acc value="0.9875696996" flag="0"/>
      <vel value="0.5062248258" flag="0"/>
      <psa03 value="2.0739649072" flag="0"/>
      <psa10 value="0.2348914703" flag="0"/>
      <psa30 value="0.0476724132" flag="0"/>
    </comp>
    <comp name="--.HNZ">
      <acc value="0.6627783656" flag="0"/>
      <vel value="0.2527976933" flag="0"/>
      <psa03 value="1.4915380668" flag="0"/>
      <psa10 value="0.0914505362" flag="0"/>
      <psa30 value="0.0120375500" flag="0"/>
    </comp>
  </station>
  <station code="GIUM" name="GIUM" netid="RO" insttype="2.5V" lat="45.485" lon="28.2081">
    <comp name="--.HNE">
      <acc value="0.7375800732" flag="0"/>
      <vel value="0.3548296646" flag="0"/>
      <psa03 value="1.1451931534" flag="0"/>
      <psa10 value="0.1305655383" flag="0"/>
      <psa30 value="0.0352269822" flag="0"/>
    </comp>
    <comp name="--.HNN">
      <acc value="0.9094895681" flag="0"/>
      <vel value="0.3401685524" flag="0"/>
      <psa03 value="0.9019863937" flag="0"/>
      <psa10 value="0.1519325501" flag="0"/>
      <psa30 value="0.0233134145" flag="0"/>
    </comp>
    <comp name="--.HNZ">
      <acc value="1.1932500337" flag="0"/>
      <vel value="0.2481919484" flag="0"/>
      <psa03 value="0.6330190693" flag="0"/>
      <psa10 value="0.0573724103" flag="0"/>
      <psa30 value="0.0075166002" flag="0"/>
    </comp>
  </station>
  <station code="GRER" name="GRER" netid="RO" insttype="MBB2/Quanterra" lat="45.3801" lon="26.9747">
    <comp name="--.HHE">
      <acc value="0.4785059857" flag="0"/>
      <vel value="0.1881559293" flag="0"/>
      <psa03 value="0.8950876449" flag="0"/>
      <psa10 value="0.0977342630" flag="0"/>
      <psa30 value="0.0113686514" flag="0"/>
    </comp>
    <comp name="--.HHZ">
      <acc value="0.6249755888" flag="0"/>
      <vel value="0.1224846432" flag="0"/>
      <psa03 value="0.4306755118" flag="0"/>
      <psa10 value="0.0406790571" flag="0"/>
      <psa30 value="0.0065172159" flag="0"/>
    </comp>
    <comp name="--.HHN">
      <acc value="0.4255214739" flag="0"/>
      <vel value="0.1851100140" flag="0"/>
      <psa03 value="0.9918354014" flag="0"/>
      <psa10 value="0.0774980981" flag="0"/>
      <psa30 value="0.0097174687" flag="0"/>
    </comp>
  </station>
  <station code="HARR" name="HARR" netid="RO" insttype="MBB2/Quanterra" lat="44.6893" lon="27.9303">
    <comp name="--.HHZ">
      <acc value="0.4935414279" flag="0"/>
      <vel value="0.1126535560" flag="0"/>
