<?xml version="1.0" encoding="UTF-8" standalone="yes"?>
<!DOCTYPE earthquake SYSTEM "stationlist.dtd">
<stationlist created="" xmlns="ch.ethz.sed.shakemap.usgs.xml">
  <station code="SILAM" name="SILAM" netid="BS" insttype="200" lat="44.1046" lon="27.2665">
    <comp name="--.HNE">
      <acc value="0.2310530116" flag="0"/>
      <vel value="0.1186286692" flag="0"/>
      <psa03 value="1.1294202756" flag="0"/>
      <psa10 value="0.0638011105" flag="0"/>
      <psa30 value="0.0057403349" flag="0"/>
    </comp>
    <comp name="--.HNZ">
      <acc value="0.3900676515" flag="0"/>
      <vel value="0.0695761963" flag="0"/>
      <psa03 value="0.3025173813" flag="0"/>
      <psa10 value="0.0125132552" flag="0"/>
      <psa30 value="0.0014974163" flag="0"/>
    </comp>
    <comp name="--.HNN">
      <acc value="0.3250849601" flag="0"/>
      <vel value="0.1226943076" flag="0"/>
      <psa03 value="1.2353701594" flag="0"/>
      <psa10 value="0.0292984820" flag="0"/>
      <psa30 value="0.0050742360" flag="0"/>
    </comp>
  </station>
  <station code="AMRR" name="AMRR" netid="RO" insttype="330" lat="44.6102" lon="27.3351">
    <comp name="--.HHE">
      <acc value="0.7554823626" flag="0"/>
      <vel value="0.2771462750" flag="0"/>
      <psa03 value="1.2078498216" flag="0"/>
      <psa10 value="0.1042781490" flag="0"/>
      <psa30 value="0.0105124665" flag="0"/>
    </comp>
    <comp name="--.HHN">
      <acc value="0.4632441523" flag="0"/>
      <vel value="0.1671613490" flag="0"/>
      <psa03 value="0.7065161908" flag="0"/>
      <psa10 value="0.0954879726" flag="0"/>
      <psa30 value="0.0096882473" flag="0"/>
    </comp>
    <comp name="--.HHZ">
      <acc value="0.4092751828" flag="0"/>
      <vel value="0.0988037744" flag="0"/>
      <psa03 value="0.3913611198" flag="0"/>
      <psa10 value="0.0297505414" flag="0"/>
      <psa30 value="0.0039693260" flag="0"/>
    </comp>
  </station>
  <station code="ARR" name="ARR" netid="RO" insttype="w/attenuator" lat="45.3657" lon="24.6332">
    <comp name="--.HHN">
      <acc value="0.0720821965" flag="0"/>
      <vel value="0.0345548684" flag="0"/>
      <psa03 value="0.1939329861" flag="0"/>
      <psa10 value="0.0159981038" flag="0"/>
      <psa30 value="0.0047163011" flag="0"/>
    </comp>
  </station>
  <station code="BAC" name="BAC" netid="RO" insttype="2.5V" lat="46.5669" lon="26.9124">
    <comp name="--.HNE">
      <acc value="0.3759509704" flag="0"/>
      <vel value="0.1651297817" flag="0"/>
      <psa03 value="0.7184710636" flag="0"/>
      <psa10 value="0.1119470937" flag="0"/>
      <psa30 value="0.0103574696" flag="0"/>
    </comp>
    <comp name="--.HNN">
      <acc value="0.2652264907" flag="0"/>
      <vel value="0.1270156713" flag="0"/>
      <psa03 value="0.9055581839" flag="0"/>
      <psa10 value="0.0583483290" flag="0"/>
      <psa30 value="0.0107040266" flag="0"/>
    </comp>
    <comp name="--.HNZ">
      <acc value="0.3021564357" flag="0"/>
      <vel value="0.0492158503" flag="0"/>
      <psa03 value="0.2452401457" flag="0"/>
      <psa10 value="0.0420565977" flag="0"/>
      <psa30 value="0.0026373671" flag="0"/>
    </comp>
  </station>
  <station code="BAPR" name="BAPR" netid="RO" insttype="2.5V" lat="44.4059" lon="26.119">
    <comp name="--.HNE">
      <acc value="0.9032890544" flag="0"/>
      <vel value="0.5187449490" flag="0"/>
      <psa03 value="3.5862838552" flag="0"/>
      <psa10 value="0.2251305047" flag="0"/>
      <psa30 value="0.0216540461" flag="0"/>
    </comp>
    <comp name="--.HNN">
      <acc value="0.6308990136" flag="0"/>
      <vel value="0.1885465901" flag="0"/>
      <psa03 value="1.5038497943" flag="0"/>
      <psa10 value="0.1281182819" flag="0"/>
      <psa30 value="0.0133932835" flag="0"/>
    </comp>
    <comp name="--.HNZ">
      <acc value="0.3921980701" flag="0"/>
      <vel value="0.1271322766" flag="0"/>
      <psa03 value="1.0486853240" flag="0"/>
      <psa10 value="0.0388481621" flag="0"/>
      <psa30 value="0.0045422601" flag="0"/>
    </comp>
  </station>
  <station code="BIR" name="BIR" netid="RO" insttype="MBB2/Quanterra" lat="46.2334" lon="27.6436">
    <comp name="--.HHE">
      <acc value="1.1170078629" flag="0"/>
      <vel value="0.2997440906" flag="0"/>
      <psa03 value="2.3733113660" flag="0"/>
      <psa10 value="0.1126417548" flag="0"/>
      <psa30 value="0.0136564568" flag="0"/>
    </comp>
    <comp name="--.HHN">
      <acc value="0.8455900553" flag="0"/>
      <vel value="0.3846559306" flag="0"/>
      <psa03 value="1.8279658124" flag="0"/>
      <psa10 value="0.1357693628" flag="0"/>
      <psa30 value="0.0151722425" flag="0"/>
    </comp>
    <comp name="--.HHZ">
      <acc value="0.7263570718" flag="0"/>
      <vel value="0.2622757269" flag="0"/>
      <psa03 value="2.1831971243" flag="0"/>
      <psa10 value="0.0534343364" flag="0"/>
      <psa30 value="0.0071220943" flag="0"/>
    </comp>
  </station>
  <station code="BISRR" name="BISRR" netid="RO" insttype="CMG40T.1to100/Basalt" lat="45.5481" lon="26.7099">
    <comp name="--.HHE">
      <acc value="1.2617776367" flag="0"/>
      <vel value="0.5450807381" flag="0"/>
      <psa03 value="2.7038104541" flag="0"/>
      <psa10 value="0.2868137988" flag="0"/>
      <psa30 value="0.0335963716" flag="0"/>
    </comp>
    <comp name="--.HHN">
      <acc value="0.8946862897" flag="0"/>
      <vel value="0.5568837926" flag="0"/>
      <psa03 value="2.0675160549" flag="0"/>
      <psa10 value="0.4290934535" flag="0"/>
      <psa30 value="0.0336391034" flag="0"/>
    </comp>
    <comp name="--.HHZ">
      <acc value="0.6221011349" flag="0"/>
      <vel value="0.2777272591" flag="0"/>
      <psa03 value="1.1954842110" flag="0"/>
      <psa10 value="0.2414059182" flag="0"/>
      <psa30 value="0.0164246850" flag="0"/>
    </comp>
  </station>
  <station code="BIZ" name="BIZ" netid="RO" insttype="PBB.1to100/Quanterra" lat="46.9387" lon="26.1029">
    <comp name="--.HHN">
      <acc value="0.0338884516" flag="0"/>
      <vel value="0.0334648987" flag="0"/>
      <psa03 value="0.0744173357" flag="0"/>
      <psa10 value="0.0621864863" flag="0"/>
      <psa30 value="0.0107683480" flag="0"/>
    </comp>
    <comp name="--.HHE">
      <acc value="0.0373907876" flag="0"/>
      <vel value="0.0693333625" flag="0"/>
      <psa03 value="0.0640399351" flag="0"/>
      <psa10 value="0.0811703208" flag="0"/>
      <psa30 value="0.0149702943" flag="0"/>
    </comp>
  </station>
  <station code="BOSR" name="BOSR" netid="RO" insttype="Seismometer/Basalt" lat="46.0749" lon="25.6611">
    <comp name="--.HHZ">
      <acc value="0.0898536876" flag="0"/>
      <vel value="0.0524398563" flag="0"/>
      <psa03 value="0.1974226175" flag="0"/>
      <psa10 value="0.0401574787" flag="0"/>
      <psa30 value="0.0067547220" flag="0"/>
    </comp>
    <comp name="--.HHE">
      <acc value="0.2159332862" flag="0"/>
      <vel value="0.1149441920" flag="0"/>
      <psa03 value="0.4197692423" flag="0"/>
      <psa10 value="0.1597241325" flag="0"/>
      <psa30 value="0.0163244890" flag="0"/>
    </comp>
    <comp name="--.HHN">
      <acc value="0.2636434689" flag="0"/>
      <vel value="0.1278190193" flag="0"/>
      <psa03 value="0.3561581046" flag="0"/>
      <psa10 value="0.0872610124" flag="0"/>
      <psa30 value="0.0132608510" flag="0"/>
    </comp>
  </station>
  <station code="BSTR" name="BSTR" netid="RO" insttype="2.5V" lat="44.4458" lon="26.0984">
    <comp name="--.HNE">
      <acc value="0.7325981840" flag="0"/>
      <vel value="0.3038014363" flag="0"/>
      <psa03 value="1.3093523780" flag="0"/>
      <psa10 value="0.1328038382" flag="0"/>
      <psa30 value="0.0173789661" flag="0"/>
    </comp>
    <comp name="--.HNN">
      <acc value="0.3846810252" flag="0"/>
      <vel value="0.1757262316" flag="0"/>
      <psa03 value="0.9435776040" flag="0"/>
      <psa10 value="0.1240076282" flag="0"/>
      <psa30 value="0.0142232816" flag="0"/>
    </comp>
    <comp name="--.HNZ">
      <acc value="0.2769841538" flag="0"/>
      <vel value="0.0793762269" flag="0"/>
      <psa03 value="0.5150575467" flag="0"/>
      <psa10 value="0.0347959779" flag="0"/>
      <psa30 value="0.0035194947" flag="0"/>
    </comp>
  </station>
  <station code="BTMR" name="BTMR" netid="RO" insttype="2.5V" lat="44.437" lon="26.1067">
    <comp name="--.HNE">
      <acc value="0.7226690244" flag="0"/>
      <vel value="0.3675553577" flag="0"/>
      <psa03 value="2.5337728280" flag="0"/>
      <psa10 value="0.1524717183" flag="0"/>
      <psa30 value="0.0164811494" flag="0"/>
    </comp>
    <comp name="--.HNN">
      <acc value="0.5284079043" flag="0"/>
      <vel value="0.1644596809" flag="0"/>
      <psa03 value="1.0653656793" flag="0"/>
      <psa10 value="0.1100843427" flag="0"/>
      <psa30 value="0.0149148422" flag="0"/>
    </comp>
    <comp name="--.HNZ">
      <acc value="0.5985339565" flag="0"/>
      <vel value="0.1197382386" flag="0"/>
      <psa03 value="0.6587614506" flag="0"/>
      <psa10 value="0.0302136917" flag="0"/>
      <psa30 value="0.0041829797" flag="0"/>
    </comp>
  </station>
  <station code="BUC" name="BUC" netid="RO" insttype="200" lat="44.4107" lon="26.0938">
    <comp name="--.HNE">
      <acc value="1.2342819654" flag="0"/>
      <vel value="0.6880231604" flag="0"/>
      <psa03 value="4.4623237372" flag="0"/>
      <psa10 value="0.2259327487" flag="0"/>
      <psa30 value="0.0214017724" flag="0"/>
    </comp>
    <comp name="--.HNZ">
      <acc value="0.3823938529" flag="0"/>
      <vel value="0.1002823620" flag="0"/>
      <psa03 value="0.7313679191" flag="0"/>
      <psa10 value="0.0280481917" flag="0"/>
      <psa30 value="0.0045850750" flag="0"/>
    </comp>
    <comp name="--.HNN">
      <acc value="0.5801961003" flag="0"/>
      <vel value="0.1957393179" flag="0"/>
      <psa03 value="1.7390587882" flag="0"/>
      <psa10 value="0.0959903566" flag="0"/>
      <psa30 value="0.0170182117" flag="0"/>
    </comp>
  </station>
  <station code="BUC1" name="BUC1" netid="RO" insttype="2.5V" lat="44.3479" lon="26.0281">
    <comp name="--.HNE">
      <acc value="0.8473780946" flag="0"/>
      <vel value="0.4669686255" flag="0"/>
      <psa03 value="2.4580567583" flag="0"/>
      <psa10 value="0.3092944942" flag="0"/>
      <psa30 value="0.0232372716" flag="0"/>
    </comp>
    <comp name="--.HNN">
      <acc value="0.5284114840" flag="0"/>
      <vel value="0.2372775198" flag="0"/>
      <psa03 value="1.5908120885" flag="0"/>
      <psa10 value="0.1761154226" flag="0"/>
      <psa30 value="0.0158120943" flag="0"/>
    </comp>
    <comp name="--.HNZ">
      <acc value="0.5365537159" flag="0"/>
      <vel value="0.1189108374" flag="0"/>
      <psa03 value="0.5744210848" flag="0"/>
      <psa10 value="0.0571921563" flag="0"/>
      <psa30 value="0.0035114992" flag="0"/>
    </comp>
  </station>
  <station code="CFR" name="CFR" netid="RO" insttype="CMG3T_100sec/Quanterra" lat="45.178" lon="28.1362">
    <comp name="--.HHE">
      <acc value="0.9460174808" flag="0"/>
      <vel value="0.3288585375" flag="0"/>
      <psa03 value="1.7068188105" flag="0"/>
      <psa10 value="0.0726724940" flag="0"/>
      <psa30 value="0.0118534361" flag="0"/>
    </comp>
    <comp name="--.HHN">
      <acc value="0.9759280000" flag="0"/>
      <vel value="0.2479736539" flag="0"/>
      <psa03 value="1.0076626952" flag="0"/>
      <psa10 value="0.0363535898" flag="0"/>
      <psa30 value="0.0051608851" flag="0"/>
    </comp>
    <comp name="--.HHZ">
      <acc value="0.4285810147" flag="0"/>
      <vel value="0.1116473681" flag="0"/>
      <psa03 value="0.6835908800" flag="0"/>
      <psa10 value="0.0391895610" flag="0"/>
      <psa30 value="0.0066311463" flag="0"/>
    </comp>
  </station>
  <station code="CICN" name="CICN" netid="RO" insttype="Seismometer/Basalt" lat="44.197" lon="27.0261">
    <comp name="--.HHE">
      <acc value="0.4144326455" flag="0"/>
      <vel value="0.2600196567" flag="0"/>
      <psa03 value="0.8447184854" flag="0"/>
      <psa10 value="0.1263447604" flag="0"/>
      <psa30 value="0.0130970110" flag="0"/>
    </comp>
    <comp name="--.HHZ">
      <acc value="0.2229756148" flag="0"/>
      <vel value="0.1141888775" flag="0"/>
      <psa03 value="0.5536737714" flag="0"/>
      <psa10 value="0.0568654702" flag="0"/>
      <psa30 value="0.0057216026" flag="0"/>
    </comp>
    <comp name="--.HHN">
      <acc value="0.2224473944" flag="0"/>
      <vel value="0.1138951651" flag="0"/>
      <psa03 value="0.5544244019" flag="0"/>
      <psa10 value="0.0569091544" flag="0"/>
      <psa30 value="0.0057119121" flag="0"/>
    </comp>
  </station>
  <station code="CIOR" name="CIOR" netid="RO" insttype="200" lat="44.4489" lon="25.8799">
    <comp name="--.HNE">
      <acc value="1.9538495030" flag="0"/>
      <vel value="0.6966498057" flag="0"/>
      <psa03 value="4.1687174779" flag="0"/>
      <psa10 value="0.2578605884" flag="0"/>
      <psa30 value="0.0256868076" flag="0"/>
    </comp>
    <comp name="--.HNN">
      <acc value="0.9565479616" flag="0"/>
      <vel value="0.3555874190" flag="0"/>
      <psa03 value="1.2108504345" flag="0"/>
      <psa10 value="0.2320004559" flag="0"/>
      <psa30 value="0.0233860003" flag="0"/>
    </comp>
    <comp name="--.HNZ">
      <acc value="0.4055046531" flag="0"/>
      <vel value="0.1158709790" flag="0"/>
      <psa03 value="0.7611238763" flag="0"/>
      <psa10 value="0.0445858822" flag="0"/>
      <psa30 value="0.0048771227" flag="0"/>
    </comp>
  </station>
  <station code="CLISU" name="CLISU" netid="RO" insttype="200" lat="44.1901" lon="27.3557">
    <comp name="--.HNE">
      <acc value="0.3238145853" flag="0"/>
      <vel value="0.2404446837" flag="0"/>
      <psa03 value="1.1897413470" flag="0"/>
      <psa10 value="0.1112879492" flag="0"/>
      <psa30 value="0.0100189116" flag="0"/>
    </comp>
    <comp name="--.HNN">
      <acc value="0.2690210984" flag="0"/>
      <vel value="0.1762971475" flag="0"/>
      <psa03 value="0.9723601156" flag="0"/>
      <psa10 value="0.0806160897" flag="0"/>
      <psa30 value="0.0095528514" flag="0"/>
    </comp>
    <comp name="--.HNZ">
      <acc value="0.3178269050" flag="0"/>
      <vel value="0.1031375298" flag="0"/>
      <psa03 value="0.4861686636" flag="0"/>
      <psa10 value="0.0278055882" flag="0"/>
      <psa30 value="0.0024369129" flag="0"/>
    </comp>
  </station>
  <station code="COPR" name="COPR" netid="RO" insttype="200" lat="45.8442" lon="26.1687">
    <comp name="--.HNN">
      <acc value="0.6125697163" flag="0"/>
      <vel value="0.4173854037" flag="0"/>
      <psa03 value="1.1033373859" flag="0"/>
      <psa10 value="0.3102642287" flag="0"/>
      <psa30 value="0.0226623027" flag="0"/>
    </comp>
    <comp name="--.HNZ">
      <acc value="0.2473675151" flag="0"/>
      <vel value="0.2107326815" flag="0"/>
      <psa03 value="0.6657177685" flag="0"/>
      <psa10 value="0.1166569274" flag="0"/>
      <psa30 value="0.0102428919" flag="0"/>
    </comp>
    <comp name="--.HNE">
      <acc value="0.6337855832" flag="0"/>
      <vel value="0.4400731984" flag="0"/>
      <psa03 value="1.2418790707" flag="0"/>
      <psa10 value="0.6447073433" flag="0"/>
      <psa30 value="0.0488905828" flag="0"/>
    </comp>
  </station>
  <station code="DOPR" name="DOPR" netid="RO" insttype="330" lat="45.9675" lon="25.3886">
    <comp name="--.HHN">
      <acc value="0.1543129521" flag="0"/>
      <vel value="0.0813506391" flag="0"/>
      <psa03 value="0.1982978883" flag="0"/>
      <psa10 value="0.0540738018" flag="0"/>
      <psa30 value="0.0081027013" flag="0"/>
    </comp>
    <comp name="--.HHZ">
      <acc value="0.0621878204" flag="0"/>
      <vel value="0.0332294174" flag="0"/>
      <psa03 value="0.0807884728" flag="0"/>
      <psa10 value="0.0236805618" flag="0"/>
      <psa30 value="0.0063761120" flag="0"/>
    </comp>
    <comp name="--.HHE">
      <acc value="0.2160354996" flag="0"/>
      <vel value="0.0790659116" flag="0"/>
      <psa03 value="0.2605122287" flag="0"/>
      <psa10 value="0.0602177952" flag="0"/>
      <psa30 value="0.0137696540" flag="0"/>
    </comp>
  </station>
  <station code="GIRR" name="GIRR" netid="RO" insttype="CMG40T.1to100/Quanterra" lat="46.9551" lon="26.5009">
    <comp name="--.HHE">
      <acc value="0.1465083969" flag="0"/>
      <vel value="0.0408653121" flag="0"/>
      <psa03 value="0.1762714768" flag="0"/>
      <psa10 value="0.0640714849" flag="0"/>
      <psa30 value="0.0041556278" flag="0"/>
    </comp>
    <comp name="--.HHN">
      <acc value="0.1435343900" flag="0"/>
      <vel value="0.0402638988" flag="0"/>
      <psa03 value="0.2503504310" flag="0"/>
      <psa10 value="0.0300957278" flag="0"/>
      <psa30 value="0.0018400485" flag="0"/>
    </comp>
    <comp name="--.HHZ">
      <acc value="0.1042870765" flag="0"/>
      <vel value="0.0127234984" flag="0"/>
      <psa03 value="0.1036269352" flag="0"/>
      <psa10 value="0.0126073548" flag="0"/>
      <psa30 value="0.0006877488" flag="0"/>
    </comp>
  </station>
  <station code="GISR" name="GISR" netid="RO" insttype="2.5V" lat="45.4411" lon="28.0541">
    <comp name="--.HNN">
      <acc value="1.0503505529" flag="0"/>
      <vel value="0.5227485510" flag="0"/>
      <psa03 value="1.5374818941" flag="0"/>
      <psa10 value="0.2375000140" flag="0"/>
      <psa30 value="0.0167801394" flag="0"/>
    </comp>
    <comp name="--.HNZ">
      <acc value="0.6627783655" flag="0"/>
      <vel value="0.2527976646" flag="0"/>
      <psa03 value="1.4915380669" flag="0"/>
      <psa10 value="0.0914505364" flag="0"/>
      <psa30 value="0.0120371801" flag="0"/>
    </comp>
    <comp name="--.HNE">
      <acc value="0.9875697030" flag="0"/>
      <vel value="0.5062248110" flag="0"/>
      <psa03 value="2.0739649071" flag="0"/>
      <psa10 value="0.2348914697" flag="0"/>
      <psa30 value="0.0476712464" flag="0"/>
    </comp>
  </station>
  <station code="GIUM" name="GIUM" netid="RO" insttype="2.5V" lat="45.485" lon="28.2081">
    <comp name="--.HNZ">
      <acc value="1.1932500344" flag="0"/>
      <vel value="0.2481919709" flag="0"/>
      <psa03 value="0.6330190691" flag="0"/>
      <psa10 value="0.0573724103" flag="0"/>
      <psa30 value="0.0075154336" flag="0"/>
    </comp>
    <comp name="--.HNE">
      <acc value="0.7375800730" flag="0"/>
      <vel value="0.3548296586" flag="0"/>
      <psa03 value="1.1451931534" flag="0"/>
      <psa10 value="0.1305655378" flag="0"/>
      <psa30 value="0.0352276683" flag="0"/>
    </comp>
    <comp name="--.HNN">
      <acc value="0.9094895657" flag="0"/>
      <vel value="0.3401685649" flag="0"/>
      <psa03 value="0.9019863936" flag="0"/>
      <psa10 value="0.1519325501" flag="0"/>
      <psa30 value="0.0233132691" flag="0"/>
    </comp>
  </station>
  <station code="GRER" name="GRER" netid="RO" insttype="MBB2/Quanterra" lat="45.3801" lon="26.9747">
    <comp name="--.HHE">
      <acc value="0.4785059856" flag="0"/>
      <vel value="0.1881559245" flag="0"/>
      <psa03 value="0.8950876449" flag="0"/>
      <psa10 value="0.0977342630" flag="0"/>
      <psa30 value="0.0113686534" flag="0"/>
    </comp>
    <comp name="--.HHZ">
      <acc value="0.6249755888" flag="0"/>
      <vel value="0.1224846292" flag="0"/>
      <psa03 value="0.4306755118" flag="0"/>
      <psa10 value="0.0406790565" flag="0"/>
      <psa30 value="0.0065179752" flag="0"/>
    </comp>
    <comp name="--.HHN">
      <acc value="0.4255214739" flag="0"/>
      <vel value="0.1851100055" flag="0"/>
      <psa03 value="0.9918354014" flag="0"/>
      <psa10 value="0.0774980981" flag="0"/>
      <psa30 value="0.0097174724" flag="0"/>
    </comp>
  </station>
  <station code="HARR" name="HARR" netid="RO" insttype="MBB2/Quanterra" lat="44.6893" lon="27.9303">
    <comp name="--.HHZ">
      <acc value="0.4935414282" flag="0"/>
      <vel value="0.1126535562" flag="0"/>
      <psa03 value="0.5390697346" flag="0"/>
      <psa10 value="0.0534877169" flag="0"/>
