<?xml version="1.0" encoding="UTF-8" standalone="yes"?>
<!DOCTYPE earthquake SYSTEM "stationlist.dtd">
<stationlist created="" xmlns="ch.ethz.sed.shakemap.usgs.xml">
  <station code="ALAN" name="ALAN" netid="KO" insttype="CMG-5T" lat="36.557" lon="32.0327">
    <comp name="--.HNE">
      <acc value="6.7741351243" flag="0"/>
      <vel value="1.7443137067" flag="0"/>
      <psa03 value="8.6687424565" flag="0"/>
      <psa10 value="0.5107307278" flag="0"/>
      <psa30 value="0.0519427384" flag="0"/>
    </comp>
    <comp name="--.HNN">
      <acc value="8.2922545521" flag="0"/>
      <vel value="2.0197946465" flag="0"/>
      <psa03 value="7.2455967221" flag="0"/>
      <psa10 value="0.2407145544" flag="0"/>
      <psa30 value="0.0339306504" flag="0"/>
    </comp>
    <comp name="--.HNZ">
      <acc value="2.6750828656" flag="0"/>
      <vel value="0.5294444250" flag="0"/>
      <psa03 value="1.2980788605" flag="0"/>
      <psa10 value="0.1155526738" flag="0"/>
      <psa30 value="0.0115573008" flag="0"/>
    </comp>
  </station>
  <station code="ANTB" name="ANTB" netid="KO" insttype="CMG-3T" lat="36.8998" lon="30.6538">
    <comp name="--.HHE">
      <acc value="0.0297144855" flag="0"/>
      <vel value="0.0126841827" flag="0"/>
      <psa03 value="0.0577854386" flag="0"/>
      <psa10 value="0.0165879158" flag="0"/>
      <psa30 value="0.0105259954" flag="0"/>
    </comp>
    <comp name="--.HHN">
      <acc value="0.0209391462" flag="0"/>
      <vel value="0.0191033629" flag="0"/>
      <psa03 value="0.0448490138" flag="0"/>
      <psa10 value="0.0154138274" flag="0"/>
      <psa30 value="0.0062800442" flag="0"/>
    </comp>
    <comp name="--.HHZ">
      <acc value="0.0240873174" flag="0"/>
      <vel value="0.0169757326" flag="0"/>
      <psa03 value="0.0442145846" flag="0"/>
      <psa10 value="0.0254595497" flag="0"/>
      <psa30 value="0.0041582264" flag="0"/>
    </comp>
  </station>
  <station code="HDMB" name="HDMB" netid="KO" insttype="CMG-3T" lat="36.9638" lon="32.4857">
    <comp name="--.HHE">
      <acc value="0.3527789987" flag="0"/>
      <vel value="0.2178702844" flag="0"/>
      <psa03 value="0.6558898796" flag="0"/>
      <psa10 value="0.2096440424" flag="0"/>
      <psa30 value="0.0119912358" flag="0"/>
    </comp>
    <comp name="--.HHN">
      <acc value="0.3215347169" flag="0"/>
      <vel value="0.1312408223" flag="0"/>
      <psa03 value="0.6799757866" flag="0"/>
      <psa10 value="0.1521364794" flag="0"/>
      <psa30 value="0.0092757471" flag="0"/>
    </comp>
    <comp name="--.HHZ">
      <acc value="0.1335254180" flag="0"/>
      <vel value="0.0605387480" flag="0"/>
      <psa03 value="0.2883187886" flag="0"/>
      <psa10 value="0.0490407798" flag="0"/>
      <psa30 value="0.0028535188" flag="0"/>
    </comp>
  </station>
  <station code="LMOS" name="LMOS" netid="KO" insttype="CMG-6T" lat="36.6021" lon="32.6962">
    <comp name="--.HHZ">
      <acc value="0.0591694819" flag="0"/>
      <vel value="0.0231165609" flag="0"/>
      <psa03 value="0.1406458051" flag="0"/>
      <psa10 value="0.0271556066" flag="0"/>
      <psa30 value="0.0034396677" flag="0"/>
    </comp>
    <comp name="--.HHE">
      <acc value="0.0862979841" flag="0"/>
      <vel value="0.0335888829" flag="0"/>
      <psa03 value="0.2282576386" flag="0"/>
      <psa10 value="0.0484414021" flag="0"/>
      <psa30 value="0.0037884422" flag="0"/>
    </comp>
    <comp name="--.HHN">
      <acc value="0.0708343165" flag="0"/>
      <vel value="0.0397165415" flag="0"/>
      <psa03 value="0.1462056368" flag="0"/>
      <psa10 value="0.0519175329" flag="0"/>
      <psa30 value="0.0057548435" flag="0"/>
    </comp>
  </station>
  <station code="MNVG" name="MNVG" netid="KO" insttype="CMG-5T" lat="36.7935" lon="31.4161">
    <comp name="--.HNE">
      <acc value="0.3350593985" flag="0"/>
      <vel value="0.1852094409" flag="0"/>
      <psa03 value="0.7770326554" flag="0"/>
      <psa10 value="0.0938687987" flag="0"/>
      <psa30 value="0.0133208539" flag="0"/>
    </comp>
    <comp name="--.HNN">
      <acc value="0.2780315499" flag="0"/>
      <vel value="0.1222591841" flag="0"/>
      <psa03 value="0.7504812032" flag="0"/>
      <psa10 value="0.1421856228" flag="0"/>
      <psa30 value="0.0153513123" flag="0"/>
    </comp>
    <comp name="--.HNZ">
      <acc value="0.1631477497" flag="0"/>
      <vel value="0.0661848535" flag="0"/>
      <psa03 value="0.5307499776" flag="0"/>
      <psa10 value="0.0690051409" flag="0"/>
      <psa30 value="0.0085296810" flag="0"/>
    </comp>
  </station>
  <station code="SEYD" name="SEYD" netid="KO" insttype="CMG-5T" lat="37.4056" lon="31.8379">
    <comp name="--.HNN">
      <acc value="0.0279423336" flag="0"/>
      <vel value="0.0152354058" flag="0"/>
      <psa03 value="0.0576815076" flag="0"/>
      <psa10 value="0.0231268848" flag="0"/>
      <psa30 value="0.0018460641" flag="0"/>
    </comp>
    <comp name="--.HNE">
      <acc value="0.0311007212" flag="0"/>
      <vel value="0.0212134055" flag="0"/>
      <psa03 value="0.0578792824" flag="0"/>
      <psa10 value="0.0295216844" flag="0"/>
      <psa30 value="0.0021834849" flag="0"/>
    </comp>
    <comp name="--.HNZ">
      <acc value="0.0285930074" flag="0"/>
      <vel value="0.0189944906" flag="0"/>
      <psa03 value="0.0735965680" flag="0"/>
      <psa10 value="0.0242456503" flag="0"/>
      <psa30 value="0.0018749719" flag="0"/>
    </comp>
  </station>
</stationlist>
