<?xml version="1.0" encoding="UTF-8" standalone="yes"?>
<!DOCTYPE earthquake SYSTEM "stationlist.dtd">
<stationlist created="" xmlns="ch.ethz.sed.shakemap.usgs.xml">
  <station code="ALAN" name="ALAN" netid="KO" insttype="CMG-5T" lat="36.557" lon="32.0327">
    <comp name="--.HNE">
      <acc value="6.7741350576" flag="0"/>
      <vel value="1.7443137250" flag="0"/>
      <psa03 value="8.6687424565" flag="0"/>
      <psa10 value="0.5107307348" flag="0"/>
      <psa30 value="0.0519347623" flag="0"/>
    </comp>
    <comp name="--.HNN">
      <acc value="8.2922545254" flag="0"/>
      <vel value="2.0197946604" flag="0"/>
      <psa03 value="7.2455967221" flag="0"/>
      <psa10 value="0.2407146252" flag="0"/>
      <psa30 value="0.0339055304" flag="0"/>
    </comp>
    <comp name="--.HNZ">
      <acc value="2.6750828290" flag="0"/>
      <vel value="0.5294444240" flag="0"/>
      <psa03 value="1.2980788605" flag="0"/>
      <psa10 value="0.1155526087" flag="0"/>
      <psa30 value="0.0115482158" flag="0"/>
    </comp>
  </station>
  <station code="HDMB" name="HDMB" netid="KO" insttype="CMG-3T" lat="36.9638" lon="32.4857">
    <comp name="--.HHE">
      <acc value="0.3527789987" flag="0"/>
      <vel value="0.2178702842" flag="0"/>
      <psa03 value="0.6558898796" flag="0"/>
      <psa10 value="0.2096440420" flag="0"/>
      <psa30 value="0.0119913274" flag="0"/>
    </comp>
    <comp name="--.HHN">
      <acc value="0.3215347166" flag="0"/>
      <vel value="0.1312408224" flag="0"/>
      <psa03 value="0.6799757866" flag="0"/>
      <psa10 value="0.1521364793" flag="0"/>
      <psa30 value="0.0092757665" flag="0"/>
    </comp>
    <comp name="--.HHZ">
      <acc value="0.1335254179" flag="0"/>
      <vel value="0.0605387480" flag="0"/>
      <psa03 value="0.2883187886" flag="0"/>
      <psa10 value="0.0490407798" flag="0"/>
      <psa30 value="0.0028535391" flag="0"/>
    </comp>
  </station>
  <station code="LMOS" name="LMOS" netid="KO" insttype="CMG-6T" lat="36.6021" lon="32.6962">
    <comp name="--.HHZ">
      <acc value="0.0591694819" flag="0"/>
      <vel value="0.0231165601" flag="0"/>
      <psa03 value="0.1406458051" flag="0"/>
      <psa10 value="0.0271556066" flag="0"/>
      <psa30 value="0.0034396726" flag="0"/>
    </comp>
    <comp name="--.HHE">
      <acc value="0.0862979847" flag="0"/>
      <vel value="0.0335888826" flag="0"/>
      <psa03 value="0.2282576386" flag="0"/>
      <psa10 value="0.0484414020" flag="0"/>
      <psa30 value="0.0037884808" flag="0"/>
    </comp>
    <comp name="--.HHN">
      <acc value="0.0708343158" flag="0"/>
      <vel value="0.0397165408" flag="0"/>
      <psa03 value="0.1462056368" flag="0"/>
      <psa10 value="0.0519175329" flag="0"/>
      <psa30 value="0.0057548304" flag="0"/>
    </comp>
  </station>
  <station code="MNVG" name="MNVG" netid="KO" insttype="CMG-5T" lat="36.7935" lon="31.4161">
    <comp name="--.HNE">
      <acc value="0.3350594422" flag="0"/>
      <vel value="0.1852094337" flag="0"/>
      <psa03 value="0.7770326554" flag="0"/>
      <psa10 value="0.0938688094" flag="0"/>
      <psa30 value="0.0133188757" flag="0"/>
    </comp>
    <comp name="--.HNN">
      <acc value="0.2780314644" flag="0"/>
      <vel value="0.1222591755" flag="0"/>
      <psa03 value="0.7504812032" flag="0"/>
      <psa10 value="0.1421856203" flag="0"/>
      <psa30 value="0.0153519429" flag="0"/>
    </comp>
    <comp name="--.HNZ">
      <acc value="0.1631477462" flag="0"/>
      <vel value="0.0661848538" flag="0"/>
      <psa03 value="0.5307499776" flag="0"/>
      <psa10 value="0.0690051353" flag="0"/>
      <psa30 value="0.0085278672" flag="0"/>
    </comp>
  </station>
</stationlist>
