<?xml version="1.0" encoding="UTF-8" standalone="yes"?>
<!DOCTYPE earthquake SYSTEM "stationlist.dtd">
<stationlist created="" xmlns="ch.ethz.sed.shakemap.usgs.xml">
  <station code="DARE" name="DARE" netid="KO" insttype="CMG-3ESP" lat="38.5712" lon="37.4832">
    <comp name="--.HHE">
      <acc value="0.0114060823" flag="0"/>
      <vel value="0.0057800850" flag="0"/>
      <psa03 value="0.0358674418" flag="0"/>
      <psa10 value="0.0055209744" flag="0"/>
      <psa30 value="0.0003833385" flag="0"/>
    </comp>
    <comp name="--.HHN">
      <acc value="0.0103494858" flag="0"/>
      <vel value="0.0058677786" flag="0"/>
      <psa03 value="0.0263006619" flag="0"/>
      <psa10 value="0.0096450414" flag="0"/>
      <psa30 value="0.0003549969" flag="0"/>
    </comp>
    <comp name="--.HHZ">
      <acc value="0.0085913561" flag="0"/>
      <vel value="0.0064374891" flag="0"/>
      <psa03 value="0.0315640541" flag="0"/>
      <psa10 value="0.0096243835" flag="0"/>
      <psa30 value="0.0004443120" flag="0"/>
    </comp>
  </station>
  <station code="GAZ" name="GAZ" netid="KO" insttype="CMG-3T" lat="37.1721" lon="37.2096">
    <comp name="--.HHE">
      <acc value="0.1596188852" flag="0"/>
      <vel value="0.0461212468" flag="0"/>
      <psa03 value="0.1881892362" flag="0"/>
      <psa10 value="0.0209255684" flag="0"/>
      <psa30 value="0.0009626846" flag="0"/>
    </comp>
    <comp name="--.HHN">
      <acc value="0.0752405370" flag="0"/>
      <vel value="0.0165427867" flag="0"/>
      <psa03 value="0.0842154978" flag="0"/>
      <psa10 value="0.0125039382" flag="0"/>
      <psa30 value="0.0009772625" flag="0"/>
    </comp>
    <comp name="--.HHZ">
      <acc value="0.0906597644" flag="0"/>
      <vel value="0.0323863530" flag="0"/>
      <psa03 value="0.1116198778" flag="0"/>
      <psa10 value="0.0145985505" flag="0"/>
      <psa30 value="0.0011100510" flag="0"/>
    </comp>
  </station>
  <station code="KMRS" name="KMRS" netid="KO" insttype="CMG-3T" lat="37.5053" lon="36.9">
    <comp name="--.HHE">
      <acc value="0.0396090364" flag="0"/>
      <vel value="0.0192104836" flag="0"/>
      <psa03 value="0.0903455787" flag="0"/>
      <psa10 value="0.0126787113" flag="0"/>
      <psa30 value="0.0008907624" flag="0"/>
    </comp>
    <comp name="--.HHN">
      <acc value="0.0565055014" flag="0"/>
      <vel value="0.0365256033" flag="0"/>
      <psa03 value="0.1055000741" flag="0"/>
      <psa10 value="0.0211612852" flag="0"/>
      <psa30 value="0.0014585076" flag="0"/>
    </comp>
    <comp name="--.HHZ">
      <acc value="0.0304767388" flag="0"/>
      <vel value="0.0116388924" flag="0"/>
      <psa03 value="0.0654513834" flag="0"/>
      <psa10 value="0.0143467471" flag="0"/>
      <psa30 value="0.0008475035" flag="0"/>
    </comp>
  </station>
</stationlist>
