<stationlist created="1675764052">
	<station code="KHMN" name="KHMN" netid="KO" source="Bogazici University Kandilli Observatory And Earthquake Research Institute (KOERI)" insttype="" lat="37.3916" lon="37.1574">
		<comp name=".HNE" depth="0.0">
			<acc value="0.150613735985" flag="0"/>
			<vel value="0.0364346095337" flag="0"/>
			<psa03 value="0.195018960716" flag="0"/>
			<psa10 value="0.0175044045809" flag="0"/>
			<psa30 value="0.00156954803736" flag="0"/>
		</comp>
		<comp name=".HNN" depth="0.0">
			<acc value="0.171804196914" flag="0"/>
			<vel value="0.0296487553632" flag="0"/>
			<psa03 value="0.145028805363" flag="0"/>
			<psa10 value="0.0153248201941" flag="0"/>
			<psa30 value="0.00197595089705" flag="0"/>
		</comp>
		<comp name=".HNZ" depth="0.0">
			<acc value="0.101659276683" flag="0"/>
			<vel value="0.0271891847742" flag="0"/>
			<psa03 value="0.116160257547" flag="0"/>
			<psa10 value="0.011704633187" flag="0"/>
			<psa30 value="0.00218940462064" flag="0"/>
		</comp>
	</station>
	<station code="TUNC" name="TUNC" netid="KO" source="Bogazici University Kandilli Observatory And Earthquake Research Institute (KOERI)" insttype="" lat="39.6942" lon="37.5388">
		<comp name=".HNE" depth="0.0">
			<acc value="0.00478846220193" flag="0"/>
			<vel value="0.0029129498724" flag="0"/>
			<psa03 value="0.0171175727573" flag="0"/>
			<psa10 value="0.00408955028763" flag="0"/>
			<psa30 value="0.000478326686795" flag="0"/>
		</comp>
		<comp name=".HNN" depth="0.0">
			<acc value="0.00447685997696" flag="0"/>
			<vel value="0.00438024420719" flag="0"/>
			<psa03 value="0.0141822559111" flag="0"/>
			<psa10 value="0.00415767495683" flag="0"/>
			<psa30 value="0.000543287083855" flag="0"/>
		</comp>
		<comp name=".HNZ" depth="0.0">
			<acc value="0.00326147133683" flag="0"/>
			<vel value="0.00251634454326" flag="0"/>
			<psa03 value="0.00699284865858" flag="0"/>
			<psa10 value="0.00320944925089" flag="0"/>
			<psa30 value="0.000506657886517" flag="0"/>
		</comp>
	</station>
</stationlist>
