<?xml version="1.0" encoding="UTF-8" standalone="yes"?>
<!DOCTYPE earthquake SYSTEM "stationlist.dtd">
<stationlist created="" xmlns="ch.ethz.sed.shakemap.usgs.xml">
  <station code="CGAU" name="CGAU" netid="2I" insttype="" commtype="DIG" lat="40.8524" lon="14.113">
    <comp name="--.HHN">
      <acc value="1.0534317930" flag="0"/>
      <vel value="0.2230795498" flag="0"/>
      <psa03 value="0.7821326691" flag="0"/>
      <psa10 value="0.1536431143" flag="0"/>
      <psa30 value="0.0114230847" flag="0"/>
    </comp>
    <comp name="--.HHZ">
      <acc value="0.8668093737" flag="0"/>
      <vel value="0.2036663469" flag="0"/>
      <psa03 value="0.5315027813" flag="0"/>
      <psa10 value="0.1185823407" flag="0"/>
      <psa30 value="0.0104667708" flag="0"/>
    </comp>
    <comp name="--.HHE">
      <acc value="1.3996640204" flag="0"/>
      <vel value="0.2936085598" flag="0"/>
      <psa03 value="0.9398196855" flag="0"/>
      <psa10 value="0.3389479093" flag="0"/>
      <psa30 value="0.0149470727" flag="0"/>
    </comp>
  </station>
  <station code="CLAC" name="CLAC" netid="2I" insttype="" commtype="DIG" lat="40.8836" lon="14.0706">
    <comp name="--.HHE">
      <acc value="0.1643419052" flag="0"/>
      <vel value="0.0938843469" flag="0"/>
      <psa03 value="0.3905960628" flag="0"/>
      <psa10 value="0.1641867597" flag="0"/>
      <psa30 value="0.0100724644" flag="0"/>
    </comp>
    <comp name="--.HHN">
      <acc value="0.1596010588" flag="0"/>
      <vel value="0.1079036643" flag="0"/>
      <psa03 value="0.4442723075" flag="0"/>
      <psa10 value="0.1151199829" flag="0"/>
      <psa30 value="0.0111286640" flag="0"/>
    </comp>
    <comp name="--.HHZ">
      <acc value="0.1388385800" flag="0"/>
      <vel value="0.0571164681" flag="0"/>
      <psa03 value="0.3083656813" flag="0"/>
      <psa10 value="0.0576395143" flag="0"/>
      <psa30 value="0.0039940353" flag="0"/>
    </comp>
  </station>
  <station code="CREM" name="CREM" netid="2I" insttype="" commtype="DIG" lat="40.8235" lon="14.1282">
    <comp name="--.HHN">
      <acc value="0.0205662284" flag="0"/>
      <vel value="0.0038251610" flag="0"/>
      <psa03 value="0.0112995804" flag="0"/>
      <psa10 value="0.0027278876" flag="0"/>
      <psa30 value="0.0003182219" flag="0"/>
    </comp>
    <comp name="--.HHE">
      <acc value="0.0277311167" flag="0"/>
      <vel value="0.0033566514" flag="0"/>
      <psa03 value="0.0119806306" flag="0"/>
      <psa10 value="0.0025436388" flag="0"/>
      <psa30 value="0.0001424369" flag="0"/>
    </comp>
    <comp name="--.HHZ">
      <acc value="0.0218126411" flag="0"/>
      <vel value="0.0031479468" flag="0"/>
      <psa03 value="0.0123530707" flag="0"/>
      <psa10 value="0.0015053077" flag="0"/>
      <psa30 value="0.0001196845" flag="0"/>
    </comp>
  </station>
  <station code="CSOC" name="CSOC" netid="2I" insttype="" commtype="DIG" lat="40.8416" lon="14.2125">
    <comp name="--.HNE">
      <acc value="1.2498010870" flag="0"/>
      <vel value="0.3234545816" flag="0"/>
      <psa03 value="2.0617344862" flag="0"/>
      <psa10 value="0.1646568746" flag="0"/>
      <psa30 value="0.0220918381" flag="0"/>
    </comp>
    <comp name="--.HNN">
      <acc value="0.8887926455" flag="0"/>
      <vel value="0.4435003150" flag="0"/>
      <psa03 value="3.0230503708" flag="0"/>
      <psa10 value="0.1480630547" flag="0"/>
      <psa30 value="0.0152620369" flag="0"/>
    </comp>
    <comp name="--.HNZ">
      <acc value="0.8422874376" flag="0"/>
      <vel value="0.1666507601" flag="0"/>
      <psa03 value="0.7453754953" flag="0"/>
      <psa10 value="0.1099690382" flag="0"/>
      <psa30 value="0.0106033763" flag="0"/>
    </comp>
  </station>
  <station code="CAMPI" name="CAMPI" netid="GX" insttype="Trillium Compact" commtype="DIG" lat="40.7071" lon="15.2738">
    <comp name="--.HHZ">
      <acc value="0.0009685885" flag="0"/>
      <vel value="0.0008002209" flag="0"/>
      <psa03 value="0.0034438189" flag="0"/>
      <psa10 value="0.0012906689" flag="0"/>
      <psa30 value="0.0000846029" flag="0"/>
    </comp>
    <comp name="--.HHN">
      <acc value="0.0017820068" flag="0"/>
      <vel value="0.0014791301" flag="0"/>
      <psa03 value="0.0058446668" flag="0"/>
      <psa10 value="0.0032164626" flag="0"/>
      <psa30 value="0.0001774194" flag="0"/>
    </comp>
    <comp name="--.HHE">
      <acc value="0.0013757144" flag="0"/>
      <vel value="0.0012989839" flag="0"/>
      <psa03 value="0.0043694361" flag="0"/>
      <psa10 value="0.0019381118" flag="0"/>
      <psa30 value="0.0002462465" flag="0"/>
    </comp>
  </station>
  <station code="BSSO" name="BSSO" netid="IV" insttype="" commtype="DIG" lat="41.5461" lon="14.5938">
    <comp name="--.HHE">
      <acc value="0.0012053869" flag="0"/>
      <vel value="0.0006885718" flag="0"/>
      <psa03 value="0.0017293538" flag="0"/>
      <psa10 value="0.0007717930" flag="0"/>
      <psa30 value="0.0001117648" flag="0"/>
    </comp>
    <comp name="--.HHN">
      <acc value="0.0005273104" flag="0"/>
      <vel value="0.0006207316" flag="0"/>
      <psa03 value="0.0012866235" flag="0"/>
      <psa10 value="0.0009833797" flag="0"/>
      <psa30 value="0.0002624751" flag="0"/>
    </comp>
    <comp name="--.HHZ">
      <acc value="0.0003988836" flag="0"/>
      <vel value="0.0004595431" flag="0"/>
      <psa03 value="0.0013544814" flag="0"/>
      <psa10 value="0.0007968919" flag="0"/>
      <psa30 value="0.0001361778" flag="0"/>
    </comp>
  </station>
  <station code="CAFE" name="CAFE" netid="IV" insttype="" commtype="DIG" lat="41.028" lon="15.2366">
    <comp name="--.HHN">
      <acc value="0.0008020979" flag="0"/>
      <vel value="0.0009121049" flag="0"/>
      <psa03 value="0.0020169217" flag="0"/>
      <psa10 value="0.0016936647" flag="0"/>
      <psa30 value="0.0001365445" flag="0"/>
    </comp>
    <comp name="--.HHE">
      <acc value="0.0007431681" flag="0"/>
      <vel value="0.0010960985" flag="0"/>
      <psa03 value="0.0023485844" flag="0"/>
      <psa10 value="0.0016279693" flag="0"/>
      <psa30 value="0.0003623232" flag="0"/>
    </comp>
    <comp name="--.HHZ">
      <acc value="0.0009422477" flag="0"/>
      <vel value="0.0008422264" flag="0"/>
      <psa03 value="0.0020485230" flag="0"/>
      <psa10 value="0.0010321283" flag="0"/>
      <psa30 value="0.0001701266" flag="0"/>
    </comp>
  </station>
  <station code="CAWE" name="CAWE" netid="IV" insttype="" commtype="DIG" lat="40.8405" lon="14.1393">
    <comp name="--.HNE">
      <acc value="5.5715442020" flag="0"/>
      <vel value="0.9455671449" flag="0"/>
      <psa03 value="4.3771312821" flag="0"/>
      <psa10 value="0.5277189902" flag="0"/>
      <psa30 value="0.0382744684" flag="0"/>
    </comp>
    <comp name="--.HNZ">
      <acc value="4.6410919771" flag="0"/>
      <vel value="0.8792698078" flag="0"/>
      <psa03 value="5.4596684924" flag="0"/>
      <psa10 value="0.1678583354" flag="0"/>
      <psa30 value="0.0172139860" flag="0"/>
    </comp>
    <comp name="--.HNN">
      <acc value="5.7468198177" flag="0"/>
      <vel value="1.2103695266" flag="0"/>
      <psa03 value="3.5336966874" flag="0"/>
      <psa10 value="0.4032654079" flag="0"/>
      <psa30 value="0.0546101954" flag="0"/>
    </comp>
  </station>
  <station code="CBAC" name="CBAC" netid="IV" insttype="" commtype="DIG" lat="40.8109" lon="14.0806">
    <comp name="--.HHE">
      <acc value="0.4148996134" flag="0"/>
      <vel value="0.2470763396" flag="0"/>
      <psa03 value="0.3101856436" flag="0"/>
      <psa10 value="0.3902748654" flag="0"/>
      <psa30 value="0.0271549299" flag="0"/>
    </comp>
    <comp name="--.HHN">
      <acc value="0.4633588758" flag="0"/>
      <vel value="0.1532042700" flag="0"/>
      <psa03 value="0.3644318059" flag="0"/>
      <psa10 value="0.2059647447" flag="0"/>
      <psa30 value="0.0177769268" flag="0"/>
    </comp>
    <comp name="--.HHZ">
      <acc value="0.3249169637" flag="0"/>
      <vel value="0.1070321696" flag="0"/>
      <psa03 value="0.4306977943" flag="0"/>
      <psa10 value="0.1626799818" flag="0"/>
      <psa30 value="0.0178407806" flag="0"/>
    </comp>
  </station>
  <station code="CERA" name="CERA" netid="IV" insttype="" commtype="DIG" lat="41.5978" lon="14.0183">
    <comp name="--.HHE">
      <acc value="0.0013146955" flag="0"/>
      <vel value="0.0011008211" flag="0"/>
      <psa03 value="0.0046539400" flag="0"/>
      <psa10 value="0.0027481879" flag="0"/>
      <psa30 value="0.0002453635" flag="0"/>
    </comp>
    <comp name="--.HHZ">
      <acc value="0.0006868107" flag="0"/>
      <vel value="0.0007472363" flag="0"/>
      <psa03 value="0.0014684274" flag="0"/>
      <psa10 value="0.0012748721" flag="0"/>
      <psa30 value="0.0001315818" flag="0"/>
    </comp>
    <comp name="--.HHN">
      <acc value="0.0012738437" flag="0"/>
      <vel value="0.0010373133" flag="0"/>
      <psa03 value="0.0034344265" flag="0"/>
      <psa10 value="0.0017795688" flag="0"/>
      <psa30 value="0.0001639986" flag="0"/>
    </comp>
  </station>
  <station code="CFMN" name="CFMN" netid="IV" insttype="" commtype="DIG" lat="40.8329" lon="14.0904">
    <comp name="--.HHE">
      <acc value="0.7064639464" flag="0"/>
      <vel value="0.2562816375" flag="0"/>
      <psa03 value="0.5201014732" flag="0"/>
      <psa10 value="0.2367874248" flag="0"/>
      <psa30 value="0.0342185663" flag="0"/>
    </comp>
    <comp name="--.HHN">
      <acc value="0.7173176664" flag="0"/>
      <vel value="0.1809124749" flag="0"/>
      <psa03 value="0.5634233127" flag="0"/>
      <psa10 value="0.1307144998" flag="0"/>
      <psa30 value="0.0164917177" flag="0"/>
    </comp>
    <comp name="--.HHZ">
      <acc value="0.7143044605" flag="0"/>
      <vel value="0.1280936726" flag="0"/>
      <psa03 value="0.3362977684" flag="0"/>
      <psa10 value="0.1567277110" flag="0"/>
      <psa30 value="0.0171574752" flag="0"/>
    </comp>
  </station>
  <station code="CMIS" name="CMIS" netid="IV" insttype="" commtype="DIG" lat="40.7782" lon="14.089">
    <comp name="--.HHE">
      <acc value="0.3272691360" flag="0"/>
      <vel value="0.1626816293" flag="0"/>
      <psa03 value="0.9997422999" flag="0"/>
      <psa10 value="0.1487842199" flag="0"/>
      <psa30 value="0.0193487912" flag="0"/>
    </comp>
    <comp name="--.HHN">
      <acc value="0.4211978939" flag="0"/>
      <vel value="0.1902168324" flag="0"/>
      <psa03 value="0.6729588034" flag="0"/>
      <psa10 value="0.1740827320" flag="0"/>
      <psa30 value="0.0240452113" flag="0"/>
    </comp>
    <comp name="--.HHZ">
      <acc value="0.5807657391" flag="0"/>
      <vel value="0.1099894103" flag="0"/>
      <psa03 value="0.6376754304" flag="0"/>
      <psa10 value="0.0744744274" flag="0"/>
      <psa30 value="0.0079977973" flag="0"/>
    </comp>
  </station>
  <station code="CNIS" name="CNIS" netid="IV" insttype="" commtype="DIG" lat="40.7982" lon="14.1632">
    <comp name="--.HNE">
      <acc value="2.2159619380" flag="0"/>
      <vel value="0.6416441777" flag="0"/>
      <psa03 value="1.2947297750" flag="0"/>
      <psa10 value="0.3546688283" flag="0"/>
      <psa30 value="0.0193075706" flag="0"/>
    </comp>
    <comp name="--.HNN">
      <acc value="1.2877693211" flag="0"/>
      <vel value="0.6712162642" flag="0"/>
      <psa03 value="1.3610007265" flag="0"/>
      <psa10 value="0.3169907387" flag="0"/>
      <psa30 value="0.0284829081" flag="0"/>
    </comp>
    <comp name="--.HNZ">
      <acc value="3.2109780380" flag="0"/>
      <vel value="0.3398827431" flag="0"/>
      <psa03 value="0.7606586706" flag="0"/>
      <psa10 value="0.3208307576" flag="0"/>
      <psa30 value="0.0341981682" flag="0"/>
    </comp>
  </station>
  <station code="CPOZ" name="CPOZ" netid="IV" insttype="" commtype="DIG" lat="40.8211" lon="14.1191">
    <comp name="--.HHE">
      <acc value="1.4372912135" flag="0"/>
      <vel value="0.4816615256" flag="0"/>
      <psa03 value="1.1036489669" flag="0"/>
      <psa10 value="0.5749152783" flag="0"/>
      <psa30 value="0.0424534017" flag="0"/>
    </comp>
    <comp name="--.HHZ">
      <acc value="1.5620213763" flag="0"/>
      <vel value="0.2538543719" flag="0"/>
      <psa03 value="0.6540275655" flag="0"/>
      <psa10 value="0.1731226332" flag="0"/>
      <psa30 value="0.0146720179" flag="0"/>
    </comp>
    <comp name="--.HHN">
      <acc value="1.4478668157" flag="0"/>
      <vel value="0.3662659661" flag="0"/>
      <psa03 value="0.8133198691" flag="0"/>
      <psa10 value="0.2875617798" flag="0"/>
      <psa30 value="0.0268874028" flag="0"/>
    </comp>
  </station>
  <station code="CQUE" name="CQUE" netid="IV" insttype="" commtype="DIG" lat="40.8854" lon="14.1554">
    <comp name="--.HHE">
      <acc value="0.2006053627" flag="0"/>
      <vel value="0.0977612843" flag="0"/>
      <psa03 value="0.8164638359" flag="0"/>
      <psa10 value="0.0709870590" flag="0"/>
      <psa30 value="0.0100308868" flag="0"/>
    </comp>
    <comp name="--.HHN">
      <acc value="0.2404647894" flag="0"/>
      <vel value="0.1136535213" flag="0"/>
      <psa03 value="0.8481997333" flag="0"/>
      <psa10 value="0.0817385914" flag="0"/>
      <psa30 value="0.0102926887" flag="0"/>
    </comp>
    <comp name="--.HHZ">
      <acc value="0.1252174594" flag="0"/>
      <vel value="0.0719715159" flag="0"/>
      <psa03 value="0.3449289076" flag="0"/>
      <psa10 value="0.0554521441" flag="0"/>
      <psa30 value="0.0063699280" flag="0"/>
    </comp>
  </station>
  <station code="CRTO" name="CRTO" netid="IV" insttype="" commtype="DIG" lat="40.8212" lon="14.4223">
    <comp name="--.HHN">
      <acc value="0.0955896304" flag="0"/>
      <vel value="0.0450374500" flag="0"/>
      <psa03 value="0.3350110221" flag="0"/>
      <psa10 value="0.0724537008" flag="0"/>
      <psa30 value="0.0028003508" flag="0"/>
    </comp>
    <comp name="--.HHE">
      <acc value="0.1084713403" flag="0"/>
      <vel value="0.0562129185" flag="0"/>
      <psa03 value="0.2836997469" flag="0"/>
      <psa10 value="0.1161222968" flag="0"/>
      <psa30 value="0.0036731864" flag="0"/>
    </comp>
    <comp name="--.HHZ">
      <acc value="0.0428512123" flag="0"/>
      <vel value="0.0141928006" flag="0"/>
      <psa03 value="0.0897697908" flag="0"/>
      <psa10 value="0.0189352564" flag="0"/>
      <psa30 value="0.0015054262" flag="0"/>
    </comp>
  </station>
  <station code="CSFT" name="CSFT" netid="IV" insttype="" commtype="DIG" lat="40.8292" lon="14.1396">
    <comp name="--.HHE">
      <acc value="10.4873026587" flag="0"/>
      <vel value="2.2947816466" flag="0"/>
      <psa03 value="16.1776404428" flag="0"/>
      <psa10 value="0.3903166277" flag="0"/>
      <psa30 value="0.0495854599" flag="0"/>
    </comp>
    <comp name="--.HHN">
      <acc value="11.5097930483" flag="0"/>
      <vel value="2.3361042454" flag="0"/>
      <psa03 value="15.7684304722" flag="0"/>
      <psa10 value="0.4578889259" flag="0"/>
      <psa30 value="0.0686440483" flag="0"/>
    </comp>
    <comp name="--.HHZ">
      <acc value="8.9223940272" flag="0"/>
      <vel value="1.1186806329" flag="0"/>
      <psa03 value="4.1599049907" flag="0"/>
      <psa10 value="0.1652725551" flag="0"/>
      <psa30 value="0.0239141770" flag="0"/>
    </comp>
  </station>
  <station code="CSOB" name="CSOB" netid="IV" insttype="" commtype="DIG" lat="40.8265" lon="14.144">
    <comp name="--.HNE">
      <acc value="20.5386009406" flag="0"/>
      <vel value="3.3582050254" flag="0"/>
      <psa03 value="15.5974313172" flag="0"/>
      <psa10 value="0.6192555857" flag="0"/>
      <psa30 value="0.0437592785" flag="0"/>
    </comp>
    <comp name="--.HNN">
      <acc value="10.6719442766" flag="0"/>
      <vel value="1.7844639110" flag="0"/>
      <psa03 value="8.9617513567" flag="0"/>
      <psa10 value="0.4865288481" flag="0"/>
      <psa30 value="0.0593935767" flag="0"/>
    </comp>
    <comp name="--.HNZ">
      <acc value="8.0414823279" flag="0"/>
      <vel value="0.8754170084" flag="0"/>
      <psa03 value="3.0716543378" flag="0"/>
      <psa10 value="0.1992956040" flag="0"/>
      <psa30 value="0.0250073403" flag="0"/>
    </comp>
  </station>
  <station code="CSTH" name="CSTH" netid="IV" insttype="" commtype="DIG" lat="40.8294" lon="14.1493">
    <comp name="--.HNN">
      <acc value="13.5730756393" flag="0"/>
      <vel value="1.5173021881" flag="0"/>
      <psa03 value="4.5179602786" flag="0"/>
      <psa10 value="0.2932541128" flag="0"/>
      <psa30 value="0.0399240000" flag="0"/>
    </comp>
    <comp name="--.HNE">
      <acc value="9.7894959560" flag="0"/>
      <vel value="1.2177645761" flag="0"/>
      <psa03 value="5.7822129171" flag="0"/>
      <psa10 value="0.4136067276" flag="0"/>
      <psa30 value="0.0344187821" flag="0"/>
    </comp>
    <comp name="--.HNZ">
      <acc value="8.4966454735" flag="0"/>
      <vel value="0.8892923117" flag="0"/>
      <psa03 value="2.1648221837" flag="0"/>
      <psa10 value="0.1347286673" flag="0"/>
      <psa30 value="0.0146436964" flag="0"/>
    </comp>
  </station>
  <station code="CUMA" name="CUMA" netid="IV" insttype="" commtype="DIG" lat="40.8479" lon="14.0534">
    <comp name="--.HHE">
      <acc value="0.1077703637" flag="0"/>
      <vel value="0.0653385238" flag="0"/>
      <psa03 value="0.3394471024" flag="0"/>
      <psa10 value="0.0816448843" flag="0"/>
      <psa30 value="0.0072899033" flag="0"/>
    </comp>
    <comp name="--.HHZ">
      <acc value="0.1018285558" flag="0"/>
      <vel value="0.0620953732" flag="0"/>
      <psa03 value="0.1454374394" flag="0"/>
      <psa10 value="0.0763660793" flag="0"/>
      <psa30 value="0.0073239190" flag="0"/>
    </comp>
    <comp name="--.HHN">
      <acc value="0.0568257903" flag="0"/>
      <vel value="0.0530793003" flag="0"/>
      <psa03 value="0.1784064948" flag="0"/>
      <psa10 value="0.0960513835" flag="0"/>
      <psa30 value="0.0080021429" flag="0"/>
    </comp>
  </station>
  <station code="GIUL" name="GIUL" netid="IV" insttype="" commtype="DIG" lat="41.5583" lon="13.2546">
    <comp name="--.HHE">
      <acc value="0.0006311184" flag="0"/>
      <vel value="0.0004803479" flag="0"/>
      <psa03 value="0.0014010584" flag="0"/>
      <psa10 value="0.0006492535" flag="0"/>
      <psa30 value="0.0000915300" flag="0"/>
    </comp>
    <comp name="--.HHN">
      <acc value="0.0007508185" flag="0"/>
      <vel value="0.0003832273" flag="0"/>
      <psa03 value="0.0017488071" flag="0"/>
      <psa10 value="0.0007112179" flag="0"/>
      <psa30 value="0.0000892508" flag="0"/>
    </comp>
    <comp name="--.HHZ">
      <acc value="0.0004383927" flag="0"/>
      <vel value="0.0003284678" flag="0"/>
      <psa03 value="0.0009114798" flag="0"/>
      <psa10 value="0.0005294857" flag="0"/>
      <psa30 value="0.0000987028" flag="0"/>
    </comp>
  </station>
  <station code="IBRN" name="IBRN" netid="IV" insttype="" commtype="DIG" lat="40.714" lon="13.9269">
    <comp name="--.HHN">
      <acc value="0.0481384696" flag="0"/>
      <vel value="0.0117887217" flag="0"/>
      <psa03 value="0.0927382975" flag="0"/>
      <psa10 value="0.0138550300" flag="0"/>
      <psa30 value="0.0010602360" flag="0"/>
    </comp>
    <comp name="--.HHE">
      <acc value="0.0569350506" flag="0"/>
      <vel value="0.0157647152" flag="0"/>
      <psa03 value="0.0796956469" flag="0"/>
      <psa10 value="0.0167778683" flag="0"/>
      <psa30 value="0.0023831403" flag="0"/>
    </comp>
    <comp name="--.HHZ">
      <acc value="0.1131299540" flag="0"/>
      <vel value="0.0150554142" flag="0"/>
      <psa03 value="0.0758779898" flag="0"/>
      <psa10 value="0.0113368856" flag="0"/>
      <psa30 value="0.0007879936" flag="0"/>
    </comp>
  </station>
  <station code="IFOR" name="IFOR" netid="IV" insttype="" commtype="DIG" lat="40.7115" lon="13.8552">
    <comp name="--.HHN">
      <acc value="0.0362543255" flag="0"/>
      <vel value="0.0266417838" flag="0"/>
