<stationlist xmlns:esm="https://esm-db.eu/esmws/shakemap/1/" created="1784512410">
	<station code="CREM" name="CREM" netid="2I" source="INGV temporary seismic network of Osservatorio Vesuviano (Mobile_Seismic_Network_OV)" insttype="" lat="40.8235" lon="14.1282" esm:processing="automatic (Paolucci et al 2011)" esm:quality="best">
		<comp name="--.HNE" depth="0.0">
			<acc value="1.12807832625317" flag="0"/>
			<vel value="0.359336431715406" flag="0"/>
			<psa03 value="1.33376618879756" flag="0"/>
			<psa10 value="0.301747239273703" flag="0"/>
			<psa30 value="0.0188780039084438" flag="0"/>
		</comp>
		<comp name="--.HNN" depth="0.0">
			<acc value="1.56659318908087" flag="0"/>
			<vel value="0.429338748413369" flag="0"/>
			<psa03 value="1.28937016444549" flag="0"/>
			<psa10 value="0.32234030346314" flag="0"/>
			<psa30 value="0.042094031856357" flag="0"/>
		</comp>
		<comp name="--.HNZ" depth="0.0">
			<acc value="1.22566278983155" flag="0"/>
			<vel value="0.285502647106523" flag="0"/>
			<psa03 value="1.41255590822979" flag="0"/>
			<psa10 value="0.172870581827641" flag="0"/>
			<psa30 value="0.0146901448166653" flag="0"/>
		</comp>
	</station>
	<station code="BAIP" name="BAIP" netid="IT" source="Italian Strong Motion Network (RAN)" insttype="" lat="40.8183" lon="14.0705" esm:processing="automatic (Paolucci et al 2011)" esm:quality="best">
		<comp name="--.HNE" depth="0.0">
			<acc value="0.327347955906364" flag="0"/>
			<vel value="0.139763757823633" flag="0"/>
			<psa03 value="0.526329575084591" flag="0"/>
			<psa10 value="0.165989130965294" flag="0"/>
			<psa30 value="0.0115679671543847" flag="0"/>
		</comp>
		<comp name="--.HNN" depth="0.0">
			<acc value="0.318601788742111" flag="0"/>
			<vel value="0.122642937637128" flag="0"/>
			<psa03 value="1.00061028552068" flag="0"/>
			<psa10 value="0.114333381525407" flag="0"/>
			<psa30 value="0.012330882693795" flag="0"/>
		</comp>
		<comp name="--.HNZ" depth="0.0">
			<acc value="0.375812530465239" flag="0"/>
			<vel value="0.103225502007728" flag="0"/>
			<psa03 value="0.286080909789595" flag="0"/>
			<psa10 value="0.140480211124546" flag="0"/>
			<psa30 value="0.0156453430938633" flag="0"/>
		</comp>
	</station>
	<station code="BAN" name="BAN" netid="IT" source="Italian Strong Motion Network (RAN)" insttype="" lat="40.8138" lon="14.1652" esm:processing="manual (Paolucci et al 2011)" esm:quality="good">
		<comp name="--.HNE" depth="0.0">
			<acc value="4.49139500942795" flag="0"/>
			<vel value="0.855673807728948" flag="0"/>
			<psa03 value="3.65365637013664" flag="0"/>
			<psa10 value="0.476882641134556" flag="0"/>
			<psa30 value="0.0452278361221764" flag="0"/>
		</comp>
		<comp name="--.HNN" depth="0.0">
			<acc value="4.5059650233882" flag="0"/>
			<vel value="0.996671699271638" flag="0"/>
			<psa03 value="2.50409138376473" flag="0"/>
			<psa10 value="0.717594557117637" flag="0"/>
			<psa30 value="0.0475371657705986" flag="0"/>
		</comp>
		<comp name="--.HNZ" depth="0.0">
			<acc value="4.29646028996314" flag="0"/>
			<vel value="0.7405395265731" flag="0"/>
			<psa03 value="2.39177294321928" flag="0"/>
			<psa10 value="0.504237883285096" flag="0"/>
			<psa30 value="0.041706442847154" flag="0"/>
		</comp>
	</station>
	<station code="BCLI" name="BCLI" netid="IT" source="Italian Strong Motion Network (RAN)" insttype="" lat="40.7968" lon="14.0777" esm:processing="automatic (Paolucci et al 2011)" esm:quality="best">
		<comp name="--.HNE" depth="0.0">
			<acc value="0.712076490811002" flag="0"/>
			<vel value="0.31885341732454" flag="0"/>
			<psa03 value="1.41992406300055" flag="0"/>
			<psa10 value="0.210677751367075" flag="0"/>
			<psa30 value="0.0269175348212442" flag="0"/>
		</comp>
		<comp name="--.HNN" depth="0.0">
			<acc value="0.591843663242547" flag="0"/>
			<vel value="0.310971431392987" flag="0"/>
			<psa03 value="1.78688370560926" flag="0"/>
			<psa10 value="0.348800526323045" flag="0"/>
			<psa30 value="0.0382117346732219" flag="0"/>
		</comp>
		<comp name="--.HNZ" depth="0.0">
			<acc value="1.49470124224091" flag="0"/>
			<vel value="0.256644586487357" flag="0"/>
			<psa03 value="1.46124580036285" flag="0"/>
			<psa10 value="0.131952191185078" flag="0"/>
			<psa30 value="0.017199937744796" flag="0"/>
		</comp>
	</station>
	<station code="BGI" name="BGI" netid="IT" source="Italian Strong Motion Network (RAN)" insttype="" lat="40.8311" lon="15.0681" esm:processing="automatic (Paolucci et al 2011)" esm:quality="good">
		<comp name="--.HGE" depth="0.0">
			<acc value="0.0147863568221276" flag="0"/>
			<vel value="0.00160969555445429" flag="0"/>
			<psa03 value="0.00257587392676633" flag="0"/>
			<psa10 value="0.002595300363412" flag="0"/>
			<psa30 value="0.000416035398845044" flag="0"/>
		</comp>
		<comp name="--.HGN" depth="0.0">
			<acc value="0.0140259170796502" flag="0"/>
			<vel value="0.00162987933938869" flag="0"/>
			<psa03 value="0.00301466682927806" flag="0"/>
			<psa10 value="0.00237063915258436" flag="0"/>
			<psa30 value="0.000530796412657325" flag="0"/>
		</comp>
		<comp name="--.HGZ" depth="0.0">
			<acc value="0.0140230476109978" flag="0"/>
			<vel value="0.00161576896143672" flag="0"/>
			<psa03 value="0.00459965561606896" flag="0"/>
			<psa10 value="0.00172248711413028" flag="0"/>
			<psa30 value="0.000643561382783174" flag="0"/>
		</comp>
	</station>
	<station code="FORN" name="FORN" netid="IT" source="Italian Strong Motion Network (RAN)" insttype="" lat="41.606" lon="14.1415" esm:processing="automatic (Paolucci et al 2011)" esm:quality="good">
		<comp name="--.HNE" depth="0.0">
			<acc value="0.00105049652895887" flag="0"/>
			<vel value="0.00117996219127968" flag="0"/>
			<psa03 value="0.00255940864331378" flag="0"/>
			<psa10 value="0.00215915537719715" flag="0"/>
			<psa30 value="0.000369479007420933" flag="0"/>
		</comp>
		<comp name="--.HNN" depth="0.0">
			<acc value="0.000887194375318559" flag="0"/>
			<vel value="0.00116413637949419" flag="0"/>
			<psa03 value="0.00387118743675222" flag="0"/>
			<psa10 value="0.00180959378295709" flag="0"/>
			<psa30 value="0.000289168713299756" flag="0"/>
		</comp>
		<comp name="--.HNZ" depth="0.0">
			<acc value="0.00077741171204986" flag="0"/>
			<vel value="0.000913230617582117" flag="0"/>
			<psa03 value="0.00208572752468104" flag="0"/>
			<psa10 value="0.00134096273845032" flag="0"/>
			<psa30 value="0.000411574426244169" flag="0"/>
		</comp>
	</station>
	<station code="GLNS" name="GLNS" netid="IT" source="Italian Strong Motion Network (RAN)" insttype="" lat="41.912" lon="14.9182" esm:processing="automatic (Paolucci et al 2011)" esm:quality="good">
		<comp name="--.HNE" depth="0.0">
			<acc value="0.00981527734236503" flag="0"/>
			<vel value="0.00134237075665263" flag="0"/>
			<psa03 value="0.00203353103306547" flag="0"/>
			<psa10 value="0.000499769122876651" flag="0"/>
			<psa30 value="0.000553176905671816" flag="0"/>
		</comp>
		<comp name="--.HNN" depth="0.0">
			<acc value="0.0105568076550259" flag="0"/>
			<vel value="0.00143694652313305" flag="0"/>
			<psa03 value="0.00176585037735866" flag="0"/>
			<psa10 value="0.00113904830792274" flag="0"/>
			<psa30 value="0.000471308826063329" flag="0"/>
		</comp>
		<comp name="--.HNZ" depth="0.0">
			<acc value="0.0240425111091224" flag="0"/>
			<vel value="0.00280659081979375" flag="0"/>
			<psa03 value="0.00194801950897167" flag="0"/>
			<psa10 value="0.000588683294254136" flag="0"/>
			<psa30 value="0.000283843725128757" flag="0"/>
		</comp>
	</station>
	<station code="MCLF" name="MCLF" netid="IT" source="Italian Strong Motion Network (RAN)" insttype="" lat="41.9016" lon="14.8374" esm:processing="automatic (Paolucci et al 2011)" esm:quality="good">
		<comp name="--.HNE" depth="0.0">
			<acc value="0.00438557963226552" flag="0"/>
			<vel value="0.000183131564337627" flag="0"/>
			<psa03 value="3.1226438918965e-05" flag="0"/>
			<psa10 value="2.78564306179294e-06" flag="0"/>
			<psa30 value="3.09382016443216e-07" flag="0"/>
		</comp>
		<comp name="--.HNN" depth="0.0">
			<acc value="0.0043713563434413" flag="0"/>
			<vel value="0.000199361463726742" flag="0"/>
			<psa03 value="3.04458441989556e-05" flag="0"/>
			<psa10 value="2.72260711717215e-06" flag="0"/>
			<psa30 value="3.02645552322573e-07" flag="0"/>
		</comp>
		<comp name="--.HNZ" depth="0.0">
			<acc value="0.00808523975310389" flag="0"/>
			<vel value="0.000349378311643787" flag="0"/>
			<psa03 value="6.19217961068925e-05" flag="0"/>
			<psa10 value="5.53148826012197e-06" flag="0"/>
			<psa30 value="6.1462150586018e-07" flag="0"/>
		</comp>
	</station>
	<station code="MPCD" name="MPCD" netid="IT" source="Italian Strong Motion Network (RAN)" insttype="" lat="40.7944" lon="14.0552" esm:processing="automatic (Paolucci et al 2011)" esm:quality="best">
		<comp name="--.HNE" depth="0.0">
			<acc value="1.2341228790679" flag="0"/>
			<vel value="0.229745563318989" flag="0"/>
			<psa03 value="0.815291759077794" flag="0"/>
			<psa10 value="0.13010183360797" flag="0"/>
			<psa30 value="0.0151574741082706" flag="0"/>
		</comp>
		<comp name="--.HNN" depth="0.0">
			<acc value="0.747748369144168" flag="0"/>
			<vel value="0.191065889408825" flag="0"/>
			<psa03 value="1.08992828573317" flag="0"/>
			<psa10 value="0.289159035366974" flag="0"/>
			<psa30 value="0.0180850297111283" flag="0"/>
		</comp>
		<comp name="--.HNZ" depth="0.0">
			<acc value="0.784613928720707" flag="0"/>
			<vel value="0.228687606094486" flag="0"/>
			<psa03 value="0.810251591858119" flag="0"/>
			<psa10 value="0.0678179776081831" flag="0"/>
			<psa30 value="0.0131320249322031" flag="0"/>
		</comp>
	</station>
	<station code="NAAG" name="NAAG" netid="IT" source="Italian Strong Motion Network (RAN)" insttype="" lat="40.8334" lon="14.1657" esm:processing="manual (Paolucci et al 2011)" esm:quality="good">
		<comp name="--.HNE" depth="0.0">
			<acc value="4.13801162343992" flag="0"/>
			<vel value="0.970205612483839" flag="0"/>
			<psa03 value="3.59448645041985" flag="0"/>
			<psa10 value="0.453974293568959" flag="0"/>
			<psa30 value="0.0432028686446857" flag="0"/>
		</comp>
		<comp name="--.HNN" depth="0.0">
			<acc value="3.45505301783946" flag="0"/>
			<vel value="0.921317930347559" flag="0"/>
			<psa03 value="3.76862531959864" flag="0"/>
			<psa10 value="0.508170663812505" flag="0"/>
			<psa30 value="0.0367699624962244" flag="0"/>
		</comp>
		<comp name="--.HNZ" depth="0.0">
			<acc value="2.43939249562796" flag="0"/>
			<vel value="0.526622521932189" flag="0"/>
			<psa03 value="1.50657063624412" flag="0"/>
			<psa10 value="0.103441745007941" flag="0"/>
			<psa30 value="0.015888174180231" flag="0"/>
		</comp>
	</station>
	<station code="NABA" name="NABA" netid="IT" source="Italian Strong Motion Network (RAN)" insttype="" lat="40.8188" lon="14.1611" esm:processing="manual (Paolucci et al 2011)" esm:quality="good">
		<comp name="--.HNE" depth="0.0">
			<acc value="12.9108488807577" flag="0"/>
			<vel value="2.21349240900617" flag="0"/>
			<psa03 value="5.90285103491137" flag="0"/>
			<psa10 value="0.615382586076186" flag="0"/>
			<psa30 value="0.0421075694198208" flag="0"/>
		</comp>
		<comp name="--.HNN" depth="0.0">
			<acc value="11.2193327592929" flag="0"/>
			<vel value="2.59028494482831" flag="0"/>
			<psa03 value="6.88971507647751" flag="0"/>
			<psa10 value="1.22205103488355" flag="0"/>
			<psa30 value="0.108001941265229" flag="0"/>
		</comp>
		<comp name="--.HNZ" depth="0.0">
			<acc value="7.0396571483609" flag="0"/>
			<vel value="1.32162433677405" flag="0"/>
			<psa03 value="3.49453816266964" flag="0"/>
			<psa10 value="0.235254104429851" flag="0"/>
			<psa30 value="0.0391405762044149" flag="0"/>
		</comp>
	</station>
	<station code="NACO" name="NACO" netid="IT" source="Italian Strong Motion Network (RAN)" insttype="" lat="40.8049" lon="14.1744" esm:processing="automatic (Paolucci et al 2011)" esm:quality="best">
		<comp name="--.HNE" depth="0.0">
			<acc value="5.19510265936123" flag="0"/>
			<vel value="1.76823359420621" flag="0"/>
			<psa03 value="3.43982120460637" flag="0"/>
			<psa10 value="1.39606040215013" flag="0"/>
			<psa30 value="0.123293620930626" flag="0"/>
		</comp>
		<comp name="--.HNN" depth="0.0">
			<acc value="3.10052424206177" flag="0"/>
			<vel value="0.582729548821465" flag="0"/>
			<psa03 value="1.9477651965518" flag="0"/>
			<psa10 value="0.669605478076669" flag="0"/>
			<psa30 value="0.0379965704196461" flag="0"/>
		</comp>
		<comp name="--.HNZ" depth="0.0">
			<acc value="2.11036621191441" flag="0"/>
			<vel value="0.43807885781131" flag="0"/>
			<psa03 value="1.92639061392394" flag="0"/>
			<psa10 value="0.456457948098882" flag="0"/>
			<psa30 value="0.0449047480525107" flag="0"/>
		</comp>
	</station>
	<station code="NAFG" name="NAFG" netid="IT" source="Italian Strong Motion Network (RAN)" insttype="" lat="40.8202" lon="14.1786" esm:processing="manual (Paolucci et al 2011)" esm:quality="good">
		<comp name="--.HNE" depth="0.0">
			<acc value="4.43365997455772" flag="0"/>
			<vel value="1.7010067488058" flag="0"/>
			<psa03 value="4.73768651514693" flag="0"/>
			<psa10 value="1.0790806437968" flag="0"/>
			<psa30 value="0.0756437310259403" flag="0"/>
		</comp>
		<comp name="--.HNN" depth="0.0">
			<acc value="5.16298059050463" flag="0"/>
			<vel value="0.931691332657149" flag="0"/>
			<psa03 value="3.19633207464649" flag="0"/>
			<psa10 value="0.61749448597919" flag="0"/>
			<psa30 value="0.0320128740291267" flag="0"/>
		</comp>
		<comp name="--.HNZ" depth="0.0">
			<acc value="2.38395845613834" flag="0"/>
			<vel value="0.50364298885537" flag="0"/>
			<psa03 value="2.81622856132085" flag="0"/>
			<psa10 value="0.258206614921026" flag="0"/>
			<psa30 value="0.0216444388378476" flag="0"/>
		</comp>
	</station>
	<station code="NAP" name="NAP" netid="IT" source="Italian Strong Motion Network (RAN)" insttype="" lat="40.7992" lon="14.1796" esm:processing="manual (Paolucci et al 2011)" esm:quality="good">
		<comp name="--.HGE" depth="0.0">
			<acc value="7.39096787578551" flag="0"/>
			<vel value="2.47645110948458" flag="0"/>
			<psa03 value="4.6379399074237" flag="0"/>
			<psa10 value="1.00173215983934" flag="0"/>
			<psa30 value="0.0654392883650281" flag="0"/>
		</comp>
		<comp name="--.HGN" depth="0.0">
			<acc value="5.76569582848842" flag="0"/>
			<vel value="1.02633341000797" flag="0"/>
			<psa03 value="3.34987691290514" flag="0"/>
			<psa10 value="0.548319323464168" flag="0"/>
			<psa30 value="0.0457849530284372" flag="0"/>
		</comp>
		<comp name="--.HGZ" depth="0.0">
			<acc value="3.71355509737345" flag="0"/>
			<vel value="0.735816607711738" flag="0"/>
			<psa03 value="2.23514640081286" flag="0"/>
			<psa10 value="0.651354549042191" flag="0"/>
			<psa30 value="0.0297413568855973" flag="0"/>
		</comp>
	</station>
	<station code="POT7" name="POT7" netid="IT" source="Italian Strong Motion Network (RAN)" insttype="" lat="40.6501" lon="15.801" esm:processing="automatic (Paolucci et al 2011)" esm:quality="good">
		<comp name="--.HNE" depth="0.0">
			<acc value="0.000357028264564604" flag="0"/>
			<vel value="0.000384915900686073" flag="0"/>
			<psa03 value="0.000528307011093043" flag="0"/>
			<psa10 value="0.00096782257052672" flag="0"/>
			<psa30 value="8.99821783256211e-05" flag="0"/>
		</comp>
		<comp name="--.HNN" depth="0.0">
			<acc value="0.000242605811217808" flag="0"/>
			<vel value="0.00035335012005363" flag="0"/>
			<psa03 value="0.000341003628228269" flag="0"/>
			<psa10 value="0.000604907865146082" flag="0"/>
			<psa30 value="6.48952364909282e-05" flag="0"/>
		</comp>
		<comp name="--.HNZ" depth="0.0">
			<acc value="0.000169492005040529" flag="0"/>
			<vel value="0.000296281882205042" flag="0"/>
			<psa03 value="0.000237036942768516" flag="0"/>
			<psa10 value="0.000639029324744071" flag="0"/>
			<psa30 value="0.000101150763241643" flag="0"/>
		</comp>
	</station>
	<station code="POZB" name="POZB" netid="IT" source="Italian Strong Motion Network (RAN)" insttype="" lat="40.8401" lon="14.1012" esm:processing="automatic (Paolucci et al 2011)" esm:quality="best">
		<comp name="--.HNE" depth="0.0">
			<acc value="0.620111599383055" flag="0"/>
			<vel value="0.432623976187572" flag="0"/>
			<psa03 value="1.26089036113163" flag="0"/>
			<psa10 value="0.353812058312444" flag="0"/>
			<psa30 value="0.0282882606251015" flag="0"/>
		</comp>
		<comp name="--.HNN" depth="0.0">
			<acc value="0.613695493371664" flag="0"/>
			<vel value="0.235992331735622" flag="0"/>
			<psa03 value="1.09961617750846" flag="0"/>
			<psa10 value="0.390026497341298" flag="0"/>
			<psa30 value="0.0231784871276847" flag="0"/>
		</comp>
		<comp name="--.HNZ" depth="0.0">
			<acc value="0.775561163871668" flag="0"/>
			<vel value="0.23404716792874" flag="0"/>
			<psa03 value="0.800257596471639" flag="0"/>
			<psa10 value="0.0969392567500065" flag="0"/>
			<psa30 value="0.0151909179904304" flag="0"/>
		</comp>
	</station>
	<station code="POZL" name="POZL" netid="IT" source="Italian Strong Motion Network (RAN)" insttype="" lat="40.8321" lon="14.0843" esm:processing="automatic (Paolucci et al 2011)" esm:quality="best">
		<comp name="--.HNE" depth="0.0">
			<acc value="0.441627119746427" flag="0"/>
			<vel value="0.409545477183376" flag="0"/>
			<psa03 value="0.410336516113699" flag="0"/>
			<psa10 value="0.600085052689676" flag="0"/>
			<psa30 value="0.0473981132257166" flag="0"/>
		</comp>
		<comp name="--.HNN" depth="0.0">
			<acc value="0.330001763693159" flag="0"/>
			<vel value="0.162411983115463" flag="0"/>
			<psa03 value="0.284585873250761" flag="0"/>
			<psa10 value="0.214645004178104" flag="0"/>
			<psa30 value="0.0341913616765752" flag="0"/>
		</comp>
		<comp name="--.HNZ" depth="0.0">
			<acc value="0.576009728788667" flag="0"/>
			<vel value="0.110767639520118" flag="0"/>
			<psa03 value="0.294190217824787" flag="0"/>
			<psa10 value="0.197286664273275" flag="0"/>
			<psa30 value="0.0202173843024883" flag="0"/>
		</comp>
	</station>
	<station code="POZM" name="POZM" netid="IT" source="Italian Strong Motion Network (RAN)" insttype="" lat="40.8239" lon="14.1435" esm:processing="manual (Paolucci et al 2011)" esm:quality="good">
		<comp name="--.HNE" depth="0.0">
			<acc value="9.28933178335279" flag="0"/>
			<vel value="1.66808717247593" flag="0"/>
			<psa03 value="4.91900919355116" flag="0"/>
			<psa10 value="0.359615402755532" flag="0"/>
			<psa30 value="0.0408858951565632" flag="0"/>
		</comp>
		<comp name="--.HNN" depth="0.0">
			<acc value="4.63580972120197" flag="0"/>
			<vel value="0.682530349404332" flag="0"/>
			<psa03 value="3.64264397395277" flag="0"/>
			<psa10 value="0.284478335293566" flag="0"/>
			<psa30 value="0.0427694432657148" flag="0"/>
		</comp>
		<comp name="--.HNZ" depth="0.0">
			<acc value="7.07939669706412" flag="0"/>
			<vel value="0.806428244177582" flag="0"/>
			<psa03 value="4.44588418467463" flag="0"/>
			<psa10 value="0.269439539047121" flag="0"/>
			<psa30 value="0.0398623873541944" flag="0"/>
		</comp>
	</station>
	<station code="POZS" name="POZS" netid="IT" source="Italian Strong Motion Network (RAN)" insttype="" lat="40.8288" lon="14.13" esm:processing="automatic (Paolucci et al 2011)" esm:quality="best">
		<comp name="--.HNE" depth="0.0">
			<acc value="5.17599519568932" flag="0"/>
			<vel value="1.0959815809294" flag="0"/>
			<psa03 value="3.90760119273484" flag="0"/>
			<psa10 value="0.253601729869991" flag="0"/>
			<psa30 value="0.0276977381725538" flag="0"/>
		</comp>
		<comp name="--.HNN" depth="0.0">
			<acc value="7.38284043924579" flag="0"/>
			<vel value="0.946608926111681" flag="0"/>
			<psa03 value="4.34140826365761" flag="0"/>
			<psa10 value="0.544241813349134" flag="0"/>
			<psa30 value="0.0499766407071742" flag="0"/>
		</comp>
		<comp name="--.HNZ" depth="0.0">
			<acc value="3.42270269874874" flag="0"/>
			<vel value="0.473992730077391" flag="0"/>
			<psa03 value="1.64989279730057" flag="0"/>
			<psa10 value="0.162603931712457" flag="0"/>
			<psa30 value="0.0174079865270068" flag="0"/>
		</comp>
	</station>
