<?xml version="1.0" encoding="UTF-8" standalone="yes"?>
<!DOCTYPE earthquake SYSTEM "stationlist.dtd">
<stationlist created="" xmlns="ch.ethz.sed.shakemap.usgs.xml">
  <station code="CGAU" name="CGAU" netid="2I" insttype="" commtype="DIG" lat="40.8524" lon="14.113">
    <comp name="--.HHZ">
      <acc value="0.8668093736" flag="0"/>
      <vel value="0.2036662948" flag="0"/>
      <psa03 value="0.5315027812" flag="0"/>
      <psa10 value="0.1185823539" flag="0"/>
      <psa30 value="0.0104679841" flag="0"/>
    </comp>
    <comp name="--.HHN">
      <acc value="1.0534317930" flag="0"/>
      <vel value="0.2230795330" flag="0"/>
      <psa03 value="0.7821326690" flag="0"/>
      <psa10 value="0.1536431174" flag="0"/>
      <psa30 value="0.0114230578" flag="0"/>
    </comp>
    <comp name="--.HHE">
      <acc value="1.3996640207" flag="0"/>
      <vel value="0.2936085935" flag="0"/>
      <psa03 value="0.9398196854" flag="0"/>
      <psa10 value="0.3389479070" flag="0"/>
      <psa30 value="0.0149454483" flag="0"/>
    </comp>
  </station>
  <station code="CLAC" name="CLAC" netid="2I" insttype="" commtype="DIG" lat="40.8836" lon="14.0706">
    <comp name="--.HHE">
      <acc value="0.1643419050" flag="0"/>
      <vel value="0.0938842407" flag="0"/>
      <psa03 value="0.3905960630" flag="0"/>
      <psa10 value="0.1641867600" flag="0"/>
      <psa30 value="0.0100719578" flag="0"/>
    </comp>
    <comp name="--.HHN">
      <acc value="0.1596010584" flag="0"/>
      <vel value="0.1079037548" flag="0"/>
      <psa03 value="0.4442723073" flag="0"/>
      <psa10 value="0.1151199825" flag="0"/>
      <psa30 value="0.0111292950" flag="0"/>
    </comp>
    <comp name="--.HHZ">
      <acc value="0.1388385801" flag="0"/>
      <vel value="0.0571164638" flag="0"/>
      <psa03 value="0.3083656813" flag="0"/>
      <psa10 value="0.0576395131" flag="0"/>
      <psa30 value="0.0039938112" flag="0"/>
    </comp>
  </station>
  <station code="CREM" name="CREM" netid="2I" insttype="" commtype="DIG" lat="40.8235" lon="14.1282">
    <comp name="--.HHE">
      <acc value="0.0277311166" flag="0"/>
      <vel value="0.0033566514" flag="0"/>
      <psa03 value="0.0119806306" flag="0"/>
      <psa10 value="0.0025436388" flag="0"/>
      <psa30 value="0.0001424519" flag="0"/>
    </comp>
    <comp name="--.HHN">
      <acc value="0.0205662284" flag="0"/>
      <vel value="0.0038251611" flag="0"/>
      <psa03 value="0.0112995804" flag="0"/>
      <psa10 value="0.0027278876" flag="0"/>
      <psa30 value="0.0003182340" flag="0"/>
    </comp>
    <comp name="--.HHZ">
      <acc value="0.0218126411" flag="0"/>
      <vel value="0.0031479468" flag="0"/>
      <psa03 value="0.0123530707" flag="0"/>
      <psa10 value="0.0015053077" flag="0"/>
      <psa30 value="0.0001196765" flag="0"/>
    </comp>
  </station>
  <station code="CSOC" name="CSOC" netid="2I" insttype="" commtype="DIG" lat="40.8416" lon="14.2125">
    <comp name="--.HNE">
      <acc value="1.2498010863" flag="0"/>
      <vel value="0.3234545839" flag="0"/>
      <psa03 value="2.0617344862" flag="0"/>
      <psa10 value="0.1646568835" flag="0"/>
      <psa30 value="0.0220923650" flag="0"/>
    </comp>
    <comp name="--.HNN">
      <acc value="0.8887926452" flag="0"/>
      <vel value="0.4435003122" flag="0"/>
      <psa03 value="3.0230503708" flag="0"/>
      <psa10 value="0.1480630563" flag="0"/>
      <psa30 value="0.0152593788" flag="0"/>
    </comp>
    <comp name="--.HNZ">
      <acc value="0.8422874375" flag="0"/>
      <vel value="0.1666507689" flag="0"/>
      <psa03 value="0.7453754953" flag="0"/>
      <psa10 value="0.1099690308" flag="0"/>
      <psa30 value="0.0106051791" flag="0"/>
    </comp>
  </station>
  <station code="CAMPI" name="CAMPI" netid="GX" insttype="Trillium Compact" commtype="DIG" lat="40.7071" lon="15.2738">
    <comp name="--.HHZ">
      <acc value="0.0002954185" flag="0"/>
      <vel value="0.0002440665" flag="0"/>
      <psa03 value="0.0010503611" flag="0"/>
      <psa10 value="0.0003936526" flag="0"/>
      <psa30 value="0.0000258041" flag="0"/>
    </comp>
    <comp name="--.HHN">
      <acc value="0.0005435102" flag="0"/>
      <vel value="0.0004511327" flag="0"/>
      <psa03 value="0.0017826171" flag="0"/>
      <psa10 value="0.0009810176" flag="0"/>
      <psa30 value="0.0000541063" flag="0"/>
    </comp>
    <comp name="--.HHE">
      <acc value="0.0004195914" flag="0"/>
      <vel value="0.0003961890" flag="0"/>
      <psa03 value="0.0013326734" flag="0"/>
      <psa10 value="0.0005911220" flag="0"/>
      <psa30 value="0.0000751054" flag="0"/>
    </comp>
  </station>
  <station code="BSSO" name="BSSO" netid="IV" insttype="" commtype="DIG" lat="41.5461" lon="14.5938">
    <comp name="--.HHE">
      <acc value="0.0012053868" flag="0"/>
      <vel value="0.0006885715" flag="0"/>
      <psa03 value="0.0017293538" flag="0"/>
      <psa10 value="0.0007717930" flag="0"/>
      <psa30 value="0.0001117658" flag="0"/>
    </comp>
    <comp name="--.HHN">
      <acc value="0.0005273101" flag="0"/>
      <vel value="0.0006207067" flag="0"/>
      <psa03 value="0.0012866235" flag="0"/>
      <psa10 value="0.0009833796" flag="0"/>
      <psa30 value="0.0002653025" flag="0"/>
    </comp>
    <comp name="--.HHZ">
      <acc value="0.0003988838" flag="0"/>
      <vel value="0.0004595421" flag="0"/>
      <psa03 value="0.0013544814" flag="0"/>
      <psa10 value="0.0007968919" flag="0"/>
      <psa30 value="0.0001361817" flag="0"/>
    </comp>
  </station>
  <station code="CAFE" name="CAFE" netid="IV" insttype="" commtype="DIG" lat="41.028" lon="15.2366">
    <comp name="--.HHE">
      <acc value="0.0007431680" flag="0"/>
      <vel value="0.0010960999" flag="0"/>
      <psa03 value="0.0023485844" flag="0"/>
      <psa10 value="0.0016279693" flag="0"/>
      <psa30 value="0.0003623267" flag="0"/>
    </comp>
    <comp name="--.HHN">
      <acc value="0.0008020978" flag="0"/>
      <vel value="0.0009121050" flag="0"/>
      <psa03 value="0.0020169217" flag="0"/>
      <psa10 value="0.0016936647" flag="0"/>
      <psa30 value="0.0001365483" flag="0"/>
    </comp>
    <comp name="--.HHZ">
      <acc value="0.0009422477" flag="0"/>
      <vel value="0.0008422267" flag="0"/>
      <psa03 value="0.0020485230" flag="0"/>
      <psa10 value="0.0010321278" flag="0"/>
      <psa30 value="0.0001701264" flag="0"/>
    </comp>
  </station>
  <station code="CAWE" name="CAWE" netid="IV" insttype="" commtype="DIG" lat="40.8405" lon="14.1393">
    <comp name="--.HNE">
      <acc value="5.5715442019" flag="0"/>
      <vel value="0.9455671370" flag="0"/>
      <psa03 value="4.3771312821" flag="0"/>
      <psa10 value="0.5277190582" flag="0"/>
      <psa30 value="0.0382663022" flag="0"/>
    </comp>
    <comp name="--.HNN">
      <acc value="5.7468198177" flag="0"/>
      <vel value="1.2103695302" flag="0"/>
      <psa03 value="3.5336966874" flag="0"/>
      <psa10 value="0.4032652416" flag="0"/>
      <psa30 value="0.0546172339" flag="0"/>
    </comp>
    <comp name="--.HNZ">
      <acc value="4.6410919773" flag="0"/>
      <vel value="0.8792698047" flag="0"/>
      <psa03 value="5.4596684924" flag="0"/>
      <psa10 value="0.1678583558" flag="0"/>
      <psa30 value="0.0172123244" flag="0"/>
    </comp>
  </station>
  <station code="CBAC" name="CBAC" netid="IV" insttype="" commtype="DIG" lat="40.8109" lon="14.0806">
    <comp name="--.HHE">
      <acc value="0.4148996131" flag="0"/>
      <vel value="0.2470763417" flag="0"/>
      <psa03 value="0.3101856435" flag="0"/>
      <psa10 value="0.3902752115" flag="0"/>
      <psa30 value="0.0271598237" flag="0"/>
    </comp>
    <comp name="--.HHN">
      <acc value="0.4633588758" flag="0"/>
      <vel value="0.1532042607" flag="0"/>
      <psa03 value="0.3644318059" flag="0"/>
      <psa10 value="0.2059647202" flag="0"/>
      <psa30 value="0.0177722020" flag="0"/>
    </comp>
    <comp name="--.HHZ">
      <acc value="0.3249169637" flag="0"/>
      <vel value="0.1070321761" flag="0"/>
      <psa03 value="0.4306977943" flag="0"/>
      <psa10 value="0.1626799850" flag="0"/>
      <psa30 value="0.0178419193" flag="0"/>
    </comp>
  </station>
  <station code="CERA" name="CERA" netid="IV" insttype="" commtype="DIG" lat="41.5978" lon="14.0183">
    <comp name="--.HHE">
      <acc value="0.0013146956" flag="0"/>
      <vel value="0.0011008215" flag="0"/>
      <psa03 value="0.0046539400" flag="0"/>
      <psa10 value="0.0027481880" flag="0"/>
      <psa30 value="0.0002453629" flag="0"/>
    </comp>
    <comp name="--.HHN">
      <acc value="0.0012738437" flag="0"/>
      <vel value="0.0010373128" flag="0"/>
      <psa03 value="0.0034344265" flag="0"/>
      <psa10 value="0.0017795688" flag="0"/>
      <psa30 value="0.0001639990" flag="0"/>
    </comp>
    <comp name="--.HHZ">
      <acc value="0.0006868108" flag="0"/>
      <vel value="0.0007472356" flag="0"/>
      <psa03 value="0.0014684274" flag="0"/>
      <psa10 value="0.0012748721" flag="0"/>
      <psa30 value="0.0001315831" flag="0"/>
    </comp>
  </station>
  <station code="CFMN" name="CFMN" netid="IV" insttype="" commtype="DIG" lat="40.8329" lon="14.0904">
    <comp name="--.HHE">
      <acc value="0.7064639461" flag="0"/>
      <vel value="0.2562816308" flag="0"/>
      <psa03 value="0.5201014732" flag="0"/>
      <psa10 value="0.2367873234" flag="0"/>
      <psa30 value="0.0342178202" flag="0"/>
    </comp>
    <comp name="--.HHN">
      <acc value="0.7173176662" flag="0"/>
      <vel value="0.1809124745" flag="0"/>
      <psa03 value="0.5634233127" flag="0"/>
      <psa10 value="0.1307145083" flag="0"/>
      <psa30 value="0.0164923858" flag="0"/>
    </comp>
    <comp name="--.HHZ">
      <acc value="0.7143044602" flag="0"/>
      <vel value="0.1280936775" flag="0"/>
      <psa03 value="0.3362977684" flag="0"/>
      <psa10 value="0.1567277056" flag="0"/>
      <psa30 value="0.0171569632" flag="0"/>
    </comp>
  </station>
  <station code="CMIS" name="CMIS" netid="IV" insttype="" commtype="DIG" lat="40.7782" lon="14.089">
    <comp name="--.HHE">
      <acc value="0.3272691360" flag="0"/>
      <vel value="0.1626816364" flag="0"/>
      <psa03 value="0.9997422999" flag="0"/>
      <psa10 value="0.1487842546" flag="0"/>
      <psa30 value="0.0193470326" flag="0"/>
    </comp>
    <comp name="--.HHN">
      <acc value="0.4211978937" flag="0"/>
      <vel value="0.1902168221" flag="0"/>
      <psa03 value="0.6729588034" flag="0"/>
      <psa10 value="0.1740827275" flag="0"/>
      <psa30 value="0.0240445174" flag="0"/>
    </comp>
    <comp name="--.HHZ">
      <acc value="0.5807657390" flag="0"/>
      <vel value="0.1099893989" flag="0"/>
      <psa03 value="0.6376754304" flag="0"/>
      <psa10 value="0.0744744277" flag="0"/>
      <psa30 value="0.0079953828" flag="0"/>
    </comp>
  </station>
  <station code="CNIS" name="CNIS" netid="IV" insttype="" commtype="DIG" lat="40.7982" lon="14.1632">
    <comp name="--.HNE">
      <acc value="2.2159619382" flag="0"/>
      <vel value="0.6416441718" flag="0"/>
      <psa03 value="1.2947297750" flag="0"/>
      <psa10 value="0.3546687188" flag="0"/>
      <psa30 value="0.0193170101" flag="0"/>
    </comp>
    <comp name="--.HNN">
      <acc value="1.2877693209" flag="0"/>
      <vel value="0.6712162651" flag="0"/>
      <psa03 value="1.3610007265" flag="0"/>
      <psa10 value="0.3169905444" flag="0"/>
      <psa30 value="0.0284865779" flag="0"/>
    </comp>
    <comp name="--.HNZ">
      <acc value="3.2109780383" flag="0"/>
      <vel value="0.3398827499" flag="0"/>
      <psa03 value="0.7606586706" flag="0"/>
      <psa10 value="0.3208311724" flag="0"/>
      <psa30 value="0.0341937661" flag="0"/>
    </comp>
  </station>
  <station code="CPOZ" name="CPOZ" netid="IV" insttype="" commtype="DIG" lat="40.8211" lon="14.1191">
    <comp name="--.HHE">
      <acc value="1.4372912135" flag="0"/>
      <vel value="0.4816615425" flag="0"/>
      <psa03 value="1.1036489669" flag="0"/>
      <psa10 value="0.5749153462" flag="0"/>
      <psa30 value="0.0424588587" flag="0"/>
    </comp>
    <comp name="--.HHZ">
      <acc value="1.5620213760" flag="0"/>
      <vel value="0.2538543622" flag="0"/>
      <psa03 value="0.6540275655" flag="0"/>
      <psa10 value="0.1731226059" flag="0"/>
      <psa30 value="0.0146740571" flag="0"/>
    </comp>
    <comp name="--.HHN">
      <acc value="1.4478668157" flag="0"/>
      <vel value="0.3662659542" flag="0"/>
      <psa03 value="0.8133198691" flag="0"/>
      <psa10 value="0.2875617679" flag="0"/>
      <psa30 value="0.0268875866" flag="0"/>
    </comp>
  </station>
  <station code="CQUE" name="CQUE" netid="IV" insttype="" commtype="DIG" lat="40.8854" lon="14.1554">
    <comp name="--.HHE">
      <acc value="0.2006053626" flag="0"/>
      <vel value="0.0977612970" flag="0"/>
      <psa03 value="0.8164638359" flag="0"/>
      <psa10 value="0.0709870582" flag="0"/>
      <psa30 value="0.0100301716" flag="0"/>
    </comp>
    <comp name="--.HHN">
      <acc value="0.2404647894" flag="0"/>
      <vel value="0.1136535315" flag="0"/>
      <psa03 value="0.8481997333" flag="0"/>
      <psa10 value="0.0817385924" flag="0"/>
      <psa30 value="0.0102930107" flag="0"/>
    </comp>
    <comp name="--.HHZ">
      <acc value="0.1252174593" flag="0"/>
      <vel value="0.0719715177" flag="0"/>
      <psa03 value="0.3449289076" flag="0"/>
      <psa10 value="0.0554521467" flag="0"/>
      <psa30 value="0.0063698618" flag="0"/>
    </comp>
  </station>
  <station code="CRTO" name="CRTO" netid="IV" insttype="" commtype="DIG" lat="40.8212" lon="14.4223">
    <comp name="--.HHE">
      <acc value="0.1084713437" flag="0"/>
      <vel value="0.0562129232" flag="0"/>
      <psa03 value="0.2836997469" flag="0"/>
      <psa10 value="0.1161222968" flag="0"/>
      <psa30 value="0.0036731760" flag="0"/>
    </comp>
    <comp name="--.HHN">
      <acc value="0.0955896259" flag="0"/>
      <vel value="0.0450374492" flag="0"/>
      <psa03 value="0.3350110221" flag="0"/>
      <psa10 value="0.0724537009" flag="0"/>
      <psa30 value="0.0028003699" flag="0"/>
    </comp>
    <comp name="--.HHZ">
      <acc value="0.0428512160" flag="0"/>
      <vel value="0.0141927996" flag="0"/>
      <psa03 value="0.0897697908" flag="0"/>
      <psa10 value="0.0189352564" flag="0"/>
      <psa30 value="0.0015055046" flag="0"/>
    </comp>
  </station>
  <station code="CSFT" name="CSFT" netid="IV" insttype="" commtype="DIG" lat="40.8292" lon="14.1396">
    <comp name="--.HHE">
      <acc value="10.4873026596" flag="0"/>
      <vel value="2.2947816303" flag="0"/>
      <psa03 value="16.1776404428" flag="0"/>
      <psa10 value="0.3903166070" flag="0"/>
      <psa30 value="0.0495849357" flag="0"/>
    </comp>
    <comp name="--.HHN">
      <acc value="11.5097930492" flag="0"/>
      <vel value="2.3361042202" flag="0"/>
      <psa03 value="15.7684304722" flag="0"/>
      <psa10 value="0.4578888964" flag="0"/>
      <psa30 value="0.0686467174" flag="0"/>
    </comp>
    <comp name="--.HHZ">
      <acc value="8.9223940269" flag="0"/>
      <vel value="1.1186806244" flag="0"/>
      <psa03 value="4.1599049907" flag="0"/>
      <psa10 value="0.1652725720" flag="0"/>
      <psa30 value="0.0239132073" flag="0"/>
    </comp>
  </station>
  <station code="CSOB" name="CSOB" netid="IV" insttype="" commtype="DIG" lat="40.8265" lon="14.144">
    <comp name="--.HNE">
      <acc value="20.5386009406" flag="0"/>
      <vel value="3.3582050292" flag="0"/>
      <psa03 value="15.5974313172" flag="0"/>
      <psa10 value="0.6192556173" flag="0"/>
      <psa30 value="0.0437570946" flag="0"/>
    </comp>
    <comp name="--.HNZ">
      <acc value="8.0414823282" flag="0"/>
      <vel value="0.8754170089" flag="0"/>
      <psa03 value="3.0716543378" flag="0"/>
      <psa10 value="0.1992957579" flag="0"/>
      <psa30 value="0.0250080215" flag="0"/>
    </comp>
    <comp name="--.HNN">
      <acc value="10.6719442767" flag="0"/>
      <vel value="1.7844639116" flag="0"/>
      <psa03 value="8.9617513567" flag="0"/>
      <psa10 value="0.4865287569" flag="0"/>
      <psa30 value="0.0593931419" flag="0"/>
    </comp>
  </station>
  <station code="CSTH" name="CSTH" netid="IV" insttype="" commtype="DIG" lat="40.8294" lon="14.1493">
    <comp name="--.HNE">
      <acc value="9.7894959553" flag="0"/>
      <vel value="1.2177645733" flag="0"/>
      <psa03 value="5.7822129171" flag="0"/>
      <psa10 value="0.4136066381" flag="0"/>
      <psa30 value="0.0344205741" flag="0"/>
    </comp>
    <comp name="--.HNN">
      <acc value="13.5730756392" flag="0"/>
      <vel value="1.5173021898" flag="0"/>
      <psa03 value="4.5179602786" flag="0"/>
      <psa10 value="0.2932539107" flag="0"/>
      <psa30 value="0.0399254888" flag="0"/>
    </comp>
    <comp name="--.HNZ">
      <acc value="8.4966454735" flag="0"/>
      <vel value="0.8892923127" flag="0"/>
      <psa03 value="2.1648221837" flag="0"/>
      <psa10 value="0.1347286880" flag="0"/>
      <psa30 value="0.0146444986" flag="0"/>
    </comp>
  </station>
  <station code="CUMA" name="CUMA" netid="IV" insttype="" commtype="DIG" lat="40.8479" lon="14.0534">
    <comp name="--.HHE">
      <acc value="0.1077703638" flag="0"/>
      <vel value="0.0653385246" flag="0"/>
      <psa03 value="0.3394471024" flag="0"/>
      <psa10 value="0.0816449374" flag="0"/>
      <psa30 value="0.0072902321" flag="0"/>
    </comp>
    <comp name="--.HHN">
      <acc value="0.0568257905" flag="0"/>
      <vel value="0.0530792915" flag="0"/>
      <psa03 value="0.1784064948" flag="0"/>
      <psa10 value="0.0960513794" flag="0"/>
      <psa30 value="0.0080010226" flag="0"/>
    </comp>
    <comp name="--.HHZ">
      <acc value="0.1018285558" flag="0"/>
      <vel value="0.0620953770" flag="0"/>
      <psa03 value="0.1454374394" flag="0"/>
      <psa10 value="0.0763660597" flag="0"/>
      <psa30 value="0.0073249687" flag="0"/>
    </comp>
  </station>
  <station code="GIUL" name="GIUL" netid="IV" insttype="" commtype="DIG" lat="41.5583" lon="13.2546">
    <comp name="--.HHE">
      <acc value="0.0006311183" flag="0"/>
      <vel value="0.0004803475" flag="0"/>
      <psa03 value="0.0014010584" flag="0"/>
      <psa10 value="0.0006492535" flag="0"/>
      <psa30 value="0.0000915347" flag="0"/>
    </comp>
    <comp name="--.HHN">
      <acc value="0.0007508187" flag="0"/>
      <vel value="0.0003832276" flag="0"/>
      <psa03 value="0.0017488071" flag="0"/>
      <psa10 value="0.0007112179" flag="0"/>
      <psa30 value="0.0000892356" flag="0"/>
    </comp>
    <comp name="--.HHZ">
      <acc value="0.0004383928" flag="0"/>
      <vel value="0.0003284682" flag="0"/>
      <psa03 value="0.0009114798" flag="0"/>
      <psa10 value="0.0005294857" flag="0"/>
      <psa30 value="0.0000987149" flag="0"/>
    </comp>
  </station>
  <station code="IFOR" name="IFOR" netid="IV" insttype="" commtype="DIG" lat="40.7115" lon="13.8552">
    <comp name="--.HHE">
      <acc value="0.0388470745" flag="0"/>
      <vel value="0.0147042065" flag="0"/>
      <psa03 value="0.0812083876" flag="0"/>
      <psa10 value="0.0363498450" flag="0"/>
      <psa30 value="0.0022706658" flag="0"/>
    </comp>
    <comp name="--.HHN">
      <acc value="0.0362543251" flag="0"/>
      <vel value="0.0266417798" flag="0"/>
      <psa03 value="0.0904407928" flag="0"/>
      <psa10 value="0.0393395285" flag="0"/>
      <psa30 value="0.0020723313" flag="0"/>
    </comp>
    <comp name="--.HHZ">
      <acc value="0.0549244847" flag="0"/>
      <vel value="0.0069335089" flag="0"/>
      <psa03 value="0.0346762105" flag="0"/>
      <psa10 value="0.0095588111" flag="0"/>
      <psa30 value="0.0010875531" flag="0"/>
    </comp>
  </station>
  <station code="IMTC" name="IMTC" netid="IV" insttype="" commtype="DIG" lat="40.7209" lon="13.8758">
    <comp name="--.HHE">
      <acc value="0.0071727918" flag="0"/>
      <vel value="0.0058288168" flag="0"/>
