<?xml version="1.0" encoding="UTF-8" standalone="yes"?>
<!DOCTYPE earthquake SYSTEM "stationlist.dtd">
<stationlist created="" xmlns="ch.ethz.sed.shakemap.usgs.xml">
  <station code="ZKR" name="ZKR" netid="GE" insttype="STS-2/N" lat="35.1147" lon="26.2169">
    <comp name="--.HHE">
      <acc value="0.0077645457" flag="0"/>
      <vel value="0.0027135317" flag="0"/>
      <psa03 value="0.0188631370" flag="0"/>
      <psa10 value="0.0029644281" flag="0"/>
      <psa30 value="0.0002890521" flag="0"/>
    </comp>
    <comp name="--.HHN">
      <acc value="0.0039251722" flag="0"/>
      <vel value="0.0021696230" flag="0"/>
      <psa03 value="0.0164087484" flag="0"/>
      <psa10 value="0.0012564183" flag="0"/>
      <psa30 value="0.0001161945" flag="0"/>
    </comp>
    <comp name="--.HHZ">
      <acc value="0.0060639843" flag="0"/>
      <vel value="0.0021611297" flag="0"/>
      <psa03 value="0.0178777681" flag="0"/>
      <psa10 value="0.0023549216" flag="0"/>
      <psa30 value="0.0001966437" flag="0"/>
    </comp>
  </station>
</stationlist>
