<stationlist created="1778069511">
	<station code="SIT2" name="SIT2" netid="HI" source="ITSAK Strong Motion Network" insttype="" lat="35.2059" lon="26.107">
		<comp name="--.HNE" depth="0.0">
			<acc value="0.0145979649336371" flag="0"/>
			<vel value="0.00918085725914398" flag="0"/>
			<psa03 value="0.0473372546021315" flag="0"/>
			<psa10 value="0.0056697324226674" flag="0"/>
			<psa30 value="0.000384335554850954" flag="0"/>
		</comp>
		<comp name="--.HNN" depth="0.0">
			<acc value="0.0239326458795828" flag="0"/>
			<vel value="0.0144633978013062" flag="0"/>
			<psa03 value="0.0658157859354778" flag="0"/>
			<psa10 value="0.00693414718169976" flag="0"/>
			<psa30 value="0.000469793169491853" flag="0"/>
		</comp>
		<comp name="--.HNZ" depth="0.0">
			<acc value="0.00780590585076702" flag="0"/>
			<vel value="0.00344732734470224" flag="0"/>
			<psa03 value="0.0209840949039695" flag="0"/>
			<psa10 value="0.00132078993937138" flag="0"/>
			<psa30 value="0.000306484115335161" flag="0"/>
		</comp>
	</station>
</stationlist>
