<?xml version="1.0" encoding="UTF-8" standalone="yes"?>
<!DOCTYPE earthquake SYSTEM "stationlist.dtd">
<stationlist created="" xmlns="ch.ethz.sed.shakemap.usgs.xml">
  <station code="ASB" name="ASB" netid="VI" source="ODC" insttype="STS-2.5" lat="64.7482" lon="-21.3254">
    <comp name="--.HHZ">
      <acc value="0.0124689219" flag="0"/>
      <vel value="0.0049697890" flag="0"/>
      <psa03 value="0.0140356308" flag="0"/>
      <psa10 value="0.0048894022" flag="0"/>
      <psa30 value="0.0012895145" flag="0"/>
    </comp>
    <comp name="--.HHN">
      <acc value="0.0203307673" flag="0"/>
      <vel value="0.0084482229" flag="0"/>
      <psa03 value="0.0239861535" flag="0"/>
      <psa10 value="0.0070393444" flag="0"/>
      <psa30 value="0.0012496868" flag="0"/>
    </comp>
    <comp name="--.HHE">
      <acc value="0.0241183742" flag="0"/>
      <vel value="0.0093401184" flag="0"/>
      <psa03 value="0.0228442616" flag="0"/>
      <psa10 value="0.0096664970" flag="0"/>
      <psa30 value="0.0013752379" flag="0"/>
    </comp>
  </station>
</stationlist>
