<stationlist created="1777946094">
	<station code="AGRP" name="AGRP" netid="CL" source="Corinth Riff Laboratory (CRLNET)" insttype="" lat="38.3959" lon="21.72277">
		<comp name="00.HNE" depth="0.0">
			<acc value="0.0334280540594235" flag="0"/>
			<vel value="0.0314055383925501" flag="0"/>
			<psa03 value="0.102146457709514" flag="0"/>
			<psa10 value="0.0549738544277381" flag="0"/>
			<psa30 value="0.00599545568684841" flag="0"/>
		</comp>
		<comp name="00.HNN" depth="0.0">
			<acc value="0.0348879729671436" flag="0"/>
			<vel value="0.0403182837914524" flag="0"/>
			<psa03 value="0.100893675924203" flag="0"/>
			<psa10 value="0.0498276058225045" flag="0"/>
			<psa30 value="0.0122674182105977" flag="0"/>
		</comp>
		<comp name="00.HNZ" depth="0.0">
			<acc value="0.0221196319383712" flag="0"/>
			<vel value="0.0194440853508392" flag="0"/>
			<psa03 value="0.0515430220242491" flag="0"/>
			<psa10 value="0.0176856994320705" flag="0"/>
			<psa30 value="0.0101466376168917" flag="0"/>
		</comp>
	</station>
	<station code="ROD3" name="ROD3" netid="CL" source="Corinth Riff Laboratory (CRLNET)" insttype="" lat="38.30811" lon="21.89204">
		<comp name="00.HNE" depth="0.0">
			<acc value="0.103032925879171" flag="0"/>
			<vel value="0.074352555226844" flag="0"/>
			<psa03 value="0.36245661581462" flag="0"/>
			<psa10 value="0.075486366473951" flag="0"/>
			<psa30 value="0.0137479378275964" flag="0"/>
		</comp>
		<comp name="00.HNN" depth="0.0">
			<acc value="0.0967580170178672" flag="0"/>
			<vel value="0.0933180437064305" flag="0"/>
			<psa03 value="0.368720524741178" flag="0"/>
			<psa10 value="0.0793118251398132" flag="0"/>
			<psa30 value="0.0179469939187212" flag="0"/>
		</comp>
		<comp name="00.HNZ" depth="0.0">
			<acc value="0.0566462250560219" flag="0"/>
			<vel value="0.0492564970301508" flag="0"/>
			<psa03 value="0.0987013077999075" flag="0"/>
			<psa10 value="0.0505846439584857" flag="0"/>
			<psa30 value="0.00775471925107886" flag="0"/>
		</comp>
	</station>
	<station code="TRIZ" name="TRIZ" netid="CL" source="Corinth Riff Laboratory (CRLNET)" insttype="" lat="38.36543" lon="22.07272">
		<comp name="00.HNE" depth="0.0">
			<acc value="0.123624196689283" flag="0"/>
			<vel value="0.0982915774988071" flag="0"/>
			<psa03 value="0.449122270034212" flag="0"/>
			<psa10 value="0.0985277080382286" flag="0"/>
			<psa30 value="0.017780105488035" flag="0"/>
		</comp>
		<comp name="00.HNN" depth="0.0">
			<acc value="0.0933360254012314" flag="0"/>
			<vel value="0.0815987140481696" flag="0"/>
			<psa03 value="0.206664252369797" flag="0"/>
			<psa10 value="0.0705293774027127" flag="0"/>
			<psa30 value="0.0253804641262808" flag="0"/>
		</comp>
		<comp name="00.HNZ" depth="0.0">
			<acc value="0.0537318306125809" flag="0"/>
			<vel value="0.048915933383108" flag="0"/>
			<psa03 value="0.129126008300332" flag="0"/>
			<psa10 value="0.059528163639412" flag="0"/>
			<psa30 value="0.0154177169785903" flag="0"/>
		</comp>
	</station>
	<station code="KTHA" name="KTHA" netid="GE" source="GEOFON" insttype="" lat="36.2566" lon="23.0621">
		<comp name="--.HNE" depth="0.0">
			<acc value="0.0150080718716505" flag="0"/>
			<vel value="0.0192838469729688" flag="0"/>
			<psa03 value="0.0446079799984169" flag="0"/>
			<psa10 value="0.0382102918740703" flag="0"/>
			<psa30 value="0.00967147538260562" flag="0"/>
		</comp>
		<comp name="--.HNN" depth="0.0">
			<acc value="0.00961375931889237" flag="0"/>
			<vel value="0.0112222547262964" flag="0"/>
			<psa03 value="0.0263979019047803" flag="0"/>
			<psa10 value="0.01318373860214" flag="0"/>
			<psa30 value="0.00483305315890571" flag="0"/>
		</comp>
		<comp name="--.HNZ" depth="0.0">
			<acc value="0.0085944055636271" flag="0"/>
			<vel value="0.00762985887823751" flag="0"/>
			<psa03 value="0.0168678118950885" flag="0"/>
			<psa10 value="0.0112106072902742" flag="0"/>
			<psa30 value="0.0051699619747413" flag="0"/>
		</comp>
	</station>
	<station code="ARG2" name="ARG2" netid="HI" source="ITSAK Strong Motion Network" insttype="" lat="38.1783" lon="20.4878">
		<comp name="--.HNE" depth="0.0">
			<acc value="0.0124663712797901" flag="0"/>
			<vel value="0.0132485881926648" flag="0"/>
			<psa03 value="0.0395195997503517" flag="0"/>
			<psa10 value="0.0137916230023528" flag="0"/>
			<psa30 value="0.00427412480645995" flag="0"/>
		</comp>
		<comp name="--.HNN" depth="0.0">
			<acc value="0.0153693720784043" flag="0"/>
			<vel value="0.02067122217892" flag="0"/>
			<psa03 value="0.0301700793488349" flag="0"/>
			<psa10 value="0.0171408517472879" flag="0"/>
			<psa30 value="0.00813235706207141" flag="0"/>
		</comp>
		<comp name="--.HNZ" depth="0.0">
			<acc value="0.0108452717796487" flag="0"/>
			<vel value="0.00836766759575711" flag="0"/>
			<psa03 value="0.0345212582180855" flag="0"/>
			<psa10 value="0.0108519429504571" flag="0"/>
			<psa30 value="0.00440821035563616" flag="0"/>
		</comp>
	</station>
	<station code="ARS1" name="ARS1" netid="HI" source="ITSAK Strong Motion Network" insttype="" lat="37.6349" lon="22.7293">
		<comp name="--.HNE" depth="0.0">
			<acc value="0.184679631896545" flag="0"/>
			<vel value="0.221103685107438" flag="0"/>
			<psa03 value="0.38523039898332" flag="0"/>
			<psa10 value="0.237995877398374" flag="0"/>
			<psa30 value="0.0424773561192548" flag="0"/>
		</comp>
		<comp name="--.HNN" depth="0.0">
			<acc value="0.158621387608852" flag="0"/>
			<vel value="0.138607931003426" flag="0"/>
			<psa03 value="0.678515563366091" flag="0"/>
			<psa10 value="0.233139558292027" flag="0"/>
			<psa30 value="0.0210006495204182" flag="0"/>
		</comp>
		<comp name="--.HNZ" depth="0.0">
			<acc value="0.0731506989441592" flag="0"/>
			<vel value="0.0585941714481761" flag="0"/>
			<psa03 value="0.232838443241486" flag="0"/>
			<psa10 value="0.0645858226755415" flag="0"/>
			<psa30 value="0.0333924510654148" flag="0"/>
		</comp>
	</station>
	<station code="KLV1" name="KLV1" netid="HI" source="ITSAK Strong Motion Network" insttype="" lat="38.03256" lon="22.10797">
		<comp name="--.HNE" depth="0.0">
			<acc value="0.187479649842695" flag="0"/>
			<vel value="0.138727193066456" flag="0"/>
			<psa03 value="0.476907180344159" flag="0"/>
			<psa10 value="0.134193063199852" flag="0"/>
			<psa30 value="0.0151707399980574" flag="0"/>
		</comp>
		<comp name="--.HNN" depth="0.0">
			<acc value="0.163911112212637" flag="0"/>
			<vel value="0.153305963670967" flag="0"/>
			<psa03 value="0.35959311459105" flag="0"/>
			<psa10 value="0.119885847789527" flag="0"/>
			<psa30 value="0.0413655122847908" flag="0"/>
		</comp>
		<comp name="--.HNZ" depth="0.0">
			<acc value="0.0560828616075796" flag="0"/>
			<vel value="0.0510767996027757" flag="0"/>
			<psa03 value="0.11959591829064" flag="0"/>
			<psa10 value="0.0645616618839676" flag="0"/>
			<psa30 value="0.0148919960508256" flag="0"/>
		</comp>
	</station>
	<station code="KRK1" name="KRK1" netid="HI" source="ITSAK Strong Motion Network" insttype="" lat="39.618861" lon="19.9202">
		<comp name="--.HNE" depth="0.0">
			<acc value="0.0105186688214428" flag="0"/>
			<vel value="0.00991895586257422" flag="0"/>
			<psa03 value="0.0231452103399427" flag="0"/>
			<psa10 value="0.0138453331228726" flag="0"/>
			<psa30 value="0.00277064687509267" flag="0"/>
		</comp>
		<comp name="--.HNN" depth="0.0">
			<acc value="0.0104912559230268" flag="0"/>
			<vel value="0.00907369085654135" flag="0"/>
			<psa03 value="0.0232742501381987" flag="0"/>
			<psa10 value="0.0163760729594662" flag="0"/>
			<psa30 value="0.00172433068678031" flag="0"/>
		</comp>
		<comp name="--.HNZ" depth="0.0">
			<acc value="0.00486218202443332" flag="0"/>
			<vel value="0.00586391325242178" flag="0"/>
			<psa03 value="0.0116240278473165" flag="0"/>
			<psa10 value="0.00520476354005207" flag="0"/>
			<psa30 value="0.00180430181780634" flag="0"/>
		</comp>
	</station>
	<station code="LAM2" name="LAM2" netid="HI" source="ITSAK Strong Motion Network" insttype="" lat="38.90203" lon="22.431301">
		<comp name="--.HNE" depth="0.0">
			<acc value="0.116031183788741" flag="0"/>
			<vel value="0.0858913599389936" flag="0"/>
			<psa03 value="0.363083006707275" flag="0"/>
			<psa10 value="0.0975089279935305" flag="0"/>
			<psa30 value="0.011758699321348" flag="0"/>
		</comp>
		<comp name="--.HNN" depth="0.0">
			<acc value="0.107841267349242" flag="0"/>
			<vel value="0.0649736654373845" flag="0"/>
			<psa03 value="0.267334684544174" flag="0"/>
			<psa10 value="0.117916743276257" flag="0"/>
			<psa30 value="0.0118974001618646" flag="0"/>
		</comp>
		<comp name="--.HNZ" depth="0.0">
			<acc value="0.0899395645753155" flag="0"/>
			<vel value="0.053664181687001" flag="0"/>
			<psa03 value="0.222279282479574" flag="0"/>
			<psa10 value="0.0715078894614543" flag="0"/>
			<psa30 value="0.0164955567360244" flag="0"/>
		</comp>
	</station>
	<station code="LMN1" name="LMN1" netid="HI" source="ITSAK Strong Motion Network" insttype="" lat="39.875" lon="25.0588">
		<comp name="--.HNE" depth="0.0">
			<acc value="0.0468997926707692" flag="0"/>
			<vel value="0.0465814475521666" flag="0"/>
			<psa03 value="0.183506406398764" flag="0"/>
			<psa10 value="0.0412046921086726" flag="0"/>
			<psa30 value="0.0139896100763642" flag="0"/>
		</comp>
		<comp name="--.HNN" depth="0.0">
			<acc value="0.0550449693268755" flag="0"/>
			<vel value="0.0401550741404001" flag="0"/>
			<psa03 value="0.169662885166989" flag="0"/>
			<psa10 value="0.054060581248204" flag="0"/>
			<psa30 value="0.0101613964759743" flag="0"/>
		</comp>
		<comp name="--.HNZ" depth="0.0">
			<acc value="0.0238805543022064" flag="0"/>
			<vel value="0.0201127134622336" flag="0"/>
			<psa03 value="0.0387337299820157" flag="0"/>
			<psa10 value="0.0272026201650986" flag="0"/>
			<psa30 value="0.00714039134922316" flag="0"/>
		</comp>
	</station>
	<station code="MSL1" name="MSL1" netid="HI" source="ITSAK Strong Motion Network" insttype="" lat="38.3727" lon="21.4243">
		<comp name="--.HNE" depth="0.0">
			<acc value="0.063035476300955" flag="0"/>
			<vel value="0.104174998867103" flag="0"/>
			<psa03 value="0.105233669966175" flag="0"/>
			<psa10 value="0.166814158623167" flag="0"/>
			<psa30 value="0.0286117462882524" flag="0"/>
		</comp>
		<comp name="--.HNN" depth="0.0">
			<acc value="0.0463285548572371" flag="0"/>
			<vel value="0.0743622403985789" flag="0"/>
			<psa03 value="0.127783742101784" flag="0"/>
			<psa10 value="0.0944324538664582" flag="0"/>
			<psa30 value="0.0166109916290996" flag="0"/>
		</comp>
		<comp name="--.HNZ" depth="0.0">
			<acc value="0.0238236692447736" flag="0"/>
			<vel value="0.0335046539717226" flag="0"/>
			<psa03 value="0.0667553722744615" flag="0"/>
			<psa10 value="0.0678153151492483" flag="0"/>
			<psa30 value="0.00729745389944012" flag="0"/>
		</comp>
	</station>
	<station code="MYT1" name="MYT1" netid="HI" source="ITSAK Strong Motion Network" insttype="" lat="39.085" lon="26.5694">
		<comp name="--.HNE" depth="0.0">
			<acc value="0.00999441472400074" flag="0"/>
			<vel value="0.02169806198199" flag="0"/>
			<psa03 value="0.0161085788330263" flag="0"/>
			<psa10 value="0.0239932306837791" flag="0"/>
			<psa30 value="0.00789682562595001" flag="0"/>
		</comp>
		<comp name="--.HNN" depth="0.0">
			<acc value="0.0119078596470325" flag="0"/>
			<vel value="0.0241968254219868" flag="0"/>
			<psa03 value="0.0225981793101205" flag="0"/>
			<psa10 value="0.0335329063904955" flag="0"/>
			<psa30 value="0.00918540265452555" flag="0"/>
		</comp>
		<comp name="--.HNZ" depth="0.0">
			<acc value="0.0117520136893215" flag="0"/>
			<vel value="0.0217800524788567" flag="0"/>
			<psa03 value="0.0142549404135854" flag="0"/>
			<psa10 value="0.0404675995300186" flag="0"/>
			<psa30 value="0.00737355179496692" flag="0"/>
		</comp>
	</station>
	<station code="NAX1" name="NAX1" netid="HI" source="ITSAK Strong Motion Network" insttype="" lat="37.101394" lon="25.374103">
		<comp name="--.HNE" depth="0.0">
			<acc value="0.0183689693743935" flag="0"/>
			<vel value="0.0349211777775986" flag="0"/>
			<psa03 value="0.0396385086691512" flag="0"/>
			<psa10 value="0.0364623041986986" flag="0"/>
			<psa30 value="0.0113787162841064" flag="0"/>
		</comp>
		<comp name="--.HNN" depth="0.0">
			<acc value="0.0281631630070138" flag="0"/>
			<vel value="0.0484901914116501" flag="0"/>
			<psa03 value="0.0530581606761942" flag="0"/>
			<psa10 value="0.0420695143989185" flag="0"/>
			<psa30 value="0.0108558816488873" flag="0"/>
		</comp>
		<comp name="--.HNZ" depth="0.0">
			<acc value="0.0164693986037891" flag="0"/>
			<vel value="0.0279701422853399" flag="0"/>
			<psa03 value="0.0285226967803603" flag="0"/>
			<psa10 value="0.031064500370698" flag="0"/>
			<psa30 value="0.0107951517924855" flag="0"/>
		</comp>
	</station>
	<station code="PYL1" name="PYL1" netid="HI" source="ITSAK Strong Motion Network" insttype="" lat="36.914188" lon="21.695161">
		<comp name="--.HNE" depth="0.0">
			<acc value="0.00724690374306253" flag="0"/>
			<vel value="0.0228684954551072" flag="0"/>
			<psa03 value="0.0165766072334701" flag="0"/>
			<psa10 value="0.0159724393457283" flag="0"/>
			<psa30 value="0.0129236502950897" flag="0"/>
		</comp>
		<comp name="--.HNN" depth="0.0">
			<acc value="0.00738558656326833" flag="0"/>
			<vel value="0.0160807232047103" flag="0"/>
			<psa03 value="0.0158571181646044" flag="0"/>
			<psa10 value="0.0167402295830541" flag="0"/>
			<psa30 value="0.0103929284805182" flag="0"/>
		</comp>
		<comp name="--.HNZ" depth="0.0">
			<acc value="0.010430936288239" flag="0"/>
			<vel value="0.0104888391909176" flag="0"/>
			<psa03 value="0.0360904064372893" flag="0"/>
			<psa10 value="0.0131594351855074" flag="0"/>
			<psa30 value="0.00742508604219435" flag="0"/>
		</comp>
	</station>
	<station code="SKO1" name="SKO1" netid="HI" source="ITSAK Strong Motion Network" insttype="" lat="39.123383" lon="23.728705">
		<comp name="--.HNE" depth="0.0">
			<acc value="0.274389423886775" flag="0"/>
			<vel value="0.153236851243989" flag="0"/>
			<psa03 value="1.01439530844946" flag="0"/>
			<psa10 value="0.164329623889655" flag="0"/>
			<psa30 value="0.0158718503757657" flag="0"/>
		</comp>
		<comp name="--.HNN" depth="0.0">
			<acc value="0.217722219808948" flag="0"/>
			<vel value="0.183970287053502" flag="0"/>
			<psa03 value="0.842451008415439" flag="0"/>
			<psa10 value="0.197333265179557" flag="0"/>
			<psa30 value="0.0145394274626736" flag="0"/>
		</comp>
		<comp name="--.HNZ" depth="0.0">
			<acc value="0.144257223333667" flag="0"/>
			<vel value="0.108089450682626" flag="0"/>
			<psa03 value="0.511716617093174" flag="0"/>
			<psa10 value="0.141421166679033" flag="0"/>
			<psa30 value="0.00926790067890881" flag="0"/>
		</comp>
	</station>
	<station code="THS1" name="THS1" netid="HI" source="ITSAK Strong Motion Network" insttype="" lat="40.738476" lon="24.575145">
		<comp name="--.HNE" depth="0.0">
			<acc value="0.00860627584044673" flag="0"/>
			<vel value="0.00692870778336747" flag="0"/>
			<psa03 value="0.031150282303304" flag="0"/>
			<psa10 value="0.0092873533665755" flag="0"/>
			<psa30 value="0.00263124743222718" flag="0"/>
		</comp>
		<comp name="--.HNN" depth="0.0">
			<acc value="0.0138579702162722" flag="0"/>
			<vel value="0.00769967874768217" flag="0"/>
			<psa03 value="0.0478210429092477" flag="0"/>
			<psa10 value="0.00911067916277711" flag="0"/>
			<psa30 value="0.00143684778828311" flag="0"/>
		</comp>
		<comp name="--.HNZ" depth="0.0">
			<acc value="0.00861096462715548" flag="0"/>
			<vel value="0.00522265969174656" flag="0"/>
			<psa03 value="0.0178668619773456" flag="0"/>
			<psa10 value="0.0114714239880546" flag="0"/>
			<psa30 value="0.00198289885731623" flag="0"/>
		</comp>
	</station>
	<station code="VAS2" name="VAS2" netid="HI" source="ITSAK Strong Motion Network" insttype="" lat="38.630558" lon="20.608081">
		<comp name="--.HNE" depth="0.0">
			<acc value="0.0572810454360065" flag="0"/>
			<vel value="0.0754180611781425" flag="0"/>
			<psa03 value="0.0769577907842276" flag="0"/>
			<psa10 value="0.136140123615075" flag="0"/>
			<psa30 value="0.00858434117048508" flag="0"/>
		</comp>
		<comp name="--.HNN" depth="0.0">
			<acc value="0.0550209133908501" flag="0"/>
			<vel value="0.0765607218640555" flag="0"/>
			<psa03 value="0.0932501773666607" flag="0"/>
			<psa10 value="0.272585127426863" flag="0"/>
			<psa30 value="0.0139731506526737" flag="0"/>
		</comp>
		<comp name="--.HNZ" depth="0.0">
			<acc value="0.0277785912365128" flag="0"/>
			<vel value="0.035881131409401" flag="0"/>
			<psa03 value="0.0393798222616073" flag="0"/>
			<psa10 value="0.0618151987035146" flag="0"/>
			<psa30 value="0.00767267661050322" flag="0"/>
		</comp>
	</station>
	<station code="VOL2" name="VOL2" netid="HI" source="ITSAK Strong Motion Network" insttype="" lat="39.366" lon="22.9506">
		<comp name="--.HNE" depth="0.0">
			<acc value="0.287726555109543" flag="0"/>
			<vel value="0.151563307262761" flag="0"/>
			<psa03 value="1.26821784659491" flag="0"/>
			<psa10 value="0.0863788566751693" flag="0"/>
			<psa30 value="0.0212189914887154" flag="0"/>
		</comp>
		<comp name="--.HNN" depth="0.0">
			<acc value="0.327670148324911" flag="0"/>
			<vel value="0.193162208925648" flag="0"/>
			<psa03 value="0.752563915319331" flag="0"/>
			<psa10 value="0.294536156479818" flag="0"/>
			<psa30 value="0.0201688918993845" flag="0"/>
		</comp>
		<comp name="--.HNZ" depth="0.0">
			<acc value="0.193595956593769" flag="0"/>
			<vel value="0.0710297304187427" flag="0"/>
			<psa03 value="0.231943599109121" flag="0"/>
			<psa10 value="0.0729615637544819" flag="0"/>
			<psa30 value="0.0120660782808155" flag="0"/>
		</comp>
	</station>
	<station code="ALNA" name="ALNA" netid="HL" source="National Observatory of Athens Seismic Network" insttype="" lat="39.14804" lon="23.86669">
		<comp name="00.HNE" depth="0.0">
			<acc value="0.327684845174518" flag="0"/>
			<vel value="0.207352898954492" flag="0"/>
			<psa03 value="0.866164377923123" flag="0"/>
			<psa10 value="0.318789564421385" flag="0"/>
			<psa30 value="0.0176252974531358" flag="0"/>
		</comp>
		<comp name="00.HNN" depth="0.0">
			<acc value="0.331923200379529" flag="0"/>
			<vel value="0.250314827009179" flag="0"/>
			<psa03 value="1.05452906778605" flag="0"/>
			<psa10 value="0.273528348206341" flag="0"/>
			<psa30 value="0.0256811317547556" flag="0"/>
		</comp>
		<comp name="00.HNZ" depth="0.0">
			<acc value="0.314417175061641" flag="0"/>
			<vel value="0.210246170480279" flag="0"/>
			<psa03 value="0.956096213225849" flag="0"/>
			<psa10 value="0.148049277167464" flag="0"/>
			<psa30 value="0.0164825814961051" flag="0"/>
		</comp>
	</station>
	<station code="ANKY" name="ANKY" netid="HL" source="National Observatory of Athens Seismic Network" insttype="" lat="35.86704" lon="23.30117">
		<comp name="00.HNE" depth="0.0">
			<acc value="0.00745489621968874" flag="0"/>
			<vel value="0.0138693607643079" flag="0"/>
			<psa03 value="0.0182548203002549" flag="0"/>
			<psa10 value="0.0119918062178292" flag="0"/>
			<psa30 value="0.0070079718226199" flag="0"/>
		</comp>
		<comp name="00.HNN" depth="0.0">
			<acc value="0.00601195853499997" flag="0"/>
			<vel value="0.0121829968412387" flag="0"/>
			<psa03 value="0.0194628598789482" flag="0"/>
			<psa10 value="0.0171300012258715" flag="0"/>
			<psa30 value="0.00477175633583868" flag="0"/>
		</comp>
		<comp name="00.HNZ" depth="0.0">
			<acc value="0.00522386204683974" flag="0"/>
			<vel value="0.00953457156437076" flag="0"/>
			<psa03 value="0.014809670390648" flag="0"/>
			<psa10 value="0.00958780745622945" flag="0"/>
			<psa30 value="0.00395163168852576" flag="0"/>
		</comp>
	</station>
	<station code="ARIA" name="ARIA" netid="HL" source="National Observatory of Athens Seismic Network" insttype="" lat="38.33358" lon="21.76206">
		<comp name="00.HNE" depth="0.0">
			<acc value="0.0949080974591058" flag="0"/>
			<vel value="0.104296186579997" flag="0"/>
			<psa03 value="0.231545880444842" flag="0"/>
			<psa10 value="0.185474071746878" flag="0"/>
