<?xml version="1.0" encoding="UTF-8" standalone="yes"?>
<!DOCTYPE earthquake SYSTEM "stationlist.dtd">
<stationlist created="" xmlns="ch.ethz.sed.shakemap.usgs.xml">
  <station code="AGRP" name="AGRP" netid="CL" source="RESIF" insttype="60" lat="38.3959" lon="21.7228">
    <comp name="00.HHE">
      <acc value="0.0341334124" flag="0"/>
      <vel value="0.0291767027" flag="0"/>
      <psa03 value="0.1045695502" flag="0"/>
      <psa10 value="0.0571512673" flag="0"/>
      <psa30 value="0.0059974827" flag="0"/>
    </comp>
    <comp name="00.HHN">
      <acc value="0.0369927361" flag="0"/>
      <vel value="0.0436161242" flag="0"/>
      <psa03 value="0.1037087732" flag="0"/>
      <psa10 value="0.0506149182" flag="0"/>
      <psa30 value="0.0120464538" flag="0"/>
    </comp>
    <comp name="00.HHZ">
      <acc value="0.0232565810" flag="0"/>
      <vel value="0.0186334225" flag="0"/>
      <psa03 value="0.0527344938" flag="0"/>
      <psa10 value="0.0194887265" flag="0"/>
      <psa30 value="0.0105548342" flag="0"/>
    </comp>
  </station>
  <station code="ROD3" name="ROD3" netid="CL" source="RESIF" insttype="60" lat="38.3081" lon="21.892">
    <comp name="00.HHE">
      <acc value="0.1297857842" flag="0"/>
      <vel value="0.0911598452" flag="0"/>
      <psa03 value="0.5404311078" flag="0"/>
      <psa10 value="0.0718119857" flag="0"/>
      <psa30 value="0.0118383718" flag="0"/>
    </comp>
    <comp name="00.HHN">
      <acc value="0.1233152628" flag="0"/>
      <vel value="0.1110099180" flag="0"/>
      <psa03 value="0.4530786634" flag="0"/>
      <psa10 value="0.1105241748" flag="0"/>
      <psa30 value="0.0230130787" flag="0"/>
    </comp>
    <comp name="00.HHZ">
      <acc value="0.0705541202" flag="0"/>
      <vel value="0.0647233026" flag="0"/>
      <psa03 value="0.1234814587" flag="0"/>
      <psa10 value="0.0668159708" flag="0"/>
      <psa30 value="0.0103117104" flag="0"/>
    </comp>
  </station>
  <station code="TRIZ" name="TRIZ" netid="CL" source="RESIF" insttype="generation" lat="38.3654" lon="22.0727">
    <comp name="00.HH2">
      <acc value="0.1220336809" flag="0"/>
      <vel value="0.0917647898" flag="0"/>
      <psa03 value="0.4509963287" flag="0"/>
      <psa10 value="0.0941656078" flag="0"/>
      <psa30 value="0.0152683363" flag="0"/>
    </comp>
    <comp name="00.HH3">
      <acc value="0.0997701486" flag="0"/>
      <vel value="0.0794367592" flag="0"/>
      <psa03 value="0.1944785404" flag="0"/>
      <psa10 value="0.0710877802" flag="0"/>
      <psa30 value="0.0248916461" flag="0"/>
    </comp>
    <comp name="00.HHZ">
      <acc value="0.0521652671" flag="0"/>
      <vel value="0.0460741985" flag="0"/>
      <psa03 value="0.1253628356" flag="0"/>
      <psa10 value="0.0575237213" flag="0"/>
      <psa30 value="0.0150455770" flag="0"/>
    </comp>
  </station>
  <station code="LAKA" name="LAKA" netid="HA" source="NOA" insttype="120" lat="38.2401" lon="21.9785">
    <comp name="--.HHE">
      <acc value="0.0260581099" flag="0"/>
      <vel value="0.0347929907" flag="0"/>
      <psa03 value="0.0517365089" flag="0"/>
      <psa10 value="0.0314628226" flag="0"/>
      <psa30 value="0.0163692278" flag="0"/>
    </comp>
    <comp name="--.HHN">
      <acc value="0.0318367413" flag="0"/>
      <vel value="0.0471709542" flag="0"/>
      <psa03 value="0.0742614152" flag="0"/>
      <psa10 value="0.0366331851" flag="0"/>
      <psa30 value="0.0252490412" flag="0"/>
    </comp>
    <comp name="--.HHZ">
      <acc value="0.0219348890" flag="0"/>
      <vel value="0.0284331130" flag="0"/>
      <psa03 value="0.0516153779" flag="0"/>
      <psa10 value="0.0334124444" flag="0"/>
      <psa30 value="0.0123650941" flag="0"/>
    </comp>
  </station>
  <station code="ALNA" name="ALNA" netid="HL" source="NOA" insttype="CMG-5" lat="39.148" lon="23.8667">
    <comp name="00.HNE">
      <acc value="0.3271097462" flag="0"/>
      <vel value="0.2285589738" flag="0"/>
      <psa03 value="0.8683400433" flag="0"/>
      <psa10 value="0.3202081498" flag="0"/>
      <psa30 value="0.0176024082" flag="0"/>
    </comp>
    <comp name="00.HNN">
      <acc value="0.3313863069" flag="0"/>
      <vel value="0.2294916192" flag="0"/>
      <psa03 value="1.0530637751" flag="0"/>
      <psa10 value="0.2731299202" flag="0"/>
      <psa30 value="0.0241717832" flag="0"/>
    </comp>
    <comp name="00.HNZ">
      <acc value="0.3147766329" flag="0"/>
      <vel value="0.2050270968" flag="0"/>
      <psa03 value="0.9557489575" flag="0"/>
      <psa10 value="0.1475963118" flag="0"/>
      <psa30 value="0.0160115419" flag="0"/>
    </comp>
  </station>
  <station code="ATH" name="ATH" netid="HL" source="NOA" insttype="DR24" lat="37.9738" lon="23.7177">
    <comp name="--.HHE">
      <acc value="1.1817374301" flag="0"/>
      <vel value="0.4595390141" flag="0"/>
      <psa03 value="1.5817177748" flag="0"/>
      <psa10 value="0.4729554861" flag="0"/>
      <psa30 value="0.0495052907" flag="0"/>
    </comp>
    <comp name="--.HHN">
      <acc value="0.7744345940" flag="0"/>
      <vel value="0.4142182927" flag="0"/>
      <psa03 value="1.7259014479" flag="0"/>
      <psa10 value="0.3472804753" flag="0"/>
      <psa30 value="0.0291541455" flag="0"/>
    </comp>
    <comp name="--.HHZ">
      <acc value="0.4072385905" flag="0"/>
      <vel value="0.1452015789" flag="0"/>
      <psa03 value="0.5093969405" flag="0"/>
      <psa10 value="0.1362472103" flag="0"/>
      <psa30 value="0.0138601039" flag="0"/>
    </comp>
  </station>
  <station code="DION" name="DION" netid="HL" source="NOA" insttype="30" lat="38.0779" lon="23.9331">
    <comp name="--.HHE">
      <acc value="1.9147659106" flag="0"/>
      <vel value="0.7546947233" flag="0"/>
      <psa03 value="3.5285998989" flag="0"/>
      <psa10 value="0.6325073405" flag="0"/>
      <psa30 value="0.0840867989" flag="0"/>
    </comp>
    <comp name="--.HHN">
      <acc value="1.3194662183" flag="0"/>
      <vel value="1.0557722302" flag="0"/>
      <psa03 value="3.9418053642" flag="0"/>
      <psa10 value="0.8068852587" flag="0"/>
      <psa30 value="0.1164684656" flag="0"/>
    </comp>
    <comp name="--.HHZ">
      <acc value="1.0776838447" flag="0"/>
      <vel value="0.6238010642" flag="0"/>
      <psa03 value="2.4534626396" flag="0"/>
      <psa10 value="0.4507439867" flag="0"/>
      <psa30 value="0.0550051881" flag="0"/>
    </comp>
  </station>
  <station code="DLFA" name="DLFA" netid="HL" source="NOA" insttype="CMG-5" lat="38.4784" lon="22.4958">
    <comp name="00.HNE">
      <acc value="0.1637600089" flag="0"/>
      <vel value="0.1111624643" flag="0"/>
      <psa03 value="0.2991086918" flag="0"/>
      <psa10 value="0.1486368509" flag="0"/>
      <psa30 value="0.0122213240" flag="0"/>
    </comp>
    <comp name="00.HNN">
      <acc value="0.1394278734" flag="0"/>
      <vel value="0.1287010803" flag="0"/>
      <psa03 value="0.3179668616" flag="0"/>
      <psa10 value="0.1412827258" flag="0"/>
      <psa30 value="0.0172121855" flag="0"/>
    </comp>
    <comp name="00.HNZ">
      <acc value="0.1405231224" flag="0"/>
      <vel value="0.1139241004" flag="0"/>
      <psa03 value="0.3087634036" flag="0"/>
      <psa10 value="0.1710016874" flag="0"/>
      <psa30 value="0.0118278513" flag="0"/>
    </comp>
  </station>
  <station code="EFSA" name="EFSA" netid="HL" source="NOA" insttype="CMG-5" lat="39.5401" lon="24.9886">
    <comp name="00.HNE">
      <acc value="0.0585607219" flag="0"/>
      <vel value="0.0704556315" flag="0"/>
      <psa03 value="0.1032292211" flag="0"/>
      <psa10 value="0.0499483974" flag="0"/>
      <psa30 value="0.0259035204" flag="0"/>
    </comp>
    <comp name="00.HNN">
      <acc value="0.0518494227" flag="0"/>
      <vel value="0.0657340137" flag="0"/>
      <psa03 value="0.1175668035" flag="0"/>
      <psa10 value="0.0605401509" flag="0"/>
      <psa30 value="0.0244453109" flag="0"/>
    </comp>
    <comp name="00.HNZ">
      <acc value="0.0216748352" flag="0"/>
      <vel value="0.0270621801" flag="0"/>
      <psa03 value="0.0625139593" flag="0"/>
      <psa10 value="0.0331192214" flag="0"/>
      <psa30 value="0.0073012653" flag="0"/>
    </comp>
  </station>
  <station code="EVR" name="EVR" netid="HL" source="NOA" insttype="DR24" lat="38.9166" lon="21.8105">
    <comp name="--.HHE">
      <acc value="0.0178962832" flag="0"/>
      <vel value="0.0258102102" flag="0"/>
      <psa03 value="0.0331238145" flag="0"/>
      <psa10 value="0.0386253304" flag="0"/>
      <psa30 value="0.0125738268" flag="0"/>
    </comp>
    <comp name="--.HHN">
      <acc value="0.0155856225" flag="0"/>
      <vel value="0.0256486707" flag="0"/>
      <psa03 value="0.0325077088" flag="0"/>
      <psa10 value="0.0337981391" flag="0"/>
      <psa30 value="0.0084586727" flag="0"/>
    </comp>
    <comp name="--.HHZ">
      <acc value="0.0157867848" flag="0"/>
      <vel value="0.0200211553" flag="0"/>
      <psa03 value="0.0332101883" flag="0"/>
      <psa10 value="0.0258402747" flag="0"/>
      <psa30 value="0.0104786839" flag="0"/>
    </comp>
  </station>
  <station code="KLV" name="KLV" netid="HL" source="NOA" insttype="120" lat="38.0435" lon="22.1504">
    <comp name="--.HHE">
      <acc value="0.0503737522" flag="0"/>
      <vel value="0.0573415258" flag="0"/>
      <psa03 value="0.1191489649" flag="0"/>
      <psa10 value="0.0808383264" flag="0"/>
      <psa30 value="0.0213120309" flag="0"/>
    </comp>
    <comp name="--.HHN">
      <acc value="0.0462615170" flag="0"/>
      <vel value="0.0574711105" flag="0"/>
      <psa03 value="0.1590523949" flag="0"/>
      <psa10 value="0.0587617199" flag="0"/>
      <psa30 value="0.0258134554" flag="0"/>
    </comp>
    <comp name="--.HHZ">
      <acc value="0.0330718483" flag="0"/>
      <vel value="0.0302796056" flag="0"/>
      <psa03 value="0.0967601367" flag="0"/>
      <psa10 value="0.0586584750" flag="0"/>
      <psa30 value="0.0160439686" flag="0"/>
    </comp>
  </station>
  <station code="KYMI" name="KYMI" netid="HL" source="NOA" insttype="60" lat="38.6331" lon="24.1001">
    <comp name="--.HHE">
      <acc value="0.6973345334" flag="0"/>
      <vel value="0.2184674541" flag="0"/>
      <psa03 value="1.1487952032" flag="0"/>
      <psa10 value="0.2754070077" flag="0"/>
      <psa30 value="0.0387428414" flag="0"/>
    </comp>
    <comp name="--.HHN">
      <acc value="0.4443673394" flag="0"/>
      <vel value="0.1914526514" flag="0"/>
      <psa03 value="0.7677497413" flag="0"/>
      <psa10 value="0.1551455693" flag="0"/>
      <psa30 value="0.0315959763" flag="0"/>
    </comp>
    <comp name="--.HHZ">
      <acc value="0.2469098401" flag="0"/>
      <vel value="0.1401032353" flag="0"/>
      <psa03 value="0.5975573985" flag="0"/>
      <psa10 value="0.1497758993" flag="0"/>
      <psa30 value="0.0280249813" flag="0"/>
    </comp>
  </station>
  <station code="LKR" name="LKR" netid="HL" source="NOA" insttype="30" lat="38.6496" lon="22.9989">
    <comp name="--.HHE">
      <acc value="2.1579513121" flag="0"/>
      <vel value="0.3918394475" flag="0"/>
      <psa03 value="1.1799242492" flag="0"/>
      <psa10 value="0.1311228159" flag="0"/>
      <psa30 value="0.0266203415" flag="0"/>
    </comp>
    <comp name="--.HHN">
      <acc value="1.6468147321" flag="0"/>
      <vel value="0.3397591024" flag="0"/>
      <psa03 value="1.2650169491" flag="0"/>
      <psa10 value="0.1956578378" flag="0"/>
      <psa30 value="0.0258460720" flag="0"/>
    </comp>
    <comp name="--.HHZ">
      <acc value="0.7905325238" flag="0"/>
      <vel value="0.1896957396" flag="0"/>
      <psa03 value="0.5488129878" flag="0"/>
      <psa10 value="0.1322494945" flag="0"/>
      <psa30 value="0.0309994428" flag="0"/>
    </comp>
  </station>
  <station code="NEO" name="NEO" netid="HL" source="NOA" insttype="120" lat="39.3057" lon="23.2219">
    <comp name="--.HHE">
      <acc value="0.7936726300" flag="0"/>
      <vel value="0.3739212333" flag="0"/>
      <psa03 value="3.1314889902" flag="0"/>
      <psa10 value="0.1842665352" flag="0"/>
      <psa30 value="0.0235110621" flag="0"/>
    </comp>
    <comp name="--.HHN">
      <acc value="0.8133253379" flag="0"/>
      <vel value="0.5182873246" flag="0"/>
      <psa03 value="3.5695637553" flag="0"/>
      <psa10 value="0.2233037621" flag="0"/>
      <psa30 value="0.0843007260" flag="0"/>
    </comp>
    <comp name="--.HHZ">
      <acc value="0.2768214485" flag="0"/>
      <vel value="0.1564361315" flag="0"/>
      <psa03 value="0.7857288534" flag="0"/>
      <psa10 value="0.2000560955" flag="0"/>
      <psa30 value="0.0125290629" flag="0"/>
    </comp>
  </station>
  <station code="NOAC" name="NOAC" netid="HL" source="NOA" insttype="CMG-5" lat="37.9738" lon="23.7177">
    <comp name="00.HNE">
      <acc value="1.1835383046" flag="0"/>
      <vel value="0.4690604697" flag="0"/>
      <psa03 value="1.6269508780" flag="0"/>
      <psa10 value="0.4852422554" flag="0"/>
      <psa30 value="0.0512019254" flag="0"/>
    </comp>
    <comp name="00.HNN">
      <acc value="0.6444042129" flag="0"/>
      <vel value="0.4110909934" flag="0"/>
      <psa03 value="1.7364753908" flag="0"/>
      <psa10 value="0.3594281481" flag="0"/>
      <psa30 value="0.0303562548" flag="0"/>
    </comp>
    <comp name="00.HNZ">
      <acc value="0.4172594579" flag="0"/>
      <vel value="0.1482029902" flag="0"/>
      <psa03 value="0.5268514307" flag="0"/>
      <psa10 value="0.1399208953" flag="0"/>
      <psa30 value="0.0142675346" flag="0"/>
    </comp>
  </station>
  <station code="PTL" name="PTL" netid="HL" source="NOA" insttype="120" lat="38.0473" lon="23.8638">
    <comp name="--.HHE">
      <acc value="0.0000000000" flag="0"/>
      <vel value="0.0000000000" flag="0"/>
    </comp>
    <comp name="--.HHN">
      <acc value="0.3800046971" flag="0"/>
      <vel value="0.3313140230" flag="0"/>
      <psa03 value="0.4843920077" flag="0"/>
      <psa10 value="0.3464249803" flag="0"/>
      <psa30 value="0.0443116902" flag="0"/>
    </comp>
    <comp name="--.HHZ">
      <acc value="0.0000000000" flag="0"/>
      <vel value="0.0000000000" flag="0"/>
    </comp>
  </station>
  <station code="SKY" name="SKY" netid="HL" source="NOA" insttype="120" lat="38.8831" lon="24.5482">
    <comp name="--.HHE">
      <acc value="0.8672000242" flag="0"/>
      <vel value="0.4137838168" flag="0"/>
      <psa03 value="1.3501686813" flag="0"/>
      <psa10 value="0.3018704769" flag="0"/>
      <psa30 value="0.0531984426" flag="0"/>
    </comp>
    <comp name="--.HHN">
      <acc value="0.7176265369" flag="0"/>
      <vel value="0.3819785855" flag="0"/>
      <psa03 value="1.5539336861" flag="0"/>
      <psa10 value="0.3529274388" flag="0"/>
      <psa30 value="0.0432636392" flag="0"/>
    </comp>
    <comp name="--.HHZ">
      <acc value="0.3762226954" flag="0"/>
      <vel value="0.2508481113" flag="0"/>
      <psa03 value="0.5344569817" flag="0"/>
      <psa10 value="0.3221151108" flag="0"/>
      <psa30 value="0.0274350570" flag="0"/>
    </comp>
  </station>
  <station code="THL" name="THL" netid="HL" source="NOA" insttype="120" lat="39.5647" lon="22.0144">
    <comp name="--.HHE">
      <acc value="0.0080425013" flag="0"/>
      <vel value="0.0144153102" flag="0"/>
      <psa03 value="0.0180596405" flag="0"/>
      <psa10 value="0.0213493595" flag="0"/>
      <psa30 value="0.0039251167" flag="0"/>
    </comp>
    <comp name="--.HHN">
      <acc value="0.0072914032" flag="0"/>
      <vel value="0.0124815686" flag="0"/>
      <psa03 value="0.0179008181" flag="0"/>
      <psa10 value="0.0144971262" flag="0"/>
      <psa30 value="0.0052361451" flag="0"/>
    </comp>
    <comp name="--.HHZ">
      <acc value="0.0071243055" flag="0"/>
      <vel value="0.0102397743" flag="0"/>
      <psa03 value="0.0182909914" flag="0"/>
      <psa10 value="0.0185377199" flag="0"/>
      <psa30 value="0.0028759282" flag="0"/>
    </comp>
  </station>
  <station code="VLY" name="VLY" netid="HL" source="NOA" insttype="120P," lat="37.8524" lon="23.7942">
    <comp name="--.HHE">
      <acc value="0.5526670927" flag="0"/>
      <vel value="0.2401269235" flag="0"/>
      <psa03 value="1.5366823201" flag="0"/>
      <psa10 value="0.3861895896" flag="0"/>
      <psa30 value="0.0225669729" flag="0"/>
    </comp>
    <comp name="--.HHN">
      <acc value="0.3441748724" flag="0"/>
      <vel value="0.2856134671" flag="0"/>
      <psa03 value="1.0324752526" flag="0"/>
      <psa10 value="0.2669045620" flag="0"/>
      <psa30 value="0.0320161545" flag="0"/>
    </comp>
    <comp name="--.HHZ">
      <acc value="0.3114580442" flag="0"/>
      <vel value="0.1238187264" flag="0"/>
      <psa03 value="1.1170395393" flag="0"/>
      <psa10 value="0.1017831481" flag="0"/>
      <psa30 value="0.0226688843" flag="0"/>
    </comp>
  </station>
  <station code="YDRA" name="YDRA" netid="HL" source="NOA" insttype="CMG-5" lat="37.3492" lon="23.4653">
    <comp name="00.HNE">
      <acc value="0.0927720150" flag="0"/>
      <vel value="0.0867255420" flag="0"/>
      <psa03 value="0.3006832099" flag="0"/>
      <psa10 value="0.1272733408" flag="0"/>
      <psa30 value="0.0185204746" flag="0"/>
    </comp>
    <comp name="00.HNN">
      <acc value="0.1008096133" flag="0"/>
      <vel value="0.0503789311" flag="0"/>
      <psa03 value="0.2129792720" flag="0"/>
      <psa10 value="0.0666345868" flag="0"/>
      <psa30 value="0.0078170781" flag="0"/>
    </comp>
    <comp name="00.HNZ">
      <acc value="0.0578361764" flag="0"/>
      <vel value="0.0397875443" flag="0"/>
      <psa03 value="0.1578233605" flag="0"/>
      <psa10 value="0.0443524966" flag="0"/>
      <psa30 value="0.0166780341" flag="0"/>
    </comp>
  </station>
  <station code="ANX" name="ANX" netid="HP" source="NOA" insttype="120" lat="38.5933" lon="21.9209">
    <comp name="--.HHE">
      <acc value="0.0904528166" flag="0"/>
      <vel value="0.0558480822" flag="0"/>
      <psa03 value="0.1973721630" flag="0"/>
      <psa10 value="0.0825734366" flag="0"/>
      <psa30 value="0.0094559042" flag="0"/>
    </comp>
    <comp name="--.HHN">
      <acc value="0.1089204481" flag="0"/>
      <vel value="0.0887375181" flag="0"/>
      <psa03 value="0.4539261884" flag="0"/>
      <psa10 value="0.1089880657" flag="0"/>
      <psa30 value="0.0094717295" flag="0"/>
    </comp>
    <comp name="--.HHZ">
      <acc value="0.0457505772" flag="0"/>
      <vel value="0.0461416875" flag="0"/>
      <psa03 value="0.1420225809" flag="0"/>
      <psa10 value="0.0647490265" flag="0"/>
      <psa30 value="0.0111683577" flag="0"/>
    </comp>
  </station>
  <station code="DRO" name="DRO" netid="HP" source="NOA" insttype="120P," lat="37.952" lon="21.71">
    <comp name="--.HHE">
      <acc value="0.0817125265" flag="0"/>
      <vel value="0.0738022830" flag="0"/>
      <psa03 value="0.1899007321" flag="0"/>
      <psa10 value="0.1906085108" flag="0"/>
      <psa30 value="0.0106541974" flag="0"/>
    </comp>
    <comp name="--.HHN">
      <acc value="0.0680112188" flag="0"/>
      <vel value="0.0859376482" flag="0"/>
      <psa03 value="0.2065032370" flag="0"/>
      <psa10 value="0.1080313366" flag="0"/>
      <psa30 value="0.0203141819" flag="0"/>
    </comp>
    <comp name="--.HHZ">
      <acc value="0.0400105795" flag="0"/>
      <vel value="0.0438473481" flag="0"/>
      <psa03 value="0.0909481514" flag="0"/>
      <psa10 value="0.0568642716" flag="0"/>
      <psa30 value="0.0096927517" flag="0"/>
    </comp>
  </station>
  <station code="LTK" name="LTK" netid="HP" source="NOA" insttype="120" lat="38.0228" lon="22.9673">
    <comp name="--.HHE">
      <acc value="0.3273196814" flag="0"/>
      <vel value="0.2760427770" flag="0"/>
      <psa03 value="0.5863792037" flag="0"/>
      <psa10 value="0.2965465915" flag="0"/>
      <psa30 value="0.0562216226" flag="0"/>
    </comp>
    <comp name="--.HHN">
      <acc value="0.3418873367" flag="0"/>
      <vel value="0.2392284794" flag="0"/>
      <psa03 value="1.0790527743" flag="0"/>
