<?xml version="1.0" encoding="UTF-8" standalone="yes"?>
<!DOCTYPE earthquake SYSTEM "stationlist.dtd">
<stationlist created="" xmlns="ch.ethz.sed.shakemap.usgs.xml">
  <station code="UPC" name="UPC" netid="CZ" insttype="" lat="50.5074" lon="16.0121">
    <comp name="--.HHE">
      <acc value="0.0053739109" flag="0"/>
      <vel value="0.0031658103" flag="0"/>
      <psa03 value="0.0143429470" flag="0"/>
      <psa10 value="0.0033345478" flag="0"/>
      <psa30 value="0.0002773603" flag="0"/>
    </comp>
    <comp name="--.HHN">
      <acc value="0.0062097568" flag="0"/>
      <vel value="0.0039963317" flag="0"/>
      <psa03 value="0.0113185082" flag="0"/>
      <psa10 value="0.0046399515" flag="0"/>
      <psa30 value="0.0002117001" flag="0"/>
    </comp>
    <comp name="--.HHZ">
      <acc value="0.0055110977" flag="0"/>
      <vel value="0.0028492418" flag="0"/>
      <psa03 value="0.0092630678" flag="0"/>
      <psa10 value="0.0020797221" flag="0"/>
      <psa30 value="0.0001788092" flag="0"/>
    </comp>
  </station>
  <station code="KSP" name="KSP" netid="PL" insttype="STS-2/N" lat="50.8428" lon="16.2931">
    <comp name="--.HHE">
      <acc value="0.0037700055" flag="0"/>
      <vel value="0.0008906519" flag="0"/>
      <psa03 value="0.0035177500" flag="0"/>
      <psa10 value="0.0008197065" flag="0"/>
      <psa30 value="0.0001990728" flag="0"/>
    </comp>
    <comp name="--.HHN">
      <acc value="0.0030988785" flag="0"/>
      <vel value="0.0016480773" flag="0"/>
      <psa03 value="0.0044992649" flag="0"/>
      <psa10 value="0.0010164674" flag="0"/>
      <psa30 value="0.0006114001" flag="0"/>
    </comp>
    <comp name="--.HHZ">
      <acc value="0.0027917776" flag="0"/>
      <vel value="0.0013585231" flag="0"/>
      <psa03 value="0.0036663839" flag="0"/>
      <psa10 value="0.0009549202" flag="0"/>
      <psa30 value="0.0006686544" flag="0"/>
    </comp>
  </station>
</stationlist>
