<stationlist created="1679659165">
	<station code="ARG" name="ARG" netid="HL" source="National Observatory of Athens Seismic Network" insttype="" lat="36.213558" lon="28.12122">
		<comp name=".HHE" depth="0.0">
			<acc value="0.0406461422012" flag="0"/>
			<vel value="0.472087940296" flag="0"/>
			<psa03 value="0.0779259122091" flag="0"/>
			<psa10 value="0.0887750184093" flag="0"/>
			<psa30 value="0.101128419262" flag="0"/>
		</comp>
		<comp name=".HHN" depth="0.0">
			<acc value="0.0551275670226" flag="0"/>
			<vel value="1.11589662632" flag="0"/>
			<psa03 value="0.0589262577421" flag="0"/>
			<psa10 value="0.0803033797048" flag="0"/>
			<psa30 value="0.0785043671955" flag="0"/>
		</comp>
		<comp name=".HHZ" depth="0.0">
			<acc value="0.0231037035008" flag="0"/>
			<vel value="0.259548352959" flag="0"/>
			<psa03 value="0.0366524983607" flag="0"/>
			<psa10 value="0.0607831715867" flag="0"/>
			<psa30 value="0.0557925459822" flag="0"/>
		</comp>
	</station>
	<station code="LESV1" name="LESV1" netid="HL" source="National Observatory of Athens Seismic Network" insttype="" lat="39.33061" lon="26.30858">
		<comp name=".EHE" depth="0.0">
			<acc value="0.0434936755492" flag="0"/>
			<vel value="0.665776997473" flag="0"/>
			<psa03 value="0.043553669071" flag="0"/>
			<psa10 value="0.0455910801851" flag="0"/>
			<psa30 value="0.0701128046294" flag="0"/>
		</comp>
		<comp name=".EHN" depth="0.0">
			<acc value="0.0427291150775" flag="0"/>
			<vel value="0.732463658468" flag="0"/>
			<psa03 value="0.0428198079563" flag="0"/>
			<psa10 value="0.044611166521" flag="0"/>
			<psa30 value="0.0845296463407" flag="0"/>
		</comp>
		<comp name=".EHZ" depth="0.0">
			<acc value="0.0327708471696" flag="0"/>
			<vel value="0.44577102301" flag="0"/>
			<psa03 value="0.0327589461611" flag="0"/>
			<psa10 value="0.0362933405057" flag="0"/>
			<psa30 value="0.0574674069338" flag="0"/>
		</comp>
	</station>
	<station code="LESV2" name="LESV2" netid="HL" source="National Observatory of Athens Seismic Network" insttype="" lat="39.3685" lon="26.17435">
		<comp name=".EHE" depth="0.0">
			<acc value="0.0359291277253" flag="0"/>
			<vel value="0.601780389613" flag="0"/>
			<psa03 value="0.036183331864" flag="0"/>
			<psa10 value="0.0389833449553" flag="0"/>
			<psa30 value="0.0696111513972" flag="0"/>
		</comp>
		<comp name=".EHN" depth="0.0">
			<acc value="0.0491928982913" flag="0"/>
			<vel value="0.8436101577" flag="0"/>
			<psa03 value="0.0496268604527" flag="0"/>
			<psa10 value="0.0500478716759" flag="0"/>
			<psa30 value="0.108590793607" flag="0"/>
		</comp>
		<comp name=".EHZ" depth="0.0">
			<acc value="0.0291761490533" flag="0"/>
			<vel value="0.347145543929" flag="0"/>
			<psa03 value="0.0294009919423" flag="0"/>
			<psa10 value="0.0298251257682" flag="0"/>
			<psa30 value="0.0544832659155" flag="0"/>
		</comp>
	</station>
	<station code="PRK" name="PRK" netid="HL" source="National Observatory of Athens Seismic Network" insttype="" lat="39.24565" lon="26.26499">
		<comp name=".HHE" depth="0.0">
			<acc value="0.0295201555275" flag="0"/>
			<vel value="0.503924001524" flag="0"/>
			<psa03 value="0.0294362338602" flag="0"/>
			<psa10 value="0.0361960253091" flag="0"/>
			<psa30 value="0.0503103128112" flag="0"/>
		</comp>
		<comp name=".HHN" depth="0.0">
			<acc value="0.047248219224" flag="0"/>
			<vel value="0.825132148135" flag="0"/>
			<psa03 value="0.0473897539222" flag="0"/>
			<psa10 value="0.0514663618939" flag="0"/>
			<psa30 value="0.097531494316" flag="0"/>
		</comp>
		<comp name=".HHZ" depth="0.0">
			<acc value="0.0369515285614" flag="0"/>
			<vel value="0.527485626919" flag="0"/>
			<psa03 value="0.0369134297085" flag="0"/>
			<psa10 value="0.0375456459648" flag="0"/>
			<psa30 value="0.0701708084717" flag="0"/>
		</comp>
	</station>
	<station code="ADVT" name="ADVT" netid="KO" source="Bogazici University Kandilli Observatory And Earthquake Research Institute (KOERI)" insttype="" lat="40.4332" lon="29.7383">
		<comp name=".HHE" depth="0.0">
			<acc value="0.0615330869954" flag="0"/>
			<vel value="0.398801284852" flag="0"/>
			<psa03 value="0.0870189833304" flag="0"/>
			<psa10 value="0.0799229395024" flag="0"/>
			<psa30 value="0.0958081001498" flag="0"/>
		</comp>
		<comp name=".HHN" depth="0.0">
			<acc value="0.0315560154154" flag="0"/>
			<vel value="0.279295357635" flag="0"/>
			<psa03 value="0.0311311664536" flag="0"/>
			<psa10 value="0.0351056630779" flag="0"/>
			<psa30 value="0.0785473167077" flag="0"/>
		</comp>
		<comp name=".HHZ" depth="0.0">
			<acc value="0.0714337969051" flag="0"/>
			<vel value="0.355864131467" flag="0"/>
			<psa03 value="0.130899536035" flag="0"/>
			<psa10 value="0.125852622119" flag="0"/>
			<psa30 value="0.114899598201" flag="0"/>
		</comp>
	</station>
	<station code="ALAN" name="ALAN" netid="KO" source="Bogazici University Kandilli Observatory And Earthquake Research Institute (KOERI)" insttype="" lat="36.557" lon="32.0327">
		<comp name=".HNE" depth="0.0">
			<acc value="0.289124547018" flag="0"/>
			<vel value="1.65360004919" flag="0"/>
			<psa03 value="0.47953514185" flag="0"/>
			<psa10 value="0.571941208298" flag="0"/>
			<psa30 value="0.415953048182" flag="0"/>
		</comp>
		<comp name=".HNN" depth="0.0">
			<acc value="0.398723660854" flag="0"/>
			<vel value="1.75296617772" flag="0"/>
			<psa03 value="0.629962023559" flag="0"/>
			<psa10 value="0.778721086452" flag="0"/>
			<psa30 value="0.404690968791" flag="0"/>
		</comp>
		<comp name=".HNZ" depth="0.0">
			<acc value="0.205570233794" flag="0"/>
			<vel value="1.60028742077" flag="0"/>
			<psa03 value="0.319283046768" flag="0"/>
			<psa10 value="0.521537629306" flag="0"/>
			<psa30 value="0.428513373575" flag="0"/>
		</comp>
	</station>
	<station code="ARPRA" name="ARPRA" netid="KO" source="Bogazici University Kandilli Observatory And Earthquake Research Institute (KOERI)" insttype="" lat="39.0929" lon="38.3356">
		<comp name=".HNE" depth="0.0">
			<acc value="4.4613498241" flag="0"/>
			<vel value="12.4025404679" flag="0"/>
			<psa03 value="11.5076943283" flag="0"/>
			<psa10 value="6.04183720205" flag="0"/>
			<psa30 value="4.87621507866" flag="0"/>
		</comp>
		<comp name=".HNN" depth="0.0">
			<acc value="5.00872511655" flag="0"/>
			<vel value="10.0701307196" flag="0"/>
			<psa03 value="8.59507204799" flag="0"/>
			<psa10 value="10.1771023431" flag="0"/>
			<psa30 value="4.37214328637" flag="0"/>
		</comp>
		<comp name=".HNZ" depth="0.0">
			<acc value="1.99557035557" flag="0"/>
			<vel value="7.2412300859" flag="0"/>
			<psa03 value="4.44069150735" flag="0"/>
			<psa10 value="5.1285445409" flag="0"/>
			<psa30 value="2.49113099853" flag="0"/>
		</comp>
	</station>
	<station code="BASM" name="BASM" netid="KO" source="Bogazici University Kandilli Observatory And Earthquake Research Institute (KOERI)" insttype="" lat="37.9194" lon="30.035">
		<comp name=".EHE" depth="0.0">
			<acc value="0.0981076056749" flag="0"/>
			<vel value="1.04281936012" flag="0"/>
			<psa03 value="0.100717172018" flag="0"/>
			<psa10 value="0.211486379935" flag="0"/>
			<psa30 value="0.145515773039" flag="0"/>
		</comp>
		<comp name=".EHN" depth="0.0">
			<acc value="0.131023346052" flag="0"/>
			<vel value="1.69159207894" flag="0"/>
			<psa03 value="0.145734695875" flag="0"/>
			<psa10 value="0.215175049291" flag="0"/>
			<psa30 value="0.212301383925" flag="0"/>
		</comp>
		<comp name=".EHZ" depth="0.0">
			<acc value="0.0791078852482" flag="0"/>
			<vel value="1.25317542258" flag="0"/>
			<psa03 value="0.0816250166316" flag="0"/>
			<psa10 value="0.122964960825" flag="0"/>
			<psa30 value="0.117544253396" flag="0"/>
		</comp>
	</station>
	<station code="BCK" name="BCK" netid="KO" source="Bogazici University Kandilli Observatory And Earthquake Research Institute (KOERI)" insttype="" lat="37.4602" lon="30.5885">
		<comp name=".HHE" depth="0.0">
			<acc value="0.0813035234077" flag="0"/>
			<vel value="0.36915264713" flag="0"/>
			<psa03 value="0.107573876241" flag="0"/>
			<psa10 value="0.168173230651" flag="0"/>
			<psa30 value="0.103465907442" flag="0"/>
		</comp>
		<comp name=".HHN" depth="0.0">
			<acc value="0.113724118357" flag="0"/>
			<vel value="0.354521437474" flag="0"/>
			<psa03 value="0.196485349524" flag="0"/>
			<psa10 value="0.203872055523" flag="0"/>
			<psa30 value="0.207447675724" flag="0"/>
		</comp>
		<comp name=".HHZ" depth="0.0">
			<acc value="0.0746039061033" flag="0"/>
			<vel value="0.336477566163" flag="0"/>
			<psa03 value="0.104241655498" flag="0"/>
			<psa10 value="0.11691553258" flag="0"/>
			<psa30 value="0.117363788108" flag="0"/>
		</comp>
	</station>
	<station code="BOZY" name="BOZY" netid="KO" source="Bogazici University Kandilli Observatory And Earthquake Research Institute (KOERI)" insttype="" lat="36.1069" lon="32.9763">
		<comp name=".HNE" depth="0.0">
			<acc value="0.488530766471" flag="0"/>
			<vel value="1.41450449783" flag="0"/>
			<psa03 value="1.10451608544" flag="0"/>
			<psa10 value="0.748645414086" flag="0"/>
			<psa30 value="0.213518504553" flag="0"/>
		</comp>
		<comp name=".HNN" depth="0.0">
			<acc value="0.408971689201" flag="0"/>
			<vel value="2.11928399263" flag="0"/>
			<psa03 value="0.886308880282" flag="0"/>
			<psa10 value="0.993676326179" flag="0"/>
			<psa30 value="0.383408172243" flag="0"/>
		</comp>
		<comp name=".HNZ" depth="0.0">
			<acc value="0.2300819624" flag="0"/>
			<vel value="2.23517524876" flag="0"/>
			<psa03 value="0.553923111352" flag="0"/>
			<psa10 value="0.616178898826" flag="0"/>
			<psa30 value="0.296724163186" flag="0"/>
		</comp>
	</station>
	<station code="CANM" name="CANM" netid="KO" source="Bogazici University Kandilli Observatory And Earthquake Research Institute (KOERI)" insttype="" lat="40.0113" lon="27.0529">
		<comp name=".EHE" depth="0.0">
			<acc value="0.0429211658595" flag="0"/>
			<vel value="0.573788368688" flag="0"/>
			<psa03 value="0.042947707054" flag="0"/>
			<psa10 value="0.0454452930277" flag="0"/>
			<psa30 value="0.0740487987028" flag="0"/>
		</comp>
		<comp name=".EHN" depth="0.0">
			<acc value="0.0542537087726" flag="0"/>
			<vel value="0.71342882791" flag="0"/>
			<psa03 value="0.0546438542623" flag="0"/>
			<psa10 value="0.0619040158371" flag="0"/>
			<psa30 value="0.096222614276" flag="0"/>
		</comp>
		<comp name=".EHZ" depth="0.0">
			<acc value="0.040261593661" flag="0"/>
			<vel value="0.523868471684" flag="0"/>
			<psa03 value="0.0403025370328" flag="0"/>
			<psa10 value="0.0409539242465" flag="0"/>
			<psa30 value="0.0725730876109" flag="0"/>
		</comp>
	</station>
	<station code="CAVI" name="CAVI" netid="KO" source="Bogazici University Kandilli Observatory And Earthquake Research Institute (KOERI)" insttype="" lat="40.2018" lon="29.8377">
		<comp name=".HHE" depth="0.0">
			<acc value="0.0992724998012" flag="0"/>
			<vel value="0.35056699219" flag="0"/>
			<psa03 value="0.171918857531" flag="0"/>
			<psa10 value="0.169215439692" flag="0"/>
			<psa30 value="0.144545282082" flag="0"/>
		</comp>
		<comp name=".HHN" depth="0.0">
			<acc value="0.123810122327" flag="0"/>
			<vel value="0.377700217154" flag="0"/>
			<psa03 value="0.213749180667" flag="0"/>
			<psa10 value="0.223206896361" flag="0"/>
			<psa30 value="0.144229381155" flag="0"/>
		</comp>
		<comp name=".HHZ" depth="0.0">
			<acc value="0.0664426345243" flag="0"/>
			<vel value="0.359042348107" flag="0"/>
			<psa03 value="0.117249225519" flag="0"/>
			<psa10 value="0.104629868715" flag="0"/>
			<psa30 value="0.123118876021" flag="0"/>
		</comp>
	</station>
	<station code="CHAY" name="CHAY" netid="KO" source="Bogazici University Kandilli Observatory And Earthquake Research Institute (KOERI)" insttype="" lat="41.0862" lon="40.7253">
		<comp name=".HNE" depth="0.0">
			<acc value="0.258122325041" flag="0"/>
			<vel value="1.76828753661" flag="0"/>
			<psa03 value="0.552405135797" flag="0"/>
			<psa10 value="0.39394043662" flag="0"/>
			<psa30 value="0.370292690073" flag="0"/>
		</comp>
		<comp name=".HNN" depth="0.0">
			<acc value="0.360713753761" flag="0"/>
			<vel value="2.07829422809" flag="0"/>
			<psa03 value="0.970995823707" flag="0"/>
			<psa10 value="0.421119567103" flag="0"/>
			<psa30 value="0.61386519889" flag="0"/>
		</comp>
		<comp name=".HNZ" depth="0.0">
			<acc value="0.195500769019" flag="0"/>
			<vel value="1.61873405419" flag="0"/>
			<psa03 value="0.255963685505" flag="0"/>
			<psa10 value="0.313989310251" flag="0"/>
			<psa30 value="0.565323956603" flag="0"/>
		</comp>
	</station>
	<station code="CMRD" name="CMRD" netid="KO" source="Bogazici University Kandilli Observatory And Earthquake Research Institute (KOERI)" insttype="" lat="37.6623" lon="34.9902">
		<comp name=".HNE" depth="0.0">
			<acc value="0.497985170453" flag="0"/>
			<vel value="2.57528000617" flag="0"/>
			<psa03 value="1.41580745696" flag="0"/>
			<psa10 value="0.845009457731" flag="0"/>
			<psa30 value="0.456786686542" flag="0"/>
		</comp>
		<comp name=".HNN" depth="0.0">
			<acc value="0.748355628985" flag="0"/>
			<vel value="3.25113395417" flag="0"/>
			<psa03 value="1.84314259915" flag="0"/>
			<psa10 value="1.3799406943" flag="0"/>
			<psa30 value="0.730511112775" flag="0"/>
		</comp>
		<comp name=".HNZ" depth="0.0">
			<acc value="0.579015469289" flag="0"/>
			<vel value="3.05276475862" flag="0"/>
			<psa03 value="1.04658633121" flag="0"/>
			<psa10 value="1.86375694475" flag="0"/>
			<psa30 value="0.58166007879" flag="0"/>
		</comp>
	</station>
	<station code="DKL" name="DKL" netid="KO" source="Bogazici University Kandilli Observatory And Earthquake Research Institute (KOERI)" insttype="" lat="39.0713" lon="26.9053">
		<comp name=".HHE" depth="0.0">
			<acc value="0.0710025167288" flag="0"/>
			<vel value="0.851484108664" flag="0"/>
			<psa03 value="0.0875098804332" flag="0"/>
			<psa10 value="0.080544505678" flag="0"/>
			<psa30 value="0.118111170952" flag="0"/>
		</comp>
		<comp name=".HHN" depth="0.0">
			<acc value="0.0617542810892" flag="0"/>
			<vel value="0.841067967941" flag="0"/>
			<psa03 value="0.0625003278401" flag="0"/>
			<psa10 value="0.0777507956086" flag="0"/>
			<psa30 value="0.111395359396" flag="0"/>
		</comp>
		<comp name=".HHZ" depth="0.0">
			<acc value="0.0516997029192" flag="0"/>
			<vel value="0.815375622838" flag="0"/>
			<psa03 value="0.0516180652769" flag="0"/>
			<psa10 value="0.0522296349569" flag="0"/>
			<psa30 value="0.074131410842" flag="0"/>
		</comp>
	</station>
	<station code="ELL" name="ELL" netid="KO" source="Bogazici University Kandilli Observatory And Earthquake Research Institute (KOERI)" insttype="" lat="36.7483" lon="29.9085">
		<comp name=".HHE" depth="0.0">
			<acc value="0.0761200858124" flag="0"/>
			<vel value="0.391188286813" flag="0"/>
			<psa03 value="0.122262557628" flag="0"/>
			<psa10 value="0.141409642695" flag="0"/>
			<psa30 value="0.169797994951" flag="0"/>
		</comp>
		<comp name=".HHN" depth="0.0">
			<acc value="0.0631092381324" flag="0"/>
			<vel value="0.341075912628" flag="0"/>
			<psa03 value="0.0790317719255" flag="0"/>
			<psa10 value="0.106629846204" flag="0"/>
			<psa30 value="0.116315051968" flag="0"/>
		</comp>
		<comp name=".HHZ" depth="0.0">
			<acc value="0.0525813003128" flag="0"/>
			<vel value="0.370710966632" flag="0"/>
			<psa03 value="0.0858883146792" flag="0"/>
			<psa10 value="0.0836517440177" flag="0"/>
			<psa30 value="0.110979805201" flag="0"/>
		</comp>
	</station>
	<station code="ERBG" name="ERBG" netid="KO" source="Bogazici University Kandilli Observatory And Earthquake Research Institute (KOERI)" insttype="" lat="40.712" lon="36.6768">
		<comp name=".HNE" depth="0.0">
			<acc value="0.372958292421" flag="0"/>
			<vel value="4.36423956466" flag="0"/>
			<psa03 value="0.411044021316" flag="0"/>
			<psa10 value="0.820541636858" flag="0"/>
			<psa30 value="0.692291620923" flag="0"/>
		</comp>
		<comp name=".HNN" depth="0.0">
			<acc value="0.433053770398" flag="0"/>
			<vel value="2.25835090028" flag="0"/>
			<psa03 value="0.459136832228" flag="0"/>
			<psa10 value="1.15456216408" flag="0"/>
			<psa30 value="0.66337887893" flag="0"/>
		</comp>
		<comp name=".HNZ" depth="0.0">
			<acc value="0.254125213357" flag="0"/>
			<vel value="2.12781478694" flag="0"/>
			<psa03 value="0.286904360173" flag="0"/>
			<psa10 value="0.579833471123" flag="0"/>
			<psa30 value="0.610514683602" flag="0"/>
		</comp>
	</station>
	<station code="GUMT" name="GUMT" netid="KO" source="Bogazici University Kandilli Observatory And Earthquake Research Institute (KOERI)" insttype="" lat="40.4665" lon="39.478">
		<comp name=".HNE" depth="0.0">
			<acc value="0.391456025104" flag="0"/>
			<vel value="3.39616186634" flag="0"/>
			<psa03 value="0.378218221768" flag="0"/>
			<psa10 value="0.658011270016" flag="0"/>
			<psa30 value="0.45220520971" flag="0"/>
		</comp>
		<comp name=".HNN" depth="0.0">
			<acc value="0.226889735373" flag="0"/>
			<vel value="2.26436808525" flag="0"/>
			<psa03 value="0.308927652441" flag="0"/>
			<psa10 value="0.463498364494" flag="0"/>
			<psa30 value="0.312511955717" flag="0"/>
		</comp>
		<comp name=".HNZ" depth="0.0">
			<acc value="0.221450112918" flag="0"/>
			<vel value="1.79402065579" flag="0"/>
			<psa03 value="0.301524370343" flag="0"/>
			<psa10 value="0.418689916153" flag="0"/>
			<psa30 value="0.396347429405" flag="0"/>
		</comp>
	</station>
	<station code="ISK" name="ISK" netid="KO" source="Bogazici University Kandilli Observatory And Earthquake Research Institute (KOERI)" insttype="" lat="41.0615" lon="29.0592">
		<comp name=".HHE" depth="0.0">
			<acc value="0.0451429306711" flag="0"/>
			<vel value="0.324705747282" flag="0"/>
			<psa03 value="0.0691198080146" flag="0"/>
			<psa10 value="0.0693910643174" flag="0"/>
			<psa30 value="0.0768123551083" flag="0"/>
		</comp>
		<comp name=".HHN" depth="0.0">
			<acc value="0.0948766571364" flag="0"/>
			<vel value="0.343209772859" flag="0"/>
			<psa03 value="0.149207957211" flag="0"/>
			<psa10 value="0.159588641964" flag="0"/>
			<psa30 value="0.159964330185" flag="0"/>
		</comp>
		<comp name=".HHZ" depth="0.0">
			<acc value="0.0502230341778" flag="0"/>
			<vel value="0.320874775481" flag="0"/>
			<psa03 value="0.0775207291179" flag="0"/>
			<psa10 value="0.0830326755073" flag="0"/>
			<psa30 value="0.105553245718" flag="0"/>
		</comp>
	</station>
	<station code="KAVV" name="KAVV" netid="KO" source="Bogazici University Kandilli Observatory And Earthquake Research Institute (KOERI)" insttype="" lat="41.0638" lon="29.06">
		<comp name=".HHE" depth="0.0">
			<acc value="0.0484142664595" flag="0"/>
			<vel value="0.336408239353" flag="0"/>
			<psa03 value="0.0744849655135" flag="0"/>
			<psa10 value="0.0756595295724" flag="0"/>
			<psa30 value="0.0764822465736" flag="0"/>
		</comp>
		<comp name=".HHN" depth="0.0">
			<acc value="0.0939621483743" flag="0"/>
			<vel value="0.3540899865" flag="0"/>
			<psa03 value="0.143260875746" flag="0"/>
			<psa10 value="0.155498110987" flag="0"/>
			<psa30 value="0.153051658921" flag="0"/>
		</comp>
		<comp name=".HHZ" depth="0.0">
			<acc value="0.0528919500305" flag="0"/>
			<vel value="0.321680510462" flag="0"/>
			<psa03 value="0.0824650462379" flag="0"/>
			<psa10 value="0.0922804206251" flag="0"/>
			<psa30 value="0.107461598803" flag="0"/>
		</comp>
	</station>
	<station code="KCTX" name="KCTX" netid="KO" source="Bogazici University Kandilli Observatory And Earthquake Research Institute (KOERI)" insttype="" lat="40.2626" lon="28.3353">
		<comp name=".HHE" depth="0.0">
			<acc value="0.0518049050761" flag="0"/>
			<vel value="0.528852752632" flag="0"/>
			<psa03 value="0.0700916588536" flag="0"/>
			<psa10 value="0.0787704506557" flag="0"/>
			<psa30 value="0.0811195071026" flag="0"/>
		</comp>
		<comp name=".HHN" depth="0.0">
			<acc value="0.0499350092899" flag="0"/>
			<vel value="0.475885068062" flag="0"/>
			<psa03 value="0.0729375505048" flag="0"/>
			<psa10 value="0.0816680501074" flag="0"/>
			<psa30 value="0.116924759025" flag="0"/>
		</comp>
		<comp name=".HHZ" depth="0.0">
