<?xml version="1.0" encoding="UTF-8" standalone="yes"?>
<!DOCTYPE earthquake SYSTEM "stationlist.dtd">
<stationlist created="" xmlns="ch.ethz.sed.shakemap.usgs.xml">
  <station code="ARPRA" name="ARPRA" netid="KO" insttype="CMG-5T" lat="39.0929" lon="38.3356">
    <comp name="--.HNE">
      <acc value="4.4539036211" flag="0"/>
      <vel value="12.2519380524" flag="0"/>
      <psa03 value="11.6290637071" flag="0"/>
      <psa10 value="6.0508115373" flag="0"/>
      <psa30 value="4.8679822175" flag="0"/>
    </comp>
    <comp name="--.HNN">
      <acc value="5.0123572178" flag="0"/>
      <vel value="9.9502525463" flag="0"/>
      <psa03 value="8.7406283076" flag="0"/>
      <psa10 value="10.1915407022" flag="0"/>
      <psa30 value="4.3701821671" flag="0"/>
    </comp>
    <comp name="--.HNZ">
      <acc value="2.0073850988" flag="0"/>
      <vel value="7.0677784190" flag="0"/>
      <psa03 value="4.5095844639" flag="0"/>
      <psa10 value="5.1310170665" flag="0"/>
      <psa30 value="2.4908399655" flag="0"/>
    </comp>
  </station>
  <station code="CMRD" name="CMRD" netid="KO" insttype="CMG-5T" lat="37.6623" lon="34.9902">
    <comp name="--.HNE">
      <acc value="0.4988988286" flag="0"/>
      <vel value="2.5170925551" flag="0"/>
      <psa03 value="1.4189970414" flag="0"/>
      <psa10 value="0.8429082555" flag="0"/>
      <psa30 value="0.4573643781" flag="0"/>
    </comp>
    <comp name="--.HNN">
      <acc value="0.7461861799" flag="0"/>
      <vel value="3.1036097110" flag="0"/>
      <psa03 value="1.8118283219" flag="0"/>
      <psa10 value="1.3795386241" flag="0"/>
      <psa30 value="0.7317613212" flag="0"/>
    </comp>
    <comp name="--.HNZ">
      <acc value="0.5759183906" flag="0"/>
      <vel value="2.9825296160" flag="0"/>
      <psa03 value="1.0544484228" flag="0"/>
      <psa10 value="1.8640274158" flag="0"/>
      <psa30 value="0.5806565885" flag="0"/>
    </comp>
  </station>
  <station code="ERZN" name="ERZN" netid="KO" insttype="CMG-3ESP" lat="39.5867" lon="39.722">
    <comp name="--.HHE">
      <acc value="1.8001346857" flag="0"/>
      <vel value="0.5389474756" flag="0"/>
      <psa03 value="2.5324451748" flag="0"/>
      <psa10 value="0.5066294606" flag="0"/>
      <psa30 value="0.2722872892" flag="0"/>
    </comp>
  </station>
  <station code="IKL" name="IKL" netid="KO" insttype="CMG-3ESPC" lat="36.2366" lon="33.6845">
    <comp name="--.HHN">
      <acc value="0.4351969371" flag="0"/>
      <vel value="1.0836887185" flag="0"/>
      <psa03 value="0.8930886903" flag="0"/>
      <psa10 value="0.4576409869" flag="0"/>
      <psa30 value="0.3281241759" flag="0"/>
    </comp>
    <comp name="--.HHE">
      <acc value="0.5151958675" flag="0"/>
      <vel value="0.8614575521" flag="0"/>
      <psa03 value="1.0419344733" flag="0"/>
      <psa10 value="0.8610945198" flag="0"/>
      <psa30 value="0.3197545897" flag="0"/>
    </comp>
  </station>
  <station code="KAMT" name="KAMT" netid="KO" insttype="CMG-3T" lat="39.3692" lon="33.7124">
    <comp name="--.HHN">
      <acc value="0.1917080918" flag="0"/>
      <vel value="1.4238063279" flag="0"/>
      <psa03 value="0.2991784935" flag="0"/>
      <psa10 value="0.3171397471" flag="0"/>
      <psa30 value="0.4118861498" flag="0"/>
    </comp>
    <comp name="--.HHE">
      <acc value="0.1917923334" flag="0"/>
      <vel value="1.3832117711" flag="0"/>
      <psa03 value="0.2109229028" flag="0"/>
      <psa10 value="0.2123944242" flag="0"/>
      <psa30 value="0.2969149818" flag="0"/>
    </comp>
    <comp name="--.HHZ">
      <acc value="0.1605788040" flag="0"/>
      <vel value="1.2786982758" flag="0"/>
      <psa03 value="0.1881189958" flag="0"/>
      <psa10 value="0.2194112379" flag="0"/>
      <psa30 value="0.3871529477" flag="0"/>
    </comp>
  </station>
  <station code="KRMN" name="KRMN" netid="KO" insttype="CMG-5T" lat="37.174" lon="33.2636">
    <comp name="--.HNE">
      <acc value="0.5874587419" flag="0"/>
      <vel value="1.9396389726" flag="0"/>
      <psa03 value="1.1185267262" flag="0"/>
      <psa10 value="1.3970032374" flag="0"/>
      <psa30 value="0.3289208532" flag="0"/>
    </comp>
    <comp name="--.HNZ">
      <acc value="0.4066200030" flag="0"/>
      <vel value="1.8914083807" flag="0"/>
      <psa03 value="0.7194020949" flag="0"/>
      <psa10 value="0.8544606904" flag="0"/>
      <psa30 value="0.3597973535" flag="0"/>
    </comp>
    <comp name="--.HNN">
      <acc value="0.6366903211" flag="0"/>
      <vel value="2.3201345237" flag="0"/>
      <psa03 value="0.8657936800" flag="0"/>
      <psa10 value="1.5049256477" flag="0"/>
      <psa30 value="0.7101704682" flag="0"/>
    </comp>
  </station>
  <station code="KRTS" name="KRTS" netid="KO" insttype="CMG-5T" lat="36.573" lon="35.375">
    <comp name="--.HNE">
      <acc value="4.2830094223" flag="0"/>
      <vel value="14.8765473310" flag="0"/>
      <psa03 value="17.1017802104" flag="0"/>
      <psa10 value="7.8814570655" flag="0"/>
      <psa30 value="3.3575760438" flag="0"/>
    </comp>
    <comp name="--.HNN">
      <acc value="5.5241591371" flag="0"/>
      <vel value="12.0341299259" flag="0"/>
      <psa03 value="16.5586847708" flag="0"/>
      <psa10 value="5.0772489393" flag="0"/>
      <psa30 value="2.4713473663" flag="0"/>
    </comp>
  </station>
  <station code="KYHL" name="KYHL" netid="KO" insttype="CMG-5T" lat="40.3244" lon="37.8955">
    <comp name="--.HNZ">
      <acc value="0.3088510664" flag="0"/>
      <vel value="1.6594535075" flag="0"/>
      <psa03 value="0.8231469812" flag="0"/>
      <psa10 value="0.8072443083" flag="0"/>
      <psa30 value="0.5416822901" flag="0"/>
    </comp>
    <comp name="--.HNN">
      <acc value="0.5562532332" flag="0"/>
      <vel value="3.3704931982" flag="0"/>
      <psa03 value="1.0169205186" flag="0"/>
      <psa10 value="1.0360169942" flag="0"/>
      <psa30 value="0.6952975609" flag="0"/>
    </comp>
    <comp name="--.HNE">
      <acc value="0.8015716988" flag="0"/>
      <vel value="7.1410939064" flag="0"/>
      <psa03 value="0.9735215789" flag="0"/>
      <psa10 value="2.2464663978" flag="0"/>
      <psa30 value="0.9426968513" flag="0"/>
    </comp>
  </station>
  <station code="MERS" name="MERS" netid="KO" insttype="CMG-3T" lat="36.8678" lon="34.522">
    <comp name="--.HHE">
      <acc value="1.1239669822" flag="0"/>
      <vel value="0.4111526815" flag="0"/>
      <psa03 value="1.7613535111" flag="0"/>
      <psa10 value="0.8236646091" flag="0"/>
      <psa30 value="0.2706616404" flag="0"/>
    </comp>
    <comp name="--.HHZ">
      <acc value="0.9002068033" flag="0"/>
      <vel value="0.3864542756" flag="0"/>
      <psa03 value="1.1979337069" flag="0"/>
      <psa10 value="0.9194225932" flag="0"/>
      <psa30 value="0.2087416291" flag="0"/>
    </comp>
    <comp name="--.HHN">
      <acc value="1.0911205433" flag="0"/>
      <vel value="0.4386686984" flag="0"/>
      <psa03 value="1.5078593615" flag="0"/>
      <psa10 value="0.7143721401" flag="0"/>
      <psa30 value="0.2198394086" flag="0"/>
    </comp>
  </station>
  <station code="RFHY" name="RFHY" netid="KO" insttype="CMG-5T" lat="39.927" lon="38.833">
    <comp name="--.HNZ">
      <acc value="0.8942739308" flag="0"/>
      <vel value="2.9426331996" flag="0"/>
      <psa03 value="1.2159934709" flag="0"/>
      <psa10 value="2.1096462680" flag="0"/>
      <psa30 value="1.4392926851" flag="0"/>
    </comp>
    <comp name="--.HNN">
      <acc value="1.4760621765" flag="0"/>
      <vel value="5.9125812790" flag="0"/>
      <psa03 value="1.9303092928" flag="0"/>
      <psa10 value="3.9743206326" flag="0"/>
      <psa30 value="1.7507961736" flag="0"/>
    </comp>
    <comp name="--.HNE">
      <acc value="0.1272328314" flag="0"/>
      <vel value="0.5766842431" flag="0"/>
      <psa03 value="0.1751299675" flag="0"/>
      <psa10 value="0.2310439075" flag="0"/>
      <psa30 value="0.2108009609" flag="0"/>
    </comp>
  </station>
  <station code="RSDY" name="RSDY" netid="KO" insttype="CMG-3T" lat="40.3971" lon="37.3273">
    <comp name="--.HHE">
      <acc value="0.5433286355" flag="0"/>
      <vel value="0.4437178543" flag="0"/>
      <psa03 value="0.8544186467" flag="0"/>
      <psa10 value="0.7017131715" flag="0"/>
      <psa30 value="0.3112282683" flag="0"/>
    </comp>
    <comp name="--.HHN">
      <acc value="0.3892565803" flag="0"/>
      <vel value="0.3722466273" flag="0"/>
      <psa03 value="0.7450099936" flag="0"/>
      <psa10 value="0.5490548813" flag="0"/>
      <psa30 value="0.2504189699" flag="0"/>
    </comp>
  </station>
  <station code="SLFK" name="SLFK" netid="KO" insttype="CMG-5T" lat="36.3925" lon="33.9464">
    <comp name="--.HNE">
      <acc value="1.4230319325" flag="0"/>
      <vel value="2.1045951526" flag="0"/>
      <psa03 value="4.3294118746" flag="0"/>
      <psa10 value="1.5539687046" flag="0"/>
      <psa30 value="0.5122812050" flag="0"/>
    </comp>
    <comp name="--.HNZ">
      <acc value="0.7618270931" flag="0"/>
      <vel value="2.0546897185" flag="0"/>
      <psa03 value="1.7083647389" flag="0"/>
      <psa10 value="1.3324493386" flag="0"/>
      <psa30 value="0.3962828494" flag="0"/>
    </comp>
    <comp name="--.HNN">
      <acc value="1.4418195111" flag="0"/>
      <vel value="2.8533866315" flag="0"/>
      <psa03 value="2.7347821938" flag="0"/>
      <psa10 value="1.9049735852" flag="0"/>
      <psa30 value="0.5055400081" flag="0"/>
    </comp>
  </station>
  <station code="SULT" name="SULT" netid="KO" insttype="CMG-3T" lat="38.1988" lon="33.5157">
    <comp name="--.HHN">
      <acc value="0.6026781395" flag="0"/>
      <vel value="0.4378503338" flag="0"/>
      <psa03 value="1.0955315242" flag="0"/>
      <psa10 value="0.6834635304" flag="0"/>
      <psa30 value="0.4902994857" flag="0"/>
    </comp>
    <comp name="--.HHE">
      <acc value="0.7605913773" flag="0"/>
      <vel value="0.4335802744" flag="0"/>
      <psa03 value="0.9690850378" flag="0"/>
      <psa10 value="0.6397561202" flag="0"/>
      <psa30 value="0.3860697510" flag="0"/>
    </comp>
    <comp name="--.HHZ">
      <acc value="0.2585122516" flag="0"/>
      <vel value="0.3916695725" flag="0"/>
      <psa03 value="0.5386897437" flag="0"/>
      <psa10 value="0.5542126488" flag="0"/>
      <psa30 value="0.3184879847" flag="0"/>
    </comp>
  </station>
  <station code="SVAN" name="SVAN" netid="KO" insttype="CMG-3T" lat="38.1511" lon="41.1984">
    <comp name="--.HHN">
      <acc value="1.0628919729" flag="0"/>
      <vel value="0.4177981999" flag="0"/>
      <psa03 value="1.3293257908" flag="0"/>
      <psa10 value="0.5862628553" flag="0"/>
      <psa30 value="0.2844904680" flag="0"/>
    </comp>
  </station>
  <station code="SVSK" name="SVSK" netid="KO" insttype="CMG-3T" lat="39.9157" lon="36.9925">
    <comp name="--.HHN">
      <acc value="0.3190196858" flag="0"/>
      <vel value="0.4018514739" flag="0"/>
      <psa03 value="0.7718659454" flag="0"/>
      <psa10 value="0.3120268176" flag="0"/>
      <psa30 value="0.2837173490" flag="0"/>
    </comp>
    <comp name="--.HHZ">
      <acc value="0.3547373053" flag="0"/>
      <vel value="0.3815933279" flag="0"/>
      <psa03 value="0.5772719216" flag="0"/>
      <psa10 value="0.4710454959" flag="0"/>
      <psa30 value="0.3137397204" flag="0"/>
    </comp>
    <comp name="--.HHE">
      <acc value="0.5306048912" flag="0"/>
      <vel value="0.4274841507" flag="0"/>
      <psa03 value="0.7970344013" flag="0"/>
      <psa10 value="0.4997995743" flag="0"/>
      <psa30 value="0.2333700513" flag="0"/>
    </comp>
  </station>
  <station code="TOKT" name="TOKT" netid="KO" insttype="CMG-3T" lat="40.3173" lon="36.5443">
    <comp name="--.HHN">
      <acc value="0.3068089452" flag="0"/>
      <vel value="1.4343588176" flag="0"/>
      <psa03 value="0.4505607432" flag="0"/>
      <psa10 value="0.5912377311" flag="0"/>
      <psa30 value="0.5987035820" flag="0"/>
    </comp>
    <comp name="--.HHE">
      <acc value="0.3130584940" flag="0"/>
      <vel value="1.4963646556" flag="0"/>
      <psa03 value="0.4209821085" flag="0"/>
      <psa10 value="0.4542443741" flag="0"/>
      <psa30 value="0.4489032755" flag="0"/>
    </comp>
    <comp name="--.HHZ">
      <acc value="0.2109718165" flag="0"/>
      <vel value="0.3756848844" flag="0"/>
      <psa03 value="0.1645140525" flag="0"/>
      <psa10 value="0.2662914910" flag="0"/>
      <psa30 value="0.0886903831" flag="0"/>
    </comp>
  </station>
  <station code="YOZ" name="YOZ" netid="KO" insttype="CMG-3T" lat="39.6376" lon="35.3152">
    <comp name="--.HHE">
      <acc value="0.3826393982" flag="0"/>
      <vel value="0.4409871665" flag="0"/>
      <psa03 value="1.1411709333" flag="0"/>
      <psa10 value="0.4575676980" flag="0"/>
      <psa30 value="0.1891620960" flag="0"/>
    </comp>
    <comp name="--.HHZ">
      <acc value="0.2716609173" flag="0"/>
      <vel value="0.3711896318" flag="0"/>
      <psa03 value="0.5817199766" flag="0"/>
      <psa10 value="0.3486057954" flag="0"/>
      <psa30 value="0.2068998185" flag="0"/>
    </comp>
    <comp name="--.HHN">
      <acc value="0.4890493144" flag="0"/>
      <vel value="0.4030547043" flag="0"/>
      <psa03 value="0.7812538359" flag="0"/>
      <psa10 value="0.4771583059" flag="0"/>
      <psa30 value="0.2048528872" flag="0"/>
    </comp>
  </station>
</stationlist>
