<stationlist created="1675677719">
	<station code="ALAN" name="ALAN" netid="KO" source="Bogazici University Kandilli Observatory And Earthquake Research Institute (KOERI)" insttype="" lat="36.557" lon="32.0327">
		<comp name=".HNE" depth="0.0">
			<acc value="0.28925416952" flag="0"/>
			<vel value="1.65261550898" flag="0"/>
			<psa03 value="0.479572477655" flag="0"/>
			<psa10 value="0.571950868938" flag="0"/>
			<psa30 value="0.415972089443" flag="0"/>
		</comp>
		<comp name=".HNN" depth="0.0">
			<acc value="0.39855362441" flag="0"/>
			<vel value="1.75206049195" flag="0"/>
			<psa03 value="0.629966982221" flag="0"/>
			<psa10 value="0.778719106318" flag="0"/>
			<psa30 value="0.404679954728" flag="0"/>
		</comp>
		<comp name=".HNZ" depth="0.0">
			<acc value="0.205864632386" flag="0"/>
			<vel value="1.59957361766" flag="0"/>
			<psa03 value="0.319318840806" flag="0"/>
			<psa10 value="0.521535949197" flag="0"/>
			<psa30 value="0.42856332355" flag="0"/>
		</comp>
	</station>
	<station code="ARPRA" name="ARPRA" netid="KO" source="Bogazici University Kandilli Observatory And Earthquake Research Institute (KOERI)" insttype="" lat="39.0929" lon="38.3356">
		<comp name=".HNE" depth="0.0">
			<acc value="4.46134682316" flag="0"/>
			<vel value="12.4031993687" flag="0"/>
			<psa03 value="11.5076929949" flag="0"/>
			<psa10 value="6.04183336181" flag="0"/>
			<psa30 value="4.8762172121" flag="0"/>
		</comp>
		<comp name=".HNN" depth="0.0">
			<acc value="5.00872519391" flag="0"/>
			<vel value="10.0699540973" flag="0"/>
			<psa03 value="8.59506938117" flag="0"/>
			<psa10 value="10.177101383" flag="0"/>
			<psa30 value="4.37214285967" flag="0"/>
		</comp>
		<comp name=".HNZ" depth="0.0">
			<acc value="1.99556788311" flag="0"/>
			<vel value="7.23992677494" flag="0"/>
			<psa03 value="4.44069350749" flag="0"/>
			<psa10 value="5.1285431008" flag="0"/>
			<psa30 value="2.49113121188" flag="0"/>
		</comp>
	</station>
	<station code="BOZY" name="BOZY" netid="KO" source="Bogazici University Kandilli Observatory And Earthquake Research Institute (KOERI)" insttype="" lat="36.1069" lon="32.9763">
		<comp name=".HNE" depth="0.0">
			<acc value="0.486326653504" flag="0"/>
			<vel value="1.3763906186" flag="0"/>
			<psa03 value="1.1023337742" flag="0"/>
			<psa10 value="0.749138286736" flag="0"/>
			<psa30 value="0.213485489033" flag="0"/>
		</comp>
		<comp name=".HNN" depth="0.0">
			<acc value="0.402609212679" flag="0"/>
			<vel value="1.95160243873" flag="0"/>
			<psa03 value="0.887648469022" flag="0"/>
			<psa10 value="0.993838336914" flag="0"/>
			<psa30 value="0.377542957035" flag="0"/>
		</comp>
		<comp name=".HNZ" depth="0.0">
			<acc value="0.231542895273" flag="0"/>
			<vel value="2.13919009189" flag="0"/>
			<psa03 value="0.551905811053" flag="0"/>
			<psa10 value="0.614233809975" flag="0"/>
			<psa30 value="0.296934870478" flag="0"/>
		</comp>
	</station>
	<station code="CHAY" name="CHAY" netid="KO" source="Bogazici University Kandilli Observatory And Earthquake Research Institute (KOERI)" insttype="" lat="41.0862" lon="40.7253">
		<comp name=".HNE" depth="0.0">
			<acc value="0.254423953849" flag="0"/>
			<vel value="1.78697184308" flag="0"/>
			<psa03 value="0.556891099637" flag="0"/>
			<psa10 value="0.390421563513" flag="0"/>
			<psa30 value="0.367083144124" flag="0"/>
		</comp>
		<comp name=".HNN" depth="0.0">
			<acc value="0.357632796872" flag="0"/>
			<vel value="1.97815401368" flag="0"/>
			<psa03 value="0.97035844815" flag="0"/>
			<psa10 value="0.423651584839" flag="0"/>
			<psa30 value="0.613860825267" flag="0"/>
		</comp>
		<comp name=".HNZ" depth="0.0">
			<acc value="0.195174123313" flag="0"/>
			<vel value="1.60755861725" flag="0"/>
			<psa03 value="0.256285790176" flag="0"/>
			<psa10 value="0.312946471168" flag="0"/>
			<psa30 value="0.563789241602" flag="0"/>
		</comp>
	</station>
	<station code="CMRD" name="CMRD" netid="KO" source="Bogazici University Kandilli Observatory And Earthquake Research Institute (KOERI)" insttype="" lat="37.6623" lon="34.9902">
		<comp name=".HNE" depth="0.0">
			<acc value="0.497984825801" flag="0"/>
			<vel value="2.57516484704" flag="0"/>
			<psa03 value="1.41580779032" flag="0"/>
			<psa10 value="0.845009397727" flag="0"/>
			<psa30 value="0.456786739879" flag="0"/>
		</comp>
		<comp name=".HNN" depth="0.0">
			<acc value="0.748355674373" flag="0"/>
			<vel value="3.25134479802" flag="0"/>
			<psa03 value="1.84314276583" flag="0"/>
			<psa10 value="1.37994057429" flag="0"/>
			<psa30 value="0.730511112775" flag="0"/>
		</comp>
		<comp name=".HNZ" depth="0.0">
			<acc value="0.579015721065" flag="0"/>
			<vel value="3.05274997661" flag="0"/>
			<psa03 value="1.04658616453" flag="0"/>
			<psa10 value="1.8637561047" flag="0"/>
			<psa30 value="0.581660025453" flag="0"/>
		</comp>
	</station>
	<station code="ERBG" name="ERBG" netid="KO" source="Bogazici University Kandilli Observatory And Earthquake Research Institute (KOERI)" insttype="" lat="40.712" lon="36.6768">
		<comp name=".HNE" depth="0.0">
			<acc value="0.372960585693" flag="0"/>
			<vel value="4.36452500271" flag="0"/>
			<psa03 value="0.411044229663" flag="0"/>
			<psa10 value="0.820541456844" flag="0"/>
			<psa30 value="0.692333917056" flag="0"/>
		</comp>
		<comp name=".HNN" depth="0.0">
			<acc value="0.433051538637" flag="0"/>
			<vel value="2.25881922387" flag="0"/>
			<psa03 value="0.459135832163" flag="0"/>
			<psa10 value="1.15456144403" flag="0"/>
			<psa30 value="0.663380265688" flag="0"/>
		</comp>
		<comp name=".HNZ" depth="0.0">
			<acc value="0.254123900801" flag="0"/>
			<vel value="2.12821024844" flag="0"/>
			<psa03 value="0.286904318503" flag="0"/>
			<psa10 value="0.579833651133" flag="0"/>
			<psa30 value="0.610514630264" flag="0"/>
		</comp>
	</station>
	<station code="GUMT" name="GUMT" netid="KO" source="Bogazici University Kandilli Observatory And Earthquake Research Institute (KOERI)" insttype="" lat="40.4665" lon="39.478">
		<comp name=".HNE" depth="0.0">
			<acc value="0.389255366517" flag="0"/>
			<vel value="3.34697018885" flag="0"/>
			<psa03 value="0.375998533057" flag="0"/>
			<psa10 value="0.659433184211" flag="0"/>
			<psa30 value="0.449876148753" flag="0"/>
		</comp>
		<comp name=".HNN" depth="0.0">
			<acc value="0.224354936733" flag="0"/>
			<vel value="2.1145379167" flag="0"/>
			<psa03 value="0.307457388376" flag="0"/>
			<psa10 value="0.463830636505" flag="0"/>
			<psa30 value="0.311503168889" flag="0"/>
		</comp>
		<comp name=".HNZ" depth="0.0">
			<acc value="0.221520556376" flag="0"/>
			<vel value="1.65145194655" flag="0"/>
			<psa03 value="0.304492525302" flag="0"/>
			<psa10 value="0.416355851531" flag="0"/>
			<psa30 value="0.398482557514" flag="0"/>
		</comp>
	</station>
	<station code="KHMN" name="KHMN" netid="KO" source="Bogazici University Kandilli Observatory And Earthquake Research Institute (KOERI)" insttype="" lat="37.3916" lon="37.1574">
		<comp name=".HNE" depth="0.0">
			<acc value="51.9426931637" flag="0"/>
			<vel value="108.605690618" flag="0"/>
			<psa03 value="70.7485107416" flag="0"/>
			<psa10 value="59.9913520528" flag="0"/>
			<psa30 value="32.8844226983" flag="0"/>
		</comp>
		<comp name=".HNN" depth="0.0">
			<acc value="61.7670175686" flag="0"/>
			<vel value="88.9920533017" flag="0"/>
			<psa03 value="62.5833991766" flag="0"/>
			<psa10 value="48.7150364121" flag="0"/>
			<psa30 value="23.0178379921" flag="0"/>
		</comp>
		<comp name=".HNZ" depth="0.0">
			<acc value="48.8970598139" flag="0"/>
			<vel value="44.7966914546" flag="0"/>
			<psa03 value="57.4317939077" flag="0"/>
			<psa10 value="22.1128107852" flag="0"/>
			<psa30 value="20.6600890562" flag="0"/>
		</comp>
	</station>
	<station code="KMON" name="KMON" netid="KO" source="Bogazici University Kandilli Observatory And Earthquake Research Institute (KOERI)" insttype="" lat="41.3738" lon="33.7839">
		<comp name=".HNE" depth="0.0">
			<acc value="0.221898028688" flag="0"/>
			<vel value="2.45536825082" flag="0"/>
			<psa03 value="0.229936669676" flag="0"/>
			<psa10 value="0.336105005307" flag="0"/>
			<psa30 value="0.375466712827" flag="0"/>
		</comp>
		<comp name=".HNN" depth="0.0">
			<acc value="0.238514930707" flag="0"/>
			<vel value="3.14994863261" flag="0"/>
			<psa03 value="0.247555149314" flag="0"/>
			<psa10 value="0.372546859401" flag="0"/>
			<psa30 value="0.329146711021" flag="0"/>
		</comp>
		<comp name=".HNZ" depth="0.0">
			<acc value="0.115952348824" flag="0"/>
			<vel value="1.03084612646" flag="0"/>
			<psa03 value="0.119795935893" flag="0"/>
			<psa10 value="0.297988950306" flag="0"/>
			<psa30 value="0.403629085113" flag="0"/>
		</comp>
	</station>
	<station code="KOZK" name="KOZK" netid="KO" source="Bogazici University Kandilli Observatory And Earthquake Research Institute (KOERI)" insttype="" lat="39.2101" lon="34.868">
		<comp name=".HNE" depth="0.0">
			<acc value="1.06195439881" flag="0"/>
			<vel value="4.69971379379" flag="0"/>
			<psa03 value="1.46573559779" flag="0"/>
			<psa10 value="2.92175051163" flag="0"/>
			<psa30 value="1.11645998666" flag="0"/>
		</comp>
		<comp name=".HNN" depth="0.0">
			<acc value="1.0293240201" flag="0"/>
			<vel value="5.13584600059" flag="0"/>
			<psa03 value="1.29694224939" flag="0"/>
			<psa10 value="3.17928973234" flag="0"/>
			<psa30 value="0.997722947582" flag="0"/>
		</comp>
		<comp name=".HNZ" depth="0.0">
			<acc value="0.42952414679" flag="0"/>
			<vel value="1.82335858447" flag="0"/>
			<psa03 value="0.857183534204" flag="0"/>
			<psa10 value="0.749035019893" flag="0"/>
			<psa30 value="0.406182507598" flag="0"/>
		</comp>
	</station>
	<station code="KRMN" name="KRMN" netid="KO" source="Bogazici University Kandilli Observatory And Earthquake Research Institute (KOERI)" insttype="" lat="37.174" lon="33.2636">
		<comp name=".HNE" depth="0.0">
			<acc value="0.586969319589" flag="0"/>
			<vel value="1.94556495628" flag="0"/>
			<psa03 value="1.12619093795" flag="0"/>
			<psa10 value="1.40072883141" flag="0"/>
			<psa30 value="0.328177526817" flag="0"/>
		</comp>
		<comp name=".HNN" depth="0.0">
			<acc value="0.643391920638" flag="0"/>
			<vel value="2.41424559001" flag="0"/>
			<psa03 value="0.867474549266" flag="0"/>
			<psa10 value="1.49980847495" flag="0"/>
			<psa30 value="0.716736546945" flag="0"/>
		</comp>
		<comp name=".HNZ" depth="0.0">
			<acc value="0.404256882589" flag="0"/>
			<vel value="2.01795116862" flag="0"/>
			<psa03 value="0.710117208448" flag="0"/>
			<psa10 value="0.856290985074" flag="0"/>
			<psa30 value="0.361863891707" flag="0"/>
		</comp>
	</station>
	<station code="KRTS" name="KRTS" netid="KO" source="Bogazici University Kandilli Observatory And Earthquake Research Institute (KOERI)" insttype="" lat="36.573" lon="35.375">
		<comp name=".HNE" depth="0.0">
			<acc value="4.27541155562" flag="0"/>
			<vel value="14.8564031949" flag="0"/>
			<psa03 value="17.2726615624" flag="0"/>
			<psa10 value="7.87632000754" flag="0"/>
			<psa30 value="3.38199534726" flag="0"/>
		</comp>
		<comp name=".HNN" depth="0.0">
			<acc value="5.51767578515" flag="0"/>
			<vel value="12.2623905522" flag="0"/>
			<psa03 value="16.616716776" flag="0"/>
			<psa10 value="5.11189031765" flag="0"/>
			<psa30 value="2.45424556839" flag="0"/>
		</comp>
		<comp name=".HNZ" depth="0.0">
			<acc value="3.07687458414" flag="0"/>
			<vel value="9.80465446099" flag="0"/>
			<psa03 value="11.805086029" flag="0"/>
			<psa10 value="4.36374011639" flag="0"/>
			<psa30 value="2.80855021267" flag="0"/>
		</comp>
	</station>
	<station code="KYHL" name="KYHL" netid="KO" source="Bogazici University Kandilli Observatory And Earthquake Research Institute (KOERI)" insttype="" lat="40.3244" lon="37.8955">
		<comp name=".HNE" depth="0.0">
			<acc value="0.795461987163" flag="0"/>
			<vel value="7.31275433754" flag="0"/>
			<psa03 value="0.973617330701" flag="0"/>
			<psa10 value="2.25243089249" flag="0"/>
			<psa30 value="0.940160414349" flag="0"/>
		</comp>
		<comp name=".HNN" depth="0.0">
			<acc value="0.558484653585" flag="0"/>
			<vel value="3.45041961492" flag="0"/>
			<psa03 value="1.01782325913" flag="0"/>
			<psa10 value="1.03344846089" flag="0"/>
			<psa30 value="0.697120047447" flag="0"/>
		</comp>
		<comp name=".HNZ" depth="0.0">
			<acc value="0.309919259866" flag="0"/>
			<vel value="1.74264879689" flag="0"/>
			<psa03 value="0.824558039588" flag="0"/>
			<psa10 value="0.807318740905" flag="0"/>
			<psa30 value="0.541815999318" flag="0"/>
		</comp>
	</station>
	<station code="MNVG" name="MNVG" netid="KO" source="Bogazici University Kandilli Observatory And Earthquake Research Institute (KOERI)" insttype="" lat="36.7935" lon="31.4161">
		<comp name=".HNE" depth="0.0">
			<acc value="0.502512027885" flag="0"/>
			<vel value="1.89050354457" flag="0"/>
			<psa03 value="0.736266440703" flag="0"/>
			<psa10 value="1.83466749772" flag="0"/>
			<psa30 value="0.706844318303" flag="0"/>
		</comp>
		<comp name=".HNN" depth="0.0">
			<acc value="0.383483629923" flag="0"/>
			<vel value="1.93413797123" flag="0"/>
			<psa03 value="0.789133276207" flag="0"/>
			<psa10 value="0.847843385464" flag="0"/>
			<psa30 value="0.694404720904" flag="0"/>
		</comp>
		<comp name=".HNZ" depth="0.0">
			<acc value="0.222147136203" flag="0"/>
			<vel value="1.33478745068" flag="0"/>
			<psa03 value="0.667238284595" flag="0"/>
			<psa10 value="0.499697682519" flag="0"/>
			<psa30 value="0.546709763504" flag="0"/>
		</comp>
	</station>
	<station code="RFHY" name="RFHY" netid="KO" source="Bogazici University Kandilli Observatory And Earthquake Research Institute (KOERI)" insttype="" lat="39.927" lon="38.833">
		<comp name=".HNE" depth="0.0">
			<acc value="0.126930757938" flag="0"/>
			<vel value="0.582068307007" flag="0"/>
			<psa03 value="0.175067743212" flag="0"/>
			<psa10 value="0.230497874353" flag="0"/>
			<psa30 value="0.210560881959" flag="0"/>
		</comp>
		<comp name=".HNN" depth="0.0">
			<acc value="1.47723855559" flag="0"/>
			<vel value="5.85480982217" flag="0"/>
			<psa03 value="1.92742901605" flag="0"/>
			<psa10 value="3.98355349087" flag="0"/>
			<psa30 value="1.74890454968" flag="0"/>
		</comp>
		<comp name=".HNZ" depth="0.0">
			<acc value="0.886570687754" flag="0"/>
			<vel value="2.99646720756" flag="0"/>
			<psa03 value="1.21714813009" flag="0"/>
			<psa10 value="2.10967519563" flag="0"/>
			<psa30 value="1.43866789136" flag="0"/>
		</comp>
	</station>
	<station code="SEYD" name="SEYD" netid="KO" source="Bogazici University Kandilli Observatory And Earthquake Research Institute (KOERI)" insttype="" lat="37.4056" lon="31.8379">
		<comp name=".HNE" depth="0.0">
			<acc value="0.122640293059" flag="0"/>
			<vel value="0.93281087386" flag="0"/>
			<psa03 value="0.175745892303" flag="0"/>
			<psa10 value="0.264405535569" flag="0"/>
			<psa30 value="0.188070045384" flag="0"/>
		</comp>
		<comp name=".HNN" depth="0.0">
			<acc value="0.128421213837" flag="0"/>
			<vel value="1.1812486531" flag="0"/>
			<psa03 value="0.205062563555" flag="0"/>
			<psa10 value="0.259760897885" flag="0"/>
			<psa30 value="0.270445702367" flag="0"/>
		</comp>
		<comp name=".HNZ" depth="0.0">
			<acc value="0.0946461853227" flag="0"/>
			<vel value="0.94609032999" flag="0"/>
			<psa03 value="0.155488342006" flag="0"/>
			<psa10 value="0.234366615638" flag="0"/>
			<psa30 value="0.263433184489" flag="0"/>
		</comp>
	</station>
	<station code="SINP" name="SINP" netid="KO" source="Bogazici University Kandilli Observatory And Earthquake Research Institute (KOERI)" insttype="" lat="41.9824" lon="35.0956">
		<comp name=".HNE" depth="0.0">
			<acc value="1.10089226932" flag="0"/>
			<vel value="9.23305743082" flag="0"/>
			<psa03 value="1.10829125219" flag="0"/>
			<psa10 value="1.49174694091" flag="0"/>
			<psa30 value="2.23488959713" flag="0"/>
		</comp>
		<comp name=".HNN" depth="0.0">
			<acc value="0.583946183209" flag="0"/>
			<vel value="5.15002959171" flag="0"/>
			<psa03 value="0.587316740185" flag="0"/>
			<psa10 value="0.864241571764" flag="0"/>
			<psa30 value="1.75377324554" flag="0"/>
		</comp>
		<comp name=".HNZ" depth="0.0">
			<acc value="0.331191037974" flag="0"/>
			<vel value="1.94350225647" flag="0"/>
			<psa03 value="0.3354895162" flag="0"/>
			<psa10 value="0.399447211418" flag="0"/>
			<psa30 value="0.697463536871" flag="0"/>
		</comp>
	</station>
	<station code="SLFK" name="SLFK" netid="KO" source="Bogazici University Kandilli Observatory And Earthquake Research Institute (KOERI)" insttype="" lat="36.3925" lon="33.9464">
		<comp name=".HNE" depth="0.0">
			<acc value="1.42842573188" flag="0"/>
			<vel value="2.3042117424" flag="0"/>
			<psa03 value="4.30813339269" flag="0"/>
			<psa10 value="1.55686781485" flag="0"/>
			<psa30 value="0.433956240804" flag="0"/>
		</comp>
		<comp name=".HNN" depth="0.0">
			<acc value="1.44278712699" flag="0"/>
			<vel value="3.13085206898" flag="0"/>
			<psa03 value="2.7399780101" flag="0"/>
			<psa10 value="1.91092834962" flag="0"/>
			<psa30 value="0.511165488874" flag="0"/>
		</comp>
		<comp name=".HNZ" depth="0.0">
			<acc value="0.761164854744" flag="0"/>
			<vel value="2.20324006574" flag="0"/>
			<psa03 value="1.71161688622" flag="0"/>
			<psa10 value="1.33293070012" flag="0"/>
			<psa30 value="0.399017899644" flag="0"/>
		</comp>
	</station>
	<station code="TOS" name="TOS" netid="KO" source="Bogazici University Kandilli Observatory And Earthquake Research Institute (KOERI)" insttype="" lat="41.0362" lon="34.0226">
		<comp name=".HNE" depth="0.0">
			<acc value="0.167082115059" flag="0"/>
			<vel value="2.468109982" flag="0"/>
			<psa03 value="0.17285491954" flag="0"/>
			<psa10 value="0.266289660383" flag="0"/>
			<psa30 value="0.325857453124" flag="0"/>
		</comp>
		<comp name=".HNN" depth="0.0">
			<acc value="0.171452816657" flag="0"/>
			<vel value="2.95985482238" flag="0"/>
			<psa03 value="0.182654558301" flag="0"/>
			<psa10 value="0.276119601569" flag="0"/>
			<psa30 value="0.431613525611" flag="0"/>
		</comp>
		<comp name=".HNZ" depth="0.0">
			<acc value="0.127510435622" flag="0"/>
			<vel value="1.16733467165" flag="0"/>
			<psa03 value="0.136966479607" flag="0"/>
			<psa10 value="0.210548112779" flag="0"/>
			<psa30 value="0.249472046299" flag="0"/>
		</comp>
	</station>
	<station code="TUNC" name="TUNC" netid="KO" source="Bogazici University Kandilli Observatory And Earthquake Research Institute (KOERI)" insttype="" lat="39.6942" lon="37.5388">
		<comp name=".HNE" depth="0.0">
			<acc value="1.54141948028" flag="0"/>
			<vel value="11.5816123385" flag="0"/>
			<psa03 value="2.99375765508" flag="0"/>
			<psa10 value="3.10677852883" flag="0"/>
			<psa30 value="3.91765131184" flag="0"/>
		</comp>
		<comp name=".HNN" depth="0.0">
			<acc value="1.37779213307" flag="0"/>
			<vel value="5.01335618147" flag="0"/>
			<psa03 value="2.1820927196" flag="0"/>
			<psa10 value="3.71755802997" flag="0"/>
			<psa30 value="2.75256399719" flag="0"/>
		</comp>
		<comp name=".HNZ" depth="0.0">
			<acc value="1.11371136326" flag="0"/>
			<vel value="6.09394800443" flag="0"/>
			<psa03 value="1.8714729759" flag="0"/>
			<psa10 value="2.5476166071" flag="0"/>
			<psa30 value="2.3724656442" flag="0"/>
		</comp>
	</station>
</stationlist>
