<?xml version="1.0" encoding="UTF-8" standalone="yes"?>
<!DOCTYPE earthquake SYSTEM "stationlist.dtd">
<stationlist created="" xmlns="ch.ethz.sed.shakemap.usgs.xml">
  <station code="TYRN" name="TYRN" netid="HT" insttype="120P," lat="39.711" lon="22.2325">
    <comp name="--.HHE">
      <acc value="0.1045827536" flag="0"/>
      <vel value="0.0444440834" flag="0"/>
      <psa03 value="0.2768290809" flag="0"/>
      <psa10 value="0.0342048264" flag="0"/>
      <psa30 value="0.0034707947" flag="0"/>
    </comp>
    <comp name="--.HHN">
      <acc value="0.1085080155" flag="0"/>
      <vel value="0.0480137793" flag="0"/>
      <psa03 value="0.1481605465" flag="0"/>
      <psa10 value="0.0315695275" flag="0"/>
      <psa30 value="0.0024300894" flag="0"/>
    </comp>
    <comp name="--.HHZ">
      <acc value="0.1155746025" flag="0"/>
      <vel value="0.0426396592" flag="0"/>
      <psa03 value="0.3799562678" flag="0"/>
      <psa10 value="0.0255640216" flag="0"/>
      <psa30 value="0.0036118765" flag="0"/>
    </comp>
  </station>
</stationlist>
