<stationlist created="1778136342">
	<station code="MALA" name="MALA" netid="CL" source="Corinth Riff Laboratory (CRLNET)" insttype="" lat="38.39341" lon="21.87263">
		<comp name="01.HNE" depth="0.0">
			<acc value="0.007723475067083" flag="0"/>
			<vel value="0.00912255050731269" flag="0"/>
			<psa03 value="0.022057907862808" flag="0"/>
			<psa10 value="0.0171783228090193" flag="0"/>
			<psa30 value="0.0034715478115117" flag="0"/>
		</comp>
		<comp name="01.HNN" depth="0.0">
			<acc value="0.00713163204848793" flag="0"/>
			<vel value="0.00869317778426329" flag="0"/>
			<psa03 value="0.0167335852752336" flag="0"/>
			<psa10 value="0.011597179955456" flag="0"/>
			<psa30 value="0.00421292617517647" flag="0"/>
		</comp>
		<comp name="01.HNZ" depth="0.0">
			<acc value="0.00304903542778331" flag="0"/>
			<vel value="0.00584967372125355" flag="0"/>
			<psa03 value="0.00675607319935904" flag="0"/>
			<psa10 value="0.00566570562407175" flag="0"/>
			<psa30 value="0.00177984497927485" flag="0"/>
		</comp>
	</station>
	<station code="ROD3" name="ROD3" netid="CL" source="Corinth Riff Laboratory (CRLNET)" insttype="" lat="38.30811" lon="21.89204">
		<comp name="00.HNE" depth="0.0">
			<acc value="0.00571176056398089" flag="0"/>
			<vel value="0.00270115369592739" flag="0"/>
			<psa03 value="0.0327512952445749" flag="0"/>
			<psa10 value="0.0043207548931265" flag="0"/>
			<psa30 value="0.00144025163104217" flag="0"/>
		</comp>
		<comp name="00.HNN" depth="0.0">
			<acc value="0.00709334991587729" flag="0"/>
			<vel value="0.00331772142926776" flag="0"/>
			<psa03 value="0.0364201561872732" flag="0"/>
			<psa10 value="0.00416773654649201" flag="0"/>
			<psa30 value="0.00139103520376207" flag="0"/>
		</comp>
		<comp name="00.HNZ" depth="0.0">
			<acc value="0.00235793635187314" flag="0"/>
			<vel value="0.000744833591640188" flag="0"/>
			<psa03 value="0.00657710437288595" flag="0"/>
			<psa10 value="0.00194494372169627" flag="0"/>
			<psa30 value="0.000815203004584911" flag="0"/>
		</comp>
	</station>
	<station code="VAS2" name="VAS2" netid="HI" source="ITSAK Strong Motion Network" insttype="" lat="38.630558" lon="20.608081">
		<comp name="--.HNE" depth="0.0">
			<acc value="0.0115961286312844" flag="0"/>
			<vel value="0.0171191685772975" flag="0"/>
			<psa03 value="0.0310165833422514" flag="0"/>
			<psa10 value="0.0438343325593776" flag="0"/>
			<psa30 value="0.0019996122561651" flag="0"/>
		</comp>
		<comp name="--.HNN" depth="0.0">
			<acc value="0.0150534381190008" flag="0"/>
			<vel value="0.0193811840498023" flag="0"/>
			<psa03 value="0.0383952414129572" flag="0"/>
			<psa10 value="0.0298379872451992" flag="0"/>
			<psa30 value="0.00480342320321487" flag="0"/>
		</comp>
		<comp name="--.HNZ" depth="0.0">
			<acc value="0.00747752562218287" flag="0"/>
			<vel value="0.0080815358359295" flag="0"/>
			<psa03 value="0.0155606636300881" flag="0"/>
			<psa10 value="0.0168243607813426" flag="0"/>
			<psa30 value="0.00109980243984566" flag="0"/>
		</comp>
	</station>
</stationlist>
