<?xml version="1.0" encoding="UTF-8" standalone="yes"?>
<!DOCTYPE earthquake SYSTEM "stationlist.dtd">
<stationlist created="" xmlns="ch.ethz.sed.shakemap.usgs.xml">
  <station code="BLY" name="BLY" netid="MN" insttype="" lat="44.7488" lon="17.1839">
    <comp name="--.HHZ">
      <acc value="0.0357044850" flag="0"/>
      <vel value="0.0104547677" flag="0"/>
      <psa03 value="0.0716191410" flag="0"/>
      <psa10 value="0.0039490779" flag="0"/>
      <psa30 value="0.0003340399" flag="0"/>
    </comp>
    <comp name="--.HHN">
      <acc value="0.0357724527" flag="0"/>
      <vel value="0.0120196043" flag="0"/>
      <psa03 value="0.0677363876" flag="0"/>
      <psa10 value="0.0052687959" flag="0"/>
      <psa30 value="0.0004145966" flag="0"/>
    </comp>
    <comp name="--.HHE">
      <acc value="0.0480165909" flag="0"/>
      <vel value="0.0205044741" flag="0"/>
      <psa03 value="0.1163135512" flag="0"/>
      <psa10 value="0.0130259597" flag="0"/>
      <psa30 value="0.0005160535" flag="0"/>
    </comp>
  </station>
</stationlist>
