<stationlist created="1775820723">
	<station code="BLY" name="BLY" netid="MN" source="Mediterranean Very Broadband Seismographic Network (MedNet)" insttype="" lat="44.7488" lon="17.1839">
		<comp name="--.HNE" depth="1.0">
			<acc value="0.0466739758783753" flag="0"/>
			<vel value="0.0203142299740148" flag="0"/>
			<psa03 value="0.116362875136266" flag="0"/>
			<psa10 value="0.0131631085538427" flag="0"/>
			<psa30 value="0.000516358581222678" flag="0"/>
		</comp>
		<comp name="--.HNN" depth="1.0">
			<acc value="0.0355280066924001" flag="0"/>
			<vel value="0.0128378268799214" flag="0"/>
			<psa03 value="0.0659538639116825" flag="0"/>
			<psa10 value="0.00532827844105694" flag="0"/>
			<psa30 value="0.000395788094018731" flag="0"/>
		</comp>
		<comp name="--.HNZ" depth="1.0">
			<acc value="0.0350130021238307" flag="0"/>
			<vel value="0.0103769810251381" flag="0"/>
			<psa03 value="0.0715859765944135" flag="0"/>
			<psa10 value="0.0039762229365045" flag="0"/>
			<psa30 value="0.000342325828447718" flag="0"/>
		</comp>
	</station>
</stationlist>
