<?xml version="1.0" encoding="UTF-8" standalone="yes"?>
<!DOCTYPE earthquake SYSTEM "stationlist.dtd">
<stationlist created="" xmlns="ch.ethz.sed.shakemap.usgs.xml">
  <station code="ARG" name="ARG" netid="HL" insttype="LE3D20_DR24" lat="36.2136" lon="28.1212">
    <comp name="--.HHN">
      <acc value="0.1288326920" flag="0"/>
      <vel value="0.0467027670" flag="0"/>
      <psa03 value="0.2651819009" flag="0"/>
      <psa10 value="0.0091383291" flag="0"/>
      <psa30 value="0.0009142941" flag="0"/>
    </comp>
    <comp name="--.HHZ">
      <acc value="0.0807271289" flag="0"/>
      <vel value="0.0182100620" flag="0"/>
      <psa03 value="0.0790604929" flag="0"/>
      <psa10 value="0.0079332303" flag="0"/>
      <psa30 value="0.0009128524" flag="0"/>
    </comp>
    <comp name="--.HHE">
      <acc value="0.1926550634" flag="0"/>
      <vel value="0.0687071359" flag="0"/>
      <psa03 value="0.4250619511" flag="0"/>
      <psa10 value="0.0184205703" flag="0"/>
      <psa30 value="0.0019361015" flag="0"/>
    </comp>
  </station>
  <station code="NISR" name="NISR" netid="HL" insttype="65535" lat="36.6106" lon="27.131">
    <comp name="--.HHE">
      <acc value="0.0697209190" flag="0"/>
      <vel value="0.0223420867" flag="0"/>
      <psa03 value="0.1082117634" flag="0"/>
      <psa10 value="0.0144020371" flag="0"/>
      <psa30 value="0.0009890681" flag="0"/>
    </comp>
    <comp name="--.HHN">
      <acc value="0.0412270583" flag="0"/>
      <vel value="0.0108833949" flag="0"/>
      <psa03 value="0.0790870013" flag="0"/>
      <psa10 value="0.0039613146" flag="0"/>
      <psa30 value="0.0003322764" flag="0"/>
    </comp>
    <comp name="--.HHZ">
      <acc value="0.0212691933" flag="0"/>
      <vel value="0.0104560631" flag="0"/>
      <psa03 value="0.0400517562" flag="0"/>
      <psa10 value="0.0071955824" flag="0"/>
      <psa30 value="0.0003180973" flag="0"/>
    </comp>
  </station>
  <station code="NISR2" name="NISR2" netid="HL" insttype="120" lat="36.5744" lon="27.1767">
    <comp name="--.HHZ">
      <acc value="0.1608911725" flag="0"/>
      <vel value="0.0490719635" flag="0"/>
      <psa03 value="0.3451690813" flag="0"/>
      <psa10 value="0.0147695897" flag="0"/>
      <psa30 value="0.0009989153" flag="0"/>
    </comp>
    <comp name="--.HHN">
      <acc value="0.2313886594" flag="0"/>
      <vel value="0.1153036953" flag="0"/>
      <psa03 value="0.7865529571" flag="0"/>
      <psa10 value="0.0506948689" flag="0"/>
      <psa30 value="0.0038695290" flag="0"/>
    </comp>
    <comp name="--.HHE">
      <acc value="0.1429258967" flag="0"/>
      <vel value="0.0901174985" flag="0"/>
      <psa03 value="0.4812002247" flag="0"/>
      <psa10 value="0.0401562399" flag="0"/>
      <psa30 value="0.0038227414" flag="0"/>
    </comp>
  </station>
  <station code="DATC" name="DATC" netid="KO" insttype="CMG-5T" lat="36.7584" lon="27.6602">
    <comp name="--.HNN">
      <acc value="0.1670838612" flag="0"/>
      <vel value="0.0302963123" flag="0"/>
      <psa03 value="0.1344925215" flag="0"/>
      <psa10 value="0.0091440377" flag="0"/>
      <psa30 value="0.0010089741" flag="0"/>
    </comp>
    <comp name="--.HNE">
      <acc value="0.2582505162" flag="0"/>
      <vel value="0.0627921057" flag="0"/>
      <psa03 value="0.3613902069" flag="0"/>
      <psa10 value="0.0170489861" flag="0"/>
      <psa30 value="0.0013094304" flag="0"/>
    </comp>
    <comp name="--.HNZ">
      <acc value="0.2076722887" flag="0"/>
      <vel value="0.0450311079" flag="0"/>
      <psa03 value="0.1728160955" flag="0"/>
      <psa10 value="0.0115847445" flag="0"/>
      <psa30 value="0.0009288018" flag="0"/>
    </comp>
  </station>
</stationlist>
