<stationlist xmlns:esm="https://esm-db.eu/esmws/shakemap/1/" created="1783475712">
	<station code="KARP" name="KARP" netid="GE" source="GEOFON" insttype="" lat="35.5471" lon="27.16106" esm:processing="manual (Paolucci et al 2011)" esm:quality="best">
		<comp name="--.HNE" depth="0.0">
			<acc value="0.0563586671157324" flag="0"/>
			<vel value="0.0187271176197501" flag="0"/>
			<psa03 value="0.0563304381324041" flag="0"/>
			<psa10 value="0.0117622786978775" flag="0"/>
			<psa30 value="0.000599545568684841" flag="0"/>
		</comp>
		<comp name="--.HNN" depth="0.0">
			<acc value="0.0517108393714337" flag="0"/>
			<vel value="0.0147060983377683" flag="0"/>
			<psa03 value="0.0929295631461504" flag="0"/>
			<psa10 value="0.0124709952507109" flag="0"/>
			<psa30 value="0.000557935316529849" flag="0"/>
		</comp>
		<comp name="--.HNZ" depth="0.0">
			<acc value="0.042420470752021" flag="0"/>
			<vel value="0.0122405830911337" flag="0"/>
			<psa03 value="0.0605362055545217" flag="0"/>
			<psa10 value="0.00500933745298171" flag="0"/>
			<psa30 value="0.000457265351638737" flag="0"/>
		</comp>
	</station>
	<station code="KRL1" name="KRL1" netid="HI" source="ITSAK Strong Motion Network" insttype="" lat="37.7951" lon="26.7065" esm:processing="manual (Paolucci et al 2011)" esm:quality="good">
		<comp name="--.HNE" depth="0.0">
			<acc value="0.0275858700204134" flag="0"/>
			<vel value="0.00801872918736081" flag="0"/>
			<psa03 value="0.0281939718789408" flag="0"/>
			<psa10 value="0.00340222116170366" flag="0"/>
			<psa30 value="0.000307661526899398" flag="0"/>
		</comp>
		<comp name="--.HNN" depth="0.0">
			<acc value="0.0134080199386993" flag="0"/>
			<vel value="0.0039789772332174" flag="0"/>
			<psa03 value="0.0195575013176663" flag="0"/>
			<psa10 value="0.00462309813254993" flag="0"/>
			<psa30 value="0.000280474048779246" flag="0"/>
		</comp>
		<comp name="--.HNZ" depth="0.0">
			<acc value="0.0148182595980381" flag="0"/>
			<vel value="0.00341466416314655" flag="0"/>
			<psa03 value="0.0100390979836629" flag="0"/>
			<psa10 value="0.00344182683226184" flag="0"/>
			<psa30 value="0.000187553375011575" flag="0"/>
		</comp>
	</station>
	<station code="KSS1" name="KSS1" netid="HI" source="ITSAK Strong Motion Network" insttype="" lat="35.4189" lon="26.9207" esm:processing="manual (Paolucci et al 2011)" esm:quality="best">
		<comp name="--.HNE" depth="0.0">
			<acc value="0.0138374201327404" flag="0"/>
			<vel value="0.00498349983334319" flag="0"/>
			<psa03 value="0.0184136312710307" flag="0"/>
			<psa10 value="0.00417114022381676" flag="0"/>
			<psa30 value="0.000241359452420688" flag="0"/>
		</comp>
		<comp name="--.HNN" depth="0.0">
			<acc value="0.0126057704759216" flag="0"/>
			<vel value="0.00365691216097947" flag="0"/>
			<psa03 value="0.0264697456782374" flag="0"/>
			<psa10 value="0.00252240115919577" flag="0"/>
			<psa30 value="0.000241658118039442" flag="0"/>
		</comp>
		<comp name="--.HNZ" depth="0.0">
			<acc value="0.0129141033892322" flag="0"/>
			<vel value="0.00424469570895209" flag="0"/>
			<psa03 value="0.0298335961210029" flag="0"/>
			<psa10 value="0.00173125331984865" flag="0"/>
			<psa30 value="0.000213966153374332" flag="0"/>
		</comp>
	</station>
	<station code="RDI1" name="RDI1" netid="HI" source="ITSAK Strong Motion Network" insttype="" lat="36.4514" lon="28.224" esm:processing="manual (Paolucci et al 2011)" esm:quality="best">
		<comp name="--.HNE" depth="0.0">
			<acc value="0.153338053206143" flag="0"/>
			<vel value="0.0861425349446864" flag="0"/>
			<psa03 value="0.584556929467721" flag="0"/>
			<psa10 value="0.0582556952831884" flag="0"/>
			<psa30 value="0.00452701646563674" flag="0"/>
		</comp>
		<comp name="--.HNN" depth="0.0">
			<acc value="0.148230225595309" flag="0"/>
			<vel value="0.0746069249997551" flag="0"/>
			<psa03 value="0.349257664862229" flag="0"/>
			<psa10 value="0.0525416680759689" flag="0"/>
			<psa30 value="0.00481828823072168" flag="0"/>
		</comp>
		<comp name="--.HNZ" depth="0.0">
			<acc value="0.109681657083855" flag="0"/>
			<vel value="0.041284926253379" flag="0"/>
			<psa03 value="0.320354199386826" flag="0"/>
			<psa10 value="0.0417860890270025" flag="0"/>
			<psa30 value="0.00248990379830682" flag="0"/>
		</comp>
	</station>
	<station code="RGE1" name="RGE1" netid="HI" source="ITSAK Strong Motion Network" insttype="" lat="36.0269" lon="27.9306" esm:processing="manual (Paolucci et al 2011)" esm:quality="best">
		<comp name="--.HNE" depth="0.0">
			<acc value="0.212380353483284" flag="0"/>
			<vel value="0.0788006865281636" flag="0"/>
			<psa03 value="0.314314001493359" flag="0"/>
			<psa10 value="0.0524168373195039" flag="0"/>
			<psa30 value="0.00388183384620126" flag="0"/>
		</comp>
		<comp name="--.HNN" depth="0.0">
			<acc value="0.238739137051083" flag="0"/>
			<vel value="0.0916015216996514" flag="0"/>
			<psa03 value="0.307781639327091" flag="0"/>
			<psa10 value="0.0668649906806762" flag="0"/>
			<psa30 value="0.00459547204176269" flag="0"/>
		</comp>
		<comp name="--.HNZ" depth="0.0">
			<acc value="0.17572984380456" flag="0"/>
			<vel value="0.0454443146347269" flag="0"/>
			<psa03 value="0.189617471648236" flag="0"/>
			<psa10 value="0.0174159039261623" flag="0"/>
			<psa30 value="0.00128633844027531" flag="0"/>
		</comp>
	</station>
	<station code="KARP" name="KARP" netid="HL" source="National Observatory of Athens Seismic Network" insttype="" lat="35.5471" lon="27.16106" esm:processing="manual (Paolucci et al 2011)" esm:quality="best">
		<comp name="--.HNE" depth="0.0">
			<acc value="0.0552144677951082" flag="0"/>
			<vel value="0.0183468756365798" flag="0"/>
			<psa03 value="0.0552118829669474" flag="0"/>
			<psa10 value="0.0115246975807344" flag="0"/>
			<psa30 value="0.000587017750831725" flag="0"/>
		</comp>
		<comp name="--.HNN" depth="0.0">
			<acc value="0.0506609598182034" flag="0"/>
			<vel value="0.0144075092849242" flag="0"/>
			<psa03 value="0.091050390468183" flag="0"/>
			<psa10 value="0.0122173069391853" flag="0"/>
			<psa30 value="0.000546749764875281" flag="0"/>
		</comp>
		<comp name="--.HNZ" depth="0.0">
			<acc value="0.041559217541865" flag="0"/>
			<vel value="0.0119920783017145" flag="0"/>
			<psa03 value="0.0593281659758284" flag="0"/>
			<psa10 value="0.00490866748809059" flag="0"/>
			<psa30 value="0.0004478694882489" flag="0"/>
		</comp>
	</station>
	<station code="KLNA" name="KLNA" netid="HL" source="National Observatory of Athens Seismic Network" insttype="" lat="36.95708" lon="26.97274" esm:processing="automatic (Paolucci et al 2011)" esm:quality="best">
		<comp name="00.HNE" depth="0.0">
			<acc value="0.0514486062957087" flag="0"/>
			<vel value="0.0159579403912504" flag="0"/>
			<psa03 value="0.055480336206657" flag="0"/>
			<psa10 value="0.00297177736358561" flag="0"/>
			<psa30 value="0.000304694427070431" flag="0"/>
		</comp>
		<comp name="00.HNN" depth="0.0">
			<acc value="0.0602878612148597" flag="0"/>
			<vel value="0.0163979797423433" flag="0"/>
			<psa03 value="0.0676054742002086" flag="0"/>
			<psa10 value="0.00285500020431192" flag="0"/>
			<psa30 value="0.000241160493672485" flag="0"/>
		</comp>
		<comp name="00.HNZ" depth="0.0">
			<acc value="0.0664493482620988" flag="0"/>
			<vel value="0.0157203035237998" flag="0"/>
			<psa03 value="0.0313195446327902" flag="0"/>
			<psa10 value="0.0023999719630041" flag="0"/>
			<psa30 value="0.000235344006812109" flag="0"/>
		</comp>
	</station>
	<station code="NISR" name="NISR" netid="HL" source="National Observatory of Athens Seismic Network" insttype="" lat="36.6106" lon="27.131" esm:processing="manual (Paolucci et al 2011)" esm:quality="good">
		<comp name="00.HNE" depth="0.0">
			<acc value="0.0310730155397545" flag="0"/>
			<vel value="0.0133424274625856" flag="0"/>
			<psa03 value="0.0500078388155624" flag="0"/>
			<psa10 value="0.0104815365378549" flag="0"/>
			<psa30 value="0.00158809353673618" flag="0"/>
		</comp>
		<comp name="00.HNN" depth="0.0">
			<acc value="0.0201112697369047" flag="0"/>
			<vel value="0.0107563803129021" flag="0"/>
			<psa03 value="0.0470301207230194" flag="0"/>
			<psa10 value="0.00989851822825321" flag="0"/>
			<psa30 value="0.00106791366070564" flag="0"/>
		</comp>
		<comp name="00.HNZ" depth="0.0">
			<acc value="0.0114445772600727" flag="0"/>
			<vel value="0.00586095881036459" flag="0"/>
			<psa03 value="0.0244629851360405" flag="0"/>
			<psa10 value="0.0096377034505542" flag="0"/>
			<psa30 value="0.000638845601635816" flag="0"/>
		</comp>
	</station>
	<station code="RODB" name="RODB" netid="HL" source="National Observatory of Athens Seismic Network" insttype="" lat="36.4471" lon="28.22116" esm:processing="manual (Paolucci et al 2011)" esm:quality="best">
		<comp name="00.HNE" depth="0.0">
			<acc value="0.138225024259218" flag="0"/>
			<vel value="0.0798615383859702" flag="0"/>
			<psa03 value="0.379458654329563" flag="0"/>
			<psa10 value="0.0562020279994097" flag="0"/>
			<psa30 value="0.00599366599858368" flag="0"/>
		</comp>
		<comp name="00.HNN" depth="0.0">
			<acc value="0.191777208831787" flag="0"/>
			<vel value="0.0859348413592844" flag="0"/>
			<psa03 value="0.621916671993977" flag="0"/>
			<psa10 value="0.0405780494483092" flag="0"/>
			<psa30 value="0.00404827485482123" flag="0"/>
		</comp>
		<comp name="00.HNZ" depth="0.0">
			<acc value="0.134912479600897" flag="0"/>
			<vel value="0.0414572887624177" flag="0"/>
			<psa03 value="0.226037627835509" flag="0"/>
			<psa10 value="0.0305915889311109" flag="0"/>
			<psa30 value="0.00194807567615955" flag="0"/>
		</comp>
	</station>
	<station code="CAME" name="CAME" netid="KO" source="Bogazici University Kandilli Observatory And Earthquake Research Institute (KOERI)" insttype="" lat="36.9435" lon="29.3023" esm:processing="manual (Paolucci et al 2011)" esm:quality="best">
		<comp name="--.HNE" depth="0.0">
			<acc value="0.0414208753739459" flag="0"/>
			<vel value="0.0150079923290645" flag="0"/>
			<psa03 value="0.0875157561453395" flag="0"/>
			<psa10 value="0.00599992990751024" flag="0"/>
			<psa30 value="0.000527063193963241" flag="0"/>
		</comp>
		<comp name="--.HNN" depth="0.0">
			<acc value="0.0292081544770113" flag="0"/>
			<vel value="0.0125149966822541" flag="0"/>
			<psa03 value="0.0881421470379954" flag="0"/>
			<psa10 value="0.00731266624969034" flag="0"/>
			<psa30 value="0.000535564213220713" flag="0"/>
		</comp>
		<comp name="--.HNZ" depth="0.0">
			<acc value="0.0336636662128147" flag="0"/>
			<vel value="0.00977967643524476" flag="0"/>
			<psa03 value="0.0738693831267667" flag="0"/>
			<psa10 value="0.00431672809453086" flag="0"/>
			<psa30 value="0.0002666635514449" flag="0"/>
		</comp>
	</station>
	<station code="AMGA" name="AMGA" netid="HL" source="National Observatory of Athens Seismic Network" insttype="" lat="36.831561" lon="25.893836" esm:processing="discarded" esm:quality="bad">
		<comp name="00.HNE" depth="0.0">
			<acc value="0" flag="1"/>
			<vel value="0" flag="1"/>
			<psa03 value="0" flag="1"/>
			<psa10 value="0" flag="1"/>
			<psa30 value="0" flag="1"/>
		</comp>
		<comp name="00.HNN" depth="0.0">
			<acc value="0" flag="1"/>
			<vel value="0" flag="1"/>
			<psa03 value="0" flag="1"/>
			<psa10 value="0" flag="1"/>
			<psa30 value="0" flag="1"/>
		</comp>
		<comp name="00.HNZ" depth="0.0">
			<acc value="0" flag="1"/>
			<vel value="0" flag="1"/>
			<psa03 value="0" flag="1"/>
			<psa10 value="0" flag="1"/>
			<psa30 value="0" flag="1"/>
		</comp>
	</station>
	<station code="ASTA" name="ASTA" netid="HL" source="National Observatory of Athens Seismic Network" insttype="" lat="36.54552" lon="26.35295" esm:processing="automatic (Paolucci et al 2011)" esm:quality="bad">
		<comp name="00.HNE" depth="0.0">
			<acc value="0" flag="1"/>
			<vel value="0" flag="1"/>
			<psa03 value="0" flag="1"/>
			<psa10 value="0" flag="1"/>
			<psa30 value="0" flag="1"/>
		</comp>
		<comp name="00.HNN" depth="0.0">
			<acc value="0" flag="1"/>
			<vel value="0" flag="1"/>
			<psa03 value="0" flag="1"/>
			<psa10 value="0" flag="1"/>
			<psa30 value="0" flag="1"/>
		</comp>
		<comp name="00.HNZ" depth="0.0">
			<acc value="0" flag="1"/>
			<vel value="0" flag="1"/>
			<psa03 value="0" flag="1"/>
			<psa10 value="0" flag="1"/>
			<psa30 value="0" flag="1"/>
		</comp>
	</station>
	<station code="DEMR" name="DEMR" netid="KO" source="Bogazici University Kandilli Observatory And Earthquake Research Institute (KOERI)" insttype="" lat="36.2365" lon="29.9056" esm:processing="discarded" esm:quality="bad">
		<comp name="--.HNE" depth="0.0">
			<acc value="0" flag="1"/>
			<vel value="0" flag="1"/>
			<psa03 value="0" flag="1"/>
			<psa10 value="0" flag="1"/>
			<psa30 value="0" flag="1"/>
		</comp>
		<comp name="--.HNN" depth="0.0">
			<acc value="0" flag="1"/>
			<vel value="0" flag="1"/>
			<psa03 value="0" flag="1"/>
			<psa10 value="0" flag="1"/>
			<psa30 value="0" flag="1"/>
		</comp>
		<comp name="--.HNZ" depth="0.0">
			<acc value="0" flag="1"/>
			<vel value="0" flag="1"/>
			<psa03 value="0" flag="1"/>
			<psa10 value="0" flag="1"/>
			<psa30 value="0" flag="1"/>
		</comp>
	</station>
</stationlist>
