<?xml version="1.0" encoding="UTF-8" standalone="yes"?>
<!DOCTYPE earthquake SYSTEM "stationlist.dtd">
<stationlist created="" xmlns="ch.ethz.sed.shakemap.usgs.xml">
  <station code="ARG" name="ARG" netid="HL" source="NOA" insttype="LE3D20_DR24" lat="36.2136" lon="28.1212">
    <comp name="--.HHE">
      <acc value="0.5649209799" flag="0"/>
      <vel value="0.2252117758" flag="0"/>
      <psa03 value="1.0397340734" flag="0"/>
      <psa10 value="0.0746853506" flag="0"/>
      <psa30 value="0.0089776804" flag="0"/>
    </comp>
    <comp name="--.HHN">
      <acc value="0.6300736011" flag="0"/>
      <vel value="0.2065898571" flag="0"/>
      <psa03 value="1.1006676594" flag="0"/>
      <psa10 value="0.0441242100" flag="0"/>
      <psa30 value="0.0038326348" flag="0"/>
    </comp>
    <comp name="--.HHZ">
      <acc value="0.6678156020" flag="0"/>
      <vel value="0.1919458006" flag="0"/>
      <psa03 value="0.5305362108" flag="0"/>
      <psa10 value="0.0270745339" flag="0"/>
      <psa30 value="0.0036985897" flag="0"/>
    </comp>
  </station>
  <station code="CAME" name="CAME" netid="KO" source="KOERI" insttype="100" lat="36.9435" lon="29.3023">
    <comp name="--.HNE">
      <acc value="0.0413563972" flag="0"/>
      <vel value="0.0149354188" flag="0"/>
      <psa03 value="0.0869331638" flag="0"/>
      <psa10 value="0.0059850910" flag="0"/>
      <psa30 value="0.0005205360" flag="0"/>
    </comp>
    <comp name="--.HNN">
      <acc value="0.0292269974" flag="0"/>
      <vel value="0.0124236096" flag="0"/>
      <psa03 value="0.0868069174" flag="0"/>
      <psa10 value="0.0073097264" flag="0"/>
      <psa30 value="0.0005175492" flag="0"/>
    </comp>
    <comp name="--.HNZ">
      <acc value="0.0337543433" flag="0"/>
      <vel value="0.0096690073" flag="0"/>
      <psa03 value="0.0721896542" flag="0"/>
      <psa10 value="0.0043148898" flag="0"/>
      <psa30 value="0.0002743399" flag="0"/>
    </comp>
  </station>
</stationlist>
