<?xml version="1.0" encoding="UTF-8" standalone="yes"?>
<!DOCTYPE earthquake SYSTEM "stationlist.dtd">
<stationlist created="" xmlns="ch.ethz.sed.shakemap.usgs.xml">
  <station code="IMMV" name="IMMV" netid="GE" insttype="STS-2/N" commtype="DIG" lat="35.4606" lon="23.9811">
    <comp name="--.HHN">
      <acc value="0.0280134116" flag="0"/>
      <vel value="0.0218521278" flag="0"/>
      <psa03 value="0.0671441163" flag="0"/>
      <psa10 value="0.0301548621" flag="0"/>
      <psa30 value="0.0009967338" flag="0"/>
    </comp>
    <comp name="--.HHE">
      <acc value="0.0365404212" flag="0"/>
      <vel value="0.0227984269" flag="0"/>
      <psa03 value="0.0967729975" flag="0"/>
      <psa10 value="0.0372063148" flag="0"/>
      <psa30 value="0.0016548900" flag="0"/>
    </comp>
    <comp name="--.HHZ">
      <acc value="0.0171533622" flag="0"/>
      <vel value="0.0105561411" flag="0"/>
      <psa03 value="0.0585610021" flag="0"/>
      <psa10 value="0.0078652076" flag="0"/>
      <psa30 value="0.0007774162" flag="0"/>
    </comp>
  </station>
  <station code="KTHA" name="KTHA" netid="GE" insttype="STS-2/N" commtype="DIG" lat="36.2566" lon="23.0621">
    <comp name="--.HHE">
      <acc value="0.0000000000" flag="0"/>
      <vel value="-100.0000000000" flag="0"/>
      <psa03 value="0.0000000000" flag="0"/>
      <psa10 value="0.0000000000" flag="0"/>
      <psa30 value="0.0000000000" flag="0"/>
    </comp>
    <comp name="--.HHZ">
      <acc value="0.1053922144" flag="0"/>
      <vel value="0.0190829831" flag="0"/>
      <psa03 value="0.0604908834" flag="0"/>
      <psa10 value="0.0119591483" flag="0"/>
      <psa30 value="0.0008389133" flag="0"/>
    </comp>
    <comp name="--.HHN">
      <acc value="0.1020104636" flag="0"/>
      <vel value="0.0195818730" flag="0"/>
      <psa03 value="0.0840113184" flag="0"/>
      <psa10 value="0.0096440190" flag="0"/>
      <psa30 value="0.0011536409" flag="0"/>
    </comp>
  </station>
  <station code="ATEI" name="ATEI" netid="HC" insttype="DC" commtype="DIG" lat="35.5193" lon="24.0432">
    <comp name="--.HNZ">
      <acc value="0.0262207806" flag="0"/>
      <vel value="0.0116858380" flag="0"/>
      <psa03 value="0.0444532947" flag="0"/>
      <psa10 value="0.0096141453" flag="0"/>
      <psa30 value="0.0009059236" flag="0"/>
    </comp>
    <comp name="--.HNE">
      <acc value="0.0389514327" flag="0"/>
      <vel value="0.0212646062" flag="0"/>
      <psa03 value="0.1263215413" flag="0"/>
      <psa10 value="0.0278690952" flag="0"/>
      <psa30 value="0.0011363569" flag="0"/>
    </comp>
    <comp name="--.HNN">
      <acc value="0.0482578758" flag="0"/>
      <vel value="0.0262034516" flag="0"/>
      <psa03 value="0.1506757648" flag="0"/>
      <psa10 value="0.0238512231" flag="0"/>
      <psa30 value="0.0013309360" flag="0"/>
    </comp>
  </station>
  <station code="KNDR" name="KNDR" netid="HC" insttype="120" commtype="DIG" lat="35.2348" lon="23.6248">
    <comp name="--.HHN">
      <acc value="0.0512499620" flag="0"/>
      <vel value="0.0258602186" flag="0"/>
      <psa03 value="0.1984063394" flag="0"/>
      <psa10 value="0.0201698967" flag="0"/>
      <psa30 value="0.0011277607" flag="0"/>
    </comp>
    <comp name="--.HHE">
      <acc value="0.0534778228" flag="0"/>
      <vel value="0.0276079601" flag="0"/>
      <psa03 value="0.1761183300" flag="0"/>
      <psa10 value="0.0333427078" flag="0"/>
      <psa30 value="0.0016416896" flag="0"/>
    </comp>
    <comp name="--.HHZ">
      <acc value="0.0445880679" flag="0"/>
      <vel value="0.0165512124" flag="0"/>
      <psa03 value="0.0847926410" flag="0"/>
      <psa10 value="0.0093226113" flag="0"/>
      <psa30 value="0.0004495427" flag="0"/>
    </comp>
  </station>
  <station code="CH02" name="CH02" netid="HI" insttype="unknown" commtype="DIG" lat="35.5145" lon="24.0315">
    <comp name="--.HNE">
      <acc value="0.0380206367" flag="0"/>
      <vel value="0.0206463168" flag="0"/>
      <psa03 value="0.1209147912" flag="0"/>
      <psa10 value="0.0324698403" flag="0"/>
      <psa30 value="0.0021849127" flag="0"/>
    </comp>
    <comp name="--.HNN">
      <acc value="0.0391809996" flag="0"/>
      <vel value="0.0239284960" flag="0"/>
      <psa03 value="0.0944287739" flag="0"/>
      <psa10 value="0.0278202340" flag="0"/>
      <psa30 value="0.0013915848" flag="0"/>
    </comp>
    <comp name="--.HNZ">
      <acc value="0.0272953058" flag="0"/>
      <vel value="0.0121403580" flag="0"/>
      <psa03 value="0.0407827113" flag="0"/>
      <psa10 value="0.0205745125" flag="0"/>
      <psa30 value="0.0009231584" flag="0"/>
    </comp>
  </station>
  <station code="KIS1" name="KIS1" netid="HI" insttype="unknown" commtype="DIG" lat="35.4939" lon="23.659">
    <comp name="--.HNE">
      <acc value="0.0949162527" flag="0"/>
      <vel value="0.0306388811" flag="0"/>
      <psa03 value="0.2177640187" flag="0"/>
      <psa10 value="0.0224129748" flag="0"/>
      <psa30 value="0.0012467385" flag="0"/>
    </comp>
    <comp name="--.HNN">
      <acc value="0.0810691571" flag="0"/>
      <vel value="0.0378460434" flag="0"/>
      <psa03 value="0.2197315581" flag="0"/>
      <psa10 value="0.0206430678" flag="0"/>
      <psa30 value="0.0013049327" flag="0"/>
    </comp>
    <comp name="--.HNZ">
      <acc value="0.0464528652" flag="0"/>
      <vel value="0.0232732841" flag="0"/>
      <psa03 value="0.1285436871" flag="0"/>
      <psa10 value="0.0221385549" flag="0"/>
      <psa30 value="0.0014621270" flag="0"/>
    </comp>
  </station>
  <station code="IMMV" name="IMMV" netid="HL" insttype="120" commtype="DIG" lat="35.4606" lon="23.9811">
    <comp name="--.HHE">
      <acc value="0.0360143699" flag="0"/>
      <vel value="0.0224840082" flag="0"/>
      <psa03 value="0.0940001576" flag="0"/>
      <psa10 value="0.0369180863" flag="0"/>
      <psa30 value="0.0016413553" flag="0"/>
    </comp>
    <comp name="--.HHN">
      <acc value="0.0277343498" flag="0"/>
      <vel value="0.0215438253" flag="0"/>
      <psa03 value="0.0654489670" flag="0"/>
      <psa10 value="0.0299071368" flag="0"/>
      <psa30 value="0.0009951214" flag="0"/>
    </comp>
    <comp name="--.HHZ">
      <acc value="0.0167529231" flag="0"/>
      <vel value="0.0103268891" flag="0"/>
      <psa03 value="0.0569844357" flag="0"/>
      <psa10 value="0.0077671165" flag="0"/>
      <psa30 value="0.0007716359" flag="0"/>
    </comp>
  </station>
</stationlist>
