<?xml version="1.0" encoding="UTF-8" standalone="yes"?>
<!DOCTYPE earthquake SYSTEM "stationlist.dtd">
<stationlist created="" xmlns="ch.ethz.sed.shakemap.usgs.xml">
  <station code="KLV" name="KLV" netid="MN" insttype="" lat="38.0437" lon="22.1504">
    <comp name="--.HHE">
      <acc value="0.0236203378" flag="0"/>
      <vel value="0.0109953882" flag="0"/>
      <psa03 value="0.0753505674" flag="0"/>
      <psa10 value="0.0145938019" flag="0"/>
      <psa30 value="0.0009975703" flag="0"/>
    </comp>
    <comp name="--.HHN">
      <acc value="0.0277457781" flag="0"/>
      <vel value="0.0182120736" flag="0"/>
      <psa03 value="0.0800715861" flag="0"/>
      <psa10 value="0.0183556861" flag="0"/>
      <psa30 value="0.0009641084" flag="0"/>
    </comp>
    <comp name="--.HHZ">
      <acc value="0.0264569532" flag="0"/>
      <vel value="0.0103556487" flag="0"/>
      <psa03 value="0.0402607462" flag="0"/>
      <psa10 value="0.0112000027" flag="0"/>
      <psa30 value="0.0011277088" flag="0"/>
    </comp>
  </station>
  <station code="THL" name="THL" netid="MN" insttype="" lat="39.5647" lon="22.0144">
    <comp name="--.HHE">
      <acc value="0.0105243449" flag="0"/>
      <vel value="0.0101652040" flag="0"/>
      <psa03 value="0.0299573520" flag="0"/>
      <psa10 value="0.0153100847" flag="0"/>
      <psa30 value="0.0015120614" flag="0"/>
    </comp>
    <comp name="--.HHN">
      <acc value="0.0099820043" flag="0"/>
      <vel value="0.0089513327" flag="0"/>
      <psa03 value="0.0203283482" flag="0"/>
      <psa10 value="0.0116207016" flag="0"/>
      <psa30 value="0.0010611191" flag="0"/>
    </comp>
    <comp name="--.HHZ">
      <acc value="0.0121477058" flag="0"/>
      <vel value="0.0080468530" flag="0"/>
      <psa03 value="0.0259210152" flag="0"/>
      <psa10 value="0.0124649935" flag="0"/>
      <psa30 value="0.0012338302" flag="0"/>
    </comp>
  </station>
</stationlist>
