<?xml version="1.0" encoding="UTF-8" standalone="yes"?>
<!DOCTYPE earthquake SYSTEM "stationlist.dtd">
<stationlist created="" xmlns="ch.ethz.sed.shakemap.usgs.xml">
  <station code="ACOR" name="ACOR" netid="HA" insttype="Horizon,120s,1200" lat="37.8905" lon="22.8694">
    <comp name="--.HHE">
      <acc value="0.0037166393" flag="0"/>
      <vel value="0.0039035522" flag="0"/>
      <psa03 value="0.0099382602" flag="0"/>
      <psa10 value="0.0087866033" flag="0"/>
      <psa30 value="0.0010152851" flag="0"/>
    </comp>
    <comp name="--.HHZ">
      <acc value="0.0037081215" flag="0"/>
      <vel value="0.0042482844" flag="0"/>
      <psa03 value="0.0102067350" flag="0"/>
      <psa10 value="0.0056599772" flag="0"/>
      <psa30 value="0.0008893183" flag="0"/>
    </comp>
    <comp name="--.HHN">
      <acc value="0.0057724211" flag="0"/>
      <vel value="0.0050313482" flag="0"/>
      <psa03 value="0.0129074212" flag="0"/>
      <psa10 value="0.0080220305" flag="0"/>
      <psa30 value="0.0010984390" flag="0"/>
    </comp>
  </station>
  <station code="AIGS" name="AIGS" netid="HA" insttype="DC" lat="38.25" lon="22.0878">
    <comp name="--.HNE">
      <acc value="0.2989441983" flag="0"/>
      <vel value="0.0907942561" flag="0"/>
      <psa03 value="0.3345456509" flag="0"/>
      <psa10 value="0.0280045576" flag="0"/>
      <psa30 value="0.0036519312" flag="0"/>
    </comp>
    <comp name="--.HNN">
      <acc value="0.3736069625" flag="0"/>
      <vel value="0.1210609103" flag="0"/>
      <psa03 value="0.6138819178" flag="0"/>
      <psa10 value="0.0339854601" flag="0"/>
      <psa30 value="0.0042696259" flag="0"/>
    </comp>
    <comp name="--.HNZ">
      <acc value="0.1598646760" flag="0"/>
      <vel value="0.0344505539" flag="0"/>
      <psa03 value="0.1253346441" flag="0"/>
      <psa10 value="0.0241265205" flag="0"/>
      <psa30 value="0.0039499444" flag="0"/>
    </comp>
  </station>
  <station code="AMPE" name="AMPE" netid="HA" insttype="1s-100Hz," lat="38.3015" lon="23.2688">
    <comp name="--.HHZ">
      <acc value="0.0078366994" flag="0"/>
      <vel value="0.0091441966" flag="0"/>
      <psa03 value="0.0277487346" flag="0"/>
      <psa10 value="0.0091217380" flag="0"/>
      <psa30 value="0.0017935599" flag="0"/>
    </comp>
    <comp name="--.HHN">
      <acc value="0.0133940633" flag="0"/>
      <vel value="0.0156029767" flag="0"/>
      <psa03 value="0.0330020051" flag="0"/>
      <psa10 value="0.0296352564" flag="0"/>
      <psa30 value="0.0031125580" flag="0"/>
    </comp>
    <comp name="--.HHE">
      <acc value="0.0148850204" flag="0"/>
      <vel value="0.0128827275" flag="0"/>
      <psa03 value="0.0341803117" flag="0"/>
      <psa10 value="0.0271226974" flag="0"/>
      <psa30 value="0.0028522060" flag="0"/>
    </comp>
  </station>
  <station code="ATAL" name="ATAL" netid="HA" insttype="120s," lat="38.6926" lon="23.0213">
    <comp name="--.HHE">
      <acc value="0.0098413766" flag="0"/>
      <vel value="0.0101094462" flag="0"/>
      <psa03 value="0.0209106676" flag="0"/>
      <psa10 value="0.0166522545" flag="0"/>
      <psa30 value="0.0014923054" flag="0"/>
    </comp>
    <comp name="--.HHN">
      <acc value="0.0148172861" flag="0"/>
      <vel value="0.0135337142" flag="0"/>
      <psa03 value="0.0319419731" flag="0"/>
      <psa10 value="0.0207082243" flag="0"/>
      <psa30 value="0.0021118327" flag="0"/>
    </comp>
    <comp name="--.HHZ">
      <acc value="0.0113299221" flag="0"/>
      <vel value="0.0076904806" flag="0"/>
      <psa03 value="0.0296277496" flag="0"/>
      <psa10 value="0.0127759962" flag="0"/>
      <psa30 value="0.0011717854" flag="0"/>
    </comp>
  </station>
  <station code="ATHR" name="ATHR" netid="HA" insttype="GEOtiny," lat="38.3172" lon="20.4165">
    <comp name="--.HHE">
      <acc value="0.0290878786" flag="0"/>
      <vel value="0.0194025143" flag="0"/>
      <psa03 value="0.1086077564" flag="0"/>
      <psa10 value="0.0429326873" flag="0"/>
      <psa30 value="0.0019411694" flag="0"/>
    </comp>
    <comp name="--.HHZ">
      <acc value="0.0151495240" flag="0"/>
      <vel value="0.0126829808" flag="0"/>
      <psa03 value="0.0598705826" flag="0"/>
      <psa10 value="0.0197726657" flag="0"/>
      <psa30 value="0.0016156111" flag="0"/>
    </comp>
    <comp name="--.HHN">
      <acc value="0.0324471962" flag="0"/>
      <vel value="0.0259158330" flag="0"/>
      <psa03 value="0.0919567915" flag="0"/>
      <psa10 value="0.0344158945" flag="0"/>
      <psa30 value="0.0031892333" flag="0"/>
    </comp>
  </station>
  <station code="AXAR" name="AXAR" netid="HA" insttype="Horizon,120s,1200" lat="38.7664" lon="22.659">
    <comp name="--.HHZ">
      <acc value="0.0683813525" flag="0"/>
      <vel value="0.0405464486" flag="0"/>
      <psa03 value="0.1771373561" flag="0"/>
      <psa10 value="0.0861428040" flag="0"/>
      <psa30 value="0.0042509247" flag="0"/>
    </comp>
    <comp name="--.HHN">
      <acc value="0.1723715132" flag="0"/>
      <vel value="0.0801799334" flag="0"/>
      <psa03 value="0.5029560207" flag="0"/>
      <psa10 value="0.0734203870" flag="0"/>
      <psa30 value="0.0125106940" flag="0"/>
    </comp>
    <comp name="--.HHE">
      <acc value="0.1566953888" flag="0"/>
      <vel value="0.0823051437" flag="0"/>
      <psa03 value="0.3929881672" flag="0"/>
      <psa10 value="0.1479960317" flag="0"/>
      <psa30 value="0.0159255551" flag="0"/>
    </comp>
  </station>
  <station code="DOMV" name="DOMV" netid="HA" insttype="60" lat="38.2569" lon="22.9795">
    <comp name="--.HHE">
      <acc value="0.0338401750" flag="0"/>
      <vel value="0.0138862059" flag="0"/>
      <psa03 value="0.0658210444" flag="0"/>
      <psa10 value="0.0149108339" flag="0"/>
      <psa30 value="0.0010021558" flag="0"/>
    </comp>
    <comp name="--.HHN">
      <acc value="0.0367612589" flag="0"/>
      <vel value="0.0232475266" flag="0"/>
      <psa03 value="0.0892290401" flag="0"/>
      <psa10 value="0.0299771024" flag="0"/>
      <psa30 value="0.0019497883" flag="0"/>
    </comp>
    <comp name="--.HHZ">
      <acc value="0.0327229799" flag="0"/>
      <vel value="0.0103381187" flag="0"/>
      <psa03 value="0.0439830871" flag="0"/>
      <psa10 value="0.0139862823" flag="0"/>
      <psa30 value="0.0020263318" flag="0"/>
    </comp>
  </station>
  <station code="DRES" name="DRES" netid="HA" insttype="DC" lat="38.3197" lon="21.8532">
    <comp name="--.HNE">
      <acc value="0.1822443747" flag="0"/>
      <vel value="0.1259808947" flag="0"/>
      <psa03 value="0.3179494521" flag="0"/>
      <psa10 value="0.1759137212" flag="0"/>
      <psa30 value="0.0132178344" flag="0"/>
    </comp>
    <comp name="--.HNN">
      <acc value="0.1418524209" flag="0"/>
      <vel value="0.1151009889" flag="0"/>
      <psa03 value="0.4190896858" flag="0"/>
      <psa10 value="0.1845259076" flag="0"/>
      <psa30 value="0.0126143896" flag="0"/>
    </comp>
    <comp name="--.HNZ">
      <acc value="0.1059867137" flag="0"/>
      <vel value="0.0507550248" flag="0"/>
      <psa03 value="0.2090101811" flag="0"/>
      <psa10 value="0.0776478499" flag="0"/>
      <psa30 value="0.0054070257" flag="0"/>
    </comp>
  </station>
  <station code="HAVD" name="HAVD" netid="HA" insttype="GEOtiny," lat="38.2036" lon="20.3848">
    <comp name="--.HHN">
      <acc value="0.0284856510" flag="0"/>
      <vel value="0.0315346503" flag="0"/>
      <psa03 value="0.0745739541" flag="0"/>
      <psa10 value="0.0428198827" flag="0"/>
      <psa30 value="0.0031207242" flag="0"/>
    </comp>
    <comp name="--.HHE">
      <acc value="0.0220943283" flag="0"/>
      <vel value="0.0173364683" flag="0"/>
      <psa03 value="0.0440549089" flag="0"/>
      <psa10 value="0.0251022612" flag="0"/>
      <psa30 value="0.0015286431" flag="0"/>
    </comp>
    <comp name="--.HHZ">
      <acc value="0.0183608181" flag="0"/>
      <vel value="0.0133174935" flag="0"/>
      <psa03 value="0.0484236323" flag="0"/>
      <psa10 value="0.0153406877" flag="0"/>
      <psa30 value="0.0012250648" flag="0"/>
    </comp>
  </station>
  <station code="KALE" name="KALE" netid="HA" insttype="40," lat="38.3911" lon="22.1398">
    <comp name="--.HHE">
      <acc value="0.1788012451" flag="0"/>
      <vel value="0.0569964687" flag="0"/>
      <psa03 value="0.4576049073" flag="0"/>
      <psa10 value="0.0630032466" flag="0"/>
      <psa30 value="0.0058415206" flag="0"/>
    </comp>
    <comp name="--.HHN">
      <acc value="0.2812422172" flag="0"/>
      <vel value="0.1093535215" flag="0"/>
      <psa03 value="0.5382064573" flag="0"/>
      <psa10 value="0.0897296877" flag="0"/>
      <psa30 value="0.0077121917" flag="0"/>
    </comp>
    <comp name="--.HHZ">
      <acc value="0.1859160891" flag="0"/>
      <vel value="0.0531034215" flag="0"/>
      <psa03 value="0.4930437926" flag="0"/>
      <psa10 value="0.0386611709" flag="0"/>
      <psa30 value="0.0033033867" flag="0"/>
    </comp>
  </station>
  <station code="LAKA" name="LAKA" netid="HA" insttype="120s," lat="38.2401" lon="21.9785">
    <comp name="--.HHE">
      <acc value="0.0381087140" flag="0"/>
      <vel value="0.0144491251" flag="0"/>
      <psa03 value="0.0442793630" flag="0"/>
      <psa10 value="0.0149712907" flag="0"/>
      <psa30 value="0.0035195153" flag="0"/>
    </comp>
    <comp name="--.HHZ">
      <acc value="0.0375527021" flag="0"/>
      <vel value="0.0196219780" flag="0"/>
      <psa03 value="0.0809129817" flag="0"/>
      <psa10 value="0.0277390168" flag="0"/>
      <psa30 value="0.0017958779" flag="0"/>
    </comp>
    <comp name="--.HHN">
      <acc value="0.0491665566" flag="0"/>
      <vel value="0.0217003222" flag="0"/>
      <psa03 value="0.0605225805" flag="0"/>
      <psa10 value="0.0223768622" flag="0"/>
      <psa30 value="0.0035203232" flag="0"/>
    </comp>
  </station>
  <station code="LOUT" name="LOUT" netid="HA" insttype="30" lat="37.9879" lon="22.9743">
    <comp name="--.HHZ">
      <acc value="0.0090467250" flag="0"/>
      <vel value="0.0052142138" flag="0"/>
      <psa03 value="0.0187623220" flag="0"/>
      <psa10 value="0.0073969643" flag="0"/>
      <psa30 value="0.0007472866" flag="0"/>
    </comp>
    <comp name="--.HHN">
      <acc value="0.0123305180" flag="0"/>
      <vel value="0.0108675639" flag="0"/>
      <psa03 value="0.0299396429" flag="0"/>
      <psa10 value="0.0145855663" flag="0"/>
      <psa30 value="0.0010441340" flag="0"/>
    </comp>
    <comp name="--.HHE">
      <acc value="0.0181604762" flag="0"/>
      <vel value="0.0102751640" flag="0"/>
      <psa03 value="0.0431160882" flag="0"/>
      <psa10 value="0.0146147321" flag="0"/>
      <psa30 value="0.0015767872" flag="0"/>
    </comp>
  </station>
  <station code="THAL" name="THAL" netid="HA" insttype="30" lat="38.0357" lon="22.6634">
    <comp name="--.HHN">
      <acc value="0.0392484994" flag="0"/>
      <vel value="0.0201938857" flag="0"/>
      <psa03 value="0.1533474715" flag="0"/>
      <psa10 value="0.0207729418" flag="0"/>
      <psa30 value="0.0019402708" flag="0"/>
    </comp>
    <comp name="--.HHE">
      <acc value="0.0473895537" flag="0"/>
      <vel value="0.0264066053" flag="0"/>
      <psa03 value="0.1369344731" flag="0"/>
      <psa10 value="0.0247958915" flag="0"/>
      <psa30 value="0.0021117980" flag="0"/>
    </comp>
    <comp name="--.HHZ">
      <acc value="0.0284924615" flag="0"/>
      <vel value="0.0113652205" flag="0"/>
      <psa03 value="0.0509276591" flag="0"/>
      <psa10 value="0.0151003807" flag="0"/>
      <psa30 value="0.0011730523" flag="0"/>
    </comp>
  </station>
  <station code="THIV" name="THIV" netid="HA" insttype="25" lat="38.299" lon="23.332">
    <comp name="--.HHE">
      <acc value="0.0149546121" flag="0"/>
      <vel value="0.0149449387" flag="0"/>
      <psa03 value="0.0282605006" flag="0"/>
      <psa10 value="0.0199256109" flag="0"/>
      <psa30 value="0.0024738577" flag="0"/>
    </comp>
    <comp name="--.HHZ">
      <acc value="0.0064572217" flag="0"/>
      <vel value="0.0076737285" flag="0"/>
      <psa03 value="0.0199966591" flag="0"/>
      <psa10 value="0.0120659284" flag="0"/>
      <psa30 value="0.0015710296" flag="0"/>
    </comp>
    <comp name="--.HHN">
      <acc value="0.0100550578" flag="0"/>
      <vel value="0.0114280535" flag="0"/>
      <psa03 value="0.0366947921" flag="0"/>
      <psa10 value="0.0154645046" flag="0"/>
      <psa30 value="0.0012449702" flag="0"/>
    </comp>
  </station>
  <station code="VILL" name="VILL" netid="HA" insttype="Horizon,120s,1200" lat="38.1642" lon="23.3122">
    <comp name="--.HHE">
      <acc value="0.0180484656" flag="0"/>
      <vel value="0.0237145580" flag="0"/>
      <psa03 value="0.0405402307" flag="0"/>
      <psa10 value="0.0445964927" flag="0"/>
      <psa30 value="0.0024821318" flag="0"/>
    </comp>
    <comp name="--.HHN">
      <acc value="0.0116640420" flag="0"/>
      <vel value="0.0127078040" flag="0"/>
      <psa03 value="0.0232520731" flag="0"/>
      <psa10 value="0.0201717402" flag="0"/>
      <psa30 value="0.0015615633" flag="0"/>
    </comp>
    <comp name="--.HHZ">
      <acc value="0.0078113796" flag="0"/>
      <vel value="0.0098959728" flag="0"/>
      <psa03 value="0.0207057961" flag="0"/>
      <psa10 value="0.0121433289" flag="0"/>
      <psa30 value="0.0013037742" flag="0"/>
    </comp>
  </station>
  <station code="KLV1" name="KLV1" netid="HI" insttype="CMG-5TD,ACCELEROMETER,GURALP" lat="38.0326" lon="22.108">
    <comp name="--.HNE">
      <acc value="0.0694584711" flag="0"/>
      <vel value="0.0370244270" flag="0"/>
      <psa03 value="0.3415710459" flag="0"/>
      <psa10 value="0.0500420591" flag="0"/>
      <psa30 value="0.0019937074" flag="0"/>
    </comp>
    <comp name="--.HNZ">
      <acc value="0.0421058479" flag="0"/>
      <vel value="0.0250376022" flag="0"/>
      <psa03 value="0.1064613662" flag="0"/>
      <psa10 value="0.0431486472" flag="0"/>
      <psa30 value="0.0019707442" flag="0"/>
    </comp>
    <comp name="--.HNN">
      <acc value="0.0866755773" flag="0"/>
      <vel value="0.0370495424" flag="0"/>
      <psa03 value="0.2570034885" flag="0"/>
      <psa10 value="0.0333794562" flag="0"/>
      <psa30 value="0.0017491877" flag="0"/>
    </comp>
  </station>
  <station code="LAM2" name="LAM2" netid="HI" insttype="CMG-5TD,ACCELEROMETER,GURALP" lat="38.902" lon="22.4313">
    <comp name="--.HNE">
      <acc value="0.1107494977" flag="0"/>
      <vel value="0.0334176703" flag="0"/>
      <psa03 value="0.1756716952" flag="0"/>
      <psa10 value="0.0181871728" flag="0"/>
      <psa30 value="0.0039327125" flag="0"/>
    </comp>
    <comp name="--.HNZ">
      <acc value="0.0594070258" flag="0"/>
      <vel value="0.0204204059" flag="0"/>
      <psa03 value="0.0508251015" flag="0"/>
      <psa10 value="0.0299053362" flag="0"/>
      <psa30 value="0.0024602143" flag="0"/>
    </comp>
    <comp name="--.HNN">
      <acc value="0.0840636966" flag="0"/>
      <vel value="0.0350281045" flag="0"/>
      <psa03 value="0.1320826519" flag="0"/>
      <psa10 value="0.0314370618" flag="0"/>
      <psa30 value="0.0041686462" flag="0"/>
    </comp>
  </station>
  <station code="MSL1" name="MSL1" netid="HI" insttype="CMG-5TD,ACCELEROMETER,GURALP" lat="38.3727" lon="21.4243">
    <comp name="--.HNE">
      <acc value="0.3273640231" flag="0"/>
      <vel value="0.2203185276" flag="0"/>
      <psa03 value="0.8511791922" flag="0"/>
      <psa10 value="0.3897152007" flag="0"/>
      <psa30 value="0.0200958786" flag="0"/>
    </comp>
    <comp name="--.HNZ">
      <acc value="0.1520054827" flag="0"/>
      <vel value="0.0839363646" flag="0"/>
      <psa03 value="0.2879836834" flag="0"/>
      <psa10 value="0.1711934724" flag="0"/>
      <psa30 value="0.0082572948" flag="0"/>
    </comp>
    <comp name="--.HNN">
      <acc value="0.3882580187" flag="0"/>
      <vel value="0.2840740934" flag="0"/>
      <psa03 value="0.9455396561" flag="0"/>
      <psa10 value="0.8583541787" flag="0"/>
      <psa30 value="0.0318566889" flag="0"/>
    </comp>
  </station>
  <station code="VAS2" name="VAS2" netid="HI" insttype="CMG-5TD,ACCELEROMETER,GURALP" lat="38.6306" lon="20.6081">
    <comp name="--.HNZ">
      <acc value="0.0953701488" flag="0"/>
      <vel value="0.0746427884" flag="0"/>
      <psa03 value="0.2325419616" flag="0"/>
      <psa10 value="0.0778299736" flag="0"/>
      <psa30 value="0.0048473183" flag="0"/>
    </comp>
    <comp name="--.HNE">
      <acc value="0.1517394745" flag="0"/>
      <vel value="0.1439821325" flag="0"/>
      <psa03 value="0.5402628396" flag="0"/>
      <psa10 value="0.2954257710" flag="0"/>
      <psa30 value="0.0093846542" flag="0"/>
    </comp>
    <comp name="--.HNN">
      <acc value="0.2189293188" flag="0"/>
      <vel value="0.1979841019" flag="0"/>
      <psa03 value="0.6714771937" flag="0"/>
      <psa10 value="0.3302254446" flag="0"/>
      <psa30 value="0.0198681303" flag="0"/>
    </comp>
  </station>
  <station code="DLFA" name="DLFA" netid="HL" insttype="CMG-5" lat="38.4784" lon="22.4958">
    <comp name="00.HNN">
      <acc value="0.0997306778" flag="0"/>
      <vel value="0.0445360352" flag="0"/>
      <psa03 value="0.3058663260" flag="0"/>
      <psa10 value="0.0547634201" flag="0"/>
      <psa30 value="0.0032945461" flag="0"/>
    </comp>
    <comp name="00.HNE">
      <acc value="0.1011603313" flag="0"/>
      <vel value="0.0474643514" flag="0"/>
      <psa03 value="0.2636862862" flag="0"/>
      <psa10 value="0.0552177100" flag="0"/>
      <psa30 value="0.0034832176" flag="0"/>
    </comp>
    <comp name="00.HNZ">
      <acc value="0.0991565795" flag="0"/>
      <vel value="0.0281672155" flag="0"/>
      <psa03 value="0.1268126640" flag="0"/>
      <psa10 value="0.0265391271" flag="0"/>
      <psa30 value="0.0024003968" flag="0"/>
    </comp>
  </station>
  <station code="ELAT" name="ELAT" netid="HL" insttype="LE3D20_SMART24" lat="38.6277" lon="22.7911">
    <comp name="--.HHN">
      <acc value="0.0909537960" flag="0"/>
      <vel value="0.0522334352" flag="0"/>
      <psa03 value="0.3341613953" flag="0"/>
      <psa10 value="0.0803005270" flag="0"/>
      <psa30 value="0.0057614835" flag="0"/>
    </comp>
    <comp name="--.HHE">
      <acc value="0.0487268384" flag="0"/>
      <vel value="0.0235300612" flag="0"/>
      <psa03 value="0.0738156903" flag="0"/>
      <psa10 value="0.0340979743" flag="0"/>
      <psa30 value="0.0049422680" flag="0"/>
    </comp>
    <comp name="--.HHZ">
      <acc value="0.0424270333" flag="0"/>
      <vel value="0.0262459677" flag="0"/>
      <psa03 value="0.1348987051" flag="0"/>
      <psa10 value="0.0363937209" flag="0"/>
      <psa30 value="0.0050116470" flag="0"/>
    </comp>
  </station>
  <station code="EVR" name="EVR" netid="HL" insttype="DR24" lat="38.9166" lon="21.8105">
    <comp name="--.HHN">
      <acc value="0.3250605740" flag="0"/>
      <vel value="0.1240548044" flag="0"/>
      <psa03 value="0.5448967388" flag="0"/>
      <psa10 value="0.1077769997" flag="0"/>
      <psa30 value="0.0070756722" flag="0"/>
    </comp>
    <comp name="--.HHE">
      <acc value="0.2703157817" flag="0"/>
      <vel value="0.1062561997" flag="0"/>
      <psa03 value="0.4527759851" flag="0"/>
      <psa10 value="0.0896250185" flag="0"/>
      <psa30 value="0.0139708147" flag="0"/>
    </comp>
    <comp name="--.HHZ">
      <acc value="0.2007326542" flag="0"/>
      <vel value="0.0720634209" flag="0"/>
      <psa03 value="0.3839656664" flag="0"/>
      <psa10 value="0.0773040192" flag="0"/>
      <psa30 value="0.0057030393" flag="0"/>
    </comp>
  </station>
  <station code="JAN" name="JAN" netid="HL" insttype="CMG3EPSC60_DR24" lat="39.6562" lon="20.8487">
    <comp name="--.HHE">
      <acc value="0.0134998681" flag="0"/>
      <vel value="0.0105420712" flag="0"/>
      <psa03 value="0.0422296674" flag="0"/>
      <psa10 value="0.0118929498" flag="0"/>
      <psa30 value="0.0015630431" flag="0"/>
    </comp>
