<?xml version="1.0" encoding="UTF-8" standalone="yes"?>
<!DOCTYPE earthquake SYSTEM "stationlist.dtd">
<stationlist created="" xmlns="ch.ethz.sed.shakemap.usgs.xml">
  <station code="ACOR" name="ACOR" netid="HA" insttype="Horizon,120s,1200" lat="37.8905" lon="22.8694">
    <comp name="--.HHE">
      <acc value="0.0037166407" flag="0"/>
      <vel value="0.0039035524" flag="0"/>
      <psa03 value="0.0099382602" flag="0"/>
      <psa10 value="0.0087866033" flag="0"/>
      <psa30 value="0.0010152854" flag="0"/>
    </comp>
    <comp name="--.HHN">
      <acc value="0.0057724220" flag="0"/>
      <vel value="0.0050313488" flag="0"/>
      <psa03 value="0.0129074212" flag="0"/>
      <psa10 value="0.0080220305" flag="0"/>
      <psa30 value="0.0010984389" flag="0"/>
    </comp>
    <comp name="--.HHZ">
      <acc value="0.0037081241" flag="0"/>
      <vel value="0.0042482847" flag="0"/>
      <psa03 value="0.0102067350" flag="0"/>
      <psa10 value="0.0056599772" flag="0"/>
      <psa30 value="0.0008893102" flag="0"/>
    </comp>
  </station>
  <station code="AIGS" name="AIGS" netid="HA" insttype="DC" lat="38.25" lon="22.0878">
    <comp name="--.HNN">
      <acc value="0.3736069569" flag="0"/>
      <vel value="0.1210609176" flag="0"/>
      <psa03 value="0.6138819178" flag="0"/>
      <psa10 value="0.0339854032" flag="0"/>
      <psa30 value="0.0042691067" flag="0"/>
    </comp>
    <comp name="--.HNE">
      <acc value="0.2989441968" flag="0"/>
      <vel value="0.0907942560" flag="0"/>
      <psa03 value="0.3345456509" flag="0"/>
      <psa10 value="0.0280045667" flag="0"/>
      <psa30 value="0.0036520276" flag="0"/>
    </comp>
    <comp name="--.HNZ">
      <acc value="0.1598646757" flag="0"/>
      <vel value="0.0344505488" flag="0"/>
      <psa03 value="0.1253346441" flag="0"/>
      <psa10 value="0.0241265231" flag="0"/>
      <psa30 value="0.0039498768" flag="0"/>
    </comp>
  </station>
  <station code="ATAL" name="ATAL" netid="HA" insttype="120s," lat="38.6926" lon="23.0213">
    <comp name="--.HHE">
      <acc value="0.0098413779" flag="0"/>
      <vel value="0.0101094462" flag="0"/>
      <psa03 value="0.0209106676" flag="0"/>
      <psa10 value="0.0166522544" flag="0"/>
      <psa30 value="0.0014923024" flag="0"/>
    </comp>
    <comp name="--.HHN">
      <acc value="0.0148172838" flag="0"/>
      <vel value="0.0135337141" flag="0"/>
      <psa03 value="0.0319419731" flag="0"/>
      <psa10 value="0.0207082243" flag="0"/>
      <psa30 value="0.0021118292" flag="0"/>
    </comp>
    <comp name="--.HHZ">
      <acc value="0.0113299193" flag="0"/>
      <vel value="0.0076904805" flag="0"/>
      <psa03 value="0.0296277496" flag="0"/>
      <psa10 value="0.0127759962" flag="0"/>
      <psa30 value="0.0011717973" flag="0"/>
    </comp>
  </station>
  <station code="ATHR" name="ATHR" netid="HA" insttype="GEOtiny," lat="38.3172" lon="20.4165">
    <comp name="--.HHN">
      <acc value="0.0324471921" flag="0"/>
      <vel value="0.0259167997" flag="0"/>
      <psa03 value="0.0919567925" flag="0"/>
      <psa10 value="0.0344158958" flag="0"/>
      <psa30 value="0.0031891978" flag="0"/>
    </comp>
    <comp name="--.HHZ">
      <acc value="0.0151495271" flag="0"/>
      <vel value="0.0126825494" flag="0"/>
      <psa03 value="0.0598705826" flag="0"/>
      <psa10 value="0.0197726658" flag="0"/>
      <psa30 value="0.0016156242" flag="0"/>
    </comp>
    <comp name="--.HHE">
      <acc value="0.0290878765" flag="0"/>
      <vel value="0.0194027721" flag="0"/>
      <psa03 value="0.1086077556" flag="0"/>
      <psa10 value="0.0429326862" flag="0"/>
      <psa30 value="0.0019411120" flag="0"/>
    </comp>
  </station>
  <station code="AXAR" name="AXAR" netid="HA" insttype="Horizon,120s,1200" lat="38.7664" lon="22.659">
    <comp name="--.HHE">
      <acc value="0.1566953907" flag="0"/>
      <vel value="0.0823051444" flag="0"/>
      <psa03 value="0.3929881672" flag="0"/>
      <psa10 value="0.1479960318" flag="0"/>
      <psa30 value="0.0159255748" flag="0"/>
    </comp>
    <comp name="--.HHN">
      <acc value="0.1723715130" flag="0"/>
      <vel value="0.0801799343" flag="0"/>
      <psa03 value="0.5029560207" flag="0"/>
      <psa10 value="0.0734203871" flag="0"/>
      <psa30 value="0.0125107479" flag="0"/>
    </comp>
    <comp name="--.HHZ">
      <acc value="0.0683813520" flag="0"/>
      <vel value="0.0405464484" flag="0"/>
      <psa03 value="0.1771373561" flag="0"/>
      <psa10 value="0.0861428040" flag="0"/>
      <psa30 value="0.0042509246" flag="0"/>
    </comp>
  </station>
  <station code="DOMV" name="DOMV" netid="HA" insttype="60" lat="38.2569" lon="22.9795">
    <comp name="--.HHN">
      <acc value="0.0367612639" flag="0"/>
      <vel value="0.0232475284" flag="0"/>
      <psa03 value="0.0892290401" flag="0"/>
      <psa10 value="0.0299771024" flag="0"/>
      <psa30 value="0.0019497888" flag="0"/>
    </comp>
    <comp name="--.HHE">
      <acc value="0.0338401747" flag="0"/>
      <vel value="0.0138862060" flag="0"/>
      <psa03 value="0.0658210444" flag="0"/>
      <psa10 value="0.0149108339" flag="0"/>
      <psa30 value="0.0010021658" flag="0"/>
    </comp>
    <comp name="--.HHZ">
      <acc value="0.0327229796" flag="0"/>
      <vel value="0.0103381186" flag="0"/>
      <psa03 value="0.0439830871" flag="0"/>
      <psa10 value="0.0139862823" flag="0"/>
      <psa30 value="0.0020263221" flag="0"/>
    </comp>
  </station>
  <station code="DRES" name="DRES" netid="HA" insttype="DC" lat="38.3197" lon="21.8532">
    <comp name="--.HNE">
      <acc value="0.1822443769" flag="0"/>
      <vel value="0.1259808958" flag="0"/>
      <psa03 value="0.3179494521" flag="0"/>
      <psa10 value="0.1759137211" flag="0"/>
      <psa30 value="0.0132181391" flag="0"/>
    </comp>
    <comp name="--.HNN">
      <acc value="0.1418524176" flag="0"/>
      <vel value="0.1151009856" flag="0"/>
      <psa03 value="0.4190896858" flag="0"/>
      <psa10 value="0.1845259522" flag="0"/>
      <psa30 value="0.0126146450" flag="0"/>
    </comp>
    <comp name="--.HNZ">
      <acc value="0.1059867133" flag="0"/>
      <vel value="0.0507550275" flag="0"/>
      <psa03 value="0.2090101811" flag="0"/>
      <psa10 value="0.0776478355" flag="0"/>
      <psa30 value="0.0054072244" flag="0"/>
    </comp>
  </station>
  <station code="KALE" name="KALE" netid="HA" insttype="40," lat="38.3911" lon="22.1398">
    <comp name="--.HHE">
      <acc value="0.1788012442" flag="0"/>
      <vel value="0.0569964708" flag="0"/>
      <psa03 value="0.4576049073" flag="0"/>
      <psa10 value="0.0630032466" flag="0"/>
      <psa30 value="0.0058415572" flag="0"/>
    </comp>
    <comp name="--.HHZ">
      <acc value="0.1859160891" flag="0"/>
      <vel value="0.0531034229" flag="0"/>
      <psa03 value="0.4930437926" flag="0"/>
      <psa10 value="0.0386611709" flag="0"/>
      <psa30 value="0.0033034302" flag="0"/>
    </comp>
    <comp name="--.HHN">
      <acc value="0.2812422173" flag="0"/>
      <vel value="0.1093535217" flag="0"/>
      <psa03 value="0.5382064573" flag="0"/>
      <psa10 value="0.0897296870" flag="0"/>
      <psa30 value="0.0077121878" flag="0"/>
    </comp>
  </station>
  <station code="LAKA" name="LAKA" netid="HA" insttype="120s," lat="38.2401" lon="21.9785">
    <comp name="--.HHN">
      <acc value="0.0491665573" flag="0"/>
      <vel value="0.0217003211" flag="0"/>
      <psa03 value="0.0605225805" flag="0"/>
      <psa10 value="0.0223768622" flag="0"/>
      <psa30 value="0.0035204524" flag="0"/>
    </comp>
    <comp name="--.HHE">
      <acc value="0.0381087137" flag="0"/>
      <vel value="0.0144491071" flag="0"/>
      <psa03 value="0.0442793630" flag="0"/>
      <psa10 value="0.0149712908" flag="0"/>
      <psa30 value="0.0035187882" flag="0"/>
    </comp>
    <comp name="--.HHZ">
      <acc value="0.0375527024" flag="0"/>
      <vel value="0.0196219783" flag="0"/>
      <psa03 value="0.0809129817" flag="0"/>
      <psa10 value="0.0277390168" flag="0"/>
      <psa30 value="0.0017958897" flag="0"/>
    </comp>
  </station>
  <station code="LOUT" name="LOUT" netid="HA" insttype="30" lat="37.9879" lon="22.9743">
    <comp name="--.HHN">
      <acc value="0.0123305131" flag="0"/>
      <vel value="0.0108675610" flag="0"/>
      <psa03 value="0.0299396429" flag="0"/>
      <psa10 value="0.0145855663" flag="0"/>
      <psa30 value="0.0010441225" flag="0"/>
    </comp>
    <comp name="--.HHZ">
      <acc value="0.0090467227" flag="0"/>
      <vel value="0.0052142136" flag="0"/>
      <psa03 value="0.0187623220" flag="0"/>
      <psa10 value="0.0073969643" flag="0"/>
      <psa30 value="0.0007472859" flag="0"/>
    </comp>
    <comp name="--.HHE">
      <acc value="0.0181604785" flag="0"/>
      <vel value="0.0102751634" flag="0"/>
      <psa03 value="0.0431160882" flag="0"/>
      <psa10 value="0.0146147320" flag="0"/>
      <psa30 value="0.0015767772" flag="0"/>
    </comp>
  </station>
  <station code="THAL" name="THAL" netid="HA" insttype="30" lat="38.0357" lon="22.6634">
    <comp name="--.HHE">
      <acc value="0.0473895559" flag="0"/>
      <vel value="0.0264066097" flag="0"/>
      <psa03 value="0.1369344731" flag="0"/>
      <psa10 value="0.0247958915" flag="0"/>
      <psa30 value="0.0021117954" flag="0"/>
    </comp>
    <comp name="--.HHN">
      <acc value="0.0392485013" flag="0"/>
      <vel value="0.0201938848" flag="0"/>
      <psa03 value="0.1533474715" flag="0"/>
      <psa10 value="0.0207729418" flag="0"/>
      <psa30 value="0.0019402700" flag="0"/>
    </comp>
    <comp name="--.HHZ">
      <acc value="0.0284924606" flag="0"/>
      <vel value="0.0113652190" flag="0"/>
      <psa03 value="0.0509276591" flag="0"/>
      <psa10 value="0.0151003807" flag="0"/>
      <psa30 value="0.0011730535" flag="0"/>
    </comp>
  </station>
  <station code="KLV1" name="KLV1" netid="HI" insttype="CMG-5TD,ACCELEROMETER,GURALP" lat="38.0326" lon="22.108">
    <comp name="--.HNN">
      <acc value="0.0866755668" flag="0"/>
      <vel value="0.0370495427" flag="0"/>
      <psa03 value="0.2570034885" flag="0"/>
      <psa10 value="0.0333794562" flag="0"/>
      <psa30 value="0.0017491973" flag="0"/>
    </comp>
    <comp name="--.HNE">
      <acc value="0.0694584790" flag="0"/>
      <vel value="0.0370244270" flag="0"/>
      <psa03 value="0.3415710459" flag="0"/>
      <psa10 value="0.0500420595" flag="0"/>
      <psa30 value="0.0019937127" flag="0"/>
    </comp>
    <comp name="--.HNZ">
      <acc value="0.0421058459" flag="0"/>
      <vel value="0.0250376009" flag="0"/>
      <psa03 value="0.1064613662" flag="0"/>
      <psa10 value="0.0431486480" flag="0"/>
      <psa30 value="0.0019706281" flag="0"/>
    </comp>
  </station>
  <station code="LAM2" name="LAM2" netid="HI" insttype="CMG-5TD,ACCELEROMETER,GURALP" lat="38.902" lon="22.4313">
    <comp name="--.HNE">
      <acc value="0.1107494900" flag="0"/>
      <vel value="0.0334176700" flag="0"/>
      <psa03 value="0.1756716952" flag="0"/>
      <psa10 value="0.0181871728" flag="0"/>
      <psa30 value="0.0039326551" flag="0"/>
    </comp>
    <comp name="--.HNZ">
      <acc value="0.0594070292" flag="0"/>
      <vel value="0.0204204050" flag="0"/>
      <psa03 value="0.0508251015" flag="0"/>
      <psa10 value="0.0299053362" flag="0"/>
      <psa30 value="0.0024602277" flag="0"/>
    </comp>
    <comp name="--.HNN">
      <acc value="0.0840637087" flag="0"/>
      <vel value="0.0350281048" flag="0"/>
      <psa03 value="0.1320826519" flag="0"/>
      <psa10 value="0.0314370619" flag="0"/>
      <psa30 value="0.0041687879" flag="0"/>
    </comp>
  </station>
  <station code="MSL1" name="MSL1" netid="HI" insttype="CMG-5TD,ACCELEROMETER,GURALP" lat="38.3727" lon="21.4243">
    <comp name="--.HNZ">
      <acc value="0.1520054961" flag="0"/>
      <vel value="0.0839363665" flag="0"/>
      <psa03 value="0.2879836834" flag="0"/>
      <psa10 value="0.1711934726" flag="0"/>
      <psa30 value="0.0082573298" flag="0"/>
    </comp>
    <comp name="--.HNE">
      <acc value="0.3273640082" flag="0"/>
      <vel value="0.2203185285" flag="0"/>
      <psa03 value="0.8511791922" flag="0"/>
      <psa10 value="0.3897152006" flag="0"/>
      <psa30 value="0.0200958781" flag="0"/>
    </comp>
    <comp name="--.HNN">
      <acc value="0.3882580097" flag="0"/>
      <vel value="0.2840740938" flag="0"/>
      <psa03 value="0.9455396561" flag="0"/>
      <psa10 value="0.8583541795" flag="0"/>
      <psa30 value="0.0318567495" flag="0"/>
    </comp>
  </station>
  <station code="VAS2" name="VAS2" netid="HI" insttype="CMG-5TD,ACCELEROMETER,GURALP" lat="38.6306" lon="20.6081">
    <comp name="--.HNE">
      <acc value="0.1517394808" flag="0"/>
      <vel value="0.1439821334" flag="0"/>
      <psa03 value="0.5402628396" flag="0"/>
      <psa10 value="0.2954257710" flag="0"/>
      <psa30 value="0.0093846154" flag="0"/>
    </comp>
    <comp name="--.HNN">
      <acc value="0.2189293294" flag="0"/>
      <vel value="0.1979841019" flag="0"/>
      <psa03 value="0.6714771937" flag="0"/>
      <psa10 value="0.3302254446" flag="0"/>
      <psa30 value="0.0198680708" flag="0"/>
    </comp>
    <comp name="--.HNZ">
      <acc value="0.0953701462" flag="0"/>
      <vel value="0.0746427904" flag="0"/>
      <psa03 value="0.2325419616" flag="0"/>
      <psa10 value="0.0778299735" flag="0"/>
      <psa30 value="0.0048474832" flag="0"/>
    </comp>
  </station>
  <station code="DLFA" name="DLFA" netid="HL" insttype="CMG-5" lat="38.4784" lon="22.4958">
    <comp name="00.HNZ">
      <acc value="0.0991565806" flag="0"/>
      <vel value="0.0281672163" flag="0"/>
      <psa03 value="0.1268126640" flag="0"/>
      <psa10 value="0.0265391271" flag="0"/>
      <psa30 value="0.0024004445" flag="0"/>
    </comp>
    <comp name="00.HNN">
      <acc value="0.0997306793" flag="0"/>
      <vel value="0.0445360347" flag="0"/>
      <psa03 value="0.3058663260" flag="0"/>
      <psa10 value="0.0547634196" flag="0"/>
      <psa30 value="0.0032946084" flag="0"/>
    </comp>
    <comp name="00.HNE">
      <acc value="0.1011603305" flag="0"/>
      <vel value="0.0474643517" flag="0"/>
      <psa03 value="0.2636862862" flag="0"/>
      <psa10 value="0.0552177097" flag="0"/>
      <psa30 value="0.0034829736" flag="0"/>
    </comp>
  </station>
  <station code="ELAT" name="ELAT" netid="HL" insttype="LE3D20_SMART24" lat="38.6277" lon="22.7911">
    <comp name="--.HHZ">
      <acc value="0.0424270344" flag="0"/>
      <vel value="0.0262459714" flag="0"/>
      <psa03 value="0.1348987051" flag="0"/>
      <psa10 value="0.0363937208" flag="0"/>
      <psa30 value="0.0050116198" flag="0"/>
    </comp>
    <comp name="--.HHN">
      <acc value="0.0909537922" flag="0"/>
      <vel value="0.0522334388" flag="0"/>
      <psa03 value="0.3341613953" flag="0"/>
      <psa10 value="0.0803005270" flag="0"/>
      <psa30 value="0.0057615325" flag="0"/>
    </comp>
    <comp name="--.HHE">
      <acc value="0.0487268393" flag="0"/>
      <vel value="0.0235300618" flag="0"/>
      <psa03 value="0.0738156903" flag="0"/>
      <psa10 value="0.0340979743" flag="0"/>
      <psa30 value="0.0049422739" flag="0"/>
    </comp>
  </station>
  <station code="EVR" name="EVR" netid="HL" insttype="DR24" lat="38.9166" lon="21.8105">
    <comp name="--.HHE">
      <acc value="0.2703157825" flag="0"/>
      <vel value="0.1062562005" flag="0"/>
      <psa03 value="0.4527759851" flag="0"/>
      <psa10 value="0.0896250186" flag="0"/>
      <psa30 value="0.0139707785" flag="0"/>
    </comp>
    <comp name="--.HHZ">
      <acc value="0.2007326518" flag="0"/>
      <vel value="0.0720634207" flag="0"/>
      <psa03 value="0.3839656664" flag="0"/>
      <psa10 value="0.0773040192" flag="0"/>
      <psa30 value="0.0057030276" flag="0"/>
    </comp>
    <comp name="--.HHN">
      <acc value="0.3250605735" flag="0"/>
      <vel value="0.1240548040" flag="0"/>
      <psa03 value="0.5448967388" flag="0"/>
      <psa10 value="0.1077769998" flag="0"/>
      <psa30 value="0.0070756589" flag="0"/>
    </comp>
  </station>
  <station code="KLV" name="KLV" netid="HL" insttype="120" lat="38.0435" lon="22.1504">
    <comp name="--.HHN">
      <acc value="0.0256296281" flag="0"/>
      <vel value="0.0176603856" flag="0"/>
      <psa03 value="0.0781541165" flag="0"/>
      <psa10 value="0.0182496679" flag="0"/>
      <psa30 value="0.0009620836" flag="0"/>
    </comp>
    <comp name="--.HHE">
      <acc value="0.0219668823" flag="0"/>
      <vel value="0.0105663044" flag="0"/>
      <psa03 value="0.0735013563" flag="0"/>
      <psa10 value="0.0144968665" flag="0"/>
      <psa30 value="0.0009942711" flag="0"/>
    </comp>
    <comp name="--.HHZ">
      <acc value="0.0242685623" flag="0"/>
      <vel value="0.0100588176" flag="0"/>
      <psa03 value="0.0393151315" flag="0"/>
      <psa10 value="0.0111010284" flag="0"/>
      <psa30 value="0.0011259797" flag="0"/>
    </comp>
  </station>
  <station code="LKR" name="LKR" netid="HL" insttype="65535" lat="38.6496" lon="22.9988">
    <comp name="--.HHE">
      <acc value="0.0626126265" flag="0"/>
      <vel value="0.0207137854" flag="0"/>
      <psa03 value="0.0754599607" flag="0"/>
      <psa10 value="0.0174325405" flag="0"/>
      <psa30 value="0.0017221798" flag="0"/>
    </comp>
    <comp name="--.HHN">
      <acc value="0.0397575839" flag="0"/>
      <vel value="0.0236859806" flag="0"/>
      <psa03 value="0.0523633173" flag="0"/>
      <psa10 value="0.0195842719" flag="0"/>
      <psa30 value="0.0022865645" flag="0"/>
    </comp>
    <comp name="--.HHZ">
      <acc value="0.0267223343" flag="0"/>
      <vel value="0.0115155496" flag="0"/>
      <psa03 value="0.0701963955" flag="0"/>
      <psa10 value="0.0138372483" flag="0"/>
      <psa30 value="0.0012315530" flag="0"/>
    </comp>
  </station>
  <station code="PATC" name="PATC" netid="HL" insttype="CMG-5" lat="38.2693" lon="21.76">
    <comp name="00.HNE">
      <acc value="0.1576901437" flag="0"/>
      <vel value="0.1197573914" flag="0"/>
      <psa03 value="0.3949798539" flag="0"/>
      <psa10 value="0.1496959702" flag="0"/>
      <psa30 value="0.0274860002" flag="0"/>
    </comp>
    <comp name="00.HNN">
      <acc value="0.1413080025" flag="0"/>
      <vel value="0.1073637618" flag="0"/>
      <psa03 value="0.4181822786" flag="0"/>
      <psa10 value="0.1966844922" flag="0"/>
      <psa30 value="0.0426146300" flag="0"/>
    </comp>
    <comp name="00.HNZ">
      <acc value="0.1333808058" flag="0"/>
      <vel value="0.0703291779" flag="0"/>
      <psa03 value="0.2659795257" flag="0"/>
      <psa10 value="0.1448277973" flag="0"/>
      <psa30 value="0.0100211748" flag="0"/>
    </comp>
  </station>
  <station code="PATG" name="PATG" netid="HL" insttype="CMG-5" lat="38.2386" lon="21.7266">
    <comp name="00.HNE">
      <acc value="0.2319111117" flag="0"/>
      <vel value="0.1125645162" flag="0"/>
      <psa03 value="0.9579836225" flag="0"/>
      <psa10 value="0.1496904452" flag="0"/>
      <psa30 value="0.0276068357" flag="0"/>
    </comp>
    <comp name="00.HNZ">
      <acc value="0.1560452920" flag="0"/>
      <vel value="0.0494289514" flag="0"/>
      <psa03 value="0.3511978933" flag="0"/>
      <psa10 value="0.0773040407" flag="0"/>
      <psa30 value="0.0101679999" flag="0"/>
    </comp>
    <comp name="00.HNN">
      <acc value="0.2204889800" flag="0"/>
      <vel value="0.1264847046" flag="0"/>
      <psa03 value="0.6433979657" flag="0"/>
      <psa10 value="0.1374954381" flag="0"/>
      <psa30 value="0.0257220779" flag="0"/>
    </comp>
  </station>
  <station code="RIOA" name="RIOA" netid="HL" insttype="CMG-5" lat="38.2959" lon="21.7912">
    <comp name="00.HNN">
      <acc value="0.1926902412" flag="0"/>
      <vel value="0.1075330626" flag="0"/>
      <psa03 value="0.4121357839" flag="0"/>
      <psa10 value="0.1268672237" flag="0"/>
      <psa30 value="0.0098239435" flag="0"/>
    </comp>
    <comp name="00.HNE">
