<?xml version="1.0" encoding="UTF-8" standalone="yes"?>
<!DOCTYPE earthquake SYSTEM "stationlist.dtd">
<stationlist created="" xmlns="ch.ethz.sed.shakemap.usgs.xml">
  <station code="THERA" name="THERA" netid="GE" insttype="STS-2/N" lat="36.367" lon="25.4753">
    <comp name="--.HHN">
      <acc value="0.0879456608" flag="0"/>
      <vel value="0.0175758296" flag="0"/>
      <psa03 value="0.0836052613" flag="0"/>
      <psa10 value="0.0159812115" flag="0"/>
      <psa30 value="0.0011263991" flag="0"/>
    </comp>
    <comp name="--.HHZ">
      <acc value="0.0930612011" flag="0"/>
      <vel value="0.0219090848" flag="0"/>
      <psa03 value="0.1109365534" flag="0"/>
      <psa10 value="0.0104946520" flag="0"/>
      <psa30 value="0.0022141588" flag="0"/>
    </comp>
    <comp name="--.HHE">
      <acc value="0.1521009447" flag="0"/>
      <vel value="0.0285335058" flag="0"/>
      <psa03 value="0.1225192730" flag="0"/>
      <psa10 value="0.0188005184" flag="0"/>
      <psa30 value="0.0026707408" flag="0"/>
    </comp>
  </station>
  <station code="SNT1" name="SNT1" netid="HA" insttype="30" lat="36.4159" lon="25.4282">
    <comp name="--.HHE">
      <acc value="0.0834986022" flag="0"/>
      <vel value="0.0253749170" flag="0"/>
      <psa03 value="0.0941356597" flag="0"/>
      <psa10 value="0.0358019435" flag="0"/>
      <psa30 value="0.0057178414" flag="0"/>
    </comp>
    <comp name="--.HHN">
      <acc value="0.0953157647" flag="0"/>
      <vel value="0.0349986382" flag="0"/>
      <psa03 value="0.0991083013" flag="0"/>
      <psa10 value="0.0453734125" flag="0"/>
      <psa30 value="0.0053558154" flag="0"/>
    </comp>
  </station>
  <station code="SFR2" name="SFR2" netid="HI" insttype="unknown" lat="36.3998" lon="25.4382">
    <comp name="--.HNN">
      <acc value="0.3596087160" flag="0"/>
      <vel value="0.1263300397" flag="0"/>
      <psa03 value="0.5662304446" flag="0"/>
      <psa10 value="0.1000447715" flag="0"/>
      <psa30 value="0.0065791528" flag="0"/>
    </comp>
    <comp name="--.HNZ">
      <acc value="0.2784781606" flag="0"/>
      <vel value="0.0742237426" flag="0"/>
      <psa03 value="0.2968247726" flag="0"/>
      <psa10 value="0.0290046493" flag="0"/>
      <psa30 value="0.0033028564" flag="0"/>
    </comp>
    <comp name="--.HNE">
      <acc value="0.3393697312" flag="0"/>
      <vel value="0.1243304780" flag="0"/>
      <psa03 value="0.3346334936" flag="0"/>
      <psa10 value="0.0648533346" flag="0"/>
      <psa30 value="0.0082214734" flag="0"/>
    </comp>
  </station>
  <station code="AMGA" name="AMGA" netid="HL" insttype="SMART24" lat="36.8316" lon="25.8938">
    <comp name="--.HHN">
      <acc value="2.8107537052" flag="0"/>
      <vel value="0.5294143477" flag="0"/>
      <psa03 value="1.8593190678" flag="0"/>
      <psa10 value="0.4171336226" flag="0"/>
      <psa30 value="0.0481693871" flag="0"/>
    </comp>
    <comp name="--.HHZ">
      <acc value="2.2385641238" flag="0"/>
      <vel value="0.4362153825" flag="0"/>
      <psa03 value="1.8606297936" flag="0"/>
      <psa10 value="0.2320626193" flag="0"/>
      <psa30 value="0.0192531587" flag="0"/>
    </comp>
  </station>
  <station code="KLNA" name="KLNA" netid="HL" insttype="CMG-5" lat="36.9571" lon="26.9727">
    <comp name="00.HNN">
      <acc value="0.0567234785" flag="0"/>
      <vel value="0.0199161526" flag="0"/>
      <psa03 value="0.1078809409" flag="0"/>
      <psa10 value="0.0101146824" flag="0"/>
      <psa30 value="0.0009386136" flag="0"/>
    </comp>
    <comp name="00.HNE">
      <acc value="0.0523794860" flag="0"/>
      <vel value="0.0192258715" flag="0"/>
      <psa03 value="0.1284925759" flag="0"/>
      <psa10 value="0.0088009869" flag="0"/>
      <psa30 value="0.0005881955" flag="0"/>
    </comp>
    <comp name="00.HNZ">
      <acc value="0.0656155297" flag="0"/>
      <vel value="0.0171171297" flag="0"/>
      <psa03 value="0.0698622714" flag="0"/>
      <psa10 value="0.0060388624" flag="0"/>
      <psa30 value="0.0007582567" flag="0"/>
    </comp>
  </station>
  <station code="MHLO" name="MHLO" netid="HL" insttype="20" lat="36.6898" lon="24.4017">
    <comp name="--.HHE">
      <acc value="0.0413844981" flag="0"/>
      <vel value="0.0255514114" flag="0"/>
      <psa03 value="0.1124133139" flag="0"/>
      <psa10 value="0.0358854656" flag="0"/>
      <psa30 value="0.0019875715" flag="0"/>
    </comp>
    <comp name="--.HHN">
      <acc value="0.0343435114" flag="0"/>
      <vel value="0.0266121623" flag="0"/>
      <psa03 value="0.0809242374" flag="0"/>
      <psa10 value="0.0485654397" flag="0"/>
      <psa30 value="0.0020921346" flag="0"/>
    </comp>
    <comp name="--.HHZ">
      <acc value="0.0169034589" flag="0"/>
      <vel value="0.0109521978" flag="0"/>
      <psa03 value="0.0511434615" flag="0"/>
      <psa10 value="0.0212613024" flag="0"/>
      <psa30 value="0.0014106260" flag="0"/>
    </comp>
  </station>
  <station code="MILA" name="MILA" netid="HL" insttype="CMG-5" lat="36.7429" lon="24.4282">
    <comp name="00.HNZ">
      <acc value="0.0496405256" flag="0"/>
      <vel value="0.0193562222" flag="0"/>
      <psa03 value="0.0892585457" flag="0"/>
      <psa10 value="0.0166148786" flag="0"/>
      <psa30 value="0.0014577675" flag="0"/>
    </comp>
    <comp name="00.HNE">
      <acc value="0.0646707792" flag="0"/>
      <vel value="0.0227673306" flag="0"/>
      <psa03 value="0.1342196657" flag="0"/>
      <psa10 value="0.0288321567" flag="0"/>
      <psa30 value="0.0023407808" flag="0"/>
    </comp>
    <comp name="00.HNN">
      <acc value="0.0791375731" flag="0"/>
      <vel value="0.0292869181" flag="0"/>
      <psa03 value="0.1670757373" flag="0"/>
      <psa10 value="0.0289719794" flag="0"/>
      <psa30 value="0.0024562834" flag="0"/>
    </comp>
  </station>
  <station code="NISR2" name="NISR2" netid="HL" insttype="120" lat="36.5744" lon="27.1767">
    <comp name="--.HHE">
      <acc value="0.0446502133" flag="0"/>
      <vel value="0.0296336001" flag="0"/>
      <psa03 value="0.1306851745" flag="0"/>
      <psa10 value="0.0461299436" flag="0"/>
      <psa30 value="0.0031144334" flag="0"/>
    </comp>
    <comp name="--.HHZ">
      <acc value="0.0140600700" flag="0"/>
      <vel value="0.0100982422" flag="0"/>
      <psa03 value="0.0376125096" flag="0"/>
      <psa10 value="0.0087597936" flag="0"/>
      <psa30 value="0.0008955687" flag="0"/>
    </comp>
    <comp name="--.HHN">
      <acc value="0.0484635494" flag="0"/>
      <vel value="0.0335674043" flag="0"/>
      <psa03 value="0.1692264019" flag="0"/>
      <psa10 value="0.0472603461" flag="0"/>
      <psa30 value="0.0020711553" flag="0"/>
    </comp>
  </station>
  <station code="SANT" name="SANT" netid="HL" insttype="30" lat="36.3705" lon="25.4593">
    <comp name="--.HHE">
      <acc value="0.3772821608" flag="0"/>
      <vel value="0.0770357555" flag="0"/>
      <psa03 value="0.2907231942" flag="0"/>
      <psa10 value="0.0224022457" flag="0"/>
      <psa30 value="0.0030919924" flag="0"/>
    </comp>
    <comp name="--.HHZ">
      <acc value="0.2257886053" flag="0"/>
      <vel value="0.0530581797" flag="0"/>
      <psa03 value="0.2139848418" flag="0"/>
      <psa10 value="0.0187009162" flag="0"/>
      <psa30 value="0.0018668312" flag="0"/>
    </comp>
    <comp name="--.HHN">
      <acc value="0.3258353204" flag="0"/>
      <vel value="0.0393340034" flag="0"/>
      <psa03 value="0.0932211910" flag="0"/>
      <psa10 value="0.0218694501" flag="0"/>
      <psa30 value="0.0022848409" flag="0"/>
    </comp>
  </station>
  <station code="SAP3" name="SAP3" netid="HL" insttype="65535" lat="36.4356" lon="25.3454">
    <comp name="--.HHE">
      <acc value="0.1502630482" flag="0"/>
      <vel value="0.0563321522" flag="0"/>
      <psa03 value="0.3410368110" flag="0"/>
      <psa10 value="0.0315439902" flag="0"/>
      <psa30 value="0.0076213587" flag="0"/>
    </comp>
    <comp name="--.HHN">
      <acc value="0.1233637092" flag="0"/>
      <vel value="0.0411853750" flag="0"/>
      <psa03 value="0.2367817805" flag="0"/>
      <psa10 value="0.0461481802" flag="0"/>
      <psa30 value="0.0052225149" flag="0"/>
    </comp>
    <comp name="--.HHZ">
      <acc value="0.1326998394" flag="0"/>
      <vel value="0.0278700268" flag="0"/>
      <psa03 value="0.1483434015" flag="0"/>
      <psa10 value="0.0190639681" flag="0"/>
      <psa30 value="0.0023726860" flag="0"/>
    </comp>
  </station>
  <station code="SMG" name="SMG" netid="HL" insttype="120" lat="37.7043" lon="26.8377">
    <comp name="--.HHZ">
      <acc value="0.0212374689" flag="0"/>
      <vel value="0.0091488832" flag="0"/>
      <psa03 value="0.0495157433" flag="0"/>
      <psa10 value="0.0073707480" flag="0"/>
      <psa30 value="0.0008439817" flag="0"/>
    </comp>
    <comp name="--.HHE">
      <acc value="0.0530495116" flag="0"/>
      <vel value="0.0236847875" flag="0"/>
      <psa03 value="0.1411961602" flag="0"/>
      <psa10 value="0.0183856482" flag="0"/>
      <psa30 value="0.0019021528" flag="0"/>
    </comp>
    <comp name="--.HHN">
      <acc value="0.0348185313" flag="0"/>
      <vel value="0.0192294812" flag="0"/>
      <psa03 value="0.0809415227" flag="0"/>
      <psa10 value="0.0127565984" flag="0"/>
      <psa30 value="0.0011184588" flag="0"/>
    </comp>
  </station>
  <station code="THERA" name="THERA" netid="HL" insttype="120" lat="36.367" lon="25.4753">
    <comp name="--.HHE">
      <acc value="0.1506984102" flag="0"/>
      <vel value="0.0281073345" flag="0"/>
      <psa03 value="0.1188625242" flag="0"/>
      <psa10 value="0.0187089196" flag="0"/>
      <psa30 value="0.0026532512" flag="0"/>
    </comp>
    <comp name="--.HHN">
      <acc value="0.1740796944" flag="0"/>
      <vel value="0.0346078575" flag="0"/>
      <psa03 value="0.1620009479" flag="0"/>
      <psa10 value="0.0317671902" flag="0"/>
      <psa30 value="0.0022439981" flag="0"/>
    </comp>
    <comp name="--.HHZ">
      <acc value="0.0943869403" flag="0"/>
      <vel value="0.0213824234" flag="0"/>
      <psa03 value="0.1077912925" flag="0"/>
      <psa10 value="0.0103666673" flag="0"/>
      <psa30 value="0.0022158148" flag="0"/>
    </comp>
  </station>
  <station code="THRA" name="THRA" netid="HL" insttype="CMG-5" lat="36.415" lon="25.4324">
    <comp name="00.HNE">
      <acc value="0.3878499562" flag="0"/>
      <vel value="0.1306289617" flag="0"/>
      <psa03 value="0.4417207133" flag="0"/>
      <psa10 value="0.1242208198" flag="0"/>
      <psa30 value="0.0111237239" flag="0"/>
    </comp>
    <comp name="00.HNN">
      <acc value="0.2331633448" flag="0"/>
      <vel value="0.0848833859" flag="0"/>
      <psa03 value="0.3405958173" flag="0"/>
      <psa10 value="0.1507303225" flag="0"/>
      <psa30 value="0.0090441648" flag="0"/>
    </comp>
    <comp name="00.HNZ">
      <acc value="0.2204116612" flag="0"/>
      <vel value="0.0727567499" flag="0"/>
      <psa03 value="0.3112169006" flag="0"/>
      <psa10 value="0.0685433357" flag="0"/>
      <psa30 value="0.0034342296" flag="0"/>
    </comp>
  </station>
  <station code="CMBO" name="CMBO" netid="HT" insttype="120P," lat="36.4709" lon="25.4056">
    <comp name="--.HHN">
      <acc value="0.1719028224" flag="0"/>
      <vel value="0.0652005157" flag="0"/>
      <psa03 value="0.2126805115" flag="0"/>
      <psa10 value="0.0557428311" flag="0"/>
      <psa30 value="0.0056627907" flag="0"/>
    </comp>
    <comp name="--.HHE">
      <acc value="0.1596961342" flag="0"/>
      <vel value="0.0603511192" flag="0"/>
      <psa03 value="0.1939636050" flag="0"/>
      <psa10 value="0.0384082791" flag="0"/>
      <psa30 value="0.0033102073" flag="0"/>
    </comp>
    <comp name="--.HHZ">
      <acc value="0.1685407429" flag="0"/>
      <vel value="0.0470802826" flag="0"/>
      <psa03 value="0.2150922666" flag="0"/>
      <psa10 value="0.0196482751" flag="0"/>
      <psa30 value="0.0031250118" flag="0"/>
    </comp>
  </station>
</stationlist>
