<?xml version="1.0" encoding="UTF-8" standalone="yes"?>
<!DOCTYPE earthquake SYSTEM "stationlist.dtd">
<stationlist created="" xmlns="ch.ethz.sed.shakemap.usgs.xml">
  <station code="ART2" name="ART2" netid="HI" insttype="CMG-5TD,ACCELEROMETER,GURALP" lat="39.1474" lon="20.9937">
    <comp name="--.HNN">
      <acc value="0.0467455956" flag="0"/>
      <vel value="0.0085444619" flag="0"/>
      <psa03 value="0.0416563167" flag="0"/>
      <psa10 value="0.0067645240" flag="0"/>
      <psa30 value="0.0006113683" flag="0"/>
    </comp>
    <comp name="--.HNE">
      <acc value="0.0320617862" flag="0"/>
      <vel value="0.0069609018" flag="0"/>
      <psa03 value="0.0367344570" flag="0"/>
      <psa10 value="0.0047535591" flag="0"/>
      <psa30 value="0.0008319703" flag="0"/>
    </comp>
    <comp name="--.HNZ">
      <acc value="0.0250799828" flag="0"/>
      <vel value="0.0048416825" flag="0"/>
      <psa03 value="0.0220411371" flag="0"/>
      <psa10 value="0.0040659507" flag="0"/>
      <psa30 value="0.0007052547" flag="0"/>
    </comp>
  </station>
  <station code="MSL1" name="MSL1" netid="HI" insttype="CMG-5TD,ACCELEROMETER,GURALP" lat="38.3727" lon="21.4243">
    <comp name="--.HNE">
      <acc value="0.0376692901" flag="0"/>
      <vel value="0.0255160191" flag="0"/>
      <psa03 value="0.1432406986" flag="0"/>
      <psa10 value="0.0383604785" flag="0"/>
      <psa30 value="0.0024465047" flag="0"/>
    </comp>
    <comp name="--.HNZ">
      <acc value="0.0245995958" flag="0"/>
      <vel value="0.0092764463" flag="0"/>
      <psa03 value="0.0368847485" flag="0"/>
      <psa10 value="0.0215110571" flag="0"/>
      <psa30 value="0.0010421843" flag="0"/>
    </comp>
    <comp name="--.HNN">
      <acc value="0.0649870870" flag="0"/>
      <vel value="0.0341259680" flag="0"/>
      <psa03 value="0.1680219819" flag="0"/>
      <psa10 value="0.0372787055" flag="0"/>
      <psa30 value="0.0015477795" flag="0"/>
    </comp>
  </station>
  <station code="JAN" name="JAN" netid="HL" insttype="CMG3EPSC60_DR24" lat="39.6562" lon="20.8487">
    <comp name="--.HHN">
      <acc value="0.0140319697" flag="0"/>
      <vel value="0.0059196416" flag="0"/>
      <psa03 value="0.0338546209" flag="0"/>
      <psa10 value="0.0041416397" flag="0"/>
      <psa30 value="0.0004603788" flag="0"/>
    </comp>
  </station>
  <station code="TETR" name="TETR" netid="HL" insttype="60" lat="39.3445" lon="21.2747">
    <comp name="--.HHN">
      <acc value="0.0438499678" flag="0"/>
      <vel value="0.0182362115" flag="0"/>
      <psa03 value="0.1634207609" flag="0"/>
      <psa10 value="0.0105056366" flag="0"/>
      <psa30 value="0.0010416727" flag="0"/>
    </comp>
    <comp name="--.HHZ">
      <acc value="0.0135173359" flag="0"/>
      <vel value="0.0055661793" flag="0"/>
      <psa03 value="0.0568835307" flag="0"/>
      <psa10 value="0.0058654231" flag="0"/>
      <psa30 value="0.0004481674" flag="0"/>
    </comp>
    <comp name="--.HHE">
      <acc value="0.0363772749" flag="0"/>
      <vel value="0.0169777783" flag="0"/>
      <psa03 value="0.1512397295" flag="0"/>
      <psa10 value="0.0169194380" flag="0"/>
      <psa30 value="0.0010927736" flag="0"/>
    </comp>
  </station>
  <station code="VLS" name="VLS" netid="HL" insttype="120P," lat="38.1768" lon="20.5886">
    <comp name="--.HHE">
      <acc value="0.0393188404" flag="0"/>
      <vel value="0.0217371667" flag="0"/>
      <psa03 value="0.0822917717" flag="0"/>
      <psa10 value="0.0136157552" flag="0"/>
      <psa30 value="0.0008617317" flag="0"/>
    </comp>
    <comp name="--.HHZ">
      <acc value="0.0169699245" flag="0"/>
      <vel value="0.0090135558" flag="0"/>
      <psa03 value="0.0337741825" flag="0"/>
      <psa10 value="0.0073630794" flag="0"/>
      <psa30 value="0.0004200941" flag="0"/>
    </comp>
    <comp name="--.HHN">
      <acc value="0.0275770601" flag="0"/>
      <vel value="0.0110687397" flag="0"/>
      <psa03 value="0.0502198620" flag="0"/>
      <psa10 value="0.0070447411" flag="0"/>
      <psa30 value="0.0003382030" flag="0"/>
    </comp>
  </station>
  <station code="AMPL" name="AMPL" netid="HP" insttype="Compact," lat="38.9224" lon="21.2135">
    <comp name="--.HHN">
      <acc value="0.0886775504" flag="0"/>
      <vel value="0.0209220056" flag="0"/>
      <psa03 value="0.0704776949" flag="0"/>
      <psa10 value="0.0106257895" flag="0"/>
      <psa30 value="0.0016465617" flag="0"/>
    </comp>
    <comp name="--.HHE">
      <acc value="0.1117298318" flag="0"/>
      <vel value="0.0297538799" flag="0"/>
      <psa03 value="0.0788793377" flag="0"/>
      <psa10 value="0.0098006940" flag="0"/>
      <psa30 value="0.0007828535" flag="0"/>
    </comp>
    <comp name="--.HHZ">
      <acc value="0.0490066250" flag="0"/>
      <vel value="0.0131721565" flag="0"/>
      <psa03 value="0.0489839237" flag="0"/>
      <psa10 value="0.0080604899" flag="0"/>
      <psa30 value="0.0005638953" flag="0"/>
    </comp>
  </station>
  <station code="FSK" name="FSK" netid="HP" insttype="40," lat="38.4593" lon="20.5623">
    <comp name="--.HHZ">
      <acc value="0.0112136224" flag="0"/>
      <vel value="0.0067091374" flag="0"/>
      <psa03 value="0.0226440129" flag="0"/>
      <psa10 value="0.0107613400" flag="0"/>
      <psa30 value="0.0005520346" flag="0"/>
    </comp>
    <comp name="--.HHE">
      <acc value="0.0272188200" flag="0"/>
      <vel value="0.0106874614" flag="0"/>
      <psa03 value="0.0703832679" flag="0"/>
      <psa10 value="0.0096565671" flag="0"/>
      <psa30 value="0.0015310023" flag="0"/>
    </comp>
    <comp name="--.HHN">
      <acc value="0.0171207321" flag="0"/>
      <vel value="0.0083871174" flag="0"/>
      <psa03 value="0.0544290721" flag="0"/>
      <psa10 value="0.0092887572" flag="0"/>
      <psa30 value="0.0006562129" flag="0"/>
    </comp>
  </station>
  <station code="PDO" name="PDO" netid="HP" insttype="120s" lat="38.5986" lon="21.1833">
    <comp name="--.HHN">
      <acc value="0.0887838572" flag="0"/>
      <vel value="0.0397144058" flag="0"/>
      <psa03 value="0.2188310718" flag="0"/>
      <psa10 value="0.0273152661" flag="0"/>
      <psa30 value="0.0013233352" flag="0"/>
    </comp>
    <comp name="--.HHZ">
      <acc value="0.0374059685" flag="0"/>
      <vel value="0.0191608026" flag="0"/>
      <psa03 value="0.1142692272" flag="0"/>
      <psa10 value="0.0086725704" flag="0"/>
      <psa30 value="0.0005534525" flag="0"/>
    </comp>
    <comp name="--.HHE">
      <acc value="0.0775260264" flag="0"/>
      <vel value="0.0329795948" flag="0"/>
      <psa03 value="0.1567098891" flag="0"/>
      <psa10 value="0.0267245131" flag="0"/>
      <psa30 value="0.0011760904" flag="0"/>
    </comp>
  </station>
  <station code="PLEV" name="PLEV" netid="HP" insttype="Compact," lat="38.4124" lon="21.4073">
    <comp name="--.HHE">
      <acc value="0.0147667436" flag="0"/>
      <vel value="0.0088908735" flag="0"/>
      <psa03 value="0.0320428928" flag="0"/>
      <psa10 value="0.0075135897" flag="0"/>
      <psa30 value="0.0005771107" flag="0"/>
    </comp>
    <comp name="--.HHN">
      <acc value="0.0175677597" flag="0"/>
      <vel value="0.0087248372" flag="0"/>
      <psa03 value="0.0299916753" flag="0"/>
      <psa10 value="0.0068716339" flag="0"/>
      <psa30 value="0.0004000268" flag="0"/>
    </comp>
    <comp name="--.HHZ">
      <acc value="0.0115247241" flag="0"/>
      <vel value="0.0038797319" flag="0"/>
      <psa03 value="0.0183348981" flag="0"/>
      <psa10 value="0.0025415464" flag="0"/>
      <psa30 value="0.0003235774" flag="0"/>
    </comp>
  </station>
  <station code="PRMD" name="PRMD" netid="HP" insttype="120P," lat="39.5299" lon="21.0965">
    <comp name="--.HHN">
      <acc value="0.0101142683" flag="0"/>
      <vel value="0.0070260406" flag="0"/>
      <psa03 value="0.0208359093" flag="0"/>
      <psa10 value="0.0065973415" flag="0"/>
      <psa30 value="0.0006421088" flag="0"/>
    </comp>
    <comp name="--.HHE">
      <acc value="0.0115309837" flag="0"/>
      <vel value="0.0061533935" flag="0"/>
      <psa03 value="0.0404648487" flag="0"/>
      <psa10 value="0.0075604073" flag="0"/>
      <psa30 value="0.0005683461" flag="0"/>
    </comp>
    <comp name="--.HHZ">
      <acc value="0.0071051769" flag="0"/>
      <vel value="0.0045394908" flag="0"/>
      <psa03 value="0.0244853448" flag="0"/>
      <psa10 value="0.0068495690" flag="0"/>
      <psa30 value="0.0005831464" flag="0"/>
    </comp>
  </station>
  <station code="PVO" name="PVO" netid="HP" insttype="120P," lat="38.616" lon="21.525">
    <comp name="--.HHN">
      <acc value="0.0435247625" flag="0"/>
      <vel value="0.0187188449" flag="0"/>
      <psa03 value="0.0552363973" flag="0"/>
      <psa10 value="0.0074984384" flag="0"/>
      <psa30 value="0.0012367343" flag="0"/>
    </comp>
    <comp name="--.HHE">
      <acc value="0.0386100367" flag="0"/>
      <vel value="0.0174174298" flag="0"/>
      <psa03 value="0.0673270267" flag="0"/>
      <psa10 value="0.0078866723" flag="0"/>
      <psa30 value="0.0008490838" flag="0"/>
    </comp>
    <comp name="--.HHZ">
      <acc value="0.0252764845" flag="0"/>
      <vel value="0.0096374691" flag="0"/>
      <psa03 value="0.0314455858" flag="0"/>
      <psa10 value="0.0065541517" flag="0"/>
      <psa30 value="0.0009231420" flag="0"/>
    </comp>
  </station>
  <station code="DMLN" name="DMLN" netid="HT" insttype="1s-100Hz," lat="38.2385" lon="20.3734">
    <comp name="--.HHN">
      <acc value="0.0295786357" flag="0"/>
      <vel value="0.0115286774" flag="0"/>
      <psa03 value="0.0887262511" flag="0"/>
      <psa10 value="0.0094863827" flag="0"/>
      <psa30 value="0.0005387500" flag="0"/>
    </comp>
    <comp name="--.HHE">
      <acc value="0.0294885982" flag="0"/>
      <vel value="0.0108667561" flag="0"/>
      <psa03 value="0.0662757329" flag="0"/>
      <psa10 value="0.0100696371" flag="0"/>
      <psa30 value="0.0006907494" flag="0"/>
    </comp>
    <comp name="--.HHZ">
      <acc value="0.0209877773" flag="0"/>
      <vel value="0.0077412676" flag="0"/>
      <psa03 value="0.0415592908" flag="0"/>
      <psa10 value="0.0041928374" flag="0"/>
      <psa30 value="0.0002744303" flag="0"/>
    </comp>
  </station>
  <station code="DRAG" name="DRAG" netid="HT" insttype="1s-100Hz," lat="38.6839" lon="20.5746">
    <comp name="--.HHE">
      <acc value="0.2682160275" flag="0"/>
      <vel value="0.1665421281" flag="0"/>
      <psa03 value="0.7525500123" flag="0"/>
      <psa10 value="0.0999552304" flag="0"/>
      <psa30 value="0.0071274702" flag="0"/>
    </comp>
    <comp name="--.HHN">
      <acc value="0.2631247648" flag="0"/>
      <vel value="0.0817657838" flag="0"/>
      <psa03 value="0.2863777504" flag="0"/>
      <psa10 value="0.0644353333" flag="0"/>
      <psa30 value="0.0028518258" flag="0"/>
    </comp>
    <comp name="--.HHZ">
      <acc value="0.1100465314" flag="0"/>
      <vel value="0.0308399055" flag="0"/>
      <psa03 value="0.1454671538" flag="0"/>
      <psa10 value="0.0207159604" flag="0"/>
      <psa30 value="0.0014745271" flag="0"/>
    </comp>
  </station>
  <station code="EVGI" name="EVGI" netid="HT" insttype="30" lat="38.621" lon="20.656">
    <comp name="--.HHE">
      <acc value="0.1409348344" flag="0"/>
      <vel value="0.0320793017" flag="0"/>
      <psa03 value="0.1284773806" flag="0"/>
      <psa10 value="0.0262303269" flag="0"/>
      <psa30 value="0.0016855534" flag="0"/>
    </comp>
    <comp name="--.HHZ">
      <acc value="0.1066242752" flag="0"/>
      <vel value="0.0222193137" flag="0"/>
      <psa03 value="0.1014121203" flag="0"/>
      <psa10 value="0.0118295581" flag="0"/>
      <psa30 value="0.0007063792" flag="0"/>
    </comp>
    <comp name="--.HHN">
      <acc value="0.1466049910" flag="0"/>
      <vel value="0.0351241522" flag="0"/>
      <psa03 value="0.1534911430" flag="0"/>
      <psa10 value="0.0289639121" flag="0"/>
      <psa30 value="0.0014775127" flag="0"/>
    </comp>
  </station>
  <station code="IGT" name="IGT" netid="HT" insttype="100" lat="39.5315" lon="20.3299">
    <comp name="--.HHE">
      <acc value="0.0173813706" flag="0"/>
      <vel value="0.0057582394" flag="0"/>
      <psa03 value="0.0286875004" flag="0"/>
      <psa10 value="0.0032617969" flag="0"/>
      <psa30 value="0.0004636279" flag="0"/>
    </comp>
    <comp name="--.HHZ">
      <acc value="0.0141031430" flag="0"/>
      <vel value="0.0048115561" flag="0"/>
      <psa03 value="0.0169548312" flag="0"/>
      <psa10 value="0.0022390787" flag="0"/>
      <psa30 value="0.0004426358" flag="0"/>
    </comp>
    <comp name="--.HHN">
      <acc value="0.0198200553" flag="0"/>
      <vel value="0.0047797592" flag="0"/>
      <psa03 value="0.0238270302" flag="0"/>
      <psa10 value="0.0031773987" flag="0"/>
      <psa30 value="0.0004527124" flag="0"/>
    </comp>
  </station>
  <station code="LKD2" name="LKD2" netid="HT" insttype="100" lat="38.7889" lon="20.6578">
    <comp name="--.HHN">
      <acc value="0.1435317845" flag="0"/>
      <vel value="0.0515207418" flag="0"/>
      <psa03 value="0.2782815228" flag="0"/>
      <psa10 value="0.0423298608" flag="0"/>
      <psa30 value="0.0036301671" flag="0"/>
    </comp>
    <comp name="--.HHE">
      <acc value="0.2166846286" flag="0"/>
      <vel value="0.0579377980" flag="0"/>
      <psa03 value="0.2790741865" flag="0"/>
      <psa10 value="0.0485088556" flag="0"/>
      <psa30 value="0.0027065095" flag="0"/>
    </comp>
    <comp name="--.HHZ">
      <acc value="0.0865436417" flag="0"/>
      <vel value="0.0417455732" flag="0"/>
      <psa03 value="0.1512205245" flag="0"/>
      <psa10 value="0.0404396366" flag="0"/>
      <psa30 value="0.0018343580" flag="0"/>
    </comp>
  </station>
  <station code="NYDR" name="NYDR" netid="HT" insttype="1s-100Hz," lat="38.7135" lon="20.6983">
    <comp name="--.HHE">
      <acc value="0.1064320541" flag="0"/>
      <vel value="0.0536628647" flag="0"/>
      <psa03 value="0.2312733025" flag="0"/>
      <psa10 value="0.0554311281" flag="0"/>
      <psa30 value="0.0031141433" flag="0"/>
    </comp>
    <comp name="--.HHZ">
      <acc value="0.0825854913" flag="0"/>
      <vel value="0.0399487446" flag="0"/>
      <psa03 value="0.1633917084" flag="0"/>
      <psa10 value="0.0308457409" flag="0"/>
      <psa30 value="0.0021674342" flag="0"/>
    </comp>
    <comp name="--.HHN">
      <acc value="0.1337440000" flag="0"/>
      <vel value="0.0517019248" flag="0"/>
      <psa03 value="0.2516268704" flag="0"/>
      <psa10 value="0.0283056716" flag="0"/>
      <psa30 value="0.0033071937" flag="0"/>
    </comp>
  </station>
  <station code="PSDA" name="PSDA" netid="HT" insttype="30" lat="38.114" lon="20.5841">
    <comp name="--.HHZ">
      <acc value="0.0180457023" flag="0"/>
      <vel value="0.0086608123" flag="0"/>
      <psa03 value="0.0350084865" flag="0"/>
      <psa10 value="0.0085131950" flag="0"/>
      <psa30 value="0.0003144944" flag="0"/>
    </comp>
    <comp name="--.HHN">
      <acc value="0.0346666253" flag="0"/>
      <vel value="0.0157558414" flag="0"/>
      <psa03 value="0.0925547326" flag="0"/>
      <psa10 value="0.0165666595" flag="0"/>
      <psa30 value="0.0007869550" flag="0"/>
    </comp>
    <comp name="--.HHE">
      <acc value="0.0347970244" flag="0"/>
      <vel value="0.0152456807" flag="0"/>
      <psa03 value="0.0972762979" flag="0"/>
      <psa10 value="0.0167600299" flag="0"/>
      <psa30 value="0.0010621968" flag="0"/>
    </comp>
  </station>
  <station code="TSLK" name="TSLK" netid="HT" insttype="1s-100Hz," lat="38.8249" lon="20.6554">
    <comp name="--.HHN">
      <acc value="0.2978065758" flag="0"/>
      <vel value="0.1431313202" flag="0"/>
      <psa03 value="0.7555014782" flag="0"/>
      <psa10 value="0.1212822738" flag="0"/>
      <psa30 value="0.0078285255" flag="0"/>
    </comp>
    <comp name="--.HHE">
      <acc value="0.3164555426" flag="0"/>
      <vel value="0.1197031203" flag="0"/>
      <psa03 value="0.9014574529" flag="0"/>
      <psa10 value="0.0790902271" flag="0"/>
      <psa30 value="0.0069228102" flag="0"/>
    </comp>
    <comp name="--.HHZ">
      <acc value="0.1612232152" flag="0"/>
      <vel value="0.0613502585" flag="0"/>
      <psa03 value="0.3391730456" flag="0"/>
      <psa10 value="0.0604627039" flag="0"/>
      <psa30 value="0.0030577955" flag="0"/>
    </comp>
  </station>
</stationlist>
