<stationlist created="1778136737">
	<station code="ROD3" name="ROD3" netid="CL" source="Corinth Riff Laboratory (CRLNET)" insttype="" lat="38.30811" lon="21.89204">
		<comp name="00.HNE" depth="0.0">
			<acc value="0.0193616116715517" flag="0"/>
			<vel value="0.00751425348402004" flag="0"/>
			<psa03 value="0.046119148917319" flag="0"/>
			<psa10 value="0.00616045575619884" flag="0"/>
			<psa30 value="0.000624825558293612" flag="0"/>
		</comp>
		<comp name="00.HNN" depth="0.0">
			<acc value="0.0168819786560891" flag="0"/>
			<vel value="0.00592044869065923" flag="0"/>
			<psa03 value="0.0358200161294259" flag="0"/>
			<psa10 value="0.00589666937539277" flag="0"/>
			<psa30 value="0.000855585011643341" flag="0"/>
		</comp>
		<comp name="00.HNZ" depth="0.0">
			<acc value="0.00679713430285436" flag="0"/>
			<vel value="0.00243771555278597" flag="0"/>
			<psa03 value="0.00714748585565008" flag="0"/>
			<psa10 value="0.00353305771961158" flag="0"/>
			<psa30 value="0.00036186162780701" flag="0"/>
		</comp>
	</station>
	<station code="AIGS" name="AIGS" netid="HA" source="Hellenic Seismological Network, University of Athens, Seismological Laboratory (HA)" insttype="" lat="38.25001" lon="22.0878">
		<comp name="--.HNE" depth="0.0">
			<acc value="0.00636068920599321" flag="0"/>
			<vel value="0.00356175773822258" flag="0"/>
			<psa03 value="0.0156477110632481" flag="0"/>
			<psa10 value="0.00553755214814163" flag="0"/>
			<psa30 value="0.000904707744948642" flag="0"/>
		</comp>
		<comp name="--.HNN" depth="0.0">
			<acc value="0.0077111155708198" flag="0"/>
			<vel value="0.00343151043932529" flag="0"/>
			<psa03 value="0.0169254154965578" flag="0"/>
			<psa10 value="0.00417446153760705" flag="0"/>
			<psa30 value="0.0012022457887177" flag="0"/>
		</comp>
		<comp name="--.HNZ" depth="0.0">
			<acc value="0.00615111848762415" flag="0"/>
			<vel value="0.00259993193522155" flag="0"/>
			<psa03 value="0.00584227634504773" flag="0"/>
			<psa10 value="0.00512391849697129" flag="0"/>
			<psa30 value="0.000619971590909232" flag="0"/>
		</comp>
	</station>
	<station code="KIAS" name="KIAS" netid="HA" source="Hellenic Seismological Network, University of Athens, Seismological Laboratory (HA)" insttype="" lat="37.9875" lon="22.7543">
		<comp name="--.HNE" depth="0.0">
			<acc value="0.00312570803381627" flag="0"/>
			<vel value="0.00243476459168026" flag="0"/>
			<psa03 value="0.00362920298199123" flag="0"/>
			<psa10 value="0.00397918516398905" flag="0"/>
			<psa30 value="0.00120154928424144" flag="0"/>
		</comp>
		<comp name="--.HNN" depth="0.0">
			<acc value="0.00329850254215423" flag="0"/>
			<vel value="0.00250435523523603" flag="0"/>
			<psa03 value="0.0040497673006479" flag="0"/>
			<psa10 value="0.00273520689715809" flag="0"/>
			<psa30 value="0.000662291477727138" flag="0"/>
		</comp>
		<comp name="--.HNZ" depth="0.0">
			<acc value="0.00320165445095873" flag="0"/>
			<vel value="0.00169607496288317" flag="0"/>
			<psa03 value="0.0041350997764196" flag="0"/>
			<psa10 value="0.00294117124441082" flag="0"/>
			<psa30 value="0.000742475383265248" flag="0"/>
		</comp>
	</station>
	<station code="XLKS" name="XLKS" netid="HA" source="Hellenic Seismological Network, University of Athens, Seismological Laboratory (HA)" insttype="" lat="38.0772" lon="22.6361">
		<comp name="--.HNE" depth="0.0">
			<acc value="0.00542822707295893" flag="0"/>
			<vel value="0.00571176311941333" flag="0"/>
			<psa03 value="0.00710742786348205" flag="0"/>
			<psa10 value="0.0100935808376879" flag="0"/>
			<psa30 value="0.00126629367740905" flag="0"/>
		</comp>
		<comp name="--.HNN" depth="0.0">
			<acc value="0.00420791616114122" flag="0"/>
			<vel value="0.00491130820148408" flag="0"/>
			<psa03 value="0.00877124902094654" flag="0"/>
			<psa10 value="0.00893815460887745" flag="0"/>
			<psa30 value="0.00122437725481738" flag="0"/>
		</comp>
		<comp name="--.HNZ" depth="0.0">
			<acc value="0.00660747572025823" flag="0"/>
			<vel value="0.00334740582605858" flag="0"/>
			<psa03 value="0.00829051404961477" flag="0"/>
			<psa10 value="0.00519662596973439" flag="0"/>
			<psa30 value="0.000647520603393334" flag="0"/>
		</comp>
	</station>
	<station code="ART2" name="ART2" netid="HI" source="ITSAK Strong Motion Network" insttype="" lat="39.1474" lon="20.9937">
		<comp name="--.HNE" depth="0.0">
			<acc value="0.0309613136344263" flag="0"/>
			<vel value="0.00675859773933477" flag="0"/>
			<psa03 value="0.0373456823015182" flag="0"/>
			<psa10 value="0.00476973331519017" flag="0"/>
			<psa30 value="0.00091572764163015" flag="0"/>
		</comp>
		<comp name="--.HNN" depth="0.0">
			<acc value="0.0462784096345544" flag="0"/>
			<vel value="0.00842732680878498" flag="0"/>
			<psa03 value="0.0417064034695397" flag="0"/>
			<psa10 value="0.00673924519192959" flag="0"/>
			<psa30 value="0.000648519523737151" flag="0"/>
		</comp>
		<comp name="--.HNZ" depth="0.0">
			<acc value="0.02389487126657" flag="0"/>
			<vel value="0.00486016673464419" flag="0"/>
			<psa03 value="0.0221593221130087" flag="0"/>
			<psa10 value="0.0040621176890928" flag="0"/>
			<psa30 value="0.000793150094386315" flag="0"/>
		</comp>
	</station>
	<station code="KLV1" name="KLV1" netid="HI" source="ITSAK Strong Motion Network" insttype="" lat="38.03256" lon="22.10797">
		<comp name="--.HNE" depth="0.0">
			<acc value="0.0039070642651448" flag="0"/>
			<vel value="0.00244190089376626" flag="0"/>
			<psa03 value="0.0121896434415509" flag="0"/>
			<psa10 value="0.00568480096515689" flag="0"/>
			<psa30 value="0.000254571291181805" flag="0"/>
		</comp>
		<comp name="--.HNN" depth="0.0">
			<acc value="0.00446702025726838" flag="0"/>
			<vel value="0.00246430020374564" flag="0"/>
			<psa03 value="0.00826517578253469" flag="0"/>
			<psa10 value="0.00315079677169687" flag="0"/>
			<psa30 value="0.000262881529194646" flag="0"/>
		</comp>
		<comp name="--.HNZ" depth="0.0">
			<acc value="0.0026056192536868" flag="0"/>
			<vel value="0.00164396004512592" flag="0"/>
			<psa03 value="0.00415915442981952" flag="0"/>
			<psa10 value="0.00464248785451819" flag="0"/>
			<psa30 value="0.000221389457631749" flag="0"/>
		</comp>
	</station>
	<station code="KRK1" name="KRK1" netid="HI" source="ITSAK Strong Motion Network" insttype="" lat="39.618861" lon="19.9202">
		<comp name="--.HNE" depth="0.0">
			<acc value="0.0329213395764343" flag="0"/>
			<vel value="0.0109778571543042" flag="0"/>
			<psa03 value="0.0457277740321751" flag="0"/>
			<psa10 value="0.0034716757627306" flag="0"/>
			<psa30 value="0.000387065693285741" flag="0"/>
		</comp>
		<comp name="--.HNN" depth="0.0">
			<acc value="0.0245109428157296" flag="0"/>
			<vel value="0.00829183796174109" flag="0"/>
			<psa03 value="0.0399497141808289" flag="0"/>
			<psa10 value="0.00393311336195888" flag="0"/>
			<psa30 value="0.000413835409356527" flag="0"/>
		</comp>
		<comp name="--.HNZ" depth="0.0">
			<acc value="0.0177931740507519" flag="0"/>
			<vel value="0.00460879631822022" flag="0"/>
			<psa03 value="0.0194886933740237" flag="0"/>
			<psa10 value="0.0013793671575535" flag="0"/>
			<psa30 value="0.000227500513501017" flag="0"/>
		</comp>
	</station>
	<station code="LMS2" name="LMS2" netid="HI" source="ITSAK Strong Motion Network" insttype="" lat="40.834985" lon="21.141815">
		<comp name="--.HNE" depth="0.0">
			<acc value="0.000930981625915156" flag="0"/>
			<vel value="0.000799722091235224" flag="0"/>
			<psa03 value="0.00184707092709445" flag="0"/>
			<psa10 value="0.0010952860729527" flag="0"/>
			<psa30 value="0.000167444972615829" flag="0"/>
		</comp>
		<comp name="--.HNN" depth="0.0">
			<acc value="0.00135225939315493" flag="0"/>
			<vel value="0.000862098345522064" flag="0"/>
			<psa03 value="0.00305420460471077" flag="0"/>
			<psa10 value="0.0011078668673073" flag="0"/>
			<psa30 value="0.000193607799524973" flag="0"/>
		</comp>
		<comp name="--.HNZ" depth="0.0">
			<acc value="0.000580534690930973" flag="0"/>
			<vel value="0.000549143800041779" flag="0"/>
			<psa03 value="0.00175439991179142" flag="0"/>
			<psa10 value="0.000917659833429229" flag="0"/>
			<psa30 value="0.000149450603493956" flag="0"/>
		</comp>
	</station>
	<station code="MSL1" name="MSL1" netid="HI" source="ITSAK Strong Motion Network" insttype="" lat="38.3727" lon="21.4243">
		<comp name="--.HNE" depth="0.0">
			<acc value="0.0378054429425268" flag="0"/>
			<vel value="0.0249947119365007" flag="0"/>
			<psa03 value="0.144456694547089" flag="0"/>
			<psa10 value="0.0382071785380651" flag="0"/>
			<psa30 value="0.00220179960841891" flag="0"/>
		</comp>
		<comp name="--.HNN" depth="0.0">
			<acc value="0.0648437260796346" flag="0"/>
			<vel value="0.0343694608729673" flag="0"/>
			<psa03 value="0.16584285085834" flag="0"/>
			<psa10 value="0.0371097170866209" flag="0"/>
			<psa30 value="0.0014851093187051" flag="0"/>
		</comp>
		<comp name="--.HNZ" depth="0.0">
			<acc value="0.024284602667215" flag="0"/>
			<vel value="0.00926375388410212" flag="0"/>
			<psa03 value="0.0375025338379587" flag="0"/>
			<psa10 value="0.0213974737276022" flag="0"/>
			<psa30 value="0.000951773987857731" flag="0"/>
		</comp>
	</station>
	<station code="VAS2" name="VAS2" netid="HI" source="ITSAK Strong Motion Network" insttype="" lat="38.630558" lon="20.608081">
		<comp name="--.HNE" depth="0.0">
			<acc value="0.190466808002603" flag="0"/>
			<vel value="0.0817307164784644" flag="0"/>
			<psa03 value="0.448087183575982" flag="0"/>
			<psa10 value="0.159647085835844" flag="0"/>
			<psa30 value="0.00554933553292851" flag="0"/>
		</comp>
		<comp name="--.HNN" depth="0.0">
			<acc value="0.186839086532748" flag="0"/>
			<vel value="0.126139987472626" flag="0"/>
			<psa03 value="0.382931659009961" flag="0"/>
			<psa10 value="0.329249341153092" flag="0"/>
			<psa30 value="0.00660938283915757" flag="0"/>
		</comp>
		<comp name="--.HNZ" depth="0.0">
			<acc value="0.0810692033047844" flag="0"/>
			<vel value="0.0479960392734989" flag="0"/>
			<psa03 value="0.222877139516754" flag="0"/>
			<psa10 value="0.0437512645566417" flag="0"/>
			<psa30 value="0.0025577515218202" flag="0"/>
		</comp>
	</station>
	<station code="PATC" name="PATC" netid="HL" source="National Observatory of Athens Seismic Network" insttype="" lat="38.26933" lon="21.76001">
		<comp name="00.HNE" depth="0.0">
			<acc value="0.0115375428230238" flag="0"/>
			<vel value="0.00888680360408304" flag="0"/>
			<psa03 value="0.0366142458265871" flag="0"/>
			<psa10 value="0.0140044824157364" flag="0"/>
			<psa30 value="0.00161625602736338" flag="0"/>
		</comp>
		<comp name="00.HNN" depth="0.0">
			<acc value="0.0117803487410306" flag="0"/>
			<vel value="0.0122417574844484" flag="0"/>
			<psa03 value="0.0303606258257824" flag="0"/>
			<psa10 value="0.0128362931539057" flag="0"/>
			<psa30 value="0.0020323917193088" flag="0"/>
		</comp>
		<comp name="00.HNZ" depth="0.0">
			<acc value="0.00738963694114691" flag="0"/>
			<vel value="0.00599849983037766" flag="0"/>
			<psa03 value="0.0149257648003138" flag="0"/>
			<psa10 value="0.00739783616409937" flag="0"/>
			<psa30 value="0.000923451069935815" flag="0"/>
		</comp>
	</station>
	<station code="ANX" name="ANX" netid="HP" source="University of Patras, Seismological Laboratory (PSLNET)" insttype="" lat="38.5933" lon="21.9209">
		<comp name="--.HNE" depth="0.0">
			<acc value="0.00856169285783363" flag="0"/>
			<vel value="0.00709282399189029" flag="0"/>
			<psa03 value="0.0184023987561217" flag="0"/>
			<psa10 value="0.00954584392781225" flag="0"/>
			<psa30 value="0.00049959997104516" flag="0"/>
		</comp>
		<comp name="--.HNN" depth="0.0">
			<acc value="0.0110389299506309" flag="0"/>
			<vel value="0.00726664966603901" flag="0"/>
			<psa03 value="0.0180971949440848" flag="0"/>
			<psa10 value="0.0112560003422645" flag="0"/>
			<psa30 value="0.000591007797198999" flag="0"/>
		</comp>
		<comp name="--.HNZ" depth="0.0">
			<acc value="0.00477335327309705" flag="0"/>
			<vel value="0.00274269159085168" flag="0"/>
			<psa03 value="0.0152060542014823" flag="0"/>
			<psa10 value="0.00588941873883454" flag="0"/>
			<psa30 value="0.000278832377526735" flag="0"/>
		</comp>
	</station>
	<station code="PDO" name="PDO" netid="HP" source="University of Patras, Seismological Laboratory (PSLNET)" insttype="" lat="38.5986" lon="21.1833">
		<comp name="--.HNE" depth="0.0">
			<acc value="0.0764458820532916" flag="0"/>
			<vel value="0.0329115731045262" flag="0"/>
			<psa03 value="0.157045330565776" flag="0"/>
			<psa10 value="0.0270474330097067" flag="0"/>
			<psa30 value="0.00123622647726914" flag="0"/>
		</comp>
		<comp name="--.HNN" depth="0.0">
			<acc value="0.0791513878450312" flag="0"/>
			<vel value="0.0387338264118633" flag="0"/>
			<psa03 value="0.214281820118859" flag="0"/>
			<psa10 value="0.0263062451596463" flag="0"/>
			<psa30 value="0.00127738191194994" flag="0"/>
		</comp>
		<comp name="--.HNZ" depth="0.0">
			<acc value="0.0346803168984915" flag="0"/>
			<vel value="0.0179332986810145" flag="0"/>
			<psa03 value="0.110278263727196" flag="0"/>
			<psa10 value="0.00821750686949386" flag="0"/>
			<psa30 value="0.000570342157366714" flag="0"/>
		</comp>
	</station>
	<station code="PVO" name="PVO" netid="HP" source="University of Patras, Seismological Laboratory (PSLNET)" insttype="" lat="38.616" lon="21.525">
		<comp name="--.HNE" depth="0.0">
			<acc value="0.0333612355918467" flag="0"/>
			<vel value="0.0149092500448484" flag="0"/>
			<psa03 value="0.0580601795354786" flag="0"/>
			<psa10 value="0.00700976045599316" flag="0"/>
			<psa30 value="0.000677519778193701" flag="0"/>
		</comp>
		<comp name="--.HNN" depth="0.0">
			<acc value="0.042223698776732" flag="0"/>
			<vel value="0.0186118311711309" flag="0"/>
			<psa03 value="0.0568297490671301" flag="0"/>
			<psa10 value="0.00747261705547255" flag="0"/>
			<psa30 value="0.00113034050451167" flag="0"/>
		</comp>
		<comp name="--.HNZ" depth="0.0">
			<acc value="0.0271514254294177" flag="0"/>
			<vel value="0.00949125133666187" flag="0"/>
			<psa03 value="0.0300738802678213" flag="0"/>
			<psa10 value="0.00622260768596537" flag="0"/>
			<psa30 value="0.000846776771889875" flag="0"/>
		</comp>
	</station>
	<station code="SERG" name="SERG" netid="HP" source="University of Patras, Seismological Laboratory (PSLNET)" insttype="" lat="38.4133" lon="22.0566">
		<comp name="--.HNE" depth="0.0">
			<acc value="0.00593247518809735" flag="0"/>
			<vel value="0.00413926983479058" flag="0"/>
			<psa03 value="0.0141684958849705" flag="0"/>
			<psa10 value="0.00389585698765369" flag="0"/>
			<psa30 value="0.000296490943153194" flag="0"/>
		</comp>
		<comp name="--.HNN" depth="0.0">
			<acc value="0.0085361113253984" flag="0"/>
			<vel value="0.00326788811081177" flag="0"/>
			<psa03 value="0.0160437307871949" flag="0"/>
			<psa10 value="0.00357611807214565" flag="0"/>
			<psa30 value="0.000315130693570034" flag="0"/>
		</comp>
		<comp name="--.HNZ" depth="0.0">
			<acc value="0.0034396019888245" flag="0"/>
			<vel value="0.00299098038686955" flag="0"/>
			<psa03 value="0.0068040073727149" flag="0"/>
			<psa10 value="0.00308342637123863" flag="0"/>
			<psa30 value="0.000379116234381689" flag="0"/>
		</comp>
	</station>
	<station code="UPR" name="UPR" netid="HP" source="University of Patras, Seismological Laboratory (PSLNET)" insttype="" lat="38.2836" lon="21.7864">
		<comp name="--.HNE" depth="2.0">
			<acc value="0.00881622001685354" flag="0"/>
			<vel value="0.00711143895301461" flag="0"/>
			<psa03 value="0.0113017187354653" flag="0"/>
			<psa10 value="0.00807940490841499" flag="0"/>
			<psa30 value="0.00139844784863797" flag="0"/>
		</comp>
		<comp name="--.HNN" depth="2.0">
			<acc value="0.00728943826879986" flag="0"/>
			<vel value="0.00736180087220963" flag="0"/>
			<psa03 value="0.0156084949237062" flag="0"/>
			<psa10 value="0.0121078195836096" flag="0"/>
			<psa30 value="0.00130518469124576" flag="0"/>
		</comp>
		<comp name="--.HNZ" depth="2.0">
			<acc value="0.00671958557136071" flag="0"/>
			<vel value="0.00559126328596977" flag="0"/>
			<psa03 value="0.013080942069027" flag="0"/>
			<psa10 value="0.0079325311162535" flag="0"/>
			<psa30 value="0.000479501243771287" flag="0"/>
		</comp>
	</station>
</stationlist>
