<?xml version="1.0" encoding="UTF-8" standalone="yes"?>
<!DOCTYPE earthquake SYSTEM "stationlist.dtd">
<stationlist created="" xmlns="ch.ethz.sed.shakemap.usgs.xml">
  <station code="AGRP" name="AGRP" netid="CL" source="RESIF" insttype="30" lat="38.3959" lon="21.7228">
    <comp name="00.HHE">
      <acc value="0.0116724484" flag="0"/>
      <vel value="0.0094858830" flag="0"/>
      <psa03 value="0.0264839471" flag="0"/>
      <psa10 value="0.0154541142" flag="0"/>
      <psa30 value="0.0033540835" flag="0"/>
    </comp>
    <comp name="00.HHN">
      <acc value="0.0128522203" flag="0"/>
      <vel value="0.0104492412" flag="0"/>
      <psa03 value="0.0355040852" flag="0"/>
      <psa10 value="0.0211008215" flag="0"/>
      <psa30 value="0.0043168966" flag="0"/>
    </comp>
    <comp name="00.HHZ">
      <acc value="0.0093564133" flag="0"/>
      <vel value="0.0068265673" flag="0"/>
      <psa03 value="0.0238522607" flag="0"/>
      <psa10 value="0.0076739999" flag="0"/>
      <psa30 value="0.0028820730" flag="0"/>
    </comp>
  </station>
  <station code="MALA" name="MALA" netid="CL" source="RESIF" insttype="30" lat="38.3935" lon="21.8726">
    <comp name="00.HH2">
      <acc value="0.0124402565" flag="0"/>
      <vel value="0.0090434833" flag="0"/>
      <psa03 value="0.0323923047" flag="0"/>
      <psa10 value="0.0123574181" flag="0"/>
      <psa30 value="0.0053689381" flag="0"/>
    </comp>
    <comp name="00.HH3">
      <acc value="0.0096795060" flag="0"/>
      <vel value="0.0109212613" flag="0"/>
      <psa03 value="0.0269483568" flag="0"/>
      <psa10 value="0.0112964408" flag="0"/>
      <psa30 value="0.0094178035" flag="0"/>
    </comp>
    <comp name="00.HHZ">
      <acc value="0.0070179960" flag="0"/>
      <vel value="0.0069575923" flag="0"/>
      <psa03 value="0.0122334469" flag="0"/>
      <psa10 value="0.0129268045" flag="0"/>
      <psa30 value="0.0032661789" flag="0"/>
    </comp>
  </station>
  <station code="ROD3" name="ROD3" netid="CL" source="RESIF" insttype="30" lat="38.3081" lon="21.892">
    <comp name="00.HHE">
      <acc value="0.0509437666" flag="0"/>
      <vel value="0.0289172080" flag="0"/>
      <psa03 value="0.1845518884" flag="0"/>
      <psa10 value="0.0245602636" flag="0"/>
      <psa30 value="0.0095307586" flag="0"/>
    </comp>
    <comp name="00.HHN">
      <acc value="0.0539045054" flag="0"/>
      <vel value="0.0353566531" flag="0"/>
      <psa03 value="0.1220156509" flag="0"/>
      <psa10 value="0.0403030835" flag="0"/>
      <psa30 value="0.0056184747" flag="0"/>
    </comp>
    <comp name="00.HHZ">
      <acc value="0.0250462908" flag="0"/>
      <vel value="0.0137060298" flag="0"/>
      <psa03 value="0.0490159367" flag="0"/>
      <psa10 value="0.0253732773" flag="0"/>
      <psa30 value="0.0035059144" flag="0"/>
    </comp>
  </station>
  <station code="ARG2" name="ARG2" netid="HI" source="NOA" insttype="CMG-5TD,ACCELEROMETER,GURALP" lat="38.1783" lon="20.4878">
    <comp name="--.HNE">
      <acc value="0.2554621890" flag="0"/>
      <vel value="0.1036773821" flag="0"/>
      <psa03 value="0.5640459459" flag="0"/>
      <psa10 value="0.0786953097" flag="0"/>
      <psa30 value="0.0116975900" flag="0"/>
    </comp>
    <comp name="--.HNN">
      <acc value="0.2790387334" flag="0"/>
      <vel value="0.1236480827" flag="0"/>
      <psa03 value="0.3651698174" flag="0"/>
      <psa10 value="0.0935984205" flag="0"/>
      <psa30 value="0.0088944200" flag="0"/>
    </comp>
    <comp name="--.HNZ">
      <acc value="0.2005211853" flag="0"/>
      <vel value="0.0548208889" flag="0"/>
      <psa03 value="0.4004419148" flag="0"/>
      <psa10 value="0.0390082634" flag="0"/>
      <psa30 value="0.0084796558" flag="0"/>
    </comp>
  </station>
  <station code="KLV1" name="KLV1" netid="HI" source="NOA" insttype="CMG-5TD,ACCELEROMETER,GURALP" lat="38.0326" lon="22.108">
    <comp name="--.HNE">
      <acc value="0.0233129670" flag="0"/>
      <vel value="0.0135086324" flag="0"/>
      <psa03 value="0.0611769779" flag="0"/>
      <psa10 value="0.0188357376" flag="0"/>
      <psa30 value="0.0025123650" flag="0"/>
    </comp>
    <comp name="--.HNN">
      <acc value="0.0277756867" flag="0"/>
      <vel value="0.0172455505" flag="0"/>
      <psa03 value="0.0619677309" flag="0"/>
      <psa10 value="0.0202821982" flag="0"/>
      <psa30 value="0.0020628627" flag="0"/>
    </comp>
    <comp name="--.HNZ">
      <acc value="0.0105601528" flag="0"/>
      <vel value="0.0140303517" flag="0"/>
      <psa03 value="0.0208816566" flag="0"/>
      <psa10 value="0.0185491569" flag="0"/>
      <psa30 value="0.0025490986" flag="0"/>
    </comp>
  </station>
  <station code="MSL1" name="MSL1" netid="HI" source="NOA" insttype="CMG-5TD,ACCELEROMETER,GURALP" lat="38.3727" lon="21.4243">
    <comp name="--.HNE">
      <acc value="0.0578033244" flag="0"/>
      <vel value="0.0577720478" flag="0"/>
      <psa03 value="0.1336190771" flag="0"/>
      <psa10 value="0.1282018816" flag="0"/>
      <psa30 value="0.0119307536" flag="0"/>
    </comp>
    <comp name="--.HNN">
      <acc value="0.0473776234" flag="0"/>
      <vel value="0.0466107300" flag="0"/>
      <psa03 value="0.1960915771" flag="0"/>
      <psa10 value="0.0935298267" flag="0"/>
      <psa30 value="0.0072814761" flag="0"/>
    </comp>
    <comp name="--.HNZ">
      <acc value="0.0258890339" flag="0"/>
      <vel value="0.0228850715" flag="0"/>
      <psa03 value="0.0698659477" flag="0"/>
      <psa10 value="0.0384050622" flag="0"/>
      <psa30 value="0.0035187523" flag="0"/>
    </comp>
  </station>
  <station code="PYL1" name="PYL1" netid="HI" source="NOA" insttype="CMG-5TD,ACCELEROMETER,GURALP" lat="36.9142" lon="21.6952">
    <comp name="--.HNE">
      <acc value="0.0794807507" flag="0"/>
      <vel value="0.0385099549" flag="0"/>
      <psa03 value="0.3586906260" flag="0"/>
      <psa10 value="0.0363537959" flag="0"/>
      <psa30 value="0.0060049491" flag="0"/>
    </comp>
    <comp name="--.HNN">
      <acc value="0.0617883148" flag="0"/>
      <vel value="0.0259132581" flag="0"/>
      <psa03 value="0.1532618680" flag="0"/>
      <psa10 value="0.0224195438" flag="0"/>
      <psa30 value="0.0099461408" flag="0"/>
    </comp>
    <comp name="--.HNZ">
      <acc value="0.0433793262" flag="0"/>
      <vel value="0.0164807031" flag="0"/>
      <psa03 value="0.0889343665" flag="0"/>
      <psa10 value="0.0153284725" flag="0"/>
      <psa30 value="0.0023836521" flag="0"/>
    </comp>
  </station>
  <station code="ITM" name="ITM" netid="HL" source="NOA" insttype="DR24" lat="37.1787" lon="21.9252">
    <comp name="--.HHE">
      <acc value="0.0460574225" flag="0"/>
      <vel value="0.0255431105" flag="0"/>
      <psa03 value="0.1074635634" flag="0"/>
      <psa10 value="0.0210324817" flag="0"/>
      <psa30 value="0.0072069156" flag="0"/>
    </comp>
    <comp name="--.HHN">
      <acc value="0.0547394164" flag="0"/>
      <vel value="0.0376811072" flag="0"/>
      <psa03 value="0.1591817149" flag="0"/>
      <psa10 value="0.0316500912" flag="0"/>
      <psa30 value="0.0098007086" flag="0"/>
    </comp>
    <comp name="--.HHZ">
      <acc value="0.0324014083" flag="0"/>
      <vel value="0.0185492241" flag="0"/>
      <psa03 value="0.0767397475" flag="0"/>
      <psa10 value="0.0243973785" flag="0"/>
      <psa30 value="0.0050340233" flag="0"/>
    </comp>
  </station>
  <station code="KLV" name="KLV" netid="HL" source="NOA" insttype="120" lat="38.0435" lon="22.1504">
    <comp name="--.HHE">
      <acc value="0.0075857530" flag="0"/>
      <vel value="0.0063538764" flag="0"/>
      <psa03 value="0.0240843065" flag="0"/>
      <psa10 value="0.0076502454" flag="0"/>
      <psa30 value="0.0025068388" flag="0"/>
    </comp>
    <comp name="--.HHN">
      <acc value="0.0062435895" flag="0"/>
      <vel value="0.0058645806" flag="0"/>
      <psa03 value="0.0167043278" flag="0"/>
      <psa10 value="0.0093121949" flag="0"/>
      <psa30 value="0.0013468050" flag="0"/>
    </comp>
    <comp name="--.HHZ">
      <acc value="0.0064839849" flag="0"/>
      <vel value="0.0037565756" flag="0"/>
      <psa03 value="0.0128282534" flag="0"/>
      <psa10 value="0.0044731668" flag="0"/>
      <psa30 value="0.0007238490" flag="0"/>
    </comp>
  </station>
  <station code="PATC" name="PATC" netid="HL" source="NOA" insttype="CMG-5" lat="38.2693" lon="21.76">
    <comp name="00.HNE">
      <acc value="0.0355313746" flag="0"/>
      <vel value="0.0513878187" flag="0"/>
      <psa03 value="0.1347615098" flag="0"/>
      <psa10 value="0.0715818512" flag="0"/>
      <psa30 value="0.0192579049" flag="0"/>
    </comp>
    <comp name="00.HNN">
      <acc value="0.0463328944" flag="0"/>
      <vel value="0.0465544445" flag="0"/>
      <psa03 value="0.1452886337" flag="0"/>
      <psa10 value="0.0839858083" flag="0"/>
      <psa30 value="0.0184601388" flag="0"/>
    </comp>
    <comp name="00.HNZ">
      <acc value="0.0273454290" flag="0"/>
      <vel value="0.0218078509" flag="0"/>
      <psa03 value="0.0557523987" flag="0"/>
      <psa10 value="0.0383566189" flag="0"/>
      <psa30 value="0.0075447007" flag="0"/>
    </comp>
  </station>
  <station code="RLS" name="RLS" netid="HL" source="NOA" insttype="120" lat="38.0559" lon="21.4647">
    <comp name="--.HHE">
      <acc value="0.0375933469" flag="0"/>
      <vel value="0.0158872005" flag="0"/>
      <psa03 value="0.1067697851" flag="0"/>
      <psa10 value="0.0143190287" flag="0"/>
      <psa30 value="0.0037423946" flag="0"/>
    </comp>
    <comp name="--.HHN">
      <acc value="0.0302366296" flag="0"/>
      <vel value="0.0159904860" flag="0"/>
      <psa03 value="0.0916430720" flag="0"/>
      <psa10 value="0.0182026170" flag="0"/>
      <psa30 value="0.0042632028" flag="0"/>
    </comp>
    <comp name="--.HHZ">
      <acc value="0.0209810389" flag="0"/>
      <vel value="0.0119690224" flag="0"/>
      <psa03 value="0.0619604493" flag="0"/>
      <psa10 value="0.0160315007" flag="0"/>
      <psa30 value="0.0040920114" flag="0"/>
    </comp>
  </station>
  <station code="VLS" name="VLS" netid="HL" source="NOA" insttype="120P," lat="38.1768" lon="20.5886">
    <comp name="--.HHE">
      <acc value="0.3438712958" flag="0"/>
      <vel value="0.0807306631" flag="0"/>
      <psa03 value="0.3303379513" flag="0"/>
      <psa10 value="0.0539154127" flag="0"/>
      <psa30 value="0.0085184030" flag="0"/>
    </comp>
    <comp name="--.HHN">
      <acc value="0.2023793029" flag="0"/>
      <vel value="0.0594945290" flag="0"/>
      <psa03 value="0.1534380357" flag="0"/>
      <psa10 value="0.0693334217" flag="0"/>
      <psa30 value="0.0047582013" flag="0"/>
    </comp>
    <comp name="--.HHZ">
      <acc value="0.1140547553" flag="0"/>
      <vel value="0.0298812196" flag="0"/>
      <psa03 value="0.1665946634" flag="0"/>
      <psa10 value="0.0354269840" flag="0"/>
      <psa30 value="0.0046656193" flag="0"/>
    </comp>
  </station>
  <station code="AMT" name="AMT" netid="HP" source="NOA" insttype="CMG-3T," lat="37.5324" lon="21.7089">
    <comp name="00.HHE">
      <acc value="0.0882665522" flag="0"/>
      <vel value="0.0668284612" flag="0"/>
      <psa03 value="0.3120690400" flag="0"/>
      <psa10 value="0.0752242212" flag="0"/>
      <psa30 value="0.0073445254" flag="0"/>
    </comp>
    <comp name="00.HHN">
      <acc value="0.0994227039" flag="0"/>
      <vel value="0.0677767152" flag="0"/>
      <psa03 value="0.2869781290" flag="0"/>
      <psa10 value="0.0841427984" flag="0"/>
      <psa30 value="0.0077013971" flag="0"/>
    </comp>
    <comp name="00.HHZ">
      <acc value="0.0646312338" flag="0"/>
      <vel value="0.0343971869" flag="0"/>
      <psa03 value="0.1823065647" flag="0"/>
      <psa10 value="0.0416067240" flag="0"/>
      <psa30 value="0.0041634649" flag="0"/>
    </comp>
  </station>
  <station code="AXS" name="AXS" netid="HP" source="NOA" insttype="40," lat="38.1962" lon="21.3763">
    <comp name="--.HHE">
      <acc value="0.0153887369" flag="0"/>
      <vel value="0.0108309351" flag="0"/>
      <psa03 value="0.0282753853" flag="0"/>
      <psa10 value="0.0107986357" flag="0"/>
      <psa30 value="0.0023171693" flag="0"/>
    </comp>
    <comp name="--.HHE">
      <acc value="0.0153887369" flag="0"/>
      <vel value="0.0108309351" flag="0"/>
      <psa03 value="0.0282753853" flag="0"/>
      <psa10 value="0.0107986357" flag="0"/>
      <psa30 value="0.0023171693" flag="0"/>
    </comp>
    <comp name="--.HHN">
      <acc value="0.0169046673" flag="0"/>
      <vel value="0.0123846157" flag="0"/>
      <psa03 value="0.0398302278" flag="0"/>
      <psa10 value="0.0119501955" flag="0"/>
      <psa30 value="0.0023292379" flag="0"/>
    </comp>
    <comp name="--.HHN">
      <acc value="0.0169046673" flag="0"/>
      <vel value="0.0123846157" flag="0"/>
      <psa03 value="0.0398302278" flag="0"/>
      <psa10 value="0.0119501955" flag="0"/>
      <psa30 value="0.0023292379" flag="0"/>
    </comp>
    <comp name="--.HHZ">
      <acc value="0.0101136042" flag="0"/>
      <vel value="0.0067379642" flag="0"/>
      <psa03 value="0.0205172844" flag="0"/>
      <psa10 value="0.0098006077" flag="0"/>
      <psa30 value="0.0015471808" flag="0"/>
    </comp>
    <comp name="--.HHZ">
      <acc value="0.0101136042" flag="0"/>
      <vel value="0.0067379642" flag="0"/>
      <psa03 value="0.0205172844" flag="0"/>
      <psa10 value="0.0098006077" flag="0"/>
      <psa30 value="0.0015471808" flag="0"/>
    </comp>
  </station>
  <station code="FSK" name="FSK" netid="HP" source="NOA" insttype="40," lat="38.4593" lon="20.5623">
    <comp name="--.HHE">
      <acc value="0.0843136722" flag="0"/>
      <vel value="0.0453421639" flag="0"/>
      <psa03 value="0.1220936014" flag="0"/>
      <psa10 value="0.0610277930" flag="0"/>
      <psa30 value="0.0128637759" flag="0"/>
    </comp>
    <comp name="--.HHN">
      <acc value="0.0433304325" flag="0"/>
      <vel value="0.0314927083" flag="0"/>
      <psa03 value="0.0759878948" flag="0"/>
      <psa10 value="0.0695887894" flag="0"/>
      <psa30 value="0.0062023733" flag="0"/>
    </comp>
    <comp name="--.HHZ">
      <acc value="0.0339821661" flag="0"/>
      <vel value="0.0228793687" flag="0"/>
      <psa03 value="0.0673297676" flag="0"/>
      <psa10 value="0.0354276424" flag="0"/>
      <psa30 value="0.0038519444" flag="0"/>
    </comp>
  </station>
  <station code="LTHK" name="LTHK" netid="HP" source="NOA" insttype="40," lat="37.7095" lon="20.8367">
    <comp name="--.HHE">
      <acc value="0.8820708932" flag="0"/>
      <vel value="0.1964363165" flag="0"/>
      <psa03 value="1.4083890002" flag="0"/>
      <psa10 value="0.1269335981" flag="0"/>
      <psa30 value="0.0150205309" flag="0"/>
    </comp>
    <comp name="--.HHN">
      <acc value="0.7594660781" flag="0"/>
      <vel value="0.3211223930" flag="0"/>
      <psa03 value="1.7567415680" flag="0"/>
      <psa10 value="0.1859423621" flag="0"/>
      <psa30 value="0.0159542228" flag="0"/>
    </comp>
    <comp name="--.HHZ">
      <acc value="0.5019064805" flag="0"/>
      <vel value="0.0962957587" flag="0"/>
      <psa03 value="0.8059025206" flag="0"/>
      <psa10 value="0.0852693595" flag="0"/>
      <psa30 value="0.0103234550" flag="0"/>
    </comp>
  </station>
  <station code="PYL" name="PYL" netid="HP" source="NOA" insttype="120s" lat="36.8955" lon="21.742">
    <comp name="--.HHE">
      <acc value="0.0513183981" flag="0"/>
      <vel value="0.0176185371" flag="0"/>
      <psa03 value="0.0959439771" flag="0"/>
      <psa10 value="0.0208858009" flag="0"/>
      <psa30 value="0.0049161232" flag="0"/>
    </comp>
    <comp name="--.HHN">
      <acc value="0.0033822337" flag="0"/>
      <vel value="0.0013221723" flag="0"/>
      <psa03 value="0.0090759142" flag="0"/>
      <psa10 value="0.0017749437" flag="0"/>
      <psa30 value="0.0003556117" flag="0"/>
    </comp>
    <comp name="--.HHZ">
      <acc value="0.0014972373" flag="0"/>
      <vel value="0.0005336837" flag="0"/>
      <psa03 value="0.0021168334" flag="0"/>
      <psa10 value="0.0008956150" flag="0"/>
      <psa30 value="0.0001350341" flag="0"/>
    </comp>
  </station>
  <station code="DMLN" name="DMLN" netid="HT" source="NOA" insttype="1s-100Hz," lat="38.2385" lon="20.3734">
    <comp name="--.HHE">
      <acc value="0.2360207929" flag="0"/>
      <vel value="0.1197409203" flag="0"/>
      <psa03 value="0.5230920501" flag="0"/>
      <psa10 value="0.1724032900" flag="0"/>
      <psa30 value="0.0250139747" flag="0"/>
    </comp>
    <comp name="--.HHN">
      <acc value="0.2964700710" flag="0"/>
      <vel value="0.1259877687" flag="0"/>
      <psa03 value="0.5377678175" flag="0"/>
      <psa10 value="0.1541387576" flag="0"/>
      <psa30 value="0.0163813836" flag="0"/>
    </comp>
    <comp name="--.HHZ">
      <acc value="0.1622874580" flag="0"/>
      <vel value="0.0598654673" flag="0"/>
      <psa03 value="0.2598694365" flag="0"/>
      <psa10 value="0.0569115993" flag="0"/>
      <psa30 value="0.0074586143" flag="0"/>
    </comp>
  </station>
  <station code="EVGI" name="EVGI" netid="HT" source="NOA" insttype="30" lat="38.621" lon="20.656">
    <comp name="--.HHE">
      <acc value="0.0796934012" flag="0"/>
      <vel value="0.0235739652" flag="0"/>
      <psa03 value="0.0954887371" flag="0"/>
      <psa10 value="0.0181830845" flag="0"/>
      <psa30 value="0.0062516719" flag="0"/>
    </comp>
    <comp name="--.HHN">
      <acc value="nan" flag="0"/>
      <vel value="-100.0000000000" flag="0"/>
      <psa03 value="0.0000000000" flag="0"/>
      <psa10 value="0.0000000000" flag="0"/>
      <psa30 value="0.0000000000" flag="0"/>
    </comp>
    <comp name="--.HHZ">
      <acc value="0.0621161629" flag="0"/>
      <vel value="0.0165455257" flag="0"/>
      <psa03 value="0.0792350315" flag="0"/>
      <psa10 value="0.0205017229" flag="0"/>
      <psa30 value="0.0026893080" flag="0"/>
    </comp>
  </station>
  <station code="PSDA" name="PSDA" netid="HT" source="NOA" insttype="30" lat="38.114" lon="20.5841">
    <comp name="--.HHE">
      <acc value="0.4569437184" flag="0"/>
      <vel value="0.1222907243" flag="0"/>
      <psa03 value="0.3872164571" flag="0"/>
      <psa10 value="0.0731621339" flag="0"/>
      <psa30 value="0.0086734691" flag="0"/>
    </comp>
    <comp name="--.HHN">
      <acc value="0.3148090179" flag="0"/>
      <vel value="0.1035570481" flag="0"/>
      <psa03 value="0.4314794089" flag="0"/>
      <psa10 value="0.1193776482" flag="0"/>
      <psa30 value="0.0082987226" flag="0"/>
    </comp>
    <comp name="--.HHZ">
      <acc value="0.2633536919" flag="0"/>
      <vel value="0.0591311799" flag="0"/>
      <psa03 value="0.1849890790" flag="0"/>
      <psa10 value="0.0389691709" flag="0"/>
      <psa30 value="0.0045121055" flag="0"/>
    </comp>
  </station>
  <station code="KLV" name="KLV" netid="MN" source="INGV" insttype="" lat="38.0437" lon="22.1504">
    <comp name="--.HHE">
      <acc value="0.0077419058" flag="0"/>
      <vel value="0.0064065830" flag="0"/>
      <psa03 value="0.0245414556" flag="0"/>
      <psa10 value="0.0076858594" flag="0"/>
      <psa30 value="0.0025104631" flag="0"/>
    </comp>
    <comp name="--.HHN">
      <acc value="0.0063919376" flag="0"/>
      <vel value="0.0059521201" flag="0"/>
      <psa03 value="0.0172355376" flag="0"/>
      <psa10 value="0.0093617989" flag="0"/>
      <psa30 value="0.0013507622" flag="0"/>
    </comp>
    <comp name="--.HHZ">
      <acc value="0.0066895061" flag="0"/>
      <vel value="0.0038115058" flag="0"/>
      <psa03 value="0.0131562586" flag="0"/>
      <psa10 value="0.0045024114" flag="0"/>
      <psa30 value="0.0007249795" flag="0"/>
    </comp>
  </station>
</stationlist>
