<stationlist xmlns:esm="https://esm-db.eu/esmws/shakemap/1/" created="1783994225">
	<station code="ROD3" name="ROD3" netid="CL" source="Corinth Riff Laboratory (CRLNET)" insttype="" lat="38.30811" lon="21.89204" esm:processing="manual (Paolucci et al 2011)" esm:quality="good">
		<comp name="00.HNE" depth="0.0">
			<acc value="0.0463823768350787" flag="0"/>
			<vel value="0.0242416714303005" flag="0"/>
			<psa03 value="0.147201859774114" flag="0"/>
			<psa10 value="0.0194454104183671" flag="0"/>
			<psa30 value="0.00880929306107153" flag="0"/>
		</comp>
		<comp name="00.HNN" depth="0.0">
			<acc value="0.0461994831129438" flag="0"/>
			<vel value="0.0286648512436823" flag="0"/>
			<psa03 value="0.105815318652213" flag="0"/>
			<psa10 value="0.034803620262155" flag="0"/>
			<psa30 value="0.00461650087887328" flag="0"/>
		</comp>
		<comp name="00.HNZ" depth="0.0">
			<acc value="0.0189037786681093" flag="0"/>
			<vel value="0.0109637685674391" flag="0"/>
			<psa03 value="0.0391046885843695" flag="0"/>
			<psa10 value="0.019344740453476" flag="0"/>
			<psa30 value="0.00300980823921114" flag="0"/>
		</comp>
	</station>
	<station code="ARG2" name="ARG2" netid="HI" source="ITSAK Strong Motion Network" insttype="" lat="38.1783" lon="20.4878" esm:processing="manual (Paolucci et al 2011)" esm:quality="best">
		<comp name="--.HNE" depth="0.0">
			<acc value="0.25446121426921" flag="0"/>
			<vel value="0.106549984033641" flag="0"/>
			<psa03 value="0.573066379501489" flag="0"/>
			<psa10 value="0.0787219449423318" flag="0"/>
			<psa30 value="0.012918552457373" flag="0"/>
		</comp>
		<comp name="--.HNN" depth="0.0">
			<acc value="0.279060683577315" flag="0"/>
			<vel value="0.123288833922157" flag="0"/>
			<psa03 value="0.367516429493139" flag="0"/>
			<psa10 value="0.0937220236241142" flag="0"/>
			<psa30 value="0.0103817552403529" flag="0"/>
		</comp>
		<comp name="--.HNZ" depth="0.0">
			<acc value="0.199739711439966" flag="0"/>
			<vel value="0.057230650173741" flag="0"/>
			<psa03 value="0.40897271743559" flag="0"/>
			<psa10 value="0.0390285091971952" flag="0"/>
			<psa30 value="0.00959484394467643" flag="0"/>
		</comp>
	</station>
	<station code="ARS1" name="ARS1" netid="HI" source="ITSAK Strong Motion Network" insttype="" lat="37.6349" lon="22.7293" esm:processing="manual (Paolucci et al 2011)" esm:quality="good">
		<comp name="--.HNE" depth="0.0">
			<acc value="0.0152327898050502" flag="0"/>
			<vel value="0.0139018672106607" flag="0"/>
			<psa03 value="0.0346752101291606" flag="0"/>
			<psa10 value="0.0220265883181752" flag="0"/>
			<psa30 value="0.00437534038520079" flag="0"/>
		</comp>
		<comp name="--.HNN" depth="0.0">
			<acc value="0.0147432578322299" flag="0"/>
			<vel value="0.0141723283738282" flag="0"/>
			<psa03 value="0.0429525183535409" flag="0"/>
			<psa10 value="0.0202628505332829" flag="0"/>
			<psa30 value="0.00288676717101089" flag="0"/>
		</comp>
		<comp name="--.HNZ" depth="0.0">
			<acc value="0.0116049469922617" flag="0"/>
			<vel value="0.00914578093726119" flag="0"/>
			<psa03 value="0.0317669666989729" flag="0"/>
			<psa10 value="0.00968847742112057" flag="0"/>
			<psa30 value="0.00414581286524906" flag="0"/>
		</comp>
	</station>
	<station code="KLV1" name="KLV1" netid="HI" source="ITSAK Strong Motion Network" insttype="" lat="38.03256" lon="22.10797" esm:processing="manual (Paolucci et al 2011)" esm:quality="good">
		<comp name="--.HNE" depth="0.0">
			<acc value="0.0235372511856423" flag="0"/>
			<vel value="0.0134811269801595" flag="0"/>
			<psa03 value="0.0611625964471775" flag="0"/>
			<psa10 value="0.0190185697672288" flag="0"/>
			<psa30 value="0.00292748257903352" flag="0"/>
		</comp>
		<comp name="--.HNN" depth="0.0">
			<acc value="0.0277566419217403" flag="0"/>
			<vel value="0.0188850370814126" flag="0"/>
			<psa03 value="0.0633102223648545" flag="0"/>
			<psa10 value="0.020307145317835" flag="0"/>
			<psa30 value="0.00296059181193104" flag="0"/>
		</comp>
		<comp name="--.HNZ" depth="0.0">
			<acc value="0.0106384917058398" flag="0"/>
			<vel value="0.0131333027229995" flag="0"/>
			<psa03 value="0.0209840949039695" flag="0"/>
			<psa10 value="0.0188293102332335" flag="0"/>
			<psa30 value="0.00322546567511121" flag="0"/>
		</comp>
	</station>
	<station code="MSL1" name="MSL1" netid="HI" source="ITSAK Strong Motion Network" insttype="" lat="38.3727" lon="21.4243" esm:processing="manual (Paolucci et al 2011)" esm:quality="best">
		<comp name="--.HNE" depth="0.0">
			<acc value="0.0579345141851228" flag="0"/>
			<vel value="0.0588544438391997" flag="0"/>
			<psa03 value="0.13592682370631" flag="0"/>
			<psa10 value="0.128640107936458" flag="0"/>
			<psa30 value="0.0127488443538104" flag="0"/>
		</comp>
		<comp name="--.HNN" depth="0.0">
			<acc value="0.0472637571535732" flag="0"/>
			<vel value="0.0461570751364237" flag="0"/>
			<psa03 value="0.199908179170438" flag="0"/>
			<psa10 value="0.0937962196883464" flag="0"/>
			<psa30 value="0.0094415004405877" flag="0"/>
		</comp>
		<comp name="--.HNZ" depth="0.0">
			<acc value="0.0261212200980322" flag="0"/>
			<vel value="0.0231168396153021" flag="0"/>
			<psa03 value="0.068992482605375" flag="0"/>
			<psa10 value="0.0385606233518913" flag="0"/>
			<psa30 value="0.00393373480587845" flag="0"/>
		</comp>
	</station>
	<station code="NPS1" name="NPS1" netid="HI" source="ITSAK Strong Motion Network" insttype="" lat="36.51263" lon="23.06248" esm:processing="manual (Paolucci et al 2011)" esm:quality="good">
		<comp name="--.HNE" depth="0.0">
			<acc value="0.0107993739142866" flag="0"/>
			<vel value="0.00978828278005066" flag="0"/>
			<psa03 value="0.0317669666989729" flag="0"/>
			<psa10 value="0.0203433865051958" flag="0"/>
			<psa30 value="0.00226171854455364" flag="0"/>
		</comp>
		<comp name="--.HNN" depth="0.0">
			<acc value="0.00969517268214643" flag="0"/>
			<vel value="0.0100371860816139" flag="0"/>
			<psa03 value="0.02304223640841" flag="0"/>
			<psa10 value="0.0159944440218998" flag="0"/>
			<psa30 value="0.00312434828815392" flag="0"/>
		</comp>
		<comp name="--.HNZ" depth="0.0">
			<acc value="0.00562745579758899" flag="0"/>
			<vel value="0.00402480301600473" flag="0"/>
			<psa03 value="0.0164203898289057" flag="0"/>
			<psa10 value="0.00732877344407291" flag="0"/>
			<psa30 value="0.00196955193533632" flag="0"/>
		</comp>
	</station>
	<station code="PYL1" name="PYL1" netid="HI" source="ITSAK Strong Motion Network" insttype="" lat="36.914188" lon="21.695161" esm:processing="manual (Paolucci et al 2011)" esm:quality="best">
		<comp name="--.HNE" depth="0.0">
			<acc value="0.0798171528897001" flag="0"/>
			<vel value="0.0386403534352849" flag="0"/>
			<psa03 value="0.352692989179686" flag="0"/>
			<psa10 value="0.036368758001727" flag="0"/>
			<psa30 value="0.00659845378186676" flag="0"/>
		</comp>
		<comp name="--.HNN" depth="0.0">
			<acc value="0.062520910216201" flag="0"/>
			<vel value="0.0301369591871154" flag="0"/>
			<psa03 value="0.152834562039667" flag="0"/>
			<psa10 value="0.0220517908229352" flag="0"/>
			<psa30 value="0.0116661986617372" flag="0"/>
		</comp>
		<comp name="--.HNZ" depth="0.0">
			<acc value="0.0428948217108326" flag="0"/>
			<vel value="0.0175864883991993" flag="0"/>
			<psa03 value="0.0885598249872258" flag="0"/>
			<psa10 value="0.0154601900992243" flag="0"/>
			<psa30 value="0.00343241154708592" flag="0"/>
		</comp>
	</station>
	<station code="ARTB" name="ARTB" netid="HL" source="National Observatory of Athens Seismic Network" insttype="" lat="39.15702" lon="20.9785" esm:processing="automatic (Paolucci et al 2011)" esm:quality="best">
		<comp name="00.HNE" depth="0.0">
			<acc value="0.0294654782819036" flag="0"/>
			<vel value="0.0138864447556633" flag="0"/>
			<psa03 value="0.0873385878360875" flag="0"/>
			<psa10 value="0.0129398665776565" flag="0"/>
			<psa30 value="0.00252898003251667" flag="0"/>
		</comp>
		<comp name="00.HNN" depth="0.0">
			<acc value="0.0208878252434501" flag="0"/>
			<vel value="0.0125059597238492" flag="0"/>
			<psa03 value="0.0922394749958302" flag="0"/>
			<psa10 value="0.0115280602399209" flag="0"/>
			<psa30 value="0.00271524257982766" flag="0"/>
		</comp>
		<comp name="00.HNZ" depth="0.0">
			<acc value="0.0098401852234214" flag="0"/>
			<vel value="0.00977608309008643" flag="0"/>
			<psa03 value="0.0227060093700236" flag="0"/>
			<psa10 value="0.00917134599416134" flag="0"/>
			<psa30 value="0.00395225306736959" flag="0"/>
		</comp>
	</station>
	<station code="ITM" name="ITM" netid="HL" source="National Observatory of Athens Seismic Network" insttype="" lat="37.17872" lon="21.92522" esm:processing="manual (Paolucci et al 2011)" esm:quality="good">
		<comp name="--.HNE" depth="0.0">
			<acc value="0.0451269289936841" flag="0"/>
			<vel value="0.0260076276523339" flag="0"/>
			<psa03 value="0.105994287478686" flag="0"/>
			<psa10 value="0.0211245854327508" flag="0"/>
			<psa30 value="0.00796903442078038" flag="0"/>
		</comp>
		<comp name="--.HNN" depth="0.0">
			<acc value="0.0543815934603315" flag="0"/>
			<vel value="0.0367187063472615" flag="0"/>
			<psa03 value="0.153599995320527" flag="0"/>
			<psa10 value="0.0306761517016195" flag="0"/>
			<psa30 value="0.0111663125057221" flag="0"/>
		</comp>
		<comp name="--.HNZ" depth="0.0">
			<acc value="0.0305339956542057" flag="0"/>
			<vel value="0.0183544718808601" flag="0"/>
			<psa03 value="0.0717664994157079" flag="0"/>
			<psa10 value="0.0223487322058267" flag="0"/>
			<psa30 value="0.00526436803070585" flag="0"/>
		</comp>
	</station>
	<station code="KIAA" name="KIAA" netid="HL" source="National Observatory of Athens Seismic Network" insttype="" lat="38.0139" lon="22.7495" esm:processing="manual (Paolucci et al 2011)" esm:quality="good">
		<comp name="00.HNE" depth="0.0">
			<acc value="0.0235152276840351" flag="0"/>
			<vel value="0.0365290386699082" flag="0"/>
			<psa03 value="0.0519744638864884" flag="0"/>
			<psa10 value="0.0661293232431189" flag="0"/>
			<psa30 value="0.014998500243699" flag="0"/>
		</comp>
		<comp name="00.HNN" depth="0.0">
			<acc value="0.0275328484040092" flag="0"/>
			<vel value="0.0527024419287557" flag="0"/>
			<psa03 value="0.0541931681564241" flag="0"/>
			<psa10 value="0.0684441190869832" flag="0"/>
			<psa30 value="0.0171338000301637" flag="0"/>
		</comp>
		<comp name="00.HNZ" depth="0.0">
			<acc value="0.0146367778015671" flag="0"/>
			<vel value="0.0152807680844316" flag="0"/>
			<psa03 value="0.0343455095964517" flag="0"/>
			<psa10 value="0.0274274700602844" flag="0"/>
			<psa30 value="0.00689840323535873" flag="0"/>
		</comp>
	</station>
	<station code="NPLA" name="NPLA" netid="HL" source="National Observatory of Athens Seismic Network" insttype="" lat="37.56561" lon="22.79975" esm:processing="manual (Paolucci et al 2011)" esm:quality="good">
		<comp name="00.HNE" depth="0.0">
			<acc value="0.0118972636446219" flag="0"/>
			<vel value="0.00717909760708908" flag="0"/>
			<psa03 value="0.0620069826582866" flag="0"/>
			<psa10 value="0.0124281639298661" flag="0"/>
			<psa30 value="0.00202775016182987" flag="0"/>
		</comp>
		<comp name="00.HNN" depth="0.0">
			<acc value="0.00702633430185199" flag="0"/>
			<vel value="0.0073173920039342" flag="0"/>
			<psa03 value="0.0272789086563205" flag="0"/>
			<psa10 value="0.00946123832310555" flag="0"/>
			<psa30 value="0.00284325668513474" flag="0"/>
		</comp>
		<comp name="00.HNZ" depth="0.0">
			<acc value="0.00359061695709238" flag="0"/>
			<vel value="0.00658757504097085" flag="0"/>
			<psa03 value="0.00862557726153644" flag="0"/>
			<psa10 value="0.00886065572495593" flag="0"/>
			<psa30 value="0.00403680033487726" flag="0"/>
		</comp>
	</station>
	<station code="PATC" name="PATC" netid="HL" source="National Observatory of Athens Seismic Network" insttype="" lat="38.26933" lon="21.76001" esm:processing="manual (Paolucci et al 2011)" esm:quality="good">
		<comp name="00.HNE" depth="0.0">
			<acc value="0.0351996258545281" flag="0"/>
			<vel value="0.05822146634046" flag="0"/>
			<psa03 value="0.134405588681288" flag="0"/>
			<psa10 value="0.0721159360493966" flag="0"/>
			<psa30 value="0.0233102422260534" flag="0"/>
		</comp>
		<comp name="00.HNN" depth="0.0">
			<acc value="0.0458920214725836" flag="0"/>
			<vel value="0.044770145094369" flag="0"/>
			<psa03 value="0.145322687096147" flag="0"/>
			<psa10 value="0.0844943149324077" flag="0"/>
			<psa30 value="0.0207693323122017" flag="0"/>
		</comp>
		<comp name="00.HNZ" depth="0.0">
			<acc value="0.0271060008074291" flag="0"/>
			<vel value="0.0247301235640386" flag="0"/>
			<psa03 value="0.0557935316529849" flag="0"/>
			<psa10 value="0.0388626332465647" flag="0"/>
			<psa30 value="0.00863345618906172" flag="0"/>
		</comp>
	</station>
	<station code="PATG" name="PATG" netid="HL" source="National Observatory of Athens Seismic Network" insttype="" lat="38.23865" lon="21.72657" esm:processing="manual (Paolucci et al 2011)" esm:quality="good">
		<comp name="00.HNE" depth="0.0">
			<acc value="0.0574930943989169" flag="0"/>
			<vel value="0.0460407080417191" flag="0"/>
			<psa03 value="0.135568886053363" flag="0"/>
			<psa10 value="0.0575590591261419" flag="0"/>
			<psa30 value="0.0261343703077987" flag="0"/>
		</comp>
		<comp name="00.HNN" depth="0.0">
			<acc value="0.0541993171972678" flag="0"/>
			<vel value="0.0505036193261192" flag="0"/>
			<psa03 value="0.130289305672407" flag="0"/>
			<psa10 value="0.0832862753537143" flag="0"/>
			<psa30 value="0.0292945123612472" flag="0"/>
		</comp>
		<comp name="00.HNZ" depth="0.0">
			<acc value="0.0231393367300248" flag="0"/>
			<vel value="0.0370869426419871" flag="0"/>
			<psa03 value="0.0693951624649395" flag="0"/>
			<psa10 value="0.0388505528507777" flag="0"/>
			<psa30 value="0.0143430091756194" flag="0"/>
		</comp>
	</station>
	<station code="RIOA" name="RIOA" netid="HL" source="National Observatory of Athens Seismic Network" insttype="" lat="38.29585" lon="21.79118" esm:processing="manual (Paolucci et al 2011)" esm:quality="good">
		<comp name="00.HNE" depth="0.0">
			<acc value="0.0213521108334194" flag="0"/>
			<vel value="0.0285523943769116" flag="0"/>
			<psa03 value="0.0446527222050352" flag="0"/>
			<psa10 value="0.0412666320081644" flag="0"/>
			<psa30 value="0.0128978359018492" flag="0"/>
		</comp>
		<comp name="00.HNN" depth="0.0">
			<acc value="0.0228095573062854" flag="0"/>
			<vel value="0.0250035179318573" flag="0"/>
			<psa03 value="0.0467108637094757" flag="0"/>
			<psa10 value="0.0350089869905329" flag="0"/>
			<psa30 value="0.0124669684521152" flag="0"/>
		</comp>
		<comp name="00.HNZ" depth="0.0">
			<acc value="0.0183551433432229" flag="0"/>
			<vel value="0.0174574807929258" flag="0"/>
			<psa03 value="0.0270690350040544" flag="0"/>
			<psa10 value="0.0163488022983165" flag="0"/>
			<psa30 value="0.00451090927125416" flag="0"/>
		</comp>
	</station>
	<station code="SMHA" name="SMHA" netid="HL" source="National Observatory of Athens Seismic Network" insttype="" lat="38.25123" lon="20.6477" esm:processing="automatic (Paolucci et al 2011)" esm:quality="best">
		<comp name="00.HNE" depth="0.0">
			<acc value="0.274598190356803" flag="0"/>
			<vel value="0.129628500605819" flag="0"/>
			<psa03 value="0.797209394544103" flag="0"/>
			<psa10 value="0.115477079789689" flag="0"/>
			<psa30 value="0.0144496222165408" flag="0"/>
		</comp>
		<comp name="00.HNN" depth="0.0">
			<acc value="0.279066163146522" flag="0"/>
			<vel value="0.146193253165102" flag="0"/>
			<psa03 value="0.947302420802488" flag="0"/>
			<psa10 value="0.0989263108826028" flag="0"/>
			<psa30 value="0.0124834211320367" flag="0"/>
		</comp>
		<comp name="00.HNZ" depth="0.0">
			<acc value="0.130428425189186" flag="0"/>
			<vel value="0.0634769124466596" flag="0"/>
			<psa03 value="0.303980637225187" flag="0"/>
			<psa10 value="0.0563566596019629" flag="0"/>
			<psa30 value="0.00483125171337341" flag="0"/>
		</comp>
	</station>
	<station code="ZARA" name="ZARA" netid="HL" source="National Observatory of Athens Seismic Network" insttype="" lat="37.4865" lon="21.6491" esm:processing="manual (Paolucci et al 2011)" esm:quality="good">
		<comp name="00.HNE" depth="0.0">
			<acc value="0.157857563160077" flag="0"/>
			<vel value="0.0774021014232117" flag="0"/>
			<psa03 value="0.427348309728203" flag="0"/>
			<psa10 value="0.102332346515736" flag="0"/>
			<psa30 value="0.0133700865359494" flag="0"/>
		</comp>
		<comp name="00.HNN" depth="0.0">
			<acc value="0.172731821439154" flag="0"/>
			<vel value="0.0906950937713482" flag="0"/>
			<psa03 value="0.476896675397591" flag="0"/>
			<psa10 value="0.0654019025550684" flag="0"/>
			<psa30 value="0.01584195111818" flag="0"/>
		</comp>
		<comp name="00.HNZ" depth="0.0">
			<acc value="0.126156484645819" flag="0"/>
			<vel value="0.0527948493924684" flag="0"/>
			<psa03 value="0.224280544985393" flag="0"/>
			<psa10 value="0.061766509228102" flag="0"/>
			<psa30 value="0.00680186975715623" flag="0"/>
		</comp>
	</station>
	<station code="ANX" name="ANX" netid="HP" source="University of Patras, Seismological Laboratory (PSLNET)" insttype="" lat="38.5933" lon="21.9209" esm:processing="manual (Paolucci et al 2011)" esm:quality="good">
		<comp name="--.HNE" depth="0.0">
			<acc value="0.0231728814199847" flag="0"/>
			<vel value="0.014460999301196" flag="0"/>
			<psa03 value="0.0530021361313977" flag="0"/>
			<psa10 value="0.0263473047546341" flag="0"/>
			<psa30 value="0.00598445602417475" flag="0"/>
		</comp>
		<comp name="--.HNN" depth="0.0">
			<acc value="0.0235923307885338" flag="0"/>
			<vel value="0.021085691291956" flag="0"/>
			<psa03 value="0.0914226187998165" flag="0"/>
			<psa10 value="0.0295845998345453" flag="0"/>
			<psa30 value="0.00497208312610538" flag="0"/>
		</comp>
		<comp name="--.HNZ" depth="0.0">
			<acc value="0.0169529727693513" flag="0"/>
			<vel value="0.0135637347069398" flag="0"/>
			<psa03 value="0.0344741639525048" flag="0"/>
			<psa10 value="0.0135446541418632" flag="0"/>
			<psa30 value="0.00515808003082083" flag="0"/>
		</comp>
	</station>
	<station code="FSK" name="FSK" netid="HP" source="University of Patras, Seismological Laboratory (PSLNET)" insttype="" lat="38.4593" lon="20.5623" esm:processing="manual (Paolucci et al 2011)" esm:quality="good">
		<comp name="--.HNE" depth="0.0">
			<acc value="0.0910471413893856" flag="0"/>
			<vel value="0.0453233259543504" flag="0"/>
			<psa03 value="0.114204867595323" flag="0"/>
			<psa10 value="0.0684403688385476" flag="0"/>
			<psa30 value="0.0126535557359671" flag="0"/>
		</comp>
		<comp name="--.HNN" depth="0.0">
			<acc value="0.0349272524485525" flag="0"/>
			<vel value="0.0326407858437867" flag="0"/>
			<psa03 value="0.0825515259251173" flag="0"/>
			<psa10 value="0.0804035488405105" flag="0"/>
			<psa30 value="0.00876299217189152" flag="0"/>
		</comp>
		<comp name="--.HNZ" depth="0.0">
			<acc value="0.035841064502686" flag="0"/>
			<vel value="0.0236373717751248" flag="0"/>
			<psa03 value="0.0691749158320143" flag="0"/>
			<psa10 value="0.0350240389206894" flag="0"/>
			<psa30 value="0.00395174261688755" flag="0"/>
		</comp>
	</station>
	<station code="AGRP" name="AGRP" netid="CL" source="Corinth Riff Laboratory (CRLNET)" insttype="" lat="38.3959" lon="21.72277" esm:processing="discarded" esm:quality="bad">
		<comp name="00.HNE" depth="0.0">
			<acc value="0" flag="1"/>
			<vel value="0" flag="1"/>
			<psa03 value="0" flag="1"/>
			<psa10 value="0" flag="1"/>
			<psa30 value="0" flag="1"/>
		</comp>
		<comp name="00.HNN" depth="0.0">
			<acc value="0" flag="1"/>
			<vel value="0" flag="1"/>
			<psa03 value="0" flag="1"/>
			<psa10 value="0" flag="1"/>
			<psa30 value="0" flag="1"/>
		</comp>
		<comp name="00.HNZ" depth="0.0">
			<acc value="0" flag="1"/>
			<vel value="0" flag="1"/>
			<psa03 value="0" flag="1"/>
			<psa10 value="0" flag="1"/>
			<psa30 value="0" flag="1"/>
		</comp>
	</station>
