<?xml version="1.0" encoding="UTF-8" standalone="yes"?>
<!DOCTYPE earthquake SYSTEM "stationlist.dtd">
<stationlist created="" xmlns="ch.ethz.sed.shakemap.usgs.xml">
  <station code="STIA" name="STIA" netid="HC" insttype="120" lat="35.2021" lon="26.0909">
    <comp name="--.HHZ">
      <acc value="0.0211700102" flag="0"/>
      <vel value="0.0073163635" flag="0"/>
      <psa03 value="0.0503095842" flag="0"/>
      <psa10 value="0.0096955996" flag="0"/>
      <psa30 value="0.0015478615" flag="0"/>
    </comp>
    <comp name="--.HHE">
      <acc value="0.0188833205" flag="0"/>
      <vel value="0.0103504062" flag="0"/>
      <psa03 value="0.0458664935" flag="0"/>
      <psa10 value="0.0157911275" flag="0"/>
      <psa30 value="0.0023283178" flag="0"/>
    </comp>
    <comp name="--.HHN">
      <acc value="0.0174819016" flag="0"/>
      <vel value="0.0095320829" flag="0"/>
      <psa03 value="0.0579834849" flag="0"/>
      <psa10 value="0.0204090350" flag="0"/>
      <psa30 value="0.0017107263" flag="0"/>
    </comp>
  </station>
  <station code="SIT2" name="SIT2" netid="HI" insttype="CMG-5TD,ACCELEROMETER,GURALP" lat="35.2059" lon="26.107">
    <comp name="--.HNN">
      <acc value="0.0515593903" flag="0"/>
      <vel value="0.0340608256" flag="0"/>
      <psa03 value="0.1494507961" flag="0"/>
      <psa10 value="0.0271502648" flag="0"/>
      <psa30 value="0.0028147887" flag="0"/>
    </comp>
    <comp name="--.HNZ">
      <acc value="0.0313323575" flag="0"/>
      <vel value="0.0137444627" flag="0"/>
      <psa03 value="0.0707028069" flag="0"/>
      <psa10 value="0.0078569600" flag="0"/>
      <psa30 value="0.0015767597" flag="0"/>
    </comp>
    <comp name="--.HNE">
      <acc value="0.0529678893" flag="0"/>
      <vel value="0.0367906921" flag="0"/>
      <psa03 value="0.2185133897" flag="0"/>
      <psa10 value="0.0273476820" flag="0"/>
      <psa30 value="0.0084157435" flag="0"/>
    </comp>
  </station>
  <station code="NPS" name="NPS" netid="HL" insttype="CMG3ESPC-120s" lat="35.2613" lon="25.6104">
    <comp name="--.HHE">
      <acc value="0.0056217380" flag="0"/>
      <vel value="0.0021628735" flag="0"/>
      <psa03 value="0.0108402400" flag="0"/>
      <psa10 value="0.0021188813" flag="0"/>
      <psa30 value="0.0005458823" flag="0"/>
    </comp>
    <comp name="--.HHZ">
      <acc value="0.0086424334" flag="0"/>
      <vel value="0.0033117449" flag="0"/>
      <psa03 value="0.0130909996" flag="0"/>
      <psa10 value="0.0031629322" flag="0"/>
      <psa30 value="0.0014035470" flag="0"/>
    </comp>
    <comp name="--.HHN">
      <acc value="0.0131507722" flag="0"/>
      <vel value="0.0037163967" flag="0"/>
      <psa03 value="0.0244163578" flag="0"/>
      <psa10 value="0.0040284120" flag="0"/>
      <psa30 value="0.0012810448" flag="0"/>
    </comp>
  </station>
</stationlist>
