<stationlist created="1778136256">
	<station code="SIVA" name="SIVA" netid="HL" source="National Observatory of Athens Seismic Network" insttype="" lat="35.01777" lon="24.81204">
		<comp name="00.HNE" depth="0.0">
			<acc value="0.019923104957977" flag="0"/>
			<vel value="0.0136203389031514" flag="0"/>
			<psa03 value="0.0775829862760832" flag="0"/>
			<psa10 value="0.00856097381434012" flag="0"/>
			<psa30 value="0.0014679917991455" flag="0"/>
		</comp>
		<comp name="00.HNN" depth="0.0">
			<acc value="0.0168831357215638" flag="0"/>
			<vel value="0.00756053977180995" flag="0"/>
			<psa03 value="0.0448764332381266" flag="0"/>
			<psa10 value="0.00846433064804465" flag="0"/>
			<psa30 value="0.00221518664967063" flag="0"/>
		</comp>
		<comp name="00.HNZ" depth="0.0">
			<acc value="0.0106316049551687" flag="0"/>
			<vel value="0.00674224890773016" flag="0"/>
			<psa03 value="0.031453771252645" flag="0"/>
			<psa10 value="0.00479189032881691" flag="0"/>
			<psa30 value="0.00100669964891111" flag="0"/>
		</comp>
	</station>
</stationlist>
