<?xml version="1.0" encoding="UTF-8" standalone="yes"?>
<!DOCTYPE earthquake SYSTEM "stationlist.dtd">
<stationlist created="" xmlns="ch.ethz.sed.shakemap.usgs.xml">
  <station code="PSAM" name="PSAM" netid="CL" insttype="CMG40-T" lat="38.3218" lon="22.1842">
    <comp name="00.HHN">
      <acc value="0.0158794410" flag="0"/>
      <vel value="0.0173814664" flag="0"/>
      <psa03 value="0.0323744201" flag="0"/>
      <psa10 value="0.0360881631" flag="0"/>
      <psa30 value="0.0032232396" flag="0"/>
    </comp>
    <comp name="00.HHE">
      <acc value="0.0153996810" flag="0"/>
      <vel value="0.0166217522" flag="0"/>
      <psa03 value="0.0374588022" flag="0"/>
      <psa10 value="0.0363764342" flag="0"/>
      <psa30 value="0.0025750071" flag="0"/>
    </comp>
    <comp name="00.HHZ">
      <acc value="0.0096451491" flag="0"/>
      <vel value="0.0085530212" flag="0"/>
      <psa03 value="0.0165645909" flag="0"/>
      <psa10 value="0.0137979877" flag="0"/>
      <psa30 value="0.0011667087" flag="0"/>
    </comp>
  </station>
  <station code="TRIZ" name="TRIZ" netid="CL" insttype="STS-2" lat="38.3654" lon="22.0727">
    <comp name="00.HHZ">
      <acc value="0.0094447466" flag="0"/>
      <vel value="0.0100561466" flag="0"/>
      <psa03 value="0.0239504390" flag="0"/>
      <psa10 value="0.0234115769" flag="0"/>
      <psa30 value="0.0010797473" flag="0"/>
    </comp>
    <comp name="00.HH3">
      <acc value="0.0224840386" flag="0"/>
      <vel value="0.0235129519" flag="0"/>
      <psa03 value="0.0698405012" flag="0"/>
      <psa10 value="0.0509382597" flag="0"/>
      <psa30 value="0.0025747201" flag="0"/>
    </comp>
    <comp name="00.HH2">
      <acc value="0.0223861084" flag="0"/>
      <vel value="0.0208440891" flag="0"/>
      <psa03 value="0.0587383955" flag="0"/>
      <psa10 value="0.0414195475" flag="0"/>
      <psa30 value="0.0023043328" flag="0"/>
    </comp>
  </station>
  <station code="ZIRI" name="ZIRI" netid="CL" insttype="TRILLIUM-40" lat="38.3051" lon="21.9476">
    <comp name="01.HHN">
      <acc value="0.0519833418" flag="0"/>
      <vel value="0.0381069493" flag="0"/>
      <psa03 value="0.1450126001" flag="0"/>
      <psa10 value="0.0545788331" flag="0"/>
      <psa30 value="0.0030547049" flag="0"/>
    </comp>
    <comp name="01.HHE">
      <acc value="0.0489902900" flag="0"/>
      <vel value="0.0331941512" flag="0"/>
      <psa03 value="0.1378475040" flag="0"/>
      <psa10 value="0.0381482769" flag="0"/>
      <psa30 value="0.0028214620" flag="0"/>
    </comp>
    <comp name="01.HHZ">
      <acc value="0.0291856293" flag="0"/>
      <vel value="0.0138764642" flag="0"/>
      <psa03 value="0.0882185113" flag="0"/>
      <psa10 value="0.0159060344" flag="0"/>
      <psa30 value="0.0020739874" flag="0"/>
    </comp>
  </station>
  <station code="ACOR" name="ACOR" netid="HA" insttype="Horizon,120s,1200" lat="37.8905" lon="22.8694">
    <comp name="--.HHE">
      <acc value="0.0041723467" flag="0"/>
      <vel value="0.0044390451" flag="0"/>
      <psa03 value="0.0112584840" flag="0"/>
      <psa10 value="0.0094271810" flag="0"/>
      <psa30 value="0.0012664768" flag="0"/>
    </comp>
    <comp name="--.HHN">
      <acc value="0.0042779520" flag="0"/>
      <vel value="0.0062529252" flag="0"/>
      <psa03 value="0.0112514314" flag="0"/>
      <psa10 value="0.0072663018" flag="0"/>
      <psa30 value="0.0031578963" flag="0"/>
    </comp>
    <comp name="--.HHZ">
      <acc value="0.0042640013" flag="0"/>
      <vel value="0.0039483663" flag="0"/>
      <psa03 value="0.0109896949" flag="0"/>
      <psa10 value="0.0067704488" flag="0"/>
      <psa30 value="0.0008423406" flag="0"/>
    </comp>
  </station>
  <station code="ATHR" name="ATHR" netid="HA" insttype="GEOtiny," lat="38.3172" lon="20.4165">
    <comp name="--.HHZ">
      <acc value="0.0308838847" flag="0"/>
      <vel value="0.0147854778" flag="0"/>
      <psa03 value="0.0682968181" flag="0"/>
      <psa10 value="0.0107088730" flag="0"/>
      <psa30 value="0.0015460503" flag="0"/>
    </comp>
    <comp name="--.HHN">
      <acc value="0.0346663074" flag="0"/>
      <vel value="0.0225626993" flag="0"/>
      <psa03 value="0.1132227361" flag="0"/>
      <psa10 value="0.0203269850" flag="0"/>
      <psa30 value="0.0014215377" flag="0"/>
    </comp>
    <comp name="--.HHE">
      <acc value="0.0365407064" flag="0"/>
      <vel value="0.0201140087" flag="0"/>
      <psa03 value="0.0608035024" flag="0"/>
      <psa10 value="0.0204292486" flag="0"/>
      <psa30 value="0.0019724430" flag="0"/>
    </comp>
  </station>
  <station code="HAVD" name="HAVD" netid="HA" insttype="GEOtiny," lat="38.2036" lon="20.3848">
    <comp name="--.HHE">
      <acc value="0.0819448731" flag="0"/>
      <vel value="0.0285498903" flag="0"/>
      <psa03 value="0.2021396895" flag="0"/>
      <psa10 value="0.0286856295" flag="0"/>
      <psa30 value="0.0020355444" flag="0"/>
    </comp>
    <comp name="--.HHZ">
      <acc value="0.0621620840" flag="0"/>
      <vel value="0.0237109725" flag="0"/>
      <psa03 value="0.1610215500" flag="0"/>
      <psa10 value="0.0136217069" flag="0"/>
      <psa30 value="0.0013985966" flag="0"/>
    </comp>
    <comp name="--.HHN">
      <acc value="0.0864656430" flag="0"/>
      <vel value="0.0438120082" flag="0"/>
      <psa03 value="0.2886668037" flag="0"/>
      <psa10 value="0.0317814651" flag="0"/>
      <psa30 value="0.0030970400" flag="0"/>
    </comp>
  </station>
  <station code="KALE" name="KALE" netid="HA" insttype="40," lat="38.3911" lon="22.1398">
    <comp name="--.HHZ">
      <acc value="0.0101499682" flag="0"/>
      <vel value="0.0090076309" flag="0"/>
      <psa03 value="0.0183585825" flag="0"/>
      <psa10 value="0.0112843417" flag="0"/>
      <psa30 value="0.0016996265" flag="0"/>
    </comp>
    <comp name="--.HHN">
      <acc value="0.0172112552" flag="0"/>
      <vel value="0.0148517765" flag="0"/>
      <psa03 value="0.0469032990" flag="0"/>
      <psa10 value="0.0306291182" flag="0"/>
      <psa30 value="0.0022263964" flag="0"/>
    </comp>
    <comp name="--.HHE">
      <acc value="0.0193486369" flag="0"/>
      <vel value="0.0168319320" flag="0"/>
      <psa03 value="0.0455044653" flag="0"/>
      <psa10 value="0.0211342738" flag="0"/>
      <psa30 value="0.0019124846" flag="0"/>
    </comp>
  </station>
  <station code="LAKA" name="LAKA" netid="HA" insttype="120s," lat="38.2401" lon="21.9785">
    <comp name="--.HHE">
      <acc value="0.0114957444" flag="0"/>
      <vel value="0.0104001681" flag="0"/>
      <psa03 value="0.0235915961" flag="0"/>
      <psa10 value="0.0137812539" flag="0"/>
      <psa30 value="0.0022472558" flag="0"/>
    </comp>
    <comp name="--.HHZ">
      <acc value="0.0079671644" flag="0"/>
      <vel value="0.0091572019" flag="0"/>
      <psa03 value="0.0207867518" flag="0"/>
      <psa10 value="0.0223017595" flag="0"/>
      <psa30 value="0.0018449872" flag="0"/>
    </comp>
    <comp name="--.HHN">
      <acc value="0.0118988567" flag="0"/>
      <vel value="0.0171316811" flag="0"/>
      <psa03 value="0.0250202063" flag="0"/>
      <psa10 value="0.0317436442" flag="0"/>
      <psa30 value="0.0026869788" flag="0"/>
    </comp>
  </station>
  <station code="THAL" name="THAL" netid="HA" insttype="30" lat="38.0357" lon="22.6634">
    <comp name="--.HHE">
      <acc value="0.0310679180" flag="0"/>
      <vel value="0.0258987862" flag="0"/>
      <psa03 value="0.0845636137" flag="0"/>
      <psa10 value="0.0505798663" flag="0"/>
      <psa30 value="0.0045022833" flag="0"/>
    </comp>
    <comp name="--.HHZ">
      <acc value="0.0182763047" flag="0"/>
      <vel value="0.0124054777" flag="0"/>
      <psa03 value="0.0437222207" flag="0"/>
      <psa10 value="0.0290421396" flag="0"/>
      <psa30 value="0.0018136695" flag="0"/>
    </comp>
    <comp name="--.HHN">
      <acc value="0.0272053858" flag="0"/>
      <vel value="0.0307993322" flag="0"/>
      <psa03 value="0.0806892584" flag="0"/>
      <psa10 value="0.0493601359" flag="0"/>
      <psa30 value="0.0043250852" flag="0"/>
    </comp>
  </station>
  <station code="ARG2" name="ARG2" netid="HI" insttype="CMG-5TD,ACCELEROMETER,GURALP" lat="38.1783" lon="20.4878">
    <comp name="--.HNE">
      <acc value="0.2372575072" flag="0"/>
      <vel value="0.1033686252" flag="0"/>
      <psa03 value="0.6604418690" flag="0"/>
      <psa10 value="0.0626204140" flag="0"/>
      <psa30 value="0.0038274853" flag="0"/>
    </comp>
    <comp name="--.HNZ">
      <acc value="0.1326160240" flag="0"/>
      <vel value="0.0464505553" flag="0"/>
      <psa03 value="0.2962230997" flag="0"/>
      <psa10 value="0.0218226057" flag="0"/>
      <psa30 value="0.0029410834" flag="0"/>
    </comp>
    <comp name="--.HNN">
      <acc value="0.2365316421" flag="0"/>
      <vel value="0.1134184182" flag="0"/>
      <psa03 value="0.4324688249" flag="0"/>
      <psa10 value="0.0476399913" flag="0"/>
      <psa30 value="0.0039018328" flag="0"/>
    </comp>
  </station>
  <station code="MSL1" name="MSL1" netid="HI" insttype="CMG-5TD,ACCELEROMETER,GURALP" lat="38.3727" lon="21.4243">
    <comp name="--.HNN">
      <acc value="0.0610762378" flag="0"/>
      <vel value="0.0674643613" flag="0"/>
      <psa03 value="0.1452328192" flag="0"/>
      <psa10 value="0.1126881994" flag="0"/>
      <psa30 value="0.0091938508" flag="0"/>
    </comp>
    <comp name="--.HNE">
      <acc value="0.0579287569" flag="0"/>
      <vel value="0.0680101329" flag="0"/>
      <psa03 value="0.1463101197" flag="0"/>
      <psa10 value="0.1274109691" flag="0"/>
      <psa30 value="0.0100664404" flag="0"/>
    </comp>
    <comp name="--.HNZ">
      <acc value="0.0235695671" flag="0"/>
      <vel value="0.0270301870" flag="0"/>
      <psa03 value="0.0646114128" flag="0"/>
      <psa10 value="0.0454433077" flag="0"/>
      <psa30 value="0.0030555886" flag="0"/>
    </comp>
  </station>
  <station code="PYL1" name="PYL1" netid="HI" insttype="CMG-5TD,ACCELEROMETER,GURALP" lat="36.9142" lon="21.6952">
    <comp name="--.HNZ">
      <acc value="0.0283354139" flag="0"/>
      <vel value="0.0117583951" flag="0"/>
      <psa03 value="0.0664681290" flag="0"/>
      <psa10 value="0.0093719607" flag="0"/>
      <psa30 value="0.0011324698" flag="0"/>
    </comp>
    <comp name="--.HNE">
      <acc value="0.0461225875" flag="0"/>
      <vel value="0.0214672609" flag="0"/>
      <psa03 value="0.1262622150" flag="0"/>
      <psa10 value="0.0179527012" flag="0"/>
      <psa30 value="0.0020162310" flag="0"/>
    </comp>
    <comp name="--.HNN">
      <acc value="0.0383234898" flag="0"/>
      <vel value="0.0151205086" flag="0"/>
      <psa03 value="0.0679858895" flag="0"/>
      <psa10 value="0.0105901938" flag="0"/>
      <psa30 value="0.0020339172" flag="0"/>
    </comp>
  </station>
  <station code="ELIN" name="ELIN" netid="HL" insttype="LE3D20_SMART24" lat="38.0995" lon="22.4874">
    <comp name="--.HHN">
      <acc value="0.0600198553" flag="0"/>
      <vel value="0.0491976973" flag="0"/>
      <psa03 value="0.1861272623" flag="0"/>
      <psa10 value="0.0758593278" flag="0"/>
      <psa30 value="0.0073122770" flag="0"/>
    </comp>
    <comp name="--.HHE">
      <acc value="0.0598958048" flag="0"/>
      <vel value="0.0399329876" flag="0"/>
      <psa03 value="0.1920341495" flag="0"/>
      <psa10 value="0.0511251332" flag="0"/>
      <psa30 value="0.0044061313" flag="0"/>
    </comp>
    <comp name="--.HHZ">
      <acc value="0.0304114131" flag="0"/>
      <vel value="0.0209019456" flag="0"/>
      <psa03 value="0.1159391199" flag="0"/>
      <psa10 value="0.0316976386" flag="0"/>
      <psa30 value="0.0038855473" flag="0"/>
    </comp>
  </station>
  <station code="ITM" name="ITM" netid="HL" insttype="DR24" lat="37.1787" lon="21.9252">
    <comp name="--.HHE">
      <acc value="0.1125144850" flag="0"/>
      <vel value="0.0256282658" flag="0"/>
      <psa03 value="0.0945770579" flag="0"/>
      <psa10 value="0.0180055258" flag="0"/>
      <psa30 value="0.0049261133" flag="0"/>
    </comp>
    <comp name="--.HHN">
      <acc value="0.1657957285" flag="0"/>
      <vel value="0.0384722385" flag="0"/>
      <psa03 value="0.1547641425" flag="0"/>
      <psa10 value="0.0215488399" flag="0"/>
      <psa30 value="0.0030016152" flag="0"/>
    </comp>
    <comp name="--.HHZ">
      <acc value="0.0774680141" flag="0"/>
      <vel value="0.0261995296" flag="0"/>
      <psa03 value="0.0841992383" flag="0"/>
      <psa10 value="0.0172495526" flag="0"/>
      <psa30 value="0.0017833756" flag="0"/>
    </comp>
  </station>
  <station code="KLV" name="KLV" netid="HL" insttype="120" lat="38.0435" lon="22.1504">
    <comp name="--.HHN">
      <acc value="0.0128074726" flag="0"/>
      <vel value="0.0075648171" flag="0"/>
      <psa03 value="0.0303803742" flag="0"/>
      <psa10 value="0.0158652531" flag="0"/>
      <psa30 value="0.0012731660" flag="0"/>
    </comp>
    <comp name="--.HHZ">
      <acc value="0.0126661420" flag="0"/>
      <vel value="0.0088753500" flag="0"/>
      <psa03 value="0.0280616514" flag="0"/>
      <psa10 value="0.0122966887" flag="0"/>
      <psa30 value="0.0016222493" flag="0"/>
    </comp>
    <comp name="--.HHE">
      <acc value="0.0113264566" flag="0"/>
      <vel value="0.0102666725" flag="0"/>
      <psa03 value="0.0244147478" flag="0"/>
      <psa10 value="0.0141582876" flag="0"/>
      <psa30 value="0.0017405445" flag="0"/>
    </comp>
  </station>
  <station code="ORTH" name="ORTH" netid="HL" insttype="30" lat="37.8511" lon="20.6963">
    <comp name="--.HHN">
      <acc value="0.7727689043" flag="0"/>
      <vel value="0.2732365192" flag="0"/>
      <psa03 value="1.8327086927" flag="0"/>
      <psa10 value="0.0516721723" flag="0"/>
      <psa30 value="0.0049295359" flag="0"/>
    </comp>
    <comp name="--.HHE">
      <acc value="0.6434057876" flag="0"/>
      <vel value="0.1853687634" flag="0"/>
      <psa03 value="1.4204154350" flag="0"/>
      <psa10 value="0.0532385374" flag="0"/>
      <psa30 value="0.0046735010" flag="0"/>
    </comp>
    <comp name="--.HHZ">
      <acc value="0.2280788858" flag="0"/>
      <vel value="0.0542819957" flag="0"/>
      <psa03 value="0.4517662386" flag="0"/>
      <psa10 value="0.0229092303" flag="0"/>
      <psa30 value="0.0021160681" flag="0"/>
    </comp>
  </station>
  <station code="PATC" name="PATC" netid="HL" insttype="CMG-5" lat="38.2693" lon="21.76">
    <comp name="00.HNN">
      <acc value="0.0591688076" flag="0"/>
      <vel value="0.0550802347" flag="0"/>
      <psa03 value="0.1793344788" flag="0"/>
      <psa10 value="0.1056402950" flag="0"/>
      <psa30 value="0.0065745265" flag="0"/>
    </comp>
    <comp name="00.HNZ">
      <acc value="0.0348546077" flag="0"/>
      <vel value="0.0323200421" flag="0"/>
      <psa03 value="0.0736656975" flag="0"/>
      <psa10 value="0.0520595090" flag="0"/>
      <psa30 value="0.0028463863" flag="0"/>
    </comp>
    <comp name="00.HNE">
      <acc value="0.0493714539" flag="0"/>
      <vel value="0.0438761650" flag="0"/>
      <psa03 value="0.1925965639" flag="0"/>
      <psa10 value="0.0710793274" flag="0"/>
      <psa30 value="0.0098096974" flag="0"/>
    </comp>
  </station>
  <station code="RLS" name="RLS" netid="HL" insttype="CMG3ESPC-120s" lat="38.0559" lon="21.4647">
    <comp name="--.HHE">
      <acc value="0.0376245911" flag="0"/>
      <vel value="0.0167857614" flag="0"/>
      <psa03 value="0.1122566481" flag="0"/>
      <psa10 value="0.0206504724" flag="0"/>
      <psa30 value="0.0026032342" flag="0"/>
    </comp>
    <comp name="--.HHZ">
      <acc value="0.0284401822" flag="0"/>
      <vel value="0.0178416337" flag="0"/>
      <psa03 value="0.0676367686" flag="0"/>
      <psa10 value="0.0205303293" flag="0"/>
      <psa30 value="0.0056279766" flag="0"/>
    </comp>
    <comp name="--.HHN">
      <acc value="0.0462770096" flag="0"/>
      <vel value="0.0263075635" flag="0"/>
      <psa03 value="0.0911801801" flag="0"/>
      <psa10 value="0.0295364366" flag="0"/>
      <psa30 value="0.0041474122" flag="0"/>
    </comp>
  </station>
  <station code="VLS" name="VLS" netid="HL" insttype="120P," lat="38.1768" lon="20.5886">
    <comp name="--.HHE">
      <acc value="0.1547478090" flag="0"/>
      <vel value="0.0394388800" flag="0"/>
      <psa03 value="0.3052404904" flag="0"/>
      <psa10 value="0.0233442896" flag="0"/>
      <psa30 value="0.0018340100" flag="0"/>
    </comp>
    <comp name="--.HHN">
      <acc value="0.1803605997" flag="0"/>
      <vel value="0.0689594826" flag="0"/>
      <psa03 value="0.5607665006" flag="0"/>
      <psa10 value="0.0226256436" flag="0"/>
      <psa30 value="0.0021400090" flag="0"/>
    </comp>
    <comp name="--.HHZ">
      <acc value="0.1147880948" flag="0"/>
      <vel value="0.0316848033" flag="0"/>
      <psa03 value="0.2430462946" flag="0"/>
      <psa10 value="0.0158964125" flag="0"/>
      <psa30 value="0.0013075764" flag="0"/>
    </comp>
  </station>
  <station code="AMT" name="AMT" netid="HP" insttype="CMG-3T," lat="37.5324" lon="21.7089">
    <comp name="00.HHN">
      <acc value="0.2288652896" flag="0"/>
      <vel value="0.0917483634" flag="0"/>
      <psa03 value="0.4222512389" flag="0"/>
      <psa10 value="0.1350621885" flag="0"/>
      <psa30 value="0.0064519980" flag="0"/>
    </comp>
    <comp name="00.HHE">
      <acc value="0.1753454587" flag="0"/>
      <vel value="0.1297753722" flag="0"/>
      <psa03 value="0.5265927539" flag="0"/>
      <psa10 value="0.2483444325" flag="0"/>
      <psa30 value="0.0161032023" flag="0"/>
    </comp>
    <comp name="00.HHZ">
      <acc value="0.1339552330" flag="0"/>
      <vel value="0.0693361878" flag="0"/>
      <psa03 value="0.3878363358" flag="0"/>
      <psa10 value="0.0640789706" flag="0"/>
      <psa30 value="0.0049448747" flag="0"/>
    </comp>
  </station>
  <station code="ANX" name="ANX" netid="HP" insttype="120" lat="38.5933" lon="21.9209">
    <comp name="--.HHE">
      <acc value="0.0199054461" flag="0"/>
      <vel value="0.0190154865" flag="0"/>
      <psa03 value="0.0332648508" flag="0"/>
      <psa10 value="0.0240384204" flag="0"/>
      <psa30 value="0.0016866526" flag="0"/>
    </comp>
    <comp name="--.HHZ">
      <acc value="0.0095459529" flag="0"/>
      <vel value="0.0082885554" flag="0"/>
      <psa03 value="0.0224102951" flag="0"/>
      <psa10 value="0.0159008236" flag="0"/>
      <psa30 value="0.0010383295" flag="0"/>
    </comp>
    <comp name="--.HHN">
      <acc value="0.0275284481" flag="0"/>
      <vel value="0.0221488772" flag="0"/>
      <psa03 value="0.0522972189" flag="0"/>
      <psa10 value="0.0467198561" flag="0"/>
      <psa30 value="0.0021668011" flag="0"/>
    </comp>
  </station>
  <station code="AXS" name="AXS" netid="HP" insttype="Compact," lat="38.1962" lon="21.3763">
    <comp name="--.HHE">
      <acc value="0.0182931710" flag="0"/>
      <vel value="0.0157615371" flag="0"/>
      <psa03 value="0.0453115021" flag="0"/>
      <psa10 value="0.0229745038" flag="0"/>
      <psa30 value="0.0021851863" flag="0"/>
    </comp>
    <comp name="--.HHZ">
      <acc value="0.0129764956" flag="0"/>
      <vel value="0.0151008077" flag="0"/>
      <psa03 value="0.0405460663" flag="0"/>
      <psa10 value="0.0289775885" flag="0"/>
      <psa30 value="0.0025887087" flag="0"/>
    </comp>
    <comp name="--.HHN">
      <acc value="0.0224969960" flag="0"/>
      <vel value="0.0133188924" flag="0"/>
      <psa03 value="0.0785556139" flag="0"/>
      <psa10 value="0.0150425613" flag="0"/>
      <psa30 value="0.0023543908" flag="0"/>
    </comp>
  </station>
  <station code="DRO" name="DRO" netid="HP" insttype="120P," lat="37.952" lon="21.71">
    <comp name="--.HHE">
      <acc value="0.0813438371" flag="0"/>
      <vel value="0.0595492768" flag="0"/>
      <psa03 value="0.2541875144" flag="0"/>
      <psa10 value="0.0688956197" flag="0"/>
      <psa30 value="0.0064618305" flag="0"/>
    </comp>
    <comp name="--.HHZ">
