<?xml version="1.0" encoding="UTF-8" standalone="yes"?>
<!DOCTYPE earthquake SYSTEM "stationlist.dtd">
<stationlist created="" xmlns="ch.ethz.sed.shakemap.usgs.xml">
  <station code="KLV" name="KLV" netid="MN" insttype="" lat="38.0437" lon="22.1504">
    <comp name="--.HHN">
      <acc value="0.0130746255" flag="0"/>
      <vel value="0.0076462148" flag="0"/>
      <psa03 value="0.0310385356" flag="0"/>
      <psa10 value="0.0159670553" flag="0"/>
      <psa30 value="0.0012751000" flag="0"/>
    </comp>
    <comp name="--.HHE">
      <acc value="0.0119018753" flag="0"/>
      <vel value="0.0104234301" flag="0"/>
      <psa03 value="0.0252308045" flag="0"/>
      <psa10 value="0.0142593080" flag="0"/>
      <psa30 value="0.0017442464" flag="0"/>
    </comp>
    <comp name="--.HHZ">
      <acc value="0.0134973932" flag="0"/>
      <vel value="0.0090188852" flag="0"/>
      <psa03 value="0.0287561544" flag="0"/>
      <psa10 value="0.0123819280" flag="0"/>
      <psa30 value="0.0016250141" flag="0"/>
    </comp>
  </station>
</stationlist>
