<stationlist xmlns:esm="https://esm-db.eu/esmws/shakemap/1/" created="1784080630">
	<station code="TRIZ" name="TRIZ" netid="CL" source="Corinth Riff Laboratory (CRLNET)" insttype="" lat="38.36543" lon="22.07272" esm:processing="automatic (Paolucci et al 2011)" esm:quality="good">
		<comp name="00.HNE" depth="0.0">
			<acc value="0.0152738033723858" flag="0"/>
			<vel value="0.0164871266528064" flag="0"/>
			<psa03 value="0.0416464020989004" flag="0"/>
			<psa10 value="0.0273744584235392" flag="0"/>
			<psa30 value="0.00265399039717425" flag="0"/>
		</comp>
		<comp name="00.HNN" depth="0.0">
			<acc value="0.0277892160823944" flag="0"/>
			<vel value="0.0291312897162738" flag="0"/>
			<psa03 value="0.0864157506611679" flag="0"/>
			<psa10 value="0.0579989721471162" flag="0"/>
			<psa30 value="0.00297137183880179" flag="0"/>
		</comp>
		<comp name="00.HNZ" depth="0.0">
			<acc value="0.0096181013795968" flag="0"/>
			<vel value="0.0102982081958553" flag="0"/>
			<psa03 value="0.0238900357226227" flag="0"/>
			<psa10 value="0.0246192109019081" flag="0"/>
			<psa30 value="0.00110431065516181" flag="0"/>
		</comp>
	</station>
	<station code="AGR3" name="AGR3" netid="HI" source="ITSAK Strong Motion Network" insttype="" lat="38.5893" lon="21.4162" esm:processing="automatic (Paolucci et al 2011)" esm:quality="best">
		<comp name="--.HNE" depth="0.0">
			<acc value="0.0341185451862496" flag="0"/>
			<vel value="0.0325900312838418" flag="0"/>
			<psa03 value="0.0828421180918971" flag="0"/>
			<psa10 value="0.0642700325743347" flag="0"/>
			<psa30 value="0.00916438209534957" flag="0"/>
		</comp>
		<comp name="--.HNN" depth="0.0">
			<acc value="0.0297706820251484" flag="0"/>
			<vel value="0.0444829508702491" flag="0"/>
			<psa03 value="0.0830562208171005" flag="0"/>
			<psa10 value="0.0661914423582079" flag="0"/>
			<psa30 value="0.0123746130907175" flag="0"/>
		</comp>
		<comp name="--.HNZ" depth="0.0">
			<acc value="0.0207740982473707" flag="0"/>
			<vel value="0.0203682602562442" flag="0"/>
			<psa03 value="0.0521730968367321" flag="0"/>
			<psa10 value="0.0393395248004605" flag="0"/>
			<psa30 value="0.0059295644711901" flag="0"/>
		</comp>
	</station>
	<station code="AIG2" name="AIG2" netid="HI" source="ITSAK Strong Motion Network" insttype="" lat="38.2417" lon="22.0726" esm:processing="automatic (Paolucci et al 2011)" esm:quality="best">
		<comp name="--.HNE" depth="0.0">
			<acc value="0.0212044304379623" flag="0"/>
			<vel value="0.0220741335858593" flag="0"/>
			<psa03 value="0.0602466837555704" flag="0"/>
			<psa10 value="0.0277665675238419" flag="0"/>
			<psa30 value="0.00325122079408664" flag="0"/>
		</comp>
		<comp name="--.HNN" depth="0.0">
			<acc value="0.0285006090151752" flag="0"/>
			<vel value="0.0224245344496797" flag="0"/>
			<psa03 value="0.0575324779109424" flag="0"/>
			<psa10 value="0.0485108886081721" flag="0"/>
			<psa30 value="0.00354679870800716" flag="0"/>
		</comp>
		<comp name="--.HNZ" depth="0.0">
			<acc value="0.0138915613778037" flag="0"/>
			<vel value="0.0146186406725203" flag="0"/>
			<psa03 value="0.0410937222574403" flag="0"/>
			<psa10 value="0.0250440540456704" flag="0"/>
			<psa30 value="0.00217649626553039" flag="0"/>
		</comp>
	</station>
	<station code="AOL1" name="AOL1" netid="HI" source="ITSAK Strong Motion Network" insttype="" lat="37.642378" lon="21.624555" esm:processing="manual (Paolucci et al 2011)" esm:quality="best">
		<comp name="--.HNE" depth="0.0">
			<acc value="0.222254548462647" flag="0"/>
			<vel value="0.132045643378472" flag="0"/>
			<psa03 value="0.522820217606679" flag="0"/>
			<psa10 value="0.20963515229992" flag="0"/>
			<psa30 value="0.0192454132475293" flag="0"/>
		</comp>
		<comp name="--.HNN" depth="0.0">
			<acc value="0.213069953211319" flag="0"/>
			<vel value="0.128169118873264" flag="0"/>
			<psa03 value="0.614322320838124" flag="0"/>
			<psa10 value="0.181506128890246" flag="0"/>
			<psa30 value="0.0137139484818038" flag="0"/>
		</comp>
		<comp name="--.HNZ" depth="0.0">
			<acc value="0.146002263263048" flag="0"/>
			<vel value="0.0676321388000793" flag="0"/>
			<psa03 value="0.357301544473976" flag="0"/>
			<psa10 value="0.0807567322370061" flag="0"/>
			<psa30 value="0.00845281912444872" flag="0"/>
		</comp>
	</station>
	<station code="ARG2" name="ARG2" netid="HI" source="ITSAK Strong Motion Network" insttype="" lat="38.1783" lon="20.4878" esm:processing="automatic (Paolucci et al 2011)" esm:quality="best">
		<comp name="--.HNE" depth="0.0">
			<acc value="0.232742136339986" flag="0"/>
			<vel value="0.10413876148842" flag="0"/>
			<psa03 value="0.649329306545548" flag="0"/>
			<psa10 value="0.0626908554614181" flag="0"/>
			<psa30 value="0.00412665420392378" flag="0"/>
		</comp>
		<comp name="--.HNN" depth="0.0">
			<acc value="0.235848169553596" flag="0"/>
			<vel value="0.113938899951861" flag="0"/>
			<psa03 value="0.440097695978928" flag="0"/>
			<psa10 value="0.0477712158587207" flag="0"/>
			<psa30 value="0.00416076688038745" flag="0"/>
		</comp>
		<comp name="--.HNZ" depth="0.0">
			<acc value="0.132950200385305" flag="0"/>
			<vel value="0.0472574745886331" flag="0"/>
			<psa03 value="0.298328137774802" flag="0"/>
			<psa10 value="0.0218714545015158" flag="0"/>
			<psa30 value="0.00322454215175683" flag="0"/>
		</comp>
	</station>
	<station code="AST1" name="AST1" netid="HI" source="ITSAK Strong Motion Network" insttype="" lat="38.5416" lon="21.0895" esm:processing="automatic (Paolucci et al 2011)" esm:quality="best">
		<comp name="--.HNE" depth="0.0">
			<acc value="0.0298164831310627" flag="0"/>
			<vel value="0.0175303639687831" flag="0"/>
			<psa03 value="0.0584257089583491" flag="0"/>
			<psa10 value="0.0231950540585076" flag="0"/>
			<psa30 value="0.0024558526881888" flag="0"/>
		</comp>
		<comp name="--.HNN" depth="0.0">
			<acc value="0.0289298968658585" flag="0"/>
			<vel value="0.0138929200598364" flag="0"/>
			<psa03 value="0.0843748967145019" flag="0"/>
			<psa10 value="0.0159687228495345" flag="0"/>
			<psa30 value="0.00153038846405745" flag="0"/>
		</comp>
		<comp name="--.HNZ" depth="0.0">
			<acc value="0.0140242559479748" flag="0"/>
			<vel value="0.0134859509363049" flag="0"/>
			<psa03 value="0.0537324032581582" flag="0"/>
			<psa10 value="0.0203038131529903" flag="0"/>
			<psa30 value="0.00158377106289561" flag="0"/>
		</comp>
	</station>
	<station code="GTH2" name="GTH2" netid="HI" source="ITSAK Strong Motion Network" insttype="" lat="36.7603" lon="22.5659" esm:processing="manual (Paolucci et al 2011)" esm:quality="good">
		<comp name="--.HNE" depth="0.0">
			<acc value="0.0257543191415532" flag="0"/>
			<vel value="0.0223008330393222" flag="0"/>
			<psa03 value="0.0955085353050657" flag="0"/>
			<psa10 value="0.015868392453122" flag="0"/>
			<psa30 value="0.00172926559702567" flag="0"/>
		</comp>
		<comp name="--.HNN" depth="0.0">
			<acc value="0.0286351173769295" flag="0"/>
			<vel value="0.0206607232361204" flag="0"/>
			<psa03 value="0.0680693738452834" flag="0"/>
			<psa10 value="0.0142698593706505" flag="0"/>
			<psa30 value="0.00198969034888739" flag="0"/>
		</comp>
		<comp name="--.HNZ" depth="0.0">
			<acc value="0.0182824341599027" flag="0"/>
			<vel value="0.00849075741730261" flag="0"/>
			<psa03 value="0.036333602235332" flag="0"/>
			<psa10 value="0.0106108713556519" flag="0"/>
			<psa30 value="0.00147620820821561" flag="0"/>
		</comp>
	</station>
	<station code="ITC1" name="ITC1" netid="HI" source="ITSAK Strong Motion Network" insttype="" lat="38.3647" lon="20.7156" esm:processing="automatic (Paolucci et al 2011)" esm:quality="best">
		<comp name="--.HNE" depth="0.0">
			<acc value="0.0718879294458089" flag="0"/>
			<vel value="0.0272671739861638" flag="0"/>
			<psa03 value="0.103137676114672" flag="0"/>
			<psa10 value="0.0266593385503296" flag="0"/>
			<psa30 value="0.00202439952319887" flag="0"/>
		</comp>
		<comp name="--.HNN" depth="0.0">
			<acc value="0.0624011235495414" flag="0"/>
			<vel value="0.03721000156066" flag="0"/>
			<psa03 value="0.140460013119967" flag="0"/>
			<psa10 value="0.0176030717421237" flag="0"/>
			<psa30 value="0.00225240837766603" flag="0"/>
		</comp>
		<comp name="--.HNZ" depth="0.0">
			<acc value="0.0365629331182532" flag="0"/>
			<vel value="0.0129606630089279" flag="0"/>
			<psa03 value="0.12412936879476" flag="0"/>
			<psa10 value="0.0152592170982562" flag="0"/>
			<psa30 value="0.00139106517207416" flag="0"/>
		</comp>
	</station>
	<station code="KOR2" name="KOR2" netid="HI" source="ITSAK Strong Motion Network" insttype="" lat="37.9401" lon="22.9495" esm:processing="manual (Paolucci et al 2011)" esm:quality="good">
		<comp name="--.HNE" depth="0.0">
			<acc value="0.0139868823845344" flag="0"/>
			<vel value="0.0170888979437806" flag="0"/>
			<psa03 value="0.0414171264938655" flag="0"/>
			<psa10 value="0.0291961209747274" flag="0"/>
			<psa30 value="0.00419108388873885" flag="0"/>
		</comp>
		<comp name="--.HNN" depth="0.0">
			<acc value="0.0136500750883956" flag="0"/>
			<vel value="0.0160856158085971" flag="0"/>
			<psa03 value="0.0488811443859193" flag="0"/>
			<psa10 value="0.032071820850731" flag="0"/>
			<psa30 value="0.00371916512643691" flag="0"/>
		</comp>
		<comp name="--.HNZ" depth="0.0">
			<acc value="0.00996540600713863" flag="0"/>
			<vel value="0.00816810431566138" flag="0"/>
			<psa03 value="0.0242907107028714" flag="0"/>
			<psa10 value="0.0142584004865556" flag="0"/>
			<psa30 value="0.00169343134818255" flag="0"/>
		</comp>
	</station>
	<station code="KYP2" name="KYP2" netid="HI" source="ITSAK Strong Motion Network" insttype="" lat="37.2497" lon="21.667" esm:processing="manual (Paolucci et al 2011)" esm:quality="best">
		<comp name="--.HNE" depth="0.0">
			<acc value="1.04832974715607" flag="0"/>
			<vel value="0.176639520930626" flag="0"/>
			<psa03 value="0.29375175127831" flag="0"/>
			<psa10 value="0.0495194054175997" flag="0"/>
			<psa30 value="0.00548710099352302" flag="0"/>
		</comp>
		<comp name="--.HNN" depth="0.0">
			<acc value="0.51329801542998" flag="0"/>
			<vel value="0.0839080268128328" flag="0"/>
			<psa03 value="0.286933382928397" flag="0"/>
			<psa10 value="0.0425054620283651" flag="0"/>
			<psa30 value="0.00708328339941319" flag="0"/>
		</comp>
		<comp name="--.HNZ" depth="0.0">
			<acc value="0.796033485664573" flag="0"/>
			<vel value="0.103147212673226" flag="0"/>
			<psa03 value="0.154415520937003" flag="0"/>
			<psa10 value="0.0219518448269825" flag="0"/>
			<psa30 value="0.00333924704206249" flag="0"/>
		</comp>
	</station>
	<station code="LEF2" name="LEF2" netid="HI" source="ITSAK Strong Motion Network" insttype="" lat="38.830093" lon="20.708346" esm:processing="manual (Paolucci et al 2011)" esm:quality="good">
		<comp name="--.HNE" depth="0.0">
			<acc value="0.0535675586451337" flag="0"/>
			<vel value="0.0480922984562062" flag="0"/>
			<psa03 value="0.135328193995363" flag="0"/>
			<psa10 value="0.0654628440921461" flag="0"/>
			<psa30 value="0.00640483178867271" flag="0"/>
		</comp>
		<comp name="--.HNN" depth="0.0">
			<acc value="0.0528017319801837" flag="0"/>
			<vel value="0.0508001212670126" flag="0"/>
			<psa03 value="0.155364844241773" flag="0"/>
			<psa10 value="0.0788194514018295" flag="0"/>
			<psa30 value="0.00592840814461113" flag="0"/>
		</comp>
		<comp name="--.HNZ" depth="0.0">
			<acc value="0.0308699890636788" flag="0"/>
			<vel value="0.0285894716684418" flag="0"/>
			<psa03 value="0.102610964139452" flag="0"/>
			<psa10 value="0.0634538135037294" flag="0"/>
			<psa30 value="0.003413488626869" flag="0"/>
		</comp>
	</station>
	<station code="LXR2" name="LXR2" netid="HI" source="ITSAK Strong Motion Network" insttype="" lat="38.206718" lon="20.436386" esm:processing="automatic (Paolucci et al 2011)" esm:quality="best">
		<comp name="--.HNE" depth="0.0">
			<acc value="0.15036882583808" flag="0"/>
			<vel value="0.0791303479726487" flag="0"/>
			<psa03 value="0.335134867706886" flag="0"/>
			<psa10 value="0.0549363617645276" flag="0"/>
			<psa30 value="0.00606536513399888" flag="0"/>
		</comp>
		<comp name="--.HNN" depth="0.0">
			<acc value="0.274510873950321" flag="0"/>
			<vel value="0.142482124961558" flag="0"/>
			<psa03 value="0.869838289182661" flag="0"/>
			<psa10 value="0.0884697406861874" flag="0"/>
			<psa30 value="0.00697111305204879" flag="0"/>
		</comp>
		<comp name="--.HNZ" depth="0.0">
			<acc value="0.153196740069763" flag="0"/>
			<vel value="0.0591799668026219" flag="0"/>
			<psa03 value="0.379057069003968" flag="0"/>
			<psa10 value="0.0567339983488429" flag="0"/>
			<psa30 value="0.00487447040973597" flag="0"/>
		</comp>
	</station>
	<station code="MGP1" name="MGP1" netid="HI" source="ITSAK Strong Motion Network" insttype="" lat="37.403248" lon="22.140703" esm:processing="manual (Paolucci et al 2011)" esm:quality="good">
		<comp name="--.HNE" depth="0.0">
			<acc value="0.108792487503242" flag="0"/>
			<vel value="0.0459466545109832" flag="0"/>
			<psa03 value="0.195033586684609" flag="0"/>
			<psa10 value="0.0546737206156661" flag="0"/>
			<psa30 value="0.0132089625289413" flag="0"/>
		</comp>
		<comp name="--.HNN" depth="0.0">
			<acc value="0.110833692110978" flag="0"/>
			<vel value="0.0476493333315316" flag="0"/>
			<psa03 value="0.208661551970427" flag="0"/>
			<psa10 value="0.0552513001274741" flag="0"/>
			<psa30 value="0.0129019113549746" flag="0"/>
		</comp>
		<comp name="--.HNZ" depth="0.0">
			<acc value="0.047747015142918" flag="0"/>
			<vel value="0.0232201067268126" flag="0"/>
			<psa03 value="0.073546429381666" flag="0"/>
			<psa10 value="0.0339463412785097" flag="0"/>
			<psa30 value="0.00516990748099802" flag="0"/>
		</comp>
	</station>
	<station code="MSL1" name="MSL1" netid="HI" source="ITSAK Strong Motion Network" insttype="" lat="38.3727" lon="21.4243" esm:processing="manual (Paolucci et al 2011)" esm:quality="good">
		<comp name="--.HNE" depth="0.0">
			<acc value="0.0579394173782225" flag="0"/>
			<vel value="0.0676647849657527" flag="0"/>
			<psa03 value="0.147242452006484" flag="0"/>
			<psa10 value="0.127740032150214" flag="0"/>
			<psa30 value="0.0101413276465189" flag="0"/>
		</comp>
		<comp name="--.HNN" depth="0.0">
			<acc value="0.0611862468851143" flag="0"/>
			<vel value="0.0672682378898346" flag="0"/>
			<psa03 value="0.146093563398252" flag="0"/>
			<psa10 value="0.112816781058069" flag="0"/>
			<psa30 value="0.00913344504590966" flag="0"/>
		</comp>
		<comp name="--.HNZ" depth="0.0">
			<acc value="0.0234961490697046" flag="0"/>
			<vel value="0.0268446297554223" flag="0"/>
			<psa03 value="0.065088671180027" flag="0"/>
			<psa10 value="0.0454073330129645" flag="0"/>
			<psa30 value="0.00305259721958443" flag="0"/>
		</comp>
	</station>
	<station code="NMA1" name="NMA1" netid="HI" source="ITSAK Strong Motion Network" insttype="" lat="37.81873" lon="22.662702" esm:processing="manual (Paolucci et al 2011)" esm:quality="good">
		<comp name="--.HNE" depth="0.0">
			<acc value="0.0148777269109718" flag="0"/>
			<vel value="0.0117398442982308" flag="0"/>
			<psa03 value="0.0524988892520951" flag="0"/>
			<psa10 value="0.0175281174017543" flag="0"/>
			<psa30 value="0.00207286335869109" flag="0"/>
		</comp>
		<comp name="--.HNN" depth="0.0">
			<acc value="0.015282634333571" flag="0"/>
			<vel value="0.0161249403547212" flag="0"/>
			<psa03 value="0.0492776081496979" flag="0"/>
			<psa10 value="0.019591427210903" flag="0"/>
			<psa30 value="0.00343304700584895" flag="0"/>
		</comp>
		<comp name="--.HNZ" depth="0.0">
			<acc value="0.00904107087004318" flag="0"/>
			<vel value="0.00926872462036373" flag="0"/>
			<psa03 value="0.0247381882627303" flag="0"/>
			<psa10 value="0.00926787551376841" flag="0"/>
			<psa30 value="0.00216364020554502" flag="0"/>
		</comp>
	</station>
	<station code="PAT4" name="PAT4" netid="HI" source="ITSAK Strong Motion Network" insttype="" lat="38.2338" lon="21.74795" esm:processing="manual (Paolucci et al 2011)" esm:quality="good">
		<comp name="--.HNE" depth="0.0">
			<acc value="0.0723840120045446" flag="0"/>
			<vel value="0.0652583707837509" flag="0"/>
			<psa03 value="0.179867477837663" flag="0"/>
			<psa10 value="0.130548923225463" flag="0"/>
			<psa30 value="0.0139757524916798" flag="0"/>
		</comp>
		<comp name="--.HNN" depth="0.0">
			<acc value="0.0568454007601171" flag="0"/>
			<vel value="0.0624455094830556" flag="0"/>
			<psa03 value="0.141393460372827" flag="0"/>
			<psa10 value="0.129496048477678" flag="0"/>
			<psa30 value="0.00990242265356889" flag="0"/>
		</comp>
		<comp name="--.HNZ" depth="0.0">
			<acc value="0.0395713273988788" flag="0"/>
			<vel value="0.0420740748721267" flag="0"/>
			<psa03 value="0.0718852151677105" flag="0"/>
			<psa10 value="0.0868729074037654" flag="0"/>
			<psa30 value="0.00665399329439965" flag="0"/>
		</comp>
	</station>
	<station code="PAT5" name="PAT5" netid="HI" source="ITSAK Strong Motion Network" insttype="" lat="38.29595" lon="21.795083" esm:processing="manual (Paolucci et al 2011)" esm:quality="good">
		<comp name="--.HNE" depth="0.0">
			<acc value="0.0272464198138447" flag="0"/>
			<vel value="0.0305525825403461" flag="0"/>
			<psa03 value="0.0815903268337282" flag="0"/>
			<psa10 value="0.0460559197286513" flag="0"/>
			<psa30 value="0.00420020074268568" flag="0"/>
		</comp>
		<comp name="--.HNN" depth="0.0">
			<acc value="0.0217052121045736" flag="0"/>
			<vel value="0.0220399033740677" flag="0"/>
			<psa03 value="0.078534608782404" flag="0"/>
			<psa10 value="0.0398640195456524" flag="0"/>
			<psa30 value="0.00542250088073776" flag="0"/>
		</comp>
		<comp name="--.HNZ" depth="0.0">
			<acc value="0.0217317564122722" flag="0"/>
			<vel value="0.0209575556132064" flag="0"/>
			<psa03 value="0.064970632110518" flag="0"/>
			<psa10 value="0.0424928386920193" flag="0"/>
			<psa30 value="0.00422235804383148" flag="0"/>
		</comp>
	</station>
	<station code="PET1" name="PET1" netid="HI" source="ITSAK Strong Motion Network" insttype="" lat="36.963862" lon="21.92538" esm:processing="manual (Paolucci et al 2011)" esm:quality="good">
		<comp name="--.HNE" depth="0.0">
			<acc value="0.093407494355305" flag="0"/>
			<vel value="0.0628776848128411" flag="0"/>
			<psa03 value="0.221839258262129" flag="0"/>
			<psa10 value="0.0488015253615497" flag="0"/>
			<psa30 value="0.00626423205796391" flag="0"/>
		</comp>
		<comp name="--.HNN" depth="0.0">
			<acc value="0.108128727004783" flag="0"/>
			<vel value="0.0705227102095043" flag="0"/>
			<psa03 value="0.251247706427491" flag="0"/>
			<psa10 value="0.0685831032940048" flag="0"/>
			<psa30 value="0.00485606627389164" flag="0"/>
		</comp>
		<comp name="--.HNZ" depth="0.0">
			<acc value="0.053874169097401" flag="0"/>
			<vel value="0.0251537640662853" flag="0"/>
			<psa03 value="0.0859752266868235" flag="0"/>
			<psa10 value="0.0340281867003672" flag="0"/>
			<psa30 value="0.00253921446049619" flag="0"/>
		</comp>
	</station>
	<station code="PRE2" name="PRE2" netid="HI" source="ITSAK Strong Motion Network" insttype="" lat="38.9577" lon="20.7548" esm:processing="manual (Paolucci et al 2011)" esm:quality="good">
		<comp name="--.HNE" depth="0.0">
			<acc value="0.0231957764219562" flag="0"/>
			<vel value="0.0226240458340107" flag="0"/>
			<psa03 value="0.0760563300252657" flag="0"/>
			<psa10 value="0.0556828712169407" flag="0"/>
			<psa30 value="0.00533074230218226" flag="0"/>
		</comp>
		<comp name="--.HNN" depth="0.0">
			<acc value="0.0263000440560145" flag="0"/>
			<vel value="0.0338832087951545" flag="0"/>
			<psa03 value="0.0932163001224012" flag="0"/>
			<psa10 value="0.0612299686849243" flag="0"/>
			<psa30 value="0.00815648949406567" flag="0"/>
		</comp>
		<comp name="--.HNZ" depth="0.0">
			<acc value="0.0149537861922929" flag="0"/>
			<vel value="0.0115573713488205" flag="0"/>
			<psa03 value="0.0378537550213269" flag="0"/>
			<psa10 value="0.0289899060640017" flag="0"/>
			<psa30 value="0.00191875127452186" flag="0"/>
		</comp>
	</station>
