<?xml version="1.0" encoding="UTF-8" standalone="yes"?>
<!DOCTYPE earthquake SYSTEM "stationlist.dtd">
<stationlist created="" xmlns="ch.ethz.sed.shakemap.usgs.xml">
  <station code="THERA" name="THERA" netid="GE" insttype="STS-2/N" lat="36.367" lon="25.4753">
    <comp name="--.HHE">
      <acc value="0.0953952651" flag="0"/>
      <vel value="0.0163582995" flag="0"/>
      <psa03 value="0.0790849735" flag="0"/>
      <psa10 value="0.0052489524" flag="0"/>
      <psa30 value="0.0004336122" flag="0"/>
    </comp>
    <comp name="--.HHN">
      <acc value="0.0751593137" flag="0"/>
      <vel value="0.0149893278" flag="0"/>
      <psa03 value="0.0637715761" flag="0"/>
      <psa10 value="0.0028662069" flag="0"/>
      <psa30 value="0.0002158519" flag="0"/>
    </comp>
    <comp name="--.HHZ">
      <acc value="0.1020200544" flag="0"/>
      <vel value="0.0261200268" flag="0"/>
      <psa03 value="0.1342290043" flag="0"/>
      <psa10 value="0.0034064190" flag="0"/>
      <psa30 value="0.0004505541" flag="0"/>
    </comp>
  </station>
  <station code="SNT1" name="SNT1" netid="HA" insttype="30" lat="36.4159" lon="25.4282">
    <comp name="--.HHN">
      <acc value="0.0382345839" flag="0"/>
      <vel value="0.0079831749" flag="0"/>
      <psa03 value="0.0290647675" flag="0"/>
      <psa10 value="0.0053211355" flag="0"/>
      <psa30 value="0.0005421007" flag="0"/>
    </comp>
    <comp name="--.HHE">
      <acc value="0.0482821048" flag="0"/>
      <vel value="0.0081464911" flag="0"/>
      <psa03 value="0.0285347078" flag="0"/>
      <psa10 value="0.0055254129" flag="0"/>
      <psa30 value="0.0005663090" flag="0"/>
    </comp>
    <comp name="--.HHZ">
      <acc value="0.0386206289" flag="0"/>
      <vel value="0.0086392976" flag="0"/>
      <psa03 value="0.0250467712" flag="0"/>
      <psa10 value="0.0030862697" flag="0"/>
      <psa30 value="0.0002330967" flag="0"/>
    </comp>
  </station>
  <station code="SFR2" name="SFR2" netid="HI" insttype="unknown" lat="36.3998" lon="25.4382">
    <comp name="--.HNE">
      <acc value="0.0785597126" flag="0"/>
      <vel value="0.0232018645" flag="0"/>
      <psa03 value="0.1048720570" flag="0"/>
      <psa10 value="0.0127869095" flag="0"/>
      <psa30 value="0.0007541768" flag="0"/>
    </comp>
    <comp name="--.HNN">
      <acc value="0.1068965922" flag="0"/>
      <vel value="0.0261488666" flag="0"/>
      <psa03 value="0.1137771205" flag="0"/>
      <psa10 value="0.0068923604" flag="0"/>
      <psa30 value="0.0008405559" flag="0"/>
    </comp>
    <comp name="--.HNZ">
      <acc value="0.1301626602" flag="0"/>
      <vel value="0.0243211663" flag="0"/>
      <psa03 value="0.1064928006" flag="0"/>
      <psa10 value="0.0070513928" flag="0"/>
      <psa30 value="0.0006179358" flag="0"/>
    </comp>
  </station>
  <station code="AMGA" name="AMGA" netid="HL" insttype="SMART24" lat="36.8316" lon="25.8938">
    <comp name="--.HHE">
      <acc value="0.2993982603" flag="0"/>
      <vel value="0.0474108702" flag="0"/>
      <psa03 value="0.0707382543" flag="0"/>
      <psa10 value="0.0101537779" flag="0"/>
      <psa30 value="0.0007963671" flag="0"/>
    </comp>
    <comp name="--.HHN">
      <acc value="0.2924852031" flag="0"/>
      <vel value="0.0430318204" flag="0"/>
      <psa03 value="0.0707427427" flag="0"/>
      <psa10 value="0.0130505738" flag="0"/>
      <psa30 value="0.0011412177" flag="0"/>
    </comp>
    <comp name="--.HHZ">
      <acc value="0.1973827779" flag="0"/>
      <vel value="0.0288188799" flag="0"/>
      <psa03 value="0.0612557757" flag="0"/>
      <psa10 value="0.0070778154" flag="0"/>
      <psa30 value="0.0008467604" flag="0"/>
    </comp>
  </station>
  <station code="MILA" name="MILA" netid="HL" insttype="CMG-5" lat="36.7429" lon="24.4282">
    <comp name="00.HNN">
      <acc value="0.0450114307" flag="0"/>
      <vel value="0.0181530264" flag="0"/>
      <psa03 value="0.1303194744" flag="0"/>
      <psa10 value="0.0053307883" flag="0"/>
      <psa30 value="0.0005148882" flag="0"/>
    </comp>
    <comp name="00.HNE">
      <acc value="0.0426683191" flag="0"/>
      <vel value="0.0168025684" flag="0"/>
      <psa03 value="0.0590070350" flag="0"/>
      <psa10 value="0.0050213865" flag="0"/>
      <psa30 value="0.0006982416" flag="0"/>
    </comp>
    <comp name="00.HNZ">
      <acc value="0.0261163479" flag="0"/>
      <vel value="0.0098907265" flag="0"/>
      <psa03 value="0.0708874081" flag="0"/>
      <psa10 value="0.0041503252" flag="0"/>
      <psa30 value="0.0003714755" flag="0"/>
    </comp>
  </station>
  <station code="SANT" name="SANT" netid="HL" insttype="30" lat="36.3705" lon="25.4593">
    <comp name="--.HHE">
      <acc value="0.3053470179" flag="0"/>
      <vel value="0.0479252906" flag="0"/>
      <psa03 value="0.1997883340" flag="0"/>
      <psa10 value="0.0080118582" flag="0"/>
      <psa30 value="0.0006795238" flag="0"/>
    </comp>
    <comp name="--.HHZ">
      <acc value="0.2044144172" flag="0"/>
      <vel value="0.0373848113" flag="0"/>
      <psa03 value="0.1000132662" flag="0"/>
      <psa10 value="0.0052097018" flag="0"/>
      <psa30 value="0.0004702613" flag="0"/>
    </comp>
    <comp name="--.HHN">
      <acc value="0.2369687950" flag="0"/>
      <vel value="0.0307038271" flag="0"/>
      <psa03 value="0.1317109552" flag="0"/>
      <psa10 value="0.0043032920" flag="0"/>
      <psa30 value="0.0003453356" flag="0"/>
    </comp>
  </station>
  <station code="SAP3" name="SAP3" netid="HL" insttype="65535" lat="36.4356" lon="25.3454">
    <comp name="--.HHE">
      <acc value="0.0639291665" flag="0"/>
      <vel value="0.0116518228" flag="0"/>
      <psa03 value="0.0509640255" flag="0"/>
      <psa10 value="0.0045576245" flag="0"/>
      <psa30 value="0.0011513499" flag="0"/>
    </comp>
    <comp name="--.HHN">
      <acc value="0.0557279513" flag="0"/>
      <vel value="0.0137458391" flag="0"/>
      <psa03 value="0.0608921743" flag="0"/>
      <psa10 value="0.0052583748" flag="0"/>
      <psa30 value="0.0008067273" flag="0"/>
    </comp>
    <comp name="--.HHZ">
      <acc value="0.0750360097" flag="0"/>
      <vel value="0.0151560490" flag="0"/>
      <psa03 value="0.0527597847" flag="0"/>
      <psa10 value="0.0030465584" flag="0"/>
      <psa30 value="0.0003150464" flag="0"/>
    </comp>
  </station>
  <station code="THERA" name="THERA" netid="HL" insttype="120" lat="36.367" lon="25.4753">
    <comp name="--.HHE">
      <acc value="0.0929612963" flag="0"/>
      <vel value="0.0163500812" flag="0"/>
      <psa03 value="0.0768821432" flag="0"/>
      <psa10 value="0.0051268382" flag="0"/>
      <psa30 value="0.0004226901" flag="0"/>
    </comp>
    <comp name="--.HHZ">
      <acc value="0.1007146582" flag="0"/>
      <vel value="0.0252577734" flag="0"/>
      <psa03 value="0.1299468698" flag="0"/>
      <psa10 value="0.0033419374" flag="0"/>
      <psa30 value="0.0004415449" flag="0"/>
    </comp>
  </station>
  <station code="THRA" name="THRA" netid="HL" insttype="CMG-5" lat="36.415" lon="25.4324">
    <comp name="00.HNE">
      <acc value="0.1400604905" flag="0"/>
      <vel value="0.0328191300" flag="0"/>
      <psa03 value="0.1776175742" flag="0"/>
      <psa10 value="0.0222321181" flag="0"/>
      <psa30 value="0.0010817103" flag="0"/>
    </comp>
    <comp name="00.HNN">
      <acc value="0.1023711813" flag="0"/>
      <vel value="0.0297576344" flag="0"/>
      <psa03 value="0.1850521828" flag="0"/>
      <psa10 value="0.0116300953" flag="0"/>
      <psa30 value="0.0012322840" flag="0"/>
    </comp>
    <comp name="00.HNZ">
      <acc value="0.1270719540" flag="0"/>
      <vel value="0.0289883174" flag="0"/>
      <psa03 value="0.0949662195" flag="0"/>
      <psa10 value="0.0101023142" flag="0"/>
      <psa30 value="0.0008167903" flag="0"/>
    </comp>
  </station>
  <station code="AKRO" name="AKRO" netid="HT" insttype="Compact," lat="36.3584" lon="25.3967">
    <comp name="--.HHE">
      <acc value="0.2738661194" flag="0"/>
      <vel value="0.0562434704" flag="0"/>
      <psa03 value="0.3097772884" flag="0"/>
      <psa10 value="0.0133715370" flag="0"/>
      <psa30 value="0.0012995976" flag="0"/>
    </comp>
    <comp name="--.HHN">
      <acc value="0.1973338020" flag="0"/>
      <vel value="0.0417834473" flag="0"/>
      <psa03 value="0.1073949025" flag="0"/>
      <psa10 value="0.0069493883" flag="0"/>
      <psa30 value="0.0009047622" flag="0"/>
    </comp>
    <comp name="--.HHZ">
      <acc value="0.1972438378" flag="0"/>
      <vel value="0.0207236535" flag="0"/>
      <psa03 value="0.0841766296" flag="0"/>
      <psa10 value="0.0035791094" flag="0"/>
      <psa30 value="0.0004825822" flag="0"/>
    </comp>
  </station>
  <station code="CMBO" name="CMBO" netid="HT" insttype="120P," lat="36.4709" lon="25.4056">
    <comp name="--.HHZ">
      <acc value="0.0792778138" flag="0"/>
      <vel value="0.0154799793" flag="0"/>
      <psa03 value="0.0889372652" flag="0"/>
      <psa10 value="0.0032615078" flag="0"/>
      <psa30 value="0.0003077959" flag="0"/>
    </comp>
    <comp name="--.HHE">
      <acc value="0.0668905327" flag="0"/>
      <vel value="0.0164695562" flag="0"/>
      <psa03 value="0.0667828978" flag="0"/>
      <psa10 value="0.0077004060" flag="0"/>
      <psa30 value="0.0005119023" flag="0"/>
    </comp>
  </station>
</stationlist>
