<?xml version="1.0" encoding="UTF-8" standalone="yes"?>
<!DOCTYPE earthquake SYSTEM "stationlist.dtd">
<stationlist created="" xmlns="ch.ethz.sed.shakemap.usgs.xml">
  <station code="ADVT" name="ADVT" netid="KO" insttype="CMG-3ESP" lat="40.4332" lon="29.7383">
    <comp name="--.HHN">
      <acc value="0.0203118028" flag="0"/>
      <vel value="0.0049948434" flag="0"/>
      <psa03 value="0.0312481177" flag="0"/>
      <psa10 value="0.0025075688" flag="0"/>
      <psa30 value="0.0003660063" flag="0"/>
    </comp>
    <comp name="--.HHE">
      <acc value="0.0235659295" flag="0"/>
      <vel value="0.0061403343" flag="0"/>
      <psa03 value="0.0193299834" flag="0"/>
      <psa10 value="0.0048447256" flag="0"/>
      <psa30 value="0.0005537891" flag="0"/>
    </comp>
    <comp name="--.HHZ">
      <acc value="0.0156027522" flag="0"/>
      <vel value="0.0037946780" flag="0"/>
      <psa03 value="0.0153268191" flag="0"/>
      <psa10 value="0.0036026236" flag="0"/>
      <psa30 value="0.0003809418" flag="0"/>
    </comp>
  </station>
  <station code="ARMT" name="ARMT" netid="KO" insttype="CMG-3ESP" lat="40.5683" lon="28.866">
    <comp name="--.HHZ">
      <acc value="0.0815309977" flag="0"/>
      <vel value="0.0272056220" flag="0"/>
      <psa03 value="0.1544643440" flag="0"/>
      <psa10 value="0.0261323884" flag="0"/>
      <psa30 value="0.0019229669" flag="0"/>
    </comp>
    <comp name="--.HHE">
      <acc value="0.1252809515" flag="0"/>
      <vel value="0.0364955930" flag="0"/>
      <psa03 value="0.2932735498" flag="0"/>
      <psa10 value="0.0251141804" flag="0"/>
      <psa30 value="0.0021845395" flag="0"/>
    </comp>
    <comp name="--.HHN">
      <acc value="0.1345076064" flag="0"/>
      <vel value="0.0604164191" flag="0"/>
      <psa03 value="0.3161138747" flag="0"/>
      <psa10 value="0.0485175066" flag="0"/>
      <psa30 value="0.0041744539" flag="0"/>
    </comp>
  </station>
  <station code="BGKT" name="BGKT" netid="KO" insttype="CMG-3ESP" lat="41.181" lon="28.773">
    <comp name="--.HHE">
      <acc value="0.0761991575" flag="0"/>
      <vel value="0.0202135655" flag="0"/>
      <psa03 value="0.0760508764" flag="0"/>
      <psa10 value="0.0113863426" flag="0"/>
      <psa30 value="0.0008506898" flag="0"/>
    </comp>
    <comp name="--.HHN">
      <acc value="0.0672192597" flag="0"/>
      <vel value="0.0162823625" flag="0"/>
      <psa03 value="0.1040281228" flag="0"/>
      <psa10 value="0.0080103203" flag="0"/>
      <psa30 value="0.0008563048" flag="0"/>
    </comp>
    <comp name="--.HHZ">
      <acc value="0.0349691910" flag="0"/>
      <vel value="0.0110193885" flag="0"/>
      <psa03 value="0.0812710083" flag="0"/>
      <psa10 value="0.0080686466" flag="0"/>
      <psa30 value="0.0010841199" flag="0"/>
    </comp>
  </station>
  <station code="BUYA" name="BUYA" netid="KO" insttype="CMG-5T" lat="40.8694" lon="29.1278">
    <comp name="--.HNN">
      <acc value="0.8577987253" flag="0"/>
      <vel value="0.3055095333" flag="0"/>
      <psa03 value="0.7822682411" flag="0"/>
      <psa10 value="0.1350211604" flag="0"/>
      <psa30 value="0.0114694946" flag="0"/>
    </comp>
  </station>
  <station code="BUYK" name="BUYK" netid="KO" insttype="ACEBOX" lat="41.0168" lon="28.5828">
    <comp name="--.HNE">
      <acc value="0.0203121202" flag="0"/>
      <vel value="0.0233259712" flag="0"/>
      <psa03 value="0.0533389760" flag="0"/>
      <psa10 value="0.0307721887" flag="0"/>
      <psa30 value="0.0043206728" flag="0"/>
    </comp>
    <comp name="--.HNN">
      <acc value="0.0208658386" flag="0"/>
      <vel value="0.0176392379" flag="0"/>
      <psa03 value="0.0584919505" flag="0"/>
      <psa10 value="0.0381519821" flag="0"/>
      <psa30 value="0.0026255270" flag="0"/>
    </comp>
    <comp name="--.HNZ">
      <acc value="0.0182312706" flag="0"/>
      <vel value="0.0097751601" flag="0"/>
      <psa03 value="0.0392786837" flag="0"/>
      <psa10 value="0.0191476115" flag="0"/>
      <psa30 value="0.0007875481" flag="0"/>
    </comp>
  </station>
  <station code="CRLT" name="CRLT" netid="KO" insttype="CMG-3ESP" lat="41.129" lon="27.736">
    <comp name="--.HHE">
      <acc value="0.0109628143" flag="0"/>
      <vel value="0.0039043983" flag="0"/>
      <psa03 value="0.0216331356" flag="0"/>
      <psa10 value="0.0032997089" flag="0"/>
      <psa30 value="0.0007220117" flag="0"/>
    </comp>
    <comp name="--.HHZ">
      <acc value="0.0083130768" flag="0"/>
      <vel value="0.0034458595" flag="0"/>
      <psa03 value="0.0156837318" flag="0"/>
      <psa10 value="0.0037187335" flag="0"/>
      <psa30 value="0.0004220668" flag="0"/>
    </comp>
    <comp name="--.HHN">
      <acc value="0.0129333665" flag="0"/>
      <vel value="0.0057399851" flag="0"/>
      <psa03 value="0.0237333924" flag="0"/>
      <psa10 value="0.0033510907" flag="0"/>
      <psa30 value="0.0007077490" flag="0"/>
    </comp>
  </station>
  <station code="CRLU" name="CRLU" netid="KO" insttype="ACEBOX" lat="41.1428" lon="27.8215">
    <comp name="--.HNN">
      <acc value="0.2429492842" flag="0"/>
      <vel value="0.1226759634" flag="0"/>
      <psa03 value="0.5368241657" flag="0"/>
      <psa10 value="0.1548038320" flag="0"/>
      <psa30 value="0.0090241520" flag="0"/>
    </comp>
    <comp name="--.HNE">
      <acc value="0.2777962337" flag="0"/>
      <vel value="0.1356086320" flag="0"/>
      <psa03 value="0.5128103051" flag="0"/>
      <psa10 value="0.0997119881" flag="0"/>
      <psa30 value="0.0101421379" flag="0"/>
    </comp>
    <comp name="--.HNZ">
      <acc value="0.1726809878" flag="0"/>
      <vel value="0.0608171602" flag="0"/>
      <psa03 value="0.4102111507" flag="0"/>
      <psa10 value="0.0565172224" flag="0"/>
      <psa30 value="0.0051595685" flag="0"/>
    </comp>
  </station>
  <station code="CTKS" name="CTKS" netid="KO" insttype="CMG-3ESP" lat="41.2373" lon="28.5072">
    <comp name="--.HHE">
      <acc value="0.0503649942" flag="0"/>
      <vel value="0.0071168138" flag="0"/>
      <psa03 value="0.0304717411" flag="0"/>
      <psa10 value="0.0028483327" flag="0"/>
      <psa30 value="0.0003002754" flag="0"/>
    </comp>
    <comp name="--.HHZ">
      <acc value="0.0000271768" flag="0"/>
      <vel value="0.0000037103" flag="0"/>
      <psa03 value="0.0000098712" flag="0"/>
      <psa10 value="0.0000025261" flag="0"/>
      <psa30 value="0.0000009535" flag="0"/>
    </comp>
    <comp name="--.HHN">
      <acc value="0.0431455867" flag="0"/>
      <vel value="0.0064566073" flag="0"/>
      <psa03 value="0.0215850033" flag="0"/>
      <psa10 value="0.0025615176" flag="0"/>
      <psa30 value="0.0003056044" flag="0"/>
    </comp>
  </station>
  <station code="CTYL" name="CTYL" netid="KO" insttype="CMG-3T" lat="41.476" lon="28.2897">
    <comp name="--.HHN">
      <acc value="0.0318955240" flag="0"/>
      <vel value="0.0087926728" flag="0"/>
      <psa03 value="0.0344138452" flag="0"/>
      <psa10 value="0.0046114551" flag="0"/>
      <psa30 value="0.0002553583" flag="0"/>
    </comp>
    <comp name="--.HHZ">
      <acc value="0.0223119048" flag="0"/>
      <vel value="0.0051010957" flag="0"/>
      <psa03 value="0.0316784834" flag="0"/>
      <psa10 value="0.0022665617" flag="0"/>
      <psa30 value="0.0002274817" flag="0"/>
    </comp>
    <comp name="--.HHE">
      <acc value="0.0372791081" flag="0"/>
      <vel value="0.0132463267" flag="0"/>
      <psa03 value="0.1020186966" flag="0"/>
      <psa10 value="0.0063153350" flag="0"/>
      <psa30 value="0.0005230680" flag="0"/>
    </comp>
  </station>
  <station code="EDC" name="EDC" netid="KO" insttype="CMG-3T" lat="40.3465" lon="27.8618">
    <comp name="--.HHN">
      <acc value="0.0414831453" flag="0"/>
      <vel value="0.0205295062" flag="0"/>
      <psa03 value="0.1449937391" flag="0"/>
      <psa10 value="0.0230309367" flag="0"/>
      <psa30 value="0.0010407813" flag="0"/>
    </comp>
    <comp name="--.HHZ">
      <acc value="0.0140109694" flag="0"/>
      <vel value="0.0045862202" flag="0"/>
      <psa03 value="0.0350238592" flag="0"/>
      <psa10 value="0.0028322265" flag="0"/>
      <psa30 value="0.0002227541" flag="0"/>
    </comp>
    <comp name="--.HHE">
      <acc value="0.0353958031" flag="0"/>
      <vel value="0.0147530597" flag="0"/>
      <psa03 value="0.1150334111" flag="0"/>
      <psa10 value="0.0103038877" flag="0"/>
      <psa30 value="0.0005979565" flag="0"/>
    </comp>
  </station>
  <station code="ESKY" name="ESKY" netid="KO" insttype="CMG-5T" lat="40.5918" lon="28.9071">
    <comp name="--.HNZ">
      <acc value="0.1827938469" flag="0"/>
      <vel value="0.1112453682" flag="0"/>
      <psa03 value="0.5727828465" flag="0"/>
      <psa10 value="0.1330972175" flag="0"/>
      <psa30 value="0.0058178188" flag="0"/>
    </comp>
    <comp name="--.HNN">
      <acc value="0.5369790290" flag="0"/>
      <vel value="0.3306746690" flag="0"/>
      <psa03 value="0.8727151821" flag="0"/>
      <psa10 value="0.3467829166" flag="0"/>
      <psa30 value="0.0168777024" flag="0"/>
    </comp>
    <comp name="--.HNE">
      <acc value="0.3091744854" flag="0"/>
      <vel value="0.2123971410" flag="0"/>
      <psa03 value="0.8232990286" flag="0"/>
      <psa10 value="0.1489816225" flag="0"/>
      <psa30 value="0.0083208680" flag="0"/>
    </comp>
  </station>
  <station code="GPA" name="GPA" netid="KO" insttype="CMG-5T" lat="40.2911" lon="30.3171">
    <comp name="--.HNE">
      <acc value="0.0105899742" flag="0"/>
      <vel value="0.0058187115" flag="0"/>
      <psa03 value="0.0204478919" flag="0"/>
      <psa10 value="0.0076419652" flag="0"/>
      <psa30 value="0.0005696270" flag="0"/>
    </comp>
    <comp name="--.HNZ">
      <acc value="0.0040042897" flag="0"/>
      <vel value="0.0023867629" flag="0"/>
      <psa03 value="0.0118609137" flag="0"/>
      <psa10 value="0.0035438076" flag="0"/>
      <psa30 value="0.0004192689" flag="0"/>
    </comp>
    <comp name="--.HNN">
      <acc value="0.0089960485" flag="0"/>
      <vel value="0.0056717361" flag="0"/>
      <psa03 value="0.0275590438" flag="0"/>
      <psa10 value="0.0077728106" flag="0"/>
      <psa30 value="0.0006580553" flag="0"/>
    </comp>
  </station>
  <station code="GULT" name="GULT" netid="KO" insttype="CMG-3ESP" lat="40.432" lon="30.5152">
    <comp name="--.HHE">
      <acc value="0.0227208823" flag="0"/>
      <vel value="0.0131969566" flag="0"/>
      <psa03 value="0.0505192673" flag="0"/>
      <psa10 value="0.0161003371" flag="0"/>
      <psa30 value="0.0010597641" flag="0"/>
    </comp>
    <comp name="--.HHN">
      <acc value="0.0240806559" flag="0"/>
      <vel value="0.0169526964" flag="0"/>
      <psa03 value="0.0698569808" flag="0"/>
      <psa10 value="0.0207597667" flag="0"/>
      <psa30 value="0.0009048340" flag="0"/>
    </comp>
    <comp name="--.HHZ">
      <acc value="0.0158661823" flag="0"/>
      <vel value="0.0068665691" flag="0"/>
      <psa03 value="0.0332254024" flag="0"/>
      <psa10 value="0.0106068309" flag="0"/>
      <psa30 value="0.0005413741" flag="0"/>
    </comp>
  </station>
  <station code="HRTX" name="HRTX" netid="KO" insttype="CMG-3ESP" lat="40.8009" lon="29.6729">
    <comp name="--.HHN">
      <acc value="0.0347147873" flag="0"/>
      <vel value="0.0125939429" flag="0"/>
      <psa03 value="0.0601145868" flag="0"/>
      <psa10 value="0.0079063628" flag="0"/>
      <psa30 value="0.0005383258" flag="0"/>
    </comp>
    <comp name="--.HHE">
      <acc value="0.0385924640" flag="0"/>
      <vel value="0.0124722155" flag="0"/>
      <psa03 value="0.0872229082" flag="0"/>
      <psa10 value="0.0048724865" flag="0"/>
      <psa30 value="0.0007244969" flag="0"/>
    </comp>
  </station>
  <station code="ISK" name="ISK" netid="KO" insttype="CMG-3T" lat="41.0615" lon="29.0592">
    <comp name="--.HHE">
      <acc value="0.1467019353" flag="0"/>
      <vel value="0.0378758293" flag="0"/>
      <psa03 value="0.1237500306" flag="0"/>
      <psa10 value="0.0137066218" flag="0"/>
      <psa30 value="0.0016340549" flag="0"/>
    </comp>
    <comp name="--.HHN">
      <acc value="0.0885682653" flag="0"/>
      <vel value="0.0233972283" flag="0"/>
      <psa03 value="0.1273008112" flag="0"/>
      <psa10 value="0.0120391295" flag="0"/>
      <psa30 value="0.0015641470" flag="0"/>
    </comp>
    <comp name="--.HHZ">
      <acc value="0.1046932899" flag="0"/>
      <vel value="0.0440849293" flag="0"/>
      <psa03 value="0.1564584616" flag="0"/>
      <psa10 value="0.0189798863" flag="0"/>
      <psa30 value="0.0019002597" flag="0"/>
    </comp>
  </station>
  <station code="IZI" name="IZI" netid="KO" insttype="CMG-5T" lat="40.3483" lon="29.4612">
    <comp name="--.HNZ">
      <acc value="0.0291360455" flag="0"/>
      <vel value="0.0083312312" flag="0"/>
      <psa03 value="0.0444822974" flag="0"/>
      <psa10 value="0.0091893424" flag="0"/>
      <psa30 value="0.0006556011" flag="0"/>
    </comp>
    <comp name="--.HNE">
      <acc value="0.0536996449" flag="0"/>
      <vel value="0.0230673849" flag="0"/>
      <psa03 value="0.0656033744" flag="0"/>
      <psa10 value="0.0115552837" flag="0"/>
      <psa30 value="0.0008873713" flag="0"/>
    </comp>
    <comp name="--.HNN">
      <acc value="0.0500501298" flag="0"/>
      <vel value="0.0252634424" flag="0"/>
      <psa03 value="0.0751030770" flag="0"/>
      <psa10 value="0.0229472535" flag="0"/>
      <psa30 value="0.0013469957" flag="0"/>
    </comp>
  </station>
  <station code="KAVV" name="KAVV" netid="KO" insttype="CMG-3ESPC" lat="41.0638" lon="29.06">
    <comp name="--.HHN">
      <acc value="0.2120959778" flag="0"/>
      <vel value="0.0815311176" flag="0"/>
      <psa03 value="0.3306489911" flag="0"/>
      <psa10 value="0.0187201858" flag="0"/>
      <psa30 value="0.0019512139" flag="0"/>
    </comp>
    <comp name="--.HHZ">
      <acc value="0.1872370443" flag="0"/>
      <vel value="0.0596987185" flag="0"/>
      <psa03 value="0.2620146297" flag="0"/>
      <psa10 value="0.0232724592" flag="0"/>
      <psa30 value="0.0023333086" flag="0"/>
    </comp>
    <comp name="--.HHE">
      <acc value="0.2437518970" flag="0"/>
      <vel value="0.0634249378" flag="0"/>
      <psa03 value="0.2778660446" flag="0"/>
      <psa10 value="0.0186125043" flag="0"/>
      <psa30 value="0.0024904278" flag="0"/>
    </comp>
  </station>
  <station code="KCTX" name="KCTX" netid="KO" insttype="CMG-5T" lat="40.2626" lon="28.3353">
    <comp name="--.HNE">
      <acc value="0.0315277776" flag="0"/>
      <vel value="0.0112035814" flag="0"/>
      <psa03 value="0.0762834439" flag="0"/>
      <psa10 value="0.0058809371" flag="0"/>
      <psa30 value="0.0005860331" flag="0"/>
    </comp>
    <comp name="--.HNN">
      <acc value="0.0308414797" flag="0"/>
      <vel value="0.0141770233" flag="0"/>
      <psa03 value="0.0853651753" flag="0"/>
      <psa10 value="0.0115903220" flag="0"/>
      <psa30 value="0.0005777034" flag="0"/>
    </comp>
    <comp name="--.HNZ">
      <acc value="0.0202822970" flag="0"/>
      <vel value="0.0067357403" flag="0"/>
      <psa03 value="0.0277403391" flag="0"/>
      <psa10 value="0.0048783628" flag="0"/>
      <psa30 value="0.0004783598" flag="0"/>
    </comp>
  </station>
  <station code="KLYT" name="KLYT" netid="KO" insttype="CMG-3T" lat="41.253" lon="29.042">
    <comp name="--.HHE">
      <acc value="0.3055471271" flag="0"/>
      <vel value="0.0725289962" flag="0"/>
      <psa03 value="0.1929392497" flag="0"/>
      <psa10 value="0.0213171934" flag="0"/>
      <psa30 value="0.0012604910" flag="0"/>
    </comp>
    <comp name="--.HHN">
      <acc value="0.3365542089" flag="0"/>
      <vel value="0.0793566228" flag="0"/>
      <psa03 value="0.1667276967" flag="0"/>
      <psa10 value="0.0146542787" flag="0"/>
      <psa30 value="0.0013110605" flag="0"/>
    </comp>
    <comp name="--.HHZ">
      <acc value="0.1790213213" flag="0"/>
      <vel value="0.0330175636" flag="0"/>
      <psa03 value="0.0673902735" flag="0"/>
      <psa10 value="0.0105653619" flag="0"/>
      <psa30 value="0.0014542527" flag="0"/>
    </comp>
  </station>
  <station code="KOUK" name="KOUK" netid="KO" insttype="CMG-5T" lat="40.6572" lon="29.1918">
    <comp name="--.HNZ">
      <acc value="0.2666543428" flag="0"/>
      <vel value="0.1021163860" flag="0"/>
      <psa03 value="1.0213840818" flag="0"/>
      <psa10 value="0.0767874295" flag="0"/>
      <psa30 value="0.0056740361" flag="0"/>
    </comp>
    <comp name="--.HNE">
      <acc value="0.5594079529" flag="0"/>
      <vel value="0.2869618824" flag="0"/>
      <psa03 value="1.0801381546" flag="0"/>
      <psa10 value="0.2375995006" flag="0"/>
      <psa30 value="0.0192184169" flag="0"/>
    </comp>
    <comp name="--.HNN">
      <acc value="0.3254796354" flag="0"/>
      <vel value="0.2409156397" flag="0"/>
      <psa03 value="0.8200113222" flag="0"/>
      <psa10 value="0.3184415172" flag="0"/>
      <psa30 value="0.0204468714" flag="0"/>
    </comp>
  </station>
  <station code="KRTL" name="KRTL" netid="KO" insttype="CMG-5T" lat="40.9089" lon="29.1987">
    <comp name="--.HNE">
      <acc value="0.4542541781" flag="0"/>
      <vel value="0.0723407703" flag="0"/>
      <psa03 value="0.1775826958" flag="0"/>
      <psa10 value="0.0236493341" flag="0"/>
      <psa30 value="0.0019887735" flag="0"/>
    </comp>
    <comp name="--.HNN">
      <acc value="0.2260521345" flag="0"/>
      <vel value="0.0557282741" flag="0"/>
      <psa03 value="0.1725004620" flag="0"/>
      <psa10 value="0.0258347452" flag="0"/>
      <psa30 value="0.0026449771" flag="0"/>
    </comp>
    <comp name="--.HNZ">
      <acc value="0.1415674593" flag="0"/>
      <vel value="0.0435803752" flag="0"/>
      <psa03 value="0.0849553878" flag="0"/>
      <psa10 value="0.0261447610" flag="0"/>
      <psa30 value="0.0029694685" flag="0"/>
    </comp>
  </station>
  <station code="MAEG" name="MAEG" netid="KO" insttype="CMG-5T" lat="40.9653" lon="27.9448">
    <comp name="--.HNE">
      <acc value="0.0207083940" flag="0"/>
      <vel value="0.0125055576" flag="0"/>
      <psa03 value="0.0502390706" flag="0"/>
      <psa10 value="0.0077973045" flag="0"/>
      <psa30 value="0.0005803796" flag="0"/>
    </comp>
    <comp name="--.HNN">
      <acc value="0.0252132874" flag="0"/>
      <vel value="0.0105581996" flag="0"/>
      <psa03 value="0.0630225228" flag="0"/>
      <psa10 value="0.0037656397" flag="0"/>
      <psa30 value="0.0004324658" flag="0"/>
    </comp>
    <comp name="--.HNZ">
      <acc value="0.0084795938" flag="0"/>
      <vel value="0.0023804090" flag="0"/>
      <psa03 value="0.0121107844" flag="0"/>
      <psa10 value="0.0023632028" flag="0"/>
      <psa30 value="0.0002170585" flag="0"/>
    </comp>
  </station>
  <station code="MDNY" name="MDNY" netid="KO" insttype="CMG-3ESP" lat="40.3709" lon="28.8846">
    <comp name="--.HHZ">
      <acc value="0.1198036232" flag="0"/>
      <vel value="0.0274638225" flag="0"/>
      <psa03 value="0.1071474372" flag="0"/>
      <psa10 value="0.0139095653" flag="0"/>
      <psa30 value="0.0011670350" flag="0"/>
    </comp>
    <comp name="--.HHE">
      <acc value="0.3191124545" flag="0"/>
      <vel value="0.1253697105" flag="0"/>
      <psa03 value="0.8092893005" flag="0"/>
      <psa10 value="0.0237449589" flag="0"/>
      <psa30 value="0.0023677700" flag="0"/>
    </comp>
  </station>
  <station code="ORLT" name="ORLT" netid="KO" insttype="CMG-5T" lat="40.0452" lon="28.8914">
    <comp name="--.HNE">
      <acc value="0.0363772236" flag="0"/>
      <vel value="0.0152958383" flag="0"/>
      <psa03 value="0.0692660163" flag="0"/>
      <psa10 value="0.0107058142" flag="0"/>
      <psa30 value="0.0008683965" flag="0"/>
    </comp>
    <comp name="--.HNN">
      <acc value="0.0494844237" flag="0"/>
      <vel value="0.0254822842" flag="0"/>
      <psa03 value="0.1369119268" flag="0"/>
      <psa10 value="0.0243584487" flag="0"/>
      <psa30 value="0.0010237908" flag="0"/>
    </comp>
