<?xml version="1.0" encoding="UTF-8" standalone="yes"?>
<!DOCTYPE earthquake SYSTEM "stationlist.dtd">
<stationlist created="" xmlns="ch.ethz.sed.shakemap.usgs.xml">
  <station code="ADVT" name="ADVT" netid="KO" insttype="CMG-3ESP" lat="40.4332" lon="29.7383">
    <comp name="--.HHE">
      <acc value="0.0235659295" flag="0"/>
      <vel value="0.0061403340" flag="0"/>
      <psa03 value="0.0193299834" flag="0"/>
      <psa10 value="0.0048447256" flag="0"/>
      <psa30 value="0.0005537895" flag="0"/>
    </comp>
    <comp name="--.HHN">
      <acc value="0.0203118028" flag="0"/>
      <vel value="0.0049948439" flag="0"/>
      <psa03 value="0.0312481177" flag="0"/>
      <psa10 value="0.0025075688" flag="0"/>
      <psa30 value="0.0003659978" flag="0"/>
    </comp>
    <comp name="--.HHZ">
      <acc value="0.0156027522" flag="0"/>
      <vel value="0.0037946778" flag="0"/>
      <psa03 value="0.0153268191" flag="0"/>
      <psa10 value="0.0036026237" flag="0"/>
      <psa30 value="0.0003809436" flag="0"/>
    </comp>
  </station>
  <station code="ARMT" name="ARMT" netid="KO" insttype="CMG-3ESP" lat="40.5683" lon="28.866">
    <comp name="--.HHN">
      <acc value="0.1345076064" flag="0"/>
      <vel value="0.0604164160" flag="0"/>
      <psa03 value="0.3161138747" flag="0"/>
      <psa10 value="0.0485175067" flag="0"/>
      <psa30 value="0.0041745119" flag="0"/>
    </comp>
    <comp name="--.HHZ">
      <acc value="0.0815309977" flag="0"/>
      <vel value="0.0272056225" flag="0"/>
      <psa03 value="0.1544643440" flag="0"/>
      <psa10 value="0.0261323885" flag="0"/>
      <psa30 value="0.0019230212" flag="0"/>
    </comp>
    <comp name="--.HHE">
      <acc value="0.1252809515" flag="0"/>
      <vel value="0.0364955928" flag="0"/>
      <psa03 value="0.2932735498" flag="0"/>
      <psa10 value="0.0251141804" flag="0"/>
      <psa30 value="0.0021845259" flag="0"/>
    </comp>
  </station>
  <station code="BGKT" name="BGKT" netid="KO" insttype="CMG-3ESP" lat="41.181" lon="28.773">
    <comp name="--.HHE">
      <acc value="0.0761991575" flag="0"/>
      <vel value="0.0202135653" flag="0"/>
      <psa03 value="0.0760508764" flag="0"/>
      <psa10 value="0.0113863426" flag="0"/>
      <psa30 value="0.0008506831" flag="0"/>
    </comp>
    <comp name="--.HHZ">
      <acc value="0.0349691910" flag="0"/>
      <vel value="0.0110193896" flag="0"/>
      <psa03 value="0.0812710083" flag="0"/>
      <psa10 value="0.0080686466" flag="0"/>
      <psa30 value="0.0010841368" flag="0"/>
    </comp>
    <comp name="--.HHN">
      <acc value="0.0672192598" flag="0"/>
      <vel value="0.0162823623" flag="0"/>
      <psa03 value="0.1040281228" flag="0"/>
      <psa10 value="0.0080103203" flag="0"/>
      <psa30 value="0.0008563020" flag="0"/>
    </comp>
  </station>
  <station code="BUYA" name="BUYA" netid="KO" insttype="CMG-5T" lat="40.8694" lon="29.1278">
    <comp name="--.HNN">
      <acc value="0.8577987258" flag="0"/>
      <vel value="0.3055095354" flag="0"/>
      <psa03 value="0.7822682411" flag="0"/>
      <psa10 value="0.1350211503" flag="0"/>
      <psa30 value="0.0114694328" flag="0"/>
    </comp>
  </station>
  <station code="BUYK" name="BUYK" netid="KO" insttype="ACEBOX" lat="41.0168" lon="28.5828">
    <comp name="--.HNN">
      <acc value="0.0208658386" flag="0"/>
      <vel value="0.0176392404" flag="0"/>
      <psa03 value="0.0584919505" flag="0"/>
      <psa10 value="0.0381519821" flag="0"/>
      <psa30 value="0.0026257566" flag="0"/>
    </comp>
    <comp name="--.HNZ">
      <acc value="0.0182312710" flag="0"/>
      <vel value="0.0097751629" flag="0"/>
      <psa03 value="0.0392786837" flag="0"/>
      <psa10 value="0.0191476115" flag="0"/>
      <psa30 value="0.0007876264" flag="0"/>
    </comp>
    <comp name="--.HNE">
      <acc value="0.0203121195" flag="0"/>
      <vel value="0.0233259745" flag="0"/>
      <psa03 value="0.0533389760" flag="0"/>
      <psa10 value="0.0307721887" flag="0"/>
      <psa30 value="0.0043206790" flag="0"/>
    </comp>
  </station>
  <station code="CTKS" name="CTKS" netid="KO" insttype="CMG-3ESP" lat="41.2373" lon="28.5072">
    <comp name="--.HHE">
      <acc value="0.0503649943" flag="0"/>
      <vel value="0.0071168112" flag="0"/>
      <psa03 value="0.0304717411" flag="0"/>
      <psa10 value="0.0028483327" flag="0"/>
      <psa30 value="0.0003002735" flag="0"/>
    </comp>
    <comp name="--.HHN">
      <acc value="0.0431455867" flag="0"/>
      <vel value="0.0064566090" flag="0"/>
      <psa03 value="0.0215850033" flag="0"/>
      <psa10 value="0.0025615176" flag="0"/>
      <psa30 value="0.0003055867" flag="0"/>
    </comp>
    <comp name="--.HHZ">
      <acc value="0.0000271768" flag="0"/>
      <vel value="0.0000037103" flag="0"/>
      <psa03 value="0.0000098712" flag="0"/>
      <psa10 value="0.0000025500" flag="0"/>
      <psa30 value="0.0000009536" flag="0"/>
    </comp>
  </station>
  <station code="CTYL" name="CTYL" netid="KO" insttype="CMG-5T" lat="41.476" lon="28.2897">
    <comp name="--.HNN">
      <acc value="0.0308392314" flag="0"/>
      <vel value="0.0091103970" flag="0"/>
      <psa03 value="0.0371951464" flag="0"/>
      <psa10 value="0.0046160451" flag="0"/>
      <psa30 value="0.0004453409" flag="0"/>
    </comp>
    <comp name="--.HNZ">
      <acc value="0.0229809161" flag="0"/>
      <vel value="0.0049668050" flag="0"/>
      <psa03 value="0.0331125412" flag="0"/>
      <psa10 value="0.0023941218" flag="0"/>
      <psa30 value="0.0003305495" flag="0"/>
    </comp>
  </station>
  <station code="EDC" name="EDC" netid="KO" insttype="CMG-5T" lat="40.3465" lon="27.8618">
    <comp name="--.HNE">
      <acc value="0.0343024001" flag="0"/>
      <vel value="0.0143922555" flag="0"/>
      <psa03 value="0.1158718693" flag="0"/>
      <psa10 value="0.0104407354" flag="0"/>
      <psa30 value="0.0004878041" flag="0"/>
    </comp>
    <comp name="--.HNN">
      <acc value="0.0439096734" flag="0"/>
      <vel value="0.0204873263" flag="0"/>
      <psa03 value="0.1469572492" flag="0"/>
      <psa10 value="0.0232248803" flag="0"/>
      <psa30 value="0.0010947059" flag="0"/>
    </comp>
  </station>
  <station code="ESKY" name="ESKY" netid="KO" insttype="CMG-5T" lat="40.5918" lon="28.9071">
    <comp name="--.HNE">
      <acc value="0.3091744782" flag="0"/>
      <vel value="0.2123971439" flag="0"/>
      <psa03 value="0.8232990286" flag="0"/>
      <psa10 value="0.1489816314" flag="0"/>
      <psa30 value="0.0083209502" flag="0"/>
    </comp>
    <comp name="--.HNN">
      <acc value="0.5369790216" flag="0"/>
      <vel value="0.3306746702" flag="0"/>
      <psa03 value="0.8727151821" flag="0"/>
      <psa10 value="0.3467829244" flag="0"/>
      <psa30 value="0.0168813404" flag="0"/>
    </comp>
    <comp name="--.HNZ">
      <acc value="0.1827938514" flag="0"/>
      <vel value="0.1112453683" flag="0"/>
      <psa03 value="0.5727828465" flag="0"/>
      <psa10 value="0.1330972192" flag="0"/>
      <psa30 value="0.0058194972" flag="0"/>
    </comp>
  </station>
  <station code="GPA" name="GPA" netid="KO" insttype="CMG-5T" lat="40.2911" lon="30.3171">
    <comp name="--.HNE">
      <acc value="0.0105899740" flag="0"/>
      <vel value="0.0058187127" flag="0"/>
      <psa03 value="0.0204478919" flag="0"/>
      <psa10 value="0.0076419652" flag="0"/>
      <psa30 value="0.0005696486" flag="0"/>
    </comp>
    <comp name="--.HNZ">
      <acc value="0.0040042891" flag="0"/>
      <vel value="0.0023867667" flag="0"/>
      <psa03 value="0.0118609137" flag="0"/>
      <psa10 value="0.0035438076" flag="0"/>
      <psa30 value="0.0004191938" flag="0"/>
    </comp>
  </station>
  <station code="HRTX" name="HRTX" netid="KO" insttype="CMG-3ESP" lat="40.8009" lon="29.6729">
    <comp name="--.HHE">
      <acc value="0.0385924640" flag="0"/>
      <vel value="0.0124722178" flag="0"/>
      <psa03 value="0.0872229082" flag="0"/>
      <psa10 value="0.0048724865" flag="0"/>
      <psa30 value="0.0007244913" flag="0"/>
    </comp>
    <comp name="--.HHN">
      <acc value="0.0347147873" flag="0"/>
      <vel value="0.0125939430" flag="0"/>
      <psa03 value="0.0601145868" flag="0"/>
      <psa10 value="0.0079063639" flag="0"/>
      <psa30 value="0.0005381860" flag="0"/>
    </comp>
  </station>
  <station code="ISK" name="ISK" netid="KO" insttype="CMG-3T" lat="41.0615" lon="29.0592">
    <comp name="--.HHN">
      <acc value="0.0885682653" flag="0"/>
      <vel value="0.0233972284" flag="0"/>
      <psa03 value="0.1273008112" flag="0"/>
      <psa10 value="0.0120391293" flag="0"/>
      <psa30 value="0.0015641417" flag="0"/>
    </comp>
    <comp name="--.HHE">
      <acc value="0.1467019354" flag="0"/>
      <vel value="0.0378758292" flag="0"/>
      <psa03 value="0.1237500306" flag="0"/>
      <psa10 value="0.0137066216" flag="0"/>
      <psa30 value="0.0016340628" flag="0"/>
    </comp>
    <comp name="--.HHZ">
      <acc value="0.1046932899" flag="0"/>
      <vel value="0.0440849295" flag="0"/>
      <psa03 value="0.1564584616" flag="0"/>
      <psa10 value="0.0189798863" flag="0"/>
      <psa30 value="0.0019002336" flag="0"/>
    </comp>
  </station>
  <station code="IZI" name="IZI" netid="KO" insttype="CMG-5T" lat="40.3483" lon="29.4612">
    <comp name="--.HNN">
      <acc value="0.0500501299" flag="0"/>
      <vel value="0.0252634414" flag="0"/>
      <psa03 value="0.0751030770" flag="0"/>
      <psa10 value="0.0229472535" flag="0"/>
      <psa30 value="0.0013473558" flag="0"/>
    </comp>
    <comp name="--.HNE">
      <acc value="0.0536996438" flag="0"/>
      <vel value="0.0230673837" flag="0"/>
      <psa03 value="0.0656033744" flag="0"/>
      <psa10 value="0.0115552772" flag="0"/>
      <psa30 value="0.0008888275" flag="0"/>
    </comp>
    <comp name="--.HNZ">
      <acc value="0.0291360466" flag="0"/>
      <vel value="0.0083312302" flag="0"/>
      <psa03 value="0.0444822974" flag="0"/>
      <psa10 value="0.0091893409" flag="0"/>
      <psa30 value="0.0006553173" flag="0"/>
    </comp>
  </station>
  <station code="KAVV" name="KAVV" netid="KO" insttype="CMG-3ESPC" lat="41.0638" lon="29.06">
    <comp name="--.HHE">
      <acc value="0.2437518969" flag="0"/>
      <vel value="0.0634249379" flag="0"/>
      <psa03 value="0.2778660446" flag="0"/>
      <psa10 value="0.0186125040" flag="0"/>
      <psa30 value="0.0024904333" flag="0"/>
    </comp>
    <comp name="--.HHN">
      <acc value="0.2120959778" flag="0"/>
      <vel value="0.0815311173" flag="0"/>
      <psa03 value="0.3306489911" flag="0"/>
      <psa10 value="0.0187201858" flag="0"/>
      <psa30 value="0.0019512117" flag="0"/>
    </comp>
    <comp name="--.HHZ">
      <acc value="0.1872370443" flag="0"/>
      <vel value="0.0596987175" flag="0"/>
      <psa03 value="0.2620146297" flag="0"/>
      <psa10 value="0.0232724592" flag="0"/>
      <psa30 value="0.0023333104" flag="0"/>
    </comp>
  </station>
  <station code="KCTX" name="KCTX" netid="KO" insttype="CMG-5T" lat="40.2626" lon="28.3353">
    <comp name="--.HNE">
      <acc value="0.0315277889" flag="0"/>
      <vel value="0.0112035870" flag="0"/>
      <psa03 value="0.0762834439" flag="0"/>
      <psa10 value="0.0058809375" flag="0"/>
      <psa30 value="0.0005856779" flag="0"/>
    </comp>
    <comp name="--.HNN">
      <acc value="0.0308414902" flag="0"/>
      <vel value="0.0141770215" flag="0"/>
      <psa03 value="0.0853651753" flag="0"/>
      <psa10 value="0.0115903214" flag="0"/>
      <psa30 value="0.0005783291" flag="0"/>
    </comp>
    <comp name="--.HNZ">
      <acc value="0.0202822969" flag="0"/>
      <vel value="0.0067357457" flag="0"/>
      <psa03 value="0.0277403391" flag="0"/>
      <psa10 value="0.0048783628" flag="0"/>
      <psa30 value="0.0004774714" flag="0"/>
    </comp>
  </station>
  <station code="KLYT" name="KLYT" netid="KO" insttype="CMG-3T" lat="41.253" lon="29.042">
    <comp name="--.HHE">
      <acc value="0.3055471271" flag="0"/>
      <vel value="0.0725289949" flag="0"/>
      <psa03 value="0.1929392497" flag="0"/>
      <psa10 value="0.0213171929" flag="0"/>
      <psa30 value="0.0012605537" flag="0"/>
    </comp>
    <comp name="--.HHN">
      <acc value="0.3365542090" flag="0"/>
      <vel value="0.0793566232" flag="0"/>
      <psa03 value="0.1667276967" flag="0"/>
      <psa10 value="0.0146542798" flag="0"/>
      <psa30 value="0.0013112149" flag="0"/>
    </comp>
    <comp name="--.HHZ">
      <acc value="0.1790213213" flag="0"/>
      <vel value="0.0330175632" flag="0"/>
      <psa03 value="0.0673902735" flag="0"/>
      <psa10 value="0.0105653619" flag="0"/>
      <psa30 value="0.0014542975" flag="0"/>
    </comp>
  </station>
  <station code="KOUK" name="KOUK" netid="KO" insttype="CMG-5T" lat="40.6572" lon="29.1918">
    <comp name="--.HNE">
      <acc value="0.5594079535" flag="0"/>
      <vel value="0.2869618840" flag="0"/>
      <psa03 value="1.0801381546" flag="0"/>
      <psa10 value="0.2375994998" flag="0"/>
      <psa30 value="0.0192176776" flag="0"/>
    </comp>
    <comp name="--.HNN">
      <acc value="0.3254796328" flag="0"/>
      <vel value="0.2409156378" flag="0"/>
      <psa03 value="0.8200113222" flag="0"/>
      <psa10 value="0.3184415118" flag="0"/>
      <psa30 value="0.0204467173" flag="0"/>
    </comp>
    <comp name="--.HNZ">
      <acc value="0.2666543427" flag="0"/>
      <vel value="0.1021163898" flag="0"/>
      <psa03 value="1.0213840818" flag="0"/>
      <psa10 value="0.0767874252" flag="0"/>
      <psa30 value="0.0056736661" flag="0"/>
    </comp>
  </station>
  <station code="KRTL" name="KRTL" netid="KO" insttype="CMG-5T" lat="40.9089" lon="29.1987">
    <comp name="--.HNE">
      <acc value="0.4542541812" flag="0"/>
      <vel value="0.0723407696" flag="0"/>
      <psa03 value="0.1775826958" flag="0"/>
      <psa10 value="0.0236493466" flag="0"/>
      <psa30 value="0.0019899615" flag="0"/>
    </comp>
    <comp name="--.HNN">
      <acc value="0.2260521309" flag="0"/>
      <vel value="0.0557282752" flag="0"/>
      <psa03 value="0.1725004620" flag="0"/>
      <psa10 value="0.0258347444" flag="0"/>
      <psa30 value="0.0026443446" flag="0"/>
    </comp>
    <comp name="--.HNZ">
      <acc value="0.1415674659" flag="0"/>
      <vel value="0.0435803758" flag="0"/>
      <psa03 value="0.0849553878" flag="0"/>
      <psa10 value="0.0261447548" flag="0"/>
      <psa30 value="0.0029734974" flag="0"/>
    </comp>
  </station>
  <station code="MAEG" name="MAEG" netid="KO" insttype="CMG-5T" lat="40.9653" lon="27.9448">
    <comp name="--.HNE">
      <acc value="0.0207083941" flag="0"/>
      <vel value="0.0125055600" flag="0"/>
      <psa03 value="0.0502390706" flag="0"/>
      <psa10 value="0.0077973053" flag="0"/>
      <psa30 value="0.0005803860" flag="0"/>
    </comp>
    <comp name="--.HNN">
      <acc value="0.0252132884" flag="0"/>
      <vel value="0.0105582017" flag="0"/>
      <psa03 value="0.0630225228" flag="0"/>
      <psa10 value="0.0037656397" flag="0"/>
      <psa30 value="0.0004324614" flag="0"/>
    </comp>
    <comp name="--.HNZ">
      <acc value="0.0084795904" flag="0"/>
      <vel value="0.0023804060" flag="0"/>
      <psa03 value="0.0121107844" flag="0"/>
      <psa10 value="0.0023632028" flag="0"/>
      <psa30 value="0.0002166760" flag="0"/>
    </comp>
  </station>
  <station code="MDNY" name="MDNY" netid="KO" insttype="CMG-3ESP" lat="40.3709" lon="28.8846">
    <comp name="--.HHE">
      <acc value="0.3191124545" flag="0"/>
      <vel value="0.1253697099" flag="0"/>
      <psa03 value="0.8092893004" flag="0"/>
      <psa10 value="0.0237449580" flag="0"/>
      <psa30 value="0.0023677661" flag="0"/>
    </comp>
    <comp name="--.HHZ">
      <acc value="0.1198036232" flag="0"/>
      <vel value="0.0274638222" flag="0"/>
      <psa03 value="0.1071474372" flag="0"/>
      <psa10 value="0.0139095646" flag="0"/>
      <psa30 value="0.0011671035" flag="0"/>
    </comp>
  </station>
  <station code="ORLT" name="ORLT" netid="KO" insttype="CMG-5T" lat="40.0452" lon="28.8914">
    <comp name="--.HNN">
      <acc value="0.0494844235" flag="0"/>
      <vel value="0.0254822919" flag="0"/>
      <psa03 value="0.1369119267" flag="0"/>
      <psa10 value="0.0243584467" flag="0"/>
      <psa30 value="0.0010232556" flag="0"/>
    </comp>
    <comp name="--.HNZ">
      <acc value="0.0164269915" flag="0"/>
      <vel value="0.0078548903" flag="0"/>
      <psa03 value="0.0207169393" flag="0"/>
      <psa10 value="0.0091698916" flag="0"/>
      <psa30 value="0.0004867493" flag="0"/>
    </comp>
    <comp name="--.HNE">
      <acc value="0.0363772226" flag="0"/>
      <vel value="0.0152958381" flag="0"/>
      <psa03 value="0.0692660163" flag="0"/>
      <psa10 value="0.0107058141" flag="0"/>
      <psa30 value="0.0008683678" flag="0"/>
    </comp>
  </station>
  <station code="OSMT" name="OSMT" netid="KO" insttype="CMG-5T" lat="40.6009" lon="29.7">
    <comp name="--.HNE">
      <acc value="0.0527155784" flag="0"/>
      <vel value="0.0129763784" flag="0"/>
      <psa03 value="0.0564906340" flag="0"/>
      <psa10 value="0.0049401843" flag="0"/>
      <psa30 value="0.0005687306" flag="0"/>
    </comp>
    <comp name="--.HNN">
      <acc value="0.0449853807" flag="0"/>
      <vel value="0.0097363273" flag="0"/>
      <psa03 value="0.0364826813" flag="0"/>
      <psa10 value="0.0055568018" flag="0"/>
      <psa30 value="0.0007003248" flag="0"/>
    </comp>
    <comp name="--.HNZ">
      <acc value="0.0223436248" flag="0"/>
      <vel value="0.0061150372" flag="0"/>
      <psa03 value="0.0180709734" flag="0"/>
      <psa10 value="0.0079481503" flag="0"/>
      <psa30 value="0.0005593140" flag="0"/>
    </comp>
  </station>
  <station code="SAUV" name="SAUV" netid="KO" insttype="CMG-6T" lat="40.7401" lon="30.3271">
    <comp name="--.HHE">
      <acc value="0.0171990790" flag="0"/>
      <vel value="0.0051656652" flag="0"/>
      <psa03 value="0.0213278704" flag="0"/>
      <psa10 value="0.0051002030" flag="0"/>
      <psa30 value="0.0002947209" flag="0"/>
    </comp>
    <comp name="--.HHN">
      <acc value="0.0281896583" flag="0"/>
      <vel value="0.0105883703" flag="0"/>
      <psa03 value="0.0216483144" flag="0"/>
      <psa10 value="0.0097260512" flag="0"/>
      <psa30 value="0.0006671899" flag="0"/>
    </comp>
    <comp name="--.HHZ">
      <acc value="0.0182058702" flag="0"/>
      <vel value="0.0040373321" flag="0"/>
      <psa03 value="0.0245007591" flag="0"/>
      <psa10 value="0.0043502278" flag="0"/>
      <psa30 value="0.0001883330" flag="0"/>
    </comp>
  </station>
  <station code="SILV" name="SILV" netid="KO" insttype="ACEBOX" lat="41.0723" lon="28.239">
    <comp name="--.HNE">
      <acc value="0.0366191630" flag="0"/>
      <vel value="0.0121225065" flag="0"/>
      <psa03 value="0.0734608333" flag="0"/>
      <psa10 value="0.0075263782" flag="0"/>
      <psa30 value="0.0006724311" flag="0"/>
    </comp>
    <comp name="--.HNN">
      <acc value="0.0309523742" flag="0"/>
      <vel value="0.0097610646" flag="0"/>
      <psa03 value="0.0650549717" flag="0"/>
      <psa10 value="0.0093596809" flag="0"/>
      <psa30 value="0.0010832711" flag="0"/>
    </comp>
    <comp name="--.HNZ">
      <acc value="0.0141671298" flag="0"/>
      <vel value="0.0028626997" flag="0"/>
      <psa03 value="0.0167874031" flag="0"/>
      <psa10 value="0.0046135694" flag="0"/>
      <psa30 value="0.0005449288" flag="0"/>
    </comp>
  </station>
  <station code="SINB" name="SINB" netid="KO" insttype="CMG-5T" lat="40.9998" lon="28.5392">
    <comp name="--.HNZ">
      <acc value="0.0362184026" flag="0"/>
      <vel value="0.0065426182" flag="0"/>
      <psa03 value="0.0354344683" flag="0"/>
      <psa10 value="0.0064308898" flag="0"/>
      <psa30 value="0.0015152284" flag="0"/>
    </comp>
  </station>
  <station code="SUSR" name="SUSR" netid="KO" insttype="CMG-5T" lat="39.9627" lon="28.0835">
    <comp name="--.HNN">
      <acc value="0.0180578902" flag="0"/>
