<stationlist created="1775181332">
	<station code="MARCO" name="MARCO" netid="GE" source="GEOFON" insttype="" lat="40.29724" lon="15.80632">
		<comp name="--.HLE" depth="1.0">
			<acc value="0.00195951529602557" flag="0"/>
			<vel value="0.00170117771181187" flag="0"/>
			<psa03 value="0.00443557313182632" flag="0"/>
			<psa10 value="0.00258919988115999" flag="0"/>
			<psa30 value="0.000509488803216105" flag="0"/>
		</comp>
		<comp name="--.HLN" depth="1.0">
			<acc value="0.00272300841016732" flag="0"/>
			<vel value="0.00382021914075545" flag="0"/>
			<psa03 value="0.00527565515032464" flag="0"/>
			<psa10 value="0.00308088018694221" flag="0"/>
			<psa30 value="0.00161907402654159" flag="0"/>
		</comp>
		<comp name="--.HLZ" depth="1.0">
			<acc value="0.000684329452464523" flag="0"/>
			<vel value="0.000576597082013816" flag="0"/>
			<psa03 value="0.001496493666611" flag="0"/>
			<psa10 value="0.0006972905475454" flag="0"/>
			<psa30 value="0.000162185913291622" flag="0"/>
		</comp>
	</station>
	<station code="ACR" name="ACR" netid="IT" source="Italian Strong Motion Network (RAN)" insttype="" lat="39.4889" lon="16.3798">
		<comp name="--.HNE" depth="0.0">
			<acc value="0.00390252602705938" flag="0"/>
			<vel value="0.00325805709427523" flag="0"/>
			<psa03 value="0.0173693680833077" flag="0"/>
			<psa10 value="0.00430254049094175" flag="0"/>
			<psa30 value="0.000603735254914326" flag="0"/>
		</comp>
		<comp name="--.HNN" depth="0.0">
			<acc value="0.00594060826298155" flag="0"/>
			<vel value="0.00315298718686546" flag="0"/>
			<psa03 value="0.0153680922794408" flag="0"/>
			<psa10 value="0.0068863008711365" flag="0"/>
			<psa30 value="0.000397250951342586" flag="0"/>
		</comp>
		<comp name="--.HNZ" depth="0.0">
			<acc value="0.00804411280826544" flag="0"/>
			<vel value="0.00274668631792606" flag="0"/>
			<psa03 value="0.0235755513479073" flag="0"/>
			<psa10 value="0.00337312228092168" flag="0"/>
			<psa30 value="0.00023929634700025" flag="0"/>
		</comp>
	</station>
	<station code="AGNN" name="AGNN" netid="IT" source="Italian Strong Motion Network (RAN)" insttype="" lat="41.808" lon="14.3706">
		<comp name="--.HNE" depth="0.0">
			<acc value="0.0068573691272547" flag="0"/>
			<vel value="0.00247274093514907" flag="0"/>
			<psa03 value="0.00338177676048848" flag="0"/>
			<psa10 value="0.00116393249544054" flag="0"/>
			<psa30 value="0.000750156204583644" flag="0"/>
		</comp>
		<comp name="--.HNN" depth="0.0">
			<acc value="0.00334999495751223" flag="0"/>
			<vel value="0.00194190135883222" flag="0"/>
			<psa03 value="0.00304531501842434" flag="0"/>
			<psa10 value="0.00188938149037613" flag="0"/>
			<psa30 value="0.000373781818502716" flag="0"/>
		</comp>
		<comp name="--.HNZ" depth="0.0">
			<acc value="0.00480699902736563" flag="0"/>
			<vel value="0.00234637675474744" flag="0"/>
			<psa03 value="0.00485430692557262" flag="0"/>
			<psa10 value="0.00197034911970921" flag="0"/>
			<psa30 value="0.000450187010180021" flag="0"/>
		</comp>
	</station>
	<station code="ALD" name="ALD" netid="IT" source="Italian Strong Motion Network (RAN)" insttype="" lat="39.9298" lon="16.4653">
		<comp name="--.HNE" depth="0.0">
			<acc value="0.00642654636009452" flag="0"/>
			<vel value="0.00164578844935971" flag="0"/>
			<psa03 value="0.00785959552942259" flag="0"/>
			<psa10 value="0.00239646289453053" flag="0"/>
			<psa30 value="0.0002965051628452" flag="0"/>
		</comp>
		<comp name="--.HNN" depth="0.0">
			<acc value="0.00626833894048855" flag="0"/>
			<vel value="0.00252690604509051" flag="0"/>
			<psa03 value="0.00907709480256593" flag="0"/>
			<psa10 value="0.00398003928306948" flag="0"/>
			<psa30 value="0.000478865889181673" flag="0"/>
		</comp>
		<comp name="--.HNZ" depth="0.0">
			<acc value="0.0109937931552787" flag="0"/>
			<vel value="0.00157473820572485" flag="0"/>
			<psa03 value="0.00503512359128932" flag="0"/>
			<psa10 value="0.00132582181356335" flag="0"/>
			<psa30 value="0.000339172989379305" flag="0"/>
		</comp>
	</station>
	<station code="ALFD" name="ALFD" netid="IT" source="Italian Strong Motion Network (RAN)" insttype="" lat="41.7415" lon="14.0442">
		<comp name="--.HNE" depth="0.0">
			<acc value="0.0018868395489241" flag="0"/>
			<vel value="0.00133900059767546" flag="0"/>
			<psa03 value="0.00284813301077155" flag="0"/>
			<psa10 value="0.00167537016473862" flag="0"/>
			<psa30 value="0.000240836683414978" flag="0"/>
		</comp>
		<comp name="--.HNN" depth="0.0">
			<acc value="0.0015378358881991" flag="0"/>
			<vel value="0.000851882231443638" flag="0"/>
			<psa03 value="0.00141192979644046" flag="0"/>
			<psa10 value="0.00162638219296341" flag="0"/>
			<psa30 value="0.000268124298377215" flag="0"/>
		</comp>
		<comp name="--.HNZ" depth="0.0">
			<acc value="0.00171951214146725" flag="0"/>
			<vel value="0.00136291840912371" flag="0"/>
			<psa03 value="0.00183467606302464" flag="0"/>
			<psa10 value="0.00164834470255939" flag="0"/>
			<psa30 value="0.000208656778216689" flag="0"/>
		</comp>
	</station>
	<station code="ALT" name="ALT" netid="IT" source="Italian Strong Motion Network (RAN)" insttype="" lat="40.5583" lon="15.3921">
		<comp name="--.HGE" depth="0.0">
			<acc value="0.00213310192249575" flag="0"/>
			<vel value="0.00165792629565598" flag="0"/>
			<psa03 value="0.00181387683361526" flag="0"/>
			<psa10 value="0.00164779751787359" flag="0"/>
			<psa30 value="0.000807063516080411" flag="0"/>
		</comp>
		<comp name="--.HGN" depth="0.0">
			<acc value="0.00232613360791337" flag="0"/>
			<vel value="0.00118296413542172" flag="0"/>
			<psa03 value="0.00160748409209865" flag="0"/>
			<psa10 value="0.00126739552123323" flag="0"/>
			<psa30 value="0.000430559199517226" flag="0"/>
		</comp>
		<comp name="--.HGZ" depth="0.0">
			<acc value="0.00288160724439494" flag="0"/>
			<vel value="0.000947753079346355" flag="0"/>
			<psa03 value="0.00237280269434589" flag="0"/>
			<psa10 value="0.00147019512758686" flag="0"/>
			<psa30 value="0.000274938734175143" flag="0"/>
		</comp>
	</station>
	<station code="AMSN" name="AMSN" netid="IT" source="Italian Strong Motion Network (RAN)" insttype="" lat="41.4684" lon="13.3336">
		<comp name="--.HNE" depth="0.0">
			<acc value="0.00870572420065976" flag="0"/>
			<vel value="0.000721533386182756" flag="0"/>
			<psa03 value="0.000999906001235089" flag="0"/>
			<psa10 value="0.00067074007776958" flag="0"/>
			<psa30 value="0.000340612147216449" flag="0"/>
		</comp>
		<comp name="--.HNN" depth="0.0">
			<acc value="0.00723090283127285" flag="0"/>
			<vel value="0.000632218366739725" flag="0"/>
			<psa03 value="0.00122462743089568" flag="0"/>
			<psa10 value="0.000718057431062015" flag="0"/>
			<psa30 value="0.000235694389638252" flag="0"/>
		</comp>
		<comp name="--.HNZ" depth="0.0">
			<acc value="0.00201185849714758" flag="0"/>
			<vel value="0.00114175751978375" flag="0"/>
			<psa03 value="0.00398168759538708" flag="0"/>
			<psa10 value="0.00162955853619306" flag="0"/>
			<psa30 value="0.00015992713084587" flag="0"/>
		</comp>
	</station>
	<station code="ARI" name="ARI" netid="IT" source="Italian Strong Motion Network (RAN)" insttype="" lat="41.1546" lon="15.0903">
		<comp name="--.HGE" depth="0.0">
			<acc value="0.011817603250473" flag="0"/>
			<vel value="0.0017726046189611" flag="0"/>
			<psa03 value="0.00997094307812741" flag="0"/>
			<psa10 value="0.0019769807308959" flag="0"/>
			<psa30 value="0.00108330728462434" flag="0"/>
		</comp>
		<comp name="--.HGN" depth="0.0">
			<acc value="0.0118976326463505" flag="0"/>
			<vel value="0.00193608880618245" flag="0"/>
			<psa03 value="0.00747319037468581" flag="0"/>
			<psa10 value="0.00251150293724377" flag="0"/>
			<psa30 value="0.000856039260483117" flag="0"/>
		</comp>
		<comp name="--.HGZ" depth="0.0">
			<acc value="0.0251403742154805" flag="0"/>
			<vel value="0.00184980198595209" flag="0"/>
			<psa03 value="0.00528393401907156" flag="0"/>
			<psa10 value="0.00279397821234443" flag="0"/>
			<psa30 value="0.000569587419871176" flag="0"/>
		</comp>
	</station>
	<station code="ASR" name="ASR" netid="IT" source="Italian Strong Motion Network (RAN)" insttype="" lat="41.199" lon="15.563">
		<comp name="--.HNE" depth="0.0">
			<acc value="0.00292203247045673" flag="0"/>
			<vel value="0.00137488515265876" flag="0"/>
			<psa03 value="0.00325944997204326" flag="0"/>
			<psa10 value="0.00156047849122911" flag="0"/>
			<psa30 value="0.000530769640050438" flag="0"/>
		</comp>
		<comp name="--.HNN" depth="0.0">
			<acc value="0.00218347176925622" flag="0"/>
			<vel value="0.00205143750200544" flag="0"/>
			<psa03 value="0.00236982056320059" flag="0"/>
			<psa10 value="0.00106338540500176" flag="0"/>
			<psa30 value="0.000791338724390135" flag="0"/>
		</comp>
		<comp name="--.HNZ" depth="0.0">
			<acc value="0.00463331077583131" flag="0"/>
			<vel value="0.00223287327016866" flag="0"/>
			<psa03 value="0.00743544503570068" flag="0"/>
			<psa10 value="0.00143981659172045" flag="0"/>
			<psa30 value="0.000341925202949947" flag="0"/>
		</comp>
	</station>
	<station code="ATI" name="ATI" netid="IT" source="Italian Strong Motion Network (RAN)" insttype="" lat="41.6219" lon="13.7948">
		<comp name="--.HNE" depth="0.0">
			<acc value="0.00108462735416298" flag="0"/>
			<vel value="0.000831576346332819" flag="0"/>
			<psa03 value="0.0022221118849964" flag="0"/>
			<psa10 value="0.00186871047258515" flag="0"/>
			<psa30 value="0.000190110263142754" flag="0"/>
		</comp>
		<comp name="--.HNN" depth="0.0">
			<acc value="0.00222844332721489" flag="0"/>
			<vel value="0.00209834410153154" flag="0"/>
			<psa03 value="0.00434846514780821" flag="0"/>
			<psa10 value="0.00195882319992359" flag="0"/>
			<psa30 value="0.000240953149463615" flag="0"/>
		</comp>
		<comp name="--.HNZ" depth="0.0">
			<acc value="0.00145483919868973" flag="0"/>
			<vel value="0.00126757316176533" flag="0"/>
			<psa03 value="0.00294795570426426" flag="0"/>
			<psa10 value="0.00128973469640645" flag="0"/>
			<psa30 value="0.000223102696125354" flag="0"/>
		</comp>
	</station>
	<station code="ATN" name="ATN" netid="IT" source="Italian Strong Motion Network (RAN)" insttype="" lat="41.6203" lon="13.8012">
		<comp name="--.HGE" depth="0.0">
			<acc value="0.00158518386928953" flag="0"/>
			<vel value="0.00103718108159434" flag="0"/>
			<psa03 value="0.00370198514720177" flag="0"/>
			<psa10 value="0.00176362933178779" flag="0"/>
			<psa30 value="0.00024892003139711" flag="0"/>
		</comp>
		<comp name="--.HGN" depth="0.0">
			<acc value="0.00219668824400538" flag="0"/>
			<vel value="0.00144172427746055" flag="0"/>
			<psa03 value="0.00366001426787866" flag="0"/>
			<psa10 value="0.00175835589651108" flag="0"/>
			<psa30 value="0.000361703778808529" flag="0"/>
		</comp>
		<comp name="--.HGZ" depth="0.0">
			<acc value="0.00152968835962751" flag="0"/>
			<vel value="0.0012529277475859" flag="0"/>
			<psa03 value="0.00281311376383497" flag="0"/>
			<psa10 value="0.00149777797043983" flag="0"/>
			<psa30 value="0.00025794133213901" flag="0"/>
		</comp>
	</station>
	<station code="ATSA" name="ATSA" netid="IT" source="Italian Strong Motion Network (RAN)" insttype="" lat="42.0683" lon="14.4433">
		<comp name="--.HNE" depth="0.0">
			<acc value="0.00536025763853029" flag="0"/>
			<vel value="0.00147064320428043" flag="0"/>
			<psa03 value="0.00423030985966275" flag="0"/>
			<psa10 value="0.00305368151016336" flag="0"/>
			<psa30 value="0.000314632900177165" flag="0"/>
		</comp>
		<comp name="--.HNN" depth="0.0">
			<acc value="0.00770272069642167" flag="0"/>
			<vel value="0.00197653504381566" flag="0"/>
			<psa03 value="0.00449723900074166" flag="0"/>
			<psa10 value="0.00274599729946943" flag="0"/>
			<psa30 value="0.000342598711108224" flag="0"/>
		</comp>
		<comp name="--.HNZ" depth="0.0">
			<acc value="0.00515914820964985" flag="0"/>
			<vel value="0.00187555456101022" flag="0"/>
			<psa03 value="0.00661042684062756" flag="0"/>
			<psa10 value="0.00220614059911251" flag="0"/>
			<psa30 value="0.000365532183463215" flag="0"/>
		</comp>
	</station>
	<station code="AVZA" name="AVZA" netid="IT" source="Italian Strong Motion Network (RAN)" insttype="" lat="40.9291" lon="14.7667">
		<comp name="--.HNE" depth="0.0">
			<acc value="0.00518954052107699" flag="0"/>
			<vel value="0.00430835686414228" flag="0"/>
			<psa03 value="0.00616482245173205" flag="0"/>
			<psa10 value="0.00529863132082067" flag="0"/>
			<psa30 value="0.00037938817947995" flag="0"/>
		</comp>
		<comp name="--.HNN" depth="0.0">
			<acc value="0.00493891634412782" flag="0"/>
			<vel value="0.00440959400284241" flag="0"/>
			<psa03 value="0.0100501097808663" flag="0"/>
			<psa10 value="0.00477603982669893" flag="0"/>
			<psa30 value="0.000874690860643424" flag="0"/>
		</comp>
		<comp name="--.HNZ" depth="0.0">
			<acc value="0.00281643393253215" flag="0"/>
			<vel value="0.00283805091209871" flag="0"/>
			<psa03 value="0.00489889125927425" flag="0"/>
			<psa10 value="0.00391118331544955" flag="0"/>
			<psa30 value="0.000382584875620381" flag="0"/>
		</comp>
	</station>
	<station code="BAN" name="BAN" netid="IT" source="Italian Strong Motion Network (RAN)" insttype="" lat="40.8138" lon="14.1652">
		<comp name="--.HNE" depth="0.0">
			<acc value="0.0145543702659417" flag="0"/>
			<vel value="0.00296647467194087" flag="0"/>
			<psa03 value="0.00567071354756711" flag="0"/>
			<psa10 value="0.00283365068420099" flag="0"/>
			<psa30 value="0.00101308888299985" flag="0"/>
		</comp>
		<comp name="--.HNN" depth="0.0">
			<acc value="0.0265744076534555" flag="0"/>
			<vel value="0.00369914082754726" flag="0"/>
			<psa03 value="0.00596240083916865" flag="0"/>
			<psa10 value="0.003726302396121" flag="0"/>
			<psa30 value="0.00119446329399777" flag="0"/>
		</comp>
		<comp name="--.HNZ" depth="0.0">
			<acc value="0.0608625687769915" flag="0"/>
			<vel value="0.00520439832830444" flag="0"/>
			<psa03 value="0.0113896282048878" flag="0"/>
			<psa10 value="0.00401888107489756" flag="0"/>
			<psa30 value="0.000787133497897851" flag="0"/>
		</comp>
	</station>
	<station code="BGI" name="BGI" netid="IT" source="Italian Strong Motion Network (RAN)" insttype="" lat="40.8311" lon="15.0681">
		<comp name="--.HGE" depth="0.0">
			<acc value="0.0182267720561479" flag="0"/>
			<vel value="0.000864230354444546" flag="0"/>
			<psa03 value="0.000231803563856285" flag="0"/>
			<psa10 value="2.02228594405799e-05" flag="0"/>
			<psa30 value="2.24091118537081e-06" flag="0"/>
		</comp>
		<comp name="--.HGN" depth="0.0">
			<acc value="0.0186305312227403" flag="0"/>
			<vel value="0.000931677882666876" flag="0"/>
			<psa03 value="0.000209631318686671" flag="0"/>
			<psa10 value="1.85307814063316e-05" flag="0"/>
			<psa30 value="2.05894498875073e-06" flag="0"/>
		</comp>
		<comp name="--.HGZ" depth="0.0">
			<acc value="0.0106158143397718" flag="0"/>
			<vel value="0.00049671018770854" flag="0"/>
			<psa03 value="9.23586268506781e-05" flag="0"/>
			<psa10 value="8.32485476446328e-06" flag="0"/>
			<psa30 value="9.19477618236416e-07" flag="0"/>
		</comp>
	</station>
	<station code="BNE" name="BNE" netid="IT" source="Italian Strong Motion Network (RAN)" insttype="" lat="41.1276" lon="14.7849">
		<comp name="--.HGE" depth="0.0">
			<acc value="0.0365554026213802" flag="0"/>
			<vel value="0.00323162231623914" flag="0"/>
			<psa03 value="0.00174018803282302" flag="0"/>
			<psa10 value="0.00252738992717889" flag="0"/>
			<psa30 value="0.00088014986810921" flag="0"/>
		</comp>
		<comp name="--.HGN" depth="0.0">
			<acc value="0.0426582290284129" flag="0"/>
			<vel value="0.00330766910472926" flag="0"/>
			<psa03 value="0.00213782912068732" flag="0"/>
			<psa10 value="0.0019323392970575" flag="0"/>
			<psa30 value="0.00077695303182527" flag="0"/>
		</comp>
		<comp name="--.HGZ" depth="0.0">
			<acc value="0.0100634666596895" flag="0"/>
			<vel value="0.00167573399836866" flag="0"/>
			<psa03 value="0.00460515370164431" flag="0"/>
			<psa10 value="0.00197335049041029" flag="0"/>
			<psa30 value="0.000537422528688326" flag="0"/>
		</comp>
	</station>
	<station code="BNOM" name="BNOM" netid="IT" source="Italian Strong Motion Network (RAN)" insttype="" lat="41.1527" lon="14.7896">
		<comp name="--.HNE" depth="0.0">
			<acc value="0.00252831630747725" flag="0"/>
			<vel value="0.00218479913352333" flag="0"/>
			<psa03 value="0.00388911017352473" flag="0"/>
			<psa10 value="0.00261744558042395" flag="0"/>
			<psa30 value="0.00070593264999019" flag="0"/>
		</comp>
		<comp name="--.HNN" depth="0.0">
			<acc value="0.00265146002192178" flag="0"/>
			<vel value="0.00245797513864331" flag="0"/>
			<psa03 value="0.00359942757201574" flag="0"/>
			<psa10 value="0.00277729218510202" flag="0"/>
			<psa30 value="0.000684858024733029" flag="0"/>
		</comp>
		<comp name="--.HNZ" depth="0.0">
			<acc value="0.00187413506626867" flag="0"/>
			<vel value="0.00223231534218717" flag="0"/>
			<psa03 value="0.00287118955117503" flag="0"/>
			<psa10 value="0.00197967505000632" flag="0"/>
			<psa30 value="0.000487585268881119" flag="0"/>
		</comp>
	</station>
	<station code="BNV" name="BNV" netid="IT" source="Italian Strong Motion Network (RAN)" insttype="" lat="41.1177" lon="14.7973">
		<comp name="--.HGE" depth="0.0">
			<acc value="0.00224828976584829" flag="0"/>
			<vel value="0.00233593206333312" flag="0"/>
			<psa03 value="0.00501046082468957" flag="0"/>
			<psa10 value="0.00249377855996577" flag="0"/>
			<psa30 value="0.00120221516168763" flag="0"/>
		</comp>
		<comp name="--.HGN" depth="0.0">
			<acc value="0.00266627654089139" flag="0"/>
			<vel value="0.00192634627273314" flag="0"/>
			<psa03 value="0.00271696188643249" flag="0"/>
			<psa10 value="0.00208013107972528" flag="0"/>
			<psa30 value="0.000469065500370679" flag="0"/>
		</comp>
		<comp name="--.HGZ" depth="0.0">
			<acc value="0.00243593311008049" flag="0"/>
			<vel value="0.00165513379001847" flag="0"/>
			<psa03 value="0.00553492851080815" flag="0"/>
			<psa10 value="0.00151304909926467" flag="0"/>
			<psa30 value="0.000736205019969466" flag="0"/>
		</comp>
	</station>
	<station code="BOI" name="BOI" netid="IT" source="Italian Strong Motion Network (RAN)" insttype="" lat="41.4812" lon="14.4725">
		<comp name="--.HGE" depth="0.0">
			<acc value="0.00201771690539893" flag="0"/>
			<vel value="0.00101710878846417" flag="0"/>
			<psa03 value="0.00223785104612817" flag="0"/>
			<psa10 value="0.00157823392525198" flag="0"/>
			<psa30 value="0.000357902250934298" flag="0"/>
		</comp>
		<comp name="--.HGN" depth="0.0">
			<acc value="0.00188270875273011" flag="0"/>
			<vel value="0.00092887639834426" flag="0"/>
			<psa03 value="0.00225006930344442" flag="0"/>
			<psa10 value="0.00155046638266356" flag="0"/>
			<psa30 value="0.000451136500162406" flag="0"/>
		</comp>
		<comp name="--.HGZ" depth="0.0">
			<acc value="0.00173441863138142" flag="0"/>
			<vel value="0.000852204498285236" flag="0"/>
			<psa03 value="0.00308706745879777" flag="0"/>
			<psa10 value="0.00142052308705795" flag="0"/>
			<psa30 value="0.000294609256000676" flag="0"/>
		</comp>
	</station>
	<station code="BOJ" name="BOJ" netid="IT" source="Italian Strong Motion Network (RAN)" insttype="" lat="41.4845" lon="14.4721">
		<comp name="--.HNE" depth="0.0">
			<acc value="0.00377411949324299" flag="0"/>
			<vel value="0.00348591505669472" flag="0"/>
			<psa03 value="0.00700514048846958" flag="0"/>
			<psa10 value="0.00693469642085415" flag="0"/>
			<psa30 value="0.0010680680459329" flag="0"/>
		</comp>
		<comp name="--.HNN" depth="0.0">
			<acc value="0.00348791718549668" flag="0"/>
			<vel value="0.00411467891760997" flag="0"/>
			<psa03 value="0.00830022367720823" flag="0"/>
			<psa10 value="0.00755757799620158" flag="0"/>
			<psa30 value="0.00152077730653297" flag="0"/>
		</comp>
		<comp name="--.HNZ" depth="0.0">
			<acc value="0.00324284353751761" flag="0"/>
			<vel value="0.00237246223585545" flag="0"/>
			<psa03 value="0.00813093772326126" flag="0"/>
			<psa10 value="0.0040084422583772" flag="0"/>
