<?xml version="1.0" encoding="UTF-8" standalone="yes"?>
<!DOCTYPE earthquake SYSTEM "stationlist.dtd">
<stationlist created="" xmlns="ch.ethz.sed.shakemap.usgs.xml">
  <station code="CLAC" name="CLAC" netid="2I" insttype="" commtype="DIG" lat="40.8836" lon="14.0706">
    <comp name="--.HHE">
      <acc value="0.0046151216" flag="0"/>
      <vel value="0.0028694552" flag="0"/>
      <psa03 value="0.0110565477" flag="0"/>
      <psa10 value="0.0046682752" flag="0"/>
      <psa30 value="0.0007664860" flag="0"/>
    </comp>
    <comp name="--.HHN">
      <acc value="0.0054160557" flag="0"/>
      <vel value="0.0045877529" flag="0"/>
      <psa03 value="0.0115189086" flag="0"/>
      <psa10 value="0.0051699724" flag="0"/>
      <psa30 value="0.0006919214" flag="0"/>
    </comp>
    <comp name="--.HHZ">
      <acc value="0.0125924806" flag="0"/>
      <vel value="0.0068800706" flag="0"/>
      <psa03 value="0.0436554132" flag="0"/>
      <psa10 value="0.0075941577" flag="0"/>
      <psa30 value="0.0005904241" flag="0"/>
    </comp>
  </station>
  <station code="MARCO" name="MARCO" netid="GE" insttype="FBA-EST/10.0" commtype="DIG" lat="40.2972" lon="15.8063">
    <comp name="--.HLE">
      <acc value="0.0019749357" flag="0"/>
      <vel value="0.0010270327" flag="0"/>
      <psa03 value="0.0044316433" flag="0"/>
      <psa10 value="0.0006312509" flag="0"/>
      <psa30 value="0.0000810893" flag="0"/>
    </comp>
    <comp name="--.HLZ">
      <acc value="0.0006972126" flag="0"/>
      <vel value="0.0004978379" flag="0"/>
      <psa03 value="0.0014910391" flag="0"/>
      <psa10 value="0.0006899901" flag="0"/>
      <psa30 value="0.0001469606" flag="0"/>
    </comp>
    <comp name="--.HLN">
      <acc value="0.0026135216" flag="0"/>
      <vel value="0.0034011851" flag="0"/>
      <psa03 value="0.0053390926" flag="0"/>
      <psa10 value="0.0029455717" flag="0"/>
      <psa30 value="0.0013160238" flag="0"/>
    </comp>
  </station>
  <station code="MATE" name="MATE" netid="GE" insttype="STS-2/N" commtype="DIG" lat="40.6491" lon="16.7044">
    <comp name="--.HHZ">
      <acc value="0.0029207795" flag="0"/>
      <vel value="0.0008253221" flag="0"/>
      <psa03 value="0.0045272117" flag="0"/>
      <psa10 value="0.0011133947" flag="0"/>
      <psa30 value="0.0000962215" flag="0"/>
    </comp>
    <comp name="--.HHN">
      <acc value="0.0012081542" flag="0"/>
      <vel value="0.0018549972" flag="0"/>
      <psa03 value="0.0021009551" flag="0"/>
      <psa10 value="0.0015743470" flag="0"/>
      <psa30 value="0.0004729399" flag="0"/>
    </comp>
    <comp name="--.HHE">
      <acc value="0.0014866473" flag="0"/>
      <vel value="0.0021274445" flag="0"/>
      <psa03 value="0.0023871678" flag="0"/>
      <psa10 value="0.0024704175" flag="0"/>
      <psa30 value="0.0004114748" flag="0"/>
    </comp>
  </station>
  <station code="CAMPI" name="CAMPI" netid="GX" insttype="Trillium Compact" commtype="DIG" lat="40.7071" lon="15.2738">
    <comp name="--.HHN">
      <acc value="0.0022605386" flag="0"/>
      <vel value="0.0023863479" flag="0"/>
      <psa03 value="0.0048888459" flag="0"/>
      <psa10 value="0.0043858570" flag="0"/>
      <psa30 value="0.0005406640" flag="0"/>
    </comp>
    <comp name="--.HHE">
      <acc value="0.0019532045" flag="0"/>
      <vel value="0.0024545139" flag="0"/>
      <psa03 value="0.0060992416" flag="0"/>
      <psa10 value="0.0049302044" flag="0"/>
      <psa30 value="0.0005966820" flag="0"/>
    </comp>
    <comp name="--.HHZ">
      <acc value="0.0023154935" flag="0"/>
      <vel value="0.0015443360" flag="0"/>
      <psa03 value="0.0039809446" flag="0"/>
      <psa10 value="0.0035542315" flag="0"/>
      <psa30 value="0.0002230304" flag="0"/>
    </comp>
  </station>
  <station code="BSSO" name="BSSO" netid="IV" insttype="" commtype="DIG" lat="41.5461" lon="14.5938">
    <comp name="--.HHE">
      <acc value="0.0027598010" flag="0"/>
      <vel value="0.0014526644" flag="0"/>
      <psa03 value="0.0066560474" flag="0"/>
      <psa10 value="0.0019439406" flag="0"/>
      <psa30 value="0.0005776114" flag="0"/>
    </comp>
    <comp name="--.HHN">
      <acc value="0.0028006399" flag="0"/>
      <vel value="0.0015733832" flag="0"/>
      <psa03 value="0.0071374061" flag="0"/>
      <psa10 value="0.0016706505" flag="0"/>
      <psa30 value="0.0005829625" flag="0"/>
    </comp>
    <comp name="--.HHZ">
      <acc value="0.0046531769" flag="0"/>
      <vel value="0.0029561188" flag="0"/>
      <psa03 value="0.0108967331" flag="0"/>
      <psa10 value="0.0018840457" flag="0"/>
      <psa30 value="0.0002420477" flag="0"/>
    </comp>
  </station>
  <station code="CAFE" name="CAFE" netid="IV" insttype="" commtype="DIG" lat="41.028" lon="15.2366">
    <comp name="--.HHE">
      <acc value="0.0017653676" flag="0"/>
      <vel value="0.0023615030" flag="0"/>
      <psa03 value="0.0029214797" flag="0"/>
      <psa10 value="0.0025961005" flag="0"/>
      <psa30 value="0.0011148525" flag="0"/>
    </comp>
    <comp name="--.HHZ">
      <acc value="0.0015534410" flag="0"/>
      <vel value="0.0016203505" flag="0"/>
      <psa03 value="0.0037269603" flag="0"/>
      <psa10 value="0.0023766775" flag="0"/>
      <psa30 value="0.0006859260" flag="0"/>
    </comp>
    <comp name="--.HHN">
      <acc value="0.0009525375" flag="0"/>
      <vel value="0.0007508545" flag="0"/>
      <psa03 value="0.0023378583" flag="0"/>
      <psa10 value="0.0011463729" flag="0"/>
      <psa30 value="0.0000981955" flag="0"/>
    </comp>
  </station>
  <station code="CAPA" name="CAPA" netid="IV" insttype="" commtype="DIG" lat="41.1577" lon="15.8187">
    <comp name="--.HHE">
      <acc value="0.0014577806" flag="0"/>
      <vel value="0.0013969979" flag="0"/>
      <psa03 value="0.0025987364" flag="0"/>
      <psa10 value="0.0023720204" flag="0"/>
      <psa30 value="0.0004300558" flag="0"/>
    </comp>
    <comp name="--.HHN">
      <acc value="0.0013107311" flag="0"/>
      <vel value="0.0012268101" flag="0"/>
      <psa03 value="0.0020576426" flag="0"/>
      <psa10 value="0.0015774116" flag="0"/>
      <psa30 value="0.0005350403" flag="0"/>
    </comp>
    <comp name="--.HHZ">
      <acc value="0.0042336368" flag="0"/>
      <vel value="0.0017392290" flag="0"/>
      <psa03 value="0.0040528917" flag="0"/>
      <psa10 value="0.0017873944" flag="0"/>
      <psa30 value="0.0002032341" flag="0"/>
    </comp>
  </station>
  <station code="CAWE" name="CAWE" netid="IV" insttype="" commtype="DIG" lat="40.8405" lon="14.1393">
    <comp name="--.HHE">
      <acc value="0.0049137168" flag="0"/>
      <vel value="0.0036106233" flag="0"/>
      <psa03 value="0.0131245516" flag="0"/>
      <psa10 value="0.0078951069" flag="0"/>
      <psa30 value="0.0006550523" flag="0"/>
    </comp>
    <comp name="--.HHN">
      <acc value="0.0056019765" flag="0"/>
      <vel value="0.0082082763" flag="0"/>
      <psa03 value="0.0172686884" flag="0"/>
      <psa10 value="0.0117042734" flag="0"/>
      <psa30 value="0.0009889580" flag="0"/>
    </comp>
    <comp name="--.HHZ">
      <acc value="0.0067505432" flag="0"/>
      <vel value="0.0045497024" flag="0"/>
      <psa03 value="0.0215693689" flag="0"/>
      <psa10 value="0.0068134525" flag="0"/>
      <psa30 value="0.0006203066" flag="0"/>
    </comp>
  </station>
  <station code="CBAC" name="CBAC" netid="IV" insttype="" commtype="DIG" lat="40.8109" lon="14.0806">
    <comp name="--.HHN">
      <acc value="0.0030728025" flag="0"/>
      <vel value="0.0027539663" flag="0"/>
      <psa03 value="0.0034956221" flag="0"/>
      <psa10 value="0.0049299310" flag="0"/>
      <psa30 value="0.0011178801" flag="0"/>
    </comp>
    <comp name="--.HHE">
      <acc value="0.0026810803" flag="0"/>
      <vel value="0.0027066120" flag="0"/>
      <psa03 value="0.0039852920" flag="0"/>
      <psa10 value="0.0028330070" flag="0"/>
      <psa30 value="0.0008762624" flag="0"/>
    </comp>
    <comp name="--.HHZ">
      <acc value="0.0072247892" flag="0"/>
      <vel value="0.0039432154" flag="0"/>
      <psa03 value="0.0110080233" flag="0"/>
      <psa10 value="0.0043854429" flag="0"/>
      <psa30 value="0.0004877232" flag="0"/>
    </comp>
  </station>
  <station code="CET2" name="CET2" netid="IV" insttype="" commtype="DIG" lat="39.5288" lon="15.9546">
    <comp name="--.HHZ">
      <acc value="0.0204391834" flag="0"/>
      <vel value="0.0036799467" flag="0"/>
      <psa03 value="0.0131353017" flag="0"/>
      <psa10 value="0.0022668397" flag="0"/>
      <psa30 value="0.0003343641" flag="0"/>
    </comp>
    <comp name="--.HHN">
      <acc value="0.0147870360" flag="0"/>
      <vel value="0.0060219503" flag="0"/>
      <psa03 value="0.0286143505" flag="0"/>
      <psa10 value="0.0106609555" flag="0"/>
      <psa30 value="0.0009774663" flag="0"/>
    </comp>
    <comp name="--.HHE">
      <acc value="0.0126236571" flag="0"/>
      <vel value="0.0045444533" flag="0"/>
      <psa03 value="0.0118548380" flag="0"/>
      <psa10 value="0.0069113958" flag="0"/>
      <psa30 value="0.0005856565" flag="0"/>
    </comp>
  </station>
  <station code="CFMN" name="CFMN" netid="IV" insttype="" commtype="DIG" lat="40.8329" lon="14.0904">
    <comp name="--.HHE">
      <acc value="0.0037669216" flag="0"/>
      <vel value="0.0020786516" flag="0"/>
      <psa03 value="0.0033928613" flag="0"/>
      <psa10 value="0.0027632739" flag="0"/>
      <psa30 value="0.0007136138" flag="0"/>
    </comp>
    <comp name="--.HHN">
      <acc value="0.0037579237" flag="0"/>
      <vel value="0.0018447611" flag="0"/>
      <psa03 value="0.0030458796" flag="0"/>
      <psa10 value="0.0018597130" flag="0"/>
      <psa30 value="0.0008556317" flag="0"/>
    </comp>
    <comp name="--.HHZ">
      <acc value="0.0044850392" flag="0"/>
      <vel value="0.0028073368" flag="0"/>
      <psa03 value="0.0045682565" flag="0"/>
      <psa10 value="0.0040636396" flag="0"/>
      <psa30 value="0.0003671647" flag="0"/>
    </comp>
  </station>
  <station code="CRTO" name="CRTO" netid="IV" insttype="" commtype="DIG" lat="40.8212" lon="14.4223">
    <comp name="--.HHE">
      <acc value="0.0096808139" flag="0"/>
      <vel value="0.0075634240" flag="0"/>
      <psa03 value="0.0217617966" flag="0"/>
      <psa10 value="0.0160669324" flag="0"/>
      <psa30 value="0.0007008916" flag="0"/>
    </comp>
    <comp name="--.HHN">
      <acc value="0.0078787085" flag="0"/>
      <vel value="0.0082313131" flag="0"/>
      <psa03 value="0.0200260740" flag="0"/>
      <psa10 value="0.0155205624" flag="0"/>
      <psa30 value="0.0006921628" flag="0"/>
    </comp>
    <comp name="--.HHZ">
      <acc value="0.0047328191" flag="0"/>
      <vel value="0.0053631684" flag="0"/>
      <psa03 value="0.0092048488" flag="0"/>
      <psa10 value="0.0053547135" flag="0"/>
      <psa30 value="0.0004336876" flag="0"/>
    </comp>
  </station>
  <station code="CUMA" name="CUMA" netid="IV" insttype="" commtype="DIG" lat="40.8479" lon="14.0534">
    <comp name="--.HHZ">
      <acc value="0.0047665908" flag="0"/>
      <vel value="0.0039718794" flag="0"/>
      <psa03 value="0.0075158827" flag="0"/>
      <psa10 value="0.0039246185" flag="0"/>
      <psa30 value="0.0005269522" flag="0"/>
    </comp>
    <comp name="--.HHN">
      <acc value="0.0028133435" flag="0"/>
      <vel value="0.0019590909" flag="0"/>
      <psa03 value="0.0074694950" flag="0"/>
      <psa10 value="0.0033910995" flag="0"/>
      <psa30 value="0.0003789886" flag="0"/>
    </comp>
    <comp name="--.HHE">
      <acc value="0.0022620240" flag="0"/>
      <vel value="0.0020219013" flag="0"/>
      <psa03 value="0.0055972004" flag="0"/>
      <psa10 value="0.0023447176" flag="0"/>
      <psa30 value="0.0005284577" flag="0"/>
    </comp>
  </station>
  <station code="GATE" name="GATE" netid="IV" insttype="" commtype="DIG" lat="41.5131" lon="14.9102">
    <comp name="--.HHE">
      <acc value="0.0037269103" flag="0"/>
      <vel value="0.0021201728" flag="0"/>
      <psa03 value="0.0126585974" flag="0"/>
      <psa10 value="0.0020918553" flag="0"/>
      <psa30 value="0.0004045126" flag="0"/>
    </comp>
    <comp name="--.HHN">
      <acc value="0.0035194902" flag="0"/>
      <vel value="0.0014234968" flag="0"/>
      <psa03 value="0.0055132407" flag="0"/>
      <psa10 value="0.0015362956" flag="0"/>
      <psa30 value="0.0002144930" flag="0"/>
    </comp>
    <comp name="--.HHZ">
      <acc value="0.0046100975" flag="0"/>
      <vel value="0.0026066675" flag="0"/>
      <psa03 value="0.0097370213" flag="0"/>
      <psa10 value="0.0013198626" flag="0"/>
      <psa30 value="0.0001612164" flag="0"/>
    </comp>
  </station>
  <station code="IBCM" name="IBCM" netid="IV" insttype="" commtype="DIG" lat="40.7109" lon="13.9161">
    <comp name="--.HNN">
      <acc value="0.0033556856" flag="0"/>
      <vel value="0.0028459693" flag="0"/>
      <psa03 value="0.0052842142" flag="0"/>
      <psa10 value="0.0061499345" flag="0"/>
      <psa30 value="0.0004245901" flag="0"/>
    </comp>
    <comp name="--.HNZ">
      <acc value="0.0020699552" flag="0"/>
      <vel value="0.0018847195" flag="0"/>
      <psa03 value="0.0034226547" flag="0"/>
      <psa10 value="0.0042979717" flag="0"/>
      <psa30 value="0.0002357821" flag="0"/>
    </comp>
    <comp name="--.HNE">
      <acc value="0.0055451083" flag="0"/>
      <vel value="0.0054951211" flag="0"/>
      <psa03 value="0.0057490825" flag="0"/>
      <psa10 value="0.0054673928" flag="0"/>
      <psa30 value="0.0004414244" flag="0"/>
    </comp>
  </station>
  <station code="IBRN" name="IBRN" netid="IV" insttype="" commtype="DIG" lat="40.714" lon="13.9269">
    <comp name="--.HHE">
      <acc value="0.0096233883" flag="0"/>
      <vel value="0.0067131968" flag="0"/>
      <psa03 value="0.0112323259" flag="0"/>
      <psa10 value="0.0077079048" flag="0"/>
      <psa30 value="0.0005925943" flag="0"/>
    </comp>
    <comp name="--.HHN">
      <acc value="0.0070956886" flag="0"/>
      <vel value="0.0055201892" flag="0"/>
      <psa03 value="0.0150475406" flag="0"/>
      <psa10 value="0.0087923794" flag="0"/>
      <psa30 value="0.0005344028" flag="0"/>
    </comp>
    <comp name="--.HHZ">
      <acc value="0.0066026374" flag="0"/>
      <vel value="0.0053969296" flag="0"/>
      <psa03 value="0.0123426064" flag="0"/>
      <psa10 value="0.0080109904" flag="0"/>
      <psa30 value="0.0005391094" flag="0"/>
    </comp>
  </station>
  <station code="IFOR" name="IFOR" netid="IV" insttype="" commtype="DIG" lat="40.7115" lon="13.8552">
    <comp name="--.HHN">
      <acc value="0.0153886563" flag="0"/>
      <vel value="0.0124585790" flag="0"/>
      <psa03 value="0.0248611436" flag="0"/>
      <psa10 value="0.0243855238" flag="0"/>
      <psa30 value="0.0017362057" flag="0"/>
    </comp>
    <comp name="--.HHE">
      <acc value="0.0130340205" flag="0"/>
      <vel value="0.0112102933" flag="0"/>
      <psa03 value="0.0306871640" flag="0"/>
      <psa10 value="0.0193150646" flag="0"/>
      <psa30 value="0.0010958561" flag="0"/>
    </comp>
    <comp name="--.HHZ">
      <acc value="0.0123671035" flag="0"/>
      <vel value="0.0090496484" flag="0"/>
      <psa03 value="0.0193462563" flag="0"/>
      <psa10 value="0.0086438127" flag="0"/>
      <psa30 value="0.0007629002" flag="0"/>
    </comp>
  </station>
  <station code="IMTC" name="IMTC" netid="IV" insttype="" commtype="DIG" lat="40.7209" lon="13.8758">
    <comp name="--.HHE">
      <acc value="0.0029829684" flag="0"/>
      <vel value="0.0032491031" flag="0"/>
      <psa03 value="0.0047418928" flag="0"/>
      <psa10 value="0.0056910916" flag="0"/>
      <psa30 value="0.0004426911" flag="0"/>
    </comp>
    <comp name="--.HHN">
      <acc value="0.0039742464" flag="0"/>
      <vel value="0.0054477948" flag="0"/>
      <psa03 value="0.0071680051" flag="0"/>
      <psa10 value="0.0099481556" flag="0"/>
      <psa30 value="0.0005808228" flag="0"/>
    </comp>
    <comp name="--.HHZ">
      <acc value="0.0041616142" flag="0"/>
      <vel value="0.0054254676" flag="0"/>
      <psa03 value="0.0072635931" flag="0"/>
      <psa10 value="0.0088579244" flag="0"/>
      <psa30 value="0.0004730830" flag="0"/>
    </comp>
  </station>
  <station code="IOCA" name="IOCA" netid="IV" insttype="" commtype="DIG" lat="40.7468" lon="13.9014">
    <comp name="--.HHE">
      <acc value="0.0101632253" flag="0"/>
      <vel value="0.0095082467" flag="0"/>
      <psa03 value="0.0222639440" flag="0"/>
      <psa10 value="0.0124854889" flag="0"/>
      <psa30 value="0.0009045334" flag="0"/>
    </comp>
    <comp name="--.HHN">
      <acc value="0.0135279042" flag="0"/>
      <vel value="0.0108519710" flag="0"/>
      <psa03 value="0.0302028926" flag="0"/>
      <psa10 value="0.0083878735" flag="0"/>
      <psa30 value="0.0009194700" flag="0"/>
    </comp>
    <comp name="--.HHZ">
      <acc value="0.0057906713" flag="0"/>
      <vel value="0.0049112023" flag="0"/>
      <psa03 value="0.0202828056" flag="0"/>
      <psa10 value="0.0054003254" flag="0"/>
      <psa30 value="0.0006984693" flag="0"/>
    </comp>
  </station>
  <station code="MCEL" name="MCEL" netid="IV" insttype="" commtype="DIG" lat="40.3249" lon="15.8019">
    <comp name="--.HNE">
      <acc value="0.0014356490" flag="0"/>
      <vel value="0.0017722723" flag="0"/>
      <psa03 value="0.0040136685" flag="0"/>
      <psa10 value="0.0020634818" flag="0"/>
      <psa30 value="0.0005991847" flag="0"/>
    </comp>
    <comp name="--.HNN">
      <acc value="0.0014347015" flag="0"/>
      <vel value="0.0027028174" flag="0"/>
      <psa03 value="0.0030456274" flag="0"/>
      <psa10 value="0.0033472526" flag="0"/>
      <psa30 value="0.0011245587" flag="0"/>
    </comp>
    <comp name="--.HNZ">
      <acc value="0.0016169331" flag="0"/>
      <vel value="0.0010000269" flag="0"/>
      <psa03 value="0.0031802775" flag="0"/>
      <psa10 value="0.0009188950" flag="0"/>
      <psa30 value="0.0002943735" flag="0"/>
    </comp>
  </station>
  <station code="MCRV" name="MCRV" netid="IV" insttype="" commtype="DIG" lat="40.7826" lon="15.1684">
    <comp name="--.HHE">
      <acc value="0.0020549758" flag="0"/>
      <vel value="0.0013260689" flag="0"/>
      <psa03 value="0.0031941409" flag="0"/>
      <psa10 value="0.0012427308" flag="0"/>
      <psa30 value="0.0001893853" flag="0"/>
    </comp>
    <comp name="--.HHN">
      <acc value="0.0019445938" flag="0"/>
      <vel value="0.0009498424" flag="0"/>
      <psa03 value="0.0035471257" flag="0"/>
      <psa10 value="0.0010982399" flag="0"/>
      <psa30 value="0.0000910311" flag="0"/>
    </comp>
    <comp name="--.HHZ">
      <acc value="0.0017828992" flag="0"/>
      <vel value="0.0012051953" flag="0"/>
      <psa03 value="0.0028977340" flag="0"/>
      <psa10 value="0.0013542440" flag="0"/>
      <psa30 value="0.0002175550" flag="0"/>
    </comp>
  </station>
  <station code="MGR" name="MGR" netid="IV" insttype="" commtype="DIG" lat="40.1376" lon="15.5535">
    <comp name="--.HHE">
      <acc value="0.0006251841" flag="0"/>
      <vel value="0.0002682166" flag="0"/>
      <psa03 value="0.0013192862" flag="0"/>
      <psa10 value="0.0003220945" flag="0"/>
      <psa30 value="0.0000220644" flag="0"/>
    </comp>
    <comp name="--.HHN">
      <acc value="0.0009672625" flag="0"/>
      <vel value="0.0016875935" flag="0"/>
      <psa03 value="0.0014665042" flag="0"/>
      <psa10 value="0.0018985684" flag="0"/>
      <psa30 value="0.0004386446" flag="0"/>
    </comp>
    <comp name="--.HHZ">
      <acc value="0.0009263053" flag="0"/>
      <vel value="0.0007581426" flag="0"/>
      <psa03 value="0.0015092750" flag="0"/>
      <psa10 value="0.0012546581" flag="0"/>
      <psa30 value="0.0000861049" flag="0"/>
    </comp>
  </station>
  <station code="MRB1" name="MRB1" netid="IV" insttype="" commtype="DIG" lat="41.1227" lon="14.9681">
    <comp name="--.HHZ">
      <acc value="0.0026118585" flag="0"/>
      <vel value="0.0012896581" flag="0"/>
