<?xml version="1.0" encoding="UTF-8" standalone="yes"?>
<!DOCTYPE earthquake SYSTEM "stationlist.dtd">
<stationlist created="" xmlns="ch.ethz.sed.shakemap.usgs.xml">
  <station code="CLAC" name="CLAC" netid="2I" insttype="" commtype="DIG" lat="40.8836" lon="14.0706">
    <comp name="--.HHZ">
      <acc value="0.0125924807" flag="0"/>
      <vel value="0.0068800332" flag="0"/>
      <psa03 value="0.0436554133" flag="0"/>
      <psa10 value="0.0075941449" flag="0"/>
      <psa30 value="0.0005907917" flag="0"/>
    </comp>
    <comp name="--.HHN">
      <acc value="0.0054160558" flag="0"/>
      <vel value="0.0045877442" flag="0"/>
      <psa03 value="0.0115189086" flag="0"/>
      <psa10 value="0.0051699756" flag="0"/>
      <psa30 value="0.0006919209" flag="0"/>
    </comp>
    <comp name="--.HHE">
      <acc value="0.0046151216" flag="0"/>
      <vel value="0.0028694720" flag="0"/>
      <psa03 value="0.0110565477" flag="0"/>
      <psa10 value="0.0046682752" flag="0"/>
      <psa30 value="0.0007664861" flag="0"/>
    </comp>
  </station>
  <station code="MARCO" name="MARCO" netid="GE" insttype="FBA-EST/10.0" commtype="DIG" lat="40.2972" lon="15.8063">
    <comp name="--.HLZ">
      <acc value="0.0006972131" flag="0"/>
      <vel value="0.0004978382" flag="0"/>
      <psa03 value="0.0014910391" flag="0"/>
      <psa10 value="0.0006899901" flag="0"/>
      <psa30 value="0.0001469603" flag="0"/>
    </comp>
    <comp name="--.HLE">
      <acc value="0.0019749352" flag="0"/>
      <vel value="0.0010270324" flag="0"/>
      <psa03 value="0.0044316433" flag="0"/>
      <psa10 value="0.0006312515" flag="0"/>
      <psa30 value="0.0000816140" flag="0"/>
    </comp>
    <comp name="--.HLN">
      <acc value="0.0026135220" flag="0"/>
      <vel value="0.0034011839" flag="0"/>
      <psa03 value="0.0053390926" flag="0"/>
      <psa10 value="0.0029455717" flag="0"/>
      <psa30 value="0.0013160110" flag="0"/>
    </comp>
  </station>
  <station code="MATE" name="MATE" netid="GE" insttype="STS-2/N" commtype="DIG" lat="40.6491" lon="16.7044">
    <comp name="--.HHN">
      <acc value="0.0012081542" flag="0"/>
      <vel value="0.0018549967" flag="0"/>
      <psa03 value="0.0021009551" flag="0"/>
      <psa10 value="0.0015743470" flag="0"/>
      <psa30 value="0.0004729416" flag="0"/>
    </comp>
    <comp name="--.HHE">
      <acc value="0.0014866474" flag="0"/>
      <vel value="0.0021274447" flag="0"/>
      <psa03 value="0.0023871678" flag="0"/>
      <psa10 value="0.0024704175" flag="0"/>
      <psa30 value="0.0004114786" flag="0"/>
    </comp>
    <comp name="--.HHZ">
      <acc value="0.0029207796" flag="0"/>
      <vel value="0.0008253230" flag="0"/>
      <psa03 value="0.0045272117" flag="0"/>
      <psa10 value="0.0011133947" flag="0"/>
      <psa30 value="0.0000962264" flag="0"/>
    </comp>
  </station>
  <station code="CAMPI" name="CAMPI" netid="GX" insttype="Trillium Compact" commtype="DIG" lat="40.7071" lon="15.2738">
    <comp name="--.HHE">
      <acc value="0.0019532045" flag="0"/>
      <vel value="0.0024545150" flag="0"/>
      <psa03 value="0.0060992416" flag="0"/>
      <psa10 value="0.0049302044" flag="0"/>
      <psa30 value="0.0005966876" flag="0"/>
    </comp>
    <comp name="--.HHN">
      <acc value="0.0022605386" flag="0"/>
      <vel value="0.0023863472" flag="0"/>
      <psa03 value="0.0048888459" flag="0"/>
      <psa10 value="0.0043858570" flag="0"/>
      <psa30 value="0.0005406634" flag="0"/>
    </comp>
    <comp name="--.HHZ">
      <acc value="0.0023154935" flag="0"/>
      <vel value="0.0015443355" flag="0"/>
      <psa03 value="0.0039809446" flag="0"/>
      <psa10 value="0.0035542315" flag="0"/>
      <psa30 value="0.0002230303" flag="0"/>
    </comp>
  </station>
  <station code="BSSO" name="BSSO" netid="IV" insttype="" commtype="DIG" lat="41.5461" lon="14.5938">
    <comp name="--.HHE">
      <acc value="0.0027598010" flag="0"/>
      <vel value="0.0014526644" flag="0"/>
      <psa03 value="0.0066560474" flag="0"/>
      <psa10 value="0.0019439406" flag="0"/>
      <psa30 value="0.0005776142" flag="0"/>
    </comp>
    <comp name="--.HHN">
      <acc value="0.0028006400" flag="0"/>
      <vel value="0.0015733834" flag="0"/>
      <psa03 value="0.0071374061" flag="0"/>
      <psa10 value="0.0016706505" flag="0"/>
      <psa30 value="0.0005829611" flag="0"/>
    </comp>
    <comp name="--.HHZ">
      <acc value="0.0046531768" flag="0"/>
      <vel value="0.0029561263" flag="0"/>
      <psa03 value="0.0108967332" flag="0"/>
      <psa10 value="0.0018840457" flag="0"/>
      <psa30 value="0.0002421443" flag="0"/>
    </comp>
  </station>
  <station code="CAFE" name="CAFE" netid="IV" insttype="" commtype="DIG" lat="41.028" lon="15.2366">
    <comp name="--.HHE">
      <acc value="0.0017653677" flag="0"/>
      <vel value="0.0023615177" flag="0"/>
      <psa03 value="0.0029214797" flag="0"/>
      <psa10 value="0.0025961002" flag="0"/>
      <psa30 value="0.0011148545" flag="0"/>
    </comp>
    <comp name="--.HHN">
      <acc value="0.0009525374" flag="0"/>
      <vel value="0.0007508544" flag="0"/>
      <psa03 value="0.0023378583" flag="0"/>
      <psa10 value="0.0011463727" flag="0"/>
      <psa30 value="0.0000981942" flag="0"/>
    </comp>
    <comp name="--.HHZ">
      <acc value="0.0015534410" flag="0"/>
      <vel value="0.0016203468" flag="0"/>
      <psa03 value="0.0037269603" flag="0"/>
      <psa10 value="0.0023766765" flag="0"/>
      <psa30 value="0.0006859253" flag="0"/>
    </comp>
  </station>
  <station code="CAPA" name="CAPA" netid="IV" insttype="" commtype="DIG" lat="41.1577" lon="15.8187">
    <comp name="--.HHE">
      <acc value="0.0014577806" flag="0"/>
      <vel value="0.0013969974" flag="0"/>
      <psa03 value="0.0025987364" flag="0"/>
      <psa10 value="0.0023720204" flag="0"/>
      <psa30 value="0.0004300565" flag="0"/>
    </comp>
    <comp name="--.HHN">
      <acc value="0.0013107311" flag="0"/>
      <vel value="0.0012268103" flag="0"/>
      <psa03 value="0.0020576426" flag="0"/>
      <psa10 value="0.0015774116" flag="0"/>
      <psa30 value="0.0005350392" flag="0"/>
    </comp>
    <comp name="--.HHZ">
      <acc value="0.0042336368" flag="0"/>
      <vel value="0.0017392291" flag="0"/>
      <psa03 value="0.0040528917" flag="0"/>
      <psa10 value="0.0017873932" flag="0"/>
      <psa30 value="0.0002032341" flag="0"/>
    </comp>
  </station>
  <station code="CAWE" name="CAWE" netid="IV" insttype="" commtype="DIG" lat="40.8405" lon="14.1393">
    <comp name="--.HHZ">
      <acc value="0.0067505432" flag="0"/>
      <vel value="0.0045497051" flag="0"/>
      <psa03 value="0.0215693689" flag="0"/>
      <psa10 value="0.0068134484" flag="0"/>
      <psa30 value="0.0006203721" flag="0"/>
    </comp>
    <comp name="--.HHN">
      <acc value="0.0056019765" flag="0"/>
      <vel value="0.0082082786" flag="0"/>
      <psa03 value="0.0172686884" flag="0"/>
      <psa10 value="0.0117042645" flag="0"/>
      <psa30 value="0.0009902606" flag="0"/>
    </comp>
    <comp name="--.HHE">
      <acc value="0.0049137169" flag="0"/>
      <vel value="0.0036106263" flag="0"/>
      <psa03 value="0.0131245516" flag="0"/>
      <psa10 value="0.0078951053" flag="0"/>
      <psa30 value="0.0006553921" flag="0"/>
    </comp>
  </station>
  <station code="CBAC" name="CBAC" netid="IV" insttype="" commtype="DIG" lat="40.8109" lon="14.0806">
    <comp name="--.HHE">
      <acc value="0.0026810803" flag="0"/>
      <vel value="0.0027066128" flag="0"/>
      <psa03 value="0.0039852920" flag="0"/>
      <psa10 value="0.0028330069" flag="0"/>
      <psa30 value="0.0008751722" flag="0"/>
    </comp>
    <comp name="--.HHN">
      <acc value="0.0030728024" flag="0"/>
      <vel value="0.0027539577" flag="0"/>
      <psa03 value="0.0034956221" flag="0"/>
      <psa10 value="0.0049299308" flag="0"/>
      <psa30 value="0.0011178874" flag="0"/>
    </comp>
    <comp name="--.HHZ">
      <acc value="0.0072247892" flag="0"/>
      <vel value="0.0039432171" flag="0"/>
      <psa03 value="0.0110080233" flag="0"/>
      <psa10 value="0.0043853751" flag="0"/>
      <psa30 value="0.0004881679" flag="0"/>
    </comp>
  </station>
  <station code="CET2" name="CET2" netid="IV" insttype="" commtype="DIG" lat="39.5288" lon="15.9546">
    <comp name="--.HHN">
      <acc value="0.0147870360" flag="0"/>
      <vel value="0.0060219487" flag="0"/>
      <psa03 value="0.0286143505" flag="0"/>
      <psa10 value="0.0106609555" flag="0"/>
      <psa30 value="0.0009774613" flag="0"/>
    </comp>
    <comp name="--.HHE">
      <acc value="0.0126236570" flag="0"/>
      <vel value="0.0045444537" flag="0"/>
      <psa03 value="0.0118548380" flag="0"/>
      <psa10 value="0.0069113958" flag="0"/>
      <psa30 value="0.0005856547" flag="0"/>
    </comp>
    <comp name="--.HHZ">
      <acc value="0.0204391834" flag="0"/>
      <vel value="0.0036799493" flag="0"/>
      <psa03 value="0.0131353017" flag="0"/>
      <psa10 value="0.0022668397" flag="0"/>
      <psa30 value="0.0003343594" flag="0"/>
    </comp>
  </station>
  <station code="CFMN" name="CFMN" netid="IV" insttype="" commtype="DIG" lat="40.8329" lon="14.0904">
    <comp name="--.HHE">
      <acc value="0.0037669215" flag="0"/>
      <vel value="0.0020786498" flag="0"/>
      <psa03 value="0.0033928613" flag="0"/>
      <psa10 value="0.0027632738" flag="0"/>
      <psa30 value="0.0007136127" flag="0"/>
    </comp>
    <comp name="--.HHN">
      <acc value="0.0037579237" flag="0"/>
      <vel value="0.0018447600" flag="0"/>
      <psa03 value="0.0030458796" flag="0"/>
      <psa10 value="0.0018597137" flag="0"/>
      <psa30 value="0.0008556230" flag="0"/>
    </comp>
    <comp name="--.HHZ">
      <acc value="0.0044850632" flag="0"/>
      <vel value="0.0028073369" flag="0"/>
      <psa03 value="0.0045682565" flag="0"/>
      <psa10 value="0.0040636164" flag="0"/>
      <psa30 value="0.0003671476" flag="0"/>
    </comp>
  </station>
  <station code="CRTO" name="CRTO" netid="IV" insttype="" commtype="DIG" lat="40.8212" lon="14.4223">
    <comp name="--.HHN">
      <acc value="0.0078787075" flag="0"/>
      <vel value="0.0082313108" flag="0"/>
      <psa03 value="0.0200260740" flag="0"/>
      <psa10 value="0.0155205722" flag="0"/>
      <psa30 value="0.0006923954" flag="0"/>
    </comp>
    <comp name="--.HHE">
      <acc value="0.0096808144" flag="0"/>
      <vel value="0.0075634247" flag="0"/>
      <psa03 value="0.0217617966" flag="0"/>
      <psa10 value="0.0160669427" flag="0"/>
      <psa30 value="0.0007018716" flag="0"/>
    </comp>
    <comp name="--.HHZ">
      <acc value="0.0047328201" flag="0"/>
      <vel value="0.0053631693" flag="0"/>
      <psa03 value="0.0092048488" flag="0"/>
      <psa10 value="0.0053547133" flag="0"/>
      <psa30 value="0.0004336488" flag="0"/>
    </comp>
  </station>
  <station code="CUMA" name="CUMA" netid="IV" insttype="" commtype="DIG" lat="40.8479" lon="14.0534">
    <comp name="--.HHE">
      <acc value="0.0022620240" flag="0"/>
      <vel value="0.0020219080" flag="0"/>
      <psa03 value="0.0055972004" flag="0"/>
      <psa10 value="0.0023447121" flag="0"/>
      <psa30 value="0.0005286762" flag="0"/>
    </comp>
    <comp name="--.HHN">
      <acc value="0.0028133434" flag="0"/>
      <vel value="0.0019590808" flag="0"/>
      <psa03 value="0.0074694950" flag="0"/>
      <psa10 value="0.0033910974" flag="0"/>
      <psa30 value="0.0003789889" flag="0"/>
    </comp>
    <comp name="--.HHZ">
      <acc value="0.0047665908" flag="0"/>
      <vel value="0.0039718892" flag="0"/>
      <psa03 value="0.0075158827" flag="0"/>
      <psa10 value="0.0039246174" flag="0"/>
      <psa30 value="0.0005265182" flag="0"/>
    </comp>
  </station>
  <station code="GATE" name="GATE" netid="IV" insttype="" commtype="DIG" lat="41.5131" lon="14.9102">
    <comp name="--.HHE">
      <acc value="0.0037269103" flag="0"/>
      <vel value="0.0021201727" flag="0"/>
      <psa03 value="0.0126585974" flag="0"/>
      <psa10 value="0.0020918553" flag="0"/>
      <psa30 value="0.0004045146" flag="0"/>
    </comp>
    <comp name="--.HHN">
      <acc value="0.0035194902" flag="0"/>
      <vel value="0.0014234989" flag="0"/>
      <psa03 value="0.0055132407" flag="0"/>
      <psa10 value="0.0015362956" flag="0"/>
      <psa30 value="0.0002144956" flag="0"/>
    </comp>
    <comp name="--.HHZ">
      <acc value="0.0046100975" flag="0"/>
      <vel value="0.0026066675" flag="0"/>
      <psa03 value="0.0097370213" flag="0"/>
      <psa10 value="0.0013198622" flag="0"/>
      <psa30 value="0.0001612584" flag="0"/>
    </comp>
  </station>
  <station code="IBCM" name="IBCM" netid="IV" insttype="" commtype="DIG" lat="40.7109" lon="13.9161">
    <comp name="--.HNE">
      <acc value="0.0055451084" flag="0"/>
      <vel value="0.0054951226" flag="0"/>
      <psa03 value="0.0057490825" flag="0"/>
      <psa10 value="0.0054673932" flag="0"/>
      <psa30 value="0.0004416031" flag="0"/>
    </comp>
    <comp name="--.HNN">
      <acc value="0.0033556856" flag="0"/>
      <vel value="0.0028459690" flag="0"/>
      <psa03 value="0.0052842142" flag="0"/>
      <psa10 value="0.0061499344" flag="0"/>
      <psa30 value="0.0004248443" flag="0"/>
    </comp>
    <comp name="--.HNZ">
      <acc value="0.0020699552" flag="0"/>
      <vel value="0.0018847192" flag="0"/>
      <psa03 value="0.0034226547" flag="0"/>
      <psa10 value="0.0042979727" flag="0"/>
      <psa30 value="0.0002357781" flag="0"/>
    </comp>
  </station>
  <station code="IBRN" name="IBRN" netid="IV" insttype="" commtype="DIG" lat="40.714" lon="13.9269">
    <comp name="--.HHE">
      <acc value="0.0096233882" flag="0"/>
      <vel value="0.0067131977" flag="0"/>
      <psa03 value="0.0112323259" flag="0"/>
      <psa10 value="0.0077078931" flag="0"/>
      <psa30 value="0.0005923809" flag="0"/>
    </comp>
    <comp name="--.HHN">
      <acc value="0.0070956886" flag="0"/>
      <vel value="0.0055201764" flag="0"/>
      <psa03 value="0.0150475406" flag="0"/>
      <psa10 value="0.0087923802" flag="0"/>
      <psa30 value="0.0005346220" flag="0"/>
    </comp>
    <comp name="--.HHZ">
      <acc value="0.0066026373" flag="0"/>
      <vel value="0.0053969294" flag="0"/>
      <psa03 value="0.0123426064" flag="0"/>
      <psa10 value="0.0080109916" flag="0"/>
      <psa30 value="0.0005391696" flag="0"/>
    </comp>
  </station>
  <station code="IFOR" name="IFOR" netid="IV" insttype="" commtype="DIG" lat="40.7115" lon="13.8552">
    <comp name="--.HHE">
      <acc value="0.0130340195" flag="0"/>
      <vel value="0.0112103164" flag="0"/>
      <psa03 value="0.0306871639" flag="0"/>
      <psa10 value="0.0193150734" flag="0"/>
      <psa30 value="0.0010974957" flag="0"/>
    </comp>
    <comp name="--.HHN">
      <acc value="0.0153886573" flag="0"/>
      <vel value="0.0124585792" flag="0"/>
      <psa03 value="0.0248611436" flag="0"/>
      <psa10 value="0.0243855139" flag="0"/>
      <psa30 value="0.0017353825" flag="0"/>
    </comp>
    <comp name="--.HHZ">
      <acc value="0.0123671025" flag="0"/>
      <vel value="0.0090496510" flag="0"/>
      <psa03 value="0.0193462563" flag="0"/>
      <psa10 value="0.0086438181" flag="0"/>
      <psa30 value="0.0007632465" flag="0"/>
    </comp>
  </station>
  <station code="IMTC" name="IMTC" netid="IV" insttype="" commtype="DIG" lat="40.7209" lon="13.8758">
    <comp name="--.HHE">
      <acc value="0.0029829685" flag="0"/>
      <vel value="0.0032490888" flag="0"/>
      <psa03 value="0.0047418929" flag="0"/>
      <psa10 value="0.0056910927" flag="0"/>
      <psa30 value="0.0004429689" flag="0"/>
    </comp>
    <comp name="--.HHN">
      <acc value="0.0039742465" flag="0"/>
      <vel value="0.0054478106" flag="0"/>
      <psa03 value="0.0071680051" flag="0"/>
      <psa10 value="0.0099481548" flag="0"/>
      <psa30 value="0.0005811702" flag="0"/>
    </comp>
    <comp name="--.HHZ">
      <acc value="0.0041616141" flag="0"/>
      <vel value="0.0054254600" flag="0"/>
      <psa03 value="0.0072635931" flag="0"/>
      <psa10 value="0.0088579196" flag="0"/>
      <psa30 value="0.0004723782" flag="0"/>
    </comp>
  </station>
  <station code="IOCA" name="IOCA" netid="IV" insttype="" commtype="DIG" lat="40.7468" lon="13.9014">
    <comp name="--.HHZ">
      <acc value="0.0057906712" flag="0"/>
      <vel value="0.0049112022" flag="0"/>
      <psa03 value="0.0202828056" flag="0"/>
      <psa10 value="0.0054003050" flag="0"/>
      <psa30 value="0.0006987018" flag="0"/>
    </comp>
    <comp name="--.HHN">
      <acc value="0.0135279042" flag="0"/>
      <vel value="0.0108519726" flag="0"/>
      <psa03 value="0.0302028926" flag="0"/>
      <psa10 value="0.0083878734" flag="0"/>
      <psa30 value="0.0009192010" flag="0"/>
    </comp>
    <comp name="--.HHE">
      <acc value="0.0101632253" flag="0"/>
      <vel value="0.0095082371" flag="0"/>
      <psa03 value="0.0222639440" flag="0"/>
      <psa10 value="0.0124854906" flag="0"/>
      <psa30 value="0.0009045725" flag="0"/>
    </comp>
  </station>
  <station code="MCEL" name="MCEL" netid="IV" insttype="" commtype="DIG" lat="40.3249" lon="15.8019">
    <comp name="--.HNE">
      <acc value="0.0014356487" flag="0"/>
      <vel value="0.0017722720" flag="0"/>
      <psa03 value="0.0040136685" flag="0"/>
      <psa10 value="0.0020634818" flag="0"/>
      <psa30 value="0.0005991894" flag="0"/>
    </comp>
    <comp name="--.HNZ">
      <acc value="0.0016169324" flag="0"/>
      <vel value="0.0010000271" flag="0"/>
      <psa03 value="0.0031802775" flag="0"/>
      <psa10 value="0.0009188953" flag="0"/>
      <psa30 value="0.0002943739" flag="0"/>
    </comp>
    <comp name="--.HNN">
      <acc value="0.0014347019" flag="0"/>
      <vel value="0.0027028171" flag="0"/>
      <psa03 value="0.0030456274" flag="0"/>
      <psa10 value="0.0033472526" flag="0"/>
      <psa30 value="0.0011245735" flag="0"/>
    </comp>
  </station>
  <station code="MCRV" name="MCRV" netid="IV" insttype="" commtype="DIG" lat="40.7826" lon="15.1684">
    <comp name="--.HHE">
      <acc value="0.0020549759" flag="0"/>
      <vel value="0.0013260685" flag="0"/>
      <psa03 value="0.0031941409" flag="0"/>
      <psa10 value="0.0012427308" flag="0"/>
      <psa30 value="0.0001893853" flag="0"/>
    </comp>
    <comp name="--.HHN">
      <acc value="0.0019445939" flag="0"/>
      <vel value="0.0009498450" flag="0"/>
      <psa03 value="0.0035471257" flag="0"/>
      <psa10 value="0.0010982399" flag="0"/>
      <psa30 value="0.0000909881" flag="0"/>
    </comp>
    <comp name="--.HHZ">
      <acc value="0.0017828992" flag="0"/>
      <vel value="0.0012051953" flag="0"/>
      <psa03 value="0.0028977340" flag="0"/>
      <psa10 value="0.0013542442" flag="0"/>
      <psa30 value="0.0002175558" flag="0"/>
    </comp>
  </station>
  <station code="MGR" name="MGR" netid="IV" insttype="" commtype="DIG" lat="40.1376" lon="15.5535">
    <comp name="--.HHE">
      <acc value="0.0006251841" flag="0"/>
      <vel value="0.0002682147" flag="0"/>
      <psa03 value="0.0013192862" flag="0"/>
      <psa10 value="0.0003220944" flag="0"/>
      <psa30 value="0.0000221115" flag="0"/>
    </comp>
    <comp name="--.HHN">
      <acc value="0.0009672625" flag="0"/>
      <vel value="0.0016875859" flag="0"/>
      <psa03 value="0.0014665042" flag="0"/>
      <psa10 value="0.0018985684" flag="0"/>
      <psa30 value="0.0004386625" flag="0"/>
    </comp>
    <comp name="--.HHZ">
      <acc value="0.0009263053" flag="0"/>
      <vel value="0.0007581411" flag="0"/>
      <psa03 value="0.0015092750" flag="0"/>
      <psa10 value="0.0012546581" flag="0"/>
      <psa30 value="0.0000861034" flag="0"/>
    </comp>
  </station>
  <station code="MRB1" name="MRB1" netid="IV" insttype="" commtype="DIG" lat="41.1227" lon="14.9681">
    <comp name="--.HHE">
      <acc value="0.0017524966" flag="0"/>
      <vel value="0.0019414071" flag="0"/>
