<?xml version="1.0" encoding="UTF-8" standalone="yes"?>
<!DOCTYPE earthquake SYSTEM "stationlist.dtd">
<stationlist created="" xmlns="ch.ethz.sed.shakemap.usgs.xml">
  <station code="DST2" name="DST2" netid="NI" insttype="" lat="45.6589" lon="13.8013">
    <comp name="--.HHN">
      <acc value="0.2236242851" flag="0"/>
      <vel value="0.0456293366" flag="0"/>
      <psa03 value="0.2678275792" flag="0"/>
      <psa10 value="0.0081276603" flag="0"/>
      <psa30 value="0.0008937173" flag="0"/>
    </comp>
    <comp name="--.HHE">
      <acc value="0.2543249713" flag="0"/>
      <vel value="0.0457495022" flag="0"/>
      <psa03 value="0.2272819710" flag="0"/>
      <psa10 value="0.0091214661" flag="0"/>
      <psa30 value="0.0010033217" flag="0"/>
    </comp>
    <comp name="--.HHZ">
      <acc value="0.1567702664" flag="0"/>
      <vel value="0.0498784850" flag="0"/>
      <psa03 value="0.3200173952" flag="0"/>
      <psa10 value="0.0155911975" flag="0"/>
      <psa30 value="0.0011921128" flag="0"/>
    </comp>
  </station>
  <station code="VINO" name="VINO" netid="NI" insttype="" lat="46.2538" lon="13.2755">
    <comp name="--.HHE">
      <acc value="0.0297258723" flag="0"/>
      <vel value="0.0118737306" flag="0"/>
      <psa03 value="0.0681717653" flag="0"/>
      <psa10 value="0.0102878706" flag="0"/>
      <psa30 value="0.0005263524" flag="0"/>
    </comp>
    <comp name="--.HHZ">
      <acc value="0.0245997401" flag="0"/>
      <vel value="0.0103895446" flag="0"/>
      <psa03 value="0.0786021669" flag="0"/>
      <psa10 value="0.0064616614" flag="0"/>
      <psa30 value="0.0004630525" flag="0"/>
    </comp>
    <comp name="--.HHN">
      <acc value="0.0248914663" flag="0"/>
      <vel value="0.0105213987" flag="0"/>
      <psa03 value="0.0652847387" flag="0"/>
      <psa10 value="0.0083316092" flag="0"/>
      <psa30 value="0.0005045092" flag="0"/>
    </comp>
  </station>
  <station code="BAD" name="BAD" netid="OX" insttype="" lat="46.234" lon="13.2438">
    <comp name="--.HHE">
      <acc value="0.0235914453" flag="0"/>
      <vel value="0.0102390460" flag="0"/>
      <psa03 value="0.0497249858" flag="0"/>
      <psa10 value="0.0070273534" flag="0"/>
      <psa30 value="0.0005608599" flag="0"/>
    </comp>
    <comp name="--.HHN">
      <acc value="0.0305751759" flag="0"/>
      <vel value="0.0117989302" flag="0"/>
      <psa03 value="0.0435694170" flag="0"/>
      <psa10 value="0.0072602668" flag="0"/>
      <psa30 value="0.0005415304" flag="0"/>
    </comp>
    <comp name="--.HHZ">
      <acc value="0.0234993528" flag="0"/>
      <vel value="0.0073620235" flag="0"/>
      <psa03 value="0.0504028684" flag="0"/>
      <psa10 value="0.0044143243" flag="0"/>
      <psa30 value="0.0004300592" flag="0"/>
    </comp>
  </station>
  <station code="DRE" name="DRE" netid="OX" insttype="" lat="46.1733" lon="13.645">
    <comp name="--.HHE">
      <acc value="0.1505885920" flag="0"/>
      <vel value="0.0371580742" flag="0"/>
      <psa03 value="0.1598151141" flag="0"/>
      <psa10 value="0.0162065688" flag="0"/>
      <psa30 value="0.0010084635" flag="0"/>
    </comp>
    <comp name="--.HHZ">
      <acc value="0.0454370283" flag="0"/>
      <vel value="0.0150314862" flag="0"/>
      <psa03 value="0.0750298257" flag="0"/>
      <psa10 value="0.0118917436" flag="0"/>
      <psa30 value="0.0007416812" flag="0"/>
    </comp>
    <comp name="--.HHN">
      <acc value="0.1267911887" flag="0"/>
      <vel value="0.0289315037" flag="0"/>
      <psa03 value="0.1340294681" flag="0"/>
      <psa10 value="0.0121634320" flag="0"/>
      <psa30 value="0.0007806009" flag="0"/>
    </comp>
  </station>
  <station code="PRED" name="PRED" netid="OX" insttype="" lat="46.4428" lon="13.565">
    <comp name="--.HHE">
      <acc value="0.0113204235" flag="0"/>
      <vel value="0.0049457772" flag="0"/>
      <psa03 value="0.0246632962" flag="0"/>
      <psa10 value="0.0046054146" flag="0"/>
      <psa30 value="0.0002145846" flag="0"/>
    </comp>
    <comp name="--.HHN">
      <acc value="0.0111423895" flag="0"/>
      <vel value="0.0047652609" flag="0"/>
      <psa03 value="0.0396773003" flag="0"/>
      <psa10 value="0.0039842088" flag="0"/>
      <psa30 value="0.0002400512" flag="0"/>
    </comp>
    <comp name="--.HHZ">
      <acc value="0.0110481099" flag="0"/>
      <vel value="0.0052063423" flag="0"/>
      <psa03 value="0.0382472266" flag="0"/>
      <psa10 value="0.0028505333" flag="0"/>
      <psa30 value="0.0002466065" flag="0"/>
    </comp>
  </station>
  <station code="SABO" name="SABO" netid="OX" insttype="" lat="45.9875" lon="13.6336">
    <comp name="--.HHE">
      <acc value="0.0737857698" flag="0"/>
      <vel value="0.0307705179" flag="0"/>
      <psa03 value="0.1802491387" flag="0"/>
      <psa10 value="0.0358845552" flag="0"/>
      <psa30 value="0.0013555703" flag="0"/>
    </comp>
    <comp name="--.HHZ">
      <acc value="0.0412789635" flag="0"/>
      <vel value="0.0107980009" flag="0"/>
      <psa03 value="0.0383568756" flag="0"/>
      <psa10 value="0.0098652066" flag="0"/>
      <psa30 value="0.0006474174" flag="0"/>
    </comp>
    <comp name="--.HHN">
      <acc value="0.0725606146" flag="0"/>
      <vel value="0.0358560394" flag="0"/>
      <psa03 value="0.1081725433" flag="0"/>
      <psa10 value="0.0312139888" flag="0"/>
      <psa30 value="0.0014218118" flag="0"/>
    </comp>
  </station>
</stationlist>
