<?xml version="1.0" encoding="UTF-8" standalone="yes"?>
<!DOCTYPE earthquake SYSTEM "stationlist.dtd">
<stationlist created="" xmlns="ch.ethz.sed.shakemap.usgs.xml">
  <station code="TRI" name="TRI" netid="MN" insttype="" lat="45.709" lon="13.764">
    <comp name="--.HHE">
      <acc value="0.2757274109" flag="0"/>
      <vel value="0.0510224018" flag="0"/>
      <psa03 value="0.2240559936" flag="0"/>
      <psa10 value="0.0074363565" flag="0"/>
      <psa30 value="0.0009789131" flag="0"/>
    </comp>
    <comp name="--.HHN">
      <acc value="0.1267129848" flag="0"/>
      <vel value="0.0204284797" flag="0"/>
      <psa03 value="0.1107520471" flag="0"/>
      <psa10 value="0.0061830286" flag="0"/>
      <psa30 value="0.0008250846" flag="0"/>
    </comp>
    <comp name="--.HHZ">
      <acc value="0.4642691505" flag="0"/>
      <vel value="0.0818693507" flag="0"/>
      <psa03 value="0.3031641633" flag="0"/>
      <psa10 value="0.0158706159" flag="0"/>
      <psa30 value="0.0014937733" flag="0"/>
    </comp>
  </station>
  <station code="DST2" name="DST2" netid="NI" insttype="" lat="45.6589" lon="13.8013">
    <comp name="--.HHN">
      <acc value="0.2236242852" flag="0"/>
      <vel value="0.0456293365" flag="0"/>
      <psa03 value="0.2678275792" flag="0"/>
      <psa10 value="0.0081276595" flag="0"/>
      <psa30 value="0.0008937100" flag="0"/>
    </comp>
    <comp name="--.HHE">
      <acc value="0.2543249714" flag="0"/>
      <vel value="0.0457495020" flag="0"/>
      <psa03 value="0.2272819710" flag="0"/>
      <psa10 value="0.0091214663" flag="0"/>
      <psa30 value="0.0010033276" flag="0"/>
    </comp>
    <comp name="--.HHZ">
      <acc value="0.1567702666" flag="0"/>
      <vel value="0.0498784850" flag="0"/>
      <psa03 value="0.3200173952" flag="0"/>
      <psa10 value="0.0155911971" flag="0"/>
      <psa30 value="0.0011921356" flag="0"/>
    </comp>
  </station>
  <station code="VINO" name="VINO" netid="NI" insttype="" lat="46.2538" lon="13.2755">
    <comp name="--.HHE">
      <acc value="0.0297258724" flag="0"/>
      <vel value="0.0118737307" flag="0"/>
      <psa03 value="0.0681717653" flag="0"/>
      <psa10 value="0.0102878706" flag="0"/>
      <psa30 value="0.0005263564" flag="0"/>
    </comp>
    <comp name="--.HHN">
      <acc value="0.0248914662" flag="0"/>
      <vel value="0.0105213990" flag="0"/>
      <psa03 value="0.0652847387" flag="0"/>
      <psa10 value="0.0083316092" flag="0"/>
      <psa30 value="0.0005045098" flag="0"/>
    </comp>
    <comp name="--.HHZ">
      <acc value="0.0245997400" flag="0"/>
      <vel value="0.0103895440" flag="0"/>
      <psa03 value="0.0786021669" flag="0"/>
      <psa10 value="0.0064616614" flag="0"/>
      <psa30 value="0.0004630495" flag="0"/>
    </comp>
  </station>
  <station code="BAD" name="BAD" netid="OX" insttype="" lat="46.234" lon="13.2438">
    <comp name="--.HHE">
      <acc value="0.0235914452" flag="0"/>
      <vel value="0.0102390459" flag="0"/>
      <psa03 value="0.0497249858" flag="0"/>
      <psa10 value="0.0070273534" flag="0"/>
      <psa30 value="0.0005608593" flag="0"/>
    </comp>
    <comp name="--.HHN">
      <acc value="0.0305751758" flag="0"/>
      <vel value="0.0117989301" flag="0"/>
      <psa03 value="0.0435694170" flag="0"/>
      <psa10 value="0.0072602668" flag="0"/>
      <psa30 value="0.0005415300" flag="0"/>
    </comp>
    <comp name="--.HHZ">
      <acc value="0.0234993528" flag="0"/>
      <vel value="0.0073620236" flag="0"/>
      <psa03 value="0.0504028684" flag="0"/>
      <psa10 value="0.0044143243" flag="0"/>
      <psa30 value="0.0004300611" flag="0"/>
    </comp>
  </station>
  <station code="DRE" name="DRE" netid="OX" insttype="" lat="46.1733" lon="13.645">
    <comp name="--.HHE">
      <acc value="0.1505885920" flag="0"/>
      <vel value="0.0371580742" flag="0"/>
      <psa03 value="0.1598151141" flag="0"/>
      <psa10 value="0.0162065688" flag="0"/>
      <psa30 value="0.0010084696" flag="0"/>
    </comp>
    <comp name="--.HHN">
      <acc value="0.1267911889" flag="0"/>
      <vel value="0.0289315042" flag="0"/>
      <psa03 value="0.1340294681" flag="0"/>
      <psa10 value="0.0121634319" flag="0"/>
      <psa30 value="0.0007805941" flag="0"/>
    </comp>
    <comp name="--.HHZ">
      <acc value="0.0454370281" flag="0"/>
      <vel value="0.0150314862" flag="0"/>
      <psa03 value="0.0750298257" flag="0"/>
      <psa10 value="0.0118917436" flag="0"/>
      <psa30 value="0.0007416756" flag="0"/>
    </comp>
  </station>
  <station code="PRED" name="PRED" netid="OX" insttype="" lat="46.4428" lon="13.565">
    <comp name="--.HHE">
      <acc value="0.0113204235" flag="0"/>
      <vel value="0.0049457772" flag="0"/>
      <psa03 value="0.0246632962" flag="0"/>
      <psa10 value="0.0046054146" flag="0"/>
      <psa30 value="0.0002145853" flag="0"/>
    </comp>
    <comp name="--.HHN">
      <acc value="0.0111423895" flag="0"/>
      <vel value="0.0047652609" flag="0"/>
      <psa03 value="0.0396773003" flag="0"/>
      <psa10 value="0.0039842088" flag="0"/>
      <psa30 value="0.0002400456" flag="0"/>
    </comp>
    <comp name="--.HHZ">
      <acc value="0.0110481099" flag="0"/>
      <vel value="0.0052063422" flag="0"/>
      <psa03 value="0.0382472266" flag="0"/>
      <psa10 value="0.0028505333" flag="0"/>
      <psa30 value="0.0002466059" flag="0"/>
    </comp>
  </station>
  <station code="SABO" name="SABO" netid="OX" insttype="" lat="45.9875" lon="13.6336">
    <comp name="--.HHE">
      <acc value="0.0737857699" flag="0"/>
      <vel value="0.0307705178" flag="0"/>
      <psa03 value="0.1802491387" flag="0"/>
      <psa10 value="0.0358845552" flag="0"/>
      <psa30 value="0.0013555683" flag="0"/>
    </comp>
    <comp name="--.HHN">
      <acc value="0.0725606145" flag="0"/>
      <vel value="0.0358560388" flag="0"/>
      <psa03 value="0.1081725433" flag="0"/>
      <psa10 value="0.0312139889" flag="0"/>
      <psa30 value="0.0014217432" flag="0"/>
    </comp>
    <comp name="--.HHZ">
      <acc value="0.0412789634" flag="0"/>
      <vel value="0.0107980012" flag="0"/>
      <psa03 value="0.0383568756" flag="0"/>
      <psa10 value="0.0098652065" flag="0"/>
      <psa30 value="0.0006474223" flag="0"/>
    </comp>
  </station>
</stationlist>
