<?xml version="1.0" encoding="UTF-8" standalone="yes"?>
<!DOCTYPE earthquake SYSTEM "stationlist.dtd">
<stationlist created="" xmlns="ch.ethz.sed.shakemap.usgs.xml">
  <station code="THERA" name="THERA" netid="GE" insttype="STS-2/N" lat="36.367" lon="25.4753">
    <comp name="--.HHZ">
      <acc value="0.1649970007" flag="0"/>
      <vel value="0.0457312674" flag="0"/>
      <psa03 value="0.1633696054" flag="0"/>
      <psa10 value="0.0223917247" flag="0"/>
      <psa30 value="0.0016925911" flag="0"/>
    </comp>
    <comp name="--.HHE">
      <acc value="0.1695696705" flag="0"/>
      <vel value="0.0536158831" flag="0"/>
      <psa03 value="0.3190804877" flag="0"/>
      <psa10 value="0.0305468412" flag="0"/>
      <psa30 value="0.0025123842" flag="0"/>
    </comp>
    <comp name="--.HHN">
      <acc value="0.1153619555" flag="0"/>
      <vel value="0.0374414726" flag="0"/>
      <psa03 value="0.1828353077" flag="0"/>
      <psa10 value="0.0136799377" flag="0"/>
      <psa30 value="0.0008832969" flag="0"/>
    </comp>
  </station>
</stationlist>
