<stationlist created="1741951948">
	<station code="ABEA" name="ABEA" netid="HC" source="Seismological Network of Crete (HC)" insttype="" lat="35.5163" lon="24.0113">
		<comp name=".HNE" depth="0.0">
			<acc value="0.0023235690333546" flag="0"/>
			<vel value="0.00281854011004" flag="0"/>
			<psa03 value="0.00258638080769326" flag="0"/>
			<psa10 value="0.00233327542742261" flag="0"/>
			<psa30 value="0.000895192531279703" flag="0"/>
		</comp>
		<comp name=".HNN" depth="0.0">
			<acc value="0.0021999305641446" flag="0"/>
			<vel value="0.00202783450172" flag="0"/>
			<psa03 value="0.00285156748308039" flag="0"/>
			<psa10 value="0.00191215862424927" flag="0"/>
			<psa30 value="0.000887204189590067" flag="0"/>
		</comp>
		<comp name=".HNZ" depth="0.0">
			<acc value="0.0026068369684926" flag="0"/>
			<vel value="0.00149305234708" flag="0"/>
			<psa03 value="0.00143899962353864" flag="0"/>
			<psa10 value="0.00159957354202362" flag="0"/>
			<psa30 value="0.000690255830227156" flag="0"/>
		</comp>
	</station>
	<station code="ATEI" name="ATEI" netid="HC" source="Seismological Network of Crete (HC)" insttype="" lat="35.5193" lon="24.0432">
		<comp name=".HNE" depth="0.0">
			<acc value="0.0100349714882076" flag="0"/>
			<vel value="0.0058386944649" flag="0"/>
			<psa03 value="0.0240550518624745" flag="0"/>
			<psa10 value="0.00591450086917533" flag="0"/>
			<psa30 value="0.000927321326319951" flag="0"/>
		</comp>
		<comp name=".HNN" depth="0.0">
			<acc value="0.006665342938698" flag="0"/>
			<vel value="0.00445519865654" flag="0"/>
			<psa03 value="0.0268423458819954" flag="0"/>
			<psa10 value="0.00458057547191295" flag="0"/>
			<psa30 value="0.00105774923736195" flag="0"/>
		</comp>
		<comp name=".HNZ" depth="0.0">
			<acc value="0.0046257703401588" flag="0"/>
			<vel value="0.00308135975998" flag="0"/>
			<psa03 value="0.00992853011220892" flag="0"/>
			<psa10 value="0.00523933473647912" flag="0"/>
			<psa30 value="0.00090772700745772" flag="0"/>
		</comp>
	</station>
	<station code="G0LD" name="G0LD" netid="HC" source="Seismological Network of Crete (HC)" insttype="" lat="35.4955" lon="24.0306">
		<comp name=".HNE" depth="0.0">
			<acc value="0.032974666981986" flag="0"/>
			<vel value="0.0241876842533" flag="0"/>
			<psa03 value="0.0859339999973616" flag="0"/>
			<psa10 value="0.0470686480670763" flag="0"/>
			<psa30 value="0.00253518523524761" flag="0"/>
		</comp>
		<comp name=".HNN" depth="0.0">
			<acc value="0.03461922697098" flag="0"/>
			<vel value="0.0208693395049" flag="0"/>
			<psa03 value="0.125586850762321" flag="0"/>
			<psa10 value="0.0401435368123135" flag="0"/>
			<psa30 value="0.00190709029370693" flag="0"/>
		</comp>
		<comp name=".HNZ" depth="0.0">
			<acc value="0.016999595441106" flag="0"/>
			<vel value="0.0161641968309" flag="0"/>
			<psa03 value="0.0604197473033793" flag="0"/>
			<psa10 value="0.0170555148441585" flag="0"/>
			<psa30 value="0.00210957974930399" flag="0"/>
		</comp>
	</station>
	<station code="PASK" name="PASK" netid="HC" source="Seismological Network of Crete (HC)" insttype="" lat="35.4996" lon="24.0121">
		<comp name=".HNE" depth="0.0">
			<acc value="0.010258918975326" flag="0"/>
			<vel value="0.00792230567031" flag="0"/>
			<psa03 value="0.0273465459494488" flag="0"/>
			<psa10 value="0.0129153343275227" flag="0"/>
			<psa30 value="0.000933447878005509" flag="0"/>
		</comp>
		<comp name=".HNN" depth="0.0">
			<acc value="0.0105614111685" flag="0"/>
			<vel value="0.00695527167569" flag="0"/>
			<psa03 value="0.0275341443144386" flag="0"/>
			<psa10 value="0.0101343244742488" flag="0"/>
			<psa30 value="0.00118778972690753" flag="0"/>
		</comp>
		<comp name=".HNZ" depth="0.0">
			<acc value="0.010693446997422" flag="0"/>
			<vel value="0.00477736459793" flag="0"/>
			<psa03 value="0.0187410553050074" flag="0"/>
			<psa10 value="0.00693961721559628" flag="0"/>
			<psa30 value="0.00109836557383055" flag="0"/>
		</comp>
	</station>
	<station code="POLY" name="POLY" netid="HC" source="Seismological Network of Crete (HC)" insttype="" lat="35.5226" lon="24.0602">
		<comp name=".HNE" depth="0.0">
			<acc value="0.012066920211864" flag="0"/>
			<vel value="0.00695379030919" flag="0"/>
			<psa03 value="0.0341791131568437" flag="0"/>
			<psa10 value="0.00816193568817846" flag="0"/>
			<psa30 value="0.000944806338781054" flag="0"/>
		</comp>
		<comp name=".HNN" depth="0.0">
			<acc value="0.012307593349188" flag="0"/>
			<vel value="0.00769989990231" flag="0"/>
			<psa03 value="0.0380093825183631" flag="0"/>
			<psa10 value="0.00700633694793363" flag="0"/>
			<psa30 value="0.00141135287020084" flag="0"/>
		</comp>
		<comp name=".HNZ" depth="0.0">
			<acc value="0.0085513467252918" flag="0"/>
			<vel value="0.00571565115613" flag="0"/>
			<psa03 value="0.0302814148493078" flag="0"/>
			<psa10 value="0.00437004168133407" flag="0"/>
			<psa30 value="0.00113281483509146" flag="0"/>
		</comp>
	</station>
	<station code="ARK1" name="ARK1" netid="HI" source="ITSAK Strong Motion Network" insttype="" lat="35.148777" lon="25.264194">
		<comp name=".HNE" depth="0.0">
			<acc value="0.02025078712434" flag="0"/>
			<vel value="0.0135192509912" flag="0"/>
			<psa03 value="0.0833448857728178" flag="0"/>
			<psa10 value="0.0135078876437763" flag="0"/>
			<psa30 value="0.00165001388865663" flag="0"/>
		</comp>
		<comp name=".HNN" depth="0.0">
			<acc value="0.020324241686778" flag="0"/>
			<vel value="0.0119389565717" flag="0"/>
			<psa03 value="0.0577872499968317" flag="0"/>
			<psa10 value="0.0116135884057153" flag="0"/>
			<psa30 value="0.000791886312747403" flag="0"/>
		</comp>
		<comp name=".HNZ" depth="0.0">
			<acc value="0.011766310664922" flag="0"/>
			<vel value="0.0055166857556" flag="0"/>
			<psa03 value="0.0294809269250777" flag="0"/>
			<psa10 value="0.00956984082997185" flag="0"/>
			<psa30 value="0.000587916394494648" flag="0"/>
		</comp>
	</station>
	<station code="CH01" name="CH01" netid="HI" source="ITSAK Strong Motion Network" insttype="" lat="35.517" lon="24.0208">
		<comp name=".HNE" depth="0.0">
			<acc value="0.005933401198317" flag="0"/>
			<vel value="0.00434538978372" flag="0"/>
			<psa03 value="0.0201626651047" flag="0"/>
			<psa10 value="0.00764645138364162" flag="0"/>
			<psa30 value="0.000850165850566375" flag="0"/>
		</comp>
		<comp name=".HNN" depth="0.0">
			<acc value="0.0093033422236638" flag="0"/>
			<vel value="0.00448256861073" flag="0"/>
			<psa03 value="0.0318169514668968" flag="0"/>
			<psa10 value="0.00522253315470517" flag="0"/>
			<psa30 value="0.000529222818832466" flag="0"/>
		</comp>
		<comp name=".HNZ" depth="0.0">
			<acc value="0.0074603227520658" flag="0"/>
			<vel value="0.00229827978996" flag="0"/>
			<psa03 value="0.010932900032229" flag="0"/>
			<psa10 value="0.00486431973732505" flag="0"/>
			<psa30 value="0.000428523465701677" flag="0"/>
		</comp>
	</station>
	<station code="CH02" name="CH02" netid="HI" source="ITSAK Strong Motion Network" insttype="" lat="35.5145" lon="24.0315">
		<comp name=".HNE" depth="0.0">
			<acc value="0.008057505402051" flag="0"/>
			<vel value="0.00487340670381" flag="0"/>
			<psa03 value="0.023587731842301" flag="0"/>
			<psa10 value="0.00651375775449885" flag="0"/>
			<psa30 value="0.000735448042738249" flag="0"/>
		</comp>
		<comp name=".HNN" depth="0.0">
			<acc value="0.010168124231277" flag="0"/>
			<vel value="0.00613252164732" flag="0"/>
			<psa03 value="0.0361443787627013" flag="0"/>
			<psa10 value="0.00551791069073836" flag="0"/>
			<psa30 value="0.000608704438266111" flag="0"/>
		</comp>
		<comp name=".HNZ" depth="0.0">
			<acc value="0.0048794498085114" flag="0"/>
			<vel value="0.00281685572413" flag="0"/>
			<psa03 value="0.0114370883801326" flag="0"/>
			<psa10 value="0.00535652671862488" flag="0"/>
			<psa30 value="0.000318591912442255" flag="0"/>
		</comp>
	</station>
	<station code="CH03" name="CH03" netid="HI" source="ITSAK Strong Motion Network" insttype="" lat="35.53303" lon="24.0705">
		<comp name=".HNE" depth="0.0">
			<acc value="0.0057760154979726" flag="0"/>
			<vel value="0.00453657188506" flag="0"/>
			<psa03 value="0.0245872147198153" flag="0"/>
			<psa10 value="0.00725328611962358" flag="0"/>
			<psa30 value="0.000582159346447725" flag="0"/>
		</comp>
		<comp name=".HNN" depth="0.0">
			<acc value="0.0060192854248386" flag="0"/>
			<vel value="0.00484011097015" flag="0"/>
			<psa03 value="0.0182706191930042" flag="0"/>
			<psa10 value="0.00738941404368305" flag="0"/>
			<psa30 value="0.000473767478521721" flag="0"/>
		</comp>
		<comp name=".HNZ" depth="0.0">
			<acc value="0.0043283031712116" flag="0"/>
			<vel value="0.0026870370784" flag="0"/>
			<psa03 value="0.0101957821913646" flag="0"/>
			<psa10 value="0.00252228255759069" flag="0"/>
			<psa30 value="0.000294742520037267" flag="0"/>
		</comp>
	</station>
	<station code="GOR1" name="GOR1" netid="HI" source="ITSAK Strong Motion Network" insttype="" lat="35.0582" lon="24.9628">
		<comp name=".HNE" depth="0.0">
			<acc value="0.0101082891619842" flag="0"/>
			<vel value="0.00653656269397" flag="0"/>
			<psa03 value="0.0221465999160393" flag="0"/>
			<psa10 value="0.00714752958251733" flag="0"/>
			<psa30 value="0.000853147245983149" flag="0"/>
		</comp>
		<comp name=".HNN" depth="0.0">
			<acc value="0.0079310583751218" flag="0"/>
			<vel value="0.00698898721671" flag="0"/>
			<psa03 value="0.0172425081169554" flag="0"/>
			<psa10 value="0.00846584175797543" flag="0"/>
			<psa30 value="0.000823468717427973" flag="0"/>
		</comp>
		<comp name=".HNZ" depth="0.0">
			<acc value="0.0060723443304978" flag="0"/>
			<vel value="0.00500512098431" flag="0"/>
			<psa03 value="0.0109207280019421" flag="0"/>
			<psa10 value="0.00949311168456665" flag="0"/>
			<psa30 value="0.000372609553345834" flag="0"/>
		</comp>
	</station>
	<station code="HER3" name="HER3" netid="HI" source="ITSAK Strong Motion Network" insttype="" lat="35.3296" lon="25.1065">
		<comp name=".HNE" depth="0.0">
			<acc value="0.041268925053798" flag="0"/>
			<vel value="0.0187803034958" flag="0"/>
			<psa03 value="0.13523568786711" flag="0"/>
			<psa10 value="0.0478754390127067" flag="0"/>
			<psa30 value="0.00175051096276212" flag="0"/>
		</comp>
		<comp name=".HNN" depth="0.0">
			<acc value="0.04932951943206" flag="0"/>
			<vel value="0.026001935876" flag="0"/>
			<psa03 value="0.0919110678238533" flag="0"/>
			<psa10 value="0.0253077433888047" flag="0"/>
			<psa30 value="0.00133794529897663" flag="0"/>
		</comp>
		<comp name=".HNZ" depth="0.0">
			<acc value="0.039667415719692" flag="0"/>
			<vel value="0.014841917338" flag="0"/>
			<psa03 value="0.0670882359330792" flag="0"/>
			<psa10 value="0.0181437000560905" flag="0"/>
			<psa30 value="0.000929623874687298" flag="0"/>
		</comp>
	</station>
	<station code="KIS1" name="KIS1" netid="HI" source="ITSAK Strong Motion Network" insttype="" lat="35.493933" lon="23.658993">
		<comp name=".HNE" depth="0.0">
			<acc value="0.0055121837400078" flag="0"/>
			<vel value="0.00308479799226" flag="0"/>
			<psa03 value="0.0136779021876472" flag="0"/>
			<psa10 value="0.00653202193314616" flag="0"/>
			<psa30 value="0.000480909097449713" flag="0"/>
		</comp>
		<comp name=".HNN" depth="0.0">
			<acc value="0.0048238923084756" flag="0"/>
			<vel value="0.0038998104269" flag="0"/>
			<psa03 value="0.0110917660250467" flag="0"/>
			<psa10 value="0.00502387686970625" flag="0"/>
			<psa30 value="0.000721579311502995" flag="0"/>
		</comp>
		<comp name=".HNZ" depth="0.0">
			<acc value="0.0093558670865358" flag="0"/>
			<vel value="0.0021893993389" flag="0"/>
			<psa03 value="0.00703406623276813" flag="0"/>
			<psa10 value="0.00346919708290587" flag="0"/>
			<psa30 value="0.00034325807770463" flag="0"/>
		</comp>
	</station>
	<station code="KRL1" name="KRL1" netid="HI" source="ITSAK Strong Motion Network" insttype="" lat="37.7951" lon="26.7065">
		<comp name=".HNE" depth="0.0">
			<acc value="0.0054721607476416" flag="0"/>
			<vel value="0.00256062444283" flag="0"/>
			<psa03 value="0.00945433658987238" flag="0"/>
			<psa10 value="0.00501571679787963" flag="0"/>
			<psa30 value="0.000393957321697487" flag="0"/>
		</comp>
		<comp name=".HNN" depth="0.0">
			<acc value="0.00588403310922" flag="0"/>
			<vel value="0.00406288764998" flag="0"/>
			<psa03 value="0.0122495458473061" flag="0"/>
			<psa10 value="0.00568909406206439" flag="0"/>
			<psa30 value="0.000634982897834699" flag="0"/>
		</comp>
		<comp name=".HNZ" depth="0.0">
			<acc value="0.0043551367424064" flag="0"/>
			<vel value="0.00200341671471" flag="0"/>
			<psa03 value="0.00617751079225573" flag="0"/>
			<psa10 value="0.0029631144167867" flag="0"/>
			<psa30 value="0.000241253169338373" flag="0"/>
		</comp>
	</station>
	<station code="KTL1" name="KTL1" netid="HI" source="ITSAK Strong Motion Network" insttype="" lat="35.20778" lon="25.34272">
		<comp name=".HNE" depth="0.0">
			<acc value="0.01504407319077" flag="0"/>
			<vel value="0.0103029688804" flag="0"/>
			<psa03 value="0.0449847039741791" flag="0"/>
			<psa10 value="0.00899125343890091" flag="0"/>
			<psa30 value="0.000725738076583824" flag="0"/>
		</comp>
		<comp name=".HNN" depth="0.0">
			<acc value="0.016780714833486" flag="0"/>
			<vel value="0.0111309573662" flag="0"/>
			<psa03 value="0.0603820416807773" flag="0"/>
			<psa10 value="0.0185584906589263" flag="0"/>
			<psa30 value="0.000516113564988815" flag="0"/>
		</comp>
		<comp name=".HNZ" depth="0.0">
			<acc value="0.007891805609715" flag="0"/>
			<vel value="0.00438080081247" flag="0"/>
			<psa03 value="0.0182528445780561" flag="0"/>
			<psa10 value="0.00468030114073486" flag="0"/>
			<psa30 value="0.000366664862664148" flag="0"/>
		</comp>
	</station>
	<station code="NAX1" name="NAX1" netid="HI" source="ITSAK Strong Motion Network" insttype="" lat="37.101394" lon="25.374103">
		<comp name=".HNE" depth="0.0">
			<acc value="0.067494494680524" flag="0"/>
			<vel value="0.0119912507859" flag="0"/>
			<psa03 value="0.0592402004141995" flag="0"/>
			<psa10 value="0.00629475027756914" flag="0"/>
			<psa30 value="0.000710991995562168" flag="0"/>
		</comp>
		<comp name=".HNN" depth="0.0">
			<acc value="0.049799621970696" flag="0"/>
			<vel value="0.0142176381077" flag="0"/>
			<psa03 value="0.0543953325906307" flag="0"/>
			<psa10 value="0.00512300812414338" flag="0"/>
			<psa30 value="0.000836425409076261" flag="0"/>
		</comp>
		<comp name=".HNZ" depth="0.0">
			<acc value="0.029913641712156" flag="0"/>
			<vel value="0.00857715769604" flag="0"/>
			<psa03 value="0.0461387752173468" flag="0"/>
			<psa10 value="0.00946264747893936" flag="0"/>
			<psa30 value="0.000802757189142953" flag="0"/>
		</comp>
	</station>
	<station code="RTH1" name="RTH1" netid="HI" source="ITSAK Strong Motion Network" insttype="" lat="35.365393" lon="24.471773">
		<comp name=".HNE" depth="0.0">
			<acc value="0.0073376485124892" flag="0"/>
			<vel value="0.00328872310807" flag="0"/>
			<psa03 value="0.0295180674062728" flag="0"/>
			<psa10 value="0.00265487704444935" flag="0"/>
			<psa30 value="0.000704728611895693" flag="0"/>
		</comp>
		<comp name=".HNN" depth="0.0">
			<acc value="0.00784317112206" flag="0"/>
			<vel value="0.00405481204668" flag="0"/>
			<psa03 value="0.0257527632858599" flag="0"/>
			<psa10 value="0.00342963852484428" flag="0"/>
			<psa30 value="0.000589737348456766" flag="0"/>
		</comp>
		<comp name=".HNZ" depth="0.0">
			<acc value="0.0058276461575874" flag="0"/>
			<vel value="0.00200981844091" flag="0"/>
			<psa03 value="0.0107723939567815" flag="0"/>
			<psa10 value="0.00193991643963279" flag="0"/>
			<psa30 value="0.00033886705765428" flag="0"/>
		</comp>
	</station>
	<station code="SFR2" name="SFR2" netid="HI" source="ITSAK Strong Motion Network" insttype="" lat="36.399841" lon="25.438209">
		<comp name=".HNE" depth="0.0">
			<acc value="0.46108373236434" flag="0"/>
			<vel value="0.179798005691" flag="0"/>
			<psa03 value="1.1354555516917" flag="0"/>
			<psa10 value="0.0871175661113106" flag="0"/>
			<psa30 value="0.00689740400248521" flag="0"/>
		</comp>
		<comp name=".HNN" depth="0.0">
			<acc value="0.56424624945102" flag="0"/>
			<vel value="0.229280213299" flag="0"/>
			<psa03 value="1.47162848816426" flag="0"/>
			<psa10 value="0.148773105488054" flag="0"/>
			<psa30 value="0.00692675386346161" flag="0"/>
		</comp>
		<comp name=".HNZ" depth="0.0">
			<acc value="0.47006250149706" flag="0"/>
			<vel value="0.14100721184" flag="0"/>
			<psa03 value="0.598555776382039" flag="0"/>
			<psa10 value="0.0578407041626145" flag="0"/>
			<psa30 value="0.00448947782256061" flag="0"/>
		</comp>
	</station>
	<station code="AMGA" name="AMGA" netid="HL" source="National Observatory of Athens Seismic Network" insttype="" lat="36.831561" lon="25.893836">
		<comp name="00.HNE" depth="0.0">
			<acc value="0.075306463940568" flag="0"/>
			<vel value="0.0146251453872" flag="0"/>
			<psa03 value="0.0592678897484448" flag="0"/>
			<psa10 value="0.0126034899193491" flag="0"/>
			<psa30 value="0.00185666799514048" flag="0"/>
		</comp>
		<comp name="00.HNN" depth="0.0">
			<acc value="0.063347509789794" flag="0"/>
			<vel value="0.0197895978175" flag="0"/>
			<psa03 value="0.0670590048298206" flag="0"/>
			<psa10 value="0.0124932813685744" flag="0"/>
			<psa30 value="0.00165430333947698" flag="0"/>
		</comp>
		<comp name="00.HNZ" depth="0.0">
			<acc value="0.072605015294472" flag="0"/>
			<vel value="0.0208142445231" flag="0"/>
			<psa03 value="0.0725636976136267" flag="0"/>
			<psa10 value="0.0146332443806436" flag="0"/>
			<psa30 value="0.00210181694339123" flag="0"/>
		</comp>
	</station>
	<station code="ANAF" name="ANAF" netid="HL" source="National Observatory of Athens Seismic Network" insttype="" lat="36.35675" lon="25.77262">
		<comp name=".HNE" depth="0.0">
			<acc value="1.264876622706" flag="0"/>
			<vel value="0.334310885257" flag="0"/>
			<psa03 value="1.37035444592295" flag="0"/>
			<psa10 value="0.125764566285136" flag="0"/>
			<psa30 value="0.0106811050707997" flag="0"/>
		</comp>
		<comp name=".HNN" depth="0.0">
			<acc value="1.3734670700232" flag="0"/>
			<vel value="0.299925176879" flag="0"/>
			<psa03 value="1.12174272661722" flag="0"/>
			<psa10 value="0.0666517553518721" flag="0"/>
			<psa30 value="0.00633832446621277" flag="0"/>
		</comp>
		<comp name=".HNZ" depth="0.0">
			<acc value="0.73750425066612" flag="0"/>
			<vel value="0.14173324409" flag="0"/>
			<psa03 value="0.565598926487344" flag="0"/>
			<psa10 value="0.0343586360910001" flag="0"/>
			<psa30 value="0.00323109487751071" flag="0"/>
		</comp>
	</station>
	<station code="CHNB" name="CHNB" netid="HL" source="National Observatory of Athens Seismic Network" insttype="" lat="35.48765" lon="24.06605">
		<comp name="00.HNE" depth="0.0">
			<acc value="0.012239674918962" flag="0"/>
			<vel value="0.0102052590675" flag="0"/>
			<psa03 value="0.0546914615826414" flag="0"/>
			<psa10 value="0.0140488656684094" flag="0"/>
			<psa30 value="0.000700031946597613" flag="0"/>
		</comp>
		<comp name="00.HNN" depth="0.0">
			<acc value="0.018335320520742" flag="0"/>
			<vel value="0.015841490949" flag="0"/>
			<psa03 value="0.0462923999774786" flag="0"/>
			<psa10 value="0.0219907742808847" flag="0"/>
			<psa30 value="0.00105092763963053" flag="0"/>
		</comp>
		<comp name="00.HNZ" depth="0.0">
			<acc value="0.011884039896426" flag="0"/>
			<vel value="0.00721587543796" flag="0"/>
			<psa03 value="0.03107770197438" flag="0"/>
			<psa10 value="0.00410030834404191" flag="0"/>
			<psa30 value="0.000373467683109341" flag="0"/>
		</comp>
	</station>
	<station code="HERG" name="HERG" netid="HL" source="National Observatory of Athens Seismic Network" insttype="" lat="35.32622" lon="25.06586">
		<comp name="00.HNE" depth="0.0">
			<acc value="0.019086892170252" flag="0"/>
			<vel value="0.0154485997774" flag="0"/>
			<psa03 value="0.0564330561215179" flag="0"/>
			<psa10 value="0.0206931545699478" flag="0"/>
			<psa30 value="0.00196638401328875" flag="0"/>
		</comp>
		<comp name="00.HNN" depth="0.0">
