<?xml version="1.0" encoding="UTF-8" standalone="yes"?>
<!DOCTYPE earthquake SYSTEM "stationlist.dtd">
<stationlist created="" xmlns="ch.ethz.sed.shakemap.usgs.xml">
  <station code="THERA" name="THERA" netid="GE" insttype="STS-2/N" lat="36.367" lon="25.4753">
    <comp name="--.HHZ">
      <acc value="0.1649970007" flag="0"/>
      <vel value="0.0457312694" flag="0"/>
      <psa03 value="0.1633696054" flag="0"/>
      <psa10 value="0.0223917252" flag="0"/>
      <psa30 value="0.0016923352" flag="0"/>
    </comp>
    <comp name="--.HHN">
      <acc value="0.1153619556" flag="0"/>
      <vel value="0.0374414760" flag="0"/>
      <psa03 value="0.1828353077" flag="0"/>
      <psa10 value="0.0136799402" flag="0"/>
      <psa30 value="0.0008832623" flag="0"/>
    </comp>
    <comp name="--.HHE">
      <acc value="0.1695696706" flag="0"/>
      <vel value="0.0536158862" flag="0"/>
      <psa03 value="0.3190804877" flag="0"/>
      <psa10 value="0.0305468432" flag="0"/>
      <psa30 value="0.0025124134" flag="0"/>
    </comp>
  </station>
  <station code="SNT1" name="SNT1" netid="HA" insttype="30" lat="36.4159" lon="25.4282">
    <comp name="--.HHN">
      <acc value="0.1577711334" flag="0"/>
      <vel value="0.0901948475" flag="0"/>
      <psa03 value="0.2930611276" flag="0"/>
      <psa10 value="0.0744954547" flag="0"/>
      <psa30 value="0.0038892805" flag="0"/>
    </comp>
    <comp name="--.HHZ">
      <acc value="0.1575569646" flag="0"/>
      <vel value="0.0365676419" flag="0"/>
      <psa03 value="0.2476244707" flag="0"/>
      <psa10 value="0.0250825565" flag="0"/>
      <psa30 value="0.0020977332" flag="0"/>
    </comp>
    <comp name="--.HHE">
      <acc value="0.2012066367" flag="0"/>
      <vel value="0.0800574698" flag="0"/>
      <psa03 value="0.4773585821" flag="0"/>
      <psa10 value="0.0614899333" flag="0"/>
      <psa30 value="0.0049521283" flag="0"/>
    </comp>
  </station>
  <station code="NAX1" name="NAX1" netid="HI" insttype="CMG-5TD,ACCELEROMETER,GURALP" lat="37.1014" lon="25.3741">
    <comp name="--.HNE">
      <acc value="0.0686895161" flag="0"/>
      <vel value="0.0118585841" flag="0"/>
      <psa03 value="0.0582247122" flag="0"/>
      <psa10 value="0.0062384051" flag="0"/>
      <psa30 value="0.0006460084" flag="0"/>
    </comp>
    <comp name="--.HNN">
      <acc value="0.0502655603" flag="0"/>
      <vel value="0.0137146223" flag="0"/>
      <psa03 value="0.0535940235" flag="0"/>
      <psa10 value="0.0051236817" flag="0"/>
      <psa30 value="0.0007289792" flag="0"/>
    </comp>
    <comp name="--.HNZ">
      <acc value="0.0333452331" flag="0"/>
      <vel value="0.0083347613" flag="0"/>
      <psa03 value="0.0454502464" flag="0"/>
      <psa10 value="0.0094502561" flag="0"/>
      <psa30 value="0.0006921869" flag="0"/>
    </comp>
  </station>
  <station code="SFR2" name="SFR2" netid="HI" insttype="unknown" lat="36.3998" lon="25.4382">
    <comp name="--.HNZ">
      <acc value="0.4739937375" flag="0"/>
      <vel value="0.1400280393" flag="0"/>
      <psa03 value="0.5940892532" flag="0"/>
      <psa10 value="0.0577849093" flag="0"/>
      <psa30 value="0.0042938508" flag="0"/>
    </comp>
    <comp name="--.HNE">
      <acc value="0.4663958663" flag="0"/>
      <vel value="0.1785731830" flag="0"/>
      <psa03 value="1.1213736126" flag="0"/>
      <psa10 value="0.0869368512" flag="0"/>
      <psa30 value="0.0067432350" flag="0"/>
    </comp>
    <comp name="--.HNN">
      <acc value="0.5688452260" flag="0"/>
      <vel value="0.2293218666" flag="0"/>
      <psa03 value="1.4715060701" flag="0"/>
      <psa10 value="0.1486835374" flag="0"/>
      <psa30 value="0.0066753730" flag="0"/>
    </comp>
  </station>
  <station code="AMGA" name="AMGA" netid="HL" insttype="SMART24" lat="36.8316" lon="25.8938">
    <comp name="--.HHZ">
      <acc value="0.1206937458" flag="0"/>
      <vel value="0.0329882995" flag="0"/>
      <psa03 value="0.1184911863" flag="0"/>
      <psa10 value="0.0239637165" flag="0"/>
      <psa30 value="0.0029835825" flag="0"/>
    </comp>
    <comp name="--.HHN">
      <acc value="0.1077709383" flag="0"/>
      <vel value="0.0318558857" flag="0"/>
      <psa03 value="0.1046799358" flag="0"/>
      <psa10 value="0.0209684173" flag="0"/>
      <psa30 value="0.0025005490" flag="0"/>
    </comp>
    <comp name="--.HHE">
      <acc value="0.1241558687" flag="0"/>
      <vel value="0.0222835658" flag="0"/>
      <psa03 value="0.0999958200" flag="0"/>
      <psa10 value="0.0205156018" flag="0"/>
      <psa30 value="0.0025945917" flag="0"/>
    </comp>
  </station>
  <station code="MHLO" name="MHLO" netid="HL" insttype="20" lat="36.6898" lon="24.4017">
    <comp name="--.HHN">
      <acc value="0.0601507786" flag="0"/>
      <vel value="0.0334301994" flag="0"/>
      <psa03 value="0.1508242323" flag="0"/>
      <psa10 value="0.0451932059" flag="0"/>
      <psa30 value="0.0020905952" flag="0"/>
    </comp>
    <comp name="--.HHZ">
      <acc value="0.0251315691" flag="0"/>
      <vel value="0.0197162155" flag="0"/>
      <psa03 value="0.0804340984" flag="0"/>
      <psa10 value="0.0250465279" flag="0"/>
      <psa30 value="0.0015600775" flag="0"/>
    </comp>
    <comp name="--.HHE">
      <acc value="0.0535077334" flag="0"/>
      <vel value="0.0327123579" flag="0"/>
      <psa03 value="0.2281930995" flag="0"/>
      <psa10 value="0.0435975556" flag="0"/>
      <psa30 value="0.0023487527" flag="0"/>
    </comp>
  </station>
  <station code="SANT" name="SANT" netid="HL" insttype="30" lat="36.3705" lon="25.4593">
    <comp name="--.HHE">
      <acc value="0.6481335868" flag="0"/>
      <vel value="0.1280247115" flag="0"/>
      <psa03 value="0.6964795788" flag="0"/>
      <psa10 value="0.0414632185" flag="0"/>
      <psa30 value="0.0053421801" flag="0"/>
    </comp>
    <comp name="--.HHZ">
      <acc value="0.3274007483" flag="0"/>
      <vel value="0.0570793621" flag="0"/>
      <psa03 value="0.2199131293" flag="0"/>
      <psa10 value="0.0242710605" flag="0"/>
      <psa30 value="0.0018448600" flag="0"/>
    </comp>
    <comp name="--.HHN">
      <acc value="0.4936466922" flag="0"/>
      <vel value="0.0643507021" flag="0"/>
      <psa03 value="0.1928426131" flag="0"/>
      <psa10 value="0.0237757715" flag="0"/>
      <psa30 value="0.0021296554" flag="0"/>
    </comp>
  </station>
  <station code="SAP3" name="SAP3" netid="HL" insttype="65535" lat="36.4356" lon="25.3454">
    <comp name="--.HHE">
      <acc value="0.3424418573" flag="0"/>
      <vel value="0.1065449541" flag="0"/>
      <psa03 value="0.5549942730" flag="0"/>
      <psa10 value="0.0540658498" flag="0"/>
      <psa30 value="0.0049268041" flag="0"/>
    </comp>
    <comp name="--.HHZ">
      <acc value="0.1957984309" flag="0"/>
      <vel value="0.0468547138" flag="0"/>
      <psa03 value="0.2699726530" flag="0"/>
      <psa10 value="0.0208321609" flag="0"/>
      <psa30 value="0.0017898263" flag="0"/>
    </comp>
    <comp name="--.HHN">
      <acc value="0.2486500454" flag="0"/>
      <vel value="0.0904233898" flag="0"/>
      <psa03 value="0.4328107760" flag="0"/>
      <psa10 value="0.0390374868" flag="0"/>
      <psa30 value="0.0039242472" flag="0"/>
    </comp>
  </station>
  <station code="THERA" name="THERA" netid="HL" insttype="120" lat="36.367" lon="25.4753">
    <comp name="--.HHE">
      <acc value="0.1722317403" flag="0"/>
      <vel value="0.0522883450" flag="0"/>
      <psa03 value="0.3102498101" flag="0"/>
      <psa10 value="0.0303939581" flag="0"/>
      <psa30 value="0.0024854649" flag="0"/>
    </comp>
    <comp name="--.HHN">
      <acc value="0.2259506456" flag="0"/>
      <vel value="0.0731427085" flag="0"/>
      <psa03 value="0.3548545919" flag="0"/>
      <psa10 value="0.0272219474" flag="0"/>
      <psa30 value="0.0017426307" flag="0"/>
    </comp>
    <comp name="--.HHZ">
      <acc value="0.1620975121" flag="0"/>
      <vel value="0.0445729121" flag="0"/>
      <psa03 value="0.1586433048" flag="0"/>
      <psa10 value="0.0222617611" flag="0"/>
      <psa30 value="0.0016651996" flag="0"/>
    </comp>
  </station>
  <station code="THRA" name="THRA" netid="HL" insttype="CMG-5" lat="36.415" lon="25.4324">
    <comp name="00.HNZ">
      <acc value="0.3744958153" flag="0"/>
      <vel value="0.1126440528" flag="0"/>
      <psa03 value="0.9271894361" flag="0"/>
      <psa10 value="0.0748918076" flag="0"/>
      <psa30 value="0.0051983215" flag="0"/>
    </comp>
    <comp name="00.HNN">
      <acc value="0.5290817718" flag="0"/>
      <vel value="0.2013145361" flag="0"/>
      <psa03 value="1.5789634067" flag="0"/>
      <psa10 value="0.2431054746" flag="0"/>
      <psa30 value="0.0079768461" flag="0"/>
    </comp>
    <comp name="00.HNE">
      <acc value="0.6465773777" flag="0"/>
      <vel value="0.2336889120" flag="0"/>
      <psa03 value="1.4267870974" flag="0"/>
      <psa10 value="0.1229273826" flag="0"/>
      <psa30 value="0.0101156450" flag="0"/>
    </comp>
  </station>
  <station code="AKRO" name="AKRO" netid="HT" insttype="Compact," lat="36.3584" lon="25.3967">
    <comp name="--.HHE">
      <acc value="0.9994236593" flag="0"/>
      <vel value="0.3600033411" flag="0"/>
      <psa03 value="1.3115154466" flag="0"/>
      <psa10 value="0.1494150411" flag="0"/>
      <psa30 value="0.0104679534" flag="0"/>
    </comp>
    <comp name="--.HHN">
      <acc value="0.4792375454" flag="0"/>
      <vel value="0.1474107744" flag="0"/>
      <psa03 value="0.6850259366" flag="0"/>
      <psa10 value="0.0635433663" flag="0"/>
      <psa30 value="0.0051540782" flag="0"/>
    </comp>
    <comp name="--.HHZ">
      <acc value="0.4175745355" flag="0"/>
      <vel value="0.1227489749" flag="0"/>
      <psa03 value="0.5400429932" flag="0"/>
      <psa10 value="0.0485627516" flag="0"/>
      <psa30 value="0.0049471240" flag="0"/>
    </comp>
  </station>
  <station code="CMBO" name="CMBO" netid="HT" insttype="120P," lat="36.4709" lon="25.4056">
    <comp name="--.HHE">
      <acc value="0.3751628494" flag="0"/>
      <vel value="0.1415597845" flag="0"/>
      <psa03 value="0.4884247304" flag="0"/>
      <psa10 value="0.0681503538" flag="0"/>
      <psa30 value="0.0062195750" flag="0"/>
    </comp>
    <comp name="--.HHZ">
      <acc value="0.3319923873" flag="0"/>
      <vel value="0.1048852436" flag="0"/>
      <psa03 value="0.6155342033" flag="0"/>
      <psa10 value="0.0311620197" flag="0"/>
      <psa30 value="0.0027890461" flag="0"/>
    </comp>
    <comp name="--.HHN">
      <acc value="0.5722412304" flag="0"/>
      <vel value="0.2352583591" flag="0"/>
      <psa03 value="0.7894268132" flag="0"/>
      <psa10 value="0.1001125428" flag="0"/>
      <psa30 value="0.0081677442" flag="0"/>
    </comp>
  </station>
</stationlist>
