<?xml version="1.0" encoding="UTF-8" standalone="yes"?>
<!DOCTYPE earthquake SYSTEM "stationlist.dtd">
<stationlist created="" xmlns="ch.ethz.sed.shakemap.usgs.xml">
  <station code="BNN" name="BNN" netid="KO" insttype="CMG-3T" lat="38.8521" lon="35.8472">
    <comp name="--.HHZ">
      <acc value="0.0136555453" flag="0"/>
      <vel value="0.0084036583" flag="0"/>
      <psa03 value="0.0264003911" flag="0"/>
      <psa10 value="0.0114248289" flag="0"/>
      <psa30 value="0.0023516555" flag="0"/>
    </comp>
  </station>
  <station code="CEYT" name="CEYT" netid="KO" insttype="CMG-3ESP" lat="37.0105" lon="35.7478">
    <comp name="--.HHN">
      <acc value="0.0316030461" flag="0"/>
      <vel value="0.0280341308" flag="0"/>
      <psa03 value="0.0808603981" flag="0"/>
      <psa10 value="0.0285657665" flag="0"/>
      <psa30 value="0.0054835587" flag="0"/>
    </comp>
    <comp name="--.HHZ">
      <acc value="0.0138233114" flag="0"/>
      <vel value="0.0183232652" flag="0"/>
      <psa03 value="0.0368916275" flag="0"/>
      <psa10 value="0.0311878311" flag="0"/>
      <psa30 value="0.0063858528" flag="0"/>
    </comp>
    <comp name="--.HHE">
      <acc value="0.0211120705" flag="0"/>
      <vel value="0.0181629706" flag="0"/>
      <psa03 value="0.0754678761" flag="0"/>
      <psa10 value="0.0255629479" flag="0"/>
      <psa30 value="0.0044728540" flag="0"/>
    </comp>
  </station>
  <station code="CMRD" name="CMRD" netid="KO" insttype="CMG-5T" lat="37.6623" lon="34.9902">
    <comp name="--.HNZ">
      <acc value="0.0128390039" flag="0"/>
      <vel value="0.0134444329" flag="0"/>
      <psa03 value="0.0303765452" flag="0"/>
      <psa10 value="0.0194933442" flag="0"/>
      <psa30 value="0.0024589019" flag="0"/>
    </comp>
    <comp name="--.HNN">
      <acc value="0.0222403457" flag="0"/>
      <vel value="0.0241971677" flag="0"/>
      <psa03 value="0.0526550087" flag="0"/>
      <psa10 value="0.0410854765" flag="0"/>
      <psa30 value="0.0019416951" flag="0"/>
    </comp>
    <comp name="--.HNE">
      <acc value="0.0142788640" flag="0"/>
      <vel value="0.0167945669" flag="0"/>
      <psa03 value="0.0395448708" flag="0"/>
      <psa10 value="0.0282154940" flag="0"/>
      <psa30 value="0.0020323097" flag="0"/>
    </comp>
  </station>
  <station code="DARE" name="DARE" netid="KO" insttype="CMG-3ESP" lat="38.5712" lon="37.4832">
    <comp name="--.HHE">
      <acc value="0.0169936737" flag="0"/>
      <vel value="0.0096781270" flag="0"/>
      <psa03 value="0.0421541782" flag="0"/>
      <psa10 value="0.0150749215" flag="0"/>
      <psa30 value="0.0021128011" flag="0"/>
    </comp>
    <comp name="--.HHN">
      <acc value="0.0771026976" flag="0"/>
      <vel value="0.0161522975" flag="0"/>
      <psa03 value="0.0542374575" flag="0"/>
      <psa10 value="0.0209712263" flag="0"/>
      <psa30 value="0.0025834051" flag="0"/>
    </comp>
  </station>
  <station code="GAZ" name="GAZ" netid="KO" insttype="CMG-3T" lat="37.1721" lon="37.2096">
    <comp name="--.HHZ">
      <acc value="0.0846111482" flag="0"/>
      <vel value="0.0364053718" flag="0"/>
      <psa03 value="0.1474637487" flag="0"/>
      <psa10 value="0.0293100430" flag="0"/>
      <psa30 value="0.0028175076" flag="0"/>
    </comp>
    <comp name="--.HHN">
      <acc value="0.1046596964" flag="0"/>
      <vel value="0.0478245048" flag="0"/>
      <psa03 value="0.1574333182" flag="0"/>
      <psa10 value="0.0523806187" flag="0"/>
      <psa30 value="0.0027199520" flag="0"/>
    </comp>
    <comp name="--.HHE">
      <acc value="0.0921175739" flag="0"/>
      <vel value="0.0396471563" flag="0"/>
      <psa03 value="0.1636287112" flag="0"/>
      <psa10 value="0.0479637440" flag="0"/>
      <psa30 value="0.0047192187" flag="0"/>
    </comp>
  </station>
  <station code="SARI" name="SARI" netid="KO" insttype="CMG-3T" lat="38.4072" lon="36.4181">
    <comp name="--.HHE">
      <acc value="0.2518705061" flag="0"/>
      <vel value="0.0632144726" flag="0"/>
      <psa03 value="0.3383473158" flag="0"/>
      <psa10 value="0.0309457791" flag="0"/>
      <psa30 value="0.0037396436" flag="0"/>
    </comp>
  </station>
  <station code="ANDN" name="ANDN" netid="TU" insttype="T" lat="37.58" lon="36.3452">
    <comp name="--.HHZ">
      <acc value="0.4106298348" flag="0"/>
      <vel value="0.2097968435" flag="0"/>
      <psa03 value="0.8063491236" flag="0"/>
      <psa10 value="0.2507586725" flag="0"/>
      <psa30 value="0.0360036259" flag="0"/>
    </comp>
    <comp name="--.HHN">
      <acc value="0.7713364090" flag="0"/>
      <vel value="0.3780574036" flag="0"/>
      <psa03 value="2.0778872314" flag="0"/>
      <psa10 value="0.2582382206" flag="0"/>
      <psa30 value="0.0333449959" flag="0"/>
    </comp>
    <comp name="--.HHE">
      <acc value="0.6705688427" flag="0"/>
      <vel value="0.2678305000" flag="0"/>
      <psa03 value="1.3013404616" flag="0"/>
      <psa10 value="0.2321135243" flag="0"/>
      <psa30 value="0.0294552310" flag="0"/>
    </comp>
  </station>
</stationlist>
