<?xml version="1.0" encoding="UTF-8" standalone="yes"?>
<!DOCTYPE earthquake SYSTEM "stationlist.dtd">
<stationlist created="" xmlns="ch.ethz.sed.shakemap.usgs.xml">
  <station code="KARP" name="KARP" netid="GE" insttype="STS-2/N" commtype="DIG" lat="35.5471" lon="27.1611">
    <comp name="--.HHN">
      <acc value="0.0994697457" flag="0"/>
      <vel value="0.0211075849" flag="0"/>
      <psa03 value="0.0835464620" flag="0"/>
      <psa10 value="0.0141154222" flag="0"/>
      <psa30 value="0.0019256632" flag="0"/>
    </comp>
    <comp name="--.HHZ">
      <acc value="0.0453751286" flag="0"/>
      <vel value="0.0129520773" flag="0"/>
      <psa03 value="0.1098584728" flag="0"/>
      <psa10 value="0.0133578226" flag="0"/>
      <psa30 value="0.0019337846" flag="0"/>
    </comp>
    <comp name="--.HHE">
      <acc value="0.1057480981" flag="0"/>
      <vel value="0.0228606010" flag="0"/>
      <psa03 value="0.1286768069" flag="0"/>
      <psa10 value="0.0110642746" flag="0"/>
      <psa30 value="0.0015851711" flag="0"/>
    </comp>
  </station>
  <station code="KSS1" name="KSS1" netid="HI" insttype="CMG-5TD,ACCELEROMETER,GURALP" commtype="DIG" lat="35.4189" lon="26.9207">
    <comp name="--.HNZ">
      <acc value="0.0745550990" flag="0"/>
      <vel value="0.0217794587" flag="0"/>
      <psa03 value="0.0717321608" flag="0"/>
      <psa10 value="0.0092177936" flag="0"/>
      <psa30 value="0.0010748568" flag="0"/>
    </comp>
    <comp name="--.HNE">
      <acc value="0.0741334206" flag="0"/>
      <vel value="0.0309873458" flag="0"/>
      <psa03 value="0.2383254862" flag="0"/>
      <psa10 value="0.0185020079" flag="0"/>
      <psa30 value="0.0017523621" flag="0"/>
    </comp>
    <comp name="--.HNN">
      <acc value="0.0931421158" flag="0"/>
      <vel value="0.0322352612" flag="0"/>
      <psa03 value="0.2580608200" flag="0"/>
      <psa10 value="0.0114691351" flag="0"/>
      <psa30 value="0.0010482541" flag="0"/>
    </comp>
  </station>
  <station code="KARP" name="KARP" netid="HL" insttype="120" commtype="DIG" lat="35.5471" lon="27.1611">
    <comp name="--.HHZ">
      <acc value="0.0426320070" flag="0"/>
      <vel value="0.0126984280" flag="0"/>
      <psa03 value="0.1069579208" flag="0"/>
      <psa10 value="0.0132111537" flag="0"/>
      <psa30 value="0.0019295611" flag="0"/>
    </comp>
    <comp name="--.HHN">
      <acc value="0.0968416114" flag="0"/>
      <vel value="0.0203790980" flag="0"/>
      <psa03 value="0.0814248561" flag="0"/>
      <psa10 value="0.0139918687" flag="0"/>
      <psa30 value="0.0019233913" flag="0"/>
    </comp>
    <comp name="--.HHE">
      <acc value="0.0993940364" flag="0"/>
      <vel value="0.0221564703" flag="0"/>
      <psa03 value="0.1251976663" flag="0"/>
      <psa10 value="0.0109564387" flag="0"/>
      <psa30 value="0.0015815476" flag="0"/>
    </comp>
  </station>
</stationlist>
