<?xml version="1.0" encoding="UTF-8" standalone="yes"?>
<!DOCTYPE earthquake SYSTEM "stationlist.dtd">
<stationlist created="" xmlns="ch.ethz.sed.shakemap.usgs.xml">
  <station code="XAN2" name="XAN2" netid="HI" insttype="unknown" commtype="DIG" lat="41.142" lon="24.8908">
    <comp name="--.HNE">
      <acc value="0.0239008928" flag="0"/>
      <vel value="0.0114520389" flag="0"/>
      <psa03 value="0.0250346662" flag="0"/>
      <psa10 value="0.0105963544" flag="0"/>
      <psa30 value="0.0005101984" flag="0"/>
    </comp>
    <comp name="--.HNN">
      <acc value="0.0148099519" flag="0"/>
      <vel value="0.0074183095" flag="0"/>
      <psa03 value="0.0368859054" flag="0"/>
      <psa10 value="0.0133264719" flag="0"/>
      <psa30 value="0.0008341797" flag="0"/>
    </comp>
    <comp name="--.HNZ">
      <acc value="0.0122777018" flag="0"/>
      <vel value="0.0056989062" flag="0"/>
      <psa03 value="0.0232172782" flag="0"/>
      <psa10 value="0.0071970217" flag="0"/>
      <psa30 value="0.0003969522" flag="0"/>
    </comp>
  </station>
  <station code="KVLA" name="KVLA" netid="HL" insttype="CMG-5" commtype="DIG" lat="40.937" lon="24.3859">
    <comp name="00.HNE">
      <acc value="0.0660700542" flag="0"/>
      <vel value="0.0236411503" flag="0"/>
      <psa03 value="0.1334043139" flag="0"/>
      <psa10 value="0.0234955606" flag="0"/>
      <psa30 value="0.0011734311" flag="0"/>
    </comp>
    <comp name="00.HNN">
      <acc value="0.0783075014" flag="0"/>
      <vel value="0.0219716525" flag="0"/>
      <psa03 value="0.1144256969" flag="0"/>
      <psa10 value="0.0110572347" flag="0"/>
      <psa30 value="0.0011267048" flag="0"/>
    </comp>
    <comp name="00.HNZ">
      <acc value="0.0383519187" flag="0"/>
      <vel value="0.0115048285" flag="0"/>
      <psa03 value="0.0637386826" flag="0"/>
      <psa10 value="0.0059554327" flag="0"/>
      <psa30 value="0.0004417184" flag="0"/>
    </comp>
  </station>
  <station code="LIA" name="LIA" netid="HL" insttype="60s" commtype="DIG" lat="39.8972" lon="25.1806">
    <comp name="--.HHE">
      <acc value="0.0000000000" flag="0"/>
      <vel value="-100.0000000000" flag="0"/>
      <psa03 value="0.0000000000" flag="0"/>
      <psa10 value="0.0000000000" flag="0"/>
      <psa30 value="0.0000000000" flag="0"/>
    </comp>
    <comp name="--.HHZ">
      <acc value="0.0000000000" flag="0"/>
      <vel value="-100.0000000000" flag="0"/>
      <psa03 value="0.0000000000" flag="0"/>
      <psa10 value="0.0000000000" flag="0"/>
      <psa30 value="0.0000000000" flag="0"/>
    </comp>
    <comp name="--.HHN">
      <acc value="0.0055435892" flag="0"/>
      <vel value="0.0021909333" flag="0"/>
      <psa03 value="0.0145289473" flag="0"/>
      <psa10 value="0.0018007669" flag="0"/>
      <psa30 value="0.0001026942" flag="0"/>
    </comp>
  </station>
  <station code="NGRA" name="NGRA" netid="HL" insttype="CMG-5" commtype="DIG" lat="40.9075" lon="23.4993">
    <comp name="00.HNE">
      <acc value="0.0228215408" flag="0"/>
      <vel value="0.0178899987" flag="0"/>
      <psa03 value="0.0754560719" flag="0"/>
      <psa10 value="0.0202324889" flag="0"/>
      <psa30 value="0.0009081922" flag="0"/>
    </comp>
    <comp name="00.HNN">
      <acc value="0.0286049133" flag="0"/>
      <vel value="0.0121553901" flag="0"/>
      <psa03 value="0.0918255609" flag="0"/>
      <psa10 value="0.0119545844" flag="0"/>
      <psa30 value="0.0009693144" flag="0"/>
    </comp>
    <comp name="00.HNZ">
      <acc value="0.0184255966" flag="0"/>
      <vel value="0.0100231431" flag="0"/>
      <psa03 value="0.0368300415" flag="0"/>
      <psa10 value="0.0140746468" flag="0"/>
      <psa30 value="0.0006551099" flag="0"/>
    </comp>
  </station>
  <station code="PLG" name="PLG" netid="HL" insttype="120" commtype="DIG" lat="40.3733" lon="23.4444">
    <comp name="--.HHN">
      <acc value="0.0324590471" flag="0"/>
      <vel value="0.0092070241" flag="0"/>
      <psa03 value="0.0670604196" flag="0"/>
      <psa10 value="0.0041542036" flag="0"/>
      <psa30 value="0.0003948378" flag="0"/>
    </comp>
    <comp name="--.HHZ">
      <acc value="0.0250969820" flag="0"/>
      <vel value="0.0073077284" flag="0"/>
      <psa03 value="0.0294782134" flag="0"/>
      <psa10 value="0.0050389696" flag="0"/>
      <psa30 value="0.0002749779" flag="0"/>
    </comp>
  </station>
  <station code="XANC" name="XANC" netid="HL" insttype="CMG-5" commtype="DIG" lat="40.9798" lon="24.9529">
    <comp name="00.HNE">
      <acc value="0.0587038645" flag="0"/>
      <vel value="0.0117770636" flag="0"/>
      <psa03 value="0.0424941830" flag="0"/>
      <psa10 value="0.0072796816" flag="0"/>
      <psa30 value="0.0004162746" flag="0"/>
    </comp>
    <comp name="00.HNN">
      <acc value="0.0493412625" flag="0"/>
      <vel value="0.0118336494" flag="0"/>
      <psa03 value="0.0497673892" flag="0"/>
      <psa10 value="0.0059988057" flag="0"/>
      <psa30 value="0.0004688542" flag="0"/>
    </comp>
    <comp name="00.HNZ">
      <acc value="0.0438550958" flag="0"/>
      <vel value="0.0126521463" flag="0"/>
      <psa03 value="0.0353738840" flag="0"/>
      <psa10 value="0.0052249929" flag="0"/>
      <psa30 value="0.0008952533" flag="0"/>
    </comp>
  </station>
  <station code="AOS2" name="AOS2" netid="HT" insttype="100" commtype="DIG" lat="39.1478" lon="23.8436">
    <comp name="--.HHN">
      <acc value="0.0031320292" flag="0"/>
      <vel value="0.0017797644" flag="0"/>
      <psa03 value="0.0058738532" flag="0"/>
      <psa10 value="0.0013874440" flag="0"/>
      <psa30 value="0.0001614137" flag="0"/>
    </comp>
    <comp name="--.HHE">
      <acc value="0.0027144898" flag="0"/>
      <vel value="0.0019204052" flag="0"/>
      <psa03 value="0.0065062420" flag="0"/>
      <psa10 value="0.0020474364" flag="0"/>
      <psa30 value="0.0002602262" flag="0"/>
    </comp>
    <comp name="--.HHZ">
      <acc value="0.0041283993" flag="0"/>
      <vel value="0.0017561460" flag="0"/>
      <psa03 value="0.0066880816" flag="0"/>
      <psa10 value="0.0015131199" flag="0"/>
      <psa30 value="0.0001532449" flag="0"/>
    </comp>
  </station>
  <station code="HMT1" name="HMT1" netid="HT" insttype="Compact," commtype="DIG" lat="40.2581" lon="24.2476">
    <comp name="--.HHE">
      <acc value="3.6861944865" flag="0"/>
      <vel value="0.9551702610" flag="0"/>
      <psa03 value="1.5557736012" flag="0"/>
      <psa10 value="0.1092060473" flag="0"/>
      <psa30 value="0.0159513270" flag="0"/>
    </comp>
    <comp name="--.HHN">
      <acc value="1.8674238444" flag="0"/>
      <vel value="0.4685706600" flag="0"/>
      <psa03 value="1.6809958457" flag="0"/>
      <psa10 value="0.1161098072" flag="0"/>
      <psa30 value="0.0076324487" flag="0"/>
    </comp>
    <comp name="--.HHZ">
      <acc value="2.0676487456" flag="0"/>
      <vel value="0.3567621248" flag="0"/>
      <psa03 value="0.6540540203" flag="0"/>
      <psa10 value="0.0326873486" flag="0"/>
      <psa30 value="0.0043312289" flag="0"/>
    </comp>
  </station>
  <station code="HORT" name="HORT" netid="HT" insttype="100" commtype="DIG" lat="40.5978" lon="23.0996">
    <comp name="--.HHN">
      <acc value="0.0000111760" flag="0"/>
      <vel value="0.0000025839" flag="0"/>
      <psa03 value="0.0000115539" flag="0"/>
      <psa10 value="0.0000034177" flag="0"/>
      <psa30 value="0.0000003930" flag="0"/>
    </comp>
    <comp name="--.HHE">
      <acc value="0.0132796582" flag="0"/>
      <vel value="0.0030461267" flag="0"/>
      <psa03 value="0.0159469301" flag="0"/>
      <psa10 value="0.0022681964" flag="0"/>
      <psa30 value="0.0001850355" flag="0"/>
    </comp>
  </station>
</stationlist>
