<?xml version="1.0" encoding="UTF-8" standalone="yes"?>
<!DOCTYPE earthquake SYSTEM "stationlist.dtd">
<stationlist created="" xmlns="ch.ethz.sed.shakemap.usgs.xml">
  <station code="JAN" name="JAN" netid="HL" source="NOA" insttype="CMG3EPSC60_DR24" lat="39.6562" lon="20.8487">
    <comp name="--.HHE">
      <acc value="0.0718359069" flag="0"/>
      <vel value="0.0392821620" flag="0"/>
      <psa03 value="0.2027086142" flag="0"/>
      <psa10 value="0.0512477117" flag="0"/>
      <psa30 value="0.0069289830" flag="0"/>
    </comp>
    <comp name="--.HHN">
      <acc value="0.0704000183" flag="0"/>
      <vel value="0.0342141912" flag="0"/>
      <psa03 value="0.1852331766" flag="0"/>
      <psa10 value="0.0596670514" flag="0"/>
      <psa30 value="0.0061456299" flag="0"/>
    </comp>
    <comp name="--.HHZ">
      <acc value="0.0425980104" flag="0"/>
      <vel value="0.0247824091" flag="0"/>
      <psa03 value="0.1926086487" flag="0"/>
      <psa10 value="0.0375531391" flag="0"/>
      <psa30 value="0.0059662095" flag="0"/>
    </comp>
  </station>
  <station code="KEK" name="KEK" netid="HL" source="NOA" insttype="120" lat="39.7127" lon="19.7962">
    <comp name="--.HHE">
      <acc value="0.0182505647" flag="0"/>
      <vel value="0.0171331874" flag="0"/>
      <psa03 value="0.0404687384" flag="0"/>
      <psa10 value="0.0293447634" flag="0"/>
      <psa30 value="0.0022678500" flag="0"/>
    </comp>
    <comp name="--.HHN">
      <acc value="0.0157299494" flag="0"/>
      <vel value="0.0173146485" flag="0"/>
      <psa03 value="0.0734456642" flag="0"/>
      <psa10 value="0.0266171607" flag="0"/>
      <psa30 value="0.0023084120" flag="0"/>
    </comp>
    <comp name="--.HHZ">
      <acc value="0.0154785249" flag="0"/>
      <vel value="0.0161398714" flag="0"/>
      <psa03 value="0.0449451126" flag="0"/>
      <psa10 value="0.0217578196" flag="0"/>
      <psa30 value="0.0016843447" flag="0"/>
    </comp>
  </station>
  <station code="KZN" name="KZN" netid="HL" source="NOA" insttype="120" lat="40.3033" lon="21.7821">
    <comp name="--.HHE">
      <acc value="0.1606383436" flag="0"/>
      <vel value="0.0976964026" flag="0"/>
      <psa03 value="0.4656754170" flag="0"/>
      <psa10 value="0.0920767977" flag="0"/>
      <psa30 value="0.0170410529" flag="0"/>
    </comp>
    <comp name="--.HHN">
      <acc value="0.1536752630" flag="0"/>
      <vel value="0.0865212490" flag="0"/>
      <psa03 value="0.5219463650" flag="0"/>
      <psa10 value="0.0610652951" flag="0"/>
      <psa30 value="0.0098057007" flag="0"/>
    </comp>
    <comp name="--.HHZ">
      <acc value="0.0768544984" flag="0"/>
      <vel value="0.0482690561" flag="0"/>
      <psa03 value="0.1951999352" flag="0"/>
      <psa10 value="0.0501378496" flag="0"/>
      <psa30 value="0.0103680084" flag="0"/>
    </comp>
  </station>
  <station code="PENT" name="PENT" netid="HL" source="NOA" insttype="30" lat="40.1959" lon="21.1384">
    <comp name="--.HHE">
      <acc value="0.3721164751" flag="0"/>
      <vel value="0.1330314447" flag="0"/>
      <psa03 value="0.6707327117" flag="0"/>
      <psa10 value="0.0936100259" flag="0"/>
      <psa30 value="0.0223610746" flag="0"/>
    </comp>
    <comp name="--.HHN">
      <acc value="0.0215614987" flag="0"/>
      <vel value="0.0056315347" flag="0"/>
      <psa03 value="0.0257547024" flag="0"/>
      <psa10 value="0.0048897753" flag="0"/>
      <psa30 value="0.0007966140" flag="0"/>
    </comp>
    <comp name="--.HHZ">
      <acc value="0.2523190707" flag="0"/>
      <vel value="0.1158007304" flag="0"/>
      <psa03 value="0.5522861886" flag="0"/>
      <psa10 value="0.1017161762" flag="0"/>
      <psa30 value="0.0180089984" flag="0"/>
    </comp>
  </station>
  <station code="TETR" name="TETR" netid="HL" source="NOA" insttype="60" lat="39.3445" lon="21.2747">
    <comp name="--.HHE">
      <acc value="0.1011350455" flag="0"/>
      <vel value="0.0861823989" flag="0"/>
      <psa03 value="0.2970441868" flag="0"/>
      <psa10 value="0.1446957546" flag="0"/>
      <psa30 value="0.0075299545" flag="0"/>
    </comp>
    <comp name="--.HHN">
      <acc value="0.0902787866" flag="0"/>
      <vel value="0.0630085979" flag="0"/>
      <psa03 value="0.2546484934" flag="0"/>
      <psa10 value="0.1047041472" flag="0"/>
      <psa30 value="0.0091017672" flag="0"/>
    </comp>
    <comp name="--.HHZ">
      <acc value="0.0415353871" flag="0"/>
      <vel value="0.0318020405" flag="0"/>
      <psa03 value="0.0886353075" flag="0"/>
      <psa10 value="0.0888398734" flag="0"/>
      <psa30 value="0.0084932394" flag="0"/>
    </comp>
  </station>
  <station code="THL" name="THL" netid="HL" source="NOA" insttype="120" lat="39.5647" lon="22.0144">
    <comp name="--.HHE">
      <acc value="0.0266001857" flag="0"/>
      <vel value="0.0178072914" flag="0"/>
      <psa03 value="0.0665357715" flag="0"/>
      <psa10 value="0.0357206336" flag="0"/>
      <psa30 value="0.0059380496" flag="0"/>
    </comp>
    <comp name="--.HHN">
      <acc value="0.0340950991" flag="0"/>
      <vel value="0.0270216049" flag="0"/>
      <psa03 value="0.0518505215" flag="0"/>
      <psa10 value="0.0612360187" flag="0"/>
      <psa30 value="0.0034100178" flag="0"/>
    </comp>
    <comp name="--.HHZ">
      <acc value="0.0159871674" flag="0"/>
      <vel value="0.0200843490" flag="0"/>
      <psa03 value="0.0296820825" flag="0"/>
      <psa10 value="0.0215499393" flag="0"/>
      <psa30 value="0.0060956215" flag="0"/>
    </comp>
  </station>
  <station code="IGT" name="IGT" netid="HT" source="NOA" insttype="100" lat="39.5315" lon="20.3299">
    <comp name="--.HHE">
      <acc value="0.0286742453" flag="0"/>
      <vel value="0.0306645540" flag="0"/>
      <psa03 value="0.0838306809" flag="0"/>
      <psa10 value="0.0385779631" flag="0"/>
      <psa30 value="0.0043739880" flag="0"/>
    </comp>
    <comp name="--.HHN">
      <acc value="0.0203818773" flag="0"/>
      <vel value="0.0176241913" flag="0"/>
      <psa03 value="0.0602418676" flag="0"/>
      <psa10 value="0.0310614550" flag="0"/>
      <psa30 value="0.0034633577" flag="0"/>
    </comp>
    <comp name="--.HHZ">
      <acc value="0.0207888571" flag="0"/>
      <vel value="0.0188391721" flag="0"/>
      <psa03 value="0.0585981010" flag="0"/>
      <psa10 value="0.0342016918" flag="0"/>
      <psa30 value="0.0034610761" flag="0"/>
    </comp>
  </station>
  <station code="KPRO" name="KPRO" netid="HT" source="NOA" insttype="100" lat="39.9549" lon="21.3632">
    <comp name="--.HHE">
      <acc value="0.2535629596" flag="0"/>
      <vel value="0.1053787829" flag="0"/>
      <psa03 value="0.3895411143" flag="0"/>
      <psa10 value="0.1552967252" flag="0"/>
      <psa30 value="0.0148785191" flag="0"/>
    </comp>
    <comp name="--.HHN">
      <acc value="0.1771473344" flag="0"/>
      <vel value="0.1131659504" flag="0"/>
      <psa03 value="0.4019601578" flag="0"/>
      <psa10 value="0.0896399420" flag="0"/>
      <psa30 value="0.0188131270" flag="0"/>
    </comp>
    <comp name="--.HHZ">
      <acc value="0.0708684237" flag="0"/>
      <vel value="0.0546612974" flag="0"/>
      <psa03 value="0.1970365595" flag="0"/>
      <psa10 value="0.0722839961" flag="0"/>
      <psa30 value="0.0162976383" flag="0"/>
    </comp>
  </station>
  <station code="NEST" name="NEST" netid="HT" source="NOA" insttype="120P," lat="40.4147" lon="21.0489">
    <comp name="--.HHE">
      <acc value="0.9831224541" flag="0"/>
      <vel value="0.4786081399" flag="0"/>
      <psa03 value="1.7182564056" flag="0"/>
      <psa10 value="0.2498616550" flag="0"/>
      <psa30 value="0.0676414489" flag="0"/>
    </comp>
    <comp name="--.HHN">
      <acc value="1.1432017230" flag="0"/>
      <vel value="0.4478431190" flag="0"/>
      <psa03 value="1.9887142823" flag="0"/>
      <psa10 value="0.1758617033" flag="0"/>
      <psa30 value="0.0555320691" flag="0"/>
    </comp>
    <comp name="--.HHZ">
      <acc value="1.1431238334" flag="0"/>
      <vel value="0.3240912249" flag="0"/>
      <psa03 value="1.6899787755" flag="0"/>
      <psa10 value="0.3662471009" flag="0"/>
      <psa30 value="0.0510559339" flag="0"/>
    </comp>
  </station>
  <station code="TYRN" name="TYRN" netid="HT" source="NOA" insttype="120P," lat="39.711" lon="22.2325">
    <comp name="--.HHE">
      <acc value="0.0337271398" flag="0"/>
      <vel value="0.0351142967" flag="0"/>
      <psa03 value="0.0807519177" flag="0"/>
      <psa10 value="0.0552905711" flag="0"/>
      <psa30 value="0.0073451007" flag="0"/>
    </comp>
    <comp name="--.HHN">
      <acc value="0.0301465796" flag="0"/>
      <vel value="0.0284141890" flag="0"/>
      <psa03 value="0.0704659253" flag="0"/>
      <psa10 value="0.0583516656" flag="0"/>
      <psa30 value="0.0087450327" flag="0"/>
    </comp>
    <comp name="--.HHZ">
      <acc value="0.0263576381" flag="0"/>
      <vel value="0.0259705726" flag="0"/>
      <psa03 value="0.0592496206" flag="0"/>
      <psa10 value="0.0453079395" flag="0"/>
      <psa30 value="0.0094824346" flag="0"/>
    </comp>
  </station>
  <station code="KEK" name="KEK" netid="MN" source="INGV" insttype="" lat="39.7127" lon="19.7962">
    <comp name="--.HHE">
      <acc value="0.0182505521" flag="0"/>
      <vel value="0.0171331756" flag="0"/>
      <psa03 value="0.0404687104" flag="0"/>
      <psa10 value="0.0293447431" flag="0"/>
      <psa30 value="0.0022678484" flag="0"/>
    </comp>
    <comp name="--.HHN">
      <acc value="0.0157299385" flag="0"/>
      <vel value="0.0173146365" flag="0"/>
      <psa03 value="0.0734456133" flag="0"/>
      <psa10 value="0.0266171423" flag="0"/>
      <psa30 value="0.0023084104" flag="0"/>
    </comp>
    <comp name="--.HHZ">
      <acc value="0.0154785142" flag="0"/>
      <vel value="0.0161398602" flag="0"/>
      <psa03 value="0.0449450815" flag="0"/>
      <psa10 value="0.0217578046" flag="0"/>
      <psa30 value="0.0016843435" flag="0"/>
    </comp>
  </station>
  <station code="THL" name="THL" netid="MN" source="INGV" insttype="" lat="39.5647" lon="22.0144">
    <comp name="--.HHE">
      <acc value="0.0055655840" flag="0"/>
      <vel value="0.0037258378" flag="0"/>
      <psa03 value="0.0139213475" flag="0"/>
      <psa10 value="0.0074738647" flag="0"/>
      <psa30 value="0.0012424242" flag="0"/>
    </comp>
    <comp name="--.HHN">
      <acc value="0.0071337524" flag="0"/>
      <vel value="0.0056537580" flag="0"/>
      <psa03 value="0.0108487376" flag="0"/>
      <psa10 value="0.0128124748" flag="0"/>
      <psa30 value="0.0007134815" flag="0"/>
    </comp>
    <comp name="--.HHZ">
      <acc value="0.0033450114" flag="0"/>
      <vel value="0.0042022689" flag="0"/>
      <psa03 value="0.0062104124" flag="0"/>
      <psa10 value="0.0045089158" flag="0"/>
      <psa30 value="0.0012753931" flag="0"/>
    </comp>
  </station>
  <station code="TIR" name="TIR" netid="MN" source="INGV" insttype="" lat="41.3472" lon="19.8631">
    <comp name="--.HHE">
      <acc value="0.0389156186" flag="0"/>
      <vel value="0.0383936055" flag="0"/>
      <psa03 value="0.0929058524" flag="0"/>
      <psa10 value="0.0571844220" flag="0"/>
      <psa30 value="0.0117795537" flag="0"/>
    </comp>
    <comp name="--.HHN">
      <acc value="0.0425542859" flag="0"/>
      <vel value="0.0460369664" flag="0"/>
      <psa03 value="0.0898235288" flag="0"/>
      <psa10 value="0.0582414688" flag="0"/>
      <psa30 value="0.0116523207" flag="0"/>
    </comp>
    <comp name="--.HHZ">
      <acc value="0.0289999010" flag="0"/>
      <vel value="0.0270397176" flag="0"/>
      <psa03 value="0.0615409256" flag="0"/>
      <psa10 value="0.0428220218" flag="0"/>
      <psa30 value="0.0139194490" flag="0"/>
    </comp>
  </station>
</stationlist>
