<stationlist xmlns:esm="https://esm-db.eu/esmws/shakemap/1/" created="1780710908">
	<station code="ARG2" name="ARG2" netid="HI" source="ITSAK Strong Motion Network" insttype="" lat="38.1783" lon="20.4878" esm:processing="manual (Paolucci et al 2011)" esm:quality="good">
		<comp name="--.HNE" depth="0.0">
			<acc value="0.0150239868007512" flag="0"/>
			<vel value="0.0136928990867004" flag="0"/>
			<psa03 value="0.0493059116933355" flag="0"/>
			<psa10 value="0.0145045285415113" flag="0"/>
			<psa30 value="0.00225634947975944" flag="0"/>
		</comp>
		<comp name="--.HNN" depth="0.0">
			<acc value="0.0176134106957342" flag="0"/>
			<vel value="0.0142538590700351" flag="0"/>
			<psa03 value="0.0314090290460268" flag="0"/>
			<psa10 value="0.0197474203130404" flag="0"/>
			<psa30 value="0.00263576339188239" flag="0"/>
		</comp>
		<comp name="--.HNZ" depth="0.0">
			<acc value="0.0103044174342324" flag="0"/>
			<vel value="0.00908877720500903" flag="0"/>
			<psa03 value="0.0314090290460268" flag="0"/>
			<psa10 value="0.0132924621642224" flag="0"/>
			<psa30 value="0.00265858191725771" flag="0"/>
		</comp>
	</station>
	<station code="FLO2" name="FLO2" netid="HI" source="ITSAK Strong Motion Network" insttype="" lat="40.7801" lon="21.4052" esm:processing="automatic (Paolucci et al 2011)" esm:quality="best">
		<comp name="--.HNE" depth="0.0">
			<acc value="0.508946437617355" flag="0"/>
			<vel value="0.276206612173718" flag="0"/>
			<psa03 value="1.33454024007465" flag="0"/>
			<psa10 value="0.191291652133143" flag="0"/>
			<psa30 value="0.027090276264517" flag="0"/>
		</comp>
		<comp name="--.HNN" depth="0.0">
			<acc value="0.566595091045972" flag="0"/>
			<vel value="0.22885396752462" flag="0"/>
			<psa03 value="1.20230423008797" flag="0"/>
			<psa10 value="0.11612044240942" flag="0"/>
			<psa30 value="0.0180859031023195" flag="0"/>
		</comp>
		<comp name="--.HNZ" depth="0.0">
			<acc value="0.300779397391138" flag="0"/>
			<vel value="0.138811651205801" flag="0"/>
			<psa03 value="0.538999872762963" flag="0"/>
			<psa10 value="0.143099894665724" flag="0"/>
			<psa30 value="0.0188857877574189" flag="0"/>
		</comp>
	</station>
	<station code="FRS1" name="FRS1" netid="HI" source="ITSAK Strong Motion Network" insttype="" lat="39.2934" lon="22.3844" esm:processing="automatic (Paolucci et al 2011)" esm:quality="best">
		<comp name="--.HNE" depth="0.0">
			<acc value="0.0117032764701715" flag="0"/>
			<vel value="0.015585036108142" flag="0"/>
			<psa03 value="0.0264728552592389" flag="0"/>
			<psa10 value="0.029067719968791" flag="0"/>
			<psa30 value="0.00410930347118755" flag="0"/>
		</comp>
		<comp name="--.HNN" depth="0.0">
			<acc value="0.0121275346339691" flag="0"/>
			<vel value="0.0123291632848586" flag="0"/>
			<psa03 value="0.0329588265896747" flag="0"/>
			<psa10 value="0.0221962635185245" flag="0"/>
			<psa30 value="0.00294781194474089" flag="0"/>
		</comp>
		<comp name="--.HNZ" depth="0.0">
			<acc value="0.0104312093436326" flag="0"/>
			<vel value="0.0116573866312327" flag="0"/>
			<psa03 value="0.02178677399602" flag="0"/>
			<psa10 value="0.0224925350200574" flag="0"/>
			<psa30 value="0.00360246114537092" flag="0"/>
		</comp>
	</station>
	<station code="GRE3" name="GRE3" netid="HI" source="ITSAK Strong Motion Network" insttype="" lat="40.08481" lon="21.43829" esm:processing="automatic (Paolucci et al 2011)" esm:quality="best">
		<comp name="--.HNE" depth="0.0">
			<acc value="0.131741083469776" flag="0"/>
			<vel value="0.151351936397927" flag="0"/>
			<psa03 value="0.271365080771477" flag="0"/>
			<psa10 value="0.222417934096563" flag="0"/>
			<psa30 value="0.0344006088715083" flag="0"/>
		</comp>
		<comp name="--.HNN" depth="0.0">
			<acc value="0.10257004522743" flag="0"/>
			<vel value="0.135326686042699" flag="0"/>
			<psa03 value="0.336712534719592" flag="0"/>
			<psa10 value="0.171195960892223" flag="0"/>
			<psa30 value="0.0476873157172957" flag="0"/>
		</comp>
		<comp name="--.HNZ" depth="0.0">
			<acc value="0.0979586238020543" flag="0"/>
			<vel value="0.122619227406682" flag="0"/>
			<psa03 value="0.238021142732559" flag="0"/>
			<psa10 value="0.204084274581597" flag="0"/>
			<psa30 value="0.0291897470108169" flag="0"/>
		</comp>
	</station>
	<station code="IGM2" name="IGM2" netid="HI" source="ITSAK Strong Motion Network" insttype="" lat="39.486153" lon="20.259241" esm:processing="manual (Paolucci et al 2011)" esm:quality="good">
		<comp name="--.HNE" depth="0.0">
			<acc value="0.16217803635025" flag="0"/>
			<vel value="0.220756762064186" flag="0"/>
			<psa03 value="0.373328647857385" flag="0"/>
			<psa10 value="0.61679249947603" flag="0"/>
			<psa30 value="0.017395864057286" flag="0"/>
		</comp>
		<comp name="--.HNN" depth="0.0">
			<acc value="0.160535790242744" flag="0"/>
			<vel value="0.182558427177432" flag="0"/>
			<psa03 value="0.299137566395683" flag="0"/>
			<psa10 value="0.283347320369378" flag="0"/>
			<psa30 value="0.0100959404731747" flag="0"/>
		</comp>
		<comp name="--.HNZ" depth="0.0">
			<acc value="0.0754455230647184" flag="0"/>
			<vel value="0.0605763497179336" flag="0"/>
			<psa03 value="0.22425385571736" flag="0"/>
			<psa10 value="0.0436713692638858" flag="0"/>
			<psa30 value="0.00446300606891543" flag="0"/>
		</comp>
	</station>
	<station code="ITS1" name="ITS1" netid="HI" source="ITSAK Strong Motion Network" insttype="" lat="40.605" lon="23.0123" esm:processing="manual (Paolucci et al 2011)" esm:quality="good">
		<comp name="--.HNE" depth="0.0">
			<acc value="0.0195187743462747" flag="0"/>
			<vel value="0.0206676958060291" flag="0"/>
			<psa03 value="0.0657274582882046" flag="0"/>
			<psa10 value="0.0227417409037242" flag="0"/>
			<psa30 value="0.00735776491581563" flag="0"/>
		</comp>
		<comp name="--.HNN" depth="0.0">
			<acc value="0.018946309635199" flag="0"/>
			<vel value="0.0295807754974871" flag="0"/>
			<psa03 value="0.0686318329804407" flag="0"/>
			<psa10 value="0.043120165249325" flag="0"/>
			<psa30 value="0.0130501811771227" flag="0"/>
		</comp>
		<comp name="--.HNZ" depth="0.0">
			<acc value="0.0139553462382823" flag="0"/>
			<vel value="0.0228882251061764" flag="0"/>
			<psa03 value="0.0438738908049439" flag="0"/>
			<psa10 value="0.0138289107849707" flag="0"/>
			<psa30 value="0.00862674147928515" flag="0"/>
		</comp>
	</station>
	<station code="JAN2" name="JAN2" netid="HI" source="ITSAK Strong Motion Network" insttype="" lat="39.664" lon="20.85222" esm:processing="manual (Paolucci et al 2011)" esm:quality="good">
		<comp name="--.HNE" depth="0.0">
			<acc value="0.104791544774476" flag="0"/>
			<vel value="0.0612273431442789" flag="0"/>
			<psa03 value="0.542405390028435" flag="0"/>
			<psa10 value="0.114252878692489" flag="0"/>
			<psa30 value="0.00550516177328288" flag="0"/>
		</comp>
		<comp name="--.HNN" depth="0.0">
			<acc value="0.11255625598328" flag="0"/>
			<vel value="0.0690137489604205" flag="0"/>
			<psa03 value="0.407708342010063" flag="0"/>
			<psa10 value="0.0582085660318268" flag="0"/>
			<psa30 value="0.00439006081998402" flag="0"/>
		</comp>
		<comp name="--.HNZ" depth="0.0">
			<acc value="0.0491103714456997" flag="0"/>
			<vel value="0.0245943373159417" flag="0"/>
			<psa03 value="0.142880850571794" flag="0"/>
			<psa10 value="0.0419566844244304" flag="0"/>
			<psa30 value="0.00551317605418966" flag="0"/>
		</comp>
	</station>
	<station code="JAN3" name="JAN3" netid="HI" source="ITSAK Strong Motion Network" insttype="" lat="39.684" lon="20.8379" esm:processing="automatic (Paolucci et al 2011)" esm:quality="best">
		<comp name="--.HNE" depth="0.0">
			<acc value="0.149096144934538" flag="0"/>
			<vel value="0.102402431655772" flag="0"/>
			<psa03 value="0.493729540492292" flag="0"/>
			<psa10 value="0.114968898625296" flag="0"/>
			<psa30 value="0.0094172646809009" flag="0"/>
		</comp>
		<comp name="--.HNN" depth="0.0">
			<acc value="0.130935353100941" flag="0"/>
			<vel value="0.0659433225227157" flag="0"/>
			<psa03 value="0.416035351966939" flag="0"/>
			<psa10 value="0.0445002491731118" flag="0"/>
			<psa30 value="0.00674709154503518" flag="0"/>
		</comp>
		<comp name="--.HNZ" depth="0.0">
			<acc value="0.07649225605294" flag="0"/>
			<vel value="0.0404758336029983" flag="0"/>
			<psa03 value="0.153832555235147" flag="0"/>
			<psa10 value="0.0308562190730791" flag="0"/>
			<psa30 value="0.00867621892358968" flag="0"/>
		</comp>
	</station>
	<station code="KAR2" name="KAR2" netid="HI" source="ITSAK Strong Motion Network" insttype="" lat="39.365759" lon="21.91933" esm:processing="manual (Paolucci et al 2011)" esm:quality="good">
		<comp name="--.HNE" depth="0.0">
			<acc value="0.0583356571953499" flag="0"/>
			<vel value="0.094034194054575" flag="0"/>
			<psa03 value="0.158087389180347" flag="0"/>
			<psa10 value="0.205867322699784" flag="0"/>
			<psa30 value="0.0414768576382607" flag="0"/>
		</comp>
		<comp name="--.HNN" depth="0.0">
			<acc value="0.0876651123093415" flag="0"/>
			<vel value="0.108054266542107" flag="0"/>
			<psa03 value="0.190960879387739" flag="0"/>
			<psa10 value="0.278995592088736" flag="0"/>
			<psa30 value="0.0448140987141036" flag="0"/>
		</comp>
		<comp name="--.HNZ" depth="0.0">
			<acc value="0.0307555849289137" flag="0"/>
			<vel value="0.0510539991881963" flag="0"/>
			<psa03 value="0.0691897136872996" flag="0"/>
			<psa10 value="0.0746325840424151" flag="0"/>
			<psa30 value="0.0117360507891006" flag="0"/>
		</comp>
	</station>
	<station code="KAS2" name="KAS2" netid="HI" source="ITSAK Strong Motion Network" insttype="" lat="40.504878" lon="21.280507" esm:processing="automatic (Paolucci et al 2011)" esm:quality="best">
		<comp name="--.HNE" depth="0.0">
			<acc value="0.180309398411818" flag="0"/>
			<vel value="0.180919751227749" flag="0"/>
			<psa03 value="0.764178539744531" flag="0"/>
			<psa10 value="0.189432743989602" flag="0"/>
			<psa30 value="0.0628671446397964" flag="0"/>
		</comp>
		<comp name="--.HNN" depth="0.0">
			<acc value="0.188833074031971" flag="0"/>
			<vel value="0.159808914697282" flag="0"/>
			<psa03 value="0.718549933739983" flag="0"/>
			<psa10 value="0.157780422178623" flag="0"/>
			<psa30 value="0.0739964085655786" flag="0"/>
		</comp>
		<comp name="--.HNZ" depth="0.0">
			<acc value="0.143948916053651" flag="0"/>
			<vel value="0.148351333910535" flag="0"/>
			<psa03 value="0.365293657245358" flag="0"/>
			<psa10 value="0.232245925152737" flag="0"/>
			<psa30 value="0.041208743210329" flag="0"/>
		</comp>
	</station>
	<station code="KLV1" name="KLV1" netid="HI" source="ITSAK Strong Motion Network" insttype="" lat="38.03256" lon="22.10797" esm:processing="manual (Paolucci et al 2011)" esm:quality="good">
		<comp name="--.HNE" depth="0.0">
			<acc value="0.0110367968472685" flag="0"/>
			<vel value="0.0163284392726913" flag="0"/>
			<psa03 value="0.0193690747728213" flag="0"/>
			<psa10 value="0.022302367422383" flag="0"/>
			<psa30 value="0.00333415587146259" flag="0"/>
		</comp>
		<comp name="--.HNN" depth="0.0">
			<acc value="0.0109827293067455" flag="0"/>
			<vel value="0.0111914583192613" flag="0"/>
			<psa03 value="0.0226169461783539" flag="0"/>
			<psa10 value="0.0267451779867695" flag="0"/>
			<psa30 value="0.0033713760454493" flag="0"/>
		</comp>
		<comp name="--.HNZ" depth="0.0">
			<acc value="0.00642481036943595" flag="0"/>
			<vel value="0.00969914248810915" flag="0"/>
			<psa03 value="0.010096252811583" flag="0"/>
			<psa10 value="0.0203732902554778" flag="0"/>
			<psa30 value="0.00275499354646833" flag="0"/>
		</comp>
	</station>
	<station code="KNS1" name="KNS1" netid="HI" source="ITSAK Strong Motion Network" insttype="" lat="40.048" lon="20.7524" esm:processing="manual (Paolucci et al 2011)" esm:quality="good">
		<comp name="--.HNE" depth="0.0">
			<acc value="0.300440532665456" flag="0"/>
			<vel value="0.187403805065942" flag="0"/>
			<psa03 value="0.677145607573243" flag="0"/>
			<psa10 value="0.18800932969539" flag="0"/>
			<psa30 value="0.03265678668518" flag="0"/>
		</comp>
		<comp name="--.HNN" depth="0.0">
			<acc value="0.247757497919495" flag="0"/>
			<vel value="0.143215816940508" flag="0"/>
			<psa03 value="0.632187170964129" flag="0"/>
			<psa10 value="0.146099193354542" flag="0"/>
			<psa30 value="0.0195481533025523" flag="0"/>
		</comp>
		<comp name="--.HNZ" depth="0.0">
			<acc value="0.170652682993804" flag="0"/>
			<vel value="0.0816544122249054" flag="0"/>
			<psa03 value="0.631287986397565" flag="0"/>
			<psa10 value="0.0977197284524264" flag="0"/>
			<psa30 value="0.0178059645577648" flag="0"/>
		</comp>
	</station>
	<station code="KOZ2" name="KOZ2" netid="HI" source="ITSAK Strong Motion Network" insttype="" lat="40.295728" lon="21.788123" esm:processing="automatic (Paolucci et al 2011)" esm:quality="best">
		<comp name="--.HNE" depth="0.0">
			<acc value="0.213999346560883" flag="0"/>
			<vel value="0.100282342517221" flag="0"/>
			<psa03 value="0.595175344112245" flag="0"/>
			<psa10 value="0.0798662432466519" flag="0"/>
			<psa30 value="0.0212473325315037" flag="0"/>
		</comp>
		<comp name="--.HNN" depth="0.0">
			<acc value="0.187761308073886" flag="0"/>
			<vel value="0.0968260717923646" flag="0"/>
			<psa03 value="0.464767038535345" flag="0"/>
			<psa10 value="0.0657635390117088" flag="0"/>
			<psa30 value="0.0119493040827513" flag="0"/>
		</comp>
		<comp name="--.HNZ" depth="0.0">
			<acc value="0.154766152872333" flag="0"/>
			<vel value="0.048184558824977" flag="0"/>
			<psa03 value="0.263063176644406" flag="0"/>
			<psa10 value="0.0485875849390467" flag="0"/>
			<psa30 value="0.0135988450234098" flag="0"/>
		</comp>
	</station>
	<station code="KRK1" name="KRK1" netid="HI" source="ITSAK Strong Motion Network" insttype="" lat="39.618861" lon="19.9202" esm:processing="manual (Paolucci et al 2011)" esm:quality="best">
		<comp name="--.HNE" depth="0.0">
			<acc value="0.0841658649071814" flag="0"/>
			<vel value="0.0496408271127098" flag="0"/>
			<psa03 value="0.265544996279443" flag="0"/>
			<psa10 value="0.0404210043030791" flag="0"/>
			<psa30 value="0.00683437206094101" flag="0"/>
		</comp>
		<comp name="--.HNN" depth="0.0">
			<acc value="0.07836441272821" flag="0"/>
			<vel value="0.0364727192037793" flag="0"/>
			<psa03 value="0.222368766892811" flag="0"/>
			<psa10 value="0.0467390512996452" flag="0"/>
			<psa30 value="0.00476325531658121" flag="0"/>
		</comp>
		<comp name="--.HNZ" depth="0.0">
			<acc value="0.0338210478361578" flag="0"/>
			<vel value="0.0213845925999918" flag="0"/>
			<psa03 value="0.143219803385088" flag="0"/>
			<psa10 value="0.0186923990809816" flag="0"/>
			<psa30 value="0.00339861801472392" flag="0"/>
		</comp>
	</station>
	<station code="LAR4" name="LAR4" netid="HI" source="ITSAK Strong Motion Network" insttype="" lat="39.6422" lon="22.4219" esm:processing="manual (Paolucci et al 2011)" esm:quality="good">
		<comp name="--.HNE" depth="0.0">
			<acc value="0.0589524061489799" flag="0"/>
			<vel value="0.123814552271251" flag="0"/>
			<psa03 value="0.136434183928434" flag="0"/>
			<psa10 value="0.146263109213163" flag="0"/>
			<psa30 value="0.0597395974551446" flag="0"/>
		</comp>
		<comp name="--.HNN" depth="0.0">
			<acc value="0.0693596919125838" flag="0"/>
			<vel value="0.106645285489916" flag="0"/>
			<psa03 value="0.154132648031488" flag="0"/>
			<psa10 value="0.150492894415674" flag="0"/>
			<psa30 value="0.049845121994705" flag="0"/>
		</comp>
		<comp name="--.HNZ" depth="0.0">
			<acc value="0.030836870809742" flag="0"/>
			<vel value="0.059962772636666" flag="0"/>
			<psa03 value="0.0489549878193511" flag="0"/>
			<psa10 value="0.0789830297380915" flag="0"/>
			<psa30 value="0.0200991964731246" flag="0"/>
		</comp>
	</station>
	<station code="LEF2" name="LEF2" netid="HI" source="ITSAK Strong Motion Network" insttype="" lat="38.830093" lon="20.708346" esm:processing="manual (Paolucci et al 2011)" esm:quality="good">
		<comp name="--.HNE" depth="0.0">
			<acc value="0.0826480696334445" flag="0"/>
			<vel value="0.0832704718875204" flag="0"/>
			<psa03 value="0.169522532119113" flag="0"/>
			<psa10 value="0.127813657027501" flag="0"/>
			<psa30 value="0.0179068712423374" flag="0"/>
		</comp>
		<comp name="--.HNN" depth="0.0">
			<acc value="0.0675010268021525" flag="0"/>
			<vel value="0.0901982316215915" flag="0"/>
			<psa03 value="0.113723346113555" flag="0"/>
			<psa10 value="0.182791969070854" flag="0"/>
			<psa30 value="0.0237181745459942" flag="0"/>
		</comp>
		<comp name="--.HNZ" depth="0.0">
			<acc value="0.0531665398418713" flag="0"/>
			<vel value="0.0641696113636788" flag="0"/>
			<psa03 value="0.0896000293122078" flag="0"/>
			<psa10 value="0.139608428373217" flag="0"/>
			<psa30 value="0.00809523710306204" flag="0"/>
		</comp>
	</station>
	<station code="PRE2" name="PRE2" netid="HI" source="ITSAK Strong Motion Network" insttype="" lat="38.9577" lon="20.7548" esm:processing="manual (Paolucci et al 2011)" esm:quality="good">
		<comp name="--.HNE" depth="0.0">
			<acc value="0.0687409298055469" flag="0"/>
			<vel value="0.0992470771001303" flag="0"/>
			<psa03 value="0.178006458720947" flag="0"/>
			<psa10 value="0.179075292859296" flag="0"/>
			<psa30 value="0.0196996900077819" flag="0"/>
		</comp>
		<comp name="--.HNN" depth="0.0">
			<acc value="0.0640411398175755" flag="0"/>
			<vel value="0.0733046044064899" flag="0"/>
			<psa03 value="0.18736089090617" flag="0"/>
			<psa10 value="0.108973278944917" flag="0"/>
			<psa30 value="0.0250226259594985" flag="0"/>
		</comp>
		<comp name="--.HNZ" depth="0.0">
			<acc value="0.0329795451658041" flag="0"/>
			<vel value="0.0359454792444152" flag="0"/>
			<psa03 value="0.0943709286942108" flag="0"/>
			<psa10 value="0.0468536238226326" flag="0"/>
			<psa30 value="0.00532529860823092" flag="0"/>
		</comp>
	</station>
	<station code="PTO1" name="PTO1" netid="HI" source="ITSAK Strong Motion Network" insttype="" lat="40.510132" lon="21.681568" esm:processing="manual (Paolucci et al 2011)" esm:quality="good">
		<comp name="--.HNE" depth="0.0">
			<acc value="0.190909940572834" flag="0"/>
			<vel value="0.243931127877542" flag="0"/>
			<psa03 value="0.53072457456507" flag="0"/>
			<psa10 value="0.38302763370093" flag="0"/>
			<psa30 value="0.0646829182592207" flag="0"/>
		</comp>
		<comp name="--.HNN" depth="0.0">
			<acc value="0.238638711129446" flag="0"/>
			<vel value="0.246761644657181" flag="0"/>
			<psa03 value="0.631385242840327" flag="0"/>
			<psa10 value="0.568587826152998" flag="0"/>
			<psa30 value="0.0683913972610876" flag="0"/>
		</comp>
		<comp name="--.HNZ" depth="0.0">
			<acc value="0.106375554604082" flag="0"/>
			<vel value="0.107967274875539" flag="0"/>
			<psa03 value="0.268734448171644" flag="0"/>
			<psa10 value="0.17888125500524" flag="0"/>
			<psa30 value="0.0228731152316287" flag="0"/>
		</comp>
	</station>
	<station code="SIA1" name="SIA1" netid="HI" source="ITSAK Strong Motion Network" insttype="" lat="40.257308" lon="21.553432" esm:processing="automatic (Paolucci et al 2011)" esm:quality="best">
		<comp name="--.HNE" depth="0.0">
			<acc value="0.153037202897003" flag="0"/>
			<vel value="0.111775963349045" flag="0"/>
			<psa03 value="0.562817200544039" flag="0"/>
			<psa10 value="0.0901813165696358" flag="0"/>
			<psa30 value="0.0214992192177605" flag="0"/>
		</comp>
		<comp name="--.HNN" depth="0.0">
			<acc value="0.162535876297721" flag="0"/>
			<vel value="0.0930197602909551" flag="0"/>
			<psa03 value="0.53823169687508" flag="0"/>
			<psa10 value="0.0921715134104091" flag="0"/>
			<psa30 value="0.0193739734306572" flag="0"/>
		</comp>
		<comp name="--.HNZ" depth="0.0">
			<acc value="0.104554592267491" flag="0"/>
			<vel value="0.0660682101322625" flag="0"/>
			<psa03 value="0.300639020026284" flag="0"/>
			<psa10 value="0.0687397286696673" flag="0"/>
			<psa30 value="0.0218034577054005" flag="0"/>
		</comp>
	</station>
