<?xml version="1.0" encoding="UTF-8" standalone="yes"?>
<!DOCTYPE earthquake SYSTEM "stationlist.dtd">
<stationlist created="" xmlns="ch.ethz.sed.shakemap.usgs.xml">
  <station code="DYBB" name="DYBB" netid="KO" insttype="CMG-3T" lat="37.9532" lon="40.1393">
    <comp name="--.HHN">
      <acc value="0.0213615246" flag="0"/>
      <vel value="0.0099119708" flag="0"/>
      <psa03 value="0.0475135067" flag="0"/>
      <psa10 value="0.0084695385" flag="0"/>
      <psa30 value="0.0009531405" flag="0"/>
    </comp>
    <comp name="--.HHZ">
      <acc value="0.0258965093" flag="0"/>
      <vel value="0.0042447525" flag="0"/>
      <psa03 value="0.0162975635" flag="0"/>
      <psa10 value="0.0095063453" flag="0"/>
      <psa30 value="0.0007538335" flag="0"/>
    </comp>
    <comp name="--.HHE">
      <acc value="0.0191566455" flag="0"/>
      <vel value="0.0107817633" flag="0"/>
      <psa03 value="0.0190134720" flag="0"/>
      <psa10 value="0.0160105792" flag="0"/>
      <psa30 value="0.0028231469" flag="0"/>
    </comp>
  </station>
  <station code="KARO" name="KARO" netid="KO" insttype="CMG-3T" lat="39.3089" lon="41.0493">
    <comp name="--.HHE">
      <acc value="0.0052284538" flag="0"/>
      <vel value="0.0042640315" flag="0"/>
      <psa03 value="0.0272659706" flag="0"/>
      <psa10 value="0.0064881644" flag="0"/>
      <psa30 value="0.0006227522" flag="0"/>
    </comp>
    <comp name="--.HHN">
      <acc value="0.0000318905" flag="0"/>
      <vel value="0.0000032720" flag="0"/>
      <psa03 value="0.0000094760" flag="0"/>
      <psa10 value="0.0000031476" flag="0"/>
      <psa30 value="0.0000004759" flag="0"/>
    </comp>
    <comp name="--.HHZ">
      <acc value="0.0037748761" flag="0"/>
      <vel value="0.0020802312" flag="0"/>
      <psa03 value="0.0142195712" flag="0"/>
      <psa10 value="0.0026611250" flag="0"/>
      <psa30 value="0.0003583152" flag="0"/>
    </comp>
  </station>
  <station code="SVAN" name="SVAN" netid="KO" insttype="CMG-3T" lat="38.1511" lon="41.1984">
    <comp name="--.HHN">
      <acc value="0.0124786017" flag="0"/>
      <vel value="0.0040357279" flag="0"/>
      <psa03 value="0.0190016901" flag="0"/>
      <psa10 value="0.0021185644" flag="0"/>
      <psa30 value="0.0005594133" flag="0"/>
    </comp>
    <comp name="--.HHE">
      <acc value="0.0111463621" flag="0"/>
      <vel value="0.0031576361" flag="0"/>
      <psa03 value="0.0181807509" flag="0"/>
      <psa10 value="0.0019624588" flag="0"/>
      <psa30 value="0.0004682508" flag="0"/>
    </comp>
    <comp name="--.HHZ">
      <acc value="0.0107597668" flag="0"/>
      <vel value="0.0025215766" flag="0"/>
      <psa03 value="0.0140723473" flag="0"/>
      <psa10 value="0.0032565500" flag="0"/>
      <psa30 value="0.0004470862" flag="0"/>
    </comp>
  </station>
  <station code="SVRC" name="SVRC" netid="KO" insttype="CMG-3T" lat="38.3775" lon="39.306">
    <comp name="--.HHE">
      <acc value="0.0227249932" flag="0"/>
      <vel value="0.0110930001" flag="0"/>
      <psa03 value="0.0522780055" flag="0"/>
      <psa10 value="0.0049443495" flag="0"/>
      <psa30 value="0.0003590667" flag="0"/>
    </comp>
    <comp name="--.HHN">
      <acc value="0.0226147643" flag="0"/>
      <vel value="0.0090118909" flag="0"/>
      <psa03 value="0.0679693022" flag="0"/>
      <psa10 value="0.0036085594" flag="0"/>
      <psa30 value="0.0003039531" flag="0"/>
    </comp>
    <comp name="--.HHZ">
      <acc value="0.0175196488" flag="0"/>
      <vel value="0.0057049338" flag="0"/>
      <psa03 value="0.0395565996" flag="0"/>
      <psa10 value="0.0019420586" flag="0"/>
      <psa30 value="0.0002333803" flag="0"/>
    </comp>
  </station>
  <station code="VRTB" name="VRTB" netid="KO" insttype="CMG-3ESPC" lat="39.1603" lon="41.4558">
    <comp name="--.HHZ">
      <acc value="0.0030001621" flag="0"/>
      <vel value="0.0043017526" flag="0"/>
      <psa03 value="0.0087315278" flag="0"/>
      <psa10 value="0.0074637637" flag="0"/>
      <psa30 value="0.0010380165" flag="0"/>
    </comp>
    <comp name="--.HHE">
      <acc value="0.0012021403" flag="0"/>
      <vel value="0.0018904505" flag="0"/>
      <psa03 value="0.0032357620" flag="0"/>
      <psa10 value="0.0020776094" flag="0"/>
      <psa30 value="0.0004436890" flag="0"/>
    </comp>
    <comp name="--.HHN">
      <acc value="0.0029006025" flag="0"/>
      <vel value="0.0031604486" flag="0"/>
      <psa03 value="0.0114850512" flag="0"/>
      <psa10 value="0.0061647870" flag="0"/>
      <psa30 value="0.0013817961" flag="0"/>
    </comp>
  </station>
</stationlist>
