<?xml version="1.0" encoding="UTF-8" standalone="yes"?>
<!DOCTYPE earthquake SYSTEM "stationlist.dtd">
<stationlist created="" xmlns="ch.ethz.sed.shakemap.usgs.xml">
  <station code="EMUR" name="EMUR" netid="ES" insttype="XXXX" lat="37.8422" lon="-1.2405">
    <comp name="--.HHE">
      <acc value="0.0116590183" flag="0"/>
      <vel value="0.0063395279" flag="0"/>
      <psa03 value="0.0370140236" flag="0"/>
      <psa10 value="0.0039368945" flag="0"/>
      <psa30 value="0.0002662235" flag="0"/>
    </comp>
    <comp name="--.HHZ">
      <acc value="0.0084832584" flag="0"/>
      <vel value="0.0042208945" flag="0"/>
      <psa03 value="0.0299893460" flag="0"/>
      <psa10 value="0.0020955513" flag="0"/>
      <psa30 value="0.0002049351" flag="0"/>
    </comp>
    <comp name="--.HHN">
      <acc value="0.0109030070" flag="0"/>
      <vel value="0.0073240175" flag="0"/>
      <psa03 value="0.0402979720" flag="0"/>
      <psa10 value="0.0030350888" flag="0"/>
      <psa30 value="0.0004067664" flag="0"/>
    </comp>
  </station>
  <station code="CART" name="CART" netid="WM" insttype="FBA-EST/10.0" lat="37.5868" lon="-1.0012">
    <comp name="--.HLZ">
      <acc value="0.0059756596" flag="0"/>
      <vel value="0.0026220613" flag="0"/>
      <psa03 value="0.0125574715" flag="0"/>
      <psa10 value="0.0021356708" flag="0"/>
      <psa30 value="0.0001838201" flag="0"/>
    </comp>
    <comp name="--.HLE">
      <acc value="0.0077062749" flag="0"/>
      <vel value="0.0040990248" flag="0"/>
      <psa03 value="0.0164631915" flag="0"/>
      <psa10 value="0.0029212199" flag="0"/>
      <psa30 value="0.0002135552" flag="0"/>
    </comp>
    <comp name="--.HLN">
      <acc value="0.0080333155" flag="0"/>
      <vel value="0.0041169886" flag="0"/>
      <psa03 value="0.0269636116" flag="0"/>
      <psa10 value="0.0028492796" flag="0"/>
      <psa30 value="0.0004524697" flag="0"/>
    </comp>
  </station>
</stationlist>
