<stationlist created="1778069701">
	<station code="KARP" name="KARP" netid="GE" source="GEOFON" insttype="" lat="35.5471" lon="27.16106">
		<comp name="--.HNE" depth="0.0">
			<acc value="0.182116405457817" flag="0"/>
			<vel value="0.0499553309492696" flag="0"/>
			<psa03 value="0.291674444944514" flag="0"/>
			<psa10 value="0.0343808064096124" flag="0"/>
			<psa30 value="0.00189393760615144" flag="0"/>
		</comp>
		<comp name="--.HNN" depth="0.0">
			<acc value="0.157284129040004" flag="0"/>
			<vel value="0.0541056449135132" flag="0"/>
			<psa03 value="0.247961309078462" flag="0"/>
			<psa10 value="0.014508555340107" flag="0"/>
			<psa30 value="0.0011650870603398" flag="0"/>
		</comp>
		<comp name="--.HNZ" depth="0.0">
			<acc value="0.100445240855769" flag="0"/>
			<vel value="0.0332115556231004" flag="0"/>
			<psa03 value="0.174584090224496" flag="0"/>
			<psa10 value="0.0162481323334254" flag="0"/>
			<psa30 value="0.00107202327057379" flag="0"/>
		</comp>
	</station>
	<station code="KRL1" name="KRL1" netid="HI" source="ITSAK Strong Motion Network" insttype="" lat="37.7951" lon="26.7065">
		<comp name="--.HNE" depth="0.0">
			<acc value="0.0958821202972116" flag="0"/>
			<vel value="0.038667665683653" flag="0"/>
			<psa03 value="0.25292769401309" flag="0"/>
			<psa10 value="0.036015686639444" flag="0"/>
			<psa30 value="0.00205232501758013" flag="0"/>
		</comp>
		<comp name="--.HNN" depth="0.0">
			<acc value="0.0452732505836043" flag="0"/>
			<vel value="0.0241280882914189" flag="0"/>
			<psa03 value="0.168767603364121" flag="0"/>
			<psa10 value="0.0292305310057831" flag="0"/>
			<psa30 value="0.00236283593151093" flag="0"/>
		</comp>
		<comp name="--.HNZ" depth="0.0">
			<acc value="0.0323141538456952" flag="0"/>
			<vel value="0.0212201357976448" flag="0"/>
			<psa03 value="0.112571391851572" flag="0"/>
			<psa10 value="0.0189944089756549" flag="0"/>
			<psa30 value="0.00140893208640938" flag="0"/>
		</comp>
	</station>
	<station code="KSS1" name="KSS1" netid="HI" source="ITSAK Strong Motion Network" insttype="" lat="35.4189" lon="26.9207">
		<comp name="--.HNE" depth="0.0">
			<acc value="0.0365892724604064" flag="0"/>
			<vel value="0.015524862210336" flag="0"/>
			<psa03 value="0.119909113736968" flag="0"/>
			<psa10 value="0.0042482725184049" flag="0"/>
			<psa30 value="0.000521694129169049" flag="0"/>
		</comp>
		<comp name="--.HNN" depth="0.0">
			<acc value="0.0344663115132786" flag="0"/>
			<vel value="0.0140636391351658" flag="0"/>
			<psa03 value="0.122280450687737" flag="0"/>
			<psa10 value="0.00386975345041432" flag="0"/>
			<psa30 value="0.000377624223858214" flag="0"/>
		</comp>
		<comp name="--.HNZ" depth="0.0">
			<acc value="0.0249252510009098" flag="0"/>
			<vel value="0.00608592933929019" flag="0"/>
			<psa03 value="0.0300667628474786" flag="0"/>
			<psa10 value="0.00302009894673334" flag="0"/>
			<psa30 value="0.0004116283008881" flag="0"/>
		</comp>
	</station>
	<station code="RDI1" name="RDI1" netid="HI" source="ITSAK Strong Motion Network" insttype="" lat="36.4514" lon="28.224">
		<comp name="--.HNE" depth="0.0">
			<acc value="1.18849562122759" flag="0"/>
			<vel value="0.664313415964009" flag="0"/>
			<psa03 value="3.53248669692579" flag="0"/>
			<psa10 value="0.270564624439947" flag="0"/>
			<psa30 value="0.0188454174276161" flag="0"/>
		</comp>
		<comp name="--.HNN" depth="0.0">
			<acc value="1.72681916324443" flag="0"/>
			<vel value="0.812815756762625" flag="0"/>
			<psa03 value="5.17577846160168" flag="0"/>
			<psa10 value="0.452998734815619" flag="0"/>
			<psa30 value="0.0433717528295541" flag="0"/>
		</comp>
		<comp name="--.HNZ" depth="0.0">
			<acc value="0.537834470427732" flag="0"/>
			<vel value="0.242664708851352" flag="0"/>
			<psa03 value="2.17008650539942" flag="0"/>
			<psa10 value="0.0878969597457272" flag="0"/>
			<psa30 value="0.009542617827545" flag="0"/>
		</comp>
	</station>
	<station code="KARP" name="KARP" netid="HL" source="National Observatory of Athens Seismic Network" insttype="" lat="35.5471" lon="27.16106">
		<comp name="--.HNE" depth="0.0">
			<acc value="0.178418977098064" flag="0"/>
			<vel value="0.0489411083283238" flag="0"/>
			<psa03 value="0.285768473670902" flag="0"/>
			<psa10 value="0.0336841702525659" flag="0"/>
			<psa30 value="0.00185545930845973" flag="0"/>
		</comp>
		<comp name="--.HNN" depth="0.0">
			<acc value="0.154090780881642" flag="0"/>
			<vel value="0.0530071685072672" flag="0"/>
			<psa03 value="0.242950181937216" flag="0"/>
			<psa10 value="0.0142145990426249" flag="0"/>
			<psa30 value="0.00114137369083211" flag="0"/>
		</comp>
		<comp name="--.HNZ" depth="0.0">
			<acc value="0.0984059035369529" flag="0"/>
			<vel value="0.0325372348969765" flag="0"/>
			<psa03 value="0.171049455901653" flag="0"/>
			<psa10 value="0.0159219616471782" flag="0"/>
			<psa30 value="0.00105009958933084" flag="0"/>
		</comp>
	</station>
	<station code="KLNA" name="KLNA" netid="HL" source="National Observatory of Athens Seismic Network" insttype="" lat="36.95708" lon="26.97274">
		<comp name="00.HNE" depth="0.0">
			<acc value="0.161007717658323" flag="0"/>
			<vel value="0.0717904190567024" flag="0"/>
			<psa03 value="0.581603943830915" flag="0"/>
			<psa10 value="0.0243903190938185" flag="0"/>
			<psa30 value="0.00202234773914588" flag="0"/>
		</comp>
		<comp name="00.HNN" depth="0.0">
			<acc value="0.159455806429771" flag="0"/>
			<vel value="0.0754514614010477" flag="0"/>
			<psa03 value="0.629701815945557" flag="0"/>
			<psa10 value="0.0259366097545459" flag="0"/>
			<psa30 value="0.00211585895097807" flag="0"/>
		</comp>
		<comp name="00.HNZ" depth="0.0">
			<acc value="0.214002034889793" flag="0"/>
			<vel value="0.057123471067565" flag="0"/>
			<psa03 value="0.359100950318249" flag="0"/>
			<psa10 value="0.0105945071051406" flag="0"/>
			<psa30 value="0.00101967488883041" flag="0"/>
		</comp>
	</station>
	<station code="RODB" name="RODB" netid="HL" source="National Observatory of Athens Seismic Network" insttype="" lat="36.4471" lon="28.22116">
		<comp name="00.HNE" depth="0.0">
			<acc value="1.68356174587509" flag="0"/>
			<vel value="0.726088580797404" flag="0"/>
			<psa03 value="5.90060220881768" flag="0"/>
			<psa10 value="0.314915784172375" flag="0"/>
			<psa30 value="0.0381812094397684" flag="0"/>
		</comp>
		<comp name="00.HNN" depth="0.0">
			<acc value="1.05372349926211" flag="0"/>
			<vel value="0.46608020242708" flag="0"/>
			<psa03 value="3.57324684715504" flag="0"/>
			<psa10 value="0.310421876939636" flag="0"/>
			<psa30 value="0.0268663528080736" flag="0"/>
		</comp>
		<comp name="00.HNZ" depth="0.0">
			<acc value="0.596230593259715" flag="0"/>
			<vel value="0.225705281172448" flag="0"/>
			<psa03 value="1.64660268796564" flag="0"/>
			<psa10 value="0.130713909213215" flag="0"/>
			<psa30 value="0.00831265456760871" flag="0"/>
		</comp>
	</station>
	<station code="BASM" name="BASM" netid="KO" source="Bogazici University Kandilli Observatory And Earthquake Research Institute (KOERI)" insttype="" lat="37.9194" lon="30.035">
		<comp name="--.HNE" depth="0.0">
			<acc value="0.0436107515091039" flag="0"/>
			<vel value="0.0213027733100158" flag="0"/>
			<psa03 value="0.0799095810202334" flag="0"/>
			<psa10 value="0.0355042832177972" flag="0"/>
			<psa30 value="0.0041498396638447" flag="0"/>
		</comp>
		<comp name="--.HNN" depth="0.0">
			<acc value="0.044262947036016" flag="0"/>
			<vel value="0.0214247384509505" flag="0"/>
			<psa03 value="0.0995514097256547" flag="0"/>
			<psa10 value="0.043388754868069" flag="0"/>
			<psa30 value="0.00335969229496603" flag="0"/>
		</comp>
		<comp name="--.HNZ" depth="0.0">
			<acc value="0.0307820157398337" flag="0"/>
			<vel value="0.0149858399388612" flag="0"/>
			<psa03 value="0.0612073386537958" flag="0"/>
			<psa10 value="0.0157689433005437" flag="0"/>
			<psa30 value="0.0015480803489922" flag="0"/>
		</comp>
	</station>
	<station code="CAME" name="CAME" netid="KO" source="Bogazici University Kandilli Observatory And Earthquake Research Institute (KOERI)" insttype="" lat="36.9435" lon="29.3023">
		<comp name="--.HNE" depth="0.0">
			<acc value="0.337544422229186" flag="0"/>
			<vel value="0.157468590318231" flag="0"/>
			<psa03 value="0.855247279508265" flag="0"/>
			<psa10 value="0.125390481469773" flag="0"/>
			<psa30 value="0.0126011950719701" flag="0"/>
		</comp>
		<comp name="--.HNN" depth="0.0">
			<acc value="0.295516215633529" flag="0"/>
			<vel value="0.134792005774491" flag="0"/>
			<psa03 value="0.996901105661713" flag="0"/>
			<psa10 value="0.0873936099212717" flag="0"/>
			<psa30 value="0.00722183957025524" flag="0"/>
		</comp>
		<comp name="--.HNZ" depth="0.0">
			<acc value="0.184222478992968" flag="0"/>
			<vel value="0.0533491658166505" flag="0"/>
			<psa03 value="0.379861334189127" flag="0"/>
			<psa10 value="0.0567496726084173" flag="0"/>
			<psa30 value="0.00952516836696387" flag="0"/>
		</comp>
	</station>
	<station code="FETI" name="FETI" netid="KO" source="Bogazici University Kandilli Observatory And Earthquake Research Institute (KOERI)" insttype="" lat="36.6903" lon="29.096">
		<comp name="--.HNE" depth="0.0">
			<acc value="1.037827687124" flag="0"/>
			<vel value="0.475710279415188" flag="0"/>
			<psa03 value="0.881331985966717" flag="0"/>
			<psa10 value="0.456292656066856" flag="0"/>
			<psa30 value="0.0359521527060461" flag="0"/>
		</comp>
		<comp name="--.HNN" depth="0.0">
			<acc value="0.814382642751583" flag="0"/>
			<vel value="0.309948996608739" flag="0"/>
			<psa03 value="0.946476638802921" flag="0"/>
			<psa10 value="0.22600004438195" flag="0"/>
			<psa30 value="0.0172857041049031" flag="0"/>
		</comp>
		<comp name="--.HNZ" depth="0.0">
			<acc value="0.47089114968325" flag="0"/>
			<vel value="0.215649330448822" flag="0"/>
			<psa03 value="1.0825824313357" flag="0"/>
			<psa10 value="0.168751048747672" flag="0"/>
			<psa30 value="0.0142745535994934" flag="0"/>
		</comp>
	</station>
	<station code="GMLD" name="GMLD" netid="KO" source="Bogazici University Kandilli Observatory And Earthquake Research Institute (KOERI)" insttype="" lat="38.0766" lon="26.9157">
		<comp name="--.HNE" depth="0.0">
			<acc value="0.985719729929106" flag="0"/>
			<vel value="0.554831284039794" flag="0"/>
			<psa03 value="2.50350542911878" flag="0"/>
			<psa10 value="0.366503100981176" flag="0"/>
			<psa30 value="0.0260457807386945" flag="0"/>
		</comp>
		<comp name="--.HNN" depth="0.0">
			<acc value="0.952007676960427" flag="0"/>
			<vel value="0.640359655090302" flag="0"/>
			<psa03 value="2.25706535506534" flag="0"/>
			<psa10 value="0.260574137124153" flag="0"/>
			<psa30 value="0.0195952968105383" flag="0"/>
		</comp>
		<comp name="--.HNZ" depth="0.0">
			<acc value="0.348168061552737" flag="0"/>
			<vel value="0.148841411208672" flag="0"/>
			<psa03 value="1.30772521503885" flag="0"/>
			<psa10 value="0.0520181842585351" flag="0"/>
			<psa30 value="0.0049525148505765" flag="0"/>
		</comp>
	</station>
	<station code="NAZL" name="NAZL" netid="KO" source="Bogazici University Kandilli Observatory And Earthquake Research Institute (KOERI)" insttype="" lat="37.9641" lon="28.2922">
		<comp name="--.HNE" depth="0.0">
			<acc value="0.122503002434394" flag="0"/>
			<vel value="0.0710856974045175" flag="0"/>
			<psa03 value="0.459994626242452" flag="0"/>
			<psa10 value="0.0632610059375744" flag="0"/>
			<psa30 value="0.00577532403028652" flag="0"/>
		</comp>
		<comp name="--.HNN" depth="0.0">
			<acc value="0.198907792149195" flag="0"/>
			<vel value="0.0900494291128174" flag="0"/>
			<psa03 value="0.588986407922929" flag="0"/>
			<psa10 value="0.0964820943516412" flag="0"/>
			<psa30 value="0.00560396137893854" flag="0"/>
		</comp>
		<comp name="--.HNZ" depth="0.0">
			<acc value="0.0874266321155477" flag="0"/>
			<vel value="0.0408157971419751" flag="0"/>
			<psa03 value="0.227335151827439" flag="0"/>
			<psa10 value="0.0257674842135289" flag="0"/>
			<psa30 value="0.00388362353446599" flag="0"/>
		</comp>
	</station>
	<station code="ODEM" name="ODEM" netid="KO" source="Bogazici University Kandilli Observatory And Earthquake Research Institute (KOERI)" insttype="" lat="38.2762" lon="28.0747">
		<comp name="--.HNE" depth="0.0">
			<acc value="0.0364370928635462" flag="0"/>
			<vel value="0.0215550123181768" flag="0"/>
			<psa03 value="0.0974932682212142" flag="0"/>
			<psa10 value="0.0251473572297996" flag="0"/>
			<psa30 value="0.00322412340891266" flag="0"/>
		</comp>
		<comp name="--.HNN" depth="0.0">
			<acc value="0.0629596050036364" flag="0"/>
			<vel value="0.0284855357921261" flag="0"/>
			<psa03 value="0.139729911268863" flag="0"/>
			<psa10 value="0.0265728439326578" flag="0"/>
			<psa30 value="0.00351629001812998" flag="0"/>
		</comp>
		<comp name="--.HNZ" depth="0.0">
			<acc value="0.0473496861114894" flag="0"/>
			<vel value="0.0379955394538102" flag="0"/>
			<psa03 value="0.122548903927446" flag="0"/>
			<psa10 value="0.0185393807343471" flag="0"/>
			<psa30 value="0.00324336255775852" flag="0"/>
		</comp>
	</station>
	<station code="YKAV" name="YKAV" netid="KO" source="Bogazici University Kandilli Observatory And Earthquake Research Institute (KOERI)" insttype="" lat="37.1246" lon="27.2801">
		<comp name="--.HNE" depth="0.0">
			<acc value="1.25858795147394" flag="0"/>
			<vel value="0.432054077534056" flag="0"/>
			<psa03 value="1.60588727994301" flag="0"/>
			<psa10 value="0.160685371160596" flag="0"/>
			<psa30 value="0.0180660081883258" flag="0"/>
		</comp>
		<comp name="--.HNN" depth="0.0">
			<acc value="0.88146005278585" flag="0"/>
			<vel value="0.419177559206609" flag="0"/>
			<psa03 value="1.40602384297919" flag="0"/>
			<psa10 value="0.205503639530119" flag="0"/>
			<psa30 value="0.0144083327972821" flag="0"/>
		</comp>
		<comp name="--.HNZ" depth="0.0">
			<acc value="0.761261569977333" flag="0"/>
			<vel value="0.193988263452143" flag="0"/>
			<psa03 value="0.597174231734073" flag="0"/>
			<psa10 value="0.121589183595484" flag="0"/>
			<psa30 value="0.00532298032137579" flag="0"/>
		</comp>
	</station>
</stationlist>
