<?xml version="1.0" encoding="UTF-8" standalone="yes"?>
<!DOCTYPE earthquake SYSTEM "stationlist.dtd">
<stationlist created="" xmlns="ch.ethz.sed.shakemap.usgs.xml">
  <station code="RDI1" name="RDI1" netid="HI" insttype="CMG-5TD,ACCELEROMETER,GURALP" lat="36.4514" lon="28.224">
    <comp name="--.HNE">
      <acc value="1.1905343648" flag="0"/>
      <vel value="0.6572420874" flag="0"/>
      <psa03 value="3.4687360978" flag="0"/>
      <psa10 value="0.2695624306" flag="0"/>
      <psa30 value="0.0191901587" flag="0"/>
    </comp>
    <comp name="--.HNZ">
      <acc value="0.5401758678" flag="0"/>
      <vel value="0.2417011261" flag="0"/>
      <psa03 value="2.1773436780" flag="0"/>
      <psa10 value="0.0878671046" flag="0"/>
      <psa30 value="0.0088125634" flag="0"/>
    </comp>
    <comp name="--.HNN">
      <acc value="1.7273650718" flag="0"/>
      <vel value="0.8099914059" flag="0"/>
      <psa03 value="5.1144380812" flag="0"/>
      <psa10 value="0.4508407726" flag="0"/>
      <psa30 value="0.0444892480" flag="0"/>
    </comp>
  </station>
  <station code="ARG" name="ARG" netid="HL" insttype="LE3D20_DR24" lat="36.2136" lon="28.1212">
    <comp name="--.HHE">
      <acc value="0.3356437018" flag="0"/>
      <vel value="0.1531219343" flag="0"/>
      <psa03 value="0.9319949637" flag="0"/>
      <psa10 value="0.0443878600" flag="0"/>
      <psa30 value="0.0033396555" flag="0"/>
    </comp>
    <comp name="--.HHZ">
      <acc value="0.4030880925" flag="0"/>
      <vel value="0.0823893026" flag="0"/>
      <psa03 value="0.2463107043" flag="0"/>
      <psa10 value="0.0356718126" flag="0"/>
      <psa30 value="0.0022279147" flag="0"/>
    </comp>
  </station>
  <station code="KLNA" name="KLNA" netid="HL" insttype="CMG-5" lat="36.9571" lon="26.9727">
    <comp name="00.HNE">
      <acc value="0.1612847731" flag="0"/>
      <vel value="0.0715207843" flag="0"/>
      <psa03 value="0.5803973375" flag="0"/>
      <psa10 value="0.0243194528" flag="0"/>
      <psa30 value="0.0018857405" flag="0"/>
    </comp>
    <comp name="00.HNN">
      <acc value="0.1597728407" flag="0"/>
      <vel value="0.0752965689" flag="0"/>
      <psa03 value="0.6310769050" flag="0"/>
      <psa10 value="0.0259020381" flag="0"/>
      <psa30 value="0.0021140190" flag="0"/>
    </comp>
  </station>
  <station code="RODB" name="RODB" netid="HL" insttype="CMG-5" lat="36.4471" lon="28.2212">
    <comp name="00.HNN">
      <acc value="1.0522638868" flag="0"/>
      <vel value="0.4620602409" flag="0"/>
      <psa03 value="3.5607182664" flag="0"/>
      <psa10 value="0.3103842158" flag="0"/>
      <psa30 value="0.0277453928" flag="0"/>
    </comp>
    <comp name="00.HNZ">
      <acc value="0.5911771907" flag="0"/>
      <vel value="0.2242634461" flag="0"/>
      <psa03 value="1.6400236882" flag="0"/>
      <psa10 value="0.1307007010" flag="0"/>
      <psa30 value="0.0079462583" flag="0"/>
    </comp>
    <comp name="00.HNE">
      <acc value="1.6793717274" flag="0"/>
      <vel value="0.7245617138" flag="0"/>
      <psa03 value="5.8883762036" flag="0"/>
      <psa10 value="0.3150794676" flag="0"/>
      <psa30 value="0.0390410020" flag="0"/>
    </comp>
  </station>
  <station code="FETI" name="FETI" netid="KO" insttype="100" lat="36.6903" lon="29.0968">
    <comp name="--.HNN">
      <acc value="0.8077586245" flag="0"/>
      <vel value="0.3057590571" flag="0"/>
      <psa03 value="0.9499248116" flag="0"/>
      <psa10 value="0.2256015451" flag="0"/>
      <psa30 value="0.0179663765" flag="0"/>
    </comp>
    <comp name="--.HNZ">
      <acc value="0.5736861337" flag="0"/>
      <vel value="0.2191548845" flag="0"/>
      <psa03 value="1.0667784567" flag="0"/>
      <psa10 value="0.1689159234" flag="0"/>
      <psa30 value="0.0133606074" flag="0"/>
    </comp>
    <comp name="--.HNE">
      <acc value="1.0669465941" flag="0"/>
      <vel value="0.4729386956" flag="0"/>
      <psa03 value="0.8863770025" flag="0"/>
      <psa10 value="0.4548062530" flag="0"/>
      <psa30 value="0.0367635633" flag="0"/>
    </comp>
  </station>
  <station code="YKAV" name="YKAV" netid="KO" insttype="100" lat="37.1246" lon="27.2801">
    <comp name="--.HNE">
      <acc value="1.2610298554" flag="0"/>
      <vel value="0.4212543752" flag="0"/>
      <psa03 value="1.5935278685" flag="0"/>
      <psa10 value="0.1606338238" flag="0"/>
      <psa30 value="0.0171366780" flag="0"/>
    </comp>
    <comp name="--.HNN">
      <acc value="0.8887699108" flag="0"/>
      <vel value="0.4128064984" flag="0"/>
      <psa03 value="1.4245247459" flag="0"/>
      <psa10 value="0.2052228280" flag="0"/>
      <psa30 value="0.0139521558" flag="0"/>
    </comp>
    <comp name="--.HNZ">
      <acc value="0.7694505047" flag="0"/>
      <vel value="0.1895134423" flag="0"/>
      <psa03 value="0.5990231925" flag="0"/>
      <psa10 value="0.1213433732" flag="0"/>
      <psa30 value="0.0053640850" flag="0"/>
    </comp>
  </station>
  <station code="AYDN" name="AYDN" netid="TU" source="ODC" insttype="T" lat="37.6608" lon="27.8792">
    <comp name="--.HHE">
      <acc value="0.1580281183" flag="0"/>
      <vel value="0.0672833166" flag="0"/>
      <psa03 value="0.6310714221" flag="0"/>
      <psa10 value="0.0471138971" flag="0"/>
      <psa30 value="0.0027244914" flag="0"/>
    </comp>
    <comp name="--.HHZ">
      <acc value="0.3199188567" flag="0"/>
      <vel value="0.1320089607" flag="0"/>
      <psa03 value="0.5425575138" flag="0"/>
      <psa10 value="0.0416792112" flag="0"/>
      <psa30 value="0.0043221878" flag="0"/>
    </comp>
    <comp name="--.HHN">
      <acc value="0.1650726310" flag="0"/>
      <vel value="0.0812174694" flag="0"/>
      <psa03 value="0.3998866958" flag="0"/>
      <psa10 value="0.0673691879" flag="0"/>
      <psa30 value="0.0036799744" flag="0"/>
    </comp>
  </station>
</stationlist>
