<?xml version="1.0" encoding="UTF-8" standalone="yes"?>
<!DOCTYPE earthquake SYSTEM "stationlist.dtd">
<stationlist created="" xmlns="ch.ethz.sed.shakemap.usgs.xml">
  <station code="CARD" name="CARD" netid="GU" insttype="" lat="44.0261" lon="10.4821">
    <comp name="--.HHE">
      <acc value="0.0232715244" flag="0"/>
      <vel value="0.0087361411" flag="0"/>
      <psa03 value="0.0221763376" flag="0"/>
      <psa10 value="0.0152261172" flag="0"/>
      <psa30 value="0.0009430106" flag="0"/>
    </comp>
    <comp name="--.HHN">
      <acc value="0.0227279661" flag="0"/>
      <vel value="0.0082391706" flag="0"/>
      <psa03 value="0.0221196046" flag="0"/>
      <psa10 value="0.0169501370" flag="0"/>
      <psa30 value="0.0008885350" flag="0"/>
    </comp>
    <comp name="--.HHZ">
      <acc value="0.0099499309" flag="0"/>
      <vel value="0.0039215509" flag="0"/>
      <psa03 value="0.0094284041" flag="0"/>
      <psa10 value="0.0065358852" flag="0"/>
      <psa30 value="0.0009448085" flag="0"/>
    </comp>
  </station>
  <station code="GRAM" name="GRAM" netid="GU" insttype="" lat="44.4904" lon="10.065">
    <comp name="--.HHE">
      <acc value="0.0317874643" flag="0"/>
      <vel value="0.0137707886" flag="0"/>
      <psa03 value="0.0876643624" flag="0"/>
      <psa10 value="0.0107069628" flag="0"/>
      <psa30 value="0.0009012729" flag="0"/>
    </comp>
    <comp name="--.HHN">
      <acc value="0.0348183060" flag="0"/>
      <vel value="0.0166709504" flag="0"/>
      <psa03 value="0.1214190157" flag="0"/>
      <psa10 value="0.0146444178" flag="0"/>
      <psa30 value="0.0013135102" flag="0"/>
    </comp>
    <comp name="--.HHZ">
      <acc value="0.0226437239" flag="0"/>
      <vel value="0.0048733577" flag="0"/>
      <psa03 value="0.0275500846" flag="0"/>
      <psa10 value="0.0061655937" flag="0"/>
      <psa30 value="0.0005665770" flag="0"/>
    </comp>
  </station>
  <station code="GSCL" name="GSCL" netid="GU" insttype="" lat="44.3506" lon="10.588">
    <comp name="--.HHE">
      <acc value="0.0279034807" flag="0"/>
      <vel value="0.0177069792" flag="0"/>
      <psa03 value="0.0824267070" flag="0"/>
      <psa10 value="0.0343557924" flag="0"/>
      <psa30 value="0.0018466313" flag="0"/>
    </comp>
    <comp name="--.HHN">
      <acc value="0.0313326655" flag="0"/>
      <vel value="0.0206734462" flag="0"/>
      <psa03 value="0.0787663280" flag="0"/>
      <psa10 value="0.0390768736" flag="0"/>
      <psa30 value="0.0025652826" flag="0"/>
    </comp>
    <comp name="--.HHZ">
      <acc value="0.0179871998" flag="0"/>
      <vel value="0.0116063039" flag="0"/>
      <psa03 value="0.0379476898" flag="0"/>
      <psa10 value="0.0276888316" flag="0"/>
      <psa30 value="0.0013333050" flag="0"/>
    </comp>
  </station>
  <station code="MAIM" name="MAIM" netid="GU" insttype="" lat="43.9142" lon="10.4915">
    <comp name="--.HHN">
      <acc value="0.0120685252" flag="0"/>
      <vel value="0.0057103428" flag="0"/>
      <psa03 value="0.0252200160" flag="0"/>
      <psa10 value="0.0081711612" flag="0"/>
      <psa30 value="0.0009067494" flag="0"/>
    </comp>
    <comp name="--.HHE">
      <acc value="0.0072904541" flag="0"/>
      <vel value="0.0035805947" flag="0"/>
      <psa03 value="0.0147778480" flag="0"/>
      <psa10 value="0.0055319234" flag="0"/>
      <psa30 value="0.0004303748" flag="0"/>
    </comp>
    <comp name="--.HHZ">
      <acc value="0.0121780369" flag="0"/>
      <vel value="0.0060360412" flag="0"/>
      <psa03 value="0.0185022749" flag="0"/>
      <psa10 value="0.0080746489" flag="0"/>
      <psa30 value="0.0007136723" flag="0"/>
    </comp>
  </station>
  <station code="POPM" name="POPM" netid="GU" insttype="" lat="44.045" lon="10.757">
    <comp name="--.HHE">
      <acc value="0.0321401322" flag="0"/>
      <vel value="0.0125726964" flag="0"/>
      <psa03 value="0.0704898251" flag="0"/>
      <psa10 value="0.0110296302" flag="0"/>
      <psa30 value="0.0012138283" flag="0"/>
    </comp>
    <comp name="--.HHN">
      <acc value="0.0363127845" flag="0"/>
      <vel value="0.0177438903" flag="0"/>
      <psa03 value="0.0918059764" flag="0"/>
      <psa10 value="0.0168954949" flag="0"/>
      <psa30 value="0.0014424011" flag="0"/>
    </comp>
    <comp name="--.HHZ">
      <acc value="0.0170643434" flag="0"/>
      <vel value="0.0090161471" flag="0"/>
      <psa03 value="0.0563269990" flag="0"/>
      <psa10 value="0.0076037501" flag="0"/>
      <psa30 value="0.0013513641" flag="0"/>
    </comp>
  </station>
  <station code="BAG8" name="BAG8" netid="IV" insttype="" lat="45.8228" lon="10.4664">
    <comp name="--.HNZ">
      <acc value="0.0278871312" flag="0"/>
      <vel value="0.0081277837" flag="0"/>
      <psa03 value="0.0417178895" flag="0"/>
      <psa10 value="0.0059789426" flag="0"/>
      <psa30 value="0.0008482713" flag="0"/>
    </comp>
    <comp name="--.HNN">
      <acc value="0.0501939746" flag="0"/>
      <vel value="0.0184206019" flag="0"/>
      <psa03 value="0.0695892360" flag="0"/>
      <psa10 value="0.0142539150" flag="0"/>
      <psa30 value="0.0009682964" flag="0"/>
    </comp>
    <comp name="--.HNE">
      <acc value="0.0333785565" flag="0"/>
      <vel value="0.0107626763" flag="0"/>
      <psa03 value="0.0456602544" flag="0"/>
      <psa10 value="0.0095356574" flag="0"/>
      <psa30 value="0.0008291919" flag="0"/>
    </comp>
  </station>
  <station code="BDI" name="BDI" netid="IV" insttype="" lat="44.0624" lon="10.597">
    <comp name="--.HHN">
      <acc value="0.0215749601" flag="0"/>
      <vel value="0.0141347268" flag="0"/>
      <psa03 value="0.0513792921" flag="0"/>
      <psa10 value="0.0199905218" flag="0"/>
      <psa30 value="0.0013718256" flag="0"/>
    </comp>
    <comp name="--.HHE">
      <acc value="0.0215753700" flag="0"/>
      <vel value="0.0159889511" flag="0"/>
      <psa03 value="0.0822632855" flag="0"/>
      <psa10 value="0.0287696113" flag="0"/>
      <psa30 value="0.0015278068" flag="0"/>
    </comp>
    <comp name="--.HHZ">
      <acc value="0.0181556864" flag="0"/>
      <vel value="0.0101869979" flag="0"/>
      <psa03 value="0.0329534158" flag="0"/>
      <psa10 value="0.0088756217" flag="0"/>
      <psa30 value="0.0013566688" flag="0"/>
    </comp>
  </station>
  <station code="BOSL" name="BOSL" netid="IV" insttype="" lat="43.931" lon="11.3743">
    <comp name="--.HHE">
      <acc value="0.0039903708" flag="0"/>
      <vel value="0.0042552310" flag="0"/>
      <psa03 value="0.0086824255" flag="0"/>
      <psa10 value="0.0035697513" flag="0"/>
      <psa30 value="0.0004759032" flag="0"/>
    </comp>
    <comp name="--.HHN">
      <acc value="0.0044110762" flag="0"/>
      <vel value="0.0032971582" flag="0"/>
      <psa03 value="0.0092838396" flag="0"/>
      <psa10 value="0.0042154642" flag="0"/>
      <psa30 value="0.0004588410" flag="0"/>
    </comp>
    <comp name="--.HHZ">
      <acc value="0.0027192832" flag="0"/>
      <vel value="0.0019130879" flag="0"/>
      <psa03 value="0.0060629012" flag="0"/>
      <psa10 value="0.0028471925" flag="0"/>
      <psa30 value="0.0003457933" flag="0"/>
    </comp>
  </station>
  <station code="BOZZ" name="BOZZ" netid="IV" insttype="" lat="45.1071" lon="10.482">
    <comp name="--.HNE">
      <acc value="0.1268192530" flag="0"/>
      <vel value="0.1272032808" flag="0"/>
      <psa03 value="0.2747963556" flag="0"/>
      <psa10 value="0.1134681600" flag="0"/>
      <psa30 value="0.0092820466" flag="0"/>
    </comp>
    <comp name="--.HNZ">
      <acc value="0.0796842433" flag="0"/>
      <vel value="0.0367054986" flag="0"/>
      <psa03 value="0.1435310732" flag="0"/>
      <psa10 value="0.0362924082" flag="0"/>
      <psa30 value="0.0023977539" flag="0"/>
    </comp>
    <comp name="--.HNN">
      <acc value="0.1412801649" flag="0"/>
      <vel value="0.1349695154" flag="0"/>
      <psa03 value="0.2866848274" flag="0"/>
      <psa10 value="0.2591311550" flag="0"/>
      <psa30 value="0.0199810421" flag="0"/>
    </comp>
  </station>
  <station code="BRIS" name="BRIS" netid="IV" insttype="" lat="44.2245" lon="11.7666">
    <comp name="--.HHE">
      <acc value="0.0133979487" flag="0"/>
      <vel value="0.0058142461" flag="0"/>
      <psa03 value="0.0273713898" flag="0"/>
      <psa10 value="0.0082858802" flag="0"/>
      <psa30 value="0.0013848466" flag="0"/>
    </comp>
    <comp name="--.HHN">
      <acc value="0.0102613403" flag="0"/>
      <vel value="0.0075622295" flag="0"/>
      <psa03 value="0.0487572023" flag="0"/>
      <psa10 value="0.0100088911" flag="0"/>
      <psa30 value="0.0007030489" flag="0"/>
    </comp>
    <comp name="--.HHZ">
      <acc value="0.0073212459" flag="0"/>
      <vel value="0.0048384393" flag="0"/>
      <psa03 value="0.0238396239" flag="0"/>
      <psa10 value="0.0081936423" flag="0"/>
      <psa30 value="0.0004434715" flag="0"/>
    </comp>
  </station>
  <station code="CAPR" name="CAPR" netid="IV" insttype="" lat="45.6372" lon="9.9345">
    <comp name="--.HNE">
      <acc value="0.0104741979" flag="0"/>
      <vel value="0.0046862530" flag="0"/>
      <psa03 value="0.0201304647" flag="0"/>
      <psa10 value="0.0065232481" flag="0"/>
      <psa30 value="0.0005833311" flag="0"/>
    </comp>
    <comp name="--.HNZ">
      <acc value="0.0091422349" flag="0"/>
      <vel value="0.0037995560" flag="0"/>
      <psa03 value="0.0159138858" flag="0"/>
      <psa10 value="0.0049988093" flag="0"/>
      <psa30 value="0.0006317128" flag="0"/>
    </comp>
    <comp name="--.HNN">
      <acc value="0.0164454934" flag="0"/>
      <vel value="0.0061159761" flag="0"/>
      <psa03 value="0.0331359017" flag="0"/>
      <psa10 value="0.0114240906" flag="0"/>
      <psa30 value="0.0009405908" flag="0"/>
    </comp>
  </station>
  <station code="CAVE" name="CAVE" netid="IV" insttype="" lat="44.8658" lon="11.0031">
    <comp name="--.HHE">
      <acc value="2.0197135612" flag="0"/>
      <vel value="0.5896647485" flag="0"/>
      <psa03 value="2.1142972536" flag="0"/>
      <psa10 value="0.2607588547" flag="0"/>
      <psa30 value="0.0380861484" flag="0"/>
    </comp>
    <comp name="--.HHN">
      <acc value="2.7222053094" flag="0"/>
      <vel value="0.6071444329" flag="0"/>
      <psa03 value="2.3414059596" flag="0"/>
      <psa10 value="0.4227551407" flag="0"/>
      <psa30 value="0.0567056544" flag="0"/>
    </comp>
    <comp name="--.HHZ">
      <acc value="1.6252659030" flag="0"/>
      <vel value="0.6864764422" flag="0"/>
      <psa03 value="1.7033947358" flag="0"/>
      <psa10 value="0.3519901203" flag="0"/>
      <psa30 value="0.0472892627" flag="0"/>
    </comp>
  </station>
  <station code="CNCS" name="CNCS" netid="IV" insttype="" lat="45.606" lon="10.217">
    <comp name="--.HNE">
      <acc value="0.0710894776" flag="0"/>
      <vel value="0.0408904498" flag="0"/>
      <psa03 value="0.1466080602" flag="0"/>
      <psa10 value="0.0273013764" flag="0"/>
      <psa30 value="0.0016264863" flag="0"/>
    </comp>
    <comp name="--.HNN">
      <acc value="0.0831015610" flag="0"/>
      <vel value="0.0462086913" flag="0"/>
      <psa03 value="0.2317001862" flag="0"/>
      <psa10 value="0.0264097493" flag="0"/>
      <psa30 value="0.0014949636" flag="0"/>
    </comp>
    <comp name="--.HNZ">
      <acc value="0.0359190539" flag="0"/>
      <vel value="0.0165884888" flag="0"/>
      <psa03 value="0.0891212042" flag="0"/>
      <psa10 value="0.0075109137" flag="0"/>
      <psa30 value="0.0006335604" flag="0"/>
    </comp>
  </station>
  <station code="CTL8" name="CTL8" netid="IV" insttype="" lat="45.2763" lon="9.7622">
    <comp name="--.HNE">
      <acc value="0.0186005324" flag="0"/>
      <vel value="0.0161325400" flag="0"/>
      <psa03 value="0.0527538706" flag="0"/>
      <psa10 value="0.0238430766" flag="0"/>
      <psa30 value="0.0048201756" flag="0"/>
    </comp>
    <comp name="--.HNN">
      <acc value="0.0243866508" flag="0"/>
      <vel value="0.0172331457" flag="0"/>
      <psa03 value="0.0915866608" flag="0"/>
      <psa10 value="0.0228942363" flag="0"/>
      <psa30 value="0.0037498927" flag="0"/>
    </comp>
    <comp name="--.HNZ">
      <acc value="0.0099673526" flag="0"/>
      <vel value="0.0086263735" flag="0"/>
      <psa03 value="0.0208361657" flag="0"/>
      <psa10 value="0.0182357438" flag="0"/>
      <psa30 value="0.0014116693" flag="0"/>
    </comp>
  </station>
  <station code="FNVD" name="FNVD" netid="IV" insttype="" lat="44.1678" lon="11.1229">
    <comp name="--.HHE">
      <acc value="0.0354944547" flag="0"/>
      <vel value="0.0265451195" flag="0"/>
      <psa03 value="0.0552224890" flag="0"/>
      <psa10 value="0.0244207421" flag="0"/>
      <psa30 value="0.0025502982" flag="0"/>
    </comp>
    <comp name="--.HHN">
      <acc value="0.0366252056" flag="0"/>
      <vel value="0.0204549008" flag="0"/>
      <psa03 value="0.1098053036" flag="0"/>
      <psa10 value="0.0175417732" flag="0"/>
      <psa30 value="0.0035100312" flag="0"/>
    </comp>
    <comp name="--.HHZ">
      <acc value="0.0162444986" flag="0"/>
      <vel value="0.0119228345" flag="0"/>
      <psa03 value="0.0304234506" flag="0"/>
      <psa10 value="0.0114357501" flag="0"/>
      <psa30 value="0.0019941296" flag="0"/>
    </comp>
  </station>
  <station code="LMD" name="LMD" netid="IV" insttype="" lat="44.0775" lon="11.7073">
    <comp name="--.HHN">
      <acc value="0.0259036841" flag="0"/>
      <vel value="0.0127897749" flag="0"/>
      <psa03 value="0.0695842128" flag="0"/>
      <psa10 value="0.0099884832" flag="0"/>
      <psa30 value="0.0017047502" flag="0"/>
    </comp>
    <comp name="--.HHE">
      <acc value="0.0168822131" flag="0"/>
      <vel value="0.0091627157" flag="0"/>
      <psa03 value="0.0651793768" flag="0"/>
      <psa10 value="0.0098208263" flag="0"/>
      <psa30 value="0.0011761514" flag="0"/>
    </comp>
    <comp name="--.HHZ">
      <acc value="0.0134369374" flag="0"/>
      <vel value="0.0061658131" flag="0"/>
      <psa03 value="0.0350658587" flag="0"/>
      <psa10 value="0.0099762403" flag="0"/>
      <psa30 value="0.0011527086" flag="0"/>
    </comp>
  </station>
  <station code="MAGA" name="MAGA" netid="IV" insttype="" lat="45.7753" lon="10.6286">
    <comp name="--.HHE">
      <acc value="0.1212111856" flag="0"/>
      <vel value="0.0875746194" flag="0"/>
      <psa03 value="0.2650562304" flag="0"/>
      <psa10 value="0.1132441415" flag="0"/>
      <psa30 value="0.0042974249" flag="0"/>
    </comp>
    <comp name="--.HHN">
      <acc value="0.1072505416" flag="0"/>
      <vel value="0.0408398642" flag="0"/>
      <psa03 value="0.1702707638" flag="0"/>
      <psa10 value="0.0379316647" flag="0"/>
      <psa30 value="0.0021294567" flag="0"/>
    </comp>
    <comp name="--.HHZ">
      <acc value="0.0373341500" flag="0"/>
      <vel value="0.0186801508" flag="0"/>
      <psa03 value="0.0974544695" flag="0"/>
      <psa10 value="0.0280966583" flag="0"/>
      <psa30 value="0.0015069462" flag="0"/>
    </comp>
  </station>
  <station code="MBAL" name="MBAL" netid="IV" insttype="" lat="45.6975" lon="10.8589">
    <comp name="--.HNE">
      <acc value="0.1558556383" flag="0"/>
      <vel value="0.0278883460" flag="0"/>
      <psa03 value="0.0968419958" flag="0"/>
      <psa10 value="0.0178007678" flag="0"/>
      <psa30 value="0.0014423921" flag="0"/>
    </comp>
    <comp name="--.HNN">
      <acc value="0.1308586426" flag="0"/>
      <vel value="0.0419913426" flag="0"/>
      <psa03 value="0.1134841793" flag="0"/>
      <psa10 value="0.0401296768" flag="0"/>
      <psa30 value="0.0016857569" flag="0"/>
    </comp>
    <comp name="--.HNZ">
      <acc value="0.0484353362" flag="0"/>
      <vel value="0.0207426240" flag="0"/>
      <psa03 value="0.0823709637" flag="0"/>
      <psa10 value="0.0134676942" flag="0"/>
      <psa30 value="0.0009126383" flag="0"/>
    </comp>
  </station>
  <station code="MODE" name="MODE" netid="IV" insttype="" lat="44.6297" lon="10.9492">
    <comp name="--.HNN">
      <acc value="1.4558039785" flag="0"/>
      <vel value="0.6483989117" flag="0"/>
      <psa03 value="4.1520099926" flag="0"/>
      <psa10 value="0.4139678381" flag="0"/>
      <psa30 value="0.0442641544" flag="0"/>
    </comp>
    <comp name="--.HNE">
      <acc value="1.3115008035" flag="0"/>
      <vel value="0.7618042696" flag="0"/>
      <psa03 value="2.4302552856" flag="0"/>
      <psa10 value="0.6535533569" flag="0"/>
      <psa30 value="0.0595713764" flag="0"/>
    </comp>
    <comp name="--.HNZ">
      <acc value="0.7153052355" flag="0"/>
      <vel value="0.3899179964" flag="0"/>
      <psa03 value="2.6460666637" flag="0"/>
      <psa10 value="0.1444742130" flag="0"/>
      <psa30 value="0.0122503902" flag="0"/>
    </comp>
  </station>
  <station code="MSSA" name="MSSA" netid="IV" insttype="" lat="44.3162" lon="9.51739">
    <comp name="--.HHZ">
      <acc value="0.0144731351" flag="0"/>
      <vel value="0.0028995287" flag="0"/>
      <psa03 value="0.0150814570" flag="0"/>
      <psa10 value="0.0028619230" flag="0"/>
      <psa30 value="0.0002448368" flag="0"/>
    </comp>
    <comp name="--.HHN">
      <acc value="0.0618630284" flag="0"/>
      <vel value="0.0122066530" flag="0"/>
      <psa03 value="0.0264754928" flag="0"/>
      <psa10 value="0.0066667106" flag="0"/>
      <psa30 value="0.0002951466" flag="0"/>
    </comp>
    <comp name="--.HHE">
      <acc value="0.0713706826" flag="0"/>
      <vel value="0.0129806921" flag="0"/>
      <psa03 value="0.0337764302" flag="0"/>
      <psa10 value="0.0036367475" flag="0"/>
      <psa30 value="0.0002702068" flag="0"/>
    </comp>
  </station>
  <station code="MTRZ" name="MTRZ" netid="IV" insttype="" lat="44.3128" lon="11.4248">
    <comp name="--.HHE">
      <acc value="0.0471160097" flag="0"/>
      <vel value="0.0421817059" flag="0"/>
      <psa03 value="0.1203492177" flag="0"/>
      <psa10 value="0.0905794140" flag="0"/>
      <psa30 value="0.0070788099" flag="0"/>
    </comp>
    <comp name="--.HHZ">
      <acc value="0.0244810153" flag="0"/>
      <vel value="0.0240608567" flag="0"/>
      <psa03 value="0.0676914776" flag="0"/>
      <psa10 value="0.0329217844" flag="0"/>
      <psa30 value="0.0045179311" flag="0"/>
    </comp>
    <comp name="--.HHN">
      <acc value="0.0444909432" flag="0"/>
      <vel value="0.0344299931" flag="0"/>
      <psa03 value="0.1151535329" flag="0"/>
      <psa10 value="0.0515978823" flag="0"/>
      <psa30 value="0.0081209353" flag="0"/>
    </comp>
  </station>
  <station code="NDIM" name="NDIM" netid="IV" insttype="" lat="44.8873" lon="10.8987">
    <comp name="--.HNE">
      <acc value="2.0143607435" flag="0"/>
      <vel value="0.3613179273" flag="0"/>
      <psa03 value="0.9025183552" flag="0"/>
      <psa10 value="0.0911928622" flag="0"/>
      <psa30 value="0.0106495504" flag="0"/>
    </comp>
    <comp name="--.HNN">
      <acc value="2.3153607981" flag="0"/>
      <vel value="0.5189026424" flag="0"/>
      <psa03 value="1.5992802907" flag="0"/>
      <psa10 value="0.1841722175" flag="0"/>
      <psa30 value="0.0152435122" flag="0"/>
    </comp>
    <comp name="--.HNZ">
      <acc value="0.9143333267" flag="0"/>
      <vel value="0.1232660938" flag="0"/>
      <psa03 value="0.4026292242" flag="0"/>
      <psa10 value="0.0255997142" flag="0"/>
      <psa30 value="0.0043476830" flag="0"/>
    </comp>
  </station>
  <station code="NEVI" name="NEVI" netid="IV" insttype="" lat="44.5834" lon="10.3163">
    <comp name="--.HNE">
      <acc value="0.0249799195" flag="0"/>
      <vel value="0.0146639069" flag="0"/>
      <psa03 value="0.1046767488" flag="0"/>
      <psa10 value="0.0284281538" flag="0"/>
      <psa30 value="0.0024286589" flag="0"/>
    </comp>
    <comp name="--.HNN">
      <acc value="0.0312038180" flag="0"/>
      <vel value="0.0146852345" flag="0"/>
      <psa03 value="0.0860097725" flag="0"/>
      <psa10 value="0.0291797994" flag="0"/>
      <psa30 value="0.0034822399" flag="0"/>
    </comp>
