<stationlist created="1775820720">
	<station code="FUORN" name="FUORN" netid="CH" source="Switzerland Seismological Network" insttype="" lat="46.620334" lon="10.263551">
		<comp name="--.HGE" depth="0.0">
			<acc value="0.00202118713084805" flag="0"/>
			<vel value="0.00165070939763192" flag="0"/>
			<psa03 value="0.00452760201472464" flag="0"/>
			<psa10 value="0.00359055395032673" flag="0"/>
			<psa30 value="0.000204486176414108" flag="0"/>
		</comp>
		<comp name="--.HGN" depth="0.0">
			<acc value="0.00198596184596403" flag="0"/>
			<vel value="0.00177186594155623" flag="0"/>
			<psa03 value="0.00589725459647108" flag="0"/>
			<psa10 value="0.00318899891177624" flag="0"/>
			<psa30 value="0.000380010043591916" flag="0"/>
		</comp>
		<comp name="--.HGZ" depth="0.0">
			<acc value="0.00159496480190267" flag="0"/>
			<vel value="0.00127851173877138" flag="0"/>
			<psa03 value="0.00419787118732058" flag="0"/>
			<psa10 value="0.0021050465583776" flag="0"/>
			<psa30 value="0.000285511309556581" flag="0"/>
		</comp>
	</station>
	<station code="MUGIO" name="MUGIO" netid="CH" source="Switzerland Seismological Network" insttype="" lat="45.92184" lon="9.04171">
		<comp name="--.HGE" depth="0.0">
			<acc value="0.00481481787168465" flag="0"/>
			<vel value="0.00210976104010123" flag="0"/>
			<psa03 value="0.0124552339522875" flag="0"/>
			<psa10 value="0.002154294586442" flag="0"/>
			<psa30 value="0.000241604676999322" flag="0"/>
		</comp>
		<comp name="--.HGN" depth="0.0">
			<acc value="0.00440900838983342" flag="0"/>
			<vel value="0.00216385654534562" flag="0"/>
			<psa03 value="0.0110337791107846" flag="0"/>
			<psa10 value="0.00208639868242481" flag="0"/>
			<psa30 value="0.000203609673037504" flag="0"/>
		</comp>
		<comp name="--.HGZ" depth="0.0">
			<acc value="0.00418970346140838" flag="0"/>
			<vel value="0.00171118012395485" flag="0"/>
			<psa03 value="0.0124195011163929" flag="0"/>
			<psa10 value="0.00234598689449226" flag="0"/>
			<psa30 value="0.000364356011797721" flag="0"/>
		</comp>
	</station>
	<station code="SBGN" name="SBGN" netid="CH" source="Switzerland Seismological Network" insttype="" lat="46.628162" lon="9.748359">
		<comp name="--.HGE" depth="0.0">
			<acc value="0.00542183868703408" flag="0"/>
			<vel value="0.00291923591864473" flag="0"/>
			<psa03 value="0.0154425607542659" flag="0"/>
			<psa10 value="0.00371271055823035" flag="0"/>
			<psa30 value="0.000214774852779726" flag="0"/>
		</comp>
		<comp name="--.HGN" depth="0.0">
			<acc value="0.00341949415609465" flag="0"/>
			<vel value="0.00228064218692001" flag="0"/>
			<psa03 value="0.0123290693445145" flag="0"/>
			<psa10 value="0.00319056206220377" flag="0"/>
			<psa30 value="0.000439280454340888" flag="0"/>
		</comp>
		<comp name="--.HGZ" depth="0.0">
			<acc value="0.0048144391997143" flag="0"/>
			<vel value="0.00216488484580441" flag="0"/>
			<psa03 value="0.00842190100854917" flag="0"/>
			<psa10 value="0.00291889219040576" flag="0"/>
			<psa30 value="0.000450072575514191" flag="0"/>
		</comp>
	</station>
	<station code="STSP" name="STSP" netid="CH" source="Switzerland Seismological Network" insttype="" lat="46.62645" lon="10.33317">
		<comp name="--.HGE" depth="1.0">
			<acc value="0.00835033314931312" flag="0"/>
			<vel value="0.00328487561466189" flag="0"/>
			<psa03 value="0.0175560887859866" flag="0"/>
			<psa10 value="0.00514930299104155" flag="0"/>
			<psa30 value="0.000201667786584343" flag="0"/>
		</comp>
		<comp name="--.HGN" depth="1.0">
			<acc value="0.00424066300986709" flag="0"/>
			<vel value="0.00259913186348195" flag="0"/>
			<psa03 value="0.00884968325329608" flag="0"/>
			<psa10 value="0.00292109100794152" flag="0"/>
			<psa30 value="0.000294248685239462" flag="0"/>
		</comp>
		<comp name="--.HGZ" depth="1.0">
			<acc value="0.00347978273611403" flag="0"/>
			<vel value="0.00177826276814312" flag="0"/>
			<psa03 value="0.00801014521613032" flag="0"/>
			<psa10 value="0.0019952688173929" flag="0"/>
			<psa30 value="0.000432746349613321" flag="0"/>
		</comp>
	</station>
	<station code="VDL" name="VDL" netid="CH" source="Switzerland Seismological Network" insttype="" lat="46.48318" lon="9.44956">
		<comp name="--.HGE" depth="0.0">
			<acc value="0.00231933582296284" flag="0"/>
			<vel value="0.00131376940013989" flag="0"/>
			<psa03 value="0.00587291965104805" flag="0"/>
			<psa10 value="0.00148028962442101" flag="0"/>
			<psa30 value="0.000181873649799157" flag="0"/>
		</comp>
		<comp name="--.HGN" depth="0.0">
			<acc value="0.00382434196718069" flag="0"/>
			<vel value="0.00144877357067507" flag="0"/>
			<psa03 value="0.00907462979553337" flag="0"/>
			<psa10 value="0.001970805243677" flag="0"/>
			<psa30 value="0.000210762490626617" flag="0"/>
		</comp>
		<comp name="--.HGZ" depth="0.0">
			<acc value="0.00314719985669591" flag="0"/>
			<vel value="0.00163452424471764" flag="0"/>
			<psa03 value="0.00658437172919516" flag="0"/>
			<psa10 value="0.00231045352495519" flag="0"/>
			<psa30 value="0.000343909631283643" flag="0"/>
		</comp>
	</station>
	<station code="AUL" name="AUL" netid="IT" source="Italian Strong Motion Network (RAN)" insttype="" lat="44.2087" lon="9.9731">
		<comp name="--.HNE" depth="0.0">
			<acc value="0.025309552009476" flag="0"/>
			<vel value="0.0140838171439" flag="0"/>
			<psa03 value="0.0735422728564176" flag="0"/>
			<psa10 value="0.0111962457588272" flag="0"/>
			<psa30 value="0.000887100016024048" flag="0"/>
		</comp>
		<comp name="--.HNN" depth="0.0">
			<acc value="0.019279779234246" flag="0"/>
			<vel value="0.0115128803386" flag="0"/>
			<psa03 value="0.0862868567056377" flag="0"/>
			<psa10 value="0.00840884360712885" flag="0"/>
			<psa30 value="0.000525823739494273" flag="0"/>
		</comp>
		<comp name="--.HNZ" depth="0.0">
			<acc value="0.0087206034106278" flag="0"/>
			<vel value="0.00501046230163" flag="0"/>
			<psa03 value="0.0141788246941952" flag="0"/>
			<psa10 value="0.00856437109755164" flag="0"/>
			<psa30 value="0.000401946887425173" flag="0"/>
		</comp>
	</station>
	<station code="BOZL" name="BOZL" netid="IT" source="Italian Strong Motion Network (RAN)" insttype="" lat="45.0995" lon="10.4798">
		<comp name="--.HNE" depth="0.0">
			<acc value="0.10451322166926" flag="0"/>
			<vel value="0.0823883817515" flag="0"/>
			<psa03 value="0.191541417845655" flag="0"/>
			<psa10 value="0.10124433944074" flag="0"/>
			<psa30 value="0.00898483686800386" flag="0"/>
		</comp>
		<comp name="--.HNN" depth="0.0">
			<acc value="0.21244679391918" flag="0"/>
			<vel value="0.15185246844" flag="0"/>
			<psa03 value="0.52312311267222" flag="0"/>
			<psa10 value="0.270058060020964" flag="0"/>
			<psa30 value="0.0196303570814935" flag="0"/>
		</comp>
		<comp name="--.HNZ" depth="0.0">
			<acc value="0.064528414050498" flag="0"/>
			<vel value="0.0332421187795" flag="0"/>
			<psa03 value="0.132904616778386" flag="0"/>
			<psa10 value="0.036918086892092" flag="0"/>
			<psa30 value="0.00271276741586163" flag="0"/>
		</comp>
	</station>
	<station code="CME" name="CME" netid="IT" source="Italian Strong Motion Network (RAN)" insttype="" lat="43.9543" lon="10.3012">
		<comp name="--.HNE" depth="0.0">
			<acc value="0.015091085542794" flag="0"/>
			<vel value="0.00764609504943" flag="0"/>
			<psa03 value="0.0336528986101923" flag="0"/>
			<psa10 value="0.0114165569158694" flag="0"/>
			<psa30 value="0.000888211339640875" flag="0"/>
		</comp>
		<comp name="--.HNN" depth="0.0">
			<acc value="0.016342528574454" flag="0"/>
			<vel value="0.00727004106341" flag="0"/>
			<psa03 value="0.0414165405175269" flag="0"/>
			<psa10 value="0.0105870169628971" flag="0"/>
			<psa30 value="0.00102221125814407" flag="0"/>
		</comp>
		<comp name="--.HNZ" depth="0.0">
			<acc value="0.012465354007122" flag="0"/>
			<vel value="0.00528302098241" flag="0"/>
			<psa03 value="0.016597620344232" flag="0"/>
			<psa10 value="0.00587204008758728" flag="0"/>
			<psa30 value="0.000920993719645354" flag="0"/>
		</comp>
	</station>
	<station code="CNT" name="CNT" netid="IT" source="Italian Strong Motion Network (RAN)" insttype="" lat="44.7234" lon="11.2866">
		<comp name="--.HNE" depth="0.0">
			<acc value="0.5834697408795" flag="0"/>
			<vel value="0.368597177909" flag="0"/>
			<psa03 value="1.83314593692359" flag="0"/>
			<psa10 value="0.34580185767587" flag="0"/>
			<psa30 value="0.0314063305152697" flag="0"/>
		</comp>
		<comp name="--.HNN" depth="0.0">
			<acc value="0.51193829261046" flag="0"/>
			<vel value="0.221400159033" flag="0"/>
			<psa03 value="1.22639532600693" flag="0"/>
			<psa10 value="0.133027522420517" flag="0"/>
			<psa30 value="0.0136436921609874" flag="0"/>
		</comp>
		<comp name="--.HNZ" depth="0.0">
			<acc value="0.3268677812004" flag="0"/>
			<vel value="0.103478226846" flag="0"/>
			<psa03 value="0.620501105152862" flag="0"/>
			<psa10 value="0.0525880649512659" flag="0"/>
			<psa30 value="0.00272930351129633" flag="0"/>
		</comp>
	</station>
	<station code="CRP" name="CRP" netid="IT" source="Italian Strong Motion Network (RAN)" insttype="" lat="44.7823" lon="10.8703">
		<comp name="--.HGE" depth="0.0">
			<acc value="6.9571530446616" flag="0"/>
			<vel value="3.17242174283" flag="0"/>
			<psa03 value="14.3227594792054" flag="0"/>
			<psa10 value="1.02416332579328" flag="0"/>
			<psa30 value="0.124855684409559" flag="0"/>
		</comp>
		<comp name="--.HGN" depth="0.0">
			<acc value="5.7758246830026" flag="0"/>
			<vel value="1.70380741078" flag="0"/>
			<psa03 value="4.1424747519548" flag="0"/>
			<psa10 value="0.303907592386298" flag="0"/>
			<psa30 value="0.0341927017653469" flag="0"/>
		</comp>
		<comp name="--.HGZ" depth="0.0">
			<acc value="3.0067547234598" flag="0"/>
			<vel value="0.499379233074" flag="0"/>
			<psa03 value="1.31362227102958" flag="0"/>
			<psa10 value="0.0747571297927845" flag="0"/>
			<psa30 value="0.00662398088955956" flag="0"/>
		</comp>
	</station>
	<station code="CRR" name="CRR" netid="IT" source="Italian Strong Motion Network (RAN)" insttype="" lat="44.09" lon="10.105">
		<comp name="--.HNE" depth="0.0">
			<acc value="0.027570466054416" flag="0"/>
			<vel value="0.0106221333441" flag="0"/>
			<psa03 value="0.0713795827138293" flag="0"/>
			<psa10 value="0.00888220559002971" flag="0"/>
			<psa30 value="0.000479980390093259" flag="0"/>
		</comp>
		<comp name="--.HNN" depth="0.0">
			<acc value="0.029622048971028" flag="0"/>
			<vel value="0.0104672208109" flag="0"/>
			<psa03 value="0.0648317166579879" flag="0"/>
			<psa10 value="0.00914488986658329" flag="0"/>
			<psa30 value="0.000543661431566839" flag="0"/>
		</comp>
		<comp name="--.HNZ" depth="0.0">
			<acc value="0.017530058972826" flag="0"/>
			<vel value="0.00732823400953" flag="0"/>
			<psa03 value="0.0427136785298943" flag="0"/>
			<psa10 value="0.00750639413677394" flag="0"/>
			<psa30 value="0.000451827952215552" flag="0"/>
		</comp>
	</station>
	<station code="CSP" name="CSP" netid="IT" source="Italian Strong Motion Network (RAN)" insttype="" lat="44.3784" lon="11.5801">
		<comp name="--.HGE" depth="0.0">
			<acc value="0.1642250912637" flag="0"/>
			<vel value="0.0837274473397" flag="0"/>
			<psa03 value="0.518572102858243" flag="0"/>
			<psa10 value="0.0616198745144619" flag="0"/>
			<psa30 value="0.00676567777628379" flag="0"/>
		</comp>
		<comp name="--.HGN" depth="0.0">
			<acc value="0.14828167123878" flag="0"/>
			<vel value="0.0768419529216" flag="0"/>
			<psa03 value="0.323800012661837" flag="0"/>
			<psa10 value="0.0813281425901222" flag="0"/>
			<psa30 value="0.00643442749926562" flag="0"/>
		</comp>
		<comp name="--.HGZ" depth="0.0">
			<acc value="0.04105331560005" flag="0"/>
			<vel value="0.0230182457823" flag="0"/>
			<psa03 value="0.18761694953555" flag="0"/>
			<psa10 value="0.0387538485022708" flag="0"/>
			<psa30 value="0.00437253132540834" flag="0"/>
		</comp>
	</station>
	<station code="DSG" name="DSG" netid="IT" source="Italian Strong Motion Network (RAN)" insttype="" lat="45.4591" lon="10.5575">
		<comp name="--.HGE" depth="0.0">
			<acc value="0.12437942188686" flag="0"/>
			<vel value="0.0249158619869" flag="0"/>
			<psa03 value="0.122802301716639" flag="0"/>
			<psa10 value="0.0240967619172309" flag="0"/>
			<psa30 value="0.00199318308026542" flag="0"/>
		</comp>
		<comp name="--.HGN" depth="0.0">
			<acc value="0.078278590181484" flag="0"/>
			<vel value="0.0176920509001" flag="0"/>
			<psa03 value="0.0997204809925854" flag="0"/>
			<psa10 value="0.0193512988035847" flag="0"/>
			<psa30 value="0.00248651701121429" flag="0"/>
		</comp>
		<comp name="--.HGZ" depth="0.0">
			<acc value="0.03443629751949" flag="0"/>
			<vel value="0.00760727177442" flag="0"/>
			<psa03 value="0.0298891050065404" flag="0"/>
			<psa10 value="0.0118307484165228" flag="0"/>
			<psa30 value="0.000918551057832069" flag="0"/>
		</comp>
	</station>
	<station code="FIC" name="FIC" netid="IT" source="Italian Strong Motion Network (RAN)" insttype="" lat="44.9538" lon="11.4517">
		<comp name="--.HNE" depth="0.0">
			<acc value="0.1786810061451" flag="0"/>
			<vel value="0.157081781066" flag="0"/>
			<psa03 value="0.413493891940839" flag="0"/>
			<psa10 value="0.146544497853738" flag="0"/>
			<psa30 value="0.00648107017240706" flag="0"/>
		</comp>
		<comp name="--.HNN" depth="0.0">
			<acc value="0.15201581046804" flag="0"/>
			<vel value="0.128332446062" flag="0"/>
			<psa03 value="0.474954421733892" flag="0"/>
			<psa10 value="0.117592212407094" flag="0"/>
			<psa30 value="0.00949245716203395" flag="0"/>
		</comp>
		<comp name="--.HNZ" depth="0.0">
			<acc value="0.059459413969956" flag="0"/>
			<vel value="0.0241283881811" flag="0"/>
			<psa03 value="0.115925044048419" flag="0"/>
			<psa10 value="0.0236572853040576" flag="0"/>
			<psa30 value="0.00225020052307388" flag="0"/>
		</comp>
	</station>
	<station code="FRN" name="FRN" netid="IT" source="Italian Strong Motion Network (RAN)" insttype="" lat="44.6868" lon="10.1072">
		<comp name="--.HGE" depth="0.0">
			<acc value="0.0178726666848" flag="0"/>
			<vel value="0.0175047257384" flag="0"/>
			<psa03 value="0.0429927230569257" flag="0"/>
			<psa10 value="0.0433150319083771" flag="0"/>
			<psa30 value="0.0028423172478998" flag="0"/>
		</comp>
		<comp name="--.HGN" depth="0.0">
			<acc value="0.021624896170062" flag="0"/>
			<vel value="0.0129170565992" flag="0"/>
			<psa03 value="0.0561683406685677" flag="0"/>
			<psa10 value="0.0290627583901287" flag="0"/>
			<psa30 value="0.0022777133873315" flag="0"/>
		</comp>
		<comp name="--.HGZ" depth="0.0">
			<acc value="0.015636540300012" flag="0"/>
			<vel value="0.00896129746061" flag="0"/>
			<psa03 value="0.0207213505523772" flag="0"/>
			<psa10 value="0.0132764401239859" flag="0"/>
			<psa30 value="0.00145433884281233" flag="0"/>
		</comp>
	</station>
	<station code="FVZ" name="FVZ" netid="IT" source="Italian Strong Motion Network (RAN)" insttype="" lat="44.2382" lon="10.1311">
		<comp name="--.HNE" depth="0.0">
			<acc value="0.01526542669965" flag="0"/>
			<vel value="0.00530213531798" flag="0"/>
			<psa03 value="0.0309277831888512" flag="0"/>
			<psa10 value="0.00376790366762557" flag="0"/>
			<psa30 value="0.000479192733751208" flag="0"/>
		</comp>
		<comp name="--.HNN" depth="0.0">
			<acc value="0.014224375412922" flag="0"/>
			<vel value="0.00562318806812" flag="0"/>
			<psa03 value="0.0245087329582671" flag="0"/>
			<psa10 value="0.00462101111930671" flag="0"/>
			<psa30 value="0.000576600644880097" flag="0"/>
		</comp>
		<comp name="--.HNZ" depth="0.0">
			<acc value="0.010982623077642" flag="0"/>
			<vel value="0.00388430563064" flag="0"/>
			<psa03 value="0.0143659972497075" flag="0"/>
			<psa10 value="0.00709999471480988" flag="0"/>
			<psa30 value="0.000522691709094521" flag="0"/>
		</comp>
	</station>
	<station code="GAI" name="GAI" netid="IT" source="Italian Strong Motion Network (RAN)" insttype="" lat="45.6592" lon="10.6162">
		<comp name="--.HNE" depth="0.0">
			<acc value="0.042268319483814" flag="0"/>
			<vel value="0.0206365147523" flag="0"/>
			<psa03 value="0.115101291562503" flag="0"/>
			<psa10 value="0.0254111039859411" flag="0"/>
			<psa30 value="0.00121397812842752" flag="0"/>
		</comp>
		<comp name="--.HNN" depth="0.0">
			<acc value="0.050437902482958" flag="0"/>
			<vel value="0.0297989915871" flag="0"/>
			<psa03 value="0.109321804532975" flag="0"/>
			<psa10 value="0.0297650580390264" flag="0"/>
			<psa30 value="0.00156177595999038" flag="0"/>
		</comp>
		<comp name="--.HNZ" depth="0.0">
			<acc value="0.034349755314612" flag="0"/>
			<vel value="0.0119174871063" flag="0"/>
			<psa03 value="0.0649694393233546" flag="0"/>
			<psa10 value="0.0123948223461633" flag="0"/>
			<psa30 value="0.00077192853231018" flag="0"/>
		</comp>
	</station>
	<station code="MDN" name="MDN" netid="IT" source="Italian Strong Motion Network (RAN)" insttype="" lat="44.646" lon="10.8899">
		<comp name="--.HNE" depth="0.0">
			<acc value="1.6990608304644" flag="0"/>
			<vel value="0.774083411556" flag="0"/>
			<psa03 value="2.93807163282429" flag="0"/>
			<psa10 value="0.573927999912361" flag="0"/>
			<psa30 value="0.0494356015326329" flag="0"/>
		</comp>
		<comp name="--.HNN" depth="0.0">
			<acc value="1.3213975954536" flag="0"/>
			<vel value="1.02673332507" flag="0"/>
			<psa03 value="2.51524778949006" flag="0"/>
			<psa10 value="0.647905940590622" flag="0"/>
			<psa30 value="0.0576138699694986" flag="0"/>
		</comp>
		<comp name="--.HNZ" depth="0.0">
			<acc value="0.77033483505696" flag="0"/>
			<vel value="0.240484131214" flag="0"/>
			<psa03 value="0.796505347905395" flag="0"/>
			<psa10 value="0.105278481682809" flag="0"/>
			<psa30 value="0.00960526796853829" flag="0"/>
		</comp>
	</station>
	<station code="MNOV" name="MNOV" netid="IT" source="Italian Strong Motion Network (RAN)" insttype="" lat="45.1452" lon="10.7882">
		<comp name="--.HNE" depth="0.0">
			<acc value="0.13188792576102" flag="0"/>
			<vel value="0.0865334216679" flag="0"/>
			<psa03 value="0.231371514727458" flag="0"/>
			<psa10 value="0.0599609558690764" flag="0"/>
			<psa30 value="0.0114287245969006" flag="0"/>
		</comp>
		<comp name="--.HNN" depth="0.0">
			<acc value="0.12976333186722" flag="0"/>
			<vel value="0.0869471391426" flag="0"/>
			<psa03 value="0.3040569339464" flag="0"/>
			<psa10 value="0.149365734746709" flag="0"/>
			<psa30 value="0.00931242606917855" flag="0"/>
		</comp>
		<comp name="--.HNZ" depth="0.0">
			<acc value="0.085513964127762" flag="0"/>
			<vel value="0.0252824571563" flag="0"/>
			<psa03 value="0.0988001700261855" flag="0"/>
			<psa10 value="0.0342322939714798" flag="0"/>
			<psa30 value="0.00431740850712352" flag="0"/>
		</comp>
	</station>
	<station code="MNS" name="MNS" netid="IT" source="Italian Strong Motion Network (RAN)" insttype="" lat="45.2517" lon="11.7221">
		<comp name="--.HGE" depth="0.0">
			<acc value="0.085290399049782" flag="0"/>
			<vel value="0.0263634387798" flag="0"/>
			<psa03 value="0.158765642444557" flag="0"/>
			<psa10 value="0.0153177153484776" flag="0"/>
			<psa30 value="0.00112401998164246" flag="0"/>
		</comp>
		<comp name="--.HGN" depth="0.0">
			<acc value="0.11384443426206" flag="0"/>
			<vel value="0.0509868351275" flag="0"/>
			<psa03 value="0.364086452273843" flag="0"/>
			<psa10 value="0.0275963493727165" flag="0"/>
			<psa30 value="0.00147667553084119" flag="0"/>
		</comp>
		<comp name="--.HGZ" depth="0.0">
			<acc value="0.040353509116698" flag="0"/>
			<vel value="0.0138692372782" flag="0"/>
			<psa03 value="0.0907363754229287" flag="0"/>
			<psa10 value="0.0116308414236651" flag="0"/>
			<psa30 value="0.000632309543656009" flag="0"/>
		</comp>
	</station>
	<station code="MRN" name="MRN" netid="IT" source="Italian Strong Motion Network (RAN)" insttype="" lat="44.8782" lon="11.0617">
		<comp name="--.HGE" depth="0.0">
			<acc value="1.391078527815" flag="0"/>
			<vel value="0.471741322696" flag="0"/>
			<psa03 value="3.52758268503879" flag="0"/>
			<psa10 value="0.141299265382708" flag="0"/>
			<psa30 value="0.012867469906748" flag="0"/>
		</comp>
