<?xml version="1.0" encoding="UTF-8" standalone="yes"?>
<!DOCTYPE earthquake SYSTEM "stationlist.dtd">
<stationlist created="" xmlns="ch.ethz.sed.shakemap.usgs.xml">
  <station code="RDO" name="RDO" netid="HL" insttype="CMG3EPSC60_DR24" lat="41.145" lon="25.5355">
    <comp name="--.HHE">
      <acc value="0.0903550215" flag="0"/>
      <vel value="0.0264695569" flag="0"/>
      <psa03 value="0.1114044554" flag="0"/>
      <psa10 value="0.0161120160" flag="0"/>
      <psa30 value="0.0013904879" flag="0"/>
    </comp>
    <comp name="--.HHN">
      <acc value="0.1247737167" flag="0"/>
      <vel value="0.0313298718" flag="0"/>
      <psa03 value="0.1715676780" flag="0"/>
      <psa10 value="0.0227923100" flag="0"/>
      <psa30 value="0.0023938504" flag="0"/>
    </comp>
    <comp name="--.HHZ">
      <acc value="0.0519355492" flag="0"/>
      <vel value="0.0285771914" flag="0"/>
      <psa03 value="0.1169344547" flag="0"/>
      <psa10 value="0.0230816373" flag="0"/>
      <psa30 value="0.0017498355" flag="0"/>
    </comp>
  </station>
  <station code="KAVA" name="KAVA" netid="HT" insttype="Compact," lat="40.9967" lon="24.5137">
    <comp name="--.HHE">
      <acc value="0.1653502886" flag="0"/>
      <vel value="0.0469831641" flag="0"/>
      <psa03 value="0.2523724159" flag="0"/>
      <psa10 value="0.0217833111" flag="0"/>
      <psa30 value="0.0027130717" flag="0"/>
    </comp>
    <comp name="--.HHN">
      <acc value="0.1050061655" flag="0"/>
      <vel value="0.0429635944" flag="0"/>
      <psa03 value="0.2813084976" flag="0"/>
      <psa10 value="0.0356551548" flag="0"/>
      <psa30 value="0.0026087017" flag="0"/>
    </comp>
    <comp name="--.HHZ">
      <acc value="0.0903158819" flag="0"/>
      <vel value="0.0397761277" flag="0"/>
      <psa03 value="0.2900720851" flag="0"/>
      <psa10 value="0.0230316923" flag="0"/>
      <psa30 value="0.0035105360" flag="0"/>
    </comp>
  </station>
</stationlist>
