<stationlist created="1778069379">
	<station code="JMB" name="JMB" netid="BS" source="National Seismic Network of Bulgaria (BS)" insttype="" lat="42.4911" lon="26.5296">
		<comp name="--.HNE" depth="0.0">
			<acc value="2.43479729204008" flag="0"/>
			<vel value="6.47408473911404" flag="0"/>
			<psa03 value="4.68541505241585" flag="0"/>
			<psa10 value="3.47751212810998" flag="0"/>
			<psa30 value="3.33146186633052" flag="0"/>
		</comp>
		<comp name="--.HNN" depth="0.0">
			<acc value="3.14417502263012" flag="0"/>
			<vel value="8.83220333816226" flag="0"/>
			<psa03 value="5.18138924160342" flag="0"/>
			<psa10 value="5.03552301867353" flag="0"/>
			<psa30 value="3.09231983767744" flag="0"/>
		</comp>
		<comp name="--.HNZ" depth="0.0">
			<acc value="2.63853780304515" flag="0"/>
			<vel value="10.0721290424979" flag="0"/>
			<psa03 value="5.10096258040459" flag="0"/>
			<psa10 value="4.51879518799269" flag="0"/>
			<psa30 value="3.10198255778872" flag="0"/>
		</comp>
	</station>
	<station code="KOZAM" name="KOZAM" netid="BS" source="National Seismic Network of Bulgaria (BS)" insttype="" lat="43.8274" lon="23.2364">
		<comp name="--.HNE" depth="0.0">
			<acc value="0.0505265567784201" flag="0"/>
			<vel value="0.0536039819799299" flag="0"/>
			<psa03 value="0.12645397070492" flag="0"/>
			<psa10 value="0.0962770528822824" flag="0"/>
			<psa30 value="0.00610616200326225" flag="0"/>
		</comp>
		<comp name="--.HNN" depth="0.0">
			<acc value="0.037754106520753" flag="0"/>
			<vel value="0.0338318686004493" flag="0"/>
			<psa03 value="0.106836275295644" flag="0"/>
			<psa10 value="0.082929243655509" flag="0"/>
			<psa30 value="0.0062466167243635" flag="0"/>
		</comp>
		<comp name="--.HNZ" depth="0.0">
			<acc value="0.018991376137636" flag="0"/>
			<vel value="0.0120267568053206" flag="0"/>
			<psa03 value="0.0564600735360959" flag="0"/>
			<psa10 value="0.0262916979459524" flag="0"/>
			<psa30 value="0.00569451223349744" flag="0"/>
		</comp>
	</station>
	<station code="MNNAM" name="MNNAM" netid="BS" source="National Seismic Network of Bulgaria (BS)" insttype="" lat="43.4111" lon="23.2262">
		<comp name="--.HNE" depth="0.0">
			<acc value="0.0556820294039938" flag="0"/>
			<vel value="0.0448810797901068" flag="0"/>
			<psa03 value="0.167962243644992" flag="0"/>
			<psa10 value="0.0776245965282382" flag="0"/>
			<psa30 value="0.0061538430982771" flag="0"/>
		</comp>
		<comp name="--.HNN" depth="0.0">
			<acc value="0.0551126646646022" flag="0"/>
			<vel value="0.0447746635864372" flag="0"/>
			<psa03 value="0.156329269924242" flag="0"/>
			<psa10 value="0.0826903091615589" flag="0"/>
			<psa30 value="0.00540530598155341" flag="0"/>
		</comp>
		<comp name="--.HNZ" depth="0.0">
			<acc value="0.0274763111551937" flag="0"/>
			<vel value="0.0255567661545284" flag="0"/>
			<psa03 value="0.0882763736578502" flag="0"/>
			<psa10 value="0.0493081488036664" flag="0"/>
			<psa30 value="0.00205858892650668" flag="0"/>
		</comp>
	</station>
	<station code="PLVB" name="PLVB" netid="BS" source="National Seismic Network of Bulgaria (BS)" insttype="" lat="43.387" lon="24.6207">
		<comp name="--.HNE" depth="0.0">
			<acc value="0.0587098483828039" flag="0"/>
			<vel value="0.0340866721544519" flag="0"/>
			<psa03 value="0.140490528781373" flag="0"/>
			<psa10 value="0.0408760325443869" flag="0"/>
			<psa30 value="0.00521380933722721" flag="0"/>
		</comp>
		<comp name="--.HNN" depth="0.0">
			<acc value="0.0701776323807872" flag="0"/>
			<vel value="0.0762058428353933" flag="0"/>
			<psa03 value="0.205679923824195" flag="0"/>
			<psa10 value="0.0714595678783066" flag="0"/>
			<psa30 value="0.00785852117043325" flag="0"/>
		</comp>
		<comp name="--.HNZ" depth="0.0">
			<acc value="0.0517746908592446" flag="0"/>
			<vel value="0.0326715014125113" flag="0"/>
			<psa03 value="0.199908179170438" flag="0"/>
			<psa10 value="0.0339861801472392" flag="0"/>
			<psa30 value="0.0089005671625728" flag="0"/>
		</comp>
	</station>
	<station code="RAZG" name="RAZG" netid="BS" source="National Seismic Network of Bulgaria (BS)" insttype="" lat="43.5662" lon="26.5079">
		<comp name="--.HNE" depth="0.0">
			<acc value="0.0454374236503261" flag="0"/>
			<vel value="0.0146764922866222" flag="0"/>
			<psa03 value="0.0735114454738205" flag="0"/>
			<psa10 value="0.0105139711332277" flag="0"/>
			<psa30 value="0.00210556824345587" flag="0"/>
		</comp>
		<comp name="--.HNN" depth="0.0">
			<acc value="0.0524683529087276" flag="0"/>
			<vel value="0.012286170705647" flag="0"/>
			<psa03 value="0.0548986875206194" flag="0"/>
			<psa10 value="0.0112830896649958" flag="0"/>
			<psa30 value="0.00206932705609507" flag="0"/>
		</comp>
		<comp name="--.HNZ" depth="0.0">
			<acc value="0.0226873596904381" flag="0"/>
			<vel value="0.0147975849148933" flag="0"/>
			<psa03 value="0.0435789092461967" flag="0"/>
			<psa10 value="0.0061771090457186" flag="0"/>
			<psa30 value="0.00204964048518303" flag="0"/>
		</comp>
	</station>
	<station code="RUSAM" name="RUSAM" netid="BS" source="National Seismic Network of Bulgaria (BS)" insttype="" lat="43.8462" lon="25.9612">
		<comp name="--.HNE" depth="0.0">
			<acc value="0.034700401236871" flag="0"/>
			<vel value="0.0242091963120222" flag="0"/>
			<psa03 value="0.0858155522938452" flag="0"/>
			<psa10 value="0.0104414887585061" flag="0"/>
			<psa30 value="0.0022912484009217" flag="0"/>
		</comp>
		<comp name="--.HNN" depth="0.0">
			<acc value="0.0278502663294484" flag="0"/>
			<vel value="0.0162663493624253" flag="0"/>
			<psa03 value="0.0744510318128042" flag="0"/>
			<psa10 value="0.00912472561773034" flag="0"/>
			<psa30 value="0.00255880679649896" flag="0"/>
		</comp>
		<comp name="--.HNZ" depth="0.0">
			<acc value="0.0414923209525973" flag="0"/>
			<vel value="0.0152409916375314" flag="0"/>
			<psa03 value="0.0572252822647696" flag="0"/>
			<psa10 value="0.00618516264290989" flag="0"/>
			<psa30 value="0.00313642868394085" flag="0"/>
		</comp>
	</station>
	<station code="VETAM" name="VETAM" netid="BS" source="National Seismic Network of Bulgaria (BS)" insttype="" lat="43.0805" lon="25.6367">
		<comp name="--.HNE" depth="0.0">
			<acc value="0.0661728949185396" flag="0"/>
			<vel value="0.0219233791437005" flag="0"/>
			<psa03 value="0.10071470709773" flag="0"/>
			<psa10 value="0.0134897752954089" flag="0"/>
			<psa30 value="0.00339056441753263" flag="0"/>
		</comp>
		<comp name="--.HNN" depth="0.0">
			<acc value="0.0697356028085183" flag="0"/>
			<vel value="0.0303253219373783" flag="0"/>
			<psa03 value="0.118074683265619" flag="0"/>
			<psa10 value="0.0141300362721164" flag="0"/>
			<psa30 value="0.00324738935635416" flag="0"/>
		</comp>
		<comp name="--.HNZ" depth="0.0">
			<acc value="0.0281760376711007" flag="0"/>
			<vel value="0.0132175533885544" flag="0"/>
			<psa03 value="0.0564199225456407" flag="0"/>
			<psa10 value="0.0164534990618033" flag="0"/>
			<psa30 value="0.00379190201089853" flag="0"/>
		</comp>
	</station>
	<station code="STC" name="STC" netid="EG" source="EUROSEISTEST Strong Motion Network" insttype="" lat="40.64865" lon="23.304856">
		<comp name="--.EN1" depth="0.0">
			<acc value="0.0406501175167752" flag="0"/>
			<vel value="0.0228686028133569" flag="0"/>
			<psa03 value="0.0945919954223457" flag="0"/>
			<psa10 value="0.0307657930827986" flag="0"/>
			<psa30 value="0.00314496438012208" flag="0"/>
		</comp>
		<comp name="--.EN2" depth="0.0">
			<acc value="0.0463566910666407" flag="0"/>
			<vel value="0.0405160907342368" flag="0"/>
			<psa03 value="0.113930599426256" flag="0"/>
			<psa10 value="0.0463170532773034" flag="0"/>
			<psa30 value="0.00373890185056356" flag="0"/>
		</comp>
		<comp name="--.EN3" depth="0.0">
			<acc value="0.0163148136997685" flag="0"/>
			<vel value="0.0169133413126442" flag="0"/>
			<psa03 value="0.0389599871579351" flag="0"/>
			<psa10 value="0.0203529339069898" flag="0"/>
			<psa30 value="0.00268326004447475" flag="0"/>
		</comp>
	</station>
	<station code="STE" name="STE" netid="EG" source="EUROSEISTEST Strong Motion Network" insttype="" lat="40.645348" lon="23.305398">
		<comp name="--.EN1" depth="0.0">
			<acc value="0.0189438626343673" flag="0"/>
			<vel value="0.0161844761738344" flag="0"/>
			<psa03 value="0.0493736509704468" flag="0"/>
			<psa10 value="0.0131988924868674" flag="0"/>
			<psa30 value="0.00120721778475456" flag="0"/>
		</comp>
		<comp name="--.EN2" depth="0.0">
			<acc value="0.00221498630552628" flag="0"/>
			<vel value="0.00288571262834172" flag="0"/>
			<psa03 value="0.00472882563127953" flag="0"/>
			<psa10 value="0.0077505976577875" flag="0"/>
			<psa30 value="0.000809249129615887" flag="0"/>
		</comp>
		<comp name="--.EN3" depth="0.0">
			<acc value="0.0115614657848517" flag="0"/>
			<vel value="0.00702770036272629" flag="0"/>
			<psa03 value="0.0286358318791388" flag="0"/>
			<psa10 value="0.0093325307343741" flag="0"/>
			<psa30 value="0.00133104619611036" flag="0"/>
		</comp>
	</station>
	<station code="DRA2" name="DRA2" netid="HI" source="ITSAK Strong Motion Network" insttype="" lat="41.1593" lon="24.1485">
		<comp name="--.HNE" depth="0.0">
			<acc value="0.129281916257456" flag="0"/>
			<vel value="0.0626776650318578" flag="0"/>
			<psa03 value="0.326886561553093" flag="0"/>
			<psa10 value="0.0391404823496641" flag="0"/>
			<psa30 value="0.00445184955851804" flag="0"/>
		</comp>
		<comp name="--.HNN" depth="0.0">
			<acc value="0.167369266430202" flag="0"/>
			<vel value="0.0665386526525896" flag="0"/>
			<psa03 value="0.241205235879103" flag="0"/>
			<psa10 value="0.0323835143061727" flag="0"/>
			<psa30 value="0.00348541789556337" flag="0"/>
		</comp>
		<comp name="--.HNZ" depth="0.0">
			<acc value="0.107766203480341" flag="0"/>
			<vel value="0.029325159716224" flag="0"/>
			<psa03 value="0.101296355783767" flag="0"/>
			<psa10 value="0.0162682663264036" flag="0"/>
			<psa30 value="0.00223084642198703" flag="0"/>
		</comp>
	</station>
	<station code="SFL1" name="SFL1" netid="HI" source="ITSAK Strong Motion Network" insttype="" lat="41.189954" lon="26.304374">
		<comp name="--.HNE" depth="0.0">
			<acc value="0.128063054038952" flag="0"/>
			<vel value="0.112867047557424" flag="0"/>
			<psa03 value="0.329436867330335" flag="0"/>
			<psa10 value="0.0639375081016427" flag="0"/>
			<psa30 value="0.00741020426011817" flag="0"/>
		</comp>
		<comp name="--.HNN" depth="0.0">
			<acc value="0.214164477693818" flag="0"/>
			<vel value="0.174437773549298" flag="0"/>
			<psa03 value="0.398742545382038" flag="0"/>
			<psa10 value="0.0854889341855318" flag="0"/>
			<psa30 value="0.00663974346215153" flag="0"/>
		</comp>
		<comp name="--.HNZ" depth="0.0">
			<acc value="0.067925291095866" flag="0"/>
			<vel value="0.0422254037119374" flag="0"/>
			<psa03 value="0.154405355039656" flag="0"/>
			<psa10 value="0.0234883162083941" flag="0"/>
			<psa30 value="0.00195299731888756" flag="0"/>
		</comp>
	</station>
	<station code="THS1" name="THS1" netid="HI" source="ITSAK Strong Motion Network" insttype="" lat="40.738476" lon="24.575145">
		<comp name="--.HNE" depth="0.0">
			<acc value="0.0615594721674665" flag="0"/>
			<vel value="0.0191511379914664" flag="0"/>
			<psa03 value="0.118164167678856" flag="0"/>
			<psa10 value="0.0127448175552147" flag="0"/>
			<psa30 value="0.00149394227898409" flag="0"/>
		</comp>
		<comp name="--.HNN" depth="0.0">
			<acc value="0.115843478297008" flag="0"/>
			<vel value="0.041688956461407" flag="0"/>
			<psa03 value="0.220176398768515" flag="0"/>
			<psa10 value="0.0100871304820894" flag="0"/>
			<psa30 value="0.00148275672732953" flag="0"/>
		</comp>
		<comp name="--.HNZ" depth="0.0">
			<acc value="0.0450379822061592" flag="0"/>
			<vel value="0.016660260340907" flag="0"/>
			<psa03 value="0.0865761698063559" flag="0"/>
			<psa10 value="0.00702273675080393" flag="0"/>
			<psa30 value="0.00219057843603058" flag="0"/>
		</comp>
	</station>
	<station code="KOMA" name="KOMA" netid="HL" source="National Observatory of Athens Seismic Network" insttype="" lat="41.11278" lon="25.39647">
		<comp name="00.HNE" depth="0.0">
			<acc value="0.0756724364922146" flag="0"/>
			<vel value="0.0651869136369427" flag="0"/>
			<psa03 value="0.221944286053031" flag="0"/>
			<psa10 value="0.0624619702987944" flag="0"/>
			<psa30 value="0.0149081142560862" flag="0"/>
		</comp>
		<comp name="00.HNN" depth="0.0">
			<acc value="0.073559805204686" flag="0"/>
			<vel value="0.0761041234842527" flag="0"/>
			<psa03 value="0.192700390455277" flag="0"/>
			<psa10 value="0.113945365821358" flag="0"/>
			<psa30 value="0.0147349727862794" flag="0"/>
		</comp>
		<comp name="00.HNZ" depth="0.0">
			<acc value="0.0449659485923887" flag="0"/>
			<vel value="0.0295523315251957" flag="0"/>
			<psa03 value="0.124025268148694" flag="0"/>
			<psa10 value="0.0277794139998606" flag="0"/>
			<psa30 value="0.0123219212668118" flag="0"/>
		</comp>
	</station>
	<station code="SMTH" name="SMTH" netid="HL" source="National Observatory of Athens Seismic Network" insttype="" lat="40.47094" lon="25.53045">
		<comp name="00.HNE" depth="0.0">
			<acc value="0.0105783550835143" flag="0"/>
			<vel value="0.00489586837993646" flag="0"/>
			<psa03 value="0.0371807736997838" flag="0"/>
			<psa10 value="0.0024724543377257" flag="0"/>
			<psa30 value="0.000536459057353078" flag="0"/>
		</comp>
		<comp name="00.HNN" depth="0.0">
			<acc value="0.00949023966547566" flag="0"/>
			<vel value="0.00488960328401064" flag="0"/>
			<psa03 value="0.0272032616239092" flag="0"/>
			<psa10 value="0.00495296227264268" flag="0"/>
			<psa30 value="0.00097806463667542" flag="0"/>
		</comp>
		<comp name="00.HNZ" depth="0.0">
			<acc value="0.00776477962431916" flag="0"/>
			<vel value="0.00377367553234566" flag="0"/>
			<psa03 value="0.0365096406005098" flag="0"/>
			<psa10 value="0.0031610368975809" flag="0"/>
			<psa30 value="0.00110200054900803" flag="0"/>
		</comp>
	</station>
	<station code="UKOP" name="UKOP" netid="KO" source="Bogazici University Kandilli Observatory And Earthquake Research Institute (KOERI)" insttype="" lat="41.1288" lon="26.6323">
		<comp name="--.HNE" depth="0.0">
			<acc value="0.15914013162337" flag="0"/>
			<vel value="0.100008945642575" flag="0"/>
			<psa03 value="0.278699205025215" flag="0"/>
			<psa10 value="0.115979853151752" flag="0"/>
			<psa30 value="0.0223890001917832" flag="0"/>
		</comp>
		<comp name="--.HNN" depth="0.0">
			<acc value="0.128001514681361" flag="0"/>
			<vel value="0.106399976962741" flag="0"/>
			<psa03 value="0.306170919888834" flag="0"/>
			<psa10 value="0.118714049398194" flag="0"/>
			<psa30 value="0.0239071032623411" flag="0"/>
		</comp>
		<comp name="--.HNZ" depth="0.0">
			<acc value="0.0684234426818781" flag="0"/>
			<vel value="0.0511548742345821" flag="0"/>
			<psa03 value="0.167022657306008" flag="0"/>
			<psa10 value="0.0469967664097665" flag="0"/>
			<psa30 value="0.00828580924363775" flag="0"/>
		</comp>
	</station>
	<station code="COPA" name="COPA" netid="RO" source="Romanian Seismic Network (NIEP)" insttype="" lat="44.1343" lon="25.2172">
		<comp name="--.HNE" depth="0.0">
			<acc value="0.0299870773864027" flag="0"/>
			<vel value="0.0204487153593305" flag="0"/>
			<psa03 value="0.0946297669976448" flag="0"/>
			<psa10 value="0.029923140364234" flag="0"/>
			<psa30 value="0.00655025904891498" flag="0"/>
		</comp>
		<comp name="--.HNN" depth="0.0">
			<acc value="0.0356974546870743" flag="0"/>
			<vel value="0.032663965893816" flag="0"/>
			<psa03 value="0.0702452643906867" flag="0"/>
			<psa10 value="0.0419672949638065" flag="0"/>
			<psa30 value="0.0138732160061275" flag="0"/>
		</comp>
		<comp name="--.HNZ" depth="0.0">
			<acc value="0.011685904874947" flag="0"/>
			<vel value="0.0101124061483563" flag="0"/>
			<psa03 value="0.0304694427070431" flag="0"/>
			<psa10 value="0.010997186964705" flag="0"/>
			<psa30 value="0.00399324194068075" flag="0"/>
		</comp>
	</station>
	<station code="GRISU" name="GRISU" netid="RO" source="Romanian Seismic Network (NIEP)" insttype="" lat="43.8898" lon="25.9518">
		<comp name="--.HNE" depth="0.0">
			<acc value="0.109159771635529" flag="0"/>
			<vel value="0.0489882466776751" flag="0"/>
			<psa03 value="0.503752504315122" flag="0"/>
			<psa10 value="0.0169326880946849" flag="0"/>
			<psa30 value="0.0026303943270882" flag="0"/>
		</comp>
		<comp name="--.HNN" depth="0.0">
			<acc value="0.0782256602976195" flag="0"/>
			<vel value="0.036192952423092" flag="0"/>
			<psa03 value="0.438070944999499" flag="0"/>
			<psa10 value="0.0151608967126014" flag="0"/>
			<psa30 value="0.0018975169826809" flag="0"/>
		</comp>
		<comp name="--.HNZ" depth="0.0">
			<acc value="0.0181345519629386" flag="0"/>
			<vel value="0.0090969446793941" flag="0"/>
			<psa03 value="0.0299325362276238" flag="0"/>
			<psa10 value="0.00752205977666385" flag="0"/>
			<psa30 value="0.00230019684224535" flag="0"/>
		</comp>
	</station>
	<station code="TRISU" name="TRISU" netid="RO" source="Romanian Seismic Network (NIEP)" insttype="" lat="43.9719" lon="25.3296">
		<comp name="--.HNE" depth="0.0">
			<acc value="0.091101801032083" flag="0"/>
			<vel value="0.0527193032307227" flag="0"/>
			<psa03 value="0.236149366531238" flag="0"/>
			<psa10 value="0.0444316957043409" flag="0"/>
			<psa30 value="0.00597711138213492" flag="0"/>
		</comp>
		<comp name="--.HNN" depth="0.0">
			<acc value="0.0642094266866364" flag="0"/>
			<vel value="0.038405632627497" flag="0"/>
			<psa03 value="0.178834599853232" flag="0"/>
			<psa10 value="0.0429659410155264" flag="0"/>
			<psa30 value="0.0101757200511935" flag="0"/>
		</comp>
		<comp name="--.HNZ" depth="0.0">
			<acc value="0.0317274120788344" flag="0"/>
			<vel value="0.0191185991269001" flag="0"/>
			<psa03 value="0.0666658878612249" flag="0"/>
			<psa10 value="0.0187165598725554" flag="0"/>
			<psa30 value="0.00254672640071203" flag="0"/>
		</comp>
	</station>
	<station code="VLAD" name="VLAD" netid="RO" source="Romanian Seismic Network (NIEP)" insttype="" lat="43.9986" lon="24.4038">
		<comp name="--.HNE" depth="0.0">
			<acc value="0.0573168954732339" flag="0"/>
			<vel value="0.0387848191174556" flag="0"/>
			<psa03 value="0.187335619110704" flag="0"/>
			<psa10 value="0.0355083100163928" flag="0"/>
			<psa30 value="0.00804688586029617" flag="0"/>
		</comp>
		<comp name="--.HNN" depth="0.0">
			<acc value="0.0771837455503152" flag="0"/>
			<vel value="0.0403152541091942" flag="0"/>
			<psa03 value="0.289661045646691" flag="0"/>
			<psa10 value="0.0349485850115982" flag="0"/>
			<psa30 value="0.00840124413671288" flag="0"/>
		</comp>
		<comp name="--.HNZ" depth="0.0">
			<acc value="0.021963151274173" flag="0"/>
			<vel value="0.0148087265833989" flag="0"/>
			<psa03 value="0.0527958038095607" flag="0"/>
			<psa10 value="0.0170897332399151" flag="0"/>
			<psa30 value="0.0096486568572303" flag="0"/>
		</comp>
	</station>
</stationlist>
