<?xml version="1.0" encoding="UTF-8" standalone="yes"?>
<!DOCTYPE earthquake SYSTEM "stationlist.dtd">
<stationlist created="" xmlns="ch.ethz.sed.shakemap.usgs.xml">
  <station code="IMMV" name="IMMV" netid="GE" insttype="STS-2/N" lat="35.4606" lon="23.9811">
    <comp name="--.HHZ">
      <acc value="0.0021031917" flag="0"/>
      <vel value="0.0014434814" flag="0"/>
      <psa03 value="0.0075820033" flag="0"/>
      <psa10 value="0.0022306515" flag="0"/>
      <psa30 value="0.0001762384" flag="0"/>
    </comp>
    <comp name="--.HHE">
      <acc value="0.0031011048" flag="0"/>
      <vel value="0.0024307967" flag="0"/>
      <psa03 value="0.0138396238" flag="0"/>
      <psa10 value="0.0040991424" flag="0"/>
      <psa30 value="0.0003202132" flag="0"/>
    </comp>
    <comp name="--.HHN">
      <acc value="0.0033226702" flag="0"/>
      <vel value="0.0027899115" flag="0"/>
      <psa03 value="0.0116254814" flag="0"/>
      <psa10 value="0.0036836428" flag="0"/>
      <psa30 value="0.0002168129" flag="0"/>
    </comp>
  </station>
</stationlist>
