<?xml version="1.0" encoding="UTF-8" standalone="yes"?>
<!DOCTYPE earthquake SYSTEM "stationlist.dtd">
<stationlist created="" xmlns="ch.ethz.sed.shakemap.usgs.xml">
  <station code="KARP" name="KARP" netid="GE" insttype="STS-2/N" lat="35.5471" lon="27.1611">
    <comp name="--.HHE">
      <acc value="0.2098589032" flag="0"/>
      <vel value="0.0445424122" flag="0"/>
      <psa03 value="0.1087070771" flag="0"/>
      <psa10 value="0.0334720857" flag="0"/>
      <psa30 value="0.0020142250" flag="0"/>
    </comp>
    <comp name="--.HHN">
      <acc value="0.1575907165" flag="0"/>
      <vel value="0.0275295773" flag="0"/>
      <psa03 value="0.1126773254" flag="0"/>
      <psa10 value="0.0200645604" flag="0"/>
      <psa30 value="0.0011029795" flag="0"/>
    </comp>
    <comp name="--.HHZ">
      <acc value="0.1452485915" flag="0"/>
      <vel value="0.0205338046" flag="0"/>
      <psa03 value="0.0764307266" flag="0"/>
      <psa10 value="0.0148668440" flag="0"/>
      <psa30 value="0.0013753516" flag="0"/>
    </comp>
  </station>
  <station code="ZKR" name="ZKR" netid="GE" insttype="STS-2/N" lat="35.1147" lon="26.2169">
    <comp name="--.HHZ">
      <acc value="0.0248079301" flag="0"/>
      <vel value="0.0067978992" flag="0"/>
      <psa03 value="0.0228417656" flag="0"/>
      <psa10 value="0.0100133827" flag="0"/>
      <psa30 value="0.0003379875" flag="0"/>
    </comp>
    <comp name="--.HHE">
      <acc value="0.0297663497" flag="0"/>
      <vel value="0.0143102228" flag="0"/>
      <psa03 value="0.0598479229" flag="0"/>
      <psa10 value="0.0089802167" flag="0"/>
      <psa30 value="0.0006985896" flag="0"/>
    </comp>
    <comp name="--.HHN">
      <acc value="0.0142977279" flag="0"/>
      <vel value="0.0053539786" flag="0"/>
      <psa03 value="0.0202912084" flag="0"/>
      <psa10 value="0.0056601171" flag="0"/>
      <psa30 value="0.0004920624" flag="0"/>
    </comp>
  </station>
  <station code="SIT2" name="SIT2" netid="HI" insttype="CMG-5TD,ACCELEROMETER,GURALP" lat="35.2059" lon="26.107">
    <comp name="--.HNE">
      <acc value="0.0653856337" flag="0"/>
      <vel value="0.0377005012" flag="0"/>
      <psa03 value="0.1833186414" flag="0"/>
      <psa10 value="0.0284510766" flag="0"/>
      <psa30 value="0.0016464429" flag="0"/>
    </comp>
    <comp name="--.HNN">
      <acc value="0.0650747202" flag="0"/>
      <vel value="0.0462547362" flag="0"/>
      <psa03 value="0.1725462116" flag="0"/>
      <psa10 value="0.0248354419" flag="0"/>
      <psa30 value="0.0022577447" flag="0"/>
    </comp>
    <comp name="--.HNZ">
      <acc value="0.0446245009" flag="0"/>
      <vel value="0.0149028463" flag="0"/>
      <psa03 value="0.0837530973" flag="0"/>
      <psa10 value="0.0066511920" flag="0"/>
      <psa30 value="0.0006654454" flag="0"/>
    </comp>
  </station>
  <station code="KARP" name="KARP" netid="HL" insttype="120" lat="35.5471" lon="27.1611">
    <comp name="--.HHE">
      <acc value="0.1728183519" flag="0"/>
      <vel value="0.0435414324" flag="0"/>
      <psa03 value="0.1059007375" flag="0"/>
      <psa10 value="0.0333376721" flag="0"/>
      <psa30 value="0.0019832918" flag="0"/>
    </comp>
    <comp name="--.HHN">
      <acc value="0.1417589721" flag="0"/>
      <vel value="0.0267723546" flag="0"/>
      <psa03 value="0.1096532947" flag="0"/>
      <psa10 value="0.0199071055" flag="0"/>
      <psa30 value="0.0010963870" flag="0"/>
    </comp>
    <comp name="--.HHZ">
      <acc value="0.1160560518" flag="0"/>
      <vel value="0.0191083916" flag="0"/>
      <psa03 value="0.0745961873" flag="0"/>
      <psa10 value="0.0147475896" flag="0"/>
      <psa30 value="0.0013673212" flag="0"/>
    </comp>
  </station>
  <station code="NPS" name="NPS" netid="HL" insttype="CMG3ESPC-120s" lat="35.2613" lon="25.6104">
    <comp name="--.HHN">
      <acc value="0.0235763166" flag="0"/>
      <vel value="0.0106833461" flag="0"/>
      <psa03 value="0.0516388037" flag="0"/>
      <psa10 value="0.0126160820" flag="0"/>
      <psa30 value="0.0007413786" flag="0"/>
    </comp>
    <comp name="--.HHE">
      <acc value="0.0143356400" flag="0"/>
      <vel value="0.0056360981" flag="0"/>
      <psa03 value="0.0274864694" flag="0"/>
      <psa10 value="0.0039266692" flag="0"/>
      <psa30 value="0.0002216881" flag="0"/>
    </comp>
    <comp name="--.HHZ">
      <acc value="0.0224889442" flag="0"/>
      <vel value="0.0060478241" flag="0"/>
      <psa03 value="0.0218554633" flag="0"/>
      <psa10 value="0.0027991147" flag="0"/>
      <psa30 value="0.0004189682" flag="0"/>
    </comp>
  </station>
  <station code="ZKR" name="ZKR" netid="HL" insttype="120" lat="35.1147" lon="26.2169">
    <comp name="--.HHN">
      <acc value="0.0138248738" flag="0"/>
      <vel value="0.0052461407" flag="0"/>
      <psa03 value="0.0197979825" flag="0"/>
      <psa10 value="0.0056101127" flag="0"/>
      <psa30 value="0.0004893341" flag="0"/>
    </comp>
    <comp name="--.HHZ">
      <acc value="0.0244075640" flag="0"/>
      <vel value="0.0066537788" flag="0"/>
      <psa03 value="0.0222466404" flag="0"/>
      <psa10 value="0.0099498959" flag="0"/>
      <psa30 value="0.0003344974" flag="0"/>
    </comp>
    <comp name="--.HHE">
      <acc value="0.0290917002" flag="0"/>
      <vel value="0.0139361743" flag="0"/>
      <psa03 value="0.0582627572" flag="0"/>
      <psa10 value="0.0088971582" flag="0"/>
      <psa30 value="0.0006960306" flag="0"/>
    </comp>
  </station>
</stationlist>
