<stationlist created="1778069591">
	<station code="KARP" name="KARP" netid="GE" source="GEOFON" insttype="" lat="35.5471" lon="27.16106">
		<comp name="--.HNE" depth="0.0">
			<acc value="0.148052986162025" flag="0"/>
			<vel value="0.0383069763140219" flag="0"/>
			<psa03 value="0.0911398748814196" flag="0"/>
			<psa10 value="0.0299311939614253" flag="0"/>
			<psa30 value="0.00164696062561858" flag="0"/>
		</comp>
		<comp name="--.HNN" depth="0.0">
			<acc value="0.113109906119866" flag="0"/>
			<vel value="0.0232836064576105" flag="0"/>
			<psa03 value="0.0981644013204882" flag="0"/>
			<psa10 value="0.017589056265775" flag="0"/>
			<psa30 value="0.00118164167678856" flag="0"/>
		</comp>
		<comp name="--.HNZ" depth="0.0">
			<acc value="0.114912288763918" flag="0"/>
			<vel value="0.0182714068970093" flag="0"/>
			<psa03 value="0.0631759957449997" flag="0"/>
			<psa10 value="0.0122736821195243" flag="0"/>
			<psa30 value="0.00120624989042861" flag="0"/>
		</comp>
	</station>
	<station code="KSS1" name="KSS1" netid="HI" source="ITSAK Strong Motion Network" insttype="" lat="35.4189" lon="26.9207">
		<comp name="--.HNE" depth="0.0">
			<acc value="0.305439416126885" flag="0"/>
			<vel value="0.0528363629731848" flag="0"/>
			<psa03 value="0.233822771787088" flag="0"/>
			<psa10 value="0.0471175703676358" flag="0"/>
			<psa30 value="0.00224605877223724" flag="0"/>
		</comp>
		<comp name="--.HNN" depth="0.0">
			<acc value="0.290863898640631" flag="0"/>
			<vel value="0.0624883464722583" flag="0"/>
			<psa03 value="0.285455278224574" flag="0"/>
			<psa10 value="0.0270480061669438" flag="0"/>
			<psa30 value="0.00239773485267318" flag="0"/>
		</comp>
		<comp name="--.HNZ" depth="0.0">
			<acc value="0.225103566836665" flag="0"/>
			<vel value="0.0414090077583183" flag="0"/>
			<psa03 value="0.0779409239290294" flag="0"/>
			<psa10 value="0.0243218635176925" flag="0"/>
			<psa30 value="0.00147246601980732" flag="0"/>
		</comp>
	</station>
	<station code="SIT2" name="SIT2" netid="HI" source="ITSAK Strong Motion Network" insttype="" lat="35.2059" lon="26.107">
		<comp name="--.HNE" depth="0.0">
			<acc value="0.0654606438067906" flag="0"/>
			<vel value="0.0377194787351205" flag="0"/>
			<psa03 value="0.184695828920226" flag="0"/>
			<psa10 value="0.0284976536613758" flag="0"/>
			<psa30 value="0.00166396266413353" flag="0"/>
		</comp>
		<comp name="--.HNN" depth="0.0">
			<acc value="0.0649500863644956" flag="0"/>
			<vel value="0.0464512603968446" flag="0"/>
			<psa03 value="0.170065127356051" flag="0"/>
			<psa10 value="0.024893668918274" flag="0"/>
			<psa30 value="0.00231943599109121" flag="0"/>
		</comp>
		<comp name="--.HNZ" depth="0.0">
			<acc value="0.044820276773483" flag="0"/>
			<vel value="0.0150319549196384" flag="0"/>
			<psa03 value="0.0848759659548615" flag="0"/>
			<psa10 value="0.00668045887017416" flag="0"/>
			<psa30 value="0.000727955701679281" flag="0"/>
		</comp>
	</station>
	<station code="IACM" name="IACM" netid="HL" source="National Observatory of Athens Seismic Network" insttype="" lat="35.3058" lon="25.0709">
		<comp name="--.HNE" depth="0.0">
			<acc value="0.0455941583182513" flag="0"/>
			<vel value="0.0231255179619696" flag="0"/>
			<psa03 value="0.130020852432698" flag="0"/>
			<psa10 value="0.026105735295563" flag="0"/>
			<psa30 value="0.00120848700075952" flag="0"/>
		</comp>
		<comp name="--.HNN" depth="0.0">
			<acc value="0.0354017120999106" flag="0"/>
			<vel value="0.0209205475607909" flag="0"/>
			<psa03 value="0.11959591829064" flag="0"/>
			<psa10 value="0.0245554178362399" flag="0"/>
			<psa30 value="0.00114405822322921" flag="0"/>
		</comp>
		<comp name="--.HNZ" depth="0.0">
			<acc value="0.0223307571720029" flag="0"/>
			<vel value="0.0104865116849498" flag="0"/>
			<psa03 value="0.0629522847119084" flag="0"/>
			<psa10 value="0.0112549020748263" flag="0"/>
			<psa30 value="0.000507824045117384" flag="0"/>
		</comp>
	</station>
	<station code="KARP" name="KARP" netid="HL" source="National Observatory of Athens Seismic Network" insttype="" lat="35.5471" lon="27.16106">
		<comp name="--.HNE" depth="0.0">
			<acc value="0.145131046984948" flag="0"/>
			<vel value="0.0376643744050131" flag="0"/>
			<psa03 value="0.0893054444100704" flag="0"/>
			<psa10 value="0.0293231473734829" flag="0"/>
			<psa30 value="0.00161340397065488" flag="0"/>
		</comp>
		<comp name="--.HNN" depth="0.0">
			<acc value="0.110913148017455" flag="0"/>
			<vel value="0.0229155509545134" flag="0"/>
			<psa03 value="0.096151002022666" flag="0"/>
			<psa10 value="0.0172306711907626" flag="0"/>
			<psa30 value="0.00115748088521469" flag="0"/>
		</comp>
		<comp name="--.HNZ" depth="0.0">
			<acc value="0.112696410095421" flag="0"/>
			<vel value="0.0178272366914575" flag="0"/>
			<psa03 value="0.0618784717530698" flag="0"/>
			<psa10 value="0.0120240206065944" flag="0"/>
			<psa30 value="0.00118164167678856" flag="0"/>
		</comp>
	</station>
	<station code="SIVA" name="SIVA" netid="HL" source="National Observatory of Athens Seismic Network" insttype="" lat="35.01777" lon="24.81204">
		<comp name="00.HNE" depth="0.0">
			<acc value="0.00656063355430526" flag="0"/>
			<vel value="0.0031734813760081" flag="0"/>
			<psa03 value="0.0121698802001699" flag="0"/>
			<psa10 value="0.00530329375046375" flag="0"/>
			<psa30 value="0.000427735495270678" flag="0"/>
		</comp>
		<comp name="00.HNN" depth="0.0">
			<acc value="0.00589507793260697" flag="0"/>
			<vel value="0.0041299877275304" flag="0"/>
			<psa03 value="0.0183443047134914" flag="0"/>
			<psa10 value="0.00504557864034251" flag="0"/>
			<psa30 value="0.000271137772106727" flag="0"/>
		</comp>
		<comp name="00.HNZ" depth="0.0">
			<acc value="0.00331831328138483" flag="0"/>
			<vel value="0.00221544425864847" flag="0"/>
			<psa03 value="0.00751669071186965" flag="0"/>
			<psa10 value="0.00208588167254383" flag="0"/>
			<psa30 value="0.000325275842114836" flag="0"/>
		</comp>
	</station>
	<station code="THRA" name="THRA" netid="HL" source="National Observatory of Athens Seismic Network" insttype="" lat="36.41502" lon="25.43244">
		<comp name="00.HNE" depth="0.0">
			<acc value="0.012541648872592" flag="0"/>
			<vel value="0.0101719701191589" flag="0"/>
			<psa03 value="0.035570054261526" flag="0"/>
			<psa10 value="0.0186561578936208" flag="0"/>
			<psa30 value="0.00146396500054985" flag="0"/>
		</comp>
		<comp name="00.HNN" depth="0.0">
			<acc value="0.012507215960841" flag="0"/>
			<vel value="0.00810279886694555" flag="0"/>
			<psa03 value="0.0270690350040544" flag="0"/>
			<psa10 value="0.0119515382318728" flag="0"/>
			<psa30 value="0.00095658837749865" flag="0"/>
		</comp>
		<comp name="00.HNZ" depth="0.0">
			<acc value="0.0104815004502023" flag="0"/>
			<vel value="0.00586483374731658" flag="0"/>
			<psa03 value="0.0261294486650707" flag="0"/>
			<psa10 value="0.00763481013734189" flag="0"/>
			<psa30 value="0.000442500423454708" flag="0"/>
		</comp>
	</station>
</stationlist>
