<?xml version="1.0" encoding="UTF-8" standalone="yes"?>
<!DOCTYPE earthquake SYSTEM "stationlist.dtd">
<stationlist created="" xmlns="ch.ethz.sed.shakemap.usgs.xml">
  <station code="KARP" name="KARP" netid="GE" insttype="STS-2/N" lat="35.5471" lon="27.1611">
    <comp name="--.HHN">
      <acc value="0.2578752150" flag="0"/>
      <vel value="0.0520172596" flag="0"/>
      <psa03 value="0.1466779435" flag="0"/>
      <psa10 value="0.0279840625" flag="0"/>
      <psa30 value="0.0021322994" flag="0"/>
    </comp>
    <comp name="--.HHE">
      <acc value="0.3262664765" flag="0"/>
      <vel value="0.0737046646" flag="0"/>
      <psa03 value="0.2819088789" flag="0"/>
      <psa10 value="0.0660112353" flag="0"/>
      <psa30 value="0.0022611376" flag="0"/>
    </comp>
    <comp name="--.HHZ">
      <acc value="0.1493244098" flag="0"/>
      <vel value="0.0269187840" flag="0"/>
      <psa03 value="0.1006476625" flag="0"/>
      <psa10 value="0.0278112614" flag="0"/>
      <psa30 value="0.0016238708" flag="0"/>
    </comp>
  </station>
  <station code="ARG" name="ARG" netid="HL" insttype="LE3D20_DR24" lat="36.2136" lon="28.1212">
    <comp name="--.HHN">
      <acc value="0.2192471691" flag="0"/>
      <vel value="0.0775403914" flag="0"/>
      <psa03 value="0.3182544587" flag="0"/>
      <psa10 value="0.0352164189" flag="0"/>
      <psa30 value="0.0047626298" flag="0"/>
    </comp>
    <comp name="--.HHE">
      <acc value="0.2306773610" flag="0"/>
      <vel value="0.0695262367" flag="0"/>
      <psa03 value="0.2989744318" flag="0"/>
      <psa10 value="0.0488096204" flag="0"/>
      <psa30 value="0.0057278208" flag="0"/>
    </comp>
    <comp name="--.HHZ">
      <acc value="0.1261362195" flag="0"/>
      <vel value="0.0436994504" flag="0"/>
      <psa03 value="0.1554111657" flag="0"/>
      <psa10 value="0.0603663235" flag="0"/>
      <psa30 value="0.0029293348" flag="0"/>
    </comp>
  </station>
  <station code="KARP" name="KARP" netid="HL" insttype="120" lat="35.5471" lon="27.1611">
    <comp name="--.HHE">
      <acc value="0.2788559628" flag="0"/>
      <vel value="0.0716719487" flag="0"/>
      <psa03 value="0.2734313228" flag="0"/>
      <psa10 value="0.0655698614" flag="0"/>
      <psa30 value="0.0022468109" flag="0"/>
    </comp>
    <comp name="--.HHN">
      <acc value="0.2495807340" flag="0"/>
      <vel value="0.0500850106" flag="0"/>
      <psa03 value="0.1413402326" flag="0"/>
      <psa10 value="0.0277496680" flag="0"/>
      <psa30 value="0.0021206193" flag="0"/>
    </comp>
    <comp name="--.HHZ">
      <acc value="0.1292892251" flag="0"/>
      <vel value="0.0254563012" flag="0"/>
      <psa03 value="0.0972610013" flag="0"/>
      <psa10 value="0.0274451917" flag="0"/>
      <psa30 value="0.0016037485" flag="0"/>
    </comp>
  </station>
  <station code="NISR" name="NISR" netid="HL" insttype="65535" lat="36.6106" lon="27.131">
    <comp name="--.HHN">
      <acc value="0.0953732764" flag="0"/>
      <vel value="0.0300206993" flag="0"/>
      <psa03 value="0.1473557860" flag="0"/>
      <psa10 value="0.0268144649" flag="0"/>
      <psa30 value="0.0031802226" flag="0"/>
    </comp>
    <comp name="--.HHE">
      <acc value="0.1545736163" flag="0"/>
      <vel value="0.0568164804" flag="0"/>
      <psa03 value="0.4010703577" flag="0"/>
      <psa10 value="0.0368851129" flag="0"/>
      <psa30 value="0.0037513947" flag="0"/>
    </comp>
    <comp name="--.HHZ">
      <acc value="0.0483741155" flag="0"/>
      <vel value="0.0186907198" flag="0"/>
      <psa03 value="0.0832563082" flag="0"/>
      <psa10 value="0.0264578914" flag="0"/>
      <psa30 value="0.0013195123" flag="0"/>
    </comp>
  </station>
  <station code="NISR2" name="NISR2" netid="HL" insttype="120" lat="36.5744" lon="27.1767">
    <comp name="--.HHN">
      <acc value="0.6786533370" flag="0"/>
      <vel value="0.3950758619" flag="0"/>
      <psa03 value="1.9379755183" flag="0"/>
      <psa10 value="0.2834755069" flag="0"/>
      <psa30 value="0.0133647726" flag="0"/>
    </comp>
    <comp name="--.HHZ">
      <acc value="0.2247781647" flag="0"/>
      <vel value="0.0855871864" flag="0"/>
      <psa03 value="0.5768920700" flag="0"/>
      <psa10 value="0.0483727867" flag="0"/>
      <psa30 value="0.0035975639" flag="0"/>
    </comp>
    <comp name="--.HHE">
      <acc value="0.3938718742" flag="0"/>
      <vel value="0.2309484959" flag="0"/>
      <psa03 value="1.3008426935" flag="0"/>
      <psa10 value="0.2582914995" flag="0"/>
      <psa30 value="0.0098915631" flag="0"/>
    </comp>
  </station>
  <station code="RODB" name="RODB" netid="HL" insttype="CMG-5" lat="36.4471" lon="28.2212">
    <comp name="00.HNE">
      <acc value="0.1082070229" flag="0"/>
      <vel value="0.0752016410" flag="0"/>
      <psa03 value="0.3293354900" flag="0"/>
      <psa10 value="0.0688572893" flag="0"/>
      <psa30 value="0.0071885811" flag="0"/>
    </comp>
    <comp name="00.HNN">
      <acc value="0.0915979219" flag="0"/>
      <vel value="0.0683346286" flag="0"/>
      <psa03 value="0.3915269072" flag="0"/>
      <psa10 value="0.0519194220" flag="0"/>
      <psa30 value="0.0055980814" flag="0"/>
    </comp>
    <comp name="00.HNZ">
      <acc value="0.0777367469" flag="0"/>
      <vel value="0.0305090086" flag="0"/>
      <psa03 value="0.1235469619" flag="0"/>
      <psa10 value="0.0341188517" flag="0"/>
      <psa30 value="0.0029251705" flag="0"/>
    </comp>
  </station>
  <station code="DATC" name="DATC" netid="KO" insttype="CMG-5T" lat="36.7584" lon="27.6602">
    <comp name="--.HNE">
      <acc value="0.2847458131" flag="0"/>
      <vel value="0.1749797560" flag="0"/>
      <psa03 value="0.7989956242" flag="0"/>
      <psa10 value="0.1161118648" flag="0"/>
      <psa30 value="0.0072278705" flag="0"/>
    </comp>
    <comp name="--.HNN">
      <acc value="0.1959102277" flag="0"/>
      <vel value="0.0832201872" flag="0"/>
      <psa03 value="0.5102113461" flag="0"/>
      <psa10 value="0.1071057888" flag="0"/>
      <psa30 value="0.0054480727" flag="0"/>
    </comp>
    <comp name="--.HNZ">
      <acc value="0.2999906751" flag="0"/>
      <vel value="0.1105489202" flag="0"/>
      <psa03 value="0.3122076970" flag="0"/>
      <psa10 value="0.0463846335" flag="0"/>
      <psa30 value="0.0053957863" flag="0"/>
    </comp>
  </station>
  <station code="YKAV" name="YKAV" netid="KO" insttype="CMG-5T" lat="37.1246" lon="27.2801">
    <comp name="--.HNZ">
      <acc value="0.0165833516" flag="0"/>
      <vel value="0.0074038726" flag="0"/>
      <psa03 value="0.0375941316" flag="0"/>
      <psa10 value="0.0090498596" flag="0"/>
      <psa30 value="0.0006665597" flag="0"/>
    </comp>
    <comp name="--.HNN">
      <acc value="0.0232047251" flag="0"/>
      <vel value="0.0100863122" flag="0"/>
      <psa03 value="0.0637606222" flag="0"/>
      <psa10 value="0.0070901771" flag="0"/>
      <psa30 value="0.0008754260" flag="0"/>
    </comp>
    <comp name="--.HNE">
      <acc value="0.0285474294" flag="0"/>
      <vel value="0.0118913791" flag="0"/>
      <psa03 value="0.0932404277" flag="0"/>
      <psa10 value="0.0099905167" flag="0"/>
      <psa30 value="0.0010775721" flag="0"/>
    </comp>
  </station>
</stationlist>
