<stationlist created="1778138959">
	<station code="KSS1" name="KSS1" netid="HI" source="ITSAK Strong Motion Network" insttype="" lat="35.4189" lon="26.9207">
		<comp name="--.HNE" depth="0.0">
			<acc value="0.062023539632589" flag="0"/>
			<vel value="0.0192111678239714" flag="0"/>
			<psa03 value="0.13499431771101" flag="0"/>
			<psa10 value="0.0163722027030687" flag="0"/>
			<psa30 value="0.00157553239212143" flag="0"/>
		</comp>
		<comp name="--.HNN" depth="0.0">
			<acc value="0.0572578201900951" flag="0"/>
			<vel value="0.0227345375083959" flag="0"/>
			<psa03 value="0.112607084666815" flag="0"/>
			<psa10 value="0.0173894800927036" flag="0"/>
			<psa30 value="0.00167781937646668" flag="0"/>
		</comp>
		<comp name="--.HNZ" depth="0.0">
			<acc value="0.0440471409330957" flag="0"/>
			<vel value="0.0154385140213967" flag="0"/>
			<psa03 value="0.0441150578227473" flag="0"/>
			<psa10 value="0.013160534945841" flag="0"/>
			<psa30 value="0.000743018440075502" flag="0"/>
		</comp>
	</station>
	<station code="SIT2" name="SIT2" netid="HI" source="ITSAK Strong Motion Network" insttype="" lat="35.2059" lon="26.107">
		<comp name="--.HNE" depth="0.0">
			<acc value="0.0982208853692135" flag="0"/>
			<vel value="0.0698200126028243" flag="0"/>
			<psa03 value="0.299554260666179" flag="0"/>
			<psa10 value="0.0445618995071643" flag="0"/>
			<psa30 value="0.00325374471128625" flag="0"/>
		</comp>
		<comp name="--.HNN" depth="0.0">
			<acc value="0.068417638856005" flag="0"/>
			<vel value="0.0506069510903884" flag="0"/>
			<psa03 value="0.228852743704416" flag="0"/>
			<psa10 value="0.0338444882812393" flag="0"/>
			<psa30 value="0.00250597225836338" flag="0"/>
		</comp>
		<comp name="--.HNZ" depth="0.0">
			<acc value="0.0397071203330943" flag="0"/>
			<vel value="0.0172810244563101" flag="0"/>
			<psa03 value="0.114843441147475" flag="0"/>
			<psa10 value="0.0106279940524622" flag="0"/>
			<psa30 value="0.000847406449017071" flag="0"/>
		</comp>
	</station>
	<station code="KARP" name="KARP" netid="HL" source="National Observatory of Athens Seismic Network" insttype="" lat="35.5471" lon="27.16106">
		<comp name="--.HNE" depth="0.0">
			<acc value="0.262909949250416" flag="0"/>
			<vel value="0.0719218573765378" flag="0"/>
			<psa03 value="0.284600457550373" flag="0"/>
			<psa10 value="0.0643789697906997" flag="0"/>
			<psa30 value="0.00233449277369123" flag="0"/>
		</comp>
		<comp name="--.HNN" depth="0.0">
			<acc value="0.216998926143846" flag="0"/>
			<vel value="0.0504151516370986" flag="0"/>
			<psa03 value="0.137247185702582" flag="0"/>
			<psa10 value="0.0298786643148733" flag="0"/>
			<psa30 value="0.002453973397029" flag="0"/>
		</comp>
		<comp name="--.HNZ" depth="0.0">
			<acc value="0.132022375791419" flag="0"/>
			<vel value="0.026179559362677" flag="0"/>
			<psa03 value="0.0979510096071128" flag="0"/>
			<psa10 value="0.0271189296209912" flag="0"/>
			<psa30 value="0.00155030311664056" flag="0"/>
		</comp>
	</station>
	<station code="KLNA" name="KLNA" netid="HL" source="National Observatory of Athens Seismic Network" insttype="" lat="36.95708" lon="26.97274">
		<comp name="00.HNE" depth="0.0">
			<acc value="0.0272756367148486" flag="0"/>
			<vel value="0.011563405705047" flag="0"/>
			<psa03 value="0.0871663212158815" flag="0"/>
			<psa10 value="0.00446181354198686" flag="0"/>
			<psa30 value="0.000606688835991787" flag="0"/>
		</comp>
		<comp name="00.HNN" depth="0.0">
			<acc value="0.0354554985260977" flag="0"/>
			<vel value="0.0120788658622372" flag="0"/>
			<psa03 value="0.0748976699364673" flag="0"/>
			<psa10 value="0.00455299802001164" flag="0"/>
			<psa30 value="0.000585372059274055" flag="0"/>
		</comp>
		<comp name="00.HNZ" depth="0.0">
			<acc value="0.0356751947413583" flag="0"/>
			<vel value="0.0100265202763535" flag="0"/>
			<psa03 value="0.0364433074194105" flag="0"/>
			<psa10 value="0.00324623121876253" flag="0"/>
			<psa30 value="0.000471642806519337" flag="0"/>
		</comp>
	</station>
	<station code="NISR" name="NISR" netid="HL" source="National Observatory of Athens Seismic Network" insttype="" lat="36.6106" lon="27.131">
		<comp name="--.HNE" depth="0.0">
			<acc value="0.138786011157009" flag="0"/>
			<vel value="0.0528951845702421" flag="0"/>
			<psa03 value="0.377085271715444" flag="0"/>
			<psa10 value="0.0371264656961412" flag="0"/>
			<psa30 value="0.00413746742024573" flag="0"/>
		</comp>
		<comp name="--.HNN" depth="0.0">
			<acc value="0.0902438950471953" flag="0"/>
			<vel value="0.0301198589794016" flag="0"/>
			<psa03 value="0.147332999671639" flag="0"/>
			<psa10 value="0.0281887067384672" flag="0"/>
			<psa30 value="0.00368048464737743" flag="0"/>
		</comp>
		<comp name="--.HNZ" depth="0.0">
			<acc value="0.0414177937850712" flag="0"/>
			<vel value="0.0181529198115792" flag="0"/>
			<psa03 value="0.0798419453871013" flag="0"/>
			<psa10 value="0.0266433868686135" flag="0"/>
			<psa30 value="0.00150573506005942" flag="0"/>
		</comp>
	</station>
	<station code="RODB" name="RODB" netid="HL" source="National Observatory of Athens Seismic Network" insttype="" lat="36.4471" lon="28.22116">
		<comp name="00.HNE" depth="0.0">
			<acc value="0.108491663002728" flag="0"/>
			<vel value="0.074892696507165" flag="0"/>
			<psa03 value="0.33015824636343" flag="0"/>
			<psa10 value="0.0689493525560753" flag="0"/>
			<psa30 value="0.00841241144764095" flag="0"/>
		</comp>
		<comp name="00.HNN" depth="0.0">
			<acc value="0.0916030453045247" flag="0"/>
			<vel value="0.0702390033939515" flag="0"/>
			<psa03 value="0.390738134483705" flag="0"/>
			<psa10 value="0.0519302263725213" flag="0"/>
			<psa30 value="0.00616791401072089" flag="0"/>
		</comp>
		<comp name="00.HNZ" depth="0.0">
			<acc value="0.0774602174635378" flag="0"/>
			<vel value="0.0302642977053299" flag="0"/>
			<psa03 value="0.123709934759557" flag="0"/>
			<psa10 value="0.034139704087833" flag="0"/>
			<psa30 value="0.00305807487411936" flag="0"/>
		</comp>
	</station>
	<station code="SMG" name="SMG" netid="HL" source="National Observatory of Athens Seismic Network" insttype="" lat="37.70425" lon="26.83772">
		<comp name="00.HNE" depth="0.0">
			<acc value="0.00995277715313746" flag="0"/>
			<vel value="0.00670324106671967" flag="0"/>
			<psa03 value="0.0243289632368997" flag="0"/>
			<psa10 value="0.00485497224308828" flag="0"/>
			<psa30 value="0.000456632645504421" flag="0"/>
		</comp>
		<comp name="00.HNN" depth="0.0">
			<acc value="0.00594356798753272" flag="0"/>
			<vel value="0.00331485959968533" flag="0"/>
			<psa03 value="0.0227370921582723" flag="0"/>
			<psa10 value="0.004005472530399" flag="0"/>
			<psa30 value="0.000253843404421602" flag="0"/>
		</comp>
		<comp name="00.HNZ" depth="0.0">
			<acc value="0.00405955305853455" flag="0"/>
			<vel value="0.00267063033216812" flag="0"/>
			<psa03 value="0.0109825413415255" flag="0"/>
			<psa10 value="0.00340107030421534" flag="0"/>
			<psa30 value="0.000583302130488972" flag="0"/>
		</comp>
	</station>
	<station code="DATC" name="DATC" netid="KO" source="Bogazici University Kandilli Observatory And Earthquake Research Institute (KOERI)" insttype="" lat="36.7584" lon="27.6602">
		<comp name="--.HNE" depth="0.0">
			<acc value="0.281691968381188" flag="0"/>
			<vel value="0.174939926223566" flag="0"/>
			<psa03 value="0.798723494847105" flag="0"/>
			<psa10 value="0.116471413159442" flag="0"/>
			<psa30 value="0.00737777124115542" flag="0"/>
		</comp>
		<comp name="--.HNN" depth="0.0">
			<acc value="0.195759415706409" flag="0"/>
			<vel value="0.0845863265496512" flag="0"/>
			<psa03 value="0.515718038790646" flag="0"/>
			<psa10 value="0.107159628799321" flag="0"/>
			<psa30 value="0.00568264936429683" flag="0"/>
		</comp>
		<comp name="--.HNZ" depth="0.0">
			<acc value="0.303628698637453" flag="0"/>
			<vel value="0.11142513092836" flag="0"/>
			<psa03 value="0.315843652258545" flag="0"/>
			<psa10 value="0.0465656309947066" flag="0"/>
			<psa30 value="0.00543522047333859" flag="0"/>
		</comp>
	</station>
	<station code="DIDI" name="DIDI" netid="KO" source="Bogazici University Kandilli Observatory And Earthquake Research Institute (KOERI)" insttype="" lat="37.3767" lon="27.2398">
		<comp name="--.HNE" depth="0.0">
			<acc value="0.0344000434249869" flag="0"/>
			<vel value="0.0191047455347055" flag="0"/>
			<psa03 value="0.125057763629586" flag="0"/>
			<psa10 value="0.0205624377856004" flag="0"/>
			<psa30 value="0.00255751546451523" flag="0"/>
		</comp>
		<comp name="--.HNN" depth="0.0">
			<acc value="0.0313986496350031" flag="0"/>
			<vel value="0.0166252866739418" flag="0"/>
			<psa03 value="0.117124894366182" flag="0"/>
			<psa10 value="0.0181499123426045" flag="0"/>
			<psa30 value="0.00159560278418717" flag="0"/>
		</comp>
		<comp name="--.HNZ" depth="0.0">
			<acc value="0.0308769916200134" flag="0"/>
			<vel value="0.0092279280489747" flag="0"/>
			<psa03 value="0.0659533013741826" flag="0"/>
			<psa10 value="0.0126281496779395" flag="0"/>
			<psa30 value="0.00094703825746792" flag="0"/>
		</comp>
	</station>
	<station code="FETI" name="FETI" netid="KO" source="Bogazici University Kandilli Observatory And Earthquake Research Institute (KOERI)" insttype="" lat="36.6903" lon="29.096">
		<comp name="--.HNE" depth="0.0">
			<acc value="0.0211188361404371" flag="0"/>
			<vel value="0.0151353911148173" flag="0"/>
			<psa03 value="0.0294473205321268" flag="0"/>
			<psa10 value="0.0327234790198925" flag="0"/>
			<psa30 value="0.00151328733119232" flag="0"/>
		</comp>
		<comp name="--.HNN" depth="0.0">
			<acc value="0.00278070770830838" flag="0"/>
			<vel value="0.00140976614717053" flag="0"/>
			<psa03 value="0.00170049122992682" flag="0"/>
			<psa10 value="0.00104439906912645" flag="0"/>
			<psa30 value="0.000638244259716861" flag="0"/>
		</comp>
		<comp name="--.HNZ" depth="0.0">
			<acc value="0.0150013538254948" flag="0"/>
			<vel value="0.00956224539524256" flag="0"/>
			<psa03 value="0.0383784642599136" flag="0"/>
			<psa10 value="0.0123433145590294" flag="0"/>
			<psa30 value="0.00155326727133257" flag="0"/>
		</comp>
	</station>
	<station code="KUSD" name="KUSD" netid="KO" source="Bogazici University Kandilli Observatory And Earthquake Research Institute (KOERI)" insttype="" lat="37.8606" lon="27.2868">
		<comp name="--.HNE" depth="0.0">
			<acc value="0.00302179365971512" flag="0"/>
			<vel value="0.00354172742003927" flag="0"/>
			<psa03 value="0.00770571945048508" flag="0"/>
			<psa10 value="0.00629347003648493" flag="0"/>
			<psa30 value="0.000854356961537788" flag="0"/>
		</comp>
		<comp name="--.HNN" depth="0.0">
			<acc value="0.00543256473250772" flag="0"/>
			<vel value="0.00335927009625966" flag="0"/>
			<psa03 value="0.010957042256503" flag="0"/>
			<psa10 value="0.00602545525057936" flag="0"/>
			<psa30 value="0.000624988694101471" flag="0"/>
		</comp>
		<comp name="--.HNZ" depth="0.0">
			<acc value="0.00273950966584687" flag="0"/>
			<vel value="0.00167424809123072" flag="0"/>
			<psa03 value="0.0046605144653681" flag="0"/>
			<psa10 value="0.00224485441371308" flag="0"/>
			<psa30 value="0.000691425230610708" flag="0"/>
		</comp>
	</station>
	<station code="YKAV" name="YKAV" netid="KO" source="Bogazici University Kandilli Observatory And Earthquake Research Institute (KOERI)" insttype="" lat="37.1246" lon="27.2801">
		<comp name="--.HNE" depth="0.0">
			<acc value="0.0284056991409589" flag="0"/>
			<vel value="0.0119047542007191" flag="0"/>
			<psa03 value="0.0938131417434556" flag="0"/>
			<psa10 value="0.0100037455115531" flag="0"/>
			<psa30 value="0.00127026102355829" flag="0"/>
		</comp>
		<comp name="--.HNN" depth="0.0">
			<acc value="0.023137050683682" flag="0"/>
			<vel value="0.0101368269658707" flag="0"/>
			<psa03 value="0.0636780100221939" flag="0"/>
			<psa10 value="0.00708292452148935" flag="0"/>
			<psa30 value="0.00102727409353583" flag="0"/>
		</comp>
		<comp name="--.HNZ" depth="0.0">
			<acc value="0.0163296965354639" flag="0"/>
			<vel value="0.00746868425951081" flag="0"/>
			<psa03 value="0.0379618559324605" flag="0"/>
			<psa10 value="0.00904448821545701" flag="0"/>
			<psa30 value="0.00072160795923544" flag="0"/>
		</comp>
	</station>
</stationlist>
