<?xml version="1.0" encoding="UTF-8" standalone="yes"?>
<!DOCTYPE earthquake SYSTEM "stationlist.dtd">
<stationlist created="" xmlns="ch.ethz.sed.shakemap.usgs.xml">
  <station code="KARP" name="KARP" netid="GE" insttype="STS-2/N" lat="35.5471" lon="27.1611">
    <comp name="--.HHN">
      <acc value="0.2578752150" flag="0"/>
      <vel value="0.0520172596" flag="0"/>
      <psa03 value="0.1466779435" flag="0"/>
      <psa10 value="0.0279840625" flag="0"/>
      <psa30 value="0.0021322994" flag="0"/>
    </comp>
    <comp name="--.HHE">
      <acc value="0.3262664765" flag="0"/>
      <vel value="0.0737046646" flag="0"/>
      <psa03 value="0.2819088789" flag="0"/>
      <psa10 value="0.0660112353" flag="0"/>
      <psa30 value="0.0022611376" flag="0"/>
    </comp>
    <comp name="--.HHZ">
      <acc value="0.1493244098" flag="0"/>
      <vel value="0.0269187840" flag="0"/>
      <psa03 value="0.1006476625" flag="0"/>
      <psa10 value="0.0278112614" flag="0"/>
      <psa30 value="0.0016238708" flag="0"/>
    </comp>
  </station>
  <station code="DATC" name="DATC" netid="KO" insttype="CMG-5T" lat="36.7584" lon="27.6602">
    <comp name="--.HNE">
      <acc value="0.2847458131" flag="0"/>
      <vel value="0.1749797560" flag="0"/>
      <psa03 value="0.7989956242" flag="0"/>
      <psa10 value="0.1161118648" flag="0"/>
      <psa30 value="0.0072278705" flag="0"/>
    </comp>
    <comp name="--.HNN">
      <acc value="0.1959102277" flag="0"/>
      <vel value="0.0832201872" flag="0"/>
      <psa03 value="0.5102113461" flag="0"/>
      <psa10 value="0.1071057888" flag="0"/>
      <psa30 value="0.0054480727" flag="0"/>
    </comp>
    <comp name="--.HNZ">
      <acc value="0.2999906751" flag="0"/>
      <vel value="0.1105489202" flag="0"/>
      <psa03 value="0.3122076970" flag="0"/>
      <psa10 value="0.0463846335" flag="0"/>
      <psa30 value="0.0053957863" flag="0"/>
    </comp>
  </station>
  <station code="YKAV" name="YKAV" netid="KO" insttype="CMG-5T" lat="37.1246" lon="27.2801">
    <comp name="--.HNZ">
      <acc value="0.0165833516" flag="0"/>
      <vel value="0.0074038726" flag="0"/>
      <psa03 value="0.0375941316" flag="0"/>
      <psa10 value="0.0090498596" flag="0"/>
      <psa30 value="0.0006665597" flag="0"/>
    </comp>
    <comp name="--.HNN">
      <acc value="0.0232047251" flag="0"/>
      <vel value="0.0100863122" flag="0"/>
      <psa03 value="0.0637606222" flag="0"/>
      <psa10 value="0.0070901771" flag="0"/>
      <psa30 value="0.0008754260" flag="0"/>
    </comp>
    <comp name="--.HNE">
      <acc value="0.0285474294" flag="0"/>
      <vel value="0.0118913791" flag="0"/>
      <psa03 value="0.0932404277" flag="0"/>
      <psa10 value="0.0099905167" flag="0"/>
      <psa30 value="0.0010775721" flag="0"/>
    </comp>
  </station>
</stationlist>
