<stationlist created="1689150659">
	<station code="PRK" name="PRK" netid="HL" source="National Observatory of Athens Seismic Network" insttype="" lat="39.24565" lon="26.26499">
		<comp name=".HNE" depth="0.0">
			<acc value="0.26943553932774" flag="0"/>
			<vel value="0.116566833719" flag="0"/>
			<psa03 value="0.6972559814521" flag="0"/>
			<psa10 value="0.0704930373175811" flag="0"/>
			<psa30 value="0.0037479470330971" flag="0"/>
		</comp>
		<comp name=".HNN" depth="0.0">
			<acc value="0.46159133799696" flag="0"/>
			<vel value="0.162709428004" flag="0"/>
			<psa03 value="0.599995455089126" flag="0"/>
			<psa10 value="0.163896972370024" flag="0"/>
			<psa30 value="0.00930121032619883" flag="0"/>
		</comp>
		<comp name=".HNZ" depth="0.0">
			<acc value="0.34523584473492" flag="0"/>
			<vel value="0.0974458912118" flag="0"/>
			<psa03 value="0.367507012202707" flag="0"/>
			<psa10 value="0.0354780627475333" flag="0"/>
			<psa30 value="0.00238115669828016" flag="0"/>
		</comp>
	</station>
	<station code="AKS" name="AKS" netid="KO" source="Bogazici University Kandilli Observatory And Earthquake Research Institute (KOERI)" insttype="" lat="38.8785" lon="27.8129">
		<comp name=".HNE" depth="0.0">
			<acc value="0.0061721686078494" flag="0"/>
			<vel value="0.00279138969036" flag="0"/>
			<psa03 value="0.0239974074187977" flag="0"/>
			<psa10 value="0.00117575609119581" flag="0"/>
			<psa30 value="0.000449723906585181" flag="0"/>
		</comp>
		<comp name=".HNN" depth="0.0">
			<acc value="0.0080003291846694" flag="0"/>
			<vel value="0.00439942172679" flag="0"/>
			<psa03 value="0.0187033249409943" flag="0"/>
			<psa10 value="0.00104825678561816" flag="0"/>
			<psa30 value="0.00131438436317811" flag="0"/>
		</comp>
		<comp name=".HNZ" depth="0.0">
			<acc value="0.0031899946352262" flag="0"/>
			<vel value="0.0015459666033" flag="0"/>
			<psa03 value="0.0084228867509485" flag="0"/>
			<psa10 value="0.00102554961731778" flag="0"/>
			<psa30 value="0.000371040074375684" flag="0"/>
		</comp>
	</station>
	<station code="CESE" name="CESE" netid="KO" source="Bogazici University Kandilli Observatory And Earthquake Research Institute (KOERI)" insttype="" lat="38.3306" lon="26.2997">
		<comp name=".HNE" depth="0.0">
			<acc value="0.0087016331277672" flag="0"/>
			<vel value="0.00329595182353" flag="0"/>
			<psa03 value="0.0161356379172294" flag="0"/>
			<psa10 value="0.00227934287027719" flag="0"/>
			<psa30 value="0.000395190945085582" flag="0"/>
		</comp>
		<comp name=".HNN" depth="0.0">
			<acc value="0.01223804002665" flag="0"/>
			<vel value="0.00529010914114" flag="0"/>
			<psa03 value="0.0185340884695058" flag="0"/>
			<psa10 value="0.00367427801226143" flag="0"/>
			<psa30 value="0.000500561180554356" flag="0"/>
		</comp>
		<comp name=".HNZ" depth="0.0">
			<acc value="0.0056017611335184" flag="0"/>
			<vel value="0.00239675602458" flag="0"/>
			<psa03 value="0.0166365994889139" flag="0"/>
			<psa10 value="0.00140723009708881" flag="0"/>
			<psa30 value="0.000464132204814634" flag="0"/>
		</comp>
	</station>
	<station code="DST" name="DST" netid="KO" source="Bogazici University Kandilli Observatory And Earthquake Research Institute (KOERI)" insttype="" lat="39.6041" lon="28.6267">
		<comp name=".HNE" depth="0.0">
			<acc value="0.007482112153848" flag="0"/>
			<vel value="0.00300943404357" flag="0"/>
			<psa03 value="0.0251792044570375" flag="0"/>
			<psa10 value="0.00168371927251283" flag="0"/>
			<psa30 value="0.000641698134352284" flag="0"/>
		</comp>
		<comp name=".HNN" depth="0.0">
			<acc value="0.006659548811205" flag="0"/>
			<vel value="0.00321898529401" flag="0"/>
			<psa03 value="0.0110487267155818" flag="0"/>
			<psa10 value="0.00247981357235486" flag="0"/>
			<psa30 value="0.000728356062514483" flag="0"/>
		</comp>
		<comp name=".HNZ" depth="0.0">
			<acc value="0.0071271092692332" flag="0"/>
			<vel value="0.00275545842756" flag="0"/>
			<psa03 value="0.0128804912901551" flag="0"/>
			<psa10 value="0.000974460686051831" flag="0"/>
			<psa30 value="0.000536667999538568" flag="0"/>
		</comp>
	</station>
	<station code="EDC" name="EDC" netid="KO" source="Bogazici University Kandilli Observatory And Earthquake Research Institute (KOERI)" insttype="" lat="40.3465" lon="27.8618">
		<comp name=".HNE" depth="0.0">
			<acc value="0.010364106925962" flag="0"/>
			<vel value="0.00300089545546" flag="0"/>
			<psa03 value="0.0263902039506827" flag="0"/>
			<psa10 value="0.00219705491910513" flag="0"/>
			<psa30 value="0.000102920418233039" flag="0"/>
		</comp>
		<comp name=".HNN" depth="0.0">
			<acc value="0.011384700317694" flag="0"/>
			<vel value="0.00393018719072" flag="0"/>
			<psa03 value="0.0207192345267615" flag="0"/>
			<psa10 value="0.00356099964875163" flag="0"/>
			<psa30 value="0.000258711226890656" flag="0"/>
		</comp>
		<comp name=".HNZ" depth="0.0">
			<acc value="0.0057783880819572" flag="0"/>
			<vel value="0.00271712939902" flag="0"/>
			<psa03 value="0.00792397284098035" flag="0"/>
			<psa10 value="0.00134022136121088" flag="0"/>
			<psa30 value="9.63164325741865e-05" flag="0"/>
		</comp>
	</station>
	<station code="ENZZ" name="ENZZ" netid="KO" source="Bogazici University Kandilli Observatory And Earthquake Research Institute (KOERI)" insttype="" lat="40.607" lon="26.1406">
		<comp name=".HNE" depth="0.0">
			<acc value="0.073815823200768" flag="0"/>
			<vel value="0.0185758429991" flag="0"/>
			<psa03 value="0.0590750905179934" flag="0"/>
			<psa10 value="0.0186112960320155" flag="0"/>
			<psa30 value="0.0012737665682836" flag="0"/>
		</comp>
		<comp name=".HNN" depth="0.0">
			<acc value="0.047203634562918" flag="0"/>
			<vel value="0.0327191460812" flag="0"/>
			<psa03 value="0.0867212552742993" flag="0"/>
			<psa10 value="0.0363577585230709" flag="0"/>
			<psa30 value="0.00190675047952906" flag="0"/>
		</comp>
		<comp name=".HNZ" depth="0.0">
			<acc value="0.10549794950724" flag="0"/>
			<vel value="0.0117488637484" flag="0"/>
			<psa03 value="0.0437567320020763" flag="0"/>
			<psa10 value="0.00621371350302352" flag="0"/>
			<psa30 value="0.00200073108028043" flag="0"/>
		</comp>
	</station>
	<station code="GMLD" name="GMLD" netid="KO" source="Bogazici University Kandilli Observatory And Earthquake Research Institute (KOERI)" insttype="" lat="38.0766" lon="26.9157">
		<comp name=".HNE" depth="0.0">
			<acc value="0.021767232394014" flag="0"/>
			<vel value="0.0110560854158" flag="0"/>
			<psa03 value="0.0416579966170078" flag="0"/>
			<psa10 value="0.00792981593640236" flag="0"/>
			<psa30 value="0.000713689101315736" flag="0"/>
		</comp>
		<comp name=".HNN" depth="0.0">
			<acc value="0.017794080339774" flag="0"/>
			<vel value="0.00911531463548" flag="0"/>
			<psa03 value="0.0464471029344108" flag="0"/>
			<psa10 value="0.00735521880962903" flag="0"/>
			<psa30 value="0.000696363891108593" flag="0"/>
		</comp>
		<comp name=".HNZ" depth="0.0">
			<acc value="0.01520803448001" flag="0"/>
			<vel value="0.00648700499659" flag="0"/>
			<psa03 value="0.0378985600727914" flag="0"/>
			<psa10 value="0.0023464284862449" flag="0"/>
			<psa30 value="0.000414870477924585" flag="0"/>
		</comp>
	</station>
	<station code="GOMA" name="GOMA" netid="KO" source="Bogazici University Kandilli Observatory And Earthquake Research Institute (KOERI)" insttype="" lat="38.7077" lon="27.9175">
		<comp name=".HNE" depth="0.0">
			<acc value="0.0048594485484006" flag="0"/>
			<vel value="0.00248165836658" flag="0"/>
			<psa03 value="0.0181061369427096" flag="0"/>
			<psa10 value="0.00107931188973975" flag="0"/>
			<psa30 value="0.000379143970594134" flag="0"/>
		</comp>
		<comp name=".HNN" depth="0.0">
			<acc value="0.0031454159071386" flag="0"/>
			<vel value="0.00167557640784" flag="0"/>
			<psa03 value="0.0112981169343656" flag="0"/>
			<psa10 value="0.00100438813734557" flag="0"/>
			<psa30 value="0.000260180282541803" flag="0"/>
		</comp>
		<comp name=".HNZ" depth="0.0">
			<acc value="0.0028075571768934" flag="0"/>
			<vel value="0.000871863342513" flag="0"/>
			<psa03 value="0.00349680619051835" flag="0"/>
			<psa10 value="0.000497427795898389" flag="0"/>
			<psa30 value="0.000279414681726368" flag="0"/>
		</comp>
	</station>
	<station code="GONE" name="GONE" netid="KO" source="Bogazici University Kandilli Observatory And Earthquake Research Institute (KOERI)" insttype="" lat="40.0466" lon="27.686">
		<comp name=".HNE" depth="0.0">
			<acc value="0.011266384335372" flag="0"/>
			<vel value="0.00579435036381" flag="0"/>
			<psa03 value="0.019914164267741" flag="0"/>
			<psa10 value="0.0095812603364593" flag="0"/>
			<psa30 value="0.000470329854962669" flag="0"/>
		</comp>
		<comp name=".HNN" depth="0.0">
			<acc value="0.016717091045328" flag="0"/>
			<vel value="0.00606065702661" flag="0"/>
			<psa03 value="0.0291081600435801" flag="0"/>
			<psa10 value="0.00596882837434849" flag="0"/>
			<psa30 value="0.00033772815408269" flag="0"/>
		</comp>
		<comp name=".HNZ" depth="0.0">
			<acc value="0.0092321067015198" flag="0"/>
			<vel value="0.00271663382713" flag="0"/>
			<psa03 value="0.0108109030182301" flag="0"/>
			<psa10 value="0.00217051253580185" flag="0"/>
			<psa30 value="0.000267199836094447" flag="0"/>
		</comp>
	</station>
	<station code="GORD" name="GORD" netid="KO" source="Bogazici University Kandilli Observatory And Earthquake Research Institute (KOERI)" insttype="" lat="38.9088" lon="28.1769">
		<comp name=".HNE" depth="0.0">
			<acc value="0.0018084338691504" flag="0"/>
			<vel value="0.00127462261944" flag="0"/>
			<psa03 value="0.00414170763603498" flag="0"/>
			<psa10 value="0.00172517475311214" flag="0"/>
			<psa30 value="0.000214498232892691" flag="0"/>
		</comp>
		<comp name=".HNN" depth="0.0">
			<acc value="0.0018542695026216" flag="0"/>
			<vel value="0.00135173634954" flag="0"/>
			<psa03 value="0.00464616032437622" flag="0"/>
			<psa10 value="0.00253223126351673" flag="0"/>
			<psa30 value="0.000166851599974584" flag="0"/>
		</comp>
		<comp name=".HNZ" depth="0.0">
			<acc value="0.0015772449937566" flag="0"/>
			<vel value="0.000990625106143" flag="0"/>
			<psa03 value="0.00270451607498043" flag="0"/>
			<psa10 value="0.00204490288665352" flag="0"/>
			<psa30 value="0.000207523903690027" flag="0"/>
		</comp>
	</station>
	<station code="GPNR" name="GPNR" netid="KO" source="Bogazici University Kandilli Observatory And Earthquake Research Institute (KOERI)" insttype="" lat="39.456" lon="26.1331">
		<comp name=".HNE" depth="0.0">
			<acc value="0.26126619494454" flag="0"/>
			<vel value="0.0777116011479" flag="0"/>
			<psa03 value="0.44606096601672" flag="0"/>
			<psa10 value="0.031336361505173" flag="0"/>
			<psa30 value="0.00206362107976919" flag="0"/>
		</comp>
		<comp name=".HNN" depth="0.0">
			<acc value="0.28062705958848" flag="0"/>
			<vel value="0.116666613884" flag="0"/>
			<psa03 value="0.594644058916265" flag="0"/>
			<psa10 value="0.0404124258747035" flag="0"/>
			<psa30 value="0.00473746591718746" flag="0"/>
		</comp>
		<comp name=".HNZ" depth="0.0">
			<acc value="0.14462856219876" flag="0"/>
			<vel value="0.0483156149678" flag="0"/>
			<psa03 value="0.215841944302992" flag="0"/>
			<psa10 value="0.0157764363614913" flag="0"/>
			<psa30 value="0.000913203828603817" flag="0"/>
		</comp>
	</station>
	<station code="KCTX" name="KCTX" netid="KO" source="Bogazici University Kandilli Observatory And Earthquake Research Institute (KOERI)" insttype="" lat="40.2626" lon="28.3353">
		<comp name=".HNE" depth="0.0">
			<acc value="0.0061777923593058" flag="0"/>
			<vel value="0.00291484325436" flag="0"/>
			<psa03 value="0.0230710101120456" flag="0"/>
			<psa10 value="0.00169151896889441" flag="0"/>
			<psa30 value="0.000338780593593231" flag="0"/>
		</comp>
		<comp name=".HNN" depth="0.0">
			<acc value="0.0074938556661042" flag="0"/>
			<vel value="0.00308922604351" flag="0"/>
			<psa03 value="0.0164607323698301" flag="0"/>
			<psa10 value="0.00318026317682766" flag="0"/>
			<psa30 value="0.000443693507100737" flag="0"/>
		</comp>
		<comp name=".HNZ" depth="0.0">
			<acc value="0.0042618749073234" flag="0"/>
			<vel value="0.0021689503625" flag="0"/>
			<psa03 value="0.0112766467620976" flag="0"/>
			<psa10 value="0.00195314485500965" flag="0"/>
			<psa30 value="0.00036039272841623" flag="0"/>
		</comp>
	</station>
	<station code="KRBG" name="KRBG" netid="KO" source="Bogazici University Kandilli Observatory And Earthquake Research Institute (KOERI)" insttype="" lat="40.3932" lon="27.2977">
		<comp name=".HNE" depth="0.0">
			<acc value="0.022324242677988" flag="0"/>
			<vel value="0.00663587101455" flag="0"/>
			<psa03 value="0.0312854084422702" flag="0"/>
			<psa10 value="0.00337206330452036" flag="0"/>
			<psa30 value="0.000232484203020961" flag="0"/>
		</comp>
		<comp name=".HNN" depth="0.0">
			<acc value="0.01743713215353" flag="0"/>
			<vel value="0.00574771866478" flag="0"/>
			<psa03 value="0.0229908016736218" flag="0"/>
			<psa10 value="0.00375048306047113" flag="0"/>
			<psa30 value="0.00025327104879747" flag="0"/>
		</comp>
		<comp name=".HNZ" depth="0.0">
			<acc value="0.0095801666893332" flag="0"/>
			<vel value="0.00296843642707" flag="0"/>
			<psa03 value="0.0158693793934913" flag="0"/>
			<psa10 value="0.00120929151587733" flag="0"/>
			<psa30 value="0.000128560560777155" flag="0"/>
		</comp>
	</station>
	<station code="KUSD" name="KUSD" netid="KO" source="Bogazici University Kandilli Observatory And Earthquake Research Institute (KOERI)" insttype="" lat="37.8606" lon="27.2868">
		<comp name=".HNE" depth="0.0">
			<acc value="0.003155181954075" flag="0"/>
			<vel value="0.00158209269085" flag="0"/>
			<psa03 value="0.00687522302791692" flag="0"/>
			<psa10 value="0.0017496850877368" flag="0"/>
			<psa30 value="0.000287929751016124" flag="0"/>
		</comp>
		<comp name=".HNN" depth="0.0">
			<acc value="0.010297705449936" flag="0"/>
			<vel value="0.00232458750529" flag="0"/>
			<psa03 value="0.00840625218545609" flag="0"/>
			<psa10 value="0.00195656719109763" flag="0"/>
			<psa30 value="0.000319689485151268" flag="0"/>
		</comp>
		<comp name=".HNZ" depth="0.0">
			<acc value="0.0024279690653046" flag="0"/>
			<vel value="0.00100402751179" flag="0"/>
			<psa03 value="0.00413977293755825" flag="0"/>
			<psa10 value="0.00104755103574073" flag="0"/>
			<psa30 value="0.000275550962232309" flag="0"/>
		</comp>
	</station>
	<station code="ODEM" name="ODEM" netid="KO" source="Bogazici University Kandilli Observatory And Earthquake Research Institute (KOERI)" insttype="" lat="38.2762" lon="28.0747">
		<comp name=".HNE" depth="0.0">
			<acc value="0.0021352923716658" flag="0"/>
			<vel value="0.00106024597639" flag="0"/>
			<psa03 value="0.00611632444731642" flag="0"/>
			<psa10 value="0.000732592280642166" flag="0"/>
			<psa30 value="0.000307768929847826" flag="0"/>
		</comp>
		<comp name=".HNN" depth="0.0">
			<acc value="0.0020869089741162" flag="0"/>
			<vel value="0.00107992895641" flag="0"/>
			<psa03 value="0.00952958311104983" flag="0"/>
			<psa10 value="0.000810911882993477" flag="0"/>
			<psa30 value="7.88885658240182e-05" flag="0"/>
		</comp>
		<comp name=".HNZ" depth="0.0">
			<acc value="0.0015093367844508" flag="0"/>
			<vel value="0.00104840097665" flag="0"/>
			<psa03 value="0.00335991919274041" flag="0"/>
			<psa10 value="0.000799002324515483" flag="0"/>
			<psa30 value="0.000184591655374788" flag="0"/>
		</comp>
	</station>
	<station code="SOMA" name="SOMA" netid="KO" source="Bogazici University Kandilli Observatory And Earthquake Research Institute (KOERI)" insttype="" lat="39.1564" lon="27.5341">
		<comp name=".HNE" depth="0.0">
			<acc value="0.014331536675958" flag="0"/>
			<vel value="0.00782896230078" flag="0"/>
			<psa03 value="0.0562114424822688" flag="0"/>
			<psa10 value="0.00384737729173964" flag="0"/>
			<psa30 value="0.000356404964246456" flag="0"/>
		</comp>
		<comp name=".HNN" depth="0.0">
			<acc value="0.013642273376196" flag="0"/>
			<vel value="0.00865762950642" flag="0"/>
			<psa03 value="0.0405069073421361" flag="0"/>
			<psa10 value="0.00357424552622382" flag="0"/>
			<psa30 value="0.000279505208556509" flag="0"/>
		</comp>
		<comp name=".HNZ" depth="0.0">
			<acc value="0.010477128503118" flag="0"/>
			<vel value="0.00402321908917" flag="0"/>
			<psa03 value="0.0209429980479198" flag="0"/>
			<psa10 value="0.00282333398514561" flag="0"/>
			<psa30 value="0.000226108363985888" flag="0"/>
		</comp>
	</station>
	<station code="SUSR" name="SUSR" netid="KO" source="Bogazici University Kandilli Observatory And Earthquake Research Institute (KOERI)" insttype="" lat="39.9627" lon="28.0835">
		<comp name=".HNE" depth="0.0">
			<acc value="0.01125714647985" flag="0"/>
			<vel value="0.00426099120019" flag="0"/>
			<psa03 value="0.0258089701342952" flag="0"/>
			<psa10 value="0.00177995627274382" flag="0"/>
			<psa30 value="0.00034407938211221" flag="0"/>
		</comp>
		<comp name=".HNN" depth="0.0">
			<acc value="0.011317004372214" flag="0"/>
			<vel value="0.00490070934482" flag="0"/>
			<psa03 value="0.0232562906151198" flag="0"/>
			<psa10 value="0.00244805389030725" flag="0"/>
			<psa30 value="0.000219917276773711" flag="0"/>
		</comp>
		<comp name=".HNZ" depth="0.0">
			<acc value="0.010450478478924" flag="0"/>
			<vel value="0.00310852467506" flag="0"/>
			<psa03 value="0.018306874198906" flag="0"/>
			<psa10 value="0.00189468234934649" flag="0"/>
			<psa30 value="0.000236683361402613" flag="0"/>
		</comp>
	</station>
	<station code="TKR" name="TKR" netid="KO" source="Bogazici University Kandilli Observatory And Earthquake Research Institute (KOERI)" insttype="" lat="40.9893" lon="27.5351">
		<comp name=".HNE" depth="0.0">
			<acc value="0.013062387853122" flag="0"/>
			<vel value="0.00424442541885" flag="0"/>
			<psa03 value="0.0289632441936103" flag="0"/>
			<psa10 value="0.00310676627676871" flag="0"/>
			<psa30 value="0.000364372913959103" flag="0"/>
		</comp>
		<comp name=".HNN" depth="0.0">
			<acc value="0.01637463769128" flag="0"/>
			<vel value="0.00512282217668" flag="0"/>
			<psa03 value="0.0288001682864839" flag="0"/>
			<psa10 value="0.00259795436735329" flag="0"/>
			<psa30 value="0.000710064277858582" flag="0"/>
		</comp>
		<comp name=".HNZ" depth="0.0">
			<acc value="0.0055546043725158" flag="0"/>
			<vel value="0.00284658506494" flag="0"/>
			<psa03 value="0.00926641658899795" flag="0"/>
			<psa10 value="0.00106553746162609" flag="0"/>
			<psa30 value="0.000519433784939536" flag="0"/>
		</comp>
	</station>
	<station code="UKOP" name="UKOP" netid="KO" source="Bogazici University Kandilli Observatory And Earthquake Research Institute (KOERI)" insttype="" lat="41.1288" lon="26.6323">
		<comp name=".HNE" depth="0.0">
			<acc value="0.011382157391088" flag="0"/>
			<vel value="0.00826062090293" flag="0"/>
			<psa03 value="0.0167530902787813" flag="0"/>
			<psa10 value="0.00722423669521348" flag="0"/>
			<psa30 value="0.000476921489541649" flag="0"/>
		</comp>
		<comp name=".HNN" depth="0.0">
			<acc value="0.010487882466138" flag="0"/>
			<vel value="0.010028576304" flag="0"/>
			<psa03 value="0.0269270572228935" flag="0"/>
			<psa10 value="0.0111694661723299" flag="0"/>
			<psa30 value="0.000713261989687897" flag="0"/>
		</comp>
		<comp name=".HNZ" depth="0.0">
			<acc value="0.0039755670975912" flag="0"/>
			<vel value="0.00352056358261" flag="0"/>
			<psa03 value="0.0116817517233091" flag="0"/>
			<psa10 value="0.0057068824279481" flag="0"/>
			<psa30 value="0.000288956876349908" flag="0"/>
		</comp>
	</station>
</stationlist>
