<?xml version="1.0" encoding="UTF-8" standalone="yes"?>
<!DOCTYPE earthquake SYSTEM "stationlist.dtd">
<stationlist created="" xmlns="ch.ethz.sed.shakemap.usgs.xml">
  <station code="BMYO" name="BMYO" netid="KO" insttype="CMG-5T" lat="39.8098" lon="26.6009">
    <comp name="--.HNE">
      <acc value="0.1176517628" flag="0"/>
      <vel value="0.0205037155" flag="0"/>
      <psa03 value="0.0827122846" flag="0"/>
      <psa10 value="0.0064671546" flag="0"/>
      <psa30 value="0.0009218641" flag="0"/>
    </comp>
    <comp name="--.HNN">
      <acc value="0.0684860036" flag="0"/>
      <vel value="0.0270104858" flag="0"/>
      <psa03 value="0.0964174235" flag="0"/>
      <psa10 value="0.0101792880" flag="0"/>
      <psa30 value="0.0008677846" flag="0"/>
    </comp>
    <comp name="--.HNZ">
      <acc value="0.0446301327" flag="0"/>
      <vel value="0.0067472420" flag="0"/>
      <psa03 value="0.0318909526" flag="0"/>
      <psa10 value="0.0051533381" flag="0"/>
      <psa30 value="0.0006464331" flag="0"/>
    </comp>
  </station>
  <station code="GADA" name="GADA" netid="KO" insttype="CMG-3T" lat="40.1908" lon="25.8987">
    <comp name="--.HHN">
      <acc value="0.0195859963" flag="0"/>
      <vel value="0.0047591263" flag="0"/>
      <psa03 value="0.0231647111" flag="0"/>
      <psa10 value="0.0015578982" flag="0"/>
      <psa30 value="0.0001076403" flag="0"/>
    </comp>
    <comp name="--.HHE">
      <acc value="0.0155754041" flag="0"/>
      <vel value="0.0040598267" flag="0"/>
      <psa03 value="0.0186973890" flag="0"/>
      <psa10 value="0.0022761685" flag="0"/>
      <psa30 value="0.0001647737" flag="0"/>
    </comp>
  </station>
  <station code="GPNR" name="GPNR" netid="KO" insttype="CMG-5T" lat="39.456" lon="26.1331">
    <comp name="--.HNN">
      <acc value="0.2812141438" flag="0"/>
      <vel value="0.1159360769" flag="0"/>
      <psa03 value="0.5872026736" flag="0"/>
      <psa10 value="0.0403109685" flag="0"/>
      <psa30 value="0.0047344180" flag="0"/>
    </comp>
    <comp name="--.HNE">
      <acc value="0.2602960129" flag="0"/>
      <vel value="0.0771807834" flag="0"/>
      <psa03 value="0.4436793135" flag="0"/>
      <psa10 value="0.0311610722" flag="0"/>
      <psa30 value="0.0020885187" flag="0"/>
    </comp>
    <comp name="--.HNZ">
      <acc value="0.1482100830" flag="0"/>
      <vel value="0.0478356988" flag="0"/>
      <psa03 value="0.2138352315" flag="0"/>
      <psa10 value="0.0158097025" flag="0"/>
      <psa30 value="0.0009492688" flag="0"/>
    </comp>
  </station>
</stationlist>
