<?xml version="1.0" encoding="UTF-8" standalone="yes"?>
<!DOCTYPE earthquake SYSTEM "stationlist.dtd">
<stationlist created="" xmlns="ch.ethz.sed.shakemap.usgs.xml">
  <station code="ACOR" name="ACOR" netid="HA" insttype="30" lat="37.8902" lon="22.8692">
    <comp name="--.HHE">
      <acc value="0.0044916590" flag="0"/>
      <vel value="0.0026063680" flag="0"/>
      <psa03 value="0.0080577617" flag="0"/>
      <psa10 value="0.0042710709" flag="0"/>
      <psa30 value="0.0007772823" flag="0"/>
    </comp>
    <comp name="--.HHN">
      <acc value="0.0161755765" flag="0"/>
      <vel value="0.0126246559" flag="0"/>
      <psa03 value="0.0443760606" flag="0"/>
      <psa10 value="0.0151132508" flag="0"/>
      <psa30 value="0.0029789433" flag="0"/>
    </comp>
    <comp name="--.HHZ">
      <acc value="0.0030879051" flag="0"/>
      <vel value="0.0017165226" flag="0"/>
      <psa03 value="0.0087755767" flag="0"/>
      <psa10 value="0.0023086188" flag="0"/>
      <psa30 value="0.0006826684" flag="0"/>
    </comp>
  </station>
  <station code="KALE" name="KALE" netid="HA" insttype="40," lat="38.3911" lon="22.1398">
    <comp name="--.HHZ">
      <acc value="0.8767974357" flag="0"/>
      <vel value="0.1952768375" flag="0"/>
      <psa03 value="0.7090327593" flag="0"/>
      <psa10 value="0.0887308035" flag="0"/>
      <psa30 value="0.0091395643" flag="0"/>
    </comp>
    <comp name="--.HHN">
      <acc value="1.7251563431" flag="0"/>
      <vel value="0.3731860626" flag="0"/>
      <psa03 value="1.4646268730" flag="0"/>
      <psa10 value="0.1478065098" flag="0"/>
      <psa30 value="0.0197370382" flag="0"/>
    </comp>
    <comp name="--.HHE">
      <acc value="1.3490702775" flag="0"/>
      <vel value="0.3839821151" flag="0"/>
      <psa03 value="1.6517612495" flag="0"/>
      <psa10 value="0.2105190534" flag="0"/>
      <psa30 value="0.0147901617" flag="0"/>
    </comp>
  </station>
  <station code="LAKA" name="LAKA" netid="HA" insttype="120s" lat="38.2401" lon="21.9785">
    <comp name="--.HHN">
      <acc value="0.2751643894" flag="0"/>
      <vel value="0.0474731912" flag="0"/>
      <psa03 value="0.1302133319" flag="0"/>
      <psa10 value="0.0483131650" flag="0"/>
      <psa30 value="0.0161795288" flag="0"/>
    </comp>
    <comp name="--.HHZ">
      <acc value="0.1773546622" flag="0"/>
      <vel value="0.0417935212" flag="0"/>
      <psa03 value="0.1610017268" flag="0"/>
      <psa10 value="0.0626880089" flag="0"/>
      <psa30 value="0.0153725159" flag="0"/>
    </comp>
    <comp name="--.HHE">
      <acc value="0.1801635865" flag="0"/>
      <vel value="0.0350711080" flag="0"/>
      <psa03 value="0.1005556666" flag="0"/>
      <psa10 value="0.0451765631" flag="0"/>
      <psa30 value="0.0062812042" flag="0"/>
    </comp>
  </station>
  <station code="THAL" name="THAL" netid="HA" insttype="30" lat="38.0357" lon="22.6634">
    <comp name="--.HHE">
      <acc value="0.0517219235" flag="0"/>
      <vel value="0.0179606083" flag="0"/>
      <psa03 value="0.0705674175" flag="0"/>
      <psa10 value="0.0153294800" flag="0"/>
      <psa30 value="0.0023508173" flag="0"/>
    </comp>
    <comp name="--.HHN">
      <acc value="0.0442578040" flag="0"/>
      <vel value="0.0140375246" flag="0"/>
      <psa03 value="0.0826521903" flag="0"/>
      <psa10 value="0.0137458152" flag="0"/>
      <psa30 value="0.0023723450" flag="0"/>
    </comp>
    <comp name="--.HHZ">
      <acc value="0.0341980054" flag="0"/>
      <vel value="0.0081525754" flag="0"/>
      <psa03 value="0.0410926025" flag="0"/>
      <psa10 value="0.0076456206" flag="0"/>
      <psa30 value="0.0011951672" flag="0"/>
    </comp>
  </station>
  <station code="VILL" name="VILL" netid="HA" insttype="30" lat="38.1642" lon="23.3122">
    <comp name="--.HHE">
      <acc value="0.0121445137" flag="0"/>
      <vel value="0.0139377946" flag="0"/>
      <psa03 value="0.0303309385" flag="0"/>
      <psa10 value="0.0221877758" flag="0"/>
      <psa30 value="0.0013100642" flag="0"/>
    </comp>
    <comp name="--.HHZ">
      <acc value="0.0062051351" flag="0"/>
      <vel value="0.0057629679" flag="0"/>
      <psa03 value="0.0151099124" flag="0"/>
      <psa10 value="0.0076682140" flag="0"/>
      <psa30 value="0.0010128281" flag="0"/>
    </comp>
    <comp name="--.HHN">
      <acc value="0.0137560615" flag="0"/>
      <vel value="0.0108540130" flag="0"/>
      <psa03 value="0.0317369283" flag="0"/>
      <psa10 value="0.0107407486" flag="0"/>
      <psa30 value="0.0011855517" flag="0"/>
    </comp>
  </station>
  <station code="KLV1" name="KLV1" netid="HI" insttype="CMG-5TD,ACCELEROMETER,GURALP" lat="38.0326" lon="22.108">
    <comp name="--.HNE">
      <acc value="0.0749121190" flag="0"/>
      <vel value="0.0294623113" flag="0"/>
      <psa03 value="0.0989350259" flag="0"/>
      <psa10 value="0.0328072312" flag="0"/>
      <psa30 value="0.0042398959" flag="0"/>
    </comp>
    <comp name="--.HNN">
      <acc value="0.0963444411" flag="0"/>
      <vel value="0.0264404111" flag="0"/>
      <psa03 value="0.1430228034" flag="0"/>
      <psa10 value="0.0286341066" flag="0"/>
      <psa30 value="0.0027042295" flag="0"/>
    </comp>
    <comp name="--.HNZ">
      <acc value="0.0762556604" flag="0"/>
      <vel value="0.0149105362" flag="0"/>
      <psa03 value="0.0608498603" flag="0"/>
      <psa10 value="0.0165158371" flag="0"/>
      <psa30 value="0.0035197490" flag="0"/>
    </comp>
  </station>
  <station code="MSL1" name="MSL1" netid="HI" insttype="CMG-5TD,ACCELEROMETER,GURALP" lat="38.3727" lon="21.4243">
    <comp name="--.HNE">
      <acc value="0.1237273152" flag="0"/>
      <vel value="0.0659139228" flag="0"/>
      <psa03 value="0.3592842118" flag="0"/>
      <psa10 value="0.1730242713" flag="0"/>
      <psa30 value="0.0091751245" flag="0"/>
    </comp>
    <comp name="--.HNN">
      <acc value="0.1033616806" flag="0"/>
      <vel value="0.0605519526" flag="0"/>
      <psa03 value="0.2542808919" flag="0"/>
      <psa10 value="0.1248589463" flag="0"/>
      <psa30 value="0.0060685745" flag="0"/>
    </comp>
    <comp name="--.HNZ">
      <acc value="0.0574879028" flag="0"/>
      <vel value="0.0422614632" flag="0"/>
      <psa03 value="0.1136681412" flag="0"/>
      <psa10 value="0.0841289167" flag="0"/>
      <psa30 value="0.0027961761" flag="0"/>
    </comp>
  </station>
  <station code="DLFA" name="DLFA" netid="HL" insttype="CMG-5" lat="38.4784" lon="22.4958">
    <comp name="00.HNE">
      <acc value="0.1506668502" flag="0"/>
      <vel value="0.0699880623" flag="0"/>
      <psa03 value="0.2467628362" flag="0"/>
      <psa10 value="0.0698701917" flag="0"/>
      <psa30 value="0.0032335097" flag="0"/>
    </comp>
    <comp name="00.HNZ">
      <acc value="0.1527614549" flag="0"/>
      <vel value="0.0379348474" flag="0"/>
      <psa03 value="0.1546371329" flag="0"/>
      <psa10 value="0.0263630360" flag="0"/>
      <psa30 value="0.0022311963" flag="0"/>
    </comp>
    <comp name="00.HNN">
      <acc value="0.1803086606" flag="0"/>
      <vel value="0.0754228793" flag="0"/>
      <psa03 value="0.3296839722" flag="0"/>
      <psa10 value="0.0605221977" flag="0"/>
      <psa30 value="0.0038021166" flag="0"/>
    </comp>
  </station>
  <station code="EVR" name="EVR" netid="HL" insttype="DR24" lat="38.9166" lon="21.8105">
    <comp name="--.HHE">
      <acc value="0.2189790726" flag="0"/>
      <vel value="0.1160576535" flag="0"/>
      <psa03 value="0.7826260639" flag="0"/>
      <psa10 value="0.0478192565" flag="0"/>
      <psa30 value="0.0061078580" flag="0"/>
    </comp>
    <comp name="--.HHN">
      <acc value="0.1770959767" flag="0"/>
      <vel value="0.0715184522" flag="0"/>
      <psa03 value="0.4052122986" flag="0"/>
      <psa10 value="0.0486254762" flag="0"/>
      <psa30 value="0.0039873362" flag="0"/>
    </comp>
    <comp name="--.HHZ">
      <acc value="0.1315198479" flag="0"/>
      <vel value="0.0634054367" flag="0"/>
      <psa03 value="0.5929228231" flag="0"/>
      <psa10 value="0.0348816088" flag="0"/>
      <psa30 value="0.0038448547" flag="0"/>
    </comp>
  </station>
  <station code="KLV" name="KLV" netid="HL" insttype="120" lat="38.0435" lon="22.1504">
    <comp name="--.HHN">
      <acc value="0.0494029025" flag="0"/>
      <vel value="0.0090934194" flag="0"/>
      <psa03 value="0.0420874729" flag="0"/>
      <psa10 value="0.0091036850" flag="0"/>
      <psa30 value="0.0034105164" flag="0"/>
    </comp>
    <comp name="--.HHE">
      <acc value="0.0554720583" flag="0"/>
      <vel value="0.0091575737" flag="0"/>
      <psa03 value="0.0294230394" flag="0"/>
      <psa10 value="0.0123675651" flag="0"/>
      <psa30 value="0.0015186299" flag="0"/>
    </comp>
    <comp name="--.HHZ">
      <acc value="0.0343865916" flag="0"/>
      <vel value="0.0104848070" flag="0"/>
      <psa03 value="0.0246145767" flag="0"/>
      <psa10 value="0.0082301609" flag="0"/>
      <psa30 value="0.0024356788" flag="0"/>
    </comp>
  </station>
  <station code="LKR" name="LKR" netid="HL" insttype="30" lat="38.6496" lon="22.9989">
    <comp name="--.HHZ">
      <acc value="0.0276108664" flag="0"/>
      <vel value="0.0106690771" flag="0"/>
      <psa03 value="0.0556716561" flag="0"/>
      <psa10 value="0.0076333902" flag="0"/>
      <psa30 value="0.0013493338" flag="0"/>
    </comp>
    <comp name="--.HHE">
      <acc value="0.0596472390" flag="0"/>
      <vel value="0.0227725608" flag="0"/>
      <psa03 value="0.0979529618" flag="0"/>
      <psa10 value="0.0097735626" flag="0"/>
      <psa30 value="0.0017039106" flag="0"/>
    </comp>
    <comp name="--.HHN">
      <acc value="0.0501766275" flag="0"/>
      <vel value="0.0195668588" flag="0"/>
      <psa03 value="0.0787340618" flag="0"/>
      <psa10 value="0.0229079381" flag="0"/>
      <psa30 value="0.0017031422" flag="0"/>
    </comp>
  </station>
  <station code="PATC" name="PATC" netid="HL" insttype="CMG-5" lat="38.2693" lon="21.76">
    <comp name="00.HNN">
      <acc value="0.3979922606" flag="0"/>
      <vel value="0.1531333444" flag="0"/>
      <psa03 value="0.4264957250" flag="0"/>
      <psa10 value="0.2170634906" flag="0"/>
      <psa30 value="0.0223083186" flag="0"/>
    </comp>
    <comp name="00.HNE">
      <acc value="0.3092990694" flag="0"/>
      <vel value="0.1403247849" flag="0"/>
      <psa03 value="0.4992137805" flag="0"/>
      <psa10 value="0.1532467071" flag="0"/>
      <psa30 value="0.0283983580" flag="0"/>
    </comp>
    <comp name="00.HNZ">
      <acc value="0.2590800045" flag="0"/>
      <vel value="0.1254869606" flag="0"/>
      <psa03 value="0.2577946381" flag="0"/>
      <psa10 value="0.1303174182" flag="0"/>
      <psa30 value="0.0173167236" flag="0"/>
    </comp>
  </station>
  <station code="PATG" name="PATG" netid="HL" insttype="CMG-5" lat="38.2386" lon="21.7266">
    <comp name="00.HNN">
      <acc value="0.1834101477" flag="0"/>
      <vel value="0.1158325315" flag="0"/>
      <psa03 value="0.2557768428" flag="0"/>
      <psa10 value="0.1697702477" flag="0"/>
      <psa30 value="0.0333662290" flag="0"/>
    </comp>
    <comp name="00.HNE">
      <acc value="0.2130083024" flag="0"/>
      <vel value="0.1334843410" flag="0"/>
      <psa03 value="0.3558032447" flag="0"/>
      <psa10 value="0.1630313275" flag="0"/>
      <psa30 value="0.0277114898" flag="0"/>
    </comp>
    <comp name="00.HNZ">
      <acc value="0.1581069116" flag="0"/>
      <vel value="0.0508412020" flag="0"/>
      <psa03 value="0.1622935949" flag="0"/>
      <psa10 value="0.0792218579" flag="0"/>
      <psa30 value="0.0098756335" flag="0"/>
    </comp>
  </station>
  <station code="RIOA" name="RIOA" netid="HL" insttype="CMG-5" lat="38.2959" lon="21.7912">
    <comp name="00.HNE">
      <acc value="0.2519189196" flag="0"/>
      <vel value="0.1337215977" flag="0"/>
      <psa03 value="0.6473100201" flag="0"/>
      <psa10 value="0.1968982590" flag="0"/>
      <psa30 value="0.0136798544" flag="0"/>
    </comp>
    <comp name="00.HNN">
      <acc value="0.3934330954" flag="0"/>
      <vel value="0.1139657574" flag="0"/>
      <psa03 value="0.4433247351" flag="0"/>
      <psa10 value="0.1248150899" flag="0"/>
      <psa30 value="0.0195640965" flag="0"/>
    </comp>
    <comp name="00.HNZ">
      <acc value="0.2759873689" flag="0"/>
      <vel value="0.1082004236" flag="0"/>
      <psa03 value="0.3533008635" flag="0"/>
      <psa10 value="0.0760177330" flag="0"/>
      <psa30 value="0.0135691714" flag="0"/>
    </comp>
  </station>
  <station code="RLS" name="RLS" netid="HL" insttype="CMG3ESPC-120s" lat="38.0559" lon="21.4647">
    <comp name="--.HHZ">
      <acc value="0.0219100226" flag="0"/>
      <vel value="0.0077284860" flag="0"/>
      <psa03 value="0.0288774127" flag="0"/>
      <psa10 value="0.0120278746" flag="0"/>
      <psa30 value="0.0027973735" flag="0"/>
    </comp>
    <comp name="--.HHN">
      <acc value="0.0413268865" flag="0"/>
      <vel value="0.0142057816" flag="0"/>
      <psa03 value="0.0667219143" flag="0"/>
      <psa10 value="0.0175819030" flag="0"/>
      <psa30 value="0.0017177973" flag="0"/>
    </comp>
    <comp name="--.HHE">
      <acc value="0.0547485714" flag="0"/>
      <vel value="0.0156225952" flag="0"/>
      <psa03 value="0.0492441834" flag="0"/>
      <psa10 value="0.0206254368" flag="0"/>
      <psa30 value="0.0019293825" flag="0"/>
    </comp>
  </station>
  <station code="AMPL" name="AMPL" netid="HP" insttype="Compact," lat="38.9224" lon="21.2135">
    <comp name="--.HHE">
      <acc value="0.0148979277" flag="0"/>
      <vel value="0.0110166081" flag="0"/>
      <psa03 value="0.0369966344" flag="0"/>
      <psa10 value="0.0171338370" flag="0"/>
      <psa30 value="0.0018364724" flag="0"/>
    </comp>
    <comp name="--.HHZ">
      <acc value="0.0108247894" flag="0"/>
      <vel value="0.0087135239" flag="0"/>
      <psa03 value="0.0217724200" flag="0"/>
      <psa10 value="0.0119496216" flag="0"/>
      <psa30 value="0.0011342262" flag="0"/>
    </comp>
    <comp name="--.HHN">
      <acc value="0.0150661496" flag="0"/>
      <vel value="0.0107196568" flag="0"/>
      <psa03 value="0.0545232283" flag="0"/>
      <psa10 value="0.0208265274" flag="0"/>
      <psa30 value="0.0014902724" flag="0"/>
    </comp>
  </station>
  <station code="AMT" name="AMT" netid="HP" insttype="CMG-3T," lat="37.5324" lon="21.7089">
    <comp name="00.HHZ">
      <acc value="0.0142138323" flag="0"/>
      <vel value="0.0070712318" flag="0"/>
      <psa03 value="0.0361581612" flag="0"/>
      <psa10 value="0.0066753085" flag="0"/>
      <psa30 value="0.0009945808" flag="0"/>
    </comp>
    <comp name="00.HHE">
      <acc value="0.0206861873" flag="0"/>
      <vel value="0.0108243675" flag="0"/>
      <psa03 value="0.0481948415" flag="0"/>
      <psa10 value="0.0128040539" flag="0"/>
      <psa30 value="0.0021384124" flag="0"/>
    </comp>
    <comp name="00.HHN">
      <acc value="0.0259794455" flag="0"/>
      <vel value="0.0129771073" flag="0"/>
      <psa03 value="0.0733331002" flag="0"/>
      <psa10 value="0.0178457115" flag="0"/>
      <psa30 value="0.0013920289" flag="0"/>
    </comp>
  </station>
  <station code="ANX" name="ANX" netid="HP" insttype="120" lat="38.5933" lon="21.9209">
    <comp name="--.HHN">
      <acc value="1.2198927085" flag="0"/>
      <vel value="0.8160812955" flag="0"/>
      <psa03 value="3.0433279523" flag="0"/>
      <psa10 value="0.5102587806" flag="0"/>
      <psa30 value="0.0211622320" flag="0"/>
    </comp>
    <comp name="--.HHE">
      <acc value="1.6410340286" flag="0"/>
      <vel value="0.5000334305" flag="0"/>
      <psa03 value="3.2013729727" flag="0"/>
      <psa10 value="0.2560481838" flag="0"/>
      <psa30 value="0.0135705667" flag="0"/>
    </comp>
    <comp name="--.HHZ">
      <acc value="0.9628523540" flag="0"/>
      <vel value="0.2044167082" flag="0"/>
      <psa03 value="1.1427847804" flag="0"/>
      <psa10 value="0.1548960327" flag="0"/>
      <psa30 value="0.0093964412" flag="0"/>
    </comp>
  </station>
  <station code="AXS" name="AXS" netid="HP" insttype="40," lat="38.1962" lon="21.3763">
    <comp name="--.HHZ">
      <acc value="0.0201978598" flag="0"/>
      <vel value="0.0102700527" flag="0"/>
      <psa03 value="0.0353935094" flag="0"/>
      <psa10 value="0.0069169012" flag="0"/>
      <psa30 value="0.0006119474" flag="0"/>
    </comp>
    <comp name="--.HHE">
      <acc value="0.0230084906" flag="0"/>
      <vel value="0.0072707065" flag="0"/>
      <psa03 value="0.0406842160" flag="0"/>
      <psa10 value="0.0071661056" flag="0"/>
      <psa30 value="0.0006968528" flag="0"/>
    </comp>
    <comp name="--.HHN">
      <acc value="0.0243424521" flag="0"/>
      <vel value="0.0133051805" flag="0"/>
      <psa03 value="0.0494083476" flag="0"/>
      <psa10 value="0.0148591826" flag="0"/>
      <psa30 value="0.0013953454" flag="0"/>
    </comp>
  </station>
  <station code="DRO" name="DRO" netid="HP" insttype="120P," lat="37.952" lon="21.71">
    <comp name="--.HHE">
      <acc value="0.1409564905" flag="0"/>
      <vel value="0.0398274157" flag="0"/>
      <psa03 value="0.2473811504" flag="0"/>
      <psa10 value="0.0204484060" flag="0"/>
      <psa30 value="0.0020346906" flag="0"/>
    </comp>
    <comp name="--.HHN">
      <acc value="0.1907904098" flag="0"/>
      <vel value="0.0532156214" flag="0"/>
      <psa03 value="0.2468034339" flag="0"/>
      <psa10 value="0.0224873507" flag="0"/>
      <psa30 value="0.0058612802" flag="0"/>
    </comp>
    <comp name="--.HHZ">
      <acc value="0.0865327017" flag="0"/>
      <vel value="0.0366054693" flag="0"/>
      <psa03 value="0.1130398787" flag="0"/>
      <psa10 value="0.0191340473" flag="0"/>
      <psa30 value="0.0053511285" flag="0"/>
    </comp>
  </station>
  <station code="EFP" name="EFP" netid="HP" insttype="40," lat="38.4269" lon="21.9058">
    <comp name="--.HHN">
      <acc value="1.7360542884" flag="0"/>
      <vel value="0.4825117672" flag="0"/>
      <psa03 value="2.8319346205" flag="0"/>
      <psa10 value="0.2723084551" flag="0"/>
      <psa30 value="0.0273643961" flag="0"/>
    </comp>
    <comp name="--.HHZ">
      <acc value="1.9592123022" flag="0"/>
      <vel value="0.4372213926" flag="0"/>
      <psa03 value="1.7514635912" flag="0"/>
      <psa10 value="0.2618966216" flag="0"/>
      <psa30 value="0.0445468840" flag="0"/>
    </comp>
    <comp name="--.HHE">
      <acc value="4.2948466420" flag="0"/>
      <vel value="0.6130982166" flag="0"/>
      <psa03 value="2.0589042786" flag="0"/>
      <psa10 value="0.4032694972" flag="0"/>
      <psa30 value="0.0512727488" flag="0"/>
    </comp>
  </station>
  <station code="GUR" name="GUR" netid="HP" insttype="40," lat="37.9363" lon="22.3423">
    <comp name="--.HHE">
      <acc value="0.0607793008" flag="0"/>
      <vel value="0.0128762989" flag="0"/>
      <psa03 value="0.0684899115" flag="0"/>
      <psa10 value="0.0105590846" flag="0"/>
      <psa30 value="0.0010406985" flag="0"/>
    </comp>
    <comp name="--.HHZ">
      <acc value="0.0270132239" flag="0"/>
      <vel value="0.0090806141" flag="0"/>
      <psa03 value="0.0425762723" flag="0"/>
      <psa10 value="0.0081863105" flag="0"/>
      <psa30 value="0.0013755165" flag="0"/>
    </comp>
    <comp name="--.HHN">
      <acc value="0.0403444186" flag="0"/>
      <vel value="0.0174332821" flag="0"/>
      <psa03 value="0.1019195177" flag="0"/>
      <psa10 value="0.0145727325" flag="0"/>
      <psa30 value="0.0014332592" flag="0"/>
    </comp>
  </station>
  <station code="LTK" name="LTK" netid="HP" insttype="120s" lat="38.0228" lon="22.9673">
    <comp name="--.HHN">
      <acc value="0.0074768669" flag="0"/>
      <vel value="0.0044796264" flag="0"/>
      <psa03 value="0.0250635641" flag="0"/>
      <psa10 value="0.0052178071" flag="0"/>
      <psa30 value="0.0007575865" flag="0"/>
    </comp>
    <comp name="--.HHZ">
      <acc value="0.0084914229" flag="0"/>
      <vel value="0.0041852147" flag="0"/>
