<stationlist created="1778136055">
	<station code="AGRP" name="AGRP" netid="CL" source="Corinth Riff Laboratory (CRLNET)" insttype="" lat="38.3959" lon="21.72277">
		<comp name="00.HNE" depth="0.0">
			<acc value="0.234606430479241" flag="0"/>
			<vel value="0.103402438378582" flag="0"/>
			<psa03 value="0.364693726145533" flag="0"/>
			<psa10 value="0.108977250393926" flag="0"/>
			<psa30 value="0.00561962115125493" flag="0"/>
		</comp>
		<comp name="00.HNN" depth="0.0">
			<acc value="0.163972994992941" flag="0"/>
			<vel value="0.0941803308199598" flag="0"/>
			<psa03 value="0.337714175554715" flag="0"/>
			<psa10 value="0.0686126212711859" flag="0"/>
			<psa30 value="0.00952114156836823" flag="0"/>
		</comp>
		<comp name="00.HNZ" depth="0.0">
			<acc value="0.168405144394333" flag="0"/>
			<vel value="0.0653998170355832" flag="0"/>
			<psa03 value="0.287065997662832" flag="0"/>
			<psa10 value="0.0577080506741807" flag="0"/>
			<psa30 value="0.00484513355469265" flag="0"/>
		</comp>
	</station>
	<station code="MALA" name="MALA" netid="CL" source="Corinth Riff Laboratory (CRLNET)" insttype="" lat="38.39341" lon="21.87263">
		<comp name="01.HNE" depth="0.0">
			<acc value="2.15938700053645" flag="0"/>
			<vel value="0.990451493557531" flag="0"/>
			<psa03 value="3.98353288184459" flag="0"/>
			<psa10 value="0.805250995566809" flag="0"/>
			<psa30 value="0.0575935106252379" flag="0"/>
		</comp>
		<comp name="01.HNN" depth="0.0">
			<acc value="2.67723877871403" flag="0"/>
			<vel value="0.661648907789461" flag="0"/>
			<psa03 value="4.97497543829887" flag="0"/>
			<psa10 value="0.435002971891684" flag="0"/>
			<psa30 value="0.0275611992768554" flag="0"/>
		</comp>
		<comp name="01.HNZ" depth="0.0">
			<acc value="0.612372381928501" flag="0"/>
			<vel value="0.223394330952051" flag="0"/>
			<psa03 value="0.919676057038576" flag="0"/>
			<psa10 value="0.324833789113447" flag="0"/>
			<psa30 value="0.0202064753529439" flag="0"/>
		</comp>
	</station>
	<station code="AIGS" name="AIGS" netid="HA" source="Hellenic Seismological Network, University of Athens, Seismological Laboratory (HA)" insttype="" lat="38.25001" lon="22.0878">
		<comp name="--.HNE" depth="0.0">
			<acc value="0.844020158068103" flag="0"/>
			<vel value="0.181150952815853" flag="0"/>
			<psa03 value="0.766523483784232" flag="0"/>
			<psa10 value="0.0724139191454743" flag="0"/>
			<psa30 value="0.0166946595554757" flag="0"/>
		</comp>
		<comp name="--.HNN" depth="0.0">
			<acc value="1.18348523639064" flag="0"/>
			<vel value="0.275037765532723" flag="0"/>
			<psa03 value="0.848446464102287" flag="0"/>
			<psa10 value="0.143172824068139" flag="0"/>
			<psa30 value="0.0359248599600089" flag="0"/>
		</comp>
		<comp name="--.HNZ" depth="0.0">
			<acc value="1.3768656896865" flag="0"/>
			<vel value="0.202660411136685" flag="0"/>
			<psa03 value="0.26975076370156" flag="0"/>
			<psa10 value="0.0605670776770883" flag="0"/>
			<psa30 value="0.0216892320802734" flag="0"/>
		</comp>
	</station>
	<station code="KLV1" name="KLV1" netid="HI" source="ITSAK Strong Motion Network" insttype="" lat="38.03256" lon="22.10797">
		<comp name="--.HNE" depth="0.0">
			<acc value="0.0743610510095989" flag="0"/>
			<vel value="0.0296991834771229" flag="0"/>
			<psa03 value="0.0975380104278324" flag="0"/>
			<psa10 value="0.0327418993811851" flag="0"/>
			<psa30 value="0.004929248903135" flag="0"/>
		</comp>
		<comp name="--.HNN" depth="0.0">
			<acc value="0.0985826149698938" flag="0"/>
			<vel value="0.0254966971592647" flag="0"/>
			<psa03 value="0.144606811790254" flag="0"/>
			<psa10 value="0.0285822164318844" flag="0"/>
			<psa30 value="0.00309974007451387" flag="0"/>
		</comp>
		<comp name="--.HNZ" depth="0.0">
			<acc value="0.0774654775348753" flag="0"/>
			<vel value="0.016536451375135" flag="0"/>
			<psa03 value="0.0618784717530698" flag="0"/>
			<psa10 value="0.0166105442070334" flag="0"/>
			<psa30 value="0.00397355536976871" flag="0"/>
		</comp>
	</station>
	<station code="MSL1" name="MSL1" netid="HI" source="ITSAK Strong Motion Network" insttype="" lat="38.3727" lon="21.4243">
		<comp name="--.HNE" depth="0.0">
			<acc value="0.123989546561845" flag="0"/>
			<vel value="0.0671990004376633" flag="0"/>
			<psa03 value="0.365499085864662" flag="0"/>
			<psa10 value="0.173522805083511" flag="0"/>
			<psa30 value="0.0100423882754711" flag="0"/>
		</comp>
		<comp name="--.HNN" depth="0.0">
			<acc value="0.102641513716542" flag="0"/>
			<vel value="0.0603893662726774" flag="0"/>
			<psa03 value="0.257715110121245" flag="0"/>
			<psa10 value="0.1249032388397" flag="0"/>
			<psa30 value="0.00622587805093251" flag="0"/>
		</comp>
		<comp name="--.HNZ" depth="0.0">
			<acc value="0.0571248376964215" flag="0"/>
			<vel value="0.0425920843070668" flag="0"/>
			<psa03 value="0.116821901480308" flag="0"/>
			<psa10 value="0.0842164658293082" flag="0"/>
			<psa30 value="0.00312926993088193" flag="0"/>
		</comp>
	</station>
	<station code="VAS2" name="VAS2" netid="HI" source="ITSAK Strong Motion Network" insttype="" lat="38.630558" lon="20.608081">
		<comp name="--.HNE" depth="0.0">
			<acc value="0.0363945422615879" flag="0"/>
			<vel value="0.035013561090161" flag="0"/>
			<psa03 value="0.112258196405244" flag="0"/>
			<psa10 value="0.0795494062569563" flag="0"/>
			<psa30 value="0.00501783847223918" flag="0"/>
		</comp>
		<comp name="--.HNN" depth="0.0">
			<acc value="0.054710218011615" flag="0"/>
			<vel value="0.0553367662034444" flag="0"/>
			<psa03 value="0.107470780297089" flag="0"/>
			<psa10 value="0.106073928606466" flag="0"/>
			<psa30 value="0.00645003650609005" flag="0"/>
		</comp>
		<comp name="--.HNZ" depth="0.0">
			<acc value="0.0246268904638116" flag="0"/>
			<vel value="0.0211249628275252" flag="0"/>
			<psa03 value="0.049395396106572" flag="0"/>
			<psa10 value="0.0305311869521763" flag="0"/>
			<psa30 value="0.00199505499310874" flag="0"/>
		</comp>
	</station>
	<station code="DLFA" name="DLFA" netid="HL" source="National Observatory of Athens Seismic Network" insttype="" lat="38.47836" lon="22.49583">
		<comp name="00.HNE" depth="0.0">
			<acc value="0.149471701392225" flag="0"/>
			<vel value="0.070267298557991" flag="0"/>
			<psa03 value="0.247379660392425" flag="0"/>
			<psa10 value="0.070038107974044" flag="0"/>
			<psa30 value="0.00351181579746815" flag="0"/>
		</comp>
		<comp name="00.HNN" depth="0.0">
			<acc value="0.17946250784658" flag="0"/>
			<vel value="0.0741040591179612" flag="0"/>
			<psa03 value="0.329794804983281" flag="0"/>
			<psa10 value="0.0607925783984444" flag="0"/>
			<psa30 value="0.00425185189493436" flag="0"/>
		</comp>
		<comp name="00.HNZ" depth="0.0">
			<acc value="0.150750624565947" flag="0"/>
			<vel value="0.038849501954986" flag="0"/>
			<psa03 value="0.154629066072747" flag="0"/>
			<psa10 value="0.0264963347593405" flag="0"/>
			<psa30 value="0.00261249744444089" flag="0"/>
		</comp>
	</station>
	<station code="PATC" name="PATC" netid="HL" source="National Observatory of Athens Seismic Network" insttype="" lat="38.26933" lon="21.76001">
		<comp name="00.HNE" depth="0.0">
			<acc value="0.307739411315583" flag="0"/>
			<vel value="0.146177607700787" flag="0"/>
			<psa03 value="0.500352096612133" flag="0"/>
			<psa10 value="0.152821033503303" flag="0"/>
			<psa30 value="0.0311119407940814" flag="0"/>
		</comp>
		<comp name="00.HNN" depth="0.0">
			<acc value="0.396501779030113" flag="0"/>
			<vel value="0.155993608608397" flag="0"/>
			<psa03 value="0.431135902973667" flag="0"/>
			<psa10 value="0.21691155995158" flag="0"/>
			<psa30 value="0.0250274481160627" flag="0"/>
		</comp>
		<comp name="00.HNZ" depth="0.0">
			<acc value="0.255886432166214" flag="0"/>
			<vel value="0.127131365115944" flag="0"/>
			<psa03 value="0.258520469840374" flag="0"/>
			<psa10 value="0.130532703276411" flag="0"/>
			<psa30 value="0.016455288750068" flag="0"/>
		</comp>
	</station>
	<station code="PATG" name="PATG" netid="HL" source="National Observatory of Athens Seismic Network" insttype="" lat="38.23865" lon="21.72657">
		<comp name="00.HNE" depth="0.0">
			<acc value="0.21286300385781" flag="0"/>
			<vel value="0.1357389970892" flag="0"/>
			<psa03 value="0.357042808813809" flag="0"/>
			<psa10 value="0.163367219025296" flag="0"/>
			<psa30 value="0.0311826334805383" flag="0"/>
		</comp>
		<comp name="00.HNN" depth="0.0">
			<acc value="0.184901735994499" flag="0"/>
			<vel value="0.108116288328063" flag="0"/>
			<psa03 value="0.255925421856514" flag="0"/>
			<psa10 value="0.17108256513455" flag="0"/>
			<psa30 value="0.0371069490588637" flag="0"/>
		</comp>
		<comp name="00.HNZ" depth="0.0">
			<acc value="0.156986276059939" flag="0"/>
			<vel value="0.0509535509128637" flag="0"/>
			<psa03 value="0.162369467817708" flag="0"/>
			<psa10 value="0.0794648434864477" flag="0"/>
			<psa30 value="0.0106826492521786" flag="0"/>
		</comp>
	</station>
	<station code="RIOA" name="RIOA" netid="HL" source="National Observatory of Athens Seismic Network" insttype="" lat="38.29585" lon="21.79118">
		<comp name="00.HNE" depth="0.0">
			<acc value="0.252664032144671" flag="0"/>
			<vel value="0.131246523024971" flag="0"/>
			<psa03 value="0.649209418031123" flag="0"/>
			<psa10 value="0.196366833516602" flag="0"/>
			<psa30 value="0.0159009328100676" flag="0"/>
		</comp>
		<comp name="00.HNN" depth="0.0">
			<acc value="0.396661713047" flag="0"/>
			<vel value="0.116107631910824" flag="0"/>
			<psa03 value="0.442634650074563" flag="0"/>
			<psa10 value="0.124548880563283" flag="0"/>
			<psa30 value="0.0226977214174493" flag="0"/>
		</comp>
		<comp name="00.HNZ" depth="0.0">
			<acc value="0.277613070582781" flag="0"/>
			<vel value="0.104274570834335" flag="0"/>
			<psa03 value="0.353731885524056" flag="0"/>
			<psa10 value="0.0760058234927891" flag="0"/>
			<psa30 value="0.0153179418578315" flag="0"/>
		</comp>
	</station>
	<station code="ANX" name="ANX" netid="HP" source="University of Patras, Seismological Laboratory (PSLNET)" insttype="" lat="38.5933" lon="21.9209">
		<comp name="--.HNE" depth="0.0">
			<acc value="2.05627156709388" flag="0"/>
			<vel value="0.629574602875698" flag="0"/>
			<psa03 value="4.08536614410778" flag="0"/>
			<psa10 value="0.339398719633893" flag="0"/>
			<psa30 value="0.0176557221536362" flag="0"/>
		</comp>
		<comp name="--.HNN" depth="0.0">
			<acc value="1.52219660311772" flag="0"/>
			<vel value="1.01259036148732" flag="0"/>
			<psa03 value="3.77736079374759" flag="0"/>
			<psa10 value="0.62511618718925" flag="0"/>
			<psa30 value="0.0265544996279443" flag="0"/>
		</comp>
		<comp name="--.HNZ" depth="0.0">
			<acc value="1.16000363657199" flag="0"/>
			<vel value="0.260794170207329" flag="0"/>
			<psa03 value="1.42754484436258" flag="0"/>
			<psa10 value="0.193749414429433" flag="0"/>
			<psa30 value="0.0115931531568604" flag="0"/>
		</comp>
	</station>
	<station code="LTK" name="LTK" netid="HP" source="University of Patras, Seismological Laboratory (PSLNET)" insttype="" lat="38.0228" lon="22.9673">
		<comp name="--.HNE" depth="0.0">
			<acc value="0.00875385866765088" flag="0"/>
			<vel value="0.00439197289138744" flag="0"/>
			<psa03 value="0.0199550241517492" flag="0"/>
			<psa10 value="0.00636636857971389" flag="0"/>
			<psa30 value="0.000923926566667312" flag="0"/>
		</comp>
		<comp name="--.HNN" depth="0.0">
			<acc value="0.00712330445028896" flag="0"/>
			<vel value="0.00426010387853675" flag="0"/>
			<psa03 value="0.0242502759871033" flag="0"/>
			<psa10 value="0.00491269428668624" flag="0"/>
			<psa30 value="0.000797306121937602" flag="0"/>
		</comp>
		<comp name="--.HNZ" depth="0.0">
			<acc value="0.00788551853524043" flag="0"/>
			<vel value="0.00376091226611215" flag="0"/>
			<psa03 value="0.0223263611025176" flag="0"/>
			<psa10 value="0.00456638960746081" flag="0"/>
			<psa30 value="0.000882763736578501" flag="0"/>
		</comp>
	</station>
	<station code="PDO" name="PDO" netid="HP" source="University of Patras, Seismological Laboratory (PSLNET)" insttype="" lat="38.5986" lon="21.1833">
		<comp name="--.HNE" depth="0.0">
			<acc value="0.0555545171594666" flag="0"/>
			<vel value="0.0330312250046302" flag="0"/>
			<psa03 value="0.12245941951421" flag="0"/>
			<psa10 value="0.016614571005629" flag="0"/>
			<psa30 value="0.0014679917991455" flag="0"/>
		</comp>
		<comp name="--.HNN" depth="0.0">
			<acc value="0.0865016878238831" flag="0"/>
			<vel value="0.0462071068808182" flag="0"/>
			<psa03 value="0.288274037241525" flag="0"/>
			<psa10 value="0.0219017575617102" flag="0"/>
			<psa30 value="0.00242592244284269" flag="0"/>
		</comp>
		<comp name="--.HNZ" depth="0.0">
			<acc value="0.0454289991950715" flag="0"/>
			<vel value="0.0213775772613192" flag="0"/>
			<psa03 value="0.139416715822535" flag="0"/>
			<psa10 value="0.0105622927163754" flag="0"/>
			<psa30 value="0.000985670811800527" flag="0"/>
		</comp>
	</station>
	<station code="PVO" name="PVO" netid="HP" source="University of Patras, Seismological Laboratory (PSLNET)" insttype="" lat="38.616" lon="21.525">
		<comp name="--.HNE" depth="0.0">
			<acc value="0.0925385747440505" flag="0"/>
			<vel value="0.0338914191881105" flag="0"/>
			<psa03 value="0.161653592511816" flag="0"/>
			<psa10 value="0.0345982535337772" flag="0"/>
			<psa30 value="0.00421919008410303" flag="0"/>
		</comp>
		<comp name="--.HNN" depth="0.0">
			<acc value="0.0572344116652457" flag="0"/>
			<vel value="0.0438378955257928" flag="0"/>
			<psa03 value="0.112750360678045" flag="0"/>
			<psa10 value="0.0389713568086471" flag="0"/>
			<psa30 value="0.00596100418775234" flag="0"/>
		</comp>
		<comp name="--.HNZ" depth="0.0">
			<acc value="0.0545060998736544" flag="0"/>
			<vel value="0.0257740905359625" flag="0"/>
			<psa03 value="0.0927058521130591" flag="0"/>
			<psa10 value="0.0352989164894193" flag="0"/>
			<psa30 value="0.00344917670820257" flag="0"/>
		</comp>
	</station>
	<station code="SERG" name="SERG" netid="HP" source="University of Patras, Seismological Laboratory (PSLNET)" insttype="" lat="38.4133" lon="22.0566">
		<comp name="--.HNE" depth="0.0">
			<acc value="10.2064064783211" flag="0"/>
			<vel value="2.37833443206508" flag="0"/>
			<psa03 value="10.1858317898893" flag="0"/>
			<psa10 value="0.800885945889131" flag="0"/>
			<psa30 value="0.0749968867335471" flag="0"/>
		</comp>
		<comp name="--.HNN" depth="0.0">
			<acc value="9.33439523753923" flag="0"/>
			<vel value="2.31755659619822" flag="0"/>
			<psa03 value="14.1015802287072" flag="0"/>
			<psa10 value="0.621548443633509" flag="0"/>
			<psa30 value="0.0844146738046271" flag="0"/>
		</comp>
		<comp name="--.HNZ" depth="0.0">
			<acc value="6.87473691619538" flag="0"/>
			<vel value="1.30138622435865" flag="0"/>
			<psa03 value="2.4171082281389" flag="0"/>
			<psa10 value="0.213468647152304" flag="0"/>
			<psa30 value="0.0317190925378914" flag="0"/>
		</comp>
	</station>
	<station code="UPR" name="UPR" netid="HP" source="University of Patras, Seismological Laboratory (PSLNET)" insttype="" lat="38.2836" lon="21.7864">
		<comp name="--.HNE" depth="2.0">
			<acc value="0.321168797264226" flag="0"/>
			<vel value="0.137513098503159" flag="0"/>
			<psa03 value="0.325544295354545" flag="0"/>
			<psa10 value="0.16757925035634" flag="0"/>
			<psa30 value="0.0229482777745116" flag="0"/>
		</comp>
		<comp name="--.HNN" depth="2.0">
			<acc value="0.389984275228025" flag="0"/>
			<vel value="0.145862092970066" flag="0"/>
			<psa03 value="0.44348475200031" flag="0"/>
			<psa10 value="0.195311812284543" flag="0"/>
			<psa30 value="0.0256126761786297" flag="0"/>
		</comp>
		<comp name="--.HNZ" depth="2.0">
			<acc value="0.212278590389953" flag="0"/>
			<vel value="0.0970060617102779" flag="0"/>
			<psa03 value="0.295030110440884" flag="0"/>
			<psa10 value="0.166399398367816" flag="0"/>
			<psa30 value="0.0129604749911148" flag="0"/>
		</comp>
	</station>
</stationlist>
