<?xml version="1.0" encoding="UTF-8" standalone="yes"?>
<!DOCTYPE earthquake SYSTEM "stationlist.dtd">
<stationlist created="" xmlns="ch.ethz.sed.shakemap.usgs.xml">
  <station code="KRI1" name="KRI1" netid="HI" source="NOA" insttype="CMG-5TD,ACCELEROMETER,GURALP" lat="37.6621" lon="20.8172">
    <comp name="--.HNE">
      <acc value="0.1081161960" flag="0"/>
      <vel value="0.0731660503" flag="0"/>
      <psa03 value="0.2693825843" flag="0"/>
      <psa10 value="0.0379850909" flag="0"/>
      <psa30 value="0.0054025708" flag="0"/>
    </comp>
    <comp name="--.HNN">
      <acc value="0.0738637015" flag="0"/>
      <vel value="0.0474437051" flag="0"/>
      <psa03 value="0.2590486078" flag="0"/>
      <psa10 value="0.0371315274" flag="0"/>
      <psa30 value="0.0066398122" flag="0"/>
    </comp>
    <comp name="--.HNZ">
      <acc value="0.0552363835" flag="0"/>
      <vel value="0.0287770515" flag="0"/>
      <psa03 value="0.1443209238" flag="0"/>
      <psa10 value="0.0213098281" flag="0"/>
      <psa30 value="0.0076202950" flag="0"/>
    </comp>
  </station>
  <station code="VLS" name="VLS" netid="HL" source="NOA" insttype="120P," lat="38.1768" lon="20.5886">
    <comp name="--.HHE">
      <acc value="0.0769596269" flag="0"/>
      <vel value="0.0140523281" flag="0"/>
      <psa03 value="0.0600133926" flag="0"/>
      <psa10 value="0.0096364045" flag="0"/>
      <psa30 value="0.0012155769" flag="0"/>
    </comp>
    <comp name="--.HHN">
      <acc value="0.0601666779" flag="0"/>
      <vel value="0.0156031002" flag="0"/>
      <psa03 value="0.0726406866" flag="0"/>
      <psa10 value="0.0107479199" flag="0"/>
      <psa30 value="0.0018676106" flag="0"/>
    </comp>
    <comp name="--.HHZ">
      <acc value="0.0263982450" flag="0"/>
      <vel value="0.0099234764" flag="0"/>
      <psa03 value="0.0573760160" flag="0"/>
      <psa10 value="0.0069236855" flag="0"/>
      <psa30 value="0.0010409389" flag="0"/>
    </comp>
  </station>
  <station code="AMT" name="AMT" netid="HP" source="NOA" insttype="CMG-3T," lat="37.5324" lon="21.7089">
    <comp name="00.HHE">
      <acc value="0.0077087274" flag="0"/>
      <vel value="0.0087792784" flag="0"/>
      <psa03 value="0.0257457972" flag="0"/>
      <psa10 value="0.0119290524" flag="0"/>
      <psa30 value="0.0006235578" flag="0"/>
    </comp>
    <comp name="00.HHN">
      <acc value="0.0062987262" flag="0"/>
      <vel value="0.0058411162" flag="0"/>
      <psa03 value="0.0185131461" flag="0"/>
      <psa10 value="0.0090666769" flag="0"/>
      <psa30 value="0.0010735143" flag="0"/>
    </comp>
    <comp name="00.HHZ">
      <acc value="0.0056648363" flag="0"/>
      <vel value="0.0038765997" flag="0"/>
      <psa03 value="0.0135328926" flag="0"/>
      <psa10 value="0.0032882342" flag="0"/>
      <psa30 value="0.0007142947" flag="0"/>
    </comp>
  </station>
  <station code="LTHK" name="LTHK" netid="HP" source="NOA" insttype="40," lat="37.7095" lon="20.8367">
    <comp name="--.HHE">
      <acc value="0.1857650518" flag="0"/>
      <vel value="0.0713761234" flag="0"/>
      <psa03 value="0.3735043154" flag="0"/>
      <psa10 value="0.0427898182" flag="0"/>
      <psa30 value="0.0107090238" flag="0"/>
    </comp>
    <comp name="--.HHN">
      <acc value="0.2008891872" flag="0"/>
      <vel value="0.0564423800" flag="0"/>
      <psa03 value="0.1593191502" flag="0"/>
      <psa10 value="0.0350252178" flag="0"/>
      <psa30 value="0.0074798127" flag="0"/>
    </comp>
    <comp name="--.HHZ">
      <acc value="0.0887044177" flag="0"/>
      <vel value="0.0367256940" flag="0"/>
      <psa03 value="0.2248667850" flag="0"/>
      <psa10 value="0.0328508113" flag="0"/>
      <psa30 value="0.0078902262" flag="0"/>
    </comp>
  </station>
  <station code="DMLN" name="DMLN" netid="HT" source="NOA" insttype="1s-100Hz," lat="38.2385" lon="20.3734">
    <comp name="--.HHE">
      <acc value="0.0608789335" flag="0"/>
      <vel value="0.0222539106" flag="0"/>
      <psa03 value="0.1330026758" flag="0"/>
      <psa10 value="0.0326316532" flag="0"/>
      <psa30 value="0.0022731508" flag="0"/>
    </comp>
    <comp name="--.HHN">
      <acc value="0.0690678511" flag="0"/>
      <vel value="0.0404699125" flag="0"/>
      <psa03 value="0.1684190352" flag="0"/>
      <psa10 value="0.0320594551" flag="0"/>
      <psa30 value="0.0035378458" flag="0"/>
    </comp>
    <comp name="--.HHZ">
      <acc value="0.0403180177" flag="0"/>
      <vel value="0.0190094658" flag="0"/>
      <psa03 value="0.0727004171" flag="0"/>
      <psa10 value="0.0141181546" flag="0"/>
      <psa30 value="0.0011442920" flag="0"/>
    </comp>
  </station>
  <station code="DRAG" name="DRAG" netid="HT" source="NOA" insttype="1s-100Hz," lat="38.6839" lon="20.5746">
    <comp name="--.HHE">
      <acc value="0.0002042576" flag="0"/>
      <vel value="0.0001207582" flag="0"/>
      <psa03 value="0.0005291091" flag="0"/>
      <psa10 value="0.0001711382" flag="0"/>
      <psa30 value="0.0000096008" flag="0"/>
    </comp>
    <comp name="--.HHN">
      <acc value="0.0001350551" flag="0"/>
      <vel value="0.0000665682" flag="0"/>
      <psa03 value="0.0003303663" flag="0"/>
      <psa10 value="0.0001303526" flag="0"/>
      <psa30 value="0.0000044714" flag="0"/>
    </comp>
    <comp name="--.HHZ">
      <acc value="0.0005941725" flag="0"/>
      <vel value="0.0002065163" flag="0"/>
      <psa03 value="0.0008240489" flag="0"/>
      <psa10 value="0.0002343534" flag="0"/>
      <psa30 value="0.0000417923" flag="0"/>
    </comp>
  </station>
  <station code="NYDR" name="NYDR" netid="HT" source="NOA" insttype="1s-100Hz," lat="38.7135" lon="20.6983">
    <comp name="--.HHE">
      <acc value="0.0079722079" flag="0"/>
      <vel value="0.0073974659" flag="0"/>
      <psa03 value="0.0125229897" flag="0"/>
      <psa10 value="0.0074992472" flag="0"/>
      <psa30 value="0.0016252289" flag="0"/>
    </comp>
    <comp name="--.HHN">
      <acc value="0.0107676567" flag="0"/>
      <vel value="0.0051927832" flag="0"/>
      <psa03 value="0.0271228915" flag="0"/>
      <psa10 value="0.0076049712" flag="0"/>
      <psa30 value="0.0006130942" flag="0"/>
    </comp>
    <comp name="--.HHZ">
      <acc value="0.0057226046" flag="0"/>
      <vel value="0.0054781538" flag="0"/>
      <psa03 value="0.0109644527" flag="0"/>
      <psa10 value="0.0081496825" flag="0"/>
      <psa30 value="0.0007988917" flag="0"/>
    </comp>
  </station>
  <station code="PSDA" name="PSDA" netid="HT" source="NOA" insttype="30" lat="38.114" lon="20.5841">
    <comp name="--.HHE">
      <acc value="0.1140730805" flag="0"/>
      <vel value="0.0303802567" flag="0"/>
      <psa03 value="0.1305532327" flag="0"/>
      <psa10 value="0.0178652112" flag="0"/>
      <psa30 value="0.0017190148" flag="0"/>
    </comp>
    <comp name="--.HHN">
      <acc value="0.0983583459" flag="0"/>
      <vel value="0.0231689338" flag="0"/>
      <psa03 value="0.1276715366" flag="0"/>
      <psa10 value="0.0170806938" flag="0"/>
      <psa30 value="0.0021269109" flag="0"/>
    </comp>
    <comp name="--.HHZ">
      <acc value="0.0847610375" flag="0"/>
      <vel value="0.0170255648" flag="0"/>
      <psa03 value="0.0657986592" flag="0"/>
      <psa10 value="0.0124524625" flag="0"/>
      <psa30 value="0.0026192339" flag="0"/>
    </comp>
  </station>
  <station code="TSLK" name="TSLK" netid="HT" source="NOA" insttype="1s-100Hz," lat="38.8249" lon="20.6554">
    <comp name="--.HHE">
      <acc value="0.0157216446" flag="0"/>
      <vel value="0.0146619261" flag="0"/>
      <psa03 value="0.0297334330" flag="0"/>
      <psa10 value="0.0176465239" flag="0"/>
      <psa30 value="0.0031971972" flag="0"/>
    </comp>
    <comp name="--.HHN">
      <acc value="0.0121404463" flag="0"/>
      <vel value="0.0106790610" flag="0"/>
      <psa03 value="0.0261092167" flag="0"/>
      <psa10 value="0.0081654562" flag="0"/>
      <psa30 value="0.0027573970" flag="0"/>
    </comp>
    <comp name="--.HHZ">
      <acc value="0.0060589998" flag="0"/>
      <vel value="0.0045004824" flag="0"/>
      <psa03 value="0.0114181729" flag="0"/>
      <psa10 value="0.0037036503" flag="0"/>
      <psa30 value="0.0015837543" flag="0"/>
    </comp>
  </station>
</stationlist>
