<?xml version="1.0" encoding="UTF-8" standalone="yes"?>
<!DOCTYPE earthquake SYSTEM "stationlist.dtd">
<stationlist created="" xmlns="ch.ethz.sed.shakemap.usgs.xml">
  <station code="DST" name="DST" netid="KO" insttype="CMG-5T" commtype="DIG" lat="39.6041" lon="28.6267">
    <comp name="--.HNE">
      <acc value="0.0934503519" flag="0"/>
      <vel value="0.0236815342" flag="0"/>
      <psa03 value="0.1027347657" flag="0"/>
      <psa10 value="0.0230794767" flag="0"/>
      <psa30 value="0.0010874252" flag="0"/>
    </comp>
    <comp name="--.HNN">
      <acc value="0.0515569066" flag="0"/>
      <vel value="0.0172596988" flag="0"/>
      <psa03 value="0.0891505939" flag="0"/>
      <psa10 value="0.0145368737" flag="0"/>
      <psa30 value="0.0012420794" flag="0"/>
    </comp>
    <comp name="--.HNZ">
      <acc value="0.0615731508" flag="0"/>
      <vel value="0.0159187761" flag="0"/>
      <psa03 value="0.0568822759" flag="0"/>
      <psa10 value="0.0092765394" flag="0"/>
      <psa30 value="0.0006863934" flag="0"/>
    </comp>
  </station>
  <station code="GEDZ" name="GEDZ" netid="KO" insttype="CMG-6T" commtype="DIG" lat="39.0445" lon="29.4105">
    <comp name="--.HHN">
      <acc value="0.1629328985" flag="0"/>
      <vel value="0.0501356435" flag="0"/>
      <psa03 value="0.2764379767" flag="0"/>
      <psa10 value="0.0498485243" flag="0"/>
      <psa30 value="0.0023154390" flag="0"/>
    </comp>
    <comp name="--.HHZ">
      <acc value="0.0663277266" flag="0"/>
      <vel value="0.0123698490" flag="0"/>
      <psa03 value="0.0702875305" flag="0"/>
      <psa10 value="0.0100040081" flag="0"/>
      <psa30 value="0.0007793584" flag="0"/>
    </comp>
    <comp name="--.HHE">
      <acc value="0.1325406918" flag="0"/>
      <vel value="0.0362383055" flag="0"/>
      <psa03 value="0.1222423057" flag="0"/>
      <psa10 value="0.0341929482" flag="0"/>
      <psa30 value="0.0019544132" flag="0"/>
    </comp>
  </station>
  <station code="GORD" name="GORD" netid="KO" insttype="CMG-5T" commtype="DIG" lat="38.9088" lon="28.1769">
    <comp name="--.HNZ">
      <acc value="0.0267787831" flag="0"/>
      <vel value="0.0175608416" flag="0"/>
      <psa03 value="0.0554030905" flag="0"/>
      <psa10 value="0.0144672606" flag="0"/>
      <psa30 value="0.0011833708" flag="0"/>
    </comp>
    <comp name="--.HNE">
      <acc value="0.0393334459" flag="0"/>
      <vel value="0.0280076895" flag="0"/>
      <psa03 value="0.0580210374" flag="0"/>
      <psa10 value="0.0358696769" flag="0"/>
      <psa30 value="0.0014746211" flag="0"/>
    </comp>
    <comp name="--.HNN">
      <acc value="0.0310902613" flag="0"/>
      <vel value="0.0250610029" flag="0"/>
      <psa03 value="0.0645824331" flag="0"/>
      <psa10 value="0.0344193955" flag="0"/>
      <psa30 value="0.0018833319" flag="0"/>
    </comp>
  </station>
  <station code="ORLT" name="ORLT" netid="KO" insttype="CMG-5T" commtype="DIG" lat="40.0452" lon="28.8914">
    <comp name="--.HNE">
      <acc value="0.0321871815" flag="0"/>
      <vel value="0.0153711253" flag="0"/>
      <psa03 value="0.1000554799" flag="0"/>
      <psa10 value="0.0093141417" flag="0"/>
      <psa30 value="0.0007036976" flag="0"/>
    </comp>
    <comp name="--.HNN">
      <acc value="0.0465676221" flag="0"/>
      <vel value="0.0138141420" flag="0"/>
      <psa03 value="0.0972858966" flag="0"/>
      <psa10 value="0.0198020037" flag="0"/>
      <psa30 value="0.0008520455" flag="0"/>
    </comp>
    <comp name="--.HNZ">
      <acc value="0.0186114540" flag="0"/>
      <vel value="0.0070214837" flag="0"/>
      <psa03 value="0.0350242665" flag="0"/>
      <psa10 value="0.0090651408" flag="0"/>
      <psa30 value="0.0006105366" flag="0"/>
    </comp>
  </station>
  <station code="SHAP" name="SHAP" netid="KO" insttype="CMG-5T" commtype="DIG" lat="39.0231" lon="29.222">
    <comp name="--.HNN">
      <acc value="0.4103986540" flag="0"/>
      <vel value="0.0975795465" flag="0"/>
      <psa03 value="0.2097574186" flag="0"/>
      <psa10 value="0.0317311618" flag="0"/>
      <psa30 value="0.0020181142" flag="0"/>
    </comp>
    <comp name="--.HNZ">
      <acc value="0.2605115277" flag="0"/>
      <vel value="0.0436786444" flag="0"/>
      <psa03 value="0.1041116928" flag="0"/>
      <psa10 value="0.0131107909" flag="0"/>
      <psa30 value="0.0014526634" flag="0"/>
    </comp>
    <comp name="--.HNE">
      <acc value="0.7135605145" flag="0"/>
      <vel value="0.1172753440" flag="0"/>
      <psa03 value="0.2962126432" flag="0"/>
      <psa10 value="0.0214966647" flag="0"/>
      <psa30 value="0.0023123528" flag="0"/>
    </comp>
  </station>
  <station code="SIMA" name="SIMA" netid="KO" insttype="CMG-6T" commtype="DIG" lat="39.0833" lon="28.9825">
    <comp name="--.HHE">
      <acc value="0.4837300547" flag="0"/>
      <vel value="0.1114637192" flag="0"/>
      <psa03 value="0.5383853217" flag="0"/>
      <psa10 value="0.0418519347" flag="0"/>
      <psa30 value="0.0036659686" flag="0"/>
    </comp>
    <comp name="--.HHN">
      <acc value="0.4723469817" flag="0"/>
      <vel value="0.0791194286" flag="0"/>
      <psa03 value="0.3315561391" flag="0"/>
      <psa10 value="0.0422024214" flag="0"/>
      <psa30 value="0.0036332173" flag="0"/>
    </comp>
    <comp name="--.HHZ">
      <acc value="0.5677555539" flag="0"/>
      <vel value="0.1075002721" flag="0"/>
      <psa03 value="0.3206285012" flag="0"/>
      <psa10 value="0.0303610156" flag="0"/>
      <psa30 value="0.0031553810" flag="0"/>
    </comp>
  </station>
  <station code="SMAA" name="SMAA" netid="KO" insttype="CMG-5T" commtype="DIG" lat="39.1005" lon="28.9805">
    <comp name="--.HNE">
      <acc value="0.4042541307" flag="0"/>
      <vel value="0.1966000587" flag="0"/>
      <psa03 value="0.7796281463" flag="0"/>
      <psa10 value="0.3512195592" flag="0"/>
      <psa30 value="0.0190508015" flag="0"/>
    </comp>
    <comp name="--.HNN">
      <acc value="0.4752194418" flag="0"/>
      <vel value="0.2120123851" flag="0"/>
      <psa03 value="0.8713510370" flag="0"/>
      <psa10 value="0.4624576564" flag="0"/>
      <psa30 value="0.0218554815" flag="0"/>
    </comp>
    <comp name="--.HNZ">
      <acc value="1.3329932878" flag="0"/>
      <vel value="0.2803206185" flag="0"/>
      <psa03 value="0.6907396883" flag="0"/>
      <psa10 value="0.2657000162" flag="0"/>
      <psa30 value="0.0065830686" flag="0"/>
    </comp>
  </station>
  <station code="SOMA" name="SOMA" netid="KO" insttype="CMG-5T" commtype="DIG" lat="39.1564" lon="27.5341">
    <comp name="--.HNE">
      <acc value="0.0326811759" flag="0"/>
      <vel value="0.0169949072" flag="0"/>
      <psa03 value="0.0591963174" flag="0"/>
      <psa10 value="0.0117456558" flag="0"/>
      <psa30 value="0.0009294853" flag="0"/>
    </comp>
    <comp name="--.HNN">
      <acc value="0.0340681047" flag="0"/>
      <vel value="0.0185265178" flag="0"/>
      <psa03 value="0.0616247276" flag="0"/>
      <psa10 value="0.0189798838" flag="0"/>
      <psa30 value="0.0011026830" flag="0"/>
    </comp>
    <comp name="--.HNZ">
      <acc value="0.0332626661" flag="0"/>
      <vel value="0.0153742036" flag="0"/>
      <psa03 value="0.0569899741" flag="0"/>
      <psa10 value="0.0092404239" flag="0"/>
      <psa30 value="0.0006878761" flag="0"/>
    </comp>
  </station>
  <station code="SUSR" name="SUSR" netid="KO" insttype="CMG-5T" commtype="DIG" lat="39.9627" lon="28.0835">
    <comp name="--.HNE">
      <acc value="0.0447451790" flag="0"/>
      <vel value="0.0111510157" flag="0"/>
      <psa03 value="0.0615576480" flag="0"/>
      <psa10 value="0.0078948164" flag="0"/>
      <psa30 value="0.0005082690" flag="0"/>
    </comp>
    <comp name="--.HNN">
      <acc value="0.0582217295" flag="0"/>
      <vel value="0.0140649389" flag="0"/>
      <psa03 value="0.0717410028" flag="0"/>
      <psa10 value="0.0163794402" flag="0"/>
      <psa30 value="0.0012337396" flag="0"/>
    </comp>
    <comp name="--.HNZ">
      <acc value="0.0392200565" flag="0"/>
      <vel value="0.0099539872" flag="0"/>
      <psa03 value="0.0416296832" flag="0"/>
      <psa10 value="0.0065057456" flag="0"/>
      <psa30 value="0.0004148457" flag="0"/>
    </comp>
  </station>
  <station code="TVSB" name="TVSB" netid="KO" insttype="CMG-3T" commtype="DIG" lat="39.4497" lon="29.4615">
    <comp name="--.HHE">
      <acc value="0.1754233865" flag="0"/>
      <vel value="0.0425451033" flag="0"/>
      <psa03 value="0.3481256769" flag="0"/>
      <psa10 value="0.0173323811" flag="0"/>
      <psa30 value="0.0011671472" flag="0"/>
    </comp>
    <comp name="--.HHZ">
      <acc value="0.0810843493" flag="0"/>
      <vel value="0.0224227367" flag="0"/>
      <psa03 value="0.0842960739" flag="0"/>
      <psa10 value="0.0223441805" flag="0"/>
      <psa30 value="0.0014258748" flag="0"/>
    </comp>
    <comp name="--.HHN">
      <acc value="0.1804101771" flag="0"/>
      <vel value="0.0516695172" flag="0"/>
      <psa03 value="0.1561845219" flag="0"/>
      <psa10 value="0.0179694135" flag="0"/>
      <psa30 value="0.0014428838" flag="0"/>
    </comp>
  </station>
</stationlist>
