<stationlist xmlns:esm="https://esm-db.eu/esmws/shakemap/1/" created="1783994171">
	<station code="ROD3" name="ROD3" netid="CL" source="Corinth Riff Laboratory (CRLNET)" insttype="" lat="38.30811" lon="21.89204" esm:processing="manual (Paolucci et al 2011)" esm:quality="good">
		<comp name="00.HNE" depth="0.0">
			<acc value="0.0354324674595401" flag="0"/>
			<vel value="0.0255716257456717" flag="0"/>
			<psa03 value="0.175657903183335" flag="0"/>
			<psa10 value="0.0218292751869886" flag="0"/>
			<psa30 value="0.00476728211517685" flag="0"/>
		</comp>
		<comp name="00.HNN" depth="0.0">
			<acc value="0.0367072180300224" flag="0"/>
			<vel value="0.0233037932455266" flag="0"/>
			<psa03 value="0.121072411109043" flag="0"/>
			<psa10 value="0.030217096661716" flag="0"/>
			<psa30 value="0.00455744116613716" flag="0"/>
		</comp>
		<comp name="00.HNZ" depth="0.0">
			<acc value="0.0165531792778136" flag="0"/>
			<vel value="0.00962905323921365" flag="0"/>
			<psa03 value="0.0337803659967952" flag="0"/>
			<psa10 value="0.0160669263966214" flag="0"/>
			<psa30 value="0.00201876836261642" flag="0"/>
		</comp>
	</station>
	<station code="ARG2" name="ARG2" netid="HI" source="ITSAK Strong Motion Network" insttype="" lat="38.1783" lon="20.4878" esm:processing="manual (Paolucci et al 2011)" esm:quality="best">
		<comp name="--.HNE" depth="0.0">
			<acc value="0.128500322072488" flag="0"/>
			<vel value="0.0745151456991827" flag="0"/>
			<psa03 value="0.274717148636189" flag="0"/>
			<psa10 value="0.119112702459163" flag="0"/>
			<psa30 value="0.0164190475627072" flag="0"/>
		</comp>
		<comp name="--.HNN" depth="0.0">
			<acc value="0.132806658995624" flag="0"/>
			<vel value="0.0779123830670253" flag="0"/>
			<psa03 value="0.207245901055835" flag="0"/>
			<psa10 value="0.0962163256443287" flag="0"/>
			<psa30 value="0.013022219236248" flag="0"/>
		</comp>
		<comp name="--.HNZ" depth="0.0">
			<acc value="0.0783323108127512" flag="0"/>
			<vel value="0.0394026697963953" flag="0"/>
			<psa03 value="0.164696062561858" flag="0"/>
			<psa10 value="0.0399136276800279" flag="0"/>
			<psa30 value="0.00899721032886826" flag="0"/>
		</comp>
	</station>
	<station code="KLV1" name="KLV1" netid="HI" source="ITSAK Strong Motion Network" insttype="" lat="38.03256" lon="22.10797" esm:processing="manual (Paolucci et al 2011)" esm:quality="best">
		<comp name="--.HNE" depth="0.0">
			<acc value="0.0185522326620313" flag="0"/>
			<vel value="0.0158780576544051" flag="0"/>
			<psa03 value="0.0650999106295854" flag="0"/>
			<psa10 value="0.0257030554359986" flag="0"/>
			<psa30 value="0.00614757918935054" flag="0"/>
		</comp>
		<comp name="--.HNN" depth="0.0">
			<acc value="0.0209475102404872" flag="0"/>
			<vel value="0.014529836584807" flag="0"/>
			<psa03 value="0.0551223985537108" flag="0"/>
			<psa10 value="0.020069564200692" flag="0"/>
			<psa30 value="0.00276372610281065" flag="0"/>
		</comp>
		<comp name="--.HNZ" depth="0.0">
			<acc value="0.00893037375601681" flag="0"/>
			<vel value="0.00944830603137109" flag="0"/>
			<psa03 value="0.0198207975318944" flag="0"/>
			<psa10 value="0.0156441125440787" flag="0"/>
			<psa30 value="0.00277133227793575" flag="0"/>
		</comp>
	</station>
	<station code="KRI1" name="KRI1" netid="HI" source="ITSAK Strong Motion Network" insttype="" lat="37.6621" lon="20.8172" esm:processing="manual (Paolucci et al 2011)" esm:quality="best">
		<comp name="--.HNE" depth="0.0">
			<acc value="0.544849577126432" flag="0"/>
			<vel value="0.170352372152003" flag="0"/>
			<psa03 value="0.647688183006102" flag="0"/>
			<psa10 value="0.146905666366301" flag="0"/>
			<psa30 value="0.0349664818942456" flag="0"/>
		</comp>
		<comp name="--.HNN" depth="0.0">
			<acc value="0.430080848219184" flag="0"/>
			<vel value="0.283811681248221" flag="0"/>
			<psa03 value="0.791713346110319" flag="0"/>
			<psa10 value="0.262245258541345" flag="0"/>
			<psa30 value="0.0283401610940795" flag="0"/>
		</comp>
		<comp name="--.HNZ" depth="0.0">
			<acc value="0.281251972168851" flag="0"/>
			<vel value="0.15939350827086" flag="0"/>
			<psa03 value="0.408809541871149" flag="0"/>
			<psa10 value="0.110596023429375" flag="0"/>
			<psa30 value="0.0169434262242733" flag="0"/>
		</comp>
	</station>
	<station code="MSL1" name="MSL1" netid="HI" source="ITSAK Strong Motion Network" insttype="" lat="38.3727" lon="21.4243" esm:processing="manual (Paolucci et al 2011)" esm:quality="best">
		<comp name="--.HNE" depth="0.0">
			<acc value="0.0445726172986452" flag="0"/>
			<vel value="0.0510233203460181" flag="0"/>
			<psa03 value="0.149081032452081" flag="0"/>
			<psa10 value="0.0944324538664582" flag="0"/>
			<psa30 value="0.0162687137484698" flag="0"/>
		</comp>
		<comp name="--.HNN" depth="0.0">
			<acc value="0.0576907697311732" flag="0"/>
			<vel value="0.0755147819404681" flag="0"/>
			<psa03 value="0.122056739654645" flag="0"/>
			<psa10 value="0.111892652577173" flag="0"/>
			<psa30 value="0.0159863904247085" flag="0"/>
		</comp>
		<comp name="--.HNZ" depth="0.0">
			<acc value="0.0215867278743708" flag="0"/>
			<vel value="0.029854802940383" flag="0"/>
			<psa03 value="0.0597755880420111" flag="0"/>
			<psa10 value="0.0795816206457214" flag="0"/>
			<psa30 value="0.00476146562831648" flag="0"/>
		</comp>
	</station>
	<station code="PYL1" name="PYL1" netid="HI" source="ITSAK Strong Motion Network" insttype="" lat="36.914188" lon="21.695161" esm:processing="manual (Paolucci et al 2011)" esm:quality="best">
		<comp name="--.HNE" depth="0.0">
			<acc value="0.0312138747451475" flag="0"/>
			<vel value="0.0142875958280037" flag="0"/>
			<psa03 value="0.0772250486231371" flag="0"/>
			<psa10 value="0.0162279983404472" flag="0"/>
			<psa30 value="0.00485631910634722" flag="0"/>
		</comp>
		<comp name="--.HNN" depth="0.0">
			<acc value="0.028359311352012" flag="0"/>
			<vel value="0.0175146492688354" flag="0"/>
			<psa03 value="0.054003843388254" flag="0"/>
			<psa10 value="0.0119314042388945" flag="0"/>
			<psa30 value="0.0124378860178134" flag="0"/>
		</comp>
		<comp name="--.HNZ" depth="0.0">
			<acc value="0.0175200955900792" flag="0"/>
			<vel value="0.00853910732882333" flag="0"/>
			<psa03 value="0.0323486153850105" flag="0"/>
			<psa10 value="0.00799722201094989" flag="0"/>
			<psa30 value="0.00485631910634722" flag="0"/>
		</comp>
	</station>
	<station code="ARTB" name="ARTB" netid="HL" source="National Observatory of Athens Seismic Network" insttype="" lat="39.15702" lon="20.9785" esm:processing="manual (Paolucci et al 2011)" esm:quality="best">
		<comp name="00.HNE" depth="0.0">
			<acc value="0.0157268583923815" flag="0"/>
			<vel value="0.0105998622647552" flag="0"/>
			<psa03 value="0.0410840106765754" flag="0"/>
			<psa10 value="0.0118260774820829" flag="0"/>
			<psa30 value="0.00163248283147616" flag="0"/>
		</comp>
		<comp name="00.HNN" depth="0.0">
			<acc value="0.0129842358331738" flag="0"/>
			<vel value="0.0089414680381683" flag="0"/>
			<psa03 value="0.0397217225150155" flag="0"/>
			<psa10 value="0.0134139045428617" flag="0"/>
			<psa30 value="0.00169664010241541" flag="0"/>
		</comp>
		<comp name="00.HNZ" depth="0.0">
			<acc value="0.00677497690633793" flag="0"/>
			<vel value="0.00642293377748714" flag="0"/>
			<psa03 value="0.0120690664434911" flag="0"/>
			<psa10 value="0.00684959297067512" flag="0"/>
			<psa30 value="0.00266332080693052" flag="0"/>
		</comp>
	</station>
	<station code="DLFA" name="DLFA" netid="HL" source="National Observatory of Athens Seismic Network" insttype="" lat="38.47836" lon="22.49583" esm:processing="manual (Paolucci et al 2011)" esm:quality="bad">
		<comp name="00.HNE" depth="0.0">
			<acc value="0.00477670436455168" flag="0"/>
			<vel value="0.00485792648689514" flag="0"/>
			<psa03 value="0.00943775931981802" flag="0"/>
			<psa10 value="0.00642451262367054" flag="0"/>
			<psa30 value="0.00156135114018364" flag="0"/>
		</comp>
		<comp name="00.HNN" depth="0.0">
			<acc value="0.00349364444746515" flag="0"/>
			<vel value="0.00598837686055536" flag="0"/>
			<psa03 value="0.00893624562823003" flag="0"/>
			<psa10 value="0.0081603727721549" flag="0"/>
			<psa30 value="0.00340063756721608" flag="0"/>
		</comp>
		<comp name="00.HNZ" depth="0.0">
			<acc value="0.00366279769831179" flag="0"/>
			<vel value="0.00456874645179588" flag="0"/>
			<psa03 value="0.00710680021770473" flag="0"/>
			<psa10 value="0.00548737476166708" flag="0"/>
			<psa30 value="0.00262435447560232" flag="0"/>
		</comp>
	</station>
	<station code="ITM" name="ITM" netid="HL" source="National Observatory of Athens Seismic Network" insttype="" lat="37.17872" lon="21.92522" esm:processing="manual (Paolucci et al 2011)" esm:quality="best">
		<comp name="--.HNE" depth="0.0">
			<acc value="0.0202528936675014" flag="0"/>
			<vel value="0.0183123251736024" flag="0"/>
			<psa03 value="0.038151477869023" flag="0"/>
			<psa10 value="0.0233253901926441" flag="0"/>
			<psa30 value="0.0115774102799667" flag="0"/>
		</comp>
		<comp name="--.HNN" depth="0.0">
			<acc value="0.022285058999484" flag="0"/>
			<vel value="0.0246054084894455" flag="0"/>
			<psa03 value="0.0532095613307649" flag="0"/>
			<psa10 value="0.0198119324432883" flag="0"/>
			<psa30 value="0.0196435662898652" flag="0"/>
		</comp>
		<comp name="--.HNZ" depth="0.0">
			<acc value="0.0147094465647578" flag="0"/>
			<vel value="0.014372690988127" flag="0"/>
			<psa03 value="0.0281080911897792" flag="0"/>
			<psa10 value="0.0170270579590141" flag="0"/>
			<psa30 value="0.00472872117124705" flag="0"/>
		</comp>
	</station>
	<station code="KIAA" name="KIAA" netid="HL" source="National Observatory of Athens Seismic Network" insttype="" lat="38.0139" lon="22.7495" esm:processing="manual (Paolucci et al 2011)" esm:quality="good">
		<comp name="00.HNE" depth="0.0">
			<acc value="0.0236289051714761" flag="0"/>
			<vel value="0.0371287167391009" flag="0"/>
			<psa03 value="0.0440015659294792" flag="0"/>
			<psa10 value="0.0647463066250283" flag="0"/>
			<psa30 value="0.017363918607739" flag="0"/>
		</comp>
		<comp name="00.HNN" depth="0.0">
			<acc value="0.0223275409009746" flag="0"/>
			<vel value="0.0340863025009657" flag="0"/>
			<psa03 value="0.0418675547700223" flag="0"/>
			<psa10 value="0.0789312763096287" flag="0"/>
			<psa30 value="0.0142553526804918" flag="0"/>
		</comp>
		<comp name="00.HNZ" depth="0.0">
			<acc value="0.0141477191817294" flag="0"/>
			<vel value="0.0198565427887868" flag="0"/>
			<psa03 value="0.0309910217530823" flag="0"/>
			<psa10 value="0.0361171013306955" flag="0"/>
			<psa30 value="0.00376132625273998" flag="0"/>
		</comp>
	</station>
	<station code="LXRA" name="LXRA" netid="HL" source="National Observatory of Athens Seismic Network" insttype="" lat="38.20006" lon="20.43718" esm:processing="manual (Paolucci et al 2011)" esm:quality="good">
		<comp name="00.HNE" depth="0.0">
			<acc value="0.141458814772307" flag="0"/>
			<vel value="0.114373815720895" flag="0"/>
			<psa03 value="0.392747089695189" flag="0"/>
			<psa10 value="0.221856468627031" flag="0"/>
			<psa30 value="0.030388459313064" flag="0"/>
		</comp>
		<comp name="00.HNN" depth="0.0">
			<acc value="0.159451209231739" flag="0"/>
			<vel value="0.126047397516289" flag="0"/>
			<psa03 value="0.388496580066454" flag="0"/>
			<psa10 value="0.234198606322682" flag="0"/>
			<psa30 value="0.035704728303447" flag="0"/>
		</comp>
		<comp name="00.HNZ" depth="0.0">
			<acc value="0.0883875961085527" flag="0"/>
			<vel value="0.0667995871727471" flag="0"/>
			<psa03 value="0.188319947656306" flag="0"/>
			<psa10 value="0.130077675035103" flag="0"/>
			<psa30 value="0.0136794822514704" flag="0"/>
		</comp>
	</station>
	<station code="PATC" name="PATC" netid="HL" source="National Observatory of Athens Seismic Network" insttype="" lat="38.26933" lon="21.76001" esm:processing="manual (Paolucci et al 2011)" esm:quality="best">
		<comp name="00.HNE" depth="0.0">
			<acc value="0.0357291540265379" flag="0"/>
			<vel value="0.0433056941313962" flag="0"/>
			<psa03 value="0.112046016248632" flag="0"/>
			<psa10 value="0.068659608362004" flag="0"/>
			<psa30 value="0.0155409661793926" flag="0"/>
		</comp>
		<comp name="00.HNN" depth="0.0">
			<acc value="0.028889934409616" flag="0"/>
			<vel value="0.0426268727230473" flag="0"/>
			<psa03 value="0.109375214321111" flag="0"/>
			<psa10 value="0.0556600284538512" flag="0"/>
			<psa30 value="0.0182406350192143" flag="0"/>
		</comp>
		<comp name="00.HNZ" depth="0.0">
			<acc value="0.0250162514070866" flag="0"/>
			<vel value="0.0201927633906062" flag="0"/>
			<psa03 value="0.0601155813206947" flag="0"/>
			<psa10 value="0.0287567493684962" flag="0"/>
			<psa30 value="0.00528917496520114" flag="0"/>
		</comp>
	</station>
	<station code="PATG" name="PATG" netid="HL" source="National Observatory of Athens Seismic Network" insttype="" lat="38.23865" lon="21.72657" esm:processing="manual (Paolucci et al 2011)" esm:quality="good">
		<comp name="00.HNE" depth="0.0">
			<acc value="0.0586858090648104" flag="0"/>
			<vel value="0.052600354290474" flag="0"/>
			<psa03 value="0.11764766858072" flag="0"/>
			<psa10 value="0.0701217777234414" flag="0"/>
			<psa30 value="0.025864053366595" flag="0"/>
		</comp>
		<comp name="00.HNN" depth="0.0">
			<acc value="0.0471274349304704" flag="0"/>
			<vel value="0.0618188976793041" flag="0"/>
			<psa03 value="0.145816857567882" flag="0"/>
			<psa10 value="0.0684644079309686" flag="0"/>
			<psa30 value="0.021634669857368" flag="0"/>
		</comp>
		<comp name="00.HNZ" depth="0.0">
			<acc value="0.0604439332626444" flag="0"/>
			<vel value="0.0341374011023513" flag="0"/>
			<psa03 value="0.052122713290648" flag="0"/>
			<psa10 value="0.0432499838490881" flag="0"/>
			<psa30 value="0.0165737212610102" flag="0"/>
		</comp>
	</station>
	<station code="PRGA" name="PRGA" netid="HL" source="National Observatory of Athens Seismic Network" insttype="" lat="39.28557" lon="20.40157" esm:processing="manual (Paolucci et al 2011)" esm:quality="good">
		<comp name="00.HNE" depth="0.0">
			<acc value="0.024638140718878" flag="0"/>
			<vel value="0.0191314256790299" flag="0"/>
			<psa03 value="0.0825894815645049" flag="0"/>
			<psa10 value="0.02368184005566" flag="0"/>
			<psa30 value="0.0029119216505199" flag="0"/>
		</comp>
		<comp name="00.HNN" depth="0.0">
			<acc value="0.0263190747134211" flag="0"/>
			<vel value="0.0157494622482073" flag="0"/>
			<psa03 value="0.0771000085389161" flag="0"/>
			<psa10 value="0.0213596693482613" flag="0"/>
			<psa30 value="0.00342617738410269" flag="0"/>
		</comp>
		<comp name="00.HNZ" depth="0.0">
			<acc value="0.00710224856982728" flag="0"/>
			<vel value="0.00843130546325302" flag="0"/>
			<psa03 value="0.0127514332615527" flag="0"/>
			<psa10 value="0.0109356897482564" flag="0"/>
			<psa30 value="0.00209759624712338" flag="0"/>
		</comp>
	</station>
	<station code="RIOA" name="RIOA" netid="HL" source="National Observatory of Athens Seismic Network" insttype="" lat="38.29585" lon="21.79118" esm:processing="manual (Paolucci et al 2011)" esm:quality="good">
		<comp name="00.HNE" depth="0.0">
			<acc value="0.0196619841142447" flag="0"/>
			<vel value="0.0192701007104603" flag="0"/>
			<psa03 value="0.0652295398870402" flag="0"/>
			<psa10 value="0.0348832995974176" flag="0"/>
			<psa30 value="0.00951741298190402" flag="0"/>
		</comp>
		<comp name="00.HNN" depth="0.0">
			<acc value="0.0190179524751497" flag="0"/>
			<vel value="0.0258443401193948" flag="0"/>
			<psa03 value="0.05113326753637" flag="0"/>
			<psa10 value="0.0270649654211174" flag="0"/>
			<psa30 value="0.00979916664668261" flag="0"/>
		</comp>
		<comp name="00.HNZ" depth="0.0">
			<acc value="0.0142155779684175" flag="0"/>
			<vel value="0.0182802007172668" flag="0"/>
			<psa03 value="0.0289108917671715" flag="0"/>
			<psa10 value="0.0165991433617776" flag="0"/>
			<psa30 value="0.00502504955153245" flag="0"/>
		</comp>
	</station>
	<station code="SMHA" name="SMHA" netid="HL" source="National Observatory of Athens Seismic Network" insttype="" lat="38.25123" lon="20.6477" esm:processing="manual (Paolucci et al 2011)" esm:quality="best">
		<comp name="00.HNE" depth="0.0">
			<acc value="0.18065909494218" flag="0"/>
			<vel value="0.0880425895747751" flag="0"/>
			<psa03 value="0.460899907358036" flag="0"/>
			<psa10 value="0.106056935751558" flag="0"/>
			<psa30 value="0.011853007703599" flag="0"/>
		</comp>
		<comp name="00.HNN" depth="0.0">
			<acc value="0.206136466322017" flag="0"/>
			<vel value="0.120114799202101" flag="0"/>
			<psa03 value="0.540615229770683" flag="0"/>
			<psa10 value="0.163527632903252" flag="0"/>
			<psa30 value="0.0100675994290473" flag="0"/>
		</comp>
		<comp name="00.HNZ" depth="0.0">
			<acc value="0.114984490480862" flag="0"/>
			<vel value="0.0684504563135622" flag="0"/>
			<psa03 value="0.250452841271616" flag="0"/>
			<psa10 value="0.055100832659787" flag="0"/>
			<psa30 value="0.00932779542068188" flag="0"/>
		</comp>
	</station>
	<station code="ZARA" name="ZARA" netid="HL" source="National Observatory of Athens Seismic Network" insttype="" lat="37.4865" lon="21.6491" esm:processing="manual (Paolucci et al 2011)" esm:quality="best">
		<comp name="00.HNE" depth="0.0">
			<acc value="0.11447434871927" flag="0"/>
			<vel value="0.0495589344907024" flag="0"/>
			<psa03 value="0.364345427762977" flag="0"/>
			<psa10 value="0.0502318626142509" flag="0"/>
			<psa30 value="0.0187037923677932" flag="0"/>
		</comp>
		<comp name="00.HNN" depth="0.0">
			<acc value="0.110253007010315" flag="0"/>
			<vel value="0.0700215479211076" flag="0"/>
			<psa03 value="0.325594839893379" flag="0"/>
			<psa10 value="0.0583989923968112" flag="0"/>
			<psa30 value="0.0160836387954775" flag="0"/>
		</comp>
		<comp name="00.HNZ" depth="0.0">
			<acc value="0.0431471799310119" flag="0"/>
			<vel value="0.030439601467148" flag="0"/>
			<psa03 value="0.129718176526118" flag="0"/>
			<psa10 value="0.0275761149072878" flag="0"/>
			<psa30 value="0.00983962516021192" flag="0"/>
		</comp>
	</station>
	<station code="ANX" name="ANX" netid="HP" source="University of Patras, Seismological Laboratory (PSLNET)" insttype="" lat="38.5933" lon="21.9209" esm:processing="automatic (Paolucci et al 2011)" esm:quality="best">
		<comp name="--.HNE" depth="0.0">
			<acc value="0.0197596495950033" flag="0"/>
			<vel value="0.0161386674526752" flag="0"/>
			<psa03 value="0.050553578093216" flag="0"/>
			<psa10 value="0.020574794854182" flag="0"/>
			<psa30 value="0.00533054478911341" flag="0"/>
		</comp>
		<comp name="--.HNN" depth="0.0">
			<acc value="0.0204614081103152" flag="0"/>
			<vel value="0.020194207820457" flag="0"/>
			<psa03 value="0.0423296400683959" flag="0"/>
			<psa10 value="0.0242748705910366" flag="0"/>
			<psa30 value="0.00451553038174361" flag="0"/>
		</comp>
		<comp name="--.HNZ" depth="0.0">
			<acc value="0.00907875098255214" flag="0"/>
			<vel value="0.0101877091519142" flag="0"/>
			<psa03 value="0.0311012113443022" flag="0"/>
			<psa10 value="0.0114979344942457" flag="0"/>
			<psa30 value="0.00347395679925753" flag="0"/>
		</comp>
	</station>
	<station code="FSK" name="FSK" netid="HP" source="University of Patras, Seismological Laboratory (PSLNET)" insttype="" lat="38.4593" lon="20.5623" esm:processing="manual (Paolucci et al 2011)" esm:quality="good">
		<comp name="--.HNE" depth="0.0">
			<acc value="0.0632904287349842" flag="0"/>
			<vel value="0.0420669719935376" flag="0"/>
			<psa03 value="0.113012163584536" flag="0"/>
			<psa10 value="0.0574223001955739" flag="0"/>
			<psa30 value="0.00811646017565311" flag="0"/>
		</comp>
		<comp name="--.HNN" depth="0.0">
			<acc value="0.0298031223896075" flag="0"/>
			<vel value="0.0335254106305266" flag="0"/>
			<psa03 value="0.0906550367012696" flag="0"/>
			<psa10 value="0.0498826394800542" flag="0"/>
			<psa30 value="0.00397706887796139" flag="0"/>
		</comp>
		<comp name="--.HNZ" depth="0.0">
			<acc value="0.0449784646170304" flag="0"/>
			<vel value="0.0230617840354799" flag="0"/>
