<?xml version="1.0" encoding="UTF-8" standalone="yes"?>
<!DOCTYPE earthquake SYSTEM "stationlist.dtd">
<stationlist created="" xmlns="ch.ethz.sed.shakemap.usgs.xml">
  <station code="ARG2" name="ARG2" netid="HI" source="NOA" insttype="CMG-5TD,ACCELEROMETER,GURALP" lat="38.1783" lon="20.4878">
    <comp name="--.HNE">
      <acc value="0.1266943335" flag="0"/>
      <vel value="0.0756393094" flag="0"/>
      <psa03 value="0.2773234470" flag="0"/>
      <psa10 value="0.1187550012" flag="0"/>
      <psa30 value="0.0133781340" flag="0"/>
    </comp>
    <comp name="--.HNN">
      <acc value="0.1323700427" flag="0"/>
      <vel value="0.0785825085" flag="0"/>
      <psa03 value="0.2073923722" flag="0"/>
      <psa10 value="0.0957660601" flag="0"/>
      <psa30 value="0.0087211400" flag="0"/>
    </comp>
    <comp name="--.HNZ">
      <acc value="0.0788211764" flag="0"/>
      <vel value="0.0322345481" flag="0"/>
      <psa03 value="0.1620979322" flag="0"/>
      <psa10 value="0.0390251511" flag="0"/>
      <psa30 value="0.0073453573" flag="0"/>
    </comp>
  </station>
  <station code="KRI1" name="KRI1" netid="HI" source="NOA" insttype="CMG-5TD,ACCELEROMETER,GURALP" lat="37.6621" lon="20.8172">
    <comp name="--.HNE">
      <acc value="0.5426929305" flag="0"/>
      <vel value="0.1693996300" flag="0"/>
      <psa03 value="0.6520265487" flag="0"/>
      <psa10 value="0.1474713948" flag="0"/>
      <psa30 value="0.0238368368" flag="0"/>
    </comp>
    <comp name="--.HNN">
      <acc value="0.4270211054" flag="0"/>
      <vel value="0.2509390289" flag="0"/>
      <psa03 value="0.7888160627" flag="0"/>
      <psa10 value="0.2615607328" flag="0"/>
      <psa30 value="0.0212629128" flag="0"/>
    </comp>
    <comp name="--.HNZ">
      <acc value="0.2779992161" flag="0"/>
      <vel value="0.1305426028" flag="0"/>
      <psa03 value="0.4091461280" flag="0"/>
      <psa10 value="0.1065256854" flag="0"/>
      <psa30 value="0.0119355385" flag="0"/>
    </comp>
  </station>
  <station code="MSL1" name="MSL1" netid="HI" source="NOA" insttype="CMG-5TD,ACCELEROMETER,GURALP" lat="38.3727" lon="21.4243">
    <comp name="--.HNE">
      <acc value="0.0440651139" flag="0"/>
      <vel value="0.0512508408" flag="0"/>
      <psa03 value="0.1480626391" flag="0"/>
      <psa10 value="0.0939472704" flag="0"/>
      <psa30 value="0.0146795683" flag="0"/>
    </comp>
    <comp name="--.HNN">
      <acc value="0.0580228691" flag="0"/>
      <vel value="0.0689541459" flag="0"/>
      <psa03 value="0.1207612725" flag="0"/>
      <psa10 value="0.1125869777" flag="0"/>
      <psa30 value="0.0140109619" flag="0"/>
    </comp>
    <comp name="--.HNZ">
      <acc value="0.0215167221" flag="0"/>
      <vel value="0.0259695063" flag="0"/>
      <psa03 value="0.0585555814" flag="0"/>
      <psa10 value="0.0791641969" flag="0"/>
      <psa30 value="0.0040924390" flag="0"/>
    </comp>
  </station>
  <station code="PYL1" name="PYL1" netid="HI" source="NOA" insttype="CMG-5TD,ACCELEROMETER,GURALP" lat="36.9142" lon="21.6952">
    <comp name="--.HNE">
      <acc value="0.0312646974" flag="0"/>
      <vel value="0.0155247514" flag="0"/>
      <psa03 value="0.0771129401" flag="0"/>
      <psa10 value="0.0160561419" flag="0"/>
      <psa30 value="0.0043406853" flag="0"/>
    </comp>
    <comp name="--.HNN">
      <acc value="0.0287914106" flag="0"/>
      <vel value="0.0162542592" flag="0"/>
      <psa03 value="0.0540510197" flag="0"/>
      <psa10 value="0.0114114819" flag="0"/>
      <psa30 value="0.0109511158" flag="0"/>
    </comp>
    <comp name="--.HNZ">
      <acc value="0.0171185981" flag="0"/>
      <vel value="0.0077905464" flag="0"/>
      <psa03 value="0.0315842149" flag="0"/>
      <psa10 value="0.0079352889" flag="0"/>
      <psa30 value="0.0041944710" flag="0"/>
    </comp>
  </station>
  <station code="ITM" name="ITM" netid="HL" source="NOA" insttype="DR24" lat="37.1787" lon="21.9252">
    <comp name="--.HHE">
      <acc value="0.0204500318" flag="0"/>
      <vel value="0.0174288777" flag="0"/>
      <psa03 value="0.0389278015" flag="0"/>
      <psa10 value="0.0237456965" flag="0"/>
      <psa30 value="0.0104328733" flag="0"/>
    </comp>
    <comp name="--.HHN">
      <acc value="0.0229124180" flag="0"/>
      <vel value="0.0235217680" flag="0"/>
      <psa03 value="0.0548091121" flag="0"/>
      <psa10 value="0.0194176035" flag="0"/>
      <psa30 value="0.0170782934" flag="0"/>
    </comp>
    <comp name="--.HHZ">
      <acc value="0.0159225663" flag="0"/>
      <vel value="0.0145358657" flag="0"/>
      <psa03 value="0.0298899227" flag="0"/>
      <psa10 value="0.0183131248" flag="0"/>
      <psa30 value="0.0043757319" flag="0"/>
    </comp>
  </station>
  <station code="LXRA" name="LXRA" netid="HL" source="NOA" insttype="CMG-5" lat="38.2001" lon="20.4372">
    <comp name="00.HNE">
      <acc value="0.1427270367" flag="0"/>
      <vel value="0.1139169295" flag="0"/>
      <psa03 value="0.3943841983" flag="0"/>
      <psa10 value="0.2215209858" flag="0"/>
      <psa30 value="0.0228308660" flag="0"/>
    </comp>
    <comp name="00.HNN">
      <acc value="0.1598336894" flag="0"/>
      <vel value="0.1282549292" flag="0"/>
      <psa03 value="0.3886239834" flag="0"/>
      <psa10 value="0.2331557408" flag="0"/>
      <psa30 value="0.0306595333" flag="0"/>
    </comp>
    <comp name="00.HNZ">
      <acc value="0.0873346912" flag="0"/>
      <vel value="0.0640801400" flag="0"/>
      <psa03 value="0.1872950031" flag="0"/>
      <psa10 value="0.1284736203" flag="0"/>
      <psa30 value="0.0120094273" flag="0"/>
    </comp>
  </station>
  <station code="RLS" name="RLS" netid="HL" source="NOA" insttype="120" lat="38.0559" lon="21.4647">
    <comp name="--.HHE">
      <acc value="0.0295907677" flag="0"/>
      <vel value="0.0178261875" flag="0"/>
      <psa03 value="0.0614518931" flag="0"/>
      <psa10 value="0.0226540207" flag="0"/>
      <psa30 value="0.0030748549" flag="0"/>
    </comp>
    <comp name="--.HHN">
      <acc value="0.0314606548" flag="0"/>
      <vel value="0.0145772468" flag="0"/>
      <psa03 value="0.0784794766" flag="0"/>
      <psa10 value="0.0199037484" flag="0"/>
      <psa30 value="0.0039099322" flag="0"/>
    </comp>
    <comp name="--.HHZ">
      <acc value="0.0146301201" flag="0"/>
      <vel value="0.0131819149" flag="0"/>
      <psa03 value="0.0429836709" flag="0"/>
      <psa10 value="0.0131721669" flag="0"/>
      <psa30 value="0.0034767508" flag="0"/>
    </comp>
  </station>
  <station code="VLS" name="VLS" netid="HL" source="NOA" insttype="120P," lat="38.1768" lon="20.5886">
    <comp name="--.HHE">
      <acc value="0.1182557705" flag="0"/>
      <vel value="0.0391109089" flag="0"/>
      <psa03 value="0.1739280511" flag="0"/>
      <psa10 value="0.0392566301" flag="0"/>
      <psa30 value="0.0039558817" flag="0"/>
    </comp>
    <comp name="--.HHN">
      <acc value="0.0943890476" flag="0"/>
      <vel value="0.0405657009" flag="0"/>
      <psa03 value="0.2471913804" flag="0"/>
      <psa10 value="0.0328162968" flag="0"/>
      <psa30 value="0.0071737008" flag="0"/>
    </comp>
    <comp name="--.HHZ">
      <acc value="0.0545224066" flag="0"/>
      <vel value="0.0235067307" flag="0"/>
      <psa03 value="0.1781501816" flag="0"/>
      <psa10 value="0.0332103586" flag="0"/>
      <psa30 value="0.0070072070" flag="0"/>
    </comp>
  </station>
  <station code="AMT" name="AMT" netid="HP" source="NOA" insttype="CMG-3T," lat="37.5324" lon="21.7089">
    <comp name="00.HHE">
      <acc value="0.0737087173" flag="0"/>
      <vel value="0.0547054432" flag="0"/>
      <psa03 value="0.2828698505" flag="0"/>
      <psa10 value="0.0619111977" flag="0"/>
      <psa30 value="0.0068464259" flag="0"/>
    </comp>
    <comp name="00.HHN">
      <acc value="0.0692940628" flag="0"/>
      <vel value="0.0459790168" flag="0"/>
      <psa03 value="0.2516245764" flag="0"/>
      <psa10 value="0.0478382538" flag="0"/>
      <psa30 value="0.0092692280" flag="0"/>
    </comp>
    <comp name="00.HHZ">
      <acc value="0.0417463917" flag="0"/>
      <vel value="0.0270325816" flag="0"/>
      <psa03 value="0.1526102104" flag="0"/>
      <psa10 value="0.0223564092" flag="0"/>
      <psa30 value="0.0045082841" flag="0"/>
    </comp>
  </station>
  <station code="AXS" name="AXS" netid="HP" source="NOA" insttype="40," lat="38.1962" lon="21.3763">
    <comp name="--.HHE">
      <acc value="0.0134719000" flag="0"/>
      <vel value="0.0086082436" flag="0"/>
      <psa03 value="0.0448280158" flag="0"/>
      <psa10 value="0.0111892866" flag="0"/>
      <psa30 value="0.0016814645" flag="0"/>
    </comp>
    <comp name="--.HHE">
      <acc value="0.0134719000" flag="0"/>
      <vel value="0.0086082436" flag="0"/>
      <psa03 value="0.0448280158" flag="0"/>
      <psa10 value="0.0111892866" flag="0"/>
      <psa30 value="0.0016814645" flag="0"/>
    </comp>
    <comp name="--.HHN">
      <acc value="0.0144274535" flag="0"/>
      <vel value="0.0145684644" flag="0"/>
      <psa03 value="0.0472568895" flag="0"/>
      <psa10 value="0.0159912364" flag="0"/>
      <psa30 value="0.0046186667" flag="0"/>
    </comp>
    <comp name="--.HHN">
      <acc value="0.0144274535" flag="0"/>
      <vel value="0.0145684644" flag="0"/>
      <psa03 value="0.0472568895" flag="0"/>
      <psa10 value="0.0159912364" flag="0"/>
      <psa30 value="0.0046186667" flag="0"/>
    </comp>
    <comp name="--.HHZ">
      <acc value="0.0098367377" flag="0"/>
      <vel value="0.0070064264" flag="0"/>
      <psa03 value="0.0222326396" flag="0"/>
      <psa10 value="0.0089442311" flag="0"/>
      <psa30 value="0.0021153449" flag="0"/>
    </comp>
    <comp name="--.HHZ">
      <acc value="0.0098367377" flag="0"/>
      <vel value="0.0070064264" flag="0"/>
      <psa03 value="0.0222326396" flag="0"/>
      <psa10 value="0.0089442311" flag="0"/>
      <psa30 value="0.0021153449" flag="0"/>
    </comp>
  </station>
  <station code="DRO" name="DRO" netid="HP" source="NOA" insttype="120P," lat="37.952" lon="21.71">
    <comp name="--.HHE">
      <acc value="0.0599733186" flag="0"/>
      <vel value="0.0363791081" flag="0"/>
      <psa03 value="0.1582100039" flag="0"/>
      <psa10 value="0.0389858432" flag="0"/>
      <psa30 value="0.0072754804" flag="0"/>
    </comp>
    <comp name="--.HHN">
      <acc value="0.0462455137" flag="0"/>
      <vel value="0.0268886468" flag="0"/>
      <psa03 value="0.1222252391" flag="0"/>
      <psa10 value="0.0417288075" flag="0"/>
      <psa30 value="0.0046907973" flag="0"/>
    </comp>
    <comp name="--.HHZ">
      <acc value="0.0251864055" flag="0"/>
      <vel value="0.0151986102" flag="0"/>
      <psa03 value="0.0652279019" flag="0"/>
      <psa10 value="0.0145807139" flag="0"/>
      <psa30 value="0.0041421934" flag="0"/>
    </comp>
  </station>
  <station code="FSK" name="FSK" netid="HP" source="NOA" insttype="40," lat="38.4593" lon="20.5623">
    <comp name="--.HHE">
      <acc value="0.0660572557" flag="0"/>
      <vel value="0.0414731508" flag="0"/>
      <psa03 value="0.1148769717" flag="0"/>
      <psa10 value="0.0603772316" flag="0"/>
      <psa30 value="0.0097367560" flag="0"/>
    </comp>
    <comp name="--.HHN">
      <acc value="0.0360091118" flag="0"/>
      <vel value="0.0384945993" flag="0"/>
      <psa03 value="0.0941820246" flag="0"/>
      <psa10 value="0.0562624981" flag="0"/>
      <psa30 value="0.0051930569" flag="0"/>
    </comp>
    <comp name="--.HHZ">
      <acc value="0.0445416848" flag="0"/>
      <vel value="0.0223522708" flag="0"/>
      <psa03 value="0.0908592175" flag="0"/>
      <psa10 value="0.0332706668" flag="0"/>
      <psa30 value="0.0050536036" flag="0"/>
    </comp>
  </station>
  <station code="LTHK" name="LTHK" netid="HP" source="NOA" insttype="40," lat="37.7095" lon="20.8367">
    <comp name="--.HHE">
      <acc value="0.5027160245" flag="0"/>
      <vel value="0.1692007721" flag="0"/>
      <psa03 value="0.5592935690" flag="0"/>
      <psa10 value="0.1256453823" flag="0"/>
      <psa30 value="0.0185920457" flag="0"/>
    </comp>
  </station>
  <station code="PYL" name="PYL" netid="HP" source="NOA" insttype="120s" lat="36.8955" lon="21.742">
    <comp name="--.HHN">
      <acc value="0.0016654148" flag="0"/>
      <vel value="0.0008134850" flag="0"/>
      <psa03 value="0.0021843889" flag="0"/>
      <psa10 value="0.0009146164" flag="0"/>
      <psa30 value="0.0003787735" flag="0"/>
    </comp>
  </station>
  <station code="DMLN" name="DMLN" netid="HT" source="NOA" insttype="1s-100Hz," lat="38.2385" lon="20.3734">
    <comp name="--.HHE">
      <acc value="0.1620507625" flag="0"/>
      <vel value="0.1757479274" flag="0"/>
      <psa03 value="0.2479733558" flag="0"/>
      <psa10 value="0.3012804877" flag="0"/>
      <psa30 value="0.0176714707" flag="0"/>
    </comp>
    <comp name="--.HHN">
      <acc value="0.1649646484" flag="0"/>
      <vel value="0.1206620854" flag="0"/>
      <psa03 value="0.4130820736" flag="0"/>
      <psa10 value="0.2471281234" flag="0"/>
      <psa30 value="0.0122852641" flag="0"/>
    </comp>
    <comp name="--.HHZ">
      <acc value="0.0776285937" flag="0"/>
      <vel value="0.0563637111" flag="0"/>
      <psa03 value="0.1962024222" flag="0"/>
      <psa10 value="0.0894152248" flag="0"/>
      <psa30 value="0.0067375493" flag="0"/>
    </comp>
  </station>
  <station code="DRAG" name="DRAG" netid="HT" source="NOA" insttype="1s-100Hz," lat="38.6839" lon="20.5746">
    <comp name="--.HHE">
      <acc value="0.0005967323" flag="0"/>
      <vel value="0.0003324553" flag="0"/>
      <psa03 value="0.0022227522" flag="0"/>
      <psa10 value="0.0005421045" flag="0"/>
      <psa30 value="0.0000485878" flag="0"/>
    </comp>
    <comp name="--.HHN">
      <acc value="0.0000315805" flag="0"/>
      <vel value="0.0000118413" flag="0"/>
      <psa03 value="0.0000811238" flag="0"/>
      <psa10 value="0.0000206012" flag="0"/>
      <psa30 value="0.0000015285" flag="0"/>
    </comp>
    <comp name="--.HHZ">
      <acc value="0.0002321133" flag="0"/>
      <vel value="0.0001390821" flag="0"/>
      <psa03 value="0.0007972611" flag="0"/>
      <psa10 value="0.0001463712" flag="0"/>
      <psa30 value="0.0000337962" flag="0"/>
    </comp>
  </station>
  <station code="EVGI" name="EVGI" netid="HT" source="NOA" insttype="30" lat="38.621" lon="20.656">
    <comp name="--.HHE">
      <acc value="0.0494198547" flag="0"/>
      <vel value="0.0278382289" flag="0"/>
      <psa03 value="0.0850599540" flag="0"/>
      <psa10 value="0.0358705971" flag="0"/>
      <psa30 value="0.0068667287" flag="0"/>
    </comp>
    <comp name="--.HHN">
      <acc value="nan" flag="0"/>
      <vel value="-100.0000000000" flag="0"/>
      <psa03 value="0.0000000000" flag="0"/>
      <psa10 value="0.0000000000" flag="0"/>
      <psa30 value="0.0000000000" flag="0"/>
    </comp>
    <comp name="--.HHZ">
      <acc value="0.0326104999" flag="0"/>
      <vel value="0.0178329531" flag="0"/>
      <psa03 value="0.0780380792" flag="0"/>
      <psa10 value="0.0199344487" flag="0"/>
      <psa30 value="0.0033106463" flag="0"/>
    </comp>
  </station>
  <station code="NYDR" name="NYDR" netid="HT" source="NOA" insttype="1s-100Hz," lat="38.7135" lon="20.6983">
    <comp name="--.HHE">
      <acc value="0.0220273840" flag="0"/>
      <vel value="0.0176530227" flag="0"/>
      <psa03 value="0.0555503564" flag="0"/>
      <psa10 value="0.0286256672" flag="0"/>
      <psa30 value="0.0040538101" flag="0"/>
    </comp>
    <comp name="--.HHN">
      <acc value="0.0203718429" flag="0"/>
      <vel value="0.0260741732" flag="0"/>
      <psa03 value="0.0477911764" flag="0"/>
      <psa10 value="0.0450825873" flag="0"/>
      <psa30 value="0.0031683980" flag="0"/>
    </comp>
    <comp name="--.HHZ">
      <acc value="0.0146021905" flag="0"/>
      <vel value="0.0156964536" flag="0"/>
      <psa03 value="0.0414162835" flag="0"/>
      <psa10 value="0.0190140183" flag="0"/>
      <psa30 value="0.0026770273" flag="0"/>
    </comp>
  </station>
  <station code="PSDA" name="PSDA" netid="HT" source="NOA" insttype="30" lat="38.114" lon="20.5841">
    <comp name="--.HHE">
      <acc value="0.1504610424" flag="0"/>
      <vel value="0.0639424863" flag="0"/>
      <psa03 value="0.4064100328" flag="0"/>
      <psa10 value="0.0875019782" flag="0"/>
      <psa30 value="0.0068077665" flag="0"/>
    </comp>
    <comp name="--.HHN">
      <acc value="0.1218468233" flag="0"/>
      <vel value="0.0633712802" flag="0"/>
      <psa03 value="0.3816316528" flag="0"/>
      <psa10 value="0.0588208206" flag="0"/>
      <psa30 value="0.0086938433" flag="0"/>
    </comp>
    <comp name="--.HHZ">
      <acc value="0.1097545635" flag="0"/>
      <vel value="0.0332989026" flag="0"/>
      <psa03 value="0.1387496431" flag="0"/>
      <psa10 value="0.0296179032" flag="0"/>
      <psa30 value="0.0100104453" flag="0"/>
    </comp>
  </station>
</stationlist>
