<?xml version="1.0" encoding="UTF-8" standalone="yes"?>
<!DOCTYPE earthquake SYSTEM "stationlist.dtd">
<stationlist created="" xmlns="ch.ethz.sed.shakemap.usgs.xml">
  <station code="GAZ" name="GAZ" netid="KO" insttype="CMG-3T" lat="37.1721" lon="37.2096">
    <comp name="--.HHZ">
      <acc value="0.0126030996" flag="0"/>
      <vel value="0.0067062264" flag="0"/>
      <psa03 value="0.0455845921" flag="0"/>
      <psa10 value="0.0053991233" flag="0"/>
      <psa30 value="0.0008321782" flag="0"/>
    </comp>
    <comp name="--.HHE">
      <acc value="0.0240910980" flag="0"/>
      <vel value="0.0115316019" flag="0"/>
      <psa03 value="0.0581664694" flag="0"/>
      <psa10 value="0.0082752806" flag="0"/>
      <psa30 value="0.0010984563" flag="0"/>
    </comp>
  </station>
  <station code="KMRS" name="KMRS" netid="KO" insttype="CMG-3T" lat="37.5053" lon="36.9">
    <comp name="--.HHE">
      <acc value="0.0130528169" flag="0"/>
      <vel value="0.0073867145" flag="0"/>
      <psa03 value="0.0293104113" flag="0"/>
      <psa10 value="0.0120717573" flag="0"/>
      <psa30 value="0.0017284781" flag="0"/>
    </comp>
    <comp name="--.HHN">
      <acc value="0.0129069209" flag="0"/>
      <vel value="0.0063510446" flag="0"/>
      <psa03 value="0.0275055940" flag="0"/>
      <psa10 value="0.0077955684" flag="0"/>
      <psa30 value="0.0019857732" flag="0"/>
    </comp>
    <comp name="--.HHZ">
      <acc value="0.0074092518" flag="0"/>
      <vel value="0.0059605748" flag="0"/>
      <psa03 value="0.0261108036" flag="0"/>
      <psa10 value="0.0056126699" flag="0"/>
      <psa30 value="0.0011805196" flag="0"/>
    </comp>
  </station>
  <station code="SARI" name="SARI" netid="KO" insttype="CMG-3T" lat="38.4072" lon="36.4181">
    <comp name="--.HHE">
      <acc value="0.0857845197" flag="0"/>
      <vel value="0.0247037511" flag="0"/>
      <psa03 value="0.0821637355" flag="0"/>
      <psa10 value="0.0263980362" flag="0"/>
      <psa30 value="0.0018256767" flag="0"/>
    </comp>
    <comp name="--.HHN">
      <acc value="0.0625935696" flag="0"/>
      <vel value="0.0247903781" flag="0"/>
      <psa03 value="0.0989527133" flag="0"/>
      <psa10 value="0.0376779670" flag="0"/>
      <psa30 value="0.0030813853" flag="0"/>
    </comp>
    <comp name="--.HHZ">
      <acc value="0.0461263421" flag="0"/>
      <vel value="0.0175517374" flag="0"/>
      <psa03 value="0.1008219940" flag="0"/>
      <psa10 value="0.0115864212" flag="0"/>
      <psa30 value="0.0014323551" flag="0"/>
    </comp>
  </station>
</stationlist>
