<?xml version="1.0" encoding="UTF-8" standalone="yes"?>
<!DOCTYPE earthquake SYSTEM "stationlist.dtd">
<stationlist created="" xmlns="ch.ethz.sed.shakemap.usgs.xml">
  <station code="GIL" name="GIL" netid="VI" source="ODC" insttype="CMG-3ESP" lat="66.0773" lon="-16.3513">
    <comp name="--.HHZ">
      <acc value="0.0232307683" flag="0"/>
      <vel value="0.0092010331" flag="0"/>
      <psa03 value="0.0408576375" flag="0"/>
      <psa10 value="0.0090991755" flag="0"/>
      <psa30 value="0.0016432610" flag="0"/>
    </comp>
    <comp name="--.HHN">
      <acc value="0.0451627031" flag="0"/>
      <vel value="0.0151650997" flag="0"/>
      <psa03 value="0.0538931629" flag="0"/>
      <psa10 value="0.0205465443" flag="0"/>
      <psa30 value="0.0028524795" flag="0"/>
    </comp>
    <comp name="--.HHE">
      <acc value="0.0269772550" flag="0"/>
      <vel value="0.0179710510" flag="0"/>
      <psa03 value="0.0805742230" flag="0"/>
      <psa10 value="0.0254769903" flag="0"/>
      <psa30 value="0.0028011970" flag="0"/>
    </comp>
  </station>
</stationlist>
