<?xml version="1.0" encoding="UTF-8" standalone="yes"?>
<!DOCTYPE earthquake SYSTEM "stationlist.dtd">
<stationlist created="" xmlns="ch.ethz.sed.shakemap.usgs.xml">
  <station code="ZKR" name="ZKR" netid="GE" insttype="STS-2/N" commtype="DIG" lat="35.1147" lon="26.2169">
    <comp name="--.HHN">
      <acc value="0.0579592641" flag="0"/>
      <vel value="0.0220565869" flag="0"/>
      <psa03 value="0.1589944567" flag="0"/>
      <psa10 value="0.0180573651" flag="0"/>
      <psa30 value="0.0016965599" flag="0"/>
    </comp>
    <comp name="--.HHE">
      <acc value="0.1319223961" flag="0"/>
      <vel value="0.0300511232" flag="0"/>
      <psa03 value="0.1302289799" flag="0"/>
      <psa10 value="0.0276087434" flag="0"/>
      <psa30 value="0.0034890807" flag="0"/>
    </comp>
    <comp name="--.HHZ">
      <acc value="0.0799333821" flag="0"/>
      <vel value="0.0226820785" flag="0"/>
      <psa03 value="0.0976936890" flag="0"/>
      <psa10 value="0.0364432769" flag="0"/>
      <psa30 value="0.0043787121" flag="0"/>
    </comp>
  </station>
  <station code="PFKS" name="PFKS" netid="HC" insttype="120" commtype="DIG" lat="35.0429" lon="25.4733">
    <comp name="--.HHZ">
      <acc value="0.0349771518" flag="0"/>
      <vel value="0.0139156515" flag="0"/>
      <psa03 value="0.0804763444" flag="0"/>
      <psa10 value="0.0129904003" flag="0"/>
      <psa30 value="0.0015362537" flag="0"/>
    </comp>
    <comp name="--.HHE">
      <acc value="0.0917340824" flag="0"/>
      <vel value="0.0303093724" flag="0"/>
      <psa03 value="0.2006008889" flag="0"/>
      <psa10 value="0.0170411983" flag="0"/>
      <psa30 value="0.0011644249" flag="0"/>
    </comp>
    <comp name="--.HHN">
      <acc value="0.0648385544" flag="0"/>
      <vel value="0.0258207195" flag="0"/>
      <psa03 value="0.1186585755" flag="0"/>
      <psa10 value="0.0227047004" flag="0"/>
      <psa30 value="0.0017254241" flag="0"/>
    </comp>
  </station>
  <station code="STIA" name="STIA" netid="HC" insttype="120" commtype="DIG" lat="35.2021" lon="26.0909">
    <comp name="--.HHN">
      <acc value="0.0000000000" flag="0"/>
      <vel value="-100.0000000000" flag="0"/>
      <psa03 value="0.0000000000" flag="0"/>
      <psa10 value="0.0000000000" flag="0"/>
      <psa30 value="0.0000000000" flag="0"/>
    </comp>
    <comp name="--.HHE">
      <acc value="0.1292292910" flag="0"/>
      <vel value="0.0559263975" flag="0"/>
      <psa03 value="0.2154152247" flag="0"/>
      <psa10 value="0.0665922559" flag="0"/>
      <psa30 value="0.0049359474" flag="0"/>
    </comp>
    <comp name="--.HHZ">
      <acc value="0.1417757902" flag="0"/>
      <vel value="0.0536298120" flag="0"/>
      <psa03 value="0.3101099546" flag="0"/>
      <psa10 value="0.0273992061" flag="0"/>
      <psa30 value="0.0029924691" flag="0"/>
    </comp>
  </station>
  <station code="AGN1" name="AGN1" netid="HI" insttype="unknown" commtype="DIG" lat="35.1879" lon="25.7155">
    <comp name="--.HNE">
      <acc value="0.0002811458" flag="0"/>
      <vel value="0.0001424560" flag="0"/>
      <psa03 value="0.0002759143" flag="0"/>
      <psa10 value="0.0001676615" flag="0"/>
      <psa30 value="0.0000655950" flag="0"/>
    </comp>
    <comp name="--.HNN">
      <acc value="0.0522216891" flag="0"/>
      <vel value="0.0192470237" flag="0"/>
      <psa03 value="0.0594448499" flag="0"/>
      <psa10 value="0.0216951676" flag="0"/>
      <psa30 value="0.0025852953" flag="0"/>
    </comp>
    <comp name="--.HNZ">
      <acc value="0.0309598435" flag="0"/>
      <vel value="0.0100611668" flag="0"/>
      <psa03 value="0.0446386230" flag="0"/>
      <psa10 value="0.0140695275" flag="0"/>
      <psa30 value="0.0019926084" flag="0"/>
    </comp>
  </station>
  <station code="ARK1" name="ARK1" netid="HI" insttype="unknown" commtype="DIG" lat="35.1488" lon="25.2642">
    <comp name="--.HNE">
      <acc value="0.0206094127" flag="0"/>
      <vel value="0.0133582158" flag="0"/>
      <psa03 value="0.0417568652" flag="0"/>
      <psa10 value="0.0275475778" flag="0"/>
      <psa30 value="0.0029810989" flag="0"/>
    </comp>
    <comp name="--.HNN">
      <acc value="0.0265060120" flag="0"/>
      <vel value="0.0177134583" flag="0"/>
      <psa03 value="0.0502458724" flag="0"/>
      <psa10 value="0.0327111390" flag="0"/>
      <psa30 value="0.0044938771" flag="0"/>
    </comp>
    <comp name="--.HNZ">
      <acc value="0.0173561478" flag="0"/>
      <vel value="0.0123975726" flag="0"/>
      <psa03 value="0.0442863660" flag="0"/>
      <psa10 value="0.0130173682" flag="0"/>
      <psa30 value="0.0013928022" flag="0"/>
    </comp>
  </station>
  <station code="KSS1" name="KSS1" netid="HI" insttype="CMG-5TD,ACCELEROMETER,GURALP" commtype="DIG" lat="35.4189" lon="26.9207">
    <comp name="--.HNE">
      <acc value="0.0054144529" flag="0"/>
      <vel value="0.0024148817" flag="0"/>
      <psa03 value="0.0196788348" flag="0"/>
      <psa10 value="0.0030513998" flag="0"/>
      <psa30 value="0.0007280717" flag="0"/>
    </comp>
    <comp name="--.HNN">
      <acc value="0.0067734667" flag="0"/>
      <vel value="0.0043678746" flag="0"/>
      <psa03 value="0.0325580319" flag="0"/>
      <psa10 value="0.0056723822" flag="0"/>
      <psa30 value="0.0005279507" flag="0"/>
    </comp>
    <comp name="--.HNZ">
      <acc value="0.0026475726" flag="0"/>
      <vel value="0.0021118406" flag="0"/>
      <psa03 value="0.0050009287" flag="0"/>
      <psa10 value="0.0041735089" flag="0"/>
      <psa30 value="0.0007060848" flag="0"/>
    </comp>
  </station>
  <station code="SIT2" name="SIT2" netid="HI" insttype="CMG-5TD,ACCELEROMETER,GURALP" commtype="DIG" lat="35.2059" lon="26.107">
    <comp name="--.HNN">
      <acc value="0.3118860675" flag="0"/>
      <vel value="0.2455164035" flag="0"/>
      <psa03 value="0.9062974525" flag="0"/>
      <psa10 value="0.1686876565" flag="0"/>
      <psa30 value="0.0106348190" flag="0"/>
    </comp>
    <comp name="--.HNZ">
      <acc value="0.1336015227" flag="0"/>
      <vel value="0.0518277218" flag="0"/>
      <psa03 value="0.3912917041" flag="0"/>
      <psa10 value="0.0343094587" flag="0"/>
      <psa30 value="0.0034963988" flag="0"/>
    </comp>
    <comp name="--.HNE">
      <acc value="0.2989391097" flag="0"/>
      <vel value="0.1923296171" flag="0"/>
      <psa03 value="1.0373890661" flag="0"/>
      <psa10 value="0.1247077542" flag="0"/>
      <psa30 value="0.0075492770" flag="0"/>
    </comp>
  </station>
  <station code="NPS" name="NPS" netid="HL" insttype="CMG3ESPC-120s" commtype="DIG" lat="35.2613" lon="25.6104">
    <comp name="--.HHE">
      <acc value="0.0057000114" flag="0"/>
      <vel value="0.0028227996" flag="0"/>
      <psa03 value="0.0096037136" flag="0"/>
      <psa10 value="0.0052390647" flag="0"/>
      <psa30 value="0.0004459709" flag="0"/>
    </comp>
    <comp name="--.HHN">
      <acc value="0.0217602168" flag="0"/>
      <vel value="0.0080097194" flag="0"/>
      <psa03 value="0.0430351316" flag="0"/>
      <psa10 value="0.0125198953" flag="0"/>
      <psa30 value="0.0021122590" flag="0"/>
    </comp>
    <comp name="--.HHZ">
      <acc value="0.0160218277" flag="0"/>
      <vel value="0.0066912227" flag="0"/>
      <psa03 value="0.0260368625" flag="0"/>
      <psa10 value="0.0115110708" flag="0"/>
      <psa30 value="0.0010824338" flag="0"/>
    </comp>
  </station>
</stationlist>
