<?xml version="1.0" encoding="UTF-8" standalone="yes"?>
<!DOCTYPE earthquake SYSTEM "stationlist.dtd">
<stationlist created="" xmlns="ch.ethz.sed.shakemap.usgs.xml">
  <station code="ZKR" name="ZKR" netid="GE" insttype="STS-2/N" commtype="DIG" lat="35.1147" lon="26.2169">
    <comp name="--.HHN">
      <acc value="0.0579592640" flag="0"/>
      <vel value="0.0220565877" flag="0"/>
      <psa03 value="0.1589944567" flag="0"/>
      <psa10 value="0.0180573652" flag="0"/>
      <psa30 value="0.0016965589" flag="0"/>
    </comp>
    <comp name="--.HHE">
      <acc value="0.1319223960" flag="0"/>
      <vel value="0.0300511220" flag="0"/>
      <psa03 value="0.1302289799" flag="0"/>
      <psa10 value="0.0276087433" flag="0"/>
      <psa30 value="0.0034891147" flag="0"/>
    </comp>
    <comp name="--.HHZ">
      <acc value="0.0799333821" flag="0"/>
      <vel value="0.0226820787" flag="0"/>
      <psa03 value="0.0976936890" flag="0"/>
      <psa10 value="0.0364432769" flag="0"/>
      <psa30 value="0.0043787182" flag="0"/>
    </comp>
  </station>
  <station code="PFKS" name="PFKS" netid="HC" insttype="120" commtype="DIG" lat="35.0429" lon="25.4733">
    <comp name="--.HHE">
      <acc value="0.0917340825" flag="0"/>
      <vel value="0.0303093664" flag="0"/>
      <psa03 value="0.2006008889" flag="0"/>
      <psa10 value="0.0170412004" flag="0"/>
      <psa30 value="0.0011653854" flag="0"/>
    </comp>
    <comp name="--.HHN">
      <acc value="0.0648385543" flag="0"/>
      <vel value="0.0258207216" flag="0"/>
      <psa03 value="0.1186585755" flag="0"/>
      <psa10 value="0.0227047014" flag="0"/>
      <psa30 value="0.0017254717" flag="0"/>
    </comp>
    <comp name="--.HHZ">
      <acc value="0.0349771517" flag="0"/>
      <vel value="0.0139156478" flag="0"/>
      <psa03 value="0.0804763444" flag="0"/>
      <psa10 value="0.0129904020" flag="0"/>
      <psa30 value="0.0015365880" flag="0"/>
    </comp>
  </station>
  <station code="STIA" name="STIA" netid="HC" insttype="120" commtype="DIG" lat="35.2021" lon="26.0909">
    <comp name="--.HHN">
      <acc value="0.0000000000" flag="0"/>
      <vel value="-100.0000000000" flag="0"/>
      <psa03 value="0.0000000000" flag="0"/>
      <psa10 value="0.0000000000" flag="0"/>
      <psa30 value="0.0000000000" flag="0"/>
    </comp>
    <comp name="--.HHE">
      <acc value="0.1292292909" flag="0"/>
      <vel value="0.0559263972" flag="0"/>
      <psa03 value="0.2154152247" flag="0"/>
      <psa10 value="0.0665922558" flag="0"/>
      <psa30 value="0.0049357621" flag="0"/>
    </comp>
    <comp name="--.HHZ">
      <acc value="0.1417757901" flag="0"/>
      <vel value="0.0536298091" flag="0"/>
      <psa03 value="0.3101099546" flag="0"/>
      <psa10 value="0.0273992077" flag="0"/>
      <psa30 value="0.0029923121" flag="0"/>
    </comp>
  </station>
  <station code="AGN1" name="AGN1" netid="HI" insttype="unknown" commtype="DIG" lat="35.1879" lon="25.7155">
    <comp name="--.HNE">
      <acc value="0.0002811452" flag="0"/>
      <vel value="0.0001424551" flag="0"/>
      <psa03 value="0.0002764915" flag="0"/>
      <psa10 value="0.0001676615" flag="0"/>
      <psa30 value="0.0000656856" flag="0"/>
    </comp>
    <comp name="--.HNN">
      <acc value="0.0522216907" flag="0"/>
      <vel value="0.0192470134" flag="0"/>
      <psa03 value="0.0594448499" flag="0"/>
      <psa10 value="0.0216951677" flag="0"/>
      <psa30 value="0.0025849236" flag="0"/>
    </comp>
    <comp name="--.HNZ">
      <acc value="0.0309598422" flag="0"/>
      <vel value="0.0100611656" flag="0"/>
      <psa03 value="0.0446386230" flag="0"/>
      <psa10 value="0.0140695309" flag="0"/>
      <psa30 value="0.0019929054" flag="0"/>
    </comp>
  </station>
  <station code="ARK1" name="ARK1" netid="HI" insttype="unknown" commtype="DIG" lat="35.1488" lon="25.2642">
    <comp name="--.HNE">
      <acc value="0.0206094116" flag="0"/>
      <vel value="0.0133582097" flag="0"/>
      <psa03 value="0.0417568652" flag="0"/>
      <psa10 value="0.0275475784" flag="0"/>
      <psa30 value="0.0029810104" flag="0"/>
    </comp>
    <comp name="--.HNZ">
      <acc value="0.0173561479" flag="0"/>
      <vel value="0.0123975697" flag="0"/>
      <psa03 value="0.0442863660" flag="0"/>
      <psa10 value="0.0130173678" flag="0"/>
      <psa30 value="0.0013932479" flag="0"/>
    </comp>
    <comp name="--.HNN">
      <acc value="0.0265060127" flag="0"/>
      <vel value="0.0177134579" flag="0"/>
      <psa03 value="0.0502458724" flag="0"/>
      <psa10 value="0.0327111386" flag="0"/>
      <psa30 value="0.0044938757" flag="0"/>
    </comp>
  </station>
  <station code="KSS1" name="KSS1" netid="HI" insttype="CMG-5TD,ACCELEROMETER,GURALP" commtype="DIG" lat="35.4189" lon="26.9207">
    <comp name="--.HNN">
      <acc value="0.0067734669" flag="0"/>
      <vel value="0.0043678715" flag="0"/>
      <psa03 value="0.0325580319" flag="0"/>
      <psa10 value="0.0056723821" flag="0"/>
      <psa30 value="0.0005279499" flag="0"/>
    </comp>
    <comp name="--.HNZ">
      <acc value="0.0026475716" flag="0"/>
      <vel value="0.0021118386" flag="0"/>
      <psa03 value="0.0050009287" flag="0"/>
      <psa10 value="0.0041735089" flag="0"/>
      <psa30 value="0.0007060822" flag="0"/>
    </comp>
    <comp name="--.HNE">
      <acc value="0.0054144525" flag="0"/>
      <vel value="0.0024148837" flag="0"/>
      <psa03 value="0.0196788348" flag="0"/>
      <psa10 value="0.0030513998" flag="0"/>
      <psa30 value="0.0007280741" flag="0"/>
    </comp>
  </station>
  <station code="SIT2" name="SIT2" netid="HI" insttype="CMG-5TD,ACCELEROMETER,GURALP" commtype="DIG" lat="35.2059" lon="26.107">
    <comp name="--.HNN">
      <acc value="0.3118860687" flag="0"/>
      <vel value="0.2455164060" flag="0"/>
      <psa03 value="0.9062974525" flag="0"/>
      <psa10 value="0.1686876562" flag="0"/>
      <psa30 value="0.0106355489" flag="0"/>
    </comp>
    <comp name="--.HNE">
      <acc value="0.2989391108" flag="0"/>
      <vel value="0.1923296149" flag="0"/>
      <psa03 value="1.0373890661" flag="0"/>
      <psa10 value="0.1247077546" flag="0"/>
      <psa30 value="0.0075491871" flag="0"/>
    </comp>
    <comp name="--.HNZ">
      <acc value="0.1336015243" flag="0"/>
      <vel value="0.0518277206" flag="0"/>
      <psa03 value="0.3912917041" flag="0"/>
      <psa10 value="0.0343094586" flag="0"/>
      <psa30 value="0.0034959515" flag="0"/>
    </comp>
  </station>
  <station code="NPS" name="NPS" netid="HL" insttype="CMG3ESPC-120s" commtype="DIG" lat="35.2613" lon="25.6104">
    <comp name="--.HHZ">
      <acc value="0.0160218277" flag="0"/>
      <vel value="0.0066912282" flag="0"/>
      <psa03 value="0.0260368625" flag="0"/>
      <psa10 value="0.0115110711" flag="0"/>
      <psa30 value="0.0010821188" flag="0"/>
    </comp>
    <comp name="--.HHE">
      <acc value="0.0057000115" flag="0"/>
      <vel value="0.0028228000" flag="0"/>
      <psa03 value="0.0096037136" flag="0"/>
      <psa10 value="0.0052390645" flag="0"/>
      <psa30 value="0.0004459475" flag="0"/>
    </comp>
    <comp name="--.HHN">
      <acc value="0.0217602168" flag="0"/>
      <vel value="0.0080097154" flag="0"/>
      <psa03 value="0.0430351316" flag="0"/>
      <psa10 value="0.0125198948" flag="0"/>
      <psa30 value="0.0021121606" flag="0"/>
    </comp>
  </station>
</stationlist>
