<?xml version="1.0" encoding="UTF-8" standalone="yes"?>
<!DOCTYPE earthquake SYSTEM "stationlist.dtd">
<stationlist created="" xmlns="ch.ethz.sed.shakemap.usgs.xml">
  <station code="APE" name="APE" netid="GE" insttype="STS-2/N" commtype="DIG" lat="37.0727" lon="25.523">
    <comp name="--.HHN">
      <acc value="0.0051033678" flag="0"/>
      <vel value="0.0024078801" flag="0"/>
      <psa03 value="0.0084701804" flag="0"/>
      <psa10 value="0.0023799905" flag="0"/>
      <psa30 value="0.0002381998" flag="0"/>
    </comp>
    <comp name="--.HHE">
      <acc value="0.0072311390" flag="0"/>
      <vel value="0.0025362540" flag="0"/>
      <psa03 value="0.0155833222" flag="0"/>
      <psa10 value="0.0025325494" flag="0"/>
      <psa30 value="0.0002638101" flag="0"/>
    </comp>
    <comp name="--.HHZ">
      <acc value="0.0052669289" flag="0"/>
      <vel value="0.0041008684" flag="0"/>
      <psa03 value="0.0120567019" flag="0"/>
      <psa10 value="0.0029343864" flag="0"/>
      <psa30 value="0.0002628989" flag="0"/>
    </comp>
  </station>
  <station code="KARP" name="KARP" netid="GE" insttype="STS-2/N" commtype="DIG" lat="35.5471" lon="27.1611">
    <comp name="--.HHE">
      <acc value="0.2735375340" flag="0"/>
      <vel value="0.0626994165" flag="0"/>
      <psa03 value="0.2642501337" flag="0"/>
      <psa10 value="0.0318299078" flag="0"/>
      <psa30 value="0.0018262468" flag="0"/>
    </comp>
    <comp name="--.HHZ">
      <acc value="0.1376381729" flag="0"/>
      <vel value="0.0321653018" flag="0"/>
      <psa03 value="0.1719288914" flag="0"/>
      <psa10 value="0.0092385562" flag="0"/>
      <psa30 value="0.0006741610" flag="0"/>
    </comp>
    <comp name="--.HHN">
      <acc value="0.3122810787" flag="0"/>
      <vel value="0.0886977718" flag="0"/>
      <psa03 value="0.5050385701" flag="0"/>
      <psa10 value="0.0267475252" flag="0"/>
      <psa30 value="0.0023356791" flag="0"/>
    </comp>
  </station>
  <station code="THERA" name="THERA" netid="GE" insttype="STS-2/N" commtype="DIG" lat="36.367" lon="25.4753">
    <comp name="--.HHE">
      <acc value="0.0368483333" flag="0"/>
      <vel value="0.0126000268" flag="0"/>
      <psa03 value="0.0531951892" flag="0"/>
      <psa10 value="0.0039911598" flag="0"/>
      <psa30 value="0.0003928292" flag="0"/>
    </comp>
    <comp name="--.HHN">
      <acc value="0.0223447731" flag="0"/>
      <vel value="0.0094040638" flag="0"/>
      <psa03 value="0.0400389794" flag="0"/>
      <psa10 value="0.0021426849" flag="0"/>
      <psa30 value="0.0002069889" flag="0"/>
    </comp>
    <comp name="--.HHZ">
      <acc value="0.0544932577" flag="0"/>
      <vel value="0.0239665493" flag="0"/>
      <psa03 value="0.1520033786" flag="0"/>
      <psa10 value="0.0088326470" flag="0"/>
      <psa30 value="0.0009128891" flag="0"/>
    </comp>
  </station>
  <station code="ZKR" name="ZKR" netid="GE" insttype="STS-2/N" commtype="DIG" lat="35.1147" lon="26.2169">
    <comp name="--.HHZ">
      <acc value="0.0409778369" flag="0"/>
      <vel value="0.0122555307" flag="0"/>
      <psa03 value="0.0805388784" flag="0"/>
      <psa10 value="0.0064686310" flag="0"/>
      <psa30 value="0.0003424469" flag="0"/>
    </comp>
    <comp name="--.HHN">
      <acc value="0.0389729529" flag="0"/>
      <vel value="0.0144367471" flag="0"/>
      <psa03 value="0.0790149970" flag="0"/>
      <psa10 value="0.0046426364" flag="0"/>
      <psa30 value="0.0003978278" flag="0"/>
    </comp>
    <comp name="--.HHE">
      <acc value="0.0767646508" flag="0"/>
      <vel value="0.0390069275" flag="0"/>
      <psa03 value="0.1924490899" flag="0"/>
      <psa10 value="0.0207616791" flag="0"/>
      <psa30 value="0.0012268569" flag="0"/>
    </comp>
  </station>
  <station code="IOSI" name="IOSI" netid="HA" insttype="60s," commtype="DIG" lat="36.7225" lon="25.2887">
    <comp name="--.HHE">
      <acc value="0.0229352520" flag="0"/>
      <vel value="0.0093962028" flag="0"/>
      <psa03 value="0.0371096454" flag="0"/>
      <psa10 value="0.0037772575" flag="0"/>
      <psa30 value="0.0003641866" flag="0"/>
    </comp>
    <comp name="--.HHZ">
      <acc value="0.0353585141" flag="0"/>
      <vel value="0.0132662389" flag="0"/>
      <psa03 value="0.0571541838" flag="0"/>
      <psa10 value="0.0044324909" flag="0"/>
      <psa30 value="0.0005378227" flag="0"/>
    </comp>
    <comp name="--.HHN">
      <acc value="0.0137468319" flag="0"/>
      <vel value="0.0050566174" flag="0"/>
      <psa03 value="0.0259400724" flag="0"/>
      <psa10 value="0.0019899827" flag="0"/>
      <psa30 value="0.0001506941" flag="0"/>
    </comp>
  </station>
  <station code="SNT1" name="SNT1" netid="HA" insttype="30" commtype="DIG" lat="36.4159" lon="25.4282">
    <comp name="--.HHN">
      <acc value="0.0107230004" flag="0"/>
      <vel value="0.0037663655" flag="0"/>
      <psa03 value="0.0166413105" flag="0"/>
      <psa10 value="0.0040656547" flag="0"/>
      <psa30 value="0.0001731029" flag="0"/>
    </comp>
    <comp name="--.HHE">
      <acc value="0.0133811259" flag="0"/>
      <vel value="0.0037213743" flag="0"/>
      <psa03 value="0.0228298636" flag="0"/>
      <psa10 value="0.0035980966" flag="0"/>
      <psa30 value="0.0002378130" flag="0"/>
    </comp>
    <comp name="--.HHZ">
      <acc value="0.0216867883" flag="0"/>
      <vel value="0.0083468412" flag="0"/>
      <psa03 value="0.0357814831" flag="0"/>
      <psa10 value="0.0044282755" flag="0"/>
      <psa30 value="0.0003284558" flag="0"/>
    </comp>
  </station>
  <station code="SNT5" name="SNT5" netid="HA" insttype="1s-100Hz," commtype="DIG" lat="36.4037" lon="25.3953">
    <comp name="--.HHE">
      <acc value="0.0279319809" flag="0"/>
      <vel value="0.0102244095" flag="0"/>
      <psa03 value="0.0596227665" flag="0"/>
      <psa10 value="0.0043780508" flag="0"/>
      <psa30 value="0.0003706636" flag="0"/>
    </comp>
    <comp name="--.HHZ">
      <acc value="0.0141361893" flag="0"/>
      <vel value="0.0064268522" flag="0"/>
      <psa03 value="0.0244242370" flag="0"/>
      <psa10 value="0.0029360320" flag="0"/>
      <psa30 value="0.0002769068" flag="0"/>
    </comp>
    <comp name="--.HHN">
      <acc value="0.0186840885" flag="0"/>
      <vel value="0.0053304861" flag="0"/>
      <psa03 value="0.0331093907" flag="0"/>
      <psa10 value="0.0017289108" flag="0"/>
      <psa30 value="0.0002585611" flag="0"/>
    </comp>
  </station>
  <station code="KOSP" name="KOSP" netid="HC" insttype="60" commtype="DIG" lat="36.881" lon="27.281">
    <comp name="--.HHE">
      <acc value="0.0239443599" flag="0"/>
      <vel value="0.0204985185" flag="0"/>
      <psa03 value="0.0424348047" flag="0"/>
      <psa10 value="0.0331968048" flag="0"/>
      <psa30 value="0.0021592376" flag="0"/>
    </comp>
    <comp name="--.HHN">
      <acc value="0.0149624672" flag="0"/>
      <vel value="0.0212593810" flag="0"/>
      <psa03 value="0.0393491066" flag="0"/>
      <psa10 value="0.0295492322" flag="0"/>
      <psa30 value="0.0016554554" flag="0"/>
    </comp>
    <comp name="--.HHZ">
      <acc value="0.0353463924" flag="0"/>
      <vel value="0.0152454449" flag="0"/>
      <psa03 value="0.0785572322" flag="0"/>
      <psa10 value="0.0206496206" flag="0"/>
      <psa30 value="0.0009661487" flag="0"/>
    </comp>
  </station>
  <station code="STIA" name="STIA" netid="HC" insttype="120" commtype="DIG" lat="35.2021" lon="26.0909">
    <comp name="--.HHN">
      <acc value="0.0000000000" flag="0"/>
      <vel value="-100.0000000000" flag="0"/>
      <psa03 value="0.0000000000" flag="0"/>
      <psa10 value="0.0000000000" flag="0"/>
      <psa30 value="0.0000000000" flag="0"/>
    </comp>
    <comp name="--.HHZ">
      <acc value="0.0863248262" flag="0"/>
      <vel value="0.0224187261" flag="0"/>
      <psa03 value="0.1192578475" flag="0"/>
      <psa10 value="0.0049168133" flag="0"/>
      <psa30 value="0.0004109183" flag="0"/>
    </comp>
    <comp name="--.HHE">
      <acc value="0.1004585298" flag="0"/>
      <vel value="0.0296964395" flag="0"/>
      <psa03 value="0.2049038644" flag="0"/>
      <psa10 value="0.0098800739" flag="0"/>
      <psa30 value="0.0006991979" flag="0"/>
    </comp>
  </station>
  <station code="KSS1" name="KSS1" netid="HI" insttype="CMG-5TD,ACCELEROMETER,GURALP" commtype="DIG" lat="35.4189" lon="26.9207">
    <comp name="--.HNE">
      <acc value="0.2310136909" flag="0"/>
      <vel value="0.0783559348" flag="0"/>
      <psa03 value="0.5641327905" flag="0"/>
      <psa10 value="0.0183783597" flag="0"/>
      <psa30 value="0.0016978798" flag="0"/>
    </comp>
    <comp name="--.HNN">
      <acc value="0.2313639865" flag="0"/>
      <vel value="0.0908608449" flag="0"/>
      <psa03 value="0.4691112886" flag="0"/>
      <psa10 value="0.0202097244" flag="0"/>
      <psa30 value="0.0019081393" flag="0"/>
    </comp>
    <comp name="--.HNZ">
      <acc value="0.1495817186" flag="0"/>
      <vel value="0.0381802690" flag="0"/>
      <psa03 value="0.1493625666" flag="0"/>
      <psa10 value="0.0131487659" flag="0"/>
      <psa30 value="0.0008668255" flag="0"/>
    </comp>
  </station>
  <station code="RDI1" name="RDI1" netid="HI" insttype="CMG-5TD,ACCELEROMETER,GURALP" commtype="DIG" lat="36.4514" lon="28.224">
    <comp name="--.HNE">
      <acc value="0.0259403583" flag="0"/>
      <vel value="0.0157719906" flag="0"/>
      <psa03 value="0.1043558569" flag="0"/>
      <psa10 value="0.0153329269" flag="0"/>
      <psa30 value="0.0009642066" flag="0"/>
    </comp>
    <comp name="--.HNN">
      <acc value="0.0228476294" flag="0"/>
      <vel value="0.0114292494" flag="0"/>
      <psa03 value="0.0831037563" flag="0"/>
      <psa10 value="0.0103794872" flag="0"/>
      <psa30 value="0.0007641778" flag="0"/>
    </comp>
    <comp name="--.HNZ">
      <acc value="0.0307859246" flag="0"/>
      <vel value="0.0121475348" flag="0"/>
      <psa03 value="0.0623178917" flag="0"/>
      <psa10 value="0.0055778123" flag="0"/>
      <psa30 value="0.0005025648" flag="0"/>
    </comp>
  </station>
  <station code="RKL1" name="RKL1" netid="HI" insttype="unknown" commtype="DIG" lat="36.3367" lon="28.1712">
    <comp name="--.HNN">
      <acc value="0.0741155491" flag="0"/>
      <vel value="0.0332967655" flag="0"/>
      <psa03 value="0.2040990305" flag="0"/>
      <psa10 value="0.0125622626" flag="0"/>
      <psa30 value="0.0008192023" flag="0"/>
    </comp>
    <comp name="--.HNE">
      <acc value="0.0631079045" flag="0"/>
      <vel value="0.0280169842" flag="0"/>
      <psa03 value="0.1770232415" flag="0"/>
      <psa10 value="0.0168049873" flag="0"/>
      <psa30 value="0.0011087899" flag="0"/>
    </comp>
  </station>
  <station code="RPN1" name="RPN1" netid="HI" insttype="unknown" commtype="DIG" lat="36.4487" lon="28.218">
    <comp name="--.HNZ">
      <acc value="0.0443296834" flag="0"/>
      <vel value="0.0171497567" flag="0"/>
      <psa03 value="0.0724142439" flag="0"/>
      <psa10 value="0.0079861705" flag="0"/>
      <psa30 value="0.0006550794" flag="0"/>
    </comp>
    <comp name="--.HNN">
      <acc value="0.0521799420" flag="0"/>
      <vel value="0.0177385726" flag="0"/>
      <psa03 value="0.1205552605" flag="0"/>
      <psa10 value="0.0122034049" flag="0"/>
      <psa30 value="0.0007181836" flag="0"/>
    </comp>
    <comp name="--.HNE">
      <acc value="0.0422627297" flag="0"/>
      <vel value="0.0167287382" flag="0"/>
      <psa03 value="0.0968946640" flag="0"/>
      <psa10 value="0.0172858497" flag="0"/>
      <psa30 value="0.0010019615" flag="0"/>
    </comp>
  </station>
  <station code="SFR2" name="SFR2" netid="HI" insttype="unknown" commtype="DIG" lat="36.3998" lon="25.4382">
    <comp name="--.HNE">
      <acc value="0.0939688805" flag="0"/>
      <vel value="0.0365919709" flag="0"/>
      <psa03 value="0.2629395058" flag="0"/>
      <psa10 value="0.0183161858" flag="0"/>
      <psa30 value="0.0013072955" flag="0"/>
    </comp>
    <comp name="--.HNZ">
      <acc value="0.1117557774" flag="0"/>
      <vel value="0.0421325402" flag="0"/>
      <psa03 value="0.2777511188" flag="0"/>
      <psa10 value="0.0168510022" flag="0"/>
      <psa30 value="0.0017121974" flag="0"/>
    </comp>
    <comp name="--.HNN">
      <acc value="0.0497501166" flag="0"/>
      <vel value="0.0207688215" flag="0"/>
      <psa03 value="0.1396041173" flag="0"/>
      <psa10 value="0.0138284294" flag="0"/>
      <psa30 value="0.0008437628" flag="0"/>
    </comp>
  </station>
  <station code="AMGA" name="AMGA" netid="HL" insttype="LE3D20_SMART24" commtype="DIG" lat="36.8316" lon="25.8938">
    <comp name="--.HHE">
      <acc value="0.0535824048" flag="0"/>
      <vel value="0.0150628425" flag="0"/>
      <psa03 value="0.0852504626" flag="0"/>
      <psa10 value="0.0069972723" flag="0"/>
      <psa30 value="0.0007084171" flag="0"/>
    </comp>
    <comp name="--.HHN">
      <acc value="0.0499539917" flag="0"/>
      <vel value="0.0178749372" flag="0"/>
      <psa03 value="0.0853676529" flag="0"/>
      <psa10 value="0.0184176918" flag="0"/>
      <psa30 value="0.0010005954" flag="0"/>
    </comp>
    <comp name="--.HHZ">
      <acc value="0.1336441622" flag="0"/>
      <vel value="0.0366031980" flag="0"/>
      <psa03 value="0.1486074247" flag="0"/>
      <psa10 value="0.0104014560" flag="0"/>
      <psa30 value="0.0012998123" flag="0"/>
    </comp>
  </station>
  <station code="ANAF" name="ANAF" netid="HL" insttype="LE3D20_SMART24" commtype="DIG" lat="36.3567" lon="25.7726">
    <comp name="--.HHN">
      <acc value="0.2214492591" flag="0"/>
      <vel value="0.0728478157" flag="0"/>
      <psa03 value="0.4892442709" flag="0"/>
      <psa10 value="0.0167574368" flag="0"/>
      <psa30 value="0.0016325420" flag="0"/>
    </comp>
    <comp name="--.HHE">
      <acc value="0.2634075165" flag="0"/>
      <vel value="0.0974536749" flag="0"/>
      <psa03 value="0.3700112741" flag="0"/>
      <psa10 value="0.0187495833" flag="0"/>
      <psa30 value="0.0022575352" flag="0"/>
    </comp>
    <comp name="--.HHZ">
      <acc value="0.2160241633" flag="0"/>
      <vel value="0.0755770064" flag="0"/>
      <psa03 value="0.5541613449" flag="0"/>
      <psa10 value="0.0336393080" flag="0"/>
      <psa30 value="0.0030165157" flag="0"/>
    </comp>
  </station>
  <station code="APE" name="APE" netid="HL" insttype="120" commtype="DIG" lat="37.0727" lon="25.523">
    <comp name="--.HHE">
      <acc value="0.0067894251" flag="0"/>
      <vel value="0.0024697320" flag="0"/>
      <psa03 value="0.0150658190" flag="0"/>
      <psa10 value="0.0025140758" flag="0"/>
      <psa30 value="0.0002627402" flag="0"/>
    </comp>
    <comp name="--.HHZ">
      <acc value="0.0050963541" flag="0"/>
      <vel value="0.0040266214" flag="0"/>
      <psa03 value="0.0117720584" flag="0"/>
      <psa10 value="0.0029151434" flag="0"/>
      <psa30 value="0.0002609031" flag="0"/>
    </comp>
    <comp name="--.HHN">
      <acc value="0.0048292647" flag="0"/>
      <vel value="0.0023856739" flag="0"/>
      <psa03 value="0.0082546138" flag="0"/>
      <psa10 value="0.0023631657" flag="0"/>
      <psa30 value="0.0002368560" flag="0"/>
    </comp>
  </station>
  <station code="ARG" name="ARG" netid="HL" insttype="LE3D20_DR24" commtype="DIG" lat="36.2136" lon="28.1212">
    <comp name="--.HHE">
      <acc value="0.1057061147" flag="0"/>
      <vel value="0.0319982936" flag="0"/>
      <psa03 value="0.2467537805" flag="0"/>
      <psa10 value="0.0090910419" flag="0"/>
      <psa30 value="0.0008044598" flag="0"/>
    </comp>
    <comp name="--.HHZ">
      <acc value="0.1060337876" flag="0"/>
      <vel value="0.0219743568" flag="0"/>
      <psa03 value="0.0848877973" flag="0"/>
      <psa10 value="0.0059543449" flag="0"/>
      <psa30 value="0.0006439387" flag="0"/>
    </comp>
    <comp name="--.HHN">
      <acc value="0.0563751764" flag="0"/>
      <vel value="0.0184253252" flag="0"/>
      <psa03 value="0.1037798497" flag="0"/>
      <psa10 value="0.0092084024" flag="0"/>
      <psa30 value="0.0005079192" flag="0"/>
    </comp>
  </station>
  <station code="ASTA" name="ASTA" netid="HL" insttype="LE3D20_SMART24" commtype="DIG" lat="36.5475" lon="26.3471">
    <comp name="--.HHE">
      <acc value="0.0591415004" flag="0"/>
      <vel value="0.0364301919" flag="0"/>
      <psa03 value="0.1131827808" flag="0"/>
      <psa10 value="0.0260420850" flag="0"/>
      <psa30 value="0.0023178079" flag="0"/>
    </comp>
    <comp name="--.HHN">
      <acc value="0.0795848804" flag="0"/>
      <vel value="0.0567706571" flag="0"/>
      <psa03 value="0.2389809327" flag="0"/>
      <psa10 value="0.0256931424" flag="0"/>
      <psa30 value="0.0017883196" flag="0"/>
    </comp>
    <comp name="--.HHZ">
      <acc value="0.0903573491" flag="0"/>
      <vel value="0.0244566586" flag="0"/>
      <psa03 value="0.0931785887" flag="0"/>
      <psa10 value="0.0062965276" flag="0"/>
      <psa30 value="0.0008591389" flag="0"/>
    </comp>
  </station>
  <station code="KARP" name="KARP" netid="HL" insttype="120" commtype="DIG" lat="35.5471" lon="27.1611">
    <comp name="--.HHN">
      <acc value="0.2877030333" flag="0"/>
      <vel value="0.0865747980" flag="0"/>
      <psa03 value="0.4941202063" flag="0"/>
      <psa10 value="0.0263597765" flag="0"/>
      <psa30 value="0.0022852421" flag="0"/>
    </comp>
    <comp name="--.HHE">
      <acc value="0.2352556057" flag="0"/>
      <vel value="0.0597814391" flag="0"/>
      <psa03 value="0.2543116012" flag="0"/>
      <psa10 value="0.0314326072" flag="0"/>
      <psa30 value="0.0018018308" flag="0"/>
    </comp>
    <comp name="--.HHZ">
      <acc value="0.1269227266" flag="0"/>
      <vel value="0.0310794119" flag="0"/>
      <psa03 value="0.1673929533" flag="0"/>
      <psa10 value="0.0090716965" flag="0"/>
      <psa30 value="0.0006660130" flag="0"/>
    </comp>
  </station>
  <station code="NISR" name="NISR" netid="HL" insttype="65535" commtype="DIG" lat="36.6106" lon="27.131">
    <comp name="--.HHN">
      <acc value="0.0113970519" flag="0"/>
      <vel value="0.0074260948" flag="0"/>
      <psa03 value="0.0389395661" flag="0"/>
      <psa10 value="0.0103635539" flag="0"/>
      <psa30 value="0.0009000640" flag="0"/>
    </comp>
    <comp name="--.HHZ">
      <acc value="0.0070450038" flag="0"/>
      <vel value="0.0054667402" flag="0"/>
      <psa03 value="0.0199780525" flag="0"/>
      <psa10 value="0.0079309287" flag="0"/>
      <psa30 value="0.0007670299" flag="0"/>
    </comp>
    <comp name="--.HHE">
      <acc value="0.0000000000" flag="0"/>
      <vel value="-100.0000000000" flag="0"/>
      <psa03 value="0.0000000000" flag="0"/>
      <psa10 value="0.0000000000" flag="0"/>
      <psa30 value="0.0000000000" flag="0"/>
    </comp>
  </station>
  <station code="NISR2" name="NISR2" netid="HL" insttype="120" commtype="DIG" lat="36.5744" lon="27.1767">
    <comp name="--.HHE">
      <acc value="0.0000000000" flag="0"/>
      <vel value="-100.0000000000" flag="0"/>
      <psa03 value="0.0000000000" flag="0"/>
      <psa10 value="0.0000000000" flag="0"/>
      <psa30 value="0.0000000000" flag="0"/>
    </comp>
    <comp name="--.HHN">
      <acc value="0.0455758605" flag="0"/>
      <vel value="0.0370716683" flag="0"/>
      <psa03 value="0.1640055717" flag="0"/>
      <psa10 value="0.0555583302" flag="0"/>
      <psa30 value="0.0025135443" flag="0"/>
    </comp>
    <comp name="--.HHZ">
      <acc value="0.0169698657" flag="0"/>
      <vel value="0.0082607280" flag="0"/>
      <psa03 value="0.0617494291" flag="0"/>
      <psa10 value="0.0065520551" flag="0"/>
      <psa30 value="0.0008808983" flag="0"/>
    </comp>
  </station>
  <station code="SANT" name="SANT" netid="HL" insttype="30" commtype="DIG" lat="36.3705" lon="25.4593">
    <comp name="--.HHZ">
      <acc value="0.0757086723" flag="0"/>
      <vel value="0.0256609729" flag="0"/>
      <psa03 value="0.1226011468" flag="0"/>
      <psa10 value="0.0084403256" flag="0"/>
