<stationlist xmlns:esm="https://esm-db.eu/esmws/shakemap/1/" created="1781229312">
	<station code="AGN1" name="AGN1" netid="HI" source="ITSAK Strong Motion Network" insttype="" lat="35.1879" lon="25.7155" esm:processing="manual (Paolucci et al 2011)" esm:quality="good">
		<comp name="--.HNE" depth="0.0">
			<acc value="0.206406653263011" flag="0"/>
			<vel value="0.0675520594796265" flag="0"/>
			<psa03 value="0.409474042312375" flag="0"/>
			<psa10 value="0.0139089635880761" flag="0"/>
			<psa30 value="0.00153171886469083" flag="0"/>
		</comp>
		<comp name="--.HNN" depth="0.0">
			<acc value="0.160130352848082" flag="0"/>
			<vel value="0.0384408434603471" flag="0"/>
			<psa03 value="0.197420557309699" flag="0"/>
			<psa10 value="0.00917431994117087" flag="0"/>
			<psa30 value="0.000968618853745325" flag="0"/>
		</comp>
		<comp name="--.HNZ" depth="0.0">
			<acc value="0.0828748955393838" flag="0"/>
			<vel value="0.0250322896804708" flag="0"/>
			<psa03 value="0.104914293807072" flag="0"/>
			<psa10 value="0.00515657519154928" flag="0"/>
			<psa30 value="0.000402819080620491" flag="0"/>
		</comp>
	</station>
	<station code="ARK1" name="ARK1" netid="HI" source="ITSAK Strong Motion Network" insttype="" lat="35.148777" lon="25.264194" esm:processing="automatic (Paolucci et al 2011)" esm:quality="best">
		<comp name="--.HNE" depth="0.0">
			<acc value="0.0611401366747189" flag="0"/>
			<vel value="0.0220216558531011" flag="0"/>
			<psa03 value="0.0907809408751366" flag="0"/>
			<psa10 value="0.0091092193785781" flag="0"/>
			<psa30 value="0.00107158484140334" flag="0"/>
		</comp>
		<comp name="--.HNN" depth="0.0">
			<acc value="0.0531667361751687" flag="0"/>
			<vel value="0.01939328908713" flag="0"/>
			<psa03 value="0.116474403357596" flag="0"/>
			<psa10 value="0.00809345427662521" flag="0"/>
			<psa30 value="0.000714088502775411" flag="0"/>
		</comp>
		<comp name="--.HNZ" depth="0.0">
			<acc value="0.0313695653057742" flag="0"/>
			<vel value="0.01025193279213" flag="0"/>
			<psa03 value="0.102886805329244" flag="0"/>
			<psa10 value="0.00835682203594672" flag="0"/>
			<psa30 value="0.000740631615293015" flag="0"/>
		</comp>
	</station>
	<station code="HER1" name="HER1" netid="HI" source="ITSAK Strong Motion Network" insttype="" lat="35.317672" lon="25.10217" esm:processing="manual (Paolucci et al 2011)" esm:quality="good">
		<comp name="--.HNE" depth="0.0">
			<acc value="0.0683806277404719" flag="0"/>
			<vel value="0.026803772548731" flag="0"/>
			<psa03 value="0.182427689105761" flag="0"/>
			<psa10 value="0.0265628071556106" flag="0"/>
			<psa30 value="0.00178469176873753" flag="0"/>
		</comp>
		<comp name="--.HNN" depth="0.0">
			<acc value="0.0642560733101333" flag="0"/>
			<vel value="0.0307514115186402" flag="0"/>
			<psa03 value="0.116758984709714" flag="0"/>
			<psa10 value="0.0332213920041781" flag="0"/>
			<psa30 value="0.00210652913054992" flag="0"/>
		</comp>
		<comp name="--.HNZ" depth="0.0">
			<acc value="0.0743587653073757" flag="0"/>
			<vel value="0.0286679081801211" flag="0"/>
			<psa03 value="0.176457522778209" flag="0"/>
			<psa10 value="0.0265136601498626" flag="0"/>
			<psa30 value="0.00111683471398533" flag="0"/>
		</comp>
	</station>
	<station code="HER3" name="HER3" netid="HI" source="ITSAK Strong Motion Network" insttype="" lat="35.3296" lon="25.1065" esm:processing="manual (Paolucci et al 2011)" esm:quality="good">
		<comp name="--.HNE" depth="0.0">
			<acc value="0.119225544391166" flag="0"/>
			<vel value="0.0441665810137105" flag="0"/>
			<psa03 value="0.298215005280536" flag="0"/>
			<psa10 value="0.0385384604838701" flag="0"/>
			<psa30 value="0.00182339079069114" flag="0"/>
		</comp>
		<comp name="--.HNN" depth="0.0">
			<acc value="0.17710385691935" flag="0"/>
			<vel value="0.0762514565828966" flag="0"/>
			<psa03 value="0.373174054282986" flag="0"/>
			<psa10 value="0.0459784133442337" flag="0"/>
			<psa30 value="0.0021976491251357" flag="0"/>
		</comp>
		<comp name="--.HNZ" depth="0.0">
			<acc value="0.0680150571629485" flag="0"/>
			<vel value="0.0213482563379914" flag="0"/>
			<psa03 value="0.196358361944469" flag="0"/>
			<psa10 value="0.0131761622310826" flag="0"/>
			<psa30 value="0.000765752029397164" flag="0"/>
		</comp>
	</station>
	<station code="KSS1" name="KSS1" netid="HI" source="ITSAK Strong Motion Network" insttype="" lat="35.4189" lon="26.9207" esm:processing="manual (Paolucci et al 2011)" esm:quality="good">
		<comp name="--.HNE" depth="0.0">
			<acc value="0.225783248323658" flag="0"/>
			<vel value="0.0793572909431362" flag="0"/>
			<psa03 value="0.57042499618983" flag="0"/>
			<psa10 value="0.0183717507883258" flag="0"/>
			<psa30 value="0.00171918169985031" flag="0"/>
		</comp>
		<comp name="--.HNN" depth="0.0">
			<acc value="0.23176404052389" flag="0"/>
			<vel value="0.0911761688953101" flag="0"/>
			<psa03 value="0.478615164239043" flag="0"/>
			<psa10 value="0.0203446046052089" flag="0"/>
			<psa30 value="0.00193492484594159" flag="0"/>
		</comp>
		<comp name="--.HNZ" depth="0.0">
			<acc value="0.136544758143518" flag="0"/>
			<vel value="0.0384799650009002" flag="0"/>
			<psa03 value="0.15456356199409" flag="0"/>
			<psa10 value="0.013101798554854" flag="0"/>
			<psa30 value="0.000845782122664743" flag="0"/>
		</comp>
	</station>
	<station code="KTL1" name="KTL1" netid="HI" source="ITSAK Strong Motion Network" insttype="" lat="35.20778" lon="25.34272" esm:processing="manual (Paolucci et al 2011)" esm:quality="good">
		<comp name="--.HNE" depth="0.0">
			<acc value="0.0512822588335295" flag="0"/>
			<vel value="0.0227031957575391" flag="0"/>
			<psa03 value="0.145458792181107" flag="0"/>
			<psa10 value="0.0125117757187368" flag="0"/>
			<psa30 value="0.000727564499660734" flag="0"/>
		</comp>
		<comp name="--.HNN" depth="0.0">
			<acc value="0.0709539056118356" flag="0"/>
			<vel value="0.0237196782856629" flag="0"/>
			<psa03 value="0.119712138675004" flag="0"/>
			<psa10 value="0.010938357112476" flag="0"/>
			<psa30 value="0.000744696624163236" flag="0"/>
		</comp>
		<comp name="--.HNZ" depth="0.0">
			<acc value="0.0393659594429293" flag="0"/>
			<vel value="0.0117807920526325" flag="0"/>
			<psa03 value="0.0419660534825845" flag="0"/>
			<psa10 value="0.00480763707611163" flag="0"/>
			<psa30 value="0.000357178843637115" flag="0"/>
		</comp>
	</station>
	<station code="RDI1" name="RDI1" netid="HI" source="ITSAK Strong Motion Network" insttype="" lat="36.4514" lon="28.224" esm:processing="automatic (Paolucci et al 2011)" esm:quality="best">
		<comp name="--.HNE" depth="0.0">
			<acc value="0.0260143552974054" flag="0"/>
			<vel value="0.0158691190239803" flag="0"/>
			<psa03 value="0.104881322872909" flag="0"/>
			<psa10 value="0.0153966562029106" flag="0"/>
			<psa30 value="0.00103628864903716" flag="0"/>
		</comp>
		<comp name="--.HNN" depth="0.0">
			<acc value="0.023292032022234" flag="0"/>
			<vel value="0.0116374921483611" flag="0"/>
			<psa03 value="0.0841705758875648" flag="0"/>
			<psa10 value="0.0104007974392859" flag="0"/>
			<psa30 value="0.000855374841468618" flag="0"/>
		</comp>
		<comp name="--.HNZ" depth="0.0">
			<acc value="0.0292865161790871" flag="0"/>
			<vel value="0.0121315405215923" flag="0"/>
			<psa03 value="0.063200301293123" flag="0"/>
			<psa10 value="0.00558919353789154" flag="0"/>
			<psa30 value="0.000516186955269139" flag="0"/>
		</comp>
	</station>
	<station code="RPN1" name="RPN1" netid="HI" source="ITSAK Strong Motion Network" insttype="" lat="36.448678" lon="28.218047" esm:processing="automatic (Paolucci et al 2011)" esm:quality="best">
		<comp name="--.HNE" depth="0.0">
			<acc value="0.0423214361322969" flag="0"/>
			<vel value="0.0168550952242322" flag="0"/>
			<psa03 value="0.0945770569325283" flag="0"/>
			<psa10 value="0.0173510062940126" flag="0"/>
			<psa30 value="0.00108622956154418" flag="0"/>
		</comp>
		<comp name="--.HNN" depth="0.0">
			<acc value="0.0517445112188713" flag="0"/>
			<vel value="0.017787650880353" flag="0"/>
			<psa03 value="0.120775250767629" flag="0"/>
			<psa10 value="0.0122326325393711" flag="0"/>
			<psa30 value="0.000794103803396382" flag="0"/>
		</comp>
		<comp name="--.HNZ" depth="0.0">
			<acc value="0.0443276001172101" flag="0"/>
			<vel value="0.0172825228941203" flag="0"/>
			<psa03 value="0.0732690412143946" flag="0"/>
			<psa10 value="0.0079884988863457" flag="0"/>
			<psa30 value="0.000636839479156714" flag="0"/>
		</comp>
	</station>
	<station code="SFR2" name="SFR2" netid="HI" source="ITSAK Strong Motion Network" insttype="" lat="36.399841" lon="25.438209" esm:processing="manual (Paolucci et al 2011)" esm:quality="good">
		<comp name="--.HNE" depth="0.0">
			<acc value="0.0931237014403276" flag="0"/>
			<vel value="0.0367023051021785" flag="0"/>
			<psa03 value="0.26547425303305" flag="0"/>
			<psa10 value="0.0183364834520379" flag="0"/>
			<psa30 value="0.00129431699214855" flag="0"/>
		</comp>
		<comp name="--.HNN" depth="0.0">
			<acc value="0.0488700067656277" flag="0"/>
			<vel value="0.0208101302327719" flag="0"/>
			<psa03 value="0.140089551078568" flag="0"/>
			<psa10 value="0.0138423985534692" flag="0"/>
			<psa30 value="0.000839489674570938" flag="0"/>
		</comp>
		<comp name="--.HNZ" depth="0.0">
			<acc value="0.110658607447347" flag="0"/>
			<vel value="0.0421664360487056" flag="0"/>
			<psa03 value="0.27889853815939" flag="0"/>
			<psa10 value="0.016886965553591" flag="0"/>
			<psa30 value="0.00172029166921366" flag="0"/>
		</comp>
	</station>
</stationlist>
