<?xml version="1.0" encoding="UTF-8" standalone="yes"?>
<!DOCTYPE earthquake SYSTEM "stationlist.dtd">
<stationlist created="" xmlns="ch.ethz.sed.shakemap.usgs.xml">
  <station code="CEYT" name="CEYT" netid="KO" insttype="CMG-3ESP" lat="37.0105" lon="35.7478">
    <comp name="--.HHZ">
      <acc value="0.0121729054" flag="0"/>
      <vel value="0.0085581322" flag="0"/>
      <psa03 value="0.0278517012" flag="0"/>
      <psa10 value="0.0113744987" flag="0"/>
      <psa30 value="0.0014925988" flag="0"/>
    </comp>
    <comp name="--.HHN">
      <acc value="0.0146654020" flag="0"/>
      <vel value="0.0077776692" flag="0"/>
      <psa03 value="0.0455216591" flag="0"/>
      <psa10 value="0.0122153471" flag="0"/>
      <psa30 value="0.0022412257" flag="0"/>
    </comp>
  </station>
  <station code="KRTS" name="KRTS" netid="KO" insttype="CMG-5T" lat="36.573" lon="35.375">
    <comp name="--.HNN">
      <acc value="0.0662038418" flag="0"/>
      <vel value="0.0382246838" flag="0"/>
      <psa03 value="0.1329669390" flag="0"/>
      <psa10 value="0.0347215078" flag="0"/>
      <psa30 value="0.0064864185" flag="0"/>
    </comp>
    <comp name="--.HNE">
      <acc value="0.0601719085" flag="0"/>
      <vel value="0.0350655293" flag="0"/>
      <psa03 value="0.1244935658" flag="0"/>
      <psa10 value="0.0266762405" flag="0"/>
      <psa30 value="0.0125947504" flag="0"/>
    </comp>
    <comp name="--.HNZ">
      <acc value="0.0311120865" flag="0"/>
      <vel value="0.0203179463" flag="0"/>
      <psa03 value="0.1333847582" flag="0"/>
      <psa10 value="0.0273986343" flag="0"/>
      <psa30 value="0.0077921112" flag="0"/>
    </comp>
  </station>
</stationlist>
