<?xml version="1.0" encoding="UTF-8" standalone="yes"?>
<!DOCTYPE earthquake SYSTEM "stationlist.dtd">
<stationlist created="" xmlns="ch.ethz.sed.shakemap.usgs.xml">
  <station code="CEYT" name="CEYT" netid="KO" insttype="CMG-3ESP" lat="37.0105" lon="35.7478">
    <comp name="--.HHZ">
      <acc value="0.0121729054" flag="0"/>
      <vel value="0.0085581360" flag="0"/>
      <psa03 value="0.0278517012" flag="0"/>
      <psa10 value="0.0113744987" flag="0"/>
      <psa30 value="0.0014925784" flag="0"/>
    </comp>
    <comp name="--.HHN">
      <acc value="0.0146654018" flag="0"/>
      <vel value="0.0077776708" flag="0"/>
      <psa03 value="0.0455216591" flag="0"/>
      <psa10 value="0.0122153471" flag="0"/>
      <psa30 value="0.0022412173" flag="0"/>
    </comp>
  </station>
  <station code="KRTS" name="KRTS" netid="KO" insttype="CMG-5T" lat="36.573" lon="35.375">
    <comp name="--.HNN">
      <acc value="0.0662038691" flag="0"/>
      <vel value="0.0382246869" flag="0"/>
      <psa03 value="0.1329669390" flag="0"/>
      <psa10 value="0.0347215078" flag="0"/>
      <psa30 value="0.0064864262" flag="0"/>
    </comp>
    <comp name="--.HNE">
      <acc value="0.0601719312" flag="0"/>
      <vel value="0.0350655308" flag="0"/>
      <psa03 value="0.1244935658" flag="0"/>
      <psa10 value="0.0266762403" flag="0"/>
      <psa30 value="0.0125947649" flag="0"/>
    </comp>
    <comp name="--.HNZ">
      <acc value="0.0311120697" flag="0"/>
      <vel value="0.0203179460" flag="0"/>
      <psa03 value="0.1333847582" flag="0"/>
      <psa10 value="0.0273986343" flag="0"/>
      <psa30 value="0.0077921101" flag="0"/>
    </comp>
  </station>
</stationlist>
