<stationlist created="1676550636">
	<station code="CMRD" name="CMRD" netid="KO" source="Bogazici University Kandilli Observatory And Earthquake Research Institute (KOERI)" insttype="" lat="37.6623" lon="34.9902">
		<comp name=".HNE" depth="0.0">
			<acc value="0.00689756622758" flag="0"/>
			<vel value="0.0059448141885" flag="0"/>
			<psa03 value="0.0166797468785" flag="0"/>
			<psa10 value="0.00574208554122" flag="0"/>
			<psa30 value="0.00132438044204" flag="0"/>
		</comp>
		<comp name=".HNN" depth="0.0">
			<acc value="0.00700896444887" flag="0"/>
			<vel value="0.00472071003004" flag="0"/>
			<psa03 value="0.0232647364871" flag="0"/>
			<psa10 value="0.00507731931624" flag="0"/>
			<psa30 value="0.000891985860517" flag="0"/>
		</comp>
		<comp name=".HNZ" depth="0.0">
			<acc value="0.00424544537326" flag="0"/>
			<vel value="0.00283673789143" flag="0"/>
			<psa03 value="0.012565864979" flag="0"/>
			<psa10 value="0.00267603782125" flag="0"/>
			<psa30 value="0.0011868103912" flag="0"/>
		</comp>
	</station>
	<station code="KHMN" name="KHMN" netid="KO" source="Bogazici University Kandilli Observatory And Earthquake Research Institute (KOERI)" insttype="" lat="37.3916" lon="37.1574">
		<comp name=".HNE" depth="0.0">
			<acc value="0.0105481764829" flag="0"/>
			<vel value="0.0109830199775" flag="0"/>
			<psa03 value="0.0183005782089" flag="0"/>
			<psa10 value="0.0114199124506" flag="0"/>
			<psa30 value="0.00357174119366" flag="0"/>
		</comp>
		<comp name=".HNN" depth="0.0">
			<acc value="0.00798423698604" flag="0"/>
			<vel value="0.00788798838074" flag="0"/>
			<psa03 value="0.0110313974426" flag="0"/>
			<psa10 value="0.00792094566129" flag="0"/>
			<psa30 value="0.00355562929299" flag="0"/>
		</comp>
		<comp name=".HNZ" depth="0.0">
			<acc value="0.00557886474792" flag="0"/>
			<vel value="0.00769586059393" flag="0"/>
			<psa03 value="0.00969707467527" flag="0"/>
			<psa10 value="0.00690538494788" flag="0"/>
			<psa30 value="0.00431448206326" flag="0"/>
		</comp>
	</station>
	<station code="KRTS" name="KRTS" netid="KO" source="Bogazici University Kandilli Observatory And Earthquake Research Institute (KOERI)" insttype="" lat="36.573" lon="35.375">
		<comp name=".HNE" depth="0.0">
			<acc value="0.0600904691508" flag="0"/>
			<vel value="0.0362710330417" flag="0"/>
			<psa03 value="0.125416724909" flag="0"/>
			<psa10 value="0.0266580615908" flag="0"/>
			<psa30 value="0.0141244190068" flag="0"/>
		</comp>
		<comp name=".HNN" depth="0.0">
			<acc value="0.0664995351923" flag="0"/>
			<vel value="0.0399593731955" flag="0"/>
			<psa03 value="0.13354051307" flag="0"/>
			<psa10 value="0.0348401792409" flag="0"/>
			<psa30 value="0.0074789912798" flag="0"/>
		</comp>
		<comp name=".HNZ" depth="0.0">
			<acc value="0.0306415911994" flag="0"/>
			<vel value="0.0264291194854" flag="0"/>
			<psa03 value="0.131960908429" flag="0"/>
			<psa10 value="0.0276643526276" flag="0"/>
			<psa30 value="0.00957233912047" flag="0"/>
		</comp>
	</station>
</stationlist>
