<stationlist xmlns:esm="https://esm-db.eu/esmws/shakemap/1/" created="1783994336">
	<station code="KTHA" name="KTHA" netid="GE" source="GEOFON" insttype="" lat="36.2566" lon="23.0621" esm:processing="automatic (Paolucci et al 2011)" esm:quality="good">
		<comp name="--.HNE" depth="0.0">
			<acc value="0.0177480812456143" flag="0"/>
			<vel value="0.0271024402246554" flag="0"/>
			<psa03 value="0.0394178840306974" flag="0"/>
			<psa10 value="0.0259970117334806" flag="0"/>
			<psa30 value="0.00946476638802921" flag="0"/>
		</comp>
		<comp name="--.HNN" depth="0.0">
			<acc value="0.0124736954375654" flag="0"/>
			<vel value="0.0147897821465078" flag="0"/>
			<psa03 value="0.0309616069798441" flag="0"/>
			<psa10 value="0.0150561999491146" flag="0"/>
			<psa30 value="0.00473462030434552" flag="0"/>
		</comp>
		<comp name="--.HNZ" depth="0.0">
			<acc value="0.0107982961033556" flag="0"/>
			<vel value="0.0117318803679135" flag="0"/>
			<psa03 value="0.0240713071606302" flag="0"/>
			<psa10 value="0.0125354240282412" flag="0"/>
			<psa30 value="0.00516504033201329" flag="0"/>
		</comp>
	</station>
	<station code="AGN1" name="AGN1" netid="HI" source="ITSAK Strong Motion Network" insttype="" lat="35.1879" lon="25.7155" esm:processing="manual (Paolucci et al 2011)" esm:quality="good">
		<comp name="--.HNE" depth="0.0">
			<acc value="1.47872397369137" flag="0"/>
			<vel value="1.01104080948317" flag="0"/>
			<psa03 value="3.38408784587821" flag="0"/>
			<psa10 value="1.43918069865815" flag="0"/>
			<psa30 value="0.0895988088146891" flag="0"/>
		</comp>
		<comp name="--.HNN" depth="0.0">
			<acc value="1.57073386695112" flag="0"/>
			<vel value="1.26371843099139" flag="0"/>
			<psa03 value="4.1798705625777" flag="0"/>
			<psa10 value="1.19720674907154" flag="0"/>
			<psa30 value="0.247305476107413" flag="0"/>
		</comp>
		<comp name="--.HNZ" depth="0.0">
			<acc value="0.497968335340194" flag="0"/>
			<vel value="0.407555267890668" flag="0"/>
			<psa03 value="1.80500657282694" flag="0"/>
			<psa10 value="0.689553499535191" flag="0"/>
			<psa30 value="0.0781592710014513" flag="0"/>
		</comp>
	</station>
	<station code="ARE2" name="ARE2" netid="HI" source="ITSAK Strong Motion Network" insttype="" lat="36.66629" lon="22.382635" esm:processing="automatic (Paolucci et al 2011)" esm:quality="best">
		<comp name="--.HNE" depth="0.0">
			<acc value="0.00785625946717512" flag="0"/>
			<vel value="0.0103099082177116" flag="0"/>
			<psa03 value="0.01791995924477" flag="0"/>
			<psa10 value="0.0198298998835472" flag="0"/>
			<psa30 value="0.00286577838542019" flag="0"/>
		</comp>
		<comp name="--.HNN" depth="0.0">
			<acc value="0.00588217299915582" flag="0"/>
			<vel value="0.0113260849440598" flag="0"/>
			<psa03 value="0.0227118118377371" flag="0"/>
			<psa10 value="0.00845629362545135" flag="0"/>
			<psa30 value="0.00335353007157564" flag="0"/>
		</comp>
		<comp name="--.HNZ" depth="0.0">
			<acc value="0.00481380192087308" flag="0"/>
			<vel value="0.00733468807123817" flag="0"/>
			<psa03 value="0.0140651765405842" flag="0"/>
			<psa10 value="0.00969602918934815" flag="0"/>
			<psa30 value="0.00261494114368397" flag="0"/>
		</comp>
	</station>
	<station code="ARK1" name="ARK1" netid="HI" source="ITSAK Strong Motion Network" insttype="" lat="35.148777" lon="25.264194" esm:processing="manual (Paolucci et al 2011)" esm:quality="good">
		<comp name="--.HNE" depth="0.0">
			<acc value="0.699874408360333" flag="0"/>
			<vel value="0.51726420214887" flag="0"/>
			<psa03 value="2.04683142586997" flag="0"/>
			<psa10 value="0.759239835912973" flag="0"/>
			<psa30 value="0.0982265603608862" flag="0"/>
		</comp>
		<comp name="--.HNN" depth="0.0">
			<acc value="1.07146828041875" flag="0"/>
			<vel value="0.66731231341892" flag="0"/>
			<psa03 value="2.63395081964837" flag="0"/>
			<psa10 value="0.787632936816562" flag="0"/>
			<psa30 value="0.222318154153298" flag="0"/>
		</comp>
		<comp name="--.HNZ" depth="0.0">
			<acc value="0.609470931279873" flag="0"/>
			<vel value="0.487711241942891" flag="0"/>
			<psa03 value="1.68948225324106" flag="0"/>
			<psa10 value="0.552607147511467" flag="0"/>
			<psa30 value="0.0426988985924764" flag="0"/>
		</comp>
	</station>
	<station code="CH01" name="CH01" netid="HI" source="ITSAK Strong Motion Network" insttype="" lat="35.517" lon="24.0208" esm:processing="manual (Paolucci et al 2011)" esm:quality="best">
		<comp name="--.HNE" depth="0.0">
			<acc value="0.0836191112507865" flag="0"/>
			<vel value="0.0988871477275401" flag="0"/>
			<psa03 value="0.189572729441617" flag="0"/>
			<psa10 value="0.173232875584625" flag="0"/>
			<psa30 value="0.0237661653114936" flag="0"/>
		</comp>
		<comp name="--.HNN" depth="0.0">
			<acc value="0.0996211384987361" flag="0"/>
			<vel value="0.138323517252767" flag="0"/>
			<psa03 value="0.228901129059078" flag="0"/>
			<psa10 value="0.218115572731678" flag="0"/>
			<psa30 value="0.0298998744167925" flag="0"/>
		</comp>
		<comp name="--.HNZ" depth="0.0">
			<acc value="0.0590386309348004" flag="0"/>
			<vel value="0.0763709926491731" flag="0"/>
			<psa03 value="0.145188460476292" flag="0"/>
			<psa10 value="0.172648989788256" flag="0"/>
			<psa30 value="0.0105748205342285" flag="0"/>
		</comp>
	</station>
	<station code="CH02" name="CH02" netid="HI" source="ITSAK Strong Motion Network" insttype="" lat="35.5145" lon="24.0315" esm:processing="automatic (Paolucci et al 2011)" esm:quality="best">
		<comp name="--.HNE" depth="0.0">
			<acc value="0.111001139722633" flag="0"/>
			<vel value="0.0925245119500265" flag="0"/>
			<psa03 value="0.207411927522273" flag="0"/>
			<psa10 value="0.158448266420027" flag="0"/>
			<psa30 value="0.020866177281839" flag="0"/>
		</comp>
		<comp name="--.HNN" depth="0.0">
			<acc value="0.085983357066746" flag="0"/>
			<vel value="0.102723948356845" flag="0"/>
			<psa03 value="0.17324329943502" flag="0"/>
			<psa10 value="0.147109615290036" flag="0"/>
			<psa30 value="0.0233811922225691" flag="0"/>
		</comp>
		<comp name="--.HNZ" depth="0.0">
			<acc value="0.0571781686351754" flag="0"/>
			<vel value="0.0512151780722463" flag="0"/>
			<psa03 value="0.101034911817054" flag="0"/>
			<psa10 value="0.129222340345858" flag="0"/>
			<psa30 value="0.00904176730604266" flag="0"/>
		</comp>
	</station>
	<station code="CH03" name="CH03" netid="HI" source="ITSAK Strong Motion Network" insttype="" lat="35.53303" lon="24.0705" esm:processing="automatic (Paolucci et al 2011)" esm:quality="best">
		<comp name="--.HNE" depth="0.0">
			<acc value="0.0593362424500228" flag="0"/>
			<vel value="0.0685142158182148" flag="0"/>
			<psa03 value="0.110759556027007" flag="0"/>
			<psa10 value="0.131859305031826" flag="0"/>
			<psa30 value="0.0128086710115928" flag="0"/>
		</comp>
		<comp name="--.HNN" depth="0.0">
			<acc value="0.0829825955251895" flag="0"/>
			<vel value="0.0902145861609922" flag="0"/>
			<psa03 value="0.226891488780939" flag="0"/>
			<psa10 value="0.184176080761461" flag="0"/>
			<psa30 value="0.0196573972060914" flag="0"/>
		</comp>
		<comp name="--.HNZ" depth="0.0">
			<acc value="0.0439581061034508" flag="0"/>
			<vel value="0.0514008996860197" flag="0"/>
			<psa03 value="0.14094343056056" flag="0"/>
			<psa10 value="0.0938303082974294" flag="0"/>
			<psa30 value="0.00783067291031602" flag="0"/>
		</comp>
	</station>
	<station code="GOR1" name="GOR1" netid="HI" source="ITSAK Strong Motion Network" insttype="" lat="35.0582" lon="24.9628" esm:processing="manual (Paolucci et al 2011)" esm:quality="good">
		<comp name="--.HNE" depth="0.0">
			<acc value="0.457147396743963" flag="0"/>
			<vel value="0.603593176660578" flag="0"/>
			<psa03 value="1.55393727405141" flag="0"/>
			<psa10 value="0.767939992255633" flag="0"/>
			<psa30 value="0.0750242833239034" flag="0"/>
		</comp>
		<comp name="--.HNN" depth="0.0">
			<acc value="0.611898656401952" flag="0"/>
			<vel value="0.578811554917787" flag="0"/>
			<psa03 value="1.52982984371913" flag="0"/>
			<psa10 value="1.21778931256536" flag="0"/>
			<psa30 value="0.0704834491825935" flag="0"/>
		</comp>
		<comp name="--.HNZ" depth="0.0">
			<acc value="0.449977027563907" flag="0"/>
			<vel value="0.432872995096758" flag="0"/>
			<psa03 value="1.20750840817256" flag="0"/>
			<psa10 value="0.562470300896973" flag="0"/>
			<psa30 value="0.0808751109125168" flag="0"/>
		</comp>
	</station>
	<station code="HER1" name="HER1" netid="HI" source="ITSAK Strong Motion Network" insttype="" lat="35.317672" lon="25.10217" esm:processing="manual (Paolucci et al 2011)" esm:quality="good">
		<comp name="--.HNE" depth="0.0">
			<acc value="0.817778828511913" flag="0"/>
			<vel value="1.23986843433964" flag="0"/>
			<psa03 value="2.13618051147505" flag="0"/>
			<psa10 value="2.49561212205526" flag="0"/>
			<psa30 value="0.144643408582612" flag="0"/>
		</comp>
		<comp name="--.HNN" depth="0.0">
			<acc value="0.994175814853999" flag="0"/>
			<vel value="1.15196099273639" flag="0"/>
			<psa03 value="3.14674178953348" flag="0"/>
			<psa10 value="1.60880449540222" flag="0"/>
			<psa30 value="0.110159470857643" flag="0"/>
		</comp>
		<comp name="--.HNZ" depth="0.0">
			<acc value="1.20914463965912" flag="0"/>
			<vel value="0.949527150091412" flag="0"/>
			<psa03 value="1.96876975466736" flag="0"/>
			<psa10 value="1.1808029824025" flag="0"/>
			<psa30 value="0.0508076457571804" flag="0"/>
		</comp>
	</station>
	<station code="HER2" name="HER2" netid="HI" source="ITSAK Strong Motion Network" insttype="" lat="35.337866" lon="25.135624" esm:processing="manual (Paolucci et al 2011)" esm:quality="good">
		<comp name="--.HNE" depth="0.0">
			<acc value="0.606253997940099" flag="0"/>
			<vel value="0.511164695626019" flag="0"/>
			<psa03 value="2.33989183968412" flag="0"/>
			<psa10 value="0.628538817611958" flag="0"/>
			<psa30 value="0.045116142056326" flag="0"/>
		</comp>
		<comp name="--.HNN" depth="0.0">
			<acc value="0.497614377340417" flag="0"/>
			<vel value="0.492297757726968" flag="0"/>
			<psa03 value="1.47001521462684" flag="0"/>
			<psa10 value="0.639186282954282" flag="0"/>
			<psa30 value="0.0463745387522645" flag="0"/>
		</comp>
		<comp name="--.HNZ" depth="0.0">
			<acc value="0.612526508912737" flag="0"/>
			<vel value="0.369181235045445" flag="0"/>
			<psa03 value="1.7165355453889" flag="0"/>
			<psa10 value="0.245446229608124" flag="0"/>
			<psa30 value="0.0245934758637441" flag="0"/>
		</comp>
	</station>
	<station code="HER3" name="HER3" netid="HI" source="ITSAK Strong Motion Network" insttype="" lat="35.3296" lon="25.1065" esm:processing="manual (Paolucci et al 2011)" esm:quality="good">
		<comp name="--.HNE" depth="0.0">
			<acc value="0.855435944582895" flag="0"/>
			<vel value="0.946359856243205" flag="0"/>
			<psa03 value="3.1767051077896" flag="0"/>
			<psa10 value="1.6187585548098" flag="0"/>
			<psa30 value="0.0572541528066346" flag="0"/>
		</comp>
		<comp name="--.HNN" depth="0.0">
			<acc value="1.25401195123857" flag="0"/>
			<vel value="1.04632845456954" flag="0"/>
			<psa03 value="4.69603808947647" flag="0"/>
			<psa10 value="1.42208604622133" flag="0"/>
			<psa30 value="0.0886317580856577" flag="0"/>
		</comp>
		<comp name="--.HNZ" depth="0.0">
			<acc value="0.611274833008226" flag="0"/>
			<vel value="0.499430406099591" flag="0"/>
			<psa03 value="1.62986063693492" flag="0"/>
			<psa10 value="0.670089950170568" flag="0"/>
			<psa30 value="0.0307188249713942" flag="0"/>
		</comp>
	</station>
	<station code="KIS1" name="KIS1" netid="HI" source="ITSAK Strong Motion Network" insttype="" lat="35.493933" lon="23.658993" esm:processing="manual (Paolucci et al 2011)" esm:quality="good">
		<comp name="--.HNE" depth="0.0">
			<acc value="0.0479570013732913" flag="0"/>
			<vel value="0.0984074116974665" flag="0"/>
			<psa03 value="0.146571199205947" flag="0"/>
			<psa10 value="0.154097843225841" flag="0"/>
			<psa30 value="0.0164771015271107" flag="0"/>
		</comp>
		<comp name="--.HNN" depth="0.0">
			<acc value="0.0617173969947377" flag="0"/>
			<vel value="0.0639274899089406" flag="0"/>
			<psa03 value="0.202407137646173" flag="0"/>
			<psa10 value="0.115977152917194" flag="0"/>
			<psa30 value="0.0153913179326097" flag="0"/>
		</comp>
		<comp name="--.HNZ" depth="0.0">
			<acc value="0.0453545155040615" flag="0"/>
			<vel value="0.0446294982472334" flag="0"/>
			<psa03 value="0.102672145275736" flag="0"/>
			<psa10 value="0.0650364033425393" flag="0"/>
			<psa30 value="0.0094407662377637" flag="0"/>
		</comp>
	</station>
	<station code="KOS2" name="KOS2" netid="HI" source="ITSAK Strong Motion Network" insttype="" lat="36.8941" lon="27.2888" esm:processing="automatic (Paolucci et al 2011)" esm:quality="good">
		<comp name="--.HNE" depth="0.0">
			<acc value="0.047726153036694" flag="0"/>
			<vel value="0.15243361992797" flag="0"/>
			<psa03 value="0.0816285741590924" flag="0"/>
			<psa10 value="0.148472995607291" flag="0"/>
			<psa30 value="0.118216257913578" flag="0"/>
		</comp>
		<comp name="--.HNN" depth="0.0">
			<acc value="0.0438198336711826" flag="0"/>
			<vel value="0.108487347033343" flag="0"/>
			<psa03 value="0.0885211557587964" flag="0"/>
			<psa10 value="0.125129964246025" flag="0"/>
			<psa30 value="0.0609398169637967" flag="0"/>
		</comp>
		<comp name="--.HNZ" depth="0.0">
			<acc value="0.0238139929340983" flag="0"/>
			<vel value="0.0699886412989312" flag="0"/>
			<psa03 value="0.0357395394440876" flag="0"/>
			<psa10 value="0.0660969736001139" flag="0"/>
			<psa30 value="0.0332774611351495" flag="0"/>
		</comp>
	</station>
	<station code="KSS1" name="KSS1" netid="HI" source="ITSAK Strong Motion Network" insttype="" lat="35.4189" lon="26.9207" esm:processing="manual (Paolucci et al 2011)" esm:quality="good">
		<comp name="--.HNE" depth="0.0">
			<acc value="0.122958405227793" flag="0"/>
			<vel value="0.202955362971541" flag="0"/>
			<psa03 value="0.39686337270407" flag="0"/>
			<psa10 value="0.304611206566121" flag="0"/>
			<psa30 value="0.0499801767470728" flag="0"/>
		</comp>
		<comp name="--.HNN" depth="0.0">
			<acc value="0.189730115723176" flag="0"/>
			<vel value="0.346286811283161" flag="0"/>
			<psa03 value="0.500038901165805" flag="0"/>
			<psa10 value="0.494168723657488" flag="0"/>
			<psa30 value="0.0641934335234992" flag="0"/>
		</comp>
		<comp name="--.HNZ" depth="0.0">
			<acc value="0.119254816309441" flag="0"/>
			<vel value="0.207884927932223" flag="0"/>
			<psa03 value="0.141922279393158" flag="0"/>
			<psa10 value="0.4401653276913" flag="0"/>
			<psa30 value="0.0402344293014809" flag="0"/>
		</comp>
	</station>
	<station code="LEO1" name="LEO1" netid="HI" source="ITSAK Strong Motion Network" insttype="" lat="37.1689" lon="22.8637" esm:processing="automatic (Paolucci et al 2011)" esm:quality="best">
		<comp name="--.HNE" depth="0.0">
			<acc value="0.0111785492922305" flag="0"/>
			<vel value="0.00888667463293975" flag="0"/>
			<psa03 value="0.017606244452288" flag="0"/>
			<psa10 value="0.00812690743023246" flag="0"/>
			<psa30 value="0.00233677438316792" flag="0"/>
		</comp>
		<comp name="--.HNN" depth="0.0">
			<acc value="0.00767807561545836" flag="0"/>
			<vel value="0.0117232418545245" flag="0"/>
			<psa03 value="0.0156610726254509" flag="0"/>
			<psa10 value="0.00741111673136158" flag="0"/>
			<psa30 value="0.00255810633699029" flag="0"/>
		</comp>
		<comp name="--.HNZ" depth="0.0">
			<acc value="0.00830066738511659" flag="0"/>
			<vel value="0.00644817999587493" flag="0"/>
			<psa03 value="0.00873420555137752" flag="0"/>
			<psa10 value="0.00549812156732045" flag="0"/>
			<psa30 value="0.00173587572241404" flag="0"/>
		</comp>
	</station>
	<station code="NAX1" name="NAX1" netid="HI" source="ITSAK Strong Motion Network" insttype="" lat="37.101394" lon="25.374103" esm:processing="manual (Paolucci et al 2011)" esm:quality="best">
		<comp name="--.HNE" depth="0.0">
			<acc value="0.0151162242023912" flag="0"/>
			<vel value="0.022254971937074" flag="0"/>
			<psa03 value="0.02666635514449" flag="0"/>
			<psa10 value="0.0360801154169743" flag="0"/>
			<psa30 value="0.00563707061183606" flag="0"/>
		</comp>
		<comp name="--.HNN" depth="0.0">
			<acc value="0.0126989039987209" flag="0"/>
			<vel value="0.0174153233001455" flag="0"/>
			<psa03 value="0.0330197484842846" flag="0"/>
			<psa10 value="0.0211890142102811" flag="0"/>
			<psa30 value="0.00574266221945518" flag="0"/>
		</comp>
		<comp name="--.HNZ" depth="0.0">
			<acc value="0.00997065697374677" flag="0"/>
			<vel value="0.0187958376437199" flag="0"/>
			<psa03 value="0.0255477999790332" flag="0"/>
			<psa10 value="0.0159662564317303" flag="0"/>
			<psa30 value="0.00787776031927911" flag="0"/>
		</comp>
	</station>
	<station code="RKL1" name="RKL1" netid="HI" source="ITSAK Strong Motion Network" insttype="" lat="36.336699" lon="28.171224" esm:processing="automatic (Paolucci et al 2011)" esm:quality="good">
		<comp name="--.HNE" depth="0.0">
			<acc value="0.0754987257738746" flag="0"/>
			<vel value="0.0909812478128116" flag="0"/>
			<psa03 value="0.156534119617195" flag="0"/>
			<psa10 value="0.246785488327441" flag="0"/>
			<psa30 value="0.0248585267553982" flag="0"/>
		</comp>
		<comp name="--.HNN" depth="0.0">
			<acc value="0.050913742054971" flag="0"/>
			<vel value="0.0740313317411449" flag="0"/>
			<psa03 value="0.110955610681332" flag="0"/>
			<psa10 value="0.105721806050795" flag="0"/>
			<psa30 value="0.0290371302340378" flag="0"/>
		</comp>
		<comp name="--.HNZ" depth="0.0">
			<acc value="0.0470190572988013" flag="0"/>
			<vel value="0.0588270981799194" flag="0"/>
			<psa03 value="0.0801825408664836" flag="0"/>
			<psa10 value="0.0621538048845385" flag="0"/>
			<psa30 value="0.0303797558430618" flag="0"/>
		</comp>
	</station>
	<station code="RKT1" name="RKT1" netid="HI" source="ITSAK Strong Motion Network" insttype="" lat="35.954336" lon="27.767327" esm:processing="automatic (Paolucci et al 2011)" esm:quality="best">
		<comp name="--.HNE" depth="0.0">
			<acc value="0.0669724079300242" flag="0"/>
			<vel value="0.125772644760439" flag="0"/>
			<psa03 value="0.113188789868494" flag="0"/>
			<psa10 value="0.135883096588269" flag="0"/>
			<psa30 value="0.0585377245036268" flag="0"/>
		</comp>
		<comp name="--.HNN" depth="0.0">
			<acc value="0.0537768019737694" flag="0"/>
			<vel value="0.12081972232262" flag="0"/>
			<psa03 value="0.109910249764635" flag="0"/>
			<psa10 value="0.135945440718262" flag="0"/>
			<psa30 value="0.0447763028769815" flag="0"/>
		</comp>
		<comp name="--.HNZ" depth="0.0">
			<acc value="0.0370935617005197" flag="0"/>
			<vel value="0.0684308807805602" flag="0"/>
			<psa03 value="0.0551324230857869" flag="0"/>
			<psa10 value="0.0961801989661535" flag="0"/>
			<psa30 value="0.0275385759621718" flag="0"/>
		</comp>
	</station>
	<station code="RPN1" name="RPN1" netid="HI" source="ITSAK Strong Motion Network" insttype="" lat="36.448678" lon="28.218047" esm:processing="automatic (Paolucci et al 2011)" esm:quality="good">
		<comp name="--.HNE" depth="0.0">
			<acc value="0.0546455752825908" flag="0"/>
			<vel value="0.148276968278703" flag="0"/>
			<psa03 value="0.0927329035164151" flag="0"/>
			<psa10 value="0.135213527232586" flag="0"/>
			<psa30 value="0.122414696039499" flag="0"/>
		</comp>
		<comp name="--.HNN" depth="0.0">
			<acc value="0.0524962328677731" flag="0"/>
			<vel value="0.138903643781575" flag="0"/>
			<psa03 value="0.0959341572504307" flag="0"/>
			<psa10 value="0.114514316011429" flag="0"/>
			<psa30 value="0.0820694166960803" flag="0"/>
		</comp>
		<comp name="--.HNZ" depth="0.0">
			<acc value="0.0401175235744756" flag="0"/>
			<vel value="0.0791726769606978" flag="0"/>
			<psa03 value="0.0727430740799866" flag="0"/>
			<psa10 value="0.075945396009765" flag="0"/>
			<psa30 value="0.0396234115232184" flag="0"/>
		</comp>
	</station>
	<station code="RTH1" name="RTH1" netid="HI" source="ITSAK Strong Motion Network" insttype="" lat="35.365393" lon="24.471773" esm:processing="automatic (Paolucci et al 2011)" esm:quality="best">
