<?xml version="1.0" encoding="UTF-8" standalone="yes"?>
<!DOCTYPE earthquake SYSTEM "stationlist.dtd">
<stationlist created="" xmlns="ch.ethz.sed.shakemap.usgs.xml">
  <station code="GVD" name="GVD" netid="GE" insttype="STS-2/N" lat="34.8391" lon="24.0874">
    <comp name="--.HHE">
      <acc value="0.1275743309" flag="0"/>
      <vel value="0.1131958476" flag="0"/>
      <psa03 value="0.4230764783" flag="0"/>
      <psa10 value="0.1749418272" flag="0"/>
      <psa30 value="0.0102196479" flag="0"/>
    </comp>
    <comp name="--.HHZ">
      <acc value="0.0764367436" flag="0"/>
      <vel value="0.0372359162" flag="0"/>
      <psa03 value="0.2137283263" flag="0"/>
      <psa10 value="0.0478765924" flag="0"/>
      <psa30 value="0.0074676517" flag="0"/>
    </comp>
    <comp name="--.HHN">
      <acc value="0.1213750108" flag="0"/>
      <vel value="0.1012696096" flag="0"/>
      <psa03 value="0.4622525004" flag="0"/>
      <psa10 value="0.1301577573" flag="0"/>
      <psa30 value="0.0108117422" flag="0"/>
    </comp>
  </station>
  <station code="IMMV" name="IMMV" netid="GE" insttype="STS-2/N" lat="35.4606" lon="23.9811">
    <comp name="--.HHZ">
      <acc value="0.0637194350" flag="0"/>
      <vel value="0.0652245421" flag="0"/>
      <psa03 value="0.2210220233" flag="0"/>
      <psa10 value="0.1403262343" flag="0"/>
      <psa30 value="0.0086091221" flag="0"/>
    </comp>
    <comp name="--.HHE">
      <acc value="0.1024668950" flag="0"/>
      <vel value="0.0799395005" flag="0"/>
      <psa03 value="0.3452432601" flag="0"/>
      <psa10 value="0.1388334973" flag="0"/>
      <psa30 value="0.0127363734" flag="0"/>
    </comp>
    <comp name="--.HHN">
      <acc value="0.1052940737" flag="0"/>
      <vel value="0.0969221023" flag="0"/>
      <psa03 value="0.3065011058" flag="0"/>
      <psa10 value="0.1485385778" flag="0"/>
      <psa30 value="0.0149454600" flag="0"/>
    </comp>
  </station>
  <station code="KARP" name="KARP" netid="GE" insttype="STS-2/N" lat="35.5471" lon="27.1611">
    <comp name="--.HHE">
      <acc value="0.2363786250" flag="0"/>
      <vel value="0.2445018578" flag="0"/>
      <psa03 value="0.3206505309" flag="0"/>
      <psa10 value="0.3832648951" flag="0"/>
      <psa30 value="0.0541598848" flag="0"/>
    </comp>
    <comp name="--.HHN">
      <acc value="0.1731458345" flag="0"/>
      <vel value="0.2158541292" flag="0"/>
      <psa03 value="0.2658560442" flag="0"/>
      <psa10 value="0.4568917148" flag="0"/>
      <psa30 value="0.0600657884" flag="0"/>
    </comp>
    <comp name="--.HHZ">
      <acc value="0.1744939964" flag="0"/>
      <vel value="0.2568435586" flag="0"/>
      <psa03 value="0.2657212570" flag="0"/>
      <psa10 value="0.2786197535" flag="0"/>
      <psa30 value="0.1020841491" flag="0"/>
    </comp>
  </station>
  <station code="THERA" name="THERA" netid="GE" insttype="STS-2/N" lat="36.367" lon="25.4753">
    <comp name="--.HHE">
      <acc value="0.0544871773" flag="0"/>
      <vel value="0.0573306421" flag="0"/>
      <psa03 value="0.1332698913" flag="0"/>
      <psa10 value="0.0864742270" flag="0"/>
      <psa30 value="0.0249787454" flag="0"/>
    </comp>
    <comp name="--.HHN">
      <acc value="0.0247904265" flag="0"/>
      <vel value="0.0286055790" flag="0"/>
      <psa03 value="0.0808886170" flag="0"/>
      <psa10 value="0.0345169555" flag="0"/>
      <psa30 value="0.0112675827" flag="0"/>
    </comp>
    <comp name="--.HHZ">
      <acc value="0.0373254661" flag="0"/>
      <vel value="0.0424312778" flag="0"/>
      <psa03 value="0.1002467148" flag="0"/>
      <psa10 value="0.0577873811" flag="0"/>
      <psa30 value="0.0225530462" flag="0"/>
    </comp>
  </station>
  <station code="ZKR" name="ZKR" netid="GE" insttype="STS-2/N" lat="35.1147" lon="26.2169">
    <comp name="--.HHZ">
      <acc value="0.5407643592" flag="0"/>
      <vel value="0.7857588088" flag="0"/>
      <psa03 value="1.3731281605" flag="0"/>
      <psa10 value="1.2147653061" flag="0"/>
      <psa30 value="0.0996596118" flag="0"/>
    </comp>
    <comp name="--.HHE">
      <acc value="0.9705478561" flag="0"/>
      <vel value="1.1507238631" flag="0"/>
      <psa03 value="2.3981162250" flag="0"/>
      <psa10 value="2.9223102492" flag="0"/>
      <psa30 value="0.1002741306" flag="0"/>
    </comp>
    <comp name="--.HHN">
      <acc value="2.6300270495" flag="0"/>
      <vel value="1.1343503567" flag="0"/>
      <psa03 value="2.0384246983" flag="0"/>
      <psa10 value="2.1527409706" flag="0"/>
      <psa30 value="0.0965668563" flag="0"/>
    </comp>
  </station>
  <station code="SNT5" name="SNT5" netid="HA" insttype="1s-100Hz," lat="36.4037" lon="25.3953">
    <comp name="--.HHZ">
      <acc value="0.0412254057" flag="0"/>
      <vel value="0.0474173072" flag="0"/>
      <psa03 value="0.1278693219" flag="0"/>
      <psa10 value="0.0854289635" flag="0"/>
      <psa30 value="0.0189001883" flag="0"/>
    </comp>
    <comp name="--.HHE">
      <acc value="0.1231663139" flag="0"/>
      <vel value="0.0731753285" flag="0"/>
      <psa03 value="0.4009191364" flag="0"/>
      <psa10 value="0.0837276205" flag="0"/>
      <psa30 value="0.0102168863" flag="0"/>
    </comp>
    <comp name="--.HHN">
      <acc value="0.0874768212" flag="0"/>
      <vel value="0.1467311637" flag="0"/>
      <psa03 value="0.3370533315" flag="0"/>
      <psa10 value="0.1365438903" flag="0"/>
      <psa30 value="0.0924059041" flag="0"/>
    </comp>
  </station>
  <station code="CHAN" name="CHAN" netid="HC" insttype="120" lat="35.5193" lon="24.0428">
    <comp name="--.HHE">
      <acc value="0.1118049544" flag="0"/>
      <vel value="0.1336633759" flag="0"/>
      <psa03 value="0.3686775542" flag="0"/>
      <psa10 value="0.2173306226" flag="0"/>
      <psa30 value="0.0315217741" flag="0"/>
    </comp>
    <comp name="--.HHN">
      <acc value="0.1618210061" flag="0"/>
      <vel value="0.2078392032" flag="0"/>
      <psa03 value="0.3112970240" flag="0"/>
      <psa10 value="0.3635815680" flag="0"/>
      <psa30 value="0.0368911682" flag="0"/>
    </comp>
    <comp name="--.HHZ">
      <acc value="0.0863654776" flag="0"/>
      <vel value="0.1003656377" flag="0"/>
      <psa03 value="0.2375296878" flag="0"/>
      <psa10 value="0.2001141663" flag="0"/>
      <psa30 value="0.0158459673" flag="0"/>
    </comp>
  </station>
  <station code="GVDS" name="GVDS" netid="HC" insttype="60" lat="34.8389" lon="24.0585">
    <comp name="--.HHE">
      <acc value="0.0868500845" flag="0"/>
      <vel value="0.0755323471" flag="0"/>
      <psa03 value="0.2988819443" flag="0"/>
      <psa10 value="0.1132773439" flag="0"/>
      <psa30 value="0.0089893612" flag="0"/>
    </comp>
  </station>
  <station code="KNDR" name="KNDR" netid="HC" insttype="60" lat="35.2348" lon="23.6248">
    <comp name="--.HHE">
      <acc value="0.0541108467" flag="0"/>
      <vel value="0.0550963674" flag="0"/>
      <psa03 value="0.1627122723" flag="0"/>
      <psa10 value="0.0910420818" flag="0"/>
      <psa30 value="0.0091775440" flag="0"/>
    </comp>
    <comp name="--.HHZ">
      <acc value="0.0371082994" flag="0"/>
      <vel value="0.0304902286" flag="0"/>
      <psa03 value="0.1375810932" flag="0"/>
      <psa10 value="0.0430423300" flag="0"/>
      <psa30 value="0.0051691664" flag="0"/>
    </comp>
    <comp name="--.HHN">
      <acc value="0.0506311880" flag="0"/>
      <vel value="0.0666903060" flag="0"/>
      <psa03 value="0.1850302318" flag="0"/>
      <psa10 value="0.1016041184" flag="0"/>
      <psa30 value="0.0124649291" flag="0"/>
    </comp>
  </station>
  <station code="SIT2" name="SIT2" netid="HI" insttype="CMG-5TD,ACCELEROMETER,GURALP" lat="35.2059" lon="26.107">
    <comp name="--.HNZ">
      <acc value="1.2459995825" flag="0"/>
      <vel value="0.8523222564" flag="0"/>
      <psa03 value="2.5394557991" flag="0"/>
      <psa10 value="0.8986669625" flag="0"/>
      <psa30 value="0.1345965667" flag="0"/>
    </comp>
    <comp name="--.HNE">
      <acc value="3.6473889040" flag="0"/>
      <vel value="3.5173642731" flag="0"/>
      <psa03 value="8.2459466897" flag="0"/>
      <psa10 value="4.0965731658" flag="0"/>
      <psa30 value="0.2474001840" flag="0"/>
    </comp>
    <comp name="--.HNN">
      <acc value="2.7242794128" flag="0"/>
      <vel value="2.3457373432" flag="0"/>
      <psa03 value="7.2526601181" flag="0"/>
      <psa10 value="3.6646206579" flag="0"/>
      <psa30 value="0.3456281030" flag="0"/>
    </comp>
  </station>
  <station code="GVD" name="GVD" netid="HL" insttype="120" lat="34.8391" lon="24.0874">
    <comp name="--.HHN">
      <acc value="0.1181931995" flag="0"/>
      <vel value="0.1002832792" flag="0"/>
      <psa03 value="0.4493045677" flag="0"/>
      <psa10 value="0.1292545489" flag="0"/>
      <psa30 value="0.0107885806" flag="0"/>
    </comp>
    <comp name="--.HHZ">
      <acc value="0.0747658254" flag="0"/>
      <vel value="0.0368807559" flag="0"/>
      <psa03 value="0.2080487007" flag="0"/>
      <psa10 value="0.0474541934" flag="0"/>
      <psa30 value="0.0074676563" flag="0"/>
    </comp>
    <comp name="--.HHE">
      <acc value="0.1246899985" flag="0"/>
      <vel value="0.1117266034" flag="0"/>
      <psa03 value="0.4117463838" flag="0"/>
      <psa10 value="0.1735465603" flag="0"/>
      <psa30 value="0.0102029686" flag="0"/>
    </comp>
  </station>
  <station code="IACM" name="IACM" netid="HL" insttype="120" lat="35.3058" lon="25.0709">
    <comp name="--.HHN">
      <acc value="1.0023862766" flag="0"/>
      <vel value="0.8983659713" flag="0"/>
      <psa03 value="3.5399376849" flag="0"/>
      <psa10 value="1.2912689762" flag="0"/>
      <psa30 value="0.1252419260" flag="0"/>
    </comp>
    <comp name="--.HHE">
      <acc value="1.2261048190" flag="0"/>
      <vel value="1.0770540322" flag="0"/>
      <psa03 value="4.9904226357" flag="0"/>
      <psa10 value="1.8341157976" flag="0"/>
      <psa30 value="0.1261683349" flag="0"/>
    </comp>
    <comp name="--.HHZ">
      <acc value="0.6922492894" flag="0"/>
      <vel value="0.3815404246" flag="0"/>
      <psa03 value="2.3487327268" flag="0"/>
      <psa10 value="0.4397023140" flag="0"/>
      <psa30 value="0.0341442974" flag="0"/>
    </comp>
  </station>
  <station code="IMMV" name="IMMV" netid="HL" insttype="120" lat="35.4606" lon="23.9811">
    <comp name="--.HHE">
      <acc value="0.1006600000" flag="0"/>
      <vel value="0.0793129036" flag="0"/>
      <psa03 value="0.3367270197" flag="0"/>
      <psa10 value="0.1375257833" flag="0"/>
      <psa30 value="0.0127152728" flag="0"/>
    </comp>
    <comp name="--.HHN">
      <acc value="0.1029599281" flag="0"/>
      <vel value="0.0961978312" flag="0"/>
      <psa03 value="0.2983511383" flag="0"/>
      <psa10 value="0.1476740758" flag="0"/>
      <psa30 value="0.0149448569" flag="0"/>
    </comp>
    <comp name="--.HHZ">
      <acc value="0.0620805632" flag="0"/>
      <vel value="0.0646187476" flag="0"/>
      <psa03 value="0.2152548725" flag="0"/>
      <psa10 value="0.1395481267" flag="0"/>
      <psa30 value="0.0086095757" flag="0"/>
    </comp>
  </station>
  <station code="KARP" name="KARP" netid="HL" insttype="120" lat="35.5471" lon="27.1611">
    <comp name="--.HHN">
      <acc value="0.1680000307" flag="0"/>
      <vel value="0.2140626318" flag="0"/>
      <psa03 value="0.2600964588" flag="0"/>
      <psa10 value="0.4543849173" flag="0"/>
      <psa30 value="0.0599575718" flag="0"/>
    </comp>
    <comp name="--.HHE">
      <acc value="0.2315247697" flag="0"/>
      <vel value="0.2427172680" flag="0"/>
      <psa03 value="0.3157857942" flag="0"/>
      <psa10 value="0.3808453523" flag="0"/>
      <psa30 value="0.0540657567" flag="0"/>
    </comp>
    <comp name="--.HHZ">
      <acc value="0.1704658433" flag="0"/>
      <vel value="0.2548993718" flag="0"/>
      <psa03 value="0.2601355755" flag="0"/>
      <psa10 value="0.2768348449" flag="0"/>
      <psa30 value="0.1019366075" flag="0"/>
    </comp>
  </station>
  <station code="NPS" name="NPS" netid="HL" insttype="CMG3ESPC-120s" lat="35.2613" lon="25.6104">
    <comp name="--.HHE">
      <acc value="0.3299116054" flag="0"/>
      <vel value="0.2249123936" flag="0"/>
      <psa03 value="1.1846340247" flag="0"/>
      <psa10 value="0.5295447920" flag="0"/>
      <psa30 value="0.0241026657" flag="0"/>
    </comp>
    <comp name="--.HHZ">
      <acc value="0.4398157669" flag="0"/>
      <vel value="0.4754240502" flag="0"/>
      <psa03 value="1.5531883263" flag="0"/>
      <psa10 value="0.7819571255" flag="0"/>
      <psa30 value="0.1093430813" flag="0"/>
    </comp>
    <comp name="--.HHN">
      <acc value="0.7635749457" flag="0"/>
      <vel value="0.8734258353" flag="0"/>
      <psa03 value="1.7505924056" flag="0"/>
      <psa10 value="1.6509917753" flag="0"/>
      <psa30 value="0.1830874676" flag="0"/>
    </comp>
  </station>
  <station code="SAP3" name="SAP3" netid="HL" insttype="LE3D20_SMART24" lat="36.4356" lon="25.3454">
    <comp name="--.HHN">
      <acc value="0.1752249147" flag="0"/>
      <vel value="0.2047778224" flag="0"/>
      <psa03 value="0.5169663210" flag="0"/>
      <psa10 value="0.2981399502" flag="0"/>
      <psa30 value="0.0958631180" flag="0"/>
    </comp>
    <comp name="--.HHE">
      <acc value="0.1959673723" flag="0"/>
      <vel value="0.2312552139" flag="0"/>
      <psa03 value="0.4060525922" flag="0"/>
      <psa10 value="0.3373968828" flag="0"/>
      <psa30 value="0.1147831415" flag="0"/>
    </comp>
    <comp name="--.HHZ">
      <acc value="0.1709688190" flag="0"/>
      <vel value="0.0715951747" flag="0"/>
      <psa03 value="0.5174979205" flag="0"/>
      <psa10 value="0.0575348986" flag="0"/>
      <psa30 value="0.0205007310" flag="0"/>
    </comp>
  </station>
  <station code="SIVA" name="SIVA" netid="HL" insttype="60" lat="35.0178" lon="24.812">
    <comp name="--.HHE">
      <acc value="0.9469573762" flag="0"/>
      <vel value="0.6627496555" flag="0"/>
      <psa03 value="2.5261040386" flag="0"/>
      <psa10 value="1.0982618687" flag="0"/>
      <psa30 value="0.0360584762" flag="0"/>
    </comp>
    <comp name="--.HHZ">
      <acc value="0.3644237194" flag="0"/>
      <vel value="0.2299654533" flag="0"/>
      <psa03 value="0.9547184187" flag="0"/>
      <psa10 value="0.2742851858" flag="0"/>
      <psa30 value="0.0264077955" flag="0"/>
    </comp>
    <comp name="--.HHN">
      <acc value="0.4775237509" flag="0"/>
      <vel value="0.3771519351" flag="0"/>
      <psa03 value="1.4463073302" flag="0"/>
      <psa10 value="1.0421737577" flag="0"/>
      <psa30 value="0.0456134058" flag="0"/>
    </comp>
  </station>
  <station code="THERA" name="THERA" netid="HL" insttype="120" lat="36.367" lon="25.4753">
    <comp name="--.HHN">
      <acc value="0.0245782776" flag="0"/>
      <vel value="0.0283351618" flag="0"/>
      <psa03 value="0.0787208170" flag="0"/>
      <psa10 value="0.0342437594" flag="0"/>
      <psa30 value="0.0112751738" flag="0"/>
    </comp>
    <comp name="--.HHE">
      <acc value="0.0535124499" flag="0"/>
      <vel value="0.0571915296" flag="0"/>
      <psa03 value="0.1298985822" flag="0"/>
      <psa10 value="0.0859340793" flag="0"/>
      <psa30 value="0.0250001447" flag="0"/>
    </comp>
    <comp name="--.HHZ">
      <acc value="0.0367252077" flag="0"/>
      <vel value="0.0422456751" flag="0"/>
      <psa03 value="0.0974510804" flag="0"/>
      <psa10 value="0.0574391867" flag="0"/>
      <psa30 value="0.0225661863" flag="0"/>
    </comp>
  </station>
  <station code="VAM" name="VAM" netid="HL" insttype="CMG3ESPC-120s" lat="35.407" lon="24.1997">
    <comp name="--.HHE">
      <acc value="0.1131789116" flag="0"/>
      <vel value="0.0916545961" flag="0"/>
      <psa03 value="0.3067742385" flag="0"/>
      <psa10 value="0.1339659952" flag="0"/>
      <psa30 value="0.0196139196" flag="0"/>
    </comp>
    <comp name="--.HHZ">
      <acc value="0.0681677281" flag="0"/>
      <vel value="0.0679131944" flag="0"/>
      <psa03 value="0.2641076151" flag="0"/>
      <psa10 value="0.0619901679" flag="0"/>
      <psa30 value="0.0105133004" flag="0"/>
    </comp>
    <comp name="--.HHN">
      <acc value="0.1028899073" flag="0"/>
      <vel value="0.0982048469" flag="0"/>
      <psa03 value="0.3552157327" flag="0"/>
      <psa10 value="0.1755080248" flag="0"/>
      <psa30 value="0.0194619006" flag="0"/>
    </comp>
  </station>
  <station code="ZKR" name="ZKR" netid="HL" insttype="120" lat="35.1147" lon="26.2169">
    <comp name="--.HHN">
      <acc value="2.8448031838" flag="0"/>
      <vel value="1.1343597430" flag="0"/>
      <psa03 value="1.9894526904" flag="0"/>
      <psa10 value="2.1362420854" flag="0"/>
      <psa30 value="0.0961673734" flag="0"/>
    </comp>
    <comp name="--.HHE">
      <acc value="0.9654457717" flag="0"/>
      <vel value="1.1424980415" flag="0"/>
      <psa03 value="2.3425476213" flag="0"/>
      <psa10 value="2.9039620417" flag="0"/>
      <psa30 value="0.0998763130" flag="0"/>
    </comp>
    <comp name="--.HHZ">
      <acc value="0.5333822395" flag="0"/>
      <vel value="0.7820020467" flag="0"/>
      <psa03 value="1.3437539899" flag="0"/>
      <psa10 value="1.2081939107" flag="0"/>
      <psa30 value="0.0993111604" flag="0"/>
    </comp>
  </station>
  <station code="CMBO" name="CMBO" netid="HT" insttype="120P," lat="36.4709" lon="25.4056">
    <comp name="--.HHE">
      <acc value="0.2124783732" flag="0"/>
      <vel value="0.2251345949" flag="0"/>
      <psa03 value="0.4612518229" flag="0"/>
      <psa10 value="0.3477943446" flag="0"/>
      <psa30 value="0.0579849766" flag="0"/>
    </comp>
    <comp name="--.HHZ">
      <acc value="0.1451749810" flag="0"/>
      <vel value="0.1615089637" flag="0"/>
      <psa03 value="0.4086399631" flag="0"/>
      <psa10 value="0.1761734912" flag="0"/>
      <psa30 value="0.0607134576" flag="0"/>
    </comp>
    <comp name="--.HHN">
      <acc value="0.2287982919" flag="0"/>
      <vel value="0.2493406979" flag="0"/>
      <psa03 value="0.4149954516" flag="0"/>
      <psa10 value="0.3838334236" flag="0"/>
      <psa30 value="0.0654044719" flag="0"/>
    </comp>
  </station>
</stationlist>
