<stationlist created="1778069822">
	<station code="KTHA" name="KTHA" netid="GE" source="GEOFON" insttype="" lat="36.2566" lon="23.0621">
		<comp name="--.HNE" depth="0.0">
			<acc value="0.0177480812456143" flag="0"/>
			<vel value="0.0271024402246554" flag="0"/>
			<psa03 value="0.0394178840306974" flag="0"/>
			<psa10 value="0.0259970117334806" flag="0"/>
			<psa30 value="0.00946476638802921" flag="0"/>
		</comp>
		<comp name="--.HNN" depth="0.0">
			<acc value="0.0124736954375654" flag="0"/>
			<vel value="0.0147897821465078" flag="0"/>
			<psa03 value="0.0309616069798441" flag="0"/>
			<psa10 value="0.0150561999491146" flag="0"/>
			<psa30 value="0.00473462030434552" flag="0"/>
		</comp>
		<comp name="--.HNZ" depth="0.0">
			<acc value="0.0107982961033556" flag="0"/>
			<vel value="0.0117318803679135" flag="0"/>
			<psa03 value="0.0240713071606302" flag="0"/>
			<psa10 value="0.0125354240282412" flag="0"/>
			<psa30 value="0.00516504033201329" flag="0"/>
		</comp>
	</station>
	<station code="CH01" name="CH01" netid="HI" source="ITSAK Strong Motion Network" insttype="" lat="35.517" lon="24.0208">
		<comp name="--.HNE" depth="0.0">
			<acc value="0.0836191112507865" flag="0"/>
			<vel value="0.0988871477275401" flag="0"/>
			<psa03 value="0.189572729441617" flag="0"/>
			<psa10 value="0.173232875584625" flag="0"/>
			<psa30 value="0.0237661653114936" flag="0"/>
		</comp>
		<comp name="--.HNN" depth="0.0">
			<acc value="0.0996211384987361" flag="0"/>
			<vel value="0.138323517252767" flag="0"/>
			<psa03 value="0.228901129059078" flag="0"/>
			<psa10 value="0.218115572731678" flag="0"/>
			<psa30 value="0.0298998744167925" flag="0"/>
		</comp>
		<comp name="--.HNZ" depth="0.0">
			<acc value="0.0590386309348004" flag="0"/>
			<vel value="0.0763709926491731" flag="0"/>
			<psa03 value="0.145188460476292" flag="0"/>
			<psa10 value="0.172648989788256" flag="0"/>
			<psa30 value="0.0105748205342285" flag="0"/>
		</comp>
	</station>
	<station code="KSS1" name="KSS1" netid="HI" source="ITSAK Strong Motion Network" insttype="" lat="35.4189" lon="26.9207">
		<comp name="--.HNE" depth="0.0">
			<acc value="0.122958405227793" flag="0"/>
			<vel value="0.202955362971541" flag="0"/>
			<psa03 value="0.39686337270407" flag="0"/>
			<psa10 value="0.304611206566121" flag="0"/>
			<psa30 value="0.0499801767470728" flag="0"/>
		</comp>
		<comp name="--.HNN" depth="0.0">
			<acc value="0.189730115723176" flag="0"/>
			<vel value="0.346286811283161" flag="0"/>
			<psa03 value="0.500038901165805" flag="0"/>
			<psa10 value="0.494168723657488" flag="0"/>
			<psa30 value="0.0641934335234992" flag="0"/>
		</comp>
		<comp name="--.HNZ" depth="0.0">
			<acc value="0.119254816309441" flag="0"/>
			<vel value="0.207884927932223" flag="0"/>
			<psa03 value="0.141922279393158" flag="0"/>
			<psa10 value="0.4401653276913" flag="0"/>
			<psa30 value="0.0402344293014809" flag="0"/>
		</comp>
	</station>
	<station code="NAX1" name="NAX1" netid="HI" source="ITSAK Strong Motion Network" insttype="" lat="37.101394" lon="25.374103">
		<comp name="--.HNE" depth="0.0">
			<acc value="0.0151162242023912" flag="0"/>
			<vel value="0.022254971937074" flag="0"/>
			<psa03 value="0.02666635514449" flag="0"/>
			<psa10 value="0.0360801154169743" flag="0"/>
			<psa30 value="0.00563707061183606" flag="0"/>
		</comp>
		<comp name="--.HNN" depth="0.0">
			<acc value="0.0126989039987209" flag="0"/>
			<vel value="0.0174153233001455" flag="0"/>
			<psa03 value="0.0330197484842846" flag="0"/>
			<psa10 value="0.0211890142102811" flag="0"/>
			<psa30 value="0.00574266221945518" flag="0"/>
		</comp>
		<comp name="--.HNZ" depth="0.0">
			<acc value="0.00997065697374677" flag="0"/>
			<vel value="0.0187958376437199" flag="0"/>
			<psa03 value="0.0255477999790332" flag="0"/>
			<psa10 value="0.0159662564317303" flag="0"/>
			<psa30 value="0.00787776031927911" flag="0"/>
		</comp>
	</station>
	<station code="SIT2" name="SIT2" netid="HI" source="ITSAK Strong Motion Network" insttype="" lat="35.2059" lon="26.107">
		<comp name="--.HNE" depth="0.0">
			<acc value="3.64637827116911" flag="0"/>
			<vel value="3.51097774484962" flag="0"/>
			<psa03 value="8.26894143174266" flag="0"/>
			<psa10 value="4.09670381926485" flag="0"/>
			<psa30 value="0.247100469023126" flag="0"/>
		</comp>
		<comp name="--.HNN" depth="0.0">
			<acc value="2.72411884304144" flag="0"/>
			<vel value="2.36341474641027" flag="0"/>
			<psa03 value="7.28116773623107" flag="0"/>
			<psa10 value="3.67503760432194" flag="0"/>
			<psa30 value="0.349527460368137" flag="0"/>
		</comp>
		<comp name="--.HNZ" depth="0.0">
			<acc value="1.24771384809287" flag="0"/>
			<vel value="0.856802475945533" flag="0"/>
			<psa03 value="2.54131259371122" flag="0"/>
			<psa10 value="0.899566672273994" flag="0"/>
			<psa30 value="0.133738929802676" flag="0"/>
		</comp>
	</station>
	<station code="IACM" name="IACM" netid="HL" source="National Observatory of Athens Seismic Network" insttype="" lat="35.3058" lon="25.0709">
		<comp name="--.HNE" depth="0.0">
			<acc value="1.18381770268344" flag="0"/>
			<vel value="1.09728458576765" flag="0"/>
			<psa03 value="4.79430640797429" flag="0"/>
			<psa10 value="1.84522810807233" flag="0"/>
			<psa30 value="0.12780879773749" flag="0"/>
		</comp>
		<comp name="--.HNN" depth="0.0">
			<acc value="1.04869194076072" flag="0"/>
			<vel value="0.91030697748512" flag="0"/>
			<psa03 value="3.87521199962175" flag="0"/>
			<psa10 value="1.35591570352119" flag="0"/>
			<psa30 value="0.125082207666173" flag="0"/>
		</comp>
		<comp name="--.HNZ" depth="0.0">
			<acc value="0.687010381466126" flag="0"/>
			<vel value="0.389719562125881" flag="0"/>
			<psa03 value="2.35988294587413" flag="0"/>
			<psa10 value="0.441453903241906" flag="0"/>
			<psa30 value="0.0347951192428976" flag="0"/>
		</comp>
	</station>
	<station code="IMMV" name="IMMV" netid="HL" source="National Observatory of Athens Seismic Network" insttype="" lat="35.4606" lon="23.9811">
		<comp name="--.HNE" depth="0.0">
			<acc value="0.0981444551373928" flag="0"/>
			<vel value="0.0788201748110857" flag="0"/>
			<psa03 value="0.326886561553093" flag="0"/>
			<psa10 value="0.135332647202419" flag="0"/>
			<psa30 value="0.0122624965678697" flag="0"/>
		</comp>
		<comp name="--.HNN" depth="0.0">
			<acc value="0.10144247897971" flag="0"/>
			<vel value="0.0875077704983789" flag="0"/>
			<psa03 value="0.297580416218125" flag="0"/>
			<psa10 value="0.145468099267656" flag="0"/>
			<psa30 value="0.015140315297557" flag="0"/>
		</comp>
		<comp name="--.HNZ" depth="0.0">
			<acc value="0.061078282413123" flag="0"/>
			<vel value="0.0691617904082238" flag="0"/>
			<psa03 value="0.212078059370608" flag="0"/>
			<psa10 value="0.137684297582275" flag="0"/>
			<psa30 value="0.0088021343080126" flag="0"/>
		</comp>
	</station>
	<station code="KARP" name="KARP" netid="HL" source="National Observatory of Athens Seismic Network" insttype="" lat="35.5471" lon="27.16106">
		<comp name="--.HNE" depth="0.0">
			<acc value="0.177699971297427" flag="0"/>
			<vel value="0.211292519408415" flag="0"/>
			<psa03 value="0.267021489097846" flag="0"/>
			<psa10 value="0.320271426304582" flag="0"/>
			<psa30 value="0.0437672739360596" flag="0"/>
		</comp>
		<comp name="--.HNN" depth="0.0">
			<acc value="0.140987616863876" flag="0"/>
			<vel value="0.190667992770091" flag="0"/>
			<psa03 value="0.222189798066338" flag="0"/>
			<psa10 value="0.377822431833532" flag="0"/>
			<psa30 value="0.057463758226045" flag="0"/>
		</comp>
		<comp name="--.HNZ" depth="0.0">
			<acc value="0.139279734108645" flag="0"/>
			<vel value="0.213555168229829" flag="0"/>
			<psa03 value="0.211496410684571" flag="0"/>
			<psa10 value="0.223551750835798" flag="0"/>
			<psa30 value="0.084764557860382" flag="0"/>
		</comp>
	</station>
	<station code="SIVA" name="SIVA" netid="HL" source="National Observatory of Athens Seismic Network" insttype="" lat="35.01777" lon="24.81204">
		<comp name="00.HNE" depth="0.0">
			<acc value="0.883539566305388" flag="0"/>
			<vel value="0.613968477819247" flag="0"/>
			<psa03 value="2.42645934932211" flag="0"/>
			<psa10 value="1.03270471424179" flag="0"/>
			<psa30 value="0.0336644836816538" flag="0"/>
		</comp>
		<comp name="00.HNN" depth="0.0">
			<acc value="0.498219393620443" flag="0"/>
			<vel value="0.443251349485457" flag="0"/>
			<psa03 value="1.57362814897124" flag="0"/>
			<psa10 value="1.21286368341092" flag="0"/>
			<psa30 value="0.0553944311699499" flag="0"/>
		</comp>
		<comp name="00.HNZ" depth="0.0">
			<acc value="0.366675171637474" flag="0"/>
			<vel value="0.234727192541161" flag="0"/>
			<psa03 value="0.945850247910265" flag="0"/>
			<psa10 value="0.271220992611037" flag="0"/>
			<psa30 value="0.0268448765488969" flag="0"/>
		</comp>
	</station>
	<station code="THRA" name="THRA" netid="HL" source="National Observatory of Athens Seismic Network" insttype="" lat="36.41502" lon="25.43244">
		<comp name="00.HNE" depth="0.0">
			<acc value="0.220275214991885" flag="0"/>
			<vel value="0.320793115765961" flag="0"/>
			<psa03 value="0.422097977236776" flag="0"/>
			<psa10 value="0.548836541391957" flag="0"/>
			<psa30 value="0.0592006506869663" flag="0"/>
		</comp>
		<comp name="00.HNN" depth="0.0">
			<acc value="0.148020245640168" flag="0"/>
			<vel value="0.192990090292814" flag="0"/>
			<psa03 value="0.386796376214959" flag="0"/>
			<psa10 value="0.269155244931471" flag="0"/>
			<psa30 value="0.0357861591194923" flag="0"/>
		</comp>
		<comp name="00.HNZ" depth="0.0">
			<acc value="0.11636497069953" flag="0"/>
			<vel value="0.111855852791594" flag="0"/>
			<psa03 value="0.360308989896942" flag="0"/>
			<psa10 value="0.150811661004076" flag="0"/>
			<psa30 value="0.0172078526653873" flag="0"/>
		</comp>
	</station>
</stationlist>
