<stationlist xmlns:esm="https://esm-db.eu/esmws/shakemap/1/" created="1781488511">
	<station code="MALA" name="MALA" netid="CL" source="Corinth Riff Laboratory (CRLNET)" insttype="" lat="38.39341" lon="21.87263" esm:processing="automatic (Paolucci et al 2011)" esm:quality="best">
		<comp name="01.HNE" depth="0.0">
			<acc value="0.0179867821286707" flag="0"/>
			<vel value="0.0157246585005791" flag="0"/>
			<psa03 value="0.0428238967688255" flag="0"/>
			<psa10 value="0.0307501189194646" flag="0"/>
			<psa30 value="0.00235474224011693" flag="0"/>
		</comp>
		<comp name="01.HNN" depth="0.0">
			<acc value="0.0129983663519031" flag="0"/>
			<vel value="0.0146986617192526" flag="0"/>
			<psa03 value="0.0366921650508588" flag="0"/>
			<psa10 value="0.0245191411477673" flag="0"/>
			<psa30 value="0.00148324492436352" flag="0"/>
		</comp>
		<comp name="01.HNZ" depth="0.0">
			<acc value="0.00635505141984384" flag="0"/>
			<vel value="0.00468426982883012" flag="0"/>
			<psa03 value="0.0143394499181827" flag="0"/>
			<psa10 value="0.00566432132723888" flag="0"/>
			<psa30 value="0.00079998351581514" flag="0"/>
		</comp>
	</station>
	<station code="AGR3" name="AGR3" netid="HI" source="ITSAK Strong Motion Network" insttype="" lat="38.5893" lon="21.4162" esm:processing="automatic (Paolucci et al 2011)" esm:quality="best">
		<comp name="--.HNE" depth="0.0">
			<acc value="0.0585898935733095" flag="0"/>
			<vel value="0.033272738496556" flag="0"/>
			<psa03 value="0.189927769282598" flag="0"/>
			<psa10 value="0.0223067702140507" flag="0"/>
			<psa30 value="0.00330855396712945" flag="0"/>
		</comp>
		<comp name="--.HNN" depth="0.0">
			<acc value="0.0590995901024513" flag="0"/>
			<vel value="0.0255344206946385" flag="0"/>
			<psa03 value="0.222974520967712" flag="0"/>
			<psa10 value="0.0256783223128305" flag="0"/>
			<psa30 value="0.00208303403244831" flag="0"/>
		</comp>
		<comp name="--.HNZ" depth="0.0">
			<acc value="0.0241397716278664" flag="0"/>
			<vel value="0.0123289581266194" flag="0"/>
			<psa03 value="0.071691744017863" flag="0"/>
			<psa10 value="0.019404394820925" flag="0"/>
			<psa30 value="0.00106444561846486" flag="0"/>
		</comp>
	</station>
	<station code="ARG2" name="ARG2" netid="HI" source="ITSAK Strong Motion Network" insttype="" lat="38.1783" lon="20.4878" esm:processing="automatic (Paolucci et al 2011)" esm:quality="best">
		<comp name="--.HNE" depth="0.0">
			<acc value="1.69865719849784" flag="0"/>
			<vel value="0.704198355543246" flag="0"/>
			<psa03 value="2.76937729098746" flag="0"/>
			<psa10 value="0.167112390375717" flag="0"/>
			<psa30 value="0.0157216214802653" flag="0"/>
		</comp>
		<comp name="--.HNN" depth="0.0">
			<acc value="1.26985315262797" flag="0"/>
			<vel value="0.532474934629129" flag="0"/>
			<psa03 value="2.31290388519792" flag="0"/>
			<psa10 value="0.236121011858214" flag="0"/>
			<psa30 value="0.0241652158269518" flag="0"/>
		</comp>
		<comp name="--.HNZ" depth="0.0">
			<acc value="0.675069782203738" flag="0"/>
			<vel value="0.209020221825888" flag="0"/>
			<psa03 value="1.70144571242819" flag="0"/>
			<psa10 value="0.0648473683198968" flag="0"/>
			<psa30 value="0.00600680208782513" flag="0"/>
		</comp>
	</station>
	<station code="ART2" name="ART2" netid="HI" source="ITSAK Strong Motion Network" insttype="" lat="39.1474" lon="20.9937" esm:processing="automatic (Paolucci et al 2011)" esm:quality="best">
		<comp name="--.HNE" depth="0.0">
			<acc value="0.0172685333537721" flag="0"/>
			<vel value="0.00817389080988388" flag="0"/>
			<psa03 value="0.0575029447045435" flag="0"/>
			<psa10 value="0.0101969601860682" flag="0"/>
			<psa30 value="0.00052802945852686" flag="0"/>
		</comp>
		<comp name="--.HNN" depth="0.0">
			<acc value="0.0121445643252217" flag="0"/>
			<vel value="0.00913598660021998" flag="0"/>
			<psa03 value="0.0387823451817011" flag="0"/>
			<psa10 value="0.0146575300519305" flag="0"/>
			<psa30 value="0.000668496784631169" flag="0"/>
		</comp>
		<comp name="--.HNZ" depth="0.0">
			<acc value="0.0122108484648998" flag="0"/>
			<vel value="0.00750775799305382" flag="0"/>
			<psa03 value="0.023970233743679" flag="0"/>
			<psa10 value="0.00711235600242953" flag="0"/>
			<psa30 value="0.000709634457716785" flag="0"/>
		</comp>
	</station>
	<station code="AST1" name="AST1" netid="HI" source="ITSAK Strong Motion Network" insttype="" lat="38.5416" lon="21.0895" esm:processing="automatic (Paolucci et al 2011)" esm:quality="best">
		<comp name="--.HNE" depth="0.0">
			<acc value="0.0471706332432799" flag="0"/>
			<vel value="0.017902862055104" flag="0"/>
			<psa03 value="0.131711787759531" flag="0"/>
			<psa10 value="0.0161884817824691" flag="0"/>
			<psa30 value="0.00103879162734719" flag="0"/>
		</comp>
		<comp name="--.HNN" depth="0.0">
			<acc value="0.0498761899118015" flag="0"/>
			<vel value="0.0238258242255521" flag="0"/>
			<psa03 value="0.14091566830478" flag="0"/>
			<psa10 value="0.0184145129961122" flag="0"/>
			<psa30 value="0.00113970227051539" flag="0"/>
		</comp>
		<comp name="--.HNZ" depth="0.0">
			<acc value="0.0382558614749561" flag="0"/>
			<vel value="0.0177173173928121" flag="0"/>
			<psa03 value="0.146786348875223" flag="0"/>
			<psa10 value="0.0133376469911554" flag="0"/>
			<psa30 value="0.00121005745203421" flag="0"/>
		</comp>
	</station>
	<station code="KRI1" name="KRI1" netid="HI" source="ITSAK Strong Motion Network" insttype="" lat="37.6621" lon="20.8172" esm:processing="automatic (Paolucci et al 2011)" esm:quality="best">
		<comp name="--.HNE" depth="0.0">
			<acc value="0.0346941321316672" flag="0"/>
			<vel value="0.014650586550707" flag="0"/>
			<psa03 value="0.0895020436544722" flag="0"/>
			<psa10 value="0.0151328740411369" flag="0"/>
			<psa30 value="0.00102349228050721" flag="0"/>
		</comp>
		<comp name="--.HNN" depth="0.0">
			<acc value="0.0330219854457833" flag="0"/>
			<vel value="0.0223584902983592" flag="0"/>
			<psa03 value="0.106274008881523" flag="0"/>
			<psa10 value="0.0212910773043802" flag="0"/>
			<psa30 value="0.000927656556860856" flag="0"/>
		</comp>
		<comp name="--.HNZ" depth="0.0">
			<acc value="0.0176910856695068" flag="0"/>
			<vel value="0.00662574903798967" flag="0"/>
			<psa03 value="0.0410615222076601" flag="0"/>
			<psa10 value="0.00599906568991007" flag="0"/>
			<psa30 value="0.000557333326847653" flag="0"/>
		</comp>
	</station>
	<station code="KRK1" name="KRK1" netid="HI" source="ITSAK Strong Motion Network" insttype="" lat="39.618861" lon="19.9202" esm:processing="automatic (Paolucci et al 2011)" esm:quality="best">
		<comp name="--.HNE" depth="0.0">
			<acc value="0.0409255320025542" flag="0"/>
			<vel value="0.0130444751861879" flag="0"/>
			<psa03 value="0.059770464708282" flag="0"/>
			<psa10 value="0.00894688706235883" flag="0"/>
			<psa30 value="0.000880875853702193" flag="0"/>
		</comp>
		<comp name="--.HNN" depth="0.0">
			<acc value="0.0321684082153381" flag="0"/>
			<vel value="0.0158485824913464" flag="0"/>
			<psa03 value="0.0502900658450514" flag="0"/>
			<psa10 value="0.00915150342968897" flag="0"/>
			<psa30 value="0.000664850501416135" flag="0"/>
		</comp>
		<comp name="--.HNZ" depth="0.0">
			<acc value="0.0182473617145562" flag="0"/>
			<vel value="0.00581968468424371" flag="0"/>
			<psa03 value="0.0476634699709654" flag="0"/>
			<psa10 value="0.00273442778304575" flag="0"/>
			<psa30 value="0.000504033910606241" flag="0"/>
		</comp>
	</station>
	<station code="LEF2" name="LEF2" netid="HI" source="ITSAK Strong Motion Network" insttype="" lat="38.830093" lon="20.708346" esm:processing="automatic (Paolucci et al 2011)" esm:quality="best">
		<comp name="--.HNE" depth="0.0">
			<acc value="0.103439921952299" flag="0"/>
			<vel value="0.0432222956997012" flag="0"/>
			<psa03 value="0.367995419557184" flag="0"/>
			<psa10 value="0.0387839554967099" flag="0"/>
			<psa30 value="0.00252654924648792" flag="0"/>
		</comp>
		<comp name="--.HNN" depth="0.0">
			<acc value="0.0928751152245463" flag="0"/>
			<vel value="0.0634991815467681" flag="0"/>
			<psa03 value="0.462492554528608" flag="0"/>
			<psa10 value="0.0376329329971182" flag="0"/>
			<psa30 value="0.00293384060254137" flag="0"/>
		</comp>
		<comp name="--.HNZ" depth="0.0">
			<acc value="0.0846899796057966" flag="0"/>
			<vel value="0.0429137568579064" flag="0"/>
			<psa03 value="0.291113805694248" flag="0"/>
			<psa10 value="0.0316313804237143" flag="0"/>
			<psa30 value="0.0019632260957605" flag="0"/>
		</comp>
	</station>
	<station code="MSL1" name="MSL1" netid="HI" source="ITSAK Strong Motion Network" insttype="" lat="38.3727" lon="21.4243" esm:processing="automatic (Paolucci et al 2011)" esm:quality="best">
		<comp name="--.HNE" depth="0.0">
			<acc value="0.0797342025799021" flag="0"/>
			<vel value="0.045895001685572" flag="0"/>
			<psa03 value="0.245843619266572" flag="0"/>
			<psa10 value="0.0598677434441875" flag="0"/>
			<psa30 value="0.00230503728074064" flag="0"/>
		</comp>
		<comp name="--.HNN" depth="0.0">
			<acc value="0.0937967369918725" flag="0"/>
			<vel value="0.0847028440486654" flag="0"/>
			<psa03 value="0.357432678160739" flag="0"/>
			<psa10 value="0.0917329893603429" flag="0"/>
			<psa30 value="0.00441703052326117" flag="0"/>
		</comp>
		<comp name="--.HNZ" depth="0.0">
			<acc value="0.0312921888974268" flag="0"/>
			<vel value="0.0236669062937808" flag="0"/>
			<psa03 value="0.122096900820459" flag="0"/>
			<psa10 value="0.0407387162400156" flag="0"/>
			<psa30 value="0.00159902905282712" flag="0"/>
		</comp>
	</station>
	<station code="PRE2" name="PRE2" netid="HI" source="ITSAK Strong Motion Network" insttype="" lat="38.9577" lon="20.7548" esm:processing="automatic (Paolucci et al 2011)" esm:quality="best">
		<comp name="--.HNE" depth="0.0">
			<acc value="0.0947611990996423" flag="0"/>
			<vel value="0.0559671993604467" flag="0"/>
			<psa03 value="0.298595926348021" flag="0"/>
			<psa10 value="0.0329704253788709" flag="0"/>
			<psa30 value="0.00217622999789031" flag="0"/>
		</comp>
		<comp name="--.HNN" depth="0.0">
			<acc value="0.131697150712002" flag="0"/>
			<vel value="0.0618679225695133" flag="0"/>
			<psa03 value="0.408409055095532" flag="0"/>
			<psa10 value="0.0290261578405039" flag="0"/>
			<psa30 value="0.00386129787536731" flag="0"/>
		</comp>
		<comp name="--.HNZ" depth="0.0">
			<acc value="0.0576207410404564" flag="0"/>
			<vel value="0.0298565372080062" flag="0"/>
			<psa03 value="0.195267018815009" flag="0"/>
			<psa10 value="0.0184621805288523" flag="0"/>
			<psa30 value="0.00121329308304555" flag="0"/>
		</comp>
	</station>
	<station code="VSK1" name="VSK1" netid="HI" source="ITSAK Strong Motion Network" insttype="" lat="38.4091" lon="20.564" esm:processing="automatic (Paolucci et al 2011)" esm:quality="best">
		<comp name="--.HNE" depth="0.0">
			<acc value="0.481604296102502" flag="0"/>
			<vel value="0.122107714322473" flag="0"/>
			<psa03 value="0.572540427993472" flag="0"/>
			<psa10 value="0.0543717731131259" flag="0"/>
			<psa30 value="0.00505659747476621" flag="0"/>
		</comp>
		<comp name="--.HNN" depth="0.0">
			<acc value="0.448578061276297" flag="0"/>
			<vel value="0.114113598086295" flag="0"/>
			<psa03 value="0.586079616564934" flag="0"/>
			<psa10 value="0.0670322780594441" flag="0"/>
			<psa30 value="0.00491741117102334" flag="0"/>
		</comp>
		<comp name="--.HNZ" depth="0.0">
			<acc value="0.254014969622491" flag="0"/>
			<vel value="0.0598254022973771" flag="0"/>
			<psa03 value="0.385263063453847" flag="0"/>
			<psa10 value="0.0365380254648677" flag="0"/>
			<psa30 value="0.00269631549266856" flag="0"/>
		</comp>
	</station>
	<station code="ZAK2" name="ZAK2" netid="HI" source="ITSAK Strong Motion Network" insttype="" lat="37.787501" lon="20.899999" esm:processing="automatic (Paolucci et al 2011)" esm:quality="best">
		<comp name="--.HNE" depth="0.0">
			<acc value="0.0899503692979571" flag="0"/>
			<vel value="0.0634930611650618" flag="0"/>
			<psa03 value="0.245934291939858" flag="0"/>
			<psa10 value="0.0601310783888352" flag="0"/>
			<psa30 value="0.00297965863776134" flag="0"/>
		</comp>
		<comp name="--.HNN" depth="0.0">
			<acc value="0.0728974963858884" flag="0"/>
			<vel value="0.0523282508280484" flag="0"/>
			<psa03 value="0.214563047082182" flag="0"/>
			<psa10 value="0.0448522324902791" flag="0"/>
			<psa30 value="0.00276497733284516" flag="0"/>
		</comp>
		<comp name="--.HNZ" depth="0.0">
			<acc value="0.0317921497469908" flag="0"/>
			<vel value="0.0171755673894608" flag="0"/>
			<psa03 value="0.127144151842735" flag="0"/>
			<psa10 value="0.0186019447875486" flag="0"/>
			<psa30 value="0.00225500771652755" flag="0"/>
		</comp>
	</station>
	<station code="PATC" name="PATC" netid="HL" source="National Observatory of Athens Seismic Network" insttype="" lat="38.26933" lon="21.76001" esm:processing="automatic (Paolucci et al 2011)" esm:quality="best">
		<comp name="00.HNE" depth="0.0">
			<acc value="0.0190669533656233" flag="0"/>
			<vel value="0.0185324960752958" flag="0"/>
			<psa03 value="0.0791289346119067" flag="0"/>
			<psa10 value="0.0266152956327146" flag="0"/>
			<psa30 value="0.00279578999903308" flag="0"/>
		</comp>
		<comp name="00.HNN" depth="0.0">
			<acc value="0.0169966707693738" flag="0"/>
			<vel value="0.0132771804631954" flag="0"/>
			<psa03 value="0.0452518518797691" flag="0"/>
			<psa10 value="0.0209231985592188" flag="0"/>
			<psa30 value="0.00239558432070433" flag="0"/>
		</comp>
		<comp name="00.HNZ" depth="0.0">
			<acc value="0.0161856260364157" flag="0"/>
			<vel value="0.00967479496110234" flag="0"/>
			<psa03 value="0.0382377127483086" flag="0"/>
			<psa10 value="0.0125917225773238" flag="0"/>
			<psa30 value="0.00181257111560744" flag="0"/>
		</comp>
	</station>
	<station code="SMHA" name="SMHA" netid="HL" source="National Observatory of Athens Seismic Network" insttype="" lat="38.25123" lon="20.6477" esm:processing="automatic (Paolucci et al 2011)" esm:quality="best">
		<comp name="00.HNE" depth="0.0">
			<acc value="2.35005961286138" flag="0"/>
			<vel value="0.844728692002326" flag="0"/>
			<psa03 value="3.47558190691073" flag="0"/>
			<psa10 value="0.157471911741321" flag="0"/>
			<psa30 value="0.016601931463148" flag="0"/>
		</comp>
		<comp name="00.HNN" depth="0.0">
			<acc value="2.505146318433" flag="0"/>
			<vel value="0.726119862762554" flag="0"/>
			<psa03 value="3.10393628721236" flag="0"/>
			<psa10 value="0.222438110433146" flag="0"/>
			<psa30 value="0.0180278442562059" flag="0"/>
		</comp>
		<comp name="00.HNZ" depth="0.0">
			<acc value="1.30967995012231" flag="0"/>
			<vel value="0.381350781161399" flag="0"/>
			<psa03 value="2.30385595248345" flag="0"/>
			<psa10 value="0.158948669569279" flag="0"/>
			<psa30 value="0.00949879091494713" flag="0"/>
		</comp>
	</station>
	<station code="AMT" name="AMT" netid="HP" source="University of Patras, Seismological Laboratory (PSLNET)" insttype="" lat="37.5324" lon="21.7089" esm:processing="automatic (Paolucci et al 2011)" esm:quality="best">
		<comp name="--.HNE" depth="0.0">
			<acc value="0.0100992137324213" flag="0"/>
			<vel value="0.00624858790090114" flag="0"/>
			<psa03 value="0.0330226849866468" flag="0"/>
			<psa10 value="0.0112735496298353" flag="0"/>
			<psa30 value="0.000779630240427201" flag="0"/>
		</comp>
		<comp name="--.HNN" depth="0.0">
			<acc value="0.00891446185510401" flag="0"/>
			<vel value="0.00814986286802761" flag="0"/>
			<psa03 value="0.0262874575608846" flag="0"/>
			<psa10 value="0.0121182659006425" flag="0"/>
			<psa30 value="0.000647049478435725" flag="0"/>
		</comp>
		<comp name="--.HNZ" depth="0.0">
			<acc value="0.00610783405116281" flag="0"/>
			<vel value="0.00414413411411055" flag="0"/>
			<psa03 value="0.0148842711661665" flag="0"/>
			<psa10 value="0.00601663513504958" flag="0"/>
			<psa30 value="0.000396510147059605" flag="0"/>
		</comp>
	</station>
	<station code="ANX" name="ANX" netid="HP" source="University of Patras, Seismological Laboratory (PSLNET)" insttype="" lat="38.5933" lon="21.9209" esm:processing="manual (Paolucci et al 2011)" esm:quality="good">
		<comp name="--.HNE" depth="0.0">
			<acc value="0.018996451678485" flag="0"/>
			<vel value="0.0128886642940658" flag="0"/>
			<psa03 value="0.0398597759312005" flag="0"/>
			<psa10 value="0.0104672987196693" flag="0"/>
			<psa30 value="0.00087325415088512" flag="0"/>
		</comp>
		<comp name="--.HNN" depth="0.0">
			<acc value="0.0171902533070091" flag="0"/>
			<vel value="0.0130244084323693" flag="0"/>
			<psa03 value="0.043096795055331" flag="0"/>
			<psa10 value="0.0123475560899923" flag="0"/>
			<psa30 value="0.000751780010069455" flag="0"/>
		</comp>
		<comp name="--.HNZ" depth="0.0">
			<acc value="0.00605794849423093" flag="0"/>
			<vel value="0.00442535182900586" flag="0"/>
			<psa03 value="0.0162941314895771" flag="0"/>
			<psa10 value="0.00529497295347179" flag="0"/>
			<psa30 value="0.000541065061654925" flag="0"/>
		</comp>
	</station>
	<station code="EFP" name="EFP" netid="HP" source="University of Patras, Seismological Laboratory (PSLNET)" insttype="" lat="38.4269" lon="21.9058" esm:processing="automatic (Paolucci et al 2011)" esm:quality="best">
		<comp name="--.HNE" depth="0.0">
			<acc value="0.00783235483501828" flag="0"/>
			<vel value="0.00638181595774684" flag="0"/>
			<psa03 value="0.0248974696476737" flag="0"/>
			<psa10 value="0.00715310995217869" flag="0"/>
			<psa30 value="0.000830217393661167" flag="0"/>
		</comp>
		<comp name="--.HNN" depth="0.0">
			<acc value="0.00990443382233414" flag="0"/>
			<vel value="0.00587015896911915" flag="0"/>
			<psa03 value="0.0348790267101755" flag="0"/>
			<psa10 value="0.009134007583175" flag="0"/>
			<psa30 value="0.000789024612758263" flag="0"/>
		</comp>
		<comp name="--.HNZ" depth="0.0">
			<acc value="0.00724665089153815" flag="0"/>
			<vel value="0.00449937719864317" flag="0"/>
			<psa03 value="0.0216286853984262" flag="0"/>
			<psa10 value="0.004328588779013" flag="0"/>
			<psa30 value="0.000742481842028122" flag="0"/>
		</comp>
	</station>
	<station code="FSK" name="FSK" netid="HP" source="University of Patras, Seismological Laboratory (PSLNET)" insttype="" lat="38.4593" lon="20.5623" esm:processing="automatic (Paolucci et al 2011)" esm:quality="best">
		<comp name="--.HNE" depth="0.0">
			<acc value="0.379942995258127" flag="0"/>
			<vel value="0.0924101205404231" flag="0"/>
			<psa03 value="0.498714870745955" flag="0"/>
			<psa10 value="0.0413744658553076" flag="0"/>
			<psa30 value="0.00358882815891914" flag="0"/>
		</comp>
		<comp name="--.HNN" depth="0.0">
			<acc value="0.206224751193171" flag="0"/>
			<vel value="0.10091471529126" flag="0"/>
			<psa03 value="0.478620581264561" flag="0"/>
			<psa10 value="0.0512470736171195" flag="0"/>
			<psa30 value="0.00473045503609694" flag="0"/>
		</comp>
		<comp name="--.HNZ" depth="0.0">
			<acc value="0.202183926709906" flag="0"/>
			<vel value="0.0608954650180141" flag="0"/>
			<psa03 value="0.216361666231873" flag="0"/>
			<psa10 value="0.0198429901257115" flag="0"/>
			<psa30 value="0.00227366103555172" flag="0"/>
		</comp>
	</station>
	<station code="LTHK" name="LTHK" netid="HP" source="University of Patras, Seismological Laboratory (PSLNET)" insttype="" lat="37.7095" lon="20.8367" esm:processing="automatic (Paolucci et al 2011)" esm:quality="best">
		<comp name="--.HNE" depth="0.0">
			<acc value="0.0469354305926363" flag="0"/>
			<vel value="0.0178153728825689" flag="0"/>
			<psa03 value="0.0759774029217325" flag="0"/>
			<psa10 value="0.0221631338238448" flag="0"/>
			<psa30 value="0.000893158334022901" flag="0"/>
		</comp>
		<comp name="--.HNN" depth="0.0">
			<acc value="0.0372096519310276" flag="0"/>
			<vel value="0.0141081231596251" flag="0"/>
			<psa03 value="0.0657916917100202" flag="0"/>
			<psa10 value="0.0176243956547161" flag="0"/>
			<psa30 value="0.00121955037256027" flag="0"/>
		</comp>
		<comp name="--.HNZ" depth="0.0">
			<acc value="0.0205121631067583" flag="0"/>
			<vel value="0.00846325577189518" flag="0"/>
