<stationlist created="1774076147">
	<station code="AGRP" name="AGRP" netid="CL" source="Corinth Riff Laboratory (CRLNET)" insttype="" lat="38.3959" lon="21.72277">
		<comp name="00.HNE" depth="0.0">
			<acc value="0.0091543024778738" flag="0"/>
			<vel value="0.00538227091431116" flag="0"/>
			<psa03 value="0.0212511955478262" flag="0"/>
			<psa10 value="0.00527090245266924" flag="0"/>
			<psa30 value="0.000529538829348602" flag="0"/>
		</comp>
		<comp name="00.HNN" depth="0.0">
			<acc value="0.00760452744462923" flag="0"/>
			<vel value="0.0054057936377769" flag="0"/>
			<psa03 value="0.0199806022626735" flag="0"/>
			<psa10 value="0.00861392219257032" flag="0"/>
			<psa30 value="0.000461325195946831" flag="0"/>
		</comp>
		<comp name="00.HNZ" depth="0.0">
			<acc value="0.00685588585325705" flag="0"/>
			<vel value="0.00317214570074963" flag="0"/>
			<psa03 value="0.0167318518926555" flag="0"/>
			<psa10 value="0.00298979954392161" flag="0"/>
			<psa30 value="0.000432294548850603" flag="0"/>
		</comp>
	</station>
	<station code="MALA" name="MALA" netid="CL" source="Corinth Riff Laboratory (CRLNET)" insttype="" lat="38.39341" lon="21.87263">
		<comp name="01.HNE" depth="0.0">
			<acc value="0.0179867821286707" flag="0"/>
			<vel value="0.0157246585005791" flag="0"/>
			<psa03 value="0.0428238967688255" flag="0"/>
			<psa10 value="0.0307501189194646" flag="0"/>
			<psa30 value="0.00235474224011693" flag="0"/>
		</comp>
		<comp name="01.HNN" depth="0.0">
			<acc value="0.0129983663519031" flag="0"/>
			<vel value="0.0146986617192526" flag="0"/>
			<psa03 value="0.0366921650508588" flag="0"/>
			<psa10 value="0.0245191411477673" flag="0"/>
			<psa30 value="0.00148324492436352" flag="0"/>
		</comp>
		<comp name="01.HNZ" depth="0.0">
			<acc value="0.00635505141984384" flag="0"/>
			<vel value="0.00468426982883012" flag="0"/>
			<psa03 value="0.0143394499181827" flag="0"/>
			<psa10 value="0.00566432132723888" flag="0"/>
			<psa30 value="0.00079998351581514" flag="0"/>
		</comp>
	</station>
	<station code="ROD3" name="ROD3" netid="CL" source="Corinth Riff Laboratory (CRLNET)" insttype="" lat="38.30811" lon="21.89204">
		<comp name="00.HNE" depth="0.0">
			<acc value="0.0228158631639909" flag="0"/>
			<vel value="0.010594530366235" flag="0"/>
			<psa03 value="0.0974140990393111" flag="0"/>
			<psa10 value="0.00753055183085076" flag="0"/>
			<psa30 value="0.000641234926583535" flag="0"/>
		</comp>
		<comp name="00.HNN" depth="0.0">
			<acc value="0.025563571824998" flag="0"/>
			<vel value="0.0121814133657279" flag="0"/>
			<psa03 value="0.0946858662239432" flag="0"/>
			<psa10 value="0.00935054786540597" flag="0"/>
			<psa30 value="0.00100719620097192" flag="0"/>
		</comp>
		<comp name="00.HNZ" depth="0.0">
			<acc value="0.00940603018872172" flag="0"/>
			<vel value="0.00381049281243608" flag="0"/>
			<psa03 value="0.0201901291636357" flag="0"/>
			<psa10 value="0.00537239073827008" flag="0"/>
			<psa30 value="0.000811409533149379" flag="0"/>
		</comp>
	</station>
	<station code="AGR3" name="AGR3" netid="HI" source="ITSAK Strong Motion Network" insttype="" lat="38.5893" lon="21.4162">
		<comp name="--.HNE" depth="0.0">
			<acc value="0.0585898935733095" flag="0"/>
			<vel value="0.033272738496556" flag="0"/>
			<psa03 value="0.189927769282598" flag="0"/>
			<psa10 value="0.0223067702140507" flag="0"/>
			<psa30 value="0.00330855396712945" flag="0"/>
		</comp>
		<comp name="--.HNN" depth="0.0">
			<acc value="0.0590995901024513" flag="0"/>
			<vel value="0.0255344206946385" flag="0"/>
			<psa03 value="0.222974520967712" flag="0"/>
			<psa10 value="0.0256783223128305" flag="0"/>
			<psa30 value="0.00208303403244831" flag="0"/>
		</comp>
		<comp name="--.HNZ" depth="0.0">
			<acc value="0.0241397716278664" flag="0"/>
			<vel value="0.0123289581266194" flag="0"/>
			<psa03 value="0.071691744017863" flag="0"/>
			<psa10 value="0.019404394820925" flag="0"/>
			<psa30 value="0.00106444561846486" flag="0"/>
		</comp>
	</station>
	<station code="AIG2" name="AIG2" netid="HI" source="ITSAK Strong Motion Network" insttype="" lat="38.2417" lon="22.0726">
		<comp name="--.HNE" depth="0.0">
			<acc value="0.00540361037121073" flag="0"/>
			<vel value="0.00343420200872887" flag="0"/>
			<psa03 value="0.0164875909198982" flag="0"/>
			<psa10 value="0.00505822680145111" flag="0"/>
			<psa30 value="0.000837319218288862" flag="0"/>
		</comp>
		<comp name="--.HNN" depth="0.0">
			<acc value="0.00507732694045879" flag="0"/>
			<vel value="0.00372693009417977" flag="0"/>
			<psa03 value="0.0147064677208942" flag="0"/>
			<psa10 value="0.00643197983709769" flag="0"/>
			<psa30 value="0.00103278539613051" flag="0"/>
		</comp>
		<comp name="--.HNZ" depth="0.0">
			<acc value="0.00438194315045786" flag="0"/>
			<vel value="0.00252074457703953" flag="0"/>
			<psa03 value="0.0099585008476407" flag="0"/>
			<psa10 value="0.00444824842462726" flag="0"/>
			<psa30 value="0.000815877485379287" flag="0"/>
		</comp>
	</station>
	<station code="ARG2" name="ARG2" netid="HI" source="ITSAK Strong Motion Network" insttype="" lat="38.1783" lon="20.4878">
		<comp name="--.HNE" depth="0.0">
			<acc value="1.69865719849784" flag="0"/>
			<vel value="0.704198355543246" flag="0"/>
			<psa03 value="2.76937729098746" flag="0"/>
			<psa10 value="0.167112390375717" flag="0"/>
			<psa30 value="0.0157216214802653" flag="0"/>
		</comp>
		<comp name="--.HNN" depth="0.0">
			<acc value="1.26985315262797" flag="0"/>
			<vel value="0.532474934629129" flag="0"/>
			<psa03 value="2.31290388519792" flag="0"/>
			<psa10 value="0.236121011858214" flag="0"/>
			<psa30 value="0.0241652158269518" flag="0"/>
		</comp>
		<comp name="--.HNZ" depth="0.0">
			<acc value="0.675069782203738" flag="0"/>
			<vel value="0.209020221825888" flag="0"/>
			<psa03 value="1.70144571242819" flag="0"/>
			<psa10 value="0.0648473683198968" flag="0"/>
			<psa30 value="0.00600680208782513" flag="0"/>
		</comp>
	</station>
	<station code="ART2" name="ART2" netid="HI" source="ITSAK Strong Motion Network" insttype="" lat="39.1474" lon="20.9937">
		<comp name="--.HNE" depth="0.0">
			<acc value="0.0172685333537721" flag="0"/>
			<vel value="0.00817389080988388" flag="0"/>
			<psa03 value="0.0575029447045435" flag="0"/>
			<psa10 value="0.0101969601860682" flag="0"/>
			<psa30 value="0.00052802945852686" flag="0"/>
		</comp>
		<comp name="--.HNN" depth="0.0">
			<acc value="0.0121445643252217" flag="0"/>
			<vel value="0.00913598660021998" flag="0"/>
			<psa03 value="0.0387823451817011" flag="0"/>
			<psa10 value="0.0146575300519305" flag="0"/>
			<psa30 value="0.000668496784631169" flag="0"/>
		</comp>
		<comp name="--.HNZ" depth="0.0">
			<acc value="0.0122108484648998" flag="0"/>
			<vel value="0.00750775799305382" flag="0"/>
			<psa03 value="0.023970233743679" flag="0"/>
			<psa10 value="0.00711235600242953" flag="0"/>
			<psa30 value="0.000709634457716785" flag="0"/>
		</comp>
	</station>
	<station code="AST1" name="AST1" netid="HI" source="ITSAK Strong Motion Network" insttype="" lat="38.5416" lon="21.0895">
		<comp name="--.HNE" depth="0.0">
			<acc value="0.0471706332432799" flag="0"/>
			<vel value="0.017902862055104" flag="0"/>
			<psa03 value="0.131711787759531" flag="0"/>
			<psa10 value="0.0161884817824691" flag="0"/>
			<psa30 value="0.00103879162734719" flag="0"/>
		</comp>
		<comp name="--.HNN" depth="0.0">
			<acc value="0.0498761899118015" flag="0"/>
			<vel value="0.0238258242255521" flag="0"/>
			<psa03 value="0.14091566830478" flag="0"/>
			<psa10 value="0.0184145129961122" flag="0"/>
			<psa30 value="0.00113970227051539" flag="0"/>
		</comp>
		<comp name="--.HNZ" depth="0.0">
			<acc value="0.0382558614749561" flag="0"/>
			<vel value="0.0177173173928121" flag="0"/>
			<psa03 value="0.146786348875223" flag="0"/>
			<psa10 value="0.0133376469911554" flag="0"/>
			<psa30 value="0.00121005745203421" flag="0"/>
		</comp>
	</station>
	<station code="JAN2" name="JAN2" netid="HI" source="ITSAK Strong Motion Network" insttype="" lat="39.664" lon="20.85222">
		<comp name="--.HNE" depth="0.0">
			<acc value="0.0217406310370952" flag="0"/>
			<vel value="0.0100896486908575" flag="0"/>
			<psa03 value="0.0828847615420082" flag="0"/>
			<psa10 value="0.00776906294354142" flag="0"/>
			<psa30 value="0.00056358103239415" flag="0"/>
		</comp>
		<comp name="--.HNN" depth="0.0">
			<acc value="0.0236464624823727" flag="0"/>
			<vel value="0.0112976509513894" flag="0"/>
			<psa03 value="0.0831027864017518" flag="0"/>
			<psa10 value="0.00547248346267184" flag="0"/>
			<psa30 value="0.000557519276665916" flag="0"/>
		</comp>
		<comp name="--.HNZ" depth="0.0">
			<acc value="0.00980816235169554" flag="0"/>
			<vel value="0.00446062272671058" flag="0"/>
			<psa03 value="0.0202950645005035" flag="0"/>
			<psa10 value="0.00376153433943933" flag="0"/>
			<psa30 value="0.000319290057649325" flag="0"/>
		</comp>
	</station>
	<station code="KLV1" name="KLV1" netid="HI" source="ITSAK Strong Motion Network" insttype="" lat="38.03256" lon="22.10797">
		<comp name="--.HNE" depth="0.0">
			<acc value="0.0101450104101862" flag="0"/>
			<vel value="0.00543897893752619" flag="0"/>
			<psa03 value="0.0326015685480828" flag="0"/>
			<psa10 value="0.00677199517394504" flag="0"/>
			<psa30 value="0.000624637577090586" flag="0"/>
		</comp>
		<comp name="--.HNN" depth="0.0">
			<acc value="0.00777278078681982" flag="0"/>
			<vel value="0.00499858888680664" flag="0"/>
			<psa03 value="0.0233574197102569" flag="0"/>
			<psa10 value="0.00608353253542404" flag="0"/>
			<psa30 value="0.00057470479012184" flag="0"/>
		</comp>
		<comp name="--.HNZ" depth="0.0">
			<acc value="0.0042828174793911" flag="0"/>
			<vel value="0.0033136946731612" flag="0"/>
			<psa03 value="0.0092945004806668" flag="0"/>
			<psa10 value="0.0051833327453559" flag="0"/>
			<psa30 value="0.000589748338766442" flag="0"/>
		</comp>
	</station>
	<station code="KRI1" name="KRI1" netid="HI" source="ITSAK Strong Motion Network" insttype="" lat="37.6621" lon="20.8172">
		<comp name="--.HNE" depth="0.0">
			<acc value="0.0346941321316672" flag="0"/>
			<vel value="0.014650586550707" flag="0"/>
			<psa03 value="0.0895020436544722" flag="0"/>
			<psa10 value="0.0151328740411369" flag="0"/>
			<psa30 value="0.00102349228050721" flag="0"/>
		</comp>
		<comp name="--.HNN" depth="0.0">
			<acc value="0.0330219854457833" flag="0"/>
			<vel value="0.0223584902983592" flag="0"/>
			<psa03 value="0.106274008881523" flag="0"/>
			<psa10 value="0.0212910773043802" flag="0"/>
			<psa30 value="0.000927656556860856" flag="0"/>
		</comp>
		<comp name="--.HNZ" depth="0.0">
			<acc value="0.0176910856695068" flag="0"/>
			<vel value="0.00662574903798967" flag="0"/>
			<psa03 value="0.0410615222076601" flag="0"/>
			<psa10 value="0.00599906568991007" flag="0"/>
			<psa30 value="0.000557333326847653" flag="0"/>
		</comp>
	</station>
	<station code="KRK1" name="KRK1" netid="HI" source="ITSAK Strong Motion Network" insttype="" lat="39.618861" lon="19.9202">
		<comp name="--.HNE" depth="0.0">
			<acc value="0.0409255320025542" flag="0"/>
			<vel value="0.0130444751861879" flag="0"/>
			<psa03 value="0.059770464708282" flag="0"/>
			<psa10 value="0.00894688706235883" flag="0"/>
			<psa30 value="0.000880875853702193" flag="0"/>
		</comp>
		<comp name="--.HNN" depth="0.0">
			<acc value="0.0321684082153381" flag="0"/>
			<vel value="0.0158485824913464" flag="0"/>
			<psa03 value="0.0502900658450514" flag="0"/>
			<psa10 value="0.00915150342968897" flag="0"/>
			<psa30 value="0.000664850501416135" flag="0"/>
		</comp>
		<comp name="--.HNZ" depth="0.0">
			<acc value="0.0182473617145562" flag="0"/>
			<vel value="0.00581968468424371" flag="0"/>
			<psa03 value="0.0476634699709654" flag="0"/>
			<psa10 value="0.00273442778304575" flag="0"/>
			<psa30 value="0.000504033910606241" flag="0"/>
		</comp>
	</station>
	<station code="KYP2" name="KYP2" netid="HI" source="ITSAK Strong Motion Network" insttype="" lat="37.2497" lon="21.667">
		<comp name="--.HNE" depth="0.0">
			<acc value="0.00577134017687133" flag="0"/>
			<vel value="0.00293155351895099" flag="0"/>
			<psa03 value="0.0106725390345829" flag="0"/>
			<psa10 value="0.00359943641374729" flag="0"/>
			<psa30 value="0.000376004257395052" flag="0"/>
		</comp>
		<comp name="--.HNN" depth="0.0">
			<acc value="0.00462945894269289" flag="0"/>
			<vel value="0.00278263984448607" flag="0"/>
			<psa03 value="0.0108691230208489" flag="0"/>
			<psa10 value="0.00294367781670853" flag="0"/>
			<psa30 value="0.000382987089765094" flag="0"/>
		</comp>
		<comp name="--.HNZ" depth="0.0">
			<acc value="0.00913189726578421" flag="0"/>
			<vel value="0.00217123565272458" flag="0"/>
			<psa03 value="0.00719586666480939" flag="0"/>
			<psa10 value="0.00241738764006723" flag="0"/>
			<psa30 value="0.000276008466497993" flag="0"/>
		</comp>
	</station>
	<station code="LEF2" name="LEF2" netid="HI" source="ITSAK Strong Motion Network" insttype="" lat="38.830093" lon="20.708346">
		<comp name="--.HNE" depth="0.0">
			<acc value="0.103439921952299" flag="0"/>
			<vel value="0.0432222956997012" flag="0"/>
			<psa03 value="0.367995419557184" flag="0"/>
			<psa10 value="0.0387839554967099" flag="0"/>
			<psa30 value="0.00252654924648792" flag="0"/>
		</comp>
		<comp name="--.HNN" depth="0.0">
			<acc value="0.0928751152245463" flag="0"/>
			<vel value="0.0634991815467681" flag="0"/>
			<psa03 value="0.462492554528608" flag="0"/>
			<psa10 value="0.0376329329971182" flag="0"/>
			<psa30 value="0.00293384060254137" flag="0"/>
		</comp>
		<comp name="--.HNZ" depth="0.0">
			<acc value="0.0846899796057966" flag="0"/>
			<vel value="0.0429137568579064" flag="0"/>
			<psa03 value="0.291113805694248" flag="0"/>
			<psa10 value="0.0316313804237143" flag="0"/>
			<psa30 value="0.0019632260957605" flag="0"/>
		</comp>
	</station>
	<station code="LXR2" name="LXR2" netid="HI" source="ITSAK Strong Motion Network" insttype="" lat="38.206718" lon="20.436386">
		<comp name="--.HNE" depth="0.0">
			<acc value="3.75832064883273" flag="0"/>
			<vel value="1.23426463113884" flag="0"/>
			<psa03 value="5.50882526597129" flag="0"/>
			<psa10 value="0.429456129360909" flag="0"/>
			<psa30 value="0.0457286126294956" flag="0"/>
		</comp>
		<comp name="--.HNN" depth="0.0">
			<acc value="3.04777621700457" flag="0"/>
			<vel value="1.38447581997696" flag="0"/>
			<psa03 value="4.69410162786206" flag="0"/>
			<psa10 value="0.501429547246616" flag="0"/>
			<psa30 value="0.0518252331673523" flag="0"/>
		</comp>
		<comp name="--.HNZ" depth="0.0">
			<acc value="1.64306963358581" flag="0"/>
			<vel value="0.443101606333472" flag="0"/>
			<psa03 value="2.11986459729248" flag="0"/>
			<psa10 value="0.252559820848632" flag="0"/>
			<psa30 value="0.0167817883777859" flag="0"/>
		</comp>
	</station>
	<station code="MSL1" name="MSL1" netid="HI" source="ITSAK Strong Motion Network" insttype="" lat="38.3727" lon="21.4243">
		<comp name="--.HNE" depth="0.0">
			<acc value="0.0797342025799021" flag="0"/>
			<vel value="0.045895001685572" flag="0"/>
			<psa03 value="0.245843619266572" flag="0"/>
			<psa10 value="0.0598677434441875" flag="0"/>
			<psa30 value="0.00230503728074064" flag="0"/>
		</comp>
		<comp name="--.HNN" depth="0.0">
			<acc value="0.0937967369918725" flag="0"/>
			<vel value="0.0847028440486654" flag="0"/>
			<psa03 value="0.357432678160739" flag="0"/>
			<psa10 value="0.0917329893603429" flag="0"/>
			<psa30 value="0.00441703052326117" flag="0"/>
		</comp>
		<comp name="--.HNZ" depth="0.0">
			<acc value="0.0312921888974268" flag="0"/>
			<vel value="0.0236669062937808" flag="0"/>
			<psa03 value="0.122096900820459" flag="0"/>
			<psa10 value="0.0407387162400156" flag="0"/>
			<psa30 value="0.00159902905282712" flag="0"/>
		</comp>
	</station>
	<station code="PAT5" name="PAT5" netid="HI" source="ITSAK Strong Motion Network" insttype="" lat="38.29595" lon="21.795083">
		<comp name="--.HNE" depth="0.0">
			<acc value="0.0120507768823302" flag="0"/>
			<vel value="0.00778045478288605" flag="0"/>
			<psa03 value="0.0414568765229432" flag="0"/>
			<psa10 value="0.0111073583079758" flag="0"/>
			<psa30 value="0.00262083778430747" flag="0"/>
		</comp>
		<comp name="--.HNN" depth="0.0">
			<acc value="0.0106578736771558" flag="0"/>
			<vel value="0.00846219513743438" flag="0"/>
			<psa03 value="0.0406272199997703" flag="0"/>
			<psa10 value="0.00737752247465694" flag="0"/>
			<psa30 value="0.00196824663668003" flag="0"/>
		</comp>
		<comp name="--.HNZ" depth="0.0">
			<acc value="0.0106788300156168" flag="0"/>
			<vel value="0.00512884126279915" flag="0"/>
			<psa03 value="0.0287859642205221" flag="0"/>
			<psa10 value="0.00690737164197166" flag="0"/>
			<psa30 value="0.000783020517099726" flag="0"/>
		</comp>
	</station>
	<station code="PRE2" name="PRE2" netid="HI" source="ITSAK Strong Motion Network" insttype="" lat="38.9577" lon="20.7548">
		<comp name="--.HNE" depth="0.0">
			<acc value="0.0947611990996423" flag="0"/>
			<vel value="0.0559671993604467" flag="0"/>
			<psa03 value="0.298595926348021" flag="0"/>
			<psa10 value="0.0329704253788709" flag="0"/>
			<psa30 value="0.00217622999789031" flag="0"/>
		</comp>
		<comp name="--.HNN" depth="0.0">
			<acc value="0.131697150712002" flag="0"/>
			<vel value="0.0618679225695133" flag="0"/>
			<psa03 value="0.408409055095532" flag="0"/>
			<psa10 value="0.0290261578405039" flag="0"/>
			<psa30 value="0.00386129787536731" flag="0"/>
		</comp>
		<comp name="--.HNZ" depth="0.0">
			<acc value="0.0576207410404564" flag="0"/>
			<vel value="0.0298565372080062" flag="0"/>
			<psa03 value="0.195267018815009" flag="0"/>
			<psa10 value="0.0184621805288523" flag="0"/>
			<psa30 value="0.00121329308304555" flag="0"/>
		</comp>
	</station>
	<station code="PYR2" name="PYR2" netid="HI" source="ITSAK Strong Motion Network" insttype="" lat="37.6671" lon="21.4506">
		<comp name="--.HNE" depth="0.0">
			<acc value="0.0185054860972525" flag="0"/>
			<vel value="0.0121653263181256" flag="0"/>
			<psa03 value="0.0578717139253612" flag="0"/>
			<psa10 value="0.0171379715565068" flag="0"/>
			<psa30 value="0.00151680381414193" flag="0"/>
		</comp>
		<comp name="--.HNN" depth="0.0">
			<acc value="0.0133339818554572" flag="0"/>
			<vel value="0.011173494338675" flag="0"/>
			<psa03 value="0.0392507772546936" flag="0"/>
			<psa10 value="0.0136526472333755" flag="0"/>
			<psa30 value="0.00139029574610329" flag="0"/>
		</comp>
		<comp name="--.HNZ" depth="0.0">
			<acc value="0.00670578598356356" flag="0"/>
			<vel value="0.00460766274730232" flag="0"/>
			<psa03 value="0.0235148494100352" flag="0"/>
			<psa10 value="0.00766479619263089" flag="0"/>
			<psa30 value="0.000807126749435977" flag="0"/>
		</comp>
	</station>
	<station code="VSK1" name="VSK1" netid="HI" source="ITSAK Strong Motion Network" insttype="" lat="38.4091" lon="20.564">
		<comp name="--.HNE" depth="0.0">
			<acc value="0.481604296102502" flag="0"/>
			<vel value="0.122107714322473" flag="0"/>
			<psa03 value="0.572540427993472" flag="0"/>
			<psa10 value="0.0543717731131259" flag="0"/>
			<psa30 value="0.00505659747476621" flag="0"/>
		</comp>
		<comp name="--.HNN" depth="0.0">
			<acc value="0.448578061276297" flag="0"/>
			<vel value="0.114113598086295" flag="0"/>
			<psa03 value="0.586079616564934" flag="0"/>
			<psa10 value="0.0670322780594441" flag="0"/>
			<psa30 value="0.00491741117102334" flag="0"/>
		</comp>
		<comp name="--.HNZ" depth="0.0">
			<acc value="0.254014969622491" flag="0"/>
			<vel value="0.0598254022973771" flag="0"/>
			<psa03 value="0.385263063453847" flag="0"/>
			<psa10 value="0.0365380254648677" flag="0"/>
			<psa30 value="0.00269631549266856" flag="0"/>
		</comp>
	</station>
	<station code="ZAK2" name="ZAK2" netid="HI" source="ITSAK Strong Motion Network" insttype="" lat="37.787501" lon="20.899999">
		<comp name="--.HNE" depth="0.0">
			<acc value="0.0899503692979571" flag="0"/>
			<vel value="0.0634930611650618" flag="0"/>
			<psa03 value="0.245934291939858" flag="0"/>
