<?xml version="1.0" encoding="UTF-8" standalone="yes"?>
<!DOCTYPE earthquake SYSTEM "stationlist.dtd">
<stationlist created="" xmlns="ch.ethz.sed.shakemap.usgs.xml">
  <station code="AGRP" name="AGRP" netid="CL" insttype="CMG40-T" commtype="DIG" lat="38.3959" lon="21.7228">
    <comp name="00.HHE">
      <acc value="0.0091729736" flag="0"/>
      <vel value="0.0054657261" flag="0"/>
      <psa03 value="0.0211442738" flag="0"/>
      <psa10 value="0.0057908520" flag="0"/>
      <psa30 value="0.0005033416" flag="0"/>
    </comp>
    <comp name="00.HHN">
      <acc value="0.0077190422" flag="0"/>
      <vel value="0.0054720006" flag="0"/>
      <psa03 value="0.0204799510" flag="0"/>
      <psa10 value="0.0087864743" flag="0"/>
      <psa30 value="0.0004574527" flag="0"/>
    </comp>
    <comp name="00.HHZ">
      <acc value="0.0062286556" flag="0"/>
      <vel value="0.0032933289" flag="0"/>
      <psa03 value="0.0178100987" flag="0"/>
      <psa10 value="0.0032036074" flag="0"/>
      <psa30 value="0.0003608228" flag="0"/>
    </comp>
  </station>
  <station code="ATHR" name="ATHR" netid="HA" insttype="GEOtiny," commtype="DIG" lat="38.3172" lon="20.4165">
    <comp name="--.HHE">
      <acc value="0.6978955104" flag="0"/>
      <vel value="0.2361424838" flag="0"/>
      <psa03 value="0.9351046689" flag="0"/>
      <psa10 value="0.0957891455" flag="0"/>
      <psa30 value="0.0080630491" flag="0"/>
    </comp>
    <comp name="--.HHZ">
      <acc value="0.9884789960" flag="0"/>
      <vel value="0.2126171938" flag="0"/>
      <psa03 value="0.8008595700" flag="0"/>
      <psa10 value="0.0489070851" flag="0"/>
      <psa30 value="0.0058005216" flag="0"/>
    </comp>
    <comp name="--.HHN">
      <acc value="0.7002693252" flag="0"/>
      <vel value="0.1737200379" flag="0"/>
      <psa03 value="1.2707743851" flag="0"/>
      <psa10 value="0.0731499387" flag="0"/>
      <psa30 value="0.0067361549" flag="0"/>
    </comp>
  </station>
  <station code="HAVD" name="HAVD" netid="HA" insttype="GEOtiny," commtype="DIG" lat="38.2036" lon="20.3848">
    <comp name="--.HHE">
      <acc value="3.7842268852" flag="0"/>
      <vel value="0.9645217001" flag="0"/>
      <psa03 value="3.6087735099" flag="0"/>
      <psa10 value="0.4006568231" flag="0"/>
      <psa30 value="0.0372556862" flag="0"/>
    </comp>
    <comp name="--.HHZ">
      <acc value="2.2373322237" flag="0"/>
      <vel value="0.4982732815" flag="0"/>
      <psa03 value="2.1808810285" flag="0"/>
      <psa10 value="0.1456690872" flag="0"/>
      <psa30 value="0.0130152967" flag="0"/>
    </comp>
    <comp name="--.HHN">
      <acc value="2.7864445729" flag="0"/>
      <vel value="0.8049695853" flag="0"/>
      <psa03 value="3.9609347802" flag="0"/>
      <psa10 value="0.3001180120" flag="0"/>
      <psa30 value="0.0354724488" flag="0"/>
    </comp>
  </station>
  <station code="ARG2" name="ARG2" netid="HI" insttype="CMG-5TD,ACCELEROMETER,GURALP" commtype="DIG" lat="38.1783" lon="20.4878">
    <comp name="--.HNE">
      <acc value="1.6818117980" flag="0"/>
      <vel value="0.6969505795" flag="0"/>
      <psa03 value="2.7361327033" flag="0"/>
      <psa10 value="0.1663066350" flag="0"/>
      <psa30 value="0.0158443940" flag="0"/>
    </comp>
    <comp name="--.HNN">
      <acc value="1.2753566988" flag="0"/>
      <vel value="0.5291295869" flag="0"/>
      <psa03 value="2.3007733628" flag="0"/>
      <psa10 value="0.2350163929" flag="0"/>
      <psa30 value="0.0245207175" flag="0"/>
    </comp>
    <comp name="--.HNZ">
      <acc value="0.6717586127" flag="0"/>
      <vel value="0.2057887520" flag="0"/>
      <psa03 value="1.6829182017" flag="0"/>
      <psa10 value="0.0645777906" flag="0"/>
      <psa30 value="0.0055585080" flag="0"/>
    </comp>
  </station>
  <station code="AST1" name="AST1" netid="HI" insttype="unknown" commtype="DIG" lat="38.5416" lon="21.0895">
    <comp name="--.HNN">
      <acc value="0.0494868805" flag="0"/>
      <vel value="0.0236386980" flag="0"/>
      <psa03 value="0.1415705843" flag="0"/>
      <psa10 value="0.0183779773" flag="0"/>
      <psa30 value="0.0011299319" flag="0"/>
    </comp>
    <comp name="--.HNE">
      <acc value="0.0479398088" flag="0"/>
      <vel value="0.0178081157" flag="0"/>
      <psa03 value="0.1320364712" flag="0"/>
      <psa10 value="0.0161725778" flag="0"/>
      <psa30 value="0.0009956561" flag="0"/>
    </comp>
    <comp name="--.HNZ">
      <acc value="0.0398073213" flag="0"/>
      <vel value="0.0176428276" flag="0"/>
      <psa03 value="0.1442457366" flag="0"/>
      <psa10 value="0.0133006852" flag="0"/>
      <psa30 value="0.0011369697" flag="0"/>
    </comp>
  </station>
  <station code="LEF2" name="LEF2" netid="HI" insttype="unknown" commtype="DIG" lat="38.8301" lon="20.7083">
    <comp name="--.HNN">
      <acc value="0.0926388031" flag="0"/>
      <vel value="0.0634950911" flag="0"/>
      <psa03 value="0.4648670996" flag="0"/>
      <psa10 value="0.0375800716" flag="0"/>
      <psa30 value="0.0029328798" flag="0"/>
    </comp>
    <comp name="--.HNZ">
      <acc value="0.0854235317" flag="0"/>
      <vel value="0.0427983634" flag="0"/>
      <psa03 value="0.2874581170" flag="0"/>
      <psa10 value="0.0314588783" flag="0"/>
      <psa30 value="0.0018219279" flag="0"/>
    </comp>
  </station>
  <station code="LXR2" name="LXR2" netid="HI" insttype="unknown" commtype="DIG" lat="38.2067" lon="20.4364">
    <comp name="--.HNE">
      <acc value="3.7789062592" flag="0"/>
      <vel value="1.2187405082" flag="0"/>
      <psa03 value="5.4335428873" flag="0"/>
      <psa10 value="0.4290535785" flag="0"/>
      <psa30 value="0.0461289667" flag="0"/>
    </comp>
    <comp name="--.HNZ">
      <acc value="1.9926025671" flag="0"/>
      <vel value="0.4356000500" flag="0"/>
      <psa03 value="2.1044286495" flag="0"/>
      <psa10 value="0.2524205832" flag="0"/>
      <psa30 value="0.0167134725" flag="0"/>
    </comp>
    <comp name="--.HNN">
      <acc value="3.0239366513" flag="0"/>
      <vel value="1.3744024052" flag="0"/>
      <psa03 value="4.6347894776" flag="0"/>
      <psa10 value="0.5005903567" flag="0"/>
      <psa30 value="0.0525362105" flag="0"/>
    </comp>
  </station>
  <station code="MSL1" name="MSL1" netid="HI" insttype="CMG-5TD,ACCELEROMETER,GURALP" commtype="DIG" lat="38.3727" lon="21.4243">
    <comp name="--.HNZ">
      <acc value="0.0311192280" flag="0"/>
      <vel value="0.0236896763" flag="0"/>
      <psa03 value="0.1240201275" flag="0"/>
      <psa10 value="0.0406614803" flag="0"/>
      <psa30 value="0.0015624488" flag="0"/>
    </comp>
  </station>
  <station code="VSK1" name="VSK1" netid="HI" insttype="unknown" commtype="DIG" lat="38.4091" lon="20.564">
    <comp name="--.HNZ">
      <acc value="0.2651039241" flag="0"/>
      <vel value="0.0588275126" flag="0"/>
      <psa03 value="0.3816093990" flag="0"/>
      <psa10 value="0.0364361174" flag="0"/>
      <psa30 value="0.0023304767" flag="0"/>
    </comp>
    <comp name="--.HNN">
      <acc value="0.4404138894" flag="0"/>
      <vel value="0.1127062966" flag="0"/>
      <psa03 value="0.5804242096" flag="0"/>
      <psa10 value="0.0667361060" flag="0"/>
      <psa30 value="0.0047994260" flag="0"/>
    </comp>
    <comp name="--.HNE">
      <acc value="0.4895334592" flag="0"/>
      <vel value="0.1216989850" flag="0"/>
      <psa03 value="0.5699444188" flag="0"/>
      <psa10 value="0.0542669717" flag="0"/>
      <psa30 value="0.0048079446" flag="0"/>
    </comp>
  </station>
  <station code="ZAK2" name="ZAK2" netid="HI" insttype="unknown" commtype="DIG" lat="37.7875" lon="20.9">
    <comp name="--.HNE">
      <acc value="0.0896265585" flag="0"/>
      <vel value="0.0635440464" flag="0"/>
      <psa03 value="0.2481069402" flag="0"/>
      <psa10 value="0.0599819047" flag="0"/>
      <psa30 value="0.0029469521" flag="0"/>
    </comp>
    <comp name="--.HNZ">
      <acc value="0.0322288990" flag="0"/>
      <vel value="0.0170417431" flag="0"/>
      <psa03 value="0.1273101222" flag="0"/>
      <psa10 value="0.0185347205" flag="0"/>
      <psa30 value="0.0020672178" flag="0"/>
    </comp>
  </station>
  <station code="LXRA" name="LXRA" netid="HL" insttype="CMG-5" commtype="DIG" lat="38.2001" lon="20.4372">
    <comp name="00.HNN">
      <acc value="2.5102167521" flag="0"/>
      <vel value="1.0770603945" flag="0"/>
      <psa03 value="4.7378899905" flag="0"/>
      <psa10 value="0.3906584786" flag="0"/>
      <psa30 value="0.0465545964" flag="0"/>
    </comp>
    <comp name="00.HNE">
      <acc value="3.1464437023" flag="0"/>
      <vel value="1.3842620463" flag="0"/>
      <psa03 value="5.5397445056" flag="0"/>
      <psa10 value="0.4314119866" flag="0"/>
      <psa30 value="0.0448013130" flag="0"/>
    </comp>
    <comp name="00.HNZ">
      <acc value="2.3690424786" flag="0"/>
      <vel value="0.3435060536" flag="0"/>
      <psa03 value="1.3508288521" flag="0"/>
      <psa10 value="0.2419663223" flag="0"/>
      <psa30 value="0.0128638562" flag="0"/>
    </comp>
  </station>
  <station code="ORTH" name="ORTH" netid="HL" insttype="30" commtype="DIG" lat="37.8511" lon="20.6963">
    <comp name="--.HHN">
      <acc value="0.0745094084" flag="0"/>
      <vel value="0.0343903806" flag="0"/>
      <psa03 value="0.1772883069" flag="0"/>
      <psa10 value="0.0184292195" flag="0"/>
      <psa30 value="0.0015704218" flag="0"/>
    </comp>
    <comp name="--.HHZ">
      <acc value="0.0298001768" flag="0"/>
      <vel value="0.0138227939" flag="0"/>
      <psa03 value="0.0784692909" flag="0"/>
      <psa10 value="0.0122824293" flag="0"/>
      <psa30 value="0.0006999699" flag="0"/>
    </comp>
    <comp name="--.HHE">
      <acc value="0.0763161228" flag="0"/>
      <vel value="0.0315801219" flag="0"/>
      <psa03 value="0.1877912409" flag="0"/>
      <psa10 value="0.0146157266" flag="0"/>
      <psa30 value="0.0011388052" flag="0"/>
    </comp>
  </station>
  <station code="PATG" name="PATG" netid="HL" insttype="CMG-5" commtype="DIG" lat="38.2386" lon="21.7266">
    <comp name="00.HNZ">
      <acc value="0.0861688904" flag="0"/>
      <vel value="0.0142598895" flag="0"/>
      <psa03 value="0.0344919955" flag="0"/>
      <psa10 value="0.0130115536" flag="0"/>
      <psa30 value="0.0018493677" flag="0"/>
    </comp>
  </station>
  <station code="SMHA" name="SMHA" netid="HL" insttype="CMG-5" commtype="DIG" lat="38.2512" lon="20.6477">
    <comp name="00.HNZ">
      <acc value="1.2981542737" flag="0"/>
      <vel value="0.3801146100" flag="0"/>
      <psa03 value="2.2941787535" flag="0"/>
      <psa10 value="0.1590135220" flag="0"/>
      <psa30 value="0.0092952322" flag="0"/>
    </comp>
    <comp name="00.HNE">
      <acc value="2.3575036693" flag="0"/>
      <vel value="0.8390584484" flag="0"/>
      <psa03 value="3.4648831317" flag="0"/>
      <psa10 value="0.1574682400" flag="0"/>
      <psa30 value="0.0165476666" flag="0"/>
    </comp>
    <comp name="00.HNN">
      <acc value="2.5348412001" flag="0"/>
      <vel value="0.7212811969" flag="0"/>
      <psa03 value="3.0984903320" flag="0"/>
      <psa10 value="0.2222771658" flag="0"/>
      <psa30 value="0.0178603522" flag="0"/>
    </comp>
  </station>
  <station code="AMPL" name="AMPL" netid="HP" insttype="Compact," commtype="DIG" lat="38.9224" lon="21.2135">
    <comp name="--.HHE">
      <acc value="0.0274331693" flag="0"/>
      <vel value="0.0131837477" flag="0"/>
      <psa03 value="0.0577763654" flag="0"/>
      <psa10 value="0.0197382525" flag="0"/>
      <psa30 value="0.0009420063" flag="0"/>
    </comp>
    <comp name="--.HHN">
      <acc value="0.0328796430" flag="0"/>
      <vel value="0.0150139481" flag="0"/>
      <psa03 value="0.0866557002" flag="0"/>
      <psa10 value="0.0103940716" flag="0"/>
      <psa30 value="0.0008593873" flag="0"/>
    </comp>
    <comp name="--.HHZ">
      <acc value="0.0153366921" flag="0"/>
      <vel value="0.0113500194" flag="0"/>
      <psa03 value="0.0460967432" flag="0"/>
      <psa10 value="0.0124036552" flag="0"/>
      <psa30 value="0.0010059428" flag="0"/>
    </comp>
  </station>
  <station code="AXS" name="AXS" netid="HP" insttype="Compact," commtype="DIG" lat="38.1962" lon="21.3763">
    <comp name="--.HHN">
      <acc value="0.0116631918" flag="0"/>
      <vel value="0.0066205321" flag="0"/>
      <psa03 value="0.0267210032" flag="0"/>
      <psa10 value="0.0114489196" flag="0"/>
      <psa30 value="0.0008018715" flag="0"/>
    </comp>
    <comp name="--.HHZ">
      <acc value="0.0074284660" flag="0"/>
      <vel value="0.0041534610" flag="0"/>
      <psa03 value="0.0177966763" flag="0"/>
      <psa10 value="0.0046656980" flag="0"/>
      <psa30 value="0.0007502646" flag="0"/>
    </comp>
    <comp name="--.HHE">
      <acc value="0.0116244809" flag="0"/>
      <vel value="0.0049719809" flag="0"/>
      <psa03 value="0.0205302746" flag="0"/>
      <psa10 value="0.0060198004" flag="0"/>
      <psa30 value="0.0005414149" flag="0"/>
    </comp>
  </station>
  <station code="DRO" name="DRO" netid="HP" insttype="120P," commtype="DIG" lat="37.952" lon="21.71">
    <comp name="--.HHE">
      <acc value="0.0149141362" flag="0"/>
      <vel value="0.0096547707" flag="0"/>
      <psa03 value="0.0489215115" flag="0"/>
      <psa10 value="0.0182438293" flag="0"/>
      <psa30 value="0.0007214856" flag="0"/>
    </comp>
    <comp name="--.HHN">
      <acc value="0.0168761627" flag="0"/>
      <vel value="0.0073251893" flag="0"/>
      <psa03 value="0.0431565647" flag="0"/>
      <psa10 value="0.0104360471" flag="0"/>
      <psa30 value="0.0007472532" flag="0"/>
    </comp>
  </station>
  <station code="FSK" name="FSK" netid="HP" insttype="40," commtype="DIG" lat="38.4593" lon="20.5623">
    <comp name="--.HHE">
      <acc value="0.3657647105" flag="0"/>
      <vel value="0.0857250060" flag="0"/>
      <psa03 value="0.4892993255" flag="0"/>
      <psa10 value="0.0309704696" flag="0"/>
      <psa30 value="0.0026086554" flag="0"/>
    </comp>
    <comp name="--.HHZ">
      <acc value="0.1999892540" flag="0"/>
      <vel value="0.0585548788" flag="0"/>
      <psa03 value="0.2191960154" flag="0"/>
      <psa10 value="0.0196816101" flag="0"/>
      <psa30 value="0.0021166955" flag="0"/>
    </comp>
    <comp name="--.HHN">
      <acc value="0.2137598320" flag="0"/>
      <vel value="0.1107772955" flag="0"/>
      <psa03 value="0.4864409317" flag="0"/>
      <psa10 value="0.0555284863" flag="0"/>
      <psa30 value="0.0050137553" flag="0"/>
    </comp>
  </station>
  <station code="LTHK" name="LTHK" netid="HP" insttype="40," commtype="DIG" lat="37.7095" lon="20.8367">
    <comp name="--.HHE">
      <acc value="0.0480056252" flag="0"/>
      <vel value="0.0176629529" flag="0"/>
      <psa03 value="0.0747643613" flag="0"/>
      <psa10 value="0.0218743102" flag="0"/>
      <psa30 value="0.0008093851" flag="0"/>
    </comp>
    <comp name="--.HHZ">
      <acc value="0.0209978620" flag="0"/>
      <vel value="0.0084641111" flag="0"/>
      <psa03 value="0.0548099405" flag="0"/>
      <psa10 value="0.0112832746" flag="0"/>
      <psa30 value="0.0005503033" flag="0"/>
    </comp>
    <comp name="--.HHN">
      <acc value="0.0362481645" flag="0"/>
      <vel value="0.0141247575" flag="0"/>
      <psa03 value="0.0661051376" flag="0"/>
      <psa10 value="0.0174428949" flag="0"/>
      <psa30 value="0.0010007111" flag="0"/>
    </comp>
  </station>
  <station code="PDO" name="PDO" netid="HP" insttype="120s" commtype="DIG" lat="38.5986" lon="21.1833">
    <comp name="--.HHE">
      <acc value="0.0382550843" flag="0"/>
      <vel value="0.0198113450" flag="0"/>
      <psa03 value="0.1484697450" flag="0"/>
      <psa10 value="0.0147038184" flag="0"/>
      <psa30 value="0.0008952815" flag="0"/>
    </comp>
    <comp name="--.HHZ">
      <acc value="0.0221054849" flag="0"/>
      <vel value="0.0095949404" flag="0"/>
      <psa03 value="0.0543114664" flag="0"/>
      <psa10 value="0.0074636950" flag="0"/>
      <psa30 value="0.0006706137" flag="0"/>
    </comp>
    <comp name="--.HHN">
      <acc value="0.0487982760" flag="0"/>
      <vel value="0.0180564114" flag="0"/>
      <psa03 value="0.1630186651" flag="0"/>
      <psa10 value="0.0095226711" flag="0"/>
      <psa30 value="0.0006661626" flag="0"/>
    </comp>
  </station>
  <station code="PLEV" name="PLEV" netid="HP" insttype="Compact," commtype="DIG" lat="38.4124" lon="21.4073">
    <comp name="--.HHN">
      <acc value="0.0368793702" flag="0"/>
      <vel value="0.0287056310" flag="0"/>
      <psa03 value="0.1283575741" flag="0"/>
      <psa10 value="0.0161770725" flag="0"/>
      <psa30 value="0.0013836601" flag="0"/>
    </comp>
    <comp name="--.HHE">
      <acc value="0.0346687343" flag="0"/>
      <vel value="0.0159519832" flag="0"/>
      <psa03 value="0.1134464469" flag="0"/>
      <psa10 value="0.0067120591" flag="0"/>
      <psa30 value="0.0004577700" flag="0"/>
    </comp>
    <comp name="--.HHZ">
      <acc value="0.0167546810" flag="0"/>
      <vel value="0.0086009506" flag="0"/>
      <psa03 value="0.0479691684" flag="0"/>
      <psa10 value="0.0053062360" flag="0"/>
      <psa30 value="0.0005069439" flag="0"/>
    </comp>
  </station>
  <station code="PVO" name="PVO" netid="HP" insttype="120P," commtype="DIG" lat="38.616" lon="21.525">
    <comp name="--.HHN">
      <acc value="0.0277968393" flag="0"/>
      <vel value="0.0121237226" flag="0"/>
      <psa03 value="0.0954150838" flag="0"/>
      <psa10 value="0.0081799942" flag="0"/>
      <psa30 value="0.0006048471" flag="0"/>
    </comp>
    <comp name="--.HHE">
      <acc value="0.0315904803" flag="0"/>
      <vel value="0.0147597112" flag="0"/>
      <psa03 value="0.0921943397" flag="0"/>
      <psa10 value="0.0087198111" flag="0"/>
      <psa30 value="0.0007662499" flag="0"/>
    </comp>
    <comp name="--.HHZ">
      <acc value="0.0164811805" flag="0"/>
      <vel value="0.0094592837" flag="0"/>
      <psa03 value="0.0366223809" flag="0"/>
      <psa10 value="0.0065866189" flag="0"/>
      <psa30 value="0.0007100285" flag="0"/>
    </comp>
  </station>
  <station code="UPR" name="UPR" netid="HP" insttype="Horizon" commtype="DIG" lat="38.2836" lon="21.7864">
    <comp name="--.HHN">
      <acc value="0.0103559824" flag="0"/>
      <vel value="0.0110579240" flag="0"/>
      <psa03 value="0.0294294984" flag="0"/>
      <psa10 value="0.0168190264" flag="0"/>
      <psa30 value="0.0015665816" flag="0"/>
    </comp>
    <comp name="--.HHE">
      <acc value="0.0109808320" flag="0"/>
      <vel value="0.0110960544" flag="0"/>
      <psa03 value="0.0300094494" flag="0"/>
      <psa10 value="0.0168738476" flag="0"/>
      <psa30 value="0.0025674260" flag="0"/>
    </comp>
    <comp name="--.HHZ">
      <acc value="0.0114218702" flag="0"/>
      <vel value="0.0108831466" flag="0"/>
      <psa03 value="0.0284251175" flag="0"/>
      <psa10 value="0.0200351077" flag="0"/>
      <psa30 value="0.0008943229" flag="0"/>
    </comp>
  </station>
  <station code="EVGI" name="EVGI" netid="HT" insttype="30" commtype="DIG" lat="38.621" lon="20.656">
    <comp name="--.HHZ">
      <acc value="0.1875962784" flag="0"/>
      <vel value="0.0401147272" flag="0"/>
      <psa03 value="0.3110753340" flag="0"/>
      <psa10 value="0.0105397652" flag="0"/>
      <psa30 value="0.0011198385" flag="0"/>
    </comp>
    <comp name="--.HHE">
      <acc value="0.4414162825" flag="0"/>
      <vel value="0.0754150148" flag="0"/>
      <psa03 value="0.2303406669" flag="0"/>
      <psa10 value="0.0109778749" flag="0"/>
      <psa30 value="0.0011449465" flag="0"/>
    </comp>
    <comp name="--.HHN">
      <acc value="0.2646184801" flag="0"/>
      <vel value="0.0648257884" flag="0"/>
      <psa03 value="0.2687120960" flag="0"/>
      <psa10 value="0.0147747509" flag="0"/>
      <psa30 value="0.0011014379" flag="0"/>
    </comp>
  </station>
  <station code="LKD2" name="LKD2" netid="HT" insttype="100" commtype="DIG" lat="38.7889" lon="20.6578">
    <comp name="--.HHE">
