<?xml version="1.0" encoding="UTF-8" standalone="yes"?>
<!DOCTYPE earthquake SYSTEM "stationlist.dtd">
<stationlist created="" xmlns="ch.ethz.sed.shakemap.usgs.xml">
  <station code="ATHR" name="ATHR" netid="HA" insttype="GEOtiny," commtype="DIG" lat="38.3172" lon="20.4165">
    <comp name="--.HHN">
      <acc value="0.7002693252" flag="0"/>
      <vel value="0.1737198124" flag="0"/>
      <psa03 value="1.2707743851" flag="0"/>
      <psa10 value="0.0731499398" flag="0"/>
      <psa30 value="0.0067361655" flag="0"/>
    </comp>
    <comp name="--.HHE">
      <acc value="0.6978955077" flag="0"/>
      <vel value="0.2361404660" flag="0"/>
      <psa03 value="0.9351046686" flag="0"/>
      <psa10 value="0.0957891425" flag="0"/>
      <psa30 value="0.0080631961" flag="0"/>
    </comp>
    <comp name="--.HHZ">
      <acc value="0.9884789969" flag="0"/>
      <vel value="0.2126180679" flag="0"/>
      <psa03 value="0.8008595698" flag="0"/>
      <psa10 value="0.0489070885" flag="0"/>
      <psa30 value="0.0058005607" flag="0"/>
    </comp>
  </station>
  <station code="HAVD" name="HAVD" netid="HA" insttype="GEOtiny," commtype="DIG" lat="38.2036" lon="20.3848">
    <comp name="--.HHE">
      <acc value="3.7842268847" flag="0"/>
      <vel value="0.9645217096" flag="0"/>
      <psa03 value="3.6087735098" flag="0"/>
      <psa10 value="0.4006568129" flag="0"/>
      <psa30 value="0.0372563395" flag="0"/>
    </comp>
    <comp name="--.HHZ">
      <acc value="2.2373322248" flag="0"/>
      <vel value="0.4982732862" flag="0"/>
      <psa03 value="2.1808810286" flag="0"/>
      <psa10 value="0.1456690787" flag="0"/>
      <psa30 value="0.0130146484" flag="0"/>
    </comp>
    <comp name="--.HHN">
      <acc value="2.7864445737" flag="0"/>
      <vel value="0.8049701514" flag="0"/>
      <psa03 value="3.9609347806" flag="0"/>
      <psa10 value="0.3001180308" flag="0"/>
      <psa30 value="0.0354730399" flag="0"/>
    </comp>
  </station>
  <station code="AGR3" name="AGR3" netid="HI" insttype="unknown" commtype="DIG" lat="38.5893" lon="21.4162">
    <comp name="--.HNE">
      <acc value="0.0586056359" flag="0"/>
      <vel value="0.0335633107" flag="0"/>
      <psa03 value="0.1886264012" flag="0"/>
      <psa10 value="0.0222983685" flag="0"/>
      <psa30 value="0.0030981124" flag="0"/>
    </comp>
    <comp name="--.HNN">
      <acc value="0.0589154494" flag="0"/>
      <vel value="0.0246915258" flag="0"/>
      <psa03 value="0.2206008996" flag="0"/>
      <psa10 value="0.0256765647" flag="0"/>
      <psa30 value="0.0020486538" flag="0"/>
    </comp>
    <comp name="--.HNZ">
      <acc value="0.0249064664" flag="0"/>
      <vel value="0.0126021423" flag="0"/>
      <psa03 value="0.0709009038" flag="0"/>
      <psa10 value="0.0193414519" flag="0"/>
      <psa30 value="0.0010024663" flag="0"/>
    </comp>
  </station>
  <station code="ARG2" name="ARG2" netid="HI" insttype="CMG-5TD,ACCELEROMETER,GURALP" commtype="DIG" lat="38.1783" lon="20.4878">
    <comp name="--.HNN">
      <acc value="1.2753566990" flag="0"/>
      <vel value="0.5291295889" flag="0"/>
      <psa03 value="2.3007733628" flag="0"/>
      <psa10 value="0.2350163858" flag="0"/>
      <psa30 value="0.0245198645" flag="0"/>
    </comp>
    <comp name="--.HNZ">
      <acc value="0.6717586124" flag="0"/>
      <vel value="0.2057887507" flag="0"/>
      <psa03 value="1.6829182017" flag="0"/>
      <psa10 value="0.0645777927" flag="0"/>
      <psa30 value="0.0055581962" flag="0"/>
    </comp>
    <comp name="--.HNE">
      <acc value="1.6818117973" flag="0"/>
      <vel value="0.6969505811" flag="0"/>
      <psa03 value="2.7361327033" flag="0"/>
      <psa10 value="0.1663066288" flag="0"/>
      <psa30 value="0.0158444862" flag="0"/>
    </comp>
  </station>
  <station code="AST1" name="AST1" netid="HI" insttype="unknown" commtype="DIG" lat="38.5416" lon="21.0895">
    <comp name="--.HNE">
      <acc value="0.0479398104" flag="0"/>
      <vel value="0.0178081154" flag="0"/>
      <psa03 value="0.1320364712" flag="0"/>
      <psa10 value="0.0161725772" flag="0"/>
      <psa30 value="0.0009959763" flag="0"/>
    </comp>
    <comp name="--.HNN">
      <acc value="0.0494868794" flag="0"/>
      <vel value="0.0236386950" flag="0"/>
      <psa03 value="0.1415705843" flag="0"/>
      <psa10 value="0.0183779773" flag="0"/>
      <psa30 value="0.0011301074" flag="0"/>
    </comp>
    <comp name="--.HNZ">
      <acc value="0.0398073205" flag="0"/>
      <vel value="0.0176428275" flag="0"/>
      <psa03 value="0.1442457366" flag="0"/>
      <psa10 value="0.0133006847" flag="0"/>
      <psa30 value="0.0011368500" flag="0"/>
    </comp>
  </station>
  <station code="KRI1" name="KRI1" netid="HI" insttype="CMG-5TD,ACCELEROMETER,GURALP" commtype="DIG" lat="37.6621" lon="20.8172">
    <comp name="--.HNZ">
      <acc value="0.0177277271" flag="0"/>
      <vel value="0.0065740996" flag="0"/>
      <psa03 value="0.0403733850" flag="0"/>
      <psa10 value="0.0059959159" flag="0"/>
      <psa30 value="0.0005437032" flag="0"/>
    </comp>
    <comp name="--.HNE">
      <acc value="0.0344805931" flag="0"/>
      <vel value="0.0144879759" flag="0"/>
      <psa03 value="0.0884973672" flag="0"/>
      <psa10 value="0.0150839932" flag="0"/>
      <psa30 value="0.0010081612" flag="0"/>
    </comp>
    <comp name="--.HNN">
      <acc value="0.0331870569" flag="0"/>
      <vel value="0.0221757999" flag="0"/>
      <psa03 value="0.1040622067" flag="0"/>
      <psa10 value="0.0212758730" flag="0"/>
      <psa30 value="0.0008452978" flag="0"/>
    </comp>
  </station>
  <station code="LEF2" name="LEF2" netid="HI" insttype="unknown" commtype="DIG" lat="38.8301" lon="20.7083">
    <comp name="--.HNE">
      <acc value="0.1036480745" flag="0"/>
      <vel value="0.0423437907" flag="0"/>
      <psa03 value="0.3629685559" flag="0"/>
      <psa10 value="0.0386611284" flag="0"/>
      <psa30 value="0.0023755402" flag="0"/>
    </comp>
    <comp name="--.HNN">
      <acc value="0.0926388036" flag="0"/>
      <vel value="0.0634950931" flag="0"/>
      <psa03 value="0.4648670996" flag="0"/>
      <psa10 value="0.0375800715" flag="0"/>
      <psa30 value="0.0029329093" flag="0"/>
    </comp>
    <comp name="--.HNZ">
      <acc value="0.0854235310" flag="0"/>
      <vel value="0.0427983618" flag="0"/>
      <psa03 value="0.2874581170" flag="0"/>
      <psa10 value="0.0314588785" flag="0"/>
      <psa30 value="0.0018218376" flag="0"/>
    </comp>
  </station>
  <station code="LXR2" name="LXR2" netid="HI" insttype="unknown" commtype="DIG" lat="38.2067" lon="20.4364">
    <comp name="--.HNZ">
      <acc value="1.9926025668" flag="0"/>
      <vel value="0.4356000500" flag="0"/>
      <psa03 value="2.1044286495" flag="0"/>
      <psa10 value="0.2524205799" flag="0"/>
      <psa30 value="0.0167134197" flag="0"/>
    </comp>
    <comp name="--.HNE">
      <acc value="3.7789062593" flag="0"/>
      <vel value="1.2187405062" flag="0"/>
      <psa03 value="5.4335428873" flag="0"/>
      <psa10 value="0.4290535993" flag="0"/>
      <psa30 value="0.0461296085" flag="0"/>
    </comp>
    <comp name="--.HNN">
      <acc value="3.0239366512" flag="0"/>
      <vel value="1.3744024057" flag="0"/>
      <psa03 value="4.6347894776" flag="0"/>
      <psa10 value="0.5005903564" flag="0"/>
      <psa30 value="0.0525359062" flag="0"/>
    </comp>
  </station>
  <station code="MSL1" name="MSL1" netid="HI" insttype="CMG-5TD,ACCELEROMETER,GURALP" commtype="DIG" lat="38.3727" lon="21.4243">
    <comp name="--.HNZ">
      <acc value="0.0311192288" flag="0"/>
      <vel value="0.0236896744" flag="0"/>
      <psa03 value="0.1240201275" flag="0"/>
      <psa10 value="0.0406614803" flag="0"/>
      <psa30 value="0.0015624181" flag="0"/>
    </comp>
    <comp name="--.HNE">
      <acc value="0.0798149538" flag="0"/>
      <vel value="0.0462502736" flag="0"/>
      <psa03 value="0.2424010444" flag="0"/>
      <psa10 value="0.0597658651" flag="0"/>
      <psa30 value="0.0022986217" flag="0"/>
    </comp>
    <comp name="--.HNN">
      <acc value="0.0937044737" flag="0"/>
      <vel value="0.0843137537" flag="0"/>
      <psa03 value="0.3582612374" flag="0"/>
      <psa10 value="0.0916438782" flag="0"/>
      <psa30 value="0.0044457580" flag="0"/>
    </comp>
  </station>
  <station code="PRE2" name="PRE2" netid="HI" insttype="unknown" commtype="DIG" lat="38.9577" lon="20.7548">
    <comp name="--.HNE">
      <acc value="0.0946331229" flag="0"/>
      <vel value="0.0559708356" flag="0"/>
      <psa03 value="0.2948939254" flag="0"/>
      <psa10 value="0.0329237853" flag="0"/>
      <psa30 value="0.0020530183" flag="0"/>
    </comp>
    <comp name="--.HNN">
      <acc value="0.1310906025" flag="0"/>
      <vel value="0.0621381113" flag="0"/>
      <psa03 value="0.4046508902" flag="0"/>
      <psa10 value="0.0289301436" flag="0"/>
      <psa30 value="0.0035263575" flag="0"/>
    </comp>
    <comp name="--.HNZ">
      <acc value="0.0579548305" flag="0"/>
      <vel value="0.0300648663" flag="0"/>
      <psa03 value="0.1952566846" flag="0"/>
      <psa10 value="0.0184100238" flag="0"/>
      <psa30 value="0.0011690419" flag="0"/>
    </comp>
  </station>
  <station code="PYR2" name="PYR2" netid="HI" insttype="unknown" commtype="DIG" lat="37.6671" lon="21.4506">
    <comp name="--.HNE">
      <acc value="0.0185621567" flag="0"/>
      <vel value="0.0120739247" flag="0"/>
      <psa03 value="0.0583217645" flag="0"/>
      <psa10 value="0.0171449212" flag="0"/>
      <psa30 value="0.0014253622" flag="0"/>
    </comp>
    <comp name="--.HNN">
      <acc value="0.0134132598" flag="0"/>
      <vel value="0.0113588925" flag="0"/>
      <psa03 value="0.0389235310" flag="0"/>
      <psa10 value="0.0136378947" flag="0"/>
      <psa30 value="0.0012663743" flag="0"/>
    </comp>
    <comp name="--.HNZ">
      <acc value="0.0073101975" flag="0"/>
      <vel value="0.0045329978" flag="0"/>
      <psa03 value="0.0232920635" flag="0"/>
      <psa10 value="0.0076543576" flag="0"/>
      <psa30 value="0.0007306056" flag="0"/>
    </comp>
  </station>
  <station code="VSK1" name="VSK1" netid="HI" insttype="unknown" commtype="DIG" lat="38.4091" lon="20.564">
    <comp name="--.HNN">
      <acc value="0.4404138898" flag="0"/>
      <vel value="0.1127062970" flag="0"/>
      <psa03 value="0.5804242096" flag="0"/>
      <psa10 value="0.0667361072" flag="0"/>
      <psa30 value="0.0047991253" flag="0"/>
    </comp>
    <comp name="--.HNZ">
      <acc value="0.2651039244" flag="0"/>
      <vel value="0.0588275133" flag="0"/>
      <psa03 value="0.3816093990" flag="0"/>
      <psa10 value="0.0364361179" flag="0"/>
      <psa30 value="0.0023306200" flag="0"/>
    </comp>
    <comp name="--.HNE">
      <acc value="0.4895334588" flag="0"/>
      <vel value="0.1216989862" flag="0"/>
      <psa03 value="0.5699444188" flag="0"/>
      <psa10 value="0.0542669705" flag="0"/>
      <psa30 value="0.0048081981" flag="0"/>
    </comp>
  </station>
  <station code="ZAK2" name="ZAK2" netid="HI" insttype="unknown" commtype="DIG" lat="37.7875" lon="20.9">
    <comp name="--.HNE">
      <acc value="0.0896265580" flag="0"/>
      <vel value="0.0635440470" flag="0"/>
      <psa03 value="0.2481069402" flag="0"/>
      <psa10 value="0.0599819047" flag="0"/>
      <psa30 value="0.0029469553" flag="0"/>
    </comp>
    <comp name="--.HNZ">
      <acc value="0.0322288981" flag="0"/>
      <vel value="0.0170417437" flag="0"/>
      <psa03 value="0.1273101222" flag="0"/>
      <psa10 value="0.0185347205" flag="0"/>
      <psa30 value="0.0020684674" flag="0"/>
    </comp>
    <comp name="--.HNN">
      <acc value="0.0725461461" flag="0"/>
      <vel value="0.0525837368" flag="0"/>
      <psa03 value="0.2165258196" flag="0"/>
      <psa10 value="0.0447723148" flag="0"/>
      <psa30 value="0.0025450383" flag="0"/>
    </comp>
  </station>
  <station code="LXRA" name="LXRA" netid="HL" insttype="CMG-5" commtype="DIG" lat="38.2001" lon="20.4372">
    <comp name="00.HNE">
      <acc value="3.1464437024" flag="0"/>
      <vel value="1.3842620459" flag="0"/>
      <psa03 value="5.5397445056" flag="0"/>
      <psa10 value="0.4314119862" flag="0"/>
      <psa30 value="0.0448013277" flag="0"/>
    </comp>
    <comp name="00.HNN">
      <acc value="2.5102167515" flag="0"/>
      <vel value="1.0770603950" flag="0"/>
      <psa03 value="4.7378899905" flag="0"/>
      <psa10 value="0.3906584835" flag="0"/>
      <psa30 value="0.0465542689" flag="0"/>
    </comp>
    <comp name="00.HNZ">
      <acc value="2.3690424777" flag="0"/>
      <vel value="0.3435060531" flag="0"/>
      <psa03 value="1.3508288521" flag="0"/>
      <psa10 value="0.2419663252" flag="0"/>
      <psa30 value="0.0128638493" flag="0"/>
    </comp>
  </station>
  <station code="ORTH" name="ORTH" netid="HL" insttype="30" commtype="DIG" lat="37.8511" lon="20.6963">
    <comp name="--.HHE">
      <acc value="0.0763161227" flag="0"/>
      <vel value="0.0315801145" flag="0"/>
      <psa03 value="0.1877912409" flag="0"/>
      <psa10 value="0.0146157267" flag="0"/>
      <psa30 value="0.0011388067" flag="0"/>
    </comp>
    <comp name="--.HHN">
      <acc value="0.0745094084" flag="0"/>
      <vel value="0.0343903848" flag="0"/>
      <psa03 value="0.1772883069" flag="0"/>
      <psa10 value="0.0184292195" flag="0"/>
      <psa30 value="0.0015704411" flag="0"/>
    </comp>
    <comp name="--.HHZ">
      <acc value="0.0298001767" flag="0"/>
      <vel value="0.0138227933" flag="0"/>
      <psa03 value="0.0784692909" flag="0"/>
      <psa10 value="0.0122824291" flag="0"/>
      <psa30 value="0.0006999929" flag="0"/>
    </comp>
  </station>
  <station code="PRGA" name="PRGA" netid="HL" insttype="CMG-5" commtype="DIG" lat="39.2856" lon="20.4016">
    <comp name="00.HNE">
      <acc value="0.1391528135" flag="0"/>
      <vel value="0.0594016313" flag="0"/>
      <psa03 value="0.3779806149" flag="0"/>
      <psa10 value="0.0335123036" flag="0"/>
      <psa30 value="0.0017387674" flag="0"/>
    </comp>
    <comp name="00.HNZ">
      <acc value="0.0629302882" flag="0"/>
      <vel value="0.0121599633" flag="0"/>
      <psa03 value="0.0629591506" flag="0"/>
      <psa10 value="0.0104477562" flag="0"/>
      <psa30 value="0.0009826832" flag="0"/>
    </comp>
    <comp name="00.HNN">
      <acc value="0.1056424214" flag="0"/>
      <vel value="0.0411017115" flag="0"/>
      <psa03 value="0.2823933937" flag="0"/>
      <psa10 value="0.0241326769" flag="0"/>
      <psa30 value="0.0020814064" flag="0"/>
    </comp>
  </station>
  <station code="SMHA" name="SMHA" netid="HL" insttype="CMG-5" commtype="DIG" lat="38.2512" lon="20.6477">
    <comp name="00.HNE">
      <acc value="2.3575036662" flag="0"/>
      <vel value="0.8390584497" flag="0"/>
      <psa03 value="3.4648831317" flag="0"/>
      <psa10 value="0.1574682334" flag="0"/>
      <psa30 value="0.0165479799" flag="0"/>
    </comp>
    <comp name="00.HNZ">
      <acc value="1.2981542763" flag="0"/>
      <vel value="0.3801146078" flag="0"/>
      <psa03 value="2.2941787535" flag="0"/>
      <psa10 value="0.1590135143" flag="0"/>
      <psa30 value="0.0092948184" flag="0"/>
    </comp>
    <comp name="00.HNN">
      <acc value="2.5348412030" flag="0"/>
      <vel value="0.7212811984" flag="0"/>
      <psa03 value="3.0984903320" flag="0"/>
      <psa10 value="0.2222771569" flag="0"/>
      <psa30 value="0.0178611300" flag="0"/>
    </comp>
  </station>
  <station code="AMPL" name="AMPL" netid="HP" insttype="Compact," commtype="DIG" lat="38.9224" lon="21.2135">
    <comp name="--.HHE">
      <acc value="0.0274331694" flag="0"/>
      <vel value="0.0131837479" flag="0"/>
      <psa03 value="0.0577763654" flag="0"/>
      <psa10 value="0.0197382526" flag="0"/>
      <psa30 value="0.0009420133" flag="0"/>
    </comp>
    <comp name="--.HHZ">
      <acc value="0.0153366921" flag="0"/>
      <vel value="0.0113500193" flag="0"/>
      <psa03 value="0.0460967432" flag="0"/>
      <psa10 value="0.0124036552" flag="0"/>
      <psa30 value="0.0010059422" flag="0"/>
    </comp>
    <comp name="--.HHN">
      <acc value="0.0328796432" flag="0"/>
      <vel value="0.0150139485" flag="0"/>
      <psa03 value="0.0866557002" flag="0"/>
      <psa10 value="0.0103940716" flag="0"/>
      <psa30 value="0.0008593763" flag="0"/>
    </comp>
  </station>
  <station code="AXS" name="AXS" netid="HP" insttype="Compact," commtype="DIG" lat="38.1962" lon="21.3763">
    <comp name="--.HHE">
      <acc value="0.0116244807" flag="0"/>
      <vel value="0.0049719819" flag="0"/>
      <psa03 value="0.0205302746" flag="0"/>
      <psa10 value="0.0060198004" flag="0"/>
      <psa30 value="0.0005414251" flag="0"/>
    </comp>
    <comp name="--.HHZ">
      <acc value="0.0074284665" flag="0"/>
      <vel value="0.0041534597" flag="0"/>
      <psa03 value="0.0177966763" flag="0"/>
      <psa10 value="0.0046656980" flag="0"/>
      <psa30 value="0.0007502476" flag="0"/>
    </comp>
    <comp name="--.HHN">
      <acc value="0.0116631916" flag="0"/>
      <vel value="0.0066205311" flag="0"/>
      <psa03 value="0.0267210032" flag="0"/>
      <psa10 value="0.0114489197" flag="0"/>
      <psa30 value="0.0008018836" flag="0"/>
    </comp>
  </station>
  <station code="FSK" name="FSK" netid="HP" insttype="40," commtype="DIG" lat="38.4593" lon="20.5623">
    <comp name="--.HHE">
      <acc value="0.3657647105" flag="0"/>
      <vel value="0.0857250061" flag="0"/>
      <psa03 value="0.4892993255" flag="0"/>
      <psa10 value="0.0309704699" flag="0"/>
      <psa30 value="0.0026086441" flag="0"/>
    </comp>
    <comp name="--.HHZ">
      <acc value="0.1999892540" flag="0"/>
      <vel value="0.0585548788" flag="0"/>
      <psa03 value="0.2191960154" flag="0"/>
      <psa10 value="0.0196816102" flag="0"/>
      <psa30 value="0.0021166896" flag="0"/>
    </comp>
    <comp name="--.HHN">
      <acc value="0.2137598320" flag="0"/>
      <vel value="0.1107772957" flag="0"/>
      <psa03 value="0.4864409317" flag="0"/>
      <psa10 value="0.0555284861" flag="0"/>
      <psa30 value="0.0050138010" flag="0"/>
    </comp>
  </station>
  <station code="KSTR" name="KSTR" netid="HP" insttype="Compact," commtype="DIG" lat="39.2492" lon="20.576">
    <comp name="--.HHN">
      <acc value="0.0295397804" flag="0"/>
      <vel value="0.0203421056" flag="0"/>
      <psa03 value="0.0501826059" flag="0"/>
      <psa10 value="0.0259317473" flag="0"/>
      <psa30 value="0.0016146427" flag="0"/>
    </comp>
    <comp name="--.HHZ">
      <acc value="0.0268047183" flag="0"/>
      <vel value="0.0174078061" flag="0"/>
      <psa03 value="0.0358612001" flag="0"/>
      <psa10 value="0.0177996379" flag="0"/>
      <psa30 value="0.0011009843" flag="0"/>
    </comp>
    <comp name="--.HHE">
      <acc value="0.0703407989" flag="0"/>
      <vel value="0.0282822308" flag="0"/>
      <psa03 value="0.1562543016" flag="0"/>
      <psa10 value="0.0225258657" flag="0"/>
      <psa30 value="0.0014410419" flag="0"/>
    </comp>
  </station>
  <station code="LTHK" name="LTHK" netid="HP" insttype="40," commtype="DIG" lat="37.7095" lon="20.8367">
    <comp name="--.HHN">
      <acc value="0.0362481645" flag="0"/>
      <vel value="0.0141247555" flag="0"/>
      <psa03 value="0.0661051376" flag="0"/>
      <psa10 value="0.0174428949" flag="0"/>
      <psa30 value="0.0010007113" flag="0"/>
    </comp>
    <comp name="--.HHZ">
      <acc value="0.0209978620" flag="0"/>
      <vel value="0.0084641093" flag="0"/>
      <psa03 value="0.0548099405" flag="0"/>
      <psa10 value="0.0112832746" flag="0"/>
      <psa30 value="0.0005502956" flag="0"/>
    </comp>
    <comp name="--.HHE">
      <acc value="0.0480056251" flag="0"/>
      <vel value="0.0176629527" flag="0"/>
      <psa03 value="0.0747643613" flag="0"/>
      <psa10 value="0.0218743102" flag="0"/>
      <psa30 value="0.0008093188" flag="0"/>
    </comp>
  </station>
