<?xml version="1.0" encoding="UTF-8" standalone="yes"?>
<!DOCTYPE earthquake SYSTEM "stationlist.dtd">
<stationlist created="" xmlns="ch.ethz.sed.shakemap.usgs.xml">
  <station code="AGRP" name="AGRP" netid="CL" insttype="CMG40-T" commtype="DIG" lat="38.3959" lon="21.7228">
    <comp name="00.HHZ">
      <acc value="0.0062286551" flag="0"/>
      <vel value="0.0032933284" flag="0"/>
      <psa03 value="0.0178100987" flag="0"/>
      <psa10 value="0.0032036074" flag="0"/>
      <psa30 value="0.0003608313" flag="0"/>
    </comp>
    <comp name="00.HHN">
      <acc value="0.0077190422" flag="0"/>
      <vel value="0.0054720040" flag="0"/>
      <psa03 value="0.0204799510" flag="0"/>
      <psa10 value="0.0087864743" flag="0"/>
      <psa30 value="0.0004574502" flag="0"/>
    </comp>
    <comp name="00.HHE">
      <acc value="0.0091729736" flag="0"/>
      <vel value="0.0054657299" flag="0"/>
      <psa03 value="0.0211442738" flag="0"/>
      <psa10 value="0.0057908520" flag="0"/>
      <psa30 value="0.0005033540" flag="0"/>
    </comp>
  </station>
  <station code="ATHR" name="ATHR" netid="HA" insttype="GEOtiny," commtype="DIG" lat="38.3172" lon="20.4165">
    <comp name="--.HHE">
      <acc value="0.6978955065" flag="0"/>
      <vel value="0.2361400650" flag="0"/>
      <psa03 value="0.9351046685" flag="0"/>
      <psa10 value="0.0957891405" flag="0"/>
      <psa30 value="0.0080633935" flag="0"/>
    </comp>
    <comp name="--.HHZ">
      <acc value="0.9884789972" flag="0"/>
      <vel value="0.2126187122" flag="0"/>
      <psa03 value="0.8008595697" flag="0"/>
      <psa10 value="0.0489070912" flag="0"/>
      <psa30 value="0.0058005764" flag="0"/>
    </comp>
    <comp name="--.HHN">
      <acc value="0.7002693270" flag="0"/>
      <vel value="0.1737196188" flag="0"/>
      <psa03 value="1.2707743852" flag="0"/>
      <psa10 value="0.0731499405" flag="0"/>
      <psa30 value="0.0067361501" flag="0"/>
    </comp>
  </station>
  <station code="HAVD" name="HAVD" netid="HA" insttype="GEOtiny," commtype="DIG" lat="38.2036" lon="20.3848">
    <comp name="--.HHN">
      <acc value="2.7864445737" flag="0"/>
      <vel value="0.8049700526" flag="0"/>
      <psa03 value="3.9609347803" flag="0"/>
      <psa10 value="0.3001180212" flag="0"/>
      <psa30 value="0.0354726957" flag="0"/>
    </comp>
    <comp name="--.HHE">
      <acc value="3.7842268855" flag="0"/>
      <vel value="0.9645217253" flag="0"/>
      <psa03 value="3.6087735097" flag="0"/>
      <psa10 value="0.4006568169" flag="0"/>
      <psa30 value="0.0372560314" flag="0"/>
    </comp>
    <comp name="--.HHZ">
      <acc value="2.2373322240" flag="0"/>
      <vel value="0.4982732900" flag="0"/>
      <psa03 value="2.1808810285" flag="0"/>
      <psa10 value="0.1456690826" flag="0"/>
      <psa30 value="0.0130149456" flag="0"/>
    </comp>
  </station>
  <station code="AGR3" name="AGR3" netid="HI" insttype="unknown" commtype="DIG" lat="38.5893" lon="21.4162">
    <comp name="--.HNE">
      <acc value="0.0586056360" flag="0"/>
      <vel value="0.0335633126" flag="0"/>
      <psa03 value="0.1886264012" flag="0"/>
      <psa10 value="0.0222983683" flag="0"/>
      <psa30 value="0.0030982717" flag="0"/>
    </comp>
    <comp name="--.HNN">
      <acc value="0.0589154491" flag="0"/>
      <vel value="0.0246915205" flag="0"/>
      <psa03 value="0.2206008996" flag="0"/>
      <psa10 value="0.0256765647" flag="0"/>
      <psa30 value="0.0020484127" flag="0"/>
    </comp>
    <comp name="--.HNZ">
      <acc value="0.0249064648" flag="0"/>
      <vel value="0.0126021413" flag="0"/>
      <psa03 value="0.0709009038" flag="0"/>
      <psa10 value="0.0193414519" flag="0"/>
      <psa30 value="0.0010024316" flag="0"/>
    </comp>
  </station>
  <station code="ARG2" name="ARG2" netid="HI" insttype="CMG-5TD,ACCELEROMETER,GURALP" commtype="DIG" lat="38.1783" lon="20.4878">
    <comp name="--.HNE">
      <acc value="1.6818117986" flag="0"/>
      <vel value="0.6969505796" flag="0"/>
      <psa03 value="2.7361327033" flag="0"/>
      <psa10 value="0.1663066388" flag="0"/>
      <psa30 value="0.0158444472" flag="0"/>
    </comp>
    <comp name="--.HNN">
      <acc value="1.2753566982" flag="0"/>
      <vel value="0.5291295844" flag="0"/>
      <psa03 value="2.3007733628" flag="0"/>
      <psa10 value="0.2350163964" flag="0"/>
      <psa30 value="0.0245215723" flag="0"/>
    </comp>
    <comp name="--.HNZ">
      <acc value="0.6717586131" flag="0"/>
      <vel value="0.2057887524" flag="0"/>
      <psa03 value="1.6829182017" flag="0"/>
      <psa10 value="0.0645777891" flag="0"/>
      <psa30 value="0.0055586538" flag="0"/>
    </comp>
  </station>
  <station code="AST1" name="AST1" netid="HI" insttype="unknown" commtype="DIG" lat="38.5416" lon="21.0895">
    <comp name="--.HNE">
      <acc value="0.0479398088" flag="0"/>
      <vel value="0.0178081161" flag="0"/>
      <psa03 value="0.1320364712" flag="0"/>
      <psa10 value="0.0161725779" flag="0"/>
      <psa30 value="0.0009955056" flag="0"/>
    </comp>
    <comp name="--.HNN">
      <acc value="0.0494868803" flag="0"/>
      <vel value="0.0236386979" flag="0"/>
      <psa03 value="0.1415705843" flag="0"/>
      <psa10 value="0.0183779774" flag="0"/>
      <psa30 value="0.0011300306" flag="0"/>
    </comp>
    <comp name="--.HNZ">
      <acc value="0.0398073214" flag="0"/>
      <vel value="0.0176428280" flag="0"/>
      <psa03 value="0.1442457366" flag="0"/>
      <psa10 value="0.0133006854" flag="0"/>
      <psa30 value="0.0011369969" flag="0"/>
    </comp>
  </station>
  <station code="KRI1" name="KRI1" netid="HI" insttype="CMG-5TD,ACCELEROMETER,GURALP" commtype="DIG" lat="37.6621" lon="20.8172">
    <comp name="--.HNE">
      <acc value="0.0344805930" flag="0"/>
      <vel value="0.0144879756" flag="0"/>
      <psa03 value="0.0884973672" flag="0"/>
      <psa10 value="0.0150839932" flag="0"/>
      <psa30 value="0.0010081681" flag="0"/>
    </comp>
    <comp name="--.HNZ">
      <acc value="0.0177277272" flag="0"/>
      <vel value="0.0065740997" flag="0"/>
      <psa03 value="0.0403733850" flag="0"/>
      <psa10 value="0.0059959159" flag="0"/>
      <psa30 value="0.0005436916" flag="0"/>
    </comp>
    <comp name="--.HNN">
      <acc value="0.0331870568" flag="0"/>
      <vel value="0.0221758000" flag="0"/>
      <psa03 value="0.1040622067" flag="0"/>
      <psa10 value="0.0212758730" flag="0"/>
      <psa30 value="0.0008452981" flag="0"/>
    </comp>
  </station>
  <station code="LEF2" name="LEF2" netid="HI" insttype="unknown" commtype="DIG" lat="38.8301" lon="20.7083">
    <comp name="--.HNN">
      <acc value="0.0926388035" flag="0"/>
      <vel value="0.0634950929" flag="0"/>
      <psa03 value="0.4648670996" flag="0"/>
      <psa10 value="0.0375800715" flag="0"/>
      <psa30 value="0.0029329055" flag="0"/>
    </comp>
    <comp name="--.HNZ">
      <acc value="0.0854235311" flag="0"/>
      <vel value="0.0427983619" flag="0"/>
      <psa03 value="0.2874581170" flag="0"/>
      <psa10 value="0.0314588785" flag="0"/>
      <psa30 value="0.0018218562" flag="0"/>
    </comp>
    <comp name="--.HNE">
      <acc value="0.1036480748" flag="0"/>
      <vel value="0.0423437905" flag="0"/>
      <psa03 value="0.3629685559" flag="0"/>
      <psa10 value="0.0386611284" flag="0"/>
      <psa30 value="0.0023755571" flag="0"/>
    </comp>
  </station>
  <station code="LXR2" name="LXR2" netid="HI" insttype="unknown" commtype="DIG" lat="38.2067" lon="20.4364">
    <comp name="--.HNN">
      <acc value="3.0239366519" flag="0"/>
      <vel value="1.3744024049" flag="0"/>
      <psa03 value="4.6347894776" flag="0"/>
      <psa10 value="0.5005903574" flag="0"/>
      <psa30 value="0.0525366661" flag="0"/>
    </comp>
    <comp name="--.HNZ">
      <acc value="1.9926025674" flag="0"/>
      <vel value="0.4356000508" flag="0"/>
      <psa03 value="2.1044286495" flag="0"/>
      <psa10 value="0.2524205890" flag="0"/>
      <psa30 value="0.0167135038" flag="0"/>
    </comp>
    <comp name="--.HNE">
      <acc value="3.7789062590" flag="0"/>
      <vel value="1.2187405113" flag="0"/>
      <psa03 value="5.4335428873" flag="0"/>
      <psa10 value="0.4290535539" flag="0"/>
      <psa30 value="0.0461280773" flag="0"/>
    </comp>
  </station>
  <station code="MSL1" name="MSL1" netid="HI" insttype="CMG-5TD,ACCELEROMETER,GURALP" commtype="DIG" lat="38.3727" lon="21.4243">
    <comp name="--.HNE">
      <acc value="0.0798149526" flag="0"/>
      <vel value="0.0462502764" flag="0"/>
      <psa03 value="0.2424010444" flag="0"/>
      <psa10 value="0.0597658651" flag="0"/>
      <psa30 value="0.0022986700" flag="0"/>
    </comp>
    <comp name="--.HNN">
      <acc value="0.0937044722" flag="0"/>
      <vel value="0.0843137511" flag="0"/>
      <psa03 value="0.3582612374" flag="0"/>
      <psa10 value="0.0916438783" flag="0"/>
      <psa30 value="0.0044454095" flag="0"/>
    </comp>
    <comp name="--.HNZ">
      <acc value="0.0311192305" flag="0"/>
      <vel value="0.0236896765" flag="0"/>
      <psa03 value="0.1240201275" flag="0"/>
      <psa10 value="0.0406614803" flag="0"/>
      <psa30 value="0.0015624803" flag="0"/>
    </comp>
  </station>
  <station code="PRE2" name="PRE2" netid="HI" insttype="unknown" commtype="DIG" lat="38.9577" lon="20.7548">
    <comp name="--.HNZ">
      <acc value="0.0579548303" flag="0"/>
      <vel value="0.0300648668" flag="0"/>
      <psa03 value="0.1952566846" flag="0"/>
      <psa10 value="0.0184100238" flag="0"/>
      <psa30 value="0.0011690496" flag="0"/>
    </comp>
    <comp name="--.HNE">
      <acc value="0.0946331232" flag="0"/>
      <vel value="0.0559708348" flag="0"/>
      <psa03 value="0.2948939254" flag="0"/>
      <psa10 value="0.0329237853" flag="0"/>
      <psa30 value="0.0020529976" flag="0"/>
    </comp>
    <comp name="--.HNN">
      <acc value="0.1310906030" flag="0"/>
      <vel value="0.0621381111" flag="0"/>
      <psa03 value="0.4046508902" flag="0"/>
      <psa10 value="0.0289301436" flag="0"/>
      <psa30 value="0.0035263511" flag="0"/>
    </comp>
  </station>
  <station code="PYR2" name="PYR2" netid="HI" insttype="unknown" commtype="DIG" lat="37.6671" lon="21.4506">
    <comp name="--.HNE">
      <acc value="0.0185621558" flag="0"/>
      <vel value="0.0120739242" flag="0"/>
      <psa03 value="0.0583217645" flag="0"/>
      <psa10 value="0.0171449212" flag="0"/>
      <psa30 value="0.0014251975" flag="0"/>
    </comp>
    <comp name="--.HNN">
      <acc value="0.0134132596" flag="0"/>
      <vel value="0.0113588945" flag="0"/>
      <psa03 value="0.0389235310" flag="0"/>
      <psa10 value="0.0136378947" flag="0"/>
      <psa30 value="0.0012664296" flag="0"/>
    </comp>
    <comp name="--.HNZ">
      <acc value="0.0073101960" flag="0"/>
      <vel value="0.0045313730" flag="0"/>
      <psa03 value="0.0232920635" flag="0"/>
      <psa10 value="0.0076543576" flag="0"/>
      <psa30 value="0.0007306206" flag="0"/>
    </comp>
  </station>
  <station code="VSK1" name="VSK1" netid="HI" insttype="unknown" commtype="DIG" lat="38.4091" lon="20.564">
    <comp name="--.HNN">
      <acc value="0.4404138892" flag="0"/>
      <vel value="0.1127062960" flag="0"/>
      <psa03 value="0.5804242096" flag="0"/>
      <psa10 value="0.0667361037" flag="0"/>
      <psa30 value="0.0047998187" flag="0"/>
    </comp>
    <comp name="--.HNZ">
      <acc value="0.2651039241" flag="0"/>
      <vel value="0.0588275120" flag="0"/>
      <psa03 value="0.3816093990" flag="0"/>
      <psa10 value="0.0364361167" flag="0"/>
      <psa30 value="0.0023302754" flag="0"/>
    </comp>
    <comp name="--.HNE">
      <acc value="0.4895334599" flag="0"/>
      <vel value="0.1216989830" flag="0"/>
      <psa03 value="0.5699444188" flag="0"/>
      <psa10 value="0.0542669727" flag="0"/>
      <psa30 value="0.0048076567" flag="0"/>
    </comp>
  </station>
  <station code="ZAK2" name="ZAK2" netid="HI" insttype="unknown" commtype="DIG" lat="37.7875" lon="20.9">
    <comp name="--.HNE">
      <acc value="0.0896265563" flag="0"/>
      <vel value="0.0635440447" flag="0"/>
      <psa03 value="0.2481069402" flag="0"/>
      <psa10 value="0.0599819047" flag="0"/>
      <psa30 value="0.0029470058" flag="0"/>
    </comp>
    <comp name="--.HNN">
      <acc value="0.0725461441" flag="0"/>
      <vel value="0.0525837318" flag="0"/>
      <psa03 value="0.2165258196" flag="0"/>
      <psa10 value="0.0447723148" flag="0"/>
      <psa30 value="0.0025449751" flag="0"/>
    </comp>
    <comp name="--.HNZ">
      <acc value="0.0322289024" flag="0"/>
      <vel value="0.0170417413" flag="0"/>
      <psa03 value="0.1273101222" flag="0"/>
      <psa10 value="0.0185347205" flag="0"/>
      <psa30 value="0.0020658637" flag="0"/>
    </comp>
  </station>
  <station code="LXRA" name="LXRA" netid="HL" insttype="CMG-5" commtype="DIG" lat="38.2001" lon="20.4372">
    <comp name="00.HNE">
      <acc value="3.1464437026" flag="0"/>
      <vel value="1.3842620477" flag="0"/>
      <psa03 value="5.5397445056" flag="0"/>
      <psa10 value="0.4314119906" flag="0"/>
      <psa30 value="0.0448012363" flag="0"/>
    </comp>
    <comp name="00.HNN">
      <acc value="2.5102167533" flag="0"/>
      <vel value="1.0770603916" flag="0"/>
      <psa03 value="4.7378899905" flag="0"/>
      <psa10 value="0.3906584637" flag="0"/>
      <psa30 value="0.0465555623" flag="0"/>
    </comp>
    <comp name="00.HNZ">
      <acc value="2.3690424806" flag="0"/>
      <vel value="0.3435060526" flag="0"/>
      <psa03 value="1.3508288521" flag="0"/>
      <psa10 value="0.2419663172" flag="0"/>
      <psa30 value="0.0128638920" flag="0"/>
    </comp>
  </station>
  <station code="ORTH" name="ORTH" netid="HL" insttype="30" commtype="DIG" lat="37.8511" lon="20.6963">
    <comp name="--.HHE">
      <acc value="0.0763161226" flag="0"/>
      <vel value="0.0315801147" flag="0"/>
      <psa03 value="0.1877912409" flag="0"/>
      <psa10 value="0.0146157267" flag="0"/>
      <psa30 value="0.0011388072" flag="0"/>
    </comp>
    <comp name="--.HHZ">
      <acc value="0.0298001767" flag="0"/>
      <vel value="0.0138227980" flag="0"/>
      <psa03 value="0.0784692909" flag="0"/>
      <psa10 value="0.0122824290" flag="0"/>
      <psa30 value="0.0007000101" flag="0"/>
    </comp>
    <comp name="--.HHN">
      <acc value="0.0745094084" flag="0"/>
      <vel value="0.0343903847" flag="0"/>
      <psa03 value="0.1772883069" flag="0"/>
      <psa10 value="0.0184292195" flag="0"/>
      <psa30 value="0.0015704533" flag="0"/>
    </comp>
  </station>
  <station code="PATG" name="PATG" netid="HL" insttype="CMG-5" commtype="DIG" lat="38.2386" lon="21.7266">
    <comp name="00.HNE">
      <acc value="0.0220976564" flag="0"/>
      <vel value="0.0176404228" flag="0"/>
      <psa03 value="0.0653355548" flag="0"/>
      <psa10 value="0.0322722706" flag="0"/>
      <psa30 value="0.0032793327" flag="0"/>
    </comp>
    <comp name="00.HNN">
      <acc value="0.0229678184" flag="0"/>
      <vel value="0.0194424770" flag="0"/>
      <psa03 value="0.0635338527" flag="0"/>
      <psa10 value="0.0270625299" flag="0"/>
      <psa30 value="0.0043139525" flag="0"/>
    </comp>
    <comp name="00.HNZ">
      <acc value="0.0861688907" flag="0"/>
      <vel value="0.0142598895" flag="0"/>
      <psa03 value="0.0344919955" flag="0"/>
      <psa10 value="0.0130114638" flag="0"/>
      <psa30 value="0.0018494264" flag="0"/>
    </comp>
  </station>
  <station code="PRGA" name="PRGA" netid="HL" insttype="CMG-5" commtype="DIG" lat="39.2856" lon="20.4016">
    <comp name="00.HNN">
      <acc value="0.1056424221" flag="0"/>
      <vel value="0.0411017105" flag="0"/>
      <psa03 value="0.2823933937" flag="0"/>
      <psa10 value="0.0241326772" flag="0"/>
      <psa30 value="0.0020816354" flag="0"/>
    </comp>
    <comp name="00.HNE">
      <acc value="0.1391528126" flag="0"/>
      <vel value="0.0594016282" flag="0"/>
      <psa03 value="0.3779806149" flag="0"/>
      <psa10 value="0.0335123036" flag="0"/>
      <psa30 value="0.0017387827" flag="0"/>
    </comp>
    <comp name="00.HNZ">
      <acc value="0.0629302855" flag="0"/>
      <vel value="0.0121599642" flag="0"/>
      <psa03 value="0.0629591506" flag="0"/>
      <psa10 value="0.0104477562" flag="0"/>
      <psa30 value="0.0009824485" flag="0"/>
    </comp>
  </station>
  <station code="SMHA" name="SMHA" netid="HL" insttype="CMG-5" commtype="DIG" lat="38.2512" lon="20.6477">
    <comp name="00.HNN">
      <acc value="2.5348411996" flag="0"/>
      <vel value="0.7212811957" flag="0"/>
      <psa03 value="3.0984903320" flag="0"/>
      <psa10 value="0.2222771685" flag="0"/>
      <psa30 value="0.0178600772" flag="0"/>
    </comp>
    <comp name="00.HNZ">
      <acc value="1.2981542737" flag="0"/>
      <vel value="0.3801146099" flag="0"/>
      <psa03 value="2.2941787535" flag="0"/>
      <psa10 value="0.1590135253" flag="0"/>
      <psa30 value="0.0092954802" flag="0"/>
    </comp>
    <comp name="00.HNE">
      <acc value="2.3575036712" flag="0"/>
      <vel value="0.8390584474" flag="0"/>
      <psa03 value="3.4648831317" flag="0"/>
      <psa10 value="0.1574682475" flag="0"/>
      <psa30 value="0.0165473834" flag="0"/>
    </comp>
  </station>
  <station code="AMPL" name="AMPL" netid="HP" insttype="Compact," commtype="DIG" lat="38.9224" lon="21.2135">
    <comp name="--.HHZ">
      <acc value="0.0153366920" flag="0"/>
      <vel value="0.0113500194" flag="0"/>
      <psa03 value="0.0460967432" flag="0"/>
      <psa10 value="0.0124036552" flag="0"/>
      <psa30 value="0.0010059414" flag="0"/>
    </comp>
    <comp name="--.HHN">
      <acc value="0.0328796429" flag="0"/>
      <vel value="0.0150139481" flag="0"/>
      <psa03 value="0.0866557002" flag="0"/>
      <psa10 value="0.0103940716" flag="0"/>
      <psa30 value="0.0008593978" flag="0"/>
    </comp>
    <comp name="--.HHE">
      <acc value="0.0274331690" flag="0"/>
      <vel value="0.0131837481" flag="0"/>
      <psa03 value="0.0577763654" flag="0"/>
      <psa10 value="0.0197382525" flag="0"/>
      <psa30 value="0.0009419960" flag="0"/>
    </comp>
  </station>
  <station code="AXS" name="AXS" netid="HP" insttype="Compact," commtype="DIG" lat="38.1962" lon="21.3763">
    <comp name="--.HHE">
      <acc value="0.0116244809" flag="0"/>
      <vel value="0.0049719807" flag="0"/>
      <psa03 value="0.0205302746" flag="0"/>
      <psa10 value="0.0060198004" flag="0"/>
      <psa30 value="0.0005414079" flag="0"/>
    </comp>
    <comp name="--.HHZ">
      <acc value="0.0074284658" flag="0"/>
      <vel value="0.0041534617" flag="0"/>
      <psa03 value="0.0177966763" flag="0"/>
      <psa10 value="0.0046656980" flag="0"/>
      <psa30 value="0.0007502668" flag="0"/>
    </comp>
    <comp name="--.HHN">
      <acc value="0.0116631918" flag="0"/>
      <vel value="0.0066205323" flag="0"/>
      <psa03 value="0.0267210032" flag="0"/>
      <psa10 value="0.0114489196" flag="0"/>
      <psa30 value="0.0008018767" flag="0"/>
    </comp>
  </station>
  <station code="DRO" name="DRO" netid="HP" insttype="120P," commtype="DIG" lat="37.952" lon="21.71">
    <comp name="--.HHE">
      <acc value="0.0149141362" flag="0"/>
      <vel value="0.0096547697" flag="0"/>
      <psa03 value="0.0489215115" flag="0"/>
      <psa10 value="0.0182438293" flag="0"/>
      <psa30 value="0.0007214736" flag="0"/>
    </comp>
    <comp name="--.HHN">
      <acc value="0.0168761627" flag="0"/>
      <vel value="0.0073251890" flag="0"/>
      <psa03 value="0.0431565647" flag="0"/>
      <psa10 value="0.0104360471" flag="0"/>
      <psa30 value="0.0007472416" flag="0"/>
    </comp>
    <comp name="--.HHZ">
      <acc value="0.0043478552" flag="0"/>
      <vel value="0.0023331705" flag="0"/>
      <psa03 value="0.0154978598" flag="0"/>
      <psa10 value="0.0016004083" flag="0"/>
      <psa30 value="0.0001427300" flag="0"/>
    </comp>
  </station>
