<?xml version="1.0" encoding="UTF-8" standalone="yes"?>
<!DOCTYPE earthquake SYSTEM "stationlist.dtd">
<stationlist created="" xmlns="ch.ethz.sed.shakemap.usgs.xml">
  <station code="ABAH" name="ABAH" netid="HU" insttype="" lat="48.2961" lon="21.2397">
    <comp name="--.HHE">
      <acc value="0.0540171684" flag="0"/>
      <vel value="0.0692246047" flag="0"/>
      <psa03 value="0.1474865585" flag="0"/>
      <psa10 value="0.0930998733" flag="0"/>
      <psa30 value="0.0130179553" flag="0"/>
    </comp>
    <comp name="--.HHN">
      <acc value="0.1048838638" flag="0"/>
      <vel value="0.0593055524" flag="0"/>
      <psa03 value="0.1957910916" flag="0"/>
      <psa10 value="0.0664706853" flag="0"/>
      <psa30 value="0.0144223257" flag="0"/>
    </comp>
    <comp name="--.HHZ">
      <acc value="0.0793258448" flag="0"/>
      <vel value="0.0582475068" flag="0"/>
      <psa03 value="0.1692477776" flag="0"/>
      <psa10 value="0.0675055757" flag="0"/>
      <psa30 value="0.0101795533" flag="0"/>
    </comp>
  </station>
  <station code="TRPA" name="TRPA" netid="HU" insttype="" lat="48.1304" lon="22.5391">
    <comp name="--.HHE">
      <acc value="0.1124976870" flag="0"/>
      <vel value="0.0706325469" flag="0"/>
      <psa03 value="0.1912986785" flag="0"/>
      <psa10 value="0.0593341007" flag="0"/>
      <psa30 value="0.0120305426" flag="0"/>
    </comp>
    <comp name="--.HHN">
      <acc value="0.1193616064" flag="0"/>
      <vel value="0.0854228734" flag="0"/>
      <psa03 value="0.2083897439" flag="0"/>
      <psa10 value="0.0977969829" flag="0"/>
      <psa30 value="0.0113099876" flag="0"/>
    </comp>
    <comp name="--.HHZ">
      <acc value="0.0508604105" flag="0"/>
      <vel value="0.0353809268" flag="0"/>
      <psa03 value="0.1554166862" flag="0"/>
      <psa10 value="0.0560562564" flag="0"/>
      <psa30 value="0.0095640500" flag="0"/>
    </comp>
  </station>
  <station code="KWP" name="KWP" netid="PL" insttype="STS-2/N" lat="49.6314" lon="22.7075">
    <comp name="--.HHE">
      <acc value="0.0599306646" flag="0"/>
      <vel value="0.1218319101" flag="0"/>
      <psa03 value="0.1215642241" flag="0"/>
      <psa10 value="0.2283359734" flag="0"/>
      <psa30 value="0.0696477991" flag="0"/>
    </comp>
    <comp name="--.HHN">
      <acc value="0.0724343062" flag="0"/>
      <vel value="0.1725506922" flag="0"/>
      <psa03 value="0.1166849173" flag="0"/>
      <psa10 value="0.1883291958" flag="0"/>
      <psa30 value="0.0693908873" flag="0"/>
    </comp>
    <comp name="--.HHZ">
      <acc value="0.0354172440" flag="0"/>
      <vel value="0.0784889771" flag="0"/>
      <psa03 value="0.0657554974" flag="0"/>
      <psa10 value="0.0820352367" flag="0"/>
      <psa30 value="0.0279709154" flag="0"/>
    </comp>
  </station>
</stationlist>
