<?xml version="1.0" encoding="UTF-8" standalone="yes"?>
<!DOCTYPE earthquake SYSTEM "stationlist.dtd">
<stationlist created="" xmlns="ch.ethz.sed.shakemap.usgs.xml">
  <station code="ABAH" name="ABAH" netid="HU" insttype="" lat="48.2961" lon="21.2397">
    <comp name="--.HHE">
      <acc value="0.0540171677" flag="0"/>
      <vel value="0.0692246066" flag="0"/>
      <psa03 value="0.1474865585" flag="0"/>
      <psa10 value="0.0930998733" flag="0"/>
      <psa30 value="0.0130179548" flag="0"/>
    </comp>
    <comp name="--.HHN">
      <acc value="0.1048838637" flag="0"/>
      <vel value="0.0593055535" flag="0"/>
      <psa03 value="0.1957910916" flag="0"/>
      <psa10 value="0.0664706853" flag="0"/>
      <psa30 value="0.0144222933" flag="0"/>
    </comp>
    <comp name="--.HHZ">
      <acc value="0.0793258452" flag="0"/>
      <vel value="0.0582475059" flag="0"/>
      <psa03 value="0.1692477776" flag="0"/>
      <psa10 value="0.0675055757" flag="0"/>
      <psa30 value="0.0101795568" flag="0"/>
    </comp>
  </station>
  <station code="TRPA" name="TRPA" netid="HU" insttype="" lat="48.1304" lon="22.5391">
    <comp name="--.HHE">
      <acc value="0.1124976869" flag="0"/>
      <vel value="0.0706325488" flag="0"/>
      <psa03 value="0.1912986785" flag="0"/>
      <psa10 value="0.0593341007" flag="0"/>
      <psa30 value="0.0120305590" flag="0"/>
    </comp>
    <comp name="--.HHN">
      <acc value="0.1193616066" flag="0"/>
      <vel value="0.0854228710" flag="0"/>
      <psa03 value="0.2083897439" flag="0"/>
      <psa10 value="0.0977969829" flag="0"/>
      <psa30 value="0.0113100724" flag="0"/>
    </comp>
    <comp name="--.HHZ">
      <acc value="0.0508604104" flag="0"/>
      <vel value="0.0353809269" flag="0"/>
      <psa03 value="0.1554166862" flag="0"/>
      <psa10 value="0.0560562564" flag="0"/>
      <psa30 value="0.0095640514" flag="0"/>
    </comp>
  </station>
  <station code="KWP" name="KWP" netid="PL" insttype="STS-2/N" lat="49.6314" lon="22.7075">
    <comp name="--.HHE">
      <acc value="0.0599306646" flag="0"/>
      <vel value="0.1218319106" flag="0"/>
      <psa03 value="0.1215642241" flag="0"/>
      <psa10 value="0.2283359734" flag="0"/>
      <psa30 value="0.0696477685" flag="0"/>
    </comp>
    <comp name="--.HHN">
      <acc value="0.0724343062" flag="0"/>
      <vel value="0.1725506947" flag="0"/>
      <psa03 value="0.1166849173" flag="0"/>
      <psa10 value="0.1883291958" flag="0"/>
      <psa30 value="0.0693908978" flag="0"/>
    </comp>
    <comp name="--.HHZ">
      <acc value="0.0354172440" flag="0"/>
      <vel value="0.0784889764" flag="0"/>
      <psa03 value="0.0657554974" flag="0"/>
      <psa10 value="0.0820352367" flag="0"/>
      <psa30 value="0.0279709081" flag="0"/>
    </comp>
  </station>
  <station code="NIE" name="NIE" netid="PL" insttype="STS-2/N" lat="49.4182" lon="20.2996">
    <comp name="--.HHE">
      <acc value="0.0829095349" flag="0"/>
      <vel value="0.0682387299" flag="0"/>
      <psa03 value="0.2445090480" flag="0"/>
      <psa10 value="0.0376141090" flag="0"/>
      <psa30 value="0.0112282151" flag="0"/>
    </comp>
    <comp name="--.HHN">
      <acc value="0.1132463756" flag="0"/>
      <vel value="0.0681615381" flag="0"/>
      <psa03 value="0.2351535511" flag="0"/>
      <psa10 value="0.0599720589" flag="0"/>
      <psa30 value="0.0143176156" flag="0"/>
    </comp>
    <comp name="--.HHZ">
      <acc value="0.0322879686" flag="0"/>
      <vel value="0.0311571521" flag="0"/>
      <psa03 value="0.0845789992" flag="0"/>
      <psa10 value="0.0144151273" flag="0"/>
      <psa30 value="0.0059111536" flag="0"/>
    </comp>
  </station>
</stationlist>
