<?xml version="1.0" encoding="UTF-8" standalone="yes"?>
<!DOCTYPE earthquake SYSTEM "stationlist.dtd">
<stationlist created="" xmlns="ch.ethz.sed.shakemap.usgs.xml">
  <station code="APE" name="APE" netid="GE" insttype="STS-2/N" lat="37.0727" lon="25.523">
    <comp name="--.HHE">
      <acc value="0.0036057517" flag="0"/>
      <vel value="0.0010328570" flag="0"/>
      <psa03 value="0.0050095282" flag="0"/>
      <psa10 value="0.0003594345" flag="0"/>
      <psa30 value="0.0000640467" flag="0"/>
    </comp>
    <comp name="--.HHN">
      <acc value="0.0048459230" flag="0"/>
      <vel value="0.0010249728" flag="0"/>
      <psa03 value="0.0042690313" flag="0"/>
      <psa10 value="0.0003712554" flag="0"/>
      <psa30 value="0.0000433038" flag="0"/>
    </comp>
    <comp name="--.HHZ">
      <acc value="0.0036319879" flag="0"/>
      <vel value="0.0013227283" flag="0"/>
      <psa03 value="0.0058566908" flag="0"/>
      <psa10 value="0.0006119565" flag="0"/>
      <psa30 value="0.0000608279" flag="0"/>
    </comp>
  </station>
  <station code="THERA" name="THERA" netid="GE" insttype="STS-2/N" lat="36.367" lon="25.4753">
    <comp name="--.HHZ">
      <acc value="0.0103388638" flag="0"/>
      <vel value="0.0057980527" flag="0"/>
      <psa03 value="0.0374442088" flag="0"/>
      <psa10 value="0.0017347706" flag="0"/>
      <psa30 value="0.0001484255" flag="0"/>
    </comp>
    <comp name="--.HHN">
      <acc value="0.0015281314" flag="0"/>
      <vel value="0.0006060905" flag="0"/>
      <psa03 value="0.0040608424" flag="0"/>
      <psa10 value="0.0002814995" flag="0"/>
      <psa30 value="0.0000334438" flag="0"/>
    </comp>
    <comp name="--.HHE">
      <acc value="0.0031177714" flag="0"/>
      <vel value="0.0014495160" flag="0"/>
      <psa03 value="0.0110680142" flag="0"/>
      <psa10 value="0.0006678577" flag="0"/>
      <psa30 value="0.0000799691" flag="0"/>
    </comp>
  </station>
  <station code="KARY" name="KARY" netid="HA" insttype="60" lat="38.0321" lon="24.437">
    <comp name="--.HHE">
      <acc value="0.0004263363" flag="0"/>
      <vel value="0.0001778730" flag="0"/>
      <psa03 value="0.0007119227" flag="0"/>
      <psa10 value="0.0001164854" flag="0"/>
      <psa30 value="0.0000368771" flag="0"/>
    </comp>
    <comp name="--.HHN">
      <acc value="0.0006952041" flag="0"/>
      <vel value="0.0002518751" flag="0"/>
      <psa03 value="0.0007903317" flag="0"/>
      <psa10 value="0.0003745428" flag="0"/>
      <psa30 value="0.0000182010" flag="0"/>
    </comp>
    <comp name="--.HHZ">
      <acc value="0.0014038344" flag="0"/>
      <vel value="0.0004975208" flag="0"/>
      <psa03 value="0.0016912781" flag="0"/>
      <psa10 value="0.0002428143" flag="0"/>
      <psa30 value="0.0000162676" flag="0"/>
    </comp>
  </station>
  <station code="SERI" name="SERI" netid="HA" insttype="30" lat="37.1609" lon="24.4853">
    <comp name="--.HHE">
      <acc value="0.0018954887" flag="0"/>
      <vel value="0.0009842025" flag="0"/>
      <psa03 value="0.0016347130" flag="0"/>
      <psa10 value="0.0008835683" flag="0"/>
      <psa30 value="0.0000683619" flag="0"/>
    </comp>
    <comp name="--.HHN">
      <acc value="0.0027995099" flag="0"/>
      <vel value="0.0004532487" flag="0"/>
      <psa03 value="0.0016039914" flag="0"/>
      <psa10 value="0.0003851250" flag="0"/>
      <psa30 value="0.0000407195" flag="0"/>
    </comp>
    <comp name="--.HHZ">
      <acc value="0.0063554770" flag="0"/>
      <vel value="0.0010156498" flag="0"/>
      <psa03 value="0.0029887164" flag="0"/>
      <psa10 value="0.0003713228" flag="0"/>
      <psa30 value="0.0000525768" flag="0"/>
    </comp>
  </station>
  <station code="SNT1" name="SNT1" netid="HA" insttype="30" lat="36.4159" lon="25.4282">
    <comp name="--.HHE">
      <acc value="0.0012188106" flag="0"/>
      <vel value="0.0006247753" flag="0"/>
      <psa03 value="0.0030475932" flag="0"/>
      <psa10 value="0.0005932035" flag="0"/>
      <psa30 value="0.0000823030" flag="0"/>
    </comp>
    <comp name="--.HHN">
      <acc value="0.0012386253" flag="0"/>
      <vel value="0.0004437632" flag="0"/>
      <psa03 value="0.0016891270" flag="0"/>
      <psa10 value="0.0005282308" flag="0"/>
      <psa30 value="0.0000774149" flag="0"/>
    </comp>
    <comp name="--.HHZ">
      <acc value="0.0013994090" flag="0"/>
      <vel value="0.0005396631" flag="0"/>
      <psa03 value="0.0026635417" flag="0"/>
      <psa10 value="0.0004272850" flag="0"/>
      <psa30 value="0.0000319282" flag="0"/>
    </comp>
  </station>
  <station code="SNT5" name="SNT5" netid="HA" insttype="1s-100Hz," lat="36.4037" lon="25.3953">
    <comp name="--.HHZ">
      <acc value="0.0042324565" flag="0"/>
      <vel value="0.0007421268" flag="0"/>
      <psa03 value="0.0043063464" flag="0"/>
      <psa10 value="0.0008022295" flag="0"/>
      <psa30 value="0.0000724987" flag="0"/>
    </comp>
    <comp name="--.HHE">
      <acc value="0.0071506812" flag="0"/>
      <vel value="0.0016612136" flag="0"/>
      <psa03 value="0.0084029467" flag="0"/>
      <psa10 value="0.0005443292" flag="0"/>
      <psa30 value="0.0003087710" flag="0"/>
    </comp>
    <comp name="--.HHN">
      <acc value="0.0050258426" flag="0"/>
      <vel value="0.0014189338" flag="0"/>
      <psa03 value="0.0064751016" flag="0"/>
      <psa10 value="0.0004825200" flag="0"/>
      <psa30 value="0.0002234590" flag="0"/>
    </comp>
  </station>
  <station code="THNO" name="THNO" netid="HC" insttype="60" lat="37.6541" lon="25.0221">
    <comp name="--.HHE">
      <acc value="0.0000000000" flag="0"/>
      <vel value="-100.0000000000" flag="0"/>
      <psa03 value="0.0000000000" flag="0"/>
      <psa10 value="0.0000000000" flag="0"/>
      <psa30 value="0.0000000000" flag="0"/>
    </comp>
    <comp name="--.HHN">
      <acc value="0.0000000000" flag="0"/>
      <vel value="-100.0000000000" flag="0"/>
      <psa03 value="0.0000000000" flag="0"/>
      <psa10 value="0.0000000000" flag="0"/>
      <psa30 value="0.0000000000" flag="0"/>
    </comp>
    <comp name="--.HHZ">
      <acc value="0.0008671195" flag="0"/>
      <vel value="0.0002146609" flag="0"/>
      <psa03 value="0.0010915938" flag="0"/>
      <psa10 value="0.0000733019" flag="0"/>
      <psa30 value="0.0000176782" flag="0"/>
    </comp>
  </station>
  <station code="APE" name="APE" netid="HL" insttype="120" lat="37.0727" lon="25.523">
    <comp name="--.HHN">
      <acc value="0.0045979945" flag="0"/>
      <vel value="0.0009787611" flag="0"/>
      <psa03 value="0.0041209535" flag="0"/>
      <psa10 value="0.0003683103" flag="0"/>
      <psa30 value="0.0000430795" flag="0"/>
    </comp>
    <comp name="--.HHE">
      <acc value="0.0034325236" flag="0"/>
      <vel value="0.0009881380" flag="0"/>
      <psa03 value="0.0048845450" flag="0"/>
      <psa10 value="0.0003576736" flag="0"/>
      <psa30 value="0.0000638039" flag="0"/>
    </comp>
    <comp name="--.HHZ">
      <acc value="0.0034722431" flag="0"/>
      <vel value="0.0012896895" flag="0"/>
      <psa03 value="0.0056957027" flag="0"/>
      <psa10 value="0.0006048702" flag="0"/>
      <psa30 value="0.0000600630" flag="0"/>
    </comp>
  </station>
  <station code="SAP3" name="SAP3" netid="HL" insttype="LE3D20_SMART24" lat="36.4356" lon="25.3454">
    <comp name="--.HHN">
      <acc value="0.0340399571" flag="0"/>
      <vel value="0.0103678279" flag="0"/>
      <psa03 value="0.0392104907" flag="0"/>
      <psa10 value="0.0023802573" flag="0"/>
      <psa30 value="0.0004488249" flag="0"/>
    </comp>
    <comp name="--.HHE">
      <acc value="0.0203912745" flag="0"/>
      <vel value="0.0055220102" flag="0"/>
      <psa03 value="0.0222926771" flag="0"/>
      <psa10 value="0.0032730897" flag="0"/>
      <psa30 value="0.0004148653" flag="0"/>
    </comp>
    <comp name="--.HHZ">
      <acc value="0.0250693702" flag="0"/>
      <vel value="0.0085768916" flag="0"/>
      <psa03 value="0.0291276157" flag="0"/>
      <psa10 value="0.0023900811" flag="0"/>
      <psa30 value="0.0003078047" flag="0"/>
    </comp>
  </station>
  <station code="THERA" name="THERA" netid="HL" insttype="120" lat="36.367" lon="25.4753">
    <comp name="--.HHZ">
      <acc value="0.0099882870" flag="0"/>
      <vel value="0.0056477913" flag="0"/>
      <psa03 value="0.0363588142" flag="0"/>
      <psa10 value="0.0016937502" flag="0"/>
      <psa30 value="0.0001463042" flag="0"/>
    </comp>
    <comp name="--.HHN">
      <acc value="0.0014755295" flag="0"/>
      <vel value="0.0005880035" flag="0"/>
      <psa03 value="0.0039349647" flag="0"/>
      <psa10 value="0.0002777384" flag="0"/>
      <psa30 value="0.0000331331" flag="0"/>
    </comp>
    <comp name="--.HHE">
      <acc value="0.0030175724" flag="0"/>
      <vel value="0.0014112645" flag="0"/>
      <psa03 value="0.0107492872" flag="0"/>
      <psa10 value="0.0006638147" flag="0"/>
      <psa30 value="0.0000797024" flag="0"/>
    </comp>
  </station>
  <station code="CMBO" name="CMBO" netid="HT" insttype="120P," lat="36.4709" lon="25.4056">
    <comp name="--.HHE">
      <acc value="0.0123113237" flag="0"/>
      <vel value="0.0047774689" flag="0"/>
      <psa03 value="0.0266507998" flag="0"/>
      <psa10 value="0.0029486424" flag="0"/>
      <psa30 value="0.0003043822" flag="0"/>
    </comp>
    <comp name="--.HHN">
      <acc value="0.0121969061" flag="0"/>
      <vel value="0.0046093129" flag="0"/>
      <psa03 value="0.0340934762" flag="0"/>
      <psa10 value="0.0023856114" flag="0"/>
      <psa30 value="0.0002239541" flag="0"/>
    </comp>
    <comp name="--.HHZ">
      <acc value="0.0219318771" flag="0"/>
      <vel value="0.0120471954" flag="0"/>
      <psa03 value="0.0660513218" flag="0"/>
      <psa10 value="0.0051841481" flag="0"/>
      <psa30 value="0.0004758540" flag="0"/>
    </comp>
  </station>
  <station code="THT1" name="THT1" netid="HT" insttype="30" lat="36.3858" lon="25.4296">
    <comp name="--.HHE">
      <acc value="0.0021688813" flag="0"/>
      <vel value="0.0004501891" flag="0"/>
      <psa03 value="0.0022788998" flag="0"/>
      <psa10 value="0.0003280009" flag="0"/>
      <psa30 value="0.0000464521" flag="0"/>
    </comp>
    <comp name="--.HHN">
      <acc value="0.0020697765" flag="0"/>
      <vel value="0.0005134787" flag="0"/>
      <psa03 value="0.0035809850" flag="0"/>
      <psa10 value="0.0002277489" flag="0"/>
      <psa30 value="0.0000495552" flag="0"/>
    </comp>
    <comp name="--.HHZ">
      <acc value="0.0027337159" flag="0"/>
      <vel value="0.0005221108" flag="0"/>
      <psa03 value="0.0015832455" flag="0"/>
      <psa10 value="0.0004745538" flag="0"/>
      <psa30 value="0.0000627986" flag="0"/>
    </comp>
  </station>
</stationlist>
