<stationlist created="1778138366">
	<station code="KTHA" name="KTHA" netid="GE" source="GEOFON" insttype="" lat="36.2566" lon="23.0621">
		<comp name="--.HNE" depth="0.0">
			<acc value="0.0145047347979574" flag="0"/>
			<vel value="0.00712281566952125" flag="0"/>
			<psa03 value="0.0336478566095415" flag="0"/>
			<psa10 value="0.0039133380675661" flag="0"/>
			<psa30 value="0.00121814048749769" flag="0"/>
		</comp>
		<comp name="--.HNN" depth="0.0">
			<acc value="0.0150961387436103" flag="0"/>
			<vel value="0.00399019365925898" flag="0"/>
			<psa03 value="0.0307384399166395" flag="0"/>
			<psa10 value="0.00361123586727714" flag="0"/>
			<psa30 value="0.00161916622014887" flag="0"/>
		</comp>
		<comp name="--.HNZ" depth="0.0">
			<acc value="0.00968495032136099" flag="0"/>
			<vel value="0.00300394541420871" flag="0"/>
			<psa03 value="0.00967231392041591" flag="0"/>
			<psa10 value="0.00326727503468515" flag="0"/>
			<psa30 value="0.000850111263615705" flag="0"/>
		</comp>
	</station>
	<station code="LTRS" name="LTRS" netid="HA" source="Hellenic Seismological Network, University of Athens, Seismological Laboratory (HA)" insttype="" lat="37.97528" lon="22.9765">
		<comp name="--.HNE" depth="0.0">
			<acc value="0.00614959684961186" flag="0"/>
			<vel value="0.00130463662111252" flag="0"/>
			<psa03 value="0.00497446820596944" flag="0"/>
			<psa10 value="0.00179087512106397" flag="0"/>
			<psa30 value="0.000501985181135873" flag="0"/>
		</comp>
		<comp name="--.HNN" depth="0.0">
			<acc value="0.00526311107251786" flag="0"/>
			<vel value="0.00127960361606656" flag="0"/>
			<psa03 value="0.00346594477110187" flag="0"/>
			<psa10 value="0.00197726504660412" flag="0"/>
			<psa30 value="0.000501960752436914" flag="0"/>
		</comp>
		<comp name="--.HNZ" depth="0.0">
			<acc value="0.0144292087867558" flag="0"/>
			<vel value="0.00238982883203665" flag="0"/>
			<psa03 value="0.00295409543390816" flag="0"/>
			<psa10 value="0.00213854424618588" flag="0"/>
			<psa30 value="0.000470409964433971" flag="0"/>
		</comp>
	</station>
	<station code="ABEA" name="ABEA" netid="HC" source="Seismological Network of Crete (HC)" insttype="" lat="35.5163" lon="24.0113">
		<comp name="--.HNE" depth="0.0">
			<acc value="0.0390218205247976" flag="0"/>
			<vel value="0.00712532088824677" flag="0"/>
			<psa03 value="0.0307156206966415" flag="0"/>
			<psa10 value="0.00170211412389533" flag="0"/>
			<psa30 value="0.000769476963656874" flag="0"/>
		</comp>
		<comp name="--.HNN" depth="0.0">
			<acc value="0.0406318613076197" flag="0"/>
			<vel value="0.00987677818241123" flag="0"/>
			<psa03 value="0.0419210739404149" flag="0"/>
			<psa10 value="0.00303975800967457" flag="0"/>
			<psa30 value="0.00101610345770254" flag="0"/>
		</comp>
		<comp name="--.HNZ" depth="0.0">
			<acc value="0.0314643159869685" flag="0"/>
			<vel value="0.00414934532811482" flag="0"/>
			<psa03 value="0.0147272946213913" flag="0"/>
			<psa10 value="0.00158479861794294" flag="0"/>
			<psa30 value="0.000844653975015473" flag="0"/>
		</comp>
	</station>
	<station code="ATEI" name="ATEI" netid="HC" source="Seismological Network of Crete (HC)" insttype="" lat="35.5193" lon="24.0432">
		<comp name="--.HNE" depth="0.0">
			<acc value="0.025044893439515" flag="0"/>
			<vel value="0.00558620320141165" flag="0"/>
			<psa03 value="0.0322121078523834" flag="0"/>
			<psa10 value="0.00193259126687551" flag="0"/>
			<psa30 value="0.000807325825122381" flag="0"/>
		</comp>
		<comp name="--.HNN" depth="0.0">
			<acc value="0.0346203424595919" flag="0"/>
			<vel value="0.00658692381839166" flag="0"/>
			<psa03 value="0.0312811842041019" flag="0"/>
			<psa10 value="0.00270445321925477" flag="0"/>
			<psa30 value="0.000959271255346842" flag="0"/>
		</comp>
		<comp name="--.HNZ" depth="0.0">
			<acc value="0.0268647771868722" flag="0"/>
			<vel value="0.0055477672642153" flag="0"/>
			<psa03 value="0.0169520539799473" flag="0"/>
			<psa10 value="0.00157878743848095" flag="0"/>
			<psa30 value="0.000994510985637308" flag="0"/>
		</comp>
	</station>
	<station code="DEYA" name="DEYA" netid="HC" source="Seismological Network of Crete (HC)" insttype="" lat="35.4825" lon="24.014">
		<comp name="--.HNE" depth="0.0">
			<acc value="0.0440574249116369" flag="0"/>
			<vel value="0.0114052316614978" flag="0"/>
			<psa03 value="0.0668191660249584" flag="0"/>
			<psa10 value="0.00435649859666143" flag="0"/>
			<psa30 value="0.00132036319675042" flag="0"/>
		</comp>
		<comp name="--.HNN" depth="0.0">
			<acc value="0.0481230020104512" flag="0"/>
			<vel value="0.0113680490400971" flag="0"/>
			<psa03 value="0.0634663397500057" flag="0"/>
			<psa10 value="0.00443524256306597" flag="0"/>
			<psa30 value="0.000923311060658682" flag="0"/>
		</comp>
		<comp name="--.HNZ" depth="0.0">
			<acc value="0.0323072935340679" flag="0"/>
			<vel value="0.00637892543330945" flag="0"/>
			<psa03 value="0.0216277296059623" flag="0"/>
			<psa10 value="0.00241294851787358" flag="0"/>
			<psa30 value="0.00122186521340744" flag="0"/>
		</comp>
	</station>
	<station code="G0LD" name="G0LD" netid="HC" source="Seismological Network of Crete (HC)" insttype="" lat="35.4955" lon="24.0306">
		<comp name="--.HNE" depth="0.0">
			<acc value="0.0356931713824694" flag="0"/>
			<vel value="0.00951105602544815" flag="0"/>
			<psa03 value="0.054969344574383" flag="0"/>
			<psa10 value="0.00593178388906998" flag="0"/>
			<psa30 value="0.000964001985401333" flag="0"/>
		</comp>
		<comp name="--.HNN" depth="0.0">
			<acc value="0.0285603566300104" flag="0"/>
			<vel value="0.00845413998236491" flag="0"/>
			<psa03 value="0.0659891474990445" flag="0"/>
			<psa10 value="0.00399573547911579" flag="0"/>
			<psa30 value="0.00123252321111316" flag="0"/>
		</comp>
		<comp name="--.HNZ" depth="0.0">
			<acc value="0.0242031507342769" flag="0"/>
			<vel value="0.00597052603386798" flag="0"/>
			<psa03 value="0.0331895319769442" flag="0"/>
			<psa10 value="0.00551356321525806" flag="0"/>
			<psa30 value="0.00223446510568146" flag="0"/>
		</comp>
	</station>
	<station code="LENT" name="LENT" netid="HC" source="Seismological Network of Crete (HC)" insttype="" lat="35.5074" lon="24.0402">
		<comp name="--.HNE" depth="0.0">
			<acc value="0.0485669726704018" flag="0"/>
			<vel value="0.00706880728671247" flag="0"/>
			<psa03 value="0.0361237003095064" flag="0"/>
			<psa10 value="0.00266789861018899" flag="0"/>
			<psa30 value="0.000777946847662862" flag="0"/>
		</comp>
		<comp name="--.HNN" depth="0.0">
			<acc value="0.034017475633514" flag="0"/>
			<vel value="0.00620760575716174" flag="0"/>
			<psa03 value="0.0273042488766373" flag="0"/>
			<psa10 value="0.00246392775437" flag="0"/>
			<psa30 value="0.000796614334292147" flag="0"/>
		</comp>
		<comp name="--.HNZ" depth="0.0">
			<acc value="0.0364076410457542" flag="0"/>
			<vel value="0.00517216495247459" flag="0"/>
			<psa03 value="0.0224977716169753" flag="0"/>
			<psa10 value="0.00163549213238931" flag="0"/>
			<psa30 value="0.000589941632821949" flag="0"/>
		</comp>
	</station>
	<station code="MULT" name="MULT" netid="HC" source="Seismological Network of Crete (HC)" insttype="" lat="35.5091" lon="24.0118">
		<comp name="--.HNE" depth="0.0">
			<acc value="0.0580699999362818" flag="0"/>
			<vel value="0.0100068849923187" flag="0"/>
			<psa03 value="0.0239959932626112" flag="0"/>
			<psa10 value="0.00198989916480423" flag="0"/>
			<psa30 value="0.00104900063697888" flag="0"/>
		</comp>
		<comp name="--.HNN" depth="0.0">
			<acc value="0.0477323260068543" flag="0"/>
			<vel value="0.00766278404773208" flag="0"/>
			<psa03 value="0.0273501633765852" flag="0"/>
			<psa10 value="0.00278191436630051" flag="0"/>
			<psa30 value="0.00147594621169235" flag="0"/>
		</comp>
		<comp name="--.HNZ" depth="0.0">
			<acc value="0.064498914457013" flag="0"/>
			<vel value="0.00892336035675484" flag="0"/>
			<psa03 value="0.0220484371632454" flag="0"/>
			<psa10 value="0.00563094224103081" flag="0"/>
			<psa30 value="0.00250913309275326" flag="0"/>
		</comp>
	</station>
	<station code="NERO" name="NERO" netid="HC" source="Seismological Network of Crete (HC)" insttype="" lat="35.474" lon="24.0423">
		<comp name="--.HNE" depth="0.0">
			<acc value="0.0172791334233725" flag="0"/>
			<vel value="0.00353244732257066" flag="0"/>
			<psa03 value="0.017589529803375" flag="0"/>
			<psa10 value="0.00202662956676267" flag="0"/>
			<psa30 value="0.000622459620313329" flag="0"/>
		</comp>
		<comp name="--.HNN" depth="0.0">
			<acc value="0.0215823312316537" flag="0"/>
			<vel value="0.00367738686060903" flag="0"/>
			<psa03 value="0.0232121444614936" flag="0"/>
			<psa10 value="0.00625493623382643" flag="0"/>
			<psa30 value="0.00106980378591617" flag="0"/>
		</comp>
		<comp name="--.HNZ" depth="0.0">
			<acc value="0.0160971276377067" flag="0"/>
			<vel value="0.00358113072443932" flag="0"/>
			<psa03 value="0.0112167743062387" flag="0"/>
			<psa10 value="0.00174216560523204" flag="0"/>
			<psa30 value="0.000636017601796278" flag="0"/>
		</comp>
	</station>
	<station code="PASK" name="PASK" netid="HC" source="Seismological Network of Crete (HC)" insttype="" lat="35.4996" lon="24.0121">
		<comp name="--.HNE" depth="0.0">
			<acc value="0.0273581074414473" flag="0"/>
			<vel value="0.00879154537710269" flag="0"/>
			<psa03 value="0.0366944178042735" flag="0"/>
			<psa10 value="0.005258950410895" flag="0"/>
			<psa30 value="0.000704688921764284" flag="0"/>
		</comp>
		<comp name="--.HNN" depth="0.0">
			<acc value="0.0286068415716" flag="0"/>
			<vel value="0.0075625769132827" flag="0"/>
			<psa03 value="0.0339060872577117" flag="0"/>
			<psa10 value="0.00280517059440813" flag="0"/>
			<psa30 value="0.000995167695808877" flag="0"/>
		</comp>
		<comp name="--.HNZ" depth="0.0">
			<acc value="0.0275114156220024" flag="0"/>
			<vel value="0.00532482049115177" flag="0"/>
			<psa03 value="0.0271614581674789" flag="0"/>
			<psa10 value="0.00203871403917581" flag="0"/>
			<psa30 value="0.000801264642351022" flag="0"/>
		</comp>
	</station>
	<station code="POLY" name="POLY" netid="HC" source="Seismological Network of Crete (HC)" insttype="" lat="35.5226" lon="24.0602">
		<comp name="--.HNE" depth="0.0">
			<acc value="0.0170949091972977" flag="0"/>
			<vel value="0.0036530949953936" flag="0"/>
			<psa03 value="0.0211965070291466" flag="0"/>
			<psa10 value="0.00163837384672584" flag="0"/>
			<psa30 value="0.0010496381792133" flag="0"/>
		</comp>
		<comp name="--.HNN" depth="0.0">
			<acc value="0.0289290539468198" flag="0"/>
			<vel value="0.00576236839043356" flag="0"/>
			<psa03 value="0.0202808552258564" flag="0"/>
			<psa10 value="0.00178996345910883" flag="0"/>
			<psa30 value="0.000894139336509528" flag="0"/>
		</comp>
		<comp name="--.HNZ" depth="0.0">
			<acc value="0.026203340392688" flag="0"/>
			<vel value="0.00354990838072404" flag="0"/>
			<psa03 value="0.0170717142506406" flag="0"/>
			<psa10 value="0.00137922921873004" flag="0"/>
			<psa30 value="0.000857399038062227" flag="0"/>
		</comp>
	</station>
	<station code="SOUD" name="SOUD" netid="HC" source="Seismological Network of Crete (HC)" insttype="" lat="35.4878" lon="24.0678">
		<comp name="--.HNE" depth="0.0">
			<acc value="0.0649028754670619" flag="0"/>
			<vel value="0.0150826578673466" flag="0"/>
			<psa03 value="0.0704010595581256" flag="0"/>
			<psa10 value="0.00436058402355204" flag="0"/>
			<psa30 value="0.000949496545317897" flag="0"/>
		</comp>
		<comp name="--.HNN" depth="0.0">
			<acc value="0.0501942673399827" flag="0"/>
			<vel value="0.0158496038245428" flag="0"/>
			<psa03 value="0.0475566399774788" flag="0"/>
			<psa10 value="0.00284174981447768" flag="0"/>
			<psa30 value="0.00121199799725112" flag="0"/>
		</comp>
		<comp name="--.HNZ" depth="0.0">
			<acc value="0.0063473228957871" flag="0"/>
			<vel value="0.00359129598737551" flag="0"/>
			<psa03 value="0.00742887754335983" flag="0"/>
			<psa10 value="0.00444021539247565" flag="0"/>
			<psa30 value="0.00244920599787716" flag="0"/>
		</comp>
	</station>
	<station code="CH01" name="CH01" netid="HI" source="ITSAK Strong Motion Network" insttype="" lat="35.517" lon="24.0208">
		<comp name="--.HNE" depth="0.0">
			<acc value="0.0285250526178236" flag="0"/>
			<vel value="0.00559930737906695" flag="0"/>
			<psa03 value="0.0219607855234079" flag="0"/>
			<psa10 value="0.0017692888082628" flag="0"/>
			<psa30 value="0.000224970840714056" flag="0"/>
		</comp>
		<comp name="--.HNN" depth="0.0">
			<acc value="0.0320554678060507" flag="0"/>
			<vel value="0.0080362860966571" flag="0"/>
			<psa03 value="0.0378253599111084" flag="0"/>
			<psa10 value="0.00274526506346177" flag="0"/>
			<psa30 value="0.000212564589173214" flag="0"/>
		</comp>
		<comp name="--.HNZ" depth="0.0">
			<acc value="0.0193494220570182" flag="0"/>
			<vel value="0.00353824106999954" flag="0"/>
			<psa03 value="0.0133059452556585" flag="0"/>
			<psa10 value="0.000965438936059304" flag="0"/>
			<psa30 value="9.70766912712021e-05" flag="0"/>
		</comp>
	</station>
	<station code="NPS1" name="NPS1" netid="HI" source="ITSAK Strong Motion Network" insttype="" lat="36.51263" lon="23.06248">
		<comp name="--.HNE" depth="0.0">
			<acc value="0.0137321818608436" flag="0"/>
			<vel value="0.00484472591995598" flag="0"/>
			<psa03 value="0.0206661593962375" flag="0"/>
			<psa10 value="0.0026573597089121" flag="0"/>
			<psa30 value="0.000184887273916386" flag="0"/>
		</comp>
		<comp name="--.HNN" depth="0.0">
			<acc value="0.0144066376485203" flag="0"/>
			<vel value="0.00432870398431697" flag="0"/>
			<psa03 value="0.0201369459529867" flag="0"/>
			<psa10 value="0.00184405235473257" flag="0"/>
			<psa30 value="0.000197998116403671" flag="0"/>
		</comp>
		<comp name="--.HNZ" depth="0.0">
			<acc value="0.0134435134212377" flag="0"/>
			<vel value="0.00355386189326229" flag="0"/>
			<psa03 value="0.0122210140093013" flag="0"/>
			<psa10 value="0.00107557722827492" flag="0"/>
			<psa30 value="6.38315787892439e-05" flag="0"/>
		</comp>
	</station>
	<station code="IMMV" name="IMMV" netid="HL" source="National Observatory of Athens Seismic Network" insttype="" lat="35.4606" lon="23.9811">
		<comp name="--.HNE" depth="0.0">
			<acc value="0.0157538756617305" flag="0"/>
			<vel value="0.00420775046037119" flag="0"/>
			<psa03 value="0.0164431374542592" flag="0"/>
			<psa10 value="0.00176803048271585" flag="0"/>
			<psa30 value="0.000203811678606938" flag="0"/>
		</comp>
		<comp name="--.HNN" depth="0.0">
			<acc value="0.0211481359410087" flag="0"/>
			<vel value="0.00368702306420728" flag="0"/>
			<psa03 value="0.0267919180622451" flag="0"/>
			<psa10 value="0.00158395598399751" flag="0"/>
			<psa30 value="0.000105839791314864" flag="0"/>
		</comp>
		<comp name="--.HNZ" depth="0.0">
			<acc value="0.0110360757519409" flag="0"/>
			<vel value="0.00332421353245197" flag="0"/>
			<psa03 value="0.0153239864930781" flag="0"/>
			<psa10 value="0.000956885381146215" flag="0"/>
			<psa30 value="0.000102187980389538" flag="0"/>
		</comp>
	</station>
	<station code="MNVA" name="MNVA" netid="HL" source="National Observatory of Athens Seismic Network" insttype="" lat="36.68709" lon="23.03734">
		<comp name="00.HNE" depth="0.0">
			<acc value="0.00615388388429014" flag="0"/>
			<vel value="0.00251708627602535" flag="0"/>
			<psa03 value="0.00913553682512274" flag="0"/>
			<psa10 value="0.0015061771205936" flag="0"/>
			<psa30 value="8.06873763924711e-05" flag="0"/>
		</comp>
		<comp name="00.HNN" depth="0.0">
			<acc value="0.00935790522337533" flag="0"/>
			<vel value="0.00302099235271192" flag="0"/>
			<psa03 value="0.0154536721674577" flag="0"/>
			<psa10 value="0.000789550174918764" flag="0"/>
			<psa30 value="0.000118661558662409" flag="0"/>
		</comp>
		<comp name="00.HNZ" depth="0.0">
			<acc value="0.00581305150528577" flag="0"/>
			<vel value="0.00184223741250941" flag="0"/>
			<psa03 value="0.0138355532562686" flag="0"/>
			<psa10 value="0.000989834946706767" flag="0"/>
			<psa30 value="8.84921447224004e-05" flag="0"/>
		</comp>
	</station>
	<station code="NOAC" name="NOAC" netid="HL" source="National Observatory of Athens Seismic Network" insttype="" lat="37.97384" lon="23.71767">
		<comp name="00.HNE" depth="0.0">
			<acc value="0.0015879319267453" flag="0"/>
			<vel value="0.000306824556137859" flag="0"/>
			<psa03 value="0.00165715014264954" flag="0"/>
			<psa10 value="0.000288440543317081" flag="0"/>
			<psa30 value="5.74796996751602e-05" flag="0"/>
		</comp>
		<comp name="00.HNN" depth="0.0">
			<acc value="0.00119600778889842" flag="0"/>
			<vel value="0.000459268138439475" flag="0"/>
			<psa03 value="0.00150038422382185" flag="0"/>
			<psa10 value="0.000587189406229989" flag="0"/>
			<psa30 value="8.25767007697413e-05" flag="0"/>
		</comp>
		<comp name="00.HNZ" depth="0.0">
			<acc value="0.00145981264422475" flag="0"/>
			<vel value="0.000622621940518601" flag="0"/>
			<psa03 value="0.00229467854114088" flag="0"/>
			<psa10 value="0.00041088067586005" flag="0"/>
			<psa30 value="6.73395325280263e-05" flag="0"/>
		</comp>
	</station>
	<station code="SMG" name="SMG" netid="HL" source="National Observatory of Athens Seismic Network" insttype="" lat="37.70425" lon="26.83772">
		<comp name="00.HNE" depth="0.0">
			<acc value="0.000288594555797087" flag="0"/>
			<vel value="0.000175138835099285" flag="0"/>
			<psa03 value="0.0005020958427648" flag="0"/>
			<psa10 value="0.000148141610529745" flag="0"/>
			<psa30 value="6.73056305428686e-05" flag="0"/>
		</comp>
		<comp name="00.HNN" depth="0.0">
			<acc value="0.000228747806760375" flag="0"/>
			<vel value="0.000225559044539477" flag="0"/>
			<psa03 value="0.000434745393173258" flag="0"/>
			<psa10 value="0.000286990837906412" flag="0"/>
			<psa30 value="3.54104642590456e-05" flag="0"/>
		</comp>
		<comp name="00.HNZ" depth="0.0">
			<acc value="0.000296471029145335" flag="0"/>
			<vel value="0.000159674957485829" flag="0"/>
			<psa03 value="0.000504864458788114" flag="0"/>
			<psa10 value="0.000123257100724741" flag="0"/>
			<psa30 value="5.22789352280454e-05" flag="0"/>
		</comp>
	</station>
	<station code="THRA" name="THRA" netid="HL" source="National Observatory of Athens Seismic Network" insttype="" lat="36.41502" lon="25.43244">
		<comp name="00.HNE" depth="0.0">
			<acc value="0.00752265811394313" flag="0"/>
			<vel value="0.00248606334034954" flag="0"/>
			<psa03 value="0.013674343358126" flag="0"/>
			<psa10 value="0.00162504136195266" flag="0"/>
			<psa30 value="0.000172869993455213" flag="0"/>
		</comp>
		<comp name="00.HNN" depth="0.0">
			<acc value="0.00633309264597843" flag="0"/>
			<vel value="0.00269537155306618" flag="0"/>
			<psa03 value="0.00889160074365156" flag="0"/>
			<psa10 value="0.00166920909253667" flag="0"/>
			<psa30 value="0.000207661790428644" flag="0"/>
		</comp>
		<comp name="00.HNZ" depth="0.0">
			<acc value="0.0120569496188169" flag="0"/>
			<vel value="0.00199797117967703" flag="0"/>
			<psa03 value="0.011204566466303" flag="0"/>
			<psa10 value="0.00145850208735582" flag="0"/>
			<psa30 value="9.70397747628715e-05" flag="0"/>
		</comp>
	</station>
	<station code="TNSA" name="TNSA" netid="HL" source="National Observatory of Athens Seismic Network" insttype="" lat="37.53942" lon="25.1631">
		<comp name="00.HNE" depth="0.0">
			<acc value="0.00131598502179902" flag="0"/>
			<vel value="0.00039999435276621" flag="0"/>
			<psa03 value="0.00113288640884145" flag="0"/>
			<psa10 value="0.000406323215746931" flag="0"/>
			<psa30 value="5.83085696878694e-05" flag="0"/>
		</comp>
		<comp name="00.HNN" depth="0.0">
			<acc value="0.00149278512489476" flag="0"/>
			<vel value="0.000513327753629358" flag="0"/>
			<psa03 value="0.00144364576465738" flag="0"/>
			<psa10 value="0.000331696992829159" flag="0"/>
			<psa30 value="8.39764224008857e-05" flag="0"/>
		</comp>
		<comp name="00.HNZ" depth="0.0">
			<acc value="0.00185575027634392" flag="0"/>
			<vel value="0.000407927988732069" flag="0"/>
			<psa03 value="0.000926908082798559" flag="0"/>
