<?xml version="1.0" encoding="UTF-8" standalone="yes"?>
<!DOCTYPE earthquake SYSTEM "stationlist.dtd">
<stationlist created="" xmlns="ch.ethz.sed.shakemap.usgs.xml">
  <station code="DARE" name="DARE" netid="KO" insttype="CMG-3ESP" lat="38.5712" lon="37.4832">
    <comp name="--.HHZ">
      <acc value="0.0185652967" flag="0"/>
      <vel value="0.0080302469" flag="0"/>
      <psa03 value="0.0292224305" flag="0"/>
      <psa10 value="0.0082754140" flag="0"/>
      <psa30 value="0.0005958472" flag="0"/>
    </comp>
    <comp name="--.HHE">
      <acc value="0.0181224035" flag="0"/>
      <vel value="0.0086534860" flag="0"/>
      <psa03 value="0.0304313537" flag="0"/>
      <psa10 value="0.0075534532" flag="0"/>
      <psa30 value="0.0005259584" flag="0"/>
    </comp>
  </station>
  <station code="KMRS" name="KMRS" netid="KO" insttype="CMG-3T" lat="37.5053" lon="36.9">
    <comp name="--.HHE">
      <acc value="0.0063078705" flag="0"/>
      <vel value="0.0028519077" flag="0"/>
      <psa03 value="0.0141772741" flag="0"/>
      <psa10 value="0.0038601901" flag="0"/>
      <psa30 value="0.0003591775" flag="0"/>
    </comp>
    <comp name="--.HHN">
      <acc value="0.0105476192" flag="0"/>
      <vel value="0.0039378967" flag="0"/>
      <psa03 value="0.0269072455" flag="0"/>
      <psa10 value="0.0028706207" flag="0"/>
      <psa30 value="0.0008266280" flag="0"/>
    </comp>
    <comp name="--.HHZ">
      <acc value="0.0044100667" flag="0"/>
      <vel value="0.0025015600" flag="0"/>
      <psa03 value="0.0144111787" flag="0"/>
      <psa10 value="0.0023300927" flag="0"/>
      <psa30 value="0.0004501641" flag="0"/>
    </comp>
  </station>
  <station code="SARI" name="SARI" netid="KO" insttype="CMG-3T" lat="38.4072" lon="36.4181">
    <comp name="--.HHN">
      <acc value="0.0082743320" flag="0"/>
      <vel value="0.0039907056" flag="0"/>
      <psa03 value="0.0242235001" flag="0"/>
      <psa10 value="0.0067688140" flag="0"/>
      <psa30 value="0.0002395965" flag="0"/>
    </comp>
  </station>
  <station code="URFA" name="URFA" netid="KO" insttype="CMG-3ESP" lat="37.4409" lon="38.8213">
    <comp name="--.HHE">
      <acc value="0.0317203319" flag="0"/>
      <vel value="0.0121338742" flag="0"/>
      <psa03 value="0.0564622220" flag="0"/>
      <psa10 value="0.0042368842" flag="0"/>
      <psa30 value="0.0004345860" flag="0"/>
    </comp>
    <comp name="--.HHZ">
      <acc value="0.0284271897" flag="0"/>
      <vel value="0.0081804318" flag="0"/>
      <psa03 value="0.0349272623" flag="0"/>
      <psa10 value="0.0045642440" flag="0"/>
      <psa30 value="0.0004145300" flag="0"/>
    </comp>
  </station>
  <station code="ANDN" name="ANDN" netid="TU" insttype="T" lat="37.58" lon="36.3452">
    <comp name="--.HHN">
      <acc value="0.0238778158" flag="0"/>
      <vel value="0.0094695388" flag="0"/>
      <psa03 value="0.0463573864" flag="0"/>
      <psa10 value="0.0106469218" flag="0"/>
      <psa30 value="0.0004559865" flag="0"/>
    </comp>
    <comp name="--.HHE">
      <acc value="0.0198921753" flag="0"/>
      <vel value="0.0060942644" flag="0"/>
      <psa03 value="0.0317344768" flag="0"/>
      <psa10 value="0.0051679287" flag="0"/>
      <psa30 value="0.0006071319" flag="0"/>
    </comp>
    <comp name="--.HHZ">
      <acc value="0.0095988732" flag="0"/>
      <vel value="0.0042185026" flag="0"/>
      <psa03 value="0.0211134233" flag="0"/>
      <psa10 value="0.0074035004" flag="0"/>
      <psa30 value="0.0004518050" flag="0"/>
    </comp>
  </station>
</stationlist>
