<?xml version="1.0" encoding="UTF-8" standalone="yes"?>
<!DOCTYPE earthquake SYSTEM "stationlist.dtd">
<stationlist created="" xmlns="ch.ethz.sed.shakemap.usgs.xml">
  <station code="ALAN" name="ALAN" netid="KO" insttype="CMG-5T" lat="36.557" lon="32.0327">
    <comp name="--.HNE">
      <acc value="0.2322987617" flag="0"/>
      <vel value="0.0860812209" flag="0"/>
      <psa03 value="0.4997580523" flag="0"/>
      <psa10 value="0.0313567058" flag="0"/>
      <psa30 value="0.0024455588" flag="0"/>
    </comp>
    <comp name="--.HNN">
      <acc value="0.1583240999" flag="0"/>
      <vel value="0.0734645557" flag="0"/>
      <psa03 value="0.2831583723" flag="0"/>
      <psa10 value="0.0481419901" flag="0"/>
      <psa30 value="0.0030886203" flag="0"/>
    </comp>
    <comp name="--.HNZ">
      <acc value="0.0826891200" flag="0"/>
      <vel value="0.0291140929" flag="0"/>
      <psa03 value="0.1176888891" flag="0"/>
      <psa10 value="0.0135144994" flag="0"/>
      <psa30 value="0.0008291151" flag="0"/>
    </comp>
  </station>
</stationlist>
