<?xml version="1.0" encoding="UTF-8" standalone="yes"?>
<!DOCTYPE earthquake SYSTEM "stationlist.dtd">
<stationlist created="" xmlns="ch.ethz.sed.shakemap.usgs.xml">
  <station code="ZKR" name="ZKR" netid="GE" insttype="STS-2/N" commtype="DIG" lat="35.1147" lon="26.2169">
    <comp name="--.HHN">
      <acc value="0.1132081147" flag="0"/>
      <vel value="0.0428908875" flag="0"/>
      <psa03 value="0.2992445833" flag="0"/>
      <psa10 value="0.0216064329" flag="0"/>
      <psa30 value="0.0021230903" flag="0"/>
    </comp>
    <comp name="--.HHZ">
      <acc value="0.1621842910" flag="0"/>
      <vel value="0.0491814030" flag="0"/>
      <psa03 value="0.3254195675" flag="0"/>
      <psa10 value="0.0356040022" flag="0"/>
      <psa30 value="0.0037318817" flag="0"/>
    </comp>
    <comp name="--.HHE">
      <acc value="0.2338334909" flag="0"/>
      <vel value="0.1030990837" flag="0"/>
      <psa03 value="0.7336103214" flag="0"/>
      <psa10 value="0.0524664844" flag="0"/>
      <psa30 value="0.0039143832" flag="0"/>
    </comp>
  </station>
  <station code="KNSS" name="KNSS" netid="HC" insttype="60" commtype="DIG" lat="35.3042" lon="25.1802">
    <comp name="--.HHE">
      <acc value="0.0000000000" flag="0"/>
      <vel value="-100.0000000000" flag="0"/>
      <psa03 value="0.0000000000" flag="0"/>
      <psa10 value="0.0000000000" flag="0"/>
      <psa30 value="0.0000000000" flag="0"/>
    </comp>
    <comp name="--.HHN">
      <acc value="0.0114597146" flag="0"/>
      <vel value="0.0072708303" flag="0"/>
      <psa03 value="0.0466036372" flag="0"/>
      <psa10 value="0.0082598325" flag="0"/>
      <psa30 value="0.0009372162" flag="0"/>
    </comp>
    <comp name="--.HHZ">
      <acc value="0.0126340232" flag="0"/>
      <vel value="0.0047363322" flag="0"/>
      <psa03 value="0.0195328151" flag="0"/>
      <psa10 value="0.0029123017" flag="0"/>
      <psa30 value="0.0016324966" flag="0"/>
    </comp>
  </station>
  <station code="PFKS" name="PFKS" netid="HC" insttype="120" commtype="DIG" lat="35.0429" lon="25.4733">
    <comp name="--.HHZ">
      <acc value="0.0509582011" flag="0"/>
      <vel value="0.0277668423" flag="0"/>
      <psa03 value="0.2102912482" flag="0"/>
      <psa10 value="0.0256035934" flag="0"/>
      <psa30 value="0.0013898714" flag="0"/>
    </comp>
    <comp name="--.HHE">
      <acc value="0.1983679108" flag="0"/>
      <vel value="0.0725781133" flag="0"/>
      <psa03 value="0.5015175733" flag="0"/>
      <psa10 value="0.0388655648" flag="0"/>
      <psa30 value="0.0026143226" flag="0"/>
    </comp>
    <comp name="--.HHN">
      <acc value="0.0885037529" flag="0"/>
      <vel value="0.0490943950" flag="0"/>
      <psa03 value="0.2215656979" flag="0"/>
      <psa10 value="0.0367603374" flag="0"/>
      <psa30 value="0.0025899963" flag="0"/>
    </comp>
  </station>
  <station code="STIA" name="STIA" netid="HC" insttype="120" commtype="DIG" lat="35.2021" lon="26.0909">
    <comp name="--.HHE">
      <acc value="0.1737608821" flag="0"/>
      <vel value="0.0845221947" flag="0"/>
      <psa03 value="0.2056493884" flag="0"/>
      <psa10 value="0.1150785794" flag="0"/>
      <psa30 value="0.0055229988" flag="0"/>
    </comp>
    <comp name="--.HHZ">
      <acc value="0.1683226841" flag="0"/>
      <vel value="0.0493387996" flag="0"/>
      <psa03 value="0.1668592531" flag="0"/>
      <psa10 value="0.0493722043" flag="0"/>
      <psa30 value="0.0036751934" flag="0"/>
    </comp>
    <comp name="--.HHN">
      <acc value="0.1525361589" flag="0"/>
      <vel value="0.0686884902" flag="0"/>
      <psa03 value="0.2063818108" flag="0"/>
      <psa10 value="0.0522398014" flag="0"/>
      <psa30 value="0.0034366428" flag="0"/>
    </comp>
  </station>
  <station code="AGN1" name="AGN1" netid="HI" insttype="unknown" commtype="DIG" lat="35.1879" lon="25.7155">
    <comp name="--.HNE">
      <acc value="0.0004049292" flag="0"/>
      <vel value="0.0007375051" flag="0"/>
      <psa03 value="0.0005144270" flag="0"/>
      <psa10 value="0.0004595974" flag="0"/>
      <psa30 value="0.0002528440" flag="0"/>
    </comp>
    <comp name="--.HNN">
      <acc value="0.0802020351" flag="0"/>
      <vel value="0.0209425628" flag="0"/>
      <psa03 value="0.1285788883" flag="0"/>
      <psa10 value="0.0194902320" flag="0"/>
      <psa30 value="0.0037045473" flag="0"/>
    </comp>
    <comp name="--.HNZ">
      <acc value="0.0426722541" flag="0"/>
      <vel value="0.0108593391" flag="0"/>
      <psa03 value="0.0395173158" flag="0"/>
      <psa10 value="0.0093478546" flag="0"/>
      <psa30 value="0.0022754537" flag="0"/>
    </comp>
  </station>
  <station code="ARK1" name="ARK1" netid="HI" insttype="unknown" commtype="DIG" lat="35.1488" lon="25.2642">
    <comp name="--.HNE">
      <acc value="0.0314985897" flag="0"/>
      <vel value="0.0166614731" flag="0"/>
      <psa03 value="0.0819203151" flag="0"/>
      <psa10 value="0.0196381047" flag="0"/>
      <psa30 value="0.0023802060" flag="0"/>
    </comp>
    <comp name="--.HNN">
      <acc value="0.0296946530" flag="0"/>
      <vel value="0.0177050413" flag="0"/>
      <psa03 value="0.0621278037" flag="0"/>
      <psa10 value="0.0251649874" flag="0"/>
      <psa30 value="0.0031377181" flag="0"/>
    </comp>
    <comp name="--.HNZ">
      <acc value="0.0218841822" flag="0"/>
      <vel value="0.0142715063" flag="0"/>
      <psa03 value="0.0564598162" flag="0"/>
      <psa10 value="0.0222005640" flag="0"/>
      <psa30 value="0.0017159761" flag="0"/>
    </comp>
  </station>
  <station code="KSS1" name="KSS1" netid="HI" insttype="CMG-5TD,ACCELEROMETER,GURALP" commtype="DIG" lat="35.4189" lon="26.9207">
    <comp name="--.HNE">
      <acc value="0.0067123032" flag="0"/>
      <vel value="0.0033785316" flag="0"/>
      <psa03 value="0.0216870580" flag="0"/>
      <psa10 value="0.0033872414" flag="0"/>
      <psa30 value="0.0009813238" flag="0"/>
    </comp>
    <comp name="--.HNN">
      <acc value="0.0112977380" flag="0"/>
      <vel value="0.0049548859" flag="0"/>
      <psa03 value="0.0422416209" flag="0"/>
      <psa10 value="0.0044445550" flag="0"/>
      <psa30 value="0.0006336204" flag="0"/>
    </comp>
    <comp name="--.HNZ">
      <acc value="0.0053011505" flag="0"/>
      <vel value="0.0034953289" flag="0"/>
      <psa03 value="0.0096386297" flag="0"/>
      <psa10 value="0.0039862755" flag="0"/>
      <psa30 value="0.0004377640" flag="0"/>
    </comp>
  </station>
  <station code="SIT2" name="SIT2" netid="HI" insttype="CMG-5TD,ACCELEROMETER,GURALP" commtype="DIG" lat="35.2059" lon="26.107">
    <comp name="--.HNN">
      <acc value="0.3714393790" flag="0"/>
      <vel value="0.2907184810" flag="0"/>
      <psa03 value="0.8915752710" flag="0"/>
      <psa10 value="0.1802345184" flag="0"/>
      <psa30 value="0.0109245602" flag="0"/>
    </comp>
    <comp name="--.HNE">
      <acc value="0.2997048282" flag="0"/>
      <vel value="0.1985778857" flag="0"/>
      <psa03 value="0.7545644205" flag="0"/>
      <psa10 value="0.1784994573" flag="0"/>
      <psa30 value="0.0098766580" flag="0"/>
    </comp>
    <comp name="--.HNZ">
      <acc value="0.1967177012" flag="0"/>
      <vel value="0.0721392233" flag="0"/>
      <psa03 value="0.3999501593" flag="0"/>
      <psa10 value="0.0350380276" flag="0"/>
      <psa30 value="0.0038973172" flag="0"/>
    </comp>
  </station>
</stationlist>
