<?xml version="1.0" encoding="UTF-8" standalone="yes"?>
<!DOCTYPE earthquake SYSTEM "stationlist.dtd">
<stationlist created="" xmlns="ch.ethz.sed.shakemap.usgs.xml">
  <station code="MYT1" name="MYT1" netid="HI" insttype="CMG-5TD,ACCELEROMETER,GURALP" lat="39.085" lon="26.5694">
    <comp name="--.HNE">
      <acc value="0.0167795114" flag="0"/>
      <vel value="0.0094934373" flag="0"/>
      <psa03 value="0.0403016080" flag="0"/>
      <psa10 value="0.0087213629" flag="0"/>
      <psa30 value="0.0011965119" flag="0"/>
    </comp>
    <comp name="--.HNN">
      <acc value="0.0233083111" flag="0"/>
      <vel value="0.0095930863" flag="0"/>
      <psa03 value="0.0439219008" flag="0"/>
      <psa10 value="0.0128967161" flag="0"/>
      <psa30 value="0.0006008204" flag="0"/>
    </comp>
    <comp name="--.HNZ">
      <acc value="0.0216884444" flag="0"/>
      <vel value="0.0062203423" flag="0"/>
      <psa03 value="0.0279478660" flag="0"/>
      <psa10 value="0.0078899407" flag="0"/>
      <psa30 value="0.0004941386" flag="0"/>
    </comp>
  </station>
  <station code="PRK" name="PRK" netid="HL" insttype="120" lat="39.2456" lon="26.265">
    <comp name="--.HHE">
      <acc value="0.0272524804" flag="0"/>
      <vel value="0.0174168119" flag="0"/>
      <psa03 value="0.0884475015" flag="0"/>
      <psa10 value="0.0303952138" flag="0"/>
      <psa30 value="0.0022541836" flag="0"/>
    </comp>
    <comp name="--.HHZ">
      <acc value="0.0250754251" flag="0"/>
      <vel value="0.0160743809" flag="0"/>
      <psa03 value="0.0653554868" flag="0"/>
      <psa10 value="0.0191280743" flag="0"/>
      <psa30 value="0.0013911194" flag="0"/>
    </comp>
    <comp name="--.HHN">
      <acc value="0.0246652184" flag="0"/>
      <vel value="0.0173002109" flag="0"/>
      <psa03 value="0.0828586104" flag="0"/>
      <psa10 value="0.0294141688" flag="0"/>
      <psa30 value="0.0022072681" flag="0"/>
    </comp>
  </station>
  <station code="PSRA" name="PSRA" netid="HL" insttype="CMG-5" lat="38.5398" lon="25.562">
    <comp name="00.HNN">
      <acc value="0.0305508425" flag="0"/>
      <vel value="0.0095854313" flag="0"/>
      <psa03 value="0.0568191875" flag="0"/>
      <psa10 value="0.0044020056" flag="0"/>
      <psa30 value="0.0005210132" flag="0"/>
    </comp>
    <comp name="00.HNZ">
      <acc value="0.0136878702" flag="0"/>
      <vel value="0.0045689613" flag="0"/>
      <psa03 value="0.0314302106" flag="0"/>
      <psa10 value="0.0029958250" flag="0"/>
      <psa30 value="0.0002694125" flag="0"/>
    </comp>
    <comp name="00.HNE">
      <acc value="0.0348491134" flag="0"/>
      <vel value="0.0117560847" flag="0"/>
      <psa03 value="0.0794830024" flag="0"/>
      <psa10 value="0.0077434877" flag="0"/>
      <psa30 value="0.0004323768" flag="0"/>
    </comp>
  </station>
  <station code="CHOS" name="CHOS" netid="HT" insttype="100" lat="38.3869" lon="26.0506">
    <comp name="--.HHN">
      <acc value="0.0128998445" flag="0"/>
      <vel value="0.0057833272" flag="0"/>
      <psa03 value="0.0303959651" flag="0"/>
      <psa10 value="0.0076984457" flag="0"/>
      <psa30 value="0.0009813076" flag="0"/>
    </comp>
    <comp name="--.HHE">
      <acc value="0.0141750093" flag="0"/>
      <vel value="0.0067036365" flag="0"/>
      <psa03 value="0.0323291924" flag="0"/>
      <psa10 value="0.0087464187" flag="0"/>
      <psa30 value="0.0006498267" flag="0"/>
    </comp>
    <comp name="--.HHZ">
      <acc value="0.0078870099" flag="0"/>
      <vel value="0.0032379264" flag="0"/>
      <psa03 value="0.0184929964" flag="0"/>
      <psa10 value="0.0049697873" flag="0"/>
      <psa30 value="0.0005544006" flag="0"/>
    </comp>
  </station>
  <station code="LES3" name="LES3" netid="HT" insttype="" lat="39.3032" lon="26.1807">
    <comp name="--.HHE">
      <acc value="0.0206627309" flag="0"/>
      <vel value="0.0096814598" flag="0"/>
      <psa03 value="0.1011436131" flag="0"/>
      <psa10 value="0.0059507250" flag="0"/>
      <psa30 value="0.0012169935" flag="0"/>
    </comp>
    <comp name="--.HHN">
      <acc value="0.0250818801" flag="0"/>
      <vel value="0.0132931492" flag="0"/>
      <psa03 value="0.0760465588" flag="0"/>
      <psa10 value="0.0099364248" flag="0"/>
      <psa30 value="0.0013797238" flag="0"/>
    </comp>
    <comp name="--.HHZ">
      <acc value="0.0114381123" flag="0"/>
      <vel value="0.0047649945" flag="0"/>
      <psa03 value="0.0329874542" flag="0"/>
      <psa10 value="0.0067303810" flag="0"/>
      <psa30 value="0.0007345831" flag="0"/>
    </comp>
  </station>
  <station code="SIGR" name="SIGR" netid="HT" insttype="100" lat="39.2114" lon="25.8553">
    <comp name="--.HHE">
      <acc value="0.0384446609" flag="0"/>
      <vel value="0.0242083333" flag="0"/>
      <psa03 value="0.1263109895" flag="0"/>
      <psa10 value="0.0120387543" flag="0"/>
      <psa30 value="0.0012667923" flag="0"/>
    </comp>
    <comp name="--.HHZ">
      <acc value="0.0277974855" flag="0"/>
      <vel value="0.0127674429" flag="0"/>
      <psa03 value="0.0868525820" flag="0"/>
      <psa10 value="0.0050488489" flag="0"/>
      <psa30 value="0.0010135019" flag="0"/>
    </comp>
    <comp name="--.HHN">
      <acc value="0.0405295158" flag="0"/>
      <vel value="0.0167623762" flag="0"/>
      <psa03 value="0.0797479602" flag="0"/>
      <psa10 value="0.0084799801" flag="0"/>
      <psa30 value="0.0011437521" flag="0"/>
    </comp>
  </station>
  <station code="BLCB" name="BLCB" netid="KO" insttype="CMG-3T" lat="38.3853" lon="27.042">
    <comp name="--.HHZ">
      <acc value="0.0020079503" flag="0"/>
      <vel value="0.0010383741" flag="0"/>
      <psa03 value="0.0055233278" flag="0"/>
      <psa10 value="0.0017005377" flag="0"/>
      <psa30 value="0.0001828540" flag="0"/>
    </comp>
    <comp name="--.HHN">
      <acc value="0.0000258207" flag="0"/>
      <vel value="0.0000022949" flag="0"/>
      <psa03 value="0.0000098631" flag="0"/>
      <psa10 value="0.0000020158" flag="0"/>
      <psa30 value="0.0000003816" flag="0"/>
    </comp>
    <comp name="--.HHE">
      <acc value="0.0030242228" flag="0"/>
      <vel value="0.0017510140" flag="0"/>
      <psa03 value="0.0085908022" flag="0"/>
      <psa10 value="0.0021767923" flag="0"/>
      <psa30 value="0.0001301559" flag="0"/>
    </comp>
  </station>
  <station code="DKL" name="DKL" netid="KO" insttype="CMG-3ESPC" lat="39.0713" lon="26.9053">
    <comp name="--.HHZ">
      <acc value="0.0081736110" flag="0"/>
      <vel value="0.0030898446" flag="0"/>
      <psa03 value="0.0240318996" flag="0"/>
      <psa10 value="0.0027206126" flag="0"/>
      <psa30 value="0.0001628774" flag="0"/>
    </comp>
    <comp name="--.HHN">
      <acc value="0.0158644350" flag="0"/>
      <vel value="0.0066839797" flag="0"/>
      <psa03 value="0.0554990494" flag="0"/>
      <psa10 value="0.0041488277" flag="0"/>
      <psa30 value="0.0004976266" flag="0"/>
    </comp>
  </station>
  <station code="EZN" name="EZN" netid="KO" insttype="CMG-3ESP" lat="39.8255" lon="26.3246">
    <comp name="--.HHE">
      <acc value="0.0202047986" flag="0"/>
      <vel value="0.0118374939" flag="0"/>
      <psa03 value="0.0590958941" flag="0"/>
      <psa10 value="0.0127938807" flag="0"/>
      <psa30 value="0.0005112079" flag="0"/>
    </comp>
    <comp name="--.HHZ">
      <acc value="0.0095097268" flag="0"/>
      <vel value="0.0050981484" flag="0"/>
      <psa03 value="0.0249954295" flag="0"/>
      <psa10 value="0.0055970799" flag="0"/>
      <psa30 value="0.0004090251" flag="0"/>
    </comp>
    <comp name="--.HHN">
      <acc value="0.0159498613" flag="0"/>
      <vel value="0.0119983190" flag="0"/>
      <psa03 value="0.0625515101" flag="0"/>
      <psa10 value="0.0110499111" flag="0"/>
      <psa30 value="0.0007634456" flag="0"/>
    </comp>
  </station>
  <station code="YAYO" name="YAYO" netid="KO" insttype="CMG-6T" lat="39.6113" lon="27.0726">
    <comp name="--.HHZ">
      <acc value="0.0074158360" flag="0"/>
      <vel value="0.0034903877" flag="0"/>
      <psa03 value="0.0241581509" flag="0"/>
      <psa10 value="0.0028817080" flag="0"/>
      <psa30 value="0.0002726669" flag="0"/>
    </comp>
    <comp name="--.HHN">
      <acc value="0.0132368770" flag="0"/>
      <vel value="0.0065221708" flag="0"/>
      <psa03 value="0.0373679371" flag="0"/>
      <psa10 value="0.0065964776" flag="0"/>
      <psa30 value="0.0003314079" flag="0"/>
    </comp>
    <comp name="--.HHE">
      <acc value="0.0127669582" flag="0"/>
      <vel value="0.0057671803" flag="0"/>
      <psa03 value="0.0425192090" flag="0"/>
      <psa10 value="0.0054356992" flag="0"/>
      <psa30 value="0.0004090612" flag="0"/>
    </comp>
  </station>
</stationlist>
