<?xml version="1.0" encoding="UTF-8" standalone="yes"?>
<!DOCTYPE earthquake SYSTEM "stationlist.dtd">
<stationlist created="" xmlns="ch.ethz.sed.shakemap.usgs.xml">
  <station code="ZKR" name="ZKR" netid="GE" insttype="STS-2/N" lat="35.1147" lon="26.2169">
    <comp name="--.HHN">
      <acc value="0.0032719869" flag="0"/>
      <vel value="0.0016094574" flag="0"/>
      <psa03 value="0.0094381211" flag="0"/>
      <psa10 value="0.0031822318" flag="0"/>
      <psa30 value="0.0004429389" flag="0"/>
    </comp>
    <comp name="--.HHE">
      <acc value="0.0043809879" flag="0"/>
      <vel value="0.0036238314" flag="0"/>
      <psa03 value="0.0161393185" flag="0"/>
      <psa10 value="0.0054589972" flag="0"/>
      <psa30 value="0.0014926597" flag="0"/>
    </comp>
    <comp name="--.HHZ">
      <acc value="0.0033379413" flag="0"/>
      <vel value="0.0021954048" flag="0"/>
      <psa03 value="0.0073210183" flag="0"/>
      <psa10 value="0.0049810395" flag="0"/>
      <psa30 value="0.0004086881" flag="0"/>
    </comp>
  </station>
  <station code="SIT2" name="SIT2" netid="HI" insttype="CMG-5TD,ACCELEROMETER,GURALP" lat="35.2059" lon="26.107">
    <comp name="--.HNE">
      <acc value="0.0130558545" flag="0"/>
      <vel value="0.0116036575" flag="0"/>
      <psa03 value="0.0323661536" flag="0"/>
      <psa10 value="0.0122361274" flag="0"/>
      <psa30 value="0.0006386280" flag="0"/>
    </comp>
    <comp name="--.HNN">
      <acc value="0.0163407531" flag="0"/>
      <vel value="0.0096821790" flag="0"/>
      <psa03 value="0.0354418904" flag="0"/>
      <psa10 value="0.0151349771" flag="0"/>
      <psa30 value="0.0009977213" flag="0"/>
    </comp>
    <comp name="--.HNZ">
      <acc value="0.0092457742" flag="0"/>
      <vel value="0.0038989556" flag="0"/>
      <psa03 value="0.0228544828" flag="0"/>
      <psa10 value="0.0027847306" flag="0"/>
      <psa30 value="0.0005022285" flag="0"/>
    </comp>
  </station>
  <station code="IDI" name="IDI" netid="HL" insttype="120" lat="35.288" lon="24.89">
    <comp name="--.HHE">
      <acc value="0.0013972087" flag="0"/>
      <vel value="0.0015757122" flag="0"/>
      <psa03 value="0.0036609827" flag="0"/>
      <psa10 value="0.0017227779" flag="0"/>
      <psa30 value="0.0005469166" flag="0"/>
    </comp>
    <comp name="--.HHN">
      <acc value="0.0011744954" flag="0"/>
      <vel value="0.0012135739" flag="0"/>
      <psa03 value="0.0028483662" flag="0"/>
      <psa10 value="0.0018321832" flag="0"/>
      <psa30 value="0.0005753402" flag="0"/>
    </comp>
    <comp name="--.HHZ">
      <acc value="0.0010728193" flag="0"/>
      <vel value="0.0012503432" flag="0"/>
      <psa03 value="0.0028995958" flag="0"/>
      <psa10 value="0.0016650013" flag="0"/>
      <psa30 value="0.0004281721" flag="0"/>
    </comp>
  </station>
  <station code="ZKR" name="ZKR" netid="HL" insttype="120" lat="35.1147" lon="26.2169">
    <comp name="--.HHE">
      <acc value="0.0042342514" flag="0"/>
      <vel value="0.0036033170" flag="0"/>
      <psa03 value="0.0156974803" flag="0"/>
      <psa10 value="0.0054309717" flag="0"/>
      <psa30 value="0.0014940268" flag="0"/>
    </comp>
    <comp name="--.HHN">
      <acc value="0.0031731639" flag="0"/>
      <vel value="0.0015908056" flag="0"/>
      <psa03 value="0.0091693132" flag="0"/>
      <psa10 value="0.0031587116" flag="0"/>
      <psa30 value="0.0004427733" flag="0"/>
    </comp>
    <comp name="--.HHZ">
      <acc value="0.0032372550" flag="0"/>
      <vel value="0.0021755809" flag="0"/>
      <psa03 value="0.0071353773" flag="0"/>
      <psa10 value="0.0049543824" flag="0"/>
      <psa30 value="0.0004087401" flag="0"/>
    </comp>
  </station>
  <station code="IDI" name="IDI" netid="MN" insttype="" lat="35.288" lon="24.89">
    <comp name="--.HHE">
      <acc value="0.0013991936" flag="0"/>
      <vel value="0.0015668783" flag="0"/>
      <psa03 value="0.0036863811" flag="0"/>
      <psa10 value="0.0017127031" flag="0"/>
      <psa30 value="0.0005401594" flag="0"/>
    </comp>
    <comp name="--.HHN">
      <acc value="0.0011903789" flag="0"/>
      <vel value="0.0012100438" flag="0"/>
      <psa03 value="0.0028886933" flag="0"/>
      <psa10 value="0.0018172410" flag="0"/>
      <psa30 value="0.0005684407" flag="0"/>
    </comp>
    <comp name="--.HHZ">
      <acc value="0.0010799798" flag="0"/>
      <vel value="0.0012398795" flag="0"/>
      <psa03 value="0.0029254170" flag="0"/>
      <psa10 value="0.0016506230" flag="0"/>
      <psa30 value="0.0004233327" flag="0"/>
    </comp>
  </station>
</stationlist>
