<stationlist created="1778069487">
	<station code="IMMV" name="IMMV" netid="GE" source="GEOFON" insttype="" lat="35.4606" lon="23.9811">
		<comp name="--.HNE" depth="0.0">
			<acc value="0.00123222274598372" flag="0"/>
			<vel value="0.00181047823843144" flag="0"/>
			<psa03 value="0.00259504798385976" flag="0"/>
			<psa10 value="0.00453014842010001" flag="0"/>
			<psa30 value="0.000584333218434629" flag="0"/>
		</comp>
		<comp name="--.HNN" depth="0.0">
			<acc value="0.00132835476398857" flag="0"/>
			<vel value="0.00165754012637299" flag="0"/>
			<psa03 value="0.00340040770298865" flag="0"/>
			<psa10 value="0.00350331477821068" flag="0"/>
			<psa30 value="0.000386125243115685" flag="0"/>
		</comp>
		<comp name="--.HNZ" depth="0.0">
			<acc value="0.000850252374769351" flag="0"/>
			<vel value="0.00125655228505638" flag="0"/>
			<psa03 value="0.00255030577724149" flag="0"/>
			<psa10 value="0.00288721459307708" flag="0"/>
			<psa30 value="0.000340935614431231" flag="0"/>
		</comp>
	</station>
	<station code="SIT2" name="SIT2" netid="HI" source="ITSAK Strong Motion Network" insttype="" lat="35.2059" lon="26.107">
		<comp name="--.HNE" depth="0.0">
			<acc value="0.0131074645911819" flag="0"/>
			<vel value="0.0117126158693" flag="0"/>
			<psa03 value="0.0327065530379567" flag="0"/>
			<psa10 value="0.0122132801405896" flag="0"/>
			<psa30 value="0.000821914335577652" flag="0"/>
		</comp>
		<comp name="--.HNN" depth="0.0">
			<acc value="0.0163339779328807" flag="0"/>
			<vel value="0.00954031941568999" flag="0"/>
			<psa03 value="0.0350331477821068" flag="0"/>
			<psa10 value="0.0151246555252406" flag="0"/>
			<psa30 value="0.00107605006916944" flag="0"/>
		</comp>
		<comp name="--.HNZ" depth="0.0">
			<acc value="0.00920711577974112" flag="0"/>
			<vel value="0.00421886258232955" flag="0"/>
			<psa03 value="0.0229974942017917" flag="0"/>
			<psa10 value="0.0027986250239729" flag="0"/>
			<psa30 value="0.000633102223648545" flag="0"/>
		</comp>
	</station>
</stationlist>
