<stationlist created="1778136488">
	<station code="KSS1" name="KSS1" netid="HI" source="ITSAK Strong Motion Network" insttype="" lat="35.4189" lon="26.9207">
		<comp name="--.HNE" depth="0.0">
			<acc value="0.0724722207803945" flag="0"/>
			<vel value="0.0139991778040587" flag="0"/>
			<psa03 value="0.049887560379373" flag="0"/>
			<psa10 value="0.00421605812963975" flag="0"/>
			<psa30 value="0.000481873565278787" flag="0"/>
		</comp>
		<comp name="--.HNN" depth="0.0">
			<acc value="0.0657377984027426" flag="0"/>
			<vel value="0.0115312349922575" flag="0"/>
			<psa03 value="0.0458160195771103" flag="0"/>
			<psa10 value="0.00661603009264384" flag="0"/>
			<psa30 value="0.000446974644116535" flag="0"/>
		</comp>
		<comp name="--.HNZ" depth="0.0">
			<acc value="0.0668367244689" flag="0"/>
			<vel value="0.00937442358511626" flag="0"/>
			<psa03 value="0.0170020385149433" flag="0"/>
			<psa10 value="0.00492074788387753" flag="0"/>
			<psa30 value="0.00022729040962082" flag="0"/>
		</comp>
	</station>
	<station code="RDI1" name="RDI1" netid="HI" source="ITSAK Strong Motion Network" insttype="" lat="36.4514" lon="28.224">
		<comp name="--.HNE" depth="0.0">
			<acc value="0.0105875669336396" flag="0"/>
			<vel value="0.00527186508329036" flag="0"/>
			<psa03 value="0.0223263611025176" flag="0"/>
			<psa10 value="0.00537174932658971" flag="0"/>
			<psa30 value="0.000810728783923084" flag="0"/>
		</comp>
		<comp name="--.HNN" depth="0.0">
			<acc value="0.0104442705798216" flag="0"/>
			<vel value="0.00551903999722827" flag="0"/>
			<psa03 value="0.021073579317206" flag="0"/>
			<psa10 value="0.00433686208750908" flag="0"/>
			<psa30 value="0.000778961817224111" flag="0"/>
		</comp>
		<comp name="--.HNZ" depth="0.0">
			<acc value="0.00814123338539497" flag="0"/>
			<vel value="0.00324071773494191" flag="0"/>
			<psa03 value="0.0184785313333462" flag="0"/>
			<psa10 value="0.00351942197259326" flag="0"/>
			<psa30 value="0.000337803659967952" flag="0"/>
		</comp>
	</station>
	<station code="SIT2" name="SIT2" netid="HI" source="ITSAK Strong Motion Network" insttype="" lat="35.2059" lon="26.107">
		<comp name="--.HNE" depth="0.0">
			<acc value="0.076602436948764" flag="0"/>
			<vel value="0.0316024858389299" flag="0"/>
			<psa03 value="0.135345175020272" flag="0"/>
			<psa10 value="0.0184226035750734" flag="0"/>
			<psa30 value="0.000874710139387213" flag="0"/>
		</comp>
		<comp name="--.HNN" depth="0.0">
			<acc value="0.0686219313590842" flag="0"/>
			<vel value="0.0413426991271024" flag="0"/>
			<psa03 value="0.198207975318944" flag="0"/>
			<psa10 value="0.0150803607406885" flag="0"/>
			<psa30 value="0.00107336553677234" flag="0"/>
		</comp>
		<comp name="--.HNZ" depth="0.0">
			<acc value="0.0868879822398249" flag="0"/>
			<vel value="0.0296111367584007" flag="0"/>
			<psa03 value="0.146128046815276" flag="0"/>
			<psa10 value="0.00531940094484633" flag="0"/>
			<psa30 value="0.000606704321743765" flag="0"/>
		</comp>
	</station>
	<station code="AGNA" name="AGNA" netid="HL" source="National Observatory of Athens Seismic Network" insttype="" lat="35.1895" lon="25.71853">
		<comp name="00.HNE" depth="0.0">
			<acc value="0.0262988582811061" flag="0"/>
			<vel value="0.0111423991950707" flag="0"/>
			<psa03 value="0.0631322238666432" flag="0"/>
			<psa10 value="0.0082761682555142" flag="0"/>
			<psa30 value="0.000557112374711867" flag="0"/>
		</comp>
		<comp name="00.HNN" depth="0.0">
			<acc value="0.0368457509259462" flag="0"/>
			<vel value="0.0152077905145634" flag="0"/>
			<psa03 value="0.137983630321647" flag="0"/>
			<psa10 value="0.00890500991322195" flag="0"/>
			<psa30 value="0.000592539669513624" flag="0"/>
		</comp>
		<comp name="00.HNZ" depth="0.0">
			<acc value="0.0243771497605563" flag="0"/>
			<vel value="0.00763813956690312" flag="0"/>
			<psa03 value="0.0626123821382053" flag="0"/>
			<psa10 value="0.00270605715363001" flag="0"/>
			<psa30 value="0.000254911053273032" flag="0"/>
		</comp>
	</station>
	<station code="HERG" name="HERG" netid="HL" source="National Observatory of Athens Seismic Network" insttype="" lat="35.32622" lon="25.06586">
		<comp name="00.HNE" depth="0.0">
			<acc value="0.0689432827655014" flag="0"/>
			<vel value="0.0256443602069807" flag="0"/>
			<psa03 value="0.141185009063829" flag="0"/>
			<psa10 value="0.0175270842083098" flag="0"/>
			<psa30 value="0.0014694572401646" flag="0"/>
		</comp>
		<comp name="00.HNN" depth="0.0">
			<acc value="0.0794536384804665" flag="0"/>
			<vel value="0.0263594634866493" flag="0"/>
			<psa03 value="0.136786009318333" flag="0"/>
			<psa10 value="0.0191235555917145" flag="0"/>
			<psa30 value="0.00127499675394363" flag="0"/>
		</comp>
		<comp name="00.HNZ" depth="0.0">
			<acc value="0.077005246930204" flag="0"/>
			<vel value="0.0199981787200215" flag="0"/>
			<psa03 value="0.0833911232111854" flag="0"/>
			<psa10 value="0.0121883486682875" flag="0"/>
			<psa30 value="0.000817248982482009" flag="0"/>
		</comp>
	</station>
	<station code="IACM" name="IACM" netid="HL" source="National Observatory of Athens Seismic Network" insttype="" lat="35.3058" lon="25.0709">
		<comp name="--.HNE" depth="0.0">
			<acc value="0.128979088446774" flag="0"/>
			<vel value="0.0586750581510801" flag="0"/>
			<psa03 value="0.358340332805739" flag="0"/>
			<psa10 value="0.0235889861732852" flag="0"/>
			<psa30 value="0.00136463730185729" flag="0"/>
		</comp>
		<comp name="--.HNN" depth="0.0">
			<acc value="0.158610184973709" flag="0"/>
			<vel value="0.0596092098175315" flag="0"/>
			<psa03 value="0.350689415474014" flag="0"/>
			<psa10 value="0.0299271671628296" flag="0"/>
			<psa30 value="0.00194270661136536" flag="0"/>
		</comp>
		<comp name="--.HNZ" depth="0.0">
			<acc value="0.146135603290287" flag="0"/>
			<vel value="0.0470821877893702" flag="0"/>
			<psa03 value="0.154092159593328" flag="0"/>
			<psa10 value="0.0141743310566685" flag="0"/>
			<psa30 value="0.000877394671784309" flag="0"/>
		</comp>
	</station>
	<station code="KARP" name="KARP" netid="HL" source="National Observatory of Athens Seismic Network" insttype="" lat="35.5471" lon="27.16106">
		<comp name="--.HNE" depth="0.0">
			<acc value="0.204879703030631" flag="0"/>
			<vel value="0.0310939804497148" flag="0"/>
			<psa03 value="0.084786481541625" flag="0"/>
			<psa10 value="0.0071193799170994" flag="0"/>
			<psa30 value="0.000710058819031973" flag="0"/>
		</comp>
		<comp name="--.HNN" depth="0.0">
			<acc value="0.205850229971454" flag="0"/>
			<vel value="0.0346510433730971" flag="0"/>
			<psa03 value="0.0809833939790719" flag="0"/>
			<psa10 value="0.00804957039269327" flag="0"/>
			<psa30 value="0.000495296227264268" flag="0"/>
		</comp>
		<comp name="--.HNZ" depth="0.0">
			<acc value="0.161559444537634" flag="0"/>
			<vel value="0.0173920866274202" flag="0"/>
			<psa03 value="0.036554382807128" flag="0"/>
			<psa10 value="0.00800930240673683" flag="0"/>
			<psa30 value="0.000320354199386826" flag="0"/>
		</comp>
	</station>
	<station code="KLNA" name="KLNA" netid="HL" source="National Observatory of Athens Seismic Network" insttype="" lat="36.95708" lon="26.97274">
		<comp name="00.HNE" depth="0.0">
			<acc value="0.0267658205259556" flag="0"/>
			<vel value="0.00994835917980709" flag="0"/>
			<psa03 value="0.0315879978724999" flag="0"/>
			<psa10 value="0.014508555340107" flag="0"/>
			<psa30 value="0.000672475365472624" flag="0"/>
		</comp>
		<comp name="00.HNN" depth="0.0">
			<acc value="0.0202819516528937" flag="0"/>
			<vel value="0.00812283537885083" flag="0"/>
			<psa03 value="0.0280533635496564" flag="0"/>
			<psa10 value="0.00676099484208704" flag="0"/>
			<psa30 value="0.000875157561453395" flag="0"/>
		</comp>
		<comp name="00.HNZ" depth="0.0">
			<acc value="0.0741893022646097" flag="0"/>
			<vel value="0.0161663840311744" flag="0"/>
			<psa03 value="0.0321696465585374" flag="0"/>
			<psa10 value="0.00513819500804233" flag="0"/>
			<psa30 value="0.000366886094269828" flag="0"/>
		</comp>
	</station>
	<station code="THRA" name="THRA" netid="HL" source="National Observatory of Athens Seismic Network" insttype="" lat="36.41502" lon="25.43244">
		<comp name="00.HNE" depth="0.0">
			<acc value="0.0573686897823683" flag="0"/>
			<vel value="0.0259997981968176" flag="0"/>
			<psa03 value="0.168320181297938" flag="0"/>
			<psa10 value="0.0572328884398947" flag="0"/>
			<psa30 value="0.00340801387811376" flag="0"/>
		</comp>
		<comp name="00.HNN" depth="0.0">
			<acc value="0.0478952159694146" flag="0"/>
			<vel value="0.0322945024956073" flag="0"/>
			<psa03 value="0.117135096926635" flag="0"/>
			<psa10 value="0.0509269218391155" flag="0"/>
			<psa30 value="0.003303317114627" flag="0"/>
		</comp>
		<comp name="00.HNZ" depth="0.0">
			<acc value="0.0652816318430158" flag="0"/>
			<vel value="0.0293470775372935" flag="0"/>
			<psa03 value="0.187022423664376" flag="0"/>
			<psa10 value="0.0201420465754136" flag="0"/>
			<psa30 value="0.0011494272880234" flag="0"/>
		</comp>
	</station>
</stationlist>
