<stationlist xmlns:esm="https://esm-db.eu/esmws/shakemap/1/" created="1783994356">
	<station code="AGN1" name="AGN1" netid="HI" source="ITSAK Strong Motion Network" insttype="" lat="35.1879" lon="25.7155" esm:processing="manual (Paolucci et al 2011)" esm:quality="good">
		<comp name="--.HNE" depth="0.0">
			<acc value="0.08247389044299" flag="0"/>
			<vel value="0.0291798373018455" flag="0"/>
			<psa03 value="0.274586127483347" flag="0"/>
			<psa10 value="0.0113704982397049" flag="0"/>
			<psa30 value="0.000737639646256417" flag="0"/>
		</comp>
		<comp name="--.HNN" depth="0.0">
			<acc value="0.0819279783564236" flag="0"/>
			<vel value="0.0206760386222058" flag="0"/>
			<psa03 value="0.123091320862573" flag="0"/>
			<psa10 value="0.00623421564244037" flag="0"/>
			<psa30 value="0.000468062986042358" flag="0"/>
		</comp>
		<comp name="--.HNZ" depth="0.0">
			<acc value="0.0387868888913589" flag="0"/>
			<vel value="0.00997802211447579" flag="0"/>
			<psa03 value="0.0460898709360855" flag="0"/>
			<psa10 value="0.00288558529648917" flag="0"/>
			<psa30 value="0.000176085401772852" flag="0"/>
		</comp>
	</station>
	<station code="ARK1" name="ARK1" netid="HI" source="ITSAK Strong Motion Network" insttype="" lat="35.148777" lon="25.264194" esm:processing="manual (Paolucci et al 2011)" esm:quality="good">
		<comp name="--.HNE" depth="0.0">
			<acc value="0.0428048398225449" flag="0"/>
			<vel value="0.0126189889578125" flag="0"/>
			<psa03 value="0.08140259043878" flag="0"/>
			<psa10 value="0.00578795482985167" flag="0"/>
			<psa30 value="0.000532568509216691" flag="0"/>
		</comp>
		<comp name="--.HNN" depth="0.0">
			<acc value="0.0416821823274342" flag="0"/>
			<vel value="0.0142208805263983" flag="0"/>
			<psa03 value="0.111272652517131" flag="0"/>
			<psa10 value="0.00633040857725021" flag="0"/>
			<psa30 value="0.000447191342981771" flag="0"/>
		</comp>
		<comp name="--.HNZ" depth="0.0">
			<acc value="0.0409163519400447" flag="0"/>
			<vel value="0.00915680658589657" flag="0"/>
			<psa03 value="0.0635937231887261" flag="0"/>
			<psa10 value="0.00415950648439079" flag="0"/>
			<psa30 value="0.000357079956878019" flag="0"/>
		</comp>
	</station>
	<station code="HER1" name="HER1" netid="HI" source="ITSAK Strong Motion Network" insttype="" lat="35.317672" lon="25.10217" esm:processing="automatic (Paolucci et al 2011)" esm:quality="best">
		<comp name="--.HNE" depth="0.0">
			<acc value="0.0748324439724677" flag="0"/>
			<vel value="0.0368973864035239" flag="0"/>
			<psa03 value="0.188155985243934" flag="0"/>
			<psa10 value="0.0201205122601909" flag="0"/>
			<psa30 value="0.00138673040575033" flag="0"/>
		</comp>
		<comp name="--.HNN" depth="0.0">
			<acc value="0.0885659675952035" flag="0"/>
			<vel value="0.0257136742162182" flag="0"/>
			<psa03 value="0.138794121512717" flag="0"/>
			<psa10 value="0.0250592163000956" flag="0"/>
			<psa30 value="0.00141413492949886" flag="0"/>
		</comp>
		<comp name="--.HNZ" depth="0.0">
			<acc value="0.0616565402493973" flag="0"/>
			<vel value="0.0234450058378037" flag="0"/>
			<psa03 value="0.166514759952301" flag="0"/>
			<psa10 value="0.0164789253979332" flag="0"/>
			<psa30 value="0.000817063136839544" flag="0"/>
		</comp>
	</station>
	<station code="HER2" name="HER2" netid="HI" source="ITSAK Strong Motion Network" insttype="" lat="35.337866" lon="25.135624" esm:processing="manual (Paolucci et al 2011)" esm:quality="good">
		<comp name="--.HNE" depth="0.0">
			<acc value="0.124985346791969" flag="0"/>
			<vel value="0.0428597524206434" flag="0"/>
			<psa03 value="0.226543236544271" flag="0"/>
			<psa10 value="0.017699175608521" flag="0"/>
			<psa30 value="0.00109797023513952" flag="0"/>
		</comp>
		<comp name="--.HNN" depth="0.0">
			<acc value="0.131346083386839" flag="0"/>
			<vel value="0.0388689271792435" flag="0"/>
			<psa03 value="0.194917245644253" flag="0"/>
			<psa10 value="0.0145146615250918" flag="0"/>
			<psa30 value="0.0010040583889406" flag="0"/>
		</comp>
		<comp name="--.HNZ" depth="0.0">
			<acc value="0.0903960641642186" flag="0"/>
			<vel value="0.0296770095938745" flag="0"/>
			<psa03 value="0.153439320851965" flag="0"/>
			<psa10 value="0.00589965457316147" flag="0"/>
			<psa30 value="0.000504900686775908" flag="0"/>
		</comp>
	</station>
	<station code="HER3" name="HER3" netid="HI" source="ITSAK Strong Motion Network" insttype="" lat="35.3296" lon="25.1065" esm:processing="manual (Paolucci et al 2011)" esm:quality="good">
		<comp name="--.HNE" depth="0.0">
			<acc value="0.123608333024501" flag="0"/>
			<vel value="0.0376297096046391" flag="0"/>
			<psa03 value="0.21071981332014" flag="0"/>
			<psa10 value="0.0272399670141279" flag="0"/>
			<psa30 value="0.00123273718362179" flag="0"/>
		</comp>
		<comp name="--.HNN" depth="0.0">
			<acc value="0.176193331186628" flag="0"/>
			<vel value="0.0519884464695104" flag="0"/>
			<psa03 value="0.201273520882959" flag="0"/>
			<psa10 value="0.0341538800269332" flag="0"/>
			<psa30 value="0.00166461027226105" flag="0"/>
		</comp>
		<comp name="--.HNZ" depth="0.0">
			<acc value="0.0742999862714448" flag="0"/>
			<vel value="0.0227153788102133" flag="0"/>
			<psa03 value="0.138233251024467" flag="0"/>
			<psa10 value="0.00848914298906047" flag="0"/>
			<psa30 value="0.000643324231656409" flag="0"/>
		</comp>
	</station>
	<station code="KSS1" name="KSS1" netid="HI" source="ITSAK Strong Motion Network" insttype="" lat="35.4189" lon="26.9207" esm:processing="manual (Paolucci et al 2011)" esm:quality="good">
		<comp name="--.HNE" depth="0.0">
			<acc value="0.0724722207803945" flag="0"/>
			<vel value="0.0139991778040587" flag="0"/>
			<psa03 value="0.049887560379373" flag="0"/>
			<psa10 value="0.00421605812963975" flag="0"/>
			<psa30 value="0.000481873565278787" flag="0"/>
		</comp>
		<comp name="--.HNN" depth="0.0">
			<acc value="0.0657377984027426" flag="0"/>
			<vel value="0.0115312349922575" flag="0"/>
			<psa03 value="0.0458160195771103" flag="0"/>
			<psa10 value="0.00661603009264384" flag="0"/>
			<psa30 value="0.000446974644116535" flag="0"/>
		</comp>
		<comp name="--.HNZ" depth="0.0">
			<acc value="0.0668367244689" flag="0"/>
			<vel value="0.00937442358511626" flag="0"/>
			<psa03 value="0.0170020385149433" flag="0"/>
			<psa10 value="0.00492074788387753" flag="0"/>
			<psa30 value="0.00022729040962082" flag="0"/>
		</comp>
	</station>
	<station code="RDI1" name="RDI1" netid="HI" source="ITSAK Strong Motion Network" insttype="" lat="36.4514" lon="28.224" esm:processing="manual (Paolucci et al 2011)" esm:quality="good">
		<comp name="--.HNE" depth="0.0">
			<acc value="0.0105875669336396" flag="0"/>
			<vel value="0.00527186508329036" flag="0"/>
			<psa03 value="0.0223263611025176" flag="0"/>
			<psa10 value="0.00537174932658971" flag="0"/>
			<psa30 value="0.000810728783923084" flag="0"/>
		</comp>
		<comp name="--.HNN" depth="0.0">
			<acc value="0.0104442705798216" flag="0"/>
			<vel value="0.00551903999722827" flag="0"/>
			<psa03 value="0.021073579317206" flag="0"/>
			<psa10 value="0.00433686208750908" flag="0"/>
			<psa30 value="0.000778961817224111" flag="0"/>
		</comp>
		<comp name="--.HNZ" depth="0.0">
			<acc value="0.00814123338539497" flag="0"/>
			<vel value="0.00324071773494191" flag="0"/>
			<psa03 value="0.0184785313333462" flag="0"/>
			<psa10 value="0.00351942197259326" flag="0"/>
			<psa30 value="0.000337803659967952" flag="0"/>
		</comp>
	</station>
	<station code="RKL1" name="RKL1" netid="HI" source="ITSAK Strong Motion Network" insttype="" lat="36.336699" lon="28.171224" esm:processing="automatic (Paolucci et al 2011)" esm:quality="best">
		<comp name="--.HNE" depth="0.0">
			<acc value="0.0159016754592647" flag="0"/>
			<vel value="0.0121137093328072" flag="0"/>
			<psa03 value="0.0601444738595528" flag="0"/>
			<psa10 value="0.0136523397130038" flag="0"/>
			<psa30 value="0.000940463342747569" flag="0"/>
		</comp>
		<comp name="--.HNN" depth="0.0">
			<acc value="0.0221370614874064" flag="0"/>
			<vel value="0.0118690367384265" flag="0"/>
			<psa03 value="0.0442764226790384" flag="0"/>
			<psa10 value="0.00648374029722414" flag="0"/>
			<psa30 value="0.000583020445159842" flag="0"/>
		</comp>
		<comp name="--.HNZ" depth="0.0">
			<acc value="0.0175785413640728" flag="0"/>
			<vel value="0.00775906430975833" flag="0"/>
			<psa03 value="0.0372080273492044" flag="0"/>
			<psa10 value="0.00424183100048595" flag="0"/>
			<psa30 value="0.00028285092498562" flag="0"/>
		</comp>
	</station>
	<station code="RKT1" name="RKT1" netid="HI" source="ITSAK Strong Motion Network" insttype="" lat="35.954336" lon="27.767327" esm:processing="automatic (Paolucci et al 2011)" esm:quality="best">
		<comp name="--.HNE" depth="0.0">
			<acc value="0.0706080048892653" flag="0"/>
			<vel value="0.0192290892315999" flag="0"/>
			<psa03 value="0.185729032803579" flag="0"/>
			<psa10 value="0.0073651396231038" flag="0"/>
			<psa30 value="0.000619405355481583" flag="0"/>
		</comp>
		<comp name="--.HNN" depth="0.0">
			<acc value="0.0544673846770699" flag="0"/>
			<vel value="0.0180957400012471" flag="0"/>
			<psa03 value="0.1573616119345" flag="0"/>
			<psa10 value="0.00523382234004376" flag="0"/>
			<psa30 value="0.000462236037535616" flag="0"/>
		</comp>
		<comp name="--.HNZ" depth="0.0">
			<acc value="0.0586667297700193" flag="0"/>
			<vel value="0.00913219355616128" flag="0"/>
			<psa03 value="0.0329571832516449" flag="0"/>
			<psa10 value="0.00528982386236977" flag="0"/>
			<psa30 value="0.000406649152052259" flag="0"/>
		</comp>
	</station>
	<station code="RPN1" name="RPN1" netid="HI" source="ITSAK Strong Motion Network" insttype="" lat="36.448678" lon="28.218047" esm:processing="manual (Paolucci et al 2011)" esm:quality="good">
		<comp name="--.HNE" depth="0.0">
			<acc value="0.013913358915263" flag="0"/>
			<vel value="0.00772139638593559" flag="0"/>
			<psa03 value="0.0330548433669816" flag="0"/>
			<psa10 value="0.00490252867471434" flag="0"/>
			<psa30 value="0.000797272607064073" flag="0"/>
		</comp>
		<comp name="--.HNN" depth="0.0">
			<acc value="0.014296977672334" flag="0"/>
			<vel value="0.00543201695642541" flag="0"/>
			<psa03 value="0.0330553303784104" flag="0"/>
			<psa10 value="0.00602332885972599" flag="0"/>
			<psa30 value="0.000737244411740736" flag="0"/>
		</comp>
		<comp name="--.HNZ" depth="0.0">
			<acc value="0.0128718482727518" flag="0"/>
			<vel value="0.00390188696689544" flag="0"/>
			<psa03 value="0.0127057635694798" flag="0"/>
			<psa10 value="0.00487938120380799" flag="0"/>
			<psa30 value="0.000373412783639301" flag="0"/>
		</comp>
	</station>
	<station code="RSO1" name="RSO1" netid="HI" source="ITSAK Strong Motion Network" insttype="" lat="36.3632" lon="28.0016" esm:processing="automatic (Paolucci et al 2011)" esm:quality="best">
		<comp name="--.HNE" depth="0.0">
			<acc value="0.0150083461641736" flag="0"/>
			<vel value="0.00583177187822703" flag="0"/>
			<psa03 value="0.0431057696081844" flag="0"/>
			<psa10 value="0.00679657008316217" flag="0"/>
			<psa30 value="0.000417910080325158" flag="0"/>
		</comp>
		<comp name="--.HNN" depth="0.0">
			<acc value="0.0139661261799197" flag="0"/>
			<vel value="0.00713511528356073" flag="0"/>
			<psa03 value="0.033782391563479" flag="0"/>
			<psa10 value="0.00547585774870173" flag="0"/>
			<psa30 value="0.000332800405768582" flag="0"/>
		</comp>
		<comp name="--.HNZ" depth="0.0">
			<acc value="0.0177019869844157" flag="0"/>
			<vel value="0.00488735865844922" flag="0"/>
			<psa03 value="0.023099092701527" flag="0"/>
			<psa10 value="0.00454058329135902" flag="0"/>
			<psa30 value="0.000261256317365513" flag="0"/>
		</comp>
	</station>
	<station code="SFIR" name="SFIR" netid="HI" source="ITSAK Strong Motion Network" insttype="" lat="36.421468" lon="25.428495" esm:processing="automatic (Paolucci et al 2011)" esm:quality="best">
		<comp name="--.HNE" depth="0.0">
			<acc value="0.0257820465133831" flag="0"/>
			<vel value="0.0228500026887255" flag="0"/>
			<psa03 value="0.0814073563795002" flag="0"/>
			<psa10 value="0.0487905183823914" flag="0"/>
			<psa30 value="0.00388142045838968" flag="0"/>
		</comp>
		<comp name="--.HNN" depth="0.0">
			<acc value="0.0250738340356516" flag="0"/>
			<vel value="0.0264797386649143" flag="0"/>
			<psa03 value="0.088000777536293" flag="0"/>
			<psa10 value="0.0497466854737686" flag="0"/>
			<psa30 value="0.00248884466541113" flag="0"/>
		</comp>
		<comp name="--.HNZ" depth="0.0">
			<acc value="0.0549865118844831" flag="0"/>
			<vel value="0.0213469693566045" flag="0"/>
			<psa03 value="0.115372799131722" flag="0"/>
			<psa10 value="0.01347905104598" flag="0"/>
			<psa30 value="0.000891523225705" flag="0"/>
		</comp>
	</station>
	<station code="SIT2" name="SIT2" netid="HI" source="ITSAK Strong Motion Network" insttype="" lat="35.2059" lon="26.107" esm:processing="manual (Paolucci et al 2011)" esm:quality="good">
		<comp name="--.HNE" depth="0.0">
			<acc value="0.076602436948764" flag="0"/>
			<vel value="0.0316024858389299" flag="0"/>
			<psa03 value="0.135345175020272" flag="0"/>
			<psa10 value="0.0184226035750734" flag="0"/>
			<psa30 value="0.000874710139387213" flag="0"/>
		</comp>
		<comp name="--.HNN" depth="0.0">
			<acc value="0.0686219313590842" flag="0"/>
			<vel value="0.0413426991271024" flag="0"/>
			<psa03 value="0.198207975318944" flag="0"/>
			<psa10 value="0.0150803607406885" flag="0"/>
			<psa30 value="0.00107336553677234" flag="0"/>
		</comp>
		<comp name="--.HNZ" depth="0.0">
			<acc value="0.0868879822398249" flag="0"/>
			<vel value="0.0296111367584007" flag="0"/>
			<psa03 value="0.146128046815276" flag="0"/>
			<psa10 value="0.00531940094484633" flag="0"/>
			<psa30 value="0.000606704321743765" flag="0"/>
		</comp>
	</station>
	<station code="AGNA" name="AGNA" netid="HL" source="National Observatory of Athens Seismic Network" insttype="" lat="35.1895" lon="25.71853" esm:processing="manual (Paolucci et al 2011)" esm:quality="best">
		<comp name="00.HNE" depth="0.0">
			<acc value="0.0262988582811061" flag="0"/>
			<vel value="0.0111423991950707" flag="0"/>
			<psa03 value="0.0631322238666432" flag="0"/>
			<psa10 value="0.0082761682555142" flag="0"/>
			<psa30 value="0.000557112374711867" flag="0"/>
		</comp>
		<comp name="00.HNN" depth="0.0">
			<acc value="0.0368457509259462" flag="0"/>
			<vel value="0.0152077905145634" flag="0"/>
			<psa03 value="0.137983630321647" flag="0"/>
			<psa10 value="0.00890500991322195" flag="0"/>
			<psa30 value="0.000592539669513624" flag="0"/>
		</comp>
		<comp name="00.HNZ" depth="0.0">
			<acc value="0.0243771497605563" flag="0"/>
			<vel value="0.00763813956690312" flag="0"/>
			<psa03 value="0.0626123821382053" flag="0"/>
			<psa10 value="0.00270605715363001" flag="0"/>
			<psa30 value="0.000254911053273032" flag="0"/>
		</comp>
	</station>
	<station code="HERG" name="HERG" netid="HL" source="National Observatory of Athens Seismic Network" insttype="" lat="35.32622" lon="25.06586" esm:processing="manual (Paolucci et al 2011)" esm:quality="good">
		<comp name="00.HNE" depth="0.0">
			<acc value="0.0689432827655014" flag="0"/>
			<vel value="0.0256443602069807" flag="0"/>
			<psa03 value="0.141185009063829" flag="0"/>
			<psa10 value="0.0175270842083098" flag="0"/>
			<psa30 value="0.0014694572401646" flag="0"/>
		</comp>
		<comp name="00.HNN" depth="0.0">
			<acc value="0.0794536384804665" flag="0"/>
			<vel value="0.0263594634866493" flag="0"/>
			<psa03 value="0.136786009318333" flag="0"/>
			<psa10 value="0.0191235555917145" flag="0"/>
			<psa30 value="0.00127499675394363" flag="0"/>
		</comp>
		<comp name="00.HNZ" depth="0.0">
			<acc value="0.077005246930204" flag="0"/>
			<vel value="0.0199981787200215" flag="0"/>
			<psa03 value="0.0833911232111854" flag="0"/>
			<psa10 value="0.0121883486682875" flag="0"/>
			<psa30 value="0.000817248982482009" flag="0"/>
		</comp>
	</station>
	<station code="IACM" name="IACM" netid="HL" source="National Observatory of Athens Seismic Network" insttype="" lat="35.3058" lon="25.0709" esm:processing="manual (Paolucci et al 2011)" esm:quality="good">
		<comp name="--.HNE" depth="0.0">
			<acc value="0.128979088446774" flag="0"/>
			<vel value="0.0586750581510801" flag="0"/>
			<psa03 value="0.358340332805739" flag="0"/>
			<psa10 value="0.0235889861732852" flag="0"/>
			<psa30 value="0.00136463730185729" flag="0"/>
		</comp>
		<comp name="--.HNN" depth="0.0">
			<acc value="0.158610184973709" flag="0"/>
			<vel value="0.0596092098175315" flag="0"/>
			<psa03 value="0.350689415474014" flag="0"/>
			<psa10 value="0.0299271671628296" flag="0"/>
			<psa30 value="0.00194270661136536" flag="0"/>
		</comp>
		<comp name="--.HNZ" depth="0.0">
			<acc value="0.146135603290287" flag="0"/>
			<vel value="0.0470821877893702" flag="0"/>
			<psa03 value="0.154092159593328" flag="0"/>
			<psa10 value="0.0141743310566685" flag="0"/>
			<psa30 value="0.000877394671784309" flag="0"/>
		</comp>
	</station>
	<station code="KARP" name="KARP" netid="HL" source="National Observatory of Athens Seismic Network" insttype="" lat="35.5471" lon="27.16106" esm:processing="manual (Paolucci et al 2011)" esm:quality="best">
		<comp name="--.HNE" depth="0.0">
			<acc value="0.204879703030631" flag="0"/>
			<vel value="0.0310939804497148" flag="0"/>
			<psa03 value="0.084786481541625" flag="0"/>
			<psa10 value="0.0071193799170994" flag="0"/>
			<psa30 value="0.000710058819031973" flag="0"/>
		</comp>
		<comp name="--.HNN" depth="0.0">
			<acc value="0.205850229971454" flag="0"/>
			<vel value="0.0346510433730971" flag="0"/>
			<psa03 value="0.0809833939790719" flag="0"/>
			<psa10 value="0.00804957039269327" flag="0"/>
			<psa30 value="0.000495296227264268" flag="0"/>
		</comp>
		<comp name="--.HNZ" depth="0.0">
			<acc value="0.161559444537634" flag="0"/>
			<vel value="0.0173920866274202" flag="0"/>
			<psa03 value="0.036554382807128" flag="0"/>
			<psa10 value="0.00800930240673683" flag="0"/>
			<psa30 value="0.000320354199386826" flag="0"/>
		</comp>
	</station>
	<station code="KLNA" name="KLNA" netid="HL" source="National Observatory of Athens Seismic Network" insttype="" lat="36.95708" lon="26.97274" esm:processing="manual (Paolucci et al 2011)" esm:quality="good">
		<comp name="00.HNE" depth="0.0">
			<acc value="0.0267658205259556" flag="0"/>
			<vel value="0.00994835917980709" flag="0"/>
			<psa03 value="0.0315879978724999" flag="0"/>
			<psa10 value="0.014508555340107" flag="0"/>
			<psa30 value="0.000672475365472624" flag="0"/>
		</comp>
		<comp name="00.HNN" depth="0.0">
			<acc value="0.0202819516528937" flag="0"/>
			<vel value="0.00812283537885083" flag="0"/>
			<psa03 value="0.0280533635496564" flag="0"/>
			<psa10 value="0.00676099484208704" flag="0"/>
			<psa30 value="0.000875157561453395" flag="0"/>
		</comp>
		<comp name="00.HNZ" depth="0.0">
			<acc value="0.0741893022646097" flag="0"/>
			<vel value="0.0161663840311744" flag="0"/>
			<psa03 value="0.0321696465585374" flag="0"/>
			<psa10 value="0.00513819500804233" flag="0"/>
			<psa30 value="0.000366886094269828" flag="0"/>
		</comp>
	</station>
	<station code="THRA" name="THRA" netid="HL" source="National Observatory of Athens Seismic Network" insttype="" lat="36.41502" lon="25.43244" esm:processing="manual (Paolucci et al 2011)" esm:quality="good">
		<comp name="00.HNE" depth="0.0">
			<acc value="0.0573686897823683" flag="0"/>
			<vel value="0.0259997981968176" flag="0"/>
			<psa03 value="0.168320181297938" flag="0"/>
			<psa10 value="0.0572328884398947" flag="0"/>
			<psa30 value="0.00340801387811376" flag="0"/>
		</comp>
		<comp name="00.HNN" depth="0.0">
			<acc value="0.0478952159694146" flag="0"/>
			<vel value="0.0322945024956073" flag="0"/>
			<psa03 value="0.117135096926635" flag="0"/>
			<psa10 value="0.0509269218391155" flag="0"/>
			<psa30 value="0.003303317114627" flag="0"/>
		</comp>
		<comp name="00.HNZ" depth="0.0">
			<acc value="0.0652816318430158" flag="0"/>
			<vel value="0.0293470775372935" flag="0"/>
