<?xml version="1.0" encoding="UTF-8" standalone="yes"?>
<!DOCTYPE earthquake SYSTEM "stationlist.dtd">
<stationlist created="" xmlns="ch.ethz.sed.shakemap.usgs.xml">
  <station code="KARP" name="KARP" netid="GE" insttype="STS-2/N" lat="35.5471" lon="27.1611">
    <comp name="--.HHE">
      <acc value="0.3122912729" flag="0"/>
      <vel value="0.0363822722" flag="0"/>
      <psa03 value="0.0935054366" flag="0"/>
      <psa10 value="0.0082320818" flag="0"/>
      <psa30 value="0.0007912894" flag="0"/>
    </comp>
    <comp name="--.HHN">
      <acc value="0.2332471598" flag="0"/>
      <vel value="0.0378366108" flag="0"/>
      <psa03 value="0.1023099329" flag="0"/>
      <psa10 value="0.0093031726" flag="0"/>
      <psa30 value="0.0005386444" flag="0"/>
    </comp>
    <comp name="--.HHZ">
      <acc value="0.2255447240" flag="0"/>
      <vel value="0.0210031054" flag="0"/>
      <psa03 value="0.0449229211" flag="0"/>
      <psa10 value="0.0098260474" flag="0"/>
      <psa30 value="0.0004014642" flag="0"/>
    </comp>
  </station>
  <station code="THERA" name="THERA" netid="GE" insttype="STS-2/N" lat="36.367" lon="25.4753">
    <comp name="--.HHN">
      <acc value="0.0165530944" flag="0"/>
      <vel value="0.0062457611" flag="0"/>
      <psa03 value="0.0341055080" flag="0"/>
      <psa10 value="0.0057444940" flag="0"/>
      <psa30 value="0.0004708086" flag="0"/>
    </comp>
    <comp name="--.HHZ">
      <acc value="0.0290449921" flag="0"/>
      <vel value="0.0127235510" flag="0"/>
      <psa03 value="0.0797049254" flag="0"/>
      <psa10 value="0.0051447503" flag="0"/>
      <psa30 value="0.0005335297" flag="0"/>
    </comp>
    <comp name="--.HHE">
      <acc value="0.0222324962" flag="0"/>
      <vel value="0.0119779564" flag="0"/>
      <psa03 value="0.0494550521" flag="0"/>
      <psa10 value="0.0054076559" flag="0"/>
      <psa30 value="0.0008491542" flag="0"/>
    </comp>
  </station>
  <station code="ZKR" name="ZKR" netid="GE" insttype="STS-2/N" lat="35.1147" lon="26.2169">
    <comp name="--.HHE">
      <acc value="0.0460927612" flag="0"/>
      <vel value="0.0176196375" flag="0"/>
      <psa03 value="0.0817111534" flag="0"/>
      <psa10 value="0.0071774532" flag="0"/>
      <psa30 value="0.0007008539" flag="0"/>
    </comp>
    <comp name="--.HHN">
      <acc value="0.0112349784" flag="0"/>
      <vel value="0.0040098131" flag="0"/>
      <psa03 value="0.0219262831" flag="0"/>
      <psa10 value="0.0021728698" flag="0"/>
      <psa30 value="0.0001891822" flag="0"/>
    </comp>
    <comp name="--.HHZ">
      <acc value="0.0245673964" flag="0"/>
      <vel value="0.0069930125" flag="0"/>
      <psa03 value="0.0474982649" flag="0"/>
      <psa10 value="0.0045826336" flag="0"/>
      <psa30 value="0.0002512684" flag="0"/>
    </comp>
  </station>
  <station code="STIA" name="STIA" netid="HC" insttype="120" lat="35.2021" lon="26.0909">
    <comp name="--.HHE">
      <acc value="0.0661547357" flag="0"/>
      <vel value="0.0214855056" flag="0"/>
      <psa03 value="0.1193485435" flag="0"/>
      <psa10 value="0.0087937047" flag="0"/>
      <psa30 value="0.0004939307" flag="0"/>
    </comp>
    <comp name="--.HHZ">
      <acc value="0.0650504532" flag="0"/>
      <vel value="0.0146495162" flag="0"/>
      <psa03 value="0.0607987028" flag="0"/>
      <psa10 value="0.0039423825" flag="0"/>
      <psa30 value="0.0003045812" flag="0"/>
    </comp>
    <comp name="--.HHN">
      <acc value="0.0463191117" flag="0"/>
      <vel value="0.0124804950" flag="0"/>
      <psa03 value="0.0465527863" flag="0"/>
      <psa10 value="0.0075951750" flag="0"/>
      <psa30 value="0.0004393369" flag="0"/>
    </comp>
  </station>
  <station code="SIT2" name="SIT2" netid="HI" insttype="CMG-5TD,ACCELEROMETER,GURALP" lat="35.2059" lon="26.107">
    <comp name="--.HNZ">
      <acc value="0.0862138768" flag="0"/>
      <vel value="0.0294596553" flag="0"/>
      <psa03 value="0.1443285600" flag="0"/>
      <psa10 value="0.0052738330" flag="0"/>
      <psa30 value="0.0005778792" flag="0"/>
    </comp>
    <comp name="--.HNN">
      <acc value="0.0687600865" flag="0"/>
      <vel value="0.0411941896" flag="0"/>
      <psa03 value="0.2038885119" flag="0"/>
      <psa10 value="0.0150378180" flag="0"/>
      <psa30 value="0.0010473745" flag="0"/>
    </comp>
    <comp name="--.HNE">
      <acc value="0.0761715098" flag="0"/>
      <vel value="0.0315447985" flag="0"/>
      <psa03 value="0.1333687741" flag="0"/>
      <psa10 value="0.0183728964" flag="0"/>
      <psa30 value="0.0008710292" flag="0"/>
    </comp>
  </station>
  <station code="KARP" name="KARP" netid="HL" insttype="120" lat="35.5471" lon="27.1611">
    <comp name="--.HHE">
      <acc value="0.2615050639" flag="0"/>
      <vel value="0.0333836879" flag="0"/>
      <psa03 value="0.0907917173" flag="0"/>
      <psa10 value="0.0081088808" flag="0"/>
      <psa30 value="0.0007777705" flag="0"/>
    </comp>
    <comp name="--.HHN">
      <acc value="0.2258232792" flag="0"/>
      <vel value="0.0352351646" flag="0"/>
      <psa03 value="0.0984897425" flag="0"/>
      <psa10 value="0.0092156778" flag="0"/>
      <psa30 value="0.0005361632" flag="0"/>
    </comp>
    <comp name="--.HHZ">
      <acc value="0.1946597061" flag="0"/>
      <vel value="0.0191192763" flag="0"/>
      <psa03 value="0.0433791150" flag="0"/>
      <psa10 value="0.0097467907" flag="0"/>
      <psa30 value="0.0003953402" flag="0"/>
    </comp>
  </station>
  <station code="KLNA" name="KLNA" netid="HL" insttype="CMG-5" lat="36.9571" lon="26.9727">
    <comp name="00.HNE">
      <acc value="0.0268817817" flag="0"/>
      <vel value="0.0098362775" flag="0"/>
      <psa03 value="0.0313910219" flag="0"/>
      <psa10 value="0.0145161123" flag="0"/>
      <psa30 value="0.0007336377" flag="0"/>
    </comp>
    <comp name="00.HNN">
      <acc value="0.0215193829" flag="0"/>
      <vel value="0.0079370886" flag="0"/>
      <psa03 value="0.0280223364" flag="0"/>
      <psa10 value="0.0067670221" flag="0"/>
      <psa30 value="0.0007706141" flag="0"/>
    </comp>
    <comp name="00.HNZ">
      <acc value="0.0746065405" flag="0"/>
      <vel value="0.0161040078" flag="0"/>
      <psa03 value="0.0318808657" flag="0"/>
      <psa10 value="0.0051521569" flag="0"/>
      <psa30 value="0.0003281320" flag="0"/>
    </comp>
  </station>
  <station code="SAP3" name="SAP3" netid="HL" insttype="LE3D20_SMART24" lat="36.4356" lon="25.3454">
    <comp name="--.HHZ">
      <acc value="0.0238794487" flag="0"/>
      <vel value="0.0176234858" flag="0"/>
      <psa03 value="0.0613417545" flag="0"/>
      <psa10 value="0.0138508848" flag="0"/>
      <psa30 value="0.0012623385" flag="0"/>
    </comp>
    <comp name="--.HHE">
      <acc value="0.0252266502" flag="0"/>
      <vel value="0.0202725430" flag="0"/>
      <psa03 value="0.0575208588" flag="0"/>
      <psa10 value="0.0267413568" flag="0"/>
      <psa30 value="0.0048655170" flag="0"/>
    </comp>
    <comp name="--.HHN">
      <acc value="0.0283883804" flag="0"/>
      <vel value="0.0216163185" flag="0"/>
      <psa03 value="0.0852530385" flag="0"/>
      <psa10 value="0.0339363655" flag="0"/>
      <psa30 value="0.0063281501" flag="0"/>
    </comp>
  </station>
  <station code="THERA" name="THERA" netid="HL" insttype="120" lat="36.367" lon="25.4753">
    <comp name="--.HHN">
      <acc value="0.0160278901" flag="0"/>
      <vel value="0.0061570833" flag="0"/>
      <psa03 value="0.0332349352" flag="0"/>
      <psa10 value="0.0056853505" flag="0"/>
      <psa30 value="0.0004674160" flag="0"/>
    </comp>
    <comp name="--.HHZ">
      <acc value="0.0285027796" flag="0"/>
      <vel value="0.0124553499" flag="0"/>
      <psa03 value="0.0774987628" flag="0"/>
      <psa10 value="0.0050414262" flag="0"/>
      <psa30 value="0.0005266000" flag="0"/>
    </comp>
    <comp name="--.HHE">
      <acc value="0.0215037929" flag="0"/>
      <vel value="0.0117659714" flag="0"/>
      <psa03 value="0.0481828003" flag="0"/>
      <psa10 value="0.0053313832" flag="0"/>
      <psa30 value="0.0008412045" flag="0"/>
    </comp>
  </station>
  <station code="THRA" name="THRA" netid="HL" insttype="CMG-5" lat="36.415" lon="25.4324">
    <comp name="00.HNE">
      <acc value="0.0575346268" flag="0"/>
      <vel value="0.0259654305" flag="0"/>
      <psa03 value="0.1680182281" flag="0"/>
      <psa10 value="0.0572599006" flag="0"/>
      <psa30 value="0.0031500996" flag="0"/>
    </comp>
    <comp name="00.HNN">
      <acc value="0.0480721772" flag="0"/>
      <vel value="0.0318927434" flag="0"/>
      <psa03 value="0.1166680564" flag="0"/>
      <psa10 value="0.0508447394" flag="0"/>
      <psa30 value="0.0030712748" flag="0"/>
    </comp>
    <comp name="00.HNZ">
      <acc value="0.0654210249" flag="0"/>
      <vel value="0.0292844223" flag="0"/>
      <psa03 value="0.1876579603" flag="0"/>
      <psa10 value="0.0201398808" flag="0"/>
      <psa30 value="0.0011782758" flag="0"/>
    </comp>
  </station>
  <station code="ZKR" name="ZKR" netid="HL" insttype="120" lat="35.1147" lon="26.2169">
    <comp name="--.HHE">
      <acc value="0.0452911626" flag="0"/>
      <vel value="0.0171483100" flag="0"/>
      <psa03 value="0.0792737987" flag="0"/>
      <psa10 value="0.0070063844" flag="0"/>
      <psa30 value="0.0006927898" flag="0"/>
    </comp>
    <comp name="--.HHN">
      <acc value="0.0110791063" flag="0"/>
      <vel value="0.0038749110" flag="0"/>
      <psa03 value="0.0212803085" flag="0"/>
      <psa10 value="0.0021502225" flag="0"/>
      <psa30 value="0.0001882743" flag="0"/>
    </comp>
    <comp name="--.HHZ">
      <acc value="0.0261259717" flag="0"/>
      <vel value="0.0068522136" flag="0"/>
      <psa03 value="0.0461052951" flag="0"/>
      <psa10 value="0.0045506323" flag="0"/>
      <psa30 value="0.0002467575" flag="0"/>
    </comp>
  </station>
  <station code="CMBO" name="CMBO" netid="HT" insttype="120P," lat="36.4709" lon="25.4056">
    <comp name="--.HHN">
      <acc value="0.0918283079" flag="0"/>
      <vel value="0.0905686135" flag="0"/>
      <psa03 value="0.3681928375" flag="0"/>
      <psa10 value="0.0851383444" flag="0"/>
      <psa30 value="0.0044715604" flag="0"/>
    </comp>
    <comp name="--.HHE">
      <acc value="0.0641510039" flag="0"/>
      <vel value="0.0466624479" flag="0"/>
      <psa03 value="0.1945572970" flag="0"/>
      <psa10 value="0.0377204532" flag="0"/>
      <psa30 value="0.0035412316" flag="0"/>
    </comp>
    <comp name="--.HHZ">
      <acc value="0.0620518960" flag="0"/>
      <vel value="0.0331198510" flag="0"/>
      <psa03 value="0.1659469931" flag="0"/>
      <psa10 value="0.0186993755" flag="0"/>
      <psa30 value="0.0014416810" flag="0"/>
    </comp>
  </station>
  <station code="THT1" name="THT1" netid="HT" insttype="30" lat="36.3858" lon="25.4296">
    <comp name="--.HHN">
      <acc value="0.0174761694" flag="0"/>
      <vel value="0.0129466090" flag="0"/>
      <psa03 value="0.0483380197" flag="0"/>
      <psa10 value="0.0102983061" flag="0"/>
      <psa30 value="0.0008554929" flag="0"/>
    </comp>
    <comp name="--.HHE">
      <acc value="0.0203107181" flag="0"/>
      <vel value="0.0061697705" flag="0"/>
      <psa03 value="0.0406711364" flag="0"/>
      <psa10 value="0.0037823552" flag="0"/>
      <psa30 value="0.0006169869" flag="0"/>
    </comp>
    <comp name="--.HHZ">
      <acc value="0.0316369859" flag="0"/>
      <vel value="0.0093850026" flag="0"/>
      <psa03 value="0.0402838923" flag="0"/>
      <psa10 value="0.0036252280" flag="0"/>
      <psa30 value="0.0003591087" flag="0"/>
    </comp>
  </station>
</stationlist>
