<?xml version="1.0" encoding="UTF-8" standalone="yes"?>
<!DOCTYPE earthquake SYSTEM "stationlist.dtd">
<stationlist created="" xmlns="ch.ethz.sed.shakemap.usgs.xml">
  <station code="GVD" name="GVD" netid="GE" source="GFZ" insttype="STS-2/N" lat="34.8391" lon="24.0874">
    <comp name="--.HHE">
      <acc value="0.0189930264" flag="0"/>
      <vel value="0.0104962684" flag="0"/>
      <psa03 value="0.0558953506" flag="0"/>
      <psa10 value="0.0082176229" flag="0"/>
      <psa30 value="0.0008815493" flag="0"/>
    </comp>
    <comp name="--.HHN">
      <acc value="0.0216623086" flag="0"/>
      <vel value="0.0108488152" flag="0"/>
      <psa03 value="0.0590840266" flag="0"/>
      <psa10 value="0.0137507468" flag="0"/>
      <psa30 value="0.0011889404" flag="0"/>
    </comp>
    <comp name="--.HHZ">
      <acc value="0.0134511869" flag="0"/>
      <vel value="0.0053918929" flag="0"/>
      <psa03 value="0.0199381671" flag="0"/>
      <psa10 value="0.0059365766" flag="0"/>
      <psa30 value="0.0008156939" flag="0"/>
    </comp>
  </station>
  <station code="IMMV" name="IMMV" netid="GE" source="GFZ" insttype="STS-2/N" lat="35.4606" lon="23.9811">
    <comp name="--.HHE">
      <acc value="0.0946048727" flag="0"/>
      <vel value="0.0288395579" flag="0"/>
      <psa03 value="0.1111299144" flag="0"/>
      <psa10 value="0.0163194842" flag="0"/>
      <psa30 value="0.0012523285" flag="0"/>
    </comp>
    <comp name="--.HHN">
      <acc value="0.0921643156" flag="0"/>
      <vel value="0.0241493202" flag="0"/>
      <psa03 value="0.1914867078" flag="0"/>
      <psa10 value="0.0182484026" flag="0"/>
      <psa30 value="0.0017947958" flag="0"/>
    </comp>
    <comp name="--.HHZ">
      <acc value="0.0635190775" flag="0"/>
      <vel value="0.0168777881" flag="0"/>
      <psa03 value="0.1202536593" flag="0"/>
      <psa10 value="0.0118449877" flag="0"/>
      <psa30 value="0.0009246457" flag="0"/>
    </comp>
  </station>
  <station code="CHAN" name="CHAN" netid="HC" source="NOA" insttype="120" lat="35.5193" lon="24.0428">
    <comp name="--.HHE">
      <acc value="0.1059523592" flag="0"/>
      <vel value="0.0475576630" flag="0"/>
      <psa03 value="0.2348864247" flag="0"/>
      <psa10 value="0.0507321545" flag="0"/>
      <psa30 value="0.0034417373" flag="0"/>
    </comp>
    <comp name="--.HHN">
      <acc value="0.1113314797" flag="0"/>
      <vel value="0.0468176971" flag="0"/>
      <psa03 value="0.2773358694" flag="0"/>
      <psa10 value="0.0527872668" flag="0"/>
      <psa30 value="0.0036152011" flag="0"/>
    </comp>
    <comp name="--.HHZ">
      <acc value="0.1041522871" flag="0"/>
      <vel value="0.0269073251" flag="0"/>
      <psa03 value="0.1522456394" flag="0"/>
      <psa10 value="0.0452125908" flag="0"/>
      <psa30 value="0.0024003493" flag="0"/>
    </comp>
  </station>
  <station code="KNDR" name="KNDR" netid="HC" source="NOA" insttype="60" lat="35.2348" lon="23.6248">
    <comp name="--.HHE">
      <acc value="0.5789826253" flag="0"/>
      <vel value="0.1159440711" flag="0"/>
      <psa03 value="0.3579373788" flag="0"/>
      <psa10 value="0.0626945490" flag="0"/>
      <psa30 value="0.0038558721" flag="0"/>
    </comp>
    <comp name="--.HHN">
      <acc value="0.5135037359" flag="0"/>
      <vel value="0.1139026164" flag="0"/>
      <psa03 value="0.3674230731" flag="0"/>
      <psa10 value="0.0600808065" flag="0"/>
      <psa30 value="0.0041570298" flag="0"/>
    </comp>
    <comp name="--.HHZ">
      <acc value="0.5046508781" flag="0"/>
      <vel value="0.1115478009" flag="0"/>
      <psa03 value="0.2042244387" flag="0"/>
      <psa10 value="0.0323103410" flag="0"/>
      <psa30 value="0.0024663742" flag="0"/>
    </comp>
  </station>
  <station code="PRNS" name="PRNS" netid="HC" source="NOA" insttype="120" lat="35.3445" lon="24.4266">
    <comp name="--.HHE">
      <acc value="0.0568502873" flag="0"/>
      <vel value="0.0170110551" flag="0"/>
      <psa03 value="0.0606204150" flag="0"/>
      <psa10 value="0.0202411242" flag="0"/>
      <psa30 value="0.0010520612" flag="0"/>
    </comp>
    <comp name="--.HHN">
      <acc value="0.0703529555" flag="0"/>
      <vel value="0.0285110832" flag="0"/>
      <psa03 value="0.1377755669" flag="0"/>
      <psa10 value="0.0283805523" flag="0"/>
      <psa30 value="0.0012157292" flag="0"/>
    </comp>
    <comp name="--.HHZ">
      <acc value="0.0415936863" flag="0"/>
      <vel value="0.0125766563" flag="0"/>
      <psa03 value="0.0550021001" flag="0"/>
      <psa10 value="0.0117172627" flag="0"/>
      <psa30 value="0.0008943088" flag="0"/>
    </comp>
  </station>
  <station code="RODP" name="RODP" netid="HC" source="NOA" insttype="1s-100Hz," lat="35.5604" lon="23.7577">
    <comp name="--.HHE">
      <acc value="0.1339236431" flag="0"/>
      <vel value="0.0431814949" flag="0"/>
      <psa03 value="0.2167524270" flag="0"/>
      <psa10 value="0.0417327324" flag="0"/>
      <psa30 value="0.0026028943" flag="0"/>
    </comp>
    <comp name="--.HHN">
      <acc value="0.3661854633" flag="0"/>
      <vel value="0.1774243688" flag="0"/>
      <psa03 value="0.5205050998" flag="0"/>
      <psa10 value="0.1434877512" flag="0"/>
      <psa30 value="0.0105607208" flag="0"/>
    </comp>
    <comp name="--.HHZ">
      <acc value="0.2088991647" flag="0"/>
      <vel value="0.1142221982" flag="0"/>
      <psa03 value="0.5664382321" flag="0"/>
      <psa10 value="0.1058465908" flag="0"/>
      <psa30 value="0.0054425797" flag="0"/>
    </comp>
  </station>
  <station code="ANKY" name="ANKY" netid="HL" source="NOA" insttype="60" lat="35.867" lon="23.3012">
    <comp name="--.HHE">
      <acc value="0.0879921088" flag="0"/>
      <vel value="0.0389709702" flag="0"/>
      <psa03 value="0.1382910734" flag="0"/>
      <psa10 value="0.0253069747" flag="0"/>
      <psa30 value="0.0013696717" flag="0"/>
    </comp>
    <comp name="--.HHN">
      <acc value="0.1244601199" flag="0"/>
      <vel value="0.0437843239" flag="0"/>
      <psa03 value="0.1846896880" flag="0"/>
      <psa10 value="0.0270044953" flag="0"/>
      <psa30 value="0.0013050467" flag="0"/>
    </comp>
    <comp name="--.HHZ">
      <acc value="0.0795008281" flag="0"/>
      <vel value="0.0228323294" flag="0"/>
      <psa03 value="0.1348147134" flag="0"/>
      <psa10 value="0.0078726125" flag="0"/>
      <psa30 value="0.0007301254" flag="0"/>
    </comp>
  </station>
  <station code="GVD" name="GVD" netid="HL" source="NOA" insttype="120" lat="34.8391" lon="24.0874">
    <comp name="--.HHE">
      <acc value="0.0186924792" flag="0"/>
      <vel value="0.0102829264" flag="0"/>
      <psa03 value="0.0543712083" flag="0"/>
      <psa10 value="0.0081408309" flag="0"/>
      <psa30 value="0.0008798124" flag="0"/>
    </comp>
    <comp name="--.HHN">
      <acc value="0.0212730584" flag="0"/>
      <vel value="0.0106601139" flag="0"/>
      <psa03 value="0.0574377772" flag="0"/>
      <psa10 value="0.0136608847" flag="0"/>
      <psa30 value="0.0011831385" flag="0"/>
    </comp>
    <comp name="--.HHZ">
      <acc value="0.0132893577" flag="0"/>
      <vel value="0.0053362932" flag="0"/>
      <psa03 value="0.0193699109" flag="0"/>
      <psa10 value="0.0058898003" flag="0"/>
      <psa30 value="0.0008127161" flag="0"/>
    </comp>
  </station>
  <station code="IMMV" name="IMMV" netid="HL" source="NOA" insttype="120" lat="35.4606" lon="23.9811">
    <comp name="--.HHE">
      <acc value="0.0947910073" flag="0"/>
      <vel value="0.0283478207" flag="0"/>
      <psa03 value="0.1085223996" flag="0"/>
      <psa10 value="0.0161309691" flag="0"/>
      <psa30 value="0.0012469965" flag="0"/>
    </comp>
    <comp name="--.HHN">
      <acc value="0.0926003630" flag="0"/>
      <vel value="0.0238057424" flag="0"/>
      <psa03 value="0.1859293807" flag="0"/>
      <psa10 value="0.0180902973" flag="0"/>
      <psa30 value="0.0017951174" flag="0"/>
    </comp>
    <comp name="--.HHZ">
      <acc value="0.0626754694" flag="0"/>
      <vel value="0.0165119408" flag="0"/>
      <psa03 value="0.1168068021" flag="0"/>
      <psa10 value="0.0116957691" flag="0"/>
      <psa30 value="0.0009171255" flag="0"/>
    </comp>
  </station>
  <station code="VAM" name="VAM" netid="HL" source="NOA" insttype="120" lat="35.407" lon="24.1997">
    <comp name="--.HHE">
      <acc value="0.0551969767" flag="0"/>
      <vel value="0.0184179882" flag="0"/>
      <psa03 value="0.0808536668" flag="0"/>
      <psa10 value="0.0175805143" flag="0"/>
      <psa30 value="0.0015261058" flag="0"/>
    </comp>
    <comp name="--.HHN">
      <acc value="0.0780868754" flag="0"/>
      <vel value="0.0286821019" flag="0"/>
      <psa03 value="0.1141317182" flag="0"/>
      <psa10 value="0.0234785603" flag="0"/>
      <psa30 value="0.0009915020" flag="0"/>
    </comp>
    <comp name="--.HHZ">
      <acc value="0.0453455639" flag="0"/>
      <vel value="0.0141060277" flag="0"/>
      <psa03 value="0.0502686825" flag="0"/>
      <psa10 value="0.0131651557" flag="0"/>
      <psa30 value="0.0006951448" flag="0"/>
    </comp>
  </station>
</stationlist>
