<?xml version="1.0" encoding="UTF-8" standalone="yes"?>
<!DOCTYPE earthquake SYSTEM "stationlist.dtd">
<stationlist created="" xmlns="ch.ethz.sed.shakemap.usgs.xml">
  <station code="CLDR" name="CLDR" netid="KO" insttype="CMG-3ESP" commtype="DIG" lat="39.144" lon="43.9172">
    <comp name="--.HHE">
      <acc value="0.0327878840" flag="0"/>
      <vel value="0.0258064237" flag="0"/>
      <psa03 value="0.1381244600" flag="0"/>
      <psa10 value="0.0382860914" flag="0"/>
      <psa30 value="0.0020040647" flag="0"/>
    </comp>
    <comp name="--.HHN">
      <acc value="0.0207298096" flag="0"/>
      <vel value="0.0159446245" flag="0"/>
      <psa03 value="0.0545471187" flag="0"/>
      <psa10 value="0.0205450552" flag="0"/>
      <psa30 value="0.0009500295" flag="0"/>
    </comp>
    <comp name="--.HHZ">
      <acc value="0.0121863234" flag="0"/>
      <vel value="0.0095818638" flag="0"/>
      <psa03 value="0.0373668975" flag="0"/>
      <psa10 value="0.0091658862" flag="0"/>
      <psa30 value="0.0006039066" flag="0"/>
    </comp>
  </station>
</stationlist>
