<?xml version="1.0" encoding="UTF-8" standalone="yes"?>
<!DOCTYPE earthquake SYSTEM "stationlist.dtd">
<stationlist created="" xmlns="ch.ethz.sed.shakemap.usgs.xml">
  <station code="IMMV" name="IMMV" netid="GE" insttype="STS-2/N" commtype="DIG" lat="35.4606" lon="23.9811">
    <comp name="--.HHN">
      <acc value="0.0533854457" flag="0"/>
      <vel value="0.0518332639" flag="0"/>
      <psa03 value="0.2074079885" flag="0"/>
      <psa10 value="0.0582854347" flag="0"/>
      <psa30 value="0.0090233889" flag="0"/>
    </comp>
    <comp name="--.HHE">
      <acc value="0.0501391716" flag="0"/>
      <vel value="0.0560280519" flag="0"/>
      <psa03 value="0.1633823344" flag="0"/>
      <psa10 value="0.0739494746" flag="0"/>
      <psa30 value="0.0076400921" flag="0"/>
    </comp>
    <comp name="--.HHZ">
      <acc value="0.0320998844" flag="0"/>
      <vel value="0.0261925182" flag="0"/>
      <psa03 value="0.1228240786" flag="0"/>
      <psa10 value="0.0233131634" flag="0"/>
      <psa30 value="0.0043794540" flag="0"/>
    </comp>
  </station>
  <station code="KTHA" name="KTHA" netid="GE" insttype="STS-2/N" commtype="DIG" lat="36.2566" lon="23.0621">
    <comp name="--.HHE">
      <acc value="0.1865627126" flag="0"/>
      <vel value="0.1691701035" flag="0"/>
      <psa03 value="0.2374711634" flag="0"/>
      <psa10 value="0.2107846762" flag="0"/>
      <psa30 value="0.0185808340" flag="0"/>
    </comp>
    <comp name="--.HHN">
      <acc value="0.0577695274" flag="0"/>
      <vel value="0.0453609291" flag="0"/>
      <psa03 value="0.1225989448" flag="0"/>
      <psa10 value="0.0613008065" flag="0"/>
      <psa30 value="0.0103145031" flag="0"/>
    </comp>
    <comp name="--.HHZ">
      <acc value="0.0511491335" flag="0"/>
      <vel value="0.0378794071" flag="0"/>
      <psa03 value="0.1041205705" flag="0"/>
      <psa10 value="0.0573689149" flag="0"/>
      <psa30 value="0.0077488211" flag="0"/>
    </comp>
  </station>
  <station code="ATEI" name="ATEI" netid="HC" insttype="DC" commtype="DIG" lat="35.5193" lon="24.0432">
    <comp name="--.HNE">
      <acc value="0.0440985963" flag="0"/>
      <vel value="0.0434024703" flag="0"/>
      <psa03 value="0.1580472212" flag="0"/>
      <psa10 value="0.0534314347" flag="0"/>
      <psa30 value="0.0103286574" flag="0"/>
    </comp>
    <comp name="--.HNN">
      <acc value="0.0451073623" flag="0"/>
      <vel value="0.0601942922" flag="0"/>
      <psa03 value="0.1302587943" flag="0"/>
      <psa10 value="0.1010182418" flag="0"/>
      <psa30 value="0.0132767322" flag="0"/>
    </comp>
    <comp name="--.HNZ">
      <acc value="0.0282245789" flag="0"/>
      <vel value="0.0233276240" flag="0"/>
      <psa03 value="0.0716994961" flag="0"/>
      <psa10 value="0.0385529460" flag="0"/>
      <psa30 value="0.0064130340" flag="0"/>
    </comp>
  </station>
  <station code="CHAN" name="CHAN" netid="HC" insttype="120" commtype="DIG" lat="35.5193" lon="24.0428">
    <comp name="--.HHE">
      <acc value="0.0932586408" flag="0"/>
      <vel value="0.0869097295" flag="0"/>
      <psa03 value="0.3415778550" flag="0"/>
      <psa10 value="0.1044590338" flag="0"/>
      <psa30 value="0.0238289639" flag="0"/>
    </comp>
    <comp name="--.HHN">
      <acc value="0.0832699949" flag="0"/>
      <vel value="0.1180634843" flag="0"/>
      <psa03 value="0.2574546732" flag="0"/>
      <psa10 value="0.1898435673" flag="0"/>
      <psa30 value="0.0251222173" flag="0"/>
    </comp>
    <comp name="--.HHZ">
      <acc value="0.0514966679" flag="0"/>
      <vel value="0.0431681709" flag="0"/>
      <psa03 value="0.1386199401" flag="0"/>
      <psa10 value="0.0650400582" flag="0"/>
      <psa30 value="0.0114389026" flag="0"/>
    </comp>
  </station>
  <station code="IPPL" name="IPPL" netid="HC" insttype="60" commtype="DIG" lat="35.3486" lon="24.4632">
    <comp name="--.HHE">
      <acc value="0.0000000000" flag="0"/>
      <vel value="-100.0000000000" flag="0"/>
      <psa03 value="0.0000000000" flag="0"/>
      <psa10 value="0.0000000000" flag="0"/>
      <psa30 value="0.0000000000" flag="0"/>
    </comp>
    <comp name="--.HHN">
      <acc value="0.0000000000" flag="0"/>
      <vel value="-100.0000000000" flag="0"/>
      <psa03 value="0.0000000000" flag="0"/>
      <psa10 value="0.0000000000" flag="0"/>
      <psa30 value="0.0000000000" flag="0"/>
    </comp>
    <comp name="--.HHZ">
      <acc value="0.0165756855" flag="0"/>
      <vel value="0.0089406154" flag="0"/>
      <psa03 value="0.0351570941" flag="0"/>
      <psa10 value="0.0107212069" flag="0"/>
      <psa30 value="0.0013674796" flag="0"/>
    </comp>
  </station>
  <station code="KNDR" name="KNDR" netid="HC" insttype="120" commtype="DIG" lat="35.2348" lon="23.6248">
    <comp name="--.HHE">
      <acc value="0.1080296549" flag="0"/>
      <vel value="0.1041124248" flag="0"/>
      <psa03 value="0.3461146139" flag="0"/>
      <psa10 value="0.1740407739" flag="0"/>
      <psa30 value="0.0152085861" flag="0"/>
    </comp>
    <comp name="--.HHN">
      <acc value="0.1251189117" flag="0"/>
      <vel value="0.1070139239" flag="0"/>
      <psa03 value="0.3969350229" flag="0"/>
      <psa10 value="0.1382834337" flag="0"/>
      <psa30 value="0.0214877558" flag="0"/>
    </comp>
  </station>
  <station code="ARE2" name="ARE2" netid="HI" insttype="unknown" commtype="DIG" lat="36.6663" lon="22.3826">
    <comp name="--.HNN">
      <acc value="0.0350894479" flag="0"/>
      <vel value="0.0251720383" flag="0"/>
      <psa03 value="0.1393374140" flag="0"/>
      <psa10 value="0.0336200719" flag="0"/>
      <psa30 value="0.0030136552" flag="0"/>
    </comp>
    <comp name="--.HNZ">
      <acc value="0.0236453143" flag="0"/>
      <vel value="0.0212450643" flag="0"/>
      <psa03 value="0.0558563193" flag="0"/>
      <psa10 value="0.0426186354" flag="0"/>
      <psa30 value="0.0031980040" flag="0"/>
    </comp>
    <comp name="--.HNE">
      <acc value="0.0395297647" flag="0"/>
      <vel value="0.0509553866" flag="0"/>
      <psa03 value="0.1000339851" flag="0"/>
      <psa10 value="0.0883920806" flag="0"/>
      <psa30 value="0.0051724292" flag="0"/>
    </comp>
  </station>
  <station code="CH01" name="CH01" netid="HI" insttype="CMG-5TD,ACCELEROMETER,GURALP" commtype="DIG" lat="35.517" lon="24.0208">
    <comp name="--.HNE">
      <acc value="0.0470420757" flag="0"/>
      <vel value="0.0493546244" flag="0"/>
      <psa03 value="0.1367013680" flag="0"/>
      <psa10 value="0.0903456023" flag="0"/>
      <psa30 value="0.0090705281" flag="0"/>
    </comp>
    <comp name="--.HNN">
      <acc value="0.0560480921" flag="0"/>
      <vel value="0.0663517908" flag="0"/>
      <psa03 value="0.1087431388" flag="0"/>
      <psa10 value="0.0746544850" flag="0"/>
      <psa30 value="0.0211593178" flag="0"/>
    </comp>
  </station>
  <station code="CH02" name="CH02" netid="HI" insttype="unknown" commtype="DIG" lat="35.5145" lon="24.0315">
    <comp name="--.HNN">
      <acc value="0.0540041375" flag="0"/>
      <vel value="0.0639265259" flag="0"/>
      <psa03 value="0.1594172816" flag="0"/>
      <psa10 value="0.0944979168" flag="0"/>
      <psa30 value="0.0194365485" flag="0"/>
    </comp>
  </station>
  <station code="CH03" name="CH03" netid="HI" insttype="unknown" commtype="DIG" lat="35.533" lon="24.0705">
    <comp name="--.HNN">
      <acc value="0.0419080675" flag="0"/>
      <vel value="0.0477335278" flag="0"/>
      <psa03 value="0.1028616334" flag="0"/>
      <psa10 value="0.0556943831" flag="0"/>
      <psa30 value="0.0107117929" flag="0"/>
    </comp>
    <comp name="--.HNE">
      <acc value="0.0440710290" flag="0"/>
      <vel value="0.0472307245" flag="0"/>
      <psa03 value="0.1157915640" flag="0"/>
      <psa10 value="0.0487601946" flag="0"/>
      <psa30 value="0.0089311204" flag="0"/>
    </comp>
  </station>
  <station code="GTH2" name="GTH2" netid="HI" insttype="unknown" commtype="DIG" lat="36.7603" lon="22.5659">
    <comp name="--.HNE">
      <acc value="0.1022053023" flag="0"/>
      <vel value="0.1034655191" flag="0"/>
      <psa03 value="0.1694977735" flag="0"/>
      <psa10 value="0.0888101281" flag="0"/>
      <psa30 value="0.0116839841" flag="0"/>
    </comp>
    <comp name="--.HNN">
      <acc value="0.0792730870" flag="0"/>
      <vel value="0.0806575160" flag="0"/>
      <psa03 value="0.1707750217" flag="0"/>
      <psa10 value="0.0786483855" flag="0"/>
      <psa30 value="0.0072634419" flag="0"/>
    </comp>
  </station>
  <station code="NPS1" name="NPS1" netid="HI" insttype="unknown" commtype="DIG" lat="36.5126" lon="23.0625">
    <comp name="--.HNN">
      <acc value="0.1395584414" flag="0"/>
      <vel value="0.1139909329" flag="0"/>
      <psa03 value="0.3715539751" flag="0"/>
      <psa10 value="0.0917710089" flag="0"/>
      <psa30 value="0.0095581806" flag="0"/>
    </comp>
    <comp name="--.HNZ">
      <acc value="0.0450806042" flag="0"/>
      <vel value="0.0366352570" flag="0"/>
      <psa03 value="0.1527607912" flag="0"/>
      <psa10 value="0.0416085630" flag="0"/>
      <psa30 value="0.0089765763" flag="0"/>
    </comp>
  </station>
  <station code="ANKY" name="ANKY" netid="HL" insttype="60" commtype="DIG" lat="35.867" lon="23.3012">
    <comp name="--.HHE">
      <acc value="0.0725635292" flag="0"/>
      <vel value="0.0535216579" flag="0"/>
      <psa03 value="0.2048226114" flag="0"/>
      <psa10 value="0.0911627635" flag="0"/>
      <psa30 value="0.0133925322" flag="0"/>
    </comp>
    <comp name="--.HHN">
      <acc value="0.0791211846" flag="0"/>
      <vel value="0.0616741507" flag="0"/>
      <psa03 value="0.1684864351" flag="0"/>
      <psa10 value="0.1161374804" flag="0"/>
      <psa30 value="0.0065132731" flag="0"/>
    </comp>
  </station>
  <station code="CHNB" name="CHNB" netid="HL" insttype="CMG-5" commtype="DIG" lat="35.4877" lon="24.0661">
    <comp name="00.HNN">
      <acc value="0.1180800408" flag="0"/>
      <vel value="0.1269424789" flag="0"/>
      <psa03 value="0.3178632151" flag="0"/>
      <psa10 value="0.1774654834" flag="0"/>
      <psa30 value="0.0127726945" flag="0"/>
    </comp>
    <comp name="00.HNE">
      <acc value="0.1262900699" flag="0"/>
      <vel value="0.0824721370" flag="0"/>
      <psa03 value="0.3863619447" flag="0"/>
      <psa10 value="0.1052642824" flag="0"/>
      <psa30 value="0.0131874589" flag="0"/>
    </comp>
    <comp name="00.HNZ">
      <acc value="0.0554013319" flag="0"/>
      <vel value="0.0470778492" flag="0"/>
      <psa03 value="0.2622324211" flag="0"/>
      <psa10 value="0.0455829459" flag="0"/>
      <psa30 value="0.0066148174" flag="0"/>
    </comp>
  </station>
  <station code="IMMV" name="IMMV" netid="HL" insttype="120" commtype="DIG" lat="35.4606" lon="23.9811">
    <comp name="--.HHN">
      <acc value="0.0515971860" flag="0"/>
      <vel value="0.0512385584" flag="0"/>
      <psa03 value="0.2015752173" flag="0"/>
      <psa10 value="0.0578728488" flag="0"/>
      <psa30 value="0.0090193624" flag="0"/>
    </comp>
  </station>
  <station code="MNVA" name="MNVA" netid="HL" insttype="CMG-5" commtype="DIG" lat="36.6871" lon="23.0373">
    <comp name="00.HNE">
      <acc value="0.0309594201" flag="0"/>
      <vel value="0.0273199958" flag="0"/>
      <psa03 value="0.0635132260" flag="0"/>
      <psa10 value="0.0484846962" flag="0"/>
      <psa30 value="0.0055545987" flag="0"/>
    </comp>
    <comp name="00.HNZ">
      <acc value="0.0225978896" flag="0"/>
      <vel value="0.0263465284" flag="0"/>
      <psa03 value="0.0561359607" flag="0"/>
      <psa10 value="0.0294689738" flag="0"/>
      <psa30 value="0.0049851385" flag="0"/>
    </comp>
  </station>
  <station code="VLI" name="VLI" netid="HL" insttype="60" commtype="DIG" lat="36.718" lon="22.9469">
    <comp name="--.HHE">
      <acc value="0.0500596358" flag="0"/>
      <vel value="0.0529958000" flag="0"/>
      <psa03 value="0.1025626712" flag="0"/>
      <psa10 value="0.1321900115" flag="0"/>
      <psa30 value="0.0093924512" flag="0"/>
    </comp>
    <comp name="--.HHN">
      <acc value="0.0507752527" flag="0"/>
      <vel value="0.0505740892" flag="0"/>
      <psa03 value="0.1284642212" flag="0"/>
      <psa10 value="0.1179057485" flag="0"/>
      <psa30 value="0.0062245198" flag="0"/>
    </comp>
    <comp name="--.HHZ">
      <acc value="0.0363298079" flag="0"/>
      <vel value="0.0328521505" flag="0"/>
      <psa03 value="0.0855603114" flag="0"/>
      <psa10 value="0.0701349458" flag="0"/>
      <psa30 value="0.0071898961" flag="0"/>
    </comp>
  </station>
</stationlist>
