<?xml version="1.0" encoding="UTF-8" standalone="yes"?>
<!DOCTYPE earthquake SYSTEM "stationlist.dtd">
<stationlist created="" xmlns="ch.ethz.sed.shakemap.usgs.xml">
  <station code="IMMV" name="IMMV" netid="GE" insttype="STS-2/N" commtype="DIG" lat="35.4606" lon="23.9811">
    <comp name="--.HHN">
      <acc value="0.0533854457" flag="0"/>
      <vel value="0.0518332639" flag="0"/>
      <psa03 value="0.2074079885" flag="0"/>
      <psa10 value="0.0582854347" flag="0"/>
      <psa30 value="0.0090233889" flag="0"/>
    </comp>
    <comp name="--.HHE">
      <acc value="0.0501391716" flag="0"/>
      <vel value="0.0560280519" flag="0"/>
      <psa03 value="0.1633823344" flag="0"/>
      <psa10 value="0.0739494746" flag="0"/>
      <psa30 value="0.0076400921" flag="0"/>
    </comp>
    <comp name="--.HHZ">
      <acc value="0.0320998844" flag="0"/>
      <vel value="0.0261925182" flag="0"/>
      <psa03 value="0.1228240786" flag="0"/>
      <psa10 value="0.0233131634" flag="0"/>
      <psa30 value="0.0043794540" flag="0"/>
    </comp>
  </station>
  <station code="KTHA" name="KTHA" netid="GE" insttype="STS-2/N" commtype="DIG" lat="36.2566" lon="23.0621">
    <comp name="--.HHE">
      <acc value="0.1865627126" flag="0"/>
      <vel value="0.1691701035" flag="0"/>
      <psa03 value="0.2374711634" flag="0"/>
      <psa10 value="0.2107846762" flag="0"/>
      <psa30 value="0.0185808340" flag="0"/>
    </comp>
    <comp name="--.HHN">
      <acc value="0.0577695274" flag="0"/>
      <vel value="0.0453609291" flag="0"/>
      <psa03 value="0.1225989448" flag="0"/>
      <psa10 value="0.0613008065" flag="0"/>
      <psa30 value="0.0103145031" flag="0"/>
    </comp>
    <comp name="--.HHZ">
      <acc value="0.0511491335" flag="0"/>
      <vel value="0.0378794071" flag="0"/>
      <psa03 value="0.1041205705" flag="0"/>
      <psa10 value="0.0573689149" flag="0"/>
      <psa30 value="0.0077488211" flag="0"/>
    </comp>
  </station>
</stationlist>
