<?xml version="1.0" encoding="UTF-8" standalone="yes"?>
<!DOCTYPE earthquake SYSTEM "stationlist.dtd">
<stationlist created="" xmlns="ch.ethz.sed.shakemap.usgs.xml">
  <station code="ZKR" name="ZKR" netid="GE" insttype="STS-2/N" lat="35.1147" lon="26.2169">
    <comp name="--.HHN">
      <acc value="0.0046558003" flag="0"/>
      <vel value="0.0048214344" flag="0"/>
      <psa03 value="0.0100288046" flag="0"/>
      <psa10 value="0.0086196023" flag="0"/>
      <psa30 value="0.0005768685" flag="0"/>
    </comp>
    <comp name="--.HHZ">
      <acc value="0.0054669434" flag="0"/>
      <vel value="0.0056277716" flag="0"/>
      <psa03 value="0.0090577213" flag="0"/>
      <psa10 value="0.0087638574" flag="0"/>
      <psa30 value="0.0008296816" flag="0"/>
    </comp>
    <comp name="--.HHE">
      <acc value="0.0086074524" flag="0"/>
      <vel value="0.0077044498" flag="0"/>
      <psa03 value="0.0158956297" flag="0"/>
      <psa10 value="0.0112188037" flag="0"/>
      <psa30 value="0.0015255132" flag="0"/>
    </comp>
  </station>
  <station code="IDI" name="IDI" netid="HL" insttype="120" lat="35.288" lon="24.89">
    <comp name="--.HHN">
      <acc value="0.0013307498" flag="0"/>
      <vel value="0.0020630706" flag="0"/>
      <psa03 value="0.0039985442" flag="0"/>
      <psa10 value="0.0034526903" flag="0"/>
      <psa30 value="0.0004915228" flag="0"/>
    </comp>
    <comp name="--.HHE">
      <acc value="0.0014399975" flag="0"/>
      <vel value="0.0018594807" flag="0"/>
      <psa03 value="0.0032504372" flag="0"/>
      <psa10 value="0.0034344169" flag="0"/>
      <psa30 value="0.0004877140" flag="0"/>
    </comp>
    <comp name="--.HHZ">
      <acc value="0.0012806061" flag="0"/>
      <vel value="0.0019965268" flag="0"/>
      <psa03 value="0.0032138405" flag="0"/>
      <psa10 value="0.0033474349" flag="0"/>
      <psa30 value="0.0006767253" flag="0"/>
    </comp>
  </station>
  <station code="ZKR" name="ZKR" netid="HL" insttype="120" lat="35.1147" lon="26.2169">
    <comp name="--.HHN">
      <acc value="0.0045764370" flag="0"/>
      <vel value="0.0047707468" flag="0"/>
      <psa03 value="0.0097877037" flag="0"/>
      <psa10 value="0.0085686440" flag="0"/>
      <psa30 value="0.0005754314" flag="0"/>
    </comp>
    <comp name="--.HHZ">
      <acc value="0.0054524978" flag="0"/>
      <vel value="0.0055735412" flag="0"/>
      <psa03 value="0.0089020676" flag="0"/>
      <psa10 value="0.0087064322" flag="0"/>
      <psa30 value="0.0008299940" flag="0"/>
    </comp>
    <comp name="--.HHE">
      <acc value="0.0085316710" flag="0"/>
      <vel value="0.0076535110" flag="0"/>
      <psa03 value="0.0156154182" flag="0"/>
      <psa10 value="0.0111473159" flag="0"/>
      <psa30 value="0.0015244978" flag="0"/>
    </comp>
  </station>
  <station code="IDI" name="IDI" netid="MN" insttype="" lat="35.288" lon="24.89">
    <comp name="--.HHE">
      <acc value="0.0014394650" flag="0"/>
      <vel value="0.0018488838" flag="0"/>
      <psa03 value="0.0032733288" flag="0"/>
      <psa10 value="0.0034042570" flag="0"/>
      <psa30 value="0.0004816705" flag="0"/>
    </comp>
    <comp name="--.HHZ">
      <acc value="0.0012846631" flag="0"/>
      <vel value="0.0019781197" flag="0"/>
      <psa03 value="0.0032364382" flag="0"/>
      <psa10 value="0.0033229424" flag="0"/>
      <psa30 value="0.0006685918" flag="0"/>
    </comp>
    <comp name="--.HHN">
      <acc value="0.0013347014" flag="0"/>
      <vel value="0.0020491366" flag="0"/>
      <psa03 value="0.0040414617" flag="0"/>
      <psa10 value="0.0034286518" flag="0"/>
      <psa30 value="0.0004857862" flag="0"/>
    </comp>
  </station>
</stationlist>
