<stationlist created="1778069427">
	<station code="SIT2" name="SIT2" netid="HI" source="ITSAK Strong Motion Network" insttype="" lat="35.2059" lon="26.107">
		<comp name="--.HNE" depth="0.0">
			<acc value="0.0228245588026584" flag="0"/>
			<vel value="0.0209833631180972" flag="0"/>
			<psa03 value="0.0499770447926096" flag="0"/>
			<psa10 value="0.0220346419153665" flag="0"/>
			<psa30 value="0.00127560031068693" flag="0"/>
		</comp>
		<comp name="--.HNN" depth="0.0">
			<acc value="0.0230428641537146" flag="0"/>
			<vel value="0.0212931336880344" flag="0"/>
			<psa03 value="0.048903231833771" flag="0"/>
			<psa10 value="0.0288197975490274" flag="0"/>
			<psa30 value="0.00127023124589273" flag="0"/>
		</comp>
		<comp name="--.HNZ" depth="0.0">
			<acc value="0.0108062549426716" flag="0"/>
			<vel value="0.00647756785337262" flag="0"/>
			<psa03 value="0.0249214090863774" flag="0"/>
			<psa10 value="0.00896365367390456" flag="0"/>
			<psa30 value="0.000872473029056299" flag="0"/>
		</comp>
	</station>
</stationlist>
