<?xml version="1.0" encoding="UTF-8" standalone="yes"?>
<!DOCTYPE earthquake SYSTEM "stationlist.dtd">
<stationlist created="" xmlns="ch.ethz.sed.shakemap.usgs.xml">
  <station code="CEYT" name="CEYT" netid="KO" insttype="CMG-3ESP" lat="37.0105" lon="35.7478">
    <comp name="--.HHZ">
      <acc value="0.0095075216" flag="0"/>
      <vel value="0.0039554607" flag="0"/>
      <psa03 value="0.0257859847" flag="0"/>
      <psa10 value="0.0043889317" flag="0"/>
      <psa30 value="0.0003729319" flag="0"/>
    </comp>
    <comp name="--.HHN">
      <acc value="0.0151042457" flag="0"/>
      <vel value="0.0089040538" flag="0"/>
      <psa03 value="0.0343868606" flag="0"/>
      <psa10 value="0.0128879891" flag="0"/>
      <psa30 value="0.0006288313" flag="0"/>
    </comp>
  </station>
</stationlist>
