<?xml version="1.0" encoding="UTF-8" standalone="yes"?>
<!DOCTYPE earthquake SYSTEM "stationlist.dtd">
<stationlist created="" xmlns="ch.ethz.sed.shakemap.usgs.xml">
  <station code="ZKR" name="ZKR" netid="GE" insttype="STS-2/N" lat="35.1147" lon="26.2169">
    <comp name="--.HHE">
      <acc value="0.0201531361" flag="0"/>
      <vel value="0.0292277114" flag="0"/>
      <psa03 value="0.0422081730" flag="0"/>
      <psa10 value="0.0443202935" flag="0"/>
      <psa30 value="0.0137630864" flag="0"/>
    </comp>
    <comp name="--.HHN">
      <acc value="0.0107969774" flag="0"/>
      <vel value="0.0110932461" flag="0"/>
      <psa03 value="0.0288847167" flag="0"/>
      <psa10 value="0.0166250131" flag="0"/>
      <psa30 value="0.0038186348" flag="0"/>
    </comp>
    <comp name="--.HHZ">
      <acc value="0.0116372446" flag="0"/>
      <vel value="0.0163690554" flag="0"/>
      <psa03 value="0.0334258292" flag="0"/>
      <psa10 value="0.0263234891" flag="0"/>
      <psa30 value="0.0069110106" flag="0"/>
    </comp>
  </station>
  <station code="SIT2" name="SIT2" netid="HI" insttype="CMG-5TD,ACCELEROMETER,GURALP" lat="35.2059" lon="26.107">
    <comp name="--.HNE">
      <acc value="0.0583613654" flag="0"/>
      <vel value="0.0644622231" flag="0"/>
      <psa03 value="0.1557144137" flag="0"/>
      <psa10 value="0.0604851739" flag="0"/>
      <psa30 value="0.0109303055" flag="0"/>
    </comp>
    <comp name="--.HNZ">
      <acc value="0.0225057598" flag="0"/>
      <vel value="0.0149531160" flag="0"/>
      <psa03 value="0.0546445508" flag="0"/>
      <psa10 value="0.0188386559" flag="0"/>
      <psa30 value="0.0042899754" flag="0"/>
    </comp>
    <comp name="--.HNN">
      <acc value="0.0605280493" flag="0"/>
      <vel value="0.0624288308" flag="0"/>
      <psa03 value="0.1357838222" flag="0"/>
      <psa10 value="0.0724820737" flag="0"/>
      <psa30 value="0.0075774084" flag="0"/>
    </comp>
  </station>
  <station code="IACM" name="IACM" netid="HL" insttype="120" lat="35.3058" lon="25.0709">
    <comp name="--.HHN">
      <acc value="0.0683497954" flag="0"/>
      <vel value="0.1030527679" flag="0"/>
      <psa03 value="0.1307993998" flag="0"/>
      <psa10 value="0.2022649644" flag="0"/>
      <psa30 value="0.0163473027" flag="0"/>
    </comp>
    <comp name="--.HHE">
      <acc value="0.0795639317" flag="0"/>
      <vel value="0.1249169733" flag="0"/>
      <psa03 value="0.1358629822" flag="0"/>
      <psa10 value="0.2763524226" flag="0"/>
      <psa30 value="0.0187315319" flag="0"/>
    </comp>
    <comp name="--.HHZ">
      <acc value="0.0343700895" flag="0"/>
      <vel value="0.0379871117" flag="0"/>
      <psa03 value="0.0595389013" flag="0"/>
      <psa10 value="0.0702979747" flag="0"/>
      <psa30 value="0.0101003715" flag="0"/>
    </comp>
  </station>
  <station code="IDI" name="IDI" netid="HL" insttype="120" lat="35.288" lon="24.89">
    <comp name="--.HHE">
      <acc value="0.0071944986" flag="0"/>
      <vel value="0.0128597159" flag="0"/>
      <psa03 value="0.0219995591" flag="0"/>
      <psa10 value="0.0169169784" flag="0"/>
      <psa30 value="0.0069232344" flag="0"/>
    </comp>
    <comp name="--.HHN">
      <acc value="0.0077202164" flag="0"/>
      <vel value="0.0099797936" flag="0"/>
      <psa03 value="0.0224171238" flag="0"/>
      <psa10 value="0.0213591180" flag="0"/>
      <psa30 value="0.0039707420" flag="0"/>
    </comp>
    <comp name="--.HHZ">
      <acc value="0.0069124125" flag="0"/>
      <vel value="0.0117117839" flag="0"/>
      <psa03 value="0.0180111845" flag="0"/>
      <psa10 value="0.0125290268" flag="0"/>
      <psa30 value="0.0047583608" flag="0"/>
    </comp>
  </station>
  <station code="NPS" name="NPS" netid="HL" insttype="CMG3ESPC-120s" lat="35.2613" lon="25.6104">
    <comp name="--.HHE">
      <acc value="0.0054094451" flag="0"/>
      <vel value="0.0105101553" flag="0"/>
      <psa03 value="0.0123216726" flag="0"/>
      <psa10 value="0.0121629406" flag="0"/>
      <psa30 value="0.0030409712" flag="0"/>
    </comp>
    <comp name="--.HHN">
      <acc value="0.0099272452" flag="0"/>
      <vel value="0.0137256297" flag="0"/>
      <psa03 value="0.0201272662" flag="0"/>
      <psa10 value="0.0356039176" flag="0"/>
      <psa30 value="0.0057625995" flag="0"/>
    </comp>
    <comp name="--.HHZ">
      <acc value="0.0086137132" flag="0"/>
      <vel value="0.0155024486" flag="0"/>
      <psa03 value="0.0158903421" flag="0"/>
      <psa10 value="0.0179690722" flag="0"/>
      <psa30 value="0.0062454575" flag="0"/>
    </comp>
  </station>
  <station code="ZKR" name="ZKR" netid="HL" insttype="120" lat="35.1147" lon="26.2169">
    <comp name="--.HHE">
      <acc value="0.0198629820" flag="0"/>
      <vel value="0.0291682477" flag="0"/>
      <psa03 value="0.0412499718" flag="0"/>
      <psa10 value="0.0441034687" flag="0"/>
      <psa30 value="0.0137685997" flag="0"/>
    </comp>
    <comp name="--.HHN">
      <acc value="0.0105259073" flag="0"/>
      <vel value="0.0110156031" flag="0"/>
      <psa03 value="0.0281351294" flag="0"/>
      <psa10 value="0.0165337005" flag="0"/>
      <psa30 value="0.0038171463" flag="0"/>
    </comp>
    <comp name="--.HHZ">
      <acc value="0.0114390937" flag="0"/>
      <vel value="0.0163037869" flag="0"/>
      <psa03 value="0.0325408540" flag="0"/>
      <psa10 value="0.0261717378" flag="0"/>
      <psa30 value="0.0069155917" flag="0"/>
    </comp>
  </station>
  <station code="IDI" name="IDI" netid="MN" insttype="" lat="35.288" lon="24.89">
    <comp name="--.HHE">
      <acc value="0.0071349339" flag="0"/>
      <vel value="0.0127247999" flag="0"/>
      <psa03 value="0.0222532151" flag="0"/>
      <psa10 value="0.0167873020" flag="0"/>
      <psa30 value="0.0068387506" flag="0"/>
    </comp>
    <comp name="--.HHN">
      <acc value="0.0077931044" flag="0"/>
      <vel value="0.0099312378" flag="0"/>
      <psa03 value="0.0225513464" flag="0"/>
      <psa10 value="0.0211805740" flag="0"/>
      <psa30 value="0.0039226754" flag="0"/>
    </comp>
    <comp name="--.HHZ">
      <acc value="0.0070338627" flag="0"/>
      <vel value="0.0115963180" flag="0"/>
      <psa03 value="0.0181877212" flag="0"/>
      <psa10 value="0.0124214453" flag="0"/>
      <psa30 value="0.0047004398" flag="0"/>
    </comp>
  </station>
</stationlist>
