<stationlist created="1778069391">
	<station code="KTHA" name="KTHA" netid="GE" source="GEOFON" insttype="" lat="36.2566" lon="23.0621">
		<comp name="--.HNE" depth="0.0">
			<acc value="0.00386615938624893" flag="0"/>
			<vel value="0.0107115278994157" flag="0"/>
			<psa03 value="0.00684555761259558" flag="0"/>
			<psa10 value="0.00803346319831069" flag="0"/>
			<psa30 value="0.00410375519102788" flag="0"/>
		</comp>
		<comp name="--.HNN" depth="0.0">
			<acc value="0.00244358569066327" flag="0"/>
			<vel value="0.00574896946542278" flag="0"/>
			<psa03 value="0.00398205638902619" flag="0"/>
			<psa10 value="0.0065395209193266" flag="0"/>
			<psa30 value="0.00240265649540119" flag="0"/>
		</comp>
		<comp name="--.HNZ" depth="0.0">
			<acc value="0.00212808371777107" flag="0"/>
			<vel value="0.00653269873986392" flag="0"/>
			<psa03 value="0.00460844728168199" flag="0"/>
			<psa10 value="0.00516235579961619" flag="0"/>
			<psa30 value="0.00193554785830644" flag="0"/>
		</comp>
	</station>
	<station code="SIT2" name="SIT2" netid="HI" source="ITSAK Strong Motion Network" insttype="" lat="35.2059" lon="26.107">
		<comp name="--.HNE" depth="0.0">
			<acc value="0.0590452996792745" flag="0"/>
			<vel value="0.0657978153141975" flag="0"/>
			<psa03 value="0.152615666774925" flag="0"/>
			<psa10 value="0.0605469436841101" flag="0"/>
			<psa30 value="0.0109591560890795" flag="0"/>
		</comp>
		<comp name="--.HNN" depth="0.0">
			<acc value="0.060360833973162" flag="0"/>
			<vel value="0.0621489847063896" flag="0"/>
			<psa03 value="0.135524143846745" flag="0"/>
			<psa10 value="0.0723897583539004" flag="0"/>
			<psa30 value="0.00807104665187004" flag="0"/>
		</comp>
		<comp name="--.HNZ" depth="0.0">
			<acc value="0.0228108034027648" flag="0"/>
			<vel value="0.0176356360968984" flag="0"/>
			<psa03 value="0.0543617810412002" flag="0"/>
			<psa10 value="0.0189783017812723" flag="0"/>
			<psa30 value="0.00446974644116535" flag="0"/>
		</comp>
	</station>
	<station code="IACM" name="IACM" netid="HL" source="National Observatory of Athens Seismic Network" insttype="" lat="35.3058" lon="25.0709">
		<comp name="--.HNE" depth="0.0">
			<acc value="0.0785588827247741" flag="0"/>
			<vel value="0.123750984747445" flag="0"/>
			<psa03 value="0.134271362061434" flag="0"/>
			<psa10 value="0.266501584656942" flag="0"/>
			<psa30 value="0.0190319924292143" flag="0"/>
		</comp>
		<comp name="--.HNN" depth="0.0">
			<acc value="0.068276423292433" flag="0"/>
			<vel value="0.0992545563256442" flag="0"/>
			<psa03 value="0.133555486755541" flag="0"/>
			<psa10 value="0.207146573357142" flag="0"/>
			<psa30 value="0.0165206123717307" flag="0"/>
		</comp>
		<comp name="--.HNZ" depth="0.0">
			<acc value="0.0327170145614348" flag="0"/>
			<vel value="0.0402175861496237" flag="0"/>
			<psa03 value="0.0604467211412851" flag="0"/>
			<psa10 value="0.0669978750343325" flag="0"/>
			<psa30 value="0.010086235637957" flag="0"/>
		</comp>
	</station>
	<station code="IMMV" name="IMMV" netid="HL" source="National Observatory of Athens Seismic Network" insttype="" lat="35.4606" lon="23.9811">
		<comp name="--.HNE" depth="0.0">
			<acc value="0.00880609846788297" flag="0"/>
			<vel value="0.0137247310917204" flag="0"/>
			<psa03 value="0.0190154378127655" flag="0"/>
			<psa10 value="0.0270318989725612" flag="0"/>
			<psa30 value="0.0052218629344185" flag="0"/>
		</comp>
		<comp name="--.HNN" depth="0.0">
			<acc value="0.010167328329366" flag="0"/>
			<vel value="0.0220452928402831" flag="0"/>
			<psa03 value="0.0228185253753186" flag="0"/>
			<psa10 value="0.027080220555709" flag="0"/>
			<psa30 value="0.00580037966599275" flag="0"/>
		</comp>
		<comp name="--.HNZ" depth="0.0">
			<acc value="0.00616863289320623" flag="0"/>
			<vel value="0.00953374794439256" flag="0"/>
			<psa03 value="0.0166441008619971" flag="0"/>
			<psa10 value="0.0197715811046143" flag="0"/>
			<psa30 value="0.00304739169277049" flag="0"/>
		</comp>
	</station>
	<station code="KTHA" name="KTHA" netid="HL" source="National Observatory of Athens Seismic Network" insttype="" lat="36.2566" lon="23.0621">
		<comp name="--.HNE" depth="0.0">
			<acc value="0.0302651968503032" flag="0"/>
			<vel value="0.0297227689110848" flag="0"/>
			<psa03 value="0.0582212422883603" flag="0"/>
			<psa10 value="0.0480961073812537" flag="0"/>
			<psa30 value="0.00799492129098177" flag="0"/>
		</comp>
		<comp name="--.HNN" depth="0.0">
			<acc value="0.0151268339137413" flag="0"/>
			<vel value="0.0164969875753858" flag="0"/>
			<psa03 value="0.0362439556716816" flag="0"/>
			<psa10 value="0.0376843414026605" flag="0"/>
			<psa30 value="0.00516532217722183" flag="0"/>
		</comp>
		<comp name="--.HNZ" depth="0.0">
			<acc value="0.0164059381775378" flag="0"/>
			<vel value="0.013707177641799" flag="0"/>
			<psa03 value="0.0381975981117575" flag="0"/>
			<psa10 value="0.0319378469756295" flag="0"/>
			<psa30 value="0.00453180062621245" flag="0"/>
		</comp>
	</station>
</stationlist>
