<?xml version="1.0" encoding="UTF-8" standalone="yes"?>
<!DOCTYPE earthquake SYSTEM "stationlist.dtd">
<stationlist created="" xmlns="ch.ethz.sed.shakemap.usgs.xml">
  <station code="BNN" name="BNN" netid="KO" insttype="CMG-3T" lat="38.8521" lon="35.8472">
    <comp name="--.HHE">
      <acc value="0.0050365681" flag="0"/>
      <vel value="0.0033011253" flag="0"/>
      <psa03 value="0.0188191684" flag="0"/>
      <psa10 value="0.0039826067" flag="0"/>
      <psa30 value="0.0001856106" flag="0"/>
    </comp>
    <comp name="--.HHN">
      <acc value="0.0045884779" flag="0"/>
      <vel value="0.0025980914" flag="0"/>
      <psa03 value="0.0119875894" flag="0"/>
      <psa10 value="0.0031404944" flag="0"/>
      <psa30 value="0.0001430971" flag="0"/>
    </comp>
    <comp name="--.HHZ">
      <acc value="0.0029877777" flag="0"/>
      <vel value="0.0019898558" flag="0"/>
      <psa03 value="0.0112486229" flag="0"/>
      <psa10 value="0.0023253043" flag="0"/>
      <psa30 value="0.0001386874" flag="0"/>
    </comp>
  </station>
  <station code="SARI" name="SARI" netid="KO" insttype="CMG-3T" lat="38.4072" lon="36.4181">
    <comp name="--.HHE">
      <acc value="0.1485735318" flag="0"/>
      <vel value="0.0241563264" flag="0"/>
      <psa03 value="0.1170554548" flag="0"/>
      <psa10 value="0.0096214987" flag="0"/>
      <psa30 value="0.0008954081" flag="0"/>
    </comp>
    <comp name="--.HHZ">
      <acc value="0.1259643053" flag="0"/>
      <vel value="0.0224676744" flag="0"/>
      <psa03 value="0.0789842276" flag="0"/>
      <psa10 value="0.0090092394" flag="0"/>
      <psa30 value="0.0007981288" flag="0"/>
    </comp>
  </station>
</stationlist>
