<?xml version="1.0" encoding="UTF-8" standalone="yes"?>
<!DOCTYPE earthquake SYSTEM "stationlist.dtd">
<stationlist created="" xmlns="ch.ethz.sed.shakemap.usgs.xml">
  <station code="BNN" name="BNN" netid="KO" insttype="CMG-3T" lat="38.8521" lon="35.8472">
    <comp name="--.HHE">
      <acc value="0.0050365681" flag="0"/>
      <vel value="0.0033011252" flag="0"/>
      <psa03 value="0.0188191684" flag="0"/>
      <psa10 value="0.0039826067" flag="0"/>
      <psa30 value="0.0001856121" flag="0"/>
    </comp>
    <comp name="--.HHN">
      <acc value="0.0045884779" flag="0"/>
      <vel value="0.0025980913" flag="0"/>
      <psa03 value="0.0119875894" flag="0"/>
      <psa10 value="0.0031404944" flag="0"/>
      <psa30 value="0.0001430968" flag="0"/>
    </comp>
    <comp name="--.HHZ">
      <acc value="0.0029877777" flag="0"/>
      <vel value="0.0019898558" flag="0"/>
      <psa03 value="0.0112486229" flag="0"/>
      <psa10 value="0.0023253043" flag="0"/>
      <psa30 value="0.0001386874" flag="0"/>
    </comp>
  </station>
  <station code="DARE" name="DARE" netid="KO" insttype="CMG-3ESP" lat="38.5712" lon="37.4832">
    <comp name="--.HHE">
      <acc value="0.0100845490" flag="0"/>
      <vel value="0.0036146177" flag="0"/>
      <psa03 value="0.0247841701" flag="0"/>
      <psa10 value="0.0026341701" flag="0"/>
      <psa30 value="0.0001685824" flag="0"/>
    </comp>
    <comp name="--.HHZ">
      <acc value="0.0048052001" flag="0"/>
      <vel value="0.0017799452" flag="0"/>
      <psa03 value="0.0107306573" flag="0"/>
      <psa10 value="0.0018260291" flag="0"/>
      <psa30 value="0.0001415025" flag="0"/>
    </comp>
    <comp name="--.HHN">
      <acc value="0.0100158226" flag="0"/>
      <vel value="0.0033703869" flag="0"/>
      <psa03 value="0.0204191413" flag="0"/>
      <psa10 value="0.0030187087" flag="0"/>
      <psa30 value="0.0001418889" flag="0"/>
    </comp>
  </station>
  <station code="GAZ" name="GAZ" netid="KO" insttype="CMG-3T" lat="37.1721" lon="37.2096">
    <comp name="--.HHN">
      <acc value="0.0088011580" flag="0"/>
      <vel value="0.0025979601" flag="0"/>
      <psa03 value="0.0133205438" flag="0"/>
      <psa10 value="0.0029023612" flag="0"/>
      <psa30 value="0.0002218663" flag="0"/>
    </comp>
    <comp name="--.HHE">
      <acc value="0.0091846485" flag="0"/>
      <vel value="0.0033710227" flag="0"/>
      <psa03 value="0.0212502931" flag="0"/>
      <psa10 value="0.0037564609" flag="0"/>
      <psa30 value="0.0002279873" flag="0"/>
    </comp>
    <comp name="--.HHZ">
      <acc value="0.0056806638" flag="0"/>
      <vel value="0.0021972456" flag="0"/>
      <psa03 value="0.0152811371" flag="0"/>
      <psa10 value="0.0014381095" flag="0"/>
      <psa30 value="0.0001290507" flag="0"/>
    </comp>
  </station>
  <station code="KMRS" name="KMRS" netid="KO" insttype="CMG-3T" lat="37.5087" lon="36.9">
    <comp name="--.HHZ">
      <acc value="0.0268547805" flag="0"/>
      <vel value="0.0128287273" flag="0"/>
      <psa03 value="0.0506210219" flag="0"/>
      <psa10 value="0.0029229484" flag="0"/>
      <psa30 value="0.0002948074" flag="0"/>
    </comp>
    <comp name="--.HHE">
      <acc value="0.0192118036" flag="0"/>
      <vel value="0.0072408153" flag="0"/>
      <psa03 value="0.0249080543" flag="0"/>
      <psa10 value="0.0038608822" flag="0"/>
      <psa30 value="0.0003046278" flag="0"/>
    </comp>
    <comp name="--.HHN">
      <acc value="0.0156237840" flag="0"/>
      <vel value="0.0088693563" flag="0"/>
      <psa03 value="0.0424962640" flag="0"/>
      <psa10 value="0.0075878455" flag="0"/>
      <psa30 value="0.0006105034" flag="0"/>
    </comp>
  </station>
  <station code="SARI" name="SARI" netid="KO" insttype="CMG-3T" lat="38.4072" lon="36.4181">
    <comp name="--.HHZ">
      <acc value="0.1259643055" flag="0"/>
      <vel value="0.0224676755" flag="0"/>
      <psa03 value="0.0789842276" flag="0"/>
      <psa10 value="0.0090092388" flag="0"/>
      <psa30 value="0.0007980793" flag="0"/>
    </comp>
  </station>
  <station code="ANDN" name="ANDN" netid="TU" insttype="T" lat="37.58" lon="36.3452">
    <comp name="--.HHZ">
      <acc value="0.0335465039" flag="0"/>
      <vel value="0.0145721886" flag="0"/>
      <psa03 value="0.0872527879" flag="0"/>
      <psa10 value="0.0214264757" flag="0"/>
      <psa30 value="0.0007973218" flag="0"/>
    </comp>
    <comp name="--.HHN">
      <acc value="0.0812762299" flag="0"/>
      <vel value="0.0233474685" flag="0"/>
      <psa03 value="0.1403149261" flag="0"/>
      <psa10 value="0.0156680632" flag="0"/>
      <psa30 value="0.0009955987" flag="0"/>
    </comp>
    <comp name="--.HHE">
      <acc value="0.0617521590" flag="0"/>
      <vel value="0.0241388373" flag="0"/>
      <psa03 value="0.1165394624" flag="0"/>
      <psa10 value="0.0164574467" flag="0"/>
      <psa30 value="0.0012088790" flag="0"/>
    </comp>
  </station>
</stationlist>
