<stationlist created="1778205314">
	<station code="CHAY" name="CHAY" netid="KO" source="Bogazici University Kandilli Observatory And Earthquake Research Institute (KOERI)" insttype="" lat="41.0862" lon="40.7253">
		<comp name="--.HNE" depth="0.0">
			<acc value="0.194620887111463" flag="0"/>
			<vel value="0.940108060136166" flag="0"/>
			<psa03 value="0.25395676476531" flag="0"/>
			<psa10 value="0.671078066359936" flag="0"/>
			<psa30 value="0.479336682163531" flag="0"/>
		</comp>
		<comp name="--.HNN" depth="0.0">
			<acc value="0.25025706315744" flag="0"/>
			<vel value="1.01328565993619" flag="0"/>
			<psa03 value="0.356729613367481" flag="0"/>
			<psa10 value="0.667329116867391" flag="0"/>
			<psa30 value="0.28482396568919" flag="0"/>
		</comp>
		<comp name="--.HNZ" depth="0.0">
			<acc value="0.185120378037679" flag="0"/>
			<vel value="0.792905313365699" flag="0"/>
			<psa03 value="0.409704386003514" flag="0"/>
			<psa10 value="0.661892938763271" flag="0"/>
			<psa30 value="0.302600491800695" flag="0"/>
		</comp>
	</station>
	<station code="CMRD" name="CMRD" netid="KO" source="Bogazici University Kandilli Observatory And Earthquake Research Institute (KOERI)" insttype="" lat="37.6623" lon="34.9902">
		<comp name="--.HNE" depth="0.0">
			<acc value="0.252400379948767" flag="0"/>
			<vel value="1.62200027777226" flag="0"/>
			<psa03 value="0.285857958084138" flag="0"/>
			<psa10 value="0.523189861136297" flag="0"/>
			<psa30 value="0.42212213802835" flag="0"/>
		</comp>
		<comp name="--.HNN" depth="0.0">
			<acc value="0.381105141981166" flag="0"/>
			<vel value="3.19250340536197" flag="0"/>
			<psa03 value="0.437534038520079" flag="0"/>
			<psa10 value="0.88279908292173" flag="0"/>
			<psa30 value="0.574628633819126" flag="0"/>
		</comp>
		<comp name="--.HNZ" depth="0.0">
			<acc value="0.343978860967198" flag="0"/>
			<vel value="2.23979454698364" flag="0"/>
			<psa03 value="0.373597425262569" flag="0"/>
			<psa10 value="0.800459105237992" flag="0"/>
			<psa30 value="0.472737206687336" flag="0"/>
		</comp>
	</station>
	<station code="GUMT" name="GUMT" netid="KO" source="Bogazici University Kandilli Observatory And Earthquake Research Institute (KOERI)" insttype="" lat="40.4665" lon="39.478">
		<comp name="--.HNE" depth="0.0">
			<acc value="0.349785258498621" flag="0"/>
			<vel value="1.89389554859458" flag="0"/>
			<psa03 value="0.563572834563751" flag="0"/>
			<psa10 value="0.568716846058654" flag="0"/>
			<psa30 value="0.695173086890074" flag="0"/>
		</comp>
		<comp name="--.HNN" depth="0.0">
			<acc value="0.271152367847969" flag="0"/>
			<vel value="1.60811236120987" flag="0"/>
			<psa03 value="0.510061155448298" flag="0"/>
			<psa10 value="0.666805633049957" flag="0"/>
			<psa30 value="0.560771972429447" flag="0"/>
		</comp>
		<comp name="--.HNZ" depth="0.0">
			<acc value="0.272741554274649" flag="0"/>
			<vel value="0.83157711505415" flag="0"/>
			<psa03 value="0.340711903398139" flag="0"/>
			<psa10 value="0.683887312692681" flag="0"/>
			<psa30 value="0.465757422454885" flag="0"/>
		</comp>
	</station>
	<station code="KOZK" name="KOZK" netid="KO" source="Bogazici University Kandilli Observatory And Earthquake Research Institute (KOERI)" insttype="" lat="39.2101" lon="34.868">
		<comp name="--.HNE" depth="0.0">
			<acc value="0.725004377679362" flag="0"/>
			<vel value="2.45767710451346" flag="0"/>
			<psa03 value="0.807686313873042" flag="0"/>
			<psa10 value="2.54389779840962" flag="0"/>
			<psa30 value="0.650833560131366" flag="0"/>
		</comp>
		<comp name="--.HNN" depth="0.0">
			<acc value="0.691327163029039" flag="0"/>
			<vel value="2.1401681274096" flag="0"/>
			<psa03 value="0.779946145769713" flag="0"/>
			<psa10 value="2.45048009778926" flag="0"/>
			<psa30 value="1.01507986421072" flag="0"/>
		</comp>
		<comp name="--.HNZ" depth="0.0">
			<acc value="0.28712244641814" flag="0"/>
			<vel value="1.5934186404656" flag="0"/>
			<psa03 value="0.509658475588734" flag="0"/>
			<psa10 value="0.714229240110862" flag="0"/>
			<psa30 value="0.324994861057273" flag="0"/>
		</comp>
	</station>
</stationlist>
