<?xml version="1.0" encoding="UTF-8" standalone="yes"?>
<!DOCTYPE earthquake SYSTEM "stationlist.dtd">
<stationlist created="" xmlns="ch.ethz.sed.shakemap.usgs.xml">
  <station code="GURO" name="GURO" netid="KO" insttype="120s," lat="38.5509" lon="42.0322">
    <comp name="--.HHE">
      <acc value="0.1359392768" flag="0"/>
      <vel value="0.2418153880" flag="0"/>
      <psa03 value="0.3618824817" flag="0"/>
      <psa10 value="0.2759992610" flag="0"/>
      <psa30 value="0.0741042460" flag="0"/>
    </comp>
    <comp name="--.HHZ">
      <acc value="0.1493755714" flag="0"/>
      <vel value="0.2587749981" flag="0"/>
      <psa03 value="0.3192901056" flag="0"/>
      <psa10 value="0.2101802307" flag="0"/>
      <psa30 value="0.0796396770" flag="0"/>
    </comp>
    <comp name="--.HHN">
      <acc value="0.1310281051" flag="0"/>
      <vel value="0.3038261207" flag="0"/>
      <psa03 value="0.2907259253" flag="0"/>
      <psa10 value="0.2178374242" flag="0"/>
      <psa30 value="0.1067260827" flag="0"/>
    </comp>
  </station>
  <station code="KHMN" name="KHMN" netid="KO" insttype="100" lat="37.3916" lon="37.1574">
    <comp name="--.HNE">
      <acc value="36.7052160312" flag="0"/>
      <vel value="11.2665679738" flag="0"/>
      <psa03 value="13.0963737930" flag="0"/>
      <psa10 value="7.7383939106" flag="0"/>
      <psa30 value="3.0737993393" flag="0"/>
    </comp>
    <comp name="--.HNN">
      <acc value="45.9572456002" flag="0"/>
      <vel value="12.2833762158" flag="0"/>
      <psa03 value="12.4693427683" flag="0"/>
      <psa10 value="5.6578335581" flag="0"/>
      <psa30 value="3.4981059415" flag="0"/>
    </comp>
    <comp name="--.HNZ">
      <acc value="27.3567045749" flag="0"/>
      <vel value="8.3049652363" flag="0"/>
      <psa03 value="13.1439946367" flag="0"/>
      <psa10 value="3.8910150447" flag="0"/>
      <psa30 value="2.2443230357" flag="0"/>
    </comp>
  </station>
</stationlist>
