<stationlist created="1775820704">
	<station code="BAC" name="BAC" netid="RO" source="Romanian Seismic Network (NIEP)" insttype="" lat="46.5669" lon="26.9124">
		<comp name="--.HNE" depth="0.0">
			<acc value="0.0425969753563373" flag="0"/>
			<vel value="0.0154456449303943" flag="0"/>
			<psa03 value="0.0508837666331969" flag="0"/>
			<psa10 value="0.00564108150647432" flag="0"/>
			<psa30 value="0.000395650610952802" flag="0"/>
		</comp>
		<comp name="--.HNN" depth="0.0">
			<acc value="0.0264242156456721" flag="0"/>
			<vel value="0.0130614594373822" flag="0"/>
			<psa03 value="0.0382251494160717" flag="0"/>
			<psa10 value="0.0104696294990887" flag="0"/>
			<psa30 value="0.000788285032514093" flag="0"/>
		</comp>
		<comp name="--.HNZ" depth="0.0">
			<acc value="0.0402219662014823" flag="0"/>
			<vel value="0.00518746522084211" flag="0"/>
			<psa03 value="0.0212046325674214" flag="0"/>
			<psa10 value="0.00228900890123167" flag="0"/>
			<psa30 value="0.00016294093726651" flag="0"/>
		</comp>
	</station>
	<station code="BISRR" name="BISRR" netid="RO" source="Romanian Seismic Network (NIEP)" insttype="" lat="45.5481" lon="26.7099">
		<comp name="--.HNE" depth="0.0">
			<acc value="0.0399816020133141" flag="0"/>
			<vel value="0.0215482479013806" flag="0"/>
			<psa03 value="0.10950283735905" flag="0"/>
			<psa10 value="0.0136749208964037" flag="0"/>
			<psa30 value="0.000860372360029692" flag="0"/>
		</comp>
		<comp name="--.HNN" depth="0.0">
			<acc value="0.0442376244623214" flag="0"/>
			<vel value="0.0189193822003377" flag="0"/>
			<psa03 value="0.146520341670433" flag="0"/>
			<psa10 value="0.0117355117950709" flag="0"/>
			<psa30 value="0.00107489506068934" flag="0"/>
		</comp>
		<comp name="--.HNZ" depth="0.0">
			<acc value="0.026257672144712" flag="0"/>
			<vel value="0.0118365670805812" flag="0"/>
			<psa03 value="0.0928709647456986" flag="0"/>
			<psa10 value="0.00531667235970212" flag="0"/>
			<psa30 value="0.000313829591753682" flag="0"/>
		</comp>
	</station>
	<station code="COPA" name="COPA" netid="RO" source="Romanian Seismic Network (NIEP)" insttype="" lat="44.1343" lon="25.2172">
		<comp name="--.HNE" depth="0.0">
			<acc value="0.0596945508003377" flag="0"/>
			<vel value="0.0177248568326129" flag="0"/>
			<psa03 value="0.100680555009454" flag="0"/>
			<psa10 value="0.00869332995293221" flag="0"/>
			<psa30 value="0.000638429636580331" flag="0"/>
		</comp>
		<comp name="--.HNN" depth="0.0">
			<acc value="0.0489328736461515" flag="0"/>
			<vel value="0.0131682001807924" flag="0"/>
			<psa03 value="0.0736397845244239" flag="0"/>
			<psa10 value="0.00491913852505425" flag="0"/>
			<psa30 value="0.000415826088104115" flag="0"/>
		</comp>
		<comp name="--.HNZ" depth="0.0">
			<acc value="0.0590003891055248" flag="0"/>
			<vel value="0.00836890665149132" flag="0"/>
			<psa03 value="0.021784479573209" flag="0"/>
			<psa10 value="0.00157861293473564" flag="0"/>
			<psa30 value="0.000138147693273484" flag="0"/>
		</comp>
	</station>
	<station code="GHRR" name="GHRR" netid="RO" source="Romanian Seismic Network (NIEP)" insttype="" lat="46.0605" lon="27.408">
		<comp name="--.HNE" depth="0.0">
			<acc value="0.173638079898775" flag="0"/>
			<vel value="0.0644500679966258" flag="0"/>
			<psa03 value="0.228355731613081" flag="0"/>
			<psa10 value="0.0160471817970405" flag="0"/>
			<psa30 value="0.0019518557591989" flag="0"/>
		</comp>
		<comp name="--.HNN" depth="0.0">
			<acc value="0.173727431876129" flag="0"/>
			<vel value="0.0611114478819825" flag="0"/>
			<psa03 value="0.251629440048927" flag="0"/>
			<psa10 value="0.0120077732685469" flag="0"/>
			<psa30 value="0.00145215734413153" flag="0"/>
		</comp>
		<comp name="--.HNZ" depth="0.0">
			<acc value="0.0925719934320679" flag="0"/>
			<vel value="0.0246361180237052" flag="0"/>
			<psa03 value="0.124024184743453" flag="0"/>
			<psa10 value="0.00511463428818312" flag="0"/>
			<psa30 value="0.000384536905974342" flag="0"/>
		</comp>
	</station>
	<station code="HUMR" name="HUMR" netid="RO" source="Romanian Seismic Network (NIEP)" insttype="" lat="44.5281" lon="24.9804">
		<comp name="--.HNE" depth="0.0">
			<acc value="0.155771076330035" flag="0"/>
			<vel value="0.0421533053721588" flag="0"/>
			<psa03 value="0.196793411597653" flag="0"/>
			<psa10 value="0.00695839283438964" flag="0"/>
			<psa30 value="0.00089588413959392" flag="0"/>
		</comp>
		<comp name="--.HNN" depth="0.0">
			<acc value="0.193779657376249" flag="0"/>
			<vel value="0.0468515099090792" flag="0"/>
			<psa03 value="0.137176545606115" flag="0"/>
			<psa10 value="0.00781037568029324" flag="0"/>
			<psa30 value="0.00059875560211922" flag="0"/>
		</comp>
		<comp name="--.HNZ" depth="0.0">
			<acc value="0.0787258966367051" flag="0"/>
			<vel value="0.01823396844553" flag="0"/>
			<psa03 value="0.0366684421251767" flag="0"/>
			<psa10 value="0.00216632843050028" flag="0"/>
			<psa30 value="0.000232798051936612" flag="0"/>
		</comp>
	</station>
	<station code="LEHL" name="LEHL" netid="RO" source="Romanian Seismic Network (NIEP)" insttype="" lat="44.4739" lon="26.8194">
		<comp name="--.HNE" depth="0.0">
			<acc value="0.0486797141344933" flag="0"/>
			<vel value="0.0163571307564681" flag="0"/>
			<psa03 value="0.0696699121648733" flag="0"/>
			<psa10 value="0.00763925981345377" flag="0"/>
			<psa30 value="0.000363698181761382" flag="0"/>
		</comp>
		<comp name="--.HNN" depth="0.0">
			<acc value="0.0614966755346057" flag="0"/>
			<vel value="0.0165764373811946" flag="0"/>
			<psa03 value="0.0637332636827489" flag="0"/>
			<psa10 value="0.00514213064092447" flag="0"/>
			<psa30 value="0.000661570388289765" flag="0"/>
		</comp>
		<comp name="--.HNZ" depth="0.0">
			<acc value="0.0699831106955072" flag="0"/>
			<vel value="0.0101467292953271" flag="0"/>
			<psa03 value="0.0181701633195718" flag="0"/>
			<psa10 value="0.00273634415999717" flag="0"/>
			<psa30 value="0.000195929138198087" flag="0"/>
		</comp>
	</station>
	<station code="LEOM" name="LEOM" netid="RO" source="Romanian Seismic Network (NIEP)" insttype="" lat="46.4733" lon="28.2467">
		<comp name="--.HNE" depth="0.0">
			<acc value="0.13247816183594" flag="0"/>
			<vel value="0.0260954352184849" flag="0"/>
			<psa03 value="0.117245464853401" flag="0"/>
			<psa10 value="0.00670582672813003" flag="0"/>
			<psa30 value="0.000669391114711568" flag="0"/>
		</comp>
		<comp name="--.HNN" depth="0.0">
			<acc value="0.196698706719945" flag="0"/>
			<vel value="0.0351622891652501" flag="0"/>
			<psa03 value="0.0814308475191599" flag="0"/>
			<psa10 value="0.0114284423907253" flag="0"/>
			<psa30 value="0.00103678670286383" flag="0"/>
		</comp>
		<comp name="--.HNZ" depth="0.0">
			<acc value="0.307125059394556" flag="0"/>
			<vel value="0.0498157096723839" flag="0"/>
			<psa03 value="0.101612637588671" flag="0"/>
			<psa10 value="0.00648677190430377" flag="0"/>
			<psa30 value="0.000838472732201491" flag="0"/>
		</comp>
	</station>
	<station code="LOT" name="LOT" netid="RO" source="Romanian Seismic Network (NIEP)" insttype="" lat="45.446" lon="23.7698">
		<comp name="--.HNE" depth="0.0">
			<acc value="0.0101896553545114" flag="0"/>
			<vel value="0.00310003585515323" flag="0"/>
			<psa03 value="0.0133881264810134" flag="0"/>
			<psa10 value="0.000748647680170763" flag="0"/>
			<psa30 value="7.08150492224791e-05" flag="0"/>
		</comp>
		<comp name="--.HNN" depth="0.0">
			<acc value="0.0149281334209142" flag="0"/>
			<vel value="0.00412965746623869" flag="0"/>
			<psa03 value="0.0139120726482137" flag="0"/>
			<psa10 value="0.00140854432477196" flag="0"/>
			<psa30 value="0.000121919066122933" flag="0"/>
		</comp>
		<comp name="--.HNZ" depth="0.0">
			<acc value="0.0101211986021537" flag="0"/>
			<vel value="0.00206828338084143" flag="0"/>
			<psa03 value="0.0084734447876563" flag="0"/>
			<psa10 value="0.000622985058764752" flag="0"/>
			<psa30 value="6.10817546998658e-05" flag="0"/>
		</comp>
	</station>
	<station code="MLR" name="MLR" netid="RO" source="Romanian Seismic Network (NIEP)" insttype="" lat="45.4909" lon="25.945">
		<comp name="--.HNE" depth="0.0">
			<acc value="0.014151709970982" flag="0"/>
			<vel value="0.00459883657858881" flag="0"/>
			<psa03 value="0.03313031190805" flag="0"/>
			<psa10 value="0.00338941054743924" flag="0"/>
			<psa30 value="0.0002460976569288" flag="0"/>
		</comp>
		<comp name="--.HNN" depth="0.0">
			<acc value="0.0150097707871777" flag="0"/>
			<vel value="0.00448380003277183" flag="0"/>
			<psa03 value="0.0278915377816616" flag="0"/>
			<psa10 value="0.00229768463220606" flag="0"/>
			<psa30 value="0.000221060737939038" flag="0"/>
		</comp>
		<comp name="--.HNZ" depth="0.0">
			<acc value="0.0259460407020137" flag="0"/>
			<vel value="0.00838907700298505" flag="0"/>
			<psa03 value="0.0243412531135504" flag="0"/>
			<psa10 value="0.002827639270351" flag="0"/>
			<psa30 value="0.00029289869997628" flag="0"/>
		</comp>
	</station>
	<station code="OTISU" name="OTISU" netid="RO" source="Romanian Seismic Network (NIEP)" insttype="" lat="44.4278" lon="24.3755">
		<comp name="--.HNE" depth="0.0">
			<acc value="0.0583079471225166" flag="0"/>
			<vel value="0.0149410069107334" flag="0"/>
			<psa03 value="0.0608262429819012" flag="0"/>
			<psa10 value="0.00535992116221857" flag="0"/>
			<psa30 value="0.000308124291930413" flag="0"/>
		</comp>
		<comp name="--.HNN" depth="0.0">
			<acc value="0.0622992797635139" flag="0"/>
			<vel value="0.0153767361312336" flag="0"/>
			<psa03 value="0.0518128073441465" flag="0"/>
			<psa10 value="0.00472209859709216" flag="0"/>
			<psa30 value="0.000479693496089112" flag="0"/>
		</comp>
		<comp name="--.HNZ" depth="0.0">
			<acc value="0.0685663259833613" flag="0"/>
			<vel value="0.0139006348685324" flag="0"/>
			<psa03 value="0.0246046872314471" flag="0"/>
			<psa10 value="0.00146124621445269" flag="0"/>
			<psa30 value="0.000162205393748775" flag="0"/>
		</comp>
	</station>
	<station code="PLOR" name="PLOR" netid="RO" source="Romanian Seismic Network (NIEP)" insttype="" lat="45.8512" lon="26.6498">
		<comp name="--.HNE" depth="0.0">
			<acc value="0.047660095840272" flag="0"/>
			<vel value="0.0217619404358598" flag="0"/>
			<psa03 value="0.107096667545408" flag="0"/>
			<psa10 value="0.00822771129550501" flag="0"/>
			<psa30 value="0.000754124175776592" flag="0"/>
		</comp>
		<comp name="--.HNN" depth="0.0">
			<acc value="0.0693710538730425" flag="0"/>
			<vel value="0.0274889497630902" flag="0"/>
			<psa03 value="0.125171364905156" flag="0"/>
			<psa10 value="0.00968324646755856" flag="0"/>
			<psa30 value="0.00075835023697953" flag="0"/>
		</comp>
		<comp name="--.HNZ" depth="0.0">
			<acc value="0.0284929348760308" flag="0"/>
			<vel value="0.0104938477233771" flag="0"/>
			<psa03 value="0.0599184588870567" flag="0"/>
			<psa10 value="0.00503065263106039" flag="0"/>
			<psa30 value="0.000259933964141048" flag="0"/>
		</comp>
	</station>
	<station code="PLOR4" name="PLOR4" netid="RO" source="Romanian Seismic Network (NIEP)" insttype="" lat="45.8512" lon="26.6498">
		<comp name="--.HNE" depth="0.0">
			<acc value="0.047660095840272" flag="0"/>
			<vel value="0.0217619404358598" flag="0"/>
			<psa03 value="0.107096667545408" flag="0"/>
			<psa10 value="0.00822771129550501" flag="0"/>
			<psa30 value="0.000754124175776592" flag="0"/>
		</comp>
		<comp name="--.HNN" depth="0.0">
			<acc value="0.0693710538730425" flag="0"/>
			<vel value="0.0274889497630902" flag="0"/>
			<psa03 value="0.125171364905156" flag="0"/>
			<psa10 value="0.00968324646755856" flag="0"/>
			<psa30 value="0.00075835023697953" flag="0"/>
		</comp>
		<comp name="--.HNZ" depth="0.0">
			<acc value="0.0284929348760308" flag="0"/>
			<vel value="0.0104938477233771" flag="0"/>
			<psa03 value="0.0599184588870567" flag="0"/>
			<psa10 value="0.00503065263106039" flag="0"/>
			<psa30 value="0.000259933964141048" flag="0"/>
		</comp>
	</station>
	<station code="SULR" name="SULR" netid="RO" source="Romanian Seismic Network (NIEP)" insttype="" lat="44.6777" lon="26.2526">
		<comp name="--.HNE" depth="0.0">
			<acc value="0.041927488340114" flag="0"/>
			<vel value="0.0103721005097322" flag="0"/>
			<psa03 value="0.0462718934107768" flag="0"/>
			<psa10 value="0.0026472947452838" flag="0"/>
			<psa30 value="0.000236724822482909" flag="0"/>
		</comp>
		<comp name="--.HNN" depth="0.0">
			<acc value="0.06824121427222" flag="0"/>
			<vel value="0.0135944526183437" flag="0"/>
			<psa03 value="0.0504251372930183" flag="0"/>
			<psa10 value="0.00565313058588884" flag="0"/>
			<psa30 value="0.000333093992925564" flag="0"/>
		</comp>
		<comp name="--.HNZ" depth="0.0">
			<acc value="0.0811365194427943" flag="0"/>
			<vel value="0.015730431034146" flag="0"/>
			<psa03 value="0.0675925714261094" flag="0"/>
			<psa10 value="0.00351971808592594" flag="0"/>
			<psa30 value="0.000383601948205" flag="0"/>
		</comp>
	</station>
	<station code="TESR" name="TESR" netid="RO" source="Romanian Seismic Network (NIEP)" insttype="" lat="46.5118" lon="26.6489">
		<comp name="--.HNE" depth="0.0">
			<acc value="0.0157300135316609" flag="0"/>
			<vel value="0.00710076356369213" flag="0"/>
			<psa03 value="0.0176354013316996" flag="0"/>
			<psa10 value="0.00212090870291821" flag="0"/>
			<psa30 value="0.000208739960810404" flag="0"/>
		</comp>
		<comp name="--.HNN" depth="0.0">
			<acc value="0.0138510951431454" flag="0"/>
			<vel value="0.00449574495019186" flag="0"/>
			<psa03 value="0.0239826902980194" flag="0"/>
			<psa10 value="0.00302851148339719" flag="0"/>
			<psa30 value="0.000240686985998288" flag="0"/>
		</comp>
		<comp name="--.HNZ" depth="0.0">
			<acc value="0.00780140738715535" flag="0"/>
			<vel value="0.00176817206422689" flag="0"/>
			<psa03 value="0.0089724185974616" flag="0"/>
			<psa10 value="0.00151649885904233" flag="0"/>
			<psa30 value="9.62549180825214e-05" flag="0"/>
		</comp>
	</station>
	<station code="TRISU" name="TRISU" netid="RO" source="Romanian Seismic Network (NIEP)" insttype="" lat="43.9719" lon="25.3296">
		<comp name="--.HNE" depth="0.0">
			<acc value="0.0421572742216995" flag="0"/>
			<vel value="0.0109891565996445" flag="0"/>
			<psa03 value="0.0391618260496289" flag="0"/>
			<psa10 value="0.00461187598288443" flag="0"/>
			<psa30 value="0.000355711428719854" flag="0"/>
		</comp>
		<comp name="--.HNN" depth="0.0">
			<acc value="0.0344861575519778" flag="0"/>
			<vel value="0.00874523137903917" flag="0"/>
			<psa03 value="0.0477794099432641" flag="0"/>
			<psa10 value="0.00327762853305413" flag="0"/>
			<psa30 value="0.000492249275763223" flag="0"/>
		</comp>
		<comp name="--.HNZ" depth="0.0">
			<acc value="0.0410637032139986" flag="0"/>
			<vel value="0.00583031174723269" flag="0"/>
			<psa03 value="0.0260353653401905" flag="0"/>
			<psa10 value="0.00149959953642095" flag="0"/>
			<psa30 value="0.000127285827894813" flag="0"/>
		</comp>
	</station>
	<station code="VOIR" name="VOIR" netid="RO" source="Romanian Seismic Network (NIEP)" insttype="" lat="45.4371" lon="25.0495">
		<comp name="--.HNE" depth="0.0">
			<acc value="0.00716328748193322" flag="0"/>
			<vel value="0.00199729755370456" flag="0"/>
			<psa03 value="0.00839328518060838" flag="0"/>
			<psa10 value="0.000879236487289743" flag="0"/>
			<psa30 value="6.95940959445346e-05" flag="0"/>
		</comp>
		<comp name="--.HNN" depth="0.0">
			<acc value="0.00764568124912709" flag="0"/>
			<vel value="0.00237965592438222" flag="0"/>
			<psa03 value="0.0113500461556814" flag="0"/>
			<psa10 value="0.000884578774781988" flag="0"/>
			<psa30 value="7.01455777896992e-05" flag="0"/>
		</comp>
		<comp name="--.HNZ" depth="0.0">
			<acc value="0.00886202190735509" flag="0"/>
			<vel value="0.00206329222439373" flag="0"/>
			<psa03 value="0.00862898308610495" flag="0"/>
			<psa10 value="0.000480898927504986" flag="0"/>
			<psa30 value="5.22781832251973e-05" flag="0"/>
		</comp>
	</station>
	<station code="VRI" name="VRI" netid="RO" source="Romanian Seismic Network (NIEP)" insttype="" lat="45.8657" lon="26.7277">
		<comp name="--.HNE" depth="0.0">
			<acc value="0.146355192127575" flag="0"/>
			<vel value="0.0497929206802843" flag="0"/>
			<psa03 value="0.326141084412703" flag="0"/>
			<psa10 value="0.0116905350655727" flag="0"/>
			<psa30 value="0.00136526960907904" flag="0"/>
		</comp>
		<comp name="--.HNN" depth="0.0">
			<acc value="0.0657234179852071" flag="0"/>
			<vel value="0.026415580009016" flag="0"/>
			<psa03 value="0.130815072106576" flag="0"/>
			<psa10 value="0.00507425958227877" flag="0"/>
			<psa30 value="0.000482869904426808" flag="0"/>
		</comp>
		<comp name="--.HNZ" depth="0.0">
			<acc value="0.0197402166923746" flag="0"/>
			<vel value="0.00650547543284792" flag="0"/>
			<psa03 value="0.0511290328806948" flag="0"/>
			<psa10 value="0.00314810010868042" flag="0"/>
			<psa30 value="0.000244348426467495" flag="0"/>
		</comp>
	</station>
</stationlist>
