<?xml version="1.0" encoding="UTF-8" standalone="yes"?>
<!DOCTYPE earthquake SYSTEM "stationlist.dtd">
<stationlist created="" xmlns="ch.ethz.sed.shakemap.usgs.xml">
  <station code="BAC" name="BAC" netid="RO" insttype="2.5V" lat="46.5669" lon="26.9124">
    <comp name="--.HNE">
      <acc value="0.0431992924" flag="0"/>
      <vel value="0.0153438071" flag="0"/>
      <psa03 value="0.0512857627" flag="0"/>
      <psa10 value="0.0056403432" flag="0"/>
      <psa30 value="0.0003855880" flag="0"/>
    </comp>
    <comp name="--.HNZ">
      <acc value="0.0421278880" flag="0"/>
      <vel value="0.0050947431" flag="0"/>
      <psa03 value="0.0209133688" flag="0"/>
      <psa10 value="0.0022751103" flag="0"/>
      <psa30 value="0.0001569845" flag="0"/>
    </comp>
    <comp name="--.HNN">
      <acc value="0.0266329413" flag="0"/>
      <vel value="0.0129416716" flag="0"/>
      <psa03 value="0.0379951567" flag="0"/>
      <psa10 value="0.0104345057" flag="0"/>
      <psa30 value="0.0008269397" flag="0"/>
    </comp>
  </station>
  <station code="BISRR" name="BISRR" netid="RO" insttype="CMG40T.1to100/Basalt" lat="45.5481" lon="26.7099">
    <comp name="--.HHN">
      <acc value="0.0018809458" flag="0"/>
      <vel value="0.0005449657" flag="0"/>
      <psa03 value="0.0019497502" flag="0"/>
      <psa10 value="0.0001530532" flag="0"/>
      <psa30 value="0.0000153621" flag="0"/>
    </comp>
    <comp name="--.HHZ">
      <acc value="0.0539190034" flag="0"/>
      <vel value="0.0243228189" flag="0"/>
      <psa03 value="0.1861185530" flag="0"/>
      <psa10 value="0.0101733779" flag="0"/>
      <psa30 value="0.0006389301" flag="0"/>
    </comp>
    <comp name="--.HHE">
      <acc value="0.0855241124" flag="0"/>
      <vel value="0.0417042935" flag="0"/>
      <psa03 value="0.3032459404" flag="0"/>
      <psa10 value="0.0297568116" flag="0"/>
      <psa30 value="0.0015548566" flag="0"/>
    </comp>
  </station>
  <station code="GHRR" name="GHRR" netid="RO" insttype="w/attenuator" lat="46.0605" lon="27.408">
    <comp name="--.HHE">
      <acc value="0.1872740135" flag="0"/>
      <vel value="0.0648222097" flag="0"/>
      <psa03 value="0.2255892041" flag="0"/>
      <psa10 value="0.0160575098" flag="0"/>
      <psa30 value="0.0017634973" flag="0"/>
    </comp>
    <comp name="--.HHN">
      <acc value="0.1768796986" flag="0"/>
      <vel value="0.0608122660" flag="0"/>
      <psa03 value="0.2550329522" flag="0"/>
      <psa10 value="0.0117349756" flag="0"/>
      <psa30 value="0.0015372332" flag="0"/>
    </comp>
    <comp name="--.HHZ">
      <acc value="0.0926818617" flag="0"/>
      <vel value="0.0264794290" flag="0"/>
      <psa03 value="0.1199790348" flag="0"/>
      <psa10 value="0.0048538065" flag="0"/>
      <psa30 value="0.0003977414" flag="0"/>
    </comp>
  </station>
  <station code="MLR" name="MLR" netid="RO" insttype="330HR" lat="45.4909" lon="25.945">
    <comp name="--.HHN">
      <acc value="0.1592126976" flag="0"/>
      <vel value="0.0454628298" flag="0"/>
      <psa03 value="0.2781254445" flag="0"/>
      <psa10 value="0.0233425613" flag="0"/>
      <psa30 value="0.0021471390" flag="0"/>
    </comp>
    <comp name="--.HHE">
      <acc value="0.1397494340" flag="0"/>
      <vel value="0.0471340272" flag="0"/>
      <psa03 value="0.3393793199" flag="0"/>
      <psa10 value="0.0338541270" flag="0"/>
      <psa30 value="0.0023981574" flag="0"/>
    </comp>
    <comp name="--.HHZ">
      <acc value="0.0266732409" flag="0"/>
      <vel value="0.0084324227" flag="0"/>
      <psa03 value="0.0247007435" flag="0"/>
      <psa10 value="0.0028256808" flag="0"/>
      <psa30 value="0.0002841514" flag="0"/>
    </comp>
  </station>
  <station code="PLOR" name="PLOR" netid="RO" insttype="330" lat="45.8512" lon="26.6498">
    <comp name="--.HHN">
      <acc value="0.0366275520" flag="0"/>
      <vel value="0.0142431468" flag="0"/>
      <psa03 value="0.0646297659" flag="0"/>
      <psa10 value="0.0046976793" flag="0"/>
      <psa30 value="0.0003749327" flag="0"/>
    </comp>
    <comp name="--.HHE">
      <acc value="0.0256669190" flag="0"/>
      <vel value="0.0115682915" flag="0"/>
      <psa03 value="0.0501227660" flag="0"/>
      <psa10 value="0.0039878457" flag="0"/>
      <psa30 value="0.0003698214" flag="0"/>
    </comp>
    <comp name="--.HHZ">
      <acc value="0.0138724790" flag="0"/>
      <vel value="0.0051838480" flag="0"/>
      <psa03 value="0.0286886243" flag="0"/>
      <psa10 value="0.0024168339" flag="0"/>
      <psa30 value="0.0001162005" flag="0"/>
    </comp>
  </station>
  <station code="PLOR4" name="PLOR4" netid="RO" insttype="330" lat="45.8512" lon="26.6498">
    <comp name="--.HHE">
      <acc value="0.0256669190" flag="0"/>
      <vel value="0.0115682915" flag="0"/>
      <psa03 value="0.0501227660" flag="0"/>
      <psa10 value="0.0039878457" flag="0"/>
      <psa30 value="0.0003698214" flag="0"/>
    </comp>
    <comp name="--.HHZ">
      <acc value="0.0138724790" flag="0"/>
      <vel value="0.0051838480" flag="0"/>
      <psa03 value="0.0286886243" flag="0"/>
      <psa10 value="0.0024168339" flag="0"/>
      <psa30 value="0.0001162005" flag="0"/>
    </comp>
    <comp name="--.HHN">
      <acc value="0.0366275520" flag="0"/>
      <vel value="0.0142431468" flag="0"/>
      <psa03 value="0.0646297659" flag="0"/>
      <psa10 value="0.0046976793" flag="0"/>
      <psa30 value="0.0003749327" flag="0"/>
    </comp>
  </station>
  <station code="SULR" name="SULR" netid="RO" insttype="330" lat="44.6777" lon="26.2526">
    <comp name="--.HHE">
      <acc value="0.0294547486" flag="0"/>
      <vel value="0.0093290195" flag="0"/>
      <psa03 value="0.0477914574" flag="0"/>
      <psa10 value="0.0030168403" flag="0"/>
      <psa30 value="0.0002312625" flag="0"/>
    </comp>
    <comp name="--.HHN">
      <acc value="0.0261338829" flag="0"/>
      <vel value="0.0113025953" flag="0"/>
      <psa03 value="0.0470272205" flag="0"/>
      <psa10 value="0.0059128950" flag="0"/>
      <psa30 value="0.0003861295" flag="0"/>
    </comp>
    <comp name="--.HHZ">
      <acc value="0.0745807469" flag="0"/>
      <vel value="0.0145348691" flag="0"/>
      <psa03 value="0.0637290236" flag="0"/>
      <psa10 value="0.0033329495" flag="0"/>
      <psa30 value="0.0004064673" flag="0"/>
    </comp>
  </station>
  <station code="TESR" name="TESR" netid="RO" insttype="330" lat="46.5118" lon="26.6489">
    <comp name="--.HHE">
      <acc value="0.0155747302" flag="0"/>
      <vel value="0.0070389961" flag="0"/>
      <psa03 value="0.0178448475" flag="0"/>
      <psa10 value="0.0022087420" flag="0"/>
      <psa30 value="0.0002251751" flag="0"/>
    </comp>
    <comp name="--.HHN">
      <acc value="0.0151223119" flag="0"/>
      <vel value="0.0046615642" flag="0"/>
      <psa03 value="0.0240788924" flag="0"/>
      <psa10 value="0.0030138577" flag="0"/>
      <psa30 value="0.0002141555" flag="0"/>
    </comp>
    <comp name="--.HHZ">
      <acc value="0.0081189266" flag="0"/>
      <vel value="0.0017535134" flag="0"/>
      <psa03 value="0.0092532045" flag="0"/>
      <psa10 value="0.0015125577" flag="0"/>
      <psa30 value="0.0000771494" flag="0"/>
    </comp>
  </station>
  <station code="VOIR" name="VOIR" netid="RO" insttype="330" lat="45.4371" lon="25.0495">
    <comp name="--.HHZ">
      <acc value="0.0091302483" flag="0"/>
      <vel value="0.0020449083" flag="0"/>
      <psa03 value="0.0089155245" flag="0"/>
      <psa10 value="0.0004848147" flag="0"/>
      <psa30 value="0.0000419416" flag="0"/>
    </comp>
    <comp name="--.HHE">
      <acc value="0.0076178392" flag="0"/>
      <vel value="0.0019566403" flag="0"/>
      <psa03 value="0.0104120651" flag="0"/>
      <psa10 value="0.0009350043" flag="0"/>
      <psa30 value="0.0000673449" flag="0"/>
    </comp>
    <comp name="--.HHN">
      <acc value="0.0065753469" flag="0"/>
      <vel value="0.0016645275" flag="0"/>
      <psa03 value="0.0087334094" flag="0"/>
      <psa10 value="0.0006072710" flag="0"/>
      <psa30 value="0.0000515705" flag="0"/>
    </comp>
  </station>
  <station code="VRI" name="VRI" netid="RO" insttype="Linear" lat="45.8657" lon="26.7277">
    <comp name="--.HHE">
      <acc value="0.1553049945" flag="0"/>
      <vel value="0.0513790732" flag="0"/>
      <psa03 value="0.3321246138" flag="0"/>
      <psa10 value="0.0118297891" flag="0"/>
      <psa30 value="0.0012676125" flag="0"/>
    </comp>
    <comp name="--.HHN">
      <acc value="0.0684039308" flag="0"/>
      <vel value="0.0267715728" flag="0"/>
      <psa03 value="0.1352929645" flag="0"/>
      <psa10 value="0.0050340363" flag="0"/>
      <psa30 value="0.0004908103" flag="0"/>
    </comp>
    <comp name="--.HHZ">
      <acc value="0.0203216711" flag="0"/>
      <vel value="0.0066083262" flag="0"/>
      <psa03 value="0.0521292705" flag="0"/>
      <psa10 value="0.0031222165" flag="0"/>
      <psa30 value="0.0002272776" flag="0"/>
    </comp>
  </station>
</stationlist>
