<?xml version="1.0" encoding="UTF-8" standalone="yes"?>
<!DOCTYPE earthquake SYSTEM "stationlist.dtd">
<stationlist created="" xmlns="ch.ethz.sed.shakemap.usgs.xml">
  <station code="SNT5" name="SNT5" netid="HA" insttype="1s-100Hz," lat="36.4037" lon="25.3953">
    <comp name="--.HHE">
      <acc value="0.0754202517" flag="0"/>
      <vel value="0.0300090497" flag="0"/>
      <psa03 value="0.1242715536" flag="0"/>
      <psa10 value="0.0203596318" flag="0"/>
      <psa30 value="0.0078190734" flag="0"/>
    </comp>
    <comp name="--.HHN">
      <acc value="0.0596652472" flag="0"/>
      <vel value="0.0218175790" flag="0"/>
      <psa03 value="0.0629524395" flag="0"/>
      <psa10 value="0.0221305524" flag="0"/>
      <psa30 value="0.0040692061" flag="0"/>
    </comp>
    <comp name="--.HHZ">
      <acc value="0.0254459288" flag="0"/>
      <vel value="0.0081017207" flag="0"/>
      <psa03 value="0.0316359997" flag="0"/>
      <psa10 value="0.0116049387" flag="0"/>
      <psa30 value="0.0014328890" flag="0"/>
    </comp>
  </station>
  <station code="IMOD" name="IMOD" netid="HC" insttype="120" lat="34.9731" lon="24.7995">
    <comp name="--.HHZ">
      <acc value="0.0129725922" flag="0"/>
      <vel value="0.0082081600" flag="0"/>
      <psa03 value="0.0310054882" flag="0"/>
      <psa10 value="0.0086443349" flag="0"/>
      <psa30 value="0.0006099030" flag="0"/>
    </comp>
    <comp name="--.HHN">
      <acc value="0.0186889722" flag="0"/>
      <vel value="0.0122663066" flag="0"/>
      <psa03 value="0.0746880391" flag="0"/>
      <psa10 value="0.0155302807" flag="0"/>
      <psa30 value="0.0016701627" flag="0"/>
    </comp>
    <comp name="--.HHE">
      <acc value="0.0168848832" flag="0"/>
      <vel value="0.0114125369" flag="0"/>
      <psa03 value="0.0574576412" flag="0"/>
      <psa10 value="0.0130285682" flag="0"/>
      <psa30 value="0.0015803987" flag="0"/>
    </comp>
  </station>
  <station code="KNSS" name="KNSS" netid="HC" insttype="60" lat="35.3042" lon="25.1802">
    <comp name="--.HHZ">
      <acc value="0.0691444637" flag="0"/>
      <vel value="0.0211659674" flag="0"/>
      <psa03 value="0.0975079055" flag="0"/>
      <psa10 value="0.0172949738" flag="0"/>
      <psa30 value="0.0015574618" flag="0"/>
    </comp>
    <comp name="--.HHN">
      <acc value="0.0607453309" flag="0"/>
      <vel value="0.0198161434" flag="0"/>
      <psa03 value="0.1434085401" flag="0"/>
      <psa10 value="0.0219172670" flag="0"/>
      <psa30 value="0.0053116417" flag="0"/>
    </comp>
    <comp name="--.HHE">
      <acc value="0.0550132480" flag="0"/>
      <vel value="0.0210722770" flag="0"/>
      <psa03 value="0.1493180002" flag="0"/>
      <psa10 value="0.0214203208" flag="0"/>
      <psa30 value="0.0024721315" flag="0"/>
    </comp>
  </station>
  <station code="PFKS" name="PFKS" netid="HC" insttype="120" lat="35.0429" lon="25.4733">
    <comp name="--.HHE">
      <acc value="0.0852551778" flag="0"/>
      <vel value="0.0203714091" flag="0"/>
      <psa03 value="0.0921557661" flag="0"/>
      <psa10 value="0.0229363956" flag="0"/>
      <psa30 value="0.0031992326" flag="0"/>
    </comp>
    <comp name="--.HHN">
      <acc value="0.0753586277" flag="0"/>
      <vel value="0.0224915623" flag="0"/>
      <psa03 value="0.0781375832" flag="0"/>
      <psa10 value="0.0261177208" flag="0"/>
      <psa30 value="0.0018845307" flag="0"/>
    </comp>
    <comp name="--.HHZ">
      <acc value="0.0443801183" flag="0"/>
      <vel value="0.0116833798" flag="0"/>
      <psa03 value="0.0379388048" flag="0"/>
      <psa10 value="0.0175343475" flag="0"/>
      <psa30 value="0.0018180222" flag="0"/>
    </comp>
  </station>
  <station code="STIA" name="STIA" netid="HC" insttype="120" lat="35.2021" lon="26.0909">
    <comp name="--.HHN">
      <acc value="0.0823026655" flag="0"/>
      <vel value="0.0451644163" flag="0"/>
      <psa03 value="0.0745952646" flag="0"/>
      <psa10 value="0.0466461033" flag="0"/>
      <psa30 value="0.0055815054" flag="0"/>
    </comp>
    <comp name="--.HHE">
      <acc value="0.0773945483" flag="0"/>
      <vel value="0.0468571088" flag="0"/>
      <psa03 value="0.0927397435" flag="0"/>
      <psa10 value="0.0568991715" flag="0"/>
      <psa30 value="0.0055818094" flag="0"/>
    </comp>
    <comp name="--.HHZ">
      <acc value="0.0853442883" flag="0"/>
      <vel value="0.0221979696" flag="0"/>
      <psa03 value="0.0830525306" flag="0"/>
      <psa10 value="0.0186820554" flag="0"/>
      <psa30 value="0.0020376282" flag="0"/>
    </comp>
  </station>
  <station code="TEFL" name="TEFL" netid="HC" insttype="GEOtiny," lat="35.0933" lon="25.1634">
    <comp name="--.HHE">
      <acc value="0.1419979648" flag="0"/>
      <vel value="0.0381880782" flag="0"/>
      <psa03 value="0.2086287641" flag="0"/>
      <psa10 value="0.0424621200" flag="0"/>
      <psa30 value="0.0048758522" flag="0"/>
    </comp>
    <comp name="--.HHN">
      <acc value="0.1257791824" flag="0"/>
      <vel value="0.0412125008" flag="0"/>
      <psa03 value="0.2799084105" flag="0"/>
      <psa10 value="0.0361228815" flag="0"/>
      <psa30 value="0.0042003668" flag="0"/>
    </comp>
    <comp name="--.HHZ">
      <acc value="0.0650734410" flag="0"/>
      <vel value="0.0242800834" flag="0"/>
      <psa03 value="0.2025970870" flag="0"/>
      <psa10 value="0.0176089121" flag="0"/>
      <psa30 value="0.0020333628" flag="0"/>
    </comp>
  </station>
  <station code="IACM" name="IACM" netid="HL" insttype="120" lat="35.3058" lon="25.0709">
    <comp name="--.HHE">
      <acc value="0.1687764267" flag="0"/>
      <vel value="0.0806034844" flag="0"/>
      <psa03 value="0.4445093414" flag="0"/>
      <psa10 value="0.1526964939" flag="0"/>
      <psa30 value="0.0072254625" flag="0"/>
    </comp>
    <comp name="--.HHN">
      <acc value="0.1786999097" flag="0"/>
      <vel value="0.0935247753" flag="0"/>
      <psa03 value="0.6470822532" flag="0"/>
      <psa10 value="0.1069387907" flag="0"/>
      <psa30 value="0.0065059887" flag="0"/>
    </comp>
    <comp name="--.HHZ">
      <acc value="0.1335990185" flag="0"/>
      <vel value="0.0405139486" flag="0"/>
      <psa03 value="0.1938010763" flag="0"/>
      <psa10 value="0.0511826951" flag="0"/>
      <psa30 value="0.0022830406" flag="0"/>
    </comp>
  </station>
  <station code="KSTE" name="KSTE" netid="HL" insttype="60" lat="35.1801" lon="25.3372">
    <comp name="--.HHN">
      <acc value="0.0731723797" flag="0"/>
      <vel value="0.0211907990" flag="0"/>
      <psa03 value="0.0741407186" flag="0"/>
      <psa10 value="0.0255267547" flag="0"/>
      <psa30 value="0.0036165906" flag="0"/>
    </comp>
    <comp name="--.HHE">
      <acc value="0.0404780299" flag="0"/>
      <vel value="0.0113969575" flag="0"/>
      <psa03 value="0.0317743359" flag="0"/>
      <psa10 value="0.0142527336" flag="0"/>
      <psa30 value="0.0026498028" flag="0"/>
    </comp>
    <comp name="--.HHZ">
      <acc value="0.0404228415" flag="0"/>
      <vel value="0.0120286373" flag="0"/>
      <psa03 value="0.0427823483" flag="0"/>
      <psa10 value="0.0220979734" flag="0"/>
      <psa30 value="0.0029202722" flag="0"/>
    </comp>
  </station>
  <station code="NPS" name="NPS" netid="HL" insttype="CMG3ESPC-120s" lat="35.2613" lon="25.6104">
    <comp name="--.HHZ">
      <acc value="0.0788084849" flag="0"/>
      <vel value="0.0306694762" flag="0"/>
      <psa03 value="0.1097100008" flag="0"/>
      <psa10 value="0.0384400717" flag="0"/>
      <psa30 value="0.0044191950" flag="0"/>
    </comp>
    <comp name="--.HHE">
      <acc value="0.0361423436" flag="0"/>
      <vel value="0.0150199860" flag="0"/>
      <psa03 value="0.0564123421" flag="0"/>
      <psa10 value="0.0248467233" flag="0"/>
      <psa30 value="0.0028459603" flag="0"/>
    </comp>
    <comp name="--.HHN">
      <acc value="0.1100785732" flag="0"/>
      <vel value="0.0315154150" flag="0"/>
      <psa03 value="0.0864008055" flag="0"/>
      <psa10 value="0.0666749102" flag="0"/>
      <psa30 value="0.0026257508" flag="0"/>
    </comp>
  </station>
  <station code="SAP3" name="SAP3" netid="HL" insttype="LE3D20_SMART24" lat="36.4356" lon="25.3454">
    <comp name="--.HHZ">
      <acc value="0.0765655951" flag="0"/>
      <vel value="0.0273951552" flag="0"/>
      <psa03 value="0.0973319172" flag="0"/>
      <psa10 value="0.0268404980" flag="0"/>
      <psa30 value="0.0036912492" flag="0"/>
    </comp>
    <comp name="--.HHN">
      <acc value="0.0664981471" flag="0"/>
      <vel value="0.0423264015" flag="0"/>
      <psa03 value="0.1321168591" flag="0"/>
      <psa10 value="0.0556919800" flag="0"/>
      <psa30 value="0.0094362310" flag="0"/>
    </comp>
    <comp name="--.HHE">
      <acc value="0.0702800559" flag="0"/>
      <vel value="0.0562408164" flag="0"/>
      <psa03 value="0.1630261273" flag="0"/>
      <psa10 value="0.0860081757" flag="0"/>
      <psa30 value="0.0108777217" flag="0"/>
    </comp>
  </station>
  <station code="SIVA" name="SIVA" netid="HL" insttype="60" lat="35.0178" lon="24.812">
    <comp name="--.HHN">
      <acc value="0.0238046937" flag="0"/>
      <vel value="0.0138028772" flag="0"/>
      <psa03 value="0.0575077207" flag="0"/>
      <psa10 value="0.0236656813" flag="0"/>
      <psa30 value="0.0015731694" flag="0"/>
    </comp>
    <comp name="--.HHZ">
      <acc value="0.0130746877" flag="0"/>
      <vel value="0.0094381677" flag="0"/>
      <psa03 value="0.0547375525" flag="0"/>
      <psa10 value="0.0076264321" flag="0"/>
      <psa30 value="0.0009146884" flag="0"/>
    </comp>
    <comp name="--.HHE">
      <acc value="0.0276165667" flag="0"/>
      <vel value="0.0187646583" flag="0"/>
      <psa03 value="0.1141659904" flag="0"/>
      <psa10 value="0.0279454444" flag="0"/>
      <psa30 value="0.0018765430" flag="0"/>
    </comp>
  </station>
  <station code="THERA" name="THERA" netid="HL" insttype="120" lat="36.367" lon="25.4753">
    <comp name="--.HHN">
      <acc value="0.0195913950" flag="0"/>
      <vel value="0.0067553361" flag="0"/>
      <psa03 value="0.0340426783" flag="0"/>
      <psa10 value="0.0086458198" flag="0"/>
      <psa30 value="0.0007935307" flag="0"/>
    </comp>
    <comp name="--.HHE">
      <acc value="0.0346724315" flag="0"/>
      <vel value="0.0113576717" flag="0"/>
      <psa03 value="0.0690565325" flag="0"/>
      <psa10 value="0.0133170671" flag="0"/>
      <psa30 value="0.0016746066" flag="0"/>
    </comp>
    <comp name="--.HHZ">
      <acc value="0.0252872223" flag="0"/>
      <vel value="0.0110938323" flag="0"/>
      <psa03 value="0.0370401942" flag="0"/>
      <psa10 value="0.0137064895" flag="0"/>
      <psa30 value="0.0009911098" flag="0"/>
    </comp>
  </station>
  <station code="ZKR" name="ZKR" netid="HL" insttype="120" lat="35.1147" lon="26.2169">
    <comp name="--.HHN">
      <acc value="0.0224819574" flag="0"/>
      <vel value="0.0116212687" flag="0"/>
      <psa03 value="0.0290427668" flag="0"/>
      <psa10 value="0.0200593253" flag="0"/>
      <psa30 value="0.0011565387" flag="0"/>
    </comp>
    <comp name="--.HHE">
      <acc value="0.0415962045" flag="0"/>
      <vel value="0.0245481402" flag="0"/>
      <psa03 value="0.0757881939" flag="0"/>
      <psa10 value="0.0378750344" flag="0"/>
      <psa30 value="0.0044794935" flag="0"/>
    </comp>
    <comp name="--.HHZ">
      <acc value="0.0361161496" flag="0"/>
      <vel value="0.0111675416" flag="0"/>
      <psa03 value="0.0352673694" flag="0"/>
      <psa10 value="0.0237821472" flag="0"/>
      <psa30 value="0.0021888167" flag="0"/>
    </comp>
  </station>
  <station code="CMBO" name="CMBO" netid="HT" insttype="120P," lat="36.4709" lon="25.4056">
    <comp name="--.HHE">
      <acc value="0.1296564786" flag="0"/>
      <vel value="0.0540909720" flag="0"/>
      <psa03 value="0.1990262490" flag="0"/>
      <psa10 value="0.0761904135" flag="0"/>
      <psa30 value="0.0054539409" flag="0"/>
    </comp>
    <comp name="--.HHN">
      <acc value="0.0901054225" flag="0"/>
      <vel value="0.0605592769" flag="0"/>
      <psa03 value="0.2245189641" flag="0"/>
      <psa10 value="0.0637763939" flag="0"/>
      <psa30 value="0.0049558615" flag="0"/>
    </comp>
    <comp name="--.HHZ">
      <acc value="0.0973981974" flag="0"/>
      <vel value="0.0360819495" flag="0"/>
      <psa03 value="0.2182089240" flag="0"/>
      <psa10 value="0.0183052858" flag="0"/>
      <psa30 value="0.0045984900" flag="0"/>
    </comp>
  </station>
</stationlist>
