<?xml version="1.0" encoding="UTF-8" standalone="yes"?>
<!DOCTYPE earthquake SYSTEM "stationlist.dtd">
<stationlist created="" xmlns="ch.ethz.sed.shakemap.usgs.xml">
  <station code="SNT5" name="SNT5" netid="HA" insttype="1s-100Hz," lat="36.4037" lon="25.3953">
    <comp name="--.HHE">
      <acc value="0.0754202509" flag="0"/>
      <vel value="0.0300091458" flag="0"/>
      <psa03 value="0.1242715532" flag="0"/>
      <psa10 value="0.0203596321" flag="0"/>
      <psa30 value="0.0078190391" flag="0"/>
    </comp>
    <comp name="--.HHN">
      <acc value="0.0596652478" flag="0"/>
      <vel value="0.0218178914" flag="0"/>
      <psa03 value="0.0629524385" flag="0"/>
      <psa10 value="0.0221305534" flag="0"/>
      <psa30 value="0.0040691749" flag="0"/>
    </comp>
    <comp name="--.HHZ">
      <acc value="0.0254459298" flag="0"/>
      <vel value="0.0081022157" flag="0"/>
      <psa03 value="0.0316360010" flag="0"/>
      <psa10 value="0.0116049400" flag="0"/>
      <psa30 value="0.0014330173" flag="0"/>
    </comp>
  </station>
  <station code="IMOD" name="IMOD" netid="HC" insttype="120" lat="34.9731" lon="24.7995">
    <comp name="--.HHN">
      <acc value="0.0186889720" flag="0"/>
      <vel value="0.0122663064" flag="0"/>
      <psa03 value="0.0746880391" flag="0"/>
      <psa10 value="0.0155302807" flag="0"/>
      <psa30 value="0.0016701626" flag="0"/>
    </comp>
    <comp name="--.HHE">
      <acc value="0.0168848832" flag="0"/>
      <vel value="0.0114125370" flag="0"/>
      <psa03 value="0.0574576412" flag="0"/>
      <psa10 value="0.0130285681" flag="0"/>
      <psa30 value="0.0015803976" flag="0"/>
    </comp>
    <comp name="--.HHZ">
      <acc value="0.0129725920" flag="0"/>
      <vel value="0.0082081599" flag="0"/>
      <psa03 value="0.0310054882" flag="0"/>
      <psa10 value="0.0086443349" flag="0"/>
      <psa30 value="0.0006099015" flag="0"/>
    </comp>
  </station>
  <station code="IPPL" name="IPPL" netid="HC" insttype="60" lat="35.3486" lon="24.4632">
    <comp name="--.HHE">
      <acc value="0.0237925923" flag="0"/>
      <vel value="0.0193593303" flag="0"/>
      <psa03 value="0.1239600684" flag="0"/>
      <psa10 value="0.0209252742" flag="0"/>
      <psa30 value="0.0015662900" flag="0"/>
    </comp>
    <comp name="--.HHZ">
      <acc value="0.0169314204" flag="0"/>
      <vel value="0.0078546714" flag="0"/>
      <psa03 value="0.0617963676" flag="0"/>
      <psa10 value="0.0112900594" flag="0"/>
      <psa30 value="0.0007423159" flag="0"/>
    </comp>
    <comp name="--.HHN">
      <acc value="0.0194379912" flag="0"/>
      <vel value="0.0167051536" flag="0"/>
      <psa03 value="0.0559991252" flag="0"/>
      <psa10 value="0.0320851308" flag="0"/>
      <psa30 value="0.0019862540" flag="0"/>
    </comp>
  </station>
  <station code="KNSS" name="KNSS" netid="HC" insttype="60" lat="35.3042" lon="25.1802">
    <comp name="--.HHN">
      <acc value="0.0607453307" flag="0"/>
      <vel value="0.0198161445" flag="0"/>
      <psa03 value="0.1434085401" flag="0"/>
      <psa10 value="0.0219172670" flag="0"/>
      <psa30 value="0.0053116354" flag="0"/>
    </comp>
    <comp name="--.HHZ">
      <acc value="0.0691444643" flag="0"/>
      <vel value="0.0211659672" flag="0"/>
      <psa03 value="0.0975079055" flag="0"/>
      <psa10 value="0.0172949738" flag="0"/>
      <psa30 value="0.0015574609" flag="0"/>
    </comp>
    <comp name="--.HHE">
      <acc value="0.0550132479" flag="0"/>
      <vel value="0.0210722773" flag="0"/>
      <psa03 value="0.1493180002" flag="0"/>
      <psa10 value="0.0214203208" flag="0"/>
      <psa30 value="0.0024721324" flag="0"/>
    </comp>
  </station>
  <station code="PFKS" name="PFKS" netid="HC" insttype="120" lat="35.0429" lon="25.4733">
    <comp name="--.HHE">
      <acc value="0.0852551775" flag="0"/>
      <vel value="0.0203714089" flag="0"/>
      <psa03 value="0.0921557661" flag="0"/>
      <psa10 value="0.0229363956" flag="0"/>
      <psa30 value="0.0031992335" flag="0"/>
    </comp>
    <comp name="--.HHN">
      <acc value="0.0753586270" flag="0"/>
      <vel value="0.0224915618" flag="0"/>
      <psa03 value="0.0781375832" flag="0"/>
      <psa10 value="0.0261177208" flag="0"/>
      <psa30 value="0.0018845298" flag="0"/>
    </comp>
    <comp name="--.HHZ">
      <acc value="0.0443801179" flag="0"/>
      <vel value="0.0116833801" flag="0"/>
      <psa03 value="0.0379388048" flag="0"/>
      <psa10 value="0.0175343475" flag="0"/>
      <psa30 value="0.0018180175" flag="0"/>
    </comp>
  </station>
  <station code="STIA" name="STIA" netid="HC" insttype="120" lat="35.2021" lon="26.0909">
    <comp name="--.HHZ">
      <acc value="0.0853442883" flag="0"/>
      <vel value="0.0221979688" flag="0"/>
      <psa03 value="0.0830525306" flag="0"/>
      <psa10 value="0.0186820554" flag="0"/>
      <psa30 value="0.0020376422" flag="0"/>
    </comp>
    <comp name="--.HHE">
      <acc value="0.0773945474" flag="0"/>
      <vel value="0.0468571087" flag="0"/>
      <psa03 value="0.0927397435" flag="0"/>
      <psa10 value="0.0568991715" flag="0"/>
      <psa30 value="0.0055818102" flag="0"/>
    </comp>
    <comp name="--.HHN">
      <acc value="0.0823026660" flag="0"/>
      <vel value="0.0451644172" flag="0"/>
      <psa03 value="0.0745952646" flag="0"/>
      <psa10 value="0.0466461026" flag="0"/>
      <psa30 value="0.0055815765" flag="0"/>
    </comp>
  </station>
  <station code="TEFL" name="TEFL" netid="HC" insttype="GEOtiny," lat="35.0933" lon="25.1634">
    <comp name="--.HHE">
      <acc value="0.1419979660" flag="0"/>
      <vel value="0.0381886590" flag="0"/>
      <psa03 value="0.2086287653" flag="0"/>
      <psa10 value="0.0424621215" flag="0"/>
      <psa30 value="0.0048758393" flag="0"/>
    </comp>
    <comp name="--.HHN">
      <acc value="0.1257791852" flag="0"/>
      <vel value="0.0412097562" flag="0"/>
      <psa03 value="0.2799084113" flag="0"/>
      <psa10 value="0.0361228809" flag="0"/>
      <psa30 value="0.0042003657" flag="0"/>
    </comp>
    <comp name="--.HHZ">
      <acc value="0.0650734389" flag="0"/>
      <vel value="0.0242789687" flag="0"/>
      <psa03 value="0.2025970873" flag="0"/>
      <psa10 value="0.0176089115" flag="0"/>
      <psa30 value="0.0020333653" flag="0"/>
    </comp>
  </station>
  <station code="IACM" name="IACM" netid="HL" insttype="120" lat="35.3058" lon="25.0709">
    <comp name="--.HHE">
      <acc value="0.1687764267" flag="0"/>
      <vel value="0.0806034841" flag="0"/>
      <psa03 value="0.4445093414" flag="0"/>
      <psa10 value="0.1526964938" flag="0"/>
      <psa30 value="0.0072255018" flag="0"/>
    </comp>
    <comp name="--.HHN">
      <acc value="0.1786999103" flag="0"/>
      <vel value="0.0935247740" flag="0"/>
      <psa03 value="0.6470822532" flag="0"/>
      <psa10 value="0.1069387908" flag="0"/>
      <psa30 value="0.0065059736" flag="0"/>
    </comp>
    <comp name="--.HHZ">
      <acc value="0.1335990187" flag="0"/>
      <vel value="0.0405139486" flag="0"/>
      <psa03 value="0.1938010763" flag="0"/>
      <psa10 value="0.0511826951" flag="0"/>
      <psa30 value="0.0022830410" flag="0"/>
    </comp>
  </station>
  <station code="KSTE" name="KSTE" netid="HL" insttype="60" lat="35.1801" lon="25.3372">
    <comp name="--.HHN">
      <acc value="0.0731723786" flag="0"/>
      <vel value="0.0211908833" flag="0"/>
      <psa03 value="0.0741407187" flag="0"/>
      <psa10 value="0.0255267547" flag="0"/>
      <psa30 value="0.0036166143" flag="0"/>
    </comp>
    <comp name="--.HHZ">
      <acc value="0.0404228420" flag="0"/>
      <vel value="0.0120286373" flag="0"/>
      <psa03 value="0.0427823483" flag="0"/>
      <psa10 value="0.0220979734" flag="0"/>
      <psa30 value="0.0029202701" flag="0"/>
    </comp>
    <comp name="--.HHE">
      <acc value="0.0404780299" flag="0"/>
      <vel value="0.0113969576" flag="0"/>
      <psa03 value="0.0317743359" flag="0"/>
      <psa10 value="0.0142527336" flag="0"/>
      <psa30 value="0.0026498064" flag="0"/>
    </comp>
  </station>
  <station code="NPS" name="NPS" netid="HL" insttype="CMG3ESPC-120s" lat="35.2613" lon="25.6104">
    <comp name="--.HHN">
      <acc value="0.1100785738" flag="0"/>
      <vel value="0.0315154149" flag="0"/>
      <psa03 value="0.0864008055" flag="0"/>
      <psa10 value="0.0666749102" flag="0"/>
      <psa30 value="0.0026257502" flag="0"/>
    </comp>
    <comp name="--.HHZ">
      <acc value="0.0788084859" flag="0"/>
      <vel value="0.0306694762" flag="0"/>
      <psa03 value="0.1097100008" flag="0"/>
      <psa10 value="0.0384400717" flag="0"/>
      <psa30 value="0.0044191950" flag="0"/>
    </comp>
    <comp name="--.HHE">
      <acc value="0.0361423448" flag="0"/>
      <vel value="0.0150199861" flag="0"/>
      <psa03 value="0.0564123421" flag="0"/>
      <psa10 value="0.0248467233" flag="0"/>
      <psa30 value="0.0028459591" flag="0"/>
    </comp>
  </station>
  <station code="SAP3" name="SAP3" netid="HL" insttype="LE3D20_SMART24" lat="36.4356" lon="25.3454">
    <comp name="--.HHE">
      <acc value="0.0702800575" flag="0"/>
      <vel value="0.0562408026" flag="0"/>
      <psa03 value="0.1630261274" flag="0"/>
      <psa10 value="0.0860081756" flag="0"/>
      <psa30 value="0.0108779943" flag="0"/>
    </comp>
    <comp name="--.HHN">
      <acc value="0.0664981470" flag="0"/>
      <vel value="0.0423264214" flag="0"/>
      <psa03 value="0.1321168591" flag="0"/>
      <psa10 value="0.0556919802" flag="0"/>
      <psa30 value="0.0094367540" flag="0"/>
    </comp>
    <comp name="--.HHZ">
      <acc value="0.0765655944" flag="0"/>
      <vel value="0.0273951659" flag="0"/>
      <psa03 value="0.0973319172" flag="0"/>
      <psa10 value="0.0268404988" flag="0"/>
      <psa30 value="0.0036909742" flag="0"/>
    </comp>
  </station>
  <station code="SIVA" name="SIVA" netid="HL" insttype="60" lat="35.0178" lon="24.812">
    <comp name="--.HHE">
      <acc value="0.0276165680" flag="0"/>
      <vel value="0.0187646572" flag="0"/>
      <psa03 value="0.1141659904" flag="0"/>
      <psa10 value="0.0279454444" flag="0"/>
      <psa30 value="0.0018765431" flag="0"/>
    </comp>
    <comp name="--.HHN">
      <acc value="0.0238046939" flag="0"/>
      <vel value="0.0138028777" flag="0"/>
      <psa03 value="0.0575077207" flag="0"/>
      <psa10 value="0.0236656813" flag="0"/>
      <psa30 value="0.0015731690" flag="0"/>
    </comp>
    <comp name="--.HHZ">
      <acc value="0.0130746878" flag="0"/>
      <vel value="0.0094381684" flag="0"/>
      <psa03 value="0.0547375525" flag="0"/>
      <psa10 value="0.0076264321" flag="0"/>
      <psa30 value="0.0011227649" flag="0"/>
    </comp>
  </station>
  <station code="THERA" name="THERA" netid="HL" insttype="120" lat="36.367" lon="25.4753">
    <comp name="--.HHZ">
      <acc value="0.0252872217" flag="0"/>
      <vel value="0.0110938321" flag="0"/>
      <psa03 value="0.0370401942" flag="0"/>
      <psa10 value="0.0137064895" flag="0"/>
      <psa30 value="0.0009911036" flag="0"/>
    </comp>
    <comp name="--.HHE">
      <acc value="0.0346724310" flag="0"/>
      <vel value="0.0113576720" flag="0"/>
      <psa03 value="0.0690565325" flag="0"/>
      <psa10 value="0.0133170671" flag="0"/>
      <psa30 value="0.0016745892" flag="0"/>
    </comp>
    <comp name="--.HHN">
      <acc value="0.0195913948" flag="0"/>
      <vel value="0.0067553360" flag="0"/>
      <psa03 value="0.0340426783" flag="0"/>
      <psa10 value="0.0086458198" flag="0"/>
      <psa30 value="0.0007935181" flag="0"/>
    </comp>
  </station>
  <station code="VAM" name="VAM" netid="HL" insttype="CMG3ESPC-120s" lat="35.407" lon="24.1997">
    <comp name="--.HHE">
      <acc value="0.0157351128" flag="0"/>
      <vel value="0.0094617149" flag="0"/>
      <psa03 value="0.0588796517" flag="0"/>
      <psa10 value="0.0117099020" flag="0"/>
      <psa30 value="0.0008834078" flag="0"/>
    </comp>
    <comp name="--.HHN">
      <acc value="0.0210594340" flag="0"/>
      <vel value="0.0125261233" flag="0"/>
      <psa03 value="0.0512466604" flag="0"/>
      <psa10 value="0.0128019541" flag="0"/>
      <psa30 value="0.0014797857" flag="0"/>
    </comp>
    <comp name="--.HHZ">
      <acc value="0.0082408471" flag="0"/>
      <vel value="0.0046810608" flag="0"/>
      <psa03 value="0.0197233934" flag="0"/>
      <psa10 value="0.0046793436" flag="0"/>
      <psa30 value="0.0005866241" flag="0"/>
    </comp>
  </station>
  <station code="ZKR" name="ZKR" netid="HL" insttype="120" lat="35.1147" lon="26.2169">
    <comp name="--.HHZ">
      <acc value="0.0361161496" flag="0"/>
      <vel value="0.0111675415" flag="0"/>
      <psa03 value="0.0352673694" flag="0"/>
      <psa10 value="0.0237821472" flag="0"/>
      <psa30 value="0.0021888191" flag="0"/>
    </comp>
    <comp name="--.HHE">
      <acc value="0.0415962050" flag="0"/>
      <vel value="0.0245481398" flag="0"/>
      <psa03 value="0.0757881939" flag="0"/>
      <psa10 value="0.0378750344" flag="0"/>
      <psa30 value="0.0044794989" flag="0"/>
    </comp>
    <comp name="--.HHN">
      <acc value="0.0224819572" flag="0"/>
      <vel value="0.0116212685" flag="0"/>
      <psa03 value="0.0290427668" flag="0"/>
      <psa10 value="0.0200593253" flag="0"/>
      <psa30 value="0.0011565398" flag="0"/>
    </comp>
  </station>
  <station code="CMBO" name="CMBO" netid="HT" insttype="120P," lat="36.4709" lon="25.4056">
    <comp name="--.HHE">
      <acc value="0.1296564774" flag="0"/>
      <vel value="0.0540909706" flag="0"/>
      <psa03 value="0.1990262490" flag="0"/>
      <psa10 value="0.0761904136" flag="0"/>
      <psa30 value="0.0054541725" flag="0"/>
    </comp>
    <comp name="--.HHZ">
      <acc value="0.0973981976" flag="0"/>
      <vel value="0.0360819384" flag="0"/>
      <psa03 value="0.2182089240" flag="0"/>
      <psa10 value="0.0183052853" flag="0"/>
      <psa30 value="0.0045985805" flag="0"/>
    </comp>
    <comp name="--.HHN">
      <acc value="0.0901054213" flag="0"/>
      <vel value="0.0605592777" flag="0"/>
      <psa03 value="0.2245189641" flag="0"/>
      <psa10 value="0.0637763938" flag="0"/>
      <psa30 value="0.0049558470" flag="0"/>
    </comp>
  </station>
</stationlist>
