<?xml version="1.0" encoding="UTF-8" standalone="yes"?>
<!DOCTYPE earthquake SYSTEM "stationlist.dtd">
<stationlist created="" xmlns="ch.ethz.sed.shakemap.usgs.xml">
  <station code="AFSR" name="AFSR" netid="KO" insttype="CMG-3ESP" lat="39.4468" lon="33.0707">
    <comp name="--.HHE">
      <acc value="0.0386828269" flag="0"/>
      <vel value="0.0404684740" flag="0"/>
      <psa03 value="0.1363531498" flag="0"/>
      <psa10 value="0.0485820476" flag="0"/>
      <psa30 value="0.0059014003" flag="0"/>
    </comp>
    <comp name="--.HHN">
      <acc value="0.0505711150" flag="0"/>
      <vel value="0.0692404728" flag="0"/>
      <psa03 value="0.1239213094" flag="0"/>
      <psa10 value="0.0966101974" flag="0"/>
      <psa30 value="0.0068716798" flag="0"/>
    </comp>
    <comp name="--.HHZ">
      <acc value="0.0230462999" flag="0"/>
      <vel value="0.0214951622" flag="0"/>
      <psa03 value="0.0716392897" flag="0"/>
      <psa10 value="0.0203880422" flag="0"/>
      <psa30 value="0.0016335858" flag="0"/>
    </comp>
  </station>
  <station code="CHBY" name="CHBY" netid="KO" insttype="CMG-6T" lat="38.5823" lon="32.8902">
    <comp name="--.HHN">
      <acc value="0.3325427647" flag="0"/>
      <vel value="0.1390767628" flag="0"/>
      <psa03 value="0.6945293555" flag="0"/>
      <psa10 value="0.0878526903" flag="0"/>
      <psa30 value="0.0117069273" flag="0"/>
    </comp>
    <comp name="--.HHZ">
      <acc value="0.2005080310" flag="0"/>
      <vel value="0.1242310823" flag="0"/>
      <psa03 value="0.7743238574" flag="0"/>
      <psa10 value="0.0682685120" flag="0"/>
      <psa30 value="0.0112397435" flag="0"/>
    </comp>
    <comp name="--.HHE">
      <acc value="0.2551336460" flag="0"/>
      <vel value="0.0943271356" flag="0"/>
      <psa03 value="0.6497848087" flag="0"/>
      <psa10 value="0.0809080938" flag="0"/>
      <psa30 value="0.0083505988" flag="0"/>
    </comp>
  </station>
  <station code="GULA" name="GULA" netid="KO" insttype="CMG-6T" lat="38.3444" lon="34.236">
    <comp name="--.HHE">
      <acc value="0.0214261419" flag="0"/>
      <vel value="0.0135074958" flag="0"/>
      <psa03 value="0.0407573621" flag="0"/>
      <psa10 value="0.0211217305" flag="0"/>
      <psa30 value="0.0031984303" flag="0"/>
    </comp>
    <comp name="--.HHN">
      <acc value="0.0205633528" flag="0"/>
      <vel value="0.0210314019" flag="0"/>
      <psa03 value="0.0406203920" flag="0"/>
      <psa10 value="0.0303101069" flag="0"/>
      <psa30 value="0.0026953736" flag="0"/>
    </comp>
    <comp name="--.HHZ">
      <acc value="0.0136362605" flag="0"/>
      <vel value="0.0129244769" flag="0"/>
      <psa03 value="0.0240017663" flag="0"/>
      <psa10 value="0.0147573643" flag="0"/>
      <psa30 value="0.0024160662" flag="0"/>
    </comp>
  </station>
  <station code="HDMB" name="HDMB" netid="KO" insttype="CMG-3T" lat="36.9638" lon="32.4857">
    <comp name="--.HHE">
      <acc value="0.0255313091" flag="0"/>
      <vel value="0.0187752670" flag="0"/>
      <psa03 value="0.0531652994" flag="0"/>
      <psa10 value="0.0230544956" flag="0"/>
      <psa30 value="0.0026789544" flag="0"/>
    </comp>
    <comp name="--.HHN">
      <acc value="0.0250409162" flag="0"/>
      <vel value="0.0157578813" flag="0"/>
      <psa03 value="0.0604962145" flag="0"/>
      <psa10 value="0.0117860003" flag="0"/>
      <psa30 value="0.0032927028" flag="0"/>
    </comp>
    <comp name="--.HHZ">
      <acc value="0.0132651153" flag="0"/>
      <vel value="0.0129879828" flag="0"/>
      <psa03 value="0.0514487722" flag="0"/>
      <psa10 value="0.0131958586" flag="0"/>
      <psa30 value="0.0034174713" flag="0"/>
    </comp>
  </station>
  <station code="KAMT" name="KAMT" netid="KO" insttype="CMG-3T" lat="39.3692" lon="33.7124">
    <comp name="--.HHE">
      <acc value="0.0428319372" flag="0"/>
      <vel value="0.0504731417" flag="0"/>
      <psa03 value="0.1608593404" flag="0"/>
      <psa10 value="0.0546176239" flag="0"/>
      <psa30 value="0.0059280005" flag="0"/>
    </comp>
    <comp name="--.HHN">
      <acc value="0.0269593195" flag="0"/>
      <vel value="0.0234138225" flag="0"/>
      <psa03 value="0.0934178703" flag="0"/>
      <psa10 value="0.0290694916" flag="0"/>
      <psa30 value="0.0034548684" flag="0"/>
    </comp>
    <comp name="--.HHZ">
      <acc value="0.0266965214" flag="0"/>
      <vel value="0.0235803381" flag="0"/>
      <psa03 value="0.0620028499" flag="0"/>
      <psa10 value="0.0359903355" flag="0"/>
      <psa30 value="0.0034960744" flag="0"/>
    </comp>
  </station>
  <station code="LMOS" name="LMOS" netid="KO" insttype="CMG-6T" lat="36.6021" lon="32.6962">
    <comp name="--.HHN">
      <acc value="0.0088516530" flag="0"/>
      <vel value="0.0126888952" flag="0"/>
      <psa03 value="0.0232028722" flag="0"/>
      <psa10 value="0.0167341324" flag="0"/>
      <psa30 value="0.0034581194" flag="0"/>
    </comp>
    <comp name="--.HHZ">
      <acc value="0.0057985981" flag="0"/>
      <vel value="0.0099872474" flag="0"/>
      <psa03 value="0.0167231536" flag="0"/>
      <psa10 value="0.0057227824" flag="0"/>
      <psa30 value="0.0040899184" flag="0"/>
    </comp>
    <comp name="--.HHE">
      <acc value="0.0080749693" flag="0"/>
      <vel value="0.0111981633" flag="0"/>
      <psa03 value="0.0242041496" flag="0"/>
      <psa10 value="0.0105978928" flag="0"/>
      <psa30 value="0.0038826789" flag="0"/>
    </comp>
  </station>
  <station code="SDAG" name="SDAG" netid="KO" insttype="CMG-6T" lat="38.4396" lon="30.9175">
    <comp name="--.HHE">
      <acc value="0.0390562299" flag="0"/>
      <vel value="0.0348224568" flag="0"/>
      <psa03 value="0.0878064981" flag="0"/>
      <psa10 value="0.0383441460" flag="0"/>
      <psa30 value="0.0080648879" flag="0"/>
    </comp>
    <comp name="--.HHZ">
      <acc value="0.0171819932" flag="0"/>
      <vel value="0.0185181337" flag="0"/>
      <psa03 value="0.0485581880" flag="0"/>
      <psa10 value="0.0228885791" flag="0"/>
      <psa30 value="0.0050788203" flag="0"/>
    </comp>
    <comp name="--.HHN">
      <acc value="0.0291385929" flag="0"/>
      <vel value="0.0237876258" flag="0"/>
      <psa03 value="0.0589502315" flag="0"/>
      <psa10 value="0.0336965676" flag="0"/>
      <psa30 value="0.0059940475" flag="0"/>
    </comp>
  </station>
  <station code="SERE" name="SERE" netid="KO" insttype="CMG-6T" lat="38.9463" lon="33.564">
    <comp name="--.HHN">
      <acc value="0.0721860317" flag="0"/>
      <vel value="0.0489470856" flag="0"/>
      <psa03 value="0.2135118602" flag="0"/>
      <psa10 value="0.0675431006" flag="0"/>
      <psa30 value="0.0071711771" flag="0"/>
    </comp>
    <comp name="--.HHE">
      <acc value="0.1188819646" flag="0"/>
      <vel value="0.0580641856" flag="0"/>
      <psa03 value="0.3395859949" flag="0"/>
      <psa10 value="0.0517818710" flag="0"/>
      <psa30 value="0.0064670141" flag="0"/>
    </comp>
    <comp name="--.HHZ">
      <acc value="0.0333057370" flag="0"/>
      <vel value="0.0209238568" flag="0"/>
      <psa03 value="0.0563878670" flag="0"/>
      <psa10 value="0.0267994266" flag="0"/>
      <psa30 value="0.0024644032" flag="0"/>
    </comp>
  </station>
  <station code="SULT" name="SULT" netid="KO" insttype="CMG-3T" lat="38.1988" lon="33.5157">
    <comp name="--.HHE">
      <acc value="0.0732110737" flag="0"/>
      <vel value="0.0505083360" flag="0"/>
      <psa03 value="0.1598206940" flag="0"/>
      <psa10 value="0.0904194901" flag="0"/>
      <psa30 value="0.0183061683" flag="0"/>
    </comp>
    <comp name="--.HHZ">
      <acc value="0.0497358627" flag="0"/>
      <vel value="0.0508401193" flag="0"/>
      <psa03 value="0.0830902121" flag="0"/>
      <psa10 value="0.1235915948" flag="0"/>
      <psa30 value="0.0168422498" flag="0"/>
    </comp>
    <comp name="--.HHN">
      <acc value="0.0598689559" flag="0"/>
      <vel value="0.0482256839" flag="0"/>
      <psa03 value="0.1234057798" flag="0"/>
      <psa10 value="0.1012443142" flag="0"/>
      <psa30 value="0.0138950854" flag="0"/>
    </comp>
  </station>
  <station code="SVRH" name="SVRH" netid="KO" insttype="CMG-3T" lat="39.447" lon="31.523">
    <comp name="--.HHE">
      <acc value="0.0148769995" flag="0"/>
      <vel value="0.0163008221" flag="0"/>
      <psa03 value="0.0383866916" flag="0"/>
      <psa10 value="0.0157011329" flag="0"/>
      <psa30 value="0.0032959495" flag="0"/>
    </comp>
    <comp name="--.HHZ">
      <acc value="0.0081394772" flag="0"/>
      <vel value="0.0080812800" flag="0"/>
      <psa03 value="0.0325850872" flag="0"/>
      <psa10 value="0.0054314328" flag="0"/>
      <psa30 value="0.0011076382" flag="0"/>
    </comp>
    <comp name="--.HHN">
      <acc value="0.0126507912" flag="0"/>
      <vel value="0.0104749052" flag="0"/>
      <psa03 value="0.0317531994" flag="0"/>
      <psa10 value="0.0169720218" flag="0"/>
      <psa30 value="0.0022757664" flag="0"/>
    </comp>
  </station>
  <station code="YESY" name="YESY" netid="KO" insttype="CMG-6T" lat="37.7825" lon="33.7431">
    <comp name="--.HHE">
      <acc value="0.0469939453" flag="0"/>
      <vel value="0.0388123772" flag="0"/>
      <psa03 value="0.1635217096" flag="0"/>
      <psa10 value="0.0532928506" flag="0"/>
      <psa30 value="0.0100093965" flag="0"/>
    </comp>
    <comp name="--.HHZ">
      <acc value="0.0270371154" flag="0"/>
      <vel value="0.0317102001" flag="0"/>
      <psa03 value="0.0754884871" flag="0"/>
      <psa10 value="0.0323841127" flag="0"/>
      <psa30 value="0.0074312008" flag="0"/>
    </comp>
    <comp name="--.HHN">
      <acc value="0.0383474320" flag="0"/>
      <vel value="0.0452332439" flag="0"/>
      <psa03 value="0.0949844110" flag="0"/>
      <psa10 value="0.0755138826" flag="0"/>
      <psa30 value="0.0061810301" flag="0"/>
    </comp>
  </station>
</stationlist>
