<?xml version="1.0" encoding="UTF-8" standalone="yes"?>
<!DOCTYPE earthquake SYSTEM "stationlist.dtd">
<stationlist created="" xmlns="ch.ethz.sed.shakemap.usgs.xml">
  <station code="CHBY" name="CHBY" netid="KO" insttype="CMG-6T" lat="38.5823" lon="32.8902">
    <comp name="--.HHE">
      <acc value="0.2554175538" flag="0"/>
      <vel value="0.0928514062" flag="0"/>
      <psa03 value="0.6501097268" flag="0"/>
      <psa10 value="0.0810410095" flag="0"/>
      <psa30 value="0.0074031518" flag="0"/>
    </comp>
    <comp name="--.HHN">
      <acc value="0.3321663981" flag="0"/>
      <vel value="0.1376240693" flag="0"/>
      <psa03 value="0.6948667700" flag="0"/>
      <psa10 value="0.0887739826" flag="0"/>
      <psa30 value="0.0103064489" flag="0"/>
    </comp>
    <comp name="--.HHZ">
      <acc value="0.2003390894" flag="0"/>
      <vel value="0.1230713982" flag="0"/>
      <psa03 value="0.7741855636" flag="0"/>
      <psa10 value="0.0684461559" flag="0"/>
      <psa30 value="0.0096787519" flag="0"/>
    </comp>
  </station>
  <station code="GULA" name="GULA" netid="KO" insttype="CMG-6T" lat="38.3444" lon="34.236">
    <comp name="--.HHE">
      <acc value="0.0213668595" flag="0"/>
      <vel value="0.0137403276" flag="0"/>
      <psa03 value="0.0407810128" flag="0"/>
      <psa10 value="0.0211536130" flag="0"/>
      <psa30 value="0.0027624771" flag="0"/>
    </comp>
    <comp name="--.HHZ">
      <acc value="0.0136273525" flag="0"/>
      <vel value="0.0117779071" flag="0"/>
      <psa03 value="0.0238138290" flag="0"/>
      <psa10 value="0.0147204632" flag="0"/>
      <psa30 value="0.0021340112" flag="0"/>
    </comp>
    <comp name="--.HHN">
      <acc value="0.0204266694" flag="0"/>
      <vel value="0.0205272395" flag="0"/>
      <psa03 value="0.0405895352" flag="0"/>
      <psa10 value="0.0304010934" flag="0"/>
      <psa30 value="0.0026106125" flag="0"/>
    </comp>
  </station>
  <station code="HDMB" name="HDMB" netid="KO" insttype="CMG-3T" lat="36.9638" lon="32.4857">
    <comp name="--.HHN">
      <acc value="0.0245185553" flag="0"/>
      <vel value="0.0156459514" flag="0"/>
      <psa03 value="0.0599644816" flag="0"/>
      <psa10 value="0.0122899304" flag="0"/>
      <psa30 value="0.0026702799" flag="0"/>
    </comp>
    <comp name="--.HHZ">
      <acc value="0.0133315515" flag="0"/>
      <vel value="0.0096018234" flag="0"/>
      <psa03 value="0.0515152434" flag="0"/>
      <psa10 value="0.0130797138" flag="0"/>
      <psa30 value="0.0026418902" flag="0"/>
    </comp>
    <comp name="--.HHE">
      <acc value="0.0256993939" flag="0"/>
      <vel value="0.0183032657" flag="0"/>
      <psa03 value="0.0533333825" flag="0"/>
      <psa10 value="0.0232414571" flag="0"/>
      <psa30 value="0.0023291571" flag="0"/>
    </comp>
  </station>
  <station code="KRMN" name="KRMN" netid="KO" insttype="CMG-5T" lat="37.174" lon="33.2636">
    <comp name="--.HNZ">
      <acc value="0.0127345264" flag="0"/>
      <vel value="0.0129341235" flag="0"/>
      <psa03 value="0.0330000353" flag="0"/>
      <psa10 value="0.0068447414" flag="0"/>
      <psa30 value="0.0029566013" flag="0"/>
    </comp>
    <comp name="--.HNE">
      <acc value="0.0273306631" flag="0"/>
      <vel value="0.0327717155" flag="0"/>
      <psa03 value="0.0725860779" flag="0"/>
      <psa10 value="0.0559269630" flag="0"/>
      <psa30 value="0.0080910634" flag="0"/>
    </comp>
    <comp name="--.HNN">
      <acc value="0.0205499705" flag="0"/>
      <vel value="0.0255756736" flag="0"/>
      <psa03 value="0.0418115121" flag="0"/>
      <psa10 value="0.0400036441" flag="0"/>
      <psa30 value="0.0065092148" flag="0"/>
    </comp>
  </station>
  <station code="SERE" name="SERE" netid="KO" insttype="CMG-6T" lat="38.9463" lon="33.564">
    <comp name="--.HHE">
      <acc value="0.1190441386" flag="0"/>
      <vel value="0.0578393296" flag="0"/>
      <psa03 value="0.3394602241" flag="0"/>
      <psa10 value="0.0518663250" flag="0"/>
      <psa30 value="0.0059098703" flag="0"/>
    </comp>
    <comp name="--.HHZ">
      <acc value="0.0333133696" flag="0"/>
      <vel value="0.0205796541" flag="0"/>
      <psa03 value="0.0563646096" flag="0"/>
      <psa10 value="0.0267151476" flag="0"/>
      <psa30 value="0.0020919592" flag="0"/>
    </comp>
    <comp name="--.HHN">
      <acc value="0.0722022839" flag="0"/>
      <vel value="0.0494818988" flag="0"/>
      <psa03 value="0.2134805819" flag="0"/>
      <psa10 value="0.0674285774" flag="0"/>
      <psa30 value="0.0064569206" flag="0"/>
    </comp>
  </station>
  <station code="SULT" name="SULT" netid="KO" insttype="CMG-3T" lat="38.1988" lon="33.5157">
    <comp name="--.HHZ">
      <acc value="0.0497832866" flag="0"/>
      <vel value="0.0464620787" flag="0"/>
      <psa03 value="0.0832152365" flag="0"/>
      <psa10 value="0.1237684954" flag="0"/>
      <psa30 value="0.0141913471" flag="0"/>
    </comp>
    <comp name="--.HHN">
      <acc value="0.0598940020" flag="0"/>
      <vel value="0.0420450909" flag="0"/>
      <psa03 value="0.1230751586" flag="0"/>
      <psa10 value="0.1003929254" flag="0"/>
      <psa30 value="0.0119348409" flag="0"/>
    </comp>
    <comp name="--.HHE">
      <acc value="0.0741379369" flag="0"/>
      <vel value="0.0478580008" flag="0"/>
      <psa03 value="0.1584177734" flag="0"/>
      <psa10 value="0.0903600196" flag="0"/>
      <psa30 value="0.0137526367" flag="0"/>
    </comp>
  </station>
  <station code="YESY" name="YESY" netid="KO" insttype="CMG-6T" lat="37.7825" lon="33.7431">
    <comp name="--.HHZ">
      <acc value="0.0266730822" flag="0"/>
      <vel value="0.0267097042" flag="0"/>
      <psa03 value="0.0752646413" flag="0"/>
      <psa10 value="0.0315847181" flag="0"/>
      <psa30 value="0.0058413080" flag="0"/>
    </comp>
    <comp name="--.HHN">
      <acc value="0.0381875416" flag="0"/>
      <vel value="0.0440859649" flag="0"/>
      <psa03 value="0.0951389488" flag="0"/>
      <psa10 value="0.0756347879" flag="0"/>
      <psa30 value="0.0051531386" flag="0"/>
    </comp>
    <comp name="--.HHE">
      <acc value="0.0471514422" flag="0"/>
      <vel value="0.0360161620" flag="0"/>
      <psa03 value="0.1633866505" flag="0"/>
      <psa10 value="0.0531866011" flag="0"/>
      <psa30 value="0.0089814386" flag="0"/>
    </comp>
  </station>
</stationlist>
