<?xml version="1.0" encoding="UTF-8" standalone="yes"?>
<!DOCTYPE earthquake SYSTEM "stationlist.dtd">
<stationlist created="" xmlns="ch.ethz.sed.shakemap.usgs.xml">
  <station code="PSAM" name="PSAM" netid="CL" insttype="CMG40-T" lat="38.3218" lon="22.1842">
    <comp name="00.HHE">
      <acc value="0.0753049970" flag="0"/>
      <vel value="0.0258477349" flag="0"/>
      <psa03 value="0.1229861199" flag="0"/>
      <psa10 value="0.0255086838" flag="0"/>
      <psa30 value="0.0027498328" flag="0"/>
    </comp>
    <comp name="00.HHN">
      <acc value="0.0683219883" flag="0"/>
      <vel value="0.0282080973" flag="0"/>
      <psa03 value="0.1615956738" flag="0"/>
      <psa10 value="0.0285874961" flag="0"/>
      <psa30 value="0.0022114719" flag="0"/>
    </comp>
    <comp name="00.HHZ">
      <acc value="0.0648046879" flag="0"/>
      <vel value="0.0143543955" flag="0"/>
      <psa03 value="0.0402760671" flag="0"/>
      <psa10 value="0.0104631375" flag="0"/>
      <psa30 value="0.0013299135" flag="0"/>
    </comp>
  </station>
  <station code="TRIZ" name="TRIZ" netid="CL" insttype="STS-2" lat="38.3654" lon="22.0727">
    <comp name="00.HH2">
      <acc value="0.0332045946" flag="0"/>
      <vel value="0.0273695899" flag="0"/>
      <psa03 value="0.1019658903" flag="0"/>
      <psa10 value="0.0210858148" flag="0"/>
      <psa30 value="0.0029403823" flag="0"/>
    </comp>
    <comp name="00.HH3">
      <acc value="0.0413058444" flag="0"/>
      <vel value="0.0197244952" flag="0"/>
      <psa03 value="0.1261413216" flag="0"/>
      <psa10 value="0.0185827902" flag="0"/>
      <psa30 value="0.0021746728" flag="0"/>
    </comp>
    <comp name="00.HHZ">
      <acc value="0.0435369895" flag="0"/>
      <vel value="0.0128607877" flag="0"/>
      <psa03 value="0.0544485806" flag="0"/>
      <psa10 value="0.0128616666" flag="0"/>
      <psa30 value="0.0014834062" flag="0"/>
    </comp>
  </station>
  <station code="ZIRI" name="ZIRI" netid="CL" insttype="TRILLIUM-40" lat="38.3051" lon="21.9476">
    <comp name="01.HHE">
      <acc value="0.1358503648" flag="0"/>
      <vel value="0.0723213939" flag="0"/>
      <psa03 value="0.3064183414" flag="0"/>
      <psa10 value="0.0297102492" flag="0"/>
      <psa30 value="0.0032692430" flag="0"/>
    </comp>
    <comp name="01.HHN">
      <acc value="0.1799127292" flag="0"/>
      <vel value="0.0478582087" flag="0"/>
      <psa03 value="0.3685065078" flag="0"/>
      <psa10 value="0.0236103573" flag="0"/>
      <psa30 value="0.0022687260" flag="0"/>
    </comp>
    <comp name="01.HHZ">
      <acc value="0.1224451483" flag="0"/>
      <vel value="0.0349411221" flag="0"/>
      <psa03 value="0.1892088509" flag="0"/>
      <psa10 value="0.0122058128" flag="0"/>
      <psa30 value="0.0016051835" flag="0"/>
    </comp>
  </station>
  <station code="AMPE" name="AMPE" netid="HA" insttype="1s-100Hz," lat="38.3015" lon="23.2688">
    <comp name="--.HHN">
      <acc value="0.0251987126" flag="0"/>
      <vel value="0.0147634784" flag="0"/>
      <psa03 value="0.0449087150" flag="0"/>
      <psa10 value="0.0096861966" flag="0"/>
      <psa30 value="0.0011614516" flag="0"/>
    </comp>
    <comp name="--.HHE">
      <acc value="0.0171228093" flag="0"/>
      <vel value="0.0125603360" flag="0"/>
      <psa03 value="0.0337912187" flag="0"/>
      <psa10 value="0.0119967907" flag="0"/>
      <psa30 value="0.0019146178" flag="0"/>
    </comp>
    <comp name="--.HHZ">
      <acc value="0.0154201843" flag="0"/>
      <vel value="0.0053053216" flag="0"/>
      <psa03 value="0.0264605816" flag="0"/>
      <psa10 value="0.0053210063" flag="0"/>
      <psa30 value="0.0007263642" flag="0"/>
    </comp>
  </station>
  <station code="ATAL" name="ATAL" netid="HA" insttype="120s," lat="38.6926" lon="23.0213">
    <comp name="--.HHN">
      <acc value="0.0122323829" flag="0"/>
      <vel value="0.0087527033" flag="0"/>
      <psa03 value="0.0299703454" flag="0"/>
      <psa10 value="0.0066876184" flag="0"/>
      <psa30 value="0.0008473723" flag="0"/>
    </comp>
    <comp name="--.HHZ">
      <acc value="0.0069380484" flag="0"/>
      <vel value="0.0034424976" flag="0"/>
      <psa03 value="0.0140342274" flag="0"/>
      <psa10 value="0.0043996051" flag="0"/>
      <psa30 value="0.0004167342" flag="0"/>
    </comp>
    <comp name="--.HHE">
      <acc value="0.0119982945" flag="0"/>
      <vel value="0.0079529957" flag="0"/>
      <psa03 value="0.0302181273" flag="0"/>
      <psa10 value="0.0062904707" flag="0"/>
      <psa30 value="0.0005087481" flag="0"/>
    </comp>
  </station>
  <station code="AXAR" name="AXAR" netid="HA" insttype="Horizon,120s,1200" lat="38.7664" lon="22.659">
    <comp name="--.HHE">
      <acc value="0.0390691414" flag="0"/>
      <vel value="0.0237160037" flag="0"/>
      <psa03 value="0.1586126741" flag="0"/>
      <psa10 value="0.0226032733" flag="0"/>
      <psa30 value="0.0021454508" flag="0"/>
    </comp>
    <comp name="--.HHN">
      <acc value="0.0507986679" flag="0"/>
      <vel value="0.0256275350" flag="0"/>
      <psa03 value="0.1156388181" flag="0"/>
      <psa10 value="0.0206048545" flag="0"/>
      <psa30 value="0.0017233061" flag="0"/>
    </comp>
    <comp name="--.HHZ">
      <acc value="0.0358121153" flag="0"/>
      <vel value="0.0184860332" flag="0"/>
      <psa03 value="0.1235898302" flag="0"/>
      <psa10 value="0.0155678706" flag="0"/>
      <psa30 value="0.0011900483" flag="0"/>
    </comp>
  </station>
  <station code="EPID" name="EPID" netid="HA" insttype="30" lat="37.6144" lon="23.1189">
    <comp name="--.HHZ">
      <acc value="0.0332438796" flag="0"/>
      <vel value="0.0087577731" flag="0"/>
      <psa03 value="0.0411363594" flag="0"/>
      <psa10 value="0.0047139170" flag="0"/>
      <psa30 value="0.0007326778" flag="0"/>
    </comp>
    <comp name="--.HHN">
      <acc value="0.0469080784" flag="0"/>
      <vel value="0.0128616120" flag="0"/>
      <psa03 value="0.0724679043" flag="0"/>
      <psa10 value="0.0054792114" flag="0"/>
      <psa30 value="0.0006189990" flag="0"/>
    </comp>
    <comp name="--.HHE">
      <acc value="0.0612606292" flag="0"/>
      <vel value="0.0167602985" flag="0"/>
      <psa03 value="0.0642714254" flag="0"/>
      <psa10 value="0.0044897613" flag="0"/>
      <psa30 value="0.0006509739" flag="0"/>
    </comp>
  </station>
  <station code="KALE" name="KALE" netid="HA" insttype="40," lat="38.3911" lon="22.1398">
    <comp name="--.HHE">
      <acc value="0.0386974274" flag="0"/>
      <vel value="0.0168608851" flag="0"/>
      <psa03 value="0.0637104857" flag="0"/>
      <psa10 value="0.0153552427" flag="0"/>
      <psa30 value="0.0020489583" flag="0"/>
    </comp>
    <comp name="--.HHN">
      <acc value="0.0602406653" flag="0"/>
      <vel value="0.0200924661" flag="0"/>
      <psa03 value="0.0824843709" flag="0"/>
      <psa10 value="0.0100109324" flag="0"/>
      <psa30 value="0.0013783856" flag="0"/>
    </comp>
    <comp name="--.HHZ">
      <acc value="0.0391881447" flag="0"/>
      <vel value="0.0093149472" flag="0"/>
      <psa03 value="0.0472660674" flag="0"/>
      <psa10 value="0.0068556226" flag="0"/>
      <psa30 value="0.0009371707" flag="0"/>
    </comp>
  </station>
  <station code="KIAS" name="KIAS" netid="HA" insttype="DC" lat="37.9875" lon="22.7543">
    <comp name="--.HNE">
      <acc value="0.2750985839" flag="0"/>
      <vel value="0.0571443344" flag="0"/>
      <psa03 value="0.2039033855" flag="0"/>
      <psa10 value="0.0884200600" flag="0"/>
      <psa30 value="0.0127648114" flag="0"/>
    </comp>
    <comp name="--.HNN">
      <acc value="0.4367496172" flag="0"/>
      <vel value="0.0978930963" flag="0"/>
      <psa03 value="0.1767442837" flag="0"/>
      <psa10 value="0.0519052570" flag="0"/>
      <psa30 value="0.0072417136" flag="0"/>
    </comp>
    <comp name="--.HNZ">
      <acc value="0.2497426646" flag="0"/>
      <vel value="0.0415911334" flag="0"/>
      <psa03 value="0.1446206676" flag="0"/>
      <psa10 value="0.0519003221" flag="0"/>
      <psa30 value="0.0062397383" flag="0"/>
    </comp>
  </station>
  <station code="LAKA" name="LAKA" netid="HA" insttype="120s," lat="38.2401" lon="21.9785">
    <comp name="--.HHE">
      <acc value="0.0516347534" flag="0"/>
      <vel value="0.0123217585" flag="0"/>
      <psa03 value="0.0885846702" flag="0"/>
      <psa10 value="0.0096931528" flag="0"/>
      <psa30 value="0.0018881987" flag="0"/>
    </comp>
    <comp name="--.HHZ">
      <acc value="0.0500241454" flag="0"/>
      <vel value="0.0149117888" flag="0"/>
      <psa03 value="0.0701565340" flag="0"/>
      <psa10 value="0.0121692793" flag="0"/>
      <psa30 value="0.0014575697" flag="0"/>
    </comp>
    <comp name="--.HHN">
      <acc value="0.0839024609" flag="0"/>
      <vel value="0.0355267453" flag="0"/>
      <psa03 value="0.1121101742" flag="0"/>
      <psa10 value="0.0244219362" flag="0"/>
      <psa30 value="0.0032786059" flag="0"/>
    </comp>
  </station>
  <station code="LOUT" name="LOUT" netid="HA" insttype="30" lat="37.9879" lon="22.9743">
    <comp name="--.HHN">
      <acc value="0.0569005629" flag="0"/>
      <vel value="0.0157719004" flag="0"/>
      <psa03 value="0.0641654416" flag="0"/>
      <psa10 value="0.0181788421" flag="0"/>
      <psa30 value="0.0016018766" flag="0"/>
    </comp>
    <comp name="--.HHZ">
      <acc value="0.0393024116" flag="0"/>
      <vel value="0.0090588894" flag="0"/>
      <psa03 value="0.0410446286" flag="0"/>
      <psa10 value="0.0073872640" flag="0"/>
      <psa30 value="0.0009154141" flag="0"/>
    </comp>
    <comp name="--.HHE">
      <acc value="0.0678496046" flag="0"/>
      <vel value="0.0169190453" flag="0"/>
      <psa03 value="0.0804556043" flag="0"/>
      <psa10 value="0.0168058150" flag="0"/>
      <psa30 value="0.0011931746" flag="0"/>
    </comp>
  </station>
  <station code="THAL" name="THAL" netid="HA" insttype="30" lat="38.0357" lon="22.6634">
    <comp name="--.HHE">
      <acc value="1.2277637902" flag="0"/>
      <vel value="0.2256033393" flag="0"/>
      <psa03 value="0.5160691887" flag="0"/>
      <psa10 value="0.1354958821" flag="0"/>
      <psa30 value="0.0063743477" flag="0"/>
    </comp>
    <comp name="--.HHN">
      <acc value="0.9206299712" flag="0"/>
      <vel value="0.1674632124" flag="0"/>
      <psa03 value="0.5677014861" flag="0"/>
      <psa10 value="0.0780481442" flag="0"/>
      <psa30 value="0.0070382634" flag="0"/>
    </comp>
    <comp name="--.HHZ">
      <acc value="0.6130599454" flag="0"/>
      <vel value="0.0938304133" flag="0"/>
      <psa03 value="0.3562329895" flag="0"/>
      <psa10 value="0.0417351143" flag="0"/>
      <psa30 value="0.0034479890" flag="0"/>
    </comp>
  </station>
  <station code="THIV" name="THIV" netid="HA" insttype="25" lat="38.299" lon="23.332">
    <comp name="--.HHE">
      <acc value="0.0185264005" flag="0"/>
      <vel value="0.0095541751" flag="0"/>
      <psa03 value="0.0430923433" flag="0"/>
      <psa10 value="0.0090469297" flag="0"/>
      <psa30 value="0.0009896230" flag="0"/>
    </comp>
    <comp name="--.HHN">
      <acc value="0.0168521431" flag="0"/>
      <vel value="0.0095348237" flag="0"/>
      <psa03 value="0.0357815815" flag="0"/>
      <psa10 value="0.0086435478" flag="0"/>
      <psa30 value="0.0008028885" flag="0"/>
    </comp>
    <comp name="--.HHZ">
      <acc value="0.0129475199" flag="0"/>
      <vel value="0.0052217835" flag="0"/>
      <psa03 value="0.0286266608" flag="0"/>
      <psa10 value="0.0038951471" flag="0"/>
      <psa30 value="0.0006192296" flag="0"/>
    </comp>
  </station>
  <station code="VILL" name="VILL" netid="HA" insttype="Horizon,120s,1200" lat="38.1642" lon="23.3122">
    <comp name="--.HHZ">
      <acc value="0.0088836764" flag="0"/>
      <vel value="0.0043321243" flag="0"/>
      <psa03 value="0.0209414631" flag="0"/>
      <psa10 value="0.0035724886" flag="0"/>
      <psa30 value="0.0004413033" flag="0"/>
    </comp>
    <comp name="--.HHE">
      <acc value="0.0136195235" flag="0"/>
      <vel value="0.0074423389" flag="0"/>
      <psa03 value="0.0384506103" flag="0"/>
      <psa10 value="0.0090162811" flag="0"/>
      <psa30 value="0.0006684461" flag="0"/>
    </comp>
    <comp name="--.HHN">
      <acc value="0.0164443339" flag="0"/>
      <vel value="0.0067749268" flag="0"/>
      <psa03 value="0.0584022867" flag="0"/>
      <psa10 value="0.0059805350" flag="0"/>
      <psa30 value="0.0005700487" flag="0"/>
    </comp>
  </station>
  <station code="MSL1" name="MSL1" netid="HI" insttype="CMG-5TD,ACCELEROMETER,GURALP" lat="38.3727" lon="21.4243">
    <comp name="--.HNE">
      <acc value="0.0232286416" flag="0"/>
      <vel value="0.0192144449" flag="0"/>
      <psa03 value="0.0877393181" flag="0"/>
      <psa10 value="0.0177349377" flag="0"/>
      <psa30 value="0.0029531342" flag="0"/>
    </comp>
    <comp name="--.HNN">
      <acc value="0.0206776641" flag="0"/>
      <vel value="0.0172087673" flag="0"/>
      <psa03 value="0.0648130931" flag="0"/>
      <psa10 value="0.0205369512" flag="0"/>
      <psa30 value="0.0019141717" flag="0"/>
    </comp>
    <comp name="--.HNZ">
      <acc value="0.0113967999" flag="0"/>
      <vel value="0.0064501563" flag="0"/>
      <psa03 value="0.0232095015" flag="0"/>
      <psa10 value="0.0118024715" flag="0"/>
      <psa30 value="0.0007091117" flag="0"/>
    </comp>
  </station>
  <station code="ATH" name="ATH" netid="HL" insttype="DR24" lat="37.9738" lon="23.7177">
    <comp name="--.HHE">
      <acc value="0.0142224423" flag="0"/>
      <vel value="0.0079791343" flag="0"/>
      <psa03 value="0.0429765138" flag="0"/>
      <psa10 value="0.0072169949" flag="0"/>
      <psa30 value="0.0006127031" flag="0"/>
    </comp>
    <comp name="--.HHZ">
      <acc value="0.0072442577" flag="0"/>
      <vel value="0.0042173679" flag="0"/>
      <psa03 value="0.0145191541" flag="0"/>
      <psa10 value="0.0038325944" flag="0"/>
      <psa30 value="0.0006640602" flag="0"/>
    </comp>
    <comp name="--.HHN">
      <acc value="0.0113378799" flag="0"/>
      <vel value="0.0058646166" flag="0"/>
      <psa03 value="0.0198740904" flag="0"/>
      <psa10 value="0.0056100028" flag="0"/>
      <psa30 value="0.0006212746" flag="0"/>
    </comp>
  </station>
  <station code="ELIN" name="ELIN" netid="HL" insttype="LE3D20_SMART24" lat="38.0995" lon="22.4874">
    <comp name="--.HHE">
      <acc value="1.2985495561" flag="0"/>
      <vel value="0.3942051723" flag="0"/>
      <psa03 value="2.7932852191" flag="0"/>
      <psa10 value="0.2395942172" flag="0"/>
      <psa30 value="0.0156272606" flag="0"/>
    </comp>
    <comp name="--.HHN">
      <acc value="1.3221265122" flag="0"/>
      <vel value="0.4027226175" flag="0"/>
      <psa03 value="2.6127792521" flag="0"/>
      <psa10 value="0.2395359313" flag="0"/>
      <psa30 value="0.0364358328" flag="0"/>
    </comp>
    <comp name="--.HHZ">
      <acc value="1.0901118565" flag="0"/>
      <vel value="0.2857139286" flag="0"/>
      <psa03 value="1.5226631831" flag="0"/>
      <psa10 value="0.1159961883" flag="0"/>
      <psa30 value="0.0114506891" flag="0"/>
    </comp>
  </station>
  <station code="EVR" name="EVR" netid="HL" insttype="DR24" lat="38.9166" lon="21.8105">
    <comp name="--.HHN">
      <acc value="0.0095092176" flag="0"/>
      <vel value="0.0078256300" flag="0"/>
      <psa03 value="0.0188570065" flag="0"/>
      <psa10 value="0.0073929516" flag="0"/>
      <psa30 value="0.0007825981" flag="0"/>
    </comp>
    <comp name="--.HHZ">
      <acc value="0.0066797669" flag="0"/>
      <vel value="0.0058119475" flag="0"/>
      <psa03 value="0.0233928265" flag="0"/>
      <psa10 value="0.0055351428" flag="0"/>
      <psa30 value="0.0007557279" flag="0"/>
    </comp>
    <comp name="--.HHE">
      <acc value="0.0105387127" flag="0"/>
      <vel value="0.0095078039" flag="0"/>
      <psa03 value="0.0247992295" flag="0"/>
      <psa10 value="0.0085714057" flag="0"/>
      <psa30 value="0.0013700285" flag="0"/>
    </comp>
  </station>
  <station code="ITM" name="ITM" netid="HL" insttype="DR24" lat="37.1787" lon="21.9252">
    <comp name="--.HHN">
      <acc value="0.0219945944" flag="0"/>
      <vel value="0.0095693699" flag="0"/>
      <psa03 value="0.0308795800" flag="0"/>
      <psa10 value="0.0125162465" flag="0"/>
      <psa30 value="0.0009351502" flag="0"/>
    </comp>
    <comp name="--.HHE">
      <acc value="0.0176693792" flag="0"/>
      <vel value="0.0094084416" flag="0"/>
      <psa03 value="0.0544008380" flag="0"/>
      <psa10 value="0.0142687071" flag="0"/>
      <psa30 value="0.0010780279" flag="0"/>
    </comp>
    <comp name="--.HHZ">
      <acc value="0.0121193497" flag="0"/>
      <vel value="0.0091727010" flag="0"/>
      <psa03 value="0.0298195211" flag="0"/>
      <psa10 value="0.0091385288" flag="0"/>
      <psa30 value="0.0016046579" flag="0"/>
    </comp>
  </station>
  <station code="KLV" name="KLV" netid="HL" insttype="120" lat="38.0435" lon="22.1504">
    <comp name="--.HHE">
      <acc value="1.8619822879" flag="0"/>
      <vel value="0.3046880455" flag="0"/>
      <psa03 value="0.7847361448" flag="0"/>
      <psa10 value="0.1015837761" flag="0"/>
      <psa30 value="0.0115390366" flag="0"/>
    </comp>
    <comp name="--.HHZ">
      <acc value="1.6193183420" flag="0"/>
      <vel value="0.2512175395" flag="0"/>
      <psa03 value="0.6832338661" flag="0"/>
      <psa10 value="0.1040133315" flag="0"/>
      <psa30 value="0.0093847810" flag="0"/>
    </comp>
    <comp name="--.HHN">
      <acc value="1.4108102966" flag="0"/>
      <vel value="0.2849613151" flag="0"/>
      <psa03 value="1.3493289219" flag="0"/>
      <psa10 value="0.1485695001" flag="0"/>
      <psa30 value="0.0105630365" flag="0"/>
    </comp>
  </station>
  <station code="LKR" name="LKR" netid="HL" insttype="65535" lat="38.6496" lon="22.9988">
    <comp name="--.HHZ">
      <acc value="0.0233975855" flag="0"/>
      <vel value="0.0098975118" flag="0"/>
      <psa03 value="0.0386983303" flag="0"/>
      <psa10 value="0.0045781879" flag="0"/>
      <psa30 value="0.0005446342" flag="0"/>
    </comp>
    <comp name="--.HHN">
      <acc value="0.0477622465" flag="0"/>
      <vel value="0.0149004262" flag="0"/>
      <psa03 value="0.0751972402" flag="0"/>
      <psa10 value="0.0119899597" flag="0"/>
      <psa30 value="0.0013046285" flag="0"/>
    </comp>
    <comp name="--.HHE">
      <acc value="0.0452507512" flag="0"/>
      <vel value="0.0143245575" flag="0"/>
      <psa03 value="0.1025028278" flag="0"/>
      <psa10 value="0.0065104385" flag="0"/>
      <psa30 value="0.0007802299" flag="0"/>
    </comp>
  </station>
  <station code="MET1" name="MET1" netid="HL" insttype="65535" lat="37.5785" lon="23.3859">
    <comp name="--.HHE">
      <acc value="0.0168075273" flag="0"/>
      <vel value="0.0084827087" flag="0"/>
      <psa03 value="0.0320342188" flag="0"/>
      <psa10 value="0.0099551634" flag="0"/>
      <psa30 value="0.0007486061" flag="0"/>
    </comp>
    <comp name="--.HHN">
      <acc value="0.0000340775" flag="0"/>
      <vel value="0.0000037842" flag="0"/>
      <psa03 value="0.0000139729" flag="0"/>
      <psa10 value="0.0000023259" flag="0"/>
      <psa30 value="0.0000003353" flag="0"/>
    </comp>
    <comp name="--.HHZ">
      <acc value="0.0151078190" flag="0"/>
      <vel value="0.0064710726" flag="0"/>
      <psa03 value="0.0251355196" flag="0"/>
      <psa10 value="0.0057715001" flag="0"/>
      <psa30 value="0.0006222847" flag="0"/>
    </comp>
  </station>
  <station code="PATC" name="PATC" netid="HL" insttype="CMG-5" lat="38.2693" lon="21.76">
    <comp name="00.HNN">
      <acc value="0.1040318797" flag="0"/>
      <vel value="0.0437911037" flag="0"/>
      <psa03 value="0.1975085808" flag="0"/>
      <psa10 value="0.0397019604" flag="0"/>
      <psa30 value="0.0088120972" flag="0"/>
    </comp>
    <comp name="00.HNZ">
      <acc value="0.0972352572" flag="0"/>
      <vel value="0.0308925254" flag="0"/>
