<?xml version="1.0" encoding="UTF-8" standalone="yes"?>
<!DOCTYPE earthquake SYSTEM "stationlist.dtd">
<stationlist created="" xmlns="ch.ethz.sed.shakemap.usgs.xml">
  <station code="PSAM" name="PSAM" netid="CL" insttype="CMG40-T" lat="38.3218" lon="22.1842">
    <comp name="00.HHN">
      <acc value="0.0683219871" flag="0"/>
      <vel value="0.0282081024" flag="0"/>
      <psa03 value="0.1615956738" flag="0"/>
      <psa10 value="0.0285874991" flag="0"/>
      <psa30 value="0.0022129028" flag="0"/>
    </comp>
    <comp name="00.HHZ">
      <acc value="0.0648046888" flag="0"/>
      <vel value="0.0143543911" flag="0"/>
      <psa03 value="0.0402760670" flag="0"/>
      <psa10 value="0.0104631401" flag="0"/>
      <psa30 value="0.0013295412" flag="0"/>
    </comp>
    <comp name="00.HHE">
      <acc value="0.0753049970" flag="0"/>
      <vel value="0.0258477295" flag="0"/>
      <psa03 value="0.1229861199" flag="0"/>
      <psa10 value="0.0255086848" flag="0"/>
      <psa30 value="0.0027496701" flag="0"/>
    </comp>
  </station>
  <station code="TRIZ" name="TRIZ" netid="CL" insttype="STS-2" lat="38.3654" lon="22.0727">
    <comp name="00.HH2">
      <acc value="0.0332045950" flag="0"/>
      <vel value="0.0273695897" flag="0"/>
      <psa03 value="0.1019658903" flag="0"/>
      <psa10 value="0.0210858141" flag="0"/>
      <psa30 value="0.0029399950" flag="0"/>
    </comp>
    <comp name="00.HH3">
      <acc value="0.0413058444" flag="0"/>
      <vel value="0.0197244954" flag="0"/>
      <psa03 value="0.1261413216" flag="0"/>
      <psa10 value="0.0185827908" flag="0"/>
      <psa30 value="0.0021746673" flag="0"/>
    </comp>
    <comp name="00.HHZ">
      <acc value="0.0435369894" flag="0"/>
      <vel value="0.0128607879" flag="0"/>
      <psa03 value="0.0544485806" flag="0"/>
      <psa10 value="0.0128616666" flag="0"/>
      <psa30 value="0.0014834603" flag="0"/>
    </comp>
  </station>
  <station code="ZIRI" name="ZIRI" netid="CL" insttype="TRILLIUM-40" lat="38.3051" lon="21.9476">
    <comp name="01.HHZ">
      <acc value="0.1224451485" flag="0"/>
      <vel value="0.0349411381" flag="0"/>
      <psa03 value="0.1892088509" flag="0"/>
      <psa10 value="0.0122058142" flag="0"/>
      <psa30 value="0.0016051442" flag="0"/>
    </comp>
    <comp name="01.HHN">
      <acc value="0.1799127297" flag="0"/>
      <vel value="0.0478582183" flag="0"/>
      <psa03 value="0.3685065079" flag="0"/>
      <psa10 value="0.0236103560" flag="0"/>
      <psa30 value="0.0022684378" flag="0"/>
    </comp>
    <comp name="01.HHE">
      <acc value="0.1358503652" flag="0"/>
      <vel value="0.0723213932" flag="0"/>
      <psa03 value="0.3064183414" flag="0"/>
      <psa10 value="0.0297102487" flag="0"/>
      <psa30 value="0.0032690409" flag="0"/>
    </comp>
  </station>
  <station code="AMPE" name="AMPE" netid="HA" insttype="1s-100Hz," lat="38.3015" lon="23.2688">
    <comp name="--.HHN">
      <acc value="0.0251987133" flag="0"/>
      <vel value="0.0147633947" flag="0"/>
      <psa03 value="0.0449087144" flag="0"/>
      <psa10 value="0.0096861960" flag="0"/>
      <psa30 value="0.0011613381" flag="0"/>
    </comp>
    <comp name="--.HHE">
      <acc value="0.0171228124" flag="0"/>
      <vel value="0.0125592063" flag="0"/>
      <psa03 value="0.0337912155" flag="0"/>
      <psa10 value="0.0119967876" flag="0"/>
      <psa30 value="0.0019141707" flag="0"/>
    </comp>
    <comp name="--.HHZ">
      <acc value="0.0154201795" flag="0"/>
      <vel value="0.0053070694" flag="0"/>
      <psa03 value="0.0264605864" flag="0"/>
      <psa10 value="0.0053210015" flag="0"/>
      <psa30 value="0.0007263133" flag="0"/>
    </comp>
  </station>
  <station code="ANTK" name="ANTK" netid="HA" insttype="25" lat="38.3605" lon="22.6385">
    <comp name="--.HHZ">
      <acc value="0.0180598092" flag="0"/>
      <vel value="0.0042148379" flag="0"/>
      <psa03 value="0.0143379889" flag="0"/>
      <psa10 value="0.0037496322" flag="0"/>
      <psa30 value="0.0004708384" flag="0"/>
    </comp>
    <comp name="--.HHN">
      <acc value="0.0025028516" flag="0"/>
      <vel value="0.0004633659" flag="0"/>
      <psa03 value="0.0014618486" flag="0"/>
      <psa10 value="0.0000968832" flag="0"/>
      <psa30 value="0.0000093883" flag="0"/>
    </comp>
    <comp name="--.HHE">
      <acc value="0.0239491085" flag="0"/>
      <vel value="0.0078996499" flag="0"/>
      <psa03 value="0.0425532574" flag="0"/>
      <psa10 value="0.0039673967" flag="0"/>
      <psa30 value="0.0004793665" flag="0"/>
    </comp>
  </station>
  <station code="ATAL" name="ATAL" netid="HA" insttype="120s," lat="38.6926" lon="23.0213">
    <comp name="--.HHE">
      <acc value="0.0119982944" flag="0"/>
      <vel value="0.0079529950" flag="0"/>
      <psa03 value="0.0302181273" flag="0"/>
      <psa10 value="0.0062904707" flag="0"/>
      <psa30 value="0.0005087023" flag="0"/>
    </comp>
    <comp name="--.HHN">
      <acc value="0.0122323828" flag="0"/>
      <vel value="0.0087527030" flag="0"/>
      <psa03 value="0.0299703454" flag="0"/>
      <psa10 value="0.0066876185" flag="0"/>
      <psa30 value="0.0008473550" flag="0"/>
    </comp>
    <comp name="--.HHZ">
      <acc value="0.0069380482" flag="0"/>
      <vel value="0.0034424988" flag="0"/>
      <psa03 value="0.0140342274" flag="0"/>
      <psa10 value="0.0043996051" flag="0"/>
      <psa30 value="0.0004166545" flag="0"/>
    </comp>
  </station>
  <station code="AXAR" name="AXAR" netid="HA" insttype="Horizon,120s,1200" lat="38.7664" lon="22.659">
    <comp name="--.HHE">
      <acc value="0.0390691419" flag="0"/>
      <vel value="0.0237160049" flag="0"/>
      <psa03 value="0.1586126741" flag="0"/>
      <psa10 value="0.0226032733" flag="0"/>
      <psa30 value="0.0021454542" flag="0"/>
    </comp>
    <comp name="--.HHZ">
      <acc value="0.0358121151" flag="0"/>
      <vel value="0.0184860307" flag="0"/>
      <psa03 value="0.1235898302" flag="0"/>
      <psa10 value="0.0155678706" flag="0"/>
      <psa30 value="0.0011902394" flag="0"/>
    </comp>
    <comp name="--.HHN">
      <acc value="0.0507986680" flag="0"/>
      <vel value="0.0256275340" flag="0"/>
      <psa03 value="0.1156388181" flag="0"/>
      <psa10 value="0.0206048544" flag="0"/>
      <psa30 value="0.0017231968" flag="0"/>
    </comp>
  </station>
  <station code="EPID" name="EPID" netid="HA" insttype="30" lat="37.6144" lon="23.1189">
    <comp name="--.HHE">
      <acc value="0.0612606282" flag="0"/>
      <vel value="0.0167602856" flag="0"/>
      <psa03 value="0.0642714254" flag="0"/>
      <psa10 value="0.0044897610" flag="0"/>
      <psa30 value="0.0006509595" flag="0"/>
    </comp>
    <comp name="--.HHN">
      <acc value="0.0469080779" flag="0"/>
      <vel value="0.0128616137" flag="0"/>
      <psa03 value="0.0724679043" flag="0"/>
      <psa10 value="0.0054792115" flag="0"/>
      <psa30 value="0.0006189546" flag="0"/>
    </comp>
    <comp name="--.HHZ">
      <acc value="0.0332438785" flag="0"/>
      <vel value="0.0087577746" flag="0"/>
      <psa03 value="0.0411363594" flag="0"/>
      <psa10 value="0.0047139170" flag="0"/>
      <psa30 value="0.0007326173" flag="0"/>
    </comp>
  </station>
  <station code="KALE" name="KALE" netid="HA" insttype="40," lat="38.3911" lon="22.1398">
    <comp name="--.HHE">
      <acc value="0.0386974275" flag="0"/>
      <vel value="0.0168608848" flag="0"/>
      <psa03 value="0.0637104857" flag="0"/>
      <psa10 value="0.0153552430" flag="0"/>
      <psa30 value="0.0020491740" flag="0"/>
    </comp>
    <comp name="--.HHZ">
      <acc value="0.0391881447" flag="0"/>
      <vel value="0.0093149573" flag="0"/>
      <psa03 value="0.0472660674" flag="0"/>
      <psa10 value="0.0068556218" flag="0"/>
      <psa30 value="0.0009368841" flag="0"/>
    </comp>
    <comp name="--.HHN">
      <acc value="0.0602406651" flag="0"/>
      <vel value="0.0200924604" flag="0"/>
      <psa03 value="0.0824843709" flag="0"/>
      <psa10 value="0.0100109324" flag="0"/>
      <psa30 value="0.0013783457" flag="0"/>
    </comp>
  </station>
  <station code="KIAS" name="KIAS" netid="HA" insttype="DC" lat="37.9875" lon="22.7543">
    <comp name="--.HNN">
      <acc value="0.4367496121" flag="0"/>
      <vel value="0.0978931018" flag="0"/>
      <psa03 value="0.1767442837" flag="0"/>
      <psa10 value="0.0519052566" flag="0"/>
      <psa30 value="0.0072460732" flag="0"/>
    </comp>
    <comp name="--.HNE">
      <acc value="0.2750985718" flag="0"/>
      <vel value="0.0571443925" flag="0"/>
      <psa03 value="0.2039033855" flag="0"/>
      <psa10 value="0.0884200780" flag="0"/>
      <psa30 value="0.0127612844" flag="0"/>
    </comp>
    <comp name="--.HNZ">
      <acc value="0.2497426648" flag="0"/>
      <vel value="0.0415911336" flag="0"/>
      <psa03 value="0.1446206676" flag="0"/>
      <psa10 value="0.0519003223" flag="0"/>
      <psa30 value="0.0062398036" flag="0"/>
    </comp>
  </station>
  <station code="LAKA" name="LAKA" netid="HA" insttype="120s," lat="38.2401" lon="21.9785">
    <comp name="--.HHE">
      <acc value="0.0516347536" flag="0"/>
      <vel value="0.0123217559" flag="0"/>
      <psa03 value="0.0885846702" flag="0"/>
      <psa10 value="0.0096931528" flag="0"/>
      <psa30 value="0.0018885051" flag="0"/>
    </comp>
    <comp name="--.HHZ">
      <acc value="0.0500241451" flag="0"/>
      <vel value="0.0149117909" flag="0"/>
      <psa03 value="0.0701565340" flag="0"/>
      <psa10 value="0.0121692798" flag="0"/>
      <psa30 value="0.0014578160" flag="0"/>
    </comp>
    <comp name="--.HHN">
      <acc value="0.0839024609" flag="0"/>
      <vel value="0.0355267449" flag="0"/>
      <psa03 value="0.1121101742" flag="0"/>
      <psa10 value="0.0244219355" flag="0"/>
      <psa30 value="0.0032791915" flag="0"/>
    </comp>
  </station>
  <station code="LOUT" name="LOUT" netid="HA" insttype="30" lat="37.9879" lon="22.9743">
    <comp name="--.HHE">
      <acc value="0.0678496030" flag="0"/>
      <vel value="0.0169190449" flag="0"/>
      <psa03 value="0.0804556043" flag="0"/>
      <psa10 value="0.0168058152" flag="0"/>
      <psa30 value="0.0011931637" flag="0"/>
    </comp>
    <comp name="--.HHN">
      <acc value="0.0569005635" flag="0"/>
      <vel value="0.0157718950" flag="0"/>
      <psa03 value="0.0641654416" flag="0"/>
      <psa10 value="0.0181788423" flag="0"/>
      <psa30 value="0.0016019281" flag="0"/>
    </comp>
    <comp name="--.HHZ">
      <acc value="0.0393024116" flag="0"/>
      <vel value="0.0090588939" flag="0"/>
      <psa03 value="0.0410446286" flag="0"/>
      <psa10 value="0.0073872640" flag="0"/>
      <psa30 value="0.0009154279" flag="0"/>
    </comp>
  </station>
  <station code="THAL" name="THAL" netid="HA" insttype="30" lat="38.0357" lon="22.6634">
    <comp name="--.HHN">
      <acc value="0.9206299719" flag="0"/>
      <vel value="0.1674631918" flag="0"/>
      <psa03 value="0.5677014860" flag="0"/>
      <psa10 value="0.0780481422" flag="0"/>
      <psa30 value="0.0070386947" flag="0"/>
    </comp>
    <comp name="--.HHE">
      <acc value="1.2277637901" flag="0"/>
      <vel value="0.2256033058" flag="0"/>
      <psa03 value="0.5160691888" flag="0"/>
      <psa10 value="0.1354958822" flag="0"/>
      <psa30 value="0.0063757717" flag="0"/>
    </comp>
    <comp name="--.HHZ">
      <acc value="0.6130599441" flag="0"/>
      <vel value="0.0938304463" flag="0"/>
      <psa03 value="0.3562329896" flag="0"/>
      <psa10 value="0.0417351035" flag="0"/>
      <psa30 value="0.0034478460" flag="0"/>
    </comp>
  </station>
  <station code="THIV" name="THIV" netid="HA" insttype="25" lat="38.299" lon="23.332">
    <comp name="--.HHE">
      <acc value="0.0185264006" flag="0"/>
      <vel value="0.0095541768" flag="0"/>
      <psa03 value="0.0430923433" flag="0"/>
      <psa10 value="0.0090469297" flag="0"/>
      <psa30 value="0.0009897834" flag="0"/>
    </comp>
    <comp name="--.HHN">
      <acc value="0.0168521427" flag="0"/>
      <vel value="0.0095348193" flag="0"/>
      <psa03 value="0.0357815814" flag="0"/>
      <psa10 value="0.0086435478" flag="0"/>
      <psa30 value="0.0008028755" flag="0"/>
    </comp>
    <comp name="--.HHZ">
      <acc value="0.0129475200" flag="0"/>
      <vel value="0.0052217784" flag="0"/>
      <psa03 value="0.0286266608" flag="0"/>
      <psa10 value="0.0038951471" flag="0"/>
      <psa30 value="0.0006192120" flag="0"/>
    </comp>
  </station>
  <station code="VILL" name="VILL" netid="HA" insttype="Horizon,120s,1200" lat="38.1642" lon="23.3122">
    <comp name="--.HHN">
      <acc value="0.0164443337" flag="0"/>
      <vel value="0.0067749281" flag="0"/>
      <psa03 value="0.0584022867" flag="0"/>
      <psa10 value="0.0059805349" flag="0"/>
      <psa30 value="0.0005700372" flag="0"/>
    </comp>
    <comp name="--.HHZ">
      <acc value="0.0088836760" flag="0"/>
      <vel value="0.0043321248" flag="0"/>
      <psa03 value="0.0209414631" flag="0"/>
      <psa10 value="0.0035724884" flag="0"/>
      <psa30 value="0.0004414775" flag="0"/>
    </comp>
    <comp name="--.HHE">
      <acc value="0.0136195241" flag="0"/>
      <vel value="0.0074423387" flag="0"/>
      <psa03 value="0.0384506103" flag="0"/>
      <psa10 value="0.0090162812" flag="0"/>
      <psa30 value="0.0006686163" flag="0"/>
    </comp>
  </station>
  <station code="ATH" name="ATH" netid="HL" insttype="DR24" lat="37.9738" lon="23.7177">
    <comp name="--.HHE">
      <acc value="0.0142224426" flag="0"/>
      <vel value="0.0079791361" flag="0"/>
      <psa03 value="0.0429765138" flag="0"/>
      <psa10 value="0.0072169953" flag="0"/>
      <psa30 value="0.0006127248" flag="0"/>
    </comp>
    <comp name="--.HHN">
      <acc value="0.0113378797" flag="0"/>
      <vel value="0.0058646159" flag="0"/>
      <psa03 value="0.0198740904" flag="0"/>
      <psa10 value="0.0056100028" flag="0"/>
      <psa30 value="0.0006211721" flag="0"/>
    </comp>
    <comp name="--.HHZ">
      <acc value="0.0072442576" flag="0"/>
      <vel value="0.0042173687" flag="0"/>
      <psa03 value="0.0145191541" flag="0"/>
      <psa10 value="0.0038325944" flag="0"/>
      <psa30 value="0.0006639267" flag="0"/>
    </comp>
  </station>
  <station code="ELIN" name="ELIN" netid="HL" insttype="LE3D20_SMART24" lat="38.0995" lon="22.4874">
    <comp name="--.HHN">
      <acc value="1.3221265134" flag="0"/>
      <vel value="0.4027221818" flag="0"/>
      <psa03 value="2.6127792531" flag="0"/>
      <psa10 value="0.2395359109" flag="0"/>
      <psa30 value="0.0364383259" flag="0"/>
    </comp>
    <comp name="--.HHE">
      <acc value="1.2985495560" flag="0"/>
      <vel value="0.3942052572" flag="0"/>
      <psa03 value="2.7932852189" flag="0"/>
      <psa10 value="0.2395942182" flag="0"/>
      <psa30 value="0.0156268125" flag="0"/>
    </comp>
    <comp name="--.HHZ">
      <acc value="1.0901118566" flag="0"/>
      <vel value="0.2857134183" flag="0"/>
      <psa03 value="1.5226631820" flag="0"/>
      <psa10 value="0.1159961794" flag="0"/>
      <psa30 value="0.0114608922" flag="0"/>
    </comp>
  </station>
  <station code="EVR" name="EVR" netid="HL" insttype="DR24" lat="38.9166" lon="21.8105">
    <comp name="--.HHZ">
      <acc value="0.0066797673" flag="0"/>
      <vel value="0.0058119481" flag="0"/>
      <psa03 value="0.0233928265" flag="0"/>
      <psa10 value="0.0055351428" flag="0"/>
      <psa30 value="0.0007556662" flag="0"/>
    </comp>
    <comp name="--.HHN">
      <acc value="0.0095092181" flag="0"/>
      <vel value="0.0078256299" flag="0"/>
      <psa03 value="0.0188570065" flag="0"/>
      <psa10 value="0.0073929516" flag="0"/>
      <psa30 value="0.0007825681" flag="0"/>
    </comp>
    <comp name="--.HHE">
      <acc value="0.0105387127" flag="0"/>
      <vel value="0.0095078032" flag="0"/>
      <psa03 value="0.0247992295" flag="0"/>
      <psa10 value="0.0085714057" flag="0"/>
      <psa30 value="0.0013700982" flag="0"/>
    </comp>
  </station>
  <station code="ITM" name="ITM" netid="HL" insttype="DR24" lat="37.1787" lon="21.9252">
    <comp name="--.HHZ">
      <acc value="0.0121193500" flag="0"/>
      <vel value="0.0091727027" flag="0"/>
      <psa03 value="0.0298195211" flag="0"/>
      <psa10 value="0.0091385288" flag="0"/>
      <psa30 value="0.0016045142" flag="0"/>
    </comp>
    <comp name="--.HHN">
      <acc value="0.0219945939" flag="0"/>
      <vel value="0.0095693693" flag="0"/>
      <psa03 value="0.0308795800" flag="0"/>
      <psa10 value="0.0125162465" flag="0"/>
      <psa30 value="0.0009350966" flag="0"/>
    </comp>
    <comp name="--.HHE">
      <acc value="0.0176693793" flag="0"/>
      <vel value="0.0094084474" flag="0"/>
      <psa03 value="0.0544008380" flag="0"/>
      <psa10 value="0.0142687071" flag="0"/>
      <psa30 value="0.0010780356" flag="0"/>
    </comp>
  </station>
  <station code="KLV" name="KLV" netid="HL" insttype="120" lat="38.0435" lon="22.1504">
    <comp name="--.HHE">
      <acc value="1.8619822882" flag="0"/>
      <vel value="0.3046881352" flag="0"/>
      <psa03 value="0.7847361447" flag="0"/>
      <psa10 value="0.1015837629" flag="0"/>
      <psa30 value="0.0115338829" flag="0"/>
    </comp>
    <comp name="--.HHZ">
      <acc value="1.6193183420" flag="0"/>
      <vel value="0.2512175938" flag="0"/>
      <psa03 value="0.6832338660" flag="0"/>
      <psa10 value="0.1040133359" flag="0"/>
      <psa30 value="0.0093878248" flag="0"/>
    </comp>
    <comp name="--.HHN">
      <acc value="1.4108102966" flag="0"/>
      <vel value="0.2849612695" flag="0"/>
      <psa03 value="1.3493289218" flag="0"/>
      <psa10 value="0.1485695195" flag="0"/>
      <psa30 value="0.0105606522" flag="0"/>
    </comp>
  </station>
  <station code="LKR" name="LKR" netid="HL" insttype="65535" lat="38.6496" lon="22.9988">
    <comp name="--.HHE">
      <acc value="0.0452507513" flag="0"/>
      <vel value="0.0143245586" flag="0"/>
      <psa03 value="0.1025028278" flag="0"/>
      <psa10 value="0.0065104387" flag="0"/>
      <psa30 value="0.0007802098" flag="0"/>
    </comp>
    <comp name="--.HHZ">
      <acc value="0.0233975851" flag="0"/>
      <vel value="0.0098975112" flag="0"/>
      <psa03 value="0.0386983303" flag="0"/>
      <psa10 value="0.0045781879" flag="0"/>
      <psa30 value="0.0005446317" flag="0"/>
    </comp>
    <comp name="--.HHN">
      <acc value="0.0477622464" flag="0"/>
      <vel value="0.0149004266" flag="0"/>
      <psa03 value="0.0751972402" flag="0"/>
      <psa10 value="0.0119899597" flag="0"/>
      <psa30 value="0.0013044539" flag="0"/>
    </comp>
  </station>
  <station code="MET1" name="MET1" netid="HL" insttype="65535" lat="37.5785" lon="23.3859">
    <comp name="--.HHE">
      <acc value="0.0168075273" flag="0"/>
      <vel value="0.0084827104" flag="0"/>
      <psa03 value="0.0320342188" flag="0"/>
      <psa10 value="0.0099551633" flag="0"/>
      <psa30 value="0.0007486535" flag="0"/>
    </comp>
    <comp name="--.HHN">
      <acc value="0.0000340776" flag="0"/>
      <vel value="0.0000037842" flag="0"/>
      <psa03 value="0.0000139729" flag="0"/>
      <psa10 value="0.0000023259" flag="0"/>
      <psa30 value="0.0000003459" flag="0"/>
    </comp>
    <comp name="--.HHZ">
      <acc value="0.0151078190" flag="0"/>
      <vel value="0.0064710728" flag="0"/>
      <psa03 value="0.0251355196" flag="0"/>
      <psa10 value="0.0057715000" flag="0"/>
      <psa30 value="0.0006221899" flag="0"/>
    </comp>
  </station>
  <station code="PATC" name="PATC" netid="HL" insttype="CMG-5" lat="38.2693" lon="21.76">
    <comp name="00.HNZ">
      <acc value="0.0972352636" flag="0"/>
      <vel value="0.0308925262" flag="0"/>
      <psa03 value="0.1488699925" flag="0"/>
      <psa10 value="0.0267712507" flag="0"/>
      <psa30 value="0.0030325068" flag="0"/>
    </comp>
    <comp name="00.HNE">
      <acc value="0.0891172790" flag="0"/>
      <vel value="0.0506402330" flag="0"/>
