<?xml version="1.0" encoding="UTF-8" standalone="yes"?>
<!DOCTYPE earthquake SYSTEM "stationlist.dtd">
<stationlist created="" xmlns="ch.ethz.sed.shakemap.usgs.xml">
  <station code="ZIRI" name="ZIRI" netid="CL" insttype="TRILLIUM-40" lat="38.3051" lon="21.9476">
    <comp name="01.HHE">
      <acc value="0.1358503663" flag="0"/>
      <vel value="0.0723214052" flag="0"/>
      <psa03 value="0.3064183414" flag="0"/>
      <psa10 value="0.0297102479" flag="0"/>
      <psa30 value="0.0032691754" flag="0"/>
    </comp>
    <comp name="01.HHZ">
      <acc value="0.1224451502" flag="0"/>
      <vel value="0.0349411279" flag="0"/>
      <psa03 value="0.1892088509" flag="0"/>
      <psa10 value="0.0122058136" flag="0"/>
      <psa30 value="0.0016050806" flag="0"/>
    </comp>
    <comp name="01.HHN">
      <acc value="0.1799127289" flag="0"/>
      <vel value="0.0478582064" flag="0"/>
      <psa03 value="0.3685065078" flag="0"/>
      <psa10 value="0.0236103546" flag="0"/>
      <psa30 value="0.0022686350" flag="0"/>
    </comp>
  </station>
</stationlist>
