<?xml version="1.0" encoding="UTF-8" standalone="yes"?>
<!DOCTYPE earthquake SYSTEM "stationlist.dtd">
<stationlist created="" xmlns="ch.ethz.sed.shakemap.usgs.xml">
  <station code="EAG2" name="EAG2" netid="HL" insttype="SMART24" lat="38.5438" lon="26.1079">
    <comp name="--.HHN">
      <acc value="0.1355190771" flag="0"/>
      <vel value="0.0747521075" flag="0"/>
      <psa03 value="0.3950176299" flag="0"/>
      <psa10 value="0.0401820500" flag="0"/>
      <psa30 value="0.0022693661" flag="0"/>
    </comp>
    <comp name="--.HHZ">
      <acc value="0.0493078638" flag="0"/>
      <vel value="0.0205013619" flag="0"/>
      <psa03 value="0.1166193406" flag="0"/>
      <psa10 value="0.0151701036" flag="0"/>
      <psa30 value="0.0009393830" flag="0"/>
    </comp>
    <comp name="--.HHE">
      <acc value="0.1524140446" flag="0"/>
      <vel value="0.0917151118" flag="0"/>
      <psa03 value="0.6069248387" flag="0"/>
      <psa10 value="0.0279602106" flag="0"/>
      <psa30 value="0.0025150884" flag="0"/>
    </comp>
  </station>
  <station code="SMG" name="SMG" netid="HL" insttype="120" lat="37.7043" lon="26.8377">
    <comp name="--.HHZ">
      <acc value="0.0389797944" flag="0"/>
      <vel value="0.0109504051" flag="0"/>
      <psa03 value="0.0348228986" flag="0"/>
      <psa10 value="0.0055642653" flag="0"/>
      <psa30 value="0.0004689566" flag="0"/>
    </comp>
    <comp name="--.HHE">
      <acc value="0.0568274682" flag="0"/>
      <vel value="0.0172903315" flag="0"/>
      <psa03 value="0.0940447129" flag="0"/>
      <psa10 value="0.0084612441" flag="0"/>
      <psa30 value="0.0006069438" flag="0"/>
    </comp>
    <comp name="--.HHN">
      <acc value="0.0707918779" flag="0"/>
      <vel value="0.0434955335" flag="0"/>
      <psa03 value="0.1276021962" flag="0"/>
      <psa10 value="0.0199214229" flag="0"/>
      <psa30 value="0.0016234126" flag="0"/>
    </comp>
  </station>
</stationlist>
