<?xml version="1.0" encoding="UTF-8" standalone="yes"?>
<!DOCTYPE earthquake SYSTEM "stationlist.dtd">
<stationlist created="" xmlns="ch.ethz.sed.shakemap.usgs.xml">
  <station code="BNN" name="BNN" netid="KO" insttype="CMG-3T" lat="38.8521" lon="35.8472">
    <comp name="--.HHE">
      <acc value="0.0249296736" flag="0"/>
      <vel value="0.0217050794" flag="0"/>
      <psa03 value="0.0553330432" flag="0"/>
      <psa10 value="0.0327821510" flag="0"/>
      <psa30 value="0.0015826455" flag="0"/>
    </comp>
    <comp name="--.HHZ">
      <acc value="0.0143902208" flag="0"/>
      <vel value="0.0068526637" flag="0"/>
      <psa03 value="0.0292452727" flag="0"/>
      <psa10 value="0.0135310887" flag="0"/>
      <psa30 value="0.0010331753" flag="0"/>
    </comp>
    <comp name="--.HHN">
      <acc value="0.0244757006" flag="0"/>
      <vel value="0.0159914336" flag="0"/>
      <psa03 value="0.0495493502" flag="0"/>
      <psa10 value="0.0228089376" flag="0"/>
      <psa30 value="0.0016872764" flag="0"/>
    </comp>
  </station>
  <station code="CEYT" name="CEYT" netid="KO" insttype="CMG-3ESP" lat="37.0105" lon="35.7478">
    <comp name="--.HHE">
      <acc value="0.0124318138" flag="0"/>
      <vel value="0.0079105816" flag="0"/>
      <psa03 value="0.0575727004" flag="0"/>
      <psa10 value="0.0118519633" flag="0"/>
      <psa30 value="0.0022284879" flag="0"/>
    </comp>
    <comp name="--.HHN">
      <acc value="0.0080503139" flag="0"/>
      <vel value="0.0076486111" flag="0"/>
      <psa03 value="0.0309474233" flag="0"/>
      <psa10 value="0.0123208131" flag="0"/>
      <psa30 value="0.0014205176" flag="0"/>
    </comp>
    <comp name="--.HHZ">
      <acc value="0.0088347710" flag="0"/>
      <vel value="0.0075491179" flag="0"/>
      <psa03 value="0.0202046794" flag="0"/>
      <psa10 value="0.0207506375" flag="0"/>
      <psa30 value="0.0010485023" flag="0"/>
    </comp>
  </station>
  <station code="CMRD" name="CMRD" netid="KO" insttype="CMG-5T" lat="37.6623" lon="34.9902">
    <comp name="--.HNZ">
      <acc value="0.0062286338" flag="0"/>
      <vel value="0.0070318322" flag="0"/>
      <psa03 value="0.0167651456" flag="0"/>
      <psa10 value="0.0100617162" flag="0"/>
      <psa30 value="0.0011401380" flag="0"/>
    </comp>
    <comp name="--.HNE">
      <acc value="0.0110789581" flag="0"/>
      <vel value="0.0083326653" flag="0"/>
      <psa03 value="0.0214679542" flag="0"/>
      <psa10 value="0.0113163388" flag="0"/>
      <psa30 value="0.0005664989" flag="0"/>
    </comp>
    <comp name="--.HNN">
      <acc value="0.0080924713" flag="0"/>
      <vel value="0.0084789323" flag="0"/>
      <psa03 value="0.0207833875" flag="0"/>
      <psa10 value="0.0086362334" flag="0"/>
      <psa30 value="0.0007361140" flag="0"/>
    </comp>
  </station>
  <station code="DARE" name="DARE" netid="KO" insttype="CMG-3ESP" lat="38.5712" lon="37.4832">
    <comp name="--.HHN">
      <acc value="0.0303920324" flag="0"/>
      <vel value="0.0168511517" flag="0"/>
      <psa03 value="0.0770561954" flag="0"/>
      <psa10 value="0.0174236694" flag="0"/>
      <psa30 value="0.0010471062" flag="0"/>
    </comp>
    <comp name="--.HHZ">
      <acc value="0.0201560797" flag="0"/>
      <vel value="0.0127861806" flag="0"/>
      <psa03 value="0.0406610705" flag="0"/>
      <psa10 value="0.0147105783" flag="0"/>
      <psa30 value="0.0007700084" flag="0"/>
    </comp>
  </station>
  <station code="GAZ" name="GAZ" netid="KO" insttype="CMG-3T" lat="37.1721" lon="37.2096">
    <comp name="--.HHE">
      <acc value="0.0505527107" flag="0"/>
      <vel value="0.0264608418" flag="0"/>
      <psa03 value="0.0964312916" flag="0"/>
      <psa10 value="0.0448448838" flag="0"/>
      <psa30 value="0.0018949454" flag="0"/>
    </comp>
    <comp name="--.HHN">
      <acc value="0.0386271642" flag="0"/>
      <vel value="0.0297432323" flag="0"/>
      <psa03 value="0.0985497105" flag="0"/>
      <psa10 value="0.0303255534" flag="0"/>
      <psa30 value="0.0025319039" flag="0"/>
    </comp>
    <comp name="--.HHZ">
      <acc value="0.0373314597" flag="0"/>
      <vel value="0.0217088219" flag="0"/>
      <psa03 value="0.1149145473" flag="0"/>
      <psa10 value="0.0200580086" flag="0"/>
      <psa30 value="0.0013303338" flag="0"/>
    </comp>
  </station>
  <station code="KHMN" name="KHMN" netid="KO" insttype="CMG-5T" lat="37.3916" lon="37.1574">
    <comp name="--.HNE">
      <acc value="0.0694415006" flag="0"/>
      <vel value="0.0397222374" flag="0"/>
      <psa03 value="0.1595008718" flag="0"/>
      <psa10 value="0.0296888247" flag="0"/>
      <psa30 value="0.0022563232" flag="0"/>
    </comp>
    <comp name="--.HNZ">
      <acc value="0.0563596563" flag="0"/>
      <vel value="0.0172623213" flag="0"/>
      <psa03 value="0.1100083317" flag="0"/>
      <psa10 value="0.0128296164" flag="0"/>
      <psa30 value="0.0014287724" flag="0"/>
    </comp>
    <comp name="--.HNN">
      <acc value="0.0679014970" flag="0"/>
      <vel value="0.0279489162" flag="0"/>
      <psa03 value="0.1048604814" flag="0"/>
      <psa10 value="0.0138293629" flag="0"/>
      <psa30 value="0.0020769440" flag="0"/>
    </comp>
  </station>
  <station code="KMRS" name="KMRS" netid="KO" insttype="CMG-3T" lat="37.5053" lon="36.9">
    <comp name="--.HHN">
      <acc value="0.3683404711" flag="0"/>
      <vel value="0.1682629762" flag="0"/>
      <psa03 value="0.8841725415" flag="0"/>
      <psa10 value="0.0502071345" flag="0"/>
      <psa30 value="0.0043132251" flag="0"/>
    </comp>
  </station>
  <station code="SARI" name="SARI" netid="KO" insttype="CMG-3T" lat="38.4072" lon="36.4181">
    <comp name="--.HHE">
      <acc value="0.2611963235" flag="0"/>
      <vel value="0.0812486464" flag="0"/>
      <psa03 value="0.2865152081" flag="0"/>
      <psa10 value="0.0931081272" flag="0"/>
      <psa30 value="0.0064770049" flag="0"/>
    </comp>
    <comp name="--.HHZ">
      <acc value="0.1944821864" flag="0"/>
      <vel value="0.0619639117" flag="0"/>
      <psa03 value="0.2933250668" flag="0"/>
      <psa10 value="0.0551130978" flag="0"/>
      <psa30 value="0.0048378224" flag="0"/>
    </comp>
    <comp name="--.HHN">
      <acc value="0.2528445983" flag="0"/>
      <vel value="0.0916570204" flag="0"/>
      <psa03 value="0.4196075368" flag="0"/>
      <psa10 value="0.0631048487" flag="0"/>
      <psa30 value="0.0046897885" flag="0"/>
    </comp>
  </station>
  <station code="ANDN" name="ANDN" netid="TU" insttype="T" lat="37.58" lon="36.3452">
    <comp name="--.HHZ">
      <acc value="0.0957743144" flag="0"/>
      <vel value="0.0918647055" flag="0"/>
      <psa03 value="0.2851410832" flag="0"/>
      <psa10 value="0.1621542837" flag="0"/>
      <psa30 value="0.0089171141" flag="0"/>
    </comp>
    <comp name="--.HHN">
      <acc value="0.2485462314" flag="0"/>
      <vel value="0.1280965265" flag="0"/>
      <psa03 value="0.5792416663" flag="0"/>
      <psa10 value="0.2073695080" flag="0"/>
      <psa30 value="0.0076315005" flag="0"/>
    </comp>
    <comp name="--.HHE">
      <acc value="0.1390650937" flag="0"/>
      <vel value="0.1188015339" flag="0"/>
      <psa03 value="0.4418031692" flag="0"/>
      <psa10 value="0.1200218228" flag="0"/>
      <psa30 value="0.0122635366" flag="0"/>
    </comp>
  </station>
</stationlist>
