<stationlist xmlns:esm="https://esm-db.eu/esmws/shakemap/1/" created="1783562020">
	<station code="AGRP" name="AGRP" netid="CL" source="Corinth Riff Laboratory (CRLNET)" insttype="" lat="38.3959" lon="21.72277" esm:processing="automatic (Paolucci et al 2011)" esm:quality="best">
		<comp name="00.HNE" depth="0.0">
			<acc value="0.00882806324930494" flag="0"/>
			<vel value="0.00397704443937271" flag="0"/>
			<psa03 value="0.017909901286813" flag="0"/>
			<psa10 value="0.00487706120636955" flag="0"/>
			<psa30 value="0.000297739880055822" flag="0"/>
		</comp>
		<comp name="00.HNN" depth="0.0">
			<acc value="0.00885184406322202" flag="0"/>
			<vel value="0.00411943241062065" flag="0"/>
			<psa03 value="0.0160251175749755" flag="0"/>
			<psa10 value="0.00420078218745355" flag="0"/>
			<psa30 value="0.000344761849197172" flag="0"/>
		</comp>
		<comp name="00.HNZ" depth="0.0">
			<acc value="0.00446834845358498" flag="0"/>
			<vel value="0.0027805686210629" flag="0"/>
			<psa03 value="0.0102541441304739" flag="0"/>
			<psa10 value="0.00529951731701357" flag="0"/>
			<psa30 value="0.000220749623579179" flag="0"/>
		</comp>
	</station>
	<station code="AGR3" name="AGR3" netid="HI" source="ITSAK Strong Motion Network" insttype="" lat="38.5893" lon="21.4162" esm:processing="automatic (Paolucci et al 2011)" esm:quality="best">
		<comp name="--.HNE" depth="0.0">
			<acc value="0.0359041760909658" flag="0"/>
			<vel value="0.0211656501568538" flag="0"/>
			<psa03 value="0.098799024117134" flag="0"/>
			<psa10 value="0.0194556644672875" flag="0"/>
			<psa30 value="0.00295183700304792" flag="0"/>
		</comp>
		<comp name="--.HNN" depth="0.0">
			<acc value="0.0225020157877157" flag="0"/>
			<vel value="0.0167778802398384" flag="0"/>
			<psa03 value="0.0728619986248207" flag="0"/>
			<psa10 value="0.0156541632614894" flag="0"/>
			<psa30 value="0.00163199863273332" flag="0"/>
		</comp>
		<comp name="--.HNZ" depth="0.0">
			<acc value="0.0178577932253159" flag="0"/>
			<vel value="0.00713815686516949" flag="0"/>
			<psa03 value="0.0340028775237585" flag="0"/>
			<psa10 value="0.00854139426295093" flag="0"/>
			<psa30 value="0.00131766520551977" flag="0"/>
		</comp>
	</station>
	<station code="AKR1" name="AKR1" netid="HI" source="ITSAK Strong Motion Network" insttype="" lat="38.153583" lon="22.31326" esm:processing="automatic (Paolucci et al 2011)" esm:quality="good">
		<comp name="--.HNE" depth="0.0">
			<acc value="0.00302632592720652" flag="0"/>
			<vel value="0.00223637149219943" flag="0"/>
			<psa03 value="0.00867926310962706" flag="0"/>
			<psa10 value="0.00270419117064357" flag="0"/>
			<psa30 value="0.00026207736133898" flag="0"/>
		</comp>
		<comp name="--.HNN" depth="0.0">
			<acc value="0.00279816033749287" flag="0"/>
			<vel value="0.00210396598460597" flag="0"/>
			<psa03 value="0.00880001524948871" flag="0"/>
			<psa10 value="0.00351880208774393" flag="0"/>
			<psa30 value="0.000407578250058776" flag="0"/>
		</comp>
		<comp name="--.HNZ" depth="0.0">
			<acc value="0.00197140313424376" flag="0"/>
			<vel value="0.00121060056576531" flag="0"/>
			<psa03 value="0.00467838739416286" flag="0"/>
			<psa10 value="0.00208883728146842" flag="0"/>
			<psa30 value="0.000230146808596567" flag="0"/>
		</comp>
	</station>
	<station code="AOL1" name="AOL1" netid="HI" source="ITSAK Strong Motion Network" insttype="" lat="37.642378" lon="21.624555" esm:processing="automatic (Paolucci et al 2011)" esm:quality="good">
		<comp name="--.HNE" depth="0.0">
			<acc value="0.00496327716505857" flag="0"/>
			<vel value="0.0041700149831441" flag="0"/>
			<psa03 value="0.0169778043837177" flag="0"/>
			<psa10 value="0.00591932087595751" flag="0"/>
			<psa30 value="0.00156056202540867" flag="0"/>
		</comp>
		<comp name="--.HNN" depth="0.0">
			<acc value="0.00527633695291854" flag="0"/>
			<vel value="0.00509258061523888" flag="0"/>
			<psa03 value="0.012204098826236" flag="0"/>
			<psa10 value="0.00792429557069113" flag="0"/>
			<psa30 value="0.00100739152641127" flag="0"/>
		</comp>
		<comp name="--.HNZ" depth="0.0">
			<acc value="0.00410800285107305" flag="0"/>
			<vel value="0.00335723109391855" flag="0"/>
			<psa03 value="0.00912043100671011" flag="0"/>
			<psa10 value="0.00520799297272494" flag="0"/>
			<psa30 value="0.000363685967410463" flag="0"/>
		</comp>
	</station>
	<station code="ARG2" name="ARG2" netid="HI" source="ITSAK Strong Motion Network" insttype="" lat="38.1783" lon="20.4878" esm:processing="automatic (Paolucci et al 2011)" esm:quality="best">
		<comp name="--.HNE" depth="0.0">
			<acc value="0.432035968062856" flag="0"/>
			<vel value="0.115076372784093" flag="0"/>
			<psa03 value="0.421492171787805" flag="0"/>
			<psa10 value="0.0454341960425083" flag="0"/>
			<psa30 value="0.00398029825855867" flag="0"/>
		</comp>
		<comp name="--.HNN" depth="0.0">
			<acc value="0.321481085460151" flag="0"/>
			<vel value="0.0916637966998202" flag="0"/>
			<psa03 value="0.266723106596803" flag="0"/>
			<psa10 value="0.0373551295940061" flag="0"/>
			<psa30 value="0.002848044293957" flag="0"/>
		</comp>
		<comp name="--.HNZ" depth="0.0">
			<acc value="0.212814022099437" flag="0"/>
			<vel value="0.0502729967701965" flag="0"/>
			<psa03 value="0.230114056426897" flag="0"/>
			<psa10 value="0.0240467654801977" flag="0"/>
			<psa30 value="0.00285187350595683" flag="0"/>
		</comp>
	</station>
	<station code="AST1" name="AST1" netid="HI" source="ITSAK Strong Motion Network" insttype="" lat="38.5416" lon="21.0895" esm:processing="automatic (Paolucci et al 2011)" esm:quality="best">
		<comp name="--.HNE" depth="0.0">
			<acc value="0.0690611475955125" flag="0"/>
			<vel value="0.0269209458358621" flag="0"/>
			<psa03 value="0.117759207219546" flag="0"/>
			<psa10 value="0.0234928875385023" flag="0"/>
			<psa30 value="0.00129039954513691" flag="0"/>
		</comp>
		<comp name="--.HNN" depth="0.0">
			<acc value="0.0920048691497238" flag="0"/>
			<vel value="0.0270192102716221" flag="0"/>
			<psa03 value="0.109671931893913" flag="0"/>
			<psa10 value="0.0132926946382826" flag="0"/>
			<psa30 value="0.000877144981550223" flag="0"/>
		</comp>
		<comp name="--.HNZ" depth="0.0">
			<acc value="0.0399878473340731" flag="0"/>
			<vel value="0.0237847992265098" flag="0"/>
			<psa03 value="0.0945897452730686" flag="0"/>
			<psa10 value="0.0148707729282245" flag="0"/>
			<psa30 value="0.000955972911847071" flag="0"/>
		</comp>
	</station>
	<station code="JAN2" name="JAN2" netid="HI" source="ITSAK Strong Motion Network" insttype="" lat="39.664" lon="20.85222" esm:processing="automatic (Paolucci et al 2011)" esm:quality="good">
		<comp name="--.HNE" depth="0.0">
			<acc value="0.0191110939320469" flag="0"/>
			<vel value="0.00878768321275928" flag="0"/>
			<psa03 value="0.0766856842168922" flag="0"/>
			<psa10 value="0.00499116345258337" flag="0"/>
			<psa30 value="0.000718730216516166" flag="0"/>
		</comp>
		<comp name="--.HNN" depth="0.0">
			<acc value="0.0150851039239034" flag="0"/>
			<vel value="0.00790909115882226" flag="0"/>
			<psa03 value="0.0676941875326982" flag="0"/>
			<psa10 value="0.0046849322287677" flag="0"/>
			<psa30 value="0.000339711176073199" flag="0"/>
		</comp>
		<comp name="--.HNZ" depth="0.0">
			<acc value="0.0302064007303193" flag="0"/>
			<vel value="0.00529276215714716" flag="0"/>
			<psa03 value="0.0127269029906961" flag="0"/>
			<psa10 value="0.00356307588004038" flag="0"/>
			<psa30 value="0.000238173850765383" flag="0"/>
		</comp>
	</station>
	<station code="JAN3" name="JAN3" netid="HI" source="ITSAK Strong Motion Network" insttype="" lat="39.684" lon="20.8379" esm:processing="automatic (Paolucci et al 2011)" esm:quality="good">
		<comp name="--.HNE" depth="0.0">
			<acc value="0.0128560852604866" flag="0"/>
			<vel value="0.00663117287711564" flag="0"/>
			<psa03 value="0.0408402367152489" flag="0"/>
			<psa10 value="0.00381683339335526" flag="0"/>
			<psa30 value="0.000446739490132071" flag="0"/>
		</comp>
		<comp name="--.HNN" depth="0.0">
			<acc value="0.0126712462004417" flag="0"/>
			<vel value="0.00618416678592684" flag="0"/>
			<psa03 value="0.0373962142948326" flag="0"/>
			<psa10 value="0.00382593008971675" flag="0"/>
			<psa30 value="0.000378622477714299" flag="0"/>
		</comp>
		<comp name="--.HNZ" depth="0.0">
			<acc value="0.013003766877314" flag="0"/>
			<vel value="0.00480763855132261" flag="0"/>
			<psa03 value="0.0135114211070044" flag="0"/>
			<psa10 value="0.00214678893298092" flag="0"/>
			<psa30 value="0.000328479364312459" flag="0"/>
		</comp>
	</station>
	<station code="LEF2" name="LEF2" netid="HI" source="ITSAK Strong Motion Network" insttype="" lat="38.830093" lon="20.708346" esm:processing="automatic (Paolucci et al 2011)" esm:quality="best">
		<comp name="--.HNE" depth="0.0">
			<acc value="0.0538648399712041" flag="0"/>
			<vel value="0.0356380565943788" flag="0"/>
			<psa03 value="0.198299990567836" flag="0"/>
			<psa10 value="0.0543530631236809" flag="0"/>
			<psa30 value="0.00492473207266381" flag="0"/>
		</comp>
		<comp name="--.HNN" depth="0.0">
			<acc value="0.0672570603585208" flag="0"/>
			<vel value="0.0486994532335014" flag="0"/>
			<psa03 value="0.225516626869752" flag="0"/>
			<psa10 value="0.0428076232949544" flag="0"/>
			<psa30 value="0.00385517913669757" flag="0"/>
		</comp>
		<comp name="--.HNZ" depth="0.0">
			<acc value="0.0301581862336642" flag="0"/>
			<vel value="0.0222629751196138" flag="0"/>
			<psa03 value="0.0759182687960535" flag="0"/>
			<psa10 value="0.0262925023742454" flag="0"/>
			<psa30 value="0.00165389977107625" flag="0"/>
		</comp>
	</station>
	<station code="LXR2" name="LXR2" netid="HI" source="ITSAK Strong Motion Network" insttype="" lat="38.206718" lon="20.436386" esm:processing="automatic (Paolucci et al 2011)" esm:quality="best">
		<comp name="--.HNE" depth="0.0">
			<acc value="1.07041066393168" flag="0"/>
			<vel value="0.301148832471718" flag="0"/>
			<psa03 value="0.743655013494974" flag="0"/>
			<psa10 value="0.137104777518635" flag="0"/>
			<psa30 value="0.0108353819575441" flag="0"/>
		</comp>
		<comp name="--.HNN" depth="0.0">
			<acc value="1.12064952716455" flag="0"/>
			<vel value="0.300231049432649" flag="0"/>
			<psa03 value="0.871276634467696" flag="0"/>
			<psa10 value="0.148632456170771" flag="0"/>
			<psa30 value="0.00865023136870837" flag="0"/>
		</comp>
		<comp name="--.HNZ" depth="0.0">
			<acc value="0.664594606737159" flag="0"/>
			<vel value="0.114729417407448" flag="0"/>
			<psa03 value="0.493416686433913" flag="0"/>
			<psa10 value="0.0951764299713839" flag="0"/>
			<psa30 value="0.00525040698036145" flag="0"/>
		</comp>
	</station>
	<station code="MSL1" name="MSL1" netid="HI" source="ITSAK Strong Motion Network" insttype="" lat="38.3727" lon="21.4243" esm:processing="automatic (Paolucci et al 2011)" esm:quality="good">
		<comp name="--.HNE" depth="0.0">
			<acc value="0.0309812889233103" flag="0"/>
			<vel value="0.0206905589182589" flag="0"/>
			<psa03 value="0.100147550950418" flag="0"/>
			<psa10 value="0.0378281146769466" flag="0"/>
			<psa30 value="0.00194130568530755" flag="0"/>
		</comp>
		<comp name="--.HNN" depth="0.0">
			<acc value="0.0405401453483424" flag="0"/>
			<vel value="0.0282873573010751" flag="0"/>
			<psa03 value="0.138057656058829" flag="0"/>
			<psa10 value="0.0355870712188159" flag="0"/>
			<psa30 value="0.00231277654342882" flag="0"/>
		</comp>
		<comp name="--.HNZ" depth="0.0">
			<acc value="0.0227460134123571" flag="0"/>
			<vel value="0.00964118983048452" flag="0"/>
			<psa03 value="0.0487590842166988" flag="0"/>
			<psa10 value="0.0225411607412728" flag="0"/>
			<psa30 value="0.000639383137244912" flag="0"/>
		</comp>
	</station>
	<station code="PRE2" name="PRE2" netid="HI" source="ITSAK Strong Motion Network" insttype="" lat="38.9577" lon="20.7548" esm:processing="automatic (Paolucci et al 2011)" esm:quality="good">
		<comp name="--.HNE" depth="0.0">
			<acc value="0.0461671933491763" flag="0"/>
			<vel value="0.0235041012793065" flag="0"/>
			<psa03 value="0.143828850872162" flag="0"/>
			<psa10 value="0.0318664197439157" flag="0"/>
			<psa30 value="0.00234976482705441" flag="0"/>
		</comp>
		<comp name="--.HNN" depth="0.0">
			<acc value="0.0336757829488152" flag="0"/>
			<vel value="0.0215108707813779" flag="0"/>
			<psa03 value="0.104039985888463" flag="0"/>
			<psa10 value="0.0260759292773406" flag="0"/>
			<psa30 value="0.00254433396630499" flag="0"/>
		</comp>
		<comp name="--.HNZ" depth="0.0">
			<acc value="0.0193797909458178" flag="0"/>
			<vel value="0.0122052360705341" flag="0"/>
			<psa03 value="0.0413979793921306" flag="0"/>
			<psa10 value="0.00994344714207325" flag="0"/>
			<psa30 value="0.00100628332799856" flag="0"/>
		</comp>
	</station>
	<station code="PYR2" name="PYR2" netid="HI" source="ITSAK Strong Motion Network" insttype="" lat="37.6671" lon="21.4506" esm:processing="automatic (Paolucci et al 2011)" esm:quality="good">
		<comp name="--.HNE" depth="0.0">
			<acc value="0.00709850805795963" flag="0"/>
			<vel value="0.00562677748316493" flag="0"/>
			<psa03 value="0.0215346739622966" flag="0"/>
			<psa10 value="0.00628865987410352" flag="0"/>
			<psa30 value="0.000745476415403912" flag="0"/>
		</comp>
		<comp name="--.HNN" depth="0.0">
			<acc value="0.00680038879322511" flag="0"/>
			<vel value="0.00443799855035709" flag="0"/>
			<psa03 value="0.0177609252720498" flag="0"/>
			<psa10 value="0.00900645319582284" flag="0"/>
			<psa30 value="0.000763608970763381" flag="0"/>
		</comp>
		<comp name="--.HNZ" depth="0.0">
			<acc value="0.00412442266974363" flag="0"/>
			<vel value="0.00284565096590614" flag="0"/>
			<psa03 value="0.0100205733190123" flag="0"/>
			<psa10 value="0.00386254798422255" flag="0"/>
			<psa30 value="0.000549884343805751" flag="0"/>
		</comp>
	</station>
	<station code="VAS2" name="VAS2" netid="HI" source="ITSAK Strong Motion Network" insttype="" lat="38.630558" lon="20.608081" esm:processing="automatic (Paolucci et al 2011)" esm:quality="best">
		<comp name="--.HNE" depth="0.0">
			<acc value="0.296062672456499" flag="0"/>
			<vel value="0.179785188483639" flag="0"/>
			<psa03 value="0.780416532098499" flag="0"/>
			<psa10 value="0.293804393099126" flag="0"/>
			<psa30 value="0.0164067401993514" flag="0"/>
		</comp>
		<comp name="--.HNN" depth="0.0">
			<acc value="0.263366262234215" flag="0"/>
			<vel value="0.171279712303391" flag="0"/>
			<psa03 value="0.761605869317741" flag="0"/>
			<psa10 value="0.299317738331189" flag="0"/>
			<psa30 value="0.0165078302294031" flag="0"/>
		</comp>
		<comp name="--.HNZ" depth="0.0">
			<acc value="0.187608513560797" flag="0"/>
			<vel value="0.13980977658752" flag="0"/>
			<psa03 value="0.516972330213041" flag="0"/>
			<psa10 value="0.0892846471696886" flag="0"/>
			<psa30 value="0.00689282411576944" flag="0"/>
		</comp>
	</station>
	<station code="VSK1" name="VSK1" netid="HI" source="ITSAK Strong Motion Network" insttype="" lat="38.4091" lon="20.564" esm:processing="automatic (Paolucci et al 2011)" esm:quality="best">
		<comp name="--.HNE" depth="0.0">
			<acc value="0.750690104652964" flag="0"/>
			<vel value="0.151507069662238" flag="0"/>
			<psa03 value="0.576118456686979" flag="0"/>
			<psa10 value="0.0740148431201107" flag="0"/>
			<psa30 value="0.0116429729564843" flag="0"/>
		</comp>
		<comp name="--.HNN" depth="0.0">
			<acc value="0.448600364259503" flag="0"/>
			<vel value="0.130670114860765" flag="0"/>
			<psa03 value="0.363674133293177" flag="0"/>
			<psa10 value="0.0838890822399921" flag="0"/>
			<psa30 value="0.0106788807567742" flag="0"/>
		</comp>
		<comp name="--.HNZ" depth="0.0">
			<acc value="0.500470212160104" flag="0"/>
			<vel value="0.100692660460271" flag="0"/>
			<psa03 value="0.219348655771937" flag="0"/>
			<psa10 value="0.0433531419328869" flag="0"/>
			<psa30 value="0.00344017414465358" flag="0"/>
		</comp>
	</station>
	<station code="ARTB" name="ARTB" netid="HL" source="National Observatory of Athens Seismic Network" insttype="" lat="39.15702" lon="20.9785" esm:processing="automatic (Paolucci et al 2011)" esm:quality="good">
		<comp name="00.HNE" depth="0.0">
			<acc value="0.0342744265229035" flag="0"/>
			<vel value="0.0115531458106308" flag="0"/>
			<psa03 value="0.0730149254221372" flag="0"/>
			<psa10 value="0.00701761863279373" flag="0"/>
			<psa30 value="0.000398610520574042" flag="0"/>
		</comp>
		<comp name="00.HNN" depth="0.0">
			<acc value="0.025883931988591" flag="0"/>
			<vel value="0.0105758161958238" flag="0"/>
			<psa03 value="0.101887218278174" flag="0"/>
			<psa10 value="0.00335166851596505" flag="0"/>
			<psa30 value="0.000448926197490701" flag="0"/>
		</comp>
		<comp name="00.HNZ" depth="0.0">
			<acc value="0.0118768993775781" flag="0"/>
			<vel value="0.00356899762266001" flag="0"/>
			<psa03 value="0.0181710383775303" flag="0"/>
			<psa10 value="0.00183188221258117" flag="0"/>
			<psa30 value="0.000288973101383093" flag="0"/>
		</comp>
	</station>
	<station code="LXRA" name="LXRA" netid="HL" source="National Observatory of Athens Seismic Network" insttype="" lat="38.20006" lon="20.43718" esm:processing="automatic (Paolucci et al 2011)" esm:quality="best">
		<comp name="00.HNE" depth="0.0">
			<acc value="1.2338838587023" flag="0"/>
			<vel value="0.238934644181406" flag="0"/>
			<psa03 value="0.771377099947149" flag="0"/>
			<psa10 value="0.1019726151853" flag="0"/>
			<psa30 value="0.00994160774938918" flag="0"/>
		</comp>
		<comp name="00.HNN" depth="0.0">
			<acc value="0.814133302051818" flag="0"/>
			<vel value="0.189138062116822" flag="0"/>
			<psa03 value="0.799036015547898" flag="0"/>
			<psa10 value="0.118662698321397" flag="0"/>
			<psa30 value="0.0078762425957507" flag="0"/>
		</comp>
		<comp name="00.HNZ" depth="0.0">
			<acc value="0.62770058463483" flag="0"/>
			<vel value="0.0941297021103333" flag="0"/>
			<psa03 value="0.310218592125921" flag="0"/>
			<psa10 value="0.064706531490148" flag="0"/>
			<psa30 value="0.00462647481458424" flag="0"/>
		</comp>
	</station>
	<station code="PRGA" name="PRGA" netid="HL" source="National Observatory of Athens Seismic Network" insttype="" lat="39.28557" lon="20.40157" esm:processing="automatic (Paolucci et al 2011)" esm:quality="good">
		<comp name="00.HNE" depth="0.0">
			<acc value="0.0489980414886686" flag="0"/>
			<vel value="0.0201473357299578" flag="0"/>
			<psa03 value="0.132075811874342" flag="0"/>
			<psa10 value="0.0103133163315918" flag="0"/>
			<psa30 value="0.000656106484667939" flag="0"/>
		</comp>
		<comp name="00.HNN" depth="0.0">
			<acc value="0.034494060965454" flag="0"/>
			<vel value="0.0143962094736505" flag="0"/>
			<psa03 value="0.131912561476471" flag="0"/>
			<psa10 value="0.00503180770756579" flag="0"/>
			<psa30 value="0.000370231531230275" flag="0"/>
		</comp>
		<comp name="00.HNZ" depth="0.0">
			<acc value="0.013543789369494" flag="0"/>
			<vel value="0.00462809600808679" flag="0"/>
			<psa03 value="0.0228792187609575" flag="0"/>
			<psa10 value="0.00195681892652531" flag="0"/>
			<psa30 value="0.000183273325854212" flag="0"/>
		</comp>
	</station>
	<station code="SMHA" name="SMHA" netid="HL" source="National Observatory of Athens Seismic Network" insttype="" lat="38.25123" lon="20.6477" esm:processing="automatic (Paolucci et al 2011)" esm:quality="good">
		<comp name="00.HNE" depth="0.0">
			<acc value="0.435333711544427" flag="0"/>
			<vel value="0.107233758295149" flag="0"/>
			<psa03 value="0.508225834133935" flag="0"/>
			<psa10 value="0.0421208815516842" flag="0"/>
			<psa30 value="0.00314322405650093" flag="0"/>
		</comp>
		<comp name="00.HNN" depth="0.0">
			<acc value="0.586141037066429" flag="0"/>
			<vel value="0.181805003337663" flag="0"/>
			<psa03 value="0.818934250374966" flag="0"/>
			<psa10 value="0.060744225256806" flag="0"/>
			<psa30 value="0.00662314750101722" flag="0"/>
		</comp>
		<comp name="00.HNZ" depth="0.0">
			<acc value="0.268938654605803" flag="0"/>
			<vel value="0.058992184246398" flag="0"/>
			<psa03 value="0.278372440808022" flag="0"/>
