<?xml version="1.0" encoding="UTF-8" standalone="yes"?>
<!DOCTYPE earthquake SYSTEM "stationlist.dtd">
<stationlist created="" xmlns="ch.ethz.sed.shakemap.usgs.xml">
  <station code="ATHR" name="ATHR" netid="HA" insttype="GEOtiny," commtype="DIG" lat="38.3172" lon="20.4165">
    <comp name="--.HHZ">
      <acc value="0.3294479706" flag="0"/>
      <vel value="0.0898960720" flag="0"/>
      <psa03 value="0.3794879070" flag="0"/>
      <psa10 value="0.0666860516" flag="0"/>
      <psa30 value="0.0044430733" flag="0"/>
    </comp>
    <comp name="--.HHN">
      <acc value="0.2807860031" flag="0"/>
      <vel value="0.1393622782" flag="0"/>
      <psa03 value="0.3652152083" flag="0"/>
      <psa10 value="0.1398875275" flag="0"/>
      <psa30 value="0.0093957010" flag="0"/>
    </comp>
    <comp name="--.HHE">
      <acc value="0.4081761466" flag="0"/>
      <vel value="0.1218325727" flag="0"/>
      <psa03 value="0.5962560898" flag="0"/>
      <psa10 value="0.0984264198" flag="0"/>
      <psa30 value="0.0098672221" flag="0"/>
    </comp>
  </station>
  <station code="HAVD" name="HAVD" netid="HA" insttype="GEOtiny," commtype="DIG" lat="38.2036" lon="20.3848">
    <comp name="--.HHN">
      <acc value="0.2560202923" flag="0"/>
      <vel value="0.0687976832" flag="0"/>
      <psa03 value="0.3018579228" flag="0"/>
      <psa10 value="0.0445738791" flag="0"/>
      <psa30 value="0.0042191091" flag="0"/>
    </comp>
    <comp name="--.HHE">
      <acc value="0.3159633697" flag="0"/>
      <vel value="0.0951001524" flag="0"/>
      <psa03 value="0.3473892182" flag="0"/>
      <psa10 value="0.0507400474" flag="0"/>
      <psa30 value="0.0040138288" flag="0"/>
    </comp>
    <comp name="--.HHZ">
      <acc value="0.2791323536" flag="0"/>
      <vel value="0.0680194566" flag="0"/>
      <psa03 value="0.4292494718" flag="0"/>
      <psa10 value="0.0315682844" flag="0"/>
      <psa30 value="0.0021244154" flag="0"/>
    </comp>
  </station>
  <station code="ARG2" name="ARG2" netid="HI" insttype="CMG-5TD,ACCELEROMETER,GURALP" commtype="DIG" lat="38.1783" lon="20.4878">
    <comp name="--.HNE">
      <acc value="0.4279189094" flag="0"/>
      <vel value="0.1112777360" flag="0"/>
      <psa03 value="0.4199266508" flag="0"/>
      <psa10 value="0.0452197797" flag="0"/>
      <psa30 value="0.0039546116" flag="0"/>
    </comp>
    <comp name="--.HNZ">
      <acc value="0.2240901263" flag="0"/>
      <vel value="0.0487085594" flag="0"/>
      <psa03 value="0.2240733845" flag="0"/>
      <psa10 value="0.0239670142" flag="0"/>
      <psa30 value="0.0025096716" flag="0"/>
    </comp>
    <comp name="--.HNN">
      <acc value="0.3129849821" flag="0"/>
      <vel value="0.0906245805" flag="0"/>
      <psa03 value="0.2640834497" flag="0"/>
      <psa10 value="0.0373013566" flag="0"/>
      <psa30 value="0.0029010646" flag="0"/>
    </comp>
  </station>
  <station code="AST1" name="AST1" netid="HI" insttype="unknown" commtype="DIG" lat="38.5416" lon="21.0895">
    <comp name="--.HNZ">
      <acc value="0.0400989719" flag="0"/>
      <vel value="0.0234159628" flag="0"/>
      <psa03 value="0.0906413111" flag="0"/>
      <psa10 value="0.0148010182" flag="0"/>
      <psa30 value="0.0008504284" flag="0"/>
    </comp>
    <comp name="--.HNE">
      <acc value="0.0686331864" flag="0"/>
      <vel value="0.0266028135" flag="0"/>
      <psa03 value="0.1178504784" flag="0"/>
      <psa10 value="0.0234464870" flag="0"/>
      <psa30 value="0.0012673178" flag="0"/>
    </comp>
    <comp name="--.HNN">
      <acc value="0.0921780164" flag="0"/>
      <vel value="0.0269192111" flag="0"/>
      <psa03 value="0.1084696488" flag="0"/>
      <psa10 value="0.0132630350" flag="0"/>
      <psa30 value="0.0008252202" flag="0"/>
    </comp>
  </station>
  <station code="LEF2" name="LEF2" netid="HI" insttype="unknown" commtype="DIG" lat="38.8301" lon="20.7083">
    <comp name="--.HNE">
      <acc value="0.0538106589" flag="0"/>
      <vel value="0.0349631075" flag="0"/>
      <psa03 value="0.2027664877" flag="0"/>
      <psa10 value="0.0538493323" flag="0"/>
      <psa30 value="0.0041611630" flag="0"/>
    </comp>
    <comp name="--.HNZ">
      <acc value="0.0299276617" flag="0"/>
      <vel value="0.0216769726" flag="0"/>
      <psa03 value="0.0773507921" flag="0"/>
      <psa10 value="0.0262630754" flag="0"/>
      <psa30 value="0.0014138904" flag="0"/>
    </comp>
    <comp name="--.HNN">
      <acc value="0.0671167525" flag="0"/>
      <vel value="0.0479231723" flag="0"/>
      <psa03 value="0.2241658340" flag="0"/>
      <psa10 value="0.0426251208" flag="0"/>
      <psa30 value="0.0034438581" flag="0"/>
    </comp>
  </station>
  <station code="LXR2" name="LXR2" netid="HI" insttype="unknown" commtype="DIG" lat="38.2067" lon="20.4364">
    <comp name="--.HNE">
      <acc value="1.0709619078" flag="0"/>
      <vel value="0.2965815203" flag="0"/>
      <psa03 value="0.7344032784" flag="0"/>
      <psa10 value="0.1368032857" flag="0"/>
      <psa30 value="0.0107364677" flag="0"/>
    </comp>
    <comp name="--.HNN">
      <acc value="1.1388924315" flag="0"/>
      <vel value="0.2968178498" flag="0"/>
      <psa03 value="0.8603044779" flag="0"/>
      <psa10 value="0.1482500742" flag="0"/>
      <psa30 value="0.0085469537" flag="0"/>
    </comp>
    <comp name="--.HNZ">
      <acc value="0.6876219507" flag="0"/>
      <vel value="0.1106949538" flag="0"/>
      <psa03 value="0.4814620563" flag="0"/>
      <psa10 value="0.0950775031" flag="0"/>
      <psa30 value="0.0048793915" flag="0"/>
    </comp>
  </station>
  <station code="VAS2" name="VAS2" netid="HI" insttype="CMG-5TD,ACCELEROMETER,GURALP" commtype="DIG" lat="38.6306" lon="20.6081">
    <comp name="--.HNN">
      <acc value="0.2638528041" flag="0"/>
      <vel value="0.1693979850" flag="0"/>
      <psa03 value="0.7650720117" flag="0"/>
      <psa10 value="0.2992729180" flag="0"/>
      <psa30 value="0.0154328238" flag="0"/>
    </comp>
    <comp name="--.HNE">
      <acc value="0.2950018358" flag="0"/>
      <vel value="0.1793240959" flag="0"/>
      <psa03 value="0.7700166526" flag="0"/>
      <psa10 value="0.2931159747" flag="0"/>
      <psa30 value="0.0156696623" flag="0"/>
    </comp>
    <comp name="--.HNZ">
      <acc value="0.1883000479" flag="0"/>
      <vel value="0.1395081791" flag="0"/>
      <psa03 value="0.5154431764" flag="0"/>
      <psa10 value="0.0889764519" flag="0"/>
      <psa30 value="0.0068835517" flag="0"/>
    </comp>
  </station>
  <station code="VSK1" name="VSK1" netid="HI" insttype="unknown" commtype="DIG" lat="38.4091" lon="20.564">
    <comp name="--.HNE">
      <acc value="0.7906103105" flag="0"/>
      <vel value="0.1449578456" flag="0"/>
      <psa03 value="0.5678453690" flag="0"/>
      <psa10 value="0.0739576899" flag="0"/>
      <psa30 value="0.0096924765" flag="0"/>
    </comp>
    <comp name="--.HNN">
      <acc value="0.4648482871" flag="0"/>
      <vel value="0.1254040625" flag="0"/>
      <psa03 value="0.3599200272" flag="0"/>
      <psa10 value="0.0838182716" flag="0"/>
      <psa30 value="0.0106944043" flag="0"/>
    </comp>
    <comp name="--.HNZ">
      <acc value="0.5051159374" flag="0"/>
      <vel value="0.0962212570" flag="0"/>
      <psa03 value="0.2172754682" flag="0"/>
      <psa10 value="0.0430167080" flag="0"/>
      <psa30 value="0.0032998552" flag="0"/>
    </comp>
  </station>
  <station code="LXRA" name="LXRA" netid="HL" insttype="CMG-5" commtype="DIG" lat="38.2001" lon="20.4372">
    <comp name="00.HNE">
      <acc value="1.2257670770" flag="0"/>
      <vel value="0.2376235816" flag="0"/>
      <psa03 value="0.7704892015" flag="0"/>
      <psa10 value="0.1021586604" flag="0"/>
      <psa30 value="0.0101632827" flag="0"/>
    </comp>
    <comp name="00.HNN">
      <acc value="0.8136257896" flag="0"/>
      <vel value="0.1881803112" flag="0"/>
      <psa03 value="0.7970666471" flag="0"/>
      <psa10 value="0.1185057876" flag="0"/>
      <psa30 value="0.0073720680" flag="0"/>
    </comp>
    <comp name="00.HNZ">
      <acc value="0.6035407193" flag="0"/>
      <vel value="0.0933744475" flag="0"/>
      <psa03 value="0.3100044950" flag="0"/>
      <psa10 value="0.0646383891" flag="0"/>
      <psa30 value="0.0041936115" flag="0"/>
    </comp>
  </station>
  <station code="ORTH" name="ORTH" netid="HL" insttype="30" commtype="DIG" lat="37.8511" lon="20.6963">
    <comp name="--.HHE">
      <acc value="0.0676906168" flag="0"/>
      <vel value="0.0246398465" flag="0"/>
      <psa03 value="0.1534609632" flag="0"/>
      <psa10 value="0.0148901525" flag="0"/>
      <psa30 value="0.0010023032" flag="0"/>
    </comp>
    <comp name="--.HHN">
      <acc value="0.0698167676" flag="0"/>
      <vel value="0.0276050564" flag="0"/>
      <psa03 value="0.1297755754" flag="0"/>
      <psa10 value="0.0217784351" flag="0"/>
      <psa30 value="0.0011787591" flag="0"/>
    </comp>
    <comp name="--.HHZ">
      <acc value="0.0335343122" flag="0"/>
      <vel value="0.0118638514" flag="0"/>
      <psa03 value="0.0884059079" flag="0"/>
      <psa10 value="0.0057737246" flag="0"/>
      <psa30 value="0.0006736915" flag="0"/>
    </comp>
  </station>
  <station code="RLS" name="RLS" netid="HL" insttype="CMG3ESPC-120s" commtype="DIG" lat="38.0559" lon="21.4647">
    <comp name="--.HHE">
      <acc value="0.0052637286" flag="0"/>
      <vel value="0.0029822871" flag="0"/>
      <psa03 value="0.0148979668" flag="0"/>
      <psa10 value="0.0048600957" flag="0"/>
      <psa30 value="0.0003216844" flag="0"/>
    </comp>
    <comp name="--.HHN">
      <acc value="0.0068929298" flag="0"/>
      <vel value="0.0029642437" flag="0"/>
      <psa03 value="0.0156629865" flag="0"/>
      <psa10 value="0.0051775971" flag="0"/>
      <psa30 value="0.0003783802" flag="0"/>
    </comp>
    <comp name="--.HHZ">
      <acc value="0.0029575452" flag="0"/>
      <vel value="0.0015470081" flag="0"/>
      <psa03 value="0.0062169767" flag="0"/>
      <psa10 value="0.0021593074" flag="0"/>
      <psa30 value="0.0001686679" flag="0"/>
    </comp>
  </station>
  <station code="AMPL" name="AMPL" netid="HP" insttype="Compact," commtype="DIG" lat="38.9224" lon="21.2135">
    <comp name="--.HHN">
      <acc value="0.0156907831" flag="0"/>
      <vel value="0.0052430849" flag="0"/>
      <psa03 value="0.0302359677" flag="0"/>
      <psa10 value="0.0067979642" flag="0"/>
      <psa30 value="0.0003503398" flag="0"/>
    </comp>
    <comp name="--.HHZ">
      <acc value="0.0098304714" flag="0"/>
      <vel value="0.0035175057" flag="0"/>
      <psa03 value="0.0228602345" flag="0"/>
      <psa10 value="0.0028078111" flag="0"/>
      <psa30 value="0.0002273710" flag="0"/>
    </comp>
    <comp name="--.HHE">
      <acc value="0.0179780447" flag="0"/>
      <vel value="0.0073349764" flag="0"/>
      <psa03 value="0.0478008050" flag="0"/>
      <psa10 value="0.0044757713" flag="0"/>
      <psa30 value="0.0004486041" flag="0"/>
    </comp>
  </station>
  <station code="AXS" name="AXS" netid="HP" insttype="Compact," commtype="DIG" lat="38.1962" lon="21.3763">
    <comp name="--.HHE">
      <acc value="0.0068368233" flag="0"/>
      <vel value="0.0032843248" flag="0"/>
      <psa03 value="0.0112628201" flag="0"/>
      <psa10 value="0.0044733473" flag="0"/>
      <psa30 value="0.0002017685" flag="0"/>
    </comp>
    <comp name="--.HHN">
      <acc value="0.0065606276" flag="0"/>
      <vel value="0.0054417636" flag="0"/>
      <psa03 value="0.0233565833" flag="0"/>
      <psa10 value="0.0108107072" flag="0"/>
      <psa30 value="0.0006565789" flag="0"/>
    </comp>
    <comp name="--.HHZ">
      <acc value="0.0040143857" flag="0"/>
      <vel value="0.0020345749" flag="0"/>
      <psa03 value="0.0087132440" flag="0"/>
      <psa10 value="0.0034786955" flag="0"/>
      <psa30 value="0.0001755940" flag="0"/>
    </comp>
  </station>
  <station code="FSK" name="FSK" netid="HP" insttype="40," commtype="DIG" lat="38.4593" lon="20.5623">
    <comp name="--.HHN">
      <acc value="0.2538343973" flag="0"/>
      <vel value="0.0692626557" flag="0"/>
      <psa03 value="0.2341573748" flag="0"/>
      <psa10 value="0.0519322276" flag="0"/>
      <psa30 value="0.0079225750" flag="0"/>
    </comp>
    <comp name="--.HHZ">
      <acc value="0.3194773741" flag="0"/>
      <vel value="0.0829547337" flag="0"/>
      <psa03 value="0.2862758262" flag="0"/>
      <psa10 value="0.0493706688" flag="0"/>
      <psa30 value="0.0038707389" flag="0"/>
    </comp>
    <comp name="--.HHE">
      <acc value="0.5521354872" flag="0"/>
      <vel value="0.1485803110" flag="0"/>
      <psa03 value="0.5979117200" flag="0"/>
      <psa10 value="0.0677796827" flag="0"/>
      <psa30 value="0.0086521068" flag="0"/>
    </comp>
  </station>
  <station code="KSTR" name="KSTR" netid="HP" insttype="Compact," commtype="DIG" lat="39.2492" lon="20.576">
    <comp name="--.HHN">
      <acc value="0.0140688564" flag="0"/>
      <vel value="0.0078371555" flag="0"/>
      <psa03 value="0.0358115870" flag="0"/>
      <psa10 value="0.0038846961" flag="0"/>
      <psa30 value="0.0002536861" flag="0"/>
    </comp>
    <comp name="--.HHE">
      <acc value="0.0234737656" flag="0"/>
      <vel value="0.0144689313" flag="0"/>
      <psa03 value="0.0547298182" flag="0"/>
      <psa10 value="0.0079393131" flag="0"/>
      <psa30 value="0.0003673848" flag="0"/>
    </comp>
    <comp name="--.HHZ">
      <acc value="0.0109170440" flag="0"/>
      <vel value="0.0046168792" flag="0"/>
      <psa03 value="0.0285800952" flag="0"/>
      <psa10 value="0.0020622346" flag="0"/>
      <psa30 value="0.0001376552" flag="0"/>
    </comp>
  </station>
  <station code="LTHK" name="LTHK" netid="HP" insttype="40," commtype="DIG" lat="37.7095" lon="20.8367">
    <comp name="--.HHN">
      <acc value="0.0537316198" flag="0"/>
      <vel value="0.0116466062" flag="0"/>
      <psa03 value="0.0583107481" flag="0"/>
      <psa10 value="0.0165430034" flag="0"/>
      <psa30 value="0.0007963601" flag="0"/>
    </comp>
    <comp name="--.HHZ">
      <acc value="0.0212699356" flag="0"/>
      <vel value="0.0056700561" flag="0"/>
      <psa03 value="0.0323604934" flag="0"/>
      <psa10 value="0.0059590469" flag="0"/>
      <psa30 value="0.0004288385" flag="0"/>
    </comp>
    <comp name="--.HHE">
      <acc value="0.0456723248" flag="0"/>
      <vel value="0.0110868385" flag="0"/>
      <psa03 value="0.0601485294" flag="0"/>
      <psa10 value="0.0086701327" flag="0"/>
      <psa30 value="0.0005182892" flag="0"/>
    </comp>
  </station>
  <station code="PDO" name="PDO" netid="HP" insttype="120s" commtype="DIG" lat="38.5986" lon="21.1833">
    <comp name="--.HHN">
      <acc value="0.0298989530" flag="0"/>
      <vel value="0.0124925476" flag="0"/>
      <psa03 value="0.1108712907" flag="0"/>
      <psa10 value="0.0078089523" flag="0"/>
      <psa30 value="0.0005441119" flag="0"/>
    </comp>
    <comp name="--.HHE">
      <acc value="0.0277830250" flag="0"/>
      <vel value="0.0144297338" flag="0"/>
      <psa03 value="0.0836485851" flag="0"/>
      <psa10 value="0.0112170099" flag="0"/>
      <psa30 value="0.0008433528" flag="0"/>
    </comp>
    <comp name="--.HHZ">
      <acc value="0.0188431031" flag="0"/>
      <vel value="0.0063030150" flag="0"/>
      <psa03 value="0.0485261934" flag="0"/>
      <psa10 value="0.0052608056" flag="0"/>
      <psa30 value="0.0005167199" flag="0"/>
    </comp>
  </station>
  <station code="PLEV" name="PLEV" netid="HP" insttype="Compact," commtype="DIG" lat="38.4124" lon="21.4073">
    <comp name="--.HHE">
      <acc value="0.0158262794" flag="0"/>
      <vel value="0.0048744924" flag="0"/>
      <psa03 value="0.0261127813" flag="0"/>
      <psa10 value="0.0041017695" flag="0"/>
      <psa30 value="0.0003997180" flag="0"/>
    </comp>
    <comp name="--.HHN">
      <acc value="0.0165367097" flag="0"/>
      <vel value="0.0074975987" flag="0"/>
      <psa03 value="0.0315070970" flag="0"/>
      <psa10 value="0.0075661142" flag="0"/>
      <psa30 value="0.0006283489" flag="0"/>
    </comp>
    <comp name="--.HHZ">
      <acc value="0.0101521820" flag="0"/>
      <vel value="0.0040396607" flag="0"/>
      <psa03 value="0.0158465363" flag="0"/>
      <psa10 value="0.0026621460" flag="0"/>
      <psa30 value="0.0002400719" flag="0"/>
    </comp>
  </station>
  <station code="PVO" name="PVO" netid="HP" insttype="120P," commtype="DIG" lat="38.616" lon="21.525">
    <comp name="--.HHE">
      <acc value="0.0164565439" flag="0"/>
      <vel value="0.0071927816" flag="0"/>
      <psa03 value="0.0566361863" flag="0"/>
      <psa10 value="0.0074862699" flag="0"/>
      <psa30 value="0.0004590192" flag="0"/>
    </comp>
    <comp name="--.HHZ">
      <acc value="0.0097058313" flag="0"/>
      <vel value="0.0040750301" flag="0"/>
      <psa03 value="0.0180388273" flag="0"/>
      <psa10 value="0.0047761506" flag="0"/>
      <psa30 value="0.0004937760" flag="0"/>
    </comp>
    <comp name="--.HHN">
      <acc value="0.0136041852" flag="0"/>
      <vel value="0.0089704830" flag="0"/>
      <psa03 value="0.0368499442" flag="0"/>
      <psa10 value="0.0088386937" flag="0"/>
      <psa30 value="0.0004089535" flag="0"/>
    </comp>
  </station>
  <station code="DMLN" name="DMLN" netid="HT" insttype="1s-100Hz," commtype="DIG" lat="38.2385" lon="20.3734">
    <comp name="--.HHE">
      <acc value="0.5060941942" flag="0"/>
      <vel value="0.1696129425" flag="0"/>
      <psa03 value="0.7351581482" flag="0"/>
      <psa10 value="0.1004945334" flag="0"/>
      <psa30 value="0.0050732409" flag="0"/>
    </comp>
    <comp name="--.HHN">
      <acc value="0.3296840671" flag="0"/>
      <vel value="0.1259324375" flag="0"/>
      <psa03 value="0.7216370814" flag="0"/>
      <psa10 value="0.0852685545" flag="0"/>
      <psa30 value="0.0067285099" flag="0"/>
    </comp>
    <comp name="--.HHZ">
      <acc value="0.3630070767" flag="0"/>
      <vel value="0.1093113660" flag="0"/>
      <psa03 value="0.3863341375" flag="0"/>
      <psa10 value="0.0450104978" flag="0"/>
      <psa30 value="0.0038827339" flag="0"/>
    </comp>
  </station>
  <station code="DRAG" name="DRAG" netid="HT" insttype="30s-100Hz," commtype="DIG" lat="38.6839" lon="20.5746">
    <comp name="--.HHN">
      <acc value="0.1394527476" flag="0"/>
      <vel value="0.0483345303" flag="0"/>
      <psa03 value="0.3068343884" flag="0"/>
      <psa10 value="0.0269333327" flag="0"/>
      <psa30 value="0.0014659736" flag="0"/>
    </comp>
    <comp name="--.HHE">
      <acc value="0.1656055575" flag="0"/>
      <vel value="0.0731574640" flag="0"/>
      <psa03 value="0.5090516525" flag="0"/>
      <psa10 value="0.0567512799" flag="0"/>
      <psa30 value="0.0026046856" flag="0"/>
    </comp>
    <comp name="--.HHZ">
      <acc value="0.0745352531" flag="0"/>
      <vel value="0.0220986620" flag="0"/>
      <psa03 value="0.0991796506" flag="0"/>
      <psa10 value="0.0151680057" flag="0"/>
      <psa30 value="0.0007225782" flag="0"/>
    </comp>
  </station>
  <station code="EVGI" name="EVGI" netid="HT" insttype="30" commtype="DIG" lat="38.621" lon="20.656">
    <comp name="--.HHE">
      <acc value="0.4742931513" flag="0"/>
      <vel value="0.1192604369" flag="0"/>
      <psa03 value="0.2682693046" flag="0"/>
      <psa10 value="0.0567464414" flag="0"/>
      <psa30 value="0.0036235783" flag="0"/>
    </comp>
    <comp name="--.HHN">
      <acc value="0.4269494461" flag="0"/>
      <vel value="0.0941496207" flag="0"/>
      <psa03 value="0.3608554064" flag="0"/>
      <psa10 value="0.0340240423" flag="0"/>
      <psa30 value="0.0019984410" flag="0"/>
    </comp>
    <comp name="--.HHZ">
      <acc value="0.4099111941" flag="0"/>
      <vel value="0.0667036977" flag="0"/>
      <psa03 value="0.3229771688" flag="0"/>
      <psa10 value="0.0243803288" flag="0"/>
      <psa30 value="0.0015540395" flag="0"/>
    </comp>
  </station>
