<?xml version="1.0" encoding="UTF-8" standalone="yes"?>
<!DOCTYPE earthquake SYSTEM "stationlist.dtd">
<stationlist created="" xmlns="ch.ethz.sed.shakemap.usgs.xml">
  <station code="AYDB" name="AYDB" netid="KO" insttype="CMG-3ESPC" commtype="DIG" lat="37.9467" lon="27.8908">
    <comp name="--.HHZ">
      <acc value="0.0235386604" flag="0"/>
      <vel value="0.0070840230" flag="0"/>
      <psa03 value="0.0383545587" flag="0"/>
      <psa10 value="0.0061018553" flag="0"/>
      <psa30 value="0.0005585995" flag="0"/>
    </comp>
    <comp name="--.HHE">
      <acc value="0.0334145258" flag="0"/>
      <vel value="0.0145307691" flag="0"/>
      <psa03 value="0.1286062697" flag="0"/>
      <psa10 value="0.0072137906" flag="0"/>
      <psa30 value="0.0005368244" flag="0"/>
    </comp>
  </station>
  <station code="AYVL" name="AYVL" netid="KO" insttype="CMG-6T" commtype="DIG" lat="39.2907" lon="26.69">
    <comp name="--.HHE">
      <acc value="0.0361428013" flag="0"/>
      <vel value="0.0162886207" flag="0"/>
      <psa03 value="0.0868086059" flag="0"/>
      <psa10 value="0.0086802757" flag="0"/>
      <psa30 value="0.0005159161" flag="0"/>
    </comp>
    <comp name="--.HHN">
      <acc value="0.0506416148" flag="0"/>
      <vel value="0.0214322965" flag="0"/>
      <psa03 value="0.1073739216" flag="0"/>
      <psa10 value="0.0100466065" flag="0"/>
      <psa30 value="0.0005960340" flag="0"/>
    </comp>
    <comp name="--.HHZ">
      <acc value="0.0267656429" flag="0"/>
      <vel value="0.0090711844" flag="0"/>
      <psa03 value="0.0342316759" flag="0"/>
      <psa10 value="0.0034236226" flag="0"/>
      <psa30 value="0.0001724846" flag="0"/>
    </comp>
  </station>
  <station code="BALB" name="BALB" netid="KO" insttype="CMG-5T" commtype="DIG" lat="39.6507" lon="27.8642">
    <comp name="--.HNE">
      <acc value="0.0499847673" flag="0"/>
      <vel value="0.0158925835" flag="0"/>
      <psa03 value="0.1016949363" flag="0"/>
      <psa10 value="0.0144439945" flag="0"/>
      <psa30 value="0.0011200424" flag="0"/>
    </comp>
    <comp name="--.HNN">
      <acc value="0.0994709559" flag="0"/>
      <vel value="0.0375783518" flag="0"/>
      <psa03 value="0.1452642393" flag="0"/>
      <psa10 value="0.0179089002" flag="0"/>
      <psa30 value="0.0015922003" flag="0"/>
    </comp>
    <comp name="--.HNZ">
      <acc value="0.0425641815" flag="0"/>
      <vel value="0.0109057154" flag="0"/>
      <psa03 value="0.0703895219" flag="0"/>
      <psa10 value="0.0065669697" flag="0"/>
      <psa30 value="0.0007750143" flag="0"/>
    </comp>
  </station>
  <station code="CANM" name="CANM" netid="KO" insttype="CMG-5T" commtype="DIG" lat="40.0113" lon="27.0529">
    <comp name="--.HNE">
      <acc value="0.0204904959" flag="0"/>
      <vel value="0.0157397375" flag="0"/>
      <psa03 value="0.0526018907" flag="0"/>
      <psa10 value="0.0104989016" flag="0"/>
      <psa30 value="0.0006999918" flag="0"/>
    </comp>
    <comp name="--.HNN">
      <acc value="0.0241595465" flag="0"/>
      <vel value="0.0125023850" flag="0"/>
      <psa03 value="0.0470125408" flag="0"/>
      <psa10 value="0.0080343830" flag="0"/>
      <psa30 value="0.0007289083" flag="0"/>
    </comp>
    <comp name="--.HNZ">
      <acc value="0.0145136450" flag="0"/>
      <vel value="0.0057691636" flag="0"/>
      <psa03 value="0.0368960254" flag="0"/>
      <psa10 value="0.0037921524" flag="0"/>
      <psa30 value="0.0006032809" flag="0"/>
    </comp>
  </station>
  <station code="DKL" name="DKL" netid="KO" insttype="CMG-3ESPC" commtype="DIG" lat="39.0713" lon="26.9053">
    <comp name="--.HHZ">
      <acc value="0.0090533787" flag="0"/>
      <vel value="0.0044470917" flag="0"/>
      <psa03 value="0.0235598585" flag="0"/>
      <psa10 value="0.0032917040" flag="0"/>
      <psa30 value="0.0004593886" flag="0"/>
    </comp>
    <comp name="--.HHE">
      <acc value="0.0106794835" flag="0"/>
      <vel value="0.0045177927" flag="0"/>
      <psa03 value="0.0253171913" flag="0"/>
      <psa10 value="0.0046815179" flag="0"/>
      <psa30 value="0.0003682508" flag="0"/>
    </comp>
    <comp name="--.HHN">
      <acc value="0.0140663127" flag="0"/>
      <vel value="0.0076475626" flag="0"/>
      <psa03 value="0.0253916689" flag="0"/>
      <psa10 value="0.0076947631" flag="0"/>
      <psa30 value="0.0010826177" flag="0"/>
    </comp>
  </station>
  <station code="DST" name="DST" netid="KO" insttype="CMG-5T" commtype="DIG" lat="39.6041" lon="28.6267">
    <comp name="--.HNN">
      <acc value="0.0833417567" flag="0"/>
      <vel value="0.0346100151" flag="0"/>
      <psa03 value="0.1926500348" flag="0"/>
      <psa10 value="0.0137681608" flag="0"/>
      <psa30 value="0.0014735057" flag="0"/>
    </comp>
    <comp name="--.HNZ">
      <acc value="0.0756528221" flag="0"/>
      <vel value="0.0232781239" flag="0"/>
      <psa03 value="0.0974739427" flag="0"/>
      <psa10 value="0.0061278038" flag="0"/>
      <psa30 value="0.0010906773" flag="0"/>
    </comp>
    <comp name="--.HNE">
      <acc value="0.0729609995" flag="0"/>
      <vel value="0.0181838148" flag="0"/>
      <psa03 value="0.1401863600" flag="0"/>
      <psa10 value="0.0138053499" flag="0"/>
      <psa30 value="0.0008804975" flag="0"/>
    </comp>
  </station>
  <station code="EDC" name="EDC" netid="KO" insttype="CMG-3T" commtype="DIG" lat="40.3465" lon="27.8618">
    <comp name="--.HHN">
      <acc value="0.0384190410" flag="0"/>
      <vel value="0.0191219646" flag="0"/>
      <psa03 value="0.1345873701" flag="0"/>
      <psa10 value="0.0141798258" flag="0"/>
      <psa30 value="0.0011739938" flag="0"/>
    </comp>
    <comp name="--.HHZ">
      <acc value="0.0138720652" flag="0"/>
      <vel value="0.0074119852" flag="0"/>
      <psa03 value="0.0503150882" flag="0"/>
      <psa10 value="0.0034340699" flag="0"/>
      <psa30 value="0.0007724002" flag="0"/>
    </comp>
    <comp name="--.HHE">
      <acc value="0.0297193527" flag="0"/>
      <vel value="0.0108759769" flag="0"/>
      <psa03 value="0.0509594197" flag="0"/>
      <psa10 value="0.0064445310" flag="0"/>
      <psa30 value="0.0007336132" flag="0"/>
    </comp>
  </station>
  <station code="GOMA" name="GOMA" netid="KO" insttype="CMG-5T" commtype="DIG" lat="38.7077" lon="27.9175">
    <comp name="--.HNN">
      <acc value="0.1100705250" flag="0"/>
      <vel value="0.0359353852" flag="0"/>
      <psa03 value="0.2557486784" flag="0"/>
      <psa10 value="0.0130898817" flag="0"/>
      <psa30 value="0.0019054531" flag="0"/>
    </comp>
    <comp name="--.HNZ">
      <acc value="0.1043805243" flag="0"/>
      <vel value="0.0256339321" flag="0"/>
      <psa03 value="0.1545881410" flag="0"/>
      <psa10 value="0.0074982548" flag="0"/>
      <psa30 value="0.0013289833" flag="0"/>
    </comp>
  </station>
  <station code="GONE" name="GONE" netid="KO" insttype="CMG-5T" commtype="DIG" lat="40.0466" lon="27.686">
    <comp name="--.HNE">
      <acc value="0.0363674541" flag="0"/>
      <vel value="0.0157655650" flag="0"/>
      <psa03 value="0.0710823662" flag="0"/>
      <psa10 value="0.0146249114" flag="0"/>
      <psa30 value="0.0005649590" flag="0"/>
    </comp>
    <comp name="--.HNZ">
      <acc value="0.0252280276" flag="0"/>
      <vel value="0.0093975097" flag="0"/>
      <psa03 value="0.0421085013" flag="0"/>
      <psa10 value="0.0047720669" flag="0"/>
      <psa30 value="0.0003583138" flag="0"/>
    </comp>
    <comp name="--.HNN">
      <acc value="0.0872267860" flag="0"/>
      <vel value="0.0401474739" flag="0"/>
      <psa03 value="0.2458936409" flag="0"/>
      <psa10 value="0.0141190466" flag="0"/>
      <psa30 value="0.0011566694" flag="0"/>
    </comp>
  </station>
  <station code="GORD" name="GORD" netid="KO" insttype="CMG-5T" commtype="DIG" lat="38.9088" lon="28.1769">
    <comp name="--.HNE">
      <acc value="0.1317829335" flag="0"/>
      <vel value="0.0544584995" flag="0"/>
      <psa03 value="0.2565486839" flag="0"/>
      <psa10 value="0.0589534157" flag="0"/>
      <psa30 value="0.0032678868" flag="0"/>
    </comp>
    <comp name="--.HNN">
      <acc value="0.1680501446" flag="0"/>
      <vel value="0.1118328585" flag="0"/>
      <psa03 value="0.3197717699" flag="0"/>
      <psa10 value="0.1049697676" flag="0"/>
      <psa30 value="0.0071087128" flag="0"/>
    </comp>
    <comp name="--.HNZ">
      <acc value="0.1694859912" flag="0"/>
      <vel value="0.0662518273" flag="0"/>
      <psa03 value="0.2139577652" flag="0"/>
      <psa10 value="0.0481233378" flag="0"/>
      <psa30 value="0.0074480130" flag="0"/>
    </comp>
  </station>
  <station code="KCTX" name="KCTX" netid="KO" insttype="CMG-3ESP" commtype="DIG" lat="40.2626" lon="28.3353">
    <comp name="--.HHZ">
      <acc value="0.0302738601" flag="0"/>
      <vel value="0.0113017647" flag="0"/>
      <psa03 value="0.0572328159" flag="0"/>
      <psa10 value="0.0031909844" flag="0"/>
      <psa30 value="0.0007485087" flag="0"/>
    </comp>
    <comp name="--.HHN">
      <acc value="0.0341054683" flag="0"/>
      <vel value="0.0150433713" flag="0"/>
      <psa03 value="0.0783611958" flag="0"/>
      <psa10 value="0.0051013436" flag="0"/>
      <psa30 value="0.0007305846" flag="0"/>
    </comp>
    <comp name="--.HHE">
      <acc value="0.0288342046" flag="0"/>
      <vel value="0.0081156632" flag="0"/>
      <psa03 value="0.0525791337" flag="0"/>
      <psa10 value="0.0043318016" flag="0"/>
      <psa30 value="0.0004359415" flag="0"/>
    </comp>
  </station>
  <station code="KULA" name="KULA" netid="KO" insttype="CMG-3T" commtype="DIG" lat="38.5145" lon="28.6607">
    <comp name="--.HHE">
      <acc value="0.0953297757" flag="0"/>
      <vel value="0.0255898608" flag="0"/>
      <psa03 value="0.0852319264" flag="0"/>
      <psa10 value="0.0196401610" flag="0"/>
      <psa30 value="0.0012260071" flag="0"/>
    </comp>
    <comp name="--.HHN">
      <acc value="0.0835961766" flag="0"/>
      <vel value="0.0170420875" flag="0"/>
      <psa03 value="0.0899247473" flag="0"/>
      <psa10 value="0.0059546589" flag="0"/>
      <psa30 value="0.0006177165" flag="0"/>
    </comp>
    <comp name="--.HHZ">
      <acc value="0.0634293899" flag="0"/>
      <vel value="0.0151308043" flag="0"/>
      <psa03 value="0.0858142082" flag="0"/>
      <psa10 value="0.0079631907" flag="0"/>
      <psa30 value="0.0008199046" flag="0"/>
    </comp>
  </station>
  <station code="MDNY" name="MDNY" netid="KO" insttype="CMG-5T" commtype="DIG" lat="40.3709" lon="28.8846">
    <comp name="--.HNE">
      <acc value="0.1491171543" flag="0"/>
      <vel value="0.0609756902" flag="0"/>
      <psa03 value="0.5901157643" flag="0"/>
      <psa10 value="0.0173752942" flag="0"/>
      <psa30 value="0.0018877066" flag="0"/>
    </comp>
    <comp name="--.HNN">
      <acc value="0.1540143886" flag="0"/>
      <vel value="0.0807816396" flag="0"/>
      <psa03 value="0.6021012497" flag="0"/>
      <psa10 value="0.0264670086" flag="0"/>
      <psa30 value="0.0016558960" flag="0"/>
    </comp>
    <comp name="--.HNZ">
      <acc value="0.0447306434" flag="0"/>
      <vel value="0.0171907325" flag="0"/>
      <psa03 value="0.1613177583" flag="0"/>
      <psa10 value="0.0072116194" flag="0"/>
      <psa30 value="0.0014515543" flag="0"/>
    </comp>
  </station>
  <station code="NAZL" name="NAZL" netid="KO" insttype="CMG-5T" commtype="DIG" lat="37.9641" lon="28.2922">
    <comp name="--.HNE">
      <acc value="0.0230336031" flag="0"/>
      <vel value="0.0114336160" flag="0"/>
      <psa03 value="0.0552004472" flag="0"/>
      <psa10 value="0.0088411682" flag="0"/>
      <psa30 value="0.0007271115" flag="0"/>
    </comp>
    <comp name="--.HNZ">
      <acc value="0.0114516004" flag="0"/>
      <vel value="0.0051201847" flag="0"/>
      <psa03 value="0.0196589936" flag="0"/>
      <psa10 value="0.0049632593" flag="0"/>
      <psa30 value="0.0004503592" flag="0"/>
    </comp>
    <comp name="--.HNN">
      <acc value="0.0188316249" flag="0"/>
      <vel value="0.0089565426" flag="0"/>
      <psa03 value="0.0474607173" flag="0"/>
      <psa10 value="0.0094842013" flag="0"/>
      <psa30 value="0.0004953768" flag="0"/>
    </comp>
  </station>
  <station code="ORLT" name="ORLT" netid="KO" insttype="CMG-5T" commtype="DIG" lat="40.0452" lon="28.8914">
    <comp name="--.HNZ">
      <acc value="0.0314505283" flag="0"/>
      <vel value="0.0182359700" flag="0"/>
      <psa03 value="0.1380162103" flag="0"/>
      <psa10 value="0.0238305618" flag="0"/>
      <psa30 value="0.0014409118" flag="0"/>
    </comp>
    <comp name="--.HNN">
      <acc value="0.0735872117" flag="0"/>
      <vel value="0.0331121358" flag="0"/>
      <psa03 value="0.2260582838" flag="0"/>
      <psa10 value="0.0355785760" flag="0"/>
      <psa30 value="0.0015898438" flag="0"/>
    </comp>
    <comp name="--.HNE">
      <acc value="0.1056196272" flag="0"/>
      <vel value="0.0398611848" flag="0"/>
      <psa03 value="0.3136496456" flag="0"/>
      <psa10 value="0.0244731733" flag="0"/>
      <psa30 value="0.0013912928" flag="0"/>
    </comp>
  </station>
  <station code="SHAP" name="SHAP" netid="KO" insttype="CMG-5T" commtype="DIG" lat="39.0231" lon="29.222">
    <comp name="--.HNE">
      <acc value="0.1031003694" flag="0"/>
      <vel value="0.0351989536" flag="0"/>
      <psa03 value="0.2470468803" flag="0"/>
      <psa10 value="0.0192403367" flag="0"/>
      <psa30 value="0.0010469161" flag="0"/>
    </comp>
    <comp name="--.HNN">
      <acc value="0.1681745448" flag="0"/>
      <vel value="0.0580939040" flag="0"/>
      <psa03 value="0.2235445283" flag="0"/>
      <psa10 value="0.0169629088" flag="0"/>
      <psa30 value="0.0011165768" flag="0"/>
    </comp>
    <comp name="--.HNZ">
      <acc value="0.1060070985" flag="0"/>
      <vel value="0.0244627295" flag="0"/>
      <psa03 value="0.0614497789" flag="0"/>
      <psa10 value="0.0091844570" flag="0"/>
      <psa30 value="0.0006005660" flag="0"/>
    </comp>
  </station>
  <station code="SIMA" name="SIMA" netid="KO" insttype="CMG-6T" commtype="DIG" lat="39.0833" lon="28.9825">
    <comp name="--.HHE">
      <acc value="0.1941347525" flag="0"/>
      <vel value="0.0256862039" flag="0"/>
      <psa03 value="0.1921967354" flag="0"/>
      <psa10 value="0.0063211228" flag="0"/>
      <psa30 value="0.0008562393" flag="0"/>
    </comp>
    <comp name="--.HHN">
      <acc value="0.1227756628" flag="0"/>
      <vel value="0.0348441741" flag="0"/>
      <psa03 value="0.2767054243" flag="0"/>
      <psa10 value="0.0147094362" flag="0"/>
      <psa30 value="0.0013675151" flag="0"/>
    </comp>
    <comp name="--.HHZ">
      <acc value="0.0852660853" flag="0"/>
      <vel value="0.0180732672" flag="0"/>
      <psa03 value="0.0992292735" flag="0"/>
      <psa10 value="0.0043035999" flag="0"/>
      <psa30 value="0.0005244745" flag="0"/>
    </comp>
  </station>
  <station code="SMAA" name="SMAA" netid="KO" insttype="CMG-5T" commtype="DIG" lat="39.1005" lon="28.9805">
    <comp name="--.HNE">
      <acc value="0.0960160252" flag="0"/>
      <vel value="0.0486022365" flag="0"/>
      <psa03 value="0.2907557875" flag="0"/>
      <psa10 value="0.0402542189" flag="0"/>
      <psa30 value="0.0040757002" flag="0"/>
    </comp>
    <comp name="--.HNZ">
      <acc value="0.0884645870" flag="0"/>
      <vel value="0.0187583960" flag="0"/>
      <psa03 value="0.0862985179" flag="0"/>
      <psa10 value="0.0342232400" flag="0"/>
      <psa30 value="0.0015776780" flag="0"/>
    </comp>
    <comp name="--.HNN">
      <acc value="0.0794355551" flag="0"/>
      <vel value="0.0434556044" flag="0"/>
      <psa03 value="0.2055190504" flag="0"/>
      <psa10 value="0.0496593963" flag="0"/>
      <psa30 value="0.0041133650" flag="0"/>
    </comp>
  </station>
  <station code="SOMA" name="SOMA" netid="KO" insttype="CMG-5T" commtype="DIG" lat="39.1564" lon="27.5341">
    <comp name="--.HNZ">
      <acc value="0.0640477673" flag="0"/>
      <vel value="0.0153746894" flag="0"/>
      <psa03 value="0.0703061000" flag="0"/>
      <psa10 value="0.0078713393" flag="0"/>
      <psa30 value="0.0005541183" flag="0"/>
    </comp>
    <comp name="--.HNE">
      <acc value="0.0589407190" flag="0"/>
      <vel value="0.0217245036" flag="0"/>
      <psa03 value="0.0778618811" flag="0"/>
      <psa10 value="0.0095418826" flag="0"/>
      <psa30 value="0.0005418978" flag="0"/>
    </comp>
    <comp name="--.HNN">
      <acc value="0.0704709928" flag="0"/>
      <vel value="0.0257002387" flag="0"/>
      <psa03 value="0.1332440472" flag="0"/>
      <psa10 value="0.0119467972" flag="0"/>
      <psa30 value="0.0008185426" flag="0"/>
    </comp>
  </station>
  <station code="SUSR" name="SUSR" netid="KO" insttype="CMG-5T" commtype="DIG" lat="39.9627" lon="28.0835">
    <comp name="--.HNE">
      <acc value="0.0516015811" flag="0"/>
      <vel value="0.0123871656" flag="0"/>
      <psa03 value="0.0789432717" flag="0"/>
      <psa10 value="0.0046236861" flag="0"/>
      <psa30 value="0.0004245163" flag="0"/>
    </comp>
    <comp name="--.HNZ">
      <acc value="0.0409486270" flag="0"/>
      <vel value="0.0100595936" flag="0"/>
      <psa03 value="0.0748725386" flag="0"/>
      <psa10 value="0.0023356325" flag="0"/>
      <psa30 value="0.0003572557" flag="0"/>
    </comp>
    <comp name="--.HNN">
      <acc value="0.0604988452" flag="0"/>
      <vel value="0.0162066454" flag="0"/>
      <psa03 value="0.1116682345" flag="0"/>
      <psa10 value="0.0040817374" flag="0"/>
      <psa30 value="0.0004772966" flag="0"/>
    </comp>
  </station>
  <station code="TVSB" name="TVSB" netid="KO" insttype="CMG-3T" commtype="DIG" lat="39.4497" lon="29.4615">
    <comp name="--.HHE">
      <acc value="0.0554842446" flag="0"/>
      <vel value="0.0283731742" flag="0"/>
      <psa03 value="0.1283513327" flag="0"/>
      <psa10 value="0.0211652351" flag="0"/>
      <psa30 value="0.0014803662" flag="0"/>
    </comp>
    <comp name="--.HHN">
      <acc value="0.0496001258" flag="0"/>
      <vel value="0.0252220333" flag="0"/>
      <psa03 value="0.1414347108" flag="0"/>
      <psa10 value="0.0213422609" flag="0"/>
      <psa30 value="0.0009719058" flag="0"/>
    </comp>
    <comp name="--.HHZ">
      <acc value="0.0240059623" flag="0"/>
      <vel value="0.0133607696" flag="0"/>
      <psa03 value="0.0449757164" flag="0"/>
      <psa10 value="0.0124684960" flag="0"/>
      <psa30 value="0.0006664519" flag="0"/>
    </comp>
  </station>
  <station code="YAYO" name="YAYO" netid="KO" insttype="CMG-6T" commtype="DIG" lat="39.6113" lon="27.0726">
    <comp name="--.HHE">
      <acc value="0.0248678699" flag="0"/>
      <vel value="0.0166986095" flag="0"/>
      <psa03 value="0.0552928078" flag="0"/>
      <psa10 value="0.0102981503" flag="0"/>
      <psa30 value="0.0007646115" flag="0"/>
    </comp>
    <comp name="--.HHN">
      <acc value="0.0247151490" flag="0"/>
      <vel value="0.0133982564" flag="0"/>
      <psa03 value="0.0668720839" flag="0"/>
      <psa10 value="0.0095501670" flag="0"/>
      <psa30 value="0.0006703888" flag="0"/>
    </comp>
    <comp name="--.HHZ">
      <acc value="0.0129596902" flag="0"/>
      <vel value="0.0057969302" flag="0"/>
      <psa03 value="0.0276471704" flag="0"/>
      <psa10 value="0.0034609551" flag="0"/>
      <psa30 value="0.0002823013" flag="0"/>
    </comp>
  </station>
  <station code="YENI" name="YENI" netid="KO" insttype="CMG-5T" commtype="DIG" lat="39.9364" lon="27.2422">
    <comp name="--.HNN">
      <acc value="0.0522387962" flag="0"/>
      <vel value="0.0225759161" flag="0"/>
      <psa03 value="0.0772836089" flag="0"/>
      <psa10 value="0.0124471257" flag="0"/>
      <psa30 value="0.0006489556" flag="0"/>
    </comp>
    <comp name="--.HNE">
      <acc value="0.0422366572" flag="0"/>
      <vel value="0.0229962472" flag="0"/>
      <psa03 value="0.0964104253" flag="0"/>
      <psa10 value="0.0188097182" flag="0"/>
      <psa30 value="0.0010070919" flag="0"/>
    </comp>
    <comp name="--.HNZ">
