<?xml version="1.0" encoding="UTF-8" standalone="yes"?>
<!DOCTYPE earthquake SYSTEM "stationlist.dtd">
<stationlist created="" xmlns="ch.ethz.sed.shakemap.usgs.xml">
  <station code="APE" name="APE" netid="GE" insttype="STS-2/N" lat="37.0727" lon="25.523">
    <comp name="--.HHE">
      <acc value="0.0288019762" flag="0"/>
      <vel value="0.0343116385" flag="0"/>
      <psa03 value="0.0513088546" flag="0"/>
      <psa10 value="0.0290692361" flag="0"/>
      <psa30 value="0.0090998544" flag="0"/>
    </comp>
    <comp name="--.HHN">
      <acc value="0.0415376593" flag="0"/>
      <vel value="0.0629937018" flag="0"/>
      <psa03 value="0.0752107091" flag="0"/>
      <psa10 value="0.0713723838" flag="0"/>
      <psa30 value="0.0095578127" flag="0"/>
    </comp>
    <comp name="--.HHZ">
      <acc value="0.0176430321" flag="0"/>
      <vel value="0.0184225630" flag="0"/>
      <psa03 value="0.0338341015" flag="0"/>
      <psa10 value="0.0277107743" flag="0"/>
      <psa30 value="0.0025793959" flag="0"/>
    </comp>
  </station>
  <station code="THERA" name="THERA" netid="GE" insttype="STS-2/N" lat="36.367" lon="25.4753">
    <comp name="--.HHE">
      <acc value="0.0761872442" flag="0"/>
      <vel value="0.0690339655" flag="0"/>
      <psa03 value="0.2154112210" flag="0"/>
      <psa10 value="0.0673698854" flag="0"/>
      <psa30 value="0.0063574001" flag="0"/>
    </comp>
    <comp name="--.HHN">
      <acc value="0.0504772724" flag="0"/>
      <vel value="0.0377527749" flag="0"/>
      <psa03 value="0.1968340628" flag="0"/>
      <psa10 value="0.0236499491" flag="0"/>
      <psa30 value="0.0024384857" flag="0"/>
    </comp>
    <comp name="--.HHZ">
      <acc value="0.0807819986" flag="0"/>
      <vel value="0.0430216262" flag="0"/>
      <psa03 value="0.2480998949" flag="0"/>
      <psa10 value="0.0183943107" flag="0"/>
      <psa30 value="0.0044131247" flag="0"/>
    </comp>
  </station>
  <station code="SNT5" name="SNT5" netid="HA" insttype="1s-100Hz," lat="36.4037" lon="25.3953">
    <comp name="--.HHE">
      <acc value="0.1253411689" flag="0"/>
      <vel value="0.0701312702" flag="0"/>
      <psa03 value="0.3345580888" flag="0"/>
      <psa10 value="0.0736207944" flag="0"/>
      <psa30 value="0.0189465135" flag="0"/>
    </comp>
    <comp name="--.HHN">
      <acc value="0.0957333423" flag="0"/>
      <vel value="0.0522481772" flag="0"/>
      <psa03 value="0.4108358202" flag="0"/>
      <psa10 value="0.0498833063" flag="0"/>
      <psa30 value="0.0202350557" flag="0"/>
    </comp>
    <comp name="--.HHZ">
      <acc value="0.0696916374" flag="0"/>
      <vel value="0.0304075233" flag="0"/>
      <psa03 value="0.2072386660" flag="0"/>
      <psa10 value="0.0363042754" flag="0"/>
      <psa30 value="0.0071114802" flag="0"/>
    </comp>
  </station>
  <station code="KNSS" name="KNSS" netid="HC" insttype="60" lat="35.3042" lon="25.1802">
    <comp name="--.HHE">
      <acc value="0.3020826840" flag="0"/>
      <vel value="0.1443265285" flag="0"/>
      <psa03 value="0.7929751319" flag="0"/>
      <psa10 value="0.0808825486" flag="0"/>
      <psa30 value="0.0099755761" flag="0"/>
    </comp>
    <comp name="--.HHZ">
      <acc value="0.2427661588" flag="0"/>
      <vel value="0.0781528110" flag="0"/>
      <psa03 value="0.4553897065" flag="0"/>
      <psa10 value="0.0335869037" flag="0"/>
      <psa30 value="0.0045411507" flag="0"/>
    </comp>
    <comp name="--.HHN">
      <acc value="0.3151036438" flag="0"/>
      <vel value="0.1374676418" flag="0"/>
      <psa03 value="1.0788762654" flag="0"/>
      <psa10 value="0.0706285947" flag="0"/>
      <psa30 value="0.0071159995" flag="0"/>
    </comp>
  </station>
  <station code="KOSP" name="KOSP" netid="HC" insttype="60" lat="36.881" lon="27.281">
    <comp name="--.HHE">
      <acc value="0.0809703028" flag="0"/>
      <vel value="0.1326340203" flag="0"/>
      <psa03 value="0.1447232230" flag="0"/>
      <psa10 value="0.1368294019" flag="0"/>
      <psa30 value="0.0320553044" flag="0"/>
    </comp>
    <comp name="--.HHN">
      <acc value="0.0921632874" flag="0"/>
      <vel value="0.1124406669" flag="0"/>
      <psa03 value="0.1728150646" flag="0"/>
      <psa10 value="0.1654295690" flag="0"/>
      <psa30 value="0.0235554389" flag="0"/>
    </comp>
    <comp name="--.HHZ">
      <acc value="0.0528368981" flag="0"/>
      <vel value="0.0727055278" flag="0"/>
      <psa03 value="0.1139531480" flag="0"/>
      <psa10 value="0.1009388282" flag="0"/>
      <psa30 value="0.0130002049" flag="0"/>
    </comp>
  </station>
  <station code="PFKS" name="PFKS" netid="HC" insttype="120" lat="35.0429" lon="25.4733">
    <comp name="--.HHE">
      <acc value="0.2144840086" flag="0"/>
      <vel value="0.0990934247" flag="0"/>
      <psa03 value="0.4221229099" flag="0"/>
      <psa10 value="0.0797020953" flag="0"/>
      <psa30 value="0.0045822998" flag="0"/>
    </comp>
    <comp name="--.HHZ">
      <acc value="0.1549772069" flag="0"/>
      <vel value="0.0442721361" flag="0"/>
      <psa03 value="0.2285123406" flag="0"/>
      <psa10 value="0.0409443471" flag="0"/>
      <psa30 value="0.0025373457" flag="0"/>
    </comp>
    <comp name="--.HHN">
      <acc value="0.3833042495" flag="0"/>
      <vel value="0.1099352706" flag="0"/>
      <psa03 value="0.4169880631" flag="0"/>
      <psa10 value="0.0851342230" flag="0"/>
      <psa30 value="0.0049364593" flag="0"/>
    </comp>
  </station>
  <station code="STIA" name="STIA" netid="HC" insttype="120" lat="35.2021" lon="26.0909">
    <comp name="--.HHZ">
      <acc value="0.2572490811" flag="0"/>
      <vel value="0.0683275087" flag="0"/>
      <psa03 value="0.3039204030" flag="0"/>
      <psa10 value="0.0389397276" flag="0"/>
      <psa30 value="0.0024523934" flag="0"/>
    </comp>
    <comp name="--.HHN">
      <acc value="0.2270320134" flag="0"/>
      <vel value="0.1247488164" flag="0"/>
      <psa03 value="0.4890434793" flag="0"/>
      <psa10 value="0.0732474158" flag="0"/>
      <psa30 value="0.0042680840" flag="0"/>
    </comp>
    <comp name="--.HHE">
      <acc value="0.2440480299" flag="0"/>
      <vel value="0.1010226056" flag="0"/>
      <psa03 value="0.4374653397" flag="0"/>
      <psa10 value="0.1070584061" flag="0"/>
      <psa30 value="0.0048332262" flag="0"/>
    </comp>
  </station>
  <station code="KRL1" name="KRL1" netid="HI" insttype="CMG-5TD,ACCELEROMETER,GURALP" lat="37.7951" lon="26.7065">
    <comp name="--.HNE">
      <acc value="0.0322563859" flag="0"/>
      <vel value="0.0260078016" flag="0"/>
      <psa03 value="0.0832435928" flag="0"/>
      <psa10 value="0.0337177985" flag="0"/>
      <psa30 value="0.0019245103" flag="0"/>
    </comp>
    <comp name="--.HNZ">
      <acc value="0.0690738367" flag="0"/>
      <vel value="0.0406273689" flag="0"/>
      <psa03 value="0.1425583951" flag="0"/>
      <psa10 value="0.0409389018" flag="0"/>
      <psa30 value="0.0033055696" flag="0"/>
    </comp>
    <comp name="--.HNN">
      <acc value="0.0275584372" flag="0"/>
      <vel value="0.0207300826" flag="0"/>
      <psa03 value="0.0771386010" flag="0"/>
      <psa10 value="0.0273817736" flag="0"/>
      <psa30 value="0.0035512693" flag="0"/>
    </comp>
  </station>
  <station code="KSS1" name="KSS1" netid="HI" insttype="CMG-5TD,ACCELEROMETER,GURALP" lat="35.4189" lon="26.9207">
    <comp name="--.HNE">
      <acc value="0.6261593976" flag="0"/>
      <vel value="0.1682821485" flag="0"/>
      <psa03 value="0.6073954290" flag="0"/>
      <psa10 value="0.0571701826" flag="0"/>
      <psa30 value="0.0054716283" flag="0"/>
    </comp>
    <comp name="--.HNN">
      <acc value="0.5829268878" flag="0"/>
      <vel value="0.1695342611" flag="0"/>
      <psa03 value="0.8579969030" flag="0"/>
      <psa10 value="0.0816448259" flag="0"/>
      <psa30 value="0.0080354700" flag="0"/>
    </comp>
    <comp name="--.HNZ">
      <acc value="0.4501920020" flag="0"/>
      <vel value="0.1064635578" flag="0"/>
      <psa03 value="0.2556442796" flag="0"/>
      <psa10 value="0.0620504889" flag="0"/>
      <psa30 value="0.0032298946" flag="0"/>
    </comp>
  </station>
  <station code="NAX1" name="NAX1" netid="HI" insttype="CMG-5TD,ACCELEROMETER,GURALP" lat="37.1014" lon="25.3741">
    <comp name="--.HNE">
      <acc value="0.0275572696" flag="0"/>
      <vel value="0.0373128470" flag="0"/>
      <psa03 value="0.0564097609" flag="0"/>
      <psa10 value="0.0325284805" flag="0"/>
      <psa30 value="0.0067635241" flag="0"/>
    </comp>
    <comp name="--.HNN">
      <acc value="0.0341091371" flag="0"/>
      <vel value="0.0518468782" flag="0"/>
      <psa03 value="0.0428044733" flag="0"/>
      <psa10 value="0.0825040150" flag="0"/>
      <psa30 value="0.0107369481" flag="0"/>
    </comp>
    <comp name="--.HNZ">
      <acc value="0.0215102997" flag="0"/>
      <vel value="0.0262307097" flag="0"/>
      <psa03 value="0.0259273089" flag="0"/>
      <psa10 value="0.0321443433" flag="0"/>
      <psa30 value="0.0041430308" flag="0"/>
    </comp>
  </station>
  <station code="APE" name="APE" netid="HL" insttype="120" lat="37.0727" lon="25.523">
    <comp name="--.HHZ">
      <acc value="0.0172685251" flag="0"/>
      <vel value="0.0182637557" flag="0"/>
      <psa03 value="0.0332439525" flag="0"/>
      <psa10 value="0.0275576200" flag="0"/>
      <psa30 value="0.0025727036" flag="0"/>
    </comp>
    <comp name="--.HHN">
      <acc value="0.0409099581" flag="0"/>
      <vel value="0.0625677056" flag="0"/>
      <psa03 value="0.0739401527" flag="0"/>
      <psa10 value="0.0709689108" flag="0"/>
      <psa30 value="0.0095352912" flag="0"/>
    </comp>
    <comp name="--.HHE">
      <acc value="0.0282610411" flag="0"/>
      <vel value="0.0340554460" flag="0"/>
      <psa03 value="0.0500811038" flag="0"/>
      <psa10 value="0.0288995389" flag="0"/>
      <psa30 value="0.0090823750" flag="0"/>
    </comp>
  </station>
  <station code="ARG" name="ARG" netid="HL" insttype="LE3D20_DR24" lat="36.2136" lon="28.1212">
    <comp name="--.HHN">
      <acc value="0.2107616651" flag="0"/>
      <vel value="0.0980033589" flag="0"/>
      <psa03 value="0.7049869534" flag="0"/>
      <psa10 value="0.0358664308" flag="0"/>
      <psa30 value="0.0045010974" flag="0"/>
    </comp>
    <comp name="--.HHZ">
      <acc value="0.0897247477" flag="0"/>
      <vel value="0.0380434234" flag="0"/>
      <psa03 value="0.1787358852" flag="0"/>
      <psa10 value="0.0249692686" flag="0"/>
      <psa30 value="0.0028608167" flag="0"/>
    </comp>
    <comp name="--.HHE">
      <acc value="0.2712378370" flag="0"/>
      <vel value="0.1510735862" flag="0"/>
      <psa03 value="0.8514075009" flag="0"/>
      <psa10 value="0.0505388701" flag="0"/>
      <psa30 value="0.0053754433" flag="0"/>
    </comp>
  </station>
  <station code="IACM" name="IACM" netid="HL" insttype="120" lat="35.3058" lon="25.0709">
    <comp name="--.HHZ">
      <acc value="0.8402302092" flag="0"/>
      <vel value="0.3150618935" flag="0"/>
      <psa03 value="1.9556878420" flag="0"/>
      <psa10 value="0.1783609661" flag="0"/>
      <psa30 value="0.0111446913" flag="0"/>
    </comp>
    <comp name="--.HHN">
      <acc value="1.1490513094" flag="0"/>
      <vel value="0.5451128690" flag="0"/>
      <psa03 value="4.3531278514" flag="0"/>
      <psa10 value="0.5579528110" flag="0"/>
      <psa30 value="0.0280493982" flag="0"/>
    </comp>
    <comp name="--.HHE">
      <acc value="1.1191588530" flag="0"/>
      <vel value="0.6254887458" flag="0"/>
      <psa03 value="3.0877480280" flag="0"/>
      <psa10 value="0.5860676218" flag="0"/>
      <psa30 value="0.0338188179" flag="0"/>
    </comp>
  </station>
  <station code="KLNA" name="KLNA" netid="HL" insttype="CMG-5" lat="36.9571" lon="26.9727">
    <comp name="00.HNZ">
      <acc value="0.2462145560" flag="0"/>
      <vel value="0.1175808833" flag="0"/>
      <psa03 value="0.5267764007" flag="0"/>
      <psa10 value="0.0396576527" flag="0"/>
      <psa30 value="0.0045969514" flag="0"/>
    </comp>
    <comp name="00.HNN">
      <acc value="0.1253715478" flag="0"/>
      <vel value="0.0847430742" flag="0"/>
      <psa03 value="0.3755822796" flag="0"/>
      <psa10 value="0.0946073390" flag="0"/>
      <psa30 value="0.0101264591" flag="0"/>
    </comp>
    <comp name="00.HNE">
      <acc value="0.1632984023" flag="0"/>
      <vel value="0.0820732682" flag="0"/>
      <psa03 value="0.5569976043" flag="0"/>
      <psa10 value="0.0532814269" flag="0"/>
      <psa30 value="0.0027940924" flag="0"/>
    </comp>
  </station>
  <station code="KSTE" name="KSTE" netid="HL" insttype="60" lat="35.1801" lon="25.3372">
    <comp name="--.HHN">
      <acc value="0.1980740065" flag="0"/>
      <vel value="0.0512782107" flag="0"/>
      <psa03 value="0.3750514538" flag="0"/>
      <psa10 value="0.0489209123" flag="0"/>
      <psa30 value="0.0055178764" flag="0"/>
    </comp>
    <comp name="--.HHZ">
      <acc value="0.1458612807" flag="0"/>
      <vel value="0.0586143884" flag="0"/>
      <psa03 value="0.3167608445" flag="0"/>
      <psa10 value="0.0457094971" flag="0"/>
      <psa30 value="0.0028609933" flag="0"/>
    </comp>
    <comp name="--.HHE">
      <acc value="0.1165064082" flag="0"/>
      <vel value="0.0590449439" flag="0"/>
      <psa03 value="0.2490594776" flag="0"/>
      <psa10 value="0.0525726641" flag="0"/>
      <psa30 value="0.0055705743" flag="0"/>
    </comp>
  </station>
  <station code="NISR" name="NISR" netid="HL" insttype="65535" lat="36.6106" lon="27.131">
    <comp name="--.HHE">
      <acc value="0.0553784820" flag="0"/>
      <vel value="0.0480174329" flag="0"/>
      <psa03 value="0.1952468768" flag="0"/>
      <psa10 value="0.0772660399" flag="0"/>
      <psa30 value="0.0118153683" flag="0"/>
    </comp>
    <comp name="--.HHN">
      <acc value="0.0565723665" flag="0"/>
      <vel value="0.0569403483" flag="0"/>
      <psa03 value="0.1003069127" flag="0"/>
      <psa10 value="0.0668861790" flag="0"/>
      <psa30 value="0.0046391687" flag="0"/>
    </comp>
    <comp name="--.HHZ">
      <acc value="0.0235476507" flag="0"/>
      <vel value="0.0304382048" flag="0"/>
      <psa03 value="0.0511466182" flag="0"/>
      <psa10 value="0.0503156178" flag="0"/>
      <psa30 value="0.0054724605" flag="0"/>
    </comp>
  </station>
  <station code="NISR2" name="NISR2" netid="HL" insttype="120" lat="36.5744" lon="27.1767">
    <comp name="--.HHE">
      <acc value="0.1268337864" flag="0"/>
      <vel value="0.1294979236" flag="0"/>
      <psa03 value="0.4054866136" flag="0"/>
      <psa10 value="0.3310074702" flag="0"/>
      <psa30 value="0.0149854555" flag="0"/>
    </comp>
    <comp name="--.HHZ">
      <acc value="0.0466105678" flag="0"/>
      <vel value="0.0338494161" flag="0"/>
      <psa03 value="0.1328934495" flag="0"/>
      <psa10 value="0.0618794091" flag="0"/>
      <psa30 value="0.0065181166" flag="0"/>
    </comp>
    <comp name="--.HHN">
      <acc value="0.2100971944" flag="0"/>
      <vel value="0.1863394974" flag="0"/>
      <psa03 value="0.4731638853" flag="0"/>
      <psa10 value="0.4052192627" flag="0"/>
      <psa30 value="0.0319687776" flag="0"/>
    </comp>
  </station>
  <station code="NPS" name="NPS" netid="HL" insttype="CMG3ESPC-120s" lat="35.2613" lon="25.6104">
    <comp name="--.HHE">
      <acc value="0.2484754715" flag="0"/>
      <vel value="0.0804652988" flag="0"/>
      <psa03 value="0.6427917006" flag="0"/>
      <psa10 value="0.0730223137" flag="0"/>
      <psa30 value="0.0029521214" flag="0"/>
    </comp>
    <comp name="--.HHN">
      <acc value="0.4965431533" flag="0"/>
      <vel value="0.1971165109" flag="0"/>
      <psa03 value="0.8434085620" flag="0"/>
      <psa10 value="0.1620019446" flag="0"/>
      <psa30 value="0.0102847781" flag="0"/>
    </comp>
    <comp name="--.HHZ">
      <acc value="0.3776882619" flag="0"/>
      <vel value="0.1196544793" flag="0"/>
      <psa03 value="1.1781309052" flag="0"/>
      <psa10 value="0.0423751393" flag="0"/>
      <psa30 value="0.0048402640" flag="0"/>
    </comp>
  </station>
  <station code="RODB" name="RODB" netid="HL" insttype="CMG-5" lat="36.4471" lon="28.2212">
    <comp name="00.HNE">
      <acc value="0.0735294841" flag="0"/>
      <vel value="0.0405401933" flag="0"/>
      <psa03 value="0.2982943063" flag="0"/>
      <psa10 value="0.0446369934" flag="0"/>
      <psa30 value="0.0098141067" flag="0"/>
    </comp>
    <comp name="00.HNN">
      <acc value="0.0491608306" flag="0"/>
      <vel value="0.0411031505" flag="0"/>
      <psa03 value="0.1621283036" flag="0"/>
      <psa10 value="0.0555938776" flag="0"/>
      <psa30 value="0.0126547686" flag="0"/>
    </comp>
    <comp name="00.HNZ">
      <acc value="0.0829506729" flag="0"/>
      <vel value="0.0403179912" flag="0"/>
      <psa03 value="0.1554136877" flag="0"/>
      <psa10 value="0.0431517528" flag="0"/>
      <psa30 value="0.0040895031" flag="0"/>
    </comp>
  </station>
  <station code="SMG" name="SMG" netid="HL" insttype="120" lat="37.7043" lon="26.8377">
    <comp name="--.HHE">
      <acc value="0.0336951844" flag="0"/>
      <vel value="0.0216417748" flag="0"/>
      <psa03 value="0.1056272645" flag="0"/>
      <psa10 value="0.0144638378" flag="0"/>
      <psa30 value="0.0014823233" flag="0"/>
    </comp>
    <comp name="--.HHN">
      <acc value="0.0460485497" flag="0"/>
      <vel value="0.0270546576" flag="0"/>
      <psa03 value="0.1751426447" flag="0"/>
      <psa10 value="0.0309009941" flag="0"/>
      <psa30 value="0.0024423407" flag="0"/>
    </comp>
    <comp name="--.HHZ">
      <acc value="0.0739457447" flag="0"/>
      <vel value="0.0443938475" flag="0"/>
      <psa03 value="0.1805828850" flag="0"/>
      <psa10 value="0.0338231263" flag="0"/>
      <psa30 value="0.0031476200" flag="0"/>
    </comp>
  </station>
  <station code="THERA" name="THERA" netid="HL" insttype="120" lat="36.367" lon="25.4753">
    <comp name="--.HHZ">
      <acc value="0.0787150859" flag="0"/>
      <vel value="0.0419237503" flag="0"/>
      <psa03 value="0.2408251162" flag="0"/>
      <psa10 value="0.0180490338" flag="0"/>
      <psa30 value="0.0044098151" flag="0"/>
    </comp>
    <comp name="--.HHN">
      <acc value="0.0499416274" flag="0"/>
      <vel value="0.0372454652" flag="0"/>
      <psa03 value="0.1913648431" flag="0"/>
      <psa10 value="0.0233238588" flag="0"/>
      <psa30 value="0.0024131933" flag="0"/>
    </comp>
    <comp name="--.HHE">
      <acc value="0.0746441422" flag="0"/>
      <vel value="0.0679095229" flag="0"/>
      <psa03 value="0.2092722641" flag="0"/>
      <psa10 value="0.0670420979" flag="0"/>
      <psa30 value="0.0063494833" flag="0"/>
    </comp>
  </station>
  <station code="THRA" name="THRA" netid="HL" insttype="CMG-5" lat="36.415" lon="25.4324">
    <comp name="00.HNZ">
      <acc value="0.1314174674" flag="0"/>
      <vel value="0.0774702295" flag="0"/>
      <psa03 value="0.3181291472" flag="0"/>
      <psa10 value="0.0574659286" flag="0"/>
      <psa30 value="0.0044989846" flag="0"/>
    </comp>
    <comp name="00.HNE">
      <acc value="0.2715295864" flag="0"/>
      <vel value="0.1690221909" flag="0"/>
      <psa03 value="0.6925538139" flag="0"/>
      <psa10 value="0.2073814589" flag="0"/>
      <psa30 value="0.0389407323" flag="0"/>
    </comp>
    <comp name="00.HNN">
      <acc value="0.1888534968" flag="0"/>
      <vel value="0.1446091316" flag="0"/>
      <psa03 value="0.6114960334" flag="0"/>
      <psa10 value="0.1165554055" flag="0"/>
      <psa30 value="0.0187807592" flag="0"/>
    </comp>
  </station>
  <station code="CMBO" name="CMBO" netid="HT" insttype="120P," lat="36.4709" lon="25.4056">
    <comp name="--.HHN">
      <acc value="0.4805511196" flag="0"/>
      <vel value="0.3789824154" flag="0"/>
      <psa03 value="0.9767329393" flag="0"/>
      <psa10 value="0.2814246488" flag="0"/>
      <psa30 value="0.0300493646" flag="0"/>
    </comp>
  </station>
