<?xml version="1.0" encoding="UTF-8" standalone="yes"?>
<!DOCTYPE earthquake SYSTEM "stationlist.dtd">
<stationlist created="" xmlns="ch.ethz.sed.shakemap.usgs.xml">
  <station code="APE" name="APE" netid="GE" insttype="STS-2/N" lat="37.0727" lon="25.523">
    <comp name="--.HHE">
      <acc value="0.0288019762" flag="0"/>
      <vel value="0.0343116385" flag="0"/>
      <psa03 value="0.0513088546" flag="0"/>
      <psa10 value="0.0290692361" flag="0"/>
      <psa30 value="0.0090998544" flag="0"/>
    </comp>
    <comp name="--.HHN">
      <acc value="0.0415376593" flag="0"/>
      <vel value="0.0629937018" flag="0"/>
      <psa03 value="0.0752107091" flag="0"/>
      <psa10 value="0.0713723838" flag="0"/>
      <psa30 value="0.0095578127" flag="0"/>
    </comp>
    <comp name="--.HHZ">
      <acc value="0.0176430321" flag="0"/>
      <vel value="0.0184225630" flag="0"/>
      <psa03 value="0.0338341015" flag="0"/>
      <psa10 value="0.0277107743" flag="0"/>
      <psa30 value="0.0025793959" flag="0"/>
    </comp>
  </station>
  <station code="THERA" name="THERA" netid="GE" insttype="STS-2/N" lat="36.367" lon="25.4753">
    <comp name="--.HHE">
      <acc value="0.0761872442" flag="0"/>
      <vel value="0.0690339655" flag="0"/>
      <psa03 value="0.2154112210" flag="0"/>
      <psa10 value="0.0673698854" flag="0"/>
      <psa30 value="0.0063574001" flag="0"/>
    </comp>
    <comp name="--.HHN">
      <acc value="0.0504772724" flag="0"/>
      <vel value="0.0377527749" flag="0"/>
      <psa03 value="0.1968340628" flag="0"/>
      <psa10 value="0.0236499491" flag="0"/>
      <psa30 value="0.0024384857" flag="0"/>
    </comp>
    <comp name="--.HHZ">
      <acc value="0.0807819986" flag="0"/>
      <vel value="0.0430216262" flag="0"/>
      <psa03 value="0.2480998949" flag="0"/>
      <psa10 value="0.0183943107" flag="0"/>
      <psa30 value="0.0044131247" flag="0"/>
    </comp>
  </station>
  <station code="BODA" name="BODA" netid="KO" insttype="ACEBOX" lat="37.0348" lon="27.4304">
    <comp name="--.HNN">
      <acc value="0.0506700033" flag="0"/>
      <vel value="0.0777233582" flag="0"/>
      <psa03 value="0.0961436817" flag="0"/>
      <psa10 value="0.1004181848" flag="0"/>
      <psa30 value="0.0096272671" flag="0"/>
    </comp>
    <comp name="--.HNE">
      <acc value="0.0470076702" flag="0"/>
      <vel value="0.0604103517" flag="0"/>
      <psa03 value="0.1122723978" flag="0"/>
      <psa10 value="0.0709945864" flag="0"/>
      <psa30 value="0.0094769784" flag="0"/>
    </comp>
    <comp name="--.HNZ">
      <acc value="0.0480372157" flag="0"/>
      <vel value="0.0243393580" flag="0"/>
      <psa03 value="0.1099307187" flag="0"/>
      <psa10 value="0.0221891512" flag="0"/>
      <psa30 value="0.0027422742" flag="0"/>
    </comp>
  </station>
  <station code="BODT" name="BODT" netid="KO" insttype="CMG-3ESP" lat="37.0622" lon="27.3103">
    <comp name="--.HHE">
      <acc value="0.0341542446" flag="0"/>
      <vel value="0.0389890865" flag="0"/>
      <psa03 value="0.0658956086" flag="0"/>
      <psa10 value="0.0304085542" flag="0"/>
      <psa30 value="0.0116199191" flag="0"/>
    </comp>
    <comp name="--.HHN">
      <acc value="0.0509056363" flag="0"/>
      <vel value="0.0723316593" flag="0"/>
      <psa03 value="0.1430802658" flag="0"/>
      <psa10 value="0.0953010841" flag="0"/>
      <psa30 value="0.0119386052" flag="0"/>
    </comp>
    <comp name="--.HHZ">
      <acc value="0.0710111619" flag="0"/>
      <vel value="0.0409247607" flag="0"/>
      <psa03 value="0.1556432077" flag="0"/>
      <psa10 value="0.0298811282" flag="0"/>
      <psa30 value="0.0034334520" flag="0"/>
    </comp>
  </station>
  <station code="DAT" name="DAT" netid="KO" insttype="CMG-3T" lat="36.7308" lon="27.5767">
    <comp name="--.HHE">
      <acc value="0.0451326683" flag="0"/>
      <vel value="0.0688226896" flag="0"/>
      <psa03 value="0.0937957210" flag="0"/>
      <psa10 value="0.0632722123" flag="0"/>
      <psa30 value="0.0128715581" flag="0"/>
    </comp>
    <comp name="--.HHN">
      <acc value="0.0496963834" flag="0"/>
      <vel value="0.0553891323" flag="0"/>
      <psa03 value="0.1121444046" flag="0"/>
      <psa10 value="0.0602956967" flag="0"/>
      <psa30 value="0.0101963833" flag="0"/>
    </comp>
    <comp name="--.HHZ">
      <acc value="0.0000312165" flag="0"/>
      <vel value="0.0000040937" flag="0"/>
      <psa03 value="0.0000136760" flag="0"/>
      <psa10 value="0.0000033646" flag="0"/>
      <psa30 value="0.0000009768" flag="0"/>
    </comp>
  </station>
  <station code="MLSB" name="MLSB" netid="KO" insttype="CMG-3ESP" lat="37.2953" lon="27.7767">
    <comp name="--.HHZ">
      <acc value="0.0078890502" flag="0"/>
      <vel value="0.0168288784" flag="0"/>
      <psa03 value="0.0227947413" flag="0"/>
      <psa10 value="0.0239456449" flag="0"/>
      <psa30 value="0.0042520345" flag="0"/>
    </comp>
    <comp name="--.HHN">
      <acc value="0.0216235248" flag="0"/>
      <vel value="0.0359776396" flag="0"/>
      <psa03 value="0.0245729245" flag="0"/>
      <psa10 value="0.0502075397" flag="0"/>
      <psa30 value="0.0075258324" flag="0"/>
    </comp>
  </station>
  <station code="YKAV" name="YKAV" netid="KO" insttype="CMG-5T" lat="37.1246" lon="27.2801">
    <comp name="--.HNE">
      <acc value="0.0236852952" flag="0"/>
      <vel value="0.0220097125" flag="0"/>
      <psa03 value="0.0716577933" flag="0"/>
      <psa10 value="0.0363205516" flag="0"/>
      <psa30 value="0.0057378168" flag="0"/>
    </comp>
    <comp name="--.HNN">
      <acc value="0.0429754307" flag="0"/>
      <vel value="0.0677737659" flag="0"/>
      <psa03 value="0.0524120478" flag="0"/>
      <psa10 value="0.0828110851" flag="0"/>
      <psa30 value="0.0142383420" flag="0"/>
    </comp>
    <comp name="--.HNZ">
      <acc value="0.0334294894" flag="0"/>
      <vel value="0.0230503346" flag="0"/>
      <psa03 value="0.0587521258" flag="0"/>
      <psa10 value="0.0334466249" flag="0"/>
      <psa30 value="0.0032866074" flag="0"/>
    </comp>
  </station>
</stationlist>
