<?xml version="1.0" encoding="UTF-8" standalone="yes"?>
<!DOCTYPE earthquake SYSTEM "stationlist.dtd">
<stationlist created="" xmlns="ch.ethz.sed.shakemap.usgs.xml">
  <station code="BAC" name="BAC" netid="RO" insttype="2.5V" commtype="DIG" lat="46.5669" lon="26.9124">
    <comp name="--.HNN">
      <acc value="0.0311644093" flag="0"/>
      <vel value="0.0090898734" flag="0"/>
      <psa03 value="0.0278135946" flag="0"/>
      <psa10 value="0.0045952170" flag="0"/>
      <psa30 value="0.0004092963" flag="0"/>
    </comp>
    <comp name="--.HNE">
      <acc value="0.0356151896" flag="0"/>
      <vel value="0.0130813964" flag="0"/>
      <psa03 value="0.0540238343" flag="0"/>
      <psa10 value="0.0032850001" flag="0"/>
      <psa30 value="0.0003068461" flag="0"/>
    </comp>
    <comp name="--.HNZ">
      <acc value="0.0307285236" flag="0"/>
      <vel value="0.0048851013" flag="0"/>
      <psa03 value="0.0181985750" flag="0"/>
      <psa10 value="0.0010924662" flag="0"/>
      <psa30 value="0.0000953377" flag="0"/>
    </comp>
  </station>
  <station code="BIR" name="BIR" netid="RO" insttype="MBB2/Quanterra" commtype="DIG" lat="46.2334" lon="27.6436">
    <comp name="--.HHE">
      <acc value="0.0776862121" flag="0"/>
      <vel value="0.0158459989" flag="0"/>
      <psa03 value="0.0541594193" flag="0"/>
      <psa10 value="0.0038205700" flag="0"/>
      <psa30 value="0.0004943608" flag="0"/>
    </comp>
    <comp name="--.HHN">
      <acc value="0.0565275339" flag="0"/>
      <vel value="0.0095585645" flag="0"/>
      <psa03 value="0.0294886135" flag="0"/>
      <psa10 value="0.0043898547" flag="0"/>
      <psa30 value="0.0002647593" flag="0"/>
    </comp>
    <comp name="--.HHZ">
      <acc value="0.0496994571" flag="0"/>
      <vel value="0.0083702298" flag="0"/>
      <psa03 value="0.0231842585" flag="0"/>
      <psa10 value="0.0014646490" flag="0"/>
      <psa30 value="0.0001900488" flag="0"/>
    </comp>
  </station>
  <station code="BISRR" name="BISRR" netid="RO" insttype="CMG40T.1to100/Basalt" commtype="DIG" lat="45.5481" lon="26.7099">
    <comp name="--.HHZ">
      <acc value="0.0528888337" flag="0"/>
      <vel value="0.0101162840" flag="0"/>
      <psa03 value="0.0417737418" flag="0"/>
      <psa10 value="0.0093000095" flag="0"/>
      <psa30 value="0.0005391840" flag="0"/>
    </comp>
    <comp name="--.HHN">
      <acc value="0.0452304239" flag="0"/>
      <vel value="0.0208288543" flag="0"/>
      <psa03 value="0.1124929731" flag="0"/>
      <psa10 value="0.0259613803" flag="0"/>
      <psa30 value="0.0010013718" flag="0"/>
    </comp>
    <comp name="--.HHE">
      <acc value="0.0603547109" flag="0"/>
      <vel value="0.0222266429" flag="0"/>
      <psa03 value="0.1291244674" flag="0"/>
      <psa10 value="0.0175712199" flag="0"/>
      <psa30 value="0.0009846085" flag="0"/>
    </comp>
  </station>
  <station code="BOSR" name="BOSR" netid="RO" insttype="Seismometer/Basalt" commtype="DIG" lat="46.0749" lon="25.6611">
    <comp name="--.HHZ">
      <acc value="0.0185591293" flag="0"/>
      <vel value="0.0032400723" flag="0"/>
      <psa03 value="0.0080020784" flag="0"/>
      <psa10 value="0.0007986571" flag="0"/>
      <psa30 value="0.0001022139" flag="0"/>
    </comp>
    <comp name="--.HHN">
      <acc value="0.0000127257" flag="0"/>
      <vel value="0.0000006803" flag="0"/>
      <psa03 value="0.0000016806" flag="0"/>
      <psa10 value="0.0000003291" flag="0"/>
      <psa30 value="0.0000000592" flag="0"/>
    </comp>
    <comp name="--.HHE">
      <acc value="0.0086803654" flag="0"/>
      <vel value="0.0020838112" flag="0"/>
      <psa03 value="0.0141417716" flag="0"/>
      <psa10 value="0.0010528998" flag="0"/>
      <psa30 value="0.0000728736" flag="0"/>
    </comp>
  </station>
  <station code="CFR" name="CFR" netid="RO" insttype="CMG3T_100sec/Quanterra" commtype="DIG" lat="45.178" lon="28.1362">
    <comp name="--.HHE">
      <acc value="0.0554056554" flag="0"/>
      <vel value="0.0094371996" flag="0"/>
      <psa03 value="0.0259830623" flag="0"/>
      <psa10 value="0.0015794725" flag="0"/>
      <psa30 value="0.0001232365" flag="0"/>
    </comp>
    <comp name="--.HHN">
      <acc value="0.0955673201" flag="0"/>
      <vel value="0.0159009589" flag="0"/>
      <psa03 value="0.0248050545" flag="0"/>
      <psa10 value="0.0013269045" flag="0"/>
      <psa30 value="0.0001920711" flag="0"/>
    </comp>
    <comp name="--.HHZ">
      <acc value="0.0319209139" flag="0"/>
      <vel value="0.0051100787" flag="0"/>
      <psa03 value="0.0152520634" flag="0"/>
      <psa10 value="0.0008981868" flag="0"/>
      <psa30 value="0.0000810091" flag="0"/>
    </comp>
  </station>
  <station code="DOPR" name="DOPR" netid="RO" insttype="330" commtype="DIG" lat="45.9675" lon="25.3886">
    <comp name="--.HHE">
      <acc value="0.0201395095" flag="0"/>
      <vel value="0.0042232834" flag="0"/>
      <psa03 value="0.0139923141" flag="0"/>
      <psa10 value="0.0008578952" flag="0"/>
      <psa30 value="0.0000697137" flag="0"/>
    </comp>
    <comp name="--.HHN">
      <acc value="0.0225402589" flag="0"/>
      <vel value="0.0049408636" flag="0"/>
      <psa03 value="0.0238667654" flag="0"/>
      <psa10 value="0.0014245945" flag="0"/>
      <psa30 value="0.0001020534" flag="0"/>
    </comp>
    <comp name="--.HHZ">
      <acc value="0.0254420815" flag="0"/>
      <vel value="0.0055033368" flag="0"/>
      <psa03 value="0.0188335433" flag="0"/>
      <psa10 value="0.0015647690" flag="0"/>
      <psa30 value="0.0001707248" flag="0"/>
    </comp>
  </station>
  <station code="GISR" name="GISR" netid="RO" insttype="2.5V" commtype="DIG" lat="45.4411" lon="28.0541">
    <comp name="--.HNE">
      <acc value="0.0643546581" flag="0"/>
      <vel value="0.0173064532" flag="0"/>
      <psa03 value="0.1031252171" flag="0"/>
      <psa10 value="0.0075393767" flag="0"/>
      <psa30 value="0.0008154957" flag="0"/>
    </comp>
    <comp name="--.HNZ">
      <acc value="0.0710155670" flag="0"/>
      <vel value="0.0115563335" flag="0"/>
      <psa03 value="0.0469826899" flag="0"/>
      <psa10 value="0.0028042106" flag="0"/>
      <psa30 value="0.0004576622" flag="0"/>
    </comp>
    <comp name="--.HNN">
      <acc value="0.0451895014" flag="0"/>
      <vel value="0.0152464535" flag="0"/>
      <psa03 value="0.0625945982" flag="0"/>
      <psa10 value="0.0091445251" flag="0"/>
      <psa30 value="0.0009934207" flag="0"/>
    </comp>
  </station>
  <station code="GIUM" name="GIUM" netid="RO" insttype="2.5V" commtype="DIG" lat="45.485" lon="28.2081">
    <comp name="--.HNE">
      <acc value="0.0467322554" flag="0"/>
      <vel value="0.0101116481" flag="0"/>
      <psa03 value="0.0360396826" flag="0"/>
      <psa10 value="0.0035419238" flag="0"/>
      <psa30 value="0.0008703693" flag="0"/>
    </comp>
    <comp name="--.HNN">
      <acc value="0.0380346318" flag="0"/>
      <vel value="0.0112270160" flag="0"/>
      <psa03 value="0.0419262375" flag="0"/>
      <psa10 value="0.0032361848" flag="0"/>
      <psa30 value="0.0006236594" flag="0"/>
    </comp>
    <comp name="--.HNZ">
      <acc value="0.0512282992" flag="0"/>
      <vel value="0.0057650997" flag="0"/>
      <psa03 value="0.0251099258" flag="0"/>
      <psa10 value="0.0013561494" flag="0"/>
      <psa30 value="0.0006055018" flag="0"/>
    </comp>
  </station>
  <station code="ISR" name="ISR" netid="RO" insttype="CMG3ESP/Quanterra" commtype="DIG" lat="45.1187" lon="26.5432">
    <comp name="--.HHE">
      <acc value="0.0387857587" flag="0"/>
      <vel value="0.0106317466" flag="0"/>
      <psa03 value="0.0426066510" flag="0"/>
      <psa10 value="0.0061013843" flag="0"/>
      <psa30 value="0.0004289413" flag="0"/>
    </comp>
    <comp name="--.HHN">
      <acc value="0.0370271275" flag="0"/>
      <vel value="0.0128182356" flag="0"/>
      <psa03 value="0.0798013675" flag="0"/>
      <psa10 value="0.0074330347" flag="0"/>
      <psa30 value="0.0004912143" flag="0"/>
    </comp>
    <comp name="--.HHZ">
      <acc value="0.0239164881" flag="0"/>
      <vel value="0.0064681175" flag="0"/>
      <psa03 value="0.0279467928" flag="0"/>
      <psa10 value="0.0049337419" flag="0"/>
      <psa30 value="0.0002522892" flag="0"/>
    </comp>
  </station>
  <station code="MLR" name="MLR" netid="RO" insttype="330HR" commtype="DIG" lat="45.4909" lon="25.945">
    <comp name="--.HHE">
      <acc value="0.0103271764" flag="0"/>
      <vel value="0.0072435225" flag="0"/>
      <psa03 value="0.0340002981" flag="0"/>
      <psa10 value="0.0058605515" flag="0"/>
      <psa30 value="0.0003852260" flag="0"/>
    </comp>
    <comp name="--.HHZ">
      <acc value="0.0064986139" flag="0"/>
      <vel value="0.0035999745" flag="0"/>
      <psa03 value="0.0149995006" flag="0"/>
      <psa10 value="0.0032376938" flag="0"/>
      <psa30 value="0.0002308245" flag="0"/>
    </comp>
    <comp name="--.HHN">
      <acc value="0.0109496443" flag="0"/>
      <vel value="0.0066868646" flag="0"/>
      <psa03 value="0.0288371673" flag="0"/>
      <psa10 value="0.0044118914" flag="0"/>
      <psa30 value="0.0004780158" flag="0"/>
    </comp>
  </station>
  <station code="NARR" name="NARR" netid="RO" insttype="OBS-SIO/Centaur" commtype="DIG" lat="45.8165" lon="26.7368">
    <comp name="--.HHN">
      <acc value="0.0469468728" flag="0"/>
      <vel value="0.0180237253" flag="0"/>
      <psa03 value="0.1141747390" flag="0"/>
      <psa10 value="0.0059813537" flag="0"/>
      <psa30 value="0.0006292333" flag="0"/>
    </comp>
    <comp name="--.HHE">
      <acc value="0.0581329533" flag="0"/>
      <vel value="0.0170729079" flag="0"/>
      <psa03 value="0.0888163918" flag="0"/>
      <psa10 value="0.0058844285" flag="0"/>
      <psa30 value="0.0007237300" flag="0"/>
    </comp>
    <comp name="--.HHZ">
      <acc value="0.0421638523" flag="0"/>
      <vel value="0.0085706962" flag="0"/>
      <psa03 value="0.0419395166" flag="0"/>
      <psa10 value="0.0027168432" flag="0"/>
      <psa30 value="0.0001636506" flag="0"/>
    </comp>
  </station>
  <station code="NEGRR" name="NEGRR" netid="RO" insttype="CMG40T.1to100/Quanterra" commtype="DIG" lat="45.5373" lon="27.8771">
    <comp name="--.HHE">
      <acc value="0.0719967300" flag="0"/>
      <vel value="0.0107082947" flag="0"/>
      <psa03 value="0.0498408948" flag="0"/>
      <psa10 value="0.0035445834" flag="0"/>
      <psa30 value="0.0004091555" flag="0"/>
    </comp>
    <comp name="--.HHN">
      <acc value="0.0859317445" flag="0"/>
      <vel value="0.0132205446" flag="0"/>
      <psa03 value="0.0204207015" flag="0"/>
      <psa10 value="0.0057411213" flag="0"/>
      <psa30 value="0.0003224269" flag="0"/>
    </comp>
    <comp name="--.HHZ">
      <acc value="0.0327276470" flag="0"/>
      <vel value="0.0040002934" flag="0"/>
      <psa03 value="0.0162865966" flag="0"/>
      <psa10 value="0.0010602704" flag="0"/>
      <psa30 value="0.0001312948" flag="0"/>
    </comp>
  </station>
  <station code="NEHR" name="NEHR" netid="RO" insttype="Seismometer/Basalt" commtype="DIG" lat="45.4272" lon="26.2952">
    <comp name="--.HHE">
      <acc value="0.0027631114" flag="0"/>
      <vel value="0.0011277526" flag="0"/>
      <psa03 value="0.0110347522" flag="0"/>
      <psa10 value="0.0005122675" flag="0"/>
      <psa30 value="0.0000459115" flag="0"/>
    </comp>
    <comp name="--.HHN">
      <acc value="0.0043930816" flag="0"/>
      <vel value="0.0017473438" flag="0"/>
      <psa03 value="0.0113850134" flag="0"/>
      <psa10 value="0.0005507588" flag="0"/>
      <psa30 value="0.0000465780" flag="0"/>
    </comp>
    <comp name="--.HHZ">
      <acc value="0.0022163856" flag="0"/>
      <vel value="0.0006929168" flag="0"/>
      <psa03 value="0.0040854554" flag="0"/>
      <psa10 value="0.0002557248" flag="0"/>
      <psa30 value="0.0000165108" flag="0"/>
    </comp>
  </station>
  <station code="ODBI" name="ODBI" netid="RO" insttype="200" commtype="DIG" lat="45.7633" lon="27.0558">
    <comp name="--.HNE">
      <acc value="0.0419296821" flag="0"/>
      <vel value="0.0099311749" flag="0"/>
      <psa03 value="0.0506052409" flag="0"/>
      <psa10 value="0.0064063727" flag="0"/>
      <psa30 value="0.0005502041" flag="0"/>
    </comp>
    <comp name="--.HNN">
      <acc value="0.0376219126" flag="0"/>
      <vel value="0.0156790470" flag="0"/>
      <psa03 value="0.0716548448" flag="0"/>
      <psa10 value="0.0044851807" flag="0"/>
      <psa30 value="0.0006780620" flag="0"/>
    </comp>
    <comp name="--.HNZ">
      <acc value="0.0711801494" flag="0"/>
      <vel value="0.0086467182" flag="0"/>
      <psa03 value="0.0272986040" flag="0"/>
      <psa10 value="0.0028405543" flag="0"/>
      <psa30 value="0.0001799225" flag="0"/>
    </comp>
  </station>
  <station code="ONER" name="ONER" netid="RO" insttype="CMG40T.1to100/obsidian" commtype="DIG" lat="46.3349" lon="26.394">
    <comp name="--.HHE">
      <acc value="0.0046308169" flag="0"/>
      <vel value="0.0018275683" flag="0"/>
      <psa03 value="0.0055290990" flag="0"/>
      <psa10 value="0.0011229365" flag="0"/>
      <psa30 value="0.0000804617" flag="0"/>
    </comp>
    <comp name="--.HHN">
      <acc value="0.0056973497" flag="0"/>
      <vel value="0.0014679590" flag="0"/>
      <psa03 value="0.0053889738" flag="0"/>
      <psa10 value="0.0011511186" flag="0"/>
      <psa30 value="0.0000567269" flag="0"/>
    </comp>
    <comp name="--.HHZ">
      <acc value="0.0056943398" flag="0"/>
      <vel value="0.0015208767" flag="0"/>
      <psa03 value="0.0064252383" flag="0"/>
      <psa10 value="0.0005625455" flag="0"/>
      <psa30 value="0.0000416883" flag="0"/>
    </comp>
  </station>
  <station code="PANC" name="PANC" netid="RO" insttype="Seismometer/Basalt" commtype="DIG" lat="45.8723" lon="27.1477">
    <comp name="--.HHE">
      <acc value="0.0562303612" flag="0"/>
      <vel value="0.0132126116" flag="0"/>
      <psa03 value="0.0594002844" flag="0"/>
      <psa10 value="0.0048353727" flag="0"/>
      <psa30 value="0.0003544516" flag="0"/>
    </comp>
    <comp name="--.HHN">
      <acc value="0.0499943550" flag="0"/>
      <vel value="0.0086624128" flag="0"/>
      <psa03 value="0.0376573971" flag="0"/>
      <psa10 value="0.0030816073" flag="0"/>
      <psa30 value="0.0003814256" flag="0"/>
    </comp>
    <comp name="--.HHZ">
      <acc value="0.0468883094" flag="0"/>
      <vel value="0.0060413674" flag="0"/>
      <psa03 value="0.0152272894" flag="0"/>
      <psa10 value="0.0011263206" flag="0"/>
      <psa30 value="0.0000840374" flag="0"/>
    </comp>
  </station>
  <station code="PGOR" name="PGOR" netid="RO" insttype="CMG40T.1to100/Quanterra" commtype="DIG" lat="44.9199" lon="26.9768">
    <comp name="--.HHE">
      <acc value="0.1013762750" flag="0"/>
      <vel value="0.0178445713" flag="0"/>
      <psa03 value="0.0412967625" flag="0"/>
      <psa10 value="0.0069351351" flag="0"/>
      <psa30 value="0.0005605339" flag="0"/>
    </comp>
    <comp name="--.HHZ">
      <acc value="0.0917208500" flag="0"/>
      <vel value="0.0158242204" flag="0"/>
      <psa03 value="0.0165488140" flag="0"/>
      <psa10 value="0.0013938695" flag="0"/>
      <psa30 value="0.0001343602" flag="0"/>
    </comp>
    <comp name="--.HHN">
      <acc value="0.0674321094" flag="0"/>
      <vel value="0.0172650282" flag="0"/>
      <psa03 value="0.0272505688" flag="0"/>
      <psa10 value="0.0039474098" flag="0"/>
      <psa30 value="0.0004717414" flag="0"/>
    </comp>
  </station>
  <station code="PLAR" name="PLAR" netid="RO" insttype="200" commtype="DIG" lat="44.9142" lon="26.0274">
    <comp name="--.HNZ">
      <acc value="0.0330070977" flag="0"/>
      <vel value="0.0048980596" flag="0"/>
      <psa03 value="0.0170107300" flag="0"/>
      <psa10 value="0.0015670101" flag="0"/>
      <psa30 value="0.0001616960" flag="0"/>
    </comp>
    <comp name="--.HNE">
      <acc value="0.1229234855" flag="0"/>
      <vel value="0.0308161653" flag="0"/>
      <psa03 value="0.1355141842" flag="0"/>
      <psa10 value="0.0084941815" flag="0"/>
      <psa30 value="0.0008473463" flag="0"/>
    </comp>
    <comp name="--.HNN">
      <acc value="0.0387349842" flag="0"/>
      <vel value="0.0151677798" flag="0"/>
      <psa03 value="0.0969658361" flag="0"/>
      <psa10 value="0.0050583184" flag="0"/>
      <psa30 value="0.0006298691" flag="0"/>
    </comp>
  </station>
  <station code="PLOR" name="PLOR" netid="RO" insttype="MBB2/Quanterra" commtype="DIG" lat="45.8512" lon="26.6498">
    <comp name="--.HHZ">
      <acc value="0.0159288587" flag="0"/>
      <vel value="0.0048039570" flag="0"/>
      <psa03 value="0.0181749494" flag="0"/>
      <psa10 value="0.0022377322" flag="0"/>
      <psa30 value="0.0001148155" flag="0"/>
    </comp>
    <comp name="--.HHE">
      <acc value="0.0311728701" flag="0"/>
      <vel value="0.0119692301" flag="0"/>
      <psa03 value="0.0657405535" flag="0"/>
      <psa10 value="0.0074763975" flag="0"/>
      <psa30 value="0.0004689943" flag="0"/>
    </comp>
    <comp name="--.HHN">
      <acc value="0.0320939699" flag="0"/>
      <vel value="0.0129076277" flag="0"/>
      <psa03 value="0.0738081399" flag="0"/>
      <psa10 value="0.0053884987" flag="0"/>
      <psa30 value="0.0004683566" flag="0"/>
    </comp>
  </station>
  <station code="PLOR4" name="PLOR4" netid="RO" insttype="MBB2/Quanterra" commtype="DIG" lat="45.8512" lon="26.6498">
    <comp name="--.HHE">
      <acc value="0.0311728701" flag="0"/>
      <vel value="0.0119692301" flag="0"/>
      <psa03 value="0.0657405535" flag="0"/>
      <psa10 value="0.0074763975" flag="0"/>
      <psa30 value="0.0004689943" flag="0"/>
    </comp>
    <comp name="--.HHN">
      <acc value="0.0320939699" flag="0"/>
      <vel value="0.0129076277" flag="0"/>
      <psa03 value="0.0738081399" flag="0"/>
      <psa10 value="0.0053884987" flag="0"/>
      <psa30 value="0.0004683566" flag="0"/>
    </comp>
    <comp name="--.HHZ">
      <acc value="0.0159288587" flag="0"/>
      <vel value="0.0048039570" flag="0"/>
      <psa03 value="0.0181749494" flag="0"/>
      <psa10 value="0.0022377322" flag="0"/>
      <psa30 value="0.0001148155" flag="0"/>
    </comp>
  </station>
  <station code="SCHL" name="SCHL" netid="RO" insttype="CMG40T.1to100/Quanterra" commtype="DIG" lat="45.5007" lon="27.8302">
    <comp name="--.HHE">
      <acc value="0.0433647085" flag="0"/>
      <vel value="0.0138229571" flag="0"/>
      <psa03 value="0.0410129423" flag="0"/>
      <psa10 value="0.0061687447" flag="0"/>
      <psa30 value="0.0005525176" flag="0"/>
    </comp>
    <comp name="--.HHZ">
      <acc value="0.0487332948" flag="0"/>
      <vel value="0.0058302482" flag="0"/>
      <psa03 value="0.0116537397" flag="0"/>
      <psa10 value="0.0015997923" flag="0"/>
      <psa30 value="0.0000973202" flag="0"/>
    </comp>
    <comp name="--.HHN">
      <acc value="0.0659324758" flag="0"/>
      <vel value="0.0228493002" flag="0"/>
      <psa03 value="0.0919604772" flag="0"/>
      <psa10 value="0.0099546185" flag="0"/>
      <psa30 value="0.0009175437" flag="0"/>
    </comp>
  </station>
  <station code="SCTR" name="SCTR" netid="RO" insttype="MBB2/Basalt" commtype="DIG" lat="45.6741" lon="27.9949">
    <comp name="--.HHE">
      <acc value="0.0592359559" flag="0"/>
      <vel value="0.0107825908" flag="0"/>
      <psa03 value="0.0428157498" flag="0"/>
      <psa10 value="0.0027898670" flag="0"/>
      <psa30 value="0.0002138830" flag="0"/>
    </comp>
    <comp name="--.HHN">
      <acc value="0.0403082601" flag="0"/>
      <vel value="0.0136100818" flag="0"/>
      <psa03 value="0.0417048954" flag="0"/>
      <psa10 value="0.0071867265" flag="0"/>
      <psa30 value="0.0003726728" flag="0"/>
    </comp>
    <comp name="--.HHZ">
      <acc value="0.0271139865" flag="0"/>
      <vel value="0.0057408506" flag="0"/>
      <psa03 value="0.0170739055" flag="0"/>
      <psa10 value="0.0022205981" flag="0"/>
      <psa30 value="0.0002331292" flag="0"/>
