<stationlist xmlns:esm="https://esm-db.eu/esmws/shakemap/1/" created="1781574895">
	<station code="KIS" name="KIS" netid="MD" source="Moldova Digital Seismic Network" insttype="" lat="46.9975" lon="28.8175" esm:processing="automatic (Paolucci et al 2011)" esm:quality="best">
		<comp name="--.HNE" depth="0.0">
			<acc value="0.0119633495134795" flag="0"/>
			<vel value="0.00369543243811482" flag="0"/>
			<psa03 value="0.0200162426445009" flag="0"/>
			<psa10 value="0.0017022043642465" flag="0"/>
			<psa30 value="0.000137941716086913" flag="0"/>
		</comp>
		<comp name="--.HNN" depth="0.0">
			<acc value="0.00747094512469757" flag="0"/>
			<vel value="0.00231017263453167" flag="0"/>
			<psa03 value="0.0120757687104286" flag="0"/>
			<psa10 value="0.00134938978107656" flag="0"/>
			<psa30 value="0.000126366821702432" flag="0"/>
		</comp>
		<comp name="--.HNZ" depth="0.0">
			<acc value="0.00872648026946475" flag="0"/>
			<vel value="0.0015640410531222" flag="0"/>
			<psa03 value="0.00430556972807101" flag="0"/>
			<psa10 value="0.000505406156457199" flag="0"/>
			<psa30 value="5.69641121346079e-05" flag="0"/>
		</comp>
	</station>
	<station code="AMRR" name="AMRR" netid="RO" source="Romanian Seismic Network (NIEP)" insttype="" lat="44.6102" lon="27.3351" esm:processing="manual (Paolucci et al 2011)" esm:quality="good">
		<comp name="--.HNE" depth="0.0">
			<acc value="0.0282112838001917" flag="0"/>
			<vel value="0.00903346011026816" flag="0"/>
			<psa03 value="0.0349187012134166" flag="0"/>
			<psa10 value="0.00334097772962792" flag="0"/>
			<psa30 value="0.000325586802902795" flag="0"/>
		</comp>
		<comp name="--.HNN" depth="0.0">
			<acc value="0.0311803860555777" flag="0"/>
			<vel value="0.0107119344648415" flag="0"/>
			<psa03 value="0.0348472667937369" flag="0"/>
			<psa10 value="0.00365092310573795" flag="0"/>
			<psa30 value="0.000290669359585208" flag="0"/>
		</comp>
		<comp name="--.HNZ" depth="0.0">
			<acc value="0.10521113963883" flag="0"/>
			<vel value="0.0154281445117202" flag="0"/>
			<psa03 value="0.0191733039914584" flag="0"/>
			<psa10 value="0.00193069188323692" flag="0"/>
			<psa30 value="0.000200982910485613" flag="0"/>
		</comp>
	</station>
	<station code="BAC" name="BAC" netid="RO" source="Romanian Seismic Network (NIEP)" insttype="" lat="46.5669" lon="26.9124" esm:processing="manual (Paolucci et al 2011)" esm:quality="good">
		<comp name="--.HNE" depth="0.0">
			<acc value="0.0352836567302003" flag="0"/>
			<vel value="0.0132209350534339" flag="0"/>
			<psa03 value="0.0543425113830911" flag="0"/>
			<psa10 value="0.00330254846512734" flag="0"/>
			<psa30 value="0.00031494234776004" flag="0"/>
		</comp>
		<comp name="--.HNN" depth="0.0">
			<acc value="0.0315581673316611" flag="0"/>
			<vel value="0.0090823120417095" flag="0"/>
			<psa03 value="0.0281804501498352" flag="0"/>
			<psa10 value="0.00461246664703114" flag="0"/>
			<psa30 value="0.000420673258163876" flag="0"/>
		</comp>
		<comp name="--.HNZ" depth="0.0">
			<acc value="0.0299254217287436" flag="0"/>
			<vel value="0.00493570834948624" flag="0"/>
			<psa03 value="0.0186705428214118" flag="0"/>
			<psa10 value="0.00110237767555001" flag="0"/>
			<psa30 value="9.5420292480227e-05" flag="0"/>
		</comp>
	</station>
	<station code="CHLR" name="CHLR" netid="RO" source="Romanian Seismic Network (NIEP)" insttype="" lat="45.4245" lon="29.289" esm:processing="automatic (Paolucci et al 2011)" esm:quality="best">
		<comp name="--.HNE" depth="0.0">
			<acc value="0.0172130478618961" flag="0"/>
			<vel value="0.00567677112280806" flag="0"/>
			<psa03 value="0.0228249912103151" flag="0"/>
			<psa10 value="0.00268132965618044" flag="0"/>
			<psa30 value="0.000565558923836418" flag="0"/>
		</comp>
		<comp name="--.HNN" depth="0.0">
			<acc value="0.0185927087709806" flag="0"/>
			<vel value="0.00488031328320499" flag="0"/>
			<psa03 value="0.0317898481089207" flag="0"/>
			<psa10 value="0.00276801149217666" flag="0"/>
			<psa30 value="0.000582222423544827" flag="0"/>
		</comp>
		<comp name="--.HNZ" depth="0.0">
			<acc value="0.027150795305797" flag="0"/>
			<vel value="0.00422610451231318" flag="0"/>
			<psa03 value="0.0108232378197212" flag="0"/>
			<psa10 value="0.00102323243256439" flag="0"/>
			<psa30 value="0.000163495987056746" flag="0"/>
		</comp>
	</station>
	<station code="CLISU" name="CLISU" netid="RO" source="Romanian Seismic Network (NIEP)" insttype="" lat="44.1901" lon="27.3557" esm:processing="automatic (Paolucci et al 2011)" esm:quality="best">
		<comp name="--.HNE" depth="0.0">
			<acc value="0.0133238562297877" flag="0"/>
			<vel value="0.00388118217279677" flag="0"/>
			<psa03 value="0.0174109463584848" flag="0"/>
			<psa10 value="0.00259945540428765" flag="0"/>
			<psa30 value="0.000161081985995264" flag="0"/>
		</comp>
		<comp name="--.HNN" depth="0.0">
			<acc value="0.0117484374089822" flag="0"/>
			<vel value="0.00435418441092919" flag="0"/>
			<psa03 value="0.025232890305125" flag="0"/>
			<psa10 value="0.00430981222265244" flag="0"/>
			<psa30 value="0.00024540794978074" flag="0"/>
		</comp>
		<comp name="--.HNZ" depth="0.0">
			<acc value="0.0150405239663315" flag="0"/>
			<vel value="0.00326614570397822" flag="0"/>
			<psa03 value="0.026102239561949" flag="0"/>
			<psa10 value="0.0016721149490972" flag="0"/>
			<psa30 value="0.000145049426521098" flag="0"/>
		</comp>
	</station>
	<station code="MFTR" name="MFTR" netid="RO" source="Romanian Seismic Network (NIEP)" insttype="" lat="44.1779" lon="28.4224" esm:processing="automatic (Paolucci et al 2011)" esm:quality="best">
		<comp name="--.HNE" depth="0.0">
			<acc value="0.029711556484291" flag="0"/>
			<vel value="0.00715529392239601" flag="0"/>
			<psa03 value="0.0592121933503327" flag="0"/>
			<psa10 value="0.00105588432215322" flag="0"/>
			<psa30 value="0.000146412850174494" flag="0"/>
		</comp>
		<comp name="--.HNN" depth="0.0">
			<acc value="0.0251262323489339" flag="0"/>
			<vel value="0.00780433684494707" flag="0"/>
			<psa03 value="0.0359980643825818" flag="0"/>
			<psa10 value="0.00187038988071359" flag="0"/>
			<psa30 value="0.000159450133101431" flag="0"/>
		</comp>
		<comp name="--.HNZ" depth="0.0">
			<acc value="0.0519361721320114" flag="0"/>
			<vel value="0.010178232550565" flag="0"/>
			<psa03 value="0.0139510439798772" flag="0"/>
			<psa10 value="0.000871133430968863" flag="0"/>
			<psa30 value="8.72753909412577e-05" flag="0"/>
		</comp>
	</station>
	<station code="MLR" name="MLR" netid="RO" source="Romanian Seismic Network (NIEP)" insttype="" lat="45.4909" lon="25.945" esm:processing="automatic (Paolucci et al 2011)" esm:quality="best">
		<comp name="--.HNE" depth="0.0">
			<acc value="0.0100607649559553" flag="0"/>
			<vel value="0.0071162719473601" flag="0"/>
			<psa03 value="0.0332020067616808" flag="0"/>
			<psa10 value="0.00597263534529744" flag="0"/>
			<psa30 value="0.000397300277526675" flag="0"/>
		</comp>
		<comp name="--.HNN" depth="0.0">
			<acc value="0.011040823752538" flag="0"/>
			<vel value="0.00665042247581559" flag="0"/>
			<psa03 value="0.0287385626429082" flag="0"/>
			<psa10 value="0.00429796050005987" flag="0"/>
			<psa30 value="0.000501728445378964" flag="0"/>
		</comp>
		<comp name="--.HNZ" depth="0.0">
			<acc value="0.00624357316897758" flag="0"/>
			<vel value="0.00357914573225722" flag="0"/>
			<psa03 value="0.0150708590475283" flag="0"/>
			<psa10 value="0.00320942276475886" flag="0"/>
			<psa30 value="0.000242603310861922" flag="0"/>
		</comp>
	</station>
	<station code="NEGRR" name="NEGRR" netid="RO" source="Romanian Seismic Network (NIEP)" insttype="" lat="45.5373" lon="27.8771" esm:processing="automatic (Paolucci et al 2011)" esm:quality="best">
		<comp name="--.HNE" depth="0.0">
			<acc value="0.016492477749467" flag="0"/>
			<vel value="0.00341408858045579" flag="0"/>
			<psa03 value="0.0227902493255114" flag="0"/>
			<psa10 value="0.002303301332408" flag="0"/>
			<psa30 value="0.000196048156498964" flag="0"/>
		</comp>
		<comp name="--.HNN" depth="0.0">
			<acc value="0.0189976124754684" flag="0"/>
			<vel value="0.00617029478607312" flag="0"/>
			<psa03 value="0.0292551463431878" flag="0"/>
			<psa10 value="0.002033125231444" flag="0"/>
			<psa30 value="0.000241107586777803" flag="0"/>
		</comp>
		<comp name="--.HNZ" depth="0.0">
			<acc value="0.0110940165228627" flag="0"/>
			<vel value="0.00149639724710445" flag="0"/>
			<psa03 value="0.00548992032090022" flag="0"/>
			<psa10 value="0.000823156385541132" flag="0"/>
			<psa30 value="9.07105599106409e-05" flag="0"/>
		</comp>
	</station>
	<station code="NEHR" name="NEHR" netid="RO" source="Romanian Seismic Network (NIEP)" insttype="" lat="45.4272" lon="26.2952" esm:processing="automatic (Paolucci et al 2011)" esm:quality="best">
		<comp name="--.HNE" depth="0.0">
			<acc value="0.0251896110160708" flag="0"/>
			<vel value="0.00953590739501222" flag="0"/>
			<psa03 value="0.0928318892404002" flag="0"/>
			<psa10 value="0.00422673015637914" flag="0"/>
			<psa30 value="0.000375498729114618" flag="0"/>
		</comp>
		<comp name="--.HNN" depth="0.0">
			<acc value="0.0340214653919902" flag="0"/>
			<vel value="0.0137289495831058" flag="0"/>
			<psa03 value="0.0870585588689305" flag="0"/>
			<psa10 value="0.00456415454033859" flag="0"/>
			<psa30 value="0.000387033321349745" flag="0"/>
		</comp>
		<comp name="--.HNZ" depth="0.0">
			<acc value="0.0159925235386114" flag="0"/>
			<vel value="0.00565768535969203" flag="0"/>
			<psa03 value="0.0336448485977659" flag="0"/>
			<psa10 value="0.00221883472128581" flag="0"/>
			<psa30 value="0.000172407957639392" flag="0"/>
		</comp>
	</station>
	<station code="ODBI" name="ODBI" netid="RO" source="Romanian Seismic Network (NIEP)" insttype="" lat="45.7633" lon="27.0558" esm:processing="automatic (Paolucci et al 2011)" esm:quality="best">
		<comp name="--.HNE" depth="0.0">
			<acc value="0.03847305919028" flag="0"/>
			<vel value="0.0100979387948074" flag="0"/>
			<psa03 value="0.0511418410210002" flag="0"/>
			<psa10 value="0.00644679097452408" flag="0"/>
			<psa30 value="0.000538276439424038" flag="0"/>
		</comp>
		<comp name="--.HNN" depth="0.0">
			<acc value="0.0378536541124025" flag="0"/>
			<vel value="0.0157885185794341" flag="0"/>
			<psa03 value="0.0724744625357324" flag="0"/>
			<psa10 value="0.00450212683756164" flag="0"/>
			<psa30 value="0.000668185149403945" flag="0"/>
		</comp>
		<comp name="--.HNZ" depth="0.0">
			<acc value="0.0568890940371922" flag="0"/>
			<vel value="0.00890754688569857" flag="0"/>
			<psa03 value="0.0274596810482721" flag="0"/>
			<psa10 value="0.00284504136065062" flag="0"/>
			<psa30 value="0.00018481736043067" flag="0"/>
		</comp>
	</station>
	<station code="PANC" name="PANC" netid="RO" source="Romanian Seismic Network (NIEP)" insttype="" lat="45.8723" lon="27.1477" esm:processing="automatic (Paolucci et al 2011)" esm:quality="best">
		<comp name="--.HNE" depth="0.0">
			<acc value="0.0550002428664449" flag="0"/>
			<vel value="0.0131579509744946" flag="0"/>
			<psa03 value="0.0597231334476382" flag="0"/>
			<psa10 value="0.00466990404573962" flag="0"/>
			<psa30 value="0.000369754312117044" flag="0"/>
		</comp>
		<comp name="--.HNN" depth="0.0">
			<acc value="0.0408532075999812" flag="0"/>
			<vel value="0.00871876590591154" flag="0"/>
			<psa03 value="0.0390359427104716" flag="0"/>
			<psa10 value="0.00314825269691664" flag="0"/>
			<psa30 value="0.000373873361025157" flag="0"/>
		</comp>
		<comp name="--.HNZ" depth="0.0">
			<acc value="0.0413016849960685" flag="0"/>
			<vel value="0.00586767851566657" flag="0"/>
			<psa03 value="0.0144550109589575" flag="0"/>
			<psa10 value="0.00109841249099968" flag="0"/>
			<psa30 value="0.00010784294484692" flag="0"/>
		</comp>
	</station>
	<station code="PLOR" name="PLOR" netid="RO" source="Romanian Seismic Network (NIEP)" insttype="" lat="45.8512" lon="26.6498" esm:processing="automatic (Paolucci et al 2011)" esm:quality="best">
		<comp name="--.HNE" depth="0.0">
			<acc value="0.0324348624599177" flag="0"/>
			<vel value="0.0124614087159758" flag="0"/>
			<psa03 value="0.0663008921086301" flag="0"/>
			<psa10 value="0.00769535509198884" flag="0"/>
			<psa30 value="0.000460386227493184" flag="0"/>
		</comp>
		<comp name="--.HNN" depth="0.0">
			<acc value="0.0313137600155005" flag="0"/>
			<vel value="0.0116153148852767" flag="0"/>
			<psa03 value="0.0769821517730153" flag="0"/>
			<psa10 value="0.00514594980018741" flag="0"/>
			<psa30 value="0.000445598841652941" flag="0"/>
		</comp>
		<comp name="--.HNZ" depth="0.0">
			<acc value="0.0161581049796456" flag="0"/>
			<vel value="0.00499697554165132" flag="0"/>
			<psa03 value="0.0196282898612137" flag="0"/>
			<psa10 value="0.00228314491902055" flag="0"/>
			<psa30 value="0.000136269678239263" flag="0"/>
		</comp>
	</station>
	<station code="PLOR4" name="PLOR4" netid="RO" source="Romanian Seismic Network (NIEP)" insttype="" lat="45.8512" lon="26.6498" esm:processing="manual (Paolucci et al 2011)" esm:quality="best">
		<comp name="--.HNE" depth="0.0">
			<acc value="0.0323706846383272" flag="0"/>
			<vel value="0.0124463680935436" flag="0"/>
			<psa03 value="0.0663015067327698" flag="0"/>
			<psa10 value="0.00769972881925642" flag="0"/>
			<psa30 value="0.000462447978660154" flag="0"/>
		</comp>
		<comp name="--.HNN" depth="0.0">
			<acc value="0.0312487303169586" flag="0"/>
			<vel value="0.0116204854681645" flag="0"/>
			<psa03 value="0.0769815319404353" flag="0"/>
			<psa10 value="0.00514645467737657" flag="0"/>
			<psa30 value="0.00044781279040119" flag="0"/>
		</comp>
		<comp name="--.HNZ" depth="0.0">
			<acc value="0.0160788911004456" flag="0"/>
			<vel value="0.00499780820250795" flag="0"/>
			<psa03 value="0.0196284265890124" flag="0"/>
			<psa10 value="0.00228443336374853" flag="0"/>
			<psa30 value="0.000139217034945407" flag="0"/>
		</comp>
	</station>
	<station code="PRAR" name="PRAR" netid="RO" source="Romanian Seismic Network (NIEP)" insttype="" lat="47.3552" lon="26.2337" esm:processing="automatic (Paolucci et al 2011)" esm:quality="best">
		<comp name="--.HNE" depth="0.0">
			<acc value="0.00241903799389447" flag="0"/>
			<vel value="0.00133223403349258" flag="0"/>
			<psa03 value="0.00541180609675859" flag="0"/>
			<psa10 value="0.00173862138607262" flag="0"/>
			<psa30 value="0.000121165734968702" flag="0"/>
		</comp>
		<comp name="--.HNN" depth="0.0">
			<acc value="0.0028398209535269" flag="0"/>
			<vel value="0.00156416922013864" flag="0"/>
			<psa03 value="0.00659241978837508" flag="0"/>
			<psa10 value="0.00220873413029556" flag="0"/>
			<psa30 value="0.000108193241489802" flag="0"/>
		</comp>
		<comp name="--.HNZ" depth="0.0">
			<acc value="0.00210969742104074" flag="0"/>
			<vel value="0.000565118279273716" flag="0"/>
			<psa03 value="0.00202135900276811" flag="0"/>
			<psa10 value="0.000818959037174128" flag="0"/>
			<psa30 value="7.99639951389181e-05" flag="0"/>
		</comp>
	</station>
	<station code="TESR" name="TESR" netid="RO" source="Romanian Seismic Network (NIEP)" insttype="" lat="46.5118" lon="26.6489" esm:processing="manual (Paolucci et al 2011)" esm:quality="good">
		<comp name="--.HNE" depth="0.0">
			<acc value="0.0153125326886176" flag="0"/>
			<vel value="0.00422812181162264" flag="0"/>
			<psa03 value="0.0167780515677598" flag="0"/>
			<psa10 value="0.00167114117365293" flag="0"/>
			<psa30 value="0.000169248816070006" flag="0"/>
		</comp>
		<comp name="--.HNN" depth="0.0">
			<acc value="0.0208057535734883" flag="0"/>
			<vel value="0.00389412628491716" flag="0"/>
			<psa03 value="0.0126185169043777" flag="0"/>
			<psa10 value="0.00175639768085036" flag="0"/>
			<psa30 value="0.000146089873049597" flag="0"/>
		</comp>
		<comp name="--.HNZ" depth="0.0">
			<acc value="0.0169084953463589" flag="0"/>
			<vel value="0.00293638259803396" flag="0"/>
			<psa03 value="0.00556743652366118" flag="0"/>
			<psa10 value="0.000606003230676346" flag="0"/>
			<psa30 value="0.000101311691871274" flag="0"/>
		</comp>
	</station>
	<station code="TLBR" name="TLBR" netid="RO" source="Romanian Seismic Network (NIEP)" insttype="" lat="44.5445" lon="28.0467" esm:processing="manual (Paolucci et al 2011)" esm:quality="good">
		<comp name="--.HNE" depth="0.0">
			<acc value="0.0331564549135596" flag="0"/>
			<vel value="0.00785489579740141" flag="0"/>
			<psa03 value="0.0537677285148321" flag="0"/>
			<psa10 value="0.00239077775229475" flag="0"/>
			<psa30 value="0.000181169371373448" flag="0"/>
		</comp>
		<comp name="--.HNN" depth="0.0">
			<acc value="0.054289280787663" flag="0"/>
			<vel value="0.0121832449178074" flag="0"/>
			<psa03 value="0.0386666786651895" flag="0"/>
			<psa10 value="0.00247342033633465" flag="0"/>
			<psa30 value="0.000187643719537806" flag="0"/>
		</comp>
		<comp name="--.HNZ" depth="0.0">
			<acc value="0.154066990337018" flag="0"/>
			<vel value="0.0229286530884237" flag="0"/>
			<psa03 value="0.0591614504057626" flag="0"/>
			<psa10 value="0.00269401885615396" flag="0"/>
			<psa30 value="0.000248994906148722" flag="0"/>
		</comp>
	</station>
	<station code="VASR" name="VASR" netid="RO" source="Romanian Seismic Network (NIEP)" insttype="" lat="46.6415" lon="27.7911" esm:processing="automatic (Paolucci et al 2011)" esm:quality="best">
		<comp name="--.HNE" depth="0.0">
			<acc value="0.0515959039757667" flag="0"/>
			<vel value="0.014862542417321" flag="0"/>
			<psa03 value="0.0310040799097958" flag="0"/>
			<psa10 value="0.00284557623983694" flag="0"/>
			<psa30 value="0.000223157230987841" flag="0"/>
		</comp>
		<comp name="--.HNN" depth="0.0">
			<acc value="0.0735639959321561" flag="0"/>
			<vel value="0.0125750754707354" flag="0"/>
			<psa03 value="0.0306611196903811" flag="0"/>
			<psa10 value="0.0050974267420108" flag="0"/>
			<psa30 value="0.000339575125393664" flag="0"/>
		</comp>
		<comp name="--.HNZ" depth="0.0">
			<acc value="0.0580545856416238" flag="0"/>
			<vel value="0.00726799426802862" flag="0"/>
			<psa03 value="0.0134026079090641" flag="0"/>
			<psa10 value="0.00177930115121723" flag="0"/>
			<psa30 value="0.000139993661913845" flag="0"/>
		</comp>
	</station>
</stationlist>
