<?xml version="1.0" encoding="UTF-8" standalone="yes"?>
<!DOCTYPE earthquake SYSTEM "stationlist.dtd">
<stationlist created="" xmlns="ch.ethz.sed.shakemap.usgs.xml">
  <station code="BAC" name="BAC" netid="RO" insttype="2.5V" commtype="DIG" lat="46.5669" lon="26.9124">
    <comp name="--.HNN">
      <acc value="0.0311644093" flag="0"/>
      <vel value="0.0090898734" flag="0"/>
      <psa03 value="0.0278135946" flag="0"/>
      <psa10 value="0.0045952168" flag="0"/>
      <psa30 value="0.0004093434" flag="0"/>
    </comp>
    <comp name="--.HNE">
      <acc value="0.0356151893" flag="0"/>
      <vel value="0.0130813964" flag="0"/>
      <psa03 value="0.0540238343" flag="0"/>
      <psa10 value="0.0032850000" flag="0"/>
      <psa30 value="0.0003068353" flag="0"/>
    </comp>
    <comp name="--.HNZ">
      <acc value="0.0307285239" flag="0"/>
      <vel value="0.0048851017" flag="0"/>
      <psa03 value="0.0181985750" flag="0"/>
      <psa10 value="0.0010924662" flag="0"/>
      <psa30 value="0.0000953132" flag="0"/>
    </comp>
  </station>
  <station code="BIR" name="BIR" netid="RO" insttype="MBB2/Quanterra" commtype="DIG" lat="46.2334" lon="27.6436">
    <comp name="--.HHN">
      <acc value="0.0565275338" flag="0"/>
      <vel value="0.0095585635" flag="0"/>
      <psa03 value="0.0294886135" flag="0"/>
      <psa10 value="0.0043898547" flag="0"/>
      <psa30 value="0.0002647649" flag="0"/>
    </comp>
    <comp name="--.HHZ">
      <acc value="0.0496994572" flag="0"/>
      <vel value="0.0083702280" flag="0"/>
      <psa03 value="0.0231842585" flag="0"/>
      <psa10 value="0.0014646490" flag="0"/>
      <psa30 value="0.0001900525" flag="0"/>
    </comp>
    <comp name="--.HHE">
      <acc value="0.0776862120" flag="0"/>
      <vel value="0.0158459988" flag="0"/>
      <psa03 value="0.0541594193" flag="0"/>
      <psa10 value="0.0038205700" flag="0"/>
      <psa30 value="0.0004943271" flag="0"/>
    </comp>
  </station>
  <station code="BISRR" name="BISRR" netid="RO" insttype="CMG40T.1to100/Basalt" commtype="DIG" lat="45.5481" lon="26.7099">
    <comp name="--.HHE">
      <acc value="0.0603547110" flag="0"/>
      <vel value="0.0222267038" flag="0"/>
      <psa03 value="0.1291244673" flag="0"/>
      <psa10 value="0.0175712200" flag="0"/>
      <psa30 value="0.0009845326" flag="0"/>
    </comp>
    <comp name="--.HHN">
      <acc value="0.0452304240" flag="0"/>
      <vel value="0.0208288223" flag="0"/>
      <psa03 value="0.1124929730" flag="0"/>
      <psa10 value="0.0259613802" flag="0"/>
      <psa30 value="0.0010012980" flag="0"/>
    </comp>
    <comp name="--.HHZ">
      <acc value="0.0528888338" flag="0"/>
      <vel value="0.0101162851" flag="0"/>
      <psa03 value="0.0417737418" flag="0"/>
      <psa10 value="0.0093000095" flag="0"/>
      <psa30 value="0.0005391818" flag="0"/>
    </comp>
  </station>
  <station code="BOSR" name="BOSR" netid="RO" insttype="Seismometer/Basalt" commtype="DIG" lat="46.0749" lon="25.6611">
    <comp name="--.HHN">
      <acc value="0.0000127260" flag="0"/>
      <vel value="0.0000006803" flag="0"/>
      <psa03 value="0.0000016806" flag="0"/>
      <psa10 value="0.0000003291" flag="0"/>
      <psa30 value="0.0000000592" flag="0"/>
    </comp>
    <comp name="--.HHZ">
      <acc value="0.0185591293" flag="0"/>
      <vel value="0.0032400722" flag="0"/>
      <psa03 value="0.0080020784" flag="0"/>
      <psa10 value="0.0007986570" flag="0"/>
      <psa30 value="0.0001022245" flag="0"/>
    </comp>
    <comp name="--.HHE">
      <acc value="0.0086803655" flag="0"/>
      <vel value="0.0020838112" flag="0"/>
      <psa03 value="0.0141417716" flag="0"/>
      <psa10 value="0.0010528998" flag="0"/>
      <psa30 value="0.0000728615" flag="0"/>
    </comp>
  </station>
  <station code="CFR" name="CFR" netid="RO" insttype="CMG3T_100sec/Quanterra" commtype="DIG" lat="45.178" lon="28.1362">
    <comp name="--.HHZ">
      <acc value="0.0319209138" flag="0"/>
      <vel value="0.0051100781" flag="0"/>
      <psa03 value="0.0152520634" flag="0"/>
      <psa10 value="0.0008981868" flag="0"/>
      <psa30 value="0.0000810033" flag="0"/>
    </comp>
    <comp name="--.HHE">
      <acc value="0.0554056555" flag="0"/>
      <vel value="0.0094371998" flag="0"/>
      <psa03 value="0.0259830623" flag="0"/>
      <psa10 value="0.0015794725" flag="0"/>
      <psa30 value="0.0001232294" flag="0"/>
    </comp>
    <comp name="--.HHN">
      <acc value="0.0955673202" flag="0"/>
      <vel value="0.0159009589" flag="0"/>
      <psa03 value="0.0248050545" flag="0"/>
      <psa10 value="0.0013269045" flag="0"/>
      <psa30 value="0.0001920642" flag="0"/>
    </comp>
  </station>
  <station code="DOPR" name="DOPR" netid="RO" insttype="330" commtype="DIG" lat="45.9675" lon="25.3886">
    <comp name="--.HHE">
      <acc value="0.0201395094" flag="0"/>
      <vel value="0.0042232833" flag="0"/>
      <psa03 value="0.0139923141" flag="0"/>
      <psa10 value="0.0008578952" flag="0"/>
      <psa30 value="0.0000697121" flag="0"/>
    </comp>
    <comp name="--.HHN">
      <acc value="0.0225402589" flag="0"/>
      <vel value="0.0049408636" flag="0"/>
      <psa03 value="0.0238667654" flag="0"/>
      <psa10 value="0.0014245945" flag="0"/>
      <psa30 value="0.0001020533" flag="0"/>
    </comp>
    <comp name="--.HHZ">
      <acc value="0.0254420815" flag="0"/>
      <vel value="0.0055033369" flag="0"/>
      <psa03 value="0.0188335433" flag="0"/>
      <psa10 value="0.0015647685" flag="0"/>
      <psa30 value="0.0001707785" flag="0"/>
    </comp>
  </station>
  <station code="GISR" name="GISR" netid="RO" insttype="2.5V" commtype="DIG" lat="45.4411" lon="28.0541">
    <comp name="--.HNN">
      <acc value="0.0451895014" flag="0"/>
      <vel value="0.0152464545" flag="0"/>
      <psa03 value="0.0625945982" flag="0"/>
      <psa10 value="0.0091445251" flag="0"/>
      <psa30 value="0.0009937376" flag="0"/>
    </comp>
    <comp name="--.HNZ">
      <acc value="0.0710155664" flag="0"/>
      <vel value="0.0115563353" flag="0"/>
      <psa03 value="0.0469826899" flag="0"/>
      <psa10 value="0.0028042107" flag="0"/>
      <psa30 value="0.0004576982" flag="0"/>
    </comp>
    <comp name="--.HNE">
      <acc value="0.0643546574" flag="0"/>
      <vel value="0.0173064525" flag="0"/>
      <psa03 value="0.1031252171" flag="0"/>
      <psa10 value="0.0075393767" flag="0"/>
      <psa30 value="0.0008155038" flag="0"/>
    </comp>
  </station>
  <station code="GIUM" name="GIUM" netid="RO" insttype="2.5V" commtype="DIG" lat="45.485" lon="28.2081">
    <comp name="--.HNE">
      <acc value="0.0467322549" flag="0"/>
      <vel value="0.0101116487" flag="0"/>
      <psa03 value="0.0360396826" flag="0"/>
      <psa10 value="0.0035419241" flag="0"/>
      <psa30 value="0.0008703802" flag="0"/>
    </comp>
    <comp name="--.HNZ">
      <acc value="0.0512282984" flag="0"/>
      <vel value="0.0057651026" flag="0"/>
      <psa03 value="0.0251099258" flag="0"/>
      <psa10 value="0.0013561493" flag="0"/>
      <psa30 value="0.0006052634" flag="0"/>
    </comp>
    <comp name="--.HNN">
      <acc value="0.0380346322" flag="0"/>
      <vel value="0.0112270228" flag="0"/>
      <psa03 value="0.0419262374" flag="0"/>
      <psa10 value="0.0032361846" flag="0"/>
      <psa30 value="0.0006238345" flag="0"/>
    </comp>
  </station>
  <station code="ISR" name="ISR" netid="RO" insttype="CMG3ESP/Quanterra" commtype="DIG" lat="45.1187" lon="26.5432">
    <comp name="--.HHN">
      <acc value="0.0370271275" flag="0"/>
      <vel value="0.0128182365" flag="0"/>
      <psa03 value="0.0798013675" flag="0"/>
      <psa10 value="0.0074330347" flag="0"/>
      <psa30 value="0.0004911817" flag="0"/>
    </comp>
    <comp name="--.HHE">
      <acc value="0.0387857587" flag="0"/>
      <vel value="0.0106317460" flag="0"/>
      <psa03 value="0.0426066510" flag="0"/>
      <psa10 value="0.0061013843" flag="0"/>
      <psa30 value="0.0004289172" flag="0"/>
    </comp>
    <comp name="--.HHZ">
      <acc value="0.0239164881" flag="0"/>
      <vel value="0.0064681175" flag="0"/>
      <psa03 value="0.0279467928" flag="0"/>
      <psa10 value="0.0049337419" flag="0"/>
      <psa30 value="0.0002523004" flag="0"/>
    </comp>
  </station>
  <station code="MLR" name="MLR" netid="RO" insttype="330HR" commtype="DIG" lat="45.4909" lon="25.945">
    <comp name="--.HHE">
      <acc value="0.0103271764" flag="0"/>
      <vel value="0.0072435226" flag="0"/>
      <psa03 value="0.0340002981" flag="0"/>
      <psa10 value="0.0058605515" flag="0"/>
      <psa30 value="0.0003852348" flag="0"/>
    </comp>
    <comp name="--.HHN">
      <acc value="0.0109496442" flag="0"/>
      <vel value="0.0066868645" flag="0"/>
      <psa03 value="0.0288371673" flag="0"/>
      <psa10 value="0.0044118914" flag="0"/>
      <psa30 value="0.0004780190" flag="0"/>
    </comp>
    <comp name="--.HHZ">
      <acc value="0.0064986140" flag="0"/>
      <vel value="0.0035999744" flag="0"/>
      <psa03 value="0.0149995006" flag="0"/>
      <psa10 value="0.0032376938" flag="0"/>
      <psa30 value="0.0002308275" flag="0"/>
    </comp>
  </station>
  <station code="NARR" name="NARR" netid="RO" insttype="OBS-SIO/Centaur" commtype="DIG" lat="45.8165" lon="26.7368">
    <comp name="--.HHE">
      <acc value="0.0581329533" flag="0"/>
      <vel value="0.0170729101" flag="0"/>
      <psa03 value="0.0888163918" flag="0"/>
      <psa10 value="0.0058844285" flag="0"/>
      <psa30 value="0.0007237518" flag="0"/>
    </comp>
    <comp name="--.HHN">
      <acc value="0.0469468727" flag="0"/>
      <vel value="0.0180237244" flag="0"/>
      <psa03 value="0.1141747390" flag="0"/>
      <psa10 value="0.0059813537" flag="0"/>
      <psa30 value="0.0006292320" flag="0"/>
    </comp>
    <comp name="--.HHZ">
      <acc value="0.0421638522" flag="0"/>
      <vel value="0.0085706936" flag="0"/>
      <psa03 value="0.0419395166" flag="0"/>
      <psa10 value="0.0027168432" flag="0"/>
      <psa30 value="0.0001636275" flag="0"/>
    </comp>
  </station>
  <station code="NEGRR" name="NEGRR" netid="RO" insttype="CMG40T.1to100/Quanterra" commtype="DIG" lat="45.5373" lon="27.8771">
    <comp name="--.HHZ">
      <acc value="0.0327276470" flag="0"/>
      <vel value="0.0040002936" flag="0"/>
      <psa03 value="0.0162865966" flag="0"/>
      <psa10 value="0.0010602704" flag="0"/>
      <psa30 value="0.0001312904" flag="0"/>
    </comp>
    <comp name="--.HHE">
      <acc value="0.0719967300" flag="0"/>
      <vel value="0.0107082970" flag="0"/>
      <psa03 value="0.0498408948" flag="0"/>
      <psa10 value="0.0035445834" flag="0"/>
      <psa30 value="0.0004091467" flag="0"/>
    </comp>
    <comp name="--.HHN">
      <acc value="0.0859317446" flag="0"/>
      <vel value="0.0132205444" flag="0"/>
      <psa03 value="0.0204207015" flag="0"/>
      <psa10 value="0.0057411213" flag="0"/>
      <psa30 value="0.0003224096" flag="0"/>
    </comp>
  </station>
  <station code="NEHR" name="NEHR" netid="RO" insttype="Seismometer/Basalt" commtype="DIG" lat="45.4272" lon="26.2952">
    <comp name="--.HHN">
      <acc value="0.0043930816" flag="0"/>
      <vel value="0.0017473438" flag="0"/>
      <psa03 value="0.0113850134" flag="0"/>
      <psa10 value="0.0005507588" flag="0"/>
      <psa30 value="0.0000465797" flag="0"/>
    </comp>
    <comp name="--.HHZ">
      <acc value="0.0022163856" flag="0"/>
      <vel value="0.0006929165" flag="0"/>
      <psa03 value="0.0040854554" flag="0"/>
      <psa10 value="0.0002557248" flag="0"/>
      <psa30 value="0.0000165113" flag="0"/>
    </comp>
    <comp name="--.HHE">
      <acc value="0.0027631114" flag="0"/>
      <vel value="0.0011277526" flag="0"/>
      <psa03 value="0.0110347522" flag="0"/>
      <psa10 value="0.0005122675" flag="0"/>
      <psa30 value="0.0000459133" flag="0"/>
    </comp>
  </station>
  <station code="ODBI" name="ODBI" netid="RO" insttype="200" commtype="DIG" lat="45.7633" lon="27.0558">
    <comp name="--.HNE">
      <acc value="0.0419296820" flag="0"/>
      <vel value="0.0099311753" flag="0"/>
      <psa03 value="0.0506052409" flag="0"/>
      <psa10 value="0.0064063727" flag="0"/>
      <psa30 value="0.0005502499" flag="0"/>
    </comp>
    <comp name="--.HNZ">
      <acc value="0.0711801492" flag="0"/>
      <vel value="0.0086467186" flag="0"/>
      <psa03 value="0.0272986040" flag="0"/>
      <psa10 value="0.0028405543" flag="0"/>
      <psa30 value="0.0001799041" flag="0"/>
    </comp>
    <comp name="--.HNN">
      <acc value="0.0376219127" flag="0"/>
      <vel value="0.0156790473" flag="0"/>
      <psa03 value="0.0716548448" flag="0"/>
      <psa10 value="0.0044851807" flag="0"/>
      <psa30 value="0.0006780347" flag="0"/>
    </comp>
  </station>
  <station code="ONER" name="ONER" netid="RO" insttype="CMG40T.1to100/obsidian" commtype="DIG" lat="46.3349" lon="26.394">
    <comp name="--.HHE">
      <acc value="0.0046308168" flag="0"/>
      <vel value="0.0018275738" flag="0"/>
      <psa03 value="0.0055290991" flag="0"/>
      <psa10 value="0.0011229365" flag="0"/>
      <psa30 value="0.0000804253" flag="0"/>
    </comp>
    <comp name="--.HHZ">
      <acc value="0.0056943399" flag="0"/>
      <vel value="0.0015208763" flag="0"/>
      <psa03 value="0.0064252383" flag="0"/>
      <psa10 value="0.0005625451" flag="0"/>
      <psa30 value="0.0000417030" flag="0"/>
    </comp>
    <comp name="--.HHN">
      <acc value="0.0056973497" flag="0"/>
      <vel value="0.0014679590" flag="0"/>
      <psa03 value="0.0053889738" flag="0"/>
      <psa10 value="0.0011511186" flag="0"/>
      <psa30 value="0.0000567256" flag="0"/>
    </comp>
  </station>
  <station code="PANC" name="PANC" netid="RO" insttype="Seismometer/Basalt" commtype="DIG" lat="45.8723" lon="27.1477">
    <comp name="--.HHN">
      <acc value="0.0499943550" flag="0"/>
      <vel value="0.0086624130" flag="0"/>
      <psa03 value="0.0376573971" flag="0"/>
      <psa10 value="0.0030816073" flag="0"/>
      <psa30 value="0.0003814383" flag="0"/>
    </comp>
    <comp name="--.HHZ">
      <acc value="0.0468883094" flag="0"/>
      <vel value="0.0060413678" flag="0"/>
      <psa03 value="0.0152272894" flag="0"/>
      <psa10 value="0.0011263203" flag="0"/>
      <psa30 value="0.0000840619" flag="0"/>
    </comp>
    <comp name="--.HHE">
      <acc value="0.0562303613" flag="0"/>
      <vel value="0.0132126108" flag="0"/>
      <psa03 value="0.0594002844" flag="0"/>
      <psa10 value="0.0048353727" flag="0"/>
      <psa30 value="0.0003545002" flag="0"/>
    </comp>
  </station>
  <station code="PGOR" name="PGOR" netid="RO" insttype="CMG40T.1to100/Quanterra" commtype="DIG" lat="44.9199" lon="26.9768">
    <comp name="--.HHZ">
      <acc value="0.0917208499" flag="0"/>
      <vel value="0.0158242198" flag="0"/>
      <psa03 value="0.0165488140" flag="0"/>
      <psa10 value="0.0013938675" flag="0"/>
      <psa30 value="0.0001344008" flag="0"/>
    </comp>
    <comp name="--.HHN">
      <acc value="0.0674321093" flag="0"/>
      <vel value="0.0172650390" flag="0"/>
      <psa03 value="0.0272505688" flag="0"/>
      <psa10 value="0.0039474098" flag="0"/>
      <psa30 value="0.0004717720" flag="0"/>
    </comp>
    <comp name="--.HHE">
      <acc value="0.1013762750" flag="0"/>
      <vel value="0.0178445673" flag="0"/>
      <psa03 value="0.0412967625" flag="0"/>
      <psa10 value="0.0069351351" flag="0"/>
      <psa30 value="0.0005605282" flag="0"/>
    </comp>
  </station>
  <station code="PLAR" name="PLAR" netid="RO" insttype="200" commtype="DIG" lat="44.9142" lon="26.0274">
    <comp name="--.HNN">
      <acc value="0.0387349843" flag="0"/>
      <vel value="0.0151677799" flag="0"/>
      <psa03 value="0.0969658361" flag="0"/>
      <psa10 value="0.0050583184" flag="0"/>
      <psa30 value="0.0006298563" flag="0"/>
    </comp>
    <comp name="--.HNZ">
      <acc value="0.0330070974" flag="0"/>
      <vel value="0.0048980594" flag="0"/>
      <psa03 value="0.0170107300" flag="0"/>
      <psa10 value="0.0015670101" flag="0"/>
      <psa30 value="0.0001616983" flag="0"/>
    </comp>
    <comp name="--.HNE">
      <acc value="0.1229234860" flag="0"/>
      <vel value="0.0308161656" flag="0"/>
      <psa03 value="0.1355141842" flag="0"/>
      <psa10 value="0.0084941815" flag="0"/>
      <psa30 value="0.0008473846" flag="0"/>
    </comp>
  </station>
  <station code="PLOR" name="PLOR" netid="RO" insttype="MBB2/Quanterra" commtype="DIG" lat="45.8512" lon="26.6498">
    <comp name="--.HHE">
      <acc value="0.0311728701" flag="0"/>
      <vel value="0.0119692299" flag="0"/>
      <psa03 value="0.0657405535" flag="0"/>
      <psa10 value="0.0074763975" flag="0"/>
      <psa30 value="0.0004690004" flag="0"/>
    </comp>
    <comp name="--.HHZ">
      <acc value="0.0159288587" flag="0"/>
      <vel value="0.0048039570" flag="0"/>
      <psa03 value="0.0181749494" flag="0"/>
      <psa10 value="0.0022377322" flag="0"/>
      <psa30 value="0.0001148175" flag="0"/>
    </comp>
    <comp name="--.HHN">
      <acc value="0.0320939699" flag="0"/>
      <vel value="0.0129076277" flag="0"/>
      <psa03 value="0.0738081399" flag="0"/>
      <psa10 value="0.0053884987" flag="0"/>
      <psa30 value="0.0004683439" flag="0"/>
    </comp>
  </station>
  <station code="PLOR4" name="PLOR4" netid="RO" insttype="MBB2/Quanterra" commtype="DIG" lat="45.8512" lon="26.6498">
    <comp name="--.HHN">
      <acc value="0.0320939699" flag="0"/>
      <vel value="0.0129076277" flag="0"/>
      <psa03 value="0.0738081399" flag="0"/>
      <psa10 value="0.0053884987" flag="0"/>
      <psa30 value="0.0004683439" flag="0"/>
    </comp>
    <comp name="--.HHZ">
      <acc value="0.0159288587" flag="0"/>
      <vel value="0.0048039570" flag="0"/>
      <psa03 value="0.0181749494" flag="0"/>
      <psa10 value="0.0022377322" flag="0"/>
      <psa30 value="0.0001148175" flag="0"/>
    </comp>
    <comp name="--.HHE">
      <acc value="0.0311728701" flag="0"/>
      <vel value="0.0119692299" flag="0"/>
      <psa03 value="0.0657405535" flag="0"/>
      <psa10 value="0.0074763975" flag="0"/>
      <psa30 value="0.0004690004" flag="0"/>
    </comp>
  </station>
  <station code="SCHL" name="SCHL" netid="RO" insttype="CMG40T.1to100/Quanterra" commtype="DIG" lat="45.5007" lon="27.8302">
    <comp name="--.HHZ">
      <acc value="0.0487332948" flag="0"/>
      <vel value="0.0058302471" flag="0"/>
      <psa03 value="0.0116537397" flag="0"/>
      <psa10 value="0.0015997923" flag="0"/>
      <psa30 value="0.0000972765" flag="0"/>
    </comp>
    <comp name="--.HHN">
      <acc value="0.0659324758" flag="0"/>
      <vel value="0.0228492991" flag="0"/>
      <psa03 value="0.0919604772" flag="0"/>
      <psa10 value="0.0099546184" flag="0"/>
      <psa30 value="0.0009175260" flag="0"/>
    </comp>
    <comp name="--.HHE">
      <acc value="0.0433647086" flag="0"/>
      <vel value="0.0138229504" flag="0"/>
      <psa03 value="0.0410129423" flag="0"/>
      <psa10 value="0.0061687447" flag="0"/>
      <psa30 value="0.0005525723" flag="0"/>
    </comp>
  </station>
  <station code="SCTR" name="SCTR" netid="RO" insttype="MBB2/Basalt" commtype="DIG" lat="45.6741" lon="27.9949">
    <comp name="--.HHN">
      <acc value="0.0403082601" flag="0"/>
      <vel value="0.0136100808" flag="0"/>
      <psa03 value="0.0417048954" flag="0"/>
      <psa10 value="0.0071867265" flag="0"/>
      <psa30 value="0.0003726770" flag="0"/>
    </comp>
    <comp name="--.HHZ">
      <acc value="0.0271139865" flag="0"/>
      <vel value="0.0057408510" flag="0"/>
      <psa03 value="0.0170739055" flag="0"/>
      <psa10 value="0.0022205981" flag="0"/>
      <psa30 value="0.0002331232" flag="0"/>
    </comp>
    <comp name="--.HHE">
      <acc value="0.0592359559" flag="0"/>
      <vel value="0.0107825910" flag="0"/>
      <psa03 value="0.0428157498" flag="0"/>
      <psa10 value="0.0027898670" flag="0"/>
      <psa30 value="0.0002138871" flag="0"/>
