<stationlist xmlns:esm="https://esm-db.eu/esmws/shakemap/1/" created="1781834064">
	<station code="KIS" name="KIS" netid="MD" source="Moldova Digital Seismic Network" insttype="" lat="46.9975" lon="28.8175" esm:processing="automatic (Paolucci et al 2011)" esm:quality="best">
		<comp name="--.HNE" depth="0.0">
			<acc value="0.0119633495134795" flag="0"/>
			<vel value="0.00369543243811482" flag="0"/>
			<psa03 value="0.0200162426445009" flag="0"/>
			<psa10 value="0.0017022043642465" flag="0"/>
			<psa30 value="0.000137941716086913" flag="0"/>
		</comp>
		<comp name="--.HNN" depth="0.0">
			<acc value="0.00747094512469757" flag="0"/>
			<vel value="0.00231017263453167" flag="0"/>
			<psa03 value="0.0120757687104286" flag="0"/>
			<psa10 value="0.00134938978107656" flag="0"/>
			<psa30 value="0.000126366821702432" flag="0"/>
		</comp>
		<comp name="--.HNZ" depth="0.0">
			<acc value="0.00872648026946475" flag="0"/>
			<vel value="0.0015640410531222" flag="0"/>
			<psa03 value="0.00430556972807101" flag="0"/>
			<psa10 value="0.000505406156457199" flag="0"/>
			<psa30 value="5.69641121346079e-05" flag="0"/>
		</comp>
	</station>
	<station code="AMRR" name="AMRR" netid="RO" source="Romanian Seismic Network (NIEP)" insttype="" lat="44.6102" lon="27.3351" esm:processing="manual (Paolucci et al 2011)" esm:quality="good">
		<comp name="--.HNE" depth="0.0">
			<acc value="0.0282112838001917" flag="0"/>
			<vel value="0.00903346011026816" flag="0"/>
			<psa03 value="0.0349187012134166" flag="0"/>
			<psa10 value="0.00334097772962792" flag="0"/>
			<psa30 value="0.000325586802902795" flag="0"/>
		</comp>
		<comp name="--.HNN" depth="0.0">
			<acc value="0.0311803860555777" flag="0"/>
			<vel value="0.0107119344648415" flag="0"/>
			<psa03 value="0.0348472667937369" flag="0"/>
			<psa10 value="0.00365092310573795" flag="0"/>
			<psa30 value="0.000290669359585208" flag="0"/>
		</comp>
		<comp name="--.HNZ" depth="0.0">
			<acc value="0.10521113963883" flag="0"/>
			<vel value="0.0154281445117202" flag="0"/>
			<psa03 value="0.0191733039914584" flag="0"/>
			<psa10 value="0.00193069188323692" flag="0"/>
			<psa30 value="0.000200982910485613" flag="0"/>
		</comp>
	</station>
	<station code="BAC" name="BAC" netid="RO" source="Romanian Seismic Network (NIEP)" insttype="" lat="46.5669" lon="26.9124" esm:processing="manual (Paolucci et al 2011)" esm:quality="good">
		<comp name="--.HNE" depth="0.0">
			<acc value="0.0352836567302003" flag="0"/>
			<vel value="0.0132209350534339" flag="0"/>
			<psa03 value="0.0543425113830911" flag="0"/>
			<psa10 value="0.00330254846512734" flag="0"/>
			<psa30 value="0.00031494234776004" flag="0"/>
		</comp>
		<comp name="--.HNN" depth="0.0">
			<acc value="0.0315581673316611" flag="0"/>
			<vel value="0.0090823120417095" flag="0"/>
			<psa03 value="0.0281804501498352" flag="0"/>
			<psa10 value="0.00461246664703114" flag="0"/>
			<psa30 value="0.000420673258163876" flag="0"/>
		</comp>
		<comp name="--.HNZ" depth="0.0">
			<acc value="0.0299254217287436" flag="0"/>
			<vel value="0.00493570834948624" flag="0"/>
			<psa03 value="0.0186705428214118" flag="0"/>
			<psa10 value="0.00110237767555001" flag="0"/>
			<psa30 value="9.5420292480227e-05" flag="0"/>
		</comp>
	</station>
	<station code="BAPR" name="BAPR" netid="RO" source="Romanian Seismic Network (NIEP)" insttype="" lat="44.4059" lon="26.119" esm:processing="manual (Paolucci et al 2011)" esm:quality="good">
		<comp name="--.HNE" depth="0.0">
			<acc value="0.0487563284357835" flag="0"/>
			<vel value="0.0107580135354751" flag="0"/>
			<psa03 value="0.0373270847153372" flag="0"/>
			<psa10 value="0.00665913050971495" flag="0"/>
			<psa30 value="0.000607428989189427" flag="0"/>
		</comp>
		<comp name="--.HNN" depth="0.0">
			<acc value="0.0527362414054736" flag="0"/>
			<vel value="0.0171522074486982" flag="0"/>
			<psa03 value="0.0649248634535691" flag="0"/>
			<psa10 value="0.00611987759935615" flag="0"/>
			<psa30 value="0.000512961012399589" flag="0"/>
		</comp>
		<comp name="--.HNZ" depth="0.0">
			<acc value="0.0392860007367339" flag="0"/>
			<vel value="0.00646696935219546" flag="0"/>
			<psa03 value="0.0221716015722916" flag="0"/>
			<psa10 value="0.00181434441016283" flag="0"/>
			<psa30 value="0.000196967266864764" flag="0"/>
		</comp>
	</station>
	<station code="BIR" name="BIR" netid="RO" source="Romanian Seismic Network (NIEP)" insttype="" lat="46.2334" lon="27.6436" esm:processing="manual (Paolucci et al 2011)" esm:quality="good">
		<comp name="--.HNE" depth="0.0">
			<acc value="0.0762703215589182" flag="0"/>
			<vel value="0.0160568715028727" flag="0"/>
			<psa03 value="0.0543732321681145" flag="0"/>
			<psa10 value="0.00365933045955888" flag="0"/>
			<psa30 value="0.000406830700537289" flag="0"/>
		</comp>
		<comp name="--.HNN" depth="0.0">
			<acc value="0.0549313157381968" flag="0"/>
			<vel value="0.00979815617010558" flag="0"/>
			<psa03 value="0.0302714792952719" flag="0"/>
			<psa10 value="0.00405745097371407" flag="0"/>
			<psa30 value="0.000228251735140585" flag="0"/>
		</comp>
		<comp name="--.HNZ" depth="0.0">
			<acc value="0.0492009854000991" flag="0"/>
			<vel value="0.00865565984162395" flag="0"/>
			<psa03 value="0.0247210517108512" flag="0"/>
			<psa10 value="0.00147239300756062" flag="0"/>
			<psa30 value="0.000111137284174643" flag="0"/>
		</comp>
	</station>
	<station code="BSTR" name="BSTR" netid="RO" source="Romanian Seismic Network (NIEP)" insttype="" lat="44.4458" lon="26.0984" esm:processing="manual (Paolucci et al 2011)" esm:quality="good">
		<comp name="--.HNE" depth="0.0">
			<acc value="0.036236593579819" flag="0"/>
			<vel value="0.0101221627285733" flag="0"/>
			<psa03 value="0.0504870163920585" flag="0"/>
			<psa10 value="0.00477006896240847" flag="0"/>
			<psa30 value="0.000512818607132606" flag="0"/>
		</comp>
		<comp name="--.HNN" depth="0.0">
			<acc value="0.0645281711516532" flag="0"/>
			<vel value="0.0190249012921517" flag="0"/>
			<psa03 value="0.109409258243072" flag="0"/>
			<psa10 value="0.00643410529039854" flag="0"/>
			<psa30 value="0.000709156353128036" flag="0"/>
		</comp>
		<comp name="--.HNZ" depth="0.0">
			<acc value="0.058040348520739" flag="0"/>
			<vel value="0.0098942245785077" flag="0"/>
			<psa03 value="0.0430044582093014" flag="0"/>
			<psa10 value="0.00187653853021805" flag="0"/>
			<psa30 value="0.000224873334254773" flag="0"/>
		</comp>
	</station>
	<station code="BTMR" name="BTMR" netid="RO" source="Romanian Seismic Network (NIEP)" insttype="" lat="44.437" lon="26.1067" esm:processing="manual (Paolucci et al 2011)" esm:quality="good">
		<comp name="--.HNE" depth="0.0">
			<acc value="0.0378483807245029" flag="0"/>
			<vel value="0.0127255676385917" flag="0"/>
			<psa03 value="0.0665455593582039" flag="0"/>
			<psa10 value="0.00513308644801694" flag="0"/>
			<psa30 value="0.000471554467336569" flag="0"/>
		</comp>
		<comp name="--.HNN" depth="0.0">
			<acc value="0.0450438337033221" flag="0"/>
			<vel value="0.0178270474932781" flag="0"/>
			<psa03 value="0.073993636090429" flag="0"/>
			<psa10 value="0.00659638135289612" flag="0"/>
			<psa30 value="0.00103340606224535" flag="0"/>
		</comp>
		<comp name="--.HNZ" depth="0.0">
			<acc value="0.0447226054700427" flag="0"/>
			<vel value="0.00841300693459746" flag="0"/>
			<psa03 value="0.029367794430564" flag="0"/>
			<psa10 value="0.00174500899671962" flag="0"/>
			<psa30 value="0.000542026896205462" flag="0"/>
		</comp>
	</station>
	<station code="BUC" name="BUC" netid="RO" source="Romanian Seismic Network (NIEP)" insttype="" lat="44.4107" lon="26.0938" esm:processing="manual (Paolucci et al 2011)" esm:quality="good">
		<comp name="--.HNE" depth="0.0">
			<acc value="0.0376031234040165" flag="0"/>
			<vel value="0.0126029442190639" flag="0"/>
			<psa03 value="0.0554798836034433" flag="0"/>
			<psa10 value="0.00747919592876437" flag="0"/>
			<psa30 value="0.000569210259471224" flag="0"/>
		</comp>
		<comp name="--.HNN" depth="0.0">
			<acc value="0.0515430505758859" flag="0"/>
			<vel value="0.0189491317234263" flag="0"/>
			<psa03 value="0.082468827738215" flag="0"/>
			<psa10 value="0.0078765530329802" flag="0"/>
			<psa30 value="0.000671773980896777" flag="0"/>
		</comp>
		<comp name="--.HNZ" depth="0.0">
			<acc value="0.0537460081439924" flag="0"/>
			<vel value="0.0110585498733368" flag="0"/>
			<psa03 value="0.029027081755855" flag="0"/>
			<psa10 value="0.00169153900928445" flag="0"/>
			<psa30 value="0.00024663123394197" flag="0"/>
		</comp>
	</station>
	<station code="CFR" name="CFR" netid="RO" source="Romanian Seismic Network (NIEP)" insttype="" lat="45.178" lon="28.1362" esm:processing="manual (Paolucci et al 2011)" esm:quality="good">
		<comp name="--.HNE" depth="0.0">
			<acc value="0.0517742913632108" flag="0"/>
			<vel value="0.00966921253959584" flag="0"/>
			<psa03 value="0.0268645843343709" flag="0"/>
			<psa10 value="0.00165987777125593" flag="0"/>
			<psa30 value="0.000147936167232463" flag="0"/>
		</comp>
		<comp name="--.HNN" depth="0.0">
			<acc value="0.0875956187020589" flag="0"/>
			<vel value="0.0155430893434661" flag="0"/>
			<psa03 value="0.0253223753997406" flag="0"/>
			<psa10 value="0.0013209928999225" flag="0"/>
			<psa30 value="0.000212510223592665" flag="0"/>
		</comp>
		<comp name="--.HNZ" depth="0.0">
			<acc value="0.0321511910478633" flag="0"/>
			<vel value="0.00548488174995256" flag="0"/>
			<psa03 value="0.0158891293997697" flag="0"/>
			<psa10 value="0.000919266228907262" flag="0"/>
			<psa30 value="8.3881533302242e-05" flag="0"/>
		</comp>
	</station>
	<station code="CHLR" name="CHLR" netid="RO" source="Romanian Seismic Network (NIEP)" insttype="" lat="45.4245" lon="29.289" esm:processing="automatic (Paolucci et al 2011)" esm:quality="best">
		<comp name="--.HNE" depth="0.0">
			<acc value="0.0172130478618961" flag="0"/>
			<vel value="0.00567677112280806" flag="0"/>
			<psa03 value="0.0228249912103151" flag="0"/>
			<psa10 value="0.00268132965618044" flag="0"/>
			<psa30 value="0.000565558923836418" flag="0"/>
		</comp>
		<comp name="--.HNN" depth="0.0">
			<acc value="0.0185927087709806" flag="0"/>
			<vel value="0.00488031328320499" flag="0"/>
			<psa03 value="0.0317898481089207" flag="0"/>
			<psa10 value="0.00276801149217666" flag="0"/>
			<psa30 value="0.000582222423544827" flag="0"/>
		</comp>
		<comp name="--.HNZ" depth="0.0">
			<acc value="0.027150795305797" flag="0"/>
			<vel value="0.00422610451231318" flag="0"/>
			<psa03 value="0.0108232378197212" flag="0"/>
			<psa10 value="0.00102323243256439" flag="0"/>
			<psa30 value="0.000163495987056746" flag="0"/>
		</comp>
	</station>
	<station code="CICN" name="CICN" netid="RO" source="Romanian Seismic Network (NIEP)" insttype="" lat="44.197" lon="27.0261" esm:processing="manual (Paolucci et al 2011)" esm:quality="good">
		<comp name="--.HNE" depth="0.0">
			<acc value="0.0450254072499064" flag="0"/>
			<vel value="0.0150992227703008" flag="0"/>
			<psa03 value="0.0868269914453918" flag="0"/>
			<psa10 value="0.0057562553861691" flag="0"/>
			<psa30 value="0.000354222319656911" flag="0"/>
		</comp>
		<comp name="--.HNN" depth="0.0">
			<acc value="0.0382637211426291" flag="0"/>
			<vel value="0.0123186337882376" flag="0"/>
			<psa03 value="0.0518124635714292" flag="0"/>
			<psa10 value="0.00269307098086057" flag="0"/>
			<psa30 value="0.000340838854943056" flag="0"/>
		</comp>
		<comp name="--.HNZ" depth="0.0">
			<acc value="0.027098640529479" flag="0"/>
			<vel value="0.00726352421940193" flag="0"/>
			<psa03 value="0.0233121224387016" flag="0"/>
			<psa10 value="0.00228013206318388" flag="0"/>
			<psa30 value="0.000301166357043106" flag="0"/>
		</comp>
	</station>
	<station code="CIOR" name="CIOR" netid="RO" source="Romanian Seismic Network (NIEP)" insttype="" lat="44.4489" lon="25.8799" esm:processing="manual (Paolucci et al 2011)" esm:quality="good">
		<comp name="--.HNE" depth="0.0">
			<acc value="0.152940550215334" flag="0"/>
			<vel value="0.0279539763712079" flag="0"/>
			<psa03 value="0.119297527875831" flag="0"/>
			<psa10 value="0.0081988934489399" flag="0"/>
			<psa30 value="0.0007376373544374" flag="0"/>
		</comp>
		<comp name="--.HNN" depth="0.0">
			<acc value="0.113231143149007" flag="0"/>
			<vel value="0.0331908754630355" flag="0"/>
			<psa03 value="0.124029685107832" flag="0"/>
			<psa10 value="0.00776042471506621" flag="0"/>
			<psa30 value="0.000829325615834149" flag="0"/>
		</comp>
		<comp name="--.HNZ" depth="0.0">
			<acc value="0.0638139356123889" flag="0"/>
			<vel value="0.0115314801144883" flag="0"/>
			<psa03 value="0.0229688731376257" flag="0"/>
			<psa10 value="0.00250718546373407" flag="0"/>
			<psa30 value="0.000226596000456102" flag="0"/>
		</comp>
	</station>
	<station code="CLISU" name="CLISU" netid="RO" source="Romanian Seismic Network (NIEP)" insttype="" lat="44.1901" lon="27.3557" esm:processing="automatic (Paolucci et al 2011)" esm:quality="best">
		<comp name="--.HNE" depth="0.0">
			<acc value="0.0133238562297877" flag="0"/>
			<vel value="0.00388118217279677" flag="0"/>
			<psa03 value="0.0174109463584848" flag="0"/>
			<psa10 value="0.00259945540428765" flag="0"/>
			<psa30 value="0.000161081985995264" flag="0"/>
		</comp>
		<comp name="--.HNN" depth="0.0">
			<acc value="0.0117484374089822" flag="0"/>
			<vel value="0.00435418441092919" flag="0"/>
			<psa03 value="0.025232890305125" flag="0"/>
			<psa10 value="0.00430981222265244" flag="0"/>
			<psa30 value="0.00024540794978074" flag="0"/>
		</comp>
		<comp name="--.HNZ" depth="0.0">
			<acc value="0.0150405239663315" flag="0"/>
			<vel value="0.00326614570397822" flag="0"/>
			<psa03 value="0.026102239561949" flag="0"/>
			<psa10 value="0.0016721149490972" flag="0"/>
			<psa30 value="0.000145049426521098" flag="0"/>
		</comp>
	</station>
	<station code="COPA" name="COPA" netid="RO" source="Romanian Seismic Network (NIEP)" insttype="" lat="44.1343" lon="25.2172" esm:processing="manual (Paolucci et al 2011)" esm:quality="good">
		<comp name="--.HNE" depth="0.0">
			<acc value="0.0675814066407528" flag="0"/>
			<vel value="0.0195923015296518" flag="0"/>
			<psa03 value="0.0878448609574886" flag="0"/>
			<psa10 value="0.0089237030265362" flag="0"/>
			<psa30 value="0.000624637889613515" flag="0"/>
		</comp>
		<comp name="--.HNN" depth="0.0">
			<acc value="0.0484492547992365" flag="0"/>
			<vel value="0.0106349556742204" flag="0"/>
			<psa03 value="0.037146617031069" flag="0"/>
			<psa10 value="0.00351364924639258" flag="0"/>
			<psa30 value="0.000291752634471802" flag="0"/>
		</comp>
		<comp name="--.HNZ" depth="0.0">
			<acc value="0.0262330290642127" flag="0"/>
			<vel value="0.00359245512166285" flag="0"/>
			<psa03 value="0.0123329615294254" flag="0"/>
			<psa10 value="0.00139824450183633" flag="0"/>
			<psa30 value="9.86250685831681e-05" flag="0"/>
		</comp>
	</station>
	<station code="CVDA" name="CVDA" netid="RO" source="Romanian Seismic Network (NIEP)" insttype="" lat="44.3336" lon="28.0374" esm:processing="manual (Paolucci et al 2011)" esm:quality="good">
		<comp name="--.HNE" depth="0.0">
			<acc value="0.0540522735013916" flag="0"/>
			<vel value="0.0102960444262348" flag="0"/>
			<psa03 value="0.0263984909579884" flag="0"/>
			<psa10 value="0.00183017198209953" flag="0"/>
			<psa30 value="0.000187833784212283" flag="0"/>
		</comp>
		<comp name="--.HNN" depth="0.0">
			<acc value="0.0329759891632605" flag="0"/>
			<vel value="0.00884190543775063" flag="0"/>
			<psa03 value="0.0406126174699366" flag="0"/>
			<psa10 value="0.0032398025897719" flag="0"/>
			<psa30 value="0.000296920685163279" flag="0"/>
		</comp>
		<comp name="--.HNZ" depth="0.0">
			<acc value="0.0839492143242921" flag="0"/>
			<vel value="0.023719413151647" flag="0"/>
			<psa03 value="0.113442556679356" flag="0"/>
			<psa10 value="0.00465932412611507" flag="0"/>
			<psa30 value="0.000442253932569167" flag="0"/>
		</comp>
	</station>
	<station code="DOPR" name="DOPR" netid="RO" source="Romanian Seismic Network (NIEP)" insttype="" lat="45.9675" lon="25.3886" esm:processing="manual (Paolucci et al 2011)" esm:quality="good">
		<comp name="--.HNE" depth="0.0">
			<acc value="0.020986981443822" flag="0"/>
			<vel value="0.00378669166366437" flag="0"/>
			<psa03 value="0.0124651955496947" flag="0"/>
			<psa10 value="0.00125701331002388" flag="0"/>
			<psa30 value="9.8715419620285e-05" flag="0"/>
		</comp>
		<comp name="--.HNN" depth="0.0">
			<acc value="0.022020805595677" flag="0"/>
			<vel value="0.00530116297969278" flag="0"/>
			<psa03 value="0.0234225490247544" flag="0"/>
			<psa10 value="0.00115963892976189" flag="0"/>
			<psa30 value="9.05955197377868e-05" flag="0"/>
		</comp>
		<comp name="--.HNZ" depth="0.0">
			<acc value="0.0237871811401438" flag="0"/>
			<vel value="0.00550336656083951" flag="0"/>
			<psa03 value="0.0186995942251143" flag="0"/>
			<psa10 value="0.0015765715104377" flag="0"/>
			<psa30 value="0.000183118615084732" flag="0"/>
		</comp>
	</station>
	<station code="GISR" name="GISR" netid="RO" source="Romanian Seismic Network (NIEP)" insttype="" lat="45.4411" lon="28.0541" esm:processing="manual (Paolucci et al 2011)" esm:quality="good">
		<comp name="--.HNE" depth="0.0">
			<acc value="0.0615830089553339" flag="0"/>
			<vel value="0.0172561913952979" flag="0"/>
			<psa03 value="0.104312368515809" flag="0"/>
			<psa10 value="0.0074696145128025" flag="0"/>
			<psa30 value="0.000447593661300052" flag="0"/>
		</comp>
		<comp name="--.HNN" depth="0.0">
			<acc value="0.0458124219811288" flag="0"/>
			<vel value="0.0149167564728517" flag="0"/>
			<psa03 value="0.0637066056666363" flag="0"/>
			<psa10 value="0.00889580680354238" flag="0"/>
			<psa30 value="0.000586441921815879" flag="0"/>
		</comp>
		<comp name="--.HNZ" depth="0.0">
			<acc value="0.0653708884194145" flag="0"/>
			<vel value="0.0117168143581689" flag="0"/>
			<psa03 value="0.0473182960632214" flag="0"/>
			<psa10 value="0.00280692289799133" flag="0"/>
			<psa30 value="0.000232045137476539" flag="0"/>
		</comp>
	</station>
	<station code="MFTR" name="MFTR" netid="RO" source="Romanian Seismic Network (NIEP)" insttype="" lat="44.1779" lon="28.4224" esm:processing="automatic (Paolucci et al 2011)" esm:quality="best">
		<comp name="--.HNE" depth="0.0">
			<acc value="0.029711556484291" flag="0"/>
			<vel value="0.00715529392239601" flag="0"/>
			<psa03 value="0.0592121933503327" flag="0"/>
			<psa10 value="0.00105588432215322" flag="0"/>
			<psa30 value="0.000146412850174494" flag="0"/>
		</comp>
		<comp name="--.HNN" depth="0.0">
			<acc value="0.0251262323489339" flag="0"/>
			<vel value="0.00780433684494707" flag="0"/>
			<psa03 value="0.0359980643825818" flag="0"/>
			<psa10 value="0.00187038988071359" flag="0"/>
			<psa30 value="0.000159450133101431" flag="0"/>
		</comp>
		<comp name="--.HNZ" depth="0.0">
			<acc value="0.0519361721320114" flag="0"/>
			<vel value="0.010178232550565" flag="0"/>
			<psa03 value="0.0139510439798772" flag="0"/>
			<psa10 value="0.000871133430968863" flag="0"/>
			<psa30 value="8.72753909412577e-05" flag="0"/>
		</comp>
	</station>
	<station code="MLR" name="MLR" netid="RO" source="Romanian Seismic Network (NIEP)" insttype="" lat="45.4909" lon="25.945" esm:processing="automatic (Paolucci et al 2011)" esm:quality="best">
		<comp name="--.HNE" depth="0.0">
			<acc value="0.0100607649559553" flag="0"/>
			<vel value="0.0071162719473601" flag="0"/>
			<psa03 value="0.0332020067616808" flag="0"/>
			<psa10 value="0.00597263534529744" flag="0"/>
			<psa30 value="0.000397300277526675" flag="0"/>
		</comp>
		<comp name="--.HNN" depth="0.0">
			<acc value="0.011040823752538" flag="0"/>
			<vel value="0.00665042247581559" flag="0"/>
			<psa03 value="0.0287385626429082" flag="0"/>
			<psa10 value="0.00429796050005987" flag="0"/>
			<psa30 value="0.000501728445378964" flag="0"/>
		</comp>
		<comp name="--.HNZ" depth="0.0">
			<acc value="0.00624357316897758" flag="0"/>
			<vel value="0.00357914573225722" flag="0"/>
