<stationlist created="1764254819">
	<station code="KIS" name="KIS" netid="MD" source="Moldova Digital Seismic Network" insttype="" lat="46.9975" lon="28.8175">
		<comp name="--.HNE" depth="0.0">
			<acc value="0.011996875232496" flag="0"/>
			<vel value="0.00368509377296" flag="0"/>
			<psa03 value="0.0200162426445009" flag="0"/>
			<psa10 value="0.0017022043642465" flag="0"/>
			<psa30 value="0.000137941716086913" flag="0"/>
		</comp>
		<comp name="--.HNN" depth="0.0">
			<acc value="0.0074654921201748" flag="0"/>
			<vel value="0.00230388185457" flag="0"/>
			<psa03 value="0.0120757687104286" flag="0"/>
			<psa10 value="0.00134938978107656" flag="0"/>
			<psa30 value="0.000126366821702432" flag="0"/>
		</comp>
		<comp name="--.HNZ" depth="0.0">
			<acc value="0.009360306748236" flag="0"/>
			<vel value="0.00159231606764" flag="0"/>
			<psa03 value="0.00430556972807101" flag="0"/>
			<psa10 value="0.000505406156457199" flag="0"/>
			<psa30 value="5.69641121346079e-05" flag="0"/>
		</comp>
	</station>
	<station code="AMRR" name="AMRR" netid="RO" source="Romanian Seismic Network (NIEP)" insttype="" lat="44.6102" lon="27.3351">
		<comp name="--.HNE" depth="0.0">
			<acc value="0.028018886507316" flag="0"/>
			<vel value="0.0090511705173" flag="0"/>
			<psa03 value="0.0347911198451004" flag="0"/>
			<psa10 value="0.00336447819266821" flag="0"/>
			<psa30 value="0.000424118147829096" flag="0"/>
		</comp>
		<comp name="--.HNN" depth="0.0">
			<acc value="0.030865632580572" flag="0"/>
			<vel value="0.0108193443933" flag="0"/>
			<psa03 value="0.034774759386294" flag="0"/>
			<psa10 value="0.00369054635558425" flag="0"/>
			<psa30 value="0.000300021671838442" flag="0"/>
		</comp>
		<comp name="--.HNZ" depth="0.0">
			<acc value="0.10628108853444" flag="0"/>
			<vel value="0.0153143867337" flag="0"/>
			<psa03 value="0.0191320694890408" flag="0"/>
			<psa10 value="0.00191700347644662" flag="0"/>
			<psa30 value="0.000208569676092325" flag="0"/>
		</comp>
	</station>
	<station code="ARR" name="ARR" netid="RO" source="Romanian Seismic Network (NIEP)" insttype="" lat="45.3657" lon="24.6332">
		<comp name="--.HNE" depth="0.0">
			<acc value="0.0022219302323274" flag="0"/>
			<vel value="0.000852729856445" flag="0"/>
			<psa03 value="0.00689719583766872" flag="0"/>
			<psa10 value="0.000663429437224299" flag="0"/>
			<psa30 value="7.80783103258412e-05" flag="0"/>
		</comp>
		<comp name="--.HNN" depth="0.0">
			<acc value="0.0022252976816658" flag="0"/>
			<vel value="0.000855970790822" flag="0"/>
			<psa03 value="0.00684702389421336" flag="0"/>
			<psa10 value="0.000582764523258007" flag="0"/>
			<psa30 value="0.000203232825156255" flag="0"/>
		</comp>
		<comp name="--.HNZ" depth="0.0">
			<acc value="0.0037293336175596" flag="0"/>
			<vel value="0.000857964226986" flag="0"/>
			<psa03 value="0.00309400965045569" flag="0"/>
			<psa10 value="0.00039447495038887" flag="0"/>
			<psa30 value="5.06964117740425e-05" flag="0"/>
		</comp>
	</station>
	<station code="BAC" name="BAC" netid="RO" source="Romanian Seismic Network (NIEP)" insttype="" lat="46.5669" lon="26.9124">
		<comp name="--.HNE" depth="0.0">
			<acc value="0.034971982958142" flag="0"/>
			<vel value="0.0132227517649" flag="0"/>
			<psa03 value="0.0543425113830911" flag="0"/>
			<psa10 value="0.00330254846512734" flag="0"/>
			<psa30 value="0.00031494234776004" flag="0"/>
		</comp>
		<comp name="--.HNN" depth="0.0">
			<acc value="0.03140487279399" flag="0"/>
			<vel value="0.00914483338609" flag="0"/>
			<psa03 value="0.0281804501498352" flag="0"/>
			<psa10 value="0.00461246664703114" flag="0"/>
			<psa30 value="0.000420673258163876" flag="0"/>
		</comp>
		<comp name="--.HNZ" depth="0.0">
			<acc value="0.03031491162894" flag="0"/>
			<vel value="0.00499770453228" flag="0"/>
			<psa03 value="0.0186705428214118" flag="0"/>
			<psa10 value="0.00110237767555001" flag="0"/>
			<psa30 value="9.5420292480227e-05" flag="0"/>
		</comp>
	</station>
	<station code="BAPR" name="BAPR" netid="RO" source="Romanian Seismic Network (NIEP)" insttype="" lat="44.4059" lon="26.119">
		<comp name="--.HNE" depth="0.0">
			<acc value="0.048449883847908" flag="0"/>
			<vel value="0.0113937724432" flag="0"/>
			<psa03 value="0.0373825936008717" flag="0"/>
			<psa10 value="0.00684800849070214" flag="0"/>
			<psa30 value="0.00078532494058894" flag="0"/>
		</comp>
		<comp name="--.HNN" depth="0.0">
			<acc value="0.052478070737262" flag="0"/>
			<vel value="0.0172841892038" flag="0"/>
			<psa03 value="0.0647764004934651" flag="0"/>
			<psa10 value="0.00623365966811545" flag="0"/>
			<psa30 value="0.000758841884135329" flag="0"/>
		</comp>
		<comp name="--.HNZ" depth="0.0">
			<acc value="0.03995107182348" flag="0"/>
			<vel value="0.00651935002284" flag="0"/>
			<psa03 value="0.0220475855443352" flag="0"/>
			<psa10 value="0.00177132952938909" flag="0"/>
			<psa30 value="0.000605776483884982" flag="0"/>
		</comp>
	</station>
	<station code="BIR" name="BIR" netid="RO" source="Romanian Seismic Network (NIEP)" insttype="" lat="46.2334" lon="27.6436">
		<comp name="--.HNE" depth="0.0">
			<acc value="0.076604496217644" flag="0"/>
			<vel value="0.0159498784033" flag="0"/>
			<psa03 value="0.0541950693238859" flag="0"/>
			<psa10 value="0.00373780300172985" flag="0"/>
			<psa30 value="0.00044662286782293" flag="0"/>
		</comp>
		<comp name="--.HNN" depth="0.0">
			<acc value="0.055146083715528" flag="0"/>
			<vel value="0.00959815882121" flag="0"/>
			<psa03 value="0.0300819433019493" flag="0"/>
			<psa10 value="0.0041614875531317" flag="0"/>
			<psa30 value="0.000502460212606586" flag="0"/>
		</comp>
		<comp name="--.HNZ" depth="0.0">
			<acc value="0.051428794420026" flag="0"/>
			<vel value="0.00868820349849" flag="0"/>
			<psa03 value="0.0246286549650078" flag="0"/>
			<psa10 value="0.00150319414954736" flag="0"/>
			<psa30 value="0.000209121210024576" flag="0"/>
		</comp>
	</station>
	<station code="BISRR" name="BISRR" netid="RO" source="Romanian Seismic Network (NIEP)" insttype="" lat="45.5481" lon="26.7099">
		<comp name="--.HNE" depth="0.0">
			<acc value="0.0005236007654862" flag="0"/>
			<vel value="0.000140746250127" flag="0"/>
			<psa03 value="0.000251123996571973" flag="0"/>
			<psa10 value="0.000118301520977039" flag="0"/>
			<psa30 value="6.68273501611168e-05" flag="0"/>
		</comp>
		<comp name="--.HNN" depth="0.0">
			<acc value="0.001983712726827" flag="0"/>
			<vel value="0.000284056620175" flag="0"/>
			<psa03 value="0.000967586640182332" flag="0"/>
			<psa10 value="0.000182854129790256" flag="0"/>
			<psa30 value="6.40528108929054e-05" flag="0"/>
		</comp>
		<comp name="--.HNZ" depth="0.0">
			<acc value="0.0012737451580866" flag="0"/>
			<vel value="0.000370863846774" flag="0"/>
			<psa03 value="0.00131529139592424" flag="0"/>
			<psa10 value="0.000268435458313061" flag="0"/>
			<psa30 value="6.70704001159377e-05" flag="0"/>
		</comp>
	</station>
	<station code="BSTR" name="BSTR" netid="RO" source="Romanian Seismic Network (NIEP)" insttype="" lat="44.4458" lon="26.0984">
		<comp name="--.HNE" depth="0.0">
			<acc value="0.036012098864274" flag="0"/>
			<vel value="0.0097386368136" flag="0"/>
			<psa03 value="0.0503056502105927" flag="0"/>
			<psa10 value="0.00492680309528688" flag="0"/>
			<psa30 value="0.000785893415746547" flag="0"/>
		</comp>
		<comp name="--.HNN" depth="0.0">
			<acc value="0.064285777816074" flag="0"/>
			<vel value="0.0189951849718" flag="0"/>
			<psa03 value="0.109074423562084" flag="0"/>
			<psa10 value="0.00662048701228183" flag="0"/>
			<psa30 value="0.000825728502545449" flag="0"/>
		</comp>
		<comp name="--.HNZ" depth="0.0">
			<acc value="0.058181590628724" flag="0"/>
			<vel value="0.010099420961" flag="0"/>
			<psa03 value="0.0428649072980614" flag="0"/>
			<psa10 value="0.00187452148253725" flag="0"/>
			<psa30 value="0.00069534048997694" flag="0"/>
		</comp>
	</station>
	<station code="BTMR" name="BTMR" netid="RO" source="Romanian Seismic Network (NIEP)" insttype="" lat="44.437" lon="26.1067">
		<comp name="--.HNE" depth="0.0">
			<acc value="0.037024578880614" flag="0"/>
			<vel value="0.0120891537079" flag="0"/>
			<psa03 value="0.0665455593582039" flag="0"/>
			<psa10 value="0.00513308644801694" flag="0"/>
			<psa30 value="0.000471554467336569" flag="0"/>
		</comp>
		<comp name="--.HNN" depth="0.0">
			<acc value="0.045643590897336" flag="0"/>
			<vel value="0.0171841227876" flag="0"/>
			<psa03 value="0.073993636090429" flag="0"/>
			<psa10 value="0.00659638135289612" flag="0"/>
			<psa30 value="0.00103340606224535" flag="0"/>
		</comp>
		<comp name="--.HNZ" depth="0.0">
			<acc value="0.044675629000602" flag="0"/>
			<vel value="0.00814542775899" flag="0"/>
			<psa03 value="0.029367794430564" flag="0"/>
			<psa10 value="0.00174500899671962" flag="0"/>
			<psa30 value="0.000542026896205462" flag="0"/>
		</comp>
	</station>
	<station code="BUC" name="BUC" netid="RO" source="Romanian Seismic Network (NIEP)" insttype="" lat="44.4107" lon="26.0938">
		<comp name="--.HNE" depth="0.0">
			<acc value="0.037542990962904" flag="0"/>
			<vel value="0.012771763108" flag="0"/>
			<psa03 value="0.0554798836034433" flag="0"/>
			<psa10 value="0.00747919592876437" flag="0"/>
			<psa30 value="0.000569210259471224" flag="0"/>
		</comp>
		<comp name="--.HNN" depth="0.0">
			<acc value="0.051478356531636" flag="0"/>
			<vel value="0.018961375838" flag="0"/>
			<psa03 value="0.082468827738215" flag="0"/>
			<psa10 value="0.0078765530329802" flag="0"/>
			<psa30 value="0.000671773980896777" flag="0"/>
		</comp>
		<comp name="--.HNZ" depth="0.0">
			<acc value="0.053525014778802" flag="0"/>
			<vel value="0.0109666939608" flag="0"/>
			<psa03 value="0.029027081755855" flag="0"/>
			<psa10 value="0.00169153900928445" flag="0"/>
			<psa30 value="0.00024663123394197" flag="0"/>
		</comp>
	</station>
	<station code="BUC1" name="BUC1" netid="RO" source="Romanian Seismic Network (NIEP)" insttype="" lat="44.3479" lon="26.0281">
		<comp name="--.HNE" depth="0.0">
			<acc value="0.02996032542732" flag="0"/>
			<vel value="0.012368002169" flag="0"/>
			<psa03 value="0.0699796410159045" flag="0"/>
			<psa10 value="0.00720459336269117" flag="0"/>
			<psa30 value="0.000913553851794412" flag="0"/>
		</comp>
		<comp name="--.HNN" depth="0.0">
			<acc value="0.071301119340234" flag="0"/>
			<vel value="0.0277922495401" flag="0"/>
			<psa03 value="0.136556806634855" flag="0"/>
			<psa10 value="0.0100386734503629" flag="0"/>
			<psa30 value="0.000643330429985911" flag="0"/>
		</comp>
		<comp name="--.HNZ" depth="0.0">
			<acc value="0.10528828755354" flag="0"/>
			<vel value="0.0166391541071" flag="0"/>
			<psa03 value="0.0301348921220474" flag="0"/>
			<psa10 value="0.0028508704186751" flag="0"/>
			<psa30 value="0.00044245003931042" flag="0"/>
		</comp>
	</station>
	<station code="CFR" name="CFR" netid="RO" source="Romanian Seismic Network (NIEP)" insttype="" lat="45.178" lon="28.1362">
		<comp name="--.HNE" depth="0.0">
			<acc value="0.052503502538532" flag="0"/>
			<vel value="0.00956168852352" flag="0"/>
			<psa03 value="0.0268645843343709" flag="0"/>
			<psa10 value="0.00165987777125593" flag="0"/>
			<psa30 value="0.000147936167232463" flag="0"/>
		</comp>
		<comp name="--.HNN" depth="0.0">
			<acc value="0.084756086254404" flag="0"/>
			<vel value="0.015254174889" flag="0"/>
			<psa03 value="0.0253223753997406" flag="0"/>
			<psa10 value="0.0013209928999225" flag="0"/>
			<psa30 value="0.000212510223592665" flag="0"/>
		</comp>
		<comp name="--.HNZ" depth="0.0">
			<acc value="0.032511883453554" flag="0"/>
			<vel value="0.00548576052787" flag="0"/>
			<psa03 value="0.0158891293997697" flag="0"/>
			<psa10 value="0.000919266228907262" flag="0"/>
			<psa30 value="8.3881533302242e-05" flag="0"/>
		</comp>
	</station>
	<station code="CIOR" name="CIOR" netid="RO" source="Romanian Seismic Network (NIEP)" insttype="" lat="44.4489" lon="25.8799">
		<comp name="--.HNE" depth="0.0">
			<acc value="0.15202314878256" flag="0"/>
			<vel value="0.0278699331386" flag="0"/>
			<psa03 value="0.119297527875831" flag="0"/>
			<psa10 value="0.0081988934489399" flag="0"/>
			<psa30 value="0.0007376373544374" flag="0"/>
		</comp>
		<comp name="--.HNN" depth="0.0">
			<acc value="0.1131053754294" flag="0"/>
			<vel value="0.0331561468321" flag="0"/>
			<psa03 value="0.124029685107832" flag="0"/>
			<psa10 value="0.00776042471506621" flag="0"/>
			<psa30 value="0.000829325615834149" flag="0"/>
		</comp>
		<comp name="--.HNZ" depth="0.0">
			<acc value="0.064750760044368" flag="0"/>
			<vel value="0.011459653492" flag="0"/>
			<psa03 value="0.0229688731376257" flag="0"/>
			<psa10 value="0.00250718546373407" flag="0"/>
			<psa30 value="0.000226596000456102" flag="0"/>
		</comp>
	</station>
	<station code="CLISU" name="CLISU" netid="RO" source="Romanian Seismic Network (NIEP)" insttype="" lat="44.1901" lon="27.3557">
		<comp name="--.HNE" depth="0.0">
			<acc value="0.034243158425226" flag="0"/>
			<vel value="0.00441927230722" flag="0"/>
			<psa03 value="0.0174109463584848" flag="0"/>
			<psa10 value="0.00259945540428765" flag="0"/>
			<psa30 value="0.000161081985995264" flag="0"/>
		</comp>
		<comp name="--.HNN" depth="0.0">
			<acc value="0.022703598960264" flag="0"/>
			<vel value="0.00569101480943" flag="0"/>
			<psa03 value="0.025232890305125" flag="0"/>
			<psa10 value="0.00430981222265244" flag="0"/>
			<psa30 value="0.00024540794978074" flag="0"/>
		</comp>
		<comp name="--.HNZ" depth="0.0">
			<acc value="0.056099521601538" flag="0"/>
			<vel value="0.0102870184063" flag="0"/>
			<psa03 value="0.026102239561949" flag="0"/>
			<psa10 value="0.0016721149490972" flag="0"/>
			<psa30 value="0.000145049426521098" flag="0"/>
		</comp>
	</station>
	<station code="COPA" name="COPA" netid="RO" source="Romanian Seismic Network (NIEP)" insttype="" lat="44.1343" lon="25.2172">
		<comp name="--.HNE" depth="0.0">
			<acc value="0.067542216401034" flag="0"/>
			<vel value="0.0197274830409" flag="0"/>
			<psa03 value="0.0878448609574886" flag="0"/>
			<psa10 value="0.0089237030265362" flag="0"/>
			<psa30 value="0.000624637889613515" flag="0"/>
		</comp>
		<comp name="--.HNN" depth="0.0">
			<acc value="0.047689136322258" flag="0"/>
			<vel value="0.0106829538218" flag="0"/>
			<psa03 value="0.037146617031069" flag="0"/>
			<psa10 value="0.00351364924639258" flag="0"/>
			<psa30 value="0.000291752634471802" flag="0"/>
		</comp>
		<comp name="--.HNZ" depth="0.0">
			<acc value="0.028401352762044" flag="0"/>
			<vel value="0.00371756935686" flag="0"/>
			<psa03 value="0.0123329615294254" flag="0"/>
			<psa10 value="0.00139824450183633" flag="0"/>
			<psa30 value="9.86250685831681e-05" flag="0"/>
		</comp>
	</station>
	<station code="CVD1" name="CVD1" netid="RO" source="Romanian Seismic Network (NIEP)" insttype="" lat="44.3207" lon="28.0624">
		<comp name="--.HNE" depth="0.0">
			<acc value="0.03386541134034" flag="0"/>
			<vel value="0.00433906927589" flag="0"/>
			<psa03 value="0.0168896943802131" flag="0"/>
			<psa10 value="0.00104360483682498" flag="0"/>
			<psa30 value="0.000113648296870932" flag="0"/>
		</comp>
		<comp name="--.HNN" depth="0.0">
			<acc value="0.031802593746132" flag="0"/>
			<vel value="0.00389836197645" flag="0"/>
			<psa03 value="0.0135150424406353" flag="0"/>
			<psa10 value="0.001003821615443" flag="0"/>
			<psa30 value="0.000112374332268654" flag="0"/>
		</comp>
		<comp name="--.HNZ" depth="0.0">
			<acc value="0.032561422342926" flag="0"/>
			<vel value="0.00505825486726" flag="0"/>
			<psa03 value="0.026404249151928" flag="0"/>
			<psa10 value="0.00134932215941015" flag="0"/>
			<psa30 value="0.000166806180298922" flag="0"/>
		</comp>
	</station>
	<station code="CVDA" name="CVDA" netid="RO" source="Romanian Seismic Network (NIEP)" insttype="" lat="44.3336" lon="28.0374">
		<comp name="--.HNE" depth="0.0">
			<acc value="0.053896598673624" flag="0"/>
			<vel value="0.0102124114255" flag="0"/>
			<psa03 value="0.0263984909579884" flag="0"/>
			<psa10 value="0.00183017198209953" flag="0"/>
			<psa30 value="0.000187833784212283" flag="0"/>
		</comp>
		<comp name="--.HNN" depth="0.0">
			<acc value="0.0328845365748" flag="0"/>
			<vel value="0.00884238482566" flag="0"/>
			<psa03 value="0.0406126174699366" flag="0"/>
			<psa10 value="0.0032398025897719" flag="0"/>
			<psa30 value="0.000296920685163279" flag="0"/>
		</comp>
		<comp name="--.HNZ" depth="0.0">
			<acc value="0.084917581129278" flag="0"/>
			<vel value="0.0235614868164" flag="0"/>
			<psa03 value="0.113442556679356" flag="0"/>
			<psa10 value="0.00465932412611507" flag="0"/>
			<psa30 value="0.000442253932569167" flag="0"/>
		</comp>
	</station>
	<station code="DOPR" name="DOPR" netid="RO" source="Romanian Seismic Network (NIEP)" insttype="" lat="45.9675" lon="25.3886">
		<comp name="--.HNE" depth="0.0">
			<acc value="0.020915102243898" flag="0"/>
			<vel value="0.00374508684807" flag="0"/>
			<psa03 value="0.0124651955496947" flag="0"/>
			<psa10 value="0.00125701331002388" flag="0"/>
			<psa30 value="9.8715419620285e-05" flag="0"/>
		</comp>
		<comp name="--.HNN" depth="0.0">
			<acc value="0.021851568294012" flag="0"/>
			<vel value="0.00525936750912" flag="0"/>
			<psa03 value="0.0234225490247544" flag="0"/>
			<psa10 value="0.00115963892976189" flag="0"/>
			<psa30 value="9.05955197377868e-05" flag="0"/>
		</comp>
		<comp name="--.HNZ" depth="0.0">
			<acc value="0.023726199996066" flag="0"/>
			<vel value="0.00547550730217" flag="0"/>
			<psa03 value="0.0186995942251143" flag="0"/>
			<psa10 value="0.0015765715104377" flag="0"/>
			<psa30 value="0.000183118615084732" flag="0"/>
		</comp>
	</station>
	<station code="GISR" name="GISR" netid="RO" source="Romanian Seismic Network (NIEP)" insttype="" lat="45.4411" lon="28.0541">
		<comp name="--.HNE" depth="0.0">
			<acc value="0.061612266038718" flag="0"/>
			<vel value="0.0174112517939" flag="0"/>
			<psa03 value="0.104028464291736" flag="0"/>
			<psa10 value="0.00753876628125321" flag="0"/>
			<psa30 value="0.000914243168287528" flag="0"/>
		</comp>
		<comp name="--.HNN" depth="0.0">
			<acc value="0.045667607788062" flag="0"/>
			<vel value="0.0150310829414" flag="0"/>
			<psa03 value="0.0635732322480204" flag="0"/>
			<psa10 value="0.00922025579670582" flag="0"/>
			<psa30 value="0.00103068827803984" flag="0"/>
		</comp>
		<comp name="--.HNZ" depth="0.0">
			<acc value="0.066756466433016" flag="0"/>
			<vel value="0.011435610765" flag="0"/>
			<psa03 value="0.0471613950444807" flag="0"/>
			<psa10 value="0.00285361466296791" flag="0"/>
			<psa30 value="0.000567413890470222" flag="0"/>
		</comp>
	</station>
	<station code="GIUM" name="GIUM" netid="RO" source="Romanian Seismic Network (NIEP)" insttype="" lat="45.485" lon="28.2081">
		<comp name="--.HNE" depth="0.0">
			<acc value="0.045198673392492" flag="0"/>
			<vel value="0.0102926502212" flag="0"/>
			<psa03 value="0.0364880812188141" flag="0"/>
			<psa10 value="0.00356505929268303" flag="0"/>
			<psa30 value="0.00108383336114265" flag="0"/>
		</comp>
		<comp name="--.HNN" depth="0.0">
			<acc value="0.03728474687973" flag="0"/>
			<vel value="0.0112122878558" flag="0"/>
			<psa03 value="0.0424756888059363" flag="0"/>
			<psa10 value="0.00325032063029114" flag="0"/>
			<psa30 value="0.000781117734798838" flag="0"/>
		</comp>
		<comp name="--.HNZ" depth="0.0">
			<acc value="0.04920763851618" flag="0"/>
			<vel value="0.00588433114411" flag="0"/>
			<psa03 value="0.024733703590648" flag="0"/>
			<psa10 value="0.00134176716673902" flag="0"/>
			<psa30 value="0.000751014438521328" flag="0"/>
		</comp>
	</station>
	<station code="GRISU" name="GRISU" netid="RO" source="Romanian Seismic Network (NIEP)" insttype="" lat="43.8898" lon="25.9518">
		<comp name="--.HNE" depth="0.0">
			<acc value="0.032297482499988" flag="0"/>
			<vel value="0.0111844859513" flag="0"/>
			<psa03 value="0.0831121359795474" flag="0"/>
			<psa10 value="0.00270502513213866" flag="0"/>
			<psa30 value="0.000226220246397868" flag="0"/>
