<?xml version="1.0" encoding="UTF-8" standalone="yes"?>
<!DOCTYPE earthquake SYSTEM "stationlist.dtd">
<stationlist created="" xmlns="ch.ethz.sed.shakemap.usgs.xml">
  <station code="AGRP" name="AGRP" netid="CL" source="RESIF" insttype="30" lat="38.3959" lon="21.7228">
    <comp name="00.HHE">
      <acc value="0.0101955764" flag="0"/>
      <vel value="0.0112367759" flag="0"/>
      <psa03 value="0.0300752412" flag="0"/>
      <psa10 value="0.0161761227" flag="0"/>
      <psa30 value="0.0037311594" flag="0"/>
    </comp>
    <comp name="00.HHN">
      <acc value="0.0114191717" flag="0"/>
      <vel value="0.0130082052" flag="0"/>
      <psa03 value="0.0217718538" flag="0"/>
      <psa10 value="0.0173740471" flag="0"/>
      <psa30 value="0.0032202588" flag="0"/>
    </comp>
    <comp name="00.HHZ">
      <acc value="0.0086435887" flag="0"/>
      <vel value="0.0042329291" flag="0"/>
      <psa03 value="0.0117255773" flag="0"/>
      <psa10 value="0.0049178407" flag="0"/>
      <psa30 value="0.0010086068" flag="0"/>
    </comp>
  </station>
  <station code="MALA" name="MALA" netid="CL" source="RESIF" insttype="30" lat="38.3935" lon="21.8726">
    <comp name="00.HH2">
      <acc value="0.0106373054" flag="0"/>
      <vel value="0.0125730207" flag="0"/>
      <psa03 value="0.0248171704" flag="0"/>
      <psa10 value="0.0141248330" flag="0"/>
      <psa30 value="0.0084793806" flag="0"/>
    </comp>
    <comp name="00.HH3">
      <acc value="0.0079305640" flag="0"/>
      <vel value="0.0131434141" flag="0"/>
      <psa03 value="0.0192720468" flag="0"/>
      <psa10 value="0.0183177611" flag="0"/>
      <psa30 value="0.0074500988" flag="0"/>
    </comp>
    <comp name="00.HHZ">
      <acc value="0.0062635912" flag="0"/>
      <vel value="0.0108396903" flag="0"/>
      <psa03 value="0.0113531285" flag="0"/>
      <psa10 value="0.0132630941" flag="0"/>
      <psa30 value="0.0045897936" flag="0"/>
    </comp>
  </station>
  <station code="MG00" name="MG00" netid="CL" source="RESIF" insttype="40" lat="38.4145" lon="21.9467">
    <comp name="00.HHE">
      <acc value="0.0205427917" flag="0"/>
      <vel value="0.0154796939" flag="0"/>
      <psa03 value="0.0688542403" flag="0"/>
      <psa10 value="0.0186322548" flag="0"/>
      <psa30 value="0.0034499622" flag="0"/>
    </comp>
    <comp name="00.HHN">
      <acc value="0.0192391110" flag="0"/>
      <vel value="0.0130908638" flag="0"/>
      <psa03 value="0.0539738491" flag="0"/>
      <psa10 value="0.0237600557" flag="0"/>
      <psa30 value="0.0053756441" flag="0"/>
    </comp>
    <comp name="00.HHZ">
      <acc value="0.0187403446" flag="0"/>
      <vel value="0.0068054931" flag="0"/>
      <psa03 value="0.0245992142" flag="0"/>
      <psa10 value="0.0099735634" flag="0"/>
      <psa30 value="0.0041801520" flag="0"/>
    </comp>
  </station>
  <station code="MG02" name="MG02" netid="CL" source="RESIF" insttype="40" lat="38.415" lon="21.947">
    <comp name="02.HHE">
      <acc value="0.0198914337" flag="0"/>
      <vel value="0.0163251912" flag="0"/>
      <psa03 value="0.0593491632" flag="0"/>
      <psa10 value="0.0217664141" flag="0"/>
      <psa30 value="0.0035511404" flag="0"/>
    </comp>
    <comp name="02.HHN">
      <acc value="0.0182205132" flag="0"/>
      <vel value="0.0174010679" flag="0"/>
      <psa03 value="0.0528205143" flag="0"/>
      <psa10 value="0.0267702554" flag="0"/>
      <psa30 value="0.0053853052" flag="0"/>
    </comp>
    <comp name="02.HHZ">
      <acc value="0.0175393990" flag="0"/>
      <vel value="0.0050020650" flag="0"/>
      <psa03 value="0.0297233899" flag="0"/>
      <psa10 value="0.0047061177" flag="0"/>
      <psa30 value="0.0013546814" flag="0"/>
    </comp>
  </station>
  <station code="MG03" name="MG03" netid="CL" source="RESIF" insttype="40" lat="38.4141" lon="21.946">
    <comp name="03.HHE">
      <acc value="0.0141952954" flag="0"/>
      <vel value="0.0110798460" flag="0"/>
      <psa03 value="0.0387716205" flag="0"/>
      <psa10 value="0.0160089126" flag="0"/>
      <psa30 value="0.0041420643" flag="0"/>
    </comp>
    <comp name="03.HHN">
      <acc value="0.0069907195" flag="0"/>
      <vel value="0.0066088911" flag="0"/>
      <psa03 value="0.0183746934" flag="0"/>
      <psa10 value="0.0093751627" flag="0"/>
      <psa30 value="0.0027019228" flag="0"/>
    </comp>
    <comp name="03.HHZ">
      <acc value="0.0119366140" flag="0"/>
      <vel value="0.0062693008" flag="0"/>
      <psa03 value="0.0160187373" flag="0"/>
      <psa10 value="0.0090983438" flag="0"/>
      <psa30 value="0.0041415666" flag="0"/>
    </comp>
  </station>
  <station code="MG04" name="MG04" netid="CL" source="RESIF" insttype="40" lat="38.4142" lon="21.9481">
    <comp name="04.HHE">
      <acc value="0.0161502757" flag="0"/>
      <vel value="0.0136292163" flag="0"/>
      <psa03 value="0.0459161807" flag="0"/>
      <psa10 value="0.0201685326" flag="0"/>
      <psa30 value="0.0042150278" flag="0"/>
    </comp>
    <comp name="04.HHN">
      <acc value="0.0107596917" flag="0"/>
      <vel value="0.0052051169" flag="0"/>
      <psa03 value="0.0177296451" flag="0"/>
      <psa10 value="0.0077927010" flag="0"/>
      <psa30 value="0.0010671232" flag="0"/>
    </comp>
    <comp name="04.HHZ">
      <acc value="0.0155105410" flag="0"/>
      <vel value="0.0068665948" flag="0"/>
      <psa03 value="0.0224267799" flag="0"/>
      <psa10 value="0.0095452066" flag="0"/>
      <psa30 value="0.0042164306" flag="0"/>
    </comp>
  </station>
  <station code="MG05" name="MG05" netid="CL" source="RESIF" insttype="30" lat="38.4155" lon="21.9458">
    <comp name="05.HHE">
      <acc value="0.0392945588" flag="0"/>
      <vel value="0.0288707346" flag="0"/>
      <psa03 value="0.0861978384" flag="0"/>
      <psa10 value="0.0353846293" flag="0"/>
      <psa30 value="0.0088291509" flag="0"/>
    </comp>
    <comp name="05.HHN">
      <acc value="0.0343488150" flag="0"/>
      <vel value="0.0361528729" flag="0"/>
      <psa03 value="0.0980560709" flag="0"/>
      <psa10 value="0.0492159457" flag="0"/>
      <psa30 value="0.0098227334" flag="0"/>
    </comp>
    <comp name="05.HHZ">
      <acc value="0.0221054059" flag="0"/>
      <vel value="0.0089794179" flag="0"/>
      <psa03 value="0.0379351144" flag="0"/>
      <psa10 value="0.0113062042" flag="0"/>
      <psa30 value="0.0026675710" flag="0"/>
    </comp>
  </station>
  <station code="MG06" name="MG06" netid="CL" source="RESIF" insttype="40" lat="38.4129" lon="21.9462">
    <comp name="06.HHE">
      <acc value="0.0061733801" flag="0"/>
      <vel value="0.0033674655" flag="0"/>
      <psa03 value="0.0127607195" flag="0"/>
      <psa10 value="0.0060807791" flag="0"/>
      <psa30 value="0.0009680452" flag="0"/>
    </comp>
    <comp name="06.HHN">
      <acc value="0.0105595935" flag="0"/>
      <vel value="0.0083615714" flag="0"/>
      <psa03 value="0.0197928334" flag="0"/>
      <psa10 value="0.0134446081" flag="0"/>
      <psa30 value="0.0041185653" flag="0"/>
    </comp>
    <comp name="06.HHZ">
      <acc value="0.0089207071" flag="0"/>
      <vel value="0.0060573944" flag="0"/>
      <psa03 value="0.0130387838" flag="0"/>
      <psa10 value="0.0076619561" flag="0"/>
      <psa30 value="0.0041510195" flag="0"/>
    </comp>
  </station>
  <station code="MG07" name="MG07" netid="CL" source="RESIF" insttype="40" lat="38.4155" lon="21.9488">
    <comp name="07.HHE">
      <acc value="0.0201616248" flag="0"/>
      <vel value="0.0232892477" flag="0"/>
      <psa03 value="0.0507457434" flag="0"/>
      <psa10 value="0.0258850544" flag="0"/>
      <psa30 value="0.0037586600" flag="0"/>
    </comp>
    <comp name="07.HHN">
      <acc value="0.0186128885" flag="0"/>
      <vel value="0.0169208020" flag="0"/>
      <psa03 value="0.0520234391" flag="0"/>
      <psa10 value="0.0264183368" flag="0"/>
      <psa30 value="0.0050823836" flag="0"/>
    </comp>
    <comp name="07.HHZ">
      <acc value="0.0122609703" flag="0"/>
      <vel value="0.0047802187" flag="0"/>
      <psa03 value="0.0219484190" flag="0"/>
      <psa10 value="0.0051013295" flag="0"/>
      <psa30 value="0.0013551692" flag="0"/>
    </comp>
  </station>
  <station code="ROD3" name="ROD3" netid="CL" source="RESIF" insttype="30" lat="38.3081" lon="21.892">
    <comp name="00.HHE">
      <acc value="0.0340813925" flag="0"/>
      <vel value="0.0212947930" flag="0"/>
      <psa03 value="0.1279675964" flag="0"/>
      <psa10 value="0.0246136100" flag="0"/>
      <psa30 value="0.0031947898" flag="0"/>
    </comp>
    <comp name="00.HHN">
      <acc value="0.0339283120" flag="0"/>
      <vel value="0.0221595440" flag="0"/>
      <psa03 value="0.1155773008" flag="0"/>
      <psa10 value="0.0240140022" flag="0"/>
      <psa30 value="0.0075860430" flag="0"/>
    </comp>
    <comp name="00.HHZ">
      <acc value="0.0183145782" flag="0"/>
      <vel value="0.0081253279" flag="0"/>
      <psa03 value="0.0231365066" flag="0"/>
      <psa10 value="0.0144700794" flag="0"/>
      <psa30 value="0.0014125668" flag="0"/>
    </comp>
  </station>
  <station code="ITM" name="ITM" netid="HL" source="NOA" insttype="DR24" lat="37.1787" lon="21.9252">
    <comp name="--.HHE">
      <acc value="0.0081726660" flag="0"/>
      <vel value="0.0074706204" flag="0"/>
      <psa03 value="0.0174181772" flag="0"/>
      <psa10 value="0.0100810192" flag="0"/>
      <psa30 value="0.0031507529" flag="0"/>
    </comp>
    <comp name="--.HHN">
      <acc value="0.0094407436" flag="0"/>
      <vel value="0.0084176360" flag="0"/>
      <psa03 value="0.0306443007" flag="0"/>
      <psa10 value="0.0098800006" flag="0"/>
      <psa30 value="0.0026214020" flag="0"/>
    </comp>
    <comp name="--.HHZ">
      <acc value="0.0063994220" flag="0"/>
      <vel value="0.0055790341" flag="0"/>
      <psa03 value="0.0151603649" flag="0"/>
      <psa10 value="0.0090488193" flag="0"/>
      <psa30 value="0.0023539576" flag="0"/>
    </comp>
  </station>
  <station code="KLV" name="KLV" netid="HL" source="NOA" insttype="120" lat="38.0435" lon="22.1504">
    <comp name="--.HHE">
      <acc value="0.0052055743" flag="0"/>
      <vel value="0.0060218106" flag="0"/>
      <psa03 value="0.0088871572" flag="0"/>
      <psa10 value="0.0084259668" flag="0"/>
      <psa30 value="0.0017456589" flag="0"/>
    </comp>
    <comp name="--.HHN">
      <acc value="0.0045343453" flag="0"/>
      <vel value="0.0069105875" flag="0"/>
      <psa03 value="0.0103374640" flag="0"/>
      <psa10 value="0.0095420374" flag="0"/>
      <psa30 value="0.0022467838" flag="0"/>
    </comp>
    <comp name="--.HHZ">
      <acc value="0.0052501426" flag="0"/>
      <vel value="0.0067907901" flag="0"/>
      <psa03 value="0.0123407578" flag="0"/>
      <psa10 value="0.0110200181" flag="0"/>
      <psa30 value="0.0024503883" flag="0"/>
    </comp>
  </station>
  <station code="LXRA" name="LXRA" netid="HL" source="NOA" insttype="CMG-5" lat="38.2001" lon="20.4372">
    <comp name="00.HNE">
      <acc value="0.2935005007" flag="0"/>
      <vel value="0.1862666470" flag="0"/>
      <psa03 value="0.6505930188" flag="0"/>
      <psa10 value="0.2686863715" flag="0"/>
      <psa30 value="0.0566447956" flag="0"/>
    </comp>
    <comp name="00.HNN">
      <acc value="0.2391414793" flag="0"/>
      <vel value="0.1957584291" flag="0"/>
      <psa03 value="0.4936241206" flag="0"/>
      <psa10 value="0.2800965294" flag="0"/>
      <psa30 value="0.1117624674" flag="0"/>
    </comp>
    <comp name="00.HNZ">
      <acc value="0.2241167894" flag="0"/>
      <vel value="0.1063485017" flag="0"/>
      <psa03 value="0.3028612958" flag="0"/>
      <psa10 value="0.1573871540" flag="0"/>
      <psa30 value="0.0337852245" flag="0"/>
    </comp>
  </station>
  <station code="RLS" name="RLS" netid="HL" source="NOA" insttype="120" lat="38.0559" lon="21.4647">
    <comp name="--.HHE">
      <acc value="0.0172443670" flag="0"/>
      <vel value="0.0198476059" flag="0"/>
      <psa03 value="0.0459685689" flag="0"/>
      <psa10 value="0.0213803766" flag="0"/>
      <psa30 value="0.0056998476" flag="0"/>
    </comp>
    <comp name="--.HHN">
      <acc value="0.0196461977" flag="0"/>
      <vel value="0.0137448789" flag="0"/>
      <psa03 value="0.0580447032" flag="0"/>
      <psa10 value="0.0208802017" flag="0"/>
      <psa30 value="0.0035243590" flag="0"/>
    </comp>
    <comp name="--.HHZ">
      <acc value="0.0099450979" flag="0"/>
      <vel value="0.0144437073" flag="0"/>
      <psa03 value="0.0205085520" flag="0"/>
      <psa10 value="0.0159455290" flag="0"/>
      <psa30 value="0.0053034763" flag="0"/>
    </comp>
  </station>
  <station code="VLS" name="VLS" netid="HL" source="NOA" insttype="120P," lat="38.1768" lon="20.5886">
    <comp name="--.HHE">
      <acc value="0.2167360836" flag="0"/>
      <vel value="0.0493665998" flag="0"/>
      <psa03 value="0.2682502792" flag="0"/>
      <psa10 value="0.0412347751" flag="0"/>
      <psa30 value="0.0151848110" flag="0"/>
    </comp>
    <comp name="--.HHN">
      <acc value="0.1720072435" flag="0"/>
      <vel value="0.0589605324" flag="0"/>
      <psa03 value="0.2460897649" flag="0"/>
      <psa10 value="0.0721773778" flag="0"/>
      <psa30 value="0.0320522841" flag="0"/>
    </comp>
    <comp name="--.HHZ">
      <acc value="0.0925589204" flag="0"/>
      <vel value="0.0472063888" flag="0"/>
      <psa03 value="0.1666486377" flag="0"/>
      <psa10 value="0.0498151077" flag="0"/>
      <psa30 value="0.0193060871" flag="0"/>
    </comp>
  </station>
  <station code="AMT" name="AMT" netid="HP" source="NOA" insttype="CMG-3T," lat="37.5324" lon="21.7089">
    <comp name="00.HHE">
      <acc value="0.0281180096" flag="0"/>
      <vel value="0.0254365368" flag="0"/>
      <psa03 value="0.0871499171" flag="0"/>
      <psa10 value="0.0505998051" flag="0"/>
      <psa30 value="0.0040122962" flag="0"/>
    </comp>
    <comp name="00.HHN">
      <acc value="0.0256650348" flag="0"/>
      <vel value="0.0176036172" flag="0"/>
      <psa03 value="0.0747485716" flag="0"/>
      <psa10 value="0.0350259856" flag="0"/>
      <psa30 value="0.0037680021" flag="0"/>
    </comp>
    <comp name="00.HHZ">
      <acc value="0.0214217425" flag="0"/>
      <vel value="0.0159251735" flag="0"/>
      <psa03 value="0.0495593719" flag="0"/>
      <psa10 value="0.0149221497" flag="0"/>
      <psa30 value="0.0017515350" flag="0"/>
    </comp>
  </station>
  <station code="DRO" name="DRO" netid="HP" source="NOA" insttype="120P," lat="37.952" lon="21.71">
    <comp name="--.HHE">
      <acc value="0.0296166631" flag="0"/>
      <vel value="0.0196140135" flag="0"/>
      <psa03 value="0.0645101189" flag="0"/>
      <psa10 value="0.0347747726" flag="0"/>
      <psa30 value="0.0041430025" flag="0"/>
    </comp>
    <comp name="--.HHN">
      <acc value="0.0254032068" flag="0"/>
      <vel value="0.0235646991" flag="0"/>
      <psa03 value="0.0770207916" flag="0"/>
      <psa10 value="0.0290539646" flag="0"/>
      <psa30 value="0.0043363107" flag="0"/>
    </comp>
    <comp name="--.HHZ">
      <acc value="0.0139868618" flag="0"/>
      <vel value="0.0097951514" flag="0"/>
      <psa03 value="0.0352404915" flag="0"/>
      <psa10 value="0.0164759711" flag="0"/>
      <psa30 value="0.0021625026" flag="0"/>
    </comp>
  </station>
  <station code="FSK" name="FSK" netid="HP" source="NOA" insttype="40," lat="38.4593" lon="20.5623">
    <comp name="--.HHE">
      <acc value="0.0851124236" flag="0"/>
      <vel value="0.0571395280" flag="0"/>
      <psa03 value="0.1165028386" flag="0"/>
      <psa10 value="0.0474794340" flag="0"/>
      <psa30 value="0.0208640992" flag="0"/>
    </comp>
    <comp name="--.HHN">
      <acc value="0.0431622978" flag="0"/>
      <vel value="0.0496499663" flag="0"/>
      <psa03 value="0.0983268678" flag="0"/>
      <psa10 value="0.0690431460" flag="0"/>
      <psa30 value="0.0110218942" flag="0"/>
    </comp>
    <comp name="--.HHZ">
      <acc value="0.0430595155" flag="0"/>
      <vel value="0.0335568206" flag="0"/>
      <psa03 value="0.0795938242" flag="0"/>
      <psa10 value="0.0473334625" flag="0"/>
      <psa30 value="0.0108758675" flag="0"/>
    </comp>
  </station>
  <station code="LTHK" name="LTHK" netid="HP" source="NOA" insttype="40," lat="37.7095" lon="20.8367">
    <comp name="--.HHE">
      <acc value="0.5221179916" flag="0"/>
      <vel value="0.1575874550" flag="0"/>
      <psa03 value="0.9097968409" flag="0"/>
      <psa10 value="0.1419671999" flag="0"/>
      <psa30 value="0.0289777590" flag="0"/>
    </comp>
    <comp name="--.HHZ">
      <acc value="0.2301531853" flag="0"/>
      <vel value="0.0906323431" flag="0"/>
      <psa03 value="0.5801188708" flag="0"/>
      <psa10 value="0.0960600353" flag="0"/>
      <psa30 value="0.0200049377" flag="0"/>
    </comp>
  </station>
  <station code="PVO" name="PVO" netid="HP" source="NOA" insttype="120P," lat="38.616" lon="21.525">
    <comp name="--.HHE">
      <acc value="0.0205321144" flag="0"/>
      <vel value="0.0242487932" flag="0"/>
      <psa03 value="0.0589868800" flag="0"/>
      <psa10 value="0.0330483336" flag="0"/>
      <psa30 value="0.0067945546" flag="0"/>
    </comp>
    <comp name="--.HHN">
      <acc value="0.0183916690" flag="0"/>
      <vel value="0.0165734675" flag="0"/>
      <psa03 value="0.0427740716" flag="0"/>
      <psa10 value="0.0183147081" flag="0"/>
      <psa30 value="0.0057624315" flag="0"/>
    </comp>
    <comp name="--.HHZ">
      <acc value="0.0115875508" flag="0"/>
      <vel value="0.0172480451" flag="0"/>
      <psa03 value="0.0332259893" flag="0"/>
      <psa10 value="0.0179335575" flag="0"/>
      <psa30 value="0.0059995621" flag="0"/>
    </comp>
  </station>
  <station code="DMLN" name="DMLN" netid="HT" source="NOA" insttype="1s-100Hz," lat="38.2385" lon="20.3734">
    <comp name="--.HHE">
      <acc value="0.2412554403" flag="0"/>
      <vel value="0.1649980938" flag="0"/>
      <psa03 value="0.4749486597" flag="0"/>
      <psa10 value="0.2796107535" flag="0"/>
      <psa30 value="0.0374227608" flag="0"/>
    </comp>
    <comp name="--.HHN">
      <acc value="0.3420693301" flag="0"/>
      <vel value="0.1973233516" flag="0"/>
      <psa03 value="0.7312706333" flag="0"/>
      <psa10 value="0.2664023208" flag="0"/>
      <psa30 value="0.0314282019" flag="0"/>
    </comp>
    <comp name="--.HHZ">
      <acc value="0.1497544716" flag="0"/>
      <vel value="0.0722269282" flag="0"/>
      <psa03 value="0.2584797851" flag="0"/>
      <psa10 value="0.0851900336" flag="0"/>
      <psa30 value="0.0186455499" flag="0"/>
    </comp>
  </station>
  <station code="DRAG" name="DRAG" netid="HT" source="NOA" insttype="1s-100Hz," lat="38.6839" lon="20.5746">
    <comp name="--.HHE">
      <acc value="0.0007957403" flag="0"/>
      <vel value="0.0004744513" flag="0"/>
      <psa03 value="0.0023441494" flag="0"/>
      <psa10 value="0.0006223565" flag="0"/>
      <psa30 value="0.0001161452" flag="0"/>
    </comp>
    <comp name="--.HHN">
      <acc value="0.0000909391" flag="0"/>
      <vel value="0.0000498063" flag="0"/>
      <psa03 value="0.0001318782" flag="0"/>
      <psa10 value="0.0000379368" flag="0"/>
      <psa30 value="0.0000047189" flag="0"/>
    </comp>
    <comp name="--.HHZ">
      <acc value="0.0003995841" flag="0"/>
      <vel value="0.0001892054" flag="0"/>
      <psa03 value="0.0008176199" flag="0"/>
      <psa10 value="0.0002014076" flag="0"/>
      <psa30 value="0.0000341738" flag="0"/>
    </comp>
  </station>
  <station code="EVGI" name="EVGI" netid="HT" source="NOA" insttype="30" lat="38.621" lon="20.656">
    <comp name="--.HHE">
      <acc value="0.0858834211" flag="0"/>
      <vel value="0.0555507439" flag="0"/>
      <psa03 value="0.1615475605" flag="0"/>
      <psa10 value="0.0358756222" flag="0"/>
      <psa30 value="0.0144034824" flag="0"/>
    </comp>
    <comp name="--.HHN">
      <acc value="nan" flag="0"/>
      <vel value="-100.0000000000" flag="0"/>
