<stationlist xmlns:esm="https://esm-db.eu/esmws/shakemap/1/" created="1780538085">
	<station code="AGR3" name="AGR3" netid="HI" source="ITSAK Strong Motion Network" insttype="" lat="38.5893" lon="21.4162" esm:processing="manual (Paolucci et al 2011)" esm:quality="good">
		<comp name="--.HNE" depth="0.0">
			<acc value="0.0531061291013804" flag="0"/>
			<vel value="0.06614347766229" flag="0"/>
			<psa03 value="0.103314052382265" flag="0"/>
			<psa10 value="0.184577522354996" flag="0"/>
			<psa30 value="0.0369479976235112" flag="0"/>
		</comp>
		<comp name="--.HNN" depth="0.0">
			<acc value="0.0457778298830951" flag="0"/>
			<vel value="0.0863323402252112" flag="0"/>
			<psa03 value="0.0990412172445733" flag="0"/>
			<psa10 value="0.125187470555536" flag="0"/>
			<psa30 value="0.0284422608268591" flag="0"/>
		</comp>
		<comp name="--.HNZ" depth="0.0">
			<acc value="0.0230902424713341" flag="0"/>
			<vel value="0.0346906676104351" flag="0"/>
			<psa03 value="0.059137782171169" flag="0"/>
			<psa10 value="0.0998447242229673" flag="0"/>
			<psa30 value="0.013544076395257" flag="0"/>
		</comp>
	</station>
	<station code="AKR1" name="AKR1" netid="HI" source="ITSAK Strong Motion Network" insttype="" lat="38.153583" lon="22.31326" esm:processing="manual (Paolucci et al 2011)" esm:quality="good">
		<comp name="--.HNE" depth="0.0">
			<acc value="0.0108890039841255" flag="0"/>
			<vel value="0.011655348988422" flag="0"/>
			<psa03 value="0.0298415732119371" flag="0"/>
			<psa10 value="0.017043397791459" flag="0"/>
			<psa30 value="0.00353292528896169" flag="0"/>
		</comp>
		<comp name="--.HNN" depth="0.0">
			<acc value="0.00907655931392227" flag="0"/>
			<vel value="0.010449116906474" flag="0"/>
			<psa03 value="0.0282520356212061" flag="0"/>
			<psa10 value="0.0141813816344347" flag="0"/>
			<psa30 value="0.00253887422962423" flag="0"/>
		</comp>
		<comp name="--.HNZ" depth="0.0">
			<acc value="0.00617967427140979" flag="0"/>
			<vel value="0.0121892773731105" flag="0"/>
			<psa03 value="0.0120361723373469" flag="0"/>
			<psa10 value="0.0200188373997304" flag="0"/>
			<psa30 value="0.00201604230290834" flag="0"/>
		</comp>
	</station>
	<station code="AOL1" name="AOL1" netid="HI" source="ITSAK Strong Motion Network" insttype="" lat="37.642378" lon="21.624555" esm:processing="automatic (Paolucci et al 2011)" esm:quality="best">
		<comp name="--.HNE" depth="0.0">
			<acc value="0.0591861067343563" flag="0"/>
			<vel value="0.0367779527537648" flag="0"/>
			<psa03 value="0.104728948195502" flag="0"/>
			<psa10 value="0.0506551269035549" flag="0"/>
			<psa30 value="0.00967057646156318" flag="0"/>
		</comp>
		<comp name="--.HNN" depth="0.0">
			<acc value="0.0461800801307275" flag="0"/>
			<vel value="0.029749826895375" flag="0"/>
			<psa03 value="0.121590377682453" flag="0"/>
			<psa10 value="0.0521063867924001" flag="0"/>
			<psa30 value="0.0114674454953181" flag="0"/>
		</comp>
		<comp name="--.HNZ" depth="0.0">
			<acc value="0.0389260733343876" flag="0"/>
			<vel value="0.0275379004899249" flag="0"/>
			<psa03 value="0.0928191696477896" flag="0"/>
			<psa10 value="0.0266193102736648" flag="0"/>
			<psa30 value="0.00369182123170475" flag="0"/>
		</comp>
	</station>
	<station code="ARG2" name="ARG2" netid="HI" source="ITSAK Strong Motion Network" insttype="" lat="38.1783" lon="20.4878" esm:processing="manual (Paolucci et al 2011)" esm:quality="best">
		<comp name="--.HNE" depth="0.0">
			<acc value="0.247921892770996" flag="0"/>
			<vel value="0.120291370343901" flag="0"/>
			<psa03 value="0.61873997532408" flag="0"/>
			<psa10 value="0.102590747821234" flag="0"/>
			<psa30 value="0.028742840953644" flag="0"/>
		</comp>
		<comp name="--.HNN" depth="0.0">
			<acc value="0.235606414491047" flag="0"/>
			<vel value="0.147910650761249" flag="0"/>
			<psa03 value="0.469390489632289" flag="0"/>
			<psa10 value="0.135348754396802" flag="0"/>
			<psa30 value="0.0211890142102811" flag="0"/>
		</comp>
		<comp name="--.HNZ" depth="0.0">
			<acc value="0.185912391820713" flag="0"/>
			<vel value="0.0680894073851156" flag="0"/>
			<psa03 value="0.305678755616033" flag="0"/>
			<psa10 value="0.0809708661612188" flag="0"/>
			<psa30 value="0.0159456750166859" flag="0"/>
		</comp>
	</station>
	<station code="ART2" name="ART2" netid="HI" source="ITSAK Strong Motion Network" insttype="" lat="39.1474" lon="20.9937" esm:processing="manual (Paolucci et al 2011)" esm:quality="best">
		<comp name="--.HNE" depth="0.0">
			<acc value="0.00712316948731742" flag="0"/>
			<vel value="0.0132854519108225" flag="0"/>
			<psa03 value="0.0174519607942446" flag="0"/>
			<psa10 value="0.0220278323607964" flag="0"/>
			<psa30 value="0.00316869720230631" flag="0"/>
		</comp>
		<comp name="--.HNN" depth="0.0">
			<acc value="0.00761231316864806" flag="0"/>
			<vel value="0.010866867870717" flag="0"/>
			<psa03 value="0.0130666364338667" flag="0"/>
			<psa10 value="0.0132028940019194" flag="0"/>
			<psa30 value="0.00436650967650176" flag="0"/>
		</comp>
		<comp name="--.HNZ" depth="0.0">
			<acc value="0.00555601738836252" flag="0"/>
			<vel value="0.0127922113827034" flag="0"/>
			<psa03 value="0.0126623896024066" flag="0"/>
			<psa10 value="0.0102561916098723" flag="0"/>
			<psa30 value="0.00400227846463984" flag="0"/>
		</comp>
	</station>
	<station code="AST1" name="AST1" netid="HI" source="ITSAK Strong Motion Network" insttype="" lat="38.5416" lon="21.0895" esm:processing="manual (Paolucci et al 2011)" esm:quality="good">
		<comp name="--.HNE" depth="0.0">
			<acc value="0.0346748503481031" flag="0"/>
			<vel value="0.0343146323654281" flag="0"/>
			<psa03 value="0.103128112981358" flag="0"/>
			<psa10 value="0.0319980384630099" flag="0"/>
			<psa30 value="0.0109071633793776" flag="0"/>
		</comp>
		<comp name="--.HNN" depth="0.0">
			<acc value="0.0318245054898793" flag="0"/>
			<vel value="0.0338796342830891" flag="0"/>
			<psa03 value="0.0634841013434835" flag="0"/>
			<psa10 value="0.0492620333679451" flag="0"/>
			<psa30 value="0.0104681326290784" flag="0"/>
		</comp>
		<comp name="--.HNZ" depth="0.0">
			<acc value="0.0223852074579498" flag="0"/>
			<vel value="0.0321808661662423" flag="0"/>
			<psa03 value="0.0944510173330234" flag="0"/>
			<psa10 value="0.0472210056598763" flag="0"/>
			<psa30 value="0.00737064743588603" flag="0"/>
		</comp>
	</station>
	<station code="ITC1" name="ITC1" netid="HI" source="ITSAK Strong Motion Network" insttype="" lat="38.3647" lon="20.7156" esm:processing="automatic (Paolucci et al 2011)" esm:quality="best">
		<comp name="--.HNE" depth="0.0">
			<acc value="0.0842040453345139" flag="0"/>
			<vel value="0.0450179293521431" flag="0"/>
			<psa03 value="0.151252405146199" flag="0"/>
			<psa10 value="0.0915020715631722" flag="0"/>
			<psa30 value="0.0128808941293532" flag="0"/>
		</comp>
		<comp name="--.HNN" depth="0.0">
			<acc value="0.0790931962455691" flag="0"/>
			<vel value="0.0564190607039623" flag="0"/>
			<psa03 value="0.128430851663617" flag="0"/>
			<psa10 value="0.0549152253641704" flag="0"/>
			<psa30 value="0.0149902463635866" flag="0"/>
		</comp>
		<comp name="--.HNZ" depth="0.0">
			<acc value="0.0399742638632811" flag="0"/>
			<vel value="0.0417809202875454" flag="0"/>
			<psa03 value="0.118574292464943" flag="0"/>
			<psa10 value="0.0489484600952547" flag="0"/>
			<psa30 value="0.0140279842851131" flag="0"/>
		</comp>
	</station>
	<station code="KAC1" name="KAC1" netid="HI" source="ITSAK Strong Motion Network" insttype="" lat="38.143412" lon="21.549694" esm:processing="manual (Paolucci et al 2011)" esm:quality="good">
		<comp name="--.HNE" depth="0.0">
			<acc value="0.0500261657215023" flag="0"/>
			<vel value="0.0509997032486973" flag="0"/>
			<psa03 value="0.116169372734147" flag="0"/>
			<psa10 value="0.0729198155799103" flag="0"/>
			<psa30 value="0.0159013783882783" flag="0"/>
		</comp>
		<comp name="--.HNN" depth="0.0">
			<acc value="0.0415363433010174" flag="0"/>
			<vel value="0.0532706223549187" flag="0"/>
			<psa03 value="0.129777607546251" flag="0"/>
			<psa10 value="0.0600934183940454" flag="0"/>
			<psa30 value="0.0167133038410215" flag="0"/>
		</comp>
		<comp name="--.HNZ" depth="0.0">
			<acc value="0.0194247366841137" flag="0"/>
			<vel value="0.0307663578055067" flag="0"/>
			<psa03 value="0.0597112055743219" flag="0"/>
			<psa10 value="0.0279450043443908" flag="0"/>
			<psa30 value="0.0109628770701362" flag="0"/>
		</comp>
	</station>
	<station code="KLV1" name="KLV1" netid="HI" source="ITSAK Strong Motion Network" insttype="" lat="38.03256" lon="22.10797" esm:processing="manual (Paolucci et al 2011)" esm:quality="best">
		<comp name="--.HNE" depth="0.0">
			<acc value="0.015914684658847" flag="0"/>
			<vel value="0.0152856456331391" flag="0"/>
			<psa03 value="0.0388826018232203" flag="0"/>
			<psa10 value="0.016976337724049" flag="0"/>
			<psa30 value="0.00247573567200541" flag="0"/>
		</comp>
		<comp name="--.HNN" depth="0.0">
			<acc value="0.0111310665993009" flag="0"/>
			<vel value="0.0118320698070732" flag="0"/>
			<psa03 value="0.042204222905985" flag="0"/>
			<psa10 value="0.0170685938355816" flag="0"/>
			<psa30 value="0.002089528004309" flag="0"/>
		</comp>
		<comp name="--.HNZ" depth="0.0">
			<acc value="0.00637425892796598" flag="0"/>
			<vel value="0.00789931377975996" flag="0"/>
			<psa03 value="0.0121465194910614" flag="0"/>
			<psa10 value="0.0146411583423923" flag="0"/>
			<psa30 value="0.0027857076644602" flag="0"/>
		</comp>
	</station>
	<station code="KRI1" name="KRI1" netid="HI" source="ITSAK Strong Motion Network" insttype="" lat="37.6621" lon="20.8172" esm:processing="manual (Paolucci et al 2011)" esm:quality="good">
		<comp name="--.HNE" depth="0.0">
			<acc value="0.317350479560969" flag="0"/>
			<vel value="0.145343633240722" flag="0"/>
			<psa03 value="0.670201272544667" flag="0"/>
			<psa10 value="0.140160749961617" flag="0"/>
			<psa30 value="0.0142920401108274" flag="0"/>
		</comp>
		<comp name="--.HNN" depth="0.0">
			<acc value="0.442275306711989" flag="0"/>
			<vel value="0.165203186274778" flag="0"/>
			<psa03 value="0.901057023937206" flag="0"/>
			<psa10 value="0.108832862143117" flag="0"/>
			<psa30 value="0.0162081837126418" flag="0"/>
		</comp>
		<comp name="--.HNZ" depth="0.0">
			<acc value="0.264766662555604" flag="0"/>
			<vel value="0.0898180208024395" flag="0"/>
			<psa03 value="0.249081437922627" flag="0"/>
			<psa10 value="0.07945744366578" flag="0"/>
			<psa30 value="0.0216434671068114" flag="0"/>
		</comp>
	</station>
	<station code="LEF2" name="LEF2" netid="HI" source="ITSAK Strong Motion Network" insttype="" lat="38.830093" lon="20.708346" esm:processing="manual (Paolucci et al 2011)" esm:quality="good">
		<comp name="--.HNE" depth="0.0">
			<acc value="0.0782908914535883" flag="0"/>
			<vel value="0.127447465253982" flag="0"/>
			<psa03 value="0.232780670576997" flag="0"/>
			<psa10 value="0.147988808532274" flag="0"/>
			<psa30 value="0.0471802087906172" flag="0"/>
		</comp>
		<comp name="--.HNN" depth="0.0">
			<acc value="0.0993570299096745" flag="0"/>
			<vel value="0.129029858002029" flag="0"/>
			<psa03 value="0.293171712853831" flag="0"/>
			<psa10 value="0.19073669036965" flag="0"/>
			<psa30 value="0.0405311416558848" flag="0"/>
		</comp>
		<comp name="--.HNZ" depth="0.0">
			<acc value="0.0630052020251229" flag="0"/>
			<vel value="0.0798326548037954" flag="0"/>
			<psa03 value="0.181908092185015" flag="0"/>
			<psa10 value="0.106734838159201" flag="0"/>
			<psa30 value="0.0216309596115817" flag="0"/>
		</comp>
	</station>
	<station code="LXR1" name="LXR1" netid="HI" source="ITSAK Strong Motion Network" insttype="" lat="38.201" lon="20.4374" esm:processing="automatic (Paolucci et al 2011)" esm:quality="best">
		<comp name="--.HNE" depth="0.0">
			<acc value="0.461239385266611" flag="0"/>
			<vel value="0.255293119763939" flag="0"/>
			<psa03 value="1.19363382238268" flag="0"/>
			<psa10 value="0.33509582845407" flag="0"/>
			<psa30 value="0.0537508140609695" flag="0"/>
		</comp>
		<comp name="--.HNN" depth="0.0">
			<acc value="0.440714546754793" flag="0"/>
			<vel value="0.299250862415" flag="0"/>
			<psa03 value="1.09615736504577" flag="0"/>
			<psa10 value="0.32284061660643" flag="0"/>
			<psa30 value="0.117054740968781" flag="0"/>
		</comp>
		<comp name="--.HNZ" depth="0.0">
			<acc value="0.317652681819522" flag="0"/>
			<vel value="0.143092482569839" flag="0"/>
			<psa03 value="0.695434777474324" flag="0"/>
			<psa10 value="0.145600935347394" flag="0"/>
			<psa30 value="0.023852936806666" flag="0"/>
		</comp>
	</station>
	<station code="MGP1" name="MGP1" netid="HI" source="ITSAK Strong Motion Network" insttype="" lat="37.403248" lon="22.140703" esm:processing="manual (Paolucci et al 2011)" esm:quality="good">
		<comp name="--.HNE" depth="0.0">
			<acc value="0.0230052011863249" flag="0"/>
			<vel value="0.0309975049390072" flag="0"/>
			<psa03 value="0.0498988420117258" flag="0"/>
			<psa10 value="0.0353317768068141" flag="0"/>
			<psa30 value="0.014889379681664" flag="0"/>
		</comp>
		<comp name="--.HNN" depth="0.0">
			<acc value="0.0163464440033112" flag="0"/>
			<vel value="0.026122298980096" flag="0"/>
			<psa03 value="0.0468501817196101" flag="0"/>
			<psa10 value="0.031997479675993" flag="0"/>
			<psa30 value="0.0127058033637827" flag="0"/>
		</comp>
		<comp name="--.HNZ" depth="0.0">
			<acc value="0.0106506478286016" flag="0"/>
			<vel value="0.0167965521809299" flag="0"/>
			<psa03 value="0.0205758734673027" flag="0"/>
			<psa10 value="0.0199563188831855" flag="0"/>
			<psa30 value="0.00799177274905637" flag="0"/>
		</comp>
	</station>
	<station code="MSL1" name="MSL1" netid="HI" source="ITSAK Strong Motion Network" insttype="" lat="38.3727" lon="21.4243" esm:processing="manual (Paolucci et al 2011)" esm:quality="good">
		<comp name="--.HNE" depth="0.0">
			<acc value="0.0565814343052071" flag="0"/>
			<vel value="0.0761170950446727" flag="0"/>
			<psa03 value="0.149169225479062" flag="0"/>
			<psa10 value="0.203623204037911" flag="0"/>
			<psa30 value="0.0183032074976696" flag="0"/>
		</comp>
		<comp name="--.HNN" depth="0.0">
			<acc value="0.0511577588278064" flag="0"/>
			<vel value="0.0656039424449088" flag="0"/>
			<psa03 value="0.145966107038188" flag="0"/>
			<psa10 value="0.145870338193982" flag="0"/>
			<psa30 value="0.0153390028003389" flag="0"/>
		</comp>
		<comp name="--.HNZ" depth="0.0">
			<acc value="0.0227774657473956" flag="0"/>
			<vel value="0.0318469268291557" flag="0"/>
			<psa03 value="0.0455771390536707" flag="0"/>
			<psa10 value="0.0709574680840801" flag="0"/>
			<psa30 value="0.00539531324634441" flag="0"/>
		</comp>
	</station>
	<station code="NMA1" name="NMA1" netid="HI" source="ITSAK Strong Motion Network" insttype="" lat="37.81873" lon="22.662702" esm:processing="manual (Paolucci et al 2011)" esm:quality="good">
		<comp name="--.HNE" depth="0.0">
			<acc value="0.00752272832695373" flag="0"/>
			<vel value="0.010421768636844" flag="0"/>
			<psa03 value="0.0173443833552755" flag="0"/>
			<psa10 value="0.0138105505061924" flag="0"/>
			<psa30 value="0.00350343791890148" flag="0"/>
		</comp>
		<comp name="--.HNN" depth="0.0">
			<acc value="0.00788068450218169" flag="0"/>
			<vel value="0.00774353493360664" flag="0"/>
			<psa03 value="0.0172129540758141" flag="0"/>
			<psa10 value="0.0117235550654869" flag="0"/>
			<psa30 value="0.00296351527667623" flag="0"/>
		</comp>
		<comp name="--.HNZ" depth="0.0">
			<acc value="0.00998082100640417" flag="0"/>
			<vel value="0.00931932575526796" flag="0"/>
			<psa03 value="0.0137037958300523" flag="0"/>
			<psa10 value="0.00772747268839113" flag="0"/>
			<psa30 value="0.00225348157376141" flag="0"/>
		</comp>
	</station>
	<station code="PRE2" name="PRE2" netid="HI" source="ITSAK Strong Motion Network" insttype="" lat="38.9577" lon="20.7548" esm:processing="manual (Paolucci et al 2011)" esm:quality="good">
		<comp name="--.HNE" depth="0.0">
			<acc value="0.0560998319583489" flag="0"/>
			<vel value="0.0776006722664521" flag="0"/>
			<psa03 value="0.153051711841437" flag="0"/>
			<psa10 value="0.0914661516836564" flag="0"/>
			<psa30 value="0.0423146931407508" flag="0"/>
		</comp>
		<comp name="--.HNN" depth="0.0">
			<acc value="0.0559251779231629" flag="0"/>
			<vel value="0.0894470960701593" flag="0"/>
			<psa03 value="0.132117470884047" flag="0"/>
			<psa10 value="0.0830794186037498" flag="0"/>
			<psa30 value="0.0307595610032897" flag="0"/>
		</comp>
		<comp name="--.HNZ" depth="0.0">
			<acc value="0.026981245571419" flag="0"/>
			<vel value="0.0301061443473361" flag="0"/>
			<psa03 value="0.0665462156518617" flag="0"/>
			<psa10 value="0.0524218951932832" flag="0"/>
			<psa30 value="0.0095655153351125" flag="0"/>
		</comp>
	</station>
	<station code="PYL1" name="PYL1" netid="HI" source="ITSAK Strong Motion Network" insttype="" lat="36.914188" lon="21.695161" esm:processing="manual (Paolucci et al 2011)" esm:quality="best">
		<comp name="--.HNE" depth="0.0">
			<acc value="0.00969481785583334" flag="0"/>
			<vel value="0.00590099534594683" flag="0"/>
			<psa03 value="0.0260170490226669" flag="0"/>
			<psa10 value="0.0096021445324453" flag="0"/>
			<psa30 value="0.00182446919546391" flag="0"/>
		</comp>
		<comp name="--.HNN" depth="0.0">
			<acc value="0.00985330882382613" flag="0"/>
			<vel value="0.00658974301018913" flag="0"/>
			<psa03 value="0.021753567369142" flag="0"/>
			<psa10 value="0.00689102946565193" flag="0"/>
			<psa30 value="0.00274260251729015" flag="0"/>
		</comp>
		<comp name="--.HNZ" depth="0.0">
			<acc value="0.00596804564213887" flag="0"/>
			<vel value="0.00461768084245042" flag="0"/>
			<psa03 value="0.0124767848590933" flag="0"/>
			<psa10 value="0.00456101183215093" flag="0"/>
			<psa30 value="0.00133510698595097" flag="0"/>
		</comp>
	</station>
	<station code="PYR2" name="PYR2" netid="HI" source="ITSAK Strong Motion Network" insttype="" lat="37.6671" lon="21.4506" esm:processing="automatic (Paolucci et al 2011)" esm:quality="best">
		<comp name="--.HNE" depth="0.0">
			<acc value="0.0595742354146378" flag="0"/>
			<vel value="0.0417978777444035" flag="0"/>
			<psa03 value="0.130291193652143" flag="0"/>
			<psa10 value="0.0475987269320568" flag="0"/>
			<psa30 value="0.0146451301679991" flag="0"/>
		</comp>
		<comp name="--.HNN" depth="0.0">
			<acc value="0.0742005616312109" flag="0"/>
			<vel value="0.0556947954970941" flag="0"/>
			<psa03 value="0.139521628039788" flag="0"/>
			<psa10 value="0.0584515521284632" flag="0"/>
			<psa30 value="0.0154451564991505" flag="0"/>
		</comp>
		<comp name="--.HNZ" depth="0.0">
			<acc value="0.036874681986242" flag="0"/>
			<vel value="0.0186155706707348" flag="0"/>
			<psa03 value="0.0557843204374537" flag="0"/>
			<psa10 value="0.0305889032397171" flag="0"/>
			<psa30 value="0.00742944633102426" flag="0"/>
		</comp>
	</station>
	<station code="PYR3" name="PYR3" netid="HI" source="ITSAK Strong Motion Network" insttype="" lat="37.6788" lon="21.46209" esm:processing="automatic (Paolucci et al 2011)" esm:quality="best">
		<comp name="--.HNE" depth="0.0">
			<acc value="0.128158929547655" flag="0"/>
			<vel value="0.052460598062774" flag="0"/>
			<psa03 value="0.237733227826276" flag="0"/>
			<psa10 value="0.0527158471661588" flag="0"/>
			<psa30 value="0.013410350036542" flag="0"/>
		</comp>
		<comp name="--.HNN" depth="0.0">
			<acc value="0.093568590803326" flag="0"/>
			<vel value="0.055548442934935" flag="0"/>
			<psa03 value="0.19121485454568" flag="0"/>
			<psa10 value="0.0689491275413148" flag="0"/>
			<psa30 value="0.0100218022285465" flag="0"/>
		</comp>
		<comp name="--.HNZ" depth="0.0">
			<acc value="0.055932051647646" flag="0"/>
			<vel value="0.0266911884627529" flag="0"/>
			<psa03 value="0.161292851526496" flag="0"/>
			<psa10 value="0.0371987029815107" flag="0"/>
			<psa30 value="0.00623736444478307" flag="0"/>
		</comp>
	</station>
