<stationlist created="1778637338">
	<station code="ARPRA" name="ARPRA" netid="KO" source="Bogazici University Kandilli Observatory And Earthquake Research Institute (KOERI)" insttype="" lat="39.0929" lon="38.3356">
		<comp name="--.HNE" depth="0.0">
			<acc value="0.0166474324083155" flag="0"/>
			<vel value="0.0217767131330285" flag="0"/>
			<psa03 value="0.0429096967235017" flag="0"/>
			<psa10 value="0.0224908736599838" flag="0"/>
			<psa30 value="0.00674800785572779" flag="0"/>
		</comp>
		<comp name="--.HNN" depth="0.0">
			<acc value="0.0196658715985274" flag="0"/>
			<vel value="0.0290475672823115" flag="0"/>
			<psa03 value="0.0355409403503659" flag="0"/>
			<psa10 value="0.0418589717013431" flag="0"/>
			<psa30 value="0.00764956591288117" flag="0"/>
		</comp>
		<comp name="--.HNZ" depth="0.0">
			<acc value="0.0121191017415972" flag="0"/>
			<vel value="0.019163893519206" flag="0"/>
			<psa03 value="0.0185692887179756" flag="0"/>
			<psa10 value="0.0309224672116919" flag="0"/>
			<psa30 value="0.00856921850200598" flag="0"/>
		</comp>
	</station>
	<station code="CMRD" name="CMRD" netid="KO" source="Bogazici University Kandilli Observatory And Earthquake Research Institute (KOERI)" insttype="" lat="37.6623" lon="34.9902">
		<comp name="--.HNE" depth="0.0">
			<acc value="0.123695992920024" flag="0"/>
			<vel value="0.024529344316711" flag="0"/>
			<psa03 value="0.122009926308912" flag="0"/>
			<psa10 value="0.0200424283375111" flag="0"/>
			<psa30 value="0.00342589007340543" flag="0"/>
		</comp>
		<comp name="--.HNN" depth="0.0">
			<acc value="0.113385116764518" flag="0"/>
			<vel value="0.0453719720796688" flag="0"/>
			<psa03 value="0.128453082302988" flag="0"/>
			<psa10 value="0.0651880858907779" flag="0"/>
			<psa30 value="0.00763375153190114" flag="0"/>
		</comp>
		<comp name="--.HNZ" depth="0.0">
			<acc value="0.0675327216241961" flag="0"/>
			<vel value="0.024719495225094" flag="0"/>
			<psa03 value="0.123086883068607" flag="0"/>
			<psa10 value="0.0401851345679299" flag="0"/>
			<psa30 value="0.00327993769644398" flag="0"/>
		</comp>
	</station>
	<station code="KHMN" name="KHMN" netid="KO" source="Bogazici University Kandilli Observatory And Earthquake Research Institute (KOERI)" insttype="" lat="37.3916" lon="37.1574">
		<comp name="--.HNE" depth="0.0">
			<acc value="0.0697192537387648" flag="0"/>
			<vel value="0.0569392127989897" flag="0"/>
			<psa03 value="0.268363798618036" flag="0"/>
			<psa10 value="0.0688832431768359" flag="0"/>
			<psa30 value="0.00835428843062881" flag="0"/>
		</comp>
		<comp name="--.HNN" depth="0.0">
			<acc value="0.0742769247584082" flag="0"/>
			<vel value="0.0459513584684214" flag="0"/>
			<psa03 value="0.196997862641426" flag="0"/>
			<psa10 value="0.057399652445144" flag="0"/>
			<psa30 value="0.0137447321877299" flag="0"/>
		</comp>
		<comp name="--.HNZ" depth="0.0">
			<acc value="0.0418394543656988" flag="0"/>
			<vel value="0.0272779806180442" flag="0"/>
			<psa03 value="0.145736050131579" flag="0"/>
			<psa10 value="0.0467882532420386" flag="0"/>
			<psa30 value="0.00525966509365554" flag="0"/>
		</comp>
	</station>
	<station code="KOZK" name="KOZK" netid="KO" source="Bogazici University Kandilli Observatory And Earthquake Research Institute (KOERI)" insttype="" lat="39.2101" lon="34.868">
		<comp name="--.HNE" depth="0.0">
			<acc value="0.0211186618393166" flag="0"/>
			<vel value="0.0253910742554373" flag="0"/>
			<psa03 value="0.0405213796550361" flag="0"/>
			<psa10 value="0.047365971513142" flag="0"/>
			<psa30 value="0.00838069351316559" flag="0"/>
		</comp>
		<comp name="--.HNN" depth="0.0">
			<acc value="0.0260299937532553" flag="0"/>
			<vel value="0.0279587602834213" flag="0"/>
			<psa03 value="0.0465183003590428" flag="0"/>
			<psa10 value="0.0466001595318736" flag="0"/>
			<psa30 value="0.00867216115479896" flag="0"/>
		</comp>
		<comp name="--.HNZ" depth="0.0">
			<acc value="0.0147559232877657" flag="0"/>
			<vel value="0.0136720126101352" flag="0"/>
			<psa03 value="0.0353624597768914" flag="0"/>
			<psa10 value="0.0183870536770865" flag="0"/>
			<psa30 value="0.00303547754382442" flag="0"/>
		</comp>
	</station>
	<station code="KRMN" name="KRMN" netid="KO" source="Bogazici University Kandilli Observatory And Earthquake Research Institute (KOERI)" insttype="" lat="37.174" lon="33.2636">
		<comp name="--.HNE" depth="0.0">
			<acc value="0.0195573394614444" flag="0"/>
			<vel value="0.0203568516543713" flag="0"/>
			<psa03 value="0.0382592245900339" flag="0"/>
			<psa10 value="0.0353125867855723" flag="0"/>
			<psa30 value="0.00426371078324636" flag="0"/>
		</comp>
		<comp name="--.HNN" depth="0.0">
			<acc value="0.0209296206897792" flag="0"/>
			<vel value="0.0315534155074379" flag="0"/>
			<psa03 value="0.0454841172660986" flag="0"/>
			<psa10 value="0.0596565444533306" flag="0"/>
			<psa30 value="0.0123429918292962" flag="0"/>
		</comp>
		<comp name="--.HNZ" depth="0.0">
			<acc value="0.0113039234015554" flag="0"/>
			<vel value="0.013164214876653" flag="0"/>
			<psa03 value="0.0287187279956053" flag="0"/>
			<psa10 value="0.012802583108291" flag="0"/>
			<psa30 value="0.00593676953185122" flag="0"/>
		</comp>
	</station>
</stationlist>
