<?xml version="1.0" encoding="UTF-8" standalone="yes"?>
<!DOCTYPE earthquake SYSTEM "stationlist.dtd">
<stationlist created="" xmlns="ch.ethz.sed.shakemap.usgs.xml">
  <station code="ANDN" name="ANDN" netid="TU" insttype="T" lat="37.58" lon="36.3452">
    <comp name="--.HHN">
      <acc value="3.1869930062" flag="0"/>
      <vel value="0.6141011660" flag="0"/>
      <psa03 value="6.9413106694" flag="0"/>
      <psa10 value="1.1645237087" flag="0"/>
      <psa30 value="0.0700860002" flag="0"/>
    </comp>
    <comp name="--.HHZ">
      <acc value="0.6882340322" flag="0"/>
      <vel value="0.3578421488" flag="0"/>
      <psa03 value="2.6932398985" flag="0"/>
      <psa10 value="0.6928678138" flag="0"/>
      <psa30 value="0.0484991137" flag="0"/>
    </comp>
    <comp name="--.HHE">
      <acc value="1.6076089124" flag="0"/>
      <vel value="0.5672475851" flag="0"/>
      <psa03 value="2.9857643584" flag="0"/>
      <psa10 value="0.7580580412" flag="0"/>
      <psa30 value="0.0441631598" flag="0"/>
    </comp>
  </station>
</stationlist>
