<?xml version="1.0" encoding="UTF-8" standalone="yes"?>
<!DOCTYPE earthquake SYSTEM "stationlist.dtd">
<stationlist created="" xmlns="ch.ethz.sed.shakemap.usgs.xml">
  <station code="BNN" name="BNN" netid="KO" insttype="CMG-3T" lat="38.8521" lon="35.8472">
    <comp name="--.HHZ">
      <acc value="0.0243989393" flag="0"/>
      <vel value="0.0234966019" flag="0"/>
      <psa03 value="0.0643639347" flag="0"/>
      <psa10 value="0.0473639069" flag="0"/>
      <psa30 value="0.0045936594" flag="0"/>
    </comp>
  </station>
  <station code="CEYT" name="CEYT" netid="KO" insttype="CMG-3ESP" lat="37.0105" lon="35.7478">
    <comp name="--.HHE">
      <acc value="0.1303563629" flag="0"/>
      <vel value="0.1538806479" flag="0"/>
      <psa03 value="0.3964437475" flag="0"/>
      <psa10 value="0.2905271279" flag="0"/>
      <psa30 value="0.0312352869" flag="0"/>
    </comp>
    <comp name="--.HHN">
      <acc value="0.1083391890" flag="0"/>
      <vel value="0.0941807488" flag="0"/>
      <psa03 value="0.2381433544" flag="0"/>
      <psa10 value="0.1756765566" flag="0"/>
      <psa30 value="0.0199838198" flag="0"/>
    </comp>
    <comp name="--.HHZ">
      <acc value="0.0649699740" flag="0"/>
      <vel value="0.0847552492" flag="0"/>
      <psa03 value="0.1434008390" flag="0"/>
      <psa10 value="0.1561116362" flag="0"/>
      <psa30 value="0.0199861626" flag="0"/>
    </comp>
  </station>
  <station code="DARE" name="DARE" netid="KO" insttype="CMG-3ESP" lat="38.5712" lon="37.4832">
    <comp name="--.HHN">
      <acc value="0.0199140287" flag="0"/>
      <vel value="0.0180753378" flag="0"/>
      <psa03 value="0.0507629294" flag="0"/>
      <psa10 value="0.0264871980" flag="0"/>
      <psa30 value="0.0053466659" flag="0"/>
    </comp>
    <comp name="--.HHZ">
      <acc value="0.0175006219" flag="0"/>
      <vel value="0.0253303380" flag="0"/>
      <psa03 value="0.0333701981" flag="0"/>
      <psa10 value="0.0422427547" flag="0"/>
      <psa30 value="0.0071943064" flag="0"/>
    </comp>
  </station>
  <station code="GAZ" name="GAZ" netid="KO" insttype="CMG-3T" lat="37.1721" lon="37.2096">
    <comp name="--.HHE">
      <acc value="0.0650875777" flag="0"/>
      <vel value="0.0662936902" flag="0"/>
      <psa03 value="0.1594238720" flag="0"/>
      <psa10 value="0.1412941298" flag="0"/>
      <psa30 value="0.0067322406" flag="0"/>
    </comp>
    <comp name="--.HHZ">
      <acc value="0.0416584019" flag="0"/>
      <vel value="0.0407083327" flag="0"/>
      <psa03 value="0.1355239139" flag="0"/>
      <psa10 value="0.0559690814" flag="0"/>
      <psa30 value="0.0063900931" flag="0"/>
    </comp>
  </station>
  <station code="KMRS" name="KMRS" netid="KO" insttype="CMG-3T" lat="37.5087" lon="36.9">
    <comp name="--.HHN">
      <acc value="0.0869431720" flag="0"/>
      <vel value="0.0767881086" flag="0"/>
      <psa03 value="0.2228026175" flag="0"/>
      <psa10 value="0.1308227073" flag="0"/>
      <psa30 value="0.0129237173" flag="0"/>
    </comp>
    <comp name="--.HHE">
      <acc value="0.1267298554" flag="0"/>
      <vel value="0.0748577445" flag="0"/>
      <psa03 value="0.3034978557" flag="0"/>
      <psa10 value="0.0978420625" flag="0"/>
      <psa30 value="0.0140649358" flag="0"/>
    </comp>
  </station>
  <station code="SARI" name="SARI" netid="KO" insttype="CMG-3T" lat="38.4072" lon="36.4181">
    <comp name="--.HHZ">
      <acc value="0.0752590813" flag="0"/>
      <vel value="0.0685856794" flag="0"/>
      <psa03 value="0.1894055423" flag="0"/>
      <psa10 value="0.1208471294" flag="0"/>
      <psa30 value="0.0141421714" flag="0"/>
    </comp>
    <comp name="--.HHE">
      <acc value="0.1906716458" flag="0"/>
      <vel value="0.0931312811" flag="0"/>
      <psa03 value="0.3092045582" flag="0"/>
      <psa10 value="0.1062389329" flag="0"/>
      <psa30 value="0.0177351648" flag="0"/>
    </comp>
    <comp name="--.HHN">
      <acc value="0.1074519350" flag="0"/>
      <vel value="0.0664319290" flag="0"/>
      <psa03 value="0.3900170746" flag="0"/>
      <psa10 value="0.1007628961" flag="0"/>
      <psa30 value="0.0135038025" flag="0"/>
    </comp>
  </station>
  <station code="TAHT" name="TAHT" netid="KO" insttype="CMG-3ESPC" lat="36.3755" lon="36.1855">
    <comp name="--.HHE">
      <acc value="0.0641908773" flag="0"/>
      <vel value="0.0383456910" flag="0"/>
      <psa03 value="0.2117591683" flag="0"/>
      <psa10 value="0.0736987107" flag="0"/>
      <psa30 value="0.0104376346" flag="0"/>
    </comp>
  </station>
  <station code="ANDN" name="ANDN" netid="TU" insttype="T" lat="37.58" lon="36.3452">
    <comp name="--.HHN">
      <acc value="3.1915453440" flag="0"/>
      <vel value="0.5925776283" flag="0"/>
      <psa03 value="6.9412985792" flag="0"/>
      <psa10 value="1.1663777291" flag="0"/>
      <psa30 value="0.0788764702" flag="0"/>
    </comp>
    <comp name="--.HHE">
      <acc value="1.6076720932" flag="0"/>
      <vel value="0.5606286852" flag="0"/>
      <psa03 value="2.9844408552" flag="0"/>
      <psa10 value="0.7582222338" flag="0"/>
      <psa30 value="0.0511379165" flag="0"/>
    </comp>
    <comp name="--.HHZ">
      <acc value="0.6868471413" flag="0"/>
      <vel value="0.3494875546" flag="0"/>
      <psa03 value="2.6941274729" flag="0"/>
      <psa10 value="0.6936741824" flag="0"/>
      <psa30 value="0.0539275850" flag="0"/>
    </comp>
  </station>
</stationlist>
