<?xml version="1.0" encoding="UTF-8" standalone="yes"?>
<!DOCTYPE earthquake SYSTEM "stationlist.dtd">
<stationlist created="" xmlns="ch.ethz.sed.shakemap.usgs.xml">
  <station code="BNN" name="BNN" netid="KO" insttype="CMG-3T" lat="38.8521" lon="35.8472">
    <comp name="--.HHZ">
      <acc value="0.0243800445" flag="0"/>
      <vel value="0.0225770493" flag="0"/>
      <psa03 value="0.0645063526" flag="0"/>
      <psa10 value="0.0475803258" flag="0"/>
      <psa30 value="0.0040374732" flag="0"/>
    </comp>
  </station>
  <station code="CEYT" name="CEYT" netid="KO" insttype="CMG-3ESP" lat="37.0105" lon="35.7478">
    <comp name="--.HHE">
      <acc value="0.1299829211" flag="0"/>
      <vel value="0.1507906072" flag="0"/>
      <psa03 value="0.3963542275" flag="0"/>
      <psa10 value="0.2903112069" flag="0"/>
      <psa30 value="0.0293788641" flag="0"/>
    </comp>
    <comp name="--.HHN">
      <acc value="0.1069867748" flag="0"/>
      <vel value="0.0935658318" flag="0"/>
      <psa03 value="0.2387124277" flag="0"/>
      <psa10 value="0.1751000098" flag="0"/>
      <psa30 value="0.0167775017" flag="0"/>
    </comp>
    <comp name="--.HHZ">
      <acc value="0.0661697715" flag="0"/>
      <vel value="0.0758873517" flag="0"/>
      <psa03 value="0.1427590423" flag="0"/>
      <psa10 value="0.1559639954" flag="0"/>
      <psa30 value="0.0154323836" flag="0"/>
    </comp>
  </station>
  <station code="CMRD" name="CMRD" netid="KO" insttype="CMG-5T" lat="37.6623" lon="34.9902">
    <comp name="--.HNZ">
      <acc value="0.0690268799" flag="0"/>
      <vel value="0.0250679230" flag="0"/>
      <psa03 value="0.1233038096" flag="0"/>
      <psa10 value="0.0401679360" flag="0"/>
      <psa30 value="0.0029481132" flag="0"/>
    </comp>
    <comp name="--.HNE">
      <acc value="0.1194044449" flag="0"/>
      <vel value="0.0235479239" flag="0"/>
      <psa03 value="0.1208482773" flag="0"/>
      <psa10 value="0.0199996608" flag="0"/>
      <psa30 value="0.0030477891" flag="0"/>
    </comp>
    <comp name="--.HNN">
      <acc value="0.1153120369" flag="0"/>
      <vel value="0.0407524092" flag="0"/>
      <psa03 value="0.1277269789" flag="0"/>
      <psa10 value="0.0656171231" flag="0"/>
      <psa30 value="0.0065025436" flag="0"/>
    </comp>
  </station>
  <station code="GAZ" name="GAZ" netid="KO" insttype="CMG-3T" lat="37.1721" lon="37.2096">
    <comp name="--.HHE">
      <acc value="0.0651875724" flag="0"/>
      <vel value="0.0673767128" flag="0"/>
      <psa03 value="0.1593532061" flag="0"/>
      <psa10 value="0.1411913629" flag="0"/>
      <psa30 value="0.0060162109" flag="0"/>
    </comp>
    <comp name="--.HHZ">
      <acc value="0.0419194791" flag="0"/>
      <vel value="0.0394528761" flag="0"/>
      <psa03 value="0.1355908156" flag="0"/>
      <psa10 value="0.0555763948" flag="0"/>
      <psa30 value="0.0052622432" flag="0"/>
    </comp>
  </station>
  <station code="KARA" name="KARA" netid="KO" insttype="CMG-3ESP" lat="37.2607" lon="35.0547">
    <comp name="--.HHE">
      <acc value="0.0460065865" flag="0"/>
      <vel value="0.0275237840" flag="0"/>
      <psa03 value="0.1094177956" flag="0"/>
      <psa10 value="0.0271355334" flag="0"/>
      <psa30 value="0.0070889810" flag="0"/>
    </comp>
    <comp name="--.HHZ">
      <acc value="0.0416583072" flag="0"/>
      <vel value="0.0238281655" flag="0"/>
      <psa03 value="0.1055892411" flag="0"/>
      <psa10 value="0.0296728952" flag="0"/>
      <psa30 value="0.0081418619" flag="0"/>
    </comp>
    <comp name="--.HHN">
      <acc value="0.0413669371" flag="0"/>
      <vel value="0.0313921310" flag="0"/>
      <psa03 value="0.0962038709" flag="0"/>
      <psa10 value="0.0524188511" flag="0"/>
      <psa30 value="0.0091186169" flag="0"/>
    </comp>
  </station>
  <station code="KMRS" name="KMRS" netid="KO" insttype="CMG-3T" lat="37.5087" lon="36.9">
    <comp name="--.HHE">
      <acc value="0.1272186293" flag="0"/>
      <vel value="0.0745553735" flag="0"/>
      <psa03 value="0.3030410198" flag="0"/>
      <psa10 value="0.0973178592" flag="0"/>
      <psa30 value="0.0122841006" flag="0"/>
    </comp>
    <comp name="--.HHN">
      <acc value="0.0861673780" flag="0"/>
      <vel value="0.0716187919" flag="0"/>
      <psa03 value="0.2236207266" flag="0"/>
      <psa10 value="0.1299453892" flag="0"/>
      <psa30 value="0.0114003042" flag="0"/>
    </comp>
  </station>
  <station code="SARI" name="SARI" netid="KO" insttype="CMG-3T" lat="38.4072" lon="36.4181">
    <comp name="--.HHE">
      <acc value="0.1907489588" flag="0"/>
      <vel value="0.0908568059" flag="0"/>
      <psa03 value="0.3092692766" flag="0"/>
      <psa10 value="0.1070761088" flag="0"/>
      <psa30 value="0.0155873974" flag="0"/>
    </comp>
    <comp name="--.HHN">
      <acc value="0.1075312348" flag="0"/>
      <vel value="0.0683844685" flag="0"/>
      <psa03 value="0.3897091644" flag="0"/>
      <psa10 value="0.1006879214" flag="0"/>
      <psa30 value="0.0123256425" flag="0"/>
    </comp>
    <comp name="--.HHZ">
      <acc value="0.0755490470" flag="0"/>
      <vel value="0.0647571337" flag="0"/>
      <psa03 value="0.1888484945" flag="0"/>
      <psa10 value="0.1202789481" flag="0"/>
      <psa30 value="0.0133435222" flag="0"/>
    </comp>
  </station>
  <station code="TAHT" name="TAHT" netid="KO" insttype="CMG-3ESPC" lat="36.3755" lon="36.1855">
    <comp name="--.HHE">
      <acc value="0.0642728884" flag="0"/>
      <vel value="0.0379475547" flag="0"/>
      <psa03 value="0.2116409875" flag="0"/>
      <psa10 value="0.0737757740" flag="0"/>
      <psa30 value="0.0093956625" flag="0"/>
    </comp>
  </station>
  <station code="ANDN" name="ANDN" netid="TU" insttype="T" lat="37.58" lon="36.3452">
    <comp name="--.HHN">
      <acc value="3.1869930062" flag="0"/>
      <vel value="0.6141011660" flag="0"/>
      <psa03 value="6.9413106694" flag="0"/>
      <psa10 value="1.1645237087" flag="0"/>
      <psa30 value="0.0700860002" flag="0"/>
    </comp>
    <comp name="--.HHZ">
      <acc value="0.6882340322" flag="0"/>
      <vel value="0.3578421488" flag="0"/>
      <psa03 value="2.6932398985" flag="0"/>
      <psa10 value="0.6928678138" flag="0"/>
      <psa30 value="0.0484991137" flag="0"/>
    </comp>
    <comp name="--.HHE">
      <acc value="1.6076089124" flag="0"/>
      <vel value="0.5672475851" flag="0"/>
      <psa03 value="2.9857643584" flag="0"/>
      <psa10 value="0.7580580412" flag="0"/>
      <psa30 value="0.0441631598" flag="0"/>
    </comp>
  </station>
</stationlist>
