<?xml version="1.0" encoding="UTF-8" standalone="yes"?>
<!DOCTYPE earthquake SYSTEM "stationlist.dtd">
<stationlist created="" xmlns="ch.ethz.sed.shakemap.usgs.xml">
  <station code="AIO" name="AIO" netid="IV" insttype="" commtype="DIG" lat="37.9712" lon="15.233">
    <comp name="--.HHE">
      <acc value="0.0221801987" flag="0"/>
      <vel value="0.0069730231" flag="0"/>
      <psa03 value="0.0311071050" flag="0"/>
      <psa10 value="0.0047897412" flag="0"/>
      <psa30 value="0.0004483008" flag="0"/>
    </comp>
    <comp name="--.HHZ">
      <acc value="0.0170824686" flag="0"/>
      <vel value="0.0062294684" flag="0"/>
      <psa03 value="0.0216296392" flag="0"/>
      <psa10 value="0.0036061052" flag="0"/>
      <psa30 value="0.0003837245" flag="0"/>
    </comp>
    <comp name="--.HHN">
      <acc value="0.0346664105" flag="0"/>
      <vel value="0.0087963713" flag="0"/>
      <psa03 value="0.0340490983" flag="0"/>
      <psa10 value="0.0036357447" flag="0"/>
      <psa30 value="0.0004615173" flag="0"/>
    </comp>
  </station>
  <station code="ALJA" name="ALJA" netid="IV" insttype="" commtype="DIG" lat="37.749" lon="13.7537">
    <comp name="--.HHE">
      <acc value="0.0114382876" flag="0"/>
      <vel value="0.0095124213" flag="0"/>
      <psa03 value="0.0386753011" flag="0"/>
      <psa10 value="0.0186946540" flag="0"/>
      <psa30 value="0.0011101682" flag="0"/>
    </comp>
    <comp name="--.HHN">
      <acc value="0.0127261276" flag="0"/>
      <vel value="0.0106645098" flag="0"/>
      <psa03 value="0.0371439290" flag="0"/>
      <psa10 value="0.0185275082" flag="0"/>
      <psa30 value="0.0017540044" flag="0"/>
    </comp>
    <comp name="--.HHZ">
      <acc value="0.0061802808" flag="0"/>
      <vel value="0.0050454316" flag="0"/>
      <psa03 value="0.0146428226" flag="0"/>
      <psa10 value="0.0089765915" flag="0"/>
      <psa30 value="0.0005968522" flag="0"/>
    </comp>
  </station>
  <station code="BASIC" name="BASIC" netid="IV" insttype="" commtype="DIG" lat="38.067" lon="15.0688">
    <comp name="--.HHE">
      <acc value="0.0002356137" flag="0"/>
      <vel value="0.0000788148" flag="0"/>
      <psa03 value="0.0004462994" flag="0"/>
      <psa10 value="0.0000246345" flag="0"/>
      <psa30 value="0.0000022607" flag="0"/>
    </comp>
    <comp name="--.HHZ">
      <acc value="0.0028481685" flag="0"/>
      <vel value="0.0002471216" flag="0"/>
      <psa03 value="0.0005538390" flag="0"/>
      <psa10 value="0.0000324557" flag="0"/>
      <psa30 value="0.0000030283" flag="0"/>
    </comp>
    <comp name="--.HHN">
      <acc value="0.0011545460" flag="0"/>
      <vel value="0.0001924020" flag="0"/>
      <psa03 value="0.0009406175" flag="0"/>
      <psa10 value="0.0000523087" flag="0"/>
      <psa30 value="0.0000048541" flag="0"/>
    </comp>
  </station>
  <station code="CIMI" name="CIMI" netid="IV" insttype="" commtype="DIG" lat="37.8815" lon="13.5726">
    <comp name="--.HHE">
      <acc value="0.0089819342" flag="0"/>
      <vel value="0.0094960392" flag="0"/>
      <psa03 value="0.0175164190" flag="0"/>
      <psa10 value="0.0158145292" flag="0"/>
      <psa30 value="0.0009017802" flag="0"/>
    </comp>
    <comp name="--.HHZ">
      <acc value="0.0058917817" flag="0"/>
      <vel value="0.0043500808" flag="0"/>
      <psa03 value="0.0229926559" flag="0"/>
      <psa10 value="0.0049228916" flag="0"/>
      <psa30 value="0.0009693806" flag="0"/>
    </comp>
    <comp name="--.HHN">
      <acc value="0.0080099910" flag="0"/>
      <vel value="0.0089803704" flag="0"/>
      <psa03 value="0.0163152809" flag="0"/>
      <psa10 value="0.0155471431" flag="0"/>
      <psa30 value="0.0008962473" flag="0"/>
    </comp>
  </station>
  <station code="CORL" name="CORL" netid="IV" insttype="" commtype="DIG" lat="37.8943" lon="13.3038">
    <comp name="--.HHN">
      <acc value="0.0052999582" flag="0"/>
      <vel value="0.0058863436" flag="0"/>
      <psa03 value="0.0171577703" flag="0"/>
      <psa10 value="0.0087567933" flag="0"/>
      <psa30 value="0.0006051109" flag="0"/>
    </comp>
    <comp name="--.HHE">
      <acc value="0.0059873190" flag="0"/>
      <vel value="0.0052413103" flag="0"/>
      <psa03 value="0.0211393530" flag="0"/>
      <psa10 value="0.0071802199" flag="0"/>
      <psa30 value="0.0011078300" flag="0"/>
    </comp>
    <comp name="--.HHZ">
      <acc value="0.0028917727" flag="0"/>
      <vel value="0.0023444566" flag="0"/>
      <psa03 value="0.0096474165" flag="0"/>
      <psa10 value="0.0045879067" flag="0"/>
      <psa30 value="0.0004841926" flag="0"/>
    </comp>
  </station>
  <station code="CSLB" name="CSLB" netid="IV" insttype="" commtype="DIG" lat="37.9374" lon="14.0579">
    <comp name="--.HHE">
      <acc value="0.0112362393" flag="0"/>
      <vel value="0.0074174875" flag="0"/>
      <psa03 value="0.0434971365" flag="0"/>
      <psa10 value="0.0071109562" flag="0"/>
      <psa30 value="0.0005554357" flag="0"/>
    </comp>
    <comp name="--.HHN">
      <acc value="0.0119391729" flag="0"/>
      <vel value="0.0066153077" flag="0"/>
      <psa03 value="0.0396675165" flag="0"/>
      <psa10 value="0.0086395648" flag="0"/>
      <psa30 value="0.0009297757" flag="0"/>
    </comp>
    <comp name="--.HHZ">
      <acc value="0.0104324467" flag="0"/>
      <vel value="0.0062943748" flag="0"/>
      <psa03 value="0.0286717618" flag="0"/>
      <psa10 value="0.0066064902" flag="0"/>
      <psa30 value="0.0004645662" flag="0"/>
    </comp>
  </station>
  <station code="EBDA" name="EBDA" netid="IV" insttype="" commtype="DIG" lat="37.6335" lon="15.1223">
    <comp name="--.HHE">
      <acc value="0.0223927069" flag="0"/>
      <vel value="0.0128239987" flag="0"/>
      <psa03 value="0.0632945410" flag="0"/>
      <psa10 value="0.0262172044" flag="0"/>
      <psa30 value="0.0016368633" flag="0"/>
    </comp>
    <comp name="--.HHN">
      <acc value="0.0206938481" flag="0"/>
      <vel value="0.0143628378" flag="0"/>
      <psa03 value="0.0632198601" flag="0"/>
      <psa10 value="0.0275856433" flag="0"/>
      <psa30 value="0.0015416497" flag="0"/>
    </comp>
    <comp name="--.HHZ">
      <acc value="0.0090650378" flag="0"/>
      <vel value="0.0056928250" flag="0"/>
      <psa03 value="0.0241037392" flag="0"/>
      <psa10 value="0.0120634580" flag="0"/>
      <psa30 value="0.0009546758" flag="0"/>
    </comp>
  </station>
  <station code="ECBD" name="ECBD" netid="IV" insttype="" commtype="DIG" lat="37.7802" lon="15.0865">
    <comp name="--.HHE">
      <acc value="0.0834696154" flag="0"/>
      <vel value="0.0463857861" flag="0"/>
      <psa03 value="0.1904329859" flag="0"/>
      <psa10 value="0.0506828434" flag="0"/>
      <psa30 value="0.0045095941" flag="0"/>
    </comp>
    <comp name="--.HHN">
      <acc value="0.0848003951" flag="0"/>
      <vel value="0.0464128587" flag="0"/>
      <psa03 value="0.2448975234" flag="0"/>
      <psa10 value="0.0546632351" flag="0"/>
      <psa30 value="0.0058060988" flag="0"/>
    </comp>
    <comp name="--.HHZ">
      <acc value="0.0483128971" flag="0"/>
      <vel value="0.0237368305" flag="0"/>
      <psa03 value="0.1098663895" flag="0"/>
      <psa10 value="0.0297846268" flag="0"/>
      <psa30 value="0.0028013996" flag="0"/>
    </comp>
  </station>
  <station code="ECHR" name="ECHR" netid="IV" insttype="" commtype="DIG" lat="37.6863" lon="14.9129">
    <comp name="--.HHE">
      <acc value="0.0678753104" flag="0"/>
      <vel value="0.0532811135" flag="0"/>
      <psa03 value="0.2003465687" flag="0"/>
      <psa10 value="0.0879861154" flag="0"/>
      <psa30 value="0.0084756741" flag="0"/>
    </comp>
    <comp name="--.HHN">
      <acc value="0.0543851456" flag="0"/>
      <vel value="0.0453510739" flag="0"/>
      <psa03 value="0.1655628388" flag="0"/>
      <psa10 value="0.0734500467" flag="0"/>
      <psa30 value="0.0050541478" flag="0"/>
    </comp>
    <comp name="--.HHZ">
      <acc value="0.0383621511" flag="0"/>
      <vel value="0.0290770202" flag="0"/>
      <psa03 value="0.1369169141" flag="0"/>
      <psa10 value="0.0423622671" flag="0"/>
      <psa30 value="0.0068168497" flag="0"/>
    </comp>
  </station>
  <station code="ECNE" name="ECNE" netid="IV" insttype="" commtype="DIG" lat="37.7653" lon="15.0018">
    <comp name="--.HHE">
      <acc value="0.1191071942" flag="0"/>
      <vel value="0.0813116187" flag="0"/>
      <psa03 value="0.4514032436" flag="0"/>
      <psa10 value="0.1246783296" flag="0"/>
      <psa30 value="0.0105221100" flag="0"/>
    </comp>
    <comp name="--.HHN">
      <acc value="0.0961339924" flag="0"/>
      <vel value="0.0523383405" flag="0"/>
      <psa03 value="0.2256379436" flag="0"/>
      <psa10 value="0.1042413806" flag="0"/>
      <psa30 value="0.0058933885" flag="0"/>
    </comp>
    <comp name="--.HHZ">
      <acc value="0.0845076254" flag="0"/>
      <vel value="0.0363980651" flag="0"/>
      <psa03 value="0.1960120424" flag="0"/>
      <psa10 value="0.0500576700" flag="0"/>
      <psa30 value="0.0030912102" flag="0"/>
    </comp>
  </station>
  <station code="ECPN" name="ECPN" netid="IV" insttype="" commtype="DIG" lat="37.7437" lon="14.9865">
    <comp name="--.HHE">
      <acc value="0.1045441194" flag="0"/>
      <vel value="0.0799427175" flag="0"/>
      <psa03 value="0.2455059263" flag="0"/>
      <psa10 value="0.1627703556" flag="0"/>
      <psa30 value="0.0078848609" flag="0"/>
    </comp>
    <comp name="--.HHZ">
      <acc value="0.0892917829" flag="0"/>
      <vel value="0.0471534551" flag="0"/>
      <psa03 value="0.2660157959" flag="0"/>
      <psa10 value="0.0496988066" flag="0"/>
      <psa30 value="0.0058142360" flag="0"/>
    </comp>
    <comp name="--.HHN">
      <acc value="0.1386604854" flag="0"/>
      <vel value="0.0997135975" flag="0"/>
      <psa03 value="0.4743432404" flag="0"/>
      <psa10 value="0.1314919022" flag="0"/>
      <psa30 value="0.0110202011" flag="0"/>
    </comp>
  </station>
  <station code="ECTS" name="ECTS" netid="IV" insttype="" commtype="DIG" lat="37.882" lon="15.121">
    <comp name="--.HHE">
      <acc value="0.0527306653" flag="0"/>
      <vel value="0.0204997338" flag="0"/>
      <psa03 value="0.1355353990" flag="0"/>
      <psa10 value="0.0203041334" flag="0"/>
      <psa30 value="0.0023062942" flag="0"/>
    </comp>
    <comp name="--.HHN">
      <acc value="0.0484768713" flag="0"/>
      <vel value="0.0225831411" flag="0"/>
      <psa03 value="0.1690245522" flag="0"/>
      <psa10 value="0.0328753284" flag="0"/>
      <psa30 value="0.0019530693" flag="0"/>
    </comp>
    <comp name="--.HHZ">
      <acc value="0.0331099735" flag="0"/>
      <vel value="0.0137373036" flag="0"/>
      <psa03 value="0.0707759895" flag="0"/>
      <psa10 value="0.0182664074" flag="0"/>
      <psa30 value="0.0019812273" flag="0"/>
    </comp>
  </station>
  <station code="EFIU" name="EFIU" netid="IV" insttype="" commtype="DIG" lat="37.7896" lon="15.2103">
    <comp name="--.HHE">
      <acc value="0.0166549219" flag="0"/>
      <vel value="0.0137487733" flag="0"/>
      <psa03 value="0.0381852027" flag="0"/>
      <psa10 value="0.0265458456" flag="0"/>
      <psa30 value="0.0057753613" flag="0"/>
    </comp>
    <comp name="--.HHN">
      <acc value="0.0180608837" flag="0"/>
      <vel value="0.0235065444" flag="0"/>
      <psa03 value="0.0365675374" flag="0"/>
      <psa10 value="0.0467707730" flag="0"/>
      <psa30 value="0.0067604514" flag="0"/>
    </comp>
    <comp name="--.HHZ">
      <acc value="0.0111197085" flag="0"/>
      <vel value="0.0139273454" flag="0"/>
      <psa03 value="0.0386865262" flag="0"/>
      <psa10 value="0.0443696109" flag="0"/>
      <psa30 value="0.0030121324" flag="0"/>
    </comp>
  </station>
  <station code="EMCN" name="EMCN" netid="IV" insttype="" commtype="DIG" lat="37.7912" lon="15.0336">
    <comp name="--.HHZ">
      <acc value="0.1014348152" flag="0"/>
      <vel value="0.0355206871" flag="0"/>
      <psa03 value="0.1996359513" flag="0"/>
      <psa10 value="0.0417400593" flag="0"/>
      <psa30 value="0.0038806781" flag="0"/>
    </comp>
    <comp name="--.HHE">
      <acc value="0.0980979763" flag="0"/>
      <vel value="0.0538820769" flag="0"/>
      <psa03 value="0.2964906666" flag="0"/>
      <psa10 value="0.0849958086" flag="0"/>
      <psa30 value="0.0050453301" flag="0"/>
    </comp>
    <comp name="--.HHN">
      <acc value="0.0986139629" flag="0"/>
      <vel value="0.0417639399" flag="0"/>
      <psa03 value="0.2177429526" flag="0"/>
      <psa10 value="0.0888883071" flag="0"/>
      <psa30 value="0.0047550486" flag="0"/>
    </comp>
  </station>
  <station code="EMFO" name="EMFO" netid="IV" insttype="" commtype="DIG" lat="37.7357" lon="15.0902">
    <comp name="--.HHE">
      <acc value="0.0495245703" flag="0"/>
      <vel value="0.0321571257" flag="0"/>
      <psa03 value="0.1576184534" flag="0"/>
      <psa10 value="0.0366998869" flag="0"/>
      <psa30 value="0.0036056521" flag="0"/>
    </comp>
    <comp name="--.HHN">
      <acc value="0.0500750386" flag="0"/>
      <vel value="0.0307326834" flag="0"/>
      <psa03 value="0.1847983296" flag="0"/>
      <psa10 value="0.0505679229" flag="0"/>
      <psa30 value="0.0031809224" flag="0"/>
    </comp>
    <comp name="--.HHZ">
      <acc value="0.0311284532" flag="0"/>
      <vel value="0.0159078562" flag="0"/>
      <psa03 value="0.0836914955" flag="0"/>
      <psa10 value="0.0183276951" flag="0"/>
      <psa30 value="0.0017070559" flag="0"/>
    </comp>
  </station>
  <station code="EMFS" name="EMFS" netid="IV" insttype="" commtype="DIG" lat="37.7196" lon="14.9979">
    <comp name="--.HHE">
      <acc value="0.1265510450" flag="0"/>
      <vel value="0.0795205935" flag="0"/>
      <psa03 value="0.4211636280" flag="0"/>
      <psa10 value="0.1057045394" flag="0"/>
      <psa30 value="0.0062543684" flag="0"/>
    </comp>
    <comp name="--.HHN">
      <acc value="0.0885169505" flag="0"/>
      <vel value="0.0641217580" flag="0"/>
      <psa03 value="0.3302565851" flag="0"/>
      <psa10 value="0.0823192883" flag="0"/>
      <psa30 value="0.0076891830" flag="0"/>
    </comp>
    <comp name="--.HHZ">
      <acc value="0.0817596919" flag="0"/>
      <vel value="0.0428318877" flag="0"/>
      <psa03 value="0.2417523289" flag="0"/>
      <psa10 value="0.0478971992" flag="0"/>
      <psa30 value="0.0040674720" flag="0"/>
    </comp>
  </station>
  <station code="EMNR" name="EMNR" netid="IV" insttype="" commtype="DIG" lat="37.8168" lon="15.026">
    <comp name="--.HHN">
      <acc value="0.1599469160" flag="0"/>
      <vel value="0.0885477641" flag="0"/>
      <psa03 value="0.4632516729" flag="0"/>
      <psa10 value="0.0866523348" flag="0"/>
      <psa30 value="0.0063055223" flag="0"/>
    </comp>
    <comp name="--.HHE">
      <acc value="0.1574806861" flag="0"/>
      <vel value="0.0964841377" flag="0"/>
      <psa03 value="0.3016762407" flag="0"/>
      <psa10 value="0.0788193124" flag="0"/>
      <psa30 value="0.0062669460" flag="0"/>
    </comp>
    <comp name="--.HHZ">
      <acc value="0.1184797237" flag="0"/>
      <vel value="0.0580463363" flag="0"/>
      <psa03 value="0.2162135801" flag="0"/>
      <psa10 value="0.0459608873" flag="0"/>
      <psa30 value="0.0040327604" flag="0"/>
    </comp>
  </station>
  <station code="EMPL" name="EMPL" netid="IV" insttype="" commtype="DIG" lat="37.679" lon="14.9703">
    <comp name="--.HHE">
      <acc value="0.1177135893" flag="0"/>
      <vel value="0.0640312464" flag="0"/>
      <psa03 value="0.3218512499" flag="0"/>
      <psa10 value="0.0912207109" flag="0"/>
      <psa30 value="0.0050204034" flag="0"/>
    </comp>
    <comp name="--.HHZ">
      <acc value="0.0857035216" flag="0"/>
      <vel value="0.0322500219" flag="0"/>
      <psa03 value="0.2188983804" flag="0"/>
      <psa10 value="0.0403621757" flag="0"/>
      <psa30 value="0.0031928070" flag="0"/>
    </comp>
    <comp name="--.HHN">
      <acc value="0.1158434032" flag="0"/>
      <vel value="0.0614038308" flag="0"/>
      <psa03 value="0.5389229485" flag="0"/>
      <psa10 value="0.0994386040" flag="0"/>
      <psa30 value="0.0051909463" flag="0"/>
    </comp>
  </station>
  <station code="EMSG" name="EMSG" netid="IV" insttype="" commtype="DIG" lat="37.8208" lon="14.9498">
    <comp name="--.HHE">
      <acc value="0.1521006253" flag="0"/>
      <vel value="0.0744269356" flag="0"/>
      <psa03 value="0.4388633384" flag="0"/>
      <psa10 value="0.1003845545" flag="0"/>
      <psa30 value="0.0081821846" flag="0"/>
    </comp>
    <comp name="--.HHN">
      <acc value="0.2161949967" flag="0"/>
      <vel value="0.1042996116" flag="0"/>
      <psa03 value="0.4690378282" flag="0"/>
      <psa10 value="0.1038725163" flag="0"/>
      <psa30 value="0.0066942266" flag="0"/>
    </comp>
    <comp name="--.HHZ">
      <acc value="0.1100204451" flag="0"/>
      <vel value="0.0626066109" flag="0"/>
      <psa03 value="0.3705007801" flag="0"/>
      <psa10 value="0.0623549125" flag="0"/>
      <psa30 value="0.0041005564" flag="0"/>
    </comp>
  </station>
  <station code="ENIC" name="ENIC" netid="IV" insttype="" commtype="DIG" lat="37.6314" lon="15.0216">
    <comp name="--.HHE">
      <acc value="0.0439983418" flag="0"/>
      <vel value="0.0287501811" flag="0"/>
      <psa03 value="0.1242637430" flag="0"/>
      <psa10 value="0.0541089217" flag="0"/>
      <psa30 value="0.0046378296" flag="0"/>
    </comp>
    <comp name="--.HHN">
      <acc value="0.0438128623" flag="0"/>
      <vel value="0.0321673063" flag="0"/>
      <psa03 value="0.1227944395" flag="0"/>
      <psa10 value="0.0591288777" flag="0"/>
      <psa30 value="0.0034831191" flag="0"/>
    </comp>
    <comp name="--.HHZ">
      <acc value="0.0165545426" flag="0"/>
      <vel value="0.0106174104" flag="0"/>
      <psa03 value="0.0650925020" flag="0"/>
      <psa10 value="0.0206567451" flag="0"/>
      <psa30 value="0.0015141057" flag="0"/>
    </comp>
  </station>
  <station code="EPDN" name="EPDN" netid="IV" insttype="" commtype="DIG" lat="37.7659" lon="15.0168">
    <comp name="--.HHE">
      <acc value="0.0827759506" flag="0"/>
      <vel value="0.0874037753" flag="0"/>
      <psa03 value="0.3464420221" flag="0"/>
      <psa10 value="0.1534632025" flag="0"/>
      <psa30 value="0.0120686015" flag="0"/>
    </comp>
    <comp name="--.HHN">
      <acc value="0.0724244939" flag="0"/>
      <vel value="0.0569575137" flag="0"/>
      <psa03 value="0.2386207845" flag="0"/>
      <psa10 value="0.0983404960" flag="0"/>
      <psa30 value="0.0071773677" flag="0"/>
    </comp>
    <comp name="--.HHZ">
      <acc value="0.0614802462" flag="0"/>
      <vel value="0.0346778191" flag="0"/>
      <psa03 value="0.2000593877" flag="0"/>
      <psa10 value="0.0745957336" flag="0"/>
      <psa30 value="0.0034808465" flag="0"/>
    </comp>
  </station>
  <station code="EPIT" name="EPIT" netid="IV" insttype="" commtype="DIG" lat="37.8113" lon="15.0567">
    <comp name="--.HHN">
      <acc value="0.1069926448" flag="0"/>
      <vel value="0.0588259352" flag="0"/>
      <psa03 value="0.5193008026" flag="0"/>
      <psa10 value="0.0587579476" flag="0"/>
      <psa30 value="0.0037746545" flag="0"/>
    </comp>
  </station>
  <station code="EPMN" name="EPMN" netid="IV" insttype="" commtype="DIG" lat="37.8204" lon="15.1773">
    <comp name="--.HHE">
      <acc value="0.0554753756" flag="0"/>
      <vel value="0.0229302007" flag="0"/>
      <psa03 value="0.1016149423" flag="0"/>
      <psa10 value="0.0142461434" flag="0"/>
      <psa30 value="0.0012542146" flag="0"/>
    </comp>
    <comp name="--.HHZ">
      <acc value="0.0199615121" flag="0"/>
      <vel value="0.0117171170" flag="0"/>
      <psa03 value="0.0619365204" flag="0"/>
      <psa10 value="0.0153035593" flag="0"/>
      <psa30 value="0.0018241143" flag="0"/>
    </comp>
    <comp name="--.HHN">
      <acc value="0.0408772733" flag="0"/>
      <vel value="0.0199045697" flag="0"/>
      <psa03 value="0.1401318770" flag="0"/>
