<stationlist created="1774403743">
	<station code="SPAOL" name="SPAOL" netid="7C" source="Urban Seismic Network (RUSN-CAL-INGV)" insttype="" lat="37.54939" lon="15.071367">
		<comp name="--.HNE" depth="0.0">
			<acc value="0.094729348398313" flag="0"/>
			<vel value="0.11267470094021" flag="0"/>
			<psa03 value="0.0576786282177141" flag="0"/>
			<psa10 value="0.0541666907774277" flag="0"/>
			<psa30 value="0.0249935640342885" flag="0"/>
		</comp>
		<comp name="--.HNN" depth="0.0">
			<acc value="0.0611348964828182" flag="0"/>
			<vel value="0.108545759092357" flag="0"/>
			<psa03 value="0.0585198662372709" flag="0"/>
			<psa10 value="0.0615184790473198" flag="0"/>
			<psa30 value="0.0261330578534951" flag="0"/>
		</comp>
		<comp name="--.HNZ" depth="0.0">
			<acc value="0.116687554430737" flag="0"/>
			<vel value="0.426797383001541" flag="0"/>
			<psa03 value="0.162512244805316" flag="0"/>
			<psa10 value="0.199287346808674" flag="0"/>
			<psa30 value="0.101501477308062" flag="0"/>
		</comp>
	</station>
	<station code="ACATE" name="ACATE" netid="IV" source="Italian National Seismic Network (INSN)" insttype="" lat="37.02398" lon="14.50064">
		<comp name="--.HNE" depth="0.0">
			<acc value="0.0177587512270776" flag="0"/>
			<vel value="0.0157389809177244" flag="0"/>
			<psa03 value="0.0299873250547814" flag="0"/>
			<psa10 value="0.0165339077902469" flag="0"/>
			<psa30 value="0.00174303661345459" flag="0"/>
		</comp>
		<comp name="--.HNN" depth="0.0">
			<acc value="0.00991479969457078" flag="0"/>
			<vel value="0.0108239700002383" flag="0"/>
			<psa03 value="0.0251392564981993" flag="0"/>
			<psa10 value="0.0127318806121057" flag="0"/>
			<psa30 value="0.00166802987379287" flag="0"/>
		</comp>
		<comp name="--.HNZ" depth="0.0">
			<acc value="0.00719378527720598" flag="0"/>
			<vel value="0.00475147858098678" flag="0"/>
			<psa03 value="0.0174024340758508" flag="0"/>
			<psa10 value="0.0100433284462195" flag="0"/>
			<psa30 value="0.000693943991217051" flag="0"/>
		</comp>
	</station>
	<station code="BASIC" name="BASIC" netid="IV" source="Italian National Seismic Network (INSN)" insttype="" lat="38.06703" lon="15.068847">
		<comp name="--.HNE" depth="0.0">
			<acc value="0.000155126724279891" flag="0"/>
			<vel value="0.000121241158787935" flag="0"/>
			<psa03 value="0.00027764961851053" flag="0"/>
			<psa10 value="0.000106975697454791" flag="0"/>
			<psa30 value="3.44847518934872e-05" flag="0"/>
		</comp>
		<comp name="--.HNN" depth="0.0">
			<acc value="0.000146968224474036" flag="0"/>
			<vel value="0.000117049130241492" flag="0"/>
			<psa03 value="0.000289776622223083" flag="0"/>
			<psa10 value="9.82528100359963e-05" flag="0"/>
			<psa30 value="2.74056175709976e-05" flag="0"/>
		</comp>
		<comp name="--.HNZ" depth="0.0">
			<acc value="0.000139575486571818" flag="0"/>
			<vel value="9.82241190369019e-05" flag="0"/>
			<psa03 value="0.000271588059735447" flag="0"/>
			<psa10 value="9.10939739818352e-05" flag="0"/>
			<psa30 value="3.0292664292424e-05" flag="0"/>
		</comp>
	</station>
	<station code="BRICA" name="BRICA" netid="IV" source="Italian National Seismic Network (INSN)" insttype="" lat="38.72384" lon="16.02905">
		<comp name="--.HNE" depth="0.0">
			<acc value="0.0247530335128697" flag="0"/>
			<vel value="0.00199428222473784" flag="0"/>
			<psa03 value="0.00897326500768492" flag="0"/>
			<psa10 value="0.00188198764119491" flag="0"/>
			<psa30 value="0.000166046038797659" flag="0"/>
		</comp>
		<comp name="--.HNN" depth="0.0">
			<acc value="0.00700507925918617" flag="0"/>
			<vel value="0.00174663983644754" flag="0"/>
			<psa03 value="0.00673489537251528" flag="0"/>
			<psa10 value="0.00176166806905126" flag="0"/>
			<psa30 value="0.000218732432658514" flag="0"/>
		</comp>
		<comp name="--.HNZ" depth="0.0">
			<acc value="0.00923569486402855" flag="0"/>
			<vel value="0.00121694104696945" flag="0"/>
			<psa03 value="0.00374541120104804" flag="0"/>
			<psa10 value="0.00148622087671409" flag="0"/>
			<psa30 value="0.000218915726050801" flag="0"/>
		</comp>
	</station>
	<station code="CIMI" name="CIMI" netid="IV" source="Italian National Seismic Network (INSN)" insttype="" lat="37.881475" lon="13.572629">
		<comp name="--.HNE" depth="0.0">
			<acc value="0.0100083412377238" flag="0"/>
			<vel value="0.00940500622047335" flag="0"/>
			<psa03 value="0.0269610907274425" flag="0"/>
			<psa10 value="0.0155741507735548" flag="0"/>
			<psa30 value="0.000944262448586352" flag="0"/>
		</comp>
		<comp name="--.HNN" depth="0.0">
			<acc value="0.00960952250192874" flag="0"/>
			<vel value="0.00945770013705463" flag="0"/>
			<psa03 value="0.0253815433818496" flag="0"/>
			<psa10 value="0.0166618268892594" flag="0"/>
			<psa30 value="0.00113467297901617" flag="0"/>
		</comp>
		<comp name="--.HNZ" depth="0.0">
			<acc value="0.00655094579362246" flag="0"/>
			<vel value="0.00483445072667267" flag="0"/>
			<psa03 value="0.0248960997652591" flag="0"/>
			<psa10 value="0.00497777506566845" flag="0"/>
			<psa30 value="0.00111494073435181" flag="0"/>
		</comp>
	</station>
	<station code="CLTB" name="CLTB" netid="IV" source="Italian National Seismic Network (INSN)" insttype="" lat="37.578" lon="13.216">
		<comp name="--.HNE" depth="0.0">
			<acc value="0.00576464036602519" flag="0"/>
			<vel value="0.00591250505071478" flag="0"/>
			<psa03 value="0.0110820935093069" flag="0"/>
			<psa10 value="0.00862163364091592" flag="0"/>
			<psa30 value="0.000800226083967423" flag="0"/>
		</comp>
		<comp name="--.HNN" depth="0.0">
			<acc value="0.0126930162928972" flag="0"/>
			<vel value="0.0114784208546184" flag="0"/>
			<psa03 value="0.0253214378376522" flag="0"/>
			<psa10 value="0.0119835007231109" flag="0"/>
			<psa30 value="0.0010284240655471" flag="0"/>
		</comp>
		<comp name="--.HNZ" depth="0.0">
			<acc value="0.00344767529903379" flag="0"/>
			<vel value="0.00229479544463623" flag="0"/>
			<psa03 value="0.00869546730807568" flag="0"/>
			<psa10 value="0.00332364900355986" flag="0"/>
			<psa30 value="0.000326593275826687" flag="0"/>
		</comp>
	</station>
	<station code="CORL" name="CORL" netid="IV" source="Italian National Seismic Network (INSN)" insttype="" lat="37.8943" lon="13.3038">
		<comp name="--.HNE" depth="0.0">
			<acc value="0.00597575985315444" flag="0"/>
			<vel value="0.00530613092384342" flag="0"/>
			<psa03 value="0.0213221182148549" flag="0"/>
			<psa10 value="0.0071669028971436" flag="0"/>
			<psa30 value="0.00134117467957371" flag="0"/>
		</comp>
		<comp name="--.HNN" depth="0.0">
			<acc value="0.00529569304207078" flag="0"/>
			<vel value="0.00594302926941055" flag="0"/>
			<psa03 value="0.0172792944080355" flag="0"/>
			<psa10 value="0.00886593513719108" flag="0"/>
			<psa30 value="0.000682359005018571" flag="0"/>
		</comp>
		<comp name="--.HNZ" depth="0.0">
			<acc value="0.00290600342179494" flag="0"/>
			<vel value="0.00234493155584383" flag="0"/>
			<psa03 value="0.00958713184522521" flag="0"/>
			<psa10 value="0.00463241046820883" flag="0"/>
			<psa30 value="0.000555865000411566" flag="0"/>
		</comp>
	</station>
	<station code="CRJA" name="CRJA" netid="IV" source="Italian National Seismic Network (INSN)" insttype="" lat="37.80162" lon="13.00433">
		<comp name="--.HNE" depth="0.0">
			<acc value="0.00371934837594344" flag="0"/>
			<vel value="0.00507051179269199" flag="0"/>
			<psa03 value="0.00631520806508254" flag="0"/>
			<psa10 value="0.0103911902403561" flag="0"/>
			<psa30 value="0.00107718656665682" flag="0"/>
		</comp>
		<comp name="--.HNN" depth="0.0">
			<acc value="0.0031419000381378" flag="0"/>
			<vel value="0.00405123491202363" flag="0"/>
			<psa03 value="0.00763978213973932" flag="0"/>
			<psa10 value="0.00925881585111022" flag="0"/>
			<psa30 value="0.000865955438214559" flag="0"/>
		</comp>
		<comp name="--.HNZ" depth="0.0">
			<acc value="0.0028796871698976" flag="0"/>
			<vel value="0.00502971174874" flag="0"/>
			<psa03 value="0.00407128369996013" flag="0"/>
			<psa10 value="0.00974805451077036" flag="0"/>
			<psa30 value="0.000954233734135083" flag="0"/>
		</comp>
	</station>
	<station code="CSLB" name="CSLB" netid="IV" source="Italian National Seismic Network (INSN)" insttype="" lat="37.93745" lon="14.05785">
		<comp name="--.HNE" depth="0.0">
			<acc value="0.0115168233535341" flag="0"/>
			<vel value="0.0077255987493245" flag="0"/>
			<psa03 value="0.0445393203030491" flag="0"/>
			<psa10 value="0.00719778009885667" flag="0"/>
			<psa30 value="0.000599512006394838" flag="0"/>
		</comp>
		<comp name="--.HNN" depth="0.0">
			<acc value="0.0121211143099231" flag="0"/>
			<vel value="0.00722523804617997" flag="0"/>
			<psa03 value="0.0403060060125867" flag="0"/>
			<psa10 value="0.00884515032279914" flag="0"/>
			<psa30 value="0.00105002935095789" flag="0"/>
		</comp>
		<comp name="--.HNZ" depth="0.0">
			<acc value="0.0104803644323846" flag="0"/>
			<vel value="0.00617801092310634" flag="0"/>
			<psa03 value="0.0287150298339671" flag="0"/>
			<psa10 value="0.00645877723729393" flag="0"/>
			<psa30 value="0.000457010378861375" flag="0"/>
		</comp>
	</station>
	<station code="ECHR" name="ECHR" netid="IV" source="Italian National Seismic Network (INSN)" insttype="" lat="37.6863" lon="14.9129">
		<comp name="--.HNE" depth="0.0">
			<acc value="0.0166833223505242" flag="0"/>
			<vel value="0.0134823622210395" flag="0"/>
			<psa03 value="0.0499538196120553" flag="0"/>
			<psa10 value="0.0214779971869051" flag="0"/>
			<psa30 value="0.0023908906764401" flag="0"/>
		</comp>
		<comp name="--.HNN" depth="0.0">
			<acc value="0.014013550249024" flag="0"/>
			<vel value="0.0113909609606884" flag="0"/>
			<psa03 value="0.0434148916485025" flag="0"/>
			<psa10 value="0.0189682278020006" flag="0"/>
			<psa30 value="0.00159483346238985" flag="0"/>
		</comp>
		<comp name="--.HNZ" depth="0.0">
			<acc value="0.00955740387195833" flag="0"/>
			<vel value="0.00793086452245465" flag="0"/>
			<psa03 value="0.0343777487113015" flag="0"/>
			<psa10 value="0.0108232122971971" flag="0"/>
			<psa30 value="0.00200769404154367" flag="0"/>
		</comp>
	</station>
	<station code="EFIU" name="EFIU" netid="IV" source="Italian National Seismic Network (INSN)" insttype="" lat="37.7896" lon="15.2103">
		<comp name="--.HNE" depth="0.0">
			<acc value="0.0184482003091158" flag="0"/>
			<vel value="0.0174988269292241" flag="0"/>
			<psa03 value="0.0410080655414183" flag="0"/>
			<psa10 value="0.0301573677776106" flag="0"/>
			<psa30 value="0.00691333005752078" flag="0"/>
		</comp>
		<comp name="--.HNN" depth="0.0">
			<acc value="0.0208855606811075" flag="0"/>
			<vel value="0.0254520338697165" flag="0"/>
			<psa03 value="0.0383348051177016" flag="0"/>
			<psa10 value="0.0507674880969325" flag="0"/>
			<psa30 value="0.00822338475888199" flag="0"/>
		</comp>
		<comp name="--.HNZ" depth="0.0">
			<acc value="0.0124759048136648" flag="0"/>
			<vel value="0.0161542781380011" flag="0"/>
			<psa03 value="0.0419886773771398" flag="0"/>
			<psa10 value="0.0480911533028872" flag="0"/>
			<psa30 value="0.00384570017542957" flag="0"/>
		</comp>
	</station>
	<station code="EMCN" name="EMCN" netid="IV" source="Italian National Seismic Network (INSN)" insttype="" lat="37.7912" lon="15.0336">
		<comp name="--.HNE" depth="0.0">
			<acc value="0.0254783759475748" flag="0"/>
			<vel value="0.00886043800990273" flag="0"/>
			<psa03 value="0.0507803170717891" flag="0"/>
			<psa10 value="0.0107249117227665" flag="0"/>
			<psa30 value="0.00115133387438539" flag="0"/>
		</comp>
		<comp name="--.HNN" depth="0.0">
			<acc value="0.0246424405902755" flag="0"/>
			<vel value="0.0106590988733508" flag="0"/>
			<psa03 value="0.0556596194682932" flag="0"/>
			<psa10 value="0.0228049175888695" flag="0"/>
			<psa30 value="0.00129760450159658" flag="0"/>
		</comp>
		<comp name="--.HNZ" depth="0.0">
			<acc value="0.0247155314327376" flag="0"/>
			<vel value="0.0142892596185501" flag="0"/>
			<psa03 value="0.0755856790552821" flag="0"/>
			<psa10 value="0.0217919342336937" flag="0"/>
			<psa30 value="0.00138989655299204" flag="0"/>
		</comp>
	</station>
	<station code="EPOZ" name="EPOZ" netid="IV" source="Italian National Seismic Network (INSN)" insttype="" lat="37.6719" lon="15.1885">
		<comp name="--.HNE" depth="0.0">
			<acc value="0.0176148728208878" flag="0"/>
			<vel value="0.0188409197075629" flag="0"/>
			<psa03 value="0.0561776121160973" flag="0"/>
			<psa10 value="0.0234803710843486" flag="0"/>
			<psa30 value="0.00290036671839416" flag="0"/>
		</comp>
		<comp name="--.HNN" depth="0.0">
			<acc value="0.0228571400815155" flag="0"/>
			<vel value="0.0197541358409397" flag="0"/>
			<psa03 value="0.0544658580957943" flag="0"/>
			<psa10 value="0.0351727137696685" flag="0"/>
			<psa30 value="0.00436201062846316" flag="0"/>
		</comp>
		<comp name="--.HNZ" depth="0.0">
			<acc value="0.0132373711335678" flag="0"/>
			<vel value="0.0138326842238002" flag="0"/>
			<psa03 value="0.0343632086855962" flag="0"/>
			<psa10 value="0.012935206893974" flag="0"/>
			<psa30 value="0.00351783303917421" flag="0"/>
		</comp>
	</station>
	<station code="EPZF" name="EPZF" netid="IV" source="Italian National Seismic Network (INSN)" insttype="" lat="37.824" lon="14.857">
		<comp name="--.HNE" depth="0.0">
			<acc value="0.163717823415948" flag="0"/>
			<vel value="0.106027100692499" flag="0"/>
			<psa03 value="0.894870697458576" flag="0"/>
			<psa10 value="0.0775004815265485" flag="0"/>
			<psa30 value="0.00775007173755056" flag="0"/>
		</comp>
		<comp name="--.HNN" depth="0.0">
			<acc value="0.294453315851861" flag="0"/>
			<vel value="0.148110629573786" flag="0"/>
			<psa03 value="0.985344857594327" flag="0"/>
			<psa10 value="0.191838378351072" flag="0"/>
			<psa30 value="0.00824506869533636" flag="0"/>
		</comp>
		<comp name="--.HNZ" depth="0.0">
			<acc value="0.0989694710749199" flag="0"/>
			<vel value="0.0542040024684054" flag="0"/>
			<psa03 value="0.307058341108134" flag="0"/>
			<psa10 value="0.0691302045367771" flag="0"/>
			<psa30 value="0.0049175961832795" flag="0"/>
		</comp>
	</station>
	<station code="EVRN" name="EVRN" netid="IV" source="Italian National Seismic Network (INSN)" insttype="" lat="37.6892" lon="15.1356">
		<comp name="--.HNE" depth="0.0">
			<acc value="0.0455551006077591" flag="0"/>
			<vel value="0.0220728821478154" flag="0"/>
			<psa03 value="0.152978800761436" flag="0"/>
			<psa10 value="0.0364723961172455" flag="0"/>
			<psa30 value="0.00288361165011979" flag="0"/>
		</comp>
		<comp name="--.HNN" depth="0.0">
			<acc value="0.0513139188508713" flag="0"/>
			<vel value="0.0229106614470096" flag="0"/>
			<psa03 value="0.121451347639062" flag="0"/>
			<psa10 value="0.0376538856351276" flag="0"/>
			<psa30 value="0.00276459418246333" flag="0"/>
		</comp>
		<comp name="--.HNZ" depth="0.0">
			<acc value="0.0250896835031524" flag="0"/>
			<vel value="0.0118076947581019" flag="0"/>
			<psa03 value="0.0655396437630807" flag="0"/>
			<psa10 value="0.0194688015875572" flag="0"/>
			<psa30 value="0.00168941212359532" flag="0"/>
		</comp>
	</station>
	<station code="GMB1" name="GMB1" netid="IV" source="Italian National Seismic Network (INSN)" insttype="" lat="38.1723" lon="15.8179">
		<comp name="--.HNE" depth="0.0">
			<acc value="0.0107834356651812" flag="0"/>
			<vel value="0.00439809774761329" flag="0"/>
			<psa03 value="0.0188130210098957" flag="0"/>
			<psa10 value="0.00482519573928689" flag="0"/>
			<psa30 value="0.000455768109067098" flag="0"/>
		</comp>
		<comp name="--.HNN" depth="0.0">
			<acc value="0.0122552382743418" flag="0"/>
			<vel value="0.00475232379204194" flag="0"/>
			<psa03 value="0.0263515451397055" flag="0"/>
			<psa10 value="0.00540917645639337" flag="0"/>
			<psa30 value="0.000338757467061324" flag="0"/>
		</comp>
		<comp name="--.HNZ" depth="0.0">
			<acc value="0.00851002441446553" flag="0"/>
			<vel value="0.002626659238192" flag="0"/>
			<psa03 value="0.013080527979116" flag="0"/>
			<psa10 value="0.00401032582065396" flag="0"/>
			<psa30 value="0.000371910132012672" flag="0"/>
		</comp>
	</station>
	<station code="HLNI" name="HLNI" netid="IV" source="Italian National Seismic Network (INSN)" insttype="" lat="37.3485" lon="14.872">
		<comp name="--.HNE" depth="0.0">
			<acc value="0.0110716259810024" flag="0"/>
			<vel value="0.00610941123052885" flag="0"/>
			<psa03 value="0.0212694754046104" flag="0"/>
			<psa10 value="0.00712522029212558" flag="0"/>
			<psa30 value="0.000916752917881619" flag="0"/>
		</comp>
		<comp name="--.HNN" depth="0.0">
			<acc value="0.0107826763623496" flag="0"/>
			<vel value="0.00715425886083363" flag="0"/>
			<psa03 value="0.0300979625923086" flag="0"/>
			<psa10 value="0.0065958520990808" flag="0"/>
			<psa30 value="0.00126002888739656" flag="0"/>
		</comp>
		<comp name="--.HNZ" depth="0.0">
			<acc value="0.00634258890420123" flag="0"/>
			<vel value="0.00425806904903854" flag="0"/>
			<psa03 value="0.0192950503378063" flag="0"/>
			<psa10 value="0.00500036609346317" flag="0"/>
			<psa30 value="0.000934343979036422" flag="0"/>
		</comp>
	</station>
	<station code="HMDC" name="HMDC" netid="IV" source="Italian National Seismic Network (INSN)" insttype="" lat="36.959" lon="14.7831">
		<comp name="--.HNE" depth="0.0">
			<acc value="0.0166846306196245" flag="0"/>
			<vel value="0.0105691525073937" flag="0"/>
			<psa03 value="0.0550559388524151" flag="0"/>
			<psa10 value="0.0123839606891183" flag="0"/>
			<psa30 value="0.000558564658417327" flag="0"/>
		</comp>
		<comp name="--.HNN" depth="0.0">
			<acc value="0.0177649720053139" flag="0"/>
			<vel value="0.011106787771119" flag="0"/>
			<psa03 value="0.0440158793776567" flag="0"/>
			<psa10 value="0.011869113458016" flag="0"/>
			<psa30 value="0.000895257118890432" flag="0"/>
		</comp>
		<comp name="--.HNZ" depth="0.0">
			<acc value="0.00882581872283355" flag="0"/>
			<vel value="0.00559575995645413" flag="0"/>
			<psa03 value="0.0265549336131937" flag="0"/>
			<psa10 value="0.00616699197045201" flag="0"/>
			<psa30 value="0.00102602109386202" flag="0"/>
		</comp>
	</station>
	<station code="IACL" name="IACL" netid="IV" source="Italian National Seismic Network (INSN)" insttype="" lat="38.533" lon="14.355">
		<comp name="--.HNE" depth="0.0">
			<acc value="0.0889496132882174" flag="0"/>
			<vel value="0.0209611571241117" flag="0"/>
			<psa03 value="0.1084034311953" flag="0"/>
			<psa10 value="0.0169780272109789" flag="0"/>
			<psa30 value="0.00164938415943914" flag="0"/>
		</comp>
		<comp name="--.HNN" depth="0.0">
			<acc value="0.0687526883605579" flag="0"/>
			<vel value="0.0236954705238431" flag="0"/>
			<psa03 value="0.127253846609475" flag="0"/>
			<psa10 value="0.0283713738392774" flag="0"/>
			<psa30 value="0.0019373837588325" flag="0"/>
		</comp>
		<comp name="--.HNZ" depth="0.0">
			<acc value="0.0665180711680673" flag="0"/>
			<vel value="0.0182924195007573" flag="0"/>
			<psa03 value="0.0864001037911798" flag="0"/>
			<psa10 value="0.0121378937633921" flag="0"/>
			<psa30 value="0.00120282332697559" flag="0"/>
		</comp>
	</station>
	<station code="ILOS" name="ILOS" netid="IV" source="Italian National Seismic Network (INSN)" insttype="" lat="38.4457" lon="14.9483">
		<comp name="--.HNE" depth="0.0">
			<acc value="0.110821518079468" flag="0"/>
			<vel value="0.0549863092478759" flag="0"/>
			<psa03 value="0.274260314233151" flag="0"/>
			<psa10 value="0.070627776243553" flag="0"/>
			<psa30 value="0.00461329019116764" flag="0"/>
		</comp>
		<comp name="--.HNN" depth="0.0">
			<acc value="0.144607504287068" flag="0"/>
			<vel value="0.09058795875733" flag="0"/>
			<psa03 value="0.394788861157862" flag="0"/>
			<psa10 value="0.089422543804664" flag="0"/>
			<psa30 value="0.00621241862557831" flag="0"/>
		</comp>
		<comp name="--.HNZ" depth="0.0">
			<acc value="0.0799276931725033" flag="0"/>
			<vel value="0.0260813052644821" flag="0"/>
			<psa03 value="0.139457748808102" flag="0"/>
			<psa10 value="0.0159621017859054" flag="0"/>
			<psa30 value="0.00192312260576777" flag="0"/>
		</comp>
	</station>
