<?xml version="1.0" encoding="UTF-8" standalone="yes"?>
<!DOCTYPE earthquake SYSTEM "stationlist.dtd">
<stationlist created="" xmlns="ch.ethz.sed.shakemap.usgs.xml">
  <station code="AIO" name="AIO" netid="IV" insttype="" commtype="DIG" lat="37.9712" lon="15.233">
    <comp name="--.HHE">
      <acc value="0.0221801987" flag="0"/>
      <vel value="0.0069730232" flag="0"/>
      <psa03 value="0.0311071050" flag="0"/>
      <psa10 value="0.0047897411" flag="0"/>
      <psa30 value="0.0004482991" flag="0"/>
    </comp>
    <comp name="--.HHN">
      <acc value="0.0346664105" flag="0"/>
      <vel value="0.0087963713" flag="0"/>
      <psa03 value="0.0340490983" flag="0"/>
      <psa10 value="0.0036357447" flag="0"/>
      <psa30 value="0.0004615172" flag="0"/>
    </comp>
    <comp name="--.HHZ">
      <acc value="0.0170824686" flag="0"/>
      <vel value="0.0062294685" flag="0"/>
      <psa03 value="0.0216296392" flag="0"/>
      <psa10 value="0.0036061052" flag="0"/>
      <psa30 value="0.0003837236" flag="0"/>
    </comp>
  </station>
  <station code="ALJA" name="ALJA" netid="IV" insttype="" commtype="DIG" lat="37.749" lon="13.7537">
    <comp name="--.HHE">
      <acc value="0.0114382876" flag="0"/>
      <vel value="0.0095124194" flag="0"/>
      <psa03 value="0.0386753011" flag="0"/>
      <psa10 value="0.0186946540" flag="0"/>
      <psa30 value="0.0011101883" flag="0"/>
    </comp>
    <comp name="--.HHN">
      <acc value="0.0127261276" flag="0"/>
      <vel value="0.0106645140" flag="0"/>
      <psa03 value="0.0371439290" flag="0"/>
      <psa10 value="0.0185275082" flag="0"/>
      <psa30 value="0.0017540115" flag="0"/>
    </comp>
    <comp name="--.HHZ">
      <acc value="0.0061802807" flag="0"/>
      <vel value="0.0050454306" flag="0"/>
      <psa03 value="0.0146428226" flag="0"/>
      <psa10 value="0.0089765914" flag="0"/>
      <psa30 value="0.0005968512" flag="0"/>
    </comp>
  </station>
  <station code="BASIC" name="BASIC" netid="IV" insttype="" commtype="DIG" lat="38.067" lon="15.0688">
    <comp name="--.HHE">
      <acc value="0.0002356137" flag="0"/>
      <vel value="0.0000788148" flag="0"/>
      <psa03 value="0.0004462994" flag="0"/>
      <psa10 value="0.0000246345" flag="0"/>
      <psa30 value="0.0000022601" flag="0"/>
    </comp>
    <comp name="--.HHN">
      <acc value="0.0011545460" flag="0"/>
      <vel value="0.0001924020" flag="0"/>
      <psa03 value="0.0009406175" flag="0"/>
      <psa10 value="0.0000523087" flag="0"/>
      <psa30 value="0.0000048546" flag="0"/>
    </comp>
    <comp name="--.HHZ">
      <acc value="0.0028481685" flag="0"/>
      <vel value="0.0002471217" flag="0"/>
      <psa03 value="0.0005538390" flag="0"/>
      <psa10 value="0.0000324557" flag="0"/>
      <psa30 value="0.0000030297" flag="0"/>
    </comp>
  </station>
  <station code="CIMI" name="CIMI" netid="IV" insttype="" commtype="DIG" lat="37.8815" lon="13.5726">
    <comp name="--.HHE">
      <acc value="0.0089819340" flag="0"/>
      <vel value="0.0094960394" flag="0"/>
      <psa03 value="0.0175164190" flag="0"/>
      <psa10 value="0.0158145292" flag="0"/>
      <psa30 value="0.0009017984" flag="0"/>
    </comp>
    <comp name="--.HHN">
      <acc value="0.0080099909" flag="0"/>
      <vel value="0.0089803714" flag="0"/>
      <psa03 value="0.0163152809" flag="0"/>
      <psa10 value="0.0155471431" flag="0"/>
      <psa30 value="0.0008962543" flag="0"/>
    </comp>
    <comp name="--.HHZ">
      <acc value="0.0058917817" flag="0"/>
      <vel value="0.0043500810" flag="0"/>
      <psa03 value="0.0229926559" flag="0"/>
      <psa10 value="0.0049228916" flag="0"/>
      <psa30 value="0.0009693877" flag="0"/>
    </comp>
  </station>
  <station code="CORL" name="CORL" netid="IV" insttype="" commtype="DIG" lat="37.8943" lon="13.3038">
    <comp name="--.HHE">
      <acc value="0.0059873193" flag="0"/>
      <vel value="0.0052413107" flag="0"/>
      <psa03 value="0.0211393530" flag="0"/>
      <psa10 value="0.0071802199" flag="0"/>
      <psa30 value="0.0011078247" flag="0"/>
    </comp>
    <comp name="--.HHN">
      <acc value="0.0052999580" flag="0"/>
      <vel value="0.0058863430" flag="0"/>
      <psa03 value="0.0171577703" flag="0"/>
      <psa10 value="0.0087567933" flag="0"/>
      <psa30 value="0.0006051134" flag="0"/>
    </comp>
    <comp name="--.HHZ">
      <acc value="0.0028917726" flag="0"/>
      <vel value="0.0023444565" flag="0"/>
      <psa03 value="0.0096474165" flag="0"/>
      <psa10 value="0.0045879067" flag="0"/>
      <psa30 value="0.0004841909" flag="0"/>
    </comp>
  </station>
  <station code="CSLB" name="CSLB" netid="IV" insttype="" commtype="DIG" lat="37.9374" lon="14.0579">
    <comp name="--.HHE">
      <acc value="0.0112362393" flag="0"/>
      <vel value="0.0074174876" flag="0"/>
      <psa03 value="0.0434971365" flag="0"/>
      <psa10 value="0.0071109561" flag="0"/>
      <psa30 value="0.0005553965" flag="0"/>
    </comp>
    <comp name="--.HHN">
      <acc value="0.0119391730" flag="0"/>
      <vel value="0.0066153074" flag="0"/>
      <psa03 value="0.0396675165" flag="0"/>
      <psa10 value="0.0086395647" flag="0"/>
      <psa30 value="0.0009297680" flag="0"/>
    </comp>
    <comp name="--.HHZ">
      <acc value="0.0104324467" flag="0"/>
      <vel value="0.0062943747" flag="0"/>
      <psa03 value="0.0286717618" flag="0"/>
      <psa10 value="0.0066064902" flag="0"/>
      <psa30 value="0.0004645439" flag="0"/>
    </comp>
  </station>
  <station code="EBDA" name="EBDA" netid="IV" insttype="" commtype="DIG" lat="37.6335" lon="15.1223">
    <comp name="--.HHE">
      <acc value="0.0223927068" flag="0"/>
      <vel value="0.0128239980" flag="0"/>
      <psa03 value="0.0632945410" flag="0"/>
      <psa10 value="0.0262172044" flag="0"/>
      <psa30 value="0.0016368864" flag="0"/>
    </comp>
    <comp name="--.HHN">
      <acc value="0.0206938483" flag="0"/>
      <vel value="0.0143628372" flag="0"/>
      <psa03 value="0.0632198601" flag="0"/>
      <psa10 value="0.0275856433" flag="0"/>
      <psa30 value="0.0015416530" flag="0"/>
    </comp>
    <comp name="--.HHZ">
      <acc value="0.0090650375" flag="0"/>
      <vel value="0.0056928242" flag="0"/>
      <psa03 value="0.0241037392" flag="0"/>
      <psa10 value="0.0120634580" flag="0"/>
      <psa30 value="0.0009546751" flag="0"/>
    </comp>
  </station>
  <station code="ECBD" name="ECBD" netid="IV" insttype="" commtype="DIG" lat="37.7802" lon="15.0865">
    <comp name="--.HHE">
      <acc value="0.0834696154" flag="0"/>
      <vel value="0.0463857862" flag="0"/>
      <psa03 value="0.1904329859" flag="0"/>
      <psa10 value="0.0506828436" flag="0"/>
      <psa30 value="0.0045095810" flag="0"/>
    </comp>
    <comp name="--.HHN">
      <acc value="0.0848003951" flag="0"/>
      <vel value="0.0464128553" flag="0"/>
      <psa03 value="0.2448975234" flag="0"/>
      <psa10 value="0.0546632350" flag="0"/>
      <psa30 value="0.0058061067" flag="0"/>
    </comp>
    <comp name="--.HHZ">
      <acc value="0.0483128970" flag="0"/>
      <vel value="0.0237368256" flag="0"/>
      <psa03 value="0.1098663895" flag="0"/>
      <psa10 value="0.0297846266" flag="0"/>
      <psa30 value="0.0028014020" flag="0"/>
    </comp>
  </station>
  <station code="ECHR" name="ECHR" netid="IV" insttype="" commtype="DIG" lat="37.6863" lon="14.9129">
    <comp name="--.HHE">
      <acc value="0.0678753104" flag="0"/>
      <vel value="0.0532811126" flag="0"/>
      <psa03 value="0.2003465687" flag="0"/>
      <psa10 value="0.0879861154" flag="0"/>
      <psa30 value="0.0084756870" flag="0"/>
    </comp>
    <comp name="--.HHN">
      <acc value="0.0543851455" flag="0"/>
      <vel value="0.0453510750" flag="0"/>
      <psa03 value="0.1655628388" flag="0"/>
      <psa10 value="0.0734500471" flag="0"/>
      <psa30 value="0.0050541466" flag="0"/>
    </comp>
    <comp name="--.HHZ">
      <acc value="0.0383621510" flag="0"/>
      <vel value="0.0290770234" flag="0"/>
      <psa03 value="0.1369169141" flag="0"/>
      <psa10 value="0.0423622671" flag="0"/>
      <psa30 value="0.0068168277" flag="0"/>
    </comp>
  </station>
  <station code="ECNE" name="ECNE" netid="IV" insttype="" commtype="DIG" lat="37.7653" lon="15.0018">
    <comp name="--.HHE">
      <acc value="0.1191071942" flag="0"/>
      <vel value="0.0813116200" flag="0"/>
      <psa03 value="0.4514032436" flag="0"/>
      <psa10 value="0.1246783296" flag="0"/>
      <psa30 value="0.0105221172" flag="0"/>
    </comp>
    <comp name="--.HHN">
      <acc value="0.0961339924" flag="0"/>
      <vel value="0.0523383112" flag="0"/>
      <psa03 value="0.2256379435" flag="0"/>
      <psa10 value="0.1042413806" flag="0"/>
      <psa30 value="0.0058934941" flag="0"/>
    </comp>
    <comp name="--.HHZ">
      <acc value="0.0845076255" flag="0"/>
      <vel value="0.0363980659" flag="0"/>
      <psa03 value="0.1960120424" flag="0"/>
      <psa10 value="0.0500576700" flag="0"/>
      <psa30 value="0.0030911647" flag="0"/>
    </comp>
  </station>
  <station code="ECPN" name="ECPN" netid="IV" insttype="" commtype="DIG" lat="37.7437" lon="14.9865">
    <comp name="--.HHE">
      <acc value="0.1045441193" flag="0"/>
      <vel value="0.0799427219" flag="0"/>
      <psa03 value="0.2455059263" flag="0"/>
      <psa10 value="0.1627703557" flag="0"/>
      <psa30 value="0.0078851700" flag="0"/>
    </comp>
    <comp name="--.HHN">
      <acc value="0.1386604854" flag="0"/>
      <vel value="0.0997135976" flag="0"/>
      <psa03 value="0.4743432404" flag="0"/>
      <psa10 value="0.1314919021" flag="0"/>
      <psa30 value="0.0110202089" flag="0"/>
    </comp>
    <comp name="--.HHZ">
      <acc value="0.0892917830" flag="0"/>
      <vel value="0.0471534540" flag="0"/>
      <psa03 value="0.2660157959" flag="0"/>
      <psa10 value="0.0496988064" flag="0"/>
      <psa30 value="0.0058142426" flag="0"/>
    </comp>
  </station>
  <station code="ECTS" name="ECTS" netid="IV" insttype="" commtype="DIG" lat="37.882" lon="15.121">
    <comp name="--.HHE">
      <acc value="0.0527306653" flag="0"/>
      <vel value="0.0204997348" flag="0"/>
      <psa03 value="0.1355353990" flag="0"/>
      <psa10 value="0.0203041334" flag="0"/>
      <psa30 value="0.0023062994" flag="0"/>
    </comp>
    <comp name="--.HHN">
      <acc value="0.0484768713" flag="0"/>
      <vel value="0.0225831397" flag="0"/>
      <psa03 value="0.1690245522" flag="0"/>
      <psa10 value="0.0328753284" flag="0"/>
      <psa30 value="0.0019530708" flag="0"/>
    </comp>
    <comp name="--.HHZ">
      <acc value="0.0331099735" flag="0"/>
      <vel value="0.0137373027" flag="0"/>
      <psa03 value="0.0707759895" flag="0"/>
      <psa10 value="0.0182664074" flag="0"/>
      <psa30 value="0.0019812287" flag="0"/>
    </comp>
  </station>
  <station code="EFIU" name="EFIU" netid="IV" insttype="" commtype="DIG" lat="37.7896" lon="15.2103">
    <comp name="--.HHE">
      <acc value="0.0166549219" flag="0"/>
      <vel value="0.0137487714" flag="0"/>
      <psa03 value="0.0381852027" flag="0"/>
      <psa10 value="0.0265458456" flag="0"/>
      <psa30 value="0.0057753567" flag="0"/>
    </comp>
    <comp name="--.HHN">
      <acc value="0.0180608837" flag="0"/>
      <vel value="0.0235065447" flag="0"/>
      <psa03 value="0.0365675374" flag="0"/>
      <psa10 value="0.0467707731" flag="0"/>
      <psa30 value="0.0067604346" flag="0"/>
    </comp>
    <comp name="--.HHZ">
      <acc value="0.0111197084" flag="0"/>
      <vel value="0.0139273477" flag="0"/>
      <psa03 value="0.0386865262" flag="0"/>
      <psa10 value="0.0443696109" flag="0"/>
      <psa30 value="0.0030121292" flag="0"/>
    </comp>
  </station>
  <station code="EMCN" name="EMCN" netid="IV" insttype="" commtype="DIG" lat="37.7912" lon="15.0336">
    <comp name="--.HHZ">
      <acc value="0.1014348153" flag="0"/>
      <vel value="0.0355206852" flag="0"/>
      <psa03 value="0.1996359513" flag="0"/>
      <psa10 value="0.0417400593" flag="0"/>
      <psa30 value="0.0038806729" flag="0"/>
    </comp>
    <comp name="--.HHE">
      <acc value="0.0980979763" flag="0"/>
      <vel value="0.0538820773" flag="0"/>
      <psa03 value="0.2964906666" flag="0"/>
      <psa10 value="0.0849958086" flag="0"/>
      <psa30 value="0.0050453171" flag="0"/>
    </comp>
    <comp name="--.HHN">
      <acc value="0.0986139629" flag="0"/>
      <vel value="0.0417639392" flag="0"/>
      <psa03 value="0.2177429526" flag="0"/>
      <psa10 value="0.0888883072" flag="0"/>
      <psa30 value="0.0047551143" flag="0"/>
    </comp>
  </station>
  <station code="EMFO" name="EMFO" netid="IV" insttype="" commtype="DIG" lat="37.7357" lon="15.0902">
    <comp name="--.HHN">
      <acc value="0.0500750387" flag="0"/>
      <vel value="0.0307326834" flag="0"/>
      <psa03 value="0.1847983296" flag="0"/>
      <psa10 value="0.0505679229" flag="0"/>
      <psa30 value="0.0031809251" flag="0"/>
    </comp>
    <comp name="--.HHE">
      <acc value="0.0495245703" flag="0"/>
      <vel value="0.0321571256" flag="0"/>
      <psa03 value="0.1576184534" flag="0"/>
      <psa10 value="0.0366998869" flag="0"/>
      <psa30 value="0.0036056194" flag="0"/>
    </comp>
    <comp name="--.HHZ">
      <acc value="0.0311284533" flag="0"/>
      <vel value="0.0159078525" flag="0"/>
      <psa03 value="0.0836914956" flag="0"/>
      <psa10 value="0.0183276951" flag="0"/>
      <psa30 value="0.0017070617" flag="0"/>
    </comp>
  </station>
  <station code="EMFS" name="EMFS" netid="IV" insttype="" commtype="DIG" lat="37.7196" lon="14.9979">
    <comp name="--.HHE">
      <acc value="0.1265510450" flag="0"/>
      <vel value="0.0795205933" flag="0"/>
      <psa03 value="0.4211636280" flag="0"/>
      <psa10 value="0.1057045394" flag="0"/>
      <psa30 value="0.0062543650" flag="0"/>
    </comp>
    <comp name="--.HHN">
      <acc value="0.0885169506" flag="0"/>
      <vel value="0.0641217631" flag="0"/>
      <psa03 value="0.3302565851" flag="0"/>
      <psa10 value="0.0823192883" flag="0"/>
      <psa30 value="0.0076892987" flag="0"/>
    </comp>
    <comp name="--.HHZ">
      <acc value="0.0817596920" flag="0"/>
      <vel value="0.0428318873" flag="0"/>
      <psa03 value="0.2417523289" flag="0"/>
      <psa10 value="0.0478971992" flag="0"/>
      <psa30 value="0.0040674826" flag="0"/>
    </comp>
  </station>
  <station code="EMNR" name="EMNR" netid="IV" insttype="" commtype="DIG" lat="37.8168" lon="15.026">
    <comp name="--.HHE">
      <acc value="0.1574806861" flag="0"/>
      <vel value="0.0964841337" flag="0"/>
      <psa03 value="0.3016762407" flag="0"/>
      <psa10 value="0.0788193124" flag="0"/>
      <psa30 value="0.0062669447" flag="0"/>
    </comp>
    <comp name="--.HHZ">
      <acc value="0.1184797237" flag="0"/>
      <vel value="0.0580463336" flag="0"/>
      <psa03 value="0.2162135801" flag="0"/>
      <psa10 value="0.0459608873" flag="0"/>
      <psa30 value="0.0040327673" flag="0"/>
    </comp>
    <comp name="--.HHN">
      <acc value="0.1599469160" flag="0"/>
      <vel value="0.0885477642" flag="0"/>
      <psa03 value="0.4632516729" flag="0"/>
      <psa10 value="0.0866523348" flag="0"/>
      <psa30 value="0.0063054927" flag="0"/>
    </comp>
  </station>
  <station code="EMPL" name="EMPL" netid="IV" insttype="" commtype="DIG" lat="37.679" lon="14.9703">
    <comp name="--.HHE">
      <acc value="0.1177135904" flag="0"/>
      <vel value="0.0640312473" flag="0"/>
      <psa03 value="0.3218512499" flag="0"/>
      <psa10 value="0.0912207113" flag="0"/>
      <psa30 value="0.0050204043" flag="0"/>
    </comp>
    <comp name="--.HHN">
      <acc value="0.1158434030" flag="0"/>
      <vel value="0.0614038315" flag="0"/>
      <psa03 value="0.5389229485" flag="0"/>
      <psa10 value="0.0994386041" flag="0"/>
      <psa30 value="0.0051909451" flag="0"/>
    </comp>
    <comp name="--.HHZ">
      <acc value="0.0857035224" flag="0"/>
      <vel value="0.0322500213" flag="0"/>
      <psa03 value="0.2188983804" flag="0"/>
      <psa10 value="0.0403621757" flag="0"/>
      <psa30 value="0.0031928241" flag="0"/>
    </comp>
  </station>
  <station code="EMSG" name="EMSG" netid="IV" insttype="" commtype="DIG" lat="37.8208" lon="14.9498">
    <comp name="--.HHE">
      <acc value="0.1521006253" flag="0"/>
      <vel value="0.0744269386" flag="0"/>
      <psa03 value="0.4388633384" flag="0"/>
      <psa10 value="0.1003845545" flag="0"/>
      <psa30 value="0.0081822394" flag="0"/>
    </comp>
    <comp name="--.HHN">
      <acc value="0.2161949967" flag="0"/>
      <vel value="0.1042996076" flag="0"/>
      <psa03 value="0.4690378282" flag="0"/>
      <psa10 value="0.1038725164" flag="0"/>
      <psa30 value="0.0066942421" flag="0"/>
    </comp>
    <comp name="--.HHZ">
      <acc value="0.1100204452" flag="0"/>
      <vel value="0.0626066117" flag="0"/>
      <psa03 value="0.3705007801" flag="0"/>
      <psa10 value="0.0623549125" flag="0"/>
      <psa30 value="0.0041005382" flag="0"/>
    </comp>
  </station>
  <station code="ENIC" name="ENIC" netid="IV" insttype="" commtype="DIG" lat="37.6314" lon="15.0216">
    <comp name="--.HHE">
      <acc value="0.0439983418" flag="0"/>
      <vel value="0.0287501803" flag="0"/>
      <psa03 value="0.1242637430" flag="0"/>
      <psa10 value="0.0541089215" flag="0"/>
      <psa30 value="0.0046378392" flag="0"/>
    </comp>
    <comp name="--.HHZ">
      <acc value="0.0165545427" flag="0"/>
      <vel value="0.0106174090" flag="0"/>
      <psa03 value="0.0650925020" flag="0"/>
      <psa10 value="0.0206567451" flag="0"/>
      <psa30 value="0.0015140962" flag="0"/>
    </comp>
    <comp name="--.HHN">
      <acc value="0.0438128623" flag="0"/>
      <vel value="0.0321673101" flag="0"/>
      <psa03 value="0.1227944395" flag="0"/>
      <psa10 value="0.0591288777" flag="0"/>
      <psa30 value="0.0034831728" flag="0"/>
    </comp>
  </station>
  <station code="EPDN" name="EPDN" netid="IV" insttype="" commtype="DIG" lat="37.7659" lon="15.0168">
    <comp name="--.HHE">
      <acc value="0.0827759506" flag="0"/>
      <vel value="0.0874037986" flag="0"/>
      <psa03 value="0.3464420221" flag="0"/>
      <psa10 value="0.1534632025" flag="0"/>
      <psa30 value="0.0120688068" flag="0"/>
    </comp>
    <comp name="--.HHN">
      <acc value="0.0724244939" flag="0"/>
      <vel value="0.0569575175" flag="0"/>
      <psa03 value="0.2386207845" flag="0"/>
      <psa10 value="0.0983404961" flag="0"/>
      <psa30 value="0.0071774913" flag="0"/>
    </comp>
    <comp name="--.HHZ">
      <acc value="0.0614802463" flag="0"/>
      <vel value="0.0346778453" flag="0"/>
      <psa03 value="0.2000593876" flag="0"/>
      <psa10 value="0.0745957335" flag="0"/>
      <psa30 value="0.0034808326" flag="0"/>
    </comp>
  </station>
  <station code="EPIT" name="EPIT" netid="IV" insttype="" commtype="DIG" lat="37.8113" lon="15.0567">
    <comp name="--.HHN">
      <acc value="0.1069926447" flag="0"/>
      <vel value="0.0588259361" flag="0"/>
      <psa03 value="0.5193008026" flag="0"/>
      <psa10 value="0.0587579475" flag="0"/>
      <psa30 value="0.0037746743" flag="0"/>
    </comp>
  </station>
  <station code="EPMN" name="EPMN" netid="IV" insttype="" commtype="DIG" lat="37.8204" lon="15.1773">
    <comp name="--.HHE">
      <acc value="0.0554753756" flag="0"/>
      <vel value="0.0229302009" flag="0"/>
      <psa03 value="0.1016149423" flag="0"/>
      <psa10 value="0.0142461434" flag="0"/>
      <psa30 value="0.0012542131" flag="0"/>
    </comp>
    <comp name="--.HHN">
      <acc value="0.0408772733" flag="0"/>
      <vel value="0.0199045714" flag="0"/>
      <psa03 value="0.1401318770" flag="0"/>
      <psa10 value="0.0198841716" flag="0"/>
      <psa30 value="0.0020562511" flag="0"/>
    </comp>
    <comp name="--.HHZ">
      <acc value="0.0199615122" flag="0"/>
      <vel value="0.0117171169" flag="0"/>
      <psa03 value="0.0619365204" flag="0"/>
