<stationlist created="1768874407">
	<station code="SPAOL" name="SPAOL" netid="7C" source="Urban Seismic Network (RUSN-CAL-INGV)" insttype="" lat="37.54939" lon="15.071367">
		<comp name="--.HNE" depth="0.0">
			<acc value="0.092578788520038" flag="0"/>
			<vel value="0.221346563677" flag="0"/>
			<psa03 value="0.0565731226919411" flag="0"/>
			<psa10 value="0.0558416792371362" flag="0"/>
			<psa30 value="0.0412749875986957" flag="0"/>
		</comp>
		<comp name="--.HNN" depth="0.0">
			<acc value="0.062814085203684" flag="0"/>
			<vel value="0.211773702474" flag="0"/>
			<psa03 value="0.0607327784567719" flag="0"/>
			<psa10 value="0.0661630754788577" flag="0"/>
			<psa30 value="0.0405840418269403" flag="0"/>
		</comp>
		<comp name="--.HNZ" depth="0.0">
			<acc value="0.12777099780036" flag="0"/>
			<vel value="0.872929586966" flag="0"/>
			<psa03 value="0.156819003072871" flag="0"/>
			<psa10 value="0.206373066202817" flag="0"/>
			<psa30 value="0.168216583522955" flag="0"/>
		</comp>
	</station>
	<station code="BCL" name="BCL" netid="IT" source="Italian Strong Motion Network (RAN)" insttype="" lat="38.1827" lon="15.2316">
		<comp name="--.HGE" depth="0.0">
			<acc value="0.071602322082048" flag="0"/>
			<vel value="0.0387261533495" flag="0"/>
			<psa03 value="0.167915342317288" flag="0"/>
			<psa10 value="0.0179153586795974" flag="0"/>
			<psa30 value="0.00500184926462143" flag="0"/>
		</comp>
		<comp name="--.HGN" depth="0.0">
			<acc value="0.053768632498026" flag="0"/>
			<vel value="0.024927570524" flag="0"/>
			<psa03 value="0.136027875762486" flag="0"/>
			<psa10 value="0.0206107447356841" flag="0"/>
			<psa30 value="0.00453295778620656" flag="0"/>
		</comp>
		<comp name="--.HGZ" depth="0.0">
			<acc value="0.058730688098988" flag="0"/>
			<vel value="0.0162244963773" flag="0"/>
			<psa03 value="0.0739731659841514" flag="0"/>
			<psa10 value="0.0133670808160009" flag="0"/>
			<psa30 value="0.00238479589769017" flag="0"/>
		</comp>
	</station>
	<station code="BNT" name="BNT" netid="IT" source="Italian Strong Motion Network (RAN)" insttype="" lat="37.7805" lon="14.8444">
		<comp name="--.HNE" depth="0.0">
			<acc value="0.20638211393436" flag="0"/>
			<vel value="0.107600605722" flag="0"/>
			<psa03 value="0.702899563647821" flag="0"/>
			<psa10 value="0.118654005245415" flag="0"/>
			<psa30 value="0.00930693987241938" flag="0"/>
		</comp>
		<comp name="--.HNN" depth="0.0">
			<acc value="0.19688156912196" flag="0"/>
			<vel value="0.152721451612" flag="0"/>
			<psa03 value="0.847917587045845" flag="0"/>
			<psa10 value="0.145220360136295" flag="0"/>
			<psa30 value="0.0101285684679347" flag="0"/>
		</comp>
		<comp name="--.HNZ" depth="0.0">
			<acc value="0.15924634633206" flag="0"/>
			<vel value="0.0755696485142" flag="0"/>
			<psa03 value="0.310862530616879" flag="0"/>
			<psa10 value="0.109863055388175" flag="0"/>
			<psa30 value="0.00805064081544563" flag="0"/>
		</comp>
	</station>
	<station code="CDI1" name="CDI1" netid="IT" source="Italian Strong Motion Network (RAN)" insttype="" lat="37.5032" lon="14.6473">
		<comp name="--.HNE" depth="0.0">
			<acc value="0.013748556256542" flag="0"/>
			<vel value="0.0110208083107" flag="0"/>
			<psa03 value="0.0258220439170006" flag="0"/>
			<psa10 value="0.0109293518284048" flag="0"/>
			<psa30 value="0.00324773535486247" flag="0"/>
		</comp>
		<comp name="--.HNN" depth="0.0">
			<acc value="0.014961434578524" flag="0"/>
			<vel value="0.0116345289569" flag="0"/>
			<psa03 value="0.0266500232457526" flag="0"/>
			<psa10 value="0.0147651546815179" flag="0"/>
			<psa30 value="0.00587862859697234" flag="0"/>
		</comp>
		<comp name="--.HNZ" depth="0.0">
			<acc value="0.0059781510467148" flag="0"/>
			<vel value="0.00666531092429" flag="0"/>
			<psa03 value="0.0154194381287742" flag="0"/>
			<psa10 value="0.00794843591987294" flag="0"/>
			<psa30 value="0.00250013895526993" flag="0"/>
		</comp>
	</station>
	<station code="GNGI" name="GNGI" netid="IT" source="Italian Strong Motion Network (RAN)" insttype="" lat="37.7949" lon="14.2003">
		<comp name="--.HNE" depth="0.0">
			<acc value="0.060667916656464" flag="0"/>
			<vel value="0.0256805858473" flag="0"/>
			<psa03 value="0.207404947893117" flag="0"/>
			<psa10 value="0.0208111861389564" flag="0"/>
			<psa30 value="0.00342800938046377" flag="0"/>
		</comp>
		<comp name="--.HNN" depth="0.0">
			<acc value="0.080467001018292" flag="0"/>
			<vel value="0.0375839909296" flag="0"/>
			<psa03 value="0.333281744946522" flag="0"/>
			<psa10 value="0.0324635905535502" flag="0"/>
			<psa30 value="0.00278596059788569" flag="0"/>
		</comp>
		<comp name="--.HNZ" depth="0.0">
			<acc value="0.026896621390956" flag="0"/>
			<vel value="0.0145417814086" flag="0"/>
			<psa03 value="0.0901210117414954" flag="0"/>
			<psa10 value="0.0116661650136783" flag="0"/>
			<psa30 value="0.00183385315043805" flag="0"/>
		</comp>
	</station>
	<station code="GSM" name="GSM" netid="IT" source="Italian Strong Motion Network (RAN)" insttype="" lat="38.172" lon="14.8985">
		<comp name="--.HNE" depth="0.0">
			<acc value="0.060340329243354" flag="0"/>
			<vel value="0.022882492236" flag="0"/>
			<psa03 value="0.0923612851486563" flag="0"/>
			<psa10 value="0.0188529339143437" flag="0"/>
			<psa30 value="0.00235763222323243" flag="0"/>
		</comp>
		<comp name="--.HNN" depth="0.0">
			<acc value="0.054555255673152" flag="0"/>
			<vel value="0.0230340911515" flag="0"/>
			<psa03 value="0.0789912900767675" flag="0"/>
			<psa10 value="0.0213528888991096" flag="0"/>
			<psa30 value="0.00221148024971234" flag="0"/>
		</comp>
		<comp name="--.HNZ" depth="0.0">
			<acc value="0.04386499815912" flag="0"/>
			<vel value="0.0183450027494" flag="0"/>
			<psa03 value="0.0619517810845737" flag="0"/>
			<psa10 value="0.0138724905469023" flag="0"/>
			<psa30 value="0.00282321556584176" flag="0"/>
		</comp>
	</station>
	<station code="MST" name="MST" netid="IT" source="Italian Strong Motion Network (RAN)" insttype="" lat="37.9261" lon="14.3635">
		<comp name="--.HGE" depth="0.0">
			<acc value="0.10148033010573" flag="0"/>
			<vel value="0.0425176064025" flag="0"/>
			<psa03 value="0.270340721246237" flag="0"/>
			<psa10 value="0.0717813526625022" flag="0"/>
			<psa30 value="0.00332961932093831" flag="0"/>
		</comp>
		<comp name="--.HGN" depth="0.0">
			<acc value="0.079810843978278" flag="0"/>
			<vel value="0.041035574068" flag="0"/>
			<psa03 value="0.171920472220657" flag="0"/>
			<psa10 value="0.0487699295183756" flag="0"/>
			<psa30 value="0.00260550947721678" flag="0"/>
		</comp>
		<comp name="--.HGZ" depth="0.0">
			<acc value="0.06081007957803" flag="0"/>
			<vel value="0.0255814484279" flag="0"/>
			<psa03 value="0.148077153134876" flag="0"/>
			<psa10 value="0.0379977871669187" flag="0"/>
			<psa30 value="0.00200575099616017" flag="0"/>
		</comp>
	</station>
	<station code="NCS" name="NCS" netid="IT" source="Italian Strong Motion Network (RAN)" insttype="" lat="37.7492" lon="14.4013">
		<comp name="--.HGE" depth="0.0">
			<acc value="0.068318431179552" flag="0"/>
			<vel value="0.0370758430245" flag="0"/>
			<psa03 value="0.163663810674094" flag="0"/>
			<psa10 value="0.0860423923863554" flag="0"/>
			<psa30 value="0.00919768096791088" flag="0"/>
		</comp>
		<comp name="--.HGN" depth="0.0">
			<acc value="0.062509222771842" flag="0"/>
			<vel value="0.0432375924519" flag="0"/>
			<psa03 value="0.168941712392781" flag="0"/>
			<psa10 value="0.0622141276307908" flag="0"/>
			<psa30 value="0.00779484553694571" flag="0"/>
		</comp>
		<comp name="--.HGZ" depth="0.0">
			<acc value="0.044466841132026" flag="0"/>
			<vel value="0.0421587277491" flag="0"/>
			<psa03 value="0.103551276430554" flag="0"/>
			<psa10 value="0.0754275242033727" flag="0"/>
			<psa30 value="0.0106829735278981" flag="0"/>
		</comp>
	</station>
	<station code="NSA" name="NSA" netid="IT" source="Italian Strong Motion Network (RAN)" insttype="" lat="37.7667" lon="14.411">
		<comp name="--.HNE" depth="0.0">
			<acc value="0.07077896346963" flag="0"/>
			<vel value="0.0517201627924" flag="0"/>
			<psa03 value="0.237440229249756" flag="0"/>
			<psa10 value="0.0701786539913495" flag="0"/>
			<psa30 value="0.00438213862851154" flag="0"/>
		</comp>
		<comp name="--.HNN" depth="0.0">
			<acc value="0.093102180052914" flag="0"/>
			<vel value="0.0623308813878" flag="0"/>
			<psa03 value="0.238833592386502" flag="0"/>
			<psa10 value="0.136412241641502" flag="0"/>
			<psa30 value="0.00628521386455949" flag="0"/>
		</comp>
		<comp name="--.HNZ" depth="0.0">
			<acc value="0.05141350345437" flag="0"/>
			<vel value="0.0347305582288" flag="0"/>
			<psa03 value="0.12883343041583" flag="0"/>
			<psa10 value="0.0559598083126971" flag="0"/>
			<psa30 value="0.00754043201662146" flag="0"/>
		</comp>
	</station>
	<station code="PTR" name="PTR" netid="IT" source="Italian Strong Motion Network (RAN)" insttype="" lat="37.562" lon="14.9077">
		<comp name="--.HGE" depth="0.0">
			<acc value="0.018772797029706" flag="0"/>
			<vel value="0.0230453528836" flag="0"/>
			<psa03 value="0.0521873790327479" flag="0"/>
			<psa10 value="0.0445805832450042" flag="0"/>
			<psa30 value="0.00792739515102254" flag="0"/>
		</comp>
		<comp name="--.HGN" depth="0.0">
			<acc value="0.024112853300406" flag="0"/>
			<vel value="0.0254712916757" flag="0"/>
			<psa03 value="0.0522953913964272" flag="0"/>
			<psa10 value="0.0351220029103234" flag="0"/>
			<psa30 value="0.00720080285117857" flag="0"/>
		</comp>
		<comp name="--.HGZ" depth="0.0">
			<acc value="0.012956203572912" flag="0"/>
			<vel value="0.0216739757216" flag="0"/>
			<psa03 value="0.0245774927216225" flag="0"/>
			<psa10 value="0.0483407960906663" flag="0"/>
			<psa30 value="0.00773734506111729" flag="0"/>
		</comp>
	</station>
	<station code="PTT" name="PTT" netid="IT" source="Italian Strong Motion Network (RAN)" insttype="" lat="38.1343" lon="14.9751">
		<comp name="--.HGE" depth="0.0">
			<acc value="0.24403581299712" flag="0"/>
			<vel value="0.104532199939" flag="0"/>
			<psa03 value="0.486059990756839" flag="0"/>
			<psa10 value="0.0977150031392701" flag="0"/>
			<psa30 value="0.00788128626318893" flag="0"/>
		</comp>
		<comp name="--.HGN" depth="0.0">
			<acc value="0.26598454296948" flag="0"/>
			<vel value="0.104948340359" flag="0"/>
			<psa03 value="0.449487734690949" flag="0"/>
			<psa10 value="0.129749685280039" flag="0"/>
			<psa30 value="0.00785160263013858" flag="0"/>
		</comp>
		<comp name="--.HGZ" depth="0.0">
			<acc value="0.20348254430796" flag="0"/>
			<vel value="0.0604511653575" flag="0"/>
			<psa03 value="0.426601635264776" flag="0"/>
			<psa10 value="0.0661023439559876" flag="0"/>
			<psa30 value="0.00362164283273112" flag="0"/>
		</comp>
	</station>
	<station code="SMCV" name="SMCV" netid="IT" source="Italian Strong Motion Network (RAN)" insttype="" lat="37.9092" lon="14.1951">
		<comp name="--.HNE" depth="0.0">
			<acc value="0.083346645165522" flag="0"/>
			<vel value="0.0368830599093" flag="0"/>
			<psa03 value="0.212181680994977" flag="0"/>
			<psa10 value="0.0262749024583355" flag="0"/>
			<psa30 value="0.00247214230896373" flag="0"/>
		</comp>
		<comp name="--.HNN" depth="0.0">
			<acc value="0.092397996991098" flag="0"/>
			<vel value="0.0469750206788" flag="0"/>
			<psa03 value="0.307353902354433" flag="0"/>
			<psa10 value="0.0433082964619614" flag="0"/>
			<psa30 value="0.00294995000304292" flag="0"/>
		</comp>
		<comp name="--.HNZ" depth="0.0">
			<acc value="0.049418976539796" flag="0"/>
			<vel value="0.021470180758" flag="0"/>
			<psa03 value="0.207059591681559" flag="0"/>
			<psa10 value="0.015726203658804" flag="0"/>
			<psa30 value="0.00135612837851766" flag="0"/>
		</comp>
	</station>
	<station code="STC" name="STC" netid="IT" source="Italian Strong Motion Network (RAN)" insttype="" lat="38.0063" lon="14.353">
		<comp name="--.HNE" depth="0.0">
			<acc value="0.52491547479816" flag="0"/>
			<vel value="0.14243558026" flag="0"/>
			<psa03 value="0.979527888914722" flag="0"/>
			<psa10 value="0.0448714675143475" flag="0"/>
			<psa30 value="0.00276403789561117" flag="0"/>
		</comp>
		<comp name="--.HNN" depth="0.0">
			<acc value="0.45776826978108" flag="0"/>
			<vel value="0.115294838225" flag="0"/>
			<psa03 value="0.529550080092103" flag="0"/>
			<psa10 value="0.104769617973104" flag="0"/>
			<psa30 value="0.00633444962619985" flag="0"/>
		</comp>
		<comp name="--.HNZ" depth="0.0">
			<acc value="0.14805884712246" flag="0"/>
			<vel value="0.0517794513398" flag="0"/>
			<psa03 value="0.3606888521998" flag="0"/>
			<psa10 value="0.0246606398963686" flag="0"/>
			<psa30 value="0.00389781821132524" flag="0"/>
		</comp>
	</station>
	<station code="SVN" name="SVN" netid="IT" source="Italian Strong Motion Network (RAN)" insttype="" lat="37.683" lon="15.1299">
		<comp name="--.HNE" depth="0.0">
			<acc value="0.047029775026806" flag="0"/>
			<vel value="0.0217458075166" flag="0"/>
			<psa03 value="0.0774322909676349" flag="0"/>
			<psa10 value="0.0294856814066846" flag="0"/>
			<psa30 value="0.00233639456634209" flag="0"/>
		</comp>
		<comp name="--.HNN" depth="0.0">
			<acc value="0.041578750717512" flag="0"/>
			<vel value="0.0182155817753" flag="0"/>
			<psa03 value="0.0894547488546777" flag="0"/>
			<psa10 value="0.0342958419311927" flag="0"/>
			<psa30 value="0.00188572721183887" flag="0"/>
		</comp>
		<comp name="--.HNZ" depth="0.0">
			<acc value="0.023482440996846" flag="0"/>
			<vel value="0.010276122033" flag="0"/>
			<psa03 value="0.0586956330891528" flag="0"/>
			<psa10 value="0.0156302076120494" flag="0"/>
			<psa30 value="0.00115160951764421" flag="0"/>
		</comp>
	</station>
	<station code="TOR" name="TOR" netid="IT" source="Italian Strong Motion Network (RAN)" insttype="" lat="38.0443" lon="14.8146">
		<comp name="--.HNE" depth="0.0">
			<acc value="0.83272514448144" flag="0"/>
			<vel value="0.23384504497" flag="0"/>
			<psa03 value="0.901993669321732" flag="0"/>
			<psa10 value="0.056581779515016" flag="0"/>
			<psa30 value="0.00632870882923825" flag="0"/>
		</comp>
		<comp name="--.HNN" depth="0.0">
			<acc value="1.1718899684148" flag="0"/>
			<vel value="0.24902576028" flag="0"/>
			<psa03 value="0.684042731141031" flag="0"/>
			<psa10 value="0.0801643879971692" flag="0"/>
			<psa30 value="0.0089314424975851" flag="0"/>
		</comp>
		<comp name="--.HNZ" depth="0.0">
			<acc value="0.50568242371344" flag="0"/>
			<vel value="0.121783056975" flag="0"/>
			<psa03 value="0.275935571043923" flag="0"/>
			<psa10 value="0.0424166898975011" flag="0"/>
			<psa30 value="0.00353340532076246" flag="0"/>
		</comp>
	</station>
	<station code="VULS" name="VULS" netid="IT" source="Italian Strong Motion Network (RAN)" insttype="" lat="38.3823" lon="14.983">
		<comp name="--.HNE" depth="0.0">
			<acc value="0.093933973256064" flag="0"/>
			<vel value="0.0360156251384" flag="0"/>
			<psa03 value="0.14544565589405" flag="0"/>
			<psa10 value="0.0386578946458153" flag="0"/>
			<psa30 value="0.00181384536668788" flag="0"/>
		</comp>
		<comp name="--.HNN" depth="0.0">
			<acc value="0.08883517232553" flag="0"/>
			<vel value="0.0279834401009" flag="0"/>
			<psa03 value="0.118013609489163" flag="0"/>
			<psa10 value="0.0158272278511811" flag="0"/>
			<psa30 value="0.00179998048987293" flag="0"/>
		</comp>
		<comp name="--.HNZ" depth="0.0">
			<acc value="0.047144534277084" flag="0"/>
			<vel value="0.0168658461271" flag="0"/>
			<psa03 value="0.0930109531859383" flag="0"/>
			<psa10 value="0.0125640944971186" flag="0"/>
			<psa30 value="0.000843874235860574" flag="0"/>
		</comp>
	</station>
	<station code="ACATE" name="ACATE" netid="IV" source="Italian National Seismic Network (INSN)" insttype="" lat="37.02398" lon="14.50064">
		<comp name="--.HNE" depth="0.0">
			<acc value="0.01789975709583" flag="0"/>
			<vel value="0.0157629178701" flag="0"/>
			<psa03 value="0.0300021645794899" flag="0"/>
			<psa10 value="0.0165321939267143" flag="0"/>
			<psa30 value="0.00174999217839315" flag="0"/>
		</comp>
		<comp name="--.HNN" depth="0.0">
			<acc value="0.0099942848616054" flag="0"/>
			<vel value="0.0108255650068" flag="0"/>
			<psa03 value="0.0251476633051054" flag="0"/>
			<psa10 value="0.012734686735498" flag="0"/>
			<psa30 value="0.00167327782561155" flag="0"/>
		</comp>
		<comp name="--.HNZ" depth="0.0">
			<acc value="0.007379036146821" flag="0"/>
			<vel value="0.00475634401683" flag="0"/>
			<psa03 value="0.0174113630527668" flag="0"/>
			<psa10 value="0.0100454717131857" flag="0"/>
			<psa30 value="0.00069809890187785" flag="0"/>
		</comp>
	</station>
	<station code="BRICA" name="BRICA" netid="IV" source="Italian National Seismic Network (INSN)" insttype="" lat="38.72384" lon="16.02905">
		<comp name="--.HNE" depth="0.0">
			<acc value="0.024723210629064" flag="0"/>
			<vel value="0.00209676262048" flag="0"/>
			<psa03 value="0.00896993080245297" flag="0"/>
			<psa10 value="0.00189223179638378" flag="0"/>
			<psa30 value="0.000192932546459511" flag="0"/>
		</comp>
		<comp name="--.HNN" depth="0.0">
			<acc value="0.0069949060354326" flag="0"/>
			<vel value="0.00179748986961" flag="0"/>
			<psa03 value="0.00672838908214453" flag="0"/>
			<psa10 value="0.00176394775131994" flag="0"/>
			<psa30 value="0.000246752309671161" flag="0"/>
		</comp>
		<comp name="--.HNZ" depth="0.0">
			<acc value="0.0092248883277696" flag="0"/>
			<vel value="0.00120384822757" flag="0"/>
			<psa03 value="0.00374311808039141" flag="0"/>
			<psa10 value="0.0014876459711188" flag="0"/>
			<psa30 value="0.000242778114108423" flag="0"/>
		</comp>
	</station>
	<station code="CAR1" name="CAR1" netid="IV" source="Italian National Seismic Network (INSN)" insttype="" lat="39.2534" lon="16.2114">
		<comp name="--.HNE" depth="0.0">
			<acc value="0.0041279729557308" flag="0"/>
			<vel value="0.00328219976748" flag="0"/>
			<psa03 value="0.0116015966738366" flag="0"/>
			<psa10 value="0.00349382824585053" flag="0"/>
			<psa30 value="0.000209841492114782" flag="0"/>
		</comp>
		<comp name="--.HNN" depth="0.0">
			<acc value="0.002940986954268" flag="0"/>
			<vel value="0.00216585188336" flag="0"/>
			<psa03 value="0.0111673309267106" flag="0"/>
			<psa10 value="0.00361597641569031" flag="0"/>
			<psa30 value="0.000225302607483474" flag="0"/>
		</comp>
		<comp name="--.HNZ" depth="0.0">
			<acc value="0.0024606691309626" flag="0"/>
			<vel value="0.00153445350844" flag="0"/>
			<psa03 value="0.00655067548655566" flag="0"/>
			<psa10 value="0.00128751243981766" flag="0"/>
			<psa30 value="0.000192915110408617" flag="0"/>
		</comp>
	</station>
	<station code="CAVT" name="CAVT" netid="IV" source="Italian National Seismic Network (INSN)" insttype="" lat="37.67883" lon="12.7556">
		<comp name="--.HNE" depth="0.0">
			<acc value="0.0020379434210322" flag="0"/>
			<vel value="0.00282075728269" flag="0"/>
			<psa03 value="0.00427884399928904" flag="0"/>
			<psa10 value="0.00457938992462183" flag="0"/>
			<psa30 value="0.000798969959086424" flag="0"/>
		</comp>
		<comp name="--.HNN" depth="0.0">
			<acc value="0.0021315056003886" flag="0"/>
			<vel value="0.00321268836937" flag="0"/>
			<psa03 value="0.00402896904786371" flag="0"/>
			<psa10 value="0.00523246146865332" flag="0"/>
			<psa30 value="0.000944954994462771" flag="0"/>
		</comp>
		<comp name="--.HNZ" depth="0.0">
			<acc value="0.001308949581009" flag="0"/>
			<vel value="0.00193871861322" flag="0"/>
			<psa03 value="0.00419125779348796" flag="0"/>
			<psa10 value="0.00441212743802808" flag="0"/>
			<psa30 value="0.000668770656939757" flag="0"/>
		</comp>
	</station>
	<station code="CELI" name="CELI" netid="IV" source="Italian National Seismic Network (INSN)" insttype="" lat="39.4027" lon="16.5088">
		<comp name="--.HNE" depth="0.0">
			<acc value="0.00059804631814806" flag="0"/>
			<vel value="0.000719797714081" flag="0"/>
			<psa03 value="0.00164418753263638" flag="0"/>
			<psa10 value="0.000727770515913355" flag="0"/>
			<psa30 value="0.000144404396811733" flag="0"/>
		</comp>
		<comp name="--.HNN" depth="0.0">
