<stationlist xmlns:esm="https://esm-db.eu/esmws/shakemap/1/" created="1781661255">
	<station code="ART2" name="ART2" netid="HI" source="ITSAK Strong Motion Network" insttype="" lat="39.1474" lon="20.9937" esm:processing="manual (Paolucci et al 2011)" esm:quality="bad">
		<comp name="--.HNE" depth="0.0">
			<acc value="0.00296466071076407" flag="0"/>
			<vel value="0.00155324768229144" flag="0"/>
			<psa03 value="0.00432731140272432" flag="0"/>
			<psa10 value="0.00199990670275305" flag="0"/>
			<psa30 value="0.000389054262518823" flag="0"/>
		</comp>
		<comp name="--.HNN" depth="0.0">
			<acc value="0.00298198920645287" flag="0"/>
			<vel value="0.0014788761530185" flag="0"/>
			<psa03 value="0.00311072136950315" flag="0"/>
			<psa10 value="0.00249523201562384" flag="0"/>
			<psa30 value="0.000294698975486008" flag="0"/>
		</comp>
		<comp name="--.HNZ" depth="0.0">
			<acc value="0.00191138733122054" flag="0"/>
			<vel value="0.00147780290524808" flag="0"/>
			<psa03 value="0.00309603029212528" flag="0"/>
			<psa10 value="0.00223932373483241" flag="0"/>
			<psa30 value="0.000306140931376079" flag="0"/>
		</comp>
	</station>
	<station code="KRI1" name="KRI1" netid="HI" source="ITSAK Strong Motion Network" insttype="" lat="37.6621" lon="20.8172" esm:processing="manual (Paolucci et al 2011)" esm:quality="good">
		<comp name="--.HNE" depth="0.0">
			<acc value="0.910881776894976" flag="0"/>
			<vel value="0.276919302936748" flag="0"/>
			<psa03 value="0.865851182476795" flag="0"/>
			<psa10 value="0.0581187841309365" flag="0"/>
			<psa30 value="0.00660394969685691" flag="0"/>
		</comp>
		<comp name="--.HNN" depth="0.0">
			<acc value="0.493993118128016" flag="0"/>
			<vel value="0.232987475188349" flag="0"/>
			<psa03 value="0.759991121617964" flag="0"/>
			<psa10 value="0.20284997925559" flag="0"/>
			<psa30 value="0.0160892974999305" flag="0"/>
		</comp>
		<comp name="--.HNZ" depth="0.0">
			<acc value="0.33708308801878" flag="0"/>
			<vel value="0.120341440605121" flag="0"/>
			<psa03 value="0.372120932444166" flag="0"/>
			<psa10 value="0.0379364695695664" flag="0"/>
			<psa30 value="0.00287155482076068" flag="0"/>
		</comp>
	</station>
	<station code="MSL1" name="MSL1" netid="HI" source="ITSAK Strong Motion Network" insttype="" lat="38.3727" lon="21.4243" esm:processing="manual (Paolucci et al 2011)" esm:quality="good">
		<comp name="--.HNE" depth="0.0">
			<acc value="0.0318123297257662" flag="0"/>
			<vel value="0.0294537646465939" flag="0"/>
			<psa03 value="0.0647419729766392" flag="0"/>
			<psa10 value="0.0506249119444421" flag="0"/>
			<psa30 value="0.00373328972022859" flag="0"/>
		</comp>
		<comp name="--.HNN" depth="0.0">
			<acc value="0.0257650409238973" flag="0"/>
			<vel value="0.0173427511182646" flag="0"/>
			<psa03 value="0.0471582857756584" flag="0"/>
			<psa10 value="0.0289083871181316" flag="0"/>
			<psa30 value="0.00214180943081667" flag="0"/>
		</comp>
		<comp name="--.HNZ" depth="0.0">
			<acc value="0.0157662818840719" flag="0"/>
			<vel value="0.00973332110646672" flag="0"/>
			<psa03 value="0.0221921344826628" flag="0"/>
			<psa10 value="0.026411771988832" flag="0"/>
			<psa30 value="0.00133868682201869" flag="0"/>
		</comp>
	</station>
	<station code="PYL1" name="PYL1" netid="HI" source="ITSAK Strong Motion Network" insttype="" lat="36.914188" lon="21.695161" esm:processing="manual (Paolucci et al 2011)" esm:quality="good">
		<comp name="--.HNE" depth="0.0">
			<acc value="0.00527121578666975" flag="0"/>
			<vel value="0.00355369141392713" flag="0"/>
			<psa03 value="0.0177717554165891" flag="0"/>
			<psa10 value="0.00489657984314002" flag="0"/>
			<psa30 value="0.000573833169881484" flag="0"/>
		</comp>
		<comp name="--.HNN" depth="0.0">
			<acc value="0.00432189940363787" flag="0"/>
			<vel value="0.00253281500636852" flag="0"/>
			<psa03 value="0.00957297465738417" flag="0"/>
			<psa10 value="0.00405617260776601" flag="0"/>
			<psa30 value="0.000309834587520837" flag="0"/>
		</comp>
		<comp name="--.HNZ" depth="0.0">
			<acc value="0.00336300038471863" flag="0"/>
			<vel value="0.00195625392725872" flag="0"/>
			<psa03 value="0.00656560030338638" flag="0"/>
			<psa10 value="0.00278716635484362" flag="0"/>
			<psa30 value="0.00050995800096657" flag="0"/>
		</comp>
	</station>
	<station code="ITM" name="ITM" netid="HL" source="National Observatory of Athens Seismic Network" insttype="" lat="37.17872" lon="21.92522" esm:processing="manual (Paolucci et al 2011)" esm:quality="best">
		<comp name="--.HNE" depth="0.0">
			<acc value="0.00820358829140871" flag="0"/>
			<vel value="0.00395838872203887" flag="0"/>
			<psa03 value="0.014928155583704" flag="0"/>
			<psa10 value="0.00408049250008525" flag="0"/>
			<psa30 value="0.000658785203784392" flag="0"/>
		</comp>
		<comp name="--.HNN" depth="0.0">
			<acc value="0.00920434612919798" flag="0"/>
			<vel value="0.00460549826178812" flag="0"/>
			<psa03 value="0.0176400878400828" flag="0"/>
			<psa10 value="0.00456408141050621" flag="0"/>
			<psa30 value="0.000512647033266355" flag="0"/>
		</comp>
		<comp name="--.HNZ" depth="0.0">
			<acc value="0.00876909019478502" flag="0"/>
			<vel value="0.00449042878113749" flag="0"/>
			<psa03 value="0.00946027838972073" flag="0"/>
			<psa10 value="0.00431829856607688" flag="0"/>
			<psa30 value="0.000886942713933273" flag="0"/>
		</comp>
	</station>
	<station code="LXRA" name="LXRA" netid="HL" source="National Observatory of Athens Seismic Network" insttype="" lat="38.20006" lon="20.43718" esm:processing="manual (Paolucci et al 2011)" esm:quality="good">
		<comp name="00.HNE" depth="0.0">
			<acc value="0.0725813245655237" flag="0"/>
			<vel value="0.0342571501846214" flag="0"/>
			<psa03 value="0.143577741038034" flag="0"/>
			<psa10 value="0.0358264271054487" flag="0"/>
			<psa30 value="0.00339861801472392" flag="0"/>
		</comp>
		<comp name="00.HNN" depth="0.0">
			<acc value="0.0580119048121568" flag="0"/>
			<vel value="0.024630376675829" flag="0"/>
			<psa03 value="0.155702879031586" flag="0"/>
			<psa10 value="0.0266654603003576" flag="0"/>
			<psa30 value="0.00336371909356167" flag="0"/>
		</comp>
		<comp name="00.HNZ" depth="0.0">
			<acc value="0.0488028162775119" flag="0"/>
			<vel value="0.0146731302647756" flag="0"/>
			<psa03 value="0.0668895988943163" flag="0"/>
			<psa10 value="0.0133287033515832" flag="0"/>
			<psa30 value="0.00223979486331068" flag="0"/>
		</comp>
	</station>
	<station code="PATC" name="PATC" netid="HL" source="National Observatory of Athens Seismic Network" insttype="" lat="38.26933" lon="21.76001" esm:processing="manual (Paolucci et al 2011)" esm:quality="good">
		<comp name="00.HNE" depth="0.0">
			<acc value="0.0192321459487945" flag="0"/>
			<vel value="0.0161503090968247" flag="0"/>
			<psa03 value="0.0527063193963241" flag="0"/>
			<psa10 value="0.0283043673287849" flag="0"/>
			<psa30 value="0.00287826615175342" flag="0"/>
		</comp>
		<comp name="00.HNN" depth="0.0">
			<acc value="0.0118450031441467" flag="0"/>
			<vel value="0.0114232463939863" flag="0"/>
			<psa03 value="0.0393731418240791" flag="0"/>
			<psa10 value="0.0286023504248626" flag="0"/>
			<psa30 value="0.00399413678481312" flag="0"/>
		</comp>
		<comp name="00.HNZ" depth="0.0">
			<acc value="0.0163516610029242" flag="0"/>
			<vel value="0.0088115137363152" flag="0"/>
			<psa03 value="0.0197760553252761" flag="0"/>
			<psa10 value="0.012322003702672" flag="0"/>
			<psa30 value="0.00102862333015407" flag="0"/>
		</comp>
	</station>
	<station code="PATG" name="PATG" netid="HL" source="National Observatory of Athens Seismic Network" insttype="" lat="38.23865" lon="21.72657" esm:processing="manual (Paolucci et al 2011)" esm:quality="good">
		<comp name="00.HNE" depth="0.0">
			<acc value="0.0179980443455525" flag="0"/>
			<vel value="0.015989145649989" flag="0"/>
			<psa03 value="0.0497533337595182" flag="0"/>
			<psa10 value="0.0370143326911639" flag="0"/>
			<psa30 value="0.00427109104378022" flag="0"/>
		</comp>
		<comp name="00.HNN" depth="0.0">
			<acc value="0.0204978439766968" flag="0"/>
			<vel value="0.0184546207723725" flag="0"/>
			<psa03 value="0.0528405460161789" flag="0"/>
			<psa10 value="0.0355687119953275" flag="0"/>
			<psa30 value="0.00394268324720211" flag="0"/>
		</comp>
		<comp name="00.HNZ" depth="0.0">
			<acc value="0.0374575161783558" flag="0"/>
			<vel value="0.0112045810056901" flag="0"/>
			<psa03 value="0.0252346045327053" flag="0"/>
			<psa10 value="0.0193769548422411" flag="0"/>
			<psa30 value="0.00196552513674068" flag="0"/>
		</comp>
	</station>
	<station code="ZARA" name="ZARA" netid="HL" source="National Observatory of Athens Seismic Network" insttype="" lat="37.4865" lon="21.6491" esm:processing="manual (Paolucci et al 2011)" esm:quality="good">
		<comp name="00.HNE" depth="0.0">
			<acc value="0.0518242165036631" flag="0"/>
			<vel value="0.018839695396103" flag="0"/>
			<psa03 value="0.0953920067525015" flag="0"/>
			<psa10 value="0.0202180524717512" flag="0"/>
			<psa30 value="0.00179751365979165" flag="0"/>
		</comp>
		<comp name="00.HNN" depth="0.0">
			<acc value="0.0496875384592161" flag="0"/>
			<vel value="0.0285519738857878" flag="0"/>
			<psa03 value="0.134748634769051" flag="0"/>
			<psa10 value="0.023479836673964" flag="0"/>
			<psa30 value="0.00185682175532633" flag="0"/>
		</comp>
		<comp name="00.HNZ" depth="0.0">
			<acc value="0.0194534297969343" flag="0"/>
			<vel value="0.00848995347890625" flag="0"/>
			<psa03 value="0.0382918413340539" flag="0"/>
			<psa10 value="0.0111801234407958" flag="0"/>
			<psa30 value="0.000814283942314886" flag="0"/>
		</comp>
	</station>
</stationlist>
