<?xml version="1.0" encoding="UTF-8" standalone="yes"?>
<!DOCTYPE earthquake SYSTEM "stationlist.dtd">
<stationlist created="" xmlns="ch.ethz.sed.shakemap.usgs.xml">
  <station code="THL" name="THL" netid="MN" insttype="" lat="39.5647" lon="22.0144">
    <comp name="--.HHE">
      <acc value="0.0289007656" flag="0"/>
      <vel value="0.0185801421" flag="0"/>
      <psa03 value="0.0467339377" flag="0"/>
      <psa10 value="0.0152689173" flag="0"/>
      <psa30 value="0.0009471520" flag="0"/>
    </comp>
    <comp name="--.HHZ">
      <acc value="0.0237582687" flag="0"/>
      <vel value="0.0174449328" flag="0"/>
      <psa03 value="0.0621549847" flag="0"/>
      <psa10 value="0.0238869463" flag="0"/>
      <psa30 value="0.0010841730" flag="0"/>
    </comp>
    <comp name="--.HHN">
      <acc value="0.0342056153" flag="0"/>
      <vel value="0.0154694967" flag="0"/>
      <psa03 value="0.0391136554" flag="0"/>
      <psa10 value="0.0198024803" flag="0"/>
      <psa30 value="0.0010796545" flag="0"/>
    </comp>
  </station>
</stationlist>
