<?xml version="1.0" encoding="UTF-8" standalone="yes"?>
<!DOCTYPE earthquake SYSTEM "stationlist.dtd">
<stationlist created="" xmlns="ch.ethz.sed.shakemap.usgs.xml">
  <station code="APE" name="APE" netid="GE" insttype="STS-2/N" lat="37.0727" lon="25.523">
    <comp name="--.HHE">
      <acc value="0.0746424782" flag="0"/>
      <vel value="0.0154021626" flag="0"/>
      <psa03 value="0.0873219866" flag="0"/>
      <psa10 value="0.0046563196" flag="0"/>
      <psa30 value="0.0010110096" flag="0"/>
    </comp>
    <comp name="--.HHN">
      <acc value="0.0920241759" flag="0"/>
      <vel value="0.0283080533" flag="0"/>
      <psa03 value="0.0845675302" flag="0"/>
      <psa10 value="0.0039832080" flag="0"/>
      <psa30 value="0.0005356292" flag="0"/>
    </comp>
    <comp name="--.HHZ">
      <acc value="0.0371053990" flag="0"/>
      <vel value="0.0082642786" flag="0"/>
      <psa03 value="0.0499495826" flag="0"/>
      <psa10 value="0.0047148328" flag="0"/>
      <psa30 value="0.0006183550" flag="0"/>
    </comp>
  </station>
  <station code="THERA" name="THERA" netid="GE" insttype="STS-2/N" lat="36.367" lon="25.4753">
    <comp name="--.HHE">
      <acc value="0.1669888650" flag="0"/>
      <vel value="0.0455145142" flag="0"/>
      <psa03 value="0.1998157928" flag="0"/>
      <psa10 value="0.0267815641" flag="0"/>
      <psa30 value="0.0023120389" flag="0"/>
    </comp>
    <comp name="--.HHZ">
      <acc value="0.1423488922" flag="0"/>
      <vel value="0.0330185105" flag="0"/>
      <psa03 value="0.1772997794" flag="0"/>
      <psa10 value="0.0195731990" flag="0"/>
      <psa30 value="0.0011636549" flag="0"/>
    </comp>
    <comp name="--.HHN">
      <acc value="0.1222514746" flag="0"/>
      <vel value="0.0345185290" flag="0"/>
      <psa03 value="0.1381963594" flag="0"/>
      <psa10 value="0.0110648999" flag="0"/>
      <psa30 value="0.0008320236" flag="0"/>
    </comp>
  </station>
  <station code="SNT1" name="SNT1" netid="HA" insttype="30" lat="36.4159" lon="25.4282">
    <comp name="--.HHE">
      <acc value="0.1179035942" flag="0"/>
      <vel value="0.0483698316" flag="0"/>
      <psa03 value="0.2099882961" flag="0"/>
      <psa10 value="0.0366517111" flag="0"/>
      <psa30 value="0.0027540555" flag="0"/>
    </comp>
    <comp name="--.HHN">
      <acc value="0.0917138150" flag="0"/>
      <vel value="0.0452870968" flag="0"/>
      <psa03 value="0.1646947801" flag="0"/>
      <psa10 value="0.0343333116" flag="0"/>
      <psa30 value="0.0026210827" flag="0"/>
    </comp>
    <comp name="--.HHZ">
      <acc value="0.1252372389" flag="0"/>
      <vel value="0.0347045185" flag="0"/>
      <psa03 value="0.2025711124" flag="0"/>
      <psa10 value="0.0225851386" flag="0"/>
      <psa30 value="0.0015009275" flag="0"/>
    </comp>
  </station>
  <station code="NAX1" name="NAX1" netid="HI" insttype="CMG-5TD,ACCELEROMETER,GURALP" lat="37.1014" lon="25.3741">
    <comp name="--.HNN">
      <acc value="0.0650232233" flag="0"/>
      <vel value="0.0133913980" flag="0"/>
      <psa03 value="0.0541500934" flag="0"/>
      <psa10 value="0.0037701010" flag="0"/>
      <psa30 value="0.0005774118" flag="0"/>
    </comp>
    <comp name="--.HNZ">
      <acc value="0.0465562897" flag="0"/>
      <vel value="0.0097316025" flag="0"/>
      <psa03 value="0.0248060341" flag="0"/>
      <psa10 value="0.0064717067" flag="0"/>
      <psa30 value="0.0004976537" flag="0"/>
    </comp>
    <comp name="--.HNE">
      <acc value="0.0883943385" flag="0"/>
      <vel value="0.0186832731" flag="0"/>
      <psa03 value="0.0948448818" flag="0"/>
      <psa10 value="0.0073413954" flag="0"/>
      <psa30 value="0.0006254740" flag="0"/>
    </comp>
  </station>
  <station code="AMGA" name="AMGA" netid="HL" insttype="SMART24" lat="36.8316" lon="25.8938">
    <comp name="--.HHE">
      <acc value="0.2461496438" flag="0"/>
      <vel value="0.0548461044" flag="0"/>
      <psa03 value="0.2003140030" flag="0"/>
      <psa10 value="0.0120372217" flag="0"/>
      <psa30 value="0.0012538953" flag="0"/>
    </comp>
    <comp name="--.HHN">
      <acc value="0.2715025839" flag="0"/>
      <vel value="0.0459010782" flag="0"/>
      <psa03 value="0.1240779065" flag="0"/>
      <psa10 value="0.0236786709" flag="0"/>
      <psa30 value="0.0024279265" flag="0"/>
    </comp>
    <comp name="--.HHZ">
      <acc value="0.2086638535" flag="0"/>
      <vel value="0.0503360221" flag="0"/>
      <psa03 value="0.1212900164" flag="0"/>
      <psa10 value="0.0121162165" flag="0"/>
      <psa30 value="0.0013473803" flag="0"/>
    </comp>
  </station>
  <station code="APE" name="APE" netid="HL" insttype="120" lat="37.0727" lon="25.523">
    <comp name="--.HHN">
      <acc value="0.0891910390" flag="0"/>
      <vel value="0.0265743171" flag="0"/>
      <psa03 value="0.0825719724" flag="0"/>
      <psa10 value="0.0039398662" flag="0"/>
      <psa30 value="0.0005340300" flag="0"/>
    </comp>
    <comp name="--.HHE">
      <acc value="0.0683612886" flag="0"/>
      <vel value="0.0144424091" flag="0"/>
      <psa03 value="0.0845629273" flag="0"/>
      <psa10 value="0.0045697024" flag="0"/>
      <psa30 value="0.0010067353" flag="0"/>
    </comp>
    <comp name="--.HHZ">
      <acc value="0.0339959047" flag="0"/>
      <vel value="0.0079846169" flag="0"/>
      <psa03 value="0.0483170334" flag="0"/>
      <psa10 value="0.0046662275" flag="0"/>
      <psa30 value="0.0006157574" flag="0"/>
    </comp>
  </station>
  <station code="SAP3" name="SAP3" netid="HL" insttype="LE3D20_SMART24" lat="36.4356" lon="25.3454">
    <comp name="--.HHE">
      <acc value="0.5030296600" flag="0"/>
      <vel value="0.1555368806" flag="0"/>
      <psa03 value="0.8158311424" flag="0"/>
      <psa10 value="0.1028656747" flag="0"/>
      <psa30 value="0.0087963289" flag="0"/>
    </comp>
    <comp name="--.HHN">
      <acc value="0.3807733896" flag="0"/>
      <vel value="0.1394309353" flag="0"/>
      <psa03 value="0.6440596354" flag="0"/>
      <psa10 value="0.0725264322" flag="0"/>
      <psa30 value="0.0106798034" flag="0"/>
    </comp>
    <comp name="--.HHZ">
      <acc value="0.6266397806" flag="0"/>
      <vel value="0.1395888862" flag="0"/>
      <psa03 value="0.5915198168" flag="0"/>
      <psa10 value="0.0311755747" flag="0"/>
      <psa30 value="0.0036294937" flag="0"/>
    </comp>
  </station>
  <station code="THERA" name="THERA" netid="HL" insttype="120" lat="36.367" lon="25.4753">
    <comp name="--.HHN">
      <acc value="0.1216732193" flag="0"/>
      <vel value="0.0337008949" flag="0"/>
      <psa03 value="0.1340819871" flag="0"/>
      <psa10 value="0.0110303223" flag="0"/>
      <psa30 value="0.0008099232" flag="0"/>
    </comp>
    <comp name="--.HHZ">
      <acc value="0.1421166364" flag="0"/>
      <vel value="0.0325892334" flag="0"/>
      <psa03 value="0.1718984968" flag="0"/>
      <psa10 value="0.0194196119" flag="0"/>
      <psa30 value="0.0011456198" flag="0"/>
    </comp>
    <comp name="--.HHE">
      <acc value="0.1641660939" flag="0"/>
      <vel value="0.0444735181" flag="0"/>
      <psa03 value="0.1947552842" flag="0"/>
      <psa10 value="0.0264974959" flag="0"/>
      <psa30 value="0.0022894651" flag="0"/>
    </comp>
  </station>
  <station code="THRA" name="THRA" netid="HL" insttype="CMG-5" lat="36.415" lon="25.4324">
    <comp name="00.HNN">
      <acc value="0.3481513962" flag="0"/>
      <vel value="0.1574002094" flag="0"/>
      <psa03 value="1.0781103990" flag="0"/>
      <psa10 value="0.1069898423" flag="0"/>
      <psa30 value="0.0072879295" flag="0"/>
    </comp>
    <comp name="00.HNE">
      <acc value="0.3986879423" flag="0"/>
      <vel value="0.1735133922" flag="0"/>
      <psa03 value="1.0981968399" flag="0"/>
      <psa10 value="0.1167873457" flag="0"/>
      <psa30 value="0.0068713999" flag="0"/>
    </comp>
    <comp name="00.HNZ">
      <acc value="0.3215698775" flag="0"/>
      <vel value="0.1046248921" flag="0"/>
      <psa03 value="0.8935951887" flag="0"/>
      <psa10 value="0.0530022919" flag="0"/>
      <psa30 value="0.0037916266" flag="0"/>
    </comp>
  </station>
  <station code="CMBO" name="CMBO" netid="HT" insttype="120P," lat="36.4709" lon="25.4056">
    <comp name="--.HHN">
      <acc value="0.6705279573" flag="0"/>
      <vel value="0.1750929887" flag="0"/>
      <psa03 value="0.9049623688" flag="0"/>
      <psa10 value="0.1124563306" flag="0"/>
      <psa30 value="0.0065108733" flag="0"/>
    </comp>
    <comp name="--.HHE">
      <acc value="0.4343529820" flag="0"/>
      <vel value="0.1308699536" flag="0"/>
      <psa03 value="0.6977167126" flag="0"/>
      <psa10 value="0.0919043573" flag="0"/>
      <psa30 value="0.0094937488" flag="0"/>
    </comp>
    <comp name="--.HHZ">
      <acc value="0.5278458208" flag="0"/>
      <vel value="0.1410083894" flag="0"/>
      <psa03 value="0.4841940211" flag="0"/>
      <psa10 value="0.0478979375" flag="0"/>
      <psa30 value="0.0047231856" flag="0"/>
    </comp>
  </station>
</stationlist>
