<?xml version="1.0" encoding="UTF-8" standalone="yes"?>
<!DOCTYPE earthquake SYSTEM "stationlist.dtd">
<stationlist created="" xmlns="ch.ethz.sed.shakemap.usgs.xml">
  <station code="GIL" name="GIL" netid="VI" insttype="CMG-3ESP" lat="66.0773" lon="-16.3513">
    <comp name="--.HHE">
      <acc value="0.0362978007" flag="0"/>
      <vel value="0.0221783253" flag="0"/>
      <psa03 value="0.0921593406" flag="0"/>
      <psa10 value="0.0234881548" flag="0"/>
      <psa30 value="0.0020997301" flag="0"/>
    </comp>
    <comp name="--.HHZ">
      <acc value="0.0470727219" flag="0"/>
      <vel value="0.0076471309" flag="0"/>
      <psa03 value="0.0257108490" flag="0"/>
      <psa10 value="0.0058868102" flag="0"/>
      <psa30 value="0.0004816939" flag="0"/>
    </comp>
    <comp name="--.HHN">
      <acc value="0.0471866781" flag="0"/>
      <vel value="0.0121058763" flag="0"/>
      <psa03 value="0.0390340748" flag="0"/>
      <psa10 value="0.0117156776" flag="0"/>
      <psa30 value="0.0011391200" flag="0"/>
    </comp>
  </station>
</stationlist>
