<?xml version="1.0" encoding="UTF-8" standalone="yes"?>
<!DOCTYPE earthquake SYSTEM "stationlist.dtd">
<stationlist created="" xmlns="ch.ethz.sed.shakemap.usgs.xml">
  <station code="CSMBE" name="CSMBE" netid="7C" insttype="" lat="39.2895" lon="16.2642">
    <comp name="--.HNE">
      <acc value="0.5018033659" flag="0"/>
      <vel value="0.3373760112" flag="0"/>
      <psa03 value="1.8367372219" flag="0"/>
      <psa10 value="0.3623017766" flag="0"/>
      <psa30 value="0.0297352313" flag="0"/>
    </comp>
    <comp name="--.HNN">
      <acc value="0.4745013517" flag="0"/>
      <vel value="0.2778175179" flag="0"/>
      <psa03 value="1.2265614324" flag="0"/>
      <psa10 value="0.2195993379" flag="0"/>
      <psa30 value="0.0230541259" flag="0"/>
    </comp>
    <comp name="--.HNZ">
      <acc value="0.4328252661" flag="0"/>
      <vel value="0.1368523040" flag="0"/>
      <psa03 value="0.4787955222" flag="0"/>
      <psa10 value="0.2309396625" flag="0"/>
      <psa30 value="0.0137877125" flag="0"/>
    </comp>
  </station>
  <station code="MARCO" name="MARCO" netid="GE" insttype="VBB" lat="40.2972" lon="15.8063">
    <comp name="--.HHE">
      <acc value="0.0357186579" flag="0"/>
      <vel value="0.0687580177" flag="0"/>
      <psa03 value="0.1175048702" flag="0"/>
      <psa10 value="0.0842996881" flag="0"/>
      <psa30 value="0.0358884731" flag="0"/>
    </comp>
    <comp name="--.HHN">
      <acc value="0.0473454322" flag="0"/>
      <vel value="0.0696297577" flag="0"/>
      <psa03 value="0.1216003481" flag="0"/>
      <psa10 value="0.1108898294" flag="0"/>
      <psa30 value="0.0213494963" flag="0"/>
    </comp>
    <comp name="--.HHZ">
      <acc value="0.0177430558" flag="0"/>
      <vel value="0.0276284083" flag="0"/>
      <psa03 value="0.0588789477" flag="0"/>
      <psa10 value="0.0448853377" flag="0"/>
      <psa30 value="0.0137115917" flag="0"/>
    </comp>
  </station>
  <station code="MATE" name="MATE" netid="GE" insttype="STS-2/N" lat="40.6491" lon="16.7044">
    <comp name="--.HHE">
      <acc value="0.0736751833" flag="0"/>
      <vel value="0.0442776901" flag="0"/>
      <psa03 value="0.2005654280" flag="0"/>
      <psa10 value="0.0501804398" flag="0"/>
      <psa30 value="0.0047960969" flag="0"/>
    </comp>
    <comp name="--.HHN">
      <acc value="0.0884544882" flag="0"/>
      <vel value="0.0609372143" flag="0"/>
      <psa03 value="0.2221676918" flag="0"/>
      <psa10 value="0.0541106638" flag="0"/>
      <psa30 value="0.0072540314" flag="0"/>
    </comp>
    <comp name="--.HHZ">
      <acc value="0.0659788508" flag="0"/>
      <vel value="0.0330340237" flag="0"/>
      <psa03 value="0.1408547814" flag="0"/>
      <psa10 value="0.0431639673" flag="0"/>
      <psa30 value="0.0030349781" flag="0"/>
    </comp>
  </station>
  <station code="ACER" name="ACER" netid="IV" insttype="" lat="40.7867" lon="15.9427">
    <comp name="--.HHE">
      <acc value="0.0747115215" flag="0"/>
      <vel value="0.0659740843" flag="0"/>
      <psa03 value="0.2854897975" flag="0"/>
      <psa10 value="0.1046721041" flag="0"/>
      <psa30 value="0.0197580758" flag="0"/>
    </comp>
    <comp name="--.HHZ">
      <acc value="0.0264879940" flag="0"/>
      <vel value="0.0187778901" flag="0"/>
      <psa03 value="0.0553049873" flag="0"/>
      <psa10 value="0.0408622388" flag="0"/>
      <psa30 value="0.0029110669" flag="0"/>
    </comp>
    <comp name="--.HHN">
      <acc value="0.0422750712" flag="0"/>
      <vel value="0.0436554348" flag="0"/>
      <psa03 value="0.1464720951" flag="0"/>
      <psa10 value="0.0994862060" flag="0"/>
      <psa30 value="0.0107955809" flag="0"/>
    </comp>
  </station>
  <station code="AMUR" name="AMUR" netid="IV" insttype="" lat="40.9071" lon="16.6041">
    <comp name="--.HHZ">
      <acc value="0.0421975915" flag="0"/>
      <vel value="0.0285168133" flag="0"/>
      <psa03 value="0.1034204195" flag="0"/>
      <psa10 value="0.0236932101" flag="0"/>
      <psa30 value="0.0043626200" flag="0"/>
    </comp>
    <comp name="--.HHE">
      <acc value="0.0857525770" flag="0"/>
      <vel value="0.0742556562" flag="0"/>
      <psa03 value="0.1581077539" flag="0"/>
      <psa10 value="0.0857228083" flag="0"/>
      <psa30 value="0.0042726106" flag="0"/>
    </comp>
    <comp name="--.HHN">
      <acc value="0.0733405700" flag="0"/>
      <vel value="0.0372576697" flag="0"/>
      <psa03 value="0.1655351568" flag="0"/>
      <psa10 value="0.0382259898" flag="0"/>
      <psa30 value="0.0044016295" flag="0"/>
    </comp>
  </station>
  <station code="CAR1" name="CAR1" netid="IV" insttype="" lat="39.2534" lon="16.2114">
    <comp name="--.HHE">
      <acc value="0.4341333030" flag="0"/>
      <vel value="0.2906398432" flag="0"/>
      <psa03 value="1.4650619201" flag="0"/>
      <psa10 value="0.2687866018" flag="0"/>
      <psa30 value="0.0351639953" flag="0"/>
    </comp>
    <comp name="--.HHN">
      <acc value="0.3505465638" flag="0"/>
      <vel value="0.2086764039" flag="0"/>
      <psa03 value="1.0124463688" flag="0"/>
      <psa10 value="0.1673808132" flag="0"/>
      <psa30 value="0.0399399430" flag="0"/>
    </comp>
    <comp name="--.HHZ">
      <acc value="0.2160173882" flag="0"/>
      <vel value="0.1683754737" flag="0"/>
      <psa03 value="0.7842931024" flag="0"/>
      <psa10 value="0.1266107683" flag="0"/>
      <psa30 value="0.0201874278" flag="0"/>
    </comp>
  </station>
  <station code="CDRU" name="CDRU" netid="IV" insttype="" lat="40.4896" lon="15.3046">
    <comp name="--.HHN">
      <acc value="0.0093987924" flag="0"/>
      <vel value="0.0135455932" flag="0"/>
      <psa03 value="0.0335875520" flag="0"/>
      <psa10 value="0.0165101415" flag="0"/>
      <psa30 value="0.0050164037" flag="0"/>
    </comp>
    <comp name="--.HHE">
      <acc value="0.0156952731" flag="0"/>
      <vel value="0.0191172489" flag="0"/>
      <psa03 value="0.0414933721" flag="0"/>
      <psa10 value="0.0200759853" flag="0"/>
      <psa30 value="0.0083000130" flag="0"/>
    </comp>
    <comp name="--.HHZ">
      <acc value="0.0079234776" flag="0"/>
      <vel value="0.0129407175" flag="0"/>
      <psa03 value="0.0206555878" flag="0"/>
      <psa10 value="0.0111313663" flag="0"/>
      <psa30 value="0.0067285735" flag="0"/>
    </comp>
  </station>
  <station code="CELI" name="CELI" netid="IV" insttype="" lat="39.4027" lon="16.5088">
    <comp name="--.HHE">
      <acc value="0.5918323833" flag="0"/>
      <vel value="0.2876269028" flag="0"/>
      <psa03 value="0.8110379634" flag="0"/>
      <psa10 value="0.3557648610" flag="0"/>
      <psa30 value="0.0234402137" flag="0"/>
    </comp>
    <comp name="--.HHN">
      <acc value="0.5246832017" flag="0"/>
      <vel value="0.2154691509" flag="0"/>
      <psa03 value="1.1023243614" flag="0"/>
      <psa10 value="0.1634418935" flag="0"/>
      <psa30 value="0.0146420373" flag="0"/>
    </comp>
    <comp name="--.HHZ">
      <acc value="0.4200549153" flag="0"/>
      <vel value="0.1172505885" flag="0"/>
      <psa03 value="0.5941625435" flag="0"/>
      <psa10 value="0.1942413401" flag="0"/>
      <psa30 value="0.0112712287" flag="0"/>
    </comp>
  </station>
  <station code="CMPR" name="CMPR" netid="IV" insttype="" lat="40.3181" lon="15.303">
    <comp name="--.HHE">
      <acc value="0.0164066010" flag="0"/>
      <vel value="0.0159528289" flag="0"/>
      <psa03 value="0.0463888876" flag="0"/>
      <psa10 value="0.0267361135" flag="0"/>
      <psa30 value="0.0089812791" flag="0"/>
    </comp>
    <comp name="--.HHN">
      <acc value="0.0146872683" flag="0"/>
      <vel value="0.0209165369" flag="0"/>
      <psa03 value="0.0489067181" flag="0"/>
      <psa10 value="0.0225550568" flag="0"/>
      <psa30 value="0.0124266202" flag="0"/>
    </comp>
    <comp name="--.HHZ">
      <acc value="0.0120271022" flag="0"/>
      <vel value="0.0090029724" flag="0"/>
      <psa03 value="0.0334477582" flag="0"/>
      <psa10 value="0.0105830369" flag="0"/>
      <psa30 value="0.0018967420" flag="0"/>
    </comp>
  </station>
  <station code="GIZZ" name="GIZZ" netid="IV" insttype="" lat="38.9798" lon="16.2078">
    <comp name="--.HHZ">
      <acc value="0.4610362914" flag="0"/>
      <vel value="0.1243619682" flag="0"/>
      <psa03 value="0.4737737737" flag="0"/>
      <psa10 value="0.1287474949" flag="0"/>
      <psa30 value="0.0200465317" flag="0"/>
    </comp>
    <comp name="--.HHN">
      <acc value="0.4693393426" flag="0"/>
      <vel value="0.1782895297" flag="0"/>
      <psa03 value="1.0268454711" flag="0"/>
      <psa10 value="0.2317283023" flag="0"/>
      <psa30 value="0.0233477817" flag="0"/>
    </comp>
    <comp name="--.HHE">
      <acc value="0.4056863182" flag="0"/>
      <vel value="0.2055241706" flag="0"/>
      <psa03 value="1.0945262538" flag="0"/>
      <psa10 value="0.2194684636" flag="0"/>
      <psa30 value="0.0181507234" flag="0"/>
    </comp>
  </station>
  <station code="GMB1" name="GMB1" netid="IV" insttype="" lat="38.1723" lon="15.8179">
    <comp name="--.HHE">
      <acc value="0.0347444767" flag="0"/>
      <vel value="0.0118524315" flag="0"/>
      <psa03 value="0.0537140805" flag="0"/>
      <psa10 value="0.0222547598" flag="0"/>
      <psa30 value="0.0036409683" flag="0"/>
    </comp>
    <comp name="--.HHN">
      <acc value="0.0510034873" flag="0"/>
      <vel value="0.0498769379" flag="0"/>
      <psa03 value="0.1244914857" flag="0"/>
      <psa10 value="0.1207857679" flag="0"/>
      <psa30 value="0.0109170206" flag="0"/>
    </comp>
    <comp name="--.HHZ">
      <acc value="0.0441026486" flag="0"/>
      <vel value="0.0336202175" flag="0"/>
      <psa03 value="0.0733224254" flag="0"/>
      <psa10 value="0.1071917166" flag="0"/>
      <psa30 value="0.0053409749" flag="0"/>
    </comp>
  </station>
  <station code="GRIS" name="GRIS" netid="IV" insttype="" lat="39.7405" lon="15.8531">
    <comp name="--.HNE">
      <acc value="0.1041191772" flag="0"/>
      <vel value="0.1856549296" flag="0"/>
      <psa03 value="0.2412053827" flag="0"/>
      <psa10 value="0.1786819837" flag="0"/>
      <psa30 value="0.0494335207" flag="0"/>
    </comp>
    <comp name="--.HNN">
      <acc value="0.1170010040" flag="0"/>
      <vel value="0.1814266227" flag="0"/>
      <psa03 value="0.2526848065" flag="0"/>
      <psa10 value="0.2542124351" flag="0"/>
      <psa30 value="0.0319829946" flag="0"/>
    </comp>
    <comp name="--.HNZ">
      <acc value="0.0591848131" flag="0"/>
      <vel value="0.1164272816" flag="0"/>
      <psa03 value="0.1941269855" flag="0"/>
      <psa10 value="0.1793874009" flag="0"/>
      <psa30 value="0.0435909325" flag="0"/>
    </comp>
  </station>
  <station code="IPNR" name="IPNR" netid="IV" insttype="" lat="38.6435" lon="15.0688">
    <comp name="--.HHE">
      <acc value="0.0292658719" flag="0"/>
      <vel value="0.0264452774" flag="0"/>
      <psa03 value="0.0891789671" flag="0"/>
      <psa10 value="0.0303127227" flag="0"/>
      <psa30 value="0.0085321923" flag="0"/>
    </comp>
    <comp name="--.HHN">
      <acc value="0.0335501025" flag="0"/>
      <vel value="0.0251855655" flag="0"/>
      <psa03 value="0.0951062864" flag="0"/>
      <psa10 value="0.0286977286" flag="0"/>
      <psa30 value="0.0090803327" flag="0"/>
    </comp>
    <comp name="--.HHZ">
      <acc value="0.0165377834" flag="0"/>
      <vel value="0.0104127826" flag="0"/>
      <psa03 value="0.0657338549" flag="0"/>
      <psa10 value="0.0224735365" flag="0"/>
      <psa30 value="0.0032179615" flag="0"/>
    </comp>
  </station>
  <station code="IST3" name="IST3" netid="IV" insttype="" lat="38.7992" lon="15.2304">
    <comp name="--.HHE">
      <acc value="0.1544404728" flag="0"/>
      <vel value="0.0491769540" flag="0"/>
      <psa03 value="0.3579689234" flag="0"/>
      <psa10 value="0.0818263289" flag="0"/>
      <psa30 value="0.0075811236" flag="0"/>
    </comp>
    <comp name="--.HHN">
      <acc value="0.1462468383" flag="0"/>
      <vel value="0.0566680682" flag="0"/>
      <psa03 value="0.2917454077" flag="0"/>
      <psa10 value="0.0588996606" flag="0"/>
      <psa30 value="0.0096223671" flag="0"/>
    </comp>
    <comp name="--.HHZ">
      <acc value="0.1340640744" flag="0"/>
      <vel value="0.0317264129" flag="0"/>
      <psa03 value="0.2240088939" flag="0"/>
      <psa10 value="0.0284390567" flag="0"/>
      <psa30 value="0.0041649240" flag="0"/>
    </comp>
  </station>
  <station code="ISTR" name="ISTR" netid="IV" insttype="" lat="38.7866" lon="15.1918">
    <comp name="--.HHE">
      <acc value="0.0742100735" flag="0"/>
      <vel value="0.0440737819" flag="0"/>
      <psa03 value="0.2125856643" flag="0"/>
      <psa10 value="0.0307929116" flag="0"/>
      <psa30 value="0.0039747154" flag="0"/>
    </comp>
    <comp name="--.HHN">
      <acc value="0.0756333364" flag="0"/>
      <vel value="0.0365263439" flag="0"/>
      <psa03 value="0.2558080491" flag="0"/>
      <psa10 value="0.0285103218" flag="0"/>
      <psa30 value="0.0058336080" flag="0"/>
    </comp>
    <comp name="--.HHZ">
      <acc value="0.0624671118" flag="0"/>
      <vel value="0.0233828082" flag="0"/>
      <psa03 value="0.1144607481" flag="0"/>
      <psa10 value="0.0193405933" flag="0"/>
      <psa30 value="0.0034053657" flag="0"/>
    </comp>
  </station>
  <station code="LTRZ" name="LTRZ" netid="IV" insttype="" lat="40.6033" lon="16.8191">
    <comp name="--.HNE">
      <acc value="0.1743569576" flag="0"/>
      <vel value="0.0929299274" flag="0"/>
      <psa03 value="0.4230424161" flag="0"/>
      <psa10 value="0.0553323688" flag="0"/>
      <psa30 value="0.0072457900" flag="0"/>
    </comp>
    <comp name="--.HNN">
      <acc value="0.1777002898" flag="0"/>
      <vel value="0.1023084812" flag="0"/>
      <psa03 value="0.3700862641" flag="0"/>
      <psa10 value="0.1050809721" flag="0"/>
      <psa30 value="0.0052712234" flag="0"/>
    </comp>
    <comp name="--.HNZ">
      <acc value="0.0946635883" flag="0"/>
      <vel value="0.0455644998" flag="0"/>
      <psa03 value="0.2134858355" flag="0"/>
      <psa10 value="0.0384084161" flag="0"/>
      <psa30 value="0.0053317432" flag="0"/>
    </comp>
  </station>
  <station code="MCEL" name="MCEL" netid="IV" insttype="" lat="40.3249" lon="15.8019">
    <comp name="--.HHE">
      <acc value="0.0282378407" flag="0"/>
      <vel value="0.0503427125" flag="0"/>
      <psa03 value="0.0882183695" flag="0"/>
      <psa10 value="0.0734363474" flag="0"/>
      <psa30 value="0.0256228415" flag="0"/>
    </comp>
    <comp name="--.HHN">
      <acc value="0.0321906264" flag="0"/>
      <vel value="0.0595874000" flag="0"/>
      <psa03 value="0.0696455197" flag="0"/>
      <psa10 value="0.1127202225" flag="0"/>
      <psa30 value="0.0144354239" flag="0"/>
    </comp>
    <comp name="--.HHZ">
      <acc value="0.0221595509" flag="0"/>
      <vel value="0.0341434442" flag="0"/>
      <psa03 value="0.0516629256" flag="0"/>
      <psa10 value="0.0331051116" flag="0"/>
      <psa30 value="0.0234672308" flag="0"/>
    </comp>
  </station>
  <station code="MESG" name="MESG" netid="IV" insttype="" lat="40.5894" lon="17.8504">
    <comp name="--.HHE">
      <acc value="0.0884205999" flag="0"/>
      <vel value="0.0573703438" flag="0"/>
      <psa03 value="0.2014385769" flag="0"/>
      <psa10 value="0.1149049102" flag="0"/>
      <psa30 value="0.0065163342" flag="0"/>
    </comp>
    <comp name="--.HHZ">
      <acc value="0.0426847395" flag="0"/>
      <vel value="0.0296205674" flag="0"/>
      <psa03 value="0.1073230060" flag="0"/>
      <psa10 value="0.0513700794" flag="0"/>
      <psa30 value="0.0044365225" flag="0"/>
    </comp>
    <comp name="--.HHN">
      <acc value="0.1091232402" flag="0"/>
      <vel value="0.0582014636" flag="0"/>
      <psa03 value="0.1730700298" flag="0"/>
      <psa10 value="0.0856236065" flag="0"/>
      <psa30 value="0.0081971608" flag="0"/>
    </comp>
  </station>
  <station code="MGR" name="MGR" netid="IV" insttype="" lat="40.1376" lon="15.5535">
    <comp name="--.HHE">
      <acc value="0.0108795596" flag="0"/>
      <vel value="0.0189942178" flag="0"/>
      <psa03 value="0.0277883969" flag="0"/>
      <psa10 value="0.0344450476" flag="0"/>
      <psa30 value="0.0074822625" flag="0"/>
    </comp>
    <comp name="--.HHN">
      <acc value="0.0125425937" flag="0"/>
      <vel value="0.0086864591" flag="0"/>
      <psa03 value="0.0330171055" flag="0"/>
      <psa10 value="0.0097744314" flag="0"/>
      <psa30 value="0.0018284599" flag="0"/>
    </comp>
    <comp name="--.HHZ">
      <acc value="0.0137696379" flag="0"/>
      <vel value="0.0114310977" flag="0"/>
      <psa03 value="0.0215204076" flag="0"/>
      <psa10 value="0.0237994924" flag="0"/>
      <psa30 value="0.0054770796" flag="0"/>
    </comp>
  </station>
  <station code="MIGL" name="MIGL" netid="IV" insttype="" lat="40.6044" lon="16.441">
    <comp name="--.HHE">
      <acc value="0.1578836695" flag="0"/>
      <vel value="0.1420552074" flag="0"/>
      <psa03 value="0.4769773966" flag="0"/>
      <psa10 value="0.1800821522" flag="0"/>
      <psa30 value="0.0607083463" flag="0"/>
    </comp>
    <comp name="--.HHN">
      <acc value="0.0873464324" flag="0"/>
      <vel value="0.0473699069" flag="0"/>
      <psa03 value="0.1125251407" flag="0"/>
      <psa10 value="0.0514667016" flag="0"/>
      <psa30 value="0.0075722294" flag="0"/>
    </comp>
    <comp name="--.HHZ">
      <acc value="0.2558041363" flag="0"/>
      <vel value="0.0881147853" flag="0"/>
      <psa03 value="0.2488869893" flag="0"/>
      <psa10 value="0.1580861706" flag="0"/>
      <psa30 value="0.0267023925" flag="0"/>
    </comp>
  </station>
  <station code="MMN" name="MMN" netid="IV" insttype="" lat="39.891" lon="15.9904">
    <comp name="--.HHE">
      <acc value="0.0975699690" flag="0"/>
      <vel value="0.1496064226" flag="0"/>
      <psa03 value="0.3038760869" flag="0"/>
      <psa10 value="0.0742021944" flag="0"/>
      <psa30 value="0.0668126211" flag="0"/>
    </comp>
    <comp name="--.HHZ">
      <acc value="0.0863049046" flag="0"/>
      <vel value="0.0500823587" flag="0"/>
      <psa03 value="0.2258501402" flag="0"/>
      <psa10 value="0.0631171255" flag="0"/>
      <psa30 value="0.0277915609" flag="0"/>
    </comp>
    <comp name="--.HHN">
      <acc value="0.1547259674" flag="0"/>
      <vel value="0.2050417769" flag="0"/>
      <psa03 value="0.5497897083" flag="0"/>
      <psa10 value="0.1981210585" flag="0"/>
      <psa30 value="0.0645995396" flag="0"/>
    </comp>
  </station>
  <station code="MRCB" name="MRCB" netid="IV" insttype="" lat="38.162" lon="15.703">
    <comp name="--.HHE">
      <acc value="0.0255579513" flag="0"/>
      <vel value="0.0395432484" flag="0"/>
      <psa03 value="0.0625385930" flag="0"/>
      <psa10 value="0.0895336645" flag="0"/>
      <psa30 value="0.0076138137" flag="0"/>
    </comp>
    <comp name="--.HHN">
      <acc value="0.0331991895" flag="0"/>
      <vel value="0.0359714816" flag="0"/>
      <psa03 value="0.0939165652" flag="0"/>
      <psa10 value="0.0748131168" flag="0"/>
      <psa30 value="0.0062324886" flag="0"/>
    </comp>
    <comp name="--.HHZ">
      <acc value="0.0208201258" flag="0"/>
      <vel value="0.0216750339" flag="0"/>
      <psa03 value="0.0696615137" flag="0"/>
      <psa10 value="0.0533540221" flag="0"/>
      <psa30 value="0.0040179051" flag="0"/>
    </comp>
  </station>
  <station code="MSRU" name="MSRU" netid="IV" insttype="" lat="38.2639" lon="15.5083">
    <comp name="--.HHE">
      <acc value="0.0555177685" flag="0"/>
      <vel value="0.0264902924" flag="0"/>
      <psa03 value="0.1747381394" flag="0"/>
      <psa10 value="0.0161157757" flag="0"/>
      <psa30 value="0.0018747040" flag="0"/>
    </comp>
    <comp name="--.HHN">
      <acc value="0.0516825157" flag="0"/>
      <vel value="0.0393975522" flag="0"/>
      <psa03 value="0.1599819339" flag="0"/>
      <psa10 value="0.0545342660" flag="0"/>
      <psa30 value="0.0106808160" flag="0"/>
