<?xml version="1.0" encoding="UTF-8" standalone="yes"?>
<!DOCTYPE earthquake SYSTEM "stationlist.dtd">
<stationlist created="" xmlns="ch.ethz.sed.shakemap.usgs.xml">
  <station code="CSMBE" name="CSMBE" netid="7C" insttype="" lat="39.2895" lon="16.2642">
    <comp name="--.HNE">
      <acc value="0.5018033669" flag="0"/>
      <vel value="0.3373760160" flag="0"/>
      <psa03 value="1.8367372219" flag="0"/>
      <psa10 value="0.3623017796" flag="0"/>
      <psa30 value="0.0297353693" flag="0"/>
    </comp>
    <comp name="--.HNN">
      <acc value="0.4745013507" flag="0"/>
      <vel value="0.2778175181" flag="0"/>
      <psa03 value="1.2265614324" flag="0"/>
      <psa10 value="0.2195993375" flag="0"/>
      <psa30 value="0.0230540613" flag="0"/>
    </comp>
    <comp name="--.HNZ">
      <acc value="0.4328252661" flag="0"/>
      <vel value="0.1368523056" flag="0"/>
      <psa03 value="0.4787955223" flag="0"/>
      <psa10 value="0.2309396614" flag="0"/>
      <psa30 value="0.0137874012" flag="0"/>
    </comp>
  </station>
  <station code="MARCO" name="MARCO" netid="GE" insttype="VBB" lat="40.2972" lon="15.8063">
    <comp name="--.HHN">
      <acc value="0.0473454322" flag="0"/>
      <vel value="0.0696297566" flag="0"/>
      <psa03 value="0.1216003480" flag="0"/>
      <psa10 value="0.1108898294" flag="0"/>
      <psa30 value="0.0213494990" flag="0"/>
    </comp>
    <comp name="--.HHE">
      <acc value="0.0357186578" flag="0"/>
      <vel value="0.0687580170" flag="0"/>
      <psa03 value="0.1175048702" flag="0"/>
      <psa10 value="0.0842996881" flag="0"/>
      <psa30 value="0.0358884736" flag="0"/>
    </comp>
    <comp name="--.HHZ">
      <acc value="0.0177430558" flag="0"/>
      <vel value="0.0276284085" flag="0"/>
      <psa03 value="0.0588789477" flag="0"/>
      <psa10 value="0.0448853377" flag="0"/>
      <psa30 value="0.0137115912" flag="0"/>
    </comp>
  </station>
  <station code="MATE" name="MATE" netid="GE" insttype="STS-2/N" lat="40.6491" lon="16.7044">
    <comp name="--.HHE">
      <acc value="0.0736751836" flag="0"/>
      <vel value="0.0442776920" flag="0"/>
      <psa03 value="0.2005654280" flag="0"/>
      <psa10 value="0.0501804398" flag="0"/>
      <psa30 value="0.0047960965" flag="0"/>
    </comp>
    <comp name="--.HHN">
      <acc value="0.0884544884" flag="0"/>
      <vel value="0.0609372142" flag="0"/>
      <psa03 value="0.2221676918" flag="0"/>
      <psa10 value="0.0541106638" flag="0"/>
      <psa30 value="0.0072540315" flag="0"/>
    </comp>
    <comp name="--.HHZ">
      <acc value="0.0659788505" flag="0"/>
      <vel value="0.0330340236" flag="0"/>
      <psa03 value="0.1408547814" flag="0"/>
      <psa10 value="0.0431639673" flag="0"/>
      <psa30 value="0.0030349785" flag="0"/>
    </comp>
  </station>
  <station code="ACER" name="ACER" netid="IV" insttype="" lat="40.7867" lon="15.9427">
    <comp name="--.HHE">
      <acc value="0.0747115214" flag="0"/>
      <vel value="0.0659741335" flag="0"/>
      <psa03 value="0.2854897975" flag="0"/>
      <psa10 value="0.1046721040" flag="0"/>
      <psa30 value="0.0197580758" flag="0"/>
    </comp>
    <comp name="--.HHN">
      <acc value="0.0422750712" flag="0"/>
      <vel value="0.0436554062" flag="0"/>
      <psa03 value="0.1464720950" flag="0"/>
      <psa10 value="0.0994862060" flag="0"/>
      <psa30 value="0.0107955827" flag="0"/>
    </comp>
    <comp name="--.HHZ">
      <acc value="0.0264879938" flag="0"/>
      <vel value="0.0187778788" flag="0"/>
      <psa03 value="0.0553049873" flag="0"/>
      <psa10 value="0.0408622388" flag="0"/>
      <psa30 value="0.0029110605" flag="0"/>
    </comp>
  </station>
  <station code="AMUR" name="AMUR" netid="IV" insttype="" lat="40.9071" lon="16.6041">
    <comp name="--.HHZ">
      <acc value="0.0421975916" flag="0"/>
      <vel value="0.0285168102" flag="0"/>
      <psa03 value="0.1034204195" flag="0"/>
      <psa10 value="0.0236932101" flag="0"/>
      <psa30 value="0.0043626192" flag="0"/>
    </comp>
    <comp name="--.HHE">
      <acc value="0.0857525770" flag="0"/>
      <vel value="0.0742556639" flag="0"/>
      <psa03 value="0.1581077539" flag="0"/>
      <psa10 value="0.0857228083" flag="0"/>
      <psa30 value="0.0042726069" flag="0"/>
    </comp>
    <comp name="--.HHN">
      <acc value="0.0733405700" flag="0"/>
      <vel value="0.0372576862" flag="0"/>
      <psa03 value="0.1655351567" flag="0"/>
      <psa10 value="0.0382259898" flag="0"/>
      <psa30 value="0.0044016294" flag="0"/>
    </comp>
  </station>
  <station code="CAR1" name="CAR1" netid="IV" insttype="" lat="39.2534" lon="16.2114">
    <comp name="--.HHE">
      <acc value="0.4341333031" flag="0"/>
      <vel value="0.2906398390" flag="0"/>
      <psa03 value="1.4650619201" flag="0"/>
      <psa10 value="0.2687866018" flag="0"/>
      <psa30 value="0.0351639494" flag="0"/>
    </comp>
    <comp name="--.HHN">
      <acc value="0.3505465640" flag="0"/>
      <vel value="0.2086764061" flag="0"/>
      <psa03 value="1.0124463688" flag="0"/>
      <psa10 value="0.1673808132" flag="0"/>
      <psa30 value="0.0399398952" flag="0"/>
    </comp>
    <comp name="--.HHZ">
      <acc value="0.2160173885" flag="0"/>
      <vel value="0.1683754750" flag="0"/>
      <psa03 value="0.7842931024" flag="0"/>
      <psa10 value="0.1266107684" flag="0"/>
      <psa30 value="0.0201874327" flag="0"/>
    </comp>
  </station>
  <station code="CDRU" name="CDRU" netid="IV" insttype="" lat="40.4896" lon="15.3046">
    <comp name="--.HHE">
      <acc value="0.0156952731" flag="0"/>
      <vel value="0.0191172487" flag="0"/>
      <psa03 value="0.0414933721" flag="0"/>
      <psa10 value="0.0200759853" flag="0"/>
      <psa30 value="0.0083000130" flag="0"/>
    </comp>
    <comp name="--.HHN">
      <acc value="0.0093987924" flag="0"/>
      <vel value="0.0135455866" flag="0"/>
      <psa03 value="0.0335875520" flag="0"/>
      <psa10 value="0.0165101415" flag="0"/>
      <psa30 value="0.0050164037" flag="0"/>
    </comp>
    <comp name="--.HHZ">
      <acc value="0.0079234776" flag="0"/>
      <vel value="0.0129407143" flag="0"/>
      <psa03 value="0.0206555878" flag="0"/>
      <psa10 value="0.0111313663" flag="0"/>
      <psa30 value="0.0067285736" flag="0"/>
    </comp>
  </station>
  <station code="CELI" name="CELI" netid="IV" insttype="" lat="39.4027" lon="16.5088">
    <comp name="--.HHE">
      <acc value="0.5918323832" flag="0"/>
      <vel value="0.2876269044" flag="0"/>
      <psa03 value="0.8110379634" flag="0"/>
      <psa10 value="0.3557648611" flag="0"/>
      <psa30 value="0.0234403038" flag="0"/>
    </comp>
    <comp name="--.HHN">
      <acc value="0.5246832019" flag="0"/>
      <vel value="0.2154691516" flag="0"/>
      <psa03 value="1.1023243614" flag="0"/>
      <psa10 value="0.1634418939" flag="0"/>
      <psa30 value="0.0146420458" flag="0"/>
    </comp>
    <comp name="--.HHZ">
      <acc value="0.4200549154" flag="0"/>
      <vel value="0.1172505873" flag="0"/>
      <psa03 value="0.5941625435" flag="0"/>
      <psa10 value="0.1942413401" flag="0"/>
      <psa30 value="0.0112713150" flag="0"/>
    </comp>
  </station>
  <station code="CMPR" name="CMPR" netid="IV" insttype="" lat="40.3181" lon="15.303">
    <comp name="--.HHN">
      <acc value="0.0146872683" flag="0"/>
      <vel value="0.0209165374" flag="0"/>
      <psa03 value="0.0489067181" flag="0"/>
      <psa10 value="0.0225550568" flag="0"/>
      <psa30 value="0.0124266204" flag="0"/>
    </comp>
    <comp name="--.HHE">
      <acc value="0.0164066009" flag="0"/>
      <vel value="0.0159528293" flag="0"/>
      <psa03 value="0.0463888876" flag="0"/>
      <psa10 value="0.0267361135" flag="0"/>
      <psa30 value="0.0089812793" flag="0"/>
    </comp>
    <comp name="--.HHZ">
      <acc value="0.0120271021" flag="0"/>
      <vel value="0.0090029701" flag="0"/>
      <psa03 value="0.0334477582" flag="0"/>
      <psa10 value="0.0105830370" flag="0"/>
      <psa30 value="0.0018967427" flag="0"/>
    </comp>
  </station>
  <station code="GIZZ" name="GIZZ" netid="IV" insttype="" lat="38.9798" lon="16.2078">
    <comp name="--.HHE">
      <acc value="0.4056863182" flag="0"/>
      <vel value="0.2055241478" flag="0"/>
      <psa03 value="1.0945262538" flag="0"/>
      <psa10 value="0.2194684636" flag="0"/>
      <psa30 value="0.0181507527" flag="0"/>
    </comp>
    <comp name="--.HHN">
      <acc value="0.4693393428" flag="0"/>
      <vel value="0.1782895020" flag="0"/>
      <psa03 value="1.0268454711" flag="0"/>
      <psa10 value="0.2317283023" flag="0"/>
      <psa30 value="0.0233477518" flag="0"/>
    </comp>
    <comp name="--.HHZ">
      <acc value="0.4610362914" flag="0"/>
      <vel value="0.1243619048" flag="0"/>
      <psa03 value="0.4737737736" flag="0"/>
      <psa10 value="0.1287474950" flag="0"/>
      <psa30 value="0.0200464939" flag="0"/>
    </comp>
  </station>
  <station code="GMB1" name="GMB1" netid="IV" insttype="" lat="38.1723" lon="15.8179">
    <comp name="--.HHE">
      <acc value="0.0347444762" flag="0"/>
      <vel value="0.0118524310" flag="0"/>
      <psa03 value="0.0537140805" flag="0"/>
      <psa10 value="0.0222547598" flag="0"/>
      <psa30 value="0.0036409719" flag="0"/>
    </comp>
    <comp name="--.HHZ">
      <acc value="0.0441026488" flag="0"/>
      <vel value="0.0336202191" flag="0"/>
      <psa03 value="0.0733224254" flag="0"/>
      <psa10 value="0.1071917166" flag="0"/>
      <psa30 value="0.0053409927" flag="0"/>
    </comp>
    <comp name="--.HHN">
      <acc value="0.0510034878" flag="0"/>
      <vel value="0.0498769410" flag="0"/>
      <psa03 value="0.1244914857" flag="0"/>
      <psa10 value="0.1207857679" flag="0"/>
      <psa30 value="0.0109170190" flag="0"/>
    </comp>
  </station>
  <station code="GRIS" name="GRIS" netid="IV" insttype="" lat="39.7405" lon="15.8531">
    <comp name="--.HNE">
      <acc value="0.1041191768" flag="0"/>
      <vel value="0.1856549291" flag="0"/>
      <psa03 value="0.2412053827" flag="0"/>
      <psa10 value="0.1786819837" flag="0"/>
      <psa30 value="0.0494334552" flag="0"/>
    </comp>
    <comp name="--.HNN">
      <acc value="0.1170010042" flag="0"/>
      <vel value="0.1814266206" flag="0"/>
      <psa03 value="0.2526848065" flag="0"/>
      <psa10 value="0.2542124352" flag="0"/>
      <psa30 value="0.0319830583" flag="0"/>
    </comp>
    <comp name="--.HNZ">
      <acc value="0.0591848134" flag="0"/>
      <vel value="0.1164272814" flag="0"/>
      <psa03 value="0.1941269855" flag="0"/>
      <psa10 value="0.1793874010" flag="0"/>
      <psa30 value="0.0435906262" flag="0"/>
    </comp>
  </station>
  <station code="IPNR" name="IPNR" netid="IV" insttype="" lat="38.6435" lon="15.0688">
    <comp name="--.HHN">
      <acc value="0.0335501025" flag="0"/>
      <vel value="0.0251855668" flag="0"/>
      <psa03 value="0.0951062864" flag="0"/>
      <psa10 value="0.0286977273" flag="0"/>
      <psa30 value="0.0090803317" flag="0"/>
    </comp>
    <comp name="--.HHE">
      <acc value="0.0292658719" flag="0"/>
      <vel value="0.0264452735" flag="0"/>
      <psa03 value="0.0891789671" flag="0"/>
      <psa10 value="0.0303127227" flag="0"/>
      <psa30 value="0.0085321912" flag="0"/>
    </comp>
    <comp name="--.HHZ">
      <acc value="0.0165377833" flag="0"/>
      <vel value="0.0104127841" flag="0"/>
      <psa03 value="0.0657338549" flag="0"/>
      <psa10 value="0.0224735365" flag="0"/>
      <psa30 value="0.0032179701" flag="0"/>
    </comp>
  </station>
  <station code="IST3" name="IST3" netid="IV" insttype="" lat="38.7992" lon="15.2304">
    <comp name="--.HHN">
      <acc value="0.1462468383" flag="0"/>
      <vel value="0.0566680689" flag="0"/>
      <psa03 value="0.2917454077" flag="0"/>
      <psa10 value="0.0588996606" flag="0"/>
      <psa30 value="0.0096223672" flag="0"/>
    </comp>
    <comp name="--.HHE">
      <acc value="0.1544404743" flag="0"/>
      <vel value="0.0491769535" flag="0"/>
      <psa03 value="0.3579689234" flag="0"/>
      <psa10 value="0.0818263289" flag="0"/>
      <psa30 value="0.0075811118" flag="0"/>
    </comp>
    <comp name="--.HHZ">
      <acc value="0.1340640747" flag="0"/>
      <vel value="0.0317264136" flag="0"/>
      <psa03 value="0.2240088939" flag="0"/>
      <psa10 value="0.0284390566" flag="0"/>
      <psa30 value="0.0041648911" flag="0"/>
    </comp>
  </station>
  <station code="ISTR" name="ISTR" netid="IV" insttype="" lat="38.7866" lon="15.1918">
    <comp name="--.HHE">
      <acc value="0.0742100739" flag="0"/>
      <vel value="0.0440738017" flag="0"/>
      <psa03 value="0.2125856643" flag="0"/>
      <psa10 value="0.0307929117" flag="0"/>
      <psa30 value="0.0039747162" flag="0"/>
    </comp>
    <comp name="--.HHN">
      <acc value="0.0756333358" flag="0"/>
      <vel value="0.0365263715" flag="0"/>
      <psa03 value="0.2558080491" flag="0"/>
      <psa10 value="0.0285103217" flag="0"/>
      <psa30 value="0.0058336070" flag="0"/>
    </comp>
    <comp name="--.HHZ">
      <acc value="0.0624671120" flag="0"/>
      <vel value="0.0233829016" flag="0"/>
      <psa03 value="0.1144607479" flag="0"/>
      <psa10 value="0.0193405932" flag="0"/>
      <psa30 value="0.0034053863" flag="0"/>
    </comp>
  </station>
  <station code="LTRZ" name="LTRZ" netid="IV" insttype="" lat="40.6033" lon="16.8191">
    <comp name="--.HNE">
      <acc value="0.1743569571" flag="0"/>
      <vel value="0.0929298950" flag="0"/>
      <psa03 value="0.4230424161" flag="0"/>
      <psa10 value="0.0553323667" flag="0"/>
      <psa30 value="0.0072462171" flag="0"/>
    </comp>
    <comp name="--.HNN">
      <acc value="0.1777002887" flag="0"/>
      <vel value="0.1023084377" flag="0"/>
      <psa03 value="0.3700862641" flag="0"/>
      <psa10 value="0.1050809751" flag="0"/>
      <psa30 value="0.0052697188" flag="0"/>
    </comp>
    <comp name="--.HNZ">
      <acc value="0.0946635870" flag="0"/>
      <vel value="0.0455645330" flag="0"/>
      <psa03 value="0.2134858356" flag="0"/>
      <psa10 value="0.0384084156" flag="0"/>
      <psa30 value="0.0053319470" flag="0"/>
    </comp>
  </station>
  <station code="MCEL" name="MCEL" netid="IV" insttype="" lat="40.3249" lon="15.8019">
    <comp name="--.HHE">
      <acc value="0.0282378407" flag="0"/>
      <vel value="0.0503427010" flag="0"/>
      <psa03 value="0.0882183696" flag="0"/>
      <psa10 value="0.0734363473" flag="0"/>
      <psa30 value="0.0256228413" flag="0"/>
    </comp>
    <comp name="--.HHN">
      <acc value="0.0321906263" flag="0"/>
      <vel value="0.0595873966" flag="0"/>
      <psa03 value="0.0696455197" flag="0"/>
      <psa10 value="0.1127202225" flag="0"/>
      <psa30 value="0.0144354240" flag="0"/>
    </comp>
    <comp name="--.HHZ">
      <acc value="0.0221595510" flag="0"/>
      <vel value="0.0341434606" flag="0"/>
      <psa03 value="0.0516629256" flag="0"/>
      <psa10 value="0.0331051116" flag="0"/>
      <psa30 value="0.0234672274" flag="0"/>
    </comp>
  </station>
  <station code="MESG" name="MESG" netid="IV" insttype="" lat="40.5894" lon="17.8504">
    <comp name="--.HHE">
      <acc value="0.0884206001" flag="0"/>
      <vel value="0.0573703518" flag="0"/>
      <psa03 value="0.2014385769" flag="0"/>
      <psa10 value="0.1149049101" flag="0"/>
      <psa30 value="0.0065163446" flag="0"/>
    </comp>
    <comp name="--.HHN">
      <acc value="0.1091232401" flag="0"/>
      <vel value="0.0582014759" flag="0"/>
      <psa03 value="0.1730700298" flag="0"/>
      <psa10 value="0.0856236065" flag="0"/>
      <psa30 value="0.0081971638" flag="0"/>
    </comp>
    <comp name="--.HHZ">
      <acc value="0.0426847398" flag="0"/>
      <vel value="0.0296205786" flag="0"/>
      <psa03 value="0.1073230060" flag="0"/>
      <psa10 value="0.0513700793" flag="0"/>
      <psa30 value="0.0044365304" flag="0"/>
    </comp>
  </station>
  <station code="MGR" name="MGR" netid="IV" insttype="" lat="40.1376" lon="15.5535">
    <comp name="--.HHE">
      <acc value="0.0108795596" flag="0"/>
      <vel value="0.0189942166" flag="0"/>
      <psa03 value="0.0277883969" flag="0"/>
      <psa10 value="0.0344450476" flag="0"/>
      <psa30 value="0.0074822627" flag="0"/>
    </comp>
    <comp name="--.HHN">
      <acc value="0.0125425937" flag="0"/>
      <vel value="0.0086864599" flag="0"/>
      <psa03 value="0.0330171055" flag="0"/>
      <psa10 value="0.0097744314" flag="0"/>
      <psa30 value="0.0018284601" flag="0"/>
    </comp>
    <comp name="--.HHZ">
      <acc value="0.0137696379" flag="0"/>
      <vel value="0.0114310996" flag="0"/>
      <psa03 value="0.0215204076" flag="0"/>
      <psa10 value="0.0237994924" flag="0"/>
      <psa30 value="0.0054770793" flag="0"/>
    </comp>
  </station>
  <station code="MIGL" name="MIGL" netid="IV" insttype="" lat="40.6044" lon="16.441">
    <comp name="--.HHE">
      <acc value="0.1578836696" flag="0"/>
      <vel value="0.1420551838" flag="0"/>
      <psa03 value="0.4769773966" flag="0"/>
      <psa10 value="0.1800821522" flag="0"/>
      <psa30 value="0.0607083460" flag="0"/>
    </comp>
    <comp name="--.HHN">
      <acc value="0.0873464324" flag="0"/>
      <vel value="0.0473699457" flag="0"/>
      <psa03 value="0.1125251406" flag="0"/>
      <psa10 value="0.0514667016" flag="0"/>
      <psa30 value="0.0075724000" flag="0"/>
    </comp>
    <comp name="--.HHZ">
      <acc value="0.2558041362" flag="0"/>
      <vel value="0.0881147769" flag="0"/>
      <psa03 value="0.2488869893" flag="0"/>
      <psa10 value="0.1580861706" flag="0"/>
      <psa30 value="0.0267023921" flag="0"/>
    </comp>
  </station>
  <station code="MMN" name="MMN" netid="IV" insttype="" lat="39.891" lon="15.9904">
    <comp name="--.HHE">
      <acc value="0.0975699690" flag="0"/>
      <vel value="0.1496064228" flag="0"/>
      <psa03 value="0.3038760869" flag="0"/>
      <psa10 value="0.0742021944" flag="0"/>
      <psa30 value="0.0668126211" flag="0"/>
    </comp>
    <comp name="--.HHN">
      <acc value="0.1547259674" flag="0"/>
      <vel value="0.2050417761" flag="0"/>
      <psa03 value="0.5497897083" flag="0"/>
      <psa10 value="0.1981210585" flag="0"/>
      <psa30 value="0.0645995392" flag="0"/>
    </comp>
    <comp name="--.HHZ">
      <acc value="0.0863049046" flag="0"/>
      <vel value="0.0500823597" flag="0"/>
      <psa03 value="0.2258501401" flag="0"/>
      <psa10 value="0.0631171255" flag="0"/>
      <psa30 value="0.0277915607" flag="0"/>
    </comp>
  </station>
  <station code="MPAZ" name="MPAZ" netid="IV" insttype="" lat="37.9531" lon="16.0067">
    <comp name="--.HHE">
      <acc value="0.0436049310" flag="0"/>
      <vel value="0.0282431756" flag="0"/>
      <psa03 value="0.1222060437" flag="0"/>
      <psa10 value="0.0617814900" flag="0"/>
      <psa30 value="0.0106247326" flag="0"/>
    </comp>
    <comp name="--.HHN">
      <acc value="0.0416781771" flag="0"/>
      <vel value="0.0200030697" flag="0"/>
      <psa03 value="0.1150817484" flag="0"/>
      <psa10 value="0.0396328723" flag="0"/>
      <psa30 value="0.0047338552" flag="0"/>
    </comp>
    <comp name="--.HHZ">
      <acc value="0.0479081782" flag="0"/>
      <vel value="0.0177699388" flag="0"/>
      <psa03 value="0.0589290487" flag="0"/>
      <psa10 value="0.0226761612" flag="0"/>
      <psa30 value="0.0064353816" flag="0"/>
    </comp>
  </station>
  <station code="MRCB" name="MRCB" netid="IV" insttype="" lat="38.162" lon="15.703">
    <comp name="--.HHN">
      <acc value="0.0331991895" flag="0"/>
      <vel value="0.0359714810" flag="0"/>
      <psa03 value="0.0939165652" flag="0"/>
      <psa10 value="0.0748131168" flag="0"/>
      <psa30 value="0.0062324907" flag="0"/>
    </comp>
    <comp name="--.HHE">
      <acc value="0.0255579512" flag="0"/>
      <vel value="0.0395432494" flag="0"/>
      <psa03 value="0.0625385930" flag="0"/>
      <psa10 value="0.0895336645" flag="0"/>
      <psa30 value="0.0076138139" flag="0"/>
