<stationlist created="1722618084">
	<station code="CSMBE" name="CSMBE" netid="7C" source="Urban Seismic Network (RUSN-CAL-INGV)" insttype="" lat="39.2895" lon="16.2642">
		<comp name=".HNE" depth="0.0">
			<acc value="0.5017863725106" flag="0"/>
			<vel value="0.336555557462" flag="0"/>
			<psa03 value="1.83325627756297" flag="0"/>
			<psa10 value="0.362669455071496" flag="0"/>
			<psa30 value="0.0299139683202428" flag="0"/>
		</comp>
		<comp name=".HNN" depth="0.0">
			<acc value="0.47442914797218" flag="0"/>
			<vel value="0.277788715285" flag="0"/>
			<psa03 value="1.22616981106651" flag="0"/>
			<psa10 value="0.219707899570037" flag="0"/>
			<psa30 value="0.0231853325811588" flag="0"/>
		</comp>
		<comp name=".HNZ" depth="0.0">
			<acc value="0.43357228664316" flag="0"/>
			<vel value="0.134364035648" flag="0"/>
			<psa03 value="0.483096794456318" flag="0"/>
			<psa10 value="0.231274115775003" flag="0"/>
			<psa30 value="0.0136223232453889" flag="0"/>
		</comp>
	</station>
	<station code="SRN" name="SRN" netid="AC" source="Albanian Seismological Network (AC)" insttype="" lat="39.880001" lon="20.0005">
		<comp name="00.HHE" depth="0.0">
			<acc value="0.0014324307235218" flag="0"/>
			<vel value="0.00148189260139" flag="0"/>
			<psa03 value="0.00302633166451645" flag="0"/>
			<psa10 value="0.00265558279432678" flag="0"/>
			<psa30 value="0.00041055573896968" flag="0"/>
		</comp>
		<comp name="00.HHN" depth="0.0">
			<acc value="0.0014733334942338" flag="0"/>
			<vel value="0.00156483896369" flag="0"/>
			<psa03 value="0.00421848648527564" flag="0"/>
			<psa10 value="0.00205786772988935" flag="0"/>
			<psa30 value="0.000394130640470503" flag="0"/>
		</comp>
		<comp name="00.HHZ" depth="0.0">
			<acc value="0.0016647411722088" flag="0"/>
			<vel value="0.0016662842266" flag="0"/>
			<psa03 value="0.00304228845074114" flag="0"/>
			<psa10 value="0.00251793648843356" flag="0"/>
			<psa30 value="0.000356067493974092" flag="0"/>
		</comp>
	</station>
	<station code="VLO" name="VLO" netid="AC" source="Albanian Seismological Network (AC)" insttype="" lat="40.468601" lon="19.495501">
		<comp name="00.HHE" depth="0.0">
			<acc value="0.027205292226786" flag="0"/>
			<vel value="0.0113258349676" flag="0"/>
			<psa03 value="0.0500985375321416" flag="0"/>
			<psa10 value="0.0189902342598208" flag="0"/>
			<psa30 value="0.00254087290369341" flag="0"/>
		</comp>
		<comp name="00.HHN" depth="0.0">
			<acc value="0.028842777571974" flag="0"/>
			<vel value="0.0144234324907" flag="0"/>
			<psa03 value="0.0420529446553534" flag="0"/>
			<psa10 value="0.0255526027345326" flag="0"/>
			<psa30 value="0.002209537621024" flag="0"/>
		</comp>
		<comp name="00.HHZ" depth="0.0">
			<acc value="0.013373104745406" flag="0"/>
			<vel value="0.00635517845235" flag="0"/>
			<psa03 value="0.0216322702713065" flag="0"/>
			<psa10 value="0.00796990984240586" flag="0"/>
			<psa30 value="0.00134552767627236" flag="0"/>
		</comp>
	</station>
	<station code="MARCO" name="MARCO" netid="GE" source="GEOFON" insttype="" lat="40.29724" lon="15.80632">
		<comp name=".HLE" depth="1.0">
			<acc value="0.036775201768416" flag="0"/>
			<vel value="0.0715184229878" flag="0"/>
			<psa03 value="0.118888875804604" flag="0"/>
			<psa10 value="0.0860405922668478" flag="0"/>
			<psa30 value="0.0366392605045168" flag="0"/>
		</comp>
		<comp name=".HLN" depth="1.0">
			<acc value="0.047417593017024" flag="0"/>
			<vel value="0.0733641274239" flag="0"/>
			<psa03 value="0.122765184674186" flag="0"/>
			<psa10 value="0.113049438970321" flag="0"/>
			<psa30 value="0.0221238839320611" flag="0"/>
		</comp>
		<comp name=".HLZ" depth="1.0">
			<acc value="0.0087259820124792" flag="0"/>
			<vel value="0.0145013962654" flag="0"/>
			<psa03 value="0.0288785458744392" flag="0"/>
			<psa10 value="0.0224109708668351" flag="0"/>
			<psa30 value="0.0070120753489098" flag="0"/>
		</comp>
	</station>
	<station code="ACR" name="ACR" netid="IT" source="Italian Strong Motion Network (RAN)" insttype="" lat="39.4889" lon="16.3798">
		<comp name=".HNE" depth="0.0">
			<acc value="0.68689179924078" flag="0"/>
			<vel value="0.319290217685" flag="0"/>
			<psa03 value="1.83490738694102" flag="0"/>
			<psa10 value="0.198793844116621" flag="0"/>
			<psa30 value="0.0158225481661768" flag="0"/>
		</comp>
		<comp name=".HNN" depth="0.0">
			<acc value="0.73539664374012" flag="0"/>
			<vel value="0.319197152609" flag="0"/>
			<psa03 value="1.65831635532089" flag="0"/>
			<psa10 value="0.487462752014219" flag="0"/>
			<psa30 value="0.029727279286375" flag="0"/>
		</comp>
		<comp name=".HNZ" depth="0.0">
			<acc value="0.48883994977338" flag="0"/>
			<vel value="0.182687588759" flag="0"/>
			<psa03 value="1.28520047155589" flag="0"/>
			<psa10 value="0.172879657428983" flag="0"/>
			<psa30 value="0.00850328080062674" flag="0"/>
		</comp>
	</station>
	<station code="AGNN" name="AGNN" netid="IT" source="Italian Strong Motion Network (RAN)" insttype="" lat="41.808" lon="14.3706">
		<comp name=".HNE" depth="0.0">
			<acc value="0.017423065885656" flag="0"/>
			<vel value="0.00588678591914" flag="0"/>
			<psa03 value="0.00476325499537691" flag="0"/>
			<psa10 value="0.00647268409606183" flag="0"/>
			<psa30 value="0.00419881981787158" flag="0"/>
		</comp>
		<comp name=".HNN" depth="0.0">
			<acc value="0.0071076485322144" flag="0"/>
			<vel value="0.00795919299556" flag="0"/>
			<psa03 value="0.0056446278351393" flag="0"/>
			<psa10 value="0.00588587241015614" flag="0"/>
			<psa30 value="0.00480318360400049" flag="0"/>
		</comp>
		<comp name=".HNZ" depth="0.0">
			<acc value="0.0062243956812522" flag="0"/>
			<vel value="0.00632463478808" flag="0"/>
			<psa03 value="0.00364322799961995" flag="0"/>
			<psa10 value="0.00422832729344964" flag="0"/>
			<psa30 value="0.0036932859120674" flag="0"/>
		</comp>
	</station>
	<station code="ALD" name="ALD" netid="IT" source="Italian Strong Motion Network (RAN)" insttype="" lat="39.9298" lon="16.4653">
		<comp name=".HNE" depth="0.0">
			<acc value="0.12411854209278" flag="0"/>
			<vel value="0.0818713719891" flag="0"/>
			<psa03 value="0.411612433970105" flag="0"/>
			<psa10 value="0.107035915604298" flag="0"/>
			<psa30 value="0.0137537802871287" flag="0"/>
		</comp>
		<comp name=".HNN" depth="0.0">
			<acc value="0.10681237059372" flag="0"/>
			<vel value="0.0765118178514" flag="0"/>
			<psa03 value="0.255801528929362" flag="0"/>
			<psa10 value="0.10087873522107" flag="0"/>
			<psa30 value="0.011860189012636" flag="0"/>
		</comp>
		<comp name=".HNZ" depth="0.0">
			<acc value="0.075930694062684" flag="0"/>
			<vel value="0.054762920391" flag="0"/>
			<psa03 value="0.235098490787664" flag="0"/>
			<psa10 value="0.0616140691296642" flag="0"/>
			<psa30 value="0.00768017627398671" flag="0"/>
		</comp>
	</station>
	<station code="AMN" name="AMN" netid="IT" source="Italian Strong Motion Network (RAN)" insttype="" lat="39.1367" lon="16.0796">
		<comp name=".HGE" depth="0.0">
			<acc value="0.91849427019342" flag="0"/>
			<vel value="0.497227551634" flag="0"/>
			<psa03 value="1.93686097420123" flag="0"/>
			<psa10 value="0.554777851311795" flag="0"/>
			<psa30 value="0.0466699983251291" flag="0"/>
		</comp>
		<comp name=".HGN" depth="0.0">
			<acc value="0.78924803501088" flag="0"/>
			<vel value="0.465679045328" flag="0"/>
			<psa03 value="1.6366017501679" flag="0"/>
			<psa10 value="0.590062768760728" flag="0"/>
			<psa30 value="0.0495574596052572" flag="0"/>
		</comp>
		<comp name=".HGZ" depth="0.0">
			<acc value="0.68042702222004" flag="0"/>
			<vel value="0.282657364397" flag="0"/>
			<psa03 value="1.36848332196975" flag="0"/>
			<psa10 value="0.159972577398078" flag="0"/>
			<psa30 value="0.0192117060145484" flag="0"/>
		</comp>
	</station>
	<station code="ARE" name="ARE" netid="IT" source="Italian Strong Motion Network (RAN)" insttype="" lat="38.5614" lon="16.2088">
		<comp name=".HGE" depth="0.0">
			<acc value="0.1935901640139" flag="0"/>
			<vel value="0.120964719776" flag="0"/>
			<psa03 value="0.709737599965732" flag="0"/>
			<psa10 value="0.184572632030982" flag="0"/>
			<psa30 value="0.0153068306690666" flag="0"/>
		</comp>
		<comp name=".HGN" depth="0.0">
			<acc value="0.21182002102662" flag="0"/>
			<vel value="0.110747416073" flag="0"/>
			<psa03 value="0.763626003141063" flag="0"/>
			<psa10 value="0.168867251626675" flag="0"/>
			<psa30 value="0.0132139153570358" flag="0"/>
		</comp>
		<comp name=".HGZ" depth="0.0">
			<acc value="0.28388818119438" flag="0"/>
			<vel value="0.0931569719341" flag="0"/>
			<psa03 value="0.573594414482757" flag="0"/>
			<psa10 value="0.0908053204068049" flag="0"/>
			<psa30 value="0.0126610062295294" flag="0"/>
		</comp>
	</station>
	<station code="ARI" name="ARI" netid="IT" source="Italian Strong Motion Network (RAN)" insttype="" lat="41.1546" lon="15.0903">
		<comp name=".HGE" depth="0.0">
			<acc value="0.016006066586268" flag="0"/>
			<vel value="0.0366760317368" flag="0"/>
			<psa03 value="0.0346019067898463" flag="0"/>
			<psa10 value="0.0391957027729429" flag="0"/>
			<psa30 value="0.0204685192722713" flag="0"/>
		</comp>
		<comp name=".HGN" depth="0.0">
			<acc value="0.011485497365598" flag="0"/>
			<vel value="0.030486820636" flag="0"/>
			<psa03 value="0.0299614848013418" flag="0"/>
			<psa10 value="0.0310903452077797" flag="0"/>
			<psa30 value="0.012062451578217" flag="0"/>
		</comp>
		<comp name=".HGZ" depth="0.0">
			<acc value="0.012464137029618" flag="0"/>
			<vel value="0.0280659278914" flag="0"/>
			<psa03 value="0.0211257796875689" flag="0"/>
			<psa10 value="0.0240352634682598" flag="0"/>
			<psa30 value="0.0117578030634066" flag="0"/>
		</comp>
	</station>
	<station code="ARL" name="ARL" netid="IT" source="Italian Strong Motion Network (RAN)" insttype="" lat="41.057" lon="14.5429">
		<comp name=".HNE" depth="0.0">
			<acc value="0.0026115098310282" flag="0"/>
			<vel value="0.0090987770031" flag="0"/>
			<psa03 value="0.00508436904105483" flag="0"/>
			<psa10 value="0.0060372933785388" flag="0"/>
			<psa30 value="0.00436628591167959" flag="0"/>
		</comp>
		<comp name=".HNN" depth="0.0">
			<acc value="0.003618830411907" flag="0"/>
			<vel value="0.00732251744573" flag="0"/>
			<psa03 value="0.00938418676047419" flag="0"/>
			<psa10 value="0.0076018253023692" flag="0"/>
			<psa30 value="0.0051240594437811" flag="0"/>
		</comp>
		<comp name=".HNZ" depth="0.0">
			<acc value="0.0031175292257646" flag="0"/>
			<vel value="0.00739491241418" flag="0"/>
			<psa03 value="0.00698790822711906" flag="0"/>
			<psa10 value="0.00678376485989481" flag="0"/>
			<psa30 value="0.00268460263341673" flag="0"/>
		</comp>
	</station>
	<station code="ARMO" name="ARMO" netid="IT" source="Italian Strong Motion Network (RAN)" insttype="" lat="38.0761" lon="15.7125">
		<comp name=".HNE" depth="0.0">
			<acc value="0.09786739759428" flag="0"/>
			<vel value="0.0768262779494" flag="0"/>
			<psa03 value="0.273071527148394" flag="0"/>
			<psa10 value="0.160570397000797" flag="0"/>
			<psa30 value="0.0105341678369274" flag="0"/>
		</comp>
		<comp name=".HNN" depth="0.0">
			<acc value="0.095823440851692" flag="0"/>
			<vel value="0.0867120661824" flag="0"/>
			<psa03 value="0.237956596790145" flag="0"/>
			<psa10 value="0.145227230591201" flag="0"/>
			<psa30 value="0.0107007438717552" flag="0"/>
		</comp>
		<comp name=".HNZ" depth="0.0">
			<acc value="0.11010567125652" flag="0"/>
			<vel value="0.0688170158274" flag="0"/>
			<psa03 value="0.39739432542396" flag="0"/>
			<psa10 value="0.0933515365813522" flag="0"/>
			<psa30 value="0.00695025167007368" flag="0"/>
		</comp>
	</station>
	<station code="ARR" name="ARR" netid="IT" source="Italian Strong Motion Network (RAN)" insttype="" lat="41.1418" lon="15.0819">
		<comp name=".HNE" depth="0.0">
			<acc value="0.04745761865118" flag="0"/>
			<vel value="0.0477790491791" flag="0"/>
			<psa03 value="0.0470699566952338" flag="0"/>
			<psa10 value="0.0573232711355679" flag="0"/>
			<psa30 value="0.0223200702617804" flag="0"/>
		</comp>
		<comp name=".HNN" depth="0.0">
			<acc value="0.047154698402562" flag="0"/>
			<vel value="0.0297425451929" flag="0"/>
			<psa03 value="0.0268906720000342" flag="0"/>
			<psa10 value="0.0413470552893132" flag="0"/>
			<psa30 value="0.0145284207699139" flag="0"/>
		</comp>
		<comp name=".HNZ" depth="0.0">
			<acc value="0.028371606647394" flag="0"/>
			<vel value="0.0273607738338" flag="0"/>
			<psa03 value="0.0225927466585971" flag="0"/>
			<psa10 value="0.0317383225081017" flag="0"/>
			<psa30 value="0.0179188353682571" flag="0"/>
		</comp>
	</station>
	<station code="ASR" name="ASR" netid="IT" source="Italian Strong Motion Network (RAN)" insttype="" lat="41.199" lon="15.563">
		<comp name=".HNE" depth="0.0">
			<acc value="0.028019818762734" flag="0"/>
			<vel value="0.0412079573945" flag="0"/>
			<psa03 value="0.0430470131116907" flag="0"/>
			<psa10 value="0.0481365125578222" flag="0"/>
			<psa30 value="0.0235291970271466" flag="0"/>
		</comp>
		<comp name=".HNN" depth="0.0">
			<acc value="0.023531849172096" flag="0"/>
			<vel value="0.0345814317721" flag="0"/>
			<psa03 value="0.0498615114138841" flag="0"/>
			<psa10 value="0.0481948626730762" flag="0"/>
			<psa30 value="0.0201664875974945" flag="0"/>
		</comp>
		<comp name=".HNZ" depth="0.0">
			<acc value="0.016908085254828" flag="0"/>
			<vel value="0.0223536036182" flag="0"/>
			<psa03 value="0.0540001241180568" flag="0"/>
			<psa10 value="0.0377331283845861" flag="0"/>
			<psa30 value="0.0105558209380204" flag="0"/>
		</comp>
	</station>
	<station code="AUG1" name="AUG1" netid="IT" source="Italian Strong Motion Network (RAN)" insttype="" lat="37.2432" lon="15.2555">
		<comp name=".HNE" depth="0.0">
			<acc value="0.012323222314284" flag="0"/>
			<vel value="0.00785391213426" flag="0"/>
			<psa03 value="0.0382687981408781" flag="0"/>
			<psa10 value="0.0128984366456365" flag="0"/>
			<psa30 value="0.00248418977371255" flag="0"/>
		</comp>
		<comp name=".HNN" depth="0.0">
			<acc value="0.016943546614812" flag="0"/>
			<vel value="0.00780261913176" flag="0"/>
			<psa03 value="0.0524953421419908" flag="0"/>
			<psa10 value="0.011043815036026" flag="0"/>
			<psa30 value="0.00257754699984027" flag="0"/>
		</comp>
		<comp name=".HNZ" depth="0.0">
			<acc value="0.02305870228281" flag="0"/>
			<vel value="0.00355443818181" flag="0"/>
			<psa03 value="0.0133513050313485" flag="0"/>
			<psa10 value="0.00542990126681653" flag="0"/>
			<psa30 value="0.00106220526171734" flag="0"/>
		</comp>
	</station>
	<station code="AVHO" name="AVHO" netid="IT" source="Italian Strong Motion Network (RAN)" insttype="" lat="40.9221" lon="14.7985">
		<comp name=".HNE" depth="0.0">
			<acc value="0.016087432903146" flag="0"/>
			<vel value="0.0261266904607" flag="0"/>
			<psa03 value="0.0201460272837647" flag="0"/>
			<psa10 value="0.069111993330567" flag="0"/>
			<psa30 value="0.0140038926891537" flag="0"/>
		</comp>
		<comp name=".HNN" depth="0.0">
			<acc value="0.014628629410392" flag="0"/>
			<vel value="0.022004227559" flag="0"/>
			<psa03 value="0.019062417739551" flag="0"/>
			<psa10 value="0.0530033224598687" flag="0"/>
			<psa30 value="0.00852401217396404" flag="0"/>
		</comp>
		<comp name=".HNZ" depth="0.0">
			<acc value="0.008833598889054" flag="0"/>
			<vel value="0.0180652468291" flag="0"/>
			<psa03 value="0.012131871385271" flag="0"/>
			<psa10 value="0.0235229964080847" flag="0"/>
			<psa30 value="0.0082009107700711" flag="0"/>
		</comp>
	</station>
	<station code="AVL" name="AVL" netid="IT" source="Italian Strong Motion Network (RAN)" insttype="" lat="40.9228" lon="14.787">
		<comp name=".HNE" depth="0.0">
			<acc value="0.015924243342642" flag="0"/>
			<vel value="0.0290655962561" flag="0"/>
			<psa03 value="0.015408417867493" flag="0"/>
			<psa10 value="0.0330351959196095" flag="0"/>
			<psa30 value="0.0123482846799025" flag="0"/>
		</comp>
		<comp name=".HNN" depth="0.0">
			<acc value="0.01199360989242" flag="0"/>
			<vel value="0.0187458824389" flag="0"/>
			<psa03 value="0.0168031730235919" flag="0"/>
			<psa10 value="0.0363837327437284" flag="0"/>
			<psa30 value="0.007635041617367" flag="0"/>
		</comp>
		<comp name=".HNZ" depth="0.0">
			<acc value="0.0079101289675614" flag="0"/>
			<vel value="0.0166619011606" flag="0"/>
			<psa03 value="0.0126999923538166" flag="0"/>
			<psa10 value="0.0200009093370955" flag="0"/>
			<psa30 value="0.00624544581347858" flag="0"/>
		</comp>
	</station>
	<station code="AVT" name="AVT" netid="IT" source="Italian Strong Motion Network (RAN)" insttype="" lat="40.3217" lon="17.6994">
		<comp name=".HGE" depth="0.0">
			<acc value="0.100971147623388" flag="0"/>
			<vel value="0.111223026699" flag="0"/>
			<psa03 value="0.289749694495193" flag="0"/>
			<psa10 value="0.202699157824364" flag="0"/>
			<psa30 value="0.0120901959161598" flag="0"/>
		</comp>
		<comp name=".HGN" depth="0.0">
			<acc value="0.07888109919552" flag="0"/>
			<vel value="0.0706872861064" flag="0"/>
			<psa03 value="0.306935999670468" flag="0"/>
			<psa10 value="0.0942475834398461" flag="0"/>
			<psa30 value="0.0108534173189737" flag="0"/>
		</comp>
		<comp name=".HGZ" depth="0.0">
			<acc value="0.05283921845139" flag="0"/>
			<vel value="0.0297908557408" flag="0"/>
			<psa03 value="0.119964519977396" flag="0"/>
			<psa10 value="0.0363668303740446" flag="0"/>
			<psa30 value="0.00463321026076236" flag="0"/>
		</comp>
	</station>
	<station code="BAN" name="BAN" netid="IT" source="Italian Strong Motion Network (RAN)" insttype="" lat="40.8138" lon="14.1652">
		<comp name=".HNE" depth="0.0">
			<acc value="0.012331669434696" flag="0"/>
			<vel value="0.0300624561174" flag="0"/>
			<psa03 value="0.0138163514634069" flag="0"/>
			<psa10 value="0.0234106577161679" flag="0"/>
			<psa30 value="0.0112995252047595" flag="0"/>
		</comp>
		<comp name=".HNN" depth="0.0">
			<acc value="0.016010504081682" flag="0"/>
			<vel value="0.0334385535632" flag="0"/>
			<psa03 value="0.0131513529834288" flag="0"/>
			<psa10 value="0.0239098139078157" flag="0"/>
			<psa30 value="0.0136672520550621" flag="0"/>
		</comp>
		<comp name=".HNZ" depth="0.0">
			<acc value="0.05114501804355" flag="0"/>
			<vel value="0.0127261035048" flag="0"/>
			<psa03 value="0.0261616393302204" flag="0"/>
			<psa10 value="0.0213335694942662" flag="0"/>
			<psa30 value="0.00495336980309435" flag="0"/>
		</comp>
	</station>
	<station code="BCL" name="BCL" netid="IT" source="Italian Strong Motion Network (RAN)" insttype="" lat="38.1827" lon="15.2316">
		<comp name=".HGE" depth="0.0">
			<acc value="0.062278504702326" flag="0"/>
			<vel value="0.121617515336" flag="0"/>
			<psa03 value="0.166682718995363" flag="0"/>
			<psa10 value="0.225865867505272" flag="0"/>
			<psa30 value="0.0443167891031255" flag="0"/>
		</comp>
		<comp name=".HGN" depth="0.0">
			<acc value="0.07315716992016" flag="0"/>
			<vel value="0.115894047575" flag="0"/>
			<psa03 value="0.159231683734389" flag="0"/>
			<psa10 value="0.231139526859381" flag="0"/>
			<psa30 value="0.0429665596570241" flag="0"/>
		</comp>
		<comp name=".HGZ" depth="0.0">
			<acc value="0.053614351274088" flag="0"/>
			<vel value="0.0637847149995" flag="0"/>
			<psa03 value="0.184932709217815" flag="0"/>
			<psa10 value="0.095606845984403" flag="0"/>
			<psa30 value="0.0133436064484439" flag="0"/>
		</comp>
	</station>
	<station code="BCLI" name="BCLI" netid="IT" source="Italian Strong Motion Network (RAN)" insttype="" lat="40.7968" lon="14.0777">
		<comp name=".HNE" depth="0.0">
			<acc value="0.018192362717766" flag="0"/>
			<vel value="0.0327717238754" flag="0"/>
			<psa03 value="0.0301237715937048" flag="0"/>
			<psa10 value="0.0474012088473978" flag="0"/>
			<psa30 value="0.0189329042119746" flag="0"/>
		</comp>
		<comp name=".HNN" depth="0.0">
			<acc value="0.022165255495656" flag="0"/>
			<vel value="0.0272160119884" flag="0"/>
			<psa03 value="0.0257179250404989" flag="0"/>
			<psa10 value="0.0287015250851685" flag="0"/>
			<psa30 value="0.0164380972765849" flag="0"/>
		</comp>
