<stationlist created="1722598287">
	<station code="CSMBE" name="CSMBE" netid="7C" source="Urban Seismic Network (RUSN-CAL-INGV)" insttype="" lat="39.2895" lon="16.2642">
		<comp name=".HNE" depth="0.0">
			<acc value="0.5017863725106" flag="0"/>
			<vel value="0.336555557462" flag="0"/>
			<psa03 value="1.83325627756297" flag="0"/>
			<psa10 value="0.362669455071496" flag="0"/>
			<psa30 value="0.0299139683202428" flag="0"/>
		</comp>
		<comp name=".HNN" depth="0.0">
			<acc value="0.47442914797218" flag="0"/>
			<vel value="0.277788715285" flag="0"/>
			<psa03 value="1.22616981106651" flag="0"/>
			<psa10 value="0.219707899570037" flag="0"/>
			<psa30 value="0.0231853325811588" flag="0"/>
		</comp>
		<comp name=".HNZ" depth="0.0">
			<acc value="0.43357228664316" flag="0"/>
			<vel value="0.134364035648" flag="0"/>
			<psa03 value="0.483096794456318" flag="0"/>
			<psa10 value="0.231274115775003" flag="0"/>
			<psa30 value="0.0136223232453889" flag="0"/>
		</comp>
	</station>
	<station code="SRN" name="SRN" netid="AC" source="Albanian Seismological Network (AC)" insttype="" lat="39.880001" lon="20.0005">
		<comp name="00.HHE" depth="0.0">
			<acc value="0.0014324307235218" flag="0"/>
			<vel value="0.00148189260139" flag="0"/>
			<psa03 value="0.00302633166451645" flag="0"/>
			<psa10 value="0.00265558279432678" flag="0"/>
			<psa30 value="0.00041055573896968" flag="0"/>
		</comp>
		<comp name="00.HHN" depth="0.0">
			<acc value="0.0014733334942338" flag="0"/>
			<vel value="0.00156483896369" flag="0"/>
			<psa03 value="0.00421848648527564" flag="0"/>
			<psa10 value="0.00205786772988935" flag="0"/>
			<psa30 value="0.000394130640470503" flag="0"/>
		</comp>
		<comp name="00.HHZ" depth="0.0">
			<acc value="0.0016647411722088" flag="0"/>
			<vel value="0.0016662842266" flag="0"/>
			<psa03 value="0.00304228845074114" flag="0"/>
			<psa10 value="0.00251793648843356" flag="0"/>
			<psa30 value="0.000356067493974092" flag="0"/>
		</comp>
	</station>
	<station code="VLO" name="VLO" netid="AC" source="Albanian Seismological Network (AC)" insttype="" lat="40.468601" lon="19.495501">
		<comp name="00.HHE" depth="0.0">
			<acc value="0.027205292226786" flag="0"/>
			<vel value="0.0113258349676" flag="0"/>
			<psa03 value="0.0500985375321416" flag="0"/>
			<psa10 value="0.0189902342598208" flag="0"/>
			<psa30 value="0.00254087290369341" flag="0"/>
		</comp>
		<comp name="00.HHN" depth="0.0">
			<acc value="0.028842777571974" flag="0"/>
			<vel value="0.0144234324907" flag="0"/>
			<psa03 value="0.0420529446553534" flag="0"/>
			<psa10 value="0.0255526027345326" flag="0"/>
			<psa30 value="0.002209537621024" flag="0"/>
		</comp>
		<comp name="00.HHZ" depth="0.0">
			<acc value="0.013373104745406" flag="0"/>
			<vel value="0.00635517845235" flag="0"/>
			<psa03 value="0.0216322702713065" flag="0"/>
			<psa10 value="0.00796990984240586" flag="0"/>
			<psa30 value="0.00134552767627236" flag="0"/>
		</comp>
	</station>
	<station code="MARCO" name="MARCO" netid="GE" source="GEOFON" insttype="" lat="40.29724" lon="15.80632">
		<comp name=".HLE" depth="1.0">
			<acc value="0.036775201768416" flag="0"/>
			<vel value="0.0715184229878" flag="0"/>
			<psa03 value="0.118888875804604" flag="0"/>
			<psa10 value="0.0860405922668478" flag="0"/>
			<psa30 value="0.0366392605045168" flag="0"/>
		</comp>
		<comp name=".HLN" depth="1.0">
			<acc value="0.047417593017024" flag="0"/>
			<vel value="0.0733641274239" flag="0"/>
			<psa03 value="0.122765184674186" flag="0"/>
			<psa10 value="0.113049438970321" flag="0"/>
			<psa30 value="0.0221238839320611" flag="0"/>
		</comp>
		<comp name=".HLZ" depth="1.0">
			<acc value="0.0087259820124792" flag="0"/>
			<vel value="0.0145013962654" flag="0"/>
			<psa03 value="0.0288785458744392" flag="0"/>
			<psa10 value="0.0224109708668351" flag="0"/>
			<psa30 value="0.0070120753489098" flag="0"/>
		</comp>
	</station>
	<station code="ACR" name="ACR" netid="IT" source="Italian Strong Motion Network (RAN)" insttype="" lat="39.4889" lon="16.3798">
		<comp name=".HNE" depth="0.0">
			<acc value="0.68689179924078" flag="0"/>
			<vel value="0.319290217685" flag="0"/>
			<psa03 value="1.83490738694102" flag="0"/>
			<psa10 value="0.198793844116621" flag="0"/>
			<psa30 value="0.0158225481661768" flag="0"/>
		</comp>
		<comp name=".HNN" depth="0.0">
			<acc value="0.73539664374012" flag="0"/>
			<vel value="0.319197152609" flag="0"/>
			<psa03 value="1.65831635532089" flag="0"/>
			<psa10 value="0.487462752014219" flag="0"/>
			<psa30 value="0.029727279286375" flag="0"/>
		</comp>
		<comp name=".HNZ" depth="0.0">
			<acc value="0.48883994977338" flag="0"/>
			<vel value="0.182687588759" flag="0"/>
			<psa03 value="1.28520047155589" flag="0"/>
			<psa10 value="0.172879657428983" flag="0"/>
			<psa30 value="0.00850328080062674" flag="0"/>
		</comp>
	</station>
	<station code="COR" name="COR" netid="IT" source="Italian Strong Motion Network (RAN)" insttype="" lat="39.1179" lon="16.38">
		<comp name=".HGE" depth="0.0">
			<acc value="0.42630270036576" flag="0"/>
			<vel value="0.281869938373" flag="0"/>
			<psa03 value="1.15738992140039" flag="0"/>
			<psa10 value="0.258531836465171" flag="0"/>
			<psa30 value="0.0233079157016887" flag="0"/>
		</comp>
		<comp name=".HGN" depth="0.0">
			<acc value="0.81996072344808" flag="0"/>
			<vel value="0.368000795594" flag="0"/>
			<psa03 value="1.62708045276243" flag="0"/>
			<psa10 value="0.219351955990529" flag="0"/>
			<psa30 value="0.0321860188324631" flag="0"/>
		</comp>
		<comp name=".HGZ" depth="0.0">
			<acc value="0.7386865543962" flag="0"/>
			<vel value="0.193282025291" flag="0"/>
			<psa03 value="0.769556562677765" flag="0"/>
			<psa10 value="0.29595367547871" flag="0"/>
			<psa30 value="0.0214909686711949" flag="0"/>
		</comp>
	</station>
	<station code="COS" name="COS" netid="IT" source="Italian Strong Motion Network (RAN)" insttype="" lat="39.289" lon="16.2576">
		<comp name=".HNE" depth="0.0">
			<acc value="0.60689248841094" flag="0"/>
			<vel value="0.458654985451" flag="0"/>
			<psa03 value="2.50676989453515" flag="0"/>
			<psa10 value="0.558478416455483" flag="0"/>
			<psa30 value="0.0312400094973285" flag="0"/>
		</comp>
		<comp name=".HNN" depth="0.0">
			<acc value="0.77382552069846" flag="0"/>
			<vel value="0.321008992316" flag="0"/>
			<psa03 value="2.64965235979846" flag="0"/>
			<psa10 value="0.356572541180732" flag="0"/>
			<psa30 value="0.0260828928636661" flag="0"/>
		</comp>
		<comp name=".HNZ" depth="0.0">
			<acc value="0.40004039362068" flag="0"/>
			<vel value="0.199843417893" flag="0"/>
			<psa03 value="1.17904460592005" flag="0"/>
			<psa10 value="0.216785075947449" flag="0"/>
			<psa30 value="0.0171159721824688" flag="0"/>
		</comp>
	</station>
	<station code="CRN" name="CRN" netid="IT" source="Italian Strong Motion Network (RAN)" insttype="" lat="39.0777" lon="17.1113">
		<comp name=".HGE" depth="0.0">
			<acc value="0.3964084467063" flag="0"/>
			<vel value="0.42302918288" flag="0"/>
			<psa03 value="0.778082794168666" flag="0"/>
			<psa10 value="0.54125145525091" flag="0"/>
			<psa30 value="0.0874406525139917" flag="0"/>
		</comp>
		<comp name=".HGN" depth="0.0">
			<acc value="0.4419937012365" flag="0"/>
			<vel value="0.493410949588" flag="0"/>
			<psa03 value="1.02662259204167" flag="0"/>
			<psa10 value="0.646357418008317" flag="0"/>
			<psa30 value="0.191139768738255" flag="0"/>
		</comp>
		<comp name=".HGZ" depth="0.0">
			<acc value="0.22512589856928" flag="0"/>
			<vel value="0.191312104536" flag="0"/>
			<psa03 value="0.614183019941977" flag="0"/>
			<psa10 value="0.28182198932372" flag="0"/>
			<psa30 value="0.0578210770293974" flag="0"/>
		</comp>
	</station>
	<station code="MSR" name="MSR" netid="IT" source="Italian Strong Motion Network (RAN)" insttype="" lat="39.0768" lon="16.7897">
		<comp name=".HGE" depth="0.0">
			<acc value="0.596707154127" flag="0"/>
			<vel value="0.294831525476" flag="0"/>
			<psa03 value="1.71043297445633" flag="0"/>
			<psa10 value="0.257220059566547" flag="0"/>
			<psa30 value="0.0181833912270986" flag="0"/>
		</comp>
		<comp name=".HGN" depth="0.0">
			<acc value="0.88159999550364" flag="0"/>
			<vel value="0.376227800004" flag="0"/>
			<psa03 value="2.06954393046082" flag="0"/>
			<psa10 value="0.386582569198113" flag="0"/>
			<psa30 value="0.0409608567890668" flag="0"/>
		</comp>
		<comp name=".HGZ" depth="0.0">
			<acc value="0.6707663384409" flag="0"/>
			<vel value="0.201127551304" flag="0"/>
			<psa03 value="0.824379861119364" flag="0"/>
			<psa10 value="0.13538219840637" flag="0"/>
			<psa30 value="0.0176386434735558" flag="0"/>
		</comp>
	</station>
	<station code="PNI" name="PNI" netid="IT" source="Italian Strong Motion Network (RAN)" insttype="" lat="39.158" lon="16.4126">
		<comp name=".HGE" depth="0.0">
			<acc value="0.50938500363984" flag="0"/>
			<vel value="0.282363397349" flag="0"/>
			<psa03 value="1.66231245337585" flag="0"/>
			<psa10 value="0.191088403668961" flag="0"/>
			<psa30 value="0.0243434142984148" flag="0"/>
		</comp>
		<comp name=".HGN" depth="0.0">
			<acc value="0.53646326141676" flag="0"/>
			<vel value="0.311367586566" flag="0"/>
			<psa03 value="1.83443868922629" flag="0"/>
			<psa10 value="0.237337757461574" flag="0"/>
			<psa30 value="0.0244608970810336" flag="0"/>
		</comp>
		<comp name=".HGZ" depth="0.0">
			<acc value="0.79034373278496" flag="0"/>
			<vel value="0.180953261559" flag="0"/>
			<psa03 value="1.73254793946467" flag="0"/>
			<psa10 value="0.146952344871462" flag="0"/>
			<psa30 value="0.0224399315353156" flag="0"/>
		</comp>
	</station>
	<station code="RSN" name="RSN" netid="IT" source="Italian Strong Motion Network (RAN)" insttype="" lat="39.5706" lon="16.6301">
		<comp name=".HNE" depth="0.0">
			<acc value="0.70572289408866" flag="0"/>
			<vel value="0.280802536793" flag="0"/>
			<psa03 value="1.63357638308584" flag="0"/>
			<psa10 value="0.429069163724477" flag="0"/>
			<psa30 value="0.0217597681445331" flag="0"/>
		</comp>
		<comp name=".HNN" depth="0.0">
			<acc value="0.9010027276755" flag="0"/>
			<vel value="0.386156810285" flag="0"/>
			<psa03 value="1.62157542141345" flag="0"/>
			<psa10 value="0.270691551986682" flag="0"/>
			<psa30 value="0.0349035855245851" flag="0"/>
		</comp>
		<comp name=".HNZ" depth="0.0">
			<acc value="0.65388938139042" flag="0"/>
			<vel value="0.159716227935" flag="0"/>
			<psa03 value="0.691060571036289" flag="0"/>
			<psa10 value="0.180022875632162" flag="0"/>
			<psa30 value="0.0166409623821067" flag="0"/>
		</comp>
	</station>
	<station code="SBR" name="SBR" netid="IT" source="Italian Strong Motion Network (RAN)" insttype="" lat="39.6946" lon="16.4682">
		<comp name=".HGE" depth="0.0">
			<acc value="0.49994484570282" flag="0"/>
			<vel value="0.361771486648" flag="0"/>
			<psa03 value="1.64682209388124" flag="0"/>
			<psa10 value="0.554350202981502" flag="0"/>
			<psa30 value="0.0746232034211447" flag="0"/>
		</comp>
		<comp name=".HGN" depth="0.0">
			<acc value="0.60943883692416" flag="0"/>
			<vel value="0.386162572593" flag="0"/>
			<psa03 value="1.55474182735033" flag="0"/>
			<psa10 value="0.422658639059262" flag="0"/>
			<psa30 value="0.0591923878720849" flag="0"/>
		</comp>
		<comp name=".HGZ" depth="0.0">
			<acc value="0.37927220476638" flag="0"/>
			<vel value="0.116386534075" flag="0"/>
			<psa03 value="0.633219572689281" flag="0"/>
			<psa10 value="0.215351520981396" flag="0"/>
			<psa30 value="0.0307432665905441" flag="0"/>
		</comp>
	</station>
	<station code="SGV" name="SGV" netid="IT" source="Italian Strong Motion Network (RAN)" insttype="" lat="39.2633" lon="16.6897">
		<comp name=".HNE" depth="0.0">
			<acc value="2.0515115081868" flag="0"/>
			<vel value="1.13494698728" flag="0"/>
			<psa03 value="3.1091229641358" flag="0"/>
			<psa10 value="1.2949255024596" flag="0"/>
			<psa30 value="0.0780082476633442" flag="0"/>
		</comp>
		<comp name=".HNN" depth="0.0">
			<acc value="2.8113391482342" flag="0"/>
			<vel value="2.020638925" flag="0"/>
			<psa03 value="5.46446966094969" flag="0"/>
			<psa10 value="1.5094656346919" flag="0"/>
			<psa30 value="0.147895210665289" flag="0"/>
		</comp>
		<comp name=".HNZ" depth="0.0">
			<acc value="2.1254026261572" flag="0"/>
			<vel value="0.58001350331" flag="0"/>
			<psa03 value="2.33627109982919" flag="0"/>
			<psa10 value="0.485619369899346" flag="0"/>
			<psa30 value="0.0420727271116778" flag="0"/>
		</comp>
	</station>
	<station code="SPS" name="SPS" netid="IT" source="Italian Strong Motion Network (RAN)" insttype="" lat="39.3402" lon="16.4491">
		<comp name=".HNE" depth="0.0">
			<acc value="1.6633886771886" flag="0"/>
			<vel value="0.752812858674" flag="0"/>
			<psa03 value="4.68218383835152" flag="0"/>
			<psa10 value="0.342764336455218" flag="0"/>
			<psa30 value="0.0301912533557037" flag="0"/>
		</comp>
		<comp name=".HNN" depth="0.0">
			<acc value="1.0276518058794" flag="0"/>
			<vel value="0.363716462874" flag="0"/>
			<psa03 value="3.34650735635553" flag="0"/>
			<psa10 value="0.204500627163099" flag="0"/>
			<psa30 value="0.0262036108606157" flag="0"/>
		</comp>
		<comp name=".HNZ" depth="0.0">
			<acc value="0.6743038337694" flag="0"/>
			<vel value="0.1650900068" flag="0"/>
			<psa03 value="0.850331913650999" flag="0"/>
			<psa10 value="0.111024447324702" flag="0"/>
			<psa30 value="0.0203778615999894" flag="0"/>
		</comp>
	</station>
	<station code="TRS" name="TRS" netid="IT" source="Italian Strong Motion Network (RAN)" insttype="" lat="39.6311" lon="16.2241">
		<comp name=".HGE" depth="0.0">
			<acc value="0.39162492369648" flag="0"/>
			<vel value="0.243707123165" flag="0"/>
			<psa03 value="0.581637113935584" flag="0"/>
			<psa10 value="0.704317717590705" flag="0"/>
			<psa30 value="0.0879877087540339" flag="0"/>
		</comp>
		<comp name=".HGN" depth="0.0">
			<acc value="0.39185413414704" flag="0"/>
			<vel value="0.319264264909" flag="0"/>
			<psa03 value="0.624753720202192" flag="0"/>
			<psa10 value="0.585132122132087" flag="0"/>
			<psa30 value="0.111036582295198" flag="0"/>
		</comp>
		<comp name=".HGZ" depth="0.0">
			<acc value="0.29590970981382" flag="0"/>
			<vel value="0.168789430524" flag="0"/>
			<psa03 value="0.373054171341418" flag="0"/>
			<psa10 value="0.256305298968148" flag="0"/>
			<psa30 value="0.0595159093033752" flag="0"/>
		</comp>
	</station>
	<station code="ACER" name="ACER" netid="IV" source="Italian National Seismic Network (INSN)" insttype="" lat="40.7867" lon="15.9427">
		<comp name=".HHE" depth="1.0">
			<acc value="0.074666623060254" flag="0"/>
			<vel value="0.0653296440277" flag="0"/>
			<psa03 value="0.28129690537272" flag="0"/>
			<psa10 value="0.104833139680828" flag="0"/>
			<psa30 value="0.0205160124184751" flag="0"/>
		</comp>
		<comp name=".HHN" depth="1.0">
			<acc value="0.042091862253216" flag="0"/>
			<vel value="0.0461431323683" flag="0"/>
			<psa03 value="0.145946168217426" flag="0"/>
			<psa10 value="0.0996215019355917" flag="0"/>
			<psa30 value="0.0110500120090678" flag="0"/>
		</comp>
		<comp name=".HHZ" depth="1.0">
			<acc value="0.031259901940026" flag="0"/>
			<vel value="0.0308018664902" flag="0"/>
			<psa03 value="0.0842375751173805" flag="0"/>
			<psa10 value="0.0409445973784311" flag="0"/>
			<psa30 value="0.00733691103433219" flag="0"/>
		</comp>
		<comp name=".HNE" depth="1.0">
			<acc value="0.070596316878624" flag="0"/>
			<vel value="0.0622752663217" flag="0"/>
			<psa03 value="0.26564986883327" flag="0"/>
			<psa10 value="0.100065096321479" flag="0"/>
			<psa30 value="0.0195822622287619" flag="0"/>
		</comp>
		<comp name=".HNN" depth="1.0">
			<acc value="0.03995524773" flag="0"/>
			<vel value="0.0439292538287" flag="0"/>
			<psa03 value="0.138815925040209" flag="0"/>
			<psa10 value="0.0956861037348725" flag="0"/>
			<psa30 value="0.0104864946788221" flag="0"/>
		</comp>
		<comp name=".HNZ" depth="1.0">
			<acc value="0.029328393841818" flag="0"/>
			<vel value="0.0296215346567" flag="0"/>
			<psa03 value="0.0794717958665261" flag="0"/>
			<psa10 value="0.0390033825326766" flag="0"/>
			<psa30 value="0.00700943767417559" flag="0"/>
		</comp>
	</station>
	<station code="APRC" name="APRC" netid="IV" source="Italian National Seismic Network (INSN)" insttype="" lat="41.75738" lon="15.54308">
		<comp name=".HHE" depth="0.0">
			<acc value="0.016419726431322" flag="0"/>
			<vel value="0.0142422875489" flag="0"/>
			<psa03 value="0.0396231248375486" flag="0"/>
			<psa10 value="0.0120206516216697" flag="0"/>
			<psa30 value="0.00183090670524833" flag="0"/>
		</comp>
		<comp name=".HHN" depth="0.0">
			<acc value="0.014744684091882" flag="0"/>
			<vel value="0.0107788932586" flag="0"/>
			<psa03 value="0.046981138311353" flag="0"/>
			<psa10 value="0.0175538516065334" flag="0"/>
			<psa30 value="0.00239285768174332" flag="0"/>
		</comp>
		<comp name=".HHZ" depth="0.0">
			<acc value="0.0090425805395556" flag="0"/>
			<vel value="0.00840970111716" flag="0"/>
			<psa03 value="0.0248434035660665" flag="0"/>
			<psa10 value="0.0132202304628676" flag="0"/>
			<psa30 value="0.00139311572458001" flag="0"/>
		</comp>
		<comp name=".HNE" depth="0.0">
			<acc value="0.015406558113372" flag="0"/>
			<vel value="0.0131699872474" flag="0"/>
			<psa03 value="0.0401417763832013" flag="0"/>
			<psa10 value="0.0103758273476441" flag="0"/>
			<psa30 value="0.00177248429338479" flag="0"/>
		</comp>
		<comp name=".HNN" depth="0.0">
			<acc value="0.0072743086015512" flag="0"/>
			<vel value="0.00459021870525" flag="0"/>
			<psa03 value="0.0199359612846024" flag="0"/>
			<psa10 value="0.00737784874626788" flag="0"/>
			<psa30 value="0.000878758838460792" flag="0"/>
		</comp>
		<comp name=".HNZ" depth="0.0">
			<acc value="0.0090604829068656" flag="0"/>
			<vel value="0.00832829365347" flag="0"/>
			<psa03 value="0.0248497269016366" flag="0"/>
			<psa10 value="0.0133483248859977" flag="0"/>
			<psa30 value="0.00141237908401552" flag="0"/>
		</comp>
	</station>
	<station code="BSSO" name="BSSO" netid="IV" source="Italian National Seismic Network (INSN)" insttype="" lat="41.5461" lon="14.5938">
		<comp name=".HHE" depth="0.0">
			<acc value="0.0041919080484294" flag="0"/>
			<vel value="0.0140735054415" flag="0"/>
			<psa03 value="0.00737639424887485" flag="0"/>
			<psa10 value="0.00891613221249688" flag="0"/>
			<psa30 value="0.00713951212432667" flag="0"/>
		</comp>
		<comp name=".HHN" depth="0.0">
			<acc value="0.0032051090953392" flag="0"/>
			<vel value="0.00960226321879" flag="0"/>
			<psa03 value="0.00508859946452001" flag="0"/>
			<psa10 value="0.0104089214149649" flag="0"/>
			<psa30 value="0.0069651143213219" flag="0"/>
		</comp>
		<comp name=".HHZ" depth="0.0">
			<acc value="0.002905083415614" flag="0"/>
			<vel value="0.0100500954705" flag="0"/>
			<psa03 value="0.00450380649311179" flag="0"/>
			<psa10 value="0.0063181677663365" flag="0"/>
			<psa30 value="0.00686619276822023" flag="0"/>
		</comp>
		<comp name=".HNE" depth="0.0">
			<acc value="0.0020690135059638" flag="0"/>
			<vel value="0.00705872021535" flag="0"/>
			<psa03 value="0.0034785038713099" flag="0"/>
			<psa10 value="0.00446886119636603" flag="0"/>
			<psa30 value="0.00333977457700933" flag="0"/>
		</comp>
		<comp name=".HNN" depth="0.0">
			<acc value="0.0017007803405076" flag="0"/>
			<vel value="0.00476356644444" flag="0"/>
			<psa03 value="0.00254670500228192" flag="0"/>
			<psa10 value="0.00538207762997248" flag="0"/>
			<psa30 value="0.00347144725801078" flag="0"/>
		</comp>
		<comp name=".HNZ" depth="0.0">
			<acc value="0.0013914260447934" flag="0"/>
			<vel value="0.0047830202501" flag="0"/>
			<psa03 value="0.00234471505893894" flag="0"/>
			<psa10 value="0.00333409578935643" flag="0"/>
			<psa30 value="0.0032158980374641" flag="0"/>
		</comp>
	</station>
	<station code="CAAM" name="CAAM" netid="IV" source="Italian National Seismic Network (INSN)" insttype="" lat="40.820065" lon="14.142049">
		<comp name=".HHE" depth="0.0">
			<acc value="0.0051656257064886" flag="0"/>
