<?xml version="1.0" encoding="UTF-8" standalone="yes"?>
<!DOCTYPE earthquake SYSTEM "stationlist.dtd">
<stationlist created="" xmlns="ch.ethz.sed.shakemap.usgs.xml">
  <station code="ANDN" name="ANDN" netid="TU" insttype="T" lat="37.58" lon="36.3452">
    <comp name="--.HHN">
      <acc value="0.0662511291" flag="0"/>
      <vel value="0.0249928463" flag="0"/>
      <psa03 value="0.1117599862" flag="0"/>
      <psa10 value="0.0275543086" flag="0"/>
      <psa30 value="0.0041068749" flag="0"/>
    </comp>
    <comp name="--.HHZ">
      <acc value="0.0535808658" flag="0"/>
      <vel value="0.0214677588" flag="0"/>
      <psa03 value="0.0725420567" flag="0"/>
      <psa10 value="0.0352560836" flag="0"/>
      <psa30 value="0.0027181652" flag="0"/>
    </comp>
  </station>
</stationlist>
