<?xml version="1.0" encoding="UTF-8" standalone="yes"?>
<!DOCTYPE earthquake SYSTEM "stationlist.dtd">
<stationlist created="" xmlns="ch.ethz.sed.shakemap.usgs.xml">
  <station code="KRL1" name="KRL1" netid="HI" insttype="CMG-5TD,ACCELEROMETER,GURALP" lat="37.7951" lon="26.7065">
    <comp name="--.HNE">
      <acc value="2.1047468692" flag="0"/>
      <vel value="0.8277713265" flag="0"/>
      <psa03 value="3.6475305801" flag="0"/>
      <psa10 value="0.3395050558" flag="0"/>
      <psa30 value="0.0329862762" flag="0"/>
    </comp>
    <comp name="--.HNZ">
      <acc value="0.5868602482" flag="0"/>
      <vel value="0.1972979896" flag="0"/>
      <psa03 value="0.7174366224" flag="0"/>
      <psa10 value="0.1552550606" flag="0"/>
      <psa30 value="0.0388026834" flag="0"/>
    </comp>
    <comp name="--.HNN">
      <acc value="1.0200806318" flag="0"/>
      <vel value="0.4641701612" flag="0"/>
      <psa03 value="1.6281720122" flag="0"/>
      <psa10 value="0.2878397374" flag="0"/>
      <psa30 value="0.0392601758" flag="0"/>
    </comp>
  </station>
  <station code="EAG2" name="EAG2" netid="HL" insttype="SMART24" lat="38.5438" lon="26.1079">
    <comp name="--.HHZ">
      <acc value="0.2992157937" flag="0"/>
      <vel value="0.2267692392" flag="0"/>
      <psa03 value="0.7586332781" flag="0"/>
      <psa10 value="0.2246922120" flag="0"/>
      <psa30 value="0.0162319633" flag="0"/>
    </comp>
    <comp name="--.HHE">
      <acc value="1.1426509628" flag="0"/>
      <vel value="0.7189809468" flag="0"/>
      <psa03 value="3.6969105027" flag="0"/>
      <psa10 value="0.3402470658" flag="0"/>
      <psa30 value="0.0310226447" flag="0"/>
    </comp>
    <comp name="--.HHN">
      <acc value="0.7715778606" flag="0"/>
      <vel value="0.4674030518" flag="0"/>
      <psa03 value="2.8030940026" flag="0"/>
      <psa10 value="0.5271202449" flag="0"/>
      <psa30 value="0.0253561514" flag="0"/>
    </comp>
  </station>
  <station code="KLNA" name="KLNA" netid="HL" insttype="CMG-5" lat="36.9571" lon="26.9727">
    <comp name="00.HNE">
      <acc value="0.0996107857" flag="0"/>
      <vel value="0.0458151848" flag="0"/>
      <psa03 value="0.4068614605" flag="0"/>
      <psa10 value="0.0237924192" flag="0"/>
      <psa30 value="0.0039021889" flag="0"/>
    </comp>
    <comp name="00.HNN">
      <acc value="0.1460626386" flag="0"/>
      <vel value="0.0608450258" flag="0"/>
      <psa03 value="0.5444200850" flag="0"/>
      <psa10 value="0.0209335092" flag="0"/>
      <psa30 value="0.0034968109" flag="0"/>
    </comp>
    <comp name="00.HNZ">
      <acc value="0.1037739344" flag="0"/>
      <vel value="0.0355995386" flag="0"/>
      <psa03 value="0.1301090351" flag="0"/>
      <psa10 value="0.0126900276" flag="0"/>
      <psa30 value="0.0031126369" flag="0"/>
    </comp>
  </station>
  <station code="CHOS" name="CHOS" netid="HT" insttype="100" lat="38.3869" lon="26.0506">
    <comp name="--.HHE">
      <acc value="0.1776413547" flag="0"/>
      <vel value="0.0989320805" flag="0"/>
      <psa03 value="0.7115203897" flag="0"/>
      <psa10 value="0.0467285054" flag="0"/>
      <psa30 value="0.0036669993" flag="0"/>
    </comp>
    <comp name="--.HHN">
      <acc value="0.1309286253" flag="0"/>
      <vel value="0.0708720932" flag="0"/>
      <psa03 value="0.4538771008" flag="0"/>
      <psa10 value="0.1092385425" flag="0"/>
      <psa30 value="0.0046344206" flag="0"/>
    </comp>
    <comp name="--.HHZ">
      <acc value="0.0501827236" flag="0"/>
      <vel value="0.0344812562" flag="0"/>
      <psa03 value="0.2109994255" flag="0"/>
      <psa10 value="0.0433309679" flag="0"/>
      <psa30 value="0.0024076129" flag="0"/>
    </comp>
  </station>
  <station code="GMLD" name="GMLD" netid="KO" insttype="100" lat="38.0764" lon="26.8747">
    <comp name="--.HNE">
      <acc value="0.2646377743" flag="0"/>
      <vel value="0.0951870563" flag="0"/>
      <psa03 value="0.3827237801" flag="0"/>
      <psa10 value="0.0804961297" flag="0"/>
      <psa30 value="0.0145084485" flag="0"/>
    </comp>
    <comp name="--.HNN">
      <acc value="0.2685254969" flag="0"/>
      <vel value="0.1316948082" flag="0"/>
      <psa03 value="0.3907689822" flag="0"/>
      <psa10 value="0.0940984320" flag="0"/>
      <psa30 value="0.0187436583" flag="0"/>
    </comp>
    <comp name="--.HNZ">
      <acc value="0.1551062261" flag="0"/>
      <vel value="0.0538011969" flag="0"/>
      <psa03 value="0.2986205868" flag="0"/>
      <psa10 value="0.0299429488" flag="0"/>
      <psa30 value="0.0132320287" flag="0"/>
    </comp>
  </station>
  <station code="KRBN" name="KRBN" netid="KO" insttype="100" lat="38.5936" lon="26.5537">
    <comp name="--.HNE">
      <acc value="0.0650796615" flag="0"/>
      <vel value="0.0421800788" flag="0"/>
      <psa03 value="0.1260829519" flag="0"/>
      <psa10 value="0.0525855649" flag="0"/>
      <psa30 value="0.0050871781" flag="0"/>
    </comp>
    <comp name="--.HNN">
      <acc value="0.0601903562" flag="0"/>
      <vel value="0.0408726580" flag="0"/>
      <psa03 value="0.1586223468" flag="0"/>
      <psa10 value="0.0770172494" flag="0"/>
      <psa30 value="0.0052041797" flag="0"/>
    </comp>
    <comp name="--.HNZ">
      <acc value="0.0267970537" flag="0"/>
      <vel value="0.0210033867" flag="0"/>
      <psa03 value="0.0852621175" flag="0"/>
      <psa10 value="0.0393854335" flag="0"/>
      <psa30 value="0.0024116258" flag="0"/>
    </comp>
  </station>
  <station code="KUSD" name="KUSD" netid="KO" insttype="100" lat="37.86" lon="27.2815">
    <comp name="--.HNZ">
      <acc value="0.0371668966" flag="0"/>
      <vel value="0.0192774089" flag="0"/>
      <psa03 value="0.0790535176" flag="0"/>
      <psa10 value="0.0123187554" flag="0"/>
      <psa30 value="0.0038661405" flag="0"/>
    </comp>
    <comp name="--.HNN">
      <acc value="0.0690062115" flag="0"/>
      <vel value="0.0248156420" flag="0"/>
      <psa03 value="0.1384852324" flag="0"/>
      <psa10 value="0.0185997209" flag="0"/>
      <psa30 value="0.0053746906" flag="0"/>
    </comp>
    <comp name="--.HNE">
      <acc value="0.1064514859" flag="0"/>
      <vel value="0.0403602641" flag="0"/>
      <psa03 value="0.1553409617" flag="0"/>
      <psa10 value="0.0265902520" flag="0"/>
      <psa30 value="0.0048006810" flag="0"/>
    </comp>
  </station>
  <station code="AYDN" name="AYDN" netid="TU" source="ODC" insttype="T" lat="37.6608" lon="27.8792">
    <comp name="--.HHE">
      <acc value="0.0981009044" flag="0"/>
      <vel value="0.0375248636" flag="0"/>
      <psa03 value="0.3618959657" flag="0"/>
      <psa10 value="0.0378361574" flag="0"/>
      <psa30 value="0.0030858290" flag="0"/>
    </comp>
    <comp name="--.HHZ">
      <acc value="0.0422037977" flag="0"/>
      <vel value="0.0242077743" flag="0"/>
      <psa03 value="0.1014561306" flag="0"/>
      <psa10 value="0.0173690036" flag="0"/>
      <psa30 value="0.0043826883" flag="0"/>
    </comp>
    <comp name="--.HHN">
      <acc value="0.0796880603" flag="0"/>
      <vel value="0.0303511197" flag="0"/>
      <psa03 value="0.1740912963" flag="0"/>
      <psa10 value="0.0345188913" flag="0"/>
      <psa30 value="0.0042857066" flag="0"/>
    </comp>
  </station>
</stationlist>
