<stationlist created="1631873492">
	<station code="KRL1" name="KRL1" netid="HI" source="ITSAK Strong Motion Network" insttype="" lat="37.7951" lon="26.7065">
		<comp name="--.HNE" depth="0.0">
			<acc value="-2.09755962" flag="0"/>
			<vel value="0.846338" flag="0"/>
			<psa03 value="3.6945429693" flag="0"/>
			<psa10 value="0.339547711182" flag="0"/>
			<psa30 value="0.0364398427582" flag="0"/>
		</comp>
		<comp name="--.HNN" depth="0.0">
			<acc value="1.019892798" flag="0"/>
			<vel value="-0.477205" flag="0"/>
			<psa03 value="1.63452229218" flag="0"/>
			<psa10 value="0.288874477654" flag="0"/>
			<psa30 value="0.0437346121252" flag="0"/>
		</comp>
		<comp name="--.HNZ" depth="0.0">
			<acc value="0.569132868" flag="0"/>
			<vel value="-0.207425" flag="0"/>
			<psa03 value="0.711445827437" flag="0"/>
			<psa10 value="0.156102874359" flag="0"/>
			<psa30 value="0.043719847197" flag="0"/>
		</comp>
	</station>
	<station code="MYT1" name="MYT1" netid="HI" source="ITSAK Strong Motion Network" insttype="" lat="39.085" lon="26.5694">
		<comp name="--.HNE" depth="0.0">
			<acc value="0.021329016" flag="0"/>
			<vel value="-0.01814" flag="0"/>
			<psa03 value="0.0638918710509" flag="0"/>
			<psa10 value="0.0456638960746" flag="0"/>
			<psa30 value="0.00726121271208" flag="0"/>
		</comp>
		<comp name="--.HNN" depth="0.0">
			<acc value="-0.017935374" flag="0"/>
			<vel value="-0.019608" flag="0"/>
			<psa03 value="0.0580753841905" flag="0"/>
			<psa10 value="0.03991362768" flag="0"/>
			<psa30 value="0.00989876579223" flag="0"/>
		</comp>
		<comp name="--.HNZ" depth="0.0">
			<acc value="0.016404252" flag="0"/>
			<vel value="0.018881" flag="0"/>
			<psa03 value="0.0311853180129" flag="0"/>
			<psa10 value="0.0375901648903" flag="0"/>
			<psa30 value="0.005482709999" flag="0"/>
		</comp>
	</station>
	<station code="KLNA" name="KLNA" netid="HL" source="National Observatory of Athens Seismic Network" insttype="" lat="36.95708" lon="26.97274">
		<comp name="--.HNE" depth="0.0">
			<acc value="-0.09922305" flag="0"/>
			<vel value="-0.047116" flag="0"/>
			<psa03 value="0.406214493887" flag="0"/>
			<psa10 value="0.0238628084778" flag="0"/>
			<psa30 value="0.00453685975109" flag="0"/>
		</comp>
		<comp name="--.HNN" depth="0.0">
			<acc value="-0.1471095" flag="0"/>
			<vel value="0.061959" flag="0"/>
			<psa03 value="0.544512654544" flag="0"/>
			<psa10 value="0.0210118350721" flag="0"/>
			<psa30 value="0.00373507940849" flag="0"/>
		</comp>
		<comp name="--.HNZ" depth="0.0">
			<acc value="-0.103757154" flag="0"/>
			<vel value="0.037417" flag="0"/>
			<psa03 value="0.130647243325" flag="0"/>
			<psa10 value="0.0126320671945" flag="0"/>
			<psa30 value="0.00388496580066" flag="0"/>
		</comp>
	</station>
	<station code="PRK" name="PRK" netid="HL" source="National Observatory of Athens Seismic Network" insttype="" lat="39.24565" lon="26.26499">
		<comp name="--.HNE" depth="0.0">
			<acc value="0.02243133" flag="0"/>
			<vel value="0.026369" flag="0"/>
			<psa03 value="0.0632207379516" flag="0"/>
			<psa10 value="0.0542530574791" flag="0"/>
			<psa30 value="0.00236328335358" flag="0"/>
		</comp>
		<comp name="--.HNN" depth="0.0">
			<acc value="-0.026921574" flag="0"/>
			<vel value="0.030135" flag="0"/>
			<psa03 value="0.0690819670186" flag="0"/>
			<psa10 value="0.0329392125124" flag="0"/>
			<psa30 value="0.00421963750617" flag="0"/>
		</comp>
		<comp name="--.HNZ" depth="0.0">
			<acc value="0.013204308" flag="0"/>
			<vel value="0.012813" flag="0"/>
			<psa03 value="0.0358832497079" flag="0"/>
			<psa10 value="0.0132723281712" flag="0"/>
			<psa30 value="0.00182413976383" flag="0"/>
		</comp>
	</station>
	<station code="FOCM" name="FOCM" netid="KO" source="Bogazici University Kandilli Observatory And Earthquake Research Institute (KOERI)" insttype="" lat="38.7131" lon="26.7309">
		<comp name="--.HNE" depth="0.0">
			<acc value="-0.039638118" flag="0"/>
			<vel value="-0.02376" flag="0"/>
			<psa03 value="0.123220037027" flag="0"/>
			<psa10 value="0.0212010946061" flag="0"/>
			<psa30 value="0.00281294253009" flag="0"/>
		</comp>
		<comp name="--.HNN" depth="0.0">
			<acc value="-0.043896516" flag="0"/>
			<vel value="0.025144" flag="0"/>
			<psa03 value="0.0699320689444" flag="0"/>
			<psa10 value="0.0211044514398" flag="0"/>
			<psa30 value="0.00384469781471" flag="0"/>
		</comp>
		<comp name="--.HNZ" depth="0.0">
			<acc value="-0.024513966" flag="0"/>
			<vel value="-0.011614" flag="0"/>
			<psa03 value="0.0686345449524" flag="0"/>
			<psa10 value="0.0105622927164" flag="0"/>
			<psa30 value="0.00267110973511" flag="0"/>
		</comp>
	</station>
	<station code="GMLD" name="GMLD" netid="KO" source="Bogazici University Kandilli Observatory And Earthquake Research Institute (KOERI)" insttype="" lat="38.0766" lon="26.9157">
		<comp name="--.HNE" depth="0.0">
			<acc value="1.63911144" flag="0"/>
			<vel value="0.606319" flag="0"/>
			<psa03 value="2.39294743657" flag="0"/>
			<psa10 value="0.505484027711" flag="0"/>
			<psa30 value="0.0998216526536" flag="0"/>
		</comp>
		<comp name="--.HNN" depth="0.0">
			<acc value="-1.672139754" flag="0"/>
			<vel value="0.846797" flag="0"/>
			<psa03 value="2.42194038645" flag="0"/>
			<psa10 value="0.591073631862" flag="0"/>
			<psa30 value="0.131034710835" flag="0"/>
		</comp>
		<comp name="--.HNZ" depth="0.0">
			<acc value="-0.958177392" flag="0"/>
			<vel value="-0.336916" flag="0"/>
			<psa03 value="1.90060419494" flag="0"/>
			<psa10 value="0.186348158611" flag="0"/>
			<psa30 value="0.0938959948091" flag="0"/>
		</comp>
	</station>
	<station code="GOMA" name="GOMA" netid="KO" source="Bogazici University Kandilli Observatory And Earthquake Research Institute (KOERI)" insttype="" lat="38.7077" lon="27.9175">
		<comp name="--.HNE" depth="0.0">
			<acc value="0.027390264" flag="0"/>
			<vel value="0.014245" flag="0"/>
			<psa03 value="0.0886343113108" flag="0"/>
			<psa10 value="0.0139609107311" flag="0"/>
			<psa30 value="0.00139595684649" flag="0"/>
		</comp>
		<comp name="--.HNN" depth="0.0">
			<acc value="-0.026420652" flag="0"/>
			<vel value="0.018348" flag="0"/>
			<psa03 value="0.0699320689444" flag="0"/>
			<psa10 value="0.0189702481841" flag="0"/>
			<psa30 value="0.0019078076902" flag="0"/>
		</comp>
		<comp name="--.HNZ" depth="0.0">
			<acc value="0.01467831" flag="0"/>
			<vel value="-0.013315" flag="0"/>
			<psa03 value="0.0285902700291" flag="0"/>
			<psa10 value="0.0149555299842" flag="0"/>
			<psa30 value="0.00310689882757" flag="0"/>
		</comp>
	</station>
	<station code="KUSD" name="KUSD" netid="KO" source="Bogazici University Kandilli Observatory And Earthquake Research Institute (KOERI)" insttype="" lat="37.8606" lon="27.2868">
		<comp name="--.HNE" depth="0.0">
			<acc value="0.660641658" flag="0"/>
			<vel value="0.252494" flag="0"/>
			<psa03 value="1.00356769445" flag="0"/>
			<psa10 value="0.164683982166" flag="0"/>
			<psa30 value="0.0347942243988" flag="0"/>
		</comp>
		<comp name="--.HNN" depth="0.0">
			<acc value="-0.433084758" flag="0"/>
			<vel value="0.163355" flag="0"/>
			<psa03 value="0.87202560699" flag="0"/>
			<psa10 value="0.117582518993" flag="0"/>
			<psa30 value="0.038067564235" flag="0"/>
		</comp>
		<comp name="--.HNZ" depth="0.0">
			<acc value="-0.233490444" flag="0"/>
			<vel value="0.126904" flag="0"/>
			<psa03 value="0.504423637414" flag="0"/>
			<psa10 value="0.0782406967134" flag="0"/>
			<psa30 value="0.024884720477" flag="0"/>
		</comp>
	</station>
	<station code="NAZL" name="NAZL" netid="KO" source="Bogazici University Kandilli Observatory And Earthquake Research Institute (KOERI)" insttype="" lat="37.9641" lon="28.2922">
		<comp name="--.HNE" depth="0.0">
			<acc value="0.12742707" flag="0"/>
			<vel value="0.099704" flag="0"/>
			<psa03 value="0.44097918843" flag="0"/>
			<psa10 value="0.0753373749259" flag="0"/>
			<psa30 value="0.00620619148002" flag="0"/>
		</comp>
		<comp name="--.HNN" depth="0.0">
			<acc value="-0.11388096" flag="0"/>
			<vel value="0.054402" flag="0"/>
			<psa03 value="0.401829757639" flag="0"/>
			<psa10 value="0.0686971840417" flag="0"/>
			<psa30 value="0.00749029280996" flag="0"/>
		</comp>
		<comp name="--.HNZ" depth="0.0">
			<acc value="0.03767931" flag="0"/>
			<vel value="0.043954" flag="0"/>
			<psa03 value="0.128454875201" flag="0"/>
			<psa10 value="0.0212977377724" flag="0"/>
			<psa30 value="0.00593997535064" flag="0"/>
		</comp>
	</station>
	<station code="SOMA" name="SOMA" netid="KO" source="Bogazici University Kandilli Observatory And Earthquake Research Institute (KOERI)" insttype="" lat="39.1564" lon="27.5341">
		<comp name="--.HNE" depth="0.0">
			<acc value="-0.056256468" flag="0"/>
			<vel value="-0.035033" flag="0"/>
			<psa03 value="0.146843922121" flag="0"/>
			<psa10 value="0.0506973943192" flag="0"/>
			<psa30 value="0.0121094782212" flag="0"/>
		</comp>
		<comp name="--.HNN" depth="0.0">
			<acc value="-0.091883232" flag="0"/>
			<vel value="-0.053678" flag="0"/>
			<psa03 value="0.139416715823" flag="0"/>
			<psa10 value="0.0391002143637" flag="0"/>
			<psa30 value="0.0187876999811" flag="0"/>
		</comp>
		<comp name="--.HNZ" depth="0.0">
			<acc value="0.058053402" flag="0"/>
			<vel value="0.039062" flag="0"/>
			<psa03 value="0.0855470990541" flag="0"/>
			<psa10 value="0.0224252413791" flag="0"/>
			<psa30 value="0.0115336460221" flag="0"/>
		</comp>
	</station>
</stationlist>
