<?xml version="1.0" encoding="UTF-8" standalone="yes"?>
<!DOCTYPE earthquake SYSTEM "stationlist.dtd">
<stationlist created="" xmlns="ch.ethz.sed.shakemap.usgs.xml">
  <station code="DAGME" name="DAGME" netid="ME" insttype="CMG-5" lat="42.5684" lon="19.0677">
    <comp name="--.HNE">
      <acc value="0.3016647149" flag="0"/>
      <vel value="0.1122692243" flag="0"/>
      <psa03 value="0.3444710321" flag="0"/>
      <psa10 value="0.0323274076" flag="0"/>
      <psa30 value="0.0032285868" flag="0"/>
    </comp>
    <comp name="--.HNZ">
      <acc value="0.0127161144" flag="0"/>
      <vel value="0.0038116018" flag="0"/>
      <psa03 value="0.0224542428" flag="0"/>
      <psa10 value="0.0009852857" flag="0"/>
      <psa30 value="0.0000806283" flag="0"/>
    </comp>
    <comp name="--.HNN">
      <acc value="0.1829957364" flag="0"/>
      <vel value="0.0602198881" flag="0"/>
      <psa03 value="0.3852332392" flag="0"/>
      <psa10 value="0.0198889811" flag="0"/>
      <psa30 value="0.0015262122" flag="0"/>
    </comp>
  </station>
  <station code="PDG" name="PDG" netid="MN" insttype="" lat="42.4297" lon="19.2608">
    <comp name="--.HHN">
      <acc value="0.0613961353" flag="0"/>
      <vel value="0.0134236867" flag="0"/>
      <psa03 value="0.0560237612" flag="0"/>
      <psa10 value="0.0066741381" flag="0"/>
      <psa30 value="0.0003467670" flag="0"/>
    </comp>
    <comp name="--.HHZ">
      <acc value="0.0416267080" flag="0"/>
      <vel value="0.0113095666" flag="0"/>
      <psa03 value="0.0694733401" flag="0"/>
      <psa10 value="0.0051009236" flag="0"/>
      <psa30 value="0.0004429536" flag="0"/>
    </comp>
    <comp name="--.HHE">
      <acc value="0.0359410891" flag="0"/>
      <vel value="0.0140897769" flag="0"/>
      <psa03 value="0.0712095949" flag="0"/>
      <psa10 value="0.0073064063" flag="0"/>
      <psa30 value="0.0003219721" flag="0"/>
    </comp>
  </station>
  <station code="BH01A" name="BH01A" netid="Y5" insttype="STS2_gen3" lat="43.6265" lon="18.9627">
    <comp name="--.HH1">
      <acc value="0.0384030681" flag="0"/>
      <vel value="0.0165360113" flag="0"/>
      <psa03 value="0.0730797758" flag="0"/>
      <psa10 value="0.0071942970" flag="0"/>
      <psa30 value="0.0006560235" flag="0"/>
    </comp>
    <comp name="--.HH2">
      <acc value="0.0461266156" flag="0"/>
      <vel value="0.0166807907" flag="0"/>
      <psa03 value="0.1025761405" flag="0"/>
      <psa10 value="0.0070107402" flag="0"/>
      <psa30 value="0.0005447476" flag="0"/>
    </comp>
    <comp name="--.HHZ">
      <acc value="0.0467549654" flag="0"/>
      <vel value="0.0173326513" flag="0"/>
      <psa03 value="0.0889719402" flag="0"/>
      <psa10 value="0.0065193895" flag="0"/>
      <psa30 value="0.0006527341" flag="0"/>
    </comp>
  </station>
  <station code="BH02A" name="BH02A" netid="Y5" insttype="STS2_gen3" lat="43.8746" lon="18.4241">
    <comp name="--.HH1">
      <acc value="0.0125390946" flag="0"/>
      <vel value="0.0063095504" flag="0"/>
      <psa03 value="0.0494861528" flag="0"/>
      <psa10 value="0.0093439801" flag="0"/>
      <psa30 value="0.0004249351" flag="0"/>
    </comp>
    <comp name="--.HHZ">
      <acc value="0.0093182075" flag="0"/>
      <vel value="0.0076545266" flag="0"/>
      <psa03 value="0.0355185963" flag="0"/>
      <psa10 value="0.0061127149" flag="0"/>
      <psa30 value="0.0003741967" flag="0"/>
    </comp>
    <comp name="--.HH2">
      <acc value="0.0116527307" flag="0"/>
      <vel value="0.0065130404" flag="0"/>
      <psa03 value="0.0343740657" flag="0"/>
      <psa10 value="0.0080205834" flag="0"/>
      <psa30 value="0.0005842800" flag="0"/>
    </comp>
  </station>
  <station code="BH03A" name="BH03A" netid="Y5" insttype="STS2_gen3" lat="43.8212" lon="17.6885">
    <comp name="--.HHZ">
      <acc value="0.0104264976" flag="0"/>
      <vel value="0.0052711570" flag="0"/>
      <psa03 value="0.0306707612" flag="0"/>
      <psa10 value="0.0032405020" flag="0"/>
      <psa30 value="0.0002831970" flag="0"/>
    </comp>
    <comp name="--.HH1">
      <acc value="0.0145768998" flag="0"/>
      <vel value="0.0079831742" flag="0"/>
      <psa03 value="0.0420380143" flag="0"/>
      <psa10 value="0.0066651729" flag="0"/>
      <psa30 value="0.0004369856" flag="0"/>
    </comp>
    <comp name="--.HH2">
      <acc value="0.0269561138" flag="0"/>
      <vel value="0.0138396739" flag="0"/>
      <psa03 value="0.0536929392" flag="0"/>
      <psa10 value="0.0075984842" flag="0"/>
      <psa30 value="0.0005729797" flag="0"/>
    </comp>
  </station>
  <station code="BH04A" name="BH04A" netid="Y5" insttype="STS2_gen2" lat="43.3483" lon="17.7935">
    <comp name="--.HH1">
      <acc value="0.0665640580" flag="0"/>
      <vel value="0.0350896221" flag="0"/>
      <psa03 value="0.1600370611" flag="0"/>
      <psa10 value="0.0216743354" flag="0"/>
      <psa30 value="0.0013253548" flag="0"/>
    </comp>
    <comp name="--.HH2">
      <acc value="0.0744386029" flag="0"/>
      <vel value="0.0317547087" flag="0"/>
      <psa03 value="0.1848815977" flag="0"/>
      <psa10 value="0.0209228212" flag="0"/>
      <psa30 value="0.0014463518" flag="0"/>
    </comp>
    <comp name="--.HHZ">
      <acc value="0.0418680660" flag="0"/>
      <vel value="0.0239447275" flag="0"/>
      <psa03 value="0.1233297255" flag="0"/>
      <psa10 value="0.0212732843" flag="0"/>
      <psa30 value="0.0009758189" flag="0"/>
    </comp>
  </station>
  <station code="BH05A" name="BH05A" netid="Y5" insttype="STS2_gen2" lat="43.1695" lon="18.5854">
    <comp name="--.HH2">
      <acc value="2.9046892591" flag="0"/>
      <vel value="0.3767508295" flag="0"/>
      <psa03 value="0.6296408231" flag="0"/>
      <psa10 value="0.0808963562" flag="0"/>
      <psa30 value="0.0081637123" flag="0"/>
    </comp>
    <comp name="--.HHZ">
      <acc value="0.9673818309" flag="0"/>
      <vel value="0.1504232793" flag="0"/>
      <psa03 value="0.5006115439" flag="0"/>
      <psa10 value="0.0604953338" flag="0"/>
      <psa30 value="0.0061728718" flag="0"/>
    </comp>
    <comp name="--.HH1">
      <acc value="2.8204536336" flag="0"/>
      <vel value="0.4593088344" flag="0"/>
      <psa03 value="0.7234296477" flag="0"/>
      <psa10 value="0.0578752161" flag="0"/>
      <psa30 value="0.0074392592" flag="0"/>
    </comp>
  </station>
  <station code="BH06A" name="BH06A" netid="Y5" insttype="STS2_gen3" lat="43.5022" lon="18.4463">
    <comp name="--.HH1">
      <acc value="0.1041114094" flag="0"/>
      <vel value="0.0588195450" flag="0"/>
      <psa03 value="0.2056614007" flag="0"/>
      <psa10 value="0.0325759476" flag="0"/>
      <psa30 value="0.0021817511" flag="0"/>
    </comp>
    <comp name="--.HH2">
      <acc value="0.1891806245" flag="0"/>
      <vel value="0.1206107186" flag="0"/>
      <psa03 value="0.4658443684" flag="0"/>
      <psa10 value="0.0737644012" flag="0"/>
      <psa30 value="0.0058679808" flag="0"/>
    </comp>
    <comp name="--.HHZ">
      <acc value="0.0398490368" flag="0"/>
      <vel value="0.0242093426" flag="0"/>
      <psa03 value="0.1147240689" flag="0"/>
      <psa10 value="0.0198116068" flag="0"/>
      <psa30 value="0.0010984958" flag="0"/>
    </comp>
  </station>
</stationlist>
