<?xml version="1.0" encoding="UTF-8" standalone="yes"?>
<!DOCTYPE earthquake SYSTEM "stationlist.dtd">
<stationlist created="" xmlns="ch.ethz.sed.shakemap.usgs.xml">
  <station code="DAGME" name="DAGME" netid="ME" insttype="CMG-5" lat="42.5684" lon="19.0677">
    <comp name="--.HNN">
      <acc value="0.1829957356" flag="0"/>
      <vel value="0.0602198886" flag="0"/>
      <psa03 value="0.3852332392" flag="0"/>
      <psa10 value="0.0198889810" flag="0"/>
      <psa30 value="0.0015261739" flag="0"/>
    </comp>
    <comp name="--.HNZ">
      <acc value="0.0127161143" flag="0"/>
      <vel value="0.0038116018" flag="0"/>
      <psa03 value="0.0224542428" flag="0"/>
      <psa10 value="0.0009852857" flag="0"/>
      <psa30 value="0.0000806323" flag="0"/>
    </comp>
    <comp name="--.HNE">
      <acc value="0.3016647153" flag="0"/>
      <vel value="0.1122692244" flag="0"/>
      <psa03 value="0.3444710321" flag="0"/>
      <psa10 value="0.0323274073" flag="0"/>
      <psa30 value="0.0032286758" flag="0"/>
    </comp>
  </station>
  <station code="PDG" name="PDG" netid="MN" insttype="" lat="42.4297" lon="19.2608">
    <comp name="--.HHZ">
      <acc value="0.0416267082" flag="0"/>
      <vel value="0.0113095663" flag="0"/>
      <psa03 value="0.0694733401" flag="0"/>
      <psa10 value="0.0051009235" flag="0"/>
      <psa30 value="0.0004429169" flag="0"/>
    </comp>
    <comp name="--.HHE">
      <acc value="0.0359410890" flag="0"/>
      <vel value="0.0140897763" flag="0"/>
      <psa03 value="0.0712095949" flag="0"/>
      <psa10 value="0.0073064063" flag="0"/>
      <psa30 value="0.0003220072" flag="0"/>
    </comp>
    <comp name="--.HHN">
      <acc value="0.0613961352" flag="0"/>
      <vel value="0.0134236864" flag="0"/>
      <psa03 value="0.0560237612" flag="0"/>
      <psa10 value="0.0066741381" flag="0"/>
      <psa30 value="0.0003467560" flag="0"/>
    </comp>
  </station>
  <station code="BH01A" name="BH01A" netid="Y5" insttype="STS2_gen3" lat="43.6265" lon="18.9627">
    <comp name="--.HH1">
      <acc value="0.0384030684" flag="0"/>
      <vel value="0.0165360102" flag="0"/>
      <psa03 value="0.0730797758" flag="0"/>
      <psa10 value="0.0071942968" flag="0"/>
      <psa30 value="0.0006559631" flag="0"/>
    </comp>
    <comp name="--.HHZ">
      <acc value="0.0467549636" flag="0"/>
      <vel value="0.0173326500" flag="0"/>
      <psa03 value="0.0889719402" flag="0"/>
      <psa10 value="0.0065193895" flag="0"/>
      <psa30 value="0.0006526461" flag="0"/>
    </comp>
    <comp name="--.HH2">
      <acc value="0.0461266134" flag="0"/>
      <vel value="0.0166807900" flag="0"/>
      <psa03 value="0.1025761405" flag="0"/>
      <psa10 value="0.0070107405" flag="0"/>
      <psa30 value="0.0005447827" flag="0"/>
    </comp>
  </station>
  <station code="BH02A" name="BH02A" netid="Y5" insttype="STS2_gen3" lat="43.8746" lon="18.4241">
    <comp name="--.HHZ">
      <acc value="0.0093182091" flag="0"/>
      <vel value="0.0076545268" flag="0"/>
      <psa03 value="0.0355185963" flag="0"/>
      <psa10 value="0.0061127149" flag="0"/>
      <psa30 value="0.0003742996" flag="0"/>
    </comp>
    <comp name="--.HH1">
      <acc value="0.0125390939" flag="0"/>
      <vel value="0.0063095503" flag="0"/>
      <psa03 value="0.0494861528" flag="0"/>
      <psa10 value="0.0093439801" flag="0"/>
      <psa30 value="0.0004249452" flag="0"/>
    </comp>
    <comp name="--.HH2">
      <acc value="0.0116527308" flag="0"/>
      <vel value="0.0065130401" flag="0"/>
      <psa03 value="0.0343740657" flag="0"/>
      <psa10 value="0.0080205834" flag="0"/>
      <psa30 value="0.0005842023" flag="0"/>
    </comp>
  </station>
  <station code="BH03A" name="BH03A" netid="Y5" insttype="STS2_gen3" lat="43.8212" lon="17.6885">
    <comp name="--.HH1">
      <acc value="0.0145769000" flag="0"/>
      <vel value="0.0079831742" flag="0"/>
      <psa03 value="0.0420380143" flag="0"/>
      <psa10 value="0.0066651730" flag="0"/>
      <psa30 value="0.0004369899" flag="0"/>
    </comp>
    <comp name="--.HH2">
      <acc value="0.0269561151" flag="0"/>
      <vel value="0.0138396729" flag="0"/>
      <psa03 value="0.0536929392" flag="0"/>
      <psa10 value="0.0075984842" flag="0"/>
      <psa30 value="0.0005729884" flag="0"/>
    </comp>
    <comp name="--.HHZ">
      <acc value="0.0104264972" flag="0"/>
      <vel value="0.0052711573" flag="0"/>
      <psa03 value="0.0306707612" flag="0"/>
      <psa10 value="0.0032405020" flag="0"/>
      <psa30 value="0.0002831643" flag="0"/>
    </comp>
  </station>
  <station code="BH04A" name="BH04A" netid="Y5" insttype="STS2_gen2" lat="43.3483" lon="17.7935">
    <comp name="--.HH2">
      <acc value="0.0744386034" flag="0"/>
      <vel value="0.0317547088" flag="0"/>
      <psa03 value="0.1848815977" flag="0"/>
      <psa10 value="0.0209228212" flag="0"/>
      <psa30 value="0.0014464619" flag="0"/>
    </comp>
    <comp name="--.HHZ">
      <acc value="0.0418680651" flag="0"/>
      <vel value="0.0239447271" flag="0"/>
      <psa03 value="0.1233297255" flag="0"/>
      <psa10 value="0.0212732842" flag="0"/>
      <psa30 value="0.0009758426" flag="0"/>
    </comp>
    <comp name="--.HH1">
      <acc value="0.0665640583" flag="0"/>
      <vel value="0.0350896227" flag="0"/>
      <psa03 value="0.1600370611" flag="0"/>
      <psa10 value="0.0216743354" flag="0"/>
      <psa30 value="0.0013252291" flag="0"/>
    </comp>
  </station>
  <station code="BH05A" name="BH05A" netid="Y5" insttype="STS2_gen2" lat="43.1695" lon="18.5854">
    <comp name="--.HHZ">
      <acc value="0.9673818300" flag="0"/>
      <vel value="0.1504232788" flag="0"/>
      <psa03 value="0.5006115439" flag="0"/>
      <psa10 value="0.0604953305" flag="0"/>
      <psa30 value="0.0061726248" flag="0"/>
    </comp>
    <comp name="--.HH2">
      <acc value="2.9046892593" flag="0"/>
      <vel value="0.3767508294" flag="0"/>
      <psa03 value="0.6296408231" flag="0"/>
      <psa10 value="0.0808963621" flag="0"/>
      <psa30 value="0.0081637536" flag="0"/>
    </comp>
    <comp name="--.HH1">
      <acc value="2.8204536339" flag="0"/>
      <vel value="0.4593088362" flag="0"/>
      <psa03 value="0.7234296477" flag="0"/>
      <psa10 value="0.0578752157" flag="0"/>
      <psa30 value="0.0074394725" flag="0"/>
    </comp>
  </station>
  <station code="BH06A" name="BH06A" netid="Y5" insttype="STS2_gen3" lat="43.5022" lon="18.4463">
    <comp name="--.HH1">
      <acc value="0.1041114084" flag="0"/>
      <vel value="0.0588195457" flag="0"/>
      <psa03 value="0.2056614007" flag="0"/>
      <psa10 value="0.0325759477" flag="0"/>
      <psa30 value="0.0021821062" flag="0"/>
    </comp>
    <comp name="--.HHZ">
      <acc value="0.0398490386" flag="0"/>
      <vel value="0.0242093434" flag="0"/>
      <psa03 value="0.1147240689" flag="0"/>
      <psa10 value="0.0198116066" flag="0"/>
      <psa30 value="0.0010983272" flag="0"/>
    </comp>
    <comp name="--.HH2">
      <acc value="0.1891806241" flag="0"/>
      <vel value="0.1206107189" flag="0"/>
      <psa03 value="0.4658443684" flag="0"/>
      <psa10 value="0.0737644019" flag="0"/>
      <psa30 value="0.0058678712" flag="0"/>
    </comp>
  </station>
  <station code="BH07A" name="BH07A" netid="Y5" insttype="STS2_gen3" lat="43.7511" lon="18.0361">
    <comp name="--.HH2">
      <acc value="0.0296966369" flag="0"/>
      <vel value="0.0078330640" flag="0"/>
      <psa03 value="0.0453624578" flag="0"/>
      <psa10 value="0.0047251141" flag="0"/>
      <psa30 value="0.0003494472" flag="0"/>
    </comp>
    <comp name="--.HHZ">
      <acc value="0.0150273968" flag="0"/>
      <vel value="0.0052911802" flag="0"/>
      <psa03 value="0.0267675896" flag="0"/>
      <psa10 value="0.0037328513" flag="0"/>
      <psa30 value="0.0002366539" flag="0"/>
    </comp>
    <comp name="--.HH1">
      <acc value="0.0233574255" flag="0"/>
      <vel value="0.0080836411" flag="0"/>
      <psa03 value="0.0355366010" flag="0"/>
      <psa10 value="0.0034691271" flag="0"/>
      <psa30 value="0.0002708910" flag="0"/>
    </comp>
  </station>
</stationlist>
