<stationlist created="1778069544">
	<station code="IMMV" name="IMMV" netid="GE" source="GEOFON" insttype="" lat="35.4606" lon="23.9811">
		<comp name="--.HNE" depth="0.0">
			<acc value="0.00117644793268247" flag="0"/>
			<vel value="0.00125120781583324" flag="0"/>
			<psa03 value="0.00295298563680594" flag="0"/>
			<psa10 value="0.00375700308973628" flag="0"/>
			<psa30 value="0.000438473624859063" flag="0"/>
		</comp>
		<comp name="--.HNN" depth="0.0">
			<acc value="0.00113344415374947" flag="0"/>
			<vel value="0.00114008654871042" flag="0"/>
			<psa03 value="0.00299772784342421" flag="0"/>
			<psa10 value="0.00182413976382694" flag="0"/>
			<psa30 value="0.000334671705504673" flag="0"/>
		</comp>
		<comp name="--.HNZ" depth="0.0">
			<acc value="0.000836564092730193" flag="0"/>
			<vel value="0.000756486770458887" flag="0"/>
			<psa03 value="0.0023713369507684" flag="0"/>
			<psa10 value="0.00150199587617538" flag="0"/>
			<psa30 value="0.00022729040962082" flag="0"/>
		</comp>
	</station>
	<station code="KARP" name="KARP" netid="GE" source="GEOFON" insttype="" lat="35.5471" lon="27.16106">
		<comp name="--.HNE" depth="0.0">
			<acc value="0.0057736827127933" flag="0"/>
			<vel value="0.00142598749062567" flag="0"/>
			<psa03 value="0.00241607915738667" flag="0"/>
			<psa10 value="0.00159863904247085" flag="0"/>
			<psa30 value="0.000514982798176308" flag="0"/>
		</comp>
		<comp name="--.HNN" depth="0.0">
			<acc value="0.00484307331003898" flag="0"/>
			<vel value="0.00128171973780294" flag="0"/>
			<psa03 value="0.00170020385149433" flag="0"/>
			<psa10 value="0.00204964048518303" flag="0"/>
			<psa30 value="0.00034406756889451" flag="0"/>
		</comp>
		<comp name="--.HNZ" depth="0.0">
			<acc value="0.00150061909015876" flag="0"/>
			<vel value="0.000970611281321562" flag="0"/>
			<psa03 value="0.00147649281840297" flag="0"/>
			<psa10 value="0.000938244072785159" flag="0"/>
			<psa30 value="0.000655473326957681" flag="0"/>
		</comp>
	</station>
	<station code="SIT2" name="SIT2" netid="HI" source="ITSAK Strong Motion Network" insttype="" lat="35.2059" lon="26.107">
		<comp name="--.HNE" depth="0.0">
			<acc value="0.0219438821397439" flag="0"/>
			<vel value="0.0144775574570317" flag="0"/>
			<psa03 value="0.0764644311106264" flag="0"/>
			<psa10 value="0.0133488373445614" flag="0"/>
			<psa30 value="0.000930637897660052" flag="0"/>
		</comp>
		<comp name="--.HNN" depth="0.0">
			<acc value="0.0251269144945328" flag="0"/>
			<vel value="0.0158469326936477" flag="0"/>
			<psa03 value="0.0736456720936753" flag="0"/>
			<psa10 value="0.0103730331823801" flag="0"/>
			<psa30 value="0.000981196591138699" flag="0"/>
		</comp>
		<comp name="--.HNZ" depth="0.0">
			<acc value="0.0152591305508924" flag="0"/>
			<vel value="0.00549953550312775" flag="0"/>
			<psa03 value="0.0368228360468377" flag="0"/>
			<psa10 value="0.00242413275457796" flag="0"/>
			<psa30 value="0.00072124437068654" flag="0"/>
		</comp>
	</station>
	<station code="IACM" name="IACM" netid="HL" source="National Observatory of Athens Seismic Network" insttype="" lat="35.3058" lon="25.0709">
		<comp name="--.HNE" depth="0.0">
			<acc value="0.0100540716811349" flag="0"/>
			<vel value="0.0156143655495271" flag="0"/>
			<psa03 value="0.0255030577724149" flag="0"/>
			<psa10 value="0.025799698602294" flag="0"/>
			<psa30 value="0.00169438736463395" flag="0"/>
		</comp>
		<comp name="--.HNN" depth="0.0">
			<acc value="0.00905392155095732" flag="0"/>
			<vel value="0.0092764587211003" flag="0"/>
			<psa03 value="0.0250556357062322" flag="0"/>
			<psa10 value="0.0202668773318786" flag="0"/>
			<psa30 value="0.00137313832111476" flag="0"/>
		</comp>
		<comp name="--.HNZ" depth="0.0">
			<acc value="0.0054716215368322" flag="0"/>
			<vel value="0.00390038094134778" flag="0"/>
			<psa03 value="0.0130199821259171" flag="0"/>
			<psa10 value="0.00569389321424126" flag="0"/>
			<psa30 value="0.000619232139596881" flag="0"/>
		</comp>
	</station>
</stationlist>
