<?xml version="1.0" encoding="UTF-8" standalone="yes"?>
<!DOCTYPE earthquake SYSTEM "stationlist.dtd">
<stationlist created="" xmlns="ch.ethz.sed.shakemap.usgs.xml">
  <station code="BLY" name="BLY" netid="MN" insttype="" lat="44.7488" lon="17.1839">
    <comp name="--.HHZ">
      <acc value="0.0761982369" flag="0"/>
      <vel value="0.0227516948" flag="0"/>
      <psa03 value="0.2236911505" flag="0"/>
      <psa10 value="0.0066194474" flag="0"/>
      <psa30 value="0.0005248094" flag="0"/>
    </comp>
    <comp name="--.HHE">
      <acc value="0.0997035762" flag="0"/>
      <vel value="0.0318895839" flag="0"/>
      <psa03 value="0.2343125604" flag="0"/>
      <psa10 value="0.0104961628" flag="0"/>
      <psa30 value="0.0009086729" flag="0"/>
    </comp>
    <comp name="--.HHN">
      <acc value="0.1086647299" flag="0"/>
      <vel value="0.0301035730" flag="0"/>
      <psa03 value="0.1658958139" flag="0"/>
      <psa10 value="0.0082733567" flag="0"/>
      <psa30 value="0.0005639057" flag="0"/>
    </comp>
  </station>
  <station code="BH02A" name="BH02A" netid="Y5" insttype="STS2_gen3" lat="43.8746" lon="18.4241">
    <comp name="--.HH1">
      <acc value="0.0059453382" flag="0"/>
      <vel value="0.0031501870" flag="0"/>
      <psa03 value="0.0161336999" flag="0"/>
      <psa10 value="0.0018566915" flag="0"/>
      <psa30 value="0.0001451627" flag="0"/>
    </comp>
    <comp name="--.HHZ">
      <acc value="0.0047944416" flag="0"/>
      <vel value="0.0021176081" flag="0"/>
      <psa03 value="0.0104083061" flag="0"/>
      <psa10 value="0.0011908395" flag="0"/>
      <psa30 value="0.0000984811" flag="0"/>
    </comp>
    <comp name="--.HH2">
      <acc value="0.0045355728" flag="0"/>
      <vel value="0.0019188706" flag="0"/>
      <psa03 value="0.0073262264" flag="0"/>
      <psa10 value="0.0026534075" flag="0"/>
      <psa30 value="0.0002106687" flag="0"/>
    </comp>
  </station>
  <station code="BH04A" name="BH04A" netid="Y5" insttype="STS2_gen2" lat="43.3483" lon="17.7935">
    <comp name="--.HHZ">
      <acc value="0.0046757428" flag="0"/>
      <vel value="0.0031523738" flag="0"/>
      <psa03 value="0.0083813900" flag="0"/>
      <psa10 value="0.0044894066" flag="0"/>
      <psa30 value="0.0001590384" flag="0"/>
    </comp>
    <comp name="--.HH1">
      <acc value="0.0056332739" flag="0"/>
      <vel value="0.0034256187" flag="0"/>
      <psa03 value="0.0148981433" flag="0"/>
      <psa10 value="0.0040675618" flag="0"/>
      <psa30 value="0.0001940864" flag="0"/>
    </comp>
    <comp name="--.HH2">
      <acc value="0.0103626116" flag="0"/>
      <vel value="0.0040082309" flag="0"/>
      <psa03 value="0.0296261927" flag="0"/>
      <psa10 value="0.0046207407" flag="0"/>
      <psa30 value="0.0002894255" flag="0"/>
    </comp>
  </station>
  <station code="BH06A" name="BH06A" netid="Y5" insttype="STS2_gen3" lat="43.5022" lon="18.4463">
    <comp name="--.HH1">
      <acc value="0.0134155477" flag="0"/>
      <vel value="0.0060466929" flag="0"/>
      <psa03 value="0.0278381021" flag="0"/>
      <psa10 value="0.0031608498" flag="0"/>
      <psa30 value="0.0001948026" flag="0"/>
    </comp>
    <comp name="--.HH2">
      <acc value="0.0110764757" flag="0"/>
      <vel value="0.0060332374" flag="0"/>
      <psa03 value="0.0323946346" flag="0"/>
      <psa10 value="0.0033189192" flag="0"/>
      <psa30 value="0.0003075996" flag="0"/>
    </comp>
    <comp name="--.HHZ">
      <acc value="0.0066225027" flag="0"/>
      <vel value="0.0029416028" flag="0"/>
      <psa03 value="0.0193193199" flag="0"/>
      <psa10 value="0.0026172676" flag="0"/>
      <psa30 value="0.0001143706" flag="0"/>
    </comp>
  </station>
  <station code="BH07A" name="BH07A" netid="Y5" insttype="STS2_gen3" lat="43.7511" lon="18.0361">
    <comp name="--.HHZ">
      <acc value="0.0557871409" flag="0"/>
      <vel value="0.0040139489" flag="0"/>
      <psa03 value="0.0188323682" flag="0"/>
      <psa10 value="0.0025259967" flag="0"/>
      <psa30 value="0.0001551116" flag="0"/>
    </comp>
    <comp name="--.HH2">
      <acc value="0.0407838945" flag="0"/>
      <vel value="0.0073190236" flag="0"/>
      <psa03 value="0.0291153291" flag="0"/>
      <psa10 value="0.0037809704" flag="0"/>
      <psa30 value="0.0004760835" flag="0"/>
    </comp>
    <comp name="--.HH1">
      <acc value="0.0368461896" flag="0"/>
      <vel value="0.0063586536" flag="0"/>
      <psa03 value="0.0279877576" flag="0"/>
      <psa10 value="0.0017326313" flag="0"/>
      <psa30 value="0.0003050365" flag="0"/>
    </comp>
  </station>
  <station code="BH08A" name="BH08A" netid="Y5" insttype="STS2_gen2" lat="44.2357" lon="18.0082">
    <comp name="--.HH1">
      <acc value="0.2179533177" flag="0"/>
      <vel value="0.0357709738" flag="0"/>
      <psa03 value="0.1071183740" flag="0"/>
      <psa10 value="0.0080677365" flag="0"/>
      <psa30 value="0.0008045211" flag="0"/>
    </comp>
    <comp name="--.HHZ">
      <acc value="0.1677995180" flag="0"/>
      <vel value="0.0170090802" flag="0"/>
      <psa03 value="0.0980290728" flag="0"/>
      <psa10 value="0.0068058510" flag="0"/>
      <psa30 value="0.0006454369" flag="0"/>
    </comp>
    <comp name="--.HH2">
      <acc value="0.2429446640" flag="0"/>
      <vel value="0.0378587707" flag="0"/>
      <psa03 value="0.1988337773" flag="0"/>
      <psa10 value="0.0100938426" flag="0"/>
      <psa30 value="0.0009883208" flag="0"/>
    </comp>
  </station>
  <station code="BH09A" name="BH09A" netid="Y5" insttype="STS2_gen3" lat="44.7856" lon="16.6156">
    <comp name="--.HH2">
      <acc value="0.0419671258" flag="0"/>
      <vel value="0.0106481575" flag="0"/>
      <psa03 value="0.0776732157" flag="0"/>
      <psa10 value="0.0061803048" flag="0"/>
      <psa30 value="0.0004170837" flag="0"/>
    </comp>
    <comp name="--.HHZ">
      <acc value="0.0269661661" flag="0"/>
      <vel value="0.0081540548" flag="0"/>
      <psa03 value="0.0534084042" flag="0"/>
      <psa10 value="0.0053768387" flag="0"/>
      <psa30 value="0.0003127517" flag="0"/>
    </comp>
    <comp name="--.HH1">
      <acc value="0.0411995782" flag="0"/>
      <vel value="0.0165544598" flag="0"/>
      <psa03 value="0.0679681488" flag="0"/>
      <psa10 value="0.0064414040" flag="0"/>
      <psa30 value="0.0005472527" flag="0"/>
    </comp>
  </station>
  <station code="BH10A" name="BH10A" netid="Y5" insttype="STS2_gen3" lat="44.0685" lon="17.1657">
    <comp name="--.HHZ">
      <acc value="0.0406770147" flag="0"/>
      <vel value="0.0087946849" flag="0"/>
      <psa03 value="0.0437703661" flag="0"/>
      <psa10 value="0.0041202944" flag="0"/>
      <psa30 value="0.0003326574" flag="0"/>
    </comp>
    <comp name="--.HH1">
      <acc value="0.1429445468" flag="0"/>
      <vel value="0.0249078618" flag="0"/>
      <psa03 value="0.0780847176" flag="0"/>
      <psa10 value="0.0065052058" flag="0"/>
      <psa30 value="0.0004532309" flag="0"/>
    </comp>
    <comp name="--.HH2">
      <acc value="0.1415941914" flag="0"/>
      <vel value="0.0293336098" flag="0"/>
      <psa03 value="0.1182911531" flag="0"/>
      <psa10 value="0.0118460258" flag="0"/>
      <psa30 value="0.0007933706" flag="0"/>
    </comp>
  </station>
  <station code="BH11A" name="BH11A" netid="Y5" insttype="STS2_gen3" lat="44.4818" lon="16.5313">
    <comp name="--.HHZ">
      <acc value="0.0060826741" flag="0"/>
      <vel value="0.0018469291" flag="0"/>
      <psa03 value="0.0093869960" flag="0"/>
      <psa10 value="0.0013046778" flag="0"/>
      <psa30 value="0.0000678636" flag="0"/>
    </comp>
    <comp name="--.HH1">
      <acc value="0.0205885035" flag="0"/>
      <vel value="0.0047080367" flag="0"/>
      <psa03 value="0.0233260367" flag="0"/>
      <psa10 value="0.0018815634" flag="0"/>
      <psa30 value="0.0001640746" flag="0"/>
    </comp>
    <comp name="--.HH2">
      <acc value="0.0179551505" flag="0"/>
      <vel value="0.0043821764" flag="0"/>
      <psa03 value="0.0197886587" flag="0"/>
      <psa10 value="0.0026338333" flag="0"/>
      <psa30 value="0.0001151484" flag="0"/>
    </comp>
  </station>
  <station code="BH15A" name="BH15A" netid="Y5" insttype="STS2_gen3" lat="45.0581" lon="18.4648">
    <comp name="--.HHZ">
      <acc value="0.0721115088" flag="0"/>
      <vel value="0.0127543075" flag="0"/>
      <psa03 value="0.0439224705" flag="0"/>
      <psa10 value="0.0034025504" flag="0"/>
      <psa30 value="0.0003064197" flag="0"/>
    </comp>
    <comp name="--.HH1">
      <acc value="0.0894007513" flag="0"/>
      <vel value="0.0239483874" flag="0"/>
      <psa03 value="0.1193241065" flag="0"/>
      <psa10 value="0.0131258308" flag="0"/>
      <psa30 value="0.0010939626" flag="0"/>
    </comp>
    <comp name="--.HH2">
      <acc value="0.0532561179" flag="0"/>
      <vel value="0.0203748460" flag="0"/>
      <psa03 value="0.1269602939" flag="0"/>
      <psa10 value="0.0099800996" flag="0"/>
      <psa30 value="0.0006847978" flag="0"/>
    </comp>
  </station>
  <station code="BH16A" name="BH16A" netid="Y5" insttype="STS2_gen2" lat="44.7263" lon="18.0892">
    <comp name="--.HHZ">
      <acc value="0.0978600215" flag="0"/>
      <vel value="0.0155070013" flag="0"/>
      <psa03 value="0.0559983059" flag="0"/>
      <psa10 value="0.0174126286" flag="0"/>
      <psa30 value="0.0004564617" flag="0"/>
    </comp>
    <comp name="--.HH2">
      <acc value="0.1665695466" flag="0"/>
      <vel value="0.0333884917" flag="0"/>
      <psa03 value="0.0999185796" flag="0"/>
      <psa10 value="0.0213730303" flag="0"/>
      <psa30 value="0.0014512940" flag="0"/>
    </comp>
    <comp name="--.HH1">
      <acc value="0.1956273529" flag="0"/>
      <vel value="0.0378053333" flag="0"/>
      <psa03 value="0.0902719661" flag="0"/>
      <psa10 value="0.0123894053" flag="0"/>
      <psa30 value="0.0008980892" flag="0"/>
    </comp>
  </station>
  <station code="BH17A" name="BH17A" netid="Y5" insttype="STS2_gen3" lat="44.3837" lon="18.5514">
    <comp name="--.HH2">
      <acc value="0.0226178098" flag="0"/>
      <vel value="0.0070317394" flag="0"/>
      <psa03 value="0.0358447458" flag="0"/>
      <psa10 value="0.0032616473" flag="0"/>
      <psa30 value="0.0001792936" flag="0"/>
    </comp>
    <comp name="--.HH1">
      <acc value="0.0266126426" flag="0"/>
      <vel value="0.0092377402" flag="0"/>
      <psa03 value="0.0701595474" flag="0"/>
      <psa10 value="0.0044115980" flag="0"/>
      <psa30 value="0.0003132158" flag="0"/>
    </comp>
    <comp name="--.HHZ">
      <acc value="0.0221761717" flag="0"/>
      <vel value="0.0086925771" flag="0"/>
      <psa03 value="0.0515144079" flag="0"/>
      <psa10 value="0.0039349887" flag="0"/>
      <psa30 value="0.0001906315" flag="0"/>
    </comp>
  </station>
  <station code="BH18A" name="BH18A" netid="Y5" insttype="STS2_gen3" lat="44.7704" lon="18.9972">
    <comp name="--.HH1">
      <acc value="0.0485242289" flag="0"/>
      <vel value="0.0200779977" flag="0"/>
      <psa03 value="0.1427199041" flag="0"/>
      <psa10 value="0.0135282878" flag="0"/>
      <psa30 value="0.0010063162" flag="0"/>
    </comp>
    <comp name="--.HHZ">
      <acc value="0.0290969013" flag="0"/>
      <vel value="0.0094252707" flag="0"/>
      <psa03 value="0.0561606342" flag="0"/>
      <psa10 value="0.0075818141" flag="0"/>
      <psa30 value="0.0005113607" flag="0"/>
    </comp>
    <comp name="--.HH2">
      <acc value="0.0482679066" flag="0"/>
      <vel value="0.0188283507" flag="0"/>
      <psa03 value="0.1352915262" flag="0"/>
      <psa10 value="0.0110124707" flag="0"/>
      <psa30 value="0.0011228867" flag="0"/>
    </comp>
  </station>
  <station code="BH20A" name="BH20A" netid="Y5" insttype="STS2_gen3" lat="45.0928" lon="17.6625">
    <comp name="--.HH1">
      <acc value="0.1273081597" flag="0"/>
      <vel value="0.0185916582" flag="0"/>
      <psa03 value="0.0908839506" flag="0"/>
      <psa10 value="0.0031472463" flag="0"/>
      <psa30 value="0.0003044863" flag="0"/>
    </comp>
    <comp name="--.HHZ">
      <acc value="0.0693469362" flag="0"/>
      <vel value="0.0107751177" flag="0"/>
      <psa03 value="0.0395536845" flag="0"/>
      <psa10 value="0.0019012547" flag="0"/>
      <psa30 value="0.0001381764" flag="0"/>
    </comp>
    <comp name="--.HH2">
      <acc value="0.1628820704" flag="0"/>
      <vel value="0.0224194310" flag="0"/>
      <psa03 value="0.0890941665" flag="0"/>
      <psa10 value="0.0039210109" flag="0"/>
      <psa30 value="0.0003581770" flag="0"/>
    </comp>
  </station>
</stationlist>
