<?xml version="1.0" encoding="UTF-8" standalone="yes"?>
<!DOCTYPE earthquake SYSTEM "stationlist.dtd">
<stationlist created="" xmlns="ch.ethz.sed.shakemap.usgs.xml">
  <station code="BLY" name="BLY" netid="MN" insttype="" lat="44.7488" lon="17.1839">
    <comp name="--.HHN">
      <acc value="0.1086647301" flag="0"/>
      <vel value="0.0301035730" flag="0"/>
      <psa03 value="0.1658958139" flag="0"/>
      <psa10 value="0.0082733565" flag="0"/>
      <psa30 value="0.0005639404" flag="0"/>
    </comp>
    <comp name="--.HHZ">
      <acc value="0.0761982359" flag="0"/>
      <vel value="0.0227516947" flag="0"/>
      <psa03 value="0.2236911505" flag="0"/>
      <psa10 value="0.0066194474" flag="0"/>
      <psa30 value="0.0005247995" flag="0"/>
    </comp>
    <comp name="--.HHE">
      <acc value="0.0997035754" flag="0"/>
      <vel value="0.0318895841" flag="0"/>
      <psa03 value="0.2343125604" flag="0"/>
      <psa10 value="0.0104961628" flag="0"/>
      <psa30 value="0.0009086681" flag="0"/>
    </comp>
  </station>
  <station code="BH01A" name="BH01A" netid="Y5" insttype="STS2_gen3" lat="43.6265" lon="18.9627">
    <comp name="--.HH1">
      <acc value="0.0252511587" flag="0"/>
      <vel value="0.0032089780" flag="0"/>
      <psa03 value="0.0237180764" flag="0"/>
      <psa10 value="0.0021376324" flag="0"/>
      <psa30 value="0.0001860485" flag="0"/>
    </comp>
    <comp name="--.HHZ">
      <acc value="0.0050727199" flag="0"/>
      <vel value="0.0014521568" flag="0"/>
      <psa03 value="0.0107958066" flag="0"/>
      <psa10 value="0.0020063807" flag="0"/>
      <psa30 value="0.0001636465" flag="0"/>
    </comp>
    <comp name="--.HH2">
      <acc value="0.0203244965" flag="0"/>
      <vel value="0.0026863184" flag="0"/>
      <psa03 value="0.0109963536" flag="0"/>
      <psa10 value="0.0027909875" flag="0"/>
      <psa30 value="0.0001851558" flag="0"/>
    </comp>
  </station>
  <station code="BH02A" name="BH02A" netid="Y5" insttype="STS2_gen3" lat="43.8746" lon="18.4241">
    <comp name="--.HHZ">
      <acc value="0.0047944436" flag="0"/>
      <vel value="0.0021176082" flag="0"/>
      <psa03 value="0.0104083061" flag="0"/>
      <psa10 value="0.0011908395" flag="0"/>
      <psa30 value="0.0000984805" flag="0"/>
    </comp>
    <comp name="--.HH1">
      <acc value="0.0059453424" flag="0"/>
      <vel value="0.0031501868" flag="0"/>
      <psa03 value="0.0161336999" flag="0"/>
      <psa10 value="0.0018566915" flag="0"/>
      <psa30 value="0.0001451619" flag="0"/>
    </comp>
    <comp name="--.HH2">
      <acc value="0.0045355702" flag="0"/>
      <vel value="0.0019188706" flag="0"/>
      <psa03 value="0.0073262264" flag="0"/>
      <psa10 value="0.0026534075" flag="0"/>
      <psa30 value="0.0002106608" flag="0"/>
    </comp>
  </station>
  <station code="BH04A" name="BH04A" netid="Y5" insttype="STS2_gen2" lat="43.3483" lon="17.7935">
    <comp name="--.HH1">
      <acc value="0.0056332753" flag="0"/>
      <vel value="0.0034256194" flag="0"/>
      <psa03 value="0.0148981433" flag="0"/>
      <psa10 value="0.0040675618" flag="0"/>
      <psa30 value="0.0001940941" flag="0"/>
    </comp>
    <comp name="--.HHZ">
      <acc value="0.0046757428" flag="0"/>
      <vel value="0.0031523733" flag="0"/>
      <psa03 value="0.0083813900" flag="0"/>
      <psa10 value="0.0044894066" flag="0"/>
      <psa30 value="0.0001590508" flag="0"/>
    </comp>
    <comp name="--.HH2">
      <acc value="0.0103626117" flag="0"/>
      <vel value="0.0040082314" flag="0"/>
      <psa03 value="0.0296261927" flag="0"/>
      <psa10 value="0.0046207408" flag="0"/>
      <psa30 value="0.0002894846" flag="0"/>
    </comp>
  </station>
  <station code="BH06A" name="BH06A" netid="Y5" insttype="STS2_gen3" lat="43.5022" lon="18.4463">
    <comp name="--.HH2">
      <acc value="0.0110764740" flag="0"/>
      <vel value="0.0060332364" flag="0"/>
      <psa03 value="0.0323946346" flag="0"/>
      <psa10 value="0.0033189193" flag="0"/>
      <psa30 value="0.0003076465" flag="0"/>
    </comp>
    <comp name="--.HHZ">
      <acc value="0.0066225053" flag="0"/>
      <vel value="0.0029416033" flag="0"/>
      <psa03 value="0.0193193199" flag="0"/>
      <psa10 value="0.0026172676" flag="0"/>
      <psa30 value="0.0001143638" flag="0"/>
    </comp>
    <comp name="--.HH1">
      <acc value="0.0134155515" flag="0"/>
      <vel value="0.0060466928" flag="0"/>
      <psa03 value="0.0278381021" flag="0"/>
      <psa10 value="0.0031608498" flag="0"/>
      <psa30 value="0.0001947972" flag="0"/>
    </comp>
  </station>
  <station code="BH07A" name="BH07A" netid="Y5" insttype="STS2_gen3" lat="43.7511" lon="18.0361">
    <comp name="--.HH1">
      <acc value="0.0368461894" flag="0"/>
      <vel value="0.0063586528" flag="0"/>
      <psa03 value="0.0279877576" flag="0"/>
      <psa10 value="0.0017326311" flag="0"/>
      <psa30 value="0.0003050698" flag="0"/>
    </comp>
    <comp name="--.HH2">
      <acc value="0.0407838941" flag="0"/>
      <vel value="0.0073190219" flag="0"/>
      <psa03 value="0.0291153291" flag="0"/>
      <psa10 value="0.0037809703" flag="0"/>
      <psa30 value="0.0004760124" flag="0"/>
    </comp>
    <comp name="--.HHZ">
      <acc value="0.0557871394" flag="0"/>
      <vel value="0.0040139511" flag="0"/>
      <psa03 value="0.0188323682" flag="0"/>
      <psa10 value="0.0025259969" flag="0"/>
      <psa30 value="0.0001550953" flag="0"/>
    </comp>
  </station>
  <station code="BH08A" name="BH08A" netid="Y5" insttype="STS2_gen2" lat="44.2357" lon="18.0082">
    <comp name="--.HHZ">
      <acc value="0.1677995177" flag="0"/>
      <vel value="0.0170090803" flag="0"/>
      <psa03 value="0.0980290728" flag="0"/>
      <psa10 value="0.0068058511" flag="0"/>
      <psa30 value="0.0006454269" flag="0"/>
    </comp>
    <comp name="--.HH2">
      <acc value="0.2429446644" flag="0"/>
      <vel value="0.0378587707" flag="0"/>
      <psa03 value="0.1988337773" flag="0"/>
      <psa10 value="0.0100938426" flag="0"/>
      <psa30 value="0.0009884278" flag="0"/>
    </comp>
    <comp name="--.HH1">
      <acc value="0.2179533162" flag="0"/>
      <vel value="0.0357709744" flag="0"/>
      <psa03 value="0.1071183740" flag="0"/>
      <psa10 value="0.0080677365" flag="0"/>
      <psa30 value="0.0008045514" flag="0"/>
    </comp>
  </station>
  <station code="BH09A" name="BH09A" netid="Y5" insttype="STS2_gen3" lat="44.7856" lon="16.6156">
    <comp name="--.HH1">
      <acc value="0.0411995777" flag="0"/>
      <vel value="0.0165544599" flag="0"/>
      <psa03 value="0.0679681488" flag="0"/>
      <psa10 value="0.0064414040" flag="0"/>
      <psa30 value="0.0005472528" flag="0"/>
    </comp>
    <comp name="--.HHZ">
      <acc value="0.0269661693" flag="0"/>
      <vel value="0.0081540551" flag="0"/>
      <psa03 value="0.0534084042" flag="0"/>
      <psa10 value="0.0053768387" flag="0"/>
      <psa30 value="0.0003127492" flag="0"/>
    </comp>
    <comp name="--.HH2">
      <acc value="0.0419671254" flag="0"/>
      <vel value="0.0106481575" flag="0"/>
      <psa03 value="0.0776732157" flag="0"/>
      <psa10 value="0.0061803048" flag="0"/>
      <psa30 value="0.0004170830" flag="0"/>
    </comp>
  </station>
  <station code="BH10A" name="BH10A" netid="Y5" insttype="STS2_gen3" lat="44.0685" lon="17.1657">
    <comp name="--.HH1">
      <acc value="0.1429445473" flag="0"/>
      <vel value="0.0249078619" flag="0"/>
      <psa03 value="0.0780847176" flag="0"/>
      <psa10 value="0.0065052062" flag="0"/>
      <psa30 value="0.0004532608" flag="0"/>
    </comp>
    <comp name="--.HHZ">
      <acc value="0.0406770165" flag="0"/>
      <vel value="0.0087946851" flag="0"/>
      <psa03 value="0.0437703661" flag="0"/>
      <psa10 value="0.0041202938" flag="0"/>
      <psa30 value="0.0003326611" flag="0"/>
    </comp>
    <comp name="--.HH2">
      <acc value="0.1415941929" flag="0"/>
      <vel value="0.0293336101" flag="0"/>
      <psa03 value="0.1182911531" flag="0"/>
      <psa10 value="0.0118460255" flag="0"/>
      <psa30 value="0.0007932740" flag="0"/>
    </comp>
  </station>
  <station code="BH11A" name="BH11A" netid="Y5" insttype="STS2_gen3" lat="44.4818" lon="16.5313">
    <comp name="--.HH2">
      <acc value="0.0179551488" flag="0"/>
      <vel value="0.0043821762" flag="0"/>
      <psa03 value="0.0197886587" flag="0"/>
      <psa10 value="0.0026338333" flag="0"/>
      <psa30 value="0.0001151667" flag="0"/>
    </comp>
    <comp name="--.HHZ">
      <acc value="0.0060826753" flag="0"/>
      <vel value="0.0018469289" flag="0"/>
      <psa03 value="0.0093869960" flag="0"/>
      <psa10 value="0.0013046778" flag="0"/>
      <psa30 value="0.0000678797" flag="0"/>
    </comp>
    <comp name="--.HH1">
      <acc value="0.0205885047" flag="0"/>
      <vel value="0.0047080365" flag="0"/>
      <psa03 value="0.0233260367" flag="0"/>
      <psa10 value="0.0018815634" flag="0"/>
      <psa30 value="0.0001640971" flag="0"/>
    </comp>
  </station>
  <station code="BH13A" name="BH13A" netid="Y5" insttype="STS2_gen2" lat="44.8908" lon="16.3202">
    <comp name="--.HH1">
      <acc value="0.0110447111" flag="0"/>
      <vel value="0.0034481342" flag="0"/>
      <psa03 value="0.0183170429" flag="0"/>
      <psa10 value="0.0020583888" flag="0"/>
      <psa30 value="0.0001603989" flag="0"/>
    </comp>
    <comp name="--.HH2">
      <acc value="0.0093313654" flag="0"/>
      <vel value="0.0033302722" flag="0"/>
      <psa03 value="0.0171856135" flag="0"/>
      <psa10 value="0.0011927995" flag="0"/>
      <psa30 value="0.0001449042" flag="0"/>
    </comp>
    <comp name="--.HHZ">
      <acc value="0.0090312359" flag="0"/>
      <vel value="0.0033300874" flag="0"/>
      <psa03 value="0.0122727838" flag="0"/>
      <psa10 value="0.0020016348" flag="0"/>
      <psa30 value="0.0002121029" flag="0"/>
    </comp>
  </station>
  <station code="BH15A" name="BH15A" netid="Y5" insttype="STS2_gen3" lat="45.0581" lon="18.4648">
    <comp name="--.HHZ">
      <acc value="0.0721115103" flag="0"/>
      <vel value="0.0127543073" flag="0"/>
      <psa03 value="0.0439224705" flag="0"/>
      <psa10 value="0.0034025504" flag="0"/>
      <psa30 value="0.0003064467" flag="0"/>
    </comp>
    <comp name="--.HH1">
      <acc value="0.0894007495" flag="0"/>
      <vel value="0.0239483906" flag="0"/>
      <psa03 value="0.1193241065" flag="0"/>
      <psa10 value="0.0131258309" flag="0"/>
      <psa30 value="0.0010938901" flag="0"/>
    </comp>
    <comp name="--.HH2">
      <acc value="0.0532561149" flag="0"/>
      <vel value="0.0203748467" flag="0"/>
      <psa03 value="0.1269602939" flag="0"/>
      <psa10 value="0.0099800997" flag="0"/>
      <psa30 value="0.0006849010" flag="0"/>
    </comp>
  </station>
  <station code="BH16A" name="BH16A" netid="Y5" insttype="STS2_gen2" lat="44.7263" lon="18.0892">
    <comp name="--.HHZ">
      <acc value="0.0978600211" flag="0"/>
      <vel value="0.0155070016" flag="0"/>
      <psa03 value="0.0559983059" flag="0"/>
      <psa10 value="0.0174126284" flag="0"/>
      <psa30 value="0.0004564323" flag="0"/>
    </comp>
    <comp name="--.HH2">
      <acc value="0.1665695484" flag="0"/>
      <vel value="0.0333884868" flag="0"/>
      <psa03 value="0.0999185796" flag="0"/>
      <psa10 value="0.0213730307" flag="0"/>
      <psa30 value="0.0014511289" flag="0"/>
    </comp>
    <comp name="--.HH1">
      <acc value="0.1956273531" flag="0"/>
      <vel value="0.0378053346" flag="0"/>
      <psa03 value="0.0902719661" flag="0"/>
      <psa10 value="0.0123894052" flag="0"/>
      <psa30 value="0.0008980683" flag="0"/>
    </comp>
  </station>
  <station code="BH17A" name="BH17A" netid="Y5" insttype="STS2_gen3" lat="44.3837" lon="18.5514">
    <comp name="--.HH2">
      <acc value="0.0226178114" flag="0"/>
      <vel value="0.0070317386" flag="0"/>
      <psa03 value="0.0358447458" flag="0"/>
      <psa10 value="0.0032616472" flag="0"/>
      <psa30 value="0.0001793185" flag="0"/>
    </comp>
    <comp name="--.HH1">
      <acc value="0.0266126440" flag="0"/>
      <vel value="0.0092377395" flag="0"/>
      <psa03 value="0.0701595474" flag="0"/>
      <psa10 value="0.0044115980" flag="0"/>
      <psa30 value="0.0003132429" flag="0"/>
    </comp>
    <comp name="--.HHZ">
      <acc value="0.0221761733" flag="0"/>
      <vel value="0.0086925777" flag="0"/>
      <psa03 value="0.0515144079" flag="0"/>
      <psa10 value="0.0039349887" flag="0"/>
      <psa30 value="0.0001906597" flag="0"/>
    </comp>
  </station>
  <station code="BH18A" name="BH18A" netid="Y5" insttype="STS2_gen3" lat="44.7704" lon="18.9972">
    <comp name="--.HH1">
      <acc value="0.0485242307" flag="0"/>
      <vel value="0.0200779995" flag="0"/>
      <psa03 value="0.1427199041" flag="0"/>
      <psa10 value="0.0135282876" flag="0"/>
      <psa30 value="0.0010063563" flag="0"/>
    </comp>
    <comp name="--.HHZ">
      <acc value="0.0290969026" flag="0"/>
      <vel value="0.0094252708" flag="0"/>
      <psa03 value="0.0561606342" flag="0"/>
      <psa10 value="0.0075818141" flag="0"/>
      <psa30 value="0.0005113818" flag="0"/>
    </comp>
    <comp name="--.HH2">
      <acc value="0.0482679114" flag="0"/>
      <vel value="0.0188283527" flag="0"/>
      <psa03 value="0.1352915262" flag="0"/>
      <psa10 value="0.0110124707" flag="0"/>
      <psa30 value="0.0011228823" flag="0"/>
    </comp>
  </station>
  <station code="BH20A" name="BH20A" netid="Y5" insttype="STS2_gen3" lat="45.0928" lon="17.6625">
    <comp name="--.HH2">
      <acc value="0.1628820674" flag="0"/>
      <vel value="0.0224194305" flag="0"/>
      <psa03 value="0.0890941665" flag="0"/>
      <psa10 value="0.0039210108" flag="0"/>
      <psa30 value="0.0003581283" flag="0"/>
    </comp>
    <comp name="--.HHZ">
      <acc value="0.0693469331" flag="0"/>
      <vel value="0.0107751185" flag="0"/>
      <psa03 value="0.0395536845" flag="0"/>
      <psa10 value="0.0019012547" flag="0"/>
      <psa30 value="0.0001386590" flag="0"/>
    </comp>
    <comp name="--.HH1">
      <acc value="0.1273081575" flag="0"/>
      <vel value="0.0185916584" flag="0"/>
      <psa03 value="0.0908839506" flag="0"/>
      <psa10 value="0.0031472462" flag="0"/>
      <psa30 value="0.0003045766" flag="0"/>
    </comp>
  </station>
</stationlist>
