<?xml version="1.0" encoding="UTF-8" standalone="yes"?>
<!DOCTYPE earthquake SYSTEM "stationlist.dtd">
<stationlist created="" xmlns="ch.ethz.sed.shakemap.usgs.xml">
  <station code="BLY" name="BLY" netid="MN" insttype="" lat="44.7488" lon="17.1839">
    <comp name="--.HHZ">
      <acc value="0.0761982369" flag="0"/>
      <vel value="0.0227516954" flag="0"/>
      <psa03 value="0.2236911505" flag="0"/>
      <psa10 value="0.0066194472" flag="0"/>
      <psa30 value="0.0005248059" flag="0"/>
    </comp>
    <comp name="--.HHE">
      <acc value="0.0997035760" flag="0"/>
      <vel value="0.0318895842" flag="0"/>
      <psa03 value="0.2343125604" flag="0"/>
      <psa10 value="0.0104961628" flag="0"/>
      <psa30 value="0.0009087698" flag="0"/>
    </comp>
    <comp name="--.HHN">
      <acc value="0.1086647298" flag="0"/>
      <vel value="0.0301035735" flag="0"/>
      <psa03 value="0.1658958139" flag="0"/>
      <psa10 value="0.0082733562" flag="0"/>
      <psa30 value="0.0005640386" flag="0"/>
    </comp>
  </station>
  <station code="BH02A" name="BH02A" netid="Y5" insttype="STS2_gen3" lat="43.8746" lon="18.4241">
    <comp name="--.HHZ">
      <acc value="0.0047944413" flag="0"/>
      <vel value="0.0021176076" flag="0"/>
      <psa03 value="0.0104083061" flag="0"/>
      <psa10 value="0.0011908395" flag="0"/>
      <psa30 value="0.0000984448" flag="0"/>
    </comp>
    <comp name="--.HH1">
      <acc value="0.0059453383" flag="0"/>
      <vel value="0.0031501872" flag="0"/>
      <psa03 value="0.0161336999" flag="0"/>
      <psa10 value="0.0018566912" flag="0"/>
      <psa30 value="0.0001451629" flag="0"/>
    </comp>
    <comp name="--.HH2">
      <acc value="0.0045355700" flag="0"/>
      <vel value="0.0019188702" flag="0"/>
      <psa03 value="0.0073262264" flag="0"/>
      <psa10 value="0.0026534075" flag="0"/>
      <psa30 value="0.0002106831" flag="0"/>
    </comp>
  </station>
  <station code="BH06A" name="BH06A" netid="Y5" insttype="STS2_gen3" lat="43.5022" lon="18.4463">
    <comp name="--.HHZ">
      <acc value="0.0066225031" flag="0"/>
      <vel value="0.0029416026" flag="0"/>
      <psa03 value="0.0193193199" flag="0"/>
      <psa10 value="0.0026172676" flag="0"/>
      <psa30 value="0.0001143790" flag="0"/>
    </comp>
    <comp name="--.HH1">
      <acc value="0.0134155478" flag="0"/>
      <vel value="0.0060466925" flag="0"/>
      <psa03 value="0.0278381021" flag="0"/>
      <psa10 value="0.0031608498" flag="0"/>
      <psa30 value="0.0001947830" flag="0"/>
    </comp>
    <comp name="--.HH2">
      <acc value="0.0110764749" flag="0"/>
      <vel value="0.0060332364" flag="0"/>
      <psa03 value="0.0323946346" flag="0"/>
      <psa10 value="0.0033189191" flag="0"/>
      <psa30 value="0.0003074717" flag="0"/>
    </comp>
  </station>
  <station code="BH07A" name="BH07A" netid="Y5" insttype="STS2_gen3" lat="43.7511" lon="18.0361">
    <comp name="--.HH2">
      <acc value="0.0407838943" flag="0"/>
      <vel value="0.0073190220" flag="0"/>
      <psa03 value="0.0291153291" flag="0"/>
      <psa10 value="0.0037809706" flag="0"/>
      <psa30 value="0.0004761636" flag="0"/>
    </comp>
    <comp name="--.HH1">
      <acc value="0.0368461893" flag="0"/>
      <vel value="0.0063586530" flag="0"/>
      <psa03 value="0.0279877576" flag="0"/>
      <psa10 value="0.0017326311" flag="0"/>
      <psa30 value="0.0003050620" flag="0"/>
    </comp>
    <comp name="--.HHZ">
      <acc value="0.0557871422" flag="0"/>
      <vel value="0.0040139503" flag="0"/>
      <psa03 value="0.0188323682" flag="0"/>
      <psa10 value="0.0025259965" flag="0"/>
      <psa30 value="0.0001550861" flag="0"/>
    </comp>
  </station>
  <station code="BH08A" name="BH08A" netid="Y5" insttype="STS2_gen2" lat="44.2357" lon="18.0082">
    <comp name="--.HH2">
      <acc value="0.2429446641" flag="0"/>
      <vel value="0.0378587709" flag="0"/>
      <psa03 value="0.1988337773" flag="0"/>
      <psa10 value="0.0100938425" flag="0"/>
      <psa30 value="0.0009880999" flag="0"/>
    </comp>
    <comp name="--.HH1">
      <acc value="0.2179533182" flag="0"/>
      <vel value="0.0357709739" flag="0"/>
      <psa03 value="0.1071183740" flag="0"/>
      <psa10 value="0.0080677360" flag="0"/>
      <psa30 value="0.0008044561" flag="0"/>
    </comp>
    <comp name="--.HHZ">
      <acc value="0.1677995167" flag="0"/>
      <vel value="0.0170090790" flag="0"/>
      <psa03 value="0.0980290728" flag="0"/>
      <psa10 value="0.0068058504" flag="0"/>
      <psa30 value="0.0006452095" flag="0"/>
    </comp>
  </station>
  <station code="BH09A" name="BH09A" netid="Y5" insttype="STS2_gen3" lat="44.7856" lon="16.6156">
    <comp name="--.HHZ">
      <acc value="0.0269661666" flag="0"/>
      <vel value="0.0081540563" flag="0"/>
      <psa03 value="0.0534084042" flag="0"/>
      <psa10 value="0.0053768387" flag="0"/>
      <psa30 value="0.0003127515" flag="0"/>
    </comp>
    <comp name="--.HH2">
      <acc value="0.0419671273" flag="0"/>
      <vel value="0.0106481574" flag="0"/>
      <psa03 value="0.0776732157" flag="0"/>
      <psa10 value="0.0061803047" flag="0"/>
      <psa30 value="0.0004170382" flag="0"/>
    </comp>
    <comp name="--.HH1">
      <acc value="0.0411995788" flag="0"/>
      <vel value="0.0165544606" flag="0"/>
      <psa03 value="0.0679681488" flag="0"/>
      <psa10 value="0.0064414040" flag="0"/>
      <psa30 value="0.0005472621" flag="0"/>
    </comp>
  </station>
  <station code="BH10A" name="BH10A" netid="Y5" insttype="STS2_gen3" lat="44.0685" lon="17.1657">
    <comp name="--.HH1">
      <acc value="0.1429445457" flag="0"/>
      <vel value="0.0249078623" flag="0"/>
      <psa03 value="0.0780847176" flag="0"/>
      <psa10 value="0.0065052054" flag="0"/>
      <psa30 value="0.0004531794" flag="0"/>
    </comp>
    <comp name="--.HHZ">
      <acc value="0.0406770140" flag="0"/>
      <vel value="0.0087946850" flag="0"/>
      <psa03 value="0.0437703661" flag="0"/>
      <psa10 value="0.0041202961" flag="0"/>
      <psa30 value="0.0003326843" flag="0"/>
    </comp>
    <comp name="--.HH2">
      <acc value="0.1415941910" flag="0"/>
      <vel value="0.0293336094" flag="0"/>
      <psa03 value="0.1182911531" flag="0"/>
      <psa10 value="0.0118460249" flag="0"/>
      <psa30 value="0.0007933342" flag="0"/>
    </comp>
  </station>
  <station code="BH11A" name="BH11A" netid="Y5" insttype="STS2_gen3" lat="44.4818" lon="16.5313">
    <comp name="--.HHZ">
      <acc value="0.0060826740" flag="0"/>
      <vel value="0.0018469295" flag="0"/>
      <psa03 value="0.0093869960" flag="0"/>
      <psa10 value="0.0013046777" flag="0"/>
      <psa30 value="0.0000678127" flag="0"/>
    </comp>
    <comp name="--.HH1">
      <acc value="0.0205885033" flag="0"/>
      <vel value="0.0047080367" flag="0"/>
      <psa03 value="0.0233260367" flag="0"/>
      <psa10 value="0.0018815634" flag="0"/>
      <psa30 value="0.0001640475" flag="0"/>
    </comp>
    <comp name="--.HH2">
      <acc value="0.0179551503" flag="0"/>
      <vel value="0.0043821763" flag="0"/>
      <psa03 value="0.0197886587" flag="0"/>
      <psa10 value="0.0026338333" flag="0"/>
      <psa30 value="0.0001150941" flag="0"/>
    </comp>
  </station>
  <station code="BH15A" name="BH15A" netid="Y5" insttype="STS2_gen3" lat="45.0581" lon="18.4648">
    <comp name="--.HHZ">
      <acc value="0.0721115086" flag="0"/>
      <vel value="0.0127543063" flag="0"/>
      <psa03 value="0.0439224705" flag="0"/>
      <psa10 value="0.0034025504" flag="0"/>
      <psa30 value="0.0003064618" flag="0"/>
    </comp>
    <comp name="--.HH1">
      <acc value="0.0894007511" flag="0"/>
      <vel value="0.0239483895" flag="0"/>
      <psa03 value="0.1193241065" flag="0"/>
      <psa10 value="0.0131258309" flag="0"/>
      <psa30 value="0.0010938377" flag="0"/>
    </comp>
    <comp name="--.HH2">
      <acc value="0.0532561178" flag="0"/>
      <vel value="0.0203748463" flag="0"/>
      <psa03 value="0.1269602939" flag="0"/>
      <psa10 value="0.0099800997" flag="0"/>
      <psa30 value="0.0006849497" flag="0"/>
    </comp>
  </station>
  <station code="BH16A" name="BH16A" netid="Y5" insttype="STS2_gen2" lat="44.7263" lon="18.0892">
    <comp name="--.HH1">
      <acc value="0.1956273525" flag="0"/>
      <vel value="0.0378053221" flag="0"/>
      <psa03 value="0.0902719661" flag="0"/>
      <psa10 value="0.0123894052" flag="0"/>
      <psa30 value="0.0008983844" flag="0"/>
    </comp>
    <comp name="--.HHZ">
      <acc value="0.0978600216" flag="0"/>
      <vel value="0.0155070034" flag="0"/>
      <psa03 value="0.0559983059" flag="0"/>
      <psa10 value="0.0174126284" flag="0"/>
      <psa30 value="0.0004564035" flag="0"/>
    </comp>
    <comp name="--.HH2">
      <acc value="0.1665695478" flag="0"/>
      <vel value="0.0333884889" flag="0"/>
      <psa03 value="0.0999185796" flag="0"/>
      <psa10 value="0.0213730311" flag="0"/>
      <psa30 value="0.0014511393" flag="0"/>
    </comp>
  </station>
  <station code="BH17A" name="BH17A" netid="Y5" insttype="STS2_gen3" lat="44.3837" lon="18.5514">
    <comp name="--.HH1">
      <acc value="0.0266126426" flag="0"/>
      <vel value="0.0092377416" flag="0"/>
      <psa03 value="0.0701595474" flag="0"/>
      <psa10 value="0.0044115981" flag="0"/>
      <psa30 value="0.0003133626" flag="0"/>
    </comp>
    <comp name="--.HHZ">
      <acc value="0.0221761730" flag="0"/>
      <vel value="0.0086925772" flag="0"/>
      <psa03 value="0.0515144079" flag="0"/>
      <psa10 value="0.0039349886" flag="0"/>
      <psa30 value="0.0001906406" flag="0"/>
    </comp>
    <comp name="--.HH2">
      <acc value="0.0226178097" flag="0"/>
      <vel value="0.0070317392" flag="0"/>
      <psa03 value="0.0358447458" flag="0"/>
      <psa10 value="0.0032616475" flag="0"/>
      <psa30 value="0.0001794318" flag="0"/>
    </comp>
  </station>
  <station code="BH18A" name="BH18A" netid="Y5" insttype="STS2_gen3" lat="44.7704" lon="18.9972">
    <comp name="--.HHZ">
      <acc value="0.0290969011" flag="0"/>
      <vel value="0.0094252708" flag="0"/>
      <psa03 value="0.0561606342" flag="0"/>
      <psa10 value="0.0075818141" flag="0"/>
      <psa30 value="0.0005113875" flag="0"/>
    </comp>
    <comp name="--.HH2">
      <acc value="0.0482679084" flag="0"/>
      <vel value="0.0188283534" flag="0"/>
      <psa03 value="0.1352915262" flag="0"/>
      <psa10 value="0.0110124707" flag="0"/>
      <psa30 value="0.0011229062" flag="0"/>
    </comp>
    <comp name="--.HH1">
      <acc value="0.0485242288" flag="0"/>
      <vel value="0.0200779994" flag="0"/>
      <psa03 value="0.1427199041" flag="0"/>
      <psa10 value="0.0135282876" flag="0"/>
      <psa30 value="0.0010063911" flag="0"/>
    </comp>
  </station>
  <station code="BH20A" name="BH20A" netid="Y5" insttype="STS2_gen3" lat="45.0928" lon="17.6625">
    <comp name="--.HH2">
      <acc value="0.1628820693" flag="0"/>
      <vel value="0.0224194304" flag="0"/>
      <psa03 value="0.0890941665" flag="0"/>
      <psa10 value="0.0039210108" flag="0"/>
      <psa30 value="0.0003581188" flag="0"/>
    </comp>
    <comp name="--.HHZ">
      <acc value="0.0693469354" flag="0"/>
      <vel value="0.0107751187" flag="0"/>
      <psa03 value="0.0395536845" flag="0"/>
      <psa10 value="0.0019012547" flag="0"/>
      <psa30 value="0.0001387377" flag="0"/>
    </comp>
    <comp name="--.HH1">
      <acc value="0.1273081597" flag="0"/>
      <vel value="0.0185916582" flag="0"/>
      <psa03 value="0.0908839506" flag="0"/>
      <psa10 value="0.0031472462" flag="0"/>
      <psa30 value="0.0003045849" flag="0"/>
    </comp>
  </station>
</stationlist>
