<stationlist created="1709893876">
	<station code="KRL1" name="KRL1" netid="HI" source="ITSAK Strong Motion Network" insttype="" lat="37.7951" lon="26.7065">
		<comp name=".HNE" depth="0.0">
			<acc value="0.04182405455865" flag="0"/>
			<vel value="0.00946709487173" flag="0"/>
			<psa03 value="0.0669173548215196" flag="0"/>
			<psa10 value="0.0116915523204674" flag="0"/>
			<psa30 value="0.0010672600757442" flag="0"/>
		</comp>
		<comp name=".HNN" depth="0.0">
			<acc value="0.017196309546426" flag="0"/>
			<vel value="0.00767488629504" flag="0"/>
			<psa03 value="0.047737808228817" flag="0"/>
			<psa10 value="0.00923324290701441" flag="0"/>
			<psa30 value="0.000970248440862882" flag="0"/>
		</comp>
		<comp name=".HNZ" depth="0.0">
			<acc value="0.0079868261851326" flag="0"/>
			<vel value="0.00352079615959" flag="0"/>
			<psa03 value="0.0192953745780536" flag="0"/>
			<psa10 value="0.00668504707029192" flag="0"/>
			<psa30 value="0.000477750034010062" flag="0"/>
		</comp>
	</station>
	<station code="RDI1" name="RDI1" netid="HI" source="ITSAK Strong Motion Network" insttype="" lat="36.4514" lon="28.224">
		<comp name=".HNE" depth="0.0">
			<acc value="0.21080272833102" flag="0"/>
			<vel value="0.0672906473898" flag="0"/>
			<psa03 value="0.443063350772428" flag="0"/>
			<psa10 value="0.103630232494123" flag="0"/>
			<psa30 value="0.0101740389801387" flag="0"/>
		</comp>
		<comp name=".HNN" depth="0.0">
			<acc value="0.23224293390882" flag="0"/>
			<vel value="0.0976066835567" flag="0"/>
			<psa03 value="0.846341315956832" flag="0"/>
			<psa10 value="0.158594331096234" flag="0"/>
			<psa30 value="0.0136607299563106" flag="0"/>
		</comp>
		<comp name=".HNZ" depth="0.0">
			<acc value="0.25480790082654" flag="0"/>
			<vel value="0.0903062553419" flag="0"/>
			<psa03 value="0.48748362672964" flag="0"/>
			<psa10 value="0.0646734392980252" flag="0"/>
			<psa30 value="0.00426971243082508" flag="0"/>
		</comp>
	</station>
	<station code="KLNA" name="KLNA" netid="HL" source="National Observatory of Athens Seismic Network" insttype="" lat="36.95708" lon="26.97274">
		<comp name="00.HNE" depth="0.0">
			<acc value="0.02774242888533" flag="0"/>
			<vel value="0.0109219201428" flag="0"/>
			<psa03 value="0.10956509148279" flag="0"/>
			<psa10 value="0.00462978248162969" flag="0"/>
			<psa30 value="0.000551596853082754" flag="0"/>
		</comp>
		<comp name="00.HNN" depth="0.0">
			<acc value="0.022965006475926" flag="0"/>
			<vel value="0.00868932428357" flag="0"/>
			<psa03 value="0.0772576335641729" flag="0"/>
			<psa10 value="0.00590506336898331" flag="0"/>
			<psa30 value="0.000376574269113723" flag="0"/>
		</comp>
		<comp name="00.HNZ" depth="0.0">
			<acc value="0.038920312999446" flag="0"/>
			<vel value="0.00823184373162" flag="0"/>
			<psa03 value="0.0385520017975767" flag="0"/>
			<psa10 value="0.00282701977618673" flag="0"/>
			<psa30 value="0.000386432005473855" flag="0"/>
		</comp>
	</station>
	<station code="NISR" name="NISR" netid="HL" source="National Observatory of Athens Seismic Network" insttype="" lat="36.6106" lon="27.131">
		<comp name=".HNE" depth="0.0">
			<acc value="0.028438184300676" flag="0"/>
			<vel value="0.010059532891" flag="0"/>
			<psa03 value="0.0748907423941301" flag="0"/>
			<psa10 value="0.0154962196734868" flag="0"/>
			<psa30 value="0.00142335647788259" flag="0"/>
		</comp>
		<comp name=".HNN" depth="0.0">
			<acc value="0.019816873153158" flag="0"/>
			<vel value="0.00765120741703" flag="0"/>
			<psa03 value="0.0503714618623482" flag="0"/>
			<psa10 value="0.00651476516495825" flag="0"/>
			<psa30 value="0.0012689729173937" flag="0"/>
		</comp>
		<comp name=".HNZ" depth="0.0">
			<acc value="0.011077556132592" flag="0"/>
			<vel value="0.00547382283975" flag="0"/>
			<psa03 value="0.0363667997470154" flag="0"/>
			<psa10 value="0.00826506939526746" flag="0"/>
			<psa30 value="0.0010959384338762" flag="0"/>
		</comp>
	</station>
	<station code="RODB" name="RODB" netid="HL" source="National Observatory of Athens Seismic Network" insttype="" lat="36.4471" lon="28.22116">
		<comp name="00.HNE" depth="0.0">
			<acc value="0.16220305680216" flag="0"/>
			<vel value="0.122541092514" flag="0"/>
			<psa03 value="0.472555012784445" flag="0"/>
			<psa10 value="0.162466687620668" flag="0"/>
			<psa30 value="0.0164700560603718" flag="0"/>
		</comp>
		<comp name="00.HNN" depth="0.0">
			<acc value="0.25094437032144" flag="0"/>
			<vel value="0.119975072773" flag="0"/>
			<psa03 value="0.843965158547836" flag="0"/>
			<psa10 value="0.124786456490285" flag="0"/>
			<psa30 value="0.0081159826440097" flag="0"/>
		</comp>
		<comp name="00.HNZ" depth="0.0">
			<acc value="0.41330219358102" flag="0"/>
			<vel value="0.0948453547349" flag="0"/>
			<psa03 value="0.460892406859528" flag="0"/>
			<psa10 value="0.0618557238879429" flag="0"/>
			<psa30 value="0.00466509112273033" flag="0"/>
		</comp>
	</station>
	<station code="SMG" name="SMG" netid="HL" source="National Observatory of Athens Seismic Network" insttype="" lat="37.70425" lon="26.83772">
		<comp name="00.HNE" depth="0.0">
			<acc value="0.036034664437902" flag="0"/>
			<vel value="0.0150793036464" flag="0"/>
			<psa03 value="0.134650878293167" flag="0"/>
			<psa10 value="0.00419621672876018" flag="0"/>
			<psa30 value="0.0005847455594386" flag="0"/>
		</comp>
		<comp name="00.HNN" depth="0.0">
			<acc value="0.034167682575606" flag="0"/>
			<vel value="0.0141437416891" flag="0"/>
			<psa03 value="0.122193063440605" flag="0"/>
			<psa10 value="0.00481624670896492" flag="0"/>
			<psa30 value="0.000375655666594479" flag="0"/>
		</comp>
		<comp name="00.HNZ" depth="0.0">
			<acc value="0.01784085033072" flag="0"/>
			<vel value="0.00818307673366" flag="0"/>
			<psa03 value="0.0492075253818557" flag="0"/>
			<psa10 value="0.00324415194039539" flag="0"/>
			<psa30 value="0.000456523002825559" flag="0"/>
		</comp>
	</station>
	<station code="BASM" name="BASM" netid="KO" source="Bogazici University Kandilli Observatory And Earthquake Research Institute (KOERI)" insttype="" lat="37.9194" lon="30.035">
		<comp name=".HNE" depth="0.0">
			<acc value="0.021854154055416" flag="0"/>
			<vel value="0.00580994287938" flag="0"/>
			<psa03 value="0.0187593520900076" flag="0"/>
			<psa10 value="0.00955533299389851" flag="0"/>
			<psa30 value="0.000898155956758754" flag="0"/>
		</comp>
		<comp name=".HNN" depth="0.0">
			<acc value="0.017197964469906" flag="0"/>
			<vel value="0.00504606227867" flag="0"/>
			<psa03 value="0.0211764028327778" flag="0"/>
			<psa10 value="0.00697434404730584" flag="0"/>
			<psa30 value="0.000906893202223023" flag="0"/>
		</comp>
		<comp name=".HNZ" depth="0.0">
			<acc value="0.010738009504776" flag="0"/>
			<vel value="0.0034084253205" flag="0"/>
			<psa03 value="0.0118709817067772" flag="0"/>
			<psa10 value="0.00412426258714281" flag="0"/>
			<psa30 value="0.000460450502585709" flag="0"/>
		</comp>
	</station>
	<station code="CAME" name="CAME" netid="KO" source="Bogazici University Kandilli Observatory And Earthquake Research Institute (KOERI)" insttype="" lat="36.9435" lon="29.3023">
		<comp name=".HNE" depth="0.0">
			<acc value="0.33683334132102" flag="0"/>
			<vel value="0.151332838813" flag="0"/>
			<psa03 value="0.494653685043517" flag="0"/>
			<psa10 value="0.0680036224061804" flag="0"/>
			<psa30 value="0.00439769340894038" flag="0"/>
		</comp>
		<comp name=".HNN" depth="0.0">
			<acc value="0.24647517525666" flag="0"/>
			<vel value="0.111449818073" flag="0"/>
			<psa03 value="0.457611481183543" flag="0"/>
			<psa10 value="0.0501939401023707" flag="0"/>
			<psa30 value="0.00385874978990108" flag="0"/>
		</comp>
		<comp name=".HNZ" depth="0.0">
			<acc value="0.2026738416246" flag="0"/>
			<vel value="0.0536183423279" flag="0"/>
			<psa03 value="0.178044919601939" flag="0"/>
			<psa10 value="0.0249749557182344" flag="0"/>
			<psa30 value="0.00200281434328558" flag="0"/>
		</comp>
	</station>
	<station code="DATC" name="DATC" netid="KO" source="Bogazici University Kandilli Observatory And Earthquake Research Institute (KOERI)" insttype="" lat="36.7584" lon="27.6602">
		<comp name=".HNE" depth="0.0">
			<acc value="0.39505792685388" flag="0"/>
			<vel value="0.107388766102" flag="0"/>
			<psa03 value="0.562602144632869" flag="0"/>
			<psa10 value="0.0940072150166073" flag="0"/>
			<psa30 value="0.0117783319233603" flag="0"/>
		</comp>
		<comp name=".HNN" depth="0.0">
			<acc value="0.48744750219774" flag="0"/>
			<vel value="0.18226971353" flag="0"/>
			<psa03 value="1.00785568215776" flag="0"/>
			<psa10 value="0.097032142903438" flag="0"/>
			<psa30 value="0.00587878527402344" flag="0"/>
		</comp>
		<comp name=".HNZ" depth="0.0">
			<acc value="0.31112654666178" flag="0"/>
			<vel value="0.090815527728" flag="0"/>
			<psa03 value="0.530565397353988" flag="0"/>
			<psa10 value="0.0711322971657155" flag="0"/>
			<psa30 value="0.00519395615743379" flag="0"/>
		</comp>
	</station>
	<station code="DEMR" name="DEMR" netid="KO" source="Bogazici University Kandilli Observatory And Earthquake Research Institute (KOERI)" insttype="" lat="36.2365" lon="29.9056">
		<comp name=".HNE" depth="0.0">
			<acc value="0.011472442606938" flag="0"/>
			<vel value="0.00405108789265" flag="0"/>
			<psa03 value="0.0174863667193317" flag="0"/>
			<psa10 value="0.00565951679019656" flag="0"/>
			<psa30 value="0.00068290200973788" flag="0"/>
		</comp>
		<comp name=".HNN" depth="0.0">
			<acc value="0.012541049357478" flag="0"/>
			<vel value="0.00485716170643" flag="0"/>
			<psa03 value="0.019461157695791" flag="0"/>
			<psa10 value="0.00537514670209546" flag="0"/>
			<psa30 value="0.00082439544548764" flag="0"/>
		</comp>
		<comp name=".HNZ" depth="0.0">
			<acc value="0.009837980526246" flag="0"/>
			<vel value="0.00362520609551" flag="0"/>
			<psa03 value="0.0198176930332177" flag="0"/>
			<psa10 value="0.00284628175532247" flag="0"/>
			<psa30 value="0.000401659732986037" flag="0"/>
		</comp>
	</station>
	<station code="DIDI" name="DIDI" netid="KO" source="Bogazici University Kandilli Observatory And Earthquake Research Institute (KOERI)" insttype="" lat="37.3767" lon="27.2398">
		<comp name=".HNE" depth="0.0">
			<acc value="0.041554397374992" flag="0"/>
			<vel value="0.0198585981195" flag="0"/>
			<psa03 value="0.133104723784764" flag="0"/>
			<psa10 value="0.0152764063619576" flag="0"/>
			<psa30 value="0.00218605210689025" flag="0"/>
		</comp>
		<comp name=".HNN" depth="0.0">
			<acc value="0.04289799159255" flag="0"/>
			<vel value="0.0187045848416" flag="0"/>
			<psa03 value="0.167245766711229" flag="0"/>
			<psa10 value="0.0293140662880131" flag="0"/>
			<psa30 value="0.00607998193563595" flag="0"/>
		</comp>
		<comp name=".HNZ" depth="0.0">
			<acc value="0.049817620420986" flag="0"/>
			<vel value="0.0146277114512" flag="0"/>
			<psa03 value="0.0859031802473376" flag="0"/>
			<psa10 value="0.0211340919048754" flag="0"/>
			<psa30 value="0.00187720706408898" flag="0"/>
		</comp>
	</station>
	<station code="FETI" name="FETI" netid="KO" source="Bogazici University Kandilli Observatory And Earthquake Research Institute (KOERI)" insttype="" lat="36.6903" lon="29.096">
		<comp name=".HNE" depth="0.0">
			<acc value="0.30540137875452" flag="0"/>
			<vel value="0.0444720026096" flag="0"/>
			<psa03 value="0.137312242095599" flag="0"/>
			<psa10 value="0.0422897814905426" flag="0"/>
			<psa30 value="0.00214661032739821" flag="0"/>
		</comp>
		<comp name=".HNN" depth="0.0">
			<acc value="0.0028524148043868" flag="0"/>
			<vel value="0.00314511844652" flag="0"/>
			<psa03 value="0.00370073180896648" flag="0"/>
			<psa10 value="0.00197460635485683" flag="0"/>
			<psa30 value="0.000849324596917573" flag="0"/>
		</comp>
		<comp name=".HNZ" depth="0.0">
			<acc value="0.11895762833538" flag="0"/>
			<vel value="0.0259532574894" flag="0"/>
			<psa03 value="0.119926559129141" flag="0"/>
			<psa10 value="0.0243404286839511" flag="0"/>
			<psa30 value="0.00244490196275739" flag="0"/>
		</comp>
	</station>
	<station code="KEMT" name="KEMT" netid="KO" source="Bogazici University Kandilli Observatory And Earthquake Research Institute (KOERI)" insttype="" lat="36.6037" lon="30.5558">
		<comp name=".HNE" depth="0.0">
			<acc value="0.028975889728458" flag="0"/>
			<vel value="0.0107738061683" flag="0"/>
			<psa03 value="0.0594684186577239" flag="0"/>
			<psa10 value="0.00578085373444346" flag="0"/>
			<psa30 value="0.00072368955546364" flag="0"/>
		</comp>
		<comp name=".HNN" depth="0.0">
			<acc value="0.034166561998914" flag="0"/>
			<vel value="0.0103467757716" flag="0"/>
			<psa03 value="0.0788253988791742" flag="0"/>
			<psa10 value="0.0053604818243802" flag="0"/>
			<psa30 value="0.000941059215553528" flag="0"/>
		</comp>
		<comp name=".HNZ" depth="0.0">
			<acc value="0.01396702038021" flag="0"/>
			<vel value="0.00422095726662" flag="0"/>
			<psa03 value="0.0134226443926669" flag="0"/>
			<psa10 value="0.0024796546555778" flag="0"/>
			<psa30 value="0.000615926010407723" flag="0"/>
		</comp>
	</station>
	<station code="KUSD" name="KUSD" netid="KO" source="Bogazici University Kandilli Observatory And Earthquake Research Institute (KOERI)" insttype="" lat="37.8606" lon="27.2868">
		<comp name=".HNE" depth="0.0">
			<acc value="0.023630043305766" flag="0"/>
			<vel value="0.0194028046893" flag="0"/>
			<psa03 value="0.0797037956103932" flag="0"/>
			<psa10 value="0.0161216261036209" flag="0"/>
			<psa30 value="0.00158151289246621" flag="0"/>
		</comp>
		<comp name=".HNN" depth="0.0">
			<acc value="0.037101736900566" flag="0"/>
			<vel value="0.0155977182467" flag="0"/>
			<psa03 value="0.0988559966411209" flag="0"/>
			<psa10 value="0.0120445022641822" flag="0"/>
			<psa30 value="0.0014055891550506" flag="0"/>
		</comp>
		<comp name=".HNZ" depth="0.0">
			<acc value="0.03550139621157" flag="0"/>
			<vel value="0.00627158780845" flag="0"/>
			<psa03 value="0.0584170312999918" flag="0"/>
			<psa10 value="0.00600485419837286" flag="0"/>
			<psa30 value="0.000718417174944883" flag="0"/>
		</comp>
	</station>
	<station code="NAZL" name="NAZL" netid="KO" source="Bogazici University Kandilli Observatory And Earthquake Research Institute (KOERI)" insttype="" lat="37.9641" lon="28.2922">
		<comp name=".HNE" depth="0.0">
			<acc value="0.020781756263736" flag="0"/>
			<vel value="0.0112456350743" flag="0"/>
			<psa03 value="0.0576588300312899" flag="0"/>
			<psa10 value="0.0134722809099835" flag="0"/>
			<psa30 value="0.000777626253506547" flag="0"/>
		</comp>
		<comp name=".HNN" depth="0.0">
			<acc value="0.026639725150164" flag="0"/>
			<vel value="0.0122109568269" flag="0"/>
			<psa03 value="0.0607562591788856" flag="0"/>
			<psa10 value="0.0302088361871429" flag="0"/>
			<psa30 value="0.00102637111705104" flag="0"/>
		</comp>
		<comp name=".HNZ" depth="0.0">
			<acc value="0.01322704984248" flag="0"/>
			<vel value="0.00592122406738" flag="0"/>
			<psa03 value="0.0221611269200677" flag="0"/>
			<psa10 value="0.00800898836867394" flag="0"/>
			<psa30 value="0.000543804201442595" flag="0"/>
		</comp>
	</station>
	<station code="ODEM" name="ODEM" netid="KO" source="Bogazici University Kandilli Observatory And Earthquake Research Institute (KOERI)" insttype="" lat="38.2762" lon="28.0747">
		<comp name=".HNE" depth="0.0">
			<acc value="0.0049092479157948" flag="0"/>
			<vel value="0.00499899449145" flag="0"/>
			<psa03 value="0.010614314474373" flag="0"/>
			<psa10 value="0.008276067936364" flag="0"/>
			<psa30 value="0.000769819486344488" flag="0"/>
		</comp>
		<comp name=".HNN" depth="0.0">
			<acc value="0.0078492112032444" flag="0"/>
			<vel value="0.00324504803092" flag="0"/>
			<psa03 value="0.0136120970471354" flag="0"/>
			<psa10 value="0.00483053749938592" flag="0"/>
			<psa30 value="0.000563475765004226" flag="0"/>
		</comp>
		<comp name=".HNZ" depth="0.0">
			<acc value="0.0046450349278932" flag="0"/>
			<vel value="0.00420183986172" flag="0"/>
			<psa03 value="0.00977903388071466" flag="0"/>
			<psa10 value="0.00580569819278226" flag="0"/>
			<psa30 value="0.000436544257456072" flag="0"/>
		</comp>
	</station>
	<station code="YKAV" name="YKAV" netid="KO" source="Bogazici University Kandilli Observatory And Earthquake Research Institute (KOERI)" insttype="" lat="37.1246" lon="27.2801">
		<comp name=".HNE" depth="0.0">
			<acc value="0.062927203540386" flag="0"/>
			<vel value="0.019584576637" flag="0"/>
			<psa03 value="0.177352186211828" flag="0"/>
			<psa10 value="0.00822126930622482" flag="0"/>
			<psa30 value="0.000922020454330905" flag="0"/>
		</comp>
		<comp name=".HNN" depth="0.0">
			<acc value="0.042074579350062" flag="0"/>
			<vel value="0.0138874933056" flag="0"/>
			<psa03 value="0.0957067567694829" flag="0"/>
			<psa10 value="0.00976713858748568" flag="0"/>
			<psa30 value="0.000822199206245256" flag="0"/>
		</comp>
		<comp name=".HNZ" depth="0.0">
			<acc value="0.038738329824396" flag="0"/>
			<vel value="0.00980610709299" flag="0"/>
			<psa03 value="0.0482673901861966" flag="0"/>
			<psa10 value="0.00487136270386637" flag="0"/>
			<psa30 value="0.000748010593697909" flag="0"/>
		</comp>
	</station>
</stationlist>
