<?xml version="1.0" encoding="UTF-8" standalone="yes"?>
<!DOCTYPE earthquake SYSTEM "stationlist.dtd">
<stationlist created="" xmlns="ch.ethz.sed.shakemap.usgs.xml">
  <station code="KOSP" name="KOSP" netid="HC" insttype="60" lat="36.881" lon="27.281">
    <comp name="--.HHN">
      <acc value="0.0411057159" flag="0"/>
      <vel value="0.0145809367" flag="0"/>
      <psa03 value="0.0851403842" flag="0"/>
      <psa10 value="0.0178467115" flag="0"/>
      <psa30 value="0.0020497152" flag="0"/>
    </comp>
    <comp name="--.HHE">
      <acc value="0.0353827048" flag="0"/>
      <vel value="0.0152995593" flag="0"/>
      <psa03 value="0.0977818213" flag="0"/>
      <psa10 value="0.0223957485" flag="0"/>
      <psa30 value="0.0027316333" flag="0"/>
    </comp>
    <comp name="--.HHZ">
      <acc value="0.0342571757" flag="0"/>
      <vel value="0.0097966063" flag="0"/>
      <psa03 value="0.0702394741" flag="0"/>
      <psa10 value="0.0107413523" flag="0"/>
      <psa30 value="0.0014196265" flag="0"/>
    </comp>
  </station>
  <station code="RDI1" name="RDI1" netid="HI" insttype="CMG-5TD,ACCELEROMETER,GURALP" lat="36.4514" lon="28.224">
    <comp name="--.HNE">
      <acc value="0.2108133168" flag="0"/>
      <vel value="0.0664675794" flag="0"/>
      <psa03 value="0.4452772429" flag="0"/>
      <psa10 value="0.1036388886" flag="0"/>
      <psa30 value="0.0092444570" flag="0"/>
    </comp>
    <comp name="--.HNZ">
      <acc value="0.2566268960" flag="0"/>
      <vel value="0.0903917731" flag="0"/>
      <psa03 value="0.4886931010" flag="0"/>
      <psa10 value="0.0644114596" flag="0"/>
      <psa30 value="0.0045132868" flag="0"/>
    </comp>
    <comp name="--.HNN">
      <acc value="0.2334322257" flag="0"/>
      <vel value="0.0964115985" flag="0"/>
      <psa03 value="0.8487918426" flag="0"/>
      <psa10 value="0.1588466894" flag="0"/>
      <psa30 value="0.0123923982" flag="0"/>
    </comp>
  </station>
  <station code="ARG" name="ARG" netid="HL" insttype="LE3D20_DR24" lat="36.2136" lon="28.1212">
    <comp name="--.HHE">
      <acc value="0.2465084551" flag="0"/>
      <vel value="0.0799680337" flag="0"/>
      <psa03 value="0.5471218676" flag="0"/>
      <psa10 value="0.0966678160" flag="0"/>
      <psa30 value="0.0066356661" flag="0"/>
    </comp>
    <comp name="--.HHZ">
      <acc value="0.1845735317" flag="0"/>
      <vel value="0.0720937173" flag="0"/>
      <psa03 value="0.2109595954" flag="0"/>
      <psa10 value="0.0569537654" flag="0"/>
      <psa30 value="0.0037768563" flag="0"/>
    </comp>
    <comp name="--.HHN">
      <acc value="0.2761713551" flag="0"/>
      <vel value="0.1137677493" flag="0"/>
      <psa03 value="0.4084283902" flag="0"/>
      <psa10 value="0.1405630754" flag="0"/>
      <psa30 value="0.0111927434" flag="0"/>
    </comp>
  </station>
  <station code="NISR2" name="NISR2" netid="HL" insttype="120" lat="36.5744" lon="27.1767">
    <comp name="--.HHE">
      <acc value="0.0871638540" flag="0"/>
      <vel value="0.0403942829" flag="0"/>
      <psa03 value="0.4199596248" flag="0"/>
      <psa10 value="0.0514807916" flag="0"/>
      <psa30 value="0.0023813850" flag="0"/>
    </comp>
    <comp name="--.HHN">
      <acc value="0.1137542981" flag="0"/>
      <vel value="0.0608681044" flag="0"/>
      <psa03 value="0.5249061023" flag="0"/>
      <psa10 value="0.0346397931" flag="0"/>
      <psa30 value="0.0022652518" flag="0"/>
    </comp>
    <comp name="--.HHZ">
      <acc value="0.0346462496" flag="0"/>
      <vel value="0.0167672555" flag="0"/>
      <psa03 value="0.1516331757" flag="0"/>
      <psa10 value="0.0097759706" flag="0"/>
      <psa30 value="0.0007256901" flag="0"/>
    </comp>
  </station>
  <station code="APMY" name="APMY" netid="KO" insttype="CMG-6T" lat="37.4717" lon="29.3018">
    <comp name="--.HHN">
      <acc value="0.0413041277" flag="0"/>
      <vel value="0.0145802868" flag="0"/>
      <psa03 value="0.0613167068" flag="0"/>
      <psa10 value="0.0113754358" flag="0"/>
      <psa30 value="0.0011120341" flag="0"/>
    </comp>
  </station>
  <station code="BODA" name="BODA" netid="KO" insttype="ACEBOX" lat="37.0348" lon="27.4304">
    <comp name="--.HNE">
      <acc value="0.0415715352" flag="0"/>
      <vel value="0.0163714331" flag="0"/>
      <psa03 value="0.1296336420" flag="0"/>
      <psa10 value="0.0086954035" flag="0"/>
      <psa30 value="0.0005394131" flag="0"/>
    </comp>
    <comp name="--.HNN">
      <acc value="0.0459134831" flag="0"/>
      <vel value="0.0174352938" flag="0"/>
      <psa03 value="0.1166894140" flag="0"/>
      <psa10 value="0.0094178530" flag="0"/>
      <psa30 value="0.0007396091" flag="0"/>
    </comp>
    <comp name="--.HNZ">
      <acc value="0.0215310045" flag="0"/>
      <vel value="0.0052460987" flag="0"/>
      <psa03 value="0.0421298128" flag="0"/>
      <psa10 value="0.0054692280" flag="0"/>
      <psa30 value="0.0005889608" flag="0"/>
    </comp>
  </station>
  <station code="CAME" name="CAME" netid="KO" insttype="CMG-5T" lat="36.9435" lon="29.3023">
    <comp name="--.HNE">
      <acc value="0.3369832970" flag="0"/>
      <vel value="0.1502254725" flag="0"/>
      <psa03 value="0.4886625369" flag="0"/>
      <psa10 value="0.0679897790" flag="0"/>
      <psa30 value="0.0044618771" flag="0"/>
    </comp>
    <comp name="--.HNN">
      <acc value="0.2475345390" flag="0"/>
      <vel value="0.1099202311" flag="0"/>
      <psa03 value="0.4496393982" flag="0"/>
      <psa10 value="0.0501439960" flag="0"/>
      <psa30 value="0.0039480941" flag="0"/>
    </comp>
    <comp name="--.HNZ">
      <acc value="0.2063458842" flag="0"/>
      <vel value="0.0534240644" flag="0"/>
      <psa03 value="0.1756300124" flag="0"/>
      <psa10 value="0.0249296776" flag="0"/>
      <psa30 value="0.0019333001" flag="0"/>
    </comp>
  </station>
  <station code="DALY" name="DALY" netid="KO" insttype="CMG-3T" lat="36.8162" lon="28.6532">
    <comp name="--.HHN">
      <acc value="0.5943095431" flag="0"/>
      <vel value="0.2018060708" flag="0"/>
      <psa03 value="1.2734095990" flag="0"/>
      <psa10 value="0.1510949483" flag="0"/>
      <psa30 value="0.0144035734" flag="0"/>
    </comp>
    <comp name="--.HHE">
      <acc value="0.4743259359" flag="0"/>
      <vel value="0.1190816303" flag="0"/>
      <psa03 value="0.6182939336" flag="0"/>
      <psa10 value="0.0750804215" flag="0"/>
      <psa30 value="0.0039815860" flag="0"/>
    </comp>
    <comp name="--.HHZ">
      <acc value="0.1708570432" flag="0"/>
      <vel value="0.0649619545" flag="0"/>
      <psa03 value="0.2197642307" flag="0"/>
      <psa10 value="0.0610274424" flag="0"/>
      <psa30 value="0.0033874930" flag="0"/>
    </comp>
  </station>
  <station code="DAT" name="DAT" netid="KO" insttype="CMG-3T" lat="36.7308" lon="27.5767">
    <comp name="--.HHZ">
      <acc value="0.0000280537" flag="0"/>
      <vel value="0.0000031316" flag="0"/>
      <psa03 value="0.0000107323" flag="0"/>
      <psa10 value="0.0000037454" flag="0"/>
      <psa30 value="0.0000006488" flag="0"/>
    </comp>
    <comp name="--.HHN">
      <acc value="0.1052011484" flag="0"/>
      <vel value="0.0468227084" flag="0"/>
      <psa03 value="0.3922690769" flag="0"/>
      <psa10 value="0.0248517824" flag="0"/>
      <psa30 value="0.0025380849" flag="0"/>
    </comp>
    <comp name="--.HHE">
      <acc value="0.1350933060" flag="0"/>
      <vel value="0.0395716028" flag="0"/>
      <psa03 value="0.2810435614" flag="0"/>
      <psa10 value="0.0186950051" flag="0"/>
      <psa30 value="0.0017107896" flag="0"/>
    </comp>
  </station>
  <station code="DATC" name="DATC" netid="KO" insttype="CMG-5T" lat="36.7584" lon="27.6602">
    <comp name="--.HNE">
      <acc value="0.3985827608" flag="0"/>
      <vel value="0.1061525986" flag="0"/>
      <psa03 value="0.5662553372" flag="0"/>
      <psa10 value="0.0938972573" flag="0"/>
      <psa30 value="0.0108572349" flag="0"/>
    </comp>
    <comp name="--.HNZ">
      <acc value="0.3120842025" flag="0"/>
      <vel value="0.0899913665" flag="0"/>
      <psa03 value="0.5313334054" flag="0"/>
      <psa10 value="0.0709849721" flag="0"/>
      <psa30 value="0.0050551227" flag="0"/>
    </comp>
    <comp name="--.HNN">
      <acc value="0.4898799855" flag="0"/>
      <vel value="0.1828706864" flag="0"/>
      <psa03 value="0.9802759251" flag="0"/>
      <psa10 value="0.0965903662" flag="0"/>
      <psa30 value="0.0054733889" flag="0"/>
    </comp>
  </station>
  <station code="ELL" name="ELL" netid="KO" insttype="CMG-3T" lat="36.7483" lon="29.9085">
    <comp name="--.HHZ">
      <acc value="0.0111017539" flag="0"/>
      <vel value="0.0059157765" flag="0"/>
      <psa03 value="0.0305453605" flag="0"/>
      <psa10 value="0.0118826224" flag="0"/>
      <psa30 value="0.0009564580" flag="0"/>
    </comp>
    <comp name="--.HHN">
      <acc value="0.0196656148" flag="0"/>
      <vel value="0.0099318674" flag="0"/>
      <psa03 value="0.0362610227" flag="0"/>
      <psa10 value="0.0114670663" flag="0"/>
      <psa30 value="0.0008734812" flag="0"/>
    </comp>
    <comp name="--.HHE">
      <acc value="0.0223353752" flag="0"/>
      <vel value="0.0135016939" flag="0"/>
      <psa03 value="0.0392302910" flag="0"/>
      <psa10 value="0.0181359280" flag="0"/>
      <psa30 value="0.0008001210" flag="0"/>
    </comp>
  </station>
  <station code="FETI" name="FETI" netid="KO" insttype="CMG-5T" lat="36.6903" lon="29.096">
    <comp name="--.HNE">
      <acc value="0.3121650533" flag="0"/>
      <vel value="0.0440071883" flag="0"/>
      <psa03 value="0.1379189289" flag="0"/>
      <psa10 value="0.0421810578" flag="0"/>
      <psa30 value="0.0020515933" flag="0"/>
    </comp>
    <comp name="--.HNN">
      <acc value="0.0033002550" flag="0"/>
      <vel value="0.0086192467" flag="0"/>
      <psa03 value="0.0046827776" flag="0"/>
      <psa10 value="0.0020179867" flag="0"/>
      <psa30 value="0.0027658434" flag="0"/>
    </comp>
    <comp name="--.HNZ">
      <acc value="0.1500421481" flag="0"/>
      <vel value="0.0261617927" flag="0"/>
      <psa03 value="0.1198571783" flag="0"/>
      <psa10 value="0.0242849653" flag="0"/>
      <psa30 value="0.0022352836" flag="0"/>
    </comp>
  </station>
  <station code="FETY" name="FETY" netid="KO" insttype="CMG-3ESP" lat="36.6353" lon="29.0835">
    <comp name="--.HHE">
      <acc value="0.2174859202" flag="0"/>
      <vel value="0.0709672647" flag="0"/>
      <psa03 value="0.2051702526" flag="0"/>
      <psa10 value="0.0498474967" flag="0"/>
      <psa30 value="0.0044561415" flag="0"/>
    </comp>
    <comp name="--.HHN">
      <acc value="0.1704784318" flag="0"/>
      <vel value="0.0673650993" flag="0"/>
      <psa03 value="0.2569082952" flag="0"/>
      <psa10 value="0.0538518082" flag="0"/>
      <psa30 value="0.0049033394" flag="0"/>
    </comp>
    <comp name="--.HHZ">
      <acc value="0.1287364848" flag="0"/>
      <vel value="0.0376081182" flag="0"/>
      <psa03 value="0.2117490357" flag="0"/>
      <psa10 value="0.0223678898" flag="0"/>
      <psa30 value="0.0013438367" flag="0"/>
    </comp>
  </station>
  <station code="MLSB" name="MLSB" netid="KO" insttype="CMG-3ESP" lat="37.2953" lon="27.7767">
    <comp name="--.HHE">
      <acc value="0.0401673793" flag="0"/>
      <vel value="0.0348968476" flag="0"/>
      <psa03 value="0.1114949693" flag="0"/>
      <psa10 value="0.0480499049" flag="0"/>
      <psa30 value="0.0026793690" flag="0"/>
    </comp>
    <comp name="--.HHN">
      <acc value="0.0415696265" flag="0"/>
      <vel value="0.0206415452" flag="0"/>
      <psa03 value="0.0860387934" flag="0"/>
      <psa10 value="0.0181669305" flag="0"/>
      <psa30 value="0.0027280081" flag="0"/>
    </comp>
    <comp name="--.HHZ">
      <acc value="0.0203098242" flag="0"/>
      <vel value="0.0091198200" flag="0"/>
      <psa03 value="0.0569235835" flag="0"/>
      <psa10 value="0.0122155476" flag="0"/>
      <psa30 value="0.0011458725" flag="0"/>
    </comp>
  </station>
  <station code="YER" name="YER" netid="KO" insttype="CMG-3T" lat="37.1336" lon="28.284">
    <comp name="--.HHE">
      <acc value="0.1319467334" flag="0"/>
      <vel value="0.0231227007" flag="0"/>
      <psa03 value="0.1221716326" flag="0"/>
      <psa10 value="0.0221164219" flag="0"/>
      <psa30 value="0.0029881998" flag="0"/>
    </comp>
    <comp name="--.HHN">
      <acc value="0.1331729940" flag="0"/>
      <vel value="0.0384289643" flag="0"/>
      <psa03 value="0.1480743835" flag="0"/>
      <psa10 value="0.0506872918" flag="0"/>
      <psa30 value="0.0048619829" flag="0"/>
    </comp>
    <comp name="--.HHZ">
      <acc value="0.0827042621" flag="0"/>
      <vel value="0.0205277140" flag="0"/>
      <psa03 value="0.0683669341" flag="0"/>
      <psa10 value="0.0171739747" flag="0"/>
      <psa30 value="0.0024182107" flag="0"/>
    </comp>
  </station>
  <station code="YKAV" name="YKAV" netid="KO" insttype="CMG-5T" lat="37.1246" lon="27.2801">
    <comp name="--.HNE">
      <acc value="0.0643538339" flag="0"/>
      <vel value="0.0195585805" flag="0"/>
      <psa03 value="0.1757491001" flag="0"/>
      <psa10 value="0.0082009011" flag="0"/>
      <psa30 value="0.0008647780" flag="0"/>
    </comp>
    <comp name="--.HNN">
      <acc value="0.0419854684" flag="0"/>
      <vel value="0.0137773579" flag="0"/>
      <psa03 value="0.0940948867" flag="0"/>
      <psa10 value="0.0097284207" flag="0"/>
      <psa30 value="0.0007958408" flag="0"/>
    </comp>
    <comp name="--.HNZ">
      <acc value="0.0407693240" flag="0"/>
      <vel value="0.0098850408" flag="0"/>
      <psa03 value="0.0480776074" flag="0"/>
      <psa10 value="0.0048724875" flag="0"/>
      <psa30 value="0.0006372602" flag="0"/>
    </comp>
  </station>
  <station code="AYDN" name="AYDN" netid="TU" insttype="T" lat="37.6608" lon="27.8792">
    <comp name="--.HHZ">
      <acc value="0.1025782021" flag="0"/>
      <vel value="0.0515120727" flag="0"/>
      <psa03 value="0.1788285156" flag="0"/>
      <psa10 value="0.0377014505" flag="0"/>
      <psa30 value="0.0027193968" flag="0"/>
    </comp>
    <comp name="--.HHE">
      <acc value="0.1409064913" flag="0"/>
      <vel value="0.0728261674" flag="0"/>
      <psa03 value="0.3163589761" flag="0"/>
      <psa10 value="0.0561880518" flag="0"/>
      <psa30 value="0.0072925199" flag="0"/>
    </comp>
    <comp name="--.HHN">
      <acc value="0.1652594643" flag="0"/>
      <vel value="0.0893034736" flag="0"/>
      <psa03 value="0.3849719320" flag="0"/>
      <psa10 value="0.0727607502" flag="0"/>
      <psa30 value="0.0049799811" flag="0"/>
    </comp>
  </station>
</stationlist>
