<?xml version="1.0" encoding="UTF-8" standalone="yes"?>
<!DOCTYPE earthquake SYSTEM "stationlist.dtd">
<stationlist created="" xmlns="ch.ethz.sed.shakemap.usgs.xml">
  <station code="KARP" name="KARP" netid="GE" insttype="STS-2/N" lat="35.5471" lon="27.1611">
    <comp name="--.HHE">
      <acc value="0.1612266100" flag="0"/>
      <vel value="0.0412121772" flag="0"/>
      <psa03 value="0.1210275302" flag="0"/>
      <psa10 value="0.0500696848" flag="0"/>
      <psa30 value="0.0017360286" flag="0"/>
    </comp>
    <comp name="--.HHZ">
      <acc value="0.0966629611" flag="0"/>
      <vel value="0.0264770374" flag="0"/>
      <psa03 value="0.0775376481" flag="0"/>
      <psa10 value="0.0163328681" flag="0"/>
      <psa30 value="0.0010480025" flag="0"/>
    </comp>
    <comp name="--.HHN">
      <acc value="0.1600015245" flag="0"/>
      <vel value="0.0346483751" flag="0"/>
      <psa03 value="0.1089968461" flag="0"/>
      <psa10 value="0.0276711987" flag="0"/>
      <psa30 value="0.0012539776" flag="0"/>
    </comp>
  </station>
  <station code="THERA" name="THERA" netid="GE" insttype="STS-2/N" lat="36.367" lon="25.4753">
    <comp name="--.HHN">
      <acc value="0.0175456355" flag="0"/>
      <vel value="0.0072943137" flag="0"/>
      <psa03 value="0.0519933212" flag="0"/>
      <psa10 value="0.0036750542" flag="0"/>
      <psa30 value="0.0003757240" flag="0"/>
    </comp>
    <comp name="--.HHZ">
      <acc value="0.0192426778" flag="0"/>
      <vel value="0.0075193334" flag="0"/>
      <psa03 value="0.0328303221" flag="0"/>
      <psa10 value="0.0108063297" flag="0"/>
      <psa30 value="0.0010143830" flag="0"/>
    </comp>
    <comp name="--.HHE">
      <acc value="0.0201145774" flag="0"/>
      <vel value="0.0118417048" flag="0"/>
      <psa03 value="0.0416168611" flag="0"/>
      <psa10 value="0.0239737683" flag="0"/>
      <psa30 value="0.0013388491" flag="0"/>
    </comp>
  </station>
  <station code="ZKR" name="ZKR" netid="GE" insttype="STS-2/N" lat="35.1147" lon="26.2169">
    <comp name="--.HHE">
      <acc value="0.0693610369" flag="0"/>
      <vel value="0.0255651907" flag="0"/>
      <psa03 value="0.0916659372" flag="0"/>
      <psa10 value="0.0195696752" flag="0"/>
      <psa30 value="0.0014472155" flag="0"/>
    </comp>
    <comp name="--.HHN">
      <acc value="0.0546066074" flag="0"/>
      <vel value="0.0127081159" flag="0"/>
      <psa03 value="0.0554230597" flag="0"/>
      <psa10 value="0.0045600427" flag="0"/>
      <psa30 value="0.0004471080" flag="0"/>
    </comp>
    <comp name="--.HHZ">
      <acc value="0.0665598496" flag="0"/>
      <vel value="0.0184061514" flag="0"/>
      <psa03 value="0.0527950985" flag="0"/>
      <psa10 value="0.0088311092" flag="0"/>
      <psa30 value="0.0007497820" flag="0"/>
    </comp>
  </station>
  <station code="STIA" name="STIA" netid="HC" insttype="120" lat="35.2021" lon="26.0909">
    <comp name="--.HHE">
      <acc value="0.0862035485" flag="0"/>
      <vel value="0.0228816524" flag="0"/>
      <psa03 value="0.1439958222" flag="0"/>
      <psa10 value="0.0130199740" flag="0"/>
      <psa30 value="0.0015374266" flag="0"/>
    </comp>
    <comp name="--.HHZ">
      <acc value="0.1329920239" flag="0"/>
      <vel value="0.0257964667" flag="0"/>
      <psa03 value="0.0951671793" flag="0"/>
      <psa10 value="0.0113230126" flag="0"/>
      <psa30 value="0.0008672407" flag="0"/>
    </comp>
    <comp name="--.HHN">
      <acc value="0.0887966109" flag="0"/>
      <vel value="0.0294835783" flag="0"/>
      <psa03 value="0.1528325362" flag="0"/>
      <psa10 value="0.0141672224" flag="0"/>
      <psa30 value="0.0020054156" flag="0"/>
    </comp>
  </station>
  <station code="SIT2" name="SIT2" netid="HI" insttype="CMG-5TD,ACCELEROMETER,GURALP" lat="35.2059" lon="26.107">
    <comp name="--.HNE">
      <acc value="0.1624726596" flag="0"/>
      <vel value="0.0749497312" flag="0"/>
      <psa03 value="0.3674228259" flag="0"/>
      <psa10 value="0.0270940873" flag="0"/>
      <psa30 value="0.0026271483" flag="0"/>
    </comp>
    <comp name="--.HNZ">
      <acc value="0.1795171473" flag="0"/>
      <vel value="0.0589443821" flag="0"/>
      <psa03 value="0.2687899751" flag="0"/>
      <psa10 value="0.0122117956" flag="0"/>
      <psa30 value="0.0010254487" flag="0"/>
    </comp>
    <comp name="--.HNN">
      <acc value="0.1452877410" flag="0"/>
      <vel value="0.0750574686" flag="0"/>
      <psa03 value="0.4281793714" flag="0"/>
      <psa10 value="0.0334247422" flag="0"/>
      <psa30 value="0.0030486484" flag="0"/>
    </comp>
  </station>
  <station code="IACM" name="IACM" netid="HL" insttype="120" lat="35.3058" lon="25.0709">
    <comp name="--.HHN">
      <acc value="0.1000232334" flag="0"/>
      <vel value="0.0348246124" flag="0"/>
      <psa03 value="0.2956792017" flag="0"/>
      <psa10 value="0.0195370945" flag="0"/>
      <psa30 value="0.0013550762" flag="0"/>
    </comp>
    <comp name="--.HHE">
      <acc value="0.0976165524" flag="0"/>
      <vel value="0.0421067282" flag="0"/>
      <psa03 value="0.3738311781" flag="0"/>
      <psa10 value="0.0319538449" flag="0"/>
      <psa30 value="0.0021120164" flag="0"/>
    </comp>
    <comp name="--.HHZ">
      <acc value="0.0881291589" flag="0"/>
      <vel value="0.0323417165" flag="0"/>
      <psa03 value="0.1893657895" flag="0"/>
      <psa10 value="0.0146696760" flag="0"/>
      <psa30 value="0.0009295450" flag="0"/>
    </comp>
  </station>
  <station code="KARP" name="KARP" netid="HL" insttype="120" lat="35.5471" lon="27.1611">
    <comp name="--.HHN">
      <acc value="0.1365680588" flag="0"/>
      <vel value="0.0338732529" flag="0"/>
      <psa03 value="0.1053708652" flag="0"/>
      <psa10 value="0.0275193751" flag="0"/>
      <psa30 value="0.0012309499" flag="0"/>
    </comp>
    <comp name="--.HHE">
      <acc value="0.1479030386" flag="0"/>
      <vel value="0.0390827798" flag="0"/>
      <psa03 value="0.1178604524" flag="0"/>
      <psa10 value="0.0496536699" flag="0"/>
      <psa30 value="0.0017243287" flag="0"/>
    </comp>
    <comp name="--.HHZ">
      <acc value="0.0916531434" flag="0"/>
      <vel value="0.0252921398" flag="0"/>
      <psa03 value="0.0756256383" flag="0"/>
      <psa10 value="0.0161990649" flag="0"/>
      <psa30 value="0.0010383189" flag="0"/>
    </comp>
  </station>
  <station code="NPS" name="NPS" netid="HL" insttype="CMG3ESPC-120s" lat="35.2613" lon="25.6104">
    <comp name="--.HHZ">
      <acc value="0.1666151568" flag="0"/>
      <vel value="0.0388427169" flag="0"/>
      <psa03 value="0.1866484693" flag="0"/>
      <psa10 value="0.0095400410" flag="0"/>
      <psa30 value="0.0012820108" flag="0"/>
    </comp>
    <comp name="--.HHN">
      <acc value="0.1290671696" flag="0"/>
      <vel value="0.0340535983" flag="0"/>
      <psa03 value="0.1780771993" flag="0"/>
      <psa10 value="0.0125401030" flag="0"/>
      <psa30 value="0.0011312923" flag="0"/>
    </comp>
    <comp name="--.HHE">
      <acc value="0.0594148893" flag="0"/>
      <vel value="0.0182397808" flag="0"/>
      <psa03 value="0.1082246334" flag="0"/>
      <psa10 value="0.0069402883" flag="0"/>
      <psa30 value="0.0004909543" flag="0"/>
    </comp>
  </station>
  <station code="SAP3" name="SAP3" netid="HL" insttype="LE3D20_SMART24" lat="36.4356" lon="25.3454">
    <comp name="--.HHE">
      <acc value="0.0354182903" flag="0"/>
      <vel value="0.0300461534" flag="0"/>
      <psa03 value="0.0949683557" flag="0"/>
      <psa10 value="0.0295999058" flag="0"/>
      <psa30 value="0.0058724286" flag="0"/>
    </comp>
    <comp name="--.HHN">
      <acc value="0.0406155299" flag="0"/>
      <vel value="0.0250983367" flag="0"/>
      <psa03 value="0.1397427941" flag="0"/>
      <psa10 value="0.0247621053" flag="0"/>
      <psa30 value="0.0055297967" flag="0"/>
    </comp>
    <comp name="--.HHZ">
      <acc value="0.0403099005" flag="0"/>
      <vel value="0.0184570074" flag="0"/>
      <psa03 value="0.0638261414" flag="0"/>
      <psa10 value="0.0180779401" flag="0"/>
      <psa30 value="0.0019805505" flag="0"/>
    </comp>
  </station>
  <station code="THERA" name="THERA" netid="HL" insttype="120" lat="36.367" lon="25.4753">
    <comp name="--.HHE">
      <acc value="0.0195796798" flag="0"/>
      <vel value="0.0116385076" flag="0"/>
      <psa03 value="0.0404291462" flag="0"/>
      <psa10 value="0.0237486255" flag="0"/>
      <psa30 value="0.0013376760" flag="0"/>
    </comp>
    <comp name="--.HHN">
      <acc value="0.0170237330" flag="0"/>
      <vel value="0.0071395298" flag="0"/>
      <psa03 value="0.0504042861" flag="0"/>
      <psa10 value="0.0036582107" flag="0"/>
      <psa30 value="0.0003744988" flag="0"/>
    </comp>
    <comp name="--.HHZ">
      <acc value="0.0185689264" flag="0"/>
      <vel value="0.0073546475" flag="0"/>
      <psa03 value="0.0319083368" flag="0"/>
      <psa10 value="0.0107543543" flag="0"/>
      <psa30 value="0.0010126339" flag="0"/>
    </comp>
  </station>
  <station code="THRA" name="THRA" netid="HL" insttype="CMG-5" lat="36.415" lon="25.4324">
    <comp name="00.HNZ">
      <acc value="0.0396682195" flag="0"/>
      <vel value="0.0278722824" flag="0"/>
      <psa03 value="0.1536321226" flag="0"/>
      <psa10 value="0.0281445732" flag="0"/>
      <psa30 value="0.0015101361" flag="0"/>
    </comp>
    <comp name="00.HNN">
      <acc value="0.0429509822" flag="0"/>
      <vel value="0.0265876720" flag="0"/>
      <psa03 value="0.1252959597" flag="0"/>
      <psa10 value="0.0516048928" flag="0"/>
      <psa30 value="0.0025443310" flag="0"/>
    </comp>
    <comp name="00.HNE">
      <acc value="0.0596593099" flag="0"/>
      <vel value="0.0392344447" flag="0"/>
      <psa03 value="0.1805782577" flag="0"/>
      <psa10 value="0.0786198578" flag="0"/>
      <psa30 value="0.0053266679" flag="0"/>
    </comp>
  </station>
  <station code="ZKR" name="ZKR" netid="HL" insttype="120" lat="35.1147" lon="26.2169">
    <comp name="--.HHE">
      <acc value="0.0687049676" flag="0"/>
      <vel value="0.0253915472" flag="0"/>
      <psa03 value="0.0890483648" flag="0"/>
      <psa10 value="0.0193346810" flag="0"/>
      <psa30 value="0.0014317209" flag="0"/>
    </comp>
    <comp name="--.HHN">
      <acc value="0.0535352736" flag="0"/>
      <vel value="0.0125120937" flag="0"/>
      <psa03 value="0.0539005565" flag="0"/>
      <psa10 value="0.0044551684" flag="0"/>
      <psa30 value="0.0004446094" flag="0"/>
    </comp>
    <comp name="--.HHZ">
      <acc value="0.0651817621" flag="0"/>
      <vel value="0.0179677943" flag="0"/>
      <psa03 value="0.0515221998" flag="0"/>
      <psa10 value="0.0087392520" flag="0"/>
      <psa30 value="0.0007481545" flag="0"/>
    </comp>
  </station>
  <station code="CMBO" name="CMBO" netid="HT" insttype="120P," lat="36.4709" lon="25.4056">
    <comp name="--.HHN">
      <acc value="0.1098533911" flag="0"/>
      <vel value="0.0671958169" flag="0"/>
      <psa03 value="0.2505422985" flag="0"/>
      <psa10 value="0.1119360674" flag="0"/>
      <psa30 value="0.0034048328" flag="0"/>
    </comp>
    <comp name="--.HHZ">
      <acc value="0.1032346854" flag="0"/>
      <vel value="0.0432851324" flag="0"/>
      <psa03 value="0.4621548073" flag="0"/>
      <psa10 value="0.0250241322" flag="0"/>
      <psa30 value="0.0023222077" flag="0"/>
    </comp>
    <comp name="--.HHE">
      <acc value="0.0983841880" flag="0"/>
      <vel value="0.0589114044" flag="0"/>
      <psa03 value="0.2768763486" flag="0"/>
      <psa10 value="0.0578779491" flag="0"/>
      <psa30 value="0.0039879104" flag="0"/>
    </comp>
  </station>
</stationlist>
