<stationlist created="1778069979">
	<station code="ABEA" name="ABEA" netid="HC" source="Seismological Network of Crete (HC)" insttype="" lat="35.5163" lon="24.0113">
		<comp name="--.HNE" depth="0.0">
			<acc value="0.00732195809131852" flag="0"/>
			<vel value="0.00406305636207898" flag="0"/>
			<psa03 value="0.0204270042304582" flag="0"/>
			<psa10 value="0.00483851240270458" flag="0"/>
			<psa30 value="0.00105663614279042" flag="0"/>
		</comp>
		<comp name="--.HNN" depth="0.0">
			<acc value="0.00781054665004616" flag="0"/>
			<vel value="0.00362635432952644" flag="0"/>
			<psa03 value="0.01671356422286" flag="0"/>
			<psa10 value="0.00427499397862824" flag="0"/>
			<psa30 value="0.00113002548364148" flag="0"/>
		</comp>
		<comp name="--.HNZ" depth="0.0">
			<acc value="0.00537191619114074" flag="0"/>
			<vel value="0.00220046629354882" flag="0"/>
			<psa03 value="0.00921268451388898" flag="0"/>
			<psa10 value="0.00249634701136198" flag="0"/>
			<psa30 value="0.000615937417415403" flag="0"/>
		</comp>
	</station>
	<station code="ATEI" name="ATEI" netid="HC" source="Seismological Network of Crete (HC)" insttype="" lat="35.5193" lon="24.0432">
		<comp name="--.HNE" depth="0.0">
			<acc value="0.00551450348551385" flag="0"/>
			<vel value="0.00283527543858456" flag="0"/>
			<psa03 value="0.0158286891979706" flag="0"/>
			<psa10 value="0.00346299909419266" flag="0"/>
			<psa30 value="0.00106102132912324" flag="0"/>
		</comp>
		<comp name="--.HNN" depth="0.0">
			<acc value="0.00581288791188451" flag="0"/>
			<vel value="0.00327506051530317" flag="0"/>
			<psa03 value="0.0161000626438789" flag="0"/>
			<psa10 value="0.0026814967766262" flag="0"/>
			<psa30 value="0.000589842615844459" flag="0"/>
		</comp>
		<comp name="--.HNZ" depth="0.0">
			<acc value="0.00528544595450515" flag="0"/>
			<vel value="0.00270150489443529" flag="0"/>
			<psa03 value="0.0132181477728267" flag="0"/>
			<psa10 value="0.00217591406550269" flag="0"/>
			<psa30 value="0.000784581505922675" flag="0"/>
		</comp>
	</station>
	<station code="DEYA" name="DEYA" netid="HC" source="Seismological Network of Crete (HC)" insttype="" lat="35.4825" lon="24.014">
		<comp name="--.HNE" depth="0.0">
			<acc value="0.0118312065924815" flag="0"/>
			<vel value="0.00684618977189544" flag="0"/>
			<psa03 value="0.0502278013034858" flag="0"/>
			<psa10 value="0.00925172131863551" flag="0"/>
			<psa30 value="0.00107193205190341" flag="0"/>
		</comp>
		<comp name="--.HNN" depth="0.0">
			<acc value="0.0108390720173977" flag="0"/>
			<vel value="0.00615853340399711" flag="0"/>
			<psa03 value="0.0354498327524229" flag="0"/>
			<psa10 value="0.00754775937702611" flag="0"/>
			<psa30 value="0.00115360329555604" flag="0"/>
		</comp>
		<comp name="--.HNZ" depth="0.0">
			<acc value="0.0130835177389933" flag="0"/>
			<vel value="0.00424013568381771" flag="0"/>
			<psa03 value="0.0262703887218444" flag="0"/>
			<psa10 value="0.00396585209323613" flag="0"/>
			<psa30 value="0.00220042785087809" flag="0"/>
		</comp>
	</station>
	<station code="G0LD" name="G0LD" netid="HC" source="Seismological Network of Crete (HC)" insttype="" lat="35.4955" lon="24.0306">
		<comp name="--.HNE" depth="0.0">
			<acc value="0.0156903483072678" flag="0"/>
			<vel value="0.0101646773769369" flag="0"/>
			<psa03 value="0.039322719520506" flag="0"/>
			<psa10 value="0.0207669407078949" flag="0"/>
			<psa30 value="0.00151773575088039" flag="0"/>
		</comp>
		<comp name="--.HNN" depth="0.0">
			<acc value="0.0161034229228628" flag="0"/>
			<vel value="0.00930375371529391" flag="0"/>
			<psa03 value="0.0550781330310093" flag="0"/>
			<psa10 value="0.013335060257307" flag="0"/>
			<psa30 value="0.00130226522701154" flag="0"/>
		</comp>
		<comp name="--.HNZ" depth="0.0">
			<acc value="0.00909129037373018" flag="0"/>
			<vel value="0.00563784436794439" flag="0"/>
			<psa03 value="0.028963918717453" flag="0"/>
			<psa10 value="0.00540595124275358" flag="0"/>
			<psa30 value="0.00248266279755997" flag="0"/>
		</comp>
	</station>
	<station code="MULT" name="MULT" netid="HC" source="Seismological Network of Crete (HC)" insttype="" lat="35.5091" lon="24.0118">
		<comp name="--.HNE" depth="0.0">
			<acc value="0.0169462353742453" flag="0"/>
			<vel value="0.00554049774322415" flag="0"/>
			<psa03 value="0.0213469050131042" flag="0"/>
			<psa10 value="0.00346668113498765" flag="0"/>
			<psa30 value="0.000906274723752474" flag="0"/>
		</comp>
		<comp name="--.HNN" depth="0.0">
			<acc value="0.0156425182599329" flag="0"/>
			<vel value="0.00539849645621667" flag="0"/>
			<psa03 value="0.0236733208454741" flag="0"/>
			<psa10 value="0.00433581644529497" flag="0"/>
			<psa30 value="0.00127958903732913" flag="0"/>
		</comp>
		<comp name="--.HNZ" depth="0.0">
			<acc value="0.0179910352684318" flag="0"/>
			<vel value="0.00685724560259325" flag="0"/>
			<psa03 value="0.014329381542874" flag="0"/>
			<psa10 value="0.00796736248615121" flag="0"/>
			<psa30 value="0.00251576999074977" flag="0"/>
		</comp>
	</station>
	<station code="NERO" name="NERO" netid="HC" source="Seismological Network of Crete (HC)" insttype="" lat="35.474" lon="24.0423">
		<comp name="--.HNE" depth="0.0">
			<acc value="0.00468157778762072" flag="0"/>
			<vel value="0.00263863229531578" flag="0"/>
			<psa03 value="0.00885610815805997" flag="0"/>
			<psa10 value="0.00397245956220194" flag="0"/>
			<psa30 value="0.000762540045787185" flag="0"/>
		</comp>
		<comp name="--.HNN" depth="0.0">
			<acc value="0.00438190589989367" flag="0"/>
			<vel value="0.0024407153380439" flag="0"/>
			<psa03 value="0.0162995680476205" flag="0"/>
			<psa10 value="0.00278097938248494" flag="0"/>
			<psa30 value="0.00102885711506947" flag="0"/>
		</comp>
		<comp name="--.HNZ" depth="0.0">
			<acc value="0.00389631536608031" flag="0"/>
			<vel value="0.00193567454192669" flag="0"/>
			<psa03 value="0.00969887687797636" flag="0"/>
			<psa10 value="0.00205118080253501" flag="0"/>
			<psa30 value="0.000939978414788179" flag="0"/>
		</comp>
	</station>
	<station code="PASK" name="PASK" netid="HC" source="Seismological Network of Crete (HC)" insttype="" lat="35.4996" lon="24.0121">
		<comp name="--.HNE" depth="0.0">
			<acc value="0.00987799921207341" flag="0"/>
			<vel value="0.00507055926926868" flag="0"/>
			<psa03 value="0.0188828967325487" flag="0"/>
			<psa10 value="0.0056541501847025" flag="0"/>
			<psa30 value="0.000850574940167614" flag="0"/>
		</comp>
		<comp name="--.HNN" depth="0.0">
			<acc value="0.00727597833937089" flag="0"/>
			<vel value="0.00471537250079362" flag="0"/>
			<psa03 value="0.0187167333813115" flag="0"/>
			<psa10 value="0.00690372499414537" flag="0"/>
			<psa30 value="0.00136812479822074" flag="0"/>
		</comp>
		<comp name="--.HNZ" depth="0.0">
			<acc value="0.00524066084594629" flag="0"/>
			<vel value="0.00263210717274952" flag="0"/>
			<psa03 value="0.0218788217603895" flag="0"/>
			<psa10 value="0.00388031853643632" flag="0"/>
			<psa30 value="0.000770751162650599" flag="0"/>
		</comp>
	</station>
	<station code="POLY" name="POLY" netid="HC" source="Seismological Network of Crete (HC)" insttype="" lat="35.5226" lon="24.0602">
		<comp name="--.HNE" depth="0.0">
			<acc value="0.00433816556522498" flag="0"/>
			<vel value="0.00267084565264341" flag="0"/>
			<psa03 value="0.0142883866396378" flag="0"/>
			<psa10 value="0.00243366793730534" flag="0"/>
			<psa30 value="0.00101706175035096" flag="0"/>
		</comp>
		<comp name="--.HNN" depth="0.0">
			<acc value="0.00706664114587988" flag="0"/>
			<vel value="0.00431689806859788" flag="0"/>
			<psa03 value="0.0197497067586339" flag="0"/>
			<psa10 value="0.00284499166985931" flag="0"/>
			<psa30 value="0.00119390336107061" flag="0"/>
		</comp>
		<comp name="--.HNZ" depth="0.0">
			<acc value="0.00428218944466976" flag="0"/>
			<vel value="0.00246608420514793" flag="0"/>
			<psa03 value="0.0180837448343663" flag="0"/>
			<psa10 value="0.00200012538911643" flag="0"/>
			<psa30 value="0.00070935506420641" flag="0"/>
		</comp>
	</station>
	<station code="SOUD" name="SOUD" netid="HC" source="Seismological Network of Crete (HC)" insttype="" lat="35.4878" lon="24.0678">
		<comp name="--.HNE" depth="0.0">
			<acc value="0.0117911899116867" flag="0"/>
			<vel value="0.00741222911647451" flag="0"/>
			<psa03 value="0.0401404247311617" flag="0"/>
			<psa10 value="0.00749227913922547" flag="0"/>
			<psa30 value="0.000827389758426886" flag="0"/>
		</comp>
		<comp name="--.HNN" depth="0.0">
			<acc value="0.0144672228986698" flag="0"/>
			<vel value="0.00576394548327908" flag="0"/>
			<psa03 value="0.0288313734786718" flag="0"/>
			<psa10 value="0.00531933222342096" flag="0"/>
			<psa30 value="0.000917635893042239" flag="0"/>
		</comp>
		<comp name="--.HNZ" depth="0.0">
			<acc value="0.0067269358105273" flag="0"/>
			<vel value="0.00529847977860191" flag="0"/>
			<psa03 value="0.00822015912851854" flag="0"/>
			<psa10 value="0.00553467336369168" flag="0"/>
			<psa30 value="0.00284627834363884" flag="0"/>
		</comp>
	</station>
	<station code="CH01" name="CH01" netid="HI" source="ITSAK Strong Motion Network" insttype="" lat="35.517" lon="24.0208">
		<comp name="--.HNE" depth="0.0">
			<acc value="0.0081507649010978" flag="0"/>
			<vel value="0.00326032043950612" flag="0"/>
			<psa03 value="0.0155164250224189" flag="0"/>
			<psa10 value="0.0033908930675228" flag="0"/>
			<psa30 value="0.000394296901484805" flag="0"/>
		</comp>
		<comp name="--.HNN" depth="0.0">
			<acc value="0.00788206891122418" flag="0"/>
			<vel value="0.0033992335231674" flag="0"/>
			<psa03 value="0.0268421870173188" flag="0"/>
			<psa10 value="0.00336337796353475" flag="0"/>
			<psa30 value="0.000418456626947636" flag="0"/>
		</comp>
		<comp name="--.HNZ" depth="0.0">
			<acc value="0.00467217907787805" flag="0"/>
			<vel value="0.00179627663722133" flag="0"/>
			<psa03 value="0.00866715097914548" flag="0"/>
			<psa10 value="0.00270743841700788" flag="0"/>
			<psa30 value="0.00027846550426453" flag="0"/>
		</comp>
	</station>
	<station code="NAX1" name="NAX1" netid="HI" source="ITSAK Strong Motion Network" insttype="" lat="37.101394" lon="25.374103">
		<comp name="--.HNE" depth="0.0">
			<acc value="0.00599257016709298" flag="0"/>
			<vel value="0.00378870676833093" flag="0"/>
			<psa03 value="0.0164911979296743" flag="0"/>
			<psa10 value="0.00511278588446114" flag="0"/>
			<psa30 value="0.000451586946668615" flag="0"/>
		</comp>
		<comp name="--.HNN" depth="0.0">
			<acc value="0.00399652022652666" flag="0"/>
			<vel value="0.00263374951950242" flag="0"/>
			<psa03 value="0.0139439901271588" flag="0"/>
			<psa10 value="0.00347821361770697" flag="0"/>
			<psa30 value="0.000297235549771315" flag="0"/>
		</comp>
		<comp name="--.HNZ" depth="0.0">
			<acc value="0.00317334059246264" flag="0"/>
			<vel value="0.00247111490788368" flag="0"/>
			<psa03 value="0.0110629815661452" flag="0"/>
			<psa10 value="0.00319820553729492" flag="0"/>
			<psa30 value="0.000259376218859882" flag="0"/>
		</comp>
	</station>
	<station code="SIT2" name="SIT2" netid="HI" source="ITSAK Strong Motion Network" insttype="" lat="35.2059" lon="26.107">
		<comp name="--.HNE" depth="0.0">
			<acc value="0.163416344439246" flag="0"/>
			<vel value="0.0751571043853385" flag="0"/>
			<psa03 value="0.361678001059113" flag="0"/>
			<psa10 value="0.0271220029495845" flag="0"/>
			<psa30 value="0.00268439407793366" flag="0"/>
		</comp>
		<comp name="--.HNN" depth="0.0">
			<acc value="0.144524058159069" flag="0"/>
			<vel value="0.0763091138364114" flag="0"/>
			<psa03 value="0.429793388369519" flag="0"/>
			<psa10 value="0.0335124487852575" flag="0"/>
			<psa30 value="0.00329362547819133" flag="0"/>
		</comp>
		<comp name="--.HNZ" depth="0.0">
			<acc value="0.178051197801264" flag="0"/>
			<vel value="0.0595365618173652" flag="0"/>
			<psa03 value="0.271712457950168" flag="0"/>
			<psa10 value="0.0122720035850125" flag="0"/>
			<psa30 value="0.00105975426601931" flag="0"/>
		</comp>
	</station>
	<station code="AGNA" name="AGNA" netid="HL" source="National Observatory of Athens Seismic Network" insttype="" lat="35.1895" lon="25.71853">
		<comp name="00.HNE" depth="0.0">
			<acc value="0.0642264285987825" flag="0"/>
			<vel value="0.0230449624536395" flag="0"/>
			<psa03 value="0.109393569703995" flag="0"/>
			<psa10 value="0.00678408691245467" flag="0"/>
			<psa30 value="0.000793531421730223" flag="0"/>
		</comp>
		<comp name="00.HNN" depth="0.0">
			<acc value="0.063246688953925" flag="0"/>
			<vel value="0.0258206356740962" flag="0"/>
			<psa03 value="0.135793912346705" flag="0"/>
			<psa10 value="0.0221642532729901" flag="0"/>
			<psa30 value="0.00199964079972426" flag="0"/>
		</comp>
		<comp name="00.HNZ" depth="0.0">
			<acc value="0.03608843264661" flag="0"/>
			<vel value="0.0123243055321782" flag="0"/>
			<psa03 value="0.0801761289833194" flag="0"/>
			<psa10 value="0.00483914385079096" flag="0"/>
			<psa30 value="0.00081998416367444" flag="0"/>
		</comp>
	</station>
	<station code="CHNB" name="CHNB" netid="HL" source="National Observatory of Athens Seismic Network" insttype="" lat="35.48765" lon="24.06605">
		<comp name="00.HNE" depth="0.0">
			<acc value="0.0130795865834458" flag="0"/>
			<vel value="0.00844117328097377" flag="0"/>
			<psa03 value="0.0441881876672205" flag="0"/>
			<psa10 value="0.00657244679858534" flag="0"/>
			<psa30 value="0.000397709705691297" flag="0"/>
		</comp>
		<comp name="00.HNN" depth="0.0">
			<acc value="0.0105104345561334" flag="0"/>
			<vel value="0.00772572729304489" flag="0"/>
			<psa03 value="0.0335420996036309" flag="0"/>
			<psa10 value="0.00930490546681662" flag="0"/>
			<psa30 value="0.000563891730059821" flag="0"/>
		</comp>
		<comp name="00.HNZ" depth="0.0">
			<acc value="0.0128125002980866" flag="0"/>
			<vel value="0.00448669295052008" flag="0"/>
			<psa03 value="0.0211716004312966" flag="0"/>
			<psa10 value="0.00324742215703093" flag="0"/>
			<psa30 value="0.000333768699079741" flag="0"/>
		</comp>
	</station>
	<station code="HERG" name="HERG" netid="HL" source="National Observatory of Athens Seismic Network" insttype="" lat="35.32622" lon="25.06586">
		<comp name="00.HNE" depth="0.0">
			<acc value="0.0384661438465223" flag="0"/>
			<vel value="0.019381630983966" flag="0"/>
			<psa03 value="0.131989962437179" flag="0"/>
			<psa10 value="0.0177690914900944" flag="0"/>
			<psa30 value="0.00222400649618336" flag="0"/>
		</comp>
		<comp name="00.HNN" depth="0.0">
			<acc value="0.0470363922339298" flag="0"/>
			<vel value="0.0220089520310079" flag="0"/>
			<psa03 value="0.172410390092408" flag="0"/>
			<psa10 value="0.022186379738759" flag="0"/>
			<psa30 value="0.00232609263388614" flag="0"/>
		</comp>
		<comp name="00.HNZ" depth="0.0">
			<acc value="0.0454765897510954" flag="0"/>
			<vel value="0.0174892530746579" flag="0"/>
			<psa03 value="0.0854053868546149" flag="0"/>
			<psa10 value="0.0112482551417121" flag="0"/>
			<psa30 value="0.00082370602481677" flag="0"/>
		</comp>
	</station>
	<station code="IACM" name="IACM" netid="HL" source="National Observatory of Athens Seismic Network" insttype="" lat="35.3058" lon="25.0709">
		<comp name="--.HNE" depth="0.0">
			<acc value="0.0992636719881156" flag="0"/>
			<vel value="0.0398333158169954" flag="0"/>
			<psa03 value="0.305239262269753" flag="0"/>
			<psa10 value="0.0347788626789758" flag="0"/>
			<psa30 value="0.00199544843866455" flag="0"/>
		</comp>
		<comp name="--.HNN" depth="0.0">
			<acc value="0.125676343827857" flag="0"/>
			<vel value="0.0510095874184344" flag="0"/>
			<psa03 value="0.416635808410782" flag="0"/>
			<psa10 value="0.0235954380819797" flag="0"/>
			<psa30 value="0.00245601936589712" flag="0"/>
		</comp>
		<comp name="--.HNZ" depth="0.0">
			<acc value="0.0994055039409241" flag="0"/>
			<vel value="0.0296748577565174" flag="0"/>
			<psa03 value="0.139331094584749" flag="0"/>
			<psa10 value="0.0131600989794575" flag="0"/>
			<psa30 value="0.00092953313951015" flag="0"/>
		</comp>
	</station>
	<station code="IMMV" name="IMMV" netid="HL" source="National Observatory of Athens Seismic Network" insttype="" lat="35.4606" lon="23.9811">
		<comp name="--.HNE" depth="0.0">
			<acc value="0.00488934687371029" flag="0"/>
			<vel value="0.0030574731927301" flag="0"/>
			<psa03 value="0.0142224786277551" flag="0"/>
			<psa10 value="0.00372782616893777" flag="0"/>
			<psa30 value="0.000296432658042147" flag="0"/>
		</comp>
		<comp name="--.HNN" depth="0.0">
			<acc value="0.00550230082916687" flag="0"/>
			<vel value="0.0033797572872453" flag="0"/>
			<psa03 value="0.0249575283137759" flag="0"/>
			<psa10 value="0.00398724632300072" flag="0"/>
			<psa30 value="0.000268947347691716" flag="0"/>
		</comp>
		<comp name="--.HNZ" depth="0.0">
			<acc value="0.0041673321112701" flag="0"/>
			<vel value="0.00186481777182683" flag="0"/>
			<psa03 value="0.013087751113867" flag="0"/>
			<psa10 value="0.00148698827130152" flag="0"/>
			<psa30 value="0.000256386541641872" flag="0"/>
		</comp>
	</station>
	<station code="KARP" name="KARP" netid="HL" source="National Observatory of Athens Seismic Network" insttype="" lat="35.5471" lon="27.16106">
		<comp name="--.HNE" depth="0.0">
			<acc value="0.124575232489871" flag="0"/>
			<vel value="0.0368452151876519" flag="0"/>
			<psa03 value="0.0956204489688009" flag="0"/>
			<psa10 value="0.0430856217108132" flag="0"/>
			<psa30 value="0.00150293727055141" flag="0"/>
		</comp>
		<comp name="--.HNN" depth="0.0">
			<acc value="0.119158419742341" flag="0"/>
			<vel value="0.0282270655678018" flag="0"/>
			<psa03 value="0.0917466819339543" flag="0"/>
			<psa10 value="0.0235877200706936" flag="0"/>
			<psa30 value="0.00102527510694212" flag="0"/>
		</comp>
		<comp name="--.HNZ" depth="0.0">
			<acc value="0.0762371268785642" flag="0"/>
			<vel value="0.0214195834531035" flag="0"/>
			<psa03 value="0.061506782855847" flag="0"/>
			<psa10 value="0.0131618090927682" flag="0"/>
			<psa30 value="0.00084850350085879" flag="0"/>
		</comp>
	</station>
	<station code="KLNA" name="KLNA" netid="HL" source="National Observatory of Athens Seismic Network" insttype="" lat="36.95708" lon="26.97274">
		<comp name="00.HNE" depth="0.0">
			<acc value="0.0293807831370528" flag="0"/>
			<vel value="0.010183892645989" flag="0"/>
			<psa03 value="0.090656161775662" flag="0"/>
			<psa10 value="0.00623697348138934" flag="0"/>
			<psa30 value="0.000363530462317138" flag="0"/>
		</comp>
		<comp name="00.HNN" depth="0.0">
			<acc value="0.027495440231394" flag="0"/>
			<vel value="0.0112479969520856" flag="0"/>
			<psa03 value="0.0954018407369476" flag="0"/>
			<psa10 value="0.00567880525549538" flag="0"/>
			<psa30 value="0.000341253778262917" flag="0"/>
		</comp>
		<comp name="00.HNZ" depth="0.0">
			<acc value="0.0268534282129103" flag="0"/>
			<vel value="0.00679270375595111" flag="0"/>
			<psa03 value="0.0262229975615633" flag="0"/>
			<psa10 value="0.00370928072164208" flag="0"/>
			<psa30 value="0.000239673116751255" flag="0"/>
		</comp>
	</station>
	<station code="NISR" name="NISR" netid="HL" source="National Observatory of Athens Seismic Network" insttype="" lat="36.6106" lon="27.131">
		<comp name="--.HNE" depth="0.0">
			<acc value="0.0726601593784079" flag="0"/>
			<vel value="0.0342232582737717" flag="0"/>
			<psa03 value="0.173577436153129" flag="0"/>
			<psa10 value="0.0367645442206432" flag="0"/>
			<psa30 value="0.00219266421157461" flag="0"/>
		</comp>
		<comp name="--.HNN" depth="0.0">
			<acc value="0.0613097611704654" flag="0"/>
			<vel value="0.0240528971449275" flag="0"/>
			<psa03 value="0.100857327136309" flag="0"/>
			<psa10 value="0.0174717792946221" flag="0"/>
			<psa30 value="0.00132402854372522" flag="0"/>
		</comp>
		<comp name="--.HNZ" depth="0.0">
			<acc value="0.0223512049571369" flag="0"/>
			<vel value="0.0124978346265586" flag="0"/>
			<psa03 value="0.0524384112876063" flag="0"/>
			<psa10 value="0.0107907885867952" flag="0"/>
			<psa30 value="0.00115970432472097" flag="0"/>
		</comp>
	</station>
