<stationlist created="1778723774">
	<station code="3502" name="3502" netid="TK" source="Turkish National Strong Motion Network (TNSMN)" insttype="" lat="38.45514" lon="27.22673">
		<comp name="00.HNE" depth="None">
			<acc value="0.180442131172769" flag="0"/>
			<vel value="0.111495348964292" flag="0"/>
			<psa03 value="0.781377896381498" flag="0"/>
			<psa10 value="0.0922901970135753" flag="0"/>
			<psa30 value="0.00695204406434706" flag="0"/>
		</comp>
		<comp name="00.HNN" depth="None">
			<acc value="0.253604715509011" flag="0"/>
			<vel value="0.172137570840468" flag="0"/>
			<psa03 value="0.696725641459728" flag="0"/>
			<psa10 value="0.0835077492764748" flag="0"/>
			<psa30 value="0.00791758088316937" flag="0"/>
		</comp>
		<comp name="00.HNZ" depth="None">
			<acc value="0.0896264210571767" flag="0"/>
			<vel value="0.0500431987081796" flag="0"/>
			<psa03 value="0.268095302056684" flag="0"/>
			<psa10 value="0.0549698276291425" flag="0"/>
			<psa30 value="0.00284470949678972" flag="0"/>
		</comp>
	</station>
</stationlist>
