<stationlist xmlns:esm="https://esm-db.eu/esmws/shakemap/1/" created="1780970084">
	<station code="RGE1" name="RGE1" netid="HI" source="ITSAK Strong Motion Network" insttype="" lat="36.0269" lon="27.9306" esm:processing="manual (Paolucci et al 2011)" esm:quality="good">
		<comp name="--.HNE" depth="0.0">
			<acc value="0.0263825698154285" flag="0"/>
			<vel value="0.00692660231761721" flag="0"/>
			<psa03 value="0.0212567935749181" flag="0"/>
			<psa10 value="0.00153353190146229" flag="0"/>
			<psa30 value="0.000118308931136058" flag="0"/>
		</comp>
		<comp name="--.HNN" depth="0.0">
			<acc value="0.0206646112606327" flag="0"/>
			<vel value="0.00581046904083679" flag="0"/>
			<psa03 value="0.0272853309567664" flag="0"/>
			<psa10 value="0.00229477514259102" flag="0"/>
			<psa30 value="0.000183149632764319" flag="0"/>
		</comp>
		<comp name="--.HNZ" depth="0.0">
			<acc value="0.0210432786703769" flag="0"/>
			<vel value="0.00488797557933543" flag="0"/>
			<psa03 value="0.0102606953457098" flag="0"/>
			<psa10 value="0.000753476007837651" flag="0"/>
			<psa30 value="8.03854097743031e-05" flag="0"/>
		</comp>
	</station>
	<station code="RKL1" name="RKL1" netid="HI" source="ITSAK Strong Motion Network" insttype="" lat="36.336699" lon="28.171224" esm:processing="manual (Paolucci et al 2011)" esm:quality="good">
		<comp name="--.HNE" depth="0.0">
			<acc value="0.0131462349863892" flag="0"/>
			<vel value="0.00521877209392985" flag="0"/>
			<psa03 value="0.031479343164492" flag="0"/>
			<psa10 value="0.00231743601876286" flag="0"/>
			<psa30 value="0.000118220761232734" flag="0"/>
		</comp>
		<comp name="--.HNN" depth="0.0">
			<acc value="0.0124818785068549" flag="0"/>
			<vel value="0.004865061623754" flag="0"/>
			<psa03 value="0.0219099904918414" flag="0"/>
			<psa10 value="0.00172733888084852" flag="0"/>
			<psa30 value="0.000108005566297037" flag="0"/>
		</comp>
		<comp name="--.HNZ" depth="0.0">
			<acc value="0.0102122493356677" flag="0"/>
			<vel value="0.00397793887023585" flag="0"/>
			<psa03 value="0.0202618682910009" flag="0"/>
			<psa10 value="0.000969577276611137" flag="0"/>
			<psa30 value="8.75347505705437e-05" flag="0"/>
		</comp>
	</station>
	<station code="RKT1" name="RKT1" netid="HI" source="ITSAK Strong Motion Network" insttype="" lat="35.954336" lon="27.767327" esm:processing="manual (Paolucci et al 2011)" esm:quality="good">
		<comp name="--.HNE" depth="0.0">
			<acc value="0.0342128472306256" flag="0"/>
			<vel value="0.00842496274818334" flag="0"/>
			<psa03 value="0.0384999045963984" flag="0"/>
			<psa10 value="0.00224319492878" flag="0"/>
			<psa30 value="0.000193012395498946" flag="0"/>
		</comp>
		<comp name="--.HNN" depth="0.0">
			<acc value="0.0440820256722596" flag="0"/>
			<vel value="0.0149418813061485" flag="0"/>
			<psa03 value="0.0960449250049175" flag="0"/>
			<psa10 value="0.00301850582057155" flag="0"/>
			<psa30 value="0.000259554017096474" flag="0"/>
		</comp>
		<comp name="--.HNZ" depth="0.0">
			<acc value="0.0235142564652332" flag="0"/>
			<vel value="0.00565202627416954" flag="0"/>
			<psa03 value="0.010342453365944" flag="0"/>
			<psa10 value="0.000734710116251931" flag="0"/>
			<psa30 value="6.77669306328216e-05" flag="0"/>
		</comp>
	</station>
	<station code="RLN1" name="RLN1" netid="HI" source="ITSAK Strong Motion Network" insttype="" lat="36.089085" lon="28.086909" esm:processing="manual (Paolucci et al 2011)" esm:quality="good">
		<comp name="--.HNE" depth="0.0">
			<acc value="0.00817848394644773" flag="0"/>
			<vel value="0.00186666207920861" flag="0"/>
			<psa03 value="0.0069774452944239" flag="0"/>
			<psa10 value="0.00114267116510675" flag="0"/>
			<psa30 value="5.0918356815203e-05" flag="0"/>
		</comp>
		<comp name="--.HNN" depth="0.0">
			<acc value="0.0100533946513101" flag="0"/>
			<vel value="0.0021145392022868" flag="0"/>
			<psa03 value="0.00804748883580701" flag="0"/>
			<psa10 value="0.000681823116654014" flag="0"/>
			<psa30 value="4.00720556186879e-05" flag="0"/>
		</comp>
		<comp name="--.HNZ" depth="0.0">
			<acc value="0.0266592468461265" flag="0"/>
			<vel value="0.00427789130935503" flag="0"/>
			<psa03 value="0.00875237146832203" flag="0"/>
			<psa10 value="0.000404149858882186" flag="0"/>
			<psa30 value="4.19367103929155e-05" flag="0"/>
		</comp>
	</station>
	<station code="RPN1" name="RPN1" netid="HI" source="ITSAK Strong Motion Network" insttype="" lat="36.448678" lon="28.218047" esm:processing="manual (Paolucci et al 2011)" esm:quality="good">
		<comp name="--.HNE" depth="0.0">
			<acc value="0.0116552684642071" flag="0"/>
			<vel value="0.00309120997965127" flag="0"/>
			<psa03 value="0.0136170713349802" flag="0"/>
			<psa10 value="0.00133403860788565" flag="0"/>
			<psa30 value="9.19260505872017e-05" flag="0"/>
		</comp>
		<comp name="--.HNN" depth="0.0">
			<acc value="0.0103507783241622" flag="0"/>
			<vel value="0.00344695009067846" flag="0"/>
			<psa03 value="0.0139719802626215" flag="0"/>
			<psa10 value="0.00147608383799752" flag="0"/>
			<psa30 value="0.000108025704349834" flag="0"/>
		</comp>
		<comp name="--.HNZ" depth="0.0">
			<acc value="0.00890002875352679" flag="0"/>
			<vel value="0.00233717242372078" flag="0"/>
			<psa03 value="0.0134466563999937" flag="0"/>
			<psa10 value="0.00062201497497065" flag="0"/>
			<psa30 value="5.48487180938068e-05" flag="0"/>
		</comp>
	</station>
</stationlist>
