<stationlist xmlns:esm="https://esm-db.eu/esmws/shakemap/1/" created="1783994209">
	<station code="AGR3" name="AGR3" netid="HI" source="ITSAK Strong Motion Network" insttype="" lat="38.5893" lon="21.4162" esm:processing="manual (Paolucci et al 2011)" esm:quality="good">
		<comp name="--.HNE" depth="0.0">
			<acc value="0.0274810273238635" flag="0"/>
			<vel value="0.031115970009294" flag="0"/>
			<psa03 value="0.0506757059751507" flag="0"/>
			<psa10 value="0.0543266726254399" flag="0"/>
			<psa30 value="0.00913424509890925" flag="0"/>
		</comp>
		<comp name="--.HNN" depth="0.0">
			<acc value="0.0282404384109799" flag="0"/>
			<vel value="0.0326850768465895" flag="0"/>
			<psa03 value="0.0630070436990892" flag="0"/>
			<psa10 value="0.0486722993009574" flag="0"/>
			<psa30 value="0.00878294766051137" flag="0"/>
		</comp>
		<comp name="--.HNZ" depth="0.0">
			<acc value="0.0142220241311473" flag="0"/>
			<vel value="0.0163671022667766" flag="0"/>
			<psa03 value="0.0466970101144097" flag="0"/>
			<psa10 value="0.0327010450337451" flag="0"/>
			<psa30 value="0.00389834157933089" flag="0"/>
		</comp>
	</station>
	<station code="AKR1" name="AKR1" netid="HI" source="ITSAK Strong Motion Network" insttype="" lat="38.153583" lon="22.31326" esm:processing="manual (Paolucci et al 2011)" esm:quality="good">
		<comp name="--.HNE" depth="0.0">
			<acc value="0.00921904113805757" flag="0"/>
			<vel value="0.00767127798782466" flag="0"/>
			<psa03 value="0.0258411233059307" flag="0"/>
			<psa10 value="0.0127308942967672" flag="0"/>
			<psa30 value="0.00207263521857793" flag="0"/>
		</comp>
		<comp name="--.HNN" depth="0.0">
			<acc value="0.0101178099231917" flag="0"/>
			<vel value="0.00791700900895087" flag="0"/>
			<psa03 value="0.0344843312927078" flag="0"/>
			<psa10 value="0.0111271914968272" flag="0"/>
			<psa30 value="0.00129123678810015" flag="0"/>
		</comp>
		<comp name="--.HNZ" depth="0.0">
			<acc value="0.00528277284944834" flag="0"/>
			<vel value="0.00491829649580684" flag="0"/>
			<psa03 value="0.0103445374883819" flag="0"/>
			<psa10 value="0.00778832093803905" flag="0"/>
			<psa30 value="0.000755079759911688" flag="0"/>
		</comp>
	</station>
	<station code="AOL1" name="AOL1" netid="HI" source="ITSAK Strong Motion Network" insttype="" lat="37.642378" lon="21.624555" esm:processing="automatic (Paolucci et al 2011)" esm:quality="best">
		<comp name="--.HNE" depth="0.0">
			<acc value="0.136805856668089" flag="0"/>
			<vel value="0.0438708057062151" flag="0"/>
			<psa03 value="0.218170369382914" flag="0"/>
			<psa10 value="0.0384445617635407" flag="0"/>
			<psa30 value="0.00429266061769863" flag="0"/>
		</comp>
		<comp name="--.HNN" depth="0.0">
			<acc value="0.115626966455159" flag="0"/>
			<vel value="0.0514326292991783" flag="0"/>
			<psa03 value="0.173207109537617" flag="0"/>
			<psa10 value="0.0493046699424089" flag="0"/>
			<psa30 value="0.00583099044116637" flag="0"/>
		</comp>
		<comp name="--.HNZ" depth="0.0">
			<acc value="0.0694044705605754" flag="0"/>
			<vel value="0.0213119263961036" flag="0"/>
			<psa03 value="0.0948989220045097" flag="0"/>
			<psa10 value="0.0240920422295601" flag="0"/>
			<psa30 value="0.00245022502371607" flag="0"/>
		</comp>
	</station>
	<station code="ARG2" name="ARG2" netid="HI" source="ITSAK Strong Motion Network" insttype="" lat="38.1783" lon="20.4878" esm:processing="manual (Paolucci et al 2011)" esm:quality="best">
		<comp name="--.HNE" depth="0.0">
			<acc value="0.193206278411914" flag="0"/>
			<vel value="0.0563464033759955" flag="0"/>
			<psa03 value="0.237939054795969" flag="0"/>
			<psa10 value="0.0594516544660948" flag="0"/>
			<psa30 value="0.00670685677207893" flag="0"/>
		</comp>
		<comp name="--.HNN" depth="0.0">
			<acc value="0.170864580046567" flag="0"/>
			<vel value="0.0432472344004922" flag="0"/>
			<psa03 value="0.151855049262414" flag="0"/>
			<psa10 value="0.0563953143320006" flag="0"/>
			<psa30 value="0.00461381634647618" flag="0"/>
		</comp>
		<comp name="--.HNZ" depth="0.0">
			<acc value="0.0884153867405237" flag="0"/>
			<vel value="0.027671042121436" flag="0"/>
			<psa03 value="0.192078293012241" flag="0"/>
			<psa10 value="0.0257272162275724" flag="0"/>
			<psa30 value="0.00300399175235077" flag="0"/>
		</comp>
	</station>
	<station code="AST1" name="AST1" netid="HI" source="ITSAK Strong Motion Network" insttype="" lat="38.5416" lon="21.0895" esm:processing="manual (Paolucci et al 2011)" esm:quality="good">
		<comp name="--.HNE" depth="0.0">
			<acc value="0.0221649060469" flag="0"/>
			<vel value="0.0212544055076397" flag="0"/>
			<psa03 value="0.0577912554703835" flag="0"/>
			<psa10 value="0.0280446803224352" flag="0"/>
			<psa30 value="0.00738373913648028" flag="0"/>
		</comp>
		<comp name="--.HNN" depth="0.0">
			<acc value="0.0285756805094074" flag="0"/>
			<vel value="0.022911630691876" flag="0"/>
			<psa03 value="0.0630575730880799" flag="0"/>
			<psa10 value="0.0320363097482948" flag="0"/>
			<psa30 value="0.00364051616632929" flag="0"/>
		</comp>
		<comp name="--.HNZ" depth="0.0">
			<acc value="0.0151552328431206" flag="0"/>
			<vel value="0.0110396506315839" flag="0"/>
			<psa03 value="0.0448646231027631" flag="0"/>
			<psa10 value="0.0179860658635924" flag="0"/>
			<psa30 value="0.00161029406991255" flag="0"/>
		</comp>
	</station>
	<station code="KAC1" name="KAC1" netid="HI" source="ITSAK Strong Motion Network" insttype="" lat="38.143412" lon="21.549694" esm:processing="automatic (Paolucci et al 2011)" esm:quality="best">
		<comp name="--.HNE" depth="0.0">
			<acc value="0.0423906350863297" flag="0"/>
			<vel value="0.035732016151651" flag="0"/>
			<psa03 value="0.139307176333415" flag="0"/>
			<psa10 value="0.0533078801354374" flag="0"/>
			<psa30 value="0.00701436966756573" flag="0"/>
		</comp>
		<comp name="--.HNN" depth="0.0">
			<acc value="0.047963782714549" flag="0"/>
			<vel value="0.0327814320649869" flag="0"/>
			<psa03 value="0.150867671326139" flag="0"/>
			<psa10 value="0.0515255220629625" flag="0"/>
			<psa30 value="0.00576423518562498" flag="0"/>
		</comp>
		<comp name="--.HNZ" depth="0.0">
			<acc value="0.0182555507386709" flag="0"/>
			<vel value="0.0195797435179368" flag="0"/>
			<psa03 value="0.0522847552751034" flag="0"/>
			<psa10 value="0.0254875452997897" flag="0"/>
			<psa30 value="0.00556337104602819" flag="0"/>
		</comp>
	</station>
	<station code="KLV1" name="KLV1" netid="HI" source="ITSAK Strong Motion Network" insttype="" lat="38.03256" lon="22.10797" esm:processing="manual (Paolucci et al 2011)" esm:quality="good">
		<comp name="--.HNE" depth="0.0">
			<acc value="0.0149123228659815" flag="0"/>
			<vel value="0.0136412465274318" flag="0"/>
			<psa03 value="0.0404022125762994" flag="0"/>
			<psa10 value="0.0171138940314889" flag="0"/>
			<psa30 value="0.00148365157146189" flag="0"/>
		</comp>
		<comp name="--.HNN" depth="0.0">
			<acc value="0.0114297924541136" flag="0"/>
			<vel value="0.0106726655433835" flag="0"/>
			<psa03 value="0.0245634714334312" flag="0"/>
			<psa10 value="0.0188252834346378" flag="0"/>
			<psa30 value="0.0010509944334632" flag="0"/>
		</comp>
		<comp name="--.HNZ" depth="0.0">
			<acc value="0.00632230114935866" flag="0"/>
			<vel value="0.00559157064724165" flag="0"/>
			<psa03 value="0.0135568886053363" flag="0"/>
			<psa10 value="0.0107434986531794" flag="0"/>
			<psa30 value="0.00100043573998456" flag="0"/>
		</comp>
	</station>
	<station code="KRI1" name="KRI1" netid="HI" source="ITSAK Strong Motion Network" insttype="" lat="37.6621" lon="20.8172" esm:processing="manual (Paolucci et al 2011)" esm:quality="good">
		<comp name="--.HNE" depth="0.0">
			<acc value="0.302286588466031" flag="0"/>
			<vel value="0.143307435864114" flag="0"/>
			<psa03 value="0.63583149825226" flag="0"/>
			<psa10 value="0.124564987757666" flag="0"/>
			<psa30 value="0.00999719864678664" flag="0"/>
		</comp>
		<comp name="--.HNN" depth="0.0">
			<acc value="0.4824569383415" flag="0"/>
			<vel value="0.308886042449976" flag="0"/>
			<psa03 value="1.28025350017523" flag="0"/>
			<psa10 value="0.248703134864193" flag="0"/>
			<psa30 value="0.0261809022026817" flag="0"/>
		</comp>
		<comp name="--.HNZ" depth="0.0">
			<acc value="0.221327820739197" flag="0"/>
			<vel value="0.0878209395260437" flag="0"/>
			<psa03 value="0.261965619749981" flag="0"/>
			<psa10 value="0.0610664007029482" flag="0"/>
			<psa30 value="0.0106804121418476" flag="0"/>
		</comp>
	</station>
	<station code="LEF2" name="LEF2" netid="HI" source="ITSAK Strong Motion Network" insttype="" lat="38.830093" lon="20.708346" esm:processing="manual (Paolucci et al 2011)" esm:quality="good">
		<comp name="--.HNE" depth="0.0">
			<acc value="0.0326675275992011" flag="0"/>
			<vel value="0.0417609050345638" flag="0"/>
			<psa03 value="0.0823817803053031" flag="0"/>
			<psa10 value="0.062980277134269" flag="0"/>
			<psa30 value="0.015313167755544" flag="0"/>
		</comp>
		<comp name="--.HNN" depth="0.0">
			<acc value="0.0334156886708127" flag="0"/>
			<vel value="0.0424415498759781" flag="0"/>
			<psa03 value="0.15522527249583" flag="0"/>
			<psa10 value="0.0594622440818448" flag="0"/>
			<psa30 value="0.0102048193525328" flag="0"/>
		</comp>
		<comp name="--.HNZ" depth="0.0">
			<acc value="0.0227401936690746" flag="0"/>
			<vel value="0.020467942354742" flag="0"/>
			<psa03 value="0.0494146068085201" flag="0"/>
			<psa10 value="0.0336903193183113" flag="0"/>
			<psa30 value="0.00360235280486056" flag="0"/>
		</comp>
	</station>
	<station code="LXR1" name="LXR1" netid="HI" source="ITSAK Strong Motion Network" insttype="" lat="38.201" lon="20.4374" esm:processing="automatic (Paolucci et al 2011)" esm:quality="best">
		<comp name="--.HNE" depth="0.0">
			<acc value="0.243801451238294" flag="0"/>
			<vel value="0.150683228603354" flag="0"/>
			<psa03 value="0.751987232130233" flag="0"/>
			<psa10 value="0.11433617921074" flag="0"/>
			<psa30 value="0.0245774364678795" flag="0"/>
		</comp>
		<comp name="--.HNN" depth="0.0">
			<acc value="0.213763470491988" flag="0"/>
			<vel value="0.136351412485636" flag="0"/>
			<psa03 value="0.538037183989556" flag="0"/>
			<psa10 value="0.142024728441238" flag="0"/>
			<psa30 value="0.0219048844244228" flag="0"/>
		</comp>
		<comp name="--.HNZ" depth="0.0">
			<acc value="0.207243639931183" flag="0"/>
			<vel value="0.0774672397928963" flag="0"/>
			<psa03 value="0.370401120589738" flag="0"/>
			<psa10 value="0.0555416893643359" flag="0"/>
			<psa30 value="0.00872484881174777" flag="0"/>
		</comp>
	</station>
	<station code="MGP1" name="MGP1" netid="HI" source="ITSAK Strong Motion Network" insttype="" lat="37.403248" lon="22.140703" esm:processing="manual (Paolucci et al 2011)" esm:quality="good">
		<comp name="--.HNE" depth="0.0">
			<acc value="0.0157207304131051" flag="0"/>
			<vel value="0.0199905313037541" flag="0"/>
			<psa03 value="0.0530304192550158" flag="0"/>
			<psa10 value="0.0333341319726477" flag="0"/>
			<psa30 value="0.0103933101724579" flag="0"/>
		</comp>
		<comp name="--.HNN" depth="0.0">
			<acc value="0.0311344442418368" flag="0"/>
			<vel value="0.0288625997303891" flag="0"/>
			<psa03 value="0.0492134476493797" flag="0"/>
			<psa10 value="0.0485590155464646" flag="0"/>
			<psa30 value="0.00708285837127289" flag="0"/>
		</comp>
		<comp name="--.HNZ" depth="0.0">
			<acc value="0.00701289998509061" flag="0"/>
			<vel value="0.0139904600078228" flag="0"/>
			<psa03 value="0.0164564469296784" flag="0"/>
			<psa10 value="0.0164152405541249" flag="0"/>
			<psa30 value="0.0107955559859356" flag="0"/>
		</comp>
	</station>
	<station code="MSL1" name="MSL1" netid="HI" source="ITSAK Strong Motion Network" insttype="" lat="38.3727" lon="21.4243" esm:processing="manual (Paolucci et al 2011)" esm:quality="bad">
		<comp name="--.HNE" depth="0.0">
			<acc value="0.0582975140501658" flag="0"/>
			<vel value="0.0560008808845086" flag="0"/>
			<psa03 value="0.183756242581242" flag="0"/>
			<psa10 value="0.132469593400916" flag="0"/>
			<psa30 value="0.00773324299190209" flag="0"/>
		</comp>
		<comp name="--.HNN" depth="0.0">
			<acc value="0.0479737330657369" flag="0"/>
			<vel value="0.048506058716114" flag="0"/>
			<psa03 value="0.141161661880647" flag="0"/>
			<psa10 value="0.104644415105013" flag="0"/>
			<psa30 value="0.00760841223543711" flag="0"/>
		</comp>
		<comp name="--.HNZ" depth="0.0">
			<acc value="0.0205125570179682" flag="0"/>
			<vel value="0.0230853069378811" flag="0"/>
			<psa03 value="0.0545407498676733" flag="0"/>
			<psa10 value="0.042063938130102" flag="0"/>
			<psa30 value="0.00217491866371419" flag="0"/>
		</comp>
	</station>
	<station code="PAT4" name="PAT4" netid="HI" source="ITSAK Strong Motion Network" insttype="" lat="38.2338" lon="21.74795" esm:processing="manual (Paolucci et al 2011)" esm:quality="good">
		<comp name="--.HNE" depth="0.0">
			<acc value="0.0350542714495218" flag="0"/>
			<vel value="0.049555884265404" flag="0"/>
			<psa03 value="0.0845098639887363" flag="0"/>
			<psa10 value="0.0526707204267338" flag="0"/>
			<psa30 value="0.00969637150369146" flag="0"/>
		</comp>
		<comp name="--.HNN" depth="0.0">
			<acc value="0.0339763799375748" flag="0"/>
			<vel value="0.0363790560735275" flag="0"/>
			<psa03 value="0.0990132883110852" flag="0"/>
			<psa10 value="0.0514579988398804" flag="0"/>
			<psa30 value="0.00719741596015094" flag="0"/>
		</comp>
		<comp name="--.HNZ" depth="0.0">
			<acc value="0.0188046711924317" flag="0"/>
			<vel value="0.0141694101983547" flag="0"/>
			<psa03 value="0.0501897466994003" flag="0"/>
			<psa10 value="0.0336180445304613" flag="0"/>
			<psa30 value="0.00279661484534176" flag="0"/>
		</comp>
	</station>
	<station code="PET1" name="PET1" netid="HI" source="ITSAK Strong Motion Network" insttype="" lat="36.963862" lon="21.92538" esm:processing="manual (Paolucci et al 2011)" esm:quality="good">
		<comp name="--.HNE" depth="0.0">
			<acc value="0.0106320582202181" flag="0"/>
			<vel value="0.0111885768603809" flag="0"/>
			<psa03 value="0.0482498577746129" flag="0"/>
			<psa10 value="0.0149884941641787" flag="0"/>
			<psa30 value="0.0025920440018607" flag="0"/>
		</comp>
		<comp name="--.HNN" depth="0.0">
			<acc value="0.0113303647956137" flag="0"/>
			<vel value="0.0115144399459307" flag="0"/>
			<psa03 value="0.0372743077816244" flag="0"/>
			<psa10 value="0.0214651807128766" flag="0"/>
			<psa30 value="0.00391074823454425" flag="0"/>
		</comp>
		<comp name="--.HNZ" depth="0.0">
			<acc value="0.00868238125324859" flag="0"/>
			<vel value="0.00666116097092083" flag="0"/>
			<psa03 value="0.0260414438678515" flag="0"/>
			<psa10 value="0.0109120191177131" flag="0"/>
			<psa30 value="0.00244615683755204" flag="0"/>
		</comp>
	</station>
	<station code="PRE2" name="PRE2" netid="HI" source="ITSAK Strong Motion Network" insttype="" lat="38.9577" lon="20.7548" esm:processing="manual (Paolucci et al 2011)" esm:quality="good">
		<comp name="--.HNE" depth="0.0">
			<acc value="0.0215586981795677" flag="0"/>
			<vel value="0.0229329407601101" flag="0"/>
			<psa03 value="0.0562889476165278" flag="0"/>
			<psa10 value="0.0471526686328836" flag="0"/>
			<psa30 value="0.0102292568047274" flag="0"/>
		</comp>
		<comp name="--.HNN" depth="0.0">
			<acc value="0.0175350294876001" flag="0"/>
			<vel value="0.0190641283016767" flag="0"/>
			<psa03 value="0.0450862679939827" flag="0"/>
			<psa10 value="0.0430909095612792" flag="0"/>
			<psa30 value="0.00654279634481413" flag="0"/>
		</comp>
		<comp name="--.HNZ" depth="0.0">
			<acc value="0.0117178197415425" flag="0"/>
			<vel value="0.0102763316081908" flag="0"/>
			<psa03 value="0.0238195258433536" flag="0"/>
			<psa10 value="0.0232492957767436" flag="0"/>
			<psa30 value="0.00291325111358878" flag="0"/>
		</comp>
	</station>
	<station code="PYL1" name="PYL1" netid="HI" source="ITSAK Strong Motion Network" insttype="" lat="36.914188" lon="21.695161" esm:processing="manual (Paolucci et al 2011)" esm:quality="best">
		<comp name="--.HNE" depth="0.0">
			<acc value="0.0129580801049399" flag="0"/>
			<vel value="0.00816698269918122" flag="0"/>
			<psa03 value="0.0438026202792881" flag="0"/>
			<psa10 value="0.00980525458039425" flag="0"/>
			<psa30 value="0.00216507537825817" flag="0"/>
		</comp>
		<comp name="--.HNN" depth="0.0">
			<acc value="0.0113237849184369" flag="0"/>
			<vel value="0.00933790733201821" flag="0"/>
			<psa03 value="0.0254583155657966" flag="0"/>
			<psa10 value="0.00914888640930421" flag="0"/>
			<psa30 value="0.00257401914674917" flag="0"/>
		</comp>
		<comp name="--.HNZ" depth="0.0">
			<acc value="0.00481818994163578" flag="0"/>
			<vel value="0.00261602130082242" flag="0"/>
			<psa03 value="0.0126620444729709" flag="0"/>
			<psa10 value="0.00562543763811531" flag="0"/>
			<psa30 value="0.000919899768071667" flag="0"/>
		</comp>
	</station>
	<station code="PYR2" name="PYR2" netid="HI" source="ITSAK Strong Motion Network" insttype="" lat="37.6671" lon="21.4506" esm:processing="automatic (Paolucci et al 2011)" esm:quality="best">
		<comp name="--.HNE" depth="0.0">
			<acc value="0.0778700564456334" flag="0"/>
			<vel value="0.032604950786988" flag="0"/>
			<psa03 value="0.16736230568138" flag="0"/>
			<psa10 value="0.0322353916864961" flag="0"/>
			<psa30 value="0.00769663569767517" flag="0"/>
		</comp>
		<comp name="--.HNN" depth="0.0">
			<acc value="0.0573082064643425" flag="0"/>
			<vel value="0.0408500361903538" flag="0"/>
			<psa03 value="0.110306682276344" flag="0"/>
			<psa10 value="0.0430639190232885" flag="0"/>
			<psa30 value="0.00573715339158903" flag="0"/>
		</comp>
		<comp name="--.HNZ" depth="0.0">
			<acc value="0.044600857123488" flag="0"/>
			<vel value="0.0151692084537746" flag="0"/>
			<psa03 value="0.0633144807319505" flag="0"/>
			<psa10 value="0.0250959799855093" flag="0"/>
			<psa30 value="0.00501271331765617" flag="0"/>
		</comp>
	</station>
	<station code="PYR3" name="PYR3" netid="HI" source="ITSAK Strong Motion Network" insttype="" lat="37.6788" lon="21.46209" esm:processing="automatic (Paolucci et al 2011)" esm:quality="best">
		<comp name="--.HNE" depth="0.0">
			<acc value="0.122790568422403" flag="0"/>
			<vel value="0.0449676656458111" flag="0"/>
			<psa03 value="0.201629627806629" flag="0"/>
			<psa10 value="0.0455291785846356" flag="0"/>
			<psa30 value="0.00673868598820829" flag="0"/>
		</comp>
		<comp name="--.HNN" depth="0.0">
			<acc value="0.0849735058733114" flag="0"/>
			<vel value="0.0719911458501895" flag="0"/>
			<psa03 value="0.179822516525863" flag="0"/>
			<psa10 value="0.0799661723664656" flag="0"/>
			<psa30 value="0.0073080691237133" flag="0"/>
		</comp>
		<comp name="--.HNZ" depth="0.0">
			<acc value="0.0417392158837865" flag="0"/>
			<vel value="0.0192516821157127" flag="0"/>
			<psa03 value="0.123384642377017" flag="0"/>
			<psa10 value="0.0238537101912322" flag="0"/>
			<psa30 value="0.00834515532558442" flag="0"/>
		</comp>
	</station>
	<station code="VSK1" name="VSK1" netid="HI" source="ITSAK Strong Motion Network" insttype="" lat="38.4091" lon="20.564" esm:processing="automatic (Paolucci et al 2011)" esm:quality="best">
		<comp name="--.HNE" depth="0.0">
			<acc value="0.0619755984729744" flag="0"/>
			<vel value="0.0246072181697262" flag="0"/>
			<psa03 value="0.171544551484639" flag="0"/>
			<psa10 value="0.0335001967236225" flag="0"/>
			<psa30 value="0.00349209820936804" flag="0"/>
		</comp>
		<comp name="--.HNN" depth="0.0">
			<acc value="0.0756334685219999" flag="0"/>
			<vel value="0.0400968574628403" flag="0"/>
			<psa03 value="0.299945744933544" flag="0"/>
			<psa10 value="0.035669902956012" flag="0"/>
			<psa30 value="0.00376538443823948" flag="0"/>
		</comp>
		<comp name="--.HNZ" depth="0.0">
			<acc value="0.0538839469800652" flag="0"/>
			<vel value="0.0290193364661862" flag="0"/>
			<psa03 value="0.22318180553263" flag="0"/>
			<psa10 value="0.0255597544582921" flag="0"/>
			<psa30 value="0.00164267642341788" flag="0"/>
		</comp>
	</station>
