<?xml version="1.0" encoding="UTF-8" standalone="yes"?>
<!DOCTYPE earthquake SYSTEM "stationlist.dtd">
<stationlist created="" xmlns="ch.ethz.sed.shakemap.usgs.xml">
  <station code="AGRP" name="AGRP" netid="CL" source="RESIF" insttype="30" lat="38.3959" lon="21.7228">
    <comp name="00.HHE">
      <acc value="0.0249703874" flag="0"/>
      <vel value="0.0086537340" flag="0"/>
      <psa03 value="0.0325416256" flag="0"/>
      <psa10 value="0.0124329569" flag="0"/>
      <psa30 value="0.0019348182" flag="0"/>
    </comp>
    <comp name="00.HHN">
      <acc value="0.0161750089" flag="0"/>
      <vel value="0.0110329688" flag="0"/>
      <psa03 value="0.0402846303" flag="0"/>
      <psa10 value="0.0195029085" flag="0"/>
      <psa30 value="0.0023263633" flag="0"/>
    </comp>
    <comp name="00.HHZ">
      <acc value="0.0099093473" flag="0"/>
      <vel value="0.0044425510" flag="0"/>
      <psa03 value="0.0244787934" flag="0"/>
      <psa10 value="0.0102037189" flag="0"/>
      <psa30 value="0.0014928063" flag="0"/>
    </comp>
  </station>
  <station code="MALA" name="MALA" netid="CL" source="RESIF" insttype="30" lat="38.3935" lon="21.8726">
    <comp name="00.HH2">
      <acc value="0.0131673637" flag="0"/>
      <vel value="0.0099270235" flag="0"/>
      <psa03 value="0.0312084333" flag="0"/>
      <psa10 value="0.0099835826" flag="0"/>
      <psa30 value="0.0026428037" flag="0"/>
    </comp>
    <comp name="00.HH3">
      <acc value="0.0116793079" flag="0"/>
      <vel value="0.0109881400" flag="0"/>
      <psa03 value="0.0394982155" flag="0"/>
      <psa10 value="0.0136924226" flag="0"/>
      <psa30 value="0.0079344224" flag="0"/>
    </comp>
    <comp name="00.HHZ">
      <acc value="0.0065272101" flag="0"/>
      <vel value="0.0058745836" flag="0"/>
      <psa03 value="0.0120244172" flag="0"/>
      <psa10 value="0.0072341345" flag="0"/>
      <psa30 value="0.0025048418" flag="0"/>
    </comp>
  </station>
  <station code="MG00" name="MG00" netid="CL" source="RESIF" insttype="40" lat="38.4145" lon="21.9467">
    <comp name="00.HHE">
      <acc value="0.0227460915" flag="0"/>
      <vel value="0.0164061125" flag="0"/>
      <psa03 value="0.1009735633" flag="0"/>
      <psa10 value="0.0089847349" flag="0"/>
      <psa30 value="0.0028889065" flag="0"/>
    </comp>
    <comp name="00.HHN">
      <acc value="0.0236226683" flag="0"/>
      <vel value="0.0139824656" flag="0"/>
      <psa03 value="0.0816154520" flag="0"/>
      <psa10 value="0.0169469960" flag="0"/>
      <psa30 value="0.0030767950" flag="0"/>
    </comp>
    <comp name="00.HHZ">
      <acc value="0.0156937567" flag="0"/>
      <vel value="0.0064477642" flag="0"/>
      <psa03 value="0.0233347253" flag="0"/>
      <psa10 value="0.0077939348" flag="0"/>
      <psa30 value="0.0008462702" flag="0"/>
    </comp>
  </station>
  <station code="MG02" name="MG02" netid="CL" source="RESIF" insttype="40" lat="38.415" lon="21.947">
    <comp name="02.HHE">
      <acc value="0.0197919932" flag="0"/>
      <vel value="0.0174386941" flag="0"/>
      <psa03 value="0.0805426611" flag="0"/>
      <psa10 value="0.0091307870" flag="0"/>
      <psa30 value="0.0029485300" flag="0"/>
    </comp>
    <comp name="02.HHN">
      <acc value="0.0260365779" flag="0"/>
      <vel value="0.0182057698" flag="0"/>
      <psa03 value="0.1016369871" flag="0"/>
      <psa10 value="0.0200701899" flag="0"/>
      <psa30 value="0.0032378873" flag="0"/>
    </comp>
    <comp name="02.HHZ">
      <acc value="0.0118072533" flag="0"/>
      <vel value="0.0056885364" flag="0"/>
      <psa03 value="0.0325639756" flag="0"/>
      <psa10 value="0.0087807500" flag="0"/>
      <psa30 value="0.0008453901" flag="0"/>
    </comp>
  </station>
  <station code="MG03" name="MG03" netid="CL" source="RESIF" insttype="40" lat="38.4141" lon="21.946">
    <comp name="03.HHE">
      <acc value="0.0144766553" flag="0"/>
      <vel value="0.0109493921" flag="0"/>
      <psa03 value="0.0385797464" flag="0"/>
      <psa10 value="0.0076833831" flag="0"/>
      <psa30 value="0.0032750911" flag="0"/>
    </comp>
    <comp name="03.HHN">
      <acc value="0.0094221510" flag="0"/>
      <vel value="0.0056550880" flag="0"/>
      <psa03 value="0.0314018425" flag="0"/>
      <psa10 value="0.0062281341" flag="0"/>
      <psa30 value="0.0012885067" flag="0"/>
    </comp>
    <comp name="03.HHZ">
      <acc value="0.0097784659" flag="0"/>
      <vel value="0.0038655060" flag="0"/>
      <psa03 value="0.0188608825" flag="0"/>
      <psa10 value="0.0054884074" flag="0"/>
      <psa30 value="0.0008084931" flag="0"/>
    </comp>
  </station>
  <station code="MG04" name="MG04" netid="CL" source="RESIF" insttype="40" lat="38.4142" lon="21.9481">
    <comp name="04.HHE">
      <acc value="0.0206932238" flag="0"/>
      <vel value="0.0113941447" flag="0"/>
      <psa03 value="0.0689903462" flag="0"/>
      <psa10 value="0.0088295238" flag="0"/>
      <psa30 value="0.0032404553" flag="0"/>
    </comp>
    <comp name="04.HHN">
      <acc value="0.0196002299" flag="0"/>
      <vel value="0.0104452520" flag="0"/>
      <psa03 value="0.0690331394" flag="0"/>
      <psa10 value="0.0135971241" flag="0"/>
      <psa30 value="0.0026313366" flag="0"/>
    </comp>
    <comp name="04.HHZ">
      <acc value="0.0081292258" flag="0"/>
      <vel value="0.0046209008" flag="0"/>
      <psa03 value="0.0207967911" flag="0"/>
      <psa10 value="0.0074249172" flag="0"/>
      <psa30 value="0.0009071494" flag="0"/>
    </comp>
  </station>
  <station code="MG05" name="MG05" netid="CL" source="RESIF" insttype="30" lat="38.4155" lon="21.9458">
    <comp name="05.HHE">
      <acc value="0.0411825175" flag="0"/>
      <vel value="0.0283852746" flag="0"/>
      <psa03 value="0.1357290196" flag="0"/>
      <psa10 value="0.0250304466" flag="0"/>
      <psa30 value="0.0032472733" flag="0"/>
    </comp>
    <comp name="05.HHN">
      <acc value="0.0363741100" flag="0"/>
      <vel value="0.0293215911" flag="0"/>
      <psa03 value="0.1182221078" flag="0"/>
      <psa10 value="0.0385115827" flag="0"/>
      <psa30 value="0.0071804394" flag="0"/>
    </comp>
    <comp name="05.HHZ">
      <acc value="0.0297962855" flag="0"/>
      <vel value="0.0137902041" flag="0"/>
      <psa03 value="0.1204352758" flag="0"/>
      <psa10 value="0.0201373589" flag="0"/>
      <psa30 value="0.0015706380" flag="0"/>
    </comp>
  </station>
  <station code="MG06" name="MG06" netid="CL" source="RESIF" insttype="40" lat="38.4129" lon="21.9462">
    <comp name="06.HHE">
      <acc value="0.0129939725" flag="0"/>
      <vel value="0.0082459499" flag="0"/>
      <psa03 value="0.0462234405" flag="0"/>
      <psa10 value="0.0103588475" flag="0"/>
      <psa30 value="0.0026074480" flag="0"/>
    </comp>
    <comp name="06.HHN">
      <acc value="0.0106296117" flag="0"/>
      <vel value="0.0076148173" flag="0"/>
      <psa03 value="0.0222470936" flag="0"/>
      <psa10 value="0.0067251570" flag="0"/>
      <psa30 value="0.0031930685" flag="0"/>
    </comp>
    <comp name="06.HHZ">
      <acc value="0.0051607819" flag="0"/>
      <vel value="0.0029473243" flag="0"/>
      <psa03 value="0.0134026376" flag="0"/>
      <psa10 value="0.0045056169" flag="0"/>
      <psa30 value="0.0008218372" flag="0"/>
    </comp>
  </station>
  <station code="MG07" name="MG07" netid="CL" source="RESIF" insttype="40" lat="38.4155" lon="21.9488">
    <comp name="07.HHE">
      <acc value="0.0190841660" flag="0"/>
      <vel value="0.0132330196" flag="0"/>
      <psa03 value="0.0586276486" flag="0"/>
      <psa10 value="0.0145485166" flag="0"/>
      <psa30 value="0.0029920291" flag="0"/>
    </comp>
    <comp name="07.HHN">
      <acc value="0.0217259807" flag="0"/>
      <vel value="0.0147004227" flag="0"/>
      <psa03 value="0.0527718315" flag="0"/>
      <psa10 value="0.0225326455" flag="0"/>
      <psa30 value="0.0033164990" flag="0"/>
    </comp>
    <comp name="07.HHZ">
      <acc value="0.0111898109" flag="0"/>
      <vel value="0.0061987921" flag="0"/>
      <psa03 value="0.0450543507" flag="0"/>
      <psa10 value="0.0113674422" flag="0"/>
      <psa30 value="0.0008934882" flag="0"/>
    </comp>
  </station>
  <station code="ROD3" name="ROD3" netid="CL" source="RESIF" insttype="30" lat="38.3081" lon="21.892">
    <comp name="00.HHE">
      <acc value="0.0499787521" flag="0"/>
      <vel value="0.0270463767" flag="0"/>
      <psa03 value="0.1918128216" flag="0"/>
      <psa10 value="0.0136777811" flag="0"/>
      <psa30 value="0.0020467269" flag="0"/>
    </comp>
    <comp name="00.HHN">
      <acc value="0.0511567252" flag="0"/>
      <vel value="0.0259401597" flag="0"/>
      <psa03 value="0.1661178036" flag="0"/>
      <psa10 value="0.0167026761" flag="0"/>
      <psa30 value="0.0036456279" flag="0"/>
    </comp>
    <comp name="00.HHZ">
      <acc value="0.0286823229" flag="0"/>
      <vel value="0.0106837491" flag="0"/>
      <psa03 value="0.0403097843" flag="0"/>
      <psa10 value="0.0121452337" flag="0"/>
      <psa30 value="0.0013158913" flag="0"/>
    </comp>
  </station>
  <station code="ARG2" name="ARG2" netid="HI" source="NOA" insttype="CMG-5TD,ACCELEROMETER,GURALP" lat="38.1783" lon="20.4878">
    <comp name="--.HNE">
      <acc value="0.1976625270" flag="0"/>
      <vel value="0.0560594280" flag="0"/>
      <psa03 value="0.2342875738" flag="0"/>
      <psa10 value="0.0593503968" flag="0"/>
      <psa30 value="0.0049680640" flag="0"/>
    </comp>
    <comp name="--.HNN">
      <acc value="0.1686121190" flag="0"/>
      <vel value="0.0433388321" flag="0"/>
      <psa03 value="0.1492874665" flag="0"/>
      <psa10 value="0.0563319602" flag="0"/>
      <psa30 value="0.0043007646" flag="0"/>
    </comp>
    <comp name="--.HNZ">
      <acc value="0.0879891899" flag="0"/>
      <vel value="0.0270726110" flag="0"/>
      <psa03 value="0.1899473474" flag="0"/>
      <psa10 value="0.0256129097" flag="0"/>
      <psa30 value="0.0025688811" flag="0"/>
    </comp>
  </station>
  <station code="KRI1" name="KRI1" netid="HI" source="NOA" insttype="CMG-5TD,ACCELEROMETER,GURALP" lat="37.6621" lon="20.8172">
    <comp name="--.HNE">
      <acc value="0.3058184835" flag="0"/>
      <vel value="0.1449263280" flag="0"/>
      <psa03 value="0.6267512662" flag="0"/>
      <psa10 value="0.1241642044" flag="0"/>
      <psa30 value="0.0086361305" flag="0"/>
    </comp>
    <comp name="--.HNN">
      <acc value="0.4810704386" flag="0"/>
      <vel value="0.3175352398" flag="0"/>
      <psa03 value="1.2756463798" flag="0"/>
      <psa10 value="0.2472033296" flag="0"/>
      <psa30 value="0.0254884120" flag="0"/>
    </comp>
    <comp name="--.HNZ">
      <acc value="0.2239973608" flag="0"/>
      <vel value="0.0858362859" flag="0"/>
      <psa03 value="0.2608475322" flag="0"/>
      <psa10 value="0.0607603409" flag="0"/>
      <psa30 value="0.0095472680" flag="0"/>
    </comp>
  </station>
  <station code="ITM" name="ITM" netid="HL" source="NOA" insttype="DR24" lat="37.1787" lon="21.9252">
    <comp name="--.HHE">
      <acc value="0.0072497673" flag="0"/>
      <vel value="0.0081562308" flag="0"/>
      <psa03 value="0.0179993661" flag="0"/>
      <psa10 value="0.0075744856" flag="0"/>
      <psa30 value="0.0021631409" flag="0"/>
    </comp>
    <comp name="--.HHN">
      <acc value="0.0109682629" flag="0"/>
      <vel value="0.0078474018" flag="0"/>
      <psa03 value="0.0250197171" flag="0"/>
      <psa10 value="0.0123989566" flag="0"/>
      <psa30 value="0.0024962460" flag="0"/>
    </comp>
    <comp name="--.HHZ">
      <acc value="0.0045114876" flag="0"/>
      <vel value="0.0057136347" flag="0"/>
      <psa03 value="0.0091175029" flag="0"/>
      <psa10 value="0.0085343647" flag="0"/>
      <psa30 value="0.0023272582" flag="0"/>
    </comp>
  </station>
  <station code="KLV" name="KLV" netid="HL" source="NOA" insttype="120" lat="38.0435" lon="22.1504">
    <comp name="--.HHE">
      <acc value="0.0036904189" flag="0"/>
      <vel value="0.0029965121" flag="0"/>
      <psa03 value="0.0076622120" flag="0"/>
      <psa10 value="0.0048694749" flag="0"/>
      <psa30 value="0.0007496912" flag="0"/>
    </comp>
    <comp name="--.HHN">
      <acc value="0.0036005483" flag="0"/>
      <vel value="0.0044054327" flag="0"/>
      <psa03 value="0.0084330601" flag="0"/>
      <psa10 value="0.0077566555" flag="0"/>
      <psa30 value="0.0010201707" flag="0"/>
    </comp>
    <comp name="--.HHZ">
      <acc value="0.0037215495" flag="0"/>
      <vel value="0.0035763646" flag="0"/>
      <psa03 value="0.0097787210" flag="0"/>
      <psa10 value="0.0068665565" flag="0"/>
      <psa30 value="0.0006790853" flag="0"/>
    </comp>
  </station>
  <station code="LXRA" name="LXRA" netid="HL" source="NOA" insttype="CMG-5" lat="38.2001" lon="20.4372">
    <comp name="00.HNE">
      <acc value="0.1672961717" flag="0"/>
      <vel value="0.0899978329" flag="0"/>
      <psa03 value="0.3218117299" flag="0"/>
      <psa10 value="0.0819104214" flag="0"/>
      <psa30 value="0.0193200959" flag="0"/>
    </comp>
    <comp name="00.HNN">
      <acc value="0.1648342098" flag="0"/>
      <vel value="0.1133263179" flag="0"/>
      <psa03 value="0.3436906909" flag="0"/>
      <psa10 value="0.1246228481" flag="0"/>
      <psa30 value="0.0194202171" flag="0"/>
    </comp>
    <comp name="00.HNZ">
      <acc value="0.1461166909" flag="0"/>
      <vel value="0.0526940652" flag="0"/>
      <psa03 value="0.1674936608" flag="0"/>
      <psa10 value="0.0551599325" flag="0"/>
      <psa30 value="0.0077394206" flag="0"/>
    </comp>
  </station>
  <station code="VLS" name="VLS" netid="HL" source="NOA" insttype="120P," lat="38.1768" lon="20.5886">
    <comp name="--.HHE">
      <acc value="0.2268557509" flag="0"/>
      <vel value="0.0724947288" flag="0"/>
      <psa03 value="0.3592630253" flag="0"/>
      <psa10 value="0.0390791991" flag="0"/>
      <psa30 value="0.0033227432" flag="0"/>
    </comp>
    <comp name="--.HHN">
      <acc value="0.1395301310" flag="0"/>
      <vel value="0.0338039346" flag="0"/>
      <psa03 value="0.2525546330" flag="0"/>
      <psa10 value="0.0217108552" flag="0"/>
      <psa30 value="0.0036296206" flag="0"/>
    </comp>
    <comp name="--.HHZ">
      <acc value="0.0839590729" flag="0"/>
      <vel value="0.0333451476" flag="0"/>
      <psa03 value="0.1712141198" flag="0"/>
      <psa10 value="0.0147900188" flag="0"/>
      <psa30 value="0.0031684315" flag="0"/>
    </comp>
  </station>
  <station code="AMT" name="AMT" netid="HP" source="NOA" insttype="CMG-3T," lat="37.5324" lon="21.7089">
    <comp name="00.HHE">
      <acc value="0.0359815400" flag="0"/>
      <vel value="0.0203239236" flag="0"/>
      <psa03 value="0.0677324780" flag="0"/>
      <psa10 value="0.0480310558" flag="0"/>
      <psa30 value="0.0020304803" flag="0"/>
    </comp>
    <comp name="00.HHN">
      <acc value="0.0359889603" flag="0"/>
      <vel value="0.0243678472" flag="0"/>
      <psa03 value="0.0896120706" flag="0"/>
      <psa10 value="0.0344974332" flag="0"/>
      <psa30 value="0.0031673569" flag="0"/>
    </comp>
    <comp name="00.HHZ">
      <acc value="0.0267243381" flag="0"/>
      <vel value="0.0123161720" flag="0"/>
      <psa03 value="0.0600266338" flag="0"/>
      <psa10 value="0.0204087685" flag="0"/>
      <psa30 value="0.0018356606" flag="0"/>
    </comp>
  </station>
  <station code="AXS" name="AXS" netid="HP" source="NOA" insttype="40," lat="38.1962" lon="21.3763">
    <comp name="--.HHE">
      <acc value="0.0263347723" flag="0"/>
      <vel value="0.0111429582" flag="0"/>
      <psa03 value="0.0238187108" flag="0"/>
      <psa10 value="0.0130486873" flag="0"/>
      <psa30 value="0.0013279252" flag="0"/>
    </comp>
    <comp name="--.HHE">
      <acc value="0.0263347723" flag="0"/>
      <vel value="0.0111429582" flag="0"/>
      <psa03 value="0.0238187108" flag="0"/>
      <psa10 value="0.0130486873" flag="0"/>
      <psa30 value="0.0013279252" flag="0"/>
    </comp>
    <comp name="--.HHN">
      <acc value="0.0213336526" flag="0"/>
      <vel value="0.0161273414" flag="0"/>
      <psa03 value="0.0500690554" flag="0"/>
      <psa10 value="0.0161913751" flag="0"/>
      <psa30 value="0.0026999135" flag="0"/>
    </comp>
    <comp name="--.HHN">
      <acc value="0.0213336526" flag="0"/>
      <vel value="0.0161273414" flag="0"/>
      <psa03 value="0.0500690554" flag="0"/>
      <psa10 value="0.0161913751" flag="0"/>
      <psa30 value="0.0026999135" flag="0"/>
    </comp>
    <comp name="--.HHZ">
      <acc value="0.0127586390" flag="0"/>
      <vel value="0.0078208082" flag="0"/>
      <psa03 value="0.0232346189" flag="0"/>
      <psa10 value="0.0124367188" flag="0"/>
      <psa30 value="0.0007428463" flag="0"/>
    </comp>
    <comp name="--.HHZ">
      <acc value="0.0127586390" flag="0"/>
      <vel value="0.0078208082" flag="0"/>
      <psa03 value="0.0232346189" flag="0"/>
      <psa10 value="0.0124367188" flag="0"/>
      <psa30 value="0.0007428463" flag="0"/>
    </comp>
  </station>
  <station code="DRO" name="DRO" netid="HP" source="NOA" insttype="120P," lat="37.952" lon="21.71">
    <comp name="--.HHE">
      <acc value="0.0316765260" flag="0"/>
      <vel value="0.0207511886" flag="0"/>
      <psa03 value="0.1032227086" flag="0"/>
      <psa10 value="0.0226187902" flag="0"/>
      <psa30 value="0.0019396311" flag="0"/>
    </comp>
    <comp name="--.HHN">
      <acc value="0.0322618668" flag="0"/>
      <vel value="0.0204751848" flag="0"/>
      <psa03 value="0.0777546191" flag="0"/>
      <psa10 value="0.0187569398" flag="0"/>
      <psa30 value="0.0018056687" flag="0"/>
    </comp>
  </station>
  <station code="EFP" name="EFP" netid="HP" source="NOA" insttype="40," lat="38.4269" lon="21.9058">
    <comp name="--.HHE">
      <acc value="0.0132125438" flag="0"/>
      <vel value="0.0090589138" flag="0"/>
      <psa03 value="0.0233709725" flag="0"/>
      <psa10 value="0.0071964619" flag="0"/>
      <psa30 value="0.0019626463" flag="0"/>
    </comp>
    <comp name="--.HHN">
      <acc value="0.0124320911" flag="0"/>
      <vel value="0.0120041419" flag="0"/>
      <psa03 value="0.0218454097" flag="0"/>
      <psa10 value="0.0141868950" flag="0"/>
      <psa30 value="0.0037508419" flag="0"/>
    </comp>
    <comp name="--.HHZ">
      <acc value="0.0059079022" flag="0"/>
      <vel value="0.0042612164" flag="0"/>
      <psa03 value="0.0225121369" flag="0"/>
      <psa10 value="0.0056732069" flag="0"/>
      <psa30 value="0.0009189069" flag="0"/>
    </comp>
  </station>
  <station code="FSK" name="FSK" netid="HP" source="NOA" insttype="40," lat="38.4593" lon="20.5623">
    <comp name="--.HHE">
      <acc value="0.1149782262" flag="0"/>
      <vel value="0.0299390418" flag="0"/>
      <psa03 value="0.1435497653" flag="0"/>
      <psa10 value="0.0308586905" flag="0"/>
      <psa30 value="0.0060501593" flag="0"/>
    </comp>
    <comp name="--.HHN">
      <acc value="0.0687582579" flag="0"/>
      <vel value="0.0256064737" flag="0"/>
      <psa03 value="0.1126236234" flag="0"/>
      <psa10 value="0.0327560890" flag="0"/>
      <psa30 value="0.0018943684" flag="0"/>
    </comp>
    <comp name="--.HHZ">
      <acc value="0.0512796038" flag="0"/>
      <vel value="0.0152556747" flag="0"/>
      <psa03 value="0.1212777598" flag="0"/>
      <psa10 value="0.0171653478" flag="0"/>
      <psa30 value="0.0021863127" flag="0"/>
    </comp>
  </station>
  <station code="LTHK" name="LTHK" netid="HP" source="NOA" insttype="40," lat="37.7095" lon="20.8367">
    <comp name="--.HHE">
      <acc value="0.7344514065" flag="0"/>
      <vel value="0.2246572181" flag="0"/>
      <psa03 value="0.6867600735" flag="0"/>
      <psa10 value="0.0924486659" flag="0"/>
      <psa30 value="0.0200539639" flag="0"/>
    </comp>
    <comp name="--.HHN">
      <acc value="0.5660702431" flag="0"/>
      <vel value="0.1744141274" flag="0"/>
      <psa03 value="0.8531076004" flag="0"/>
      <psa10 value="0.0889011196" flag="0"/>
