<?xml version="1.0" encoding="UTF-8" standalone="yes"?>
<!DOCTYPE earthquake SYSTEM "stationlist.dtd">
<stationlist created="" xmlns="ch.ethz.sed.shakemap.usgs.xml">
  <station code="AKDN" name="AKDN" netid="KO" insttype="CMG-5T" lat="35.2977" lon="32.9677">
    <comp name="--.HNE">
      <acc value="0.0450323663" flag="0"/>
      <vel value="0.0330534514" flag="0"/>
      <psa03 value="0.1269738219" flag="0"/>
      <psa10 value="0.0560954527" flag="0"/>
      <psa30 value="0.0080347816" flag="0"/>
    </comp>
    <comp name="--.HNN">
      <acc value="0.0433874007" flag="0"/>
      <vel value="0.0417484446" flag="0"/>
      <psa03 value="0.0949512889" flag="0"/>
      <psa10 value="0.0496865037" flag="0"/>
      <psa30 value="0.0067630862" flag="0"/>
    </comp>
    <comp name="--.HNZ">
      <acc value="0.0303567791" flag="0"/>
      <vel value="0.0263151250" flag="0"/>
      <psa03 value="0.1221503268" flag="0"/>
      <psa10 value="0.0351848675" flag="0"/>
      <psa30 value="0.0047272102" flag="0"/>
    </comp>
  </station>
  <station code="AKIN" name="AKIN" netid="KO" insttype="CMG-5T" lat="35.0157" lon="33.4662">
    <comp name="--.HNE">
      <acc value="0.0348829590" flag="0"/>
      <vel value="0.0293728335" flag="0"/>
      <psa03 value="0.1270009577" flag="0"/>
      <psa10 value="0.0424153757" flag="0"/>
      <psa30 value="0.0043970815" flag="0"/>
    </comp>
    <comp name="--.HNN">
      <acc value="0.0330344024" flag="0"/>
      <vel value="0.0443848750" flag="0"/>
      <psa03 value="0.0849520694" flag="0"/>
      <psa10 value="0.0999632835" flag="0"/>
      <psa30 value="0.0054941440" flag="0"/>
    </comp>
    <comp name="--.HNZ">
      <acc value="0.0342533615" flag="0"/>
      <vel value="0.0293036543" flag="0"/>
      <psa03 value="0.1046550691" flag="0"/>
      <psa10 value="0.0500950277" flag="0"/>
      <psa30 value="0.0029945794" flag="0"/>
    </comp>
  </station>
</stationlist>
