<?xml version="1.0" encoding="UTF-8" standalone="yes"?>
<!DOCTYPE earthquake SYSTEM "stationlist.dtd">
<stationlist created="" xmlns="ch.ethz.sed.shakemap.usgs.xml">
  <station code="KBS" name="KBS" netid="GE" insttype="" commtype="DIG" lat="78.9154" lon="11.9385">
    <comp name="00.HH1">
      <acc value="0.2192400236" flag="0"/>
      <vel value="0.0593236469" flag="0"/>
      <psa03 value="0.2157580193" flag="0"/>
      <psa10 value="0.0154773036" flag="0"/>
      <psa30 value="0.0011900239" flag="0"/>
    </comp>
    <comp name="00.HH2">
      <acc value="0.1452346201" flag="0"/>
      <vel value="0.0452123724" flag="0"/>
      <psa03 value="0.2708943638" flag="0"/>
      <psa10 value="0.0258617874" flag="0"/>
      <psa30 value="0.0012925997" flag="0"/>
    </comp>
    <comp name="00.HHZ">
      <acc value="0.0866462822" flag="0"/>
      <vel value="0.0268402388" flag="0"/>
      <psa03 value="0.2089212714" flag="0"/>
      <psa10 value="0.0219920077" flag="0"/>
      <psa30 value="0.0012274812" flag="0"/>
    </comp>
  </station>
  <station code="HSPA1" name="HSPA1" netid="NO" insttype="MBB-2" commtype="DIG" lat="77.0032" lon="15.5259">
    <comp name="--.HHN">
      <acc value="0.0274664367" flag="0"/>
      <vel value="0.0106118940" flag="0"/>
      <psa03 value="0.0574962204" flag="0"/>
      <psa10 value="0.0039337566" flag="0"/>
      <psa30 value="0.0004227298" flag="0"/>
    </comp>
    <comp name="--.HHZ">
      <acc value="0.0272214349" flag="0"/>
      <vel value="0.0077789339" flag="0"/>
      <psa03 value="0.0404028279" flag="0"/>
      <psa10 value="0.0057259434" flag="0"/>
      <psa30 value="0.0004591628" flag="0"/>
    </comp>
    <comp name="--.HHE">
      <acc value="0.0277173458" flag="0"/>
      <vel value="0.0084793984" flag="0"/>
      <psa03 value="0.0429230100" flag="0"/>
      <psa10 value="0.0069555193" flag="0"/>
      <psa30 value="0.0004944353" flag="0"/>
    </comp>
  </station>
  <station code="HSPA2" name="HSPA2" netid="NO" insttype="MBB-2" commtype="DIG" lat="77.0062" lon="15.5274">
    <comp name="--.HHE">
      <acc value="0.0345545948" flag="0"/>
      <vel value="0.0083952673" flag="0"/>
      <psa03 value="0.0351105083" flag="0"/>
      <psa10 value="0.0065084785" flag="0"/>
      <psa30 value="0.0004564518" flag="0"/>
    </comp>
    <comp name="--.HHN">
      <acc value="0.0301415033" flag="0"/>
      <vel value="0.0072960220" flag="0"/>
      <psa03 value="0.0512170261" flag="0"/>
      <psa10 value="0.0036881525" flag="0"/>
      <psa30 value="0.0004430176" flag="0"/>
    </comp>
    <comp name="--.HHZ">
      <acc value="0.0349284113" flag="0"/>
      <vel value="0.0089362842" flag="0"/>
      <psa03 value="0.0417374851" flag="0"/>
      <psa10 value="0.0056555449" flag="0"/>
      <psa30 value="0.0004539055" flag="0"/>
    </comp>
  </station>
  <station code="HSPA3" name="HSPA3" netid="NO" insttype="MBB-2" commtype="DIG" lat="77.006" lon="15.5325">
    <comp name="--.HHE">
      <acc value="0.0297396532" flag="0"/>
      <vel value="0.0094324971" flag="0"/>
      <psa03 value="0.0313771422" flag="0"/>
      <psa10 value="0.0092742590" flag="0"/>
      <psa30 value="0.0004035176" flag="0"/>
    </comp>
    <comp name="--.HHN">
      <acc value="0.0348400408" flag="0"/>
      <vel value="0.0089781946" flag="0"/>
      <psa03 value="0.0666247605" flag="0"/>
      <psa10 value="0.0045644001" flag="0"/>
      <psa30 value="0.0005808449" flag="0"/>
    </comp>
    <comp name="--.HHZ">
      <acc value="0.0390666425" flag="0"/>
      <vel value="0.0088069349" flag="0"/>
      <psa03 value="0.0394692309" flag="0"/>
      <psa10 value="0.0068240475" flag="0"/>
      <psa30 value="0.0004990393" flag="0"/>
    </comp>
  </station>
  <station code="HSPA4" name="HSPA4" netid="NO" insttype="MBB-2" commtype="DIG" lat="77.0055" lon="15.5427">
    <comp name="--.HHE">
      <acc value="0.0263348713" flag="0"/>
      <vel value="0.0098720630" flag="0"/>
      <psa03 value="0.0606820784" flag="0"/>
      <psa10 value="0.0077333398" flag="0"/>
      <psa30 value="0.0004579698" flag="0"/>
    </comp>
    <comp name="--.HHZ">
      <acc value="0.0245616001" flag="0"/>
      <vel value="0.0071479616" flag="0"/>
      <psa03 value="0.0468255436" flag="0"/>
      <psa10 value="0.0058305155" flag="0"/>
      <psa30 value="0.0003997004" flag="0"/>
    </comp>
    <comp name="--.HHN">
      <acc value="0.0260479115" flag="0"/>
      <vel value="0.0079251864" flag="0"/>
      <psa03 value="0.0555405929" flag="0"/>
      <psa10 value="0.0071949777" flag="0"/>
      <psa30 value="0.0005223629" flag="0"/>
    </comp>
  </station>
  <station code="HSPA5" name="HSPA5" netid="NO" insttype="MBB-2" commtype="DIG" lat="77.0035" lon="15.5357">
    <comp name="--.HHE">
      <acc value="0.0245548858" flag="0"/>
      <vel value="0.0080250460" flag="0"/>
      <psa03 value="0.0417106825" flag="0"/>
      <psa10 value="0.0076788186" flag="0"/>
      <psa30 value="0.0005029747" flag="0"/>
    </comp>
    <comp name="--.HHZ">
      <acc value="0.0241510596" flag="0"/>
      <vel value="0.0081090085" flag="0"/>
      <psa03 value="0.0350697142" flag="0"/>
      <psa10 value="0.0053840713" flag="0"/>
      <psa30 value="0.0004520748" flag="0"/>
    </comp>
    <comp name="--.HHN">
      <acc value="0.0229085320" flag="0"/>
      <vel value="0.0071363571" flag="0"/>
      <psa03 value="0.0623638764" flag="0"/>
      <psa10 value="0.0056523035" flag="0"/>
      <psa30 value="0.0004400917" flag="0"/>
    </comp>
  </station>
  <station code="ISF" name="ISF" netid="NS" insttype="" commtype="DIG" lat="78.0617" lon="13.6198">
    <comp name="00.HHZ">
      <acc value="1.3431734271" flag="0"/>
      <vel value="0.5921748490" flag="0"/>
      <psa03 value="2.4786026843" flag="0"/>
      <psa10 value="0.3103608421" flag="0"/>
      <psa30 value="0.0344105988" flag="0"/>
    </comp>
    <comp name="00.HHE">
      <acc value="1.3582163050" flag="0"/>
      <vel value="0.5980868006" flag="0"/>
      <psa03 value="2.1480777642" flag="0"/>
      <psa10 value="0.4121949836" flag="0"/>
      <psa30 value="0.0292562048" flag="0"/>
    </comp>
    <comp name="00.HHN">
      <acc value="1.3109589728" flag="0"/>
      <vel value="0.5116730713" flag="0"/>
      <psa03 value="2.3917473083" flag="0"/>
      <psa10 value="0.2985524474" flag="0"/>
      <psa30 value="0.0206276696" flag="0"/>
    </comp>
  </station>
  <station code="HSPB" name="HSPB" netid="PL" insttype="STS-2/N" commtype="DIG" lat="77.0019" lon="15.5332">
    <comp name="--.HHE">
      <acc value="0.0123085583" flag="0"/>
      <vel value="0.0039530233" flag="0"/>
      <psa03 value="0.0175206392" flag="0"/>
      <psa10 value="0.0044577561" flag="0"/>
      <psa30 value="0.0002963394" flag="0"/>
    </comp>
    <comp name="--.HHN">
      <acc value="0.0133646880" flag="0"/>
      <vel value="0.0049631188" flag="0"/>
      <psa03 value="0.0363896144" flag="0"/>
      <psa10 value="0.0028903289" flag="0"/>
      <psa30 value="0.0002491633" flag="0"/>
    </comp>
    <comp name="--.HHZ">
      <acc value="0.0156352349" flag="0"/>
      <vel value="0.0046273571" flag="0"/>
      <psa03 value="0.0256563286" flag="0"/>
      <psa10 value="0.0031492410" flag="0"/>
      <psa30 value="0.0002882317" flag="0"/>
    </comp>
  </station>
</stationlist>
