<?xml version="1.0" encoding="UTF-8" standalone="yes"?>
<!DOCTYPE earthquake SYSTEM "stationlist.dtd">
<stationlist created="" xmlns="ch.ethz.sed.shakemap.usgs.xml">
  <station code="ANTB" name="ANTB" netid="KO" insttype="CMG-3T" lat="36.8998" lon="30.6538">
    <comp name="--.HHE">
      <acc value="0.0188081723" flag="0"/>
      <vel value="0.0175707689" flag="0"/>
      <psa03 value="0.0264238249" flag="0"/>
      <psa10 value="0.0315796779" flag="0"/>
      <psa30 value="0.0018027044" flag="0"/>
    </comp>
    <comp name="--.HHN">
      <acc value="0.0179555802" flag="0"/>
      <vel value="0.0114469896" flag="0"/>
      <psa03 value="0.0335105878" flag="0"/>
      <psa10 value="0.0252074948" flag="0"/>
      <psa30 value="0.0020848562" flag="0"/>
    </comp>
    <comp name="--.HHZ">
      <acc value="0.0214804324" flag="0"/>
      <vel value="0.0230876412" flag="0"/>
      <psa03 value="0.0271592118" flag="0"/>
      <psa10 value="0.0334942547" flag="0"/>
      <psa30 value="0.0030242214" flag="0"/>
    </comp>
  </station>
  <station code="APMY" name="APMY" netid="KO" insttype="CMG-6T" lat="37.4717" lon="29.3018">
    <comp name="--.HHE">
      <acc value="0.0407509743" flag="0"/>
      <vel value="0.0167589148" flag="0"/>
      <psa03 value="0.0500026864" flag="0"/>
      <psa10 value="0.0197767233" flag="0"/>
      <psa30 value="0.0018013138" flag="0"/>
    </comp>
    <comp name="--.HHN">
      <acc value="0.0381225380" flag="0"/>
      <vel value="0.0245716032" flag="0"/>
      <psa03 value="0.0539357077" flag="0"/>
      <psa10 value="0.0137735334" flag="0"/>
      <psa30 value="0.0013645300" flag="0"/>
    </comp>
    <comp name="--.HHZ">
      <acc value="0.0217223585" flag="0"/>
      <vel value="0.0082753462" flag="0"/>
      <psa03 value="0.0353626231" flag="0"/>
      <psa10 value="0.0100939623" flag="0"/>
      <psa30 value="0.0007739737" flag="0"/>
    </comp>
  </station>
  <station code="BASM" name="BASM" netid="KO" insttype="CMG-5T" lat="37.9194" lon="30.035">
    <comp name="--.HNE">
      <acc value="0.3020265321" flag="0"/>
      <vel value="0.1483968888" flag="0"/>
      <psa03 value="0.6783954814" flag="0"/>
      <psa10 value="0.2031868600" flag="0"/>
      <psa30 value="0.0085868443" flag="0"/>
    </comp>
    <comp name="--.HNN">
      <acc value="0.2670478186" flag="0"/>
      <vel value="0.0990336746" flag="0"/>
      <psa03 value="0.5379105397" flag="0"/>
      <psa10 value="0.1187206662" flag="0"/>
      <psa30 value="0.0080051363" flag="0"/>
    </comp>
    <comp name="--.HNZ">
      <acc value="0.1678750514" flag="0"/>
      <vel value="0.0733004847" flag="0"/>
      <psa03 value="0.3229556972" flag="0"/>
      <psa10 value="0.0949368598" flag="0"/>
      <psa30 value="0.0057020171" flag="0"/>
    </comp>
  </station>
  <station code="BCK" name="BCK" netid="KO" insttype="CMG-3T" lat="37.4602" lon="30.5885">
    <comp name="--.HHE">
      <acc value="0.0626698978" flag="0"/>
      <vel value="0.0269840900" flag="0"/>
      <psa03 value="0.1803831469" flag="0"/>
      <psa10 value="0.0235249232" flag="0"/>
      <psa30 value="0.0033322596" flag="0"/>
    </comp>
    <comp name="--.HHN">
      <acc value="0.0921292319" flag="0"/>
      <vel value="0.0299142784" flag="0"/>
      <psa03 value="0.1951337173" flag="0"/>
      <psa10 value="0.0180465074" flag="0"/>
      <psa30 value="0.0012591836" flag="0"/>
    </comp>
    <comp name="--.HHZ">
      <acc value="0.0395167684" flag="0"/>
      <vel value="0.0156325109" flag="0"/>
      <psa03 value="0.0706956569" flag="0"/>
      <psa10 value="0.0131323105" flag="0"/>
      <psa30 value="0.0020034054" flag="0"/>
    </comp>
  </station>
  <station code="DALY" name="DALY" netid="KO" insttype="CMG-3T" lat="36.8162" lon="28.6532">
    <comp name="--.HHE">
      <acc value="0.0100132544" flag="0"/>
      <vel value="0.0101780126" flag="0"/>
      <psa03 value="0.0100054411" flag="0"/>
      <psa10 value="0.0176915213" flag="0"/>
      <psa30 value="0.0014993747" flag="0"/>
    </comp>
    <comp name="--.HHN">
      <acc value="0.0054906936" flag="0"/>
      <vel value="0.0046245079" flag="0"/>
      <psa03 value="0.0106631593" flag="0"/>
      <psa10 value="0.0067332547" flag="0"/>
      <psa30 value="0.0009099598" flag="0"/>
    </comp>
    <comp name="--.HHZ">
      <acc value="0.0030422990" flag="0"/>
      <vel value="0.0031541275" flag="0"/>
      <psa03 value="0.0047267896" flag="0"/>
      <psa10 value="0.0047506960" flag="0"/>
      <psa30 value="0.0006632958" flag="0"/>
    </comp>
  </station>
  <station code="ELL" name="ELL" netid="KO" insttype="CMG-3T" lat="36.7483" lon="29.9085">
    <comp name="--.HHZ">
      <acc value="0.0158159053" flag="0"/>
      <vel value="0.0043158537" flag="0"/>
      <psa03 value="0.0194712193" flag="0"/>
      <psa10 value="0.0078456014" flag="0"/>
      <psa30 value="0.0005514471" flag="0"/>
    </comp>
    <comp name="--.HHN">
      <acc value="0.0240295257" flag="0"/>
      <vel value="0.0090087971" flag="0"/>
      <psa03 value="0.0284469446" flag="0"/>
      <psa10 value="0.0106285069" flag="0"/>
      <psa30 value="0.0012078638" flag="0"/>
    </comp>
    <comp name="--.HHE">
      <acc value="0.0184438830" flag="0"/>
      <vel value="0.0048761961" flag="0"/>
      <psa03 value="0.0291405590" flag="0"/>
      <psa10 value="0.0066734791" flag="0"/>
      <psa30 value="0.0014604167" flag="0"/>
    </comp>
  </station>
  <station code="FETY" name="FETY" netid="KO" insttype="CMG-3ESP" lat="36.6353" lon="29.0835">
    <comp name="--.HHE">
      <acc value="0.0072926047" flag="0"/>
      <vel value="0.0082452951" flag="0"/>
      <psa03 value="0.0134298189" flag="0"/>
      <psa10 value="0.0110549552" flag="0"/>
      <psa30 value="0.0008156485" flag="0"/>
    </comp>
    <comp name="--.HHN">
      <acc value="0.0063118028" flag="0"/>
      <vel value="0.0047420259" flag="0"/>
      <psa03 value="0.0105959842" flag="0"/>
      <psa10 value="0.0060939159" flag="0"/>
      <psa30 value="0.0005442228" flag="0"/>
    </comp>
    <comp name="--.HHZ">
      <acc value="0.0033427890" flag="0"/>
      <vel value="0.0030719428" flag="0"/>
      <psa03 value="0.0073473445" flag="0"/>
      <psa10 value="0.0043366019" flag="0"/>
      <psa30 value="0.0005111959" flag="0"/>
    </comp>
  </station>
  <station code="KULA" name="KULA" netid="KO" insttype="CMG-3T" lat="38.5145" lon="28.6607">
    <comp name="--.HHN">
      <acc value="0.0059534278" flag="0"/>
      <vel value="0.0039647626" flag="0"/>
      <psa03 value="0.0200321824" flag="0"/>
      <psa10 value="0.0050328601" flag="0"/>
      <psa30 value="0.0003828281" flag="0"/>
    </comp>
    <comp name="--.HHE">
      <acc value="0.0045058651" flag="0"/>
      <vel value="0.0033844027" flag="0"/>
      <psa03 value="0.0120957280" flag="0"/>
      <psa10 value="0.0057667359" flag="0"/>
      <psa30 value="0.0005224923" flag="0"/>
    </comp>
    <comp name="--.HHZ">
      <acc value="0.0051377773" flag="0"/>
      <vel value="0.0045922658" flag="0"/>
      <psa03 value="0.0151540367" flag="0"/>
      <psa10 value="0.0050531138" flag="0"/>
      <psa30 value="0.0006390962" flag="0"/>
    </comp>
  </station>
  <station code="NAZL" name="NAZL" netid="KO" insttype="CMG-5T" lat="37.9641" lon="28.2922">
    <comp name="--.HNE">
      <acc value="0.0083450118" flag="0"/>
      <vel value="0.0068430041" flag="0"/>
      <psa03 value="0.0236312642" flag="0"/>
      <psa10 value="0.0144084380" flag="0"/>
      <psa30 value="0.0006386089" flag="0"/>
    </comp>
    <comp name="--.HNN">
      <acc value="0.0077396497" flag="0"/>
      <vel value="0.0057889092" flag="0"/>
      <psa03 value="0.0270195015" flag="0"/>
      <psa10 value="0.0069516787" flag="0"/>
      <psa30 value="0.0005002940" flag="0"/>
    </comp>
    <comp name="--.HNZ">
      <acc value="0.0042294193" flag="0"/>
      <vel value="0.0032917601" flag="0"/>
      <psa03 value="0.0157391702" flag="0"/>
      <psa10 value="0.0067735849" flag="0"/>
      <psa30 value="0.0006542709" flag="0"/>
    </comp>
  </station>
  <station code="SDAG" name="SDAG" netid="KO" insttype="CMG-6T" lat="38.4396" lon="30.9175">
    <comp name="--.HHE">
      <acc value="0.0100047065" flag="0"/>
      <vel value="0.0080349711" flag="0"/>
      <psa03 value="0.0232010008" flag="0"/>
      <psa10 value="0.0147543457" flag="0"/>
      <psa30 value="0.0008187554" flag="0"/>
    </comp>
    <comp name="--.HHZ">
      <acc value="0.0057020483" flag="0"/>
      <vel value="0.0046200729" flag="0"/>
      <psa03 value="0.0158572737" flag="0"/>
      <psa10 value="0.0097978806" flag="0"/>
      <psa30 value="0.0008857340" flag="0"/>
    </comp>
    <comp name="--.HHN">
      <acc value="0.0093469876" flag="0"/>
      <vel value="0.0082956581" flag="0"/>
      <psa03 value="0.0234021989" flag="0"/>
      <psa10 value="0.0088168924" flag="0"/>
      <psa30 value="0.0009642576" flag="0"/>
    </comp>
  </station>
  <station code="SHUT" name="SHUT" netid="KO" insttype="CMG-3T" lat="38.553" lon="30.551">
    <comp name="--.HHN">
      <acc value="0.0143205451" flag="0"/>
      <vel value="0.0114451458" flag="0"/>
      <psa03 value="0.0355304377" flag="0"/>
      <psa10 value="0.0208783079" flag="0"/>
      <psa30 value="0.0009741441" flag="0"/>
    </comp>
    <comp name="--.HHE">
      <acc value="0.0173189200" flag="0"/>
      <vel value="0.0131376328" flag="0"/>
      <psa03 value="0.0338313984" flag="0"/>
      <psa10 value="0.0185346997" flag="0"/>
      <psa30 value="0.0012362278" flag="0"/>
    </comp>
    <comp name="--.HHZ">
      <acc value="0.0090903597" flag="0"/>
      <vel value="0.0064782832" flag="0"/>
      <psa03 value="0.0174313028" flag="0"/>
      <psa10 value="0.0078483376" flag="0"/>
      <psa30 value="0.0008747993" flag="0"/>
    </comp>
  </station>
</stationlist>
