<?xml version="1.0" encoding="UTF-8" standalone="yes"?>
<!DOCTYPE earthquake SYSTEM "stationlist.dtd">
<stationlist created="" xmlns="ch.ethz.sed.shakemap.usgs.xml">
  <station code="ANTB" name="ANTB" netid="KO" insttype="CMG-3T" lat="36.8998" lon="30.6538">
    <comp name="--.HHZ">
      <acc value="0.0214804322" flag="0"/>
      <vel value="0.0230876407" flag="0"/>
      <psa03 value="0.0271592118" flag="0"/>
      <psa10 value="0.0334942547" flag="0"/>
      <psa30 value="0.0030242268" flag="0"/>
    </comp>
    <comp name="--.HHN">
      <acc value="0.0179555805" flag="0"/>
      <vel value="0.0114469884" flag="0"/>
      <psa03 value="0.0335105878" flag="0"/>
      <psa10 value="0.0252074948" flag="0"/>
      <psa30 value="0.0020848502" flag="0"/>
    </comp>
    <comp name="--.HHE">
      <acc value="0.0188081732" flag="0"/>
      <vel value="0.0175707712" flag="0"/>
      <psa03 value="0.0264238249" flag="0"/>
      <psa10 value="0.0315796779" flag="0"/>
      <psa30 value="0.0018027042" flag="0"/>
    </comp>
  </station>
  <station code="APMY" name="APMY" netid="KO" insttype="CMG-6T" lat="37.4717" lon="29.3018">
    <comp name="--.HHN">
      <acc value="0.0381225389" flag="0"/>
      <vel value="0.0245715980" flag="0"/>
      <psa03 value="0.0539357077" flag="0"/>
      <psa10 value="0.0137735334" flag="0"/>
      <psa30 value="0.0013645470" flag="0"/>
    </comp>
    <comp name="--.HHZ">
      <acc value="0.0217223589" flag="0"/>
      <vel value="0.0082753462" flag="0"/>
      <psa03 value="0.0353626231" flag="0"/>
      <psa10 value="0.0100939623" flag="0"/>
      <psa30 value="0.0007739303" flag="0"/>
    </comp>
    <comp name="--.HHE">
      <acc value="0.0407509735" flag="0"/>
      <vel value="0.0167589140" flag="0"/>
      <psa03 value="0.0500026864" flag="0"/>
      <psa10 value="0.0197767235" flag="0"/>
      <psa30 value="0.0018012557" flag="0"/>
    </comp>
  </station>
  <station code="BASM" name="BASM" netid="KO" insttype="CMG-5T" lat="37.9194" lon="30.035">
    <comp name="--.HNN">
      <acc value="0.2670478206" flag="0"/>
      <vel value="0.0990336756" flag="0"/>
      <psa03 value="0.5379105397" flag="0"/>
      <psa10 value="0.1187206662" flag="0"/>
      <psa30 value="0.0080052487" flag="0"/>
    </comp>
    <comp name="--.HNZ">
      <acc value="0.1678750418" flag="0"/>
      <vel value="0.0733004849" flag="0"/>
      <psa03 value="0.3229556972" flag="0"/>
      <psa10 value="0.0949368622" flag="0"/>
      <psa30 value="0.0057019833" flag="0"/>
    </comp>
    <comp name="--.HNE">
      <acc value="0.3020265434" flag="0"/>
      <vel value="0.1483968885" flag="0"/>
      <psa03 value="0.6783954814" flag="0"/>
      <psa10 value="0.2031868597" flag="0"/>
      <psa30 value="0.0085870762" flag="0"/>
    </comp>
  </station>
  <station code="BCK" name="BCK" netid="KO" insttype="CMG-3T" lat="37.4602" lon="30.5885">
    <comp name="--.HHE">
      <acc value="0.0626698980" flag="0"/>
      <vel value="0.0269840889" flag="0"/>
      <psa03 value="0.1803831469" flag="0"/>
      <psa10 value="0.0235249231" flag="0"/>
      <psa30 value="0.0033322649" flag="0"/>
    </comp>
    <comp name="--.HHN">
      <acc value="0.0921292320" flag="0"/>
      <vel value="0.0299142773" flag="0"/>
      <psa03 value="0.1951337173" flag="0"/>
      <psa10 value="0.0180465084" flag="0"/>
      <psa30 value="0.0012592045" flag="0"/>
    </comp>
    <comp name="--.HHZ">
      <acc value="0.0395167682" flag="0"/>
      <vel value="0.0156325110" flag="0"/>
      <psa03 value="0.0706956569" flag="0"/>
      <psa10 value="0.0131323105" flag="0"/>
      <psa30 value="0.0020034044" flag="0"/>
    </comp>
  </station>
  <station code="CAME" name="CAME" netid="KO" insttype="CMG-5T" lat="36.9435" lon="29.3023">
    <comp name="--.HNN">
      <acc value="0.0085339015" flag="0"/>
      <vel value="0.0057859618" flag="0"/>
      <psa03 value="0.0294644599" flag="0"/>
      <psa10 value="0.0090896196" flag="0"/>
      <psa30 value="0.0007183037" flag="0"/>
    </comp>
    <comp name="--.HNZ">
      <acc value="0.0071396840" flag="0"/>
      <vel value="0.0046449074" flag="0"/>
      <psa03 value="0.0169292568" flag="0"/>
      <psa10 value="0.0078778631" flag="0"/>
      <psa30 value="0.0006372713" flag="0"/>
    </comp>
    <comp name="--.HNE">
      <acc value="0.0130412444" flag="0"/>
      <vel value="0.0081422823" flag="0"/>
      <psa03 value="0.0372159592" flag="0"/>
      <psa10 value="0.0103105920" flag="0"/>
      <psa30 value="0.0006263254" flag="0"/>
    </comp>
  </station>
  <station code="ELL" name="ELL" netid="KO" insttype="CMG-3T" lat="36.7483" lon="29.9085">
    <comp name="--.HHE">
      <acc value="0.0184438837" flag="0"/>
      <vel value="0.0048761959" flag="0"/>
      <psa03 value="0.0291405590" flag="0"/>
      <psa10 value="0.0066734791" flag="0"/>
      <psa30 value="0.0014604145" flag="0"/>
    </comp>
    <comp name="--.HHN">
      <acc value="0.0240295261" flag="0"/>
      <vel value="0.0090087970" flag="0"/>
      <psa03 value="0.0284469446" flag="0"/>
      <psa10 value="0.0106285069" flag="0"/>
      <psa30 value="0.0012078789" flag="0"/>
    </comp>
    <comp name="--.HHZ">
      <acc value="0.0158159046" flag="0"/>
      <vel value="0.0043158534" flag="0"/>
      <psa03 value="0.0194712193" flag="0"/>
      <psa10 value="0.0078456014" flag="0"/>
      <psa30 value="0.0005516706" flag="0"/>
    </comp>
  </station>
  <station code="SDAG" name="SDAG" netid="KO" insttype="CMG-6T" lat="38.4396" lon="30.9175">
    <comp name="--.HHE">
      <acc value="0.0100047043" flag="0"/>
      <vel value="0.0080349675" flag="0"/>
      <psa03 value="0.0232010008" flag="0"/>
      <psa10 value="0.0147543457" flag="0"/>
      <psa30 value="0.0008187630" flag="0"/>
    </comp>
    <comp name="--.HHZ">
      <acc value="0.0057020496" flag="0"/>
      <vel value="0.0046200732" flag="0"/>
      <psa03 value="0.0158572737" flag="0"/>
      <psa10 value="0.0097978806" flag="0"/>
      <psa30 value="0.0008857362" flag="0"/>
    </comp>
    <comp name="--.HHN">
      <acc value="0.0093469993" flag="0"/>
      <vel value="0.0082956581" flag="0"/>
      <psa03 value="0.0234021990" flag="0"/>
      <psa10 value="0.0088168924" flag="0"/>
      <psa30 value="0.0009642411" flag="0"/>
    </comp>
  </station>
  <station code="SHUT" name="SHUT" netid="KO" insttype="CMG-3T" lat="38.553" lon="30.551">
    <comp name="--.HHE">
      <acc value="0.0173189200" flag="0"/>
      <vel value="0.0131376329" flag="0"/>
      <psa03 value="0.0338313984" flag="0"/>
      <psa10 value="0.0185346997" flag="0"/>
      <psa30 value="0.0012362172" flag="0"/>
    </comp>
    <comp name="--.HHZ">
      <acc value="0.0090903600" flag="0"/>
      <vel value="0.0064782833" flag="0"/>
      <psa03 value="0.0174313028" flag="0"/>
      <psa10 value="0.0078483376" flag="0"/>
      <psa30 value="0.0008747916" flag="0"/>
    </comp>
    <comp name="--.HHN">
      <acc value="0.0143205453" flag="0"/>
      <vel value="0.0114451456" flag="0"/>
      <psa03 value="0.0355304377" flag="0"/>
      <psa10 value="0.0208783079" flag="0"/>
      <psa30 value="0.0009741632" flag="0"/>
    </comp>
  </station>
</stationlist>
