<stationlist created="1675692137">
	<station code="ARPRA" name="ARPRA" netid="KO" source="Bogazici University Kandilli Observatory And Earthquake Research Institute (KOERI)" insttype="" lat="39.0929" lon="38.3356">
		<comp name=".HNE" depth="0.0">
			<acc value="0.00485910302468" flag="0"/>
			<vel value="0.00235490450258" flag="0"/>
			<psa03 value="0.0154319545829" flag="0"/>
			<psa10 value="0.00179271250841" flag="0"/>
			<psa30 value="0.000389515673293" flag="0"/>
		</comp>
		<comp name=".HNN" depth="0.0">
			<acc value="0.00435206005102" flag="0"/>
			<vel value="0.00217434361081" flag="0"/>
			<psa03 value="0.015369516853" flag="0"/>
			<psa10 value="0.00412914541064" flag="0"/>
			<psa30 value="0.000380179195423" flag="0"/>
		</comp>
		<comp name=".HNZ" depth="0.0">
			<acc value="0.00450953195537" flag="0"/>
			<vel value="0.00110217069494" flag="0"/>
			<psa03 value="0.00627048374814" flag="0"/>
			<psa10 value="0.00164126060046" flag="0"/>
			<psa30 value="0.000289149936014" flag="0"/>
		</comp>
	</station>
</stationlist>
