<?xml version="1.0" encoding="UTF-8" standalone="yes"?>
<!DOCTYPE earthquake SYSTEM "stationlist.dtd">
<stationlist created="" xmlns="ch.ethz.sed.shakemap.usgs.xml">
  <station code="SARI" name="SARI" netid="KO" insttype="CMG-3T" lat="38.4072" lon="36.4181">
    <comp name="--.HHN">
      <acc value="0.0154068245" flag="0"/>
      <vel value="0.0063350657" flag="0"/>
      <psa03 value="0.0352341072" flag="0"/>
      <psa10 value="0.0035153866" flag="0"/>
      <psa30 value="0.0002888362" flag="0"/>
    </comp>
    <comp name="--.HHZ">
      <acc value="0.0152317370" flag="0"/>
      <vel value="0.0037117271" flag="0"/>
      <psa03 value="0.0196280116" flag="0"/>
      <psa10 value="0.0022150978" flag="0"/>
      <psa30 value="0.0002022805" flag="0"/>
    </comp>
  </station>
</stationlist>
