<stationlist created="1778069847">
	<station code="KRK1" name="KRK1" netid="HI" source="ITSAK Strong Motion Network" insttype="" lat="39.618861" lon="19.9202">
		<comp name="--.HNE" depth="0.0">
			<acc value="0.071749033934476" flag="0"/>
			<vel value="0.0299309166735178" flag="0"/>
			<psa03 value="0.121027668902425" flag="0"/>
			<psa10 value="0.0235769057774983" flag="0"/>
			<psa30 value="0.00151631338229323" flag="0"/>
		</comp>
		<comp name="--.HNN" depth="0.0">
			<acc value="0.0713890140585217" flag="0"/>
			<vel value="0.0242097325592032" flag="0"/>
			<psa03 value="0.137090121078385" flag="0"/>
			<psa10 value="0.0115850995596691" flag="0"/>
			<psa30 value="0.000908714216417099" flag="0"/>
		</comp>
		<comp name="--.HNZ" depth="0.0">
			<acc value="0.0385016146088069" flag="0"/>
			<vel value="0.0127394594549023" flag="0"/>
			<psa03 value="0.102146457709514" flag="0"/>
			<psa10 value="0.00585496515806704" flag="0"/>
			<psa30 value="0.000476951922550777" flag="0"/>
		</comp>
	</station>
	<station code="LMS2" name="LMS2" netid="HI" source="ITSAK Strong Motion Network" insttype="" lat="40.834985" lon="21.141815">
		<comp name="--.HNE" depth="0.0">
			<acc value="0.0259329511051218" flag="0"/>
			<vel value="0.0134714781723053" flag="0"/>
			<psa03 value="0.0488584896271528" flag="0"/>
			<psa10 value="0.0170575188511499" flag="0"/>
			<psa30 value="0.000977617214609238" flag="0"/>
		</comp>
		<comp name="--.HNN" depth="0.0">
			<acc value="0.0270293909490781" flag="0"/>
			<vel value="0.00918787453410475" flag="0"/>
			<psa03 value="0.0590149705295005" flag="0"/>
			<psa10 value="0.00670461966174802" flag="0"/>
			<psa30 value="0.00069484646878176" flag="0"/>
		</comp>
		<comp name="--.HNZ" depth="0.0">
			<acc value="0.00974333997492643" flag="0"/>
			<vel value="0.0053714603371233" flag="0"/>
			<psa03 value="0.0243845026069581" flag="0"/>
			<psa10 value="0.00828312471124065" flag="0"/>
			<psa30 value="0.000723034058951271" flag="0"/>
		</comp>
	</station>
	<station code="JAN" name="JAN" netid="HL" source="National Observatory of Athens Seismic Network" insttype="" lat="39.65616" lon="20.84874">
		<comp name="00.HNE" depth="0.0">
			<acc value="0.0117040474063046" flag="0"/>
			<vel value="0.00805410934404937" flag="0"/>
			<psa03 value="0.0563304381324041" flag="0"/>
			<psa10 value="0.0113636256369087" flag="0"/>
			<psa30 value="0.00138924551549734" flag="0"/>
		</comp>
		<comp name="00.HNN" depth="0.0">
			<acc value="0.0125617176219522" flag="0"/>
			<vel value="0.00755751316062977" flag="0"/>
			<psa03 value="0.0326170686247201" flag="0"/>
			<psa10 value="0.00813815996179745" flag="0"/>
			<psa30 value="0.000835336997563133" flag="0"/>
		</comp>
		<comp name="00.HNZ" depth="0.0">
			<acc value="0.007677595495321" flag="0"/>
			<vel value="0.00496833358050525" flag="0"/>
			<psa03 value="0.0216104857966253" flag="0"/>
			<psa10 value="0.00627777901060971" flag="0"/>
			<psa30 value="0.000902002885424358" flag="0"/>
		</comp>
	</station>
</stationlist>
