<?xml version="1.0" encoding="UTF-8" standalone="yes"?>
<!DOCTYPE earthquake SYSTEM "stationlist.dtd">
<stationlist created="" xmlns="ch.ethz.sed.shakemap.usgs.xml">
  <station code="KBN" name="KBN" netid="AC" insttype="" lat="40.6236" lon="20.7874">
    <comp name="--.HHN">
      <acc value="0.0365507829" flag="0"/>
      <vel value="0.0253376859" flag="0"/>
      <psa03 value="0.0806516028" flag="0"/>
      <psa10 value="0.0265883516" flag="0"/>
      <psa30 value="0.0014158761" flag="0"/>
    </comp>
    <comp name="--.HHE">
      <acc value="0.0280246795" flag="0"/>
      <vel value="0.0174771626" flag="0"/>
      <psa03 value="0.0705988543" flag="0"/>
      <psa10 value="0.0153978094" flag="0"/>
      <psa30 value="0.0009781664" flag="0"/>
    </comp>
    <comp name="--.HHZ">
      <acc value="0.0133704551" flag="0"/>
      <vel value="0.0093138136" flag="0"/>
      <psa03 value="0.0301475176" flag="0"/>
      <psa10 value="0.0105479722" flag="0"/>
      <psa30 value="0.0005900336" flag="0"/>
    </comp>
  </station>
  <station code="PHP" name="PHP" netid="AC" insttype="" lat="41.6847" lon="20.4408">
    <comp name="--.HHE">
      <acc value="0.0807051972" flag="0"/>
      <vel value="0.0116076423" flag="0"/>
      <psa03 value="0.0684380509" flag="0"/>
      <psa10 value="0.0125508343" flag="0"/>
      <psa30 value="0.0019061212" flag="0"/>
    </comp>
    <comp name="--.HHN">
      <acc value="0.0183144623" flag="0"/>
      <vel value="0.0076017293" flag="0"/>
      <psa03 value="0.0455893056" flag="0"/>
      <psa10 value="0.0101099006" flag="0"/>
      <psa30 value="0.0008872222" flag="0"/>
    </comp>
    <comp name="--.HHZ">
      <acc value="0.0101494151" flag="0"/>
      <vel value="0.0050304389" flag="0"/>
      <psa03 value="0.0316427236" flag="0"/>
      <psa10 value="0.0051114853" flag="0"/>
      <psa30 value="0.0009638471" flag="0"/>
    </comp>
  </station>
  <station code="VLO" name="VLO" netid="AC" insttype="" lat="40.4686" lon="19.4955">
    <comp name="--.HHE">
      <acc value="0.1362606658" flag="0"/>
      <vel value="0.0513926896" flag="0"/>
      <psa03 value="0.1859906326" flag="0"/>
      <psa10 value="0.0427707624" flag="0"/>
      <psa30 value="0.0029351979" flag="0"/>
    </comp>
    <comp name="--.HHZ">
      <acc value="0.0593526537" flag="0"/>
      <vel value="0.0318518095" flag="0"/>
      <psa03 value="0.1570322633" flag="0"/>
      <psa10 value="0.0152114621" flag="0"/>
      <psa30 value="0.0043199132" flag="0"/>
    </comp>
    <comp name="--.HHN">
      <acc value="0.1647154827" flag="0"/>
      <vel value="0.0431483944" flag="0"/>
      <psa03 value="0.2695781711" flag="0"/>
      <psa10 value="0.0266289560" flag="0"/>
      <psa30 value="0.0025441072" flag="0"/>
    </comp>
  </station>
  <station code="LMS2" name="LMS2" netid="HI" insttype="CMG-5TD,ACCELEROMETER,GURALP" lat="40.835" lon="21.1418">
    <comp name="--.HNE">
      <acc value="0.0261053913" flag="0"/>
      <vel value="0.0133200631" flag="0"/>
      <psa03 value="0.0486928637" flag="0"/>
      <psa10 value="0.0169982305" flag="0"/>
      <psa30 value="0.0009045578" flag="0"/>
    </comp>
    <comp name="--.HNN">
      <acc value="0.0268748029" flag="0"/>
      <vel value="0.0091055201" flag="0"/>
      <psa03 value="0.0580571256" flag="0"/>
      <psa10 value="0.0067129292" flag="0"/>
      <psa30 value="0.0006363192" flag="0"/>
    </comp>
    <comp name="--.HNZ">
      <acc value="0.0097833295" flag="0"/>
      <vel value="0.0054838853" flag="0"/>
      <psa03 value="0.0247957375" flag="0"/>
      <psa10 value="0.0082419089" flag="0"/>
      <psa30 value="0.0006991848" flag="0"/>
    </comp>
  </station>
  <station code="TIR" name="TIR" netid="MN" insttype="" lat="41.3472" lon="19.8631">
    <comp name="--.HHE">
      <acc value="0.0739515518" flag="0"/>
      <vel value="0.0281005543" flag="0"/>
      <psa03 value="0.1799901547" flag="0"/>
      <psa10 value="0.0273148456" flag="0"/>
      <psa30 value="0.0027226187" flag="0"/>
    </comp>
    <comp name="--.HHN">
      <acc value="0.0654485964" flag="0"/>
      <vel value="0.0281627825" flag="0"/>
      <psa03 value="0.1295578902" flag="0"/>
      <psa10 value="0.0311236457" flag="0"/>
      <psa30 value="0.0049105080" flag="0"/>
    </comp>
    <comp name="--.HHZ">
      <acc value="0.0681603280" flag="0"/>
      <vel value="0.0223272376" flag="0"/>
      <psa03 value="0.0903460731" flag="0"/>
      <psa10 value="0.0305855836" flag="0"/>
      <psa30 value="0.0025435761" flag="0"/>
    </comp>
  </station>
</stationlist>
