<?xml version="1.0" encoding="UTF-8" standalone="yes"?>
<!DOCTYPE earthquake SYSTEM "stationlist.dtd">
<stationlist created="" xmlns="ch.ethz.sed.shakemap.usgs.xml">
  <station code="APE" name="APE" netid="GE" insttype="STS-2/N" lat="37.0727" lon="25.523">
    <comp name="--.HHE">
      <acc value="0.1474255600" flag="0"/>
      <vel value="0.0316548865" flag="0"/>
      <psa03 value="0.0665921835" flag="0"/>
      <psa10 value="0.0054724381" flag="0"/>
      <psa30 value="0.0012340099" flag="0"/>
    </comp>
    <comp name="--.HHN">
      <acc value="0.1234722798" flag="0"/>
      <vel value="0.0274569561" flag="0"/>
      <psa03 value="0.0967368143" flag="0"/>
      <psa10 value="0.0061228269" flag="0"/>
      <psa30 value="0.0012333925" flag="0"/>
    </comp>
    <comp name="--.HHZ">
      <acc value="0.0618766325" flag="0"/>
      <vel value="0.0106237425" flag="0"/>
      <psa03 value="0.0443211113" flag="0"/>
      <psa10 value="0.0045267791" flag="0"/>
      <psa30 value="0.0013329957" flag="0"/>
    </comp>
  </station>
  <station code="THERA" name="THERA" netid="GE" insttype="STS-2/N" lat="36.367" lon="25.4753">
    <comp name="--.HHE">
      <acc value="0.0978054531" flag="0"/>
      <vel value="0.0262566432" flag="0"/>
      <psa03 value="0.1185069544" flag="0"/>
      <psa10 value="0.0059990266" flag="0"/>
      <psa30 value="0.0008557775" flag="0"/>
    </comp>
    <comp name="--.HHZ">
      <acc value="0.0858793453" flag="0"/>
      <vel value="0.0153563852" flag="0"/>
      <psa03 value="0.0842443336" flag="0"/>
      <psa10 value="0.0059133455" flag="0"/>
      <psa30 value="0.0005568744" flag="0"/>
    </comp>
    <comp name="--.HHN">
      <acc value="0.0533836878" flag="0"/>
      <vel value="0.0125279824" flag="0"/>
      <psa03 value="0.0620577225" flag="0"/>
      <psa10 value="0.0035564681" flag="0"/>
      <psa30 value="0.0004019321" flag="0"/>
    </comp>
  </station>
  <station code="SNT1" name="SNT1" netid="HA" insttype="30" lat="36.4159" lon="25.4282">
    <comp name="--.HHE">
      <acc value="0.0928808183" flag="0"/>
      <vel value="0.0300927343" flag="0"/>
      <psa03 value="0.1300117269" flag="0"/>
      <psa10 value="0.0183108623" flag="0"/>
      <psa30 value="0.0012894952" flag="0"/>
    </comp>
    <comp name="--.HHN">
      <acc value="0.0747687263" flag="0"/>
      <vel value="0.0309997547" flag="0"/>
      <psa03 value="0.1369059121" flag="0"/>
      <psa10 value="0.0160674012" flag="0"/>
      <psa30 value="0.0010042981" flag="0"/>
    </comp>
    <comp name="--.HHZ">
      <acc value="0.0693094761" flag="0"/>
      <vel value="0.0205004534" flag="0"/>
      <psa03 value="0.0896627081" flag="0"/>
      <psa10 value="0.0124287225" flag="0"/>
      <psa30 value="0.0006864109" flag="0"/>
    </comp>
  </station>
  <station code="NAX1" name="NAX1" netid="HI" insttype="CMG-5TD,ACCELEROMETER,GURALP" lat="37.1014" lon="25.3741">
    <comp name="--.HNE">
      <acc value="0.0611371416" flag="0"/>
      <vel value="0.0142863708" flag="0"/>
      <psa03 value="0.0458367686" flag="0"/>
      <psa10 value="0.0038137045" flag="0"/>
      <psa30 value="0.0005249320" flag="0"/>
    </comp>
    <comp name="--.HNN">
      <acc value="0.0608474370" flag="0"/>
      <vel value="0.0192121261" flag="0"/>
      <psa03 value="0.0623348345" flag="0"/>
      <psa10 value="0.0048090462" flag="0"/>
      <psa30 value="0.0006453105" flag="0"/>
    </comp>
    <comp name="--.HNZ">
      <acc value="0.0386443000" flag="0"/>
      <vel value="0.0074123482" flag="0"/>
      <psa03 value="0.0290487122" flag="0"/>
      <psa10 value="0.0053076219" flag="0"/>
      <psa30 value="0.0009789893" flag="0"/>
    </comp>
  </station>
  <station code="SFR2" name="SFR2" netid="HI" insttype="unknown" lat="36.3998" lon="25.4382">
    <comp name="--.HNE">
      <acc value="0.1994423126" flag="0"/>
      <vel value="0.0593913818" flag="0"/>
      <psa03 value="0.4567124686" flag="0"/>
      <psa10 value="0.0251574538" flag="0"/>
      <psa30 value="0.0021768606" flag="0"/>
    </comp>
    <comp name="--.HNN">
      <acc value="0.1555622838" flag="0"/>
      <vel value="0.0586990828" flag="0"/>
      <psa03 value="0.2673327129" flag="0"/>
      <psa10 value="0.0512059463" flag="0"/>
      <psa30 value="0.0022371818" flag="0"/>
    </comp>
    <comp name="--.HNZ">
      <acc value="0.2266154586" flag="0"/>
      <vel value="0.0568550764" flag="0"/>
      <psa03 value="0.2620301619" flag="0"/>
      <psa10 value="0.0195341271" flag="0"/>
      <psa30 value="0.0015406627" flag="0"/>
    </comp>
  </station>
  <station code="AMGA" name="AMGA" netid="HL" insttype="SMART24" lat="36.8316" lon="25.8938">
    <comp name="--.HHE">
      <acc value="0.3241488053" flag="0"/>
      <vel value="0.0484495516" flag="0"/>
      <psa03 value="0.1725847469" flag="0"/>
      <psa10 value="0.0125828865" flag="0"/>
      <psa30 value="0.0018616225" flag="0"/>
    </comp>
    <comp name="--.HHN">
      <acc value="0.4016072528" flag="0"/>
      <vel value="0.0548083210" flag="0"/>
      <psa03 value="0.1003000430" flag="0"/>
      <psa10 value="0.0189753246" flag="0"/>
      <psa30 value="0.0021484764" flag="0"/>
    </comp>
    <comp name="--.HHZ">
      <acc value="0.2996966922" flag="0"/>
      <vel value="0.0451292278" flag="0"/>
      <psa03 value="0.1351305256" flag="0"/>
      <psa10 value="0.0152925064" flag="0"/>
      <psa30 value="0.0019693342" flag="0"/>
    </comp>
  </station>
  <station code="APE" name="APE" netid="HL" insttype="120" lat="37.0727" lon="25.523">
    <comp name="--.HHE">
      <acc value="0.1279065615" flag="0"/>
      <vel value="0.0298949861" flag="0"/>
      <psa03 value="0.0643474624" flag="0"/>
      <psa10 value="0.0053761992" flag="0"/>
      <psa30 value="0.0012315166" flag="0"/>
    </comp>
    <comp name="--.HHN">
      <acc value="0.1180208099" flag="0"/>
      <vel value="0.0261681627" flag="0"/>
      <psa03 value="0.0932930922" flag="0"/>
      <psa10 value="0.0059317154" flag="0"/>
      <psa30 value="0.0012303816" flag="0"/>
    </comp>
    <comp name="--.HHZ">
      <acc value="0.0566715596" flag="0"/>
      <vel value="0.0102221732" flag="0"/>
      <psa03 value="0.0433771987" flag="0"/>
      <psa10 value="0.0044888659" flag="0"/>
      <psa30 value="0.0013295932" flag="0"/>
    </comp>
  </station>
  <station code="MHLO" name="MHLO" netid="HL" insttype="20" lat="36.6898" lon="24.4017">
    <comp name="--.HHE">
      <acc value="0.0863231512" flag="0"/>
      <vel value="0.0415007785" flag="0"/>
      <psa03 value="0.1567500164" flag="0"/>
      <psa10 value="0.0225733043" flag="0"/>
      <psa30 value="0.0014770069" flag="0"/>
    </comp>
    <comp name="--.HHZ">
      <acc value="0.0343385074" flag="0"/>
      <vel value="0.0165894269" flag="0"/>
      <psa03 value="0.0742848820" flag="0"/>
      <psa10 value="0.0137674603" flag="0"/>
      <psa30 value="0.0010963021" flag="0"/>
    </comp>
    <comp name="--.HHN">
      <acc value="0.0654700596" flag="0"/>
      <vel value="0.0222805060" flag="0"/>
      <psa03 value="0.1049403364" flag="0"/>
      <psa10 value="0.0187939390" flag="0"/>
      <psa30 value="0.0011659365" flag="0"/>
    </comp>
  </station>
  <station code="MILA" name="MILA" netid="HL" insttype="CMG-5" lat="36.7429" lon="24.4282">
    <comp name="00.HNE">
      <acc value="0.0965037752" flag="0"/>
      <vel value="0.0333008057" flag="0"/>
      <psa03 value="0.1940270717" flag="0"/>
      <psa10 value="0.0156184271" flag="0"/>
      <psa30 value="0.0011976664" flag="0"/>
    </comp>
    <comp name="00.HNN">
      <acc value="0.1388187653" flag="0"/>
      <vel value="0.0557432527" flag="0"/>
      <psa03 value="0.3636075013" flag="0"/>
      <psa10 value="0.0260195213" flag="0"/>
      <psa30 value="0.0017051980" flag="0"/>
    </comp>
    <comp name="00.HNZ">
      <acc value="0.0548524950" flag="0"/>
      <vel value="0.0295505292" flag="0"/>
      <psa03 value="0.1420079831" flag="0"/>
      <psa10 value="0.0168714953" flag="0"/>
      <psa30 value="0.0008895073" flag="0"/>
    </comp>
  </station>
  <station code="SANT" name="SANT" netid="HL" insttype="30" lat="36.3705" lon="25.4593">
    <comp name="--.HHN">
      <acc value="0.2234635281" flag="0"/>
      <vel value="0.0317441071" flag="0"/>
      <psa03 value="0.0855718893" flag="0"/>
      <psa10 value="0.0086557439" flag="0"/>
      <psa30 value="0.0007576673" flag="0"/>
    </comp>
    <comp name="--.HHE">
      <acc value="0.3414301647" flag="0"/>
      <vel value="0.0509456697" flag="0"/>
      <psa03 value="0.1879639088" flag="0"/>
      <psa10 value="0.0140650362" flag="0"/>
      <psa30 value="0.0010479723" flag="0"/>
    </comp>
    <comp name="--.HHZ">
      <acc value="0.2762180438" flag="0"/>
      <vel value="0.0400727275" flag="0"/>
      <psa03 value="0.1010825858" flag="0"/>
      <psa10 value="0.0074636021" flag="0"/>
      <psa30 value="0.0005830709" flag="0"/>
    </comp>
  </station>
  <station code="SAP3" name="SAP3" netid="HL" insttype="65535" lat="36.4356" lon="25.3454">
    <comp name="--.HHZ">
      <acc value="0.2470545046" flag="0"/>
      <vel value="0.0464037735" flag="0"/>
      <psa03 value="0.1817581639" flag="0"/>
      <psa10 value="0.0096884356" flag="0"/>
      <psa30 value="0.0014384949" flag="0"/>
    </comp>
    <comp name="--.HHE">
      <acc value="0.1399919444" flag="0"/>
      <vel value="0.0402688162" flag="0"/>
      <psa03 value="0.1448760280" flag="0"/>
      <psa10 value="0.0196342751" flag="0"/>
      <psa30 value="0.0025242930" flag="0"/>
    </comp>
    <comp name="--.HHN">
      <acc value="0.1383766201" flag="0"/>
      <vel value="0.0321894493" flag="0"/>
      <psa03 value="0.1362231619" flag="0"/>
      <psa10 value="0.0268797503" flag="0"/>
      <psa30 value="0.0031969201" flag="0"/>
    </comp>
  </station>
  <station code="THERA" name="THERA" netid="HL" insttype="120" lat="36.367" lon="25.4753">
    <comp name="--.HHE">
      <acc value="0.0972229021" flag="0"/>
      <vel value="0.0259628115" flag="0"/>
      <psa03 value="0.1154056855" flag="0"/>
      <psa10 value="0.0058551815" flag="0"/>
      <psa30 value="0.0008555032" flag="0"/>
    </comp>
    <comp name="--.HHZ">
      <acc value="0.0868274373" flag="0"/>
      <vel value="0.0151004155" flag="0"/>
      <psa03 value="0.0818709380" flag="0"/>
      <psa10 value="0.0058128808" flag="0"/>
      <psa30 value="0.0005540649" flag="0"/>
    </comp>
    <comp name="--.HHN">
      <acc value="0.1031823635" flag="0"/>
      <vel value="0.0248137151" flag="0"/>
      <psa03 value="0.1204568733" flag="0"/>
      <psa10 value="0.0070173630" flag="0"/>
      <psa30 value="0.0007977549" flag="0"/>
    </comp>
  </station>
  <station code="THRA" name="THRA" netid="HL" insttype="CMG-5" lat="36.415" lon="25.4324">
    <comp name="00.HNE">
      <acc value="0.2702072725" flag="0"/>
      <vel value="0.1196679160" flag="0"/>
      <psa03 value="0.6901680696" flag="0"/>
      <psa10 value="0.0410977075" flag="0"/>
      <psa30 value="0.0032755007" flag="0"/>
    </comp>
    <comp name="00.HNN">
      <acc value="0.2700350829" flag="0"/>
      <vel value="0.0835968204" flag="0"/>
      <psa03 value="0.4401481714" flag="0"/>
      <psa10 value="0.0609218358" flag="0"/>
      <psa30 value="0.0029683679" flag="0"/>
    </comp>
    <comp name="00.HNZ">
      <acc value="0.2144001155" flag="0"/>
      <vel value="0.0610973221" flag="0"/>
      <psa03 value="0.2985064991" flag="0"/>
      <psa10 value="0.0211944464" flag="0"/>
      <psa30 value="0.0017599458" flag="0"/>
    </comp>
  </station>
  <station code="TNSA" name="TNSA" netid="HL" insttype="CMG-5" lat="37.5394" lon="25.1631">
    <comp name="00.HNE">
      <acc value="0.0281012327" flag="0"/>
      <vel value="0.0076404356" flag="0"/>
      <psa03 value="0.0348698808" flag="0"/>
      <psa10 value="0.0027014401" flag="0"/>
      <psa30 value="0.0003034501" flag="0"/>
    </comp>
    <comp name="00.HNN">
      <acc value="0.0459632008" flag="0"/>
      <vel value="0.0130409946" flag="0"/>
      <psa03 value="0.0590966092" flag="0"/>
      <psa10 value="0.0032072719" flag="0"/>
      <psa30 value="0.0004268234" flag="0"/>
    </comp>
    <comp name="00.HNZ">
      <acc value="0.0187534121" flag="0"/>
      <vel value="0.0078772887" flag="0"/>
      <psa03 value="0.0291927973" flag="0"/>
      <psa10 value="0.0042261552" flag="0"/>
      <psa30 value="0.0004684723" flag="0"/>
    </comp>
  </station>
  <station code="CMBO" name="CMBO" netid="HT" insttype="120P," lat="36.4709" lon="25.4056">
    <comp name="--.HHE">
      <acc value="0.1618393779" flag="0"/>
      <vel value="0.0382697804" flag="0"/>
      <psa03 value="0.2179496865" flag="0"/>
      <psa10 value="0.0208613364" flag="0"/>
      <psa30 value="0.0015894729" flag="0"/>
    </comp>
    <comp name="--.HHN">
      <acc value="0.1723483957" flag="0"/>
      <vel value="0.0620363405" flag="0"/>
      <psa03 value="0.2474676220" flag="0"/>
      <psa10 value="0.0304034665" flag="0"/>
      <psa30 value="0.0021856447" flag="0"/>
    </comp>
    <comp name="--.HHZ">
      <acc value="0.2047305916" flag="0"/>
      <vel value="0.0399798605" flag="0"/>
      <psa03 value="0.2442893934" flag="0"/>
      <psa10 value="0.0121714836" flag="0"/>
      <psa30 value="0.0012290651" flag="0"/>
    </comp>
  </station>
</stationlist>
