<?xml version="1.0" encoding="UTF-8" standalone="yes"?>
<!DOCTYPE earthquake SYSTEM "stationlist.dtd">
<stationlist created="" xmlns="ch.ethz.sed.shakemap.usgs.xml">
  <station code="DARE" name="DARE" netid="KO" insttype="CMG-3ESP" commtype="DIG" lat="38.5712" lon="37.4832">
    <comp name="--.HHN">
      <acc value="0.0224119048" flag="0"/>
      <vel value="0.0090268117" flag="0"/>
      <psa03 value="0.0395680254" flag="0"/>
      <psa10 value="0.0140193878" flag="0"/>
      <psa30 value="0.0006552086" flag="0"/>
    </comp>
    <comp name="--.HHE">
      <acc value="0.0285416420" flag="0"/>
      <vel value="0.0082672980" flag="0"/>
      <psa03 value="0.0458412783" flag="0"/>
      <psa10 value="0.0077603593" flag="0"/>
      <psa30 value="0.0004505375" flag="0"/>
    </comp>
  </station>
  <station code="GAZ" name="GAZ" netid="KO" insttype="CMG-3T" commtype="DIG" lat="37.1721" lon="37.2096">
    <comp name="--.HHE">
      <acc value="0.0096246862" flag="0"/>
      <vel value="0.0042449300" flag="0"/>
      <psa03 value="0.0202220009" flag="0"/>
      <psa10 value="0.0071790689" flag="0"/>
      <psa30 value="0.0008511912" flag="0"/>
    </comp>
  </station>
  <station code="KMRS" name="KMRS" netid="KO" insttype="CMG-3T" commtype="DIG" lat="37.5087" lon="36.9">
    <comp name="--.HHN">
      <acc value="0.0190074629" flag="0"/>
      <vel value="0.0088024964" flag="0"/>
      <psa03 value="0.0660727420" flag="0"/>
      <psa10 value="0.0070753778" flag="0"/>
      <psa30 value="0.0008695346" flag="0"/>
    </comp>
    <comp name="--.HHE">
      <acc value="0.0086439703" flag="0"/>
      <vel value="0.0048720863" flag="0"/>
      <psa03 value="0.0231120575" flag="0"/>
      <psa10 value="0.0043429770" flag="0"/>
      <psa30 value="0.0005538179" flag="0"/>
    </comp>
    <comp name="--.HHZ">
      <acc value="0.0109635360" flag="0"/>
      <vel value="0.0060510368" flag="0"/>
      <psa03 value="0.0358666227" flag="0"/>
      <psa10 value="0.0032675308" flag="0"/>
      <psa30 value="0.0008407006" flag="0"/>
    </comp>
  </station>
  <station code="ANDN" name="ANDN" netid="TU" insttype="T" commtype="DIG" lat="37.58" lon="36.3452">
    <comp name="--.HHZ">
      <acc value="0.0148011982" flag="0"/>
      <vel value="0.0072259529" flag="0"/>
      <psa03 value="0.0358309390" flag="0"/>
      <psa10 value="0.0119272018" flag="0"/>
      <psa30 value="0.0005344268" flag="0"/>
    </comp>
    <comp name="--.HHE">
      <acc value="0.0233257060" flag="0"/>
      <vel value="0.0119052781" flag="0"/>
      <psa03 value="0.0389872361" flag="0"/>
      <psa10 value="0.0140691754" flag="0"/>
      <psa30 value="0.0005896165" flag="0"/>
    </comp>
    <comp name="--.HHN">
      <acc value="0.0323213712" flag="0"/>
      <vel value="0.0128452373" flag="0"/>
      <psa03 value="0.0596985946" flag="0"/>
      <psa10 value="0.0165144384" flag="0"/>
      <psa30 value="0.0006788550" flag="0"/>
    </comp>
  </station>
</stationlist>
