<?xml version="1.0" encoding="UTF-8" standalone="yes"?>
<!DOCTYPE earthquake SYSTEM "stationlist.dtd">
<stationlist created="" xmlns="ch.ethz.sed.shakemap.usgs.xml">
  <station code="MESJ" name="MESJ" netid="LX" insttype="REFT" lat="37.8395" lon="-8.21994">
    <comp name="--.HHZ">
      <acc value="0.0772707638" flag="0"/>
      <vel value="0.0225422055" flag="0"/>
      <psa03 value="0.1274762635" flag="0"/>
      <psa10 value="0.0205002954" flag="0"/>
      <psa30 value="0.0020565859" flag="0"/>
    </comp>
    <comp name="--.HHN">
      <acc value="0.1155884964" flag="0"/>
      <vel value="0.0412563424" flag="0"/>
      <psa03 value="0.2303933354" flag="0"/>
      <psa10 value="0.0259759032" flag="0"/>
      <psa30 value="0.0028396868" flag="0"/>
    </comp>
    <comp name="--.HHE">
      <acc value="0.1227917790" flag="0"/>
      <vel value="0.0373715156" flag="0"/>
      <psa03 value="0.1661505065" flag="0"/>
      <psa10 value="0.0200155545" flag="0"/>
      <psa30 value="0.0012157397" flag="0"/>
    </comp>
  </station>
  <station code="MORF" name="MORF" netid="LX" insttype="REFT" lat="37.3043" lon="-8.65267">
    <comp name="--.HHN">
      <acc value="0.3520297947" flag="0"/>
      <vel value="0.1287523261" flag="0"/>
      <psa03 value="0.8147629401" flag="0"/>
      <psa10 value="0.0430167841" flag="0"/>
      <psa30 value="0.0050574215" flag="0"/>
    </comp>
    <comp name="--.HHE">
      <acc value="0.4122670011" flag="0"/>
      <vel value="0.0822309341" flag="0"/>
      <psa03 value="0.5361461086" flag="0"/>
      <psa10 value="0.0523261156" flag="0"/>
      <psa30 value="0.0039145043" flag="0"/>
    </comp>
    <comp name="--.HHZ">
      <acc value="0.2278207666" flag="0"/>
      <vel value="0.0632228389" flag="0"/>
      <psa03 value="0.3129288287" flag="0"/>
      <psa10 value="0.0421141787" flag="0"/>
      <psa30 value="0.0041417434" flag="0"/>
    </comp>
  </station>
</stationlist>
