<stationlist created="1778136367">
	<station code="S2114" name="S2114" netid="S2" source="IceSMN Icelandic Strong Motion Network (IceSMN)" insttype="" lat="63.7515" lon="-20.2168">
		<comp name="00.HN1" depth="0.0">
			<acc value="0.0614323584070381" flag="0"/>
			<vel value="0.0337673895731637" flag="0"/>
			<psa03 value="0.110335871710135" flag="0"/>
			<psa10 value="0.0274480195465983" flag="0"/>
			<psa30 value="0.00418192536536601" flag="0"/>
		</comp>
		<comp name="00.HN2" depth="0.0">
			<acc value="0.0550730503261019" flag="0"/>
			<vel value="0.0274666629888833" flag="0"/>
			<psa03 value="0.106670649740585" flag="0"/>
			<psa10 value="0.0193736840365051" flag="0"/>
			<psa30 value="0.00142849535997433" flag="0"/>
		</comp>
		<comp name="00.HNZ" depth="0.0">
			<acc value="0.0308674109056399" flag="0"/>
			<vel value="0.0116909886492326" flag="0"/>
			<psa03 value="0.0587888215544199" flag="0"/>
			<psa10 value="0.0100992896533721" flag="0"/>
			<psa30 value="0.0017397877523999" flag="0"/>
		</comp>
	</station>
	<station code="S2119" name="S2119" netid="S2" source="IceSMN Icelandic Strong Motion Network (IceSMN)" insttype="" lat="64.1301" lon="-20.32">
		<comp name="00.HN1" depth="0.0">
			<acc value="0.0391623873846299" flag="0"/>
			<vel value="0.0186307157131286" flag="0"/>
			<psa03 value="0.121791724354191" flag="0"/>
			<psa10 value="0.0118104520720049" flag="0"/>
			<psa30 value="0.00295256767644927" flag="0"/>
		</comp>
		<comp name="00.HN2" depth="0.0">
			<acc value="0.0431244910966642" flag="0"/>
			<vel value="0.0303562408476727" flag="0"/>
			<psa03 value="0.138506842065301" flag="0"/>
			<psa10 value="0.0275137201489218" flag="0"/>
			<psa30 value="0.00363239604507843" flag="0"/>
		</comp>
		<comp name="00.HNZ" depth="0.0">
			<acc value="0.0268207827773432" flag="0"/>
			<vel value="0.0072117057869849" flag="0"/>
			<psa03 value="0.048141949584507" flag="0"/>
			<psa10 value="0.00892265483209687" flag="0"/>
			<psa30 value="0.00151382330419718" flag="0"/>
		</comp>
	</station>
	<station code="S2405" name="S2405" netid="S2" source="IceSMN Icelandic Strong Motion Network (IceSMN)" insttype="" lat="64.0447" lon="-21.9848">
		<comp name="00.HN1" depth="0.0">
			<acc value="0.485232328466686" flag="0"/>
			<vel value="0.25432283017341" flag="0"/>
			<psa03 value="0.942252419596361" flag="0"/>
			<psa10 value="0.151923314174012" flag="0"/>
			<psa30 value="0.0120562595013372" flag="0"/>
		</comp>
		<comp name="00.HN2" depth="0.0">
			<acc value="0.725980276995153" flag="0"/>
			<vel value="0.291741824723659" flag="0"/>
			<psa03 value="0.974988004836544" flag="0"/>
			<psa10 value="0.0790091839707696" flag="0"/>
			<psa30 value="0.00821333992679492" flag="0"/>
		</comp>
		<comp name="00.HNZ" depth="0.0">
			<acc value="0.427082310634615" flag="0"/>
			<vel value="0.080641571363946" flag="0"/>
			<psa03 value="0.304226028481515" flag="0"/>
			<psa10 value="0.0357808803077109" flag="0"/>
			<psa30 value="0.0132439840156106" flag="0"/>
		</comp>
	</station>
	<station code="S2602" name="S2602" netid="S2" source="IceSMN Icelandic Strong Motion Network (IceSMN)" insttype="" lat="63.8464" lon="-22.4268">
		<comp name="00.HN1" depth="0.0">
			<acc value="2.45046193547872" flag="0"/>
			<vel value="1.68090161438262" flag="0"/>
			<psa03 value="4.56364365233608" flag="0"/>
			<psa10 value="1.72880872509419" flag="0"/>
			<psa30 value="0.128926300734478" flag="0"/>
		</comp>
		<comp name="00.HN2" depth="0.0">
			<acc value="1.39768713621427" flag="0"/>
			<vel value="1.05309865326111" flag="0"/>
			<psa03 value="3.74043445209114" flag="0"/>
			<psa10 value="0.784594695546667" flag="0"/>
			<psa30 value="0.092929502790256" flag="0"/>
		</comp>
		<comp name="00.HNZ" depth="0.0">
			<acc value="2.57136740028848" flag="0"/>
			<vel value="0.628742633276356" flag="0"/>
			<psa03 value="3.65717593662342" flag="0"/>
			<psa10 value="0.255989588053936" flag="0"/>
			<psa30 value="0.045405167869387" flag="0"/>
		</comp>
	</station>
	<station code="S2604" name="S2604" netid="S2" source="IceSMN Icelandic Strong Motion Network (IceSMN)" insttype="" lat="63.9843" lon="-21.6486">
		<comp name="00.HN1" depth="0.0">
			<acc value="0.129232447470477" flag="0"/>
			<vel value="0.0647971457913628" flag="0"/>
			<psa03 value="0.3890458973812" flag="0"/>
			<psa10 value="0.0844400387381518" flag="0"/>
			<psa30 value="0.0108669848844118" flag="0"/>
		</comp>
		<comp name="00.HN2" depth="0.0">
			<acc value="0.134909651186666" flag="0"/>
			<vel value="0.0541249202800315" flag="0"/>
			<psa03 value="0.279507224315064" flag="0"/>
			<psa10 value="0.0848659769543292" flag="0"/>
			<psa30 value="0.0101437778088241" flag="0"/>
		</comp>
		<comp name="00.HNZ" depth="0.0">
			<acc value="0.116608786119762" flag="0"/>
			<vel value="0.044956824048238" flag="0"/>
			<psa03 value="0.277944891651586" flag="0"/>
			<psa10 value="0.0359685164877041" flag="0"/>
			<psa30 value="0.00728530261553277" flag="0"/>
		</comp>
	</station>
</stationlist>
