<?xml version="1.0" encoding="UTF-8" standalone="yes"?>
<!DOCTYPE earthquake SYSTEM "stationlist.dtd">
<stationlist created="" xmlns="ch.ethz.sed.shakemap.usgs.xml">
  <station code="ASB" name="ASB" netid="VI" source="ODC" insttype="STS-2.5" lat="64.7482" lon="-21.3254">
    <comp name="--.HHE">
      <acc value="0.0722169846" flag="0"/>
      <vel value="0.0398915161" flag="0"/>
      <psa03 value="0.1982482055" flag="0"/>
      <psa10 value="0.0308840178" flag="0"/>
      <psa30 value="0.0019801558" flag="0"/>
    </comp>
    <comp name="--.HHN">
      <acc value="0.0793094172" flag="0"/>
      <vel value="0.0348575770" flag="0"/>
      <psa03 value="0.1822502713" flag="0"/>
      <psa10 value="0.0230687641" flag="0"/>
      <psa30 value="0.0015672793" flag="0"/>
    </comp>
    <comp name="--.HHZ">
      <acc value="0.0512056000" flag="0"/>
      <vel value="0.0166725876" flag="0"/>
      <psa03 value="0.0981292900" flag="0"/>
      <psa10 value="0.0127759607" flag="0"/>
      <psa30 value="0.0018927600" flag="0"/>
    </comp>
  </station>
</stationlist>
