<?xml version="1.0" encoding="UTF-8" standalone="yes"?>
<!DOCTYPE earthquake SYSTEM "stationlist.dtd">
<stationlist created="" xmlns="ch.ethz.sed.shakemap.usgs.xml">
  <station code="TIRR" name="TIRR" netid="GE" insttype="STS-2/N" lat="44.4581" lon="28.4128">
    <comp name="--.HHE">
      <acc value="0.1995653474" flag="0"/>
      <vel value="0.0506797757" flag="0"/>
      <psa03 value="0.2407875170" flag="0"/>
      <psa10 value="0.0323273577" flag="0"/>
      <psa30 value="0.0028396293" flag="0"/>
    </comp>
    <comp name="--.HHZ">
      <acc value="0.1151335614" flag="0"/>
      <vel value="0.0392910755" flag="0"/>
      <psa03 value="0.1519376679" flag="0"/>
      <psa10 value="0.0196234153" flag="0"/>
      <psa30 value="0.0024571463" flag="0"/>
    </comp>
    <comp name="--.HHN">
      <acc value="0.1963491331" flag="0"/>
      <vel value="0.0533986597" flag="0"/>
      <psa03 value="0.1726746985" flag="0"/>
      <psa10 value="0.0449159923" flag="0"/>
      <psa30 value="0.0028866335" flag="0"/>
    </comp>
  </station>
</stationlist>
