<stationlist created="1778069359">
	<station code="KUBB" name="KUBB" netid="BS" source="National Seismic Network of Bulgaria (BS)" insttype="" lat="43.8024" lon="26.4941">
		<comp name="--.HNE" depth="0.0">
			<acc value="0.0790107634682447" flag="0"/>
			<vel value="0.0302797920818906" flag="0"/>
			<psa03 value="0.372255159064021" flag="0"/>
			<psa10 value="0.0228883232176431" flag="0"/>
			<psa30 value="0.00141519599533594" flag="0"/>
		</comp>
		<comp name="--.HNN" depth="0.0">
			<acc value="0.0692300372134868" flag="0"/>
			<vel value="0.0249936838603821" flag="0"/>
			<psa03 value="0.219371039049386" flag="0"/>
			<psa10 value="0.0118830826557468" flag="0"/>
			<psa30 value="0.00189438502821763" flag="0"/>
		</comp>
		<comp name="--.HNZ" depth="0.0">
			<acc value="0.0433909279981262" flag="0"/>
			<vel value="0.0123240126307081" flag="0"/>
			<psa03 value="0.0331092328975211" flag="0"/>
			<psa10 value="0.0107072574658186" flag="0"/>
			<psa30 value="0.000934664696255697" flag="0"/>
		</comp>
	</station>
	<station code="RAZG" name="RAZG" netid="BS" source="National Seismic Network of Bulgaria (BS)" insttype="" lat="43.5662" lon="26.5079">
		<comp name="--.HNE" depth="0.0">
			<acc value="0.0811905172500077" flag="0"/>
			<vel value="0.0166211971904539" flag="0"/>
			<psa03 value="0.0467108637094757" flag="0"/>
			<psa10 value="0.0121569049602506" flag="0"/>
			<psa30 value="0.000899765775093445" flag="0"/>
		</comp>
		<comp name="--.HNN" depth="0.0">
			<acc value="0.0555419602497407" flag="0"/>
			<vel value="0.0139866989646793" flag="0"/>
			<psa03 value="0.0471135435690402" flag="0"/>
			<psa10 value="0.0135018556911959" flag="0"/>
			<psa30 value="0.00113555720397174" flag="0"/>
		</comp>
		<comp name="--.HNZ" depth="0.0">
			<acc value="0.040195060969839" flag="0"/>
			<vel value="0.00572510829404477" flag="0"/>
			<psa03 value="0.0293956297482045" flag="0"/>
			<psa10 value="0.00659186930106998" flag="0"/>
			<psa30 value="0.000738693831267666" flag="0"/>
		</comp>
	</station>
	<station code="RUSAM" name="RUSAM" netid="BS" source="National Seismic Network of Bulgaria (BS)" insttype="" lat="43.8462" lon="25.9612">
		<comp name="--.HNE" depth="0.0">
			<acc value="0.0399879220596642" flag="0"/>
			<vel value="0.0181862311927949" flag="0"/>
			<psa03 value="0.108052428983126" flag="0"/>
			<psa10 value="0.0176414046475184" flag="0"/>
			<psa30 value="0.0011028953931404" flag="0"/>
		</comp>
		<comp name="--.HNN" depth="0.0">
			<acc value="0.0248562174883246" flag="0"/>
			<vel value="0.0130085411164499" flag="0"/>
			<psa03 value="0.0947192514108813" flag="0"/>
			<psa10 value="0.0138562139676126" flag="0"/>
			<psa30 value="0.00143085576765233" flag="0"/>
		</comp>
		<comp name="--.HNZ" depth="0.0">
			<acc value="0.0363982475491524" flag="0"/>
			<vel value="0.0132966340428348" flag="0"/>
			<psa03 value="0.0523036395367597" flag="0"/>
			<psa10 value="0.00827507111404936" flag="0"/>
			<psa30 value="0.000912293592946561" flag="0"/>
		</comp>
	</station>
	<station code="SHAB" name="SHAB" netid="BS" source="National Seismic Network of Bulgaria (BS)" insttype="" lat="43.5389" lon="28.6057">
		<comp name="--.HNE" depth="0.0">
			<acc value="0.0807350923747923" flag="0"/>
			<vel value="0.0371432890200933" flag="0"/>
			<psa03 value="0.134137135441579" flag="0"/>
			<psa10 value="0.0294962997130957" flag="0"/>
			<psa30 value="0.0035337394787111" flag="0"/>
		</comp>
		<comp name="--.HNN" depth="0.0">
			<acc value="0.059351026027925" flag="0"/>
			<vel value="0.0293892565494884" flag="0"/>
			<psa03 value="0.161340397065488" flag="0"/>
			<psa10 value="0.0343445652222516" flag="0"/>
			<psa30 value="0.00438965789131864" flag="0"/>
		</comp>
		<comp name="--.HNZ" depth="0.0">
			<acc value="0.0384835075686307" flag="0"/>
			<vel value="0.0161004901745331" flag="0"/>
			<psa03 value="0.0786567992349217" flag="0"/>
			<psa10 value="0.0328465961446718" flag="0"/>
			<psa30 value="0.000955246111300102" flag="0"/>
		</comp>
	</station>
	<station code="SILAM" name="SILAM" netid="BS" source="National Seismic Network of Bulgaria (BS)" insttype="" lat="44.1046" lon="27.2665">
		<comp name="--.HNE" depth="0.0">
			<acc value="0.110677227558196" flag="0"/>
			<vel value="0.0426715408011515" flag="0"/>
			<psa03 value="0.318609253328713" flag="0"/>
			<psa10 value="0.0114038936228651" flag="0"/>
			<psa30 value="0.001087235620824" flag="0"/>
		</comp>
		<comp name="--.HNN" depth="0.0">
			<acc value="0.110511865712255" flag="0"/>
			<vel value="0.0399887628190126" flag="0"/>
			<psa03 value="0.451404122571744" flag="0"/>
			<psa10 value="0.014315269007516" flag="0"/>
			<psa30 value="0.000950324468572092" flag="0"/>
		</comp>
		<comp name="--.HNZ" depth="0.0">
			<acc value="0.086553996714753" flag="0"/>
			<vel value="0.0194801049799178" flag="0"/>
			<psa03 value="0.0812071050121632" flag="0"/>
			<psa10 value="0.00535564213220713" flag="0"/>
			<psa30 value="0.000705584598370145" flag="0"/>
		</comp>
	</station>
	<station code="VRI" name="VRI" netid="EU" source="Generic European Strong Motion Network" insttype="" lat="45.8657" lon="26.7277">
		<comp name="00.HNE" depth="0.0">
			<acc value="0.546118321281412" flag="0"/>
			<vel value="0.288589487392817" flag="0"/>
			<psa03 value="2.44775663967241" flag="0"/>
			<psa10 value="0.0937358177094117" flag="0"/>
			<psa30 value="0.00888401254612404" flag="0"/>
		</comp>
		<comp name="00.HNN" depth="0.0">
			<acc value="0.576270606522638" flag="0"/>
			<vel value="0.288350180156433" flag="0"/>
			<psa03 value="2.1942920391799" flag="0"/>
			<psa10 value="0.11980933861621" flag="0"/>
			<psa30 value="0.0094052592532269" flag="0"/>
		</comp>
		<comp name="00.HNZ" depth="0.0">
			<acc value="0.294115539527438" flag="0"/>
			<vel value="0.110604025972897" flag="0"/>
			<psa03 value="0.906477106086186" flag="0"/>
			<psa10 value="0.048655807431172" flag="0"/>
			<psa30 value="0.00391807503356206" flag="0"/>
		</comp>
	</station>
	<station code="KIS" name="KIS" netid="MD" source="Moldova Digital Seismic Network" insttype="" lat="46.9975" lon="28.8175">
		<comp name="--.HNE" depth="0.0">
			<acc value="0.337623552043564" flag="0"/>
			<vel value="0.170553705585357" flag="0"/>
			<psa03 value="0.929832537940924" flag="0"/>
			<psa10 value="0.154323029379478" flag="0"/>
			<psa30 value="0.011095172397199" flag="0"/>
		</comp>
		<comp name="--.HNN" depth="0.0">
			<acc value="0.276819181777185" flag="0"/>
			<vel value="0.180087494317168" flag="0"/>
			<psa03 value="0.510687546340954" flag="0"/>
			<psa10 value="0.240351554576826" flag="0"/>
			<psa30 value="0.0131712107842868" flag="0"/>
		</comp>
		<comp name="--.HNZ" depth="0.0">
			<acc value="0.170423648884469" flag="0"/>
			<vel value="0.0537867243243132" flag="0"/>
			<psa03 value="0.344157053307746" flag="0"/>
			<psa10 value="0.0665710343831942" flag="0"/>
			<psa30 value="0.00434715279503128" flag="0"/>
		</comp>
	</station>
	<station code="PURM" name="PURM" netid="MD" source="Moldova Digital Seismic Network" insttype="" lat="46.5293" lon="29.8723">
		<comp name="--.HNE" depth="0.0">
			<acc value="0.071042998507255" flag="0"/>
			<vel value="0.0429357203589753" flag="0"/>
			<psa03 value="0.172302237686965" flag="0"/>
			<psa10 value="0.0533067598091413" flag="0"/>
			<psa30 value="0.00255299030963859" flag="0"/>
		</comp>
		<comp name="--.HNN" depth="0.0">
			<acc value="0.0612972789233314" flag="0"/>
			<vel value="0.0264653378482704" flag="0"/>
			<psa03 value="0.107023358230906" flag="0"/>
			<psa10 value="0.0253366167637949" flag="0"/>
			<psa30 value="0.00227066698587729" flag="0"/>
		</comp>
		<comp name="--.HNZ" depth="0.0">
			<acc value="0.0625845258834084" flag="0"/>
			<vel value="0.0239264007053045" flag="0"/>
			<psa03 value="0.0636681600178007" flag="0"/>
			<psa10 value="0.0100508892947286" flag="0"/>
			<psa30 value="0.00102280684329369" flag="0"/>
		</comp>
	</station>
	<station code="SORM" name="SORM" netid="MD" source="Moldova Digital Seismic Network" insttype="" lat="48.135" lon="28.3513">
		<comp name="--.HNE" depth="0.0">
			<acc value="0.0524591374702499" flag="0"/>
			<vel value="0.0159384384986917" flag="0"/>
			<psa03 value="0.0577174465375706" flag="0"/>
			<psa10 value="0.00839990187051434" flag="0"/>
			<psa30 value="0.000343172724762144" flag="0"/>
		</comp>
		<comp name="--.HNN" depth="0.0">
			<acc value="0.0472933096089453" flag="0"/>
			<vel value="0.0157413005911205" flag="0"/>
			<psa03 value="0.0567778601985869" flag="0"/>
			<psa10 value="0.00572208080441077" flag="0"/>
			<psa30 value="0.000527063193963241" flag="0"/>
		</comp>
		<comp name="--.HNZ" depth="0.0">
			<acc value="0.0289479154574843" flag="0"/>
			<vel value="0.0061571774153784" flag="0"/>
			<psa03 value="0.025682026598888" flag="0"/>
			<psa10 value="0.00398250381109237" flag="0"/>
			<psa30 value="0.000429077761469226" flag="0"/>
		</comp>
	</station>
	<station code="BAC" name="BAC" netid="RO" source="Romanian Seismic Network (NIEP)" insttype="" lat="46.5669" lon="26.9124">
		<comp name="--.HNE" depth="0.0">
			<acc value="0.176923916470807" flag="0"/>
			<vel value="0.0760273473640104" flag="0"/>
			<psa03 value="0.388765033306163" flag="0"/>
			<psa10 value="0.134909833349876" flag="0"/>
			<psa30 value="0.00711311600817284" flag="0"/>
		</comp>
		<comp name="--.HNN" depth="0.0">
			<acc value="0.249630453193328" flag="0"/>
			<vel value="0.206778563257255" flag="0"/>
			<psa03 value="0.388004415793653" flag="0"/>
			<psa10 value="0.196125225600863" flag="0"/>
			<psa30 value="0.0133618125844807" flag="0"/>
		</comp>
		<comp name="--.HNZ" depth="0.0">
			<acc value="0.114190813171713" flag="0"/>
			<vel value="0.0443311241246663" flag="0"/>
			<psa03 value="0.178924084266469" flag="0"/>
			<psa10 value="0.0728004918106561" flag="0"/>
			<psa30 value="0.00424514056394162" flag="0"/>
		</comp>
	</station>
	<station code="BISRR" name="BISRR" netid="RO" source="Romanian Seismic Network (NIEP)" insttype="" lat="45.5481" lon="26.7099">
		<comp name="--.HNE" depth="0.0">
			<acc value="0.299761838442354" flag="0"/>
			<vel value="0.145800913770987" flag="0"/>
			<psa03 value="0.53279019641038" flag="0"/>
			<psa10 value="0.229120813293574" flag="0"/>
			<psa30 value="0.0136937997575883" flag="0"/>
		</comp>
		<comp name="--.HNN" depth="0.0">
			<acc value="0.144539510416505" flag="0"/>
			<vel value="0.120269245259219" flag="0"/>
			<psa03 value="0.451135669332034" flag="0"/>
			<psa10 value="0.188268941540761" flag="0"/>
			<psa30 value="0.014922420751326" flag="0"/>
		</comp>
		<comp name="--.HNZ" depth="0.0">
			<acc value="0.134389322547906" flag="0"/>
			<vel value="0.088986166129092" flag="0"/>
			<psa03 value="0.375566082353773" flag="0"/>
			<psa10 value="0.0814420015969092" flag="0"/>
			<psa30 value="0.00593415886378138" flag="0"/>
		</comp>
	</station>
	<station code="CLISU" name="CLISU" netid="RO" source="Romanian Seismic Network (NIEP)" insttype="" lat="44.1901" lon="27.3557">
		<comp name="--.HNE" depth="0.0">
			<acc value="0.158219146805553" flag="0"/>
			<vel value="0.0675671123949354" flag="0"/>
			<psa03 value="0.347825914250445" flag="0"/>
			<psa10 value="0.0477578313443433" flag="0"/>
			<psa30 value="0.00264426441113986" flag="0"/>
		</comp>
		<comp name="--.HNN" depth="0.0">
			<acc value="0.134735347618791" flag="0"/>
			<vel value="0.0696722794405096" flag="0"/>
			<psa03 value="0.5654072650351" flag="0"/>
			<psa10 value="0.036502929269517" flag="0"/>
			<psa30 value="0.0023869967230848" flag="0"/>
		</comp>
		<comp name="--.HNZ" depth="0.0">
			<acc value="0.129023363316547" flag="0"/>
			<vel value="0.038965704009569" flag="0"/>
			<psa03 value="0.233017412067959" flag="0"/>
			<psa10 value="0.0106629626812665" flag="0"/>
			<psa30 value="0.00102101715502896" flag="0"/>
		</comp>
	</station>
	<station code="COPA" name="COPA" netid="RO" source="Romanian Seismic Network (NIEP)" insttype="" lat="44.1343" lon="25.2172">
		<comp name="--.HNE" depth="0.0">
			<acc value="0.0337734315030728" flag="0"/>
			<vel value="0.0134368938335231" flag="0"/>
			<psa03 value="0.0562856959257859" flag="0"/>
			<psa10 value="0.0161917571530864" flag="0"/>
			<psa30 value="0.00346438905845278" flag="0"/>
		</comp>
		<comp name="--.HNN" depth="0.0">
			<acc value="0.0376571119909659" flag="0"/>
			<vel value="0.0155298531550523" flag="0"/>
			<psa03 value="0.0753458759451696" flag="0"/>
			<psa10 value="0.0215312920909109" flag="0"/>
			<psa30 value="0.00465676886482972" flag="0"/>
		</comp>
		<comp name="--.HNZ" depth="0.0">
			<acc value="0.0156482300654929" flag="0"/>
			<vel value="0.00556157117341905" flag="0"/>
			<psa03 value="0.0274269726570006" flag="0"/>
			<psa10 value="0.0069019327929346" flag="0"/>
			<psa30 value="0.000897081242696348" flag="0"/>
		</comp>
	</station>
	<station code="CTISU" name="CTISU" netid="RO" source="Romanian Seismic Network (NIEP)" insttype="" lat="44.184" lon="28.6491">
		<comp name="--.HNE" depth="0.0">
			<acc value="0.197386251773139" flag="0"/>
			<vel value="0.0965309061600321" flag="0"/>
			<psa03 value="0.37901123226338" flag="0"/>
			<psa10 value="0.076279645797293" flag="0"/>
			<psa30 value="0.00359100950318249" flag="0"/>
		</comp>
		<comp name="--.HNN" depth="0.0">
			<acc value="0.186175712306128" flag="0"/>
			<vel value="0.09375743783708" flag="0"/>
			<psa03 value="0.459636688589506" flag="0"/>
			<psa10 value="0.0741092013542406" flag="0"/>
			<psa30 value="0.00382187928933277" flag="0"/>
		</comp>
		<comp name="--.HNZ" depth="0.0">
			<acc value="0.116657888797486" flag="0"/>
			<vel value="0.0442315440699547" flag="0"/>
			<psa03 value="0.314985134592633" flag="0"/>
			<psa10 value="0.0281835633709156" flag="0"/>
			<psa30 value="0.00142459185872577" flag="0"/>
		</comp>
	</station>
	<station code="GHRR" name="GHRR" netid="RO" source="Romanian Seismic Network (NIEP)" insttype="" lat="46.0605" lon="27.408">
		<comp name="--.HNE" depth="0.0">
			<acc value="1.29080400289405" flag="0"/>
			<vel value="0.436207395302665" flag="0"/>
			<psa03 value="1.36964842899854" flag="0"/>
			<psa10 value="0.415758901403099" flag="0"/>
			<psa30 value="0.0409243541275346" flag="0"/>
		</comp>
		<comp name="--.HNN" depth="0.0">
			<acc value="1.53265262544097" flag="0"/>
			<vel value="0.925718644078773" flag="0"/>
			<psa03 value="2.19223389767546" flag="0"/>
			<psa10 value="1.09603820255408" flag="0"/>
			<psa30 value="0.0858061564304554" flag="0"/>
		</comp>
		<comp name="--.HNZ" depth="0.0">
			<acc value="0.611288627717899" flag="0"/>
			<vel value="0.256226409236789" flag="0"/>
			<psa03 value="0.816321559750368" flag="0"/>
			<psa10 value="0.303374979397258" flag="0"/>
			<psa30 value="0.0107958470349228" flag="0"/>
		</comp>
	</station>
	<station code="GRISU" name="GRISU" netid="RO" source="Romanian Seismic Network (NIEP)" insttype="" lat="43.8898" lon="25.9518">
		<comp name="--.HNE" depth="0.0">
			<acc value="0.0631033765422006" flag="0"/>
			<vel value="0.0299783794778138" flag="0"/>
			<psa03 value="0.358743012665303" flag="0"/>
			<psa10 value="0.014134063070712" flag="0"/>
			<psa30 value="0.0011959591829064" flag="0"/>
		</comp>
		<comp name="--.HNN" depth="0.0">
			<acc value="0.0605593056377729" flag="0"/>
			<vel value="0.0277530210390175" flag="0"/>
			<psa03 value="0.369570626666925" flag="0"/>
			<psa10 value="0.013952857133908" flag="0"/>
			<psa30 value="0.00127828484308402" flag="0"/>
		</comp>
		<comp name="--.HNZ" depth="0.0">
			<acc value="0.0217290023851221" flag="0"/>
			<vel value="0.00749714813739722" flag="0"/>
			<psa03 value="0.0465318948830026" flag="0"/>
			<psa10 value="0.00532745454203762" flag="0"/>
			<psa30 value="0.000793279323341958" flag="0"/>
		</comp>
	</station>
	<station code="HUMR" name="HUMR" netid="RO" source="Romanian Seismic Network (NIEP)" insttype="" lat="44.5281" lon="24.9804">
		<comp name="--.HNE" depth="0.0">
			<acc value="0.0370184517769167" flag="0"/>
			<vel value="0.0108160444189097" flag="0"/>
			<psa03 value="0.064697230770021" flag="0"/>
			<psa10 value="0.020919218704373" flag="0"/>
			<psa30 value="0.00308408030219747" flag="0"/>
		</comp>
		<comp name="--.HNN" depth="0.0">
			<acc value="0.0422232810742372" flag="0"/>
			<vel value="0.0131454772819274" flag="0"/>
			<psa03 value="0.0485005519742066" flag="0"/>
			<psa10 value="0.0167232945677114" flag="0"/>
			<psa30 value="0.00360353732103561" flag="0"/>
		</comp>
		<comp name="--.HNZ" depth="0.0">
			<acc value="0.0241863365824425" flag="0"/>
			<vel value="0.00658436824182479" flag="0"/>
			<psa03 value="0.0241607915738668" flag="0"/>
			<psa10 value="0.00578650958194109" flag="0"/>
			<psa30 value="0.00141027435260793" flag="0"/>
		</comp>
	</station>
	<station code="IASR" name="IASR" netid="RO" source="Romanian Seismic Network (NIEP)" insttype="" lat="47.1777" lon="27.5748">
		<comp name="--.HNE" depth="0.0">
			<acc value="0.323559766873628" flag="0"/>
			<vel value="0.158677650377702" flag="0"/>
			<psa03 value="0.721602308339487" flag="0"/>
			<psa10 value="0.14846001062422" flag="0"/>
			<psa30 value="0.00623169453779289" flag="0"/>
		</comp>
		<comp name="--.HNN" depth="0.0">
			<acc value="0.267825536184797" flag="0"/>
			<vel value="0.180726321875085" flag="0"/>
			<psa03 value="0.601245772536336" flag="0"/>
			<psa10 value="0.187608546571075" flag="0"/>
			<psa30 value="0.00886477339727818" flag="0"/>
		</comp>
		<comp name="--.HNZ" depth="0.0">
			<acc value="0.209285282968841" flag="0"/>
			<vel value="0.0934762436745055" flag="0"/>
			<psa03 value="0.283441878926752" flag="0"/>
			<psa10 value="0.068169673425665" flag="0"/>
			<psa30 value="0.00609120400901151" flag="0"/>
		</comp>
	</station>
	<station code="ICOR" name="ICOR" netid="RO" source="Romanian Seismic Network (NIEP)" insttype="" lat="44.1168" lon="27.8009">
		<comp name="--.HNE" depth="0.0">
			<acc value="0.350297221471837" flag="0"/>
			<vel value="0.17552274438297" flag="0"/>
			<psa03 value="1.25595848198151" flag="0"/>
			<psa10 value="0.180026084815477" flag="0"/>
			<psa30 value="0.00579858997772802" flag="0"/>
		</comp>
		<comp name="--.HNN" depth="0.0">
			<acc value="0.23320010370373" flag="0"/>
			<vel value="0.13057283305083" flag="0"/>
			<psa03 value="0.90195814321774" flag="0"/>
			<psa10 value="0.116978499203471" flag="0"/>
			<psa30 value="0.00419995093525717" flag="0"/>
		</comp>
		<comp name="--.HNZ" depth="0.0">
			<acc value="0.201004151413253" flag="0"/>
			<vel value="0.0964709368193375" flag="0"/>
			<psa03 value="0.616100185133602" flag="0"/>
			<psa10 value="0.0309258132145494" flag="0"/>
			<psa30 value="0.00226127112248745" flag="0"/>
		</comp>
	</station>
	<station code="LEHL" name="LEHL" netid="RO" source="Romanian Seismic Network (NIEP)" insttype="" lat="44.4739" lon="26.8194">
		<comp name="--.HNE" depth="0.0">
			<acc value="0.161883135679777" flag="0"/>
			<vel value="0.0586203598084487" flag="0"/>
			<psa03 value="0.267737364403738" flag="0"/>
			<psa10 value="0.0438598903037594" flag="0"/>
			<psa30 value="0.00636413146938297" flag="0"/>
		</comp>
		<comp name="--.HNN" depth="0.0">
			<acc value="0.124692678865465" flag="0"/>
			<vel value="0.0508439600260249" flag="0"/>
			<psa03 value="0.16594884434717" flag="0"/>
			<psa10 value="0.0520222110571308" flag="0"/>
			<psa30 value="0.00504692090654105" flag="0"/>
		</comp>
		<comp name="--.HNZ" depth="0.0">
			<acc value="0.0686868831880009" flag="0"/>
			<vel value="0.0203603916825677" flag="0"/>
			<psa03 value="0.101162129163912" flag="0"/>
			<psa10 value="0.015833372078074" flag="0"/>
			<psa30 value="0.00201205703162368" flag="0"/>
		</comp>
	</station>
	<station code="LEOM" name="LEOM" netid="RO" source="Romanian Seismic Network (NIEP)" insttype="" lat="46.4733" lon="28.2467">
		<comp name="--.HNE" depth="0.0">
			<acc value="0.922015156146427" flag="0"/>
			<vel value="0.392116908609494" flag="0"/>
			<psa03 value="2.37348457668608" flag="0"/>
