<?xml version="1.0" encoding="UTF-8" standalone="yes"?>
<!DOCTYPE earthquake SYSTEM "stationlist.dtd">
<stationlist created="" xmlns="ch.ethz.sed.shakemap.usgs.xml">
  <station code="ZKR" name="ZKR" netid="GE" insttype="STS-2/N" lat="35.1147" lon="26.2169">
    <comp name="--.HHZ">
      <acc value="0.0015434928" flag="0"/>
      <vel value="0.0011224487" flag="0"/>
      <psa03 value="0.0037153961" flag="0"/>
      <psa10 value="0.0027384124" flag="0"/>
      <psa30 value="0.0002697959" flag="0"/>
    </comp>
    <comp name="--.HHE">
      <acc value="0.0024507035" flag="0"/>
      <vel value="0.0023709547" flag="0"/>
      <psa03 value="0.0068363205" flag="0"/>
      <psa10 value="0.0036211199" flag="0"/>
      <psa30 value="0.0002776841" flag="0"/>
    </comp>
    <comp name="--.HHN">
      <acc value="0.0011927396" flag="0"/>
      <vel value="0.0008875814" flag="0"/>
      <psa03 value="0.0038279306" flag="0"/>
      <psa10 value="0.0012328507" flag="0"/>
      <psa30 value="0.0002019795" flag="0"/>
    </comp>
  </station>
  <station code="STIA" name="STIA" netid="HC" insttype="120" lat="35.2021" lon="26.0909">
    <comp name="--.HHE">
      <acc value="0.0010149944" flag="0"/>
      <vel value="0.0006917474" flag="0"/>
      <psa03 value="0.0026475268" flag="0"/>
      <psa10 value="0.0011423678" flag="0"/>
      <psa30 value="0.0000455999" flag="0"/>
    </comp>
    <comp name="--.HHZ">
      <acc value="0.0005485605" flag="0"/>
      <vel value="0.0003092714" flag="0"/>
      <psa03 value="0.0011459496" flag="0"/>
      <psa10 value="0.0000909814" flag="0"/>
      <psa30 value="0.0000221978" flag="0"/>
    </comp>
    <comp name="--.HHN">
      <acc value="0.0012198353" flag="0"/>
      <vel value="0.0011956675" flag="0"/>
      <psa03 value="0.0025871303" flag="0"/>
      <psa10 value="0.0039566404" flag="0"/>
      <psa30 value="0.0001425946" flag="0"/>
    </comp>
  </station>
  <station code="ZKR" name="ZKR" netid="HL" insttype="120" lat="35.1147" lon="26.2169">
    <comp name="--.HHE">
      <acc value="0.0023940408" flag="0"/>
      <vel value="0.0023478754" flag="0"/>
      <psa03 value="0.0066566295" flag="0"/>
      <psa10 value="0.0035951603" flag="0"/>
      <psa30 value="0.0002777507" flag="0"/>
    </comp>
    <comp name="--.HHN">
      <acc value="0.0011670176" flag="0"/>
      <vel value="0.0008776305" flag="0"/>
      <psa03 value="0.0037349687" flag="0"/>
      <psa10 value="0.0012259340" flag="0"/>
      <psa30 value="0.0002017188" flag="0"/>
    </comp>
    <comp name="--.HHZ">
      <acc value="0.0015181298" flag="0"/>
      <vel value="0.0011102941" flag="0"/>
      <psa03 value="0.0036218743" flag="0"/>
      <psa10 value="0.0027198600" flag="0"/>
      <psa30 value="0.0002697609" flag="0"/>
    </comp>
  </station>
</stationlist>
