<?xml version="1.0" encoding="UTF-8" standalone="yes"?>
<!DOCTYPE earthquake SYSTEM "stationlist.dtd">
<stationlist created="" xmlns="ch.ethz.sed.shakemap.usgs.xml">
  <station code="KHMN" name="KHMN" netid="KO" insttype="CMG-5T" lat="37.3916" lon="37.1574">
    <comp name="--.HNE">
      <acc value="0.4666154918" flag="0"/>
      <vel value="0.1204300304" flag="0"/>
      <psa03 value="0.3821249525" flag="0"/>
      <psa10 value="0.0666232188" flag="0"/>
      <psa30 value="0.0161494586" flag="0"/>
    </comp>
    <comp name="--.HNN">
      <acc value="0.3094945600" flag="0"/>
      <vel value="0.0927996011" flag="0"/>
      <psa03 value="0.5490626436" flag="0"/>
      <psa10 value="0.0654869926" flag="0"/>
      <psa30 value="0.0116747701" flag="0"/>
    </comp>
    <comp name="--.HNZ">
      <acc value="0.2049750775" flag="0"/>
      <vel value="0.0526923119" flag="0"/>
      <psa03 value="0.1857865745" flag="0"/>
      <psa10 value="0.0276156712" flag="0"/>
      <psa30 value="0.0167837189" flag="0"/>
    </comp>
  </station>
  <station code="KRTS" name="KRTS" netid="KO" insttype="CMG-5T" lat="36.573" lon="35.375">
    <comp name="--.HNE">
      <acc value="0.0636377881" flag="0"/>
      <vel value="0.0739609838" flag="0"/>
      <psa03 value="0.1341533343" flag="0"/>
      <psa10 value="0.0908724437" flag="0"/>
      <psa30 value="0.0081135572" flag="0"/>
    </comp>
    <comp name="--.HNN">
      <acc value="0.0849339852" flag="0"/>
      <vel value="0.0792723833" flag="0"/>
      <psa03 value="0.2151051026" flag="0"/>
      <psa10 value="0.0844016910" flag="0"/>
      <psa30 value="0.0081270541" flag="0"/>
    </comp>
    <comp name="--.HNZ">
      <acc value="0.0360868732" flag="0"/>
      <vel value="0.0356552016" flag="0"/>
      <psa03 value="0.0971858422" flag="0"/>
      <psa10 value="0.0609984539" flag="0"/>
      <psa30 value="0.0168612719" flag="0"/>
    </comp>
  </station>
  <station code="ANDN" name="ANDN" netid="TU" insttype="T" lat="37.58" lon="36.3452">
    <comp name="--.HHN">
      <acc value="1.7631897556" flag="0"/>
      <vel value="0.5661564405" flag="0"/>
      <psa03 value="3.1015633844" flag="0"/>
      <psa10 value="0.3047295023" flag="0"/>
      <psa30 value="0.0265950180" flag="0"/>
    </comp>
    <comp name="--.HHE">
      <acc value="1.3822367958" flag="0"/>
      <vel value="0.3902423502" flag="0"/>
      <psa03 value="2.7827585415" flag="0"/>
      <psa10 value="0.6985779730" flag="0"/>
      <psa30 value="0.0414459359" flag="0"/>
    </comp>
    <comp name="--.HHZ">
      <acc value="0.5788366509" flag="0"/>
      <vel value="0.2663074297" flag="0"/>
      <psa03 value="0.7120112273" flag="0"/>
      <psa10 value="0.4071230973" flag="0"/>
      <psa30 value="0.0269710321" flag="0"/>
    </comp>
  </station>
</stationlist>
