<stationlist created="1778205350">
	<station code="KHMN" name="KHMN" netid="KO" source="Bogazici University Kandilli Observatory And Earthquake Research Institute (KOERI)" insttype="" lat="37.3916" lon="37.1574">
		<comp name="--.HNE" depth="0.0">
			<acc value="0.465155370169589" flag="0"/>
			<vel value="0.124406547134271" flag="0"/>
			<psa03 value="0.380581836678995" flag="0"/>
			<psa10 value="0.067324084890055" flag="0"/>
			<psa30 value="0.019621161472319" flag="0"/>
		</comp>
		<comp name="--.HNN" depth="0.0">
			<acc value="0.306198849559057" flag="0"/>
			<vel value="0.102937749233517" flag="0"/>
			<psa03 value="0.556170926927068" flag="0"/>
			<psa10 value="0.0663160406121541" flag="0"/>
			<psa30 value="0.0127966802172632" flag="0"/>
		</comp>
		<comp name="--.HNZ" depth="0.0">
			<acc value="0.185696491084533" flag="0"/>
			<vel value="0.0496407669887504" flag="0"/>
			<psa03 value="0.192124831494071" flag="0"/>
			<psa10 value="0.0277606608825359" flag="0"/>
			<psa30 value="0.0197930545260613" flag="0"/>
		</comp>
	</station>
	<station code="KRTS" name="KRTS" netid="KO" source="Bogazici University Kandilli Observatory And Earthquake Research Institute (KOERI)" insttype="" lat="36.573" lon="35.375">
		<comp name="--.HNE" depth="0.0">
			<acc value="0.0629539981279148" flag="0"/>
			<vel value="0.0666886947325834" flag="0"/>
			<psa03 value="0.132542707387051" flag="0"/>
			<psa10 value="0.0906530153173413" flag="0"/>
			<psa30 value="0.00847061780354527" flag="0"/>
		</comp>
		<comp name="--.HNN" depth="0.0">
			<acc value="0.0844286222785293" flag="0"/>
			<vel value="0.0810177095846163" flag="0"/>
			<psa03 value="0.214874567719085" flag="0"/>
			<psa10 value="0.0842997569452765" flag="0"/>
			<psa30 value="0.0103000506611523" flag="0"/>
		</comp>
		<comp name="--.HNZ" depth="0.0">
			<acc value="0.0360661659079383" flag="0"/>
			<vel value="0.0397605537074242" flag="0"/>
			<psa03 value="0.0986818809405028" flag="0"/>
			<psa10 value="0.0612372329159739" flag="0"/>
			<psa30 value="0.0197328188690763" flag="0"/>
		</comp>
	</station>
</stationlist>
