<?xml version="1.0" encoding="UTF-8" standalone="yes"?>
<!DOCTYPE earthquake SYSTEM "stationlist.dtd">
<stationlist created="" xmlns="ch.ethz.sed.shakemap.usgs.xml">
  <station code="KHMN" name="KHMN" netid="KO" insttype="CMG-5T" lat="37.3916" lon="37.1574">
    <comp name="--.HNZ">
      <acc value="0.2054012945" flag="0"/>
      <vel value="0.0496811521" flag="0"/>
      <psa03 value="0.1855001093" flag="0"/>
      <psa10 value="0.0279728188" flag="0"/>
      <psa30 value="0.0197431691" flag="0"/>
    </comp>
    <comp name="--.HNE">
      <acc value="0.4672388400" flag="0"/>
      <vel value="0.1207421172" flag="0"/>
      <psa03 value="0.3817857562" flag="0"/>
      <psa10 value="0.0673301022" flag="0"/>
      <psa30 value="0.0196196508" flag="0"/>
    </comp>
    <comp name="--.HNN">
      <acc value="0.3102896511" flag="0"/>
      <vel value="0.0983469013" flag="0"/>
      <psa03 value="0.5497310265" flag="0"/>
      <psa10 value="0.0660982450" flag="0"/>
      <psa30 value="0.0127943177" flag="0"/>
    </comp>
  </station>
  <station code="KRTS" name="KRTS" netid="KO" insttype="CMG-5T" lat="36.573" lon="35.375">
    <comp name="--.HNZ">
      <acc value="0.0361629023" flag="0"/>
      <vel value="0.0360613931" flag="0"/>
      <psa03 value="0.0972487091" flag="0"/>
      <psa10 value="0.0611392609" flag="0"/>
      <psa30 value="0.0197155061" flag="0"/>
    </comp>
    <comp name="--.HNN">
      <acc value="0.0847339269" flag="0"/>
      <vel value="0.0796513746" flag="0"/>
      <psa03 value="0.2150959417" flag="0"/>
      <psa10 value="0.0842143995" flag="0"/>
      <psa30 value="0.0101195350" flag="0"/>
    </comp>
    <comp name="--.HNE">
      <acc value="0.0634468880" flag="0"/>
      <vel value="0.0713252799" flag="0"/>
      <psa03 value="0.1339309494" flag="0"/>
      <psa10 value="0.0906685093" flag="0"/>
      <psa30 value="0.0083683113" flag="0"/>
    </comp>
  </station>
  <station code="ANDN" name="ANDN" netid="TU" insttype="T" lat="37.58" lon="36.3452">
    <comp name="--.HHE">
      <acc value="1.3837361876" flag="0"/>
      <vel value="0.3865609375" flag="0"/>
      <psa03 value="2.7851477200" flag="0"/>
      <psa10 value="0.6981511648" flag="0"/>
      <psa30 value="0.0462436379" flag="0"/>
    </comp>
    <comp name="--.HHZ">
      <acc value="0.5789775248" flag="0"/>
      <vel value="0.2664460321" flag="0"/>
      <psa03 value="0.7124397624" flag="0"/>
      <psa10 value="0.4078572920" flag="0"/>
      <psa30 value="0.0283299301" flag="0"/>
    </comp>
    <comp name="--.HHN">
      <acc value="1.7633533795" flag="0"/>
      <vel value="0.5672402467" flag="0"/>
      <psa03 value="3.1012470611" flag="0"/>
      <psa10 value="0.3040468689" flag="0"/>
      <psa30 value="0.0286325842" flag="0"/>
    </comp>
  </station>
</stationlist>
