<?xml version="1.0" encoding="UTF-8" standalone="yes"?>
<!DOCTYPE earthquake SYSTEM "stationlist.dtd">
<stationlist created="" xmlns="ch.ethz.sed.shakemap.usgs.xml">
  <station code="KHMN" name="KHMN" netid="KO" insttype="CMG-5T" lat="37.3916" lon="37.1574">
    <comp name="--.HNZ">
      <acc value="0.2054012354" flag="0"/>
      <vel value="0.0496811539" flag="0"/>
      <psa03 value="0.1855001093" flag="0"/>
      <psa10 value="0.0279728187" flag="0"/>
      <psa30 value="0.0197431356" flag="0"/>
    </comp>
    <comp name="--.HNE">
      <acc value="0.4672388343" flag="0"/>
      <vel value="0.1207421253" flag="0"/>
      <psa03 value="0.3817857562" flag="0"/>
      <psa10 value="0.0673301022" flag="0"/>
      <psa30 value="0.0196199988" flag="0"/>
    </comp>
    <comp name="--.HNN">
      <acc value="0.3102896489" flag="0"/>
      <vel value="0.0983469110" flag="0"/>
      <psa03 value="0.5497310265" flag="0"/>
      <psa10 value="0.0660982426" flag="0"/>
      <psa30 value="0.0127935581" flag="0"/>
    </comp>
  </station>
  <station code="KRTS" name="KRTS" netid="KO" insttype="CMG-5T" lat="36.573" lon="35.375">
    <comp name="--.HNZ">
      <acc value="0.0361628973" flag="0"/>
      <vel value="0.0360613814" flag="0"/>
      <psa03 value="0.0972487091" flag="0"/>
      <psa10 value="0.0611392604" flag="0"/>
      <psa30 value="0.0197153930" flag="0"/>
    </comp>
    <comp name="--.HNN">
      <acc value="0.0847339220" flag="0"/>
      <vel value="0.0796513737" flag="0"/>
      <psa03 value="0.2150959417" flag="0"/>
      <psa10 value="0.0842143996" flag="0"/>
      <psa30 value="0.0101195709" flag="0"/>
    </comp>
    <comp name="--.HNE">
      <acc value="0.0634468964" flag="0"/>
      <vel value="0.0713252836" flag="0"/>
      <psa03 value="0.1339309494" flag="0"/>
      <psa10 value="0.0906685094" flag="0"/>
      <psa30 value="0.0083683931" flag="0"/>
    </comp>
  </station>
  <station code="ANDN" name="ANDN" netid="TU" insttype="T" lat="37.58" lon="36.3452">
    <comp name="--.HHE">
      <acc value="1.3837361877" flag="0"/>
      <vel value="0.3865609382" flag="0"/>
      <psa03 value="2.7851477200" flag="0"/>
      <psa10 value="0.6981511648" flag="0"/>
      <psa30 value="0.0462436380" flag="0"/>
    </comp>
    <comp name="--.HHN">
      <acc value="1.7633533795" flag="0"/>
      <vel value="0.5672402481" flag="0"/>
      <psa03 value="3.1012470611" flag="0"/>
      <psa10 value="0.3040468688" flag="0"/>
      <psa30 value="0.0286325915" flag="0"/>
    </comp>
    <comp name="--.HHZ">
      <acc value="0.5789775246" flag="0"/>
      <vel value="0.2664460319" flag="0"/>
      <psa03 value="0.7124397624" flag="0"/>
      <psa10 value="0.4078572920" flag="0"/>
      <psa30 value="0.0283299302" flag="0"/>
    </comp>
  </station>
</stationlist>
