<?xml version="1.0" encoding="UTF-8" standalone="yes"?>
<!DOCTYPE earthquake SYSTEM "stationlist.dtd">
<stationlist created="" xmlns="ch.ethz.sed.shakemap.usgs.xml">
  <station code="UPC" name="UPC" netid="CZ" insttype="" lat="50.5074" lon="16.0121">
    <comp name="--.HHE">
      <acc value="0.0028042723" flag="0"/>
      <vel value="0.0013656999" flag="0"/>
      <psa03 value="0.0060444612" flag="0"/>
      <psa10 value="0.0008973426" flag="0"/>
      <psa30 value="0.0000456890" flag="0"/>
    </comp>
    <comp name="--.HHZ">
      <acc value="0.0015451918" flag="0"/>
      <vel value="0.0005192845" flag="0"/>
      <psa03 value="0.0031573695" flag="0"/>
      <psa10 value="0.0005320992" flag="0"/>
      <psa30 value="0.0000344338" flag="0"/>
    </comp>
    <comp name="--.HHN">
      <acc value="0.0027254973" flag="0"/>
      <vel value="0.0012363059" flag="0"/>
      <psa03 value="0.0073463574" flag="0"/>
      <psa10 value="0.0009475799" flag="0"/>
      <psa30 value="0.0000513384" flag="0"/>
    </comp>
  </station>
</stationlist>
