<?xml version="1.0" encoding="UTF-8" standalone="yes"?>
<!DOCTYPE earthquake SYSTEM "stationlist.dtd">
<stationlist created="" xmlns="ch.ethz.sed.shakemap.usgs.xml">
  <station code="KARS" name="KARS" netid="KO" insttype="120s," lat="40.6152" lon="43.0937">
    <comp name="--.HHE">
      <acc value="0.1044227712" flag="0"/>
      <vel value="0.0451415418" flag="0"/>
      <psa03 value="0.2759593042" flag="0"/>
      <psa10 value="0.0341333234" flag="0"/>
      <psa30 value="0.0101375374" flag="0"/>
    </comp>
    <comp name="--.HHN">
      <acc value="0.0768583976" flag="0"/>
      <vel value="0.0364616041" flag="0"/>
      <psa03 value="0.1819317026" flag="0"/>
      <psa10 value="0.0332447192" flag="0"/>
      <psa30 value="0.0045849010" flag="0"/>
    </comp>
    <comp name="--.HHZ">
      <acc value="0.0595169878" flag="0"/>
      <vel value="0.0349113925" flag="0"/>
      <psa03 value="0.1002687818" flag="0"/>
      <psa10 value="0.0438157221" flag="0"/>
      <psa30 value="0.0073042876" flag="0"/>
    </comp>
  </station>
  <station code="KOPR" name="KOPR" netid="KO" insttype="120s," lat="39.9917" lon="41.8535">
    <comp name="--.HHE">
      <acc value="0.0028600337" flag="0"/>
      <vel value="0.0052988492" flag="0"/>
      <psa03 value="0.0083553102" flag="0"/>
      <psa10 value="0.0059153890" flag="0"/>
      <psa30 value="0.0019511397" flag="0"/>
    </comp>
    <comp name="--.HHN">
      <acc value="0.0040549019" flag="0"/>
      <vel value="0.0034880642" flag="0"/>
      <psa03 value="0.0096198092" flag="0"/>
      <psa10 value="0.0038952856" flag="0"/>
      <psa30 value="0.0007293574" flag="0"/>
    </comp>
    <comp name="--.HHZ">
      <acc value="0.0027457319" flag="0"/>
      <vel value="0.0025646659" flag="0"/>
      <psa03 value="0.0077484019" flag="0"/>
      <psa10 value="0.0039624141" flag="0"/>
      <psa30 value="0.0016266892" flag="0"/>
    </comp>
  </station>
</stationlist>
