<?xml version="1.0" encoding="UTF-8" standalone="yes"?>
<!DOCTYPE earthquake SYSTEM "stationlist.dtd">
<stationlist created="" xmlns="ch.ethz.sed.shakemap.usgs.xml">
  <station code="CERN1" name="CERN1" netid="C4" source="SED" insttype="CMG-6T" lat="46.2359" lon="6.05484">
    <comp name="--.HH2">
      <acc value="0.0085930601" flag="0"/>
      <vel value="0.0071086948" flag="0"/>
      <psa03 value="0.0074873957" flag="0"/>
      <psa10 value="0.0116780706" flag="0"/>
      <psa30 value="0.0013224014" flag="0"/>
    </comp>
    <comp name="--.HH3">
      <acc value="0.0119201285" flag="0"/>
      <vel value="0.0076595102" flag="0"/>
      <psa03 value="0.0059852222" flag="0"/>
      <psa10 value="0.0125438037" flag="0"/>
      <psa30 value="0.0028962677" flag="0"/>
    </comp>
    <comp name="--.HHZ">
      <acc value="0.0054218956" flag="0"/>
      <vel value="0.0051994690" flag="0"/>
      <psa03 value="0.0067675343" flag="0"/>
      <psa10 value="0.0089973796" flag="0"/>
      <psa30 value="0.0026727749" flag="0"/>
    </comp>
  </station>
  <station code="CERN5" name="CERN5" netid="C4" source="SED" insttype="CMG-6T" lat="46.3099" lon="6.07608">
    <comp name="--.HH2">
      <acc value="0.0108468251" flag="0"/>
      <vel value="0.0102337772" flag="0"/>
      <psa03 value="0.0103622522" flag="0"/>
      <psa10 value="0.0159976924" flag="0"/>
      <psa30 value="0.0032767295" flag="0"/>
    </comp>
    <comp name="--.HH3">
      <acc value="0.0090834352" flag="0"/>
      <vel value="0.0063312770" flag="0"/>
      <psa03 value="0.0094279344" flag="0"/>
      <psa10 value="0.0160060793" flag="0"/>
      <psa30 value="0.0021729607" flag="0"/>
    </comp>
    <comp name="--.HHZ">
      <acc value="0.0086617091" flag="0"/>
      <vel value="0.0073908988" flag="0"/>
      <psa03 value="0.0090712585" flag="0"/>
      <psa10 value="0.0080266888" flag="0"/>
      <psa30 value="0.0031718819" flag="0"/>
    </comp>
  </station>
  <station code="CERNS" name="CERNS" netid="C4" source="SED" insttype="CMG-40T" lat="46.2669" lon="6.06621">
    <comp name="--.HHE">
      <acc value="0.0243509954" flag="0"/>
      <vel value="0.0097373035" flag="0"/>
      <psa03 value="0.0238359549" flag="0"/>
      <psa10 value="0.0144916925" flag="0"/>
      <psa30 value="0.0029629377" flag="0"/>
    </comp>
    <comp name="--.HHN">
      <acc value="0.0194089783" flag="0"/>
      <vel value="0.0088830080" flag="0"/>
      <psa03 value="0.0301841686" flag="0"/>
      <psa10 value="0.0089499760" flag="0"/>
      <psa30 value="0.0025526862" flag="0"/>
    </comp>
    <comp name="--.HHZ">
      <acc value="0.0113391220" flag="0"/>
      <vel value="0.0063232312" flag="0"/>
      <psa03 value="0.0099834803" flag="0"/>
      <psa10 value="0.0131910670" flag="0"/>
      <psa30 value="0.0031835372" flag="0"/>
    </comp>
  </station>
  <station code="AIGLE" name="AIGLE" netid="CH" source="SED" insttype="Trillium 240s_g2" lat="46.3418" lon="6.95295">
    <comp name="--.HHE">
      <acc value="0.1631097327" flag="0"/>
      <vel value="0.0706046283" flag="0"/>
      <psa03 value="0.3357317610" flag="0"/>
      <psa10 value="0.0431338589" flag="0"/>
      <psa30 value="0.0032393051" flag="0"/>
    </comp>
    <comp name="--.HHN">
      <acc value="0.0879254209" flag="0"/>
      <vel value="0.0357462120" flag="0"/>
      <psa03 value="0.1697739812" flag="0"/>
      <psa10 value="0.0357032603" flag="0"/>
      <psa30 value="0.0018101236" flag="0"/>
    </comp>
    <comp name="--.HHZ">
      <acc value="0.0803073259" flag="0"/>
      <vel value="0.0245746977" flag="0"/>
      <psa03 value="0.1388734331" flag="0"/>
      <psa10 value="0.0139149422" flag="0"/>
      <psa30 value="0.0029324796" flag="0"/>
    </comp>
  </station>
  <station code="BOURR" name="BOURR" netid="CH" source="SED" insttype="STS2.5" lat="47.3936" lon="7.2301">
    <comp name="--.HHE">
      <acc value="0.0058023077" flag="0"/>
      <vel value="0.0040112572" flag="0"/>
      <psa03 value="0.0122034758" flag="0"/>
      <psa10 value="0.0054448276" flag="0"/>
      <psa30 value="0.0010740619" flag="0"/>
    </comp>
    <comp name="--.HHN">
      <acc value="0.0040651024" flag="0"/>
      <vel value="0.0040301528" flag="0"/>
      <psa03 value="0.0110358205" flag="0"/>
      <psa10 value="0.0074357411" flag="0"/>
      <psa30 value="0.0008187777" flag="0"/>
    </comp>
    <comp name="--.HHZ">
      <acc value="0.0066144031" flag="0"/>
      <vel value="0.0037520275" flag="0"/>
      <psa03 value="0.0246573868" flag="0"/>
      <psa10 value="0.0045709842" flag="0"/>
      <psa30 value="0.0007621810" flag="0"/>
    </comp>
  </station>
  <station code="BRANT" name="BRANT" netid="CH" source="SED" insttype="STS2.5" lat="46.938" lon="6.47298">
    <comp name="--.HHE">
      <acc value="0.0038728599" flag="0"/>
      <vel value="0.0020658780" flag="0"/>
      <psa03 value="0.0080660405" flag="0"/>
      <psa10 value="0.0035657665" flag="0"/>
      <psa30 value="0.0004488174" flag="0"/>
    </comp>
    <comp name="--.HHN">
      <acc value="0.0037103198" flag="0"/>
      <vel value="0.0018850655" flag="0"/>
      <psa03 value="0.0063743376" flag="0"/>
      <psa10 value="0.0021152394" flag="0"/>
      <psa30 value="0.0006388902" flag="0"/>
    </comp>
    <comp name="--.HHZ">
      <acc value="0.0039901648" flag="0"/>
      <vel value="0.0030011120" flag="0"/>
      <psa03 value="0.0081143310" flag="0"/>
      <psa10 value="0.0042057023" flag="0"/>
      <psa30 value="0.0009981118" flag="0"/>
    </comp>
  </station>
  <station code="EMBD" name="EMBD" netid="CH" source="SED" insttype="Trillium 40s" lat="46.2165" lon="7.83223">
    <comp name="--.HHE">
      <acc value="0.0074114578" flag="0"/>
      <vel value="0.0027954775" flag="0"/>
      <psa03 value="0.0099639745" flag="0"/>
      <psa10 value="0.0029707364" flag="0"/>
      <psa30 value="0.0002431435" flag="0"/>
    </comp>
    <comp name="--.HHN">
      <acc value="0.0061935186" flag="0"/>
      <vel value="0.0025798176" flag="0"/>
      <psa03 value="0.0199844323" flag="0"/>
      <psa10 value="0.0029986879" flag="0"/>
      <psa30 value="0.0004626241" flag="0"/>
    </comp>
    <comp name="--.HHZ">
      <acc value="0.0067049786" flag="0"/>
      <vel value="0.0021291410" flag="0"/>
      <psa03 value="0.0141743057" flag="0"/>
      <psa10 value="0.0025546094" flag="0"/>
      <psa30 value="0.0004367759" flag="0"/>
    </comp>
  </station>
  <station code="FIESA" name="FIESA" netid="CH" source="SED" insttype="STS2_gen2" lat="46.4352" lon="8.11051">
    <comp name="--.HHE">
      <acc value="0.0045301362" flag="0"/>
      <vel value="0.0028994228" flag="0"/>
      <psa03 value="0.0146195105" flag="0"/>
      <psa10 value="0.0037731815" flag="0"/>
      <psa30 value="0.0009305987" flag="0"/>
    </comp>
    <comp name="--.HHN">
      <acc value="0.0057233079" flag="0"/>
      <vel value="0.0053018312" flag="0"/>
      <psa03 value="0.0163158048" flag="0"/>
      <psa10 value="0.0081021409" flag="0"/>
      <psa30 value="0.0013324741" flag="0"/>
    </comp>
    <comp name="--.HHZ">
      <acc value="0.0056133567" flag="0"/>
      <vel value="0.0044003559" flag="0"/>
      <psa03 value="0.0191253908" flag="0"/>
      <psa10 value="0.0050683955" flag="0"/>
      <psa30 value="0.0003581257" flag="0"/>
    </comp>
  </station>
  <station code="FULLY" name="FULLY" netid="CH" source="SED" insttype="Trillium Compact 120s" lat="46.1563" lon="7.13579">
    <comp name="--.HHE">
      <acc value="0.0758085052" flag="0"/>
      <vel value="0.0199390337" flag="0"/>
      <psa03 value="0.0816971919" flag="0"/>
      <psa10 value="0.0081762879" flag="0"/>
      <psa30 value="0.0010329316" flag="0"/>
    </comp>
    <comp name="--.HHN">
      <acc value="0.0494199911" flag="0"/>
      <vel value="0.0145822290" flag="0"/>
      <psa03 value="0.0801443005" flag="0"/>
      <psa10 value="0.0045960691" flag="0"/>
      <psa30 value="0.0009843266" flag="0"/>
    </comp>
    <comp name="--.HHZ">
      <acc value="0.0726603814" flag="0"/>
      <vel value="0.0164594932" flag="0"/>
      <psa03 value="0.0780429044" flag="0"/>
      <psa10 value="0.0042730642" flag="0"/>
      <psa30 value="0.0007200779" flag="0"/>
    </comp>
  </station>
  <station code="GIMEL" name="GIMEL" netid="CH" source="SED" insttype="Trillium 240s_g2" lat="46.5336" lon="6.26545">
    <comp name="--.HHE">
      <acc value="0.0126948276" flag="0"/>
      <vel value="0.0056677425" flag="0"/>
      <psa03 value="0.0247860922" flag="0"/>
      <psa10 value="0.0100659004" flag="0"/>
      <psa30 value="0.0010095244" flag="0"/>
    </comp>
    <comp name="--.HHN">
      <acc value="0.0128974480" flag="0"/>
      <vel value="0.0068710664" flag="0"/>
      <psa03 value="0.0322942476" flag="0"/>
      <psa10 value="0.0105908098" flag="0"/>
      <psa30 value="0.0017182653" flag="0"/>
    </comp>
    <comp name="--.HHZ">
      <acc value="0.0099937009" flag="0"/>
      <vel value="0.0064810714" flag="0"/>
      <psa03 value="0.0200239811" flag="0"/>
      <psa10 value="0.0078156906" flag="0"/>
      <psa30 value="0.0023768530" flag="0"/>
    </comp>
  </station>
  <station code="GRIMS" name="GRIMS" netid="CH" source="SED" insttype="STS2_gen3" lat="46.5781" lon="8.31886">
    <comp name="--.HHE">
      <acc value="0.0050892018" flag="0"/>
      <vel value="0.0033102280" flag="0"/>
      <psa03 value="0.0147108844" flag="0"/>
      <psa10 value="0.0094158077" flag="0"/>
      <psa30 value="0.0002356757" flag="0"/>
    </comp>
    <comp name="--.HHN">
      <acc value="0.0060846098" flag="0"/>
      <vel value="0.0035559553" flag="0"/>
      <psa03 value="0.0223896236" flag="0"/>
      <psa10 value="0.0077135266" flag="0"/>
      <psa30 value="0.0003184338" flag="0"/>
    </comp>
    <comp name="--.HHZ">
      <acc value="0.0069965021" flag="0"/>
      <vel value="0.0035547130" flag="0"/>
      <psa03 value="0.0166156635" flag="0"/>
      <psa10 value="0.0080086044" flag="0"/>
      <psa30 value="0.0003212034" flag="0"/>
    </comp>
  </station>
  <station code="HASLI" name="HASLI" netid="CH" source="SED" insttype="STS2_gen3" lat="46.7568" lon="8.15117">
    <comp name="--.HHE">
      <acc value="0.0069782957" flag="0"/>
      <vel value="0.0051780925" flag="0"/>
      <psa03 value="0.0150155787" flag="0"/>
      <psa10 value="0.0056379582" flag="0"/>
      <psa30 value="0.0003155193" flag="0"/>
    </comp>
    <comp name="--.HHN">
      <acc value="0.0078114388" flag="0"/>
      <vel value="0.0058167647" flag="0"/>
      <psa03 value="0.0378549217" flag="0"/>
      <psa10 value="0.0052500800" flag="0"/>
      <psa30 value="0.0005798959" flag="0"/>
    </comp>
    <comp name="--.HHZ">
      <acc value="0.0074841559" flag="0"/>
      <vel value="0.0034000288" flag="0"/>
      <psa03 value="0.0213070039" flag="0"/>
      <psa10 value="0.0029014843" flag="0"/>
      <psa30 value="0.0004305722" flag="0"/>
    </comp>
  </station>
  <station code="ILLEZ" name="ILLEZ" netid="CH" source="SED" insttype="Trillium Compact 120s" lat="46.2193" lon="6.94038">
    <comp name="--.HHE">
      <acc value="0.2188279428" flag="0"/>
      <vel value="0.0563615396" flag="0"/>
      <psa03 value="0.1775399395" flag="0"/>
      <psa10 value="0.0196555443" flag="0"/>
      <psa30 value="0.0020120016" flag="0"/>
    </comp>
    <comp name="--.HHN">
      <acc value="0.2292459067" flag="0"/>
      <vel value="0.0568978519" flag="0"/>
      <psa03 value="0.1631394825" flag="0"/>
      <psa10 value="0.0219529026" flag="0"/>
      <psa30 value="0.0024757559" flag="0"/>
    </comp>
    <comp name="--.HHZ">
      <acc value="0.0982862240" flag="0"/>
      <vel value="0.0289151358" flag="0"/>
      <psa03 value="0.1233693386" flag="0"/>
      <psa10 value="0.0159832068" flag="0"/>
      <psa30 value="0.0017671532" flag="0"/>
    </comp>
  </station>
  <station code="JAUN" name="JAUN" netid="CH" source="SED" insttype="Trillium 240s_g2" lat="46.6339" lon="7.29096">
    <comp name="--.HHE">
      <acc value="0.0213401094" flag="0"/>
      <vel value="0.0103200209" flag="0"/>
      <psa03 value="0.0555734806" flag="0"/>
      <psa10 value="0.0187425297" flag="0"/>
      <psa30 value="0.0009076837" flag="0"/>
    </comp>
    <comp name="--.HHN">
      <acc value="0.0256803985" flag="0"/>
      <vel value="0.0149457787" flag="0"/>
      <psa03 value="0.0786062890" flag="0"/>
      <psa10 value="0.0190320825" flag="0"/>
      <psa30 value="0.0013593649" flag="0"/>
    </comp>
    <comp name="--.HHZ">
      <acc value="0.0196733086" flag="0"/>
      <vel value="0.0126814416" flag="0"/>
      <psa03 value="0.0606673968" flag="0"/>
      <psa10 value="0.0126002881" flag="0"/>
      <psa30 value="0.0014947410" flag="0"/>
    </comp>
  </station>
  <station code="LAUCH" name="LAUCH" netid="CH" source="SED" insttype="Trillium 40s" lat="46.4155" lon="7.77166">
    <comp name="--.HHE">
      <acc value="0.0447155203" flag="0"/>
      <vel value="0.0148467191" flag="0"/>
      <psa03 value="0.0483022397" flag="0"/>
      <psa10 value="0.0082514782" flag="0"/>
      <psa30 value="0.0008355183" flag="0"/>
    </comp>
    <comp name="--.HHN">
      <acc value="0.0192067448" flag="0"/>
      <vel value="0.0050397937" flag="0"/>
      <psa03 value="0.0313058047" flag="0"/>
      <psa10 value="0.0045135121" flag="0"/>
      <psa30 value="0.0004161849" flag="0"/>
    </comp>
    <comp name="--.HHZ">
      <acc value="0.0143777125" flag="0"/>
      <vel value="0.0045996037" flag="0"/>
      <psa03 value="0.0167462004" flag="0"/>
      <psa10 value="0.0072283818" flag="0"/>
      <psa30 value="0.0009664746" flag="0"/>
    </comp>
  </station>
  <station code="LAVEY" name="LAVEY" netid="CH" source="SED" insttype="EpiSensor ES-T" lat="46.2" lon="7.02278">
    <comp name="SF.HGE">
      <acc value="0.5200154084" flag="0"/>
      <vel value="0.0852678814" flag="0"/>
      <psa03 value="0.1449193129" flag="0"/>
      <psa10 value="0.0139856209" flag="0"/>
      <psa30 value="0.0009358028" flag="0"/>
    </comp>
    <comp name="SF.HGN">
      <acc value="0.2601177373" flag="0"/>
      <vel value="0.0549173944" flag="0"/>
      <psa03 value="0.0964168525" flag="0"/>
      <psa10 value="0.0098155477" flag="0"/>
      <psa30 value="0.0015661481" flag="0"/>
    </comp>
    <comp name="SF.HGZ">
      <acc value="0.1832651321" flag="0"/>
      <vel value="0.0246343311" flag="0"/>
      <psa03 value="0.0911587176" flag="0"/>
      <psa10 value="0.0061077684" flag="0"/>
      <psa30 value="0.0008362406" flag="0"/>
    </comp>
  </station>
  <station code="MMK" name="MMK" netid="CH" source="SED" insttype="STS2.5" lat="46.0507" lon="7.96409">
    <comp name="--.HHE">
      <acc value="0.0016971359" flag="0"/>
      <vel value="0.0004210618" flag="0"/>
      <psa03 value="0.0026153659" flag="0"/>
      <psa10 value="0.0002525805" flag="0"/>
      <psa30 value="0.0000339222" flag="0"/>
    </comp>
    <comp name="--.HHN">
      <acc value="0.0017493036" flag="0"/>
      <vel value="0.0005075843" flag="0"/>
      <psa03 value="0.0019671778" flag="0"/>
      <psa10 value="0.0004535193" flag="0"/>
      <psa30 value="0.0000295338" flag="0"/>
    </comp>
    <comp name="--.HHZ">
      <acc value="0.0022706247" flag="0"/>
      <vel value="0.0006892464" flag="0"/>
      <psa03 value="0.0032248388" flag="0"/>
      <psa10 value="0.0002381021" flag="0"/>
      <psa30 value="0.0000415760" flag="0"/>
    </comp>
  </station>
  <station code="MTI02" name="MTI02" netid="CH" source="SED" insttype="STS2.5" lat="47.3793" lon="7.16525">
    <comp name="--.HHE">
      <acc value="0.0070138571" flag="0"/>
      <vel value="0.0034402210" flag="0"/>
      <psa03 value="0.0110355575" flag="0"/>
      <psa10 value="0.0029673067" flag="0"/>
      <psa30 value="0.0006675982" flag="0"/>
    </comp>
    <comp name="--.HHN">
      <acc value="0.0072507035" flag="0"/>
      <vel value="0.0043354500" flag="0"/>
      <psa03 value="0.0110534779" flag="0"/>
      <psa10 value="0.0043415383" flag="0"/>
      <psa30 value="0.0006663545" flag="0"/>
    </comp>
    <comp name="--.HHZ">
      <acc value="0.0062842723" flag="0"/>
      <vel value="0.0025944912" flag="0"/>
      <psa03 value="0.0159307798" flag="0"/>
      <psa10 value="0.0028500549" flag="0"/>
      <psa30 value="0.0010404209" flag="0"/>
    </comp>
  </station>
  <station code="SAIG" name="SAIG" netid="CH" source="SED" insttype="EpiSensor ES-T" lat="46.3172" lon="6.9666">
    <comp name="--.HGE">
      <acc value="2.6812328198" flag="0"/>
      <vel value="0.4112704181" flag="0"/>
      <psa03 value="0.5971289852" flag="0"/>
      <psa10 value="0.0494492563" flag="0"/>
      <psa30 value="0.0038297232" flag="0"/>
    </comp>
    <comp name="--.HGN">
      <acc value="1.9441464208" flag="0"/>
      <vel value="0.2701023648" flag="0"/>
      <psa03 value="0.6381645566" flag="0"/>
      <psa10 value="0.0601591134" flag="0"/>
      <psa30 value="0.0040323133" flag="0"/>
    </comp>
    <comp name="--.HGZ">
      <acc value="0.6307213721" flag="0"/>
      <vel value="0.1083164123" flag="0"/>
      <psa03 value="0.3364058257" flag="0"/>
      <psa10 value="0.0184367309" flag="0"/>
      <psa30 value="0.0027774181" flag="0"/>
    </comp>
  </station>
  <station code="SAIRA" name="SAIRA" netid="CH" source="SED" insttype="Trillium Compact 120s" lat="47.3027" lon="7.08645">
    <comp name="--.HHE">
      <acc value="0.0126871062" flag="0"/>
      <vel value="0.0079180213" flag="0"/>
      <psa03 value="0.0347040996" flag="0"/>
      <psa10 value="0.0091410677" flag="0"/>
      <psa30 value="0.0012341081" flag="0"/>
    </comp>
    <comp name="--.HHN">
      <acc value="0.0140687943" flag="0"/>
      <vel value="0.0085291867" flag="0"/>
      <psa03 value="0.0279516486" flag="0"/>
      <psa10 value="0.0077449085" flag="0"/>
      <psa30 value="0.0014424006" flag="0"/>
    </comp>
    <comp name="--.HHZ">
      <acc value="0.0071476136" flag="0"/>
      <vel value="0.0049977267" flag="0"/>
      <psa03 value="0.0138657687" flag="0"/>
      <psa10 value="0.0050663950" flag="0"/>
      <psa30 value="0.0010272201" flag="0"/>
    </comp>
  </station>
  <station code="SALAN" name="SALAN" netid="CH" source="SED" insttype="STS2.5" lat="46.1442" lon="6.97302">
    <comp name="--.HHE">
      <acc value="0.0836592189" flag="0"/>
      <vel value="0.0287176721" flag="0"/>
      <psa03 value="0.1257164468" flag="0"/>
      <psa10 value="0.0108544820" flag="0"/>
      <psa30 value="0.0018597167" flag="0"/>
    </comp>
    <comp name="--.HHN">
      <acc value="0.0824270569" flag="0"/>
      <vel value="0.0216035971" flag="0"/>
      <psa03 value="0.1082248870" flag="0"/>
      <psa10 value="0.0063145617" flag="0"/>
      <psa30 value="0.0011340534" flag="0"/>
    </comp>
    <comp name="--.HHZ">
      <acc value="0.0699489833" flag="0"/>
      <vel value="0.0207693901" flag="0"/>
      <psa03 value="0.0912753462" flag="0"/>
      <psa10 value="0.0070170596" flag="0"/>
      <psa30 value="0.0010322449" flag="0"/>
    </comp>
  </station>
  <station code="SAVIG" name="SAVIG" netid="CH" source="SED" insttype="Trillium Compact 120s" lat="46.0659" lon="5.97343">
    <comp name="--.HHE">
      <acc value="0.0539371815" flag="0"/>
      <vel value="0.0155337557" flag="0"/>
      <psa03 value="0.0383558991" flag="0"/>
      <psa10 value="0.0139290835" flag="0"/>
      <psa30 value="0.0019626451" flag="0"/>
    </comp>
    <comp name="--.HHN">
      <acc value="0.0341799953" flag="0"/>
      <vel value="0.0094331643" flag="0"/>
      <psa03 value="0.0207722016" flag="0"/>
      <psa10 value="0.0178877371" flag="0"/>
      <psa30 value="0.0020893390" flag="0"/>
    </comp>
    <comp name="--.HHZ">
      <acc value="0.0119866832" flag="0"/>
      <vel value="0.0090427637" flag="0"/>
      <psa03 value="0.0121543583" flag="0"/>
      <psa10 value="0.0098472240" flag="0"/>
      <psa30 value="0.0021353207" flag="0"/>
    </comp>
  </station>
