<stationlist created="1778118915">
	<station code="CERNS" name="CERNS" netid="C4" source="CERN Seismic Network" insttype="" lat="46.266947" lon="6.066212">
		<comp name="--.HGE" depth="0.0">
			<acc value="0.0107530399947165" flag="0"/>
			<vel value="0.00459212134105316" flag="0"/>
			<psa03 value="0.0109170984148583" flag="0"/>
			<psa10 value="0.00687374520276509" flag="0"/>
			<psa30 value="0.00152973604427871" flag="0"/>
		</comp>
		<comp name="--.HGN" depth="0.0">
			<acc value="0.00911624848464177" flag="0"/>
			<vel value="0.00468241368374977" flag="0"/>
			<psa03 value="0.0148991548038845" flag="0"/>
			<psa10 value="0.00463484518358677" flag="0"/>
			<psa30 value="0.00145009491649819" flag="0"/>
		</comp>
		<comp name="--.HGZ" depth="0.0">
			<acc value="0.00458422406207633" flag="0"/>
			<vel value="0.00328195316444717" flag="0"/>
			<psa03 value="0.00496638493462817" flag="0"/>
			<psa10 value="0.00658381570387869" flag="0"/>
			<psa30 value="0.00169393994256777" flag="0"/>
		</comp>
	</station>
	<station code="ACB" name="ACB" netid="CH" source="Switzerland Seismological Network" insttype="" lat="47.58772" lon="8.25474">
		<comp name="--.HGE" depth="0.0">
			<acc value="0.0104552873892173" flag="0"/>
			<vel value="0.00943986819893344" flag="0"/>
			<psa03 value="0.0280086213430381" flag="0"/>
			<psa10 value="0.0098817637537115" flag="0"/>
			<psa30 value="0.000570910556449147" flag="0"/>
		</comp>
		<comp name="--.HGN" depth="0.0">
			<acc value="0.0109723365847708" flag="0"/>
			<vel value="0.00796777047927141" flag="0"/>
			<psa03 value="0.0236686273010658" flag="0"/>
			<psa10 value="0.00899989486126536" flag="0"/>
			<psa30 value="0.000653236216626767" flag="0"/>
		</comp>
		<comp name="--.HGZ" depth="0.0">
			<acc value="0.00645318562552148" flag="0"/>
			<vel value="0.00460981986978096" flag="0"/>
			<psa03 value="0.0176284294075991" flag="0"/>
			<psa10 value="0.00562946443671095" flag="0"/>
			<psa30 value="0.000379413912122944" flag="0"/>
		</comp>
	</station>
	<station code="AIGLE" name="AIGLE" netid="CH" source="Switzerland Seismological Network" insttype="" lat="46.34176" lon="6.95295">
		<comp name="--.HGE" depth="0.0">
			<acc value="0.168057606426528" flag="0"/>
			<vel value="0.072617308669218" flag="0"/>
			<psa03 value="0.358340332805739" flag="0"/>
			<psa10 value="0.0460826831285552" flag="0"/>
			<psa30 value="0.00370599697419145" flag="0"/>
		</comp>
		<comp name="--.HGN" depth="0.0">
			<acc value="0.0810137068852848" flag="0"/>
			<vel value="0.0316921972587659" flag="0"/>
			<psa03 value="0.139103520376207" flag="0"/>
			<psa10 value="0.0362975625411391" flag="0"/>
			<psa30 value="0.00206216830303614" flag="0"/>
		</comp>
		<comp name="--.HGZ" depth="0.0">
			<acc value="0.0810226053481872" flag="0"/>
			<vel value="0.0251633776842746" flag="0"/>
			<psa03 value="0.142369701459341" flag="0"/>
			<psa10 value="0.014315269007516" flag="0"/>
			<psa30 value="0.00328810476437679" flag="0"/>
		</comp>
	</station>
	<station code="BIBA" name="BIBA" netid="CH" source="Switzerland Seismological Network" insttype="" lat="46.30255" lon="7.93038">
		<comp name="--.HGE" depth="0.0">
			<acc value="0.0127495286364785" flag="0"/>
			<vel value="0.00456612248528766" flag="0"/>
			<psa03 value="0.0195523442921848" flag="0"/>
			<psa10 value="0.00237983797002587" flag="0"/>
			<psa30 value="0.000198655397385127" flag="0"/>
		</comp>
		<comp name="--.HGN" depth="0.0">
			<acc value="0.0114639933305295" flag="0"/>
			<vel value="0.00412246641974924" flag="0"/>
			<psa03 value="0.0146754437707931" flag="0"/>
			<psa10 value="0.00215433724866978" flag="0"/>
			<psa30 value="0.0003391459261665" flag="0"/>
		</comp>
		<comp name="--.HGZ" depth="0.0">
			<acc value="0.0096487449491362" flag="0"/>
			<vel value="0.00237080208622478" flag="0"/>
			<psa03 value="0.0127067866795892" flag="0"/>
			<psa10 value="0.00166709461859681" flag="0"/>
			<psa30 value="0.000203129618046954" flag="0"/>
		</comp>
	</station>
	<station code="BNALP" name="BNALP" netid="CH" source="Switzerland Seismological Network" insttype="" lat="46.87034" lon="8.4249">
		<comp name="--.HGE" depth="0.0">
			<acc value="0.00401394822102269" flag="0"/>
			<vel value="0.00250116690201736" flag="0"/>
			<psa03 value="0.0110065828280949" flag="0"/>
			<psa10 value="0.00237581117143023" flag="0"/>
			<psa30 value="0.000300220206408603" flag="0"/>
		</comp>
		<comp name="--.HGN" depth="0.0">
			<acc value="0.00625307597168062" flag="0"/>
			<vel value="0.00297706622618043" flag="0"/>
			<psa03 value="0.0211183215238243" flag="0"/>
			<psa10 value="0.00260131189278632" flag="0"/>
			<psa30 value="0.00051364053197776" flag="0"/>
		</comp>
		<comp name="--.HGZ" depth="0.0">
			<acc value="0.00409165633468674" flag="0"/>
			<vel value="0.00186817831556254" flag="0"/>
			<psa03 value="0.00711401085230521" flag="0"/>
			<psa10 value="0.00238789156721716" flag="0"/>
			<psa30 value="0.000351226321953433" flag="0"/>
		</comp>
	</station>
	<station code="BOBI" name="BOBI" netid="CH" source="Switzerland Seismological Network" insttype="" lat="47.54631" lon="8.33985">
		<comp name="SF.HGE" depth="1.0">
			<acc value="0.00911059057469129" flag="0"/>
			<vel value="0.00453617349796021" flag="0"/>
			<psa03 value="0.0255477999790332" flag="0"/>
			<psa10 value="0.00359190434731486" flag="0"/>
			<psa30 value="0.000435789092461967" flag="0"/>
		</comp>
		<comp name="SF.HGN" depth="1.0">
			<acc value="0.00966518585508325" flag="0"/>
			<vel value="0.00541689909777383" flag="0"/>
			<psa03 value="0.0290376920952584" flag="0"/>
			<psa10 value="0.00614489465695344" flag="0"/>
			<psa30 value="0.000782541193753573" flag="0"/>
		</comp>
		<comp name="SF.HGZ" depth="1.0">
			<acc value="0.00699029356521251" flag="0"/>
			<vel value="0.00461912660082179" flag="0"/>
			<psa03 value="0.0336013971703221" flag="0"/>
			<psa10 value="0.00481605112039077" flag="0"/>
			<psa30 value="0.000608941432074678" flag="0"/>
		</comp>
	</station>
	<station code="BOURR" name="BOURR" netid="CH" source="Switzerland Seismological Network" insttype="" lat="47.39364" lon="7.2301">
		<comp name="--.HGE" depth="0.0">
			<acc value="0.00587731036012902" flag="0"/>
			<vel value="0.00401100784991169" flag="0"/>
			<psa03 value="0.0120803957869334" flag="0"/>
			<psa10 value="0.00552879447181984" flag="0"/>
			<psa30 value="0.00129573430366515" flag="0"/>
		</comp>
		<comp name="--.HGN" depth="0.0">
			<acc value="0.00412161164445378" flag="0"/>
			<vel value="0.00420925239232422" flag="0"/>
			<psa03 value="0.0111408094479497" flag="0"/>
			<psa10 value="0.00757440815840723" flag="0"/>
			<psa30 value="0.000918110079806936" flag="0"/>
		</comp>
		<comp name="--.HGZ" depth="0.0">
			<acc value="0.00664724197234562" flag="0"/>
			<vel value="0.00386611610773857" flag="0"/>
			<psa03 value="0.0246529558466677" flag="0"/>
			<psa10 value="0.00459055039903468" flag="0"/>
			<psa30 value="0.000883211158644684" flag="0"/>
		</comp>
	</station>
	<station code="FIESA" name="FIESA" netid="CH" source="Switzerland Seismological Network" insttype="" lat="46.43521" lon="8.11051">
		<comp name="--.HGE" depth="0.0">
			<acc value="0.00462041478939157" flag="0"/>
			<vel value="0.00285410249427162" flag="0"/>
			<psa03 value="0.0149438970105028" flag="0"/>
			<psa10 value="0.00343485920208472" flag="0"/>
			<psa30 value="0.00119148496224458" flag="0"/>
		</comp>
		<comp name="--.HGN" depth="0.0">
			<acc value="0.00580363595752418" flag="0"/>
			<vel value="0.00500644835249452" flag="0"/>
			<psa03 value="0.0167783274818519" flag="0"/>
			<psa10 value="0.00831131230141016" flag="0"/>
			<psa30 value="0.00154584323866129" flag="0"/>
		</comp>
		<comp name="--.HGZ" depth="0.0">
			<acc value="0.00574260744472422" flag="0"/>
			<vel value="0.00457390764957998" flag="0"/>
			<psa03 value="0.0194181176723299" flag="0"/>
			<psa10 value="0.00513416820944668" flag="0"/>
			<psa30 value="0.000429077761469226" flag="0"/>
		</comp>
	</station>
	<station code="FUSIO" name="FUSIO" netid="CH" source="Switzerland Seismological Network" insttype="" lat="46.45481" lon="8.6629">
		<comp name="--.HGE" depth="0.0">
			<acc value="0.00471449843332251" flag="0"/>
			<vel value="0.00284547584182517" flag="0"/>
			<psa03 value="0.0243845026069581" flag="0"/>
			<psa10 value="0.00258520469840374" flag="0"/>
			<psa30 value="0.000164203898289057" flag="0"/>
		</comp>
		<comp name="--.HGN" depth="0.0">
			<acc value="0.00536316532432785" flag="0"/>
			<vel value="0.00264649943539898" flag="0"/>
			<psa03 value="0.0125725600597344" flag="0"/>
			<psa10 value="0.00352747556978455" flag="0"/>
			<psa30 value="0.000268005817643448" flag="0"/>
		</comp>
		<comp name="--.HGZ" depth="0.0">
			<acc value="0.00471009549334512" flag="0"/>
			<vel value="0.00288097812340718" flag="0"/>
			<psa03 value="0.0153018346634489" flag="0"/>
			<psa10 value="0.00242010595598232" flag="0"/>
			<psa30 value="0.000217894546230983" flag="0"/>
		</comp>
	</station>
	<station code="GIMEL" name="GIMEL" netid="CH" source="Switzerland Seismological Network" insttype="" lat="46.53364" lon="6.26545">
		<comp name="--.HGE" depth="0.0">
			<acc value="0.0130274285226628" flag="0"/>
			<vel value="0.00597863939776904" flag="0"/>
			<psa03 value="0.0254583155657966" flag="0"/>
			<psa10 value="0.0103005508076585" flag="0"/>
			<psa30 value="0.00120759215662715" flag="0"/>
		</comp>
		<comp name="--.HGN" depth="0.0">
			<acc value="0.0131145417293486" flag="0"/>
			<vel value="0.00740584207922832" flag="0"/>
			<psa03 value="0.032930264071048" flag="0"/>
			<psa10 value="0.0107676594447533" flag="0"/>
			<psa30 value="0.00201250445368986" flag="0"/>
		</comp>
		<comp name="--.HGZ" depth="0.0">
			<acc value="0.0102084196454454" flag="0"/>
			<vel value="0.00616052924628512" flag="0"/>
			<psa03 value="0.0204024462179319" flag="0"/>
			<psa10 value="0.00806970438567149" flag="0"/>
			<psa30 value="0.00286305380150321" flag="0"/>
		</comp>
	</station>
	<station code="GRIMS" name="GRIMS" netid="CH" source="Switzerland Seismological Network" insttype="" lat="46.578146" lon="8.318864">
		<comp name="--.HGE" depth="0.0">
			<acc value="0.00514608390075383" flag="0"/>
			<vel value="0.00321626666405591" flag="0"/>
			<psa03 value="0.0149438970105028" flag="0"/>
			<psa10 value="0.0094106283180211" flag="0"/>
			<psa30 value="0.000250556357062322" flag="0"/>
		</comp>
		<comp name="--.HGN" depth="0.0">
			<acc value="0.00608452314765565" flag="0"/>
			<vel value="0.00371641506174935" flag="0"/>
			<psa03 value="0.0227290409620821" flag="0"/>
			<psa10 value="0.00790863244184572" flag="0"/>
			<psa30 value="0.000305589271202796" flag="0"/>
		</comp>
		<comp name="--.HGZ" depth="0.0">
			<acc value="0.00702720627950045" flag="0"/>
			<vel value="0.00363700823810367" flag="0"/>
			<psa03 value="0.0171810073414164" flag="0"/>
			<psa10 value="0.00802943639971505" flag="0"/>
			<psa30 value="0.000349884055754885" flag="0"/>
		</comp>
	</station>
	<station code="HAMIK" name="HAMIK" netid="CH" source="Switzerland Seismological Network" insttype="" lat="47.24508" lon="8.27061">
		<comp name="SF.HGE" depth="1.0">
			<acc value="0.0237501084946083" flag="0"/>
			<vel value="0.0134130553836512" flag="0"/>
			<psa03 value="0.0410733456755735" flag="0"/>
			<psa10 value="0.013715276016765" flag="0"/>
			<psa30 value="0.000844732860952971" flag="0"/>
		</comp>
		<comp name="SF.HGN" depth="1.0">
			<acc value="0.0304199025979432" flag="0"/>
			<vel value="0.0137248293561083" flag="0"/>
			<psa03 value="0.0437131358660515" flag="0"/>
			<psa10 value="0.0139689643282906" flag="0"/>
			<psa30 value="0.0011131861006626" flag="0"/>
		</comp>
		<comp name="SF.HGZ" depth="1.0">
			<acc value="0.0108364962455901" flag="0"/>
			<vel value="0.00626644672558201" flag="0"/>
			<psa03 value="0.0218789390363349" flag="0"/>
			<psa10 value="0.00293956297482045" flag="0"/>
			<psa30 value="0.000635786756045642" flag="0"/>
		</comp>
	</station>
	<station code="JAUN" name="JAUN" netid="CH" source="Switzerland Seismological Network" insttype="" lat="46.63395" lon="7.29096">
		<comp name="--.HGE" depth="0.0">
			<acc value="0.0215791930683667" flag="0"/>
			<vel value="0.0111785964518692" flag="0"/>
			<psa03 value="0.058612290669936" flag="0"/>
			<psa10 value="0.0182051564509086" flag="0"/>
			<psa30 value="0.000989697610396171" flag="0"/>
		</comp>
		<comp name="--.HGN" depth="0.0">
			<acc value="0.02655164987243" flag="0"/>
			<vel value="0.0156239108288596" flag="0"/>
			<psa03 value="0.0795516433672872" flag="0"/>
			<psa10 value="0.0199044654582706" flag="0"/>
			<psa30 value="0.00161698334718434" flag="0"/>
		</comp>
		<comp name="--.HGZ" depth="0.0">
			<acc value="0.0202632721612763" flag="0"/>
			<vel value="0.0128652516042457" flag="0"/>
			<psa03 value="0.0626838314721987" flag="0"/>
			<psa10 value="0.0128132731313407" flag="0"/>
			<psa30 value="0.00170825744868562" flag="0"/>
		</comp>
	</station>
	<station code="LAVEY" name="LAVEY" netid="CH" source="Switzerland Seismological Network" insttype="" lat="46.2" lon="7.022778">
		<comp name="SF.HGE" depth="0.0">
			<acc value="0.516314295013242" flag="0"/>
			<vel value="0.0854672611518226" flag="0"/>
			<psa03 value="0.145143718269674" flag="0"/>
			<psa10 value="0.0140052055156514" flag="0"/>
			<psa30 value="0.000974037838079776" flag="0"/>
		</comp>
		<comp name="SF.HGN" depth="0.0">
			<acc value="0.259666445291835" flag="0"/>
			<vel value="0.0553681830653912" flag="0"/>
			<psa03 value="0.0964194552623756" flag="0"/>
			<psa10 value="0.00987371015652021" flag="0"/>
			<psa30 value="0.00172212753273728" flag="0"/>
		</comp>
		<comp name="SF.HGZ" depth="0.0">
			<acc value="0.167853760168702" flag="0"/>
			<vel value="0.0247366818963664" flag="0"/>
			<psa03 value="0.0912293592946561" flag="0"/>
			<psa10 value="0.00611268026818829" flag="0"/>
			<psa30 value="0.000856365834673721" flag="0"/>
		</comp>
	</station>
	<station code="LIENZ" name="LIENZ" netid="CH" source="Switzerland Seismological Network" insttype="" lat="47.294601" lon="9.4927">
		<comp name="--.HGE" depth="0.0">
			<acc value="0.00310653963083098" flag="0"/>
			<vel value="0.00256671438536067" flag="0"/>
			<psa03 value="0.00926163676998225" flag="0"/>
			<psa10 value="0.00262547268436019" flag="0"/>
			<psa30 value="0.000271585194172909" flag="0"/>
		</comp>
		<comp name="--.HGN" depth="0.0">
			<acc value="0.0018353137969408" flag="0"/>
			<vel value="0.00154988298702315" flag="0"/>
			<psa03 value="0.00702452643906867" flag="0"/>
			<psa10 value="0.00164696062561858" flag="0"/>
			<psa30 value="0.000225053299289907" flag="0"/>
		</comp>
		<comp name="--.HGZ" depth="0.0">
			<acc value="0.00196239190965254" flag="0"/>
			<vel value="0.00162930431981139" flag="0"/>
			<psa03 value="0.00447422066182718" flag="0"/>
			<psa10 value="0.00235567717845201" flag="0"/>
			<psa30 value="0.000240265649540119" flag="0"/>
		</comp>
	</station>
	<station code="LKBD2" name="LKBD2" netid="CH" source="Switzerland Seismological Network" insttype="" lat="46.37455" lon="7.64433">
		<comp name="--.HGE" depth="0.0">
			<acc value="0.0253855491552603" flag="0"/>
			<vel value="0.0136460123553795" flag="0"/>
			<psa03 value="0.0736904143002936" flag="0"/>
			<psa10 value="0.00569389321424126" flag="0"/>
			<psa30 value="0.000828625666570393" flag="0"/>
		</comp>
		<comp name="--.HGN" depth="0.0">
			<acc value="0.0171546389963118" flag="0"/>
			<vel value="0.00666409331598887" flag="0"/>
			<psa03 value="0.0287244966489305" flag="0"/>
			<psa10 value="0.00374492269394935" flag="0"/>
			<psa30 value="0.000748984538789869" flag="0"/>
		</comp>
		<comp name="--.HGZ" depth="0.0">
			<acc value="0.0141903521287522" flag="0"/>
			<vel value="0.00518062642768841" flag="0"/>
			<psa03 value="0.0253688311525601" flag="0"/>
			<psa10 value="0.00539993691675922" flag="0"/>
			<psa30 value="0.000917662657740753" flag="0"/>
		</comp>
	</station>
	<station code="MTI01" name="MTI01" netid="CH" source="Switzerland Seismological Network" insttype="" lat="47.37911" lon="7.16541">
		<comp name="--.HGE" depth="0.0">
			<acc value="0.0055764401592846" flag="0"/>
			<vel value="0.00317353502972" flag="0"/>
			<psa03 value="0.0112302938611862" flag="0"/>
			<psa10 value="0.00306439373128543" flag="0"/>
			<psa30 value="0.000651446528362037" flag="0"/>
		</comp>
		<comp name="--.HGN" depth="0.0">
			<acc value="0.00600999563731072" flag="0"/>
			<vel value="0.00422033149867529" flag="0"/>
			<psa03 value="0.0111408094479497" flag="0"/>
			<psa10 value="0.00478786353022126" flag="0"/>
			<psa30 value="0.000846522549217701" flag="0"/>
		</comp>
		<comp name="--.HGZ" depth="0.0">
			<acc value="0.00677757560092237" flag="0"/>
			<vel value="0.0030810777091411" flag="0"/>
			<psa03 value="0.0156597723163951" flag="0"/>
			<psa10 value="0.00316909049477219" flag="0"/>
			<psa30 value="0.00116866643686926" flag="0"/>
		</comp>
	</station>
	<station code="NALPS" name="NALPS" netid="CH" source="Switzerland Seismological Network" insttype="" lat="46.595121" lon="8.74828">
		<comp name="--.HGE" depth="0.0">
			<acc value="0.0104964959671092" flag="0"/>
			<vel value="0.00391161043592615" flag="0"/>
			<psa03 value="0.0157939989362499" flag="0"/>
			<psa10 value="0.00610865346959264" flag="0"/>
			<psa30 value="0.000670238255141711" flag="0"/>
		</comp>
		<comp name="--.HGN" depth="0.0">
			<acc value="0.0101965786793103" flag="0"/>
			<vel value="0.00828358830270101" flag="0"/>
			<psa03 value="0.0263084174915438" flag="0"/>
			<psa10 value="0.0112549020748263" flag="0"/>
			<psa30 value="0.000927058521130591" flag="0"/>
		</comp>
		<comp name="--.HGZ" depth="0.0">
			<acc value="0.00440591229495539" flag="0"/>
			<vel value="0.00267970883727303" flag="0"/>
			<psa03 value="0.00939586338983707" flag="0"/>
			<psa10 value="0.00304425973830721" flag="0"/>
			<psa30 value="0.000684555761259558" flag="0"/>
		</comp>
	</station>
	<station code="PANIX" name="PANIX" netid="CH" source="Switzerland Seismological Network" insttype="" lat="46.825743" lon="9.111708">
		<comp name="--.HGE" depth="0.0">
			<acc value="0.00228617521656788" flag="0"/>
			<vel value="0.00156314589696573" flag="0"/>
			<psa03 value="0.0061744245133215" flag="0"/>
			<psa10 value="0.00132481673796703" flag="0"/>
			<psa30 value="0.000132884353656267" flag="0"/>
		</comp>
		<comp name="--.HGN" depth="0.0">
			<acc value="0.00418955617877572" flag="0"/>
			<vel value="0.00288928383494921" flag="0"/>
			<psa03 value="0.0112302938611862" flag="0"/>
			<psa10 value="0.00184024695820952" flag="0"/>
			<psa30 value="0.000221473922760445" flag="0"/>
		</comp>
		<comp name="--.HGZ" depth="0.0">
			<acc value="0.00294839450193128" flag="0"/>
			<vel value="0.00251699491240535" flag="0"/>
			<psa03 value="0.00510061155448298" flag="0"/>
			<psa10 value="0.00412746856053557" flag="0"/>
			<psa30 value="0.000251451201194687" flag="0"/>
		</comp>
	</station>
	<station code="SAARA" name="SAARA" netid="CH" source="Switzerland Seismological Network" insttype="" lat="47.38613" lon="8.04375">
		<comp name="--.HGE" depth="1.0">
			<acc value="0.00682989288282226" flag="0"/>
			<vel value="0.00179723711524073" flag="0"/>
			<psa03 value="0.00671133099274076" flag="0"/>
			<psa10 value="0.00304425973830721" flag="0"/>
			<psa30 value="0.000171810073414163" flag="0"/>
		</comp>
		<comp name="--.HGN" depth="1.0">
			<acc value="0.0037265227663498" flag="0"/>
			<vel value="0.00149635640835328" flag="0"/>
			<psa03 value="0.00572700244713878" flag="0"/>
			<psa10 value="0.00118387878711947" flag="0"/>
			<psa30 value="0.000121251379935516" flag="0"/>
		</comp>
		<comp name="--.HGZ" depth="1.0">
			<acc value="0.00273302511448793" flag="0"/>
			<vel value="0.000661441450248067" flag="0"/>
			<psa03 value="0.0034898921162252" flag="0"/>
			<psa10 value="0.00096643166295467" flag="0"/>
			<psa30 value="0.000145412171509383" flag="0"/>
		</comp>
	</station>
