<stationlist created="1675764136">
	<station code="ARPRA" name="ARPRA" netid="KO" source="Bogazici University Kandilli Observatory And Earthquake Research Institute (KOERI)" insttype="" lat="39.0929" lon="38.3356">
		<comp name=".HNE" depth="0.0">
			<acc value="0.00825577919982" flag="0"/>
			<vel value="0.00602795844224" flag="0"/>
			<psa03 value="0.0163922695012" flag="0"/>
			<psa10 value="0.00743089788552" flag="0"/>
			<psa30 value="0.000554244893087" flag="0"/>
		</comp>
		<comp name=".HNN" depth="0.0">
			<acc value="0.00737616123302" flag="0"/>
			<vel value="0.00614994203119" flag="0"/>
			<psa03 value="0.0209530156386" flag="0"/>
			<psa10 value="0.0157310546052" flag="0"/>
			<psa30 value="0.00114293571388" flag="0"/>
		</comp>
		<comp name=".HNZ" depth="0.0">
			<acc value="0.0063426477016" flag="0"/>
			<vel value="0.00339814479614" flag="0"/>
			<psa03 value="0.00855564554558" flag="0"/>
			<psa10 value="0.00490437895355" flag="0"/>
			<psa30 value="0.00055713893897" flag="0"/>
		</comp>
	</station>
	<station code="CMRD" name="CMRD" netid="KO" source="Bogazici University Kandilli Observatory And Earthquake Research Institute (KOERI)" insttype="" lat="37.6623" lon="34.9902">
		<comp name=".HNE" depth="0.0">
			<acc value="0.01291466984" flag="0"/>
			<vel value="0.00371356706552" flag="0"/>
			<psa03 value="0.0164325234699" flag="0"/>
			<psa10 value="0.00678871143756" flag="0"/>
			<psa30 value="0.000334815721565" flag="0"/>
		</comp>
		<comp name=".HNN" depth="0.0">
			<acc value="0.0120615223576" flag="0"/>
			<vel value="0.0045571255702" flag="0"/>
			<psa03 value="0.0222937086196" flag="0"/>
			<psa10 value="0.00397980067351" flag="0"/>
			<psa30 value="0.000654191722408" flag="0"/>
		</comp>
		<comp name=".HNZ" depth="0.0">
			<acc value="0.0103246092293" flag="0"/>
			<vel value="0.00426989363877" flag="0"/>
			<psa03 value="0.0130036062168" flag="0"/>
			<psa10 value="0.00307626339673" flag="0"/>
			<psa30 value="0.000462750863305" flag="0"/>
		</comp>
	</station>
	<station code="TUNC" name="TUNC" netid="KO" source="Bogazici University Kandilli Observatory And Earthquake Research Institute (KOERI)" insttype="" lat="39.6942" lon="37.5388">
		<comp name=".HNE" depth="0.0">
			<acc value="0.0146387336034" flag="0"/>
			<vel value="0.00743140458264" flag="0"/>
			<psa03 value="0.0205905228753" flag="0"/>
			<psa10 value="0.0112692827847" flag="0"/>
			<psa30 value="0.000900305265807" flag="0"/>
		</comp>
		<comp name=".HNN" depth="0.0">
			<acc value="0.0263021147001" flag="0"/>
			<vel value="0.00432592179318" flag="0"/>
			<psa03 value="0.0161196160225" flag="0"/>
			<psa10 value="0.00502105340139" flag="0"/>
			<psa30 value="0.000789822478115" flag="0"/>
		</comp>
		<comp name=".HNZ" depth="0.0">
			<acc value="0.0047013711042" flag="0"/>
			<vel value="0.00312460846268" flag="0"/>
			<psa03 value="0.00988932178569" flag="0"/>
			<psa10 value="0.0042704983683" flag="0"/>
			<psa30 value="0.000623038408652" flag="0"/>
		</comp>
	</station>
</stationlist>
