<?xml version="1.0" encoding="UTF-8" standalone="yes"?>
<!DOCTYPE earthquake SYSTEM "stationlist.dtd">
<stationlist created="" xmlns="ch.ethz.sed.shakemap.usgs.xml">
  <station code="GAZ" name="GAZ" netid="KO" insttype="CMG-3T" lat="37.1721" lon="37.2096">
    <comp name="--.HHN">
      <acc value="0.4872013336" flag="0"/>
      <vel value="0.2361868278" flag="0"/>
      <psa03 value="0.7053483558" flag="0"/>
      <psa10 value="0.2231213138" flag="0"/>
      <psa30 value="0.0169884196" flag="0"/>
    </comp>
  </station>
  <station code="ANDN" name="ANDN" netid="TU" insttype="T" lat="37.58" lon="36.3452">
    <comp name="--.HHN">
      <acc value="0.4463082037" flag="0"/>
      <vel value="0.0800378827" flag="0"/>
      <psa03 value="0.5170572998" flag="0"/>
      <psa10 value="0.0307985339" flag="0"/>
      <psa30 value="0.0033991740" flag="0"/>
    </comp>
    <comp name="--.HHE">
      <acc value="0.1763803075" flag="0"/>
      <vel value="0.0510993837" flag="0"/>
      <psa03 value="0.2597244305" flag="0"/>
      <psa10 value="0.0329613449" flag="0"/>
      <psa30 value="0.0038840166" flag="0"/>
    </comp>
    <comp name="--.HHZ">
      <acc value="0.1278205618" flag="0"/>
      <vel value="0.0303490950" flag="0"/>
      <psa03 value="0.1780733558" flag="0"/>
      <psa10 value="0.0293163563" flag="0"/>
      <psa30 value="0.0040912879" flag="0"/>
    </comp>
  </station>
</stationlist>
