<?xml version="1.0" encoding="UTF-8" standalone="yes"?>
<!DOCTYPE earthquake SYSTEM "stationlist.dtd">
<stationlist created="" xmlns="ch.ethz.sed.shakemap.usgs.xml">
  <station code="DARE" name="DARE" netid="KO" insttype="CMG-3ESP" lat="38.5712" lon="37.4832">
    <comp name="--.HHE">
      <acc value="0.0068570512" flag="0"/>
      <vel value="0.0039021838" flag="0"/>
      <psa03 value="0.0177493858" flag="0"/>
      <psa10 value="0.0026701606" flag="0"/>
      <psa30 value="0.0001779180" flag="0"/>
    </comp>
    <comp name="--.HHN">
      <acc value="0.0067742681" flag="0"/>
      <vel value="0.0028500718" flag="0"/>
      <psa03 value="0.0216869048" flag="0"/>
      <psa10 value="0.0033565114" flag="0"/>
      <psa30 value="0.0002576788" flag="0"/>
    </comp>
    <comp name="--.HHZ">
      <acc value="0.0061524432" flag="0"/>
      <vel value="0.0036119634" flag="0"/>
      <psa03 value="0.0177414531" flag="0"/>
      <psa10 value="0.0041435311" flag="0"/>
      <psa30 value="0.0003106011" flag="0"/>
    </comp>
  </station>
  <station code="GAZ" name="GAZ" netid="KO" insttype="CMG-3T" lat="37.1721" lon="37.2096">
    <comp name="--.HHZ">
      <acc value="0.0647400644" flag="0"/>
      <vel value="0.0139509664" flag="0"/>
      <psa03 value="0.0831335160" flag="0"/>
      <psa10 value="0.0088384590" flag="0"/>
      <psa30 value="0.0009380167" flag="0"/>
    </comp>
    <comp name="--.HHE">
      <acc value="0.0810196396" flag="0"/>
      <vel value="0.0231453200" flag="0"/>
      <psa03 value="0.1016752746" flag="0"/>
      <psa10 value="0.0158153574" flag="0"/>
      <psa30 value="0.0007990101" flag="0"/>
    </comp>
  </station>
  <station code="KHMN" name="KHMN" netid="KO" insttype="CMG-5T" lat="37.3916" lon="37.1574">
    <comp name="--.HNZ">
      <acc value="0.5733889130" flag="0"/>
      <vel value="0.1092792446" flag="0"/>
      <psa03 value="0.3266463707" flag="0"/>
      <psa10 value="0.0198977457" flag="0"/>
      <psa30 value="0.0022610613" flag="0"/>
    </comp>
    <comp name="--.HNE">
      <acc value="0.7709661979" flag="0"/>
      <vel value="0.1330630486" flag="0"/>
      <psa03 value="0.4892058558" flag="0"/>
      <psa10 value="0.0560020421" flag="0"/>
      <psa30 value="0.0037252530" flag="0"/>
    </comp>
    <comp name="--.HNN">
      <acc value="0.7194316817" flag="0"/>
      <vel value="0.1432358809" flag="0"/>
      <psa03 value="0.4822871005" flag="0"/>
      <psa10 value="0.0430968654" flag="0"/>
      <psa30 value="0.0030189840" flag="0"/>
    </comp>
  </station>
  <station code="KMRS" name="KMRS" netid="KO" insttype="CMG-3T" lat="37.5053" lon="36.9">
    <comp name="--.HHE">
      <acc value="0.0708216645" flag="0"/>
      <vel value="0.0241544898" flag="0"/>
      <psa03 value="0.0964490239" flag="0"/>
      <psa10 value="0.0178876236" flag="0"/>
      <psa30 value="0.0011012791" flag="0"/>
    </comp>
    <comp name="--.HHN">
      <acc value="0.0961731221" flag="0"/>
      <vel value="0.0494148419" flag="0"/>
      <psa03 value="0.3140351488" flag="0"/>
      <psa10 value="0.0154344329" flag="0"/>
      <psa30 value="0.0010832166" flag="0"/>
    </comp>
    <comp name="--.HHZ">
      <acc value="0.0754536705" flag="0"/>
      <vel value="0.0226927526" flag="0"/>
      <psa03 value="0.0977823427" flag="0"/>
      <psa10 value="0.0212795663" flag="0"/>
      <psa30 value="0.0015053768" flag="0"/>
    </comp>
  </station>
  <station code="SARI" name="SARI" netid="KO" insttype="CMG-3T" lat="38.4072" lon="36.4181">
    <comp name="--.HHE">
      <acc value="0.0490424514" flag="0"/>
      <vel value="0.0076607310" flag="0"/>
      <psa03 value="0.0423890125" flag="0"/>
      <psa10 value="0.0046876714" flag="0"/>
      <psa30 value="0.0004114788" flag="0"/>
    </comp>
    <comp name="--.HHN">
      <acc value="0.0238979280" flag="0"/>
      <vel value="0.0086800632" flag="0"/>
      <psa03 value="0.0460662586" flag="0"/>
      <psa10 value="0.0068191359" flag="0"/>
      <psa30 value="0.0003998729" flag="0"/>
    </comp>
    <comp name="--.HHZ">
      <acc value="0.0145562792" flag="0"/>
      <vel value="0.0057633422" flag="0"/>
      <psa03 value="0.0378962302" flag="0"/>
      <psa10 value="0.0040702327" flag="0"/>
      <psa30 value="0.0003134868" flag="0"/>
    </comp>
  </station>
  <station code="ANDN" name="ANDN" netid="TU" insttype="T" lat="37.58" lon="36.3452">
    <comp name="--.HHE">
      <acc value="0.1303287354" flag="0"/>
      <vel value="0.0315790399" flag="0"/>
      <psa03 value="0.1594390156" flag="0"/>
      <psa10 value="0.0124551369" flag="0"/>
      <psa30 value="0.0008186834" flag="0"/>
    </comp>
    <comp name="--.HHZ">
      <acc value="0.0648088588" flag="0"/>
      <vel value="0.0188881221" flag="0"/>
      <psa03 value="0.0603375388" flag="0"/>
      <psa10 value="0.0084437300" flag="0"/>
      <psa30 value="0.0005328077" flag="0"/>
    </comp>
    <comp name="--.HHN">
      <acc value="0.1939716374" flag="0"/>
      <vel value="0.0494557949" flag="0"/>
      <psa03 value="0.3514020304" flag="0"/>
      <psa10 value="0.0115080322" flag="0"/>
      <psa30 value="0.0009429986" flag="0"/>
    </comp>
  </station>
</stationlist>
