<?xml version="1.0" encoding="UTF-8" standalone="yes"?>
<!DOCTYPE earthquake SYSTEM "stationlist.dtd">
<stationlist created="" xmlns="ch.ethz.sed.shakemap.usgs.xml">
  <station code="NISR" name="NISR" netid="HL" insttype="0" lat="36.6106" lon="27.131">
    <comp name="--.HNE">
      <acc value="0.1422160924" flag="0"/>
      <vel value="0.0497818372" flag="0"/>
      <psa03 value="0.2040483136" flag="0"/>
      <psa10 value="0.0298016080" flag="0"/>
      <psa30 value="0.0244391868" flag="0"/>
    </comp>
    <comp name="--.HNN">
      <acc value="0.1849328981" flag="0"/>
      <vel value="0.0475849810" flag="0"/>
      <psa03 value="0.1209697701" flag="0"/>
      <psa10 value="0.0178156420" flag="0"/>
      <psa30 value="0.0186112115" flag="0"/>
    </comp>
    <comp name="--.HNZ">
      <acc value="0.1249433593" flag="0"/>
      <vel value="0.0214215307" flag="0"/>
      <psa03 value="0.0890915221" flag="0"/>
      <psa10 value="0.0140808407" flag="0"/>
      <psa30 value="0.0088339132" flag="0"/>
    </comp>
  </station>
</stationlist>
