<?xml version="1.0" encoding="UTF-8" standalone="yes"?>
<!DOCTYPE earthquake SYSTEM "stationlist.dtd">
<stationlist created="" xmlns="ch.ethz.sed.shakemap.usgs.xml">
  <station code="KARP" name="KARP" netid="GE" insttype="STS-2/N" lat="35.5471" lon="27.1611">
    <comp name="--.HHE">
      <acc value="0.0593286250" flag="0"/>
      <vel value="0.0202319722" flag="0"/>
      <psa03 value="0.0824914271" flag="0"/>
      <psa10 value="0.0204936089" flag="0"/>
      <psa30 value="0.0024373230" flag="0"/>
    </comp>
    <comp name="--.HHZ">
      <acc value="0.0306620051" flag="0"/>
      <vel value="0.0158369454" flag="0"/>
      <psa03 value="0.0631061694" flag="0"/>
      <psa10 value="0.0171588428" flag="0"/>
      <psa30 value="0.0012288531" flag="0"/>
    </comp>
    <comp name="--.HHN">
      <acc value="0.0428182404" flag="0"/>
      <vel value="0.0199339079" flag="0"/>
      <psa03 value="0.0846235010" flag="0"/>
      <psa10 value="0.0448550318" flag="0"/>
      <psa30 value="0.0021072912" flag="0"/>
    </comp>
  </station>
  <station code="THERA" name="THERA" netid="GE" insttype="STS-2/N" lat="36.367" lon="25.4753">
    <comp name="--.HHE">
      <acc value="0.0160644487" flag="0"/>
      <vel value="0.0120759293" flag="0"/>
      <psa03 value="0.0555233066" flag="0"/>
      <psa10 value="0.0115892171" flag="0"/>
      <psa30 value="0.0016564009" flag="0"/>
    </comp>
    <comp name="--.HHZ">
      <acc value="0.0143835812" flag="0"/>
      <vel value="0.0071190749" flag="0"/>
      <psa03 value="0.0484327087" flag="0"/>
      <psa10 value="0.0095752187" flag="0"/>
      <psa30 value="0.0020099348" flag="0"/>
    </comp>
    <comp name="--.HHN">
      <acc value="0.0168670767" flag="0"/>
      <vel value="0.0094448386" flag="0"/>
      <psa03 value="0.0613150311" flag="0"/>
      <psa10 value="0.0063566528" flag="0"/>
      <psa30 value="0.0006917985" flag="0"/>
    </comp>
  </station>
  <station code="RDI1" name="RDI1" netid="HI" insttype="CMG-5TD,ACCELEROMETER,GURALP" lat="36.4514" lon="28.224">
    <comp name="--.HNE">
      <acc value="0.0288941669" flag="0"/>
      <vel value="0.0405454615" flag="0"/>
      <psa03 value="0.0893517768" flag="0"/>
      <psa10 value="0.0624741029" flag="0"/>
      <psa30 value="0.0076334864" flag="0"/>
    </comp>
    <comp name="--.HNZ">
      <acc value="0.0184987308" flag="0"/>
      <vel value="0.0180067687" flag="0"/>
      <psa03 value="0.0646276293" flag="0"/>
      <psa10 value="0.0461425360" flag="0"/>
      <psa30 value="0.0031507463" flag="0"/>
    </comp>
    <comp name="--.HNN">
      <acc value="0.0218517721" flag="0"/>
      <vel value="0.0227342873" flag="0"/>
      <psa03 value="0.0552607950" flag="0"/>
      <psa10 value="0.0437825135" flag="0"/>
      <psa30 value="0.0067393817" flag="0"/>
    </comp>
  </station>
  <station code="ARG" name="ARG" netid="HL" insttype="LE3D20_DR24" lat="36.2136" lon="28.1212">
    <comp name="--.HHE">
      <acc value="0.0607173668" flag="0"/>
      <vel value="0.0443771336" flag="0"/>
      <psa03 value="0.2081267223" flag="0"/>
      <psa10 value="0.0327748647" flag="0"/>
      <psa30 value="0.0043377970" flag="0"/>
    </comp>
    <comp name="--.HHN">
      <acc value="0.0477262244" flag="0"/>
      <vel value="0.0190212327" flag="0"/>
      <psa03 value="0.1336951197" flag="0"/>
      <psa10 value="0.0277124078" flag="0"/>
      <psa30 value="0.0037845405" flag="0"/>
    </comp>
    <comp name="--.HHZ">
      <acc value="0.0271463245" flag="0"/>
      <vel value="0.0139120801" flag="0"/>
      <psa03 value="0.0498567927" flag="0"/>
      <psa10 value="0.0229291822" flag="0"/>
      <psa30 value="0.0029076484" flag="0"/>
    </comp>
  </station>
  <station code="AYDN" name="AYDN" netid="TU" source="ODC" insttype="T" lat="37.6608" lon="27.8792">
    <comp name="--.HHE">
      <acc value="0.0155879637" flag="0"/>
      <vel value="0.0108184980" flag="0"/>
      <psa03 value="0.0294505702" flag="0"/>
      <psa10 value="0.0132880157" flag="0"/>
      <psa30 value="0.0009982148" flag="0"/>
    </comp>
    <comp name="--.HHN">
      <acc value="0.0157726208" flag="0"/>
      <vel value="0.0105025917" flag="0"/>
      <psa03 value="0.0365041663" flag="0"/>
      <psa10 value="0.0142021008" flag="0"/>
      <psa30 value="0.0011870771" flag="0"/>
    </comp>
    <comp name="--.HHZ">
      <acc value="0.0149649064" flag="0"/>
      <vel value="0.0070420213" flag="0"/>
      <psa03 value="0.0416544397" flag="0"/>
      <psa10 value="0.0084588084" flag="0"/>
      <psa30 value="0.0010982476" flag="0"/>
    </comp>
  </station>
</stationlist>
