<stationlist created="1739419353">
	<station code="ABEA" name="ABEA" netid="HC" source="Seismological Network of Crete (HC)" insttype="" lat="35.5163" lon="24.0113">
		<comp name=".HNE" depth="0.0">
			<acc value="0.0079596342690984" flag="0"/>
			<vel value="0.00377181237175" flag="0"/>
			<psa03 value="0.0221037272842693" flag="0"/>
			<psa10 value="0.00728093623252839" flag="0"/>
			<psa30 value="0.000804068369749392" flag="0"/>
		</comp>
		<comp name=".HNN" depth="0.0">
			<acc value="0.01383807774882" flag="0"/>
			<vel value="0.0042490997473" flag="0"/>
			<psa03 value="0.0206533525582435" flag="0"/>
			<psa10 value="0.00528029541865206" flag="0"/>
			<psa30 value="0.00127715762625689" flag="0"/>
		</comp>
		<comp name=".HNZ" depth="0.0">
			<acc value="0.014245632834306" flag="0"/>
			<vel value="0.00259481718656" flag="0"/>
			<psa03 value="0.00957864430381231" flag="0"/>
			<psa10 value="0.0032374446210672" flag="0"/>
			<psa30 value="0.000790190054545564" flag="0"/>
		</comp>
	</station>
	<station code="ATEI" name="ATEI" netid="HC" source="Seismological Network of Crete (HC)" insttype="" lat="35.5193" lon="24.0432">
		<comp name=".HNE" depth="0.0">
			<acc value="0.006757735991331" flag="0"/>
			<vel value="0.00374097630361" flag="0"/>
			<psa03 value="0.0157832525942743" flag="0"/>
			<psa10 value="0.00600376615755339" flag="0"/>
			<psa30 value="0.00107770003817154" flag="0"/>
		</comp>
		<comp name=".HNN" depth="0.0">
			<acc value="0.007236398910924" flag="0"/>
			<vel value="0.00368834578489" flag="0"/>
			<psa03 value="0.0187861390207457" flag="0"/>
			<psa10 value="0.00448307323158626" flag="0"/>
			<psa30 value="0.000886166099990187" flag="0"/>
		</comp>
		<comp name=".HNZ" depth="0.0">
			<acc value="0.006133317621942" flag="0"/>
			<vel value="0.0033640090491" flag="0"/>
			<psa03 value="0.00960071738062543" flag="0"/>
			<psa10 value="0.00370320789747472" flag="0"/>
			<psa30 value="0.000646058371115271" flag="0"/>
		</comp>
	</station>
	<station code="G0LD" name="G0LD" netid="HC" source="Seismological Network of Crete (HC)" insttype="" lat="35.4955" lon="24.0306">
		<comp name=".HNE" depth="0.0">
			<acc value="0.03866977968369" flag="0"/>
			<vel value="0.00556454063697" flag="0"/>
			<psa03 value="0.0192153237021292" flag="0"/>
			<psa10 value="0.00606282366357704" flag="0"/>
			<psa30 value="0.00168254666879399" flag="0"/>
		</comp>
		<comp name=".HNN" depth="0.0">
			<acc value="0.020009852552856" flag="0"/>
			<vel value="0.00410158982118" flag="0"/>
			<psa03 value="0.0162882652155463" flag="0"/>
			<psa10 value="0.00664446938224879" flag="0"/>
			<psa30 value="0.00112540746938879" flag="0"/>
		</comp>
		<comp name=".HNZ" depth="0.0">
			<acc value="0.017231048237838" flag="0"/>
			<vel value="0.00781458120113" flag="0"/>
			<psa03 value="0.0109638695317341" flag="0"/>
			<psa10 value="0.00478349719571295" flag="0"/>
			<psa30 value="0.00294433150584721" flag="0"/>
		</comp>
	</station>
	<station code="PASK" name="PASK" netid="HC" source="Seismological Network of Crete (HC)" insttype="" lat="35.4996" lon="24.0121">
		<comp name=".HNE" depth="0.0">
			<acc value="0.009991601727309" flag="0"/>
			<vel value="0.00644049020429" flag="0"/>
			<psa03 value="0.0226976233978337" flag="0"/>
			<psa10 value="0.00896693589050059" flag="0"/>
			<psa30 value="0.000882809002595555" flag="0"/>
		</comp>
		<comp name=".HNN" depth="0.0">
			<acc value="0.010504889643504" flag="0"/>
			<vel value="0.00613730326286" flag="0"/>
			<psa03 value="0.0422696022370193" flag="0"/>
			<psa10 value="0.00823924705969472" flag="0"/>
			<psa30 value="0.00152818290128193" flag="0"/>
		</comp>
		<comp name=".HNZ" depth="0.0">
			<acc value="0.0062961029774376" flag="0"/>
			<vel value="0.00390065595361" flag="0"/>
			<psa03 value="0.0129350847504584" flag="0"/>
			<psa10 value="0.00762974449562049" flag="0"/>
			<psa30 value="0.000896290520680939" flag="0"/>
		</comp>
	</station>
	<station code="POLY" name="POLY" netid="HC" source="Seismological Network of Crete (HC)" insttype="" lat="35.5226" lon="24.0602">
		<comp name=".HNE" depth="0.0">
			<acc value="0.0047974914796554" flag="0"/>
			<vel value="0.0029163143973" flag="0"/>
			<psa03 value="0.00569487465333516" flag="0"/>
			<psa10 value="0.0026175379302933" flag="0"/>
			<psa30 value="0.000886855103963463" flag="0"/>
		</comp>
		<comp name=".HNN" depth="0.0">
			<acc value="0.0037502913349854" flag="0"/>
			<vel value="0.0030019013956" flag="0"/>
			<psa03 value="0.00758708333619433" flag="0"/>
			<psa10 value="0.00189707020284033" flag="0"/>
			<psa30 value="0.00161915924052123" flag="0"/>
		</comp>
		<comp name=".HNZ" depth="0.0">
			<acc value="0.0063643133571738" flag="0"/>
			<vel value="0.00201998614739" flag="0"/>
			<psa03 value="0.0058431234063826" flag="0"/>
			<psa10 value="0.00150235913329415" flag="0"/>
			<psa30 value="0.000806286850047386" flag="0"/>
		</comp>
	</station>
	<station code="ARK1" name="ARK1" netid="HI" source="ITSAK Strong Motion Network" insttype="" lat="35.148777" lon="25.264194">
		<comp name=".HNE" depth="0.0">
			<acc value="0.011882040507114" flag="0"/>
			<vel value="0.00885608061236" flag="0"/>
			<psa03 value="0.0418751959012044" flag="0"/>
			<psa10 value="0.00809452122230613" flag="0"/>
			<psa30 value="0.00129605471142991" flag="0"/>
		</comp>
		<comp name=".HNN" depth="0.0">
			<acc value="0.01132562031405" flag="0"/>
			<vel value="0.00777504360333" flag="0"/>
			<psa03 value="0.0343489421155046" flag="0"/>
			<psa10 value="0.00883200476448671" flag="0"/>
			<psa30 value="0.000870670438060869" flag="0"/>
		</comp>
		<comp name=".HNZ" depth="0.0">
			<acc value="0.0064134934740918" flag="0"/>
			<vel value="0.00395469304613" flag="0"/>
			<psa03 value="0.0163893513391104" flag="0"/>
			<psa10 value="0.00541611910382276" flag="0"/>
			<psa30 value="0.000596804691630539" flag="0"/>
		</comp>
	</station>
	<station code="CH01" name="CH01" netid="HI" source="ITSAK Strong Motion Network" insttype="" lat="35.517" lon="24.0208">
		<comp name=".HNE" depth="0.0">
			<acc value="0.0064484452026222" flag="0"/>
			<vel value="0.00313537591586" flag="0"/>
			<psa03 value="0.014185198814407" flag="0"/>
			<psa10 value="0.0063846052925344" flag="0"/>
			<psa30 value="0.00072506704254827" flag="0"/>
		</comp>
		<comp name=".HNN" depth="0.0">
			<acc value="0.007205632817337" flag="0"/>
			<vel value="0.00397380418309" flag="0"/>
			<psa03 value="0.0184055708412571" flag="0"/>
			<psa10 value="0.00471575833336184" flag="0"/>
			<psa30 value="0.000766265188390062" flag="0"/>
		</comp>
		<comp name=".HNZ" depth="0.0">
			<acc value="0.006486850147905" flag="0"/>
			<vel value="0.00198446986236" flag="0"/>
			<psa03 value="0.00864813669867937" flag="0"/>
			<psa10 value="0.00421971156644943" flag="0"/>
			<psa30 value="0.000321196590197734" flag="0"/>
		</comp>
	</station>
	<station code="CH02" name="CH02" netid="HI" source="ITSAK Strong Motion Network" insttype="" lat="35.5145" lon="24.0315">
		<comp name=".HNE" depth="0.0">
			<acc value="0.006682269047892" flag="0"/>
			<vel value="0.00372720177039" flag="0"/>
			<psa03 value="0.0178505249575942" flag="0"/>
			<psa10 value="0.00711514712484311" flag="0"/>
			<psa30 value="0.000597633861143105" flag="0"/>
		</comp>
		<comp name=".HNN" depth="0.0">
			<acc value="0.008294840557908" flag="0"/>
			<vel value="0.00450681838577" flag="0"/>
			<psa03 value="0.0239344006407627" flag="0"/>
			<psa10 value="0.00442619415112048" flag="0"/>
			<psa30 value="0.000907333648066452" flag="0"/>
		</comp>
		<comp name=".HNZ" depth="0.0">
			<acc value="0.0045123715304868" flag="0"/>
			<vel value="0.00236701773769" flag="0"/>
			<psa03 value="0.00839474881925927" flag="0"/>
			<psa10 value="0.00282416325882967" flag="0"/>
			<psa30 value="0.00036317694931541" flag="0"/>
		</comp>
	</station>
	<station code="CH03" name="CH03" netid="HI" source="ITSAK Strong Motion Network" insttype="" lat="35.53303" lon="24.0705">
		<comp name=".HNE" depth="0.0">
			<acc value="0.0045111381766278" flag="0"/>
			<vel value="0.00356101796149" flag="0"/>
			<psa03 value="0.0197958296057228" flag="0"/>
			<psa10 value="0.00516794922625914" flag="0"/>
			<psa30 value="0.000305221912161926" flag="0"/>
		</comp>
		<comp name=".HNN" depth="0.0">
			<acc value="0.0062017999397166" flag="0"/>
			<vel value="0.00484751335993" flag="0"/>
			<psa03 value="0.0208278576079148" flag="0"/>
			<psa10 value="0.00993017782553715" flag="0"/>
			<psa30 value="0.000616619181330083" flag="0"/>
		</comp>
		<comp name=".HNZ" depth="0.0">
			<acc value="0.003746017749573" flag="0"/>
			<vel value="0.00257223103624" flag="0"/>
			<psa03 value="0.00890708484231551" flag="0"/>
			<psa10 value="0.00260029710066953" flag="0"/>
			<psa30 value="0.000370910586631117" flag="0"/>
		</comp>
	</station>
	<station code="GOR1" name="GOR1" netid="HI" source="ITSAK Strong Motion Network" insttype="" lat="35.0582" lon="24.9628">
		<comp name=".HNE" depth="0.0">
			<acc value="0.004802820662823" flag="0"/>
			<vel value="0.00336631515195" flag="0"/>
			<psa03 value="0.0171657374062908" flag="0"/>
			<psa10 value="0.00400598818955884" flag="0"/>
			<psa30 value="0.000957465198203985" flag="0"/>
		</comp>
		<comp name=".HNN" depth="0.0">
			<acc value="0.0044418670410474" flag="0"/>
			<vel value="0.00347563616487" flag="0"/>
			<psa03 value="0.0115675045716605" flag="0"/>
			<psa10 value="0.00534523800203233" flag="0"/>
			<psa30 value="0.000793396100264098" flag="0"/>
		</comp>
		<comp name=".HNZ" depth="0.0">
			<acc value="0.013281051960948" flag="0"/>
			<vel value="0.00260672118861" flag="0"/>
			<psa03 value="0.00678840347446613" flag="0"/>
			<psa10 value="0.00461278073031497" flag="0"/>
			<psa30 value="0.000592662333888238" flag="0"/>
		</comp>
	</station>
	<station code="HER3" name="HER3" netid="HI" source="ITSAK Strong Motion Network" insttype="" lat="35.3296" lon="25.1065">
		<comp name=".HNE" depth="0.0">
			<acc value="0.037608850397874" flag="0"/>
			<vel value="0.0144159545112" flag="0"/>
			<psa03 value="0.0902615314668037" flag="0"/>
			<psa10 value="0.0270915096795719" flag="0"/>
			<psa30 value="0.00174165100082989" flag="0"/>
		</comp>
		<comp name=".HNN" depth="0.0">
			<acc value="0.023462627382606" flag="0"/>
			<vel value="0.0149324067783" flag="0"/>
			<psa03 value="0.0713192870526682" flag="0"/>
			<psa10 value="0.0218308299353358" flag="0"/>
			<psa30 value="0.00128796709233182" flag="0"/>
		</comp>
		<comp name=".HNZ" depth="0.0">
			<acc value="0.034628376023976" flag="0"/>
			<vel value="0.0105135643556" flag="0"/>
			<psa03 value="0.0427933348484146" flag="0"/>
			<psa10 value="0.015332867289711" flag="0"/>
			<psa30 value="0.000653886598026633" flag="0"/>
		</comp>
	</station>
	<station code="KIS1" name="KIS1" netid="HI" source="ITSAK Strong Motion Network" insttype="" lat="35.493933" lon="23.658993">
		<comp name=".HNE" depth="0.0">
			<acc value="0.0032416603791792" flag="0"/>
			<vel value="0.0029700740724" flag="0"/>
			<psa03 value="0.00915785275654844" flag="0"/>
			<psa10 value="0.00653054667915892" flag="0"/>
			<psa30 value="0.000439392961793889" flag="0"/>
		</comp>
		<comp name=".HNN" depth="0.0">
			<acc value="0.003768351293397" flag="0"/>
			<vel value="0.00287269815025" flag="0"/>
			<psa03 value="0.00978658255785375" flag="0"/>
			<psa10 value="0.00535450205323048" flag="0"/>
			<psa30 value="0.000644775265281527" flag="0"/>
		</comp>
		<comp name=".HNZ" depth="0.0">
			<acc value="0.0068986857333732" flag="0"/>
			<vel value="0.0015323530913" flag="0"/>
			<psa03 value="0.006307402209422" flag="0"/>
			<psa10 value="0.00312913228965856" flag="0"/>
			<psa30 value="0.000264800093790057" flag="0"/>
		</comp>
	</station>
	<station code="KRL1" name="KRL1" netid="HI" source="ITSAK Strong Motion Network" insttype="" lat="37.7951" lon="26.7065">
		<comp name=".HNE" depth="0.0">
			<acc value="0.016236691081698" flag="0"/>
			<vel value="0.00702959754816" flag="0"/>
			<psa03 value="0.0519710834544146" flag="0"/>
			<psa10 value="0.0114814962177712" flag="0"/>
			<psa30 value="0.00107967579405677" flag="0"/>
		</comp>
		<comp name=".HNN" depth="0.0">
			<acc value="0.01253716570707" flag="0"/>
			<vel value="0.00591111173558" flag="0"/>
			<psa03 value="0.027028751459622" flag="0"/>
			<psa10 value="0.0112145188443504" flag="0"/>
			<psa30 value="0.000516745690199268" flag="0"/>
		</comp>
		<comp name=".HNZ" depth="0.0">
			<acc value="0.0062989627034058" flag="0"/>
			<vel value="0.00313898718088" flag="0"/>
			<psa03 value="0.0158379306956022" flag="0"/>
			<psa10 value="0.00492749736002196" flag="0"/>
			<psa30 value="0.000431358158694453" flag="0"/>
		</comp>
	</station>
	<station code="KTL1" name="KTL1" netid="HI" source="ITSAK Strong Motion Network" insttype="" lat="35.20778" lon="25.34272">
		<comp name=".HNE" depth="0.0">
			<acc value="0.009078212388378" flag="0"/>
			<vel value="0.00487063560042" flag="0"/>
			<psa03 value="0.0233736108870197" flag="0"/>
			<psa10 value="0.00580719454187876" flag="0"/>
			<psa30 value="0.000900077646559714" flag="0"/>
		</comp>
		<comp name=".HNN" depth="0.0">
			<acc value="0.0091475204625342" flag="0"/>
			<vel value="0.00576815737554" flag="0"/>
			<psa03 value="0.0341984373536445" flag="0"/>
			<psa10 value="0.00770554357944792" flag="0"/>
			<psa30 value="0.000618705465369291" flag="0"/>
		</comp>
		<comp name=".HNZ" depth="0.0">
			<acc value="0.019731015011586" flag="0"/>
			<vel value="0.00303884216938" flag="0"/>
			<psa03 value="0.00901941454925001" flag="0"/>
			<psa10 value="0.00370701979061718" flag="0"/>
			<psa30 value="0.000371553181283023" flag="0"/>
		</comp>
	</station>
	<station code="NAX1" name="NAX1" netid="HI" source="ITSAK Strong Motion Network" insttype="" lat="37.101394" lon="25.374103">
		<comp name=".HNE" depth="0.0">
			<acc value="0.16557573866202" flag="0"/>
			<vel value="0.0579917552349" flag="0"/>
			<psa03 value="0.265419291058921" flag="0"/>
			<psa10 value="0.0167208557996379" flag="0"/>
			<psa30 value="0.00133994105618525" flag="0"/>
		</comp>
		<comp name=".HNN" depth="0.0">
			<acc value="0.10418480534142" flag="0"/>
			<vel value="0.0241329620787" flag="0"/>
			<psa03 value="0.129064956169709" flag="0"/>
			<psa10 value="0.0105684063550619" flag="0"/>
			<psa30 value="0.00198768667448906" flag="0"/>
		</comp>
		<comp name=".HNZ" depth="0.0">
			<acc value="0.063515743568946" flag="0"/>
			<vel value="0.0177353248135" flag="0"/>
			<psa03 value="0.0725438473403765" flag="0"/>
			<psa10 value="0.0132708400655278" flag="0"/>
			<psa30 value="0.00227932870267133" flag="0"/>
		</comp>
	</station>
	<station code="RTH1" name="RTH1" netid="HI" source="ITSAK Strong Motion Network" insttype="" lat="35.365393" lon="24.471773">
		<comp name=".HNE" depth="0.0">
			<acc value="0.0046946190267048" flag="0"/>
			<vel value="0.00219467139098" flag="0"/>
			<psa03 value="0.0158378955369973" flag="0"/>
			<psa10 value="0.00260502592955652" flag="0"/>
			<psa30 value="0.000764700293056298" flag="0"/>
		</comp>
		<comp name=".HNN" depth="0.0">
			<acc value="0.0051130655725674" flag="0"/>
			<vel value="0.00246168942629" flag="0"/>
			<psa03 value="0.0182904785815394" flag="0"/>
			<psa10 value="0.00231042727321624" flag="0"/>
			<psa30 value="0.000607154804360323" flag="0"/>
		</comp>
		<comp name=".HNZ" depth="0.0">
			<acc value="0.0054885410440338" flag="0"/>
			<vel value="0.00146114276388" flag="0"/>
			<psa03 value="0.00589235127683998" flag="0"/>
			<psa10 value="0.00144625295559647" flag="0"/>
			<psa30 value="0.000452711656589911" flag="0"/>
		</comp>
	</station>
	<station code="SFR2" name="SFR2" netid="HI" source="ITSAK Strong Motion Network" insttype="" lat="36.399841" lon="25.438209">
		<comp name=".HNE" depth="0.0">
			<acc value="0.2002539108414" flag="0"/>
			<vel value="0.0889153350597" flag="0"/>
			<psa03 value="0.40047032085998" flag="0"/>
			<psa10 value="0.0424928274412" flag="0"/>
			<psa30 value="0.00615673618689551" flag="0"/>
		</comp>
		<comp name=".HNN" depth="0.0">
			<acc value="0.27773372933064" flag="0"/>
			<vel value="0.0891629380334" flag="0"/>
			<psa03 value="0.41981910262195" flag="0"/>
			<psa10 value="0.0831722372526437" flag="0"/>
			<psa30 value="0.0050171890308328" flag="0"/>
		</comp>
		<comp name=".HNZ" depth="0.0">
			<acc value="0.20024781735018" flag="0"/>
			<vel value="0.0575976214159" flag="0"/>
			<psa03 value="0.329768741394249" flag="0"/>
			<psa10 value="0.034202952027695" flag="0"/>
			<psa30 value="0.00317237307081368" flag="0"/>
		</comp>
	</station>
	<station code="AMGA" name="AMGA" netid="HL" source="National Observatory of Athens Seismic Network" insttype="" lat="36.831561" lon="25.893836">
		<comp name="00.HNE" depth="0.0">
			<acc value="0.22231830694716" flag="0"/>
			<vel value="0.0397268327988" flag="0"/>
			<psa03 value="0.224288878870592" flag="0"/>
			<psa10 value="0.026809639132029" flag="0"/>
			<psa30 value="0.00418116156476764" flag="0"/>
		</comp>
		<comp name="00.HNN" depth="0.0">
			<acc value="0.25556765241144" flag="0"/>
			<vel value="0.0547238311182" flag="0"/>
			<psa03 value="0.212006877748476" flag="0"/>
			<psa10 value="0.0288925252380107" flag="0"/>
			<psa30 value="0.00181376140279181" flag="0"/>
		</comp>
		<comp name="00.HNZ" depth="0.0">
			<acc value="0.15749003074554" flag="0"/>
			<vel value="0.0390880726058" flag="0"/>
			<psa03 value="0.125306769708562" flag="0"/>
			<psa10 value="0.0168826190156431" flag="0"/>
			<psa30 value="0.00234283207612651" flag="0"/>
		</comp>
	</station>
	<station code="ANAF" name="ANAF" netid="HL" source="National Observatory of Athens Seismic Network" insttype="" lat="36.35675" lon="25.77262">
		<comp name=".HNE" depth="0.0">
			<acc value="0.9429680946432" flag="0"/>
			<vel value="0.217342745724" flag="0"/>
			<psa03 value="0.670081556283263" flag="0"/>
			<psa10 value="0.0745683122849005" flag="0"/>
			<psa30 value="0.00600824718354511" flag="0"/>
		</comp>
		<comp name=".HNN" depth="0.0">
			<acc value="0.94875296126244" flag="0"/>
			<vel value="0.230339111157" flag="0"/>
			<psa03 value="0.753528084203351" flag="0"/>
			<psa10 value="0.09763222765607" flag="0"/>
			<psa30 value="0.0077624667253139" flag="0"/>
		</comp>
		<comp name=".HNZ" depth="0.0">
			<acc value="0.64549008458418" flag="0"/>
			<vel value="0.107268585211" flag="0"/>
			<psa03 value="0.436961904914831" flag="0"/>
			<psa10 value="0.0518384690441819" flag="0"/>
			<psa30 value="0.00675011632872478" flag="0"/>
		</comp>
	</station>
	<station code="ASTA" name="ASTA" netid="HL" source="National Observatory of Athens Seismic Network" insttype="" lat="36.54552" lon="26.35295">
		<comp name="00.HNE" depth="0.0">
			<acc value="0.037600289516862" flag="0"/>
			<vel value="0.0121834872484" flag="0"/>
			<psa03 value="0.0457180858903205" flag="0"/>
			<psa10 value="0.0131165070292317" flag="0"/>
			<psa30 value="0.000952368923099961" flag="0"/>
		</comp>
		<comp name="00.HNN" depth="0.0">
			<acc value="0.037513028477184" flag="0"/>
			<vel value="0.01198503843" flag="0"/>
			<psa03 value="0.0502517403893722" flag="0"/>
			<psa10 value="0.00681411093266054" flag="0"/>
			<psa30 value="0.00161450466134447" flag="0"/>
		</comp>
		<comp name="00.HNZ" depth="0.0">
			<acc value="0.021883805053332" flag="0"/>
			<vel value="0.00759582929885" flag="0"/>
			<psa03 value="0.0300615721607795" flag="0"/>
			<psa10 value="0.010208733153487" flag="0"/>
			<psa30 value="0.00134318470856065" flag="0"/>
		</comp>
	</station>
	<station code="CHNB" name="CHNB" netid="HL" source="National Observatory of Athens Seismic Network" insttype="" lat="35.48765" lon="24.06605">
		<comp name="00.HNE" depth="0.0">
			<acc value="0.010888275599286" flag="0"/>
			<vel value="0.00666365220944" flag="0"/>
			<psa03 value="0.0356342642409413" flag="0"/>
			<psa10 value="0.00954534045694223" flag="0"/>
			<psa30 value="0.000827412624526649" flag="0"/>
		</comp>
		<comp name="00.HNN" depth="0.0">
