<?xml version="1.0" encoding="UTF-8" standalone="yes"?>
<!DOCTYPE earthquake SYSTEM "stationlist.dtd">
<stationlist created="" xmlns="ch.ethz.sed.shakemap.usgs.xml">
  <station code="SNT1" name="SNT1" netid="HA" insttype="30" lat="36.4159" lon="25.4282">
    <comp name="--.HHZ">
      <acc value="0.0646328880" flag="0"/>
      <vel value="0.0188936741" flag="0"/>
      <psa03 value="0.1099905729" flag="0"/>
      <psa10 value="0.0194850264" flag="0"/>
      <psa30 value="0.0027705638" flag="0"/>
    </comp>
    <comp name="--.HHN">
      <acc value="0.0749482315" flag="0"/>
      <vel value="0.0270100180" flag="0"/>
      <psa03 value="0.1239032229" flag="0"/>
      <psa10 value="0.0242288576" flag="0"/>
      <psa30 value="0.0045817725" flag="0"/>
    </comp>
    <comp name="--.HHE">
      <acc value="0.0867960084" flag="0"/>
      <vel value="0.0340794761" flag="0"/>
      <psa03 value="0.1574962493" flag="0"/>
      <psa10 value="0.0415637990" flag="0"/>
      <psa30 value="0.0041612652" flag="0"/>
    </comp>
  </station>
  <station code="AMGA" name="AMGA" netid="HL" insttype="SMART24" lat="36.8316" lon="25.8938">
    <comp name="--.HHN">
      <acc value="0.4221418135" flag="0"/>
      <vel value="0.0877479690" flag="0"/>
      <psa03 value="0.3408773630" flag="0"/>
      <psa10 value="0.0490229151" flag="0"/>
      <psa30 value="0.0029824165" flag="0"/>
    </comp>
    <comp name="--.HHE">
      <acc value="0.3474218512" flag="0"/>
      <vel value="0.0655827875" flag="0"/>
      <psa03 value="0.3619992549" flag="0"/>
      <psa10 value="0.0407205623" flag="0"/>
      <psa30 value="0.0061698986" flag="0"/>
    </comp>
    <comp name="--.HHZ">
      <acc value="0.2651235731" flag="0"/>
      <vel value="0.0650711727" flag="0"/>
      <psa03 value="0.2049460901" flag="0"/>
      <psa10 value="0.0276654484" flag="0"/>
      <psa30 value="0.0031519212" flag="0"/>
    </comp>
  </station>
</stationlist>
