<?xml version="1.0" encoding="UTF-8" standalone="yes"?>
<!DOCTYPE earthquake SYSTEM "stationlist.dtd">
<stationlist created="" xmlns="ch.ethz.sed.shakemap.usgs.xml">
  <station code="CUKT" name="CUKT" netid="KO" insttype="CMG-3ESP" lat="37.2473" lon="43.6077">
    <comp name="--.HHN">
      <acc value="0.2748599131" flag="0"/>
      <vel value="0.1219587735" flag="0"/>
      <psa03 value="0.7357876054" flag="0"/>
      <psa10 value="0.1927365443" flag="0"/>
      <psa30 value="0.0119413653" flag="0"/>
    </comp>
    <comp name="--.HHZ">
      <acc value="0.2476441468" flag="0"/>
      <vel value="0.1224262648" flag="0"/>
      <psa03 value="0.6510887076" flag="0"/>
      <psa10 value="0.0680148003" flag="0"/>
      <psa30 value="0.0073987059" flag="0"/>
    </comp>
    <comp name="--.HHE">
      <acc value="0.5080010744" flag="0"/>
      <vel value="0.2891430034" flag="0"/>
      <psa03 value="1.2970054992" flag="0"/>
      <psa10 value="0.2490553013" flag="0"/>
      <psa30 value="0.0215181435" flag="0"/>
    </comp>
  </station>
</stationlist>
