<?xml version="1.0" encoding="UTF-8" standalone="yes"?>
<!DOCTYPE earthquake SYSTEM "stationlist.dtd">
<stationlist created="" xmlns="ch.ethz.sed.shakemap.usgs.xml">
  <station code="PLVAM" name="PLVAM" netid="BS" insttype="200" lat="43.9523" lon="22.8502">
    <comp name="--.HNZ">
      <acc value="0.0869256173" flag="0"/>
      <vel value="0.0293264284" flag="0"/>
      <psa03 value="0.0979360140" flag="0"/>
      <psa10 value="0.0119802668" flag="0"/>
      <psa30 value="0.0015108284" flag="0"/>
    </comp>
    <comp name="--.HNE">
      <acc value="0.1258687412" flag="0"/>
      <vel value="0.0438799441" flag="0"/>
      <psa03 value="0.1956115737" flag="0"/>
      <psa10 value="0.0268219414" flag="0"/>
      <psa30 value="0.0030224153" flag="0"/>
    </comp>
    <comp name="--.HNN">
      <acc value="0.0948200939" flag="0"/>
      <vel value="0.0411939787" flag="0"/>
      <psa03 value="0.1723626368" flag="0"/>
      <psa10 value="0.0284901181" flag="0"/>
      <psa30 value="0.0024430804" flag="0"/>
    </comp>
  </station>
  <station code="BZS" name="BZS" netid="MN" insttype="" lat="45.6188" lon="21.6401">
    <comp name="--.HHN">
      <acc value="0.0254460995" flag="0"/>
      <vel value="0.0082252286" flag="0"/>
      <psa03 value="0.0384326765" flag="0"/>
      <psa10 value="0.0086048633" flag="0"/>
      <psa30 value="0.0007431697" flag="0"/>
    </comp>
    <comp name="--.HHE">
      <acc value="0.0327997702" flag="0"/>
      <vel value="0.0111895366" flag="0"/>
      <psa03 value="0.0924998393" flag="0"/>
      <psa10 value="0.0068925054" flag="0"/>
      <psa30 value="0.0005329827" flag="0"/>
    </comp>
    <comp name="--.HHZ">
      <acc value="0.0165843805" flag="0"/>
      <vel value="0.0074153901" flag="0"/>
      <psa03 value="0.0439320030" flag="0"/>
      <psa10 value="0.0061209627" flag="0"/>
      <psa30 value="0.0003895036" flag="0"/>
    </comp>
  </station>
  <station code="ARR" name="ARR" netid="RO" insttype="w/attenuator" lat="45.3657" lon="24.6332">
    <comp name="--.HHE">
      <acc value="0.0174644185" flag="0"/>
      <vel value="0.0110161664" flag="0"/>
      <psa03 value="0.0708245938" flag="0"/>
      <psa10 value="0.0069535989" flag="0"/>
      <psa30 value="0.0005064996" flag="0"/>
    </comp>
    <comp name="--.HHZ">
      <acc value="0.0195679525" flag="0"/>
      <vel value="0.0077245578" flag="0"/>
      <psa03 value="0.0573541520" flag="0"/>
      <psa10 value="0.0053033897" flag="0"/>
      <psa30 value="0.0003391370" flag="0"/>
    </comp>
    <comp name="--.HHN">
      <acc value="0.0163183739" flag="0"/>
      <vel value="0.0120336007" flag="0"/>
      <psa03 value="0.0533331973" flag="0"/>
      <psa10 value="0.0099794700" flag="0"/>
      <psa30 value="0.0005717409" flag="0"/>
    </comp>
  </station>
  <station code="BAIL" name="BAIL" netid="RO" insttype="Seismometer/Basalt" lat="44.0201" lon="23.345">
    <comp name="--.HHE">
      <acc value="0.0490088964" flag="0"/>
      <vel value="0.0233773732" flag="0"/>
      <psa03 value="0.1238745323" flag="0"/>
      <psa10 value="0.0260900438" flag="0"/>
      <psa30 value="0.0021042322" flag="0"/>
    </comp>
    <comp name="--.HHZ">
      <acc value="0.0310425336" flag="0"/>
      <vel value="0.0093502550" flag="0"/>
      <psa03 value="0.0345064876" flag="0"/>
      <psa10 value="0.0081457165" flag="0"/>
      <psa30 value="0.0010193470" flag="0"/>
    </comp>
    <comp name="--.HHN">
      <acc value="0.0550222810" flag="0"/>
      <vel value="0.0288444611" flag="0"/>
      <psa03 value="0.0978207859" flag="0"/>
      <psa10 value="0.0268042397" flag="0"/>
      <psa30 value="0.0037736874" flag="0"/>
    </comp>
  </station>
  <station code="BZS" name="BZS" netid="RO" insttype="w/attenuator" lat="45.6188" lon="21.6401">
    <comp name="--.HHZ">
      <acc value="0.0123292449" flag="0"/>
      <vel value="0.0055884958" flag="0"/>
      <psa03 value="0.0329150574" flag="0"/>
      <psa10 value="0.0046159709" flag="0"/>
      <psa30 value="0.0002973145" flag="0"/>
    </comp>
    <comp name="--.HHE">
      <acc value="0.0242773098" flag="0"/>
      <vel value="0.0083622385" flag="0"/>
      <psa03 value="0.0693408144" flag="0"/>
      <psa10 value="0.0051371346" flag="0"/>
      <psa30 value="0.0003950762" flag="0"/>
    </comp>
    <comp name="--.HHN">
      <acc value="0.0192822953" flag="0"/>
      <vel value="0.0062235583" flag="0"/>
      <psa03 value="0.0287823091" flag="0"/>
      <psa10 value="0.0064679017" flag="0"/>
      <psa30 value="0.0005614985" flag="0"/>
    </comp>
  </station>
  <station code="CRAR" name="CRAR" netid="RO" insttype="MBB2/Quanterra" lat="44.325" lon="23.7999">
    <comp name="--.HHE">
      <acc value="0.1549063803" flag="0"/>
      <vel value="0.0605874853" flag="0"/>
      <psa03 value="0.2739285558" flag="0"/>
      <psa10 value="0.0219826009" flag="0"/>
      <psa30 value="0.0031241589" flag="0"/>
    </comp>
    <comp name="--.HHN">
      <acc value="0.1637392827" flag="0"/>
      <vel value="0.0636813183" flag="0"/>
      <psa03 value="0.3314577699" flag="0"/>
      <psa10 value="0.0503238388" flag="0"/>
      <psa30 value="0.0037741485" flag="0"/>
    </comp>
    <comp name="--.HHZ">
      <acc value="0.1121046146" flag="0"/>
      <vel value="0.0301440049" flag="0"/>
      <psa03 value="0.1228476892" flag="0"/>
      <psa10 value="0.0095477134" flag="0"/>
      <psa30 value="0.0008895483" flag="0"/>
    </comp>
  </station>
  <station code="CRBR" name="CRBR" netid="RO" insttype="200" lat="45.4108" lon="22.2383">
    <comp name="--.HNE">
      <acc value="0.0506043126" flag="0"/>
      <vel value="0.0115232689" flag="0"/>
      <psa03 value="0.0538635861" flag="0"/>
      <psa10 value="0.0181118197" flag="0"/>
      <psa30 value="0.0018045588" flag="0"/>
    </comp>
    <comp name="--.HNN">
      <acc value="0.0597811196" flag="0"/>
      <vel value="0.0145015399" flag="0"/>
      <psa03 value="0.0574897644" flag="0"/>
      <psa10 value="0.0185426795" flag="0"/>
      <psa30 value="0.0012290094" flag="0"/>
    </comp>
    <comp name="--.HNZ">
      <acc value="0.0303063251" flag="0"/>
      <vel value="0.0068952486" flag="0"/>
      <psa03 value="0.0302276248" flag="0"/>
      <psa10 value="0.0126974441" flag="0"/>
      <psa30 value="0.0005046836" flag="0"/>
    </comp>
  </station>
  <station code="DEV" name="DEV" netid="RO" insttype="CMG40T.1to100/Quanterra" lat="45.887" lon="22.898">
    <comp name="--.HHZ">
      <acc value="0.1528372049" flag="0"/>
      <vel value="0.0240218492" flag="0"/>
      <psa03 value="0.0405727579" flag="0"/>
      <psa10 value="0.0143015253" flag="0"/>
      <psa30 value="0.0005977439" flag="0"/>
    </comp>
    <comp name="--.HHN">
      <acc value="0.1037141020" flag="0"/>
      <vel value="0.0233045692" flag="0"/>
      <psa03 value="0.0980772898" flag="0"/>
      <psa10 value="0.0234534012" flag="0"/>
      <psa30 value="0.0016745490" flag="0"/>
    </comp>
    <comp name="--.HHE">
      <acc value="0.1556166136" flag="0"/>
      <vel value="0.0264360409" flag="0"/>
      <psa03 value="0.0775291378" flag="0"/>
      <psa10 value="0.0328450344" flag="0"/>
      <psa30 value="0.0011043447" flag="0"/>
    </comp>
  </station>
  <station code="GZR" name="GZR" netid="RO" insttype="330" lat="45.3933" lon="22.7767">
    <comp name="--.HHE">
      <acc value="0.4338862124" flag="0"/>
      <vel value="0.0722754707" flag="0"/>
      <psa03 value="0.2590674854" flag="0"/>
      <psa10 value="0.0119350860" flag="0"/>
      <psa30 value="0.0013677675" flag="0"/>
    </comp>
    <comp name="--.HHN">
      <acc value="0.4023241786" flag="0"/>
      <vel value="0.0821647394" flag="0"/>
      <psa03 value="0.2550648455" flag="0"/>
      <psa10 value="0.0283081842" flag="0"/>
      <psa30 value="0.0019274761" flag="0"/>
    </comp>
    <comp name="--.HHZ">
      <acc value="0.4215968459" flag="0"/>
      <vel value="0.0560345049" flag="0"/>
      <psa03 value="0.0712423832" flag="0"/>
      <psa10 value="0.0168671405" flag="0"/>
      <psa30 value="0.0008922016" flag="0"/>
    </comp>
  </station>
  <station code="HUMR" name="HUMR" netid="RO" insttype="Seismometer/Quanterra" lat="44.5281" lon="24.9804">
    <comp name="--.HHE">
      <acc value="0.1405269809" flag="0"/>
      <vel value="0.0234358169" flag="0"/>
      <psa03 value="0.0589714198" flag="0"/>
      <psa10 value="0.0339541706" flag="0"/>
      <psa30 value="0.0103754094" flag="0"/>
    </comp>
    <comp name="--.HHZ">
      <acc value="0.0343076779" flag="0"/>
      <vel value="0.0105324803" flag="0"/>
      <psa03 value="0.0517625330" flag="0"/>
      <psa10 value="0.0073342415" flag="0"/>
      <psa30 value="0.0005194352" flag="0"/>
    </comp>
    <comp name="--.HHN">
      <acc value="0.1863498169" flag="0"/>
      <vel value="0.0314801556" flag="0"/>
      <psa03 value="0.0848252693" flag="0"/>
      <psa10 value="0.0288014196" flag="0"/>
      <psa30 value="0.0103558009" flag="0"/>
    </comp>
  </station>
  <station code="LOT" name="LOT" netid="RO" insttype="330" lat="45.446" lon="23.7698">
    <comp name="--.HHE">
      <acc value="0.5098000473" flag="0"/>
      <vel value="0.1354909370" flag="0"/>
      <psa03 value="0.6577875780" flag="0"/>
      <psa10 value="0.0541850127" flag="0"/>
      <psa30 value="0.0043134962" flag="0"/>
    </comp>
    <comp name="--.HHN">
      <acc value="0.4063917420" flag="0"/>
      <vel value="0.1007530941" flag="0"/>
      <psa03 value="0.7388513130" flag="0"/>
      <psa10 value="0.0338141630" flag="0"/>
      <psa30 value="0.0026356159" flag="0"/>
    </comp>
    <comp name="--.HHZ">
      <acc value="0.2467432850" flag="0"/>
      <vel value="0.0732845539" flag="0"/>
      <psa03 value="0.2814337109" flag="0"/>
      <psa10 value="0.0193807512" flag="0"/>
      <psa30 value="0.0017416379" flag="0"/>
    </comp>
  </station>
  <station code="MDB" name="MDB" netid="RO" insttype="MBB2/Quanterra" lat="46.1497" lon="24.3765">
    <comp name="--.HHZ">
      <acc value="0.0309227300" flag="0"/>
      <vel value="0.0180911336" flag="0"/>
      <psa03 value="0.0982655291" flag="0"/>
      <psa10 value="0.0277226562" flag="0"/>
      <psa30 value="0.0010681862" flag="0"/>
    </comp>
    <comp name="--.HHE">
      <acc value="0.0542795549" flag="0"/>
      <vel value="0.0339993106" flag="0"/>
      <psa03 value="0.1371229578" flag="0"/>
      <psa10 value="0.0313117250" flag="0"/>
      <psa30 value="0.0026090289" flag="0"/>
    </comp>
    <comp name="--.HHN">
      <acc value="0.0666560024" flag="0"/>
      <vel value="0.0332746533" flag="0"/>
      <psa03 value="0.1525970074" flag="0"/>
      <psa10 value="0.0306711741" flag="0"/>
      <psa30 value="0.0018197539" flag="0"/>
    </comp>
  </station>
  <station code="MDVR" name="MDVR" netid="RO" insttype="CMG40T.1to100/Quanterra" lat="44.7815" lon="21.7128">
    <comp name="--.HHE">
      <acc value="0.0789218995" flag="0"/>
      <vel value="0.0204063253" flag="0"/>
      <psa03 value="0.0518505139" flag="0"/>
      <psa10 value="0.0132185744" flag="0"/>
      <psa30 value="0.0005419246" flag="0"/>
    </comp>
    <comp name="--.HHN">
      <acc value="0.0879327607" flag="0"/>
      <vel value="0.0140852581" flag="0"/>
      <psa03 value="0.0652731250" flag="0"/>
      <psa10 value="0.0063159098" flag="0"/>
      <psa30 value="0.0008658274" flag="0"/>
    </comp>
    <comp name="--.HHZ">
      <acc value="0.0735659571" flag="0"/>
      <vel value="0.0132552353" flag="0"/>
      <psa03 value="0.0338116363" flag="0"/>
      <psa10 value="0.0066043848" flag="0"/>
      <psa30 value="0.0006297454" flag="0"/>
    </comp>
  </station>
  <station code="MHISU" name="MHISU" netid="RO" insttype="200" lat="44.6227" lon="22.6535">
    <comp name="--.HNZ">
      <acc value="0.1016814710" flag="0"/>
      <vel value="0.0296155766" flag="0"/>
      <psa03 value="0.2063539560" flag="0"/>
      <psa10 value="0.0188713449" flag="0"/>
      <psa30 value="0.0018573458" flag="0"/>
    </comp>
    <comp name="--.HNN">
      <acc value="0.1994573546" flag="0"/>
      <vel value="0.0753726179" flag="0"/>
      <psa03 value="0.5894743607" flag="0"/>
      <psa10 value="0.0656211156" flag="0"/>
      <psa30 value="0.0040723457" flag="0"/>
    </comp>
    <comp name="--.HNE">
      <acc value="0.1298898954" flag="0"/>
      <vel value="0.0744087104" flag="0"/>
      <psa03 value="0.3143290265" flag="0"/>
      <psa10 value="0.0424539010" flag="0"/>
      <psa30 value="0.0049417943" flag="0"/>
    </comp>
  </station>
  <station code="MTUR" name="MTUR" netid="RO" insttype="200" lat="45.2349" lon="25.0739">
    <comp name="--.HNE">
      <acc value="0.0346847006" flag="0"/>
      <vel value="0.0192002356" flag="0"/>
      <psa03 value="0.0770757768" flag="0"/>
      <psa10 value="0.0165064404" flag="0"/>
      <psa30 value="0.0013612246" flag="0"/>
    </comp>
    <comp name="--.HNN">
      <acc value="0.0515689919" flag="0"/>
      <vel value="0.0223908076" flag="0"/>
      <psa03 value="0.1172358131" flag="0"/>
      <psa10 value="0.0364475200" flag="0"/>
      <psa30 value="0.0025644438" flag="0"/>
    </comp>
    <comp name="--.HNZ">
      <acc value="0.0195538283" flag="0"/>
      <vel value="0.0078996109" flag="0"/>
      <psa03 value="0.0454285161" flag="0"/>
      <psa10 value="0.0103418701" flag="0"/>
      <psa30 value="0.0008981831" flag="0"/>
    </comp>
  </station>
  <station code="OTISU" name="OTISU" netid="RO" insttype="200" lat="44.4278" lon="24.3755">
    <comp name="--.HNZ">
      <acc value="0.0919429552" flag="0"/>
      <vel value="0.0205358681" flag="0"/>
      <psa03 value="0.1217173978" flag="0"/>
      <psa10 value="0.0082087515" flag="0"/>
      <psa30 value="0.0006828017" flag="0"/>
    </comp>
    <comp name="--.HNN">
      <acc value="0.1006269580" flag="0"/>
      <vel value="0.0374385071" flag="0"/>
      <psa03 value="0.2744177436" flag="0"/>
      <psa10 value="0.0174756976" flag="0"/>
      <psa30 value="0.0021704521" flag="0"/>
    </comp>
    <comp name="--.HNE">
      <acc value="0.1161457859" flag="0"/>
      <vel value="0.0301563948" flag="0"/>
      <psa03 value="0.1725992665" flag="0"/>
      <psa10 value="0.0282296213" flag="0"/>
      <psa30 value="0.0018598571" flag="0"/>
    </comp>
  </station>
  <station code="RMGR" name="RMGR" netid="RO" insttype="MBB2/Quanterra" lat="44.6627" lon="22.6922">
    <comp name="--.HHE">
      <acc value="0.3011242045" flag="0"/>
      <vel value="0.0920147567" flag="0"/>
      <psa03 value="0.5382662837" flag="0"/>
      <psa10 value="0.0487207123" flag="0"/>
      <psa30 value="0.0035797870" flag="0"/>
    </comp>
    <comp name="--.HHZ">
      <acc value="0.1447346119" flag="0"/>
      <vel value="0.0417145465" flag="0"/>
      <psa03 value="0.2069754740" flag="0"/>
      <psa10 value="0.0291939038" flag="0"/>
      <psa30 value="0.0025549844" flag="0"/>
    </comp>
    <comp name="--.HHN">
      <acc value="0.2235493883" flag="0"/>
      <vel value="0.0761512069" flag="0"/>
      <psa03 value="0.3528460425" flag="0"/>
      <psa10 value="0.0509655357" flag="0"/>
      <psa30 value="0.0060274245" flag="0"/>
    </comp>
  </station>
  <station code="STFAR" name="STFAR" netid="RO" insttype="MBB2/Quanterra" lat="44.8629" lon="24.9609">
    <comp name="--.HHE">
      <acc value="0.0605287024" flag="0"/>
      <vel value="0.0259330655" flag="0"/>
      <psa03 value="0.1441452104" flag="0"/>
      <psa10 value="0.0288441616" flag="0"/>
      <psa30 value="0.0039090971" flag="0"/>
    </comp>
    <comp name="--.HHN">
      <acc value="0.0546715814" flag="0"/>
      <vel value="0.0243257203" flag="0"/>
      <psa03 value="0.1640435303" flag="0"/>
      <psa10 value="0.0360800601" flag="0"/>
      <psa30 value="0.0027752467" flag="0"/>
    </comp>
    <comp name="--.HHZ">
      <acc value="0.0273450702" flag="0"/>
      <vel value="0.0110086216" flag="0"/>
      <psa03 value="0.0709162345" flag="0"/>
      <psa10 value="0.0126243380" flag="0"/>
      <psa30 value="0.0018473658" flag="0"/>
    </comp>
  </station>
  <station code="SURR" name="SURR" netid="RO" insttype="Linear" lat="45.754" lon="22.1246">
    <comp name="--.HHE">
      <acc value="0.0874076913" flag="0"/>
      <vel value="0.0118769016" flag="0"/>
      <psa03 value="0.0391719657" flag="0"/>
      <psa10 value="0.0145239754" flag="0"/>
      <psa30 value="0.0005940248" flag="0"/>
    </comp>
    <comp name="--.HHN">
      <acc value="0.0799054125" flag="0"/>
      <vel value="0.0140444933" flag="0"/>
      <psa03 value="0.0516985833" flag="0"/>
      <psa10 value="0.0095500677" flag="0"/>
      <psa30 value="0.0006022688" flag="0"/>
    </comp>
    <comp name="--.HHZ">
      <acc value="0.0433506877" flag="0"/>
      <vel value="0.0071859577" flag="0"/>
      <psa03 value="0.0201863712" flag="0"/>
      <psa10 value="0.0044410790" flag="0"/>
      <psa30 value="0.0003522703" flag="0"/>
    </comp>
  </station>
  <station code="TNR" name="TNR" netid="RO" insttype="CMG40T.1to100/Quanterra" lat="45.652" lon="24.273">
    <comp name="--.HHZ">
      <acc value="0.0307080701" flag="0"/>
      <vel value="0.0212212417" flag="0"/>
      <psa03 value="0.0569642946" flag="0"/>
      <psa10 value="0.0205499912" flag="0"/>
      <psa30 value="0.0012368183" flag="0"/>
    </comp>
    <comp name="--.HHN">
      <acc value="0.0293261924" flag="0"/>
      <vel value="0.0150014119" flag="0"/>
      <psa03 value="0.0575696313" flag="0"/>
      <psa10 value="0.0210501866" flag="0"/>
      <psa30 value="0.0012422013" flag="0"/>
    </comp>
    <comp name="--.HHE">
      <acc value="0.0236272400" flag="0"/>
      <vel value="0.0148334517" flag="0"/>
      <psa03 value="0.0444504630" flag="0"/>
      <psa10 value="0.0210721695" flag="0"/>
      <psa30 value="0.0012454382" flag="0"/>
    </comp>
  </station>
  <station code="VLAD" name="VLAD" netid="RO" insttype="Seismometer/Basalt" lat="43.9986" lon="24.4038">
    <comp name="--.HHE">
      <acc value="0.0443275370" flag="0"/>
      <vel value="0.0188506546" flag="0"/>
      <psa03 value="0.1267201487" flag="0"/>
      <psa10 value="0.0202703621" flag="0"/>
      <psa30 value="0.0019004612" flag="0"/>
    </comp>
    <comp name="--.HHN">
      <acc value="0.0604623126" flag="0"/>
      <vel value="0.0210946522" flag="0"/>
      <psa03 value="0.1561826151" flag="0"/>
      <psa10 value="0.0177034928" flag="0"/>
      <psa30 value="0.0014710748" flag="0"/>
    </comp>
    <comp name="--.HHZ">
      <acc value="0.0236515844" flag="0"/>
      <vel value="0.0096435066" flag="0"/>
      <psa03 value="0.0452414741" flag="0"/>
      <psa10 value="0.0084926341" flag="0"/>
      <psa30 value="0.0010087598" flag="0"/>
    </comp>
  </station>
  <station code="VOIR" name="VOIR" netid="RO" insttype="330" lat="45.4371" lon="25.0495">
    <comp name="--.HHE">
      <acc value="0.0101258637" flag="0"/>
      <vel value="0.0064326781" flag="0"/>
      <psa03 value="0.0335911586" flag="0"/>
      <psa10 value="0.0080250399" flag="0"/>
      <psa30 value="0.0003847797" flag="0"/>
    </comp>
    <comp name="--.HHZ">
      <acc value="0.0088336265" flag="0"/>
      <vel value="0.0063835744" flag="0"/>
      <psa03 value="0.0243161936" flag="0"/>
      <psa10 value="0.0060509209" flag="0"/>
      <psa30 value="0.0004727889" flag="0"/>
    </comp>
    <comp name="--.HHN">
      <acc value="0.0140445024" flag="0"/>
      <vel value="0.0068687802" flag="0"/>
      <psa03 value="0.0343863216" flag="0"/>
      <psa10 value="0.0062166035" flag="0"/>
      <psa30 value="0.0004049704" flag="0"/>
    </comp>
  </station>
  <station code="RO03A" name="RO03A" netid="Y8" insttype="" lat="44.7765" lon="23.8757">
    <comp name="00.HHE">
      <acc value="0.1528255045" flag="0"/>
      <vel value="0.0687955628" flag="0"/>
      <psa03 value="0.3627803719" flag="0"/>
      <psa10 value="0.0723084188" flag="0"/>
      <psa30 value="0.0064163184" flag="0"/>
    </comp>
    <comp name="00.HHZ">
