<?xml version="1.0" encoding="UTF-8" standalone="yes"?>
<!DOCTYPE earthquake SYSTEM "stationlist.dtd">
<stationlist created="" xmlns="ch.ethz.sed.shakemap.usgs.xml">
  <station code="DPC" name="DPC" netid="CZ" insttype="" lat="50.3502" lon="16.3222">
    <comp name="--.HHN">
      <acc value="0.0193843996" flag="0"/>
      <vel value="0.0065415093" flag="0"/>
      <psa03 value="0.0318370134" flag="0"/>
      <psa10 value="0.0113298120" flag="0"/>
      <psa30 value="0.0019378593" flag="0"/>
    </comp>
    <comp name="--.HHE">
      <acc value="0.0149095673" flag="0"/>
      <vel value="0.0077037557" flag="0"/>
      <psa03 value="0.0143408406" flag="0"/>
      <psa10 value="0.0065243945" flag="0"/>
      <psa30 value="0.0016791654" flag="0"/>
    </comp>
    <comp name="--.HHZ">
      <acc value="0.0082905105" flag="0"/>
      <vel value="0.0049955810" flag="0"/>
      <psa03 value="0.0137906585" flag="0"/>
      <psa10 value="0.0045648074" flag="0"/>
      <psa30 value="0.0029442953" flag="0"/>
    </comp>
  </station>
  <station code="UPC" name="UPC" netid="CZ" insttype="" lat="50.5074" lon="16.0121">
    <comp name="--.HHN">
      <acc value="0.0298912457" flag="0"/>
      <vel value="0.0277425995" flag="0"/>
      <psa03 value="0.0714257079" flag="0"/>
      <psa10 value="0.0327393286" flag="0"/>
      <psa30 value="0.0022672099" flag="0"/>
    </comp>
    <comp name="--.HHZ">
      <acc value="0.0148510806" flag="0"/>
      <vel value="0.0093521813" flag="0"/>
      <psa03 value="0.0276983355" flag="0"/>
      <psa10 value="0.0107922183" flag="0"/>
      <psa30 value="0.0022255421" flag="0"/>
    </comp>
    <comp name="--.HHE">
      <acc value="0.0158326718" flag="0"/>
      <vel value="0.0147297305" flag="0"/>
      <psa03 value="0.0571607881" flag="0"/>
      <psa10 value="0.0276955601" flag="0"/>
      <psa30 value="0.0023177127" flag="0"/>
    </comp>
  </station>
  <station code="DPC" name="DPC" netid="MN" insttype="" lat="50.3502" lon="16.3222">
    <comp name="--.HHE">
      <acc value="0.0149095673" flag="0"/>
      <vel value="0.0077037557" flag="0"/>
      <psa03 value="0.0143408406" flag="0"/>
      <psa10 value="0.0065243945" flag="0"/>
      <psa30 value="0.0016791654" flag="0"/>
    </comp>
    <comp name="--.HHZ">
      <acc value="0.0082905105" flag="0"/>
      <vel value="0.0049955810" flag="0"/>
      <psa03 value="0.0137906585" flag="0"/>
      <psa10 value="0.0045648074" flag="0"/>
      <psa30 value="0.0029442953" flag="0"/>
    </comp>
    <comp name="--.HHN">
      <acc value="0.0193843996" flag="0"/>
      <vel value="0.0065415093" flag="0"/>
      <psa03 value="0.0318370134" flag="0"/>
      <psa10 value="0.0113298120" flag="0"/>
      <psa30 value="0.0019378593" flag="0"/>
    </comp>
  </station>
  <station code="KSP" name="KSP" netid="PL" insttype="STS-2/N" lat="50.8428" lon="16.2931">
    <comp name="--.HHE">
      <acc value="0.0106624113" flag="0"/>
      <vel value="0.0102167000" flag="0"/>
      <psa03 value="0.0328934274" flag="0"/>
      <psa10 value="0.0066489717" flag="0"/>
      <psa30 value="0.0029845904" flag="0"/>
    </comp>
    <comp name="--.HHN">
      <acc value="0.0110354135" flag="0"/>
      <vel value="0.0200526013" flag="0"/>
      <psa03 value="0.0323239931" flag="0"/>
      <psa10 value="0.0108656142" flag="0"/>
      <psa30 value="0.0058498356" flag="0"/>
    </comp>
    <comp name="--.HHZ">
      <acc value="0.0114948521" flag="0"/>
      <vel value="0.0166644838" flag="0"/>
      <psa03 value="0.0161308212" flag="0"/>
      <psa10 value="0.0105039896" flag="0"/>
      <psa30 value="0.0063345976" flag="0"/>
    </comp>
  </station>
</stationlist>
