<?xml version="1.0" encoding="UTF-8" standalone="yes"?>
<!DOCTYPE earthquake SYSTEM "stationlist.dtd">
<stationlist created="" xmlns="ch.ethz.sed.shakemap.usgs.xml">
  <station code="JIMR" name="JIMR" netid="RO" insttype="200" commtype="DIG" lat="45.7818" lon="20.7024">
    <comp name="--.HNE">
      <acc value="0.0898416607" flag="0"/>
      <vel value="0.0276323101" flag="0"/>
      <psa03 value="0.1551355419" flag="0"/>
      <psa10 value="0.0223823721" flag="0"/>
      <psa30 value="0.0015605953" flag="0"/>
    </comp>
    <comp name="--.HNN">
      <acc value="0.0974558769" flag="0"/>
      <vel value="0.0320319991" flag="0"/>
      <psa03 value="0.1286358558" flag="0"/>
      <psa10 value="0.0156887967" flag="0"/>
      <psa30 value="0.0009228399" flag="0"/>
    </comp>
    <comp name="--.HNZ">
      <acc value="0.0345430417" flag="0"/>
      <vel value="0.0047806993" flag="0"/>
      <psa03 value="0.0183886960" flag="0"/>
      <psa10 value="0.0040207153" flag="0"/>
      <psa30 value="0.0002654687" flag="0"/>
    </comp>
  </station>
</stationlist>
