<?xml version="1.0" encoding="UTF-8" standalone="yes"?>
<!DOCTYPE earthquake SYSTEM "stationlist.dtd">
<stationlist created="" xmlns="ch.ethz.sed.shakemap.usgs.xml">
  <station code="ARPRA" name="ARPRA" netid="KO" insttype="CMG-5T" lat="39.0929" lon="38.3356">
    <comp name="--.HNE">
      <acc value="0.4028066668" flag="0"/>
      <vel value="0.2513698927" flag="0"/>
      <psa03 value="1.5315536045" flag="0"/>
      <psa10 value="0.2944538475" flag="0"/>
      <psa30 value="0.0284908303" flag="0"/>
    </comp>
    <comp name="--.HNN">
      <acc value="0.2644913798" flag="0"/>
      <vel value="0.1828799387" flag="0"/>
      <psa03 value="1.0084576199" flag="0"/>
      <psa10 value="0.2790979808" flag="0"/>
      <psa30 value="0.0181530780" flag="0"/>
    </comp>
    <comp name="--.HNZ">
      <acc value="0.1767931179" flag="0"/>
      <vel value="0.1690708273" flag="0"/>
      <psa03 value="0.5415397212" flag="0"/>
      <psa10 value="0.1923893088" flag="0"/>
      <psa30 value="0.0169241761" flag="0"/>
    </comp>
  </station>
  <station code="DARE" name="DARE" netid="KO" insttype="CMG-3ESP" lat="38.5712" lon="37.4832">
    <comp name="--.HHE">
      <acc value="0.6349998604" flag="0"/>
      <vel value="0.0489542328" flag="0"/>
      <psa03 value="0.1941816180" flag="0"/>
      <psa10 value="0.0469599931" flag="0"/>
      <psa30 value="0.0111396494" flag="0"/>
    </comp>
    <comp name="--.HHN">
      <acc value="0.2524928211" flag="0"/>
      <vel value="0.0491933836" flag="0"/>
      <psa03 value="0.0974886238" flag="0"/>
      <psa10 value="0.0513894211" flag="0"/>
      <psa30 value="0.0223268985" flag="0"/>
    </comp>
    <comp name="--.HHZ">
      <acc value="0.1962905432" flag="0"/>
      <vel value="0.0537769763" flag="0"/>
      <psa03 value="0.0832646526" flag="0"/>
      <psa10 value="0.0601377439" flag="0"/>
      <psa30 value="0.0322027853" flag="0"/>
    </comp>
  </station>
  <station code="DYBB" name="DYBB" netid="KO" insttype="CMG-3T" lat="37.9532" lon="40.1393">
    <comp name="--.HHE">
      <acc value="0.1626899404" flag="0"/>
      <vel value="0.0808030796" flag="0"/>
      <psa03 value="0.1435984742" flag="0"/>
      <psa10 value="0.1719017808" flag="0"/>
      <psa30 value="0.0312904670" flag="0"/>
    </comp>
    <comp name="--.HHN">
      <acc value="0.6002500894" flag="0"/>
      <vel value="0.0892660973" flag="0"/>
      <psa03 value="0.1628778971" flag="0"/>
      <psa10 value="0.1249660746" flag="0"/>
      <psa30 value="0.0382998963" flag="0"/>
    </comp>
    <comp name="--.HHZ">
      <acc value="0.0459565697" flag="0"/>
      <vel value="0.0435093944" flag="0"/>
      <psa03 value="0.0798339065" flag="0"/>
      <psa10 value="0.0634352383" flag="0"/>
      <psa30 value="0.0098073315" flag="0"/>
    </comp>
  </station>
  <station code="URFA" name="URFA" netid="KO" insttype="CMG-3ESP" lat="37.4409" lon="38.8213">
    <comp name="--.HHE">
      <acc value="0.3081062004" flag="0"/>
      <vel value="0.1802355655" flag="0"/>
      <psa03 value="0.5315455109" flag="0"/>
      <psa10 value="0.2086800942" flag="0"/>
      <psa30 value="0.1127330735" flag="0"/>
    </comp>
    <comp name="--.HHN">
      <acc value="0.1967560399" flag="0"/>
      <vel value="0.0934748529" flag="0"/>
      <psa03 value="0.4129694153" flag="0"/>
      <psa10 value="0.1180539474" flag="0"/>
      <psa30 value="0.0297201904" flag="0"/>
    </comp>
    <comp name="--.HHZ">
      <acc value="0.6540965598" flag="0"/>
      <vel value="0.1031588851" flag="0"/>
      <psa03 value="0.2311833283" flag="0"/>
      <psa10 value="0.1366272090" flag="0"/>
      <psa30 value="0.0313698083" flag="0"/>
    </comp>
  </station>
</stationlist>
