<?xml version="1.0" encoding="UTF-8" standalone="yes"?>
<!DOCTYPE earthquake SYSTEM "stationlist.dtd">
<stationlist created="" xmlns="ch.ethz.sed.shakemap.usgs.xml">
  <station code="APE" name="APE" netid="GE" insttype="STS-2/N" lat="37.0727" lon="25.523">
    <comp name="--.HHE">
      <acc value="0.0347970441" flag="0"/>
      <vel value="0.0231979794" flag="0"/>
      <psa03 value="0.0904445444" flag="0"/>
      <psa10 value="0.0179008832" flag="0"/>
      <psa30 value="0.0043191321" flag="0"/>
    </comp>
    <comp name="--.HHN">
      <acc value="0.0206654032" flag="0"/>
      <vel value="0.0105054213" flag="0"/>
      <psa03 value="0.0323550825" flag="0"/>
      <psa10 value="0.0069634017" flag="0"/>
      <psa30 value="0.0027209534" flag="0"/>
    </comp>
    <comp name="--.HHZ">
      <acc value="0.0193250575" flag="0"/>
      <vel value="0.0186428459" flag="0"/>
      <psa03 value="0.0638080636" flag="0"/>
      <psa10 value="0.0142544519" flag="0"/>
      <psa30 value="0.0071118261" flag="0"/>
    </comp>
  </station>
  <station code="KARP" name="KARP" netid="GE" insttype="STS-2/N" lat="35.5471" lon="27.1611">
    <comp name="--.HHE">
      <acc value="0.1710955927" flag="0"/>
      <vel value="0.0638091142" flag="0"/>
      <psa03 value="0.4670093929" flag="0"/>
      <psa10 value="0.0763607511" flag="0"/>
      <psa30 value="0.0066222283" flag="0"/>
    </comp>
    <comp name="--.HHZ">
      <acc value="0.1137445362" flag="0"/>
      <vel value="0.0706669256" flag="0"/>
      <psa03 value="0.3420300715" flag="0"/>
      <psa10 value="0.0369661756" flag="0"/>
      <psa30 value="0.0064764501" flag="0"/>
    </comp>
    <comp name="--.HHN">
      <acc value="0.1842177342" flag="0"/>
      <vel value="0.0797488055" flag="0"/>
      <psa03 value="0.2822003538" flag="0"/>
      <psa10 value="0.1097657610" flag="0"/>
      <psa30 value="0.0052488625" flag="0"/>
    </comp>
  </station>
  <station code="THERA" name="THERA" netid="GE" insttype="STS-2/N" lat="36.367" lon="25.4753">
    <comp name="--.HHE">
      <acc value="0.0291521641" flag="0"/>
      <vel value="0.0179226670" flag="0"/>
      <psa03 value="0.0986165743" flag="0"/>
      <psa10 value="0.0251394333" flag="0"/>
      <psa30 value="0.0066460193" flag="0"/>
    </comp>
    <comp name="--.HHZ">
      <acc value="0.0286380878" flag="0"/>
      <vel value="0.0244398948" flag="0"/>
      <psa03 value="0.0712056187" flag="0"/>
      <psa10 value="0.0220814686" flag="0"/>
      <psa30 value="0.0066907026" flag="0"/>
    </comp>
    <comp name="--.HHN">
      <acc value="0.0255159281" flag="0"/>
      <vel value="0.0147282364" flag="0"/>
      <psa03 value="0.0682056051" flag="0"/>
      <psa10 value="0.0173458331" flag="0"/>
      <psa30 value="0.0023208608" flag="0"/>
    </comp>
  </station>
  <station code="ZKR" name="ZKR" netid="GE" insttype="STS-2/N" lat="35.1147" lon="26.2169">
    <comp name="--.HHE">
      <acc value="0.0252900379" flag="0"/>
      <vel value="0.0178580122" flag="0"/>
      <psa03 value="0.0513467265" flag="0"/>
      <psa10 value="0.0295086195" flag="0"/>
      <psa30 value="0.0046548588" flag="0"/>
    </comp>
    <comp name="--.HHN">
      <acc value="0.0113863701" flag="0"/>
      <vel value="0.0077758009" flag="0"/>
      <psa03 value="0.0318296622" flag="0"/>
      <psa10 value="0.0133068547" flag="0"/>
      <psa30 value="0.0018935343" flag="0"/>
    </comp>
    <comp name="--.HHZ">
      <acc value="0.0157908069" flag="0"/>
      <vel value="0.0125824520" flag="0"/>
      <psa03 value="0.0290657488" flag="0"/>
      <psa10 value="0.0212516661" flag="0"/>
      <psa30 value="0.0028515775" flag="0"/>
    </comp>
  </station>
  <station code="SNT1" name="SNT1" netid="HA" insttype="30" lat="36.4159" lon="25.4282">
    <comp name="--.HHN">
      <acc value="0.0287071793" flag="0"/>
      <vel value="0.0223922565" flag="0"/>
      <psa03 value="0.0579240847" flag="0"/>
      <psa10 value="0.0256290242" flag="0"/>
      <psa30 value="0.0035780487" flag="0"/>
    </comp>
    <comp name="--.HHE">
      <acc value="0.0187357589" flag="0"/>
      <vel value="0.0118095946" flag="0"/>
      <psa03 value="0.0303440412" flag="0"/>
      <psa10 value="0.0133409961" flag="0"/>
      <psa30 value="0.0065415311" flag="0"/>
    </comp>
    <comp name="--.HHZ">
      <acc value="0.0155520682" flag="0"/>
      <vel value="0.0132391103" flag="0"/>
      <psa03 value="0.0538292275" flag="0"/>
      <psa10 value="0.0137606785" flag="0"/>
      <psa30 value="0.0035333478" flag="0"/>
    </comp>
  </station>
  <station code="SNT5" name="SNT5" netid="HA" insttype="1s-100Hz," lat="36.4037" lon="25.3953">
    <comp name="--.HHN">
      <acc value="0.0397548534" flag="0"/>
      <vel value="0.0197255144" flag="0"/>
      <psa03 value="0.0780070954" flag="0"/>
      <psa10 value="0.0143795599" flag="0"/>
      <psa30 value="0.0082160352" flag="0"/>
    </comp>
    <comp name="--.HHE">
      <acc value="0.0659805785" flag="0"/>
      <vel value="0.0321048983" flag="0"/>
      <psa03 value="0.1513917598" flag="0"/>
      <psa10 value="0.0255458612" flag="0"/>
      <psa30 value="0.0179368114" flag="0"/>
    </comp>
    <comp name="--.HHZ">
      <acc value="0.0261320972" flag="0"/>
      <vel value="0.0139048323" flag="0"/>
      <psa03 value="0.0391618131" flag="0"/>
      <psa10 value="0.0131014420" flag="0"/>
      <psa30 value="0.0047831500" flag="0"/>
    </comp>
  </station>
  <station code="STIA" name="STIA" netid="HC" insttype="120" lat="35.2021" lon="26.0909">
    <comp name="--.HHN">
      <acc value="0.0257676562" flag="0"/>
      <vel value="0.0217872398" flag="0"/>
      <psa03 value="0.0652214346" flag="0"/>
      <psa10 value="0.0313258994" flag="0"/>
      <psa30 value="0.0035571944" flag="0"/>
    </comp>
    <comp name="--.HHE">
      <acc value="0.0243292975" flag="0"/>
      <vel value="0.0236566232" flag="0"/>
      <psa03 value="0.0722057509" flag="0"/>
      <psa10 value="0.0274067717" flag="0"/>
      <psa30 value="0.0033243370" flag="0"/>
    </comp>
    <comp name="--.HHZ">
      <acc value="0.0172855520" flag="0"/>
      <vel value="0.0115771283" flag="0"/>
      <psa03 value="0.0513754824" flag="0"/>
      <psa10 value="0.0120073048" flag="0"/>
      <psa30 value="0.0027240699" flag="0"/>
    </comp>
  </station>
  <station code="RDI1" name="RDI1" netid="HI" insttype="CMG-5TD,ACCELEROMETER,GURALP" lat="36.4514" lon="28.224">
    <comp name="--.HNE">
      <acc value="0.0699665846" flag="0"/>
      <vel value="0.1334556249" flag="0"/>
      <psa03 value="0.1561155656" flag="0"/>
      <psa10 value="0.1714210635" flag="0"/>
      <psa30 value="0.0330931987" flag="0"/>
    </comp>
    <comp name="--.HNN">
      <acc value="0.0693663242" flag="0"/>
      <vel value="0.0911002494" flag="0"/>
      <psa03 value="0.1459129072" flag="0"/>
      <psa10 value="0.1195731742" flag="0"/>
      <psa30 value="0.0341938535" flag="0"/>
    </comp>
    <comp name="--.HNZ">
      <acc value="0.0475569251" flag="0"/>
      <vel value="0.0560329427" flag="0"/>
      <psa03 value="0.1013217963" flag="0"/>
      <psa10 value="0.0626179468" flag="0"/>
      <psa30 value="0.0159579408" flag="0"/>
    </comp>
  </station>
  <station code="APE" name="APE" netid="HL" insttype="120" lat="37.0727" lon="25.523">
    <comp name="--.HHE">
      <acc value="0.0340112572" flag="0"/>
      <vel value="0.0227566177" flag="0"/>
      <psa03 value="0.0880143779" flag="0"/>
      <psa10 value="0.0177873137" flag="0"/>
      <psa30 value="0.0043128411" flag="0"/>
    </comp>
    <comp name="--.HHN">
      <acc value="0.0201151530" flag="0"/>
      <vel value="0.0101273917" flag="0"/>
      <psa03 value="0.0314058872" flag="0"/>
      <psa10 value="0.0069113295" flag="0"/>
      <psa30 value="0.0027180215" flag="0"/>
    </comp>
    <comp name="--.HHZ">
      <acc value="0.0189490105" flag="0"/>
      <vel value="0.0184916973" flag="0"/>
      <psa03 value="0.0621918909" flag="0"/>
      <psa10 value="0.0141734191" flag="0"/>
      <psa30 value="0.0071006784" flag="0"/>
    </comp>
  </station>
  <station code="ARG" name="ARG" netid="HL" insttype="LE3D20_DR24" lat="36.2136" lon="28.1212">
    <comp name="--.HHE">
      <acc value="0.1921041305" flag="0"/>
      <vel value="0.1435125065" flag="0"/>
      <psa03 value="0.5681842080" flag="0"/>
      <psa10 value="0.1259598899" flag="0"/>
      <psa30 value="0.0317961051" flag="0"/>
    </comp>
    <comp name="--.HHN">
      <acc value="0.1229607142" flag="0"/>
      <vel value="0.0681925645" flag="0"/>
      <psa03 value="0.2684135275" flag="0"/>
      <psa10 value="0.0680206003" flag="0"/>
      <psa30 value="0.0125066194" flag="0"/>
    </comp>
    <comp name="--.HHZ">
      <acc value="0.0858877682" flag="0"/>
      <vel value="0.0473779295" flag="0"/>
      <psa03 value="0.1592929402" flag="0"/>
      <psa10 value="0.0491340062" flag="0"/>
      <psa30 value="0.0130643088" flag="0"/>
    </comp>
  </station>
  <station code="KARP" name="KARP" netid="HL" insttype="120" lat="35.5471" lon="27.1611">
    <comp name="--.HHN">
      <acc value="0.1767520321" flag="0"/>
      <vel value="0.0782448214" flag="0"/>
      <psa03 value="0.2755600069" flag="0"/>
      <psa10 value="0.1090398564" flag="0"/>
      <psa30 value="0.0052207249" flag="0"/>
    </comp>
    <comp name="--.HHZ">
      <acc value="0.1084800120" flag="0"/>
      <vel value="0.0698438582" flag="0"/>
      <psa03 value="0.3320018216" flag="0"/>
      <psa10 value="0.0367156785" flag="0"/>
      <psa30 value="0.0064322386" flag="0"/>
    </comp>
    <comp name="--.HHE">
      <acc value="0.1609409485" flag="0"/>
      <vel value="0.0627191942" flag="0"/>
      <psa03 value="0.4531558265" flag="0"/>
      <psa10 value="0.0759417561" flag="0"/>
      <psa30 value="0.0065850914" flag="0"/>
    </comp>
  </station>
  <station code="KLNA" name="KLNA" netid="HL" insttype="CMG-5" lat="36.9571" lon="26.9727">
    <comp name="00.HNE">
      <acc value="0.4617748682" flag="0"/>
      <vel value="0.2064324412" flag="0"/>
      <psa03 value="1.2997204218" flag="0"/>
      <psa10 value="0.0905858067" flag="0"/>
      <psa30 value="0.0242324786" flag="0"/>
    </comp>
    <comp name="00.HNN">
      <acc value="0.4847537170" flag="0"/>
      <vel value="0.2134511396" flag="0"/>
      <psa03 value="1.2770468734" flag="0"/>
      <psa10 value="0.0954960858" flag="0"/>
      <psa30 value="0.0130665944" flag="0"/>
    </comp>
    <comp name="00.HNZ">
      <acc value="0.4530843055" flag="0"/>
      <vel value="0.1428351977" flag="0"/>
      <psa03 value="0.5512399239" flag="0"/>
      <psa10 value="0.0528567319" flag="0"/>
      <psa30 value="0.0098160741" flag="0"/>
    </comp>
  </station>
  <station code="NISR" name="NISR" netid="HL" insttype="65535" lat="36.6106" lon="27.131">
    <comp name="--.HHZ">
      <acc value="1.7032161592" flag="0"/>
      <vel value="0.4559820396" flag="0"/>
      <psa03 value="2.0858373809" flag="0"/>
      <psa10 value="0.4122373850" flag="0"/>
      <psa30 value="0.0407393504" flag="0"/>
    </comp>
    <comp name="--.HHE">
      <acc value="4.8793024790" flag="0"/>
      <vel value="1.8345000974" flag="0"/>
      <psa03 value="12.8416557941" flag="0"/>
      <psa10 value="0.4874867295" flag="0"/>
      <psa30 value="0.0653633306" flag="0"/>
    </comp>
    <comp name="--.HHN">
      <acc value="3.7546941475" flag="0"/>
      <vel value="1.3865993565" flag="0"/>
      <psa03 value="5.2322473150" flag="0"/>
      <psa10 value="0.4582003441" flag="0"/>
      <psa30 value="0.4116567209" flag="0"/>
    </comp>
  </station>
  <station code="NPS" name="NPS" netid="HL" insttype="CMG3ESPC-120s" lat="35.2613" lon="25.6104">
    <comp name="--.HHE">
      <acc value="0.0176934087" flag="0"/>
      <vel value="0.0064657518" flag="0"/>
      <psa03 value="0.0463805514" flag="0"/>
      <psa10 value="0.0075645629" flag="0"/>
      <psa30 value="0.0014320145" flag="0"/>
    </comp>
    <comp name="--.HHN">
      <acc value="0.0212082151" flag="0"/>
      <vel value="0.0158024065" flag="0"/>
      <psa03 value="0.0747230369" flag="0"/>
      <psa10 value="0.0158164842" flag="0"/>
      <psa30 value="0.0034381145" flag="0"/>
    </comp>
    <comp name="--.HHZ">
      <acc value="0.0189877645" flag="0"/>
      <vel value="0.0131101494" flag="0"/>
      <psa03 value="0.0440480796" flag="0"/>
      <psa10 value="0.0112792466" flag="0"/>
      <psa30 value="0.0037560270" flag="0"/>
    </comp>
  </station>
  <station code="RODB" name="RODB" netid="HL" insttype="CMG-5" lat="36.4471" lon="28.2212">
    <comp name="00.HNE">
      <acc value="0.0683530586" flag="0"/>
      <vel value="0.1025294984" flag="0"/>
      <psa03 value="0.1831133630" flag="0"/>
      <psa10 value="0.1485107406" flag="0"/>
      <psa30 value="0.0323997557" flag="0"/>
    </comp>
    <comp name="00.HNN">
      <acc value="0.0752406087" flag="0"/>
      <vel value="0.0960536346" flag="0"/>
      <psa03 value="0.2179663788" flag="0"/>
      <psa10 value="0.1102263397" flag="0"/>
      <psa30 value="0.0321727460" flag="0"/>
    </comp>
    <comp name="00.HNZ">
      <acc value="0.0437158991" flag="0"/>
      <vel value="0.0633714010" flag="0"/>
      <psa03 value="0.1080749102" flag="0"/>
      <psa10 value="0.0891330129" flag="0"/>
      <psa30 value="0.0133859639" flag="0"/>
    </comp>
  </station>
  <station code="SAP3" name="SAP3" netid="HL" insttype="LE3D20_SMART24" lat="36.4356" lon="25.3454">
    <comp name="--.HHZ">
      <acc value="0.0606791212" flag="0"/>
      <vel value="0.0478866582" flag="0"/>
      <psa03 value="0.0900322955" flag="0"/>
      <psa10 value="0.0373464483" flag="0"/>
      <psa30 value="0.0135259890" flag="0"/>
    </comp>
    <comp name="--.HHE">
      <acc value="0.0658583692" flag="0"/>
      <vel value="0.0845691054" flag="0"/>
      <psa03 value="0.1473394687" flag="0"/>
      <psa10 value="0.1083546880" flag="0"/>
      <psa30 value="0.0246376324" flag="0"/>
    </comp>
    <comp name="--.HHN">
      <acc value="0.0695372470" flag="0"/>
      <vel value="0.0525051124" flag="0"/>
      <psa03 value="0.1788181895" flag="0"/>
      <psa10 value="0.0845818063" flag="0"/>
      <psa30 value="0.0212391730" flag="0"/>
    </comp>
  </station>
  <station code="SMG" name="SMG" netid="HL" insttype="120" lat="37.7043" lon="26.8377">
    <comp name="--.HHE">
      <acc value="0.0902513462" flag="0"/>
      <vel value="0.0577804582" flag="0"/>
      <psa03 value="0.1781137696" flag="0"/>
      <psa10 value="0.1060894623" flag="0"/>
      <psa30 value="0.0075099290" flag="0"/>
    </comp>
    <comp name="--.HHN">
      <acc value="0.0731614611" flag="0"/>
      <vel value="0.0453879009" flag="0"/>
      <psa03 value="0.2092549301" flag="0"/>
      <psa10 value="0.0637798631" flag="0"/>
      <psa30 value="0.0083788267" flag="0"/>
    </comp>
    <comp name="--.HHZ">
      <acc value="0.0392586746" flag="0"/>
      <vel value="0.0266593071" flag="0"/>
      <psa03 value="0.0936293705" flag="0"/>
      <psa10 value="0.0531127803" flag="0"/>
      <psa30 value="0.0091317770" flag="0"/>
    </comp>
  </station>
  <station code="THERA" name="THERA" netid="HL" insttype="120" lat="36.367" lon="25.4753">
    <comp name="--.HHE">
      <acc value="0.0285849133" flag="0"/>
      <vel value="0.0178806125" flag="0"/>
      <psa03 value="0.0959342319" flag="0"/>
      <psa10 value="0.0249662437" flag="0"/>
      <psa30 value="0.0066512760" flag="0"/>
    </comp>
    <comp name="--.HHZ">
      <acc value="0.0278673984" flag="0"/>
      <vel value="0.0243094923" flag="0"/>
      <psa03 value="0.0693237481" flag="0"/>
      <psa10 value="0.0219834801" flag="0"/>
      <psa30 value="0.0066886883" flag="0"/>
    </comp>
    <comp name="--.HHN">
      <acc value="0.0247980970" flag="0"/>
      <vel value="0.0145316742" flag="0"/>
      <psa03 value="0.0660880364" flag="0"/>
      <psa10 value="0.0171908720" flag="0"/>
      <psa30 value="0.0023208114" flag="0"/>
    </comp>
  </station>
  <station code="ZKR" name="ZKR" netid="HL" insttype="120" lat="35.1147" lon="26.2169">
    <comp name="--.HHZ">
      <acc value="0.0155218971" flag="0"/>
      <vel value="0.0123574554" flag="0"/>
      <psa03 value="0.0283214243" flag="0"/>
      <psa10 value="0.0211046646" flag="0"/>
      <psa30 value="0.0028522506" flag="0"/>
    </comp>
    <comp name="--.HHE">
      <acc value="0.0247428779" flag="0"/>
      <vel value="0.0176527029" flag="0"/>
      <psa03 value="0.0500612657" flag="0"/>
      <psa10 value="0.0293084833" flag="0"/>
      <psa30 value="0.0046572773" flag="0"/>
    </comp>
    <comp name="--.HHN">
      <acc value="0.0110992305" flag="0"/>
      <vel value="0.0076854728" flag="0"/>
      <psa03 value="0.0309568308" flag="0"/>
      <psa10 value="0.0131993461" flag="0"/>
      <psa30 value="0.0018936052" flag="0"/>
    </comp>
  </station>
  <station code="CMBO" name="CMBO" netid="HT" insttype="120P," lat="36.4709" lon="25.4056">
    <comp name="--.HHZ">
      <acc value="0.1680492483" flag="0"/>
      <vel value="0.0706319860" flag="0"/>
      <psa03 value="0.3437007508" flag="0"/>
      <psa10 value="0.0414062735" flag="0"/>
      <psa30 value="0.0122665795" flag="0"/>
    </comp>
    <comp name="--.HHE">
      <acc value="0.1771573250" flag="0"/>
      <vel value="0.1596238651" flag="0"/>
      <psa03 value="0.3865303934" flag="0"/>
      <psa10 value="0.2339030500" flag="0"/>
      <psa30 value="0.0340685676" flag="0"/>
    </comp>
    <comp name="--.HHN">
      <acc value="0.1942352747" flag="0"/>
      <vel value="0.1822882885" flag="0"/>
      <psa03 value="0.5296130237" flag="0"/>
      <psa10 value="0.1720627773" flag="0"/>
      <psa30 value="0.0210720354" flag="0"/>
    </comp>
  </station>
  <station code="THT1" name="THT1" netid="HT" insttype="30" lat="36.3858" lon="25.4296">
    <comp name="--.HHN">
      <acc value="0.0421989135" flag="0"/>
      <vel value="0.0196501040" flag="0"/>
      <psa03 value="0.0688444751" flag="0"/>
      <psa10 value="0.0226334454" flag="0"/>
      <psa30 value="0.0032557250" flag="0"/>
    </comp>
    <comp name="--.HHE">
      <acc value="0.0343236693" flag="0"/>
      <vel value="0.0248015806" flag="0"/>
      <psa03 value="0.0511748012" flag="0"/>
      <psa10 value="0.0215355403" flag="0"/>
      <psa30 value="0.0065298240" flag="0"/>
    </comp>
    <comp name="--.HHZ">
      <acc value="0.0303824082" flag="0"/>
      <vel value="0.0152475653" flag="0"/>
      <psa03 value="0.0376706305" flag="0"/>
      <psa10 value="0.0125806900" flag="0"/>
      <psa30 value="0.0043761084" flag="0"/>
    </comp>
  </station>
  <station code="AYDN" name="AYDN" netid="TU" source="ODC" insttype="T" lat="37.6608" lon="27.8792">
    <comp name="--.HHE">
      <acc value="0.0403866077" flag="0"/>
      <vel value="0.0479565772" flag="0"/>
      <psa03 value="0.0924854681" flag="0"/>
      <psa10 value="0.0808491404" flag="0"/>
      <psa30 value="0.0106307508" flag="0"/>
    </comp>
    <comp name="--.HHN">
      <acc value="0.0355343933" flag="0"/>
      <vel value="0.0555699924" flag="0"/>
      <psa03 value="0.1192347005" flag="0"/>
      <psa10 value="0.0607991333" flag="0"/>
      <psa30 value="0.0107011233" flag="0"/>
    </comp>
    <comp name="--.HHZ">
      <acc value="0.0278690819" flag="0"/>
      <vel value="0.0361437708" flag="0"/>
      <psa03 value="0.1042746800" flag="0"/>
      <psa10 value="0.0383457887" flag="0"/>
      <psa30 value="0.0122425690" flag="0"/>
    </comp>
  </station>
</stationlist>
