<stationlist created="1778138252">
	<station code="ABEA" name="ABEA" netid="HC" source="Seismological Network of Crete (HC)" insttype="" lat="35.5163" lon="24.0113">
		<comp name="--.HNE" depth="0.0">
			<acc value="0.00677243951570478" flag="0"/>
			<vel value="0.00934958453418693" flag="0"/>
			<psa03 value="0.0155026024921741" flag="0"/>
			<psa10 value="0.0153844866467495" flag="0"/>
			<psa30 value="0.003029283591839" flag="0"/>
		</comp>
		<comp name="--.HNN" depth="0.0">
			<acc value="0.00897768297410027" flag="0"/>
			<vel value="0.0130993966308186" flag="0"/>
			<psa03 value="0.0267538947100663" flag="0"/>
			<psa10 value="0.012256042527661" flag="0"/>
			<psa30 value="0.00343037474549326" flag="0"/>
		</comp>
		<comp name="--.HNZ" depth="0.0">
			<acc value="0.0054076890556835" flag="0"/>
			<vel value="0.0108768948151214" flag="0"/>
			<psa03 value="0.0110768014920804" flag="0"/>
			<psa10 value="0.00912801468616579" flag="0"/>
			<psa30 value="0.00203740642651113" flag="0"/>
		</comp>
	</station>
	<station code="ATEI" name="ATEI" netid="HC" source="Seismological Network of Crete (HC)" insttype="" lat="35.5193" lon="24.0432">
		<comp name="--.HNE" depth="0.0">
			<acc value="0.00559639539929255" flag="0"/>
			<vel value="0.00944796519416116" flag="0"/>
			<psa03 value="0.0171782173996914" flag="0"/>
			<psa10 value="0.00779983982612706" flag="0"/>
			<psa30 value="0.00345292978132032" flag="0"/>
		</comp>
		<comp name="--.HNN" depth="0.0">
			<acc value="0.00802041915655951" flag="0"/>
			<vel value="0.00933592189246305" flag="0"/>
			<psa03 value="0.0197782672444024" flag="0"/>
			<psa10 value="0.0119438202819953" flag="0"/>
			<psa30 value="0.00387274863392506" flag="0"/>
		</comp>
		<comp name="--.HNZ" depth="0.0">
			<acc value="0.00455580466528587" flag="0"/>
			<vel value="0.00985523883677251" flag="0"/>
			<psa03 value="0.0117956394761585" flag="0"/>
			<psa10 value="0.0078141029584819" flag="0"/>
			<psa30 value="0.00220141958324324" flag="0"/>
		</comp>
	</station>
	<station code="PASK" name="PASK" netid="HC" source="Seismological Network of Crete (HC)" insttype="" lat="35.4996" lon="24.0121">
		<comp name="--.HNE" depth="0.0">
			<acc value="0.0118927261887272" flag="0"/>
			<vel value="0.0144730462292446" flag="0"/>
			<psa03 value="0.0256843394822934" flag="0"/>
			<psa10 value="0.0213731496162853" flag="0"/>
			<psa30 value="0.00397448787364905" flag="0"/>
		</comp>
		<comp name="--.HNN" depth="0.0">
			<acc value="0.0108193513972501" flag="0"/>
			<vel value="0.0119445699961633" flag="0"/>
			<psa03 value="0.0305291109454219" flag="0"/>
			<psa10 value="0.0164783066069223" flag="0"/>
			<psa30 value="0.00395445196303731" flag="0"/>
		</comp>
		<comp name="--.HNZ" depth="0.0">
			<acc value="0.00762694754981828" flag="0"/>
			<vel value="0.00895952206374771" flag="0"/>
			<psa03 value="0.0175695623347601" flag="0"/>
			<psa10 value="0.0111693892922079" flag="0"/>
			<psa30 value="0.00252891898680476" flag="0"/>
		</comp>
	</station>
	<station code="KRL1" name="KRL1" netid="HI" source="ITSAK Strong Motion Network" insttype="" lat="37.7951" lon="26.7065">
		<comp name="--.HNE" depth="0.0">
			<acc value="0.120265428079587" flag="0"/>
			<vel value="0.111281186991266" flag="0"/>
			<psa03 value="0.354036286499969" flag="0"/>
			<psa10 value="0.180708136027203" flag="0"/>
			<psa30 value="0.0155177329736715" flag="0"/>
		</comp>
		<comp name="--.HNN" depth="0.0">
			<acc value="0.0774861175380069" flag="0"/>
			<vel value="0.0707540012338521" flag="0"/>
			<psa03 value="0.190426614828758" flag="0"/>
			<psa10 value="0.118391885381382" flag="0"/>
			<psa30 value="0.0165724445097957" flag="0"/>
		</comp>
		<comp name="--.HNZ" depth="0.0">
			<acc value="0.0437900226715054" flag="0"/>
			<vel value="0.0472684651493701" flag="0"/>
			<psa03 value="0.120618313287739" flag="0"/>
			<psa10 value="0.0856468236815692" flag="0"/>
			<psa30 value="0.0118826246655714" flag="0"/>
		</comp>
	</station>
	<station code="KSS1" name="KSS1" netid="HI" source="ITSAK Strong Motion Network" insttype="" lat="35.4189" lon="26.9207">
		<comp name="--.HNE" depth="0.0">
			<acc value="0.0462845089165616" flag="0"/>
			<vel value="0.0194963767877191" flag="0"/>
			<psa03 value="0.141727680429817" flag="0"/>
			<psa10 value="0.0122023220939462" flag="0"/>
			<psa30 value="0.00311327269737136" flag="0"/>
		</comp>
		<comp name="--.HNN" depth="0.0">
			<acc value="0.0404807955650698" flag="0"/>
			<vel value="0.0157703948509929" flag="0"/>
			<psa03 value="0.121068197257152" flag="0"/>
			<psa10 value="0.0099662224008324" flag="0"/>
			<psa30 value="0.00300592162755498" flag="0"/>
		</comp>
		<comp name="--.HNZ" depth="0.0">
			<acc value="0.027937727718658" flag="0"/>
			<vel value="0.0138943727714569" flag="0"/>
			<psa03 value="0.0349765175434499" flag="0"/>
			<psa10 value="0.0156006350280194" flag="0"/>
			<psa30 value="0.00230585066795899" flag="0"/>
		</comp>
	</station>
	<station code="MYT1" name="MYT1" netid="HI" source="ITSAK Strong Motion Network" insttype="" lat="39.085" lon="26.5694">
		<comp name="--.HNE" depth="0.0">
			<acc value="0.00840316210191919" flag="0"/>
			<vel value="0.0146286407913792" flag="0"/>
			<psa03 value="0.0165055777885313" flag="0"/>
			<psa10 value="0.0239309090552971" flag="0"/>
			<psa30 value="0.00616961787359005" flag="0"/>
		</comp>
		<comp name="--.HNN" depth="0.0">
			<acc value="0.00652689241502754" flag="0"/>
			<vel value="0.0103290704340654" flag="0"/>
			<psa03 value="0.0155036246953108" flag="0"/>
			<psa10 value="0.0145134914475698" flag="0"/>
			<psa30 value="0.00583035039877639" flag="0"/>
		</comp>
		<comp name="--.HNZ" depth="0.0">
			<acc value="0.00590694172604613" flag="0"/>
			<vel value="0.0126533880047658" flag="0"/>
			<psa03 value="0.0113501516314067" flag="0"/>
			<psa10 value="0.0168958161398875" flag="0"/>
			<psa30 value="0.00368444407633952" flag="0"/>
		</comp>
	</station>
	<station code="NAX1" name="NAX1" netid="HI" source="ITSAK Strong Motion Network" insttype="" lat="37.101394" lon="25.374103">
		<comp name="--.HNE" depth="0.0">
			<acc value="0.0156292324069223" flag="0"/>
			<vel value="0.0170079240126124" flag="0"/>
			<psa03 value="0.0544550813400601" flag="0"/>
			<psa10 value="0.0185069209927032" flag="0"/>
			<psa30 value="0.00388905763098369" flag="0"/>
		</comp>
		<comp name="--.HNN" depth="0.0">
			<acc value="0.0251628106217478" flag="0"/>
			<vel value="0.0268056817882609" flag="0"/>
			<psa03 value="0.0723980720585676" flag="0"/>
			<psa10 value="0.0279470726064174" flag="0"/>
			<psa30 value="0.00389566890227734" flag="0"/>
		</comp>
		<comp name="--.HNZ" depth="0.0">
			<acc value="0.0163941076366755" flag="0"/>
			<vel value="0.0188696475265412" flag="0"/>
			<psa03 value="0.0675179571085084" flag="0"/>
			<psa10 value="0.0218871680424703" flag="0"/>
			<psa30 value="0.00652106823878745" flag="0"/>
		</comp>
	</station>
	<station code="RDI1" name="RDI1" netid="HI" source="ITSAK Strong Motion Network" insttype="" lat="36.4514" lon="28.224">
		<comp name="--.HNE" depth="0.0">
			<acc value="0.0685862448602255" flag="0"/>
			<vel value="0.158164281256756" flag="0"/>
			<psa03 value="0.151365245954873" flag="0"/>
			<psa10 value="0.174745106005533" flag="0"/>
			<psa30 value="0.0371106317305623" flag="0"/>
		</comp>
		<comp name="--.HNN" depth="0.0">
			<acc value="0.0693031224300339" flag="0"/>
			<vel value="0.105603963036396" flag="0"/>
			<psa03 value="0.146320140908103" flag="0"/>
			<psa10 value="0.120301421878592" flag="0"/>
			<psa30 value="0.0399882190232664" flag="0"/>
		</comp>
		<comp name="--.HNZ" depth="0.0">
			<acc value="0.0472927657620156" flag="0"/>
			<vel value="0.0603270495984383" flag="0"/>
			<psa03 value="0.101637524654087" flag="0"/>
			<psa10 value="0.0623167156766302" flag="0"/>
			<psa30 value="0.0169606435593783" flag="0"/>
		</comp>
	</station>
	<station code="SIT2" name="SIT2" netid="HI" source="ITSAK Strong Motion Network" insttype="" lat="35.2059" lon="26.107">
		<comp name="--.HNE" depth="0.0">
			<acc value="0.0541676241068607" flag="0"/>
			<vel value="0.0367529211019943" flag="0"/>
			<psa03 value="0.17695153467085" flag="0"/>
			<psa10 value="0.0368847846859545" flag="0"/>
			<psa30 value="0.00372577681443" flag="0"/>
		</comp>
		<comp name="--.HNN" depth="0.0">
			<acc value="0.0845416508810269" flag="0"/>
			<vel value="0.0577352466642521" flag="0"/>
			<psa03 value="0.237518401094925" flag="0"/>
			<psa10 value="0.0476944595237271" flag="0"/>
			<psa30 value="0.00474798661414815" flag="0"/>
		</comp>
		<comp name="--.HNZ" depth="0.0">
			<acc value="0.0412706783884549" flag="0"/>
			<vel value="0.0186946737193431" flag="0"/>
			<psa03 value="0.109379954218311" flag="0"/>
			<psa10 value="0.0188532039322497" flag="0"/>
			<psa30 value="0.00318478535139908" flag="0"/>
		</comp>
	</station>
	<station code="IACM" name="IACM" netid="HL" source="National Observatory of Athens Seismic Network" insttype="" lat="35.3058" lon="25.0709">
		<comp name="--.HNE" depth="0.0">
			<acc value="0.0500801350141933" flag="0"/>
			<vel value="0.0475314196484076" flag="0"/>
			<psa03 value="0.19177332904201" flag="0"/>
			<psa10 value="0.0753365356758507" flag="0"/>
			<psa30 value="0.0076855716314044" flag="0"/>
		</comp>
		<comp name="--.HNN" depth="0.0">
			<acc value="0.0533834460313598" flag="0"/>
			<vel value="0.046942564946852" flag="0"/>
			<psa03 value="0.180606714308499" flag="0"/>
			<psa10 value="0.0883963333232113" flag="0"/>
			<psa30 value="0.00616555010410838" flag="0"/>
		</comp>
		<comp name="--.HNZ" depth="0.0">
			<acc value="0.0385381952872206" flag="0"/>
			<vel value="0.0224683043065816" flag="0"/>
			<psa03 value="0.110530395013063" flag="0"/>
			<psa10 value="0.025281407269167" flag="0"/>
			<psa30 value="0.00281513523889562" flag="0"/>
		</comp>
	</station>
	<station code="IMMV" name="IMMV" netid="HL" source="National Observatory of Athens Seismic Network" insttype="" lat="35.4606" lon="23.9811">
		<comp name="--.HNE" depth="0.0">
			<acc value="0.00565284403110464" flag="0"/>
			<vel value="0.00804741979860584" flag="0"/>
			<psa03 value="0.0130812689136204" flag="0"/>
			<psa10 value="0.0142087359465149" flag="0"/>
			<psa30 value="0.00239803969169364" flag="0"/>
		</comp>
		<comp name="--.HNN" depth="0.0">
			<acc value="0.00478098441352427" flag="0"/>
			<vel value="0.00836752076797181" flag="0"/>
			<psa03 value="0.0178345903082652" flag="0"/>
			<psa10 value="0.00990676408700786" flag="0"/>
			<psa30 value="0.00184385297954628" flag="0"/>
		</comp>
		<comp name="--.HNZ" depth="0.0">
			<acc value="0.00369152166432535" flag="0"/>
			<vel value="0.00597215027064672" flag="0"/>
			<psa03 value="0.0100237623323475" flag="0"/>
			<psa10 value="0.0048807631703568" flag="0"/>
			<psa30 value="0.00150398609003042" flag="0"/>
		</comp>
	</station>
	<station code="KARP" name="KARP" netid="HL" source="National Observatory of Athens Seismic Network" insttype="" lat="35.5471" lon="27.16106">
		<comp name="--.HNE" depth="0.0">
			<acc value="0.141876275424274" flag="0"/>
			<vel value="0.0585049340882502" flag="0"/>
			<psa03 value="0.374855624011892" flag="0"/>
			<psa10 value="0.0747834940392883" flag="0"/>
			<psa30 value="0.00454576655138162" flag="0"/>
		</comp>
		<comp name="--.HNN" depth="0.0">
			<acc value="0.149055913938027" flag="0"/>
			<vel value="0.067468090932163" flag="0"/>
			<psa03 value="0.277145151172852" flag="0"/>
			<psa10 value="0.0869796394741432" flag="0"/>
			<psa30 value="0.00357039902141277" flag="0"/>
		</comp>
		<comp name="--.HNZ" depth="0.0">
			<acc value="0.0902043137090558" flag="0"/>
			<vel value="0.0542378169318973" flag="0"/>
			<psa03 value="0.275766809864645" flag="0"/>
			<psa10 value="0.0285091504662891" flag="0"/>
			<psa30 value="0.00430538771080588" flag="0"/>
		</comp>
	</station>
	<station code="KLNA" name="KLNA" netid="HL" source="National Observatory of Athens Seismic Network" insttype="" lat="36.95708" lon="26.97274">
		<comp name="00.HNE" depth="0.0">
			<acc value="0.462819275828468" flag="0"/>
			<vel value="0.204770959097761" flag="0"/>
			<psa03 value="1.30311724178742" flag="0"/>
			<psa10 value="0.0909107998941678" flag="0"/>
			<psa30 value="0.022059954697062" flag="0"/>
		</comp>
		<comp name="00.HNN" depth="0.0">
			<acc value="0.483592529150056" flag="0"/>
			<vel value="0.213611917915291" flag="0"/>
			<psa03 value="1.27312092134744" flag="0"/>
			<psa10 value="0.0951491356632869" flag="0"/>
			<psa30 value="0.0123028866725338" flag="0"/>
		</comp>
		<comp name="00.HNZ" depth="0.0">
			<acc value="0.453927970441502" flag="0"/>
			<vel value="0.142208358341809" flag="0"/>
			<psa03 value="0.553598381508069" flag="0"/>
			<psa10 value="0.0529425309328673" flag="0"/>
			<psa30 value="0.00924033462680274" flag="0"/>
		</comp>
	</station>
	<station code="NISR" name="NISR" netid="HL" source="National Observatory of Athens Seismic Network" insttype="" lat="36.6106" lon="27.131">
		<comp name="--.HNE" depth="0.0">
			<acc value="4.33668579453204" flag="0"/>
			<vel value="1.61305805103047" flag="0"/>
			<psa03 value="11.7875862030798" flag="0"/>
			<psa10 value="0.457570211779755" flag="0"/>
			<psa30 value="0.111105200174126" flag="0"/>
		</comp>
		<comp name="--.HNN" depth="0.0">
			<acc value="3.60152473611591" flag="0"/>
			<vel value="1.11241221485893" flag="0"/>
			<psa03 value="5.62611536921357" flag="0"/>
			<psa10 value="0.380355416679564" flag="0"/>
			<psa30 value="0.069528805942166" flag="0"/>
		</comp>
		<comp name="--.HNZ" depth="0.0">
			<acc value="1.6062066488337" flag="0"/>
			<vel value="0.393912530403561" flag="0"/>
			<psa03 value="1.73426438650448" flag="0"/>
			<psa10 value="0.427116304359682" flag="0"/>
			<psa30 value="0.043015846255386" flag="0"/>
		</comp>
	</station>
	<station code="PRK" name="PRK" netid="HL" source="National Observatory of Athens Seismic Network" insttype="" lat="39.24565" lon="26.26499">
		<comp name="--.HNE" depth="0.0">
			<acc value="0.0109981181131181" flag="0"/>
			<vel value="0.0124700098214003" flag="0"/>
			<psa03 value="0.0137278351829768" flag="0"/>
			<psa10 value="0.0247950431749247" flag="0"/>
			<psa30 value="0.00226751417002014" flag="0"/>
		</comp>
		<comp name="--.HNN" depth="0.0">
			<acc value="0.0136604845308412" flag="0"/>
			<vel value="0.0141896668320274" flag="0"/>
			<psa03 value="0.0218974167422193" flag="0"/>
			<psa10 value="0.0295043107657907" flag="0"/>
			<psa30 value="0.00373915436729145" flag="0"/>
		</comp>
		<comp name="--.HNZ" depth="0.0">
			<acc value="0.00700646245912779" flag="0"/>
			<vel value="0.00914025946947677" flag="0"/>
			<psa03 value="0.0116470085363007" flag="0"/>
			<psa10 value="0.00742857179391152" flag="0"/>
			<psa30 value="0.00261647457860106" flag="0"/>
		</comp>
	</station>
	<station code="RODB" name="RODB" netid="HL" source="National Observatory of Athens Seismic Network" insttype="" lat="36.4471" lon="28.22116">
		<comp name="00.HNE" depth="0.0">
			<acc value="0.0680267721340522" flag="0"/>
			<vel value="0.100115627034198" flag="0"/>
			<psa03 value="0.184164762511731" flag="0"/>
			<psa10 value="0.145962444295428" flag="0"/>
			<psa30 value="0.0339817344564454" flag="0"/>
		</comp>
		<comp name="00.HNN" depth="0.0">
			<acc value="0.0753113083354852" flag="0"/>
			<vel value="0.119195839159408" flag="0"/>
			<psa03 value="0.218889125330214" flag="0"/>
			<psa10 value="0.109473539584624" flag="0"/>
			<psa30 value="0.0317356823332133" flag="0"/>
		</comp>
		<comp name="00.HNZ" depth="0.0">
			<acc value="0.0435205535648849" flag="0"/>
			<vel value="0.0684216752130018" flag="0"/>
			<psa03 value="0.108633654779697" flag="0"/>
			<psa10 value="0.089371487922652" flag="0"/>
			<psa30 value="0.0143187402129155" flag="0"/>
		</comp>
	</station>
	<station code="THRA" name="THRA" netid="HL" source="National Observatory of Athens Seismic Network" insttype="" lat="36.41502" lon="25.43244">
		<comp name="00.HNE" depth="0.0">
			<acc value="0.0850394480200337" flag="0"/>
			<vel value="0.116638716879075" flag="0"/>
			<psa03 value="0.272550117607846" flag="0"/>
			<psa10 value="0.103035840618744" flag="0"/>
			<psa30 value="0.0340215137583121" flag="0"/>
		</comp>
		<comp name="00.HNN" depth="0.0">
			<acc value="0.0901220954653623" flag="0"/>
			<vel value="0.0700679715024285" flag="0"/>
			<psa03 value="0.234090632355422" flag="0"/>
			<psa10 value="0.113875431188417" flag="0"/>
			<psa30 value="0.0129838951193502" flag="0"/>
		</comp>
		<comp name="00.HNZ" depth="0.0">
			<acc value="0.0903127651586855" flag="0"/>
			<vel value="0.0648939492156359" flag="0"/>
			<psa03 value="0.163886252493377" flag="0"/>
			<psa10 value="0.0505563603605787" flag="0"/>
			<psa30 value="0.00909470997992319" flag="0"/>
		</comp>
	</station>
	<station code="TNSA" name="TNSA" netid="HL" source="National Observatory of Athens Seismic Network" insttype="" lat="37.53942" lon="25.1631">
		<comp name="00.HNE" depth="0.0">
			<acc value="0.0285531553028362" flag="0"/>
			<vel value="0.0265173180302943" flag="0"/>
			<psa03 value="0.0416106262914274" flag="0"/>
			<psa10 value="0.0618765677688696" flag="0"/>
			<psa30 value="0.00757566851750894" flag="0"/>
		</comp>
		<comp name="00.HNN" depth="0.0">
			<acc value="0.0264613403118802" flag="0"/>
			<vel value="0.0252741293144624" flag="0"/>
			<psa03 value="0.0575775798569823" flag="0"/>
			<psa10 value="0.0445143388564695" flag="0"/>
			<psa30 value="0.00392875401067369" flag="0"/>
		</comp>
		<comp name="00.HNZ" depth="0.0">
			<acc value="0.016275825666635" flag="0"/>
			<vel value="0.0175742485226203" flag="0"/>
			<psa03 value="0.0389749126258544" flag="0"/>
			<psa10 value="0.022092222251291" flag="0"/>
			<psa30 value="0.00270012261987173" flag="0"/>
		</comp>
	</station>
	<station code="BASM" name="BASM" netid="KO" source="Bogazici University Kandilli Observatory And Earthquake Research Institute (KOERI)" insttype="" lat="37.9194" lon="30.035">
		<comp name="--.HNE" depth="0.0">
			<acc value="0.00351878136924506" flag="0"/>
			<vel value="0.00894678750672532" flag="0"/>
			<psa03 value="0.00544104957043196" flag="0"/>
			<psa10 value="0.0112998641855557" flag="0"/>
			<psa30 value="0.00538184485415491" flag="0"/>
		</comp>
		<comp name="--.HNN" depth="0.0">
			<acc value="0.00415289619607366" flag="0"/>
			<vel value="0.00882924675674459" flag="0"/>
			<psa03 value="0.00538725043360083" flag="0"/>
			<psa10 value="0.0098247161517245" flag="0"/>
			<psa30 value="0.00486684407122226" flag="0"/>
		</comp>
		<comp name="--.HNZ" depth="0.0">
			<acc value="0.00288523073095938" flag="0"/>
			<vel value="0.00584534388680703" flag="0"/>
			<psa03 value="0.00365411771840836" flag="0"/>
			<psa10 value="0.00541101689079705" flag="0"/>
			<psa30 value="0.00379356672184475" flag="0"/>
		</comp>
	</station>
	<station code="CAME" name="CAME" netid="KO" source="Bogazici University Kandilli Observatory And Earthquake Research Institute (KOERI)" insttype="" lat="36.9435" lon="29.3023">
		<comp name="--.HNE" depth="0.0">
			<acc value="0.00111793699964124" flag="0"/>
			<vel value="0.00203586805810065" flag="0"/>
			<psa03 value="0.0389759074834046" flag="0"/>
			<psa10 value="0.0137948219642436" flag="0"/>
			<psa30 value="0.00399391416054585" flag="0"/>
		</comp>
		<comp name="--.HNN" depth="0.0">
			<acc value="0.000797136033964128" flag="0"/>
			<vel value="0.00227251468554422" flag="0"/>
			<psa03 value="0.073603183141271" flag="0"/>
			<psa10 value="0.00955287658119888" flag="0"/>
			<psa30 value="0.00293877926303635" flag="0"/>
		</comp>
		<comp name="--.HNZ" depth="0.0">
			<acc value="0.00093642938167944" flag="0"/>
			<vel value="0.00128627488787759" flag="0"/>
			<psa03 value="0.0302182882716432" flag="0"/>
			<psa10 value="0.0122279250400282" flag="0"/>
			<psa30 value="0.00362821826832261" flag="0"/>
		</comp>
	</station>
