<stationlist created="1778136623">
	<station code="ARPRA" name="ARPRA" netid="KO" source="Bogazici University Kandilli Observatory And Earthquake Research Institute (KOERI)" insttype="" lat="39.0929" lon="38.3356">
		<comp name="--.HNE" depth="0.0">
			<acc value="0.0181442398176961" flag="0"/>
			<vel value="0.0117967883543861" flag="0"/>
			<psa03 value="0.0589893660894672" flag="0"/>
			<psa10 value="0.0205975588621942" flag="0"/>
			<psa30 value="0.000970286568390622" flag="0"/>
		</comp>
		<comp name="--.HNN" depth="0.0">
			<acc value="0.027761659279418" flag="0"/>
			<vel value="0.0127656276843981" flag="0"/>
			<psa03 value="0.0484679920167715" flag="0"/>
			<psa10 value="0.0125074469944978" flag="0"/>
			<psa30 value="0.000853987770414518" flag="0"/>
		</comp>
		<comp name="--.HNZ" depth="0.0">
			<acc value="0.00998321082376707" flag="0"/>
			<vel value="0.00396899969529807" flag="0"/>
			<psa03 value="0.0193584581840949" flag="0"/>
			<psa10 value="0.00494433222525944" flag="0"/>
			<psa30 value="0.00053400063533912" flag="0"/>
		</comp>
	</station>
	<station code="KHMN" name="KHMN" netid="KO" source="Bogazici University Kandilli Observatory And Earthquake Research Institute (KOERI)" insttype="" lat="37.3916" lon="37.1574">
		<comp name="--.HNE" depth="0.0">
			<acc value="0.0072452339365581" flag="0"/>
			<vel value="0.00260862028892368" flag="0"/>
			<psa03 value="0.00578628044810781" flag="0"/>
			<psa10 value="0.00206315675213406" flag="0"/>
			<psa30 value="0.000653852585359099" flag="0"/>
		</comp>
		<comp name="--.HNN" depth="0.0">
			<acc value="0.00716762129336966" flag="0"/>
			<vel value="0.00303897481467004" flag="0"/>
			<psa03 value="0.00827884270354588" flag="0"/>
			<psa10 value="0.00292258196608892" flag="0"/>
			<psa30 value="0.000942588587700492" flag="0"/>
		</comp>
		<comp name="--.HNZ" depth="0.0">
			<acc value="0.0065703076210001" flag="0"/>
			<vel value="0.00150981029498887" flag="0"/>
			<psa03 value="0.00283696007009873" flag="0"/>
			<psa10 value="0.00147282065307919" flag="0"/>
			<psa30 value="0.00036651217025733" flag="0"/>
		</comp>
	</station>
	<station code="RFHY" name="RFHY" netid="KO" source="Bogazici University Kandilli Observatory And Earthquake Research Institute (KOERI)" insttype="" lat="39.927" lon="38.833">
		<comp name="--.HNE" depth="0.0">
			<acc value="0.0022626890235983" flag="0"/>
			<vel value="0.00258936803777117" flag="0"/>
			<psa03 value="0.00474478046426529" flag="0"/>
			<psa10 value="0.00421648213373342" flag="0"/>
			<psa30 value="0.000645588600410841" flag="0"/>
		</comp>
		<comp name="--.HNN" depth="0.0">
			<acc value="0.00154845941662445" flag="0"/>
			<vel value="0.00179121716568727" flag="0"/>
			<psa03 value="0.00487975848142713" flag="0"/>
			<psa10 value="0.00316717246588238" flag="0"/>
			<psa30 value="0.000416074568106463" flag="0"/>
		</comp>
		<comp name="--.HNZ" depth="0.0">
			<acc value="0.00129449286462515" flag="0"/>
			<vel value="0.00122733791661346" flag="0"/>
			<psa03 value="0.00451640726273012" flag="0"/>
			<psa10 value="0.00215631128254023" flag="0"/>
			<psa30 value="0.000667134715232393" flag="0"/>
		</comp>
	</station>
	<station code="TUNC" name="TUNC" netid="KO" source="Bogazici University Kandilli Observatory And Earthquake Research Institute (KOERI)" insttype="" lat="39.6942" lon="37.5388">
		<comp name="--.HNE" depth="0.0">
			<acc value="0.00279296257156086" flag="0"/>
			<vel value="0.0022084487271281" flag="0"/>
			<psa03 value="0.00724437052901235" flag="0"/>
			<psa10 value="0.00382086139456722" flag="0"/>
			<psa30 value="0.000565431571650474" flag="0"/>
		</comp>
		<comp name="--.HNN" depth="0.0">
			<acc value="0.0028961561893025" flag="0"/>
			<vel value="0.0028663398645977" flag="0"/>
			<psa03 value="0.00640769400951391" flag="0"/>
			<psa10 value="0.00354004630756803" flag="0"/>
			<psa30 value="0.000496561853118772" flag="0"/>
		</comp>
		<comp name="--.HNZ" depth="0.0">
			<acc value="0.00171450525588169" flag="0"/>
			<vel value="0.0018738331998045" flag="0"/>
			<psa03 value="0.004205383078178" flag="0"/>
			<psa10 value="0.00216967388649847" flag="0"/>
			<psa30 value="0.000578099910864226" flag="0"/>
		</comp>
	</station>
</stationlist>
