<?xml version="1.0" encoding="UTF-8" standalone="yes"?>
<!DOCTYPE earthquake SYSTEM "stationlist.dtd">
<stationlist created="" xmlns="ch.ethz.sed.shakemap.usgs.xml">
  <station code="ARPRA" name="ARPRA" netid="KO" insttype="CMG-5T" lat="39.0929" lon="38.3356">
    <comp name="--.HNZ">
      <acc value="0.0100733972" flag="0"/>
      <vel value="0.0039435331" flag="0"/>
      <psa03 value="0.0191027813" flag="0"/>
      <psa10 value="0.0049518701" flag="0"/>
      <psa30 value="0.0004944690" flag="0"/>
    </comp>
    <comp name="--.HNE">
      <acc value="0.0180695059" flag="0"/>
      <vel value="0.0119937159" flag="0"/>
      <psa03 value="0.0589524005" flag="0"/>
      <psa10 value="0.0206212820" flag="0"/>
      <psa30 value="0.0009517417" flag="0"/>
    </comp>
    <comp name="--.HNN">
      <acc value="0.0277565991" flag="0"/>
      <vel value="0.0127828012" flag="0"/>
      <psa03 value="0.0491675959" flag="0"/>
      <psa10 value="0.0124859846" flag="0"/>
      <psa30 value="0.0008438075" flag="0"/>
    </comp>
  </station>
</stationlist>
