<stationlist created="1631873534">
	<station code="MALA" name="MALA" netid="CL" source="Corinth Riff Laboratory (CRLNET)" insttype="" lat="38.39341" lon="21.87263">
		<comp name="01.HNE" depth="0.0">
			<acc value="0.072832386" flag="0"/>
			<vel value="0.103178" flag="0"/>
			<psa03 value="0.208364456221" flag="0"/>
			<psa10 value="0.235249600756" flag="0"/>
			<psa30 value="0.0287280760255" flag="0"/>
		</comp>
		<comp name="01.HNN" depth="0.0">
			<acc value="-0.10260843" flag="0"/>
			<vel value="-0.107255" flag="0"/>
			<psa03 value="0.220176398769" flag="0"/>
			<psa10 value="0.176679815182" flag="0"/>
			<psa30 value="0.0437207420412" flag="0"/>
		</comp>
		<comp name="01.HNZ" depth="0.0">
			<acc value="-0.037568232" flag="0"/>
			<vel value="-0.039646" flag="0"/>
			<psa03 value="0.075838040218" flag="0"/>
			<psa10 value="0.0460987903229" flag="0"/>
			<psa30 value="0.0109573664008" flag="0"/>
		</comp>
	</station>
	<station code="ROD3" name="ROD3" netid="CL" source="Corinth Riff Laboratory (CRLNET)" insttype="" lat="38.30811" lon="21.89204">
		<comp name="--.HNE" depth="0.0">
			<acc value="-0.118853256" flag="0"/>
			<vel value="0.076555" flag="0"/>
			<psa03 value="0.312345344402" flag="0"/>
			<psa10 value="0.0768393708021" flag="0"/>
			<psa30 value="0.0153957932973" flag="0"/>
		</comp>
		<comp name="--.HNN" depth="0.0">
			<acc value="0.126945324" flag="0"/>
			<vel value="0.093192" flag="0"/>
			<psa03 value="0.396908114911" flag="0"/>
			<psa10 value="0.1313259826" flag="0"/>
			<psa30 value="0.0121036617344" flag="0"/>
		</comp>
		<comp name="--.HNZ" depth="0.0">
			<acc value="-0.04130439" flag="0"/>
			<vel value="0.038949" flag="0"/>
			<psa03 value="0.112347680818" flag="0"/>
			<psa10 value="0.053298706212" flag="0"/>
			<psa30 value="0.00997259043315" flag="0"/>
		</comp>
	</station>
	<station code="AIGS" name="AIGS" netid="HA" source="Hellenic Seismological Network, University of Athens, Seismological Laboratory (HA)" insttype="" lat="38.25001" lon="22.0878">
		<comp name="--.HNE" depth="0.0">
			<acc value="-0.045849714" flag="0"/>
			<vel value="0.063974" flag="0"/>
			<psa03 value="0.131407860838" flag="0"/>
			<psa10 value="0.0731065285039" flag="0"/>
			<psa30 value="0.0220686459924" flag="0"/>
		</comp>
		<comp name="--.HNN" depth="0.0">
			<acc value="-0.034114104" flag="0"/>
			<vel value="0.044901" flag="0"/>
			<psa03 value="0.0909609060549" flag="0"/>
			<psa10 value="0.0464128806134" flag="0"/>
			<psa30 value="0.0104003259284" flag="0"/>
		</comp>
		<comp name="--.HNZ" depth="0.0">
			<acc value="0.029614068" flag="0"/>
			<vel value="-0.036175" flag="0"/>
			<psa03 value="0.0643840353237" flag="0"/>
			<psa10 value="0.0522154973897" flag="0"/>
			<psa30 value="0.0144937904119" flag="0"/>
		</comp>
	</station>
</stationlist>
