<?xml version="1.0" encoding="UTF-8" standalone="yes"?>
<!DOCTYPE earthquake SYSTEM "stationlist.dtd">
<stationlist created="" xmlns="ch.ethz.sed.shakemap.usgs.xml">
  <station code="PYL1" name="PYL1" netid="HI" insttype="CMG-5TD,ACCELEROMETER,GURALP" lat="36.9142" lon="21.6952">
    <comp name="--.HNN">
      <acc value="0.0524524660" flag="0"/>
      <vel value="0.0465907265" flag="0"/>
      <psa03 value="0.1509977823" flag="0"/>
      <psa10 value="0.0960362359" flag="0"/>
      <psa30 value="0.0107350033" flag="0"/>
    </comp>
    <comp name="--.HNE">
      <acc value="0.0604774434" flag="0"/>
      <vel value="0.0608892537" flag="0"/>
      <psa03 value="0.2323604817" flag="0"/>
      <psa10 value="0.0827203774" flag="0"/>
      <psa30 value="0.0061414360" flag="0"/>
    </comp>
    <comp name="--.HNZ">
      <acc value="0.0298678308" flag="0"/>
      <vel value="0.0205654054" flag="0"/>
      <psa03 value="0.0773099132" flag="0"/>
      <psa10 value="0.0272223980" flag="0"/>
      <psa30 value="0.0019100997" flag="0"/>
    </comp>
  </station>
  <station code="VLS" name="VLS" netid="HL" insttype="120P," lat="38.1768" lon="20.5886">
    <comp name="--.HHZ">
      <acc value="0.0893584607" flag="0"/>
      <vel value="0.0642927629" flag="0"/>
      <psa03 value="0.3666207825" flag="0"/>
      <psa10 value="0.0725187575" flag="0"/>
      <psa30 value="0.0055736441" flag="0"/>
    </comp>
    <comp name="--.HHE">
      <acc value="0.1789870567" flag="0"/>
      <vel value="0.1025275607" flag="0"/>
      <psa03 value="0.5060513258" flag="0"/>
      <psa10 value="0.0702037875" flag="0"/>
      <psa30 value="0.0105715388" flag="0"/>
    </comp>
    <comp name="--.HHN">
      <acc value="0.1568574601" flag="0"/>
      <vel value="0.0954384555" flag="0"/>
      <psa03 value="0.5184227867" flag="0"/>
      <psa10 value="0.1084326291" flag="0"/>
      <psa30 value="0.0102431127" flag="0"/>
    </comp>
  </station>
  <station code="AMT" name="AMT" netid="HP" insttype="CMG-3T," lat="37.5324" lon="21.7089">
    <comp name="00.HHN">
      <acc value="0.1169465377" flag="0"/>
      <vel value="0.0639636579" flag="0"/>
      <psa03 value="0.3532894012" flag="0"/>
      <psa10 value="0.0995087252" flag="0"/>
      <psa30 value="0.0059043134" flag="0"/>
    </comp>
    <comp name="00.HHE">
      <acc value="0.1931904091" flag="0"/>
      <vel value="0.1053435391" flag="0"/>
      <psa03 value="0.5001919659" flag="0"/>
      <psa10 value="0.1122014911" flag="0"/>
      <psa30 value="0.0074696168" flag="0"/>
    </comp>
    <comp name="00.HHZ">
      <acc value="0.0949567836" flag="0"/>
      <vel value="0.0541254037" flag="0"/>
      <psa03 value="0.1981450912" flag="0"/>
      <psa10 value="0.0480351667" flag="0"/>
      <psa30 value="0.0050663082" flag="0"/>
    </comp>
  </station>
  <station code="LTHK" name="LTHK" netid="HP" insttype="40," lat="37.7095" lon="20.8367">
    <comp name="--.HHE">
      <acc value="1.4315293300" flag="0"/>
      <vel value="0.5330830898" flag="0"/>
      <psa03 value="2.2187056991" flag="0"/>
      <psa10 value="0.4836136418" flag="0"/>
      <psa30 value="0.0257854932" flag="0"/>
    </comp>
    <comp name="--.HHN">
      <acc value="1.1647431165" flag="0"/>
      <vel value="0.5403260176" flag="0"/>
      <psa03 value="2.3964460466" flag="0"/>
      <psa10 value="0.4351514085" flag="0"/>
      <psa30 value="0.0296979471" flag="0"/>
    </comp>
    <comp name="--.HHZ">
      <acc value="1.0871965150" flag="0"/>
      <vel value="0.2520448242" flag="0"/>
      <psa03 value="1.1090708274" flag="0"/>
      <psa10 value="0.3242019572" flag="0"/>
      <psa30 value="0.0123220555" flag="0"/>
    </comp>
  </station>
  <station code="DMLN" name="DMLN" netid="HT" insttype="1s-100Hz," lat="38.2385" lon="20.3734">
    <comp name="--.HHE">
      <acc value="0.3413566342" flag="0"/>
      <vel value="0.2702714549" flag="0"/>
      <psa03 value="0.8138174354" flag="0"/>
      <psa10 value="0.1939723917" flag="0"/>
      <psa30 value="0.0202061822" flag="0"/>
    </comp>
    <comp name="--.HHN">
      <acc value="0.2196480777" flag="0"/>
      <vel value="0.1446124334" flag="0"/>
      <psa03 value="0.5523250569" flag="0"/>
      <psa10 value="0.2499408621" flag="0"/>
      <psa30 value="0.0187230312" flag="0"/>
    </comp>
    <comp name="--.HHZ">
      <acc value="0.1448896767" flag="0"/>
      <vel value="0.1080036772" flag="0"/>
      <psa03 value="0.4285888048" flag="0"/>
      <psa10 value="0.0720990209" flag="0"/>
      <psa30 value="0.0114285862" flag="0"/>
    </comp>
  </station>
  <station code="PSDA" name="PSDA" netid="HT" insttype="30" lat="38.114" lon="20.5841">
    <comp name="--.HHE">
      <acc value="0.3070264959" flag="0"/>
      <vel value="0.1840689922" flag="0"/>
      <psa03 value="1.0320312332" flag="0"/>
      <psa10 value="0.2448510115" flag="0"/>
      <psa30 value="0.0099081229" flag="0"/>
    </comp>
    <comp name="--.HHZ">
      <acc value="0.1716408058" flag="0"/>
      <vel value="0.0660803556" flag="0"/>
      <psa03 value="0.4879685650" flag="0"/>
      <psa10 value="0.1045589492" flag="0"/>
      <psa30 value="0.0118899734" flag="0"/>
    </comp>
    <comp name="--.HHN">
      <acc value="0.3215360479" flag="0"/>
      <vel value="0.1321967496" flag="0"/>
      <psa03 value="0.9203177470" flag="0"/>
      <psa10 value="0.1815186582" flag="0"/>
      <psa30 value="0.0136363232" flag="0"/>
    </comp>
  </station>
  <station code="RTZL" name="RTZL" netid="HT" insttype="Compact," lat="38.076" lon="20.7715">
    <comp name="--.HHN">
      <acc value="0.2307489468" flag="0"/>
      <vel value="0.1720466811" flag="0"/>
      <psa03 value="0.5150662452" flag="0"/>
      <psa10 value="0.2045031308" flag="0"/>
      <psa30 value="0.0121520531" flag="0"/>
    </comp>
    <comp name="--.HHZ">
      <acc value="0.0746349085" flag="0"/>
      <vel value="0.0582320135" flag="0"/>
      <psa03 value="0.2597984376" flag="0"/>
      <psa10 value="0.0436072004" flag="0"/>
      <psa30 value="0.0067637588" flag="0"/>
    </comp>
    <comp name="--.HHE">
      <acc value="0.2135077637" flag="0"/>
      <vel value="0.1548793613" flag="0"/>
      <psa03 value="0.4212603428" flag="0"/>
      <psa10 value="0.2231134408" flag="0"/>
      <psa30 value="0.0133494079" flag="0"/>
    </comp>
  </station>
</stationlist>
