<stationlist created="1778118934">
	<station code="KTHA" name="KTHA" netid="GE" source="GEOFON" insttype="" lat="36.2566" lon="23.0621">
		<comp name="--.HNE" depth="0.0">
			<acc value="0.0366752811282004" flag="0"/>
			<vel value="0.0263027942801522" flag="0"/>
			<psa03 value="0.127246794059092" flag="0"/>
			<psa10 value="0.058272312754697" flag="0"/>
			<psa30 value="0.0097448522152896" flag="0"/>
		</comp>
		<comp name="--.HNN" depth="0.0">
			<acc value="0.0267573140659745" flag="0"/>
			<vel value="0.02047742038464" flag="0"/>
			<psa03 value="0.0652615003373849" flag="0"/>
			<psa10 value="0.0362191568414003" flag="0"/>
			<psa30 value="0.00643324242071623" flag="0"/>
		</comp>
		<comp name="--.HNZ" depth="0.0">
			<acc value="0.0190242450043168" flag="0"/>
			<vel value="0.0143049607316115" flag="0"/>
			<psa03 value="0.0456462477984525" flag="0"/>
			<psa10 value="0.0238077865240172" flag="0"/>
			<psa30 value="0.00495449196076806" flag="0"/>
		</comp>
	</station>
	<station code="ABEA" name="ABEA" netid="HC" source="Seismological Network of Crete (HC)" insttype="" lat="35.5163" lon="24.0113">
		<comp name="--.HNE" depth="0.0">
			<acc value="0.238442939099192" flag="0"/>
			<vel value="0.296039808379737" flag="0"/>
			<psa03 value="0.531603424449006" flag="0"/>
			<psa10 value="0.32339331321979" flag="0"/>
			<psa30 value="0.0860095977137652" flag="0"/>
		</comp>
		<comp name="--.HNN" depth="0.0">
			<acc value="0.272864607647477" flag="0"/>
			<vel value="0.208575501909133" flag="0"/>
			<psa03 value="0.512237433214703" flag="0"/>
			<psa10 value="0.44020299128889" flag="0"/>
			<psa30 value="0.0697094579096026" flag="0"/>
		</comp>
		<comp name="--.HNZ" depth="0.0">
			<acc value="0.156356413751095" flag="0"/>
			<vel value="0.125292714125867" flag="0"/>
			<psa03 value="0.239686732236491" flag="0"/>
			<psa10 value="0.282251047746668" flag="0"/>
			<psa30 value="0.0380659350147068" flag="0"/>
		</comp>
	</station>
	<station code="ATEI" name="ATEI" netid="HC" source="Seismological Network of Crete (HC)" insttype="" lat="35.5193" lon="24.0432">
		<comp name="--.HNE" depth="0.0">
			<acc value="0.145431086070438" flag="0"/>
			<vel value="0.217026332578932" flag="0"/>
			<psa03 value="0.402603420500824" flag="0"/>
			<psa10 value="0.26210705330609" flag="0"/>
			<psa30 value="0.0450100650291361" flag="0"/>
		</comp>
		<comp name="--.HNN" depth="0.0">
			<acc value="0.164825819902931" flag="0"/>
			<vel value="0.172849860018089" flag="0"/>
			<psa03 value="0.428246952592366" flag="0"/>
			<psa10 value="0.300999049709897" flag="0"/>
			<psa30 value="0.0576509124235614" flag="0"/>
		</comp>
		<comp name="--.HNZ" depth="0.0">
			<acc value="0.124293345039674" flag="0"/>
			<vel value="0.0977298132892285" flag="0"/>
			<psa03 value="0.196594252571252" flag="0"/>
			<psa10 value="0.225303855274848" flag="0"/>
			<psa30 value="0.0269311773916736" flag="0"/>
		</comp>
	</station>
	<station code="DEYA" name="DEYA" netid="HC" source="Seismological Network of Crete (HC)" insttype="" lat="35.4825" lon="24.014">
		<comp name="--.HNE" depth="0.0">
			<acc value="0.629898089248729" flag="0"/>
			<vel value="0.416967613544493" flag="0"/>
			<psa03 value="1.22985430514648" flag="0"/>
			<psa10 value="0.708130610176521" flag="0"/>
			<psa30 value="0.0592582455680453" flag="0"/>
		</comp>
		<comp name="--.HNN" depth="0.0">
			<acc value="0.35337238948251" flag="0"/>
			<vel value="0.24606526275072" flag="0"/>
			<psa03 value="0.956325935231225" flag="0"/>
			<psa10 value="0.567509314706238" flag="0"/>
			<psa30 value="0.0502451184926814" flag="0"/>
		</comp>
		<comp name="--.HNZ" depth="0.0">
			<acc value="0.208704587778028" flag="0"/>
			<vel value="0.172686958123772" flag="0"/>
			<psa03 value="0.479169742641719" flag="0"/>
			<psa10 value="0.314280269525589" flag="0"/>
			<psa30 value="0.0226895897406332" flag="0"/>
		</comp>
	</station>
	<station code="G0LD" name="G0LD" netid="HC" source="Seismological Network of Crete (HC)" insttype="" lat="35.4955" lon="24.0306">
		<comp name="--.HNE" depth="0.0">
			<acc value="0.478326381955982" flag="0"/>
			<vel value="0.620800875364096" flag="0"/>
			<psa03 value="1.35430113246797" flag="0"/>
			<psa10 value="1.26430247383537" flag="0"/>
			<psa30 value="0.110034035881437" flag="0"/>
		</comp>
		<comp name="--.HNN" depth="0.0">
			<acc value="0.44213628066235" flag="0"/>
			<vel value="0.580288032167653" flag="0"/>
			<psa03 value="0.805511944545192" flag="0"/>
			<psa10 value="1.38159248372186" flag="0"/>
			<psa30 value="0.125101780712237" flag="0"/>
		</comp>
		<comp name="--.HNZ" depth="0.0">
			<acc value="0.251402231655564" flag="0"/>
			<vel value="0.273330463208115" flag="0"/>
			<psa03 value="0.645538430419757" flag="0"/>
			<psa10 value="0.6222027578796" flag="0"/>
			<psa30 value="0.0326501895815075" flag="0"/>
		</comp>
	</station>
	<station code="MULT" name="MULT" netid="HC" source="Seismological Network of Crete (HC)" insttype="" lat="35.5091" lon="24.0118">
		<comp name="--.HNE" depth="0.0">
			<acc value="0.430692434225484" flag="0"/>
			<vel value="0.267157451636028" flag="0"/>
			<psa03 value="0.567325832550388" flag="0"/>
			<psa10 value="0.444739441805837" flag="0"/>
			<psa30 value="0.0461535107767463" flag="0"/>
		</comp>
		<comp name="--.HNN" depth="0.0">
			<acc value="0.312199580683995" flag="0"/>
			<vel value="0.214261157824201" flag="0"/>
			<psa03 value="0.360509798671408" flag="0"/>
			<psa10 value="0.468011503466738" flag="0"/>
			<psa30 value="0.0868238383197497" flag="0"/>
		</comp>
		<comp name="--.HNZ" depth="0.0">
			<acc value="0.235629719747331" flag="0"/>
			<vel value="0.231468039011554" flag="0"/>
			<psa03 value="0.228252120582771" flag="0"/>
			<psa10 value="0.395756336914869" flag="0"/>
			<psa30 value="0.045098910914709" flag="0"/>
		</comp>
	</station>
	<station code="NERO" name="NERO" netid="HC" source="Seismological Network of Crete (HC)" insttype="" lat="35.474" lon="24.0423">
		<comp name="--.HNE" depth="0.0">
			<acc value="0.185677648550545" flag="0"/>
			<vel value="0.150760422976694" flag="0"/>
			<psa03 value="0.653362323712841" flag="0"/>
			<psa10 value="0.202746590966481" flag="0"/>
			<psa30 value="0.0242485663485074" flag="0"/>
		</comp>
		<comp name="--.HNN" depth="0.0">
			<acc value="0.178813923723014" flag="0"/>
			<vel value="0.198143135106291" flag="0"/>
			<psa03 value="0.628792029388199" flag="0"/>
			<psa10 value="0.222522911050902" flag="0"/>
			<psa30 value="0.0319071003554581" flag="0"/>
		</comp>
		<comp name="--.HNZ" depth="0.0">
			<acc value="0.12668768198277" flag="0"/>
			<vel value="0.0944999904304113" flag="0"/>
			<psa03 value="0.271759690245818" flag="0"/>
			<psa10 value="0.170070436331883" flag="0"/>
			<psa30 value="0.0240623373451043" flag="0"/>
		</comp>
	</station>
	<station code="PASK" name="PASK" netid="HC" source="Seismological Network of Crete (HC)" insttype="" lat="35.4996" lon="24.0121">
		<comp name="--.HNE" depth="0.0">
			<acc value="0.242648724843524" flag="0"/>
			<vel value="0.241445235016142" flag="0"/>
			<psa03 value="0.594818862162766" flag="0"/>
			<psa10 value="0.316992209178212" flag="0"/>
			<psa30 value="0.0480117205407704" flag="0"/>
		</comp>
		<comp name="--.HNN" depth="0.0">
			<acc value="0.265871257836069" flag="0"/>
			<vel value="0.271603148812526" flag="0"/>
			<psa03 value="0.431918612488496" flag="0"/>
			<psa10 value="0.410995486435586" flag="0"/>
			<psa30 value="0.0750221231810113" flag="0"/>
		</comp>
		<comp name="--.HNZ" depth="0.0">
			<acc value="0.140730625021888" flag="0"/>
			<vel value="0.159249490417145" flag="0"/>
			<psa03 value="0.553224148385534" flag="0"/>
			<psa10 value="0.205265587837668" flag="0"/>
			<psa30 value="0.0299360331152735" flag="0"/>
		</comp>
	</station>
	<station code="POLY" name="POLY" netid="HC" source="Seismological Network of Crete (HC)" insttype="" lat="35.5226" lon="24.0602">
		<comp name="--.HNE" depth="0.0">
			<acc value="0.1371901343403" flag="0"/>
			<vel value="0.22505592559305" flag="0"/>
			<psa03 value="0.29035940155188" flag="0"/>
			<psa10 value="0.268347346694749" flag="0"/>
			<psa30 value="0.0445716693209954" flag="0"/>
		</comp>
		<comp name="--.HNN" depth="0.0">
			<acc value="0.1577071922829" flag="0"/>
			<vel value="0.190555058993967" flag="0"/>
			<psa03 value="0.284643960431872" flag="0"/>
			<psa10 value="0.380229828359868" flag="0"/>
			<psa30 value="0.0494580030167952" flag="0"/>
		</comp>
		<comp name="--.HNZ" depth="0.0">
			<acc value="0.10116147735653" flag="0"/>
			<vel value="0.102212259586295" flag="0"/>
			<psa03 value="0.217742132680863" flag="0"/>
			<psa10 value="0.126744371192667" flag="0"/>
			<psa30 value="0.0273992167302894" flag="0"/>
		</comp>
	</station>
	<station code="SOUD" name="SOUD" netid="HC" source="Seismological Network of Crete (HC)" insttype="" lat="35.4878" lon="24.0678">
		<comp name="--.HNE" depth="0.0">
			<acc value="0.360141172082984" flag="0"/>
			<vel value="0.403753848112463" flag="0"/>
			<psa03 value="0.660546507964605" flag="0"/>
			<psa10 value="0.483412663716153" flag="0"/>
			<psa30 value="0.0514277701706463" flag="0"/>
		</comp>
		<comp name="--.HNN" depth="0.0">
			<acc value="0.346055475149588" flag="0"/>
			<vel value="0.24553561135373" flag="0"/>
			<psa03 value="0.977008305337861" flag="0"/>
			<psa10 value="0.35438551630104" flag="0"/>
			<psa30 value="0.0405623137208622" flag="0"/>
		</comp>
		<comp name="--.HNZ" depth="0.0">
			<acc value="0.00643342473816193" flag="0"/>
			<vel value="0.00741233375100075" flag="0"/>
			<psa03 value="0.00751836263797543" flag="0"/>
			<psa10 value="0.00299744934755909" flag="0"/>
			<psa30 value="0.00267868578312032" flag="0"/>
		</comp>
	</station>
	<station code="CH01" name="CH01" netid="HI" source="ITSAK Strong Motion Network" insttype="" lat="35.517" lon="24.0208">
		<comp name="--.HNE" depth="0.0">
			<acc value="0.270247847410167" flag="0"/>
			<vel value="0.305346447056042" flag="0"/>
			<psa03 value="0.442202835434104" flag="0"/>
			<psa10 value="0.240845424827326" flag="0"/>
			<psa30 value="0.0705516070311645" flag="0"/>
		</comp>
		<comp name="--.HNN" depth="0.0">
			<acc value="0.219888590563894" flag="0"/>
			<vel value="0.233966113633834" flag="0"/>
			<psa03 value="0.41941903445268" flag="0"/>
			<psa10 value="0.396343265796359" flag="0"/>
			<psa30 value="0.0770179287264258" flag="0"/>
		</comp>
		<comp name="--.HNZ" depth="0.0">
			<acc value="0.108056651423904" flag="0"/>
			<vel value="0.157546510697158" flag="0"/>
			<psa03 value="0.188190279182307" flag="0"/>
			<psa10 value="0.247954545771924" flag="0"/>
			<psa30 value="0.0380304893332652" flag="0"/>
		</comp>
	</station>
	<station code="KSS1" name="KSS1" netid="HI" source="ITSAK Strong Motion Network" insttype="" lat="35.4189" lon="26.9207">
		<comp name="--.HNE" depth="0.0">
			<acc value="0.0548177340419967" flag="0"/>
			<vel value="0.0477547756845338" flag="0"/>
			<psa03 value="0.178122862265445" flag="0"/>
			<psa10 value="0.0632593106187218" flag="0"/>
			<psa30 value="0.0131022237913712" flag="0"/>
		</comp>
		<comp name="--.HNN" depth="0.0">
			<acc value="0.0846100777777149" flag="0"/>
			<vel value="0.0654925151924935" flag="0"/>
			<psa03 value="0.301571373456638" flag="0"/>
			<psa10 value="0.0699281523968241" flag="0"/>
			<psa30 value="0.0104784824813709" flag="0"/>
		</comp>
		<comp name="--.HNZ" depth="0.0">
			<acc value="0.04848430255553" flag="0"/>
			<vel value="0.044247264298364" flag="0"/>
			<psa03 value="0.0654552683820218" flag="0"/>
			<psa10 value="0.0524824579553254" flag="0"/>
			<psa30 value="0.0138333247231976" flag="0"/>
		</comp>
	</station>
	<station code="NAX1" name="NAX1" netid="HI" source="ITSAK Strong Motion Network" insttype="" lat="37.101394" lon="25.374103">
		<comp name="--.HNE" depth="0.0">
			<acc value="0.0323280597263334" flag="0"/>
			<vel value="0.0421557559130157" flag="0"/>
			<psa03 value="0.121745762976133" flag="0"/>
			<psa10 value="0.0552120725288492" flag="0"/>
			<psa30 value="0.0188833025927738" flag="0"/>
		</comp>
		<comp name="--.HNN" depth="0.0">
			<acc value="0.043723780321019" flag="0"/>
			<vel value="0.034202582946524" flag="0"/>
			<psa03 value="0.142372639821882" flag="0"/>
			<psa10 value="0.0307752999625962" flag="0"/>
			<psa30 value="0.00493852048609751" flag="0"/>
		</comp>
		<comp name="--.HNZ" depth="0.0">
			<acc value="0.0242690956336579" flag="0"/>
			<vel value="0.0219385146130862" flag="0"/>
			<psa03 value="0.0882476272223077" flag="0"/>
			<psa10 value="0.0308478241419704" flag="0"/>
			<psa30 value="0.00446201100299551" flag="0"/>
		</comp>
	</station>
	<station code="NPS1" name="NPS1" netid="HI" source="ITSAK Strong Motion Network" insttype="" lat="36.51263" lon="23.06248">
		<comp name="--.HNE" depth="0.0">
			<acc value="0.0410013735209067" flag="0"/>
			<vel value="0.0327999927663635" flag="0"/>
			<psa03 value="0.12446855793116" flag="0"/>
			<psa10 value="0.0649538153714699" flag="0"/>
			<psa30 value="0.00588978475268397" flag="0"/>
		</comp>
		<comp name="--.HNN" depth="0.0">
			<acc value="0.0384831496616683" flag="0"/>
			<vel value="0.0290387153760003" flag="0"/>
			<psa03 value="0.129647473925683" flag="0"/>
			<psa10 value="0.0460360696638421" flag="0"/>
			<psa30 value="0.00498601738250358" flag="0"/>
		</comp>
		<comp name="--.HNZ" depth="0.0">
			<acc value="0.0237266642760797" flag="0"/>
			<vel value="0.019777998129334" flag="0"/>
			<psa03 value="0.0606235212190448" flag="0"/>
			<psa10 value="0.0220442078205819" flag="0"/>
			<psa30 value="0.00313921608265749" flag="0"/>
		</comp>
	</station>
	<station code="RDI1" name="RDI1" netid="HI" source="ITSAK Strong Motion Network" insttype="" lat="36.4514" lon="28.224">
		<comp name="--.HNE" depth="0.0">
			<acc value="0.0183314387210963" flag="0"/>
			<vel value="0.0314633264679584" flag="0"/>
			<psa03 value="0.0504028285233587" flag="0"/>
			<psa10 value="0.047765432975514" flag="0"/>
			<psa30 value="0.0161992081180362" flag="0"/>
		</comp>
		<comp name="--.HNN" depth="0.0">
			<acc value="0.0225979558508365" flag="0"/>
			<vel value="0.0300751058354416" flag="0"/>
			<psa03 value="0.0369937996160017" flag="0"/>
			<psa10 value="0.0441141010926966" flag="0"/>
			<psa30 value="0.0138304103634771" flag="0"/>
		</comp>
		<comp name="--.HNZ" depth="0.0">
			<acc value="0.0104223841634105" flag="0"/>
			<vel value="0.0164654002591629" flag="0"/>
			<psa03 value="0.0291300312841098" flag="0"/>
			<psa10 value="0.0168567404263246" flag="0"/>
			<psa30 value="0.00466013787793031" flag="0"/>
		</comp>
	</station>
	<station code="SIT2" name="SIT2" netid="HI" source="ITSAK Strong Motion Network" insttype="" lat="35.2059" lon="26.107">
		<comp name="--.HNE" depth="0.0">
			<acc value="0.450969870013051" flag="0"/>
			<vel value="0.340452397609995" flag="0"/>
			<psa03 value="1.46753955062563" flag="0"/>
			<psa10 value="0.281543840897809" flag="0"/>
			<psa30 value="0.0305267522475181" flag="0"/>
		</comp>
		<comp name="--.HNN" depth="0.0">
			<acc value="0.492896127668884" flag="0"/>
			<vel value="0.375801231717644" flag="0"/>
			<psa03 value="1.66950259635443" flag="0"/>
			<psa10 value="0.279443881785828" flag="0"/>
			<psa30 value="0.0327213409615767" flag="0"/>
		</comp>
		<comp name="--.HNZ" depth="0.0">
			<acc value="0.381504822042121" flag="0"/>
			<vel value="0.17216115869807" flag="0"/>
			<psa03 value="0.78303945585223" flag="0"/>
			<psa10 value="0.114592531192843" flag="0"/>
			<psa30 value="0.0302448435724699" flag="0"/>
		</comp>
	</station>
	<station code="ANKY" name="ANKY" netid="HL" source="National Observatory of Athens Seismic Network" insttype="" lat="35.86704" lon="23.30117">
		<comp name="00.HNE" depth="0.0">
			<acc value="0.0542424770943189" flag="0"/>
			<vel value="0.0570409799159708" flag="0"/>
			<psa03 value="0.101652015197109" flag="0"/>
			<psa10 value="0.0862742027423231" flag="0"/>
			<psa30 value="0.0201759448906812" flag="0"/>
		</comp>
		<comp name="00.HNN" depth="0.0">
			<acc value="0.035170708777489" flag="0"/>
			<vel value="0.0467628823160283" flag="0"/>
			<psa03 value="0.112681850036343" flag="0"/>
			<psa10 value="0.0814793826090751" flag="0"/>
			<psa30 value="0.00943933114270844" flag="0"/>
		</comp>
		<comp name="00.HNZ" depth="0.0">
			<acc value="0.0210306480649007" flag="0"/>
			<vel value="0.0400465437068952" flag="0"/>
			<psa03 value="0.0736443681612571" flag="0"/>
			<psa10 value="0.0288150807326806" flag="0"/>
			<psa30 value="0.0114779511912655" flag="0"/>
		</comp>
	</station>
	<station code="IACM" name="IACM" netid="HL" source="National Observatory of Athens Seismic Network" insttype="" lat="35.3058" lon="25.0709">
		<comp name="--.HNE" depth="0.0">
			<acc value="6.18024079706407" flag="0"/>
			<vel value="3.35239673654373" flag="0"/>
			<psa03 value="12.969209813189" flag="0"/>
			<psa10 value="5.30212403968561" flag="0"/>
			<psa30 value="0.22683969368305" flag="0"/>
		</comp>
		<comp name="--.HNN" depth="0.0">
			<acc value="4.9838280891354" flag="0"/>
			<vel value="2.69836184838543" flag="0"/>
			<psa03 value="13.9528629753611" flag="0"/>
			<psa10 value="3.14467079900679" flag="0"/>
			<psa30 value="0.263696908626253" flag="0"/>
		</comp>
		<comp name="--.HNZ" depth="0.0">
			<acc value="4.21813589296663" flag="0"/>
			<vel value="1.4937645236538" flag="0"/>
			<psa03 value="7.55625989847285" flag="0"/>
			<psa10 value="1.74224553521506" flag="0"/>
			<psa30 value="0.119475608006198" flag="0"/>
		</comp>
	</station>
	<station code="IMMV" name="IMMV" netid="HL" source="National Observatory of Athens Seismic Network" insttype="" lat="35.4606" lon="23.9811">
		<comp name="--.HNE" depth="0.0">
			<acc value="0.225590228185237" flag="0"/>
			<vel value="0.140359317967647" flag="0"/>
			<psa03 value="0.632640659340417" flag="0"/>
			<psa10 value="0.265419632747949" flag="0"/>
			<psa30 value="0.0208177807424582" flag="0"/>
		</comp>
		<comp name="--.HNN" depth="0.0">
			<acc value="0.221860244903686" flag="0"/>
			<vel value="0.132260544412726" flag="0"/>
			<psa03 value="0.728253576557384" flag="0"/>
			<psa10 value="0.207994298601482" flag="0"/>
			<psa30 value="0.0180741089876949" flag="0"/>
		</comp>
		<comp name="--.HNZ" depth="0.0">
			<acc value="0.29283492406013" flag="0"/>
			<vel value="0.134951133667051" flag="0"/>
			<psa03 value="0.644628203455911" flag="0"/>
			<psa10 value="0.101341253360517" flag="0"/>
			<psa30 value="0.0125233437767479" flag="0"/>
		</comp>
	</station>
	<station code="KARP" name="KARP" netid="HL" source="National Observatory of Athens Seismic Network" insttype="" lat="35.5471" lon="27.16106">
		<comp name="--.HNE" depth="0.0">
			<acc value="0.0789793262593676" flag="0"/>
			<vel value="0.0652478613474792" flag="0"/>
			<psa03 value="0.170922156087231" flag="0"/>
			<psa10 value="0.0914110230315259" flag="0"/>
			<psa30 value="0.0115649227860273" flag="0"/>
		</comp>
		<comp name="--.HNN" depth="0.0">
			<acc value="0.0596628386094062" flag="0"/>
			<vel value="0.0609158204675019" flag="0"/>
			<psa03 value="0.174586971780095" flag="0"/>
			<psa10 value="0.0919714901599998" flag="0"/>
			<psa30 value="0.012663470559443" flag="0"/>
		</comp>
		<comp name="--.HNZ" depth="0.0">
			<acc value="0.0524308808354434" flag="0"/>
			<vel value="0.0420892036016085" flag="0"/>
			<psa03 value="0.147768403514911" flag="0"/>
			<psa10 value="0.0447799914546687" flag="0"/>
			<psa30 value="0.0137514909687724" flag="0"/>
		</comp>
	</station>
	<station code="SIVA" name="SIVA" netid="HL" source="National Observatory of Athens Seismic Network" insttype="" lat="35.01777" lon="24.81204">
		<comp name="00.HNE" depth="0.0">
			<acc value="2.81969090712651" flag="0"/>
			<vel value="1.22008269250636" flag="0"/>
			<psa03 value="4.06186274514046" flag="0"/>
			<psa10 value="0.542460235329677" flag="0"/>
			<psa30 value="0.0546583141783777" flag="0"/>
		</comp>
		<comp name="00.HNN" depth="0.0">
