<?xml version="1.0" encoding="UTF-8" standalone="yes"?>
<!DOCTYPE earthquake SYSTEM "stationlist.dtd">
<stationlist created="" xmlns="ch.ethz.sed.shakemap.usgs.xml">
  <station code="GVD" name="GVD" netid="GE" insttype="STS-2/N" lat="34.8391" lon="24.0874">
    <comp name="--.HHE">
      <acc value="0.1198536440" flag="0"/>
      <vel value="0.0711397636" flag="0"/>
      <psa03 value="0.3268616571" flag="0"/>
      <psa10 value="0.0548450212" flag="0"/>
      <psa30 value="0.0095914732" flag="0"/>
    </comp>
    <comp name="--.HHZ">
      <acc value="0.0877244460" flag="0"/>
      <vel value="0.0367123959" flag="0"/>
      <psa03 value="0.1526136248" flag="0"/>
      <psa10 value="0.0316214226" flag="0"/>
      <psa30 value="0.0062870490" flag="0"/>
    </comp>
    <comp name="--.HHN">
      <acc value="0.1594662371" flag="0"/>
      <vel value="0.0872559084" flag="0"/>
      <psa03 value="0.4584007647" flag="0"/>
      <psa10 value="0.0597588670" flag="0"/>
      <psa30 value="0.0300960918" flag="0"/>
    </comp>
  </station>
  <station code="IMMV" name="IMMV" netid="GE" insttype="STS-2/N" lat="35.4606" lon="23.9811">
    <comp name="--.HHE">
      <acc value="0.2416516094" flag="0"/>
      <vel value="0.1529782851" flag="0"/>
      <psa03 value="0.6815777431" flag="0"/>
      <psa10 value="0.2785521293" flag="0"/>
      <psa30 value="0.0235570355" flag="0"/>
    </comp>
    <comp name="--.HHZ">
      <acc value="0.3022620395" flag="0"/>
      <vel value="0.1436395240" flag="0"/>
      <psa03 value="0.6706120101" flag="0"/>
      <psa10 value="0.1025022216" flag="0"/>
      <psa30 value="0.0164718082" flag="0"/>
    </comp>
    <comp name="--.HHN">
      <acc value="0.2276891295" flag="0"/>
      <vel value="0.1361363414" flag="0"/>
      <psa03 value="0.7666499587" flag="0"/>
      <psa10 value="0.2137099132" flag="0"/>
      <psa30 value="0.0211793748" flag="0"/>
    </comp>
  </station>
  <station code="ZKR" name="ZKR" netid="GE" insttype="STS-2/N" lat="35.1147" lon="26.2169">
    <comp name="--.HHN">
      <acc value="0.0701652763" flag="0"/>
      <vel value="0.0483650359" flag="0"/>
      <psa03 value="0.2789018946" flag="0"/>
      <psa10 value="0.0843833559" flag="0"/>
      <psa30 value="0.0222330125" flag="0"/>
    </comp>
    <comp name="--.HHE">
      <acc value="0.2166810525" flag="0"/>
      <vel value="0.1117550378" flag="0"/>
      <psa03 value="0.4404867437" flag="0"/>
      <psa10 value="0.1433813709" flag="0"/>
      <psa30 value="0.0216488930" flag="0"/>
    </comp>
    <comp name="--.HHZ">
      <acc value="0.0811041494" flag="0"/>
      <vel value="0.0595236604" flag="0"/>
      <psa03 value="0.1540637423" flag="0"/>
      <psa10 value="0.0805565772" flag="0"/>
      <psa30 value="0.0142208882" flag="0"/>
    </comp>
  </station>
  <station code="SNT1" name="SNT1" netid="HA" insttype="30" lat="36.4159" lon="25.4282">
    <comp name="--.HHE">
      <acc value="0.1231666718" flag="0"/>
      <vel value="0.1547132058" flag="0"/>
      <psa03 value="0.3240339215" flag="0"/>
      <psa10 value="0.2222932716" flag="0"/>
      <psa30 value="0.0621649472" flag="0"/>
    </comp>
    <comp name="--.HHN">
      <acc value="0.1239672468" flag="0"/>
      <vel value="0.1249689298" flag="0"/>
      <psa03 value="0.2952414224" flag="0"/>
      <psa10 value="0.1238632928" flag="0"/>
      <psa30 value="0.0243624398" flag="0"/>
    </comp>
    <comp name="--.HHZ">
      <acc value="0.1228522123" flag="0"/>
      <vel value="0.0993600269" flag="0"/>
      <psa03 value="0.2945318875" flag="0"/>
      <psa10 value="0.0908812694" flag="0"/>
      <psa30 value="0.0134600318" flag="0"/>
    </comp>
  </station>
  <station code="SNT5" name="SNT5" netid="HA" insttype="1s-100Hz," lat="36.4037" lon="25.3953">
    <comp name="--.HHZ">
      <acc value="0.1339257992" flag="0"/>
      <vel value="0.0701110762" flag="0"/>
      <psa03 value="0.4265781835" flag="0"/>
      <psa10 value="0.0735918031" flag="0"/>
      <psa30 value="0.0210324940" flag="0"/>
    </comp>
    <comp name="--.HHE">
      <acc value="0.6481779350" flag="0"/>
      <vel value="0.3507847916" flag="0"/>
      <psa03 value="2.4760472873" flag="0"/>
      <psa10 value="0.2307487200" flag="0"/>
      <psa30 value="0.1307003656" flag="0"/>
    </comp>
    <comp name="--.HHN">
      <acc value="0.2839195114" flag="0"/>
      <vel value="0.1847916244" flag="0"/>
      <psa03 value="1.3556137201" flag="0"/>
      <psa10 value="0.0978662457" flag="0"/>
      <psa30 value="0.0620901146" flag="0"/>
    </comp>
  </station>
  <station code="ABEA" name="ABEA" netid="HC" insttype="DC" lat="35.5163" lon="24.0113">
    <comp name="--.HNE">
      <acc value="0.2401461675" flag="0"/>
      <vel value="0.3019427444" flag="0"/>
      <psa03 value="0.5318408983" flag="0"/>
      <psa10 value="0.3241827568" flag="0"/>
      <psa30 value="0.0849234240" flag="0"/>
    </comp>
    <comp name="--.HNN">
      <acc value="0.2731678147" flag="0"/>
      <vel value="0.2085044788" flag="0"/>
      <psa03 value="0.5115503149" flag="0"/>
      <psa10 value="0.4406421551" flag="0"/>
      <psa30 value="0.0696734802" flag="0"/>
    </comp>
    <comp name="--.HNZ">
      <acc value="0.1559119296" flag="0"/>
      <vel value="0.1290277960" flag="0"/>
      <psa03 value="0.2401816676" flag="0"/>
      <psa10 value="0.2825876004" flag="0"/>
      <psa30 value="0.0380947993" flag="0"/>
    </comp>
  </station>
  <station code="ATEI" name="ATEI" netid="HC" insttype="DC" lat="35.5193" lon="24.0432">
    <comp name="--.HNN">
      <acc value="0.1648000862" flag="0"/>
      <vel value="0.1705494018" flag="0"/>
      <psa03 value="0.4290596318" flag="0"/>
      <psa10 value="0.3012338644" flag="0"/>
      <psa30 value="0.0572222304" flag="0"/>
    </comp>
    <comp name="--.HNZ">
      <acc value="0.1258280979" flag="0"/>
      <vel value="0.0978349384" flag="0"/>
      <psa03 value="0.1966463183" flag="0"/>
      <psa10 value="0.2245438559" flag="0"/>
      <psa30 value="0.0267896067" flag="0"/>
    </comp>
    <comp name="--.HNE">
      <acc value="0.1450480675" flag="0"/>
      <vel value="0.2064706257" flag="0"/>
      <psa03 value="0.4014586368" flag="0"/>
      <psa10 value="0.2629795941" flag="0"/>
      <psa30 value="0.0449334675" flag="0"/>
    </comp>
  </station>
  <station code="CHAN" name="CHAN" netid="HC" insttype="120" lat="35.5193" lon="24.0428">
    <comp name="--.HHZ">
      <acc value="0.2339100682" flag="0"/>
      <vel value="0.1874446517" flag="0"/>
      <psa03 value="0.3837861324" flag="0"/>
      <psa10 value="0.4293082609" flag="0"/>
      <psa30 value="0.0507498548" flag="0"/>
    </comp>
    <comp name="--.HHE">
      <acc value="0.3081804773" flag="0"/>
      <vel value="0.3988554866" flag="0"/>
      <psa03 value="0.8547531689" flag="0"/>
      <psa10 value="0.5429155801" flag="0"/>
      <psa30 value="0.0903337183" flag="0"/>
    </comp>
    <comp name="--.HHN">
      <acc value="0.3026599979" flag="0"/>
      <vel value="0.3170447214" flag="0"/>
      <psa03 value="0.8018028568" flag="0"/>
      <psa10 value="0.5107783075" flag="0"/>
      <psa30 value="0.1030920104" flag="0"/>
    </comp>
  </station>
  <station code="GVDS" name="GVDS" netid="HC" insttype="60" lat="34.8389" lon="24.0585">
    <comp name="--.HHN">
      <acc value="0.1226488572" flag="0"/>
      <vel value="0.0855694216" flag="0"/>
      <psa03 value="0.2326328421" flag="0"/>
      <psa10 value="0.0545744954" flag="0"/>
      <psa30 value="0.0283140696" flag="0"/>
    </comp>
    <comp name="--.HHE">
      <acc value="0.1137331112" flag="0"/>
      <vel value="0.0539008071" flag="0"/>
      <psa03 value="0.3398423802" flag="0"/>
      <psa10 value="0.0422125420" flag="0"/>
      <psa30 value="0.0108864661" flag="0"/>
    </comp>
    <comp name="--.HHZ">
      <acc value="0.0743113043" flag="0"/>
      <vel value="0.0304278186" flag="0"/>
      <psa03 value="0.0722844749" flag="0"/>
      <psa10 value="0.0399919055" flag="0"/>
      <psa30 value="0.0099226518" flag="0"/>
    </comp>
  </station>
  <station code="IMOD" name="IMOD" netid="HC" insttype="120" lat="34.9731" lon="24.7995">
    <comp name="--.HHE">
      <acc value="0.9233640247" flag="0"/>
      <vel value="0.4210261917" flag="0"/>
      <psa03 value="2.8869272746" flag="0"/>
      <psa10 value="0.2580321618" flag="0"/>
      <psa30 value="0.0526921931" flag="0"/>
    </comp>
    <comp name="--.HHN">
      <acc value="16.5160679389" flag="0"/>
      <vel value="0.7045505794" flag="0"/>
      <psa03 value="3.9113391189" flag="0"/>
      <psa10 value="0.6364943413" flag="0"/>
      <psa30 value="0.0762238091" flag="0"/>
    </comp>
    <comp name="--.HHZ">
      <acc value="0.5043109143" flag="0"/>
      <vel value="0.2503072416" flag="0"/>
      <psa03 value="0.8936796701" flag="0"/>
      <psa10 value="0.2496458463" flag="0"/>
      <psa30 value="0.0295995031" flag="0"/>
    </comp>
  </station>
  <station code="KNDR" name="KNDR" netid="HC" insttype="120" lat="35.2348" lon="23.6248">
    <comp name="--.HHZ">
      <acc value="0.0770358555" flag="0"/>
      <vel value="0.0404506855" flag="0"/>
      <psa03 value="0.1980700123" flag="0"/>
      <psa10 value="0.0538521052" flag="0"/>
      <psa30 value="0.0092488499" flag="0"/>
    </comp>
    <comp name="--.HHE">
      <acc value="0.1000037291" flag="0"/>
      <vel value="0.0891228789" flag="0"/>
      <psa03 value="0.3315338530" flag="0"/>
      <psa10 value="0.1664828560" flag="0"/>
      <psa30 value="0.0167924112" flag="0"/>
    </comp>
    <comp name="--.HHN">
      <acc value="0.1057395167" flag="0"/>
      <vel value="0.0841575673" flag="0"/>
      <psa03 value="0.2738431081" flag="0"/>
      <psa10 value="0.0915620630" flag="0"/>
      <psa30 value="0.0127762572" flag="0"/>
    </comp>
  </station>
  <station code="MULT" name="MULT" netid="HC" insttype="DC" lat="35.5091" lon="24.0118">
    <comp name="--.HNE">
      <acc value="0.0439103619" flag="0"/>
      <vel value="0.0267294894" flag="0"/>
      <psa03 value="0.0577008290" flag="0"/>
      <psa10 value="0.0454419997" flag="0"/>
      <psa30 value="0.0044725029" flag="0"/>
    </comp>
    <comp name="--.HNN">
      <acc value="0.0320156180" flag="0"/>
      <vel value="0.0214750433" flag="0"/>
      <psa03 value="0.0364932233" flag="0"/>
      <psa10 value="0.0476878519" flag="0"/>
      <psa30 value="0.0088019161" flag="0"/>
    </comp>
    <comp name="--.HNZ">
      <acc value="0.0252766693" flag="0"/>
      <vel value="0.0226911403" flag="0"/>
      <psa03 value="0.0230734273" flag="0"/>
      <psa10 value="0.0403297834" flag="0"/>
      <psa30 value="0.0046023156" flag="0"/>
    </comp>
  </station>
  <station code="NERO" name="NERO" netid="HC" insttype="DC" lat="35.474" lon="24.0423">
    <comp name="--.HNE">
      <acc value="0.1848826647" flag="0"/>
      <vel value="0.1458507354" flag="0"/>
      <psa03 value="0.6505126393" flag="0"/>
      <psa10 value="0.2021174624" flag="0"/>
      <psa30 value="0.0242891090" flag="0"/>
    </comp>
    <comp name="--.HNN">
      <acc value="0.1787873929" flag="0"/>
      <vel value="0.2015549289" flag="0"/>
      <psa03 value="0.6272215670" flag="0"/>
      <psa10 value="0.2227248691" flag="0"/>
      <psa30 value="0.0318703576" flag="0"/>
    </comp>
    <comp name="--.HNZ">
      <acc value="0.1258660992" flag="0"/>
      <vel value="0.0948989338" flag="0"/>
      <psa03 value="0.2716897099" flag="0"/>
      <psa10 value="0.1702676549" flag="0"/>
      <psa30 value="0.0238176940" flag="0"/>
    </comp>
  </station>
  <station code="PASK" name="PASK" netid="HC" insttype="DC" lat="35.4996" lon="24.0121">
    <comp name="--.HNZ">
      <acc value="0.1422899565" flag="0"/>
      <vel value="0.1418328380" flag="0"/>
      <psa03 value="0.5524355116" flag="0"/>
      <psa10 value="0.2051302086" flag="0"/>
      <psa30 value="0.0299966600" flag="0"/>
    </comp>
    <comp name="--.HNE">
      <acc value="0.2429988932" flag="0"/>
      <vel value="0.2405159168" flag="0"/>
      <psa03 value="0.5901141716" flag="0"/>
      <psa10 value="0.3159135113" flag="0"/>
      <psa30 value="0.0484759434" flag="0"/>
    </comp>
    <comp name="--.HNN">
      <acc value="0.2658837753" flag="0"/>
      <vel value="0.2665585738" flag="0"/>
      <psa03 value="0.4341860246" flag="0"/>
      <psa10 value="0.4106276462" flag="0"/>
      <psa30 value="0.0744861117" flag="0"/>
    </comp>
  </station>
  <station code="POLY" name="POLY" netid="HC" insttype="DC" lat="35.5226" lon="24.0602">
    <comp name="--.HNN">
      <acc value="0.1581970883" flag="0"/>
      <vel value="0.1857954228" flag="0"/>
      <psa03 value="0.2831410661" flag="0"/>
      <psa10 value="0.3796772412" flag="0"/>
      <psa30 value="0.0491395955" flag="0"/>
    </comp>
    <comp name="--.HNE">
      <acc value="0.1383816578" flag="0"/>
      <vel value="0.2281772136" flag="0"/>
      <psa03 value="0.2899024818" flag="0"/>
      <psa10 value="0.2687078046" flag="0"/>
      <psa30 value="0.0446291511" flag="0"/>
    </comp>
    <comp name="--.HNZ">
      <acc value="0.1028446089" flag="0"/>
      <vel value="0.1025916601" flag="0"/>
      <psa03 value="0.2172979946" flag="0"/>
      <psa10 value="0.1274675005" flag="0"/>
      <psa30 value="0.0273166227" flag="0"/>
    </comp>
  </station>
  <station code="RODP" name="RODP" netid="HC" insttype="120" lat="35.5604" lon="23.7577">
    <comp name="--.HHE">
      <acc value="0.1746673356" flag="0"/>
      <vel value="0.1592889326" flag="0"/>
      <psa03 value="0.4578512133" flag="0"/>
      <psa10 value="0.1564984809" flag="0"/>
      <psa30 value="0.0331664454" flag="0"/>
    </comp>
    <comp name="--.HHZ">
      <acc value="0.0886646555" flag="0"/>
      <vel value="0.0837463405" flag="0"/>
      <psa03 value="0.2744943336" flag="0"/>
      <psa10 value="0.1050662227" flag="0"/>
      <psa30 value="0.0240976465" flag="0"/>
    </comp>
    <comp name="--.HHN">
      <acc value="0.1385115909" flag="0"/>
      <vel value="0.0959108414" flag="0"/>
      <psa03 value="0.4545395108" flag="0"/>
      <psa10 value="0.1155944708" flag="0"/>
      <psa30 value="0.0252160331" flag="0"/>
    </comp>
  </station>
  <station code="STIA" name="STIA" netid="HC" insttype="120" lat="35.2021" lon="26.0909">
    <comp name="--.HHN">
      <acc value="0.2673133686" flag="0"/>
      <vel value="0.1810153077" flag="0"/>
      <psa03 value="0.8153353286" flag="0"/>
      <psa10 value="0.1589611074" flag="0"/>
      <psa30 value="0.0270730356" flag="0"/>
    </comp>
    <comp name="--.HHE">
      <acc value="0.2613829352" flag="0"/>
      <vel value="0.1442443493" flag="0"/>
      <psa03 value="0.5871230747" flag="0"/>
      <psa10 value="0.1993040984" flag="0"/>
      <psa30 value="0.0262521651" flag="0"/>
    </comp>
    <comp name="--.HHZ">
      <acc value="0.1932722456" flag="0"/>
      <vel value="0.1120373506" flag="0"/>
      <psa03 value="0.4724938578" flag="0"/>
      <psa10 value="0.0848266754" flag="0"/>
      <psa30 value="0.0371516227" flag="0"/>
    </comp>
  </station>
  <station code="CH01" name="CH01" netid="HI" insttype="CMG-5TD,ACCELEROMETER,GURALP" lat="35.517" lon="24.0208">
    <comp name="--.HNE">
      <acc value="0.2701660741" flag="0"/>
      <vel value="0.2981773699" flag="0"/>
      <psa03 value="0.4474691558" flag="0"/>
      <psa10 value="0.2398507027" flag="0"/>
      <psa30 value="0.0692873560" flag="0"/>
    </comp>
    <comp name="--.HNN">
      <acc value="0.2222316686" flag="0"/>
      <vel value="0.2284049657" flag="0"/>
      <psa03 value="0.4116569806" flag="0"/>
      <psa10 value="0.3965758792" flag="0"/>
      <psa30 value="0.0765859511" flag="0"/>
    </comp>
    <comp name="--.HNZ">
      <acc value="0.1104759325" flag="0"/>
      <vel value="0.1498638950" flag="0"/>
      <psa03 value="0.1871380691" flag="0"/>
      <psa10 value="0.2477062183" flag="0"/>
      <psa30 value="0.0378837250" flag="0"/>
    </comp>
  </station>
  <station code="SIT2" name="SIT2" netid="HI" insttype="CMG-5TD,ACCELEROMETER,GURALP" lat="35.2059" lon="26.107">
    <comp name="--.HNE">
      <acc value="0.4513622218" flag="0"/>
      <vel value="0.3397361639" flag="0"/>
      <psa03 value="1.4514196210" flag="0"/>
      <psa10 value="0.2815284875" flag="0"/>
      <psa30 value="0.0329592276" flag="0"/>
    </comp>
    <comp name="--.HNN">
      <acc value="0.4920232035" flag="0"/>
      <vel value="0.3763370245" flag="0"/>
      <psa03 value="1.6774490974" flag="0"/>
      <psa10 value="0.2791831672" flag="0"/>
      <psa30 value="0.0349591665" flag="0"/>
    </comp>
    <comp name="--.HNZ">
      <acc value="0.3837172208" flag="0"/>
      <vel value="0.1698885341" flag="0"/>
      <psa03 value="0.7840603855" flag="0"/>
      <psa10 value="0.1147265580" flag="0"/>
      <psa30 value="0.0324187057" flag="0"/>
    </comp>
  </station>
  <station code="GVD" name="GVD" netid="HL" insttype="120" lat="34.8391" lon="24.0874">
    <comp name="--.HHN">
      <acc value="0.1555936435" flag="0"/>
      <vel value="0.0857604377" flag="0"/>
      <psa03 value="0.4462969542" flag="0"/>
      <psa10 value="0.0592616700" flag="0"/>
      <psa30 value="0.0301001621" flag="0"/>
    </comp>
    <comp name="--.HHE">
      <acc value="0.1178710044" flag="0"/>
      <vel value="0.0693093729" flag="0"/>
      <psa03 value="0.3183815804" flag="0"/>
      <psa10 value="0.0544489334" flag="0"/>
      <psa30 value="0.0095743900" flag="0"/>
    </comp>
    <comp name="--.HHZ">
      <acc value="0.0845349848" flag="0"/>
      <vel value="0.0361885406" flag="0"/>
      <psa03 value="0.1484356171" flag="0"/>
      <psa10 value="0.0313797029" flag="0"/>
      <psa30 value="0.0062871599" flag="0"/>
    </comp>
  </station>
  <station code="IACM" name="IACM" netid="HL" insttype="CMG5T" lat="35.3058" lon="25.0709">
    <comp name="--.HNE">
      <acc value="6.1674789158" flag="0"/>
      <vel value="3.3307511968" flag="0"/>
      <psa03 value="12.8840959201" flag="0"/>
      <psa10 value="5.3135755158" flag="0"/>
      <psa30 value="0.2530288828" flag="0"/>
    </comp>
    <comp name="--.HNN">
      <acc value="5.0264221063" flag="0"/>
      <vel value="2.7588037107" flag="0"/>
      <psa03 value="13.9826146998" flag="0"/>
      <psa10 value="3.1547032318" flag="0"/>
      <psa30 value="0.3064716570" flag="0"/>
    </comp>
    <comp name="--.HNZ">
      <acc value="4.2546608583" flag="0"/>
      <vel value="1.4887629549" flag="0"/>
      <psa03 value="7.6080966301" flag="0"/>
      <psa10 value="1.7442961533" flag="0"/>
      <psa30 value="0.1342504909" flag="0"/>
    </comp>
  </station>
  <station code="IMMV" name="IMMV" netid="HL" insttype="120" lat="35.4606" lon="23.9811">
    <comp name="--.HHE">
      <acc value="0.2354599550" flag="0"/>
      <vel value="0.1498490858" flag="0"/>
      <psa03 value="0.6620314551" flag="0"/>
      <psa10 value="0.2769791848" flag="0"/>
      <psa30 value="0.0235656467" flag="0"/>
    </comp>
    <comp name="--.HHN">
      <acc value="0.2234554387" flag="0"/>
      <vel value="0.1331697468" flag="0"/>
      <psa03 value="0.7466979860" flag="0"/>
      <psa10 value="0.2123066711" flag="0"/>
      <psa30 value="0.0211570416" flag="0"/>
    </comp>
    <comp name="--.HHZ">
      <acc value="0.2956660085" flag="0"/>
      <vel value="0.1395376472" flag="0"/>
      <psa03 value="0.6517751965" flag="0"/>
      <psa10 value="0.1019184489" flag="0"/>
      <psa30 value="0.0164877462" flag="0"/>
    </comp>
  </station>
  <station code="NPS" name="NPS" netid="HL" insttype="CMG3ESPC-120s" lat="35.2613" lon="25.6104">
    <comp name="--.HHN">
      <acc value="0.6878720679" flag="0"/>
      <vel value="0.7130792738" flag="0"/>
      <psa03 value="1.1513427631" flag="0"/>
      <psa10 value="0.9676389431" flag="0"/>
      <psa30 value="0.0904918156" flag="0"/>
    </comp>
    <comp name="--.HHE">
      <acc value="0.5869663342" flag="0"/>
      <vel value="0.3479354779" flag="0"/>
