<?xml version="1.0" encoding="UTF-8" standalone="yes"?>
<!DOCTYPE earthquake SYSTEM "stationlist.dtd">
<stationlist created="" xmlns="ch.ethz.sed.shakemap.usgs.xml">
  <station code="ZKR" name="ZKR" netid="GE" insttype="STS-2/N" commtype="DIG" lat="35.1147" lon="26.2169">
    <comp name="--.HHN">
      <acc value="0.0374568727" flag="0"/>
      <vel value="0.0141394919" flag="0"/>
      <psa03 value="0.0793737460" flag="0"/>
      <psa10 value="0.0062870617" flag="0"/>
      <psa30 value="0.0010777022" flag="0"/>
    </comp>
    <comp name="--.HHZ">
      <acc value="0.0597179841" flag="0"/>
      <vel value="0.0126247509" flag="0"/>
      <psa03 value="0.0412556636" flag="0"/>
      <psa10 value="0.0255312532" flag="0"/>
      <psa30 value="0.0030567046" flag="0"/>
    </comp>
    <comp name="--.HHE">
      <acc value="0.0459669986" flag="0"/>
      <vel value="0.0274201654" flag="0"/>
      <psa03 value="0.0589017001" flag="0"/>
      <psa10 value="0.0325548925" flag="0"/>
      <psa30 value="0.0042181093" flag="0"/>
    </comp>
  </station>
  <station code="IMOD" name="IMOD" netid="HC" insttype="120" commtype="DIG" lat="34.9731" lon="24.7995">
    <comp name="--.HHZ">
      <acc value="0.0090821237" flag="0"/>
      <vel value="0.0061651894" flag="0"/>
      <psa03 value="0.0208147001" flag="0"/>
      <psa10 value="0.0071061829" flag="0"/>
      <psa30 value="0.0003349000" flag="0"/>
    </comp>
    <comp name="--.HHE">
      <acc value="0.0116317921" flag="0"/>
      <vel value="0.0089736401" flag="0"/>
      <psa03 value="0.0318510480" flag="0"/>
      <psa10 value="0.0114385166" flag="0"/>
      <psa30 value="0.0005864391" flag="0"/>
    </comp>
    <comp name="--.HHN">
      <acc value="0.0180191497" flag="0"/>
      <vel value="0.0098262625" flag="0"/>
      <psa03 value="0.0592888235" flag="0"/>
      <psa10 value="0.0098812246" flag="0"/>
      <psa30 value="0.0005593607" flag="0"/>
    </comp>
  </station>
  <station code="KNSS" name="KNSS" netid="HC" insttype="60" commtype="DIG" lat="35.3042" lon="25.1802">
    <comp name="--.HHE">
      <acc value="0.0000000000" flag="0"/>
      <vel value="-100.0000000000" flag="0"/>
      <psa03 value="0.0000000000" flag="0"/>
      <psa10 value="0.0000000000" flag="0"/>
      <psa30 value="0.0000000000" flag="0"/>
    </comp>
    <comp name="--.HHZ">
      <acc value="0.0125344179" flag="0"/>
      <vel value="0.0064198487" flag="0"/>
      <psa03 value="0.0347562376" flag="0"/>
      <psa10 value="0.0053108744" flag="0"/>
      <psa30 value="0.0012049369" flag="0"/>
    </comp>
    <comp name="--.HHN">
      <acc value="0.0247152878" flag="0"/>
      <vel value="0.0095903408" flag="0"/>
      <psa03 value="0.0595774114" flag="0"/>
      <psa10 value="0.0103323665" flag="0"/>
      <psa30 value="0.0012038853" flag="0"/>
    </comp>
  </station>
  <station code="PFKS" name="PFKS" netid="HC" insttype="120" commtype="DIG" lat="35.0429" lon="25.4733">
    <comp name="--.HHN">
      <acc value="0.1080503618" flag="0"/>
      <vel value="0.0375225858" flag="0"/>
      <psa03 value="0.2302606848" flag="0"/>
      <psa10 value="0.0255567965" flag="0"/>
      <psa30 value="0.0015832279" flag="0"/>
    </comp>
    <comp name="--.HHZ">
      <acc value="0.0820915223" flag="0"/>
      <vel value="0.0204674445" flag="0"/>
      <psa03 value="0.1019856425" flag="0"/>
      <psa10 value="0.0143908531" flag="0"/>
      <psa30 value="0.0026986953" flag="0"/>
    </comp>
    <comp name="--.HHE">
      <acc value="0.1138046793" flag="0"/>
      <vel value="0.0443524695" flag="0"/>
      <psa03 value="0.3064938666" flag="0"/>
      <psa10 value="0.0153928505" flag="0"/>
      <psa30 value="0.0020175736" flag="0"/>
    </comp>
  </station>
  <station code="STIA" name="STIA" netid="HC" insttype="120" commtype="DIG" lat="35.2021" lon="26.0909">
    <comp name="--.HHZ">
      <acc value="0.1742516088" flag="0"/>
      <vel value="0.0359626398" flag="0"/>
      <psa03 value="0.1250399462" flag="0"/>
      <psa10 value="0.0206634704" flag="0"/>
      <psa30 value="0.0015253361" flag="0"/>
    </comp>
    <comp name="--.HHN">
      <acc value="0.2294508139" flag="0"/>
      <vel value="0.0519817193" flag="0"/>
      <psa03 value="0.1492465183" flag="0"/>
      <psa10 value="0.0288426889" flag="0"/>
      <psa30 value="0.0015103336" flag="0"/>
    </comp>
    <comp name="--.HHE">
      <acc value="0.1040745277" flag="0"/>
      <vel value="0.0429705956" flag="0"/>
      <psa03 value="0.2019154742" flag="0"/>
      <psa10 value="0.0361464137" flag="0"/>
      <psa30 value="0.0022773307" flag="0"/>
    </comp>
  </station>
  <station code="TEFL" name="TEFL" netid="HC" insttype="GEOtiny," commtype="DIG" lat="35.0933" lon="25.1634">
    <comp name="--.HHE">
      <acc value="0.0118962608" flag="0"/>
      <vel value="0.0021483203" flag="0"/>
      <psa03 value="0.0113387953" flag="0"/>
      <psa10 value="0.0003530214" flag="0"/>
      <psa30 value="0.0000376686" flag="0"/>
    </comp>
    <comp name="--.HHN">
      <acc value="0.0073275839" flag="0"/>
      <vel value="0.0012080772" flag="0"/>
      <psa03 value="0.0079182580" flag="0"/>
      <psa10 value="0.0003256285" flag="0"/>
      <psa30 value="0.0000217390" flag="0"/>
    </comp>
    <comp name="--.HHZ">
      <acc value="0.0024612476" flag="0"/>
      <vel value="0.0005897058" flag="0"/>
      <psa03 value="0.0024718973" flag="0"/>
      <psa10 value="0.0001776225" flag="0"/>
      <psa30 value="0.0000160547" flag="0"/>
    </comp>
  </station>
  <station code="AGN1" name="AGN1" netid="HI" insttype="unknown" commtype="DIG" lat="35.1879" lon="25.7155">
    <comp name="--.HNN">
      <acc value="0.1283620095" flag="0"/>
      <vel value="0.0340756786" flag="0"/>
      <psa03 value="0.2361143982" flag="0"/>
      <psa10 value="0.0169628598" flag="0"/>
      <psa30 value="0.0021546173" flag="0"/>
    </comp>
    <comp name="--.HNE">
      <acc value="0.0005935947" flag="0"/>
      <vel value="0.0006861934" flag="0"/>
      <psa03 value="0.0011167492" flag="0"/>
      <psa10 value="0.0008085066" flag="0"/>
      <psa30 value="0.0003301355" flag="0"/>
    </comp>
    <comp name="--.HNZ">
      <acc value="0.0740386134" flag="0"/>
      <vel value="0.0210523095" flag="0"/>
      <psa03 value="0.0935475486" flag="0"/>
      <psa10 value="0.0078645709" flag="0"/>
      <psa30 value="0.0022007649" flag="0"/>
    </comp>
  </station>
  <station code="ARK1" name="ARK1" netid="HI" insttype="unknown" commtype="DIG" lat="35.1488" lon="25.2642">
    <comp name="--.HNZ">
      <acc value="0.0358144852" flag="0"/>
      <vel value="0.0148458416" flag="0"/>
      <psa03 value="0.0571842171" flag="0"/>
      <psa10 value="0.0153449931" flag="0"/>
      <psa30 value="0.0016208482" flag="0"/>
    </comp>
    <comp name="--.HNN">
      <acc value="0.0565398710" flag="0"/>
      <vel value="0.0255434401" flag="0"/>
      <psa03 value="0.1026666108" flag="0"/>
      <psa10 value="0.0223348873" flag="0"/>
      <psa30 value="0.0021532678" flag="0"/>
    </comp>
    <comp name="--.HNE">
      <acc value="0.0410185762" flag="0"/>
      <vel value="0.0223787120" flag="0"/>
      <psa03 value="0.0794494296" flag="0"/>
      <psa10 value="0.0245952706" flag="0"/>
      <psa30 value="0.0029506383" flag="0"/>
    </comp>
  </station>
  <station code="GOR1" name="GOR1" netid="HI" insttype="unknown" commtype="DIG" lat="35.0582" lon="24.9628">
    <comp name="--.HNN">
      <acc value="0.0233242568" flag="0"/>
      <vel value="0.0127289599" flag="0"/>
      <psa03 value="0.0857138148" flag="0"/>
      <psa10 value="0.0162590625" flag="0"/>
      <psa30 value="0.0020510499" flag="0"/>
    </comp>
    <comp name="--.HNZ">
      <acc value="0.0180393067" flag="0"/>
      <vel value="0.0123534922" flag="0"/>
      <psa03 value="0.0520624077" flag="0"/>
      <psa10 value="0.0113770648" flag="0"/>
      <psa30 value="0.0012574848" flag="0"/>
    </comp>
    <comp name="--.HNE">
      <acc value="0.0312681914" flag="0"/>
      <vel value="0.0164197867" flag="0"/>
      <psa03 value="0.1032420748" flag="0"/>
      <psa10 value="0.0157132883" flag="0"/>
      <psa30 value="0.0017368571" flag="0"/>
    </comp>
  </station>
  <station code="SIT2" name="SIT2" netid="HI" insttype="CMG-5TD,ACCELEROMETER,GURALP" commtype="DIG" lat="35.2059" lon="26.107">
    <comp name="--.HNE">
      <acc value="0.1301492881" flag="0"/>
      <vel value="0.0845221542" flag="0"/>
      <psa03 value="0.4275026732" flag="0"/>
      <psa10 value="0.0762053261" flag="0"/>
      <psa30 value="0.0032408429" flag="0"/>
    </comp>
    <comp name="--.HNZ">
      <acc value="0.1435793919" flag="0"/>
      <vel value="0.0462809542" flag="0"/>
      <psa03 value="0.2034650890" flag="0"/>
      <psa10 value="0.0220430110" flag="0"/>
      <psa30 value="0.0015771818" flag="0"/>
    </comp>
    <comp name="--.HNN">
      <acc value="0.1322819311" flag="0"/>
      <vel value="0.0776067977" flag="0"/>
      <psa03 value="0.3850913538" flag="0"/>
      <psa10 value="0.0625050296" flag="0"/>
      <psa30 value="0.0041377994" flag="0"/>
    </comp>
  </station>
  <station code="IACM" name="IACM" netid="HL" insttype="120" commtype="DIG" lat="35.3058" lon="25.0709">
    <comp name="--.HHE">
      <acc value="0.0711652635" flag="0"/>
      <vel value="0.0361927769" flag="0"/>
      <psa03 value="0.1829616462" flag="0"/>
      <psa10 value="0.0651716851" flag="0"/>
      <psa30 value="0.0033288954" flag="0"/>
    </comp>
    <comp name="--.HHZ">
      <acc value="0.0339622088" flag="0"/>
      <vel value="0.0154442125" flag="0"/>
      <psa03 value="0.0889281034" flag="0"/>
      <psa10 value="0.0165491580" flag="0"/>
      <psa30 value="0.0009729047" flag="0"/>
    </comp>
    <comp name="--.HHN">
      <acc value="0.0440726655" flag="0"/>
      <vel value="0.0318523085" flag="0"/>
      <psa03 value="0.1649778529" flag="0"/>
      <psa10 value="0.0642208007" flag="0"/>
      <psa30 value="0.0038385178" flag="0"/>
    </comp>
  </station>
  <station code="IDI" name="IDI" netid="HL" insttype="120" commtype="DIG" lat="35.288" lon="24.89">
    <comp name="--.HHE">
      <acc value="0.0078827997" flag="0"/>
      <vel value="0.0041126399" flag="0"/>
      <psa03 value="0.0198955378" flag="0"/>
      <psa10 value="0.0063422669" flag="0"/>
      <psa30 value="0.0005360585" flag="0"/>
    </comp>
    <comp name="--.HHN">
      <acc value="0.0083838266" flag="0"/>
      <vel value="0.0040191778" flag="0"/>
      <psa03 value="0.0220504923" flag="0"/>
      <psa10 value="0.0049150620" flag="0"/>
      <psa30 value="0.0003633874" flag="0"/>
    </comp>
    <comp name="--.HHZ">
      <acc value="0.0075371496" flag="0"/>
      <vel value="0.0032655669" flag="0"/>
      <psa03 value="0.0192625427" flag="0"/>
      <psa10 value="0.0032795279" flag="0"/>
      <psa30 value="0.0006845387" flag="0"/>
    </comp>
  </station>
  <station code="SIVA" name="SIVA" netid="HL" insttype="60" commtype="DIG" lat="35.0178" lon="24.812">
    <comp name="--.HHZ">
      <acc value="0.0125155828" flag="0"/>
      <vel value="0.0064173207" flag="0"/>
      <psa03 value="0.0498762455" flag="0"/>
      <psa10 value="0.0065616026" flag="0"/>
      <psa30 value="0.0003858870" flag="0"/>
    </comp>
    <comp name="--.HHE">
      <acc value="0.0305922633" flag="0"/>
      <vel value="0.0156727675" flag="0"/>
      <psa03 value="0.1073837025" flag="0"/>
      <psa10 value="0.0139025591" flag="0"/>
      <psa30 value="0.0007460244" flag="0"/>
    </comp>
    <comp name="--.HHN">
      <acc value="0.0224836955" flag="0"/>
      <vel value="0.0125628731" flag="0"/>
      <psa03 value="0.0681758571" flag="0"/>
      <psa10 value="0.0110535727" flag="0"/>
      <psa30 value="0.0006104868" flag="0"/>
    </comp>
  </station>
  <station code="IDI" name="IDI" netid="MN" insttype="" commtype="DIG" lat="35.288" lon="24.89">
    <comp name="--.HHE">
      <acc value="0.0073037062" flag="0"/>
      <vel value="0.0037367181" flag="0"/>
      <psa03 value="0.0180900650" flag="0"/>
      <psa10 value="0.0056482191" flag="0"/>
      <psa30 value="0.0004756175" flag="0"/>
    </comp>
    <comp name="--.HHZ">
      <acc value="0.0068105154" flag="0"/>
      <vel value="0.0029609819" flag="0"/>
      <psa03 value="0.0176182193" flag="0"/>
      <psa10 value="0.0029225734" flag="0"/>
      <psa30 value="0.0006075126" flag="0"/>
    </comp>
    <comp name="--.HHN">
      <acc value="0.0077344298" flag="0"/>
      <vel value="0.0036250542" flag="0"/>
      <psa03 value="0.0201666434" flag="0"/>
      <psa10 value="0.0043860544" flag="0"/>
      <psa30 value="0.0003225218" flag="0"/>
    </comp>
  </station>
</stationlist>
