<?xml version="1.0" encoding="UTF-8" standalone="yes"?>
<!DOCTYPE earthquake SYSTEM "stationlist.dtd">
<stationlist created="" xmlns="ch.ethz.sed.shakemap.usgs.xml">
  <station code="KLV" name="KLV" netid="MN" insttype="" lat="38.0437" lon="22.1504">
    <comp name="--.HHE">
      <acc value="0.0028441550" flag="0"/>
      <vel value="0.0028897859" flag="0"/>
      <psa03 value="0.0088457706" flag="0"/>
      <psa10 value="0.0036866463" flag="0"/>
      <psa30 value="0.0004421311" flag="0"/>
    </comp>
    <comp name="--.HHN">
      <acc value="0.0037506081" flag="0"/>
      <vel value="0.0037070230" flag="0"/>
      <psa03 value="0.0133981146" flag="0"/>
      <psa10 value="0.0071170520" flag="0"/>
      <psa30 value="0.0007074545" flag="0"/>
    </comp>
    <comp name="--.HHZ">
      <acc value="0.0033963433" flag="0"/>
      <vel value="0.0030599133" flag="0"/>
      <psa03 value="0.0073229782" flag="0"/>
      <psa10 value="0.0039192711" flag="0"/>
      <psa30 value="0.0006739511" flag="0"/>
    </comp>
  </station>
</stationlist>
