<?xml version="1.0" encoding="UTF-8" standalone="yes"?>
<!DOCTYPE earthquake SYSTEM "stationlist.dtd">
<stationlist created="" xmlns="ch.ethz.sed.shakemap.usgs.xml">
  <station code="AKS" name="AKS" netid="KO" insttype="CMG-5T" commtype="DIG" lat="38.8785" lon="27.8129">
    <comp name="--.HNZ">
      <acc value="0.0124772064" flag="0"/>
      <vel value="0.0032818791" flag="0"/>
      <psa03 value="0.0160452871" flag="0"/>
      <psa10 value="0.0029855680" flag="0"/>
      <psa30 value="0.0005176832" flag="0"/>
    </comp>
    <comp name="--.HNE">
      <acc value="0.0158895970" flag="0"/>
      <vel value="0.0069092059" flag="0"/>
      <psa03 value="0.0345061728" flag="0"/>
      <psa10 value="0.0089294735" flag="0"/>
      <psa30 value="0.0007093664" flag="0"/>
    </comp>
  </station>
  <station code="BALB" name="BALB" netid="KO" insttype="CMG-5T" commtype="DIG" lat="39.6507" lon="27.8642">
    <comp name="--.HNN">
      <acc value="0.0157319704" flag="0"/>
      <vel value="0.0082219736" flag="0"/>
      <psa03 value="0.0292035640" flag="0"/>
      <psa10 value="0.0079177882" flag="0"/>
      <psa30 value="0.0010507702" flag="0"/>
    </comp>
    <comp name="--.HNE">
      <acc value="0.0162777455" flag="0"/>
      <vel value="0.0059331433" flag="0"/>
      <psa03 value="0.0184914789" flag="0"/>
      <psa10 value="0.0039289073" flag="0"/>
      <psa30 value="0.0003923829" flag="0"/>
    </comp>
    <comp name="--.HNZ">
      <acc value="0.0090631059" flag="0"/>
      <vel value="0.0026233611" flag="0"/>
      <psa03 value="0.0127253093" flag="0"/>
      <psa10 value="0.0029056597" flag="0"/>
      <psa30 value="0.0002659739" flag="0"/>
    </comp>
  </station>
  <station code="GORD" name="GORD" netid="KO" insttype="CMG-5T" commtype="DIG" lat="38.9088" lon="28.1769">
    <comp name="--.HNZ">
      <acc value="0.0149180485" flag="0"/>
      <vel value="0.0099149019" flag="0"/>
      <psa03 value="0.0199536510" flag="0"/>
      <psa10 value="0.0083163918" flag="0"/>
      <psa30 value="0.0006169487" flag="0"/>
    </comp>
    <comp name="--.HNE">
      <acc value="0.0198583467" flag="0"/>
      <vel value="0.0147289068" flag="0"/>
      <psa03 value="0.0285314145" flag="0"/>
      <psa10 value="0.0217561399" flag="0"/>
      <psa30 value="0.0009973162" flag="0"/>
    </comp>
    <comp name="--.HNN">
      <acc value="0.0196901313" flag="0"/>
      <vel value="0.0135686420" flag="0"/>
      <psa03 value="0.0277615669" flag="0"/>
      <psa10 value="0.0220806215" flag="0"/>
      <psa30 value="0.0014399502" flag="0"/>
    </comp>
  </station>
  <station code="KULA" name="KULA" netid="KO" insttype="CMG-3T" commtype="DIG" lat="38.5145" lon="28.6607">
    <comp name="--.HHN">
      <acc value="0.0234724618" flag="0"/>
      <vel value="0.0056961266" flag="0"/>
      <psa03 value="0.0358092234" flag="0"/>
      <psa10 value="0.0052903861" flag="0"/>
      <psa30 value="0.0003326066" flag="0"/>
    </comp>
  </station>
  <station code="ORLT" name="ORLT" netid="KO" insttype="CMG-5T" commtype="DIG" lat="40.0452" lon="28.8914">
    <comp name="--.HNE">
      <acc value="0.0217541924" flag="0"/>
      <vel value="0.0085730957" flag="0"/>
      <psa03 value="0.0640113240" flag="0"/>
      <psa10 value="0.0076044662" flag="0"/>
      <psa30 value="0.0008559046" flag="0"/>
    </comp>
    <comp name="--.HNN">
      <acc value="0.0169045320" flag="0"/>
      <vel value="0.0078980984" flag="0"/>
      <psa03 value="0.0476055564" flag="0"/>
      <psa10 value="0.0171815845" flag="0"/>
      <psa30 value="0.0008900238" flag="0"/>
    </comp>
    <comp name="--.HNZ">
      <acc value="0.0097605363" flag="0"/>
      <vel value="0.0062592715" flag="0"/>
      <psa03 value="0.0142250993" flag="0"/>
      <psa10 value="0.0072172914" flag="0"/>
      <psa30 value="0.0004729116" flag="0"/>
    </comp>
  </station>
  <station code="SHAP" name="SHAP" netid="KO" insttype="CMG-5T" commtype="DIG" lat="39.0231" lon="29.222">
    <comp name="--.HNZ">
      <acc value="0.2582898186" flag="0"/>
      <vel value="0.0416630496" flag="0"/>
      <psa03 value="0.1942156893" flag="0"/>
      <psa10 value="0.0205335609" flag="0"/>
      <psa30 value="0.0018844976" flag="0"/>
    </comp>
    <comp name="--.HNE">
      <acc value="0.4873120904" flag="0"/>
      <vel value="0.0911450810" flag="0"/>
      <psa03 value="0.4450801859" flag="0"/>
      <psa10 value="0.0231912271" flag="0"/>
      <psa30 value="0.0026337909" flag="0"/>
    </comp>
    <comp name="--.HNN">
      <acc value="0.5548138510" flag="0"/>
      <vel value="0.1183958197" flag="0"/>
      <psa03 value="0.2490753121" flag="0"/>
      <psa10 value="0.0471097308" flag="0"/>
      <psa30 value="0.0026065644" flag="0"/>
    </comp>
  </station>
  <station code="SIMA" name="SIMA" netid="KO" insttype="CMG-6T" commtype="DIG" lat="39.0833" lon="28.9825">
    <comp name="--.HHE">
      <acc value="0.2585388264" flag="0"/>
      <vel value="0.0734326575" flag="0"/>
      <psa03 value="0.5461304694" flag="0"/>
      <psa10 value="0.0294585907" flag="0"/>
      <psa30 value="0.0028249219" flag="0"/>
    </comp>
    <comp name="--.HHN">
      <acc value="0.2222613855" flag="0"/>
      <vel value="0.0560505157" flag="0"/>
      <psa03 value="0.2974595746" flag="0"/>
      <psa10 value="0.0529267888" flag="0"/>
      <psa30 value="0.0040452839" flag="0"/>
    </comp>
    <comp name="--.HHZ">
      <acc value="0.3684417288" flag="0"/>
      <vel value="0.0744736865" flag="0"/>
      <psa03 value="0.2988664347" flag="0"/>
      <psa10 value="0.0336062743" flag="0"/>
      <psa30 value="0.0029554073" flag="0"/>
    </comp>
  </station>
  <station code="SMAA" name="SMAA" netid="KO" insttype="CMG-5T" commtype="DIG" lat="39.1005" lon="28.9805">
    <comp name="--.HNN">
      <acc value="0.4181827005" flag="0"/>
      <vel value="0.2226925260" flag="0"/>
      <psa03 value="0.9373673454" flag="0"/>
      <psa10 value="0.4291968831" flag="0"/>
      <psa30 value="0.0221381491" flag="0"/>
    </comp>
    <comp name="--.HNZ">
      <acc value="0.8210539571" flag="0"/>
      <vel value="0.1617985115" flag="0"/>
      <psa03 value="0.5265880723" flag="0"/>
      <psa10 value="0.3174729507" flag="0"/>
      <psa30 value="0.0084138772" flag="0"/>
    </comp>
    <comp name="--.HNE">
      <acc value="0.4532150333" flag="0"/>
      <vel value="0.2242390749" flag="0"/>
      <psa03 value="0.9656494867" flag="0"/>
      <psa10 value="0.3129924984" flag="0"/>
      <psa30 value="0.0167864047" flag="0"/>
    </comp>
  </station>
  <station code="SUSR" name="SUSR" netid="KO" insttype="CMG-5T" commtype="DIG" lat="39.9627" lon="28.0835">
    <comp name="--.HNN">
      <acc value="0.0297455742" flag="0"/>
      <vel value="0.0112348595" flag="0"/>
      <psa03 value="0.0823313541" flag="0"/>
      <psa10 value="0.0071517767" flag="0"/>
      <psa30 value="0.0007850048" flag="0"/>
    </comp>
    <comp name="--.HNE">
      <acc value="0.0238782012" flag="0"/>
      <vel value="0.0076846474" flag="0"/>
      <psa03 value="0.0336153584" flag="0"/>
      <psa10 value="0.0036705824" flag="0"/>
      <psa30 value="0.0003675549" flag="0"/>
    </comp>
    <comp name="--.HNZ">
      <acc value="0.0196573380" flag="0"/>
      <vel value="0.0056332502" flag="0"/>
      <psa03 value="0.0197814406" flag="0"/>
      <psa10 value="0.0033261703" flag="0"/>
      <psa30 value="0.0002502038" flag="0"/>
    </comp>
  </station>
  <station code="TVSB" name="TVSB" netid="KO" insttype="CMG-3T" commtype="DIG" lat="39.4497" lon="29.4615">
    <comp name="--.HHE">
      <acc value="0.1555341570" flag="0"/>
      <vel value="0.0337894927" flag="0"/>
      <psa03 value="0.0798935669" flag="0"/>
      <psa10 value="0.0141096457" flag="0"/>
      <psa30 value="0.0012255818" flag="0"/>
    </comp>
    <comp name="--.HHN">
      <acc value="0.2255228310" flag="0"/>
      <vel value="0.0498709734" flag="0"/>
      <psa03 value="0.0987014027" flag="0"/>
      <psa10 value="0.0215380561" flag="0"/>
      <psa30 value="0.0015091729" flag="0"/>
    </comp>
    <comp name="--.HHZ">
      <acc value="0.0976373323" flag="0"/>
      <vel value="0.0237312382" flag="0"/>
      <psa03 value="0.0454898468" flag="0"/>
      <psa10 value="0.0245499121" flag="0"/>
      <psa30 value="0.0013357400" flag="0"/>
    </comp>
  </station>
</stationlist>
