<?xml version="1.0" encoding="UTF-8" standalone="yes"?>
<!DOCTYPE earthquake SYSTEM "stationlist.dtd">
<stationlist created="" xmlns="ch.ethz.sed.shakemap.usgs.xml">
  <station code="DARE" name="DARE" netid="KO" insttype="CMG-3ESP" lat="38.5712" lon="37.4832">
    <comp name="--.HHN">
      <acc value="0.0078051258" flag="0"/>
      <vel value="0.0025709114" flag="0"/>
      <psa03 value="0.0146038340" flag="0"/>
      <psa10 value="0.0021907977" flag="0"/>
      <psa30 value="0.0001626608" flag="0"/>
    </comp>
    <comp name="--.HHZ">
      <acc value="0.0060584814" flag="0"/>
      <vel value="0.0022468880" flag="0"/>
      <psa03 value="0.0086543224" flag="0"/>
      <psa10 value="0.0016816080" flag="0"/>
      <psa30 value="0.0001265602" flag="0"/>
    </comp>
    <comp name="--.HHE">
      <acc value="0.0084497191" flag="0"/>
      <vel value="0.0023232903" flag="0"/>
      <psa03 value="0.0125785554" flag="0"/>
      <psa10 value="0.0019678142" flag="0"/>
      <psa30 value="0.0001310174" flag="0"/>
    </comp>
  </station>
  <station code="GAZ" name="GAZ" netid="KO" insttype="CMG-3T" lat="37.1721" lon="37.2096">
    <comp name="--.HHN">
      <acc value="0.0150762820" flag="0"/>
      <vel value="0.0057361036" flag="0"/>
      <psa03 value="0.0358883575" flag="0"/>
      <psa10 value="0.0056318311" flag="0"/>
      <psa30 value="0.0005051676" flag="0"/>
    </comp>
    <comp name="--.HHE">
      <acc value="0.0175706541" flag="0"/>
      <vel value="0.0066571427" flag="0"/>
      <psa03 value="0.0403973087" flag="0"/>
      <psa10 value="0.0057315005" flag="0"/>
      <psa30 value="0.0002541896" flag="0"/>
    </comp>
    <comp name="--.HHZ">
      <acc value="0.0105120188" flag="0"/>
      <vel value="0.0049158085" flag="0"/>
      <psa03 value="0.0264133776" flag="0"/>
      <psa10 value="0.0039825179" flag="0"/>
      <psa30 value="0.0002583965" flag="0"/>
    </comp>
  </station>
  <station code="KMRS" name="KMRS" netid="KO" insttype="CMG-3T" lat="37.5053" lon="36.9">
    <comp name="--.HHE">
      <acc value="0.0435624001" flag="0"/>
      <vel value="0.0178053058" flag="0"/>
      <psa03 value="0.0754646006" flag="0"/>
      <psa10 value="0.0089430652" flag="0"/>
      <psa30 value="0.0008582141" flag="0"/>
    </comp>
    <comp name="--.HHZ">
      <acc value="0.0573791078" flag="0"/>
      <vel value="0.0212126588" flag="0"/>
      <psa03 value="0.1145602189" flag="0"/>
      <psa10 value="0.0062602566" flag="0"/>
      <psa30 value="0.0006435091" flag="0"/>
    </comp>
  </station>
  <station code="SARI" name="SARI" netid="KO" insttype="CMG-3T" lat="38.4072" lon="36.4181">
    <comp name="--.HHZ">
      <acc value="0.0897698881" flag="0"/>
      <vel value="0.0256470967" flag="0"/>
      <psa03 value="0.1085355252" flag="0"/>
      <psa10 value="0.0090063777" flag="0"/>
      <psa30 value="0.0006296099" flag="0"/>
    </comp>
  </station>
  <station code="ANDN" name="ANDN" netid="TU" insttype="T" lat="37.58" lon="36.3452">
    <comp name="--.HHN">
      <acc value="0.1055011376" flag="0"/>
      <vel value="0.0334224455" flag="0"/>
      <psa03 value="0.1561531832" flag="0"/>
      <psa10 value="0.0314277663" flag="0"/>
      <psa30 value="0.0012509073" flag="0"/>
    </comp>
    <comp name="--.HHZ">
      <acc value="0.0588904001" flag="0"/>
      <vel value="0.0262558489" flag="0"/>
      <psa03 value="0.0914495216" flag="0"/>
      <psa10 value="0.0315245316" flag="0"/>
      <psa30 value="0.0015372890" flag="0"/>
    </comp>
    <comp name="--.HHE">
      <acc value="0.0654783500" flag="0"/>
      <vel value="0.0270670425" flag="0"/>
      <psa03 value="0.1311210789" flag="0"/>
      <psa10 value="0.0238900641" flag="0"/>
      <psa30 value="0.0017591073" flag="0"/>
    </comp>
  </station>
</stationlist>
