<?xml version="1.0" encoding="UTF-8" standalone="yes"?>
<!DOCTYPE earthquake SYSTEM "stationlist.dtd">
<stationlist created="" xmlns="ch.ethz.sed.shakemap.usgs.xml">
  <station code="PSAM" name="PSAM" netid="CL" insttype="CMG40-T" lat="38.3218" lon="22.1842">
    <comp name="00.HHE">
      <acc value="0.0154322493" flag="0"/>
      <vel value="0.0217540652" flag="0"/>
      <psa03 value="0.0532261635" flag="0"/>
      <psa10 value="0.0239363583" flag="0"/>
      <psa30 value="0.0021784270" flag="0"/>
    </comp>
    <comp name="00.HHZ">
      <acc value="0.0062950803" flag="0"/>
      <vel value="0.0064264040" flag="0"/>
      <psa03 value="0.0152204930" flag="0"/>
      <psa10 value="0.0126226896" flag="0"/>
      <psa30 value="0.0011290835" flag="0"/>
    </comp>
    <comp name="00.HHN">
      <acc value="0.0142893520" flag="0"/>
      <vel value="0.0148015846" flag="0"/>
      <psa03 value="0.0357394422" flag="0"/>
      <psa10 value="0.0212644129" flag="0"/>
      <psa30 value="0.0019400709" flag="0"/>
    </comp>
  </station>
  <station code="AMPE" name="AMPE" netid="HA" insttype="1s-100Hz," lat="38.3015" lon="23.2688">
    <comp name="--.HHE">
      <acc value="0.0699297443" flag="0"/>
      <vel value="0.0488049070" flag="0"/>
      <psa03 value="0.1912984588" flag="0"/>
      <psa10 value="0.0346471770" flag="0"/>
      <psa30 value="0.0029605401" flag="0"/>
    </comp>
    <comp name="--.HHN">
      <acc value="0.0524089713" flag="0"/>
      <vel value="0.0407052510" flag="0"/>
      <psa03 value="0.0960442320" flag="0"/>
      <psa10 value="0.0432347974" flag="0"/>
      <psa30 value="0.0028996975" flag="0"/>
    </comp>
    <comp name="--.HHZ">
      <acc value="0.0242642421" flag="0"/>
      <vel value="0.0144084150" flag="0"/>
      <psa03 value="0.0698815036" flag="0"/>
      <psa10 value="0.0196440356" flag="0"/>
      <psa30 value="0.0012815691" flag="0"/>
    </comp>
  </station>
  <station code="ANTK" name="ANTK" netid="HA" insttype="25" lat="38.3605" lon="22.6385">
    <comp name="--.HHE">
      <acc value="0.0141061795" flag="0"/>
      <vel value="0.0113908131" flag="0"/>
      <psa03 value="0.0293869151" flag="0"/>
      <psa10 value="0.0134592771" flag="0"/>
      <psa30 value="0.0011055655" flag="0"/>
    </comp>
    <comp name="--.HHN">
      <acc value="0.0008252286" flag="0"/>
      <vel value="0.0003463123" flag="0"/>
      <psa03 value="0.0015309618" flag="0"/>
      <psa10 value="0.0003354719" flag="0"/>
      <psa30 value="0.0000191859" flag="0"/>
    </comp>
    <comp name="--.HHZ">
      <acc value="0.0105398155" flag="0"/>
      <vel value="0.0085086502" flag="0"/>
      <psa03 value="0.0235514798" flag="0"/>
      <psa10 value="0.0099301569" flag="0"/>
      <psa30 value="0.0007190133" flag="0"/>
    </comp>
  </station>
  <station code="ATAL" name="ATAL" netid="HA" insttype="120s," lat="38.6926" lon="23.0213">
    <comp name="--.HHE">
      <acc value="0.1356906668" flag="0"/>
      <vel value="0.0350553375" flag="0"/>
      <psa03 value="0.1427924713" flag="0"/>
      <psa10 value="0.0227115226" flag="0"/>
      <psa30 value="0.0021883752" flag="0"/>
    </comp>
    <comp name="--.HHN">
      <acc value="0.1474754526" flag="0"/>
      <vel value="0.0515455970" flag="0"/>
      <psa03 value="0.1297683338" flag="0"/>
      <psa10 value="0.0354550567" flag="0"/>
      <psa30 value="0.0017345801" flag="0"/>
    </comp>
    <comp name="--.HHZ">
      <acc value="0.1338997374" flag="0"/>
      <vel value="0.0294301385" flag="0"/>
      <psa03 value="0.1153469495" flag="0"/>
      <psa10 value="0.0168986937" flag="0"/>
      <psa30 value="0.0015806592" flag="0"/>
    </comp>
  </station>
  <station code="ATHU" name="ATHU" netid="HA" insttype="60s," lat="37.9665" lon="23.7845">
    <comp name="--.HHE">
      <acc value="0.0178260795" flag="0"/>
      <vel value="0.0138764310" flag="0"/>
      <psa03 value="0.0614193386" flag="0"/>
      <psa10 value="0.0106898361" flag="0"/>
      <psa30 value="0.0012422179" flag="0"/>
    </comp>
    <comp name="--.HHN">
      <acc value="0.0185109134" flag="0"/>
      <vel value="0.0119186479" flag="0"/>
      <psa03 value="0.0516734897" flag="0"/>
      <psa10 value="0.0087882454" flag="0"/>
      <psa30 value="0.0010236179" flag="0"/>
    </comp>
    <comp name="--.HHZ">
      <acc value="0.0223134160" flag="0"/>
      <vel value="0.0135744175" flag="0"/>
      <psa03 value="0.0554853744" flag="0"/>
      <psa10 value="0.0108337283" flag="0"/>
      <psa30 value="0.0006597903" flag="0"/>
    </comp>
  </station>
  <station code="AXAR" name="AXAR" netid="HA" insttype="Horizon,120s,1200" lat="38.7664" lon="22.659">
    <comp name="--.HHE">
      <acc value="0.1160909636" flag="0"/>
      <vel value="0.0466776958" flag="0"/>
      <psa03 value="0.2578608073" flag="0"/>
      <psa10 value="0.0384839965" flag="0"/>
      <psa30 value="0.0030992871" flag="0"/>
    </comp>
    <comp name="--.HHN">
      <acc value="0.1479858215" flag="0"/>
      <vel value="0.0700412195" flag="0"/>
      <psa03 value="0.3008516555" flag="0"/>
      <psa10 value="0.0408283886" flag="0"/>
      <psa30 value="0.0026282693" flag="0"/>
    </comp>
    <comp name="--.HHZ">
      <acc value="0.0683151939" flag="0"/>
      <vel value="0.0276897802" flag="0"/>
      <psa03 value="0.1313688370" flag="0"/>
      <psa10 value="0.0220976545" flag="0"/>
      <psa30 value="0.0014317504" flag="0"/>
    </comp>
  </station>
  <station code="DOMV" name="DOMV" netid="HA" insttype="60" lat="38.2569" lon="22.9795">
    <comp name="--.HHE">
      <acc value="0.1282354103" flag="0"/>
      <vel value="0.0457004587" flag="0"/>
      <psa03 value="0.2628018768" flag="0"/>
      <psa10 value="0.0325635562" flag="0"/>
      <psa30 value="0.0026881728" flag="0"/>
    </comp>
    <comp name="--.HHN">
      <acc value="0.1167393375" flag="0"/>
      <vel value="0.0449096999" flag="0"/>
      <psa03 value="0.1634217807" flag="0"/>
      <psa10 value="0.0206184488" flag="0"/>
      <psa30 value="0.0023361577" flag="0"/>
    </comp>
    <comp name="--.HHZ">
      <acc value="0.0625043357" flag="0"/>
      <vel value="0.0291230156" flag="0"/>
      <psa03 value="0.1100176691" flag="0"/>
      <psa10 value="0.0100477838" flag="0"/>
      <psa30 value="0.0008939751" flag="0"/>
    </comp>
  </station>
  <station code="ERTR" name="ERTR" netid="HA" insttype="Horizon,120s,1200" lat="38.4066" lon="23.7865">
    <comp name="--.HHN">
      <acc value="0.0745469146" flag="0"/>
      <vel value="0.0254153256" flag="0"/>
      <psa03 value="0.2151267063" flag="0"/>
      <psa10 value="0.0210623972" flag="0"/>
      <psa30 value="0.0027640619" flag="0"/>
    </comp>
    <comp name="--.HHE">
      <acc value="0.0502832513" flag="0"/>
      <vel value="0.0199404971" flag="0"/>
      <psa03 value="0.1459425157" flag="0"/>
      <psa10 value="0.0125555797" flag="0"/>
      <psa30 value="0.0008936200" flag="0"/>
    </comp>
    <comp name="--.HHZ">
      <acc value="0.0360297464" flag="0"/>
      <vel value="0.0142367843" flag="0"/>
      <psa03 value="0.0932941833" flag="0"/>
      <psa10 value="0.0116327844" flag="0"/>
      <psa30 value="0.0011075994" flag="0"/>
    </comp>
  </station>
  <station code="KALE" name="KALE" netid="HA" insttype="40," lat="38.3911" lon="22.1398">
    <comp name="--.HHE">
      <acc value="0.0262158570" flag="0"/>
      <vel value="0.0147939568" flag="0"/>
      <psa03 value="0.0788231706" flag="0"/>
      <psa10 value="0.0085822137" flag="0"/>
      <psa30 value="0.0010835891" flag="0"/>
    </comp>
    <comp name="--.HHZ">
      <acc value="0.0092846065" flag="0"/>
      <vel value="0.0075885939" flag="0"/>
      <psa03 value="0.0245856376" flag="0"/>
      <psa10 value="0.0063565723" flag="0"/>
      <psa30 value="0.0009844777" flag="0"/>
    </comp>
    <comp name="--.HHN">
      <acc value="0.0180013398" flag="0"/>
      <vel value="0.0117361262" flag="0"/>
      <psa03 value="0.0658448063" flag="0"/>
      <psa10 value="0.0116317705" flag="0"/>
      <psa30 value="0.0010761697" flag="0"/>
    </comp>
  </station>
  <station code="LOUT" name="LOUT" netid="HA" insttype="30" lat="37.9879" lon="22.9743">
    <comp name="--.HHE">
      <acc value="0.0453460899" flag="0"/>
      <vel value="0.0269976261" flag="0"/>
      <psa03 value="0.1862591286" flag="0"/>
      <psa10 value="0.0248145679" flag="0"/>
      <psa30 value="0.0016215235" flag="0"/>
    </comp>
    <comp name="--.HHN">
      <acc value="0.0496994939" flag="0"/>
      <vel value="0.0217702002" flag="0"/>
      <psa03 value="0.1041874096" flag="0"/>
      <psa10 value="0.0318009990" flag="0"/>
      <psa30 value="0.0033956111" flag="0"/>
    </comp>
    <comp name="--.HHZ">
      <acc value="0.0250714774" flag="0"/>
      <vel value="0.0156447959" flag="0"/>
      <psa03 value="0.0588237752" flag="0"/>
      <psa10 value="0.0134429349" flag="0"/>
      <psa30 value="0.0010898444" flag="0"/>
    </comp>
  </station>
  <station code="MDRA" name="MDRA" netid="HA" insttype="60" lat="38.0606" lon="23.4662">
    <comp name="--.HHE">
      <acc value="0.0364327925" flag="0"/>
      <vel value="0.0160189575" flag="0"/>
      <psa03 value="0.0735111234" flag="0"/>
      <psa10 value="0.0264577399" flag="0"/>
      <psa30 value="0.0013227569" flag="0"/>
    </comp>
    <comp name="--.HHN">
      <acc value="0.0337631039" flag="0"/>
      <vel value="0.0265468049" flag="0"/>
      <psa03 value="0.0679248923" flag="0"/>
      <psa10 value="0.0251255522" flag="0"/>
      <psa30 value="0.0017271845" flag="0"/>
    </comp>
    <comp name="--.HHZ">
      <acc value="0.0343541214" flag="0"/>
      <vel value="0.0251156261" flag="0"/>
      <psa03 value="0.0775561556" flag="0"/>
      <psa10 value="0.0196099340" flag="0"/>
      <psa30 value="0.0028848419" flag="0"/>
    </comp>
  </station>
  <station code="MRKA" name="MRKA" netid="HA" insttype="Horizon,120s,1200" lat="38.7047" lon="23.5863">
    <comp name="--.HHE">
      <acc value="0.4441956053" flag="0"/>
      <vel value="0.0856938822" flag="0"/>
      <psa03 value="0.3874029995" flag="0"/>
      <psa10 value="0.0332979943" flag="0"/>
      <psa30 value="0.0028875664" flag="0"/>
    </comp>
    <comp name="--.HHZ">
      <acc value="0.2033043108" flag="0"/>
      <vel value="0.0390546536" flag="0"/>
      <psa03 value="0.1505488668" flag="0"/>
      <psa10 value="0.0306793556" flag="0"/>
      <psa30 value="0.0025173813" flag="0"/>
    </comp>
    <comp name="--.HHN">
      <acc value="0.2625890538" flag="0"/>
      <vel value="0.0651582275" flag="0"/>
      <psa03 value="0.3761229815" flag="0"/>
      <psa10 value="0.0466740797" flag="0"/>
      <psa30 value="0.0030508042" flag="0"/>
    </comp>
  </station>
  <station code="MRTH" name="MRTH" netid="HA" insttype="S100," lat="38.1225" lon="23.9409">
    <comp name="--.HHE">
      <acc value="0.0495836245" flag="0"/>
      <vel value="0.0273634568" flag="0"/>
      <psa03 value="0.1339477661" flag="0"/>
      <psa10 value="0.0300819520" flag="0"/>
      <psa30 value="0.0018145031" flag="0"/>
    </comp>
    <comp name="--.HHN">
      <acc value="0.0531536576" flag="0"/>
      <vel value="0.0315922377" flag="0"/>
      <psa03 value="0.1194472886" flag="0"/>
      <psa10 value="0.0437635807" flag="0"/>
      <psa30 value="0.0025757883" flag="0"/>
    </comp>
    <comp name="--.HHZ">
      <acc value="0.0321000008" flag="0"/>
      <vel value="0.0161193601" flag="0"/>
      <psa03 value="0.0865465979" flag="0"/>
      <psa10 value="0.0228252446" flag="0"/>
      <psa30 value="0.0013416634" flag="0"/>
    </comp>
  </station>
  <station code="PRDM" name="PRDM" netid="HA" insttype="25" lat="38.2804" lon="22.847">
    <comp name="--.HHE">
      <acc value="0.0308093318" flag="0"/>
      <vel value="0.0144282935" flag="0"/>
      <psa03 value="0.0713389210" flag="0"/>
      <psa10 value="0.0120483564" flag="0"/>
      <psa30 value="0.0008540009" flag="0"/>
    </comp>
    <comp name="--.HHZ">
      <acc value="0.0145340639" flag="0"/>
      <vel value="0.0079866187" flag="0"/>
      <psa03 value="0.0202636202" flag="0"/>
      <psa10 value="0.0072416637" flag="0"/>
      <psa30 value="0.0003448129" flag="0"/>
    </comp>
    <comp name="--.HHN">
      <acc value="0.0253199406" flag="0"/>
      <vel value="0.0087559078" flag="0"/>
      <psa03 value="0.0520689164" flag="0"/>
      <psa10 value="0.0084282830" flag="0"/>
      <psa30 value="0.0006326472" flag="0"/>
    </comp>
  </station>
  <station code="PSAH" name="PSAH" netid="HA" insttype="25" lat="38.5694" lon="23.6473">
    <comp name="--.HHZ">
      <acc value="0.0312349610" flag="0"/>
      <vel value="0.0107784139" flag="0"/>
      <psa03 value="0.0612142618" flag="0"/>
      <psa10 value="0.0134875275" flag="0"/>
      <psa30 value="0.0010374587" flag="0"/>
    </comp>
    <comp name="--.HHN">
      <acc value="0.0334293363" flag="0"/>
      <vel value="0.0171447106" flag="0"/>
      <psa03 value="0.0579349368" flag="0"/>
      <psa10 value="0.0132807181" flag="0"/>
      <psa30 value="0.0015492589" flag="0"/>
    </comp>
    <comp name="--.HHE">
      <acc value="0.0446951098" flag="0"/>
      <vel value="0.0163927935" flag="0"/>
      <psa03 value="0.0845459168" flag="0"/>
      <psa10 value="0.0143860595" flag="0"/>
      <psa30 value="0.0009535272" flag="0"/>
    </comp>
  </station>
  <station code="STFN" name="STFN" netid="HA" insttype="1s-100Hz," lat="38.1766" lon="23.544">
    <comp name="--.HHE">
      <acc value="0.0382909996" flag="0"/>
      <vel value="0.0327968270" flag="0"/>
      <psa03 value="0.0945298639" flag="0"/>
      <psa10 value="0.0410515389" flag="0"/>
      <psa30 value="0.0031055177" flag="0"/>
    </comp>
    <comp name="--.HHZ">
      <acc value="0.0398487176" flag="0"/>
      <vel value="0.0233187187" flag="0"/>
      <psa03 value="0.0936418262" flag="0"/>
      <psa10 value="0.0234634021" flag="0"/>
      <psa30 value="0.0024072044" flag="0"/>
    </comp>
    <comp name="--.HHN">
      <acc value="0.0405175535" flag="0"/>
      <vel value="0.0276204195" flag="0"/>
      <psa03 value="0.1058721156" flag="0"/>
      <psa10 value="0.0265190042" flag="0"/>
      <psa30 value="0.0019264957" flag="0"/>
    </comp>
  </station>
  <station code="THAL" name="THAL" netid="HA" insttype="30" lat="38.0357" lon="22.6634">
    <comp name="--.HHE">
      <acc value="0.0557071496" flag="0"/>
      <vel value="0.0260316189" flag="0"/>
      <psa03 value="0.1445700349" flag="0"/>
      <psa10 value="0.0309435813" flag="0"/>
      <psa30 value="0.0018059179" flag="0"/>
    </comp>
    <comp name="--.HHN">
      <acc value="0.0610979249" flag="0"/>
      <vel value="0.0291591777" flag="0"/>
      <psa03 value="0.1265536575" flag="0"/>
      <psa10 value="0.0278051032" flag="0"/>
      <psa30 value="0.0023019207" flag="0"/>
    </comp>
    <comp name="--.HHZ">
      <acc value="0.0255563766" flag="0"/>
      <vel value="0.0139828652" flag="0"/>
      <psa03 value="0.0683620278" flag="0"/>
      <psa10 value="0.0181028241" flag="0"/>
      <psa30 value="0.0010666271" flag="0"/>
    </comp>
  </station>
  <station code="THIV" name="THIV" netid="HA" insttype="25" lat="38.299" lon="23.332">
    <comp name="--.HHE">
      <acc value="0.0613951394" flag="0"/>
      <vel value="0.0444690194" flag="0"/>
      <psa03 value="0.0779002321" flag="0"/>
      <psa10 value="0.0377178515" flag="0"/>
      <psa30 value="0.0026784999" flag="0"/>
    </comp>
    <comp name="--.HHN">
      <acc value="0.0583710998" flag="0"/>
      <vel value="0.0328610541" flag="0"/>
      <psa03 value="0.0898232690" flag="0"/>
      <psa10 value="0.0231311046" flag="0"/>
      <psa30 value="0.0018255272" flag="0"/>
    </comp>
    <comp name="--.HHZ">
      <acc value="0.0422318624" flag="0"/>
      <vel value="0.0178352896" flag="0"/>
      <psa03 value="0.0667047169" flag="0"/>
      <psa10 value="0.0124559020" flag="0"/>
      <psa30 value="0.0009486052" flag="0"/>
    </comp>
  </station>
  <station code="VILL" name="VILL" netid="HA" insttype="Horizon,120s,1200" lat="38.1642" lon="23.3122">
    <comp name="--.HHE">
      <acc value="0.0636998783" flag="0"/>
      <vel value="0.0425292722" flag="0"/>
      <psa03 value="0.1279454950" flag="0"/>
      <psa10 value="0.0592985496" flag="0"/>
      <psa30 value="0.0035307803" flag="0"/>
    </comp>
    <comp name="--.HHZ">
      <acc value="0.0347533725" flag="0"/>
      <vel value="0.0219640136" flag="0"/>
      <psa03 value="0.0850021072" flag="0"/>
      <psa10 value="0.0170833870" flag="0"/>
      <psa30 value="0.0017380231" flag="0"/>
    </comp>
    <comp name="--.HHN">
      <acc value="0.0887263700" flag="0"/>
      <vel value="0.0613406240" flag="0"/>
      <psa03 value="0.1612542616" flag="0"/>
      <psa10 value="0.0433282095" flag="0"/>
      <psa30 value="0.0021452427" flag="0"/>
    </comp>
  </station>
  <station code="PLN1" name="PLN1" netid="HI" insttype="CMG-5TD,ACCELEROMETER,GURALP" lat="39.998" lon="23.575">
    <comp name="--.HNE">
      <acc value="0.0342224266" flag="0"/>
      <vel value="0.0193041028" flag="0"/>
      <psa03 value="0.0714729701" flag="0"/>
      <psa10 value="0.0198529249" flag="0"/>
      <psa30 value="0.0013615810" flag="0"/>
    </comp>
    <comp name="--.HNN">
      <acc value="0.0309084432" flag="0"/>
      <vel value="0.0231092385" flag="0"/>
      <psa03 value="0.0873844072" flag="0"/>
      <psa10 value="0.0219292597" flag="0"/>
      <psa30 value="0.0023953922" flag="0"/>
    </comp>
    <comp name="--.HNZ">
      <acc value="0.0308506747" flag="0"/>
      <vel value="0.0186790199" flag="0"/>
      <psa03 value="0.0842301814" flag="0"/>
      <psa10 value="0.0110783831" flag="0"/>
      <psa30 value="0.0009306387" flag="0"/>
    </comp>
  </station>
  <station code="SKY1" name="SKY1" netid="HI" insttype="CMG-5TD,ACCELEROMETER,GURALP" lat="38.9045" lon="24.5646">
    <comp name="--.HNN">
      <acc value="0.0305453570" flag="0"/>
      <vel value="0.0167044378" flag="0"/>
      <psa03 value="0.1045469479" flag="0"/>
      <psa10 value="0.0091876597" flag="0"/>
      <psa30 value="0.0008810378" flag="0"/>
    </comp>
    <comp name="--.HNZ">
      <acc value="0.0211495998" flag="0"/>
      <vel value="0.0090232625" flag="0"/>
      <psa03 value="0.0545139696" flag="0"/>
      <psa10 value="0.0076662685" flag="0"/>
      <psa30 value="0.0004661504" flag="0"/>
    </comp>
    <comp name="--.HNE">
      <acc value="0.0297741459" flag="0"/>
      <vel value="0.0111549106" flag="0"/>
      <psa03 value="0.0723738931" flag="0"/>
      <psa10 value="0.0103519543" flag="0"/>
      <psa30 value="0.0007388070" flag="0"/>
    </comp>
  </station>
  <station code="VOL2" name="VOL2" netid="HI" insttype="CMG-5TD,ACCELEROMETER,GURALP" lat="39.366" lon="22.9506">
    <comp name="--.HNN">
      <acc value="0.2876367048" flag="0"/>
      <vel value="0.0909285824" flag="0"/>
      <psa03 value="0.3150556301" flag="0"/>
      <psa10 value="0.0589208951" flag="0"/>
      <psa30 value="0.0026851366" flag="0"/>
    </comp>
    <comp name="--.HNE">
      <acc value="0.4639582834" flag="0"/>
      <vel value="0.1115951131" flag="0"/>
      <psa03 value="0.3437966120" flag="0"/>
      <psa10 value="0.0301286718" flag="0"/>
      <psa30 value="0.0023714242" flag="0"/>
    </comp>
    <comp name="--.HNZ">
      <acc value="0.2393854111" flag="0"/>
      <vel value="0.0605744629" flag="0"/>
      <psa03 value="0.1515487789" flag="0"/>
      <psa10 value="0.0268106327" flag="0"/>
      <psa30 value="0.0018890460" flag="0"/>
    </comp>
  </station>
  <station code="ALNA" name="ALNA" netid="HL" insttype="CMG-5" lat="39.148" lon="23.8667">
    <comp name="00.HNZ">
      <acc value="0.0830482484" flag="0"/>
      <vel value="0.0200145624" flag="0"/>
      <psa03 value="0.0858917541" flag="0"/>
      <psa10 value="0.0151445504" flag="0"/>
      <psa30 value="0.0009519668" flag="0"/>
    </comp>
    <comp name="00.HNN">
