<?xml version="1.0" encoding="UTF-8" standalone="yes"?>
<!DOCTYPE earthquake SYSTEM "stationlist.dtd">
<stationlist created="" xmlns="ch.ethz.sed.shakemap.usgs.xml">
  <station code="MORF" name="MORF" netid="LX" insttype="REFT" lat="37.3043" lon="-8.65267">
    <comp name="--.HHN">
      <acc value="0.2944404831" flag="0"/>
      <vel value="0.0593649493" flag="0"/>
      <psa03 value="0.2343509658" flag="0"/>
      <psa10 value="0.0108267730" flag="0"/>
      <psa30 value="0.0023245781" flag="0"/>
    </comp>
    <comp name="--.HHE">
      <acc value="0.3498216933" flag="0"/>
      <vel value="0.0614842224" flag="0"/>
      <psa03 value="0.2093254314" flag="0"/>
      <psa10 value="0.0084505666" flag="0"/>
      <psa30 value="0.0008475278" flag="0"/>
    </comp>
    <comp name="--.HHZ">
      <acc value="0.4099497847" flag="0"/>
      <vel value="0.0677472349" flag="0"/>
      <psa03 value="0.1126417837" flag="0"/>
      <psa10 value="0.0093832099" flag="0"/>
      <psa30 value="0.0008841673" flag="0"/>
    </comp>
  </station>
</stationlist>
