<?xml version="1.0" encoding="UTF-8" standalone="yes"?>
<!DOCTYPE earthquake SYSTEM "stationlist.dtd">
<stationlist created="" xmlns="ch.ethz.sed.shakemap.usgs.xml">
  <station code="STIA" name="STIA" netid="HC" insttype="120" lat="35.2021" lon="26.0909">
    <comp name="--.HHE">
      <acc value="0.0116177672" flag="0"/>
      <vel value="0.0105501239" flag="0"/>
      <psa03 value="0.0294726078" flag="0"/>
      <psa10 value="0.0151922004" flag="0"/>
      <psa30 value="0.0026038165" flag="0"/>
    </comp>
    <comp name="--.HHN">
      <acc value="0.0146846989" flag="0"/>
      <vel value="0.0076467275" flag="0"/>
      <psa03 value="0.0473973757" flag="0"/>
      <psa10 value="0.0119244498" flag="0"/>
      <psa30 value="0.0028066813" flag="0"/>
    </comp>
    <comp name="--.HHZ">
      <acc value="0.0103925653" flag="0"/>
      <vel value="0.0059228798" flag="0"/>
      <psa03 value="0.0248713086" flag="0"/>
      <psa10 value="0.0056690302" flag="0"/>
      <psa30 value="0.0017840414" flag="0"/>
    </comp>
  </station>
  <station code="IACM" name="IACM" netid="HL" insttype="120" lat="35.3058" lon="25.0709">
    <comp name="--.HHE">
      <acc value="0.0241072483" flag="0"/>
      <vel value="0.0329847235" flag="0"/>
      <psa03 value="0.0410982758" flag="0"/>
      <psa10 value="0.0663251409" flag="0"/>
      <psa30 value="0.0066340397" flag="0"/>
    </comp>
    <comp name="--.HHN">
      <acc value="0.0152738221" flag="0"/>
      <vel value="0.0204280348" flag="0"/>
      <psa03 value="0.0385310384" flag="0"/>
      <psa10 value="0.0316970150" flag="0"/>
      <psa30 value="0.0042519321" flag="0"/>
    </comp>
    <comp name="--.HHZ">
      <acc value="0.0092738900" flag="0"/>
      <vel value="0.0074302769" flag="0"/>
      <psa03 value="0.0233651135" flag="0"/>
      <psa10 value="0.0138049738" flag="0"/>
      <psa30 value="0.0017116991" flag="0"/>
    </comp>
  </station>
  <station code="NPS" name="NPS" netid="HL" insttype="CMG3ESPC-120s" lat="35.2613" lon="25.6104">
    <comp name="--.HHE">
      <acc value="0.0029845841" flag="0"/>
      <vel value="0.0020104715" flag="0"/>
      <psa03 value="0.0062874680" flag="0"/>
      <psa10 value="0.0035522350" flag="0"/>
      <psa30 value="0.0009558799" flag="0"/>
    </comp>
    <comp name="--.HHN">
      <acc value="0.0054926778" flag="0"/>
      <vel value="0.0034557731" flag="0"/>
      <psa03 value="0.0121392973" flag="0"/>
      <psa10 value="0.0063633006" flag="0"/>
      <psa30 value="0.0019811400" flag="0"/>
    </comp>
    <comp name="--.HHZ">
      <acc value="0.0047447410" flag="0"/>
      <vel value="0.0052190710" flag="0"/>
      <psa03 value="0.0092589346" flag="0"/>
      <psa10 value="0.0064885023" flag="0"/>
      <psa30 value="0.0028742484" flag="0"/>
    </comp>
  </station>
</stationlist>
