<stationlist created="1778069502">
	<station code="IMMV" name="IMMV" netid="GE" source="GEOFON" insttype="" lat="35.4606" lon="23.9811">
		<comp name="--.HNE" depth="0.0">
			<acc value="0.00229094098797089" flag="0"/>
			<vel value="0.00459644240303292" flag="0"/>
			<psa03 value="0.00608494010008496" flag="0"/>
			<psa10 value="0.00552879447181984" flag="0"/>
			<psa30 value="0.0013695589445853" flag="0"/>
		</comp>
		<comp name="--.HNN" depth="0.0">
			<acc value="0.00198911669375284" flag="0"/>
			<vel value="0.00397572910550317" flag="0"/>
			<psa03 value="0.00492164272800989" flag="0"/>
			<psa10 value="0.00451001442712179" flag="0"/>
			<psa30 value="0.00107336553677234" flag="0"/>
		</comp>
		<comp name="--.HNZ" depth="0.0">
			<acc value="0.0020664949205895" flag="0"/>
			<vel value="0.00274571611720996" flag="0"/>
			<psa03 value="0.00501112714124644" flag="0"/>
			<psa10 value="0.00373284229816241" flag="0"/>
			<psa30 value="0.000910951326748013" flag="0"/>
		</comp>
	</station>
	<station code="SIT2" name="SIT2" netid="HI" source="ITSAK Strong Motion Network" insttype="" lat="35.2059" lon="26.107">
		<comp name="--.HNE" depth="0.0">
			<acc value="0.0380494233401538" flag="0"/>
			<vel value="0.0297204386970881" flag="0"/>
			<psa03 value="0.105815318652213" flag="0"/>
			<psa10 value="0.023387646243503" flag="0"/>
			<psa30 value="0.00396236981811415" flag="0"/>
		</comp>
		<comp name="--.HNN" depth="0.0">
			<acc value="0.0345224773268845" flag="0"/>
			<vel value="0.0282871181794051" flag="0"/>
			<psa03 value="0.0972248149815045" flag="0"/>
			<psa10 value="0.0167716161508592" flag="0"/>
			<psa30 value="0.0035623744909468" flag="0"/>
		</comp>
		<comp name="--.HNZ" depth="0.0">
			<acc value="0.016896784571599" flag="0"/>
			<vel value="0.00996654049655044" flag="0"/>
			<psa03 value="0.0346304679225423" flag="0"/>
			<psa10 value="0.0047194079540953" flag="0"/>
			<psa30 value="0.00260086447072014" flag="0"/>
		</comp>
	</station>
	<station code="IACM" name="IACM" netid="HL" source="National Observatory of Athens Seismic Network" insttype="" lat="35.3058" lon="25.0709">
		<comp name="--.HNE" depth="0.0">
			<acc value="0.0234523145704836" flag="0"/>
			<vel value="0.0344994699843537" flag="0"/>
			<psa03 value="0.0411180878821917" flag="0"/>
			<psa10 value="0.0652421908466315" flag="0"/>
			<psa30 value="0.00791802830523555" flag="0"/>
		</comp>
		<comp name="--.HNN" depth="0.0">
			<acc value="0.0158854386419301" flag="0"/>
			<vel value="0.0214217919039172" flag="0"/>
			<psa03 value="0.0391046885843695" flag="0"/>
			<psa10 value="0.0309862151934841" flag="0"/>
			<psa30 value="0.00534982564534675" flag="0"/>
		</comp>
		<comp name="--.HNZ" depth="0.0">
			<acc value="0.00942614353912226" flag="0"/>
			<vel value="0.00828037759085585" flag="0"/>
			<psa03 value="0.0227290409620821" flag="0"/>
			<psa10 value="0.0137394368083389" flag="0"/>
			<psa30 value="0.00229706488778207" flag="0"/>
		</comp>
	</station>
</stationlist>
