<?xml version="1.0" encoding="UTF-8" standalone="yes"?>
<!DOCTYPE earthquake SYSTEM "stationlist.dtd">
<stationlist created="" xmlns="ch.ethz.sed.shakemap.usgs.xml">
  <station code="GVD" name="GVD" netid="GE" source="GFZ" insttype="STS-2/N" lat="34.8391" lon="24.0874">
    <comp name="--.HHE">
      <acc value="0.0070855073" flag="0"/>
      <vel value="0.0030597159" flag="0"/>
      <psa03 value="0.0216514306" flag="0"/>
      <psa10 value="0.0025982558" flag="0"/>
      <psa30 value="0.0002649164" flag="0"/>
    </comp>
    <comp name="--.HHN">
      <acc value="0.0075692390" flag="0"/>
      <vel value="0.0038007949" flag="0"/>
      <psa03 value="0.0253614954" flag="0"/>
      <psa10 value="0.0036139361" flag="0"/>
      <psa30 value="0.0002098373" flag="0"/>
    </comp>
    <comp name="--.HHZ">
      <acc value="0.0056190987" flag="0"/>
      <vel value="0.0028962529" flag="0"/>
      <psa03 value="0.0098952615" flag="0"/>
      <psa10 value="0.0037540585" flag="0"/>
      <psa30 value="0.0002992771" flag="0"/>
    </comp>
  </station>
  <station code="IMMV" name="IMMV" netid="GE" source="GFZ" insttype="STS-2/N" lat="35.4606" lon="23.9811">
    <comp name="--.HHE">
      <acc value="0.0088974478" flag="0"/>
      <vel value="0.0078185163" flag="0"/>
      <psa03 value="0.0223256883" flag="0"/>
      <psa10 value="0.0131263392" flag="0"/>
      <psa30 value="0.0007198824" flag="0"/>
    </comp>
    <comp name="--.HHN">
      <acc value="0.0085572236" flag="0"/>
      <vel value="0.0075743106" flag="0"/>
      <psa03 value="0.0250773037" flag="0"/>
      <psa10 value="0.0131966294" flag="0"/>
      <psa30 value="0.0006939473" flag="0"/>
    </comp>
    <comp name="--.HHZ">
      <acc value="0.0065408775" flag="0"/>
      <vel value="0.0046930353" flag="0"/>
      <psa03 value="0.0189229124" flag="0"/>
      <psa10 value="0.0036946340" flag="0"/>
      <psa30 value="0.0004669864" flag="0"/>
    </comp>
  </station>
  <station code="CHAN" name="CHAN" netid="HC" source="NOA" insttype="120" lat="35.5193" lon="24.0428">
    <comp name="--.HHE">
      <acc value="0.0161466272" flag="0"/>
      <vel value="0.0146216901" flag="0"/>
      <psa03 value="0.0300275194" flag="0"/>
      <psa10 value="0.0290412850" flag="0"/>
      <psa30 value="0.0010138478" flag="0"/>
    </comp>
    <comp name="--.HHN">
      <acc value="0.0118398982" flag="0"/>
      <vel value="0.0106503207" flag="0"/>
      <psa03 value="0.0253809518" flag="0"/>
      <psa10 value="0.0119254268" flag="0"/>
      <psa30 value="0.0014964009" flag="0"/>
    </comp>
    <comp name="--.HHZ">
      <acc value="0.0109478237" flag="0"/>
      <vel value="0.0082471299" flag="0"/>
      <psa03 value="0.0261817507" flag="0"/>
      <psa10 value="0.0145559527" flag="0"/>
      <psa30 value="0.0006525115" flag="0"/>
    </comp>
  </station>
  <station code="KNDR" name="KNDR" netid="HC" source="NOA" insttype="60" lat="35.2348" lon="23.6248">
    <comp name="--.HHE">
      <acc value="0.0233422646" flag="0"/>
      <vel value="0.0130632209" flag="0"/>
      <psa03 value="0.0567817836" flag="0"/>
      <psa10 value="0.0196240846" flag="0"/>
      <psa30 value="0.0010660171" flag="0"/>
    </comp>
    <comp name="--.HHN">
      <acc value="0.0196388028" flag="0"/>
      <vel value="0.0121489180" flag="0"/>
      <psa03 value="0.0739329002" flag="0"/>
      <psa10 value="0.0107060167" flag="0"/>
      <psa30 value="0.0007288781" flag="0"/>
    </comp>
    <comp name="--.HHZ">
      <acc value="0.0128070077" flag="0"/>
      <vel value="0.0076258378" flag="0"/>
      <psa03 value="0.0383607619" flag="0"/>
      <psa10 value="0.0057015696" flag="0"/>
      <psa30 value="0.0003738476" flag="0"/>
    </comp>
  </station>
  <station code="GVD" name="GVD" netid="HL" source="NOA" insttype="120" lat="34.8391" lon="24.0874">
    <comp name="--.HHE">
      <acc value="0.0069159015" flag="0"/>
      <vel value="0.0029853977" flag="0"/>
      <psa03 value="0.0210475557" flag="0"/>
      <psa10 value="0.0025788950" flag="0"/>
      <psa30 value="0.0002637797" flag="0"/>
    </comp>
    <comp name="--.HHN">
      <acc value="0.0074295827" flag="0"/>
      <vel value="0.0037142368" flag="0"/>
      <psa03 value="0.0247021523" flag="0"/>
      <psa10 value="0.0035738992" flag="0"/>
      <psa30 value="0.0002077355" flag="0"/>
    </comp>
    <comp name="--.HHZ">
      <acc value="0.0054540832" flag="0"/>
      <vel value="0.0028623398" flag="0"/>
      <psa03 value="0.0095984759" flag="0"/>
      <psa10 value="0.0037289212" flag="0"/>
      <psa30 value="0.0002982735" flag="0"/>
    </comp>
  </station>
  <station code="IMMV" name="IMMV" netid="HL" source="NOA" insttype="120" lat="35.4606" lon="23.9811">
    <comp name="--.HHE">
      <acc value="0.0087453188" flag="0"/>
      <vel value="0.0077171971" flag="0"/>
      <psa03 value="0.0218097195" flag="0"/>
      <psa10 value="0.0130346783" flag="0"/>
      <psa30 value="0.0007173928" flag="0"/>
    </comp>
    <comp name="--.HHN">
      <acc value="0.0084603495" flag="0"/>
      <vel value="0.0074328649" flag="0"/>
      <psa03 value="0.0244869848" flag="0"/>
      <psa10 value="0.0130815820" flag="0"/>
      <psa30 value="0.0006910045" flag="0"/>
    </comp>
    <comp name="--.HHZ">
      <acc value="0.0064121832" flag="0"/>
      <vel value="0.0046060409" flag="0"/>
      <psa03 value="0.0184603718" flag="0"/>
      <psa10 value="0.0036552503" flag="0"/>
      <psa30 value="0.0004650845" flag="0"/>
    </comp>
  </station>
</stationlist>
