<stationlist xmlns:esm="https://esm-db.eu/esmws/shakemap/1/" created="1780538071">
	<station code="IMMV" name="IMMV" netid="GE" source="GEOFON" insttype="" lat="35.4606" lon="23.9811" esm:processing="manual (Paolucci et al 2011)" esm:quality="best">
		<comp name="--.HNE" depth="0.0">
			<acc value="0.00875445352511676" flag="0"/>
			<vel value="0.0077205610919949" flag="0"/>
			<psa03 value="0.0214762591767704" flag="0"/>
			<psa10 value="0.0131515242133748" flag="0"/>
			<psa30 value="0.000748089694657504" flag="0"/>
		</comp>
		<comp name="--.HNN" depth="0.0">
			<acc value="0.00852508129704265" flag="0"/>
			<vel value="0.00751367279878049" flag="0"/>
			<psa03 value="0.0241160493672485" flag="0"/>
			<psa10 value="0.0132562209768616" flag="0"/>
			<psa30 value="0.000720796948620358" flag="0"/>
		</comp>
		<comp name="--.HNZ" depth="0.0">
			<acc value="0.00652999755959487" flag="0"/>
			<vel value="0.00464913999866701" flag="0"/>
			<psa03 value="0.0190601800193838" flag="0"/>
			<psa10 value="0.00360398474310179" flag="0"/>
			<psa30 value="0.000510061155448298" flag="0"/>
		</comp>
	</station>
	<station code="CH02" name="CH02" netid="HI" source="ITSAK Strong Motion Network" insttype="" lat="35.5145" lon="24.0315" esm:processing="manual (Paolucci et al 2011)" esm:quality="good">
		<comp name="--.HNE" depth="0.0">
			<acc value="0.0102692438885028" flag="0"/>
			<vel value="0.00876883810604156" flag="0"/>
			<psa03 value="0.0211745094781672" flag="0"/>
			<psa10 value="0.0113422119908797" flag="0"/>
			<psa30 value="0.000790179585102846" flag="0"/>
		</comp>
		<comp name="--.HNN" depth="0.0">
			<acc value="0.00628894079651657" flag="0"/>
			<vel value="0.00647127771916218" flag="0"/>
			<psa03 value="0.0213116813255455" flag="0"/>
			<psa10 value="0.0088706735760894" flag="0"/>
			<psa30 value="0.000867117754795662" flag="0"/>
		</comp>
		<comp name="--.HNZ" depth="0.0">
			<acc value="0.0048160194293775" flag="0"/>
			<vel value="0.00383463308808624" flag="0"/>
			<psa03 value="0.00984095269606922" flag="0"/>
			<psa10 value="0.0103957908576244" flag="0"/>
			<psa30 value="0.000478711087260139" flag="0"/>
		</comp>
	</station>
	<station code="ANKY" name="ANKY" netid="HL" source="National Observatory of Athens Seismic Network" insttype="" lat="35.86704" lon="23.30117" esm:processing="manual (Paolucci et al 2011)" esm:quality="good">
		<comp name="00.HNE" depth="0.0">
			<acc value="0.00883766719252076" flag="0"/>
			<vel value="0.00593609199160058" flag="0"/>
			<psa03 value="0.0202682195980771" flag="0"/>
			<psa10 value="0.00728447865952082" flag="0"/>
			<psa30 value="0.000448764332381266" flag="0"/>
		</comp>
		<comp name="00.HNN" depth="0.0">
			<acc value="0.0071403053195831" flag="0"/>
			<vel value="0.00447297309331342" flag="0"/>
			<psa03 value="0.0200445085649857" flag="0"/>
			<psa10 value="0.00403887899143139" flag="0"/>
			<psa30 value="0.000396415950637888" flag="0"/>
		</comp>
		<comp name="00.HNZ" depth="0.0">
			<acc value="0.00527727187850858" flag="0"/>
			<vel value="0.0019531333352543" flag="0"/>
			<psa03 value="0.011856684753842" flag="0"/>
			<psa10 value="0.00213823005428721" flag="0"/>
			<psa30 value="0.000284560434092208" flag="0"/>
		</comp>
	</station>
	<station code="GVD" name="GVD" netid="HL" source="National Observatory of Athens Seismic Network" insttype="" lat="34.83914" lon="24.08738" esm:processing="manual (Paolucci et al 2011)" esm:quality="bad">
		<comp name="00.HNE" depth="1.0">
			<acc value="0.00643788882112505" flag="0"/>
			<vel value="0.00292965881527763" flag="0"/>
			<psa03 value="0.0203896567042546" flag="0"/>
			<psa10 value="0.0024993408815668" flag="0"/>
			<psa30 value="0.000303052653875934" flag="0"/>
		</comp>
		<comp name="00.HNN" depth="1.0">
			<acc value="0.00706904502502402" flag="0"/>
			<vel value="0.00366325007487194" flag="0"/>
			<psa03 value="0.0238527598157614" flag="0"/>
			<psa10 value="0.00353675030797731" flag="0"/>
			<psa30 value="0.000228334553126711" flag="0"/>
		</comp>
		<comp name="00.HNZ" depth="1.0">
			<acc value="0.005210800708388" flag="0"/>
			<vel value="0.00284323512073474" flag="0"/>
			<psa03 value="0.00931340212341365" flag="0"/>
			<psa10 value="0.00365075364138698" flag="0"/>
			<psa30 value="0.000318712779823992" flag="0"/>
		</comp>
	</station>
	<station code="IMMV" name="IMMV" netid="HL" source="National Observatory of Athens Seismic Network" insttype="" lat="35.4606" lon="23.9811" esm:processing="manual (Paolucci et al 2011)" esm:quality="best">
		<comp name="--.HNE" depth="0.0">
			<acc value="0.00857680513260394" flag="0"/>
			<vel value="0.00756389829751756" flag="0"/>
			<psa03 value="0.0210288371105877" flag="0"/>
			<psa10 value="0.0128857555060623" flag="0"/>
			<psa30 value="0.000732877344407291" flag="0"/>
		</comp>
		<comp name="--.HNN" depth="0.0">
			<acc value="0.00835211233250993" flag="0"/>
			<vel value="0.00736121463606321" flag="0"/>
			<psa03 value="0.0236238850944475" flag="0"/>
			<psa10 value="0.0129864254709534" flag="0"/>
			<psa30 value="0.000706032020436328" flag="0"/>
		</comp>
		<comp name="--.HNZ" depth="0.0">
			<acc value="0.00639749663078478" flag="0"/>
			<vel value="0.00455477457143924" flag="0"/>
			<psa03 value="0.0187022423664376" flag="0"/>
			<psa10 value="0.00353150236838019" flag="0"/>
			<psa30 value="0.000499770447926095" flag="0"/>
		</comp>
	</station>
</stationlist>
