<?xml version="1.0" encoding="UTF-8" standalone="yes"?>
<!DOCTYPE earthquake SYSTEM "stationlist.dtd">
<stationlist created="" xmlns="ch.ethz.sed.shakemap.usgs.xml">
  <station code="SELL" name="SELL" netid="IV" insttype="" commtype="DIG" lat="38.983" lon="16.6279">
    <comp name="--.HHE">
      <acc value="0.0004524296" flag="0"/>
      <vel value="0.0005163081" flag="0"/>
      <psa03 value="0.0011095004" flag="0"/>
      <psa10 value="0.0008955009" flag="0"/>
      <psa30 value="0.0000871515" flag="0"/>
    </comp>
  </station>
  <station code="MCDA" name="MCDA" netid="IY" insttype="SS08" commtype="DIG" lat="39.0216" lon="16.8403">
    <comp name="00.HHE">
      <acc value="0.0055933878" flag="0"/>
      <vel value="0.0058164074" flag="0"/>
      <psa03 value="0.0148548754" flag="0"/>
      <psa10 value="0.0093330603" flag="0"/>
      <psa30 value="0.0012320153" flag="0"/>
    </comp>
    <comp name="00.HHN">
      <acc value="0.0053970733" flag="0"/>
      <vel value="0.0053820233" flag="0"/>
      <psa03 value="0.0171305696" flag="0"/>
      <psa10 value="0.0096475014" flag="0"/>
      <psa30 value="0.0012007100" flag="0"/>
    </comp>
    <comp name="00.HHZ">
      <acc value="0.0028071252" flag="0"/>
      <vel value="0.0026972075" flag="0"/>
      <psa03 value="0.0104560839" flag="0"/>
      <psa10 value="0.0045417451" flag="0"/>
      <psa30 value="0.0004429239" flag="0"/>
    </comp>
  </station>
</stationlist>
