<?xml version="1.0" encoding="UTF-8" standalone="yes"?>
<!DOCTYPE earthquake SYSTEM "stationlist.dtd">
<stationlist created="" xmlns="ch.ethz.sed.shakemap.usgs.xml">
  <station code="PIPA" name="PIPA" netid="IV" insttype="SS08" commtype="DIG" lat="39.4851" lon="16.8158">
    <comp name="--.HHZ">
      <acc value="0.0030006511" flag="0"/>
      <vel value="0.0021982454" flag="0"/>
      <psa03 value="0.0061369133" flag="0"/>
      <psa10 value="0.0039247700" flag="0"/>
      <psa30 value="0.0005077993" flag="0"/>
    </comp>
    <comp name="--.HHN">
      <acc value="0.0047890049" flag="0"/>
      <vel value="0.0038187936" flag="0"/>
      <psa03 value="0.0157990239" flag="0"/>
      <psa10 value="0.0050495754" flag="0"/>
      <psa30 value="0.0008960991" flag="0"/>
    </comp>
    <comp name="--.HHE">
      <acc value="0.0077180172" flag="0"/>
      <vel value="0.0048622451" flag="0"/>
      <psa03 value="0.0190830872" flag="0"/>
      <psa10 value="0.0054556855" flag="0"/>
      <psa30 value="0.0009725278" flag="0"/>
    </comp>
  </station>
  <station code="MCDA" name="MCDA" netid="IY" insttype="SS08" commtype="DIG" lat="39.0216" lon="16.8403">
    <comp name="00.HHE">
      <acc value="0.0055933895" flag="0"/>
      <vel value="0.0058164084" flag="0"/>
      <psa03 value="0.0148548754" flag="0"/>
      <psa10 value="0.0093330603" flag="0"/>
      <psa30 value="0.0012320085" flag="0"/>
    </comp>
    <comp name="00.HHZ">
      <acc value="0.0028071259" flag="0"/>
      <vel value="0.0026972076" flag="0"/>
      <psa03 value="0.0104560839" flag="0"/>
      <psa10 value="0.0045417451" flag="0"/>
      <psa30 value="0.0004429261" flag="0"/>
    </comp>
    <comp name="00.HHN">
      <acc value="0.0053970730" flag="0"/>
      <vel value="0.0053820240" flag="0"/>
      <psa03 value="0.0171305696" flag="0"/>
      <psa10 value="0.0096475014" flag="0"/>
      <psa30 value="0.0012007099" flag="0"/>
    </comp>
  </station>
</stationlist>
