<stationlist created="1775808502">
	<station code="BRO" name="BRO" netid="IT" source="Italian Strong Motion Network (RAN)" insttype="" lat="38.6021" lon="16.3493">
		<comp name="--.HGE" depth="0.0">
			<acc value="0.00228957660304793" flag="0"/>
			<vel value="0.00104874648169032" flag="0"/>
			<psa03 value="0.00668077785520368" flag="0"/>
			<psa10 value="0.000939497412874038" flag="0"/>
			<psa30 value="0.000221265569216379" flag="0"/>
		</comp>
		<comp name="--.HGN" depth="0.0">
			<acc value="0.00189107633280829" flag="0"/>
			<vel value="0.000919597182151441" flag="0"/>
			<psa03 value="0.00643617962052106" flag="0"/>
			<psa10 value="0.000920165292372182" flag="0"/>
			<psa30 value="0.000190995113426409" flag="0"/>
		</comp>
		<comp name="--.HGZ" depth="0.0">
			<acc value="0.00141752640536722" flag="0"/>
			<vel value="0.000555140796653969" flag="0"/>
			<psa03 value="0.00259853965351991" flag="0"/>
			<psa10 value="0.000533731196916129" flag="0"/>
			<psa30 value="0.000146295381455208" flag="0"/>
		</comp>
	</station>
	<station code="CRN" name="CRN" netid="IT" source="Italian Strong Motion Network (RAN)" insttype="" lat="39.0777" lon="17.1113">
		<comp name="--.HGE" depth="0.0">
			<acc value="0.00366735147253936" flag="0"/>
			<vel value="0.00495690326250216" flag="0"/>
			<psa03 value="0.0113646512898731" flag="0"/>
			<psa10 value="0.0111464302713016" flag="0"/>
			<psa30 value="0.00168679007489746" flag="0"/>
		</comp>
		<comp name="--.HGN" depth="0.0">
			<acc value="0.00616195263724044" flag="0"/>
			<vel value="0.00546378393891851" flag="0"/>
			<psa03 value="0.0136552821995957" flag="0"/>
			<psa10 value="0.00830256437914324" flag="0"/>
			<psa30 value="0.00255921411870873" flag="0"/>
		</comp>
		<comp name="--.HGZ" depth="0.0">
			<acc value="0.00365360586389751" flag="0"/>
			<vel value="0.00297998486314361" flag="0"/>
			<psa03 value="0.00625152676317549" flag="0"/>
			<psa10 value="0.00571940122601186" flag="0"/>
			<psa30 value="0.000704175085643512" flag="0"/>
		</comp>
	</station>
	<station code="CTN" name="CTN" netid="IT" source="Italian Strong Motion Network (RAN)" insttype="" lat="38.9171" lon="16.5849">
		<comp name="--.HGE" depth="0.0">
			<acc value="0.0083466714325542" flag="0"/>
			<vel value="0.000872030506780938" flag="0"/>
			<psa03 value="0.00317648125962742" flag="0"/>
			<psa10 value="0.00205590095897369" flag="0"/>
			<psa30 value="0.00029074165604116" flag="0"/>
		</comp>
		<comp name="--.HGN" depth="0.0">
			<acc value="0.011009445926822" flag="0"/>
			<vel value="0.000782020470437643" flag="0"/>
			<psa03 value="0.00232088779690538" flag="0"/>
			<psa10 value="0.00109724370263531" flag="0"/>
			<psa30 value="0.000214782131907976" flag="0"/>
		</comp>
		<comp name="--.HGZ" depth="0.0">
			<acc value="0.0199007835375134" flag="0"/>
			<vel value="0.00130416760472455" flag="0"/>
			<psa03 value="0.00138061912851237" flag="0"/>
			<psa10 value="0.00072926352497324" flag="0"/>
			<psa30 value="0.00016940047976291" flag="0"/>
		</comp>
	</station>
	<station code="DNMI" name="DNMI" netid="IT" source="Italian Strong Motion Network (RAN)" insttype="" lat="38.5315" lon="16.1448">
		<comp name="--.HGE" depth="0.0">
			<acc value="0.00703253035162505" flag="0"/>
			<vel value="0.0029451223321097" flag="0"/>
			<psa03 value="0.00870819341153425" flag="0"/>
			<psa10 value="0.006371624276338" flag="0"/>
			<psa30 value="0.000472681260730391" flag="0"/>
		</comp>
		<comp name="--.HGN" depth="0.0">
			<acc value="0.00712311749469229" flag="0"/>
			<vel value="0.00242123719134796" flag="0"/>
			<psa03 value="0.00780618313694706" flag="0"/>
			<psa10 value="0.00495091156734352" flag="0"/>
			<psa30 value="0.000258789930021122" flag="0"/>
		</comp>
		<comp name="--.HGZ" depth="0.0">
			<acc value="0.00512715503202512" flag="0"/>
			<vel value="0.0017732775701861" flag="0"/>
			<psa03 value="0.0073595376634598" flag="0"/>
			<psa10 value="0.00172478332093021" flag="0"/>
			<psa30 value="0.00018535437517185" flag="0"/>
		</comp>
	</station>
	<station code="FDF" name="FDF" netid="IT" source="Italian Strong Motion Network (RAN)" insttype="" lat="38.7891" lon="16.3">
		<comp name="--.HGE" depth="0.0">
			<acc value="0.048763890169249" flag="0"/>
			<vel value="0.00492501731135456" flag="0"/>
			<psa03 value="0.0138961379988604" flag="0"/>
			<psa10 value="0.00108682574687187" flag="0"/>
			<psa30 value="0.000178111082839281" flag="0"/>
		</comp>
		<comp name="--.HGN" depth="0.0">
			<acc value="0.0484962343075931" flag="0"/>
			<vel value="0.0036847539530838" flag="0"/>
			<psa03 value="0.00710674031791799" flag="0"/>
			<psa10 value="0.00103374344136714" flag="0"/>
			<psa30 value="0.000169958876128929" flag="0"/>
		</comp>
		<comp name="--.HGZ" depth="0.0">
			<acc value="0.0773489906449056" flag="0"/>
			<vel value="0.00432856198384394" flag="0"/>
			<psa03 value="0.00347255490951201" flag="0"/>
			<psa10 value="0.000715398563518839" flag="0"/>
			<psa30 value="0.000128006318332034" flag="0"/>
		</comp>
	</station>
	<station code="LMZ" name="LMZ" netid="IT" source="Italian Strong Motion Network (RAN)" insttype="" lat="38.9187" lon="16.2527">
		<comp name="--.HNE" depth="0.0">
			<acc value="0.00632668312861117" flag="0"/>
			<vel value="0.0026469437504512" flag="0"/>
			<psa03 value="0.00453509307088803" flag="0"/>
			<psa10 value="0.00445844956915302" flag="0"/>
			<psa30 value="0.00103579517884718" flag="0"/>
		</comp>
		<comp name="--.HNN" depth="0.0">
			<acc value="0.00405262611537314" flag="0"/>
			<vel value="0.0025624031993332" flag="0"/>
			<psa03 value="0.00452666738251919" flag="0"/>
			<psa10 value="0.00449577438548892" flag="0"/>
			<psa30 value="0.000904438247928505" flag="0"/>
		</comp>
		<comp name="--.HNZ" depth="0.0">
			<acc value="0.00669060358269112" flag="0"/>
			<vel value="0.00162704608815584" flag="0"/>
			<psa03 value="0.00425995928472915" flag="0"/>
			<psa10 value="0.00227127842979912" flag="0"/>
			<psa30 value="0.000460228977494405" flag="0"/>
		</comp>
	</station>
	<station code="MSR" name="MSR" netid="IT" source="Italian Strong Motion Network (RAN)" insttype="" lat="39.0768" lon="16.7897">
		<comp name="--.HGE" depth="0.0">
			<acc value="0.00807954134313406" flag="0"/>
			<vel value="0.000942200881947151" flag="0"/>
			<psa03 value="0.00427878116960748" flag="0"/>
			<psa10 value="0.00123303058847509" flag="0"/>
			<psa30 value="0.000269817353242124" flag="0"/>
		</comp>
		<comp name="--.HGN" depth="0.0">
			<acc value="0.00503980465217607" flag="0"/>
			<vel value="0.00155244063386769" flag="0"/>
			<psa03 value="0.00645558910942944" flag="0"/>
			<psa10 value="0.00186401832581596" flag="0"/>
			<psa30 value="0.000320674602493626" flag="0"/>
		</comp>
		<comp name="--.HGZ" depth="0.0">
			<acc value="0.00692645394312112" flag="0"/>
			<vel value="0.000762354031006628" flag="0"/>
			<psa03 value="0.00222558135311289" flag="0"/>
			<psa10 value="0.00118638183416155" flag="0"/>
			<psa30 value="0.000279411217955244" flag="0"/>
		</comp>
	</station>
	<station code="NCH" name="NCH" netid="IT" source="Italian Strong Motion Network (RAN)" insttype="" lat="38.9621" lon="16.3151">
		<comp name="--.HGE" depth="0.0">
			<acc value="0.00484030249559422" flag="0"/>
			<vel value="0.00189226466475296" flag="0"/>
			<psa03 value="0.00372787390647585" flag="0"/>
			<psa10 value="0.00221688881112881" flag="0"/>
			<psa30 value="0.000432867321168958" flag="0"/>
		</comp>
		<comp name="--.HGN" depth="0.0">
			<acc value="0.00832631062026096" flag="0"/>
			<vel value="0.00149458483944633" flag="0"/>
			<psa03 value="0.00393137371546447" flag="0"/>
			<psa10 value="0.00237773743531076" flag="0"/>
			<psa30 value="0.000375187119930372" flag="0"/>
		</comp>
		<comp name="--.HGZ" depth="0.0">
			<acc value="0.00546455219914346" flag="0"/>
			<vel value="0.00153511448352591" flag="0"/>
			<psa03 value="0.00535343797232569" flag="0"/>
			<psa10 value="0.00254017968068729" flag="0"/>
			<psa30 value="0.000193591939099199" flag="0"/>
		</comp>
	</station>
	<station code="PNI" name="PNI" netid="IT" source="Italian Strong Motion Network (RAN)" insttype="" lat="39.158" lon="16.4126">
		<comp name="--.HGE" depth="0.0">
			<acc value="0.00325205596558115" flag="0"/>
			<vel value="0.00113172929270428" flag="0"/>
			<psa03 value="0.00518343191859231" flag="0"/>
			<psa10 value="0.00163121743514948" flag="0"/>
			<psa30 value="0.00018422367526853" flag="0"/>
		</comp>
		<comp name="--.HGN" depth="0.0">
			<acc value="0.00317853311007153" flag="0"/>
			<vel value="0.00100169707144379" flag="0"/>
			<psa03 value="0.00405685533529762" flag="0"/>
			<psa10 value="0.00145857252170876" flag="0"/>
			<psa30 value="0.000244442052461316" flag="0"/>
		</comp>
		<comp name="--.HGZ" depth="0.0">
			<acc value="0.00212536141904422" flag="0"/>
			<vel value="0.000714825244266917" flag="0"/>
			<psa03 value="0.00336661299554681" flag="0"/>
			<psa10 value="0.000970719168662131" flag="0"/>
			<psa30 value="0.000168071706842392" flag="0"/>
		</comp>
	</station>
	<station code="RSN" name="RSN" netid="IT" source="Italian Strong Motion Network (RAN)" insttype="" lat="39.5706" lon="16.6301">
		<comp name="--.HNE" depth="0.0">
			<acc value="0.00154849242226257" flag="0"/>
			<vel value="0.000863551188407929" flag="0"/>
			<psa03 value="0.0035158243774644" flag="0"/>
			<psa10 value="0.00123609454144693" flag="0"/>
			<psa30 value="0.00017351882549977" flag="0"/>
		</comp>
		<comp name="--.HNN" depth="0.0">
			<acc value="0.00140033766196638" flag="0"/>
			<vel value="0.000867729674589938" flag="0"/>
			<psa03 value="0.00362132420485187" flag="0"/>
			<psa10 value="0.00122458233350716" flag="0"/>
			<psa30 value="0.000234732867608803" flag="0"/>
		</comp>
		<comp name="--.HNZ" depth="0.0">
			<acc value="0.000904071044609503" flag="0"/>
			<vel value="0.00051292485005913" flag="0"/>
			<psa03 value="0.00162161702703414" flag="0"/>
			<psa10 value="0.000712576911754507" flag="0"/>
			<psa30 value="0.000225778602557689" flag="0"/>
		</comp>
	</station>
	<station code="SAP" name="SAP" netid="IT" source="Italian Strong Motion Network (RAN)" insttype="" lat="38.6251" lon="16.5251">
		<comp name="--.HGE" depth="0.0">
			<acc value="0.00159919233015982" flag="0"/>
			<vel value="0.000852239103978247" flag="0"/>
			<psa03 value="0.0032609152383808" flag="0"/>
			<psa10 value="0.0013390967554631" flag="0"/>
			<psa30 value="0.000385435507169064" flag="0"/>
		</comp>
		<comp name="--.HGN" depth="0.0">
			<acc value="0.00127734997975939" flag="0"/>
			<vel value="0.000798389788849739" flag="0"/>
			<psa03 value="0.00385709958943897" flag="0"/>
			<psa10 value="0.00133528369036625" flag="0"/>
			<psa30 value="0.000257305378551873" flag="0"/>
		</comp>
		<comp name="--.HGZ" depth="0.0">
			<acc value="0.00163561889760836" flag="0"/>
			<vel value="0.000637843213623753" flag="0"/>
			<psa03 value="0.00254724361217975" flag="0"/>
			<psa10 value="0.00113311260221137" flag="0"/>
			<psa30 value="0.000237874455931945" flag="0"/>
		</comp>
	</station>
	<station code="SCS" name="SCS" netid="IT" source="Italian Strong Motion Network (RAN)" insttype="" lat="40.0371" lon="18.4615">
		<comp name="--.HGE" depth="0.0">
			<acc value="0.00176028153695401" flag="0"/>
			<vel value="0.0017587585293462" flag="0"/>
			<psa03 value="0.00580748823321878" flag="0"/>
			<psa10 value="0.00236735698203167" flag="0"/>
			<psa30 value="0.000318828933352103" flag="0"/>
		</comp>
		<comp name="--.HGN" depth="0.0">
			<acc value="0.00181801087684015" flag="0"/>
			<vel value="0.00113005067928354" flag="0"/>
			<psa03 value="0.00394694571057439" flag="0"/>
			<psa10 value="0.00216635069760182" flag="0"/>
			<psa30 value="0.000266122030320116" flag="0"/>
		</comp>
		<comp name="--.HGZ" depth="0.0">
			<acc value="0.00140431218176709" flag="0"/>
			<vel value="0.00104232204984792" flag="0"/>
			<psa03 value="0.00337891166183559" flag="0"/>
			<psa10 value="0.00123283205969853" flag="0"/>
			<psa30 value="0.000176203703880619" flag="0"/>
		</comp>
	</station>
	<station code="SGV" name="SGV" netid="IT" source="Italian Strong Motion Network (RAN)" insttype="" lat="39.2633" lon="16.6897">
		<comp name="--.HNE" depth="0.0">
			<acc value="0.00403976991254866" flag="0"/>
			<vel value="0.0015039087857139" flag="0"/>
			<psa03 value="0.00356823475043606" flag="0"/>
			<psa10 value="0.00217081443080224" flag="0"/>
			<psa30 value="0.00034468955274122" flag="0"/>
		</comp>
		<comp name="--.HNN" depth="0.0">
			<acc value="0.0031141828058554" flag="0"/>
			<vel value="0.00130148677954669" flag="0"/>
			<psa03 value="0.00413653997599316" flag="0"/>
			<psa10 value="0.00177175682331921" flag="0"/>
			<psa30 value="0.000296440392929511" flag="0"/>
		</comp>
		<comp name="--.HNZ" depth="0.0">
			<acc value="0.00188794875802684" flag="0"/>
			<vel value="0.000952654553107679" flag="0"/>
			<psa03 value="0.00163896404207417" flag="0"/>
			<psa10 value="0.00142333319508882" flag="0"/>
			<psa30 value="0.000290790669704741" flag="0"/>
		</comp>
	</station>
	<station code="SLL" name="SLL" netid="IT" source="Italian Strong Motion Network (RAN)" insttype="" lat="38.8843" lon="16.7447">
		<comp name="--.HGE" depth="0.0">
			<acc value="0.0403656349503769" flag="0"/>
			<vel value="0.00435703556849099" flag="0"/>
			<psa03 value="0.0118857196622622" flag="0"/>
			<psa10 value="0.00677997992164539" flag="0"/>
			<psa30 value="0.000946133197514287" flag="0"/>
		</comp>
		<comp name="--.HGN" depth="0.0">
			<acc value="0.0326913481948709" flag="0"/>
			<vel value="0.00536886847849051" flag="0"/>
			<psa03 value="0.0126263064829211" flag="0"/>
			<psa10 value="0.00511948664086482" flag="0"/>
			<psa30 value="0.00120982660340829" flag="0"/>
		</comp>
		<comp name="--.HGZ" depth="0.0">
			<acc value="0.0340780367905181" flag="0"/>
			<vel value="0.0048524109812824" flag="0"/>
			<psa03 value="0.00458492059046666" flag="0"/>
			<psa10 value="0.00304008240616446" flag="0"/>
			<psa30 value="0.000722903253376044" flag="0"/>
		</comp>
	</station>
	<station code="SRN" name="SRN" netid="IT" source="Italian Strong Motion Network (RAN)" insttype="" lat="38.572" lon="16.3235">
		<comp name="--.HGE" depth="0.0">
			<acc value="0.00373415894659272" flag="0"/>
			<vel value="0.00114716102674066" flag="0"/>
			<psa03 value="0.00802378609374168" flag="0"/>
			<psa10 value="0.00150016406600695" flag="0"/>
			<psa30 value="0.000231881767279065" flag="0"/>
		</comp>
		<comp name="--.HGN" depth="0.0">
			<acc value="0.00505489878294738" flag="0"/>
			<vel value="0.00128348027425908" flag="0"/>
			<psa03 value="0.00729933055003402" flag="0"/>
			<psa10 value="0.00172378259057424" flag="0"/>
			<psa30 value="0.000244733035279166" flag="0"/>
		</comp>
		<comp name="--.HGZ" depth="0.0">
			<acc value="0.00750661291225606" flag="0"/>
			<vel value="0.000792131709779851" flag="0"/>
			<psa03 value="0.00274531435058159" flag="0"/>
			<psa10 value="0.000837941857191883" flag="0"/>
			<psa30 value="0.000187981919025401" flag="0"/>
		</comp>
	</station>
	<station code="CELI" name="CELI" netid="IV" source="Italian National Seismic Network (INSN)" insttype="" lat="39.4027" lon="16.5088">
		<comp name="--.HNE" depth="0.0">
			<acc value="0.000479812389306174" flag="0"/>
			<vel value="0.00069970471184441" flag="0"/>
			<psa03 value="0.00125696119719797" flag="0"/>
			<psa10 value="0.00101967508753274" flag="0"/>
			<psa30 value="0.000233826010658981" flag="0"/>
		</comp>
		<comp name="--.HNN" depth="0.0">
			<acc value="0.000458317018765828" flag="0"/>
			<vel value="0.000626539704928972" flag="0"/>
			<psa03 value="0.00137242978392515" flag="0"/>
			<psa10 value="0.00102587647490672" flag="0"/>
			<psa30 value="0.000208201735051479" flag="0"/>
		</comp>
		<comp name="--.HNZ" depth="0.0">
			<acc value="0.000389220663017268" flag="0"/>
			<vel value="0.000433222270951888" flag="0"/>
			<psa03 value="0.00088972210704077" flag="0"/>
			<psa10 value="0.000617503250309784" flag="0"/>
			<psa30 value="0.000211273045281542" flag="0"/>
		</comp>
	</station>
	<station code="PIPA" name="PIPA" netid="IV" source="Italian National Seismic Network (INSN)" insttype="" lat="39.48514" lon="16.8158">
		<comp name="--.HNE" depth="0.0">
			<acc value="0.00760762059487554" flag="0"/>
			<vel value="0.00502081653703342" flag="0"/>
			<psa03 value="0.0194392786422237" flag="0"/>
			<psa10 value="0.00550953638599617" flag="0"/>
			<psa30 value="0.00111430871331685" flag="0"/>
		</comp>
		<comp name="--.HNN" depth="0.0">
			<acc value="0.00480629937297833" flag="0"/>
			<vel value="0.00439520129877393" flag="0"/>
			<psa03 value="0.0163834473021446" flag="0"/>
			<psa10 value="0.00533799064693286" flag="0"/>
			<psa30 value="0.000997502642154553" flag="0"/>
		</comp>
		<comp name="--.HNZ" depth="0.0">
			<acc value="0.00282828560064911" flag="0"/>
			<vel value="0.00242205668684574" flag="0"/>
			<psa03 value="0.00620335104572898" flag="0"/>
			<psa10 value="0.00399558031258642" flag="0"/>
			<psa30 value="0.000535543862569249" flag="0"/>
		</comp>
	</station>
	<station code="PLAC" name="PLAC" netid="IV" source="Italian National Seismic Network (INSN)" insttype="" lat="38.4494" lon="16.4383">
		<comp name="--.HNE" depth="1.0">
			<acc value="0.00106059174543014" flag="0"/>
			<vel value="0.00074618030842589" flag="0"/>
			<psa03 value="0.00302434097274675" flag="0"/>
			<psa10 value="0.00101885167361061" flag="0"/>
			<psa30 value="0.000206588789660096" flag="0"/>
		</comp>
		<comp name="--.HNN" depth="1.0">
			<acc value="0.000826984678908912" flag="0"/>
			<vel value="0.000704216303296417" flag="0"/>
			<psa03 value="0.00194303008339463" flag="0"/>
			<psa10 value="0.00150274740120273" flag="0"/>
			<psa30 value="0.000171856319533575" flag="0"/>
		</comp>
		<comp name="--.HNZ" depth="1.0">
			<acc value="0.000590014000335706" flag="0"/>
			<vel value="0.000546588047329023" flag="0"/>
			<psa03 value="0.00131817114398362" flag="0"/>
			<psa10 value="0.000899555977887493" flag="0"/>
			<psa30 value="0.00025033218223684" flag="0"/>
		</comp>
	</station>
</stationlist>
