<?xml version="1.0" encoding="UTF-8" standalone="yes"?>
<!DOCTYPE earthquake SYSTEM "stationlist.dtd">
<stationlist created="" xmlns="ch.ethz.sed.shakemap.usgs.xml">
  <station code="DRA2" name="DRA2" netid="HI" insttype="CMG-5TD,ACCELEROMETER,GURALP" lat="41.1593" lon="24.1485">
    <comp name="--.HNE">
      <acc value="0.0875547708" flag="0"/>
      <vel value="0.0337521800" flag="0"/>
      <psa03 value="0.1919222421" flag="0"/>
      <psa10 value="0.0137385489" flag="0"/>
      <psa30 value="0.0011084258" flag="0"/>
    </comp>
    <comp name="--.HNZ">
      <acc value="0.0676367926" flag="0"/>
      <vel value="0.0184477161" flag="0"/>
      <psa03 value="0.0735997293" flag="0"/>
      <psa10 value="0.0104367166" flag="0"/>
      <psa30 value="0.0009249424" flag="0"/>
    </comp>
    <comp name="--.HNN">
      <acc value="0.0721078101" flag="0"/>
      <vel value="0.0230024807" flag="0"/>
      <psa03 value="0.1771546228" flag="0"/>
      <psa10 value="0.0101676914" flag="0"/>
      <psa30 value="0.0009266569" flag="0"/>
    </comp>
  </station>
  <station code="PLN1" name="PLN1" netid="HI" insttype="CMG-5TD,ACCELEROMETER,GURALP" lat="39.998" lon="23.575">
    <comp name="--.HNE">
      <acc value="2.6325278472" flag="0"/>
      <vel value="1.2499344003" flag="0"/>
      <psa03 value="6.9047761576" flag="0"/>
      <psa10 value="0.4468363676" flag="0"/>
      <psa30 value="0.0437067763" flag="0"/>
    </comp>
    <comp name="--.HNN">
      <acc value="2.4580507413" flag="0"/>
      <vel value="1.7013080612" flag="0"/>
      <psa03 value="7.5301496169" flag="0"/>
      <psa10 value="0.8219885441" flag="0"/>
      <psa30 value="0.0580549643" flag="0"/>
    </comp>
    <comp name="--.HNZ">
      <acc value="0.7000937235" flag="0"/>
      <vel value="0.3139127690" flag="0"/>
      <psa03 value="1.3256338096" flag="0"/>
      <psa10 value="0.1742039318" flag="0"/>
      <psa30 value="0.0140176989" flag="0"/>
    </comp>
  </station>
  <station code="VOL2" name="VOL2" netid="HI" insttype="CMG-5TD,ACCELEROMETER,GURALP" lat="39.366" lon="22.9506">
    <comp name="--.HNE">
      <acc value="0.0925742601" flag="0"/>
      <vel value="0.0511712389" flag="0"/>
      <psa03 value="0.3194723760" flag="0"/>
      <psa10 value="0.0190764457" flag="0"/>
      <psa30 value="0.0014994970" flag="0"/>
    </comp>
    <comp name="--.HNZ">
      <acc value="0.0291576145" flag="0"/>
      <vel value="0.0145619058" flag="0"/>
      <psa03 value="0.0955734386" flag="0"/>
      <psa10 value="0.0083301359" flag="0"/>
      <psa30 value="0.0005924498" flag="0"/>
    </comp>
    <comp name="--.HNN">
      <acc value="0.0724316395" flag="0"/>
      <vel value="0.0418161925" flag="0"/>
      <psa03 value="0.2673090213" flag="0"/>
      <psa10 value="0.0329883634" flag="0"/>
      <psa30 value="0.0020580919" flag="0"/>
    </comp>
  </station>
  <station code="GINA" name="GINA" netid="HL" insttype="CMG-5" lat="39.6689" lon="22.389">
    <comp name="00.HNE">
      <acc value="0.0371015993" flag="0"/>
      <vel value="0.0274885727" flag="0"/>
      <psa03 value="0.1034871771" flag="0"/>
      <psa10 value="0.0240066175" flag="0"/>
      <psa30 value="0.0020121828" flag="0"/>
    </comp>
    <comp name="00.HNN">
      <acc value="0.0460520875" flag="0"/>
      <vel value="0.0301944824" flag="0"/>
      <psa03 value="0.1050056337" flag="0"/>
      <psa10 value="0.0530657963" flag="0"/>
      <psa30 value="0.0040232634" flag="0"/>
    </comp>
    <comp name="00.HNZ">
      <acc value="0.0256246992" flag="0"/>
      <vel value="0.0142389513" flag="0"/>
      <psa03 value="0.0579527077" flag="0"/>
      <psa10 value="0.0191452273" flag="0"/>
      <psa30 value="0.0011285275" flag="0"/>
    </comp>
  </station>
  <station code="KVLA" name="KVLA" netid="HL" insttype="CMG-5" lat="40.937" lon="24.3859">
    <comp name="00.HNE">
      <acc value="0.0690393455" flag="0"/>
      <vel value="0.0335373756" flag="0"/>
      <psa03 value="0.2092906238" flag="0"/>
      <psa10 value="0.0210257756" flag="0"/>
      <psa30 value="0.0014113694" flag="0"/>
    </comp>
    <comp name="00.HNZ">
      <acc value="0.1472150772" flag="0"/>
      <vel value="0.0482763489" flag="0"/>
      <psa03 value="0.2132809627" flag="0"/>
      <psa10 value="0.0202075209" flag="0"/>
      <psa30 value="0.0015314067" flag="0"/>
    </comp>
    <comp name="00.HNN">
      <acc value="0.1704364693" flag="0"/>
      <vel value="0.0590490673" flag="0"/>
      <psa03 value="0.2136265908" flag="0"/>
      <psa10 value="0.0218901624" flag="0"/>
      <psa30 value="0.0016653650" flag="0"/>
    </comp>
  </station>
  <station code="KZN" name="KZN" netid="HL" insttype="120" lat="40.3033" lon="21.7821">
    <comp name="--.HHE">
      <acc value="0.0103394502" flag="0"/>
      <vel value="0.0055439679" flag="0"/>
      <psa03 value="0.0358351932" flag="0"/>
      <psa10 value="0.0038979183" flag="0"/>
      <psa30 value="0.0002424427" flag="0"/>
    </comp>
    <comp name="--.HHZ">
      <acc value="0.0051051006" flag="0"/>
      <vel value="0.0029503557" flag="0"/>
      <psa03 value="0.0196750972" flag="0"/>
      <psa10 value="0.0035246504" flag="0"/>
      <psa30 value="0.0002484958" flag="0"/>
    </comp>
    <comp name="--.HHN">
      <acc value="0.0089924634" flag="0"/>
      <vel value="0.0057887092" flag="0"/>
      <psa03 value="0.0250731309" flag="0"/>
      <psa10 value="0.0063497213" flag="0"/>
      <psa30 value="0.0003759825" flag="0"/>
    </comp>
  </station>
  <station code="NEO" name="NEO" netid="HL" insttype="120" lat="39.3057" lon="23.2219">
    <comp name="--.HHN">
      <acc value="0.0461441979" flag="0"/>
      <vel value="0.0274171592" flag="0"/>
      <psa03 value="0.1342285310" flag="0"/>
      <psa10 value="0.0148110334" flag="0"/>
      <psa30 value="0.0010727865" flag="0"/>
    </comp>
    <comp name="--.HHE">
      <acc value="0.0675742745" flag="0"/>
      <vel value="0.0305569744" flag="0"/>
      <psa03 value="0.1991803719" flag="0"/>
      <psa10 value="0.0139546910" flag="0"/>
      <psa30 value="0.0011078816" flag="0"/>
    </comp>
    <comp name="--.HHZ">
      <acc value="0.0213275198" flag="0"/>
      <vel value="0.0113250912" flag="0"/>
      <psa03 value="0.0580360531" flag="0"/>
      <psa10 value="0.0097198065" flag="0"/>
      <psa30 value="0.0005903329" flag="0"/>
    </comp>
  </station>
  <station code="PLG" name="PLG" netid="HL" insttype="120" lat="40.3733" lon="23.4444">
    <comp name="--.HHZ">
      <acc value="0.5490699708" flag="0"/>
      <vel value="0.1508699382" flag="0"/>
      <psa03 value="0.8193318997" flag="0"/>
      <psa10 value="0.0585296114" flag="0"/>
      <psa30 value="0.0041491724" flag="0"/>
    </comp>
    <comp name="--.HHE">
      <acc value="0.6989432479" flag="0"/>
      <vel value="0.2503648053" flag="0"/>
      <psa03 value="1.2277675635" flag="0"/>
      <psa10 value="0.1656165569" flag="0"/>
      <psa30 value="0.0127530217" flag="0"/>
    </comp>
    <comp name="--.HHN">
      <acc value="0.5195048030" flag="0"/>
      <vel value="0.2335007776" flag="0"/>
      <psa03 value="0.6977271951" flag="0"/>
      <psa10 value="0.1713085468" flag="0"/>
      <psa30 value="0.0109434638" flag="0"/>
    </comp>
  </station>
  <station code="THL" name="THL" netid="HL" insttype="120" lat="39.5647" lon="22.0144">
    <comp name="--.HHE">
      <acc value="0.0038520126" flag="0"/>
      <vel value="0.0031022012" flag="0"/>
      <psa03 value="0.0103074075" flag="0"/>
      <psa10 value="0.0032864543" flag="0"/>
      <psa30 value="0.0004724486" flag="0"/>
    </comp>
    <comp name="--.HHN">
      <acc value="0.0049876407" flag="0"/>
      <vel value="0.0040703488" flag="0"/>
      <psa03 value="0.0128269991" flag="0"/>
      <psa10 value="0.0034865609" flag="0"/>
      <psa30 value="0.0003782801" flag="0"/>
    </comp>
    <comp name="--.HHZ">
      <acc value="0.0036156280" flag="0"/>
      <vel value="0.0025466219" flag="0"/>
      <psa03 value="0.0139541387" flag="0"/>
      <psa10 value="0.0020851010" flag="0"/>
      <psa30 value="0.0003499382" flag="0"/>
    </comp>
  </station>
  <station code="GRG" name="GRG" netid="HT" insttype="100" lat="40.957" lon="22.401">
    <comp name="--.HHZ">
      <acc value="0.0518913685" flag="0"/>
      <vel value="0.0320952602" flag="0"/>
      <psa03 value="0.1657490133" flag="0"/>
      <psa10 value="0.0260847727" flag="0"/>
      <psa30 value="0.0019564620" flag="0"/>
    </comp>
    <comp name="--.HHE">
      <acc value="0.0759430430" flag="0"/>
      <vel value="0.0351775347" flag="0"/>
      <psa03 value="0.2154441717" flag="0"/>
      <psa10 value="0.0375707362" flag="0"/>
      <psa30 value="0.0018056057" flag="0"/>
    </comp>
    <comp name="--.HHN">
      <acc value="0.0998086959" flag="0"/>
      <vel value="0.0475831089" flag="0"/>
      <psa03 value="0.2885042265" flag="0"/>
      <psa10 value="0.0412957058" flag="0"/>
      <psa30 value="0.0030020762" flag="0"/>
    </comp>
  </station>
  <station code="HORT" name="HORT" netid="HT" insttype="100" lat="40.5978" lon="23.0996">
    <comp name="--.HHZ">
      <acc value="0.0874671604" flag="0"/>
      <vel value="0.0397756977" flag="0"/>
      <psa03 value="0.1441154506" flag="0"/>
      <psa10 value="0.0183428613" flag="0"/>
      <psa30 value="0.0014772694" flag="0"/>
    </comp>
    <comp name="--.HHN">
      <acc value="0.0000142024" flag="0"/>
      <vel value="0.0000020179" flag="0"/>
      <psa03 value="0.0000108953" flag="0"/>
      <psa10 value="0.0000030077" flag="0"/>
      <psa30 value="0.0000004534" flag="0"/>
    </comp>
    <comp name="--.HHE">
      <acc value="0.1298291401" flag="0"/>
      <vel value="0.0539010974" flag="0"/>
      <psa03 value="0.2645579267" flag="0"/>
      <psa10 value="0.0231158792" flag="0"/>
      <psa30 value="0.0016222611" flag="0"/>
    </comp>
  </station>
  <station code="KAVA" name="KAVA" netid="HT" insttype="Compact," lat="40.9967" lon="24.5137">
    <comp name="--.HHN">
      <acc value="0.1248230406" flag="0"/>
      <vel value="0.0439864034" flag="0"/>
      <psa03 value="0.2401106766" flag="0"/>
      <psa10 value="0.0215822920" flag="0"/>
      <psa30 value="0.0020799490" flag="0"/>
    </comp>
    <comp name="--.HHZ">
      <acc value="0.1000145250" flag="0"/>
      <vel value="0.0379368033" flag="0"/>
      <psa03 value="0.2120543432" flag="0"/>
      <psa10 value="0.0162761363" flag="0"/>
      <psa30 value="0.0013930992" flag="0"/>
    </comp>
    <comp name="--.HHE">
      <acc value="0.1035209912" flag="0"/>
      <vel value="0.0391393658" flag="0"/>
      <psa03 value="0.1690489121" flag="0"/>
      <psa10 value="0.0260215219" flag="0"/>
      <psa30 value="0.0018098151" flag="0"/>
    </comp>
  </station>
  <station code="KNT" name="KNT" netid="HT" insttype="100" lat="41.162" lon="22.898">
    <comp name="--.HHN">
      <acc value="0.0351925859" flag="0"/>
      <vel value="0.0092832817" flag="0"/>
      <psa03 value="0.0544837321" flag="0"/>
      <psa10 value="0.0100430435" flag="0"/>
      <psa30 value="0.0007625391" flag="0"/>
    </comp>
    <comp name="--.HHE">
      <acc value="0.0413625661" flag="0"/>
      <vel value="0.0135799412" flag="0"/>
      <psa03 value="0.0681389098" flag="0"/>
      <psa10 value="0.0137822729" flag="0"/>
      <psa30 value="0.0010861832" flag="0"/>
    </comp>
    <comp name="--.HHZ">
      <acc value="0.0302169363" flag="0"/>
      <vel value="0.0142669819" flag="0"/>
      <psa03 value="0.0718014382" flag="0"/>
      <psa10 value="0.0091668547" flag="0"/>
      <psa30 value="0.0007508979" flag="0"/>
    </comp>
  </station>
  <station code="KOKK" name="KOKK" netid="HT" insttype="Compact," lat="40.8178" lon="23.9992">
    <comp name="--.HHE">
      <acc value="0.1101543292" flag="0"/>
      <vel value="0.0735884380" flag="0"/>
      <psa03 value="0.3718702926" flag="0"/>
      <psa10 value="0.0788341964" flag="0"/>
      <psa30 value="0.0034372351" flag="0"/>
    </comp>
    <comp name="--.HHN">
      <acc value="0.1565987384" flag="0"/>
      <vel value="0.0812664878" flag="0"/>
      <psa03 value="0.2430240992" flag="0"/>
      <psa10 value="0.0645881658" flag="0"/>
      <psa30 value="0.0029615933" flag="0"/>
    </comp>
    <comp name="--.HHZ">
      <acc value="0.0693269932" flag="0"/>
      <vel value="0.0333298277" flag="0"/>
      <psa03 value="0.1918836346" flag="0"/>
      <psa10 value="0.0381129803" flag="0"/>
      <psa30 value="0.0016820936" flag="0"/>
    </comp>
  </station>
  <station code="LIT" name="LIT" netid="HT" insttype="100" lat="40.1033" lon="22.4892">
    <comp name="--.HHE">
      <acc value="0.0350668095" flag="0"/>
      <vel value="0.0135594567" flag="0"/>
      <psa03 value="0.0899380467" flag="0"/>
      <psa10 value="0.0078511623" flag="0"/>
      <psa30 value="0.0008353839" flag="0"/>
    </comp>
    <comp name="--.HHN">
      <acc value="0.0410238566" flag="0"/>
      <vel value="0.0163667373" flag="0"/>
      <psa03 value="0.1004358613" flag="0"/>
      <psa10 value="0.0082687923" flag="0"/>
      <psa30 value="0.0007665283" flag="0"/>
    </comp>
    <comp name="--.HHZ">
      <acc value="0.0180092626" flag="0"/>
      <vel value="0.0066914935" flag="0"/>
      <psa03 value="0.0420007060" flag="0"/>
      <psa10 value="0.0096103741" flag="0"/>
      <psa30 value="0.0005905337" flag="0"/>
    </comp>
  </station>
  <station code="NESN" name="NESN" netid="HT" insttype="1s-100Hz," lat="39.7267" lon="22.5399">
    <comp name="--.HHZ">
      <acc value="0.0744252723" flag="0"/>
      <vel value="0.0342575146" flag="0"/>
      <psa03 value="0.2220830654" flag="0"/>
      <psa10 value="0.0254774370" flag="0"/>
      <psa30 value="0.0023729111" flag="0"/>
    </comp>
    <comp name="--.HHE">
      <acc value="0.0947991073" flag="0"/>
      <vel value="0.0667208885" flag="0"/>
      <psa03 value="0.2981090747" flag="0"/>
      <psa10 value="0.0467308347" flag="0"/>
      <psa30 value="0.0028875879" flag="0"/>
    </comp>
    <comp name="--.HHN">
      <acc value="0.0827986817" flag="0"/>
      <vel value="0.0546285094" flag="0"/>
      <psa03 value="0.2333817172" flag="0"/>
      <psa10 value="0.0854081300" flag="0"/>
      <psa30 value="0.0038662840" flag="0"/>
    </comp>
  </station>
  <station code="OUR" name="OUR" netid="HT" insttype="100" lat="40.3325" lon="23.9791">
    <comp name="--.HHE">
      <acc value="0.4518872746" flag="0"/>
      <vel value="0.1355557184" flag="0"/>
      <psa03 value="1.2282666328" flag="0"/>
      <psa10 value="0.0314716764" flag="0"/>
      <psa30 value="0.0034418439" flag="0"/>
    </comp>
    <comp name="--.HHN">
      <acc value="0.4008895794" flag="0"/>
      <vel value="0.1189484162" flag="0"/>
      <psa03 value="1.1502201611" flag="0"/>
      <psa10 value="0.0581311253" flag="0"/>
      <psa30 value="0.0037959327" flag="0"/>
    </comp>
    <comp name="--.HHZ">
      <acc value="0.1900034662" flag="0"/>
      <vel value="0.0551856263" flag="0"/>
      <psa03 value="0.3577358909" flag="0"/>
      <psa10 value="0.0266748900" flag="0"/>
      <psa30 value="0.0021816245" flag="0"/>
    </comp>
  </station>
  <station code="PAIG" name="PAIG" netid="HT" insttype="100" lat="39.9363" lon="23.6768">
    <comp name="--.HHE">
      <acc value="0.3608701060" flag="0"/>
      <vel value="0.1087865376" flag="0"/>
      <psa03 value="0.7418275363" flag="0"/>
      <psa10 value="0.0563026893" flag="0"/>
      <psa30 value="0.0051445979" flag="0"/>
    </comp>
    <comp name="--.HHZ">
      <acc value="0.3643917199" flag="0"/>
      <vel value="0.1170559605" flag="0"/>
      <psa03 value="0.9422943924" flag="0"/>
      <psa10 value="0.0890568091" flag="0"/>
      <psa30 value="0.0040456613" flag="0"/>
    </comp>
    <comp name="--.HHN">
      <acc value="0.2768014972" flag="0"/>
      <vel value="0.1044979433" flag="0"/>
      <psa03 value="0.3610926241" flag="0"/>
      <psa10 value="0.1204255244" flag="0"/>
      <psa30 value="0.0064107727" flag="0"/>
    </comp>
  </station>
  <station code="SRS" name="SRS" netid="HT" insttype="100" lat="41.1087" lon="23.595">
    <comp name="--.HHE">
      <acc value="0.0520491535" flag="0"/>
      <vel value="0.0170989070" flag="0"/>
      <psa03 value="0.0974089445" flag="0"/>
      <psa10 value="0.0110141536" flag="0"/>
      <psa30 value="0.0011433713" flag="0"/>
    </comp>
    <comp name="--.HHN">
      <acc value="0.0561069877" flag="0"/>
      <vel value="0.0207379140" flag="0"/>
      <psa03 value="0.1134378201" flag="0"/>
      <psa10 value="0.0121163727" flag="0"/>
      <psa30 value="0.0006522540" flag="0"/>
    </comp>
    <comp name="--.HHZ">
      <acc value="0.0329289130" flag="0"/>
      <vel value="0.0119860381" flag="0"/>
      <psa03 value="0.0704853104" flag="0"/>
      <psa10 value="0.0073475857" flag="0"/>
      <psa30 value="0.0007345973" flag="0"/>
    </comp>
  </station>
  <station code="THAS" name="THAS" netid="HT" insttype="100" lat="40.6064" lon="24.7194">
    <comp name="--.HHE">
      <acc value="0.0564387694" flag="0"/>
      <vel value="0.0192797575" flag="0"/>
      <psa03 value="0.0752515940" flag="0"/>
      <psa10 value="0.0124654157" flag="0"/>
      <psa30 value="0.0011293000" flag="0"/>
    </comp>
    <comp name="--.HHZ">
      <acc value="0.0551037673" flag="0"/>
      <vel value="0.0175697717" flag="0"/>
      <psa03 value="0.1402936250" flag="0"/>
      <psa10 value="0.0133767373" flag="0"/>
      <psa30 value="0.0008452318" flag="0"/>
    </comp>
    <comp name="--.HHN">
      <acc value="0.0917985037" flag="0"/>
      <vel value="0.0300479836" flag="0"/>
      <psa03 value="0.1541089179" flag="0"/>
      <psa10 value="0.0168418606" flag="0"/>
      <psa30 value="0.0011487571" flag="0"/>
    </comp>
  </station>
  <station code="THE" name="THE" netid="HT" insttype="30s-100Hz," lat="40.6319" lon="22.9628">
    <comp name="--.HHN">
      <acc value="0.0387995998" flag="0"/>
      <vel value="0.0178763678" flag="0"/>
      <psa03 value="0.1065731112" flag="0"/>
      <psa10 value="0.0094826317" flag="0"/>
      <psa30 value="0.0011665128" flag="0"/>
    </comp>
    <comp name="--.HHZ">
      <acc value="0.0348876662" flag="0"/>
      <vel value="0.0188319379" flag="0"/>
      <psa03 value="0.1000958331" flag="0"/>
      <psa10 value="0.0136840897" flag="0"/>
      <psa30 value="0.0012544243" flag="0"/>
    </comp>
    <comp name="--.HHE">
      <acc value="0.0363692863" flag="0"/>
      <vel value="0.0150886693" flag="0"/>
      <psa03 value="0.0649124716" flag="0"/>
      <psa10 value="0.0087023342" flag="0"/>
      <psa30 value="0.0010951224" flag="0"/>
    </comp>
  </station>
  <station code="TYRN" name="TYRN" netid="HT" insttype="120P," lat="39.711" lon="22.2325">
    <comp name="--.HHN">
      <acc value="0.0165556048" flag="0"/>
      <vel value="0.0098653161" flag="0"/>
      <psa03 value="0.0560624611" flag="0"/>
      <psa10 value="0.0137382029" flag="0"/>
      <psa30 value="0.0010924070" flag="0"/>
    </comp>
    <comp name="--.HHZ">
      <acc value="0.0121756472" flag="0"/>
      <vel value="0.0079000109" flag="0"/>
      <psa03 value="0.0328747043" flag="0"/>
      <psa10 value="0.0083730140" flag="0"/>
      <psa30 value="0.0008173657" flag="0"/>
    </comp>
    <comp name="--.HHE">
      <acc value="0.0171705942" flag="0"/>
      <vel value="0.0086299308" flag="0"/>
      <psa03 value="0.0559695058" flag="0"/>
      <psa10 value="0.0074472110" flag="0"/>
      <psa30 value="0.0005580661" flag="0"/>
    </comp>
  </station>
  <station code="XOR" name="XOR" netid="HT" insttype="Compact," lat="39.366" lon="23.1918">
    <comp name="--.HHE">
      <acc value="0.0238992781" flag="0"/>
      <vel value="0.0127917502" flag="0"/>
      <psa03 value="0.1016641192" flag="0"/>
      <psa10 value="0.0040883714" flag="0"/>
      <psa30 value="0.0005146955" flag="0"/>
    </comp>
    <comp name="--.HHZ">
      <acc value="0.0241307633" flag="0"/>
      <vel value="0.0123273995" flag="0"/>
