<?xml version="1.0" encoding="UTF-8" standalone="yes"?>
<!DOCTYPE earthquake SYSTEM "stationlist.dtd">
<stationlist created="" xmlns="ch.ethz.sed.shakemap.usgs.xml">
  <station code="DRA2" name="DRA2" netid="HI" insttype="CMG-5TD,ACCELEROMETER,GURALP" lat="41.1593" lon="24.1485">
    <comp name="--.HNE">
      <acc value="0.0875547705" flag="0"/>
      <vel value="0.0337521802" flag="0"/>
      <psa03 value="0.1919222421" flag="0"/>
      <psa10 value="0.0137385489" flag="0"/>
      <psa30 value="0.0011084870" flag="0"/>
    </comp>
    <comp name="--.HNN">
      <acc value="0.0721078103" flag="0"/>
      <vel value="0.0230024803" flag="0"/>
      <psa03 value="0.1771546228" flag="0"/>
      <psa10 value="0.0101676913" flag="0"/>
      <psa30 value="0.0009266206" flag="0"/>
    </comp>
    <comp name="--.HNZ">
      <acc value="0.0676367924" flag="0"/>
      <vel value="0.0184477156" flag="0"/>
      <psa03 value="0.0735997293" flag="0"/>
      <psa10 value="0.0104367166" flag="0"/>
      <psa30 value="0.0009249570" flag="0"/>
    </comp>
  </station>
  <station code="PLN1" name="PLN1" netid="HI" insttype="CMG-5TD,ACCELEROMETER,GURALP" lat="39.998" lon="23.575">
    <comp name="--.HNE">
      <acc value="2.6325278476" flag="0"/>
      <vel value="1.2499344023" flag="0"/>
      <psa03 value="6.9047761576" flag="0"/>
      <psa10 value="0.4468363578" flag="0"/>
      <psa30 value="0.0437066258" flag="0"/>
    </comp>
    <comp name="--.HNN">
      <acc value="2.4580507412" flag="0"/>
      <vel value="1.7013080612" flag="0"/>
      <psa03 value="7.5301496169" flag="0"/>
      <psa10 value="0.8219885479" flag="0"/>
      <psa30 value="0.0580549302" flag="0"/>
    </comp>
    <comp name="--.HNZ">
      <acc value="0.7000937238" flag="0"/>
      <vel value="0.3139127684" flag="0"/>
      <psa03 value="1.3256338096" flag="0"/>
      <psa10 value="0.1742039279" flag="0"/>
      <psa30 value="0.0140178852" flag="0"/>
    </comp>
  </station>
  <station code="VOL2" name="VOL2" netid="HI" insttype="CMG-5TD,ACCELEROMETER,GURALP" lat="39.366" lon="22.9506">
    <comp name="--.HNZ">
      <acc value="0.0291576152" flag="0"/>
      <vel value="0.0145619061" flag="0"/>
      <psa03 value="0.0955734386" flag="0"/>
      <psa10 value="0.0083301359" flag="0"/>
      <psa30 value="0.0005922639" flag="0"/>
    </comp>
    <comp name="--.HNN">
      <acc value="0.0724316397" flag="0"/>
      <vel value="0.0418161926" flag="0"/>
      <psa03 value="0.2673090213" flag="0"/>
      <psa10 value="0.0329883635" flag="0"/>
      <psa30 value="0.0020580089" flag="0"/>
    </comp>
    <comp name="--.HNE">
      <acc value="0.0925742602" flag="0"/>
      <vel value="0.0511712400" flag="0"/>
      <psa03 value="0.3194723760" flag="0"/>
      <psa10 value="0.0190764457" flag="0"/>
      <psa30 value="0.0014994832" flag="0"/>
    </comp>
  </station>
  <station code="GINA" name="GINA" netid="HL" insttype="CMG-5" lat="39.6689" lon="22.389">
    <comp name="00.HNN">
      <acc value="0.0460520877" flag="0"/>
      <vel value="0.0301944832" flag="0"/>
      <psa03 value="0.1050056337" flag="0"/>
      <psa10 value="0.0530657962" flag="0"/>
      <psa30 value="0.0040233559" flag="0"/>
    </comp>
    <comp name="00.HNE">
      <acc value="0.0371015991" flag="0"/>
      <vel value="0.0274885728" flag="0"/>
      <psa03 value="0.1034871771" flag="0"/>
      <psa10 value="0.0240066175" flag="0"/>
      <psa30 value="0.0020122279" flag="0"/>
    </comp>
    <comp name="00.HNZ">
      <acc value="0.0256246992" flag="0"/>
      <vel value="0.0142389512" flag="0"/>
      <psa03 value="0.0579527077" flag="0"/>
      <psa10 value="0.0191452273" flag="0"/>
      <psa30 value="0.0011285240" flag="0"/>
    </comp>
  </station>
  <station code="KVLA" name="KVLA" netid="HL" insttype="CMG-5" lat="40.937" lon="24.3859">
    <comp name="00.HNN">
      <acc value="0.1704364693" flag="0"/>
      <vel value="0.0590490672" flag="0"/>
      <psa03 value="0.2136265908" flag="0"/>
      <psa10 value="0.0218901624" flag="0"/>
      <psa30 value="0.0016651329" flag="0"/>
    </comp>
    <comp name="00.HNZ">
      <acc value="0.1472150772" flag="0"/>
      <vel value="0.0482763484" flag="0"/>
      <psa03 value="0.2132809627" flag="0"/>
      <psa10 value="0.0202075209" flag="0"/>
      <psa30 value="0.0015315056" flag="0"/>
    </comp>
    <comp name="00.HNE">
      <acc value="0.0690393457" flag="0"/>
      <vel value="0.0335373757" flag="0"/>
      <psa03 value="0.2092906238" flag="0"/>
      <psa10 value="0.0210257755" flag="0"/>
      <psa30 value="0.0014113403" flag="0"/>
    </comp>
  </station>
  <station code="KZN" name="KZN" netid="HL" insttype="120" lat="40.3033" lon="21.7821">
    <comp name="--.HHZ">
      <acc value="0.0051051006" flag="0"/>
      <vel value="0.0029503568" flag="0"/>
      <psa03 value="0.0196750972" flag="0"/>
      <psa10 value="0.0035246504" flag="0"/>
      <psa30 value="0.0002484849" flag="0"/>
    </comp>
    <comp name="--.HHE">
      <acc value="0.0103394502" flag="0"/>
      <vel value="0.0055439682" flag="0"/>
      <psa03 value="0.0358351932" flag="0"/>
      <psa10 value="0.0038979183" flag="0"/>
      <psa30 value="0.0002424413" flag="0"/>
    </comp>
    <comp name="--.HHN">
      <acc value="0.0089924634" flag="0"/>
      <vel value="0.0057887091" flag="0"/>
      <psa03 value="0.0250731309" flag="0"/>
      <psa10 value="0.0063497213" flag="0"/>
      <psa30 value="0.0003759828" flag="0"/>
    </comp>
  </station>
  <station code="NEO" name="NEO" netid="HL" insttype="120" lat="39.3057" lon="23.2219">
    <comp name="--.HHE">
      <acc value="0.0675742746" flag="0"/>
      <vel value="0.0305569732" flag="0"/>
      <psa03 value="0.1991803719" flag="0"/>
      <psa10 value="0.0139546910" flag="0"/>
      <psa30 value="0.0011078870" flag="0"/>
    </comp>
    <comp name="--.HHN">
      <acc value="0.0461441979" flag="0"/>
      <vel value="0.0274171590" flag="0"/>
      <psa03 value="0.1342285310" flag="0"/>
      <psa10 value="0.0148110334" flag="0"/>
      <psa30 value="0.0010727240" flag="0"/>
    </comp>
    <comp name="--.HHZ">
      <acc value="0.0213275198" flag="0"/>
      <vel value="0.0113250903" flag="0"/>
      <psa03 value="0.0580360531" flag="0"/>
      <psa10 value="0.0097198065" flag="0"/>
      <psa30 value="0.0005902745" flag="0"/>
    </comp>
  </station>
  <station code="PLG" name="PLG" netid="HL" insttype="120" lat="40.3733" lon="23.4444">
    <comp name="--.HHE">
      <acc value="0.6989432480" flag="0"/>
      <vel value="0.2503648053" flag="0"/>
      <psa03 value="1.2277675635" flag="0"/>
      <psa10 value="0.1656165567" flag="0"/>
      <psa30 value="0.0127529838" flag="0"/>
    </comp>
    <comp name="--.HHZ">
      <acc value="0.5490699708" flag="0"/>
      <vel value="0.1508699381" flag="0"/>
      <psa03 value="0.8193318997" flag="0"/>
      <psa10 value="0.0585296115" flag="0"/>
      <psa30 value="0.0041491910" flag="0"/>
    </comp>
    <comp name="--.HHN">
      <acc value="0.5195048030" flag="0"/>
      <vel value="0.2335007774" flag="0"/>
      <psa03 value="0.6977271951" flag="0"/>
      <psa10 value="0.1713085472" flag="0"/>
      <psa30 value="0.0109434461" flag="0"/>
    </comp>
  </station>
  <station code="THL" name="THL" netid="HL" insttype="120" lat="39.5647" lon="22.0144">
    <comp name="--.HHE">
      <acc value="0.0038520126" flag="0"/>
      <vel value="0.0031022014" flag="0"/>
      <psa03 value="0.0103074075" flag="0"/>
      <psa10 value="0.0032864543" flag="0"/>
      <psa30 value="0.0004724467" flag="0"/>
    </comp>
    <comp name="--.HHN">
      <acc value="0.0049876407" flag="0"/>
      <vel value="0.0040703491" flag="0"/>
      <psa03 value="0.0128269991" flag="0"/>
      <psa10 value="0.0034865609" flag="0"/>
      <psa30 value="0.0003782786" flag="0"/>
    </comp>
    <comp name="--.HHZ">
      <acc value="0.0036156280" flag="0"/>
      <vel value="0.0025466222" flag="0"/>
      <psa03 value="0.0139541387" flag="0"/>
      <psa10 value="0.0020851010" flag="0"/>
      <psa30 value="0.0003499317" flag="0"/>
    </comp>
  </station>
  <station code="AOS2" name="AOS2" netid="HT" insttype="100" lat="39.1478" lon="23.8436">
    <comp name="--.HHN">
      <acc value="0.0177420224" flag="0"/>
      <vel value="0.0127625495" flag="0"/>
      <psa03 value="0.0735106514" flag="0"/>
      <psa10 value="0.0166432190" flag="0"/>
      <psa30 value="0.0007916392" flag="0"/>
    </comp>
    <comp name="--.HHZ">
      <acc value="0.0115488615" flag="0"/>
      <vel value="0.0066941261" flag="0"/>
      <psa03 value="0.0475117627" flag="0"/>
      <psa10 value="0.0062505942" flag="0"/>
      <psa30 value="0.0004722783" flag="0"/>
    </comp>
    <comp name="--.HHE">
      <acc value="0.0124083026" flag="0"/>
      <vel value="0.0099018544" flag="0"/>
      <psa03 value="0.0429136835" flag="0"/>
      <psa10 value="0.0112452412" flag="0"/>
      <psa30 value="0.0008207185" flag="0"/>
    </comp>
  </station>
  <station code="GRG" name="GRG" netid="HT" insttype="100" lat="40.957" lon="22.401">
    <comp name="--.HHE">
      <acc value="0.0759430430" flag="0"/>
      <vel value="0.0351775422" flag="0"/>
      <psa03 value="0.2154441717" flag="0"/>
      <psa10 value="0.0375707362" flag="0"/>
      <psa30 value="0.0018056262" flag="0"/>
    </comp>
    <comp name="--.HHN">
      <acc value="0.0998086956" flag="0"/>
      <vel value="0.0475830829" flag="0"/>
      <psa03 value="0.2885042265" flag="0"/>
      <psa10 value="0.0412957058" flag="0"/>
      <psa30 value="0.0030018836" flag="0"/>
    </comp>
    <comp name="--.HHZ">
      <acc value="0.0518913684" flag="0"/>
      <vel value="0.0320952597" flag="0"/>
      <psa03 value="0.1657490133" flag="0"/>
      <psa10 value="0.0260847727" flag="0"/>
      <psa30 value="0.0019564337" flag="0"/>
    </comp>
  </station>
  <station code="HORT" name="HORT" netid="HT" insttype="100" lat="40.5978" lon="23.0996">
    <comp name="--.HHN">
      <acc value="0.0000142025" flag="0"/>
      <vel value="0.0000020179" flag="0"/>
      <psa03 value="0.0000108924" flag="0"/>
      <psa10 value="0.0000030077" flag="0"/>
      <psa30 value="0.0000004618" flag="0"/>
    </comp>
    <comp name="--.HHZ">
      <acc value="0.0874671604" flag="0"/>
      <vel value="0.0397756979" flag="0"/>
      <psa03 value="0.1441154506" flag="0"/>
      <psa10 value="0.0183428614" flag="0"/>
      <psa30 value="0.0014772443" flag="0"/>
    </comp>
    <comp name="--.HHE">
      <acc value="0.1298291400" flag="0"/>
      <vel value="0.0539010983" flag="0"/>
      <psa03 value="0.2645579267" flag="0"/>
      <psa10 value="0.0231158792" flag="0"/>
      <psa30 value="0.0016222779" flag="0"/>
    </comp>
  </station>
  <station code="KAVA" name="KAVA" netid="HT" insttype="Compact," lat="40.9967" lon="24.5137">
    <comp name="--.HHZ">
      <acc value="0.1000145249" flag="0"/>
      <vel value="0.0379368012" flag="0"/>
      <psa03 value="0.2120543432" flag="0"/>
      <psa10 value="0.0162761363" flag="0"/>
      <psa30 value="0.0013930456" flag="0"/>
    </comp>
    <comp name="--.HHN">
      <acc value="0.1248230406" flag="0"/>
      <vel value="0.0439864038" flag="0"/>
      <psa03 value="0.2401106766" flag="0"/>
      <psa10 value="0.0215822920" flag="0"/>
      <psa30 value="0.0020799245" flag="0"/>
    </comp>
    <comp name="--.HHE">
      <acc value="0.1035209912" flag="0"/>
      <vel value="0.0391393659" flag="0"/>
      <psa03 value="0.1690489121" flag="0"/>
      <psa10 value="0.0260215219" flag="0"/>
      <psa30 value="0.0018097950" flag="0"/>
    </comp>
  </station>
  <station code="KNT" name="KNT" netid="HT" insttype="100" lat="41.162" lon="22.898">
    <comp name="--.HHZ">
      <acc value="0.0302169363" flag="0"/>
      <vel value="0.0142669820" flag="0"/>
      <psa03 value="0.0718014382" flag="0"/>
      <psa10 value="0.0091668547" flag="0"/>
      <psa30 value="0.0007508999" flag="0"/>
    </comp>
    <comp name="--.HHE">
      <acc value="0.0413625661" flag="0"/>
      <vel value="0.0135799412" flag="0"/>
      <psa03 value="0.0681389098" flag="0"/>
      <psa10 value="0.0137822729" flag="0"/>
      <psa30 value="0.0010861836" flag="0"/>
    </comp>
    <comp name="--.HHN">
      <acc value="0.0351925859" flag="0"/>
      <vel value="0.0092832817" flag="0"/>
      <psa03 value="0.0544837321" flag="0"/>
      <psa10 value="0.0100430435" flag="0"/>
      <psa30 value="0.0007625446" flag="0"/>
    </comp>
  </station>
  <station code="KOKK" name="KOKK" netid="HT" insttype="Compact," lat="40.8178" lon="23.9992">
    <comp name="--.HHE">
      <acc value="0.1101543291" flag="0"/>
      <vel value="0.0735884376" flag="0"/>
      <psa03 value="0.3718702926" flag="0"/>
      <psa10 value="0.0788341963" flag="0"/>
      <psa30 value="0.0034372487" flag="0"/>
    </comp>
    <comp name="--.HHN">
      <acc value="0.1565987384" flag="0"/>
      <vel value="0.0812664877" flag="0"/>
      <psa03 value="0.2430240992" flag="0"/>
      <psa10 value="0.0645881659" flag="0"/>
      <psa30 value="0.0029616140" flag="0"/>
    </comp>
    <comp name="--.HHZ">
      <acc value="0.0693269932" flag="0"/>
      <vel value="0.0333298285" flag="0"/>
      <psa03 value="0.1918836346" flag="0"/>
      <psa10 value="0.0381129804" flag="0"/>
      <psa30 value="0.0016820710" flag="0"/>
    </comp>
  </station>
  <station code="LIT" name="LIT" netid="HT" insttype="100" lat="40.1033" lon="22.4892">
    <comp name="--.HHZ">
      <acc value="0.0180092626" flag="0"/>
      <vel value="0.0066914932" flag="0"/>
      <psa03 value="0.0420007060" flag="0"/>
      <psa10 value="0.0096103741" flag="0"/>
      <psa30 value="0.0005905335" flag="0"/>
    </comp>
    <comp name="--.HHN">
      <acc value="0.0410238566" flag="0"/>
      <vel value="0.0163667380" flag="0"/>
      <psa03 value="0.1004358613" flag="0"/>
      <psa10 value="0.0082687923" flag="0"/>
      <psa30 value="0.0007665225" flag="0"/>
    </comp>
    <comp name="--.HHE">
      <acc value="0.0350668095" flag="0"/>
      <vel value="0.0135594562" flag="0"/>
      <psa03 value="0.0899380467" flag="0"/>
      <psa10 value="0.0078511623" flag="0"/>
      <psa30 value="0.0008353841" flag="0"/>
    </comp>
  </station>
  <station code="NESN" name="NESN" netid="HT" insttype="1s-100Hz," lat="39.7267" lon="22.5399">
    <comp name="--.HHN">
      <acc value="0.0827986750" flag="0"/>
      <vel value="0.0546308114" flag="0"/>
      <psa03 value="0.2333817106" flag="0"/>
      <psa10 value="0.0854081234" flag="0"/>
      <psa30 value="0.0038662738" flag="0"/>
    </comp>
    <comp name="--.HHZ">
      <acc value="0.0744252892" flag="0"/>
      <vel value="0.0342623735" flag="0"/>
      <psa03 value="0.2220830821" flag="0"/>
      <psa10 value="0.0254774513" flag="0"/>
      <psa30 value="0.0023731945" flag="0"/>
    </comp>
    <comp name="--.HHE">
      <acc value="0.0947991065" flag="0"/>
      <vel value="0.0667211464" flag="0"/>
      <psa03 value="0.2981090755" flag="0"/>
      <psa10 value="0.0467308355" flag="0"/>
      <psa30 value="0.0028875905" flag="0"/>
    </comp>
  </station>
  <station code="OUR" name="OUR" netid="HT" insttype="100" lat="40.3325" lon="23.9791">
    <comp name="--.HHZ">
      <acc value="0.1900034662" flag="0"/>
      <vel value="0.0551856264" flag="0"/>
      <psa03 value="0.3577358909" flag="0"/>
      <psa10 value="0.0266748898" flag="0"/>
      <psa30 value="0.0021815762" flag="0"/>
    </comp>
    <comp name="--.HHN">
      <acc value="0.4008895794" flag="0"/>
      <vel value="0.1189484174" flag="0"/>
      <psa03 value="1.1502201611" flag="0"/>
      <psa10 value="0.0581311246" flag="0"/>
      <psa30 value="0.0037957193" flag="0"/>
    </comp>
    <comp name="--.HHE">
      <acc value="0.4518872747" flag="0"/>
      <vel value="0.1355557175" flag="0"/>
      <psa03 value="1.2282666328" flag="0"/>
      <psa10 value="0.0314716765" flag="0"/>
      <psa30 value="0.0034418354" flag="0"/>
    </comp>
  </station>
  <station code="PAIG" name="PAIG" netid="HT" insttype="100" lat="39.9363" lon="23.6768">
    <comp name="--.HHN">
      <acc value="0.2768014972" flag="0"/>
      <vel value="0.1044979438" flag="0"/>
      <psa03 value="0.3610926241" flag="0"/>
      <psa10 value="0.1204255241" flag="0"/>
      <psa30 value="0.0064109130" flag="0"/>
    </comp>
    <comp name="--.HHE">
      <acc value="0.3608701060" flag="0"/>
      <vel value="0.1087865376" flag="0"/>
      <psa03 value="0.7418275363" flag="0"/>
      <psa10 value="0.0563026891" flag="0"/>
      <psa30 value="0.0051444851" flag="0"/>
    </comp>
    <comp name="--.HHZ">
      <acc value="0.3643917199" flag="0"/>
      <vel value="0.1170559614" flag="0"/>
      <psa03 value="0.9422943924" flag="0"/>
      <psa10 value="0.0890568087" flag="0"/>
      <psa30 value="0.0040454965" flag="0"/>
    </comp>
  </station>
  <station code="SRS" name="SRS" netid="HT" insttype="100" lat="41.1087" lon="23.595">
    <comp name="--.HHN">
      <acc value="0.0561069878" flag="0"/>
      <vel value="0.0207379141" flag="0"/>
      <psa03 value="0.1134378201" flag="0"/>
      <psa10 value="0.0121163727" flag="0"/>
      <psa30 value="0.0006522749" flag="0"/>
    </comp>
    <comp name="--.HHE">
      <acc value="0.0520491535" flag="0"/>
      <vel value="0.0170989067" flag="0"/>
      <psa03 value="0.0974089445" flag="0"/>
      <psa10 value="0.0110141536" flag="0"/>
      <psa30 value="0.0011433738" flag="0"/>
    </comp>
    <comp name="--.HHZ">
      <acc value="0.0329289130" flag="0"/>
      <vel value="0.0119860382" flag="0"/>
      <psa03 value="0.0704853104" flag="0"/>
      <psa10 value="0.0073475857" flag="0"/>
      <psa30 value="0.0007346017" flag="0"/>
    </comp>
  </station>
  <station code="THAS" name="THAS" netid="HT" insttype="100" lat="40.6064" lon="24.7194">
    <comp name="--.HHZ">
      <acc value="0.0551037673" flag="0"/>
      <vel value="0.0175697721" flag="0"/>
      <psa03 value="0.1402936250" flag="0"/>
      <psa10 value="0.0133767373" flag="0"/>
      <psa30 value="0.0008452450" flag="0"/>
    </comp>
    <comp name="--.HHN">
      <acc value="0.0917985037" flag="0"/>
      <vel value="0.0300479837" flag="0"/>
      <psa03 value="0.1541089179" flag="0"/>
      <psa10 value="0.0168418606" flag="0"/>
      <psa30 value="0.0011487543" flag="0"/>
    </comp>
    <comp name="--.HHE">
      <acc value="0.0564387694" flag="0"/>
      <vel value="0.0192797571" flag="0"/>
      <psa03 value="0.0752515940" flag="0"/>
      <psa10 value="0.0124654157" flag="0"/>
      <psa30 value="0.0011292806" flag="0"/>
    </comp>
  </station>
  <station code="THE" name="THE" netid="HT" insttype="30s-100Hz," lat="40.6319" lon="22.9628">
    <comp name="--.HHE">
      <acc value="0.0363692862" flag="0"/>
      <vel value="0.0150886711" flag="0"/>
      <psa03 value="0.0649124716" flag="0"/>
      <psa10 value="0.0087023342" flag="0"/>
      <psa30 value="0.0010951214" flag="0"/>
    </comp>
    <comp name="--.HHZ">
      <acc value="0.0348876662" flag="0"/>
      <vel value="0.0188319355" flag="0"/>
      <psa03 value="0.1000958331" flag="0"/>
      <psa10 value="0.0136840896" flag="0"/>
      <psa30 value="0.0012544101" flag="0"/>
    </comp>
    <comp name="--.HHN">
      <acc value="0.0387995998" flag="0"/>
      <vel value="0.0178763707" flag="0"/>
      <psa03 value="0.1065731112" flag="0"/>
      <psa10 value="0.0094826317" flag="0"/>
      <psa30 value="0.0011665021" flag="0"/>
    </comp>
  </station>
  <station code="TYRN" name="TYRN" netid="HT" insttype="120P," lat="39.711" lon="22.2325">
    <comp name="--.HHE">
      <acc value="0.0171705942" flag="0"/>
      <vel value="0.0086299306" flag="0"/>
      <psa03 value="0.0559695058" flag="0"/>
      <psa10 value="0.0074472110" flag="0"/>
      <psa30 value="0.0005580692" flag="0"/>
    </comp>
    <comp name="--.HHN">
      <acc value="0.0165556048" flag="0"/>
      <vel value="0.0098653161" flag="0"/>
