<?xml version="1.0" encoding="UTF-8" standalone="yes"?>
<!DOCTYPE earthquake SYSTEM "stationlist.dtd">
<stationlist created="" xmlns="ch.ethz.sed.shakemap.usgs.xml">
  <station code="DRA2" name="DRA2" netid="HI" insttype="CMG-5TD,ACCELEROMETER,GURALP" lat="41.1593" lon="24.1485">
    <comp name="--.HNN">
      <acc value="0.0721078095" flag="0"/>
      <vel value="0.0230024816" flag="0"/>
      <psa03 value="0.1771546228" flag="0"/>
      <psa10 value="0.0101676915" flag="0"/>
      <psa30 value="0.0009267966" flag="0"/>
    </comp>
    <comp name="--.HNZ">
      <acc value="0.0676367931" flag="0"/>
      <vel value="0.0184477169" flag="0"/>
      <psa03 value="0.0735997293" flag="0"/>
      <psa10 value="0.0104367166" flag="0"/>
      <psa30 value="0.0009248702" flag="0"/>
    </comp>
    <comp name="--.HNE">
      <acc value="0.0875547718" flag="0"/>
      <vel value="0.0337521793" flag="0"/>
      <psa03 value="0.1919222421" flag="0"/>
      <psa10 value="0.0137385487" flag="0"/>
      <psa30 value="0.0011085289" flag="0"/>
    </comp>
  </station>
  <station code="PLN1" name="PLN1" netid="HI" insttype="CMG-5TD,ACCELEROMETER,GURALP" lat="39.998" lon="23.575">
    <comp name="--.HNE">
      <acc value="2.6325278462" flag="0"/>
      <vel value="1.2499344009" flag="0"/>
      <psa03 value="6.9047761576" flag="0"/>
      <psa10 value="0.4468364110" flag="0"/>
      <psa30 value="0.0437064886" flag="0"/>
    </comp>
    <comp name="--.HNZ">
      <acc value="0.7000937239" flag="0"/>
      <vel value="0.3139127711" flag="0"/>
      <psa03 value="1.3256338096" flag="0"/>
      <psa10 value="0.1742039721" flag="0"/>
      <psa30 value="0.0140169776" flag="0"/>
    </comp>
    <comp name="--.HNN">
      <acc value="2.4580507428" flag="0"/>
      <vel value="1.7013080587" flag="0"/>
      <psa03 value="7.5301496169" flag="0"/>
      <psa10 value="0.8219885189" flag="0"/>
      <psa30 value="0.0580545433" flag="0"/>
    </comp>
  </station>
  <station code="VOL2" name="VOL2" netid="HI" insttype="CMG-5TD,ACCELEROMETER,GURALP" lat="39.366" lon="22.9506">
    <comp name="--.HNE">
      <acc value="0.0925742585" flag="0"/>
      <vel value="0.0511712357" flag="0"/>
      <psa03 value="0.3194723760" flag="0"/>
      <psa10 value="0.0190764457" flag="0"/>
      <psa30 value="0.0014995332" flag="0"/>
    </comp>
    <comp name="--.HNN">
      <acc value="0.0724316395" flag="0"/>
      <vel value="0.0418161934" flag="0"/>
      <psa03 value="0.2673090213" flag="0"/>
      <psa10 value="0.0329883627" flag="0"/>
      <psa30 value="0.0020583651" flag="0"/>
    </comp>
    <comp name="--.HNZ">
      <acc value="0.0291576149" flag="0"/>
      <vel value="0.0145619029" flag="0"/>
      <psa03 value="0.0955734386" flag="0"/>
      <psa10 value="0.0083301357" flag="0"/>
      <psa30 value="0.0005930408" flag="0"/>
    </comp>
  </station>
  <station code="GINA" name="GINA" netid="HL" insttype="CMG-5" lat="39.6689" lon="22.389">
    <comp name="00.HNE">
      <acc value="0.0371015998" flag="0"/>
      <vel value="0.0274885722" flag="0"/>
      <psa03 value="0.1034871771" flag="0"/>
      <psa10 value="0.0240066175" flag="0"/>
      <psa30 value="0.0020121387" flag="0"/>
    </comp>
    <comp name="00.HNN">
      <acc value="0.0460520868" flag="0"/>
      <vel value="0.0301944786" flag="0"/>
      <psa03 value="0.1050056337" flag="0"/>
      <psa10 value="0.0530657963" flag="0"/>
      <psa30 value="0.0040228906" flag="0"/>
    </comp>
    <comp name="00.HNZ">
      <acc value="0.0256246992" flag="0"/>
      <vel value="0.0142389517" flag="0"/>
      <psa03 value="0.0579527077" flag="0"/>
      <psa10 value="0.0191452273" flag="0"/>
      <psa30 value="0.0011284512" flag="0"/>
    </comp>
  </station>
  <station code="KVLA" name="KVLA" netid="HL" insttype="CMG-5" lat="40.937" lon="24.3859">
    <comp name="00.HNN">
      <acc value="0.1704364691" flag="0"/>
      <vel value="0.0590490685" flag="0"/>
      <psa03 value="0.2136265908" flag="0"/>
      <psa10 value="0.0218901623" flag="0"/>
      <psa30 value="0.0016663231" flag="0"/>
    </comp>
    <comp name="00.HNZ">
      <acc value="0.1472150767" flag="0"/>
      <vel value="0.0482763497" flag="0"/>
      <psa03 value="0.2132809627" flag="0"/>
      <psa10 value="0.0202075209" flag="0"/>
      <psa30 value="0.0015312777" flag="0"/>
    </comp>
    <comp name="00.HNE">
      <acc value="0.0690393448" flag="0"/>
      <vel value="0.0335373752" flag="0"/>
      <psa03 value="0.2092906238" flag="0"/>
      <psa10 value="0.0210257757" flag="0"/>
      <psa30 value="0.0014113911" flag="0"/>
    </comp>
  </station>
  <station code="KZN" name="KZN" netid="HL" insttype="120" lat="40.3033" lon="21.7821">
    <comp name="--.HHN">
      <acc value="0.0089924633" flag="0"/>
      <vel value="0.0057887090" flag="0"/>
      <psa03 value="0.0250731309" flag="0"/>
      <psa10 value="0.0063497213" flag="0"/>
      <psa30 value="0.0003759830" flag="0"/>
    </comp>
    <comp name="--.HHZ">
      <acc value="0.0051051006" flag="0"/>
      <vel value="0.0029503562" flag="0"/>
      <psa03 value="0.0196750972" flag="0"/>
      <psa10 value="0.0035246504" flag="0"/>
      <psa30 value="0.0002484768" flag="0"/>
    </comp>
    <comp name="--.HHE">
      <acc value="0.0103394502" flag="0"/>
      <vel value="0.0055439688" flag="0"/>
      <psa03 value="0.0358351932" flag="0"/>
      <psa10 value="0.0038979183" flag="0"/>
      <psa30 value="0.0002424375" flag="0"/>
    </comp>
  </station>
  <station code="NEO" name="NEO" netid="HL" insttype="120" lat="39.3057" lon="23.2219">
    <comp name="--.HHN">
      <acc value="0.0461441978" flag="0"/>
      <vel value="0.0274171603" flag="0"/>
      <psa03 value="0.1342285310" flag="0"/>
      <psa10 value="0.0148110332" flag="0"/>
      <psa30 value="0.0010730541" flag="0"/>
    </comp>
    <comp name="--.HHE">
      <acc value="0.0675742745" flag="0"/>
      <vel value="0.0305569745" flag="0"/>
      <psa03 value="0.1991803719" flag="0"/>
      <psa10 value="0.0139546911" flag="0"/>
      <psa30 value="0.0011078844" flag="0"/>
    </comp>
    <comp name="--.HHZ">
      <acc value="0.0213275198" flag="0"/>
      <vel value="0.0113250945" flag="0"/>
      <psa03 value="0.0580360531" flag="0"/>
      <psa10 value="0.0097198062" flag="0"/>
      <psa30 value="0.0005905874" flag="0"/>
    </comp>
  </station>
  <station code="PLG" name="PLG" netid="HL" insttype="120" lat="40.3733" lon="23.4444">
    <comp name="--.HHE">
      <acc value="0.6989432477" flag="0"/>
      <vel value="0.2503648044" flag="0"/>
      <psa03 value="1.2277675635" flag="0"/>
      <psa10 value="0.1656165576" flag="0"/>
      <psa30 value="0.0127530932" flag="0"/>
    </comp>
    <comp name="--.HHN">
      <acc value="0.5195048026" flag="0"/>
      <vel value="0.2335007787" flag="0"/>
      <psa03 value="0.6977271951" flag="0"/>
      <psa10 value="0.1713085447" flag="0"/>
      <psa30 value="0.0109437458" flag="0"/>
    </comp>
    <comp name="--.HHZ">
      <acc value="0.5490699708" flag="0"/>
      <vel value="0.1508699376" flag="0"/>
      <psa03 value="0.8193318997" flag="0"/>
      <psa10 value="0.0585296113" flag="0"/>
      <psa30 value="0.0041491071" flag="0"/>
    </comp>
  </station>
  <station code="THL" name="THL" netid="HL" insttype="120" lat="39.5647" lon="22.0144">
    <comp name="--.HHZ">
      <acc value="0.0036156280" flag="0"/>
      <vel value="0.0025466232" flag="0"/>
      <psa03 value="0.0139541387" flag="0"/>
      <psa10 value="0.0020851010" flag="0"/>
      <psa30 value="0.0003499246" flag="0"/>
    </comp>
    <comp name="--.HHN">
      <acc value="0.0049876407" flag="0"/>
      <vel value="0.0040703488" flag="0"/>
      <psa03 value="0.0128269991" flag="0"/>
      <psa10 value="0.0034865609" flag="0"/>
      <psa30 value="0.0003782763" flag="0"/>
    </comp>
    <comp name="--.HHE">
      <acc value="0.0038520126" flag="0"/>
      <vel value="0.0031022008" flag="0"/>
      <psa03 value="0.0103074075" flag="0"/>
      <psa10 value="0.0032864543" flag="0"/>
      <psa30 value="0.0004724380" flag="0"/>
    </comp>
  </station>
  <station code="GRG" name="GRG" netid="HT" insttype="100" lat="40.957" lon="22.401">
    <comp name="--.HHZ">
      <acc value="0.0518913686" flag="0"/>
      <vel value="0.0320952593" flag="0"/>
      <psa03 value="0.1657490133" flag="0"/>
      <psa10 value="0.0260847727" flag="0"/>
      <psa30 value="0.0019565209" flag="0"/>
    </comp>
    <comp name="--.HHN">
      <acc value="0.0998086963" flag="0"/>
      <vel value="0.0475830907" flag="0"/>
      <psa03 value="0.2885042265" flag="0"/>
      <psa10 value="0.0412957058" flag="0"/>
      <psa30 value="0.0030019431" flag="0"/>
    </comp>
    <comp name="--.HHE">
      <acc value="0.0759430429" flag="0"/>
      <vel value="0.0351775390" flag="0"/>
      <psa03 value="0.2154441717" flag="0"/>
      <psa10 value="0.0375707362" flag="0"/>
      <psa30 value="0.0018057264" flag="0"/>
    </comp>
  </station>
  <station code="HORT" name="HORT" netid="HT" insttype="100" lat="40.5978" lon="23.0996">
    <comp name="--.HHE">
      <acc value="0.1298291402" flag="0"/>
      <vel value="0.0539010974" flag="0"/>
      <psa03 value="0.2645579267" flag="0"/>
      <psa10 value="0.0231158790" flag="0"/>
      <psa30 value="0.0016220008" flag="0"/>
    </comp>
    <comp name="--.HHN">
      <acc value="0.0000142024" flag="0"/>
      <vel value="0.0000020179" flag="0"/>
      <psa03 value="0.0000109002" flag="0"/>
      <psa10 value="0.0000030078" flag="0"/>
      <psa30 value="0.0000004146" flag="0"/>
    </comp>
    <comp name="--.HHZ">
      <acc value="0.0874671605" flag="0"/>
      <vel value="0.0397756968" flag="0"/>
      <psa03 value="0.1441154506" flag="0"/>
      <psa10 value="0.0183428612" flag="0"/>
      <psa30 value="0.0014773476" flag="0"/>
    </comp>
  </station>
  <station code="KAVA" name="KAVA" netid="HT" insttype="Compact," lat="40.9967" lon="24.5137">
    <comp name="--.HHZ">
      <acc value="0.1000145252" flag="0"/>
      <vel value="0.0379368038" flag="0"/>
      <psa03 value="0.2120543432" flag="0"/>
      <psa10 value="0.0162761363" flag="0"/>
      <psa30 value="0.0013932425" flag="0"/>
    </comp>
    <comp name="--.HHE">
      <acc value="0.1035209912" flag="0"/>
      <vel value="0.0391393654" flag="0"/>
      <psa03 value="0.1690489121" flag="0"/>
      <psa10 value="0.0260215218" flag="0"/>
      <psa30 value="0.0018098983" flag="0"/>
    </comp>
    <comp name="--.HHN">
      <acc value="0.1248230407" flag="0"/>
      <vel value="0.0439864028" flag="0"/>
      <psa03 value="0.2401106766" flag="0"/>
      <psa10 value="0.0215822920" flag="0"/>
      <psa30 value="0.0020800224" flag="0"/>
    </comp>
  </station>
  <station code="KNT" name="KNT" netid="HT" insttype="100" lat="41.162" lon="22.898">
    <comp name="--.HHE">
      <acc value="0.0413625660" flag="0"/>
      <vel value="0.0135799409" flag="0"/>
      <psa03 value="0.0681389098" flag="0"/>
      <psa10 value="0.0137822729" flag="0"/>
      <psa30 value="0.0010861812" flag="0"/>
    </comp>
    <comp name="--.HHN">
      <acc value="0.0351925859" flag="0"/>
      <vel value="0.0092832814" flag="0"/>
      <psa03 value="0.0544837321" flag="0"/>
      <psa10 value="0.0100430434" flag="0"/>
      <psa30 value="0.0007625230" flag="0"/>
    </comp>
    <comp name="--.HHZ">
      <acc value="0.0302169363" flag="0"/>
      <vel value="0.0142669819" flag="0"/>
      <psa03 value="0.0718014382" flag="0"/>
      <psa10 value="0.0091668547" flag="0"/>
      <psa30 value="0.0007508954" flag="0"/>
    </comp>
  </station>
  <station code="KOKK" name="KOKK" netid="HT" insttype="Compact," lat="40.8178" lon="23.9992">
    <comp name="--.HHE">
      <acc value="0.1101543292" flag="0"/>
      <vel value="0.0735884384" flag="0"/>
      <psa03 value="0.3718702926" flag="0"/>
      <psa10 value="0.0788341965" flag="0"/>
      <psa30 value="0.0034371692" flag="0"/>
    </comp>
    <comp name="--.HHN">
      <acc value="0.1565987384" flag="0"/>
      <vel value="0.0812664871" flag="0"/>
      <psa03 value="0.2430240992" flag="0"/>
      <psa10 value="0.0645881656" flag="0"/>
      <psa30 value="0.0029615791" flag="0"/>
    </comp>
    <comp name="--.HHZ">
      <acc value="0.0693269932" flag="0"/>
      <vel value="0.0333298277" flag="0"/>
      <psa03 value="0.1918836346" flag="0"/>
      <psa10 value="0.0381129802" flag="0"/>
      <psa30 value="0.0016821321" flag="0"/>
    </comp>
  </station>
  <station code="LIT" name="LIT" netid="HT" insttype="100" lat="40.1033" lon="22.4892">
    <comp name="--.HHN">
      <acc value="0.0410238565" flag="0"/>
      <vel value="0.0163667386" flag="0"/>
      <psa03 value="0.1004358613" flag="0"/>
      <psa10 value="0.0082687922" flag="0"/>
      <psa30 value="0.0007665398" flag="0"/>
    </comp>
    <comp name="--.HHZ">
      <acc value="0.0180092627" flag="0"/>
      <vel value="0.0066914939" flag="0"/>
      <psa03 value="0.0420007060" flag="0"/>
      <psa10 value="0.0096103741" flag="0"/>
      <psa30 value="0.0005905348" flag="0"/>
    </comp>
    <comp name="--.HHE">
      <acc value="0.0350668096" flag="0"/>
      <vel value="0.0135594551" flag="0"/>
      <psa03 value="0.0899380467" flag="0"/>
      <psa10 value="0.0078511623" flag="0"/>
      <psa30 value="0.0008353843" flag="0"/>
    </comp>
  </station>
  <station code="NESN" name="NESN" netid="HT" insttype="1s-100Hz," lat="39.7267" lon="22.5399">
    <comp name="--.HHE">
      <acc value="0.0947991071" flag="0"/>
      <vel value="0.0667209314" flag="0"/>
      <psa03 value="0.2981090749" flag="0"/>
      <psa10 value="0.0467308349" flag="0"/>
      <psa30 value="0.0028875476" flag="0"/>
    </comp>
    <comp name="--.HHN">
      <acc value="0.0827986794" flag="0"/>
      <vel value="0.0546292756" flag="0"/>
      <psa03 value="0.2333817149" flag="0"/>
      <psa10 value="0.0854081277" flag="0"/>
      <psa30 value="0.0038657850" flag="0"/>
    </comp>
    <comp name="--.HHZ">
      <acc value="0.0744252804" flag="0"/>
      <vel value="0.0342597822" flag="0"/>
      <psa03 value="0.2220830736" flag="0"/>
      <psa10 value="0.0254774439" flag="0"/>
      <psa30 value="0.0023728448" flag="0"/>
    </comp>
  </station>
  <station code="OUR" name="OUR" netid="HT" insttype="100" lat="40.3325" lon="23.9791">
    <comp name="--.HHZ">
      <acc value="0.1900034664" flag="0"/>
      <vel value="0.0551856243" flag="0"/>
      <psa03 value="0.3577358909" flag="0"/>
      <psa10 value="0.0266748906" flag="0"/>
      <psa30 value="0.0021818662" flag="0"/>
    </comp>
    <comp name="--.HHN">
      <acc value="0.4008895794" flag="0"/>
      <vel value="0.1189484159" flag="0"/>
      <psa03 value="1.1502201611" flag="0"/>
      <psa10 value="0.0581311268" flag="0"/>
      <psa30 value="0.0037966294" flag="0"/>
    </comp>
    <comp name="--.HHE">
      <acc value="0.4518872745" flag="0"/>
      <vel value="0.1355557204" flag="0"/>
      <psa03 value="1.2282666328" flag="0"/>
      <psa10 value="0.0314716755" flag="0"/>
      <psa30 value="0.0034418860" flag="0"/>
    </comp>
  </station>
  <station code="PAIG" name="PAIG" netid="HT" insttype="100" lat="39.9363" lon="23.6768">
    <comp name="--.HHZ">
      <acc value="0.3643917198" flag="0"/>
      <vel value="0.1170559584" flag="0"/>
      <psa03 value="0.9422943924" flag="0"/>
      <psa10 value="0.0890568100" flag="0"/>
      <psa30 value="0.0040464485" flag="0"/>
    </comp>
    <comp name="--.HHE">
      <acc value="0.3608701059" flag="0"/>
      <vel value="0.1087865379" flag="0"/>
      <psa03 value="0.7418275363" flag="0"/>
      <psa10 value="0.0563026887" flag="0"/>
      <psa30 value="0.0051451021" flag="0"/>
    </comp>
    <comp name="--.HHN">
      <acc value="0.2768014972" flag="0"/>
      <vel value="0.1044979421" flag="0"/>
      <psa03 value="0.3610926241" flag="0"/>
      <psa10 value="0.1204255237" flag="0"/>
      <psa30 value="0.0064099833" flag="0"/>
    </comp>
  </station>
  <station code="SRS" name="SRS" netid="HT" insttype="100" lat="41.1087" lon="23.595">
    <comp name="--.HHN">
      <acc value="0.0561069876" flag="0"/>
      <vel value="0.0207379149" flag="0"/>
      <psa03 value="0.1134378201" flag="0"/>
      <psa10 value="0.0121163726" flag="0"/>
      <psa30 value="0.0006521864" flag="0"/>
    </comp>
    <comp name="--.HHE">
      <acc value="0.0520491535" flag="0"/>
      <vel value="0.0170989076" flag="0"/>
      <psa03 value="0.0974089445" flag="0"/>
      <psa10 value="0.0110141536" flag="0"/>
      <psa30 value="0.0011433570" flag="0"/>
    </comp>
    <comp name="--.HHZ">
      <acc value="0.0329289129" flag="0"/>
      <vel value="0.0119860379" flag="0"/>
      <psa03 value="0.0704853104" flag="0"/>
      <psa10 value="0.0073475857" flag="0"/>
      <psa30 value="0.0007345789" flag="0"/>
    </comp>
  </station>
  <station code="THAS" name="THAS" netid="HT" insttype="100" lat="40.6064" lon="24.7194">
    <comp name="--.HHZ">
      <acc value="0.0551037674" flag="0"/>
      <vel value="0.0175697708" flag="0"/>
      <psa03 value="0.1402936250" flag="0"/>
      <psa10 value="0.0133767373" flag="0"/>
      <psa30 value="0.0008451914" flag="0"/>
    </comp>
    <comp name="--.HHN">
      <acc value="0.0917985038" flag="0"/>
      <vel value="0.0300479828" flag="0"/>
      <psa03 value="0.1541089179" flag="0"/>
      <psa10 value="0.0168418606" flag="0"/>
      <psa30 value="0.0011487802" flag="0"/>
    </comp>
    <comp name="--.HHE">
      <acc value="0.0564387695" flag="0"/>
      <vel value="0.0192797592" flag="0"/>
      <psa03 value="0.0752515940" flag="0"/>
      <psa10 value="0.0124654158" flag="0"/>
      <psa30 value="0.0011293532" flag="0"/>
    </comp>
  </station>
  <station code="THE" name="THE" netid="HT" insttype="30s-100Hz," lat="40.6319" lon="22.9628">
    <comp name="--.HHZ">
      <acc value="0.0348876662" flag="0"/>
      <vel value="0.0188319347" flag="0"/>
      <psa03 value="0.1000958331" flag="0"/>
      <psa10 value="0.0136840899" flag="0"/>
      <psa30 value="0.0012544659" flag="0"/>
    </comp>
    <comp name="--.HHE">
      <acc value="0.0363692863" flag="0"/>
      <vel value="0.0150886697" flag="0"/>
      <psa03 value="0.0649124716" flag="0"/>
      <psa10 value="0.0087023343" flag="0"/>
      <psa30 value="0.0010951337" flag="0"/>
    </comp>
    <comp name="--.HHN">
      <acc value="0.0387995997" flag="0"/>
      <vel value="0.0178763722" flag="0"/>
      <psa03 value="0.1065731112" flag="0"/>
      <psa10 value="0.0094826318" flag="0"/>
      <psa30 value="0.0011665805" flag="0"/>
    </comp>
  </station>
  <station code="TYRN" name="TYRN" netid="HT" insttype="120P," lat="39.711" lon="22.2325">
    <comp name="--.HHE">
      <acc value="0.0171705942" flag="0"/>
      <vel value="0.0086299317" flag="0"/>
      <psa03 value="0.0559695058" flag="0"/>
      <psa10 value="0.0074472110" flag="0"/>
      <psa30 value="0.0005580557" flag="0"/>
    </comp>
    <comp name="--.HHZ">
      <acc value="0.0121756473" flag="0"/>
      <vel value="0.0079000105" flag="0"/>
      <psa03 value="0.0328747043" flag="0"/>
      <psa10 value="0.0083730140" flag="0"/>
      <psa30 value="0.0008173441" flag="0"/>
    </comp>
    <comp name="--.HHN">
      <acc value="0.0165556048" flag="0"/>
      <vel value="0.0098653171" flag="0"/>
      <psa03 value="0.0560624611" flag="0"/>
      <psa10 value="0.0137382029" flag="0"/>
      <psa30 value="0.0010923379" flag="0"/>
    </comp>
  </station>
  <station code="XOR" name="XOR" netid="HT" insttype="Compact," lat="39.366" lon="23.1918">
    <comp name="--.HHN">
      <acc value="0.0375689327" flag="0"/>
      <vel value="0.0228703852" flag="0"/>
      <psa03 value="0.1648268661" flag="0"/>
      <psa10 value="0.0122938346" flag="0"/>
      <psa30 value="0.0010175648" flag="0"/>
    </comp>
    <comp name="--.HHE">
      <acc value="0.0238992781" flag="0"/>
      <vel value="0.0127917468" flag="0"/>
