<?xml version="1.0" encoding="UTF-8" standalone="yes"?>
<!DOCTYPE earthquake SYSTEM "stationlist.dtd">
<stationlist created="" xmlns="ch.ethz.sed.shakemap.usgs.xml">
  <station code="GVD" name="GVD" netid="GE" insttype="STS-2/N" lat="34.8391" lon="24.0874">
    <comp name="--.HHE">
      <acc value="0.0941609773" flag="0"/>
      <vel value="0.0318322507" flag="0"/>
      <psa03 value="0.2322771583" flag="0"/>
      <psa10 value="0.0146482853" flag="0"/>
      <psa30 value="0.0011559969" flag="0"/>
    </comp>
    <comp name="--.HHN">
      <acc value="0.0856502246" flag="0"/>
      <vel value="0.0305552793" flag="0"/>
      <psa03 value="0.2393129331" flag="0"/>
      <psa10 value="0.0141077225" flag="0"/>
      <psa30 value="0.0010853900" flag="0"/>
    </comp>
    <comp name="--.HHZ">
      <acc value="0.0693846486" flag="0"/>
      <vel value="0.0188057807" flag="0"/>
      <psa03 value="0.0764835023" flag="0"/>
      <psa10 value="0.0068265496" flag="0"/>
      <psa30 value="0.0003949726" flag="0"/>
    </comp>
  </station>
  <station code="IMMV" name="IMMV" netid="GE" insttype="STS-2/N" lat="35.4606" lon="23.9811">
    <comp name="--.HHN">
      <acc value="0.0173036257" flag="0"/>
      <vel value="0.0072035487" flag="0"/>
      <psa03 value="0.0621442024" flag="0"/>
      <psa10 value="0.0066823631" flag="0"/>
      <psa30 value="0.0006188894" flag="0"/>
    </comp>
    <comp name="--.HHZ">
      <acc value="0.0118846270" flag="0"/>
      <vel value="0.0073961802" flag="0"/>
      <psa03 value="0.0345770079" flag="0"/>
      <psa10 value="0.0065677049" flag="0"/>
      <psa30 value="0.0003879504" flag="0"/>
    </comp>
    <comp name="--.HHE">
      <acc value="0.0158802638" flag="0"/>
      <vel value="0.0063455226" flag="0"/>
      <psa03 value="0.0328551534" flag="0"/>
      <psa10 value="0.0090002757" flag="0"/>
      <psa30 value="0.0006170941" flag="0"/>
    </comp>
  </station>
  <station code="GVDS" name="GVDS" netid="HC" insttype="60" lat="34.8389" lon="24.0585">
    <comp name="--.HHN">
      <acc value="0.0940143654" flag="0"/>
      <vel value="0.0238743379" flag="0"/>
      <psa03 value="0.1938743650" flag="0"/>
      <psa10 value="0.0086633743" flag="0"/>
      <psa30 value="0.0008210276" flag="0"/>
    </comp>
    <comp name="--.HHE">
      <acc value="0.1007254062" flag="0"/>
      <vel value="0.0257864800" flag="0"/>
      <psa03 value="0.1901680855" flag="0"/>
      <psa10 value="0.0109817968" flag="0"/>
      <psa30 value="0.0006400456" flag="0"/>
    </comp>
    <comp name="--.HHZ">
      <acc value="0.0510149755" flag="0"/>
      <vel value="0.0102100729" flag="0"/>
      <psa03 value="0.0610885241" flag="0"/>
      <psa10 value="0.0066613801" flag="0"/>
      <psa30 value="0.0004110767" flag="0"/>
    </comp>
  </station>
  <station code="GVD" name="GVD" netid="HL" insttype="120" lat="34.8391" lon="24.0874">
    <comp name="--.HHE">
      <acc value="0.0928776179" flag="0"/>
      <vel value="0.0312847306" flag="0"/>
      <psa03 value="0.2262482663" flag="0"/>
      <psa10 value="0.0144495858" flag="0"/>
      <psa30 value="0.0011392205" flag="0"/>
    </comp>
    <comp name="--.HHN">
      <acc value="0.0839406655" flag="0"/>
      <vel value="0.0297694382" flag="0"/>
      <psa03 value="0.2321577675" flag="0"/>
      <psa10 value="0.0139011027" flag="0"/>
      <psa30 value="0.0010673392" flag="0"/>
    </comp>
    <comp name="--.HHZ">
      <acc value="0.0691433079" flag="0"/>
      <vel value="0.0183260945" flag="0"/>
      <psa03 value="0.0743029252" flag="0"/>
      <psa10 value="0.0067458996" flag="0"/>
      <psa30 value="0.0003909079" flag="0"/>
    </comp>
  </station>
  <station code="IMMV" name="IMMV" netid="HL" insttype="120" lat="35.4606" lon="23.9811">
    <comp name="--.HHE">
      <acc value="0.0157265550" flag="0"/>
      <vel value="0.0062110900" flag="0"/>
      <psa03 value="0.0319151308" flag="0"/>
      <psa10 value="0.0089421217" flag="0"/>
      <psa30 value="0.0006126487" flag="0"/>
    </comp>
    <comp name="--.HHN">
      <acc value="0.0168364330" flag="0"/>
      <vel value="0.0070310745" flag="0"/>
      <psa03 value="0.0603768518" flag="0"/>
      <psa10 value="0.0066584672" flag="0"/>
      <psa30 value="0.0006187697" flag="0"/>
    </comp>
    <comp name="--.HHZ">
      <acc value="0.0116307431" flag="0"/>
      <vel value="0.0072718523" flag="0"/>
      <psa03 value="0.0336810015" flag="0"/>
      <psa10 value="0.0065036432" flag="0"/>
      <psa30 value="0.0003838767" flag="0"/>
    </comp>
  </station>
  <station code="SIVA" name="SIVA" netid="HL" insttype="60" lat="35.0178" lon="24.812">
    <comp name="--.HHZ">
      <acc value="0.2745774879" flag="0"/>
      <vel value="0.0666694408" flag="0"/>
      <psa03 value="0.2233020263" flag="0"/>
      <psa10 value="0.0140407901" flag="0"/>
      <psa30 value="0.0010716970" flag="0"/>
    </comp>
    <comp name="--.HHE">
      <acc value="0.5691839569" flag="0"/>
      <vel value="0.1746215828" flag="0"/>
      <psa03 value="0.7358449384" flag="0"/>
      <psa10 value="0.0784572289" flag="0"/>
      <psa30 value="0.0039160448" flag="0"/>
    </comp>
    <comp name="--.HHN">
      <acc value="0.4839102513" flag="0"/>
      <vel value="0.1125975721" flag="0"/>
      <psa03 value="0.3655982437" flag="0"/>
      <psa10 value="0.0302518183" flag="0"/>
      <psa30 value="0.0024064543" flag="0"/>
    </comp>
  </station>
  <station code="VAM" name="VAM" netid="HL" insttype="CMG3ESPC-120s" lat="35.407" lon="24.1997">
    <comp name="--.HHE">
      <acc value="0.0482546660" flag="0"/>
      <vel value="0.0151800517" flag="0"/>
      <psa03 value="0.0579565623" flag="0"/>
      <psa10 value="0.0085355106" flag="0"/>
      <psa30 value="0.0005074557" flag="0"/>
    </comp>
    <comp name="--.HHN">
      <acc value="0.0635429352" flag="0"/>
      <vel value="0.0172270359" flag="0"/>
      <psa03 value="0.1109633446" flag="0"/>
      <psa10 value="0.0077630491" flag="0"/>
      <psa30 value="0.0004506202" flag="0"/>
    </comp>
    <comp name="--.HHZ">
      <acc value="0.0208393694" flag="0"/>
      <vel value="0.0059708953" flag="0"/>
      <psa03 value="0.0437153125" flag="0"/>
      <psa10 value="0.0038953793" flag="0"/>
      <psa30 value="0.0002895323" flag="0"/>
    </comp>
  </station>
</stationlist>
