<stationlist created="1778136063">
	<station code="KTHA" name="KTHA" netid="GE" source="GEOFON" insttype="" lat="36.2566" lon="23.0621">
		<comp name="--.HNE" depth="0.0">
			<acc value="0.00261143042382013" flag="0"/>
			<vel value="0.00566367763183018" flag="0"/>
			<psa03 value="0.00599545568684842" flag="0"/>
			<psa10 value="0.00550866047884162" flag="0"/>
			<psa30 value="0.00326797077139857" flag="0"/>
		</comp>
		<comp name="--.HNN" depth="0.0">
			<acc value="0.00166973670069782" flag="0"/>
			<vel value="0.00167576479990362" flag="0"/>
			<psa03 value="0.00313195446327902" flag="0"/>
			<psa10 value="0.00238789156721716" flag="0"/>
			<psa30 value="0.000944060559645534" flag="0"/>
		</comp>
		<comp name="--.HNZ" depth="0.0">
			<acc value="0.00194948127246379" flag="0"/>
			<vel value="0.00372129125824056" flag="0"/>
			<psa03 value="0.0038030875625531" flag="0"/>
			<psa10 value="0.00404693258862268" flag="0"/>
			<psa30 value="0.00249527286310102" flag="0"/>
		</comp>
	</station>
</stationlist>
