<?xml version="1.0" encoding="UTF-8" standalone="yes"?>
<!DOCTYPE earthquake SYSTEM "stationlist.dtd">
<stationlist created="" xmlns="ch.ethz.sed.shakemap.usgs.xml">
  <station code="MSBI" name="MSBI" netid="GE" insttype="FBA-EST/10.0" lat="31.3126" lon="35.358">
    <comp name="--.HLE">
      <acc value="0.0115718069" flag="0"/>
      <vel value="0.0026722077" flag="0"/>
      <psa03 value="0.0102892098" flag="0"/>
      <psa10 value="0.0017657478" flag="0"/>
      <psa30 value="0.0001195184" flag="0"/>
    </comp>
    <comp name="--.HLZ">
      <acc value="0.0081217103" flag="0"/>
      <vel value="0.0020555479" flag="0"/>
      <psa03 value="0.0165320718" flag="0"/>
      <psa10 value="0.0017444340" flag="0"/>
      <psa30 value="0.0001724213" flag="0"/>
    </comp>
    <comp name="--.HLN">
      <acc value="0.0102961699" flag="0"/>
      <vel value="0.0024514680" flag="0"/>
      <psa03 value="0.0117034020" flag="0"/>
      <psa10 value="0.0025682357" flag="0"/>
      <psa30 value="0.0001219540" flag="0"/>
    </comp>
  </station>
  <station code="SALP" name="SALP" netid="GE" insttype="Trillium-240" lat="32.0686" lon="35.1914">
    <comp name="--.HHZ">
      <acc value="0.2875172149" flag="0"/>
      <vel value="0.0825949702" flag="0"/>
      <psa03 value="0.4771504753" flag="0"/>
      <psa10 value="0.0248879722" flag="0"/>
      <psa30 value="0.0031747738" flag="0"/>
    </comp>
    <comp name="--.HHE">
      <acc value="0.2132640967" flag="0"/>
      <vel value="0.0738672555" flag="0"/>
      <psa03 value="0.2770469081" flag="0"/>
      <psa10 value="0.0269804371" flag="0"/>
      <psa30 value="0.0027491884" flag="0"/>
    </comp>
    <comp name="--.HHN">
      <acc value="0.0210467488" flag="0"/>
      <vel value="0.0045705427" flag="0"/>
      <psa03 value="0.0219368772" flag="0"/>
      <psa10 value="0.0061554925" flag="0"/>
      <psa30 value="0.0013502751" flag="0"/>
    </comp>
  </station>
  <station code="UJAP" name="UJAP" netid="GE" insttype="Trillium-240" lat="31.952" lon="35.4644">
    <comp name="--.HHE">
      <acc value="0.1636587995" flag="0"/>
      <vel value="0.0395872615" flag="0"/>
      <psa03 value="0.2262991436" flag="0"/>
      <psa10 value="0.0147552423" flag="0"/>
      <psa30 value="0.0010979883" flag="0"/>
    </comp>
    <comp name="--.HHZ">
      <acc value="0.0897732890" flag="0"/>
      <vel value="0.0257919409" flag="0"/>
      <psa03 value="0.1228734175" flag="0"/>
      <psa10 value="0.0083421363" flag="0"/>
      <psa30 value="0.0006026632" flag="0"/>
    </comp>
    <comp name="--.HHN">
      <acc value="0.2212511854" flag="0"/>
      <vel value="0.0553189220" flag="0"/>
      <psa03 value="0.2052014617" flag="0"/>
      <psa10 value="0.0136820110" flag="0"/>
      <psa30 value="0.0010081197" flag="0"/>
    </comp>
  </station>
</stationlist>
