<?xml version="1.0" encoding="UTF-8" standalone="yes"?>
<!DOCTYPE earthquake SYSTEM "stationlist.dtd">
<stationlist created="" xmlns="ch.ethz.sed.shakemap.usgs.xml">
  <station code="MSBI" name="MSBI" netid="GE" insttype="FBA-EST/10.0" lat="31.3126" lon="35.358">
    <comp name="--.HLE">
      <acc value="0.0115717990" flag="0"/>
      <vel value="0.0026722078" flag="0"/>
      <psa03 value="0.0102892098" flag="0"/>
      <psa10 value="0.0017657478" flag="0"/>
      <psa30 value="0.0001195125" flag="0"/>
    </comp>
    <comp name="--.HLN">
      <acc value="0.0102961710" flag="0"/>
      <vel value="0.0024514665" flag="0"/>
      <psa03 value="0.0117034020" flag="0"/>
      <psa10 value="0.0025682357" flag="0"/>
      <psa30 value="0.0001218880" flag="0"/>
    </comp>
    <comp name="--.HLZ">
      <acc value="0.0081217075" flag="0"/>
      <vel value="0.0020555479" flag="0"/>
      <psa03 value="0.0165320718" flag="0"/>
      <psa10 value="0.0017444340" flag="0"/>
      <psa30 value="0.0001724214" flag="0"/>
    </comp>
  </station>
  <station code="SALP" name="SALP" netid="GE" insttype="Trillium-240" lat="32.0686" lon="35.1914">
    <comp name="--.HHE">
      <acc value="0.2132640968" flag="0"/>
      <vel value="0.0738672552" flag="0"/>
      <psa03 value="0.2770469081" flag="0"/>
      <psa10 value="0.0269804331" flag="0"/>
      <psa30 value="0.0027491529" flag="0"/>
    </comp>
    <comp name="--.HHN">
      <acc value="0.0235466285" flag="0"/>
      <vel value="0.0053935292" flag="0"/>
      <psa03 value="0.0225495447" flag="0"/>
      <psa10 value="0.0061550922" flag="0"/>
      <psa30 value="0.0018825757" flag="0"/>
    </comp>
    <comp name="--.HHZ">
      <acc value="0.2875172150" flag="0"/>
      <vel value="0.0825949674" flag="0"/>
      <psa03 value="0.4771504753" flag="0"/>
      <psa10 value="0.0248879682" flag="0"/>
      <psa30 value="0.0031756882" flag="0"/>
    </comp>
  </station>
  <station code="UJAP" name="UJAP" netid="GE" insttype="Trillium-240" lat="31.952" lon="35.4644">
    <comp name="--.HHN">
      <acc value="0.2212511854" flag="0"/>
      <vel value="0.0553189227" flag="0"/>
      <psa03 value="0.2052014617" flag="0"/>
      <psa10 value="0.0136820119" flag="0"/>
      <psa30 value="0.0010073720" flag="0"/>
    </comp>
    <comp name="--.HHE">
      <acc value="0.1636587998" flag="0"/>
      <vel value="0.0395872638" flag="0"/>
      <psa03 value="0.2262991436" flag="0"/>
      <psa10 value="0.0147552430" flag="0"/>
      <psa30 value="0.0010978964" flag="0"/>
    </comp>
    <comp name="--.HHZ">
      <acc value="0.0897732890" flag="0"/>
      <vel value="0.0257919411" flag="0"/>
      <psa03 value="0.1228734175" flag="0"/>
      <psa10 value="0.0083421389" flag="0"/>
      <psa30 value="0.0006022380" flag="0"/>
    </comp>
  </station>
</stationlist>
