<?xml version="1.0" encoding="UTF-8" standalone="yes"?>
<!DOCTYPE earthquake SYSTEM "stationlist.dtd">
<stationlist created="" xmlns="ch.ethz.sed.shakemap.usgs.xml">
  <station code="URFA" name="URFA" netid="KO" insttype="CMG-3ESP" lat="37.4409" lon="38.8213">
    <comp name="--.HHE">
      <acc value="0.0959563469" flag="0"/>
      <vel value="0.0319308034" flag="0"/>
      <psa03 value="0.1215463638" flag="0"/>
      <psa10 value="0.0379631124" flag="0"/>
      <psa30 value="0.0082025741" flag="0"/>
    </comp>
    <comp name="--.HHN">
      <acc value="0.1282176105" flag="0"/>
      <vel value="0.0269327620" flag="0"/>
      <psa03 value="0.1109903919" flag="0"/>
      <psa10 value="0.0312828305" flag="0"/>
      <psa30 value="0.0037115979" flag="0"/>
    </comp>
    <comp name="--.HHZ">
      <acc value="0.0575051166" flag="0"/>
      <vel value="0.0204318313" flag="0"/>
      <psa03 value="0.0712921722" flag="0"/>
      <psa10 value="0.0312624557" flag="0"/>
      <psa30 value="0.0047105681" flag="0"/>
    </comp>
  </station>
</stationlist>
