<?xml version="1.0" encoding="UTF-8" standalone="yes"?>
<!DOCTYPE earthquake SYSTEM "stationlist.dtd">
<stationlist created="" xmlns="ch.ethz.sed.shakemap.usgs.xml">
  <station code="CEYT" name="CEYT" netid="KO" insttype="CMG-3ESP" lat="37.0105" lon="35.7478">
    <comp name="--.HHN">
      <acc value="0.0361544086" flag="0"/>
      <vel value="0.0223425831" flag="0"/>
      <psa03 value="0.0935166680" flag="0"/>
      <psa10 value="0.0205878311" flag="0"/>
      <psa30 value="0.0016551531" flag="0"/>
    </comp>
    <comp name="--.HHZ">
      <acc value="0.0240398470" flag="0"/>
      <vel value="0.0115172709" flag="0"/>
      <psa03 value="0.0549790881" flag="0"/>
      <psa10 value="0.0092662600" flag="0"/>
      <psa30 value="0.0008063601" flag="0"/>
    </comp>
    <comp name="--.HHE">
      <acc value="0.0475192029" flag="0"/>
      <vel value="0.0326064964" flag="0"/>
      <psa03 value="0.0903516847" flag="0"/>
      <psa10 value="0.0287785286" flag="0"/>
      <psa30 value="0.0016970686" flag="0"/>
    </comp>
  </station>
</stationlist>
