<?xml version="1.0" encoding="UTF-8" standalone="yes"?>
<!DOCTYPE earthquake SYSTEM "stationlist.dtd">
<stationlist created="" xmlns="ch.ethz.sed.shakemap.usgs.xml">
  <station code="KNSS" name="KNSS" netid="HC" insttype="60" commtype="DIG" lat="35.3042" lon="25.1802">
    <comp name="--.HHE">
      <acc value="0.0000000000" flag="0"/>
      <vel value="-100.0000000000" flag="0"/>
      <psa03 value="0.0000000000" flag="0"/>
      <psa10 value="0.0000000000" flag="0"/>
      <psa30 value="0.0000000000" flag="0"/>
    </comp>
    <comp name="--.HHN">
      <acc value="0.0013424769" flag="0"/>
      <vel value="0.0011536501" flag="0"/>
      <psa03 value="0.0042539166" flag="0"/>
      <psa10 value="0.0016495090" flag="0"/>
      <psa30 value="0.0003332071" flag="0"/>
    </comp>
    <comp name="--.HHZ">
      <acc value="0.0013612430" flag="0"/>
      <vel value="0.0008662317" flag="0"/>
      <psa03 value="0.0023056729" flag="0"/>
      <psa10 value="0.0010313302" flag="0"/>
      <psa30 value="0.0003395154" flag="0"/>
    </comp>
  </station>
  <station code="SIVA" name="SIVA" netid="HL" insttype="60" commtype="DIG" lat="35.0178" lon="24.812">
    <comp name="--.HHE">
      <acc value="0.0068892453" flag="0"/>
      <vel value="0.0061686045" flag="0"/>
      <psa03 value="0.0154908904" flag="0"/>
      <psa10 value="0.0136354420" flag="0"/>
      <psa30 value="0.0006425751" flag="0"/>
    </comp>
    <comp name="--.HHZ">
      <acc value="0.0041673779" flag="0"/>
      <vel value="0.0019925054" flag="0"/>
      <psa03 value="0.0088111727" flag="0"/>
      <psa10 value="0.0039197487" flag="0"/>
      <psa30 value="0.0003290365" flag="0"/>
    </comp>
    <comp name="--.HHN">
      <acc value="0.0050474134" flag="0"/>
      <vel value="0.0040278724" flag="0"/>
      <psa03 value="0.0165827577" flag="0"/>
      <psa10 value="0.0080484650" flag="0"/>
      <psa30 value="0.0007042716" flag="0"/>
    </comp>
  </station>
</stationlist>
