<?xml version="1.0" encoding="UTF-8" standalone="yes"?>
<!DOCTYPE earthquake SYSTEM "stationlist.dtd">
<stationlist created="" xmlns="ch.ethz.sed.shakemap.usgs.xml">
  <station code="CMRD" name="CMRD" netid="KO" insttype="CMG-5T" commtype="DIG" lat="37.6623" lon="34.9902">
    <comp name="--.HNN">
      <acc value="0.0054960834" flag="0"/>
      <vel value="0.0024957665" flag="0"/>
      <psa03 value="0.0117934731" flag="0"/>
      <psa10 value="0.0032016314" flag="0"/>
      <psa30 value="0.0003437511" flag="0"/>
    </comp>
    <comp name="--.HNE">
      <acc value="0.0052296843" flag="0"/>
      <vel value="0.0019988500" flag="0"/>
      <psa03 value="0.0093923987" flag="0"/>
      <psa10 value="0.0024224637" flag="0"/>
      <psa30 value="0.0003027023" flag="0"/>
    </comp>
    <comp name="--.HNZ">
      <acc value="0.0044418041" flag="0"/>
      <vel value="0.0024621877" flag="0"/>
      <psa03 value="0.0105011886" flag="0"/>
      <psa10 value="0.0024255394" flag="0"/>
      <psa30 value="0.0002942577" flag="0"/>
    </comp>
  </station>
  <station code="GAZ" name="GAZ" netid="KO" insttype="CMG-3T" commtype="DIG" lat="37.1721" lon="37.2096">
    <comp name="--.HHZ">
      <acc value="0.0226646137" flag="0"/>
      <vel value="0.0135543367" flag="0"/>
      <psa03 value="0.0575505897" flag="0"/>
      <psa10 value="0.0079525656" flag="0"/>
      <psa30 value="0.0006283753" flag="0"/>
    </comp>
    <comp name="--.HHN">
      <acc value="0.0252988879" flag="0"/>
      <vel value="0.0161621707" flag="0"/>
      <psa03 value="0.0696529680" flag="0"/>
      <psa10 value="0.0175714854" flag="0"/>
      <psa30 value="0.0013075479" flag="0"/>
    </comp>
    <comp name="--.HHE">
      <acc value="0.0328473748" flag="0"/>
      <vel value="0.0235899308" flag="0"/>
      <psa03 value="0.0869950546" flag="0"/>
      <psa10 value="0.0318816252" flag="0"/>
      <psa30 value="0.0015812577" flag="0"/>
    </comp>
  </station>
  <station code="KARA" name="KARA" netid="KO" insttype="CMG-3T" commtype="DIG" lat="37.2607" lon="35.0547">
    <comp name="--.HHZ">
      <acc value="0.0035592676" flag="0"/>
      <vel value="0.0031727242" flag="0"/>
      <psa03 value="0.0100763032" flag="0"/>
      <psa10 value="0.0045621720" flag="0"/>
      <psa30 value="0.0004086295" flag="0"/>
    </comp>
    <comp name="--.HHE">
      <acc value="0.0036121512" flag="0"/>
      <vel value="0.0025700631" flag="0"/>
      <psa03 value="0.0104159274" flag="0"/>
      <psa10 value="0.0032145843" flag="0"/>
      <psa30 value="0.0003056822" flag="0"/>
    </comp>
    <comp name="--.HHN">
      <acc value="0.0039950877" flag="0"/>
      <vel value="0.0033723544" flag="0"/>
      <psa03 value="0.0133422039" flag="0"/>
      <psa10 value="0.0040964295" flag="0"/>
      <psa30 value="0.0003835904" flag="0"/>
    </comp>
  </station>
  <station code="KOZT" name="KOZT" netid="KO" insttype="CMG-3T" commtype="DIG" lat="37.4795" lon="35.8264">
    <comp name="--.HHZ">
      <acc value="0.0366994086" flag="0"/>
      <vel value="0.0189723007" flag="0"/>
      <psa03 value="0.1056173176" flag="0"/>
      <psa10 value="0.0182479231" flag="0"/>
      <psa30 value="0.0016131254" flag="0"/>
    </comp>
    <comp name="--.HHN">
      <acc value="0.0332787894" flag="0"/>
      <vel value="0.0193271967" flag="0"/>
      <psa03 value="0.1040126615" flag="0"/>
      <psa10 value="0.0126385064" flag="0"/>
      <psa30 value="0.0022065884" flag="0"/>
    </comp>
    <comp name="--.HHE">
      <acc value="0.0576627975" flag="0"/>
      <vel value="0.0435739320" flag="0"/>
      <psa03 value="0.2537402883" flag="0"/>
      <psa10 value="0.0418894693" flag="0"/>
      <psa30 value="0.0032440954" flag="0"/>
    </comp>
  </station>
  <station code="NURH" name="NURH" netid="KO" insttype="CMG-6T" commtype="DIG" lat="37.9693" lon="37.4363">
    <comp name="--.HHE">
      <acc value="0.0198607203" flag="0"/>
      <vel value="0.0185223251" flag="0"/>
      <psa03 value="0.0571403632" flag="0"/>
      <psa10 value="0.0202052730" flag="0"/>
      <psa30 value="0.0009600873" flag="0"/>
    </comp>
    <comp name="--.HHN">
      <acc value="0.0325248351" flag="0"/>
      <vel value="0.0167212254" flag="0"/>
      <psa03 value="0.0857231897" flag="0"/>
      <psa10 value="0.0168837243" flag="0"/>
      <psa30 value="0.0008193274" flag="0"/>
    </comp>
    <comp name="--.HHZ">
      <acc value="0.0135957637" flag="0"/>
      <vel value="0.0116402662" flag="0"/>
      <psa03 value="0.0291438726" flag="0"/>
      <psa10 value="0.0159102778" flag="0"/>
      <psa30 value="0.0007596846" flag="0"/>
    </comp>
  </station>
  <station code="SARI" name="SARI" netid="KO" insttype="CMG-3T" commtype="DIG" lat="38.4072" lon="36.4181">
    <comp name="--.HHE">
      <acc value="0.0391492065" flag="0"/>
      <vel value="0.0166158709" flag="0"/>
      <psa03 value="0.0783872971" flag="0"/>
      <psa10 value="0.0138417968" flag="0"/>
      <psa30 value="0.0006389944" flag="0"/>
    </comp>
    <comp name="--.HHN">
      <acc value="0.0349518809" flag="0"/>
      <vel value="0.0148601311" flag="0"/>
      <psa03 value="0.1234770120" flag="0"/>
      <psa10 value="0.0122037943" flag="0"/>
      <psa30 value="0.0008389625" flag="0"/>
    </comp>
    <comp name="--.HHZ">
      <acc value="0.0220848862" flag="0"/>
      <vel value="0.0118566593" flag="0"/>
      <psa03 value="0.0750496131" flag="0"/>
      <psa10 value="0.0107350986" flag="0"/>
      <psa30 value="0.0009227930" flag="0"/>
    </comp>
  </station>
</stationlist>
