<?xml version="1.0" encoding="UTF-8" standalone="yes"?>
<!DOCTYPE earthquake SYSTEM "stationlist.dtd">
<stationlist created="" xmlns="ch.ethz.sed.shakemap.usgs.xml">
  <station code="SARI" name="SARI" netid="KO" insttype="CMG-3T" commtype="DIG" lat="38.4072" lon="36.4181">
    <comp name="--.HHE">
      <acc value="0.0391492063" flag="0"/>
      <vel value="0.0166158705" flag="0"/>
      <psa03 value="0.0783872971" flag="0"/>
      <psa10 value="0.0138417968" flag="0"/>
      <psa30 value="0.0006389965" flag="0"/>
    </comp>
    <comp name="--.HHZ">
      <acc value="0.0220848862" flag="0"/>
      <vel value="0.0118566592" flag="0"/>
      <psa03 value="0.0750496131" flag="0"/>
      <psa10 value="0.0107350986" flag="0"/>
      <psa30 value="0.0009227971" flag="0"/>
    </comp>
    <comp name="--.HHN">
      <acc value="0.0349518809" flag="0"/>
      <vel value="0.0148601314" flag="0"/>
      <psa03 value="0.1234770120" flag="0"/>
      <psa10 value="0.0122037943" flag="0"/>
      <psa30 value="0.0008389335" flag="0"/>
    </comp>
  </station>
</stationlist>
