<?xml version="1.0" encoding="UTF-8" standalone="yes"?>
<!DOCTYPE earthquake SYSTEM "stationlist.dtd">
<stationlist created="" xmlns="ch.ethz.sed.shakemap.usgs.xml">
  <station code="CMRD" name="CMRD" netid="KO" insttype="CMG-5T" commtype="DIG" lat="37.6623" lon="34.9902">
    <comp name="--.HNZ">
      <acc value="0.0044418032" flag="0"/>
      <vel value="0.0024621910" flag="0"/>
      <psa03 value="0.0105011886" flag="0"/>
      <psa10 value="0.0024255392" flag="0"/>
      <psa30 value="0.0002943321" flag="0"/>
    </comp>
    <comp name="--.HNE">
      <acc value="0.0052296856" flag="0"/>
      <vel value="0.0019988457" flag="0"/>
      <psa03 value="0.0093923987" flag="0"/>
      <psa10 value="0.0024224636" flag="0"/>
      <psa30 value="0.0003020980" flag="0"/>
    </comp>
    <comp name="--.HNN">
      <acc value="0.0054960816" flag="0"/>
      <vel value="0.0024957644" flag="0"/>
      <psa03 value="0.0117934731" flag="0"/>
      <psa10 value="0.0032016309" flag="0"/>
      <psa30 value="0.0003436443" flag="0"/>
    </comp>
  </station>
  <station code="GAZ" name="GAZ" netid="KO" insttype="CMG-3T" commtype="DIG" lat="37.1721" lon="37.2096">
    <comp name="--.HHE">
      <acc value="0.0328473743" flag="0"/>
      <vel value="0.0235899307" flag="0"/>
      <psa03 value="0.0869950546" flag="0"/>
      <psa10 value="0.0318816252" flag="0"/>
      <psa30 value="0.0015812627" flag="0"/>
    </comp>
    <comp name="--.HHZ">
      <acc value="0.0226646134" flag="0"/>
      <vel value="0.0135543368" flag="0"/>
      <psa03 value="0.0575505897" flag="0"/>
      <psa10 value="0.0079525656" flag="0"/>
      <psa30 value="0.0006283992" flag="0"/>
    </comp>
  </station>
  <station code="KARA" name="KARA" netid="KO" insttype="CMG-3T" commtype="DIG" lat="37.2607" lon="35.0547">
    <comp name="--.HHE">
      <acc value="0.0036121511" flag="0"/>
      <vel value="0.0025700631" flag="0"/>
      <psa03 value="0.0104159274" flag="0"/>
      <psa10 value="0.0032145843" flag="0"/>
      <psa30 value="0.0003056791" flag="0"/>
    </comp>
    <comp name="--.HHN">
      <acc value="0.0039950879" flag="0"/>
      <vel value="0.0033723543" flag="0"/>
      <psa03 value="0.0133422039" flag="0"/>
      <psa10 value="0.0040964295" flag="0"/>
      <psa30 value="0.0003835987" flag="0"/>
    </comp>
    <comp name="--.HHZ">
      <acc value="0.0035592676" flag="0"/>
      <vel value="0.0031727248" flag="0"/>
      <psa03 value="0.0100763032" flag="0"/>
      <psa10 value="0.0045621720" flag="0"/>
      <psa30 value="0.0004086093" flag="0"/>
    </comp>
  </station>
  <station code="KOZT" name="KOZT" netid="KO" insttype="CMG-3T" commtype="DIG" lat="37.4795" lon="35.8264">
    <comp name="--.HHN">
      <acc value="0.0332787899" flag="0"/>
      <vel value="0.0193271969" flag="0"/>
      <psa03 value="0.1040126615" flag="0"/>
      <psa10 value="0.0126385064" flag="0"/>
      <psa30 value="0.0022066741" flag="0"/>
    </comp>
    <comp name="--.HHE">
      <acc value="0.0576627976" flag="0"/>
      <vel value="0.0435739318" flag="0"/>
      <psa03 value="0.2537402883" flag="0"/>
      <psa10 value="0.0418894694" flag="0"/>
      <psa30 value="0.0032440345" flag="0"/>
    </comp>
    <comp name="--.HHZ">
      <acc value="0.0366994084" flag="0"/>
      <vel value="0.0189723008" flag="0"/>
      <psa03 value="0.1056173176" flag="0"/>
      <psa10 value="0.0182479231" flag="0"/>
      <psa30 value="0.0016131527" flag="0"/>
    </comp>
  </station>
  <station code="NURH" name="NURH" netid="KO" insttype="CMG-6T" commtype="DIG" lat="37.9693" lon="37.4363">
    <comp name="--.HHN">
      <acc value="0.0325248547" flag="0"/>
      <vel value="0.0167212275" flag="0"/>
      <psa03 value="0.0857231897" flag="0"/>
      <psa10 value="0.0168837243" flag="0"/>
      <psa30 value="0.0008192886" flag="0"/>
    </comp>
    <comp name="--.HHE">
      <acc value="0.0198607126" flag="0"/>
      <vel value="0.0185223256" flag="0"/>
      <psa03 value="0.0571403632" flag="0"/>
      <psa10 value="0.0202052730" flag="0"/>
      <psa30 value="0.0009600817" flag="0"/>
    </comp>
    <comp name="--.HHZ">
      <acc value="0.0135957654" flag="0"/>
      <vel value="0.0116402657" flag="0"/>
      <psa03 value="0.0291438726" flag="0"/>
      <psa10 value="0.0159102778" flag="0"/>
      <psa30 value="0.0007596197" flag="0"/>
    </comp>
  </station>
  <station code="SARI" name="SARI" netid="KO" insttype="CMG-3T" commtype="DIG" lat="38.4072" lon="36.4181">
    <comp name="--.HHE">
      <acc value="0.0391492063" flag="0"/>
      <vel value="0.0166158705" flag="0"/>
      <psa03 value="0.0783872971" flag="0"/>
      <psa10 value="0.0138417968" flag="0"/>
      <psa30 value="0.0006389965" flag="0"/>
    </comp>
    <comp name="--.HHZ">
      <acc value="0.0220848862" flag="0"/>
      <vel value="0.0118566592" flag="0"/>
      <psa03 value="0.0750496131" flag="0"/>
      <psa10 value="0.0107350986" flag="0"/>
      <psa30 value="0.0009227971" flag="0"/>
    </comp>
    <comp name="--.HHN">
      <acc value="0.0349518809" flag="0"/>
      <vel value="0.0148601314" flag="0"/>
      <psa03 value="0.1234770120" flag="0"/>
      <psa10 value="0.0122037943" flag="0"/>
      <psa30 value="0.0008389335" flag="0"/>
    </comp>
  </station>
</stationlist>
