<stationlist created="1779737071">
	<station code="CMRD" name="CMRD" netid="KO" source="Bogazici University Kandilli Observatory And Earthquake Research Institute (KOERI)" insttype="" lat="37.6623" lon="34.9902">
		<comp name="--.HNE" depth="0.0">
			<acc value="0.00518802215042751" flag="0"/>
			<vel value="0.00197349165191947" flag="0"/>
			<psa03 value="0.00974119804093789" flag="0"/>
			<psa10 value="0.00239967099767662" flag="0"/>
			<psa30 value="0.000356098407480188" flag="0"/>
		</comp>
		<comp name="--.HNN" depth="0.0">
			<acc value="0.00544638614550448" flag="0"/>
			<vel value="0.00269721738512325" flag="0"/>
			<psa03 value="0.0121449568875394" flag="0"/>
			<psa10 value="0.00322998865839666" flag="0"/>
			<psa30 value="0.000442298935550456" flag="0"/>
		</comp>
		<comp name="--.HNZ" depth="0.0">
			<acc value="0.00422253611827181" flag="0"/>
			<vel value="0.0024494563581223" flag="0"/>
			<psa03 value="0.0106336295559793" flag="0"/>
			<psa10 value="0.00244718101998243" flag="0"/>
			<psa30 value="0.000335971865862249" flag="0"/>
		</comp>
	</station>
	<station code="KHMN" name="KHMN" netid="KO" source="Bogazici University Kandilli Observatory And Earthquake Research Institute (KOERI)" insttype="" lat="37.3916" lon="37.1574">
		<comp name="--.HNE" depth="0.0">
			<acc value="0.0360014202601244" flag="0"/>
			<vel value="0.0157104242102438" flag="0"/>
			<psa03 value="0.0716649818283326" flag="0"/>
			<psa10 value="0.011954347229335" flag="0"/>
			<psa30 value="0.00079120949707946" flag="0"/>
		</comp>
		<comp name="--.HNN" depth="0.0">
			<acc value="0.0242569753427184" flag="0"/>
			<vel value="0.0136518119023029" flag="0"/>
			<psa03 value="0.0567761205143413" flag="0"/>
			<psa10 value="0.0122351592692545" flag="0"/>
			<psa30 value="0.00060831639172549" flag="0"/>
		</comp>
		<comp name="--.HNZ" depth="0.0">
			<acc value="0.0163993995347242" flag="0"/>
			<vel value="0.00689892948140858" flag="0"/>
			<psa03 value="0.0242062910479836" flag="0"/>
			<psa10 value="0.00389023630281277" flag="0"/>
			<psa30 value="0.000532433031491957" flag="0"/>
		</comp>
	</station>
	<station code="KRTS" name="KRTS" netid="KO" source="Bogazici University Kandilli Observatory And Earthquake Research Institute (KOERI)" insttype="" lat="36.573" lon="35.375">
		<comp name="--.HNE" depth="0.0">
			<acc value="0.00255822127932633" flag="0"/>
			<vel value="0.00208655475099412" flag="0"/>
			<psa03 value="0.00497209662960409" flag="0"/>
			<psa10 value="0.00193581905882464" flag="0"/>
			<psa30 value="0.00048159435117889" flag="0"/>
		</comp>
		<comp name="--.HNN" depth="0.0">
			<acc value="0.00259539021541464" flag="0"/>
			<vel value="0.00214178999102256" flag="0"/>
			<psa03 value="0.00604031029716288" flag="0"/>
			<psa10 value="0.00344764792100459" flag="0"/>
			<psa30 value="0.000318831329344159" flag="0"/>
		</comp>
		<comp name="--.HNZ" depth="0.0">
			<acc value="0.00287280814060578" flag="0"/>
			<vel value="0.00154749898833022" flag="0"/>
			<psa03 value="0.00568885732762849" flag="0"/>
			<psa10 value="0.00187138580606287" flag="0"/>
			<psa30 value="0.000648804490529997" flag="0"/>
		</comp>
	</station>
	<station code="NIG" name="NIG" netid="KO" source="Bogazici University Kandilli Observatory And Earthquake Research Institute (KOERI)" insttype="" lat="38.108" lon="34.6142">
		<comp name="--.HNE" depth="0.0">
			<acc value="0.00673754834030676" flag="0"/>
			<vel value="0.0079865475983668" flag="0"/>
			<psa03 value="0.0248513025268285" flag="0"/>
			<psa10 value="0.0136563299773392" flag="0"/>
			<psa30 value="0.00126387768402711" flag="0"/>
		</comp>
		<comp name="--.HNN" depth="0.0">
			<acc value="0.010753368419826" flag="0"/>
			<vel value="0.00765918450839728" flag="0"/>
			<psa03 value="0.0373988811381645" flag="0"/>
			<psa10 value="0.0133235779341494" flag="0"/>
			<psa30 value="0.000817179602888181" flag="0"/>
		</comp>
		<comp name="--.HNZ" depth="0.0">
			<acc value="0.00500531350575649" flag="0"/>
			<vel value="0.00382083439280796" flag="0"/>
			<psa03 value="0.0141352814451067" flag="0"/>
			<psa10 value="0.00773525492267596" flag="0"/>
			<psa30 value="0.000505694281014298" flag="0"/>
		</comp>
	</station>
</stationlist>
