<?xml version="1.0" encoding="UTF-8" standalone="yes"?>
<!DOCTYPE earthquake SYSTEM "stationlist.dtd">
<stationlist created="" xmlns="ch.ethz.sed.shakemap.usgs.xml">
  <station code="ZKR" name="ZKR" netid="GE" insttype="STS-2/N" lat="35.1147" lon="26.2169">
    <comp name="--.HHE">
      <acc value="0.9385421355" flag="0"/>
      <vel value="0.3085874514" flag="0"/>
      <psa03 value="0.7609171792" flag="0"/>
      <psa10 value="0.1638890421" flag="0"/>
      <psa30 value="0.0158649727" flag="0"/>
    </comp>
    <comp name="--.HHN">
      <acc value="0.3195390043" flag="0"/>
      <vel value="0.0846130893" flag="0"/>
      <psa03 value="0.4119958073" flag="0"/>
      <psa10 value="0.0238150518" flag="0"/>
      <psa30 value="0.0045686302" flag="0"/>
    </comp>
    <comp name="--.HHZ">
      <acc value="0.6047620793" flag="0"/>
      <vel value="0.0935351525" flag="0"/>
      <psa03 value="0.5610348928" flag="0"/>
      <psa10 value="0.0773145684" flag="0"/>
      <psa30 value="0.0069156003" flag="0"/>
    </comp>
  </station>
  <station code="IDI" name="IDI" netid="MN" insttype="" lat="35.288" lon="24.89">
    <comp name="--.HHN">
      <acc value="0.0085213638" flag="0"/>
      <vel value="0.0072481786" flag="0"/>
      <psa03 value="0.0225505118" flag="0"/>
      <psa10 value="0.0081077375" flag="0"/>
      <psa30 value="0.0015192307" flag="0"/>
    </comp>
    <comp name="--.HHE">
      <acc value="0.0067120478" flag="0"/>
      <vel value="0.0047127867" flag="0"/>
      <psa03 value="0.0286996785" flag="0"/>
      <psa10 value="0.0084023686" flag="0"/>
      <psa30 value="0.0007761444" flag="0"/>
    </comp>
    <comp name="--.HHZ">
      <acc value="0.0061346336" flag="0"/>
      <vel value="0.0042592466" flag="0"/>
      <psa03 value="0.0171396911" flag="0"/>
      <psa10 value="0.0053760742" flag="0"/>
      <psa30 value="0.0015562349" flag="0"/>
    </comp>
  </station>
</stationlist>
