<?xml version="1.0" encoding="UTF-8" standalone="yes"?>
<!DOCTYPE earthquake SYSTEM "stationlist.dtd">
<stationlist created="" xmlns="ch.ethz.sed.shakemap.usgs.xml">
  <station code="ZKR" name="ZKR" netid="GE" insttype="STS-2/N" lat="35.1147" lon="26.2169">
    <comp name="--.HHE">
      <acc value="0.9385421355" flag="0"/>
      <vel value="0.3085874514" flag="0"/>
      <psa03 value="0.7609171792" flag="0"/>
      <psa10 value="0.1638890421" flag="0"/>
      <psa30 value="0.0158649727" flag="0"/>
    </comp>
    <comp name="--.HHN">
      <acc value="0.3195390043" flag="0"/>
      <vel value="0.0846130893" flag="0"/>
      <psa03 value="0.4119958073" flag="0"/>
      <psa10 value="0.0238150518" flag="0"/>
      <psa30 value="0.0045686302" flag="0"/>
    </comp>
    <comp name="--.HHZ">
      <acc value="0.6047620793" flag="0"/>
      <vel value="0.0935351525" flag="0"/>
      <psa03 value="0.5610348928" flag="0"/>
      <psa10 value="0.0773145684" flag="0"/>
      <psa30 value="0.0069156003" flag="0"/>
    </comp>
  </station>
  <station code="KNSS" name="KNSS" netid="HC" insttype="60" lat="35.3042" lon="25.1802">
    <comp name="--.HHE">
      <acc value="0.0179772599" flag="0"/>
      <vel value="0.0104010262" flag="0"/>
      <psa03 value="0.0366786738" flag="0"/>
      <psa10 value="0.0155478824" flag="0"/>
      <psa30 value="0.0019059765" flag="0"/>
    </comp>
    <comp name="--.HHN">
      <acc value="0.0189178693" flag="0"/>
      <vel value="0.0100216641" flag="0"/>
      <psa03 value="0.0530347308" flag="0"/>
      <psa10 value="0.0096866548" flag="0"/>
      <psa30 value="0.0018728758" flag="0"/>
    </comp>
    <comp name="--.HHZ">
      <acc value="0.0192019386" flag="0"/>
      <vel value="0.0111959559" flag="0"/>
      <psa03 value="0.0439538610" flag="0"/>
      <psa10 value="0.0071639249" flag="0"/>
      <psa30 value="0.0010653243" flag="0"/>
    </comp>
  </station>
  <station code="PFKS" name="PFKS" netid="HC" insttype="120" lat="35.0429" lon="25.4733">
    <comp name="--.HHE">
      <acc value="0.0550904086" flag="0"/>
      <vel value="0.0225164953" flag="0"/>
      <psa03 value="0.2082685047" flag="0"/>
      <psa10 value="0.0140918545" flag="0"/>
      <psa30 value="0.0009862630" flag="0"/>
    </comp>
    <comp name="--.HHN">
      <acc value="0.0385458550" flag="0"/>
      <vel value="0.0224822142" flag="0"/>
      <psa03 value="0.1103531643" flag="0"/>
      <psa10 value="0.0194226741" flag="0"/>
      <psa30 value="0.0020383330" flag="0"/>
    </comp>
    <comp name="--.HHZ">
      <acc value="0.0268722143" flag="0"/>
      <vel value="0.0125048546" flag="0"/>
      <psa03 value="0.0809280111" flag="0"/>
      <psa10 value="0.0128270118" flag="0"/>
      <psa30 value="0.0014581730" flag="0"/>
    </comp>
  </station>
  <station code="STIA" name="STIA" netid="HC" insttype="120" lat="35.2021" lon="26.0909">
    <comp name="--.HHE">
      <acc value="0.6878554938" flag="0"/>
      <vel value="0.2086677439" flag="0"/>
      <psa03 value="1.1999013882" flag="0"/>
      <psa10 value="0.2302751888" flag="0"/>
      <psa30 value="0.0168582454" flag="0"/>
    </comp>
    <comp name="--.HHN">
      <acc value="0.0000069389" flag="0"/>
      <vel value="-100.0000000000" flag="0"/>
      <psa03 value="0.0000000000" flag="0"/>
      <psa10 value="0.0000000000" flag="0"/>
      <psa30 value="0.0000000000" flag="0"/>
    </comp>
    <comp name="--.HHZ">
      <acc value="0.5950440451" flag="0"/>
      <vel value="0.1388613051" flag="0"/>
      <psa03 value="0.7809362769" flag="0"/>
      <psa10 value="0.0820162533" flag="0"/>
      <psa30 value="0.0058635423" flag="0"/>
    </comp>
  </station>
  <station code="IACM" name="IACM" netid="HL" insttype="120" lat="35.3058" lon="25.0709">
    <comp name="--.HHZ">
      <acc value="0.0416427784" flag="0"/>
      <vel value="0.0198808476" flag="0"/>
      <psa03 value="0.0952684165" flag="0"/>
      <psa10 value="0.0316341376" flag="0"/>
      <psa30 value="0.0012027146" flag="0"/>
    </comp>
    <comp name="--.HHN">
      <acc value="0.0494881851" flag="0"/>
      <vel value="0.0439877724" flag="0"/>
      <psa03 value="0.1833846929" flag="0"/>
      <psa10 value="0.0976410032" flag="0"/>
      <psa30 value="0.0036758298" flag="0"/>
    </comp>
    <comp name="--.HHE">
      <acc value="0.0584276101" flag="0"/>
      <vel value="0.0471614084" flag="0"/>
      <psa03 value="0.1721562035" flag="0"/>
      <psa10 value="0.0773736103" flag="0"/>
      <psa30 value="0.0064414117" flag="0"/>
    </comp>
  </station>
  <station code="IDI" name="IDI" netid="HL" insttype="120" lat="35.288" lon="24.89">
    <comp name="--.HHE">
      <acc value="0.0065683353" flag="0"/>
      <vel value="0.0047267102" flag="0"/>
      <psa03 value="0.0283768414" flag="0"/>
      <psa10 value="0.0084791430" flag="0"/>
      <psa30 value="0.0007847281" flag="0"/>
    </comp>
    <comp name="--.HHZ">
      <acc value="0.0059285849" flag="0"/>
      <vel value="0.0042763438" flag="0"/>
      <psa03 value="0.0170013070" flag="0"/>
      <psa10 value="0.0054207821" flag="0"/>
      <psa30 value="0.0015745354" flag="0"/>
    </comp>
    <comp name="--.HHN">
      <acc value="0.0080859889" flag="0"/>
      <vel value="0.0072989884" flag="0"/>
      <psa03 value="0.0223478593" flag="0"/>
      <psa10 value="0.0081692763" flag="0"/>
      <psa30 value="0.0015378458" flag="0"/>
    </comp>
  </station>
  <station code="SIVA" name="SIVA" netid="HL" insttype="60" lat="35.0178" lon="24.812">
    <comp name="--.HHZ">
      <acc value="0.0089838835" flag="0"/>
      <vel value="0.0066565547" flag="0"/>
      <psa03 value="0.0180228950" flag="0"/>
      <psa10 value="0.0045334797" flag="0"/>
      <psa30 value="0.0007953746" flag="0"/>
    </comp>
    <comp name="--.HHN">
      <acc value="0.0113261912" flag="0"/>
      <vel value="0.0094803923" flag="0"/>
      <psa03 value="0.0274395729" flag="0"/>
      <psa10 value="0.0152066354" flag="0"/>
      <psa30 value="0.0017715443" flag="0"/>
    </comp>
    <comp name="--.HHE">
      <acc value="0.0125186114" flag="0"/>
      <vel value="0.0131514280" flag="0"/>
      <psa03 value="0.0445649722" flag="0"/>
      <psa10 value="0.0179865432" flag="0"/>
      <psa30 value="0.0014602297" flag="0"/>
    </comp>
  </station>
  <station code="ZKR" name="ZKR" netid="HL" insttype="120" lat="35.1147" lon="26.2169">
    <comp name="--.HHE">
      <acc value="0.9156440995" flag="0"/>
      <vel value="0.3027321041" flag="0"/>
      <psa03 value="0.7372859829" flag="0"/>
      <psa10 value="0.1625226554" flag="0"/>
      <psa30 value="0.0157835993" flag="0"/>
    </comp>
    <comp name="--.HHN">
      <acc value="0.3139551290" flag="0"/>
      <vel value="0.0825243951" flag="0"/>
      <psa03 value="0.4004271978" flag="0"/>
      <psa10 value="0.0233983808" flag="0"/>
      <psa30 value="0.0045335507" flag="0"/>
    </comp>
    <comp name="--.HHZ">
      <acc value="0.5862570697" flag="0"/>
      <vel value="0.0915757924" flag="0"/>
      <psa03 value="0.5444808675" flag="0"/>
      <psa10 value="0.0769848906" flag="0"/>
      <psa30 value="0.0069152528" flag="0"/>
    </comp>
  </station>
  <station code="IDI" name="IDI" netid="MN" insttype="" lat="35.288" lon="24.89">
    <comp name="--.HHN">
      <acc value="0.0085213638" flag="0"/>
      <vel value="0.0072481786" flag="0"/>
      <psa03 value="0.0225505118" flag="0"/>
      <psa10 value="0.0081077375" flag="0"/>
      <psa30 value="0.0015192307" flag="0"/>
    </comp>
    <comp name="--.HHE">
      <acc value="0.0067120478" flag="0"/>
      <vel value="0.0047127867" flag="0"/>
      <psa03 value="0.0286996785" flag="0"/>
      <psa10 value="0.0084023686" flag="0"/>
      <psa30 value="0.0007761444" flag="0"/>
    </comp>
    <comp name="--.HHZ">
      <acc value="0.0061346336" flag="0"/>
      <vel value="0.0042592466" flag="0"/>
      <psa03 value="0.0171396911" flag="0"/>
      <psa10 value="0.0053760742" flag="0"/>
      <psa30 value="0.0015562349" flag="0"/>
    </comp>
  </station>
</stationlist>
