<stationlist xmlns:esm="https://esm-db.eu/esmws/shakemap/1/" created="1783475665">
	<station code="KARP" name="KARP" netid="GE" source="GEOFON" insttype="" lat="35.5471" lon="27.16106" esm:processing="manual (Paolucci et al 2011)" esm:quality="best">
		<comp name="--.HNE" depth="0.0">
			<acc value="0.11518219997338" flag="0"/>
			<vel value="0.0596054110767743" flag="0"/>
			<psa03 value="0.345767772746004" flag="0"/>
			<psa10 value="0.0315741277884482" flag="0"/>
			<psa30 value="0.00289034654754035" flag="0"/>
		</comp>
		<comp name="--.HNN" depth="0.0">
			<acc value="0.114952856558331" flag="0"/>
			<vel value="0.050834983556202" flag="0"/>
			<psa03 value="0.183174593895205" flag="0"/>
			<psa10 value="0.0365230632624952" flag="0"/>
			<psa30 value="0.00217268155338328" flag="0"/>
		</comp>
		<comp name="--.HNZ" depth="0.0">
			<acc value="0.0577617864876061" flag="0"/>
			<vel value="0.0239362438121905" flag="0"/>
			<psa03 value="0.130602501118735" flag="0"/>
			<psa10 value="0.0151166019280493" flag="0"/>
			<psa30 value="0.00100267285031547" flag="0"/>
		</comp>
	</station>
	<station code="KSS1" name="KSS1" netid="HI" source="ITSAK Strong Motion Network" insttype="" lat="35.4189" lon="26.9207" esm:processing="manual (Paolucci et al 2011)" esm:quality="best">
		<comp name="--.HNE" depth="0.0">
			<acc value="0.0707816147612512" flag="0"/>
			<vel value="0.018846118983792" flag="0"/>
			<psa03 value="0.0866209120129741" flag="0"/>
			<psa10 value="0.015958202834539" flag="0"/>
			<psa30 value="0.00133466002342305" flag="0"/>
		</comp>
		<comp name="--.HNN" depth="0.0">
			<acc value="0.0867516988884297" flag="0"/>
			<vel value="0.0237364146766829" flag="0"/>
			<psa03 value="0.0989697610396171" flag="0"/>
			<psa10 value="0.0119837526206379" flag="0"/>
			<psa30 value="0.00125994053837053" flag="0"/>
		</comp>
		<comp name="--.HNZ" depth="0.0">
			<acc value="0.0529630170387154" flag="0"/>
			<vel value="0.0216994272978174" flag="0"/>
			<psa03 value="0.144785780616727" flag="0"/>
			<psa10 value="0.0109609457773442" flag="0"/>
			<psa30 value="0.000719902104487992" flag="0"/>
		</comp>
	</station>
	<station code="RDI1" name="RDI1" netid="HI" source="ITSAK Strong Motion Network" insttype="" lat="36.4514" lon="28.224" esm:processing="manual (Paolucci et al 2011)" esm:quality="good">
		<comp name="--.HNE" depth="0.0">
			<acc value="0.0031883024737404" flag="0"/>
			<vel value="0.00305670701192835" flag="0"/>
			<psa03 value="0.00744815681527163" flag="0"/>
			<psa10 value="0.00484037768249787" flag="0"/>
			<psa30 value="0.000832898925468042" flag="0"/>
		</comp>
		<comp name="--.HNN" depth="0.0">
			<acc value="0.00347217251691739" flag="0"/>
			<vel value="0.00393910208896503" flag="0"/>
			<psa03 value="0.00762603057771423" flag="0"/>
			<psa10 value="0.00634187449308063" flag="0"/>
			<psa30 value="0.00107600117562876" flag="0"/>
		</comp>
		<comp name="--.HNZ" depth="0.0">
			<acc value="0.00237148287873824" flag="0"/>
			<vel value="0.00255610549425519" flag="0"/>
			<psa03 value="0.00705431366782154" flag="0"/>
			<psa10 value="0.00391642311568563" flag="0"/>
			<psa30 value="0.000592794217622711" flag="0"/>
		</comp>
	</station>
	<station code="RGE1" name="RGE1" netid="HI" source="ITSAK Strong Motion Network" insttype="" lat="36.0269" lon="27.9306" esm:processing="manual (Paolucci et al 2011)" esm:quality="best">
		<comp name="--.HNE" depth="0.0">
			<acc value="0.00521108441710898" flag="0"/>
			<vel value="0.00490820708979013" flag="0"/>
			<psa03 value="0.0166152426053448" flag="0"/>
			<psa10 value="0.00714554757622189" flag="0"/>
			<psa30 value="0.000519105794462468" flag="0"/>
		</comp>
		<comp name="--.HNN" depth="0.0">
			<acc value="0.00726997632337112" flag="0"/>
			<vel value="0.00511605092030059" flag="0"/>
			<psa03 value="0.0169414178586975" flag="0"/>
			<psa10 value="0.00660670391172855" flag="0"/>
			<psa30 value="0.000414179807171228" flag="0"/>
		</comp>
		<comp name="--.HNZ" depth="0.0">
			<acc value="0.00327320914473103" flag="0"/>
			<vel value="0.00266155556311088" flag="0"/>
			<psa03 value="0.0107938647801381" flag="0"/>
			<psa10 value="0.00518034754762059" flag="0"/>
			<psa30 value="0.000320135556367907" flag="0"/>
		</comp>
	</station>
	<station code="SIT2" name="SIT2" netid="HI" source="ITSAK Strong Motion Network" insttype="" lat="35.2059" lon="26.107" esm:processing="manual (Paolucci et al 2011)" esm:quality="best">
		<comp name="--.HNE" depth="0.0">
			<acc value="0.136771408678875" flag="0"/>
			<vel value="0.0678978594783739" flag="0"/>
			<psa03 value="0.534848337914821" flag="0"/>
			<psa10 value="0.0502383392792603" flag="0"/>
			<psa30 value="0.00255477999790332" flag="0"/>
		</comp>
		<comp name="--.HNN" depth="0.0">
			<acc value="0.158290639529708" flag="0"/>
			<vel value="0.0918234064685712" flag="0"/>
			<psa03 value="0.484871293122211" flag="0"/>
			<psa10 value="0.0585053567961183" flag="0"/>
			<psa30 value="0.00282949714653951" flag="0"/>
		</comp>
		<comp name="--.HNZ" depth="0.0">
			<acc value="0.0895979674368148" flag="0"/>
			<vel value="0.0378452943665211" flag="0"/>
			<psa03 value="0.245858425367403" flag="0"/>
			<psa10 value="0.0134978288926002" flag="0"/>
			<psa30 value="0.00113510978190555" flag="0"/>
		</comp>
	</station>
	<station code="AGNA" name="AGNA" netid="HL" source="National Observatory of Athens Seismic Network" insttype="" lat="35.1895" lon="25.71853" esm:processing="manual (Paolucci et al 2011)" esm:quality="good">
		<comp name="00.HNE" depth="0.0">
			<acc value="0.0165091392834255" flag="0"/>
			<vel value="0.0102912629389889" flag="0"/>
			<psa03 value="0.102898108161232" flag="0"/>
			<psa10 value="0.00690980789712384" flag="0"/>
			<psa30 value="0.000512821784428453" flag="0"/>
		</comp>
		<comp name="00.HNN" depth="0.0">
			<acc value="0.0362588965033177" flag="0"/>
			<vel value="0.0192534368358492" flag="0"/>
			<psa03 value="0.108115245437658" flag="0"/>
			<psa10 value="0.0204308846958282" flag="0"/>
			<psa30 value="0.00107383332368786" flag="0"/>
		</comp>
		<comp name="00.HNZ" depth="0.0">
			<acc value="0.0095333888561851" flag="0"/>
			<vel value="0.00711353376447737" flag="0"/>
			<psa03 value="0.0419600687111335" flag="0"/>
			<psa10 value="0.00378520778268988" flag="0"/>
			<psa30 value="0.00045997422103564" flag="0"/>
		</comp>
	</station>
	<station code="IACM" name="IACM" netid="HL" source="National Observatory of Athens Seismic Network" insttype="" lat="35.3058" lon="25.0709" esm:processing="manual (Paolucci et al 2011)" esm:quality="good">
		<comp name="--.HNE" depth="0.0">
			<acc value="0.0298758500015858" flag="0"/>
			<vel value="0.0259608222933109" flag="0"/>
			<psa03 value="0.0664421768281336" flag="0"/>
			<psa10 value="0.0416612582705376" flag="0"/>
			<psa30 value="0.00158834833494865" flag="0"/>
		</comp>
		<comp name="--.HNN" depth="0.0">
			<acc value="0.0333598345406782" flag="0"/>
			<vel value="0.0230680226380854" flag="0"/>
			<psa03 value="0.116866643686926" flag="0"/>
			<psa10 value="0.0261258692885412" flag="0"/>
			<psa30 value="0.00153913190766855" flag="0"/>
		</comp>
		<comp name="--.HNZ" depth="0.0">
			<acc value="0.0198759245102046" flag="0"/>
			<vel value="0.0108492499259074" flag="0"/>
			<psa03 value="0.0646524885634027" flag="0"/>
			<psa10 value="0.0104938371402495" flag="0"/>
			<psa30 value="0.000615652763067419" flag="0"/>
		</comp>
	</station>
	<station code="KARP" name="KARP" netid="HL" source="National Observatory of Athens Seismic Network" insttype="" lat="35.5471" lon="27.16106" esm:processing="manual (Paolucci et al 2011)" esm:quality="best">
		<comp name="--.HNE" depth="0.0">
			<acc value="0.112843699932559" flag="0"/>
			<vel value="0.0583952904862868" flag="0"/>
			<psa03 value="0.338743246306935" flag="0"/>
			<psa10 value="0.0309298400131451" flag="0"/>
			<psa30 value="0.00283173425687042" flag="0"/>
		</comp>
		<comp name="--.HNN" depth="0.0">
			<acc value="0.112619066829498" flag="0"/>
			<vel value="0.0498029413459127" flag="0"/>
			<psa03 value="0.179460990745888" flag="0"/>
			<psa10 value="0.0357821323208967" flag="0"/>
			<psa30 value="0.00212838676883119" flag="0"/>
		</comp>
		<comp name="--.HNZ" depth="0.0">
			<acc value="0.056589138760155" flag="0"/>
			<vel value="0.0234503056113956" flag="0"/>
			<psa03 value="0.127962710928257" flag="0"/>
			<psa10 value="0.0148105652347803" flag="0"/>
			<psa30 value="0.000982091435271065" flag="0"/>
		</comp>
	</station>
	<station code="ZKR" name="ZKR" netid="HL" source="National Observatory of Athens Seismic Network" insttype="" lat="35.1147" lon="26.21691" esm:processing="manual (Paolucci et al 2011)" esm:quality="best">
		<comp name="00.HNE" depth="0.0">
			<acc value="0.0716368839797118" flag="0"/>
			<vel value="0.027071208038577" flag="0"/>
			<psa03 value="0.154226386213183" flag="0"/>
			<psa10 value="0.0154629066072747" flag="0"/>
			<psa30 value="0.00133644971168778" flag="0"/>
		</comp>
		<comp name="00.HNN" depth="0.0">
			<acc value="0.073015092190833" flag="0"/>
			<vel value="0.0376307805710765" flag="0"/>
			<psa03 value="0.290153209919492" flag="0"/>
			<psa10 value="0.0155514961763789" flag="0"/>
			<psa30 value="0.00110334281520658" flag="0"/>
		</comp>
		<comp name="00.HNZ" depth="0.0">
			<acc value="0.05009734012359" flag="0"/>
			<vel value="0.0222222201832146" flag="0"/>
			<psa03 value="0.103891403767627" flag="0"/>
			<psa10 value="0.0110898033324048" flag="0"/>
			<psa30 value="0.000919452346005484" flag="0"/>
		</comp>
	</station>
	<station code="ASTA" name="ASTA" netid="HL" source="National Observatory of Athens Seismic Network" insttype="" lat="36.54552" lon="26.35295" esm:processing="discarded" esm:quality="bad">
		<comp name="00.HNE" depth="0.0">
			<acc value="0" flag="1"/>
			<vel value="0" flag="1"/>
			<psa03 value="0" flag="1"/>
			<psa10 value="0" flag="1"/>
			<psa30 value="0" flag="1"/>
		</comp>
		<comp name="00.HNN" depth="0.0">
			<acc value="0" flag="1"/>
			<vel value="0" flag="1"/>
			<psa03 value="0" flag="1"/>
			<psa10 value="0" flag="1"/>
			<psa30 value="0" flag="1"/>
		</comp>
		<comp name="00.HNZ" depth="0.0">
			<acc value="0" flag="1"/>
			<vel value="0" flag="1"/>
			<psa03 value="0" flag="1"/>
			<psa10 value="0" flag="1"/>
			<psa30 value="0" flag="1"/>
		</comp>
	</station>
	<station code="KLNA" name="KLNA" netid="HL" source="National Observatory of Athens Seismic Network" insttype="" lat="36.95708" lon="26.97274" esm:processing="discarded" esm:quality="bad">
		<comp name="00.HNE" depth="0.0">
			<acc value="0" flag="1"/>
			<vel value="0" flag="1"/>
			<psa03 value="0" flag="1"/>
			<psa10 value="0" flag="1"/>
			<psa30 value="0" flag="1"/>
		</comp>
		<comp name="00.HNN" depth="0.0">
			<acc value="0" flag="1"/>
			<vel value="0" flag="1"/>
			<psa03 value="0" flag="1"/>
			<psa10 value="0" flag="1"/>
			<psa30 value="0" flag="1"/>
		</comp>
		<comp name="00.HNZ" depth="0.0">
			<acc value="0" flag="1"/>
			<vel value="0" flag="1"/>
			<psa03 value="0" flag="1"/>
			<psa10 value="0" flag="1"/>
			<psa30 value="0" flag="1"/>
		</comp>
	</station>
	<station code="RODB" name="RODB" netid="HL" source="National Observatory of Athens Seismic Network" insttype="" lat="36.4471" lon="28.22116" esm:processing="discarded" esm:quality="bad">
		<comp name="00.HNE" depth="0.0">
			<acc value="0" flag="1"/>
			<vel value="0" flag="1"/>
			<psa03 value="0" flag="1"/>
			<psa10 value="0" flag="1"/>
			<psa30 value="0" flag="1"/>
		</comp>
		<comp name="00.HNN" depth="0.0">
			<acc value="0" flag="1"/>
			<vel value="0" flag="1"/>
			<psa03 value="0" flag="1"/>
			<psa10 value="0" flag="1"/>
			<psa30 value="0" flag="1"/>
		</comp>
		<comp name="00.HNZ" depth="0.0">
			<acc value="0" flag="1"/>
			<vel value="0" flag="1"/>
			<psa03 value="0" flag="1"/>
			<psa10 value="0" flag="1"/>
			<psa30 value="0" flag="1"/>
		</comp>
	</station>
</stationlist>
