<?xml version="1.0" encoding="UTF-8" standalone="yes"?>
<!DOCTYPE earthquake SYSTEM "stationlist.dtd">
<stationlist created="" xmlns="ch.ethz.sed.shakemap.usgs.xml">
  <station code="KARP" name="KARP" netid="GE" source="GFZ" insttype="STS-2/N" lat="35.5471" lon="27.1611">
    <comp name="--.HHE">
      <acc value="0.1340828830" flag="0"/>
      <vel value="0.0671934559" flag="0"/>
      <psa03 value="0.3783059802" flag="0"/>
      <psa10 value="0.0362040545" flag="0"/>
      <psa30 value="0.0029881740" flag="0"/>
    </comp>
    <comp name="--.HHN">
      <acc value="0.1077984214" flag="0"/>
      <vel value="0.0499880456" flag="0"/>
      <psa03 value="0.1833964608" flag="0"/>
      <psa10 value="0.0368519270" flag="0"/>
      <psa30 value="0.0021003514" flag="0"/>
    </comp>
    <comp name="--.HHZ">
      <acc value="0.0585638762" flag="0"/>
      <vel value="0.0232509596" flag="0"/>
      <psa03 value="0.1306356443" flag="0"/>
      <psa10 value="0.0145444673" flag="0"/>
      <psa30 value="0.0009390832" flag="0"/>
    </comp>
  </station>
  <station code="ZKR" name="ZKR" netid="GE" source="GFZ" insttype="STS-2/N" lat="35.1147" lon="26.2169">
    <comp name="--.HHE">
      <acc value="0.0730603224" flag="0"/>
      <vel value="0.0257986344" flag="0"/>
      <psa03 value="0.1530775874" flag="0"/>
      <psa10 value="0.0155916053" flag="0"/>
      <psa30 value="0.0012623309" flag="0"/>
    </comp>
    <comp name="--.HHN">
      <acc value="0.0406732226" flag="0"/>
      <vel value="0.0196643414" flag="0"/>
      <psa03 value="0.1507789930" flag="0"/>
      <psa10 value="0.0080095695" flag="0"/>
      <psa30 value="0.0005822005" flag="0"/>
    </comp>
    <comp name="--.HHZ">
      <acc value="0.0515624032" flag="0"/>
      <vel value="0.0232895810" flag="0"/>
      <psa03 value="0.1064704420" flag="0"/>
      <psa10 value="0.0114833570" flag="0"/>
      <psa30 value="0.0009246962" flag="0"/>
    </comp>
  </station>
  <station code="FRMA" name="FRMA" netid="HC" source="NOA" insttype="60" lat="35.0187" lon="25.8555">
    <comp name="--.HHE">
      <acc value="0.0425155032" flag="0"/>
      <vel value="0.0174993537" flag="0"/>
      <psa03 value="0.0856796789" flag="0"/>
      <psa10 value="0.0163726745" flag="0"/>
      <psa30 value="0.0006879349" flag="0"/>
    </comp>
    <comp name="--.HHN">
      <acc value="0.0315980533" flag="0"/>
      <vel value="0.0147373576" flag="0"/>
      <psa03 value="0.0832901055" flag="0"/>
      <psa10 value="0.0122513607" flag="0"/>
      <psa30 value="0.0008822116" flag="0"/>
    </comp>
    <comp name="--.HHZ">
      <acc value="0.0192892808" flag="0"/>
      <vel value="0.0085043078" flag="0"/>
      <psa03 value="0.0496496703" flag="0"/>
      <psa10 value="0.0072166253" flag="0"/>
      <psa30 value="0.0004675468" flag="0"/>
    </comp>
  </station>
  <station code="STIA" name="STIA" netid="HC" source="NOA" insttype="120" lat="35.2021" lon="26.0909">
    <comp name="--.HHE">
      <acc value="0.0774250533" flag="0"/>
      <vel value="0.0289097069" flag="0"/>
      <psa03 value="0.2130541914" flag="0"/>
      <psa10 value="0.0203686552" flag="0"/>
      <psa30 value="0.0009856463" flag="0"/>
    </comp>
    <comp name="--.HHN">
      <acc value="0.0557557837" flag="0"/>
      <vel value="0.0234128232" flag="0"/>
      <psa03 value="0.1428991272" flag="0"/>
      <psa10 value="0.0193545224" flag="0"/>
      <psa30 value="0.0011415960" flag="0"/>
    </comp>
    <comp name="--.HHZ">
      <acc value="0.0515990974" flag="0"/>
      <vel value="0.0264071429" flag="0"/>
      <psa03 value="0.1294464580" flag="0"/>
      <psa10 value="0.0118742289" flag="0"/>
      <psa30 value="0.0010872829" flag="0"/>
    </comp>
  </station>
  <station code="KARP" name="KARP" netid="HL" source="NOA" insttype="120" lat="35.5471" lon="27.1611">
    <comp name="--.HHE">
      <acc value="0.1293761559" flag="0"/>
      <vel value="0.0659596827" flag="0"/>
      <psa03 value="0.3705708680" flag="0"/>
      <psa10 value="0.0357746082" flag="0"/>
      <psa30 value="0.0029540182" flag="0"/>
    </comp>
    <comp name="--.HHN">
      <acc value="0.1043683538" flag="0"/>
      <vel value="0.0492666936" flag="0"/>
      <psa03 value="0.1787837170" flag="0"/>
      <psa10 value="0.0365458199" flag="0"/>
      <psa30 value="0.0020861004" flag="0"/>
    </comp>
    <comp name="--.HHZ">
      <acc value="0.0556095326" flag="0"/>
      <vel value="0.0227288673" flag="0"/>
      <psa03 value="0.1273258577" flag="0"/>
      <psa10 value="0.0144029314" flag="0"/>
      <psa30 value="0.0009319427" flag="0"/>
    </comp>
  </station>
  <station code="NPS" name="NPS" netid="HL" source="NOA" insttype="120" lat="35.2613" lon="25.6104">
    <comp name="--.HHE">
      <acc value="0.0196147162" flag="0"/>
      <vel value="0.0149311252" flag="0"/>
      <psa03 value="0.0637023222" flag="0"/>
      <psa10 value="0.0084126446" flag="0"/>
      <psa30 value="0.0007241099" flag="0"/>
    </comp>
    <comp name="--.HHN">
      <acc value="0.0187456664" flag="0"/>
      <vel value="0.0093698115" flag="0"/>
      <psa03 value="0.0411606228" flag="0"/>
      <psa10 value="0.0114128956" flag="0"/>
      <psa30 value="0.0005722373" flag="0"/>
    </comp>
    <comp name="--.HHZ">
      <acc value="0.0124345849" flag="0"/>
      <vel value="0.0075271350" flag="0"/>
      <psa03 value="0.0383691720" flag="0"/>
      <psa10 value="0.0055433127" flag="0"/>
      <psa30 value="0.0004225714" flag="0"/>
    </comp>
  </station>
  <station code="ZKR" name="ZKR" netid="HL" source="NOA" insttype="120" lat="35.1147" lon="26.2169">
    <comp name="--.HHE">
      <acc value="0.0715515597" flag="0"/>
      <vel value="0.0252627407" flag="0"/>
      <psa03 value="0.1483289904" flag="0"/>
      <psa10 value="0.0153097353" flag="0"/>
      <psa30 value="0.0012536517" flag="0"/>
    </comp>
  </station>
</stationlist>
