<?xml version="1.0" encoding="UTF-8" standalone="yes"?>
<!DOCTYPE earthquake SYSTEM "stationlist.dtd">
<stationlist created="" xmlns="ch.ethz.sed.shakemap.usgs.xml">
  <station code="BERA" name="BERA" netid="AC" insttype="" lat="40.7081" lon="19.9455">
    <comp name="00.HHN">
      <acc value="0.0323801910" flag="0"/>
      <vel value="0.0109692595" flag="0"/>
      <psa03 value="0.0388960648" flag="0"/>
      <psa10 value="0.0085141039" flag="0"/>
      <psa30 value="0.0009810972" flag="0"/>
    </comp>
    <comp name="00.HHE">
      <acc value="0.0456241860" flag="0"/>
      <vel value="0.0123552555" flag="0"/>
      <psa03 value="0.0505520977" flag="0"/>
      <psa10 value="0.0089793438" flag="0"/>
      <psa30 value="0.0009107704" flag="0"/>
    </comp>
    <comp name="00.HHZ">
      <acc value="0.0191420077" flag="0"/>
      <vel value="0.0065953280" flag="0"/>
      <psa03 value="0.0239496180" flag="0"/>
      <psa10 value="0.0057256835" flag="0"/>
      <psa30 value="0.0004943930" flag="0"/>
    </comp>
  </station>
  <station code="ART2" name="ART2" netid="HI" insttype="CMG-5TD,ACCELEROMETER,GURALP" lat="39.1474" lon="20.9937">
    <comp name="--.HNZ">
      <acc value="0.0718441323" flag="0"/>
      <vel value="0.0384181092" flag="0"/>
      <psa03 value="0.1890332850" flag="0"/>
      <psa10 value="0.0267831569" flag="0"/>
      <psa30 value="0.0020862758" flag="0"/>
    </comp>
    <comp name="--.HNN">
      <acc value="0.1107588768" flag="0"/>
      <vel value="0.0310573190" flag="0"/>
      <psa03 value="0.1772709905" flag="0"/>
      <psa10 value="0.0187240328" flag="0"/>
      <psa30 value="0.0016333397" flag="0"/>
    </comp>
    <comp name="--.HNE">
      <acc value="0.0897130790" flag="0"/>
      <vel value="0.0292128859" flag="0"/>
      <psa03 value="0.1816072550" flag="0"/>
      <psa10 value="0.0172600780" flag="0"/>
      <psa30 value="0.0015530616" flag="0"/>
    </comp>
  </station>
  <station code="KRK1" name="KRK1" netid="HI" insttype="CMG-5TD,ACCELEROMETER,GURALP" lat="39.6189" lon="19.9202">
    <comp name="--.HNE">
      <acc value="0.6434274427" flag="0"/>
      <vel value="0.2351728604" flag="0"/>
      <psa03 value="0.7542661242" flag="0"/>
      <psa10 value="0.0963009226" flag="0"/>
      <psa30 value="0.0064473633" flag="0"/>
    </comp>
    <comp name="--.HNZ">
      <acc value="0.3824919858" flag="0"/>
      <vel value="0.0779935184" flag="0"/>
      <psa03 value="0.3975561604" flag="0"/>
      <psa10 value="0.0314301453" flag="0"/>
      <psa30 value="0.0026509301" flag="0"/>
    </comp>
    <comp name="--.HNN">
      <acc value="0.5559319784" flag="0"/>
      <vel value="0.2630350755" flag="0"/>
      <psa03 value="0.9133498962" flag="0"/>
      <psa10 value="0.1631148688" flag="0"/>
      <psa30 value="0.0119107796" flag="0"/>
    </comp>
  </station>
  <station code="VAS2" name="VAS2" netid="HI" insttype="CMG-5TD,ACCELEROMETER,GURALP" lat="38.6306" lon="20.6081">
    <comp name="--.HNN">
      <acc value="0.0774279721" flag="0"/>
      <vel value="0.0316616053" flag="0"/>
      <psa03 value="0.2979356571" flag="0"/>
      <psa10 value="0.0432481892" flag="0"/>
      <psa30 value="0.0016640278" flag="0"/>
    </comp>
    <comp name="--.HNZ">
      <acc value="0.0402497006" flag="0"/>
      <vel value="0.0215052245" flag="0"/>
      <psa03 value="0.0894823553" flag="0"/>
      <psa10 value="0.0197433348" flag="0"/>
      <psa30 value="0.0011572759" flag="0"/>
    </comp>
    <comp name="--.HNE">
      <acc value="0.0605465962" flag="0"/>
      <vel value="0.0314040610" flag="0"/>
      <psa03 value="0.1636270849" flag="0"/>
      <psa10 value="0.0407527045" flag="0"/>
      <psa30 value="0.0015617629" flag="0"/>
    </comp>
  </station>
  <station code="JAN" name="JAN" netid="HL" insttype="CMG3EPSC60_DR24" lat="39.6562" lon="20.8487">
    <comp name="--.HHZ">
      <acc value="0.7522069159" flag="0"/>
      <vel value="0.1923390686" flag="0"/>
      <psa03 value="0.6739108005" flag="0"/>
      <psa10 value="0.0424892704" flag="0"/>
      <psa30 value="0.0030552578" flag="0"/>
    </comp>
    <comp name="--.HHE">
      <acc value="1.6957745447" flag="0"/>
      <vel value="0.3688756689" flag="0"/>
      <psa03 value="1.9426726955" flag="0"/>
      <psa10 value="0.0703403378" flag="0"/>
      <psa30 value="0.0074154863" flag="0"/>
    </comp>
    <comp name="--.HHN">
      <acc value="2.2061629168" flag="0"/>
      <vel value="0.5724600041" flag="0"/>
      <psa03 value="2.5132917097" flag="0"/>
      <psa10 value="0.0796053195" flag="0"/>
      <psa30 value="0.0091666066" flag="0"/>
    </comp>
  </station>
  <station code="KEK" name="KEK" netid="HL" insttype="120" lat="39.7127" lon="19.7962">
    <comp name="--.HHZ">
      <acc value="0.0766512496" flag="0"/>
      <vel value="0.0209065069" flag="0"/>
      <psa03 value="0.0816572248" flag="0"/>
      <psa10 value="0.0201668301" flag="0"/>
      <psa30 value="0.0010624677" flag="0"/>
    </comp>
    <comp name="--.HHE">
      <acc value="0.1016038878" flag="0"/>
      <vel value="0.0295391031" flag="0"/>
      <psa03 value="0.1555222444" flag="0"/>
      <psa10 value="0.0211643687" flag="0"/>
      <psa30 value="0.0011922640" flag="0"/>
    </comp>
    <comp name="--.HHN">
      <acc value="0.0717213618" flag="0"/>
      <vel value="0.0264232423" flag="0"/>
      <psa03 value="0.0866759474" flag="0"/>
      <psa10 value="0.0138529748" flag="0"/>
      <psa30 value="0.0012785115" flag="0"/>
    </comp>
  </station>
  <station code="KZN" name="KZN" netid="HL" insttype="120" lat="40.3033" lon="21.7821">
    <comp name="--.HHE">
      <acc value="0.0295466359" flag="0"/>
      <vel value="0.0119194483" flag="0"/>
      <psa03 value="0.0655454839" flag="0"/>
      <psa10 value="0.0084484479" flag="0"/>
      <psa30 value="0.0007058991" flag="0"/>
    </comp>
    <comp name="--.HHN">
      <acc value="0.0199757402" flag="0"/>
      <vel value="0.0086639673" flag="0"/>
      <psa03 value="0.0481800036" flag="0"/>
      <psa10 value="0.0085557368" flag="0"/>
      <psa30 value="0.0006019262" flag="0"/>
    </comp>
    <comp name="--.HHZ">
      <acc value="0.0135857439" flag="0"/>
      <vel value="0.0070710731" flag="0"/>
      <psa03 value="0.0455877284" flag="0"/>
      <psa10 value="0.0040678332" flag="0"/>
      <psa30 value="0.0003477878" flag="0"/>
    </comp>
  </station>
  <station code="OTHN" name="OTHN" netid="HL" insttype="30" lat="39.8416" lon="19.4057">
    <comp name="--.HHE">
      <acc value="0.1768017808" flag="0"/>
      <vel value="0.0292957190" flag="0"/>
      <psa03 value="0.1346159814" flag="0"/>
      <psa10 value="0.0094766854" flag="0"/>
      <psa30 value="0.0007774421" flag="0"/>
    </comp>
    <comp name="--.HHN">
      <acc value="0.2159097132" flag="0"/>
      <vel value="0.0368801816" flag="0"/>
      <psa03 value="0.1139671070" flag="0"/>
      <psa10 value="0.0129543667" flag="0"/>
      <psa30 value="0.0009591711" flag="0"/>
    </comp>
    <comp name="--.HHZ">
      <acc value="0.1076327593" flag="0"/>
      <vel value="0.0168937711" flag="0"/>
      <psa03 value="0.1134970415" flag="0"/>
      <psa10 value="0.0050612702" flag="0"/>
      <psa30 value="0.0007033403" flag="0"/>
    </comp>
  </station>
  <station code="TETR" name="TETR" netid="HL" insttype="60" lat="39.3445" lon="21.2747">
    <comp name="--.HHE">
      <acc value="0.7125065180" flag="0"/>
      <vel value="0.3433384464" flag="0"/>
      <psa03 value="1.7239603259" flag="0"/>
      <psa10 value="0.1077256419" flag="0"/>
      <psa30 value="0.0107421759" flag="0"/>
    </comp>
    <comp name="--.HHN">
      <acc value="0.4069451322" flag="0"/>
      <vel value="0.1419802216" flag="0"/>
      <psa03 value="0.9254825599" flag="0"/>
      <psa10 value="0.0806079380" flag="0"/>
      <psa30 value="0.0050198041" flag="0"/>
    </comp>
    <comp name="--.HHZ">
      <acc value="0.1804693673" flag="0"/>
      <vel value="0.0685851539" flag="0"/>
      <psa03 value="0.4402087702" flag="0"/>
      <psa10 value="0.0299508049" flag="0"/>
      <psa30 value="0.0020892610" flag="0"/>
    </comp>
  </station>
  <station code="THL" name="THL" netid="HL" insttype="120" lat="39.5647" lon="22.0144">
    <comp name="--.HHN">
      <acc value="0.0128796823" flag="0"/>
      <vel value="0.0039239049" flag="0"/>
      <psa03 value="0.0209651145" flag="0"/>
      <psa10 value="0.0039458836" flag="0"/>
      <psa30 value="0.0003458316" flag="0"/>
    </comp>
    <comp name="--.HHE">
      <acc value="0.0126298268" flag="0"/>
      <vel value="0.0048519082" flag="0"/>
      <psa03 value="0.0383588227" flag="0"/>
      <psa10 value="0.0037098821" flag="0"/>
      <psa30 value="0.0004533003" flag="0"/>
    </comp>
    <comp name="--.HHZ">
      <acc value="0.0127120139" flag="0"/>
      <vel value="0.0037805309" flag="0"/>
      <psa03 value="0.0135768703" flag="0"/>
      <psa10 value="0.0046087042" flag="0"/>
      <psa30 value="0.0004902944" flag="0"/>
    </comp>
  </station>
  <station code="TRKA" name="TRKA" netid="HL" insttype="CMG-5" lat="39.5538" lon="21.7662">
    <comp name="00.HNE">
      <acc value="0.0381082123" flag="0"/>
      <vel value="0.0205507805" flag="0"/>
      <psa03 value="0.1108082446" flag="0"/>
      <psa10 value="0.0324259309" flag="0"/>
      <psa30 value="0.0015241691" flag="0"/>
    </comp>
    <comp name="00.HNN">
      <acc value="0.0323938013" flag="0"/>
      <vel value="0.0195334258" flag="0"/>
      <psa03 value="0.0744516898" flag="0"/>
      <psa10 value="0.0182581401" flag="0"/>
      <psa30 value="0.0013277770" flag="0"/>
    </comp>
    <comp name="00.HNZ">
      <acc value="0.0307510214" flag="0"/>
      <vel value="0.0142237183" flag="0"/>
      <psa03 value="0.0707456396" flag="0"/>
      <psa10 value="0.0104304597" flag="0"/>
      <psa30 value="0.0006266374" flag="0"/>
    </comp>
  </station>
  <station code="AMPL" name="AMPL" netid="HP" insttype="Compact," lat="38.9224" lon="21.2135">
    <comp name="--.HHZ">
      <acc value="0.0224759133" flag="0"/>
      <vel value="0.0079245080" flag="0"/>
      <psa03 value="0.0346673621" flag="0"/>
      <psa10 value="0.0127430321" flag="0"/>
      <psa30 value="0.0005734256" flag="0"/>
    </comp>
    <comp name="--.HHN">
      <acc value="0.0660434470" flag="0"/>
      <vel value="0.0136648649" flag="0"/>
      <psa03 value="0.0681561846" flag="0"/>
      <psa10 value="0.0100507660" flag="0"/>
      <psa30 value="0.0009528696" flag="0"/>
    </comp>
    <comp name="--.HHE">
      <acc value="0.0499826280" flag="0"/>
      <vel value="0.0205012693" flag="0"/>
      <psa03 value="0.0935393159" flag="0"/>
      <psa10 value="0.0081703378" flag="0"/>
      <psa30 value="0.0010317502" flag="0"/>
    </comp>
  </station>
  <station code="KSTR" name="KSTR" netid="HP" insttype="Compact," lat="39.2492" lon="20.576">
    <comp name="--.HHE">
      <acc value="0.1867631553" flag="0"/>
      <vel value="0.0412108588" flag="0"/>
      <psa03 value="0.1443312229" flag="0"/>
      <psa10 value="0.0143114850" flag="0"/>
      <psa30 value="0.0013108702" flag="0"/>
    </comp>
    <comp name="--.HHZ">
      <acc value="0.1247146119" flag="0"/>
      <vel value="0.0251269558" flag="0"/>
      <psa03 value="0.0894620156" flag="0"/>
      <psa10 value="0.0147270420" flag="0"/>
      <psa30 value="0.0010872447" flag="0"/>
    </comp>
    <comp name="--.HHN">
      <acc value="0.1253595353" flag="0"/>
      <vel value="0.0279853423" flag="0"/>
      <psa03 value="0.1302510759" flag="0"/>
      <psa10 value="0.0098855609" flag="0"/>
      <psa30 value="0.0008318989" flag="0"/>
    </comp>
  </station>
  <station code="PRMD" name="PRMD" netid="HP" insttype="120P," lat="39.5299" lon="21.0965">
    <comp name="--.HHN">
      <acc value="0.2294677002" flag="0"/>
      <vel value="0.0776289997" flag="0"/>
      <psa03 value="0.1686994989" flag="0"/>
      <psa10 value="0.0198574042" flag="0"/>
      <psa30 value="0.0014393419" flag="0"/>
    </comp>
    <comp name="--.HHE">
      <acc value="0.3715574603" flag="0"/>
      <vel value="0.1049958031" flag="0"/>
      <psa03 value="0.3799805730" flag="0"/>
      <psa10 value="0.0964969183" flag="0"/>
      <psa30 value="0.0057951019" flag="0"/>
    </comp>
    <comp name="--.HHZ">
      <acc value="0.2870461766" flag="0"/>
      <vel value="0.0678738565" flag="0"/>
      <psa03 value="0.1848766062" flag="0"/>
      <psa10 value="0.0184648442" flag="0"/>
      <psa30 value="0.0021531000" flag="0"/>
    </comp>
  </station>
  <station code="DRAG" name="DRAG" netid="HT" insttype="30s-100Hz," lat="38.6839" lon="20.5746">
    <comp name="--.HHN">
      <acc value="0.0000127064" flag="0"/>
      <vel value="0.0000021677" flag="0"/>
      <psa03 value="0.0000104630" flag="0"/>
      <psa10 value="0.0000007080" flag="0"/>
      <psa30 value="0.0000000925" flag="0"/>
    </comp>
    <comp name="--.HHZ">
      <acc value="0.0001504471" flag="0"/>
      <vel value="0.0000352300" flag="0"/>
      <psa03 value="0.0001575155" flag="0"/>
      <psa10 value="0.0000132471" flag="0"/>
      <psa30 value="0.0000006186" flag="0"/>
    </comp>
    <comp name="--.HHE">
      <acc value="0.0001477299" flag="0"/>
      <vel value="0.0000383565" flag="0"/>
      <psa03 value="0.0002390502" flag="0"/>
      <psa10 value="0.0000117394" flag="0"/>
      <psa30 value="0.0000008897" flag="0"/>
    </comp>
  </station>
  <station code="EVGI" name="EVGI" netid="HT" insttype="30" lat="38.621" lon="20.656">
    <comp name="--.HHE">
      <acc value="0.0652316210" flag="0"/>
      <vel value="0.0141692582" flag="0"/>
      <psa03 value="0.0457287816" flag="0"/>
      <psa10 value="0.0041379145" flag="0"/>
      <psa30 value="0.0002867544" flag="0"/>
    </comp>
    <comp name="--.HHN">
      <acc value="0.0700160217" flag="0"/>
      <vel value="0.0172680377" flag="0"/>
      <psa03 value="0.0961825985" flag="0"/>
      <psa10 value="0.0059785192" flag="0"/>
      <psa30 value="0.0004651845" flag="0"/>
    </comp>
    <comp name="--.HHZ">
      <acc value="0.0542945242" flag="0"/>
      <vel value="0.0118154035" flag="0"/>
      <psa03 value="0.0495859692" flag="0"/>
      <psa10 value="0.0039966355" flag="0"/>
      <psa30 value="0.0002561538" flag="0"/>
    </comp>
  </station>
  <station code="IGT" name="IGT" netid="HT" insttype="100" lat="39.5315" lon="20.3299">
    <comp name="--.HHN">
      <acc value="0.3452030536" flag="0"/>
      <vel value="0.0711859359" flag="0"/>
      <psa03 value="0.4672884779" flag="0"/>
      <psa10 value="0.0261265816" flag="0"/>
      <psa30 value="0.0015568896" flag="0"/>
    </comp>
    <comp name="--.HHE">
      <acc value="0.3344772087" flag="0"/>
      <vel value="0.0764490683" flag="0"/>
      <psa03 value="0.4089250776" flag="0"/>
      <psa10 value="0.0304974166" flag="0"/>
      <psa30 value="0.0023836603" flag="0"/>
    </comp>
    <comp name="--.HHZ">
      <acc value="0.3007087045" flag="0"/>
      <vel value="0.0528301063" flag="0"/>
      <psa03 value="0.3160838132" flag="0"/>
      <psa10 value="0.0118405142" flag="0"/>
      <psa30 value="0.0012448491" flag="0"/>
    </comp>
  </station>
  <station code="LKD2" name="LKD2" netid="HT" insttype="100" lat="38.7889" lon="20.6578">
    <comp name="--.HHE">
      <acc value="0.0440724863" flag="0"/>
      <vel value="0.0119247768" flag="0"/>
      <psa03 value="0.0966161187" flag="0"/>
      <psa10 value="0.0072468335" flag="0"/>
      <psa30 value="0.0003765075" flag="0"/>
    </comp>
    <comp name="--.HHN">
      <acc value="0.0543434845" flag="0"/>
      <vel value="0.0134679346" flag="0"/>
      <psa03 value="0.0540429179" flag="0"/>
      <psa10 value="0.0070057162" flag="0"/>
      <psa30 value="0.0005340120" flag="0"/>
    </comp>
    <comp name="--.HHZ">
      <acc value="0.0237535573" flag="0"/>
      <vel value="0.0069167626" flag="0"/>
      <psa03 value="0.0324069582" flag="0"/>
      <psa10 value="0.0048687181" flag="0"/>
      <psa30 value="0.0003552737" flag="0"/>
    </comp>
  </station>
  <station code="NEST" name="NEST" netid="HT" insttype="120P," lat="40.4147" lon="21.0489">
    <comp name="--.HHE">
      <acc value="0.0247826536" flag="0"/>
      <vel value="0.0124731640" flag="0"/>
      <psa03 value="0.0686633323" flag="0"/>
      <psa10 value="0.0117285130" flag="0"/>
      <psa30 value="0.0006773155" flag="0"/>
    </comp>
    <comp name="--.HHN">
      <acc value="0.0301312029" flag="0"/>
      <vel value="0.0113096912" flag="0"/>
      <psa03 value="0.0804364116" flag="0"/>
      <psa10 value="0.0090061303" flag="0"/>
      <psa30 value="0.0007377824" flag="0"/>
    </comp>
    <comp name="--.HHZ">
      <acc value="0.0263718146" flag="0"/>
      <vel value="0.0128027004" flag="0"/>
      <psa03 value="0.0987251559" flag="0"/>
      <psa10 value="0.0079463352" flag="0"/>
      <psa30 value="0.0005627534" flag="0"/>
    </comp>
  </station>
  <station code="NYDR" name="NYDR" netid="HT" insttype="1s-100Hz," lat="38.7135" lon="20.6983">
    <comp name="--.HHN">
      <acc value="0.0470760839" flag="0"/>
      <vel value="0.0113381591" flag="0"/>
      <psa03 value="0.0615050717" flag="0"/>
      <psa10 value="0.0112683665" flag="0"/>
      <psa30 value="0.0006183573" flag="0"/>
    </comp>
    <comp name="--.HHE">
      <acc value="0.0262164921" flag="0"/>
      <vel value="0.0110531246" flag="0"/>
      <psa03 value="0.0404460326" flag="0"/>
      <psa10 value="0.0106263377" flag="0"/>
      <psa30 value="0.0003989527" flag="0"/>
    </comp>
    <comp name="--.HHZ">
      <acc value="0.0264339887" flag="0"/>
      <vel value="0.0055939499" flag="0"/>
      <psa03 value="0.0339719064" flag="0"/>
      <psa10 value="0.0074451186" flag="0"/>
      <psa30 value="0.0002693915" flag="0"/>
    </comp>
  </station>
  <station code="TSLK" name="TSLK" netid="HT" insttype="1s-100Hz," lat="38.8249" lon="20.6554">
    <comp name="--.HHN">
      <acc value="0.0556931654" flag="0"/>
      <vel value="0.0175302360" flag="0"/>
      <psa03 value="0.0943703379" flag="0"/>
      <psa10 value="0.0129189306" flag="0"/>
      <psa30 value="0.0010722878" flag="0"/>
    </comp>
    <comp name="--.HHE">
      <acc value="0.0501013880" flag="0"/>
      <vel value="0.0147296222" flag="0"/>
      <psa03 value="0.0814370103" flag="0"/>
      <psa10 value="0.0095190901" flag="0"/>
      <psa30 value="0.0009188785" flag="0"/>
    </comp>
    <comp name="--.HHZ">
      <acc value="0.0397718700" flag="0"/>
      <vel value="0.0109825010" flag="0"/>
      <psa03 value="0.0540846090" flag="0"/>
      <psa10 value="0.0056134214" flag="0"/>
      <psa30 value="0.0007537314" flag="0"/>
    </comp>
  </station>
  <station code="KEK" name="KEK" netid="MN" insttype="" lat="39.7127" lon="19.7962">
    <comp name="--.HHE">
      <acc value="0.1016038174" flag="0"/>
      <vel value="0.0295390826" flag="0"/>
      <psa03 value="0.1555221367" flag="0"/>
      <psa10 value="0.0211643540" flag="0"/>
      <psa30 value="0.0011922632" flag="0"/>
    </comp>
    <comp name="--.HHN">
      <acc value="0.0717213121" flag="0"/>
      <vel value="0.0264232240" flag="0"/>
      <psa03 value="0.0866758874" flag="0"/>
      <psa10 value="0.0138529652" flag="0"/>
      <psa30 value="0.0012785106" flag="0"/>
    </comp>
    <comp name="--.HHZ">
      <acc value="0.0766511965" flag="0"/>
      <vel value="0.0209064924" flag="0"/>
      <psa03 value="0.0816571682" flag="0"/>
      <psa10 value="0.0201668162" flag="0"/>
      <psa30 value="0.0010624669" flag="0"/>
    </comp>
  </station>
  <station code="THL" name="THL" netid="MN" insttype="" lat="39.5647" lon="22.0144">
    <comp name="--.HHE">
      <acc value="0.0126298268" flag="0"/>
      <vel value="0.0048519082" flag="0"/>
      <psa03 value="0.0383588227" flag="0"/>
      <psa10 value="0.0037098821" flag="0"/>
      <psa30 value="0.0004533003" flag="0"/>
    </comp>
    <comp name="--.HHN">
      <acc value="0.0128796823" flag="0"/>
