<?xml version="1.0" encoding="UTF-8" standalone="yes"?>
<!DOCTYPE earthquake SYSTEM "stationlist.dtd">
<stationlist created="" xmlns="ch.ethz.sed.shakemap.usgs.xml">
  <station code="BERA" name="BERA" netid="AC" insttype="" lat="40.7081" lon="19.9455">
    <comp name="00.HHN">
      <acc value="0.0323801910" flag="0"/>
      <vel value="0.0109692595" flag="0"/>
      <psa03 value="0.0388960648" flag="0"/>
      <psa10 value="0.0085141039" flag="0"/>
      <psa30 value="0.0009810972" flag="0"/>
    </comp>
    <comp name="00.HHE">
      <acc value="0.0456241860" flag="0"/>
      <vel value="0.0123552555" flag="0"/>
      <psa03 value="0.0505520977" flag="0"/>
      <psa10 value="0.0089793438" flag="0"/>
      <psa30 value="0.0009107704" flag="0"/>
    </comp>
    <comp name="00.HHZ">
      <acc value="0.0191420077" flag="0"/>
      <vel value="0.0065953280" flag="0"/>
      <psa03 value="0.0239496180" flag="0"/>
      <psa10 value="0.0057256835" flag="0"/>
      <psa30 value="0.0004943930" flag="0"/>
    </comp>
  </station>
  <station code="KEK" name="KEK" netid="MN" insttype="" lat="39.7127" lon="19.7962">
    <comp name="--.HHE">
      <acc value="0.1016038174" flag="0"/>
      <vel value="0.0295390826" flag="0"/>
      <psa03 value="0.1555221367" flag="0"/>
      <psa10 value="0.0211643540" flag="0"/>
      <psa30 value="0.0011922632" flag="0"/>
    </comp>
    <comp name="--.HHN">
      <acc value="0.0717213121" flag="0"/>
      <vel value="0.0264232240" flag="0"/>
      <psa03 value="0.0866758874" flag="0"/>
      <psa10 value="0.0138529652" flag="0"/>
      <psa30 value="0.0012785106" flag="0"/>
    </comp>
    <comp name="--.HHZ">
      <acc value="0.0766511965" flag="0"/>
      <vel value="0.0209064924" flag="0"/>
      <psa03 value="0.0816571682" flag="0"/>
      <psa10 value="0.0201668162" flag="0"/>
      <psa30 value="0.0010624669" flag="0"/>
    </comp>
  </station>
</stationlist>
