<?xml version="1.0" encoding="UTF-8" standalone="yes"?>
<!DOCTYPE earthquake SYSTEM "stationlist.dtd">
<stationlist created="" xmlns="ch.ethz.sed.shakemap.usgs.xml">
  <station code="ARPRA" name="ARPRA" netid="KO" insttype="CMG-5T" lat="39.0929" lon="38.3356">
    <comp name="--.HNN">
      <acc value="0.2452964420" flag="0"/>
      <vel value="0.0936405063" flag="0"/>
      <psa03 value="0.8444121270" flag="0"/>
      <psa10 value="0.0431928509" flag="0"/>
      <psa30 value="0.0030982092" flag="0"/>
    </comp>
    <comp name="--.HNE">
      <acc value="0.2554796538" flag="0"/>
      <vel value="0.0969242880" flag="0"/>
      <psa03 value="0.7161763407" flag="0"/>
      <psa10 value="0.0548773579" flag="0"/>
      <psa30 value="0.0043640186" flag="0"/>
    </comp>
    <comp name="--.HNZ">
      <acc value="0.0727274641" flag="0"/>
      <vel value="0.0267602030" flag="0"/>
      <psa03 value="0.1743865092" flag="0"/>
      <psa10 value="0.0419046305" flag="0"/>
      <psa30 value="0.0018940243" flag="0"/>
    </comp>
  </station>
  <station code="DYBB" name="DYBB" netid="KO" insttype="CMG-3T" lat="37.9532" lon="40.1393">
    <comp name="--.HHE">
      <acc value="0.0231805293" flag="0"/>
      <vel value="0.0167752521" flag="0"/>
      <psa03 value="0.0391239523" flag="0"/>
      <psa10 value="0.0203570687" flag="0"/>
      <psa30 value="0.0043040103" flag="0"/>
    </comp>
    <comp name="--.HHN">
      <acc value="0.0241526867" flag="0"/>
      <vel value="0.0145492197" flag="0"/>
      <psa03 value="0.0421936124" flag="0"/>
      <psa10 value="0.0123013983" flag="0"/>
      <psa30 value="0.0034075979" flag="0"/>
    </comp>
    <comp name="--.HHZ">
      <acc value="0.0242745383" flag="0"/>
      <vel value="0.0161334037" flag="0"/>
      <psa03 value="0.0286867207" flag="0"/>
      <psa10 value="0.0259156416" flag="0"/>
      <psa30 value="0.0044606400" flag="0"/>
    </comp>
  </station>
</stationlist>
