<?xml version="1.0" encoding="UTF-8" standalone="yes"?>
<!DOCTYPE earthquake SYSTEM "stationlist.dtd">
<stationlist created="" xmlns="ch.ethz.sed.shakemap.usgs.xml">
  <station code="ARPRA" name="ARPRA" netid="KO" insttype="CMG-5T" lat="39.0929" lon="38.3356">
    <comp name="--.HNN">
      <acc value="0.2452964344" flag="0"/>
      <vel value="0.0936405070" flag="0"/>
      <psa03 value="0.8444121270" flag="0"/>
      <psa10 value="0.0431928509" flag="0"/>
      <psa30 value="0.0030979848" flag="0"/>
    </comp>
    <comp name="--.HNZ">
      <acc value="0.0727274657" flag="0"/>
      <vel value="0.0267602023" flag="0"/>
      <psa03 value="0.1743865092" flag="0"/>
      <psa10 value="0.0419046305" flag="0"/>
      <psa30 value="0.0018939706" flag="0"/>
    </comp>
    <comp name="--.HNE">
      <acc value="0.2554796432" flag="0"/>
      <vel value="0.0969242879" flag="0"/>
      <psa03 value="0.7161763407" flag="0"/>
      <psa10 value="0.0548773579" flag="0"/>
      <psa30 value="0.0043640279" flag="0"/>
    </comp>
  </station>
  <station code="DARE" name="DARE" netid="KO" insttype="CMG-3ESP" lat="38.5712" lon="37.4832">
    <comp name="--.HHZ">
      <acc value="0.0078579252" flag="0"/>
      <vel value="0.0107355061" flag="0"/>
      <psa03 value="0.0247312379" flag="0"/>
      <psa10 value="0.0094388183" flag="0"/>
      <psa30 value="0.0023437094" flag="0"/>
    </comp>
    <comp name="--.HHN">
      <acc value="0.0107784989" flag="0"/>
      <vel value="0.0069884976" flag="0"/>
      <psa03 value="0.0433013245" flag="0"/>
      <psa10 value="0.0092061689" flag="0"/>
      <psa30 value="0.0010948927" flag="0"/>
    </comp>
  </station>
  <station code="DYBB" name="DYBB" netid="KO" insttype="CMG-3T" lat="37.9532" lon="40.1393">
    <comp name="--.HHE">
      <acc value="0.0231805292" flag="0"/>
      <vel value="0.0167752523" flag="0"/>
      <psa03 value="0.0391239523" flag="0"/>
      <psa10 value="0.0203570687" flag="0"/>
      <psa30 value="0.0043040030" flag="0"/>
    </comp>
    <comp name="--.HHN">
      <acc value="0.0241526865" flag="0"/>
      <vel value="0.0145492192" flag="0"/>
      <psa03 value="0.0421936124" flag="0"/>
      <psa10 value="0.0123013983" flag="0"/>
      <psa30 value="0.0034075360" flag="0"/>
    </comp>
    <comp name="--.HHZ">
      <acc value="0.0242745382" flag="0"/>
      <vel value="0.0161334037" flag="0"/>
      <psa03 value="0.0286867207" flag="0"/>
      <psa10 value="0.0259156421" flag="0"/>
      <psa30 value="0.0044606343" flag="0"/>
    </comp>
  </station>
</stationlist>
