<?xml version="1.0" encoding="UTF-8" standalone="yes"?>
<!DOCTYPE earthquake SYSTEM "stationlist.dtd">
<stationlist created="" xmlns="ch.ethz.sed.shakemap.usgs.xml">
  <station code="THERA" name="THERA" netid="GE" insttype="STS-2/N" lat="36.367" lon="25.4753">
    <comp name="--.HHE">
      <acc value="0.1025499814" flag="0"/>
      <vel value="0.0344507245" flag="0"/>
      <psa03 value="0.1858633132" flag="0"/>
      <psa10 value="0.0139084724" flag="0"/>
      <psa30 value="0.0008486550" flag="0"/>
    </comp>
    <comp name="--.HHN">
      <acc value="0.0584559479" flag="0"/>
      <vel value="0.0184397239" flag="0"/>
      <psa03 value="0.1496223321" flag="0"/>
      <psa10 value="0.0037229808" flag="0"/>
      <psa30 value="0.0004119610" flag="0"/>
    </comp>
    <comp name="--.HHZ">
      <acc value="0.0794496054" flag="0"/>
      <vel value="0.0263112046" flag="0"/>
      <psa03 value="0.1544989878" flag="0"/>
      <psa10 value="0.0079390926" flag="0"/>
      <psa30 value="0.0007264952" flag="0"/>
    </comp>
  </station>
  <station code="ZKR" name="ZKR" netid="GE" insttype="STS-2/N" lat="35.1147" lon="26.2169">
    <comp name="--.HHE">
      <acc value="0.0280392569" flag="0"/>
      <vel value="0.0113764864" flag="0"/>
      <psa03 value="0.0393847255" flag="0"/>
      <psa10 value="0.0102121194" flag="0"/>
      <psa30 value="0.0006458513" flag="0"/>
    </comp>
    <comp name="--.HHN">
      <acc value="0.0105906143" flag="0"/>
      <vel value="0.0056255532" flag="0"/>
      <psa03 value="0.0296144320" flag="0"/>
      <psa10 value="0.0049993269" flag="0"/>
      <psa30 value="0.0003098808" flag="0"/>
    </comp>
    <comp name="--.HHZ">
      <acc value="0.0191620020" flag="0"/>
      <vel value="0.0063143505" flag="0"/>
      <psa03 value="0.0386129550" flag="0"/>
      <psa10 value="0.0038266932" flag="0"/>
      <psa30 value="0.0002813670" flag="0"/>
    </comp>
  </station>
  <station code="SNT1" name="SNT1" netid="HA" insttype="30" lat="36.4159" lon="25.4282">
    <comp name="--.HHE">
      <acc value="0.0548533291" flag="0"/>
      <vel value="0.0182218981" flag="0"/>
      <psa03 value="0.0799164861" flag="0"/>
      <psa10 value="0.0187249456" flag="0"/>
      <psa30 value="0.0014815952" flag="0"/>
    </comp>
    <comp name="--.HHN">
      <acc value="0.0644108392" flag="0"/>
      <vel value="0.0196021776" flag="0"/>
      <psa03 value="0.1350963178" flag="0"/>
      <psa10 value="0.0154629412" flag="0"/>
      <psa30 value="0.0008825049" flag="0"/>
    </comp>
    <comp name="--.HHZ">
      <acc value="0.0448412463" flag="0"/>
      <vel value="0.0120858276" flag="0"/>
      <psa03 value="0.0543123309" flag="0"/>
      <psa10 value="0.0078176354" flag="0"/>
      <psa30 value="0.0005232957" flag="0"/>
    </comp>
  </station>
  <station code="SNT5" name="SNT5" netid="HA" insttype="1s-100Hz," lat="36.4037" lon="25.3953">
    <comp name="--.HHN">
      <acc value="0.1730387586" flag="0"/>
      <vel value="0.0330339029" flag="0"/>
      <psa03 value="0.2406917133" flag="0"/>
      <psa10 value="0.0076805632" flag="0"/>
      <psa30 value="0.0008812864" flag="0"/>
    </comp>
    <comp name="--.HHE">
      <acc value="0.1842105855" flag="0"/>
      <vel value="0.0616938557" flag="0"/>
      <psa03 value="0.2788126243" flag="0"/>
      <psa10 value="0.0149306290" flag="0"/>
      <psa30 value="0.0021555157" flag="0"/>
    </comp>
    <comp name="--.HHZ">
      <acc value="0.0719673696" flag="0"/>
      <vel value="0.0138736276" flag="0"/>
      <psa03 value="0.0561495231" flag="0"/>
      <psa10 value="0.0073440669" flag="0"/>
      <psa30 value="0.0003368477" flag="0"/>
    </comp>
  </station>
  <station code="IMOD" name="IMOD" netid="HC" insttype="120" lat="34.9731" lon="24.7995">
    <comp name="--.HHN">
      <acc value="0.0520123368" flag="0"/>
      <vel value="0.0322432410" flag="0"/>
      <psa03 value="0.1517648385" flag="0"/>
      <psa10 value="0.0143540380" flag="0"/>
      <psa30 value="0.0010426880" flag="0"/>
    </comp>
    <comp name="--.HHZ">
      <acc value="0.0259296364" flag="0"/>
      <vel value="0.0122575888" flag="0"/>
      <psa03 value="0.0684076806" flag="0"/>
      <psa10 value="0.0067936182" flag="0"/>
      <psa30 value="0.0004322916" flag="0"/>
    </comp>
    <comp name="--.HHE">
      <acc value="0.0603820014" flag="0"/>
      <vel value="0.0256600986" flag="0"/>
      <psa03 value="0.1986349375" flag="0"/>
      <psa10 value="0.0133019619" flag="0"/>
      <psa30 value="0.0009788997" flag="0"/>
    </comp>
  </station>
  <station code="IPPL" name="IPPL" netid="HC" insttype="60" lat="35.3486" lon="24.4632">
    <comp name="--.HHE">
      <acc value="0.0000000000" flag="0"/>
      <vel value="-100.0000000000" flag="0"/>
      <psa03 value="0.0000000000" flag="0"/>
      <psa10 value="0.0000000000" flag="0"/>
      <psa30 value="0.0000000000" flag="0"/>
    </comp>
    <comp name="--.HHN">
      <acc value="0.0000000000" flag="0"/>
      <vel value="-100.0000000000" flag="0"/>
      <psa03 value="0.0000000000" flag="0"/>
      <psa10 value="0.0000000000" flag="0"/>
      <psa30 value="0.0000000000" flag="0"/>
    </comp>
    <comp name="--.HHZ">
      <acc value="0.0448631357" flag="0"/>
      <vel value="0.0149304628" flag="0"/>
      <psa03 value="0.1015649522" flag="0"/>
      <psa10 value="0.0085065525" flag="0"/>
      <psa30 value="0.0004974448" flag="0"/>
    </comp>
  </station>
  <station code="KNSS" name="KNSS" netid="HC" insttype="60" lat="35.3042" lon="25.1802">
    <comp name="--.HHZ">
      <acc value="0.1436091598" flag="0"/>
      <vel value="0.0410170901" flag="0"/>
      <psa03 value="0.1976636368" flag="0"/>
      <psa10 value="0.0109580623" flag="0"/>
      <psa30 value="0.0009210089" flag="0"/>
    </comp>
    <comp name="--.HHN">
      <acc value="0.1038885169" flag="0"/>
      <vel value="0.0331904677" flag="0"/>
      <psa03 value="0.1540740953" flag="0"/>
      <psa10 value="0.0090116758" flag="0"/>
      <psa30 value="0.0008140535" flag="0"/>
    </comp>
    <comp name="--.HHE">
      <acc value="0.1242056362" flag="0"/>
      <vel value="0.0298906530" flag="0"/>
      <psa03 value="0.2405770127" flag="0"/>
      <psa10 value="0.0091531508" flag="0"/>
      <psa30 value="0.0009922118" flag="0"/>
    </comp>
  </station>
  <station code="PFKS" name="PFKS" netid="HC" insttype="120" lat="35.0429" lon="25.4733">
    <comp name="--.HHE">
      <acc value="0.1196601660" flag="0"/>
      <vel value="0.0342607444" flag="0"/>
      <psa03 value="0.1345839492" flag="0"/>
      <psa10 value="0.0125195514" flag="0"/>
      <psa30 value="0.0008765328" flag="0"/>
    </comp>
    <comp name="--.HHN">
      <acc value="0.1554824982" flag="0"/>
      <vel value="0.0309759855" flag="0"/>
      <psa03 value="0.2177228523" flag="0"/>
      <psa10 value="0.0149374123" flag="0"/>
      <psa30 value="0.0006753090" flag="0"/>
    </comp>
    <comp name="--.HHZ">
      <acc value="0.0753208084" flag="0"/>
      <vel value="0.0170734330" flag="0"/>
      <psa03 value="0.0840717234" flag="0"/>
      <psa10 value="0.0063742426" flag="0"/>
      <psa30 value="0.0005910362" flag="0"/>
    </comp>
  </station>
  <station code="STIA" name="STIA" netid="HC" insttype="120" lat="35.2021" lon="26.0909">
    <comp name="--.HHN">
      <acc value="0.0000000000" flag="0"/>
      <vel value="-100.0000000000" flag="0"/>
      <psa03 value="0.0000000000" flag="0"/>
      <psa10 value="0.0000000000" flag="0"/>
      <psa30 value="0.0000000000" flag="0"/>
    </comp>
    <comp name="--.HHE">
      <acc value="0.0379613785" flag="0"/>
      <vel value="0.0096541378" flag="0"/>
      <psa03 value="0.0547946690" flag="0"/>
      <psa10 value="0.0103525354" flag="0"/>
      <psa30 value="0.0006465623" flag="0"/>
    </comp>
    <comp name="--.HHZ">
      <acc value="0.0474980486" flag="0"/>
      <vel value="0.0097621753" flag="0"/>
      <psa03 value="0.0448357405" flag="0"/>
      <psa10 value="0.0041514003" flag="0"/>
      <psa30 value="0.0004097599" flag="0"/>
    </comp>
  </station>
  <station code="IACM" name="IACM" netid="HL" insttype="120" lat="35.3058" lon="25.0709">
    <comp name="--.HHZ">
      <acc value="0.3262828259" flag="0"/>
      <vel value="0.0762147859" flag="0"/>
      <psa03 value="0.2999288874" flag="0"/>
      <psa10 value="0.0307595624" flag="0"/>
      <psa30 value="0.0018802066" flag="0"/>
    </comp>
    <comp name="--.HHE">
      <acc value="0.3660432120" flag="0"/>
      <vel value="0.1007953520" flag="0"/>
      <psa03 value="0.5088177505" flag="0"/>
      <psa10 value="0.0815124585" flag="0"/>
      <psa30 value="0.0035843213" flag="0"/>
    </comp>
    <comp name="--.HHN">
      <acc value="0.4248276373" flag="0"/>
      <vel value="0.1222151046" flag="0"/>
      <psa03 value="0.8519124366" flag="0"/>
      <psa10 value="0.0416538296" flag="0"/>
      <psa30 value="0.0029802471" flag="0"/>
    </comp>
  </station>
  <station code="IDI" name="IDI" netid="HL" insttype="120" lat="35.288" lon="24.89">
    <comp name="--.HHN">
      <acc value="0.0736577483" flag="0"/>
      <vel value="0.0254136296" flag="0"/>
      <psa03 value="0.0972183799" flag="0"/>
      <psa10 value="0.0063349154" flag="0"/>
      <psa30 value="0.0008086806" flag="0"/>
    </comp>
    <comp name="--.HHZ">
      <acc value="0.0479620763" flag="0"/>
      <vel value="0.0152860087" flag="0"/>
      <psa03 value="0.0733097523" flag="0"/>
      <psa10 value="0.0057962060" flag="0"/>
      <psa30 value="0.0004889794" flag="0"/>
    </comp>
    <comp name="--.HHE">
      <acc value="0.0726934392" flag="0"/>
      <vel value="0.0188342679" flag="0"/>
      <psa03 value="0.0774991691" flag="0"/>
      <psa10 value="0.0064285554" flag="0"/>
      <psa30 value="0.0005122687" flag="0"/>
    </comp>
  </station>
  <station code="SIVA" name="SIVA" netid="HL" insttype="60" lat="35.0178" lon="24.812">
    <comp name="--.HHE">
      <acc value="0.0664320523" flag="0"/>
      <vel value="0.0275263647" flag="0"/>
      <psa03 value="0.1135938105" flag="0"/>
      <psa10 value="0.0221205412" flag="0"/>
      <psa30 value="0.0012015058" flag="0"/>
    </comp>
    <comp name="--.HHN">
      <acc value="0.0826559404" flag="0"/>
      <vel value="0.0332433004" flag="0"/>
      <psa03 value="0.1586439810" flag="0"/>
      <psa10 value="0.0124300375" flag="0"/>
      <psa30 value="0.0011494747" flag="0"/>
    </comp>
    <comp name="--.HHZ">
      <acc value="0.0430465494" flag="0"/>
      <vel value="0.0192096644" flag="0"/>
      <psa03 value="0.0862485512" flag="0"/>
      <psa10 value="0.0091775150" flag="0"/>
      <psa30 value="0.0005389137" flag="0"/>
    </comp>
  </station>
  <station code="THERA" name="THERA" netid="HL" insttype="120" lat="36.367" lon="25.4753">
    <comp name="--.HHE">
      <acc value="0.0998997534" flag="0"/>
      <vel value="0.0331845727" flag="0"/>
      <psa03 value="0.1803098907" flag="0"/>
      <psa10 value="0.0136628838" flag="0"/>
      <psa30 value="0.0008325728" flag="0"/>
    </comp>
    <comp name="--.HHZ">
      <acc value="0.0775786278" flag="0"/>
      <vel value="0.0254442164" flag="0"/>
      <psa03 value="0.1504359094" flag="0"/>
      <psa10 value="0.0078362082" flag="0"/>
      <psa30 value="0.0007143400" flag="0"/>
    </comp>
    <comp name="--.HHN">
      <acc value="0.0567963938" flag="0"/>
      <vel value="0.0177840622" flag="0"/>
      <psa03 value="0.1455126427" flag="0"/>
      <psa10 value="0.0036154820" flag="0"/>
      <psa30 value="0.0004007021" flag="0"/>
    </comp>
  </station>
  <station code="ZKR" name="ZKR" netid="HL" insttype="120" lat="35.1147" lon="26.2169">
    <comp name="--.HHN">
      <acc value="0.0102660197" flag="0"/>
      <vel value="0.0054938499" flag="0"/>
      <psa03 value="0.0288035335" flag="0"/>
      <psa10 value="0.0049496145" flag="0"/>
      <psa30 value="0.0003063999" flag="0"/>
    </comp>
    <comp name="--.HHE">
      <acc value="0.0273652276" flag="0"/>
      <vel value="0.0111683749" flag="0"/>
      <psa03 value="0.0382806791" flag="0"/>
      <psa10 value="0.0101193758" flag="0"/>
      <psa30 value="0.0006392726" flag="0"/>
    </comp>
    <comp name="--.HHZ">
      <acc value="0.0192163811" flag="0"/>
      <vel value="0.0061276823" flag="0"/>
      <psa03 value="0.0375538199" flag="0"/>
      <psa10 value="0.0038005480" flag="0"/>
      <psa30 value="0.0002781571" flag="0"/>
    </comp>
  </station>
  <station code="CMBO" name="CMBO" netid="HT" insttype="120P," lat="36.4709" lon="25.4056">
    <comp name="--.HHE">
      <acc value="0.1771512612" flag="0"/>
      <vel value="0.0654031002" flag="0"/>
      <psa03 value="0.2176079003" flag="0"/>
      <psa10 value="0.0656668020" flag="0"/>
      <psa30 value="0.0026749711" flag="0"/>
    </comp>
    <comp name="--.HHN">
      <acc value="0.1538925863" flag="0"/>
      <vel value="0.0680526266" flag="0"/>
      <psa03 value="0.4612967071" flag="0"/>
      <psa10 value="0.0419172549" flag="0"/>
      <psa30 value="0.0022862908" flag="0"/>
    </comp>
    <comp name="--.HHZ">
      <acc value="0.1775404862" flag="0"/>
      <vel value="0.0517927425" flag="0"/>
      <psa03 value="0.3280289248" flag="0"/>
      <psa10 value="0.0126048851" flag="0"/>
      <psa30 value="0.0014567939" flag="0"/>
    </comp>
  </station>
  <station code="IDI" name="IDI" netid="MN" insttype="" lat="35.288" lon="24.89">
    <comp name="--.HHE">
      <acc value="0.0762699312" flag="0"/>
      <vel value="0.0201900717" flag="0"/>
      <psa03 value="0.0785124969" flag="0"/>
      <psa10 value="0.0063857370" flag="0"/>
      <psa30 value="0.0005126752" flag="0"/>
    </comp>
    <comp name="--.HHN">
      <acc value="0.0770495951" flag="0"/>
      <vel value="0.0255003421" flag="0"/>
      <psa03 value="0.0981869418" flag="0"/>
      <psa10 value="0.0064224574" flag="0"/>
      <psa30 value="0.0008165766" flag="0"/>
    </comp>
    <comp name="--.HHZ">
      <acc value="0.0495208833" flag="0"/>
      <vel value="0.0159825711" flag="0"/>
      <psa03 value="0.0745886484" flag="0"/>
      <psa10 value="0.0058046191" flag="0"/>
      <psa30 value="0.0004903796" flag="0"/>
    </comp>
  </station>
</stationlist>
