<?xml version="1.0" encoding="UTF-8" standalone="yes"?>
<!DOCTYPE earthquake SYSTEM "stationlist.dtd">
<stationlist created="" xmlns="ch.ethz.sed.shakemap.usgs.xml">
  <station code="THERA" name="THERA" netid="GE" insttype="STS-2/N" lat="36.367" lon="25.4753">
    <comp name="--.HHE">
      <acc value="0.1025499814" flag="0"/>
      <vel value="0.0344507245" flag="0"/>
      <psa03 value="0.1858633132" flag="0"/>
      <psa10 value="0.0139084724" flag="0"/>
      <psa30 value="0.0008486550" flag="0"/>
    </comp>
    <comp name="--.HHN">
      <acc value="0.0584559479" flag="0"/>
      <vel value="0.0184397239" flag="0"/>
      <psa03 value="0.1496223321" flag="0"/>
      <psa10 value="0.0037229808" flag="0"/>
      <psa30 value="0.0004119610" flag="0"/>
    </comp>
    <comp name="--.HHZ">
      <acc value="0.0794496054" flag="0"/>
      <vel value="0.0263112046" flag="0"/>
      <psa03 value="0.1544989878" flag="0"/>
      <psa10 value="0.0079390926" flag="0"/>
      <psa30 value="0.0007264952" flag="0"/>
    </comp>
  </station>
  <station code="ZKR" name="ZKR" netid="GE" insttype="STS-2/N" lat="35.1147" lon="26.2169">
    <comp name="--.HHN">
      <acc value="0.0105906143" flag="0"/>
      <vel value="0.0056255532" flag="0"/>
      <psa03 value="0.0296144320" flag="0"/>
      <psa10 value="0.0049993269" flag="0"/>
      <psa30 value="0.0003098808" flag="0"/>
    </comp>
    <comp name="--.HHE">
      <acc value="0.0280392569" flag="0"/>
      <vel value="0.0113764864" flag="0"/>
      <psa03 value="0.0393847255" flag="0"/>
      <psa10 value="0.0102121194" flag="0"/>
      <psa30 value="0.0006458513" flag="0"/>
    </comp>
    <comp name="--.HHZ">
      <acc value="0.0191620020" flag="0"/>
      <vel value="0.0063143505" flag="0"/>
      <psa03 value="0.0386129550" flag="0"/>
      <psa10 value="0.0038266932" flag="0"/>
      <psa30 value="0.0002813670" flag="0"/>
    </comp>
  </station>
  <station code="IDI" name="IDI" netid="MN" insttype="" lat="35.288" lon="24.89">
    <comp name="--.HHN">
      <acc value="0.0770495951" flag="0"/>
      <vel value="0.0255003429" flag="0"/>
      <psa03 value="0.0981869418" flag="0"/>
      <psa10 value="0.0064224575" flag="0"/>
      <psa30 value="0.0008164779" flag="0"/>
    </comp>
    <comp name="--.HHZ">
      <acc value="0.0495208833" flag="0"/>
      <vel value="0.0159825710" flag="0"/>
      <psa03 value="0.0745886484" flag="0"/>
      <psa10 value="0.0058046189" flag="0"/>
      <psa30 value="0.0004903645" flag="0"/>
    </comp>
    <comp name="--.HHE">
      <acc value="0.0762699312" flag="0"/>
      <vel value="0.0201900717" flag="0"/>
      <psa03 value="0.0785124969" flag="0"/>
      <psa10 value="0.0063857370" flag="0"/>
      <psa30 value="0.0005126752" flag="0"/>
    </comp>
  </station>
</stationlist>
