<stationlist xmlns:esm="https://esm-db.eu/esmws/shakemap/1/" created="1783994393">
	<station code="KSS1" name="KSS1" netid="HI" source="ITSAK Strong Motion Network" insttype="" lat="35.4189" lon="26.9207" esm:processing="manual (Paolucci et al 2011)" esm:quality="good">
		<comp name="--.HNE" depth="0.0">
			<acc value="0.00441410647650399" flag="0"/>
			<vel value="0.00140942084861666" flag="0"/>
			<psa03 value="0.0145546894371763" flag="0"/>
			<psa10 value="0.000689162645831531" flag="0"/>
			<psa30 value="7.66745324364901e-05" flag="0"/>
		</comp>
		<comp name="--.HNN" depth="0.0">
			<acc value="0.00662365526374243" flag="0"/>
			<vel value="0.00201056342258997" flag="0"/>
			<psa03 value="0.0186545521787773" flag="0"/>
			<psa10 value="0.000612784265823915" flag="0"/>
			<psa30 value="0.000106402973153995" flag="0"/>
		</comp>
		<comp name="--.HNZ" depth="0.0">
			<acc value="0.00921783280304058" flag="0"/>
			<vel value="0.00196088500965303" flag="0"/>
			<psa03 value="0.00555686811522207" flag="0"/>
			<psa10 value="0.000527633644543856" flag="0"/>
			<psa30 value="0.000106839610151988" flag="0"/>
		</comp>
	</station>
	<station code="RDI1" name="RDI1" netid="HI" source="ITSAK Strong Motion Network" insttype="" lat="36.4514" lon="28.224" esm:processing="manual (Paolucci et al 2011)" esm:quality="best">
		<comp name="--.HNE" depth="0.0">
			<acc value="0.0894133443555516" flag="0"/>
			<vel value="0.0485957067645442" flag="0"/>
			<psa03 value="0.204505380811235" flag="0"/>
			<psa10 value="0.0368443120048591" flag="0"/>
			<psa30 value="0.00241077407695015" flag="0"/>
		</comp>
		<comp name="--.HNN" depth="0.0">
			<acc value="0.1226605022317" flag="0"/>
			<vel value="0.0370116623841088" flag="0"/>
			<psa03 value="0.124030601835378" flag="0"/>
			<psa10 value="0.0159496997143441" flag="0"/>
			<psa30 value="0.00156633282436236" flag="0"/>
		</comp>
		<comp name="--.HNZ" depth="0.0">
			<acc value="0.0557843667606303" flag="0"/>
			<vel value="0.0217177736377351" flag="0"/>
			<psa03 value="0.149109159000011" flag="0"/>
			<psa10 value="0.0148705010352281" flag="0"/>
			<psa30 value="0.00101262614401208" flag="0"/>
		</comp>
	</station>
	<station code="KARP" name="KARP" netid="HL" source="National Observatory of Athens Seismic Network" insttype="" lat="35.5471" lon="27.16106" esm:processing="automatic (Paolucci et al 2011)" esm:quality="best">
		<comp name="--.HNE" depth="0.0">
			<acc value="0.0318398774798474" flag="0"/>
			<vel value="0.00567807145027874" flag="0"/>
			<psa03 value="0.0244540236048658" flag="0"/>
			<psa10 value="0.00157643474356564" flag="0"/>
			<psa30 value="0.000149546482241441" flag="0"/>
		</comp>
		<comp name="--.HNN" depth="0.0">
			<acc value="0.0172955157026065" flag="0"/>
			<vel value="0.00426977396727958" flag="0"/>
			<psa03 value="0.0214701084872371" flag="0"/>
			<psa10 value="0.0012845013419094" flag="0"/>
			<psa30 value="0.000135766194364919" flag="0"/>
		</comp>
		<comp name="--.HNZ" depth="0.0">
			<acc value="0.0285881352944567" flag="0"/>
			<vel value="0.00498643989378246" flag="0"/>
			<psa03 value="0.0137556456190288" flag="0"/>
			<psa10 value="0.00130233307004762" flag="0"/>
			<psa30 value="0.000145342505831958" flag="0"/>
		</comp>
	</station>
	<station code="RODB" name="RODB" netid="HL" source="National Observatory of Athens Seismic Network" insttype="" lat="36.4471" lon="28.22116" esm:processing="manual (Paolucci et al 2011)" esm:quality="good">
		<comp name="00.HNE" depth="0.0">
			<acc value="0.0681970673470394" flag="0"/>
			<vel value="0.0250013372828476" flag="0"/>
			<psa03 value="0.145740810863461" flag="0"/>
			<psa10 value="0.0210473974117833" flag="0"/>
			<psa30 value="0.0021800542095589" flag="0"/>
		</comp>
		<comp name="00.HNN" depth="0.0">
			<acc value="0.116327135512177" flag="0"/>
			<vel value="0.0394646155231087" flag="0"/>
			<psa03 value="0.179360027554905" flag="0"/>
			<psa10 value="0.0323348782769945" flag="0"/>
			<psa30 value="0.00192048888963033" flag="0"/>
		</comp>
		<comp name="00.HNZ" depth="0.0">
			<acc value="0.0869105681388039" flag="0"/>
			<vel value="0.022910621748181" flag="0"/>
			<psa03 value="0.142891090833495" flag="0"/>
			<psa10 value="0.0152628145240562" flag="0"/>
			<psa30 value="0.000839209030979678" flag="0"/>
		</comp>
	</station>
	<station code="BASM" name="BASM" netid="KO" source="Bogazici University Kandilli Observatory And Earthquake Research Institute (KOERI)" insttype="" lat="37.9194" lon="30.035" esm:processing="automatic (Paolucci et al 2011)" esm:quality="good">
		<comp name="--.HNE" depth="0.0">
			<acc value="0.00359352208173483" flag="0"/>
			<vel value="0.000753767953451525" flag="0"/>
			<psa03 value="0.00336975089872992" flag="0"/>
			<psa10 value="0.00147006515803995" flag="0"/>
			<psa30 value="0.000142246454379677" flag="0"/>
		</comp>
		<comp name="--.HNN" depth="0.0">
			<acc value="0.00205664822667885" flag="0"/>
			<vel value="0.000708019426628218" flag="0"/>
			<psa03 value="0.00286720621438084" flag="0"/>
			<psa10 value="0.00116875156467925" flag="0"/>
			<psa30 value="8.4920632085411e-05" flag="0"/>
		</comp>
		<comp name="--.HNZ" depth="0.0">
			<acc value="0.00538337607295226" flag="0"/>
			<vel value="0.000894272257998335" flag="0"/>
			<psa03 value="0.00247038646999036" flag="0"/>
			<psa10 value="0.00080411608124526" flag="0"/>
			<psa30 value="6.34587220582366e-05" flag="0"/>
		</comp>
	</station>
	<station code="CAME" name="CAME" netid="KO" source="Bogazici University Kandilli Observatory And Earthquake Research Institute (KOERI)" insttype="" lat="36.9435" lon="29.3023" esm:processing="automatic (Paolucci et al 2011)" esm:quality="best">
		<comp name="--.HNE" depth="0.0">
			<acc value="0.109891241060286" flag="0"/>
			<vel value="0.030318786550506" flag="0"/>
			<psa03 value="0.13876053595439" flag="0"/>
			<psa10 value="0.00887997231709916" flag="0"/>
			<psa30 value="0.000726131644326125" flag="0"/>
		</comp>
		<comp name="--.HNN" depth="0.0">
			<acc value="0.0702374431511567" flag="0"/>
			<vel value="0.0265218140619174" flag="0"/>
			<psa03 value="0.161149039916176" flag="0"/>
			<psa10 value="0.00912432350415946" flag="0"/>
			<psa30 value="0.000932099767866282" flag="0"/>
		</comp>
		<comp name="--.HNZ" depth="0.0">
			<acc value="0.0813476609713064" flag="0"/>
			<vel value="0.0170765150673968" flag="0"/>
			<psa03 value="0.0711878043842032" flag="0"/>
			<psa10 value="0.00386503533649612" flag="0"/>
			<psa30 value="0.000382608002152512" flag="0"/>
		</comp>
	</station>
	<station code="NAZL" name="NAZL" netid="KO" source="Bogazici University Kandilli Observatory And Earthquake Research Institute (KOERI)" insttype="" lat="37.9641" lon="28.2922" esm:processing="automatic (Paolucci et al 2011)" esm:quality="good">
		<comp name="--.HNE" depth="0.0">
			<acc value="0.00783645462238218" flag="0"/>
			<vel value="0.00311249124663075" flag="0"/>
			<psa03 value="0.0147783006044544" flag="0"/>
			<psa10 value="0.00232188732926354" flag="0"/>
			<psa30 value="0.000326469179064393" flag="0"/>
		</comp>
		<comp name="--.HNN" depth="0.0">
			<acc value="0.010679525454147" flag="0"/>
			<vel value="0.00420633083428671" flag="0"/>
			<psa03 value="0.0352154604556013" flag="0"/>
			<psa10 value="0.00215391698330559" flag="0"/>
			<psa30 value="0.000142870688440259" flag="0"/>
		</comp>
		<comp name="--.HNZ" depth="0.0">
			<acc value="0.00357793613692123" flag="0"/>
			<vel value="0.00149080968713258" flag="0"/>
			<psa03 value="0.00961448912627333" flag="0"/>
			<psa10 value="0.000710287150692069" flag="0"/>
			<psa30 value="0.000138017932073051" flag="0"/>
		</comp>
	</station>
	<station code="ODEM" name="ODEM" netid="KO" source="Bogazici University Kandilli Observatory And Earthquake Research Institute (KOERI)" insttype="" lat="38.2762" lon="28.0747" esm:processing="automatic (Paolucci et al 2011)" esm:quality="good">
		<comp name="--.HNE" depth="0.0">
			<acc value="0.00194877240283966" flag="0"/>
			<vel value="0.00163146063866937" flag="0"/>
			<psa03 value="0.00612568769779865" flag="0"/>
			<psa10 value="0.00234203296068835" flag="0"/>
			<psa30 value="0.00047168629898664" flag="0"/>
		</comp>
		<comp name="--.HNN" depth="0.0">
			<acc value="0.00630884756534693" flag="0"/>
			<vel value="0.00175474464229909" flag="0"/>
			<psa03 value="0.00710677482542866" flag="0"/>
			<psa10 value="0.000898522667247469" flag="0"/>
			<psa30 value="6.91110366002672e-05" flag="0"/>
		</comp>
		<comp name="--.HNZ" depth="0.0">
			<acc value="0.00217830576969121" flag="0"/>
			<vel value="0.00105663863239446" flag="0"/>
			<psa03 value="0.00378037771011406" flag="0"/>
			<psa10 value="0.00111075643372391" flag="0"/>
			<psa30 value="0.000247881863665174" flag="0"/>
		</comp>
	</station>
	<station code="KLNA" name="KLNA" netid="HL" source="National Observatory of Athens Seismic Network" insttype="" lat="36.95708" lon="26.97274" esm:processing="automatic (Paolucci et al 2011)" esm:quality="bad">
		<comp name="00.HNE" depth="0.0">
			<acc value="0" flag="1"/>
			<vel value="0" flag="1"/>
			<psa03 value="0" flag="1"/>
			<psa10 value="0" flag="1"/>
			<psa30 value="0" flag="1"/>
		</comp>
		<comp name="00.HNN" depth="0.0">
			<acc value="0" flag="1"/>
			<vel value="0" flag="1"/>
			<psa03 value="0" flag="1"/>
			<psa10 value="0" flag="1"/>
			<psa30 value="0" flag="1"/>
		</comp>
		<comp name="00.HNZ" depth="0.0">
			<acc value="0" flag="1"/>
			<vel value="0" flag="1"/>
			<psa03 value="0" flag="1"/>
			<psa10 value="0" flag="1"/>
			<psa30 value="0" flag="1"/>
		</comp>
	</station>
	<station code="NISR" name="NISR" netid="HL" source="National Observatory of Athens Seismic Network" insttype="" lat="36.6106" lon="27.131" esm:processing="automatic (Paolucci et al 2011)" esm:quality="bad">
		<comp name="--.HNE" depth="0.0">
			<acc value="0" flag="1"/>
			<vel value="0" flag="1"/>
			<psa03 value="0" flag="1"/>
			<psa10 value="0" flag="1"/>
			<psa30 value="0" flag="1"/>
		</comp>
		<comp name="--.HNN" depth="0.0">
			<acc value="0" flag="1"/>
			<vel value="0" flag="1"/>
			<psa03 value="0" flag="1"/>
			<psa10 value="0" flag="1"/>
			<psa30 value="0" flag="1"/>
		</comp>
		<comp name="--.HNZ" depth="0.0">
			<acc value="0" flag="1"/>
			<vel value="0" flag="1"/>
			<psa03 value="0" flag="1"/>
			<psa10 value="0" flag="1"/>
			<psa30 value="0" flag="1"/>
		</comp>
	</station>
	<station code="SMG" name="SMG" netid="HL" source="National Observatory of Athens Seismic Network" insttype="" lat="37.70425" lon="26.83772" esm:processing="discarded" esm:quality="good">
		<comp name="00.HNE" depth="0.0">
			<acc value="0" flag="1"/>
			<vel value="0" flag="1"/>
			<psa03 value="0" flag="1"/>
			<psa10 value="0" flag="1"/>
			<psa30 value="0" flag="1"/>
		</comp>
		<comp name="00.HNN" depth="0.0">
			<acc value="0" flag="1"/>
			<vel value="0" flag="1"/>
			<psa03 value="0" flag="1"/>
			<psa10 value="0" flag="1"/>
			<psa30 value="0" flag="1"/>
		</comp>
		<comp name="00.HNZ" depth="0.0">
			<acc value="0" flag="1"/>
			<vel value="0" flag="1"/>
			<psa03 value="0" flag="1"/>
			<psa10 value="0" flag="1"/>
			<psa30 value="0" flag="1"/>
		</comp>
	</station>
</stationlist>
