<?xml version="1.0" encoding="UTF-8" standalone="yes"?>
<!DOCTYPE earthquake SYSTEM "stationlist.dtd">
<stationlist created="" xmlns="ch.ethz.sed.shakemap.usgs.xml">
  <station code="RDI1" name="RDI1" netid="HI" insttype="CMG-5TD,ACCELEROMETER,GURALP" lat="36.4514" lon="28.224">
    <comp name="--.HNN">
      <acc value="0.1218059325" flag="0"/>
      <vel value="0.0363838987" flag="0"/>
      <psa03 value="0.1214623072" flag="0"/>
      <psa10 value="0.0158927598" flag="0"/>
      <psa30 value="0.0015971310" flag="0"/>
    </comp>
    <comp name="--.HNE">
      <acc value="0.0894682672" flag="0"/>
      <vel value="0.0478376257" flag="0"/>
      <psa03 value="0.2069494382" flag="0"/>
      <psa10 value="0.0367543970" flag="0"/>
      <psa30 value="0.0022612820" flag="0"/>
    </comp>
    <comp name="--.HNZ">
      <acc value="0.0556868321" flag="0"/>
      <vel value="0.0216705267" flag="0"/>
      <psa03 value="0.1478364829" flag="0"/>
      <psa10 value="0.0148148201" flag="0"/>
      <psa30 value="0.0009688246" flag="0"/>
    </comp>
  </station>
  <station code="ARG" name="ARG" netid="HL" insttype="LE3D20_DR24" lat="36.2136" lon="28.1212">
    <comp name="--.HHE">
      <acc value="0.1156551606" flag="0"/>
      <vel value="0.0381202281" flag="0"/>
      <psa03 value="0.2597783074" flag="0"/>
      <psa10 value="0.0207204933" flag="0"/>
      <psa30 value="0.0017115513" flag="0"/>
    </comp>
    <comp name="--.HHZ">
      <acc value="0.0629937748" flag="0"/>
      <vel value="0.0172031587" flag="0"/>
      <psa03 value="0.0795127713" flag="0"/>
      <psa10 value="0.0075809541" flag="0"/>
      <psa30 value="0.0005107143" flag="0"/>
    </comp>
    <comp name="--.HHN">
      <acc value="0.0952050575" flag="0"/>
      <vel value="0.0311174033" flag="0"/>
      <psa03 value="0.2025081968" flag="0"/>
      <psa10 value="0.0136807729" flag="0"/>
      <psa30 value="0.0013523520" flag="0"/>
    </comp>
  </station>
  <station code="RODB" name="RODB" netid="HL" insttype="CMG-5" lat="36.4471" lon="28.2212">
    <comp name="00.HNE">
      <acc value="0.0680063935" flag="0"/>
      <vel value="0.0249800363" flag="0"/>
      <psa03 value="0.1456225047" flag="0"/>
      <psa10 value="0.0210567886" flag="0"/>
      <psa30 value="0.0022334200" flag="0"/>
    </comp>
    <comp name="00.HNZ">
      <acc value="0.0862642118" flag="0"/>
      <vel value="0.0227958464" flag="0"/>
      <psa03 value="0.1422410892" flag="0"/>
      <psa10 value="0.0152694425" flag="0"/>
      <psa30 value="0.0008315020" flag="0"/>
    </comp>
    <comp name="00.HNN">
      <acc value="0.1161919374" flag="0"/>
      <vel value="0.0393412697" flag="0"/>
      <psa03 value="0.1792789729" flag="0"/>
      <psa10 value="0.0323093009" flag="0"/>
      <psa30 value="0.0019663121" flag="0"/>
    </comp>
  </station>
  <station code="FETY" name="FETY" netid="KO" insttype="120s," lat="36.6353" lon="29.0835">
    <comp name="--.HHZ">
      <acc value="0.0768519945" flag="0"/>
      <vel value="0.0199160075" flag="0"/>
      <psa03 value="0.1091509317" flag="0"/>
      <psa10 value="0.0060624220" flag="0"/>
      <psa30 value="0.0005050652" flag="0"/>
    </comp>
    <comp name="--.HHN">
      <acc value="0.1275741072" flag="0"/>
      <vel value="0.0377435000" flag="0"/>
      <psa03 value="0.1469931115" flag="0"/>
      <psa10 value="0.0162114849" flag="0"/>
      <psa30 value="0.0015502537" flag="0"/>
    </comp>
  </station>
</stationlist>
