<?xml version="1.0" encoding="UTF-8" standalone="yes"?>
<!DOCTYPE earthquake SYSTEM "stationlist.dtd">
<stationlist created="" xmlns="ch.ethz.sed.shakemap.usgs.xml">
  <station code="ARPRA" name="ARPRA" netid="KO" insttype="CMG-5T" lat="39.0929" lon="38.3356">
    <comp name="--.HNE">
      <acc value="0.9925122492" flag="0"/>
      <vel value="0.6064644148" flag="0"/>
      <psa03 value="2.3900659749" flag="0"/>
      <psa10 value="0.7778551246" flag="0"/>
      <psa30 value="0.0740852970" flag="0"/>
    </comp>
    <comp name="--.HNZ">
      <acc value="0.6618822879" flag="0"/>
      <vel value="0.3821241594" flag="0"/>
      <psa03 value="1.3900132800" flag="0"/>
      <psa10 value="0.7082514407" flag="0"/>
      <psa30 value="0.0518343965" flag="0"/>
    </comp>
    <comp name="--.HNN">
      <acc value="1.0637017544" flag="0"/>
      <vel value="0.5856367325" flag="0"/>
      <psa03 value="2.0516865660" flag="0"/>
      <psa10 value="0.8514029217" flag="0"/>
      <psa30 value="0.0973630260" flag="0"/>
    </comp>
  </station>
  <station code="DARE" name="DARE" netid="KO" insttype="CMG-3ESP" lat="38.5712" lon="37.4832">
    <comp name="--.HHE">
      <acc value="0.1880667093" flag="0"/>
      <vel value="0.0722985900" flag="0"/>
      <psa03 value="0.2894699254" flag="0"/>
      <psa10 value="0.0924483778" flag="0"/>
      <psa30 value="0.0102853022" flag="0"/>
    </comp>
  </station>
  <station code="RFHY" name="RFHY" netid="KO" insttype="CMG-5T" lat="39.927" lon="38.833">
    <comp name="--.HNZ">
      <acc value="0.0479598012" flag="0"/>
      <vel value="0.0378418693" flag="0"/>
      <psa03 value="0.2299048680" flag="0"/>
      <psa10 value="0.0617236377" flag="0"/>
      <psa30 value="0.0089136914" flag="0"/>
    </comp>
    <comp name="--.HNE">
      <acc value="0.0069091028" flag="0"/>
      <vel value="0.0305440607" flag="0"/>
      <psa03 value="0.0183517225" flag="0"/>
      <psa10 value="0.0086080775" flag="0"/>
      <psa30 value="0.0094684300" flag="0"/>
    </comp>
    <comp name="--.HNN">
      <acc value="0.1173419013" flag="0"/>
      <vel value="0.1016056217" flag="0"/>
      <psa03 value="0.2989922578" flag="0"/>
      <psa10 value="0.1238765747" flag="0"/>
      <psa30 value="0.0162589698" flag="0"/>
    </comp>
  </station>
  <station code="SVRC" name="SVRC" netid="KO" insttype="CMG-3T" lat="38.3775" lon="39.306">
    <comp name="--.HHZ">
      <acc value="0.0408235821" flag="0"/>
      <vel value="0.0319601787" flag="0"/>
      <psa03 value="0.1413692650" flag="0"/>
      <psa10 value="0.0535205204" flag="0"/>
      <psa30 value="0.0048711688" flag="0"/>
    </comp>
  </station>
  <station code="TUNC" name="TUNC" netid="KO" insttype="CMG-5T" lat="39.6942" lon="37.5388">
    <comp name="--.HNN">
      <acc value="0.1656175743" flag="0"/>
      <vel value="0.1078761092" flag="0"/>
      <psa03 value="0.3155860385" flag="0"/>
      <psa10 value="0.1105063320" flag="0"/>
      <psa30 value="0.0168362410" flag="0"/>
    </comp>
    <comp name="--.HNZ">
      <acc value="0.1152773737" flag="0"/>
      <vel value="0.0795466067" flag="0"/>
      <psa03 value="0.2716840048" flag="0"/>
      <psa10 value="0.0796647600" flag="0"/>
      <psa30 value="0.0081297736" flag="0"/>
    </comp>
    <comp name="--.HNE">
      <acc value="0.1772876663" flag="0"/>
      <vel value="0.1501827424" flag="0"/>
      <psa03 value="0.5047437385" flag="0"/>
      <psa10 value="0.2022374500" flag="0"/>
      <psa30 value="0.0172110169" flag="0"/>
    </comp>
  </station>
</stationlist>
