<?xml version="1.0" encoding="UTF-8" standalone="yes"?>
<!DOCTYPE earthquake SYSTEM "stationlist.dtd">
<stationlist created="" xmlns="ch.ethz.sed.shakemap.usgs.xml">
  <station code="ANDN" name="ANDN" netid="TU" insttype="T" lat="37.58" lon="36.3452">
    <comp name="--.HHE">
      <acc value="0.3556572860" flag="0"/>
      <vel value="0.1483936198" flag="0"/>
      <psa03 value="0.7426417629" flag="0"/>
      <psa10 value="0.1097448789" flag="0"/>
      <psa30 value="0.0065697052" flag="0"/>
    </comp>
    <comp name="--.HHZ">
      <acc value="0.3285391276" flag="0"/>
      <vel value="0.1063495406" flag="0"/>
      <psa03 value="0.6441946907" flag="0"/>
      <psa10 value="0.1017720410" flag="0"/>
      <psa30 value="0.0076062784" flag="0"/>
    </comp>
    <comp name="--.HHN">
      <acc value="0.6005678898" flag="0"/>
      <vel value="0.1605322528" flag="0"/>
      <psa03 value="0.9873887055" flag="0"/>
      <psa10 value="0.0712426775" flag="0"/>
      <psa30 value="0.0128378798" flag="0"/>
    </comp>
  </station>
</stationlist>
