<?xml version="1.0" encoding="UTF-8" standalone="yes"?>
<!DOCTYPE earthquake SYSTEM "stationlist.dtd">
<stationlist created="" xmlns="ch.ethz.sed.shakemap.usgs.xml">
  <station code="BAC" name="BAC" netid="RO" insttype="2.5V" lat="46.5669" lon="26.9124">
    <comp name="--.HNE">
      <acc value="0.0440028810" flag="0"/>
      <vel value="0.0115615456" flag="0"/>
      <psa03 value="0.0323587105" flag="0"/>
      <psa10 value="0.0034354457" flag="0"/>
      <psa30 value="0.0003042608" flag="0"/>
    </comp>
    <comp name="--.HNN">
      <acc value="0.0298186285" flag="0"/>
      <vel value="0.0083862108" flag="0"/>
      <psa03 value="0.0493729157" flag="0"/>
      <psa10 value="0.0030197900" flag="0"/>
      <psa30 value="0.0003004627" flag="0"/>
    </comp>
    <comp name="--.HNZ">
      <acc value="0.0210704943" flag="0"/>
      <vel value="0.0038709465" flag="0"/>
      <psa03 value="0.0110518471" flag="0"/>
      <psa10 value="0.0010177890" flag="0"/>
      <psa30 value="0.0000994492" flag="0"/>
    </comp>
  </station>
  <station code="BIR" name="BIR" netid="RO" insttype="MBB2/Quanterra" lat="46.2334" lon="27.6436">
    <comp name="--.HHZ">
      <acc value="0.0303845431" flag="0"/>
      <vel value="0.0061091384" flag="0"/>
      <psa03 value="0.0283235999" flag="0"/>
      <psa10 value="0.0010032514" flag="0"/>
      <psa30 value="0.0000918045" flag="0"/>
    </comp>
    <comp name="--.HHE">
      <acc value="0.0606043561" flag="0"/>
      <vel value="0.0167809422" flag="0"/>
      <psa03 value="0.0801468874" flag="0"/>
      <psa10 value="0.0034866615" flag="0"/>
      <psa30 value="0.0002540407" flag="0"/>
    </comp>
    <comp name="--.HHN">
      <acc value="0.0692336935" flag="0"/>
      <vel value="0.0158681899" flag="0"/>
      <psa03 value="0.0496713797" flag="0"/>
      <psa10 value="0.0025079506" flag="0"/>
      <psa30 value="0.0001797659" flag="0"/>
    </comp>
  </station>
  <station code="BOSR" name="BOSR" netid="RO" insttype="Seismometer/Basalt" lat="46.0749" lon="25.6611">
    <comp name="--.HHN">
      <acc value="0.0205526983" flag="0"/>
      <vel value="0.0088534272" flag="0"/>
      <psa03 value="0.0632556053" flag="0"/>
      <psa10 value="0.0046819178" flag="0"/>
      <psa30 value="0.0002627467" flag="0"/>
    </comp>
    <comp name="--.HHZ">
      <acc value="0.0254830111" flag="0"/>
      <vel value="0.0063037600" flag="0"/>
      <psa03 value="0.0575666300" flag="0"/>
      <psa10 value="0.0017453337" flag="0"/>
      <psa30 value="0.0001438065" flag="0"/>
    </comp>
    <comp name="--.HHE">
      <acc value="0.0188318736" flag="0"/>
      <vel value="0.0079696380" flag="0"/>
      <psa03 value="0.0700521813" flag="0"/>
      <psa10 value="0.0045838959" flag="0"/>
      <psa30 value="0.0003013204" flag="0"/>
    </comp>
  </station>
  <station code="COPR" name="COPR" netid="RO" insttype="200" lat="45.8442" lon="26.1687">
    <comp name="--.HNZ">
      <acc value="0.0071415909" flag="0"/>
      <vel value="0.0028231810" flag="0"/>
      <psa03 value="0.0171678880" flag="0"/>
      <psa10 value="0.0024427479" flag="0"/>
      <psa30 value="0.0002260363" flag="0"/>
    </comp>
    <comp name="--.HNE">
      <acc value="0.0096277580" flag="0"/>
      <vel value="0.0063017571" flag="0"/>
      <psa03 value="0.0349131440" flag="0"/>
      <psa10 value="0.0044256932" flag="0"/>
      <psa30 value="0.0004947573" flag="0"/>
    </comp>
    <comp name="--.HNN">
      <acc value="0.0092763186" flag="0"/>
      <vel value="0.0063318733" flag="0"/>
      <psa03 value="0.0312824986" flag="0"/>
      <psa10 value="0.0079879419" flag="0"/>
      <psa30 value="0.0004238838" flag="0"/>
    </comp>
  </station>
  <station code="DOPR" name="DOPR" netid="RO" insttype="330" lat="45.9675" lon="25.3886">
    <comp name="--.HHE">
      <acc value="0.0137859607" flag="0"/>
      <vel value="0.0028615950" flag="0"/>
      <psa03 value="0.0204598481" flag="0"/>
      <psa10 value="0.0010229857" flag="0"/>
      <psa30 value="0.0000734196" flag="0"/>
    </comp>
    <comp name="--.HHN">
      <acc value="0.0131626035" flag="0"/>
      <vel value="0.0032787667" flag="0"/>
      <psa03 value="0.0302784904" flag="0"/>
      <psa10 value="0.0026170650" flag="0"/>
      <psa30 value="0.0002271534" flag="0"/>
    </comp>
    <comp name="--.HHZ">
      <acc value="0.0147718359" flag="0"/>
      <vel value="0.0026753626" flag="0"/>
      <psa03 value="0.0084953021" flag="0"/>
      <psa10 value="0.0009735720" flag="0"/>
      <psa30 value="0.0000705046" flag="0"/>
    </comp>
  </station>
  <station code="GISR" name="GISR" netid="RO" insttype="2.5V" lat="45.4411" lon="28.0541">
    <comp name="--.HNE">
      <acc value="0.0560732242" flag="0"/>
      <vel value="0.0180883741" flag="0"/>
      <psa03 value="0.0664852932" flag="0"/>
      <psa10 value="0.0038947121" flag="0"/>
      <psa30 value="0.0004661990" flag="0"/>
    </comp>
    <comp name="--.HNN">
      <acc value="0.0769674743" flag="0"/>
      <vel value="0.0204496431" flag="0"/>
      <psa03 value="0.0678032027" flag="0"/>
      <psa10 value="0.0036431013" flag="0"/>
      <psa30 value="0.0004352632" flag="0"/>
    </comp>
    <comp name="--.HNZ">
      <acc value="0.0545443146" flag="0"/>
      <vel value="0.0115356889" flag="0"/>
      <psa03 value="0.0480240904" flag="0"/>
      <psa10 value="0.0026322497" flag="0"/>
      <psa30 value="0.0005294217" flag="0"/>
    </comp>
  </station>
  <station code="GIUM" name="GIUM" netid="RO" insttype="2.5V" lat="45.485" lon="28.2081">
    <comp name="--.HNE">
      <acc value="0.0567956885" flag="0"/>
      <vel value="0.0142936959" flag="0"/>
      <psa03 value="0.0446766214" flag="0"/>
      <psa10 value="0.0070648649" flag="0"/>
      <psa30 value="0.0006095523" flag="0"/>
    </comp>
    <comp name="--.HNN">
      <acc value="0.0423273188" flag="0"/>
      <vel value="0.0096738906" flag="0"/>
      <psa03 value="0.0481242711" flag="0"/>
      <psa10 value="0.0033789248" flag="0"/>
      <psa30 value="0.0007545193" flag="0"/>
    </comp>
    <comp name="--.HNZ">
      <acc value="0.0421099101" flag="0"/>
      <vel value="0.0093301492" flag="0"/>
      <psa03 value="0.0419580826" flag="0"/>
      <psa10 value="0.0023003541" flag="0"/>
      <psa30 value="0.0005639450" flag="0"/>
    </comp>
  </station>
  <station code="GRER" name="GRER" netid="RO" insttype="MBB2/Quanterra" lat="45.3801" lon="26.9747">
    <comp name="--.HHE">
      <acc value="0.0225180215" flag="0"/>
      <vel value="0.0091497175" flag="0"/>
      <psa03 value="0.0364187149" flag="0"/>
      <psa10 value="0.0043098876" flag="0"/>
      <psa30 value="0.0003375984" flag="0"/>
    </comp>
    <comp name="--.HHN">
      <acc value="0.0510158865" flag="0"/>
      <vel value="0.0218759062" flag="0"/>
      <psa03 value="0.0782761128" flag="0"/>
      <psa10 value="0.0072588521" flag="0"/>
      <psa30 value="0.0004651652" flag="0"/>
    </comp>
    <comp name="--.HHZ">
      <acc value="0.0594773031" flag="0"/>
      <vel value="0.0108265637" flag="0"/>
      <psa03 value="0.0357479149" flag="0"/>
      <psa10 value="0.0023668175" flag="0"/>
      <psa30 value="0.0002787042" flag="0"/>
    </comp>
  </station>
  <station code="IZVR" name="IZVR" netid="RO" insttype="CMG40T.1to100/Quanterra" lat="45.5442" lon="27.7655">
    <comp name="--.HHZ">
      <acc value="0.0274038697" flag="0"/>
      <vel value="0.0046212865" flag="0"/>
      <psa03 value="0.0118586265" flag="0"/>
      <psa10 value="0.0010033153" flag="0"/>
      <psa30 value="0.0000815530" flag="0"/>
    </comp>
    <comp name="--.HHE">
      <acc value="0.0500657919" flag="0"/>
      <vel value="0.0135760648" flag="0"/>
      <psa03 value="0.0326076895" flag="0"/>
      <psa10 value="0.0024287995" flag="0"/>
      <psa30 value="0.0001778332" flag="0"/>
    </comp>
    <comp name="--.HHN">
      <acc value="0.0592201551" flag="0"/>
      <vel value="0.0113453617" flag="0"/>
      <psa03 value="0.0376323433" flag="0"/>
      <psa10 value="0.0034605163" flag="0"/>
      <psa30 value="0.0001459632" flag="0"/>
    </comp>
  </station>
  <station code="MLR" name="MLR" netid="RO" insttype="330HR" lat="45.4909" lon="25.945">
    <comp name="--.HHE">
      <acc value="0.0045070703" flag="0"/>
      <vel value="0.0027602450" flag="0"/>
      <psa03 value="0.0103113704" flag="0"/>
      <psa10 value="0.0018983662" flag="0"/>
      <psa30 value="0.0002028382" flag="0"/>
    </comp>
    <comp name="--.HHN">
      <acc value="0.0040018844" flag="0"/>
      <vel value="0.0030207119" flag="0"/>
      <psa03 value="0.0088142637" flag="0"/>
      <psa10 value="0.0028272396" flag="0"/>
      <psa30 value="0.0002196736" flag="0"/>
    </comp>
    <comp name="--.HHZ">
      <acc value="0.0043334475" flag="0"/>
      <vel value="0.0029173312" flag="0"/>
      <psa03 value="0.0121078590" flag="0"/>
      <psa10 value="0.0013156616" flag="0"/>
      <psa30 value="0.0000925590" flag="0"/>
    </comp>
  </station>
  <station code="NEGRR" name="NEGRR" netid="RO" insttype="CMG40T.1to100/Quanterra" lat="45.5373" lon="27.8771">
    <comp name="--.HHE">
      <acc value="0.0619403935" flag="0"/>
      <vel value="0.0140115843" flag="0"/>
      <psa03 value="0.0286114581" flag="0"/>
      <psa10 value="0.0029127448" flag="0"/>
      <psa30 value="0.0002357913" flag="0"/>
    </comp>
    <comp name="--.HHN">
      <acc value="0.0791389735" flag="0"/>
      <vel value="0.0130954244" flag="0"/>
      <psa03 value="0.0355321773" flag="0"/>
      <psa10 value="0.0029656181" flag="0"/>
      <psa30 value="0.0001502113" flag="0"/>
    </comp>
    <comp name="--.HHZ">
      <acc value="0.0378827875" flag="0"/>
      <vel value="0.0081409660" flag="0"/>
      <psa03 value="0.0369565841" flag="0"/>
      <psa10 value="0.0014224466" flag="0"/>
      <psa30 value="0.0001192920" flag="0"/>
    </comp>
  </station>
  <station code="NEHR" name="NEHR" netid="RO" insttype="Seismometer/Basalt" lat="45.4272" lon="26.2952">
    <comp name="--.HHN">
      <acc value="0.0184440129" flag="0"/>
      <vel value="0.0088957655" flag="0"/>
      <psa03 value="0.0750927988" flag="0"/>
      <psa10 value="0.0049819069" flag="0"/>
      <psa30 value="0.0004001029" flag="0"/>
    </comp>
    <comp name="--.HHE">
      <acc value="0.0169626828" flag="0"/>
      <vel value="0.0079286171" flag="0"/>
      <psa03 value="0.0532717785" flag="0"/>
      <psa10 value="0.0044263415" flag="0"/>
      <psa30 value="0.0003190118" flag="0"/>
    </comp>
    <comp name="--.HHZ">
      <acc value="0.0156291282" flag="0"/>
      <vel value="0.0080142542" flag="0"/>
      <psa03 value="0.0559709226" flag="0"/>
      <psa10 value="0.0027846797" flag="0"/>
      <psa30 value="0.0002122355" flag="0"/>
    </comp>
  </station>
  <station code="ODBI" name="ODBI" netid="RO" insttype="PBB.1to100/Quanterra" lat="45.7633" lon="27.0558">
    <comp name="--.HHE">
      <acc value="0.3863711187" flag="0"/>
      <vel value="0.0889251768" flag="0"/>
      <psa03 value="0.4258044377" flag="0"/>
      <psa10 value="0.0268501073" flag="0"/>
      <psa30 value="0.0030629659" flag="0"/>
    </comp>
    <comp name="--.HHN">
      <acc value="0.4161949111" flag="0"/>
      <vel value="0.0966719176" flag="0"/>
      <psa03 value="0.5399744490" flag="0"/>
      <psa10 value="0.0178438333" flag="0"/>
      <psa30 value="0.0024423032" flag="0"/>
    </comp>
    <comp name="--.HHZ">
      <acc value="0.0004006185" flag="0"/>
      <vel value="0.0000282650" flag="0"/>
      <psa03 value="0.0000893230" flag="0"/>
      <psa10 value="0.0000208840" flag="0"/>
      <psa30 value="0.0000033752" flag="0"/>
    </comp>
  </station>
  <station code="ONER" name="ONER" netid="RO" insttype="CMG40T.1to100/obsidian" lat="46.3349" lon="26.394">
    <comp name="--.HHN">
      <acc value="0.0052495017" flag="0"/>
      <vel value="0.0011420435" flag="0"/>
      <psa03 value="0.0045416260" flag="0"/>
      <psa10 value="0.0005543221" flag="0"/>
      <psa30 value="0.0000274780" flag="0"/>
    </comp>
    <comp name="--.HHE">
      <acc value="0.0049827152" flag="0"/>
      <vel value="0.0015597185" flag="0"/>
      <psa03 value="0.0075131737" flag="0"/>
      <psa10 value="0.0008330832" flag="0"/>
      <psa30 value="0.0000584123" flag="0"/>
    </comp>
    <comp name="--.HHZ">
      <acc value="0.0042100602" flag="0"/>
      <vel value="0.0011596304" flag="0"/>
      <psa03 value="0.0049597053" flag="0"/>
      <psa10 value="0.0006261594" flag="0"/>
      <psa30 value="0.0000340159" flag="0"/>
    </comp>
  </station>
  <station code="PANC" name="PANC" netid="RO" insttype="Seismometer/Basalt" lat="45.8723" lon="27.1477">
    <comp name="--.HHN">
      <acc value="0.0654072678" flag="0"/>
      <vel value="0.0059390068" flag="0"/>
      <psa03 value="0.0201339903" flag="0"/>
      <psa10 value="0.0063207735" flag="0"/>
      <psa30 value="0.0021887344" flag="0"/>
    </comp>
    <comp name="--.HHE">
      <acc value="0.0807246379" flag="0"/>
      <vel value="0.0167390658" flag="0"/>
      <psa03 value="0.0442247331" flag="0"/>
      <psa10 value="0.0077629845" flag="0"/>
      <psa30 value="0.0004879448" flag="0"/>
    </comp>
    <comp name="--.HHZ">
      <acc value="0.0546678027" flag="0"/>
      <vel value="0.0091097737" flag="0"/>
      <psa03 value="0.0256299219" flag="0"/>
      <psa10 value="0.0018656279" flag="0"/>
      <psa30 value="0.0001767843" flag="0"/>
    </comp>
  </station>
  <station code="PGOR" name="PGOR" netid="RO" insttype="CMG40T.1to100/Quanterra" lat="44.9199" lon="26.9768">
    <comp name="--.HHE">
      <acc value="0.0307691960" flag="0"/>
      <vel value="0.0142398301" flag="0"/>
      <psa03 value="0.0382625626" flag="0"/>
      <psa10 value="0.0095855842" flag="0"/>
      <psa30 value="0.0005743926" flag="0"/>
    </comp>
    <comp name="--.HHN">
      <acc value="0.0427865172" flag="0"/>
      <vel value="0.0200720476" flag="0"/>
      <psa03 value="0.1136714664" flag="0"/>
      <psa10 value="0.0061242422" flag="0"/>
      <psa30 value="0.0007000418" flag="0"/>
    </comp>
    <comp name="--.HHZ">
      <acc value="0.0390006235" flag="0"/>
      <vel value="0.0052964027" flag="0"/>
      <psa03 value="0.0126190196" flag="0"/>
      <psa10 value="0.0015863328" flag="0"/>
      <psa30 value="0.0001062715" flag="0"/>
    </comp>
  </station>
  <station code="PLAR" name="PLAR" netid="RO" insttype="200" lat="44.9142" lon="26.0274">
    <comp name="--.HNZ">
      <acc value="0.0146469258" flag="0"/>
      <vel value="0.0018608614" flag="0"/>
      <psa03 value="0.0061067260" flag="0"/>
      <psa10 value="0.0008795244" flag="0"/>
      <psa30 value="0.0000747359" flag="0"/>
    </comp>
    <comp name="--.HNE">
      <acc value="0.0075657767" flag="0"/>
      <vel value="0.0022544894" flag="0"/>
      <psa03 value="0.0201261730" flag="0"/>
      <psa10 value="0.0020715995" flag="0"/>
      <psa30 value="0.0002107127" flag="0"/>
    </comp>
    <comp name="--.HNN">
      <acc value="0.0072122557" flag="0"/>
      <vel value="0.0044533819" flag="0"/>
      <psa03 value="0.0161539427" flag="0"/>
      <psa10 value="0.0035799556" flag="0"/>
      <psa30 value="0.0003348563" flag="0"/>
    </comp>
  </station>
  <station code="PLOR" name="PLOR" netid="RO" insttype="330" lat="45.8512" lon="26.6498">
    <comp name="--.HHE">
      <acc value="0.0188386282" flag="0"/>
      <vel value="0.0066387850" flag="0"/>
      <psa03 value="0.0466516939" flag="0"/>
      <psa10 value="0.0044797166" flag="0"/>
      <psa30 value="0.0002526498" flag="0"/>
    </comp>
    <comp name="--.HHN">
      <acc value="0.0246923894" flag="0"/>
      <vel value="0.0086761349" flag="0"/>
      <psa03 value="0.0494480201" flag="0"/>
      <psa10 value="0.0038229979" flag="0"/>
      <psa30 value="0.0002458750" flag="0"/>
    </comp>
    <comp name="--.HHZ">
      <acc value="0.0079847193" flag="0"/>
      <vel value="0.0030335743" flag="0"/>
      <psa03 value="0.0189598230" flag="0"/>
      <psa10 value="0.0014820060" flag="0"/>
      <psa30 value="0.0001037150" flag="0"/>
    </comp>
  </station>
  <station code="PLOR4" name="PLOR4" netid="RO" insttype="330" lat="45.8512" lon="26.6498">
    <comp name="--.HHE">
      <acc value="0.0188386282" flag="0"/>
      <vel value="0.0066387850" flag="0"/>
      <psa03 value="0.0466516939" flag="0"/>
      <psa10 value="0.0044797166" flag="0"/>
      <psa30 value="0.0002526498" flag="0"/>
    </comp>
    <comp name="--.HHZ">
      <acc value="0.0079847193" flag="0"/>
      <vel value="0.0030335743" flag="0"/>
      <psa03 value="0.0189598230" flag="0"/>
      <psa10 value="0.0014820060" flag="0"/>
      <psa30 value="0.0001037150" flag="0"/>
    </comp>
    <comp name="--.HHN">
      <acc value="0.0246923894" flag="0"/>
      <vel value="0.0086761349" flag="0"/>
      <psa03 value="0.0494480201" flag="0"/>
      <psa10 value="0.0038229979" flag="0"/>
      <psa30 value="0.0002458750" flag="0"/>
    </comp>
  </station>
  <station code="SAHR" name="SAHR" netid="RO" insttype="Seismometer/Basalt" lat="45.7266" lon="26.6855">
    <comp name="--.HHN">
      <acc value="0.0000378963" flag="0"/>
      <vel value="0.0000161607" flag="0"/>
      <psa03 value="0.0000460940" flag="0"/>
      <psa10 value="0.0000116471" flag="0"/>
      <psa30 value="0.0000047781" flag="0"/>
    </comp>
    <comp name="--.HHE">
      <acc value="0.0457628024" flag="0"/>
      <vel value="0.0197620618" flag="0"/>
      <psa03 value="0.1291481695" flag="0"/>
      <psa10 value="0.0057134827" flag="0"/>
      <psa30 value="0.0005174882" flag="0"/>
    </comp>
    <comp name="--.HHZ">
      <acc value="0.0536608018" flag="0"/>
      <vel value="0.0091770396" flag="0"/>
      <psa03 value="0.0284555612" flag="0"/>
      <psa10 value="0.0110274629" flag="0"/>
      <psa30 value="0.0026453658" flag="0"/>
    </comp>
  </station>
  <station code="SCHL" name="SCHL" netid="RO" insttype="CMG40T.1to100/Quanterra" lat="45.5007" lon="27.8302">
    <comp name="--.HHN">
      <acc value="0.0742647181" flag="0"/>
      <vel value="0.0220393326" flag="0"/>
      <psa03 value="0.0662746229" flag="0"/>
      <psa10 value="0.0077002431" flag="0"/>
      <psa30 value="0.0003845433" flag="0"/>
    </comp>
    <comp name="--.HHZ">
      <acc value="0.0821821676" flag="0"/>
      <vel value="0.0181582808" flag="0"/>
      <psa03 value="0.0392761669" flag="0"/>
      <psa10 value="0.0029937973" flag="0"/>
      <psa30 value="0.0002533705" flag="0"/>
    </comp>
    <comp name="--.HHE">
      <acc value="0.0824582722" flag="0"/>
      <vel value="0.0235569514" flag="0"/>
      <psa03 value="0.0824028372" flag="0"/>
      <psa10 value="0.0044000991" flag="0"/>
      <psa30 value="0.0003780922" flag="0"/>
    </comp>
  </station>
  <station code="SCHLR" name="SCHLR" netid="RO" insttype="CMG40T.1to100/Quanterra" lat="45.4702" lon="27.8314">
    <comp name="--.HHE">
      <acc value="0.0655971345" flag="0"/>
      <vel value="0.0101698527" flag="0"/>
      <psa03 value="0.0303705827" flag="0"/>
      <psa10 value="0.0016712931" flag="0"/>
      <psa30 value="0.0001463346" flag="0"/>
    </comp>
    <comp name="--.HHN">
      <acc value="0.0770250106" flag="0"/>
      <vel value="0.0175155004" flag="0"/>
      <psa03 value="0.0587114812" flag="0"/>
      <psa10 value="0.0029695285" flag="0"/>
      <psa30 value="0.0002659798" flag="0"/>
    </comp>
    <comp name="--.HHZ">
      <acc value="0.0450533181" flag="0"/>
      <vel value="0.0065690961" flag="0"/>
      <psa03 value="0.0121615275" flag="0"/>
      <psa10 value="0.0009683003" flag="0"/>
      <psa30 value="0.0000741411" flag="0"/>
    </comp>
  </station>
  <station code="SCTR" name="SCTR" netid="RO" insttype="MBB2/Basalt" lat="45.6741" lon="27.9949">
    <comp name="--.HHE">
      <acc value="0.0543648436" flag="0"/>
      <vel value="0.0091805514" flag="0"/>
      <psa03 value="0.0578957266" flag="0"/>
      <psa10 value="0.0044431252" flag="0"/>
