<?xml version="1.0" encoding="UTF-8" standalone="yes"?>
<!DOCTYPE earthquake SYSTEM "stationlist.dtd">
<stationlist created="" xmlns="ch.ethz.sed.shakemap.usgs.xml">
  <station code="BOSR" name="BOSR" netid="RO" insttype="Seismometer/Basalt" lat="46.0749" lon="25.6611">
    <comp name="--.HHZ">
      <acc value="0.0254830108" flag="0"/>
      <vel value="0.0063037601" flag="0"/>
      <psa03 value="0.0575666300" flag="0"/>
      <psa10 value="0.0017453337" flag="0"/>
      <psa30 value="0.0001437967" flag="0"/>
    </comp>
    <comp name="--.HHN">
      <acc value="0.0205526983" flag="0"/>
      <vel value="0.0088534270" flag="0"/>
      <psa03 value="0.0632556053" flag="0"/>
      <psa10 value="0.0046819178" flag="0"/>
      <psa30 value="0.0002627786" flag="0"/>
    </comp>
  </station>
  <station code="COPR" name="COPR" netid="RO" insttype="200" lat="45.8442" lon="26.1687">
    <comp name="--.HNE">
      <acc value="0.0096277614" flag="0"/>
      <vel value="0.0063017597" flag="0"/>
      <psa03 value="0.0349131440" flag="0"/>
      <psa10 value="0.0044256926" flag="0"/>
      <psa30 value="0.0004949707" flag="0"/>
    </comp>
    <comp name="--.HNZ">
      <acc value="0.0071415897" flag="0"/>
      <vel value="0.0028231808" flag="0"/>
      <psa03 value="0.0171678880" flag="0"/>
      <psa10 value="0.0024427474" flag="0"/>
      <psa30 value="0.0002254831" flag="0"/>
    </comp>
  </station>
  <station code="DOPR" name="DOPR" netid="RO" insttype="330" lat="45.9675" lon="25.3886">
    <comp name="--.HHZ">
      <acc value="0.0147718357" flag="0"/>
      <vel value="0.0026753629" flag="0"/>
      <psa03 value="0.0084953021" flag="0"/>
      <psa10 value="0.0009735721" flag="0"/>
      <psa30 value="0.0000705028" flag="0"/>
    </comp>
    <comp name="--.HHE">
      <acc value="0.0137859611" flag="0"/>
      <vel value="0.0028615952" flag="0"/>
      <psa03 value="0.0204598481" flag="0"/>
      <psa10 value="0.0010229857" flag="0"/>
      <psa30 value="0.0000734175" flag="0"/>
    </comp>
    <comp name="--.HHN">
      <acc value="0.0131626034" flag="0"/>
      <vel value="0.0032787668" flag="0"/>
      <psa03 value="0.0302784904" flag="0"/>
      <psa10 value="0.0026170650" flag="0"/>
      <psa30 value="0.0002271441" flag="0"/>
    </comp>
  </station>
  <station code="GISR" name="GISR" netid="RO" insttype="2.5V" lat="45.4411" lon="28.0541">
    <comp name="--.HNE">
      <acc value="0.0560732235" flag="0"/>
      <vel value="0.0180883735" flag="0"/>
      <psa03 value="0.0664852932" flag="0"/>
      <psa10 value="0.0038947123" flag="0"/>
      <psa30 value="0.0004660865" flag="0"/>
    </comp>
    <comp name="--.HNZ">
      <acc value="0.0545443134" flag="0"/>
      <vel value="0.0115356819" flag="0"/>
      <psa03 value="0.0480240904" flag="0"/>
      <psa10 value="0.0026322497" flag="0"/>
      <psa30 value="0.0005294235" flag="0"/>
    </comp>
    <comp name="--.HNN">
      <acc value="0.0769674732" flag="0"/>
      <vel value="0.0204496414" flag="0"/>
      <psa03 value="0.0678032027" flag="0"/>
      <psa10 value="0.0036431003" flag="0"/>
      <psa30 value="0.0004351798" flag="0"/>
    </comp>
  </station>
  <station code="GIUM" name="GIUM" netid="RO" insttype="2.5V" lat="45.485" lon="28.2081">
    <comp name="--.HNN">
      <acc value="0.0423273184" flag="0"/>
      <vel value="0.0096738896" flag="0"/>
      <psa03 value="0.0481242711" flag="0"/>
      <psa10 value="0.0033789248" flag="0"/>
      <psa30 value="0.0007545784" flag="0"/>
    </comp>
    <comp name="--.HNE">
      <acc value="0.0567956886" flag="0"/>
      <vel value="0.0142936927" flag="0"/>
      <psa03 value="0.0446766214" flag="0"/>
      <psa10 value="0.0070648647" flag="0"/>
      <psa30 value="0.0006095733" flag="0"/>
    </comp>
    <comp name="--.HNZ">
      <acc value="0.0421099105" flag="0"/>
      <vel value="0.0093301470" flag="0"/>
      <psa03 value="0.0419580826" flag="0"/>
      <psa10 value="0.0023003540" flag="0"/>
      <psa30 value="0.0005649046" flag="0"/>
    </comp>
  </station>
  <station code="GRER" name="GRER" netid="RO" insttype="MBB2/Quanterra" lat="45.3801" lon="26.9747">
    <comp name="--.HHZ">
      <acc value="0.0594773031" flag="0"/>
      <vel value="0.0108265636" flag="0"/>
      <psa03 value="0.0357479149" flag="0"/>
      <psa10 value="0.0023668245" flag="0"/>
      <psa30 value="0.0002783444" flag="0"/>
    </comp>
    <comp name="--.HHE">
      <acc value="0.0225180217" flag="0"/>
      <vel value="0.0091497166" flag="0"/>
      <psa03 value="0.0364187149" flag="0"/>
      <psa10 value="0.0043098872" flag="0"/>
      <psa30 value="0.0003375472" flag="0"/>
    </comp>
    <comp name="--.HHN">
      <acc value="0.0510158865" flag="0"/>
      <vel value="0.0218759052" flag="0"/>
      <psa03 value="0.0782761128" flag="0"/>
      <psa10 value="0.0072588524" flag="0"/>
      <psa30 value="0.0004652560" flag="0"/>
    </comp>
  </station>
  <station code="IZVR" name="IZVR" netid="RO" insttype="CMG40T.1to100/Quanterra" lat="45.5442" lon="27.7655">
    <comp name="--.HHE">
      <acc value="0.0500657918" flag="0"/>
      <vel value="0.0135760644" flag="0"/>
      <psa03 value="0.0326076895" flag="0"/>
      <psa10 value="0.0024287996" flag="0"/>
      <psa30 value="0.0001778543" flag="0"/>
    </comp>
    <comp name="--.HHZ">
      <acc value="0.0274038697" flag="0"/>
      <vel value="0.0046212869" flag="0"/>
      <psa03 value="0.0118586265" flag="0"/>
      <psa10 value="0.0010033154" flag="0"/>
      <psa30 value="0.0000815301" flag="0"/>
    </comp>
    <comp name="--.HHN">
      <acc value="0.0592201552" flag="0"/>
      <vel value="0.0113453610" flag="0"/>
      <psa03 value="0.0376323433" flag="0"/>
      <psa10 value="0.0034605160" flag="0"/>
      <psa30 value="0.0001459346" flag="0"/>
    </comp>
  </station>
  <station code="MLR" name="MLR" netid="RO" insttype="330HR" lat="45.4909" lon="25.945">
    <comp name="--.HHE">
      <acc value="0.0045070704" flag="0"/>
      <vel value="0.0027602445" flag="0"/>
      <psa03 value="0.0103113704" flag="0"/>
      <psa10 value="0.0018983662" flag="0"/>
      <psa30 value="0.0002028875" flag="0"/>
    </comp>
    <comp name="--.HHN">
      <acc value="0.0040018846" flag="0"/>
      <vel value="0.0030207115" flag="0"/>
      <psa03 value="0.0088142637" flag="0"/>
      <psa10 value="0.0028272396" flag="0"/>
      <psa30 value="0.0002196531" flag="0"/>
    </comp>
    <comp name="--.HHZ">
      <acc value="0.0043334477" flag="0"/>
      <vel value="0.0029173313" flag="0"/>
      <psa03 value="0.0121078590" flag="0"/>
      <psa10 value="0.0013156616" flag="0"/>
      <psa30 value="0.0000925645" flag="0"/>
    </comp>
  </station>
  <station code="NEGRR" name="NEGRR" netid="RO" insttype="CMG40T.1to100/Quanterra" lat="45.5373" lon="27.8771">
    <comp name="--.HHZ">
      <acc value="0.0378827874" flag="0"/>
      <vel value="0.0081409660" flag="0"/>
      <psa03 value="0.0369565841" flag="0"/>
      <psa10 value="0.0014224465" flag="0"/>
      <psa30 value="0.0001192795" flag="0"/>
    </comp>
    <comp name="--.HHE">
      <acc value="0.0619403935" flag="0"/>
      <vel value="0.0140115846" flag="0"/>
      <psa03 value="0.0286114581" flag="0"/>
      <psa10 value="0.0029127448" flag="0"/>
      <psa30 value="0.0002357974" flag="0"/>
    </comp>
    <comp name="--.HHN">
      <acc value="0.0791389735" flag="0"/>
      <vel value="0.0130954245" flag="0"/>
      <psa03 value="0.0355321773" flag="0"/>
      <psa10 value="0.0029656182" flag="0"/>
      <psa30 value="0.0001502172" flag="0"/>
    </comp>
  </station>
  <station code="NEHR" name="NEHR" netid="RO" insttype="Seismometer/Basalt" lat="45.4272" lon="26.2952">
    <comp name="--.HHN">
      <acc value="0.0184440126" flag="0"/>
      <vel value="0.0088957658" flag="0"/>
      <psa03 value="0.0750927988" flag="0"/>
      <psa10 value="0.0049819069" flag="0"/>
      <psa30 value="0.0004001020" flag="0"/>
    </comp>
    <comp name="--.HHE">
      <acc value="0.0169626829" flag="0"/>
      <vel value="0.0079286170" flag="0"/>
      <psa03 value="0.0532717785" flag="0"/>
      <psa10 value="0.0044263416" flag="0"/>
      <psa30 value="0.0003189525" flag="0"/>
    </comp>
    <comp name="--.HHZ">
      <acc value="0.0156291284" flag="0"/>
      <vel value="0.0080142536" flag="0"/>
      <psa03 value="0.0559709226" flag="0"/>
      <psa10 value="0.0027846797" flag="0"/>
      <psa30 value="0.0002122485" flag="0"/>
    </comp>
  </station>
  <station code="ODBI" name="ODBI" netid="RO" insttype="PBB.1to100/Quanterra" lat="45.7633" lon="27.0558">
    <comp name="--.HHE">
      <acc value="0.3863711187" flag="0"/>
      <vel value="0.0889251696" flag="0"/>
      <psa03 value="0.4258044377" flag="0"/>
      <psa10 value="0.0268501074" flag="0"/>
      <psa30 value="0.0030633034" flag="0"/>
    </comp>
    <comp name="--.HHN">
      <acc value="0.4161949107" flag="0"/>
      <vel value="0.0966719107" flag="0"/>
      <psa03 value="0.5399744490" flag="0"/>
      <psa10 value="0.0178438337" flag="0"/>
      <psa30 value="0.0024423734" flag="0"/>
    </comp>
  </station>
  <station code="ONER" name="ONER" netid="RO" insttype="CMG40T.1to100/obsidian" lat="46.3349" lon="26.394">
    <comp name="--.HHZ">
      <acc value="0.0042100602" flag="0"/>
      <vel value="0.0011596299" flag="0"/>
      <psa03 value="0.0049597053" flag="0"/>
      <psa10 value="0.0006261594" flag="0"/>
      <psa30 value="0.0000340212" flag="0"/>
    </comp>
    <comp name="--.HHE">
      <acc value="0.0049827154" flag="0"/>
      <vel value="0.0015597219" flag="0"/>
      <psa03 value="0.0075131737" flag="0"/>
      <psa10 value="0.0008330832" flag="0"/>
      <psa30 value="0.0000584070" flag="0"/>
    </comp>
    <comp name="--.HHN">
      <acc value="0.0052495018" flag="0"/>
      <vel value="0.0011420427" flag="0"/>
      <psa03 value="0.0045416260" flag="0"/>
      <psa10 value="0.0005543221" flag="0"/>
      <psa30 value="0.0000274712" flag="0"/>
    </comp>
  </station>
  <station code="PANC" name="PANC" netid="RO" insttype="Seismometer/Basalt" lat="45.8723" lon="27.1477">
    <comp name="--.HHE">
      <acc value="0.0807246377" flag="0"/>
      <vel value="0.0167390659" flag="0"/>
      <psa03 value="0.0442247331" flag="0"/>
      <psa10 value="0.0077629847" flag="0"/>
      <psa30 value="0.0004878233" flag="0"/>
    </comp>
    <comp name="--.HHN">
      <acc value="0.0654072679" flag="0"/>
      <vel value="0.0059390069" flag="0"/>
      <psa03 value="0.0201339903" flag="0"/>
      <psa10 value="0.0063207734" flag="0"/>
      <psa30 value="0.0021887095" flag="0"/>
    </comp>
  </station>
  <station code="PGOR" name="PGOR" netid="RO" insttype="CMG40T.1to100/Quanterra" lat="44.9199" lon="26.9768">
    <comp name="--.HHN">
      <acc value="0.0427865169" flag="0"/>
      <vel value="0.0200720420" flag="0"/>
      <psa03 value="0.1136714664" flag="0"/>
      <psa10 value="0.0061242421" flag="0"/>
      <psa30 value="0.0007000784" flag="0"/>
    </comp>
    <comp name="--.HHZ">
      <acc value="0.0390006236" flag="0"/>
      <vel value="0.0052964037" flag="0"/>
      <psa03 value="0.0126190196" flag="0"/>
      <psa10 value="0.0015863328" flag="0"/>
      <psa30 value="0.0001063964" flag="0"/>
    </comp>
    <comp name="--.HHE">
      <acc value="0.0307691959" flag="0"/>
      <vel value="0.0142398374" flag="0"/>
      <psa03 value="0.0382625626" flag="0"/>
      <psa10 value="0.0095855841" flag="0"/>
      <psa30 value="0.0005744751" flag="0"/>
    </comp>
  </station>
  <station code="PLAR" name="PLAR" netid="RO" insttype="200" lat="44.9142" lon="26.0274">
    <comp name="--.HNE">
      <acc value="0.0075657764" flag="0"/>
      <vel value="0.0022544904" flag="0"/>
      <psa03 value="0.0201261730" flag="0"/>
      <psa10 value="0.0020715995" flag="0"/>
      <psa30 value="0.0002103075" flag="0"/>
    </comp>
    <comp name="--.HNZ">
      <acc value="0.0146469260" flag="0"/>
      <vel value="0.0018608625" flag="0"/>
      <psa03 value="0.0061067260" flag="0"/>
      <psa10 value="0.0008795244" flag="0"/>
      <psa30 value="0.0000747352" flag="0"/>
    </comp>
  </station>
  <station code="PLOR" name="PLOR" netid="RO" insttype="330" lat="45.8512" lon="26.6498">
    <comp name="--.HHN">
      <acc value="0.0246923896" flag="0"/>
      <vel value="0.0086761349" flag="0"/>
      <psa03 value="0.0494480201" flag="0"/>
      <psa10 value="0.0038229979" flag="0"/>
      <psa30 value="0.0002458616" flag="0"/>
    </comp>
    <comp name="--.HHZ">
      <acc value="0.0079847191" flag="0"/>
      <vel value="0.0030335743" flag="0"/>
      <psa03 value="0.0189598230" flag="0"/>
      <psa10 value="0.0014820060" flag="0"/>
      <psa30 value="0.0001037203" flag="0"/>
    </comp>
    <comp name="--.HHE">
      <acc value="0.0188386286" flag="0"/>
      <vel value="0.0066387852" flag="0"/>
      <psa03 value="0.0466516939" flag="0"/>
      <psa10 value="0.0044797165" flag="0"/>
      <psa30 value="0.0002526183" flag="0"/>
    </comp>
  </station>
  <station code="PLOR4" name="PLOR4" netid="RO" insttype="330" lat="45.8512" lon="26.6498">
    <comp name="--.HHE">
      <acc value="0.0188386286" flag="0"/>
      <vel value="0.0066387852" flag="0"/>
      <psa03 value="0.0466516939" flag="0"/>
      <psa10 value="0.0044797165" flag="0"/>
      <psa30 value="0.0002526183" flag="0"/>
    </comp>
  </station>
  <station code="SAHR" name="SAHR" netid="RO" insttype="Seismometer/Basalt" lat="45.7266" lon="26.6855">
    <comp name="--.HHN">
      <acc value="0.0000378966" flag="0"/>
      <vel value="0.0000161621" flag="0"/>
      <psa03 value="0.0000460940" flag="0"/>
      <psa10 value="0.0000116446" flag="0"/>
      <psa30 value="0.0000047626" flag="0"/>
    </comp>
    <comp name="--.HHE">
      <acc value="0.0457628022" flag="0"/>
      <vel value="0.0197620619" flag="0"/>
      <psa03 value="0.1291481695" flag="0"/>
      <psa10 value="0.0057134827" flag="0"/>
      <psa30 value="0.0005173957" flag="0"/>
    </comp>
    <comp name="--.HHZ">
      <acc value="0.0536608019" flag="0"/>
      <vel value="0.0091770375" flag="0"/>
      <psa03 value="0.0284555612" flag="0"/>
      <psa10 value="0.0110274605" flag="0"/>
      <psa30 value="0.0026454154" flag="0"/>
    </comp>
  </station>
  <station code="SCHL" name="SCHL" netid="RO" insttype="CMG40T.1to100/Quanterra" lat="45.5007" lon="27.8302">
    <comp name="--.HHN">
      <acc value="0.0742647181" flag="0"/>
      <vel value="0.0220393385" flag="0"/>
      <psa03 value="0.0662746229" flag="0"/>
      <psa10 value="0.0077002431" flag="0"/>
      <psa30 value="0.0003846131" flag="0"/>
    </comp>
    <comp name="--.HHE">
      <acc value="0.0824582722" flag="0"/>
      <vel value="0.0235569500" flag="0"/>
      <psa03 value="0.0824028372" flag="0"/>
      <psa10 value="0.0044000990" flag="0"/>
      <psa30 value="0.0003780147" flag="0"/>
    </comp>
    <comp name="--.HHZ">
      <acc value="0.0821821676" flag="0"/>
      <vel value="0.0181582761" flag="0"/>
      <psa03 value="0.0392761669" flag="0"/>
      <psa10 value="0.0029937974" flag="0"/>
      <psa30 value="0.0002533837" flag="0"/>
    </comp>
  </station>
  <station code="SCHLR" name="SCHLR" netid="RO" insttype="200" lat="45.4702" lon="27.8314">
    <comp name="--.HGE">
      <acc value="0.0189016046" flag="0"/>
      <vel value="0.0028514531" flag="0"/>
      <psa03 value="0.0149091138" flag="0"/>
      <psa10 value="0.0011822424" flag="0"/>
      <psa30 value="0.0000695301" flag="0"/>
    </comp>
    <comp name="--.HGN">
      <acc value="0.0168910866" flag="0"/>
      <vel value="0.0029631467" flag="0"/>
      <psa03 value="0.0119102177" flag="0"/>
      <psa10 value="0.0008489569" flag="0"/>
      <psa30 value="0.0000733279" flag="0"/>
    </comp>
  </station>
  <station code="SCTR" name="SCTR" netid="RO" insttype="MBB2/Basalt" lat="45.6741" lon="27.9949">
    <comp name="--.HHN">
      <acc value="0.0545099034" flag="0"/>
      <vel value="0.0116689658" flag="0"/>
      <psa03 value="0.0422157367" flag="0"/>
      <psa10 value="0.0038672639" flag="0"/>
      <psa30 value="0.0003845967" flag="0"/>
    </comp>
    <comp name="--.HHE">
      <acc value="0.0543648436" flag="0"/>
      <vel value="0.0091805510" flag="0"/>
      <psa03 value="0.0578957266" flag="0"/>
      <psa10 value="0.0044431252" flag="0"/>
      <psa30 value="0.0003694169" flag="0"/>
    </comp>
    <comp name="--.HHZ">
      <acc value="0.0350711084" flag="0"/>
      <vel value="0.0085252147" flag="0"/>
      <psa03 value="0.0298896618" flag="0"/>
      <psa10 value="0.0034739164" flag="0"/>
      <psa30 value="0.0001923080" flag="0"/>
    </comp>
  </station>
  <station code="TATR" name="TATR" netid="RO" insttype="MBB2/Basalt" lat="45.5977" lon="28.0498">
    <comp name="--.HHN">
      <acc value="0.1382112910" flag="0"/>
      <vel value="0.0292780201" flag="0"/>
      <psa03 value="0.0949984986" flag="0"/>
      <psa10 value="0.0054128524" flag="0"/>
      <psa30 value="0.0005796383" flag="0"/>
    </comp>
    <comp name="--.HHZ">
      <acc value="0.0954889724" flag="0"/>
      <vel value="0.0123332000" flag="0"/>
      <psa03 value="0.0430028666" flag="0"/>
      <psa10 value="0.0016714404" flag="0"/>
      <psa30 value="0.0002116344" flag="0"/>
    </comp>
    <comp name="--.HHE">
      <acc value="0.1225373119" flag="0"/>
      <vel value="0.0277434186" flag="0"/>
      <psa03 value="0.0681558021" flag="0"/>
      <psa10 value="0.0068011704" flag="0"/>
      <psa30 value="0.0005232562" flag="0"/>
    </comp>
  </station>
  <station code="TESR" name="TESR" netid="RO" insttype="330" lat="46.5118" lon="26.6489">
    <comp name="--.HHZ">
      <acc value="0.0168585775" flag="0"/>
      <vel value="0.0027853049" flag="0"/>
      <psa03 value="0.0073662538" flag="0"/>
      <psa10 value="0.0008314123" flag="0"/>
      <psa30 value="0.0000544920" flag="0"/>
    </comp>
    <comp name="--.HHE">
      <acc value="0.0250569730" flag="0"/>
      <vel value="0.0059115491" flag="0"/>
      <psa03 value="0.0258342577" flag="0"/>
      <psa10 value="0.0023294592" flag="0"/>
      <psa30 value="0.0001214391" flag="0"/>
    </comp>
    <comp name="--.HHN">
      <acc value="0.0327385726" flag="0"/>
      <vel value="0.0094781865" flag="0"/>
      <psa03 value="0.0377783295" flag="0"/>
      <psa10 value="0.0025542017" flag="0"/>
      <psa30 value="0.0001688646" flag="0"/>
    </comp>
  </station>
  <station code="TUDR" name="TUDR" netid="RO" insttype="CMG40T.1to100/Quanterra" lat="45.5939" lon="27.6687">
    <comp name="--.HHN">
      <acc value="0.0870669293" flag="0"/>
      <vel value="0.0251983240" flag="0"/>
      <psa03 value="0.0643773505" flag="0"/>
      <psa10 value="0.0072317498" flag="0"/>
      <psa30 value="0.0005914789" flag="0"/>
    </comp>
    <comp name="--.HHE">
      <acc value="0.1996093117" flag="0"/>
      <vel value="0.0550820797" flag="0"/>
      <psa03 value="0.1647279507" flag="0"/>
      <psa10 value="0.0099105181" flag="0"/>
      <psa30 value="0.0010218451" flag="0"/>
    </comp>
    <comp name="--.HHZ">
      <acc value="0.2203773808" flag="0"/>
      <vel value="0.0368521753" flag="0"/>
      <psa03 value="0.0443586168" flag="0"/>
      <psa10 value="0.0033807520" flag="0"/>
      <psa30 value="0.0002582682" flag="0"/>
    </comp>
  </station>
  <station code="VARL" name="VARL" netid="RO" insttype="MBB2/Quanterra" lat="45.8996" lon="27.8487">
    <comp name="--.HHE">
      <acc value="0.1191755740" flag="0"/>
      <vel value="0.0295356912" flag="0"/>
      <psa03 value="0.1094473914" flag="0"/>
      <psa10 value="0.0083591196" flag="0"/>
      <psa30 value="0.0005963063" flag="0"/>
    </comp>
    <comp name="--.HHN">
      <acc value="0.1376933866" flag="0"/>
      <vel value="0.0263330361" flag="0"/>
      <psa03 value="0.1432331273" flag="0"/>
      <psa10 value="0.0138193975" flag="0"/>
      <psa30 value="0.0010023181" flag="0"/>
    </comp>
