<?xml version="1.0" encoding="UTF-8" standalone="yes"?>
<!DOCTYPE earthquake SYSTEM "stationlist.dtd">
<stationlist created="" xmlns="ch.ethz.sed.shakemap.usgs.xml">
  <station code="BAC" name="BAC" netid="RO" insttype="2.5V" lat="46.5669" lon="26.9124">
    <comp name="--.HNE">
      <acc value="0.0440028808" flag="0"/>
      <vel value="0.0115615458" flag="0"/>
      <psa03 value="0.0323587105" flag="0"/>
      <psa10 value="0.0034354455" flag="0"/>
      <psa30 value="0.0003043704" flag="0"/>
    </comp>
    <comp name="--.HNN">
      <acc value="0.0298186284" flag="0"/>
      <vel value="0.0083862106" flag="0"/>
      <psa03 value="0.0493729157" flag="0"/>
      <psa10 value="0.0030197901" flag="0"/>
      <psa30 value="0.0003004466" flag="0"/>
    </comp>
    <comp name="--.HNZ">
      <acc value="0.0210704942" flag="0"/>
      <vel value="0.0038709465" flag="0"/>
      <psa03 value="0.0110518471" flag="0"/>
      <psa10 value="0.0010177890" flag="0"/>
      <psa30 value="0.0000994515" flag="0"/>
    </comp>
  </station>
  <station code="BIR" name="BIR" netid="RO" insttype="MBB2/Quanterra" lat="46.2334" lon="27.6436">
    <comp name="--.HHE">
      <acc value="0.0606043562" flag="0"/>
      <vel value="0.0167809427" flag="0"/>
      <psa03 value="0.0801468874" flag="0"/>
      <psa10 value="0.0034866615" flag="0"/>
      <psa30 value="0.0002540228" flag="0"/>
    </comp>
    <comp name="--.HHN">
      <acc value="0.0692336935" flag="0"/>
      <vel value="0.0158681895" flag="0"/>
      <psa03 value="0.0496713797" flag="0"/>
      <psa10 value="0.0025079506" flag="0"/>
      <psa30 value="0.0001797666" flag="0"/>
    </comp>
    <comp name="--.HHZ">
      <acc value="0.0303845431" flag="0"/>
      <vel value="0.0061091383" flag="0"/>
      <psa03 value="0.0283235999" flag="0"/>
      <psa10 value="0.0010032514" flag="0"/>
      <psa30 value="0.0000918099" flag="0"/>
    </comp>
  </station>
  <station code="BOSR" name="BOSR" netid="RO" insttype="Seismometer/Basalt" lat="46.0749" lon="25.6611">
    <comp name="--.HHN">
      <acc value="0.0205526983" flag="0"/>
      <vel value="0.0088534271" flag="0"/>
      <psa03 value="0.0632556053" flag="0"/>
      <psa10 value="0.0046819178" flag="0"/>
      <psa30 value="0.0002627536" flag="0"/>
    </comp>
    <comp name="--.HHE">
      <acc value="0.0188318736" flag="0"/>
      <vel value="0.0079696379" flag="0"/>
      <psa03 value="0.0700521813" flag="0"/>
      <psa10 value="0.0045838959" flag="0"/>
      <psa30 value="0.0003013183" flag="0"/>
    </comp>
    <comp name="--.HHZ">
      <acc value="0.0254830110" flag="0"/>
      <vel value="0.0063037600" flag="0"/>
      <psa03 value="0.0575666300" flag="0"/>
      <psa10 value="0.0017453337" flag="0"/>
      <psa30 value="0.0001438044" flag="0"/>
    </comp>
  </station>
  <station code="COPR" name="COPR" netid="RO" insttype="200" lat="45.8442" lon="26.1687">
    <comp name="--.HNE">
      <acc value="0.0096277589" flag="0"/>
      <vel value="0.0063017580" flag="0"/>
      <psa03 value="0.0349131440" flag="0"/>
      <psa10 value="0.0044256930" flag="0"/>
      <psa30 value="0.0004948313" flag="0"/>
    </comp>
    <comp name="--.HNN">
      <acc value="0.0092763192" flag="0"/>
      <vel value="0.0063318732" flag="0"/>
      <psa03 value="0.0312824986" flag="0"/>
      <psa10 value="0.0079879419" flag="0"/>
      <psa30 value="0.0004238790" flag="0"/>
    </comp>
    <comp name="--.HNZ">
      <acc value="0.0071415905" flag="0"/>
      <vel value="0.0028231806" flag="0"/>
      <psa03 value="0.0171678880" flag="0"/>
      <psa10 value="0.0024427479" flag="0"/>
      <psa30 value="0.0002260703" flag="0"/>
    </comp>
  </station>
  <station code="DOPR" name="DOPR" netid="RO" insttype="330" lat="45.9675" lon="25.3886">
    <comp name="--.HHE">
      <acc value="0.0137859608" flag="0"/>
      <vel value="0.0028615952" flag="0"/>
      <psa03 value="0.0204598481" flag="0"/>
      <psa10 value="0.0010229857" flag="0"/>
      <psa30 value="0.0000734184" flag="0"/>
    </comp>
    <comp name="--.HHN">
      <acc value="0.0131626035" flag="0"/>
      <vel value="0.0032787667" flag="0"/>
      <psa03 value="0.0302784904" flag="0"/>
      <psa10 value="0.0026170650" flag="0"/>
      <psa30 value="0.0002271495" flag="0"/>
    </comp>
    <comp name="--.HHZ">
      <acc value="0.0147718358" flag="0"/>
      <vel value="0.0026753628" flag="0"/>
      <psa03 value="0.0084953021" flag="0"/>
      <psa10 value="0.0009735720" flag="0"/>
      <psa30 value="0.0000705026" flag="0"/>
    </comp>
  </station>
  <station code="GISR" name="GISR" netid="RO" insttype="2.5V" lat="45.4411" lon="28.0541">
    <comp name="--.HNZ">
      <acc value="0.0545443110" flag="0"/>
      <vel value="0.0115356714" flag="0"/>
      <psa03 value="0.0480240904" flag="0"/>
      <psa10 value="0.0026322490" flag="0"/>
      <psa30 value="0.0005294051" flag="0"/>
    </comp>
    <comp name="--.HNE">
      <acc value="0.0560732227" flag="0"/>
      <vel value="0.0180883733" flag="0"/>
      <psa03 value="0.0664852932" flag="0"/>
      <psa10 value="0.0038947121" flag="0"/>
      <psa30 value="0.0004660738" flag="0"/>
    </comp>
    <comp name="--.HNN">
      <acc value="0.0769674719" flag="0"/>
      <vel value="0.0204496362" flag="0"/>
      <psa03 value="0.0678032027" flag="0"/>
      <psa10 value="0.0036430989" flag="0"/>
      <psa30 value="0.0004354333" flag="0"/>
    </comp>
  </station>
  <station code="GIUM" name="GIUM" netid="RO" insttype="2.5V" lat="45.485" lon="28.2081">
    <comp name="--.HNZ">
      <acc value="0.0421099118" flag="0"/>
      <vel value="0.0093301402" flag="0"/>
      <psa03 value="0.0419580826" flag="0"/>
      <psa10 value="0.0023003540" flag="0"/>
      <psa30 value="0.0005639646" flag="0"/>
    </comp>
    <comp name="--.HNE">
      <acc value="0.0567956894" flag="0"/>
      <vel value="0.0142936688" flag="0"/>
      <psa03 value="0.0446766214" flag="0"/>
      <psa10 value="0.0070648630" flag="0"/>
      <psa30 value="0.0006095308" flag="0"/>
    </comp>
    <comp name="--.HNN">
      <acc value="0.0423273172" flag="0"/>
      <vel value="0.0096738904" flag="0"/>
      <psa03 value="0.0481242711" flag="0"/>
      <psa10 value="0.0033789249" flag="0"/>
      <psa30 value="0.0007547998" flag="0"/>
    </comp>
  </station>
  <station code="GRER" name="GRER" netid="RO" insttype="MBB2/Quanterra" lat="45.3801" lon="26.9747">
    <comp name="--.HHE">
      <acc value="0.0225180216" flag="0"/>
      <vel value="0.0091497169" flag="0"/>
      <psa03 value="0.0364187149" flag="0"/>
      <psa10 value="0.0043098874" flag="0"/>
      <psa30 value="0.0003375677" flag="0"/>
    </comp>
    <comp name="--.HHN">
      <acc value="0.0510158865" flag="0"/>
      <vel value="0.0218759054" flag="0"/>
      <psa03 value="0.0782761128" flag="0"/>
      <psa10 value="0.0072588523" flag="0"/>
      <psa30 value="0.0004652333" flag="0"/>
    </comp>
    <comp name="--.HHZ">
      <acc value="0.0594773031" flag="0"/>
      <vel value="0.0108265637" flag="0"/>
      <psa03 value="0.0357479149" flag="0"/>
      <psa10 value="0.0023668216" flag="0"/>
      <psa30 value="0.0002784969" flag="0"/>
    </comp>
  </station>
  <station code="IZVR" name="IZVR" netid="RO" insttype="CMG40T.1to100/Quanterra" lat="45.5442" lon="27.7655">
    <comp name="--.HHE">
      <acc value="0.0500657918" flag="0"/>
      <vel value="0.0135760636" flag="0"/>
      <psa03 value="0.0326076895" flag="0"/>
      <psa10 value="0.0024287996" flag="0"/>
      <psa30 value="0.0001778561" flag="0"/>
    </comp>
    <comp name="--.HHN">
      <acc value="0.0592201553" flag="0"/>
      <vel value="0.0113453610" flag="0"/>
      <psa03 value="0.0376323433" flag="0"/>
      <psa10 value="0.0034605159" flag="0"/>
      <psa30 value="0.0001459302" flag="0"/>
    </comp>
    <comp name="--.HHZ">
      <acc value="0.0274038697" flag="0"/>
      <vel value="0.0046212868" flag="0"/>
      <psa03 value="0.0118586265" flag="0"/>
      <psa10 value="0.0010033154" flag="0"/>
      <psa30 value="0.0000815201" flag="0"/>
    </comp>
  </station>
  <station code="MLR" name="MLR" netid="RO" insttype="330HR" lat="45.4909" lon="25.945">
    <comp name="--.HHN">
      <acc value="0.0040018844" flag="0"/>
      <vel value="0.0030207117" flag="0"/>
      <psa03 value="0.0088142637" flag="0"/>
      <psa10 value="0.0028272396" flag="0"/>
      <psa30 value="0.0002196631" flag="0"/>
    </comp>
    <comp name="--.HHZ">
      <acc value="0.0043334475" flag="0"/>
      <vel value="0.0029173312" flag="0"/>
      <psa03 value="0.0121078590" flag="0"/>
      <psa10 value="0.0013156616" flag="0"/>
      <psa30 value="0.0000925623" flag="0"/>
    </comp>
    <comp name="--.HHE">
      <acc value="0.0045070704" flag="0"/>
      <vel value="0.0027602448" flag="0"/>
      <psa03 value="0.0103113704" flag="0"/>
      <psa10 value="0.0018983662" flag="0"/>
      <psa30 value="0.0002028575" flag="0"/>
    </comp>
  </station>
  <station code="NEGRR" name="NEGRR" netid="RO" insttype="CMG40T.1to100/Quanterra" lat="45.5373" lon="27.8771">
    <comp name="--.HHN">
      <acc value="0.0791389736" flag="0"/>
      <vel value="0.0130954242" flag="0"/>
      <psa03 value="0.0355321773" flag="0"/>
      <psa10 value="0.0029656182" flag="0"/>
      <psa30 value="0.0001502186" flag="0"/>
    </comp>
    <comp name="--.HHE">
      <acc value="0.0619403935" flag="0"/>
      <vel value="0.0140115849" flag="0"/>
      <psa03 value="0.0286114581" flag="0"/>
      <psa10 value="0.0029127448" flag="0"/>
      <psa30 value="0.0002358000" flag="0"/>
    </comp>
    <comp name="--.HHZ">
      <acc value="0.0378827875" flag="0"/>
      <vel value="0.0081409657" flag="0"/>
      <psa03 value="0.0369565841" flag="0"/>
      <psa10 value="0.0014224465" flag="0"/>
      <psa30 value="0.0001192752" flag="0"/>
    </comp>
  </station>
  <station code="NEHR" name="NEHR" netid="RO" insttype="Seismometer/Basalt" lat="45.4272" lon="26.2952">
    <comp name="--.HHE">
      <acc value="0.0169626829" flag="0"/>
      <vel value="0.0079286170" flag="0"/>
      <psa03 value="0.0532717785" flag="0"/>
      <psa10 value="0.0044263415" flag="0"/>
      <psa30 value="0.0003189630" flag="0"/>
    </comp>
    <comp name="--.HHZ">
      <acc value="0.0156291283" flag="0"/>
      <vel value="0.0080142531" flag="0"/>
      <psa03 value="0.0559709226" flag="0"/>
      <psa10 value="0.0027846797" flag="0"/>
      <psa30 value="0.0002122402" flag="0"/>
    </comp>
    <comp name="--.HHN">
      <acc value="0.0184440127" flag="0"/>
      <vel value="0.0088957655" flag="0"/>
      <psa03 value="0.0750927988" flag="0"/>
      <psa10 value="0.0049819069" flag="0"/>
      <psa30 value="0.0004001021" flag="0"/>
    </comp>
  </station>
  <station code="ODBI" name="ODBI" netid="RO" insttype="PBB.1to100/Quanterra" lat="45.7633" lon="27.0558">
    <comp name="--.HHN">
      <acc value="0.4161949109" flag="0"/>
      <vel value="0.0966719177" flag="0"/>
      <psa03 value="0.5399744490" flag="0"/>
      <psa10 value="0.0178438334" flag="0"/>
      <psa30 value="0.0024423011" flag="0"/>
    </comp>
    <comp name="--.HHE">
      <acc value="0.3863711187" flag="0"/>
      <vel value="0.0889251760" flag="0"/>
      <psa03 value="0.4258044377" flag="0"/>
      <psa10 value="0.0268501074" flag="0"/>
      <psa30 value="0.0030630799" flag="0"/>
    </comp>
    <comp name="--.HHZ">
      <acc value="0.0004006185" flag="0"/>
      <vel value="0.0000282652" flag="0"/>
      <psa03 value="0.0000893230" flag="0"/>
      <psa10 value="0.0000208840" flag="0"/>
      <psa30 value="0.0000034498" flag="0"/>
    </comp>
  </station>
  <station code="ODSR" name="ODSR" netid="RO" insttype="CMG40T.1to100/Quanterra" lat="46.2969" lon="25.2919">
    <comp name="--.HHN">
      <acc value="0.0081612706" flag="0"/>
      <vel value="0.0017242703" flag="0"/>
      <psa03 value="0.0076328814" flag="0"/>
      <psa10 value="0.0006353991" flag="0"/>
      <psa30 value="0.0000485572" flag="0"/>
    </comp>
    <comp name="--.HHE">
      <acc value="0.0155224472" flag="0"/>
      <vel value="0.0035146447" flag="0"/>
      <psa03 value="0.0135618043" flag="0"/>
      <psa10 value="0.0008058870" flag="0"/>
      <psa30 value="0.0000831796" flag="0"/>
    </comp>
    <comp name="--.HHZ">
      <acc value="0.0068411947" flag="0"/>
      <vel value="0.0018930054" flag="0"/>
      <psa03 value="0.0079240714" flag="0"/>
      <psa10 value="0.0005399376" flag="0"/>
      <psa30 value="0.0000571492" flag="0"/>
    </comp>
  </station>
  <station code="ONER" name="ONER" netid="RO" insttype="CMG40T.1to100/obsidian" lat="46.3349" lon="26.394">
    <comp name="--.HHN">
      <acc value="0.0052495017" flag="0"/>
      <vel value="0.0011420434" flag="0"/>
      <psa03 value="0.0045416260" flag="0"/>
      <psa10 value="0.0005543221" flag="0"/>
      <psa30 value="0.0000274784" flag="0"/>
    </comp>
    <comp name="--.HHE">
      <acc value="0.0049827152" flag="0"/>
      <vel value="0.0015597225" flag="0"/>
      <psa03 value="0.0075131737" flag="0"/>
      <psa10 value="0.0008330832" flag="0"/>
      <psa30 value="0.0000584120" flag="0"/>
    </comp>
    <comp name="--.HHZ">
      <acc value="0.0042100602" flag="0"/>
      <vel value="0.0011596304" flag="0"/>
      <psa03 value="0.0049597053" flag="0"/>
      <psa10 value="0.0006261594" flag="0"/>
      <psa30 value="0.0000340197" flag="0"/>
    </comp>
  </station>
  <station code="PANC" name="PANC" netid="RO" insttype="Seismometer/Basalt" lat="45.8723" lon="27.1477">
    <comp name="--.HHN">
      <acc value="0.0654072679" flag="0"/>
      <vel value="0.0059390068" flag="0"/>
      <psa03 value="0.0201339903" flag="0"/>
      <psa10 value="0.0063207734" flag="0"/>
      <psa30 value="0.0021887270" flag="0"/>
    </comp>
    <comp name="--.HHE">
      <acc value="0.0807246378" flag="0"/>
      <vel value="0.0167390661" flag="0"/>
      <psa03 value="0.0442247331" flag="0"/>
      <psa10 value="0.0077629846" flag="0"/>
      <psa30 value="0.0004878870" flag="0"/>
    </comp>
    <comp name="--.HHZ">
      <acc value="0.0546678027" flag="0"/>
      <vel value="0.0091097740" flag="0"/>
      <psa03 value="0.0256299219" flag="0"/>
      <psa10 value="0.0018656278" flag="0"/>
      <psa30 value="0.0001766743" flag="0"/>
    </comp>
  </station>
  <station code="PGOR" name="PGOR" netid="RO" insttype="CMG40T.1to100/Quanterra" lat="44.9199" lon="26.9768">
    <comp name="--.HHE">
      <acc value="0.0307691959" flag="0"/>
      <vel value="0.0142398286" flag="0"/>
      <psa03 value="0.0382625626" flag="0"/>
      <psa10 value="0.0095855841" flag="0"/>
      <psa30 value="0.0005744492" flag="0"/>
    </comp>
    <comp name="--.HHN">
      <acc value="0.0427865170" flag="0"/>
      <vel value="0.0200720471" flag="0"/>
      <psa03 value="0.1136714664" flag="0"/>
      <psa10 value="0.0061242421" flag="0"/>
      <psa30 value="0.0007000687" flag="0"/>
    </comp>
    <comp name="--.HHZ">
      <acc value="0.0390006236" flag="0"/>
      <vel value="0.0052964001" flag="0"/>
      <psa03 value="0.0126190196" flag="0"/>
      <psa10 value="0.0015863329" flag="0"/>
      <psa30 value="0.0001063768" flag="0"/>
    </comp>
  </station>
  <station code="PLAR" name="PLAR" netid="RO" insttype="200" lat="44.9142" lon="26.0274">
    <comp name="--.HNN">
      <acc value="0.0072122528" flag="0"/>
      <vel value="0.0044533810" flag="0"/>
      <psa03 value="0.0161539427" flag="0"/>
      <psa10 value="0.0035799556" flag="0"/>
      <psa30 value="0.0003347458" flag="0"/>
    </comp>
    <comp name="--.HNZ">
      <acc value="0.0146469259" flag="0"/>
      <vel value="0.0018608620" flag="0"/>
      <psa03 value="0.0061067260" flag="0"/>
      <psa10 value="0.0008795244" flag="0"/>
      <psa30 value="0.0000747348" flag="0"/>
    </comp>
    <comp name="--.HNE">
      <acc value="0.0075657767" flag="0"/>
      <vel value="0.0022544900" flag="0"/>
      <psa03 value="0.0201261730" flag="0"/>
      <psa10 value="0.0020715995" flag="0"/>
      <psa30 value="0.0002104607" flag="0"/>
    </comp>
  </station>
  <station code="PLOR" name="PLOR" netid="RO" insttype="330" lat="45.8512" lon="26.6498">
    <comp name="--.HHN">
      <acc value="0.0246923895" flag="0"/>
      <vel value="0.0086761349" flag="0"/>
      <psa03 value="0.0494480201" flag="0"/>
      <psa10 value="0.0038229979" flag="0"/>
      <psa30 value="0.0002458713" flag="0"/>
    </comp>
    <comp name="--.HHE">
      <acc value="0.0188386283" flag="0"/>
      <vel value="0.0066387851" flag="0"/>
      <psa03 value="0.0466516939" flag="0"/>
      <psa10 value="0.0044797165" flag="0"/>
      <psa30 value="0.0002526400" flag="0"/>
    </comp>
    <comp name="--.HHZ">
      <acc value="0.0079847192" flag="0"/>
      <vel value="0.0030335743" flag="0"/>
      <psa03 value="0.0189598230" flag="0"/>
      <psa10 value="0.0014820060" flag="0"/>
      <psa30 value="0.0001037169" flag="0"/>
    </comp>
  </station>
  <station code="PLOR4" name="PLOR4" netid="RO" insttype="330" lat="45.8512" lon="26.6498">
    <comp name="--.HHN">
      <acc value="0.0246923895" flag="0"/>
      <vel value="0.0086761349" flag="0"/>
      <psa03 value="0.0494480201" flag="0"/>
      <psa10 value="0.0038229979" flag="0"/>
      <psa30 value="0.0002458713" flag="0"/>
    </comp>
    <comp name="--.HHE">
      <acc value="0.0188386283" flag="0"/>
      <vel value="0.0066387851" flag="0"/>
      <psa03 value="0.0466516939" flag="0"/>
      <psa10 value="0.0044797165" flag="0"/>
      <psa30 value="0.0002526400" flag="0"/>
    </comp>
    <comp name="--.HHZ">
      <acc value="0.0079847192" flag="0"/>
      <vel value="0.0030335743" flag="0"/>
      <psa03 value="0.0189598230" flag="0"/>
      <psa10 value="0.0014820060" flag="0"/>
      <psa30 value="0.0001037169" flag="0"/>
    </comp>
  </station>
  <station code="SAHR" name="SAHR" netid="RO" insttype="Seismometer/Basalt" lat="45.7266" lon="26.6855">
    <comp name="--.HHN">
      <acc value="0.0000378964" flag="0"/>
      <vel value="0.0000161613" flag="0"/>
      <psa03 value="0.0000460940" flag="0"/>
      <psa10 value="0.0000116463" flag="0"/>
      <psa30 value="0.0000048087" flag="0"/>
    </comp>
    <comp name="--.HHZ">
      <acc value="0.0536608018" flag="0"/>
      <vel value="0.0091770383" flag="0"/>
      <psa03 value="0.0284555612" flag="0"/>
      <psa10 value="0.0110274613" flag="0"/>
      <psa30 value="0.0026453962" flag="0"/>
    </comp>
    <comp name="--.HHE">
      <acc value="0.0457628023" flag="0"/>
      <vel value="0.0197620619" flag="0"/>
      <psa03 value="0.1291481695" flag="0"/>
      <psa10 value="0.0057134827" flag="0"/>
      <psa30 value="0.0005174477" flag="0"/>
    </comp>
  </station>
  <station code="SCHL" name="SCHL" netid="RO" insttype="CMG40T.1to100/Quanterra" lat="45.5007" lon="27.8302">
    <comp name="--.HHE">
      <acc value="0.0824582721" flag="0"/>
      <vel value="0.0235569500" flag="0"/>
      <psa03 value="0.0824028372" flag="0"/>
      <psa10 value="0.0044000989" flag="0"/>
      <psa30 value="0.0003779727" flag="0"/>
    </comp>
    <comp name="--.HHN">
      <acc value="0.0742647181" flag="0"/>
      <vel value="0.0220393375" flag="0"/>
      <psa03 value="0.0662746229" flag="0"/>
      <psa10 value="0.0077002431" flag="0"/>
      <psa30 value="0.0003846411" flag="0"/>
    </comp>
    <comp name="--.HHZ">
      <acc value="0.0821821676" flag="0"/>
      <vel value="0.0181582733" flag="0"/>
      <psa03 value="0.0392761669" flag="0"/>
      <psa10 value="0.0029937974" flag="0"/>
      <psa30 value="0.0002533860" flag="0"/>
    </comp>
  </station>
  <station code="SCHLR" name="SCHLR" netid="RO" insttype="CMG40T.1to100/Quanterra" lat="45.4702" lon="27.8314">
    <comp name="--.HHE">
      <acc value="0.0655971344" flag="0"/>
      <vel value="0.0101698528" flag="0"/>
      <psa03 value="0.0303705827" flag="0"/>
      <psa10 value="0.0016712930" flag="0"/>
