<?xml version="1.0" encoding="UTF-8" standalone="yes"?>
<!DOCTYPE earthquake SYSTEM "stationlist.dtd">
<stationlist created="" xmlns="ch.ethz.sed.shakemap.usgs.xml">
  <station code="ARBE" name="ARBE" netid="EE" insttype="CMG-40T/30" commtype="DIG" lat="59.4365" lon="25.9841">
    <comp name="--.HHZ">
      <acc value="0.0197060849" flag="0"/>
      <vel value="0.0025189834" flag="0"/>
      <psa03 value="0.0072533232" flag="0"/>
      <psa10 value="0.0007528467" flag="0"/>
      <psa30 value="0.0000648105" flag="0"/>
    </comp>
    <comp name="--.HHE">
      <acc value="0.0229722736" flag="0"/>
      <vel value="0.0050375322" flag="0"/>
      <psa03 value="0.0239487257" flag="0"/>
      <psa10 value="0.0020523419" flag="0"/>
      <psa30 value="0.0000824586" flag="0"/>
    </comp>
    <comp name="--.HHN">
      <acc value="0.0312559984" flag="0"/>
      <vel value="0.0054123123" flag="0"/>
      <psa03 value="0.0198545759" flag="0"/>
      <psa10 value="0.0012852039" flag="0"/>
      <psa30 value="0.0001037876" flag="0"/>
    </comp>
  </station>
  <station code="EE06" name="EE06" netid="EE" insttype="Unavailable" commtype="DIG" lat="58.9695" lon="22.8482">
    <comp name="--.HHN">
      <acc value="0.0045345816" flag="0"/>
      <vel value="0.0006300443" flag="0"/>
      <psa03 value="0.0030382320" flag="0"/>
      <psa10 value="0.0004129518" flag="0"/>
      <psa30 value="0.0000209367" flag="0"/>
    </comp>
    <comp name="--.HHZ">
      <acc value="0.0028384827" flag="0"/>
      <vel value="0.0003817601" flag="0"/>
      <psa03 value="0.0018335169" flag="0"/>
      <psa10 value="0.0007986098" flag="0"/>
      <psa30 value="0.0000227729" flag="0"/>
    </comp>
    <comp name="--.HHE">
      <acc value="0.0041790288" flag="0"/>
      <vel value="0.0005607211" flag="0"/>
      <psa03 value="0.0025480568" flag="0"/>
      <psa10 value="0.0002185442" flag="0"/>
      <psa30 value="0.0000157092" flag="0"/>
    </comp>
  </station>
  <station code="MEF" name="MEF" netid="HE" insttype="Trillium-120" commtype="DIG" lat="60.2172" lon="24.3958">
    <comp name="--.HHN">
      <acc value="0.0051846159" flag="0"/>
      <vel value="0.0019093316" flag="0"/>
      <psa03 value="0.0109990114" flag="0"/>
      <psa10 value="0.0020053911" flag="0"/>
      <psa30 value="0.0000983297" flag="0"/>
    </comp>
    <comp name="--.HHZ">
      <acc value="0.0077799316" flag="0"/>
      <vel value="0.0035508787" flag="0"/>
      <psa03 value="0.0207692125" flag="0"/>
      <psa10 value="0.0032314021" flag="0"/>
      <psa30 value="0.0001334614" flag="0"/>
    </comp>
    <comp name="--.HHE">
      <acc value="0.0041826361" flag="0"/>
      <vel value="0.0010299268" flag="0"/>
      <psa03 value="0.0066304195" flag="0"/>
      <psa10 value="0.0004604616" flag="0"/>
      <psa30 value="0.0000319098" flag="0"/>
    </comp>
  </station>
</stationlist>
