<?xml version="1.0" encoding="UTF-8" standalone="yes"?>
<!DOCTYPE earthquake SYSTEM "stationlist.dtd">
<stationlist created="" xmlns="ch.ethz.sed.shakemap.usgs.xml">
  <station code="IDI" name="IDI" netid="MN" source="INGV" insttype="" lat="35.288" lon="24.89">
    <comp name="--.HHE">
      <acc value="0.1032721587" flag="0"/>
      <vel value="0.0309947991" flag="0"/>
      <psa03 value="0.2093237105" flag="0"/>
      <psa10 value="0.0162525839" flag="0"/>
      <psa30 value="0.0010019721" flag="0"/>
    </comp>
    <comp name="--.HHN">
      <acc value="0.0839939254" flag="0"/>
      <vel value="0.0364114437" flag="0"/>
      <psa03 value="0.2111044777" flag="0"/>
      <psa10 value="0.0232498274" flag="0"/>
      <psa30 value="0.0021074627" flag="0"/>
    </comp>
    <comp name="--.HHZ">
      <acc value="0.0753702260" flag="0"/>
      <vel value="0.0255482125" flag="0"/>
      <psa03 value="0.2052413468" flag="0"/>
      <psa10 value="0.0111246743" flag="0"/>
      <psa30 value="0.0012244940" flag="0"/>
    </comp>
  </station>
</stationlist>
