<?xml version="1.0" encoding="UTF-8" standalone="yes"?>
<!DOCTYPE earthquake SYSTEM "stationlist.dtd">
<stationlist created="" xmlns="ch.ethz.sed.shakemap.usgs.xml">
  <station code="CEYT" name="CEYT" netid="KO" insttype="CMG-3ESP" lat="37.0105" lon="35.7478">
    <comp name="--.HHE">
      <acc value="0.0343974525" flag="0"/>
      <vel value="0.0364317732" flag="0"/>
      <psa03 value="0.0667824313" flag="0"/>
      <psa10 value="0.0349083125" flag="0"/>
      <psa30 value="0.0029216183" flag="0"/>
    </comp>
    <comp name="--.HHN">
      <acc value="0.0274243345" flag="0"/>
      <vel value="0.0168992185" flag="0"/>
      <psa03 value="0.0736127648" flag="0"/>
      <psa10 value="0.0251846143" flag="0"/>
      <psa30 value="0.0022120748" flag="0"/>
    </comp>
    <comp name="--.HHZ">
      <acc value="0.0236446132" flag="0"/>
      <vel value="0.0192270993" flag="0"/>
      <psa03 value="0.0323581053" flag="0"/>
      <psa10 value="0.0394926414" flag="0"/>
      <psa30 value="0.0018679731" flag="0"/>
    </comp>
  </station>
</stationlist>
