<?xml version="1.0" encoding="UTF-8" standalone="yes"?>
<!DOCTYPE earthquake SYSTEM "stationlist.dtd">
<stationlist created="" xmlns="ch.ethz.sed.shakemap.usgs.xml">
  <station code="AIO" name="AIO" netid="IV" insttype="" commtype="DIG" lat="37.9712" lon="15.233">
    <comp name="--.HHN">
      <acc value="0.0009400537" flag="0"/>
      <vel value="0.0002989972" flag="0"/>
      <psa03 value="0.0021059255" flag="0"/>
      <psa10 value="0.0001063408" flag="0"/>
      <psa30 value="0.0000116404" flag="0"/>
    </comp>
    <comp name="--.HHE">
      <acc value="0.0007678299" flag="0"/>
      <vel value="0.0002321843" flag="0"/>
      <psa03 value="0.0009863066" flag="0"/>
      <psa10 value="0.0000969813" flag="0"/>
      <psa30 value="0.0000077818" flag="0"/>
    </comp>
    <comp name="--.HHZ">
      <acc value="0.0011403688" flag="0"/>
      <vel value="0.0004078219" flag="0"/>
      <psa03 value="0.0017744409" flag="0"/>
      <psa10 value="0.0001966014" flag="0"/>
      <psa30 value="0.0000130195" flag="0"/>
    </comp>
  </station>
  <station code="BASIC" name="BASIC" netid="IV" insttype="" commtype="DIG" lat="38.067" lon="15.0688">
    <comp name="--.HHE">
      <acc value="0.0025407090" flag="0"/>
      <vel value="0.0008176726" flag="0"/>
      <psa03 value="0.0077759426" flag="0"/>
      <psa10 value="0.0003981263" flag="0"/>
      <psa30 value="0.0000267522" flag="0"/>
    </comp>
    <comp name="--.HHZ">
      <acc value="0.0034180898" flag="0"/>
      <vel value="0.0007258698" flag="0"/>
      <psa03 value="0.0054932556" flag="0"/>
      <psa10 value="0.0002849561" flag="0"/>
      <psa30 value="0.0000254634" flag="0"/>
    </comp>
    <comp name="--.HHN">
      <acc value="0.0017400929" flag="0"/>
      <vel value="0.0005921857" flag="0"/>
      <psa03 value="0.0046288464" flag="0"/>
      <psa10 value="0.0003519460" flag="0"/>
      <psa30 value="0.0000231301" flag="0"/>
    </comp>
  </station>
  <station code="CSLB" name="CSLB" netid="IV" insttype="" commtype="DIG" lat="37.9374" lon="14.0579">
    <comp name="--.HHE">
      <acc value="0.0003451444" flag="0"/>
      <vel value="0.0000923369" flag="0"/>
      <psa03 value="0.0003622152" flag="0"/>
      <psa10 value="0.0000789743" flag="0"/>
      <psa30 value="0.0000069076" flag="0"/>
    </comp>
    <comp name="--.HHN">
      <acc value="0.0003918251" flag="0"/>
      <vel value="0.0001127991" flag="0"/>
      <psa03 value="0.0006029479" flag="0"/>
      <psa10 value="0.0001497227" flag="0"/>
      <psa30 value="0.0000071381" flag="0"/>
    </comp>
    <comp name="--.HHZ">
      <acc value="0.0007760057" flag="0"/>
      <vel value="0.0001822893" flag="0"/>
      <psa03 value="0.0008173764" flag="0"/>
      <psa10 value="0.0001269775" flag="0"/>
      <psa30 value="0.0000117070" flag="0"/>
    </comp>
  </station>
  <station code="ECTS" name="ECTS" netid="IV" insttype="" commtype="DIG" lat="37.882" lon="15.121">
    <comp name="--.HHN">
      <acc value="0.0003794981" flag="0"/>
      <vel value="0.0000416947" flag="0"/>
      <psa03 value="0.0000819979" flag="0"/>
      <psa10 value="0.0000583331" flag="0"/>
      <psa30 value="0.0000074261" flag="0"/>
    </comp>
    <comp name="--.HHE">
      <acc value="0.0015546590" flag="0"/>
      <vel value="0.0004870970" flag="0"/>
      <psa03 value="0.0034044979" flag="0"/>
      <psa10 value="0.0004588060" flag="0"/>
      <psa30 value="0.0000258231" flag="0"/>
    </comp>
    <comp name="--.HHZ">
      <acc value="0.0046586119" flag="0"/>
      <vel value="0.0021685291" flag="0"/>
      <psa03 value="0.0116824463" flag="0"/>
      <psa10 value="0.0012222288" flag="0"/>
      <psa30 value="0.0000721473" flag="0"/>
    </comp>
  </station>
  <station code="EMCO" name="EMCO" netid="IV" insttype="" commtype="DIG" lat="37.9264" lon="14.9029">
    <comp name="--.HHE">
      <acc value="0.0032633303" flag="0"/>
      <vel value="0.0007944799" flag="0"/>
      <psa03 value="0.0039494935" flag="0"/>
      <psa10 value="0.0002299600" flag="0"/>
      <psa30 value="0.0000281071" flag="0"/>
    </comp>
    <comp name="--.HHN">
      <acc value="0.0029584351" flag="0"/>
      <vel value="0.0008891972" flag="0"/>
      <psa03 value="0.0034432231" flag="0"/>
      <psa10 value="0.0002319491" flag="0"/>
      <psa30 value="0.0000316645" flag="0"/>
    </comp>
    <comp name="--.HHZ">
      <acc value="0.0036481433" flag="0"/>
      <vel value="0.0013356826" flag="0"/>
      <psa03 value="0.0050257807" flag="0"/>
      <psa10 value="0.0003577678" flag="0"/>
      <psa30 value="0.0000298322" flag="0"/>
    </comp>
  </station>
  <station code="EMNR" name="EMNR" netid="IV" insttype="" commtype="DIG" lat="37.8168" lon="15.026">
    <comp name="--.HHE">
      <acc value="0.0060179664" flag="0"/>
      <vel value="0.0014364523" flag="0"/>
      <psa03 value="0.0081770713" flag="0"/>
      <psa10 value="0.0013689664" flag="0"/>
      <psa30 value="0.0000753362" flag="0"/>
    </comp>
    <comp name="--.HHZ">
      <acc value="0.0074780724" flag="0"/>
      <vel value="0.0019000368" flag="0"/>
      <psa03 value="0.0049699285" flag="0"/>
      <psa10 value="0.0012021708" flag="0"/>
      <psa30 value="0.0000639563" flag="0"/>
    </comp>
    <comp name="--.HHN">
      <acc value="0.0065283618" flag="0"/>
      <vel value="0.0019151011" flag="0"/>
      <psa03 value="0.0088463540" flag="0"/>
      <psa10 value="0.0015544222" flag="0"/>
      <psa30 value="0.0000807660" flag="0"/>
    </comp>
  </station>
  <station code="EMSG" name="EMSG" netid="IV" insttype="" commtype="DIG" lat="37.8208" lon="14.9498">
    <comp name="--.HHE">
      <acc value="0.0028818196" flag="0"/>
      <vel value="0.0010664684" flag="0"/>
      <psa03 value="0.0053907889" flag="0"/>
      <psa10 value="0.0005475978" flag="0"/>
      <psa30 value="0.0000404927" flag="0"/>
    </comp>
    <comp name="--.HHZ">
      <acc value="0.0031226615" flag="0"/>
      <vel value="0.0013004983" flag="0"/>
      <psa03 value="0.0073664244" flag="0"/>
      <psa10 value="0.0011175110" flag="0"/>
      <psa30 value="0.0000717141" flag="0"/>
    </comp>
    <comp name="--.HHN">
      <acc value="0.0035167166" flag="0"/>
      <vel value="0.0012062617" flag="0"/>
      <psa03 value="0.0056586862" flag="0"/>
      <psa10 value="0.0005586402" flag="0"/>
      <psa30 value="0.0000312577" flag="0"/>
    </comp>
  </station>
  <station code="EPZF" name="EPZF" netid="IV" insttype="" commtype="DIG" lat="37.824" lon="14.857">
    <comp name="--.HHE">
      <acc value="0.0002770119" flag="0"/>
      <vel value="0.0000404785" flag="0"/>
      <psa03 value="0.0001371966" flag="0"/>
      <psa10 value="0.0001859971" flag="0"/>
      <psa30 value="0.0000188455" flag="0"/>
    </comp>
    <comp name="--.HHZ">
      <acc value="0.0000798653" flag="0"/>
      <vel value="-100.0000000000" flag="0"/>
      <psa03 value="0.0000738986" flag="0"/>
      <psa10 value="0.0000588480" flag="0"/>
      <psa30 value="0.0000113510" flag="0"/>
    </comp>
    <comp name="--.HHN">
      <acc value="0.0019691483" flag="0"/>
      <vel value="0.0009592944" flag="0"/>
      <psa03 value="0.0054836029" flag="0"/>
      <psa10 value="0.0008327189" flag="0"/>
      <psa30 value="0.0000513249" flag="0"/>
    </comp>
  </station>
  <station code="GIB" name="GIB" netid="IV" insttype="" commtype="DIG" lat="37.9901" lon="14.026">
    <comp name="--.HHE">
      <acc value="0.0006048439" flag="0"/>
      <vel value="0.0003006458" flag="0"/>
      <psa03 value="0.0014982369" flag="0"/>
      <psa10 value="0.0004079925" flag="0"/>
      <psa30 value="0.0000227727" flag="0"/>
    </comp>
    <comp name="--.HHZ">
      <acc value="0.0005725481" flag="0"/>
      <vel value="0.0001681622" flag="0"/>
      <psa03 value="0.0008456098" flag="0"/>
      <psa10 value="0.0002140754" flag="0"/>
      <psa30 value="0.0000131026" flag="0"/>
    </comp>
    <comp name="--.HHN">
      <acc value="0.0009251160" flag="0"/>
      <vel value="0.0003744876" flag="0"/>
      <psa03 value="0.0017206635" flag="0"/>
      <psa10 value="0.0003544790" flag="0"/>
      <psa30 value="0.0000368593" flag="0"/>
    </comp>
  </station>
  <station code="IACL" name="IACL" netid="IV" insttype="" commtype="DIG" lat="38.533" lon="14.355">
    <comp name="--.HHN">
      <acc value="0.0014107742" flag="0"/>
      <vel value="0.0006855475" flag="0"/>
      <psa03 value="0.0043905032" flag="0"/>
      <psa10 value="0.0003697140" flag="0"/>
      <psa30 value="0.0000512576" flag="0"/>
    </comp>
    <comp name="--.HHE">
      <acc value="0.0016710016" flag="0"/>
      <vel value="0.0006433896" flag="0"/>
      <psa03 value="0.0036013087" flag="0"/>
      <psa10 value="0.0003290517" flag="0"/>
      <psa30 value="0.0000342545" flag="0"/>
    </comp>
    <comp name="--.HHZ">
      <acc value="0.0017224554" flag="0"/>
      <vel value="0.0010510646" flag="0"/>
      <psa03 value="0.0052729255" flag="0"/>
      <psa10 value="0.0004761974" flag="0"/>
      <psa30 value="0.0000395131" flag="0"/>
    </comp>
  </station>
  <station code="IFIL" name="IFIL" netid="IV" insttype="" commtype="DIG" lat="38.5642" lon="14.5753">
    <comp name="--.HHE">
      <acc value="0.0019989759" flag="0"/>
      <vel value="0.0010144820" flag="0"/>
      <psa03 value="0.0050094817" flag="0"/>
      <psa10 value="0.0006128402" flag="0"/>
      <psa30 value="0.0000324110" flag="0"/>
    </comp>
    <comp name="--.HHN">
      <acc value="0.0022990244" flag="0"/>
      <vel value="0.0006104981" flag="0"/>
      <psa03 value="0.0041067516" flag="0"/>
      <psa10 value="0.0004099787" flag="0"/>
      <psa30 value="0.0000549479" flag="0"/>
    </comp>
    <comp name="--.HHZ">
      <acc value="0.0017767745" flag="0"/>
      <vel value="0.0009173742" flag="0"/>
      <psa03 value="0.0031397998" flag="0"/>
      <psa10 value="0.0006999989" flag="0"/>
      <psa30 value="0.0000539634" flag="0"/>
    </comp>
  </station>
  <station code="ILOS" name="ILOS" netid="IV" insttype="" commtype="DIG" lat="38.4457" lon="14.9483">
    <comp name="--.HHE">
      <acc value="0.0013263751" flag="0"/>
      <vel value="0.0006442057" flag="0"/>
      <psa03 value="0.0032528650" flag="0"/>
      <psa10 value="0.0007179946" flag="0"/>
      <psa30 value="0.0000546349" flag="0"/>
    </comp>
    <comp name="--.HHN">
      <acc value="0.0021675035" flag="0"/>
      <vel value="0.0012793733" flag="0"/>
      <psa03 value="0.0038580867" flag="0"/>
      <psa10 value="0.0014545481" flag="0"/>
      <psa30 value="0.0000803732" flag="0"/>
    </comp>
    <comp name="--.HHZ">
      <acc value="0.0027272431" flag="0"/>
      <vel value="0.0012908674" flag="0"/>
      <psa03 value="0.0041934245" flag="0"/>
      <psa10 value="0.0007529817" flag="0"/>
      <psa30 value="0.0000417573" flag="0"/>
    </comp>
  </station>
  <station code="IPNR" name="IPNR" netid="IV" insttype="" commtype="DIG" lat="38.6435" lon="15.0688">
    <comp name="--.HHE">
      <acc value="0.0012474099" flag="0"/>
      <vel value="0.0004937323" flag="0"/>
      <psa03 value="0.0017301164" flag="0"/>
      <psa10 value="0.0006483604" flag="0"/>
      <psa30 value="0.0000728084" flag="0"/>
    </comp>
    <comp name="--.HHZ">
      <acc value="0.0007250282" flag="0"/>
      <vel value="0.0002453317" flag="0"/>
      <psa03 value="0.0012001350" flag="0"/>
      <psa10 value="0.0003789896" flag="0"/>
      <psa30 value="0.0000186998" flag="0"/>
    </comp>
    <comp name="--.HHN">
      <acc value="0.0010375845" flag="0"/>
      <vel value="0.0003760790" flag="0"/>
      <psa03 value="0.0022843461" flag="0"/>
      <psa10 value="0.0004577645" flag="0"/>
      <psa30 value="0.0000516086" flag="0"/>
    </comp>
  </station>
  <station code="IVCR" name="IVCR" netid="IV" insttype="" commtype="DIG" lat="38.4096" lon="14.961">
    <comp name="--.HHE">
      <acc value="0.0028370341" flag="0"/>
      <vel value="0.0007687686" flag="0"/>
      <psa03 value="0.0028784745" flag="0"/>
      <psa10 value="0.0002689461" flag="0"/>
      <psa30 value="0.0000310082" flag="0"/>
    </comp>
    <comp name="--.HHN">
      <acc value="0.0024536466" flag="0"/>
      <vel value="0.0006986535" flag="0"/>
      <psa03 value="0.0034692273" flag="0"/>
      <psa10 value="0.0002316959" flag="0"/>
      <psa30 value="0.0000179574" flag="0"/>
    </comp>
    <comp name="--.HHZ">
      <acc value="0.0016222675" flag="0"/>
      <vel value="0.0002921544" flag="0"/>
      <psa03 value="0.0014989237" flag="0"/>
      <psa10 value="0.0002203556" flag="0"/>
      <psa30 value="0.0000223065" flag="0"/>
    </comp>
  </station>
  <station code="IVLT" name="IVLT" netid="IV" insttype="" commtype="DIG" lat="38.3961" lon="14.9482">
    <comp name="--.HHN">
      <acc value="0.0015804627" flag="0"/>
      <vel value="0.0004841951" flag="0"/>
      <psa03 value="0.0018300760" flag="0"/>
      <psa10 value="0.0003171058" flag="0"/>
      <psa30 value="0.0000308816" flag="0"/>
    </comp>
    <comp name="--.HHE">
      <acc value="0.0061783151" flag="0"/>
      <vel value="0.0009451721" flag="0"/>
      <psa03 value="0.0021243714" flag="0"/>
      <psa10 value="0.0006641637" flag="0"/>
      <psa30 value="0.0000440362" flag="0"/>
    </comp>
    <comp name="--.HHZ">
      <acc value="0.0019480807" flag="0"/>
      <vel value="0.0006447553" flag="0"/>
      <psa03 value="0.0027819458" flag="0"/>
      <psa10 value="0.0004221678" flag="0"/>
      <psa30 value="0.0000294161" flag="0"/>
    </comp>
  </station>
  <station code="IVUG" name="IVUG" netid="IV" insttype="" commtype="DIG" lat="38.396" lon="14.986">
    <comp name="--.HHE">
      <acc value="0.0078815266" flag="0"/>
      <vel value="0.0011279807" flag="0"/>
      <psa03 value="0.0070780291" flag="0"/>
      <psa10 value="0.0007194110" flag="0"/>
      <psa30 value="0.0000677846" flag="0"/>
    </comp>
    <comp name="--.HHZ">
      <acc value="0.0067206642" flag="0"/>
      <vel value="0.0013549501" flag="0"/>
      <psa03 value="0.0037804712" flag="0"/>
      <psa10 value="0.0004208360" flag="0"/>
      <psa30 value="0.0000553954" flag="0"/>
    </comp>
    <comp name="--.HHN">
      <acc value="0.0082240736" flag="0"/>
      <vel value="0.0014935845" flag="0"/>
      <psa03 value="0.0064019703" flag="0"/>
      <psa10 value="0.0004440010" flag="0"/>
      <psa30 value="0.0000737051" flag="0"/>
    </comp>
  </station>
  <station code="LIBRI" name="LIBRI" netid="IV" insttype="" commtype="DIG" lat="38.0837" lon="14.9287">
    <comp name="--.HHE">
      <acc value="0.0004868255" flag="0"/>
      <vel value="0.0002095924" flag="0"/>
      <psa03 value="0.0014440094" flag="0"/>
      <psa10 value="0.0001368680" flag="0"/>
      <psa30 value="0.0000146334" flag="0"/>
    </comp>
    <comp name="--.HHN">
      <acc value="0.0005667694" flag="0"/>
      <vel value="0.0001806796" flag="0"/>
      <psa03 value="0.0008765044" flag="0"/>
      <psa10 value="0.0001225008" flag="0"/>
      <psa30 value="0.0000119878" flag="0"/>
    </comp>
    <comp name="--.HHZ">
      <acc value="0.0006758562" flag="0"/>
      <vel value="0.0001567675" flag="0"/>
      <psa03 value="0.0012318417" flag="0"/>
      <psa10 value="0.0000962062" flag="0"/>
      <psa30 value="0.0000128255" flag="0"/>
    </comp>
  </station>
  <station code="MCPD" name="MCPD" netid="IV" insttype="" commtype="DIG" lat="38.1199" lon="14.731">
    <comp name="--.HHN">
      <acc value="0.0002242560" flag="0"/>
      <vel value="0.0000684074" flag="0"/>
      <psa03 value="0.0003641088" flag="0"/>
      <psa10 value="0.0000530527" flag="0"/>
      <psa30 value="0.0000041860" flag="0"/>
    </comp>
    <comp name="--.HHE">
      <acc value="0.0001533070" flag="0"/>
      <vel value="0.0000599648" flag="0"/>
      <psa03 value="0.0003029228" flag="0"/>
      <psa10 value="0.0000249164" flag="0"/>
      <psa30 value="0.0000033639" flag="0"/>
    </comp>
    <comp name="--.HHZ">
      <acc value="0.0003822451" flag="0"/>
      <vel value="0.0001803067" flag="0"/>
      <psa03 value="0.0007296567" flag="0"/>
      <psa10 value="0.0000411126" flag="0"/>
      <psa30 value="0.0000058174" flag="0"/>
    </comp>
  </station>
  <station code="MILZ" name="MILZ" netid="IV" insttype="" commtype="DIG" lat="38.2713" lon="15.2313">
    <comp name="--.HHE">
      <acc value="0.0027578115" flag="0"/>
      <vel value="0.0007357655" flag="0"/>
      <psa03 value="0.0042180285" flag="0"/>
      <psa10 value="0.0002941807" flag="0"/>
      <psa30 value="0.0000450947" flag="0"/>
    </comp>
    <comp name="--.HHN">
      <acc value="0.0025259218" flag="0"/>
      <vel value="0.0010250602" flag="0"/>
      <psa03 value="0.0067657687" flag="0"/>
      <psa10 value="0.0004187450" flag="0"/>
      <psa30 value="0.0000314092" flag="0"/>
    </comp>
    <comp name="--.HHZ">
      <acc value="0.0064858397" flag="0"/>
      <vel value="0.0011188796" flag="0"/>
      <psa03 value="0.0030055027" flag="0"/>
      <psa10 value="0.0001591620" flag="0"/>
      <psa30 value="0.0000284076" flag="0"/>
    </comp>
  </station>
  <station code="MPNC" name="MPNC" netid="IV" insttype="" commtype="DIG" lat="38.1465" lon="15.3528">
    <comp name="--.HHE">
      <acc value="0.0065824660" flag="0"/>
      <vel value="0.0010942154" flag="0"/>
      <psa03 value="0.0051663846" flag="0"/>
      <psa10 value="0.0004254994" flag="0"/>
      <psa30 value="0.0000432303" flag="0"/>
    </comp>
    <comp name="--.HHN">
      <acc value="0.0048316819" flag="0"/>
      <vel value="0.0010483469" flag="0"/>
      <psa03 value="0.0069435546" flag="0"/>
      <psa10 value="0.0005366961" flag="0"/>
      <psa30 value="0.0000461756" flag="0"/>
    </comp>
    <comp name="--.HHZ">
      <acc value="0.0050084015" flag="0"/>
      <vel value="0.0008229571" flag="0"/>
      <psa03 value="0.0030354959" flag="0"/>
      <psa10 value="0.0002650741" flag="0"/>
      <psa30 value="0.0000218272" flag="0"/>
    </comp>
  </station>
  <station code="MSRU" name="MSRU" netid="IV" insttype="" commtype="DIG" lat="38.2639" lon="15.5083">
    <comp name="--.HHE">
      <acc value="0.0058229980" flag="0"/>
      <vel value="0.0018395691" flag="0"/>
      <psa03 value="0.0099561412" flag="0"/>
      <psa10 value="0.0007873884" flag="0"/>
      <psa30 value="0.0000457370" flag="0"/>
    </comp>
    <comp name="--.HHZ">
      <acc value="0.0068682202" flag="0"/>
      <vel value="0.0010277278" flag="0"/>
      <psa03 value="0.0056036536" flag="0"/>
      <psa10 value="0.0003119068" flag="0"/>
      <psa30 value="0.0000243917" flag="0"/>
    </comp>
    <comp name="--.HHN">
      <acc value="0.0062311355" flag="0"/>
      <vel value="0.0015137335" flag="0"/>
      <psa03 value="0.0104944878" flag="0"/>
      <psa10 value="0.0007917988" flag="0"/>
      <psa30 value="0.0000556102" flag="0"/>
    </comp>
  </station>
  <station code="MUCR" name="MUCR" netid="IV" insttype="" commtype="DIG" lat="38.043" lon="14.8739">
    <comp name="--.HHE">
      <acc value="0.0007027148" flag="0"/>
      <vel value="0.0002368865" flag="0"/>
      <psa03 value="0.0014917851" flag="0"/>
      <psa10 value="0.0001811420" flag="0"/>
      <psa30 value="0.0000108897" flag="0"/>
    </comp>
    <comp name="--.HHZ">
      <acc value="0.0009798936" flag="0"/>
      <vel value="0.0002138707" flag="0"/>
      <psa03 value="0.0010408870" flag="0"/>
      <psa10 value="0.0001638429" flag="0"/>
      <psa30 value="0.0000141120" flag="0"/>
    </comp>
    <comp name="--.HHN">
      <acc value="0.0011083476" flag="0"/>
      <vel value="0.0003660208" flag="0"/>
      <psa03 value="0.0025628223" flag="0"/>
      <psa10 value="0.0001682288" flag="0"/>
      <psa30 value="0.0000125064" flag="0"/>
    </comp>
  </station>
  <station code="PLLN" name="PLLN" netid="IV" insttype="" commtype="DIG" lat="37.9926" lon="14.1431">
    <comp name="--.HHE">
      <acc value="0.0007678837" flag="0"/>
      <vel value="0.0003124159" flag="0"/>
      <psa03 value="0.0012877722" flag="0"/>
