<stationlist created="1778069793">
	<station code="KSS1" name="KSS1" netid="HI" source="ITSAK Strong Motion Network" insttype="" lat="35.4189" lon="26.9207">
		<comp name="--.HNE" depth="0.0">
			<acc value="0.0345093859909087" flag="0"/>
			<vel value="0.0151024950392127" flag="0"/>
			<psa03 value="0.13073672773859" flag="0"/>
			<psa10 value="0.00722407668058616" flag="0"/>
			<psa30 value="0.000483663253543518" flag="0"/>
		</comp>
		<comp name="--.HNN" depth="0.0">
			<acc value="0.027749003404601" flag="0"/>
			<vel value="0.0124185237588783" flag="0"/>
			<psa03 value="0.0686792871590471" flag="0"/>
			<psa10 value="0.00601603710189282" flag="0"/>
			<psa30 value="0.000795516433672872" flag="0"/>
		</comp>
		<comp name="--.HNZ" depth="0.0">
			<acc value="0.0215060664051241" flag="0"/>
			<vel value="0.00660429518153619" flag="0"/>
			<psa03 value="0.0215210013833887" flag="0"/>
			<psa10 value="0.00322546567511121" flag="0"/>
			<psa30 value="0.000556145628265118" flag="0"/>
		</comp>
	</station>
	<station code="RDI1" name="RDI1" netid="HI" source="ITSAK Strong Motion Network" insttype="" lat="36.4514" lon="28.224">
		<comp name="--.HNE" depth="0.0">
			<acc value="0.0117997715379489" flag="0"/>
			<vel value="0.00746045659661768" flag="0"/>
			<psa03 value="0.044115815725616" flag="0"/>
			<psa10 value="0.0106669894798622" flag="0"/>
			<psa30 value="0.00121296122142135" flag="0"/>
		</comp>
		<comp name="--.HNN" depth="0.0">
			<acc value="0.0146699813353904" flag="0"/>
			<vel value="0.012535000361069" flag="0"/>
			<psa03 value="0.0410733456755735" flag="0"/>
			<psa10 value="0.0187809886500858" flag="0"/>
			<psa30 value="0.00165277711247896" flag="0"/>
		</comp>
		<comp name="--.HNZ" depth="0.0">
			<acc value="0.0101971290197206" flag="0"/>
			<vel value="0.00615094515107237" flag="0"/>
			<psa03 value="0.0243845026069581" flag="0"/>
			<psa10 value="0.00814621355898874" flag="0"/>
			<psa30 value="0.000676502164068269" flag="0"/>
		</comp>
	</station>
	<station code="SIT2" name="SIT2" netid="HI" source="ITSAK Strong Motion Network" insttype="" lat="35.2059" lon="26.107">
		<comp name="--.HNE" depth="0.0">
			<acc value="0.0255284405333503" flag="0"/>
			<vel value="0.0208764925873532" flag="0"/>
			<psa03 value="0.0871578184923934" flag="0"/>
			<psa10 value="0.0127810587425755" flag="0"/>
			<psa30 value="0.00100848933717585" flag="0"/>
		</comp>
		<comp name="--.HNN" depth="0.0">
			<acc value="0.0267380012854178" flag="0"/>
			<vel value="0.022550455386654" flag="0"/>
			<psa03 value="0.109484179594911" flag="0"/>
			<psa10 value="0.0156763269328439" flag="0"/>
			<psa30 value="0.00126978382382655" flag="0"/>
		</comp>
		<comp name="--.HNZ" depth="0.0">
			<acc value="0.0177603391655138" flag="0"/>
			<vel value="0.00690838885488111" flag="0"/>
			<psa03 value="0.0415207677417562" flag="0"/>
			<psa10 value="0.00471135435690402" flag="0"/>
			<psa30 value="0.000470688013624219" flag="0"/>
		</comp>
	</station>
	<station code="CAME" name="CAME" netid="KO" source="Bogazici University Kandilli Observatory And Earthquake Research Institute (KOERI)" insttype="" lat="36.9435" lon="29.3023">
		<comp name="--.HNE" depth="0.0">
			<acc value="0.00174285126369156" flag="0"/>
			<vel value="0.00109999637833377" flag="0"/>
			<psa03 value="0.00559277582728397" flag="0"/>
			<psa10 value="0.00114361080116303" flag="0"/>
			<psa30 value="0.00019104922226002" flag="0"/>
		</comp>
		<comp name="--.HNN" depth="0.0">
			<acc value="0.0019822846141893" flag="0"/>
			<vel value="0.000958092593996358" flag="0"/>
			<psa03 value="0.00536906479419261" flag="0"/>
			<psa10 value="0.00122817357167156" flag="0"/>
			<psa30 value="0.000148544125972662" flag="0"/>
		</comp>
		<comp name="--.HNZ" depth="0.0">
			<acc value="0.00170940170722942" flag="0"/>
			<vel value="0.000629929498817079" flag="0"/>
			<psa03 value="0.00460844728168199" flag="0"/>
			<psa10 value="0.000897976086828714" flag="0"/>
			<psa30 value="0.00016957296308325" flag="0"/>
		</comp>
	</station>
</stationlist>
