<?xml version="1.0" encoding="UTF-8" standalone="yes"?>
<!DOCTYPE earthquake SYSTEM "stationlist.dtd">
<stationlist created="" xmlns="ch.ethz.sed.shakemap.usgs.xml">
  <station code="KARP" name="KARP" netid="GE" insttype="STS-2/N" lat="35.5471" lon="27.1611">
    <comp name="--.HHE">
      <acc value="0.1394873025" flag="0"/>
      <vel value="0.0284576037" flag="0"/>
      <psa03 value="0.0988577717" flag="0"/>
      <psa10 value="0.0130615324" flag="0"/>
      <psa30 value="0.0006840564" flag="0"/>
    </comp>
    <comp name="--.HHZ">
      <acc value="0.0781538349" flag="0"/>
      <vel value="0.0229303795" flag="0"/>
      <psa03 value="0.0674009271" flag="0"/>
      <psa10 value="0.0155743473" flag="0"/>
      <psa30 value="0.0010612105" flag="0"/>
    </comp>
    <comp name="--.HHN">
      <acc value="0.1072544678" flag="0"/>
      <vel value="0.0254276219" flag="0"/>
      <psa03 value="0.1129111658" flag="0"/>
      <psa10 value="0.0190384832" flag="0"/>
      <psa30 value="0.0009276182" flag="0"/>
    </comp>
  </station>
  <station code="RDI1" name="RDI1" netid="HI" insttype="CMG-5TD,ACCELEROMETER,GURALP" lat="36.4514" lon="28.224">
    <comp name="--.HNZ">
      <acc value="0.0101027470" flag="0"/>
      <vel value="0.0061693050" flag="0"/>
      <psa03 value="0.0244119747" flag="0"/>
      <psa10 value="0.0081420128" flag="0"/>
      <psa30 value="0.0005642549" flag="0"/>
    </comp>
    <comp name="--.HNN">
      <acc value="0.0147766670" flag="0"/>
      <vel value="0.0122351734" flag="0"/>
      <psa03 value="0.0406602042" flag="0"/>
      <psa10 value="0.0187662806" flag="0"/>
      <psa30 value="0.0015223244" flag="0"/>
    </comp>
    <comp name="--.HNE">
      <acc value="0.0118664890" flag="0"/>
      <vel value="0.0074446997" flag="0"/>
      <psa03 value="0.0436673946" flag="0"/>
      <psa10 value="0.0106818371" flag="0"/>
      <psa30 value="0.0010849424" flag="0"/>
    </comp>
  </station>
  <station code="ARG" name="ARG" netid="HL" insttype="LE3D20_DR24" lat="36.2136" lon="28.1212">
    <comp name="--.HHN">
      <acc value="0.0200516917" flag="0"/>
      <vel value="0.0075002945" flag="0"/>
      <psa03 value="0.0288425188" flag="0"/>
      <psa10 value="0.0045212339" flag="0"/>
      <psa30 value="0.0005597892" flag="0"/>
    </comp>
    <comp name="--.HHE">
      <acc value="0.0296539774" flag="0"/>
      <vel value="0.0090141572" flag="0"/>
      <psa03 value="0.0489098082" flag="0"/>
      <psa10 value="0.0105388260" flag="0"/>
      <psa30 value="0.0007756773" flag="0"/>
    </comp>
    <comp name="--.HHZ">
      <acc value="0.0153973184" flag="0"/>
      <vel value="0.0051718832" flag="0"/>
      <psa03 value="0.0273921057" flag="0"/>
      <psa10 value="0.0045261770" flag="0"/>
      <psa30 value="0.0005510843" flag="0"/>
    </comp>
  </station>
  <station code="KARP" name="KARP" netid="HL" insttype="120" lat="35.5471" lon="27.1611">
    <comp name="--.HHE">
      <acc value="0.1267224479" flag="0"/>
      <vel value="0.0273041345" flag="0"/>
      <psa03 value="0.0961639811" flag="0"/>
      <psa10 value="0.0129704690" flag="0"/>
      <psa30 value="0.0006821764" flag="0"/>
    </comp>
    <comp name="--.HHZ">
      <acc value="0.0668996217" flag="0"/>
      <vel value="0.0222065228" flag="0"/>
      <psa03 value="0.0650478834" flag="0"/>
      <psa10 value="0.0154698797" flag="0"/>
      <psa30 value="0.0010467578" flag="0"/>
    </comp>
    <comp name="--.HHN">
      <acc value="0.1023282433" flag="0"/>
      <vel value="0.0248219740" flag="0"/>
      <psa03 value="0.1096800466" flag="0"/>
      <psa10 value="0.0188955038" flag="0"/>
      <psa30 value="0.0009212935" flag="0"/>
    </comp>
  </station>
</stationlist>
