<?xml version="1.0" encoding="UTF-8" standalone="yes"?>
<!DOCTYPE earthquake SYSTEM "stationlist.dtd">
<stationlist created="" xmlns="ch.ethz.sed.shakemap.usgs.xml">
  <station code="CARD" name="CARD" netid="GU" insttype="" lat="44.0261" lon="10.4821">
    <comp name="--.HHE">
      <acc value="0.0053465915" flag="0"/>
      <vel value="0.0034167322" flag="0"/>
      <psa03 value="0.0079998856" flag="0"/>
      <psa10 value="0.0057740825" flag="0"/>
      <psa30 value="0.0004653494" flag="0"/>
    </comp>
    <comp name="--.HHN">
      <acc value="0.0048496680" flag="0"/>
      <vel value="0.0030015090" flag="0"/>
      <psa03 value="0.0068620711" flag="0"/>
      <psa10 value="0.0034049265" flag="0"/>
      <psa30 value="0.0002352493" flag="0"/>
    </comp>
    <comp name="--.HHZ">
      <acc value="0.0020832720" flag="0"/>
      <vel value="0.0016401249" flag="0"/>
      <psa03 value="0.0044829773" flag="0"/>
      <psa10 value="0.0033734350" flag="0"/>
      <psa30 value="0.0003438114" flag="0"/>
    </comp>
  </station>
  <station code="EQUI" name="EQUI" netid="GU" insttype="" lat="44.166" lon="10.153">
    <comp name="--.HHE">
      <acc value="0.0010788770" flag="0"/>
      <vel value="0.0013233859" flag="0"/>
      <psa03 value="0.0031397173" flag="0"/>
      <psa10 value="0.0024392595" flag="0"/>
      <psa30 value="0.0001531757" flag="0"/>
    </comp>
    <comp name="--.HHN">
      <acc value="0.0011310494" flag="0"/>
      <vel value="0.0011407451" flag="0"/>
      <psa03 value="0.0030617151" flag="0"/>
      <psa10 value="0.0019624491" flag="0"/>
      <psa30 value="0.0002287929" flag="0"/>
    </comp>
    <comp name="--.HHZ">
      <acc value="0.0013974968" flag="0"/>
      <vel value="0.0009792929" flag="0"/>
      <psa03 value="0.0031260423" flag="0"/>
      <psa10 value="0.0024940524" flag="0"/>
      <psa30 value="0.0001903854" flag="0"/>
    </comp>
  </station>
  <station code="GRAM" name="GRAM" netid="GU" insttype="" lat="44.4904" lon="10.065">
    <comp name="--.HHN">
      <acc value="0.0086469088" flag="0"/>
      <vel value="0.0005962049" flag="0"/>
      <psa03 value="0.0026548306" flag="0"/>
      <psa10 value="0.0004216906" flag="0"/>
      <psa30 value="0.0000277046" flag="0"/>
    </comp>
    <comp name="--.HHZ">
      <acc value="0.0064984829" flag="0"/>
      <vel value="0.0013562478" flag="0"/>
      <psa03 value="0.0074525047" flag="0"/>
      <psa10 value="0.0022024773" flag="0"/>
      <psa30 value="0.0001603188" flag="0"/>
    </comp>
    <comp name="--.HHE">
      <acc value="0.0025965486" flag="0"/>
      <vel value="0.0009607699" flag="0"/>
      <psa03 value="0.0052875180" flag="0"/>
      <psa10 value="0.0001973253" flag="0"/>
      <psa30 value="0.0000222613" flag="0"/>
    </comp>
  </station>
  <station code="GSCL" name="GSCL" netid="GU" insttype="" lat="44.3506" lon="10.588">
    <comp name="--.HHE">
      <acc value="0.0029412931" flag="0"/>
      <vel value="0.0021073304" flag="0"/>
      <psa03 value="0.0088597834" flag="0"/>
      <psa10 value="0.0040650639" flag="0"/>
      <psa30 value="0.0003401932" flag="0"/>
    </comp>
    <comp name="--.HHN">
      <acc value="0.0028445180" flag="0"/>
      <vel value="0.0020807113" flag="0"/>
      <psa03 value="0.0078051414" flag="0"/>
      <psa10 value="0.0032861771" flag="0"/>
      <psa30 value="0.0003227012" flag="0"/>
    </comp>
    <comp name="--.HHZ">
      <acc value="0.0011621524" flag="0"/>
      <vel value="0.0008839579" flag="0"/>
      <psa03 value="0.0039745835" flag="0"/>
      <psa10 value="0.0018255136" flag="0"/>
      <psa30 value="0.0002052659" flag="0"/>
    </comp>
  </station>
  <station code="MAIM" name="MAIM" netid="GU" insttype="" lat="43.9142" lon="10.4915">
    <comp name="--.HHE">
      <acc value="0.0011565575" flag="0"/>
      <vel value="0.0014397774" flag="0"/>
      <psa03 value="0.0041954249" flag="0"/>
      <psa10 value="0.0020551074" flag="0"/>
      <psa30 value="0.0003268250" flag="0"/>
    </comp>
    <comp name="--.HHN">
      <acc value="0.0020598199" flag="0"/>
      <vel value="0.0017068574" flag="0"/>
      <psa03 value="0.0047699617" flag="0"/>
      <psa10 value="0.0025477340" flag="0"/>
      <psa30 value="0.0002965386" flag="0"/>
    </comp>
    <comp name="--.HHZ">
      <acc value="0.0024699368" flag="0"/>
      <vel value="0.0018960264" flag="0"/>
      <psa03 value="0.0055900734" flag="0"/>
      <psa10 value="0.0031764855" flag="0"/>
      <psa30 value="0.0002395566" flag="0"/>
    </comp>
  </station>
  <station code="POPM" name="POPM" netid="GU" insttype="" lat="44.045" lon="10.757">
    <comp name="--.HHE">
      <acc value="0.0094909433" flag="0"/>
      <vel value="0.0042484493" flag="0"/>
      <psa03 value="0.0278019589" flag="0"/>
      <psa10 value="0.0029310648" flag="0"/>
      <psa30 value="0.0003089501" flag="0"/>
    </comp>
    <comp name="--.HHN">
      <acc value="0.0106634327" flag="0"/>
      <vel value="0.0045498939" flag="0"/>
      <psa03 value="0.0209101709" flag="0"/>
      <psa10 value="0.0024511946" flag="0"/>
      <psa30 value="0.0003405876" flag="0"/>
    </comp>
    <comp name="--.HHZ">
      <acc value="0.0045516347" flag="0"/>
      <vel value="0.0018505474" flag="0"/>
      <psa03 value="0.0121931729" flag="0"/>
      <psa10 value="0.0026063309" flag="0"/>
      <psa30 value="0.0001953696" flag="0"/>
    </comp>
  </station>
  <station code="APEC" name="APEC" netid="IV" insttype="" lat="43.5585" lon="12.4199">
    <comp name="--.HHE">
      <acc value="0.0057472427" flag="0"/>
      <vel value="0.0043191234" flag="0"/>
      <psa03 value="0.0202198000" flag="0"/>
      <psa10 value="0.0066288627" flag="0"/>
      <psa30 value="0.0003348667" flag="0"/>
    </comp>
    <comp name="--.HHN">
      <acc value="0.0064954657" flag="0"/>
      <vel value="0.0054304200" flag="0"/>
      <psa03 value="0.0182609276" flag="0"/>
      <psa10 value="0.0094668649" flag="0"/>
      <psa30 value="0.0007330134" flag="0"/>
    </comp>
    <comp name="--.HHZ">
      <acc value="0.0051974953" flag="0"/>
      <vel value="0.0025726380" flag="0"/>
      <psa03 value="0.0100050923" flag="0"/>
      <psa10 value="0.0037981970" flag="0"/>
      <psa30 value="0.0002609898" flag="0"/>
    </comp>
  </station>
  <station code="ATMI" name="ATMI" netid="IV" insttype="" lat="43.3342" lon="12.268">
    <comp name="--.HHE">
      <acc value="0.0104517272" flag="0"/>
      <vel value="0.0064848480" flag="0"/>
      <psa03 value="0.0309534321" flag="0"/>
      <psa10 value="0.0047710518" flag="0"/>
      <psa30 value="0.0003680735" flag="0"/>
    </comp>
    <comp name="--.HHN">
      <acc value="0.0103479308" flag="0"/>
      <vel value="0.0069846696" flag="0"/>
      <psa03 value="0.0342524759" flag="0"/>
      <psa10 value="0.0059876076" flag="0"/>
      <psa30 value="0.0003462429" flag="0"/>
    </comp>
    <comp name="--.HHZ">
      <acc value="0.0046363524" flag="0"/>
      <vel value="0.0023894814" flag="0"/>
      <psa03 value="0.0151016149" flag="0"/>
      <psa10 value="0.0023968360" flag="0"/>
      <psa30 value="0.0002325287" flag="0"/>
    </comp>
  </station>
  <station code="ATPC" name="ATPC" netid="IV" insttype="" lat="43.4807" lon="12.457">
    <comp name="--.HHE">
      <acc value="0.0066999290" flag="0"/>
      <vel value="0.0032288465" flag="0"/>
      <psa03 value="0.0189796944" flag="0"/>
      <psa10 value="0.0031333604" flag="0"/>
      <psa30 value="0.0004994092" flag="0"/>
    </comp>
    <comp name="--.HHN">
      <acc value="0.0039593355" flag="0"/>
      <vel value="0.0033414391" flag="0"/>
      <psa03 value="0.0121881763" flag="0"/>
      <psa10 value="0.0041378709" flag="0"/>
      <psa30 value="0.0004737044" flag="0"/>
    </comp>
    <comp name="--.HHZ">
      <acc value="0.0030972232" flag="0"/>
      <vel value="0.0021511875" flag="0"/>
      <psa03 value="0.0079339954" flag="0"/>
      <psa10 value="0.0028853987" flag="0"/>
      <psa30 value="0.0004022150" flag="0"/>
    </comp>
  </station>
  <station code="ATVO" name="ATVO" netid="IV" insttype="" lat="43.3821" lon="12.4066">
    <comp name="--.HHE">
      <acc value="0.0037701222" flag="0"/>
      <vel value="0.0031243046" flag="0"/>
      <psa03 value="0.0109414862" flag="0"/>
      <psa10 value="0.0039291242" flag="0"/>
      <psa30 value="0.0003032871" flag="0"/>
    </comp>
    <comp name="--.HHZ">
      <acc value="0.0021578045" flag="0"/>
      <vel value="0.0016380438" flag="0"/>
      <psa03 value="0.0050849218" flag="0"/>
      <psa10 value="0.0026958986" flag="0"/>
      <psa30 value="0.0002422264" flag="0"/>
    </comp>
    <comp name="--.HHN">
      <acc value="0.0041494371" flag="0"/>
      <vel value="0.0035119743" flag="0"/>
      <psa03 value="0.0109127281" flag="0"/>
      <psa10 value="0.0048195992" flag="0"/>
      <psa30 value="0.0003876719" flag="0"/>
    </comp>
  </station>
  <station code="BOSL" name="BOSL" netid="IV" insttype="" lat="43.931" lon="11.3743">
    <comp name="--.HHE">
      <acc value="0.0085976225" flag="0"/>
      <vel value="0.0058293205" flag="0"/>
      <psa03 value="0.0210608138" flag="0"/>
      <psa10 value="0.0066703339" flag="0"/>
      <psa30 value="0.0004159321" flag="0"/>
    </comp>
    <comp name="--.HHN">
      <acc value="0.0114866731" flag="0"/>
      <vel value="0.0047239193" flag="0"/>
      <psa03 value="0.0223913295" flag="0"/>
      <psa10 value="0.0045644614" flag="0"/>
      <psa30 value="0.0002937375" flag="0"/>
    </comp>
    <comp name="--.HHZ">
      <acc value="0.0048218479" flag="0"/>
      <vel value="0.0018575691" flag="0"/>
      <psa03 value="0.0090868095" flag="0"/>
      <psa10 value="0.0024762466" flag="0"/>
      <psa30 value="0.0001673412" flag="0"/>
    </comp>
  </station>
  <station code="BRIS" name="BRIS" netid="IV" insttype="" lat="44.2245" lon="11.7666">
    <comp name="--.HHN">
      <acc value="0.0680932212" flag="0"/>
      <vel value="0.0267193634" flag="0"/>
      <psa03 value="0.1342291516" flag="0"/>
      <psa10 value="0.0103893459" flag="0"/>
      <psa30 value="0.0008601384" flag="0"/>
    </comp>
    <comp name="--.HHE">
      <acc value="0.0987136206" flag="0"/>
      <vel value="0.0299595417" flag="0"/>
      <psa03 value="0.0983076189" flag="0"/>
      <psa10 value="0.0169264279" flag="0"/>
      <psa30 value="0.0012517667" flag="0"/>
    </comp>
    <comp name="--.HHZ">
      <acc value="0.0789234527" flag="0"/>
      <vel value="0.0167533486" flag="0"/>
      <psa03 value="0.0954187556" flag="0"/>
      <psa10 value="0.0071601883" flag="0"/>
      <psa30 value="0.0006463178" flag="0"/>
    </comp>
  </station>
  <station code="BRSN" name="BRSN" netid="IV" insttype="" lat="44.2842" lon="12.0802">
    <comp name="--.HNE">
      <acc value="0.0032703388" flag="0"/>
      <vel value="0.0003530321" flag="0"/>
      <psa03 value="0.0008089719" flag="0"/>
      <psa10 value="0.0001668929" flag="0"/>
      <psa30 value="0.0000554526" flag="0"/>
    </comp>
    <comp name="--.HNN">
      <acc value="0.0677942952" flag="0"/>
      <vel value="0.0248666840" flag="0"/>
      <psa03 value="0.1257635471" flag="0"/>
      <psa10 value="0.0299701212" flag="0"/>
      <psa30 value="0.0021233531" flag="0"/>
    </comp>
    <comp name="--.HNZ">
      <acc value="0.0014533870" flag="0"/>
      <vel value="0.0002231581" flag="0"/>
      <psa03 value="0.0007683543" flag="0"/>
      <psa10 value="0.0001958741" flag="0"/>
      <psa30 value="0.0000514973" flag="0"/>
    </comp>
  </station>
  <station code="CAFI" name="CAFI" netid="IV" insttype="" lat="43.3292" lon="11.9663">
    <comp name="--.HHE">
      <acc value="0.0040543964" flag="0"/>
      <vel value="0.0020016854" flag="0"/>
      <psa03 value="0.0082041797" flag="0"/>
      <psa10 value="0.0019682725" flag="0"/>
      <psa30 value="0.0001645743" flag="0"/>
    </comp>
    <comp name="--.HHN">
      <acc value="0.0051904543" flag="0"/>
      <vel value="0.0023790444" flag="0"/>
      <psa03 value="0.0110678390" flag="0"/>
      <psa10 value="0.0036231873" flag="0"/>
      <psa30 value="0.0001450572" flag="0"/>
    </comp>
    <comp name="--.HHZ">
      <acc value="0.0021956931" flag="0"/>
      <vel value="0.0012815816" flag="0"/>
      <psa03 value="0.0070926716" flag="0"/>
      <psa10 value="0.0016871656" flag="0"/>
      <psa30 value="0.0002046955" flag="0"/>
    </comp>
  </station>
  <station code="CRE" name="CRE" netid="IV" insttype="" lat="43.6189" lon="11.9517">
    <comp name="--.HHE">
      <acc value="0.0075677408" flag="0"/>
      <vel value="0.0038847251" flag="0"/>
      <psa03 value="0.0279931429" flag="0"/>
      <psa10 value="0.0040397701" flag="0"/>
      <psa30 value="0.0002841123" flag="0"/>
    </comp>
    <comp name="--.HHZ">
      <acc value="0.0058756618" flag="0"/>
      <vel value="0.0024395094" flag="0"/>
      <psa03 value="0.0152616221" flag="0"/>
      <psa10 value="0.0026686508" flag="0"/>
      <psa30 value="0.0002547834" flag="0"/>
    </comp>
    <comp name="--.HHN">
      <acc value="0.0132655475" flag="0"/>
      <vel value="0.0067800391" flag="0"/>
      <psa03 value="0.0595698768" flag="0"/>
      <psa10 value="0.0054717506" flag="0"/>
      <psa30 value="0.0003965639" flag="0"/>
    </comp>
  </station>
  <station code="CSNT" name="CSNT" netid="IV" insttype="" lat="43.4731" lon="11.2902">
    <comp name="--.HHE">
      <acc value="0.0036694916" flag="0"/>
      <vel value="0.0035787792" flag="0"/>
      <psa03 value="0.0106813465" flag="0"/>
      <psa10 value="0.0056458542" flag="0"/>
      <psa30 value="0.0003889307" flag="0"/>
    </comp>
    <comp name="--.HHN">
      <acc value="0.0044051578" flag="0"/>
      <vel value="0.0033681993" flag="0"/>
      <psa03 value="0.0080186008" flag="0"/>
      <psa10 value="0.0035366020" flag="0"/>
      <psa30 value="0.0002298092" flag="0"/>
    </comp>
    <comp name="--.HHZ">
      <acc value="0.0033446408" flag="0"/>
      <vel value="0.0018581271" flag="0"/>
      <psa03 value="0.0064275336" flag="0"/>
      <psa10 value="0.0020597085" flag="0"/>
      <psa30 value="0.0002821144" flag="0"/>
    </comp>
  </station>
  <station code="FNVD" name="FNVD" netid="IV" insttype="" lat="44.1678" lon="11.1229">
    <comp name="--.HHE">
      <acc value="0.0788462208" flag="0"/>
      <vel value="0.0134175302" flag="0"/>
      <psa03 value="0.0384785195" flag="0"/>
      <psa10 value="0.0095530327" flag="0"/>
      <psa30 value="0.0007662099" flag="0"/>
    </comp>
    <comp name="--.HHN">
      <acc value="0.1230421973" flag="0"/>
      <vel value="0.0198774138" flag="0"/>
      <psa03 value="0.0966723701" flag="0"/>
      <psa10 value="0.0047628130" flag="0"/>
      <psa30 value="0.0010457960" flag="0"/>
    </comp>
    <comp name="--.HHZ">
      <acc value="0.0627465229" flag="0"/>
      <vel value="0.0100610200" flag="0"/>
      <psa03 value="0.0264789888" flag="0"/>
      <psa10 value="0.0045159004" flag="0"/>
      <psa30 value="0.0006770170" flag="0"/>
    </comp>
  </station>
  <station code="LMD" name="LMD" netid="IV" insttype="" lat="44.0775" lon="11.7073">
    <comp name="--.HHE">
      <acc value="0.0787214901" flag="0"/>
      <vel value="0.0211815491" flag="0"/>
      <psa03 value="0.0995672468" flag="0"/>
      <psa10 value="0.0084566926" flag="0"/>
      <psa30 value="0.0006382165" flag="0"/>
    </comp>
    <comp name="--.HHN">
      <acc value="0.0839861353" flag="0"/>
      <vel value="0.0292723802" flag="0"/>
      <psa03 value="0.1134348782" flag="0"/>
      <psa10 value="0.0073507270" flag="0"/>
      <psa30 value="0.0009503362" flag="0"/>
    </comp>
    <comp name="--.HHZ">
      <acc value="0.0574169993" flag="0"/>
      <vel value="0.0165086054" flag="0"/>
      <psa03 value="0.0681221567" flag="0"/>
      <psa10 value="0.0042708217" flag="0"/>
      <psa30 value="0.0003461337" flag="0"/>
    </comp>
  </station>
  <station code="MTRZ" name="MTRZ" netid="IV" insttype="" lat="44.3128" lon="11.4248">
    <comp name="--.HHE">
      <acc value="0.2221710368" flag="0"/>
      <vel value="0.0628274856" flag="0"/>
      <psa03 value="0.2914697275" flag="0"/>
      <psa10 value="0.0587353315" flag="0"/>
      <psa30 value="0.0035006133" flag="0"/>
    </comp>
    <comp name="--.HHN">
      <acc value="0.2264409781" flag="0"/>
      <vel value="0.0743892506" flag="0"/>
      <psa03 value="0.3314465133" flag="0"/>
      <psa10 value="0.0289177323" flag="0"/>
      <psa30 value="0.0044123446" flag="0"/>
    </comp>
    <comp name="--.HHZ">
      <acc value="0.2601730638" flag="0"/>
      <vel value="0.0337046585" flag="0"/>
      <psa03 value="0.2000338910" flag="0"/>
      <psa10 value="0.0126660512" flag="0"/>
      <psa30 value="0.0015602717" flag="0"/>
    </comp>
  </station>
  <station code="NARO" name="NARO" netid="IV" insttype="" lat="43.6108" lon="12.5806">
    <comp name="--.HHN">
      <acc value="0.0057587673" flag="0"/>
      <vel value="0.0021977345" flag="0"/>
      <psa03 value="0.0129163332" flag="0"/>
      <psa10 value="0.0018372798" flag="0"/>
      <psa30 value="0.0003569987" flag="0"/>
    </comp>
    <comp name="--.HHE">
      <acc value="0.0036296175" flag="0"/>
      <vel value="0.0024257251" flag="0"/>
      <psa03 value="0.0093706490" flag="0"/>
      <psa10 value="0.0022352492" flag="0"/>
      <psa30 value="0.0002184436" flag="0"/>
    </comp>
    <comp name="--.HHZ">
      <acc value="0.0034593879" flag="0"/>
      <vel value="0.0018684962" flag="0"/>
      <psa03 value="0.0113414754" flag="0"/>
      <psa10 value="0.0020446797" flag="0"/>
      <psa30 value="0.0001932988" flag="0"/>
    </comp>
  </station>
  <station code="OSSC" name="OSSC" netid="IV" insttype="" lat="43.5236" lon="11.2458">
    <comp name="--.HHE">
      <acc value="0.0079442170" flag="0"/>
      <vel value="0.0043770682" flag="0"/>
      <psa03 value="0.0107222866" flag="0"/>
      <psa10 value="0.0066390065" flag="0"/>
      <psa30 value="0.0005747617" flag="0"/>
    </comp>
    <comp name="--.HHN">
      <acc value="0.0040681252" flag="0"/>
      <vel value="0.0037975648" flag="0"/>
      <psa03 value="0.0095654244" flag="0"/>
      <psa10 value="0.0068717432" flag="0"/>
      <psa30 value="0.0005193188" flag="0"/>
    </comp>
    <comp name="--.HHZ">
      <acc value="0.0032591773" flag="0"/>
      <vel value="0.0021108914" flag="0"/>
      <psa03 value="0.0067693908" flag="0"/>
      <psa10 value="0.0024602723" flag="0"/>
      <psa30 value="0.0003045223" flag="0"/>
    </comp>
  </station>
  <station code="PARC" name="PARC" netid="IV" insttype="" lat="43.6486" lon="12.2386">
    <comp name="--.HHE">
      <acc value="0.0054753882" flag="0"/>
      <vel value="0.0035200206" flag="0"/>
      <psa03 value="0.0151954947" flag="0"/>
      <psa10 value="0.0033611444" flag="0"/>
      <psa30 value="0.0002000714" flag="0"/>
    </comp>
    <comp name="--.HHN">
      <acc value="0.0048739986" flag="0"/>
      <vel value="0.0033202671" flag="0"/>
      <psa03 value="0.0122740666" flag="0"/>
      <psa10 value="0.0040009093" flag="0"/>
      <psa30 value="0.0002362847" flag="0"/>
    </comp>
    <comp name="--.HHZ">
      <acc value="0.0038059871" flag="0"/>
      <vel value="0.0022011387" flag="0"/>
      <psa03 value="0.0135216284" flag="0"/>
      <psa10 value="0.0034286974" flag="0"/>
      <psa30 value="0.0001700193" flag="0"/>
    </comp>
  </station>
  <station code="PESA" name="PESA" netid="IV" insttype="" lat="43.941" lon="12.8402">
    <comp name="--.HHE">
      <acc value="0.0159208920" flag="0"/>
      <vel value="0.0053932485" flag="0"/>
      <psa03 value="0.0323506050" flag="0"/>
      <psa10 value="0.0039110345" flag="0"/>
      <psa30 value="0.0003436280" flag="0"/>
    </comp>
    <comp name="--.HHN">
      <acc value="0.0147946577" flag="0"/>
      <vel value="0.0043888240" flag="0"/>
      <psa03 value="0.0275458195" flag="0"/>
      <psa10 value="0.0034501664" flag="0"/>
      <psa30 value="0.0005663853" flag="0"/>
    </comp>
