<stationlist created="1778138819">
	<station code="FIVI" name="FIVI" netid="GU" source="Regional Seismic Network of North Western Italy (RSNI)" insttype="" lat="44.2394" lon="10.1271">
		<comp name="--.HNE" depth="0.0">
			<acc value="0.00382512116195332" flag="0"/>
			<vel value="0.00223178948686225" flag="0"/>
			<psa03 value="0.0126267687531233" flag="0"/>
			<psa10 value="0.00345762522257811" flag="0"/>
			<psa30 value="0.000282322973344807" flag="0"/>
		</comp>
		<comp name="--.HNN" depth="0.0">
			<acc value="0.00494404127093757" flag="0"/>
			<vel value="0.0035554283537163" flag="0"/>
			<psa03 value="0.00928146250759066" flag="0"/>
			<psa10 value="0.00446876509625379" flag="0"/>
			<psa30 value="0.000271154629329931" flag="0"/>
		</comp>
		<comp name="--.HNZ" depth="0.0">
			<acc value="0.00292581213038901" flag="0"/>
			<vel value="0.00156984639957958" flag="0"/>
			<psa03 value="0.00363782074037263" flag="0"/>
			<psa10 value="0.00210675831239931" flag="0"/>
			<psa30 value="0.000319411732376349" flag="0"/>
		</comp>
	</station>
	<station code="APEC" name="APEC" netid="IV" source="Italian National Seismic Network (INSN)" insttype="" lat="43.55846" lon="12.41991">
		<comp name="--.HNE" depth="0.0">
			<acc value="0.00714739754507828" flag="0"/>
			<vel value="0.00642998483201727" flag="0"/>
			<psa03 value="0.0269693282522956" flag="0"/>
			<psa10 value="0.0100823244669994" flag="0"/>
			<psa30 value="0.00104547300745564" flag="0"/>
		</comp>
		<comp name="--.HNN" depth="0.0">
			<acc value="0.00650405361818184" flag="0"/>
			<vel value="0.00489371031375598" flag="0"/>
			<psa03 value="0.0159127234106718" flag="0"/>
			<psa10 value="0.00564505489470063" flag="0"/>
			<psa30 value="0.000907297187320135" flag="0"/>
		</comp>
		<comp name="--.HNZ" depth="0.0">
			<acc value="0.00541915360521904" flag="0"/>
			<vel value="0.00308523942238069" flag="0"/>
			<psa03 value="0.00927068184552376" flag="0"/>
			<psa10 value="0.00507539028219721" flag="0"/>
			<psa30 value="0.00135616411005102" flag="0"/>
		</comp>
	</station>
	<station code="ARCI" name="ARCI" netid="IV" source="Italian National Seismic Network (INSN)" insttype="" lat="42.8519" lon="11.4754">
		<comp name="--.HNE" depth="0.0">
			<acc value="0.000524675807872166" flag="0"/>
			<vel value="0.000489669890100396" flag="0"/>
			<psa03 value="0.00119904679750288" flag="0"/>
			<psa10 value="0.000985983089980165" flag="0"/>
			<psa30 value="0.000145654674948888" flag="0"/>
		</comp>
		<comp name="--.HNN" depth="0.0">
			<acc value="0.000627027206870826" flag="0"/>
			<vel value="0.000730444356324412" flag="0"/>
			<psa03 value="0.00214485220962821" flag="0"/>
			<psa10 value="0.00159569531635809" flag="0"/>
			<psa30 value="0.000261879457603973" flag="0"/>
		</comp>
		<comp name="--.HNZ" depth="0.0">
			<acc value="0.000554545338775065" flag="0"/>
			<vel value="0.000188602714781999" flag="0"/>
			<psa03 value="0.000925826875107315" flag="0"/>
			<psa10 value="0.000356019346253209" flag="0"/>
			<psa30 value="8.58281140768496e-05" flag="0"/>
		</comp>
	</station>
	<station code="ASOL" name="ASOL" netid="IV" source="Italian National Seismic Network (INSN)" insttype="" lat="45.8003" lon="11.9023">
		<comp name="--.HNE" depth="0.0">
			<acc value="0.0136318727780846" flag="0"/>
			<vel value="0.00657835100687439" flag="0"/>
			<psa03 value="0.0335165275971337" flag="0"/>
			<psa10 value="0.00773997695422329" flag="0"/>
			<psa30 value="0.000802046517060391" flag="0"/>
		</comp>
		<comp name="--.HNN" depth="0.0">
			<acc value="0.0117809340607575" flag="0"/>
			<vel value="0.00608237912091103" flag="0"/>
			<psa03 value="0.021506958584621" flag="0"/>
			<psa10 value="0.00655618478382348" flag="0"/>
			<psa30 value="0.00045982572161608" flag="0"/>
		</comp>
		<comp name="--.HNZ" depth="0.0">
			<acc value="0.0103858540056751" flag="0"/>
			<vel value="0.00400973059068327" flag="0"/>
			<psa03 value="0.0153179079653863" flag="0"/>
			<psa10 value="0.00388370946419189" flag="0"/>
			<psa30 value="0.00054118980950127" flag="0"/>
		</comp>
	</station>
	<station code="ATBU" name="ATBU" netid="IV" source="Italian National Seismic Network (INSN)" insttype="" lat="43.47571" lon="12.54828">
		<comp name="--.HNE" depth="1.0">
			<acc value="0.00878543450283569" flag="0"/>
			<vel value="0.00699191553652865" flag="0"/>
			<psa03 value="0.033313370909828" flag="0"/>
			<psa10 value="0.00659425121179431" flag="0"/>
			<psa30 value="0.000443653191930097" flag="0"/>
		</comp>
		<comp name="--.HNN" depth="1.0">
			<acc value="0.00661651095680923" flag="0"/>
			<vel value="0.005889878859903" flag="0"/>
			<psa03 value="0.0294783303989008" flag="0"/>
			<psa10 value="0.00697993613652817" flag="0"/>
			<psa30 value="0.0009818481676208" flag="0"/>
		</comp>
		<comp name="--.HNZ" depth="1.0">
			<acc value="0.00277849623569398" flag="0"/>
			<vel value="0.00241843012390411" flag="0"/>
			<psa03 value="0.00861347815274032" flag="0"/>
			<psa10 value="0.00300863422912708" flag="0"/>
			<psa30 value="0.000378846190450942" flag="0"/>
		</comp>
	</station>
	<station code="ATCC" name="ATCC" netid="IV" source="Italian National Seismic Network (INSN)" insttype="" lat="43.18514" lon="12.63994">
		<comp name="--.HNE" depth="1.0">
			<acc value="0.00425562444281799" flag="0"/>
			<vel value="0.00300121240313397" flag="0"/>
			<psa03 value="0.012124670387426" flag="0"/>
			<psa10 value="0.00368938260661432" flag="0"/>
			<psa30 value="0.00052363359440441" flag="0"/>
		</comp>
		<comp name="--.HNN" depth="1.0">
			<acc value="0.00454891303362428" flag="0"/>
			<vel value="0.0023662569989231" flag="0"/>
			<psa03 value="0.0132743181605246" flag="0"/>
			<psa10 value="0.00329597592035219" flag="0"/>
			<psa30 value="0.000379908526450345" flag="0"/>
		</comp>
		<comp name="--.HNZ" depth="1.0">
			<acc value="0.00237261776934162" flag="0"/>
			<vel value="0.00171496165026803" flag="0"/>
			<psa03 value="0.00780387829674743" flag="0"/>
			<psa10 value="0.00284640574791289" flag="0"/>
			<psa30 value="0.000246144248556766" flag="0"/>
		</comp>
	</station>
	<station code="ATFO" name="ATFO" netid="IV" source="Italian National Seismic Network (INSN)" insttype="" lat="43.3666" lon="12.5715">
		<comp name="--.HNE" depth="1.0">
			<acc value="0.00377242018275752" flag="0"/>
			<vel value="0.0032206003392071" flag="0"/>
			<psa03 value="0.012132219064565" flag="0"/>
			<psa10 value="0.00367779058870057" flag="0"/>
			<psa30 value="0.000407760788192717" flag="0"/>
		</comp>
		<comp name="--.HNN" depth="1.0">
			<acc value="0.00371738444380656" flag="0"/>
			<vel value="0.00203967691307656" flag="0"/>
			<psa03 value="0.00866028659208842" flag="0"/>
			<psa10 value="0.00268832269755947" flag="0"/>
			<psa30 value="0.000307122246383284" flag="0"/>
		</comp>
		<comp name="--.HNZ" depth="1.0">
			<acc value="0.00206892471607135" flag="0"/>
			<vel value="0.0012430112002385" flag="0"/>
			<psa03 value="0.00509753430121512" flag="0"/>
			<psa10 value="0.00169374942915043" flag="0"/>
			<psa30 value="0.000151383804475876" flag="0"/>
		</comp>
	</station>
	<station code="ATLO" name="ATLO" netid="IV" source="Italian National Seismic Network (INSN)" insttype="" lat="43.31516" lon="12.40726">
		<comp name="--.HNE" depth="1.0">
			<acc value="0.00363029025350604" flag="0"/>
			<vel value="0.00166688635375374" flag="0"/>
			<psa03 value="0.0096920802037748" flag="0"/>
			<psa10 value="0.00286476790181563" flag="0"/>
			<psa30 value="0.000224603368454374" flag="0"/>
		</comp>
		<comp name="--.HNN" depth="1.0">
			<acc value="0.00261370023048293" flag="0"/>
			<vel value="0.00178310534887356" flag="0"/>
			<psa03 value="0.00742274888215976" flag="0"/>
			<psa10 value="0.00319632150623881" flag="0"/>
			<psa30 value="0.000353273168238597" flag="0"/>
		</comp>
		<comp name="--.HNZ" depth="1.0">
			<acc value="0.000420911109888807" flag="0"/>
			<vel value="0.000366716505849665" flag="0"/>
			<psa03 value="0.000999109561754665" flag="0"/>
			<psa10 value="0.000415354136265882" flag="0"/>
			<psa30 value="5.64386476374046e-05" flag="0"/>
		</comp>
	</station>
	<station code="ATPC" name="ATPC" netid="IV" source="Italian National Seismic Network (INSN)" insttype="" lat="43.4807" lon="12.457">
		<comp name="--.HNE" depth="1.0">
			<acc value="0.00634863930136226" flag="0"/>
			<vel value="0.00308460314939828" flag="0"/>
			<psa03 value="0.0185311716095767" flag="0"/>
			<psa10 value="0.00309188482219697" flag="0"/>
			<psa30 value="0.000532250988181564" flag="0"/>
		</comp>
		<comp name="--.HNN" depth="1.0">
			<acc value="0.00386299824888322" flag="0"/>
			<vel value="0.0033102569614161" flag="0"/>
			<psa03 value="0.0118567281583909" flag="0"/>
			<psa10 value="0.00407041417621169" flag="0"/>
			<psa30 value="0.000503043011632653" flag="0"/>
		</comp>
		<comp name="--.HNZ" depth="1.0">
			<acc value="0.00297442326137225" flag="0"/>
			<vel value="0.00213940945965647" flag="0"/>
			<psa03 value="0.00754309344293502" flag="0"/>
			<psa10 value="0.00274983849142996" flag="0"/>
			<psa30 value="0.000408002314609184" flag="0"/>
		</comp>
	</station>
	<station code="ATPI" name="ATPI" netid="IV" source="Italian National Seismic Network (INSN)" insttype="" lat="43.45068" lon="12.40222">
		<comp name="--.HNE" depth="1.0">
			<acc value="0.00281322406956996" flag="0"/>
			<vel value="0.0027607776914082" flag="0"/>
			<psa03 value="0.00676379897993252" flag="0"/>
			<psa10 value="0.00426463063585614" flag="0"/>
			<psa30 value="0.000376345972740463" flag="0"/>
		</comp>
		<comp name="--.HNN" depth="1.0">
			<acc value="0.00402935530007415" flag="0"/>
			<vel value="0.00247031047710152" flag="0"/>
			<psa03 value="0.0118409041934512" flag="0"/>
			<psa10 value="0.00284962322667862" flag="0"/>
			<psa30 value="0.000421074769136872" flag="0"/>
		</comp>
		<comp name="--.HNZ" depth="1.0">
			<acc value="0.00188941690848686" flag="0"/>
			<vel value="0.0013587448000243" flag="0"/>
			<psa03 value="0.0066696449562362" flag="0"/>
			<psa10 value="0.0020508186691709" flag="0"/>
			<psa30 value="0.00017740814564803" flag="0"/>
		</comp>
	</station>
	<station code="ATVO" name="ATVO" netid="IV" source="Italian National Seismic Network (INSN)" insttype="" lat="43.38211" lon="12.40663">
		<comp name="--.HNE" depth="1.0">
			<acc value="0.00364145386234921" flag="0"/>
			<vel value="0.0029111977119997" flag="0"/>
			<psa03 value="0.0105072904574473" flag="0"/>
			<psa10 value="0.00386763894647481" flag="0"/>
			<psa30 value="0.000328067800589843" flag="0"/>
		</comp>
		<comp name="--.HNN" depth="1.0">
			<acc value="0.00407468602747083" flag="0"/>
			<vel value="0.00353703573666868" flag="0"/>
			<psa03 value="0.0106137545414511" flag="0"/>
			<psa10 value="0.00462134207874238" flag="0"/>
			<psa30 value="0.000394260414692707" flag="0"/>
		</comp>
		<comp name="--.HNZ" depth="1.0">
			<acc value="0.00211225560912871" flag="0"/>
			<vel value="0.00157023134448766" flag="0"/>
			<psa03 value="0.00482205934662194" flag="0"/>
			<psa10 value="0.00252612164003565" flag="0"/>
			<psa30 value="0.0002470512878102" flag="0"/>
		</comp>
	</station>
	<station code="BAG8" name="BAG8" netid="IV" source="Italian National Seismic Network (INSN)" insttype="" lat="45.8228" lon="10.4664">
		<comp name="--.HNE" depth="0.0">
			<acc value="0.00251317452138532" flag="0"/>
			<vel value="0.00112444466579305" flag="0"/>
			<psa03 value="0.00339525128592055" flag="0"/>
			<psa10 value="0.000767045813019628" flag="0"/>
			<psa30 value="0.000103511466501439" flag="0"/>
		</comp>
		<comp name="--.HNN" depth="0.0">
			<acc value="0.0024878707079029" flag="0"/>
			<vel value="0.00102689498821434" flag="0"/>
			<psa03 value="0.00387548361979091" flag="0"/>
			<psa10 value="0.000880993713072857" flag="0"/>
			<psa30 value="7.84622420093477e-05" flag="0"/>
		</comp>
		<comp name="--.HNZ" depth="0.0">
			<acc value="0.00139564072534165" flag="0"/>
			<vel value="0.00058233578199389" flag="0"/>
			<psa03 value="0.00210215309196091" flag="0"/>
			<psa10 value="0.00049322493935815" flag="0"/>
			<psa30 value="8.27361188827756e-05" flag="0"/>
		</comp>
	</station>
	<station code="BRIS" name="BRIS" netid="IV" source="Italian National Seismic Network (INSN)" insttype="" lat="44.22454" lon="11.76657">
		<comp name="--.HNE" depth="0.0">
			<acc value="0.221791330628576" flag="0"/>
			<vel value="0.0744339843895087" flag="0"/>
			<psa03 value="0.210628494770957" flag="0"/>
			<psa10 value="0.0384677232978814" flag="0"/>
			<psa30 value="0.0029992380598039" flag="0"/>
		</comp>
		<comp name="--.HNN" depth="0.0">
			<acc value="0.15499016664878" flag="0"/>
			<vel value="0.0677027875899079" flag="0"/>
			<psa03 value="0.307082967739685" flag="0"/>
			<psa10 value="0.0277526878543765" flag="0"/>
			<psa30 value="0.0020597326971807" flag="0"/>
		</comp>
		<comp name="--.HNZ" depth="0.0">
			<acc value="0.160166514413065" flag="0"/>
			<vel value="0.0388315731381486" flag="0"/>
			<psa03 value="0.230953070340649" flag="0"/>
			<psa10 value="0.0178468378904346" flag="0"/>
			<psa30 value="0.00164602310345235" flag="0"/>
		</comp>
	</station>
	<station code="BRSN" name="BRSN" netid="IV" source="Italian National Seismic Network (INSN)" insttype="" lat="44.28418" lon="12.08023">
		<comp name="--.HNE" depth="0.0">
			<acc value="0.079719326921864" flag="0"/>
			<vel value="0.0249671334184614" flag="0"/>
			<psa03 value="0.168716593313052" flag="0"/>
			<psa10 value="0.0202967814371631" flag="0"/>
			<psa30 value="0.00186891193124509" flag="0"/>
		</comp>
		<comp name="--.HNN" depth="0.0">
			<acc value="0.0671855242655519" flag="0"/>
			<vel value="0.024785120483155" flag="0"/>
			<psa03 value="0.125939269941928" flag="0"/>
			<psa10 value="0.029993658182671" flag="0"/>
			<psa30 value="0.00231629094290617" flag="0"/>
		</comp>
		<comp name="--.HNZ" depth="0.0">
			<acc value="0.0214300266961289" flag="0"/>
			<vel value="0.00684427473324905" flag="0"/>
			<psa03 value="0.0351212927591341" flag="0"/>
			<psa10 value="0.0071591576965812" flag="0"/>
			<psa30 value="0.00182006932065839" flag="0"/>
		</comp>
	</station>
	<station code="CADC" name="CADC" netid="IV" source="Italian National Seismic Network (INSN)" insttype="" lat="45.455464" lon="10.128662">
		<comp name="--.HNE" depth="0.0">
			<acc value="0.00464139149583689" flag="0"/>
			<vel value="0.00171955041242314" flag="0"/>
			<psa03 value="0.00459658965774449" flag="0"/>
			<psa10 value="0.00280096422200964" flag="0"/>
			<psa30 value="0.000474776243260602" flag="0"/>
		</comp>
		<comp name="--.HNN" depth="0.0">
			<acc value="0.00431960012716876" flag="0"/>
			<vel value="0.00148688138761721" flag="0"/>
			<psa03 value="0.0037430497164876" flag="0"/>
			<psa10 value="0.0030737240097542" flag="0"/>
			<psa30 value="0.000366048728098208" flag="0"/>
		</comp>
		<comp name="--.HNZ" depth="0.0">
			<acc value="0.0254848383139377" flag="0"/>
			<vel value="0.00215225645576041" flag="0"/>
			<psa03 value="0.00169664299323175" flag="0"/>
			<psa10 value="0.00135073401074881" flag="0"/>
			<psa30 value="0.000221219706803182" flag="0"/>
		</comp>
	</station>
	<station code="CAFI" name="CAFI" netid="IV" source="Italian National Seismic Network (INSN)" insttype="" lat="43.3292" lon="11.9663">
		<comp name="--.HNE" depth="0.0">
			<acc value="0.00381787385757552" flag="0"/>
			<vel value="0.00192832404608373" flag="0"/>
			<psa03 value="0.0078978545743323" flag="0"/>
			<psa10 value="0.00191017169574825" flag="0"/>
			<psa30 value="0.000175527721599894" flag="0"/>
		</comp>
		<comp name="--.HNN" depth="0.0">
			<acc value="0.00490332817281063" flag="0"/>
			<vel value="0.00223998292189652" flag="0"/>
			<psa03 value="0.0108075499314956" flag="0"/>
			<psa10 value="0.00351097508486896" flag="0"/>
			<psa30 value="0.000132125432348997" flag="0"/>
		</comp>
		<comp name="--.HNZ" depth="0.0">
			<acc value="0.002181748607315" flag="0"/>
			<vel value="0.00276238946684341" flag="0"/>
			<psa03 value="0.00695820443649659" flag="0"/>
			<psa10 value="0.00203209274117289" flag="0"/>
			<psa30 value="0.00119053199190087" flag="0"/>
		</comp>
	</station>
	<station code="CASP" name="CASP" netid="IV" source="Italian National Seismic Network (INSN)" insttype="" lat="42.7908" lon="10.8652">
		<comp name="--.HNE" depth="0.0">
			<acc value="0.00104804971853512" flag="0"/>
			<vel value="0.000562752159678428" flag="0"/>
			<psa03 value="0.00411784733144741" flag="0"/>
			<psa10 value="0.000395374424037264" flag="0"/>
			<psa30 value="0.000258983145945806" flag="0"/>
		</comp>
		<comp name="--.HNN" depth="0.0">
			<acc value="0.00168872524440499" flag="0"/>
			<vel value="0.000533024709709535" flag="0"/>
			<psa03 value="0.00274692741316846" flag="0"/>
			<psa10 value="0.000431086897234753" flag="0"/>
			<psa30 value="0.000108405963915246" flag="0"/>
		</comp>
		<comp name="--.HNZ" depth="0.0">
			<acc value="0.000813655570327224" flag="0"/>
			<vel value="0.000324339494336603" flag="0"/>
			<psa03 value="0.00104454136370843" flag="0"/>
			<psa10 value="0.000292681019540657" flag="0"/>
			<psa30 value="8.45149151047273e-05" flag="0"/>
		</comp>
	</station>
	<station code="CDCA" name="CDCA" netid="IV" source="Italian National Seismic Network (INSN)" insttype="" lat="43.4584" lon="12.2336">
		<comp name="--.HNE" depth="0.0">
			<acc value="0.0556351599084359" flag="0"/>
			<vel value="0.00624634708473371" flag="0"/>
			<psa03 value="0.0290268968478138" flag="0"/>
			<psa10 value="0.0100909716023441" flag="0"/>
			<psa30 value="0.000507253863496491" flag="0"/>
		</comp>
		<comp name="--.HNN" depth="0.0">
			<acc value="0.103091150041206" flag="0"/>
			<vel value="0.00811269439680421" flag="0"/>
			<psa03 value="0.0460554311547487" flag="0"/>
			<psa10 value="0.0132980059276334" flag="0"/>
			<psa30 value="0.000909934445356749" flag="0"/>
		</comp>
		<comp name="--.HNZ" depth="0.0">
			<acc value="0.0406805163357989" flag="0"/>
			<vel value="0.0054534271107917" flag="0"/>
			<psa03 value="0.0320784140999948" flag="0"/>
			<psa10 value="0.00895860565115855" flag="0"/>
			<psa30 value="0.000437525285986087" flag="0"/>
		</comp>
	</station>
	<station code="CESI" name="CESI" netid="IV" source="Italian National Seismic Network (INSN)" insttype="" lat="43.0049" lon="12.9046">
		<comp name="--.HNE" depth="0.0">
			<acc value="0.00139160037041408" flag="0"/>
			<vel value="0.000944105626045088" flag="0"/>
			<psa03 value="0.0043851391267566" flag="0"/>
			<psa10 value="0.00155457560019201" flag="0"/>
			<psa30 value="0.000265513891075483" flag="0"/>
		</comp>
		<comp name="--.HNN" depth="0.0">
			<acc value="0.00174924499169173" flag="0"/>
			<vel value="0.00115943249478097" flag="0"/>
			<psa03 value="0.00420249323830016" flag="0"/>
			<psa10 value="0.00146222444331877" flag="0"/>
			<psa30 value="0.000252618505569616" flag="0"/>
		</comp>
		<comp name="--.HNZ" depth="0.0">
			<acc value="0.00136853494733928" flag="0"/>
			<vel value="0.000939657584362477" flag="0"/>
			<psa03 value="0.002376716527838" flag="0"/>
			<psa10 value="0.000837258257220125" flag="0"/>
			<psa30 value="0.000160857518000099" flag="0"/>
		</comp>
	</station>
	<station code="CNCS" name="CNCS" netid="IV" source="Italian National Seismic Network (INSN)" insttype="" lat="45.606" lon="10.217">
		<comp name="--.HNE" depth="0.0">
			<acc value="0.00559852753544253" flag="0"/>
			<vel value="0.00136195212793034" flag="0"/>
			<psa03 value="0.00716080835276544" flag="0"/>
			<psa10 value="0.00109022569866642" flag="0"/>
			<psa30 value="9.926316423931e-05" flag="0"/>
		</comp>
		<comp name="--.HNN" depth="0.0">
			<acc value="0.00520898965361171" flag="0"/>
			<vel value="0.00148454221535924" flag="0"/>
			<psa03 value="0.00706808215802649" flag="0"/>
			<psa10 value="0.000973917310211746" flag="0"/>
			<psa30 value="0.00021242054317277" flag="0"/>
		</comp>
		<comp name="--.HNZ" depth="0.0">
			<acc value="0.00653412222604763" flag="0"/>
			<vel value="0.00061956123528129" flag="0"/>
