<?xml version="1.0" encoding="UTF-8" standalone="yes"?>
<!DOCTYPE earthquake SYSTEM "stationlist.dtd">
<stationlist created="" xmlns="ch.ethz.sed.shakemap.usgs.xml">
  <station code="GRAM" name="GRAM" netid="GU" insttype="" lat="44.4904" lon="10.065">
    <comp name="--.HHN">
      <acc value="0.0024095378" flag="0"/>
      <vel value="0.0005962043" flag="0"/>
      <psa03 value="0.0026548306" flag="0"/>
      <psa10 value="0.0004216925" flag="0"/>
      <psa30 value="0.0000281456" flag="0"/>
    </comp>
    <comp name="--.HHZ">
      <acc value="0.0064984792" flag="0"/>
      <vel value="0.0013562474" flag="0"/>
      <psa03 value="0.0074525047" flag="0"/>
      <psa10 value="0.0022024773" flag="0"/>
      <psa30 value="0.0001603130" flag="0"/>
    </comp>
    <comp name="--.HHE">
      <acc value="0.0042003308" flag="0"/>
      <vel value="0.0009607698" flag="0"/>
      <psa03 value="0.0052875180" flag="0"/>
      <psa10 value="0.0001973238" flag="0"/>
      <psa30 value="0.0000223680" flag="0"/>
    </comp>
  </station>
  <station code="GSCL" name="GSCL" netid="GU" insttype="" lat="44.3506" lon="10.588">
    <comp name="--.HHE">
      <acc value="0.0029412933" flag="0"/>
      <vel value="0.0021073306" flag="0"/>
      <psa03 value="0.0088597834" flag="0"/>
      <psa10 value="0.0040650639" flag="0"/>
      <psa30 value="0.0003401974" flag="0"/>
    </comp>
    <comp name="--.HHN">
      <acc value="0.0028445177" flag="0"/>
      <vel value="0.0020807112" flag="0"/>
      <psa03 value="0.0078051414" flag="0"/>
      <psa10 value="0.0032861771" flag="0"/>
      <psa30 value="0.0003226684" flag="0"/>
    </comp>
    <comp name="--.HHZ">
      <acc value="0.0011621523" flag="0"/>
      <vel value="0.0008839578" flag="0"/>
      <psa03 value="0.0039745835" flag="0"/>
      <psa10 value="0.0018255136" flag="0"/>
      <psa30 value="0.0002052340" flag="0"/>
    </comp>
  </station>
  <station code="APEC" name="APEC" netid="IV" insttype="" lat="43.5585" lon="12.4199">
    <comp name="--.HHE">
      <acc value="0.0057472429" flag="0"/>
      <vel value="0.0043191203" flag="0"/>
      <psa03 value="0.0202198000" flag="0"/>
      <psa10 value="0.0066288627" flag="0"/>
      <psa30 value="0.0003348571" flag="0"/>
    </comp>
    <comp name="--.HHN">
      <acc value="0.0064954658" flag="0"/>
      <vel value="0.0054304183" flag="0"/>
      <psa03 value="0.0182609276" flag="0"/>
      <psa10 value="0.0094668649" flag="0"/>
      <psa30 value="0.0007330570" flag="0"/>
    </comp>
    <comp name="--.HHZ">
      <acc value="0.0051974954" flag="0"/>
      <vel value="0.0025726380" flag="0"/>
      <psa03 value="0.0100050923" flag="0"/>
      <psa10 value="0.0037981970" flag="0"/>
      <psa30 value="0.0002609929" flag="0"/>
    </comp>
  </station>
  <station code="BOSL" name="BOSL" netid="IV" insttype="" lat="43.931" lon="11.3743">
    <comp name="--.HHE">
      <acc value="0.0085976247" flag="0"/>
      <vel value="0.0058293204" flag="0"/>
      <psa03 value="0.0210608138" flag="0"/>
      <psa10 value="0.0066703351" flag="0"/>
      <psa30 value="0.0004159567" flag="0"/>
    </comp>
    <comp name="--.HHN">
      <acc value="0.0114866619" flag="0"/>
      <vel value="0.0047239194" flag="0"/>
      <psa03 value="0.0223913295" flag="0"/>
      <psa10 value="0.0045644611" flag="0"/>
      <psa30 value="0.0002936807" flag="0"/>
    </comp>
    <comp name="--.HHZ">
      <acc value="0.0048218520" flag="0"/>
      <vel value="0.0018575699" flag="0"/>
      <psa03 value="0.0090868095" flag="0"/>
      <psa10 value="0.0024762466" flag="0"/>
      <psa30 value="0.0001674502" flag="0"/>
    </comp>
  </station>
  <station code="BRIS" name="BRIS" netid="IV" insttype="" lat="44.2245" lon="11.7666">
    <comp name="--.HHE">
      <acc value="0.0987136205" flag="0"/>
      <vel value="0.0299595427" flag="0"/>
      <psa03 value="0.0983076189" flag="0"/>
      <psa10 value="0.0169264282" flag="0"/>
      <psa30 value="0.0012518023" flag="0"/>
    </comp>
    <comp name="--.HHN">
      <acc value="0.0680932216" flag="0"/>
      <vel value="0.0267193632" flag="0"/>
      <psa03 value="0.1342291516" flag="0"/>
      <psa10 value="0.0103893463" flag="0"/>
      <psa30 value="0.0008601533" flag="0"/>
    </comp>
    <comp name="--.HHZ">
      <acc value="0.0789234521" flag="0"/>
      <vel value="0.0167533496" flag="0"/>
      <psa03 value="0.0954187556" flag="0"/>
      <psa10 value="0.0071601883" flag="0"/>
      <psa30 value="0.0006462555" flag="0"/>
    </comp>
  </station>
  <station code="BRSN" name="BRSN" netid="IV" insttype="" lat="44.2842" lon="12.0802">
    <comp name="--.HNN">
      <acc value="0.0677942959" flag="0"/>
      <vel value="0.0248666818" flag="0"/>
      <psa03 value="0.1257635471" flag="0"/>
      <psa10 value="0.0299701202" flag="0"/>
      <psa30 value="0.0021234094" flag="0"/>
    </comp>
    <comp name="--.HNE">
      <acc value="0.0032703419" flag="0"/>
      <vel value="0.0003530356" flag="0"/>
      <psa03 value="0.0009449044" flag="0"/>
      <psa10 value="0.0001691946" flag="0"/>
      <psa30 value="0.0000537962" flag="0"/>
    </comp>
    <comp name="--.HNZ">
      <acc value="0.0014533839" flag="0"/>
      <vel value="0.0002231600" flag="0"/>
      <psa03 value="0.0009584428" flag="0"/>
      <psa10 value="0.0002024527" flag="0"/>
      <psa30 value="0.0000485541" flag="0"/>
    </comp>
  </station>
  <station code="CRE" name="CRE" netid="IV" insttype="" lat="43.6189" lon="11.9517">
    <comp name="--.HHE">
      <acc value="0.0075677408" flag="0"/>
      <vel value="0.0038847248" flag="0"/>
      <psa03 value="0.0279931429" flag="0"/>
      <psa10 value="0.0040397701" flag="0"/>
      <psa30 value="0.0002840727" flag="0"/>
    </comp>
    <comp name="--.HHN">
      <acc value="0.0132655476" flag="0"/>
      <vel value="0.0067800393" flag="0"/>
      <psa03 value="0.0595698768" flag="0"/>
      <psa10 value="0.0054717506" flag="0"/>
      <psa30 value="0.0003964898" flag="0"/>
    </comp>
    <comp name="--.HHZ">
      <acc value="0.0058756615" flag="0"/>
      <vel value="0.0024395094" flag="0"/>
      <psa03 value="0.0152616221" flag="0"/>
      <psa10 value="0.0026686508" flag="0"/>
      <psa30 value="0.0002547772" flag="0"/>
    </comp>
  </station>
  <station code="LMD" name="LMD" netid="IV" insttype="" lat="44.0775" lon="11.7073">
    <comp name="--.HHE">
      <acc value="0.0787214901" flag="0"/>
      <vel value="0.0211815489" flag="0"/>
      <psa03 value="0.0995672468" flag="0"/>
      <psa10 value="0.0084566926" flag="0"/>
      <psa30 value="0.0006382787" flag="0"/>
    </comp>
    <comp name="--.HHN">
      <acc value="0.0839861354" flag="0"/>
      <vel value="0.0292723801" flag="0"/>
      <psa03 value="0.1134348782" flag="0"/>
      <psa10 value="0.0073507274" flag="0"/>
      <psa30 value="0.0009504490" flag="0"/>
    </comp>
    <comp name="--.HHZ">
      <acc value="0.0574169994" flag="0"/>
      <vel value="0.0165086057" flag="0"/>
      <psa03 value="0.0681221567" flag="0"/>
      <psa10 value="0.0042708221" flag="0"/>
      <psa30 value="0.0003458809" flag="0"/>
    </comp>
  </station>
  <station code="MTRZ" name="MTRZ" netid="IV" insttype="" lat="44.3128" lon="11.4248">
    <comp name="--.HHE">
      <acc value="0.2221710371" flag="0"/>
      <vel value="0.0628274865" flag="0"/>
      <psa03 value="0.2914697275" flag="0"/>
      <psa10 value="0.0587353350" flag="0"/>
      <psa30 value="0.0035006630" flag="0"/>
    </comp>
    <comp name="--.HHN">
      <acc value="0.2264409779" flag="0"/>
      <vel value="0.0743892497" flag="0"/>
      <psa03 value="0.3314465133" flag="0"/>
      <psa10 value="0.0289177313" flag="0"/>
      <psa30 value="0.0044126962" flag="0"/>
    </comp>
    <comp name="--.HHZ">
      <acc value="0.2601730643" flag="0"/>
      <vel value="0.0337046596" flag="0"/>
      <psa03 value="0.2000338910" flag="0"/>
      <psa10 value="0.0126660581" flag="0"/>
      <psa30 value="0.0015600643" flag="0"/>
    </comp>
  </station>
  <station code="NARO" name="NARO" netid="IV" insttype="" lat="43.6108" lon="12.5806">
    <comp name="--.HHN">
      <acc value="0.0057587674" flag="0"/>
      <vel value="0.0021977311" flag="0"/>
      <psa03 value="0.0129163332" flag="0"/>
      <psa10 value="0.0018372798" flag="0"/>
      <psa30 value="0.0003570245" flag="0"/>
    </comp>
    <comp name="--.HHE">
      <acc value="0.0036296176" flag="0"/>
      <vel value="0.0024257241" flag="0"/>
      <psa03 value="0.0093706490" flag="0"/>
      <psa10 value="0.0022352492" flag="0"/>
      <psa30 value="0.0002184408" flag="0"/>
    </comp>
    <comp name="--.HHZ">
      <acc value="0.0034593881" flag="0"/>
      <vel value="0.0018684977" flag="0"/>
      <psa03 value="0.0113414754" flag="0"/>
      <psa10 value="0.0020446797" flag="0"/>
      <psa30 value="0.0001933067" flag="0"/>
    </comp>
  </station>
  <station code="PARC" name="PARC" netid="IV" insttype="" lat="43.6486" lon="12.2386">
    <comp name="--.HHE">
      <acc value="0.0054753882" flag="0"/>
      <vel value="0.0035200207" flag="0"/>
      <psa03 value="0.0151954947" flag="0"/>
      <psa10 value="0.0033611444" flag="0"/>
      <psa30 value="0.0002000752" flag="0"/>
    </comp>
    <comp name="--.HHN">
      <acc value="0.0048739988" flag="0"/>
      <vel value="0.0033202658" flag="0"/>
      <psa03 value="0.0122740666" flag="0"/>
      <psa10 value="0.0040009094" flag="0"/>
      <psa30 value="0.0002362993" flag="0"/>
    </comp>
    <comp name="--.HHZ">
      <acc value="0.0038059873" flag="0"/>
      <vel value="0.0022011384" flag="0"/>
      <psa03 value="0.0135216284" flag="0"/>
      <psa10 value="0.0034286974" flag="0"/>
      <psa30 value="0.0001699036" flag="0"/>
    </comp>
  </station>
  <station code="RSM2" name="RSM2" netid="IV" insttype="" lat="43.9377" lon="12.4451">
    <comp name="--.HHE">
      <acc value="0.0080141992" flag="0"/>
      <vel value="0.0074006360" flag="0"/>
      <psa03 value="0.0159148814" flag="0"/>
      <psa10 value="0.0105854560" flag="0"/>
      <psa30 value="0.0010426973" flag="0"/>
    </comp>
    <comp name="--.HHN">
      <acc value="0.0113022474" flag="0"/>
      <vel value="0.0084766837" flag="0"/>
      <psa03 value="0.0424724512" flag="0"/>
      <psa10 value="0.0097063416" flag="0"/>
      <psa30 value="0.0009325223" flag="0"/>
    </comp>
    <comp name="--.HHZ">
      <acc value="0.0040710257" flag="0"/>
      <vel value="0.0037115641" flag="0"/>
      <psa03 value="0.0083690055" flag="0"/>
      <psa10 value="0.0090919684" flag="0"/>
      <psa30 value="0.0004692176" flag="0"/>
    </comp>
  </station>
  <station code="SEI" name="SEI" netid="IV" insttype="" lat="44.0543" lon="11.3585">
    <comp name="--.HHE">
      <acc value="0.1390519152" flag="0"/>
      <vel value="0.0444511538" flag="0"/>
      <psa03 value="0.2284306708" flag="0"/>
      <psa10 value="0.0217936700" flag="0"/>
      <psa30 value="0.0014964883" flag="0"/>
    </comp>
    <comp name="--.HHN">
      <acc value="0.2459697410" flag="0"/>
      <vel value="0.0713200345" flag="0"/>
      <psa03 value="0.4072557026" flag="0"/>
      <psa10 value="0.0240427933" flag="0"/>
      <psa30 value="0.0021253603" flag="0"/>
    </comp>
    <comp name="--.HHZ">
      <acc value="0.1393327766" flag="0"/>
      <vel value="0.0413167621" flag="0"/>
      <psa03 value="0.2677904353" flag="0"/>
      <psa10 value="0.0096319973" flag="0"/>
      <psa30 value="0.0010333460" flag="0"/>
    </comp>
  </station>
  <station code="TEOL" name="TEOL" netid="IV" insttype="" lat="45.3617" lon="11.6739">
    <comp name="--.HHE">
      <acc value="0.0096147776" flag="0"/>
      <vel value="0.0054567222" flag="0"/>
      <psa03 value="0.0172343513" flag="0"/>
      <psa10 value="0.0082142123" flag="0"/>
      <psa30 value="0.0003964681" flag="0"/>
    </comp>
    <comp name="--.HHN">
      <acc value="0.0094030736" flag="0"/>
      <vel value="0.0058045198" flag="0"/>
      <psa03 value="0.0242407354" flag="0"/>
      <psa10 value="0.0099432176" flag="0"/>
      <psa30 value="0.0003988942" flag="0"/>
    </comp>
    <comp name="--.HHZ">
      <acc value="0.0074498500" flag="0"/>
      <vel value="0.0033564372" flag="0"/>
      <psa03 value="0.0157632585" flag="0"/>
      <psa10 value="0.0043146105" flag="0"/>
      <psa30 value="0.0001756007" flag="0"/>
    </comp>
  </station>
  <station code="VISG" name="VISG" netid="IV" insttype="" lat="44.189" lon="11.4343">
    <comp name="--.HHE">
      <acc value="0.1858155453" flag="0"/>
      <vel value="0.0262720637" flag="0"/>
      <psa03 value="0.1471862866" flag="0"/>
      <psa10 value="0.0075948381" flag="0"/>
      <psa30 value="0.0008003362" flag="0"/>
    </comp>
    <comp name="--.HHZ">
      <acc value="0.1961817650" flag="0"/>
      <vel value="0.0130781722" flag="0"/>
      <psa03 value="0.0516735832" flag="0"/>
      <psa10 value="0.0038715984" flag="0"/>
      <psa30 value="0.0003783536" flag="0"/>
    </comp>
    <comp name="--.HHN">
      <acc value="0.1605487623" flag="0"/>
      <vel value="0.0248569700" flag="0"/>
      <psa03 value="0.1046035994" flag="0"/>
      <psa10 value="0.0112577059" flag="0"/>
      <psa30 value="0.0011343861" flag="0"/>
    </comp>
  </station>
  <station code="ZCCA" name="ZCCA" netid="IV" insttype="" lat="44.3509" lon="10.9765">
    <comp name="--.HHE">
      <acc value="0.0033648629" flag="0"/>
      <vel value="0.0047811419" flag="0"/>
      <psa03 value="0.0072858198" flag="0"/>
      <psa10 value="0.0063518045" flag="0"/>
      <psa30 value="0.0008833011" flag="0"/>
    </comp>
    <comp name="--.HHN">
      <acc value="0.0032787221" flag="0"/>
      <vel value="0.0035585038" flag="0"/>
      <psa03 value="0.0099168796" flag="0"/>
      <psa10 value="0.0042588759" flag="0"/>
      <psa30 value="0.0009634551" flag="0"/>
    </comp>
    <comp name="--.HHZ">
      <acc value="0.0031399798" flag="0"/>
      <vel value="0.0022492969" flag="0"/>
      <psa03 value="0.0091042647" flag="0"/>
      <psa10 value="0.0044440198" flag="0"/>
      <psa30 value="0.0008643265" flag="0"/>
    </comp>
  </station>
  <station code="VRG02" name="VRG02" netid="VR" insttype="" lat="43.6569" lon="10.5169">
    <comp name="--.HH1">
      <acc value="0.0044067303" flag="0"/>
      <vel value="0.0045649918" flag="0"/>
      <psa03 value="0.0129423196" flag="0"/>
      <psa10 value="0.0085371836" flag="0"/>
      <psa30 value="0.0015877678" flag="0"/>
    </comp>
    <comp name="--.HH2">
      <acc value="0.0039273801" flag="0"/>
      <vel value="0.0048165235" flag="0"/>
      <psa03 value="0.0128698937" flag="0"/>
      <psa10 value="0.0055420588" flag="0"/>
      <psa30 value="0.0010488578" flag="0"/>
    </comp>
    <comp name="--.HH3">
      <acc value="0.0027459743" flag="0"/>
      <vel value="0.0019260608" flag="0"/>
      <psa03 value="0.0080757306" flag="0"/>
      <psa10 value="0.0049941164" flag="0"/>
      <psa30 value="0.0003566510" flag="0"/>
    </comp>
  </station>
</stationlist>
