<?xml version="1.0" encoding="UTF-8" standalone="yes"?>
<!DOCTYPE earthquake SYSTEM "stationlist.dtd">
<stationlist created="" xmlns="ch.ethz.sed.shakemap.usgs.xml">
  <station code="CARD" name="CARD" netid="GU" insttype="" lat="44.0261" lon="10.4821">
    <comp name="--.HHN">
      <acc value="0.0048496687" flag="0"/>
      <vel value="0.0030015085" flag="0"/>
      <psa03 value="0.0068620711" flag="0"/>
      <psa10 value="0.0034049265" flag="0"/>
      <psa30 value="0.0002352317" flag="0"/>
    </comp>
    <comp name="--.HHZ">
      <acc value="0.0020832718" flag="0"/>
      <vel value="0.0016401237" flag="0"/>
      <psa03 value="0.0044829773" flag="0"/>
      <psa10 value="0.0033734351" flag="0"/>
      <psa30 value="0.0003438189" flag="0"/>
    </comp>
    <comp name="--.HHE">
      <acc value="0.0053465924" flag="0"/>
      <vel value="0.0034167307" flag="0"/>
      <psa03 value="0.0079998856" flag="0"/>
      <psa10 value="0.0057740825" flag="0"/>
      <psa30 value="0.0004653537" flag="0"/>
    </comp>
  </station>
  <station code="EQUI" name="EQUI" netid="GU" insttype="" lat="44.166" lon="10.153">
    <comp name="--.HHE">
      <acc value="0.0010788767" flag="0"/>
      <vel value="0.0013233867" flag="0"/>
      <psa03 value="0.0031397173" flag="0"/>
      <psa10 value="0.0024392595" flag="0"/>
      <psa30 value="0.0001531726" flag="0"/>
    </comp>
    <comp name="--.HHN">
      <acc value="0.0011310493" flag="0"/>
      <vel value="0.0011407452" flag="0"/>
      <psa03 value="0.0030617151" flag="0"/>
      <psa10 value="0.0019624491" flag="0"/>
      <psa30 value="0.0002287920" flag="0"/>
    </comp>
    <comp name="--.HHZ">
      <acc value="0.0013974954" flag="0"/>
      <vel value="0.0009792929" flag="0"/>
      <psa03 value="0.0031260423" flag="0"/>
      <psa10 value="0.0024940524" flag="0"/>
      <psa30 value="0.0001903852" flag="0"/>
    </comp>
  </station>
  <station code="GSCL" name="GSCL" netid="GU" insttype="" lat="44.3506" lon="10.588">
    <comp name="--.HHE">
      <acc value="0.0029412916" flag="0"/>
      <vel value="0.0021073305" flag="0"/>
      <psa03 value="0.0088597834" flag="0"/>
      <psa10 value="0.0040650639" flag="0"/>
      <psa30 value="0.0003401953" flag="0"/>
    </comp>
    <comp name="--.HHN">
      <acc value="0.0028445183" flag="0"/>
      <vel value="0.0020807114" flag="0"/>
      <psa03 value="0.0078051414" flag="0"/>
      <psa10 value="0.0032861771" flag="0"/>
      <psa30 value="0.0003226839" flag="0"/>
    </comp>
    <comp name="--.HHZ">
      <acc value="0.0011621525" flag="0"/>
      <vel value="0.0008839580" flag="0"/>
      <psa03 value="0.0039745835" flag="0"/>
      <psa10 value="0.0018255136" flag="0"/>
      <psa30 value="0.0002052631" flag="0"/>
    </comp>
  </station>
  <station code="MAIM" name="MAIM" netid="GU" insttype="" lat="43.9142" lon="10.4915">
    <comp name="--.HHE">
      <acc value="0.0011565566" flag="0"/>
      <vel value="0.0014397773" flag="0"/>
      <psa03 value="0.0041954249" flag="0"/>
      <psa10 value="0.0020551074" flag="0"/>
      <psa30 value="0.0003268137" flag="0"/>
    </comp>
    <comp name="--.HHN">
      <acc value="0.0020598197" flag="0"/>
      <vel value="0.0017068574" flag="0"/>
      <psa03 value="0.0047699617" flag="0"/>
      <psa10 value="0.0025477339" flag="0"/>
      <psa30 value="0.0002965475" flag="0"/>
    </comp>
    <comp name="--.HHZ">
      <acc value="0.0024699374" flag="0"/>
      <vel value="0.0018960267" flag="0"/>
      <psa03 value="0.0055900734" flag="0"/>
      <psa10 value="0.0031764854" flag="0"/>
      <psa30 value="0.0002395542" flag="0"/>
    </comp>
  </station>
  <station code="POPM" name="POPM" netid="GU" insttype="" lat="44.045" lon="10.757">
    <comp name="--.HHE">
      <acc value="0.0094909443" flag="0"/>
      <vel value="0.0042484495" flag="0"/>
      <psa03 value="0.0278019589" flag="0"/>
      <psa10 value="0.0029310648" flag="0"/>
      <psa30 value="0.0003089543" flag="0"/>
    </comp>
    <comp name="--.HHN">
      <acc value="0.0106634311" flag="0"/>
      <vel value="0.0045498939" flag="0"/>
      <psa03 value="0.0209101709" flag="0"/>
      <psa10 value="0.0024511946" flag="0"/>
      <psa30 value="0.0003405854" flag="0"/>
    </comp>
    <comp name="--.HHZ">
      <acc value="0.0045516345" flag="0"/>
      <vel value="0.0018505474" flag="0"/>
      <psa03 value="0.0121931729" flag="0"/>
      <psa10 value="0.0026063309" flag="0"/>
      <psa30 value="0.0001953823" flag="0"/>
    </comp>
  </station>
  <station code="BDI" name="BDI" netid="IV" insttype="" lat="44.0624" lon="10.597">
    <comp name="--.HHE">
      <acc value="0.0002369037" flag="0"/>
      <vel value="0.0000166724" flag="0"/>
      <psa03 value="0.0000346244" flag="0"/>
      <psa10 value="0.0000064702" flag="0"/>
      <psa30 value="0.0000033852" flag="0"/>
    </comp>
    <comp name="--.HHN">
      <acc value="0.0046627128" flag="0"/>
      <vel value="0.0050832268" flag="0"/>
      <psa03 value="0.0148747619" flag="0"/>
      <psa10 value="0.0052300760" flag="0"/>
      <psa30 value="0.0005090223" flag="0"/>
    </comp>
    <comp name="--.HHZ">
      <acc value="0.0027347397" flag="0"/>
      <vel value="0.0018168907" flag="0"/>
      <psa03 value="0.0077341026" flag="0"/>
      <psa10 value="0.0029702992" flag="0"/>
      <psa30 value="0.0003813113" flag="0"/>
    </comp>
  </station>
  <station code="BOSL" name="BOSL" netid="IV" insttype="" lat="43.931" lon="11.3743">
    <comp name="--.HHE">
      <acc value="0.0085976167" flag="0"/>
      <vel value="0.0058293205" flag="0"/>
      <psa03 value="0.0210608138" flag="0"/>
      <psa10 value="0.0066703338" flag="0"/>
      <psa30 value="0.0004159134" flag="0"/>
    </comp>
    <comp name="--.HHN">
      <acc value="0.0114866612" flag="0"/>
      <vel value="0.0047239193" flag="0"/>
      <psa03 value="0.0223913295" flag="0"/>
      <psa10 value="0.0045644614" flag="0"/>
      <psa30 value="0.0002937392" flag="0"/>
    </comp>
    <comp name="--.HHZ">
      <acc value="0.0048218678" flag="0"/>
      <vel value="0.0018575691" flag="0"/>
      <psa03 value="0.0090868095" flag="0"/>
      <psa10 value="0.0024762466" flag="0"/>
      <psa30 value="0.0001673407" flag="0"/>
    </comp>
  </station>
  <station code="BRIS" name="BRIS" netid="IV" insttype="" lat="44.2245" lon="11.7666">
    <comp name="--.HHE">
      <acc value="0.0987136206" flag="0"/>
      <vel value="0.0299595425" flag="0"/>
      <psa03 value="0.0983076189" flag="0"/>
      <psa10 value="0.0169264281" flag="0"/>
      <psa30 value="0.0012517797" flag="0"/>
    </comp>
    <comp name="--.HHZ">
      <acc value="0.0789234522" flag="0"/>
      <vel value="0.0167533486" flag="0"/>
      <psa03 value="0.0954187556" flag="0"/>
      <psa10 value="0.0071601884" flag="0"/>
      <psa30 value="0.0006462764" flag="0"/>
    </comp>
    <comp name="--.HHN">
      <acc value="0.0680932214" flag="0"/>
      <vel value="0.0267193635" flag="0"/>
      <psa03 value="0.1342291516" flag="0"/>
      <psa10 value="0.0103893467" flag="0"/>
      <psa30 value="0.0008601473" flag="0"/>
    </comp>
  </station>
  <station code="BRSN" name="BRSN" netid="IV" insttype="" lat="44.2842" lon="12.0802">
    <comp name="--.HNE">
      <acc value="0.0032703390" flag="0"/>
      <vel value="0.0003530351" flag="0"/>
      <psa03 value="0.0008030339" flag="0"/>
      <psa10 value="0.0001653940" flag="0"/>
      <psa30 value="0.0000600532" flag="0"/>
    </comp>
    <comp name="--.HNZ">
      <acc value="0.0014533835" flag="0"/>
      <vel value="0.0002231557" flag="0"/>
      <psa03 value="0.0007683542" flag="0"/>
      <psa10 value="0.0001940157" flag="0"/>
      <psa30 value="0.0000597122" flag="0"/>
    </comp>
    <comp name="--.HNN">
      <acc value="0.0677942894" flag="0"/>
      <vel value="0.0248666797" flag="0"/>
      <psa03 value="0.1257635471" flag="0"/>
      <psa10 value="0.0299701180" flag="0"/>
      <psa30 value="0.0021234968" flag="0"/>
    </comp>
  </station>
  <station code="CRE" name="CRE" netid="IV" insttype="" lat="43.6189" lon="11.9517">
    <comp name="--.HHE">
      <acc value="0.0075677406" flag="0"/>
      <vel value="0.0038847249" flag="0"/>
      <psa03 value="0.0279931429" flag="0"/>
      <psa10 value="0.0040397701" flag="0"/>
      <psa30 value="0.0002841191" flag="0"/>
    </comp>
    <comp name="--.HHN">
      <acc value="0.0132655472" flag="0"/>
      <vel value="0.0067800389" flag="0"/>
      <psa03 value="0.0595698768" flag="0"/>
      <psa10 value="0.0054717506" flag="0"/>
      <psa30 value="0.0003965659" flag="0"/>
    </comp>
    <comp name="--.HHZ">
      <acc value="0.0058756627" flag="0"/>
      <vel value="0.0024395096" flag="0"/>
      <psa03 value="0.0152616221" flag="0"/>
      <psa10 value="0.0026686508" flag="0"/>
      <psa30 value="0.0002547846" flag="0"/>
    </comp>
  </station>
  <station code="CSNT" name="CSNT" netid="IV" insttype="" lat="43.4731" lon="11.2902">
    <comp name="--.HHE">
      <acc value="0.0036694918" flag="0"/>
      <vel value="0.0035787790" flag="0"/>
      <psa03 value="0.0106813465" flag="0"/>
      <psa10 value="0.0056458542" flag="0"/>
      <psa30 value="0.0003889606" flag="0"/>
    </comp>
    <comp name="--.HHN">
      <acc value="0.0044051575" flag="0"/>
      <vel value="0.0033681993" flag="0"/>
      <psa03 value="0.0080186008" flag="0"/>
      <psa10 value="0.0035366020" flag="0"/>
      <psa30 value="0.0002298096" flag="0"/>
    </comp>
    <comp name="--.HHZ">
      <acc value="0.0033446413" flag="0"/>
      <vel value="0.0018581270" flag="0"/>
      <psa03 value="0.0064275336" flag="0"/>
      <psa10 value="0.0020597085" flag="0"/>
      <psa30 value="0.0002821122" flag="0"/>
    </comp>
  </station>
  <station code="FNVD" name="FNVD" netid="IV" insttype="" lat="44.1678" lon="11.1229">
    <comp name="--.HHE">
      <acc value="0.0788462210" flag="0"/>
      <vel value="0.0134175432" flag="0"/>
      <psa03 value="0.0384785195" flag="0"/>
      <psa10 value="0.0095530325" flag="0"/>
      <psa30 value="0.0007478944" flag="0"/>
    </comp>
    <comp name="--.HHZ">
      <acc value="0.0627465231" flag="0"/>
      <vel value="0.0100610202" flag="0"/>
      <psa03 value="0.0264789888" flag="0"/>
      <psa10 value="0.0045010009" flag="0"/>
      <psa30 value="0.0006770160" flag="0"/>
    </comp>
    <comp name="--.HHN">
      <acc value="0.1230421969" flag="0"/>
      <vel value="0.0198774304" flag="0"/>
      <psa03 value="0.0966723701" flag="0"/>
      <psa10 value="0.0047628120" flag="0"/>
      <psa30 value="0.0010457534" flag="0"/>
    </comp>
  </station>
  <station code="LMD" name="LMD" netid="IV" insttype="" lat="44.0775" lon="11.7073">
    <comp name="--.HHE">
      <acc value="0.0787214901" flag="0"/>
      <vel value="0.0211815491" flag="0"/>
      <psa03 value="0.0995672468" flag="0"/>
      <psa10 value="0.0084566924" flag="0"/>
      <psa30 value="0.0006382304" flag="0"/>
    </comp>
    <comp name="--.HHN">
      <acc value="0.0839861343" flag="0"/>
      <vel value="0.0292723801" flag="0"/>
      <psa03 value="0.1134348782" flag="0"/>
      <psa10 value="0.0073507269" flag="0"/>
      <psa30 value="0.0009503665" flag="0"/>
    </comp>
    <comp name="--.HHZ">
      <acc value="0.0574169992" flag="0"/>
      <vel value="0.0165086055" flag="0"/>
      <psa03 value="0.0681221567" flag="0"/>
      <psa10 value="0.0042708217" flag="0"/>
      <psa30 value="0.0003461170" flag="0"/>
    </comp>
  </station>
  <station code="MTRZ" name="MTRZ" netid="IV" insttype="" lat="44.3128" lon="11.4248">
    <comp name="--.HHN">
      <acc value="0.2264409778" flag="0"/>
      <vel value="0.0743892494" flag="0"/>
      <psa03 value="0.3314465133" flag="0"/>
      <psa10 value="0.0289177317" flag="0"/>
      <psa30 value="0.0044126537" flag="0"/>
    </comp>
    <comp name="--.HHE">
      <acc value="0.2221710371" flag="0"/>
      <vel value="0.0628274877" flag="0"/>
      <psa03 value="0.2914697275" flag="0"/>
      <psa10 value="0.0587353349" flag="0"/>
      <psa30 value="0.0035006014" flag="0"/>
    </comp>
    <comp name="--.HHZ">
      <acc value="0.2601730640" flag="0"/>
      <vel value="0.0337046582" flag="0"/>
      <psa03 value="0.2000338910" flag="0"/>
      <psa10 value="0.0126660566" flag="0"/>
      <psa30 value="0.0015600907" flag="0"/>
    </comp>
  </station>
  <station code="OSSC" name="OSSC" netid="IV" insttype="" lat="43.5236" lon="11.2458">
    <comp name="--.HHE">
      <acc value="0.0079442165" flag="0"/>
      <vel value="0.0043770679" flag="0"/>
      <psa03 value="0.0107222866" flag="0"/>
      <psa10 value="0.0066390065" flag="0"/>
      <psa30 value="0.0005747457" flag="0"/>
    </comp>
    <comp name="--.HHZ">
      <acc value="0.0032591776" flag="0"/>
      <vel value="0.0021108916" flag="0"/>
      <psa03 value="0.0067693908" flag="0"/>
      <psa10 value="0.0024602722" flag="0"/>
      <psa30 value="0.0003045189" flag="0"/>
    </comp>
    <comp name="--.HHN">
      <acc value="0.0040681246" flag="0"/>
      <vel value="0.0037975649" flag="0"/>
      <psa03 value="0.0095654244" flag="0"/>
      <psa10 value="0.0068717432" flag="0"/>
      <psa30 value="0.0005193181" flag="0"/>
    </comp>
  </station>
  <station code="PARC" name="PARC" netid="IV" insttype="" lat="43.6486" lon="12.2386">
    <comp name="--.HHE">
      <acc value="0.0054753891" flag="0"/>
      <vel value="0.0035200205" flag="0"/>
      <psa03 value="0.0151954947" flag="0"/>
      <psa10 value="0.0033611444" flag="0"/>
      <psa30 value="0.0002000710" flag="0"/>
    </comp>
    <comp name="--.HHN">
      <acc value="0.0048739991" flag="0"/>
      <vel value="0.0033202662" flag="0"/>
      <psa03 value="0.0122740666" flag="0"/>
      <psa10 value="0.0040009093" flag="0"/>
      <psa30 value="0.0002362848" flag="0"/>
    </comp>
    <comp name="--.HHZ">
      <acc value="0.0038059880" flag="0"/>
      <vel value="0.0022011386" flag="0"/>
      <psa03 value="0.0135216284" flag="0"/>
      <psa10 value="0.0034286974" flag="0"/>
      <psa30 value="0.0001700201" flag="0"/>
    </comp>
  </station>
  <station code="PII" name="PII" netid="IV" insttype="" lat="43.7219" lon="10.525">
    <comp name="--.HHE">
      <acc value="0.0062659368" flag="0"/>
      <vel value="0.0040015296" flag="0"/>
      <psa03 value="0.0179316036" flag="0"/>
      <psa10 value="0.0044814763" flag="0"/>
      <psa30 value="0.0003565170" flag="0"/>
    </comp>
    <comp name="--.HHN">
      <acc value="0.0057468125" flag="0"/>
      <vel value="0.0028256178" flag="0"/>
      <psa03 value="0.0220342510" flag="0"/>
      <psa10 value="0.0031818072" flag="0"/>
      <psa30 value="0.0003812768" flag="0"/>
    </comp>
    <comp name="--.HHZ">
      <acc value="0.0047035837" flag="0"/>
      <vel value="0.0024821781" flag="0"/>
      <psa03 value="0.0179995523" flag="0"/>
      <psa10 value="0.0024240275" flag="0"/>
      <psa30 value="0.0002679107" flag="0"/>
    </comp>
  </station>
  <station code="RSM2" name="RSM2" netid="IV" insttype="" lat="43.9377" lon="12.4451">
    <comp name="--.HHE">
      <acc value="0.0080142002" flag="0"/>
      <vel value="0.0074006371" flag="0"/>
      <psa03 value="0.0159148814" flag="0"/>
      <psa10 value="0.0105854559" flag="0"/>
      <psa30 value="0.0010426950" flag="0"/>
    </comp>
    <comp name="--.HHN">
      <acc value="0.0113022484" flag="0"/>
      <vel value="0.0084766817" flag="0"/>
      <psa03 value="0.0424724512" flag="0"/>
      <psa10 value="0.0097063416" flag="0"/>
      <psa30 value="0.0009324394" flag="0"/>
    </comp>
    <comp name="--.HHZ">
      <acc value="0.0040710246" flag="0"/>
      <vel value="0.0037115635" flag="0"/>
      <psa03 value="0.0083690055" flag="0"/>
      <psa10 value="0.0090919685" flag="0"/>
      <psa30 value="0.0004692217" flag="0"/>
    </comp>
  </station>
  <station code="SEI" name="SEI" netid="IV" insttype="" lat="44.0543" lon="11.3585">
    <comp name="--.HHN">
      <acc value="0.2459697409" flag="0"/>
      <vel value="0.0713200344" flag="0"/>
      <psa03 value="0.4072557026" flag="0"/>
      <psa10 value="0.0240428046" flag="0"/>
      <psa30 value="0.0021255848" flag="0"/>
    </comp>
    <comp name="--.HHZ">
      <acc value="0.1393327756" flag="0"/>
      <vel value="0.0413167619" flag="0"/>
      <psa03 value="0.2677904353" flag="0"/>
      <psa10 value="0.0096319880" flag="0"/>
      <psa30 value="0.0010334007" flag="0"/>
    </comp>
    <comp name="--.HHE">
      <acc value="0.1390519147" flag="0"/>
      <vel value="0.0444511533" flag="0"/>
      <psa03 value="0.2284306708" flag="0"/>
      <psa10 value="0.0217936633" flag="0"/>
      <psa30 value="0.0014968286" flag="0"/>
    </comp>
  </station>
  <station code="VISG" name="VISG" netid="IV" insttype="" lat="44.189" lon="11.4343">
    <comp name="--.HHE">
      <acc value="0.1858155438" flag="0"/>
      <vel value="0.0262720633" flag="0"/>
      <psa03 value="0.1471862866" flag="0"/>
      <psa10 value="0.0075948394" flag="0"/>
      <psa30 value="0.0008003658" flag="0"/>
    </comp>
    <comp name="--.HHZ">
      <acc value="0.1961817705" flag="0"/>
      <vel value="0.0130781722" flag="0"/>
      <psa03 value="0.0516735832" flag="0"/>
      <psa10 value="0.0038715990" flag="0"/>
      <psa30 value="0.0003783663" flag="0"/>
    </comp>
    <comp name="--.HHN">
      <acc value="0.1605487602" flag="0"/>
      <vel value="0.0248569697" flag="0"/>
      <psa03 value="0.1046035994" flag="0"/>
      <psa10 value="0.0112577024" flag="0"/>
      <psa30 value="0.0011343404" flag="0"/>
    </comp>
  </station>
  <station code="ZCCA" name="ZCCA" netid="IV" insttype="" lat="44.3509" lon="10.9765">
    <comp name="--.HHE">
      <acc value="0.0033648629" flag="0"/>
      <vel value="0.0047811407" flag="0"/>
      <psa03 value="0.0072858198" flag="0"/>
      <psa10 value="0.0063518045" flag="0"/>
      <psa30 value="0.0008833420" flag="0"/>
    </comp>
    <comp name="--.HHN">
      <acc value="0.0032787214" flag="0"/>
      <vel value="0.0035585053" flag="0"/>
      <psa03 value="0.0099168796" flag="0"/>
      <psa10 value="0.0042588758" flag="0"/>
      <psa30 value="0.0009635504" flag="0"/>
    </comp>
    <comp name="--.HHZ">
      <acc value="0.0031399796" flag="0"/>
      <vel value="0.0022492961" flag="0"/>
      <psa03 value="0.0091042647" flag="0"/>
      <psa10 value="0.0044440198" flag="0"/>
      <psa30 value="0.0008643280" flag="0"/>
    </comp>
  </station>
</stationlist>
