<?xml version="1.0" encoding="UTF-8" standalone="yes"?>
<!DOCTYPE earthquake SYSTEM "stationlist.dtd">
<stationlist created="" xmlns="ch.ethz.sed.shakemap.usgs.xml">
  <station code="VOL2" name="VOL2" netid="HI" insttype="CMG-5TD,ACCELEROMETER,GURALP" lat="39.366" lon="22.9506">
    <comp name="--.HNE">
      <acc value="0.0327583843" flag="0"/>
      <vel value="0.0185416992" flag="0"/>
      <psa03 value="0.0638823282" flag="0"/>
      <psa10 value="0.0086278478" flag="0"/>
      <psa30 value="0.0017340601" flag="0"/>
    </comp>
    <comp name="--.HNZ">
      <acc value="0.0315086065" flag="0"/>
      <vel value="0.0092645588" flag="0"/>
      <psa03 value="0.0388702619" flag="0"/>
      <psa10 value="0.0057204520" flag="0"/>
      <psa30 value="0.0015821686" flag="0"/>
    </comp>
    <comp name="--.HNN">
      <acc value="0.0249182306" flag="0"/>
      <vel value="0.0147890798" flag="0"/>
      <psa03 value="0.0746705848" flag="0"/>
      <psa10 value="0.0152748784" flag="0"/>
      <psa30 value="0.0011970845" flag="0"/>
    </comp>
  </station>
  <station code="EVR" name="EVR" netid="HL" insttype="DR24" lat="38.9166" lon="21.8105">
    <comp name="--.HHN">
      <acc value="0.0236547616" flag="0"/>
      <vel value="0.0123668833" flag="0"/>
      <psa03 value="0.0964064512" flag="0"/>
      <psa10 value="0.0060150447" flag="0"/>
      <psa30 value="0.0008327511" flag="0"/>
    </comp>
    <comp name="--.HHE">
      <acc value="0.0130504089" flag="0"/>
      <vel value="0.0098111030" flag="0"/>
      <psa03 value="0.0315776827" flag="0"/>
      <psa10 value="0.0119663112" flag="0"/>
      <psa30 value="0.0009683002" flag="0"/>
    </comp>
    <comp name="--.HHZ">
      <acc value="0.0107198307" flag="0"/>
      <vel value="0.0065503579" flag="0"/>
      <psa03 value="0.0356496805" flag="0"/>
      <psa10 value="0.0067654033" flag="0"/>
      <psa30 value="0.0006697474" flag="0"/>
    </comp>
  </station>
  <station code="KZN" name="KZN" netid="HL" insttype="120" lat="40.3033" lon="21.7821">
    <comp name="--.HHE">
      <acc value="0.0367025707" flag="0"/>
      <vel value="0.0200188498" flag="0"/>
      <psa03 value="0.1167711611" flag="0"/>
      <psa10 value="0.0150738148" flag="0"/>
      <psa30 value="0.0008586939" flag="0"/>
    </comp>
    <comp name="--.HHZ">
      <acc value="0.0126403964" flag="0"/>
      <vel value="0.0078932217" flag="0"/>
      <psa03 value="0.0396311579" flag="0"/>
      <psa10 value="0.0110041355" flag="0"/>
      <psa30 value="0.0008314700" flag="0"/>
    </comp>
    <comp name="--.HHN">
      <acc value="0.0263046549" flag="0"/>
      <vel value="0.0166383018" flag="0"/>
      <psa03 value="0.0629692139" flag="0"/>
      <psa10 value="0.0083282729" flag="0"/>
      <psa30 value="0.0009772288" flag="0"/>
    </comp>
  </station>
  <station code="NEO" name="NEO" netid="HL" insttype="120" lat="39.3057" lon="23.2219">
    <comp name="--.HHN">
      <acc value="0.0160957274" flag="0"/>
      <vel value="0.0096140106" flag="0"/>
      <psa03 value="0.0489681192" flag="0"/>
      <psa10 value="0.0134294678" flag="0"/>
      <psa30 value="0.0012033933" flag="0"/>
    </comp>
    <comp name="--.HHE">
      <acc value="0.0155336648" flag="0"/>
      <vel value="0.0075570022" flag="0"/>
      <psa03 value="0.0388270864" flag="0"/>
      <psa10 value="0.0132969587" flag="0"/>
      <psa30 value="0.0010627291" flag="0"/>
    </comp>
    <comp name="--.HHZ">
      <acc value="0.0109372494" flag="0"/>
      <vel value="0.0061943460" flag="0"/>
      <psa03 value="0.0237749969" flag="0"/>
      <psa10 value="0.0098607857" flag="0"/>
      <psa30 value="0.0007782243" flag="0"/>
    </comp>
  </station>
  <station code="PENT" name="PENT" netid="HL" insttype="30" lat="40.1959" lon="21.1384">
    <comp name="--.HHN">
      <acc value="0.0003611332" flag="0"/>
      <vel value="0.0002411071" flag="0"/>
      <psa03 value="0.0008735149" flag="0"/>
      <psa10 value="0.0003031833" flag="0"/>
      <psa30 value="0.0001608249" flag="0"/>
    </comp>
    <comp name="--.HHE">
      <acc value="0.0080992334" flag="0"/>
      <vel value="0.0049888026" flag="0"/>
      <psa03 value="0.0251815213" flag="0"/>
      <psa10 value="0.0044437450" flag="0"/>
      <psa30 value="0.0014920214" flag="0"/>
    </comp>
    <comp name="--.HHZ">
      <acc value="0.0066298118" flag="0"/>
      <vel value="0.0054001470" flag="0"/>
      <psa03 value="0.0207926997" flag="0"/>
      <psa10 value="0.0090392644" flag="0"/>
      <psa30 value="0.0022368672" flag="0"/>
    </comp>
  </station>
  <station code="TETR" name="TETR" netid="HL" insttype="60" lat="39.3445" lon="21.2747">
    <comp name="--.HHE">
      <acc value="0.0785194131" flag="0"/>
      <vel value="0.0318811057" flag="0"/>
      <psa03 value="0.2106794014" flag="0"/>
      <psa10 value="0.0227512679" flag="0"/>
      <psa30 value="0.0018510374" flag="0"/>
    </comp>
    <comp name="--.HHN">
      <acc value="0.0589680451" flag="0"/>
      <vel value="0.0250169196" flag="0"/>
      <psa03 value="0.1223065546" flag="0"/>
      <psa10 value="0.0260409271" flag="0"/>
      <psa30 value="0.0022686966" flag="0"/>
    </comp>
    <comp name="--.HHZ">
      <acc value="0.0234296752" flag="0"/>
      <vel value="0.0115211950" flag="0"/>
      <psa03 value="0.0498662520" flag="0"/>
      <psa10 value="0.0126644368" flag="0"/>
      <psa30 value="0.0021245670" flag="0"/>
    </comp>
  </station>
  <station code="THL" name="THL" netid="HL" insttype="120" lat="39.5647" lon="22.0144">
    <comp name="--.HHE">
      <acc value="0.1512716042" flag="0"/>
      <vel value="0.0401455819" flag="0"/>
      <psa03 value="0.1405667491" flag="0"/>
      <psa10 value="0.0457657028" flag="0"/>
      <psa30 value="0.0070796763" flag="0"/>
    </comp>
    <comp name="--.HHN">
      <acc value="0.1879847862" flag="0"/>
      <vel value="0.0387798848" flag="0"/>
      <psa03 value="0.1959998045" flag="0"/>
      <psa10 value="0.0553933560" flag="0"/>
      <psa30 value="0.0067343232" flag="0"/>
    </comp>
    <comp name="--.HHZ">
      <acc value="0.1631206379" flag="0"/>
      <vel value="0.0981698843" flag="0"/>
      <psa03 value="0.3182993765" flag="0"/>
      <psa10 value="0.0601743289" flag="0"/>
      <psa30 value="0.0071664227" flag="0"/>
    </comp>
  </station>
  <station code="AMPL" name="AMPL" netid="HP" insttype="Compact," lat="38.9224" lon="21.2135">
    <comp name="--.HHE">
      <acc value="0.0070432466" flag="0"/>
      <vel value="0.0037449799" flag="0"/>
      <psa03 value="0.0262437308" flag="0"/>
      <psa10 value="0.0048934534" flag="0"/>
      <psa30 value="0.0005385034" flag="0"/>
    </comp>
    <comp name="--.HHN">
      <acc value="0.0101124509" flag="0"/>
      <vel value="0.0037497823" flag="0"/>
      <psa03 value="0.0206767412" flag="0"/>
      <psa10 value="0.0042647996" flag="0"/>
      <psa30 value="0.0007374792" flag="0"/>
    </comp>
    <comp name="--.HHZ">
      <acc value="0.0053123273" flag="0"/>
      <vel value="0.0033146471" flag="0"/>
      <psa03 value="0.0134424627" flag="0"/>
      <psa10 value="0.0029428494" flag="0"/>
      <psa30 value="0.0005466421" flag="0"/>
    </comp>
  </station>
  <station code="ANX" name="ANX" netid="HP" insttype="120" lat="38.5933" lon="21.9209">
    <comp name="--.HHN">
      <acc value="0.0325352069" flag="0"/>
      <vel value="0.0232326903" flag="0"/>
      <psa03 value="0.1483110539" flag="0"/>
      <psa10 value="0.0340795077" flag="0"/>
      <psa30 value="0.0013723767" flag="0"/>
    </comp>
    <comp name="--.HHZ">
      <acc value="0.0120652689" flag="0"/>
      <vel value="0.0137852007" flag="0"/>
      <psa03 value="0.0537078337" flag="0"/>
      <psa10 value="0.0201568311" flag="0"/>
      <psa30 value="0.0009538631" flag="0"/>
    </comp>
    <comp name="--.HHE">
      <acc value="0.0315332926" flag="0"/>
      <vel value="0.0251150648" flag="0"/>
      <psa03 value="0.0761582989" flag="0"/>
      <psa10 value="0.0332437266" flag="0"/>
      <psa30 value="0.0015324546" flag="0"/>
    </comp>
  </station>
  <station code="PRMD" name="PRMD" netid="HP" insttype="120P," lat="39.5299" lon="21.0965">
    <comp name="--.HHZ">
      <acc value="0.0107529353" flag="0"/>
      <vel value="0.0076613689" flag="0"/>
      <psa03 value="0.0385170664" flag="0"/>
      <psa10 value="0.0055217519" flag="0"/>
      <psa30 value="0.0016624194" flag="0"/>
    </comp>
    <comp name="--.HHN">
      <acc value="0.0151927967" flag="0"/>
      <vel value="0.0095987994" flag="0"/>
      <psa03 value="0.0529231994" flag="0"/>
      <psa10 value="0.0122066281" flag="0"/>
      <psa30 value="0.0013317221" flag="0"/>
    </comp>
    <comp name="--.HHE">
      <acc value="0.0167237647" flag="0"/>
      <vel value="0.0123096803" flag="0"/>
      <psa03 value="0.0700104051" flag="0"/>
      <psa10 value="0.0134607353" flag="0"/>
      <psa30 value="0.0017750844" flag="0"/>
    </comp>
  </station>
  <station code="AGG" name="AGG" netid="HT" insttype="120P," lat="39.0211" lon="22.336">
    <comp name="--.HHE">
      <acc value="0.0238270381" flag="0"/>
      <vel value="0.0113278351" flag="0"/>
      <psa03 value="0.0422912518" flag="0"/>
      <psa10 value="0.0096986395" flag="0"/>
      <psa30 value="0.0018871298" flag="0"/>
    </comp>
    <comp name="--.HHN">
      <acc value="0.0173133548" flag="0"/>
      <vel value="0.0080787478" flag="0"/>
      <psa03 value="0.0493593900" flag="0"/>
      <psa10 value="0.0063345058" flag="0"/>
      <psa30 value="0.0007683480" flag="0"/>
    </comp>
    <comp name="--.HHZ">
      <acc value="0.0099174124" flag="0"/>
      <vel value="0.0045623847" flag="0"/>
      <psa03 value="0.0192336445" flag="0"/>
      <psa10 value="0.0059473318" flag="0"/>
      <psa30 value="0.0006553180" flag="0"/>
    </comp>
  </station>
  <station code="KPRO" name="KPRO" netid="HT" insttype="100" lat="39.9549" lon="21.3632">
    <comp name="--.HHZ">
      <acc value="0.0131182661" flag="0"/>
      <vel value="0.0089444892" flag="0"/>
      <psa03 value="0.0432445372" flag="0"/>
      <psa10 value="0.0165967853" flag="0"/>
      <psa30 value="0.0029977770" flag="0"/>
    </comp>
    <comp name="--.HHE">
      <acc value="0.0381013018" flag="0"/>
      <vel value="0.0256779020" flag="0"/>
      <psa03 value="0.1091020017" flag="0"/>
      <psa10 value="0.0231523615" flag="0"/>
      <psa30 value="0.0054630897" flag="0"/>
    </comp>
    <comp name="--.HHN">
      <acc value="0.0308988900" flag="0"/>
      <vel value="0.0166761799" flag="0"/>
      <psa03 value="0.1033644987" flag="0"/>
      <psa10 value="0.0140643894" flag="0"/>
      <psa30 value="0.0018143587" flag="0"/>
    </comp>
  </station>
  <station code="LIT" name="LIT" netid="HT" insttype="100" lat="40.1033" lon="22.4892">
    <comp name="--.HHE">
      <acc value="0.0806179238" flag="0"/>
      <vel value="0.0285524697" flag="0"/>
      <psa03 value="0.0953226743" flag="0"/>
      <psa10 value="0.0187910286" flag="0"/>
      <psa30 value="0.0019928853" flag="0"/>
    </comp>
    <comp name="--.HHZ">
      <acc value="0.0215399219" flag="0"/>
      <vel value="0.0139916299" flag="0"/>
      <psa03 value="0.0358192234" flag="0"/>
      <psa10 value="0.0154495301" flag="0"/>
      <psa30 value="0.0014783466" flag="0"/>
    </comp>
    <comp name="--.HHN">
      <acc value="0.0699280433" flag="0"/>
      <vel value="0.0274274199" flag="0"/>
      <psa03 value="0.1004285634" flag="0"/>
      <psa10 value="0.0230785720" flag="0"/>
      <psa30 value="0.0013623104" flag="0"/>
    </comp>
  </station>
  <station code="THE" name="THE" netid="HT" insttype="30s-100Hz," lat="40.6319" lon="22.9628">
    <comp name="--.HHN">
      <acc value="0.0020200525" flag="0"/>
      <vel value="0.0011825536" flag="0"/>
      <psa03 value="0.0045359087" flag="0"/>
      <psa10 value="0.0014698973" flag="0"/>
      <psa30 value="0.0002429992" flag="0"/>
    </comp>
    <comp name="--.HHZ">
      <acc value="0.0014819748" flag="0"/>
      <vel value="0.0010873600" flag="0"/>
      <psa03 value="0.0036199749" flag="0"/>
      <psa10 value="0.0012845328" flag="0"/>
      <psa30 value="0.0001132542" flag="0"/>
    </comp>
    <comp name="--.HHE">
      <acc value="0.0018352028" flag="0"/>
      <vel value="0.0013273827" flag="0"/>
      <psa03 value="0.0034027617" flag="0"/>
      <psa10 value="0.0020659171" flag="0"/>
      <psa30 value="0.0002747129" flag="0"/>
    </comp>
  </station>
  <station code="TYRN" name="TYRN" netid="HT" insttype="120P," lat="39.711" lon="22.2325">
    <comp name="--.HHN">
      <acc value="1.0941981308" flag="0"/>
      <vel value="0.5001310050" flag="0"/>
      <psa03 value="2.0576823713" flag="0"/>
      <psa10 value="0.2807396620" flag="0"/>
      <psa30 value="0.0497114267" flag="0"/>
    </comp>
    <comp name="--.HHE">
      <acc value="1.5891882954" flag="0"/>
      <vel value="0.8685791417" flag="0"/>
      <psa03 value="3.6972312097" flag="0"/>
      <psa10 value="0.6296797146" flag="0"/>
      <psa30 value="0.0749550719" flag="0"/>
    </comp>
    <comp name="--.HHZ">
      <acc value="1.6157844206" flag="0"/>
      <vel value="0.6020600256" flag="0"/>
      <psa03 value="2.7709185801" flag="0"/>
      <psa10 value="0.3286828184" flag="0"/>
      <psa30 value="0.0204464207" flag="0"/>
    </comp>
  </station>
  <station code="XOR" name="XOR" netid="HT" insttype="Compact," lat="39.366" lon="23.1918">
    <comp name="--.HHZ">
      <acc value="0.0169090917" flag="0"/>
      <vel value="0.0122712587" flag="0"/>
      <psa03 value="0.0510550087" flag="0"/>
      <psa10 value="0.0146384325" flag="0"/>
      <psa30 value="0.0016709929" flag="0"/>
    </comp>
    <comp name="--.HHN">
      <acc value="0.0329782380" flag="0"/>
      <vel value="0.0184888980" flag="0"/>
      <psa03 value="0.0775175458" flag="0"/>
      <psa10 value="0.0279806740" flag="0"/>
      <psa30 value="0.0019051352" flag="0"/>
    </comp>
    <comp name="--.HHE">
      <acc value="0.0186510013" flag="0"/>
      <vel value="0.0130803919" flag="0"/>
      <psa03 value="0.0641304108" flag="0"/>
      <psa10 value="0.0164972005" flag="0"/>
      <psa30 value="0.0019769791" flag="0"/>
    </comp>
  </station>
  <station code="THL" name="THL" netid="MN" insttype="" lat="39.5647" lon="22.0144">
    <comp name="--.HHE">
      <acc value="0.1512716042" flag="0"/>
      <vel value="0.0401455819" flag="0"/>
      <psa03 value="0.1405667491" flag="0"/>
      <psa10 value="0.0457657028" flag="0"/>
      <psa30 value="0.0070796763" flag="0"/>
    </comp>
    <comp name="--.HHZ">
      <acc value="0.1631206379" flag="0"/>
      <vel value="0.0981698843" flag="0"/>
      <psa03 value="0.3182993765" flag="0"/>
      <psa10 value="0.0601743289" flag="0"/>
      <psa30 value="0.0071664227" flag="0"/>
    </comp>
    <comp name="--.HHN">
      <acc value="0.1879847862" flag="0"/>
      <vel value="0.0387798848" flag="0"/>
      <psa03 value="0.1959998045" flag="0"/>
      <psa10 value="0.0553933560" flag="0"/>
      <psa30 value="0.0067343232" flag="0"/>
    </comp>
  </station>
</stationlist>
