<stationlist created="1778136356">
	<station code="MALA" name="MALA" netid="CL" source="Corinth Riff Laboratory (CRLNET)" insttype="" lat="38.39341" lon="21.87263">
		<comp name="01.HNE" depth="0.0">
			<acc value="0.0386891348560277" flag="0"/>
			<vel value="0.0427529557273005" flag="0"/>
			<psa03 value="0.0527510616029424" flag="0"/>
			<psa10 value="0.059584538819751" flag="0"/>
			<psa30 value="0.00459412977556414" flag="0"/>
		</comp>
		<comp name="01.HNN" depth="0.0">
			<acc value="0.0221350264470891" flag="0"/>
			<vel value="0.0321149213105523" flag="0"/>
			<psa03 value="0.0347199523357789" flag="0"/>
			<psa10 value="0.0653227268185444" flag="0"/>
			<psa30 value="0.00344291279927601" flag="0"/>
		</comp>
		<comp name="01.HNZ" depth="0.0">
			<acc value="0.0117246798708152" flag="0"/>
			<vel value="0.0163921524379419" flag="0"/>
			<psa03 value="0.0143622483244652" flag="0"/>
			<psa10 value="0.0314654042263658" flag="0"/>
			<psa30 value="0.00300757112888023" flag="0"/>
		</comp>
	</station>
	<station code="ROD3" name="ROD3" netid="CL" source="Corinth Riff Laboratory (CRLNET)" insttype="" lat="38.30811" lon="21.89204">
		<comp name="00.HNE" depth="0.0">
			<acc value="0.0107162096217404" flag="0"/>
			<vel value="0.00626032884417777" flag="0"/>
			<psa03 value="0.0398653060968801" flag="0"/>
			<psa10 value="0.00662005689123949" flag="0"/>
			<psa30 value="0.000736456720936753" flag="0"/>
		</comp>
		<comp name="00.HNN" depth="0.0">
			<acc value="0.0106529844299601" flag="0"/>
			<vel value="0.00672930827960154" flag="0"/>
			<psa03 value="0.0400890171299715" flag="0"/>
			<psa10 value="0.00808983837864972" flag="0"/>
			<psa30 value="0.0010796294456989" flag="0"/>
		</comp>
		<comp name="00.HNZ" depth="0.0">
			<acc value="0.00340045160157088" flag="0"/>
			<vel value="0.00291745269409661" flag="0"/>
			<psa03 value="0.00908266794350917" flag="0"/>
			<psa10 value="0.00415968294930073" flag="0"/>
			<psa30 value="0.000436683936594332" flag="0"/>
		</comp>
	</station>
	<station code="STC" name="STC" netid="EG" source="EUROSEISTEST Strong Motion Network" insttype="" lat="40.64865" lon="23.304856">
		<comp name="--.EN1" depth="0.0">
			<acc value="0.0160968704579623" flag="0"/>
			<vel value="0.00897026640301659" flag="0"/>
			<psa03 value="0.0597459891287316" flag="0"/>
			<psa10 value="0.0115092330551931" flag="0"/>
			<psa30 value="0.000591663569806577" flag="0"/>
		</comp>
		<comp name="--.EN2" depth="0.0">
			<acc value="0.0146125218298845" flag="0"/>
			<vel value="0.00831818872282209" flag="0"/>
			<psa03 value="0.0421266578718482" flag="0"/>
			<psa10 value="0.0110411814240944" flag="0"/>
			<psa30 value="0.00064854926529127" flag="0"/>
		</comp>
		<comp name="--.EN3" depth="0.0">
			<acc value="0.010028912152514" flag="0"/>
			<vel value="0.00554428730523782" flag="0"/>
			<psa03 value="0.0172933226810914" flag="0"/>
			<psa10 value="0.00710950628240509" flag="0"/>
			<psa30 value="0.000359624604615123" flag="0"/>
		</comp>
	</station>
	<station code="TST" name="TST" netid="EG" source="EUROSEISTEST Strong Motion Network" insttype="" lat="40.6638" lon="23.2906">
		<comp name="00.EN1" depth="0.0">
			<acc value="0.0133702530106802" flag="0"/>
			<vel value="0.00876045233919729" flag="0"/>
			<psa03 value="0.0228193163552057" flag="0"/>
			<psa10 value="0.0106053463021523" flag="0"/>
			<psa30 value="0.000590402705032919" flag="0"/>
		</comp>
		<comp name="00.EN2" depth="0.0">
			<acc value="0.00440043919324934" flag="0"/>
			<vel value="0.00347241432001046" flag="0"/>
			<psa03 value="0.0140838483503962" flag="0"/>
			<psa10 value="0.00572656654441007" flag="0"/>
			<psa30 value="0.000244446818402175" flag="0"/>
		</comp>
		<comp name="00.EN3" depth="0.0">
			<acc value="0.0128281663426758" flag="0"/>
			<vel value="0.00893147143840665" flag="0"/>
			<psa03 value="0.0209144362600188" flag="0"/>
			<psa10 value="0.0100615959063362" flag="0"/>
			<psa30 value="0.00070472616381691" flag="0"/>
		</comp>
	</station>
	<station code="LMS2" name="LMS2" netid="HI" source="ITSAK Strong Motion Network" insttype="" lat="40.834985" lon="21.141815">
		<comp name="--.HNE" depth="0.0">
			<acc value="0.00521795046425266" flag="0"/>
			<vel value="0.00269793645953763" flag="0"/>
			<psa03 value="0.0123041068200247" flag="0"/>
			<psa10 value="0.00469122036392579" flag="0"/>
			<psa30 value="0.000536459057353078" flag="0"/>
		</comp>
		<comp name="--.HNN" depth="0.0">
			<acc value="0.00581237123541458" flag="0"/>
			<vel value="0.00310849684297822" flag="0"/>
			<psa03 value="0.0168678118950885" flag="0"/>
			<psa10 value="0.0040670665816009" flag="0"/>
			<psa30 value="0.000696188734980308" flag="0"/>
		</comp>
		<comp name="--.HNZ" depth="0.0">
			<acc value="0.00299750870313443" flag="0"/>
			<vel value="0.00244407568648801" flag="0"/>
			<psa03 value="0.00961957442292843" flag="0"/>
			<psa10 value="0.00380935147147966" flag="0"/>
			<psa30 value="0.000770908220032822" flag="0"/>
		</comp>
	</station>
	<station code="VAS2" name="VAS2" netid="HI" source="ITSAK Strong Motion Network" insttype="" lat="38.630558" lon="20.608081">
		<comp name="--.HNE" depth="0.0">
			<acc value="0.0144695306462873" flag="0"/>
			<vel value="0.0141001242372132" flag="0"/>
			<psa03 value="0.0363306717740367" flag="0"/>
			<psa10 value="0.0322989515356642" flag="0"/>
			<psa30 value="0.00118208909885474" flag="0"/>
		</comp>
		<comp name="--.HNN" depth="0.0">
			<acc value="0.0150491102425656" flag="0"/>
			<vel value="0.0169206187587691" flag="0"/>
			<psa03 value="0.0604019789346669" flag="0"/>
			<psa10 value="0.03699017189959" flag="0"/>
			<psa30 value="0.0022004217214866" flag="0"/>
		</comp>
		<comp name="--.HNZ" depth="0.0">
			<acc value="0.00892286627652079" flag="0"/>
			<vel value="0.00762900442895566" flag="0"/>
			<psa03 value="0.021073579317206" flag="0"/>
			<psa10 value="0.0136226596490652" flag="0"/>
			<psa30 value="0.000556145628265118" flag="0"/>
		</comp>
	</station>
	<station code="VOL2" name="VOL2" netid="HI" source="ITSAK Strong Motion Network" insttype="" lat="39.366" lon="22.9506">
		<comp name="--.HNE" depth="0.0">
			<acc value="0.0330132290902182" flag="0"/>
			<vel value="0.0175962470681702" flag="0"/>
			<psa03 value="0.0628180580920536" flag="0"/>
			<psa10 value="0.00855292021714883" flag="0"/>
			<psa30 value="0.00186306548358484" flag="0"/>
		</comp>
		<comp name="--.HNN" depth="0.0">
			<acc value="0.0251098913823696" flag="0"/>
			<vel value="0.0146211814989843" flag="0"/>
			<psa03 value="0.0749879382922235" flag="0"/>
			<psa10 value="0.0152655934760881" flag="0"/>
			<psa30 value="0.00132929095862885" flag="0"/>
		</comp>
		<comp name="--.HNZ" depth="0.0">
			<acc value="0.031222168947026" flag="0"/>
			<vel value="0.0095134390277001" flag="0"/>
			<psa03 value="0.0393731418240791" flag="0"/>
			<psa10 value="0.00577442918615415" flag="0"/>
			<psa30 value="0.00174405121398023" flag="0"/>
		</comp>
	</station>
	<station code="JAN" name="JAN" netid="HL" source="National Observatory of Athens Seismic Network" insttype="" lat="39.65616" lon="20.84874">
		<comp name="00.HNE" depth="0.0">
			<acc value="0.00740396147967191" flag="0"/>
			<vel value="0.00402425895822804" flag="0"/>
			<psa03 value="0.0249661512929956" flag="0"/>
			<psa10 value="0.00598382271312766" flag="0"/>
			<psa30 value="0.00226171854455364" flag="0"/>
		</comp>
		<comp name="00.HNN" depth="0.0">
			<acc value="0.00721836065003257" flag="0"/>
			<vel value="0.00402482937045655" flag="0"/>
			<psa03 value="0.0248319246731408" flag="0"/>
			<psa10 value="0.00450598762852615" flag="0"/>
			<psa30 value="0.00076061751251062" flag="0"/>
		</comp>
		<comp name="00.HNZ" depth="0.0">
			<acc value="0.00578307779843102" flag="0"/>
			<vel value="0.00295871890158569" flag="0"/>
			<psa03 value="0.0137805996384277" flag="0"/>
			<psa10 value="0.00340264481331957" flag="0"/>
			<psa30 value="0.00190422831367365" flag="0"/>
		</comp>
	</station>
	<station code="KYMI" name="KYMI" netid="HL" source="National Observatory of Athens Seismic Network" insttype="" lat="38.633147" lon="24.100138">
		<comp name="--.HNE" depth="1.0">
			<acc value="0.000745595556506525" flag="0"/>
			<vel value="0.000639577508308672" flag="0"/>
			<psa03 value="0.0020581415044405" flag="0"/>
			<psa10 value="0.00111542321099351" flag="0"/>
			<psa30 value="0.000182995625068731" flag="0"/>
		</comp>
		<comp name="--.HNN" depth="1.0">
			<acc value="0.000763444286305307" flag="0"/>
			<vel value="0.000895187788587339" flag="0"/>
			<psa03 value="0.0014317506117847" flag="0"/>
			<psa10 value="0.0010147532461024" flag="0"/>
			<psa30 value="0.000166441008619971" flag="0"/>
		</comp>
		<comp name="--.HNZ" depth="1.0">
			<acc value="0.000495025351566966" flag="0"/>
			<vel value="0.000605746964173553" flag="0"/>
			<psa03 value="0.00138700840516642" flag="0"/>
			<psa10 value="0.000849654503680981" flag="0"/>
			<psa30 value="0.000141385372913739" flag="0"/>
		</comp>
	</station>
	<station code="PATC" name="PATC" netid="HL" source="National Observatory of Athens Seismic Network" insttype="" lat="38.26933" lon="21.76001">
		<comp name="00.HNE" depth="0.0">
			<acc value="0.00668735328217861" flag="0"/>
			<vel value="0.00798625521203895" flag="0"/>
			<psa03 value="0.0170467807215615" flag="0"/>
			<psa10 value="0.00994619253124181" flag="0"/>
			<psa30 value="0.00211362184064716" flag="0"/>
		</comp>
		<comp name="00.HNN" depth="0.0">
			<acc value="0.00705014481836352" flag="0"/>
			<vel value="0.00868030948898166" flag="0"/>
			<psa03 value="0.0146307015641749" flag="0"/>
			<psa10 value="0.0191836685096502" flag="0"/>
			<psa30 value="0.00192257261838714" flag="0"/>
		</comp>
		<comp name="00.HNZ" depth="0.0">
			<acc value="0.00609384682481531" flag="0"/>
			<vel value="0.00495914835320369" flag="0"/>
			<psa03 value="0.0132884353656267" flag="0"/>
			<psa10 value="0.00875426014693105" flag="0"/>
			<psa30 value="0.000655920749023864" flag="0"/>
		</comp>
	</station>
	<station code="ANX" name="ANX" netid="HP" source="University of Patras, Seismological Laboratory (PSLNET)" insttype="" lat="38.5933" lon="21.9209">
		<comp name="--.HNE" depth="0.0">
			<acc value="0.0394134751053078" flag="0"/>
			<vel value="0.030319075221277" flag="0"/>
			<psa03 value="0.096539801537896" flag="0"/>
			<psa10 value="0.0411005889621437" flag="0"/>
			<psa30 value="0.0019951046658931" flag="0"/>
		</comp>
		<comp name="--.HNN" depth="0.0">
			<acc value="0.0419514475902572" flag="0"/>
			<vel value="0.0298659785718865" flag="0"/>
			<psa03 value="0.187538194318225" flag="0"/>
			<psa10 value="0.0424201776285687" flag="0"/>
			<psa30 value="0.00172017770333217" flag="0"/>
		</comp>
		<comp name="--.HNZ" depth="0.0">
			<acc value="0.0144121150239363" flag="0"/>
			<vel value="0.0169593104357285" flag="0"/>
			<psa03 value="0.0618921417173117" flag="0"/>
			<psa10 value="0.0242254141898037" flag="0"/>
			<psa30 value="0.00116713637955804" flag="0"/>
		</comp>
	</station>
	<station code="LTK" name="LTK" netid="HP" source="University of Patras, Seismological Laboratory (PSLNET)" insttype="" lat="38.0228" lon="22.9673">
		<comp name="--.HNE" depth="0.0">
			<acc value="0.00129998342951093" flag="0"/>
			<vel value="0.00098609397841624" flag="0"/>
			<psa03 value="0.00308319122545187" flag="0"/>
			<psa10 value="0.00138397504092857" flag="0"/>
			<psa30 value="0.00022190553348606" flag="0"/>
		</comp>
		<comp name="--.HNN" depth="0.0">
			<acc value="0.000951192019480299" flag="0"/>
			<vel value="0.000834501742073428" flag="0"/>
			<psa03 value="0.00337874758846531" flag="0"/>
			<psa10 value="0.00177926036726549" flag="0"/>
			<psa30 value="0.000157215636118512" flag="0"/>
		</comp>
		<comp name="--.HNZ" depth="0.0">
			<acc value="0.000726485322569534" flag="0"/>
			<vel value="0.000738037692643301" flag="0"/>
			<psa03 value="0.00254644375450613" flag="0"/>
			<psa10 value="0.00122384388615256" flag="0"/>
			<psa30 value="0.000111031495916587" flag="0"/>
		</comp>
	</station>
	<station code="PDO" name="PDO" netid="HP" source="University of Patras, Seismological Laboratory (PSLNET)" insttype="" lat="38.5986" lon="21.1833">
		<comp name="--.HNE" depth="0.0">
			<acc value="0.0108246560129934" flag="0"/>
			<vel value="0.00679196051553376" flag="0"/>
			<psa03 value="0.0457838714985324" flag="0"/>
			<psa10 value="0.011434804687205" flag="0"/>
			<psa30 value="0.000748989564798268" flag="0"/>
		</comp>
		<comp name="--.HNN" depth="0.0">
			<acc value="0.0141814046347911" flag="0"/>
			<vel value="0.00911313393865925" flag="0"/>
			<psa03 value="0.0452163391106725" flag="0"/>
			<psa10 value="0.00790623906203389" flag="0"/>
			<psa30 value="0.000797150359381416" flag="0"/>
		</comp>
		<comp name="--.HNZ" depth="0.0">
			<acc value="0.00466112350424289" flag="0"/>
			<vel value="0.00346244789494889" flag="0"/>
			<psa03 value="0.0198735782457684" flag="0"/>
			<psa10 value="0.00401153293186852" flag="0"/>
			<psa30 value="0.000324293201583071" flag="0"/>
		</comp>
	</station>
	<station code="PVO" name="PVO" netid="HP" source="University of Patras, Seismological Laboratory (PSLNET)" insttype="" lat="38.616" lon="21.525">
		<comp name="--.HNE" depth="0.0">
			<acc value="0.00751055437486341" flag="0"/>
			<vel value="0.00486594394942586" flag="0"/>
			<psa03 value="0.0228848910116986" flag="0"/>
			<psa10 value="0.00710158435138034" flag="0"/>
			<psa30 value="0.000848156915399847" flag="0"/>
		</comp>
		<comp name="--.HNN" depth="0.0">
			<acc value="0.00754387622462547" flag="0"/>
			<vel value="0.00415220690607522" flag="0"/>
			<psa03 value="0.018688301810368" flag="0"/>
			<psa10 value="0.00795444288028892" flag="0"/>
			<psa30 value="0.000535878884761654" flag="0"/>
		</comp>
		<comp name="--.HNZ" depth="0.0">
			<acc value="0.00429740804970111" flag="0"/>
			<vel value="0.00296798017955173" flag="0"/>
			<psa03 value="0.0112218501633173" flag="0"/>
			<psa10 value="0.00470222837456271" flag="0"/>
			<psa30 value="0.000518990318062047" flag="0"/>
		</comp>
	</station>
	<station code="SERG" name="SERG" netid="HP" source="University of Patras, Seismological Laboratory (PSLNET)" insttype="" lat="38.4133" lon="22.0566">
		<comp name="--.HNE" depth="0.0">
			<acc value="0.013880305915679" flag="0"/>
			<vel value="0.010171176465425" flag="0"/>
			<psa03 value="0.0361774148053576" flag="0"/>
			<psa10 value="0.0206635726102824" flag="0"/>
			<psa30 value="0.000678700012629659" flag="0"/>
		</comp>
		<comp name="--.HNN" depth="0.0">
			<acc value="0.0133150147413113" flag="0"/>
			<vel value="0.00921057327803052" flag="0"/>
			<psa03 value="0.0303424267035339" flag="0"/>
			<psa10 value="0.00963314502356597" flag="0"/>
			<psa30 value="0.00076560212363501" flag="0"/>
		</comp>
		<comp name="--.HNZ" depth="0.0">
			<acc value="0.010829185290244" flag="0"/>
			<vel value="0.00815704006140407" flag="0"/>
			<psa03 value="0.0245107330907848" flag="0"/>
			<psa10 value="0.0129993548934661" flag="0"/>
			<psa30 value="0.000525859523112035" flag="0"/>
		</comp>
	</station>
</stationlist>
