<stationlist created="1778069997">
	<station code="MALA" name="MALA" netid="CL" source="Corinth Riff Laboratory (CRLNET)" insttype="" lat="38.39341" lon="21.87263">
		<comp name="01.HNE" depth="0.0">
			<acc value="1.13866391140515" flag="0"/>
			<vel value="2.3423907424932" flag="0"/>
			<psa03 value="1.76387201151213" flag="0"/>
			<psa10 value="4.7953131076232" flag="0"/>
			<psa30 value="0.603518676632544" flag="0"/>
		</comp>
		<comp name="01.HNN" depth="0.0">
			<acc value="1.01770339267978" flag="0"/>
			<vel value="1.4836062297665" flag="0"/>
			<psa03 value="1.56611145825937" flag="0"/>
			<psa10 value="4.60798643695382" flag="0"/>
			<psa30 value="0.368717392786714" flag="0"/>
		</comp>
		<comp name="01.HNZ" depth="0.0">
			<acc value="0.636046744741461" flag="0"/>
			<vel value="1.11672186479261" flag="0"/>
			<psa03 value="0.934664696255697" flag="0"/>
			<psa10 value="1.58255600887985" flag="0"/>
			<psa30 value="0.215482493872192" flag="0"/>
		</comp>
	</station>
	<station code="ROD3" name="ROD3" netid="CL" source="Corinth Riff Laboratory (CRLNET)" insttype="" lat="38.30811" lon="21.89204">
		<comp name="00.HNE" depth="0.0">
			<acc value="0.416317078134716" flag="0"/>
			<vel value="0.609637843124855" flag="0"/>
			<psa03 value="1.24727849389756" flag="0"/>
			<psa10 value="0.468139497535242" flag="0"/>
			<psa30 value="0.206378349669506" flag="0"/>
		</comp>
		<comp name="00.HNN" depth="0.0">
			<acc value="0.417252077411848" flag="0"/>
			<vel value="0.566576745071928" flag="0"/>
			<psa03 value="1.48365157146189" flag="0"/>
			<psa10 value="0.616905544852731" flag="0"/>
			<psa30 value="0.166288437695403" flag="0"/>
		</comp>
		<comp name="00.HNZ" depth="0.0">
			<acc value="0.140459444782682" flag="0"/>
			<vel value="0.323088245053481" flag="0"/>
			<psa03 value="0.276193641454592" flag="0"/>
			<psa10 value="0.422552110633951" flag="0"/>
			<psa30 value="0.0792277097913709" flag="0"/>
		</comp>
	</station>
	<station code="MMAA" name="MMAA" netid="EG" source="EUROSEISTEST Strong Motion Network" insttype="" lat="40.630855" lon="22.943725">
		<comp name="--.EN1" depth="0.0">
			<acc value="0.552783420714974" flag="0"/>
			<vel value="0.518897289842099" flag="0"/>
			<psa03 value="1.30915147486019" flag="0"/>
			<psa10 value="1.20271187376094" flag="0"/>
			<psa30 value="0.162500364851851" flag="0"/>
		</comp>
		<comp name="--.EN2" depth="0.0">
			<acc value="0.562307602714924" flag="0"/>
			<vel value="0.67961254570154" flag="0"/>
			<psa03 value="1.90723801182466" flag="0"/>
			<psa10 value="1.59553521637875" flag="0"/>
			<psa30 value="0.17841425906889" flag="0"/>
		</comp>
		<comp name="--.EN3" depth="0.0">
			<acc value="0.330353466835871" flag="0"/>
			<vel value="0.30063678613873" flag="0"/>
			<psa03 value="0.829759800846916" flag="0"/>
			<psa10 value="0.355261154307754" flag="0"/>
			<psa30 value="0.103974674478509" flag="0"/>
		</comp>
	</station>
	<station code="PRR" name="PRR" netid="EG" source="EUROSEISTEST Strong Motion Network" insttype="" lat="40.682635" lon="23.300668">
		<comp name="--.EN1" depth="0.0">
			<acc value="0.037847640495956" flag="0"/>
			<vel value="0.0484344626799332" flag="0"/>
			<psa03 value="0.127920432434244" flag="0"/>
			<psa10 value="0.0681613128523283" flag="0"/>
			<psa30 value="0.0189220918290702" flag="0"/>
		</comp>
		<comp name="--.EN2" depth="0.0">
			<acc value="0.134183803731837" flag="0"/>
			<vel value="0.142283266028437" flag="0"/>
			<psa03 value="0.365080518125826" flag="0"/>
			<psa10 value="0.23546693852897" flag="0"/>
			<psa30 value="0.0780314825359809" flag="0"/>
		</comp>
		<comp name="--.EN3" depth="0.0">
			<acc value="0.0797233720248447" flag="0"/>
			<vel value="0.199180494774819" flag="0"/>
			<psa03 value="0.212860163441057" flag="0"/>
			<psa10 value="0.128490771882913" flag="0"/>
			<psa30 value="0.139004835054797" flag="0"/>
		</comp>
	</station>
	<station code="SHTA" name="SHTA" netid="EG" source="EUROSEISTEST Strong Motion Network" insttype="" lat="40.613764" lon="22.952972">
		<comp name="--.EN1" depth="0.0">
			<acc value="0.522975580712517" flag="0"/>
			<vel value="0.750135277542666" flag="0"/>
			<psa03 value="1.45177483962464" flag="0"/>
			<psa10 value="1.37077652721716" flag="0"/>
			<psa30 value="0.487770552406794" flag="0"/>
		</comp>
		<comp name="--.EN2" depth="0.0">
			<acc value="0.558614623808953" flag="0"/>
			<vel value="0.664398765027958" flag="0"/>
			<psa03 value="1.44750172321749" flag="0"/>
			<psa10 value="0.807265997409668" flag="0"/>
			<psa30 value="0.237427995106325" flag="0"/>
		</comp>
		<comp name="--.EN3" depth="0.0">
			<acc value="0.289467262118558" flag="0"/>
			<vel value="0.385199168253833" flag="0"/>
			<psa03 value="0.584011187874513" flag="0"/>
			<psa10 value="0.739226590133347" flag="0"/>
			<psa30 value="0.144394885452601" flag="0"/>
		</comp>
	</station>
	<station code="STC" name="STC" netid="EG" source="EUROSEISTEST Strong Motion Network" insttype="" lat="40.64865" lon="23.304856">
		<comp name="--.EN1" depth="0.0">
			<acc value="0.670430504660853" flag="0"/>
			<vel value="0.671803246377656" flag="0"/>
			<psa03 value="2.48574783526037" flag="0"/>
			<psa10 value="0.898363492171417" flag="0"/>
			<psa30 value="0.113698625309383" flag="0"/>
		</comp>
		<comp name="--.EN2" depth="0.0">
			<acc value="0.448949539152242" flag="0"/>
			<vel value="0.436633995172292" flag="0"/>
			<psa03 value="1.51588892020043" flag="0"/>
			<psa10 value="0.53258148091128" flag="0"/>
			<psa30 value="0.104689281818006" flag="0"/>
		</comp>
		<comp name="--.EN3" depth="0.0">
			<acc value="0.279499770415006" flag="0"/>
			<vel value="0.368377640872498" flag="0"/>
			<psa03 value="0.686938881329944" flag="0"/>
			<psa10 value="0.448576065962738" flag="0"/>
			<psa30 value="0.141511561112959" flag="0"/>
		</comp>
	</station>
	<station code="TST" name="TST" netid="EG" source="EUROSEISTEST Strong Motion Network" insttype="" lat="40.6638" lon="23.2906">
		<comp name="00.EN1" depth="0.0">
			<acc value="0.413615642284248" flag="0"/>
			<vel value="0.544639004804814" flag="0"/>
			<psa03 value="0.78849006692868" flag="0"/>
			<psa10 value="0.68376245590699" flag="0"/>
			<psa30 value="0.101313924883667" flag="0"/>
		</comp>
		<comp name="00.EN2" depth="0.0">
			<acc value="0.148131399722213" flag="0"/>
			<vel value="0.266561465129294" flag="0"/>
			<psa03 value="0.376840380492648" flag="0"/>
			<psa10 value="0.30706347144816" flag="0"/>
			<psa30 value="0.121937944457202" flag="0"/>
		</comp>
		<comp name="00.EN3" depth="0.0">
			<acc value="0.45824707958248" flag="0"/>
			<vel value="0.668228223158814" flag="0"/>
			<psa03 value="1.04880047788542" flag="0"/>
			<psa10 value="0.983097985417472" flag="0"/>
			<psa30 value="0.105009763048124" flag="0"/>
		</comp>
	</station>
	<station code="AIGS" name="AIGS" netid="HA" source="Hellenic Seismological Network, University of Athens, Seismological Laboratory (HA)" insttype="" lat="38.25001" lon="22.0878">
		<comp name="--.HNE" depth="0.0">
			<acc value="0.275538292749298" flag="0"/>
			<vel value="0.48285848948852" flag="0"/>
			<psa03 value="0.55842748080265" flag="0"/>
			<psa10 value="0.310446037731209" flag="0"/>
			<psa30 value="0.24431168728461" flag="0"/>
		</comp>
		<comp name="--.HNN" depth="0.0">
			<acc value="0.281005382079604" flag="0"/>
			<vel value="0.630387614743733" flag="0"/>
			<psa03 value="0.774398112149048" flag="0"/>
			<psa10 value="0.5897528419223" flag="0"/>
			<psa30 value="0.272819631653508" flag="0"/>
		</comp>
		<comp name="--.HNZ" depth="0.0">
			<acc value="0.192623420814844" flag="0"/>
			<vel value="0.327516773607505" flag="0"/>
			<psa03 value="0.262726237262492" flag="0"/>
			<psa10 value="0.615157914262221" flag="0"/>
			<psa30 value="0.114198218484212" flag="0"/>
		</comp>
	</station>
	<station code="KIAS" name="KIAS" netid="HA" source="Hellenic Seismological Network, University of Athens, Seismological Laboratory (HA)" insttype="" lat="37.9875" lon="22.7543">
		<comp name="--.HNE" depth="0.0">
			<acc value="0.171315738608866" flag="0"/>
			<vel value="0.479621532317351" flag="0"/>
			<psa03 value="0.278162298545796" flag="0"/>
			<psa10 value="0.617956539286194" flag="0"/>
			<psa30 value="0.176358566138977" flag="0"/>
		</comp>
		<comp name="--.HNN" depth="0.0">
			<acc value="0.192001582286747" flag="0"/>
			<vel value="0.635052008145523" flag="0"/>
			<psa03 value="0.348228594110009" flag="0"/>
			<psa10 value="0.512039655824958" flag="0"/>
			<psa30 value="0.208758187639532" flag="0"/>
		</comp>
		<comp name="--.HNZ" depth="0.0">
			<acc value="0.0836766647886189" flag="0"/>
			<vel value="0.230084751696119" flag="0"/>
			<psa03 value="0.184964282159935" flag="0"/>
			<psa10 value="0.288197975490274" flag="0"/>
			<psa30 value="0.109166509927921" flag="0"/>
		</comp>
	</station>
	<station code="LTRS" name="LTRS" netid="HA" source="Hellenic Seismological Network, University of Athens, Seismological Laboratory (HA)" insttype="" lat="37.97528" lon="22.9765">
		<comp name="--.HNE" depth="0.0">
			<acc value="0.185167989302562" flag="0"/>
			<vel value="0.421323363229564" flag="0"/>
			<psa03 value="0.344738701993784" flag="0"/>
			<psa10 value="0.790565261088494" flag="0"/>
			<psa30 value="0.111089977390441" flag="0"/>
		</comp>
		<comp name="--.HNN" depth="0.0">
			<acc value="0.155868453644677" flag="0"/>
			<vel value="0.423329342836457" flag="0"/>
			<psa03 value="0.334626963298055" flag="0"/>
			<psa10 value="0.412593837706922" flag="0"/>
			<psa30 value="0.0843350326768466" flag="0"/>
		</comp>
		<comp name="--.HNZ" depth="0.0">
			<acc value="0.101368737248975" flag="0"/>
			<vel value="0.243477483933432" flag="0"/>
			<psa03 value="0.235388749018728" flag="0"/>
			<psa10 value="0.312225882710484" flag="0"/>
			<psa30 value="0.042825450486745" flag="0"/>
		</comp>
	</station>
	<station code="XLKS" name="XLKS" netid="HA" source="Hellenic Seismological Network, University of Athens, Seismological Laboratory (HA)" insttype="" lat="38.0772" lon="22.6361">
		<comp name="--.HNE" depth="0.0">
			<acc value="0.42389971081077" flag="0"/>
			<vel value="0.72048283314677" flag="0"/>
			<psa03 value="0.595742481122288" flag="0"/>
			<psa10 value="1.40893656063004" flag="0"/>
			<psa30 value="0.384687228594974" flag="0"/>
		</comp>
		<comp name="--.HNN" depth="0.0">
			<acc value="0.365815090666355" flag="0"/>
			<vel value="0.637846102187978" flag="0"/>
			<psa03 value="0.829117830843194" flag="0"/>
			<psa10 value="0.756015329137864" flag="0"/>
			<psa30 value="0.22820941454476" flag="0"/>
		</comp>
		<comp name="--.HNZ" depth="0.0">
			<acc value="0.165256244797068" flag="0"/>
			<vel value="0.394859445261114" flag="0"/>
			<psa03 value="0.581335490591205" flag="0"/>
			<psa10 value="0.336519558638007" flag="0"/>
			<psa30 value="0.141998788566475" flag="0"/>
		</comp>
	</station>
	<station code="ARS1" name="ARS1" netid="HI" source="ITSAK Strong Motion Network" insttype="" lat="37.6349" lon="22.7293">
		<comp name="--.HNE" depth="0.0">
			<acc value="0.113585527580886" flag="0"/>
			<vel value="0.296853845055489" flag="0"/>
			<psa03 value="0.175210481117152" flag="0"/>
			<psa10 value="0.269505576409292" flag="0"/>
			<psa30 value="0.0756827847610052" flag="0"/>
		</comp>
		<comp name="--.HNN" depth="0.0">
			<acc value="0.117799794638574" flag="0"/>
			<vel value="0.237510335692057" flag="0"/>
			<psa03 value="0.238296992448915" flag="0"/>
			<psa10 value="0.250297747108068" flag="0"/>
			<psa30 value="0.108427816096654" flag="0"/>
		</comp>
		<comp name="--.HNZ" depth="0.0">
			<acc value="0.0458585503335818" flag="0"/>
			<vel value="0.142132298299399" flag="0"/>
			<psa03 value="0.110065828280949" flag="0"/>
			<psa10 value="0.069687776496223" flag="0"/>
			<psa30 value="0.0470585106548997" flag="0"/>
		</comp>
	</station>
	<station code="ART2" name="ART2" netid="HI" source="ITSAK Strong Motion Network" insttype="" lat="39.1474" lon="20.9937">
		<comp name="--.HNE" depth="0.0">
			<acc value="0.149462167927252" flag="0"/>
			<vel value="0.372608763725291" flag="0"/>
			<psa03 value="0.387646478140707" flag="0"/>
			<psa10 value="0.228702026239627" flag="0"/>
			<psa30 value="0.29317509855449" flag="0"/>
		</comp>
		<comp name="--.HNN" depth="0.0">
			<acc value="0.157265133679713" flag="0"/>
			<vel value="0.388661568434664" flag="0"/>
			<psa03 value="0.38782544696718" flag="0"/>
			<psa10 value="0.216718273618989" flag="0"/>
			<psa30 value="0.248048108959301" flag="0"/>
		</comp>
		<comp name="--.HNZ" depth="0.0">
			<acc value="0.113715967250474" flag="0"/>
			<vel value="0.403180899389122" flag="0"/>
			<psa03 value="0.210333113312496" flag="0"/>
			<psa10 value="0.202998970803628" flag="0"/>
			<psa30 value="0.128546596724626" flag="0"/>
		</comp>
	</station>
	<station code="DRA2" name="DRA2" netid="HI" source="ITSAK Strong Motion Network" insttype="" lat="41.1593" lon="24.1485">
		<comp name="--.HNE" depth="0.0">
			<acc value="0.0772373484765593" flag="0"/>
			<vel value="0.108923742615527" flag="0"/>
			<psa03 value="0.242726470904124" flag="0"/>
			<psa10 value="0.10843765938211" flag="0"/>
			<psa30 value="0.0378107439689691" flag="0"/>
		</comp>
		<comp name="--.HNN" depth="0.0">
			<acc value="0.0803090266040002" flag="0"/>
			<vel value="0.0976819907890211" flag="0"/>
			<psa03 value="0.200579312269712" flag="0"/>
			<psa10 value="0.180118701183177" flag="0"/>
			<psa30 value="0.0544857169535328" flag="0"/>
		</comp>
		<comp name="--.HNZ" depth="0.0">
			<acc value="0.0471487565296591" flag="0"/>
			<vel value="0.106163873544961" flag="0"/>
			<psa03 value="0.0774935018628467" flag="0"/>
			<psa10 value="0.0908969246994823" flag="0"/>
			<psa30 value="0.0496110535424721" flag="0"/>
		</comp>
	</station>
	<station code="KLV1" name="KLV1" netid="HI" source="ITSAK Strong Motion Network" insttype="" lat="38.03256" lon="22.10797">
		<comp name="--.HNE" depth="0.0">
			<acc value="0.216683281214681" flag="0"/>
			<vel value="0.413243952248478" flag="0"/>
			<psa03 value="0.66741949612476" flag="0"/>
			<psa10 value="0.598648040020079" flag="0"/>
			<psa30 value="0.0765901567112238" flag="0"/>
		</comp>
		<comp name="--.HNN" depth="0.0">
			<acc value="0.232305229943759" flag="0"/>
			<vel value="0.208221249027158" flag="0"/>
			<psa03 value="0.757888237906905" flag="0"/>
			<psa10 value="0.552428445739272" flag="0"/>
			<psa30 value="0.0753082924916103" flag="0"/>
		</comp>
		<comp name="--.HNZ" depth="0.0">
			<acc value="0.128270670185567" flag="0"/>
			<vel value="0.209720702291015" flag="0"/>
			<psa03 value="0.259683767212449" flag="0"/>
			<psa10 value="0.244736738247483" flag="0"/>
			<psa30 value="0.036642524954166" flag="0"/>
		</comp>
	</station>
	<station code="KRK1" name="KRK1" netid="HI" source="ITSAK Strong Motion Network" insttype="" lat="39.618861" lon="19.9202">
		<comp name="--.HNE" depth="0.0">
			<acc value="0.397439702570405" flag="0"/>
			<vel value="0.416760002108847" flag="0"/>
			<psa03 value="0.837305654654338" flag="0"/>
			<psa10 value="0.338122224479074" flag="0"/>
			<psa30 value="0.220264093493487" flag="0"/>
		</comp>
		<comp name="--.HNN" depth="0.0">
			<acc value="0.456184944337079" flag="0"/>
			<vel value="0.480490968123372" flag="0"/>
			<psa03 value="1.08222449368276" flag="0"/>
			<psa10 value="0.361030681689695" flag="0"/>
			<psa30 value="0.131889734403143" flag="0"/>
		</comp>
		<comp name="--.HNZ" depth="0.0">
			<acc value="0.171165221103909" flag="0"/>
			<vel value="0.26221530875945" flag="0"/>
			<psa03 value="0.536638026179551" flag="0"/>
			<psa10 value="0.168283940110578" flag="0"/>
			<psa30 value="0.150204509260266" flag="0"/>
		</comp>
	</station>
	<station code="LAM2" name="LAM2" netid="HI" source="ITSAK Strong Motion Network" insttype="" lat="38.90203" lon="22.431301">
		<comp name="--.HNE" depth="0.0">
			<acc value="0.686189370080141" flag="0"/>
			<vel value="1.05077518076603" flag="0"/>
			<psa03 value="1.71474506864526" flag="0"/>
			<psa10 value="0.587630719062396" flag="0"/>
			<psa30 value="0.237977533093661" flag="0"/>
		</comp>
		<comp name="--.HNN" depth="0.0">
			<acc value="0.718292373482212" flag="0"/>
			<vel value="0.892325382096162" flag="0"/>
			<psa03 value="1.3678587407338" flag="0"/>
			<psa10 value="0.870585802781141" flag="0"/>
			<psa30 value="0.353044197808334" flag="0"/>
		</comp>
		<comp name="--.HNZ" depth="0.0">
			<acc value="0.421146307847411" flag="0"/>
			<vel value="0.655957939725935" flag="0"/>
			<psa03 value="1.076452749029" flag="0"/>
			<psa10 value="0.860522833090625" flag="0"/>
			<psa30 value="0.327292820789187" flag="0"/>
		</comp>
	</station>
	<station code="LMS2" name="LMS2" netid="HI" source="ITSAK Strong Motion Network" insttype="" lat="40.834985" lon="21.141815">
		<comp name="--.HNE" depth="0.0">
			<acc value="0.194449946845121" flag="0"/>
			<vel value="0.256050546947514" flag="0"/>
			<psa03 value="0.517488361746931" flag="0"/>
			<psa10 value="0.261902980660716" flag="0"/>
			<psa30 value="0.0825099980688873" flag="0"/>
		</comp>
		<comp name="--.HNN" depth="0.0">
			<acc value="0.209548407605809" flag="0"/>
			<vel value="0.297249875005473" flag="0"/>
			<psa03 value="0.483618511336899" flag="0"/>
			<psa10 value="0.337453775912197" flag="0"/>
			<psa30 value="0.0985894522833618" flag="0"/>
		</comp>
		<comp name="--.HNZ" depth="0.0">
			<acc value="0.158681264033729" flag="0"/>
			<vel value="0.320235107816202" flag="0"/>
			<psa03 value="0.368720524741178" flag="0"/>
			<psa10 value="0.3312565328735" flag="0"/>
			<psa30 value="0.172015440142541" flag="0"/>
		</comp>
	</station>
	<station code="MSL1" name="MSL1" netid="HI" source="ITSAK Strong Motion Network" insttype="" lat="38.3727" lon="21.4243">
		<comp name="--.HNE" depth="0.0">
			<acc value="0.783526813965622" flag="0"/>
			<vel value="1.27704993119278" flag="0"/>
			<psa03 value="1.28884400384594" flag="0"/>
			<psa10 value="2.69812015782421" flag="0"/>
			<psa30 value="0.271714946572102" flag="0"/>
		</comp>
		<comp name="--.HNN" depth="0.0">
			<acc value="0.659990840053857" flag="0"/>
			<vel value="1.13987131540738" flag="0"/>
			<psa03 value="0.986073491660091" flag="0"/>
			<psa10 value="2.31240922754181" flag="0"/>
			<psa30 value="0.236943540698713" flag="0"/>
		</comp>
		<comp name="--.HNZ" depth="0.0">
			<acc value="0.332935878367889" flag="0"/>
			<vel value="0.732424933786202" flag="0"/>
			<psa03 value="0.596861036287745" flag="0"/>
			<psa10 value="0.972826219124553" flag="0"/>
			<psa30 value="0.112784812177141" flag="0"/>
		</comp>
	</station>
	<station code="SKO1" name="SKO1" netid="HI" source="ITSAK Strong Motion Network" insttype="" lat="39.123383" lon="23.728705">
		<comp name="--.HNE" depth="0.0">
			<acc value="0.205177518055999" flag="0"/>
			<vel value="0.245047261631749" flag="0"/>
			<psa03 value="0.586257133319215" flag="0"/>
			<psa10 value="0.260046626508123" flag="0"/>
			<psa30 value="0.0746022604711739" flag="0"/>
		</comp>
		<comp name="--.HNN" depth="0.0">
			<acc value="0.152715704185613" flag="0"/>
			<vel value="0.232672799014919" flag="0"/>
			<psa03 value="0.328586765404588" flag="0"/>
			<psa10 value="0.323492865181098" flag="0"/>
			<psa30 value="0.0454164716720091" flag="0"/>
		</comp>
		<comp name="--.HNZ" depth="0.0">
			<acc value="0.170169892366793" flag="0"/>
			<vel value="0.155248984475587" flag="0"/>
			<psa03 value="0.395476364298904" flag="0"/>
			<psa10 value="0.185772326411461" flag="0"/>
			<psa30 value="0.0589169850970064" flag="0"/>
		</comp>
	</station>
	<station code="SKY1" name="SKY1" netid="HI" source="ITSAK Strong Motion Network" insttype="" lat="38.904483" lon="24.564572">
		<comp name="--.HNE" depth="0.0">
			<acc value="0.065898272873133" flag="0"/>
			<vel value="0.0997624390563076" flag="0"/>
			<psa03 value="0.134853010747471" flag="0"/>
			<psa10 value="0.0877681021906666" flag="0"/>
			<psa30 value="0.0387503303079528" flag="0"/>
		</comp>
		<comp name="--.HNN" depth="0.0">
