<?xml version="1.0" encoding="UTF-8" standalone="yes"?>
<!DOCTYPE earthquake SYSTEM "stationlist.dtd">
<stationlist created="" xmlns="ch.ethz.sed.shakemap.usgs.xml">
  <station code="KBN" name="KBN" netid="AC" insttype="" lat="40.6236" lon="20.7874">
    <comp name="--.HHE">
      <acc value="0.1358815896" flag="0"/>
      <vel value="0.3347169647" flag="0"/>
      <psa03 value="0.3096743738" flag="0"/>
      <psa10 value="0.2791997442" flag="0"/>
      <psa30 value="0.1095143745" flag="0"/>
    </comp>
    <comp name="--.HHN">
      <acc value="1.3463366764" flag="0"/>
      <vel value="0.4957118294" flag="0"/>
      <psa03 value="0.4593588038" flag="0"/>
      <psa10 value="0.8357298322" flag="0"/>
      <psa30 value="0.1985088565" flag="0"/>
    </comp>
    <comp name="--.HHZ">
      <acc value="0.1634268168" flag="0"/>
      <vel value="0.3385181485" flag="0"/>
      <psa03 value="0.2405943141" flag="0"/>
      <psa10 value="0.3348878804" flag="0"/>
      <psa30 value="0.2185976310" flag="0"/>
    </comp>
  </station>
  <station code="ACOR" name="ACOR" netid="HA" insttype="30" lat="37.8902" lon="22.8692">
    <comp name="--.HHN">
      <acc value="0.1757105097" flag="0"/>
      <vel value="0.5481662115" flag="0"/>
      <psa03 value="0.2926664392" flag="0"/>
      <psa10 value="0.6262680324" flag="0"/>
      <psa30 value="0.2930715883" flag="0"/>
    </comp>
    <comp name="--.HHZ">
      <acc value="0.0365337185" flag="0"/>
      <vel value="0.0924512785" flag="0"/>
      <psa03 value="0.0538393775" flag="0"/>
      <psa10 value="0.1117730516" flag="0"/>
      <psa30 value="0.0483506570" flag="0"/>
    </comp>
    <comp name="--.HHE">
      <acc value="0.0548613753" flag="0"/>
      <vel value="0.1200650912" flag="0"/>
      <psa03 value="0.0925940314" flag="0"/>
      <psa10 value="0.1534571503" flag="0"/>
      <psa30 value="0.0562390936" flag="0"/>
    </comp>
  </station>
  <station code="KALE" name="KALE" netid="HA" insttype="40," lat="38.3911" lon="22.1398">
    <comp name="--.HHN">
      <acc value="0.7800459081" flag="0"/>
      <vel value="0.5165391122" flag="0"/>
      <psa03 value="0.7049594457" flag="0"/>
      <psa10 value="0.9961421380" flag="0"/>
      <psa30 value="0.2105357759" flag="0"/>
    </comp>
    <comp name="--.HHE">
      <acc value="0.4049398657" flag="0"/>
      <vel value="0.4780252366" flag="0"/>
      <psa03 value="0.9495462045" flag="0"/>
      <psa10 value="0.9407813992" flag="0"/>
      <psa30 value="0.0851483930" flag="0"/>
    </comp>
    <comp name="--.HHZ">
      <acc value="0.6011216027" flag="0"/>
      <vel value="0.5539955285" flag="0"/>
      <psa03 value="0.4495403063" flag="0"/>
      <psa10 value="0.5161757106" flag="0"/>
      <psa30 value="0.1200769732" flag="0"/>
    </comp>
  </station>
  <station code="LAKA" name="LAKA" netid="HA" insttype="120s" lat="38.2401" lon="21.9785">
    <comp name="--.HHE">
      <acc value="0.0775598484" flag="0"/>
      <vel value="0.3205595933" flag="0"/>
      <psa03 value="0.1667500351" flag="0"/>
      <psa10 value="0.2142600083" flag="0"/>
      <psa30 value="0.1292580881" flag="0"/>
    </comp>
    <comp name="--.HHZ">
      <acc value="0.1028124366" flag="0"/>
      <vel value="0.2549224976" flag="0"/>
      <psa03 value="0.2077327656" flag="0"/>
      <psa10 value="0.2723609542" flag="0"/>
      <psa30 value="0.1060075891" flag="0"/>
    </comp>
    <comp name="--.HHN">
      <acc value="0.1168776127" flag="0"/>
      <vel value="0.3256918070" flag="0"/>
      <psa03 value="0.1712610850" flag="0"/>
      <psa10 value="0.2514759915" flag="0"/>
      <psa30 value="0.1599239726" flag="0"/>
    </comp>
  </station>
  <station code="STFN" name="STFN" netid="HA" insttype="1s-100Hz," lat="38.1766" lon="23.544">
    <comp name="--.HHZ">
      <acc value="0.0431307377" flag="0"/>
      <vel value="0.0628642041" flag="0"/>
      <psa03 value="0.0893250458" flag="0"/>
      <psa10 value="0.1430127194" flag="0"/>
      <psa30 value="0.0430472148" flag="0"/>
    </comp>
    <comp name="--.HHN">
      <acc value="0.0779453078" flag="0"/>
      <vel value="0.1192782860" flag="0"/>
      <psa03 value="0.1135389324" flag="0"/>
      <psa10 value="0.1355888837" flag="0"/>
      <psa30 value="0.0336900922" flag="0"/>
    </comp>
    <comp name="--.HHE">
      <acc value="0.0691374035" flag="0"/>
      <vel value="0.1140569902" flag="0"/>
      <psa03 value="0.1350725924" flag="0"/>
      <psa10 value="0.2382019999" flag="0"/>
      <psa30 value="0.0386315069" flag="0"/>
    </comp>
  </station>
  <station code="THAL" name="THAL" netid="HA" insttype="30" lat="38.0357" lon="22.6634">
    <comp name="--.HHE">
      <acc value="0.1903049586" flag="0"/>
      <vel value="0.2434817796" flag="0"/>
      <psa03 value="0.7392646703" flag="0"/>
      <psa10 value="0.4737179552" flag="0"/>
      <psa30 value="0.1380096470" flag="0"/>
    </comp>
    <comp name="--.HHZ">
      <acc value="0.0935045553" flag="0"/>
      <vel value="0.1398539561" flag="0"/>
      <psa03 value="0.3175301836" flag="0"/>
      <psa10 value="0.3095145334" flag="0"/>
      <psa30 value="0.0712239844" flag="0"/>
    </comp>
    <comp name="--.HHN">
      <acc value="0.1670584530" flag="0"/>
      <vel value="0.3310219819" flag="0"/>
      <psa03 value="0.4427694591" flag="0"/>
      <psa10 value="0.5188852237" flag="0"/>
      <psa30 value="0.0980178177" flag="0"/>
    </comp>
  </station>
  <station code="VILL" name="VILL" netid="HA" insttype="30" lat="38.1642" lon="23.3122">
    <comp name="--.HHE">
      <acc value="0.0969237678" flag="0"/>
      <vel value="0.2108874750" flag="0"/>
      <psa03 value="0.1876115999" flag="0"/>
      <psa10 value="0.2933310897" flag="0"/>
      <psa30 value="0.0820664956" flag="0"/>
    </comp>
    <comp name="--.HHZ">
      <acc value="0.0430629571" flag="0"/>
      <vel value="0.0889913322" flag="0"/>
      <psa03 value="0.0894754701" flag="0"/>
      <psa10 value="0.1654288310" flag="0"/>
      <psa30 value="0.0433611869" flag="0"/>
    </comp>
    <comp name="--.HHN">
      <acc value="0.0898690740" flag="0"/>
      <vel value="0.1289270099" flag="0"/>
      <psa03 value="0.1160976732" flag="0"/>
      <psa10 value="0.2840804908" flag="0"/>
      <psa30 value="0.0431814740" flag="0"/>
    </comp>
  </station>
  <station code="ART2" name="ART2" netid="HI" insttype="CMG-5TD,ACCELEROMETER,GURALP" lat="39.1474" lon="20.9937">
    <comp name="--.HNN">
      <acc value="0.1577035846" flag="0"/>
      <vel value="0.3416750996" flag="0"/>
      <psa03 value="0.3776601259" flag="0"/>
      <psa10 value="0.2062740515" flag="0"/>
      <psa30 value="0.2446827995" flag="0"/>
    </comp>
    <comp name="--.HNE">
      <acc value="0.1408108318" flag="0"/>
      <vel value="0.3008454497" flag="0"/>
      <psa03 value="0.3730420208" flag="0"/>
      <psa10 value="0.2169934779" flag="0"/>
      <psa30 value="0.2907638507" flag="0"/>
    </comp>
    <comp name="--.HNZ">
      <acc value="0.1119643065" flag="0"/>
      <vel value="0.1751473414" flag="0"/>
      <psa03 value="0.2121293525" flag="0"/>
      <psa10 value="0.1908889082" flag="0"/>
      <psa30 value="0.1240636531" flag="0"/>
    </comp>
  </station>
  <station code="KLV1" name="KLV1" netid="HI" insttype="CMG-5TD,ACCELEROMETER,GURALP" lat="38.0326" lon="22.108">
    <comp name="--.HNN">
      <acc value="0.2321277661" flag="0"/>
      <vel value="0.2047688636" flag="0"/>
      <psa03 value="0.7724211413" flag="0"/>
      <psa10 value="0.5509360051" flag="0"/>
      <psa30 value="0.0702915769" flag="0"/>
    </comp>
    <comp name="--.HNZ">
      <acc value="0.1263908174" flag="0"/>
      <vel value="0.1824241037" flag="0"/>
      <psa03 value="0.2622447230" flag="0"/>
      <psa10 value="0.2418438212" flag="0"/>
      <psa30 value="0.0343517729" flag="0"/>
    </comp>
    <comp name="--.HNE">
      <acc value="0.2194432568" flag="0"/>
      <vel value="0.3217614418" flag="0"/>
      <psa03 value="0.6663107856" flag="0"/>
      <psa10 value="0.5999819695" flag="0"/>
      <psa30 value="0.0687169383" flag="0"/>
    </comp>
  </station>
  <station code="LAM2" name="LAM2" netid="HI" insttype="CMG-5TD,ACCELEROMETER,GURALP" lat="38.902" lon="22.4313">
    <comp name="--.HNZ">
      <acc value="0.4127553047" flag="0"/>
      <vel value="0.4809809412" flag="0"/>
      <psa03 value="1.0594824900" flag="0"/>
      <psa10 value="0.8475246039" flag="0"/>
      <psa30 value="0.3198116288" flag="0"/>
    </comp>
    <comp name="--.HNN">
      <acc value="0.7305318546" flag="0"/>
      <vel value="0.7427925293" flag="0"/>
      <psa03 value="1.3609253560" flag="0"/>
      <psa10 value="0.8927816943" flag="0"/>
      <psa30 value="0.3504195650" flag="0"/>
    </comp>
    <comp name="--.HNE">
      <acc value="0.6656844926" flag="0"/>
      <vel value="0.7608444175" flag="0"/>
      <psa03 value="1.7509905346" flag="0"/>
      <psa10 value="0.6055157117" flag="0"/>
      <psa30 value="0.2329661920" flag="0"/>
    </comp>
  </station>
  <station code="LMS2" name="LMS2" netid="HI" insttype="CMG-5TD,ACCELEROMETER,GURALP" lat="40.835" lon="21.1418">
    <comp name="--.HNE">
      <acc value="0.1896104749" flag="0"/>
      <vel value="0.2303147756" flag="0"/>
      <psa03 value="0.5103535071" flag="0"/>
      <psa10 value="0.2629638398" flag="0"/>
      <psa30 value="0.0823975276" flag="0"/>
    </comp>
    <comp name="--.HNN">
      <acc value="0.2114871385" flag="0"/>
      <vel value="0.2422762421" flag="0"/>
      <psa03 value="0.4863080176" flag="0"/>
      <psa10 value="0.3373039720" flag="0"/>
      <psa30 value="0.0946450828" flag="0"/>
    </comp>
    <comp name="--.HNZ">
      <acc value="0.1534158541" flag="0"/>
      <vel value="0.2779601385" flag="0"/>
      <psa03 value="0.3668503074" flag="0"/>
      <psa10 value="0.3313560305" flag="0"/>
      <psa30 value="0.1698498874" flag="0"/>
    </comp>
  </station>
  <station code="VOL2" name="VOL2" netid="HI" insttype="CMG-5TD,ACCELEROMETER,GURALP" lat="39.366" lon="22.9506">
    <comp name="--.HNZ">
      <acc value="0.4364188283" flag="0"/>
      <vel value="0.3038696724" flag="0"/>
      <psa03 value="1.2092456695" flag="0"/>
      <psa10 value="0.3881421772" flag="0"/>
      <psa30 value="0.1527776128" flag="0"/>
    </comp>
    <comp name="--.HNN">
      <acc value="0.9169378948" flag="0"/>
      <vel value="0.7271753723" flag="0"/>
      <psa03 value="2.9838182974" flag="0"/>
      <psa10 value="0.9781850111" flag="0"/>
      <psa30 value="0.1326597963" flag="0"/>
    </comp>
    <comp name="--.HNE">
      <acc value="1.1904085430" flag="0"/>
      <vel value="0.9038513832" flag="0"/>
      <psa03 value="2.4891639006" flag="0"/>
      <psa10 value="0.9070725243" flag="0"/>
      <psa30 value="0.1321211402" flag="0"/>
    </comp>
  </station>
  <station code="DLFA" name="DLFA" netid="HL" insttype="CMG-5" lat="38.4784" lon="22.4958">
    <comp name="00.HNE">
      <acc value="0.3204829492" flag="0"/>
      <vel value="0.3666320510" flag="0"/>
      <psa03 value="0.5531752602" flag="0"/>
      <psa10 value="0.7195981203" flag="0"/>
      <psa30 value="0.1020997840" flag="0"/>
    </comp>
    <comp name="00.HNN">
      <acc value="0.2622675370" flag="0"/>
      <vel value="0.4167362333" flag="0"/>
      <psa03 value="0.4401424972" flag="0"/>
      <psa10 value="0.9363844829" flag="0"/>
      <psa30 value="0.0757744268" flag="0"/>
    </comp>
    <comp name="00.HNZ">
      <acc value="0.2223797556" flag="0"/>
      <vel value="0.4396450043" flag="0"/>
      <psa03 value="0.3765519021" flag="0"/>
      <psa10 value="0.6757332221" flag="0"/>
      <psa30 value="0.1201327673" flag="0"/>
    </comp>
  </station>
  <station code="EVR" name="EVR" netid="HL" insttype="DR24" lat="38.9166" lon="21.8105">
    <comp name="--.HHN">
      <acc value="0.7197616357" flag="0"/>
      <vel value="0.6606550046" flag="0"/>
      <psa03 value="1.4933731205" flag="0"/>
      <psa10 value="0.6812517296" flag="0"/>
      <psa30 value="0.2345774479" flag="0"/>
    </comp>
    <comp name="--.HHE">
      <acc value="0.5591631279" flag="0"/>
      <vel value="0.6901115200" flag="0"/>
      <psa03 value="1.1767795747" flag="0"/>
      <psa10 value="0.9989184037" flag="0"/>
      <psa30 value="0.3474049016" flag="0"/>
    </comp>
    <comp name="--.HHZ">
      <acc value="0.4922306896" flag="0"/>
      <vel value="0.7468067252" flag="0"/>
      <psa03 value="1.4139871127" flag="0"/>
      <psa10 value="0.9746281993" flag="0"/>
      <psa30 value="0.3057780844" flag="0"/>
    </comp>
  </station>
  <station code="JAN" name="JAN" netid="HL" insttype="CMG3EPSC60_DR24" lat="39.6562" lon="20.8487">
    <comp name="--.HHE">
      <acc value="0.3208161307" flag="0"/>
      <vel value="0.6079107691" flag="0"/>
      <psa03 value="0.8988389354" flag="0"/>
      <psa10 value="0.3557276529" flag="0"/>
      <psa30 value="0.5115254178" flag="0"/>
    </comp>
    <comp name="--.HHZ">
      <acc value="0.2094675143" flag="0"/>
      <vel value="0.4883249337" flag="0"/>
      <psa03 value="0.3902371842" flag="0"/>
      <psa10 value="0.2168563708" flag="0"/>
      <psa30 value="0.4360035650" flag="0"/>
    </comp>
    <comp name="--.HHN">
      <acc value="0.3011743280" flag="0"/>
      <vel value="0.4107070175" flag="0"/>
      <psa03 value="0.7585854293" flag="0"/>
      <psa10 value="0.3273701149" flag="0"/>
      <psa30 value="0.2433886663" flag="0"/>
    </comp>
  </station>
  <station code="KLV" name="KLV" netid="HL" insttype="120" lat="38.0435" lon="22.1504">
    <comp name="--.HHZ">
      <acc value="0.0714929140" flag="0"/>
      <vel value="0.1051385912" flag="0"/>
      <psa03 value="0.1162068149" flag="0"/>
      <psa10 value="0.1989151905" flag="0"/>
      <psa30 value="0.0440394604" flag="0"/>
    </comp>
    <comp name="--.HHE">
      <acc value="0.0829243319" flag="0"/>
      <vel value="0.1424154507" flag="0"/>
      <psa03 value="0.1422163482" flag="0"/>
      <psa10 value="0.2358845949" flag="0"/>
      <psa30 value="0.0398799772" flag="0"/>
    </comp>
    <comp name="--.HHN">
      <acc value="0.0691433797" flag="0"/>
      <vel value="0.1313881369" flag="0"/>
      <psa03 value="0.1316389484" flag="0"/>
      <psa10 value="0.2072831254" flag="0"/>
      <psa30 value="0.0500568927" flag="0"/>
    </comp>
  </station>
  <station code="KYMI" name="KYMI" netid="HL" insttype="60" lat="38.6331" lon="24.1001">
    <comp name="--.HHE">
      <acc value="0.0421124649" flag="0"/>
      <vel value="0.0848769871" flag="0"/>
      <psa03 value="0.0776500009" flag="0"/>
      <psa10 value="0.0702760736" flag="0"/>
      <psa30 value="0.0456564370" flag="0"/>
    </comp>
    <comp name="--.HHN">
      <acc value="0.0407459919" flag="0"/>
      <vel value="0.1073333467" flag="0"/>
      <psa03 value="0.0654319823" flag="0"/>
      <psa10 value="0.1168604466" flag="0"/>
      <psa30 value="0.0398022522" flag="0"/>
    </comp>
    <comp name="--.HHZ">
      <acc value="0.0244237421" flag="0"/>
      <vel value="0.0678759136" flag="0"/>
      <psa03 value="0.0666987242" flag="0"/>
      <psa10 value="0.0662181579" flag="0"/>
      <psa30 value="0.0268545632" flag="0"/>
    </comp>
  </station>
  <station code="KZN" name="KZN" netid="HL" insttype="120" lat="40.3033" lon="21.7821">
    <comp name="--.HHE">
      <acc value="1.6262998231" flag="0"/>
      <vel value="0.9131506009" flag="0"/>
      <psa03 value="5.0042856616" flag="0"/>
      <psa10 value="1.2875755458" flag="0"/>
      <psa30 value="0.1080520162" flag="0"/>
    </comp>
    <comp name="--.HHZ">
      <acc value="0.4943178888" flag="0"/>
      <vel value="0.8836902868" flag="0"/>
      <psa03 value="1.4189016445" flag="0"/>
      <psa10 value="0.7978722378" flag="0"/>
      <psa30 value="0.3498883498" flag="0"/>
    </comp>
    <comp name="--.HHN">
      <acc value="1.0502501014" flag="0"/>
      <vel value="0.8311036539" flag="0"/>
      <psa03 value="2.9149844577" flag="0"/>
      <psa10 value="0.8668254143" flag="0"/>
      <psa30 value="0.3959428535" flag="0"/>
    </comp>
  </station>
  <station code="LKR" name="LKR" netid="HL" insttype="30" lat="38.6496" lon="22.9989">
    <comp name="--.HHZ">
      <acc value="0.0687087187" flag="0"/>
      <vel value="0.1453873664" flag="0"/>
      <psa03 value="0.1361064739" flag="0"/>
      <psa10 value="0.1515943088" flag="0"/>
      <psa30 value="0.0818352991" flag="0"/>
    </comp>
    <comp name="--.HHN">
      <acc value="0.1036926359" flag="0"/>
      <vel value="0.2096660210" flag="0"/>
      <psa03 value="0.2499655070" flag="0"/>
      <psa10 value="0.1652186063" flag="0"/>
      <psa30 value="0.0706630848" flag="0"/>
    </comp>
    <comp name="--.HHE">
      <acc value="0.1038971289" flag="0"/>
      <vel value="0.1393934657" flag="0"/>
      <psa03 value="0.2695175612" flag="0"/>
      <psa10 value="0.1221219792" flag="0"/>
      <psa30 value="0.0566601817" flag="0"/>
    </comp>
  </station>
  <station code="NEO" name="NEO" netid="HL" insttype="120" lat="39.3057" lon="23.2219">
    <comp name="--.HHE">
      <acc value="0.8089333127" flag="0"/>
      <vel value="1.0135321175" flag="0"/>
      <psa03 value="2.1716590511" flag="0"/>
      <psa10 value="1.0493324840" flag="0"/>
      <psa30 value="0.0939500093" flag="0"/>
    </comp>
    <comp name="--.HHN">
      <acc value="0.7617176065" flag="0"/>
      <vel value="0.8377622211" flag="0"/>
      <psa03 value="2.2462954467" flag="0"/>
      <psa10 value="1.3230381495" flag="0"/>
      <psa30 value="0.1517193855" flag="0"/>
    </comp>
    <comp name="--.HHZ">
      <acc value="0.3611118187" flag="0"/>
      <vel value="0.4826085743" flag="0"/>
      <psa03 value="0.7487053906" flag="0"/>
      <psa10 value="0.5000694414" flag="0"/>
      <psa30 value="0.1517672612" flag="0"/>
    </comp>
  </station>
  <station code="PENT" name="PENT" netid="HL" insttype="30" lat="40.1959" lon="21.1384">
    <comp name="--.HHZ">
      <acc value="0.3160194331" flag="0"/>
      <vel value="0.5736225797" flag="0"/>
      <psa03 value="0.7478958076" flag="0"/>
      <psa10 value="0.2407038945" flag="0"/>
      <psa30 value="0.3356457180" flag="0"/>
    </comp>
    <comp name="--.HHN">
      <acc value="0.0147110625" flag="0"/>
      <vel value="0.0142250519" flag="0"/>
      <psa03 value="0.0361735577" flag="0"/>
      <psa10 value="0.0130092957" flag="0"/>
      <psa30 value="0.0053622553" flag="0"/>
    </comp>
    <comp name="--.HHE">
      <acc value="0.2527592828" flag="0"/>
      <vel value="0.4187591433" flag="0"/>
      <psa03 value="0.8138839923" flag="0"/>
      <psa10 value="0.3623031014" flag="0"/>
      <psa30 value="0.2431048578" flag="0"/>
    </comp>
  </station>
  <station code="PLG" name="PLG" netid="HL" insttype="CMG3ESPC-120s" lat="40.3733" lon="23.4444">
    <comp name="--.HHZ">
      <acc value="0.1738156317" flag="0"/>
      <vel value="0.2632168341" flag="0"/>
      <psa03 value="0.6146247895" flag="0"/>
      <psa10 value="0.3376112049" flag="0"/>
      <psa30 value="0.1930652820" flag="0"/>
    </comp>
  </station>
  <station code="RLS" name="RLS" netid="HL" insttype="CMG3ESPC-120s" lat="38.0559" lon="21.4647">
    <comp name="--.HHE">
      <acc value="0.1328359320" flag="0"/>
      <vel value="0.2515096658" flag="0"/>
      <psa03 value="0.2805103577" flag="0"/>
      <psa10 value="0.4700526789" flag="0"/>
      <psa30 value="0.0725883920" flag="0"/>
    </comp>
    <comp name="--.HHN">
      <acc value="0.0890249608" flag="0"/>
      <vel value="0.1970778819" flag="0"/>
      <psa03 value="0.1712897974" flag="0"/>
      <psa10 value="0.2142119046" flag="0"/>
      <psa30 value="0.1030564229" flag="0"/>
    </comp>
    <comp name="--.HHZ">
      <acc value="0.0759736143" flag="0"/>
      <vel value="0.1772202184" flag="0"/>
      <psa03 value="0.1784148171" flag="0"/>
      <psa10 value="0.1826100439" flag="0"/>
      <psa30 value="0.0647592336" flag="0"/>
    </comp>
  </station>
