<?xml version="1.0" encoding="UTF-8" standalone="yes"?>
<!DOCTYPE earthquake SYSTEM "stationlist.dtd">
<stationlist created="" xmlns="ch.ethz.sed.shakemap.usgs.xml">
  <station code="AKS" name="AKS" netid="KO" insttype="CMG-5T" commtype="DIG" lat="38.8785" lon="27.8129">
    <comp name="--.HNZ">
      <acc value="0.0683730092" flag="0"/>
      <vel value="0.0128781685" flag="0"/>
      <psa03 value="0.0626502712" flag="0"/>
      <psa10 value="0.0030768837" flag="0"/>
      <psa30 value="0.0004938454" flag="0"/>
    </comp>
    <comp name="--.HNE">
      <acc value="0.0857982862" flag="0"/>
      <vel value="0.0296295606" flag="0"/>
      <psa03 value="0.2805468987" flag="0"/>
      <psa10 value="0.0082274001" flag="0"/>
      <psa30 value="0.0006743372" flag="0"/>
    </comp>
    <comp name="--.HNN">
      <acc value="0.1201483808" flag="0"/>
      <vel value="0.0292220326" flag="0"/>
      <psa03 value="0.1500810075" flag="0"/>
      <psa10 value="0.0084275318" flag="0"/>
      <psa30 value="0.0007221310" flag="0"/>
    </comp>
  </station>
  <station code="BALB" name="BALB" netid="KO" insttype="CMG-5T" commtype="DIG" lat="39.6507" lon="27.8642">
    <comp name="--.HNE">
      <acc value="0.0248873045" flag="0"/>
      <vel value="0.0095117220" flag="0"/>
      <psa03 value="0.0568606682" flag="0"/>
      <psa10 value="0.0103920782" flag="0"/>
      <psa30 value="0.0004083012" flag="0"/>
    </comp>
    <comp name="--.HNN">
      <acc value="0.0282552416" flag="0"/>
      <vel value="0.0105578010" flag="0"/>
      <psa03 value="0.0721075708" flag="0"/>
      <psa10 value="0.0080613444" flag="0"/>
      <psa30 value="0.0005278081" flag="0"/>
    </comp>
    <comp name="--.HNZ">
      <acc value="0.0173329140" flag="0"/>
      <vel value="0.0069843080" flag="0"/>
      <psa03 value="0.0351073890" flag="0"/>
      <psa10 value="0.0038763808" flag="0"/>
      <psa30 value="0.0004270284" flag="0"/>
    </comp>
  </station>
  <station code="DST" name="DST" netid="KO" insttype="CMG-5T" commtype="DIG" lat="39.6041" lon="28.6267">
    <comp name="--.HNE">
      <acc value="0.0316587706" flag="0"/>
      <vel value="0.0097761994" flag="0"/>
      <psa03 value="0.0499627071" flag="0"/>
      <psa10 value="0.0071128294" flag="0"/>
      <psa30 value="0.0008102647" flag="0"/>
    </comp>
    <comp name="--.HNN">
      <acc value="0.0204867795" flag="0"/>
      <vel value="0.0082996048" flag="0"/>
      <psa03 value="0.0301700737" flag="0"/>
      <psa10 value="0.0064114435" flag="0"/>
      <psa30 value="0.0004369006" flag="0"/>
    </comp>
    <comp name="--.HNZ">
      <acc value="0.0210359517" flag="0"/>
      <vel value="0.0067994954" flag="0"/>
      <psa03 value="0.0522711712" flag="0"/>
      <psa10 value="0.0029716285" flag="0"/>
      <psa30 value="0.0005298952" flag="0"/>
    </comp>
  </station>
  <station code="GEDZ" name="GEDZ" netid="KO" insttype="CMG-6T" commtype="DIG" lat="39.0445" lon="29.4105">
    <comp name="--.HHN">
      <acc value="0.0344966350" flag="0"/>
      <vel value="0.0240600501" flag="0"/>
      <psa03 value="0.1548819322" flag="0"/>
      <psa10 value="0.0221588465" flag="0"/>
      <psa30 value="0.0011576188" flag="0"/>
    </comp>
    <comp name="--.HHE">
      <acc value="0.0359592286" flag="0"/>
      <vel value="0.0197367264" flag="0"/>
      <psa03 value="0.0920840152" flag="0"/>
      <psa10 value="0.0136381967" flag="0"/>
      <psa30 value="0.0007833788" flag="0"/>
    </comp>
    <comp name="--.HHZ">
      <acc value="0.0179466749" flag="0"/>
      <vel value="0.0083806890" flag="0"/>
      <psa03 value="0.0286799168" flag="0"/>
      <psa10 value="0.0047243423" flag="0"/>
      <psa30 value="0.0002950040" flag="0"/>
    </comp>
  </station>
  <station code="GOMA" name="GOMA" netid="KO" insttype="CMG-5T" commtype="DIG" lat="38.7077" lon="27.9175">
    <comp name="--.HNE">
      <acc value="0.1236685320" flag="0"/>
      <vel value="0.0555490627" flag="0"/>
      <psa03 value="0.2894757569" flag="0"/>
      <psa10 value="0.0154560690" flag="0"/>
      <psa30 value="0.0013520178" flag="0"/>
    </comp>
    <comp name="--.HNZ">
      <acc value="0.1005862854" flag="0"/>
      <vel value="0.0344530437" flag="0"/>
      <psa03 value="0.2140030299" flag="0"/>
      <psa10 value="0.0065063037" flag="0"/>
      <psa30 value="0.0006850636" flag="0"/>
    </comp>
  </station>
  <station code="GORD" name="GORD" netid="KO" insttype="CMG-5T" commtype="DIG" lat="38.9088" lon="28.1769">
    <comp name="--.HNE">
      <acc value="0.0795490923" flag="0"/>
      <vel value="0.0332106377" flag="0"/>
      <psa03 value="0.1409629246" flag="0"/>
      <psa10 value="0.0308922833" flag="0"/>
      <psa30 value="0.0024173177" flag="0"/>
    </comp>
    <comp name="--.HNZ">
      <acc value="0.0731463347" flag="0"/>
      <vel value="0.0265693118" flag="0"/>
      <psa03 value="0.1034206692" flag="0"/>
      <psa10 value="0.0176798833" flag="0"/>
      <psa30 value="0.0008540828" flag="0"/>
    </comp>
    <comp name="--.HNN">
      <acc value="0.0675161705" flag="0"/>
      <vel value="0.0257427177" flag="0"/>
      <psa03 value="0.1937935257" flag="0"/>
      <psa10 value="0.0230396380" flag="0"/>
      <psa30 value="0.0012081005" flag="0"/>
    </comp>
  </station>
  <station code="SHAP" name="SHAP" netid="KO" insttype="CMG-5T" commtype="DIG" lat="39.0231" lon="29.222">
    <comp name="--.HNN">
      <acc value="0.0689124695" flag="0"/>
      <vel value="0.0154125788" flag="0"/>
      <psa03 value="0.0820309251" flag="0"/>
      <psa10 value="0.0083883489" flag="0"/>
      <psa30 value="0.0005657409" flag="0"/>
    </comp>
    <comp name="--.HNE">
      <acc value="0.0512303348" flag="0"/>
      <vel value="0.0124952089" flag="0"/>
      <psa03 value="0.1002383645" flag="0"/>
      <psa10 value="0.0045288935" flag="0"/>
      <psa30 value="0.0003305339" flag="0"/>
    </comp>
    <comp name="--.HNZ">
      <acc value="0.0342462860" flag="0"/>
      <vel value="0.0055415090" flag="0"/>
      <psa03 value="0.0313234958" flag="0"/>
      <psa10 value="0.0030775808" flag="0"/>
      <psa30 value="0.0001907110" flag="0"/>
    </comp>
  </station>
  <station code="SIMA" name="SIMA" netid="KO" insttype="CMG-6T" commtype="DIG" lat="39.0833" lon="28.9825">
    <comp name="--.HHE">
      <acc value="0.0921585022" flag="0"/>
      <vel value="0.0122436695" flag="0"/>
      <psa03 value="0.0629498093" flag="0"/>
      <psa10 value="0.0029001837" flag="0"/>
      <psa30 value="0.0003169382" flag="0"/>
    </comp>
    <comp name="--.HHN">
      <acc value="0.0686708642" flag="0"/>
      <vel value="0.0174928766" flag="0"/>
      <psa03 value="0.0987880683" flag="0"/>
      <psa10 value="0.0050669251" flag="0"/>
      <psa30 value="0.0006609354" flag="0"/>
    </comp>
    <comp name="--.HHZ">
      <acc value="0.0609788497" flag="0"/>
      <vel value="0.0077440607" flag="0"/>
      <psa03 value="0.0311486336" flag="0"/>
      <psa10 value="0.0022598945" flag="0"/>
      <psa30 value="0.0002386565" flag="0"/>
    </comp>
  </station>
  <station code="SMAA" name="SMAA" netid="KO" insttype="CMG-5T" commtype="DIG" lat="39.1005" lon="28.9805">
    <comp name="--.HNE">
      <acc value="0.0470465818" flag="0"/>
      <vel value="0.0196983223" flag="0"/>
      <psa03 value="0.0699024307" flag="0"/>
      <psa10 value="0.0156600432" flag="0"/>
      <psa30 value="0.0011337514" flag="0"/>
    </comp>
    <comp name="--.HNN">
      <acc value="0.0407031736" flag="0"/>
      <vel value="0.0216667602" flag="0"/>
      <psa03 value="0.0794999641" flag="0"/>
      <psa10 value="0.0168142785" flag="0"/>
      <psa30 value="0.0014249623" flag="0"/>
    </comp>
    <comp name="--.HNZ">
      <acc value="0.0290882191" flag="0"/>
      <vel value="0.0058048750" flag="0"/>
      <psa03 value="0.0230728775" flag="0"/>
      <psa10 value="0.0098277938" flag="0"/>
      <psa30 value="0.0003783539" flag="0"/>
    </comp>
  </station>
  <station code="SOMA" name="SOMA" netid="KO" insttype="CMG-5T" commtype="DIG" lat="39.1564" lon="27.5341">
    <comp name="--.HNE">
      <acc value="0.0364319187" flag="0"/>
      <vel value="0.0091313513" flag="0"/>
      <psa03 value="0.0447292469" flag="0"/>
      <psa10 value="0.0049864227" flag="0"/>
      <psa30 value="0.0002555518" flag="0"/>
    </comp>
    <comp name="--.HNN">
      <acc value="0.0527069604" flag="0"/>
      <vel value="0.0146384350" flag="0"/>
      <psa03 value="0.0630054590" flag="0"/>
      <psa10 value="0.0071058501" flag="0"/>
      <psa30 value="0.0004314124" flag="0"/>
    </comp>
    <comp name="--.HNZ">
      <acc value="0.0324573004" flag="0"/>
      <vel value="0.0082048930" flag="0"/>
      <psa03 value="0.0224990764" flag="0"/>
      <psa10 value="0.0035782134" flag="0"/>
      <psa30 value="0.0002388180" flag="0"/>
    </comp>
  </station>
  <station code="SUSR" name="SUSR" netid="KO" insttype="CMG-5T" commtype="DIG" lat="39.9627" lon="28.0835">
    <comp name="--.HNE">
      <acc value="0.0163873034" flag="0"/>
      <vel value="0.0051536794" flag="0"/>
      <psa03 value="0.0282786666" flag="0"/>
      <psa10 value="0.0013760135" flag="0"/>
      <psa30 value="0.0001921212" flag="0"/>
    </comp>
    <comp name="--.HNN">
      <acc value="0.0168206776" flag="0"/>
      <vel value="0.0050031225" flag="0"/>
      <psa03 value="0.0352871167" flag="0"/>
      <psa10 value="0.0018188845" flag="0"/>
      <psa30 value="0.0002228638" flag="0"/>
    </comp>
    <comp name="--.HNZ">
      <acc value="0.0155037458" flag="0"/>
      <vel value="0.0045601547" flag="0"/>
      <psa03 value="0.0270011514" flag="0"/>
      <psa10 value="0.0019240031" flag="0"/>
      <psa30 value="0.0004305054" flag="0"/>
    </comp>
  </station>
</stationlist>
