<?xml version="1.0" encoding="UTF-8" standalone="yes"?>
<!DOCTYPE earthquake SYSTEM "stationlist.dtd">
<stationlist created="" xmlns="ch.ethz.sed.shakemap.usgs.xml">
  <station code="AKS" name="AKS" netid="KO" insttype="CMG-5T" commtype="DIG" lat="38.8785" lon="27.8129">
    <comp name="--.HNE">
      <acc value="0.0857982893" flag="0"/>
      <vel value="0.0296295605" flag="0"/>
      <psa03 value="0.2805468987" flag="0"/>
      <psa10 value="0.0082274001" flag="0"/>
      <psa30 value="0.0006743372" flag="0"/>
    </comp>
    <comp name="--.HNN">
      <acc value="0.1201484081" flag="0"/>
      <vel value="0.0292220464" flag="0"/>
      <psa03 value="0.1500810075" flag="0"/>
      <psa10 value="0.0084275265" flag="0"/>
      <psa30 value="0.0007159402" flag="0"/>
    </comp>
    <comp name="--.HNZ">
      <acc value="0.0683730061" flag="0"/>
      <vel value="0.0128781643" flag="0"/>
      <psa03 value="0.0626502713" flag="0"/>
      <psa10 value="0.0030768028" flag="0"/>
      <psa30 value="0.0004834199" flag="0"/>
    </comp>
  </station>
  <station code="BALB" name="BALB" netid="KO" insttype="CMG-5T" commtype="DIG" lat="39.6507" lon="27.8642">
    <comp name="--.HNZ">
      <acc value="0.0173329158" flag="0"/>
      <vel value="0.0069843072" flag="0"/>
      <psa03 value="0.0351073890" flag="0"/>
      <psa10 value="0.0038763808" flag="0"/>
      <psa30 value="0.0004270951" flag="0"/>
    </comp>
    <comp name="--.HNE">
      <acc value="0.0248873054" flag="0"/>
      <vel value="0.0095117214" flag="0"/>
      <psa03 value="0.0568606682" flag="0"/>
      <psa10 value="0.0103920772" flag="0"/>
      <psa30 value="0.0004083439" flag="0"/>
    </comp>
    <comp name="--.HNN">
      <acc value="0.0282552445" flag="0"/>
      <vel value="0.0105578004" flag="0"/>
      <psa03 value="0.0721075708" flag="0"/>
      <psa10 value="0.0080613439" flag="0"/>
      <psa30 value="0.0005279967" flag="0"/>
    </comp>
  </station>
  <station code="DST" name="DST" netid="KO" insttype="CMG-5T" commtype="DIG" lat="39.6041" lon="28.6267">
    <comp name="--.HNN">
      <acc value="0.0204867810" flag="0"/>
      <vel value="0.0082996061" flag="0"/>
      <psa03 value="0.0301700737" flag="0"/>
      <psa10 value="0.0064114429" flag="0"/>
      <psa30 value="0.0004365390" flag="0"/>
    </comp>
    <comp name="--.HNE">
      <acc value="0.0316587690" flag="0"/>
      <vel value="0.0097761870" flag="0"/>
      <psa03 value="0.0499627071" flag="0"/>
      <psa10 value="0.0071128323" flag="0"/>
      <psa30 value="0.0008120514" flag="0"/>
    </comp>
    <comp name="--.HNZ">
      <acc value="0.0210359553" flag="0"/>
      <vel value="0.0067994873" flag="0"/>
      <psa03 value="0.0522711712" flag="0"/>
      <psa10 value="0.0029716216" flag="0"/>
      <psa30 value="0.0005302250" flag="0"/>
    </comp>
  </station>
  <station code="GEDZ" name="GEDZ" netid="KO" insttype="CMG-6T" commtype="DIG" lat="39.0445" lon="29.4105">
    <comp name="--.HHE">
      <acc value="0.0359592328" flag="0"/>
      <vel value="0.0197367270" flag="0"/>
      <psa03 value="0.0920840152" flag="0"/>
      <psa10 value="0.0136381967" flag="0"/>
      <psa30 value="0.0007834038" flag="0"/>
    </comp>
    <comp name="--.HHZ">
      <acc value="0.0179466723" flag="0"/>
      <vel value="0.0083806885" flag="0"/>
      <psa03 value="0.0286799168" flag="0"/>
      <psa10 value="0.0047243423" flag="0"/>
      <psa30 value="0.0002949587" flag="0"/>
    </comp>
    <comp name="--.HHN">
      <acc value="0.0344966420" flag="0"/>
      <vel value="0.0240600501" flag="0"/>
      <psa03 value="0.1548819322" flag="0"/>
      <psa10 value="0.0221588465" flag="0"/>
      <psa30 value="0.0011576198" flag="0"/>
    </comp>
  </station>
  <station code="GOMA" name="GOMA" netid="KO" insttype="CMG-5T" commtype="DIG" lat="38.7077" lon="27.9175">
    <comp name="--.HNE">
      <acc value="0.1236685059" flag="0"/>
      <vel value="0.0555490688" flag="0"/>
      <psa03 value="0.2894757569" flag="0"/>
      <psa10 value="0.0154560696" flag="0"/>
      <psa30 value="0.0013517784" flag="0"/>
    </comp>
    <comp name="--.HNZ">
      <acc value="0.1005862957" flag="0"/>
      <vel value="0.0344530409" flag="0"/>
      <psa03 value="0.2140030299" flag="0"/>
      <psa10 value="0.0065062987" flag="0"/>
      <psa30 value="0.0006843576" flag="0"/>
    </comp>
  </station>
  <station code="GORD" name="GORD" netid="KO" insttype="CMG-5T" commtype="DIG" lat="38.9088" lon="28.1769">
    <comp name="--.HNE">
      <acc value="0.0795490927" flag="0"/>
      <vel value="0.0332106364" flag="0"/>
      <psa03 value="0.1409629246" flag="0"/>
      <psa10 value="0.0308922734" flag="0"/>
      <psa30 value="0.0024175566" flag="0"/>
    </comp>
    <comp name="--.HNN">
      <acc value="0.0675161687" flag="0"/>
      <vel value="0.0257427174" flag="0"/>
      <psa03 value="0.1937935257" flag="0"/>
      <psa10 value="0.0230396398" flag="0"/>
      <psa30 value="0.0012081804" flag="0"/>
    </comp>
    <comp name="--.HNZ">
      <acc value="0.0731463355" flag="0"/>
      <vel value="0.0265693088" flag="0"/>
      <psa03 value="0.1034206692" flag="0"/>
      <psa10 value="0.0176798876" flag="0"/>
      <psa30 value="0.0008537464" flag="0"/>
    </comp>
  </station>
  <station code="SHAP" name="SHAP" netid="KO" insttype="CMG-5T" commtype="DIG" lat="39.0231" lon="29.222">
    <comp name="--.HNE">
      <acc value="0.0512303332" flag="0"/>
      <vel value="0.0124952097" flag="0"/>
      <psa03 value="0.1002383645" flag="0"/>
      <psa10 value="0.0045288932" flag="0"/>
      <psa30 value="0.0003305236" flag="0"/>
    </comp>
    <comp name="--.HNZ">
      <acc value="0.0342462837" flag="0"/>
      <vel value="0.0055415078" flag="0"/>
      <psa03 value="0.0313234958" flag="0"/>
      <psa10 value="0.0030775807" flag="0"/>
      <psa30 value="0.0001900788" flag="0"/>
    </comp>
    <comp name="--.HNN">
      <acc value="0.0689124689" flag="0"/>
      <vel value="0.0154125805" flag="0"/>
      <psa03 value="0.0820309251" flag="0"/>
      <psa10 value="0.0083883476" flag="0"/>
      <psa30 value="0.0005657906" flag="0"/>
    </comp>
  </station>
  <station code="SIMA" name="SIMA" netid="KO" insttype="CMG-6T" commtype="DIG" lat="39.0833" lon="28.9825">
    <comp name="--.HHN">
      <acc value="0.0686708733" flag="0"/>
      <vel value="0.0174928771" flag="0"/>
      <psa03 value="0.0987880683" flag="0"/>
      <psa10 value="0.0050669258" flag="0"/>
      <psa30 value="0.0006610366" flag="0"/>
    </comp>
    <comp name="--.HHE">
      <acc value="0.0921584958" flag="0"/>
      <vel value="0.0122436743" flag="0"/>
      <psa03 value="0.0629498092" flag="0"/>
      <psa10 value="0.0029001837" flag="0"/>
      <psa30 value="0.0003168956" flag="0"/>
    </comp>
    <comp name="--.HHZ">
      <acc value="0.0609788354" flag="0"/>
      <vel value="0.0077440569" flag="0"/>
      <psa03 value="0.0311486336" flag="0"/>
      <psa10 value="0.0022598943" flag="0"/>
      <psa30 value="0.0002386696" flag="0"/>
    </comp>
  </station>
  <station code="SMAA" name="SMAA" netid="KO" insttype="CMG-5T" commtype="DIG" lat="39.1005" lon="28.9805">
    <comp name="--.HNE">
      <acc value="0.0470465844" flag="0"/>
      <vel value="0.0196983177" flag="0"/>
      <psa03 value="0.0699024307" flag="0"/>
      <psa10 value="0.0156600423" flag="0"/>
      <psa30 value="0.0011346489" flag="0"/>
    </comp>
    <comp name="--.HNN">
      <acc value="0.0407031700" flag="0"/>
      <vel value="0.0216667639" flag="0"/>
      <psa03 value="0.0794999641" flag="0"/>
      <psa10 value="0.0168142792" flag="0"/>
      <psa30 value="0.0014244467" flag="0"/>
    </comp>
    <comp name="--.HNZ">
      <acc value="0.0290882173" flag="0"/>
      <vel value="0.0058048750" flag="0"/>
      <psa03 value="0.0230728775" flag="0"/>
      <psa10 value="0.0098277940" flag="0"/>
      <psa30 value="0.0003784921" flag="0"/>
    </comp>
  </station>
  <station code="SOMA" name="SOMA" netid="KO" insttype="CMG-5T" commtype="DIG" lat="39.1564" lon="27.5341">
    <comp name="--.HNE">
      <acc value="0.0364319197" flag="0"/>
      <vel value="0.0091313483" flag="0"/>
      <psa03 value="0.0447292469" flag="0"/>
      <psa10 value="0.0049864227" flag="0"/>
      <psa30 value="0.0002554936" flag="0"/>
    </comp>
    <comp name="--.HNN">
      <acc value="0.0527069602" flag="0"/>
      <vel value="0.0146384343" flag="0"/>
      <psa03 value="0.0630054590" flag="0"/>
      <psa10 value="0.0071058496" flag="0"/>
      <psa30 value="0.0004317313" flag="0"/>
    </comp>
    <comp name="--.HNZ">
      <acc value="0.0324572974" flag="0"/>
      <vel value="0.0082048944" flag="0"/>
      <psa03 value="0.0224990764" flag="0"/>
      <psa10 value="0.0035782134" flag="0"/>
      <psa30 value="0.0002387744" flag="0"/>
    </comp>
  </station>
  <station code="SUSR" name="SUSR" netid="KO" insttype="CMG-5T" commtype="DIG" lat="39.9627" lon="28.0835">
    <comp name="--.HNN">
      <acc value="0.0168206742" flag="0"/>
      <vel value="0.0050031243" flag="0"/>
      <psa03 value="0.0352871167" flag="0"/>
      <psa10 value="0.0018188845" flag="0"/>
      <psa30 value="0.0002226949" flag="0"/>
    </comp>
    <comp name="--.HNE">
      <acc value="0.0163873030" flag="0"/>
      <vel value="0.0051536842" flag="0"/>
      <psa03 value="0.0282786666" flag="0"/>
      <psa10 value="0.0013760133" flag="0"/>
      <psa30 value="0.0001920595" flag="0"/>
    </comp>
    <comp name="--.HNZ">
      <acc value="0.0155037433" flag="0"/>
      <vel value="0.0045601592" flag="0"/>
      <psa03 value="0.0270011514" flag="0"/>
      <psa10 value="0.0019240038" flag="0"/>
      <psa30 value="0.0004303330" flag="0"/>
    </comp>
  </station>
</stationlist>
