<stationlist created="1675762260">
	<station code="CMRD" name="CMRD" netid="KO" source="Bogazici University Kandilli Observatory And Earthquake Research Institute (KOERI)" insttype="" lat="37.6623" lon="34.9902">
		<comp name=".HNE" depth="0.0">
			<acc value="0.0030117711865" flag="0"/>
			<vel value="0.000840061290011" flag="0"/>
			<psa03 value="0.00132531932259" flag="0"/>
			<psa10 value="0.00170695194438" flag="0"/>
			<psa30 value="0.000287528943215" flag="0"/>
		</comp>
		<comp name=".HNN" depth="0.0">
			<acc value="0.00185428108042" flag="0"/>
			<vel value="0.00118285948726" flag="0"/>
			<psa03 value="0.0019358123201" flag="0"/>
			<psa10 value="0.00203726527133" flag="0"/>
			<psa30 value="0.000554214578578" flag="0"/>
		</comp>
		<comp name=".HNZ" depth="0.0">
			<acc value="0.000796023788747" flag="0"/>
			<vel value="0.00100120126157" flag="0"/>
			<psa03 value="0.00144106795717" flag="0"/>
			<psa10 value="0.00177585619644" flag="0"/>
			<psa30 value="0.000334984196268" flag="0"/>
		</comp>
	</station>
	<station code="TUNC" name="TUNC" netid="KO" source="Bogazici University Kandilli Observatory And Earthquake Research Institute (KOERI)" insttype="" lat="39.6942" lon="37.5388">
		<comp name=".HNE" depth="0.0">
			<acc value="0.01265386262" flag="0"/>
			<vel value="0.0102492344806" flag="0"/>
			<psa03 value="0.037812398115" flag="0"/>
			<psa10 value="0.0125273195609" flag="0"/>
			<psa30 value="0.00175033470109" flag="0"/>
		</comp>
		<comp name=".HNN" depth="0.0">
			<acc value="0.0138649938935" flag="0"/>
			<vel value="0.00789652559666" flag="0"/>
			<psa03 value="0.0383532230045" flag="0"/>
			<psa10 value="0.00902114666921" flag="0"/>
			<psa30 value="0.00124966111725" flag="0"/>
		</comp>
		<comp name=".HNZ" depth="0.0">
			<acc value="0.0067282353661" flag="0"/>
			<vel value="0.00621957563018" flag="0"/>
			<psa03 value="0.0143776868262" flag="0"/>
			<psa10 value="0.00615675660492" flag="0"/>
			<psa30 value="0.000651290123943" flag="0"/>
		</comp>
	</station>
</stationlist>
