<stationlist created="1675764059">
	<station code="CMRD" name="CMRD" netid="KO" source="Bogazici University Kandilli Observatory And Earthquake Research Institute (KOERI)" insttype="" lat="37.6623" lon="34.9902">
		<comp name=".HNE" depth="0.0">
			<acc value="0.0030117711865" flag="0"/>
			<vel value="0.000840061290011" flag="0"/>
			<psa03 value="0.00132531932259" flag="0"/>
			<psa10 value="0.00170695194438" flag="0"/>
			<psa30 value="0.000287528943215" flag="0"/>
		</comp>
		<comp name=".HNN" depth="0.0">
			<acc value="0.00185428108042" flag="0"/>
			<vel value="0.00118285948726" flag="0"/>
			<psa03 value="0.0019358123201" flag="0"/>
			<psa10 value="0.00203726527133" flag="0"/>
			<psa30 value="0.000554214578578" flag="0"/>
		</comp>
		<comp name=".HNZ" depth="0.0">
			<acc value="0.000796023788747" flag="0"/>
			<vel value="0.00100120126157" flag="0"/>
			<psa03 value="0.00144106795717" flag="0"/>
			<psa10 value="0.00177585619644" flag="0"/>
			<psa30 value="0.000334984196268" flag="0"/>
		</comp>
	</station>
	<station code="TUNC" name="TUNC" netid="KO" source="Bogazici University Kandilli Observatory And Earthquake Research Institute (KOERI)" insttype="" lat="39.6942" lon="37.5388">
		<comp name=".HNE" depth="0.0">
			<acc value="0.0126218613847" flag="0"/>
			<vel value="0.0104023543334" flag="0"/>
			<psa03 value="0.0378554712809" flag="0"/>
			<psa10 value="0.0125352119588" flag="0"/>
			<psa30 value="0.00137552383003" flag="0"/>
		</comp>
		<comp name=".HNN" depth="0.0">
			<acc value="0.0138721052098" flag="0"/>
			<vel value="0.00825741600297" flag="0"/>
			<psa03 value="0.0383419956982" flag="0"/>
			<psa10 value="0.00894677643003" flag="0"/>
			<psa30 value="0.000987736161838" flag="0"/>
		</comp>
		<comp name=".HNZ" depth="0.0">
			<acc value="0.00675759310992" flag="0"/>
			<vel value="0.00608209903216" flag="0"/>
			<psa03 value="0.0143505248706" flag="0"/>
			<psa10 value="0.00614026535619" flag="0"/>
			<psa30 value="0.000501147052699" flag="0"/>
		</comp>
	</station>
</stationlist>
