<?xml version="1.0" encoding="UTF-8" standalone="yes"?>
<!DOCTYPE earthquake SYSTEM "stationlist.dtd">
<stationlist created="" xmlns="ch.ethz.sed.shakemap.usgs.xml">
  <station code="KMRS" name="KMRS" netid="KO" insttype="CMG-3T" lat="37.5053" lon="36.9">
    <comp name="--.HHN">
      <acc value="0.0100631963" flag="0"/>
      <vel value="0.0064760633" flag="0"/>
      <psa03 value="0.0224995023" flag="0"/>
      <psa10 value="0.0101601927" flag="0"/>
      <psa30 value="0.0023931129" flag="0"/>
    </comp>
    <comp name="--.HHE">
      <acc value="0.0077282415" flag="0"/>
      <vel value="0.0072424099" flag="0"/>
      <psa03 value="0.0174721207" flag="0"/>
      <psa10 value="0.0117585433" flag="0"/>
      <psa30 value="0.0012797486" flag="0"/>
    </comp>
  </station>
</stationlist>
