<?xml version="1.0" encoding="UTF-8" standalone="yes"?>
<!DOCTYPE earthquake SYSTEM "stationlist.dtd">
<stationlist created="" xmlns="ch.ethz.sed.shakemap.usgs.xml">
  <station code="THERA" name="THERA" netid="GE" insttype="STS-2/N" lat="36.367" lon="25.4753">
    <comp name="--.HHN">
      <acc value="0.0591632302" flag="0"/>
      <vel value="0.0147703483" flag="0"/>
      <psa03 value="0.0847324315" flag="0"/>
      <psa10 value="0.0057340420" flag="0"/>
      <psa30 value="0.0003832591" flag="0"/>
    </comp>
    <comp name="--.HHZ">
      <acc value="0.0717467925" flag="0"/>
      <vel value="0.0189619324" flag="0"/>
      <psa03 value="0.1069964838" flag="0"/>
      <psa10 value="0.0053470559" flag="0"/>
      <psa30 value="0.0005447951" flag="0"/>
    </comp>
    <comp name="--.HHE">
      <acc value="0.0926414955" flag="0"/>
      <vel value="0.0231847974" flag="0"/>
      <psa03 value="0.1405400445" flag="0"/>
      <psa10 value="0.0097324579" flag="0"/>
      <psa30 value="0.0008666552" flag="0"/>
    </comp>
  </station>
</stationlist>
