<?xml version="1.0" encoding="UTF-8" standalone="yes"?>
<!DOCTYPE earthquake SYSTEM "stationlist.dtd">
<stationlist created="" xmlns="ch.ethz.sed.shakemap.usgs.xml">
  <station code="APE" name="APE" netid="GE" insttype="STS-2/N" lat="37.0727" lon="25.523">
    <comp name="--.HHZ">
      <acc value="0.0466608881" flag="0"/>
      <vel value="0.0147368665" flag="0"/>
      <psa03 value="0.0736272695" flag="0"/>
      <psa10 value="0.0086686025" flag="0"/>
      <psa30 value="0.0007636091" flag="0"/>
    </comp>
    <comp name="--.HHE">
      <acc value="0.1079585304" flag="0"/>
      <vel value="0.0347288410" flag="0"/>
      <psa03 value="0.2072199878" flag="0"/>
      <psa10 value="0.0125204489" flag="0"/>
      <psa30 value="0.0010420169" flag="0"/>
    </comp>
    <comp name="--.HHN">
      <acc value="0.1255570774" flag="0"/>
      <vel value="0.0294581997" flag="0"/>
      <psa03 value="0.1102518237" flag="0"/>
      <psa10 value="0.0071751318" flag="0"/>
      <psa30 value="0.0007918949" flag="0"/>
    </comp>
  </station>
  <station code="THERA" name="THERA" netid="GE" insttype="STS-2/N" lat="36.367" lon="25.4753">
    <comp name="--.HHN">
      <acc value="0.0591632303" flag="0"/>
      <vel value="0.0147703517" flag="0"/>
      <psa03 value="0.0847324315" flag="0"/>
      <psa10 value="0.0057340409" flag="0"/>
      <psa30 value="0.0003830651" flag="0"/>
    </comp>
    <comp name="--.HHZ">
      <acc value="0.0717467922" flag="0"/>
      <vel value="0.0189619346" flag="0"/>
      <psa03 value="0.1069964838" flag="0"/>
      <psa10 value="0.0053470653" flag="0"/>
      <psa30 value="0.0005450220" flag="0"/>
    </comp>
    <comp name="--.HHE">
      <acc value="0.0926414949" flag="0"/>
      <vel value="0.0231847896" flag="0"/>
      <psa03 value="0.1405400445" flag="0"/>
      <psa10 value="0.0097324571" flag="0"/>
      <psa30 value="0.0008670334" flag="0"/>
    </comp>
  </station>
</stationlist>
