<stationlist created="1675692186">
	<station code="RFHY" name="RFHY" netid="KO" source="Bogazici University Kandilli Observatory And Earthquake Research Institute (KOERI)" insttype="" lat="39.927" lon="38.833">
		<comp name=".HNE" depth="0.0">
			<acc value="0.00137708571335" flag="0"/>
			<vel value="0.0024301061051" flag="0"/>
			<psa03 value="0.00166621828894" flag="0"/>
			<psa10 value="0.0011516260552" flag="0"/>
			<psa30 value="0.00113950319483" flag="0"/>
		</comp>
		<comp name=".HNN" depth="0.0">
			<acc value="0.00313564336655" flag="0"/>
			<vel value="0.00448139192886" flag="0"/>
			<psa03 value="0.00823338982272" flag="0"/>
			<psa10 value="0.00711291994603" flag="0"/>
			<psa30 value="0.00207304837095" flag="0"/>
		</comp>
		<comp name=".HNZ" depth="0.0">
			<acc value="0.00241288282641" flag="0"/>
			<vel value="0.00306615407028" flag="0"/>
			<psa03 value="0.0068631714483" flag="0"/>
			<psa10 value="0.00578712086837" flag="0"/>
			<psa30 value="0.00117577424344" flag="0"/>
		</comp>
	</station>
</stationlist>
