<?xml version="1.0" encoding="UTF-8" standalone="yes"?>
<!DOCTYPE earthquake SYSTEM "stationlist.dtd">
<stationlist created="" xmlns="ch.ethz.sed.shakemap.usgs.xml">
  <station code="IMMV" name="IMMV" netid="GE" insttype="STS-2/N" commtype="DIG" lat="35.4606" lon="23.9811">
    <comp name="--.HHZ">
      <acc value="0.5158895864" flag="0"/>
      <vel value="0.3762228519" flag="0"/>
      <psa03 value="1.1551489690" flag="0"/>
      <psa10 value="0.4474045673" flag="0"/>
      <psa30 value="0.0180070643" flag="0"/>
    </comp>
    <comp name="--.HHN">
      <acc value="0.5572327811" flag="0"/>
      <vel value="0.3267140263" flag="0"/>
      <psa03 value="2.7019830744" flag="0"/>
      <psa10 value="0.5132115641" flag="0"/>
      <psa30 value="0.0342253896" flag="0"/>
    </comp>
    <comp name="--.HHE">
      <acc value="0.5367826896" flag="0"/>
      <vel value="0.4044851759" flag="0"/>
      <psa03 value="2.6785296075" flag="0"/>
      <psa10 value="0.4007407868" flag="0"/>
      <psa30 value="0.0262214919" flag="0"/>
    </comp>
  </station>
</stationlist>
