<stationlist xmlns:esm="https://esm-db.eu/esmws/shakemap/1/" created="1782266100">
	<station code="ARK1" name="ARK1" netid="HI" source="ITSAK Strong Motion Network" insttype="" lat="35.148777" lon="25.264194" esm:processing="manual (Paolucci et al 2011)" esm:quality="good">
		<comp name="--.HNE" depth="0.0">
			<acc value="0.131437002279047" flag="0"/>
			<vel value="0.148732864971515" flag="0"/>
			<psa03 value="0.472838864920895" flag="0"/>
			<psa10 value="0.196550220487489" flag="0"/>
			<psa30 value="0.0372620084251857" flag="0"/>
		</comp>
		<comp name="--.HNN" depth="0.0">
			<acc value="0.176937125588374" flag="0"/>
			<vel value="0.158385557392015" flag="0"/>
			<psa03 value="0.398758874151739" flag="0"/>
			<psa10 value="0.249611270521643" flag="0"/>
			<psa30 value="0.027539125998609" flag="0"/>
		</comp>
		<comp name="--.HNZ" depth="0.0">
			<acc value="0.126045854501691" flag="0"/>
			<vel value="0.153619328970313" flag="0"/>
			<psa03 value="0.231482897105874" flag="0"/>
			<psa10 value="0.235359081384059" flag="0"/>
			<psa30 value="0.0187019172435665" flag="0"/>
		</comp>
	</station>
	<station code="CH01" name="CH01" netid="HI" source="ITSAK Strong Motion Network" insttype="" lat="35.517" lon="24.0208" esm:processing="manual (Paolucci et al 2011)" esm:quality="good">
		<comp name="--.HNE" depth="0.0">
			<acc value="0.326031497059946" flag="0"/>
			<vel value="0.396537553927381" flag="0"/>
			<psa03 value="0.797585586130734" flag="0"/>
			<psa10 value="0.528232632819493" flag="0"/>
			<psa30 value="0.0376369332621161" flag="0"/>
		</comp>
		<comp name="--.HNN" depth="0.0">
			<acc value="0.398887176173155" flag="0"/>
			<vel value="0.415411291093242" flag="0"/>
			<psa03 value="0.891319712223231" flag="0"/>
			<psa10 value="0.43512692502329" flag="0"/>
			<psa30 value="0.0521466077901771" flag="0"/>
		</comp>
		<comp name="--.HNZ" depth="0.0">
			<acc value="0.251812470884731" flag="0"/>
			<vel value="0.269191768763853" flag="0"/>
			<psa03 value="0.684956166651117" flag="0"/>
			<psa10 value="0.449055467720886" flag="0"/>
			<psa30 value="0.0310618676962911" flag="0"/>
		</comp>
	</station>
	<station code="CH02" name="CH02" netid="HI" source="ITSAK Strong Motion Network" insttype="" lat="35.5145" lon="24.0315" esm:processing="manual (Paolucci et al 2011)" esm:quality="good">
		<comp name="--.HNE" depth="0.0">
			<acc value="0.309392032403924" flag="0"/>
			<vel value="0.366905135409005" flag="0"/>
			<psa03 value="0.667245701753069" flag="0"/>
			<psa10 value="0.699568102953518" flag="0"/>
			<psa30 value="0.0463921899215679" flag="0"/>
		</comp>
		<comp name="--.HNN" depth="0.0">
			<acc value="0.361419343787586" flag="0"/>
			<vel value="0.428006483681681" flag="0"/>
			<psa03 value="1.16397560767151" flag="0"/>
			<psa10 value="0.466152130290876" flag="0"/>
			<psa30 value="0.0486656638613921" flag="0"/>
		</comp>
		<comp name="--.HNZ" depth="0.0">
			<acc value="0.193994185866816" flag="0"/>
			<vel value="0.173302075043653" flag="0"/>
			<psa03 value="0.5544954826044" flag="0"/>
			<psa10 value="0.287020073671259" flag="0"/>
			<psa30 value="0.0242551017814551" flag="0"/>
		</comp>
	</station>
	<station code="CH03" name="CH03" netid="HI" source="ITSAK Strong Motion Network" insttype="" lat="35.53303" lon="24.0705" esm:processing="manual (Paolucci et al 2011)" esm:quality="good">
		<comp name="--.HNE" depth="0.0">
			<acc value="0.184461591066328" flag="0"/>
			<vel value="0.217285501805131" flag="0"/>
			<psa03 value="0.475386242005458" flag="0"/>
			<psa10 value="0.269346232866045" flag="0"/>
			<psa30 value="0.028514938974763" flag="0"/>
		</comp>
		<comp name="--.HNN" depth="0.0">
			<acc value="0.265017039976128" flag="0"/>
			<vel value="0.259371414620194" flag="0"/>
			<psa03 value="0.600619371419003" flag="0"/>
			<psa10 value="0.293310020349357" flag="0"/>
			<psa30 value="0.0294269993942896" flag="0"/>
		</comp>
		<comp name="--.HNZ" depth="0.0">
			<acc value="0.245719498214581" flag="0"/>
			<vel value="0.145235977553719" flag="0"/>
			<psa03 value="0.83649941398085" flag="0"/>
			<psa10 value="0.176401200713815" flag="0"/>
			<psa30 value="0.0154706631888435" flag="0"/>
		</comp>
	</station>
	<station code="GOR1" name="GOR1" netid="HI" source="ITSAK Strong Motion Network" insttype="" lat="35.0582" lon="24.9628" esm:processing="manual (Paolucci et al 2011)" esm:quality="good">
		<comp name="--.HNE" depth="0.0">
			<acc value="0.320167399327859" flag="0"/>
			<vel value="0.417309818754383" flag="0"/>
			<psa03 value="0.682160398111838" flag="0"/>
			<psa10 value="0.803757925017893" flag="0"/>
			<psa30 value="0.0430752268557103" flag="0"/>
		</comp>
		<comp name="--.HNN" depth="0.0">
			<acc value="0.341412375597672" flag="0"/>
			<vel value="0.43248309246603" flag="0"/>
			<psa03 value="0.630396385666725" flag="0"/>
			<psa10 value="0.588104419031494" flag="0"/>
			<psa30 value="0.0416143734146726" flag="0"/>
		</comp>
		<comp name="--.HNZ" depth="0.0">
			<acc value="0.213365277566444" flag="0"/>
			<vel value="0.21102756275712" flag="0"/>
			<psa03 value="0.491101033033239" flag="0"/>
			<psa10 value="0.470800188201901" flag="0"/>
			<psa30 value="0.0227417015261156" flag="0"/>
		</comp>
	</station>
	<station code="HER1" name="HER1" netid="HI" source="ITSAK Strong Motion Network" insttype="" lat="35.317672" lon="25.10217" esm:processing="manual (Paolucci et al 2011)" esm:quality="good">
		<comp name="--.HNE" depth="0.0">
			<acc value="0.543761813867829" flag="0"/>
			<vel value="0.759018147345887" flag="0"/>
			<psa03 value="0.808196705731998" flag="0"/>
			<psa10 value="1.4204888604156" flag="0"/>
			<psa30 value="0.0811581029926866" flag="0"/>
		</comp>
		<comp name="--.HNN" depth="0.0">
			<acc value="0.319036878660747" flag="0"/>
			<vel value="0.474366203432942" flag="0"/>
			<psa03 value="0.577986372093874" flag="0"/>
			<psa10 value="0.878825957906657" flag="0"/>
			<psa30 value="0.0562099236315766" flag="0"/>
		</comp>
		<comp name="--.HNZ" depth="0.0">
			<acc value="0.427453507788404" flag="0"/>
			<vel value="0.49750792587675" flag="0"/>
			<psa03 value="0.573351231705238" flag="0"/>
			<psa10 value="0.788262258506035" flag="0"/>
			<psa30 value="0.0348931815020276" flag="0"/>
		</comp>
	</station>
	<station code="HER3" name="HER3" netid="HI" source="ITSAK Strong Motion Network" insttype="" lat="35.3296" lon="25.1065" esm:processing="manual (Paolucci et al 2011)" esm:quality="good">
		<comp name="--.HNE" depth="0.0">
			<acc value="0.332273821745844" flag="0"/>
			<vel value="0.396992962443844" flag="0"/>
			<psa03 value="0.955546383591668" flag="0"/>
			<psa10 value="0.821147076963868" flag="0"/>
			<psa30 value="0.0473121875335612" flag="0"/>
		</comp>
		<comp name="--.HNN" depth="0.0">
			<acc value="0.519226026157277" flag="0"/>
			<vel value="0.525655950128605" flag="0"/>
			<psa03 value="0.989636641903975" flag="0"/>
			<psa10 value="1.29084007181964" flag="0"/>
			<psa30 value="0.0464928332553615" flag="0"/>
		</comp>
		<comp name="--.HNZ" depth="0.0">
			<acc value="0.205254937840004" flag="0"/>
			<vel value="0.203053086592536" flag="0"/>
			<psa03 value="0.45991263362151" flag="0"/>
			<psa10 value="0.344811252053203" flag="0"/>
			<psa30 value="0.0213925338170429" flag="0"/>
		</comp>
	</station>
	<station code="KSS1" name="KSS1" netid="HI" source="ITSAK Strong Motion Network" insttype="" lat="35.4189" lon="26.9207" esm:processing="automatic (Paolucci et al 2011)" esm:quality="best">
		<comp name="--.HNE" depth="0.0">
			<acc value="0.00798944663515236" flag="0"/>
			<vel value="0.0153954579604998" flag="0"/>
			<psa03 value="0.031138401307934" flag="0"/>
			<psa10 value="0.0150870319418228" flag="0"/>
			<psa30 value="0.00806274161706224" flag="0"/>
		</comp>
		<comp name="--.HNN" depth="0.0">
			<acc value="0.00826632754161845" flag="0"/>
			<vel value="0.0183920349604151" flag="0"/>
			<psa03 value="0.0314159379225393" flag="0"/>
			<psa10 value="0.0244068305827436" flag="0"/>
			<psa30 value="0.00856195635425523" flag="0"/>
		</comp>
		<comp name="--.HNZ" depth="0.0">
			<acc value="0.00579104012479407" flag="0"/>
			<vel value="0.0184200658863211" flag="0"/>
			<psa03 value="0.0105018805938821" flag="0"/>
			<psa10 value="0.0186666609496767" flag="0"/>
			<psa30 value="0.0079887317142694" flag="0"/>
		</comp>
	</station>
	<station code="KTL1" name="KTL1" netid="HI" source="ITSAK Strong Motion Network" insttype="" lat="35.20778" lon="25.34272" esm:processing="automatic (Paolucci et al 2011)" esm:quality="best">
		<comp name="--.HNE" depth="0.0">
			<acc value="0.0885835319617089" flag="0"/>
			<vel value="0.100079893610011" flag="0"/>
			<psa03 value="0.194093711922519" flag="0"/>
			<psa10 value="0.209449064972632" flag="0"/>
			<psa30 value="0.0129284747813379" flag="0"/>
		</comp>
		<comp name="--.HNN" depth="0.0">
			<acc value="0.113169810410914" flag="0"/>
			<vel value="0.100861656966459" flag="0"/>
			<psa03 value="0.29419165542002" flag="0"/>
			<psa10 value="0.167333655033415" flag="0"/>
			<psa30 value="0.0146299791643194" flag="0"/>
		</comp>
		<comp name="--.HNZ" depth="0.0">
			<acc value="0.0637938673515617" flag="0"/>
			<vel value="0.0582526362501107" flag="0"/>
			<psa03 value="0.118661402402216" flag="0"/>
			<psa10 value="0.134844457783546" flag="0"/>
			<psa30 value="0.00770278777188656" flag="0"/>
		</comp>
	</station>
	<station code="NAX1" name="NAX1" netid="HI" source="ITSAK Strong Motion Network" insttype="" lat="37.101394" lon="25.374103" esm:processing="automatic (Paolucci et al 2011)" esm:quality="best">
		<comp name="--.HNE" depth="0.0">
			<acc value="0.00759822361344999" flag="0"/>
			<vel value="0.010260814678384" flag="0"/>
			<psa03 value="0.0156885158496798" flag="0"/>
			<psa10 value="0.0157463874958923" flag="0"/>
			<psa30 value="0.00316669248616922" flag="0"/>
		</comp>
		<comp name="--.HNN" depth="0.0">
			<acc value="0.0091117212015843" flag="0"/>
			<vel value="0.00769313946724897" flag="0"/>
			<psa03 value="0.0219417217605489" flag="0"/>
			<psa10 value="0.0169281001535564" flag="0"/>
			<psa30 value="0.00245746904526362" flag="0"/>
		</comp>
		<comp name="--.HNZ" depth="0.0">
			<acc value="0.00753522678019806" flag="0"/>
			<vel value="0.00913975123583541" flag="0"/>
			<psa03 value="0.0277858432799181" flag="0"/>
			<psa10 value="0.0114854958577327" flag="0"/>
			<psa30 value="0.00278481843888773" flag="0"/>
		</comp>
	</station>
	<station code="RTH1" name="RTH1" netid="HI" source="ITSAK Strong Motion Network" insttype="" lat="35.365393" lon="24.471773" esm:processing="manual (Paolucci et al 2011)" esm:quality="good">
		<comp name="--.HNE" depth="0.0">
			<acc value="0.239392150630983" flag="0"/>
			<vel value="0.184781321204025" flag="0"/>
			<psa03 value="1.20143992283186" flag="0"/>
			<psa10 value="0.203945335377557" flag="0"/>
			<psa30 value="0.0240711412616402" flag="0"/>
		</comp>
		<comp name="--.HNN" depth="0.0">
			<acc value="0.286481143591025" flag="0"/>
			<vel value="0.198976552255281" flag="0"/>
			<psa03 value="1.41828245425202" flag="0"/>
			<psa10 value="0.249836525443676" flag="0"/>
			<psa30 value="0.0194583490201259" flag="0"/>
		</comp>
		<comp name="--.HNZ" depth="0.0">
			<acc value="0.162564291996525" flag="0"/>
			<vel value="0.102640659523819" flag="0"/>
			<psa03 value="0.360981204899887" flag="0"/>
			<psa10 value="0.134445656364909" flag="0"/>
			<psa30 value="0.0156984649462586" flag="0"/>
		</comp>
	</station>
	<station code="SIT2" name="SIT2" netid="HI" source="ITSAK Strong Motion Network" insttype="" lat="35.2059" lon="26.107" esm:processing="manual (Paolucci et al 2011)" esm:quality="good">
		<comp name="--.HNE" depth="0.0">
			<acc value="0.0903794425784214" flag="0"/>
			<vel value="0.0991911707785181" flag="0"/>
			<psa03 value="0.215521568912882" flag="0"/>
			<psa10 value="0.121521107676989" flag="0"/>
			<psa30 value="0.0110644021290064" flag="0"/>
		</comp>
		<comp name="--.HNN" depth="0.0">
			<acc value="0.11585503172657" flag="0"/>
			<vel value="0.121911407993223" flag="0"/>
			<psa03 value="0.208511312851156" flag="0"/>
			<psa10 value="0.162618527679368" flag="0"/>
			<psa30 value="0.00996855120092728" flag="0"/>
		</comp>
		<comp name="--.HNZ" depth="0.0">
			<acc value="0.0268321428679146" flag="0"/>
			<vel value="0.0258965766381849" flag="0"/>
			<psa03 value="0.0707782407944244" flag="0"/>
			<psa10 value="0.0320493118596208" flag="0"/>
			<psa30 value="0.00618532183054862" flag="0"/>
		</comp>
	</station>
	<station code="AMGA" name="AMGA" netid="HL" source="National Observatory of Athens Seismic Network" insttype="" lat="36.831561" lon="25.893836" esm:processing="automatic (Paolucci et al 2011)" esm:quality="best">
		<comp name="00.HNE" depth="0.0">
			<acc value="0.012310922744781" flag="0"/>
			<vel value="0.016054510135709" flag="0"/>
			<psa03 value="0.0292746476350666" flag="0"/>
			<psa10 value="0.0288797162644682" flag="0"/>
			<psa30 value="0.00685662963472937" flag="0"/>
		</comp>
		<comp name="00.HNN" depth="0.0">
			<acc value="0.011806466881183" flag="0"/>
			<vel value="0.0197947672881173" flag="0"/>
			<psa03 value="0.0281687748972584" flag="0"/>
			<psa10 value="0.0291976529512134" flag="0"/>
			<psa30 value="0.00557132573965427" flag="0"/>
		</comp>
		<comp name="00.HNZ" depth="0.0">
			<acc value="0.00953332830337119" flag="0"/>
			<vel value="0.0190198835427875" flag="0"/>
			<psa03 value="0.0230078731170105" flag="0"/>
			<psa10 value="0.0161729407529522" flag="0"/>
			<psa30 value="0.00628764277547572" flag="0"/>
		</comp>
	</station>
	<station code="SAP3" name="SAP3" netid="HL" source="National Observatory of Athens Seismic Network" insttype="" lat="36.4356" lon="25.345419" esm:processing="automatic (Paolucci et al 2011)" esm:quality="best">
		<comp name="--.HNE" depth="0.0">
			<acc value="0.0520882219206998" flag="0"/>
			<vel value="0.060712308175926" flag="0"/>
			<psa03 value="0.110421366956974" flag="0"/>
			<psa10 value="0.130615032604885" flag="0"/>
			<psa30 value="0.0189922431428991" flag="0"/>
		</comp>
		<comp name="--.HNN" depth="0.0">
			<acc value="0.0450168780392667" flag="0"/>
			<vel value="0.0588977162983702" flag="0"/>
			<psa03 value="0.139123257899721" flag="0"/>
			<psa10 value="0.103936657793484" flag="0"/>
			<psa30 value="0.0189018988246981" flag="0"/>
		</comp>
		<comp name="--.HNZ" depth="0.0">
			<acc value="0.0358334830989209" flag="0"/>
			<vel value="0.0245342001150787" flag="0"/>
			<psa03 value="0.132024558479056" flag="0"/>
			<psa10 value="0.0329948995001613" flag="0"/>
			<psa30 value="0.00386130620925272" flag="0"/>
		</comp>
	</station>
	<station code="SIVA" name="SIVA" netid="HL" source="National Observatory of Athens Seismic Network" insttype="" lat="35.01777" lon="24.81204" esm:processing="automatic (Paolucci et al 2011)" esm:quality="best">
		<comp name="00.HNE" depth="0.0">
			<acc value="0.568537340648844" flag="0"/>
			<vel value="0.556276283917801" flag="0"/>
			<psa03 value="1.60367440222539" flag="0"/>
			<psa10 value="0.805885065930539" flag="0"/>
			<psa30 value="0.0434239232884709" flag="0"/>
		</comp>
		<comp name="00.HNN" depth="0.0">
			<acc value="0.598176976315353" flag="0"/>
			<vel value="0.53383030840259" flag="0"/>
			<psa03 value="1.25644473329727" flag="0"/>
			<psa10 value="0.721123810913381" flag="0"/>
			<psa30 value="0.0511116958990101" flag="0"/>
		</comp>
		<comp name="00.HNZ" depth="0.0">
			<acc value="0.293990793461939" flag="0"/>
			<vel value="0.21115625181044" flag="0"/>
			<psa03 value="0.595052502641267" flag="0"/>
			<psa10 value="0.249269697894133" flag="0"/>
			<psa30 value="0.0219126299375251" flag="0"/>
		</comp>
	</station>
</stationlist>
