<?xml version="1.0" encoding="UTF-8" standalone="yes"?>
<!DOCTYPE earthquake SYSTEM "stationlist.dtd">
<stationlist created="" xmlns="ch.ethz.sed.shakemap.usgs.xml">
  <station code="IMMV" name="IMMV" netid="GE" insttype="STS-2/N" commtype="DIG" lat="35.4606" lon="23.9811">
    <comp name="--.HHE">
      <acc value="0.5367826897" flag="0"/>
      <vel value="0.4044851770" flag="0"/>
      <psa03 value="2.6785296075" flag="0"/>
      <psa10 value="0.4007407868" flag="0"/>
      <psa30 value="0.0262215018" flag="0"/>
    </comp>
    <comp name="--.HHN">
      <acc value="0.5572327812" flag="0"/>
      <vel value="0.3267140273" flag="0"/>
      <psa03 value="2.7019830744" flag="0"/>
      <psa10 value="0.5132115640" flag="0"/>
      <psa30 value="0.0342250912" flag="0"/>
    </comp>
    <comp name="--.HHZ">
      <acc value="0.5158895864" flag="0"/>
      <vel value="0.3762228498" flag="0"/>
      <psa03 value="1.1551489690" flag="0"/>
      <psa10 value="0.4474045673" flag="0"/>
      <psa30 value="0.0180069770" flag="0"/>
    </comp>
  </station>
  <station code="CHAN" name="CHAN" netid="HC" insttype="120" commtype="DIG" lat="35.5193" lon="24.0428">
    <comp name="--.HHE">
      <acc value="0.5982137892" flag="0"/>
      <vel value="0.4678139947" flag="0"/>
      <psa03 value="1.7089796002" flag="0"/>
      <psa10 value="0.9079987598" flag="0"/>
      <psa30 value="0.0709893527" flag="0"/>
    </comp>
    <comp name="--.HHN">
      <acc value="0.0000000000" flag="0"/>
      <vel value="-100.0000000000" flag="0"/>
      <psa03 value="0.0000000000" flag="0"/>
      <psa10 value="0.0000000000" flag="0"/>
      <psa30 value="0.0000000000" flag="0"/>
    </comp>
    <comp name="--.HHZ">
      <acc value="0.3605120861" flag="0"/>
      <vel value="0.2880450132" flag="0"/>
      <psa03 value="1.5364748214" flag="0"/>
      <psa10 value="0.4540303502" flag="0"/>
      <psa30 value="0.0496645419" flag="0"/>
    </comp>
  </station>
  <station code="IMOD" name="IMOD" netid="HC" insttype="120" commtype="DIG" lat="34.9731" lon="24.7995">
    <comp name="--.HHN">
      <acc value="0.5045271131" flag="0"/>
      <vel value="0.4705261383" flag="0"/>
      <psa03 value="2.0739000012" flag="0"/>
      <psa10 value="0.6398870091" flag="0"/>
      <psa30 value="0.0434484530" flag="0"/>
    </comp>
    <comp name="--.HHE">
      <acc value="0.0000480707" flag="0"/>
      <vel value="-100.0000000000" flag="0"/>
      <psa03 value="0.0000004806" flag="0"/>
      <psa10 value="0.0000004760" flag="0"/>
      <psa30 value="0.0000004380" flag="0"/>
    </comp>
    <comp name="--.HHZ">
      <acc value="0.2779221556" flag="0"/>
      <vel value="0.1864004400" flag="0"/>
      <psa03 value="0.7244210473" flag="0"/>
      <psa10 value="0.2864779054" flag="0"/>
      <psa30 value="0.0157996745" flag="0"/>
    </comp>
  </station>
  <station code="IPPL" name="IPPL" netid="HC" insttype="60" commtype="DIG" lat="35.3486" lon="24.4632">
    <comp name="--.HHE">
      <acc value="0.0000000000" flag="0"/>
      <vel value="-100.0000000000" flag="0"/>
      <psa03 value="0.0000000000" flag="0"/>
      <psa10 value="0.0000000000" flag="0"/>
      <psa30 value="0.0000000000" flag="0"/>
    </comp>
    <comp name="--.HHN">
      <acc value="0.0000000000" flag="0"/>
      <vel value="-100.0000000000" flag="0"/>
      <psa03 value="0.0000000000" flag="0"/>
      <psa10 value="0.0000000000" flag="0"/>
      <psa30 value="0.0000000000" flag="0"/>
    </comp>
    <comp name="--.HHZ">
      <acc value="0.2327960113" flag="0"/>
      <vel value="0.1547601883" flag="0"/>
      <psa03 value="0.6837949722" flag="0"/>
      <psa10 value="0.1675946433" flag="0"/>
      <psa30 value="0.0188688378" flag="0"/>
    </comp>
  </station>
  <station code="KNDR" name="KNDR" netid="HC" insttype="120" commtype="DIG" lat="35.2348" lon="23.6248">
    <comp name="--.HHE">
      <acc value="0.6622008972" flag="0"/>
      <vel value="0.4868968065" flag="0"/>
      <psa03 value="2.6118580926" flag="0"/>
      <psa10 value="0.6679850402" flag="0"/>
      <psa30 value="0.0395229081" flag="0"/>
    </comp>
    <comp name="--.HHN">
      <acc value="0.6612086123" flag="0"/>
      <vel value="0.4194259085" flag="0"/>
      <psa03 value="2.2291892758" flag="0"/>
      <psa10 value="0.6341302478" flag="0"/>
      <psa30 value="0.0249651113" flag="0"/>
    </comp>
    <comp name="--.HHZ">
      <acc value="0.4160662917" flag="0"/>
      <vel value="0.2440039704" flag="0"/>
      <psa03 value="1.4950302575" flag="0"/>
      <psa10 value="0.2502702002" flag="0"/>
      <psa30 value="0.0137957002" flag="0"/>
    </comp>
  </station>
  <station code="KNSS" name="KNSS" netid="HC" insttype="60" commtype="DIG" lat="35.3042" lon="25.1802">
    <comp name="--.HHE">
      <acc value="0.0000000000" flag="0"/>
      <vel value="-100.0000000000" flag="0"/>
      <psa03 value="0.0000000000" flag="0"/>
      <psa10 value="0.0000000000" flag="0"/>
      <psa30 value="0.0000000000" flag="0"/>
    </comp>
    <comp name="--.HHZ">
      <acc value="0.0701612457" flag="0"/>
      <vel value="0.0627065518" flag="0"/>
      <psa03 value="0.2387689662" flag="0"/>
      <psa10 value="0.1248729817" flag="0"/>
      <psa30 value="0.0107405086" flag="0"/>
    </comp>
    <comp name="--.HHN">
      <acc value="0.1241370059" flag="0"/>
      <vel value="0.1377886953" flag="0"/>
      <psa03 value="0.3165580415" flag="0"/>
      <psa10 value="0.1909851517" flag="0"/>
      <psa30 value="0.0161917829" flag="0"/>
    </comp>
  </station>
  <station code="PFKS" name="PFKS" netid="HC" insttype="120" commtype="DIG" lat="35.0429" lon="25.4733">
    <comp name="--.HHE">
      <acc value="0.0873286615" flag="0"/>
      <vel value="0.0951904082" flag="0"/>
      <psa03 value="0.1865465942" flag="0"/>
      <psa10 value="0.1333586743" flag="0"/>
      <psa30 value="0.0145773793" flag="0"/>
    </comp>
    <comp name="--.HHZ">
      <acc value="0.0568903812" flag="0"/>
      <vel value="0.0544993531" flag="0"/>
      <psa03 value="0.0929865599" flag="0"/>
      <psa10 value="0.1196722137" flag="0"/>
      <psa30 value="0.0098361177" flag="0"/>
    </comp>
    <comp name="--.HHN">
      <acc value="0.1069112241" flag="0"/>
      <vel value="0.0823362160" flag="0"/>
      <psa03 value="0.2242070790" flag="0"/>
      <psa10 value="0.1690662495" flag="0"/>
      <psa30 value="0.0099059416" flag="0"/>
    </comp>
  </station>
  <station code="RODP" name="RODP" netid="HC" insttype="120" commtype="DIG" lat="35.5604" lon="23.7577">
    <comp name="--.HHE">
      <acc value="0.3857065045" flag="0"/>
      <vel value="0.3710398681" flag="0"/>
      <psa03 value="0.9401356562" flag="0"/>
      <psa10 value="0.6021902675" flag="0"/>
      <psa30 value="0.0281801283" flag="0"/>
    </comp>
    <comp name="--.HHZ">
      <acc value="0.1788341348" flag="0"/>
      <vel value="0.1199904927" flag="0"/>
      <psa03 value="0.4479927869" flag="0"/>
      <psa10 value="0.1962266059" flag="0"/>
      <psa30 value="0.0138954418" flag="0"/>
    </comp>
    <comp name="--.HHN">
      <acc value="0.3004703111" flag="0"/>
      <vel value="0.2835645585" flag="0"/>
      <psa03 value="0.9144907123" flag="0"/>
      <psa10 value="0.5228780608" flag="0"/>
      <psa30 value="0.0250287867" flag="0"/>
    </comp>
  </station>
  <station code="ARK1" name="ARK1" netid="HI" insttype="unknown" commtype="DIG" lat="35.1488" lon="25.2642">
    <comp name="--.HNZ">
      <acc value="0.1261706773" flag="0"/>
      <vel value="0.1532067953" flag="0"/>
      <psa03 value="0.2283404231" flag="0"/>
      <psa10 value="0.2352150095" flag="0"/>
      <psa30 value="0.0188924669" flag="0"/>
    </comp>
    <comp name="--.HNE">
      <acc value="0.1312040621" flag="0"/>
      <vel value="0.1487933989" flag="0"/>
      <psa03 value="0.4678278122" flag="0"/>
      <psa10 value="0.1960731499" flag="0"/>
      <psa30 value="0.0379672277" flag="0"/>
    </comp>
    <comp name="--.HNN">
      <acc value="0.1764984730" flag="0"/>
      <vel value="0.1575008661" flag="0"/>
      <psa03 value="0.3907452680" flag="0"/>
      <psa10 value="0.2491377731" flag="0"/>
      <psa30 value="0.0281538906" flag="0"/>
    </comp>
  </station>
  <station code="CH01" name="CH01" netid="HI" insttype="CMG-5TD,ACCELEROMETER,GURALP" commtype="DIG" lat="35.517" lon="24.0208">
    <comp name="--.HNN">
      <acc value="0.3986772855" flag="0"/>
      <vel value="0.4146714778" flag="0"/>
      <psa03 value="0.8882332602" flag="0"/>
      <psa10 value="0.4355296829" flag="0"/>
      <psa30 value="0.0561281575" flag="0"/>
    </comp>
    <comp name="--.HNE">
      <acc value="0.3262014538" flag="0"/>
      <vel value="0.3964730823" flag="0"/>
      <psa03 value="0.7915846826" flag="0"/>
      <psa10 value="0.5300534960" flag="0"/>
      <psa30 value="0.0396372254" flag="0"/>
    </comp>
    <comp name="--.HNZ">
      <acc value="0.2509264356" flag="0"/>
      <vel value="0.2691117643" flag="0"/>
      <psa03 value="0.6886903215" flag="0"/>
      <psa10 value="0.4482158479" flag="0"/>
      <psa30 value="0.0327448077" flag="0"/>
    </comp>
  </station>
  <station code="CH02" name="CH02" netid="HI" insttype="unknown" commtype="DIG" lat="35.5145" lon="24.0315">
    <comp name="--.HNZ">
      <acc value="0.1943664636" flag="0"/>
      <vel value="0.1732179626" flag="0"/>
      <psa03 value="0.5509466099" flag="0"/>
      <psa10 value="0.2864464773" flag="0"/>
      <psa30 value="0.0246308232" flag="0"/>
    </comp>
    <comp name="--.HNE">
      <acc value="0.3091661537" flag="0"/>
      <vel value="0.3676916667" flag="0"/>
      <psa03 value="0.6696887961" flag="0"/>
      <psa10 value="0.6989401216" flag="0"/>
      <psa30 value="0.0468324521" flag="0"/>
    </comp>
    <comp name="--.HNN">
      <acc value="0.3626221899" flag="0"/>
      <vel value="0.4276452849" flag="0"/>
      <psa03 value="1.1700776621" flag="0"/>
      <psa10 value="0.4658443821" flag="0"/>
      <psa30 value="0.0495646659" flag="0"/>
    </comp>
  </station>
  <station code="CH03" name="CH03" netid="HI" insttype="unknown" commtype="DIG" lat="35.533" lon="24.0705">
    <comp name="--.HNE">
      <acc value="0.1858975035" flag="0"/>
      <vel value="0.2182476742" flag="0"/>
      <psa03 value="0.4773713100" flag="0"/>
      <psa10 value="0.2697178933" flag="0"/>
      <psa30 value="0.0297147806" flag="0"/>
    </comp>
    <comp name="--.HNN">
      <acc value="0.2757186860" flag="0"/>
      <vel value="0.2617579795" flag="0"/>
      <psa03 value="0.5960201899" flag="0"/>
      <psa10 value="0.2932306290" flag="0"/>
      <psa30 value="0.0313271930" flag="0"/>
    </comp>
    <comp name="--.HNZ">
      <acc value="0.2466554095" flag="0"/>
      <vel value="0.1448341142" flag="0"/>
      <psa03 value="0.8511581041" flag="0"/>
      <psa10 value="0.1762371818" flag="0"/>
      <psa30 value="0.0170432706" flag="0"/>
    </comp>
  </station>
  <station code="GOR1" name="GOR1" netid="HI" insttype="unknown" commtype="DIG" lat="35.0582" lon="24.9628">
    <comp name="--.HNN">
      <acc value="0.3411283373" flag="0"/>
      <vel value="0.4328199044" flag="0"/>
      <psa03 value="0.6327505487" flag="0"/>
      <psa10 value="0.5878739198" flag="0"/>
      <psa30 value="0.0422026672" flag="0"/>
    </comp>
    <comp name="--.HNZ">
      <acc value="0.2136543756" flag="0"/>
      <vel value="0.2110158649" flag="0"/>
      <psa03 value="0.4839208862" flag="0"/>
      <psa10 value="0.4699422237" flag="0"/>
      <psa30 value="0.0229009267" flag="0"/>
    </comp>
    <comp name="--.HNE">
      <acc value="0.3202339304" flag="0"/>
      <vel value="0.4169476159" flag="0"/>
      <psa03 value="0.6903274629" flag="0"/>
      <psa10 value="0.8027669475" flag="0"/>
      <psa30 value="0.0437454445" flag="0"/>
    </comp>
  </station>
  <station code="HER1" name="HER1" netid="HI" insttype="unknown" commtype="DIG" lat="35.3177" lon="25.1022">
    <comp name="--.HNE">
      <acc value="0.5442071853" flag="0"/>
      <vel value="0.7595954825" flag="0"/>
      <psa03 value="0.8067182380" flag="0"/>
      <psa10 value="1.4169767820" flag="0"/>
      <psa30 value="0.0809627089" flag="0"/>
    </comp>
    <comp name="--.HNN">
      <acc value="0.3187913469" flag="0"/>
      <vel value="0.4744193676" flag="0"/>
      <psa03 value="0.5754283235" flag="0"/>
      <psa10 value="0.8767411207" flag="0"/>
      <psa30 value="0.0560660571" flag="0"/>
    </comp>
    <comp name="--.HNZ">
      <acc value="0.4271705973" flag="0"/>
      <vel value="0.4965865676" flag="0"/>
      <psa03 value="0.5718137804" flag="0"/>
      <psa10 value="0.7872612130" flag="0"/>
      <psa30 value="0.0349382781" flag="0"/>
    </comp>
  </station>
  <station code="KTL1" name="KTL1" netid="HI" insttype="unknown" commtype="DIG" lat="35.2078" lon="25.3427">
    <comp name="--.HNN">
      <acc value="0.1130735493" flag="0"/>
      <vel value="0.1008480022" flag="0"/>
      <psa03 value="0.2982473452" flag="0"/>
      <psa10 value="0.1670678474" flag="0"/>
      <psa30 value="0.0144572477" flag="0"/>
    </comp>
    <comp name="--.HNE">
      <acc value="0.0888894055" flag="0"/>
      <vel value="0.0987470558" flag="0"/>
      <psa03 value="0.1913329934" flag="0"/>
      <psa10 value="0.2091324096" flag="0"/>
      <psa30 value="0.0126930353" flag="0"/>
    </comp>
    <comp name="--.HNZ">
      <acc value="0.0634590978" flag="0"/>
      <vel value="0.0581275108" flag="0"/>
      <psa03 value="0.1169303841" flag="0"/>
      <psa10 value="0.1348326972" flag="0"/>
      <psa30 value="0.0076547249" flag="0"/>
    </comp>
  </station>
  <station code="RTH1" name="RTH1" netid="HI" insttype="unknown" commtype="DIG" lat="35.3654" lon="24.4718">
    <comp name="--.HNN">
      <acc value="0.2855592220" flag="0"/>
      <vel value="0.1995034789" flag="0"/>
      <psa03 value="1.4146694151" flag="0"/>
      <psa10 value="0.2493889978" flag="0"/>
      <psa30 value="0.0207434905" flag="0"/>
    </comp>
    <comp name="--.HNE">
      <acc value="0.2392483543" flag="0"/>
      <vel value="0.1842678476" flag="0"/>
      <psa03 value="1.1977357862" flag="0"/>
      <psa10 value="0.2039312832" flag="0"/>
      <psa30 value="0.0255329705" flag="0"/>
    </comp>
    <comp name="--.HNZ">
      <acc value="0.1622347362" flag="0"/>
      <vel value="0.1025017826" flag="0"/>
      <psa03 value="0.3582922287" flag="0"/>
      <psa10 value="0.1345097349" flag="0"/>
      <psa30 value="0.0170061474" flag="0"/>
    </comp>
  </station>
  <station code="CHNB" name="CHNB" netid="HL" insttype="CMG-5" commtype="DIG" lat="35.4877" lon="24.0661">
    <comp name="00.HNE">
      <acc value="0.7768171413" flag="0"/>
      <vel value="0.7185682925" flag="0"/>
      <psa03 value="2.2376003519" flag="0"/>
      <psa10 value="1.2724608512" flag="0"/>
      <psa30 value="0.0686122356" flag="0"/>
    </comp>
    <comp name="00.HNN">
      <acc value="1.0141259918" flag="0"/>
      <vel value="0.9396954123" flag="0"/>
      <psa03 value="2.2269429363" flag="0"/>
      <psa10 value="1.7219681012" flag="0"/>
      <psa30 value="0.0653213376" flag="0"/>
    </comp>
    <comp name="00.HNZ">
      <acc value="0.5247263973" flag="0"/>
      <vel value="0.4577381950" flag="0"/>
      <psa03 value="2.2185394242" flag="0"/>
      <psa10 value="0.3735195043" flag="0"/>
      <psa30 value="0.0226853431" flag="0"/>
    </comp>
  </station>
  <station code="HERG" name="HERG" netid="HL" insttype="CMG-5" commtype="DIG" lat="35.3262" lon="25.0659">
    <comp name="00.HNN">
      <acc value="0.3107687256" flag="0"/>
      <vel value="0.3836209594" flag="0"/>
      <psa03 value="0.6116268334" flag="0"/>
      <psa10 value="0.6219192258" flag="0"/>
      <psa30 value="0.0500266588" flag="0"/>
    </comp>
    <comp name="00.HNE">
      <acc value="0.3110334896" flag="0"/>
      <vel value="0.3924049105" flag="0"/>
      <psa03 value="0.6982172736" flag="0"/>
      <psa10 value="0.8849161699" flag="0"/>
      <psa30 value="0.0490704880" flag="0"/>
    </comp>
    <comp name="00.HNZ">
      <acc value="0.2842453237" flag="0"/>
      <vel value="0.3370406929" flag="0"/>
      <psa03 value="0.4263604953" flag="0"/>
      <psa10 value="0.4850333225" flag="0"/>
      <psa30 value="0.0328007509" flag="0"/>
    </comp>
  </station>
  <station code="IACM" name="IACM" netid="HL" insttype="CMG5T" commtype="DIG" lat="35.3058" lon="25.0709">
    <comp name="--.HNN">
      <acc value="0.5169766138" flag="0"/>
      <vel value="0.5312895939" flag="0"/>
      <psa03 value="1.5181271083" flag="0"/>
      <psa10 value="1.3752252722" flag="0"/>
      <psa30 value="0.0537618393" flag="0"/>
    </comp>
    <comp name="--.HNZ">
      <acc value="0.2907013132" flag="0"/>
      <vel value="0.2411189682" flag="0"/>
      <psa03 value="0.6704498249" flag="0"/>
      <psa10 value="0.4638435327" flag="0"/>
      <psa30 value="0.0204934897" flag="0"/>
    </comp>
    <comp name="--.HNE">
      <acc value="0.4618762915" flag="0"/>
      <vel value="0.5489046289" flag="0"/>
      <psa03 value="1.5910834877" flag="0"/>
      <psa10 value="1.6095040477" flag="0"/>
      <psa30 value="0.0595466947" flag="0"/>
    </comp>
  </station>
  <station code="IMMV" name="IMMV" netid="HL" insttype="120" commtype="DIG" lat="35.4606" lon="23.9811">
    <comp name="--.HHE">
      <acc value="0.5264018792" flag="0"/>
      <vel value="0.3988373200" flag="0"/>
      <psa03 value="2.6042661560" flag="0"/>
      <psa10 value="0.3983015189" flag="0"/>
      <psa30 value="0.0261571141" flag="0"/>
    </comp>
    <comp name="--.HHN">
      <acc value="0.5478792245" flag="0"/>
      <vel value="0.3206796480" flag="0"/>
      <psa03 value="2.6253301913" flag="0"/>
      <psa10 value="0.5105978585" flag="0"/>
      <psa30 value="0.0341464243" flag="0"/>
    </comp>
    <comp name="--.HHZ">
      <acc value="0.5038668979" flag="0"/>
      <vel value="0.3699037661" flag="0"/>
      <psa03 value="1.1241416593" flag="0"/>
      <psa10 value="0.4441764436" flag="0"/>
      <psa30 value="0.0178138035" flag="0"/>
    </comp>
  </station>
  <station code="SIVA" name="SIVA" netid="HL" insttype="60" commtype="DIG" lat="35.0178" lon="24.812">
    <comp name="--.HHN">
      <acc value="0.5412962709" flag="0"/>
      <vel value="0.4712792891" flag="0"/>
      <psa03 value="1.1523932824" flag="0"/>
      <psa10 value="0.6176845621" flag="0"/>
      <psa30 value="0.0434587818" flag="0"/>
    </comp>
    <comp name="--.HHE">
      <acc value="0.6174947896" flag="0"/>
      <vel value="0.5927784544" flag="0"/>
      <psa03 value="1.6962833518" flag="0"/>
      <psa10 value="0.8653957930" flag="0"/>
      <psa30 value="0.0468161030" flag="0"/>
    </comp>
    <comp name="--.HHZ">
      <acc value="0.2979003113" flag="0"/>
      <vel value="0.2137036166" flag="0"/>
      <psa03 value="0.6069817892" flag="0"/>
      <psa10 value="0.2550791371" flag="0"/>
      <psa30 value="0.0222495083" flag="0"/>
    </comp>
  </station>
</stationlist>
