<?xml version="1.0" encoding="UTF-8" standalone="yes"?>
<!DOCTYPE earthquake SYSTEM "stationlist.dtd">
<stationlist created="" xmlns="ch.ethz.sed.shakemap.usgs.xml">
  <station code="BNGB" name="BNGB" netid="KO" insttype="CMG-3ESPC" lat="38.9913" lon="40.6792">
    <comp name="--.HHZ">
      <acc value="0.1495877280" flag="0"/>
      <vel value="0.0643047008" flag="0"/>
      <psa03 value="0.2928060009" flag="0"/>
      <psa10 value="0.0495967874" flag="0"/>
      <psa30 value="0.0029670426" flag="0"/>
    </comp>
    <comp name="--.HHN">
      <acc value="0.2139741522" flag="0"/>
      <vel value="0.0719067121" flag="0"/>
      <psa03 value="0.2553511037" flag="0"/>
      <psa10 value="0.0431781858" flag="0"/>
      <psa30 value="0.0025025100" flag="0"/>
    </comp>
    <comp name="--.HHE">
      <acc value="0.2233346094" flag="0"/>
      <vel value="0.0953489427" flag="0"/>
      <psa03 value="0.4819159058" flag="0"/>
      <psa10 value="0.0597545445" flag="0"/>
      <psa30 value="0.0050181073" flag="0"/>
    </comp>
  </station>
  <station code="ERZN" name="ERZN" netid="KO" insttype="CMG-3ESP" lat="39.5867" lon="39.722">
    <comp name="--.HHE">
      <acc value="0.0138764411" flag="0"/>
      <vel value="0.0050415877" flag="0"/>
      <psa03 value="0.0225470801" flag="0"/>
      <psa10 value="0.0049647421" flag="0"/>
      <psa30 value="0.0003123724" flag="0"/>
    </comp>
    <comp name="--.HHN">
      <acc value="0.0121044457" flag="0"/>
      <vel value="0.0066477594" flag="0"/>
      <psa03 value="0.0323180206" flag="0"/>
      <psa10 value="0.0066713300" flag="0"/>
      <psa30 value="0.0005317763" flag="0"/>
    </comp>
    <comp name="--.HHZ">
      <acc value="0.0096212885" flag="0"/>
      <vel value="0.0024791757" flag="0"/>
      <psa03 value="0.0158516904" flag="0"/>
      <psa10 value="0.0032062742" flag="0"/>
      <psa30 value="0.0002532713" flag="0"/>
    </comp>
  </station>
  <station code="KARO" name="KARO" netid="KO" insttype="CMG-3T" lat="39.3089" lon="41.0493">
    <comp name="--.HHE">
      <acc value="0.8503366336" flag="0"/>
      <vel value="0.3489561628" flag="0"/>
      <psa03 value="1.9588243071" flag="0"/>
      <psa10 value="0.2873270512" flag="0"/>
      <psa30 value="0.0136399034" flag="0"/>
    </comp>
    <comp name="--.HHZ">
      <acc value="0.6745063072" flag="0"/>
      <vel value="0.2019981306" flag="0"/>
      <psa03 value="0.9414874288" flag="0"/>
      <psa10 value="0.0970850584" flag="0"/>
      <psa30 value="0.0074072286" flag="0"/>
    </comp>
    <comp name="--.HHN">
      <acc value="1.2906075448" flag="0"/>
      <vel value="0.5366976225" flag="0"/>
      <psa03 value="2.4472164459" flag="0"/>
      <psa10 value="0.2809456112" flag="0"/>
      <psa30 value="0.0224334010" flag="0"/>
    </comp>
  </station>
  <station code="KOPR" name="KOPR" netid="KO" insttype="CMG-3T" lat="39.9917" lon="41.8535">
    <comp name="--.HHE">
      <acc value="0.0078530064" flag="0"/>
      <vel value="0.0048705209" flag="0"/>
      <psa03 value="0.0263946692" flag="0"/>
      <psa10 value="0.0066012291" flag="0"/>
      <psa30 value="0.0012484018" flag="0"/>
    </comp>
    <comp name="--.HHN">
      <acc value="0.0069798640" flag="0"/>
      <vel value="0.0048677085" flag="0"/>
      <psa03 value="0.0205073625" flag="0"/>
      <psa10 value="0.0072911517" flag="0"/>
      <psa30 value="0.0009803280" flag="0"/>
    </comp>
  </station>
  <station code="SVAN" name="SVAN" netid="KO" insttype="CMG-3T" lat="38.1511" lon="41.1984">
    <comp name="--.HHN">
      <acc value="0.0025703949" flag="0"/>
      <vel value="0.0011321046" flag="0"/>
      <psa03 value="0.0102958447" flag="0"/>
      <psa10 value="0.0014991461" flag="0"/>
      <psa30 value="0.0002624634" flag="0"/>
    </comp>
    <comp name="--.HHE">
      <acc value="0.0026083231" flag="0"/>
      <vel value="0.0018064924" flag="0"/>
      <psa03 value="0.0058967236" flag="0"/>
      <psa10 value="0.0025232567" flag="0"/>
      <psa30 value="0.0002829238" flag="0"/>
    </comp>
    <comp name="--.HHZ">
      <acc value="0.0027556203" flag="0"/>
      <vel value="0.0018746010" flag="0"/>
      <psa03 value="0.0106470003" flag="0"/>
      <psa10 value="0.0024036465" flag="0"/>
      <psa30 value="0.0002677647" flag="0"/>
    </comp>
  </station>
  <station code="YEDI" name="YEDI" netid="KO" insttype="CMG-3T" lat="39.4377" lon="40.5443">
    <comp name="--.HHZ">
      <acc value="0.0000470330" flag="0"/>
      <vel value="0.0000108083" flag="0"/>
      <psa03 value="0.0000232419" flag="0"/>
      <psa10 value="0.0000034778" flag="0"/>
      <psa30 value="0.0000006451" flag="0"/>
    </comp>
    <comp name="--.HHE">
      <acc value="0.7526064268" flag="0"/>
      <vel value="0.2325216078" flag="0"/>
      <psa03 value="1.2020410607" flag="0"/>
      <psa10 value="0.0553315894" flag="0"/>
      <psa30 value="0.0045010303" flag="0"/>
    </comp>
    <comp name="--.HHN">
      <acc value="0.4610073599" flag="0"/>
      <vel value="0.1635076178" flag="0"/>
      <psa03 value="0.9837446452" flag="0"/>
      <psa10 value="0.0804123915" flag="0"/>
      <psa30 value="0.0064562226" flag="0"/>
    </comp>
  </station>
</stationlist>
