<?xml version="1.0" encoding="UTF-8" standalone="yes"?>
<!DOCTYPE earthquake SYSTEM "stationlist.dtd">
<stationlist created="" xmlns="ch.ethz.sed.shakemap.usgs.xml">
  <station code="PANR" name="PANR" netid="CL" insttype="TRILLIUM-40" commtype="DIG" lat="38.3735" lon="22.2497">
    <comp name="01.HHE">
      <acc value="0.0155416478" flag="0"/>
      <vel value="0.0073655443" flag="0"/>
      <psa03 value="0.0249648261" flag="0"/>
      <psa10 value="0.0110649179" flag="0"/>
      <psa30 value="0.0007734550" flag="0"/>
    </comp>
    <comp name="01.HHZ">
      <acc value="0.0118912721" flag="0"/>
      <vel value="0.0083972427" flag="0"/>
      <psa03 value="0.0152272359" flag="0"/>
      <psa10 value="0.0067485752" flag="0"/>
      <psa30 value="0.0006431891" flag="0"/>
    </comp>
    <comp name="01.HHN">
      <acc value="0.0125996535" flag="0"/>
      <vel value="0.0129033878" flag="0"/>
      <psa03 value="0.0282982497" flag="0"/>
      <psa10 value="0.0165570723" flag="0"/>
      <psa30 value="0.0009337159" flag="0"/>
    </comp>
  </station>
  <station code="ACOR" name="ACOR" netid="HA" insttype="Horizon,120s,1200" commtype="DIG" lat="37.8905" lon="22.8694">
    <comp name="--.HHE">
      <acc value="0.0264164627" flag="0"/>
      <vel value="0.0212781511" flag="0"/>
      <psa03 value="0.0658642499" flag="0"/>
      <psa10 value="0.0323974195" flag="0"/>
      <psa30 value="0.0028574907" flag="0"/>
    </comp>
    <comp name="--.HHN">
      <acc value="0.0285368908" flag="0"/>
      <vel value="0.0277046128" flag="0"/>
      <psa03 value="0.0580042899" flag="0"/>
      <psa10 value="0.0418684215" flag="0"/>
      <psa30 value="0.0022135327" flag="0"/>
    </comp>
    <comp name="--.HHZ">
      <acc value="0.0183439058" flag="0"/>
      <vel value="0.0145136913" flag="0"/>
      <psa03 value="0.0469250252" flag="0"/>
      <psa10 value="0.0117065155" flag="0"/>
      <psa30 value="0.0009577904" flag="0"/>
    </comp>
  </station>
  <station code="AMPE" name="AMPE" netid="HA" insttype="1s-100Hz," commtype="DIG" lat="38.3015" lon="23.2688">
    <comp name="--.HHZ">
      <acc value="0.1118703146" flag="0"/>
      <vel value="0.0255895499" flag="0"/>
      <psa03 value="0.1243262837" flag="0"/>
      <psa10 value="0.0334535400" flag="0"/>
      <psa30 value="0.0021238165" flag="0"/>
    </comp>
    <comp name="--.HHN">
      <acc value="0.1360496127" flag="0"/>
      <vel value="0.0797922449" flag="0"/>
      <psa03 value="0.2994105314" flag="0"/>
      <psa10 value="0.0616058615" flag="0"/>
      <psa30 value="0.0031785309" flag="0"/>
    </comp>
    <comp name="--.HHE">
      <acc value="0.1983574643" flag="0"/>
      <vel value="0.1252570204" flag="0"/>
      <psa03 value="0.4975058284" flag="0"/>
      <psa10 value="0.0756413308" flag="0"/>
      <psa30 value="0.0090057007" flag="0"/>
    </comp>
  </station>
  <station code="ANTK" name="ANTK" netid="HA" insttype="25" commtype="DIG" lat="38.3605" lon="22.6385">
    <comp name="--.HHN">
      <acc value="0.0122452080" flag="0"/>
      <vel value="0.0056996288" flag="0"/>
      <psa03 value="0.0178484303" flag="0"/>
      <psa10 value="0.0072274701" flag="0"/>
      <psa30 value="0.0006539053" flag="0"/>
    </comp>
    <comp name="--.HHZ">
      <acc value="0.0112801778" flag="0"/>
      <vel value="0.0070934956" flag="0"/>
      <psa03 value="0.0224252359" flag="0"/>
      <psa10 value="0.0052937019" flag="0"/>
      <psa30 value="0.0005373665" flag="0"/>
    </comp>
    <comp name="--.HHE">
      <acc value="0.0115096303" flag="0"/>
      <vel value="0.0053695755" flag="0"/>
      <psa03 value="0.0305634479" flag="0"/>
      <psa10 value="0.0067068118" flag="0"/>
      <psa30 value="0.0004519682" flag="0"/>
    </comp>
  </station>
  <station code="ATAL" name="ATAL" netid="HA" insttype="120s," commtype="DIG" lat="38.6926" lon="23.0213">
    <comp name="--.HHE">
      <acc value="0.1291131438" flag="0"/>
      <vel value="0.0366062788" flag="0"/>
      <psa03 value="0.1705610089" flag="0"/>
      <psa10 value="0.0147301982" flag="0"/>
      <psa30 value="0.0013302124" flag="0"/>
    </comp>
    <comp name="--.HHN">
      <acc value="0.1466141856" flag="0"/>
      <vel value="0.0305484643" flag="0"/>
      <psa03 value="0.1292417866" flag="0"/>
      <psa10 value="0.0309730468" flag="0"/>
      <psa30 value="0.0018499957" flag="0"/>
    </comp>
    <comp name="--.HHZ">
      <acc value="0.1204710420" flag="0"/>
      <vel value="0.0407779564" flag="0"/>
      <psa03 value="0.1747362889" flag="0"/>
      <psa10 value="0.0184947480" flag="0"/>
      <psa30 value="0.0016227740" flag="0"/>
    </comp>
  </station>
  <station code="ATHU" name="ATHU" netid="HA" insttype="60s," commtype="DIG" lat="37.9665" lon="23.7845">
    <comp name="--.HHE">
      <acc value="0.0426317945" flag="0"/>
      <vel value="0.0140857006" flag="0"/>
      <psa03 value="0.0771548310" flag="0"/>
      <psa10 value="0.0152798816" flag="0"/>
      <psa30 value="0.0012524521" flag="0"/>
    </comp>
    <comp name="--.HHN">
      <acc value="0.0349677147" flag="0"/>
      <vel value="0.0157571156" flag="0"/>
      <psa03 value="0.0553208937" flag="0"/>
      <psa10 value="0.0091012879" flag="0"/>
      <psa30 value="0.0012069512" flag="0"/>
    </comp>
    <comp name="--.HHZ">
      <acc value="0.0234738246" flag="0"/>
      <vel value="0.0115629012" flag="0"/>
      <psa03 value="0.0357175604" flag="0"/>
      <psa10 value="0.0121721733" flag="0"/>
      <psa30 value="0.0010732991" flag="0"/>
    </comp>
  </station>
  <station code="AXAR" name="AXAR" netid="HA" insttype="Horizon,120s,1200" commtype="DIG" lat="38.7664" lon="22.659">
    <comp name="--.HHN">
      <acc value="0.0841169133" flag="0"/>
      <vel value="0.0354484629" flag="0"/>
      <psa03 value="0.2910556754" flag="0"/>
      <psa10 value="0.0312727412" flag="0"/>
      <psa30 value="0.0022969134" flag="0"/>
    </comp>
    <comp name="--.HHE">
      <acc value="0.0832444323" flag="0"/>
      <vel value="0.0472625010" flag="0"/>
      <psa03 value="0.2220501672" flag="0"/>
      <psa10 value="0.0381406180" flag="0"/>
      <psa30 value="0.0038264665" flag="0"/>
    </comp>
    <comp name="--.HHZ">
      <acc value="0.0612742753" flag="0"/>
      <vel value="0.0211975884" flag="0"/>
      <psa03 value="0.1161870352" flag="0"/>
      <psa10 value="0.0267178811" flag="0"/>
      <psa30 value="0.0012485319" flag="0"/>
    </comp>
  </station>
  <station code="DOMV" name="DOMV" netid="HA" insttype="60" commtype="DIG" lat="38.2569" lon="22.9795">
    <comp name="--.HHE">
      <acc value="0.6265821974" flag="0"/>
      <vel value="0.2136567813" flag="0"/>
      <psa03 value="0.8147178040" flag="0"/>
      <psa10 value="0.0574851325" flag="0"/>
      <psa30 value="0.0042236076" flag="0"/>
    </comp>
    <comp name="--.HHZ">
      <acc value="0.4460766695" flag="0"/>
      <vel value="0.1075796109" flag="0"/>
      <psa03 value="0.6141243581" flag="0"/>
      <psa10 value="0.0454816439" flag="0"/>
      <psa30 value="0.0024328530" flag="0"/>
    </comp>
    <comp name="--.HHN">
      <acc value="0.7690834197" flag="0"/>
      <vel value="0.1880707009" flag="0"/>
      <psa03 value="0.7679302504" flag="0"/>
      <psa10 value="0.0490229442" flag="0"/>
      <psa30 value="0.0035247730" flag="0"/>
    </comp>
  </station>
  <station code="ERTR" name="ERTR" netid="HA" insttype="Horizon,120s,1200" commtype="DIG" lat="38.4066" lon="23.7865">
    <comp name="--.HHN">
      <acc value="0.1503582081" flag="0"/>
      <vel value="0.0403204673" flag="0"/>
      <psa03 value="0.2989462500" flag="0"/>
      <psa10 value="0.0236972252" flag="0"/>
      <psa30 value="0.0033858358" flag="0"/>
    </comp>
    <comp name="--.HHE">
      <acc value="0.2687762578" flag="0"/>
      <vel value="0.0595778694" flag="0"/>
      <psa03 value="0.3051567607" flag="0"/>
      <psa10 value="0.0496830692" flag="0"/>
      <psa30 value="0.0029268012" flag="0"/>
    </comp>
    <comp name="--.HHZ">
      <acc value="0.1627305869" flag="0"/>
      <vel value="0.0273071736" flag="0"/>
      <psa03 value="0.1410509790" flag="0"/>
      <psa10 value="0.0236667844" flag="0"/>
      <psa30 value="0.0015332573" flag="0"/>
    </comp>
  </station>
  <station code="KARY" name="KARY" netid="HA" insttype="60" commtype="DIG" lat="38.0321" lon="24.437">
    <comp name="--.HHE">
      <acc value="0.0493260889" flag="0"/>
      <vel value="0.0132733188" flag="0"/>
      <psa03 value="0.0644049309" flag="0"/>
      <psa10 value="0.0091458833" flag="0"/>
      <psa30 value="0.0009867720" flag="0"/>
    </comp>
    <comp name="--.HHZ">
      <acc value="0.0421283701" flag="0"/>
      <vel value="0.0201019463" flag="0"/>
      <psa03 value="0.0684474170" flag="0"/>
      <psa10 value="0.0204578425" flag="0"/>
      <psa30 value="0.0014965535" flag="0"/>
    </comp>
    <comp name="--.HHN">
      <acc value="0.0571386578" flag="0"/>
      <vel value="0.0202541505" flag="0"/>
      <psa03 value="0.0694165362" flag="0"/>
      <psa10 value="0.0272970046" flag="0"/>
      <psa30 value="0.0021572511" flag="0"/>
    </comp>
  </station>
  <station code="KIAS" name="KIAS" netid="HA" insttype="DC" commtype="DIG" lat="37.9875" lon="22.7543">
    <comp name="--.HNZ">
      <acc value="0.0334810227" flag="0"/>
      <vel value="0.0233815329" flag="0"/>
      <psa03 value="0.0686714655" flag="0"/>
      <psa10 value="0.0347133433" flag="0"/>
      <psa30 value="0.0039813097" flag="0"/>
    </comp>
    <comp name="--.HNE">
      <acc value="0.1624001182" flag="0"/>
      <vel value="0.0941310416" flag="0"/>
      <psa03 value="0.3427242547" flag="0"/>
      <psa10 value="0.1270934922" flag="0"/>
      <psa30 value="0.0077563166" flag="0"/>
    </comp>
    <comp name="--.HNN">
      <acc value="0.1478580070" flag="0"/>
      <vel value="0.1035748804" flag="0"/>
      <psa03 value="0.2711135287" flag="0"/>
      <psa10 value="0.1489399006" flag="0"/>
      <psa30 value="0.0087221180" flag="0"/>
    </comp>
  </station>
  <station code="LOUT" name="LOUT" netid="HA" insttype="30" commtype="DIG" lat="37.9879" lon="22.9743">
    <comp name="--.HHE">
      <acc value="0.3528333540" flag="0"/>
      <vel value="0.0951790997" flag="0"/>
      <psa03 value="0.3579128843" flag="0"/>
      <psa10 value="0.0993116865" flag="0"/>
      <psa30 value="0.0055701649" flag="0"/>
    </comp>
    <comp name="--.HHN">
      <acc value="0.1886808696" flag="0"/>
      <vel value="0.0627258242" flag="0"/>
      <psa03 value="0.2796525217" flag="0"/>
      <psa10 value="0.0455889078" flag="0"/>
      <psa30 value="0.0038057722" flag="0"/>
    </comp>
    <comp name="--.HHZ">
      <acc value="0.1114946271" flag="0"/>
      <vel value="0.0343678938" flag="0"/>
      <psa03 value="0.1699102989" flag="0"/>
      <psa10 value="0.0263310669" flag="0"/>
      <psa30 value="0.0012890186" flag="0"/>
    </comp>
  </station>
  <station code="MDRA" name="MDRA" netid="HA" insttype="60" commtype="DIG" lat="38.0606" lon="23.4662">
    <comp name="--.HHE">
      <acc value="0.0536874903" flag="0"/>
      <vel value="0.0250232214" flag="0"/>
      <psa03 value="0.1230161968" flag="0"/>
      <psa10 value="0.0147144870" flag="0"/>
      <psa30 value="0.0012377542" flag="0"/>
    </comp>
    <comp name="--.HHN">
      <acc value="0.0781648652" flag="0"/>
      <vel value="0.0292259848" flag="0"/>
      <psa03 value="0.1539437699" flag="0"/>
      <psa10 value="0.0137570044" flag="0"/>
      <psa30 value="0.0016379555" flag="0"/>
    </comp>
    <comp name="--.HHZ">
      <acc value="0.0601633854" flag="0"/>
      <vel value="0.0298692505" flag="0"/>
      <psa03 value="0.0894998466" flag="0"/>
      <psa10 value="0.0174112470" flag="0"/>
      <psa30 value="0.0018006684" flag="0"/>
    </comp>
  </station>
  <station code="MRKA" name="MRKA" netid="HA" insttype="Horizon,120s,1200" commtype="DIG" lat="38.7047" lon="23.5863">
    <comp name="--.HHE">
      <acc value="7.2421318251" flag="0"/>
      <vel value="1.8474881682" flag="0"/>
      <psa03 value="7.3253367748" flag="0"/>
      <psa10 value="0.4604139989" flag="0"/>
      <psa30 value="0.0411354206" flag="0"/>
    </comp>
    <comp name="--.HHN">
      <acc value="4.4818555926" flag="0"/>
      <vel value="0.6303940111" flag="0"/>
      <psa03 value="3.2673425085" flag="0"/>
      <psa10 value="0.4357508491" flag="0"/>
      <psa30 value="0.0306555211" flag="0"/>
    </comp>
    <comp name="--.HHZ">
      <acc value="5.8075849487" flag="0"/>
      <vel value="0.5355297386" flag="0"/>
      <psa03 value="3.1560167251" flag="0"/>
      <psa10 value="0.2080567326" flag="0"/>
      <psa30 value="0.0380729212" flag="0"/>
    </comp>
  </station>
  <station code="MRTH" name="MRTH" netid="HA" insttype="S100," commtype="DIG" lat="38.1225" lon="23.9409">
    <comp name="--.HHZ">
      <acc value="0.0704986718" flag="0"/>
      <vel value="0.0339429452" flag="0"/>
      <psa03 value="0.2064918760" flag="0"/>
      <psa10 value="0.0397092993" flag="0"/>
      <psa30 value="0.0014271439" flag="0"/>
    </comp>
    <comp name="--.HHE">
      <acc value="0.1084662535" flag="0"/>
      <vel value="0.0510307107" flag="0"/>
      <psa03 value="0.2215517153" flag="0"/>
      <psa10 value="0.0597067141" flag="0"/>
      <psa30 value="0.0031868691" flag="0"/>
    </comp>
    <comp name="--.HHN">
      <acc value="0.0808632279" flag="0"/>
      <vel value="0.0549394410" flag="0"/>
      <psa03 value="0.2928988105" flag="0"/>
      <psa10 value="0.0701102298" flag="0"/>
      <psa30 value="0.0033050278" flag="0"/>
    </comp>
  </station>
  <station code="PRDM" name="PRDM" netid="HA" insttype="25" commtype="DIG" lat="38.2804" lon="22.847">
    <comp name="--.HHN">
      <acc value="0.0581758505" flag="0"/>
      <vel value="0.0139349933" flag="0"/>
      <psa03 value="0.0484076086" flag="0"/>
      <psa10 value="0.0114202765" flag="0"/>
      <psa30 value="0.0007219754" flag="0"/>
    </comp>
    <comp name="--.HHZ">
      <acc value="0.0281851523" flag="0"/>
      <vel value="0.0081025681" flag="0"/>
      <psa03 value="0.0477227611" flag="0"/>
      <psa10 value="0.0047371124" flag="0"/>
      <psa30 value="0.0004742268" flag="0"/>
    </comp>
    <comp name="--.HHE">
      <acc value="0.0856002547" flag="0"/>
      <vel value="0.0186896873" flag="0"/>
      <psa03 value="0.0876589856" flag="0"/>
      <psa10 value="0.0188894044" flag="0"/>
      <psa30 value="0.0011048984" flag="0"/>
    </comp>
  </station>
  <station code="PSAH" name="PSAH" netid="HA" insttype="25" commtype="DIG" lat="38.5694" lon="23.6473">
    <comp name="--.HHE">
      <acc value="0.2318007716" flag="0"/>
      <vel value="0.1183687337" flag="0"/>
      <psa03 value="0.4333400875" flag="0"/>
      <psa10 value="0.0979752228" flag="0"/>
      <psa30 value="0.0070380584" flag="0"/>
    </comp>
    <comp name="--.HHN">
      <acc value="0.1195532331" flag="0"/>
      <vel value="0.0399443853" flag="0"/>
      <psa03 value="0.2175064121" flag="0"/>
      <psa10 value="0.0407467302" flag="0"/>
      <psa30 value="0.0036905089" flag="0"/>
    </comp>
    <comp name="--.HHZ">
      <acc value="0.1536831015" flag="0"/>
      <vel value="0.0367757225" flag="0"/>
      <psa03 value="0.1918731809" flag="0"/>
      <psa10 value="0.0406336916" flag="0"/>
      <psa30 value="0.0029480405" flag="0"/>
    </comp>
  </station>
  <station code="THAL" name="THAL" netid="HA" insttype="30" commtype="DIG" lat="38.0357" lon="22.6634">
    <comp name="--.HHE">
      <acc value="0.1916959954" flag="0"/>
      <vel value="0.0772846074" flag="0"/>
      <psa03 value="0.5359600845" flag="0"/>
      <psa10 value="0.0629444373" flag="0"/>
      <psa30 value="0.0047476685" flag="0"/>
    </comp>
    <comp name="--.HHN">
      <acc value="0.1439946896" flag="0"/>
      <vel value="0.0710389496" flag="0"/>
      <psa03 value="0.5023367017" flag="0"/>
      <psa10 value="0.0522172075" flag="0"/>
      <psa30 value="0.0043304117" flag="0"/>
    </comp>
    <comp name="--.HHZ">
      <acc value="0.0985683133" flag="0"/>
      <vel value="0.0394121342" flag="0"/>
      <psa03 value="0.2394258925" flag="0"/>
      <psa10 value="0.0287077503" flag="0"/>
      <psa30 value="0.0015975090" flag="0"/>
    </comp>
  </station>
  <station code="THIV" name="THIV" netid="HA" insttype="25" commtype="DIG" lat="38.299" lon="23.332">
    <comp name="--.HHE">
      <acc value="0.1670652190" flag="0"/>
      <vel value="0.0861272716" flag="0"/>
      <psa03 value="0.2986703346" flag="0"/>
      <psa10 value="0.0769510110" flag="0"/>
      <psa30 value="0.0044421140" flag="0"/>
    </comp>
    <comp name="--.HHN">
      <acc value="0.1634075432" flag="0"/>
      <vel value="0.0512288199" flag="0"/>
      <psa03 value="0.3200413744" flag="0"/>
      <psa10 value="0.0404666407" flag="0"/>
      <psa30 value="0.0021899654" flag="0"/>
    </comp>
    <comp name="--.HHZ">
      <acc value="0.1119019930" flag="0"/>
      <vel value="0.0313339112" flag="0"/>
      <psa03 value="0.1723918633" flag="0"/>
      <psa10 value="0.0154002328" flag="0"/>
      <psa30 value="0.0021516846" flag="0"/>
    </comp>
  </station>
  <station code="VILL" name="VILL" netid="HA" insttype="Horizon,120s,1200" commtype="DIG" lat="38.1642" lon="23.3122">
    <comp name="--.HHN">
      <acc value="0.1522452163" flag="0"/>
      <vel value="0.0409778161" flag="0"/>
      <psa03 value="0.1926627986" flag="0"/>
      <psa10 value="0.0287430791" flag="0"/>
      <psa30 value="0.0021479163" flag="0"/>
    </comp>
    <comp name="--.HHZ">
      <acc value="0.0531322545" flag="0"/>
      <vel value="0.0222686289" flag="0"/>
      <psa03 value="0.1166316883" flag="0"/>
      <psa10 value="0.0191645278" flag="0"/>
      <psa30 value="0.0017714497" flag="0"/>
    </comp>
    <comp name="--.HHE">
      <acc value="0.1373629447" flag="0"/>
      <vel value="0.0617331438" flag="0"/>
      <psa03 value="0.2493504772" flag="0"/>
      <psa10 value="0.0663101833" flag="0"/>
      <psa30 value="0.0047395169" flag="0"/>
    </comp>
  </station>
  <station code="ATH5" name="ATH5" netid="HI" insttype="CMG-5TD,ACCELEROMETER,GURALP" commtype="DIG" lat="37.9754" lon="23.7371">
    <comp name="--.HNE">
      <acc value="0.0668397444" flag="0"/>
      <vel value="0.0242253030" flag="0"/>
      <psa03 value="0.1509165674" flag="0"/>
      <psa10 value="0.0292674475" flag="0"/>
      <psa30 value="0.0015894090" flag="0"/>
    </comp>
    <comp name="--.HNN">
      <acc value="0.0663394967" flag="0"/>
      <vel value="0.0202396051" flag="0"/>
      <psa03 value="0.1734835091" flag="0"/>
      <psa10 value="0.0298111807" flag="0"/>
      <psa30 value="0.0014682619" flag="0"/>
    </comp>
    <comp name="--.HNZ">
      <acc value="0.0773643686" flag="0"/>
      <vel value="0.0336199048" flag="0"/>
      <psa03 value="0.1444394402" flag="0"/>
      <psa10 value="0.0143108150" flag="0"/>
      <psa30 value="0.0013952459" flag="0"/>
    </comp>
  </station>
  <station code="FRS1" name="FRS1" netid="HI" insttype="unknown" commtype="DIG" lat="39.2934" lon="22.3844">
    <comp name="--.HNN">
      <acc value="0.0161994023" flag="0"/>
      <vel value="0.0166985050" flag="0"/>
      <psa03 value="0.0429830219" flag="0"/>
      <psa10 value="0.0221927662" flag="0"/>
      <psa30 value="0.0011938556" flag="0"/>
    </comp>
    <comp name="--.HNZ">
      <acc value="0.0097743415" flag="0"/>
      <vel value="0.0090635017" flag="0"/>
      <psa03 value="0.0360564465" flag="0"/>
      <psa10 value="0.0108678937" flag="0"/>
      <psa30 value="0.0007239812" flag="0"/>
    </comp>
    <comp name="--.HNE">
      <acc value="0.0126874063" flag="0"/>
      <vel value="0.0079591559" flag="0"/>
      <psa03 value="0.0241896201" flag="0"/>
      <psa10 value="0.0122304142" flag="0"/>
      <psa30 value="0.0011393469" flag="0"/>
    </comp>
  </station>
