<?xml version="1.0" encoding="UTF-8" standalone="yes"?>
<!DOCTYPE earthquake SYSTEM "stationlist.dtd">
<stationlist created="" xmlns="ch.ethz.sed.shakemap.usgs.xml">
  <station code="PANR" name="PANR" netid="CL" insttype="TRILLIUM-40" commtype="DIG" lat="38.3735" lon="22.2497">
    <comp name="01.HHE">
      <acc value="0.0155416478" flag="0"/>
      <vel value="0.0073655443" flag="0"/>
      <psa03 value="0.0249648261" flag="0"/>
      <psa10 value="0.0110649179" flag="0"/>
      <psa30 value="0.0007734550" flag="0"/>
    </comp>
    <comp name="01.HHZ">
      <acc value="0.0118912721" flag="0"/>
      <vel value="0.0083972427" flag="0"/>
      <psa03 value="0.0152272359" flag="0"/>
      <psa10 value="0.0067485752" flag="0"/>
      <psa30 value="0.0006431891" flag="0"/>
    </comp>
    <comp name="01.HHN">
      <acc value="0.0125996535" flag="0"/>
      <vel value="0.0129033878" flag="0"/>
      <psa03 value="0.0282982497" flag="0"/>
      <psa10 value="0.0165570723" flag="0"/>
      <psa30 value="0.0009337159" flag="0"/>
    </comp>
  </station>
</stationlist>
