<stationlist xmlns:esm="https://esm-db.eu/esmws/shakemap/1/" created="1781574848">
	<station code="ATHU" name="ATHU" netid="HA" source="Hellenic Seismological Network, University of Athens, Seismological Laboratory (HA)" insttype="" lat="37.9665" lon="23.7845" esm:processing="automatic (Paolucci et al 2011)" esm:quality="best">
		<comp name="--.HNE" depth="0.0">
			<acc value="0.00196775886143197" flag="0"/>
			<vel value="0.000897191878760181" flag="0"/>
			<psa03 value="0.00305982346651519" flag="0"/>
			<psa10 value="0.000523423814885078" flag="0"/>
			<psa30 value="5.93612500998469e-05" flag="0"/>
		</comp>
		<comp name="--.HNN" depth="0.0">
			<acc value="0.00138997669507588" flag="0"/>
			<vel value="0.000697147491417125" flag="0"/>
			<psa03 value="0.00202904391941182" flag="0"/>
			<psa10 value="0.000702330881444311" flag="0"/>
			<psa30 value="6.62311778550382e-05" flag="0"/>
		</comp>
		<comp name="--.HNZ" depth="0.0">
			<acc value="0.00243544725061702" flag="0"/>
			<vel value="0.000801180310846836" flag="0"/>
			<psa03 value="0.00445702572483193" flag="0"/>
			<psa10 value="0.000874672669332776" flag="0"/>
			<psa30 value="7.91654721886902e-05" flag="0"/>
		</comp>
	</station>
	<station code="ATH5" name="ATH5" netid="HI" source="ITSAK Strong Motion Network" insttype="" lat="37.975421" lon="23.737098" esm:processing="automatic (Paolucci et al 2011)" esm:quality="best">
		<comp name="--.HNE" depth="0.0">
			<acc value="0.0673211387162584" flag="0"/>
			<vel value="0.02432656269554" flag="0"/>
			<psa03 value="0.152381052830278" flag="0"/>
			<psa10 value="0.0292644730027284" flag="0"/>
			<psa30 value="0.0016350389383042" flag="0"/>
		</comp>
		<comp name="--.HNN" depth="0.0">
			<acc value="0.0665727399230168" flag="0"/>
			<vel value="0.0202908277131579" flag="0"/>
			<psa03 value="0.17358372823667" flag="0"/>
			<psa10 value="0.0299009857935451" flag="0"/>
			<psa30 value="0.00166311413148251" flag="0"/>
		</comp>
		<comp name="--.HNZ" depth="0.0">
			<acc value="0.0744179959576879" flag="0"/>
			<vel value="0.0338522516520065" flag="0"/>
			<psa03 value="0.145588123665505" flag="0"/>
			<psa10 value="0.0143467882168185" flag="0"/>
			<psa30 value="0.00157594773213734" flag="0"/>
		</comp>
	</station>
	<station code="FRS1" name="FRS1" netid="HI" source="ITSAK Strong Motion Network" insttype="" lat="39.2934" lon="22.3844" esm:processing="automatic (Paolucci et al 2011)" esm:quality="best">
		<comp name="--.HNE" depth="0.0">
			<acc value="0.0126478023203291" flag="0"/>
			<vel value="0.00844605560086399" flag="0"/>
			<psa03 value="0.024367939777272" flag="0"/>
			<psa10 value="0.0122866623685708" flag="0"/>
			<psa30 value="0.00132413230059812" flag="0"/>
		</comp>
		<comp name="--.HNN" depth="0.0">
			<acc value="0.0162958421968136" flag="0"/>
			<vel value="0.0167308308076104" flag="0"/>
			<psa03 value="0.0436264134733001" flag="0"/>
			<psa10 value="0.0222942650106479" flag="0"/>
			<psa30 value="0.00149572502194294" flag="0"/>
		</comp>
		<comp name="--.HNZ" depth="0.0">
			<acc value="0.00971917056528488" flag="0"/>
			<vel value="0.00922762956295772" flag="0"/>
			<psa03 value="0.0360962948482312" flag="0"/>
			<psa10 value="0.0108960158700843" flag="0"/>
			<psa30 value="0.000797652423892028" flag="0"/>
		</comp>
	</station>
	<station code="KIF1" name="KIF1" netid="HI" source="ITSAK Strong Motion Network" insttype="" lat="38.077273" lon="23.814551" esm:processing="automatic (Paolucci et al 2011)" esm:quality="best">
		<comp name="--.HNE" depth="0.0">
			<acc value="0.100463708339706" flag="0"/>
			<vel value="0.0386609632953688" flag="0"/>
			<psa03 value="0.160397177609216" flag="0"/>
			<psa10 value="0.0317829579649693" flag="0"/>
			<psa30 value="0.00203181772295395" flag="0"/>
		</comp>
		<comp name="--.HNN" depth="0.0">
			<acc value="0.0695740451601837" flag="0"/>
			<vel value="0.031699415262475" flag="0"/>
			<psa03 value="0.121228832898692" flag="0"/>
			<psa10 value="0.0341070881771948" flag="0"/>
			<psa30 value="0.00241516061754008" flag="0"/>
		</comp>
		<comp name="--.HNZ" depth="0.0">
			<acc value="0.121923218629841" flag="0"/>
			<vel value="0.0327554130248339" flag="0"/>
			<psa03 value="0.0782431936443811" flag="0"/>
			<psa10 value="0.0266568033823889" flag="0"/>
			<psa30 value="0.00165301596252982" flag="0"/>
		</comp>
	</station>
	<station code="KLV1" name="KLV1" netid="HI" source="ITSAK Strong Motion Network" insttype="" lat="38.03256" lon="22.10797" esm:processing="automatic (Paolucci et al 2011)" esm:quality="best">
		<comp name="--.HNE" depth="0.0">
			<acc value="0.0181958929761494" flag="0"/>
			<vel value="0.0103484778629386" flag="0"/>
			<psa03 value="0.0417828173857595" flag="0"/>
			<psa10 value="0.0146728873192711" flag="0"/>
			<psa30 value="0.00115578156485623" flag="0"/>
		</comp>
		<comp name="--.HNN" depth="0.0">
			<acc value="0.0245337334559676" flag="0"/>
			<vel value="0.0133767912328426" flag="0"/>
			<psa03 value="0.0426601281074731" flag="0"/>
			<psa10 value="0.012336152522067" flag="0"/>
			<psa30 value="0.00193945264588449" flag="0"/>
		</comp>
		<comp name="--.HNZ" depth="0.0">
			<acc value="0.0085175027090959" flag="0"/>
			<vel value="0.00551683172730403" flag="0"/>
			<psa03 value="0.0176312721519287" flag="0"/>
			<psa10 value="0.00816261354560186" flag="0"/>
			<psa30 value="0.000692728494029996" flag="0"/>
		</comp>
	</station>
	<station code="KMV1" name="KMV1" netid="HI" source="ITSAK Strong Motion Network" insttype="" lat="38.7794" lon="22.7846" esm:processing="automatic (Paolucci et al 2011)" esm:quality="best">
		<comp name="--.HNE" depth="0.0">
			<acc value="0.119154817072311" flag="0"/>
			<vel value="0.0530532314098898" flag="0"/>
			<psa03 value="0.269586671293692" flag="0"/>
			<psa10 value="0.0727286429157824" flag="0"/>
			<psa30 value="0.00347959738125116" flag="0"/>
		</comp>
		<comp name="--.HNN" depth="0.0">
			<acc value="0.15466520107773" flag="0"/>
			<vel value="0.04411542525574" flag="0"/>
			<psa03 value="0.319521666742184" flag="0"/>
			<psa10 value="0.0727279603706017" flag="0"/>
			<psa30 value="0.00446261395960712" flag="0"/>
		</comp>
		<comp name="--.HNZ" depth="0.0">
			<acc value="0.108492144938629" flag="0"/>
			<vel value="0.032747418099561" flag="0"/>
			<psa03 value="0.139636198129636" flag="0"/>
			<psa10 value="0.0247747843328681" flag="0"/>
			<psa30 value="0.00247422911386933" flag="0"/>
		</comp>
	</station>
	<station code="KOR2" name="KOR2" netid="HI" source="ITSAK Strong Motion Network" insttype="" lat="37.9401" lon="22.9495" esm:processing="automatic (Paolucci et al 2011)" esm:quality="best">
		<comp name="--.HNE" depth="0.0">
			<acc value="0.22129511165182" flag="0"/>
			<vel value="0.0848151934337018" flag="0"/>
			<psa03 value="0.356761883723825" flag="0"/>
			<psa10 value="0.104002234637575" flag="0"/>
			<psa30 value="0.00718576852189118" flag="0"/>
		</comp>
		<comp name="--.HNN" depth="0.0">
			<acc value="0.192637942949891" flag="0"/>
			<vel value="0.0967630707099547" flag="0"/>
			<psa03 value="0.307170098511513" flag="0"/>
			<psa10 value="0.127815922177662" flag="0"/>
			<psa30 value="0.0079417069324198" flag="0"/>
		</comp>
		<comp name="--.HNZ" depth="0.0">
			<acc value="0.119408605834305" flag="0"/>
			<vel value="0.0685692199762055" flag="0"/>
			<psa03 value="0.249020017187361" flag="0"/>
			<psa10 value="0.118155514723118" flag="0"/>
			<psa30 value="0.00431565380755071" flag="0"/>
		</comp>
	</station>
	<station code="LAM2" name="LAM2" netid="HI" source="ITSAK Strong Motion Network" insttype="" lat="38.90203" lon="22.431301" esm:processing="automatic (Paolucci et al 2011)" esm:quality="best">
		<comp name="--.HNE" depth="0.0">
			<acc value="0.0220317848834486" flag="0"/>
			<vel value="0.0148414250594911" flag="0"/>
			<psa03 value="0.0664232283380846" flag="0"/>
			<psa10 value="0.0197377375282239" flag="0"/>
			<psa30 value="0.000946347170020101" flag="0"/>
		</comp>
		<comp name="--.HNN" depth="0.0">
			<acc value="0.0231920289807321" flag="0"/>
			<vel value="0.0187997991076286" flag="0"/>
			<psa03 value="0.0519744117998721" flag="0"/>
			<psa10 value="0.0214505172414933" flag="0"/>
			<psa30 value="0.00273557601015386" flag="0"/>
		</comp>
		<comp name="--.HNZ" depth="0.0">
			<acc value="0.0178307373499874" flag="0"/>
			<vel value="0.00837608589383781" flag="0"/>
			<psa03 value="0.0508209655977248" flag="0"/>
			<psa10 value="0.00608847395651532" flag="0"/>
			<psa30 value="0.000644752972137039" flag="0"/>
		</comp>
	</station>
	<station code="LEO1" name="LEO1" netid="HI" source="ITSAK Strong Motion Network" insttype="" lat="37.1689" lon="22.8637" esm:processing="automatic (Paolucci et al 2011)" esm:quality="best">
		<comp name="--.HNE" depth="0.0">
			<acc value="0.0106622635301025" flag="0"/>
			<vel value="0.0060696170706051" flag="0"/>
			<psa03 value="0.0259468152033326" flag="0"/>
			<psa10 value="0.00977723050603264" flag="0"/>
			<psa30 value="0.00167842681253827" flag="0"/>
		</comp>
		<comp name="--.HNN" depth="0.0">
			<acc value="0.00993890959357077" flag="0"/>
			<vel value="0.00583187852155026" flag="0"/>
			<psa03 value="0.0264663027418142" flag="0"/>
			<psa10 value="0.0120957315953744" flag="0"/>
			<psa30 value="0.00131539297166378" flag="0"/>
		</comp>
		<comp name="--.HNZ" depth="0.0">
			<acc value="0.00808089887641211" flag="0"/>
			<vel value="0.00337687705680825" flag="0"/>
			<psa03 value="0.021619739493309" flag="0"/>
			<psa10 value="0.00549831751779115" flag="0"/>
			<psa30 value="0.00134424498713174" flag="0"/>
		</comp>
	</station>
	<station code="NMA1" name="NMA1" netid="HI" source="ITSAK Strong Motion Network" insttype="" lat="37.81873" lon="22.662702" esm:processing="automatic (Paolucci et al 2011)" esm:quality="best">
		<comp name="--.HNE" depth="0.0">
			<acc value="0.0489848184748401" flag="0"/>
			<vel value="0.0276329737266941" flag="0"/>
			<psa03 value="0.106993348200729" flag="0"/>
			<psa10 value="0.0491850595188035" flag="0"/>
			<psa30 value="0.00494295494650794" flag="0"/>
		</comp>
		<comp name="--.HNN" depth="0.0">
			<acc value="0.0554512841883533" flag="0"/>
			<vel value="0.0297728060584888" flag="0"/>
			<psa03 value="0.0656231597124012" flag="0"/>
			<psa10 value="0.0387653767659441" flag="0"/>
			<psa30 value="0.00275472540370374" flag="0"/>
		</comp>
		<comp name="--.HNZ" depth="0.0">
			<acc value="0.0248869494416102" flag="0"/>
			<vel value="0.0158322788564974" flag="0"/>
			<psa03 value="0.0468466241923959" flag="0"/>
			<psa10 value="0.0329574195172842" flag="0"/>
			<psa30 value="0.00186528981629768" flag="0"/>
		</comp>
	</station>
	<station code="PER1" name="PER1" netid="HI" source="ITSAK Strong Motion Network" insttype="" lat="38.0119" lon="23.7027" esm:processing="automatic (Paolucci et al 2011)" esm:quality="best">
		<comp name="--.HNE" depth="0.0">
			<acc value="0.0853269540653579" flag="0"/>
			<vel value="0.0281005267416346" flag="0"/>
			<psa03 value="0.0800760598543622" flag="0"/>
			<psa10 value="0.0195185955111613" flag="0"/>
			<psa30 value="0.0017365639971746" flag="0"/>
		</comp>
		<comp name="--.HNN" depth="0.0">
			<acc value="0.0835493396187572" flag="0"/>
			<vel value="0.0285636767802741" flag="0"/>
			<psa03 value="0.118800651210207" flag="0"/>
			<psa10 value="0.027665824600085" flag="0"/>
			<psa30 value="0.00137500400393242" flag="0"/>
		</comp>
		<comp name="--.HNZ" depth="0.0">
			<acc value="0.0906294589740731" flag="0"/>
			<vel value="0.0272897618391069" flag="0"/>
			<psa03 value="0.0799190963314448" flag="0"/>
			<psa10 value="0.0132266180735348" flag="0"/>
			<psa30 value="0.00175728141127006" flag="0"/>
		</comp>
	</station>
	<station code="PIR1" name="PIR1" netid="HI" source="ITSAK Strong Motion Network" insttype="" lat="37.93723" lon="23.642595" esm:processing="automatic (Paolucci et al 2011)" esm:quality="best">
		<comp name="--.HNE" depth="0.0">
			<acc value="0.213778844886878" flag="0"/>
			<vel value="0.0481878479921568" flag="0"/>
			<psa03 value="0.224980320508904" flag="0"/>
			<psa10 value="0.0380699794492977" flag="0"/>
			<psa30 value="0.00284895352085664" flag="0"/>
		</comp>
		<comp name="--.HNN" depth="0.0">
			<acc value="0.174842685502397" flag="0"/>
			<vel value="0.0484756440531853" flag="0"/>
			<psa03 value="0.234085673693887" flag="0"/>
			<psa10 value="0.0444180962309982" flag="0"/>
			<psa30 value="0.003079743184538" flag="0"/>
		</comp>
		<comp name="--.HNZ" depth="0.0">
			<acc value="0.157122712744343" flag="0"/>
			<vel value="0.0555088873283158" flag="0"/>
			<psa03 value="0.226774001831238" flag="0"/>
			<psa10 value="0.0244513160296685" flag="0"/>
			<psa30 value="0.00244003622375661" flag="0"/>
		</comp>
	</station>
	<station code="PIR3" name="PIR3" netid="HI" source="ITSAK Strong Motion Network" insttype="" lat="37.9573" lon="23.6519" esm:processing="automatic (Paolucci et al 2011)" esm:quality="best">
		<comp name="--.HNE" depth="0.0">
			<acc value="0.0885093731704232" flag="0"/>
			<vel value="0.0281469100825871" flag="0"/>
			<psa03 value="0.0968085693426109" flag="0"/>
			<psa10 value="0.0235677574982497" flag="0"/>
			<psa30 value="0.00129997517947354" flag="0"/>
		</comp>
		<comp name="--.HNN" depth="0.0">
			<acc value="0.108361006558288" flag="0"/>
			<vel value="0.0424097462969671" flag="0"/>
			<psa03 value="0.176630450900568" flag="0"/>
			<psa10 value="0.0174659701597877" flag="0"/>
			<psa30 value="0.00195793949555019" flag="0"/>
		</comp>
		<comp name="--.HNZ" depth="0.0">
			<acc value="0.0865334455569704" flag="0"/>
			<vel value="0.0276312938641756" flag="0"/>
			<psa03 value="0.147922184535409" flag="0"/>
			<psa10 value="0.0157283563014147" flag="0"/>
			<psa30 value="0.00225668657774533" flag="0"/>
		</comp>
	</station>
	<station code="SKY1" name="SKY1" netid="HI" source="ITSAK Strong Motion Network" insttype="" lat="38.904483" lon="24.564572" esm:processing="automatic (Paolucci et al 2011)" esm:quality="best">
		<comp name="--.HNE" depth="0.0">
			<acc value="0.0533653236691423" flag="0"/>
			<vel value="0.0254562347215303" flag="0"/>
			<psa03 value="0.15134622386121" flag="0"/>
			<psa10 value="0.0387152246936168" flag="0"/>
			<psa30 value="0.00143320431775073" flag="0"/>
		</comp>
		<comp name="--.HNN" depth="0.0">
			<acc value="0.0636307928224295" flag="0"/>
			<vel value="0.029949807735898" flag="0"/>
			<psa03 value="0.192988326196247" flag="0"/>
			<psa10 value="0.0317005387551105" flag="0"/>
			<psa30 value="0.00235082427223644" flag="0"/>
		</comp>
		<comp name="--.HNZ" depth="0.0">
			<acc value="0.0407472466122021" flag="0"/>
			<vel value="0.01690076174839" flag="0"/>
			<psa03 value="0.0661167861627516" flag="0"/>
			<psa10 value="0.025395371693756" flag="0"/>
			<psa30 value="0.00144550419505865" flag="0"/>
		</comp>
	</station>
	<station code="THV2" name="THV2" netid="HI" source="ITSAK Strong Motion Network" insttype="" lat="38.316117" lon="23.319807" esm:processing="automatic (Paolucci et al 2011)" esm:quality="best">
		<comp name="--.HNE" depth="0.0">
			<acc value="0.246945132706353" flag="0"/>
			<vel value="0.0973849766375345" flag="0"/>
			<psa03 value="0.47066826279455" flag="0"/>
			<psa10 value="0.0752653784617557" flag="0"/>
			<psa30 value="0.0066972515767274" flag="0"/>
		</comp>
		<comp name="--.HNN" depth="0.0">
			<acc value="0.283998735745888" flag="0"/>
			<vel value="0.106459241143193" flag="0"/>
			<psa03 value="0.693261800193533" flag="0"/>
			<psa10 value="0.0644998702999243" flag="0"/>
			<psa30 value="0.00622422690780542" flag="0"/>
		</comp>
		<comp name="--.HNZ" depth="0.0">
			<acc value="0.165058598015678" flag="0"/>
			<vel value="0.086381675775729" flag="0"/>
			<psa03 value="0.477252448963899" flag="0"/>
			<psa10 value="0.0678390990075075" flag="0"/>
			<psa30 value="0.00335795161448224" flag="0"/>
		</comp>
	</station>
	<station code="VOL2" name="VOL2" netid="HI" source="ITSAK Strong Motion Network" insttype="" lat="39.366" lon="22.9506" esm:processing="automatic (Paolucci et al 2011)" esm:quality="best">
		<comp name="--.HNE" depth="0.0">
			<acc value="0.168329227343528" flag="0"/>
			<vel value="0.0841342661211026" flag="0"/>
			<psa03 value="0.794330870520642" flag="0"/>
			<psa10 value="0.0290864130820981" flag="0"/>
			<psa30 value="0.00252830894639224" flag="0"/>
		</comp>
		<comp name="--.HNN" depth="0.0">
			<acc value="0.13636054887522" flag="0"/>
			<vel value="0.0896552307357956" flag="0"/>
			<psa03 value="0.643280989207785" flag="0"/>
			<psa10 value="0.0381840995092095" flag="0"/>
			<psa30 value="0.00337018492487653" flag="0"/>
		</comp>
		<comp name="--.HNZ" depth="0.0">
			<acc value="0.065312297908611" flag="0"/>
			<vel value="0.0197279376245707" flag="0"/>
			<psa03 value="0.149633547904858" flag="0"/>
			<psa10 value="0.0171557908619471" flag="0"/>
			<psa30 value="0.00130022290422163" flag="0"/>
		</comp>
	</station>
	<station code="VOL3" name="VOL3" netid="HI" source="ITSAK Strong Motion Network" insttype="" lat="39.373969" lon="22.935352" esm:processing="automatic (Paolucci et al 2011)" esm:quality="best">
		<comp name="--.HNE" depth="0.0">
			<acc value="0.0959377243199986" flag="0"/>
			<vel value="0.0637803330291356" flag="0"/>
			<psa03 value="0.319508811724126" flag="0"/>
			<psa10 value="0.0307828285863364" flag="0"/>
			<psa30 value="0.00196522852007606" flag="0"/>
		</comp>
		<comp name="--.HNN" depth="0.0">
			<acc value="0.0769212392080517" flag="0"/>
			<vel value="0.0469100220148327" flag="0"/>
			<psa03 value="0.247017342853285" flag="0"/>
			<psa10 value="0.0356379283378412" flag="0"/>
			<psa30 value="0.00300769653680221" flag="0"/>
		</comp>
		<comp name="--.HNZ" depth="0.0">
			<acc value="0.0776852807040826" flag="0"/>
			<vel value="0.0245193877497554" flag="0"/>
			<psa03 value="0.216642914030005" flag="0"/>
			<psa10 value="0.0114749548469406" flag="0"/>
			<psa30 value="0.00124534426877995" flag="0"/>
		</comp>
	</station>
	<station code="ALNA" name="ALNA" netid="HL" source="National Observatory of Athens Seismic Network" insttype="" lat="39.14804" lon="23.86669" esm:processing="automatic (Paolucci et al 2011)" esm:quality="best">
		<comp name="00.HNE" depth="0.0">
			<acc value="0.151712029279039" flag="0"/>
			<vel value="0.102555481571189" flag="0"/>
			<psa03 value="0.347989927624785" flag="0"/>
			<psa10 value="0.109281219344639" flag="0"/>
			<psa30 value="0.00636685260605044" flag="0"/>
		</comp>
		<comp name="00.HNN" depth="0.0">
			<acc value="0.108290351792216" flag="0"/>
			<vel value="0.0767291875318518" flag="0"/>
			<psa03 value="0.402469619970399" flag="0"/>
			<psa10 value="0.0586929368691965" flag="0"/>
			<psa30 value="0.00443057558721971" flag="0"/>
		</comp>
		<comp name="00.HNZ" depth="0.0">
			<acc value="0.11680115296028" flag="0"/>
			<vel value="0.0785611264321972" flag="0"/>
			<psa03 value="0.276806295391842" flag="0"/>
			<psa10 value="0.077719968566296" flag="0"/>
			<psa30 value="0.00304094873959552" flag="0"/>
		</comp>
	</station>
	<station code="ATHP" name="ATHP" netid="HL" source="National Observatory of Athens Seismic Network" insttype="" lat="38.000799" lon="23.773487" esm:processing="automatic (Paolucci et al 2011)" esm:quality="best">
		<comp name="00.HNE" depth="0.0">
			<acc value="0.068449131384817" flag="0"/>
			<vel value="0.0262774359394402" flag="0"/>
			<psa03 value="0.144759589612182" flag="0"/>
			<psa10 value="0.0220550610395506" flag="0"/>
			<psa30 value="0.00173492305513639" flag="0"/>
		</comp>
		<comp name="00.HNN" depth="0.0">
			<acc value="0.0565550653336876" flag="0"/>
			<vel value="0.0308121291627597" flag="0"/>
			<psa03 value="0.134592238992074" flag="0"/>
			<psa10 value="0.0378782930009965" flag="0"/>
			<psa30 value="0.00157204372351663" flag="0"/>
		</comp>
		<comp name="00.HNZ" depth="0.0">
			<acc value="0.0761476338746032" flag="0"/>
			<vel value="0.0303559610483884" flag="0"/>
			<psa03 value="0.129736479821915" flag="0"/>
