<?xml version="1.0" encoding="UTF-8" standalone="yes"?>
<!DOCTYPE earthquake SYSTEM "stationlist.dtd">
<stationlist created="" xmlns="ch.ethz.sed.shakemap.usgs.xml">
  <station code="ANDN" name="ANDN" netid="TU" insttype="T" lat="37.58" lon="36.3452">
    <comp name="--.HHE">
      <acc value="0.0160260693" flag="0"/>
      <vel value="0.0168439135" flag="0"/>
      <psa03 value="0.0380661064" flag="0"/>
      <psa10 value="0.0229373339" flag="0"/>
      <psa30 value="0.0047607713" flag="0"/>
    </comp>
    <comp name="--.HHZ">
      <acc value="0.0096095747" flag="0"/>
      <vel value="0.0104699790" flag="0"/>
      <psa03 value="0.0231332097" flag="0"/>
      <psa10 value="0.0207099244" flag="0"/>
      <psa30 value="0.0029809322" flag="0"/>
    </comp>
    <comp name="--.HHN">
      <acc value="0.0258767920" flag="0"/>
      <vel value="0.0209259499" flag="0"/>
      <psa03 value="0.0783396734" flag="0"/>
      <psa10 value="0.0198653775" flag="0"/>
      <psa30 value="0.0038902733" flag="0"/>
    </comp>
  </station>
</stationlist>
