<?xml version="1.0" encoding="UTF-8" standalone="yes"?>
<!DOCTYPE earthquake SYSTEM "stationlist.dtd">
<stationlist created="" xmlns="ch.ethz.sed.shakemap.usgs.xml">
  <station code="DARE" name="DARE" netid="KO" insttype="CMG-3ESP" lat="38.5712" lon="37.4832">
    <comp name="--.HHZ">
      <acc value="0.0084573668" flag="0"/>
      <vel value="0.0076654691" flag="0"/>
      <psa03 value="0.0285278211" flag="0"/>
      <psa10 value="0.0125422530" flag="0"/>
      <psa30 value="0.0029713426" flag="0"/>
    </comp>
    <comp name="--.HHE">
      <acc value="0.0121341522" flag="0"/>
      <vel value="0.0101668006" flag="0"/>
      <psa03 value="0.0454181406" flag="0"/>
      <psa10 value="0.0149187032" flag="0"/>
      <psa30 value="0.0027791298" flag="0"/>
    </comp>
    <comp name="--.HHN">
      <acc value="0.0091703266" flag="0"/>
      <vel value="0.0090186712" flag="0"/>
      <psa03 value="0.0248214821" flag="0"/>
      <psa10 value="0.0130310354" flag="0"/>
      <psa30 value="0.0029455992" flag="0"/>
    </comp>
  </station>
  <station code="GAZ" name="GAZ" netid="KO" insttype="CMG-3T" lat="37.1721" lon="37.2096">
    <comp name="--.HHE">
      <acc value="0.0065976666" flag="0"/>
      <vel value="0.0049700597" flag="0"/>
      <psa03 value="0.0146145402" flag="0"/>
      <psa10 value="0.0051807833" flag="0"/>
      <psa30 value="0.0008853792" flag="0"/>
    </comp>
    <comp name="--.HHN">
      <acc value="0.0045912663" flag="0"/>
      <vel value="0.0027930933" flag="0"/>
      <psa03 value="0.0133795185" flag="0"/>
      <psa10 value="0.0052478960" flag="0"/>
      <psa30 value="0.0006703518" flag="0"/>
    </comp>
    <comp name="--.HHZ">
      <acc value="0.0056120947" flag="0"/>
      <vel value="0.0028096610" flag="0"/>
      <psa03 value="0.0093055500" flag="0"/>
      <psa10 value="0.0056628122" flag="0"/>
      <psa30 value="0.0015018929" flag="0"/>
    </comp>
  </station>
  <station code="KMRS" name="KMRS" netid="KO" insttype="CMG-3T" lat="37.5053" lon="36.9">
    <comp name="--.HHN">
      <acc value="0.0062578160" flag="0"/>
      <vel value="0.0070753248" flag="0"/>
      <psa03 value="0.0157137475" flag="0"/>
      <psa10 value="0.0105586060" flag="0"/>
      <psa30 value="0.0038351408" flag="0"/>
    </comp>
    <comp name="--.HHZ">
      <acc value="0.0041719473" flag="0"/>
      <vel value="0.0052044823" flag="0"/>
      <psa03 value="0.0118151075" flag="0"/>
      <psa10 value="0.0049137915" flag="0"/>
      <psa30 value="0.0021981964" flag="0"/>
    </comp>
  </station>
  <station code="SARI" name="SARI" netid="KO" insttype="CMG-3T" lat="38.4072" lon="36.4181">
    <comp name="--.HHN">
      <acc value="0.0173014760" flag="0"/>
      <vel value="0.0148733428" flag="0"/>
      <psa03 value="0.0384013786" flag="0"/>
      <psa10 value="0.0133803821" flag="0"/>
      <psa30 value="0.0027984002" flag="0"/>
    </comp>
    <comp name="--.HHE">
      <acc value="0.0198733315" flag="0"/>
      <vel value="0.0110601289" flag="0"/>
      <psa03 value="0.0573573777" flag="0"/>
      <psa10 value="0.0123695780" flag="0"/>
      <psa30 value="0.0035228718" flag="0"/>
    </comp>
    <comp name="--.HHZ">
      <acc value="0.0154519207" flag="0"/>
      <vel value="0.0089910543" flag="0"/>
      <psa03 value="0.0403732311" flag="0"/>
      <psa10 value="0.0167126980" flag="0"/>
      <psa30 value="0.0018226949" flag="0"/>
    </comp>
  </station>
  <station code="ANDN" name="ANDN" netid="TU" insttype="T" lat="37.58" lon="36.3452">
    <comp name="--.HHZ">
      <acc value="0.0096095747" flag="0"/>
      <vel value="0.0104699806" flag="0"/>
      <psa03 value="0.0231332097" flag="0"/>
      <psa10 value="0.0207099246" flag="0"/>
      <psa30 value="0.0029809281" flag="0"/>
    </comp>
    <comp name="--.HHN">
      <acc value="0.0258767916" flag="0"/>
      <vel value="0.0209259489" flag="0"/>
      <psa03 value="0.0783396734" flag="0"/>
      <psa10 value="0.0198653774" flag="0"/>
      <psa30 value="0.0038903749" flag="0"/>
    </comp>
    <comp name="--.HHE">
      <acc value="0.0160260691" flag="0"/>
      <vel value="0.0168439165" flag="0"/>
      <psa03 value="0.0380661064" flag="0"/>
      <psa10 value="0.0229373339" flag="0"/>
      <psa30 value="0.0047607649" flag="0"/>
    </comp>
  </station>
</stationlist>
