<?xml version="1.0" encoding="UTF-8" standalone="yes"?>
<!DOCTYPE earthquake SYSTEM "stationlist.dtd">
<stationlist created="" xmlns="ch.ethz.sed.shakemap.usgs.xml">
  <station code="DARE" name="DARE" netid="KO" insttype="CMG-3ESP" lat="38.5712" lon="37.4832">
    <comp name="--.HHZ">
      <acc value="0.0216823603" flag="0"/>
      <vel value="0.0134737366" flag="0"/>
      <psa03 value="0.0724509176" flag="0"/>
      <psa10 value="0.0117653137" flag="0"/>
      <psa30 value="0.0010846159" flag="0"/>
    </comp>
    <comp name="--.HHE">
      <acc value="0.0226142707" flag="0"/>
      <vel value="0.0173915918" flag="0"/>
      <psa03 value="0.0701457514" flag="0"/>
      <psa10 value="0.0260986085" flag="0"/>
      <psa30 value="0.0017250799" flag="0"/>
    </comp>
    <comp name="--.HHN">
      <acc value="0.0336065134" flag="0"/>
      <vel value="0.0300805117" flag="0"/>
      <psa03 value="0.0787470967" flag="0"/>
      <psa10 value="0.0313754595" flag="0"/>
      <psa30 value="0.0015955207" flag="0"/>
    </comp>
  </station>
  <station code="GAZ" name="GAZ" netid="KO" insttype="CMG-3T" lat="37.1721" lon="37.2096">
    <comp name="--.HHE">
      <acc value="0.6917264387" flag="0"/>
      <vel value="0.2074867764" flag="0"/>
      <psa03 value="0.6447781244" flag="0"/>
      <psa10 value="0.1635460592" flag="0"/>
      <psa30 value="0.0111486135" flag="0"/>
    </comp>
    <comp name="--.HHN">
      <acc value="0.4364792288" flag="0"/>
      <vel value="0.1722765771" flag="0"/>
      <psa03 value="0.6857624510" flag="0"/>
      <psa10 value="0.1449480384" flag="0"/>
      <psa30 value="0.0140029021" flag="0"/>
    </comp>
  </station>
  <station code="SARI" name="SARI" netid="KO" insttype="CMG-3T" lat="38.4072" lon="36.4181">
    <comp name="--.HHN">
      <acc value="0.0670792687" flag="0"/>
      <vel value="0.0238978026" flag="0"/>
      <psa03 value="0.1052203279" flag="0"/>
      <psa10 value="0.0100662104" flag="0"/>
      <psa30 value="0.0005981353" flag="0"/>
    </comp>
    <comp name="--.HHE">
      <acc value="0.0698561165" flag="0"/>
      <vel value="0.0215871341" flag="0"/>
      <psa03 value="0.1470174695" flag="0"/>
      <psa10 value="0.0089669977" flag="0"/>
      <psa30 value="0.0006977332" flag="0"/>
    </comp>
  </station>
</stationlist>
