<?xml version="1.0" encoding="UTF-8" standalone="yes"?>
<!DOCTYPE earthquake SYSTEM "stationlist.dtd">
<stationlist created="" xmlns="ch.ethz.sed.shakemap.usgs.xml">
  <station code="ARG" name="ARG" netid="HL" insttype="LE3D20_DR24" lat="36.2136" lon="28.1212">
    <comp name="--.HHZ">
      <acc value="0.0159502689" flag="0"/>
      <vel value="0.0093671837" flag="0"/>
      <psa03 value="0.0210473296" flag="0"/>
      <psa10 value="0.0181705776" flag="0"/>
      <psa30 value="0.0012603527" flag="0"/>
    </comp>
    <comp name="--.HHN">
      <acc value="0.0181061856" flag="0"/>
      <vel value="0.0129131978" flag="0"/>
      <psa03 value="0.0426411009" flag="0"/>
      <psa10 value="0.0217403441" flag="0"/>
      <psa30 value="0.0017943425" flag="0"/>
    </comp>
    <comp name="--.HHE">
      <acc value="0.0234259941" flag="0"/>
      <vel value="0.0118555654" flag="0"/>
      <psa03 value="0.0889278680" flag="0"/>
      <psa10 value="0.0107827037" flag="0"/>
      <psa30 value="0.0007264826" flag="0"/>
    </comp>
  </station>
  <station code="NISR" name="NISR" netid="HL" insttype="65535" lat="36.6106" lon="27.131">
    <comp name="--.HHE">
      <acc value="0.1049840963" flag="0"/>
      <vel value="0.0322753810" flag="0"/>
      <psa03 value="0.1501142659" flag="0"/>
      <psa10 value="0.0352652475" flag="0"/>
      <psa30 value="0.0013077993" flag="0"/>
    </comp>
    <comp name="--.HHN">
      <acc value="0.0509764035" flag="0"/>
      <vel value="0.0145910341" flag="0"/>
      <psa03 value="0.0674099157" flag="0"/>
      <psa10 value="0.0071606392" flag="0"/>
      <psa30 value="0.0003390835" flag="0"/>
    </comp>
    <comp name="--.HHZ">
      <acc value="0.0293599706" flag="0"/>
      <vel value="0.0116072090" flag="0"/>
      <psa03 value="0.0346582982" flag="0"/>
      <psa10 value="0.0122842444" flag="0"/>
      <psa30 value="0.0006792231" flag="0"/>
    </comp>
  </station>
  <station code="NISR2" name="NISR2" netid="HL" insttype="120" lat="36.5744" lon="27.1767">
    <comp name="--.HHE">
      <acc value="0.0851710850" flag="0"/>
      <vel value="0.0501872470" flag="0"/>
      <psa03 value="0.3561555199" flag="0"/>
      <psa10 value="0.0701464516" flag="0"/>
      <psa30 value="0.0026202930" flag="0"/>
    </comp>
    <comp name="--.HHN">
      <acc value="0.0960518682" flag="0"/>
      <vel value="0.0600993892" flag="0"/>
      <psa03 value="0.4031792436" flag="0"/>
      <psa10 value="0.0682146161" flag="0"/>
      <psa30 value="0.0028657732" flag="0"/>
    </comp>
    <comp name="--.HHZ">
      <acc value="0.0432239808" flag="0"/>
      <vel value="0.0182442803" flag="0"/>
      <psa03 value="0.1190586762" flag="0"/>
      <psa10 value="0.0147036828" flag="0"/>
      <psa30 value="0.0009599537" flag="0"/>
    </comp>
  </station>
  <station code="AYDB" name="AYDB" netid="KO" insttype="30s," lat="37.9467" lon="27.8908">
    <comp name="--.HHZ">
      <acc value="0.0072313989" flag="0"/>
      <vel value="0.0063348592" flag="0"/>
      <psa03 value="0.0256677347" flag="0"/>
      <psa10 value="0.0086067111" flag="0"/>
      <psa30 value="0.0008813446" flag="0"/>
    </comp>
    <comp name="--.HHN">
      <acc value="0.0143207034" flag="0"/>
      <vel value="0.0129511535" flag="0"/>
      <psa03 value="0.0350977469" flag="0"/>
      <psa10 value="0.0119667444" flag="0"/>
      <psa30 value="0.0009559502" flag="0"/>
    </comp>
    <comp name="--.HHE">
      <acc value="0.0134020018" flag="0"/>
      <vel value="0.0105210413" flag="0"/>
      <psa03 value="0.0409834826" flag="0"/>
      <psa10 value="0.0140123355" flag="0"/>
      <psa30 value="0.0009873987" flag="0"/>
    </comp>
  </station>
  <station code="DATC" name="DATC" netid="KO" insttype="CMG-5T" lat="36.7584" lon="27.6602">
    <comp name="--.HNE">
      <acc value="0.2869888730" flag="0"/>
      <vel value="0.0870157634" flag="0"/>
      <psa03 value="0.2269005814" flag="0"/>
      <psa10 value="0.1090983495" flag="0"/>
      <psa30 value="0.0115321528" flag="0"/>
    </comp>
    <comp name="--.HNN">
      <acc value="0.4567569235" flag="0"/>
      <vel value="0.0823097152" flag="0"/>
      <psa03 value="0.4215673290" flag="0"/>
      <psa10 value="0.0854127641" flag="0"/>
      <psa30 value="0.0079508117" flag="0"/>
    </comp>
    <comp name="--.HNZ">
      <acc value="0.3167994890" flag="0"/>
      <vel value="0.0866501952" flag="0"/>
      <psa03 value="0.2838226254" flag="0"/>
      <psa10 value="0.0721292552" flag="0"/>
      <psa30 value="0.0107161253" flag="0"/>
    </comp>
  </station>
  <station code="YKAV" name="YKAV" netid="KO" insttype="CMG-5T" lat="37.1246" lon="27.2801">
    <comp name="--.HNN">
      <acc value="0.1329148153" flag="0"/>
      <vel value="0.0469028246" flag="0"/>
      <psa03 value="0.2218960651" flag="0"/>
      <psa10 value="0.0374429392" flag="0"/>
      <psa30 value="0.0035497297" flag="0"/>
    </comp>
    <comp name="--.HNZ">
      <acc value="0.0783544656" flag="0"/>
      <vel value="0.0270410260" flag="0"/>
      <psa03 value="0.1067290845" flag="0"/>
      <psa10 value="0.0261304575" flag="0"/>
      <psa30 value="0.0029687202" flag="0"/>
    </comp>
    <comp name="--.HNE">
      <acc value="0.1507597346" flag="0"/>
      <vel value="0.0833483860" flag="0"/>
      <psa03 value="0.3527433263" flag="0"/>
      <psa10 value="0.0524151203" flag="0"/>
      <psa30 value="0.0034179717" flag="0"/>
    </comp>
  </station>
  <station code="AYDN" name="AYDN" netid="TU" insttype="T" lat="37.6608" lon="27.8792">
    <comp name="--.HHE">
      <acc value="0.0926943744" flag="0"/>
      <vel value="0.0385171221" flag="0"/>
      <psa03 value="0.1185302165" flag="0"/>
      <psa10 value="0.0300866187" flag="0"/>
      <psa30 value="0.0030419001" flag="0"/>
    </comp>
    <comp name="--.HHN">
      <acc value="0.0719321330" flag="0"/>
      <vel value="0.0538255688" flag="0"/>
      <psa03 value="0.1214149377" flag="0"/>
      <psa10 value="0.0479151438" flag="0"/>
      <psa30 value="0.0047196419" flag="0"/>
    </comp>
    <comp name="--.HHZ">
      <acc value="0.0390363303" flag="0"/>
      <vel value="0.0361772525" flag="0"/>
      <psa03 value="0.0721019563" flag="0"/>
      <psa10 value="0.0312079349" flag="0"/>
      <psa30 value="0.0042587083" flag="0"/>
    </comp>
  </station>
</stationlist>
