<?xml version="1.0" encoding="UTF-8" standalone="yes"?>
<!DOCTYPE earthquake SYSTEM "stationlist.dtd">
<stationlist created="" xmlns="ch.ethz.sed.shakemap.usgs.xml">
  <station code="DARE" name="DARE" netid="KO" insttype="CMG-3ESP" lat="38.5712" lon="37.4832">
    <comp name="--.HHN">
      <acc value="0.0137328817" flag="0"/>
      <vel value="0.0054787249" flag="0"/>
      <psa03 value="0.0219966972" flag="0"/>
      <psa10 value="0.0084379688" flag="0"/>
      <psa30 value="0.0014280649" flag="0"/>
    </comp>
    <comp name="--.HHZ">
      <acc value="0.0113751791" flag="0"/>
      <vel value="0.0061486847" flag="0"/>
      <psa03 value="0.0198788024" flag="0"/>
      <psa10 value="0.0079263087" flag="0"/>
      <psa30 value="0.0014811556" flag="0"/>
    </comp>
    <comp name="--.HHE">
      <acc value="0.0151660239" flag="0"/>
      <vel value="0.0059288964" flag="0"/>
      <psa03 value="0.0274518858" flag="0"/>
      <psa10 value="0.0080650517" flag="0"/>
      <psa30 value="0.0005010858" flag="0"/>
    </comp>
  </station>
  <station code="GAZ" name="GAZ" netid="KO" insttype="CMG-3T" lat="37.1721" lon="37.2096">
    <comp name="--.HHE">
      <acc value="0.0149045617" flag="0"/>
      <vel value="0.0062165012" flag="0"/>
      <psa03 value="0.0418944616" flag="0"/>
      <psa10 value="0.0063501659" flag="0"/>
      <psa30 value="0.0006678942" flag="0"/>
    </comp>
    <comp name="--.HHZ">
      <acc value="0.0101880186" flag="0"/>
      <vel value="0.0041900391" flag="0"/>
      <psa03 value="0.0221025434" flag="0"/>
      <psa10 value="0.0025504205" flag="0"/>
      <psa30 value="0.0002859013" flag="0"/>
    </comp>
    <comp name="--.HHN">
      <acc value="0.0080678707" flag="0"/>
      <vel value="0.0037862372" flag="0"/>
      <psa03 value="0.0224335629" flag="0"/>
      <psa10 value="0.0036107920" flag="0"/>
      <psa30 value="0.0004251508" flag="0"/>
    </comp>
  </station>
  <station code="SARI" name="SARI" netid="KO" insttype="CMG-3T" lat="38.4072" lon="36.4181">
    <comp name="--.HHN">
      <acc value="0.0089555763" flag="0"/>
      <vel value="0.0050714674" flag="0"/>
      <psa03 value="0.0272249352" flag="0"/>
      <psa10 value="0.0067183924" flag="0"/>
      <psa30 value="0.0005984380" flag="0"/>
    </comp>
    <comp name="--.HHE">
      <acc value="0.0121127980" flag="0"/>
      <vel value="0.0050249213" flag="0"/>
      <psa03 value="0.0419953744" flag="0"/>
      <psa10 value="0.0044339079" flag="0"/>
      <psa30 value="0.0002250295" flag="0"/>
    </comp>
    <comp name="--.HHZ">
      <acc value="0.0073997082" flag="0"/>
      <vel value="0.0033567271" flag="0"/>
      <psa03 value="0.0176500344" flag="0"/>
      <psa10 value="0.0038896780" flag="0"/>
      <psa30 value="0.0005757635" flag="0"/>
    </comp>
  </station>
  <station code="URFA" name="URFA" netid="KO" insttype="CMG-3ESP" lat="37.4409" lon="38.8213">
    <comp name="--.HHZ">
      <acc value="0.0082455371" flag="0"/>
      <vel value="0.0040352595" flag="0"/>
      <psa03 value="0.0157493936" flag="0"/>
      <psa10 value="0.0063224614" flag="0"/>
      <psa30 value="0.0002939726" flag="0"/>
    </comp>
    <comp name="--.HHN">
      <acc value="0.0165623012" flag="0"/>
      <vel value="0.0090045112" flag="0"/>
      <psa03 value="0.0224991536" flag="0"/>
      <psa10 value="0.0061333395" flag="0"/>
      <psa30 value="0.0010095445" flag="0"/>
    </comp>
    <comp name="--.HHE">
      <acc value="0.0181099565" flag="0"/>
      <vel value="0.0084134129" flag="0"/>
      <psa03 value="0.0240475029" flag="0"/>
      <psa10 value="0.0101614372" flag="0"/>
      <psa30 value="0.0006700328" flag="0"/>
    </comp>
  </station>
</stationlist>
