<?xml version="1.0" encoding="UTF-8" standalone="yes"?>
<!DOCTYPE earthquake SYSTEM "stationlist.dtd">
<stationlist created="" xmlns="ch.ethz.sed.shakemap.usgs.xml">
  <station code="GAZ" name="GAZ" netid="KO" insttype="CMG-3T" lat="37.1721" lon="37.2096">
    <comp name="--.HHE">
      <acc value="0.0149045619" flag="0"/>
      <vel value="0.0062165011" flag="0"/>
      <psa03 value="0.0418944616" flag="0"/>
      <psa10 value="0.0063501659" flag="0"/>
      <psa30 value="0.0006678945" flag="0"/>
    </comp>
    <comp name="--.HHN">
      <acc value="0.0080678705" flag="0"/>
      <vel value="0.0037862376" flag="0"/>
      <psa03 value="0.0224335629" flag="0"/>
      <psa10 value="0.0036107920" flag="0"/>
      <psa30 value="0.0004251519" flag="0"/>
    </comp>
    <comp name="--.HHZ">
      <acc value="0.0101880187" flag="0"/>
      <vel value="0.0041900393" flag="0"/>
      <psa03 value="0.0221025434" flag="0"/>
      <psa10 value="0.0025504205" flag="0"/>
      <psa30 value="0.0002859015" flag="0"/>
    </comp>
  </station>
  <station code="URFA" name="URFA" netid="KO" insttype="CMG-3ESP" lat="37.4409" lon="38.8213">
    <comp name="--.HHZ">
      <acc value="0.0082455371" flag="0"/>
      <vel value="0.0040352597" flag="0"/>
      <psa03 value="0.0157493936" flag="0"/>
      <psa10 value="0.0063224614" flag="0"/>
      <psa30 value="0.0002939855" flag="0"/>
    </comp>
    <comp name="--.HHN">
      <acc value="0.0165623014" flag="0"/>
      <vel value="0.0090045100" flag="0"/>
      <psa03 value="0.0224991536" flag="0"/>
      <psa10 value="0.0061333395" flag="0"/>
      <psa30 value="0.0010095472" flag="0"/>
    </comp>
    <comp name="--.HHE">
      <acc value="0.0181099566" flag="0"/>
      <vel value="0.0084134128" flag="0"/>
      <psa03 value="0.0240475029" flag="0"/>
      <psa10 value="0.0101614373" flag="0"/>
      <psa30 value="0.0006700861" flag="0"/>
    </comp>
  </station>
</stationlist>
