<?xml version="1.0" encoding="UTF-8" standalone="yes"?>
<!DOCTYPE earthquake SYSTEM "stationlist.dtd">
<stationlist created="" xmlns="ch.ethz.sed.shakemap.usgs.xml">
  <station code="DARE" name="DARE" netid="KO" insttype="CMG-3ESP" lat="38.5712" lon="37.4832">
    <comp name="--.HHE">
      <acc value="0.0151660239" flag="0"/>
      <vel value="0.0059288963" flag="0"/>
      <psa03 value="0.0274518858" flag="0"/>
      <psa10 value="0.0080650517" flag="0"/>
      <psa30 value="0.0005010832" flag="0"/>
    </comp>
    <comp name="--.HHZ">
      <acc value="0.0113751791" flag="0"/>
      <vel value="0.0061486844" flag="0"/>
      <psa03 value="0.0198788024" flag="0"/>
      <psa10 value="0.0079263088" flag="0"/>
      <psa30 value="0.0014811587" flag="0"/>
    </comp>
    <comp name="--.HHN">
      <acc value="0.0137328817" flag="0"/>
      <vel value="0.0054787248" flag="0"/>
      <psa03 value="0.0219966972" flag="0"/>
      <psa10 value="0.0084379688" flag="0"/>
      <psa30 value="0.0014280607" flag="0"/>
    </comp>
  </station>
  <station code="GAZ" name="GAZ" netid="KO" insttype="CMG-3T" lat="37.1721" lon="37.2096">
    <comp name="--.HHE">
      <acc value="0.0149045619" flag="0"/>
      <vel value="0.0062165014" flag="0"/>
      <psa03 value="0.0418944616" flag="0"/>
      <psa10 value="0.0063501659" flag="0"/>
      <psa30 value="0.0006678952" flag="0"/>
    </comp>
    <comp name="--.HHZ">
      <acc value="0.0101880183" flag="0"/>
      <vel value="0.0041900392" flag="0"/>
      <psa03 value="0.0221025434" flag="0"/>
      <psa10 value="0.0025504205" flag="0"/>
      <psa30 value="0.0002859022" flag="0"/>
    </comp>
    <comp name="--.HHN">
      <acc value="0.0080678714" flag="0"/>
      <vel value="0.0037862381" flag="0"/>
      <psa03 value="0.0224335629" flag="0"/>
      <psa10 value="0.0036107920" flag="0"/>
      <psa30 value="0.0004251541" flag="0"/>
    </comp>
  </station>
  <station code="URFA" name="URFA" netid="KO" insttype="CMG-3ESP" lat="37.4409" lon="38.8213">
    <comp name="--.HHN">
      <acc value="0.0165623014" flag="0"/>
      <vel value="0.0090045099" flag="0"/>
      <psa03 value="0.0224991536" flag="0"/>
      <psa10 value="0.0061333395" flag="0"/>
      <psa30 value="0.0010095476" flag="0"/>
    </comp>
    <comp name="--.HHE">
      <acc value="0.0181099567" flag="0"/>
      <vel value="0.0084134138" flag="0"/>
      <psa03 value="0.0240475029" flag="0"/>
      <psa10 value="0.0101614373" flag="0"/>
      <psa30 value="0.0006701128" flag="0"/>
    </comp>
    <comp name="--.HHZ">
      <acc value="0.0082455372" flag="0"/>
      <vel value="0.0040352597" flag="0"/>
      <psa03 value="0.0157493936" flag="0"/>
      <psa10 value="0.0063224614" flag="0"/>
      <psa30 value="0.0002939931" flag="0"/>
    </comp>
  </station>
</stationlist>
