<?xml version="1.0" encoding="UTF-8" standalone="yes"?>
<!DOCTYPE earthquake SYSTEM "stationlist.dtd">
<stationlist created="" xmlns="ch.ethz.sed.shakemap.usgs.xml">
  <station code="KARP" name="KARP" netid="GE" insttype="STS-2/N" lat="35.5471" lon="27.1611">
    <comp name="--.HHZ">
      <acc value="0.0356594346" flag="0"/>
      <vel value="0.0112428823" flag="0"/>
      <psa03 value="0.0505148402" flag="0"/>
      <psa10 value="0.0115377795" flag="0"/>
      <psa30 value="0.0007187458" flag="0"/>
    </comp>
    <comp name="--.HHN">
      <acc value="0.0815819981" flag="0"/>
      <vel value="0.0232526228" flag="0"/>
      <psa03 value="0.0597399565" flag="0"/>
      <psa10 value="0.0365219372" flag="0"/>
      <psa30 value="0.0013258975" flag="0"/>
    </comp>
    <comp name="--.HHE">
      <acc value="0.0810179314" flag="0"/>
      <vel value="0.0169445043" flag="0"/>
      <psa03 value="0.0490176232" flag="0"/>
      <psa10 value="0.0198937057" flag="0"/>
      <psa30 value="0.0008033638" flag="0"/>
    </comp>
  </station>
  <station code="ARG" name="ARG" netid="HL" insttype="LE3D20_DR24" lat="36.2136" lon="28.1212">
    <comp name="--.HHN">
      <acc value="0.0303749271" flag="0"/>
      <vel value="0.0112075317" flag="0"/>
      <psa03 value="0.0762779966" flag="0"/>
      <psa10 value="0.0099098156" flag="0"/>
      <psa30 value="0.0011033141" flag="0"/>
    </comp>
    <comp name="--.HHZ">
      <acc value="0.0141678797" flag="0"/>
      <vel value="0.0104305546" flag="0"/>
      <psa03 value="0.0300894794" flag="0"/>
      <psa10 value="0.0247690116" flag="0"/>
      <psa30 value="0.0012880440" flag="0"/>
    </comp>
    <comp name="--.HHE">
      <acc value="0.0421709712" flag="0"/>
      <vel value="0.0293787607" flag="0"/>
      <psa03 value="0.0926076629" flag="0"/>
      <psa10 value="0.0178302041" flag="0"/>
      <psa30 value="0.0037645627" flag="0"/>
    </comp>
  </station>
  <station code="KARP" name="KARP" netid="HL" insttype="120" lat="35.5471" lon="27.1611">
    <comp name="--.HHE">
      <acc value="0.0639535360" flag="0"/>
      <vel value="0.0157812672" flag="0"/>
      <psa03 value="0.0475193884" flag="0"/>
      <psa10 value="0.0197363369" flag="0"/>
      <psa30 value="0.0007972615" flag="0"/>
    </comp>
    <comp name="--.HHZ">
      <acc value="0.0326800751" flag="0"/>
      <vel value="0.0109943956" flag="0"/>
      <psa03 value="0.0490782818" flag="0"/>
      <psa10 value="0.0114807585" flag="0"/>
      <psa30 value="0.0007134255" flag="0"/>
    </comp>
    <comp name="--.HHN">
      <acc value="0.0631714840" flag="0"/>
      <vel value="0.0229943617" flag="0"/>
      <psa03 value="0.0582130790" flag="0"/>
      <psa10 value="0.0362837659" flag="0"/>
      <psa30 value="0.0013216893" flag="0"/>
    </comp>
  </station>
  <station code="NISR" name="NISR" netid="HL" insttype="65535" lat="36.6106" lon="27.131">
    <comp name="--.HHZ">
      <acc value="0.2292420025" flag="0"/>
      <vel value="0.0546978547" flag="0"/>
      <psa03 value="0.1640121346" flag="0"/>
      <psa10 value="0.0305985797" flag="0"/>
      <psa30 value="0.0020316995" flag="0"/>
    </comp>
    <comp name="--.HHE">
      <acc value="0.5588130318" flag="0"/>
      <vel value="0.1515484114" flag="0"/>
      <psa03 value="0.7303646845" flag="0"/>
      <psa10 value="0.0572653847" flag="0"/>
      <psa30 value="0.0045466528" flag="0"/>
    </comp>
    <comp name="--.HHN">
      <acc value="0.3543073273" flag="0"/>
      <vel value="0.0729752346" flag="0"/>
      <psa03 value="0.2477479797" flag="0"/>
      <psa10 value="0.0450360214" flag="0"/>
      <psa30 value="0.0185853731" flag="0"/>
    </comp>
  </station>
</stationlist>
