<stationlist created="1778138267">
	<station code="KRL1" name="KRL1" netid="HI" source="ITSAK Strong Motion Network" insttype="" lat="37.7951" lon="26.7065">
		<comp name="--.HNE" depth="0.0">
			<acc value="0.00579485968360627" flag="0"/>
			<vel value="0.0050038187905724" flag="0"/>
			<psa03 value="0.0113088988986545" flag="0"/>
			<psa10 value="0.00720970542011194" flag="0"/>
			<psa30 value="0.000737206492562545" flag="0"/>
		</comp>
		<comp name="--.HNN" depth="0.0">
			<acc value="0.00350417376581346" flag="0"/>
			<vel value="0.00470954706100857" flag="0"/>
			<psa03 value="0.0105908057555841" flag="0"/>
			<psa10 value="0.00872505049177535" flag="0"/>
			<psa30 value="0.000548383827736585" flag="0"/>
		</comp>
		<comp name="--.HNZ" depth="0.0">
			<acc value="0.00232345066096357" flag="0"/>
			<vel value="0.00228336573391752" flag="0"/>
			<psa03 value="0.00638570231832721" flag="0"/>
			<psa10 value="0.0040375062149584" flag="0"/>
			<psa30 value="0.000427709896181365" flag="0"/>
		</comp>
	</station>
	<station code="KSS1" name="KSS1" netid="HI" source="ITSAK Strong Motion Network" insttype="" lat="35.4189" lon="26.9207">
		<comp name="--.HNE" depth="0.0">
			<acc value="0.00892252331507806" flag="0"/>
			<vel value="0.00374496902746261" flag="0"/>
			<psa03 value="0.0352192601864693" flag="0"/>
			<psa10 value="0.00268740810572178" flag="0"/>
			<psa30 value="0.000171527352428829" flag="0"/>
		</comp>
		<comp name="--.HNN" depth="0.0">
			<acc value="0.00824115624098742" flag="0"/>
			<vel value="0.00429267545782708" flag="0"/>
			<psa03 value="0.0306243959034232" flag="0"/>
			<psa10 value="0.00314377677540801" flag="0"/>
			<psa30 value="0.000235202273704555" flag="0"/>
		</comp>
		<comp name="--.HNZ" depth="0.0">
			<acc value="0.00719134154228631" flag="0"/>
			<vel value="0.00232006141614999" flag="0"/>
			<psa03 value="0.00770484764791799" flag="0"/>
			<psa10 value="0.00284455687543129" flag="0"/>
			<psa30 value="0.000169673088967696" flag="0"/>
		</comp>
	</station>
	<station code="SIT2" name="SIT2" netid="HI" source="ITSAK Strong Motion Network" insttype="" lat="35.2059" lon="26.107">
		<comp name="--.HNE" depth="0.0">
			<acc value="0.0169936213154315" flag="0"/>
			<vel value="0.0120494704911971" flag="0"/>
			<psa03 value="0.0436702262714918" flag="0"/>
			<psa10 value="0.00557793951111959" flag="0"/>
			<psa30 value="0.000611985384778541" flag="0"/>
		</comp>
		<comp name="--.HNN" depth="0.0">
			<acc value="0.0252207087574457" flag="0"/>
			<vel value="0.0173221376742403" flag="0"/>
			<psa03 value="0.110952152118666" flag="0"/>
			<psa10 value="0.0109077007066399" flag="0"/>
			<psa30 value="0.000600723232466266" flag="0"/>
		</comp>
		<comp name="--.HNZ" depth="0.0">
			<acc value="0.0126365588647741" flag="0"/>
			<vel value="0.00522691801294268" flag="0"/>
			<psa03 value="0.0371156436250771" flag="0"/>
			<psa10 value="0.00224141590467713" flag="0"/>
			<psa30 value="0.00026047959924512" flag="0"/>
		</comp>
	</station>
	<station code="AGNA" name="AGNA" netid="HL" source="National Observatory of Athens Seismic Network" insttype="" lat="35.1895" lon="25.71853">
		<comp name="00.HNE" depth="0.0">
			<acc value="0.00441455000422632" flag="0"/>
			<vel value="0.00317735422009049" flag="0"/>
			<psa03 value="0.0123245117509116" flag="0"/>
			<psa10 value="0.00214161616843592" flag="0"/>
			<psa30 value="0.000367173385934654" flag="0"/>
		</comp>
		<comp name="00.HNN" depth="0.0">
			<acc value="0.00493227693460068" flag="0"/>
			<vel value="0.00607827077864912" flag="0"/>
			<psa03 value="0.0189098112759347" flag="0"/>
			<psa10 value="0.00925966153213124" flag="0"/>
			<psa30 value="0.000763643243865827" flag="0"/>
		</comp>
		<comp name="00.HNZ" depth="0.0">
			<acc value="0.00292797135044472" flag="0"/>
			<vel value="0.00149584721679003" flag="0"/>
			<psa03 value="0.00592802291076494" flag="0"/>
			<psa10 value="0.00213147854374372" flag="0"/>
			<psa30 value="0.000241017346424852" flag="0"/>
		</comp>
	</station>
	<station code="KARP" name="KARP" netid="HL" source="National Observatory of Athens Seismic Network" insttype="" lat="35.5471" lon="27.16106">
		<comp name="--.HNE" depth="0.0">
			<acc value="0.0379887032507954" flag="0"/>
			<vel value="0.0130529434689686" flag="0"/>
			<psa03 value="0.041035739249665" flag="0"/>
			<psa10 value="0.0146665568998956" flag="0"/>
			<psa30 value="0.000655179860784227" flag="0"/>
		</comp>
		<comp name="--.HNN" depth="0.0">
			<acc value="0.0412553142334255" flag="0"/>
			<vel value="0.019349269446205" flag="0"/>
			<psa03 value="0.0510665287401882" flag="0"/>
			<psa10 value="0.0326460663916666" flag="0"/>
			<psa30 value="0.00120532067991472" flag="0"/>
		</comp>
		<comp name="--.HNZ" depth="0.0">
			<acc value="0.0250704848227575" flag="0"/>
			<vel value="0.00908965199073554" flag="0"/>
			<psa03 value="0.0403003624095804" flag="0"/>
			<psa10 value="0.00915343855789683" flag="0"/>
			<psa30 value="0.000593102519296231" flag="0"/>
		</comp>
	</station>
	<station code="KLNA" name="KLNA" netid="HL" source="National Observatory of Athens Seismic Network" insttype="" lat="36.95708" lon="26.97274">
		<comp name="00.HNE" depth="0.0">
			<acc value="0.0297966708694705" flag="0"/>
			<vel value="0.0124390960350229" flag="0"/>
			<psa03 value="0.0614907661700268" flag="0"/>
			<psa10 value="0.007902480375541" flag="0"/>
			<psa30 value="0.00111233754106783" flag="0"/>
		</comp>
		<comp name="00.HNN" depth="0.0">
			<acc value="0.0328284820822169" flag="0"/>
			<vel value="0.0104408076919913" flag="0"/>
			<psa03 value="0.0486011206275296" flag="0"/>
			<psa10 value="0.00675325846396846" flag="0"/>
			<psa30 value="0.000469747993500593" flag="0"/>
		</comp>
		<comp name="00.HNZ" depth="0.0">
			<acc value="0.031411394795777" flag="0"/>
			<vel value="0.00752881866655685" flag="0"/>
			<psa03 value="0.0246378743257616" flag="0"/>
			<psa10 value="0.004089123228078" flag="0"/>
			<psa30 value="0.000520541670829186" flag="0"/>
		</comp>
	</station>
	<station code="NISR" name="NISR" netid="HL" source="National Observatory of Athens Seismic Network" insttype="" lat="36.6106" lon="27.131">
		<comp name="--.HNE" depth="0.0">
			<acc value="0.489361145513002" flag="0"/>
			<vel value="0.137730537026398" flag="0"/>
			<psa03 value="0.664478935134753" flag="0"/>
			<psa10 value="0.0556583483426061" flag="0"/>
			<psa30 value="0.00535599855860256" flag="0"/>
		</comp>
		<comp name="--.HNN" depth="0.0">
			<acc value="0.364233724613613" flag="0"/>
			<vel value="0.0851933563912536" flag="0"/>
			<psa03 value="0.326612615649586" flag="0"/>
			<psa10 value="0.032413250968796" flag="0"/>
			<psa30 value="0.00341460057552894" flag="0"/>
		</comp>
		<comp name="--.HNZ" depth="0.0">
			<acc value="0.201219916675994" flag="0"/>
			<vel value="0.0474741092728585" flag="0"/>
			<psa03 value="0.139532785029005" flag="0"/>
			<psa10 value="0.0324877946569671" flag="0"/>
			<psa30 value="0.00202242335062052" flag="0"/>
		</comp>
	</station>
	<station code="RODB" name="RODB" netid="HL" source="National Observatory of Athens Seismic Network" insttype="" lat="36.4471" lon="28.22116">
		<comp name="00.HNE" depth="0.0">
			<acc value="0.00984652685962891" flag="0"/>
			<vel value="0.0104030078727282" flag="0"/>
			<psa03 value="0.0235905992197657" flag="0"/>
			<psa10 value="0.0149304646950014" flag="0"/>
			<psa30 value="0.00254419874901466" flag="0"/>
		</comp>
		<comp name="00.HNN" depth="0.0">
			<acc value="0.0131981811918656" flag="0"/>
			<vel value="0.0146064352660987" flag="0"/>
			<psa03 value="0.0228507507292353" flag="0"/>
			<psa10 value="0.021564746058591" flag="0"/>
			<psa30 value="0.00324294441248678" flag="0"/>
		</comp>
		<comp name="00.HNZ" depth="0.0">
			<acc value="0.00571907472453846" flag="0"/>
			<vel value="0.00537697602238827" flag="0"/>
			<psa03 value="0.0195642400452965" flag="0"/>
			<psa10 value="0.0112470841266136" flag="0"/>
			<psa30 value="0.0010672245525574" flag="0"/>
		</comp>
	</station>
	<station code="THRA" name="THRA" netid="HL" source="National Observatory of Athens Seismic Network" insttype="" lat="36.41502" lon="25.43244">
		<comp name="00.HNE" depth="0.0">
			<acc value="0.0179274484112282" flag="0"/>
			<vel value="0.0120254449908256" flag="0"/>
			<psa03 value="0.0624468763826417" flag="0"/>
			<psa10 value="0.0117257236466531" flag="0"/>
			<psa30 value="0.00250467154719616" flag="0"/>
		</comp>
		<comp name="00.HNN" depth="0.0">
			<acc value="0.0143838360474475" flag="0"/>
			<vel value="0.00809540493094133" flag="0"/>
			<psa03 value="0.0468722717245432" flag="0"/>
			<psa10 value="0.0151552770877276" flag="0"/>
			<psa30 value="0.00170616958786393" flag="0"/>
		</comp>
		<comp name="00.HNZ" depth="0.0">
			<acc value="0.0144199178646639" flag="0"/>
			<vel value="0.00677918424140326" flag="0"/>
			<psa03 value="0.0381216581852578" flag="0"/>
			<psa10 value="0.00777716113627252" flag="0"/>
			<psa30 value="0.000695035626030597" flag="0"/>
		</comp>
	</station>
</stationlist>
