<?xml version="1.0" encoding="UTF-8" standalone="yes"?>
<!DOCTYPE earthquake SYSTEM "stationlist.dtd">
<stationlist created="" xmlns="ch.ethz.sed.shakemap.usgs.xml">
  <station code="ARPRA" name="ARPRA" netid="KO" insttype="CMG-5T" lat="39.0929" lon="38.3356">
    <comp name="--.HNE">
      <acc value="0.0182235110" flag="0"/>
      <vel value="0.0070393648" flag="0"/>
      <psa03 value="0.0326168671" flag="0"/>
      <psa10 value="0.0132329631" flag="0"/>
      <psa30 value="0.0043353956" flag="0"/>
    </comp>
    <comp name="--.HNZ">
      <acc value="0.0071485492" flag="0"/>
      <vel value="0.0032611082" flag="0"/>
      <psa03 value="0.0154490652" flag="0"/>
      <psa10 value="0.0060121374" flag="0"/>
      <psa30 value="0.0015638833" flag="0"/>
    </comp>
    <comp name="--.HNN">
      <acc value="0.0162156068" flag="0"/>
      <vel value="0.0080839798" flag="0"/>
      <psa03 value="0.0282906255" flag="0"/>
      <psa10 value="0.0160936172" flag="0"/>
      <psa30 value="0.0050822111" flag="0"/>
    </comp>
  </station>
  <station code="TUNC" name="TUNC" netid="KO" insttype="CMG-5T" lat="39.6942" lon="37.5388">
    <comp name="--.HNN">
      <acc value="0.0125567145" flag="0"/>
      <vel value="0.0054625841" flag="0"/>
      <psa03 value="0.0520208441" flag="0"/>
      <psa10 value="0.0054918960" flag="0"/>
      <psa30 value="0.0006005798" flag="0"/>
    </comp>
    <comp name="--.HNZ">
      <acc value="0.0093982689" flag="0"/>
      <vel value="0.0032607667" flag="0"/>
      <psa03 value="0.0174459909" flag="0"/>
      <psa10 value="0.0041189816" flag="0"/>
      <psa30 value="0.0004452138" flag="0"/>
    </comp>
    <comp name="--.HNE">
      <acc value="0.0148817939" flag="0"/>
      <vel value="0.0071031634" flag="0"/>
      <psa03 value="0.0376179411" flag="0"/>
      <psa10 value="0.0067384880" flag="0"/>
      <psa30 value="0.0011450476" flag="0"/>
    </comp>
  </station>
</stationlist>
