<?xml version="1.0" encoding="UTF-8" standalone="yes"?>
<!DOCTYPE earthquake SYSTEM "stationlist.dtd">
<stationlist created="" xmlns="ch.ethz.sed.shakemap.usgs.xml">
  <station code="ARPRA" name="ARPRA" netid="KO" insttype="CMG-5T" lat="39.0929" lon="38.3356">
    <comp name="--.HNN">
      <acc value="0.0162156057" flag="0"/>
      <vel value="0.0080839879" flag="0"/>
      <psa03 value="0.0282906255" flag="0"/>
      <psa10 value="0.0160936172" flag="0"/>
      <psa30 value="0.0050822953" flag="0"/>
    </comp>
    <comp name="--.HNE">
      <acc value="0.0182235108" flag="0"/>
      <vel value="0.0070393622" flag="0"/>
      <psa03 value="0.0326168671" flag="0"/>
      <psa10 value="0.0132329631" flag="0"/>
      <psa30 value="0.0043353136" flag="0"/>
    </comp>
    <comp name="--.HNZ">
      <acc value="0.0071485493" flag="0"/>
      <vel value="0.0032611104" flag="0"/>
      <psa03 value="0.0154490652" flag="0"/>
      <psa10 value="0.0060121374" flag="0"/>
      <psa30 value="0.0015639251" flag="0"/>
    </comp>
  </station>
  <station code="SARI" name="SARI" netid="KO" insttype="CMG-3T" lat="38.4072" lon="36.4181">
    <comp name="--.HHZ">
      <acc value="0.0131424302" flag="0"/>
      <vel value="0.0104995906" flag="0"/>
      <psa03 value="0.0460021040" flag="0"/>
      <psa10 value="0.0142603851" flag="0"/>
      <psa30 value="0.0014698605" flag="0"/>
    </comp>
    <comp name="--.HHN">
      <acc value="0.0168321915" flag="0"/>
      <vel value="0.0111792799" flag="0"/>
      <psa03 value="0.0454411582" flag="0"/>
      <psa10 value="0.0204718798" flag="0"/>
      <psa30 value="0.0020539491" flag="0"/>
    </comp>
  </station>
  <station code="TUNC" name="TUNC" netid="KO" insttype="CMG-5T" lat="39.6942" lon="37.5388">
    <comp name="--.HNE">
      <acc value="0.0148817871" flag="0"/>
      <vel value="0.0071031727" flag="0"/>
      <psa03 value="0.0376179411" flag="0"/>
      <psa10 value="0.0067384879" flag="0"/>
      <psa30 value="0.0011449922" flag="0"/>
    </comp>
    <comp name="--.HNN">
      <acc value="0.0125567089" flag="0"/>
      <vel value="0.0054625876" flag="0"/>
      <psa03 value="0.0520208441" flag="0"/>
      <psa10 value="0.0054918960" flag="0"/>
      <psa30 value="0.0006007007" flag="0"/>
    </comp>
    <comp name="--.HNZ">
      <acc value="0.0093982739" flag="0"/>
      <vel value="0.0032607676" flag="0"/>
      <psa03 value="0.0174459909" flag="0"/>
      <psa10 value="0.0041189819" flag="0"/>
      <psa30 value="0.0004474874" flag="0"/>
    </comp>
  </station>
</stationlist>
