<?xml version="1.0" encoding="UTF-8" standalone="yes"?>
<!DOCTYPE earthquake SYSTEM "stationlist.dtd">
<stationlist created="" xmlns="ch.ethz.sed.shakemap.usgs.xml">
  <station code="SARI" name="SARI" netid="KO" insttype="CMG-3T" lat="38.4072" lon="36.4181">
    <comp name="--.HHN">
      <acc value="0.0168321914" flag="0"/>
      <vel value="0.0111792798" flag="0"/>
      <psa03 value="0.0454411582" flag="0"/>
      <psa10 value="0.0204718798" flag="0"/>
      <psa30 value="0.0020539375" flag="0"/>
    </comp>
    <comp name="--.HHZ">
      <acc value="0.0131424304" flag="0"/>
      <vel value="0.0104995907" flag="0"/>
      <psa03 value="0.0460021040" flag="0"/>
      <psa10 value="0.0142603851" flag="0"/>
      <psa30 value="0.0014698635" flag="0"/>
    </comp>
  </station>
  <station code="SVSK" name="SVSK" netid="KO" insttype="CMG-3T" lat="39.9157" lon="36.9925">
    <comp name="--.HHE">
      <acc value="0.0076958041" flag="0"/>
      <vel value="0.0037985687" flag="0"/>
      <psa03 value="0.0192112005" flag="0"/>
      <psa10 value="0.0033513058" flag="0"/>
      <psa30 value="0.0003801859" flag="0"/>
    </comp>
    <comp name="--.HHZ">
      <acc value="0.0028262566" flag="0"/>
      <vel value="0.0015584402" flag="0"/>
      <psa03 value="0.0078566656" flag="0"/>
      <psa10 value="0.0020003863" flag="0"/>
      <psa30 value="0.0001800835" flag="0"/>
    </comp>
    <comp name="--.HHN">
      <acc value="0.0036605805" flag="0"/>
      <vel value="0.0022539915" flag="0"/>
      <psa03 value="0.0093076354" flag="0"/>
      <psa10 value="0.0017605121" flag="0"/>
      <psa30 value="0.0002044981" flag="0"/>
    </comp>
  </station>
  <station code="TUNC" name="TUNC" netid="KO" insttype="CMG-5T" lat="39.6942" lon="37.5388">
    <comp name="--.HNE">
      <acc value="0.0148817892" flag="0"/>
      <vel value="0.0071031682" flag="0"/>
      <psa03 value="0.0376179411" flag="0"/>
      <psa10 value="0.0067384879" flag="0"/>
      <psa30 value="0.0011450066" flag="0"/>
    </comp>
    <comp name="--.HNN">
      <acc value="0.0125567105" flag="0"/>
      <vel value="0.0054625859" flag="0"/>
      <psa03 value="0.0520208441" flag="0"/>
      <psa10 value="0.0054918960" flag="0"/>
      <psa30 value="0.0006006822" flag="0"/>
    </comp>
    <comp name="--.HNZ">
      <acc value="0.0093982726" flag="0"/>
      <vel value="0.0032607671" flag="0"/>
      <psa03 value="0.0174459909" flag="0"/>
      <psa10 value="0.0041189818" flag="0"/>
      <psa30 value="0.0004467475" flag="0"/>
    </comp>
  </station>
</stationlist>
