<?xml version="1.0" encoding="UTF-8" standalone="yes"?>
<!DOCTYPE earthquake SYSTEM "stationlist.dtd">
<stationlist created="" xmlns="ch.ethz.sed.shakemap.usgs.xml">
  <station code="KBN" name="KBN" netid="AC" insttype="" lat="40.6236" lon="20.7874">
    <comp name="--.HHE">
      <acc value="0.0612740485" flag="0"/>
      <vel value="0.0161755096" flag="0"/>
      <psa03 value="0.0857584861" flag="0"/>
      <psa10 value="0.0134976726" flag="0"/>
      <psa30 value="0.0005206963" flag="0"/>
    </comp>
    <comp name="--.HHN">
      <acc value="0.0761393785" flag="0"/>
      <vel value="0.0192195673" flag="0"/>
      <psa03 value="0.1476477838" flag="0"/>
      <psa10 value="0.0128151956" flag="0"/>
      <psa30 value="0.0004918531" flag="0"/>
    </comp>
    <comp name="--.HHZ">
      <acc value="0.0442924633" flag="0"/>
      <vel value="0.0115813703" flag="0"/>
      <psa03 value="0.0640443936" flag="0"/>
      <psa10 value="0.0096655094" flag="0"/>
      <psa30 value="0.0006279993" flag="0"/>
    </comp>
  </station>
  <station code="PHP" name="PHP" netid="AC" insttype="" lat="41.6847" lon="20.4408">
    <comp name="--.HHN">
      <acc value="0.0116422239" flag="0"/>
      <vel value="0.0047858754" flag="0"/>
      <psa03 value="0.0167488895" flag="0"/>
      <psa10 value="0.0041870572" flag="0"/>
      <psa30 value="0.0003636438" flag="0"/>
    </comp>
    <comp name="--.HHE">
      <acc value="0.0890841935" flag="0"/>
      <vel value="0.0090445253" flag="0"/>
      <psa03 value="0.0377877696" flag="0"/>
      <psa10 value="0.0086105352" flag="0"/>
      <psa30 value="0.0009614744" flag="0"/>
    </comp>
    <comp name="--.HHZ">
      <acc value="0.0050942474" flag="0"/>
      <vel value="0.0027597322" flag="0"/>
      <psa03 value="0.0115802273" flag="0"/>
      <psa10 value="0.0037852867" flag="0"/>
      <psa30 value="0.0003286429" flag="0"/>
    </comp>
  </station>
  <station code="LMS2" name="LMS2" netid="HI" insttype="CMG-5TD,ACCELEROMETER,GURALP" lat="40.835" lon="21.1418">
    <comp name="--.HNE">
      <acc value="2.7488647684" flag="0"/>
      <vel value="0.7099980045" flag="0"/>
      <psa03 value="2.4947067821" flag="0"/>
      <psa10 value="0.1741600712" flag="0"/>
      <psa30 value="0.0187969700" flag="0"/>
    </comp>
    <comp name="--.HNZ">
      <acc value="1.0038277050" flag="0"/>
      <vel value="0.1564892497" flag="0"/>
      <psa03 value="0.5470627097" flag="0"/>
      <psa10 value="0.0642964845" flag="0"/>
      <psa30 value="0.0045079290" flag="0"/>
    </comp>
    <comp name="--.HNN">
      <acc value="4.3066307625" flag="0"/>
      <vel value="0.9897742724" flag="0"/>
      <psa03 value="3.0002173315" flag="0"/>
      <psa10 value="0.1439472868" flag="0"/>
      <psa30 value="0.0155611152" flag="0"/>
    </comp>
  </station>
  <station code="KZN" name="KZN" netid="HL" insttype="120" lat="40.3033" lon="21.7821">
    <comp name="--.HHE">
      <acc value="0.0325158733" flag="0"/>
      <vel value="0.0115529083" flag="0"/>
      <psa03 value="0.0632469877" flag="0"/>
      <psa10 value="0.0057668496" flag="0"/>
      <psa30 value="0.0005862383" flag="0"/>
    </comp>
    <comp name="--.HHZ">
      <acc value="0.0137310147" flag="0"/>
      <vel value="0.0050000724" flag="0"/>
      <psa03 value="0.0277154551" flag="0"/>
      <psa10 value="0.0022114070" flag="0"/>
      <psa30 value="0.0003861318" flag="0"/>
    </comp>
    <comp name="--.HHN">
      <acc value="0.0265389265" flag="0"/>
      <vel value="0.0113593019" flag="0"/>
      <psa03 value="0.0766740550" flag="0"/>
      <psa10 value="0.0050494729" flag="0"/>
      <psa30 value="0.0005288214" flag="0"/>
    </comp>
  </station>
  <station code="PENT" name="PENT" netid="HL" insttype="30s-100Hz," lat="40.1959" lon="21.1384">
    <comp name="--.HHZ">
      <acc value="0.0129414916" flag="0"/>
      <vel value="0.0081370296" flag="0"/>
      <psa03 value="0.0296319215" flag="0"/>
      <psa10 value="0.0105693242" flag="0"/>
      <psa30 value="0.0008010652" flag="0"/>
    </comp>
    <comp name="--.HHN">
      <acc value="0.0174020972" flag="0"/>
      <vel value="0.0055568975" flag="0"/>
      <psa03 value="0.0247943403" flag="0"/>
      <psa10 value="0.0085053364" flag="0"/>
      <psa30 value="0.0002947702" flag="0"/>
    </comp>
    <comp name="--.HHE">
      <acc value="0.0214497343" flag="0"/>
      <vel value="0.0117638793" flag="0"/>
      <psa03 value="0.0339058717" flag="0"/>
      <psa10 value="0.0206638067" flag="0"/>
      <psa30 value="0.0011183939" flag="0"/>
    </comp>
  </station>
  <station code="LIT" name="LIT" netid="HT" insttype="100" lat="40.1033" lon="22.4892">
    <comp name="--.HHE">
      <acc value="0.0051744039" flag="0"/>
      <vel value="0.0028808430" flag="0"/>
      <psa03 value="0.0250074086" flag="0"/>
      <psa10 value="0.0013442461" flag="0"/>
      <psa30 value="0.0002738149" flag="0"/>
    </comp>
    <comp name="--.HHZ">
      <acc value="0.0032936598" flag="0"/>
      <vel value="0.0017953300" flag="0"/>
      <psa03 value="0.0115281871" flag="0"/>
      <psa10 value="0.0018131393" flag="0"/>
      <psa30 value="0.0003479524" flag="0"/>
    </comp>
    <comp name="--.HHN">
      <acc value="0.0055617457" flag="0"/>
      <vel value="0.0024922092" flag="0"/>
      <psa03 value="0.0202279806" flag="0"/>
      <psa10 value="0.0023001127" flag="0"/>
      <psa30 value="0.0002326341" flag="0"/>
    </comp>
  </station>
  <station code="NEST" name="NEST" netid="HT" insttype="120P," lat="40.4147" lon="21.0489">
    <comp name="--.HHE">
      <acc value="0.1672176894" flag="0"/>
      <vel value="0.0495467537" flag="0"/>
      <psa03 value="0.1934014551" flag="0"/>
      <psa10 value="0.0321702818" flag="0"/>
      <psa30 value="0.0022203117" flag="0"/>
    </comp>
    <comp name="--.HHN">
      <acc value="0.0924508881" flag="0"/>
      <vel value="0.0330580978" flag="0"/>
      <psa03 value="0.2428936772" flag="0"/>
      <psa10 value="0.0179059616" flag="0"/>
      <psa30 value="0.0017203820" flag="0"/>
    </comp>
    <comp name="--.HHZ">
      <acc value="0.1288643549" flag="0"/>
      <vel value="0.0396559570" flag="0"/>
      <psa03 value="0.1278762141" flag="0"/>
      <psa10 value="0.0116614234" flag="0"/>
      <psa30 value="0.0009580715" flag="0"/>
    </comp>
  </station>
</stationlist>
