<stationlist created="1775820665">
	<station code="KRK1" name="KRK1" netid="HI" source="ITSAK Strong Motion Network" insttype="" lat="39.618861" lon="19.9202">
		<comp name="--.HNE" depth="0.0">
			<acc value="0.00632280847733801" flag="0"/>
			<vel value="0.00345730645045661" flag="0"/>
			<psa03 value="0.018446151654521" flag="0"/>
			<psa10 value="0.00389158803298226" flag="0"/>
			<psa30 value="0.000315155773356688" flag="0"/>
		</comp>
		<comp name="--.HNN" depth="0.0">
			<acc value="0.00666704776703023" flag="0"/>
			<vel value="0.00323372634482687" flag="0"/>
			<psa03 value="0.015070689765479" flag="0"/>
			<psa10 value="0.00375659643420235" flag="0"/>
			<psa30 value="0.000299490933554526" flag="0"/>
		</comp>
		<comp name="--.HNZ" depth="0.0">
			<acc value="0.00346690839838234" flag="0"/>
			<vel value="0.00149360546175584" flag="0"/>
			<psa03 value="0.0102685122698144" flag="0"/>
			<psa10 value="0.00164367013507895" flag="0"/>
			<psa30 value="0.000217152249854329" flag="0"/>
		</comp>
	</station>
	<station code="LMS2" name="LMS2" netid="HI" source="ITSAK Strong Motion Network" insttype="" lat="40.834985" lon="21.141815">
		<comp name="--.HNE" depth="0.0">
			<acc value="2.7815414601729" flag="0"/>
			<vel value="0.716855451260512" flag="0"/>
			<psa03 value="2.52214724654458" flag="0"/>
			<psa10 value="0.175301147840604" flag="0"/>
			<psa30 value="0.0188211651431513" flag="0"/>
		</comp>
		<comp name="--.HNN" depth="0.0">
			<acc value="4.23927450013872" flag="0"/>
			<vel value="1.01356489546129" flag="0"/>
			<psa03 value="3.0603377323553" flag="0"/>
			<psa10 value="0.145411547801323" flag="0"/>
			<psa30 value="0.0157147493583471" flag="0"/>
		</comp>
		<comp name="--.HNZ" depth="0.0">
			<acc value="1.0321241076003" flag="0"/>
			<vel value="0.158729901882807" flag="0"/>
			<psa03 value="0.550447714458025" flag="0"/>
			<psa10 value="0.0644677306706885" flag="0"/>
			<psa30 value="0.00484334918144412" flag="0"/>
		</comp>
	</station>
	<station code="PLG" name="PLG" netid="HL" source="National Observatory of Athens Seismic Network" insttype="" lat="40.37328" lon="23.44443">
		<comp name="--.HNE" depth="0.0">
			<acc value="0.000648858715734718" flag="0"/>
			<vel value="0.000480472500841806" flag="0"/>
			<psa03 value="0.00188653415331581" flag="0"/>
			<psa10 value="0.000386247784285654" flag="0"/>
			<psa30 value="5.66414019546905e-05" flag="0"/>
		</comp>
		<comp name="--.HNN" depth="0.0">
			<acc value="0.00078793216582936" flag="0"/>
			<vel value="0.000581756772995227" flag="0"/>
			<psa03 value="0.00236684038531168" flag="0"/>
			<psa10 value="0.000585062898170306" flag="0"/>
			<psa30 value="0.00017920258743799" flag="0"/>
		</comp>
		<comp name="--.HNZ" depth="0.0">
			<acc value="0.000545254662161994" flag="0"/>
			<vel value="0.000373937259280985" flag="0"/>
			<psa03 value="0.0022791962329616" flag="0"/>
			<psa10 value="0.000326468150350147" flag="0"/>
			<psa30 value="7.60298282696308e-05" flag="0"/>
		</comp>
	</station>
</stationlist>
