<?xml version="1.0" encoding="UTF-8" standalone="yes"?>
<!DOCTYPE earthquake SYSTEM "stationlist.dtd">
<stationlist created="" xmlns="ch.ethz.sed.shakemap.usgs.xml">
  <station code="SVRC" name="SVRC" netid="KO" insttype="CMG-3T" lat="38.3775" lon="39.306">
    <comp name="--.HHN">
      <acc value="0.0044043114" flag="0"/>
      <vel value="0.0014770680" flag="0"/>
      <psa03 value="0.0107498210" flag="0"/>
      <psa10 value="0.0008125242" flag="0"/>
      <psa30 value="0.0001085634" flag="0"/>
    </comp>
    <comp name="--.HHE">
      <acc value="0.0037546700" flag="0"/>
      <vel value="0.0020996624" flag="0"/>
      <psa03 value="0.0123982807" flag="0"/>
      <psa10 value="0.0015702012" flag="0"/>
      <psa30 value="0.0001440612" flag="0"/>
    </comp>
    <comp name="--.HHZ">
      <acc value="0.0031014417" flag="0"/>
      <vel value="0.0011962091" flag="0"/>
      <psa03 value="0.0055003180" flag="0"/>
      <psa10 value="0.0010637549" flag="0"/>
      <psa30 value="0.0001602130" flag="0"/>
    </comp>
  </station>
  <station code="URFA" name="URFA" netid="KO" insttype="CMG-3ESP" lat="37.4409" lon="38.8213">
    <comp name="--.HHE">
      <acc value="0.0091617451" flag="0"/>
      <vel value="0.0032161307" flag="0"/>
      <psa03 value="0.0115358583" flag="0"/>
      <psa10 value="0.0015580573" flag="0"/>
      <psa30 value="0.0003323274" flag="0"/>
    </comp>
    <comp name="--.HHN">
      <acc value="0.0065345237" flag="0"/>
      <vel value="0.0015349885" flag="0"/>
      <psa03 value="0.0080765420" flag="0"/>
      <psa10 value="0.0007721243" flag="0"/>
      <psa30 value="0.0001093380" flag="0"/>
    </comp>
    <comp name="--.HHZ">
      <acc value="0.0084430679" flag="0"/>
      <vel value="0.0012402557" flag="0"/>
      <psa03 value="0.0048745321" flag="0"/>
      <psa10 value="0.0006893560" flag="0"/>
      <psa30 value="0.0000927689" flag="0"/>
    </comp>
  </station>
</stationlist>
