<?xml version="1.0" encoding="UTF-8" standalone="yes"?>
<!DOCTYPE earthquake SYSTEM "stationlist.dtd">
<stationlist created="" xmlns="ch.ethz.sed.shakemap.usgs.xml">
  <station code="RP05B" name="RP05B" netid="5B" insttype="Compact" commtype="DIG" lat="37.6182" lon="21.6541">
    <comp name="--.HHE">
      <acc value="0.0241560829" flag="0"/>
      <vel value="0.0173113749" flag="0"/>
      <psa03 value="0.0557965852" flag="0"/>
      <psa10 value="0.0200727471" flag="0"/>
      <psa30 value="0.0025221190" flag="0"/>
    </comp>
    <comp name="--.HHZ">
      <acc value="0.0138140728" flag="0"/>
      <vel value="0.0071179086" flag="0"/>
      <psa03 value="0.0380506822" flag="0"/>
      <psa10 value="0.0142330514" flag="0"/>
      <psa30 value="0.0018701783" flag="0"/>
    </comp>
    <comp name="--.HHN">
      <acc value="0.0256772322" flag="0"/>
      <vel value="0.0157012324" flag="0"/>
      <psa03 value="0.0792877022" flag="0"/>
      <psa10 value="0.0208941778" flag="0"/>
      <psa30 value="0.0042258713" flag="0"/>
    </comp>
  </station>
  <station code="AGRP" name="AGRP" netid="CL" insttype="CMG40-T" commtype="DIG" lat="38.3959" lon="21.7228">
    <comp name="00.HHE">
      <acc value="0.0087649990" flag="0"/>
      <vel value="0.0068566156" flag="0"/>
      <psa03 value="0.0159714351" flag="0"/>
      <psa10 value="0.0086069248" flag="0"/>
      <psa30 value="0.0010906700" flag="0"/>
    </comp>
    <comp name="00.HHN">
      <acc value="0.0092259465" flag="0"/>
      <vel value="0.0068797943" flag="0"/>
      <psa03 value="0.0162808023" flag="0"/>
      <psa10 value="0.0126789286" flag="0"/>
      <psa30 value="0.0008896328" flag="0"/>
    </comp>
    <comp name="00.HHZ">
      <acc value="0.0069777046" flag="0"/>
      <vel value="0.0041233049" flag="0"/>
      <psa03 value="0.0124354764" flag="0"/>
      <psa10 value="0.0065008140" flag="0"/>
      <psa30 value="0.0007855992" flag="0"/>
    </comp>
  </station>
  <station code="MALA" name="MALA" netid="CL" insttype="TRILLIUM-40" commtype="DIG" lat="38.3934" lon="21.8726">
    <comp name="01.HHE">
      <acc value="0.0167336121" flag="0"/>
      <vel value="0.0200725635" flag="0"/>
      <psa03 value="0.0223191772" flag="0"/>
      <psa10 value="0.0437323845" flag="0"/>
      <psa30 value="0.0031889699" flag="0"/>
    </comp>
    <comp name="01.HHZ">
      <acc value="0.0050716747" flag="0"/>
      <vel value="0.0057279961" flag="0"/>
      <psa03 value="0.0084592073" flag="0"/>
      <psa10 value="0.0064478127" flag="0"/>
      <psa30 value="0.0011051182" flag="0"/>
    </comp>
    <comp name="01.HHN">
      <acc value="0.0114383504" flag="0"/>
      <vel value="0.0172211087" flag="0"/>
      <psa03 value="0.0218843588" flag="0"/>
      <psa10 value="0.0361966951" flag="0"/>
      <psa30 value="0.0035166456" flag="0"/>
    </comp>
  </station>
  <station code="MG06" name="MG06" netid="CL" insttype="TRILLIUM-40" commtype="DIG" lat="38.4129" lon="21.9462">
    <comp name="06.HHE">
      <acc value="0.0056685366" flag="0"/>
      <vel value="0.0057927360" flag="0"/>
      <psa03 value="0.0156198652" flag="0"/>
      <psa10 value="0.0085206165" flag="0"/>
      <psa30 value="0.0014319428" flag="0"/>
    </comp>
    <comp name="06.HHN">
      <acc value="0.0058643993" flag="0"/>
      <vel value="0.0074003693" flag="0"/>
      <psa03 value="0.0102460793" flag="0"/>
      <psa10 value="0.0093120650" flag="0"/>
      <psa30 value="0.0014342930" flag="0"/>
    </comp>
    <comp name="06.HHZ">
      <acc value="0.0053198887" flag="0"/>
      <vel value="0.0047722526" flag="0"/>
      <psa03 value="0.0081505673" flag="0"/>
      <psa10 value="0.0050823440" flag="0"/>
      <psa30 value="0.0012921336" flag="0"/>
    </comp>
  </station>
  <station code="ROD3" name="ROD3" netid="CL" insttype="CMG40-T" commtype="DIG" lat="38.3081" lon="21.892">
    <comp name="00.HHE">
      <acc value="0.0155327184" flag="0"/>
      <vel value="0.0059100665" flag="0"/>
      <psa03 value="0.0377996545" flag="0"/>
      <psa10 value="0.0061663779" flag="0"/>
      <psa30 value="0.0004789327" flag="0"/>
    </comp>
    <comp name="00.HHN">
      <acc value="0.0190560072" flag="0"/>
      <vel value="0.0121097428" flag="0"/>
      <psa03 value="0.0823617224" flag="0"/>
      <psa10 value="0.0127019727" flag="0"/>
      <psa30 value="0.0019234134" flag="0"/>
    </comp>
    <comp name="00.HHZ">
      <acc value="0.0150118778" flag="0"/>
      <vel value="0.0062934535" flag="0"/>
      <psa03 value="0.0163337155" flag="0"/>
      <psa10 value="0.0102202435" flag="0"/>
      <psa30 value="0.0016888739" flag="0"/>
    </comp>
  </station>
  <station code="TRIZ" name="TRIZ" netid="CL" insttype="STS-2" commtype="DIG" lat="38.3654" lon="22.0727">
    <comp name="00.HH2">
      <acc value="0.0045782962" flag="0"/>
      <vel value="0.0021462214" flag="0"/>
      <psa03 value="0.0105008173" flag="0"/>
      <psa10 value="0.0024784527" flag="0"/>
      <psa30 value="0.0002270362" flag="0"/>
    </comp>
    <comp name="00.HH3">
      <acc value="0.0093123729" flag="0"/>
      <vel value="0.0071983474" flag="0"/>
      <psa03 value="0.0378550634" flag="0"/>
      <psa10 value="0.0096860233" flag="0"/>
      <psa30 value="0.0012616775" flag="0"/>
    </comp>
    <comp name="00.HHZ">
      <acc value="0.0076567294" flag="0"/>
      <vel value="0.0041948447" flag="0"/>
      <psa03 value="0.0088443872" flag="0"/>
      <psa10 value="0.0065058115" flag="0"/>
      <psa30 value="0.0017462267" flag="0"/>
    </comp>
  </station>
  <station code="ZIRI" name="ZIRI" netid="CL" insttype="TRILLIUM-40" commtype="DIG" lat="38.3051" lon="21.9476">
    <comp name="01.HHN">
      <acc value="0.0156629512" flag="0"/>
      <vel value="0.0091371598" flag="0"/>
      <psa03 value="0.0390811726" flag="0"/>
      <psa10 value="0.0091192790" flag="0"/>
      <psa30 value="0.0017648759" flag="0"/>
    </comp>
    <comp name="01.HHE">
      <acc value="0.0137731338" flag="0"/>
      <vel value="0.0106091288" flag="0"/>
      <psa03 value="0.0352542998" flag="0"/>
      <psa10 value="0.0091414911" flag="0"/>
      <psa30 value="0.0013429068" flag="0"/>
    </comp>
    <comp name="01.HHZ">
      <acc value="0.0085789135" flag="0"/>
      <vel value="0.0043728894" flag="0"/>
      <psa03 value="0.0196960164" flag="0"/>
      <psa10 value="0.0058926079" flag="0"/>
      <psa30 value="0.0017840559" flag="0"/>
    </comp>
  </station>
  <station code="ATHR" name="ATHR" netid="HA" insttype="GEOtiny," commtype="DIG" lat="38.3172" lon="20.4165">
    <comp name="--.HHN">
      <acc value="0.6015223487" flag="0"/>
      <vel value="0.2125734496" flag="0"/>
      <psa03 value="1.1689353650" flag="0"/>
      <psa10 value="0.1444859628" flag="0"/>
      <psa30 value="0.0172799032" flag="0"/>
    </comp>
    <comp name="--.HHE">
      <acc value="0.5881825581" flag="0"/>
      <vel value="0.2258047487" flag="0"/>
      <psa03 value="0.8194639335" flag="0"/>
      <psa10 value="0.1598303353" flag="0"/>
      <psa30 value="0.0115575666" flag="0"/>
    </comp>
    <comp name="--.HHZ">
      <acc value="0.5880883740" flag="0"/>
      <vel value="0.1314605982" flag="0"/>
      <psa03 value="0.6806516430" flag="0"/>
      <psa10 value="0.0766534188" flag="0"/>
      <psa30 value="0.0088059832" flag="0"/>
    </comp>
  </station>
  <station code="HAVD" name="HAVD" netid="HA" insttype="GEOtiny," commtype="DIG" lat="38.2036" lon="20.3848">
    <comp name="--.HHN">
      <acc value="1.6859107865" flag="0"/>
      <vel value="0.7731060789" flag="0"/>
      <psa03 value="2.1563253322" flag="0"/>
      <psa10 value="0.4998819167" flag="0"/>
      <psa30 value="0.0447562161" flag="0"/>
    </comp>
    <comp name="--.HHZ">
      <acc value="1.5584153951" flag="0"/>
      <vel value="0.3884403708" flag="0"/>
      <psa03 value="1.1920432950" flag="0"/>
      <psa10 value="0.2079564667" flag="0"/>
      <psa30 value="0.0113137089" flag="0"/>
    </comp>
    <comp name="--.HHE">
      <acc value="2.5472007745" flag="0"/>
      <vel value="1.0153103651" flag="0"/>
      <psa03 value="2.4645676168" flag="0"/>
      <psa10 value="0.5465262300" flag="0"/>
      <psa30 value="0.0442587109" flag="0"/>
    </comp>
  </station>
  <station code="LAKA" name="LAKA" netid="HA" insttype="120s," commtype="DIG" lat="38.2401" lon="21.9785">
    <comp name="--.HHE">
      <acc value="0.0032215528" flag="0"/>
      <vel value="0.0039869624" flag="0"/>
      <psa03 value="0.0071665706" flag="0"/>
      <psa10 value="0.0062800045" flag="0"/>
      <psa30 value="0.0015914495" flag="0"/>
    </comp>
    <comp name="--.HHN">
      <acc value="0.0037069454" flag="0"/>
      <vel value="0.0039823884" flag="0"/>
      <psa03 value="0.0071189525" flag="0"/>
      <psa10 value="0.0069424518" flag="0"/>
      <psa30 value="0.0012119161" flag="0"/>
    </comp>
    <comp name="--.HHZ">
      <acc value="0.0027247416" flag="0"/>
      <vel value="0.0031454936" flag="0"/>
      <psa03 value="0.0053443219" flag="0"/>
      <psa10 value="0.0053200896" flag="0"/>
      <psa30 value="0.0014884003" flag="0"/>
    </comp>
  </station>
  <station code="AGR3" name="AGR3" netid="HI" insttype="unknown" commtype="DIG" lat="38.5893" lon="21.4162">
    <comp name="--.HNE">
      <acc value="0.0350735270" flag="0"/>
      <vel value="0.0324217531" flag="0"/>
      <psa03 value="0.0956241707" flag="0"/>
      <psa10 value="0.0528947783" flag="0"/>
      <psa30 value="0.0061996267" flag="0"/>
    </comp>
    <comp name="--.HNN">
      <acc value="0.0357509630" flag="0"/>
      <vel value="0.0303785863" flag="0"/>
      <psa03 value="0.1036320180" flag="0"/>
      <psa10 value="0.0413530975" flag="0"/>
      <psa30 value="0.0034312836" flag="0"/>
    </comp>
    <comp name="--.HNZ">
      <acc value="0.0255641586" flag="0"/>
      <vel value="0.0151517276" flag="0"/>
      <psa03 value="0.0375277624" flag="0"/>
      <psa10 value="0.0288803899" flag="0"/>
      <psa30 value="0.0023507916" flag="0"/>
    </comp>
  </station>
  <station code="ARG2" name="ARG2" netid="HI" insttype="CMG-5TD,ACCELEROMETER,GURALP" commtype="DIG" lat="38.1783" lon="20.4878">
    <comp name="--.HNZ">
      <acc value="0.8320901790" flag="0"/>
      <vel value="0.1406057324" flag="0"/>
      <psa03 value="0.3919838530" flag="0"/>
      <psa10 value="0.0801461479" flag="0"/>
      <psa30 value="0.0087381003" flag="0"/>
    </comp>
    <comp name="--.HNE">
      <acc value="1.1531477683" flag="0"/>
      <vel value="0.2905921894" flag="0"/>
      <psa03 value="0.8271379563" flag="0"/>
      <psa10 value="0.2137121925" flag="0"/>
      <psa30 value="0.0121455429" flag="0"/>
    </comp>
    <comp name="--.HNN">
      <acc value="1.2655048799" flag="0"/>
      <vel value="0.2767832575" flag="0"/>
      <psa03 value="0.6369303333" flag="0"/>
      <psa10 value="0.2556473965" flag="0"/>
      <psa30 value="0.0239689613" flag="0"/>
    </comp>
  </station>
  <station code="AST1" name="AST1" netid="HI" insttype="unknown" commtype="DIG" lat="38.5416" lon="21.0895">
    <comp name="--.HNN">
      <acc value="0.0489262707" flag="0"/>
      <vel value="0.0247233368" flag="0"/>
      <psa03 value="0.1326307212" flag="0"/>
      <psa10 value="0.0222702808" flag="0"/>
      <psa30 value="0.0028744029" flag="0"/>
    </comp>
    <comp name="--.HNE">
      <acc value="0.0448276938" flag="0"/>
      <vel value="0.0278451417" flag="0"/>
      <psa03 value="0.1340724447" flag="0"/>
      <psa10 value="0.0352753011" flag="0"/>
      <psa30 value="0.0026002923" flag="0"/>
    </comp>
    <comp name="--.HNZ">
      <acc value="0.0327439823" flag="0"/>
      <vel value="0.0145027259" flag="0"/>
      <psa03 value="0.0684686354" flag="0"/>
      <psa10 value="0.0214504217" flag="0"/>
      <psa30 value="0.0022137935" flag="0"/>
    </comp>
  </station>
  <station code="KRI1" name="KRI1" netid="HI" insttype="CMG-5TD,ACCELEROMETER,GURALP" commtype="DIG" lat="37.6621" lon="20.8172">
    <comp name="--.HNN">
      <acc value="0.0562937883" flag="0"/>
      <vel value="0.0210437427" flag="0"/>
      <psa03 value="0.1163922654" flag="0"/>
      <psa10 value="0.0205806417" flag="0"/>
      <psa30 value="0.0018218969" flag="0"/>
    </comp>
    <comp name="--.HNE">
      <acc value="0.0472222612" flag="0"/>
      <vel value="0.0211694484" flag="0"/>
      <psa03 value="0.1564006072" flag="0"/>
      <psa10 value="0.0209054661" flag="0"/>
      <psa30 value="0.0014238904" flag="0"/>
    </comp>
    <comp name="--.HNZ">
      <acc value="0.0272743210" flag="0"/>
      <vel value="0.0100271701" flag="0"/>
      <psa03 value="0.0587425649" flag="0"/>
      <psa10 value="0.0091874245" flag="0"/>
      <psa30 value="0.0009973451" flag="0"/>
    </comp>
  </station>
  <station code="LEF2" name="LEF2" netid="HI" insttype="unknown" commtype="DIG" lat="38.8301" lon="20.7083">
    <comp name="--.HNE">
      <acc value="0.1479691231" flag="0"/>
      <vel value="0.0634948118" flag="0"/>
      <psa03 value="0.5942471579" flag="0"/>
      <psa10 value="0.0890720326" flag="0"/>
      <psa30 value="0.0050777505" flag="0"/>
    </comp>
    <comp name="--.HNZ">
      <acc value="0.0829482422" flag="0"/>
      <vel value="0.0442532805" flag="0"/>
      <psa03 value="0.2358366932" flag="0"/>
      <psa10 value="0.0425937286" flag="0"/>
      <psa30 value="0.0040587016" flag="0"/>
    </comp>
    <comp name="--.HNN">
      <acc value="0.1105538547" flag="0"/>
      <vel value="0.0594887292" flag="0"/>
      <psa03 value="0.3593318491" flag="0"/>
      <psa10 value="0.0730664254" flag="0"/>
      <psa30 value="0.0045792893" flag="0"/>
    </comp>
  </station>
  <station code="LXR2" name="LXR2" netid="HI" insttype="unknown" commtype="DIG" lat="38.2067" lon="20.4364">
    <comp name="--.HNE">
      <acc value="2.2465421415" flag="0"/>
      <vel value="0.7374440248" flag="0"/>
      <psa03 value="2.0537588756" flag="0"/>
      <psa10 value="0.4619793789" flag="0"/>
      <psa30 value="0.0479152840" flag="0"/>
    </comp>
    <comp name="--.HNN">
      <acc value="3.2289306175" flag="0"/>
      <vel value="0.8459183341" flag="0"/>
      <psa03 value="1.8523123535" flag="0"/>
      <psa10 value="0.7149523729" flag="0"/>
      <psa30 value="0.0678428584" flag="0"/>
    </comp>
    <comp name="--.HNZ">
      <acc value="2.7843541839" flag="0"/>
      <vel value="0.2868149573" flag="0"/>
      <psa03 value="0.9173583683" flag="0"/>
      <psa10 value="0.4148916812" flag="0"/>
      <psa30 value="0.0247800561" flag="0"/>
    </comp>
  </station>
  <station code="MSL1" name="MSL1" netid="HI" insttype="CMG-5TD,ACCELEROMETER,GURALP" commtype="DIG" lat="38.3727" lon="21.4243">
    <comp name="--.HNE">
      <acc value="0.0397101857" flag="0"/>
      <vel value="0.0363381060" flag="0"/>
      <psa03 value="0.1400035159" flag="0"/>
      <psa10 value="0.0956612955" flag="0"/>
      <psa30 value="0.0059763509" flag="0"/>
    </comp>
    <comp name="--.HNZ">
      <acc value="0.0310728793" flag="0"/>
      <vel value="0.0268061144" flag="0"/>
      <psa03 value="0.0543632713" flag="0"/>
      <psa10 value="0.0332216575" flag="0"/>
      <psa30 value="0.0023681960" flag="0"/>
    </comp>
    <comp name="--.HNN">
      <acc value="0.0835681816" flag="0"/>
      <vel value="0.0643819575" flag="0"/>
      <psa03 value="0.1118998340" flag="0"/>
      <psa10 value="0.1355873123" flag="0"/>
      <psa30 value="0.0049949717" flag="0"/>
    </comp>
  </station>
  <station code="PRE2" name="PRE2" netid="HI" insttype="unknown" commtype="DIG" lat="38.9577" lon="20.7548">
    <comp name="--.HNZ">
      <acc value="0.0813952196" flag="0"/>
      <vel value="0.0342564500" flag="0"/>
      <psa03 value="0.1294607696" flag="0"/>
      <psa10 value="0.0366737594" flag="0"/>
      <psa30 value="0.0018552859" flag="0"/>
    </comp>
    <comp name="--.HNN">
      <acc value="0.1328000035" flag="0"/>
      <vel value="0.0587853112" flag="0"/>
      <psa03 value="0.2265027475" flag="0"/>
      <psa10 value="0.0580011212" flag="0"/>
      <psa30 value="0.0069209088" flag="0"/>
    </comp>
    <comp name="--.HNE">
      <acc value="0.1259802782" flag="0"/>
      <vel value="0.0520274468" flag="0"/>
      <psa03 value="0.3004722277" flag="0"/>
      <psa10 value="0.0648551435" flag="0"/>
      <psa30 value="0.0030214173" flag="0"/>
    </comp>
  </station>
  <station code="PYR2" name="PYR2" netid="HI" insttype="unknown" commtype="DIG" lat="37.6671" lon="21.4506">
    <comp name="--.HNE">
      <acc value="0.0158536026" flag="0"/>
      <vel value="0.0129520848" flag="0"/>
      <psa03 value="0.0447186648" flag="0"/>
      <psa10 value="0.0176869130" flag="0"/>
      <psa30 value="0.0022150505" flag="0"/>
    </comp>
    <comp name="--.HNZ">
      <acc value="0.0081541867" flag="0"/>
      <vel value="0.0055407873" flag="0"/>
      <psa03 value="0.0144018788" flag="0"/>
      <psa10 value="0.0096758446" flag="0"/>
      <psa30 value="0.0013276394" flag="0"/>
    </comp>
    <comp name="--.HNN">
      <acc value="0.0145656279" flag="0"/>
      <vel value="0.0107099775" flag="0"/>
      <psa03 value="0.0454376802" flag="0"/>
      <psa10 value="0.0240337456" flag="0"/>
      <psa30 value="0.0024080565" flag="0"/>
    </comp>
  </station>
  <station code="VSK1" name="VSK1" netid="HI" insttype="unknown" commtype="DIG" lat="38.4091" lon="20.564">
    <comp name="--.HNN">
      <acc value="0.4022114349" flag="0"/>
      <vel value="0.1134634604" flag="0"/>
      <psa03 value="0.6359299196" flag="0"/>
      <psa10 value="0.1128651283" flag="0"/>
      <psa30 value="0.0108924424" flag="0"/>
    </comp>
    <comp name="--.HNE">
      <acc value="0.3620973353" flag="0"/>
      <vel value="0.1375280543" flag="0"/>
      <psa03 value="0.5044458970" flag="0"/>
      <psa10 value="0.1073118816" flag="0"/>
      <psa30 value="0.0084223954" flag="0"/>
    </comp>
    <comp name="--.HNZ">
      <acc value="0.2250679741" flag="0"/>
      <vel value="0.0599055111" flag="0"/>
      <psa03 value="0.2489865586" flag="0"/>
      <psa10 value="0.0757769120" flag="0"/>
      <psa30 value="0.0058559856" flag="0"/>
    </comp>
  </station>
  <station code="EVR" name="EVR" netid="HL" insttype="DR24" commtype="DIG" lat="38.9166" lon="21.8105">
    <comp name="--.HHN">
      <acc value="0.0046902770" flag="0"/>
      <vel value="0.0053840492" flag="0"/>
      <psa03 value="0.0104784347" flag="0"/>
      <psa10 value="0.0091007482" flag="0"/>
      <psa30 value="0.0009681432" flag="0"/>
    </comp>
    <comp name="--.HHZ">
      <acc value="0.0043401613" flag="0"/>
      <vel value="0.0046728401" flag="0"/>
      <psa03 value="0.0072660256" flag="0"/>
      <psa10 value="0.0129775036" flag="0"/>
      <psa30 value="0.0008994663" flag="0"/>
    </comp>
    <comp name="--.HHE">
      <acc value="0.0044425372" flag="0"/>
      <vel value="0.0047934464" flag="0"/>
      <psa03 value="0.0087608270" flag="0"/>
      <psa10 value="0.0082121921" flag="0"/>
      <psa30 value="0.0014678056" flag="0"/>
    </comp>
  </station>
  <station code="LXRA" name="LXRA" netid="HL" insttype="CMG-5" commtype="DIG" lat="38.2001" lon="20.4372">
    <comp name="00.HNE">
      <acc value="3.8469989222" flag="0"/>
      <vel value="0.8370017977" flag="0"/>
      <psa03 value="2.2349654014" flag="0"/>
      <psa10 value="0.4197143801" flag="0"/>
      <psa30 value="0.0523446383" flag="0"/>
    </comp>
    <comp name="00.HNN">
      <acc value="2.8436648093" flag="0"/>
      <vel value="0.8855949759" flag="0"/>
      <psa03 value="1.9248878425" flag="0"/>
      <psa10 value="0.6030150050" flag="0"/>
      <psa30 value="0.0594630826" flag="0"/>
    </comp>
    <comp name="00.HNZ">
      <acc value="2.7345968148" flag="0"/>
      <vel value="0.2952011455" flag="0"/>
      <psa03 value="0.7869098917" flag="0"/>
      <psa10 value="0.3363291922" flag="0"/>
      <psa30 value="0.0220197193" flag="0"/>
    </comp>
  </station>
