<?xml version="1.0" encoding="UTF-8" standalone="yes"?>
<!DOCTYPE earthquake SYSTEM "stationlist.dtd">
<stationlist created="" xmlns="ch.ethz.sed.shakemap.usgs.xml">
  <station code="CMRD" name="CMRD" netid="KO" insttype="CMG-5T" lat="37.6623" lon="34.9902">
    <comp name="--.HNE">
      <acc value="0.0184257774" flag="0"/>
      <vel value="0.0141105549" flag="0"/>
      <psa03 value="0.0528464058" flag="0"/>
      <psa10 value="0.0126645853" flag="0"/>
      <psa30 value="0.0030509806" flag="0"/>
    </comp>
    <comp name="--.HNZ">
      <acc value="0.0104125519" flag="0"/>
      <vel value="0.0114904311" flag="0"/>
      <psa03 value="0.0298592625" flag="0"/>
      <psa10 value="0.0149288981" flag="0"/>
      <psa30 value="0.0041964530" flag="0"/>
    </comp>
    <comp name="--.HNN">
      <acc value="0.0218755892" flag="0"/>
      <vel value="0.0193587675" flag="0"/>
      <psa03 value="0.0727305337" flag="0"/>
      <psa10 value="0.0195673997" flag="0"/>
      <psa30 value="0.0039582192" flag="0"/>
    </comp>
  </station>
  <station code="KRTS" name="KRTS" netid="KO" insttype="CMG-5T" lat="36.573" lon="35.375">
    <comp name="--.HNN">
      <acc value="0.1523019924" flag="0"/>
      <vel value="0.1025829860" flag="0"/>
      <psa03 value="0.3478550062" flag="0"/>
      <psa10 value="0.0674766247" flag="0"/>
      <psa30 value="0.0164520342" flag="0"/>
    </comp>
    <comp name="--.HNE">
      <acc value="0.1095607465" flag="0"/>
      <vel value="0.1231778062" flag="0"/>
      <psa03 value="0.2598874649" flag="0"/>
      <psa10 value="0.1690223759" flag="0"/>
      <psa30 value="0.0146864271" flag="0"/>
    </comp>
    <comp name="--.HNZ">
      <acc value="0.0584967333" flag="0"/>
      <vel value="0.0568265586" flag="0"/>
      <psa03 value="0.1424205008" flag="0"/>
      <psa10 value="0.0487453958" flag="0"/>
      <psa30 value="0.0098672024" flag="0"/>
    </comp>
  </station>
</stationlist>
