<?xml version="1.0" encoding="UTF-8" standalone="yes"?>
<!DOCTYPE earthquake SYSTEM "stationlist.dtd">
<stationlist created="" xmlns="ch.ethz.sed.shakemap.usgs.xml">
  <station code="KRTS" name="KRTS" netid="KO" insttype="CMG-5T" lat="36.573" lon="35.375">
    <comp name="--.HNE">
      <acc value="0.1095607499" flag="0"/>
      <vel value="0.1231779442" flag="0"/>
      <psa03 value="0.2598874649" flag="0"/>
      <psa10 value="0.1690223767" flag="0"/>
      <psa30 value="0.0146981613" flag="0"/>
    </comp>
    <comp name="--.HNN">
      <acc value="0.1523020093" flag="0"/>
      <vel value="0.1025830181" flag="0"/>
      <psa03 value="0.3478550062" flag="0"/>
      <psa10 value="0.0674766271" flag="0"/>
      <psa30 value="0.0164450120" flag="0"/>
    </comp>
    <comp name="--.HNZ">
      <acc value="0.0584967608" flag="0"/>
      <vel value="0.0568265641" flag="0"/>
      <psa03 value="0.1424205008" flag="0"/>
      <psa10 value="0.0487453960" flag="0"/>
      <psa30 value="0.0098671892" flag="0"/>
    </comp>
  </station>
</stationlist>
