<stationlist created="1675692196">
	<station code="ARPRA" name="ARPRA" netid="KO" source="Bogazici University Kandilli Observatory And Earthquake Research Institute (KOERI)" insttype="" lat="39.0929" lon="38.3356">
		<comp name=".HNE" depth="0.0">
			<acc value="0.044434533021" flag="0"/>
			<vel value="0.0405150112853" flag="0"/>
			<psa03 value="0.115264833646" flag="0"/>
			<psa10 value="0.0699100987008" flag="0"/>
			<psa30 value="0.0190603226528" flag="0"/>
		</comp>
		<comp name=".HNN" depth="0.0">
			<acc value="0.0505062347545" flag="0"/>
			<vel value="0.0763782938539" flag="0"/>
			<psa03 value="0.111586089947" flag="0"/>
			<psa10 value="0.140013215189" flag="0"/>
			<psa30 value="0.0114613025884" flag="0"/>
		</comp>
		<comp name=".HNZ" depth="0.0">
			<acc value="0.0229244201393" flag="0"/>
			<vel value="0.0251749172872" flag="0"/>
			<psa03 value="0.0535806744566" flag="0"/>
			<psa10 value="0.056162441736" flag="0"/>
			<psa30 value="0.00809966656316" flag="0"/>
		</comp>
	</station>
	<station code="CMRD" name="CMRD" netid="KO" source="Bogazici University Kandilli Observatory And Earthquake Research Institute (KOERI)" insttype="" lat="37.6623" lon="34.9902">
		<comp name=".HNE" depth="0.0">
			<acc value="0.0184468967156" flag="0"/>
			<vel value="0.0133786368683" flag="0"/>
			<psa03 value="0.0535087894866" flag="0"/>
			<psa10 value="0.0127338166779" flag="0"/>
			<psa30 value="0.00244187051194" flag="0"/>
		</comp>
		<comp name=".HNN" depth="0.0">
			<acc value="0.0217713503639" flag="0"/>
			<vel value="0.018483929062" flag="0"/>
			<psa03 value="0.0718033139087" flag="0"/>
			<psa10 value="0.0196845477547" flag="0"/>
			<psa30 value="0.00325665907101" flag="0"/>
		</comp>
		<comp name=".HNZ" depth="0.0">
			<acc value="0.0103205870004" flag="0"/>
			<vel value="0.0107869288537" flag="0"/>
			<psa03 value="0.0298337315466" flag="0"/>
			<psa10 value="0.0148889672585" flag="0"/>
			<psa30 value="0.00336274193182" flag="0"/>
		</comp>
	</station>
	<station code="KOZK" name="KOZK" netid="KO" source="Bogazici University Kandilli Observatory And Earthquake Research Institute (KOERI)" insttype="" lat="39.2101" lon="34.868">
		<comp name=".HNE" depth="0.0">
			<acc value="0.0140401078759" flag="0"/>
			<vel value="0.0232992211035" flag="0"/>
			<psa03 value="0.0250182927558" flag="0"/>
			<psa10 value="0.0438203141307" flag="0"/>
			<psa30 value="0.00420111872017" flag="0"/>
		</comp>
		<comp name=".HNN" depth="0.0">
			<acc value="0.0194914242849" flag="0"/>
			<vel value="0.0359424719624" flag="0"/>
			<psa03 value="0.0277699594152" flag="0"/>
			<psa10 value="0.0471447668596" flag="0"/>
			<psa30 value="0.00829682129034" flag="0"/>
		</comp>
		<comp name=".HNZ" depth="0.0">
			<acc value="0.00977596634154" flag="0"/>
			<vel value="0.0119253408558" flag="0"/>
			<psa03 value="0.0235631182326" flag="0"/>
			<psa10 value="0.0159273201068" flag="0"/>
			<psa30 value="0.00465770980041" flag="0"/>
		</comp>
	</station>
	<station code="KRMN" name="KRMN" netid="KO" source="Bogazici University Kandilli Observatory And Earthquake Research Institute (KOERI)" insttype="" lat="37.174" lon="33.2636">
		<comp name=".HNE" depth="0.0">
			<acc value="0.0131229580405" flag="0"/>
			<vel value="0.0133960346909" flag="0"/>
			<psa03 value="0.0274414350479" flag="0"/>
			<psa10 value="0.0197380037959" flag="0"/>
			<psa30 value="0.00274381426423" flag="0"/>
		</comp>
		<comp name=".HNN" depth="0.0">
			<acc value="0.0128073108456" flag="0"/>
			<vel value="0.0151316544903" flag="0"/>
			<psa03 value="0.0214237382279" flag="0"/>
			<psa10 value="0.0241371652187" flag="0"/>
			<psa30 value="0.00883508861458" flag="0"/>
		</comp>
		<comp name=".HNZ" depth="0.0">
			<acc value="0.0111606297933" flag="0"/>
			<vel value="0.00993458608109" flag="0"/>
			<psa03 value="0.0214019399089" flag="0"/>
			<psa10 value="0.0140505017143" flag="0"/>
			<psa30 value="0.00179778221925" flag="0"/>
		</comp>
	</station>
	<station code="KRTS" name="KRTS" netid="KO" source="Bogazici University Kandilli Observatory And Earthquake Research Institute (KOERI)" insttype="" lat="36.573" lon="35.375">
		<comp name=".HNE" depth="0.0">
			<acc value="0.10941807894" flag="0"/>
			<vel value="0.122751507744" flag="0"/>
			<psa03 value="0.258209980144" flag="0"/>
			<psa10 value="0.16929979028" flag="0"/>
			<psa30 value="0.0135927187843" flag="0"/>
		</comp>
		<comp name=".HNN" depth="0.0">
			<acc value="0.152089690747" flag="0"/>
			<vel value="0.100337250273" flag="0"/>
			<psa03 value="0.348517045877" flag="0"/>
			<psa10 value="0.0678830819209" flag="0"/>
			<psa30 value="0.0151618510649" flag="0"/>
		</comp>
		<comp name=".HNZ" depth="0.0">
			<acc value="0.058398978556" flag="0"/>
			<vel value="0.0563827832046" flag="0"/>
			<psa03 value="0.141553627233" flag="0"/>
			<psa10 value="0.0486494752892" flag="0"/>
			<psa30 value="0.00882235777122" flag="0"/>
		</comp>
	</station>
	<station code="SLFK" name="SLFK" netid="KO" source="Bogazici University Kandilli Observatory And Earthquake Research Institute (KOERI)" insttype="" lat="36.3925" lon="33.9464">
		<comp name=".HNE" depth="0.0">
			<acc value="0.0312631523277" flag="0"/>
			<vel value="0.0169247726945" flag="0"/>
			<psa03 value="0.0881935507234" flag="0"/>
			<psa10 value="0.0129742497929" flag="0"/>
			<psa30 value="0.00122126246515" flag="0"/>
		</comp>
		<comp name=".HNN" depth="0.0">
			<acc value="0.0373772666583" flag="0"/>
			<vel value="0.0176289329405" flag="0"/>
			<psa03 value="0.0891681986224" flag="0"/>
			<psa10 value="0.0188941622705" flag="0"/>
			<psa30 value="0.00137712497777" flag="0"/>
		</comp>
		<comp name=".HNZ" depth="0.0">
			<acc value="0.0125720233707" flag="0"/>
			<vel value="0.011441294494" flag="0"/>
			<psa03 value="0.0413893616337" flag="0"/>
			<psa10 value="0.0111166476734" flag="0"/>
			<psa30 value="0.00131792626448" flag="0"/>
		</comp>
	</station>
	<station code="TUNC" name="TUNC" netid="KO" source="Bogazici University Kandilli Observatory And Earthquake Research Institute (KOERI)" insttype="" lat="39.6942" lon="37.5388">
		<comp name=".HNE" depth="0.0">
			<acc value="0.0363998746158" flag="0"/>
			<vel value="0.0362397570108" flag="0"/>
			<psa03 value="0.0775257190319" flag="0"/>
			<psa10 value="0.0505956179616" flag="0"/>
			<psa30 value="0.0104232096532" flag="0"/>
		</comp>
		<comp name=".HNN" depth="0.0">
			<acc value="0.0251004402212" flag="0"/>
			<vel value="0.0336222721835" flag="0"/>
			<psa03 value="0.0703313518154" flag="0"/>
			<psa10 value="0.040289702745" flag="0"/>
			<psa30 value="0.00949636158734" flag="0"/>
		</comp>
		<comp name=".HNZ" depth="0.0">
			<acc value="0.0200382630961" flag="0"/>
			<vel value="0.0223879727008" flag="0"/>
			<psa03 value="0.0290351317683" flag="0"/>
			<psa10 value="0.0228546965115" flag="0"/>
			<psa30 value="0.00567174572532" flag="0"/>
		</comp>
	</station>
</stationlist>
