<?xml version="1.0" encoding="UTF-8" standalone="yes"?>
<!DOCTYPE earthquake SYSTEM "stationlist.dtd">
<stationlist created="" xmlns="ch.ethz.sed.shakemap.usgs.xml">
  <station code="VLS" name="VLS" netid="HL" insttype="120P," lat="38.1768" lon="20.5886">
    <comp name="--.HHE">
      <acc value="0.0171573786" flag="0"/>
      <vel value="0.0052905830" flag="0"/>
      <psa03 value="0.0130656104" flag="0"/>
      <psa10 value="0.0047877040" flag="0"/>
      <psa30 value="0.0005891278" flag="0"/>
    </comp>
    <comp name="--.HHZ">
      <acc value="0.0062631232" flag="0"/>
      <vel value="0.0031179269" flag="0"/>
      <psa03 value="0.0131642825" flag="0"/>
      <psa10 value="0.0039279662" flag="0"/>
      <psa30 value="0.0002691155" flag="0"/>
    </comp>
    <comp name="--.HHN">
      <acc value="0.0085251199" flag="0"/>
      <vel value="0.0036542553" flag="0"/>
      <psa03 value="0.0159033782" flag="0"/>
      <psa10 value="0.0068395834" flag="0"/>
      <psa30 value="0.0002638729" flag="0"/>
    </comp>
  </station>
  <station code="AMT" name="AMT" netid="HP" insttype="CMG-3T," lat="37.5324" lon="21.7089">
    <comp name="00.HHE">
      <acc value="0.0071837997" flag="0"/>
      <vel value="0.0046979997" flag="0"/>
      <psa03 value="0.0212938182" flag="0"/>
      <psa10 value="0.0084358803" flag="0"/>
      <psa30 value="0.0005080388" flag="0"/>
    </comp>
    <comp name="00.HHN">
      <acc value="0.0086029082" flag="0"/>
      <vel value="0.0051075043" flag="0"/>
      <psa03 value="0.0262498742" flag="0"/>
      <psa10 value="0.0087513750" flag="0"/>
      <psa30 value="0.0007402354" flag="0"/>
    </comp>
    <comp name="00.HHZ">
      <acc value="0.0060041715" flag="0"/>
      <vel value="0.0028265807" flag="0"/>
      <psa03 value="0.0152258787" flag="0"/>
      <psa10 value="0.0037443822" flag="0"/>
      <psa30 value="0.0002871832" flag="0"/>
    </comp>
  </station>
  <station code="LTHK" name="LTHK" netid="HP" insttype="40," lat="37.7095" lon="20.8367">
    <comp name="--.HHE">
      <acc value="0.0707457801" flag="0"/>
      <vel value="0.0160776110" flag="0"/>
      <psa03 value="0.0538337368" flag="0"/>
      <psa10 value="0.0113058505" flag="0"/>
      <psa30 value="0.0013183772" flag="0"/>
    </comp>
    <comp name="--.HHN">
      <acc value="0.0655681661" flag="0"/>
      <vel value="0.0161823129" flag="0"/>
      <psa03 value="0.0769677107" flag="0"/>
      <psa10 value="0.0187016082" flag="0"/>
      <psa30 value="0.0010570213" flag="0"/>
    </comp>
    <comp name="--.HHZ">
      <acc value="0.0301122791" flag="0"/>
      <vel value="0.0082252554" flag="0"/>
      <psa03 value="0.0401783045" flag="0"/>
      <psa10 value="0.0057041481" flag="0"/>
      <psa30 value="0.0008359894" flag="0"/>
    </comp>
  </station>
  <station code="DMLN" name="DMLN" netid="HT" insttype="1s-100Hz," lat="38.2385" lon="20.3734">
    <comp name="--.HHE">
      <acc value="0.0170495361" flag="0"/>
      <vel value="0.0118950977" flag="0"/>
      <psa03 value="0.0402904690" flag="0"/>
      <psa10 value="0.0135735287" flag="0"/>
      <psa30 value="0.0009764780" flag="0"/>
    </comp>
    <comp name="--.HHZ">
      <acc value="0.0104338928" flag="0"/>
      <vel value="0.0047367539" flag="0"/>
      <psa03 value="0.0201208224" flag="0"/>
      <psa10 value="0.0041141982" flag="0"/>
      <psa30 value="0.0004521862" flag="0"/>
    </comp>
    <comp name="--.HHN">
      <acc value="0.0158027530" flag="0"/>
      <vel value="0.0080313830" flag="0"/>
      <psa03 value="0.0361660160" flag="0"/>
      <psa10 value="0.0139545010" flag="0"/>
      <psa30 value="0.0008333492" flag="0"/>
    </comp>
  </station>
  <station code="PSDA" name="PSDA" netid="HT" insttype="30" lat="38.114" lon="20.5841">
    <comp name="--.HHE">
      <acc value="0.0233017937" flag="0"/>
      <vel value="0.0083918571" flag="0"/>
      <psa03 value="0.0365789886" flag="0"/>
      <psa10 value="0.0095885417" flag="0"/>
      <psa30 value="0.0010418287" flag="0"/>
    </comp>
    <comp name="--.HHN">
      <acc value="0.0157865368" flag="0"/>
      <vel value="0.0056367940" flag="0"/>
      <psa03 value="0.0337365232" flag="0"/>
      <psa10 value="0.0066746747" flag="0"/>
      <psa30 value="0.0006005618" flag="0"/>
    </comp>
    <comp name="--.HHZ">
      <acc value="0.0133071841" flag="0"/>
      <vel value="0.0043956113" flag="0"/>
      <psa03 value="0.0165671886" flag="0"/>
      <psa10 value="0.0035572433" flag="0"/>
      <psa30 value="0.0003696356" flag="0"/>
    </comp>
  </station>
  <station code="RTZL" name="RTZL" netid="HT" insttype="Compact," lat="38.076" lon="20.7715">
    <comp name="--.HHN">
      <acc value="0.0143647032" flag="0"/>
      <vel value="0.0039527797" flag="0"/>
      <psa03 value="0.0147693755" flag="0"/>
      <psa10 value="0.0061544281" flag="0"/>
      <psa30 value="0.0003926927" flag="0"/>
    </comp>
    <comp name="--.HHE">
      <acc value="0.0145293195" flag="0"/>
      <vel value="0.0049646486" flag="0"/>
      <psa03 value="0.0160627216" flag="0"/>
      <psa10 value="0.0051062895" flag="0"/>
      <psa30 value="0.0006532500" flag="0"/>
    </comp>
    <comp name="--.HHZ">
      <acc value="0.0082914731" flag="0"/>
      <vel value="0.0023074797" flag="0"/>
      <psa03 value="0.0083887532" flag="0"/>
      <psa10 value="0.0027575640" flag="0"/>
      <psa30 value="0.0002496037" flag="0"/>
    </comp>
  </station>
</stationlist>
