<stationlist xmlns:esm="https://esm-db.eu/esmws/shakemap/1/" created="1784080432">
	<station code="ROD3" name="ROD3" netid="CL" source="Corinth Riff Laboratory (CRLNET)" insttype="" lat="38.30811" lon="21.89204" esm:processing="automatic (Paolucci et al 2011)" esm:quality="best">
		<comp name="00.HNE" depth="0.0">
			<acc value="0.00532656605347105" flag="0"/>
			<vel value="0.00231050870741566" flag="0"/>
			<psa03 value="0.018482210032787" flag="0"/>
			<psa10 value="0.00259840697546045" flag="0"/>
			<psa30 value="0.000548487636698363" flag="0"/>
		</comp>
		<comp name="00.HNN" depth="0.0">
			<acc value="0.00451770526284489" flag="0"/>
			<vel value="0.00322592471905659" flag="0"/>
			<psa03 value="0.0147695773703433" flag="0"/>
			<psa10 value="0.00458959622571174" flag="0"/>
			<psa30 value="0.000557167690875495" flag="0"/>
		</comp>
		<comp name="00.HNZ" depth="0.0">
			<acc value="0.00262549430230178" flag="0"/>
			<vel value="0.00101763300250891" flag="0"/>
			<psa03 value="0.00665204157655834" flag="0"/>
			<psa10 value="0.00173189109647183" flag="0"/>
			<psa30 value="0.000247668984979809" flag="0"/>
		</comp>
	</station>
	<station code="ARG2" name="ARG2" netid="HI" source="ITSAK Strong Motion Network" insttype="" lat="38.1783" lon="20.4878" esm:processing="manual (Paolucci et al 2011)" esm:quality="best">
		<comp name="--.HNE" depth="0.0">
			<acc value="0.0175833798372453" flag="0"/>
			<vel value="0.00782514264869896" flag="0"/>
			<psa03 value="0.0453144133157312" flag="0"/>
			<psa10 value="0.00711270711945516" flag="0"/>
			<psa30 value="0.000598268642778902" flag="0"/>
		</comp>
		<comp name="--.HNN" depth="0.0">
			<acc value="0.0124598657150818" flag="0"/>
			<vel value="0.00792551555568033" flag="0"/>
			<psa03 value="0.0250726713580905" flag="0"/>
			<psa10 value="0.00747997551165711" flag="0"/>
			<psa30 value="0.000646148793768106" flag="0"/>
		</comp>
		<comp name="--.HNZ" depth="0.0">
			<acc value="0.0102019673549182" flag="0"/>
			<vel value="0.00458508198917293" flag="0"/>
			<psa03 value="0.0301146095284338" flag="0"/>
			<psa10 value="0.00357303114890306" flag="0"/>
			<psa30 value="0.000445759164773748" flag="0"/>
		</comp>
	</station>
	<station code="PYL1" name="PYL1" netid="HI" source="ITSAK Strong Motion Network" insttype="" lat="36.914188" lon="21.695161" esm:processing="manual (Paolucci et al 2011)" esm:quality="best">
		<comp name="--.HNE" depth="0.0">
			<acc value="0.00405791791159161" flag="0"/>
			<vel value="0.00216603209764034" flag="0"/>
			<psa03 value="0.0154431363132244" flag="0"/>
			<psa10 value="0.0020279930164614" flag="0"/>
			<psa30 value="0.00032632234642044" flag="0"/>
		</comp>
		<comp name="--.HNN" depth="0.0">
			<acc value="0.0033343298512426" flag="0"/>
			<vel value="0.00248578774771309" flag="0"/>
			<psa03 value="0.0112941583388211" flag="0"/>
			<psa10 value="0.00235116247172534" flag="0"/>
			<psa30 value="0.000367293602231827" flag="0"/>
		</comp>
		<comp name="--.HNZ" depth="0.0">
			<acc value="0.00252983369044053" flag="0"/>
			<vel value="0.00091157739358381" flag="0"/>
			<psa03 value="0.00492846515851011" flag="0"/>
			<psa10 value="0.00122833070681977" flag="0"/>
			<psa30 value="0.000199673930542776" flag="0"/>
		</comp>
	</station>
	<station code="VAS2" name="VAS2" netid="HI" source="ITSAK Strong Motion Network" insttype="" lat="38.630558" lon="20.608081" esm:processing="manual (Paolucci et al 2011)" esm:quality="best">
		<comp name="--.HNE" depth="0.0">
			<acc value="0.0100438343273756" flag="0"/>
			<vel value="0.0128613153330649" flag="0"/>
			<psa03 value="0.0252262414271834" flag="0"/>
			<psa10 value="0.0211022410448969" flag="0"/>
			<psa30 value="0.00107510632468216" flag="0"/>
		</comp>
		<comp name="--.HNN" depth="0.0">
			<acc value="0.0133493481908333" flag="0"/>
			<vel value="0.0156387451373844" flag="0"/>
			<psa03 value="0.0289369768285251" flag="0"/>
			<psa10 value="0.0386362594625622" flag="0"/>
			<psa30 value="0.00133160008696855" flag="0"/>
		</comp>
		<comp name="--.HNZ" depth="0.0">
			<acc value="0.00653170694567163" flag="0"/>
			<vel value="0.00646671016153029" flag="0"/>
			<psa03 value="0.0140297796644545" flag="0"/>
			<psa10 value="0.00807349264175183" flag="0"/>
			<psa30 value="0.000443269833200971" flag="0"/>
		</comp>
	</station>
	<station code="ANX" name="ANX" netid="HP" source="University of Patras, Seismological Laboratory (PSLNET)" insttype="" lat="38.5933" lon="21.9209" esm:processing="manual (Paolucci et al 2011)" esm:quality="best">
		<comp name="--.HNE" depth="0.0">
			<acc value="0.00285317056105966" flag="0"/>
			<vel value="0.00204842148362872" flag="0"/>
			<psa03 value="0.00642670633671425" flag="0"/>
			<psa10 value="0.0028876268379806" flag="0"/>
			<psa30 value="0.000329258738858698" flag="0"/>
		</comp>
		<comp name="--.HNN" depth="0.0">
			<acc value="0.00303271103013993" flag="0"/>
			<vel value="0.00255668498055875" flag="0"/>
			<psa03 value="0.00564309453045662" flag="0"/>
			<psa10 value="0.0044326000442586" flag="0"/>
			<psa30 value="0.00032647615869337" flag="0"/>
		</comp>
		<comp name="--.HNZ" depth="0.0">
			<acc value="0.0012215383092016" flag="0"/>
			<vel value="0.00115150301577018" flag="0"/>
			<psa03 value="0.00335983422617596" flag="0"/>
			<psa10 value="0.00199743200756633" flag="0"/>
			<psa30 value="0.000196169167119744" flag="0"/>
		</comp>
	</station>
	<station code="FSK" name="FSK" netid="HP" source="University of Patras, Seismological Laboratory (PSLNET)" insttype="" lat="38.4593" lon="20.5623" esm:processing="manual (Paolucci et al 2011)" esm:quality="good">
		<comp name="--.HNE" depth="0.0">
			<acc value="0.00673049304412542" flag="0"/>
			<vel value="0.00389729653334417" flag="0"/>
			<psa03 value="0.00845771783437976" flag="0"/>
			<psa10 value="0.00663218263079201" flag="0"/>
			<psa30 value="0.000529283760366619" flag="0"/>
		</comp>
		<comp name="--.HNN" depth="0.0">
			<acc value="0.00331266782312127" flag="0"/>
			<vel value="0.00281960899430311" flag="0"/>
			<psa03 value="0.0066332284813482" flag="0"/>
			<psa10 value="0.0048067093584226" flag="0"/>
			<psa30 value="0.000582823505028925" flag="0"/>
		</comp>
		<comp name="--.HNZ" depth="0.0">
			<acc value="0.00349352018356033" flag="0"/>
			<vel value="0.0016070464743426" flag="0"/>
			<psa03 value="0.00473937255392937" flag="0"/>
			<psa10 value="0.00346722937443132" flag="0"/>
			<psa30 value="0.000253301727912896" flag="0"/>
		</comp>
	</station>
	<station code="LTHK" name="LTHK" netid="HP" source="University of Patras, Seismological Laboratory (PSLNET)" insttype="" lat="37.7095" lon="20.8367" esm:processing="manual (Paolucci et al 2011)" esm:quality="best">
		<comp name="--.HNE" depth="0.0">
			<acc value="0.070816376957369" flag="0"/>
			<vel value="0.0160091993460006" flag="0"/>
			<psa03 value="0.0546152273658436" flag="0"/>
			<psa10 value="0.0113372710385741" flag="0"/>
			<psa30 value="0.00147386503215727" flag="0"/>
		</comp>
		<comp name="--.HNN" depth="0.0">
			<acc value="0.062446690066527" flag="0"/>
			<vel value="0.0161092672059957" flag="0"/>
			<psa03 value="0.0773471030326176" flag="0"/>
			<psa10 value="0.0189405040904439" flag="0"/>
			<psa30 value="0.00117675264158566" flag="0"/>
		</comp>
		<comp name="--.HNZ" depth="0.0">
			<acc value="0.0292597196372063" flag="0"/>
			<vel value="0.00825736842536932" flag="0"/>
			<psa03 value="0.041624171459588" flag="0"/>
			<psa10 value="0.00570767654307376" flag="0"/>
			<psa30 value="0.00091118827841837" flag="0"/>
		</comp>
	</station>
	<station code="PDO" name="PDO" netid="HP" source="University of Patras, Seismological Laboratory (PSLNET)" insttype="" lat="38.5986" lon="21.1833" esm:processing="manual (Paolucci et al 2011)" esm:quality="best">
		<comp name="--.HNE" depth="0.0">
			<acc value="0.00528456514166106" flag="0"/>
			<vel value="0.00269065667892627" flag="0"/>
			<psa03 value="0.0116055734997722" flag="0"/>
			<psa10 value="0.00560529851100914" flag="0"/>
			<psa30 value="0.000303216050116992" flag="0"/>
		</comp>
		<comp name="--.HNN" depth="0.0">
			<acc value="0.0055967179337164" flag="0"/>
			<vel value="0.00398343416165652" flag="0"/>
			<psa03 value="0.0237650743195408" flag="0"/>
			<psa10 value="0.00455576898483526" flag="0"/>
			<psa30 value="0.000234669243602223" flag="0"/>
		</comp>
		<comp name="--.HNZ" depth="0.0">
			<acc value="0.003672808990359" flag="0"/>
			<vel value="0.00173557514658216" flag="0"/>
			<psa03 value="0.00745303995129065" flag="0"/>
			<psa10 value="0.00178327547699903" flag="0"/>
			<psa30 value="0.000274398854660608" flag="0"/>
		</comp>
	</station>
	<station code="PVO" name="PVO" netid="HP" source="University of Patras, Seismological Laboratory (PSLNET)" insttype="" lat="38.616" lon="21.525" esm:processing="manual (Paolucci et al 2011)" esm:quality="best">
		<comp name="--.HNE" depth="0.0">
			<acc value="0.00275162646697188" flag="0"/>
			<vel value="0.00175218466562744" flag="0"/>
			<psa03 value="0.00762507869174265" flag="0"/>
			<psa10 value="0.0024691286457785" flag="0"/>
			<psa30 value="0.000342673038948576" flag="0"/>
		</comp>
		<comp name="--.HNN" depth="0.0">
			<acc value="0.00309004879173058" flag="0"/>
			<vel value="0.00165513854069641" flag="0"/>
			<psa03 value="0.00908896993821004" flag="0"/>
			<psa10 value="0.00261790756415368" flag="0"/>
			<psa30 value="0.000247667813027057" flag="0"/>
		</comp>
		<comp name="--.HNZ" depth="0.0">
			<acc value="0.00186204052435738" flag="0"/>
			<vel value="0.00121364337901072" flag="0"/>
			<psa03 value="0.00581053205463865" flag="0"/>
			<psa10 value="0.00173327212545781" flag="0"/>
			<psa30 value="0.000226862163921667" flag="0"/>
		</comp>
	</station>
	<station code="PYL" name="PYL" netid="HP" source="University of Patras, Seismological Laboratory (PSLNET)" insttype="" lat="36.8955" lon="21.742" esm:processing="manual (Paolucci et al 2011)" esm:quality="best">
		<comp name="--.HNE" depth="0.0">
			<acc value="0.00418263580240114" flag="0"/>
			<vel value="0.00206711142538201" flag="0"/>
			<psa03 value="0.00837197517519409" flag="0"/>
			<psa10 value="0.00156961784666789" flag="0"/>
			<psa30 value="0.00020961676368597" flag="0"/>
		</comp>
		<comp name="--.HNN" depth="0.0">
			<acc value="0.00464294106760398" flag="0"/>
			<vel value="0.00269042621191752" flag="0"/>
			<psa03 value="0.00875939081352592" flag="0"/>
			<psa10 value="0.0027196956352392" flag="0"/>
			<psa30 value="0.00028592886325894" flag="0"/>
		</comp>
		<comp name="--.HNZ" depth="0.0">
			<acc value="0.00268534231571187" flag="0"/>
			<vel value="0.000717985714802743" flag="0"/>
			<psa03 value="0.0041919808231577" flag="0"/>
			<psa10 value="0.00101901574697942" flag="0"/>
			<psa30 value="0.000105082573184117" flag="0"/>
		</comp>
	</station>
	<station code="SERG" name="SERG" netid="HP" source="University of Patras, Seismological Laboratory (PSLNET)" insttype="" lat="38.4133" lon="22.0566" esm:processing="manual (Paolucci et al 2011)" esm:quality="best">
		<comp name="--.HNE" depth="0.0">
			<acc value="0.00208686833879538" flag="0"/>
			<vel value="0.00148877870929619" flag="0"/>
			<psa03 value="0.00564170251114802" flag="0"/>
			<psa10 value="0.00223121733844719" flag="0"/>
			<psa30 value="0.000174330350613346" flag="0"/>
		</comp>
		<comp name="--.HNN" depth="0.0">
			<acc value="0.00230168750307485" flag="0"/>
			<vel value="0.0011828259310767" flag="0"/>
			<psa03 value="0.00543832315284185" flag="0"/>
			<psa10 value="0.00174216279254543" flag="0"/>
			<psa30 value="0.000160975741977817" flag="0"/>
		</comp>
		<comp name="--.HNZ" depth="0.0">
			<acc value="0.00139525730168553" flag="0"/>
			<vel value="0.00078071948837428" flag="0"/>
			<psa03 value="0.00312330390876174" flag="0"/>
			<psa10 value="0.00108897991301324" flag="0"/>
			<psa30 value="0.000171088078537256" flag="0"/>
		</comp>
	</station>
	<station code="UPR" name="UPR" netid="HP" source="University of Patras, Seismological Laboratory (PSLNET)" insttype="" lat="38.2836" lon="21.7864" esm:processing="manual (Paolucci et al 2011)" esm:quality="bad">
		<comp name="--.HNE" depth="0.0">
			<acc value="0.00318583870465499" flag="0"/>
			<vel value="0.0036771441971343" flag="0"/>
			<psa03 value="0.00657264829630746" flag="0"/>
			<psa10 value="0.00544696677229921" flag="0"/>
			<psa30 value="0.000487405309045011" flag="0"/>
		</comp>
		<comp name="--.HNN" depth="0.0">
			<acc value="0.00320948776829266" flag="0"/>
			<vel value="0.00413867451010569" flag="0"/>
			<psa03 value="0.00710539192131559" flag="0"/>
			<psa10 value="0.00854214243751357" flag="0"/>
			<psa30 value="0.000551227193177488" flag="0"/>
		</comp>
		<comp name="--.HNZ" depth="0.0">
			<acc value="0.00248112607515506" flag="0"/>
			<vel value="0.00296310418685612" flag="0"/>
			<psa03 value="0.00601633279731987" flag="0"/>
			<psa10 value="0.00540194972766123" flag="0"/>
			<psa30 value="0.000264427282634804" flag="0"/>
		</comp>
	</station>
	<station code="VALY" name="VALY" netid="HP" source="University of Patras, Seismological Laboratory (PSLNET)" insttype="" lat="37.1641" lon="21.9836" esm:processing="manual (Paolucci et al 2011)" esm:quality="best">
		<comp name="--.HNE" depth="0.0">
			<acc value="0.00369208997100346" flag="0"/>
			<vel value="0.00176827230900863" flag="0"/>
			<psa03 value="0.00579212393416061" flag="0"/>
			<psa10 value="0.00155679645043681" flag="0"/>
			<psa30 value="0.000129995082890343" flag="0"/>
		</comp>
		<comp name="--.HNN" depth="0.0">
			<acc value="0.00336905099333683" flag="0"/>
			<vel value="0.00157174584203479" flag="0"/>
			<psa03 value="0.00778443950902574" flag="0"/>
			<psa10 value="0.00181322238270711" flag="0"/>
			<psa30 value="0.000193023737395988" flag="0"/>
		</comp>
		<comp name="--.HNZ" depth="0.0">
			<acc value="0.00149096134418392" flag="0"/>
			<vel value="0.00108355398652075" flag="0"/>
			<psa03 value="0.00307643817393086" flag="0"/>
			<psa10 value="0.00238559912798317" flag="0"/>
			<psa30 value="0.000107580264685182" flag="0"/>
		</comp>
	</station>
	<station code="AIGS" name="AIGS" netid="HA" source="Hellenic Seismological Network, University of Athens, Seismological Laboratory (HA)" insttype="" lat="38.25001" lon="22.0878" esm:processing="automatic (Paolucci et al 2011)" esm:quality="bad">
		<comp name="--.HNE" depth="0.0">
			<acc value="0" flag="1"/>
			<vel value="0" flag="1"/>
			<psa03 value="0" flag="1"/>
			<psa10 value="0" flag="1"/>
			<psa30 value="0" flag="1"/>
		</comp>
		<comp name="--.HNN" depth="0.0">
			<acc value="0" flag="1"/>
			<vel value="0" flag="1"/>
			<psa03 value="0" flag="1"/>
			<psa10 value="0" flag="1"/>
			<psa30 value="0" flag="1"/>
		</comp>
		<comp name="--.HNZ" depth="0.0">
			<acc value="0" flag="1"/>
			<vel value="0" flag="1"/>
			<psa03 value="0" flag="1"/>
			<psa10 value="0" flag="1"/>
			<psa30 value="0" flag="1"/>
		</comp>
	</station>
	<station code="CORS" name="CORS" netid="HA" source="Hellenic Seismological Network, University of Athens, Seismological Laboratory (HA)" insttype="" lat="38.2562" lon="22.0748" esm:processing="automatic (Paolucci et al 2011)" esm:quality="bad">
		<comp name="00.HNE" depth="0.0">
			<acc value="0" flag="1"/>
			<vel value="0" flag="1"/>
			<psa03 value="0" flag="1"/>
			<psa10 value="0" flag="1"/>
			<psa30 value="0" flag="1"/>
		</comp>
		<comp name="00.HNN" depth="0.0">
			<acc value="0" flag="1"/>
			<vel value="0" flag="1"/>
			<psa03 value="0" flag="1"/>
			<psa10 value="0" flag="1"/>
			<psa30 value="0" flag="1"/>
		</comp>
		<comp name="00.HNZ" depth="0.0">
			<acc value="0" flag="1"/>
			<vel value="0" flag="1"/>
			<psa03 value="0" flag="1"/>
			<psa10 value="0" flag="1"/>
			<psa30 value="0" flag="1"/>
		</comp>
	</station>
	<station code="DRES" name="DRES" netid="HA" source="Hellenic Seismological Network, University of Athens, Seismological Laboratory (HA)" insttype="" lat="38.319719" lon="21.853176" esm:processing="automatic (Paolucci et al 2011)" esm:quality="bad">
		<comp name="--.HNE" depth="0.0">
			<acc value="0" flag="1"/>
			<vel value="0" flag="1"/>
			<psa03 value="0" flag="1"/>
			<psa10 value="0" flag="1"/>
			<psa30 value="0" flag="1"/>
		</comp>
		<comp name="--.HNN" depth="0.0">
			<acc value="0" flag="1"/>
			<vel value="0" flag="1"/>
			<psa03 value="0" flag="1"/>
			<psa10 value="0" flag="1"/>
			<psa30 value="0" flag="1"/>
		</comp>
		<comp name="--.HNZ" depth="0.0">
			<acc value="0" flag="1"/>
			<vel value="0" flag="1"/>
			<psa03 value="0" flag="1"/>
			<psa10 value="0" flag="1"/>
			<psa30 value="0" flag="1"/>
		</comp>
	</station>
	<station code="KIAS" name="KIAS" netid="HA" source="Hellenic Seismological Network, University of Athens, Seismological Laboratory (HA)" insttype="" lat="37.9875" lon="22.7543" esm:processing="automatic (Paolucci et al 2011)" esm:quality="bad">
		<comp name="--.HNE" depth="0.0">
			<acc value="0" flag="1"/>
			<vel value="0" flag="1"/>
			<psa03 value="0" flag="1"/>
			<psa10 value="0" flag="1"/>
			<psa30 value="0" flag="1"/>
		</comp>
		<comp name="--.HNN" depth="0.0">
			<acc value="0" flag="1"/>
			<vel value="0" flag="1"/>
			<psa03 value="0" flag="1"/>
			<psa10 value="0" flag="1"/>
			<psa30 value="0" flag="1"/>
		</comp>
		<comp name="--.HNZ" depth="0.0">
			<acc value="0" flag="1"/>
			<vel value="0" flag="1"/>
			<psa03 value="0" flag="1"/>
			<psa10 value="0" flag="1"/>
			<psa30 value="0" flag="1"/>
		</comp>
	</station>
	<station code="ARS1" name="ARS1" netid="HI" source="ITSAK Strong Motion Network" insttype="" lat="37.6349" lon="22.7293" esm:processing="discarded" esm:quality="bad">
		<comp name="--.HNE" depth="0.0">
			<acc value="0" flag="1"/>
			<vel value="0" flag="1"/>
			<psa03 value="0" flag="1"/>
			<psa10 value="0" flag="1"/>
			<psa30 value="0" flag="1"/>
		</comp>
		<comp name="--.HNN" depth="0.0">
			<acc value="0" flag="1"/>
			<vel value="0" flag="1"/>
			<psa03 value="0" flag="1"/>
			<psa10 value="0" flag="1"/>
			<psa30 value="0" flag="1"/>
		</comp>
		<comp name="--.HNZ" depth="0.0">
			<acc value="0" flag="1"/>
			<vel value="0" flag="1"/>
			<psa03 value="0" flag="1"/>
			<psa10 value="0" flag="1"/>
			<psa30 value="0" flag="1"/>
		</comp>
	</station>
	<station code="ART2" name="ART2" netid="HI" source="ITSAK Strong Motion Network" insttype="" lat="39.1474" lon="20.9937" esm:processing="discarded" esm:quality="bad">
		<comp name="--.HNE" depth="0.0">
			<acc value="0" flag="1"/>
			<vel value="0" flag="1"/>
			<psa03 value="0" flag="1"/>
			<psa10 value="0" flag="1"/>
			<psa30 value="0" flag="1"/>
		</comp>
		<comp name="--.HNN" depth="0.0">
			<acc value="0" flag="1"/>
			<vel value="0" flag="1"/>
			<psa03 value="0" flag="1"/>
			<psa10 value="0" flag="1"/>
			<psa30 value="0" flag="1"/>
		</comp>
		<comp name="--.HNZ" depth="0.0">
			<acc value="0" flag="1"/>
			<vel value="0" flag="1"/>
			<psa03 value="0" flag="1"/>
			<psa10 value="0" flag="1"/>
			<psa30 value="0" flag="1"/>
		</comp>
	</station>
	<station code="KLV1" name="KLV1" netid="HI" source="ITSAK Strong Motion Network" insttype="" lat="38.03256" lon="22.10797" esm:processing="discarded" esm:quality="good">
		<comp name="--.HNE" depth="0.0">
			<acc value="0" flag="1"/>
			<vel value="0" flag="1"/>
			<psa03 value="0" flag="1"/>
			<psa10 value="0" flag="1"/>
			<psa30 value="0" flag="1"/>
		</comp>
		<comp name="--.HNN" depth="0.0">
			<acc value="0" flag="1"/>
			<vel value="0" flag="1"/>
			<psa03 value="0" flag="1"/>
			<psa10 value="0" flag="1"/>
			<psa30 value="0" flag="1"/>
		</comp>
		<comp name="--.HNZ" depth="0.0">
			<acc value="0" flag="1"/>
			<vel value="0" flag="1"/>
			<psa03 value="0" flag="1"/>
			<psa10 value="0" flag="1"/>
			<psa30 value="0" flag="1"/>
		</comp>
	</station>
	<station code="MSL1" name="MSL1" netid="HI" source="ITSAK Strong Motion Network" insttype="" lat="38.3727" lon="21.4243" esm:processing="discarded" esm:quality="good">
		<comp name="--.HNE" depth="0.0">
			<acc value="0" flag="1"/>
