<?xml version="1.0" encoding="UTF-8" standalone="yes"?>
<!DOCTYPE earthquake SYSTEM "stationlist.dtd">
<stationlist created="" xmlns="ch.ethz.sed.shakemap.usgs.xml">
  <station code="CEYT" name="CEYT" netid="KO" insttype="CMG-3ESP" lat="37.0105" lon="35.7478">
    <comp name="--.HHE">
      <acc value="0.0123347273" flag="0"/>
      <vel value="0.0050038007" flag="0"/>
      <psa03 value="0.0367048079" flag="0"/>
      <psa10 value="0.0034677040" flag="0"/>
      <psa30 value="0.0003191785" flag="0"/>
    </comp>
    <comp name="--.HHN">
      <acc value="0.0078577182" flag="0"/>
      <vel value="0.0034557074" flag="0"/>
      <psa03 value="0.0272662651" flag="0"/>
      <psa10 value="0.0028865832" flag="0"/>
      <psa30 value="0.0003019580" flag="0"/>
    </comp>
    <comp name="--.HHZ">
      <acc value="0.0058284454" flag="0"/>
      <vel value="0.0020443803" flag="0"/>
      <psa03 value="0.0144580030" flag="0"/>
      <psa10 value="0.0027654892" flag="0"/>
      <psa30 value="0.0002297789" flag="0"/>
    </comp>
  </station>
</stationlist>
