<stationlist created="1771466530">
	<station code="AMRR" name="AMRR" netid="RO" source="Romanian Seismic Network (NIEP)" insttype="" lat="44.6102" lon="27.3351">
		<comp name="--.HNE" depth="0.0">
			<acc value="0.090810833687916" flag="0"/>
			<vel value="0.019556750811" flag="0"/>
			<psa03 value="0.112092435990463" flag="0"/>
			<psa10 value="0.00633420617256966" flag="0"/>
			<psa30 value="0.000619337330139834" flag="0"/>
		</comp>
		<comp name="--.HNN" depth="0.0">
			<acc value="0.053833668351642" flag="0"/>
			<vel value="0.0164974547412" flag="0"/>
			<psa03 value="0.0875137452726341" flag="0"/>
			<psa10 value="0.0069954270064732" flag="0"/>
			<psa30 value="0.000519664737740376" flag="0"/>
		</comp>
		<comp name="--.HNZ" depth="0.0">
			<acc value="0.089133855594822" flag="0"/>
			<vel value="0.0125483913507" flag="0"/>
			<psa03 value="0.0229788685914159" flag="0"/>
			<psa10 value="0.00114216464717812" flag="0"/>
			<psa30 value="0.000161057283837755" flag="0"/>
		</comp>
	</station>
	<station code="BAC" name="BAC" netid="RO" source="Romanian Seismic Network (NIEP)" insttype="" lat="46.5669" lon="26.9124">
		<comp name="--.HNE" depth="0.0">
			<acc value="0.044672731086762" flag="0"/>
			<vel value="0.0128438343648" flag="0"/>
			<psa03 value="0.0410103235034901" flag="0"/>
			<psa10 value="0.00719729256655784" flag="0"/>
			<psa30 value="0.000509136488210194" flag="0"/>
		</comp>
		<comp name="--.HNN" depth="0.0">
			<acc value="0.034957276045506" flag="0"/>
			<vel value="0.0123974561371" flag="0"/>
			<psa03 value="0.04377083189445" flag="0"/>
			<psa10 value="0.00794367310435883" flag="0"/>
			<psa30 value="0.000607070580028814" flag="0"/>
		</comp>
		<comp name="--.HNZ" depth="0.0">
			<acc value="0.038217259608744" flag="0"/>
			<vel value="0.00615123820068" flag="0"/>
			<psa03 value="0.0210109582791389" flag="0"/>
			<psa10 value="0.00224402068660723" flag="0"/>
			<psa30 value="0.000154023028790638" flag="0"/>
		</comp>
	</station>
	<station code="CICN" name="CICN" netid="RO" source="Romanian Seismic Network (NIEP)" insttype="" lat="44.197" lon="27.0261">
		<comp name="--.HNE" depth="0.0">
			<acc value="0.1098837598362" flag="0"/>
			<vel value="0.0227992338651" flag="0"/>
			<psa03 value="0.129139575696645" flag="0"/>
			<psa10 value="0.00587508669567399" flag="0"/>
			<psa30 value="0.000474647120124751" flag="0"/>
		</comp>
		<comp name="--.HNN" depth="0.0">
			<acc value="0.087423790512738" flag="0"/>
			<vel value="0.0163726246061" flag="0"/>
			<psa03 value="0.129167681724904" flag="0"/>
			<psa10 value="0.00455813257890109" flag="0"/>
			<psa30 value="0.000350405921005992" flag="0"/>
		</comp>
		<comp name="--.HNZ" depth="0.0">
			<acc value="0.036746564478936" flag="0"/>
			<vel value="0.00865433399576" flag="0"/>
			<psa03 value="0.0208705062665519" flag="0"/>
			<psa10 value="0.00174194457496584" flag="0"/>
			<psa30 value="0.000154101549617412" flag="0"/>
		</comp>
	</station>
	<station code="CLISU" name="CLISU" netid="RO" source="Romanian Seismic Network (NIEP)" insttype="" lat="44.1901" lon="27.3557">
		<comp name="--.HNE" depth="0.0">
			<acc value="0.039631298130366" flag="0"/>
			<vel value="0.01063391476" flag="0"/>
			<psa03 value="0.054348746171105" flag="0"/>
			<psa10 value="0.00347160966460344" flag="0"/>
			<psa30 value="0.000358478773501196" flag="0"/>
		</comp>
		<comp name="--.HNN" depth="0.0">
			<acc value="0.04909739123478" flag="0"/>
			<vel value="0.0127804117993" flag="0"/>
			<psa03 value="0.0533708636826373" flag="0"/>
			<psa10 value="0.00351452281988663" flag="0"/>
			<psa30 value="0.000297298470606283" flag="0"/>
		</comp>
		<comp name="--.HNZ" depth="0.0">
			<acc value="0.0682156857252" flag="0"/>
			<vel value="0.0123281075601" flag="0"/>
			<psa03 value="0.0244852001493347" flag="0"/>
			<psa10 value="0.00118012724013646" flag="0"/>
			<psa30 value="0.000159808086501397" flag="0"/>
		</comp>
	</station>
	<station code="COPA" name="COPA" netid="RO" source="Romanian Seismic Network (NIEP)" insttype="" lat="44.1343" lon="25.2172">
		<comp name="--.HNE" depth="0.0">
			<acc value="0.047067021135462" flag="0"/>
			<vel value="0.0103421258367" flag="0"/>
			<psa03 value="0.0421060028577083" flag="0"/>
			<psa10 value="0.005544293688513" flag="0"/>
			<psa30 value="0.000369180784540161" flag="0"/>
		</comp>
		<comp name="--.HNN" depth="0.0">
			<acc value="0.037999963402722" flag="0"/>
			<vel value="0.00941764075872" flag="0"/>
			<psa03 value="0.0195841384988787" flag="0"/>
			<psa10 value="0.00218142716509209" flag="0"/>
			<psa30 value="0.000268686028297526" flag="0"/>
		</comp>
		<comp name="--.HNZ" depth="0.0">
			<acc value="0.11077719578004" flag="0"/>
			<vel value="0.0112397845066" flag="0"/>
			<psa03 value="0.0270136879617716" flag="0"/>
			<psa10 value="0.00149591901916924" flag="0"/>
			<psa30 value="0.000135523014192828" flag="0"/>
		</comp>
	</station>
	<station code="CVD1" name="CVD1" netid="RO" source="Romanian Seismic Network (NIEP)" insttype="" lat="44.3207" lon="28.0624">
		<comp name="--.HNE" depth="0.0">
			<acc value="0.057236894790516" flag="0"/>
			<vel value="0.0124782620464" flag="0"/>
			<psa03 value="0.0505569324817698" flag="0"/>
			<psa10 value="0.00279153187841107" flag="0"/>
			<psa30 value="0.000338688321855957" flag="0"/>
		</comp>
		<comp name="--.HNN" depth="0.0">
			<acc value="0.048296595385176" flag="0"/>
			<vel value="0.00964406636362" flag="0"/>
			<psa03 value="0.0323911952368899" flag="0"/>
			<psa10 value="0.00162030749366816" flag="0"/>
			<psa30 value="0.000233055595039347" flag="0"/>
		</comp>
		<comp name="--.HNZ" depth="0.0">
			<acc value="0.037102206428088" flag="0"/>
			<vel value="0.00571784647368" flag="0"/>
			<psa03 value="0.011956275117475" flag="0"/>
			<psa10 value="0.000736345458961819" flag="0"/>
			<psa30 value="0.000113539643840017" flag="0"/>
		</comp>
	</station>
	<station code="CVDA" name="CVDA" netid="RO" source="Romanian Seismic Network (NIEP)" insttype="" lat="44.3336" lon="28.0374">
		<comp name="--.HNE" depth="0.0">
			<acc value="0.075116562059778" flag="0"/>
			<vel value="0.0208185495729" flag="0"/>
			<psa03 value="0.141775819035683" flag="0"/>
			<psa10 value="0.00438448201292085" flag="0"/>
			<psa30 value="0.00048275494889726" flag="0"/>
		</comp>
		<comp name="--.HNN" depth="0.0">
			<acc value="0.052391753438202" flag="0"/>
			<vel value="0.01626535783" flag="0"/>
			<psa03 value="0.122047918409151" flag="0"/>
			<psa10 value="0.00369752884938773" flag="0"/>
			<psa30 value="0.000332820042486092" flag="0"/>
		</comp>
		<comp name="--.HNZ" depth="0.0">
			<acc value="0.07786073878311" flag="0"/>
			<vel value="0.0189826576516" flag="0"/>
			<psa03 value="0.131425716725465" flag="0"/>
			<psa10 value="0.00275612203268466" flag="0"/>
			<psa30 value="0.000278827377195441" flag="0"/>
		</comp>
	</station>
	<station code="DOPR" name="DOPR" netid="RO" source="Romanian Seismic Network (NIEP)" insttype="" lat="45.9675" lon="25.3886">
		<comp name="--.HNE" depth="0.0">
			<acc value="0.04072161543831" flag="0"/>
			<vel value="0.00823147050749" flag="0"/>
			<psa03 value="0.0175004952594244" flag="0"/>
			<psa10 value="0.00098264917771826" flag="0"/>
			<psa30 value="0.00010274331014635" flag="0"/>
		</comp>
		<comp name="--.HNN" depth="0.0">
			<acc value="0.026593605070884" flag="0"/>
			<vel value="0.00556397769107" flag="0"/>
			<psa03 value="0.026839632160588" flag="0"/>
			<psa10 value="0.00109152937877882" flag="0"/>
			<psa30 value="8.45768723339496e-05" flag="0"/>
		</comp>
		<comp name="--.HNZ" depth="0.0">
			<acc value="0.022361673538326" flag="0"/>
			<vel value="0.00763139211439" flag="0"/>
			<psa03 value="0.0219211396679017" flag="0"/>
			<psa10 value="0.00166632690941636" flag="0"/>
			<psa30 value="0.00013066557001506" flag="0"/>
		</comp>
	</station>
	<station code="GISR" name="GISR" netid="RO" source="Romanian Seismic Network (NIEP)" insttype="" lat="45.4411" lon="28.0541">
		<comp name="--.HNE" depth="0.0">
			<acc value="0.10599432322626" flag="0"/>
			<vel value="0.0201880984365" flag="0"/>
			<psa03 value="0.08200757322423" flag="0"/>
			<psa10 value="0.0106484057171228" flag="0"/>
			<psa30 value="0.000732483106744405" flag="0"/>
		</comp>
		<comp name="--.HNN" depth="0.0">
			<acc value="0.085100709373566" flag="0"/>
			<vel value="0.0222761424768" flag="0"/>
			<psa03 value="0.125703170968096" flag="0"/>
			<psa10 value="0.00558809518387478" flag="0"/>
			<psa30 value="0.000858723084106736" flag="0"/>
		</comp>
		<comp name="--.HNZ" depth="0.0">
			<acc value="0.15608756979318" flag="0"/>
			<vel value="0.0258217920635" flag="0"/>
			<psa03 value="0.0527788192545104" flag="0"/>
			<psa10 value="0.00327620906402326" flag="0"/>
			<psa30 value="0.00058070279162459" flag="0"/>
		</comp>
	</station>
	<station code="GIUM" name="GIUM" netid="RO" source="Romanian Seismic Network (NIEP)" insttype="" lat="45.485" lon="28.2081">
		<comp name="--.HNE" depth="0.0">
			<acc value="0.059251915758678" flag="0"/>
			<vel value="0.0116397699431" flag="0"/>
			<psa03 value="0.0383343727974158" flag="0"/>
			<psa10 value="0.00426934047911661" flag="0"/>
			<psa30 value="0.000969984777562741" flag="0"/>
		</comp>
		<comp name="--.HNN" depth="0.0">
			<acc value="0.072623809856598" flag="0"/>
			<vel value="0.0134254602133" flag="0"/>
			<psa03 value="0.0388497168322221" flag="0"/>
			<psa10 value="0.00338161214020905" flag="0"/>
			<psa30 value="0.00099614880246818" flag="0"/>
		</comp>
		<comp name="--.HNZ" depth="0.0">
			<acc value="0.15803647849836" flag="0"/>
			<vel value="0.0171160979222" flag="0"/>
			<psa03 value="0.0321316155409896" flag="0"/>
			<psa10 value="0.00172892734545206" flag="0"/>
			<psa30 value="0.00100214076190504" flag="0"/>
		</comp>
	</station>
	<station code="GRISU" name="GRISU" netid="RO" source="Romanian Seismic Network (NIEP)" insttype="" lat="43.8898" lon="25.9518">
		<comp name="--.HNE" depth="0.0">
			<acc value="0.021056045822886" flag="0"/>
			<vel value="0.00803754003454" flag="0"/>
			<psa03 value="0.0690922541060419" flag="0"/>
			<psa10 value="0.00176496945962841" flag="0"/>
			<psa30 value="0.000158562483153031" flag="0"/>
		</comp>
		<comp name="--.HNN" depth="0.0">
			<acc value="0.019098033028452" flag="0"/>
			<vel value="0.00813684573967" flag="0"/>
			<psa03 value="0.0580899992188859" flag="0"/>
			<psa10 value="0.00150075625367437" flag="0"/>
			<psa30 value="0.000164169755648993" flag="0"/>
		</comp>
		<comp name="--.HNZ" depth="0.0">
			<acc value="0.019671669876792" flag="0"/>
			<vel value="0.00316178456973" flag="0"/>
			<psa03 value="0.0124899497937093" flag="0"/>
			<psa10 value="0.000552869242062276" flag="0"/>
			<psa30 value="8.00336612123122e-05" flag="0"/>
		</comp>
	</station>
	<station code="HARR" name="HARR" netid="RO" source="Romanian Seismic Network (NIEP)" insttype="" lat="44.6893" lon="27.9303">
		<comp name="--.HNE" depth="0.0">
			<acc value="0.087534947094966" flag="0"/>
			<vel value="0.0155223568224" flag="0"/>
			<psa03 value="0.0604883976843883" flag="0"/>
			<psa10 value="0.00491702901030209" flag="0"/>
			<psa30 value="0.000471712290289268" flag="0"/>
		</comp>
		<comp name="--.HNN" depth="0.0">
			<acc value="0.05059420598358" flag="0"/>
			<vel value="0.014858855273" flag="0"/>
			<psa03 value="0.0674011889562883" flag="0"/>
			<psa10 value="0.00889750660362893" flag="0"/>
			<psa30 value="0.000528471779494415" flag="0"/>
		</comp>
		<comp name="--.HNZ" depth="0.0">
			<acc value="0.070420512830832" flag="0"/>
			<vel value="0.00878813529548" flag="0"/>
			<psa03 value="0.0334405642315789" flag="0"/>
			<psa10 value="0.00119073399747165" flag="0"/>
			<psa30 value="0.000248298375632052" flag="0"/>
		</comp>
	</station>
	<station code="HUMR" name="HUMR" netid="RO" source="Romanian Seismic Network (NIEP)" insttype="" lat="44.5281" lon="24.9804">
		<comp name="--.HNE" depth="0.0">
			<acc value="0.07734298964064" flag="0"/>
			<vel value="0.0164705548698" flag="0"/>
			<psa03 value="0.039083125523567" flag="0"/>
			<psa10 value="0.00449483401070434" flag="0"/>
			<psa30 value="0.000413229796320916" flag="0"/>
		</comp>
		<comp name="--.HNN" depth="0.0">
			<acc value="0.058638863832474" flag="0"/>
			<vel value="0.011195459388" flag="0"/>
			<psa03 value="0.0344426201962151" flag="0"/>
			<psa10 value="0.0042917524325436" flag="0"/>
			<psa30 value="0.000273419987732187" flag="0"/>
		</comp>
		<comp name="--.HNZ" depth="0.0">
			<acc value="0.11140233334638" flag="0"/>
			<vel value="0.0102617549067" flag="0"/>
			<psa03 value="0.0254601032735476" flag="0"/>
			<psa10 value="0.00128039446828545" flag="0"/>
			<psa30 value="0.000114259782691627" flag="0"/>
		</comp>
	</station>
	<station code="IASR" name="IASR" netid="RO" source="Romanian Seismic Network (NIEP)" insttype="" lat="47.1777" lon="27.5748">
		<comp name="--.HNE" depth="0.0">
			<acc value="0.028851015775272" flag="0"/>
			<vel value="0.00759063939877" flag="0"/>
			<psa03 value="0.0226281344195073" flag="0"/>
			<psa10 value="0.00324434695331452" flag="0"/>
			<psa30 value="0.000268867993476914" flag="0"/>
		</comp>
		<comp name="--.HNN" depth="0.0">
			<acc value="0.027142692650514" flag="0"/>
			<vel value="0.011274110816" flag="0"/>
			<psa03 value="0.0316191440922671" flag="0"/>
			<psa10 value="0.00671944950556295" flag="0"/>
			<psa30 value="0.000455849989493217" flag="0"/>
		</comp>
		<comp name="--.HNZ" depth="0.0">
			<acc value="0.024478867372008" flag="0"/>
			<vel value="0.00505829994233" flag="0"/>
			<psa03 value="0.0161698224734484" flag="0"/>
			<psa10 value="0.00186503839339191" flag="0"/>
			<psa30 value="0.000128533879321963" flag="0"/>
		</comp>
	</station>
	<station code="ICOR" name="ICOR" netid="RO" source="Romanian Seismic Network (NIEP)" insttype="" lat="44.1168" lon="27.8009">
		<comp name="--.HNE" depth="0.0">
			<acc value="0.04081837903779" flag="0"/>
			<vel value="0.0126106879054" flag="0"/>
			<psa03 value="0.102708397677248" flag="0"/>
			<psa10 value="0.00368300249646359" flag="0"/>
			<psa30 value="0.000398420950724212" flag="0"/>
		</comp>
		<comp name="--.HNN" depth="0.0">
			<acc value="0.045088642981146" flag="0"/>
			<vel value="0.0144964928606" flag="0"/>
			<psa03 value="0.111755747019934" flag="0"/>
			<psa10 value="0.00400589490212919" flag="0"/>
			<psa30 value="0.000306918587058226" flag="0"/>
		</comp>
		<comp name="--.HNZ" depth="0.0">
			<acc value="0.041988425950314" flag="0"/>
			<vel value="0.0144706027292" flag="0"/>
			<psa03 value="0.0610886561986594" flag="0"/>
			<psa10 value="0.00227409463198422" flag="0"/>
			<psa30 value="0.00137104936695909" flag="0"/>
		</comp>
	</station>
	<station code="INCR" name="INCR" netid="RO" source="Romanian Seismic Network (NIEP)" insttype="" lat="44.441" lon="26.1611">
		<comp name="--.HNE" depth="0.0">
			<acc value="0.029985627095562" flag="0"/>
			<vel value="0.0100974141431" flag="0"/>
			<psa03 value="0.0481584975558432" flag="0"/>
			<psa10 value="0.00324435351624725" flag="0"/>
			<psa30 value="0.000261757756833315" flag="0"/>
		</comp>
		<comp name="--.HNN" depth="0.0">
			<acc value="0.031100334580776" flag="0"/>
			<vel value="0.0106518789157" flag="0"/>
			<psa03 value="0.0640070318183106" flag="0"/>
			<psa10 value="0.00221358132639976" flag="0"/>
			<psa30 value="0.000273339070913717" flag="0"/>
		</comp>
		<comp name="--.HNZ" depth="0.0">
			<acc value="0.062759187428418" flag="0"/>
			<vel value="0.00857565088948" flag="0"/>
			<psa03 value="0.0177017755203287" flag="0"/>
			<psa10 value="0.000948598855642488" flag="0"/>
			<psa30 value="0.00017014192210903" flag="0"/>
		</comp>
	</station>
	<station code="JOSR" name="JOSR" netid="RO" source="Romanian Seismic Network (NIEP)" insttype="" lat="46.7059" lon="25.5154">
		<comp name="--.HNE" depth="0.0">
			<acc value="0.0061390664437686" flag="0"/>
			<vel value="0.000710089974853" flag="0"/>
			<psa03 value="0.00124031662126794" flag="0"/>
			<psa10 value="0.00151073461000168" flag="0"/>
			<psa30 value="0.000102717370928125" flag="0"/>
		</comp>
		<comp name="--.HNN" depth="0.0">
			<acc value="0.017659152577884" flag="0"/>
			<vel value="0.00183008960903" flag="0"/>
			<psa03 value="0.00246899998491242" flag="0"/>
			<psa10 value="0.00149647675142818" flag="0"/>
			<psa30 value="0.000341796053769547" flag="0"/>
		</comp>
		<comp name="--.HNZ" depth="0.0">
			<acc value="0.0017731662193554" flag="0"/>
			<vel value="0.000798973139205" flag="0"/>
			<psa03 value="0.00262942548861667" flag="0"/>
			<psa10 value="0.000672130013594349" flag="0"/>
			<psa30 value="3.6886102377411e-05" flag="0"/>
		</comp>
	</station>
	<station code="LEHL" name="LEHL" netid="RO" source="Romanian Seismic Network (NIEP)" insttype="" lat="44.4739" lon="26.8194">
		<comp name="--.HNE" depth="0.0">
			<acc value="0.10656550866066" flag="0"/>
			<vel value="0.0346237211512" flag="0"/>
			<psa03 value="0.122069357329167" flag="0"/>
			<psa10 value="0.00886997415474551" flag="0"/>
			<psa30 value="0.000499632994068774" flag="0"/>
		</comp>
		<comp name="--.HNN" depth="0.0">
			<acc value="0.091190275178136" flag="0"/>
			<vel value="0.0215615898922" flag="0"/>
			<psa03 value="0.0748548077217568" flag="0"/>
			<psa10 value="0.00462884491949524" flag="0"/>
			<psa30 value="0.000572972383691291" flag="0"/>
		</comp>
		<comp name="--.HNZ" depth="0.0">
			<acc value="0.15798888510252" flag="0"/>
			<vel value="0.0154372194467" flag="0"/>
			<psa03 value="0.037473638694668" flag="0"/>
			<psa10 value="0.00123151490213003" flag="0"/>
			<psa30 value="0.000161002136955371" flag="0"/>
		</comp>
	</station>
	<station code="LEOM" name="LEOM" netid="RO" source="Romanian Seismic Network (NIEP)" insttype="" lat="46.4733" lon="28.2467">
		<comp name="--.HNE" depth="0.0">
			<acc value="0.23226375804216" flag="0"/>
			<vel value="0.0313588963429" flag="0"/>
			<psa03 value="0.0773607549787254" flag="0"/>
			<psa10 value="0.00874982744562759" flag="0"/>
			<psa30 value="0.000932574799336995" flag="0"/>
		</comp>
		<comp name="--.HNN" depth="0.0">
			<acc value="0.21674677647666" flag="0"/>
			<vel value="0.0338668510457" flag="0"/>
			<psa03 value="0.0974567164459828" flag="0"/>
			<psa10 value="0.0132563022274694" flag="0"/>
			<psa30 value="0.00109756083301694" flag="0"/>
		</comp>
		<comp name="--.HNZ" depth="0.0">
			<acc value="0.21992722866324" flag="0"/>
			<vel value="0.0285219133072" flag="0"/>
			<psa03 value="0.0460582750928898" flag="0"/>
			<psa10 value="0.00281948294878258" flag="0"/>
			<psa30 value="0.000703380553840869" flag="0"/>
		</comp>
	</station>
	<station code="MFTR" name="MFTR" netid="RO" source="Romanian Seismic Network (NIEP)" insttype="" lat="44.1779" lon="28.4224">
		<comp name="--.HNE" depth="0.0">
			<acc value="0.046657709496246" flag="0"/>
			<vel value="0.00953300881527" flag="0"/>
			<psa03 value="0.0682636054621113" flag="0"/>
			<psa10 value="0.00190279108963453" flag="0"/>
			<psa30 value="0.000207665540677003" flag="0"/>
		</comp>
		<comp name="--.HNN" depth="0.0">
			<acc value="0.042280096806918" flag="0"/>
			<vel value="0.0109151080778" flag="0"/>
			<psa03 value="0.054262042510618" flag="0"/>
			<psa10 value="0.00322081930097372" flag="0"/>
			<psa30 value="0.000278776097756467" flag="0"/>
		</comp>
		<comp name="--.HNZ" depth="0.0">
			<acc value="0.038128817530956" flag="0"/>
			<vel value="0.00701757736586" flag="0"/>
			<psa03 value="0.020450938107636" flag="0"/>
			<psa10 value="0.00111679574004792" flag="0"/>
			<psa30 value="0.000124028906410441" flag="0"/>
		</comp>
	</station>
	<station code="MLR" name="MLR" netid="RO" source="Romanian Seismic Network (NIEP)" insttype="" lat="45.4909" lon="25.945">
		<comp name="--.HNE" depth="0.0">
			<acc value="0.007335075746079" flag="0"/>
			<vel value="0.00361459325411" flag="0"/>
			<psa03 value="0.0195714254171496" flag="0"/>
			<psa10 value="0.00287999930144554" flag="0"/>
			<psa30 value="0.000165569718181126" flag="0"/>
		</comp>
