<?xml version="1.0" encoding="UTF-8" standalone="yes"?>
<!DOCTYPE earthquake SYSTEM "stationlist.dtd">
<stationlist created="" xmlns="ch.ethz.sed.shakemap.usgs.xml">
  <station code="BISRR" name="BISRR" netid="RO" insttype="CMG40T.1to100/Basalt" commtype="DIG" lat="45.5481" lon="26.7099">
    <comp name="--.HHN">
      <acc value="0.0657452876" flag="0"/>
      <vel value="0.0207051384" flag="0"/>
      <psa03 value="0.1288843384" flag="0"/>
      <psa10 value="0.0180385133" flag="0"/>
      <psa30 value="0.0010653347" flag="0"/>
    </comp>
    <comp name="--.HHE">
      <acc value="0.0887392261" flag="0"/>
      <vel value="0.0292319792" flag="0"/>
      <psa03 value="0.1420823568" flag="0"/>
      <psa10 value="0.0187535967" flag="0"/>
      <psa30 value="0.0011772704" flag="0"/>
    </comp>
    <comp name="--.HHZ">
      <acc value="0.0698288504" flag="0"/>
      <vel value="0.0147182455" flag="0"/>
      <psa03 value="0.0819884260" flag="0"/>
      <psa10 value="0.0132755103" flag="0"/>
      <psa30 value="0.0006674801" flag="0"/>
    </comp>
  </station>
  <station code="BOSR" name="BOSR" netid="RO" insttype="Seismometer/Basalt" commtype="DIG" lat="46.0749" lon="25.6611">
    <comp name="--.HHN">
      <acc value="0.0000107390" flag="0"/>
      <vel value="0.0000006763" flag="0"/>
      <psa03 value="0.0000016409" flag="0"/>
      <psa10 value="0.0000002476" flag="0"/>
      <psa30 value="0.0000000836" flag="0"/>
    </comp>
    <comp name="--.HHE">
      <acc value="0.0125428356" flag="0"/>
      <vel value="0.0025371727" flag="0"/>
      <psa03 value="0.0136665002" flag="0"/>
      <psa10 value="0.0010198168" flag="0"/>
      <psa30 value="0.0000855771" flag="0"/>
    </comp>
    <comp name="--.HHZ">
      <acc value="0.0220013596" flag="0"/>
      <vel value="0.0041914009" flag="0"/>
      <psa03 value="0.0103731991" flag="0"/>
      <psa10 value="0.0009426386" flag="0"/>
      <psa30 value="0.0001475830" flag="0"/>
    </comp>
  </station>
  <station code="ISR" name="ISR" netid="RO" insttype="CMG3ESP/Quanterra" commtype="DIG" lat="45.1187" lon="26.5432">
    <comp name="--.HHZ">
      <acc value="0.0431943130" flag="0"/>
      <vel value="0.0070344552" flag="0"/>
      <psa03 value="0.0383569260" flag="0"/>
      <psa10 value="0.0018502989" flag="0"/>
      <psa30 value="0.0001982138" flag="0"/>
    </comp>
    <comp name="--.HHE">
      <acc value="0.0754182152" flag="0"/>
      <vel value="0.0121085691" flag="0"/>
      <psa03 value="0.0448217691" flag="0"/>
      <psa10 value="0.0030492591" flag="0"/>
      <psa30 value="0.0002749350" flag="0"/>
    </comp>
    <comp name="--.HHN">
      <acc value="0.0836167740" flag="0"/>
      <vel value="0.0128343286" flag="0"/>
      <psa03 value="0.0664300467" flag="0"/>
      <psa10 value="0.0040019471" flag="0"/>
      <psa30 value="0.0002820871" flag="0"/>
    </comp>
  </station>
  <station code="MLR" name="MLR" netid="RO" insttype="330HR" commtype="DIG" lat="45.4909" lon="25.945">
    <comp name="--.HHN">
      <acc value="0.0111676851" flag="0"/>
      <vel value="0.0031140593" flag="0"/>
      <psa03 value="0.0113408230" flag="0"/>
      <psa10 value="0.0021701679" flag="0"/>
      <psa30 value="0.0002347235" flag="0"/>
    </comp>
    <comp name="--.HHE">
      <acc value="0.0074710935" flag="0"/>
      <vel value="0.0037679903" flag="0"/>
      <psa03 value="0.0201952083" flag="0"/>
      <psa10 value="0.0029060642" flag="0"/>
      <psa30 value="0.0001692844" flag="0"/>
    </comp>
    <comp name="--.HHZ">
      <acc value="0.0147172458" flag="0"/>
      <vel value="0.0043767367" flag="0"/>
      <psa03 value="0.0160466370" flag="0"/>
      <psa10 value="0.0018461981" flag="0"/>
      <psa30 value="0.0001307262" flag="0"/>
    </comp>
  </station>
  <station code="NARR" name="NARR" netid="RO" insttype="OBS-SIO/Centaur" commtype="DIG" lat="45.8165" lon="26.7368">
    <comp name="--.HHE">
      <acc value="0.0825118855" flag="0"/>
      <vel value="0.0384153789" flag="0"/>
      <psa03 value="0.1658121978" flag="0"/>
      <psa10 value="0.0098098496" flag="0"/>
      <psa30 value="0.0008984622" flag="0"/>
    </comp>
    <comp name="--.HHZ">
      <acc value="0.0506009824" flag="0"/>
      <vel value="0.0163059043" flag="0"/>
      <psa03 value="0.0829261078" flag="0"/>
      <psa10 value="0.0037023316" flag="0"/>
      <psa30 value="0.0002638772" flag="0"/>
    </comp>
    <comp name="--.HHN">
      <acc value="0.0873283398" flag="0"/>
      <vel value="0.0312202421" flag="0"/>
      <psa03 value="0.2225478515" flag="0"/>
      <psa10 value="0.0075282117" flag="0"/>
      <psa30 value="0.0008118157" flag="0"/>
    </comp>
  </station>
  <station code="NEGRR" name="NEGRR" netid="RO" insttype="CMG40T.1to100/Quanterra" commtype="DIG" lat="45.5373" lon="27.8771">
    <comp name="--.HHE">
      <acc value="0.1460583096" flag="0"/>
      <vel value="0.0218390077" flag="0"/>
      <psa03 value="0.0770964545" flag="0"/>
      <psa10 value="0.0071886427" flag="0"/>
      <psa30 value="0.0004589368" flag="0"/>
    </comp>
    <comp name="--.HHZ">
      <acc value="0.1659894026" flag="0"/>
      <vel value="0.0130964968" flag="0"/>
      <psa03 value="0.0351592532" flag="0"/>
      <psa10 value="0.0029053755" flag="0"/>
      <psa30 value="0.0001278161" flag="0"/>
    </comp>
    <comp name="--.HHN">
      <acc value="0.1315173122" flag="0"/>
      <vel value="0.0219524843" flag="0"/>
      <psa03 value="0.0443554013" flag="0"/>
      <psa10 value="0.0025467629" flag="0"/>
      <psa30 value="0.0002841239" flag="0"/>
    </comp>
  </station>
  <station code="NEHR" name="NEHR" netid="RO" insttype="Seismometer/Basalt" commtype="DIG" lat="45.4272" lon="26.2952">
    <comp name="--.HHZ">
      <acc value="0.0044707766" flag="0"/>
      <vel value="0.0007538124" flag="0"/>
      <psa03 value="0.0033689331" flag="0"/>
      <psa10 value="0.0001638312" flag="0"/>
      <psa30 value="0.0000131248" flag="0"/>
    </comp>
    <comp name="--.HHE">
      <acc value="0.0028384552" flag="0"/>
      <vel value="0.0009264187" flag="0"/>
      <psa03 value="0.0052591943" flag="0"/>
      <psa10 value="0.0003200118" flag="0"/>
      <psa30 value="0.0000198059" flag="0"/>
    </comp>
    <comp name="--.HHN">
      <acc value="0.0039654299" flag="0"/>
      <vel value="0.0013740403" flag="0"/>
      <psa03 value="0.0053246766" flag="0"/>
      <psa10 value="0.0003626687" flag="0"/>
      <psa30 value="0.0000304332" flag="0"/>
    </comp>
  </station>
  <station code="ODBI" name="ODBI" netid="RO" insttype="200" commtype="DIG" lat="45.7633" lon="27.0558">
    <comp name="--.HNE">
      <acc value="0.2344698118" flag="0"/>
      <vel value="0.0246299354" flag="0"/>
      <psa03 value="0.0714793086" flag="0"/>
      <psa10 value="0.0104166742" flag="0"/>
      <psa30 value="0.0009760504" flag="0"/>
    </comp>
    <comp name="--.HNN">
      <acc value="0.2650158370" flag="0"/>
      <vel value="0.0267756271" flag="0"/>
      <psa03 value="0.0891199840" flag="0"/>
      <psa10 value="0.0039427738" flag="0"/>
      <psa30 value="0.0003228064" flag="0"/>
    </comp>
    <comp name="--.HNZ">
      <acc value="0.3165294588" flag="0"/>
      <vel value="0.0386010487" flag="0"/>
      <psa03 value="0.0381242770" flag="0"/>
      <psa10 value="0.0044967549" flag="0"/>
      <psa30 value="0.0003534021" flag="0"/>
    </comp>
  </station>
  <station code="PANC" name="PANC" netid="RO" insttype="Seismometer/Basalt" commtype="DIG" lat="45.8723" lon="27.1477">
    <comp name="--.HHE">
      <acc value="0.1239100437" flag="0"/>
      <vel value="0.0239794906" flag="0"/>
      <psa03 value="0.0847958650" flag="0"/>
      <psa10 value="0.0097286548" flag="0"/>
      <psa30 value="0.0007253269" flag="0"/>
    </comp>
    <comp name="--.HHN">
      <acc value="0.1041715951" flag="0"/>
      <vel value="0.0154316716" flag="0"/>
      <psa03 value="0.0420776807" flag="0"/>
      <psa10 value="0.0040912497" flag="0"/>
      <psa30 value="0.0003455837" flag="0"/>
    </comp>
    <comp name="--.HHZ">
      <acc value="0.1210450178" flag="0"/>
      <vel value="0.0142630410" flag="0"/>
      <psa03 value="0.0229691472" flag="0"/>
      <psa10 value="0.0016240106" flag="0"/>
      <psa30 value="0.0001353999" flag="0"/>
    </comp>
  </station>
  <station code="PGOR" name="PGOR" netid="RO" insttype="CMG40T.1to100/Quanterra" commtype="DIG" lat="44.9199" lon="26.9768">
    <comp name="--.HHE">
      <acc value="0.0668080150" flag="0"/>
      <vel value="0.0136836061" flag="0"/>
      <psa03 value="0.0458542500" flag="0"/>
      <psa10 value="0.0029484746" flag="0"/>
      <psa30 value="0.0004143729" flag="0"/>
    </comp>
    <comp name="--.HHZ">
      <acc value="0.2246397177" flag="0"/>
      <vel value="0.0224416196" flag="0"/>
      <psa03 value="0.0264098588" flag="0"/>
      <psa10 value="0.0017431563" flag="0"/>
      <psa30 value="0.0001523789" flag="0"/>
    </comp>
    <comp name="--.HHN">
      <acc value="0.0769206595" flag="0"/>
      <vel value="0.0159376790" flag="0"/>
      <psa03 value="0.0562493628" flag="0"/>
      <psa10 value="0.0037798913" flag="0"/>
      <psa30 value="0.0005705985" flag="0"/>
    </comp>
  </station>
  <station code="PLAR" name="PLAR" netid="RO" insttype="200" commtype="DIG" lat="44.9142" lon="26.0274">
    <comp name="--.HNN">
      <acc value="0.0345295204" flag="0"/>
      <vel value="0.0083317077" flag="0"/>
      <psa03 value="0.0487613587" flag="0"/>
      <psa10 value="0.0019902738" flag="0"/>
      <psa30 value="0.0002292753" flag="0"/>
    </comp>
    <comp name="--.HNZ">
      <acc value="0.1099050617" flag="0"/>
      <vel value="0.0140172369" flag="0"/>
      <psa03 value="0.0253615883" flag="0"/>
      <psa10 value="0.0016435689" flag="0"/>
      <psa30 value="0.0001603974" flag="0"/>
    </comp>
    <comp name="--.HNE">
      <acc value="0.0419390307" flag="0"/>
      <vel value="0.0119458162" flag="0"/>
      <psa03 value="0.0622262061" flag="0"/>
      <psa10 value="0.0046182554" flag="0"/>
      <psa30 value="0.0003741652" flag="0"/>
    </comp>
  </station>
  <station code="PLOR" name="PLOR" netid="RO" insttype="MBB2/Quanterra" commtype="DIG" lat="45.8512" lon="26.6498">
    <comp name="--.HHE">
      <acc value="0.0479212675" flag="0"/>
      <vel value="0.0145311653" flag="0"/>
      <psa03 value="0.0851781304" flag="0"/>
      <psa10 value="0.0116411219" flag="0"/>
      <psa30 value="0.0006192592" flag="0"/>
    </comp>
    <comp name="--.HHN">
      <acc value="0.0378983583" flag="0"/>
      <vel value="0.0169016083" flag="0"/>
      <psa03 value="0.0897119129" flag="0"/>
      <psa10 value="0.0075418847" flag="0"/>
      <psa30 value="0.0004824382" flag="0"/>
    </comp>
    <comp name="--.HHZ">
      <acc value="0.0302067251" flag="0"/>
      <vel value="0.0089607804" flag="0"/>
      <psa03 value="0.0384993913" flag="0"/>
      <psa10 value="0.0028245275" flag="0"/>
      <psa30 value="0.0001581535" flag="0"/>
    </comp>
  </station>
  <station code="PLOR4" name="PLOR4" netid="RO" insttype="MBB2/Quanterra" commtype="DIG" lat="45.8512" lon="26.6498">
    <comp name="--.HHE">
      <acc value="0.0479212675" flag="0"/>
      <vel value="0.0145311653" flag="0"/>
      <psa03 value="0.0851781304" flag="0"/>
      <psa10 value="0.0116411219" flag="0"/>
      <psa30 value="0.0006192592" flag="0"/>
    </comp>
    <comp name="--.HHN">
      <acc value="0.0378983583" flag="0"/>
      <vel value="0.0169016083" flag="0"/>
      <psa03 value="0.0897119129" flag="0"/>
      <psa10 value="0.0075418847" flag="0"/>
      <psa30 value="0.0004824382" flag="0"/>
    </comp>
    <comp name="--.HHZ">
      <acc value="0.0302067251" flag="0"/>
      <vel value="0.0089607804" flag="0"/>
      <psa03 value="0.0384993913" flag="0"/>
      <psa10 value="0.0028245275" flag="0"/>
      <psa30 value="0.0001581535" flag="0"/>
    </comp>
  </station>
  <station code="SCHL" name="SCHL" netid="RO" insttype="CMG40T.1to100/Quanterra" commtype="DIG" lat="45.5007" lon="27.8302">
    <comp name="--.HHZ">
      <acc value="0.0990107158" flag="0"/>
      <vel value="0.0097380403" flag="0"/>
      <psa03 value="0.0259222718" flag="0"/>
      <psa10 value="0.0014949011" flag="0"/>
      <psa30 value="0.0002191900" flag="0"/>
    </comp>
    <comp name="--.HHN">
      <acc value="0.0652009585" flag="0"/>
      <vel value="0.0221370064" flag="0"/>
      <psa03 value="0.0940679389" flag="0"/>
      <psa10 value="0.0049101784" flag="0"/>
      <psa30 value="0.0003415208" flag="0"/>
    </comp>
    <comp name="--.HHE">
      <acc value="0.0614722664" flag="0"/>
      <vel value="0.0120901675" flag="0"/>
      <psa03 value="0.0505119629" flag="0"/>
      <psa10 value="0.0077140022" flag="0"/>
      <psa30 value="0.0007534424" flag="0"/>
    </comp>
  </station>
  <station code="TESR" name="TESR" netid="RO" insttype="330" commtype="DIG" lat="46.5118" lon="26.6489">
    <comp name="--.HHE">
      <acc value="0.0209595368" flag="0"/>
      <vel value="0.0040837413" flag="0"/>
      <psa03 value="0.0177104297" flag="0"/>
      <psa10 value="0.0020565448" flag="0"/>
      <psa30 value="0.0001817309" flag="0"/>
    </comp>
    <comp name="--.HHN">
      <acc value="0.0249900937" flag="0"/>
      <vel value="0.0069479155" flag="0"/>
      <psa03 value="0.0261305116" flag="0"/>
      <psa10 value="0.0023922160" flag="0"/>
      <psa30 value="0.0002360564" flag="0"/>
    </comp>
    <comp name="--.HHZ">
      <acc value="0.0183942535" flag="0"/>
      <vel value="0.0027233728" flag="0"/>
      <psa03 value="0.0060574574" flag="0"/>
      <psa10 value="0.0009691765" flag="0"/>
      <psa30 value="0.0000642694" flag="0"/>
    </comp>
  </station>
  <station code="TUDR" name="TUDR" netid="RO" insttype="CMG40T.1to100/Quanterra" commtype="DIG" lat="45.5939" lon="27.6687">
    <comp name="--.HHZ">
      <acc value="0.2788255965" flag="0"/>
      <vel value="0.0354506424" flag="0"/>
      <psa03 value="0.0590827479" flag="0"/>
      <psa10 value="0.0033917837" flag="0"/>
      <psa30 value="0.0003036646" flag="0"/>
    </comp>
    <comp name="--.HHE">
      <acc value="0.1057952525" flag="0"/>
      <vel value="0.0202625944" flag="0"/>
      <psa03 value="0.0999341453" flag="0"/>
      <psa10 value="0.0037138528" flag="0"/>
      <psa30 value="0.0006058130" flag="0"/>
    </comp>
    <comp name="--.HHN">
      <acc value="0.1943655335" flag="0"/>
      <vel value="0.0523148728" flag="0"/>
      <psa03 value="0.0996142069" flag="0"/>
      <psa10 value="0.0068946750" flag="0"/>
      <psa30 value="0.0006601737" flag="0"/>
    </comp>
  </station>
  <station code="VARL" name="VARL" netid="RO" insttype="MBB2/Quanterra" commtype="DIG" lat="45.8996" lon="27.8487">
    <comp name="--.HHZ">
      <acc value="0.1633776870" flag="0"/>
      <vel value="0.0182345307" flag="0"/>
      <psa03 value="0.0331805698" flag="0"/>
      <psa10 value="0.0025439698" flag="0"/>
      <psa30 value="0.0002374495" flag="0"/>
    </comp>
    <comp name="--.HHE">
      <acc value="0.1368339282" flag="0"/>
      <vel value="0.0242588029" flag="0"/>
      <psa03 value="0.0994033427" flag="0"/>
      <psa10 value="0.0077402223" flag="0"/>
      <psa30 value="0.0005582524" flag="0"/>
    </comp>
    <comp name="--.HHN">
      <acc value="0.1062904804" flag="0"/>
      <vel value="0.0255835701" flag="0"/>
      <psa03 value="0.1001276393" flag="0"/>
      <psa10 value="0.0088050053" flag="0"/>
      <psa30 value="0.0004612547" flag="0"/>
    </comp>
  </station>
  <station code="VRI" name="VRI" netid="RO" insttype="Linear" commtype="DIG" lat="45.8657" lon="26.7277">
    <comp name="--.HHN">
      <acc value="0.0506897493" flag="0"/>
      <vel value="0.0175992989" flag="0"/>
      <psa03 value="0.1068137296" flag="0"/>
      <psa10 value="0.0059800679" flag="0"/>
      <psa30 value="0.0004485914" flag="0"/>
    </comp>
    <comp name="--.HHZ">
      <acc value="0.0226109865" flag="0"/>
      <vel value="0.0044996395" flag="0"/>
      <psa03 value="0.0325133337" flag="0"/>
      <psa10 value="0.0037038939" flag="0"/>
      <psa30 value="0.0001991994" flag="0"/>
    </comp>
    <comp name="--.HHE">
      <acc value="0.0864306120" flag="0"/>
      <vel value="0.0433620735" flag="0"/>
      <psa03 value="0.2941077745" flag="0"/>
      <psa10 value="0.0094451354" flag="0"/>
      <psa30 value="0.0012304864" flag="0"/>
    </comp>
  </station>
</stationlist>
