<?xml version="1.0" encoding="UTF-8" standalone="yes"?>
<!DOCTYPE earthquake SYSTEM "stationlist.dtd">
<stationlist created="" xmlns="ch.ethz.sed.shakemap.usgs.xml">
  <station code="THERA" name="THERA" netid="GE" insttype="STS-2/N" lat="36.367" lon="25.4753">
    <comp name="--.HHN">
      <acc value="0.1447359590" flag="0"/>
      <vel value="0.0339202286" flag="0"/>
      <psa03 value="0.1416241118" flag="0"/>
      <psa10 value="0.0111718337" flag="0"/>
      <psa30 value="0.0013852971" flag="0"/>
    </comp>
    <comp name="--.HHE">
      <acc value="0.1814461862" flag="0"/>
      <vel value="0.0419505780" flag="0"/>
      <psa03 value="0.2094697424" flag="0"/>
      <psa10 value="0.0173503041" flag="0"/>
      <psa30 value="0.0031842544" flag="0"/>
    </comp>
    <comp name="--.HHZ">
      <acc value="0.1978185212" flag="0"/>
      <vel value="0.0522373659" flag="0"/>
      <psa03 value="0.1513900205" flag="0"/>
      <psa10 value="0.0133757064" flag="0"/>
      <psa30 value="0.0016570971" flag="0"/>
    </comp>
  </station>
</stationlist>
