<?xml version="1.0" encoding="UTF-8" standalone="yes"?>
<!DOCTYPE earthquake SYSTEM "stationlist.dtd">
<stationlist created="" xmlns="ch.ethz.sed.shakemap.usgs.xml">
  <station code="APE" name="APE" netid="GE" insttype="STS-2/N" lat="37.0727" lon="25.523">
    <comp name="--.HHE">
      <acc value="0.1370494607" flag="0"/>
      <vel value="0.0236503061" flag="0"/>
      <psa03 value="0.1166211502" flag="0"/>
      <psa10 value="0.0136962905" flag="0"/>
      <psa30 value="0.0018390569" flag="0"/>
    </comp>
    <comp name="--.HHZ">
      <acc value="0.0534990914" flag="0"/>
      <vel value="0.0139966503" flag="0"/>
      <psa03 value="0.0556451610" flag="0"/>
      <psa10 value="0.0071987621" flag="0"/>
      <psa30 value="0.0018828441" flag="0"/>
    </comp>
    <comp name="--.HHN">
      <acc value="0.1246052520" flag="0"/>
      <vel value="0.0335464342" flag="0"/>
      <psa03 value="0.0959640520" flag="0"/>
      <psa10 value="0.0140305674" flag="0"/>
      <psa30 value="0.0020495646" flag="0"/>
    </comp>
  </station>
  <station code="THERA" name="THERA" netid="GE" insttype="STS-2/N" lat="36.367" lon="25.4753">
    <comp name="--.HHN">
      <acc value="0.1447359590" flag="0"/>
      <vel value="0.0339202371" flag="0"/>
      <psa03 value="0.1416241118" flag="0"/>
      <psa10 value="0.0111718337" flag="0"/>
      <psa30 value="0.0013850147" flag="0"/>
    </comp>
    <comp name="--.HHZ">
      <acc value="0.1978185212" flag="0"/>
      <vel value="0.0522373665" flag="0"/>
      <psa03 value="0.1513900205" flag="0"/>
      <psa10 value="0.0133757121" flag="0"/>
      <psa30 value="0.0016571393" flag="0"/>
    </comp>
    <comp name="--.HHE">
      <acc value="0.1814461862" flag="0"/>
      <vel value="0.0419505795" flag="0"/>
      <psa03 value="0.2094697424" flag="0"/>
      <psa10 value="0.0173503033" flag="0"/>
      <psa30 value="0.0031843185" flag="0"/>
    </comp>
  </station>
  <station code="SERI" name="SERI" netid="HA" insttype="30" lat="37.1609" lon="24.4853">
    <comp name="--.HHE">
      <acc value="0.0258688741" flag="0"/>
      <vel value="0.0041356386" flag="0"/>
      <psa03 value="0.0209541718" flag="0"/>
      <psa10 value="0.0020216341" flag="0"/>
      <psa30 value="0.0006527494" flag="0"/>
    </comp>
    <comp name="--.HHN">
      <acc value="0.0220784582" flag="0"/>
      <vel value="0.0061619874" flag="0"/>
      <psa03 value="0.0289809113" flag="0"/>
      <psa10 value="0.0039314950" flag="0"/>
      <psa30 value="0.0006481500" flag="0"/>
    </comp>
    <comp name="--.HHZ">
      <acc value="0.0160319821" flag="0"/>
      <vel value="0.0045038031" flag="0"/>
      <psa03 value="0.0162673249" flag="0"/>
      <psa10 value="0.0032766396" flag="0"/>
      <psa30 value="0.0009692766" flag="0"/>
    </comp>
  </station>
  <station code="SNT1" name="SNT1" netid="HA" insttype="30" lat="36.4159" lon="25.4282">
    <comp name="--.HHN">
      <acc value="0.1315488142" flag="0"/>
      <vel value="0.0415923367" flag="0"/>
      <psa03 value="0.0939052756" flag="0"/>
      <psa10 value="0.0280824354" flag="0"/>
      <psa30 value="0.0039723924" flag="0"/>
    </comp>
    <comp name="--.HHZ">
      <acc value="0.1159968709" flag="0"/>
      <vel value="0.0278142785" flag="0"/>
      <psa03 value="0.0997719645" flag="0"/>
      <psa10 value="0.0142232830" flag="0"/>
      <psa30 value="0.0020377395" flag="0"/>
    </comp>
    <comp name="--.HHE">
      <acc value="0.1211075867" flag="0"/>
      <vel value="0.0274633562" flag="0"/>
      <psa03 value="0.0927966293" flag="0"/>
      <psa10 value="0.0198980896" flag="0"/>
      <psa30 value="0.0035666288" flag="0"/>
    </comp>
  </station>
  <station code="SFR2" name="SFR2" netid="HI" insttype="unknown" lat="36.3998" lon="25.4382">
    <comp name="--.HNE">
      <acc value="0.3440672541" flag="0"/>
      <vel value="0.0732994521" flag="0"/>
      <psa03 value="0.3228653966" flag="0"/>
      <psa10 value="0.0453216656" flag="0"/>
      <psa30 value="0.0047149822" flag="0"/>
    </comp>
    <comp name="--.HNN">
      <acc value="0.4559690277" flag="0"/>
      <vel value="0.0999173043" flag="0"/>
      <psa03 value="0.3401540734" flag="0"/>
      <psa10 value="0.0521284314" flag="0"/>
      <psa30 value="0.0042281961" flag="0"/>
    </comp>
    <comp name="--.HNZ">
      <acc value="0.4833655430" flag="0"/>
      <vel value="0.0921426863" flag="0"/>
      <psa03 value="0.4523374564" flag="0"/>
      <psa10 value="0.0279746308" flag="0"/>
      <psa30 value="0.0027959243" flag="0"/>
    </comp>
  </station>
  <station code="AMGA" name="AMGA" netid="HL" insttype="SMART24" lat="36.8316" lon="25.8938">
    <comp name="--.HHE">
      <acc value="0.4557146414" flag="0"/>
      <vel value="0.0723664339" flag="0"/>
      <psa03 value="0.2950660858" flag="0"/>
      <psa10 value="0.0364002731" flag="0"/>
      <psa30 value="0.0056376090" flag="0"/>
    </comp>
    <comp name="--.HHN">
      <acc value="0.4355822754" flag="0"/>
      <vel value="0.0754739529" flag="0"/>
      <psa03 value="0.2522143914" flag="0"/>
      <psa10 value="0.0557577271" flag="0"/>
      <psa30 value="0.0070236880" flag="0"/>
    </comp>
  </station>
  <station code="ASTA" name="ASTA" netid="HL" insttype="CMG-5" lat="36.5455" lon="26.3529">
    <comp name="00.HNE">
      <acc value="0.0817372029" flag="0"/>
      <vel value="0.0263061125" flag="0"/>
      <psa03 value="0.1056037598" flag="0"/>
      <psa10 value="0.0182106689" flag="0"/>
      <psa30 value="0.0011234297" flag="0"/>
    </comp>
    <comp name="00.HNN">
      <acc value="0.0895720221" flag="0"/>
      <vel value="0.0238256616" flag="0"/>
      <psa03 value="0.1333575783" flag="0"/>
      <psa10 value="0.0111678888" flag="0"/>
      <psa30 value="0.0014380808" flag="0"/>
    </comp>
  </station>
  <station code="KLNA" name="KLNA" netid="HL" insttype="CMG-5" lat="36.9571" lon="26.9727">
    <comp name="00.HNN">
      <acc value="0.0225678221" flag="0"/>
      <vel value="0.0090075090" flag="0"/>
      <psa03 value="0.0573415192" flag="0"/>
      <psa10 value="0.0088791123" flag="0"/>
      <psa30 value="0.0007729280" flag="0"/>
    </comp>
    <comp name="00.HNE">
      <acc value="0.0339271296" flag="0"/>
      <vel value="0.0109907538" flag="0"/>
      <psa03 value="0.0685651862" flag="0"/>
      <psa10 value="0.0050449744" flag="0"/>
      <psa30 value="0.0004897136" flag="0"/>
    </comp>
    <comp name="00.HNZ">
      <acc value="0.0385912576" flag="0"/>
      <vel value="0.0094892392" flag="0"/>
      <psa03 value="0.0442563578" flag="0"/>
      <psa10 value="0.0035588470" flag="0"/>
      <psa30 value="0.0004615184" flag="0"/>
    </comp>
  </station>
  <station code="MHLO" name="MHLO" netid="HL" insttype="20" lat="36.6898" lon="24.4017">
    <comp name="--.HHE">
      <acc value="0.0678286846" flag="0"/>
      <vel value="0.0364023653" flag="0"/>
      <psa03 value="0.1721418227" flag="0"/>
      <psa10 value="0.0357866611" flag="0"/>
      <psa30 value="0.0029825172" flag="0"/>
    </comp>
    <comp name="--.HHZ">
      <acc value="0.0105348469" flag="0"/>
      <vel value="0.0044440294" flag="0"/>
      <psa03 value="0.0214610170" flag="0"/>
      <psa10 value="0.0037347508" flag="0"/>
      <psa30 value="0.0004406611" flag="0"/>
    </comp>
    <comp name="--.HHN">
      <acc value="0.0558635260" flag="0"/>
      <vel value="0.0260208427" flag="0"/>
      <psa03 value="0.1198865540" flag="0"/>
      <psa10 value="0.0481425343" flag="0"/>
      <psa30 value="0.0023147705" flag="0"/>
    </comp>
  </station>
  <station code="MILA" name="MILA" netid="HL" insttype="CMG-5" lat="36.7429" lon="24.4282">
    <comp name="00.HNE">
      <acc value="0.0744436610" flag="0"/>
      <vel value="0.0264182558" flag="0"/>
      <psa03 value="0.1174966022" flag="0"/>
      <psa10 value="0.0192592714" flag="0"/>
      <psa30 value="0.0027175204" flag="0"/>
    </comp>
    <comp name="00.HNN">
      <acc value="0.0665321957" flag="0"/>
      <vel value="0.0288601943" flag="0"/>
      <psa03 value="0.1630056764" flag="0"/>
      <psa10 value="0.0276451957" flag="0"/>
      <psa30 value="0.0019842403" flag="0"/>
    </comp>
    <comp name="00.HNZ">
      <acc value="0.0707925099" flag="0"/>
      <vel value="0.0239810068" flag="0"/>
      <psa03 value="0.1317159781" flag="0"/>
      <psa10 value="0.0187732096" flag="0"/>
      <psa30 value="0.0012150706" flag="0"/>
    </comp>
  </station>
  <station code="SANT" name="SANT" netid="HL" insttype="30" lat="36.3705" lon="25.4593">
    <comp name="--.HHE">
      <acc value="0.6044441978" flag="0"/>
      <vel value="0.1180564364" flag="0"/>
      <psa03 value="0.3657414942" flag="0"/>
      <psa10 value="0.0338516337" flag="0"/>
      <psa30 value="0.0037320740" flag="0"/>
    </comp>
    <comp name="--.HHZ">
      <acc value="0.4617238261" flag="0"/>
      <vel value="0.0675003851" flag="0"/>
      <psa03 value="0.1644744466" flag="0"/>
      <psa10 value="0.0122974935" flag="0"/>
      <psa30 value="0.0014532907" flag="0"/>
    </comp>
    <comp name="--.HHN">
      <acc value="0.6268786443" flag="0"/>
      <vel value="0.0817728738" flag="0"/>
      <psa03 value="0.1413788849" flag="0"/>
      <psa10 value="0.0158672624" flag="0"/>
      <psa30 value="0.0025878512" flag="0"/>
    </comp>
  </station>
  <station code="SAP3" name="SAP3" netid="HL" insttype="65535" lat="36.4356" lon="25.3454">
    <comp name="--.HHE">
      <acc value="0.1471482623" flag="0"/>
      <vel value="0.0445944189" flag="0"/>
      <psa03 value="0.1456538805" flag="0"/>
      <psa10 value="0.0270352557" flag="0"/>
      <psa30 value="0.0042367781" flag="0"/>
    </comp>
    <comp name="--.HHN">
      <acc value="0.1313615315" flag="0"/>
      <vel value="0.0358428889" flag="0"/>
      <psa03 value="0.1580806920" flag="0"/>
      <psa10 value="0.0265426360" flag="0"/>
      <psa30 value="0.0028090353" flag="0"/>
    </comp>
    <comp name="--.HHZ">
      <acc value="0.1836411454" flag="0"/>
      <vel value="0.0326105231" flag="0"/>
      <psa03 value="0.1605890499" flag="0"/>
      <psa10 value="0.0109437156" flag="0"/>
      <psa30 value="0.0018551096" flag="0"/>
    </comp>
  </station>
  <station code="THERA" name="THERA" netid="HL" insttype="120" lat="36.367" lon="25.4753">
    <comp name="--.HHE">
      <acc value="0.1781544416" flag="0"/>
      <vel value="0.0415410103" flag="0"/>
      <psa03 value="0.2036744247" flag="0"/>
      <psa10 value="0.0171728616" flag="0"/>
      <psa30 value="0.0031846470" flag="0"/>
    </comp>
    <comp name="--.HHN">
      <acc value="0.2797767815" flag="0"/>
      <vel value="0.0656352739" flag="0"/>
      <psa03 value="0.2750430969" flag="0"/>
      <psa10 value="0.0221699002" flag="0"/>
      <psa30 value="0.0027669973" flag="0"/>
    </comp>
    <comp name="--.HHZ">
      <acc value="0.1951117825" flag="0"/>
      <vel value="0.0515366379" flag="0"/>
      <psa03 value="0.1464186273" flag="0"/>
      <psa10 value="0.0132139622" flag="0"/>
      <psa30 value="0.0016583270" flag="0"/>
    </comp>
  </station>
  <station code="THRA" name="THRA" netid="HL" insttype="CMG-5" lat="36.415" lon="25.4324">
    <comp name="00.HNN">
      <acc value="0.3521351020" flag="0"/>
      <vel value="0.1047592001" flag="0"/>
      <psa03 value="0.3285815057" flag="0"/>
      <psa10 value="0.0982642674" flag="0"/>
      <psa30 value="0.0071101191" flag="0"/>
    </comp>
    <comp name="00.HNE">
      <acc value="0.4614872516" flag="0"/>
      <vel value="0.1050447789" flag="0"/>
      <psa03 value="0.4433047112" flag="0"/>
      <psa10 value="0.0701549202" flag="0"/>
      <psa30 value="0.0070726916" flag="0"/>
    </comp>
    <comp name="00.HNZ">
      <acc value="0.4474321085" flag="0"/>
      <vel value="0.0940720567" flag="0"/>
      <psa03 value="0.3489056140" flag="0"/>
      <psa10 value="0.0343735734" flag="0"/>
      <psa30 value="0.0036285122" flag="0"/>
    </comp>
  </station>
  <station code="TNSA" name="TNSA" netid="HL" insttype="CMG-5" lat="37.5394" lon="25.1631">
    <comp name="00.HNN">
      <acc value="0.0422165070" flag="0"/>
      <vel value="0.0113682158" flag="0"/>
      <psa03 value="0.0491852517" flag="0"/>
      <psa10 value="0.0061334274" flag="0"/>
      <psa30 value="0.0009356984" flag="0"/>
    </comp>
    <comp name="00.HNE">
      <acc value="0.0285573520" flag="0"/>
      <vel value="0.0089734304" flag="0"/>
      <psa03 value="0.0512158798" flag="0"/>
      <psa10 value="0.0061279840" flag="0"/>
      <psa30 value="0.0006635372" flag="0"/>
    </comp>
    <comp name="00.HNZ">
      <acc value="0.0270648719" flag="0"/>
      <vel value="0.0115536840" flag="0"/>
      <psa03 value="0.0353889733" flag="0"/>
      <psa10 value="0.0049431660" flag="0"/>
      <psa30 value="0.0019335217" flag="0"/>
    </comp>
  </station>
  <station code="AKRO" name="AKRO" netid="HT" insttype="Compact," lat="36.3584" lon="25.3967">
    <comp name="--.HHN">
      <acc value="0.5376314074" flag="0"/>
      <vel value="0.1055552563" flag="0"/>
      <psa03 value="0.3306391779" flag="0"/>
      <psa10 value="0.0652843889" flag="0"/>
      <psa30 value="0.0032438764" flag="0"/>
    </comp>
    <comp name="--.HHE">
      <acc value="0.7975069818" flag="0"/>
      <vel value="0.2167717757" flag="0"/>
      <psa03 value="0.6737666441" flag="0"/>
      <psa10 value="0.0383142348" flag="0"/>
      <psa30 value="0.0037279551" flag="0"/>
    </comp>
    <comp name="--.HHZ">
      <acc value="0.5522787724" flag="0"/>
      <vel value="0.0787448750" flag="0"/>
      <psa03 value="0.2229311421" flag="0"/>
      <psa10 value="0.0188318739" flag="0"/>
      <psa30 value="0.0018378974" flag="0"/>
    </comp>
  </station>
  <station code="CMBO" name="CMBO" netid="HT" insttype="120P," lat="36.4709" lon="25.4056">
    <comp name="--.HHE">
      <acc value="0.2119680141" flag="0"/>
      <vel value="0.0477775149" flag="0"/>
      <psa03 value="0.2011126847" flag="0"/>
      <psa10 value="0.0277440345" flag="0"/>
      <psa30 value="0.0026913272" flag="0"/>
    </comp>
    <comp name="--.HHZ">
      <acc value="0.2161419585" flag="0"/>
      <vel value="0.0490792921" flag="0"/>
      <psa03 value="0.2342858696" flag="0"/>
      <psa10 value="0.0121887767" flag="0"/>
      <psa30 value="0.0023515353" flag="0"/>
    </comp>
    <comp name="--.HHN">
      <acc value="0.2910233760" flag="0"/>
      <vel value="0.0614654448" flag="0"/>
      <psa03 value="0.2596043082" flag="0"/>
      <psa10 value="0.0310335828" flag="0"/>
      <psa30 value="0.0032597571" flag="0"/>
    </comp>
  </station>
</stationlist>
