<stationlist created="1739408571">
	<station code="ABEA" name="ABEA" netid="HC" source="Seismological Network of Crete (HC)" insttype="" lat="35.5163" lon="24.0113">
		<comp name=".HNE" depth="0.0">
			<acc value="0.002640767001783" flag="0"/>
			<vel value="0.00318854144185" flag="0"/>
			<psa03 value="0.00693987639942303" flag="0"/>
			<psa10 value="0.00413659949817469" flag="0"/>
			<psa30 value="0.000728936413461766" flag="0"/>
		</comp>
		<comp name=".HNN" depth="0.0">
			<acc value="0.0023074044197568" flag="0"/>
			<vel value="0.00214874154828" flag="0"/>
			<psa03 value="0.0066721086611012" flag="0"/>
			<psa10 value="0.00291989819455005" flag="0"/>
			<psa30 value="0.000936150557045198" flag="0"/>
		</comp>
		<comp name=".HNZ" depth="0.0">
			<acc value="0.0016508738555796" flag="0"/>
			<vel value="0.00183313107937" flag="0"/>
			<psa03 value="0.00364436642139001" flag="0"/>
			<psa10 value="0.00334267401387528" flag="0"/>
			<psa30 value="0.00068052101867618" flag="0"/>
		</comp>
	</station>
	<station code="ATEI" name="ATEI" netid="HC" source="Seismological Network of Crete (HC)" insttype="" lat="35.5193" lon="24.0432">
		<comp name=".HNE" depth="0.0">
			<acc value="0.006339077369343" flag="0"/>
			<vel value="0.00372469095584" flag="0"/>
			<psa03 value="0.0189946697620043" flag="0"/>
			<psa10 value="0.00669016522186969" flag="0"/>
			<psa30 value="0.000945933809305447" flag="0"/>
		</comp>
		<comp name=".HNN" depth="0.0">
			<acc value="0.0054369553872576" flag="0"/>
			<vel value="0.00370643234598" flag="0"/>
			<psa03 value="0.0132191009609755" flag="0"/>
			<psa10 value="0.00632861548970674" flag="0"/>
			<psa30 value="0.0008912914395153" flag="0"/>
		</comp>
		<comp name=".HNZ" depth="0.0">
			<acc value="0.0048446578694784" flag="0"/>
			<vel value="0.00249461860871" flag="0"/>
			<psa03 value="0.0127000926208779" flag="0"/>
			<psa10 value="0.00305731737602007" flag="0"/>
			<psa30 value="0.000963559976954234" flag="0"/>
		</comp>
	</station>
	<station code="G0LD" name="G0LD" netid="HC" source="Seismological Network of Crete (HC)" insttype="" lat="35.4955" lon="24.0306">
		<comp name=".HNE" depth="0.0">
			<acc value="0.016546275952584" flag="0"/>
			<vel value="0.0114478116657" flag="0"/>
			<psa03 value="0.0393301679305838" flag="0"/>
			<psa10 value="0.0263439070295379" flag="0"/>
			<psa30 value="0.00201509036484534" flag="0"/>
		</comp>
		<comp name=".HNN" depth="0.0">
			<acc value="0.01296017841642" flag="0"/>
			<vel value="0.0102487093616" flag="0"/>
			<psa03 value="0.0315713909288772" flag="0"/>
			<psa10 value="0.0228977343625188" flag="0"/>
			<psa30 value="0.00152935995842614" flag="0"/>
		</comp>
		<comp name=".HNZ" depth="0.0">
			<acc value="0.009681554197836" flag="0"/>
			<vel value="0.00761172528936" flag="0"/>
			<psa03 value="0.030594571010994" flag="0"/>
			<psa10 value="0.00911735554254058" flag="0"/>
			<psa30 value="0.00168300263649636" flag="0"/>
		</comp>
	</station>
	<station code="PASK" name="PASK" netid="HC" source="Seismological Network of Crete (HC)" insttype="" lat="35.4996" lon="24.0121">
		<comp name=".HNE" depth="0.0">
			<acc value="0.0111663722403" flag="0"/>
			<vel value="0.00663164843615" flag="0"/>
			<psa03 value="0.0222812728999861" flag="0"/>
			<psa10 value="0.0119592300527803" flag="0"/>
			<psa30 value="0.000889337247561599" flag="0"/>
		</comp>
		<comp name=".HNN" depth="0.0">
			<acc value="0.009812497661787" flag="0"/>
			<vel value="0.00645091756458" flag="0"/>
			<psa03 value="0.0216454560406679" flag="0"/>
			<psa10 value="0.0155825663310347" flag="0"/>
			<psa30 value="0.00126021942085306" flag="0"/>
		</comp>
		<comp name=".HNZ" depth="0.0">
			<acc value="0.005807289211002" flag="0"/>
			<vel value="0.00321059594844" flag="0"/>
			<psa03 value="0.019363491069595" flag="0"/>
			<psa10 value="0.00453983933582822" flag="0"/>
			<psa30 value="0.000778955091535344" flag="0"/>
		</comp>
	</station>
	<station code="POLY" name="POLY" netid="HC" source="Seismological Network of Crete (HC)" insttype="" lat="35.5226" lon="24.0602">
		<comp name=".HNE" depth="0.0">
			<acc value="0.0058187264586906" flag="0"/>
			<vel value="0.00405425514971" flag="0"/>
			<psa03 value="0.0182033373921592" flag="0"/>
			<psa10 value="0.00501009048767452" flag="0"/>
			<psa30 value="0.00133624987416103" flag="0"/>
		</comp>
		<comp name=".HNN" depth="0.0">
			<acc value="0.005621281229427" flag="0"/>
			<vel value="0.00505352841392" flag="0"/>
			<psa03 value="0.0142435125732177" flag="0"/>
			<psa10 value="0.00495883771741385" flag="0"/>
			<psa30 value="0.00145181482143944" flag="0"/>
		</comp>
		<comp name=".HNZ" depth="0.0">
			<acc value="0.0045071435396424" flag="0"/>
			<vel value="0.00279940495753" flag="0"/>
			<psa03 value="0.00887996390505426" flag="0"/>
			<psa10 value="0.00206724452292748" flag="0"/>
			<psa30 value="0.000695553941617579" flag="0"/>
		</comp>
	</station>
	<station code="ARK1" name="ARK1" netid="HI" source="ITSAK Strong Motion Network" insttype="" lat="35.148777" lon="25.264194">
		<comp name=".HNE" depth="0.0">
			<acc value="0.023733325264818" flag="0"/>
			<vel value="0.00902956314021" flag="0"/>
			<psa03 value="0.0498151489675808" flag="0"/>
			<psa10 value="0.00893007469861101" flag="0"/>
			<psa30 value="0.0012578411383011" flag="0"/>
		</comp>
		<comp name=".HNN" depth="0.0">
			<acc value="0.01963764754464" flag="0"/>
			<vel value="0.00891989964336" flag="0"/>
			<psa03 value="0.0395292514314241" flag="0"/>
			<psa10 value="0.0109236617639914" flag="0"/>
			<psa30 value="0.000795491447405483" flag="0"/>
		</comp>
		<comp name=".HNZ" depth="0.0">
			<acc value="0.01337626819707" flag="0"/>
			<vel value="0.00594953877946" flag="0"/>
			<psa03 value="0.0371352933642494" flag="0"/>
			<psa10 value="0.00897914576183536" flag="0"/>
			<psa30 value="0.00070652315785759" flag="0"/>
		</comp>
	</station>
	<station code="CH01" name="CH01" netid="HI" source="ITSAK Strong Motion Network" insttype="" lat="35.517" lon="24.0208">
		<comp name=".HNE" depth="0.0">
			<acc value="0.0060323337838656" flag="0"/>
			<vel value="0.00412198193438" flag="0"/>
			<psa03 value="0.0142605540667079" flag="0"/>
			<psa10 value="0.00670884802198898" flag="0"/>
			<psa30 value="0.000891343109605191" flag="0"/>
		</comp>
		<comp name=".HNN" depth="0.0">
			<acc value="0.008618767608453" flag="0"/>
			<vel value="0.00538509876227" flag="0"/>
			<psa03 value="0.0207998857028319" flag="0"/>
			<psa10 value="0.00708207509023138" flag="0"/>
			<psa30 value="0.00109822952315147" flag="0"/>
		</comp>
		<comp name=".HNZ" depth="0.0">
			<acc value="0.00397707810105" flag="0"/>
			<vel value="0.00227994677819" flag="0"/>
			<psa03 value="0.00832788957244885" flag="0"/>
			<psa10 value="0.00503341843928653" flag="0"/>
			<psa30 value="0.000549067883467892" flag="0"/>
		</comp>
	</station>
	<station code="CH02" name="CH02" netid="HI" source="ITSAK Strong Motion Network" insttype="" lat="35.5145" lon="24.0315">
		<comp name=".HNE" depth="0.0">
			<acc value="0.007139258834901" flag="0"/>
			<vel value="0.00429810607746" flag="0"/>
			<psa03 value="0.0191636418930462" flag="0"/>
			<psa10 value="0.00648460051046242" flag="0"/>
			<psa30 value="0.000690851859295534" flag="0"/>
		</comp>
		<comp name=".HNN" depth="0.0">
			<acc value="0.0077241957901344" flag="0"/>
			<vel value="0.00469917196483" flag="0"/>
			<psa03 value="0.0245567283252258" flag="0"/>
			<psa10 value="0.00932579341304069" flag="0"/>
			<psa30 value="0.000937408869571267" flag="0"/>
		</comp>
		<comp name=".HNZ" depth="0.0">
			<acc value="0.0050030978643444" flag="0"/>
			<vel value="0.00198670975918" flag="0"/>
			<psa03 value="0.00879158500351139" flag="0"/>
			<psa10 value="0.00438128680126814" flag="0"/>
			<psa30 value="0.00040740362911591" flag="0"/>
		</comp>
	</station>
	<station code="CH03" name="CH03" netid="HI" source="ITSAK Strong Motion Network" insttype="" lat="35.53303" lon="24.0705">
		<comp name=".HNE" depth="0.0">
			<acc value="0.0053480785336944" flag="0"/>
			<vel value="0.00365721390421" flag="0"/>
			<psa03 value="0.0211153115461911" flag="0"/>
			<psa10 value="0.00576495174350258" flag="0"/>
			<psa30 value="0.000471968453095376" flag="0"/>
		</comp>
		<comp name=".HNN" depth="0.0">
			<acc value="0.0056449087387944" flag="0"/>
			<vel value="0.00348983424879" flag="0"/>
			<psa03 value="0.0194032384943397" flag="0"/>
			<psa10 value="0.00658772812339443" flag="0"/>
			<psa30 value="0.000668693672675793" flag="0"/>
		</comp>
		<comp name=".HNZ" depth="0.0">
			<acc value="0.0041441168572188" flag="0"/>
			<vel value="0.00202431779725" flag="0"/>
			<psa03 value="0.00934771819876739" flag="0"/>
			<psa10 value="0.00194301332447041" flag="0"/>
			<psa30 value="0.000362773589261555" flag="0"/>
		</comp>
	</station>
	<station code="GOR1" name="GOR1" netid="HI" source="ITSAK Strong Motion Network" insttype="" lat="35.0582" lon="24.9628">
		<comp name=".HNE" depth="0.0">
			<acc value="0.0095541116863926" flag="0"/>
			<vel value="0.0059148784972" flag="0"/>
			<psa03 value="0.0288432258263399" flag="0"/>
			<psa10 value="0.00794566729896825" flag="0"/>
			<psa30 value="0.000844884042336725" flag="0"/>
		</comp>
		<comp name=".HNN" depth="0.0">
			<acc value="0.007614240115494" flag="0"/>
			<vel value="0.00467348794032" flag="0"/>
			<psa03 value="0.0179758327377929" flag="0"/>
			<psa10 value="0.00620375331197125" flag="0"/>
			<psa30 value="0.00115730968691936" flag="0"/>
		</comp>
		<comp name=".HNZ" depth="0.0">
			<acc value="0.0073751616014736" flag="0"/>
			<vel value="0.00361668670689" flag="0"/>
			<psa03 value="0.013763825848432" flag="0"/>
			<psa10 value="0.00645881333343196" flag="0"/>
			<psa30 value="0.000437019523315098" flag="0"/>
		</comp>
	</station>
	<station code="HER3" name="HER3" netid="HI" source="ITSAK Strong Motion Network" insttype="" lat="35.3296" lon="25.1065">
		<comp name=".HNE" depth="0.0">
			<acc value="0.051200116690782" flag="0"/>
			<vel value="0.0228922535722" flag="0"/>
			<psa03 value="0.108279100042488" flag="0"/>
			<psa10 value="0.0501241592295123" flag="0"/>
			<psa30 value="0.0026165520837359" flag="0"/>
		</comp>
		<comp name=".HNN" depth="0.0">
			<acc value="0.05618360039136" flag="0"/>
			<vel value="0.0210965664849" flag="0"/>
			<psa03 value="0.141523510654793" flag="0"/>
			<psa10 value="0.0344508922025327" flag="0"/>
			<psa30 value="0.00151441803109733" flag="0"/>
		</comp>
		<comp name=".HNZ" depth="0.0">
			<acc value="0.029418884581956" flag="0"/>
			<vel value="0.0103354230532" flag="0"/>
			<psa03 value="0.0577434241768234" flag="0"/>
			<psa10 value="0.0143891378972616" flag="0"/>
			<psa30 value="0.000630644693780764" flag="0"/>
		</comp>
	</station>
	<station code="KIS1" name="KIS1" netid="HI" source="ITSAK Strong Motion Network" insttype="" lat="35.493933" lon="23.658993">
		<comp name=".HNE" depth="0.0">
			<acc value="0.0042357207772536" flag="0"/>
			<vel value="0.00344426479729" flag="0"/>
			<psa03 value="0.00999674621976774" flag="0"/>
			<psa10 value="0.0044432001214329" flag="0"/>
			<psa30 value="0.000608982008737118" flag="0"/>
		</comp>
		<comp name=".HNN" depth="0.0">
			<acc value="0.004856100326103" flag="0"/>
			<vel value="0.00411111764177" flag="0"/>
			<psa03 value="0.0111875757574096" flag="0"/>
			<psa10 value="0.00688367991626265" flag="0"/>
			<psa30 value="0.000666222779823181" flag="0"/>
		</comp>
		<comp name=".HNZ" depth="0.0">
			<acc value="0.0020504486965326" flag="0"/>
			<vel value="0.00184673444792" flag="0"/>
			<psa03 value="0.00796656225086886" flag="0"/>
			<psa10 value="0.00201080304958438" flag="0"/>
			<psa30 value="0.000402261856206936" flag="0"/>
		</comp>
	</station>
	<station code="KRL1" name="KRL1" netid="HI" source="ITSAK Strong Motion Network" insttype="" lat="37.7951" lon="26.7065">
		<comp name=".HNE" depth="0.0">
			<acc value="0.019016265323622" flag="0"/>
			<vel value="0.00881672312368" flag="0"/>
			<psa03 value="0.0717041823419198" flag="0"/>
			<psa10 value="0.00814847323386589" flag="0"/>
			<psa30 value="0.000606697326138688" flag="0"/>
		</comp>
		<comp name=".HNN" depth="0.0">
			<acc value="0.01342973641296" flag="0"/>
			<vel value="0.0064753430471" flag="0"/>
			<psa03 value="0.0310539269619235" flag="0"/>
			<psa10 value="0.0104507535611451" flag="0"/>
			<psa30 value="0.00062281844616619" flag="0"/>
		</comp>
		<comp name=".HNZ" depth="0.0">
			<acc value="0.0066477790284612" flag="0"/>
			<vel value="0.00321556279242" flag="0"/>
			<psa03 value="0.0235889298383281" flag="0"/>
			<psa10 value="0.00429656306371388" flag="0"/>
			<psa30 value="0.000501512233139702" flag="0"/>
		</comp>
	</station>
	<station code="KTL1" name="KTL1" netid="HI" source="ITSAK Strong Motion Network" insttype="" lat="35.20778" lon="25.34272">
		<comp name=".HNE" depth="0.0">
			<acc value="0.015543406027506" flag="0"/>
			<vel value="0.00698915977984" flag="0"/>
			<psa03 value="0.0411214402394494" flag="0"/>
			<psa10 value="0.00835091445710471" flag="0"/>
			<psa30 value="0.00107048143497511" flag="0"/>
		</comp>
		<comp name=".HNN" depth="0.0">
			<acc value="0.019440027991746" flag="0"/>
			<vel value="0.0090747217247" flag="0"/>
			<psa03 value="0.0449439043962225" flag="0"/>
			<psa10 value="0.0096752274988218" flag="0"/>
			<psa30 value="0.00054938977979244" flag="0"/>
		</comp>
		<comp name=".HNZ" depth="0.0">
			<acc value="0.0094268374352304" flag="0"/>
			<vel value="0.00427181208313" flag="0"/>
			<psa03 value="0.0202693375358001" flag="0"/>
			<psa10 value="0.00787926071235522" flag="0"/>
			<psa30 value="0.000471064330700036" flag="0"/>
		</comp>
	</station>
	<station code="NAX1" name="NAX1" netid="HI" source="ITSAK Strong Motion Network" insttype="" lat="37.101394" lon="25.374103">
		<comp name=".HNE" depth="0.0">
			<acc value="0.10359467525016" flag="0"/>
			<vel value="0.0315952927469" flag="0"/>
			<psa03 value="0.135930192208345" flag="0"/>
			<psa10 value="0.0112975399690701" flag="0"/>
			<psa30 value="0.0010279138234136" flag="0"/>
		</comp>
		<comp name=".HNN" depth="0.0">
			<acc value="0.074746677030546" flag="0"/>
			<vel value="0.0224313221458" flag="0"/>
			<psa03 value="0.0723884776731122" flag="0"/>
			<psa10 value="0.00939959642713966" flag="0"/>
			<psa30 value="0.00162159044324243" flag="0"/>
		</comp>
		<comp name=".HNZ" depth="0.0">
			<acc value="0.05099305165443" flag="0"/>
			<vel value="0.0115509489182" flag="0"/>
			<psa03 value="0.0601057160838173" flag="0"/>
			<psa10 value="0.0073757828281742" flag="0"/>
			<psa30 value="0.0020585274090061" flag="0"/>
		</comp>
	</station>
	<station code="RTH1" name="RTH1" netid="HI" source="ITSAK Strong Motion Network" insttype="" lat="35.365393" lon="24.471773">
		<comp name=".HNE" depth="0.0">
			<acc value="0.0100950355950732" flag="0"/>
			<vel value="0.00414197727413" flag="0"/>
			<psa03 value="0.0244766162473765" flag="0"/>
			<psa10 value="0.00225457997985797" flag="0"/>
			<psa30 value="0.000638303013607666" flag="0"/>
		</comp>
		<comp name=".HNN" depth="0.0">
			<acc value="0.0095801605463526" flag="0"/>
			<vel value="0.00442844050197" flag="0"/>
			<psa03 value="0.0221030032780069" flag="0"/>
			<psa10 value="0.00314225487771601" flag="0"/>
			<psa30 value="0.000722078719588264" flag="0"/>
		</comp>
		<comp name=".HNZ" depth="0.0">
			<acc value="0.0068374603288554" flag="0"/>
			<vel value="0.00235065090565" flag="0"/>
			<psa03 value="0.0098509611715853" flag="0"/>
			<psa10 value="0.00241001863628096" flag="0"/>
			<psa30 value="0.000491517300193516" flag="0"/>
		</comp>
	</station>
	<station code="SFR2" name="SFR2" netid="HI" source="ITSAK Strong Motion Network" insttype="" lat="36.399841" lon="25.438209">
		<comp name=".HNE" depth="0.0">
			<acc value="0.34553907807264" flag="0"/>
			<vel value="0.0755518589142" flag="0"/>
			<psa03 value="0.320742705963643" flag="0"/>
			<psa10 value="0.045340769853466" flag="0"/>
			<psa30 value="0.00541653673563293" flag="0"/>
		</comp>
		<comp name=".HNN" depth="0.0">
			<acc value="0.4512731751351" flag="0"/>
			<vel value="0.10131016154" flag="0"/>
			<psa03 value="0.345126633779106" flag="0"/>
			<psa10 value="0.0521774277486877" flag="0"/>
			<psa30 value="0.00477989872814477" flag="0"/>
		</comp>
		<comp name=".HNZ" depth="0.0">
			<acc value="0.48317988900366" flag="0"/>
			<vel value="0.0919806658292" flag="0"/>
			<psa03 value="0.46484104343763" flag="0"/>
			<psa10 value="0.0281438218900835" flag="0"/>
			<psa30 value="0.00295780573178065" flag="0"/>
		</comp>
	</station>
	<station code="AMGA" name="AMGA" netid="HL" source="National Observatory of Athens Seismic Network" insttype="" lat="36.831561" lon="25.893836">
		<comp name="00.HNE" depth="0.0">
			<acc value="0.25934776465332" flag="0"/>
			<vel value="0.0452361797371" flag="0"/>
			<psa03 value="0.172637436382733" flag="0"/>
			<psa10 value="0.0235313988396706" flag="0"/>
			<psa30 value="0.00372573931194642" flag="0"/>
		</comp>
		<comp name="00.HNN" depth="0.0">
			<acc value="0.25028929862538" flag="0"/>
			<vel value="0.0461249538324" flag="0"/>
			<psa03 value="0.149244501299002" flag="0"/>
			<psa10 value="0.0329840200294305" flag="0"/>
			<psa30 value="0.00491335631908646" flag="0"/>
		</comp>
		<comp name="00.HNZ" depth="0.0">
			<acc value="0.19283477209464" flag="0"/>
			<vel value="0.0425800411189" flag="0"/>
			<psa03 value="0.100348199658992" flag="0"/>
			<psa10 value="0.0252778051555161" flag="0"/>
			<psa30 value="0.00356069004490674" flag="0"/>
		</comp>
	</station>
	<station code="ANAF" name="ANAF" netid="HL" source="National Observatory of Athens Seismic Network" insttype="" lat="36.35675" lon="25.77262">
		<comp name=".HNE" depth="0.0">
			<acc value="1.8474574392006" flag="0"/>
			<vel value="0.444100240612" flag="0"/>
			<psa03 value="2.24103012391366" flag="0"/>
			<psa10 value="0.148873252122146" flag="0"/>
			<psa30 value="0.0106708418909201" flag="0"/>
		</comp>
		<comp name=".HNN" depth="0.0">
			<acc value="2.549278277937" flag="0"/>
			<vel value="0.589153229581" flag="0"/>
			<psa03 value="3.11808055753599" flag="0"/>
			<psa10 value="0.137123453755652" flag="0"/>
			<psa30 value="0.0129558040917663" flag="0"/>
		</comp>
		<comp name=".HNZ" depth="0.0">
			<acc value="1.330838497347" flag="0"/>
			<vel value="0.271756710416" flag="0"/>
			<psa03 value="1.48569692013144" flag="0"/>
			<psa10 value="0.0910897542493558" flag="0"/>
			<psa30 value="0.00751388442465331" flag="0"/>
		</comp>
	</station>
	<station code="ASTA" name="ASTA" netid="HL" source="National Observatory of Athens Seismic Network" insttype="" lat="36.54552" lon="26.35295">
		<comp name="00.HNE" depth="0.0">
			<acc value="0.081626735745198" flag="0"/>
			<vel value="0.025666513943" flag="0"/>
			<psa03 value="0.105654436588048" flag="0"/>
			<psa10 value="0.0182496145723982" flag="0"/>
			<psa30 value="0.00130033666175622" flag="0"/>
		</comp>
		<comp name="00.HNN" depth="0.0">
			<acc value="0.088617314675604" flag="0"/>
			<vel value="0.0235702761749" flag="0"/>
			<psa03 value="0.13341281711083" flag="0"/>
			<psa10 value="0.0111690339561845" flag="0"/>
			<psa30 value="0.00157378092192924" flag="0"/>
		</comp>
		<comp name="00.HNZ" depth="0.0">
			<acc value="0.056991183586878" flag="0"/>
			<vel value="0.0170328770316" flag="0"/>
			<psa03 value="0.0734970771539786" flag="0"/>
			<psa10 value="0.00767273031198772" flag="0"/>
			<psa30 value="0.00174479568831668" flag="0"/>
		</comp>
	</station>
	<station code="CHNB" name="CHNB" netid="HL" source="National Observatory of Athens Seismic Network" insttype="" lat="35.48765" lon="24.06605">
		<comp name="00.HNE" depth="0.0">
			<acc value="0.012710729574762" flag="0"/>
			<vel value="0.00899271212508" flag="0"/>
			<psa03 value="0.0276499071914674" flag="0"/>
			<psa10 value="0.0149634256285084" flag="0"/>
			<psa30 value="0.000819595960876176" flag="0"/>
		</comp>
		<comp name="00.HNN" depth="0.0">
