<?xml version="1.0" encoding="UTF-8" standalone="yes"?>
<!DOCTYPE earthquake SYSTEM "stationlist.dtd">
<stationlist created="" xmlns="ch.ethz.sed.shakemap.usgs.xml">
  <station code="THERA" name="THERA" netid="GE" insttype="STS-2/N" lat="36.367" lon="25.4753">
    <comp name="--.HHN">
      <acc value="0.1447359590" flag="0"/>
      <vel value="0.0339202286" flag="0"/>
      <psa03 value="0.1416241118" flag="0"/>
      <psa10 value="0.0111718337" flag="0"/>
      <psa30 value="0.0013852971" flag="0"/>
    </comp>
    <comp name="--.HHE">
      <acc value="0.1814461862" flag="0"/>
      <vel value="0.0419505780" flag="0"/>
      <psa03 value="0.2094697424" flag="0"/>
      <psa10 value="0.0173503041" flag="0"/>
      <psa30 value="0.0031842544" flag="0"/>
    </comp>
    <comp name="--.HHZ">
      <acc value="0.1978185212" flag="0"/>
      <vel value="0.0522373659" flag="0"/>
      <psa03 value="0.1513900205" flag="0"/>
      <psa10 value="0.0133757064" flag="0"/>
      <psa30 value="0.0016570971" flag="0"/>
    </comp>
  </station>
  <station code="SERI" name="SERI" netid="HA" insttype="30" lat="37.1609" lon="24.4853">
    <comp name="--.HHE">
      <acc value="0.0258688741" flag="0"/>
      <vel value="0.0041356488" flag="0"/>
      <psa03 value="0.0209541718" flag="0"/>
      <psa10 value="0.0020216341" flag="0"/>
      <psa30 value="0.0006527644" flag="0"/>
    </comp>
    <comp name="--.HHN">
      <acc value="0.0220784579" flag="0"/>
      <vel value="0.0061619943" flag="0"/>
      <psa03 value="0.0289809113" flag="0"/>
      <psa10 value="0.0039314950" flag="0"/>
      <psa30 value="0.0006483084" flag="0"/>
    </comp>
    <comp name="--.HHZ">
      <acc value="0.0160319825" flag="0"/>
      <vel value="0.0045039481" flag="0"/>
      <psa03 value="0.0162673251" flag="0"/>
      <psa10 value="0.0032766393" flag="0"/>
      <psa30 value="0.0009697819" flag="0"/>
    </comp>
  </station>
  <station code="SNT1" name="SNT1" netid="HA" insttype="30" lat="36.4159" lon="25.4282">
    <comp name="--.HHE">
      <acc value="0.1211075868" flag="0"/>
      <vel value="0.0274633934" flag="0"/>
      <psa03 value="0.0927966293" flag="0"/>
      <psa10 value="0.0198980831" flag="0"/>
      <psa30 value="0.0035665042" flag="0"/>
    </comp>
    <comp name="--.HHZ">
      <acc value="0.1159968711" flag="0"/>
      <vel value="0.0278143079" flag="0"/>
      <psa03 value="0.0997719646" flag="0"/>
      <psa10 value="0.0142232753" flag="0"/>
      <psa30 value="0.0020377156" flag="0"/>
    </comp>
    <comp name="--.HHN">
      <acc value="0.1315488139" flag="0"/>
      <vel value="0.0415923439" flag="0"/>
      <psa03 value="0.0939052756" flag="0"/>
      <psa10 value="0.0280824579" flag="0"/>
      <psa30 value="0.0039730206" flag="0"/>
    </comp>
  </station>
  <station code="SFR2" name="SFR2" netid="HI" insttype="unknown" lat="36.3998" lon="25.4382">
    <comp name="--.HNZ">
      <acc value="0.4833655437" flag="0"/>
      <vel value="0.0921426814" flag="0"/>
      <psa03 value="0.4523374564" flag="0"/>
      <psa10 value="0.0279746277" flag="0"/>
      <psa30 value="0.0027960449" flag="0"/>
    </comp>
    <comp name="--.HNN">
      <acc value="0.4559690273" flag="0"/>
      <vel value="0.0999172901" flag="0"/>
      <psa03 value="0.3401540734" flag="0"/>
      <psa10 value="0.0521284324" flag="0"/>
      <psa30 value="0.0042289802" flag="0"/>
    </comp>
  </station>
  <station code="AMGA" name="AMGA" netid="HL" insttype="CMG-5TD" lat="36.8316" lon="25.8938">
    <comp name="00.HNE">
      <acc value="0.2631413587" flag="0"/>
      <vel value="0.0450560840" flag="0"/>
      <psa03 value="0.1727349994" flag="0"/>
      <psa10 value="0.0235825011" flag="0"/>
      <psa30 value="0.0032088048" flag="0"/>
    </comp>
    <comp name="00.HNN">
      <acc value="0.2561139880" flag="0"/>
      <vel value="0.0462600994" flag="0"/>
      <psa03 value="0.1486797333" flag="0"/>
      <psa10 value="0.0328365734" flag="0"/>
      <psa30 value="0.0043643757" flag="0"/>
    </comp>
    <comp name="00.HNZ">
      <acc value="0.1869588756" flag="0"/>
      <vel value="0.0408039582" flag="0"/>
      <psa03 value="0.0996267343" flag="0"/>
      <psa10 value="0.0251862275" flag="0"/>
      <psa30 value="0.0028512155" flag="0"/>
    </comp>
  </station>
  <station code="APE" name="APE" netid="HL" insttype="120" lat="37.0727" lon="25.523">
    <comp name="--.HHE">
      <acc value="0.1260980209" flag="0"/>
      <vel value="0.0220242649" flag="0"/>
      <psa03 value="0.1133584562" flag="0"/>
      <psa10 value="0.0135465033" flag="0"/>
      <psa30 value="0.0018329603" flag="0"/>
    </comp>
    <comp name="--.HHZ">
      <acc value="0.0489300530" flag="0"/>
      <vel value="0.0134090639" flag="0"/>
      <psa03 value="0.0539739880" flag="0"/>
      <psa10 value="0.0071727730" flag="0"/>
      <psa30 value="0.0018785554" flag="0"/>
    </comp>
    <comp name="--.HHN">
      <acc value="0.1207127913" flag="0"/>
      <vel value="0.0326317498" flag="0"/>
      <psa03 value="0.0939797290" flag="0"/>
      <psa10 value="0.0138888468" flag="0"/>
      <psa30 value="0.0020443574" flag="0"/>
    </comp>
  </station>
  <station code="ASTA" name="ASTA" netid="HL" insttype="CMG-5" lat="36.5455" lon="26.3529">
    <comp name="00.HNN">
      <acc value="0.0895720213" flag="0"/>
      <vel value="0.0238256584" flag="0"/>
      <psa03 value="0.1333575783" flag="0"/>
      <psa10 value="0.0111678899" flag="0"/>
      <psa30 value="0.0014382293" flag="0"/>
    </comp>
    <comp name="00.HNZ">
      <acc value="0.0568360315" flag="0"/>
      <vel value="0.0164729787" flag="0"/>
      <psa03 value="0.0732589110" flag="0"/>
      <psa10 value="0.0076761552" flag="0"/>
      <psa30 value="0.0015889999" flag="0"/>
    </comp>
    <comp name="00.HNE">
      <acc value="0.0817372039" flag="0"/>
      <vel value="0.0263061107" flag="0"/>
      <psa03 value="0.1056037598" flag="0"/>
      <psa10 value="0.0182106675" flag="0"/>
      <psa30 value="0.0011234241" flag="0"/>
    </comp>
  </station>
  <station code="MHLO" name="MHLO" netid="HL" insttype="20" lat="36.6898" lon="24.4017">
    <comp name="--.HHE">
      <acc value="0.0678286845" flag="0"/>
      <vel value="0.0364023676" flag="0"/>
      <psa03 value="0.1721418227" flag="0"/>
      <psa10 value="0.0357866609" flag="0"/>
      <psa30 value="0.0029826883" flag="0"/>
    </comp>
    <comp name="--.HHZ">
      <acc value="0.0105348471" flag="0"/>
      <vel value="0.0044440138" flag="0"/>
      <psa03 value="0.0214610170" flag="0"/>
      <psa10 value="0.0037347763" flag="0"/>
      <psa30 value="0.0004407244" flag="0"/>
    </comp>
  </station>
  <station code="MILA" name="MILA" netid="HL" insttype="CMG-5" lat="36.7429" lon="24.4282">
    <comp name="00.HNE">
      <acc value="0.0744436599" flag="0"/>
      <vel value="0.0264182771" flag="0"/>
      <psa03 value="0.1174966022" flag="0"/>
      <psa10 value="0.0192592714" flag="0"/>
      <psa30 value="0.0027180641" flag="0"/>
    </comp>
    <comp name="00.HNZ">
      <acc value="0.0707925083" flag="0"/>
      <vel value="0.0239810043" flag="0"/>
      <psa03 value="0.1317159781" flag="0"/>
      <psa10 value="0.0187732096" flag="0"/>
      <psa30 value="0.0012140211" flag="0"/>
    </comp>
  </station>
  <station code="SANT" name="SANT" netid="HL" insttype="30" lat="36.3705" lon="25.4593">
    <comp name="--.HHN">
      <acc value="0.6268786446" flag="0"/>
      <vel value="0.0817728766" flag="0"/>
      <psa03 value="0.1413788849" flag="0"/>
      <psa10 value="0.0158672370" flag="0"/>
      <psa30 value="0.0025876323" flag="0"/>
    </comp>
    <comp name="--.HHZ">
      <acc value="0.4617238260" flag="0"/>
      <vel value="0.0675004861" flag="0"/>
      <psa03 value="0.1644744468" flag="0"/>
      <psa10 value="0.0122974937" flag="0"/>
      <psa30 value="0.0014534591" flag="0"/>
    </comp>
    <comp name="--.HHE">
      <acc value="0.6044441980" flag="0"/>
      <vel value="0.1180564364" flag="0"/>
      <psa03 value="0.3657414942" flag="0"/>
      <psa10 value="0.0338516221" flag="0"/>
      <psa30 value="0.0037330506" flag="0"/>
    </comp>
  </station>
  <station code="SAP3" name="SAP3" netid="HL" insttype="65535" lat="36.4356" lon="25.3454">
    <comp name="--.HHE">
      <acc value="0.1471482623" flag="0"/>
      <vel value="0.0445944238" flag="0"/>
      <psa03 value="0.1456538805" flag="0"/>
      <psa10 value="0.0270352557" flag="0"/>
      <psa30 value="0.0042366717" flag="0"/>
    </comp>
    <comp name="--.HHN">
      <acc value="0.1313615317" flag="0"/>
      <vel value="0.0358428839" flag="0"/>
      <psa03 value="0.1580806920" flag="0"/>
      <psa10 value="0.0265426098" flag="0"/>
      <psa30 value="0.0028090218" flag="0"/>
    </comp>
    <comp name="--.HHZ">
      <acc value="0.1836411453" flag="0"/>
      <vel value="0.0326105183" flag="0"/>
      <psa03 value="0.1605890499" flag="0"/>
      <psa10 value="0.0109437156" flag="0"/>
      <psa30 value="0.0018551366" flag="0"/>
    </comp>
  </station>
  <station code="THERA" name="THERA" netid="HL" insttype="120" lat="36.367" lon="25.4753">
    <comp name="--.HHN">
      <acc value="0.2797767816" flag="0"/>
      <vel value="0.0656352626" flag="0"/>
      <psa03 value="0.2750430969" flag="0"/>
      <psa10 value="0.0221699004" flag="0"/>
      <psa30 value="0.0027669568" flag="0"/>
    </comp>
    <comp name="--.HHE">
      <acc value="0.1781544419" flag="0"/>
      <vel value="0.0415410086" flag="0"/>
      <psa03 value="0.2036744247" flag="0"/>
      <psa10 value="0.0171728529" flag="0"/>
      <psa30 value="0.0031848740" flag="0"/>
    </comp>
    <comp name="--.HHZ">
      <acc value="0.1951117823" flag="0"/>
      <vel value="0.0515366393" flag="0"/>
      <psa03 value="0.1464186273" flag="0"/>
      <psa10 value="0.0132139850" flag="0"/>
      <psa30 value="0.0016584356" flag="0"/>
    </comp>
  </station>
  <station code="THRA" name="THRA" netid="HL" insttype="CMG-5" lat="36.415" lon="25.4324">
    <comp name="00.HNE">
      <acc value="0.4614872518" flag="0"/>
      <vel value="0.1050447669" flag="0"/>
      <psa03 value="0.4433047112" flag="0"/>
      <psa10 value="0.0701549048" flag="0"/>
      <psa30 value="0.0070737639" flag="0"/>
    </comp>
    <comp name="00.HNN">
      <acc value="0.3521351014" flag="0"/>
      <vel value="0.1047592223" flag="0"/>
      <psa03 value="0.3285815057" flag="0"/>
      <psa10 value="0.0982642419" flag="0"/>
      <psa30 value="0.0071116176" flag="0"/>
    </comp>
    <comp name="00.HNZ">
      <acc value="0.4474321076" flag="0"/>
      <vel value="0.0940720540" flag="0"/>
      <psa03 value="0.3489056140" flag="0"/>
      <psa10 value="0.0343735783" flag="0"/>
      <psa30 value="0.0036286512" flag="0"/>
    </comp>
  </station>
  <station code="TNSA" name="TNSA" netid="HL" insttype="CMG-5" lat="37.5394" lon="25.1631">
    <comp name="00.HNE">
      <acc value="0.0285573510" flag="0"/>
      <vel value="0.0089734305" flag="0"/>
      <psa03 value="0.0512158798" flag="0"/>
      <psa10 value="0.0061279840" flag="0"/>
      <psa30 value="0.0006636382" flag="0"/>
    </comp>
    <comp name="00.HNZ">
      <acc value="0.0270648720" flag="0"/>
      <vel value="0.0115536810" flag="0"/>
      <psa03 value="0.0353889733" flag="0"/>
      <psa10 value="0.0049431659" flag="0"/>
      <psa30 value="0.0019333700" flag="0"/>
    </comp>
    <comp name="00.HNN">
      <acc value="0.0422165077" flag="0"/>
      <vel value="0.0113682157" flag="0"/>
      <psa03 value="0.0491852517" flag="0"/>
      <psa10 value="0.0061334275" flag="0"/>
      <psa30 value="0.0009356438" flag="0"/>
    </comp>
  </station>
  <station code="AKRO" name="AKRO" netid="HT" insttype="Compact," lat="36.3584" lon="25.3967">
    <comp name="--.HHN">
      <acc value="0.5376314072" flag="0"/>
      <vel value="0.1055552377" flag="0"/>
      <psa03 value="0.3306391779" flag="0"/>
      <psa10 value="0.0652843859" flag="0"/>
      <psa30 value="0.0032451556" flag="0"/>
    </comp>
    <comp name="--.HHE">
      <acc value="0.7975069817" flag="0"/>
      <vel value="0.2167717639" flag="0"/>
      <psa03 value="0.6737666441" flag="0"/>
      <psa10 value="0.0383142251" flag="0"/>
      <psa30 value="0.0037274748" flag="0"/>
    </comp>
    <comp name="--.HHZ">
      <acc value="0.5522787729" flag="0"/>
      <vel value="0.0787448749" flag="0"/>
      <psa03 value="0.2229311421" flag="0"/>
      <psa10 value="0.0188318701" flag="0"/>
      <psa30 value="0.0018378713" flag="0"/>
    </comp>
  </station>
  <station code="CMBO" name="CMBO" netid="HT" insttype="120P," lat="36.4709" lon="25.4056">
    <comp name="--.HHE">
      <acc value="0.2119680141" flag="0"/>
      <vel value="0.0477775027" flag="0"/>
      <psa03 value="0.2011126847" flag="0"/>
      <psa10 value="0.0277440324" flag="0"/>
      <psa30 value="0.0026913896" flag="0"/>
    </comp>
    <comp name="--.HHN">
      <acc value="0.2910233760" flag="0"/>
      <vel value="0.0614654236" flag="0"/>
      <psa03 value="0.2596043082" flag="0"/>
      <psa10 value="0.0310335819" flag="0"/>
      <psa30 value="0.0032594025" flag="0"/>
    </comp>
    <comp name="--.HHZ">
      <acc value="0.2161419585" flag="0"/>
      <vel value="0.0490792842" flag="0"/>
      <psa03 value="0.2342858696" flag="0"/>
      <psa10 value="0.0121888157" flag="0"/>
      <psa30 value="0.0023514075" flag="0"/>
    </comp>
  </station>
</stationlist>
