<?xml version="1.0" encoding="UTF-8" standalone="yes"?>
<!DOCTYPE earthquake SYSTEM "stationlist.dtd">
<stationlist created="" xmlns="ch.ethz.sed.shakemap.usgs.xml">
  <station code="KARS" name="KARS" netid="KO" insttype="120s," lat="40.6152" lon="43.0937">
    <comp name="--.HHN">
      <acc value="0.0045296899" flag="0"/>
      <vel value="0.0024305414" flag="0"/>
      <psa03 value="0.0124350033" flag="0"/>
      <psa10 value="0.0027562227" flag="0"/>
      <psa30 value="0.0008019049" flag="0"/>
    </comp>
    <comp name="--.HHZ">
      <acc value="0.0038354628" flag="0"/>
      <vel value="0.0025252015" flag="0"/>
      <psa03 value="0.0084900522" flag="0"/>
      <psa10 value="0.0033785646" flag="0"/>
      <psa30 value="0.0003939523" flag="0"/>
    </comp>
    <comp name="--.HHE">
      <acc value="0.0081956790" flag="0"/>
      <vel value="0.0031774435" flag="0"/>
      <psa03 value="0.0190753075" flag="0"/>
      <psa10 value="0.0036699433" flag="0"/>
      <psa30 value="0.0005163688" flag="0"/>
    </comp>
  </station>
</stationlist>
