<?xml version="1.0" encoding="UTF-8" standalone="yes"?>
<!DOCTYPE earthquake SYSTEM "stationlist.dtd">
<stationlist created="" xmlns="ch.ethz.sed.shakemap.usgs.xml">
  <station code="SARI" name="SARI" netid="KO" insttype="CMG-3T" lat="38.4072" lon="36.4181">
    <comp name="--.HHN">
      <acc value="0.0085638189" flag="0"/>
      <vel value="0.0022900962" flag="0"/>
      <psa03 value="0.0160122151" flag="0"/>
      <psa10 value="0.0012006318" flag="0"/>
      <psa30 value="0.0000948238" flag="0"/>
    </comp>
    <comp name="--.HHE">
      <acc value="0.0100083680" flag="0"/>
      <vel value="0.0020476297" flag="0"/>
      <psa03 value="0.0083546287" flag="0"/>
      <psa10 value="0.0010697369" flag="0"/>
      <psa30 value="0.0000747105" flag="0"/>
    </comp>
    <comp name="--.HHZ">
      <acc value="0.0057314098" flag="0"/>
      <vel value="0.0014296886" flag="0"/>
      <psa03 value="0.0095255157" flag="0"/>
      <psa10 value="0.0006720680" flag="0"/>
      <psa30 value="0.0000761026" flag="0"/>
    </comp>
  </station>
  <station code="ANDN" name="ANDN" netid="TU" insttype="T" lat="37.58" lon="36.3452">
    <comp name="--.HHN">
      <acc value="0.0147635302" flag="0"/>
      <vel value="0.0045468639" flag="0"/>
      <psa03 value="0.0197943099" flag="0"/>
      <psa10 value="0.0039713304" flag="0"/>
      <psa30 value="0.0004488707" flag="0"/>
    </comp>
    <comp name="--.HHZ">
      <acc value="0.0066570397" flag="0"/>
      <vel value="0.0022552207" flag="0"/>
      <psa03 value="0.0109863001" flag="0"/>
      <psa10 value="0.0027614128" flag="0"/>
      <psa30 value="0.0003597592" flag="0"/>
    </comp>
    <comp name="--.HHE">
      <acc value="0.0119889758" flag="0"/>
      <vel value="0.0031034545" flag="0"/>
      <psa03 value="0.0238137841" flag="0"/>
      <psa10 value="0.0033201784" flag="0"/>
      <psa30 value="0.0002060859" flag="0"/>
    </comp>
  </station>
</stationlist>
