<?xml version="1.0" encoding="UTF-8" standalone="yes"?>
<!DOCTYPE earthquake SYSTEM "stationlist.dtd">
<stationlist created="" xmlns="ch.ethz.sed.shakemap.usgs.xml">
  <station code="ADVT" name="ADVT" netid="KO" insttype="CMG-3ESP" commtype="DIG" lat="40.4332" lon="29.7383">
    <comp name="--.HHE">
      <acc value="0.0076564952" flag="0"/>
      <vel value="0.0061864526" flag="0"/>
      <psa03 value="0.0164268234" flag="0"/>
      <psa10 value="0.0126496529" flag="0"/>
      <psa30 value="0.0008761509" flag="0"/>
    </comp>
  </station>
  <station code="ARMU" name="ARMU" netid="KO" insttype="SA10" commtype="DIG" lat="40.5088" lon="28.838">
    <comp name="--.HNN">
      <acc value="0.0367574936" flag="0"/>
      <vel value="0.0177345892" flag="0"/>
      <psa03 value="0.1185262094" flag="0"/>
      <psa10 value="0.0092585358" flag="0"/>
      <psa30 value="0.0011792943" flag="0"/>
    </comp>
    <comp name="--.HNZ">
      <acc value="0.0093704901" flag="0"/>
      <vel value="0.0048190016" flag="0"/>
      <psa03 value="0.0151245067" flag="0"/>
      <psa10 value="0.0058740546" flag="0"/>
      <psa30 value="0.0006099253" flag="0"/>
    </comp>
  </station>
  <station code="BAKL" name="BAKL" netid="KO" insttype="CMG-6T" commtype="DIG" lat="37.9793" lon="29.6135">
    <comp name="--.HHE">
      <acc value="0.0076604491" flag="0"/>
      <vel value="0.0068180084" flag="0"/>
      <psa03 value="0.0235367187" flag="0"/>
      <psa10 value="0.0087132818" flag="0"/>
      <psa30 value="0.0011618467" flag="0"/>
    </comp>
    <comp name="--.HHN">
      <acc value="0.0059119526" flag="0"/>
      <vel value="0.0054943262" flag="0"/>
      <psa03 value="0.0210642219" flag="0"/>
      <psa10 value="0.0074359266" flag="0"/>
      <psa30 value="0.0013076052" flag="0"/>
    </comp>
    <comp name="--.HHZ">
      <acc value="0.0041037233" flag="0"/>
      <vel value="0.0023746953" flag="0"/>
      <psa03 value="0.0089526010" flag="0"/>
      <psa10 value="0.0044554639" flag="0"/>
      <psa30 value="0.0002912076" flag="0"/>
    </comp>
  </station>
  <station code="BALB" name="BALB" netid="KO" insttype="CMG-5T" commtype="DIG" lat="39.6507" lon="27.8642">
    <comp name="--.HNE">
      <acc value="0.0758428634" flag="0"/>
      <vel value="0.0207633596" flag="0"/>
      <psa03 value="0.0900196824" flag="0"/>
      <psa10 value="0.0157811095" flag="0"/>
      <psa30 value="0.0009042933" flag="0"/>
    </comp>
    <comp name="--.HNZ">
      <acc value="0.0293010966" flag="0"/>
      <vel value="0.0087280145" flag="0"/>
      <psa03 value="0.0428484708" flag="0"/>
      <psa10 value="0.0084859950" flag="0"/>
      <psa30 value="0.0008284847" flag="0"/>
    </comp>
    <comp name="--.HNN">
      <acc value="0.0476126688" flag="0"/>
      <vel value="0.0216473789" flag="0"/>
      <psa03 value="0.1072525427" flag="0"/>
      <psa10 value="0.0222400607" flag="0"/>
      <psa30 value="0.0026098077" flag="0"/>
    </comp>
  </station>
  <station code="DST" name="DST" netid="KO" insttype="CMG-5T" commtype="DIG" lat="39.6041" lon="28.6267">
    <comp name="--.HNN">
      <acc value="0.0575431201" flag="0"/>
      <vel value="0.0275191425" flag="0"/>
      <psa03 value="0.0992522112" flag="0"/>
      <psa10 value="0.0288354799" flag="0"/>
      <psa30 value="0.0020151117" flag="0"/>
    </comp>
    <comp name="--.HNE">
      <acc value="0.0863891142" flag="0"/>
      <vel value="0.0395378390" flag="0"/>
      <psa03 value="0.1478582308" flag="0"/>
      <psa10 value="0.0714102458" flag="0"/>
      <psa30 value="0.0021585848" flag="0"/>
    </comp>
    <comp name="--.HNZ">
      <acc value="0.0673807415" flag="0"/>
      <vel value="0.0186346413" flag="0"/>
      <psa03 value="0.0711675186" flag="0"/>
      <psa10 value="0.0179728549" flag="0"/>
      <psa30 value="0.0013131173" flag="0"/>
    </comp>
  </station>
  <station code="GEDZ" name="GEDZ" netid="KO" insttype="CMG-6T" commtype="DIG" lat="39.0445" lon="29.4105">
    <comp name="--.HHE">
      <acc value="0.4011627867" flag="0"/>
      <vel value="0.1341207167" flag="0"/>
      <psa03 value="0.5720021109" flag="0"/>
      <psa10 value="0.1062704117" flag="0"/>
      <psa30 value="0.0052373361" flag="0"/>
    </comp>
    <comp name="--.HHN">
      <acc value="0.4389236754" flag="0"/>
      <vel value="0.1575253491" flag="0"/>
      <psa03 value="0.8619522555" flag="0"/>
      <psa10 value="0.1644797455" flag="0"/>
      <psa30 value="0.0073840652" flag="0"/>
    </comp>
    <comp name="--.HHZ">
      <acc value="0.1501487526" flag="0"/>
      <vel value="0.0439800273" flag="0"/>
      <psa03 value="0.2582477548" flag="0"/>
      <psa10 value="0.0405958647" flag="0"/>
      <psa30 value="0.0019590474" flag="0"/>
    </comp>
  </station>
  <station code="GEML" name="GEML" netid="KO" insttype="CMG-3T" commtype="DIG" lat="40.4646" lon="29.2116">
    <comp name="--.HHZ">
      <acc value="0.0175700011" flag="0"/>
      <vel value="0.0084060324" flag="0"/>
      <psa03 value="0.0268842902" flag="0"/>
      <psa10 value="0.0072056813" flag="0"/>
      <psa30 value="0.0007832825" flag="0"/>
    </comp>
    <comp name="--.HHN">
      <acc value="0.0273028168" flag="0"/>
      <vel value="0.0115001734" flag="0"/>
      <psa03 value="0.0618039503" flag="0"/>
      <psa10 value="0.0105608927" flag="0"/>
      <psa30 value="0.0010526682" flag="0"/>
    </comp>
    <comp name="--.HHE">
      <acc value="0.0579309274" flag="0"/>
      <vel value="0.0117181319" flag="0"/>
      <psa03 value="0.0360502782" flag="0"/>
      <psa10 value="0.0114241152" flag="0"/>
      <psa30 value="0.0006902984" flag="0"/>
    </comp>
  </station>
  <station code="GEMS" name="GEMS" netid="KO" insttype="SA10" commtype="DIG" lat="40.4231" lon="29.1526">
    <comp name="--.HNE">
      <acc value="0.0513888843" flag="0"/>
      <vel value="0.0290830747" flag="0"/>
      <psa03 value="0.1306901434" flag="0"/>
      <psa10 value="0.0227353924" flag="0"/>
      <psa30 value="0.0014022748" flag="0"/>
    </comp>
    <comp name="--.HNN">
      <acc value="0.0421045606" flag="0"/>
      <vel value="0.0211151334" flag="0"/>
      <psa03 value="0.1096098938" flag="0"/>
      <psa10 value="0.0244342844" flag="0"/>
      <psa30 value="0.0019046523" flag="0"/>
    </comp>
    <comp name="--.HNZ">
      <acc value="0.0187025690" flag="0"/>
      <vel value="0.0087260771" flag="0"/>
      <psa03 value="0.0433097044" flag="0"/>
      <psa10 value="0.0072737410" flag="0"/>
      <psa30 value="0.0008861637" flag="0"/>
    </comp>
  </station>
  <station code="GOMA" name="GOMA" netid="KO" insttype="CMG-5T" commtype="DIG" lat="38.7077" lon="27.9175">
    <comp name="--.HNE">
      <acc value="0.0605105811" flag="0"/>
      <vel value="0.0342339280" flag="0"/>
      <psa03 value="0.1499031893" flag="0"/>
      <psa10 value="0.0218817694" flag="0"/>
      <psa30 value="0.0022405253" flag="0"/>
    </comp>
    <comp name="--.HNN">
      <acc value="0.0936124939" flag="0"/>
      <vel value="0.0439859336" flag="0"/>
      <psa03 value="0.1560707725" flag="0"/>
      <psa10 value="0.0259150344" flag="0"/>
      <psa30 value="0.0024600428" flag="0"/>
    </comp>
    <comp name="--.HNZ">
      <acc value="0.0259364506" flag="0"/>
      <vel value="0.0111516519" flag="0"/>
      <psa03 value="0.0615832995" flag="0"/>
      <psa10 value="0.0147798008" flag="0"/>
      <psa30 value="0.0015759317" flag="0"/>
    </comp>
  </station>
  <station code="GONE" name="GONE" netid="KO" insttype="CMG-5T" commtype="DIG" lat="40.0466" lon="27.686">
    <comp name="--.HNN">
      <acc value="0.0582522442" flag="0"/>
      <vel value="0.0470936839" flag="0"/>
      <psa03 value="0.1325789375" flag="0"/>
      <psa10 value="0.0610605247" flag="0"/>
      <psa30 value="0.0042896658" flag="0"/>
    </comp>
    <comp name="--.HNE">
      <acc value="0.0433816964" flag="0"/>
      <vel value="0.0290381625" flag="0"/>
      <psa03 value="0.0727547833" flag="0"/>
      <psa10 value="0.0280148712" flag="0"/>
      <psa30 value="0.0018375518" flag="0"/>
    </comp>
    <comp name="--.HNZ">
      <acc value="0.0247843717" flag="0"/>
      <vel value="0.0112323613" flag="0"/>
      <psa03 value="0.0385736756" flag="0"/>
      <psa10 value="0.0113513851" flag="0"/>
      <psa30 value="0.0011181238" flag="0"/>
    </comp>
  </station>
  <station code="GORD" name="GORD" netid="KO" insttype="CMG-5T" commtype="DIG" lat="38.9088" lon="28.1769">
    <comp name="--.HNE">
      <acc value="0.0510454444" flag="0"/>
      <vel value="0.0495780702" flag="0"/>
      <psa03 value="0.0799954493" flag="0"/>
      <psa10 value="0.0864638127" flag="0"/>
      <psa30 value="0.0030873822" flag="0"/>
    </comp>
    <comp name="--.HNN">
      <acc value="0.0585594807" flag="0"/>
      <vel value="0.0500469749" flag="0"/>
      <psa03 value="0.0756365651" flag="0"/>
      <psa10 value="0.0728274680" flag="0"/>
      <psa30 value="0.0045500273" flag="0"/>
    </comp>
    <comp name="--.HNZ">
      <acc value="0.0491946129" flag="0"/>
      <vel value="0.0381492718" flag="0"/>
      <psa03 value="0.0722989567" flag="0"/>
      <psa10 value="0.0322479636" flag="0"/>
      <psa30 value="0.0021877344" flag="0"/>
    </comp>
  </station>
  <station code="IZI" name="IZI" netid="KO" insttype="CMG-5T" commtype="DIG" lat="40.3483" lon="29.4612">
    <comp name="--.HNE">
      <acc value="0.0139176922" flag="0"/>
      <vel value="0.0096948415" flag="0"/>
      <psa03 value="0.0410579997" flag="0"/>
      <psa10 value="0.0216943848" flag="0"/>
      <psa30 value="0.0013625566" flag="0"/>
    </comp>
    <comp name="--.HNN">
      <acc value="0.0178834324" flag="0"/>
      <vel value="0.0135554705" flag="0"/>
      <psa03 value="0.0716030696" flag="0"/>
      <psa10 value="0.0209425171" flag="0"/>
      <psa30 value="0.0012708476" flag="0"/>
    </comp>
    <comp name="--.HNZ">
      <acc value="0.0106156499" flag="0"/>
      <vel value="0.0116404103" flag="0"/>
      <psa03 value="0.0310900556" flag="0"/>
      <psa10 value="0.0201813340" flag="0"/>
      <psa30 value="0.0013326402" flag="0"/>
    </comp>
  </station>
  <station code="KCTX" name="KCTX" netid="KO" insttype="CMG-3ESP" commtype="DIG" lat="40.2626" lon="28.3353">
    <comp name="--.HHE">
      <acc value="0.0256944435" flag="0"/>
      <vel value="0.0221917568" flag="0"/>
      <psa03 value="0.0913424984" flag="0"/>
      <psa10 value="0.0253477665" flag="0"/>
      <psa30 value="0.0024084663" flag="0"/>
    </comp>
    <comp name="--.HHN">
      <acc value="0.0349209316" flag="0"/>
      <vel value="0.0206477119" flag="0"/>
      <psa03 value="0.1408753235" flag="0"/>
      <psa10 value="0.0242900431" flag="0"/>
      <psa30 value="0.0024158221" flag="0"/>
    </comp>
    <comp name="--.HHZ">
      <acc value="0.0307170564" flag="0"/>
      <vel value="0.0115825452" flag="0"/>
      <psa03 value="0.0327325683" flag="0"/>
      <psa10 value="0.0095436940" flag="0"/>
      <psa30 value="0.0008115071" flag="0"/>
    </comp>
  </station>
  <station code="KULA" name="KULA" netid="KO" insttype="CMG-3T" commtype="DIG" lat="38.5145" lon="28.6607">
    <comp name="--.HHE">
      <acc value="0.0499157362" flag="0"/>
      <vel value="0.0111420034" flag="0"/>
      <psa03 value="0.0536291845" flag="0"/>
      <psa10 value="0.0118313954" flag="0"/>
      <psa30 value="0.0009111559" flag="0"/>
    </comp>
  </station>
  <station code="MDNY" name="MDNY" netid="KO" insttype="CMG-5T" commtype="DIG" lat="40.3709" lon="28.8846">
    <comp name="--.HNE">
      <acc value="0.0618595554" flag="0"/>
      <vel value="0.0212422847" flag="0"/>
      <psa03 value="0.1306987126" flag="0"/>
      <psa10 value="0.0133734548" flag="0"/>
      <psa30 value="0.0017170288" flag="0"/>
    </comp>
    <comp name="--.HNN">
      <acc value="0.0739942102" flag="0"/>
      <vel value="0.0257205266" flag="0"/>
      <psa03 value="0.2338284744" flag="0"/>
      <psa10 value="0.0143648385" flag="0"/>
      <psa30 value="0.0012374558" flag="0"/>
    </comp>
    <comp name="--.HNZ">
      <acc value="0.0422079440" flag="0"/>
      <vel value="0.0137050077" flag="0"/>
      <psa03 value="0.0444434868" flag="0"/>
      <psa10 value="0.0073666482" flag="0"/>
      <psa30 value="0.0010524685" flag="0"/>
    </comp>
  </station>
  <station code="MUDA" name="MUDA" netid="KO" insttype="SA10" commtype="DIG" lat="40.3566" lon="28.9294">
    <comp name="--.HNE">
      <acc value="0.0642821216" flag="0"/>
      <vel value="0.0678354084" flag="0"/>
      <psa03 value="0.1186902139" flag="0"/>
      <psa10 value="0.2075952727" flag="0"/>
      <psa30 value="0.0044485065" flag="0"/>
    </comp>
    <comp name="--.HNN">
      <acc value="0.0603042769" flag="0"/>
      <vel value="0.0448912905" flag="0"/>
      <psa03 value="0.1619430465" flag="0"/>
      <psa10 value="0.0737167158" flag="0"/>
      <psa30 value="0.0031801407" flag="0"/>
    </comp>
    <comp name="--.HNZ">
      <acc value="0.0308802198" flag="0"/>
      <vel value="0.0184319525" flag="0"/>
      <psa03 value="0.1109822173" flag="0"/>
      <psa10 value="0.0160110916" flag="0"/>
      <psa30 value="0.0012801405" flag="0"/>
    </comp>
  </station>
  <station code="ORLT" name="ORLT" netid="KO" insttype="CMG-5T" commtype="DIG" lat="40.0452" lon="28.8914">
    <comp name="--.HNE">
      <acc value="0.0656028257" flag="0"/>
      <vel value="0.0287885549" flag="0"/>
      <psa03 value="0.2353433462" flag="0"/>
      <psa10 value="0.0169803042" flag="0"/>
      <psa30 value="0.0013796275" flag="0"/>
    </comp>
    <comp name="--.HNN">
      <acc value="0.0499062767" flag="0"/>
      <vel value="0.0228921306" flag="0"/>
      <psa03 value="0.1522502079" flag="0"/>
      <psa10 value="0.0392026253" flag="0"/>
      <psa30 value="0.0017612890" flag="0"/>
    </comp>
    <comp name="--.HNZ">
      <acc value="0.0208834697" flag="0"/>
      <vel value="0.0114724175" flag="0"/>
      <psa03 value="0.0357708048" flag="0"/>
      <psa10 value="0.0170031107" flag="0"/>
      <psa30 value="0.0014347557" flag="0"/>
    </comp>
  </station>
  <station code="SIMA" name="SIMA" netid="KO" insttype="CMG-6T" commtype="DIG" lat="39.0833" lon="28.9825">
    <comp name="--.HHZ">
      <acc value="0.9366830822" flag="0"/>
      <vel value="0.2217361152" flag="0"/>
      <psa03 value="0.5977178632" flag="0"/>
      <psa10 value="0.0807707008" flag="0"/>
      <psa30 value="0.0071087939" flag="0"/>
    </comp>
    <comp name="--.HHN">
      <acc value="0.6427651287" flag="0"/>
      <vel value="0.2032799364" flag="0"/>
      <psa03 value="0.6083498271" flag="0"/>
      <psa10 value="0.1496151971" flag="0"/>
      <psa30 value="0.0109368513" flag="0"/>
    </comp>
    <comp name="--.HHE">
      <acc value="0.6710044142" flag="0"/>
      <vel value="0.1270263413" flag="0"/>
      <psa03 value="0.7028929987" flag="0"/>
      <psa10 value="0.0958492056" flag="0"/>
      <psa30 value="0.0072783999" flag="0"/>
    </comp>
  </station>
  <station code="SOMA" name="SOMA" netid="KO" insttype="CMG-5T" commtype="DIG" lat="39.1564" lon="27.5341">
    <comp name="--.HNE">
      <acc value="0.0490094299" flag="0"/>
      <vel value="0.0204329781" flag="0"/>
      <psa03 value="0.0924732947" flag="0"/>
      <psa10 value="0.0264923740" flag="0"/>
      <psa30 value="0.0014922916" flag="0"/>
    </comp>
    <comp name="--.HNN">
      <acc value="0.0686085561" flag="0"/>
      <vel value="0.0364341713" flag="0"/>
      <psa03 value="0.0786773220" flag="0"/>
      <psa10 value="0.0400154410" flag="0"/>
      <psa30 value="0.0024871064" flag="0"/>
    </comp>
    <comp name="--.HNZ">
      <acc value="0.0394394819" flag="0"/>
      <vel value="0.0131514361" flag="0"/>
      <psa03 value="0.0553204197" flag="0"/>
      <psa10 value="0.0155184892" flag="0"/>
      <psa30 value="0.0011495251" flag="0"/>
    </comp>
  </station>
  <station code="TVSB" name="TVSB" netid="KO" insttype="CMG-3T" commtype="DIG" lat="39.4497" lon="29.4615">
    <comp name="--.HHE">
      <acc value="0.2969632466" flag="0"/>
      <vel value="0.1068081097" flag="0"/>
      <psa03 value="0.7068852734" flag="0"/>
      <psa10 value="0.0331503624" flag="0"/>
      <psa30 value="0.0028189622" flag="0"/>
    </comp>
    <comp name="--.HHZ">
      <acc value="0.1607780655" flag="0"/>
      <vel value="0.0475390457" flag="0"/>
      <psa03 value="0.2295504164" flag="0"/>
      <psa10 value="0.0451380547" flag="0"/>
      <psa30 value="0.0038664855" flag="0"/>
    </comp>
    <comp name="--.HHN">
      <acc value="0.3615128595" flag="0"/>
      <vel value="0.1134227628" flag="0"/>
      <psa03 value="0.5229739472" flag="0"/>
      <psa10 value="0.0387769477" flag="0"/>
      <psa30 value="0.0033206298" flag="0"/>
    </comp>
  </station>
  <station code="BORA" name="BORA" netid="TU" insttype="T" commtype="DIG" lat="39.8801" lon="30.4534">
    <comp name="--.HHE">
      <acc value="0.0146135582" flag="0"/>
      <vel value="0.0057291203" flag="0"/>
      <psa03 value="0.0401529652" flag="0"/>
      <psa10 value="0.0034608502" flag="0"/>
      <psa30 value="0.0010498904" flag="0"/>
    </comp>
    <comp name="--.HHZ">
      <acc value="0.0090813452" flag="0"/>
      <vel value="0.0035577868" flag="0"/>
      <psa03 value="0.0135303174" flag="0"/>
      <psa10 value="0.0053593961" flag="0"/>
      <psa30 value="0.0007178036" flag="0"/>
    </comp>
    <comp name="--.HHN">
      <acc value="0.0107608106" flag="0"/>
      <vel value="0.0060925432" flag="0"/>
      <psa03 value="0.0230641098" flag="0"/>
      <psa10 value="0.0040340912" flag="0"/>
      <psa30 value="0.0013825277" flag="0"/>
    </comp>
  </station>
</stationlist>
