<?xml version="1.0" encoding="UTF-8" standalone="yes"?>
<!DOCTYPE earthquake SYSTEM "stationlist.dtd">
<stationlist created="" xmlns="ch.ethz.sed.shakemap.usgs.xml">
  <station code="BALB" name="BALB" netid="KO" insttype="CMG-5T" commtype="DIG" lat="39.6507" lon="27.8642">
    <comp name="--.HNE">
      <acc value="0.0758428577" flag="0"/>
      <vel value="0.0207633568" flag="0"/>
      <psa03 value="0.0900196824" flag="0"/>
      <psa10 value="0.0157811095" flag="0"/>
      <psa30 value="0.0009046267" flag="0"/>
    </comp>
    <comp name="--.HNZ">
      <acc value="0.0293010928" flag="0"/>
      <vel value="0.0087280153" flag="0"/>
      <psa03 value="0.0428484708" flag="0"/>
      <psa10 value="0.0084859949" flag="0"/>
      <psa30 value="0.0008119144" flag="0"/>
    </comp>
    <comp name="--.HNN">
      <acc value="0.0476126617" flag="0"/>
      <vel value="0.0216473797" flag="0"/>
      <psa03 value="0.1072525427" flag="0"/>
      <psa10 value="0.0222400603" flag="0"/>
      <psa30 value="0.0026096543" flag="0"/>
    </comp>
  </station>
  <station code="DST" name="DST" netid="KO" insttype="CMG-5T" commtype="DIG" lat="39.6041" lon="28.6267">
    <comp name="--.HNE">
      <acc value="0.0863890820" flag="0"/>
      <vel value="0.0395378460" flag="0"/>
      <psa03 value="0.1478582308" flag="0"/>
      <psa10 value="0.0714102389" flag="0"/>
      <psa30 value="0.0021618506" flag="0"/>
    </comp>
    <comp name="--.HNN">
      <acc value="0.0575431208" flag="0"/>
      <vel value="0.0275191293" flag="0"/>
      <psa03 value="0.0992522112" flag="0"/>
      <psa10 value="0.0288354818" flag="0"/>
      <psa30 value="0.0020201230" flag="0"/>
    </comp>
    <comp name="--.HNZ">
      <acc value="0.0673807578" flag="0"/>
      <vel value="0.0186346457" flag="0"/>
      <psa03 value="0.0711675186" flag="0"/>
      <psa10 value="0.0179728679" flag="0"/>
      <psa30 value="0.0013231952" flag="0"/>
    </comp>
  </station>
  <station code="GEDZ" name="GEDZ" netid="KO" insttype="CMG-6T" commtype="DIG" lat="39.0445" lon="29.4105">
    <comp name="--.HHE">
      <acc value="0.4011628299" flag="0"/>
      <vel value="0.1341207173" flag="0"/>
      <psa03 value="0.5720021109" flag="0"/>
      <psa10 value="0.1062704132" flag="0"/>
      <psa30 value="0.0052374395" flag="0"/>
    </comp>
    <comp name="--.HHN">
      <acc value="0.4389236845" flag="0"/>
      <vel value="0.1575254372" flag="0"/>
      <psa03 value="0.8619522556" flag="0"/>
      <psa10 value="0.1644797391" flag="0"/>
      <psa30 value="0.0073851423" flag="0"/>
    </comp>
    <comp name="--.HHZ">
      <acc value="0.1501487309" flag="0"/>
      <vel value="0.0439800237" flag="0"/>
      <psa03 value="0.2582477548" flag="0"/>
      <psa10 value="0.0405958631" flag="0"/>
      <psa30 value="0.0019592484" flag="0"/>
    </comp>
  </station>
  <station code="GOMA" name="GOMA" netid="KO" insttype="CMG-5T" commtype="DIG" lat="38.7077" lon="27.9175">
    <comp name="--.HNZ">
      <acc value="0.0259365252" flag="0"/>
      <vel value="0.0111516473" flag="0"/>
      <psa03 value="0.0615832995" flag="0"/>
      <psa10 value="0.0147797997" flag="0"/>
      <psa30 value="0.0015753666" flag="0"/>
    </comp>
    <comp name="--.HNN">
      <acc value="0.0936125366" flag="0"/>
      <vel value="0.0439859300" flag="0"/>
      <psa03 value="0.1560707725" flag="0"/>
      <psa10 value="0.0259150351" flag="0"/>
      <psa30 value="0.0024596554" flag="0"/>
    </comp>
    <comp name="--.HNE">
      <acc value="0.0605105615" flag="0"/>
      <vel value="0.0342339278" flag="0"/>
      <psa03 value="0.1499031893" flag="0"/>
      <psa10 value="0.0218817691" flag="0"/>
      <psa30 value="0.0022395827" flag="0"/>
    </comp>
  </station>
  <station code="GORD" name="GORD" netid="KO" insttype="CMG-5T" commtype="DIG" lat="38.9088" lon="28.1769">
    <comp name="--.HNZ">
      <acc value="0.0491946301" flag="0"/>
      <vel value="0.0381492706" flag="0"/>
      <psa03 value="0.0722989567" flag="0"/>
      <psa10 value="0.0322479631" flag="0"/>
      <psa30 value="0.0021880520" flag="0"/>
    </comp>
    <comp name="--.HNN">
      <acc value="0.0585594708" flag="0"/>
      <vel value="0.0500469744" flag="0"/>
      <psa03 value="0.0756365651" flag="0"/>
      <psa10 value="0.0728274693" flag="0"/>
      <psa30 value="0.0045504478" flag="0"/>
    </comp>
    <comp name="--.HNE">
      <acc value="0.0510454573" flag="0"/>
      <vel value="0.0495780729" flag="0"/>
      <psa03 value="0.0799954493" flag="0"/>
      <psa10 value="0.0864638110" flag="0"/>
      <psa30 value="0.0030876584" flag="0"/>
    </comp>
  </station>
  <station code="ORLT" name="ORLT" netid="KO" insttype="CMG-5T" commtype="DIG" lat="40.0452" lon="28.8914">
    <comp name="--.HNN">
      <acc value="0.0499062792" flag="0"/>
      <vel value="0.0228921240" flag="0"/>
      <psa03 value="0.1522502079" flag="0"/>
      <psa10 value="0.0392026269" flag="0"/>
      <psa30 value="0.0017622401" flag="0"/>
    </comp>
    <comp name="--.HNE">
      <acc value="0.0656028134" flag="0"/>
      <vel value="0.0287885439" flag="0"/>
      <psa03 value="0.2353433462" flag="0"/>
      <psa10 value="0.0169803050" flag="0"/>
      <psa30 value="0.0013802167" flag="0"/>
    </comp>
    <comp name="--.HNZ">
      <acc value="0.0208834515" flag="0"/>
      <vel value="0.0114724127" flag="0"/>
      <psa03 value="0.0357708048" flag="0"/>
      <psa10 value="0.0170031092" flag="0"/>
      <psa30 value="0.0014353272" flag="0"/>
    </comp>
  </station>
  <station code="SIMA" name="SIMA" netid="KO" insttype="CMG-6T" commtype="DIG" lat="39.0833" lon="28.9825">
    <comp name="--.HHN">
      <acc value="0.6427650579" flag="0"/>
      <vel value="0.2032799355" flag="0"/>
      <psa03 value="0.6083498271" flag="0"/>
      <psa10 value="0.1496151940" flag="0"/>
      <psa30 value="0.0109366679" flag="0"/>
    </comp>
    <comp name="--.HHE">
      <acc value="0.6710042561" flag="0"/>
      <vel value="0.1270263421" flag="0"/>
      <psa03 value="0.7028929987" flag="0"/>
      <psa10 value="0.0958492046" flag="0"/>
      <psa30 value="0.0072783172" flag="0"/>
    </comp>
    <comp name="--.HHZ">
      <acc value="0.9366832154" flag="0"/>
      <vel value="0.2217361127" flag="0"/>
      <psa03 value="0.5977178632" flag="0"/>
      <psa10 value="0.0807707038" flag="0"/>
      <psa30 value="0.0071088511" flag="0"/>
    </comp>
  </station>
  <station code="TVSB" name="TVSB" netid="KO" insttype="CMG-3T" commtype="DIG" lat="39.4497" lon="29.4615">
    <comp name="--.HHN">
      <acc value="0.3615128594" flag="0"/>
      <vel value="0.1134227629" flag="0"/>
      <psa03 value="0.5229739472" flag="0"/>
      <psa10 value="0.0387769481" flag="0"/>
      <psa30 value="0.0033205622" flag="0"/>
    </comp>
    <comp name="--.HHE">
      <acc value="0.2969632466" flag="0"/>
      <vel value="0.1068081100" flag="0"/>
      <psa03 value="0.7068852734" flag="0"/>
      <psa10 value="0.0331503623" flag="0"/>
      <psa30 value="0.0028190039" flag="0"/>
    </comp>
    <comp name="--.HHZ">
      <acc value="0.1607780658" flag="0"/>
      <vel value="0.0475390451" flag="0"/>
      <psa03 value="0.2295504164" flag="0"/>
      <psa10 value="0.0451380541" flag="0"/>
      <psa30 value="0.0038664225" flag="0"/>
    </comp>
  </station>
</stationlist>
