<?xml version="1.0" encoding="UTF-8" standalone="yes"?>
<!DOCTYPE earthquake SYSTEM "stationlist.dtd">
<stationlist created="" xmlns="ch.ethz.sed.shakemap.usgs.xml">
  <station code="JMIC" name="JMIC" netid="NO" insttype="STS-2" lat="70.9866" lon="-8.5057">
    <comp name="00.HHN">
      <acc value="0.2031713997" flag="0"/>
      <vel value="0.0661751079" flag="0"/>
      <psa03 value="0.2600225419" flag="0"/>
      <psa10 value="0.0655375184" flag="0"/>
      <psa30 value="0.0080337970" flag="0"/>
    </comp>
    <comp name="00.HHE">
      <acc value="0.1328643868" flag="0"/>
      <vel value="0.0880147477" flag="0"/>
      <psa03 value="0.2272434788" flag="0"/>
      <psa10 value="0.0683788701" flag="0"/>
      <psa30 value="0.0034019952" flag="0"/>
    </comp>
    <comp name="00.HHZ">
      <acc value="0.1126851360" flag="0"/>
      <vel value="0.0357830328" flag="0"/>
      <psa03 value="0.1447656996" flag="0"/>
      <psa10 value="0.0406544428" flag="0"/>
      <psa30 value="0.0048073232" flag="0"/>
    </comp>
  </station>
  <station code="JNE" name="JNE" netid="NS" insttype="" lat="70.9883" lon="-8.29267">
    <comp name="00.HHZ">
      <acc value="0.1607184139" flag="0"/>
      <vel value="0.0674947033" flag="0"/>
      <psa03 value="0.3797453749" flag="0"/>
      <psa10 value="0.0528904957" flag="0"/>
      <psa30 value="0.0051744496" flag="0"/>
    </comp>
    <comp name="00.HHN">
      <acc value="0.2173449268" flag="0"/>
      <vel value="0.1849619976" flag="0"/>
      <psa03 value="0.6079471234" flag="0"/>
      <psa10 value="0.2775472312" flag="0"/>
      <psa30 value="0.0159242889" flag="0"/>
    </comp>
    <comp name="00.HHE">
      <acc value="0.2352660165" flag="0"/>
      <vel value="0.1118703408" flag="0"/>
      <psa03 value="0.5095672692" flag="0"/>
      <psa10 value="0.1697217523" flag="0"/>
      <psa30 value="0.0083554225" flag="0"/>
    </comp>
  </station>
  <station code="JNW" name="JNW" netid="NS" insttype="" lat="71.0273" lon="-8.42367">
    <comp name="00.HHE">
      <acc value="0.2672074785" flag="0"/>
      <vel value="0.1424856980" flag="0"/>
      <psa03 value="0.5643599726" flag="0"/>
      <psa10 value="0.1632665749" flag="0"/>
      <psa30 value="0.0076981193" flag="0"/>
    </comp>
    <comp name="00.HHZ">
      <acc value="0.1941941002" flag="0"/>
      <vel value="0.0699218596" flag="0"/>
      <psa03 value="0.3453550853" flag="0"/>
      <psa10 value="0.0561191750" flag="0"/>
      <psa30 value="0.0049934699" flag="0"/>
    </comp>
    <comp name="00.HHN">
      <acc value="0.1988727015" flag="0"/>
      <vel value="0.1065781954" flag="0"/>
      <psa03 value="0.5514193038" flag="0"/>
      <psa10 value="0.1475311780" flag="0"/>
      <psa30 value="0.0099967360" flag="0"/>
    </comp>
  </station>
</stationlist>
