<?xml version="1.0" encoding="UTF-8" standalone="yes"?>
<!DOCTYPE earthquake SYSTEM "stationlist.dtd">
<stationlist created="" xmlns="ch.ethz.sed.shakemap.usgs.xml">
  <station code="KOVH" name="KOVH" netid="HU" insttype="" lat="46.0883" lon="18.0999">
    <comp name="--.HHE">
      <acc value="0.0325040923" flag="0"/>
      <vel value="0.0082831742" flag="0"/>
      <psa03 value="0.0222645354" flag="0"/>
      <psa10 value="0.0050403210" flag="0"/>
      <psa30 value="0.0004478061" flag="0"/>
    </comp>
    <comp name="--.HHN">
      <acc value="0.0341233053" flag="0"/>
      <vel value="0.0075702373" flag="0"/>
      <psa03 value="0.0240724650" flag="0"/>
      <psa10 value="0.0037778646" flag="0"/>
      <psa30 value="0.0002230500" flag="0"/>
    </comp>
    <comp name="--.HHZ">
      <acc value="0.0156438305" flag="0"/>
      <vel value="0.0026187172" flag="0"/>
      <psa03 value="0.0111052952" flag="0"/>
      <psa10 value="0.0026589307" flag="0"/>
      <psa30 value="0.0002176749" flag="0"/>
    </comp>
  </station>
  <station code="BLY" name="BLY" netid="MN" insttype="" lat="44.7488" lon="17.1839">
    <comp name="--.HHZ">
      <acc value="0.0362683096" flag="0"/>
      <vel value="0.0135909441" flag="0"/>
      <psa03 value="0.0814616722" flag="0"/>
      <psa10 value="0.0036412554" flag="0"/>
      <psa30 value="0.0003726042" flag="0"/>
    </comp>
    <comp name="--.HHE">
      <acc value="0.0416242038" flag="0"/>
      <vel value="0.0130769858" flag="0"/>
      <psa03 value="0.1208253481" flag="0"/>
      <psa10 value="0.0090985674" flag="0"/>
      <psa30 value="0.0004518229" flag="0"/>
    </comp>
    <comp name="--.HHN">
      <acc value="0.0356093236" flag="0"/>
      <vel value="0.0109238246" flag="0"/>
      <psa03 value="0.0607907783" flag="0"/>
      <psa10 value="0.0088838318" flag="0"/>
      <psa30 value="0.0005598692" flag="0"/>
    </comp>
  </station>
  <station code="BH02A" name="BH02A" netid="Y5" insttype="STS2_gen3" lat="43.8746" lon="18.4241">
    <comp name="--.HH2">
      <acc value="0.0055640016" flag="0"/>
      <vel value="0.0035106218" flag="0"/>
      <psa03 value="0.0128334611" flag="0"/>
      <psa10 value="0.0042799276" flag="0"/>
      <psa30 value="0.0005607101" flag="0"/>
    </comp>
    <comp name="--.HH1">
      <acc value="0.0064029499" flag="0"/>
      <vel value="0.0042715196" flag="0"/>
      <psa03 value="0.0148670180" flag="0"/>
      <psa10 value="0.0047814193" flag="0"/>
      <psa30 value="0.0003555817" flag="0"/>
    </comp>
    <comp name="--.HHZ">
      <acc value="0.0041865968" flag="0"/>
      <vel value="0.0031866751" flag="0"/>
      <psa03 value="0.0123161112" flag="0"/>
      <psa10 value="0.0031491732" flag="0"/>
      <psa30 value="0.0003393106" flag="0"/>
    </comp>
  </station>
  <station code="BH08A" name="BH08A" netid="Y5" insttype="STS2_gen2" lat="44.2357" lon="18.0082">
    <comp name="--.HHZ">
      <acc value="0.0332353269" flag="0"/>
      <vel value="0.0071426047" flag="0"/>
      <psa03 value="0.0206578318" flag="0"/>
      <psa10 value="0.0026347937" flag="0"/>
      <psa30 value="0.0003872918" flag="0"/>
    </comp>
    <comp name="--.HH1">
      <acc value="0.0500019946" flag="0"/>
      <vel value="0.0094801224" flag="0"/>
      <psa03 value="0.0322736546" flag="0"/>
      <psa10 value="0.0030300128" flag="0"/>
      <psa30 value="0.0002776406" flag="0"/>
    </comp>
    <comp name="--.HH2">
      <acc value="0.0393124815" flag="0"/>
      <vel value="0.0093448803" flag="0"/>
      <psa03 value="0.0331754332" flag="0"/>
      <psa10 value="0.0038621090" flag="0"/>
      <psa30 value="0.0003314873" flag="0"/>
    </comp>
  </station>
  <station code="BH12A" name="BH12A" netid="Y5" insttype="STS2_gen3" lat="44.3931" lon="17.1573">
    <comp name="--.HHZ">
      <acc value="0.0244630913" flag="0"/>
      <vel value="0.0072063051" flag="0"/>
      <psa03 value="0.0390925088" flag="0"/>
      <psa10 value="0.0046909173" flag="0"/>
      <psa30 value="0.0003282534" flag="0"/>
    </comp>
    <comp name="--.HH2">
      <acc value="0.0577176291" flag="0"/>
      <vel value="0.0150680047" flag="0"/>
      <psa03 value="0.0419459759" flag="0"/>
      <psa10 value="0.0071258519" flag="0"/>
      <psa30 value="0.0004341380" flag="0"/>
    </comp>
    <comp name="--.HH1">
      <acc value="0.0440552357" flag="0"/>
      <vel value="0.0106879554" flag="0"/>
      <psa03 value="0.0799694017" flag="0"/>
      <psa10 value="0.0072085572" flag="0"/>
      <psa30 value="0.0004600039" flag="0"/>
    </comp>
  </station>
  <station code="BH14A" name="BH14A" netid="Y5" insttype="STS2_gen3" lat="44.5136" lon="17.6572">
    <comp name="--.HH2">
      <acc value="55.6220722015" flag="0"/>
      <vel value="2.9551893306" flag="0"/>
      <psa03 value="16.5445632994" flag="0"/>
      <psa10 value="2.0976169235" flag="0"/>
      <psa30 value="1.0718550861" flag="0"/>
    </comp>
    <comp name="--.HH1">
      <acc value="0.0252702361" flag="0"/>
      <vel value="0.0084216347" flag="0"/>
      <psa03 value="0.0385793721" flag="0"/>
      <psa10 value="0.0064629144" flag="0"/>
      <psa30 value="0.0003662122" flag="0"/>
    </comp>
    <comp name="--.HHZ">
      <acc value="0.0208230338" flag="0"/>
      <vel value="0.0069570733" flag="0"/>
      <psa03 value="0.0318941716" flag="0"/>
      <psa10 value="0.0053468084" flag="0"/>
      <psa30 value="0.0003022991" flag="0"/>
    </comp>
  </station>
  <station code="BH15A" name="BH15A" netid="Y5" insttype="STS2_gen3" lat="45.0581" lon="18.4648">
    <comp name="--.HH1">
      <acc value="1.1779622987" flag="0"/>
      <vel value="0.6401235967" flag="0"/>
      <psa03 value="2.4823435172" flag="0"/>
      <psa10 value="0.2615221352" flag="0"/>
      <psa30 value="0.0209488423" flag="0"/>
    </comp>
    <comp name="--.HH2">
      <acc value="2.4597760844" flag="0"/>
      <vel value="0.8187362103" flag="0"/>
      <psa03 value="2.9254833326" flag="0"/>
      <psa10 value="0.2934734733" flag="0"/>
      <psa30 value="0.0346954225" flag="0"/>
    </comp>
    <comp name="--.HHZ">
      <acc value="4.1038881624" flag="0"/>
      <vel value="0.5595084058" flag="0"/>
      <psa03 value="0.6974712848" flag="0"/>
      <psa10 value="0.0642767997" flag="0"/>
      <psa30 value="0.0085522977" flag="0"/>
    </comp>
  </station>
  <station code="BH16A" name="BH16A" netid="Y5" insttype="STS2_gen2" lat="44.7263" lon="18.0892">
    <comp name="--.HHZ">
      <acc value="0.2013307578" flag="0"/>
      <vel value="0.0303224950" flag="0"/>
      <psa03 value="0.1147802336" flag="0"/>
      <psa10 value="0.0271779534" flag="0"/>
      <psa30 value="0.0015944142" flag="0"/>
    </comp>
    <comp name="--.HH2">
      <acc value="0.2108208551" flag="0"/>
      <vel value="0.0481812707" flag="0"/>
      <psa03 value="0.1218361020" flag="0"/>
      <psa10 value="0.0691783212" flag="0"/>
      <psa30 value="0.0041496038" flag="0"/>
    </comp>
    <comp name="--.HH1">
      <acc value="0.2287489399" flag="0"/>
      <vel value="0.0434351259" flag="0"/>
      <psa03 value="0.1812345887" flag="0"/>
      <psa10 value="0.0435127817" flag="0"/>
      <psa30 value="0.0024520016" flag="0"/>
    </comp>
  </station>
  <station code="BH18A" name="BH18A" netid="Y5" insttype="STS2_gen3" lat="44.7704" lon="18.9972">
    <comp name="--.HH1">
      <acc value="0.2057502802" flag="0"/>
      <vel value="0.0462804479" flag="0"/>
      <psa03 value="0.2412110617" flag="0"/>
      <psa10 value="0.0199942980" flag="0"/>
      <psa30 value="0.0014127088" flag="0"/>
    </comp>
    <comp name="--.HHZ">
      <acc value="0.1895342153" flag="0"/>
      <vel value="0.0327638821" flag="0"/>
      <psa03 value="0.1000859518" flag="0"/>
      <psa10 value="0.0108503144" flag="0"/>
      <psa30 value="0.0009765283" flag="0"/>
    </comp>
    <comp name="--.HH2">
      <acc value="0.1849826605" flag="0"/>
      <vel value="0.0527880112" flag="0"/>
      <psa03 value="0.1993013044" flag="0"/>
      <psa10 value="0.0219670350" flag="0"/>
      <psa30 value="0.0014203874" flag="0"/>
    </comp>
  </station>
  <station code="BH20A" name="BH20A" netid="Y5" insttype="STS2_gen3" lat="45.0928" lon="17.6625">
    <comp name="--.HH1">
      <acc value="0.3963095563" flag="0"/>
      <vel value="0.0399650678" flag="0"/>
      <psa03 value="0.1281716695" flag="0"/>
      <psa10 value="0.0164605816" flag="0"/>
      <psa30 value="0.0009161331" flag="0"/>
    </comp>
    <comp name="--.HHZ">
      <acc value="0.2778927968" flag="0"/>
      <vel value="0.0265104734" flag="0"/>
      <psa03 value="0.0632235048" flag="0"/>
      <psa10 value="0.0058012161" flag="0"/>
      <psa30 value="0.0005516913" flag="0"/>
    </comp>
    <comp name="--.HH2">
      <acc value="0.4490730569" flag="0"/>
      <vel value="0.0401101683" flag="0"/>
      <psa03 value="0.1090800760" flag="0"/>
      <psa10 value="0.0056195912" flag="0"/>
      <psa30 value="0.0006516642" flag="0"/>
    </comp>
  </station>
</stationlist>
