<?xml version="1.0" encoding="UTF-8" standalone="yes"?>
<!DOCTYPE earthquake SYSTEM "stationlist.dtd">
<stationlist created="" xmlns="ch.ethz.sed.shakemap.usgs.xml">
  <station code="AOI" name="AOI" netid="IV" insttype="" lat="43.5502" lon="13.602">
    <comp name="--.HHE">
      <acc value="0.0198211970" flag="0"/>
      <vel value="0.0080565580" flag="0"/>
      <psa03 value="0.0457128778" flag="0"/>
      <psa10 value="0.0056077033" flag="0"/>
      <psa30 value="0.0006678926" flag="0"/>
    </comp>
  </station>
  <station code="APEC" name="APEC" netid="IV" insttype="" lat="43.5585" lon="12.4199">
    <comp name="--.HHE">
      <acc value="0.0127998168" flag="0"/>
      <vel value="0.0071453567" flag="0"/>
      <psa03 value="0.0305940041" flag="0"/>
      <psa10 value="0.0051754394" flag="0"/>
      <psa30 value="0.0006407182" flag="0"/>
    </comp>
    <comp name="--.HHN">
      <acc value="0.0086276408" flag="0"/>
      <vel value="0.0057958724" flag="0"/>
      <psa03 value="0.0355526252" flag="0"/>
      <psa10 value="0.0071542002" flag="0"/>
      <psa30 value="0.0008702827" flag="0"/>
    </comp>
    <comp name="--.HHZ">
      <acc value="0.0052434675" flag="0"/>
      <vel value="0.0036551457" flag="0"/>
      <psa03 value="0.0180762931" flag="0"/>
      <psa10 value="0.0029228121" flag="0"/>
      <psa30 value="0.0005403384" flag="0"/>
    </comp>
  </station>
  <station code="ARVD" name="ARVD" netid="IV" insttype="" lat="43.4981" lon="12.9415">
    <comp name="--.HHE">
      <acc value="0.0102042878" flag="0"/>
      <vel value="0.0044177264" flag="0"/>
      <psa03 value="0.0219340225" flag="0"/>
      <psa10 value="0.0040602046" flag="0"/>
      <psa30 value="0.0004398903" flag="0"/>
    </comp>
    <comp name="--.HHZ">
      <acc value="0.0099479492" flag="0"/>
      <vel value="0.0042572713" flag="0"/>
      <psa03 value="0.0244567314" flag="0"/>
      <psa10 value="0.0029590939" flag="0"/>
      <psa30 value="0.0003911453" flag="0"/>
    </comp>
    <comp name="--.HHN">
      <acc value="0.0108250958" flag="0"/>
      <vel value="0.0054716086" flag="0"/>
      <psa03 value="0.0277687872" flag="0"/>
      <psa10 value="0.0032525638" flag="0"/>
      <psa30 value="0.0004503131" flag="0"/>
    </comp>
  </station>
  <station code="ASSB" name="ASSB" netid="IV" insttype="" lat="43.0426" lon="12.6587">
    <comp name="--.HHE">
      <acc value="0.0170477980" flag="0"/>
      <vel value="0.0080975046" flag="0"/>
      <psa03 value="0.0534834451" flag="0"/>
      <psa10 value="0.0053276908" flag="0"/>
      <psa30 value="0.0021219644" flag="0"/>
    </comp>
    <comp name="--.HHN">
      <acc value="0.0172522723" flag="0"/>
      <vel value="0.0075070112" flag="0"/>
      <psa03 value="0.0480102562" flag="0"/>
      <psa10 value="0.0058375346" flag="0"/>
      <psa30 value="0.0010880059" flag="0"/>
    </comp>
  </station>
  <station code="ATBU" name="ATBU" netid="IV" insttype="" lat="43.4757" lon="12.5483">
    <comp name="--.HNE">
      <acc value="0.0182000453" flag="0"/>
      <vel value="0.0095477010" flag="0"/>
      <psa03 value="0.0897401812" flag="0"/>
      <psa10 value="0.0097560870" flag="0"/>
      <psa30 value="0.0012979584" flag="0"/>
    </comp>
    <comp name="--.HNN">
      <acc value="0.0173386244" flag="0"/>
      <vel value="0.0129728420" flag="0"/>
      <psa03 value="0.0738901187" flag="0"/>
      <psa10 value="0.0089322881" flag="0"/>
      <psa30 value="0.0013202442" flag="0"/>
    </comp>
    <comp name="--.HNZ">
      <acc value="0.0067374835" flag="0"/>
      <vel value="0.0061162377" flag="0"/>
      <psa03 value="0.0178543807" flag="0"/>
      <psa10 value="0.0055431820" flag="0"/>
      <psa30 value="0.0010071142" flag="0"/>
    </comp>
  </station>
  <station code="ATFO" name="ATFO" netid="IV" insttype="" lat="43.3666" lon="12.5715">
    <comp name="--.HHE">
      <acc value="0.0194841079" flag="0"/>
      <vel value="0.0122800867" flag="0"/>
      <psa03 value="0.0669165448" flag="0"/>
      <psa10 value="0.0075863406" flag="0"/>
      <psa30 value="0.0012070072" flag="0"/>
    </comp>
    <comp name="--.HHN">
      <acc value="0.0098324524" flag="0"/>
      <vel value="0.0058706354" flag="0"/>
      <psa03 value="0.0336833923" flag="0"/>
      <psa10 value="0.0046225723" flag="0"/>
      <psa30 value="0.0012535945" flag="0"/>
    </comp>
    <comp name="--.HHZ">
      <acc value="0.0120465878" flag="0"/>
      <vel value="0.0047101576" flag="0"/>
      <psa03 value="0.0222307352" flag="0"/>
      <psa10 value="0.0038113245" flag="0"/>
      <psa30 value="0.0008669810" flag="0"/>
    </comp>
  </station>
  <station code="ATMI" name="ATMI" netid="IV" insttype="" lat="43.3342" lon="12.268">
    <comp name="--.HHE">
      <acc value="0.0121506455" flag="0"/>
      <vel value="0.0072023736" flag="0"/>
      <psa03 value="0.0381075864" flag="0"/>
      <psa10 value="0.0079444416" flag="0"/>
      <psa30 value="0.0016063208" flag="0"/>
    </comp>
    <comp name="--.HHN">
      <acc value="0.0109988913" flag="0"/>
      <vel value="0.0062117686" flag="0"/>
      <psa03 value="0.0406018628" flag="0"/>
      <psa10 value="0.0090569789" flag="0"/>
      <psa30 value="0.0011679054" flag="0"/>
    </comp>
    <comp name="--.HHZ">
      <acc value="0.0045711496" flag="0"/>
      <vel value="0.0032801980" flag="0"/>
      <psa03 value="0.0176566249" flag="0"/>
      <psa10 value="0.0033114808" flag="0"/>
      <psa30 value="0.0012500406" flag="0"/>
    </comp>
  </station>
  <station code="ATPC" name="ATPC" netid="IV" insttype="" lat="43.4807" lon="12.457">
    <comp name="--.HHZ">
      <acc value="0.0058606358" flag="0"/>
      <vel value="0.0056071174" flag="0"/>
      <psa03 value="0.0217455780" flag="0"/>
      <psa10 value="0.0056203128" flag="0"/>
      <psa30 value="0.0011561942" flag="0"/>
    </comp>
    <comp name="--.HHN">
      <acc value="0.0166391400" flag="0"/>
      <vel value="0.0099989281" flag="0"/>
      <psa03 value="0.0449905944" flag="0"/>
      <psa10 value="0.0093396413" flag="0"/>
      <psa30 value="0.0010976884" flag="0"/>
    </comp>
    <comp name="--.HHE">
      <acc value="0.0160599173" flag="0"/>
      <vel value="0.0081628136" flag="0"/>
      <psa03 value="0.0625653789" flag="0"/>
      <psa10 value="0.0087601643" flag="0"/>
      <psa30 value="0.0010971604" flag="0"/>
    </comp>
  </station>
  <station code="ATVO" name="ATVO" netid="IV" insttype="" lat="43.3821" lon="12.4066">
    <comp name="--.HHE">
      <acc value="0.0096815321" flag="0"/>
      <vel value="0.0066797324" flag="0"/>
      <psa03 value="0.0251277904" flag="0"/>
      <psa10 value="0.0042234307" flag="0"/>
      <psa30 value="0.0009844969" flag="0"/>
    </comp>
    <comp name="--.HHN">
      <acc value="0.0069096805" flag="0"/>
      <vel value="0.0043372606" flag="0"/>
      <psa03 value="0.0289280581" flag="0"/>
      <psa10 value="0.0042659562" flag="0"/>
      <psa30 value="0.0010887544" flag="0"/>
    </comp>
    <comp name="--.HHZ">
      <acc value="0.0063797455" flag="0"/>
      <vel value="0.0035036790" flag="0"/>
      <psa03 value="0.0277493236" flag="0"/>
      <psa10 value="0.0032616386" flag="0"/>
      <psa30 value="0.0009141177" flag="0"/>
    </comp>
  </station>
  <station code="CADA" name="CADA" netid="IV" insttype="" lat="43.1942" lon="13.7614">
    <comp name="--.HNE">
      <acc value="1.1184073158" flag="0"/>
      <vel value="0.2485620510" flag="0"/>
      <psa03 value="0.4980612173" flag="0"/>
      <psa10 value="0.1966838897" flag="0"/>
      <psa30 value="0.0092132265" flag="0"/>
    </comp>
    <comp name="--.HNZ">
      <acc value="0.4902807917" flag="0"/>
      <vel value="0.0928192514" flag="0"/>
      <psa03 value="0.1330560514" flag="0"/>
      <psa10 value="0.0421839464" flag="0"/>
      <psa30 value="0.0043475019" flag="0"/>
    </comp>
    <comp name="--.HNN">
      <acc value="0.8822213935" flag="0"/>
      <vel value="0.1762568944" flag="0"/>
      <psa03 value="0.4529312835" flag="0"/>
      <psa10 value="0.0979399931" flag="0"/>
      <psa30 value="0.0079115014" flag="0"/>
    </comp>
  </station>
  <station code="CAMP" name="CAMP" netid="IV" insttype="" lat="42.5358" lon="13.409">
    <comp name="--.HHE">
      <acc value="0.0089790136" flag="0"/>
      <vel value="0.0093626989" flag="0"/>
      <psa03 value="0.0250213279" flag="0"/>
      <psa10 value="0.0176316796" flag="0"/>
      <psa30 value="0.0030460855" flag="0"/>
    </comp>
    <comp name="--.HHN">
      <acc value="0.0100197349" flag="0"/>
      <vel value="0.0108213415" flag="0"/>
      <psa03 value="0.0238820485" flag="0"/>
      <psa10 value="0.0132034200" flag="0"/>
      <psa30 value="0.0033141425" flag="0"/>
    </comp>
    <comp name="--.HHZ">
      <acc value="0.0080289714" flag="0"/>
      <vel value="0.0078357576" flag="0"/>
      <psa03 value="0.0188022474" flag="0"/>
      <psa10 value="0.0158736876" flag="0"/>
      <psa30 value="0.0021340166" flag="0"/>
    </comp>
  </station>
  <station code="CESI" name="CESI" netid="IV" insttype="" lat="43.0049" lon="12.9046">
    <comp name="--.HHE">
      <acc value="0.0251891249" flag="0"/>
      <vel value="0.0101031019" flag="0"/>
      <psa03 value="0.0689684763" flag="0"/>
      <psa10 value="0.0106590508" flag="0"/>
      <psa30 value="0.0018210589" flag="0"/>
    </comp>
    <comp name="--.HHN">
      <acc value="0.0209091245" flag="0"/>
      <vel value="0.0116599279" flag="0"/>
      <psa03 value="0.0861883356" flag="0"/>
      <psa10 value="0.0079043751" flag="0"/>
      <psa30 value="0.0011660381" flag="0"/>
    </comp>
    <comp name="--.HHZ">
      <acc value="0.0149539007" flag="0"/>
      <vel value="0.0064959356" flag="0"/>
      <psa03 value="0.0621800107" flag="0"/>
      <psa10 value="0.0043127243" flag="0"/>
      <psa30 value="0.0016724667" flag="0"/>
    </comp>
  </station>
  <station code="CESX" name="CESX" netid="IV" insttype="" lat="42.6085" lon="12.5868">
    <comp name="--.HHE">
      <acc value="0.0092526704" flag="0"/>
      <vel value="0.0074653012" flag="0"/>
      <psa03 value="0.0255182537" flag="0"/>
      <psa10 value="0.0082422982" flag="0"/>
      <psa30 value="0.0011921114" flag="0"/>
    </comp>
    <comp name="--.HHN">
      <acc value="0.0100595491" flag="0"/>
      <vel value="0.0064484815" flag="0"/>
      <psa03 value="0.0387694239" flag="0"/>
      <psa10 value="0.0063315120" flag="0"/>
      <psa30 value="0.0008614553" flag="0"/>
    </comp>
    <comp name="--.HHZ">
      <acc value="0.0048436257" flag="0"/>
      <vel value="0.0033630530" flag="0"/>
      <psa03 value="0.0155135398" flag="0"/>
      <psa10 value="0.0032002682" flag="0"/>
      <psa30 value="0.0010215961" flag="0"/>
    </comp>
  </station>
  <station code="CIMA" name="CIMA" netid="IV" insttype="" lat="43.3053" lon="13.6701">
    <comp name="--.HNE">
      <acc value="0.2648226281" flag="0"/>
      <vel value="0.0748370501" flag="0"/>
      <psa03 value="0.1883329678" flag="0"/>
      <psa10 value="0.0573933906" flag="0"/>
      <psa30 value="0.0064812381" flag="0"/>
    </comp>
    <comp name="--.HNN">
      <acc value="0.3139565461" flag="0"/>
      <vel value="0.0720051007" flag="0"/>
      <psa03 value="0.1730463712" flag="0"/>
      <psa10 value="0.0407880345" flag="0"/>
      <psa30 value="0.0047093275" flag="0"/>
    </comp>
    <comp name="--.HNZ">
      <acc value="0.1116323924" flag="0"/>
      <vel value="0.0187642671" flag="0"/>
      <psa03 value="0.0668809955" flag="0"/>
      <psa10 value="0.0187412533" flag="0"/>
      <psa30 value="0.0041522893" flag="0"/>
    </comp>
  </station>
  <station code="CING" name="CING" netid="IV" insttype="" lat="43.3756" lon="13.1954">
    <comp name="--.HHZ">
      <acc value="0.0131901326" flag="0"/>
      <vel value="0.0054277687" flag="0"/>
      <psa03 value="0.0292592266" flag="0"/>
      <psa10 value="0.0027923768" flag="0"/>
      <psa30 value="0.0008578039" flag="0"/>
    </comp>
    <comp name="--.HHE">
      <acc value="0.0224153840" flag="0"/>
      <vel value="0.0090028059" flag="0"/>
      <psa03 value="0.0417244284" flag="0"/>
      <psa10 value="0.0045959375" flag="0"/>
      <psa30 value="0.0008332348" flag="0"/>
    </comp>
    <comp name="--.HHN">
      <acc value="0.0236910401" flag="0"/>
      <vel value="0.0079625885" flag="0"/>
      <psa03 value="0.0489235432" flag="0"/>
      <psa10 value="0.0050501541" flag="0"/>
      <psa30 value="0.0006256141" flag="0"/>
    </comp>
  </station>
  <station code="CRTC" name="CRTC" netid="IV" insttype="" lat="43.7685" lon="12.883">
    <comp name="--.HHN">
      <acc value="0.0170514799" flag="0"/>
      <vel value="0.0122745531" flag="0"/>
      <psa03 value="0.0547239184" flag="0"/>
      <psa10 value="0.0139806497" flag="0"/>
      <psa30 value="0.0016910773" flag="0"/>
    </comp>
    <comp name="--.HHE">
      <acc value="0.0148689941" flag="0"/>
      <vel value="0.0123483509" flag="0"/>
      <psa03 value="0.0397728567" flag="0"/>
      <psa10 value="0.0120974536" flag="0"/>
      <psa30 value="0.0016349138" flag="0"/>
    </comp>
    <comp name="--.HHZ">
      <acc value="0.0110479434" flag="0"/>
      <vel value="0.0067577190" flag="0"/>
      <psa03 value="0.0467461572" flag="0"/>
      <psa10 value="0.0064605654" flag="0"/>
      <psa30 value="0.0009924909" flag="0"/>
    </comp>
  </station>
  <station code="FDMO" name="FDMO" netid="IV" insttype="" lat="43.0365" lon="13.0873">
    <comp name="--.HHE">
      <acc value="0.0240106122" flag="0"/>
      <vel value="0.0100146931" flag="0"/>
      <psa03 value="0.0524681424" flag="0"/>
      <psa10 value="0.0038424199" flag="0"/>
      <psa30 value="0.0014443999" flag="0"/>
    </comp>
    <comp name="--.HHN">
      <acc value="0.0222429955" flag="0"/>
      <vel value="0.0097453408" flag="0"/>
      <psa03 value="0.0482309679" flag="0"/>
      <psa10 value="0.0047745435" flag="0"/>
      <psa30 value="0.0015727887" flag="0"/>
    </comp>
    <comp name="--.HHZ">
      <acc value="0.0149855615" flag="0"/>
      <vel value="0.0071469807" flag="0"/>
      <psa03 value="0.0286546117" flag="0"/>
      <psa10 value="0.0046218429" flag="0"/>
      <psa30 value="0.0021791633" flag="0"/>
    </comp>
  </station>
  <station code="FEMA" name="FEMA" netid="IV" insttype="" lat="42.9621" lon="13.0498">
    <comp name="--.HNE">
      <acc value="0.0412412057" flag="0"/>
      <vel value="0.0193342778" flag="0"/>
      <psa03 value="0.1331437495" flag="0"/>
      <psa10 value="0.0108397818" flag="0"/>
      <psa30 value="0.0020240536" flag="0"/>
    </comp>
    <comp name="--.HNN">
      <acc value="0.0348124526" flag="0"/>
      <vel value="0.0177877504" flag="0"/>
      <psa03 value="0.1221660238" flag="0"/>
      <psa10 value="0.0114601089" flag="0"/>
      <psa30 value="0.0015913017" flag="0"/>
    </comp>
    <comp name="--.HNZ">
      <acc value="0.0184912021" flag="0"/>
      <vel value="0.0067818095" flag="0"/>
      <psa03 value="0.0339731852" flag="0"/>
      <psa10 value="0.0088549955" flag="0"/>
      <psa30 value="0.0015028930" flag="0"/>
    </comp>
  </station>
  <station code="FIAM" name="FIAM" netid="IV" insttype="" lat="42.268" lon="13.1172">
    <comp name="--.HHE">
      <acc value="0.0244290006" flag="0"/>
      <vel value="0.0252041097" flag="0"/>
      <psa03 value="0.0600869524" flag="0"/>
      <psa10 value="0.0406113437" flag="0"/>
      <psa30 value="0.0064985149" flag="0"/>
    </comp>
    <comp name="--.HHN">
      <acc value="0.0184738577" flag="0"/>
      <vel value="0.0109501127" flag="0"/>
      <psa03 value="0.0552337547" flag="0"/>
      <psa10 value="0.0135865356" flag="0"/>
      <psa30 value="0.0012923860" flag="0"/>
    </comp>
    <comp name="--.HHZ">
      <acc value="0.0197403929" flag="0"/>
      <vel value="0.0077555655" flag="0"/>
      <psa03 value="0.0408009362" flag="0"/>
      <psa10 value="0.0090828077" flag="0"/>
      <psa30 value="0.0008977296" flag="0"/>
    </comp>
  </station>
  <station code="GAVE" name="GAVE" netid="IV" insttype="" lat="42.6922" lon="12.8942">
    <comp name="--.HNE">
      <acc value="0.0307879751" flag="0"/>
      <vel value="0.0123457009" flag="0"/>
      <psa03 value="0.1263183048" flag="0"/>
      <psa10 value="0.0069049315" flag="0"/>
      <psa30 value="0.0015990190" flag="0"/>
    </comp>
    <comp name="--.HNN">
      <acc value="0.0088714887" flag="0"/>
      <vel value="0.0039145327" flag="0"/>
      <psa03 value="0.0278887658" flag="0"/>
      <psa10 value="0.0031643817" flag="0"/>
      <psa30 value="0.0003241004" flag="0"/>
    </comp>
    <comp name="--.HNZ">
      <acc value="0.0130706936" flag="0"/>
      <vel value="0.0051497668" flag="0"/>
      <psa03 value="0.0440529180" flag="0"/>
      <psa10 value="0.0045066923" flag="0"/>
      <psa30 value="0.0009729478" flag="0"/>
    </comp>
  </station>
  <station code="GIGS" name="GIGS" netid="IV" insttype="" lat="42.4532" lon="13.5728">
    <comp name="--.HHE">
      <acc value="0.0059873810" flag="0"/>
      <vel value="0.0047905458" flag="0"/>
      <psa03 value="0.0134350826" flag="0"/>
      <psa10 value="0.0100151308" flag="0"/>
      <psa30 value="0.0016982718" flag="0"/>
    </comp>
    <comp name="--.HHN">
      <acc value="0.0084818206" flag="0"/>
      <vel value="0.0048813345" flag="0"/>
      <psa03 value="0.0115405083" flag="0"/>
      <psa10 value="0.0052128259" flag="0"/>
      <psa30 value="0.0018974271" flag="0"/>
    </comp>
    <comp name="--.HHZ">
      <acc value="0.0102445008" flag="0"/>
      <vel value="0.0068984332" flag="0"/>
      <psa03 value="0.0109540532" flag="0"/>
      <psa10 value="0.0049049222" flag="0"/>
      <psa30 value="0.0015422161" flag="0"/>
    </comp>
  </station>
  <station code="GUMA" name="GUMA" netid="IV" insttype="" lat="43.0627" lon="13.3352">
    <comp name="--.HHN">
      <acc value="0.1048828205" flag="0"/>
      <vel value="0.0551696986" flag="0"/>
      <psa03 value="0.3517073930" flag="0"/>
      <psa10 value="0.0309107482" flag="0"/>
      <psa30 value="0.0048266647" flag="0"/>
    </comp>
    <comp name="--.HHE">
      <acc value="0.0939847090" flag="0"/>
      <vel value="0.0504977595" flag="0"/>
      <psa03 value="0.3397388188" flag="0"/>
      <psa10 value="0.0310399922" flag="0"/>
      <psa30 value="0.0059444868" flag="0"/>
    </comp>
    <comp name="--.HHZ">
      <acc value="0.0487439930" flag="0"/>
      <vel value="0.0229682738" flag="0"/>
      <psa03 value="0.1839385030" flag="0"/>
      <psa10 value="0.0286373318" flag="0"/>
      <psa30 value="0.0067423729" flag="0"/>
    </comp>
  </station>
  <station code="INTR" name="INTR" netid="IV" insttype="" lat="42.0115" lon="13.9046">
    <comp name="--.HHE">
      <acc value="0.0280688739" flag="0"/>
      <vel value="0.0165406724" flag="0"/>
      <psa03 value="0.0690482582" flag="0"/>
      <psa10 value="0.0174953879" flag="0"/>
      <psa30 value="0.0017036214" flag="0"/>
    </comp>
    <comp name="--.HHN">
      <acc value="0.0347181501" flag="0"/>
      <vel value="0.0307095311" flag="0"/>
      <psa03 value="0.1221049215" flag="0"/>
      <psa10 value="0.0309591218" flag="0"/>
      <psa30 value="0.0017623854" flag="0"/>
    </comp>
    <comp name="--.HHZ">
      <acc value="0.0150966289" flag="0"/>
      <vel value="0.0058538995" flag="0"/>
      <psa03 value="0.0388462015" flag="0"/>
      <psa10 value="0.0071607045" flag="0"/>
      <psa30 value="0.0009691042" flag="0"/>
    </comp>
  </station>
  <station code="LNSS" name="LNSS" netid="IV" insttype="" lat="42.6029" lon="13.0403">
    <comp name="--.HHE">
      <acc value="0.0717635827" flag="0"/>
      <vel value="0.0292546635" flag="0"/>
      <psa03 value="0.1507184346" flag="0"/>
      <psa10 value="0.0143898287" flag="0"/>
      <psa30 value="0.0017977204" flag="0"/>
    </comp>
    <comp name="--.HHN">
      <acc value="0.0375742145" flag="0"/>
      <vel value="0.0160413550" flag="0"/>
      <psa03 value="0.1092225648" flag="0"/>
