<?xml version="1.0" encoding="UTF-8" standalone="yes"?>
<!DOCTYPE earthquake SYSTEM "stationlist.dtd">
<stationlist created="" xmlns="ch.ethz.sed.shakemap.usgs.xml">
  <station code="AOI" name="AOI" netid="IV" insttype="" lat="43.5502" lon="13.602">
    <comp name="--.HHN">
      <acc value="0.0210527679" flag="0"/>
      <vel value="0.0076678188" flag="0"/>
      <psa03 value="0.0509447111" flag="0"/>
      <psa10 value="0.0061422361" flag="0"/>
      <psa30 value="0.0006375335" flag="0"/>
    </comp>
    <comp name="--.HHE">
      <acc value="0.0198211970" flag="0"/>
      <vel value="0.0080565580" flag="0"/>
      <psa03 value="0.0457128778" flag="0"/>
      <psa10 value="0.0056077025" flag="0"/>
      <psa30 value="0.0006679121" flag="0"/>
    </comp>
    <comp name="--.HHZ">
      <acc value="0.0092723232" flag="0"/>
      <vel value="0.0042878283" flag="0"/>
      <psa03 value="0.0267915507" flag="0"/>
      <psa10 value="0.0032981776" flag="0"/>
      <psa30 value="0.0004211749" flag="0"/>
    </comp>
  </station>
  <station code="ARVD" name="ARVD" netid="IV" insttype="" lat="43.4981" lon="12.9415">
    <comp name="--.HHE">
      <acc value="0.0102042880" flag="0"/>
      <vel value="0.0044177267" flag="0"/>
      <psa03 value="0.0219340225" flag="0"/>
      <psa10 value="0.0040602046" flag="0"/>
      <psa30 value="0.0004456431" flag="0"/>
    </comp>
    <comp name="--.HHN">
      <acc value="0.0108250955" flag="0"/>
      <vel value="0.0054716109" flag="0"/>
      <psa03 value="0.0277687872" flag="0"/>
      <psa10 value="0.0032525638" flag="0"/>
      <psa30 value="0.0004503121" flag="0"/>
    </comp>
    <comp name="--.HHZ">
      <acc value="0.0099479499" flag="0"/>
      <vel value="0.0042572704" flag="0"/>
      <psa03 value="0.0244567314" flag="0"/>
      <psa10 value="0.0029590940" flag="0"/>
      <psa30 value="0.0003911834" flag="0"/>
    </comp>
  </station>
  <station code="ASSB" name="ASSB" netid="IV" insttype="" lat="43.0426" lon="12.6587">
    <comp name="--.HHE">
      <acc value="0.0170477979" flag="0"/>
      <vel value="0.0080975017" flag="0"/>
      <psa03 value="0.0534834451" flag="0"/>
      <psa10 value="0.0053276908" flag="0"/>
      <psa30 value="0.0021219678" flag="0"/>
    </comp>
    <comp name="--.HHN">
      <acc value="0.0172522723" flag="0"/>
      <vel value="0.0075070095" flag="0"/>
      <psa03 value="0.0480102562" flag="0"/>
      <psa10 value="0.0058375346" flag="0"/>
      <psa30 value="0.0010880281" flag="0"/>
    </comp>
    <comp name="--.HHZ">
      <acc value="0.0114415872" flag="0"/>
      <vel value="0.0065587377" flag="0"/>
      <psa03 value="0.0324165434" flag="0"/>
      <psa10 value="0.0035184578" flag="0"/>
      <psa30 value="0.0012621389" flag="0"/>
    </comp>
  </station>
  <station code="ATBU" name="ATBU" netid="IV" insttype="" lat="43.4757" lon="12.5483">
    <comp name="--.HNE">
      <acc value="0.0182000563" flag="0"/>
      <vel value="0.0095477017" flag="0"/>
      <psa03 value="0.0897401812" flag="0"/>
      <psa10 value="0.0097560870" flag="0"/>
      <psa30 value="0.0012979231" flag="0"/>
    </comp>
    <comp name="--.HNN">
      <acc value="0.0173386245" flag="0"/>
      <vel value="0.0129728411" flag="0"/>
      <psa03 value="0.0738901187" flag="0"/>
      <psa10 value="0.0089322877" flag="0"/>
      <psa30 value="0.0013204188" flag="0"/>
    </comp>
    <comp name="--.HNZ">
      <acc value="0.0067374803" flag="0"/>
      <vel value="0.0061162384" flag="0"/>
      <psa03 value="0.0178543807" flag="0"/>
      <psa10 value="0.0055431820" flag="0"/>
      <psa30 value="0.0010043866" flag="0"/>
    </comp>
  </station>
  <station code="ATFO" name="ATFO" netid="IV" insttype="" lat="43.3666" lon="12.5715">
    <comp name="--.HHE">
      <acc value="0.0194841079" flag="0"/>
      <vel value="0.0122800880" flag="0"/>
      <psa03 value="0.0669165448" flag="0"/>
      <psa10 value="0.0075863406" flag="0"/>
      <psa30 value="0.0012070432" flag="0"/>
    </comp>
    <comp name="--.HHN">
      <acc value="0.0098324520" flag="0"/>
      <vel value="0.0058706360" flag="0"/>
      <psa03 value="0.0336833923" flag="0"/>
      <psa10 value="0.0046225723" flag="0"/>
      <psa30 value="0.0012536062" flag="0"/>
    </comp>
    <comp name="--.HHZ">
      <acc value="0.0120465876" flag="0"/>
      <vel value="0.0047101582" flag="0"/>
      <psa03 value="0.0222307352" flag="0"/>
      <psa10 value="0.0038113245" flag="0"/>
      <psa30 value="0.0008672806" flag="0"/>
    </comp>
  </station>
  <station code="CADA" name="CADA" netid="IV" insttype="" lat="43.1942" lon="13.7614">
    <comp name="--.HNE">
      <acc value="1.1184073105" flag="0"/>
      <vel value="0.2485620458" flag="0"/>
      <psa03 value="0.4980612173" flag="0"/>
      <psa10 value="0.1966838898" flag="0"/>
      <psa30 value="0.0092118719" flag="0"/>
    </comp>
    <comp name="--.HNN">
      <acc value="0.8822213865" flag="0"/>
      <vel value="0.1762568912" flag="0"/>
      <psa03 value="0.4529312835" flag="0"/>
      <psa10 value="0.0979399924" flag="0"/>
      <psa30 value="0.0077063983" flag="0"/>
    </comp>
    <comp name="--.HNZ">
      <acc value="0.4902807915" flag="0"/>
      <vel value="0.0928192559" flag="0"/>
      <psa03 value="0.1330560513" flag="0"/>
      <psa10 value="0.0421839453" flag="0"/>
      <psa30 value="0.0043635349" flag="0"/>
    </comp>
  </station>
  <station code="CAMP" name="CAMP" netid="IV" insttype="" lat="42.5358" lon="13.409">
    <comp name="--.HHE">
      <acc value="0.0089790144" flag="0"/>
      <vel value="0.0093626987" flag="0"/>
      <psa03 value="0.0250213279" flag="0"/>
      <psa10 value="0.0176316796" flag="0"/>
      <psa30 value="0.0030461130" flag="0"/>
    </comp>
    <comp name="--.HHN">
      <acc value="0.0100197339" flag="0"/>
      <vel value="0.0108213412" flag="0"/>
      <psa03 value="0.0238820485" flag="0"/>
      <psa10 value="0.0132034200" flag="0"/>
      <psa30 value="0.0033141432" flag="0"/>
    </comp>
    <comp name="--.HHZ">
      <acc value="0.0080289710" flag="0"/>
      <vel value="0.0078357580" flag="0"/>
      <psa03 value="0.0188022474" flag="0"/>
      <psa10 value="0.0158736876" flag="0"/>
      <psa30 value="0.0021340249" flag="0"/>
    </comp>
  </station>
  <station code="CESI" name="CESI" netid="IV" insttype="" lat="43.0049" lon="12.9046">
    <comp name="--.HHE">
      <acc value="0.0251891252" flag="0"/>
      <vel value="0.0101031020" flag="0"/>
      <psa03 value="0.0689684763" flag="0"/>
      <psa10 value="0.0106590508" flag="0"/>
      <psa30 value="0.0018210569" flag="0"/>
    </comp>
    <comp name="--.HHN">
      <acc value="0.0209091245" flag="0"/>
      <vel value="0.0116599270" flag="0"/>
      <psa03 value="0.0861883356" flag="0"/>
      <psa10 value="0.0079043751" flag="0"/>
      <psa30 value="0.0011660303" flag="0"/>
    </comp>
    <comp name="--.HHZ">
      <acc value="0.0149539011" flag="0"/>
      <vel value="0.0064959366" flag="0"/>
      <psa03 value="0.0621800107" flag="0"/>
      <psa10 value="0.0043127243" flag="0"/>
      <psa30 value="0.0016724625" flag="0"/>
    </comp>
  </station>
  <station code="CIMA" name="CIMA" netid="IV" insttype="" lat="43.3053" lon="13.6701">
    <comp name="--.HNE">
      <acc value="0.2648226263" flag="0"/>
      <vel value="0.0748370514" flag="0"/>
      <psa03 value="0.1883329678" flag="0"/>
      <psa10 value="0.0573934118" flag="0"/>
      <psa30 value="0.0064813193" flag="0"/>
    </comp>
    <comp name="--.HNN">
      <acc value="0.3139565492" flag="0"/>
      <vel value="0.0720051042" flag="0"/>
      <psa03 value="0.1730463712" flag="0"/>
      <psa10 value="0.0407880381" flag="0"/>
      <psa30 value="0.0047093619" flag="0"/>
    </comp>
    <comp name="--.HNZ">
      <acc value="0.1116323993" flag="0"/>
      <vel value="0.0187642666" flag="0"/>
      <psa03 value="0.0668809955" flag="0"/>
      <psa10 value="0.0187412532" flag="0"/>
      <psa30 value="0.0041522793" flag="0"/>
    </comp>
  </station>
  <station code="CING" name="CING" netid="IV" insttype="" lat="43.3756" lon="13.1954">
    <comp name="--.HHE">
      <acc value="0.0224153839" flag="0"/>
      <vel value="0.0090028039" flag="0"/>
      <psa03 value="0.0417244284" flag="0"/>
      <psa10 value="0.0045959373" flag="0"/>
      <psa30 value="0.0008332133" flag="0"/>
    </comp>
    <comp name="--.HHN">
      <acc value="0.0236910402" flag="0"/>
      <vel value="0.0079625914" flag="0"/>
      <psa03 value="0.0489235432" flag="0"/>
      <psa10 value="0.0050501540" flag="0"/>
      <psa30 value="0.0006255898" flag="0"/>
    </comp>
    <comp name="--.HHZ">
      <acc value="0.0131901323" flag="0"/>
      <vel value="0.0054277709" flag="0"/>
      <psa03 value="0.0292592266" flag="0"/>
      <psa10 value="0.0027923767" flag="0"/>
      <psa30 value="0.0008577976" flag="0"/>
    </comp>
  </station>
  <station code="CRTC" name="CRTC" netid="IV" insttype="" lat="43.7685" lon="12.883">
    <comp name="--.HHE">
      <acc value="0.0148689929" flag="0"/>
      <vel value="0.0123483526" flag="0"/>
      <psa03 value="0.0397728567" flag="0"/>
      <psa10 value="0.0120974536" flag="0"/>
      <psa30 value="0.0015055256" flag="0"/>
    </comp>
    <comp name="--.HHN">
      <acc value="0.0170514802" flag="0"/>
      <vel value="0.0122745525" flag="0"/>
      <psa03 value="0.0547239184" flag="0"/>
      <psa10 value="0.0139806497" flag="0"/>
      <psa30 value="0.0016910629" flag="0"/>
    </comp>
    <comp name="--.HHZ">
      <acc value="0.0110479432" flag="0"/>
      <vel value="0.0067577176" flag="0"/>
      <psa03 value="0.0467461572" flag="0"/>
      <psa10 value="0.0064605654" flag="0"/>
      <psa30 value="0.0009925165" flag="0"/>
    </comp>
  </station>
  <station code="FAGN" name="FAGN" netid="IV" insttype="" lat="42.2657" lon="13.5838">
    <comp name="--.HHN">
      <acc value="0.0315207423" flag="0"/>
      <vel value="0.0143188858" flag="0"/>
      <psa03 value="0.0807070871" flag="0"/>
      <psa10 value="0.0115416518" flag="0"/>
      <psa30 value="0.0009986457" flag="0"/>
    </comp>
    <comp name="--.HHE">
      <acc value="0.0260234372" flag="0"/>
      <vel value="0.0194908643" flag="0"/>
      <psa03 value="0.0768504371" flag="0"/>
      <psa10 value="0.0215891284" flag="0"/>
      <psa30 value="0.0018191157" flag="0"/>
    </comp>
    <comp name="--.HHZ">
      <acc value="0.0230905599" flag="0"/>
      <vel value="0.0124002048" flag="0"/>
      <psa03 value="0.0795986952" flag="0"/>
      <psa10 value="0.0098313226" flag="0"/>
      <psa30 value="0.0011885656" flag="0"/>
    </comp>
  </station>
  <station code="FDMO" name="FDMO" netid="IV" insttype="" lat="43.0365" lon="13.0873">
    <comp name="--.HHN">
      <acc value="0.0222429955" flag="0"/>
      <vel value="0.0097453400" flag="0"/>
      <psa03 value="0.0482309679" flag="0"/>
      <psa10 value="0.0047745435" flag="0"/>
      <psa30 value="0.0015727899" flag="0"/>
    </comp>
    <comp name="--.HHZ">
      <acc value="0.0149855616" flag="0"/>
      <vel value="0.0071469807" flag="0"/>
      <psa03 value="0.0286546117" flag="0"/>
      <psa10 value="0.0046218429" flag="0"/>
      <psa30 value="0.0021791559" flag="0"/>
    </comp>
    <comp name="--.HHE">
      <acc value="0.0240106114" flag="0"/>
      <vel value="0.0100146929" flag="0"/>
      <psa03 value="0.0524681424" flag="0"/>
      <psa10 value="0.0038424199" flag="0"/>
      <psa30 value="0.0014444026" flag="0"/>
    </comp>
  </station>
  <station code="FEMA" name="FEMA" netid="IV" insttype="" lat="42.9621" lon="13.0498">
    <comp name="--.HNE">
      <acc value="0.0412412086" flag="0"/>
      <vel value="0.0193342731" flag="0"/>
      <psa03 value="0.1331437495" flag="0"/>
      <psa10 value="0.0108397817" flag="0"/>
      <psa30 value="0.0020246546" flag="0"/>
    </comp>
    <comp name="--.HNN">
      <acc value="0.0348124546" flag="0"/>
      <vel value="0.0177877403" flag="0"/>
      <psa03 value="0.1221660238" flag="0"/>
      <psa10 value="0.0114601075" flag="0"/>
      <psa30 value="0.0015925717" flag="0"/>
    </comp>
    <comp name="--.HNZ">
      <acc value="0.0184912020" flag="0"/>
      <vel value="0.0067817929" flag="0"/>
      <psa03 value="0.0339731852" flag="0"/>
      <psa10 value="0.0088549956" flag="0"/>
      <psa30 value="0.0015026352" flag="0"/>
    </comp>
  </station>
  <station code="FIAM" name="FIAM" netid="IV" insttype="" lat="42.268" lon="13.1172">
    <comp name="--.HHE">
      <acc value="0.0244290024" flag="0"/>
      <vel value="0.0252041079" flag="0"/>
      <psa03 value="0.0600869524" flag="0"/>
      <psa10 value="0.0406113437" flag="0"/>
      <psa30 value="0.0064985111" flag="0"/>
    </comp>
    <comp name="--.HHN">
      <acc value="0.0184738590" flag="0"/>
      <vel value="0.0109501111" flag="0"/>
      <psa03 value="0.0552337547" flag="0"/>
      <psa10 value="0.0135865280" flag="0"/>
      <psa30 value="0.0012925349" flag="0"/>
    </comp>
    <comp name="--.HHZ">
      <acc value="0.0197403935" flag="0"/>
      <vel value="0.0077555653" flag="0"/>
      <psa03 value="0.0408009362" flag="0"/>
      <psa10 value="0.0090828078" flag="0"/>
      <psa30 value="0.0008977049" flag="0"/>
    </comp>
  </station>
  <station code="GAVE" name="GAVE" netid="IV" insttype="" lat="42.6922" lon="12.8942">
    <comp name="--.HNE">
      <acc value="0.0307879718" flag="0"/>
      <vel value="0.0123456985" flag="0"/>
      <psa03 value="0.1263183049" flag="0"/>
      <psa10 value="0.0069049314" flag="0"/>
      <psa30 value="0.0015989644" flag="0"/>
    </comp>
    <comp name="--.HNN">
      <acc value="0.0088714883" flag="0"/>
      <vel value="0.0039145299" flag="0"/>
      <psa03 value="0.0278887658" flag="0"/>
      <psa10 value="0.0031643817" flag="0"/>
      <psa30 value="0.0003241040" flag="0"/>
    </comp>
    <comp name="--.HNZ">
      <acc value="0.0130707014" flag="0"/>
      <vel value="0.0051497708" flag="0"/>
      <psa03 value="0.0440529180" flag="0"/>
      <psa10 value="0.0045066926" flag="0"/>
      <psa30 value="0.0009731010" flag="0"/>
    </comp>
  </station>
  <station code="GIGS" name="GIGS" netid="IV" insttype="" lat="42.4532" lon="13.5728">
    <comp name="--.HHE">
      <acc value="0.0059873814" flag="0"/>
      <vel value="0.0047905455" flag="0"/>
      <psa03 value="0.0134350826" flag="0"/>
      <psa10 value="0.0100151308" flag="0"/>
      <psa30 value="0.0016982539" flag="0"/>
    </comp>
    <comp name="--.HHZ">
      <acc value="0.0102445008" flag="0"/>
      <vel value="0.0068984320" flag="0"/>
      <psa03 value="0.0109540532" flag="0"/>
      <psa10 value="0.0049049221" flag="0"/>
      <psa30 value="0.0015421358" flag="0"/>
    </comp>
    <comp name="--.HHN">
      <acc value="0.0084818212" flag="0"/>
      <vel value="0.0048813344" flag="0"/>
      <psa03 value="0.0115405083" flag="0"/>
      <psa10 value="0.0052128259" flag="0"/>
      <psa30 value="0.0018974412" flag="0"/>
    </comp>
  </station>
  <station code="GUMA" name="GUMA" netid="IV" insttype="" lat="43.0627" lon="13.3352">
    <comp name="--.HHN">
      <acc value="0.1048828200" flag="0"/>
      <vel value="0.0551696988" flag="0"/>
      <psa03 value="0.3517073930" flag="0"/>
      <psa10 value="0.0309107482" flag="0"/>
      <psa30 value="0.0048266629" flag="0"/>
    </comp>
    <comp name="--.HHZ">
      <acc value="0.0487439932" flag="0"/>
      <vel value="0.0229682730" flag="0"/>
      <psa03 value="0.1839385030" flag="0"/>
      <psa10 value="0.0286373318" flag="0"/>
      <psa30 value="0.0067423758" flag="0"/>
    </comp>
    <comp name="--.HHE">
      <acc value="0.0939847094" flag="0"/>
      <vel value="0.0504977587" flag="0"/>
      <psa03 value="0.3397388188" flag="0"/>
      <psa10 value="0.0310399922" flag="0"/>
      <psa30 value="0.0059444910" flag="0"/>
    </comp>
  </station>
  <station code="INTR" name="INTR" netid="IV" insttype="" lat="42.0115" lon="13.9046">
    <comp name="--.HHE">
      <acc value="0.0280688738" flag="0"/>
      <vel value="0.0165406743" flag="0"/>
      <psa03 value="0.0690482582" flag="0"/>
      <psa10 value="0.0174953879" flag="0"/>
      <psa30 value="0.0017036146" flag="0"/>
    </comp>
    <comp name="--.HHN">
      <acc value="0.0347181500" flag="0"/>
      <vel value="0.0307095304" flag="0"/>
      <psa03 value="0.1221049215" flag="0"/>
      <psa10 value="0.0309591218" flag="0"/>
      <psa30 value="0.0017624380" flag="0"/>
    </comp>
    <comp name="--.HHZ">
      <acc value="0.0150966291" flag="0"/>
      <vel value="0.0058539005" flag="0"/>
      <psa03 value="0.0388462015" flag="0"/>
      <psa10 value="0.0071607045" flag="0"/>
      <psa30 value="0.0009691223" flag="0"/>
    </comp>
  </station>
  <station code="LNSS" name="LNSS" netid="IV" insttype="" lat="42.6029" lon="13.0403">
    <comp name="--.HHE">
      <acc value="0.0717635822" flag="0"/>
      <vel value="0.0292546643" flag="0"/>
      <psa03 value="0.1507184346" flag="0"/>
      <psa10 value="0.0143898286" flag="0"/>
      <psa30 value="0.0017975171" flag="0"/>
    </comp>
    <comp name="--.HHZ">
      <acc value="0.0158676090" flag="0"/>
      <vel value="0.0061770727" flag="0"/>
      <psa03 value="0.0296009433" flag="0"/>
      <psa10 value="0.0066241813" flag="0"/>
      <psa30 value="0.0008942105" flag="0"/>
    </comp>
    <comp name="--.HHN">
      <acc value="0.0375742143" flag="0"/>
      <vel value="0.0160413554" flag="0"/>
      <psa03 value="0.1092225648" flag="0"/>
      <psa10 value="0.0127152137" flag="0"/>
      <psa30 value="0.0017108138" flag="0"/>
    </comp>
  </station>
  <station code="LPEL" name="LPEL" netid="IV" insttype="" lat="42.0468" lon="14.1832">
    <comp name="--.HHE">
      <acc value="0.0263437228" flag="0"/>
      <vel value="0.0133046020" flag="0"/>
      <psa03 value="0.0840930425" flag="0"/>
      <psa10 value="0.0279737343" flag="0"/>
      <psa30 value="0.0015032772" flag="0"/>
    </comp>
    <comp name="--.HHZ">
      <acc value="0.0172840698" flag="0"/>
      <vel value="0.0104061263" flag="0"/>
      <psa03 value="0.0271214589" flag="0"/>
      <psa10 value="0.0127923463" flag="0"/>
      <psa30 value="0.0011403432" flag="0"/>
    </comp>
    <comp name="--.HHN">
      <acc value="0.0191450705" flag="0"/>
      <vel value="0.0118891786" flag="0"/>
      <psa03 value="0.0516208151" flag="0"/>
      <psa10 value="0.0212252345" flag="0"/>
      <psa30 value="0.0010935800" flag="0"/>
    </comp>
  </station>
  <station code="MML1" name="MML1" netid="IV" insttype="" lat="43.1135" lon="12.9717">
    <comp name="--.HNE">
      <acc value="0.0308469232" flag="0"/>
      <vel value="0.0106345534" flag="0"/>
      <psa03 value="0.0962538169" flag="0"/>
      <psa10 value="0.0054775455" flag="0"/>
      <psa30 value="0.0021514752" flag="0"/>
    </comp>
    <comp name="--.HNZ">
      <acc value="0.0143750979" flag="0"/>
      <vel value="0.0076843147" flag="0"/>
      <psa03 value="0.0405442106" flag="0"/>
      <psa10 value="0.0036755747" flag="0"/>
      <psa30 value="0.0017834941" flag="0"/>
    </comp>
    <comp name="--.HNN">
      <acc value="0.0318404022" flag="0"/>
      <vel value="0.0115607836" flag="0"/>
      <psa03 value="0.0798300996" flag="0"/>
      <psa10 value="0.0072781514" flag="0"/>
      <psa30 value="0.0012455315" flag="0"/>
    </comp>
  </station>
  <station code="MNTP" name="MNTP" netid="IV" insttype="" lat="43.1374" lon="13.4693">
    <comp name="--.HNE">
      <acc value="0.0924042975" flag="0"/>
      <vel value="0.0403290310" flag="0"/>
      <psa03 value="0.2705858331" flag="0"/>
      <psa10 value="0.0293567000" flag="0"/>
      <psa30 value="0.0093383599" flag="0"/>
    </comp>
    <comp name="--.HNN">
      <acc value="0.0970110640" flag="0"/>
      <vel value="0.0245662912" flag="0"/>
      <psa03 value="0.1442449255" flag="0"/>
      <psa10 value="0.0268913640" flag="0"/>
      <psa30 value="0.0068211441" flag="0"/>
    </comp>
