<?xml version="1.0" encoding="UTF-8" standalone="yes"?>
<!DOCTYPE earthquake SYSTEM "stationlist.dtd">
<stationlist created="" xmlns="ch.ethz.sed.shakemap.usgs.xml">
  <station code="ITM" name="ITM" netid="HL" insttype="DR24" lat="37.1787" lon="21.9252">
    <comp name="--.HHZ">
      <acc value="0.0060989534" flag="0"/>
      <vel value="0.0028686593" flag="0"/>
      <psa03 value="0.0105628721" flag="0"/>
      <psa10 value="0.0043852804" flag="0"/>
      <psa30 value="0.0003570543" flag="0"/>
    </comp>
    <comp name="--.HHE">
      <acc value="0.0114219166" flag="0"/>
      <vel value="0.0036713244" flag="0"/>
      <psa03 value="0.0148537287" flag="0"/>
      <psa10 value="0.0064686552" flag="0"/>
      <psa30 value="0.0004695007" flag="0"/>
    </comp>
    <comp name="--.HHN">
      <acc value="0.0152507729" flag="0"/>
      <vel value="0.0037291930" flag="0"/>
      <psa03 value="0.0213677075" flag="0"/>
      <psa10 value="0.0035088088" flag="0"/>
      <psa30 value="0.0004479247" flag="0"/>
    </comp>
  </station>
  <station code="AAMF" name="AAMF" netid="HP" insttype="DC_100" lat="37.107" lon="22.0689">
    <comp name="--.HNE">
      <acc value="0.0084191434" flag="0"/>
      <vel value="0.0020354780" flag="0"/>
      <psa03 value="0.0085315819" flag="0"/>
      <psa10 value="0.0025092110" flag="0"/>
      <psa30 value="0.0001131634" flag="0"/>
    </comp>
  </station>
  <station code="AMT" name="AMT" netid="HP" insttype="CMG-3T," lat="37.5324" lon="21.7089">
    <comp name="00.HHN">
      <acc value="0.0166810628" flag="0"/>
      <vel value="0.0115050902" flag="0"/>
      <psa03 value="0.0430290085" flag="0"/>
      <psa10 value="0.0169754544" flag="0"/>
      <psa30 value="0.0008830249" flag="0"/>
    </comp>
    <comp name="00.HHZ">
      <acc value="0.0130667499" flag="0"/>
      <vel value="0.0079267479" flag="0"/>
      <psa03 value="0.0472287573" flag="0"/>
      <psa10 value="0.0057110631" flag="0"/>
      <psa30 value="0.0003800981" flag="0"/>
    </comp>
    <comp name="00.HHE">
      <acc value="0.0196979851" flag="0"/>
      <vel value="0.0176061685" flag="0"/>
      <psa03 value="0.0371714879" flag="0"/>
      <psa10 value="0.0264670345" flag="0"/>
      <psa30 value="0.0010727509" flag="0"/>
    </comp>
  </station>
  <station code="LTHK" name="LTHK" netid="HP" insttype="40," lat="37.7095" lon="20.8367">
    <comp name="--.HHE">
      <acc value="0.0409036549" flag="0"/>
      <vel value="0.0084214782" flag="0"/>
      <psa03 value="0.0298786554" flag="0"/>
      <psa10 value="0.0092511009" flag="0"/>
      <psa30 value="0.0004261213" flag="0"/>
    </comp>
    <comp name="--.HHN">
      <acc value="0.0297799709" flag="0"/>
      <vel value="0.0119810073" flag="0"/>
      <psa03 value="0.0447324988" flag="0"/>
      <psa10 value="0.0097141783" flag="0"/>
      <psa30 value="0.0007119510" flag="0"/>
    </comp>
    <comp name="--.HHZ">
      <acc value="0.0127914025" flag="0"/>
      <vel value="0.0057049091" flag="0"/>
      <psa03 value="0.0291007955" flag="0"/>
      <psa10 value="0.0032099096" flag="0"/>
      <psa30 value="0.0003305670" flag="0"/>
    </comp>
  </station>
  <station code="PYL" name="PYL" netid="HP" insttype="120s" lat="36.8955" lon="21.742">
    <comp name="--.HHN">
      <acc value="0.0233008740" flag="0"/>
      <vel value="0.0053807391" flag="0"/>
      <psa03 value="0.0164826157" flag="0"/>
      <psa10 value="0.0055247670" flag="0"/>
      <psa30 value="0.0004442970" flag="0"/>
    </comp>
    <comp name="--.HHE">
      <acc value="0.0248981730" flag="0"/>
      <vel value="0.0045599403" flag="0"/>
      <psa03 value="0.0134663832" flag="0"/>
      <psa10 value="0.0030298594" flag="0"/>
      <psa30 value="0.0003184930" flag="0"/>
    </comp>
    <comp name="--.HHZ">
      <acc value="0.0130691541" flag="0"/>
      <vel value="0.0020794459" flag="0"/>
      <psa03 value="0.0091938873" flag="0"/>
      <psa10 value="0.0032499338" flag="0"/>
      <psa30 value="0.0002436323" flag="0"/>
    </comp>
  </station>
  <station code="VALY" name="VALY" netid="HP" insttype="DC_100" lat="37.1641" lon="21.9836">
    <comp name="--.HNE">
      <acc value="0.0101205953" flag="0"/>
      <vel value="0.0043521674" flag="0"/>
      <psa03 value="0.0168136069" flag="0"/>
      <psa10 value="0.0046066367" flag="0"/>
      <psa30 value="0.0003361635" flag="0"/>
    </comp>
    <comp name="--.HNZ">
      <acc value="0.0043996856" flag="0"/>
      <vel value="0.0025654019" flag="0"/>
      <psa03 value="0.0076731334" flag="0"/>
      <psa10 value="0.0040398204" flag="0"/>
      <psa30 value="0.0001825254" flag="0"/>
    </comp>
    <comp name="--.HNN">
      <acc value="0.0111758981" flag="0"/>
      <vel value="0.0032719423" flag="0"/>
      <psa03 value="0.0174891948" flag="0"/>
      <psa10 value="0.0035030805" flag="0"/>
      <psa30 value="0.0002477029" flag="0"/>
    </comp>
  </station>
  <station code="RTZL" name="RTZL" netid="HT" insttype="Compact," lat="38.076" lon="20.7715">
    <comp name="--.HHZ">
      <acc value="0.0040729246" flag="0"/>
      <vel value="0.0011934706" flag="0"/>
      <psa03 value="0.0036661718" flag="0"/>
      <psa10 value="0.0013817606" flag="0"/>
      <psa30 value="0.0000942287" flag="0"/>
    </comp>
    <comp name="--.HHE">
      <acc value="0.0080390145" flag="0"/>
      <vel value="0.0026878325" flag="0"/>
      <psa03 value="0.0070233054" flag="0"/>
      <psa10 value="0.0024126131" flag="0"/>
      <psa30 value="0.0001998837" flag="0"/>
    </comp>
    <comp name="--.HHN">
      <acc value="0.0067646366" flag="0"/>
      <vel value="0.0024595401" flag="0"/>
      <psa03 value="0.0071232920" flag="0"/>
      <psa10 value="0.0034247773" flag="0"/>
      <psa30 value="0.0001201775" flag="0"/>
    </comp>
  </station>
</stationlist>
