<stationlist created="1631873537">
	<station code="PYL1" name="PYL1" netid="HI" source="ITSAK Strong Motion Network" insttype="" lat="36.914188" lon="21.695161">
		<comp name="--.HNE" depth="0.0">
			<acc value="0.02428926" flag="0"/>
			<vel value="-0.0109" flag="0"/>
			<psa03 value="0.0390599463778" flag="0"/>
			<psa10 value="0.0120038866136" flag="0"/>
			<psa30 value="0.000527063193963" flag="0"/>
		</comp>
		<comp name="--.HNN" depth="0.0">
			<acc value="0.016671594" flag="0"/>
			<vel value="-0.005465" flag="0"/>
			<psa03 value="0.0276954258967" flag="0"/>
			<psa10 value="0.00637442217691" flag="0"/>
			<psa30 value="0.000585675484633" flag="0"/>
		</comp>
		<comp name="--.HNZ" depth="0.0">
			<acc value="-0.015337434" flag="0"/>
			<vel value="-0.004419" flag="0"/>
			<psa03 value="0.0130199821259" flag="0"/>
			<psa10 value="0.00426035291419" flag="0"/>
			<psa30 value="0.00045010659858" flag="0"/>
		</comp>
	</station>
	<station code="ITM" name="ITM" netid="HL" source="National Observatory of Athens Seismic Network" insttype="" lat="37.17872" lon="21.92522">
		<comp name="--.HNE" depth="0.0">
			<acc value="0.011489994" flag="0"/>
			<vel value="-0.003678" flag="0"/>
			<psa03 value="0.0148991548039" flag="0"/>
			<psa10 value="0.00639052937129" flag="0"/>
			<psa30 value="0.000415207677418" flag="0"/>
		</comp>
		<comp name="--.HNN" depth="0.0">
			<acc value="0.015228804" flag="0"/>
			<vel value="0.003743" flag="0"/>
			<psa03 value="0.0209393526974" flag="0"/>
			<psa10 value="0.00348720758383" flag="0"/>
			<psa30 value="0.000518562174706" flag="0"/>
		</comp>
		<comp name="--.HNZ" depth="0.0">
			<acc value="-0.005968734" flag="0"/>
			<vel value="0.002636" flag="0"/>
			<psa03 value="0.0102459653156" flag="0"/>
			<psa10 value="0.0040670665816" flag="0"/>
			<psa30 value="0.000395968528572" flag="0"/>
		</comp>
	</station>
	<station code="PYL" name="PYL" netid="HP" source="University of Patras, Seismological Laboratory (PSLNET)" insttype="" lat="36.8955" lon="21.742">
		<comp name="--.HNE" depth="0.0">
			<acc value="0.026134338" flag="0"/>
			<vel value="-0.005247" flag="0"/>
			<psa03 value="0.0165993586554" flag="0"/>
			<psa10 value="0.00437713007347" flag="0"/>
			<psa30 value="0.000452791130977" flag="0"/>
		</comp>
		<comp name="--.HNN" depth="0.0">
			<acc value="0.0210579" flag="0"/>
			<vel value="0.007104" flag="0"/>
			<psa03 value="0.020626157251" flag="0"/>
			<psa10 value="0.00706703153536" flag="0"/>
			<psa30 value="0.000612520808604" flag="0"/>
		</comp>
		<comp name="--.HNZ" depth="0.0">
			<acc value="0.014280408" flag="0"/>
			<vel value="0.002644" flag="0"/>
			<psa03 value="0.0115882315141" flag="0"/>
			<psa10 value="0.00423216532402" flag="0"/>
			<psa30 value="0.000418787053947" flag="0"/>
		</comp>
	</station>
</stationlist>
