<?xml version="1.0" encoding="UTF-8" standalone="yes"?>
<!DOCTYPE earthquake SYSTEM "stationlist.dtd">
<stationlist created="" xmlns="ch.ethz.sed.shakemap.usgs.xml">
  <station code="AKS" name="AKS" netid="KO" insttype="CMG-5T" commtype="DIG" lat="38.8785" lon="27.8129">
    <comp name="--.HNE">
      <acc value="0.0817570512" flag="0"/>
      <vel value="0.1252921782" flag="0"/>
      <psa03 value="0.1281711605" flag="0"/>
      <psa10 value="0.1906850219" flag="0"/>
      <psa30 value="0.0355828834" flag="0"/>
    </comp>
    <comp name="--.HNZ">
      <acc value="0.0304675396" flag="0"/>
      <vel value="0.0511630924" flag="0"/>
      <psa03 value="0.0521899281" flag="0"/>
      <psa10 value="0.0798889854" flag="0"/>
      <psa30 value="0.0106379987" flag="0"/>
    </comp>
    <comp name="--.HNN">
      <acc value="0.0718781696" flag="0"/>
      <vel value="0.1073785245" flag="0"/>
      <psa03 value="0.2090442133" flag="0"/>
      <psa10 value="0.1530764374" flag="0"/>
      <psa30 value="0.0287720661" flag="0"/>
    </comp>
  </station>
  <station code="ALT" name="ALT" netid="KO" insttype="CMG-5T" commtype="DIG" lat="39.0541" lon="30.1104">
    <comp name="--.HNN">
      <acc value="0.0356708137" flag="0"/>
      <vel value="0.0313067389" flag="0"/>
      <psa03 value="0.0969544588" flag="0"/>
      <psa10 value="0.0206830897" flag="0"/>
      <psa30 value="0.0097878342" flag="0"/>
    </comp>
    <comp name="--.HNZ">
      <acc value="0.0265404221" flag="0"/>
      <vel value="0.0186627842" flag="0"/>
      <psa03 value="0.0577563287" flag="0"/>
      <psa10 value="0.0165555174" flag="0"/>
      <psa30 value="0.0067207886" flag="0"/>
    </comp>
  </station>
  <station code="APMY" name="APMY" netid="KO" insttype="CMG-6T" commtype="DIG" lat="37.4717" lon="29.3018">
    <comp name="--.HHZ">
      <acc value="0.1358630718" flag="0"/>
      <vel value="0.0637933847" flag="0"/>
      <psa03 value="0.2806416552" flag="0"/>
      <psa10 value="0.0671653086" flag="0"/>
      <psa30 value="0.0096496215" flag="0"/>
    </comp>
    <comp name="--.HHE">
      <acc value="0.2290324521" flag="0"/>
      <vel value="0.0711220014" flag="0"/>
      <psa03 value="0.2686927196" flag="0"/>
      <psa10 value="0.0422957616" flag="0"/>
      <psa30 value="0.0150919292" flag="0"/>
    </comp>
    <comp name="--.HHN">
      <acc value="0.2012469002" flag="0"/>
      <vel value="0.0684475805" flag="0"/>
      <psa03 value="0.4047258374" flag="0"/>
      <psa10 value="0.0640723406" flag="0"/>
      <psa30 value="0.0155559764" flag="0"/>
    </comp>
  </station>
  <station code="AYDB" name="AYDB" netid="KO" insttype="CMG-3ESPC" commtype="DIG" lat="37.9467" lon="27.8908">
    <comp name="--.HHZ">
      <acc value="0.1457611146" flag="0"/>
      <vel value="0.0930502505" flag="0"/>
      <psa03 value="0.3727941567" flag="0"/>
      <psa10 value="0.0920532163" flag="0"/>
      <psa30 value="0.0148358793" flag="0"/>
    </comp>
    <comp name="--.HHE">
      <acc value="0.2668071511" flag="0"/>
      <vel value="0.1462554807" flag="0"/>
      <psa03 value="0.5873756981" flag="0"/>
      <psa10 value="0.1032936829" flag="0"/>
      <psa30 value="0.0230157122" flag="0"/>
    </comp>
    <comp name="--.HHN">
      <acc value="0.2948159913" flag="0"/>
      <vel value="0.1947919384" flag="0"/>
      <psa03 value="0.9240189305" flag="0"/>
      <psa10 value="0.1357795157" flag="0"/>
      <psa30 value="0.0266324761" flag="0"/>
    </comp>
  </station>
  <station code="BABD" name="BABD" netid="KO" insttype="CMG-6T" commtype="DIG" lat="37.802" lon="28.8531">
    <comp name="--.HHN">
      <acc value="1.1099157037" flag="0"/>
      <vel value="0.1935413703" flag="0"/>
      <psa03 value="0.8715014654" flag="0"/>
      <psa10 value="0.1654585841" flag="0"/>
      <psa30 value="0.0391967811" flag="0"/>
    </comp>
    <comp name="--.HHE">
      <acc value="1.1346529393" flag="0"/>
      <vel value="0.1775584099" flag="0"/>
      <psa03 value="0.9622924059" flag="0"/>
      <psa10 value="0.2075286993" flag="0"/>
      <psa30 value="0.0275031808" flag="0"/>
    </comp>
    <comp name="--.HHZ">
      <acc value="0.5350669470" flag="0"/>
      <vel value="0.1073912663" flag="0"/>
      <psa03 value="0.4340815841" flag="0"/>
      <psa10 value="0.0909150948" flag="0"/>
      <psa30 value="0.0263343695" flag="0"/>
    </comp>
  </station>
  <station code="BAKL" name="BAKL" netid="KO" insttype="CMG-6T" commtype="DIG" lat="37.9793" lon="29.6135">
    <comp name="--.HHE">
      <acc value="0.1704800386" flag="0"/>
      <vel value="0.1243101308" flag="0"/>
      <psa03 value="0.4375926838" flag="0"/>
      <psa10 value="0.1137608816" flag="0"/>
      <psa30 value="0.0195998187" flag="0"/>
    </comp>
    <comp name="--.HHN">
      <acc value="0.1684992719" flag="0"/>
      <vel value="0.1216353029" flag="0"/>
      <psa03 value="0.3988908162" flag="0"/>
      <psa10 value="0.1241661704" flag="0"/>
      <psa30 value="0.0242300027" flag="0"/>
    </comp>
    <comp name="--.HHZ">
      <acc value="0.0884476728" flag="0"/>
      <vel value="0.0694236356" flag="0"/>
      <psa03 value="0.3038768716" flag="0"/>
      <psa10 value="0.0826627936" flag="0"/>
      <psa30 value="0.0159310142" flag="0"/>
    </comp>
  </station>
  <station code="BASM" name="BASM" netid="KO" insttype="CMG-5T" commtype="DIG" lat="37.9194" lon="30.035">
    <comp name="--.HNE">
      <acc value="0.2820855717" flag="0"/>
      <vel value="0.1866682233" flag="0"/>
      <psa03 value="0.5483091880" flag="0"/>
      <psa10 value="0.3091380579" flag="0"/>
      <psa30 value="0.0159726628" flag="0"/>
    </comp>
    <comp name="--.HNN">
      <acc value="0.2983836621" flag="0"/>
      <vel value="0.1547858274" flag="0"/>
      <psa03 value="0.6710127228" flag="0"/>
      <psa10 value="0.2194008754" flag="0"/>
      <psa30 value="0.0231004217" flag="0"/>
    </comp>
    <comp name="--.HNZ">
      <acc value="0.1904378947" flag="0"/>
      <vel value="0.1289463233" flag="0"/>
      <psa03 value="0.3586158600" flag="0"/>
      <psa10 value="0.1942412575" flag="0"/>
      <psa30 value="0.0094464726" flag="0"/>
    </comp>
  </station>
  <station code="BLCB" name="BLCB" netid="KO" insttype="CMG-3T" commtype="DIG" lat="38.3853" lon="27.042">
    <comp name="--.HHN">
      <acc value="0.0047685373" flag="0"/>
      <vel value="0.0021691111" flag="0"/>
      <psa03 value="0.0157063327" flag="0"/>
      <psa10 value="0.0021672443" flag="0"/>
      <psa30 value="0.0001928391" flag="0"/>
    </comp>
    <comp name="--.HHZ">
      <acc value="0.0222802546" flag="0"/>
      <vel value="0.0244573744" flag="0"/>
      <psa03 value="0.0684778772" flag="0"/>
      <psa10 value="0.0377034020" flag="0"/>
      <psa30 value="0.0074314040" flag="0"/>
    </comp>
  </station>
  <station code="CAME" name="CAME" netid="KO" insttype="CMG-5T" commtype="DIG" lat="36.9435" lon="29.3023">
    <comp name="--.HNZ">
      <acc value="0.0300635539" flag="0"/>
      <vel value="0.0296151099" flag="0"/>
      <psa03 value="0.0887555179" flag="0"/>
      <psa10 value="0.0240068953" flag="0"/>
      <psa30 value="0.0105147093" flag="0"/>
    </comp>
    <comp name="--.HNE">
      <acc value="0.0431184594" flag="0"/>
      <vel value="0.0311955645" flag="0"/>
      <psa03 value="0.1179232779" flag="0"/>
      <psa10 value="0.0357843329" flag="0"/>
      <psa30 value="0.0077083631" flag="0"/>
    </comp>
    <comp name="--.HNN">
      <acc value="0.0417369625" flag="0"/>
      <vel value="0.0289800761" flag="0"/>
      <psa03 value="0.1656600307" flag="0"/>
      <psa10 value="0.0282653445" flag="0"/>
      <psa30 value="0.0069392876" flag="0"/>
    </comp>
  </station>
  <station code="DST" name="DST" netid="KO" insttype="CMG-5T" commtype="DIG" lat="39.6041" lon="28.6267">
    <comp name="--.HNE">
      <acc value="0.0304735596" flag="0"/>
      <vel value="0.0459494351" flag="0"/>
      <psa03 value="0.0758136129" flag="0"/>
      <psa10 value="0.0884124261" flag="0"/>
      <psa30 value="0.0056876222" flag="0"/>
    </comp>
    <comp name="--.HNZ">
      <acc value="0.0208214738" flag="0"/>
      <vel value="0.0172914308" flag="0"/>
      <psa03 value="0.0557563643" flag="0"/>
      <psa10 value="0.0169250737" flag="0"/>
      <psa30 value="0.0020259270" flag="0"/>
    </comp>
    <comp name="--.HNN">
      <acc value="0.0324449893" flag="0"/>
      <vel value="0.0465471986" flag="0"/>
      <psa03 value="0.0648704220" flag="0"/>
      <psa10 value="0.0734143583" flag="0"/>
      <psa30 value="0.0164151109" flag="0"/>
    </comp>
  </station>
  <station code="ELL" name="ELL" netid="KO" insttype="CMG-3T" commtype="DIG" lat="36.7483" lon="29.9085">
    <comp name="--.HHE">
      <acc value="0.0068941819" flag="0"/>
      <vel value="0.0169056778" flag="0"/>
      <psa03 value="0.0184637763" flag="0"/>
      <psa10 value="0.0240176705" flag="0"/>
      <psa30 value="0.0054963821" flag="0"/>
    </comp>
    <comp name="--.HHZ">
      <acc value="0.0051332550" flag="0"/>
      <vel value="0.0106062594" flag="0"/>
      <psa03 value="0.0168204138" flag="0"/>
      <psa10 value="0.0107451031" flag="0"/>
      <psa30 value="0.0082536167" flag="0"/>
    </comp>
    <comp name="--.HHN">
      <acc value="0.0075356219" flag="0"/>
      <vel value="0.0101122736" flag="0"/>
      <psa03 value="0.0242075547" flag="0"/>
      <psa10 value="0.0134187318" flag="0"/>
      <psa30 value="0.0042734609" flag="0"/>
    </comp>
  </station>
  <station code="FETY" name="FETY" netid="KO" insttype="CMG-3ESP" commtype="DIG" lat="36.6353" lon="29.0835">
    <comp name="--.HHE">
      <acc value="0.0175945125" flag="0"/>
      <vel value="0.0069980859" flag="0"/>
      <psa03 value="0.0592646719" flag="0"/>
      <psa10 value="0.0117483663" flag="0"/>
      <psa30 value="0.0015435011" flag="0"/>
    </comp>
    <comp name="--.HHZ">
      <acc value="0.0144955662" flag="0"/>
      <vel value="0.0193821007" flag="0"/>
      <psa03 value="0.0348984989" flag="0"/>
      <psa10 value="0.0265564619" flag="0"/>
      <psa30 value="0.0072328846" flag="0"/>
    </comp>
    <comp name="--.HHN">
      <acc value="0.0167208961" flag="0"/>
      <vel value="0.0154122770" flag="0"/>
      <psa03 value="0.0481942475" flag="0"/>
      <psa10 value="0.0237809078" flag="0"/>
      <psa30 value="0.0055892055" flag="0"/>
    </comp>
  </station>
  <station code="GEDZ" name="GEDZ" netid="KO" insttype="CMG-6T" commtype="DIG" lat="39.0445" lon="29.4105">
    <comp name="--.HHE">
      <acc value="0.3202650716" flag="0"/>
      <vel value="0.1726297816" flag="0"/>
      <psa03 value="1.5927831288" flag="0"/>
      <psa10 value="0.2043362407" flag="0"/>
      <psa30 value="0.0369013590" flag="0"/>
    </comp>
    <comp name="--.HHN">
      <acc value="0.3393462250" flag="0"/>
      <vel value="0.2125005609" flag="0"/>
      <psa03 value="1.1130445830" flag="0"/>
      <psa10 value="0.3035127486" flag="0"/>
      <psa30 value="0.0433734685" flag="0"/>
    </comp>
    <comp name="--.HHZ">
      <acc value="0.2044176958" flag="0"/>
      <vel value="0.1097039653" flag="0"/>
      <psa03 value="0.2796205780" flag="0"/>
      <psa10 value="0.1215599022" flag="0"/>
      <psa30 value="0.0127667564" flag="0"/>
    </comp>
  </station>
  <station code="GOMA" name="GOMA" netid="KO" insttype="CMG-5T" commtype="DIG" lat="38.7077" lon="27.9175">
    <comp name="--.HNE">
      <acc value="0.1075351584" flag="0"/>
      <vel value="0.0784543400" flag="0"/>
      <psa03 value="0.4238809075" flag="0"/>
      <psa10 value="0.1217043259" flag="0"/>
      <psa30 value="0.0130162717" flag="0"/>
    </comp>
    <comp name="--.HNZ">
      <acc value="0.0428123136" flag="0"/>
      <vel value="0.0397676726" flag="0"/>
      <psa03 value="0.0969421652" flag="0"/>
      <psa10 value="0.0516095873" flag="0"/>
      <psa30 value="0.0077213152" flag="0"/>
    </comp>
    <comp name="--.HNN">
      <acc value="0.0672133807" flag="0"/>
      <vel value="0.0858756214" flag="0"/>
      <psa03 value="0.1390825042" flag="0"/>
      <psa10 value="0.0986401607" flag="0"/>
      <psa30 value="0.0241470585" flag="0"/>
    </comp>
  </station>
  <station code="GORD" name="GORD" netid="KO" insttype="CMG-5T" commtype="DIG" lat="38.9088" lon="28.1769">
    <comp name="--.HNE">
      <acc value="0.1309418215" flag="0"/>
      <vel value="0.1921947451" flag="0"/>
      <psa03 value="0.2577300068" flag="0"/>
      <psa10 value="0.3515551264" flag="0"/>
      <psa30 value="0.0330452129" flag="0"/>
    </comp>
    <comp name="--.HNZ">
      <acc value="0.0634292449" flag="0"/>
      <vel value="0.0935356052" flag="0"/>
      <psa03 value="0.1284479319" flag="0"/>
      <psa10 value="0.1828239066" flag="0"/>
      <psa30 value="0.0207881859" flag="0"/>
    </comp>
    <comp name="--.HNN">
      <acc value="0.1218772658" flag="0"/>
      <vel value="0.2098548990" flag="0"/>
      <psa03 value="0.3026346222" flag="0"/>
      <psa10 value="0.4119656200" flag="0"/>
      <psa30 value="0.0730075407" flag="0"/>
    </comp>
  </station>
  <station code="KHL" name="KHL" netid="KO" insttype="CMG-5T" commtype="DIG" lat="38.3231" lon="29.5286">
    <comp name="--.HNN">
      <acc value="0.4247345311" flag="0"/>
      <vel value="0.2361104519" flag="0"/>
      <psa03 value="1.4342062667" flag="0"/>
      <psa10 value="0.1828174080" flag="0"/>
      <psa30 value="0.0294270638" flag="0"/>
    </comp>
    <comp name="--.HNE">
      <acc value="0.5364846058" flag="0"/>
      <vel value="0.1846478509" flag="0"/>
      <psa03 value="1.0198045130" flag="0"/>
      <psa10 value="0.0993993608" flag="0"/>
      <psa30 value="0.0151176894" flag="0"/>
    </comp>
    <comp name="--.HNZ">
      <acc value="0.3108902460" flag="0"/>
      <vel value="0.1106195540" flag="0"/>
      <psa03 value="0.8960297411" flag="0"/>
      <psa10 value="0.0808226694" flag="0"/>
      <psa30 value="0.0132185186" flag="0"/>
    </comp>
  </station>
  <station code="KULA" name="KULA" netid="KO" insttype="CMG-3T" commtype="DIG" lat="38.5145" lon="28.6607">
    <comp name="--.HHE">
      <acc value="0.4497168340" flag="0"/>
      <vel value="0.1587425504" flag="0"/>
      <psa03 value="0.8299335239" flag="0"/>
      <psa10 value="0.1727114358" flag="0"/>
      <psa30 value="0.0190959528" flag="0"/>
    </comp>
    <comp name="--.HHN">
      <acc value="0.6609715602" flag="0"/>
      <vel value="0.2683372393" flag="0"/>
      <psa03 value="0.7734561437" flag="0"/>
      <psa10 value="0.1828578587" flag="0"/>
      <psa30 value="0.0276627053" flag="0"/>
    </comp>
    <comp name="--.HHZ">
      <acc value="0.4950058384" flag="0"/>
      <vel value="0.1976815085" flag="0"/>
      <psa03 value="0.4232008432" flag="0"/>
      <psa10 value="0.1594537203" flag="0"/>
      <psa30 value="0.0245807487" flag="0"/>
    </comp>
  </station>
  <station code="KUSD" name="KUSD" netid="KO" insttype="CMG-5T" commtype="DIG" lat="37.8606" lon="27.2868">
    <comp name="--.HNE">
      <acc value="0.0408585284" flag="0"/>
      <vel value="0.0422592744" flag="0"/>
      <psa03 value="0.0885789057" flag="0"/>
      <psa10 value="0.1026310073" flag="0"/>
      <psa30 value="0.0119540263" flag="0"/>
    </comp>
    <comp name="--.HNN">
      <acc value="0.0353503695" flag="0"/>
      <vel value="0.0403210694" flag="0"/>
      <psa03 value="0.0839303639" flag="0"/>
      <psa10 value="0.0641312011" flag="0"/>
      <psa30 value="0.0113829100" flag="0"/>
    </comp>
    <comp name="--.HNZ">
      <acc value="0.0185941955" flag="0"/>
      <vel value="0.0265385364" flag="0"/>
      <psa03 value="0.0339051226" flag="0"/>
      <psa10 value="0.0536695560" flag="0"/>
      <psa30 value="0.0065411860" flag="0"/>
    </comp>
  </station>
  <station code="MLSB" name="MLSB" netid="KO" insttype="CMG-3ESP" commtype="DIG" lat="37.2953" lon="27.7767">
    <comp name="--.HHE">
      <acc value="0.0352562865" flag="0"/>
      <vel value="0.0400051366" flag="0"/>
      <psa03 value="0.1165276866" flag="0"/>
      <psa10 value="0.0544489695" flag="0"/>
      <psa30 value="0.0095301201" flag="0"/>
    </comp>
    <comp name="--.HHN">
      <acc value="0.0299369693" flag="0"/>
      <vel value="0.0338666062" flag="0"/>
      <psa03 value="0.1257698770" flag="0"/>
      <psa10 value="0.0376439014" flag="0"/>
      <psa30 value="0.0202743419" flag="0"/>
    </comp>
    <comp name="--.HHZ">
      <acc value="0.0287582480" flag="0"/>
      <vel value="0.0358971246" flag="0"/>
      <psa03 value="0.0905192686" flag="0"/>
      <psa10 value="0.0332329927" flag="0"/>
      <psa30 value="0.0116988288" flag="0"/>
    </comp>
  </station>
  <station code="NAZL" name="NAZL" netid="KO" insttype="CMG-5T" commtype="DIG" lat="37.9641" lon="28.2922">
    <comp name="--.HNE">
      <acc value="1.5425467857" flag="0"/>
      <vel value="0.6144118643" flag="0"/>
      <psa03 value="4.7020919466" flag="0"/>
      <psa10 value="0.2201895635" flag="0"/>
      <psa30 value="0.0181765662" flag="0"/>
    </comp>
    <comp name="--.HNZ">
      <acc value="0.5366879730" flag="0"/>
      <vel value="0.1521122845" flag="0"/>
      <psa03 value="0.8240516551" flag="0"/>
      <psa10 value="0.0850017623" flag="0"/>
      <psa30 value="0.0123118976" flag="0"/>
    </comp>
    <comp name="--.HNN">
      <acc value="0.9126339900" flag="0"/>
      <vel value="0.3425650088" flag="0"/>
      <psa03 value="3.0319006049" flag="0"/>
      <psa10 value="0.2202323254" flag="0"/>
      <psa30 value="0.0138823498" flag="0"/>
    </comp>
  </station>
  <station code="ODEM" name="ODEM" netid="KO" insttype="CMG-5T" commtype="DIG" lat="38.2762" lon="28.0747">
    <comp name="--.HNZ">
      <acc value="0.1162504868" flag="0"/>
      <vel value="0.0631083799" flag="0"/>
      <psa03 value="0.2400930508" flag="0"/>
      <psa10 value="0.1100545701" flag="0"/>
      <psa30 value="0.0113324490" flag="0"/>
    </comp>
    <comp name="--.HNE">
      <acc value="0.1382863760" flag="0"/>
      <vel value="0.0774053802" flag="0"/>
      <psa03 value="0.1706419814" flag="0"/>
      <psa10 value="0.1734370104" flag="0"/>
      <psa30 value="0.0088218518" flag="0"/>
    </comp>
    <comp name="--.HNN">
      <acc value="0.1899154917" flag="0"/>
      <vel value="0.0727719075" flag="0"/>
      <psa03 value="0.2338258941" flag="0"/>
      <psa10 value="0.1422734899" flag="0"/>
      <psa30 value="0.0164360150" flag="0"/>
    </comp>
  </station>
  <station code="SDAG" name="SDAG" netid="KO" insttype="CMG-6T" commtype="DIG" lat="38.4396" lon="30.9175">
    <comp name="--.HHE">
      <acc value="0.0372241202" flag="0"/>
      <vel value="0.0509579596" flag="0"/>
      <psa03 value="0.0584744876" flag="0"/>
      <psa10 value="0.1378938355" flag="0"/>
      <psa30 value="0.0066873717" flag="0"/>
    </comp>
    <comp name="--.HHZ">
      <acc value="0.0151917472" flag="0"/>
      <vel value="0.0245196054" flag="0"/>
      <psa03 value="0.0389080325" flag="0"/>
      <psa10 value="0.0375176687" flag="0"/>
      <psa30 value="0.0077449407" flag="0"/>
    </comp>
    <comp name="--.HHN">
      <acc value="0.0357962488" flag="0"/>
      <vel value="0.0490877303" flag="0"/>
      <psa03 value="0.0539184656" flag="0"/>
      <psa10 value="0.0669668195" flag="0"/>
      <psa30 value="0.0117123371" flag="0"/>
    </comp>
  </station>
  <station code="SERH" name="SERH" netid="KO" insttype="CMG-6T" commtype="DIG" lat="37.582" lon="29.2588">
    <comp name="--.HHE">
      <acc value="0.4328010426" flag="0"/>
      <vel value="0.1169563127" flag="0"/>
      <psa03 value="0.2997526693" flag="0"/>
      <psa10 value="0.0846503773" flag="0"/>
      <psa30 value="0.0204160724" flag="0"/>
    </comp>
    <comp name="--.HHN">
      <acc value="0.4549329220" flag="0"/>
      <vel value="0.1313617957" flag="0"/>
      <psa03 value="0.5045783790" flag="0"/>
      <psa10 value="0.0766466878" flag="0"/>
      <psa30 value="0.0188507078" flag="0"/>
    </comp>
    <comp name="--.HHZ">
