<?xml version="1.0" encoding="UTF-8" standalone="yes"?>
<!DOCTYPE earthquake SYSTEM "stationlist.dtd">
<stationlist created="" xmlns="ch.ethz.sed.shakemap.usgs.xml">
  <station code="AKS" name="AKS" netid="KO" insttype="CMG-5T" commtype="DIG" lat="38.8785" lon="27.8129">
    <comp name="--.HNE">
      <acc value="0.0818441667" flag="0"/>
      <vel value="0.1243731312" flag="0"/>
      <psa03 value="0.1277147476" flag="0"/>
      <psa10 value="0.1915088807" flag="0"/>
      <psa30 value="0.0321530397" flag="0"/>
    </comp>
    <comp name="--.HNN">
      <acc value="0.0711404198" flag="0"/>
      <vel value="0.1075572623" flag="0"/>
      <psa03 value="0.2086075948" flag="0"/>
      <psa10 value="0.1531061654" flag="0"/>
      <psa30 value="0.0247989456" flag="0"/>
    </comp>
    <comp name="--.HNZ">
      <acc value="0.0304111365" flag="0"/>
      <vel value="0.0514486039" flag="0"/>
      <psa03 value="0.0521574967" flag="0"/>
      <psa10 value="0.0798550380" flag="0"/>
      <psa30 value="0.0093814007" flag="0"/>
    </comp>
  </station>
  <station code="ALT" name="ALT" netid="KO" insttype="CMG-5T" commtype="DIG" lat="39.0541" lon="30.1104">
    <comp name="--.HNZ">
      <acc value="0.0265630112" flag="0"/>
      <vel value="0.0185399431" flag="0"/>
      <psa03 value="0.0578097420" flag="0"/>
      <psa10 value="0.0163762959" flag="0"/>
      <psa30 value="0.0061383884" flag="0"/>
    </comp>
    <comp name="--.HNN">
      <acc value="0.0356975153" flag="0"/>
      <vel value="0.0266396585" flag="0"/>
      <psa03 value="0.0969886528" flag="0"/>
      <psa10 value="0.0210233458" flag="0"/>
      <psa30 value="0.0074727058" flag="0"/>
    </comp>
  </station>
  <station code="APMY" name="APMY" netid="KO" insttype="CMG-6T" commtype="DIG" lat="37.4717" lon="29.3018">
    <comp name="--.HHN">
      <acc value="0.2016027600" flag="0"/>
      <vel value="0.0671318249" flag="0"/>
      <psa03 value="0.4050206982" flag="0"/>
      <psa10 value="0.0635589935" flag="0"/>
      <psa30 value="0.0120483353" flag="0"/>
    </comp>
    <comp name="--.HHZ">
      <acc value="0.1360174218" flag="0"/>
      <vel value="0.0644479369" flag="0"/>
      <psa03 value="0.2807254021" flag="0"/>
      <psa10 value="0.0670394179" flag="0"/>
      <psa30 value="0.0086641592" flag="0"/>
    </comp>
    <comp name="--.HHE">
      <acc value="0.2292210395" flag="0"/>
      <vel value="0.0737236694" flag="0"/>
      <psa03 value="0.2686914939" flag="0"/>
      <psa10 value="0.0423800019" flag="0"/>
      <psa30 value="0.0124997598" flag="0"/>
    </comp>
  </station>
  <station code="AYDB" name="AYDB" netid="KO" insttype="CMG-3ESPC" commtype="DIG" lat="37.9467" lon="27.8908">
    <comp name="--.HHN">
      <acc value="0.2938359606" flag="0"/>
      <vel value="0.1890253982" flag="0"/>
      <psa03 value="0.9245652607" flag="0"/>
      <psa10 value="0.1342464065" flag="0"/>
      <psa30 value="0.0242376397" flag="0"/>
    </comp>
    <comp name="--.HHZ">
      <acc value="0.1453081926" flag="0"/>
      <vel value="0.0910297262" flag="0"/>
      <psa03 value="0.3732213739" flag="0"/>
      <psa10 value="0.0915756171" flag="0"/>
      <psa30 value="0.0120986602" flag="0"/>
    </comp>
    <comp name="--.HHE">
      <acc value="0.2664976857" flag="0"/>
      <vel value="0.1467503874" flag="0"/>
      <psa03 value="0.5871811724" flag="0"/>
      <psa10 value="0.1025480827" flag="0"/>
      <psa30 value="0.0208369033" flag="0"/>
    </comp>
  </station>
  <station code="BABD" name="BABD" netid="KO" insttype="CMG-6T" commtype="DIG" lat="37.802" lon="28.8531">
    <comp name="--.HHE">
      <acc value="1.1351682108" flag="0"/>
      <vel value="0.1812987891" flag="0"/>
      <psa03 value="0.9632898622" flag="0"/>
      <psa10 value="0.2076243118" flag="0"/>
      <psa30 value="0.0248561286" flag="0"/>
    </comp>
    <comp name="--.HHZ">
      <acc value="0.5356330534" flag="0"/>
      <vel value="0.0989188962" flag="0"/>
      <psa03 value="0.4350367835" flag="0"/>
      <psa10 value="0.0914176055" flag="0"/>
      <psa30 value="0.0223210146" flag="0"/>
    </comp>
    <comp name="--.HHN">
      <acc value="1.1099688331" flag="0"/>
      <vel value="0.1916427933" flag="0"/>
      <psa03 value="0.8714636544" flag="0"/>
      <psa10 value="0.1654293055" flag="0"/>
      <psa30 value="0.0349368016" flag="0"/>
    </comp>
  </station>
  <station code="BAKL" name="BAKL" netid="KO" insttype="CMG-6T" commtype="DIG" lat="37.9793" lon="29.6135">
    <comp name="--.HHN">
      <acc value="0.1689381680" flag="0"/>
      <vel value="0.1162065635" flag="0"/>
      <psa03 value="0.3984847683" flag="0"/>
      <psa10 value="0.1231941970" flag="0"/>
      <psa30 value="0.0207256469" flag="0"/>
    </comp>
    <comp name="--.HHZ">
      <acc value="0.0882983688" flag="0"/>
      <vel value="0.0640537194" flag="0"/>
      <psa03 value="0.3045202128" flag="0"/>
      <psa10 value="0.0824148156" flag="0"/>
      <psa30 value="0.0132702602" flag="0"/>
    </comp>
    <comp name="--.HHE">
      <acc value="0.1692926952" flag="0"/>
      <vel value="0.1211606904" flag="0"/>
      <psa03 value="0.4360405078" flag="0"/>
      <psa10 value="0.1135355188" flag="0"/>
      <psa30 value="0.0168669042" flag="0"/>
    </comp>
  </station>
  <station code="BASM" name="BASM" netid="KO" insttype="CMG-5T" commtype="DIG" lat="37.9194" lon="30.035">
    <comp name="--.HNZ">
      <acc value="0.1905422822" flag="0"/>
      <vel value="0.1299009889" flag="0"/>
      <psa03 value="0.3585393032" flag="0"/>
      <psa10 value="0.1945594860" flag="0"/>
      <psa30 value="0.0084970269" flag="0"/>
    </comp>
    <comp name="--.HNE">
      <acc value="0.2815086183" flag="0"/>
      <vel value="0.1874215270" flag="0"/>
      <psa03 value="0.5474819150" flag="0"/>
      <psa10 value="0.3084171298" flag="0"/>
      <psa30 value="0.0139779233" flag="0"/>
    </comp>
    <comp name="--.HNN">
      <acc value="0.2993570953" flag="0"/>
      <vel value="0.1634043131" flag="0"/>
      <psa03 value="0.6723548581" flag="0"/>
      <psa10 value="0.2194647575" flag="0"/>
      <psa30 value="0.0200884799" flag="0"/>
    </comp>
  </station>
  <station code="CAME" name="CAME" netid="KO" insttype="CMG-5T" commtype="DIG" lat="36.9435" lon="29.3023">
    <comp name="--.HNZ">
      <acc value="0.0296817210" flag="0"/>
      <vel value="0.0262201725" flag="0"/>
      <psa03 value="0.0888554821" flag="0"/>
      <psa10 value="0.0240950456" flag="0"/>
      <psa30 value="0.0087166233" flag="0"/>
    </comp>
    <comp name="--.HNE">
      <acc value="0.0431996684" flag="0"/>
      <vel value="0.0303456989" flag="0"/>
      <psa03 value="0.1176196215" flag="0"/>
      <psa10 value="0.0359194855" flag="0"/>
      <psa30 value="0.0070968753" flag="0"/>
    </comp>
    <comp name="--.HNN">
      <acc value="0.0416843832" flag="0"/>
      <vel value="0.0285370134" flag="0"/>
      <psa03 value="0.1656033617" flag="0"/>
      <psa10 value="0.0281907350" flag="0"/>
      <psa30 value="0.0058553221" flag="0"/>
    </comp>
  </station>
  <station code="GEDZ" name="GEDZ" netid="KO" insttype="CMG-6T" commtype="DIG" lat="39.0445" lon="29.4105">
    <comp name="--.HHZ">
      <acc value="0.2047074690" flag="0"/>
      <vel value="0.1090051589" flag="0"/>
      <psa03 value="0.2799828189" flag="0"/>
      <psa10 value="0.1212587057" flag="0"/>
      <psa30 value="0.0103576865" flag="0"/>
    </comp>
    <comp name="--.HHE">
      <acc value="0.3201733031" flag="0"/>
      <vel value="0.1746436526" flag="0"/>
      <psa03 value="1.5928305195" flag="0"/>
      <psa10 value="0.2044043017" flag="0"/>
      <psa30 value="0.0323650206" flag="0"/>
    </comp>
    <comp name="--.HHN">
      <acc value="0.3392990541" flag="0"/>
      <vel value="0.1974113363" flag="0"/>
      <psa03 value="1.1129708328" flag="0"/>
      <psa10 value="0.3062843960" flag="0"/>
      <psa30 value="0.0363845089" flag="0"/>
    </comp>
  </station>
  <station code="GOMA" name="GOMA" netid="KO" insttype="CMG-5T" commtype="DIG" lat="38.7077" lon="27.9175">
    <comp name="--.HNE">
      <acc value="0.1074799621" flag="0"/>
      <vel value="0.0774088356" flag="0"/>
      <psa03 value="0.4239391225" flag="0"/>
      <psa10 value="0.1219320129" flag="0"/>
      <psa30 value="0.0112586382" flag="0"/>
    </comp>
    <comp name="--.HNN">
      <acc value="0.0670566010" flag="0"/>
      <vel value="0.0799390259" flag="0"/>
      <psa03 value="0.1388887918" flag="0"/>
      <psa10 value="0.0976613969" flag="0"/>
      <psa30 value="0.0205793472" flag="0"/>
    </comp>
    <comp name="--.HNZ">
      <acc value="0.0428280476" flag="0"/>
      <vel value="0.0388577483" flag="0"/>
      <psa03 value="0.0967812625" flag="0"/>
      <psa10 value="0.0515550344" flag="0"/>
      <psa30 value="0.0071300047" flag="0"/>
    </comp>
  </station>
  <station code="GORD" name="GORD" netid="KO" insttype="CMG-5T" commtype="DIG" lat="38.9088" lon="28.1769">
    <comp name="--.HNZ">
      <acc value="0.0629215158" flag="0"/>
      <vel value="0.0916668180" flag="0"/>
      <psa03 value="0.1287438288" flag="0"/>
      <psa10 value="0.1828166504" flag="0"/>
      <psa30 value="0.0188640313" flag="0"/>
    </comp>
    <comp name="--.HNE">
      <acc value="0.1323247634" flag="0"/>
      <vel value="0.1877329485" flag="0"/>
      <psa03 value="0.2591130983" flag="0"/>
      <psa10 value="0.3520156464" flag="0"/>
      <psa30 value="0.0289893343" flag="0"/>
    </comp>
    <comp name="--.HNN">
      <acc value="0.1187936754" flag="0"/>
      <vel value="0.2055384905" flag="0"/>
      <psa03 value="0.3027715161" flag="0"/>
      <psa10 value="0.4093913293" flag="0"/>
      <psa30 value="0.0629020013" flag="0"/>
    </comp>
  </station>
  <station code="KHL" name="KHL" netid="KO" insttype="CMG-5T" commtype="DIG" lat="38.3231" lon="29.5286">
    <comp name="--.HNZ">
      <acc value="0.3111303479" flag="0"/>
      <vel value="0.1097774777" flag="0"/>
      <psa03 value="0.8965266666" flag="0"/>
      <psa10 value="0.0808670834" flag="0"/>
      <psa30 value="0.0119672200" flag="0"/>
    </comp>
    <comp name="--.HNE">
      <acc value="0.5351019085" flag="0"/>
      <vel value="0.1901434928" flag="0"/>
      <psa03 value="1.0208648058" flag="0"/>
      <psa10 value="0.0984816243" flag="0"/>
      <psa30 value="0.0132697178" flag="0"/>
    </comp>
    <comp name="--.HNN">
      <acc value="0.4247929209" flag="0"/>
      <vel value="0.2244202344" flag="0"/>
      <psa03 value="1.4362031484" flag="0"/>
      <psa10 value="0.1822072078" flag="0"/>
      <psa30 value="0.0255953017" flag="0"/>
    </comp>
  </station>
  <station code="KULA" name="KULA" netid="KO" insttype="CMG-3T" commtype="DIG" lat="38.5145" lon="28.6607">
    <comp name="--.HHE">
      <acc value="0.4481430014" flag="0"/>
      <vel value="0.1485127720" flag="0"/>
      <psa03 value="0.8280364852" flag="0"/>
      <psa10 value="0.1713017959" flag="0"/>
      <psa30 value="0.0154948177" flag="0"/>
    </comp>
    <comp name="--.HHN">
      <acc value="0.6617985264" flag="0"/>
      <vel value="0.2678555752" flag="0"/>
      <psa03 value="0.7725670070" flag="0"/>
      <psa10 value="0.1821253465" flag="0"/>
      <psa30 value="0.0239712185" flag="0"/>
    </comp>
    <comp name="--.HHZ">
      <acc value="0.4949890708" flag="0"/>
      <vel value="0.1982707196" flag="0"/>
      <psa03 value="0.4232609818" flag="0"/>
      <psa10 value="0.1594897052" flag="0"/>
      <psa30 value="0.0214044891" flag="0"/>
    </comp>
  </station>
  <station code="MLSB" name="MLSB" netid="KO" insttype="CMG-3ESP" commtype="DIG" lat="37.2953" lon="27.7767">
    <comp name="--.HHE">
      <acc value="0.0350830699" flag="0"/>
      <vel value="0.0370293055" flag="0"/>
      <psa03 value="0.1161502602" flag="0"/>
      <psa10 value="0.0546085678" flag="0"/>
      <psa30 value="0.0084291556" flag="0"/>
    </comp>
    <comp name="--.HHN">
      <acc value="0.0293830675" flag="0"/>
      <vel value="0.0317351150" flag="0"/>
      <psa03 value="0.1260202093" flag="0"/>
      <psa10 value="0.0374309827" flag="0"/>
      <psa30 value="0.0181712206" flag="0"/>
    </comp>
    <comp name="--.HHZ">
      <acc value="0.0283074235" flag="0"/>
      <vel value="0.0347302509" flag="0"/>
      <psa03 value="0.0903767572" flag="0"/>
      <psa10 value="0.0328778638" flag="0"/>
      <psa30 value="0.0103314858" flag="0"/>
    </comp>
  </station>
  <station code="NAZL" name="NAZL" netid="KO" insttype="CMG-5T" commtype="DIG" lat="37.9641" lon="28.2922">
    <comp name="--.HNN">
      <acc value="0.9131428560" flag="0"/>
      <vel value="0.3330127638" flag="0"/>
      <psa03 value="3.0308075687" flag="0"/>
      <psa10 value="0.2190194803" flag="0"/>
      <psa30 value="0.0123378869" flag="0"/>
    </comp>
    <comp name="--.HNZ">
      <acc value="0.5365543747" flag="0"/>
      <vel value="0.1537368317" flag="0"/>
      <psa03 value="0.8245697020" flag="0"/>
      <psa10 value="0.0844772274" flag="0"/>
      <psa30 value="0.0109849658" flag="0"/>
    </comp>
    <comp name="--.HNE">
      <acc value="1.5423873572" flag="0"/>
      <vel value="0.6139097448" flag="0"/>
      <psa03 value="4.7022454893" flag="0"/>
      <psa10 value="0.2203467278" flag="0"/>
      <psa30 value="0.0170009198" flag="0"/>
    </comp>
  </station>
  <station code="ODEM" name="ODEM" netid="KO" insttype="CMG-5T" commtype="DIG" lat="38.2762" lon="28.0747">
    <comp name="--.HNZ">
      <acc value="0.1161275430" flag="0"/>
      <vel value="0.0645621270" flag="0"/>
      <psa03 value="0.2399923588" flag="0"/>
      <psa10 value="0.1096960399" flag="0"/>
      <psa30 value="0.0097261349" flag="0"/>
    </comp>
    <comp name="--.HNN">
      <acc value="0.1898402472" flag="0"/>
      <vel value="0.0718167510" flag="0"/>
      <psa03 value="0.2336560417" flag="0"/>
      <psa10 value="0.1422326466" flag="0"/>
      <psa30 value="0.0141327276" flag="0"/>
    </comp>
    <comp name="--.HNE">
      <acc value="0.1382344338" flag="0"/>
      <vel value="0.0786557841" flag="0"/>
      <psa03 value="0.1706028040" flag="0"/>
      <psa10 value="0.1739626879" flag="0"/>
      <psa30 value="0.0075716234" flag="0"/>
    </comp>
  </station>
  <station code="SERH" name="SERH" netid="KO" insttype="CMG-6T" commtype="DIG" lat="37.582" lon="29.2588">
    <comp name="--.HHE">
      <acc value="0.4329176745" flag="0"/>
      <vel value="0.1089274609" flag="0"/>
      <psa03 value="0.3007265111" flag="0"/>
      <psa10 value="0.0841987002" flag="0"/>
      <psa30 value="0.0171045789" flag="0"/>
    </comp>
    <comp name="--.HHZ">
      <acc value="0.2777722843" flag="0"/>
      <vel value="0.0814824381" flag="0"/>
      <psa03 value="0.3159263269" flag="0"/>
      <psa10 value="0.0660368368" flag="0"/>
      <psa30 value="0.0075141230" flag="0"/>
    </comp>
    <comp name="--.HHN">
      <acc value="0.4546191636" flag="0"/>
      <vel value="0.1301090050" flag="0"/>
      <psa03 value="0.5045064780" flag="0"/>
      <psa10 value="0.0756605994" flag="0"/>
      <psa30 value="0.0149328608" flag="0"/>
    </comp>
  </station>
  <station code="SHAP" name="SHAP" netid="KO" insttype="CMG-5T" commtype="DIG" lat="39.0231" lon="29.222">
    <comp name="--.HNZ">
      <acc value="0.0897473638" flag="0"/>
      <vel value="0.0568447364" flag="0"/>
      <psa03 value="0.2517339510" flag="0"/>
      <psa10 value="0.0660329347" flag="0"/>
      <psa30 value="0.0117168552" flag="0"/>
    </comp>
    <comp name="--.HNN">
      <acc value="0.1940392187" flag="0"/>
      <vel value="0.1125721922" flag="0"/>
      <psa03 value="0.5289705348" flag="0"/>
      <psa10 value="0.1499973353" flag="0"/>
      <psa30 value="0.0281958987" flag="0"/>
    </comp>
    <comp name="--.HNE">
      <acc value="0.1473748821" flag="0"/>
      <vel value="0.0732453749" flag="0"/>
      <psa03 value="0.3119964642" flag="0"/>
      <psa10 value="0.1200459244" flag="0"/>
      <psa30 value="0.0182540862" flag="0"/>
    </comp>
  </station>
  <station code="SHUT" name="SHUT" netid="KO" insttype="CMG-3T" commtype="DIG" lat="38.553" lon="30.551">
    <comp name="--.HHE">
      <acc value="0.0558271665" flag="0"/>
      <vel value="0.0774508245" flag="0"/>
      <psa03 value="0.1088762675" flag="0"/>
      <psa10 value="0.0963583232" flag="0"/>
      <psa30 value="0.0273208813" flag="0"/>
    </comp>
    <comp name="--.HHN">
      <acc value="0.0473610863" flag="0"/>
      <vel value="0.0798415309" flag="0"/>
      <psa03 value="0.1040055066" flag="0"/>
      <psa10 value="0.0812592006" flag="0"/>
      <psa30 value="0.0260103612" flag="0"/>
    </comp>
    <comp name="--.HHZ">
      <acc value="0.0263584276" flag="0"/>
      <vel value="0.0163811865" flag="0"/>
      <psa03 value="0.0497599860" flag="0"/>
      <psa10 value="0.0138069756" flag="0"/>
      <psa30 value="0.0020394485" flag="0"/>
    </comp>
  </station>
  <station code="SIMA" name="SIMA" netid="KO" insttype="CMG-6T" commtype="DIG" lat="39.0833" lon="28.9825">
    <comp name="--.HHZ">
      <acc value="0.1026176590" flag="0"/>
      <vel value="0.0645737310" flag="0"/>
      <psa03 value="0.2572994134" flag="0"/>
      <psa10 value="0.0732969555" flag="0"/>
      <psa30 value="0.0129779981" flag="0"/>
    </comp>
    <comp name="--.HHE">
      <acc value="0.0913235945" flag="0"/>
      <vel value="0.0845875994" flag="0"/>
      <psa03 value="0.3132628626" flag="0"/>
      <psa10 value="0.0826029481" flag="0"/>
      <psa30 value="0.0162613124" flag="0"/>
    </comp>
    <comp name="--.HHN">
      <acc value="0.1681182029" flag="0"/>
      <vel value="0.0803663559" flag="0"/>
      <psa03 value="0.3874492992" flag="0"/>
      <psa10 value="0.1438940751" flag="0"/>
      <psa30 value="0.0148649357" flag="0"/>
    </comp>
  </station>
  <station code="SMAA" name="SMAA" netid="KO" insttype="CMG-5T" commtype="DIG" lat="39.1005" lon="28.9805">
    <comp name="--.HNE">
      <acc value="0.3248994107" flag="0"/>
      <vel value="0.4320698073" flag="0"/>
      <psa03 value="0.7240642843" flag="0"/>
      <psa10 value="0.7139118456" flag="0"/>
      <psa30 value="0.0579048375" flag="0"/>
    </comp>
    <comp name="--.HNN">
      <acc value="0.2525471231" flag="0"/>
      <vel value="0.3658592149" flag="0"/>
      <psa03 value="0.6945206480" flag="0"/>
      <psa10 value="0.7249516079" flag="0"/>
      <psa30 value="0.0493252552" flag="0"/>
    </comp>
    <comp name="--.HNZ">
      <acc value="0.1191732956" flag="0"/>
      <vel value="0.0981507504" flag="0"/>
      <psa03 value="0.2347286379" flag="0"/>
      <psa10 value="0.2114880760" flag="0"/>
      <psa30 value="0.0127663495" flag="0"/>
    </comp>
  </station>
  <station code="YER" name="YER" netid="KO" insttype="CMG-3T" commtype="DIG" lat="37.1336" lon="28.284">
    <comp name="--.HHN">
      <acc value="0.0449780974" flag="0"/>
      <vel value="0.0434164111" flag="0"/>
      <psa03 value="0.1560723459" flag="0"/>
      <psa10 value="0.0851730323" flag="0"/>
      <psa30 value="0.0096329760" flag="0"/>
    </comp>
    <comp name="--.HHE">
      <acc value="0.0563254480" flag="0"/>
      <vel value="0.0454846089" flag="0"/>
      <psa03 value="0.1750379761" flag="0"/>
      <psa10 value="0.0662870015" flag="0"/>
      <psa30 value="0.0105959285" flag="0"/>
    </comp>
    <comp name="--.HHZ">
      <acc value="0.0418423130" flag="0"/>
      <vel value="0.0323451917" flag="0"/>
      <psa03 value="0.1015045515" flag="0"/>
      <psa10 value="0.0579847897" flag="0"/>
      <psa30 value="0.0110036859" flag="0"/>
    </comp>
  </station>
  <station code="AYDN" name="AYDN" netid="TU" insttype="T" commtype="DIG" lat="37.6608" lon="27.8792">
    <comp name="--.HHN">
      <acc value="0.2181683267" flag="0"/>
      <vel value="0.1613534949" flag="0"/>
      <psa03 value="0.8798909813" flag="0"/>
      <psa10 value="0.1374683900" flag="0"/>
      <psa30 value="0.0427691396" flag="0"/>
    </comp>
    <comp name="--.HHZ">
