<?xml version="1.0" encoding="UTF-8" standalone="yes"?>
<!DOCTYPE earthquake SYSTEM "stationlist.dtd">
<stationlist created="" xmlns="ch.ethz.sed.shakemap.usgs.xml">
  <station code="BERA" name="BERA" netid="AC" insttype="" lat="40.7081" lon="19.9455">
    <comp name="00.HHE">
      <acc value="1.6974582949" flag="0"/>
      <vel value="0.3443904177" flag="0"/>
      <psa03 value="1.0233479959" flag="0"/>
      <psa10 value="0.1157730832" flag="0"/>
      <psa30 value="0.0068612162" flag="0"/>
    </comp>
    <comp name="00.HHZ">
      <acc value="1.0353163661" flag="0"/>
      <vel value="0.1877250557" flag="0"/>
      <psa03 value="0.5249360858" flag="0"/>
      <psa10 value="0.0447552576" flag="0"/>
      <psa30 value="0.0030956993" flag="0"/>
    </comp>
    <comp name="00.HHN">
      <acc value="0.9935408845" flag="0"/>
      <vel value="0.2560586521" flag="0"/>
      <psa03 value="0.6021749127" flag="0"/>
      <psa10 value="0.0920418355" flag="0"/>
      <psa30 value="0.0083182301" flag="0"/>
    </comp>
  </station>
  <station code="LACI" name="LACI" netid="AC" insttype="" lat="41.6367" lon="19.7178">
    <comp name="00.HHE">
      <acc value="0.0279373145" flag="0"/>
      <vel value="0.0093812038" flag="0"/>
      <psa03 value="0.0798495611" flag="0"/>
      <psa10 value="0.0093499181" flag="0"/>
      <psa30 value="0.0011100193" flag="0"/>
    </comp>
    <comp name="00.HHZ">
      <acc value="0.0217035648" flag="0"/>
      <vel value="0.0106571400" flag="0"/>
      <psa03 value="0.0567719195" flag="0"/>
      <psa10 value="0.0077141052" flag="0"/>
      <psa30 value="0.0011462622" flag="0"/>
    </comp>
    <comp name="00.HHN">
      <acc value="0.0295365014" flag="0"/>
      <vel value="0.0109230959" flag="0"/>
      <psa03 value="0.0483995446" flag="0"/>
      <psa10 value="0.0142513404" flag="0"/>
      <psa30 value="0.0007697033" flag="0"/>
    </comp>
  </station>
  <station code="KEK" name="KEK" netid="MN" insttype="" lat="39.7127" lon="19.7962">
    <comp name="--.HHZ">
      <acc value="0.0315871157" flag="0"/>
      <vel value="0.0144613195" flag="0"/>
      <psa03 value="0.0574669289" flag="0"/>
      <psa10 value="0.0159961022" flag="0"/>
      <psa30 value="0.0008279952" flag="0"/>
    </comp>
    <comp name="--.HHE">
      <acc value="0.0423822479" flag="0"/>
      <vel value="0.0173976264" flag="0"/>
      <psa03 value="0.0725931729" flag="0"/>
      <psa10 value="0.0350204878" flag="0"/>
      <psa30 value="0.0018540638" flag="0"/>
    </comp>
    <comp name="--.HHN">
      <acc value="0.0278105402" flag="0"/>
      <vel value="0.0162678481" flag="0"/>
      <psa03 value="0.0715932749" flag="0"/>
      <psa10 value="0.0167502390" flag="0"/>
      <psa30 value="0.0013275715" flag="0"/>
    </comp>
  </station>
  <station code="TIR" name="TIR" netid="MN" insttype="" lat="41.3472" lon="19.8631">
    <comp name="--.HHE">
      <acc value="0.1521115040" flag="0"/>
      <vel value="0.0688764186" flag="0"/>
      <psa03 value="0.3060037801" flag="0"/>
      <psa10 value="0.0874039522" flag="0"/>
      <psa30 value="0.0044531303" flag="0"/>
    </comp>
    <comp name="--.HHZ">
      <acc value="0.1161444111" flag="0"/>
      <vel value="0.0382957352" flag="0"/>
      <psa03 value="0.2060007367" flag="0"/>
      <psa10 value="0.0626812618" flag="0"/>
      <psa30 value="0.0046805039" flag="0"/>
    </comp>
    <comp name="--.HHN">
      <acc value="0.1659776226" flag="0"/>
      <vel value="0.0682389721" flag="0"/>
      <psa03 value="0.1790911623" flag="0"/>
      <psa10 value="0.0427489816" flag="0"/>
      <psa30 value="0.0047842523" flag="0"/>
    </comp>
  </station>
</stationlist>
