<?xml version="1.0" encoding="UTF-8" standalone="yes"?>
<!DOCTYPE earthquake SYSTEM "stationlist.dtd">
<stationlist created="" xmlns="ch.ethz.sed.shakemap.usgs.xml">
  <station code="BERA" name="BERA" netid="AC" insttype="" lat="40.7081" lon="19.9455">
    <comp name="00.HHN">
      <acc value="0.9935408844" flag="0"/>
      <vel value="0.2560586521" flag="0"/>
      <psa03 value="0.6021749127" flag="0"/>
      <psa10 value="0.0920418358" flag="0"/>
      <psa30 value="0.0083182278" flag="0"/>
    </comp>
    <comp name="00.HHE">
      <acc value="1.6974582948" flag="0"/>
      <vel value="0.3443904173" flag="0"/>
      <psa03 value="1.0233479959" flag="0"/>
      <psa10 value="0.1157730832" flag="0"/>
      <psa30 value="0.0068612291" flag="0"/>
    </comp>
    <comp name="00.HHZ">
      <acc value="1.0353163658" flag="0"/>
      <vel value="0.1877250558" flag="0"/>
      <psa03 value="0.5249360858" flag="0"/>
      <psa10 value="0.0447552575" flag="0"/>
      <psa30 value="0.0030956892" flag="0"/>
    </comp>
  </station>
  <station code="LACI" name="LACI" netid="AC" insttype="" lat="41.6367" lon="19.7178">
    <comp name="00.HHE">
      <acc value="0.0279373140" flag="0"/>
      <vel value="0.0093812038" flag="0"/>
      <psa03 value="0.0798495611" flag="0"/>
      <psa10 value="0.0093499181" flag="0"/>
      <psa30 value="0.0011100197" flag="0"/>
    </comp>
    <comp name="00.HHN">
      <acc value="0.0295365009" flag="0"/>
      <vel value="0.0109230959" flag="0"/>
      <psa03 value="0.0483995446" flag="0"/>
      <psa10 value="0.0142513404" flag="0"/>
      <psa30 value="0.0007697299" flag="0"/>
    </comp>
    <comp name="00.HHZ">
      <acc value="0.0217035650" flag="0"/>
      <vel value="0.0106571399" flag="0"/>
      <psa03 value="0.0567719195" flag="0"/>
      <psa10 value="0.0077141052" flag="0"/>
      <psa30 value="0.0011462545" flag="0"/>
    </comp>
  </station>
  <station code="TIR" name="TIR" netid="MN" insttype="" lat="41.3472" lon="19.8631">
    <comp name="--.HHE">
      <acc value="0.1521115043" flag="0"/>
      <vel value="0.0688764187" flag="0"/>
      <psa03 value="0.3060037801" flag="0"/>
      <psa10 value="0.0874039522" flag="0"/>
      <psa30 value="0.0044531060" flag="0"/>
    </comp>
    <comp name="--.HHN">
      <acc value="0.1659776231" flag="0"/>
      <vel value="0.0682389712" flag="0"/>
      <psa03 value="0.1790911623" flag="0"/>
      <psa10 value="0.0427489816" flag="0"/>
      <psa30 value="0.0047841349" flag="0"/>
    </comp>
    <comp name="--.HHZ">
      <acc value="0.1161444114" flag="0"/>
      <vel value="0.0382957360" flag="0"/>
      <psa03 value="0.2060007367" flag="0"/>
      <psa10 value="0.0626812618" flag="0"/>
      <psa30 value="0.0046804560" flag="0"/>
    </comp>
  </station>
</stationlist>
