<?xml version="1.0" encoding="UTF-8" standalone="yes"?>
<!DOCTYPE earthquake SYSTEM "stationlist.dtd">
<stationlist created="" xmlns="ch.ethz.sed.shakemap.usgs.xml">
  <station code="CEYT" name="CEYT" netid="KO" insttype="CMG-3ESP" lat="37.0105" lon="35.7478">
    <comp name="--.HHE">
      <acc value="0.0081674808" flag="0"/>
      <vel value="0.0032090236" flag="0"/>
      <psa03 value="0.0174020346" flag="0"/>
      <psa10 value="0.0010531048" flag="0"/>
      <psa30 value="0.0001570165" flag="0"/>
    </comp>
    <comp name="--.HHN">
      <acc value="0.0064997088" flag="0"/>
      <vel value="0.0022966303" flag="0"/>
      <psa03 value="0.0144136056" flag="0"/>
      <psa10 value="0.0015147395" flag="0"/>
      <psa30 value="0.0001046964" flag="0"/>
    </comp>
    <comp name="--.HHZ">
      <acc value="0.0047881974" flag="0"/>
      <vel value="0.0014382822" flag="0"/>
      <psa03 value="0.0122927524" flag="0"/>
      <psa10 value="0.0009513088" flag="0"/>
      <psa30 value="0.0000671093" flag="0"/>
    </comp>
  </station>
</stationlist>
