<?xml version="1.0" encoding="UTF-8" standalone="yes"?>
<!DOCTYPE earthquake SYSTEM "stationlist.dtd">
<stationlist created="" xmlns="ch.ethz.sed.shakemap.usgs.xml">
  <station code="AKS" name="AKS" netid="KO" insttype="CMG-5T" commtype="DIG" lat="38.8785" lon="27.8129">
    <comp name="--.HNE">
      <acc value="0.0854649330" flag="0"/>
      <vel value="0.0270941378" flag="0"/>
      <psa03 value="0.1053721230" flag="0"/>
      <psa10 value="0.0190570989" flag="0"/>
      <psa30 value="0.0012738173" flag="0"/>
    </comp>
    <comp name="--.HNN">
      <acc value="0.0907854852" flag="0"/>
      <vel value="0.0238927601" flag="0"/>
      <psa03 value="0.1150455568" flag="0"/>
      <psa10 value="0.0088011290" flag="0"/>
      <psa30 value="0.0016542033" flag="0"/>
    </comp>
    <comp name="--.HNZ">
      <acc value="0.0527104598" flag="0"/>
      <vel value="0.0107794679" flag="0"/>
      <psa03 value="0.0323629231" flag="0"/>
      <psa10 value="0.0063955371" flag="0"/>
      <psa30 value="0.0009523350" flag="0"/>
    </comp>
  </station>
  <station code="BALB" name="BALB" netid="KO" insttype="CMG-5T" commtype="DIG" lat="39.6507" lon="27.8642">
    <comp name="--.HNN">
      <acc value="0.0384488421" flag="0"/>
      <vel value="0.0175581172" flag="0"/>
      <psa03 value="0.1024675706" flag="0"/>
      <psa10 value="0.0311543697" flag="0"/>
      <psa30 value="0.0018707489" flag="0"/>
    </comp>
    <comp name="--.HNZ">
      <acc value="0.0334499644" flag="0"/>
      <vel value="0.0131545971" flag="0"/>
      <psa03 value="0.0854675189" flag="0"/>
      <psa10 value="0.0108407372" flag="0"/>
      <psa30 value="0.0010709225" flag="0"/>
    </comp>
    <comp name="--.HNE">
      <acc value="0.0467993054" flag="0"/>
      <vel value="0.0203599691" flag="0"/>
      <psa03 value="0.1529028787" flag="0"/>
      <psa10 value="0.0287844768" flag="0"/>
      <psa30 value="0.0021162088" flag="0"/>
    </comp>
  </station>
  <station code="DKL" name="DKL" netid="KO" insttype="CMG-3ESPC" commtype="DIG" lat="39.0713" lon="26.9053">
    <comp name="--.HHN">
      <acc value="0.0064162290" flag="0"/>
      <vel value="0.0049735544" flag="0"/>
      <psa03 value="0.0173555759" flag="0"/>
      <psa10 value="0.0069571228" flag="0"/>
      <psa30 value="0.0006501237" flag="0"/>
    </comp>
    <comp name="--.HHZ">
      <acc value="0.0083530690" flag="0"/>
      <vel value="0.0024200391" flag="0"/>
      <psa03 value="0.0148477784" flag="0"/>
      <psa10 value="0.0027475811" flag="0"/>
      <psa30 value="0.0002884545" flag="0"/>
    </comp>
  </station>
  <station code="DST" name="DST" netid="KO" insttype="CMG-5T" commtype="DIG" lat="39.6041" lon="28.6267">
    <comp name="--.HNE">
      <acc value="0.0419958997" flag="0"/>
      <vel value="0.0091226884" flag="0"/>
      <psa03 value="0.0597243998" flag="0"/>
      <psa10 value="0.0055328457" flag="0"/>
      <psa30 value="0.0009893805" flag="0"/>
    </comp>
    <comp name="--.HNN">
      <acc value="0.0401649715" flag="0"/>
      <vel value="0.0089196750" flag="0"/>
      <psa03 value="0.0486223479" flag="0"/>
      <psa10 value="0.0105648741" flag="0"/>
      <psa30 value="0.0011782374" flag="0"/>
    </comp>
    <comp name="--.HNZ">
      <acc value="0.0378612393" flag="0"/>
      <vel value="0.0091311821" flag="0"/>
      <psa03 value="0.0595164699" flag="0"/>
      <psa10 value="0.0056437005" flag="0"/>
      <psa30 value="0.0005037789" flag="0"/>
    </comp>
  </station>
  <station code="GEDZ" name="GEDZ" netid="KO" insttype="CMG-6T" commtype="DIG" lat="39.0445" lon="29.4105">
    <comp name="--.HHE">
      <acc value="0.0714262705" flag="0"/>
      <vel value="0.0344738863" flag="0"/>
      <psa03 value="0.0989915872" flag="0"/>
      <psa10 value="0.0535469806" flag="0"/>
      <psa30 value="0.0015968969" flag="0"/>
    </comp>
    <comp name="--.HHZ">
      <acc value="0.0439479507" flag="0"/>
      <vel value="0.0143472872" flag="0"/>
      <psa03 value="0.0481763727" flag="0"/>
      <psa10 value="0.0166577293" flag="0"/>
      <psa30 value="0.0007661444" flag="0"/>
    </comp>
    <comp name="--.HHN">
      <acc value="0.1155580097" flag="0"/>
      <vel value="0.0280573995" flag="0"/>
      <psa03 value="0.1370679525" flag="0"/>
      <psa10 value="0.0440483073" flag="0"/>
      <psa30 value="0.0019591630" flag="0"/>
    </comp>
  </station>
  <station code="GOMA" name="GOMA" netid="KO" insttype="CMG-5T" commtype="DIG" lat="38.7077" lon="27.9175">
    <comp name="--.HNE">
      <acc value="0.0903078501" flag="0"/>
      <vel value="0.0349410206" flag="0"/>
      <psa03 value="0.1961023889" flag="0"/>
      <psa10 value="0.0192830129" flag="0"/>
      <psa30 value="0.0012056338" flag="0"/>
    </comp>
    <comp name="--.HNZ">
      <acc value="0.0772078355" flag="0"/>
      <vel value="0.0192071219" flag="0"/>
      <psa03 value="0.0762170939" flag="0"/>
      <psa10 value="0.0048746146" flag="0"/>
      <psa30 value="0.0008319817" flag="0"/>
    </comp>
  </station>
  <station code="GONE" name="GONE" netid="KO" insttype="CMG-5T" commtype="DIG" lat="40.0466" lon="27.686">
    <comp name="--.HNZ">
      <acc value="0.0141549095" flag="0"/>
      <vel value="0.0034122720" flag="0"/>
      <psa03 value="0.0380561321" flag="0"/>
      <psa10 value="0.0036775277" flag="0"/>
      <psa30 value="0.0003997877" flag="0"/>
    </comp>
    <comp name="--.HNN">
      <acc value="0.0232917370" flag="0"/>
      <vel value="0.0113981619" flag="0"/>
      <psa03 value="0.0958231105" flag="0"/>
      <psa10 value="0.0137708816" flag="0"/>
      <psa30 value="0.0009371443" flag="0"/>
    </comp>
    <comp name="--.HNE">
      <acc value="0.0144509920" flag="0"/>
      <vel value="0.0097068667" flag="0"/>
      <psa03 value="0.0329990747" flag="0"/>
      <psa10 value="0.0126392582" flag="0"/>
      <psa30 value="0.0012241036" flag="0"/>
    </comp>
  </station>
  <station code="GORD" name="GORD" netid="KO" insttype="CMG-5T" commtype="DIG" lat="38.9088" lon="28.1769">
    <comp name="--.HNE">
      <acc value="0.0922921852" flag="0"/>
      <vel value="0.0612002108" flag="0"/>
      <psa03 value="0.1898752289" flag="0"/>
      <psa10 value="0.0586326916" flag="0"/>
      <psa30 value="0.0036626838" flag="0"/>
    </comp>
    <comp name="--.HNN">
      <acc value="0.1637938615" flag="0"/>
      <vel value="0.0704082665" flag="0"/>
      <psa03 value="0.2264064304" flag="0"/>
      <psa10 value="0.0900868177" flag="0"/>
      <psa30 value="0.0045090374" flag="0"/>
    </comp>
    <comp name="--.HNZ">
      <acc value="0.1238327813" flag="0"/>
      <vel value="0.0471148981" flag="0"/>
      <psa03 value="0.1745633502" flag="0"/>
      <psa10 value="0.0432399841" flag="0"/>
      <psa30 value="0.0020277140" flag="0"/>
    </comp>
  </station>
  <station code="KCTX" name="KCTX" netid="KO" insttype="CMG-3ESP" commtype="DIG" lat="40.2626" lon="28.3353">
    <comp name="--.HHN">
      <acc value="0.0283826532" flag="0"/>
      <vel value="0.0090886520" flag="0"/>
      <psa03 value="0.0445301300" flag="0"/>
      <psa10 value="0.0059848465" flag="0"/>
      <psa30 value="0.0003216927" flag="0"/>
    </comp>
    <comp name="--.HHZ">
      <acc value="0.0164463115" flag="0"/>
      <vel value="0.0056568201" flag="0"/>
      <psa03 value="0.0273061137" flag="0"/>
      <psa10 value="0.0050721260" flag="0"/>
      <psa30 value="0.0002725077" flag="0"/>
    </comp>
    <comp name="--.HHE">
      <acc value="0.0186803840" flag="0"/>
      <vel value="0.0081821189" flag="0"/>
      <psa03 value="0.0305229840" flag="0"/>
      <psa10 value="0.0091699269" flag="0"/>
      <psa30 value="0.0009468319" flag="0"/>
    </comp>
  </station>
  <station code="ORLT" name="ORLT" netid="KO" insttype="CMG-5T" commtype="DIG" lat="40.0452" lon="28.8914">
    <comp name="--.HNE">
      <acc value="0.0443856844" flag="0"/>
      <vel value="0.0209502906" flag="0"/>
      <psa03 value="0.1194330795" flag="0"/>
      <psa10 value="0.0183028691" flag="0"/>
      <psa30 value="0.0009061692" flag="0"/>
    </comp>
    <comp name="--.HNN">
      <acc value="0.0502541471" flag="0"/>
      <vel value="0.0280067330" flag="0"/>
      <psa03 value="0.1621352170" flag="0"/>
      <psa10 value="0.0279668633" flag="0"/>
      <psa30 value="0.0012090050" flag="0"/>
    </comp>
    <comp name="--.HNZ">
      <acc value="0.0203354975" flag="0"/>
      <vel value="0.0081584935" flag="0"/>
      <psa03 value="0.0455072220" flag="0"/>
      <psa10 value="0.0143249030" flag="0"/>
      <psa30 value="0.0009624351" flag="0"/>
    </comp>
  </station>
  <station code="SHAP" name="SHAP" netid="KO" insttype="CMG-5T" commtype="DIG" lat="39.0231" lon="29.222">
    <comp name="--.HNE">
      <acc value="0.0476085962" flag="0"/>
      <vel value="0.0176012944" flag="0"/>
      <psa03 value="0.0921259659" flag="0"/>
      <psa10 value="0.0103734253" flag="0"/>
      <psa30 value="0.0005889557" flag="0"/>
    </comp>
    <comp name="--.HNZ">
      <acc value="0.0369829952" flag="0"/>
      <vel value="0.0085288069" flag="0"/>
      <psa03 value="0.0431732314" flag="0"/>
      <psa10 value="0.0066275710" flag="0"/>
      <psa30 value="0.0004194983" flag="0"/>
    </comp>
    <comp name="--.HNN">
      <acc value="0.0526412039" flag="0"/>
      <vel value="0.0187961453" flag="0"/>
      <psa03 value="0.0799969839" flag="0"/>
      <psa10 value="0.0162124098" flag="0"/>
      <psa30 value="0.0009945008" flag="0"/>
    </comp>
  </station>
  <station code="SIMA" name="SIMA" netid="KO" insttype="CMG-6T" commtype="DIG" lat="39.0833" lon="28.9825">
    <comp name="--.HHE">
      <acc value="0.0543149198" flag="0"/>
      <vel value="0.0114522438" flag="0"/>
      <psa03 value="0.0576678738" flag="0"/>
      <psa10 value="0.0060761590" flag="0"/>
      <psa30 value="0.0006555841" flag="0"/>
    </comp>
    <comp name="--.HHZ">
      <acc value="0.0879718264" flag="0"/>
      <vel value="0.0089968247" flag="0"/>
      <psa03 value="0.0263790824" flag="0"/>
      <psa10 value="0.0071968374" flag="0"/>
      <psa30 value="0.0005488738" flag="0"/>
    </comp>
    <comp name="--.HHN">
      <acc value="0.0494013360" flag="0"/>
      <vel value="0.0177275781" flag="0"/>
      <psa03 value="0.0825974048" flag="0"/>
      <psa10 value="0.0075165002" flag="0"/>
      <psa30 value="0.0012829188" flag="0"/>
    </comp>
  </station>
  <station code="SMAA" name="SMAA" netid="KO" insttype="CMG-5T" commtype="DIG" lat="39.1005" lon="28.9805">
    <comp name="--.HNE">
      <acc value="0.0476659201" flag="0"/>
      <vel value="0.0280609638" flag="0"/>
      <psa03 value="0.0952831988" flag="0"/>
      <psa10 value="0.0328391585" flag="0"/>
      <psa30 value="0.0035782236" flag="0"/>
    </comp>
    <comp name="--.HNN">
      <acc value="0.0404458586" flag="0"/>
      <vel value="0.0284663677" flag="0"/>
      <psa03 value="0.0962108282" flag="0"/>
      <psa10 value="0.0443620431" flag="0"/>
      <psa30 value="0.0037361489" flag="0"/>
    </comp>
    <comp name="--.HNZ">
      <acc value="0.0497075586" flag="0"/>
      <vel value="0.0133972395" flag="0"/>
      <psa03 value="0.0263354803" flag="0"/>
      <psa10 value="0.0266541497" flag="0"/>
      <psa30 value="0.0011735416" flag="0"/>
    </comp>
  </station>
  <station code="SOMA" name="SOMA" netid="KO" insttype="CMG-5T" commtype="DIG" lat="39.1564" lon="27.5341">
    <comp name="--.HNE">
      <acc value="0.0458492471" flag="0"/>
      <vel value="0.0155239288" flag="0"/>
      <psa03 value="0.0922017155" flag="0"/>
      <psa10 value="0.0200837130" flag="0"/>
      <psa30 value="0.0009448591" flag="0"/>
    </comp>
    <comp name="--.HNZ">
      <acc value="0.0386683722" flag="0"/>
      <vel value="0.0149280681" flag="0"/>
      <psa03 value="0.0651422361" flag="0"/>
      <psa10 value="0.0204411588" flag="0"/>
      <psa30 value="0.0010603130" flag="0"/>
    </comp>
    <comp name="--.HNN">
      <acc value="0.0393748106" flag="0"/>
      <vel value="0.0241063807" flag="0"/>
      <psa03 value="0.0619088147" flag="0"/>
      <psa10 value="0.0218415979" flag="0"/>
      <psa30 value="0.0016921770" flag="0"/>
    </comp>
  </station>
  <station code="SUSR" name="SUSR" netid="KO" insttype="CMG-5T" commtype="DIG" lat="39.9627" lon="28.0835">
    <comp name="--.HNE">
      <acc value="0.0226859748" flag="0"/>
      <vel value="0.0088957876" flag="0"/>
      <psa03 value="0.0434963681" flag="0"/>
      <psa10 value="0.0074959123" flag="0"/>
      <psa30 value="0.0004592969" flag="0"/>
    </comp>
    <comp name="--.HNZ">
      <acc value="0.0289194998" flag="0"/>
      <vel value="0.0057087575" flag="0"/>
      <psa03 value="0.0342168713" flag="0"/>
      <psa10 value="0.0026606267" flag="0"/>
      <psa30 value="0.0002820559" flag="0"/>
    </comp>
    <comp name="--.HNN">
      <acc value="0.0325316006" flag="0"/>
      <vel value="0.0078821872" flag="0"/>
      <psa03 value="0.0526421568" flag="0"/>
      <psa10 value="0.0043097271" flag="0"/>
      <psa30 value="0.0004706641" flag="0"/>
    </comp>
  </station>
  <station code="TVSB" name="TVSB" netid="KO" insttype="CMG-3T" commtype="DIG" lat="39.4497" lon="29.4615">
    <comp name="--.HHE">
      <acc value="0.0331524394" flag="0"/>
      <vel value="0.0185408237" flag="0"/>
      <psa03 value="0.0902419832" flag="0"/>
      <psa10 value="0.0116552716" flag="0"/>
      <psa30 value="0.0006561031" flag="0"/>
    </comp>
    <comp name="--.HHN">
      <acc value="0.0350572903" flag="0"/>
      <vel value="0.0172177717" flag="0"/>
      <psa03 value="0.0791641551" flag="0"/>
      <psa10 value="0.0158295513" flag="0"/>
      <psa30 value="0.0007546223" flag="0"/>
    </comp>
    <comp name="--.HHZ">
      <acc value="0.0149238667" flag="0"/>
      <vel value="0.0047779499" flag="0"/>
      <psa03 value="0.0258671764" flag="0"/>
      <psa10 value="0.0044700481" flag="0"/>
      <psa30 value="0.0003800315" flag="0"/>
    </comp>
  </station>
  <station code="YAYO" name="YAYO" netid="KO" insttype="CMG-6T" commtype="DIG" lat="39.6113" lon="27.0726">
    <comp name="--.HHN">
      <acc value="0.0220060841" flag="0"/>
      <vel value="0.0110441809" flag="0"/>
      <psa03 value="0.0957768316" flag="0"/>
      <psa10 value="0.0091141450" flag="0"/>
      <psa30 value="0.0005689537" flag="0"/>
    </comp>
    <comp name="--.HHZ">
      <acc value="0.0149462202" flag="0"/>
      <vel value="0.0064010536" flag="0"/>
      <psa03 value="0.0384336376" flag="0"/>
      <psa10 value="0.0037631586" flag="0"/>
      <psa30 value="0.0003868227" flag="0"/>
    </comp>
    <comp name="--.HHE">
      <acc value="0.0261774369" flag="0"/>
      <vel value="0.0125113016" flag="0"/>
      <psa03 value="0.0727335679" flag="0"/>
      <psa10 value="0.0086949030" flag="0"/>
      <psa30 value="0.0004954064" flag="0"/>
    </comp>
  </station>
  <station code="YENI" name="YENI" netid="KO" insttype="CMG-5T" commtype="DIG" lat="39.9364" lon="27.2422">
    <comp name="--.HNE">
      <acc value="0.0248552434" flag="0"/>
      <vel value="0.0074785846" flag="0"/>
      <psa03 value="0.0685643315" flag="0"/>
      <psa10 value="0.0071090827" flag="0"/>
      <psa30 value="0.0006919724" flag="0"/>
    </comp>
    <comp name="--.HNZ">
      <acc value="0.0160628965" flag="0"/>
      <vel value="0.0045660401" flag="0"/>
      <psa03 value="0.0238430598" flag="0"/>
      <psa10 value="0.0025346721" flag="0"/>
      <psa30 value="0.0006500613" flag="0"/>
    </comp>
    <comp name="--.HNN">
      <acc value="0.0283206812" flag="0"/>
      <vel value="0.0104305953" flag="0"/>
      <psa03 value="0.0651926322" flag="0"/>
      <psa10 value="0.0074984355" flag="0"/>
      <psa30 value="0.0004897338" flag="0"/>
    </comp>
  </station>
</stationlist>
