<?xml version="1.0" encoding="UTF-8" standalone="yes"?>
<!DOCTYPE earthquake SYSTEM "stationlist.dtd">
<stationlist created="" xmlns="ch.ethz.sed.shakemap.usgs.xml">
  <station code="BEHE" name="BEHE" netid="HU" insttype="" lat="46.4703" lon="16.7755">
    <comp name="--.HHE">
      <acc value="0.0122221218" flag="0"/>
      <vel value="0.0044689989" flag="0"/>
      <psa03 value="0.0197716402" flag="0"/>
      <psa10 value="0.0060888227" flag="0"/>
      <psa30 value="0.0004696930" flag="0"/>
    </comp>
    <comp name="--.HHZ">
      <acc value="0.0085590260" flag="0"/>
      <vel value="0.0029997177" flag="0"/>
      <psa03 value="0.0088858247" flag="0"/>
      <psa10 value="0.0029766441" flag="0"/>
      <psa30 value="0.0002342801" flag="0"/>
    </comp>
    <comp name="--.HHN">
      <acc value="0.0113502221" flag="0"/>
      <vel value="0.0050816805" flag="0"/>
      <psa03 value="0.0201773812" flag="0"/>
      <psa10 value="0.0057258533" flag="0"/>
      <psa30 value="0.0004507943" flag="0"/>
    </comp>
  </station>
  <station code="BLY" name="BLY" netid="MN" insttype="" lat="44.7488" lon="17.1839">
    <comp name="--.HHE">
      <acc value="0.0141640569" flag="0"/>
      <vel value="0.0078069222" flag="0"/>
      <psa03 value="0.0600661136" flag="0"/>
      <psa10 value="0.0075545848" flag="0"/>
      <psa30 value="0.0005089976" flag="0"/>
    </comp>
    <comp name="--.HHZ">
      <acc value="0.0108016432" flag="0"/>
      <vel value="0.0060853975" flag="0"/>
      <psa03 value="0.0296899667" flag="0"/>
      <psa10 value="0.0033680720" flag="0"/>
      <psa30 value="0.0003117533" flag="0"/>
    </comp>
    <comp name="--.HHN">
      <acc value="0.0140483606" flag="0"/>
      <vel value="0.0077111104" flag="0"/>
      <psa03 value="0.0569439254" flag="0"/>
      <psa10 value="0.0059030370" flag="0"/>
      <psa30 value="0.0005596006" flag="0"/>
    </comp>
  </station>
</stationlist>
