<stationlist xmlns:esm="https://esm-db.eu/esmws/shakemap/1/" created="1781920480">
	<station code="BLY" name="BLY" netid="MN" source="Mediterranean Very Broadband Seismographic Network (MedNet)" insttype="" lat="44.7488" lon="17.1839" esm:processing="manual (Paolucci et al 2011)" esm:quality="best">
		<comp name="--.HNE" depth="1.0">
			<acc value="0.0134026021585675" flag="0"/>
			<vel value="0.00759370954719088" flag="0"/>
			<psa03 value="0.0582543530169898" flag="0"/>
			<psa10 value="0.00775158729661558" flag="0"/>
			<psa30 value="0.000486347785940614" flag="0"/>
		</comp>
		<comp name="--.HNN" depth="1.0">
			<acc value="0.0145111317495687" flag="0"/>
			<vel value="0.00800255570693199" flag="0"/>
			<psa03 value="0.0591939393559735" flag="0"/>
			<psa10 value="0.00604825149065798" flag="0"/>
			<psa30 value="0.000615652763067419" flag="0"/>
		</comp>
		<comp name="--.HNZ" depth="1.0">
			<acc value="0.0106843633450097" flag="0"/>
			<vel value="0.00604637315609359" flag="0"/>
			<psa03 value="0.0293956297482045" flag="0"/>
			<psa10 value="0.00341875200770214" flag="0"/>
			<psa30 value="0.000356147964681443" flag="0"/>
		</comp>
	</station>
	<station code="BOJS" name="BOJS" netid="SL" source="Seismic Network of the Republic of Slovenia (SNRS)" insttype="" lat="45.5043" lon="15.2518" esm:processing="manual (Paolucci et al 2011)" esm:quality="best">
		<comp name="--.HNE" depth="0.0">
			<acc value="0.0303834763191377" flag="0"/>
			<vel value="0.00940442340609223" flag="0"/>
			<psa03 value="0.0287692388555487" flag="0"/>
			<psa10 value="0.0044657196425697" flag="0"/>
			<psa30 value="0.000362411873608001" flag="0"/>
		</comp>
		<comp name="--.HNN" depth="0.0">
			<acc value="0.0288638973586341" flag="0"/>
			<vel value="0.00784618077032386" flag="0"/>
			<psa03 value="0.0331987173107576" flag="0"/>
			<psa10 value="0.00669656606455673" flag="0"/>
			<psa30 value="0.000569568290250599" flag="0"/>
		</comp>
		<comp name="--.HNZ" depth="0.0">
			<acc value="0.0235838994384675" flag="0"/>
			<vel value="0.0070235516494398" flag="0"/>
			<psa03 value="0.0277849103099468" flag="0"/>
			<psa10 value="0.00595563512295815" flag="0"/>
			<psa30 value="0.000346752101291606" flag="0"/>
		</comp>
	</station>
	<station code="CADS" name="CADS" netid="SL" source="Seismic Network of the Republic of Slovenia (SNRS)" insttype="" lat="46.2281" lon="13.7368" esm:processing="manual (Paolucci et al 2011)" esm:quality="best">
		<comp name="--.HNE" depth="0.0">
			<acc value="0.00501276351191545" flag="0"/>
			<vel value="0.00235480295097625" flag="0"/>
			<psa03 value="0.0126620444729709" flag="0"/>
			<psa10 value="0.00181205936804001" flag="0"/>
			<psa30 value="0.000188812111929107" flag="0"/>
		</comp>
		<comp name="--.HNN" depth="0.0">
			<acc value="0.00538955555111353" flag="0"/>
			<vel value="0.00318311473109087" flag="0"/>
			<psa03 value="0.0132884353656267" flag="0"/>
			<psa10 value="0.00257312430261681" flag="0"/>
			<psa30 value="0.000196418287054213" flag="0"/>
		</comp>
		<comp name="--.HNZ" depth="0.0">
			<acc value="0.00214597296879115" flag="0"/>
			<vel value="0.00204109391010432" flag="0"/>
			<psa03 value="0.00608494010008496" flag="0"/>
			<psa10 value="0.00277849103099468" flag="0"/>
			<psa30 value="0.000115882315141324" flag="0"/>
		</comp>
	</station>
	<station code="CEY" name="CEY" netid="SL" source="Seismic Network of the Republic of Slovenia (SNRS)" insttype="" lat="45.7381" lon="14.4221" esm:processing="manual (Paolucci et al 2011)" esm:quality="best">
		<comp name="--.HNE" depth="0.0">
			<acc value="0.0111144358950804" flag="0"/>
			<vel value="0.00429240705500107" flag="0"/>
			<psa03 value="0.0199997663583675" flag="0"/>
			<psa10 value="0.00618113584431424" flag="0"/>
			<psa30 value="0.000251451201194687" flag="0"/>
		</comp>
		<comp name="--.HNN" depth="0.0">
			<acc value="0.0100422152528818" flag="0"/>
			<vel value="0.00491732898542649" flag="0"/>
			<psa03 value="0.0204024462179319" flag="0"/>
			<psa10 value="0.00638650257269211" flag="0"/>
			<psa30 value="0.000401337593365898" flag="0"/>
		</comp>
		<comp name="--.HNZ" depth="0.0">
			<acc value="0.0105737517029871" flag="0"/>
			<vel value="0.00580668338702311" flag="0"/>
			<psa03 value="0.027337488243764" flag="0"/>
			<psa10 value="0.00593550112997993" flag="0"/>
			<psa30 value="0.000300220206408603" flag="0"/>
		</comp>
	</station>
	<station code="CRES" name="CRES" netid="SL" source="Seismic Network of the Republic of Slovenia (SNRS)" insttype="" lat="45.826" lon="15.4569" esm:processing="manual (Paolucci et al 2011)" esm:quality="best">
		<comp name="--.HNE" depth="0.0">
			<acc value="0.0392793554070867" flag="0"/>
			<vel value="0.00891956753761636" flag="0"/>
			<psa03 value="0.0655473326957681" flag="0"/>
			<psa10 value="0.00401069140126188" flag="0"/>
			<psa30 value="0.00026174190871689" flag="0"/>
		</comp>
		<comp name="--.HNN" depth="0.0">
			<acc value="0.0278299101607067" flag="0"/>
			<vel value="0.00709725250709142" flag="0"/>
			<psa03 value="0.0444290111719439" flag="0"/>
			<psa10 value="0.00306842052988108" flag="0"/>
			<psa30 value="0.000310510913930806" flag="0"/>
		</comp>
		<comp name="--.HNZ" depth="0.0">
			<acc value="0.018392044277281" flag="0"/>
			<vel value="0.00468724780148639" flag="0"/>
			<psa03 value="0.022057907862808" flag="0"/>
			<psa10 value="0.00309660812005059" flag="0"/>
			<psa30 value="0.000202682195980771" flag="0"/>
		</comp>
	</station>
	<station code="CRNS" name="CRNS" netid="SL" source="Seismic Network of the Republic of Slovenia (SNRS)" insttype="" lat="46.0807" lon="14.2613" esm:processing="manual (Paolucci et al 2011)" esm:quality="best">
		<comp name="--.HNE" depth="0.0">
			<acc value="0.0140577024809087" flag="0"/>
			<vel value="0.00514973615065719" flag="0"/>
			<psa03 value="0.0320801621453009" flag="0"/>
			<psa10 value="0.0039221018321577" flag="0"/>
			<psa30 value="0.000359727341210905" flag="0"/>
		</comp>
		<comp name="--.HNN" depth="0.0">
			<acc value="0.012513813373484" flag="0"/>
			<vel value="0.00486965569203366" flag="0"/>
			<psa03 value="0.0147201859774114" flag="0"/>
			<psa10 value="0.00281070541975983" flag="0"/>
			<psa30 value="0.000325723264181018" flag="0"/>
		</comp>
		<comp name="--.HNZ" depth="0.0">
			<acc value="0.00636892918447433" flag="0"/>
			<vel value="0.00210991924174154" flag="0"/>
			<psa03 value="0.00930637897660052" flag="0"/>
			<psa10 value="0.00253688311525601" flag="0"/>
			<psa30 value="0.00017449460581126" flag="0"/>
		</comp>
	</station>
	<station code="DOBS" name="DOBS" netid="SL" source="Seismic Network of the Republic of Slovenia (SNRS)" insttype="" lat="46.1495" lon="15.4695" esm:processing="manual (Paolucci et al 2011)" esm:quality="best">
		<comp name="--.HNE" depth="0.0">
			<acc value="0.030571994004285" flag="0"/>
			<vel value="0.0102038422206521" flag="0"/>
			<psa03 value="0.027591999709566" flag="0"/>
			<psa10 value="0.0108355656155525" flag="0"/>
			<psa30 value="0.00107449711766035" flag="0"/>
		</comp>
		<comp name="--.HNN" depth="0.0">
			<acc value="0.03870236002645" flag="0"/>
			<vel value="0.00949347737901871" flag="0"/>
			<psa03 value="0.0307691164279343" flag="0"/>
			<psa10 value="0.00507908099544391" flag="0"/>
			<psa30 value="0.000309653611990289" flag="0"/>
		</comp>
		<comp name="--.HNZ" depth="0.0">
			<acc value="0.0197971675144975" flag="0"/>
			<vel value="0.00471580425136228" flag="0"/>
			<psa03 value="0.0108488873053172" flag="0"/>
			<psa10 value="0.0058890474642591" flag="0"/>
			<psa30 value="0.00028864339204163" flag="0"/>
		</comp>
	</station>
	<station code="GBAS" name="GBAS" netid="SL" source="Seismic Network of the Republic of Slovenia (SNRS)" insttype="" lat="45.9348" lon="14.4434" esm:processing="manual (Paolucci et al 2011)" esm:quality="best">
		<comp name="--.HNE" depth="0.0">
			<acc value="0.00561294308870633" flag="0"/>
			<vel value="0.00291810398574874" flag="0"/>
			<psa03 value="0.0114987471008958" flag="0"/>
			<psa10 value="0.00295969696779868" flag="0"/>
			<psa30 value="0.000176284294075991" flag="0"/>
		</comp>
		<comp name="--.HNN" depth="0.0">
			<acc value="0.004827214091485" flag="0"/>
			<vel value="0.0027105137653333" flag="0"/>
			<psa03 value="0.0129304977126805" flag="0"/>
			<psa10 value="0.00453417521869566" flag="0"/>
			<psa30 value="0.000236686273010658" flag="0"/>
		</comp>
		<comp name="--.HNZ" depth="0.0">
			<acc value="0.00526926440918951" flag="0"/>
			<vel value="0.00276531806227075" flag="0"/>
			<psa03 value="0.00912741015012744" flag="0"/>
			<psa10 value="0.00307244732847672" flag="0"/>
			<psa30 value="0.000253688311525601" flag="0"/>
		</comp>
	</station>
	<station code="GBRS" name="GBRS" netid="SL" source="Seismic Network of the Republic of Slovenia (SNRS)" insttype="" lat="45.5311" lon="14.8101" esm:processing="manual (Paolucci et al 2011)" esm:quality="best">
		<comp name="--.HNE" depth="0.0">
			<acc value="0.0223949276203763" flag="0"/>
			<vel value="0.00548894742519719" flag="0"/>
			<psa03 value="0.0163934505689852" flag="0"/>
			<psa10 value="0.00405947892056376" flag="0"/>
			<psa30 value="0.000148484289480634" flag="0"/>
		</comp>
		<comp name="--.HNN" depth="0.0">
			<acc value="0.0217699746051886" flag="0"/>
			<vel value="0.00630981249182233" flag="0"/>
			<psa03 value="0.0255582477959952" flag="0"/>
			<psa10 value="0.00818856620230988" flag="0"/>
			<psa30 value="0.000342321843808809" flag="0"/>
		</comp>
		<comp name="--.HNZ" depth="0.0">
			<acc value="0.0124410265133814" flag="0"/>
			<vel value="0.00431120400207526" flag="0"/>
			<psa03 value="0.0118413846940572" flag="0"/>
			<psa10 value="0.00516362518980704" flag="0"/>
			<psa30 value="0.000255464944132112" flag="0"/>
		</comp>
	</station>
	<station code="GCIS" name="GCIS" netid="SL" source="Seismic Network of the Republic of Slovenia (SNRS)" insttype="" lat="45.8672" lon="15.6275" esm:processing="manual (Paolucci et al 2011)" esm:quality="best">
		<comp name="--.HNE" depth="0.0">
			<acc value="0.038794823905679" flag="0"/>
			<vel value="0.00820211101024969" flag="0"/>
			<psa03 value="0.0304506031405091" flag="0"/>
			<psa10 value="0.00429062829558205" flag="0"/>
			<psa30 value="0.000242938515359413" flag="0"/>
		</comp>
		<comp name="--.HNN" depth="0.0">
			<acc value="0.0320225238812957" flag="0"/>
			<vel value="0.00704602648424153" flag="0"/>
			<psa03 value="0.0206050655052964" flag="0"/>
			<psa10 value="0.00484960048099674" flag="0"/>
			<psa30 value="0.000244153673982457" flag="0"/>
		</comp>
		<comp name="--.HNZ" depth="0.0">
			<acc value="0.0224373676542099" flag="0"/>
			<vel value="0.00448609717793969" flag="0"/>
			<psa03 value="0.0153234005167468" flag="0"/>
			<psa10 value="0.00348135515394243" flag="0"/>
			<psa30 value="0.000213848033570341" flag="0"/>
		</comp>
	</station>
	<station code="GOLS" name="GOLS" netid="SL" source="Seismic Network of the Republic of Slovenia (SNRS)" insttype="" lat="46.0108" lon="15.6245" esm:processing="manual (Paolucci et al 2011)" esm:quality="best">
		<comp name="--.HNE" depth="0.0">
			<acc value="0.0492687075038619" flag="0"/>
			<vel value="0.012793461285097" flag="0"/>
			<psa03 value="0.039323894077491" flag="0"/>
			<psa10 value="0.0119646772886508" flag="0"/>
			<psa30 value="0.000553348479537742" flag="0"/>
		</comp>
		<comp name="--.HNN" depth="0.0">
			<acc value="0.0571336393116528" flag="0"/>
			<vel value="0.0130295126967676" flag="0"/>
			<psa03 value="0.0435442621978331" flag="0"/>
			<psa10 value="0.0118891285339166" flag="0"/>
			<psa30 value="0.000592680408001639" flag="0"/>
		</comp>
		<comp name="--.HNZ" depth="0.0">
			<acc value="0.0236726056166057" flag="0"/>
			<vel value="0.00492070335217712" flag="0"/>
			<psa03 value="0.0167820713652825" flag="0"/>
			<psa10 value="0.0051747517081543" flag="0"/>
			<psa30 value="0.000355771901475768" flag="0"/>
		</comp>
	</station>
	<station code="GORS" name="GORS" netid="SL" source="Seismic Network of the Republic of Slovenia (SNRS)" insttype="" lat="46.3174" lon="13.9999" esm:processing="manual (Paolucci et al 2011)" esm:quality="best">
		<comp name="--.HNE" depth="0.0">
			<acc value="0.00292539955503856" flag="0"/>
			<vel value="0.00175279413247036" flag="0"/>
			<psa03 value="0.0052348381743378" flag="0"/>
			<psa10 value="0.00207782807535254" flag="0"/>
			<psa30 value="0.000134226619854815" flag="0"/>
		</comp>
		<comp name="--.HNN" depth="0.0">
			<acc value="0.00278194933367979" flag="0"/>
			<vel value="0.00113031525486999" flag="0"/>
			<psa03 value="0.0038030875625531" flag="0"/>
			<psa10 value="0.00204561368658738" flag="0"/>
			<psa30 value="0.000121698802001699" flag="0"/>
		</comp>
		<comp name="--.HNZ" depth="0.0">
			<acc value="0.00199921655869308" flag="0"/>
			<vel value="0.0015876977999091" flag="0"/>
			<psa03 value="0.00581648686037533" flag="0"/>
			<psa10 value="0.00241607915738667" flag="0"/>
			<psa30 value="0.000155702879031586" flag="0"/>
		</comp>
	</station>
	<station code="GROS" name="GROS" netid="SL" source="Seismic Network of the Republic of Slovenia (SNRS)" insttype="" lat="46.461" lon="15.5018" esm:processing="manual (Paolucci et al 2011)" esm:quality="best">
		<comp name="--.HNE" depth="0.0">
			<acc value="0.0348155820711438" flag="0"/>
			<vel value="0.00553565622020848" flag="0"/>
			<psa03 value="0.0148563812977663" flag="0"/>
			<psa10 value="0.00296204793988904" flag="0"/>
			<psa30 value="0.000501524994402855" flag="0"/>
		</comp>
		<comp name="--.HNN" depth="0.0">
			<acc value="0.0351609448453757" flag="0"/>
			<vel value="0.0048144208365058" flag="0"/>
			<psa03 value="0.0082715459962026" flag="0"/>
			<psa10 value="0.00229885072507836" flag="0"/>
			<psa30 value="0.00021779037806452" flag="0"/>
		</comp>
		<comp name="--.HNZ" depth="0.0">
			<acc value="0.0159768949531643" flag="0"/>
			<vel value="0.00383505727411896" flag="0"/>
			<psa03 value="0.0137696999354592" flag="0"/>
			<psa10 value="0.00221367812968692" flag="0"/>
			<psa30 value="0.000253033272629155" flag="0"/>
		</comp>
	</station>
	<station code="JAVS" name="JAVS" netid="SL" source="Seismic Network of the Republic of Slovenia (SNRS)" insttype="" lat="45.8934" lon="14.0643" esm:processing="manual (Paolucci et al 2011)" esm:quality="best">
		<comp name="--.HNE" depth="0.0">
			<acc value="0.00526866530500467" flag="0"/>
			<vel value="0.00428076635588611" flag="0"/>
			<psa03 value="0.0172971028794359" flag="0"/>
			<psa10 value="0.00490551621638095" flag="0"/>
			<psa30 value="0.000171230809346801" flag="0"/>
		</comp>
		<comp name="--.HNN" depth="0.0">
			<acc value="0.00433665295638678" flag="0"/>
			<vel value="0.00305928636878682" flag="0"/>
			<psa03 value="0.00978689117205606" flag="0"/>
			<psa10 value="0.00402863640864452" flag="0"/>
			<psa30 value="0.000224940630379284" flag="0"/>
		</comp>
		<comp name="--.HNZ" depth="0.0">
			<acc value="0.0037406301958152" flag="0"/>
			<vel value="0.0021826451155635" flag="0"/>
			<psa03 value="0.00718568044314385" flag="0"/>
			<psa10 value="0.00275941568837256" flag="0"/>
			<psa30 value="0.000156044608022878" flag="0"/>
		</comp>
	</station>
	<station code="KNDS" name="KNDS" netid="SL" source="Seismic Network of the Republic of Slovenia (SNRS)" insttype="" lat="45.5278" lon="14.3807" esm:processing="manual (Paolucci et al 2011)" esm:quality="best">
		<comp name="--.HNE" depth="0.0">
			<acc value="0.013494878880094" flag="0"/>
			<vel value="0.00813870736760424" flag="0"/>
			<psa03 value="0.0228331610223731" flag="0"/>
			<psa10 value="0.0112575341939028" flag="0"/>
			<psa30 value="0.000486724534778725" flag="0"/>
		</comp>
		<comp name="--.HNN" depth="0.0">
			<acc value="0.010800669362422" flag="0"/>
			<vel value="0.00709406563693241" flag="0"/>
			<psa03 value="0.0279626961413808" flag="0"/>
			<psa10 value="0.00606714394975081" flag="0"/>
			<psa30 value="0.000473497929415619" flag="0"/>
		</comp>
		<comp name="--.HNZ" depth="0.0">
			<acc value="0.00504446632707799" flag="0"/>
			<vel value="0.00437509471831738" flag="0"/>
			<psa03 value="0.0123696228122365" flag="0"/>
			<psa10 value="0.00402712083947725" flag="0"/>
			<psa30 value="0.000277097470930758" flag="0"/>
		</comp>
	</station>
	<station code="KOGS" name="KOGS" netid="SL" source="Seismic Network of the Republic of Slovenia (SNRS)" insttype="" lat="46.4481" lon="16.2504" esm:processing="manual (Paolucci et al 2011)" esm:quality="good">
		<comp name="--.HNE" depth="0.0">
			<acc value="0.0741654688456427" flag="0"/>
			<vel value="0.0140456049229298" flag="0"/>
			<psa03 value="0.0480978721146421" flag="0"/>
			<psa10 value="0.0129018627004448" flag="0"/>
			<psa30 value="0.00161429881478724" flag="0"/>
		</comp>
		<comp name="--.HNN" depth="0.0">
			<acc value="0.0558680327915459" flag="0"/>
			<vel value="0.0137520695085485" flag="0"/>
			<psa03 value="0.0363754139806549" flag="0"/>
			<psa10 value="0.0092656635685779" flag="0"/>
			<psa30 value="0.000501560136190826" flag="0"/>
		</comp>
		<comp name="--.HNZ" depth="0.0">
			<acc value="0.0214031225184004" flag="0"/>
			<vel value="0.00679727830398312" flag="0"/>
			<psa03 value="0.0291271765084949" flag="0"/>
			<psa10 value="0.00397445021390108" flag="0"/>
			<psa30 value="0.000416997365682293" flag="0"/>
		</comp>
	</station>
	<station code="LEGS" name="LEGS" netid="SL" source="Seismic Network of the Republic of Slovenia (SNRS)" insttype="" lat="45.9488" lon="15.3177" esm:processing="manual (Paolucci et al 2011)" esm:quality="best">
		<comp name="--.HNE" depth="0.0">
			<acc value="0.0300286960955873" flag="0"/>
			<vel value="0.0149984848749638" flag="0"/>
			<psa03 value="0.0461764547968525" flag="0"/>
			<psa10 value="0.0117886931305735" flag="0"/>
			<psa30 value="0.000791906366159667" flag="0"/>
		</comp>
		<comp name="--.HNN" depth="0.0">
			<acc value="0.0255607315841086" flag="0"/>
			<vel value="0.00704850188780229" flag="0"/>
			<psa03 value="0.0380958335578639" flag="0"/>
			<psa10 value="0.00481453659565425" flag="0"/>
			<psa30 value="0.000346294424681237" flag="0"/>
		</comp>
		<comp name="--.HNZ" depth="0.0">
			<acc value="0.0128890391184447" flag="0"/>
			<vel value="0.00457915865448579" flag="0"/>
			<psa03 value="0.0147057658514633" flag="0"/>
			<psa10 value="0.00349150707645955" flag="0"/>
			<psa30 value="0.000192749565587738" flag="0"/>
		</comp>
	</station>
	<station code="LJU" name="LJU" netid="SL" source="Seismic Network of the Republic of Slovenia (SNRS)" insttype="" lat="46.0438" lon="14.5278" esm:processing="manual (Paolucci et al 2011)" esm:quality="best">
		<comp name="--.HNE" depth="0.0">
			<acc value="0.00966548090478881" flag="0"/>
			<vel value="0.00698906703044965" flag="0"/>
			<psa03 value="0.0148991548038845" flag="0"/>
			<psa10 value="0.0135501772743436" flag="0"/>
			<psa30 value="0.000455475663374006" flag="0"/>
		</comp>
		<comp name="--.HNN" depth="0.0">
			<acc value="0.0123036483249409" flag="0"/>
			<vel value="0.0054681648810865" flag="0"/>
			<psa03 value="0.0239818227473937" flag="0"/>
			<psa10 value="0.00615697505274038" flag="0"/>
			<psa30 value="0.000379413912122944" flag="0"/>
		</comp>
		<comp name="--.HNZ" depth="0.0">
			<acc value="0.00936811094903287" flag="0"/>
			<vel value="0.00303173295776854" flag="0"/>
			<psa03 value="0.00657710437288595" flag="0"/>
			<psa10 value="0.00573818799879335" flag="0"/>
			<psa30 value="0.000550329141404742" flag="0"/>
		</comp>
	</station>
	<station code="MOZS" name="MOZS" netid="SL" source="Seismic Network of the Republic of Slovenia (SNRS)" insttype="" lat="46.2941" lon="14.4433" esm:processing="manual (Paolucci et al 2011)" esm:quality="best">
		<comp name="--.HNE" depth="0.0">
			<acc value="0.00679081970538069" flag="0"/>
			<vel value="0.00322234081796557" flag="0"/>
			<psa03 value="0.0129752399192988" flag="0"/>
			<psa10 value="0.00287513419729014" flag="0"/>
			<psa30 value="0.000262636752849255" flag="0"/>
		</comp>
		<comp name="--.HNN" depth="0.0">
