<stationlist created="1775820569">
	<station code="SIT2" name="SIT2" netid="HI" source="ITSAK Strong Motion Network" insttype="" lat="35.2059" lon="26.107">
		<comp name="--.HNE" depth="0.0">
			<acc value="0.0240262480732486" flag="0"/>
			<vel value="0.01647377023386" flag="0"/>
			<psa03 value="0.126038796043672" flag="0"/>
			<psa10 value="0.0104052475711453" flag="0"/>
			<psa30 value="0.000924373988733494" flag="0"/>
		</comp>
		<comp name="--.HNN" depth="0.0">
			<acc value="0.0389857529618176" flag="0"/>
			<vel value="0.021347725829419" flag="0"/>
			<psa03 value="0.16827543909132" flag="0"/>
			<psa10 value="0.0207017715802082" flag="0"/>
			<psa30 value="0.00103488723908063" flag="0"/>
		</comp>
		<comp name="--.HNZ" depth="0.0">
			<acc value="0.0206582859560724" flag="0"/>
			<vel value="0.00832575420751598" flag="0"/>
			<psa03 value="0.0452343708910727" flag="0"/>
			<psa10 value="0.00310868851583752" flag="0"/>
			<psa30 value="0.000598650724552476" flag="0"/>
		</comp>
	</station>
	<station code="IACM" name="IACM" netid="HL" source="National Observatory of Athens Seismic Network" insttype="" lat="35.3058" lon="25.0709">
		<comp name="--.HNE" depth="0.0">
			<acc value="0.00964185242507364" flag="0"/>
			<vel value="0.00965893179076398" flag="0"/>
			<psa03 value="0.0275164570702371" flag="0"/>
			<psa10 value="0.0166387317972029" flag="0"/>
			<psa30 value="0.00174270894778168" flag="0"/>
		</comp>
		<comp name="--.HNN" depth="0.0">
			<acc value="0.0111378569365209" flag="0"/>
			<vel value="0.0115992399478369" flag="0"/>
			<psa03 value="0.0254583155657966" flag="0"/>
			<psa10 value="0.0134817216982176" flag="0"/>
			<psa30 value="0.00130915696565063" flag="0"/>
		</comp>
		<comp name="--.HNZ" depth="0.0">
			<acc value="0.00546467392262424" flag="0"/>
			<vel value="0.00348571431222841" flag="0"/>
			<psa03 value="0.0123041068200247" flag="0"/>
			<psa10 value="0.00535966893080277" flag="0"/>
			<psa30 value="0.000471582857756584" flag="0"/>
		</comp>
	</station>
	<station code="KARP" name="KARP" netid="HL" source="National Observatory of Athens Seismic Network" insttype="" lat="35.5471" lon="27.16106">
		<comp name="--.HNE" depth="0.0">
			<acc value="0.00116748201078892" flag="0"/>
			<vel value="0.00148424366242557" flag="0"/>
			<psa03 value="0.00299772784342421" flag="0"/>
			<psa10 value="0.00173957699331841" flag="0"/>
			<psa30 value="0.000289929498886401" flag="0"/>
		</comp>
		<comp name="--.HNN" depth="0.0">
			<acc value="0.00110745505556121" flag="0"/>
			<vel value="0.00102282879007591" flag="0"/>
			<psa03 value="0.00255030577724149" flag="0"/>
			<psa10 value="0.00190467573573983" flag="0"/>
			<psa30 value="0.000284560434092208" flag="0"/>
		</comp>
		<comp name="--.HNZ" depth="0.0">
			<acc value="0.00076769038097017" flag="0"/>
			<vel value="0.00106189068075974" flag="0"/>
			<psa03 value="0.00272927460371458" flag="0"/>
			<psa10 value="0.00107515522503707" flag="0"/>
			<psa30 value="0.000277401681033285" flag="0"/>
		</comp>
	</station>
	<station code="SIVA" name="SIVA" netid="HL" source="National Observatory of Athens Seismic Network" insttype="" lat="35.01777" lon="24.81204">
		<comp name="00.HNE" depth="0.0">
			<acc value="0.00795444601808506" flag="0"/>
			<vel value="0.00479652839183191" flag="0"/>
			<psa03 value="0.0188364689862924" flag="0"/>
			<psa10 value="0.0121810657518245" flag="0"/>
			<psa30 value="0.000544512654544367" flag="0"/>
		</comp>
		<comp name="00.HNN" depth="0.0">
			<acc value="0.00568016296203492" flag="0"/>
			<vel value="0.00439454009303246" flag="0"/>
			<psa03 value="0.0140043106715191" flag="0"/>
			<psa10 value="0.00641871696145727" flag="0"/>
			<psa30 value="0.000798648388136151" flag="0"/>
		</comp>
		<comp name="00.HNZ" depth="0.0">
			<acc value="0.00465924590342739" flag="0"/>
			<vel value="0.00244618919729909" flag="0"/>
			<psa03 value="0.0110513250347131" flag="0"/>
			<psa10 value="0.00331405524421539" flag="0"/>
			<psa30 value="0.000371360314931656" flag="0"/>
		</comp>
	</station>
</stationlist>
