<?xml version="1.0" encoding="UTF-8" standalone="yes"?>
<!DOCTYPE earthquake SYSTEM "stationlist.dtd">
<stationlist created="" xmlns="ch.ethz.sed.shakemap.usgs.xml">
  <station code="ZKR" name="ZKR" netid="GE" insttype="STS-2/N" lat="35.1147" lon="26.2169">
    <comp name="--.HHE">
      <acc value="0.0166008968" flag="0"/>
      <vel value="0.0074901706" flag="0"/>
      <psa03 value="0.0361034741" flag="0"/>
      <psa10 value="0.0067404586" flag="0"/>
      <psa30 value="0.0008212305" flag="0"/>
    </comp>
    <comp name="--.HHN">
      <acc value="0.0133947142" flag="0"/>
      <vel value="0.0055210976" flag="0"/>
      <psa03 value="0.0365619766" flag="0"/>
      <psa10 value="0.0036623386" flag="0"/>
      <psa30 value="0.0003364486" flag="0"/>
    </comp>
    <comp name="--.HHZ">
      <acc value="0.0106145156" flag="0"/>
      <vel value="0.0054652428" flag="0"/>
      <psa03 value="0.0393297577" flag="0"/>
      <psa10 value="0.0053294741" flag="0"/>
      <psa30 value="0.0007253219" flag="0"/>
    </comp>
  </station>
  <station code="STIA" name="STIA" netid="HC" insttype="120" lat="35.2021" lon="26.0909">
    <comp name="--.HHN">
      <acc value="0.0129061199" flag="0"/>
      <vel value="0.0064190926" flag="0"/>
      <psa03 value="0.0647899699" flag="0"/>
      <psa10 value="0.0073828188" flag="0"/>
      <psa30 value="0.0005845874" flag="0"/>
    </comp>
    <comp name="--.HHE">
      <acc value="0.0122038392" flag="0"/>
      <vel value="0.0059688294" flag="0"/>
      <psa03 value="0.0415354061" flag="0"/>
      <psa10 value="0.0051901889" flag="0"/>
      <psa30 value="0.0004912340" flag="0"/>
    </comp>
    <comp name="--.HHZ">
      <acc value="0.0091808021" flag="0"/>
      <vel value="0.0045143455" flag="0"/>
      <psa03 value="0.0300997589" flag="0"/>
      <psa10 value="0.0024276806" flag="0"/>
      <psa30 value="0.0006172950" flag="0"/>
    </comp>
  </station>
  <station code="SIT2" name="SIT2" netid="HI" insttype="CMG-5TD,ACCELEROMETER,GURALP" lat="35.2059" lon="26.107">
    <comp name="--.HNZ">
      <acc value="0.0206744846" flag="0"/>
      <vel value="0.0082960482" flag="0"/>
      <psa03 value="0.0448017990" flag="0"/>
      <psa10 value="0.0031157920" flag="0"/>
      <psa30 value="0.0005169754" flag="0"/>
    </comp>
    <comp name="--.HNN">
      <acc value="0.0390605378" flag="0"/>
      <vel value="0.0214158018" flag="0"/>
      <psa03 value="0.1695337599" flag="0"/>
      <psa10 value="0.0206519582" flag="0"/>
      <psa30 value="0.0009630031" flag="0"/>
    </comp>
    <comp name="--.HNE">
      <acc value="0.0240054238" flag="0"/>
      <vel value="0.0163549068" flag="0"/>
      <psa03 value="0.1256164697" flag="0"/>
      <psa10 value="0.0103949266" flag="0"/>
      <psa30 value="0.0008766269" flag="0"/>
    </comp>
  </station>
  <station code="SIVA" name="SIVA" netid="HL" insttype="60" lat="35.0178" lon="24.812">
    <comp name="--.HHE">
      <acc value="0.0084322203" flag="0"/>
      <vel value="0.0051439138" flag="0"/>
      <psa03 value="0.0197727728" flag="0"/>
      <psa10 value="0.0128460803" flag="0"/>
      <psa30 value="0.0004945792" flag="0"/>
    </comp>
    <comp name="--.HHN">
      <acc value="0.0050794043" flag="0"/>
      <vel value="0.0034762361" flag="0"/>
      <psa03 value="0.0121188574" flag="0"/>
      <psa10 value="0.0051683659" flag="0"/>
      <psa30 value="0.0005512106" flag="0"/>
    </comp>
    <comp name="--.HHZ">
      <acc value="0.0047763658" flag="0"/>
      <vel value="0.0025396171" flag="0"/>
      <psa03 value="0.0113098545" flag="0"/>
      <psa10 value="0.0034085008" flag="0"/>
      <psa30 value="0.0003357466" flag="0"/>
    </comp>
  </station>
  <station code="ZKR" name="ZKR" netid="HL" insttype="120" lat="35.1147" lon="26.2169">
    <comp name="--.HHE">
      <acc value="0.0161461372" flag="0"/>
      <vel value="0.0073338751" flag="0"/>
      <psa03 value="0.0350493166" flag="0"/>
      <psa10 value="0.0066953092" flag="0"/>
      <psa30 value="0.0008206809" flag="0"/>
    </comp>
    <comp name="--.HHZ">
      <acc value="0.0102481782" flag="0"/>
      <vel value="0.0053397932" flag="0"/>
      <psa03 value="0.0381895070" flag="0"/>
      <psa10 value="0.0053009712" flag="0"/>
      <psa30 value="0.0007245360" flag="0"/>
    </comp>
    <comp name="--.HHN">
      <acc value="0.0130043413" flag="0"/>
      <vel value="0.0053915454" flag="0"/>
      <psa03 value="0.0354374513" flag="0"/>
      <psa10 value="0.0036093620" flag="0"/>
      <psa30 value="0.0003356920" flag="0"/>
    </comp>
  </station>
</stationlist>
