<?xml version="1.0" encoding="UTF-8" standalone="yes"?>
<!DOCTYPE earthquake SYSTEM "stationlist.dtd">
<stationlist created="" xmlns="ch.ethz.sed.shakemap.usgs.xml">
  <station code="CARA" name="CARA" netid="CA" insttype="Trillium120BH" lat="42.7076" lon="0.818132">
    <comp name="--.HH1">
      <acc value="0.3222824096" flag="0"/>
      <vel value="0.1112648446" flag="0"/>
      <psa03 value="0.3940680967" flag="0"/>
      <psa10 value="0.1551975438" flag="0"/>
      <psa30 value="0.0137128687" flag="0"/>
    </comp>
    <comp name="--.HH2">
      <acc value="0.1485050892" flag="0"/>
      <vel value="0.0881915934" flag="0"/>
      <psa03 value="0.2851293417" flag="0"/>
      <psa10 value="0.0975605294" flag="0"/>
      <psa30 value="0.0060639252" flag="0"/>
    </comp>
    <comp name="--.HHZ">
      <acc value="0.1669100720" flag="0"/>
      <vel value="0.0819356213" flag="0"/>
      <psa03 value="0.1706678925" flag="0"/>
      <psa10 value="0.0961075333" flag="0"/>
      <psa30 value="0.0060276533" flag="0"/>
    </comp>
  </station>
  <station code="CAVN" name="CAVN" netid="CA" insttype="Trillium120QA" lat="41.8816" lon="0.750608">
    <comp name="--.HHE">
      <acc value="0.1121482060" flag="0"/>
      <vel value="0.0344448444" flag="0"/>
      <psa03 value="0.0680372890" flag="0"/>
      <psa10 value="0.0284725541" flag="0"/>
      <psa30 value="0.0053629408" flag="0"/>
    </comp>
    <comp name="--.HHN">
      <acc value="0.0708343649" flag="0"/>
      <vel value="0.0237713871" flag="0"/>
      <psa03 value="0.0653252874" flag="0"/>
      <psa10 value="0.0379705113" flag="0"/>
      <psa30 value="0.0024310979" flag="0"/>
    </comp>
    <comp name="--.HHZ">
      <acc value="0.0589215240" flag="0"/>
      <vel value="0.0151120655" flag="0"/>
      <psa03 value="0.0467608374" flag="0"/>
      <psa10 value="0.0198421190" flag="0"/>
      <psa30 value="0.0025816319" flag="0"/>
    </comp>
  </station>
  <station code="CESP" name="CESP" netid="CA" insttype="Titan Accelerometer" lat="42.1157" lon="1.81258">
    <comp name="--.HNN">
      <acc value="0.0274201352" flag="0"/>
      <vel value="0.0102371850" flag="0"/>
      <psa03 value="0.0608760125" flag="0"/>
      <psa10 value="0.0081193550" flag="0"/>
      <psa30 value="0.0005597754" flag="0"/>
    </comp>
    <comp name="--.HNE">
      <acc value="0.0433906372" flag="0"/>
      <vel value="0.0112620769" flag="0"/>
      <psa03 value="0.0537922747" flag="0"/>
      <psa10 value="0.0061253520" flag="0"/>
      <psa30 value="0.0007414468" flag="0"/>
    </comp>
    <comp name="--.HNZ">
      <acc value="0.0318828103" flag="0"/>
      <vel value="0.0087136644" flag="0"/>
      <psa03 value="0.0265475322" flag="0"/>
      <psa10 value="0.0107417092" flag="0"/>
      <psa30 value="0.0011839514" flag="0"/>
    </comp>
  </station>
  <station code="CEST" name="CEST" netid="CA" insttype="CMG3T" lat="42.5987" lon="1.25406">
    <comp name="--.HHE">
      <acc value="0.0690623845" flag="0"/>
      <vel value="0.0121489285" flag="0"/>
      <psa03 value="0.0313647231" flag="0"/>
      <psa10 value="0.0080177317" flag="0"/>
      <psa30 value="0.0013632756" flag="0"/>
    </comp>
    <comp name="--.HHZ">
      <acc value="0.0466773135" flag="0"/>
      <vel value="0.0094908553" flag="0"/>
      <psa03 value="0.0243434374" flag="0"/>
      <psa10 value="0.0072991644" flag="0"/>
      <psa30 value="0.0012147491" flag="0"/>
    </comp>
    <comp name="--.HHN">
      <acc value="0.0649188948" flag="0"/>
      <vel value="0.0139830045" flag="0"/>
      <psa03 value="0.0472282537" flag="0"/>
      <psa10 value="0.0167659329" flag="0"/>
      <psa30 value="0.0028964055" flag="0"/>
    </comp>
  </station>
  <station code="CGRY" name="CGRY" netid="CA" insttype="Titan Accelerometer" lat="41.6237" lon="1.2469">
    <comp name="--.HNE">
      <acc value="0.1040801981" flag="0"/>
      <vel value="0.0274277626" flag="0"/>
      <psa03 value="0.0955328953" flag="0"/>
      <psa10 value="0.0106280673" flag="0"/>
      <psa30 value="0.0011250333" flag="0"/>
    </comp>
    <comp name="--.HNN">
      <acc value="0.1178629027" flag="0"/>
      <vel value="0.0278175991" flag="0"/>
      <psa03 value="0.1417178829" flag="0"/>
      <psa10 value="0.0079094739" flag="0"/>
      <psa30 value="0.0010980230" flag="0"/>
    </comp>
    <comp name="--.HNZ">
      <acc value="0.0728913423" flag="0"/>
      <vel value="0.0117834280" flag="0"/>
      <psa03 value="0.0570188795" flag="0"/>
      <psa10 value="0.0057060608" flag="0"/>
      <psa30 value="0.0010633425" flag="0"/>
    </comp>
  </station>
  <station code="CLLI" name="CLLI" netid="CA" insttype="TitanSMA" lat="42.4781" lon="1.97297">
    <comp name="--.HNZ">
      <acc value="0.0088727068" flag="0"/>
      <vel value="0.0030550146" flag="0"/>
      <psa03 value="0.0117931766" flag="0"/>
      <psa10 value="0.0025219109" flag="0"/>
      <psa30 value="0.0012535043" flag="0"/>
    </comp>
    <comp name="--.HNN">
      <acc value="0.0123078869" flag="0"/>
      <vel value="0.0036014229" flag="0"/>
      <psa03 value="0.0126450319" flag="0"/>
      <psa10 value="0.0040369514" flag="0"/>
      <psa30 value="0.0008868642" flag="0"/>
    </comp>
    <comp name="--.HNE">
      <acc value="0.0113517294" flag="0"/>
      <vel value="0.0032661053" flag="0"/>
      <psa03 value="0.0098006567" flag="0"/>
      <psa10 value="0.0025403637" flag="0"/>
      <psa30 value="0.0009692269" flag="0"/>
    </comp>
  </station>
  <station code="CORG" name="CORG" netid="CA" insttype="STS2.5" lat="42.2291" lon="1.31653">
    <comp name="--.HHZ">
      <acc value="0.0278727598" flag="0"/>
      <vel value="0.0072983074" flag="0"/>
      <psa03 value="0.0235073422" flag="0"/>
      <psa10 value="0.0120977538" flag="0"/>
      <psa30 value="0.0010692934" flag="0"/>
    </comp>
    <comp name="--.HHN">
      <acc value="0.0406844446" flag="0"/>
      <vel value="0.0083860365" flag="0"/>
      <psa03 value="0.0188542341" flag="0"/>
      <psa10 value="0.0083816097" flag="0"/>
      <psa30 value="0.0010662214" flag="0"/>
    </comp>
    <comp name="--.HHE">
      <acc value="0.0299939863" flag="0"/>
      <vel value="0.0072302313" flag="0"/>
      <psa03 value="0.0271299025" flag="0"/>
      <psa10 value="0.0103348324" flag="0"/>
      <psa30 value="0.0015163009" flag="0"/>
    </comp>
  </station>
  <station code="CSOR" name="CSOR" netid="CA" insttype="STS2" lat="42.3744" lon="1.13274">
    <comp name="--.HHE">
      <acc value="0.0781559157" flag="0"/>
      <vel value="0.0206563426" flag="0"/>
      <psa03 value="0.0595493856" flag="0"/>
      <psa10 value="0.0238529188" flag="0"/>
      <psa30 value="0.0024100318" flag="0"/>
    </comp>
    <comp name="--.HHN">
      <acc value="0.0802970464" flag="0"/>
      <vel value="0.0224754021" flag="0"/>
      <psa03 value="0.0702780757" flag="0"/>
      <psa10 value="0.0224873579" flag="0"/>
      <psa30 value="0.0016885175" flag="0"/>
    </comp>
    <comp name="--.HHZ">
      <acc value="0.0432144097" flag="0"/>
      <vel value="0.0184580399" flag="0"/>
      <psa03 value="0.0325785727" flag="0"/>
      <psa10 value="0.0195223136" flag="0"/>
      <psa30 value="0.0019091828" flag="0"/>
    </comp>
  </station>
  <station code="CTRE" name="CTRE" netid="CA" insttype="CMG3T" lat="42.3223" lon="0.77236">
    <comp name="--.HHE">
      <acc value="0.0909222150" flag="0"/>
      <vel value="0.0656330862" flag="0"/>
      <psa03 value="0.2201638151" flag="0"/>
      <psa10 value="0.1104593028" flag="0"/>
      <psa30 value="0.0049835580" flag="0"/>
    </comp>
    <comp name="--.HHN">
      <acc value="0.1013842119" flag="0"/>
      <vel value="0.0367734534" flag="0"/>
      <psa03 value="0.1387154121" flag="0"/>
      <psa10 value="0.0446622695" flag="0"/>
      <psa30 value="0.0074012241" flag="0"/>
    </comp>
    <comp name="--.HHZ">
      <acc value="0.1104160441" flag="0"/>
      <vel value="0.0314244576" flag="0"/>
      <psa03 value="0.0782605223" flag="0"/>
      <psa10 value="0.0411276635" flag="0"/>
      <psa30 value="0.0041860354" flag="0"/>
    </comp>
  </station>
  <station code="CTRM" name="CTRM" netid="CA" insttype="CMG5TDE" lat="42.1609" lon="0.893644">
    <comp name="--.HNN">
      <acc value="0.1606876696" flag="0"/>
      <vel value="0.0528627201" flag="0"/>
      <psa03 value="0.1165613308" flag="0"/>
      <psa10 value="0.0396928091" flag="0"/>
      <psa30 value="0.0025846482" flag="0"/>
    </comp>
    <comp name="--.HNZ">
      <acc value="0.1202161795" flag="0"/>
      <vel value="0.0325137701" flag="0"/>
      <psa03 value="0.0500086384" flag="0"/>
      <psa10 value="0.0339605996" flag="0"/>
      <psa30 value="0.0045849688" flag="0"/>
    </comp>
    <comp name="--.HNE">
      <acc value="0.2363792034" flag="0"/>
      <vel value="0.0718033530" flag="0"/>
      <psa03 value="0.1350765825" flag="0"/>
      <psa10 value="0.0680656781" flag="0"/>
      <psa30 value="0.0060823652" flag="0"/>
    </comp>
  </station>
  <station code="ILER" name="ILER" netid="CA" insttype="CMG5TD" lat="41.6153" lon="0.6262">
    <comp name="--.HNE">
      <acc value="0.0766109310" flag="0"/>
      <vel value="0.0209351767" flag="0"/>
      <psa03 value="0.0356046634" flag="0"/>
      <psa10 value="0.0131659236" flag="0"/>
      <psa30 value="0.0027072497" flag="0"/>
    </comp>
    <comp name="--.HNN">
      <acc value="0.0796412626" flag="0"/>
      <vel value="0.0326187353" flag="0"/>
      <psa03 value="0.0705427160" flag="0"/>
      <psa10 value="0.0284877410" flag="0"/>
      <psa30 value="0.0024700417" flag="0"/>
    </comp>
    <comp name="--.HNZ">
      <acc value="0.0489872069" flag="0"/>
      <vel value="0.0120112729" flag="0"/>
      <psa03 value="0.0344490182" flag="0"/>
      <psa10 value="0.0116030593" flag="0"/>
      <psa30 value="0.0023310696" flag="0"/>
    </comp>
  </station>
  <station code="SCOL" name="SCOL" netid="CA" insttype="CMG5TDE" lat="42.493" lon="1.49626">
    <comp name="--.HNN">
      <acc value="0.0790736680" flag="0"/>
      <vel value="0.0295153637" flag="0"/>
      <psa03 value="0.1144428309" flag="0"/>
      <psa10 value="0.0211786090" flag="0"/>
      <psa30 value="0.0017588139" flag="0"/>
    </comp>
    <comp name="--.HNZ">
      <acc value="0.0674048086" flag="0"/>
      <vel value="0.0180363080" flag="0"/>
      <psa03 value="0.0896351410" flag="0"/>
      <psa10 value="0.0078478862" flag="0"/>
      <psa30 value="0.0023370191" flag="0"/>
    </comp>
    <comp name="--.HNE">
      <acc value="0.1042795932" flag="0"/>
      <vel value="0.0227834364" flag="0"/>
      <psa03 value="0.1013744059" flag="0"/>
      <psa10 value="0.0107545357" flag="0"/>
      <psa30 value="0.0014764839" flag="0"/>
    </comp>
  </station>
  <station code="VIER" name="VIER" netid="CA" insttype="TitanSMA" lat="42.7065" lon="0.786306">
    <comp name="--.HNE">
      <acc value="0.8781057352" flag="0"/>
      <vel value="0.2036787376" flag="0"/>
      <psa03 value="0.4720166092" flag="0"/>
      <psa10 value="0.0929984631" flag="0"/>
      <psa30 value="0.0071931022" flag="0"/>
    </comp>
    <comp name="--.HNZ">
      <acc value="0.4369845170" flag="0"/>
      <vel value="0.1127990687" flag="0"/>
      <psa03 value="0.2828041467" flag="0"/>
      <psa10 value="0.1731046637" flag="0"/>
      <psa30 value="0.0114970670" flag="0"/>
    </comp>
    <comp name="--.HNN">
      <acc value="0.6531003806" flag="0"/>
      <vel value="0.1865972714" flag="0"/>
      <psa03 value="0.4647685966" flag="0"/>
      <psa10 value="0.1258535351" flag="0"/>
      <psa30 value="0.0189412491" flag="0"/>
    </comp>
  </station>
  <station code="VIES" name="VIES" netid="CA" insttype="CMG5TD" lat="42.7016" lon="0.7969">
    <comp name="--.HNN">
      <acc value="2.5977061176" flag="0"/>
      <vel value="0.5761681265" flag="0"/>
      <psa03 value="1.2010370120" flag="0"/>
      <psa10 value="0.0867356190" flag="0"/>
      <psa30 value="0.0110102182" flag="0"/>
    </comp>
    <comp name="--.HNE">
      <acc value="2.0876611506" flag="0"/>
      <vel value="0.5103483412" flag="0"/>
      <psa03 value="1.1093230958" flag="0"/>
      <psa10 value="0.0919891725" flag="0"/>
      <psa30 value="0.0110284770" flag="0"/>
    </comp>
    <comp name="--.HNZ">
      <acc value="1.2235133619" flag="0"/>
      <vel value="0.2771629610" flag="0"/>
      <psa03 value="0.7034067248" flag="0"/>
      <psa10 value="0.1763231295" flag="0"/>
      <psa30 value="0.0102474179" flag="0"/>
    </comp>
  </station>
  <station code="EXQUE" name="EXQUE" netid="ES" insttype="" lat="42.3484" lon="2.16266">
    <comp name="--.HNE">
      <acc value="0.0352621573" flag="0"/>
      <vel value="0.0089319574" flag="0"/>
      <psa03 value="0.0450892714" flag="0"/>
      <psa10 value="0.0030294075" flag="0"/>
      <psa30 value="0.0009954689" flag="0"/>
    </comp>
    <comp name="--.HNZ">
      <acc value="0.0242435204" flag="0"/>
      <vel value="0.0050259354" flag="0"/>
      <psa03 value="0.0221106258" flag="0"/>
      <psa10 value="0.0027295603" flag="0"/>
      <psa30 value="0.0012408340" flag="0"/>
    </comp>
    <comp name="--.HNN">
      <acc value="0.0295964817" flag="0"/>
      <vel value="0.0087763258" flag="0"/>
      <psa03 value="0.0378208077" flag="0"/>
      <psa10 value="0.0047822584" flag="0"/>
      <psa30 value="0.0009634757" flag="0"/>
    </comp>
  </station>
  <station code="EXSEU" name="EXSEU" netid="ES" insttype="" lat="42.358" lon="1.45986">
    <comp name="--.HNZ">
      <acc value="0.0392554697" flag="0"/>
      <vel value="0.0134729475" flag="0"/>
      <psa03 value="0.0434287708" flag="0"/>
      <psa10 value="0.0081353259" flag="0"/>
      <psa30 value="0.0011083330" flag="0"/>
    </comp>
    <comp name="--.HNE">
      <acc value="0.0460437948" flag="0"/>
      <vel value="0.0160455257" flag="0"/>
      <psa03 value="0.0892557276" flag="0"/>
      <psa10 value="0.0200920754" flag="0"/>
      <psa30 value="0.0025963930" flag="0"/>
    </comp>
    <comp name="--.HNN">
      <acc value="0.0254980073" flag="0"/>
      <vel value="0.0140975576" flag="0"/>
      <psa03 value="0.0404660140" flag="0"/>
      <psa10 value="0.0269953474" flag="0"/>
      <psa30 value="0.0016550726" flag="0"/>
    </comp>
  </station>
  <station code="EXVI3" name="EXVI3" netid="ES" insttype="" lat="42.6214" lon="0.76514">
    <comp name="--.HNE">
      <acc value="29.3929042214" flag="0"/>
      <vel value="4.2094392545" flag="0"/>
      <psa03 value="6.3798437614" flag="0"/>
      <psa10 value="0.5929336015" flag="0"/>
      <psa30 value="0.0669676377" flag="0"/>
    </comp>
    <comp name="--.HNN">
      <acc value="11.1130047510" flag="0"/>
      <vel value="1.7149879085" flag="0"/>
      <psa03 value="4.1689151319" flag="0"/>
      <psa10 value="0.3516579663" flag="0"/>
      <psa30 value="0.0306445423" flag="0"/>
    </comp>
    <comp name="--.HNZ">
      <acc value="13.9446427103" flag="0"/>
      <vel value="1.2655870441" flag="0"/>
      <psa03 value="2.4452947327" flag="0"/>
      <psa10 value="0.2961946249" flag="0"/>
      <psa30 value="0.0293244887" flag="0"/>
    </comp>
  </station>
</stationlist>
