<?xml version="1.0" encoding="UTF-8" standalone="yes"?>
<!DOCTYPE earthquake SYSTEM "stationlist.dtd">
<stationlist created="" xmlns="ch.ethz.sed.shakemap.usgs.xml">
  <station code="AVIN" name="AVIN" netid="CA" insttype="TitanSMA" lat="41.8438" lon="1.96546">
    <comp name="--.HNE">
      <acc value="0.1100815533" flag="0"/>
      <vel value="0.0201767997" flag="0"/>
      <psa03 value="0.0586095086" flag="0"/>
      <psa10 value="0.0083407253" flag="0"/>
      <psa30 value="0.0007569044" flag="0"/>
    </comp>
    <comp name="--.HNZ">
      <acc value="0.0476670752" flag="0"/>
      <vel value="0.0075780918" flag="0"/>
      <psa03 value="0.0405262976" flag="0"/>
      <psa10 value="0.0041291987" flag="0"/>
      <psa30 value="0.0005229163" flag="0"/>
    </comp>
    <comp name="--.HNN">
      <acc value="0.1401171362" flag="0"/>
      <vel value="0.0368587508" flag="0"/>
      <psa03 value="0.0780364157" flag="0"/>
      <psa10 value="0.0105498111" flag="0"/>
      <psa30 value="0.0008502373" flag="0"/>
    </comp>
  </station>
  <station code="CARA" name="CARA" netid="CA" insttype="Trillium120BH" lat="42.7076" lon="0.818132">
    <comp name="--.HHZ">
      <acc value="0.1669100713" flag="0"/>
      <vel value="0.0819356204" flag="0"/>
      <psa03 value="0.1706678925" flag="0"/>
      <psa10 value="0.0961075333" flag="0"/>
      <psa30 value="0.0060276312" flag="0"/>
    </comp>
    <comp name="--.HH1">
      <acc value="0.3222824088" flag="0"/>
      <vel value="0.1112648441" flag="0"/>
      <psa03 value="0.3940680967" flag="0"/>
      <psa10 value="0.1551975424" flag="0"/>
      <psa30 value="0.0137128432" flag="0"/>
    </comp>
    <comp name="--.HH2">
      <acc value="0.1485050894" flag="0"/>
      <vel value="0.0881915930" flag="0"/>
      <psa03 value="0.2851293417" flag="0"/>
      <psa10 value="0.0975605290" flag="0"/>
      <psa30 value="0.0060638571" flag="0"/>
    </comp>
  </station>
  <station code="CAVN" name="CAVN" netid="CA" insttype="Trillium120QA" lat="41.8816" lon="0.750608">
    <comp name="--.HHE">
      <acc value="0.1121482059" flag="0"/>
      <vel value="0.0344448450" flag="0"/>
      <psa03 value="0.0680372890" flag="0"/>
      <psa10 value="0.0284725540" flag="0"/>
      <psa30 value="0.0053629567" flag="0"/>
    </comp>
    <comp name="--.HHN">
      <acc value="0.0708343650" flag="0"/>
      <vel value="0.0237713860" flag="0"/>
      <psa03 value="0.0653252874" flag="0"/>
      <psa10 value="0.0379705114" flag="0"/>
      <psa30 value="0.0024311045" flag="0"/>
    </comp>
    <comp name="--.HHZ">
      <acc value="0.0589215243" flag="0"/>
      <vel value="0.0151120646" flag="0"/>
      <psa03 value="0.0467608374" flag="0"/>
      <psa10 value="0.0198421190" flag="0"/>
      <psa30 value="0.0025816481" flag="0"/>
    </comp>
  </station>
  <station code="CESP" name="CESP" netid="CA" insttype="Titan Accelerometer" lat="42.1157" lon="1.81258">
    <comp name="--.HNN">
      <acc value="0.0274201346" flag="0"/>
      <vel value="0.0102371836" flag="0"/>
      <psa03 value="0.0608760125" flag="0"/>
      <psa10 value="0.0081193550" flag="0"/>
      <psa30 value="0.0005597806" flag="0"/>
    </comp>
    <comp name="--.HNE">
      <acc value="0.0433906378" flag="0"/>
      <vel value="0.0112620766" flag="0"/>
      <psa03 value="0.0537922747" flag="0"/>
      <psa10 value="0.0061253520" flag="0"/>
      <psa30 value="0.0007414063" flag="0"/>
    </comp>
    <comp name="--.HNZ">
      <acc value="0.0318828122" flag="0"/>
      <vel value="0.0087136618" flag="0"/>
      <psa03 value="0.0265475322" flag="0"/>
      <psa10 value="0.0107417092" flag="0"/>
      <psa30 value="0.0011840206" flag="0"/>
    </comp>
  </station>
  <station code="CEST" name="CEST" netid="CA" insttype="CMG3T" lat="42.5987" lon="1.25406">
    <comp name="--.HHN">
      <acc value="0.0649188940" flag="0"/>
      <vel value="0.0139830044" flag="0"/>
      <psa03 value="0.0472282537" flag="0"/>
      <psa10 value="0.0167659328" flag="0"/>
      <psa30 value="0.0028963979" flag="0"/>
    </comp>
    <comp name="--.HHE">
      <acc value="0.0690623859" flag="0"/>
      <vel value="0.0121489285" flag="0"/>
      <psa03 value="0.0313647231" flag="0"/>
      <psa10 value="0.0080177317" flag="0"/>
      <psa30 value="0.0013632656" flag="0"/>
    </comp>
    <comp name="--.HHZ">
      <acc value="0.0466773133" flag="0"/>
      <vel value="0.0094908550" flag="0"/>
      <psa03 value="0.0243434374" flag="0"/>
      <psa10 value="0.0072991644" flag="0"/>
      <psa30 value="0.0012147926" flag="0"/>
    </comp>
  </station>
  <station code="CGRY" name="CGRY" netid="CA" insttype="Titan Accelerometer" lat="41.6237" lon="1.2469">
    <comp name="--.HNZ">
      <acc value="0.0728913422" flag="0"/>
      <vel value="0.0117834278" flag="0"/>
      <psa03 value="0.0570188795" flag="0"/>
      <psa10 value="0.0057060608" flag="0"/>
      <psa30 value="0.0010633487" flag="0"/>
    </comp>
    <comp name="--.HNE">
      <acc value="0.1040801967" flag="0"/>
      <vel value="0.0274277637" flag="0"/>
      <psa03 value="0.0955328953" flag="0"/>
      <psa10 value="0.0106280672" flag="0"/>
      <psa30 value="0.0011250137" flag="0"/>
    </comp>
    <comp name="--.HNN">
      <acc value="0.1178629056" flag="0"/>
      <vel value="0.0278175988" flag="0"/>
      <psa03 value="0.1417178829" flag="0"/>
      <psa10 value="0.0079094739" flag="0"/>
      <psa30 value="0.0010980232" flag="0"/>
    </comp>
  </station>
  <station code="CLLI" name="CLLI" netid="CA" insttype="TitanSMA" lat="42.4781" lon="1.97297">
    <comp name="--.HNE">
      <acc value="0.0113517299" flag="0"/>
      <vel value="0.0032661051" flag="0"/>
      <psa03 value="0.0098006567" flag="0"/>
      <psa10 value="0.0025403637" flag="0"/>
      <psa30 value="0.0009692431" flag="0"/>
    </comp>
    <comp name="--.HNZ">
      <acc value="0.0088727070" flag="0"/>
      <vel value="0.0030550144" flag="0"/>
      <psa03 value="0.0117931766" flag="0"/>
      <psa10 value="0.0025219109" flag="0"/>
      <psa30 value="0.0012535056" flag="0"/>
    </comp>
    <comp name="--.HNN">
      <acc value="0.0123078859" flag="0"/>
      <vel value="0.0036014228" flag="0"/>
      <psa03 value="0.0126450319" flag="0"/>
      <psa10 value="0.0040369514" flag="0"/>
      <psa30 value="0.0008868473" flag="0"/>
    </comp>
  </station>
  <station code="CMON" name="CMON" netid="CA" insttype="CMG5TD" lat="41.5933" lon="1.83629">
    <comp name="--.HNE">
      <acc value="0.0239952296" flag="0"/>
      <vel value="0.0102728962" flag="0"/>
      <psa03 value="0.0234219138" flag="0"/>
      <psa10 value="0.0073592296" flag="0"/>
      <psa30 value="0.0011499061" flag="0"/>
    </comp>
    <comp name="--.HNZ">
      <acc value="0.0171372989" flag="0"/>
      <vel value="0.0074605385" flag="0"/>
      <psa03 value="0.0187941304" flag="0"/>
      <psa10 value="0.0040925306" flag="0"/>
      <psa30 value="0.0017229909" flag="0"/>
    </comp>
    <comp name="--.HNN">
      <acc value="0.0239422185" flag="0"/>
      <vel value="0.0073354352" flag="0"/>
      <psa03 value="0.0233904568" flag="0"/>
      <psa10 value="0.0036886346" flag="0"/>
      <psa30 value="0.0017437880" flag="0"/>
    </comp>
  </station>
  <station code="CORG" name="CORG" netid="CA" insttype="STS2.5" lat="42.2291" lon="1.31653">
    <comp name="--.HHE">
      <acc value="0.0299939882" flag="0"/>
      <vel value="0.0072302306" flag="0"/>
      <psa03 value="0.0271299025" flag="0"/>
      <psa10 value="0.0103348325" flag="0"/>
      <psa30 value="0.0015162964" flag="0"/>
    </comp>
    <comp name="--.HHN">
      <acc value="0.0406844445" flag="0"/>
      <vel value="0.0083860359" flag="0"/>
      <psa03 value="0.0188542341" flag="0"/>
      <psa10 value="0.0083816098" flag="0"/>
      <psa30 value="0.0010662168" flag="0"/>
    </comp>
    <comp name="--.HHZ">
      <acc value="0.0278727594" flag="0"/>
      <vel value="0.0072983053" flag="0"/>
      <psa03 value="0.0235073422" flag="0"/>
      <psa10 value="0.0120977538" flag="0"/>
      <psa30 value="0.0010692147" flag="0"/>
    </comp>
  </station>
  <station code="CORI" name="CORI" netid="CA" insttype="CMG3ESP" lat="41.9724" lon="2.0488">
    <comp name="--.HHZ">
      <acc value="0.0139918485" flag="0"/>
      <vel value="0.0032823720" flag="0"/>
      <psa03 value="0.0163939995" flag="0"/>
      <psa10 value="0.0038881647" flag="0"/>
      <psa30 value="0.0006860568" flag="0"/>
    </comp>
    <comp name="--.HHN">
      <acc value="0.0279431905" flag="0"/>
      <vel value="0.0078748195" flag="0"/>
      <psa03 value="0.0351252297" flag="0"/>
      <psa10 value="0.0041648345" flag="0"/>
      <psa30 value="0.0006331136" flag="0"/>
    </comp>
    <comp name="--.HHE">
      <acc value="0.0289987418" flag="0"/>
      <vel value="0.0086655080" flag="0"/>
      <psa03 value="0.0397547219" flag="0"/>
      <psa10 value="0.0058469799" flag="0"/>
      <psa30 value="0.0004737809" flag="0"/>
    </comp>
  </station>
  <station code="CSOR" name="CSOR" netid="CA" insttype="STS2" lat="42.3744" lon="1.13274">
    <comp name="--.HHN">
      <acc value="0.0802970462" flag="0"/>
      <vel value="0.0224754022" flag="0"/>
      <psa03 value="0.0702780757" flag="0"/>
      <psa10 value="0.0224873582" flag="0"/>
      <psa30 value="0.0016885309" flag="0"/>
    </comp>
    <comp name="--.HHZ">
      <acc value="0.0432144096" flag="0"/>
      <vel value="0.0184580414" flag="0"/>
      <psa03 value="0.0325785727" flag="0"/>
      <psa10 value="0.0195223138" flag="0"/>
      <psa30 value="0.0019092215" flag="0"/>
    </comp>
    <comp name="--.HHE">
      <acc value="0.0781559160" flag="0"/>
      <vel value="0.0206563422" flag="0"/>
      <psa03 value="0.0595493856" flag="0"/>
      <psa10 value="0.0238529185" flag="0"/>
      <psa30 value="0.0024101383" flag="0"/>
    </comp>
  </station>
  <station code="CTRE" name="CTRE" netid="CA" insttype="CMG3T" lat="42.3223" lon="0.77236">
    <comp name="--.HHE">
      <acc value="0.0909222143" flag="0"/>
      <vel value="0.0656330863" flag="0"/>
      <psa03 value="0.2201638151" flag="0"/>
      <psa10 value="0.1104593014" flag="0"/>
      <psa30 value="0.0049836256" flag="0"/>
    </comp>
    <comp name="--.HHZ">
      <acc value="0.1104160437" flag="0"/>
      <vel value="0.0314244580" flag="0"/>
      <psa03 value="0.0782605223" flag="0"/>
      <psa10 value="0.0411276648" flag="0"/>
      <psa30 value="0.0041860300" flag="0"/>
    </comp>
    <comp name="--.HHN">
      <acc value="0.1013842109" flag="0"/>
      <vel value="0.0367734515" flag="0"/>
      <psa03 value="0.1387154121" flag="0"/>
      <psa10 value="0.0446622688" flag="0"/>
      <psa30 value="0.0074012976" flag="0"/>
    </comp>
  </station>
  <station code="CTRM" name="CTRM" netid="CA" insttype="CMG5TDE" lat="42.1609" lon="0.893644">
    <comp name="--.HNZ">
      <acc value="0.1202161800" flag="0"/>
      <vel value="0.0325137694" flag="0"/>
      <psa03 value="0.0500086384" flag="0"/>
      <psa10 value="0.0339605996" flag="0"/>
      <psa30 value="0.0045849488" flag="0"/>
    </comp>
    <comp name="--.HNN">
      <acc value="0.1606876706" flag="0"/>
      <vel value="0.0528627200" flag="0"/>
      <psa03 value="0.1165613308" flag="0"/>
      <psa10 value="0.0396928092" flag="0"/>
      <psa30 value="0.0025846141" flag="0"/>
    </comp>
    <comp name="--.HNE">
      <acc value="0.2363792030" flag="0"/>
      <vel value="0.0718033545" flag="0"/>
      <psa03 value="0.1350765825" flag="0"/>
      <psa10 value="0.0680656767" flag="0"/>
      <psa30 value="0.0060824264" flag="0"/>
    </comp>
  </station>
  <station code="ILER" name="ILER" netid="CA" insttype="CMG5TD" lat="41.6153" lon="0.6262">
    <comp name="--.HNN">
      <acc value="0.0796412613" flag="0"/>
      <vel value="0.0326187364" flag="0"/>
      <psa03 value="0.0705427160" flag="0"/>
      <psa10 value="0.0284877410" flag="0"/>
      <psa30 value="0.0024700659" flag="0"/>
    </comp>
    <comp name="--.HNZ">
      <acc value="0.0489872063" flag="0"/>
      <vel value="0.0120112721" flag="0"/>
      <psa03 value="0.0344490182" flag="0"/>
      <psa10 value="0.0116030593" flag="0"/>
      <psa30 value="0.0023310696" flag="0"/>
    </comp>
  </station>
  <station code="POBL" name="POBL" netid="CA" insttype="Trillium All-Terrain" lat="41.3793" lon="1.08348">
    <comp name="--.HHE">
      <acc value="0.1256636799" flag="0"/>
      <vel value="0.0368482256" flag="0"/>
      <psa03 value="0.1254985557" flag="0"/>
      <psa10 value="0.0236717539" flag="0"/>
      <psa30 value="0.0022814679" flag="0"/>
    </comp>
    <comp name="--.HHN">
      <acc value="0.1657016215" flag="0"/>
      <vel value="0.0562960000" flag="0"/>
      <psa03 value="0.0935042709" flag="0"/>
      <psa10 value="0.0424810228" flag="0"/>
      <psa30 value="0.0022156500" flag="0"/>
    </comp>
    <comp name="--.HHZ">
      <acc value="0.0971967957" flag="0"/>
      <vel value="0.0231535977" flag="0"/>
      <psa03 value="0.0690583493" flag="0"/>
      <psa10 value="0.0178946638" flag="0"/>
      <psa30 value="0.0014543802" flag="0"/>
    </comp>
  </station>
  <station code="SCOL" name="SCOL" netid="CA" insttype="CMG5TDE" lat="42.493" lon="1.49626">
    <comp name="--.HNE">
      <acc value="0.1042795465" flag="0"/>
      <vel value="0.0227834423" flag="0"/>
      <psa03 value="0.1013744059" flag="0"/>
      <psa10 value="0.0107545301" flag="0"/>
      <psa30 value="0.0014765323" flag="0"/>
    </comp>
    <comp name="--.HNN">
      <acc value="0.0790736830" flag="0"/>
      <vel value="0.0295153625" flag="0"/>
      <psa03 value="0.1144428310" flag="0"/>
      <psa10 value="0.0211786091" flag="0"/>
      <psa30 value="0.0017593909" flag="0"/>
    </comp>
    <comp name="--.HNZ">
      <acc value="0.0674047648" flag="0"/>
      <vel value="0.0180363084" flag="0"/>
      <psa03 value="0.0896351410" flag="0"/>
      <psa10 value="0.0078478835" flag="0"/>
      <psa30 value="0.0023369478" flag="0"/>
    </comp>
  </station>
  <station code="VIER" name="VIER" netid="CA" insttype="TitanSMA" lat="42.7065" lon="0.786306">
    <comp name="--.HNE">
      <acc value="0.8781057340" flag="0"/>
      <vel value="0.2036787367" flag="0"/>
      <psa03 value="0.4720166092" flag="0"/>
      <psa10 value="0.0929984624" flag="0"/>
      <psa30 value="0.0071931645" flag="0"/>
    </comp>
    <comp name="--.HNN">
      <acc value="0.6531003833" flag="0"/>
      <vel value="0.1865972716" flag="0"/>
      <psa03 value="0.4647685966" flag="0"/>
      <psa10 value="0.1258535354" flag="0"/>
      <psa30 value="0.0189412745" flag="0"/>
    </comp>
    <comp name="--.HNZ">
      <acc value="0.4369845184" flag="0"/>
      <vel value="0.1127990678" flag="0"/>
      <psa03 value="0.2828041467" flag="0"/>
      <psa10 value="0.1731046632" flag="0"/>
      <psa30 value="0.0114972104" flag="0"/>
    </comp>
  </station>
  <station code="VIES" name="VIES" netid="CA" insttype="CMG5TD" lat="42.7016" lon="0.7969">
    <comp name="--.HNZ">
      <acc value="1.2235133604" flag="0"/>
      <vel value="0.2771629601" flag="0"/>
      <psa03 value="0.7034067248" flag="0"/>
      <psa10 value="0.1763231356" flag="0"/>
      <psa30 value="0.0102469638" flag="0"/>
    </comp>
    <comp name="--.HNE">
      <acc value="2.0876611509" flag="0"/>
      <vel value="0.5103483404" flag="0"/>
      <psa03 value="1.1093230958" flag="0"/>
      <psa10 value="0.0919891712" flag="0"/>
      <psa30 value="0.0110287730" flag="0"/>
    </comp>
    <comp name="--.HNN">
      <acc value="2.5977061189" flag="0"/>
      <vel value="0.5761681254" flag="0"/>
      <psa03 value="1.2010370120" flag="0"/>
      <psa10 value="0.0867356172" flag="0"/>
      <psa30 value="0.0110104699" flag="0"/>
    </comp>
  </station>
  <station code="EXQUE" name="EXQUE" netid="ES" insttype="" lat="42.3484" lon="2.16266">
    <comp name="--.HNN">
      <acc value="0.0295964891" flag="0"/>
      <vel value="0.0087763268" flag="0"/>
      <psa03 value="0.0378208077" flag="0"/>
      <psa10 value="0.0047822584" flag="0"/>
      <psa30 value="0.0009635112" flag="0"/>
    </comp>
    <comp name="--.HNE">
      <acc value="0.0352621547" flag="0"/>
      <vel value="0.0089319541" flag="0"/>
      <psa03 value="0.0450892714" flag="0"/>
      <psa10 value="0.0030294075" flag="0"/>
      <psa30 value="0.0009953870" flag="0"/>
    </comp>
    <comp name="--.HNZ">
      <acc value="0.0242435199" flag="0"/>
      <vel value="0.0050259322" flag="0"/>
      <psa03 value="0.0221106258" flag="0"/>
      <psa10 value="0.0027295603" flag="0"/>
      <psa30 value="0.0012407978" flag="0"/>
    </comp>
  </station>
  <station code="EXSEU" name="EXSEU" netid="ES" insttype="" lat="42.358" lon="1.45986">
    <comp name="--.HNZ">
      <acc value="0.0392554688" flag="0"/>
      <vel value="0.0134729480" flag="0"/>
      <psa03 value="0.0434287708" flag="0"/>
      <psa10 value="0.0081353257" flag="0"/>
      <psa30 value="0.0011085143" flag="0"/>
    </comp>
    <comp name="--.HNE">
      <acc value="0.0460437887" flag="0"/>
      <vel value="0.0160455269" flag="0"/>
      <psa03 value="0.0892557276" flag="0"/>
      <psa10 value="0.0200920755" flag="0"/>
      <psa30 value="0.0025963175" flag="0"/>
    </comp>
    <comp name="--.HNN">
      <acc value="0.0254980085" flag="0"/>
      <vel value="0.0140975595" flag="0"/>
      <psa03 value="0.0404660140" flag="0"/>
      <psa10 value="0.0269953474" flag="0"/>
      <psa30 value="0.0016550884" flag="0"/>
    </comp>
  </station>
  <station code="EXVI3" name="EXVI3" netid="ES" insttype="" lat="42.6214" lon="0.76514">
    <comp name="--.HNN">
      <acc value="11.1130047497" flag="0"/>
      <vel value="1.7149879087" flag="0"/>
      <psa03 value="4.1689151319" flag="0"/>
      <psa10 value="0.3516579879" flag="0"/>
      <psa30 value="0.0306447152" flag="0"/>
    </comp>
    <comp name="--.HNZ">
      <acc value="13.9446427059" flag="0"/>
      <vel value="1.2655870533" flag="0"/>
      <psa03 value="2.4452947327" flag="0"/>
      <psa10 value="0.2961946045" flag="0"/>
      <psa30 value="0.0293258598" flag="0"/>
    </comp>
    <comp name="--.HNE">
      <acc value="29.3929042171" flag="0"/>
      <vel value="4.2094392167" flag="0"/>
      <psa03 value="6.3798437602" flag="0"/>
      <psa10 value="0.5929334810" flag="0"/>
      <psa30 value="0.0668181002" flag="0"/>
    </comp>
  </station>
</stationlist>
