<?xml version="1.0" encoding="UTF-8" standalone="yes"?>
<!DOCTYPE earthquake SYSTEM "stationlist.dtd">
<stationlist created="" xmlns="ch.ethz.sed.shakemap.usgs.xml">
  <station code="DARE" name="DARE" netid="KO" insttype="CMG-3ESP" lat="38.5712" lon="37.4832">
    <comp name="--.HHN">
      <acc value="0.0165261497" flag="0"/>
      <vel value="0.0043557268" flag="0"/>
      <psa03 value="0.0399534228" flag="0"/>
      <psa10 value="0.0049983910" flag="0"/>
      <psa30 value="0.0004259341" flag="0"/>
    </comp>
    <comp name="--.HHZ">
      <acc value="0.0176093719" flag="0"/>
      <vel value="0.0075030823" flag="0"/>
      <psa03 value="0.0275602414" flag="0"/>
      <psa10 value="0.0074873647" flag="0"/>
      <psa30 value="0.0006272635" flag="0"/>
    </comp>
    <comp name="--.HHE">
      <acc value="0.0288939283" flag="0"/>
      <vel value="0.0074104248" flag="0"/>
      <psa03 value="0.0319769549" flag="0"/>
      <psa10 value="0.0041682099" flag="0"/>
      <psa30 value="0.0004330956" flag="0"/>
    </comp>
  </station>
  <station code="GAZ" name="GAZ" netid="KO" insttype="CMG-3T" lat="37.1721" lon="37.2096">
    <comp name="--.HHE">
      <acc value="0.0341767060" flag="0"/>
      <vel value="0.0204084449" flag="0"/>
      <psa03 value="0.0822409077" flag="0"/>
      <psa10 value="0.0094067109" flag="0"/>
      <psa30 value="0.0012389579" flag="0"/>
    </comp>
    <comp name="--.HHN">
      <acc value="0.0198340567" flag="0"/>
      <vel value="0.0104958784" flag="0"/>
      <psa03 value="0.0502543151" flag="0"/>
      <psa10 value="0.0089031814" flag="0"/>
      <psa30 value="0.0008170199" flag="0"/>
    </comp>
    <comp name="--.HHZ">
      <acc value="0.0176248093" flag="0"/>
      <vel value="0.0064773579" flag="0"/>
      <psa03 value="0.0490368543" flag="0"/>
      <psa10 value="0.0061722621" flag="0"/>
      <psa30 value="0.0004622735" flag="0"/>
    </comp>
  </station>
  <station code="KHMN" name="KHMN" netid="KO" insttype="CMG-5T" lat="37.3916" lon="37.1574">
    <comp name="--.HNE">
      <acc value="0.0395795012" flag="0"/>
      <vel value="0.0085715572" flag="0"/>
      <psa03 value="0.0430848151" flag="0"/>
      <psa10 value="0.0056435500" flag="0"/>
      <psa30 value="0.0008481074" flag="0"/>
    </comp>
    <comp name="--.HNN">
      <acc value="0.0483485782" flag="0"/>
      <vel value="0.0089344048" flag="0"/>
      <psa03 value="0.0434099985" flag="0"/>
      <psa10 value="0.0029405706" flag="0"/>
      <psa30 value="0.0009114140" flag="0"/>
    </comp>
    <comp name="--.HNZ">
      <acc value="0.0283847923" flag="0"/>
      <vel value="0.0052992362" flag="0"/>
      <psa03 value="0.0260698420" flag="0"/>
      <psa10 value="0.0027050536" flag="0"/>
      <psa30 value="0.0006886484" flag="0"/>
    </comp>
  </station>
  <station code="KMRS" name="KMRS" netid="KO" insttype="CMG-3T" lat="37.5053" lon="36.9">
    <comp name="--.HHZ">
      <acc value="0.0187317995" flag="0"/>
      <vel value="0.0108139120" flag="0"/>
      <psa03 value="0.0681579880" flag="0"/>
      <psa10 value="0.0043696840" flag="0"/>
      <psa30 value="0.0004098597" flag="0"/>
    </comp>
  </station>
  <station code="SARI" name="SARI" netid="KO" insttype="CMG-3T" lat="38.4072" lon="36.4181">
    <comp name="--.HHE">
      <acc value="0.0705472809" flag="0"/>
      <vel value="0.0173441565" flag="0"/>
      <psa03 value="0.0853383309" flag="0"/>
      <psa10 value="0.0080479042" flag="0"/>
      <psa30 value="0.0004058223" flag="0"/>
    </comp>
    <comp name="--.HHN">
      <acc value="0.0757639704" flag="0"/>
      <vel value="0.0232708132" flag="0"/>
      <psa03 value="0.1154626114" flag="0"/>
      <psa10 value="0.0187597717" flag="0"/>
      <psa30 value="0.0007333018" flag="0"/>
    </comp>
    <comp name="--.HHZ">
      <acc value="0.0737413388" flag="0"/>
      <vel value="0.0176186435" flag="0"/>
      <psa03 value="0.0630898293" flag="0"/>
      <psa10 value="0.0101139042" flag="0"/>
      <psa30 value="0.0004883063" flag="0"/>
    </comp>
  </station>
  <station code="ANDN" name="ANDN" netid="TU" insttype="T" lat="37.58" lon="36.3452">
    <comp name="--.HHE">
      <acc value="0.0958754019" flag="0"/>
      <vel value="0.0317303494" flag="0"/>
      <psa03 value="0.1741073584" flag="0"/>
      <psa10 value="0.0231239774" flag="0"/>
      <psa30 value="0.0013800319" flag="0"/>
    </comp>
    <comp name="--.HHN">
      <acc value="0.1362252808" flag="0"/>
      <vel value="0.0451418068" flag="0"/>
      <psa03 value="0.2080542430" flag="0"/>
      <psa10 value="0.0280239691" flag="0"/>
      <psa30 value="0.0022936270" flag="0"/>
    </comp>
    <comp name="--.HHZ">
      <acc value="0.0440364027" flag="0"/>
      <vel value="0.0154495526" flag="0"/>
      <psa03 value="0.1304389794" flag="0"/>
      <psa10 value="0.0207633715" flag="0"/>
      <psa30 value="0.0012956862" flag="0"/>
    </comp>
  </station>
</stationlist>
