<?xml version="1.0" encoding="UTF-8" standalone="yes"?>
<!DOCTYPE earthquake SYSTEM "stationlist.dtd">
<stationlist created="" xmlns="ch.ethz.sed.shakemap.usgs.xml">
  <station code="DARE" name="DARE" netid="KO" insttype="CMG-3ESP" lat="38.5712" lon="37.4832">
    <comp name="--.HHE">
      <acc value="0.0288939283" flag="0"/>
      <vel value="0.0074104251" flag="0"/>
      <psa03 value="0.0319769549" flag="0"/>
      <psa10 value="0.0041682099" flag="0"/>
      <psa30 value="0.0004331198" flag="0"/>
    </comp>
    <comp name="--.HHZ">
      <acc value="0.0176093719" flag="0"/>
      <vel value="0.0075030826" flag="0"/>
      <psa03 value="0.0275602414" flag="0"/>
      <psa10 value="0.0074873646" flag="0"/>
      <psa30 value="0.0006272446" flag="0"/>
    </comp>
    <comp name="--.HHN">
      <acc value="0.0165261498" flag="0"/>
      <vel value="0.0043557271" flag="0"/>
      <psa03 value="0.0399534228" flag="0"/>
      <psa10 value="0.0049983910" flag="0"/>
      <psa30 value="0.0004259250" flag="0"/>
    </comp>
  </station>
  <station code="GAZ" name="GAZ" netid="KO" insttype="CMG-3T" lat="37.1721" lon="37.2096">
    <comp name="--.HHN">
      <acc value="0.0198340566" flag="0"/>
      <vel value="0.0104958775" flag="0"/>
      <psa03 value="0.0502543151" flag="0"/>
      <psa10 value="0.0089031814" flag="0"/>
      <psa30 value="0.0008170188" flag="0"/>
    </comp>
    <comp name="--.HHE">
      <acc value="0.0341767061" flag="0"/>
      <vel value="0.0204084444" flag="0"/>
      <psa03 value="0.0822409077" flag="0"/>
      <psa10 value="0.0094067109" flag="0"/>
      <psa30 value="0.0012389509" flag="0"/>
    </comp>
    <comp name="--.HHZ">
      <acc value="0.0176248094" flag="0"/>
      <vel value="0.0064773576" flag="0"/>
      <psa03 value="0.0490368543" flag="0"/>
      <psa10 value="0.0061722621" flag="0"/>
      <psa30 value="0.0004622725" flag="0"/>
    </comp>
  </station>
  <station code="KHMN" name="KHMN" netid="KO" insttype="CMG-5T" lat="37.3916" lon="37.1574">
    <comp name="--.HNZ">
      <acc value="0.0283847808" flag="0"/>
      <vel value="0.0052992398" flag="0"/>
      <psa03 value="0.0260698420" flag="0"/>
      <psa10 value="0.0027050536" flag="0"/>
      <psa30 value="0.0006885879" flag="0"/>
    </comp>
    <comp name="--.HNE">
      <acc value="0.0395795015" flag="0"/>
      <vel value="0.0085715550" flag="0"/>
      <psa03 value="0.0430848151" flag="0"/>
      <psa10 value="0.0056435505" flag="0"/>
      <psa30 value="0.0008482470" flag="0"/>
    </comp>
    <comp name="--.HNN">
      <acc value="0.0483485758" flag="0"/>
      <vel value="0.0089344071" flag="0"/>
      <psa03 value="0.0434099985" flag="0"/>
      <psa10 value="0.0029405706" flag="0"/>
      <psa30 value="0.0009115518" flag="0"/>
    </comp>
  </station>
  <station code="KMRS" name="KMRS" netid="KO" insttype="CMG-3T" lat="37.5053" lon="36.9">
    <comp name="--.HHZ">
      <acc value="0.0187317993" flag="0"/>
      <vel value="0.0108139117" flag="0"/>
      <psa03 value="0.0681579880" flag="0"/>
      <psa10 value="0.0043696823" flag="0"/>
      <psa30 value="0.0004098840" flag="0"/>
    </comp>
  </station>
  <station code="SARI" name="SARI" netid="KO" insttype="CMG-3T" lat="38.4072" lon="36.4181">
    <comp name="--.HHE">
      <acc value="0.0705472807" flag="0"/>
      <vel value="0.0173441564" flag="0"/>
      <psa03 value="0.0853383309" flag="0"/>
      <psa10 value="0.0080479042" flag="0"/>
      <psa30 value="0.0004058005" flag="0"/>
    </comp>
    <comp name="--.HHN">
      <acc value="0.0757639705" flag="0"/>
      <vel value="0.0232708128" flag="0"/>
      <psa03 value="0.1154626114" flag="0"/>
      <psa10 value="0.0187597716" flag="0"/>
      <psa30 value="0.0007333566" flag="0"/>
    </comp>
    <comp name="--.HHZ">
      <acc value="0.0737413388" flag="0"/>
      <vel value="0.0176186448" flag="0"/>
      <psa03 value="0.0630898293" flag="0"/>
      <psa10 value="0.0101139043" flag="0"/>
      <psa30 value="0.0004884340" flag="0"/>
    </comp>
  </station>
  <station code="ANDN" name="ANDN" netid="TU" insttype="T" lat="37.58" lon="36.3452">
    <comp name="--.HHZ">
      <acc value="0.0440364026" flag="0"/>
      <vel value="0.0154495529" flag="0"/>
      <psa03 value="0.1304389794" flag="0"/>
      <psa10 value="0.0207633715" flag="0"/>
      <psa30 value="0.0012957381" flag="0"/>
    </comp>
    <comp name="--.HHE">
      <acc value="0.0958754016" flag="0"/>
      <vel value="0.0317303490" flag="0"/>
      <psa03 value="0.1741073584" flag="0"/>
      <psa10 value="0.0231239773" flag="0"/>
      <psa30 value="0.0013800340" flag="0"/>
    </comp>
    <comp name="--.HHN">
      <acc value="0.1362252808" flag="0"/>
      <vel value="0.0451418065" flag="0"/>
      <psa03 value="0.2080542430" flag="0"/>
      <psa10 value="0.0280239691" flag="0"/>
      <psa30 value="0.0022937059" flag="0"/>
    </comp>
  </station>
</stationlist>
