<?xml version="1.0" encoding="UTF-8" standalone="yes"?>
<!DOCTYPE earthquake SYSTEM "stationlist.dtd">
<stationlist created="" xmlns="ch.ethz.sed.shakemap.usgs.xml">
  <station code="DARE" name="DARE" netid="KO" insttype="CMG-3ESP" lat="38.5712" lon="37.4832">
    <comp name="--.HHE">
      <acc value="0.0302539418" flag="0"/>
      <vel value="0.0195340914" flag="0"/>
      <psa03 value="0.0597549949" flag="0"/>
      <psa10 value="0.0174643328" flag="0"/>
      <psa30 value="0.0014258587" flag="0"/>
    </comp>
    <comp name="--.HHZ">
      <acc value="0.0235798496" flag="0"/>
      <vel value="0.0117555755" flag="0"/>
      <psa03 value="0.0299595524" flag="0"/>
      <psa10 value="0.0153698464" flag="0"/>
      <psa30 value="0.0011340075" flag="0"/>
    </comp>
    <comp name="--.HHN">
      <acc value="0.0377625693" flag="0"/>
      <vel value="0.0114589884" flag="0"/>
      <psa03 value="0.0347704461" flag="0"/>
      <psa10 value="0.0145889176" flag="0"/>
      <psa30 value="0.0010119384" flag="0"/>
    </comp>
  </station>
  <station code="GAZ" name="GAZ" netid="KO" insttype="CMG-3T" lat="37.1721" lon="37.2096">
    <comp name="--.HHE">
      <acc value="0.0130073951" flag="0"/>
      <vel value="0.0067950308" flag="0"/>
      <psa03 value="0.0324523672" flag="0"/>
      <psa10 value="0.0095786296" flag="0"/>
      <psa30 value="0.0009506862" flag="0"/>
    </comp>
    <comp name="--.HHN">
      <acc value="0.0098261222" flag="0"/>
      <vel value="0.0061349326" flag="0"/>
      <psa03 value="0.0288797504" flag="0"/>
      <psa10 value="0.0066394170" flag="0"/>
      <psa30 value="0.0006264271" flag="0"/>
    </comp>
    <comp name="--.HHZ">
      <acc value="0.0105538617" flag="0"/>
      <vel value="0.0038787922" flag="0"/>
      <psa03 value="0.0266885735" flag="0"/>
      <psa10 value="0.0052951943" flag="0"/>
      <psa30 value="0.0006973548" flag="0"/>
    </comp>
  </station>
  <station code="URFA" name="URFA" netid="KO" insttype="CMG-3ESP" lat="37.4409" lon="38.8213">
    <comp name="--.HHZ">
      <acc value="0.0286880928" flag="0"/>
      <vel value="0.0094875029" flag="0"/>
      <psa03 value="0.0705437367" flag="0"/>
      <psa10 value="0.0079484192" flag="0"/>
      <psa30 value="0.0005525552" flag="0"/>
    </comp>
  </station>
  <station code="ANDN" name="ANDN" netid="TU" insttype="T" lat="37.58" lon="36.3452">
    <comp name="--.HHE">
      <acc value="0.0267303421" flag="0"/>
      <vel value="0.0158361379" flag="0"/>
      <psa03 value="0.0848575740" flag="0"/>
      <psa10 value="0.0191722172" flag="0"/>
      <psa30 value="0.0017265316" flag="0"/>
    </comp>
    <comp name="--.HHZ">
      <acc value="0.0163030178" flag="0"/>
      <vel value="0.0118942343" flag="0"/>
      <psa03 value="0.0294883737" flag="0"/>
      <psa10 value="0.0170087840" flag="0"/>
      <psa30 value="0.0009939351" flag="0"/>
    </comp>
    <comp name="--.HHN">
      <acc value="0.0480145616" flag="0"/>
      <vel value="0.0189398013" flag="0"/>
      <psa03 value="0.0911914089" flag="0"/>
      <psa10 value="0.0207350502" flag="0"/>
      <psa30 value="0.0016205923" flag="0"/>
    </comp>
  </station>
</stationlist>
