<?xml version="1.0" encoding="UTF-8" standalone="yes"?>
<!DOCTYPE earthquake SYSTEM "stationlist.dtd">
<stationlist created="" xmlns="ch.ethz.sed.shakemap.usgs.xml">
  <station code="ASGA" name="ASGA" netid="CQ" insttype="" lat="34.786" lon="33.248">
    <comp name="--.HHZ">
      <acc value="0.0084647459" flag="0"/>
      <vel value="0.0030991154" flag="0"/>
      <psa03 value="0.0179378862" flag="0"/>
      <psa10 value="0.0020125745" flag="0"/>
      <psa30 value="0.0003250219" flag="0"/>
    </comp>
    <comp name="--.HHE">
      <acc value="0.0110277149" flag="0"/>
      <vel value="0.0062995261" flag="0"/>
      <psa03 value="0.0386622981" flag="0"/>
      <psa10 value="0.0051933950" flag="0"/>
      <psa30 value="0.0004013553" flag="0"/>
    </comp>
    <comp name="--.HHN">
      <acc value="0.0086268647" flag="0"/>
      <vel value="0.0064418631" flag="0"/>
      <psa03 value="0.0404833266" flag="0"/>
      <psa10 value="0.0065893730" flag="0"/>
      <psa30 value="0.0003981137" flag="0"/>
    </comp>
  </station>
  <station code="ATHA" name="ATHA" netid="CQ" insttype="" lat="35.141" lon="33.396">
    <comp name="--.HHZ">
      <acc value="0.0040395095" flag="0"/>
      <vel value="0.0018448792" flag="0"/>
      <psa03 value="0.0147541783" flag="0"/>
      <psa10 value="0.0025131832" flag="0"/>
      <psa30 value="0.0001932200" flag="0"/>
    </comp>
    <comp name="--.HHN">
      <acc value="0.0050563269" flag="0"/>
      <vel value="0.0060168412" flag="0"/>
      <psa03 value="0.0147969808" flag="0"/>
      <psa10 value="0.0106781642" flag="0"/>
      <psa30 value="0.0009868620" flag="0"/>
    </comp>
    <comp name="--.HHE">
      <acc value="0.0049629111" flag="0"/>
      <vel value="0.0046823711" flag="0"/>
      <psa03 value="0.0162062607" flag="0"/>
      <psa10 value="0.0080929117" flag="0"/>
      <psa30 value="0.0010655162" flag="0"/>
    </comp>
  </station>
  <station code="NATA" name="NATA" netid="CQ" insttype="Trillium120P" lat="34.7789" lon="32.5699">
    <comp name="--.HHE">
      <acc value="0.0806735138" flag="0"/>
      <vel value="0.0453689990" flag="0"/>
      <psa03 value="0.1944861046" flag="0"/>
      <psa10 value="0.0407427614" flag="0"/>
      <psa30 value="0.0031057777" flag="0"/>
    </comp>
    <comp name="--.HHN">
      <acc value="0.0477715981" flag="0"/>
      <vel value="0.0297796730" flag="0"/>
      <psa03 value="0.1212063385" flag="0"/>
      <psa10 value="0.0466311405" flag="0"/>
      <psa30 value="0.0022802016" flag="0"/>
    </comp>
    <comp name="--.HHZ">
      <acc value="0.0356859886" flag="0"/>
      <vel value="0.0331083653" flag="0"/>
      <psa03 value="0.0997950371" flag="0"/>
      <psa10 value="0.0196106657" flag="0"/>
      <psa30 value="0.0026091737" flag="0"/>
    </comp>
  </station>
  <station code="XYLS" name="XYLS" netid="CQ" insttype="120QA" lat="35.014" lon="33.0493">
    <comp name="--.HHZ">
      <acc value="0.0058769086" flag="0"/>
      <vel value="0.0023957948" flag="0"/>
      <psa03 value="0.0151929163" flag="0"/>
      <psa10 value="0.0025538190" flag="0"/>
      <psa30 value="0.0004642300" flag="0"/>
    </comp>
  </station>
</stationlist>
