<?xml version="1.0" encoding="UTF-8" standalone="yes"?>
<!DOCTYPE earthquake SYSTEM "stationlist.dtd">
<stationlist created="" xmlns="ch.ethz.sed.shakemap.usgs.xml">
  <station code="BNN" name="BNN" netid="KO" insttype="CMG-3T" lat="38.8521" lon="35.8472">
    <comp name="--.HHZ">
      <acc value="0.1166660416" flag="0"/>
      <vel value="0.1418386694" flag="0"/>
      <psa03 value="0.2376080912" flag="0"/>
      <psa10 value="0.2143396059" flag="0"/>
      <psa30 value="0.0304917449" flag="0"/>
    </comp>
  </station>
  <station code="CORM" name="CORM" netid="KO" insttype="CMG-3ESP" lat="40.1785" lon="34.6302">
    <comp name="--.HHE">
      <acc value="0.1380814997" flag="0"/>
      <vel value="0.0885392410" flag="0"/>
      <psa03 value="0.3890172620" flag="0"/>
      <psa10 value="0.0981139552" flag="0"/>
      <psa30 value="0.0143769105" flag="0"/>
    </comp>
    <comp name="--.HHN">
      <acc value="0.1587063674" flag="0"/>
      <vel value="0.1093927054" flag="0"/>
      <psa03 value="0.4218711650" flag="0"/>
      <psa10 value="0.1205834334" flag="0"/>
      <psa30 value="0.0317100232" flag="0"/>
    </comp>
    <comp name="--.HHZ">
      <acc value="0.0652817511" flag="0"/>
      <vel value="0.0511881337" flag="0"/>
      <psa03 value="0.1890342962" flag="0"/>
      <psa10 value="0.0453393861" flag="0"/>
      <psa30 value="0.0190456784" flag="0"/>
    </comp>
  </station>
  <station code="DIKM" name="DIKM" netid="KO" insttype="CMG-3T" lat="41.6497" lon="35.2578">
    <comp name="--.HHN">
      <acc value="0.0437284769" flag="0"/>
      <vel value="0.0634380002" flag="0"/>
      <psa03 value="0.1460255556" flag="0"/>
      <psa10 value="0.0896059298" flag="0"/>
      <psa30 value="0.0151559749" flag="0"/>
    </comp>
    <comp name="--.HHZ">
      <acc value="0.0524084990" flag="0"/>
      <vel value="0.0599202111" flag="0"/>
      <psa03 value="0.0905266227" flag="0"/>
      <psa10 value="0.1055364621" flag="0"/>
      <psa30 value="0.0201945683" flag="0"/>
    </comp>
    <comp name="--.HHE">
      <acc value="0.0364372167" flag="0"/>
      <vel value="0.0727050792" flag="0"/>
      <psa03 value="0.1316281426" flag="0"/>
      <psa10 value="0.0587793581" flag="0"/>
      <psa30 value="0.0254612137" flag="0"/>
    </comp>
  </station>
  <station code="KOZK" name="KOZK" netid="KO" insttype="CMG-5T" lat="39.2101" lon="34.868">
    <comp name="--.HNE">
      <acc value="0.5658828833" flag="0"/>
      <vel value="0.4804000850" flag="0"/>
      <psa03 value="1.9303037733" flag="0"/>
      <psa10 value="0.7391883921" flag="0"/>
      <psa30 value="0.0495074764" flag="0"/>
    </comp>
    <comp name="--.HNZ">
      <acc value="0.3723745432" flag="0"/>
      <vel value="0.2581058118" flag="0"/>
      <psa03 value="1.5115921129" flag="0"/>
      <psa10 value="0.2595773987" flag="0"/>
      <psa30 value="0.0191467581" flag="0"/>
    </comp>
    <comp name="--.HNN">
      <acc value="0.5453078655" flag="0"/>
      <vel value="0.4533674466" flag="0"/>
      <psa03 value="2.4697662821" flag="0"/>
      <psa10 value="0.8338887612" flag="0"/>
      <psa30 value="0.0440244815" flag="0"/>
    </comp>
  </station>
  <station code="KVT" name="KVT" netid="KO" insttype="CMG-3T" lat="41.0807" lon="36.0463">
    <comp name="--.HHN">
      <acc value="0.1181404519" flag="0"/>
      <vel value="0.1322829243" flag="0"/>
      <psa03 value="0.3104329333" flag="0"/>
      <psa10 value="0.1802926105" flag="0"/>
      <psa30 value="0.0290512199" flag="0"/>
    </comp>
    <comp name="--.HHE">
      <acc value="0.1025188725" flag="0"/>
      <vel value="0.1690563672" flag="0"/>
      <psa03 value="0.2044560170" flag="0"/>
      <psa10 value="0.1483349377" flag="0"/>
      <psa30 value="0.0517557133" flag="0"/>
    </comp>
  </station>
  <station code="KYHL" name="KYHL" netid="KO" insttype="CMG-5T" lat="40.3244" lon="37.8955">
    <comp name="--.HNE">
      <acc value="0.4605213335" flag="0"/>
      <vel value="0.5420756721" flag="0"/>
      <psa03 value="1.0465016428" flag="0"/>
      <psa10 value="0.4300079880" flag="0"/>
      <psa30 value="0.1559769703" flag="0"/>
    </comp>
    <comp name="--.HNN">
      <acc value="0.4014741426" flag="0"/>
      <vel value="0.4134255496" flag="0"/>
      <psa03 value="1.3359201749" flag="0"/>
      <psa10 value="0.4318006475" flag="0"/>
      <psa30 value="0.1287925293" flag="0"/>
    </comp>
    <comp name="--.HNZ">
      <acc value="0.1850912539" flag="0"/>
      <vel value="0.2512302159" flag="0"/>
      <psa03 value="0.9328088314" flag="0"/>
      <psa10 value="0.2079032755" flag="0"/>
      <psa30 value="0.0979339146" flag="0"/>
    </comp>
  </station>
  <station code="TOKT" name="TOKT" netid="KO" insttype="CMG-3T" lat="40.3173" lon="36.5443">
    <comp name="--.HHE">
      <acc value="0.4577027944" flag="0"/>
      <vel value="0.3543508834" flag="0"/>
      <psa03 value="0.7786143866" flag="0"/>
      <psa10 value="0.8344263621" flag="0"/>
      <psa30 value="0.1611421536" flag="0"/>
    </comp>
    <comp name="--.HHN">
      <acc value="0.4987988050" flag="0"/>
      <vel value="0.6531359551" flag="0"/>
      <psa03 value="1.0246719916" flag="0"/>
      <psa10 value="0.5401124018" flag="0"/>
      <psa30 value="0.2064258245" flag="0"/>
    </comp>
    <comp name="--.HHZ">
      <acc value="0.0000653123" flag="0"/>
      <vel value="0.0000105573" flag="0"/>
      <psa03 value="0.0000298899" flag="0"/>
      <psa10 value="0.0000093203" flag="0"/>
      <psa30 value="0.0000021634" flag="0"/>
    </comp>
  </station>
  <station code="TUNC" name="TUNC" netid="KO" insttype="CMG-5T" lat="39.6942" lon="37.5388">
    <comp name="--.HNN">
      <acc value="0.8137233035" flag="0"/>
      <vel value="0.5006531431" flag="0"/>
      <psa03 value="2.2679692679" flag="0"/>
      <psa10 value="0.5946491804" flag="0"/>
      <psa30 value="0.1017568228" flag="0"/>
    </comp>
    <comp name="--.HNZ">
      <acc value="0.3181151650" flag="0"/>
      <vel value="0.2812901867" flag="0"/>
      <psa03 value="0.9156882267" flag="0"/>
      <psa10 value="0.3596569544" flag="0"/>
      <psa30 value="0.1628983988" flag="0"/>
    </comp>
    <comp name="--.HNE">
      <acc value="0.6042959453" flag="0"/>
      <vel value="0.4582828354" flag="0"/>
      <psa03 value="2.0309217927" flag="0"/>
      <psa10 value="0.5692031613" flag="0"/>
      <psa30 value="0.1724503398" flag="0"/>
    </comp>
  </station>
</stationlist>
