<stationlist created="1778637335">
	<station code="ANTO" name="ANTO" netid="IU" source="Global Seismograph Network - IRIS/USGS (GSN)" insttype="" lat="39.8681" lon="32.79356">
		<comp name="20.HN1" depth="0.0">
			<acc value="0.0329494911683509" flag="0"/>
			<vel value="0.0661740720799039" flag="0"/>
			<psa03 value="0.0905306117922525" flag="0"/>
			<psa10 value="0.0975121296998859" flag="0"/>
			<psa30 value="0.0257524693080414" flag="0"/>
		</comp>
		<comp name="20.HN2" depth="0.0">
			<acc value="0.0320734183500956" flag="0"/>
			<vel value="0.0376639137515276" flag="0"/>
			<psa03 value="0.0603245899582049" flag="0"/>
			<psa10 value="0.0405364315896659" flag="0"/>
			<psa30 value="0.00960927990095414" flag="0"/>
		</comp>
		<comp name="20.HNZ" depth="0.0">
			<acc value="0.0149855303827241" flag="0"/>
			<vel value="0.0279632560692319" flag="0"/>
			<psa03 value="0.0432731583010437" flag="0"/>
			<psa10 value="0.0391315322719793" flag="0"/>
			<psa30 value="0.00836805350915102" flag="0"/>
		</comp>
	</station>
	<station code="ARPRA" name="ARPRA" netid="KO" source="Bogazici University Kandilli Observatory And Earthquake Research Institute (KOERI)" insttype="" lat="39.0929" lon="38.3356">
		<comp name="--.HNE" depth="0.0">
			<acc value="0.116757601973233" flag="0"/>
			<vel value="0.165386383672024" flag="0"/>
			<psa03 value="0.441323443845604" flag="0"/>
			<psa10 value="0.28542312788128" flag="0"/>
			<psa30 value="0.0713995298682743" flag="0"/>
		</comp>
		<comp name="--.HNN" depth="0.0">
			<acc value="0.106036679009559" flag="0"/>
			<vel value="0.152602905717868" flag="0"/>
			<psa03 value="0.350341625080154" flag="0"/>
			<psa10 value="0.275182069461571" flag="0"/>
			<psa30 value="0.0573735340482961" flag="0"/>
		</comp>
		<comp name="--.HNZ" depth="0.0">
			<acc value="0.0699038885611331" flag="0"/>
			<vel value="0.0775517493974896" flag="0"/>
			<psa03 value="0.101388591496406" flag="0"/>
			<psa10 value="0.172537154739838" flag="0"/>
			<psa30 value="0.043786703987597" flag="0"/>
		</comp>
	</station>
	<station code="CMRD" name="CMRD" netid="KO" source="Bogazici University Kandilli Observatory And Earthquake Research Institute (KOERI)" insttype="" lat="37.6623" lon="34.9902">
		<comp name="--.HNE" depth="0.0">
			<acc value="0.0147217173629385" flag="0"/>
			<vel value="0.0379478901539575" flag="0"/>
			<psa03 value="0.029551033131764" flag="0"/>
			<psa10 value="0.0461413053849252" flag="0"/>
			<psa30 value="0.00567924497212137" flag="0"/>
		</comp>
		<comp name="--.HNN" depth="0.0">
			<acc value="0.0141644646646642" flag="0"/>
			<vel value="0.0267921407211691" flag="0"/>
			<psa03 value="0.0466592888654519" flag="0"/>
			<psa10 value="0.046814306218219" flag="0"/>
			<psa30 value="0.00550993375609219" flag="0"/>
		</comp>
		<comp name="--.HNZ" depth="0.0">
			<acc value="0.0132544684733841" flag="0"/>
			<vel value="0.023280690183471" flag="0"/>
			<psa03 value="0.0442027563406502" flag="0"/>
			<psa10 value="0.0224103295743537" flag="0"/>
			<psa30 value="0.00557739614180739" flag="0"/>
		</comp>
	</station>
	<station code="GUMT" name="GUMT" netid="KO" source="Bogazici University Kandilli Observatory And Earthquake Research Institute (KOERI)" insttype="" lat="40.4665" lon="39.478">
		<comp name="--.HNE" depth="0.0">
			<acc value="0.035342697125868" flag="0"/>
			<vel value="0.0564884888335168" flag="0"/>
			<psa03 value="0.08530745328326" flag="0"/>
			<psa10 value="0.0869210455926095" flag="0"/>
			<psa30 value="0.0265940700599468" flag="0"/>
		</comp>
		<comp name="--.HNN" depth="0.0">
			<acc value="0.0647643766621705" flag="0"/>
			<vel value="0.0989887282334522" flag="0"/>
			<psa03 value="0.17359685410615" flag="0"/>
			<psa10 value="0.0831871257388474" flag="0"/>
			<psa30 value="0.0318893825151039" flag="0"/>
		</comp>
		<comp name="--.HNZ" depth="0.0">
			<acc value="0.048566975782834" flag="0"/>
			<vel value="0.0714745500093745" flag="0"/>
			<psa03 value="0.0920433890896805" flag="0"/>
			<psa10 value="0.0956145639954475" flag="0"/>
			<psa30 value="0.0438882940507326" flag="0"/>
		</comp>
	</station>
	<station code="KHMN" name="KHMN" netid="KO" source="Bogazici University Kandilli Observatory And Earthquake Research Institute (KOERI)" insttype="" lat="37.3916" lon="37.1574">
		<comp name="--.HNE" depth="0.0">
			<acc value="0.0402233282100756" flag="0"/>
			<vel value="0.0773973559789559" flag="0"/>
			<psa03 value="0.0336432677638653" flag="0"/>
			<psa10 value="0.0784288180244225" flag="0"/>
			<psa30 value="0.0592217031470671" flag="0"/>
		</comp>
		<comp name="--.HNN" depth="0.0">
			<acc value="0.0367753826977931" flag="0"/>
			<vel value="0.0483204120600595" flag="0"/>
			<psa03 value="0.0364611393298862" flag="0"/>
			<psa10 value="0.0418694461454213" flag="0"/>
			<psa30 value="0.0351686530839812" flag="0"/>
		</comp>
		<comp name="--.HNZ" depth="0.0">
			<acc value="0.0163516031969805" flag="0"/>
			<vel value="0.0279751579145091" flag="0"/>
			<psa03 value="0.0183626370075175" flag="0"/>
			<psa10 value="0.026852423841296" flag="0"/>
			<psa30 value="0.00732291094025571" flag="0"/>
		</comp>
	</station>
	<station code="KMON" name="KMON" netid="KO" source="Bogazici University Kandilli Observatory And Earthquake Research Institute (KOERI)" insttype="" lat="41.3738" lon="33.7839">
		<comp name="--.HNE" depth="0.0">
			<acc value="0.0378045474352325" flag="0"/>
			<vel value="0.0552356552392771" flag="0"/>
			<psa03 value="0.0650151402673186" flag="0"/>
			<psa10 value="0.110624678342005" flag="0"/>
			<psa30 value="0.0189941549362065" flag="0"/>
		</comp>
		<comp name="--.HNN" depth="0.0">
			<acc value="0.0289549267159013" flag="0"/>
			<vel value="0.0528287117457839" flag="0"/>
			<psa03 value="0.0938313408659726" flag="0"/>
			<psa10 value="0.0891588413355607" flag="0"/>
			<psa30 value="0.0159112690435009" flag="0"/>
		</comp>
		<comp name="--.HNZ" depth="0.0">
			<acc value="0.0161354604061206" flag="0"/>
			<vel value="0.0268451778151279" flag="0"/>
			<psa03 value="0.051726306822226" flag="0"/>
			<psa10 value="0.032494005068362" flag="0"/>
			<psa30 value="0.0157966897865151" flag="0"/>
		</comp>
	</station>
	<station code="KOZK" name="KOZK" netid="KO" source="Bogazici University Kandilli Observatory And Earthquake Research Institute (KOERI)" insttype="" lat="39.2101" lon="34.868">
		<comp name="--.HNE" depth="0.0">
			<acc value="0.565819431612342" flag="0"/>
			<vel value="0.459819187023093" flag="0"/>
			<psa03 value="1.95189697026109" flag="0"/>
			<psa10 value="0.738988014328495" flag="0"/>
			<psa30 value="0.0491943288827762" flag="0"/>
		</comp>
		<comp name="--.HNN" depth="0.0">
			<acc value="0.546340076150649" flag="0"/>
			<vel value="0.443047760697448" flag="0"/>
			<psa03 value="2.42410141815657" flag="0"/>
			<psa10 value="0.836267838638733" flag="0"/>
			<psa30 value="0.0458766524365692" flag="0"/>
		</comp>
		<comp name="--.HNZ" depth="0.0">
			<acc value="0.371091369895592" flag="0"/>
			<vel value="0.25415496601905" flag="0"/>
			<psa03 value="1.52252569318722" flag="0"/>
			<psa10 value="0.260244829942735" flag="0"/>
			<psa30 value="0.0193230517240296" flag="0"/>
		</comp>
	</station>
	<station code="KYHL" name="KYHL" netid="KO" source="Bogazici University Kandilli Observatory And Earthquake Research Institute (KOERI)" insttype="" lat="40.3244" lon="37.8955">
		<comp name="--.HNE" depth="0.0">
			<acc value="0.464742299921366" flag="0"/>
			<vel value="0.564083901870888" flag="0"/>
			<psa03 value="1.04205878127873" flag="0"/>
			<psa10 value="0.434704317028957" flag="0"/>
			<psa30 value="0.160751582336544" flag="0"/>
		</comp>
		<comp name="--.HNN" depth="0.0">
			<acc value="0.409424940046172" flag="0"/>
			<vel value="0.495469001350846" flag="0"/>
			<psa03 value="1.32306681334963" flag="0"/>
			<psa10 value="0.428177174637505" flag="0"/>
			<psa30 value="0.13581623715928" flag="0"/>
		</comp>
		<comp name="--.HNZ" depth="0.0">
			<acc value="0.184885126616366" flag="0"/>
			<vel value="0.284967386212208" flag="0"/>
			<psa03 value="0.93290755054592" flag="0"/>
			<psa10 value="0.204752208828765" flag="0"/>
			<psa30 value="0.0985505751585619" flag="0"/>
		</comp>
	</station>
	<station code="NIG" name="NIG" netid="KO" source="Bogazici University Kandilli Observatory And Earthquake Research Institute (KOERI)" insttype="" lat="38.108" lon="34.6142">
		<comp name="--.HNE" depth="0.0">
			<acc value="0.0928011581799591" flag="0"/>
			<vel value="0.0925076797425997" flag="0"/>
			<psa03 value="0.151698924309119" flag="0"/>
			<psa10 value="0.159789625278318" flag="0"/>
			<psa30 value="0.0199284051590492" flag="0"/>
		</comp>
		<comp name="--.HNN" depth="0.0">
			<acc value="0.0749792666787125" flag="0"/>
			<vel value="0.0889202388245999" flag="0"/>
			<psa03 value="0.173951919294219" flag="0"/>
			<psa10 value="0.169514784522457" flag="0"/>
			<psa30 value="0.0129186399631517" flag="0"/>
		</comp>
		<comp name="--.HNZ" depth="0.0">
			<acc value="0.109444256744588" flag="0"/>
			<vel value="0.0823961403618921" flag="0"/>
			<psa03 value="0.13284230015023" flag="0"/>
			<psa10 value="0.0830432887104581" flag="0"/>
			<psa30 value="0.0211942023452427" flag="0"/>
		</comp>
	</station>
	<station code="RFHY" name="RFHY" netid="KO" source="Bogazici University Kandilli Observatory And Earthquake Research Institute (KOERI)" insttype="" lat="39.927" lon="38.833">
		<comp name="--.HNE" depth="0.0">
			<acc value="0.0145487339957016" flag="0"/>
			<vel value="0.0231063442963577" flag="0"/>
			<psa03 value="0.0285524695859707" flag="0"/>
			<psa10 value="0.0251185508557045" flag="0"/>
			<psa30 value="0.00841463992858721" flag="0"/>
		</comp>
		<comp name="--.HNN" depth="0.0">
			<acc value="0.267255765837201" flag="0"/>
			<vel value="0.490862759647949" flag="0"/>
			<psa03 value="0.686341966786451" flag="0"/>
			<psa10 value="0.590674389281415" flag="0"/>
			<psa30 value="0.129779583927312" flag="0"/>
		</comp>
		<comp name="--.HNZ" depth="0.0">
			<acc value="0.176571812299894" flag="0"/>
			<vel value="0.24852722233716" flag="0"/>
			<psa03 value="0.327765066993557" flag="0"/>
			<psa10 value="0.236129937449309" flag="0"/>
			<psa30 value="0.061063925185559" flag="0"/>
		</comp>
	</station>
	<station code="SAFT" name="SAFT" netid="KO" source="Bogazici University Kandilli Observatory And Earthquake Research Institute (KOERI)" insttype="" lat="41.2398" lon="32.6871">
		<comp name="--.HNE" depth="0.0">
			<acc value="0.00355652273791598" flag="0"/>
			<vel value="0.0117020874144056" flag="0"/>
			<psa03 value="0.0059659245100931" flag="0"/>
			<psa10 value="0.01255056360076" flag="0"/>
			<psa30 value="0.00377876740812953" flag="0"/>
		</comp>
		<comp name="--.HNN" depth="0.0">
			<acc value="0.00367764390419139" flag="0"/>
			<vel value="0.00883839391774433" flag="0"/>
			<psa03 value="0.00699182515326224" flag="0"/>
			<psa10 value="0.00849374641903407" flag="0"/>
			<psa30 value="0.0051940590809294" flag="0"/>
		</comp>
		<comp name="--.HNZ" depth="0.0">
			<acc value="0.00403102654128247" flag="0"/>
			<vel value="0.00875341559085098" flag="0"/>
			<psa03 value="0.0090671442735849" flag="0"/>
			<psa10 value="0.00730628322413743" flag="0"/>
			<psa30 value="0.00477514382982229" flag="0"/>
		</comp>
	</station>
	<station code="SINP" name="SINP" netid="KO" source="Bogazici University Kandilli Observatory And Earthquake Research Institute (KOERI)" insttype="" lat="41.9824" lon="35.0956">
		<comp name="--.HNE" depth="0.0">
			<acc value="0.0968347184427321" flag="0"/>
			<vel value="0.30650797171316" flag="0"/>
			<psa03 value="0.140655932348422" flag="0"/>
			<psa10 value="0.335210316038502" flag="0"/>
			<psa30 value="0.10811583547685" flag="0"/>
		</comp>
		<comp name="--.HNN" depth="0.0">
			<acc value="0.0985898577936917" flag="0"/>
			<vel value="0.193494971388061" flag="0"/>
			<psa03 value="0.139265350645849" flag="0"/>
			<psa10 value="0.269953173072988" flag="0"/>
			<psa30 value="0.0908571588409933" flag="0"/>
		</comp>
		<comp name="--.HNZ" depth="0.0">
			<acc value="0.041367726994973" flag="0"/>
			<vel value="0.0898473877082431" flag="0"/>
			<psa03 value="0.0630287430531572" flag="0"/>
			<psa10 value="0.0988497158084099" flag="0"/>
			<psa30 value="0.0455896634245842" flag="0"/>
		</comp>
	</station>
	<station code="TOS" name="TOS" netid="KO" source="Bogazici University Kandilli Observatory And Earthquake Research Institute (KOERI)" insttype="" lat="41.0362" lon="34.0226">
		<comp name="--.HNE" depth="0.0">
			<acc value="0.0392964766105142" flag="0"/>
			<vel value="0.0522653922067108" flag="0"/>
			<psa03 value="0.109007148271946" flag="0"/>
			<psa10 value="0.0642510713179919" flag="0"/>
			<psa30 value="0.00846114800952023" flag="0"/>
		</comp>
		<comp name="--.HNN" depth="0.0">
			<acc value="0.0430369379760082" flag="0"/>
			<vel value="0.0458147528861483" flag="0"/>
			<psa03 value="0.104629681202864" flag="0"/>
			<psa10 value="0.0796072060868267" flag="0"/>
			<psa30 value="0.00911077437740081" flag="0"/>
		</comp>
		<comp name="--.HNZ" depth="0.0">
			<acc value="0.0321647627761846" flag="0"/>
			<vel value="0.0470715588976146" flag="0"/>
			<psa03 value="0.0881983531245603" flag="0"/>
			<psa10 value="0.0525903075998319" flag="0"/>
			<psa30 value="0.019181010647814" flag="0"/>
		</comp>
	</station>
	<station code="TUNC" name="TUNC" netid="KO" source="Bogazici University Kandilli Observatory And Earthquake Research Institute (KOERI)" insttype="" lat="39.6942" lon="37.5388">
		<comp name="--.HNE" depth="0.0">
			<acc value="0.605082076488164" flag="0"/>
			<vel value="0.474362068973375" flag="0"/>
			<psa03 value="2.03252797833891" flag="0"/>
			<psa10 value="0.571033288153177" flag="0"/>
			<psa30 value="0.175301466195184" flag="0"/>
		</comp>
		<comp name="--.HNN" depth="0.0">
			<acc value="0.807337730248805" flag="0"/>
			<vel value="0.578464238382351" flag="0"/>
			<psa03 value="2.30059290298761" flag="0"/>
			<psa10 value="0.599109748079996" flag="0"/>
			<psa30 value="0.109651503874197" flag="0"/>
		</comp>
		<comp name="--.HNZ" depth="0.0">
			<acc value="0.313723713287457" flag="0"/>
			<vel value="0.315661078280537" flag="0"/>
			<psa03 value="0.926246442612995" flag="0"/>
			<psa10 value="0.363648269913277" flag="0"/>
			<psa30 value="0.163308458383786" flag="0"/>
		</comp>
	</station>
</stationlist>
