<stationlist created="1708698673">
	<station code="EDC" name="EDC" netid="KO" source="Bogazici University Kandilli Observatory And Earthquake Research Institute (KOERI)" insttype="" lat="40.3465" lon="27.8618">
		<comp name=".HNE" depth="0.0">
			<acc value="0.039285371365116" flag="0"/>
			<vel value="0.0145779621065" flag="0"/>
			<psa03 value="0.0947297024610494" flag="0"/>
			<psa10 value="0.00585438813699585" flag="0"/>
			<psa30 value="0.000510821443582106" flag="0"/>
		</comp>
		<comp name=".HNN" depth="0.0">
			<acc value="0.050393123867082" flag="0"/>
			<vel value="0.0203903659718" flag="0"/>
			<psa03 value="0.188608848577052" flag="0"/>
			<psa10 value="0.00879597612774352" flag="0"/>
			<psa30 value="0.000778094565780588" flag="0"/>
		</comp>
		<comp name=".HNZ" depth="0.0">
			<acc value="0.025391578218414" flag="0"/>
			<vel value="0.0075991234382" flag="0"/>
			<psa03 value="0.0395230609171659" flag="0"/>
			<psa10 value="0.00292372461990529" flag="0"/>
			<psa30 value="0.000258435896151425" flag="0"/>
		</comp>
	</station>
	<station code="GONE" name="GONE" netid="KO" source="Bogazici University Kandilli Observatory And Earthquake Research Institute (KOERI)" insttype="" lat="40.0466" lon="27.686">
		<comp name=".HNE" depth="0.0">
			<acc value="0.026058177750984" flag="0"/>
			<vel value="0.0117591096311" flag="0"/>
			<psa03 value="0.0403384873309977" flag="0"/>
			<psa10 value="0.0111845946744948" flag="0"/>
			<psa30 value="0.000943935135236049" flag="0"/>
		</comp>
		<comp name=".HNN" depth="0.0">
			<acc value="0.02779421513601" flag="0"/>
			<vel value="0.0113905195475" flag="0"/>
			<psa03 value="0.0525365323708646" flag="0"/>
			<psa10 value="0.0161181739999357" flag="0"/>
			<psa30 value="0.000638227644031774" flag="0"/>
		</comp>
		<comp name=".HNZ" depth="0.0">
			<acc value="0.015270608335044" flag="0"/>
			<vel value="0.00829469041402" flag="0"/>
			<psa03 value="0.0287509176280153" flag="0"/>
			<psa10 value="0.00625826551689275" flag="0"/>
			<psa30 value="0.000489619830744956" flag="0"/>
		</comp>
	</station>
	<station code="IZI" name="IZI" netid="KO" source="Bogazici University Kandilli Observatory And Earthquake Research Institute (KOERI)" insttype="" lat="40.3483" lon="29.4612">
		<comp name=".HNE" depth="0.0">
			<acc value="0.041100195247728" flag="0"/>
			<vel value="0.035139976298" flag="0"/>
			<psa03 value="0.0854189815051952" flag="0"/>
			<psa10 value="0.0234255968308271" flag="0"/>
			<psa30 value="0.00936663132667916" flag="0"/>
		</comp>
		<comp name=".HNN" depth="0.0">
			<acc value="0.033333110215074" flag="0"/>
			<vel value="0.0268357580688" flag="0"/>
			<psa03 value="0.0894365705672641" flag="0"/>
			<psa10 value="0.0248574266825362" flag="0"/>
			<psa30 value="0.00343029078159718" flag="0"/>
		</comp>
		<comp name=".HNZ" depth="0.0">
			<acc value="0.027071080973586" flag="0"/>
			<vel value="0.0257554931696" flag="0"/>
			<psa03 value="0.0635344796806021" flag="0"/>
			<psa10 value="0.0306327905220266" flag="0"/>
			<psa30 value="0.00738777773736697" flag="0"/>
		</comp>
	</station>
	<station code="KRBG" name="KRBG" netid="KO" source="Bogazici University Kandilli Observatory And Earthquake Research Institute (KOERI)" insttype="" lat="40.3932" lon="27.2977">
		<comp name=".HNE" depth="0.0">
			<acc value="0.014052402669444" flag="0"/>
			<vel value="0.00485945795753" flag="0"/>
			<psa03 value="0.0334627141363983" flag="0"/>
			<psa10 value="0.0032530512799307" flag="0"/>
			<psa30 value="0.000213937219166039" flag="0"/>
		</comp>
		<comp name=".HNN" depth="0.0">
			<acc value="0.014304880950576" flag="0"/>
			<vel value="0.00657909975394" flag="0"/>
			<psa03 value="0.0307231628629394" flag="0"/>
			<psa10 value="0.00833309421407662" flag="0"/>
			<psa30 value="0.000537037815701517" flag="0"/>
		</comp>
		<comp name=".HNZ" depth="0.0">
			<acc value="0.006142096481595" flag="0"/>
			<vel value="0.0022664137957" flag="0"/>
			<psa03 value="0.0136907728319204" flag="0"/>
			<psa10 value="0.00183872243133615" flag="0"/>
			<psa30 value="0.00021832424155526" flag="0"/>
		</comp>
	</station>
	<station code="ORLT" name="ORLT" netid="KO" source="Bogazici University Kandilli Observatory And Earthquake Research Institute (KOERI)" insttype="" lat="40.0452" lon="28.8914">
		<comp name=".HNE" depth="0.0">
			<acc value="0.055573562531598" flag="0"/>
			<vel value="0.0217946339455" flag="0"/>
			<psa03 value="0.144743067684389" flag="0"/>
			<psa10 value="0.0064218105696929" flag="0"/>
			<psa30 value="0.00158324477802812" flag="0"/>
		</comp>
		<comp name=".HNN" depth="0.0">
			<acc value="0.048914299911126" flag="0"/>
			<vel value="0.0205109154369" flag="0"/>
			<psa03 value="0.097955864095368" flag="0"/>
			<psa10 value="0.00841956556740277" flag="0"/>
			<psa30 value="0.00473963939452573" flag="0"/>
		</comp>
		<comp name=".HNZ" depth="0.0">
			<acc value="0.019494562569288" flag="0"/>
			<vel value="0.0104751811881" flag="0"/>
			<psa03 value="0.0427459124360601" flag="0"/>
			<psa10 value="0.00507562045368279" flag="0"/>
			<psa30 value="0.00426780813801104" flag="0"/>
		</comp>
	</station>
	<station code="OSMT" name="OSMT" netid="KO" source="Bogazici University Kandilli Observatory And Earthquake Research Institute (KOERI)" insttype="" lat="40.6009" lon="29.7">
		<comp name=".HNE" depth="0.0">
			<acc value="0.014336927748666" flag="0"/>
			<vel value="0.00719700800851" flag="0"/>
			<psa03 value="0.0344056229536598" flag="0"/>
			<psa10 value="0.00742773361340803" flag="0"/>
			<psa30 value="0.00156498846447015" flag="0"/>
		</comp>
		<comp name=".HNN" depth="0.0">
			<acc value="0.0172889193078" flag="0"/>
			<vel value="0.00914549320005" flag="0"/>
			<psa03 value="0.0506512616473574" flag="0"/>
			<psa10 value="0.0116890274657217" flag="0"/>
			<psa30 value="0.00126895729136148" flag="0"/>
		</comp>
		<comp name=".HNZ" depth="0.0">
			<acc value="0.013200733168974" flag="0"/>
			<vel value="0.00614349051078" flag="0"/>
			<psa03 value="0.0435715192118128" flag="0"/>
			<psa10 value="0.00636948944740288" flag="0"/>
			<psa30 value="0.00143072040320684" flag="0"/>
		</comp>
	</station>
	<station code="SHAP" name="SHAP" netid="KO" source="Bogazici University Kandilli Observatory And Earthquake Research Institute (KOERI)" insttype="" lat="39.0231" lon="29.222">
		<comp name=".HNE" depth="0.0">
			<acc value="0.013672030185648" flag="0"/>
			<vel value="0.00586299820617" flag="0"/>
			<psa03 value="0.0435166405763622" flag="0"/>
			<psa10 value="0.00409141603621909" flag="0"/>
			<psa30 value="0.00047380070988742" flag="0"/>
		</comp>
		<comp name=".HNN" depth="0.0">
			<acc value="0.01077615161703" flag="0"/>
			<vel value="0.00437612449014" flag="0"/>
			<psa03 value="0.0268394264178014" flag="0"/>
			<psa10 value="0.0055929151906805" flag="0"/>
			<psa30 value="0.000386629778992057" flag="0"/>
		</comp>
		<comp name=".HNZ" depth="0.0">
			<acc value="0.007129466433582" flag="0"/>
			<vel value="0.00411143286241" flag="0"/>
			<psa03 value="0.0204921114080722" flag="0"/>
			<psa10 value="0.00440622548455988" flag="0"/>
			<psa30 value="0.000379926808911485" flag="0"/>
		</comp>
	</station>
	<station code="SMAA" name="SMAA" netid="KO" source="Bogazici University Kandilli Observatory And Earthquake Research Institute (KOERI)" insttype="" lat="39.1005" lon="28.9805">
		<comp name=".HNE" depth="0.0">
			<acc value="0.027321703136034" flag="0"/>
			<vel value="0.0242805510437" flag="0"/>
			<psa03 value="0.0594060499424809" flag="0"/>
			<psa10 value="0.0320535083876155" flag="0"/>
			<psa30 value="0.00185715511074296" flag="0"/>
		</comp>
		<comp name=".HNN" depth="0.0">
			<acc value="0.026276778051486" flag="0"/>
			<vel value="0.0223460931606" flag="0"/>
			<psa03 value="0.085319902024632" flag="0"/>
			<psa10 value="0.0236776566535381" flag="0"/>
			<psa30 value="0.00148327919746753" flag="0"/>
		</comp>
		<comp name=".HNZ" depth="0.0">
			<acc value="0.011694527195514" flag="0"/>
			<vel value="0.0127144307695" flag="0"/>
			<psa03 value="0.0256533270111651" flag="0"/>
			<psa10 value="0.0237661362649067" flag="0"/>
			<psa30 value="0.00113273055867555" flag="0"/>
		</comp>
	</station>
</stationlist>
