<?xml version="1.0" encoding="UTF-8" standalone="yes"?>
<!DOCTYPE earthquake SYSTEM "stationlist.dtd">
<stationlist created="" xmlns="ch.ethz.sed.shakemap.usgs.xml">
  <station code="ADVT" name="ADVT" netid="KO" insttype="CMG-3ESP" lat="40.4332" lon="29.7383">
    <comp name="--.HHZ">
      <acc value="0.0117559125" flag="0"/>
      <vel value="0.0043368888" flag="0"/>
      <psa03 value="0.0216153808" flag="0"/>
      <psa10 value="0.0040779856" flag="0"/>
      <psa30 value="0.0012096439" flag="0"/>
    </comp>
    <comp name="--.HHN">
      <acc value="0.0103384090" flag="0"/>
      <vel value="0.0050394749" flag="0"/>
      <psa03 value="0.0117850882" flag="0"/>
      <psa10 value="0.0087480117" flag="0"/>
      <psa30 value="0.0009443496" flag="0"/>
    </comp>
    <comp name="--.HHE">
      <acc value="0.0119479580" flag="0"/>
      <vel value="0.0063137059" flag="0"/>
      <psa03 value="0.0183935892" flag="0"/>
      <psa10 value="0.0090693333" flag="0"/>
      <psa30 value="0.0011915920" flag="0"/>
    </comp>
  </station>
  <station code="ARMT" name="ARMT" netid="KO" insttype="CMG-3ESP" lat="40.5683" lon="28.866">
    <comp name="--.HHE">
      <acc value="0.4415323023" flag="0"/>
      <vel value="0.1282829729" flag="0"/>
      <psa03 value="0.5671146589" flag="0"/>
      <psa10 value="0.0211101569" flag="0"/>
      <psa30 value="0.0025957360" flag="0"/>
    </comp>
  </station>
  <station code="BGKT" name="BGKT" netid="KO" insttype="CMG-3ESP" lat="41.181" lon="28.773">
    <comp name="--.HHE">
      <acc value="0.0188286207" flag="0"/>
      <vel value="0.0065248060" flag="0"/>
      <psa03 value="0.0293216325" flag="0"/>
      <psa10 value="0.0030303801" flag="0"/>
      <psa30 value="0.0002108784" flag="0"/>
    </comp>
    <comp name="--.HHN">
      <acc value="0.0181942305" flag="0"/>
      <vel value="0.0055575110" flag="0"/>
      <psa03 value="0.0386929263" flag="0"/>
      <psa10 value="0.0032031645" flag="0"/>
      <psa30 value="0.0002891529" flag="0"/>
    </comp>
    <comp name="--.HHZ">
      <acc value="0.0090192058" flag="0"/>
      <vel value="0.0032301813" flag="0"/>
      <psa03 value="0.0186744490" flag="0"/>
      <psa10 value="0.0014006436" flag="0"/>
      <psa30 value="0.0001665039" flag="0"/>
    </comp>
  </station>
  <station code="BRGA" name="BRGA" netid="KO" insttype="CMG-5T" lat="40.8846" lon="29.065">
    <comp name="--.HNZ">
      <acc value="0.0180645922" flag="0"/>
      <vel value="0.0061811844" flag="0"/>
      <psa03 value="0.0237015087" flag="0"/>
      <psa10 value="0.0047485817" flag="0"/>
      <psa30 value="0.0005994549" flag="0"/>
    </comp>
    <comp name="--.HNN">
      <acc value="0.0248818198" flag="0"/>
      <vel value="0.0092923696" flag="0"/>
      <psa03 value="0.0635299621" flag="0"/>
      <psa10 value="0.0059404373" flag="0"/>
      <psa30 value="0.0005312076" flag="0"/>
    </comp>
  </station>
  <station code="DST" name="DST" netid="KO" insttype="CMG-5T" lat="39.6041" lon="28.6267">
    <comp name="--.HNE">
      <acc value="0.0335236394" flag="0"/>
      <vel value="0.0110956410" flag="0"/>
      <psa03 value="0.0580247001" flag="0"/>
      <psa10 value="0.0097665476" flag="0"/>
      <psa30 value="0.0007830894" flag="0"/>
    </comp>
    <comp name="--.HNZ">
      <acc value="0.0219742999" flag="0"/>
      <vel value="0.0111484630" flag="0"/>
      <psa03 value="0.0958714341" flag="0"/>
      <psa10 value="0.0055333043" flag="0"/>
      <psa30 value="0.0007013977" flag="0"/>
    </comp>
    <comp name="--.HNN">
      <acc value="0.0304655255" flag="0"/>
      <vel value="0.0086922744" flag="0"/>
      <psa03 value="0.0544363807" flag="0"/>
      <psa10 value="0.0074319144" flag="0"/>
      <psa30 value="0.0009283161" flag="0"/>
    </comp>
  </station>
  <station code="EDC" name="EDC" netid="KO" insttype="CMG-3T" lat="40.3465" lon="27.8618">
    <comp name="--.HHE">
      <acc value="0.0398660327" flag="0"/>
      <vel value="0.0149345969" flag="0"/>
      <psa03 value="0.1068150010" flag="0"/>
      <psa10 value="0.0062496936" flag="0"/>
      <psa30 value="0.0004783428" flag="0"/>
    </comp>
    <comp name="--.HHZ">
      <acc value="0.0258703265" flag="0"/>
      <vel value="0.0078838498" flag="0"/>
      <psa03 value="0.0376666898" flag="0"/>
      <psa10 value="0.0030651641" flag="0"/>
      <psa30 value="0.0002114577" flag="0"/>
    </comp>
    <comp name="--.HHN">
      <acc value="0.0505669640" flag="0"/>
      <vel value="0.0209315216" flag="0"/>
      <psa03 value="0.1870029667" flag="0"/>
      <psa10 value="0.0087474919" flag="0"/>
      <psa30 value="0.0007133662" flag="0"/>
    </comp>
  </station>
  <station code="ESKY" name="ESKY" netid="KO" insttype="CMG-5T" lat="40.5918" lon="28.9071">
    <comp name="--.HNE">
      <acc value="0.2477278458" flag="0"/>
      <vel value="0.0847054478" flag="0"/>
      <psa03 value="0.4168628973" flag="0"/>
      <psa10 value="0.0461021456" flag="0"/>
      <psa30 value="0.0029555192" flag="0"/>
    </comp>
    <comp name="--.HNN">
      <acc value="0.2149299989" flag="0"/>
      <vel value="0.0716917534" flag="0"/>
      <psa03 value="0.3438835551" flag="0"/>
      <psa10 value="0.0383229943" flag="0"/>
      <psa30 value="0.0033455198" flag="0"/>
    </comp>
    <comp name="--.HNZ">
      <acc value="0.1457398824" flag="0"/>
      <vel value="0.0404080604" flag="0"/>
      <psa03 value="0.2506344007" flag="0"/>
      <psa10 value="0.0134053932" flag="0"/>
      <psa30 value="0.0018824853" flag="0"/>
    </comp>
  </station>
  <station code="GULT" name="GULT" netid="KO" insttype="CMG-3ESP" lat="40.432" lon="30.5152">
    <comp name="--.HHE">
      <acc value="0.0137312200" flag="0"/>
      <vel value="0.0087377075" flag="0"/>
      <psa03 value="0.0423399016" flag="0"/>
      <psa10 value="0.0093009739" flag="0"/>
      <psa30 value="0.0012147596" flag="0"/>
    </comp>
    <comp name="--.HHN">
      <acc value="0.0188068181" flag="0"/>
      <vel value="0.0088904483" flag="0"/>
      <psa03 value="0.0665492878" flag="0"/>
      <psa10 value="0.0087929968" flag="0"/>
      <psa30 value="0.0009328542" flag="0"/>
    </comp>
    <comp name="--.HHZ">
      <acc value="0.0066222624" flag="0"/>
      <vel value="0.0037097865" flag="0"/>
      <psa03 value="0.0231244118" flag="0"/>
      <psa10 value="0.0033956411" flag="0"/>
      <psa30 value="0.0006313152" flag="0"/>
    </comp>
  </station>
  <station code="HRTX" name="HRTX" netid="KO" insttype="CMG-3ESP" lat="40.8009" lon="29.6729">
    <comp name="--.HHE">
      <acc value="0.0094860773" flag="0"/>
      <vel value="0.0046478682" flag="0"/>
      <psa03 value="0.0278702056" flag="0"/>
      <psa10 value="0.0033903721" flag="0"/>
      <psa30 value="0.0004813700" flag="0"/>
    </comp>
    <comp name="--.HHZ">
      <acc value="0.0070937295" flag="0"/>
      <vel value="0.0020894467" flag="0"/>
      <psa03 value="0.0100468021" flag="0"/>
      <psa10 value="0.0023731677" flag="0"/>
      <psa30 value="0.0006404934" flag="0"/>
    </comp>
    <comp name="--.HHN">
      <acc value="0.0085516176" flag="0"/>
      <vel value="0.0037275118" flag="0"/>
      <psa03 value="0.0232988292" flag="0"/>
      <psa10 value="0.0037785665" flag="0"/>
      <psa30 value="0.0010188653" flag="0"/>
    </comp>
  </station>
  <station code="ISK" name="ISK" netid="KO" insttype="CMG-3T" lat="41.0615" lon="29.0592">
    <comp name="--.HHE">
      <acc value="0.0121165930" flag="0"/>
      <vel value="0.0044050296" flag="0"/>
      <psa03 value="0.0199222655" flag="0"/>
      <psa10 value="0.0019278268" flag="0"/>
      <psa30 value="0.0001549400" flag="0"/>
    </comp>
    <comp name="--.HHN">
      <acc value="0.0105380675" flag="0"/>
      <vel value="0.0025319909" flag="0"/>
      <psa03 value="0.0173370689" flag="0"/>
      <psa10 value="0.0014886948" flag="0"/>
      <psa30 value="0.0003185215" flag="0"/>
    </comp>
    <comp name="--.HHZ">
      <acc value="0.0100825385" flag="0"/>
      <vel value="0.0039570407" flag="0"/>
      <psa03 value="0.0165996779" flag="0"/>
      <psa10 value="0.0015048866" flag="0"/>
      <psa30 value="0.0002821136" flag="0"/>
    </comp>
  </station>
  <station code="IZI" name="IZI" netid="KO" insttype="CMG-5T" lat="40.3483" lon="29.4612">
    <comp name="--.HNN">
      <acc value="0.0330062404" flag="0"/>
      <vel value="0.0267842920" flag="0"/>
      <psa03 value="0.0883800857" flag="0"/>
      <psa10 value="0.0247061076" flag="0"/>
      <psa30 value="0.0031642465" flag="0"/>
    </comp>
    <comp name="--.HNE">
      <acc value="0.0415328445" flag="0"/>
      <vel value="0.0351824946" flag="0"/>
      <psa03 value="0.0839479293" flag="0"/>
      <psa10 value="0.0234377081" flag="0"/>
      <psa30 value="0.0086443358" flag="0"/>
    </comp>
    <comp name="--.HNZ">
      <acc value="0.0279801243" flag="0"/>
      <vel value="0.0252177594" flag="0"/>
      <psa03 value="0.0634617469" flag="0"/>
      <psa10 value="0.0305291237" flag="0"/>
      <psa30 value="0.0070433150" flag="0"/>
    </comp>
  </station>
  <station code="KAVV" name="KAVV" netid="KO" insttype="CMG-3ESPC" lat="41.0638" lon="29.06">
    <comp name="--.HHE">
      <acc value="0.0360602695" flag="0"/>
      <vel value="0.0110866905" flag="0"/>
      <psa03 value="0.0692260686" flag="0"/>
      <psa10 value="0.0033624060" flag="0"/>
      <psa30 value="0.0002710302" flag="0"/>
    </comp>
    <comp name="--.HHN">
      <acc value="0.0222625973" flag="0"/>
      <vel value="0.0074864415" flag="0"/>
      <psa03 value="0.0530779307" flag="0"/>
      <psa10 value="0.0019705420" flag="0"/>
      <psa30 value="0.0003480271" flag="0"/>
    </comp>
    <comp name="--.HHZ">
      <acc value="0.0164991151" flag="0"/>
      <vel value="0.0050280811" flag="0"/>
      <psa03 value="0.0290766105" flag="0"/>
      <psa10 value="0.0021537741" flag="0"/>
      <psa30 value="0.0002933027" flag="0"/>
    </comp>
  </station>
  <station code="KCTX" name="KCTX" netid="KO" insttype="CMG-3ESP" lat="40.2626" lon="28.3353">
    <comp name="--.HHN">
      <acc value="0.0274614731" flag="0"/>
      <vel value="0.0075109042" flag="0"/>
      <psa03 value="0.0412316548" flag="0"/>
      <psa10 value="0.0056696177" flag="0"/>
      <psa30 value="0.0003645551" flag="0"/>
    </comp>
    <comp name="--.HHE">
      <acc value="0.0195494054" flag="0"/>
      <vel value="0.0061625257" flag="0"/>
      <psa03 value="0.0341307348" flag="0"/>
      <psa10 value="0.0038939602" flag="0"/>
      <psa30 value="0.0005813528" flag="0"/>
    </comp>
    <comp name="--.HHZ">
      <acc value="0.0202936930" flag="0"/>
      <vel value="0.0049928213" flag="0"/>
      <psa03 value="0.0303208091" flag="0"/>
      <psa10 value="0.0017532552" flag="0"/>
      <psa30 value="0.0005429966" flag="0"/>
    </comp>
  </station>
  <station code="KLYT" name="KLYT" netid="KO" insttype="CMG-3T" lat="41.253" lon="29.042">
    <comp name="--.HHZ">
      <acc value="0.0159737025" flag="0"/>
      <vel value="0.0039637264" flag="0"/>
      <psa03 value="0.0349220822" flag="0"/>
      <psa10 value="0.0019078597" flag="0"/>
      <psa30 value="0.0002931992" flag="0"/>
    </comp>
    <comp name="--.HHN">
      <acc value="0.0326892611" flag="0"/>
      <vel value="0.0103946343" flag="0"/>
      <psa03 value="0.0775648565" flag="0"/>
      <psa10 value="0.0025031077" flag="0"/>
      <psa30 value="0.0002815711" flag="0"/>
    </comp>
    <comp name="--.HHE">
      <acc value="0.0336043216" flag="0"/>
      <vel value="0.0102934660" flag="0"/>
      <psa03 value="0.0744369926" flag="0"/>
      <psa10 value="0.0025359317" flag="0"/>
      <psa30 value="0.0002398996" flag="0"/>
    </comp>
  </station>
  <station code="KOUK" name="KOUK" netid="KO" insttype="CMG-5T" lat="40.6572" lon="29.1918">
    <comp name="--.HNE">
      <acc value="0.1126153410" flag="0"/>
      <vel value="0.0733100138" flag="0"/>
      <psa03 value="0.2860808244" flag="0"/>
      <psa10 value="0.1005527025" flag="0"/>
      <psa30 value="0.0094228601" flag="0"/>
    </comp>
    <comp name="--.HNZ">
      <acc value="0.0633747730" flag="0"/>
      <vel value="0.0403129849" flag="0"/>
      <psa03 value="0.2889938772" flag="0"/>
      <psa10 value="0.0514018330" flag="0"/>
      <psa30 value="0.0029559820" flag="0"/>
    </comp>
    <comp name="--.HNN">
      <acc value="0.1414176291" flag="0"/>
      <vel value="0.0881219479" flag="0"/>
      <psa03 value="0.2433909075" flag="0"/>
      <psa10 value="0.1156327548" flag="0"/>
      <psa30 value="0.0145044013" flag="0"/>
    </comp>
  </station>
  <station code="MDNY" name="MDNY" netid="KO" insttype="CMG-3ESP" lat="40.3709" lon="28.8846">
    <comp name="--.HHZ">
      <acc value="0.3118523348" flag="0"/>
      <vel value="0.1020762351" flag="0"/>
      <psa03 value="0.5691677068" flag="0"/>
      <psa10 value="0.0206825829" flag="0"/>
      <psa30 value="0.0022075343" flag="0"/>
    </comp>
    <comp name="--.HHN">
      <acc value="1.7538721190" flag="0"/>
      <vel value="0.2896246888" flag="0"/>
      <psa03 value="3.4551050331" flag="0"/>
      <psa10 value="0.0914379743" flag="0"/>
      <psa30 value="0.0100913854" flag="0"/>
    </comp>
    <comp name="--.HHE">
      <acc value="0.6881447478" flag="0"/>
      <vel value="0.2364271802" flag="0"/>
      <psa03 value="1.9253739124" flag="0"/>
      <psa10 value="0.0384372901" flag="0"/>
      <psa30 value="0.0041657231" flag="0"/>
    </comp>
  </station>
  <station code="ORLT" name="ORLT" netid="KO" insttype="CMG-5T" lat="40.0452" lon="28.8914">
    <comp name="--.HNE">
      <acc value="0.0567847035" flag="0"/>
      <vel value="0.0215368106" flag="0"/>
      <psa03 value="0.1430378911" flag="0"/>
      <psa10 value="0.0064326506" flag="0"/>
      <psa30 value="0.0015177422" flag="0"/>
    </comp>
    <comp name="--.HNN">
      <acc value="0.0497035130" flag="0"/>
      <vel value="0.0199121167" flag="0"/>
      <psa03 value="0.0964172322" flag="0"/>
      <psa10 value="0.0084259547" flag="0"/>
      <psa30 value="0.0043504043" flag="0"/>
    </comp>
    <comp name="--.HNZ">
      <acc value="0.0193554583" flag="0"/>
      <vel value="0.0099985159" flag="0"/>
      <psa03 value="0.0425294879" flag="0"/>
      <psa10 value="0.0050758655" flag="0"/>
      <psa30 value="0.0038523443" flag="0"/>
    </comp>
  </station>
  <station code="OSMT" name="OSMT" netid="KO" insttype="CMG-5T" lat="40.6009" lon="29.7">
    <comp name="--.HNE">
      <acc value="0.0147016062" flag="0"/>
      <vel value="0.0071027867" flag="0"/>
      <psa03 value="0.0344159462" flag="0"/>
      <psa10 value="0.0074098014" flag="0"/>
      <psa30 value="0.0015022402" flag="0"/>
    </comp>
    <comp name="--.HNN">
      <acc value="0.0173757748" flag="0"/>
      <vel value="0.0090663134" flag="0"/>
      <psa03 value="0.0501714767" flag="0"/>
      <psa10 value="0.0116899328" flag="0"/>
      <psa30 value="0.0012507540" flag="0"/>
    </comp>
    <comp name="--.HNZ">
      <acc value="0.0134434381" flag="0"/>
      <vel value="0.0063787627" flag="0"/>
      <psa03 value="0.0441474746" flag="0"/>
      <psa10 value="0.0064006161" flag="0"/>
      <psa30 value="0.0013531917" flag="0"/>
    </comp>
  </station>
  <station code="SAUV" name="SAUV" netid="KO" insttype="CMG-6T" lat="40.7401" lon="30.3271">
    <comp name="--.HHE">
      <acc value="0.0085858834" flag="0"/>
      <vel value="0.0048608017" flag="0"/>
      <psa03 value="0.0160476576" flag="0"/>
      <psa10 value="0.0051616323" flag="0"/>
      <psa30 value="0.0004072972" flag="0"/>
    </comp>
    <comp name="--.HHN">
      <acc value="0.0079560592" flag="0"/>
      <vel value="0.0053639657" flag="0"/>
      <psa03 value="0.0165584645" flag="0"/>
      <psa10 value="0.0047591350" flag="0"/>
      <psa30 value="0.0003647985" flag="0"/>
    </comp>
    <comp name="--.HHZ">
      <acc value="0.0094813645" flag="0"/>
      <vel value="0.0028303368" flag="0"/>
      <psa03 value="0.0183823288" flag="0"/>
      <psa10 value="0.0036505040" flag="0"/>
      <psa30 value="0.0003205991" flag="0"/>
    </comp>
  </station>
  <station code="SILT" name="SILT" netid="KO" insttype="CMG-3ESP" lat="41.153" lon="29.643">
    <comp name="--.HHE">
      <acc value="0.0068598469" flag="0"/>
      <vel value="0.0024521067" flag="0"/>
      <psa03 value="0.0163762672" flag="0"/>
      <psa10 value="0.0023787028" flag="0"/>
      <psa30 value="0.0004175691" flag="0"/>
    </comp>
    <comp name="--.HHN">
      <acc value="0.0052030229" flag="0"/>
      <vel value="0.0030335742" flag="0"/>
      <psa03 value="0.0173913963" flag="0"/>
      <psa10 value="0.0017106760" flag="0"/>
      <psa30 value="0.0005853871" flag="0"/>
    </comp>
    <comp name="--.HHZ">
      <acc value="0.0044159230" flag="0"/>
      <vel value="0.0029912207" flag="0"/>
      <psa03 value="0.0136754828" flag="0"/>
      <psa10 value="0.0016663358" flag="0"/>
      <psa30 value="0.0004920854" flag="0"/>
    </comp>
  </station>
  <station code="SLVT" name="SLVT" netid="KO" insttype="CMG-3ESP" lat="41.2288" lon="28.2098">
    <comp name="--.HHE">
      <acc value="0.0292655499" flag="0"/>
      <vel value="0.0095672136" flag="0"/>
      <psa03 value="0.0578018313" flag="0"/>
      <psa10 value="0.0048452882" flag="0"/>
      <psa30 value="0.0005014331" flag="0"/>
    </comp>
    <comp name="--.HHN">
      <acc value="0.0322359946" flag="0"/>
      <vel value="0.0128063403" flag="0"/>
      <psa03 value="0.1144403397" flag="0"/>
      <psa10 value="0.0066563150" flag="0"/>
      <psa30 value="0.0005068227" flag="0"/>
    </comp>
    <comp name="--.HHZ">
      <acc value="0.0292873086" flag="0"/>
      <vel value="0.0098581697" flag="0"/>
      <psa03 value="0.0446468102" flag="0"/>
      <psa10 value="0.0022350682" flag="0"/>
      <psa30 value="0.0002061457" flag="0"/>
    </comp>
  </station>
  <station code="SUSR" name="SUSR" netid="KO" insttype="CMG-5T" lat="39.9627" lon="28.0835">
    <comp name="--.HNE">
      <acc value="0.0656299835" flag="0"/>
      <vel value="0.0170859976" flag="0"/>
      <psa03 value="0.1012407064" flag="0"/>
      <psa10 value="0.0096069362" flag="0"/>
      <psa30 value="0.0005739956" flag="0"/>
    </comp>
    <comp name="--.HNN">
      <acc value="0.0526690518" flag="0"/>
      <vel value="0.0162235930" flag="0"/>
      <psa03 value="0.0763348524" flag="0"/>
      <psa10 value="0.0079468951" flag="0"/>
      <psa30 value="0.0004880392" flag="0"/>
    </comp>
    <comp name="--.HNZ">
      <acc value="0.0266334746" flag="0"/>
      <vel value="0.0086293241" flag="0"/>
      <psa03 value="0.0598725141" flag="0"/>
      <psa10 value="0.0059475117" flag="0"/>
      <psa30 value="0.0004817883" flag="0"/>
    </comp>
  </station>
  <station code="TUZL" name="TUZL" netid="KO" insttype="CMG-5T" lat="40.8128" lon="29.2657">
    <comp name="--.HNE">
      <acc value="0.1061544494" flag="0"/>
      <vel value="0.0395574865" flag="0"/>
      <psa03 value="0.2797857465" flag="0"/>
      <psa10 value="0.0101708488" flag="0"/>
      <psa30 value="0.0010929463" flag="0"/>
    </comp>
    <comp name="--.HNN">
      <acc value="0.1163726161" flag="0"/>
      <vel value="0.0376673079" flag="0"/>
      <psa03 value="0.1800695786" flag="0"/>
      <psa10 value="0.0098370059" flag="0"/>
      <psa30 value="0.0006860955" flag="0"/>
    </comp>
    <comp name="--.HNZ">
      <acc value="0.0441557451" flag="0"/>
      <vel value="0.0102823219" flag="0"/>
      <psa03 value="0.0556693216" flag="0"/>
      <psa10 value="0.0039116860" flag="0"/>
      <psa30 value="0.0007425390" flag="0"/>
    </comp>
  </station>
  <station code="TVSB" name="TVSB" netid="KO" insttype="CMG-3T" lat="39.4497" lon="29.4615">
    <comp name="--.HHN">
      <acc value="0.0288703244" flag="0"/>
      <vel value="0.0159784025" flag="0"/>
      <psa03 value="0.0710185969" flag="0"/>
      <psa10 value="0.0055215617" flag="0"/>
      <psa30 value="0.0007785260" flag="0"/>
    </comp>
