<?xml version="1.0" encoding="UTF-8" standalone="yes"?>
<!DOCTYPE earthquake SYSTEM "stationlist.dtd">
<stationlist created="" xmlns="ch.ethz.sed.shakemap.usgs.xml">
  <station code="ADVT" name="ADVT" netid="KO" insttype="CMG-3ESP" lat="40.4332" lon="29.7383">
    <comp name="--.HHE">
      <acc value="0.0119479579" flag="0"/>
      <vel value="0.0063137058" flag="0"/>
      <psa03 value="0.0183935892" flag="0"/>
      <psa10 value="0.0090693336" flag="0"/>
      <psa30 value="0.0011915912" flag="0"/>
    </comp>
    <comp name="--.HHZ">
      <acc value="0.0117559125" flag="0"/>
      <vel value="0.0043368890" flag="0"/>
      <psa03 value="0.0216153808" flag="0"/>
      <psa10 value="0.0040779856" flag="0"/>
      <psa30 value="0.0012096515" flag="0"/>
    </comp>
    <comp name="--.HHN">
      <acc value="0.0103384090" flag="0"/>
      <vel value="0.0050394745" flag="0"/>
      <psa03 value="0.0117850882" flag="0"/>
      <psa10 value="0.0087480118" flag="0"/>
      <psa30 value="0.0009443400" flag="0"/>
    </comp>
  </station>
  <station code="ARMT" name="ARMT" netid="KO" insttype="CMG-3ESP" lat="40.5683" lon="28.866">
    <comp name="--.HHE">
      <acc value="0.4415323023" flag="0"/>
      <vel value="0.1282829729" flag="0"/>
      <psa03 value="0.5671146589" flag="0"/>
      <psa10 value="0.0211101559" flag="0"/>
      <psa30 value="0.0025957363" flag="0"/>
    </comp>
  </station>
  <station code="BGKT" name="BGKT" netid="KO" insttype="CMG-3ESP" lat="41.181" lon="28.773">
    <comp name="--.HHE">
      <acc value="0.0188286208" flag="0"/>
      <vel value="0.0065248064" flag="0"/>
      <psa03 value="0.0293216325" flag="0"/>
      <psa10 value="0.0030303801" flag="0"/>
      <psa30 value="0.0002108791" flag="0"/>
    </comp>
    <comp name="--.HHN">
      <acc value="0.0181942306" flag="0"/>
      <vel value="0.0055575164" flag="0"/>
      <psa03 value="0.0386929263" flag="0"/>
      <psa10 value="0.0032031645" flag="0"/>
      <psa30 value="0.0002891544" flag="0"/>
    </comp>
    <comp name="--.HHZ">
      <acc value="0.0090192058" flag="0"/>
      <vel value="0.0032301814" flag="0"/>
      <psa03 value="0.0186744490" flag="0"/>
      <psa10 value="0.0014006436" flag="0"/>
      <psa30 value="0.0001665047" flag="0"/>
    </comp>
  </station>
  <station code="BRGA" name="BRGA" netid="KO" insttype="CMG-5T" lat="40.8846" lon="29.065">
    <comp name="--.HNZ">
      <acc value="0.0180645896" flag="0"/>
      <vel value="0.0061811844" flag="0"/>
      <psa03 value="0.0237015087" flag="0"/>
      <psa10 value="0.0047485842" flag="0"/>
      <psa30 value="0.0005994691" flag="0"/>
    </comp>
    <comp name="--.HNN">
      <acc value="0.0248818201" flag="0"/>
      <vel value="0.0092923694" flag="0"/>
      <psa03 value="0.0635299621" flag="0"/>
      <psa10 value="0.0059404362" flag="0"/>
      <psa30 value="0.0005312155" flag="0"/>
    </comp>
  </station>
  <station code="DST" name="DST" netid="KO" insttype="CMG-5T" lat="39.6041" lon="28.6267">
    <comp name="--.HNN">
      <acc value="0.0304655259" flag="0"/>
      <vel value="0.0086922816" flag="0"/>
      <psa03 value="0.0544363807" flag="0"/>
      <psa10 value="0.0074319149" flag="0"/>
      <psa30 value="0.0009282982" flag="0"/>
    </comp>
    <comp name="--.HNZ">
      <acc value="0.0219743023" flag="0"/>
      <vel value="0.0111484580" flag="0"/>
      <psa03 value="0.0958714341" flag="0"/>
      <psa10 value="0.0055333294" flag="0"/>
      <psa30 value="0.0007014091" flag="0"/>
    </comp>
    <comp name="--.HNE">
      <acc value="0.0335236456" flag="0"/>
      <vel value="0.0110956345" flag="0"/>
      <psa03 value="0.0580247002" flag="0"/>
      <psa10 value="0.0097665476" flag="0"/>
      <psa30 value="0.0007828454" flag="0"/>
    </comp>
  </station>
  <station code="EDC" name="EDC" netid="KO" insttype="CMG-3T" lat="40.3465" lon="27.8618">
    <comp name="--.HHE">
      <acc value="0.0398660344" flag="0"/>
      <vel value="0.0149345969" flag="0"/>
      <psa03 value="0.1068150010" flag="0"/>
      <psa10 value="0.0062496936" flag="0"/>
      <psa30 value="0.0004783455" flag="0"/>
    </comp>
    <comp name="--.HHN">
      <acc value="0.0505669637" flag="0"/>
      <vel value="0.0209315230" flag="0"/>
      <psa03 value="0.1870029667" flag="0"/>
      <psa10 value="0.0087474919" flag="0"/>
      <psa30 value="0.0007133629" flag="0"/>
    </comp>
    <comp name="--.HHZ">
      <acc value="0.0258703263" flag="0"/>
      <vel value="0.0078838501" flag="0"/>
      <psa03 value="0.0376666898" flag="0"/>
      <psa10 value="0.0030651641" flag="0"/>
      <psa30 value="0.0002115133" flag="0"/>
    </comp>
  </station>
  <station code="ESKY" name="ESKY" netid="KO" insttype="CMG-5T" lat="40.5918" lon="28.9071">
    <comp name="--.HNZ">
      <acc value="0.1457398745" flag="0"/>
      <vel value="0.0404080559" flag="0"/>
      <psa03 value="0.2506344007" flag="0"/>
      <psa10 value="0.0134053933" flag="0"/>
      <psa30 value="0.0018796446" flag="0"/>
    </comp>
    <comp name="--.HNN">
      <acc value="0.2149300019" flag="0"/>
      <vel value="0.0716917528" flag="0"/>
      <psa03 value="0.3438835551" flag="0"/>
      <psa10 value="0.0383229974" flag="0"/>
      <psa30 value="0.0033451318" flag="0"/>
    </comp>
    <comp name="--.HNE">
      <acc value="0.2477278458" flag="0"/>
      <vel value="0.0847054464" flag="0"/>
      <psa03 value="0.4168628973" flag="0"/>
      <psa10 value="0.0461021455" flag="0"/>
      <psa30 value="0.0029558477" flag="0"/>
    </comp>
  </station>
  <station code="GULT" name="GULT" netid="KO" insttype="CMG-3ESP" lat="40.432" lon="30.5152">
    <comp name="--.HHE">
      <acc value="0.0137312201" flag="0"/>
      <vel value="0.0087377059" flag="0"/>
      <psa03 value="0.0423399016" flag="0"/>
      <psa10 value="0.0093009739" flag="0"/>
      <psa30 value="0.0012147609" flag="0"/>
    </comp>
    <comp name="--.HHN">
      <acc value="0.0188068181" flag="0"/>
      <vel value="0.0088904476" flag="0"/>
      <psa03 value="0.0665492878" flag="0"/>
      <psa10 value="0.0087929968" flag="0"/>
      <psa30 value="0.0009328497" flag="0"/>
    </comp>
    <comp name="--.HHZ">
      <acc value="0.0066222624" flag="0"/>
      <vel value="0.0037097860" flag="0"/>
      <psa03 value="0.0231244118" flag="0"/>
      <psa10 value="0.0033956411" flag="0"/>
      <psa30 value="0.0006313153" flag="0"/>
    </comp>
  </station>
  <station code="HRTX" name="HRTX" netid="KO" insttype="CMG-3ESP" lat="40.8009" lon="29.6729">
    <comp name="--.HHN">
      <acc value="0.0085516176" flag="0"/>
      <vel value="0.0037275119" flag="0"/>
      <psa03 value="0.0232988292" flag="0"/>
      <psa10 value="0.0037785663" flag="0"/>
      <psa30 value="0.0010188598" flag="0"/>
    </comp>
    <comp name="--.HHE">
      <acc value="0.0094860773" flag="0"/>
      <vel value="0.0046478699" flag="0"/>
      <psa03 value="0.0278702056" flag="0"/>
      <psa10 value="0.0033903722" flag="0"/>
      <psa30 value="0.0004813708" flag="0"/>
    </comp>
    <comp name="--.HHZ">
      <acc value="0.0070937295" flag="0"/>
      <vel value="0.0020894475" flag="0"/>
      <psa03 value="0.0100468021" flag="0"/>
      <psa10 value="0.0023731677" flag="0"/>
      <psa30 value="0.0006404979" flag="0"/>
    </comp>
  </station>
  <station code="ISK" name="ISK" netid="KO" insttype="CMG-3T" lat="41.0615" lon="29.0592">
    <comp name="--.HHE">
      <acc value="0.0121165930" flag="0"/>
      <vel value="0.0044050296" flag="0"/>
      <psa03 value="0.0199222655" flag="0"/>
      <psa10 value="0.0019278269" flag="0"/>
      <psa30 value="0.0001549404" flag="0"/>
    </comp>
    <comp name="--.HHN">
      <acc value="0.0105380675" flag="0"/>
      <vel value="0.0025319911" flag="0"/>
      <psa03 value="0.0173370689" flag="0"/>
      <psa10 value="0.0014886949" flag="0"/>
      <psa30 value="0.0003185230" flag="0"/>
    </comp>
    <comp name="--.HHZ">
      <acc value="0.0100825385" flag="0"/>
      <vel value="0.0039570405" flag="0"/>
      <psa03 value="0.0165996779" flag="0"/>
      <psa10 value="0.0015048867" flag="0"/>
      <psa30 value="0.0002821118" flag="0"/>
    </comp>
  </station>
  <station code="IZI" name="IZI" netid="KO" insttype="CMG-5T" lat="40.3483" lon="29.4612">
    <comp name="--.HNE">
      <acc value="0.0415328465" flag="0"/>
      <vel value="0.0351824968" flag="0"/>
      <psa03 value="0.0839479293" flag="0"/>
      <psa10 value="0.0234377107" flag="0"/>
      <psa30 value="0.0086418882" flag="0"/>
    </comp>
    <comp name="--.HNN">
      <acc value="0.0330062370" flag="0"/>
      <vel value="0.0267843001" flag="0"/>
      <psa03 value="0.0883800857" flag="0"/>
      <psa10 value="0.0247061156" flag="0"/>
      <psa30 value="0.0031639377" flag="0"/>
    </comp>
    <comp name="--.HNZ">
      <acc value="0.0279801240" flag="0"/>
      <vel value="0.0252177629" flag="0"/>
      <psa03 value="0.0634617469" flag="0"/>
      <psa10 value="0.0305291237" flag="0"/>
      <psa30 value="0.0070442513" flag="0"/>
    </comp>
  </station>
  <station code="KAVV" name="KAVV" netid="KO" insttype="CMG-3ESPC" lat="41.0638" lon="29.06">
    <comp name="--.HHN">
      <acc value="0.0222625973" flag="0"/>
      <vel value="0.0074864415" flag="0"/>
      <psa03 value="0.0530779307" flag="0"/>
      <psa10 value="0.0019705421" flag="0"/>
      <psa30 value="0.0003480292" flag="0"/>
    </comp>
    <comp name="--.HHE">
      <acc value="0.0360602695" flag="0"/>
      <vel value="0.0110866906" flag="0"/>
      <psa03 value="0.0692260686" flag="0"/>
      <psa10 value="0.0033624061" flag="0"/>
      <psa30 value="0.0002710295" flag="0"/>
    </comp>
    <comp name="--.HHZ">
      <acc value="0.0164991151" flag="0"/>
      <vel value="0.0050280811" flag="0"/>
      <psa03 value="0.0290766105" flag="0"/>
      <psa10 value="0.0021537742" flag="0"/>
      <psa30 value="0.0002933020" flag="0"/>
    </comp>
  </station>
  <station code="KCTX" name="KCTX" netid="KO" insttype="CMG-3ESP" lat="40.2626" lon="28.3353">
    <comp name="--.HHN">
      <acc value="0.0274614731" flag="0"/>
      <vel value="0.0075109038" flag="0"/>
      <psa03 value="0.0412316548" flag="0"/>
      <psa10 value="0.0056696177" flag="0"/>
      <psa30 value="0.0003645396" flag="0"/>
    </comp>
    <comp name="--.HHZ">
      <acc value="0.0202936929" flag="0"/>
      <vel value="0.0049928216" flag="0"/>
      <psa03 value="0.0303208091" flag="0"/>
      <psa10 value="0.0017532552" flag="0"/>
      <psa30 value="0.0005429988" flag="0"/>
    </comp>
    <comp name="--.HHE">
      <acc value="0.0195494059" flag="0"/>
      <vel value="0.0061625262" flag="0"/>
      <psa03 value="0.0341307348" flag="0"/>
      <psa10 value="0.0038939602" flag="0"/>
      <psa30 value="0.0005813526" flag="0"/>
    </comp>
  </station>
  <station code="KLYT" name="KLYT" netid="KO" insttype="CMG-3T" lat="41.253" lon="29.042">
    <comp name="--.HHE">
      <acc value="0.0336043215" flag="0"/>
      <vel value="0.0102934660" flag="0"/>
      <psa03 value="0.0744369926" flag="0"/>
      <psa10 value="0.0025359317" flag="0"/>
      <psa30 value="0.0002399008" flag="0"/>
    </comp>
    <comp name="--.HHZ">
      <acc value="0.0159737025" flag="0"/>
      <vel value="0.0039637282" flag="0"/>
      <psa03 value="0.0349220822" flag="0"/>
      <psa10 value="0.0019078597" flag="0"/>
      <psa30 value="0.0002931983" flag="0"/>
    </comp>
    <comp name="--.HHN">
      <acc value="0.0326892611" flag="0"/>
      <vel value="0.0103946311" flag="0"/>
      <psa03 value="0.0775648565" flag="0"/>
      <psa10 value="0.0025031077" flag="0"/>
      <psa30 value="0.0002815727" flag="0"/>
    </comp>
  </station>
  <station code="KOUK" name="KOUK" netid="KO" insttype="CMG-5T" lat="40.6572" lon="29.1918">
    <comp name="--.HNN">
      <acc value="0.1414176278" flag="0"/>
      <vel value="0.0881219544" flag="0"/>
      <psa03 value="0.2433909075" flag="0"/>
      <psa10 value="0.1156327588" flag="0"/>
      <psa30 value="0.0145044838" flag="0"/>
    </comp>
    <comp name="--.HNZ">
      <acc value="0.0633747705" flag="0"/>
      <vel value="0.0403129729" flag="0"/>
      <psa03 value="0.2889938772" flag="0"/>
      <psa10 value="0.0514018288" flag="0"/>
      <psa30 value="0.0029564771" flag="0"/>
    </comp>
    <comp name="--.HNE">
      <acc value="0.1126153386" flag="0"/>
      <vel value="0.0733100092" flag="0"/>
      <psa03 value="0.2860808244" flag="0"/>
      <psa10 value="0.1005527027" flag="0"/>
      <psa30 value="0.0094225210" flag="0"/>
    </comp>
  </station>
  <station code="MDNY" name="MDNY" netid="KO" insttype="CMG-3ESP" lat="40.3709" lon="28.8846">
    <comp name="--.HHE">
      <acc value="0.6881447479" flag="0"/>
      <vel value="0.2364271818" flag="0"/>
      <psa03 value="1.9253739124" flag="0"/>
      <psa10 value="0.0384372868" flag="0"/>
      <psa30 value="0.0041657708" flag="0"/>
    </comp>
    <comp name="--.HHZ">
      <acc value="0.3118523348" flag="0"/>
      <vel value="0.1020762363" flag="0"/>
      <psa03 value="0.5691677068" flag="0"/>
      <psa10 value="0.0206825834" flag="0"/>
      <psa30 value="0.0022074885" flag="0"/>
    </comp>
    <comp name="--.HHN">
      <acc value="1.7538721190" flag="0"/>
      <vel value="0.2896246888" flag="0"/>
      <psa03 value="3.4551050331" flag="0"/>
      <psa10 value="0.0914379752" flag="0"/>
      <psa30 value="0.0100913960" flag="0"/>
    </comp>
  </station>
  <station code="ORLT" name="ORLT" netid="KO" insttype="CMG-5T" lat="40.0452" lon="28.8914">
    <comp name="--.HNN">
      <acc value="0.0497035129" flag="0"/>
      <vel value="0.0199121093" flag="0"/>
      <psa03 value="0.0964172322" flag="0"/>
      <psa10 value="0.0084259578" flag="0"/>
      <psa30 value="0.0043506508" flag="0"/>
    </comp>
    <comp name="--.HNE">
      <acc value="0.0567847016" flag="0"/>
      <vel value="0.0215367885" flag="0"/>
      <psa03 value="0.1430378911" flag="0"/>
      <psa10 value="0.0064326507" flag="0"/>
      <psa30 value="0.0015201924" flag="0"/>
    </comp>
    <comp name="--.HNZ">
      <acc value="0.0193554619" flag="0"/>
      <vel value="0.0099985229" flag="0"/>
      <psa03 value="0.0425294879" flag="0"/>
      <psa10 value="0.0050758768" flag="0"/>
      <psa30 value="0.0038530860" flag="0"/>
    </comp>
  </station>
  <station code="OSMT" name="OSMT" netid="KO" insttype="CMG-5T" lat="40.6009" lon="29.7">
    <comp name="--.HNE">
      <acc value="0.0147012313" flag="0"/>
      <vel value="0.0071027971" flag="0"/>
      <psa03 value="0.0344159462" flag="0"/>
      <psa10 value="0.0074098023" flag="0"/>
      <psa30 value="0.0015006208" flag="0"/>
    </comp>
    <comp name="--.HNN">
      <acc value="0.0173756426" flag="0"/>
      <vel value="0.0090663263" flag="0"/>
      <psa03 value="0.0501714767" flag="0"/>
      <psa10 value="0.0116899273" flag="0"/>
      <psa30 value="0.0012507087" flag="0"/>
    </comp>
    <comp name="--.HNZ">
      <acc value="0.0134437326" flag="0"/>
      <vel value="0.0063787854" flag="0"/>
      <psa03 value="0.0441474746" flag="0"/>
      <psa10 value="0.0064006029" flag="0"/>
      <psa30 value="0.0013550160" flag="0"/>
    </comp>
  </station>
  <station code="SAUV" name="SAUV" netid="KO" insttype="CMG-6T" lat="40.7401" lon="30.3271">
    <comp name="--.HHN">
      <acc value="0.0079560628" flag="0"/>
      <vel value="0.0053639667" flag="0"/>
      <psa03 value="0.0165584645" flag="0"/>
      <psa10 value="0.0047591350" flag="0"/>
      <psa30 value="0.0003647979" flag="0"/>
    </comp>
    <comp name="--.HHE">
      <acc value="0.0085858827" flag="0"/>
      <vel value="0.0048608018" flag="0"/>
      <psa03 value="0.0160476576" flag="0"/>
      <psa10 value="0.0051616323" flag="0"/>
      <psa30 value="0.0004072954" flag="0"/>
    </comp>
    <comp name="--.HHZ">
      <acc value="0.0094813688" flag="0"/>
      <vel value="0.0028303347" flag="0"/>
      <psa03 value="0.0183823288" flag="0"/>
      <psa10 value="0.0036505041" flag="0"/>
      <psa30 value="0.0003205992" flag="0"/>
    </comp>
  </station>
  <station code="SILT" name="SILT" netid="KO" insttype="CMG-3ESP" lat="41.153" lon="29.643">
    <comp name="--.HHE">
      <acc value="0.0068598469" flag="0"/>
      <vel value="0.0024521071" flag="0"/>
      <psa03 value="0.0163762672" flag="0"/>
      <psa10 value="0.0023787028" flag="0"/>
      <psa30 value="0.0004175693" flag="0"/>
    </comp>
    <comp name="--.HHN">
      <acc value="0.0052030229" flag="0"/>
      <vel value="0.0030335741" flag="0"/>
      <psa03 value="0.0173913963" flag="0"/>
      <psa10 value="0.0017106759" flag="0"/>
      <psa30 value="0.0005853819" flag="0"/>
    </comp>
    <comp name="--.HHZ">
      <acc value="0.0044159231" flag="0"/>
      <vel value="0.0029912207" flag="0"/>
      <psa03 value="0.0136754828" flag="0"/>
      <psa10 value="0.0016663358" flag="0"/>
      <psa30 value="0.0004920843" flag="0"/>
    </comp>
  </station>
  <station code="SLVT" name="SLVT" netid="KO" insttype="CMG-3ESP" lat="41.2288" lon="28.2098">
    <comp name="--.HHE">
      <acc value="0.0292655499" flag="0"/>
      <vel value="0.0095672136" flag="0"/>
      <psa03 value="0.0578018313" flag="0"/>
      <psa10 value="0.0048452883" flag="0"/>
      <psa30 value="0.0005014319" flag="0"/>
    </comp>
    <comp name="--.HHN">
      <acc value="0.0322359946" flag="0"/>
      <vel value="0.0128063397" flag="0"/>
      <psa03 value="0.1144403397" flag="0"/>
      <psa10 value="0.0066563149" flag="0"/>
      <psa30 value="0.0005068183" flag="0"/>
    </comp>
    <comp name="--.HHZ">
      <acc value="0.0292873086" flag="0"/>
      <vel value="0.0098581649" flag="0"/>
      <psa03 value="0.0446468102" flag="0"/>
      <psa10 value="0.0022350682" flag="0"/>
      <psa30 value="0.0002061446" flag="0"/>
    </comp>
  </station>
  <station code="SUSR" name="SUSR" netid="KO" insttype="CMG-5T" lat="39.9627" lon="28.0835">
    <comp name="--.HNE">
      <acc value="0.0656299836" flag="0"/>
      <vel value="0.0170859968" flag="0"/>
      <psa03 value="0.1012407064" flag="0"/>
      <psa10 value="0.0096069361" flag="0"/>
      <psa30 value="0.0005740191" flag="0"/>
    </comp>
    <comp name="--.HNN">
      <acc value="0.0526690520" flag="0"/>
      <vel value="0.0162235968" flag="0"/>
      <psa03 value="0.0763348524" flag="0"/>
      <psa10 value="0.0079468951" flag="0"/>
      <psa30 value="0.0004882232" flag="0"/>
    </comp>
    <comp name="--.HNZ">
      <acc value="0.0266334743" flag="0"/>
      <vel value="0.0086293244" flag="0"/>
      <psa03 value="0.0598725141" flag="0"/>
      <psa10 value="0.0059475116" flag="0"/>
      <psa30 value="0.0004817979" flag="0"/>
    </comp>
  </station>
  <station code="TUZL" name="TUZL" netid="KO" insttype="CMG-5T" lat="40.8128" lon="29.2657">
    <comp name="--.HNE">
      <acc value="0.1061544474" flag="0"/>
      <vel value="0.0395574896" flag="0"/>
      <psa03 value="0.2797857465" flag="0"/>
      <psa10 value="0.0101708457" flag="0"/>
      <psa30 value="0.0010925272" flag="0"/>
    </comp>
    <comp name="--.HNN">
      <acc value="0.1163726163" flag="0"/>
      <vel value="0.0376673076" flag="0"/>
      <psa03 value="0.1800695786" flag="0"/>
      <psa10 value="0.0098370086" flag="0"/>
      <psa30 value="0.0006872698" flag="0"/>
    </comp>
    <comp name="--.HNZ">
      <acc value="0.0441557382" flag="0"/>
      <vel value="0.0102823209" flag="0"/>
      <psa03 value="0.0556693216" flag="0"/>
      <psa10 value="0.0039116887" flag="0"/>
      <psa30 value="0.0007423656" flag="0"/>
    </comp>
  </station>
  <station code="TVSB" name="TVSB" netid="KO" insttype="CMG-3T" lat="39.4497" lon="29.4615">
    <comp name="--.HHZ">
      <acc value="0.0072548597" flag="0"/>
      <vel value="0.0043359648" flag="0"/>
      <psa03 value="0.0207188430" flag="0"/>
      <psa10 value="0.0026993673" flag="0"/>
      <psa30 value="0.0003967274" flag="0"/>
    </comp>
