<stationlist created="1708696871">
	<station code="EDC" name="EDC" netid="KO" source="Bogazici University Kandilli Observatory And Earthquake Research Institute (KOERI)" insttype="" lat="40.3465" lon="27.8618">
		<comp name=".HNE" depth="0.0">
			<acc value="0.039285371365116" flag="0"/>
			<vel value="0.0145779621065" flag="0"/>
			<psa03 value="0.0947297024610494" flag="0"/>
			<psa10 value="0.00585438813699585" flag="0"/>
			<psa30 value="0.000510821443582106" flag="0"/>
		</comp>
		<comp name=".HNN" depth="0.0">
			<acc value="0.050393123867082" flag="0"/>
			<vel value="0.0203903659718" flag="0"/>
			<psa03 value="0.188608848577052" flag="0"/>
			<psa10 value="0.00879597612774352" flag="0"/>
			<psa30 value="0.000778094565780588" flag="0"/>
		</comp>
		<comp name=".HNZ" depth="0.0">
			<acc value="0.025391578218414" flag="0"/>
			<vel value="0.0075991234382" flag="0"/>
			<psa03 value="0.0395230609171659" flag="0"/>
			<psa10 value="0.00292372461990529" flag="0"/>
			<psa30 value="0.000258435896151425" flag="0"/>
		</comp>
	</station>
	<station code="GONE" name="GONE" netid="KO" source="Bogazici University Kandilli Observatory And Earthquake Research Institute (KOERI)" insttype="" lat="40.0466" lon="27.686">
		<comp name=".HNE" depth="0.0">
			<acc value="0.026058177750984" flag="0"/>
			<vel value="0.0117591096311" flag="0"/>
			<psa03 value="0.0403384873309977" flag="0"/>
			<psa10 value="0.0111845946744948" flag="0"/>
			<psa30 value="0.000943935135236049" flag="0"/>
		</comp>
		<comp name=".HNN" depth="0.0">
			<acc value="0.02779421513601" flag="0"/>
			<vel value="0.0113905195475" flag="0"/>
			<psa03 value="0.0525365323708646" flag="0"/>
			<psa10 value="0.0161181739999357" flag="0"/>
			<psa30 value="0.000638227644031774" flag="0"/>
		</comp>
		<comp name=".HNZ" depth="0.0">
			<acc value="0.015270608335044" flag="0"/>
			<vel value="0.00829469041402" flag="0"/>
			<psa03 value="0.0287509176280153" flag="0"/>
			<psa10 value="0.00625826551689275" flag="0"/>
			<psa30 value="0.000489619830744956" flag="0"/>
		</comp>
	</station>
	<station code="IZI" name="IZI" netid="KO" source="Bogazici University Kandilli Observatory And Earthquake Research Institute (KOERI)" insttype="" lat="40.3483" lon="29.4612">
		<comp name=".HNE" depth="0.0">
			<acc value="0.041100195247728" flag="0"/>
			<vel value="0.035139976298" flag="0"/>
			<psa03 value="0.0854189815051952" flag="0"/>
			<psa10 value="0.0234255968308271" flag="0"/>
			<psa30 value="0.00936663132667916" flag="0"/>
		</comp>
		<comp name=".HNN" depth="0.0">
			<acc value="0.033333110215074" flag="0"/>
			<vel value="0.0268357580688" flag="0"/>
			<psa03 value="0.0894365705672641" flag="0"/>
			<psa10 value="0.0248574266825362" flag="0"/>
			<psa30 value="0.00343029078159718" flag="0"/>
		</comp>
		<comp name=".HNZ" depth="0.0">
			<acc value="0.027071080973586" flag="0"/>
			<vel value="0.0257554931696" flag="0"/>
			<psa03 value="0.0635344796806021" flag="0"/>
			<psa10 value="0.0306327905220266" flag="0"/>
			<psa30 value="0.00738777773736697" flag="0"/>
		</comp>
	</station>
	<station code="KAVV" name="KAVV" netid="KO" source="Bogazici University Kandilli Observatory And Earthquake Research Institute (KOERI)" insttype="" lat="41.0638" lon="29.06">
		<comp name=".HNE" depth="0.0">
			<acc value="0.0339147954951" flag="0"/>
			<vel value="0.0104423897597" flag="0"/>
			<psa03 value="0.0666761721773229" flag="0"/>
			<psa10 value="0.0035647088788451" flag="0"/>
			<psa30 value="0.000568265769820395" flag="0"/>
		</comp>
		<comp name=".HNN" depth="0.0">
			<acc value="0.021382201399164" flag="0"/>
			<vel value="0.00757536622851" flag="0"/>
			<psa03 value="0.0521098634810307" flag="0"/>
			<psa10 value="0.00198757916736466" flag="0"/>
			<psa30 value="0.000414237909978364" flag="0"/>
		</comp>
		<comp name=".HNZ" depth="0.0">
			<acc value="0.015954171668358" flag="0"/>
			<vel value="0.00488533334011" flag="0"/>
			<psa03 value="0.0282595283050426" flag="0"/>
			<psa10 value="0.00182172665701469" flag="0"/>
			<psa30 value="0.000573383192153882" flag="0"/>
		</comp>
	</station>
	<station code="KCTX" name="KCTX" netid="KO" source="Bogazici University Kandilli Observatory And Earthquake Research Institute (KOERI)" insttype="" lat="40.2626" lon="28.3353">
		<comp name=".HNE" depth="0.0">
			<acc value="0.02177421336663" flag="0"/>
			<vel value="0.00637277682182" flag="0"/>
			<psa03 value="0.0377325074059435" flag="0"/>
			<psa10 value="0.00334085092435288" flag="0"/>
			<psa30 value="0.000731418713317584" flag="0"/>
		</comp>
		<comp name=".HNN" depth="0.0">
			<acc value="0.030533918545608" flag="0"/>
			<vel value="0.00758413653775" flag="0"/>
			<psa03 value="0.0376858454606334" flag="0"/>
			<psa10 value="0.00555726626662894" flag="0"/>
			<psa30 value="0.000495211346989639" flag="0"/>
		</comp>
		<comp name=".HNZ" depth="0.0">
			<acc value="0.020463926613306" flag="0"/>
			<vel value="0.00489571573404" flag="0"/>
			<psa03 value="0.0293851783946843" flag="0"/>
			<psa10 value="0.00180589943666073" flag="0"/>
			<psa30 value="0.000690665440694793" flag="0"/>
		</comp>
	</station>
	<station code="KRBG" name="KRBG" netid="KO" source="Bogazici University Kandilli Observatory And Earthquake Research Institute (KOERI)" insttype="" lat="40.3932" lon="27.2977">
		<comp name=".HNE" depth="0.0">
			<acc value="0.014052402669444" flag="0"/>
			<vel value="0.00485945795753" flag="0"/>
			<psa03 value="0.0334627141363983" flag="0"/>
			<psa10 value="0.0032530512799307" flag="0"/>
			<psa30 value="0.000213937219166039" flag="0"/>
		</comp>
		<comp name=".HNN" depth="0.0">
			<acc value="0.014304880950576" flag="0"/>
			<vel value="0.00657909975394" flag="0"/>
			<psa03 value="0.0307231628629394" flag="0"/>
			<psa10 value="0.00833309421407662" flag="0"/>
			<psa30 value="0.000537037815701517" flag="0"/>
		</comp>
		<comp name=".HNZ" depth="0.0">
			<acc value="0.006142096481595" flag="0"/>
			<vel value="0.0022664137957" flag="0"/>
			<psa03 value="0.0136907728319204" flag="0"/>
			<psa10 value="0.00183872243133615" flag="0"/>
			<psa30 value="0.00021832424155526" flag="0"/>
		</comp>
	</station>
	<station code="ORLT" name="ORLT" netid="KO" source="Bogazici University Kandilli Observatory And Earthquake Research Institute (KOERI)" insttype="" lat="40.0452" lon="28.8914">
		<comp name=".HNE" depth="0.0">
			<acc value="0.055573562531598" flag="0"/>
			<vel value="0.0217946339455" flag="0"/>
			<psa03 value="0.144743067684389" flag="0"/>
			<psa10 value="0.0064218105696929" flag="0"/>
			<psa30 value="0.00158324477802812" flag="0"/>
		</comp>
		<comp name=".HNN" depth="0.0">
			<acc value="0.048914299911126" flag="0"/>
			<vel value="0.0205109154369" flag="0"/>
			<psa03 value="0.097955864095368" flag="0"/>
			<psa10 value="0.00841956556740277" flag="0"/>
			<psa30 value="0.00473963939452573" flag="0"/>
		</comp>
		<comp name=".HNZ" depth="0.0">
			<acc value="0.019494562569288" flag="0"/>
			<vel value="0.0104751811881" flag="0"/>
			<psa03 value="0.0427459124360601" flag="0"/>
			<psa10 value="0.00507562045368279" flag="0"/>
			<psa30 value="0.00426780813801104" flag="0"/>
		</comp>
	</station>
	<station code="OSMT" name="OSMT" netid="KO" source="Bogazici University Kandilli Observatory And Earthquake Research Institute (KOERI)" insttype="" lat="40.6009" lon="29.7">
		<comp name=".HNE" depth="0.0">
			<acc value="0.014336475308082" flag="0"/>
			<vel value="0.0073400832796" flag="0"/>
			<psa03 value="0.0344040889978886" flag="0"/>
			<psa10 value="0.00746403273677657" flag="0"/>
			<psa30 value="0.00168053413963813" flag="0"/>
		</comp>
		<comp name=".HNN" depth="0.0">
			<acc value="0.017285244619998" flag="0"/>
			<vel value="0.00923115223615" flag="0"/>
			<psa03 value="0.0506527304946275" flag="0"/>
			<psa10 value="0.0116890115271294" flag="0"/>
			<psa30 value="0.00133962134750852" flag="0"/>
		</comp>
		<comp name=".HNZ" depth="0.0">
			<acc value="0.013205694380328" flag="0"/>
			<vel value="0.00589660572224" flag="0"/>
			<psa03 value="0.0435692169759787" flag="0"/>
			<psa10 value="0.0063574666196951" flag="0"/>
			<psa30 value="0.00155103608186313" flag="0"/>
		</comp>
	</station>
	<station code="SHAP" name="SHAP" netid="KO" source="Bogazici University Kandilli Observatory And Earthquake Research Institute (KOERI)" insttype="" lat="39.0231" lon="29.222">
		<comp name=".HNE" depth="0.0">
			<acc value="0.013672030185648" flag="0"/>
			<vel value="0.00586299820617" flag="0"/>
			<psa03 value="0.0435166405763622" flag="0"/>
			<psa10 value="0.00409141603621909" flag="0"/>
			<psa30 value="0.00047380070988742" flag="0"/>
		</comp>
		<comp name=".HNN" depth="0.0">
			<acc value="0.01077615161703" flag="0"/>
			<vel value="0.00437612449014" flag="0"/>
			<psa03 value="0.0268394264178014" flag="0"/>
			<psa10 value="0.0055929151906805" flag="0"/>
			<psa30 value="0.000386629778992057" flag="0"/>
		</comp>
		<comp name=".HNZ" depth="0.0">
			<acc value="0.007129466433582" flag="0"/>
			<vel value="0.00411143286241" flag="0"/>
			<psa03 value="0.0204921114080722" flag="0"/>
			<psa10 value="0.00440622548455988" flag="0"/>
			<psa30 value="0.000379926808911485" flag="0"/>
		</comp>
	</station>
	<station code="SINB" name="SINB" netid="KO" source="Bogazici University Kandilli Observatory And Earthquake Research Institute (KOERI)" insttype="" lat="40.9998" lon="28.5392">
		<comp name=".HNE" depth="0.0">
			<acc value="0.055822672127274" flag="0"/>
			<vel value="0.0176056092777" flag="0"/>
			<psa03 value="0.123749416541722" flag="0"/>
			<psa10 value="0.00759341115122891" flag="0"/>
			<psa30 value="0.000702467941303103" flag="0"/>
		</comp>
		<comp name=".HNN" depth="0.0">
			<acc value="0.045078063407016" flag="0"/>
			<vel value="0.0178460622552" flag="0"/>
			<psa03 value="0.0925016069442858" flag="0"/>
			<psa10 value="0.0044033884216091" flag="0"/>
			<psa30 value="0.000635271146095955" flag="0"/>
		</comp>
		<comp name=".HNZ" depth="0.0">
			<acc value="0.02124965127084" flag="0"/>
			<vel value="0.00750389124018" flag="0"/>
			<psa03 value="0.0437332721146633" flag="0"/>
			<psa10 value="0.00208204276886456" flag="0"/>
			<psa30 value="0.00057825460861406" flag="0"/>
		</comp>
	</station>
	<station code="SMAA" name="SMAA" netid="KO" source="Bogazici University Kandilli Observatory And Earthquake Research Institute (KOERI)" insttype="" lat="39.1005" lon="28.9805">
		<comp name=".HNE" depth="0.0">
			<acc value="0.027321703136034" flag="0"/>
			<vel value="0.0242805510437" flag="0"/>
			<psa03 value="0.0594060499424809" flag="0"/>
			<psa10 value="0.0320535083876155" flag="0"/>
			<psa30 value="0.00185715511074296" flag="0"/>
		</comp>
		<comp name=".HNN" depth="0.0">
			<acc value="0.026276778051486" flag="0"/>
			<vel value="0.0223460931606" flag="0"/>
			<psa03 value="0.085319902024632" flag="0"/>
			<psa10 value="0.0236776566535381" flag="0"/>
			<psa30 value="0.00148327919746753" flag="0"/>
		</comp>
		<comp name=".HNZ" depth="0.0">
			<acc value="0.011694527195514" flag="0"/>
			<vel value="0.0127144307695" flag="0"/>
			<psa03 value="0.0256533270111651" flag="0"/>
			<psa10 value="0.0237661362649067" flag="0"/>
			<psa30 value="0.00113273055867555" flag="0"/>
		</comp>
	</station>
	<station code="SOMA" name="SOMA" netid="KO" source="Bogazici University Kandilli Observatory And Earthquake Research Institute (KOERI)" insttype="" lat="39.1564" lon="27.5341">
		<comp name=".HNE" depth="0.0">
			<acc value="0.0041281057602714" flag="0"/>
			<vel value="0.0024621100267" flag="0"/>
			<psa03 value="0.0105055572697306" flag="0"/>
			<psa10 value="0.00379071689764127" flag="0"/>
			<psa30 value="0.000424045903460095" flag="0"/>
		</comp>
		<comp name=".HNN" depth="0.0">
			<acc value="0.0048218449631394" flag="0"/>
			<vel value="0.00383692029889" flag="0"/>
			<psa03 value="0.0117557891799981" flag="0"/>
			<psa10 value="0.00336602915478577" flag="0"/>
			<psa30 value="0.000337850323634002" flag="0"/>
		</comp>
		<comp name=".HNZ" depth="0.0">
			<acc value="0.0027419021376528" flag="0"/>
			<vel value="0.00155418892998" flag="0"/>
			<psa03 value="0.00633697838748605" flag="0"/>
			<psa10 value="0.00226513739798566" flag="0"/>
			<psa30 value="0.000366124123718091" flag="0"/>
		</comp>
	</station>
	<station code="SUSR" name="SUSR" netid="KO" source="Bogazici University Kandilli Observatory And Earthquake Research Institute (KOERI)" insttype="" lat="39.9627" lon="28.0835">
		<comp name=".HNE" depth="0.0">
			<acc value="0.06576781581957" flag="0"/>
			<vel value="0.0173673869644" flag="0"/>
			<psa03 value="0.102947434345619" flag="0"/>
			<psa10 value="0.009613279957634" flag="0"/>
			<psa30 value="0.000608679384523" flag="0"/>
		</comp>
		<comp name=".HNN" depth="0.0">
			<acc value="0.05280070105278" flag="0"/>
			<vel value="0.0162655604515" flag="0"/>
			<psa03 value="0.0779189950845358" flag="0"/>
			<psa10 value="0.00794531665074245" flag="0"/>
			<psa30 value="0.000482032609376056" flag="0"/>
		</comp>
		<comp name=".HNZ" depth="0.0">
			<acc value="0.026709905129388" flag="0"/>
			<vel value="0.00865521748371" flag="0"/>
			<psa03 value="0.0604830275372801" flag="0"/>
			<psa10 value="0.00595415740247624" flag="0"/>
			<psa30 value="0.000516676727295736" flag="0"/>
		</comp>
	</station>
</stationlist>
