<?xml version="1.0" encoding="UTF-8" standalone="yes"?>
<!DOCTYPE earthquake SYSTEM "stationlist.dtd">
<stationlist created="" xmlns="ch.ethz.sed.shakemap.usgs.xml">
  <station code="CMRD" name="CMRD" netid="KO" insttype="CMG-5T" lat="37.6623" lon="34.9902">
    <comp name="--.HNN">
      <acc value="0.0144548607" flag="0"/>
      <vel value="0.0121290132" flag="0"/>
      <psa03 value="0.0510351520" flag="0"/>
      <psa10 value="0.0170949368" flag="0"/>
      <psa30 value="0.0022772823" flag="0"/>
    </comp>
    <comp name="--.HNZ">
      <acc value="0.0121985611" flag="0"/>
      <vel value="0.0101214802" flag="0"/>
      <psa03 value="0.0290167124" flag="0"/>
      <psa10 value="0.0196564433" flag="0"/>
      <psa30 value="0.0013309269" flag="0"/>
    </comp>
    <comp name="--.HNE">
      <acc value="0.0153392444" flag="0"/>
      <vel value="0.0125380415" flag="0"/>
      <psa03 value="0.0415233528" flag="0"/>
      <psa10 value="0.0139874041" flag="0"/>
      <psa30 value="0.0011807921" flag="0"/>
    </comp>
  </station>
</stationlist>
