<stationlist created="1778136498">
	<station code="AMYA" name="AMYA" netid="HL" source="National Observatory of Athens Seismic Network" insttype="" lat="40.6901" lon="21.67899">
		<comp name="00.HNE" depth="0.0">
			<acc value="0.00312771841840585" flag="0"/>
			<vel value="0.000565335048247255" flag="0"/>
			<psa03 value="0.00148409831422952" flag="0"/>
			<psa10 value="0.000342073988848063" flag="0"/>
			<psa30 value="0.000252785417668482" flag="0"/>
		</comp>
		<comp name="00.HNN" depth="0.0">
			<acc value="0.0033272461914799" flag="0"/>
			<vel value="0.000768756573266347" flag="0"/>
			<psa03 value="0.00309362453379587" flag="0"/>
			<psa10 value="0.000380803742004143" flag="0"/>
			<psa30 value="0.000295836420627656" flag="0"/>
		</comp>
		<comp name="00.HNZ" depth="0.0">
			<acc value="0.00654295657078288" flag="0"/>
			<vel value="0.000564439875080321" flag="0"/>
			<psa03 value="0.00220926419145316" flag="0"/>
			<psa10 value="0.000243638097836268" flag="0"/>
			<psa30 value="8.45202865542811e-05" flag="0"/>
		</comp>
	</station>
	<station code="ARTB" name="ARTB" netid="HL" source="National Observatory of Athens Seismic Network" insttype="" lat="39.15702" lon="20.9785">
		<comp name="00.HNE" depth="0.0">
			<acc value="0.0107913511586549" flag="0"/>
			<vel value="0.00239958737882578" flag="0"/>
			<psa03 value="0.00965832080594469" flag="0"/>
			<psa10 value="0.00169926709935758" flag="0"/>
			<psa30 value="0.000127907705028566" flag="0"/>
		</comp>
		<comp name="00.HNN" depth="0.0">
			<acc value="0.0118467734985022" flag="0"/>
			<vel value="0.00203139046826054" flag="0"/>
			<psa03 value="0.0107620553812726" flag="0"/>
			<psa10 value="0.00193130375970706" flag="0"/>
			<psa30 value="0.000175002947253017" flag="0"/>
		</comp>
		<comp name="00.HNZ" depth="0.0">
			<acc value="0.0302933379391385" flag="0"/>
			<vel value="0.00397743538829973" flag="0"/>
			<psa03 value="0.00363639812009266" flag="0"/>
			<psa10 value="0.00164039980124746" flag="0"/>
			<psa30 value="0.000134241067290959" flag="0"/>
		</comp>
	</station>
	<station code="NASA" name="NASA" netid="HL" source="National Observatory of Athens Seismic Network" insttype="" lat="40.63111" lon="22.06706">
		<comp name="00.HNE" depth="0.0">
			<acc value="0.00478003000585518" flag="0"/>
			<vel value="0.00165641084311466" flag="0"/>
			<psa03 value="0.00436057792938609" flag="0"/>
			<psa10 value="0.00334830126165198" flag="0"/>
			<psa30 value="0.000239245432169036" flag="0"/>
		</comp>
		<comp name="00.HNN" depth="0.0">
			<acc value="0.00398255750481698" flag="0"/>
			<vel value="0.00175242426667582" flag="0"/>
			<psa03 value="0.00440600704561285" flag="0"/>
			<psa10 value="0.00211121056046369" flag="0"/>
			<psa30 value="0.000157784514949702" flag="0"/>
		</comp>
		<comp name="00.HNZ" depth="0.0">
			<acc value="0.0112395992121849" flag="0"/>
			<vel value="0.00107851133648535" flag="0"/>
			<psa03 value="0.00331076261604524" flag="0"/>
			<psa10 value="0.00133138964334199" flag="0"/>
			<psa30 value="0.000135585622507061" flag="0"/>
		</comp>
	</station>
	<station code="PRGA" name="PRGA" netid="HL" source="National Observatory of Athens Seismic Network" insttype="" lat="39.28557" lon="20.40157">
		<comp name="00.HNE" depth="0.0">
			<acc value="0.0133247173500284" flag="0"/>
			<vel value="0.00324831013962504" flag="0"/>
			<psa03 value="0.0213924575098985" flag="0"/>
			<psa10 value="0.00172898734942625" flag="0"/>
			<psa30 value="0.000241813362698323" flag="0"/>
		</comp>
		<comp name="00.HNN" depth="0.0">
			<acc value="0.0109800731809894" flag="0"/>
			<vel value="0.00284661522428463" flag="0"/>
			<psa03 value="0.0203045729428749" flag="0"/>
			<psa10 value="0.00282445835650308" flag="0"/>
			<psa30 value="0.000280735472347163" flag="0"/>
		</comp>
		<comp name="00.HNZ" depth="0.0">
			<acc value="0.0270369141119759" flag="0"/>
			<vel value="0.00275667453600388" flag="0"/>
			<psa03 value="0.00320930146765865" flag="0"/>
			<psa10 value="0.00059974646854236" flag="0"/>
			<psa30 value="0.000229366105836962" flag="0"/>
		</comp>
	</station>
	<station code="TRKA" name="TRKA" netid="HL" source="National Observatory of Athens Seismic Network" insttype="" lat="39.55381" lon="21.76624">
		<comp name="00.HNE" depth="0.0">
			<acc value="0.00595081399608607" flag="0"/>
			<vel value="0.00111188386352955" flag="0"/>
			<psa03 value="0.00484246499526331" flag="0"/>
			<psa10 value="0.0021717672282946" flag="0"/>
			<psa30 value="0.000377769296195214" flag="0"/>
		</comp>
		<comp name="00.HNN" depth="0.0">
			<acc value="0.00381760005522865" flag="0"/>
			<vel value="0.00122333728198464" flag="0"/>
			<psa03 value="0.00364341323324572" flag="0"/>
			<psa10 value="0.00193946160481473" flag="0"/>
			<psa30 value="0.000211709701812096" flag="0"/>
		</comp>
		<comp name="00.HNZ" depth="0.0">
			<acc value="0.0107263368515406" flag="0"/>
			<vel value="0.00116023476855143" flag="0"/>
			<psa03 value="0.00348701550287293" flag="0"/>
			<psa10 value="0.000830426652315672" flag="0"/>
			<psa30 value="0.000122777768841269" flag="0"/>
		</comp>
	</station>
	<station code="MESG" name="MESG" netid="IV" source="Italian National Seismic Network (INSN)" insttype="" lat="40.589408" lon="17.850423">
		<comp name="--.HNE" depth="0.0">
			<acc value="0.00239808473334132" flag="0"/>
			<vel value="0.00123905591814452" flag="0"/>
			<psa03 value="0.00431322648529425" flag="0"/>
			<psa10 value="0.00159477545073503" flag="0"/>
			<psa30 value="0.000139542746626278" flag="0"/>
		</comp>
		<comp name="--.HNN" depth="0.0">
			<acc value="0.00242999535022899" flag="0"/>
			<vel value="0.000875286296259911" flag="0"/>
			<psa03 value="0.00376099524122885" flag="0"/>
			<psa10 value="0.00104146426533228" flag="0"/>
			<psa30 value="0.000113740998324439" flag="0"/>
		</comp>
		<comp name="--.HNZ" depth="0.0">
			<acc value="0.00167350970929155" flag="0"/>
			<vel value="0.000616723717371064" flag="0"/>
			<psa03 value="0.00223223299817801" flag="0"/>
			<psa10 value="0.000538495828954147" flag="0"/>
			<psa30 value="0.000111603408803161" flag="0"/>
		</comp>
	</station>
</stationlist>
