<?xml version="1.0" encoding="UTF-8" standalone="yes"?>
<!DOCTYPE earthquake SYSTEM "stationlist.dtd">
<stationlist created="" xmlns="ch.ethz.sed.shakemap.usgs.xml">
  <station code="VLO" name="VLO" netid="AC" insttype="" lat="40.4686" lon="19.4955">
    <comp name="--.HHE">
      <acc value="0.0307398622" flag="0"/>
      <vel value="0.0117854984" flag="0"/>
      <psa03 value="0.0589566283" flag="0"/>
      <psa10 value="0.0111002816" flag="0"/>
      <psa30 value="0.0009085782" flag="0"/>
    </comp>
    <comp name="--.HHN">
      <acc value="0.0381789048" flag="0"/>
      <vel value="0.0135253300" flag="0"/>
      <psa03 value="0.0633576784" flag="0"/>
      <psa10 value="0.0101648021" flag="0"/>
      <psa30 value="0.0007214057" flag="0"/>
    </comp>
    <comp name="--.HHZ">
      <acc value="0.0047022396" flag="0"/>
      <vel value="0.0003716947" flag="0"/>
      <psa03 value="0.0004093501" flag="0"/>
      <psa10 value="0.0000701016" flag="0"/>
      <psa30 value="0.0001757610" flag="0"/>
    </comp>
  </station>
</stationlist>
