<?xml version="1.0" encoding="UTF-8" standalone="yes"?>
<!DOCTYPE earthquake SYSTEM "stationlist.dtd">
<stationlist created="" xmlns="ch.ethz.sed.shakemap.usgs.xml">
  <station code="ARPRA" name="ARPRA" netid="KO" insttype="CMG-5T" lat="39.0929" lon="38.3356">
    <comp name="--.HNE">
      <acc value="0.0538527718" flag="0"/>
      <vel value="0.0243886882" flag="0"/>
      <psa03 value="0.1115004157" flag="0"/>
      <psa10 value="0.0127997849" flag="0"/>
      <psa30 value="0.0010439682" flag="0"/>
    </comp>
    <comp name="--.HNN">
      <acc value="0.0567825658" flag="0"/>
      <vel value="0.0256159664" flag="0"/>
      <psa03 value="0.1854791822" flag="0"/>
      <psa10 value="0.0169460524" flag="0"/>
      <psa30 value="0.0009330291" flag="0"/>
    </comp>
    <comp name="--.HNZ">
      <acc value="0.0244651365" flag="0"/>
      <vel value="0.0097648525" flag="0"/>
      <psa03 value="0.0633913631" flag="0"/>
      <psa10 value="0.0096843531" flag="0"/>
      <psa30 value="0.0006131729" flag="0"/>
    </comp>
  </station>
</stationlist>
