<stationlist created="1675692139">
	<station code="ARPRA" name="ARPRA" netid="KO" source="Bogazici University Kandilli Observatory And Earthquake Research Institute (KOERI)" insttype="" lat="39.0929" lon="38.3356">
		<comp name=".HNE" depth="0.0">
			<acc value="0.00922977159552" flag="0"/>
			<vel value="0.00762921355599" flag="0"/>
			<psa03 value="0.0318610064687" flag="0"/>
			<psa10 value="0.00615845312355" flag="0"/>
			<psa30 value="0.000891055903081" flag="0"/>
		</comp>
		<comp name=".HNN" depth="0.0">
			<acc value="0.0112892437494" flag="0"/>
			<vel value="0.00758080140754" flag="0"/>
			<psa03 value="0.0312158100817" flag="0"/>
			<psa10 value="0.0105695614316" flag="0"/>
			<psa30 value="0.000807517244054" flag="0"/>
		</comp>
		<comp name=".HNZ" depth="0.0">
			<acc value="0.00574337699544" flag="0"/>
			<vel value="0.00423047034013" flag="0"/>
			<psa03 value="0.0110283178115" flag="0"/>
			<psa10 value="0.00365012125575" flag="0"/>
			<psa30 value="0.000611795320104" flag="0"/>
		</comp>
	</station>
</stationlist>
