<?xml version="1.0" encoding="UTF-8" standalone="yes"?>
<!DOCTYPE earthquake SYSTEM "stationlist.dtd">
<stationlist created="" xmlns="ch.ethz.sed.shakemap.usgs.xml">
  <station code="PUK" name="PUK" netid="AC" insttype="" lat="42.0426" lon="19.8926">
    <comp name="--.HHN">
      <acc value="0.0087416839" flag="0"/>
      <vel value="0.0034393682" flag="0"/>
      <psa03 value="0.0177262574" flag="0"/>
      <psa10 value="0.0029024043" flag="0"/>
      <psa30 value="0.0002103792" flag="0"/>
    </comp>
    <comp name="--.HHE">
      <acc value="0.0084778488" flag="0"/>
      <vel value="0.0041533182" flag="0"/>
      <psa03 value="0.0093273887" flag="0"/>
      <psa10 value="0.0057647210" flag="0"/>
      <psa30 value="0.0006737657" flag="0"/>
    </comp>
    <comp name="--.HHZ">
      <acc value="0.0041606162" flag="0"/>
      <vel value="0.0017270099" flag="0"/>
      <psa03 value="0.0062472150" flag="0"/>
      <psa10 value="0.0022788059" flag="0"/>
      <psa30 value="0.0000903521" flag="0"/>
    </comp>
  </station>
  <station code="TIR" name="TIR" netid="MN" insttype="" lat="41.3472" lon="19.8631">
    <comp name="--.HHE">
      <acc value="0.1005223723" flag="0"/>
      <vel value="0.0376394067" flag="0"/>
      <psa03 value="0.1975163161" flag="0"/>
      <psa10 value="0.0248258518" flag="0"/>
      <psa30 value="0.0017877609" flag="0"/>
    </comp>
    <comp name="--.HHN">
      <acc value="0.1467235795" flag="0"/>
      <vel value="0.0360326267" flag="0"/>
      <psa03 value="0.2784315710" flag="0"/>
      <psa10 value="0.0329340630" flag="0"/>
      <psa30 value="0.0022801575" flag="0"/>
    </comp>
    <comp name="--.HHZ">
      <acc value="0.0885960054" flag="0"/>
      <vel value="0.0270482005" flag="0"/>
      <psa03 value="0.1392066001" flag="0"/>
      <psa10 value="0.0335657174" flag="0"/>
      <psa30 value="0.0020598469" flag="0"/>
    </comp>
  </station>
</stationlist>
