<?xml version="1.0" encoding="UTF-8" standalone="yes"?>
<!DOCTYPE earthquake SYSTEM "stationlist.dtd">
<stationlist created="" xmlns="ch.ethz.sed.shakemap.usgs.xml">
  <station code="PUK" name="PUK" netid="AC" insttype="" lat="42.0426" lon="19.8926">
    <comp name="--.HHE">
      <acc value="0.0084778493" flag="0"/>
      <vel value="0.0041533139" flag="0"/>
      <psa03 value="0.0093273888" flag="0"/>
      <psa10 value="0.0057647208" flag="0"/>
      <psa30 value="0.0006737256" flag="0"/>
    </comp>
    <comp name="--.HHN">
      <acc value="0.0087416836" flag="0"/>
      <vel value="0.0034393681" flag="0"/>
      <psa03 value="0.0177262574" flag="0"/>
      <psa10 value="0.0029024043" flag="0"/>
      <psa30 value="0.0002103962" flag="0"/>
    </comp>
    <comp name="--.HHZ">
      <acc value="0.0041606163" flag="0"/>
      <vel value="0.0017270098" flag="0"/>
      <psa03 value="0.0062472150" flag="0"/>
      <psa10 value="0.0022788059" flag="0"/>
      <psa30 value="0.0000903405" flag="0"/>
    </comp>
  </station>
  <station code="LMS2" name="LMS2" netid="HI" insttype="CMG-5TD,ACCELEROMETER,GURALP" lat="40.835" lon="21.1418">
    <comp name="--.HNE">
      <acc value="0.0099821955" flag="0"/>
      <vel value="0.0028793839" flag="0"/>
      <psa03 value="0.0117627206" flag="0"/>
      <psa10 value="0.0018608158" flag="0"/>
      <psa30 value="0.0002084218" flag="0"/>
    </comp>
    <comp name="--.HNZ">
      <acc value="0.0060992158" flag="0"/>
      <vel value="0.0015655188" flag="0"/>
      <psa03 value="0.0053405184" flag="0"/>
      <psa10 value="0.0014614062" flag="0"/>
      <psa30 value="0.0001560953" flag="0"/>
    </comp>
    <comp name="--.HNN">
      <acc value="0.0118144152" flag="0"/>
      <vel value="0.0035591464" flag="0"/>
      <psa03 value="0.0155360456" flag="0"/>
      <psa10 value="0.0014375271" flag="0"/>
      <psa30 value="0.0002412116" flag="0"/>
    </comp>
  </station>
  <station code="TIR" name="TIR" netid="MN" insttype="" lat="41.3472" lon="19.8631">
    <comp name="--.HHE">
      <acc value="0.1005223722" flag="0"/>
      <vel value="0.0376394013" flag="0"/>
      <psa03 value="0.1975163161" flag="0"/>
      <psa10 value="0.0248258516" flag="0"/>
      <psa30 value="0.0017872749" flag="0"/>
    </comp>
    <comp name="--.HHN">
      <acc value="0.1467235791" flag="0"/>
      <vel value="0.0360326285" flag="0"/>
      <psa03 value="0.2784315710" flag="0"/>
      <psa10 value="0.0329340630" flag="0"/>
      <psa30 value="0.0022797094" flag="0"/>
    </comp>
    <comp name="--.HHZ">
      <acc value="0.0885960051" flag="0"/>
      <vel value="0.0270482021" flag="0"/>
      <psa03 value="0.1392066001" flag="0"/>
      <psa10 value="0.0335657176" flag="0"/>
      <psa30 value="0.0020597764" flag="0"/>
    </comp>
  </station>
</stationlist>
