<stationlist created="1778069787">
	<station code="ARG2" name="ARG2" netid="HI" source="ITSAK Strong Motion Network" insttype="" lat="38.1783" lon="20.4878">
		<comp name="--.HNE" depth="0.0">
			<acc value="0.0534444358171383" flag="0"/>
			<vel value="0.0260156078756269" flag="0"/>
			<psa03 value="0.189214791788671" flag="0"/>
			<psa10 value="0.0187608546571075" flag="0"/>
			<psa30 value="0.00200713538889567" flag="0"/>
		</comp>
		<comp name="--.HNN" depth="0.0">
			<acc value="0.0526872158835596" flag="0"/>
			<vel value="0.0360443079240045" flag="0"/>
			<psa03 value="0.141519599533594" flag="0"/>
			<psa10 value="0.0226869832878609" flag="0"/>
			<psa30 value="0.0024567945654093" flag="0"/>
		</comp>
		<comp name="--.HNZ" depth="0.0">
			<acc value="0.0288142318327344" flag="0"/>
			<vel value="0.0158652969816891" flag="0"/>
			<psa03 value="0.116553448240598" flag="0"/>
			<psa10 value="0.0160991407853865" flag="0"/>
			<psa30 value="0.00204292915419029" flag="0"/>
		</comp>
	</station>
	<station code="ART2" name="ART2" netid="HI" source="ITSAK Strong Motion Network" insttype="" lat="39.1474" lon="20.9937">
		<comp name="--.HNE" depth="0.0">
			<acc value="0.0411593636927685" flag="0"/>
			<vel value="0.0265962019139833" flag="0"/>
			<psa03 value="0.152168244708742" flag="0"/>
			<psa10 value="0.0289526819026837" flag="0"/>
			<psa30 value="0.00292256093630551" flag="0"/>
		</comp>
		<comp name="--.HNN" depth="0.0">
			<acc value="0.0373331169693982" flag="0"/>
			<vel value="0.0224788183346282" flag="0"/>
			<psa03 value="0.146396500054985" flag="0"/>
			<psa10 value="0.0177259674180269" flag="0"/>
			<psa30 value="0.00192928394937988" flag="0"/>
		</comp>
		<comp name="--.HNZ" depth="0.0">
			<acc value="0.0225690126976304" flag="0"/>
			<vel value="0.0149628509527669" flag="0"/>
			<psa03 value="0.0563751803390224" flag="0"/>
			<psa10 value="0.017826637382918" flag="0"/>
			<psa30 value="0.00213465067775774" flag="0"/>
		</comp>
	</station>
	<station code="KRK1" name="KRK1" netid="HI" source="ITSAK Strong Motion Network" insttype="" lat="39.618861" lon="19.9202">
		<comp name="--.HNE" depth="0.0">
			<acc value="0.478506985476314" flag="0"/>
			<vel value="0.188920746541425" flag="0"/>
			<psa03 value="1.07188904395394" flag="0"/>
			<psa10 value="0.081828574262091" flag="0"/>
			<psa30 value="0.0111703393043177" flag="0"/>
		</comp>
		<comp name="--.HNN" depth="0.0">
			<acc value="0.439956150082066" flag="0"/>
			<vel value="0.195993897634483" flag="0"/>
			<psa03 value="0.724152614116728" flag="0"/>
			<psa10 value="0.169882579153048" flag="0"/>
			<psa30 value="0.0154360612833038" flag="0"/>
		</comp>
		<comp name="--.HNZ" depth="0.0">
			<acc value="0.246379916540064" flag="0"/>
			<vel value="0.0897918268140652" flag="0"/>
			<psa03 value="0.581290748384587" flag="0"/>
			<psa10 value="0.0584932764003314" flag="0"/>
			<psa30 value="0.0105421587233972" flag="0"/>
		</comp>
	</station>
	<station code="LMS2" name="LMS2" netid="HI" source="ITSAK Strong Motion Network" insttype="" lat="40.834985" lon="21.141815">
		<comp name="--.HNE" depth="0.0">
			<acc value="0.00815807979067685" flag="0"/>
			<vel value="0.00660033409589538" flag="0"/>
			<psa03 value="0.0197760553252761" flag="0"/>
			<psa10 value="0.00848849143961852" flag="0"/>
			<psa30 value="0.000935112118321879" flag="0"/>
		</comp>
		<comp name="--.HNN" depth="0.0">
			<acc value="0.0127025322420099" flag="0"/>
			<vel value="0.00790910676704455" flag="0"/>
			<psa03 value="0.0361517029475636" flag="0"/>
			<psa10 value="0.0095918342548251" flag="0"/>
			<psa30 value="0.00161966787958144" flag="0"/>
		</comp>
		<comp name="--.HNZ" depth="0.0">
			<acc value="0.00613958045965985" flag="0"/>
			<vel value="0.00456587622654953" flag="0"/>
			<psa03 value="0.014988639217121" flag="0"/>
			<psa10 value="0.00645898494741371" flag="0"/>
			<psa30 value="0.00106083771891922" flag="0"/>
		</comp>
	</station>
	<station code="MSL1" name="MSL1" netid="HI" source="ITSAK Strong Motion Network" insttype="" lat="38.3727" lon="21.4243">
		<comp name="--.HNE" depth="0.0">
			<acc value="0.037373355182778" flag="0"/>
			<vel value="0.040383533637419" flag="0"/>
			<psa03 value="0.0900213197159628" flag="0"/>
			<psa10 value="0.0731025017053295" flag="0"/>
			<psa30 value="0.00664511252694572" flag="0"/>
		</comp>
		<comp name="--.HNN" depth="0.0">
			<acc value="0.031604154888878" flag="0"/>
			<vel value="0.0329967522193222" flag="0"/>
			<psa03 value="0.10899201532211" flag="0"/>
			<psa10 value="0.0561859208050271" flag="0"/>
			<psa30 value="0.00578203536127926" flag="0"/>
		</comp>
		<comp name="--.HNZ" depth="0.0">
			<acc value="0.0214243440523932" flag="0"/>
			<vel value="0.022395207645647" flag="0"/>
			<psa03 value="0.0364201561872732" flag="0"/>
			<psa10 value="0.0575026839458029" flag="0"/>
			<psa30 value="0.00186843454837903" flag="0"/>
		</comp>
	</station>
	<station code="VAS2" name="VAS2" netid="HI" source="ITSAK Strong Motion Network" insttype="" lat="38.630558" lon="20.608081">
		<comp name="--.HNE" depth="0.0">
			<acc value="0.113754744671286" flag="0"/>
			<vel value="0.108170010405104" flag="0"/>
			<psa03 value="0.37798216151116" flag="0"/>
			<psa10 value="0.152744524329986" flag="0"/>
			<psa30 value="0.00809118064484826" flag="0"/>
		</comp>
		<comp name="--.HNN" depth="0.0">
			<acc value="0.184328288964018" flag="0"/>
			<vel value="0.127252094124968" flag="0"/>
			<psa03 value="0.643750868823694" flag="0"/>
			<psa10 value="0.145403670490126" flag="0"/>
			<psa30 value="0.00838200498786703" flag="0"/>
		</comp>
		<comp name="--.HNZ" depth="0.0">
			<acc value="0.0735169198915464" flag="0"/>
			<vel value="0.0596161304480422" flag="0"/>
			<psa03 value="0.224292681777396" flag="0"/>
			<psa10 value="0.0584087136298229" flag="0"/>
			<psa30 value="0.00371673510377983" flag="0"/>
		</comp>
	</station>
	<station code="JAN" name="JAN" netid="HL" source="National Observatory of Athens Seismic Network" insttype="" lat="39.65616" lon="20.84874">
		<comp name="00.HNE" depth="0.0">
			<acc value="0.314979111577312" flag="0"/>
			<vel value="0.137804127231746" flag="0"/>
			<psa03 value="0.904463706788364" flag="0"/>
			<psa10 value="0.0581308645267234" flag="0"/>
			<psa30 value="0.00931577483999036" flag="0"/>
		</comp>
		<comp name="00.HNN" depth="0.0">
			<acc value="0.257880793480281" flag="0"/>
			<vel value="0.121444822864959" flag="0"/>
			<psa03 value="0.596010934361998" flag="0"/>
			<psa10 value="0.0965424963305759" flag="0"/>
			<psa30 value="0.0117765962039953" flag="0"/>
		</comp>
		<comp name="00.HNZ" depth="0.0">
			<acc value="0.112376351365224" flag="0"/>
			<vel value="0.0518551771157724" flag="0"/>
			<psa03 value="0.36710980530292" flag="0"/>
			<psa10 value="0.0307486340763411" flag="0"/>
			<psa30 value="0.0044451382275253" flag="0"/>
		</comp>
	</station>
	<station code="ANX" name="ANX" netid="HP" source="University of Patras, Seismological Laboratory (PSLNET)" insttype="" lat="38.5933" lon="21.9209">
		<comp name="--.HNE" depth="0.0">
			<acc value="0.0154456896994419" flag="0"/>
			<vel value="0.0121112775018257" flag="0"/>
			<psa03 value="0.0549434297272377" flag="0"/>
			<psa10 value="0.0179635485351699" flag="0"/>
			<psa30 value="0.00227693089480385" flag="0"/>
		</comp>
		<comp name="--.HNN" depth="0.0">
			<acc value="0.0212772681220496" flag="0"/>
			<vel value="0.0148589501903523" flag="0"/>
			<psa03 value="0.0451448864778362" flag="0"/>
			<psa10 value="0.0192964188703282" flag="0"/>
			<psa30 value="0.00167828017025137" flag="0"/>
		</comp>
		<comp name="--.HNZ" depth="0.0">
			<acc value="0.00858048558477499" flag="0"/>
			<vel value="0.00847177691591784" flag="0"/>
			<psa03 value="0.0240713071606302" flag="0"/>
			<psa10 value="0.01021598803715" flag="0"/>
			<psa30 value="0.00133555486755541" flag="0"/>
		</comp>
	</station>
	<station code="PDO" name="PDO" netid="HP" source="University of Patras, Seismological Laboratory (PSLNET)" insttype="" lat="38.5986" lon="21.1833">
		<comp name="--.HNE" depth="0.0">
			<acc value="0.0311448947929369" flag="0"/>
			<vel value="0.0151593217631591" flag="0"/>
			<psa03 value="0.11521118204205" flag="0"/>
			<psa10 value="0.014021312710034" flag="0"/>
			<psa30 value="0.00356863839987335" flag="0"/>
		</comp>
		<comp name="--.HNN" depth="0.0">
			<acc value="0.0331633598071233" flag="0"/>
			<vel value="0.0202699277111298" flag="0"/>
			<psa03 value="0.12322003702672" flag="0"/>
			<psa10 value="0.015889747258413" flag="0"/>
			<psa30 value="0.00301965152466716" flag="0"/>
		</comp>
		<comp name="--.HNZ" depth="0.0">
			<acc value="0.0165980288162665" flag="0"/>
			<vel value="0.00791970108451058" flag="0"/>
			<psa03 value="0.0569120868184417" flag="0"/>
			<psa10 value="0.00833949989157967" flag="0"/>
			<psa30 value="0.00180579545911345" flag="0"/>
		</comp>
	</station>
	<station code="PVO" name="PVO" netid="HP" source="University of Patras, Seismological Laboratory (PSLNET)" insttype="" lat="38.616" lon="21.525">
		<comp name="--.HNE" depth="0.0">
			<acc value="0.00860648832690039" flag="0"/>
			<vel value="0.00950002924305329" flag="0"/>
			<psa03 value="0.0298877940210055" flag="0"/>
			<psa10 value="0.0135542040729392" flag="0"/>
			<psa30 value="0.00313105961914666" flag="0"/>
		</comp>
		<comp name="--.HNN" depth="0.0">
			<acc value="0.015059308547188" flag="0"/>
			<vel value="0.0170087553593795" flag="0"/>
			<psa03 value="0.0469793169491853" flag="0"/>
			<psa10 value="0.0200856713950746" flag="0"/>
			<psa30 value="0.00456370507506372" flag="0"/>
		</comp>
		<comp name="--.HNZ" depth="0.0">
			<acc value="0.00761264593955274" flag="0"/>
			<vel value="0.00896518032487479" flag="0"/>
			<psa03 value="0.0333776861372307" flag="0"/>
			<psa10 value="0.0122213337377809" flag="0"/>
			<psa30 value="0.00293016711143062" flag="0"/>
		</comp>
	</station>
	<station code="SERG" name="SERG" netid="HP" source="University of Patras, Seismological Laboratory (PSLNET)" insttype="" lat="38.4133" lon="22.0566">
		<comp name="--.HNE" depth="0.0">
			<acc value="0.00778707673270526" flag="0"/>
			<vel value="0.0077694761661793" flag="0"/>
			<psa03 value="0.024205533780485" flag="0"/>
			<psa10 value="0.0113314112481435" flag="0"/>
			<psa30 value="0.00127873226515021" flag="0"/>
		</comp>
		<comp name="--.HNN" depth="0.0">
			<acc value="0.00870989156063564" flag="0"/>
			<vel value="0.00798978607508485" flag="0"/>
			<psa03 value="0.027337488243764" flag="0"/>
			<psa10 value="0.0112186608874655" flag="0"/>
			<psa30 value="0.00151586596022705" flag="0"/>
		</comp>
		<comp name="--.HNZ" depth="0.0">
			<acc value="0.00504489972166264" flag="0"/>
			<vel value="0.00471490074396637" flag="0"/>
			<psa03 value="0.0131542087457719" flag="0"/>
			<psa10 value="0.00641469016286162" flag="0"/>
			<psa30 value="0.00134584557507761" flag="0"/>
		</comp>
	</station>
</stationlist>
