<?xml version="1.0" encoding="UTF-8" standalone="yes"?>
<!DOCTYPE earthquake SYSTEM "stationlist.dtd">
<stationlist created="" xmlns="ch.ethz.sed.shakemap.usgs.xml">
  <station code="KBN" name="KBN" netid="AC" insttype="" lat="40.6236" lon="20.7874">
    <comp name="--.HHE">
      <acc value="0.0082516315" flag="0"/>
      <vel value="0.0085184092" flag="0"/>
      <psa03 value="0.0248362025" flag="0"/>
      <psa10 value="0.0089796444" flag="0"/>
      <psa30 value="0.0017147924" flag="0"/>
    </comp>
    <comp name="--.HHN">
      <acc value="0.0100470161" flag="0"/>
      <vel value="0.0091327700" flag="0"/>
      <psa03 value="0.0218547210" flag="0"/>
      <psa10 value="0.0191656203" flag="0"/>
      <psa30 value="0.0019353847" flag="0"/>
    </comp>
    <comp name="--.HHZ">
      <acc value="0.0070037686" flag="0"/>
      <vel value="0.0075418697" flag="0"/>
      <psa03 value="0.0149294166" flag="0"/>
      <psa10 value="0.0138327532" flag="0"/>
      <psa30 value="0.0011897949" flag="0"/>
    </comp>
  </station>
  <station code="VLO" name="VLO" netid="AC" insttype="" lat="40.4686" lon="19.4955">
    <comp name="--.HHE">
      <acc value="0.0383444063" flag="0"/>
      <vel value="0.0214663020" flag="0"/>
      <psa03 value="0.1084017862" flag="0"/>
      <psa10 value="0.0288013121" flag="0"/>
      <psa30 value="0.0030793596" flag="0"/>
    </comp>
    <comp name="--.HHN">
      <acc value="0.0370442713" flag="0"/>
      <vel value="0.0235218894" flag="0"/>
      <psa03 value="0.1359850320" flag="0"/>
      <psa10 value="0.0282183424" flag="0"/>
      <psa30 value="0.0025651057" flag="0"/>
    </comp>
    <comp name="--.HHZ">
      <acc value="0.0170544631" flag="0"/>
      <vel value="0.0103378622" flag="0"/>
      <psa03 value="0.0606517021" flag="0"/>
      <psa10 value="0.0119278572" flag="0"/>
      <psa30 value="0.0031688341" flag="0"/>
    </comp>
  </station>
  <station code="ART2" name="ART2" netid="HI" insttype="CMG-5TD,ACCELEROMETER,GURALP" lat="39.1474" lon="20.9937">
    <comp name="--.HNE">
      <acc value="0.0408921612" flag="0"/>
      <vel value="0.0257990447" flag="0"/>
      <psa03 value="0.1526490471" flag="0"/>
      <psa10 value="0.0288689419" flag="0"/>
      <psa30 value="0.0025191253" flag="0"/>
    </comp>
    <comp name="--.HNZ">
      <acc value="0.0226316856" flag="0"/>
      <vel value="0.0143042752" flag="0"/>
      <psa03 value="0.0567692227" flag="0"/>
      <psa10 value="0.0178403603" flag="0"/>
      <psa30 value="0.0018385019" flag="0"/>
    </comp>
    <comp name="--.HNN">
      <acc value="0.0375268976" flag="0"/>
      <vel value="0.0228888041" flag="0"/>
      <psa03 value="0.1469032789" flag="0"/>
      <psa10 value="0.0177653443" flag="0"/>
      <psa30 value="0.0017695908" flag="0"/>
    </comp>
  </station>
  <station code="KRK1" name="KRK1" netid="HI" insttype="CMG-5TD,ACCELEROMETER,GURALP" lat="39.6189" lon="19.9202">
    <comp name="--.HNN">
      <acc value="0.4398764417" flag="0"/>
      <vel value="0.1942533343" flag="0"/>
      <psa03 value="0.7242236455" flag="0"/>
      <psa10 value="0.1700040079" flag="0"/>
      <psa30 value="0.0138321472" flag="0"/>
    </comp>
    <comp name="--.HNE">
      <acc value="0.4753632195" flag="0"/>
      <vel value="0.1856255929" flag="0"/>
      <psa03 value="1.0702131605" flag="0"/>
      <psa10 value="0.0814669688" flag="0"/>
      <psa30 value="0.0106683346" flag="0"/>
    </comp>
    <comp name="--.HNZ">
      <acc value="0.2482037368" flag="0"/>
      <vel value="0.0849391348" flag="0"/>
      <psa03 value="0.5708119286" flag="0"/>
      <psa10 value="0.0589043768" flag="0"/>
      <psa30 value="0.0095619036" flag="0"/>
    </comp>
  </station>
  <station code="LMS2" name="LMS2" netid="HI" insttype="CMG-5TD,ACCELEROMETER,GURALP" lat="40.835" lon="21.1418">
    <comp name="--.HNE">
      <acc value="0.0081441786" flag="0"/>
      <vel value="0.0066623017" flag="0"/>
      <psa03 value="0.0197753999" flag="0"/>
      <psa10 value="0.0084576784" flag="0"/>
      <psa30 value="0.0009128901" flag="0"/>
    </comp>
    <comp name="--.HNN">
      <acc value="0.0127248326" flag="0"/>
      <vel value="0.0079950145" flag="0"/>
      <psa03 value="0.0360884917" flag="0"/>
      <psa10 value="0.0095429007" flag="0"/>
      <psa30 value="0.0014276808" flag="0"/>
    </comp>
    <comp name="--.HNZ">
      <acc value="0.0060824872" flag="0"/>
      <vel value="0.0046746282" flag="0"/>
      <psa03 value="0.0147958172" flag="0"/>
      <psa10 value="0.0064645309" flag="0"/>
      <psa30 value="0.0010074533" flag="0"/>
    </comp>
  </station>
  <station code="JAN" name="JAN" netid="HL" insttype="CMG3EPSC60_DR24" lat="39.6562" lon="20.8487">
    <comp name="--.HHN">
      <acc value="0.2572191107" flag="0"/>
      <vel value="0.1234886192" flag="0"/>
      <psa03 value="0.5904059207" flag="0"/>
      <psa10 value="0.0968012507" flag="0"/>
      <psa30 value="0.0111281926" flag="0"/>
    </comp>
    <comp name="--.HHE">
      <acc value="0.3073454084" flag="0"/>
      <vel value="0.1419327404" flag="0"/>
      <psa03 value="0.8804188715" flag="0"/>
      <psa10 value="0.0576871342" flag="0"/>
      <psa30 value="0.0078409414" flag="0"/>
    </comp>
    <comp name="--.HHZ">
      <acc value="0.1143328028" flag="0"/>
      <vel value="0.0521457767" flag="0"/>
      <psa03 value="0.3682479896" flag="0"/>
      <psa10 value="0.0308058400" flag="0"/>
      <psa30 value="0.0040635732" flag="0"/>
    </comp>
  </station>
  <station code="KEK" name="KEK" netid="HL" insttype="120" lat="39.7127" lon="19.7962">
    <comp name="--.HHE">
      <acc value="0.0924797388" flag="0"/>
      <vel value="0.0552040155" flag="0"/>
      <psa03 value="0.2155307262" flag="0"/>
      <psa10 value="0.0763190587" flag="0"/>
      <psa30 value="0.0044645574" flag="0"/>
    </comp>
    <comp name="--.HHZ">
      <acc value="0.0623458093" flag="0"/>
      <vel value="0.0390397749" flag="0"/>
      <psa03 value="0.1277430769" flag="0"/>
      <psa10 value="0.0480492955" flag="0"/>
      <psa30 value="0.0050246548" flag="0"/>
    </comp>
    <comp name="--.HHN">
      <acc value="0.0693927127" flag="0"/>
      <vel value="0.0425326218" flag="0"/>
      <psa03 value="0.1958408871" flag="0"/>
      <psa10 value="0.0843062262" flag="0"/>
      <psa30 value="0.0074064475" flag="0"/>
    </comp>
  </station>
  <station code="KZN" name="KZN" netid="HL" insttype="120" lat="40.3033" lon="21.7821">
    <comp name="--.HHE">
      <acc value="0.0134323879" flag="0"/>
      <vel value="0.0096121724" flag="0"/>
      <psa03 value="0.0412725963" flag="0"/>
      <psa10 value="0.0081926794" flag="0"/>
      <psa30 value="0.0008927246" flag="0"/>
    </comp>
    <comp name="--.HHN">
      <acc value="0.0078573414" flag="0"/>
      <vel value="0.0057813838" flag="0"/>
      <psa03 value="0.0237098872" flag="0"/>
      <psa10 value="0.0108636277" flag="0"/>
      <psa30 value="0.0005434361" flag="0"/>
    </comp>
    <comp name="--.HHZ">
      <acc value="0.0056183982" flag="0"/>
      <vel value="0.0047523224" flag="0"/>
      <psa03 value="0.0227845920" flag="0"/>
      <psa10 value="0.0055830095" flag="0"/>
      <psa30 value="0.0007550341" flag="0"/>
    </comp>
  </station>
  <station code="TETR" name="TETR" netid="HL" insttype="60" lat="39.3445" lon="21.2747">
    <comp name="--.HHE">
      <acc value="0.0877465868" flag="0"/>
      <vel value="0.0488773830" flag="0"/>
      <psa03 value="0.3001540637" flag="0"/>
      <psa10 value="0.0567169178" flag="0"/>
      <psa30 value="0.0057671584" flag="0"/>
    </comp>
    <comp name="--.HHZ">
      <acc value="0.0307434279" flag="0"/>
      <vel value="0.0214293907" flag="0"/>
      <psa03 value="0.0814065306" flag="0"/>
      <psa10 value="0.0259191728" flag="0"/>
      <psa30 value="0.0030647952" flag="0"/>
    </comp>
    <comp name="--.HHN">
      <acc value="0.0864911146" flag="0"/>
      <vel value="0.0449595160" flag="0"/>
      <psa03 value="0.2394562990" flag="0"/>
      <psa10 value="0.0435449751" flag="0"/>
      <psa30 value="0.0062515140" flag="0"/>
    </comp>
  </station>
  <station code="THL" name="THL" netid="HL" insttype="120" lat="39.5647" lon="22.0144">
    <comp name="--.HHE">
      <acc value="0.0127581207" flag="0"/>
      <vel value="0.0085044291" flag="0"/>
      <psa03 value="0.0382115920" flag="0"/>
      <psa10 value="0.0087168843" flag="0"/>
      <psa30 value="0.0011674353" flag="0"/>
    </comp>
    <comp name="--.HHZ">
      <acc value="0.0073966580" flag="0"/>
      <vel value="0.0048473816" flag="0"/>
      <psa03 value="0.0134034803" flag="0"/>
      <psa10 value="0.0057258285" flag="0"/>
      <psa30 value="0.0012067393" flag="0"/>
    </comp>
    <comp name="--.HHN">
      <acc value="0.0125993929" flag="0"/>
      <vel value="0.0107666203" flag="0"/>
      <psa03 value="0.0222241136" flag="0"/>
      <psa10 value="0.0118510391" flag="0"/>
      <psa30 value="0.0012475291" flag="0"/>
    </comp>
  </station>
  <station code="AMPL" name="AMPL" netid="HP" insttype="Compact," lat="38.9224" lon="21.2135">
    <comp name="--.HHN">
      <acc value="0.0241353804" flag="0"/>
      <vel value="0.0181091753" flag="0"/>
      <psa03 value="0.0835763035" flag="0"/>
      <psa10 value="0.0243770103" flag="0"/>
      <psa30 value="0.0020669737" flag="0"/>
    </comp>
    <comp name="--.HHE">
      <acc value="0.0290163865" flag="0"/>
      <vel value="0.0164544153" flag="0"/>
      <psa03 value="0.0893182279" flag="0"/>
      <psa10 value="0.0191042593" flag="0"/>
      <psa30 value="0.0030082820" flag="0"/>
    </comp>
    <comp name="--.HHZ">
      <acc value="0.0209638405" flag="0"/>
      <vel value="0.0146623343" flag="0"/>
      <psa03 value="0.0550235874" flag="0"/>
      <psa10 value="0.0226114718" flag="0"/>
      <psa30 value="0.0012334457" flag="0"/>
    </comp>
  </station>
  <station code="FSK" name="FSK" netid="HP" insttype="40," lat="38.4593" lon="20.5623">
    <comp name="--.HHE">
      <acc value="0.0631340016" flag="0"/>
      <vel value="0.0361733373" flag="0"/>
      <psa03 value="0.2563676286" flag="0"/>
      <psa10 value="0.0351260817" flag="0"/>
      <psa30 value="0.0038281932" flag="0"/>
    </comp>
    <comp name="--.HHZ">
      <acc value="0.0211492207" flag="0"/>
      <vel value="0.0123140872" flag="0"/>
      <psa03 value="0.0687592030" flag="0"/>
      <psa10 value="0.0160884276" flag="0"/>
      <psa30 value="0.0020633541" flag="0"/>
    </comp>
    <comp name="--.HHN">
      <acc value="0.0293474367" flag="0"/>
      <vel value="0.0201430324" flag="0"/>
      <psa03 value="0.0728109184" flag="0"/>
      <psa10 value="0.0309307253" flag="0"/>
      <psa30 value="0.0028141498" flag="0"/>
    </comp>
  </station>
  <station code="PRMD" name="PRMD" netid="HP" insttype="120P," lat="39.5299" lon="21.0965">
    <comp name="--.HHN">
      <acc value="0.0796295577" flag="0"/>
      <vel value="0.0477583469" flag="0"/>
      <psa03 value="0.1387674133" flag="0"/>
      <psa10 value="0.0466742271" flag="0"/>
      <psa30 value="0.0052819844" flag="0"/>
    </comp>
    <comp name="--.HHE">
      <acc value="0.1048188642" flag="0"/>
      <vel value="0.0605347184" flag="0"/>
      <psa03 value="0.2402964617" flag="0"/>
      <psa10 value="0.0458871451" flag="0"/>
      <psa30 value="0.0049240966" flag="0"/>
    </comp>
    <comp name="--.HHZ">
      <acc value="0.0387870705" flag="0"/>
      <vel value="0.0335092024" flag="0"/>
      <psa03 value="0.1101618750" flag="0"/>
      <psa10 value="0.0442293103" flag="0"/>
      <psa30 value="0.0035786729" flag="0"/>
    </comp>
  </station>
  <station code="DRAG" name="DRAG" netid="HT" insttype="1s-100Hz," lat="38.6839" lon="20.5746">
    <comp name="--.HHE">
      <acc value="0.0000000000" flag="0"/>
      <vel value="-100.0000000000" flag="0"/>
      <psa03 value="0.0000000000" flag="0"/>
      <psa10 value="0.0000000000" flag="0"/>
      <psa30 value="0.0000000000" flag="0"/>
    </comp>
    <comp name="--.HHN">
      <acc value="0.1380987518" flag="0"/>
      <vel value="0.0708581889" flag="0"/>
      <psa03 value="0.2813627492" flag="0"/>
      <psa10 value="0.0495895540" flag="0"/>
      <psa30 value="0.0104254882" flag="0"/>
    </comp>
    <comp name="--.HHZ">
      <acc value="0.0500917413" flag="0"/>
      <vel value="0.0211913807" flag="0"/>
      <psa03 value="0.1420786428" flag="0"/>
      <psa10 value="0.0243563447" flag="0"/>
      <psa30 value="0.0023409108" flag="0"/>
    </comp>
  </station>
  <station code="EVGI" name="EVGI" netid="HT" insttype="30" lat="38.621" lon="20.656">
    <comp name="--.HHE">
      <acc value="0.0563005795" flag="0"/>
      <vel value="0.0218698040" flag="0"/>
      <psa03 value="0.1486790877" flag="0"/>
      <psa10 value="0.0239693178" flag="0"/>
      <psa30 value="0.0017208669" flag="0"/>
    </comp>
    <comp name="--.HHN">
      <acc value="0.0584342853" flag="0"/>
      <vel value="0.0253370817" flag="0"/>
      <psa03 value="0.1834710771" flag="0"/>
      <psa10 value="0.0223860621" flag="0"/>
      <psa30 value="0.0019054428" flag="0"/>
    </comp>
    <comp name="--.HHZ">
      <acc value="0.0346448665" flag="0"/>
      <vel value="0.0147609595" flag="0"/>
      <psa03 value="0.0944105896" flag="0"/>
      <psa10 value="0.0142749997" flag="0"/>
      <psa30 value="0.0011091761" flag="0"/>
    </comp>
  </station>
  <station code="KPRO" name="KPRO" netid="HT" insttype="100" lat="39.9549" lon="21.3632">
    <comp name="--.HHZ">
      <acc value="0.0214331611" flag="0"/>
      <vel value="0.0129752549" flag="0"/>
      <psa03 value="0.0711110392" flag="0"/>
      <psa10 value="0.0148075902" flag="0"/>
      <psa30 value="0.0015451348" flag="0"/>
    </comp>
    <comp name="--.HHE">
      <acc value="0.0436199319" flag="0"/>
      <vel value="0.0256616039" flag="0"/>
      <psa03 value="0.1516149016" flag="0"/>
      <psa10 value="0.0273639857" flag="0"/>
      <psa30 value="0.0022447777" flag="0"/>
    </comp>
    <comp name="--.HHN">
      <acc value="0.0520254653" flag="0"/>
      <vel value="0.0416093065" flag="0"/>
      <psa03 value="0.1480290531" flag="0"/>
      <psa10 value="0.0284982250" flag="0"/>
      <psa30 value="0.0037216121" flag="0"/>
    </comp>
  </station>
  <station code="LKD2" name="LKD2" netid="HT" insttype="100" lat="38.7889" lon="20.6578">
    <comp name="--.HHE">
      <acc value="0.0497520597" flag="0"/>
      <vel value="0.0276290361" flag="0"/>
      <psa03 value="0.1787708280" flag="0"/>
      <psa10 value="0.0241058130" flag="0"/>
      <psa30 value="0.0025499919" flag="0"/>
    </comp>
    <comp name="--.HHN">
      <acc value="0.0595782554" flag="0"/>
      <vel value="0.0350763032" flag="0"/>
      <psa03 value="0.2080565841" flag="0"/>
      <psa10 value="0.0203076501" flag="0"/>
      <psa30 value="0.0021218416" flag="0"/>
    </comp>
    <comp name="--.HHZ">
      <acc value="0.0225455187" flag="0"/>
      <vel value="0.0118208950" flag="0"/>
      <psa03 value="0.0725270805" flag="0"/>
      <psa10 value="0.0103166620" flag="0"/>
      <psa30 value="0.0012712483" flag="0"/>
    </comp>
  </station>
  <station code="NYDR" name="NYDR" netid="HT" insttype="1s-100Hz," lat="38.7135" lon="20.6983">
    <comp name="--.HHE">
      <acc value="0.0466941856" flag="0"/>
      <vel value="0.0456696904" flag="0"/>
      <psa03 value="0.1807141145" flag="0"/>
      <psa10 value="0.0339734995" flag="0"/>
      <psa30 value="0.0025968553" flag="0"/>
    </comp>
    <comp name="--.HHZ">
      <acc value="0.0284219442" flag="0"/>
      <vel value="0.0205720883" flag="0"/>
      <psa03 value="0.0835902698" flag="0"/>
      <psa10 value="0.0217533880" flag="0"/>
      <psa30 value="0.0015690999" flag="0"/>
    </comp>
    <comp name="--.HHN">
      <acc value="0.0486472197" flag="0"/>
      <vel value="0.0282293199" flag="0"/>
      <psa03 value="0.1282073533" flag="0"/>
      <psa10 value="0.0555256231" flag="0"/>
      <psa30 value="0.0031694310" flag="0"/>
    </comp>
  </station>
  <station code="TSLK" name="TSLK" netid="HT" insttype="1s-100Hz," lat="38.8249" lon="20.6554">
    <comp name="--.HHN">
      <acc value="0.0664900523" flag="0"/>
      <vel value="0.0370932060" flag="0"/>
      <psa03 value="0.2891706717" flag="0"/>
      <psa10 value="0.0377779510" flag="0"/>
      <psa30 value="0.0040725985" flag="0"/>
    </comp>
    <comp name="--.HHE">
      <acc value="0.0734307884" flag="0"/>
      <vel value="0.0431937886" flag="0"/>
      <psa03 value="0.1617565443" flag="0"/>
      <psa10 value="0.0278794569" flag="0"/>
      <psa30 value="0.0050807962" flag="0"/>
    </comp>
    <comp name="--.HHZ">
      <acc value="0.0260739756" flag="0"/>
      <vel value="0.0146698398" flag="0"/>
      <psa03 value="0.1188641294" flag="0"/>
      <psa10 value="0.0145954797" flag="0"/>
      <psa30 value="0.0029557503" flag="0"/>
    </comp>
  </station>
  <station code="KEK" name="KEK" netid="MN" insttype="" lat="39.7127" lon="19.7962">
    <comp name="--.HHE">
      <acc value="0.0924796748" flag="0"/>
      <vel value="0.0552039772" flag="0"/>
      <psa03 value="0.2155305769" flag="0"/>
      <psa10 value="0.0763190058" flag="0"/>
      <psa30 value="0.0044645543" flag="0"/>
    </comp>
    <comp name="--.HHZ">
      <acc value="0.0623457661" flag="0"/>
      <vel value="0.0390397478" flag="0"/>
      <psa03 value="0.1277429884" flag="0"/>
      <psa10 value="0.0480492622" flag="0"/>
      <psa30 value="0.0050246513" flag="0"/>
    </comp>
    <comp name="--.HHN">
      <acc value="0.0693926646" flag="0"/>
      <vel value="0.0425325923" flag="0"/>
      <psa03 value="0.1958407515" flag="0"/>
      <psa10 value="0.0843061678" flag="0"/>
      <psa30 value="0.0074064424" flag="0"/>
    </comp>
  </station>
  <station code="THL" name="THL" netid="MN" insttype="" lat="39.5647" lon="22.0144">
    <comp name="--.HHE">
      <acc value="0.0127581207" flag="0"/>
      <vel value="0.0085044291" flag="0"/>
      <psa03 value="0.0382115920" flag="0"/>
      <psa10 value="0.0087168843" flag="0"/>
      <psa30 value="0.0011674353" flag="0"/>
    </comp>
    <comp name="--.HHN">
      <acc value="0.0125993929" flag="0"/>
      <vel value="0.0107666203" flag="0"/>
      <psa03 value="0.0222241136" flag="0"/>
      <psa10 value="0.0118510391" flag="0"/>
      <psa30 value="0.0012475291" flag="0"/>
    </comp>
    <comp name="--.HHZ">
      <acc value="0.0073966580" flag="0"/>
      <vel value="0.0048473816" flag="0"/>
      <psa03 value="0.0134034803" flag="0"/>
      <psa10 value="0.0057258285" flag="0"/>
      <psa30 value="0.0012067393" flag="0"/>
    </comp>
  </station>
</stationlist>
