<stationlist created="1778136616">
	<station code="AKS" name="AKS" netid="KO" source="Bogazici University Kandilli Observatory And Earthquake Research Institute (KOERI)" insttype="" lat="38.8785" lon="27.8129">
		<comp name="--.HNE" depth="0.0">
			<acc value="0.00775251274598639" flag="0"/>
			<vel value="0.00465784795477447" flag="0"/>
			<psa03 value="0.0138802450189571" flag="0"/>
			<psa10 value="0.00615001365822598" flag="0"/>
			<psa30 value="0.000696864028406819" flag="0"/>
		</comp>
		<comp name="--.HNN" depth="0.0">
			<acc value="0.00817252997840339" flag="0"/>
			<vel value="0.00438163311299562" flag="0"/>
			<psa03 value="0.0289939701874143" flag="0"/>
			<psa10 value="0.00238292473206766" flag="0"/>
			<psa30 value="0.00101557769370593" flag="0"/>
		</comp>
		<comp name="--.HNZ" depth="0.0">
			<acc value="0.00294532883117144" flag="0"/>
			<vel value="0.00181047875805554" flag="0"/>
			<psa03 value="0.00669271484386521" flag="0"/>
			<psa10 value="0.00161574449607879" flag="0"/>
			<psa30 value="0.000334752566339457" flag="0"/>
		</comp>
	</station>
	<station code="BIGA" name="BIGA" netid="KO" source="Bogazici University Kandilli Observatory And Earthquake Research Institute (KOERI)" insttype="" lat="40.28134" lon="27.15048">
		<comp name="--.HNE" depth="0.0">
			<acc value="1.05079963375271" flag="0"/>
			<vel value="0.321399202402103" flag="0"/>
			<psa03 value="1.47500054487854" flag="0"/>
			<psa10 value="0.0450787399952271" flag="0"/>
			<psa30 value="0.00490769219384661" flag="0"/>
		</comp>
		<comp name="--.HNN" depth="0.0">
			<acc value="1.18498707935449" flag="0"/>
			<vel value="0.317863914756289" flag="0"/>
			<psa03 value="1.42296976476268" flag="0"/>
			<psa10 value="0.0842169064569123" flag="0"/>
			<psa30 value="0.00566651496213367" flag="0"/>
		</comp>
		<comp name="--.HNZ" depth="0.0">
			<acc value="0.583826330363397" flag="0"/>
			<vel value="0.0939301853432573" flag="0"/>
			<psa03 value="0.28709476861934" flag="0"/>
			<psa10 value="0.0199057411576494" flag="0"/>
			<psa30 value="0.00149836457180065" flag="0"/>
		</comp>
	</station>
	<station code="CANM" name="CANM" netid="KO" source="Bogazici University Kandilli Observatory And Earthquake Research Institute (KOERI)" insttype="" lat="40.0113" lon="27.0529">
		<comp name="--.HNE" depth="0.0">
			<acc value="0.138058993336135" flag="0"/>
			<vel value="0.0414781852244834" flag="0"/>
			<psa03 value="0.25181707747883" flag="0"/>
			<psa10 value="0.0145522605783516" flag="0"/>
			<psa30 value="0.000990858347833946" flag="0"/>
		</comp>
		<comp name="--.HNN" depth="0.0">
			<acc value="0.219803143658099" flag="0"/>
			<vel value="0.079435575960177" flag="0"/>
			<psa03 value="0.314673887267171" flag="0"/>
			<psa10 value="0.0296315885723264" flag="0"/>
			<psa30 value="0.00179501391086003" flag="0"/>
		</comp>
		<comp name="--.HNZ" depth="0.0">
			<acc value="0.130752605243629" flag="0"/>
			<vel value="0.0299372075458732" flag="0"/>
			<psa03 value="0.163109815641287" flag="0"/>
			<psa10 value="0.0109757039615399" flag="0"/>
			<psa30 value="0.000742304278181361" flag="0"/>
		</comp>
	</station>
	<station code="EDC" name="EDC" netid="KO" source="Bogazici University Kandilli Observatory And Earthquake Research Institute (KOERI)" insttype="" lat="40.3465" lon="27.8618">
		<comp name="--.HNE" depth="0.0">
			<acc value="0.248508782966315" flag="0"/>
			<vel value="0.0413705848107621" flag="0"/>
			<psa03 value="0.201465783619353" flag="0"/>
			<psa10 value="0.0125640119916395" flag="0"/>
			<psa30 value="0.000778936444464593" flag="0"/>
		</comp>
		<comp name="--.HNN" depth="0.0">
			<acc value="0.286290084328432" flag="0"/>
			<vel value="0.0680825174100377" flag="0"/>
			<psa03 value="0.279039047467629" flag="0"/>
			<psa10 value="0.0302745330392284" flag="0"/>
			<psa30 value="0.00219853668393308" flag="0"/>
		</comp>
		<comp name="--.HNZ" depth="0.0">
			<acc value="0.18907076849202" flag="0"/>
			<vel value="0.0446026589905548" flag="0"/>
			<psa03 value="0.198993474007901" flag="0"/>
			<psa10 value="0.0105833501575187" flag="0"/>
			<psa30 value="0.00075961724799906" flag="0"/>
		</comp>
	</station>
	<station code="EZNE" name="EZNE" netid="KO" source="Bogazici University Kandilli Observatory And Earthquake Research Institute (KOERI)" insttype="" lat="39.756" lon="26.3655">
		<comp name="--.HNE" depth="0.0">
			<acc value="0.0241280176896348" flag="0"/>
			<vel value="0.00610870041754421" flag="0"/>
			<psa03 value="0.0244385486213973" flag="0"/>
			<psa10 value="0.00308517633091736" flag="0"/>
			<psa30 value="0.000327273685483871" flag="0"/>
		</comp>
		<comp name="--.HNN" depth="0.0">
			<acc value="0.0364260523899096" flag="0"/>
			<vel value="0.0108340824771866" flag="0"/>
			<psa03 value="0.0490479939806594" flag="0"/>
			<psa10 value="0.00511796638388773" flag="0"/>
			<psa30 value="0.00028177384842647" flag="0"/>
		</comp>
		<comp name="--.HNZ" depth="0.0">
			<acc value="0.0309136851331791" flag="0"/>
			<vel value="0.00585512569342787" flag="0"/>
			<psa03 value="0.0200759900920663" flag="0"/>
			<psa10 value="0.00343357862960707" flag="0"/>
			<psa30 value="0.000226993917441554" flag="0"/>
		</comp>
	</station>
	<station code="GONE" name="GONE" netid="KO" source="Bogazici University Kandilli Observatory And Earthquake Research Institute (KOERI)" insttype="" lat="40.0466" lon="27.686">
		<comp name="--.HNE" depth="0.0">
			<acc value="0.0478332917424371" flag="0"/>
			<vel value="0.0155562535214045" flag="0"/>
			<psa03 value="0.0388096751171794" flag="0"/>
			<psa10 value="0.0105628756761692" flag="0"/>
			<psa30 value="0.000609420371110481" flag="0"/>
		</comp>
		<comp name="--.HNN" depth="0.0">
			<acc value="0.0622091029590067" flag="0"/>
			<vel value="0.0191152378271448" flag="0"/>
			<psa03 value="0.0517589235664697" flag="0"/>
			<psa10 value="0.0123456537764673" flag="0"/>
			<psa30 value="0.000885568247882703" flag="0"/>
		</comp>
		<comp name="--.HNZ" depth="0.0">
			<acc value="0.050210902399266" flag="0"/>
			<vel value="0.0103437431236611" flag="0"/>
			<psa03 value="0.0404179040503036" flag="0"/>
			<psa10 value="0.00713025031282048" flag="0"/>
			<psa30 value="0.000448881819550142" flag="0"/>
		</comp>
	</station>
	<station code="GORD" name="GORD" netid="KO" source="Bogazici University Kandilli Observatory And Earthquake Research Institute (KOERI)" insttype="" lat="38.9088" lon="28.1769">
		<comp name="--.HNE" depth="0.0">
			<acc value="0.00366217045219661" flag="0"/>
			<vel value="0.00211987371809146" flag="0"/>
			<psa03 value="0.00685097142134134" flag="0"/>
			<psa10 value="0.00349681016213728" flag="0"/>
			<psa30 value="0.000308614194175948" flag="0"/>
		</comp>
		<comp name="--.HNN" depth="0.0">
			<acc value="0.00362832038192385" flag="0"/>
			<vel value="0.00294114785671934" flag="0"/>
			<psa03 value="0.0074166540773427" flag="0"/>
			<psa10 value="0.00467740454261382" flag="0"/>
			<psa30 value="0.000303538389178649" flag="0"/>
		</comp>
		<comp name="--.HNZ" depth="0.0">
			<acc value="0.00333565095009486" flag="0"/>
			<vel value="0.00200252096024565" flag="0"/>
			<psa03 value="0.00589213446563679" flag="0"/>
			<psa10 value="0.00279532595787438" flag="0"/>
			<psa30 value="0.000226285615311619" flag="0"/>
		</comp>
	</station>
	<station code="HVHR" name="HVHR" netid="KO" source="Bogazici University Kandilli Observatory And Earthquake Research Institute (KOERI)" insttype="" lat="40.9699" lon="28.8445">
		<comp name="--.HNE" depth="0.0">
			<acc value="0.0515103368114045" flag="0"/>
			<vel value="0.0216119638044237" flag="0"/>
			<psa03 value="0.0694415897480692" flag="0"/>
			<psa10 value="0.0109021869038587" flag="0"/>
			<psa30 value="0.00100979137289135" flag="0"/>
		</comp>
		<comp name="--.HNN" depth="0.0">
			<acc value="0.0446011137313023" flag="0"/>
			<vel value="0.0202418573315113" flag="0"/>
			<psa03 value="0.0786897388505614" flag="0"/>
			<psa10 value="0.0095396869574306" flag="0"/>
			<psa30 value="0.000792356968926947" flag="0"/>
		</comp>
		<comp name="--.HNZ" depth="0.0">
			<acc value="0.0507833284037887" flag="0"/>
			<vel value="0.0164066762695543" flag="0"/>
			<psa03 value="0.0840811220448757" flag="0"/>
			<psa10 value="0.00422104524854692" flag="0"/>
			<psa30 value="0.000464374356272121" flag="0"/>
		</comp>
	</station>
	<station code="KRBG" name="KRBG" netid="KO" source="Bogazici University Kandilli Observatory And Earthquake Research Institute (KOERI)" insttype="" lat="40.3932" lon="27.2977">
		<comp name="--.HNE" depth="0.0">
			<acc value="0.77162081591146" flag="0"/>
			<vel value="0.0749311464740798" flag="0"/>
			<psa03 value="0.310096063175841" flag="0"/>
			<psa10 value="0.0197250373119329" flag="0"/>
			<psa30 value="0.00154805578026356" flag="0"/>
		</comp>
		<comp name="--.HNN" depth="0.0">
			<acc value="0.497950075089994" flag="0"/>
			<vel value="0.115092049845669" flag="0"/>
			<psa03 value="0.38203759978252" flag="0"/>
			<psa10 value="0.0562336927060058" flag="0"/>
			<psa30 value="0.00484818408505121" flag="0"/>
		</comp>
		<comp name="--.HNZ" depth="0.0">
			<acc value="0.39883273704387" flag="0"/>
			<vel value="0.0485613818759114" flag="0"/>
			<psa03 value="0.180446203675342" flag="0"/>
			<psa10 value="0.0149270257171897" flag="0"/>
			<psa30 value="0.00136297883232361" flag="0"/>
		</comp>
	</station>
	<station code="ORLT" name="ORLT" netid="KO" source="Bogazici University Kandilli Observatory And Earthquake Research Institute (KOERI)" insttype="" lat="40.0452" lon="28.8914">
		<comp name="--.HNE" depth="0.0">
			<acc value="0.0281031072042994" flag="0"/>
			<vel value="0.0111382730089818" flag="0"/>
			<psa03 value="0.0725998666765504" flag="0"/>
			<psa10 value="0.00814805789383208" flag="0"/>
			<psa30 value="0.000749050297990336" flag="0"/>
		</comp>
		<comp name="--.HNN" depth="0.0">
			<acc value="0.0221688547605148" flag="0"/>
			<vel value="0.0131045109446442" flag="0"/>
			<psa03 value="0.0470419965095665" flag="0"/>
			<psa10 value="0.00804667836543158" flag="0"/>
			<psa30 value="0.000835954127857039" flag="0"/>
		</comp>
		<comp name="--.HNZ" depth="0.0">
			<acc value="0.0124124885488452" flag="0"/>
			<vel value="0.00441969746169518" flag="0"/>
			<psa03 value="0.020096482334998" flag="0"/>
			<psa10 value="0.00421276048094212" flag="0"/>
			<psa30 value="0.000383800945762594" flag="0"/>
		</comp>
	</station>
	<station code="SHAP" name="SHAP" netid="KO" source="Bogazici University Kandilli Observatory And Earthquake Research Institute (KOERI)" insttype="" lat="39.0231" lon="29.222">
		<comp name="--.HNE" depth="0.0">
			<acc value="0.00771508473668013" flag="0"/>
			<vel value="0.00269602807959746" flag="0"/>
			<psa03 value="0.0147577692964757" flag="0"/>
			<psa10 value="0.00171261880415321" flag="0"/>
			<psa30 value="0.000113520293599852" flag="0"/>
		</comp>
		<comp name="--.HNN" depth="0.0">
			<acc value="0.00780781257732219" flag="0"/>
			<vel value="0.00296776235405226" flag="0"/>
			<psa03 value="0.0159481437258325" flag="0"/>
			<psa10 value="0.00123176441084608" flag="0"/>
			<psa30 value="0.000133081797786818" flag="0"/>
		</comp>
		<comp name="--.HNZ" depth="0.0">
			<acc value="0.00531962964377347" flag="0"/>
			<vel value="0.00150603193164505" flag="0"/>
			<psa03 value="0.00785616301037553" flag="0"/>
			<psa10 value="0.000816715626838513" flag="0"/>
			<psa30 value="7.16233840204991e-05" flag="0"/>
		</comp>
	</station>
	<station code="SOMA" name="SOMA" netid="KO" source="Bogazici University Kandilli Observatory And Earthquake Research Institute (KOERI)" insttype="" lat="39.1564" lon="27.5341">
		<comp name="--.HNE" depth="0.0">
			<acc value="0.0134454595215442" flag="0"/>
			<vel value="0.00978324032635828" flag="0"/>
			<psa03 value="0.0300494854226059" flag="0"/>
			<psa10 value="0.00882997775517338" flag="0"/>
			<psa30 value="0.00068670403244039" flag="0"/>
		</comp>
		<comp name="--.HNN" depth="0.0">
			<acc value="0.0105194742882255" flag="0"/>
			<vel value="0.00612155189518519" flag="0"/>
			<psa03 value="0.0243501833926254" flag="0"/>
			<psa10 value="0.00504124333263952" flag="0"/>
			<psa30 value="0.000470953750457183" flag="0"/>
		</comp>
		<comp name="--.HNZ" depth="0.0">
			<acc value="0.0119879406473847" flag="0"/>
			<vel value="0.0083168869074677" flag="0"/>
			<psa03 value="0.0236166764680562" flag="0"/>
			<psa10 value="0.00630836696084507" flag="0"/>
			<psa30 value="0.000416324793015943" flag="0"/>
		</comp>
	</station>
	<station code="TKR" name="TKR" netid="KO" source="Bogazici University Kandilli Observatory And Earthquake Research Institute (KOERI)" insttype="" lat="40.9893" lon="27.5351">
		<comp name="--.HNE" depth="0.0">
			<acc value="0.312429097860693" flag="0"/>
			<vel value="0.0635831773594476" flag="0"/>
			<psa03 value="0.272927163418327" flag="0"/>
			<psa10 value="0.015414937726463" flag="0"/>
			<psa30 value="0.0017368847475886" flag="0"/>
		</comp>
		<comp name="--.HNN" depth="0.0">
			<acc value="0.286113087433789" flag="0"/>
			<vel value="0.0685116641765634" flag="0"/>
			<psa03 value="0.134281364231387" flag="0"/>
			<psa10 value="0.01284302860012" flag="0"/>
			<psa30 value="0.00119875972444937" flag="0"/>
		</comp>
		<comp name="--.HNZ" depth="0.0">
			<acc value="0.0839525045838738" flag="0"/>
			<vel value="0.017324522609799" flag="0"/>
			<psa03 value="0.0542687148277489" flag="0"/>
			<psa10 value="0.00566404896546547" flag="0"/>
			<psa30 value="0.000561333227237399" flag="0"/>
		</comp>
	</station>
	<station code="UKOP" name="UKOP" netid="KO" source="Bogazici University Kandilli Observatory And Earthquake Research Institute (KOERI)" insttype="" lat="41.1288" lon="26.6323">
		<comp name="--.HNE" depth="0.0">
			<acc value="0.0199672893149526" flag="0"/>
			<vel value="0.0105694155471419" flag="0"/>
			<psa03 value="0.0465561257815875" flag="0"/>
			<psa10 value="0.0137745246821662" flag="0"/>
			<psa30 value="0.000712178480412803" flag="0"/>
		</comp>
		<comp name="--.HNN" depth="0.0">
			<acc value="0.02214892895508" flag="0"/>
			<vel value="0.00882851474401352" flag="0"/>
			<psa03 value="0.0438198403493499" flag="0"/>
			<psa10 value="0.0080974951693088" flag="0"/>
			<psa30 value="0.000551713735829161" flag="0"/>
		</comp>
		<comp name="--.HNZ" depth="0.0">
			<acc value="0.0171073513679451" flag="0"/>
			<vel value="0.00577857643223625" flag="0"/>
			<psa03 value="0.0201295053559273" flag="0"/>
			<psa10 value="0.00619919816647404" flag="0"/>
			<psa30 value="0.00028330282992207" flag="0"/>
		</comp>
	</station>
	<station code="YENI" name="YENI" netid="KO" source="Bogazici University Kandilli Observatory And Earthquake Research Institute (KOERI)" insttype="" lat="39.9364" lon="27.24216">
		<comp name="--.HNE" depth="0.0">
			<acc value="0.160442136947132" flag="0"/>
			<vel value="0.0466085496718946" flag="0"/>
			<psa03 value="0.192783479292669" flag="0"/>
			<psa10 value="0.0379198532541919" flag="0"/>
			<psa30 value="0.00148305022396347" flag="0"/>
		</comp>
		<comp name="--.HNN" depth="0.0">
			<acc value="0.160584868116303" flag="0"/>
			<vel value="0.0444818409693571" flag="0"/>
			<psa03 value="0.139396609341092" flag="0"/>
			<psa10 value="0.0239106089605009" flag="0"/>
			<psa30 value="0.00120311376288209" flag="0"/>
		</comp>
		<comp name="--.HNZ" depth="0.0">
			<acc value="0.117535600630921" flag="0"/>
			<vel value="0.0219263938086482" flag="0"/>
			<psa03 value="0.0952868018660917" flag="0"/>
			<psa10 value="0.00962414255219789" flag="0"/>
			<psa30 value="0.000752843153412915" flag="0"/>
		</comp>
	</station>
</stationlist>
