<?xml version="1.0" encoding="UTF-8" standalone="yes"?>
<!DOCTYPE earthquake SYSTEM "stationlist.dtd">
<stationlist created="" xmlns="ch.ethz.sed.shakemap.usgs.xml">
  <station code="BALB" name="BALB" netid="KO" insttype="120SN" lat="39.6507" lon="27.8642">
    <comp name="--.HHZ">
      <acc value="0.0238601944" flag="0"/>
      <vel value="0.0048840105" flag="0"/>
      <psa03 value="0.0326739797" flag="0"/>
      <psa10 value="0.0024239367" flag="0"/>
      <psa30 value="0.0001891193" flag="0"/>
    </comp>
    <comp name="--.HHN">
      <acc value="0.0392761348" flag="0"/>
      <vel value="0.0150289163" flag="0"/>
      <psa03 value="0.1123305061" flag="0"/>
      <psa10 value="0.0068139636" flag="0"/>
      <psa30 value="0.0004305420" flag="0"/>
    </comp>
    <comp name="--.HHE">
      <acc value="0.0295214785" flag="0"/>
      <vel value="0.0145082328" flag="0"/>
      <psa03 value="0.0683852867" flag="0"/>
      <psa10 value="0.0053453071" flag="0"/>
      <psa30 value="0.0004303639" flag="0"/>
    </comp>
  </station>
  <station code="BIGA" name="BIGA" netid="KO" insttype="CMG-5T" lat="40.2813" lon="27.1505">
    <comp name="--.HNE">
      <acc value="1.0469208738" flag="0"/>
      <vel value="0.3158677488" flag="0"/>
      <psa03 value="1.4411072310" flag="0"/>
      <psa10 value="0.0446574438" flag="0"/>
      <psa30 value="0.0048499007" flag="0"/>
    </comp>
    <comp name="--.HNN">
      <acc value="1.1661571177" flag="0"/>
      <vel value="0.3141299771" flag="0"/>
      <psa03 value="1.3795759019" flag="0"/>
      <psa10 value="0.0837435102" flag="0"/>
      <psa30 value="0.0056250948" flag="0"/>
    </comp>
    <comp name="--.HNZ">
      <acc value="0.6221000324" flag="0"/>
      <vel value="0.0904384746" flag="0"/>
      <psa03 value="0.2843399242" flag="0"/>
      <psa10 value="0.0197156327" flag="0"/>
      <psa30 value="0.0014982491" flag="0"/>
    </comp>
  </station>
  <station code="BOTS" name="BOTS" netid="KO" insttype="CMG-5T" lat="40.9902" lon="27.981">
    <comp name="--.HNN">
      <acc value="0.0798808826" flag="0"/>
      <vel value="0.0237782636" flag="0"/>
      <psa03 value="0.1160962794" flag="0"/>
      <psa10 value="0.0062705152" flag="0"/>
      <psa30 value="0.0006090906" flag="0"/>
    </comp>
    <comp name="--.HNZ">
      <acc value="0.0343367674" flag="0"/>
      <vel value="0.0076817472" flag="0"/>
      <psa03 value="0.0329390434" flag="0"/>
      <psa10 value="0.0016916330" flag="0"/>
      <psa30 value="0.0003422070" flag="0"/>
    </comp>
    <comp name="--.HNE">
      <acc value="0.1008975565" flag="0"/>
      <vel value="0.0288443685" flag="0"/>
      <psa03 value="0.1709770643" flag="0"/>
      <psa10 value="0.0075394313" flag="0"/>
      <psa30 value="0.0006880096" flag="0"/>
    </comp>
  </station>
  <station code="EDC" name="EDC" netid="KO" insttype="120s," lat="40.3465" lon="27.8618">
    <comp name="--.HHZ">
      <acc value="0.1788774225" flag="0"/>
      <vel value="0.0433243061" flag="0"/>
      <psa03 value="0.2018108366" flag="0"/>
      <psa10 value="0.0100981526" flag="0"/>
      <psa30 value="0.0006731272" flag="0"/>
    </comp>
    <comp name="--.HHN">
      <acc value="0.2804049858" flag="0"/>
      <vel value="0.0693285246" flag="0"/>
      <psa03 value="0.2860577983" flag="0"/>
      <psa10 value="0.0295867658" flag="0"/>
      <psa30 value="0.0020784575" flag="0"/>
    </comp>
    <comp name="--.HHE">
      <acc value="0.2726378199" flag="0"/>
      <vel value="0.0457790289" flag="0"/>
      <psa03 value="0.1879841066" flag="0"/>
      <psa10 value="0.0141399754" flag="0"/>
      <psa30 value="0.0008655075" flag="0"/>
    </comp>
  </station>
  <station code="ENEZ" name="ENEZ" netid="KO" insttype="120s," lat="40.7362" lon="26.153">
    <comp name="--.HHE">
      <acc value="0.0257181695" flag="0"/>
      <vel value="0.0109144490" flag="0"/>
      <psa03 value="0.0509519166" flag="0"/>
      <psa10 value="0.0128595538" flag="0"/>
      <psa30 value="0.0005750562" flag="0"/>
    </comp>
    <comp name="--.HHZ">
      <acc value="0.0162676981" flag="0"/>
      <vel value="0.0050756884" flag="0"/>
      <psa03 value="0.0318868409" flag="0"/>
      <psa10 value="0.0054762045" flag="0"/>
      <psa30 value="0.0002773806" flag="0"/>
    </comp>
    <comp name="--.HHN">
      <acc value="0.0217363394" flag="0"/>
      <vel value="0.0092366977" flag="0"/>
      <psa03 value="0.0562595637" flag="0"/>
      <psa10 value="0.0122077980" flag="0"/>
      <psa30 value="0.0007081440" flag="0"/>
    </comp>
  </station>
  <station code="ERIK" name="ERIK" netid="KO" insttype="120s," lat="40.6708" lon="26.5132">
    <comp name="--.HHE">
      <acc value="0.0235617335" flag="0"/>
      <vel value="0.0127484992" flag="0"/>
      <psa03 value="0.0387430232" flag="0"/>
      <psa10 value="0.0059907773" flag="0"/>
      <psa30 value="0.0004276752" flag="0"/>
    </comp>
    <comp name="--.HHN">
      <acc value="0.0192304088" flag="0"/>
      <vel value="0.0074756679" flag="0"/>
      <psa03 value="0.0496517599" flag="0"/>
      <psa10 value="0.0076152025" flag="0"/>
      <psa30 value="0.0004901509" flag="0"/>
    </comp>
    <comp name="--.HHZ">
      <acc value="0.0127405648" flag="0"/>
      <vel value="0.0048377677" flag="0"/>
      <psa03 value="0.0194051535" flag="0"/>
      <psa10 value="0.0027801269" flag="0"/>
      <psa30 value="0.0002358927" flag="0"/>
    </comp>
  </station>
  <station code="EZN" name="EZN" netid="KO" insttype="120s," lat="39.8255" lon="26.3247">
    <comp name="--.HHE">
      <acc value="0.0487115172" flag="0"/>
      <vel value="0.0055535560" flag="0"/>
      <psa03 value="0.0168628452" flag="0"/>
      <psa10 value="0.0019490765" flag="0"/>
      <psa30 value="0.0001374293" flag="0"/>
    </comp>
    <comp name="--.HHN">
      <acc value="0.0442899480" flag="0"/>
      <vel value="0.0058619930" flag="0"/>
      <psa03 value="0.0148766712" flag="0"/>
      <psa10 value="0.0022845586" flag="0"/>
      <psa30 value="0.0001763110" flag="0"/>
    </comp>
  </station>
  <station code="GAZK" name="GAZK" netid="KO" insttype="30s," lat="40.7479" lon="27.3275">
    <comp name="--.HHZ">
      <acc value="0.1932595849" flag="0"/>
      <vel value="0.0308604042" flag="0"/>
      <psa03 value="0.1227938501" flag="0"/>
      <psa10 value="0.0123294327" flag="0"/>
      <psa30 value="0.0009542545" flag="0"/>
    </comp>
    <comp name="--.HHN">
      <acc value="0.2969847402" flag="0"/>
      <vel value="0.0656447786" flag="0"/>
      <psa03 value="0.1723356639" flag="0"/>
      <psa10 value="0.0145369365" flag="0"/>
      <psa30 value="0.0016945687" flag="0"/>
    </comp>
    <comp name="--.HHE">
      <acc value="0.3330457208" flag="0"/>
      <vel value="0.0562538004" flag="0"/>
      <psa03 value="0.1501165894" flag="0"/>
      <psa10 value="0.0259843425" flag="0"/>
      <psa30 value="0.0019974225" flag="0"/>
    </comp>
  </station>
  <station code="GELI" name="GELI" netid="KO" insttype="30s," lat="40.398" lon="26.4742">
    <comp name="--.HHN">
      <acc value="0.0296716032" flag="0"/>
      <vel value="0.0088655607" flag="0"/>
      <psa03 value="0.0377271075" flag="0"/>
      <psa10 value="0.0108188130" flag="0"/>
      <psa30 value="0.0008602637" flag="0"/>
    </comp>
  </station>
  <station code="GONE" name="GONE" netid="KO" insttype="CMG-5T" lat="40.0466" lon="27.686">
    <comp name="--.HNN">
      <acc value="0.0635096580" flag="0"/>
      <vel value="0.0188518936" flag="0"/>
      <psa03 value="0.0512198804" flag="0"/>
      <psa10 value="0.0123300518" flag="0"/>
      <psa30 value="0.0008809385" flag="0"/>
    </comp>
    <comp name="--.HNE">
      <acc value="0.0476085646" flag="0"/>
      <vel value="0.0154867370" flag="0"/>
      <psa03 value="0.0388568513" flag="0"/>
      <psa10 value="0.0105491500" flag="0"/>
      <psa30 value="0.0005916223" flag="0"/>
    </comp>
    <comp name="--.HNZ">
      <acc value="0.0529000028" flag="0"/>
      <vel value="0.0102250147" flag="0"/>
      <psa03 value="0.0398558600" flag="0"/>
      <psa10 value="0.0071114743" flag="0"/>
      <psa30 value="0.0004330376" flag="0"/>
    </comp>
  </station>
  <station code="KCTX" name="KCTX" netid="KO" insttype="30s," lat="40.2627" lon="28.3353">
    <comp name="--.HHE">
      <acc value="0.0808676731" flag="0"/>
      <vel value="0.0163599012" flag="0"/>
      <psa03 value="0.0917295521" flag="0"/>
      <psa10 value="0.0025440615" flag="0"/>
      <psa30 value="0.0002436513" flag="0"/>
    </comp>
    <comp name="--.HHZ">
      <acc value="0.0392773779" flag="0"/>
      <vel value="0.0075524324" flag="0"/>
      <psa03 value="0.0266936504" flag="0"/>
      <psa10 value="0.0033318756" flag="0"/>
      <psa30 value="0.0001899996" flag="0"/>
    </comp>
  </station>
  <station code="KRBG" name="KRBG" netid="KO" insttype="30s," lat="40.3932" lon="27.2977">
    <comp name="--.HHE">
      <acc value="0.6042667261" flag="0"/>
      <vel value="0.0849668762" flag="0"/>
      <psa03 value="0.3261587699" flag="0"/>
      <psa10 value="0.0240952356" flag="0"/>
      <psa30 value="0.0017486111" flag="0"/>
    </comp>
    <comp name="--.HHN">
      <acc value="0.5423161868" flag="0"/>
      <vel value="0.1066977979" flag="0"/>
      <psa03 value="0.3260537140" flag="0"/>
      <psa10 value="0.0537183808" flag="0"/>
      <psa30 value="0.0042418376" flag="0"/>
    </comp>
  </station>
  <station code="LAP" name="LAP" netid="KO" insttype="30s," lat="40.3703" lon="26.7593">
    <comp name="--.HHN">
      <acc value="0.0461532651" flag="0"/>
      <vel value="0.0109752126" flag="0"/>
      <psa03 value="0.0390066717" flag="0"/>
      <psa10 value="0.0103917773" flag="0"/>
      <psa30 value="0.0014451779" flag="0"/>
    </comp>
  </station>
  <station code="SLVT" name="SLVT" netid="KO" insttype="30s," lat="41.23" lon="28.21">
    <comp name="--.HHZ">
      <acc value="0.0321801875" flag="0"/>
      <vel value="0.0088392173" flag="0"/>
      <psa03 value="0.0368138049" flag="0"/>
      <psa10 value="0.0049997067" flag="0"/>
      <psa30 value="0.0002794690" flag="0"/>
    </comp>
    <comp name="--.HHN">
      <acc value="0.0388004223" flag="0"/>
      <vel value="0.0130465907" flag="0"/>
      <psa03 value="0.0591669295" flag="0"/>
      <psa10 value="0.0166479542" flag="0"/>
      <psa30 value="0.0009694609" flag="0"/>
    </comp>
    <comp name="--.HHE">
      <acc value="0.0506335575" flag="0"/>
      <vel value="0.0160945435" flag="0"/>
      <psa03 value="0.0673236312" flag="0"/>
      <psa10 value="0.0129681430" flag="0"/>
      <psa30 value="0.0006351360" flag="0"/>
    </comp>
  </station>
  <station code="TKR" name="TKR" netid="KO" insttype="CMG-5T" lat="40.9893" lon="27.5351">
    <comp name="--.HNN">
      <acc value="0.2885625110" flag="0"/>
      <vel value="0.0655874622" flag="0"/>
      <psa03 value="0.1310630764" flag="0"/>
      <psa10 value="0.0127721171" flag="0"/>
      <psa30 value="0.0012663419" flag="0"/>
    </comp>
  </station>
  <station code="YAYO" name="YAYO" netid="KO" insttype="30s," lat="39.6113" lon="27.0726">
    <comp name="--.HHE">
      <acc value="0.0166371699" flag="0"/>
      <vel value="0.0103306018" flag="0"/>
      <psa03 value="0.0274600625" flag="0"/>
      <psa10 value="0.0060709909" flag="0"/>
      <psa30 value="0.0003595307" flag="0"/>
    </comp>
    <comp name="--.HHN">
      <acc value="0.0183467833" flag="0"/>
      <vel value="0.0098846367" flag="0"/>
      <psa03 value="0.0714651156" flag="0"/>
      <psa10 value="0.0032236565" flag="0"/>
      <psa30 value="0.0002301816" flag="0"/>
    </comp>
    <comp name="--.HHZ">
      <acc value="0.0149209584" flag="0"/>
      <vel value="0.0054482143" flag="0"/>
      <psa03 value="0.0262073710" flag="0"/>
      <psa10 value="0.0036845429" flag="0"/>
      <psa30 value="0.0001715051" flag="0"/>
    </comp>
  </station>
  <station code="YENI" name="YENI" netid="KO" insttype="CMG-5T" lat="39.9364" lon="27.2422">
    <comp name="--.HNE">
      <acc value="0.1643275393" flag="0"/>
      <vel value="0.0464750425" flag="0"/>
      <psa03 value="0.1902207295" flag="0"/>
      <psa10 value="0.0380242537" flag="0"/>
      <psa30 value="0.0015755705" flag="0"/>
    </comp>
    <comp name="--.HNN">
      <acc value="0.1574094324" flag="0"/>
      <vel value="0.0444090118" flag="0"/>
      <psa03 value="0.1378111199" flag="0"/>
      <psa10 value="0.0239683774" flag="0"/>
      <psa30 value="0.0012016810" flag="0"/>
    </comp>
    <comp name="--.HNZ">
      <acc value="0.1200358129" flag="0"/>
      <vel value="0.0213129918" flag="0"/>
      <psa03 value="0.0944426326" flag="0"/>
      <psa10 value="0.0096378596" flag="0"/>
      <psa30 value="0.0007637048" flag="0"/>
    </comp>
  </station>
</stationlist>
