<?xml version="1.0" encoding="UTF-8" standalone="yes"?>
<!DOCTYPE earthquake SYSTEM "stationlist.dtd">
<stationlist created="" xmlns="ch.ethz.sed.shakemap.usgs.xml">
  <station code="KMRS" name="KMRS" netid="KO" insttype="CMG-3T" lat="37.5053" lon="36.9">
    <comp name="--.HHE">
      <acc value="0.0198061999" flag="0"/>
      <vel value="0.0110768307" flag="0"/>
      <psa03 value="0.0362891310" flag="0"/>
      <psa10 value="0.0164736119" flag="0"/>
      <psa30 value="0.0012679092" flag="0"/>
    </comp>
    <comp name="--.HHZ">
      <acc value="0.0144592582" flag="0"/>
      <vel value="0.0082474031" flag="0"/>
      <psa03 value="0.0396649927" flag="0"/>
      <psa10 value="0.0098773480" flag="0"/>
      <psa30 value="0.0008539480" flag="0"/>
    </comp>
  </station>
  <station code="URFA" name="URFA" netid="KO" insttype="CMG-3ESP" lat="37.4409" lon="38.8213">
    <comp name="--.HHE">
      <acc value="0.0320653535" flag="0"/>
      <vel value="0.0129706155" flag="0"/>
      <psa03 value="0.0656374416" flag="0"/>
      <psa10 value="0.0172039650" flag="0"/>
      <psa30 value="0.0014261461" flag="0"/>
    </comp>
    <comp name="--.HHN">
      <acc value="0.0266127276" flag="0"/>
      <vel value="0.0093199588" flag="0"/>
      <psa03 value="0.0600274195" flag="0"/>
      <psa10 value="0.0074442455" flag="0"/>
      <psa30 value="0.0018520729" flag="0"/>
    </comp>
    <comp name="--.HHZ">
      <acc value="0.0225251287" flag="0"/>
      <vel value="0.0064461049" flag="0"/>
      <psa03 value="0.0364249488" flag="0"/>
      <psa10 value="0.0070198431" flag="0"/>
      <psa30 value="0.0007678099" flag="0"/>
    </comp>
  </station>
</stationlist>
