<?xml version="1.0" encoding="UTF-8" standalone="yes"?>
<!DOCTYPE earthquake SYSTEM "stationlist.dtd">
<stationlist created="" xmlns="ch.ethz.sed.shakemap.usgs.xml">
  <station code="APE" name="APE" netid="GE" insttype="STS-2/N" lat="37.0727" lon="25.523">
    <comp name="--.HHE">
      <acc value="0.0515132630" flag="0"/>
      <vel value="0.0126221155" flag="0"/>
      <psa03 value="0.0700632613" flag="0"/>
      <psa10 value="0.0041726154" flag="0"/>
      <psa30 value="0.0014820399" flag="0"/>
    </comp>
    <comp name="--.HHN">
      <acc value="0.0540763082" flag="0"/>
      <vel value="0.0119157983" flag="0"/>
      <psa03 value="0.0519439349" flag="0"/>
      <psa10 value="0.0047556559" flag="0"/>
      <psa30 value="0.0022228467" flag="0"/>
    </comp>
    <comp name="--.HHZ">
      <acc value="0.0247953742" flag="0"/>
      <vel value="0.0104638266" flag="0"/>
      <psa03 value="0.0491219597" flag="0"/>
      <psa10 value="0.0041873273" flag="0"/>
      <psa30 value="0.0030220867" flag="0"/>
    </comp>
  </station>
  <station code="THERA" name="THERA" netid="GE" insttype="STS-2/N" lat="36.367" lon="25.4753">
    <comp name="--.HHN">
      <acc value="0.0227248156" flag="0"/>
      <vel value="0.0074556924" flag="0"/>
      <psa03 value="0.0304145290" flag="0"/>
      <psa10 value="0.0050967867" flag="0"/>
      <psa30 value="0.0007515881" flag="0"/>
    </comp>
    <comp name="--.HHE">
      <acc value="0.0290323661" flag="0"/>
      <vel value="0.0090576046" flag="0"/>
      <psa03 value="0.0626223526" flag="0"/>
      <psa10 value="0.0064595112" flag="0"/>
      <psa30 value="0.0013177244" flag="0"/>
    </comp>
    <comp name="--.HHZ">
      <acc value="0.0288682993" flag="0"/>
      <vel value="0.0083563080" flag="0"/>
      <psa03 value="0.0596941622" flag="0"/>
      <psa10 value="0.0066959079" flag="0"/>
      <psa30 value="0.0010308208" flag="0"/>
    </comp>
  </station>
</stationlist>
