<?xml version="1.0" encoding="UTF-8" standalone="yes"?>
<!DOCTYPE earthquake SYSTEM "stationlist.dtd">
<stationlist created="" xmlns="ch.ethz.sed.shakemap.usgs.xml">
  <station code="APE" name="APE" netid="GE" insttype="STS-2/N" lat="37.0727" lon="25.523">
    <comp name="--.HHE">
      <acc value="0.0515132630" flag="0"/>
      <vel value="0.0126221155" flag="0"/>
      <psa03 value="0.0700632613" flag="0"/>
      <psa10 value="0.0041726154" flag="0"/>
      <psa30 value="0.0014820399" flag="0"/>
    </comp>
    <comp name="--.HHN">
      <acc value="0.0540763082" flag="0"/>
      <vel value="0.0119157983" flag="0"/>
      <psa03 value="0.0519439349" flag="0"/>
      <psa10 value="0.0047556559" flag="0"/>
      <psa30 value="0.0022228467" flag="0"/>
    </comp>
    <comp name="--.HHZ">
      <acc value="0.0247953742" flag="0"/>
      <vel value="0.0104638266" flag="0"/>
      <psa03 value="0.0491219597" flag="0"/>
      <psa10 value="0.0041873273" flag="0"/>
      <psa30 value="0.0030220867" flag="0"/>
    </comp>
  </station>
  <station code="THERA" name="THERA" netid="GE" insttype="STS-2/N" lat="36.367" lon="25.4753">
    <comp name="--.HHN">
      <acc value="0.0227248156" flag="0"/>
      <vel value="0.0074556924" flag="0"/>
      <psa03 value="0.0304145290" flag="0"/>
      <psa10 value="0.0050967867" flag="0"/>
      <psa30 value="0.0007515881" flag="0"/>
    </comp>
    <comp name="--.HHE">
      <acc value="0.0290323661" flag="0"/>
      <vel value="0.0090576046" flag="0"/>
      <psa03 value="0.0626223526" flag="0"/>
      <psa10 value="0.0064595112" flag="0"/>
      <psa30 value="0.0013177244" flag="0"/>
    </comp>
    <comp name="--.HHZ">
      <acc value="0.0288682993" flag="0"/>
      <vel value="0.0083563080" flag="0"/>
      <psa03 value="0.0596941622" flag="0"/>
      <psa10 value="0.0066959079" flag="0"/>
      <psa30 value="0.0010308208" flag="0"/>
    </comp>
  </station>
  <station code="SERI" name="SERI" netid="HA" insttype="30" lat="37.1609" lon="24.4853">
    <comp name="--.HHN">
      <acc value="0.0186784498" flag="0"/>
      <vel value="0.0056560444" flag="0"/>
      <psa03 value="0.0303740795" flag="0"/>
      <psa10 value="0.0030165290" flag="0"/>
      <psa30 value="0.0004519732" flag="0"/>
    </comp>
    <comp name="--.HHE">
      <acc value="0.0171842158" flag="0"/>
      <vel value="0.0050593233" flag="0"/>
      <psa03 value="0.0217045440" flag="0"/>
      <psa10 value="0.0023452408" flag="0"/>
      <psa30 value="0.0003607149" flag="0"/>
    </comp>
    <comp name="--.HHZ">
      <acc value="0.0166322625" flag="0"/>
      <vel value="0.0071790494" flag="0"/>
      <psa03 value="0.0329257502" flag="0"/>
      <psa10 value="0.0030483214" flag="0"/>
      <psa30 value="0.0006778705" flag="0"/>
    </comp>
  </station>
  <station code="SNT1" name="SNT1" netid="HA" insttype="30" lat="36.4159" lon="25.4282">
    <comp name="--.HHN">
      <acc value="0.0306585713" flag="0"/>
      <vel value="0.0159437117" flag="0"/>
      <psa03 value="0.0948402451" flag="0"/>
      <psa10 value="0.0123992272" flag="0"/>
      <psa30 value="0.0053113986" flag="0"/>
    </comp>
    <comp name="--.HHE">
      <acc value="0.0337010822" flag="0"/>
      <vel value="0.0115641012" flag="0"/>
      <psa03 value="0.0620827891" flag="0"/>
      <psa10 value="0.0189882384" flag="0"/>
      <psa30 value="0.0027576355" flag="0"/>
    </comp>
    <comp name="--.HHZ">
      <acc value="0.0210819181" flag="0"/>
      <vel value="0.0113668026" flag="0"/>
      <psa03 value="0.0589756704" flag="0"/>
      <psa10 value="0.0084128492" flag="0"/>
      <psa30 value="0.0012425912" flag="0"/>
    </comp>
  </station>
  <station code="SNT5" name="SNT5" netid="HA" insttype="1s-100Hz," lat="36.4037" lon="25.3953">
    <comp name="--.HHE">
      <acc value="0.1356429748" flag="0"/>
      <vel value="0.0386972294" flag="0"/>
      <psa03 value="0.2210506418" flag="0"/>
      <psa10 value="0.0174692899" flag="0"/>
      <psa30 value="0.0066678208" flag="0"/>
    </comp>
    <comp name="--.HHZ">
      <acc value="0.0382892554" flag="0"/>
      <vel value="0.0090929350" flag="0"/>
      <psa03 value="0.0721046008" flag="0"/>
      <psa10 value="0.0092269422" flag="0"/>
      <psa30 value="0.0013910812" flag="0"/>
    </comp>
    <comp name="--.HHN">
      <acc value="0.0804668245" flag="0"/>
      <vel value="0.0205018324" flag="0"/>
      <psa03 value="0.1217154571" flag="0"/>
      <psa10 value="0.0082984414" flag="0"/>
      <psa30 value="0.0056733755" flag="0"/>
    </comp>
  </station>
  <station code="NAX1" name="NAX1" netid="HI" insttype="CMG-5TD,ACCELEROMETER,GURALP" lat="37.1014" lon="25.3741">
    <comp name="--.HNE">
      <acc value="0.0401498721" flag="0"/>
      <vel value="0.0122020447" flag="0"/>
      <psa03 value="0.0452507436" flag="0"/>
      <psa10 value="0.0045275771" flag="0"/>
      <psa30 value="0.0016669993" flag="0"/>
    </comp>
    <comp name="--.HNN">
      <acc value="0.0290745102" flag="0"/>
      <vel value="0.0087057782" flag="0"/>
      <psa03 value="0.0501199526" flag="0"/>
      <psa10 value="0.0070434157" flag="0"/>
      <psa30 value="0.0022088955" flag="0"/>
    </comp>
    <comp name="--.HNZ">
      <acc value="0.0202414698" flag="0"/>
      <vel value="0.0089439651" flag="0"/>
      <psa03 value="0.0392617050" flag="0"/>
      <psa10 value="0.0048323303" flag="0"/>
      <psa30 value="0.0025790834" flag="0"/>
    </comp>
  </station>
  <station code="SFR2" name="SFR2" netid="HI" insttype="unknown" lat="36.3998" lon="25.4382">
    <comp name="--.HNE">
      <acc value="0.0889225556" flag="0"/>
      <vel value="0.0279482474" flag="0"/>
      <psa03 value="0.1820560611" flag="0"/>
      <psa10 value="0.0298775380" flag="0"/>
      <psa30 value="0.0031645453" flag="0"/>
    </comp>
    <comp name="--.HNN">
      <acc value="0.0948072658" flag="0"/>
      <vel value="0.0325130350" flag="0"/>
      <psa03 value="0.2976645975" flag="0"/>
      <psa10 value="0.0269984505" flag="0"/>
      <psa30 value="0.0036812774" flag="0"/>
    </comp>
    <comp name="--.HNZ">
      <acc value="0.0674999163" flag="0"/>
      <vel value="0.0294232648" flag="0"/>
      <psa03 value="0.2047069087" flag="0"/>
      <psa10 value="0.0157581669" flag="0"/>
      <psa30 value="0.0015147749" flag="0"/>
    </comp>
  </station>
  <station code="AMGA" name="AMGA" netid="HL" insttype="SMART24" lat="36.8316" lon="25.8938">
    <comp name="--.HHE">
      <acc value="0.2810561253" flag="0"/>
      <vel value="0.0599098521" flag="0"/>
      <psa03 value="0.2931129803" flag="0"/>
      <psa10 value="0.0296185033" flag="0"/>
      <psa30 value="0.0056089798" flag="0"/>
    </comp>
    <comp name="--.HHN">
      <acc value="0.2986792059" flag="0"/>
      <vel value="0.0737677374" flag="0"/>
      <psa03 value="0.2866382213" flag="0"/>
      <psa10 value="0.0523928056" flag="0"/>
      <psa30 value="0.0025651380" flag="0"/>
    </comp>
    <comp name="--.HHZ">
      <acc value="0.1940257849" flag="0"/>
      <vel value="0.0479078339" flag="0"/>
      <psa03 value="0.2136826805" flag="0"/>
      <psa10 value="0.0207659290" flag="0"/>
      <psa30 value="0.0050203546" flag="0"/>
    </comp>
  </station>
  <station code="APE" name="APE" netid="HL" insttype="120" lat="37.0727" lon="25.523">
    <comp name="--.HHE">
      <acc value="0.0448507530" flag="0"/>
      <vel value="0.0119722942" flag="0"/>
      <psa03 value="0.0679280078" flag="0"/>
      <psa10 value="0.0041352856" flag="0"/>
      <psa30 value="0.0014761623" flag="0"/>
    </comp>
    <comp name="--.HHZ">
      <acc value="0.0222338093" flag="0"/>
      <vel value="0.0102444770" flag="0"/>
      <psa03 value="0.0478235183" flag="0"/>
      <psa10 value="0.0041617269" flag="0"/>
      <psa30 value="0.0030179041" flag="0"/>
    </comp>
    <comp name="--.HHN">
      <acc value="0.0466266412" flag="0"/>
      <vel value="0.0114028526" flag="0"/>
      <psa03 value="0.0502977296" flag="0"/>
      <psa10 value="0.0047155010" flag="0"/>
      <psa30 value="0.0022199843" flag="0"/>
    </comp>
  </station>
  <station code="MHLO" name="MHLO" netid="HL" insttype="20" lat="36.6898" lon="24.4017">
    <comp name="--.HHN">
      <acc value="0.0490427440" flag="0"/>
      <vel value="0.0233944528" flag="0"/>
      <psa03 value="0.0934853350" flag="0"/>
      <psa10 value="0.0213854760" flag="0"/>
      <psa30 value="0.0010164582" flag="0"/>
    </comp>
    <comp name="--.HHE">
      <acc value="0.0529523441" flag="0"/>
      <vel value="0.0349267692" flag="0"/>
      <psa03 value="0.1848525118" flag="0"/>
      <psa10 value="0.0339435290" flag="0"/>
      <psa30 value="0.0016152674" flag="0"/>
    </comp>
    <comp name="--.HHZ">
      <acc value="0.0210271135" flag="0"/>
      <vel value="0.0140404166" flag="0"/>
      <psa03 value="0.0751499846" flag="0"/>
      <psa10 value="0.0142862560" flag="0"/>
      <psa30 value="0.0010201161" flag="0"/>
    </comp>
  </station>
  <station code="MILA" name="MILA" netid="HL" insttype="CMG-5" lat="36.7429" lon="24.4282">
    <comp name="00.HNE">
      <acc value="0.0832526089" flag="0"/>
      <vel value="0.0368305257" flag="0"/>
      <psa03 value="0.1827509900" flag="0"/>
      <psa10 value="0.0277578378" flag="0"/>
      <psa30 value="0.0015516563" flag="0"/>
    </comp>
    <comp name="00.HNZ">
      <acc value="0.0519783392" flag="0"/>
      <vel value="0.0279918810" flag="0"/>
      <psa03 value="0.1440100238" flag="0"/>
      <psa10 value="0.0224413941" flag="0"/>
      <psa30 value="0.0010765171" flag="0"/>
    </comp>
    <comp name="00.HNN">
      <acc value="0.1123881329" flag="0"/>
      <vel value="0.0446114698" flag="0"/>
      <psa03 value="0.3671820302" flag="0"/>
      <psa10 value="0.0327310096" flag="0"/>
      <psa30 value="0.0014527208" flag="0"/>
    </comp>
  </station>
  <station code="SANT" name="SANT" netid="HL" insttype="30" lat="36.3705" lon="25.4593">
    <comp name="--.HHN">
      <acc value="0.0667646542" flag="0"/>
      <vel value="0.0105764580" flag="0"/>
      <psa03 value="0.0644600596" flag="0"/>
      <psa10 value="0.0087069055" flag="0"/>
      <psa30 value="0.0016754096" flag="0"/>
    </comp>
    <comp name="--.HHZ">
      <acc value="0.0474377515" flag="0"/>
      <vel value="0.0112346126" flag="0"/>
      <psa03 value="0.1131487720" flag="0"/>
      <psa10 value="0.0059026578" flag="0"/>
      <psa30 value="0.0009508058" flag="0"/>
    </comp>
    <comp name="--.HHE">
      <acc value="0.0816631061" flag="0"/>
      <vel value="0.0278364002" flag="0"/>
      <psa03 value="0.1506449855" flag="0"/>
      <psa10 value="0.0119932347" flag="0"/>
      <psa30 value="0.0014508558" flag="0"/>
    </comp>
  </station>
  <station code="SAP3" name="SAP3" netid="HL" insttype="65535" lat="36.4356" lon="25.3454">
    <comp name="--.HHE">
      <acc value="0.0651235174" flag="0"/>
      <vel value="0.0226121707" flag="0"/>
      <psa03 value="0.1205763657" flag="0"/>
      <psa10 value="0.0273023344" flag="0"/>
      <psa30 value="0.0075168202" flag="0"/>
    </comp>
    <comp name="--.HHN">
      <acc value="0.0647594813" flag="0"/>
      <vel value="0.0306673471" flag="0"/>
      <psa03 value="0.2857830386" flag="0"/>
      <psa10 value="0.0187691878" flag="0"/>
      <psa30 value="0.0058981034" flag="0"/>
    </comp>
    <comp name="--.HHZ">
      <acc value="0.0580682475" flag="0"/>
      <vel value="0.0165354157" flag="0"/>
      <psa03 value="0.1152597116" flag="0"/>
      <psa10 value="0.0110732540" flag="0"/>
      <psa30 value="0.0015622135" flag="0"/>
    </comp>
  </station>
  <station code="THERA" name="THERA" netid="HL" insttype="120" lat="36.367" lon="25.4753">
    <comp name="--.HHE">
      <acc value="0.0284947609" flag="0"/>
      <vel value="0.0089210188" flag="0"/>
      <psa03 value="0.0608191512" flag="0"/>
      <psa10 value="0.0064007391" flag="0"/>
      <psa30 value="0.0013189158" flag="0"/>
    </comp>
    <comp name="--.HHZ">
      <acc value="0.0287699604" flag="0"/>
      <vel value="0.0081593125" flag="0"/>
      <psa03 value="0.0579667935" flag="0"/>
      <psa10 value="0.0066401904" flag="0"/>
      <psa30 value="0.0010317158" flag="0"/>
    </comp>
    <comp name="--.HHN">
      <acc value="0.0446361361" flag="0"/>
      <vel value="0.0144819916" flag="0"/>
      <psa03 value="0.0592987800" flag="0"/>
      <psa10 value="0.0101076377" flag="0"/>
      <psa30 value="0.0015035298" flag="0"/>
    </comp>
  </station>
  <station code="THRA" name="THRA" netid="HL" insttype="CMG-5" lat="36.415" lon="25.4324">
    <comp name="00.HNE">
      <acc value="0.1034151215" flag="0"/>
      <vel value="0.0431673625" flag="0"/>
      <psa03 value="0.3231433540" flag="0"/>
      <psa10 value="0.0439833023" flag="0"/>
      <psa30 value="0.0037957460" flag="0"/>
    </comp>
    <comp name="00.HNN">
      <acc value="0.1105333737" flag="0"/>
      <vel value="0.0516043101" flag="0"/>
      <psa03 value="0.4030739275" flag="0"/>
      <psa10 value="0.0621611596" flag="0"/>
      <psa30 value="0.0078567508" flag="0"/>
    </comp>
    <comp name="00.HNZ">
      <acc value="0.0937395071" flag="0"/>
      <vel value="0.0325298315" flag="0"/>
      <psa03 value="0.2199921983" flag="0"/>
      <psa10 value="0.0241755248" flag="0"/>
      <psa30 value="0.0021171410" flag="0"/>
    </comp>
  </station>
  <station code="TNSA" name="TNSA" netid="HL" insttype="CMG-5" lat="37.5394" lon="25.1631">
    <comp name="00.HNN">
      <acc value="0.0332914425" flag="0"/>
      <vel value="0.0102872985" flag="0"/>
      <psa03 value="0.0499658334" flag="0"/>
      <psa10 value="0.0057275586" flag="0"/>
      <psa30 value="0.0005250767" flag="0"/>
    </comp>
    <comp name="00.HNE">
      <acc value="0.0346943923" flag="0"/>
      <vel value="0.0138294019" flag="0"/>
      <psa03 value="0.1114249767" flag="0"/>
      <psa10 value="0.0055941964" flag="0"/>
      <psa30 value="0.0005334343" flag="0"/>
    </comp>
    <comp name="00.HNZ">
      <acc value="0.0203066182" flag="0"/>
      <vel value="0.0103323121" flag="0"/>
      <psa03 value="0.0373333337" flag="0"/>
      <psa10 value="0.0082277448" flag="0"/>
      <psa30 value="0.0008281179" flag="0"/>
    </comp>
  </station>
  <station code="AKRO" name="AKRO" netid="HT" insttype="Compact," lat="36.3584" lon="25.3967">
    <comp name="--.HHZ">
      <acc value="0.0621652655" flag="0"/>
      <vel value="0.0185762352" flag="0"/>
      <psa03 value="0.1432957720" flag="0"/>
      <psa10 value="0.0126616541" flag="0"/>
      <psa30 value="0.0008287039" flag="0"/>
    </comp>
    <comp name="--.HHN">
      <acc value="0.1167425675" flag="0"/>
      <vel value="0.0325929888" flag="0"/>
      <psa03 value="0.1380717718" flag="0"/>
      <psa10 value="0.0178759818" flag="0"/>
      <psa30 value="0.0022468756" flag="0"/>
    </comp>
    <comp name="--.HHE">
      <acc value="0.1112383655" flag="0"/>
      <vel value="0.0480106823" flag="0"/>
      <psa03 value="0.2723312378" flag="0"/>
      <psa10 value="0.0195673607" flag="0"/>
      <psa30 value="0.0014933069" flag="0"/>
    </comp>
  </station>
  <station code="CMBO" name="CMBO" netid="HT" insttype="120P," lat="36.4709" lon="25.4056">
    <comp name="--.HHE">
      <acc value="0.0540225645" flag="0"/>
      <vel value="0.0295924176" flag="0"/>
      <psa03 value="0.1785292542" flag="0"/>
      <psa10 value="0.0223690642" flag="0"/>
      <psa30 value="0.0032069524" flag="0"/>
    </comp>
    <comp name="--.HHN">
      <acc value="0.0887304230" flag="0"/>
      <vel value="0.0518185037" flag="0"/>
      <psa03 value="0.2555787758" flag="0"/>
      <psa10 value="0.0366243052" flag="0"/>
      <psa30 value="0.0039892841" flag="0"/>
    </comp>
    <comp name="--.HHZ">
      <acc value="0.0743734242" flag="0"/>
      <vel value="0.0322887390" flag="0"/>
      <psa03 value="0.2443155291" flag="0"/>
      <psa10 value="0.0157997510" flag="0"/>
      <psa30 value="0.0033558722" flag="0"/>
    </comp>
  </station>
</stationlist>
