<?xml version="1.0" encoding="UTF-8" standalone="yes"?>
<!DOCTYPE earthquake SYSTEM "stationlist.dtd">
<stationlist created="" xmlns="ch.ethz.sed.shakemap.usgs.xml">
  <station code="ANDN" name="ANDN" netid="TU" insttype="T" lat="37.58" lon="36.3452">
    <comp name="--.HHE">
      <acc value="0.1145395937" flag="0"/>
      <vel value="0.0451222696" flag="0"/>
      <psa03 value="0.1865983991" flag="0"/>
      <psa10 value="0.0335200305" flag="0"/>
      <psa30 value="0.0026065496" flag="0"/>
    </comp>
    <comp name="--.HHZ">
      <acc value="0.0603925194" flag="0"/>
      <vel value="0.0300365301" flag="0"/>
      <psa03 value="0.0927488202" flag="0"/>
      <psa10 value="0.0330685410" flag="0"/>
      <psa30 value="0.0017353673" flag="0"/>
    </comp>
    <comp name="--.HHN">
      <acc value="0.2175069965" flag="0"/>
      <vel value="0.0529377086" flag="0"/>
      <psa03 value="0.5033106390" flag="0"/>
      <psa10 value="0.0380388855" flag="0"/>
      <psa30 value="0.0034115600" flag="0"/>
    </comp>
  </station>
</stationlist>
