<?xml version="1.0" encoding="UTF-8" standalone="yes"?>
<!DOCTYPE earthquake SYSTEM "stationlist.dtd">
<stationlist created="" xmlns="ch.ethz.sed.shakemap.usgs.xml">
  <station code="APE" name="APE" netid="GE" insttype="STS-2/N" lat="37.0727" lon="25.523">
    <comp name="--.HHN">
      <acc value="0.1675452680" flag="0"/>
      <vel value="0.0293520446" flag="0"/>
      <psa03 value="0.0717416211" flag="0"/>
      <psa10 value="0.0072136673" flag="0"/>
      <psa30 value="0.0013285712" flag="0"/>
    </comp>
    <comp name="--.HHE">
      <acc value="0.1238461727" flag="0"/>
      <vel value="0.0215387257" flag="0"/>
      <psa03 value="0.1306270348" flag="0"/>
      <psa10 value="0.0126582771" flag="0"/>
      <psa30 value="0.0012030057" flag="0"/>
    </comp>
    <comp name="--.HHZ">
      <acc value="0.0585052049" flag="0"/>
      <vel value="0.0099347835" flag="0"/>
      <psa03 value="0.0354490738" flag="0"/>
      <psa10 value="0.0065196260" flag="0"/>
      <psa30 value="0.0014211194" flag="0"/>
    </comp>
  </station>
  <station code="THERA" name="THERA" netid="GE" insttype="STS-2/N" lat="36.367" lon="25.4753">
    <comp name="--.HHE">
      <acc value="0.0728462538" flag="0"/>
      <vel value="0.0158914866" flag="0"/>
      <psa03 value="0.0736947365" flag="0"/>
      <psa10 value="0.0085935950" flag="0"/>
      <psa30 value="0.0012741545" flag="0"/>
    </comp>
    <comp name="--.HHZ">
      <acc value="0.0518434267" flag="0"/>
      <vel value="0.0120227663" flag="0"/>
      <psa03 value="0.0553059182" flag="0"/>
      <psa10 value="0.0068671405" flag="0"/>
      <psa30 value="0.0009630705" flag="0"/>
    </comp>
    <comp name="--.HHN">
      <acc value="0.0407454093" flag="0"/>
      <vel value="0.0100236757" flag="0"/>
      <psa03 value="0.0575235828" flag="0"/>
      <psa10 value="0.0038068059" flag="0"/>
      <psa30 value="0.0005380739" flag="0"/>
    </comp>
  </station>
  <station code="SERI" name="SERI" netid="HA" insttype="30" lat="37.1609" lon="24.4853">
    <comp name="--.HHE">
      <acc value="0.0238227997" flag="0"/>
      <vel value="0.0059566444" flag="0"/>
      <psa03 value="0.0133270387" flag="0"/>
      <psa10 value="0.0019746672" flag="0"/>
      <psa30 value="0.0002386954" flag="0"/>
    </comp>
    <comp name="--.HHN">
      <acc value="0.0295234026" flag="0"/>
      <vel value="0.0058648217" flag="0"/>
      <psa03 value="0.0151068969" flag="0"/>
      <psa10 value="0.0035723088" flag="0"/>
      <psa30 value="0.0005021488" flag="0"/>
    </comp>
    <comp name="--.HHZ">
      <acc value="0.0217522724" flag="0"/>
      <vel value="0.0039017720" flag="0"/>
      <psa03 value="0.0100050380" flag="0"/>
      <psa10 value="0.0023980200" flag="0"/>
      <psa30 value="0.0003377393" flag="0"/>
    </comp>
  </station>
  <station code="SNT1" name="SNT1" netid="HA" insttype="30" lat="36.4159" lon="25.4282">
    <comp name="--.HHE">
      <acc value="0.0394026105" flag="0"/>
      <vel value="0.0124000128" flag="0"/>
      <psa03 value="0.0538015700" flag="0"/>
      <psa10 value="0.0202898624" flag="0"/>
      <psa30 value="0.0018377349" flag="0"/>
    </comp>
    <comp name="--.HHZ">
      <acc value="0.0499548001" flag="0"/>
      <vel value="0.0088931333" flag="0"/>
      <psa03 value="0.0369606590" flag="0"/>
      <psa10 value="0.0084030721" flag="0"/>
      <psa30 value="0.0009780304" flag="0"/>
    </comp>
    <comp name="--.HHN">
      <acc value="0.0455850920" flag="0"/>
      <vel value="0.0171470520" flag="0"/>
      <psa03 value="0.0443878609" flag="0"/>
      <psa10 value="0.0149748139" flag="0"/>
      <psa30 value="0.0016899505" flag="0"/>
    </comp>
  </station>
  <station code="NAX1" name="NAX1" netid="HI" insttype="CMG-5TD,ACCELEROMETER,GURALP" lat="37.1014" lon="25.3741">
    <comp name="--.HNE">
      <acc value="0.0932595194" flag="0"/>
      <vel value="0.0273725732" flag="0"/>
      <psa03 value="0.0796210140" flag="0"/>
      <psa10 value="0.0093791942" flag="0"/>
      <psa30 value="0.0007563704" flag="0"/>
    </comp>
    <comp name="--.HNN">
      <acc value="0.0838899073" flag="0"/>
      <vel value="0.0169930801" flag="0"/>
      <psa03 value="0.0573660792" flag="0"/>
      <psa10 value="0.0056766573" flag="0"/>
      <psa30 value="0.0007804601" flag="0"/>
    </comp>
    <comp name="--.HNZ">
      <acc value="0.0522056458" flag="0"/>
      <vel value="0.0098731236" flag="0"/>
      <psa03 value="0.0290476090" flag="0"/>
      <psa10 value="0.0059405803" flag="0"/>
      <psa30 value="0.0010200998" flag="0"/>
    </comp>
  </station>
  <station code="SFR2" name="SFR2" netid="HI" insttype="unknown" lat="36.3998" lon="25.4382">
    <comp name="--.HNE">
      <acc value="0.1387091978" flag="0"/>
      <vel value="0.0342266510" flag="0"/>
      <psa03 value="0.1876482875" flag="0"/>
      <psa10 value="0.0236784492" flag="0"/>
      <psa30 value="0.0021507422" flag="0"/>
    </comp>
    <comp name="--.HNN">
      <acc value="0.1586169996" flag="0"/>
      <vel value="0.0387958547" flag="0"/>
      <psa03 value="0.2113773078" flag="0"/>
      <psa10 value="0.0331598462" flag="0"/>
      <psa30 value="0.0018766544" flag="0"/>
    </comp>
    <comp name="--.HNZ">
      <acc value="0.1397213075" flag="0"/>
      <vel value="0.0342502922" flag="0"/>
      <psa03 value="0.1387546568" flag="0"/>
      <psa10 value="0.0211840603" flag="0"/>
      <psa30 value="0.0012093881" flag="0"/>
    </comp>
  </station>
  <station code="AMGA" name="AMGA" netid="HL" insttype="SMART24" lat="36.8316" lon="25.8938">
    <comp name="--.HHZ">
      <acc value="0.3703587401" flag="0"/>
      <vel value="0.0897365159" flag="0"/>
      <psa03 value="0.3172408315" flag="0"/>
      <psa10 value="0.0180571362" flag="0"/>
      <psa30 value="0.0017189219" flag="0"/>
    </comp>
    <comp name="--.HHE">
      <acc value="0.4382481536" flag="0"/>
      <vel value="0.1011918034" flag="0"/>
      <psa03 value="0.2983942752" flag="0"/>
      <psa10 value="0.0211242408" flag="0"/>
      <psa30 value="0.0023751392" flag="0"/>
    </comp>
    <comp name="--.HHN">
      <acc value="0.6307627661" flag="0"/>
      <vel value="0.1272124766" flag="0"/>
      <psa03 value="0.4661431590" flag="0"/>
      <psa10 value="0.0302740261" flag="0"/>
      <psa30 value="0.0027467215" flag="0"/>
    </comp>
  </station>
  <station code="APE" name="APE" netid="HL" insttype="120" lat="37.0727" lon="25.523">
    <comp name="--.HHE">
      <acc value="0.1164664713" flag="0"/>
      <vel value="0.0209874678" flag="0"/>
      <psa03 value="0.1271784125" flag="0"/>
      <psa10 value="0.0124308029" flag="0"/>
      <psa30 value="0.0011982968" flag="0"/>
    </comp>
    <comp name="--.HHN">
      <acc value="0.1459505081" flag="0"/>
      <vel value="0.0280036828" flag="0"/>
      <psa03 value="0.0687419926" flag="0"/>
      <psa10 value="0.0071170951" flag="0"/>
      <psa30 value="0.0013240671" flag="0"/>
    </comp>
    <comp name="--.HHZ">
      <acc value="0.0490450203" flag="0"/>
      <vel value="0.0093554586" flag="0"/>
      <psa03 value="0.0342648928" flag="0"/>
      <psa10 value="0.0064804370" flag="0"/>
      <psa30 value="0.0014185837" flag="0"/>
    </comp>
  </station>
  <station code="MHLO" name="MHLO" netid="HL" insttype="20" lat="36.6898" lon="24.4017">
    <comp name="--.HHE">
      <acc value="0.0740055885" flag="0"/>
      <vel value="0.0267876676" flag="0"/>
      <psa03 value="0.1154966345" flag="0"/>
      <psa10 value="0.0391224258" flag="0"/>
      <psa30 value="0.0016211043" flag="0"/>
    </comp>
    <comp name="--.HHZ">
      <acc value="0.0202367537" flag="0"/>
      <vel value="0.0079260128" flag="0"/>
      <psa03 value="0.0343465236" flag="0"/>
      <psa10 value="0.0164306023" flag="0"/>
      <psa30 value="0.0010049208" flag="0"/>
    </comp>
    <comp name="--.HHN">
      <acc value="0.0471705857" flag="0"/>
      <vel value="0.0177814633" flag="0"/>
      <psa03 value="0.1167919045" flag="0"/>
      <psa10 value="0.0263236577" flag="0"/>
      <psa30 value="0.0013948617" flag="0"/>
    </comp>
  </station>
  <station code="MILA" name="MILA" netid="HL" insttype="CMG-5" lat="36.7429" lon="24.4282">
    <comp name="00.HNE">
      <acc value="0.0423511539" flag="0"/>
      <vel value="0.0216940480" flag="0"/>
      <psa03 value="0.1183347687" flag="0"/>
      <psa10 value="0.0132795356" flag="0"/>
      <psa30 value="0.0012313093" flag="0"/>
    </comp>
    <comp name="00.HNN">
      <acc value="0.0656613494" flag="0"/>
      <vel value="0.0246071881" flag="0"/>
      <psa03 value="0.1818766256" flag="0"/>
      <psa10 value="0.0163538597" flag="0"/>
      <psa30 value="0.0014003635" flag="0"/>
    </comp>
    <comp name="00.HNZ">
      <acc value="0.0457327466" flag="0"/>
      <vel value="0.0203012245" flag="0"/>
      <psa03 value="0.0692655501" flag="0"/>
      <psa10 value="0.0166554184" flag="0"/>
      <psa30 value="0.0012486988" flag="0"/>
    </comp>
  </station>
  <station code="SANT" name="SANT" netid="HL" insttype="30" lat="36.3705" lon="25.4593">
    <comp name="--.HHE">
      <acc value="0.2121313365" flag="0"/>
      <vel value="0.0372143918" flag="0"/>
      <psa03 value="0.1400180652" flag="0"/>
      <psa10 value="0.0129284542" flag="0"/>
      <psa30 value="0.0013538897" flag="0"/>
    </comp>
    <comp name="--.HHZ">
      <acc value="0.1618800270" flag="0"/>
      <vel value="0.0251337196" flag="0"/>
      <psa03 value="0.0551747049" flag="0"/>
      <psa10 value="0.0083281189" flag="0"/>
      <psa30 value="0.0006966673" flag="0"/>
    </comp>
    <comp name="--.HHN">
      <acc value="0.2543742539" flag="0"/>
      <vel value="0.0257745221" flag="0"/>
      <psa03 value="0.0823824252" flag="0"/>
      <psa10 value="0.0055526124" flag="0"/>
      <psa30 value="0.0009173469" flag="0"/>
    </comp>
  </station>
  <station code="SAP3" name="SAP3" netid="HL" insttype="65535" lat="36.4356" lon="25.3454">
    <comp name="--.HHE">
      <acc value="0.0641066014" flag="0"/>
      <vel value="0.0230015737" flag="0"/>
      <psa03 value="0.0798192140" flag="0"/>
      <psa10 value="0.0197616538" flag="0"/>
      <psa30 value="0.0028112378" flag="0"/>
    </comp>
    <comp name="--.HHN">
      <acc value="0.0770965666" flag="0"/>
      <vel value="0.0229999235" flag="0"/>
      <psa03 value="0.1164623278" flag="0"/>
      <psa10 value="0.0205992149" flag="0"/>
      <psa30 value="0.0033540930" flag="0"/>
    </comp>
    <comp name="--.HHZ">
      <acc value="0.0615640385" flag="0"/>
      <vel value="0.0155020507" flag="0"/>
      <psa03 value="0.0628205143" flag="0"/>
      <psa10 value="0.0069198296" flag="0"/>
      <psa30 value="0.0011523084" flag="0"/>
    </comp>
  </station>
  <station code="THERA" name="THERA" netid="HL" insttype="120" lat="36.367" lon="25.4753">
    <comp name="--.HHZ">
      <acc value="0.0509678790" flag="0"/>
      <vel value="0.0117091403" flag="0"/>
      <psa03 value="0.0537394063" flag="0"/>
      <psa10 value="0.0067738140" flag="0"/>
      <psa30 value="0.0009613348" flag="0"/>
    </comp>
    <comp name="--.HHE">
      <acc value="0.0740096352" flag="0"/>
      <vel value="0.0155302313" flag="0"/>
      <psa03 value="0.0715223830" flag="0"/>
      <psa10 value="0.0084994808" flag="0"/>
      <psa30 value="0.0012753735" flag="0"/>
    </comp>
    <comp name="--.HHN">
      <acc value="0.0796891448" flag="0"/>
      <vel value="0.0194762055" flag="0"/>
      <psa03 value="0.1115979449" flag="0"/>
      <psa10 value="0.0075659887" flag="0"/>
      <psa30 value="0.0010763910" flag="0"/>
    </comp>
  </station>
  <station code="THRA" name="THRA" netid="HL" insttype="CMG-5" lat="36.415" lon="25.4324">
    <comp name="00.HNN">
      <acc value="0.1374738838" flag="0"/>
      <vel value="0.0569924450" flag="0"/>
      <psa03 value="0.3397736106" flag="0"/>
      <psa10 value="0.0502639360" flag="0"/>
      <psa30 value="0.0031603625" flag="0"/>
    </comp>
    <comp name="00.HNE">
      <acc value="0.1789052616" flag="0"/>
      <vel value="0.0604222649" flag="0"/>
      <psa03 value="0.3469631540" flag="0"/>
      <psa10 value="0.0386869996" flag="0"/>
      <psa30 value="0.0033615300" flag="0"/>
    </comp>
    <comp name="00.HNZ">
      <acc value="0.1542901381" flag="0"/>
      <vel value="0.0467288330" flag="0"/>
      <psa03 value="0.2704714995" flag="0"/>
      <psa10 value="0.0197368745" flag="0"/>
      <psa30 value="0.0018310030" flag="0"/>
    </comp>
  </station>
  <station code="AKRO" name="AKRO" netid="HT" insttype="Compact," lat="36.3584" lon="25.3967">
    <comp name="--.HHE">
      <acc value="0.2212656646" flag="0"/>
      <vel value="0.0651089618" flag="0"/>
      <psa03 value="0.3347398577" flag="0"/>
      <psa10 value="0.0285878629" flag="0"/>
      <psa30 value="0.0022738249" flag="0"/>
    </comp>
    <comp name="--.HHN">
      <acc value="0.1764074749" flag="0"/>
      <vel value="0.0439162998" flag="0"/>
      <psa03 value="0.1701731517" flag="0"/>
      <psa10 value="0.0175152651" flag="0"/>
      <psa30 value="0.0013901854" flag="0"/>
    </comp>
    <comp name="--.HHZ">
      <acc value="0.1367582254" flag="0"/>
      <vel value="0.0331174202" flag="0"/>
      <psa03 value="0.0949313013" flag="0"/>
      <psa10 value="0.0146539769" flag="0"/>
      <psa30 value="0.0009259935" flag="0"/>
    </comp>
  </station>
  <station code="CMBO" name="CMBO" netid="HT" insttype="120P," lat="36.4709" lon="25.4056">
    <comp name="--.HHN">
      <acc value="0.1818269504" flag="0"/>
      <vel value="0.0471400041" flag="0"/>
      <psa03 value="0.2035696176" flag="0"/>
      <psa10 value="0.0302787640" flag="0"/>
      <psa30 value="0.0017960749" flag="0"/>
    </comp>
    <comp name="--.HHZ">
      <acc value="0.0907493189" flag="0"/>
      <vel value="0.0254769668" flag="0"/>
      <psa03 value="0.0917781312" flag="0"/>
      <psa10 value="0.0102186967" flag="0"/>
      <psa30 value="0.0011449518" flag="0"/>
    </comp>
    <comp name="--.HHE">
      <acc value="0.0972365512" flag="0"/>
      <vel value="0.0302140830" flag="0"/>
      <psa03 value="0.0966720029" flag="0"/>
      <psa10 value="0.0211827933" flag="0"/>
      <psa30 value="0.0022349778" flag="0"/>
    </comp>
  </station>
</stationlist>
