<?xml version="1.0" encoding="UTF-8" standalone="yes"?>
<!DOCTYPE earthquake SYSTEM "stationlist.dtd">
<stationlist created="" xmlns="ch.ethz.sed.shakemap.usgs.xml">
  <station code="PSAM" name="PSAM" netid="CL" insttype="CMG40-T" lat="38.3218" lon="22.1842">
    <comp name="00.HHZ">
      <acc value="0.0349630167" flag="0"/>
      <vel value="0.0347914592" flag="0"/>
      <psa03 value="0.1023562485" flag="0"/>
      <psa10 value="0.0392342382" flag="0"/>
      <psa30 value="0.0054608163" flag="0"/>
    </comp>
    <comp name="00.HHE">
      <acc value="0.1399103929" flag="0"/>
      <vel value="0.0753081378" flag="0"/>
      <psa03 value="0.2529626951" flag="0"/>
      <psa10 value="0.1058899898" flag="0"/>
      <psa30 value="0.0106022867" flag="0"/>
    </comp>
    <comp name="00.HHN">
      <acc value="0.0580513664" flag="0"/>
      <vel value="0.0444777868" flag="0"/>
      <psa03 value="0.1592257099" flag="0"/>
      <psa10 value="0.0675105735" flag="0"/>
      <psa30 value="0.0066450486" flag="0"/>
    </comp>
  </station>
  <station code="ROD3" name="ROD3" netid="CL" insttype="CMG40-T" lat="38.3081" lon="21.892">
    <comp name="00.HHZ">
      <acc value="0.3724052149" flag="0"/>
      <vel value="0.1640390499" flag="0"/>
      <psa03 value="0.4675985029" flag="0"/>
      <psa10 value="0.1107376605" flag="0"/>
      <psa30 value="0.0150204443" flag="0"/>
    </comp>
    <comp name="00.HHN">
      <acc value="0.7294824177" flag="0"/>
      <vel value="0.3079754249" flag="0"/>
      <psa03 value="1.9901127288" flag="0"/>
      <psa10 value="0.2592231114" flag="0"/>
      <psa30 value="0.0208906160" flag="0"/>
    </comp>
    <comp name="00.HHE">
      <acc value="0.6457013568" flag="0"/>
      <vel value="0.2646639345" flag="0"/>
      <psa03 value="1.8289502563" flag="0"/>
      <psa10 value="0.1850222545" flag="0"/>
      <psa30 value="0.0178801119" flag="0"/>
    </comp>
  </station>
  <station code="TRIZ" name="TRIZ" netid="CL" insttype="STS-2" lat="38.3654" lon="22.0727">
    <comp name="00.HH3">
      <acc value="0.1408006512" flag="0"/>
      <vel value="0.0691650285" flag="0"/>
      <psa03 value="0.3731318330" flag="0"/>
      <psa10 value="0.0939703722" flag="0"/>
      <psa30 value="0.0113088188" flag="0"/>
    </comp>
    <comp name="00.HHZ">
      <acc value="0.0611885663" flag="0"/>
      <vel value="0.0355642060" flag="0"/>
      <psa03 value="0.0838621155" flag="0"/>
      <psa10 value="0.0435314516" flag="0"/>
      <psa30 value="0.0051741232" flag="0"/>
    </comp>
    <comp name="00.HH2">
      <acc value="0.0734051651" flag="0"/>
      <vel value="0.0482653189" flag="0"/>
      <psa03 value="0.2148459471" flag="0"/>
      <psa10 value="0.0666964467" flag="0"/>
      <psa30 value="0.0068857174" flag="0"/>
    </comp>
  </station>
  <station code="ZIRI" name="ZIRI" netid="CL" insttype="TRILLIUM-40" lat="38.3051" lon="21.9476">
    <comp name="01.HHZ">
      <acc value="0.1724042213" flag="0"/>
      <vel value="0.1020470577" flag="0"/>
      <psa03 value="0.4417141790" flag="0"/>
      <psa10 value="0.1025723819" flag="0"/>
      <psa30 value="0.0122305618" flag="0"/>
    </comp>
    <comp name="01.HHN">
      <acc value="0.2508078840" flag="0"/>
      <vel value="0.1610041237" flag="0"/>
      <psa03 value="0.8693784581" flag="0"/>
      <psa10 value="0.1594216242" flag="0"/>
      <psa30 value="0.0105599383" flag="0"/>
    </comp>
    <comp name="01.HHE">
      <acc value="0.2874525169" flag="0"/>
      <vel value="0.2015144866" flag="0"/>
      <psa03 value="0.6867904463" flag="0"/>
      <psa10 value="0.1508308072" flag="0"/>
      <psa30 value="0.0101553793" flag="0"/>
    </comp>
  </station>
  <station code="KLV" name="KLV" netid="MN" insttype="" lat="38.0437" lon="22.1504">
    <comp name="--.HHE">
      <acc value="0.0487972715" flag="0"/>
      <vel value="0.0282931136" flag="0"/>
      <psa03 value="0.1029208089" flag="0"/>
      <psa10 value="0.0503131263" flag="0"/>
      <psa30 value="0.0043010459" flag="0"/>
    </comp>
    <comp name="--.HHZ">
      <acc value="0.0524567623" flag="0"/>
      <vel value="0.0416262397" flag="0"/>
      <psa03 value="0.1535235338" flag="0"/>
      <psa10 value="0.0503138515" flag="0"/>
      <psa30 value="0.0044125570" flag="0"/>
    </comp>
    <comp name="--.HHN">
      <acc value="0.0724893149" flag="0"/>
      <vel value="0.0435246331" flag="0"/>
      <psa03 value="0.1577293505" flag="0"/>
      <psa10 value="0.0635246085" flag="0"/>
      <psa30 value="0.0079102381" flag="0"/>
    </comp>
  </station>
</stationlist>
