<?xml version="1.0" encoding="UTF-8" standalone="yes"?>
<!DOCTYPE earthquake SYSTEM "stationlist.dtd">
<stationlist created="" xmlns="ch.ethz.sed.shakemap.usgs.xml">
  <station code="PSAM" name="PSAM" netid="CL" insttype="CMG40-T" lat="38.3218" lon="22.1842">
    <comp name="00.HHZ">
      <acc value="0.0349630167" flag="0"/>
      <vel value="0.0347914592" flag="0"/>
      <psa03 value="0.1023562485" flag="0"/>
      <psa10 value="0.0392342382" flag="0"/>
      <psa30 value="0.0054608163" flag="0"/>
    </comp>
    <comp name="00.HHE">
      <acc value="0.1399103929" flag="0"/>
      <vel value="0.0753081378" flag="0"/>
      <psa03 value="0.2529626951" flag="0"/>
      <psa10 value="0.1058899898" flag="0"/>
      <psa30 value="0.0106022867" flag="0"/>
    </comp>
    <comp name="00.HHN">
      <acc value="0.0580513664" flag="0"/>
      <vel value="0.0444777868" flag="0"/>
      <psa03 value="0.1592257099" flag="0"/>
      <psa10 value="0.0675105735" flag="0"/>
      <psa30 value="0.0066450486" flag="0"/>
    </comp>
  </station>
  <station code="ROD3" name="ROD3" netid="CL" insttype="CMG40-T" lat="38.3081" lon="21.892">
    <comp name="00.HHZ">
      <acc value="0.3724052149" flag="0"/>
      <vel value="0.1640390499" flag="0"/>
      <psa03 value="0.4675985029" flag="0"/>
      <psa10 value="0.1107376605" flag="0"/>
      <psa30 value="0.0150204443" flag="0"/>
    </comp>
    <comp name="00.HHN">
      <acc value="0.7294824177" flag="0"/>
      <vel value="0.3079754249" flag="0"/>
      <psa03 value="1.9901127288" flag="0"/>
      <psa10 value="0.2592231114" flag="0"/>
      <psa30 value="0.0208906160" flag="0"/>
    </comp>
    <comp name="00.HHE">
      <acc value="0.6457013568" flag="0"/>
      <vel value="0.2646639345" flag="0"/>
      <psa03 value="1.8289502563" flag="0"/>
      <psa10 value="0.1850222545" flag="0"/>
      <psa30 value="0.0178801119" flag="0"/>
    </comp>
  </station>
  <station code="TRIZ" name="TRIZ" netid="CL" insttype="STS-2" lat="38.3654" lon="22.0727">
    <comp name="00.HH3">
      <acc value="0.1408006512" flag="0"/>
      <vel value="0.0691650285" flag="0"/>
      <psa03 value="0.3731318330" flag="0"/>
      <psa10 value="0.0939703722" flag="0"/>
      <psa30 value="0.0113088188" flag="0"/>
    </comp>
    <comp name="00.HHZ">
      <acc value="0.0611885663" flag="0"/>
      <vel value="0.0355642060" flag="0"/>
      <psa03 value="0.0838621155" flag="0"/>
      <psa10 value="0.0435314516" flag="0"/>
      <psa30 value="0.0051741232" flag="0"/>
    </comp>
    <comp name="00.HH2">
      <acc value="0.0734051651" flag="0"/>
      <vel value="0.0482653189" flag="0"/>
      <psa03 value="0.2148459471" flag="0"/>
      <psa10 value="0.0666964467" flag="0"/>
      <psa30 value="0.0068857174" flag="0"/>
    </comp>
  </station>
  <station code="ZIRI" name="ZIRI" netid="CL" insttype="TRILLIUM-40" lat="38.3051" lon="21.9476">
    <comp name="01.HHZ">
      <acc value="0.1724042213" flag="0"/>
      <vel value="0.1020470577" flag="0"/>
      <psa03 value="0.4417141790" flag="0"/>
      <psa10 value="0.1025723819" flag="0"/>
      <psa30 value="0.0122305618" flag="0"/>
    </comp>
    <comp name="01.HHN">
      <acc value="0.2508078840" flag="0"/>
      <vel value="0.1610041237" flag="0"/>
      <psa03 value="0.8693784581" flag="0"/>
      <psa10 value="0.1594216242" flag="0"/>
      <psa30 value="0.0105599383" flag="0"/>
    </comp>
    <comp name="01.HHE">
      <acc value="0.2874525169" flag="0"/>
      <vel value="0.2015144866" flag="0"/>
      <psa03 value="0.6867904463" flag="0"/>
      <psa10 value="0.1508308072" flag="0"/>
      <psa30 value="0.0101553793" flag="0"/>
    </comp>
  </station>
  <station code="ANTK" name="ANTK" netid="HA" insttype="25" lat="38.3605" lon="22.6385">
    <comp name="--.HHN">
      <acc value="0.0003512803" flag="0"/>
      <vel value="0.0001749948" flag="0"/>
      <psa03 value="0.0012911691" flag="0"/>
      <psa10 value="0.0001775462" flag="0"/>
      <psa30 value="0.0000212973" flag="0"/>
    </comp>
    <comp name="--.HHE">
      <acc value="0.0065963098" flag="0"/>
      <vel value="0.0063096804" flag="0"/>
      <psa03 value="0.0178755873" flag="0"/>
      <psa10 value="0.0129905022" flag="0"/>
      <psa30 value="0.0018741464" flag="0"/>
    </comp>
    <comp name="--.HHZ">
      <acc value="0.0054848927" flag="0"/>
      <vel value="0.0054539560" flag="0"/>
      <psa03 value="0.0107183721" flag="0"/>
      <psa10 value="0.0106869815" flag="0"/>
      <psa30 value="0.0009057976" flag="0"/>
    </comp>
  </station>
  <station code="ATHR" name="ATHR" netid="HA" insttype="GEOtiny," lat="38.3172" lon="20.4165">
    <comp name="--.HHZ">
      <acc value="0.0382718660" flag="0"/>
      <vel value="0.0418928516" flag="0"/>
      <psa03 value="0.0833908795" flag="0"/>
      <psa10 value="0.0529205056" flag="0"/>
      <psa30 value="0.0082663512" flag="0"/>
    </comp>
    <comp name="--.HHN">
      <acc value="0.0475064046" flag="0"/>
      <vel value="0.0418499519" flag="0"/>
      <psa03 value="0.1366471162" flag="0"/>
      <psa10 value="0.0864298596" flag="0"/>
      <psa30 value="0.0114378712" flag="0"/>
    </comp>
    <comp name="--.HHE">
      <acc value="0.0710793376" flag="0"/>
      <vel value="0.0605675059" flag="0"/>
      <psa03 value="0.1206491053" flag="0"/>
      <psa10 value="0.0739251513" flag="0"/>
      <psa30 value="0.0087942476" flag="0"/>
    </comp>
  </station>
  <station code="HAVD" name="HAVD" netid="HA" insttype="GEOtiny," lat="38.2036" lon="20.3848">
    <comp name="--.HHN">
      <acc value="0.1218535979" flag="0"/>
      <vel value="0.0799049310" flag="0"/>
      <psa03 value="0.2006419160" flag="0"/>
      <psa10 value="0.0882817680" flag="0"/>
      <psa30 value="0.0112623378" flag="0"/>
    </comp>
    <comp name="--.HHZ">
      <acc value="0.1016567362" flag="0"/>
      <vel value="0.0334318716" flag="0"/>
      <psa03 value="0.2129713627" flag="0"/>
      <psa10 value="0.0381601872" flag="0"/>
      <psa30 value="0.0078055252" flag="0"/>
    </comp>
    <comp name="--.HHE">
      <acc value="0.1024910983" flag="0"/>
      <vel value="0.0397246029" flag="0"/>
      <psa03 value="0.1386886107" flag="0"/>
      <psa10 value="0.0534456476" flag="0"/>
      <psa30 value="0.0100835583" flag="0"/>
    </comp>
  </station>
  <station code="KALE" name="KALE" netid="HA" insttype="40," lat="38.3911" lon="22.1398">
    <comp name="--.HHE">
      <acc value="0.0944459782" flag="0"/>
      <vel value="0.0607880660" flag="0"/>
      <psa03 value="0.2325067922" flag="0"/>
      <psa10 value="0.0805813980" flag="0"/>
      <psa30 value="0.0072558121" flag="0"/>
    </comp>
    <comp name="--.HHN">
      <acc value="0.1212609135" flag="0"/>
      <vel value="0.0759807896" flag="0"/>
      <psa03 value="0.2355127580" flag="0"/>
      <psa10 value="0.0874059874" flag="0"/>
      <psa30 value="0.0071876191" flag="0"/>
    </comp>
    <comp name="--.HHZ">
      <acc value="0.0556077544" flag="0"/>
      <vel value="0.0344437426" flag="0"/>
      <psa03 value="0.1154029520" flag="0"/>
      <psa10 value="0.0305406306" flag="0"/>
      <psa30 value="0.0046465613" flag="0"/>
    </comp>
  </station>
  <station code="THAL" name="THAL" netid="HA" insttype="30" lat="38.0357" lon="22.6634">
    <comp name="--.HHN">
      <acc value="0.0900385117" flag="0"/>
      <vel value="0.0763951277" flag="0"/>
      <psa03 value="0.1973757735" flag="0"/>
      <psa10 value="0.0891022877" flag="0"/>
      <psa30 value="0.0138719156" flag="0"/>
    </comp>
    <comp name="--.HHZ">
      <acc value="0.0553862384" flag="0"/>
      <vel value="0.0405633719" flag="0"/>
      <psa03 value="0.1205069575" flag="0"/>
      <psa10 value="0.0773698392" flag="0"/>
      <psa30 value="0.0063597628" flag="0"/>
    </comp>
    <comp name="--.HHE">
      <acc value="0.0798497615" flag="0"/>
      <vel value="0.0723428209" flag="0"/>
      <psa03 value="0.1859029161" flag="0"/>
      <psa10 value="0.1648264469" flag="0"/>
      <psa30 value="0.0139325310" flag="0"/>
    </comp>
  </station>
  <station code="ARG2" name="ARG2" netid="HI" insttype="CMG-5TD,ACCELEROMETER,GURALP" lat="38.1783" lon="20.4878">
    <comp name="--.HNN">
      <acc value="0.2570194898" flag="0"/>
      <vel value="0.1402971632" flag="0"/>
      <psa03 value="0.4787394330" flag="0"/>
      <psa10 value="0.1250123352" flag="0"/>
      <psa30 value="0.0095890454" flag="0"/>
    </comp>
    <comp name="--.HNE">
      <acc value="0.3684772137" flag="0"/>
      <vel value="0.1109318000" flag="0"/>
      <psa03 value="0.3654464462" flag="0"/>
      <psa10 value="0.1231514755" flag="0"/>
      <psa30 value="0.0087187370" flag="0"/>
    </comp>
    <comp name="--.HNZ">
      <acc value="0.1798087093" flag="0"/>
      <vel value="0.0568546287" flag="0"/>
      <psa03 value="0.4412108312" flag="0"/>
      <psa10 value="0.0862275880" flag="0"/>
      <psa30 value="0.0064525213" flag="0"/>
    </comp>
  </station>
  <station code="KRI1" name="KRI1" netid="HI" insttype="CMG-5TD,ACCELEROMETER,GURALP" lat="37.6621" lon="20.8172">
    <comp name="--.HNZ">
      <acc value="0.3366366939" flag="0"/>
      <vel value="0.1273151705" flag="0"/>
      <psa03 value="0.7854009285" flag="0"/>
      <psa10 value="0.0754527864" flag="0"/>
      <psa30 value="0.0134297047" flag="0"/>
    </comp>
    <comp name="--.HNN">
      <acc value="0.4767726748" flag="0"/>
      <vel value="0.2456158539" flag="0"/>
      <psa03 value="1.2693539539" flag="0"/>
      <psa10 value="0.3278009984" flag="0"/>
      <psa30 value="0.0217081425" flag="0"/>
    </comp>
    <comp name="--.HNE">
      <acc value="0.8411909508" flag="0"/>
      <vel value="0.4499725714" flag="0"/>
      <psa03 value="2.4806693186" flag="0"/>
      <psa10 value="0.1669773012" flag="0"/>
      <psa30 value="0.0185394254" flag="0"/>
    </comp>
  </station>
  <station code="MSL1" name="MSL1" netid="HI" insttype="CMG-5TD,ACCELEROMETER,GURALP" lat="38.3727" lon="21.4243">
    <comp name="--.HNN">
      <acc value="0.6143983677" flag="0"/>
      <vel value="0.4384532201" flag="0"/>
      <psa03 value="2.0360875577" flag="0"/>
      <psa10 value="0.3878184184" flag="0"/>
      <psa30 value="0.0416924813" flag="0"/>
    </comp>
    <comp name="--.HNE">
      <acc value="0.2913560133" flag="0"/>
      <vel value="0.4514967751" flag="0"/>
      <psa03 value="0.8010500251" flag="0"/>
      <psa10 value="0.5583689886" flag="0"/>
      <psa30 value="0.0833071121" flag="0"/>
    </comp>
    <comp name="--.HNZ">
      <acc value="0.1516487845" flag="0"/>
      <vel value="0.1116267802" flag="0"/>
      <psa03 value="0.4957263294" flag="0"/>
      <psa10 value="0.1854118672" flag="0"/>
      <psa30 value="0.0204325503" flag="0"/>
    </comp>
  </station>
  <station code="VAS2" name="VAS2" netid="HI" insttype="CMG-5TD,ACCELEROMETER,GURALP" lat="38.6306" lon="20.6081">
    <comp name="--.HNN">
      <acc value="0.4677534902" flag="0"/>
      <vel value="0.3191574346" flag="0"/>
      <psa03 value="1.1142265028" flag="0"/>
      <psa10 value="0.9204129476" flag="0"/>
      <psa30 value="0.0547501145" flag="0"/>
    </comp>
    <comp name="--.HNZ">
      <acc value="0.2191563827" flag="0"/>
      <vel value="0.1346127308" flag="0"/>
      <psa03 value="0.5960683263" flag="0"/>
      <psa10 value="0.1546121963" flag="0"/>
      <psa30 value="0.0139220328" flag="0"/>
    </comp>
    <comp name="--.HNE">
      <acc value="0.3422022700" flag="0"/>
      <vel value="0.3155425068" flag="0"/>
      <psa03 value="0.7674215757" flag="0"/>
      <psa10 value="0.7506431284" flag="0"/>
      <psa30 value="0.0348088261" flag="0"/>
    </comp>
  </station>
  <station code="EVR" name="EVR" netid="HL" insttype="DR24" lat="38.9166" lon="21.8105">
    <comp name="--.HHE">
      <acc value="0.0332372377" flag="0"/>
      <vel value="0.0398775030" flag="0"/>
      <psa03 value="0.0895829824" flag="0"/>
      <psa10 value="0.0370809352" flag="0"/>
      <psa30 value="0.0113964852" flag="0"/>
    </comp>
    <comp name="--.HHZ">
      <acc value="0.0306730372" flag="0"/>
      <vel value="0.0260016227" flag="0"/>
      <psa03 value="0.0664400106" flag="0"/>
      <psa10 value="0.0381730390" flag="0"/>
      <psa30 value="0.0060513946" flag="0"/>
    </comp>
    <comp name="--.HHN">
      <acc value="0.0369552657" flag="0"/>
      <vel value="0.0237943413" flag="0"/>
      <psa03 value="0.0540015786" flag="0"/>
      <psa10 value="0.0414314583" flag="0"/>
      <psa30 value="0.0043286292" flag="0"/>
    </comp>
  </station>
  <station code="ITM" name="ITM" netid="HL" insttype="DR24" lat="37.1787" lon="21.9252">
    <comp name="--.HHE">
      <acc value="0.0520205193" flag="0"/>
      <vel value="0.0619269586" flag="0"/>
      <psa03 value="0.2066681241" flag="0"/>
      <psa10 value="0.0691627030" flag="0"/>
      <psa30 value="0.0104494916" flag="0"/>
    </comp>
    <comp name="--.HHN">
      <acc value="0.0653874929" flag="0"/>
      <vel value="0.0798811695" flag="0"/>
      <psa03 value="0.1608701989" flag="0"/>
      <psa10 value="0.0929380222" flag="0"/>
      <psa30 value="0.0137071000" flag="0"/>
    </comp>
    <comp name="--.HHZ">
      <acc value="0.0422034208" flag="0"/>
      <vel value="0.0443964109" flag="0"/>
      <psa03 value="0.0973649838" flag="0"/>
      <psa10 value="0.0575909386" flag="0"/>
      <psa30 value="0.0083479673" flag="0"/>
    </comp>
  </station>
  <station code="KLV" name="KLV" netid="HL" insttype="120" lat="38.0435" lon="22.1504">
    <comp name="--.HHN">
      <acc value="0.0686812323" flag="0"/>
      <vel value="0.0430612926" flag="0"/>
      <psa03 value="0.1534617967" flag="0"/>
      <psa10 value="0.0631622438" flag="0"/>
      <psa30 value="0.0078992704" flag="0"/>
    </comp>
    <comp name="--.HHE">
      <acc value="0.0472995463" flag="0"/>
      <vel value="0.0276763666" flag="0"/>
      <psa03 value="0.1001250803" flag="0"/>
      <psa10 value="0.0499857387" flag="0"/>
      <psa30 value="0.0042916922" flag="0"/>
    </comp>
    <comp name="--.HHZ">
      <acc value="0.0509625164" flag="0"/>
      <vel value="0.0409120699" flag="0"/>
      <psa03 value="0.1498537554" flag="0"/>
      <psa10 value="0.0499848036" flag="0"/>
      <psa30 value="0.0044050289" flag="0"/>
    </comp>
  </station>
  <station code="ORTH" name="ORTH" netid="HL" insttype="30" lat="37.8511" lon="20.6963">
    <comp name="--.HHE">
      <acc value="0.7063886997" flag="0"/>
      <vel value="0.2783853037" flag="0"/>
      <psa03 value="1.6522106007" flag="0"/>
      <psa10 value="0.1423529861" flag="0"/>
      <psa30 value="0.0257877415" flag="0"/>
    </comp>
    <comp name="--.HHZ">
      <acc value="0.3960094263" flag="0"/>
      <vel value="0.1354174939" flag="0"/>
      <psa03 value="1.0397657771" flag="0"/>
      <psa10 value="0.0633198263" flag="0"/>
      <psa30 value="0.0108669320" flag="0"/>
    </comp>
    <comp name="--.HHN">
      <acc value="1.3725860313" flag="0"/>
      <vel value="0.4893525177" flag="0"/>
      <psa03 value="1.8790234862" flag="0"/>
      <psa10 value="0.2306337159" flag="0"/>
      <psa30 value="0.0448790886" flag="0"/>
    </comp>
  </station>
  <station code="PATC" name="PATC" netid="HL" insttype="CMG-5" lat="38.2693" lon="21.76">
    <comp name="00.HNN">
      <acc value="0.2943425414" flag="0"/>
      <vel value="0.2607819824" flag="0"/>
      <psa03 value="0.7348304174" flag="0"/>
      <psa10 value="0.2460274997" flag="0"/>
      <psa30 value="0.0533043548" flag="0"/>
    </comp>
    <comp name="00.HNE">
      <acc value="0.2816706883" flag="0"/>
      <vel value="0.2500556284" flag="0"/>
      <psa03 value="0.6632030668" flag="0"/>
      <psa10 value="0.3735633012" flag="0"/>
      <psa30 value="0.0620501066" flag="0"/>
    </comp>
    <comp name="00.HNZ">
      <acc value="0.2307517094" flag="0"/>
      <vel value="0.1701166781" flag="0"/>
      <psa03 value="0.5479494442" flag="0"/>
      <psa10 value="0.1859806090" flag="0"/>
      <psa30 value="0.0198901648" flag="0"/>
    </comp>
  </station>
  <station code="PATG" name="PATG" netid="HL" insttype="CMG-5" lat="38.2386" lon="21.7266">
    <comp name="00.HNN">
      <acc value="0.6955519380" flag="0"/>
      <vel value="0.4247929798" flag="0"/>
      <psa03 value="1.6760120546" flag="0"/>
      <psa10 value="0.5320302563" flag="0"/>
      <psa30 value="0.0838501314" flag="0"/>
    </comp>
    <comp name="00.HNZ">
      <acc value="0.2303571949" flag="0"/>
      <vel value="0.2143643290" flag="0"/>
      <psa03 value="0.7119982394" flag="0"/>
      <psa10 value="0.2858099237" flag="0"/>
      <psa30 value="0.0444027380" flag="0"/>
    </comp>
    <comp name="00.HNE">
      <acc value="0.6269375121" flag="0"/>
      <vel value="0.3723512157" flag="0"/>
      <psa03 value="1.7281849414" flag="0"/>
      <psa10 value="0.4313994965" flag="0"/>
      <psa30 value="0.0600402896" flag="0"/>
    </comp>
  </station>
  <station code="RIOA" name="RIOA" netid="HL" insttype="CMG-5" lat="38.2959" lon="21.7912">
    <comp name="00.HNE">
      <acc value="0.2416680977" flag="0"/>
      <vel value="0.1245827381" flag="0"/>
      <psa03 value="0.4035694492" flag="0"/>
      <psa10 value="0.1499150121" flag="0"/>
      <psa30 value="0.0324670516" flag="0"/>
    </comp>
    <comp name="00.HNN">
      <acc value="0.2699090267" flag="0"/>
      <vel value="0.1300913055" flag="0"/>
      <psa03 value="0.5454937644" flag="0"/>
      <psa10 value="0.1759283124" flag="0"/>
      <psa30 value="0.0284300036" flag="0"/>
    </comp>
    <comp name="00.HNZ">
      <acc value="0.1648497244" flag="0"/>
      <vel value="0.1121711011" flag="0"/>
      <psa03 value="0.2284317593" flag="0"/>
      <psa10 value="0.0847484422" flag="0"/>
      <psa30 value="0.0159369571" flag="0"/>
    </comp>
  </station>
  <station code="RLS" name="RLS" netid="HL" insttype="CMG3ESPC-120s" lat="38.0559" lon="21.4647">
    <comp name="--.HHN">
      <acc value="0.7826409189" flag="0"/>
      <vel value="0.2757362844" flag="0"/>
      <psa03 value="0.7295088277" flag="0"/>
      <psa10 value="0.1316097174" flag="0"/>
      <psa30 value="0.0182985751" flag="0"/>
    </comp>
    <comp name="--.HHE">
      <acc value="0.5655751780" flag="0"/>
      <vel value="0.2590907182" flag="0"/>
      <psa03 value="1.5727191346" flag="0"/>
      <psa10 value="0.2135604952" flag="0"/>
      <psa30 value="0.0169046904" flag="0"/>
    </comp>
    <comp name="--.HHZ">
      <acc value="0.3084856946" flag="0"/>
      <vel value="0.1151452619" flag="0"/>
      <psa03 value="0.4923814020" flag="0"/>
      <psa10 value="0.0817187769" flag="0"/>
      <psa30 value="0.0163881624" flag="0"/>
    </comp>
  </station>
  <station code="VELA" name="VELA" netid="HL" insttype="DC" lat="37.9749" lon="22.7661">
    <comp name="00.HNE">
      <acc value="0.0777285630" flag="0"/>
      <vel value="0.0778919642" flag="0"/>
      <psa03 value="0.2944378250" flag="0"/>
      <psa10 value="0.1178680878" flag="0"/>
      <psa30 value="0.0232846865" flag="0"/>
    </comp>
    <comp name="00.HNZ">
      <acc value="0.0416053725" flag="0"/>
      <vel value="0.0491830291" flag="0"/>
      <psa03 value="0.0846223463" flag="0"/>
      <psa10 value="0.0701591107" flag="0"/>
      <psa30 value="0.0146467197" flag="0"/>
    </comp>
    <comp name="00.HNN">
      <acc value="0.0925914069" flag="0"/>
      <vel value="0.1018126939" flag="0"/>
      <psa03 value="0.1950371067" flag="0"/>
      <psa10 value="0.1592978202" flag="0"/>
      <psa30 value="0.0297534451" flag="0"/>
    </comp>
  </station>
  <station code="VLS" name="VLS" netid="HL" insttype="120P," lat="38.1768" lon="20.5886">
    <comp name="--.HHE">
      <acc value="0.3137072159" flag="0"/>
      <vel value="0.0605439411" flag="0"/>
      <psa03 value="0.3343646156" flag="0"/>
      <psa10 value="0.0759594394" flag="0"/>
      <psa30 value="0.0035755109" flag="0"/>
    </comp>
    <comp name="--.HHN">
