<stationlist created="1720357295">
	<station code="MALA" name="MALA" netid="CL" source="Corinth Riff Laboratory (CRLNET)" insttype="" lat="38.39341" lon="21.87263">
		<comp name="00.HNE" depth="0.0">
			<acc value="0.31808472982272" flag="0"/>
			<vel value="0.167391953915" flag="0"/>
			<psa03 value="0.404010722060868" flag="0"/>
			<psa10 value="0.26223132153812" flag="0"/>
			<psa30 value="0.0428181031558443" flag="0"/>
		</comp>
		<comp name="00.HNN" depth="0.0">
			<acc value="0.30212551252026" flag="0"/>
			<vel value="0.193025011789" flag="0"/>
			<psa03 value="0.522057708760559" flag="0"/>
			<psa10 value="0.212528453966853" flag="0"/>
			<psa30 value="0.0403264080932733" flag="0"/>
		</comp>
		<comp name="00.HNZ" depth="0.0">
			<acc value="0.077367161563818" flag="0"/>
			<vel value="0.0664524967483" flag="0"/>
			<psa03 value="0.16026460632707" flag="0"/>
			<psa10 value="0.0825411304446999" flag="0"/>
			<psa30 value="0.0156644876954477" flag="0"/>
		</comp>
	</station>
	<station code="ROD3" name="ROD3" netid="CL" source="Corinth Riff Laboratory (CRLNET)" insttype="" lat="38.30811" lon="21.89204">
		<comp name="00.HNE" depth="0.0">
			<acc value="0.51039222671592" flag="0"/>
			<vel value="0.212109088072" flag="0"/>
			<psa03 value="1.48404681081777" flag="0"/>
			<psa10 value="0.150222426498515" flag="0"/>
			<psa30 value="0.0144859062868458" flag="0"/>
		</comp>
		<comp name="00.HNN" depth="0.0">
			<acc value="0.60602551347846" flag="0"/>
			<vel value="0.258613449822" flag="0"/>
			<psa03 value="1.65940492743169" flag="0"/>
			<psa10 value="0.216278717403779" flag="0"/>
			<psa30 value="0.0173538079379346" flag="0"/>
		</comp>
		<comp name="00.HNZ" depth="0.0">
			<acc value="0.30133339812036" flag="0"/>
			<vel value="0.137422993032" flag="0"/>
			<psa03 value="0.378099172214461" flag="0"/>
			<psa10 value="0.0870054186819782" flag="0"/>
			<psa30 value="0.0122251415222908" flag="0"/>
		</comp>
	</station>
	<station code="TRIZ" name="TRIZ" netid="CL" source="Corinth Riff Laboratory (CRLNET)" insttype="" lat="38.36543" lon="22.07272">
		<comp name="00.HNE" depth="0.0">
			<acc value="0.072101258186112" flag="0"/>
			<vel value="0.039246518425" flag="0"/>
			<psa03 value="0.172929632822922" flag="0"/>
			<psa10 value="0.0533724706641774" flag="0"/>
			<psa30 value="0.00690850098761291" flag="0"/>
		</comp>
		<comp name="00.HNN" depth="0.0">
			<acc value="0.1344348302793" flag="0"/>
			<vel value="0.0779919982614" flag="0"/>
			<psa03 value="0.393951389012879" flag="0"/>
			<psa10 value="0.109236831404129" flag="0"/>
			<psa30 value="0.0115473266204039" flag="0"/>
		</comp>
		<comp name="00.HNZ" depth="0.0">
			<acc value="0.061376095059096" flag="0"/>
			<vel value="0.0349617438181" flag="0"/>
			<psa03 value="0.0823329020675154" flag="0"/>
			<psa10 value="0.0441085619756355" flag="0"/>
			<psa30 value="0.00553539752626988" flag="0"/>
		</comp>
	</station>
	<station code="AIGS" name="AIGS" netid="HA" source="Hellenic Seismological Network, University of Athens, Seismological Laboratory (HA)" insttype="" lat="38.25001" lon="22.0878">
		<comp name=".HNE" depth="0.0">
			<acc value="0.20188779793932" flag="0"/>
			<vel value="0.1010833669" flag="0"/>
			<psa03 value="0.353002884708859" flag="0"/>
			<psa10 value="0.105172057132795" flag="0"/>
			<psa30 value="0.0144845261954516" flag="0"/>
		</comp>
		<comp name=".HNN" depth="0.0">
			<acc value="0.15391025113956" flag="0"/>
			<vel value="0.131906724022" flag="0"/>
			<psa03 value="0.548771520084436" flag="0"/>
			<psa10 value="0.160647802128345" flag="0"/>
			<psa30 value="0.0157707830703263" flag="0"/>
		</comp>
		<comp name=".HNZ" depth="0.0">
			<acc value="0.097123710191136" flag="0"/>
			<vel value="0.0679941753407" flag="0"/>
			<psa03 value="0.22659899023773" flag="0"/>
			<psa10 value="0.074052825636324" flag="0"/>
			<psa30 value="0.0118340906170758" flag="0"/>
		</comp>
	</station>
	<station code="KIAS" name="KIAS" netid="HA" source="Hellenic Seismological Network, University of Athens, Seismological Laboratory (HA)" insttype="" lat="37.9875" lon="22.7543">
		<comp name=".HNE" depth="0.0">
			<acc value="0.055257692757312" flag="0"/>
			<vel value="0.091734729894" flag="0"/>
			<psa03 value="0.121492308686035" flag="0"/>
			<psa10 value="0.108638644277113" flag="0"/>
			<psa30 value="0.0292722024731066" flag="0"/>
		</comp>
		<comp name=".HNN" depth="0.0">
			<acc value="0.04242812958501" flag="0"/>
			<vel value="0.0551967739336" flag="0"/>
			<psa03 value="0.0898018239302723" flag="0"/>
			<psa10 value="0.0740907106458236" flag="0"/>
			<psa30 value="0.0243111238259747" flag="0"/>
		</comp>
		<comp name=".HNZ" depth="0.0">
			<acc value="0.039745716848544" flag="0"/>
			<vel value="0.0479183530503" flag="0"/>
			<psa03 value="0.0821515098425073" flag="0"/>
			<psa10 value="0.0590373934375288" flag="0"/>
			<psa30 value="0.0140244857200356" flag="0"/>
		</comp>
	</station>
	<station code="ARG2" name="ARG2" netid="HI" source="ITSAK Strong Motion Network" insttype="" lat="38.1783" lon="20.4878">
		<comp name=".HNE" depth="0.0">
			<acc value="0.36653568852276" flag="0"/>
			<vel value="0.114976515549" flag="0"/>
			<psa03 value="0.36604449865142" flag="0"/>
			<psa10 value="0.123102932464963" flag="0"/>
			<psa30 value="0.00981537188689966" flag="0"/>
		</comp>
		<comp name=".HNN" depth="0.0">
			<acc value="0.25769074095762" flag="0"/>
			<vel value="0.143548504177" flag="0"/>
			<psa03 value="0.481036407966919" flag="0"/>
			<psa10 value="0.124960565524359" flag="0"/>
			<psa30 value="0.0102993264464808" flag="0"/>
		</comp>
		<comp name=".HNZ" depth="0.0">
			<acc value="0.17761320793938" flag="0"/>
			<vel value="0.0581027161873" flag="0"/>
			<psa03 value="0.445862994568392" flag="0"/>
			<psa10 value="0.086330531473943" flag="0"/>
			<psa30 value="0.00686636777982224" flag="0"/>
		</comp>
	</station>
	<station code="ARS1" name="ARS1" netid="HI" source="ITSAK Strong Motion Network" insttype="" lat="37.6349" lon="22.7293">
		<comp name=".HNE" depth="0.0">
			<acc value="0.050480697956592" flag="0"/>
			<vel value="0.0621991710257" flag="0"/>
			<psa03 value="0.105907765869763" flag="0"/>
			<psa10 value="0.0952860947360528" flag="0"/>
			<psa30 value="0.0111261070499971" flag="0"/>
		</comp>
		<comp name=".HNN" depth="0.0">
			<acc value="0.05878724449401" flag="0"/>
			<vel value="0.0512489153319" flag="0"/>
			<psa03 value="0.119147059574574" flag="0"/>
			<psa10 value="0.0785772228554228" flag="0"/>
			<psa30 value="0.0087127271753945" flag="0"/>
		</comp>
		<comp name=".HNZ" depth="0.0">
			<acc value="0.024260801752752" flag="0"/>
			<vel value="0.021505897805" flag="0"/>
			<psa03 value="0.0866497244938301" flag="0"/>
			<psa10 value="0.0457575837152965" flag="0"/>
			<psa30 value="0.0044551480483602" flag="0"/>
		</comp>
	</station>
	<station code="ART2" name="ART2" netid="HI" source="ITSAK Strong Motion Network" insttype="" lat="39.1474" lon="20.9937">
		<comp name=".HNE" depth="0.0">
			<acc value="0.025589560026246" flag="0"/>
			<vel value="0.0251813127193" flag="0"/>
			<psa03 value="0.0558849521040069" flag="0"/>
			<psa10 value="0.0380785525172392" flag="0"/>
			<psa30 value="0.00427614327350618" flag="0"/>
		</comp>
		<comp name=".HNN" depth="0.0">
			<acc value="0.026832703338816" flag="0"/>
			<vel value="0.0209196742532" flag="0"/>
			<psa03 value="0.0528625904288974" flag="0"/>
			<psa10 value="0.0224416835263787" flag="0"/>
			<psa30 value="0.00429342650176976" flag="0"/>
		</comp>
		<comp name=".HNZ" depth="0.0">
			<acc value="0.02154118495101" flag="0"/>
			<vel value="0.0170136757541" flag="0"/>
			<psa03 value="0.0570107245972298" flag="0"/>
			<psa10 value="0.0173520169859531" flag="0"/>
			<psa30 value="0.00532407186030205" flag="0"/>
		</comp>
	</station>
	<station code="ITC1" name="ITC1" netid="HI" source="ITSAK Strong Motion Network" insttype="" lat="38.3647" lon="20.7156">
		<comp name=".HNE" depth="0.0">
			<acc value="0.16578512414268" flag="0"/>
			<vel value="0.0589837930163" flag="0"/>
			<psa03 value="0.337406184837294" flag="0"/>
			<psa10 value="0.0628006139824166" flag="0"/>
			<psa30 value="0.0112650620883943" flag="0"/>
		</comp>
		<comp name=".HNN" depth="0.0">
			<acc value="0.22156030275588" flag="0"/>
			<vel value="0.0702798522124" flag="0"/>
			<psa03 value="0.266889367610893" flag="0"/>
			<psa10 value="0.102116009684544" flag="0"/>
			<psa30 value="0.010619349313094" flag="0"/>
		</comp>
		<comp name=".HNZ" depth="0.0">
			<acc value="0.10781425924014" flag="0"/>
			<vel value="0.0466780806395" flag="0"/>
			<psa03 value="0.175670449804995" flag="0"/>
			<psa10 value="0.0683278238828149" flag="0"/>
			<psa30 value="0.00926278111379499" flag="0"/>
		</comp>
	</station>
	<station code="KRI1" name="KRI1" netid="HI" source="ITSAK Strong Motion Network" insttype="" lat="37.6621" lon="20.8172">
		<comp name=".HNE" depth="0.0">
			<acc value="0.83537917910706" flag="0"/>
			<vel value="0.448628392786" flag="0"/>
			<psa03 value="2.4475034684242" flag="0"/>
			<psa10 value="0.167608698253531" flag="0"/>
			<psa30 value="0.0193225850264392" flag="0"/>
		</comp>
		<comp name=".HNN" depth="0.0">
			<acc value="0.4736196944964" flag="0"/>
			<vel value="0.242475074628" flag="0"/>
			<psa03 value="1.28651897556671" flag="0"/>
			<psa10 value="0.326979720801789" flag="0"/>
			<psa30 value="0.0221617431066948" flag="0"/>
		</comp>
		<comp name=".HNZ" depth="0.0">
			<acc value="0.33609168594882" flag="0"/>
			<vel value="0.131769194029" flag="0"/>
			<psa03 value="0.788873508999562" flag="0"/>
			<psa10 value="0.0756688151875118" flag="0"/>
			<psa30 value="0.0152576290763783" flag="0"/>
		</comp>
	</station>
	<station code="LAM2" name="LAM2" netid="HI" source="ITSAK Strong Motion Network" insttype="" lat="38.90203" lon="22.431301">
		<comp name=".HNE" depth="0.0">
			<acc value="0.01862794574922" flag="0"/>
			<vel value="0.016868433436" flag="0"/>
			<psa03 value="0.0305714184356061" flag="0"/>
			<psa10 value="0.0255204162273209" flag="0"/>
			<psa30 value="0.00712656209977276" flag="0"/>
		</comp>
		<comp name=".HNN" depth="0.0">
			<acc value="0.013580198254344" flag="0"/>
			<vel value="0.0149700589721" flag="0"/>
			<psa03 value="0.0439946435958956" flag="0"/>
			<psa10 value="0.0214003239164265" flag="0"/>
			<psa30 value="0.0071486577301479" flag="0"/>
		</comp>
		<comp name=".HNZ" depth="0.0">
			<acc value="0.011777914718178" flag="0"/>
			<vel value="0.0115656087362" flag="0"/>
			<psa03 value="0.0199055256746545" flag="0"/>
			<psa10 value="0.0207034471267549" flag="0"/>
			<psa30 value="0.00399172651562365" flag="0"/>
		</comp>
	</station>
	<station code="MSL1" name="MSL1" netid="HI" source="ITSAK Strong Motion Network" insttype="" lat="38.3727" lon="21.4243">
		<comp name=".HNE" depth="0.0">
			<acc value="0.29044720164348" flag="0"/>
			<vel value="0.466279714763" flag="0"/>
			<psa03 value="0.805645953422624" flag="0"/>
			<psa10 value="0.559613571652071" flag="0"/>
			<psa30 value="0.0892299043766619" flag="0"/>
		</comp>
		<comp name=".HNN" depth="0.0">
			<acc value="0.61381491526992" flag="0"/>
			<vel value="0.439472762118" flag="0"/>
			<psa03 value="2.02987330247893" flag="0"/>
			<psa10 value="0.387682442058957" flag="0"/>
			<psa30 value="0.0448908337974129" flag="0"/>
		</comp>
		<comp name=".HNZ" depth="0.0">
			<acc value="0.1504941611346" flag="0"/>
			<vel value="0.117278639627" flag="0"/>
			<psa03 value="0.502342319379814" flag="0"/>
			<psa10 value="0.185926981749979" flag="0"/>
			<psa30 value="0.0209996411231605" flag="0"/>
		</comp>
	</station>
	<station code="PYL1" name="PYL1" netid="HI" source="ITSAK Strong Motion Network" insttype="" lat="36.914188" lon="21.695161">
		<comp name=".HNE" depth="0.0">
			<acc value="0.038188558438602" flag="0"/>
			<vel value="0.0445172342294" flag="0"/>
			<psa03 value="0.0967833176698212" flag="0"/>
			<psa10 value="0.051615910550736" flag="0"/>
			<psa30 value="0.0113000894088172" flag="0"/>
		</comp>
		<comp name=".HNN" depth="0.0">
			<acc value="0.023625614926602" flag="0"/>
			<vel value="0.0307000301756" flag="0"/>
			<psa03 value="0.0498844400158258" flag="0"/>
			<psa10 value="0.0309144604312691" flag="0"/>
			<psa30 value="0.0131480618279171" flag="0"/>
		</comp>
		<comp name=".HNZ" depth="0.0">
			<acc value="0.017708911219014" flag="0"/>
			<vel value="0.0196624513809" flag="0"/>
			<psa03 value="0.0382994850695903" flag="0"/>
			<psa10 value="0.0294243554691479" flag="0"/>
			<psa30 value="0.00874663692175904" flag="0"/>
		</comp>
	</station>
	<station code="PYR2" name="PYR2" netid="HI" source="ITSAK Strong Motion Network" insttype="" lat="37.6671" lon="21.4506">
		<comp name=".HNE" depth="0.0">
			<acc value="1.1551715029974" flag="0"/>
			<vel value="0.415793409335" flag="0"/>
			<psa03 value="2.66800940919528" flag="0"/>
			<psa10 value="0.441430432599317" flag="0"/>
			<psa30 value="0.0568542729833209" flag="0"/>
		</comp>
		<comp name=".HNN" depth="0.0">
			<acc value="0.77327051247834" flag="0"/>
			<vel value="0.435320320595" flag="0"/>
			<psa03 value="2.57275843261805" flag="0"/>
			<psa10 value="0.61894298193551" flag="0"/>
			<psa30 value="0.07310610292053" flag="0"/>
		</comp>
		<comp name=".HNZ" depth="0.0">
			<acc value="0.55754392280958" flag="0"/>
			<vel value="0.237552220688" flag="0"/>
			<psa03 value="1.24857412857376" flag="0"/>
			<psa10 value="0.296849444818701" flag="0"/>
			<psa30 value="0.0763704258325302" flag="0"/>
		</comp>
	</station>
	<station code="VAS2" name="VAS2" netid="HI" source="ITSAK Strong Motion Network" insttype="" lat="38.630558" lon="20.608081">
		<comp name=".HNE" depth="0.0">
			<acc value="0.3429431648667" flag="0"/>
			<vel value="0.316094341242" flag="0"/>
			<psa03 value="0.765418955251333" flag="0"/>
			<psa10 value="0.75181104379284" flag="0"/>
			<psa30 value="0.0354528919134189" flag="0"/>
		</comp>
		<comp name=".HNN" depth="0.0">
			<acc value="0.46657212054486" flag="0"/>
			<vel value="0.326757160585" flag="0"/>
			<psa03 value="1.10795289644233" flag="0"/>
			<psa10 value="0.922257315019775" flag="0"/>
			<psa30 value="0.0575719738607277" flag="0"/>
		</comp>
		<comp name=".HNZ" depth="0.0">
			<acc value="0.22023506274564" flag="0"/>
			<vel value="0.13381071573" flag="0"/>
			<psa03 value="0.596208204200625" flag="0"/>
			<psa10 value="0.154523826445267" flag="0"/>
			<psa30 value="0.0144774723948131" flag="0"/>
		</comp>
	</station>
	<station code="DLFA" name="DLFA" netid="HL" source="National Observatory of Athens Seismic Network" insttype="" lat="38.47836" lon="22.49583">
		<comp name="00.HNE" depth="0.0">
			<acc value="0.02461388811873" flag="0"/>
			<vel value="0.0266481914312" flag="0"/>
			<psa03 value="0.0353903392279314" flag="0"/>
			<psa10 value="0.0400649391055963" flag="0"/>
			<psa30 value="0.00407972901202462" flag="0"/>
		</comp>
		<comp name="00.HNN" depth="0.0">
			<acc value="0.027019839853032" flag="0"/>
			<vel value="0.0256440521666" flag="0"/>
			<psa03 value="0.0367300790208258" flag="0"/>
			<psa10 value="0.0508871922768019" flag="0"/>
			<psa30 value="0.00520348637209527" flag="0"/>
		</comp>
		<comp name="00.HNZ" depth="0.0">
			<acc value="0.016044665983392" flag="0"/>
			<vel value="0.0134666050418" flag="0"/>
			<psa03 value="0.0559500866267601" flag="0"/>
			<psa10 value="0.0157858363591819" flag="0"/>
			<psa30 value="0.00310420563839092" flag="0"/>
		</comp>
	</station>
	<station code="PATC" name="PATC" netid="HL" source="National Observatory of Athens Seismic Network" insttype="" lat="38.26933" lon="21.76001">
		<comp name="00.HNE" depth="0.0">
			<acc value="0.28226668314192" flag="0"/>
			<vel value="0.247862294516" flag="0"/>
			<psa03 value="0.667266744813037" flag="0"/>
			<psa10 value="0.373055393088756" flag="0"/>
			<psa30 value="0.0656901316490361" flag="0"/>
		</comp>
		<comp name="00.HNN" depth="0.0">
			<acc value="0.29347075183332" flag="0"/>
			<vel value="0.262932343579" flag="0"/>
			<psa03 value="0.73836624647266" flag="0"/>
			<psa10 value="0.247938089681618" flag="0"/>
			<psa30 value="0.0586154629867913" flag="0"/>
		</comp>
		<comp name="00.HNZ" depth="0.0">
			<acc value="0.23125804715076" flag="0"/>
			<vel value="0.170828751871" flag="0"/>
			<psa03 value="0.547740910146618" flag="0"/>
			<psa10 value="0.186429605046546" flag="0"/>
			<psa30 value="0.0217262392567171" flag="0"/>
		</comp>
	</station>
	<station code="PATG" name="PATG" netid="HL" source="National Observatory of Athens Seismic Network" insttype="" lat="38.23865" lon="21.72657">
		<comp name="00.HNE" depth="0.0">
			<acc value="0.62490386172252" flag="0"/>
			<vel value="0.380933089865" flag="0"/>
			<psa03 value="1.73506393947265" flag="0"/>
			<psa10 value="0.430574423441718" flag="0"/>
			<psa30 value="0.0664961850459673" flag="0"/>
		</comp>
		<comp name="00.HNN" depth="0.0">
			<acc value="0.69306382789446" flag="0"/>
			<vel value="0.426923516704" flag="0"/>
			<psa03 value="1.68130437816577" flag="0"/>
			<psa10 value="0.534821729316048" flag="0"/>
			<psa30 value="0.0933862797158333" flag="0"/>
		</comp>
		<comp name="00.HNZ" depth="0.0">
			<acc value="0.23081733703494" flag="0"/>
			<vel value="0.218051550521" flag="0"/>
			<psa03 value="0.711279785461889" flag="0"/>
			<psa10 value="0.286227901193836" flag="0"/>
			<psa30 value="0.0454890767616282" flag="0"/>
		</comp>
	</station>
	<station code="RIOA" name="RIOA" netid="HL" source="National Observatory of Athens Seismic Network" insttype="" lat="38.29585" lon="21.79118">
		<comp name="00.HNE" depth="0.0">
			<acc value="0.2411050080168" flag="0"/>
			<vel value="0.126420783502" flag="0"/>
			<psa03 value="0.405000495962095" flag="0"/>
			<psa10 value="0.150391862722748" flag="0"/>
			<psa30 value="0.0361470545649542" flag="0"/>
		</comp>
		<comp name="00.HNN" depth="0.0">
			<acc value="0.2627176765665" flag="0"/>
			<vel value="0.132139973049" flag="0"/>
			<psa03 value="0.54436710331408" flag="0"/>
			<psa10 value="0.176991384810591" flag="0"/>
			<psa30 value="0.0298932502811122" flag="0"/>
		</comp>
		<comp name="00.HNZ" depth="0.0">
			<acc value="0.1608678971124" flag="0"/>
			<vel value="0.110560194646" flag="0"/>
			<psa03 value="0.23012782817236" flag="0"/>
			<psa10 value="0.0852026217556652" flag="0"/>
			<psa30 value="0.0173017728242094" flag="0"/>
		</comp>
	</station>
	<station code="FSK" name="FSK" netid="HP" source="University of Patras, Seismological Laboratory (PSLNET)" insttype="" lat="38.4593" lon="20.5623">
		<comp name=".HNE" depth="0.0">
			<acc value="0.14371458774504" flag="0"/>
			<vel value="0.0639677243796" flag="0"/>
			<psa03 value="0.190259666269021" flag="0"/>
			<psa10 value="0.0769987957921333" flag="0"/>
			<psa30 value="0.0180121015466655" flag="0"/>
		</comp>
		<comp name=".HNN" depth="0.0">
			<acc value="0.068477398232796" flag="0"/>
			<vel value="0.050768711635" flag="0"/>
			<psa03 value="0.143975537672766" flag="0"/>
			<psa10 value="0.069637178121284" flag="0"/>
			<psa30 value="0.00982675180742451" flag="0"/>
		</comp>
		<comp name=".HNZ" depth="0.0">
			<acc value="0.052599855100656" flag="0"/>
			<vel value="0.0332154665824" flag="0"/>
			<psa03 value="0.0663290398066482" flag="0"/>
			<psa10 value="0.0486298989920951" flag="0"/>
			<psa30 value="0.0101805960812106" flag="0"/>
		</comp>
	</station>
	<station code="GUR" name="GUR" netid="HP" source="University of Patras, Seismological Laboratory (PSLNET)" insttype="" lat="37.9363" lon="22.3423">
		<comp name=".HNE" depth="0.0">
			<acc value="0.13993775811408" flag="0"/>
			<vel value="0.0829646115283" flag="0"/>
			<psa03 value="0.376045661179417" flag="0"/>
			<psa10 value="0.0747895244387727" flag="0"/>
			<psa30 value="0.00478636749002495" flag="0"/>
		</comp>
		<comp name=".HNN" depth="0.0">
			<acc value="0.13619530527486" flag="0"/>
			<vel value="0.116157624207" flag="0"/>
			<psa03 value="0.343849028310636" flag="0"/>
			<psa10 value="0.0842735502090132" flag="0"/>
