<?xml version="1.0" encoding="UTF-8" standalone="yes"?>
<!DOCTYPE earthquake SYSTEM "stationlist.dtd">
<stationlist created="" xmlns="ch.ethz.sed.shakemap.usgs.xml">
  <station code="BNN" name="BNN" netid="KO" insttype="CMG-3T" lat="38.8521" lon="35.8472">
    <comp name="--.HHN">
      <acc value="0.0126635803" flag="0"/>
      <vel value="0.0080537910" flag="0"/>
      <psa03 value="0.0273164554" flag="0"/>
      <psa10 value="0.0105217223" flag="0"/>
      <psa30 value="0.0006015360" flag="0"/>
    </comp>
    <comp name="--.HHZ">
      <acc value="0.0083321622" flag="0"/>
      <vel value="0.0034054766" flag="0"/>
      <psa03 value="0.0168378029" flag="0"/>
      <psa10 value="0.0028738769" flag="0"/>
      <psa30 value="0.0007030252" flag="0"/>
    </comp>
    <comp name="--.HHE">
      <acc value="0.0127294380" flag="0"/>
      <vel value="0.0071706507" flag="0"/>
      <psa03 value="0.0372602889" flag="0"/>
      <psa10 value="0.0165845488" flag="0"/>
      <psa30 value="0.0004817839" flag="0"/>
    </comp>
  </station>
  <station code="DARE" name="DARE" netid="KO" insttype="CMG-3ESP" lat="38.5712" lon="37.4832">
    <comp name="--.HHE">
      <acc value="0.0098542439" flag="0"/>
      <vel value="0.0060395986" flag="0"/>
      <psa03 value="0.0264019199" flag="0"/>
      <psa10 value="0.0062097495" flag="0"/>
      <psa30 value="0.0005869113" flag="0"/>
    </comp>
    <comp name="--.HHZ">
      <acc value="0.0106695628" flag="0"/>
      <vel value="0.0080875050" flag="0"/>
      <psa03 value="0.0310444399" flag="0"/>
      <psa10 value="0.0095295608" flag="0"/>
      <psa30 value="0.0008511920" flag="0"/>
    </comp>
    <comp name="--.HHN">
      <acc value="0.0111067942" flag="0"/>
      <vel value="0.0077519540" flag="0"/>
      <psa03 value="0.0365454799" flag="0"/>
      <psa10 value="0.0077377553" flag="0"/>
      <psa30 value="0.0006798046" flag="0"/>
    </comp>
  </station>
  <station code="GAZ" name="GAZ" netid="KO" insttype="CMG-3T" lat="37.1721" lon="37.2096">
    <comp name="--.HHZ">
      <acc value="0.0802853284" flag="0"/>
      <vel value="0.0327064852" flag="0"/>
      <psa03 value="0.1895417028" flag="0"/>
      <psa10 value="0.0282932658" flag="0"/>
      <psa30 value="0.0019565102" flag="0"/>
    </comp>
  </station>
  <station code="KMRS" name="KMRS" netid="KO" insttype="CMG-3T" lat="37.5053" lon="36.9">
    <comp name="--.HHZ">
      <acc value="0.0440020465" flag="0"/>
      <vel value="0.0142919613" flag="0"/>
      <psa03 value="0.0567849912" flag="0"/>
      <psa10 value="0.0147567580" flag="0"/>
      <psa30 value="0.0014874536" flag="0"/>
    </comp>
    <comp name="--.HHN">
      <acc value="0.0277845753" flag="0"/>
      <vel value="0.0203915718" flag="0"/>
      <psa03 value="0.0730163935" flag="0"/>
      <psa10 value="0.0148094835" flag="0"/>
      <psa30 value="0.0012149291" flag="0"/>
    </comp>
    <comp name="--.HHE">
      <acc value="0.0362812263" flag="0"/>
      <vel value="0.0198673921" flag="0"/>
      <psa03 value="0.0868591680" flag="0"/>
      <psa10 value="0.0075550550" flag="0"/>
      <psa30 value="0.0008964807" flag="0"/>
    </comp>
  </station>
  <station code="SARI" name="SARI" netid="KO" insttype="CMG-3T" lat="38.4072" lon="36.4181">
    <comp name="--.HHZ">
      <acc value="0.1050696837" flag="0"/>
      <vel value="0.0505899528" flag="0"/>
      <psa03 value="0.2193914401" flag="0"/>
      <psa10 value="0.0186336124" flag="0"/>
      <psa30 value="0.0016493299" flag="0"/>
    </comp>
    <comp name="--.HHE">
      <acc value="0.1814694282" flag="0"/>
      <vel value="0.0671820751" flag="0"/>
      <psa03 value="0.4005213517" flag="0"/>
      <psa10 value="0.0442168079" flag="0"/>
      <psa30 value="0.0017543247" flag="0"/>
    </comp>
    <comp name="--.HHN">
      <acc value="0.1676905268" flag="0"/>
      <vel value="0.0618904098" flag="0"/>
      <psa03 value="0.2712311543" flag="0"/>
      <psa10 value="0.0246418356" flag="0"/>
      <psa30 value="0.0019061813" flag="0"/>
    </comp>
  </station>
</stationlist>
