<?xml version="1.0" encoding="UTF-8" standalone="yes"?>
<!DOCTYPE earthquake SYSTEM "stationlist.dtd">
<stationlist created="" xmlns="ch.ethz.sed.shakemap.usgs.xml">
  <station code="AKMS" name="AKMS" netid="CQ" insttype="" lat="35.018" lon="32.335">
    <comp name="--.HHN">
      <acc value="0.0080077196" flag="0"/>
      <vel value="0.0040625586" flag="0"/>
      <psa03 value="0.0297273870" flag="0"/>
      <psa10 value="0.0038294247" flag="0"/>
      <psa30 value="0.0002838851" flag="0"/>
    </comp>
    <comp name="--.HHE">
      <acc value="0.0109750410" flag="0"/>
      <vel value="0.0045590968" flag="0"/>
      <psa03 value="0.0368596947" flag="0"/>
      <psa10 value="0.0050056404" flag="0"/>
      <psa30 value="0.0002441893" flag="0"/>
    </comp>
    <comp name="--.HHZ">
      <acc value="0.0070943248" flag="0"/>
      <vel value="0.0026388801" flag="0"/>
      <psa03 value="0.0169754411" flag="0"/>
      <psa10 value="0.0018764339" flag="0"/>
      <psa30 value="0.0001143002" flag="0"/>
    </comp>
  </station>
</stationlist>
