<?xml version="1.0" encoding="UTF-8" standalone="yes"?>
<!DOCTYPE earthquake SYSTEM "stationlist.dtd">
<stationlist created="" xmlns="ch.ethz.sed.shakemap.usgs.xml">
  <station code="APE" name="APE" netid="GE" insttype="STS-2/N" lat="37.0727" lon="25.523">
    <comp name="--.HHE">
      <acc value="0.2794206894" flag="0"/>
      <vel value="0.0563610654" flag="0"/>
      <psa03 value="0.1582573262" flag="0"/>
      <psa10 value="0.0095221639" flag="0"/>
      <psa30 value="0.0011278771" flag="0"/>
    </comp>
    <comp name="--.HHZ">
      <acc value="0.0858027556" flag="0"/>
      <vel value="0.0177842307" flag="0"/>
      <psa03 value="0.0624379497" flag="0"/>
      <psa10 value="0.0045711628" flag="0"/>
      <psa30 value="0.0009182275" flag="0"/>
    </comp>
    <comp name="--.HHN">
      <acc value="0.2060375627" flag="0"/>
      <vel value="0.0447360855" flag="0"/>
      <psa03 value="0.1403037577" flag="0"/>
      <psa10 value="0.0064040724" flag="0"/>
      <psa30 value="0.0008405892" flag="0"/>
    </comp>
  </station>
  <station code="THERA" name="THERA" netid="GE" insttype="STS-2/N" lat="36.367" lon="25.4753">
    <comp name="--.HHE">
      <acc value="0.1339579472" flag="0"/>
      <vel value="0.0261025483" flag="0"/>
      <psa03 value="0.0831171307" flag="0"/>
      <psa10 value="0.0123957594" flag="0"/>
      <psa30 value="0.0013528109" flag="0"/>
    </comp>
    <comp name="--.HHN">
      <acc value="0.0823265332" flag="0"/>
      <vel value="0.0168471046" flag="0"/>
      <psa03 value="0.0479198516" flag="0"/>
      <psa10 value="0.0067795243" flag="0"/>
      <psa30 value="0.0005122212" flag="0"/>
    </comp>
    <comp name="--.HHZ">
      <acc value="0.0866333420" flag="0"/>
      <vel value="0.0171343844" flag="0"/>
      <psa03 value="0.0624530080" flag="0"/>
      <psa10 value="0.0096365585" flag="0"/>
      <psa30 value="0.0011237039" flag="0"/>
    </comp>
  </station>
</stationlist>
