<stationlist created="1778069431">
	<station code="SIT2" name="SIT2" netid="HI" source="ITSAK Strong Motion Network" insttype="" lat="35.2059" lon="26.107">
		<comp name="--.HNE" depth="0.0">
			<acc value="0.0266209473423377" flag="0"/>
			<vel value="0.0240540220575462" flag="0"/>
			<psa03 value="0.0659052703487143" flag="0"/>
			<psa10 value="0.0188333370318291" flag="0"/>
			<psa30 value="0.00179550475159125" flag="0"/>
		</comp>
		<comp name="--.HNN" depth="0.0">
			<acc value="0.0241925098775693" flag="0"/>
			<vel value="0.0188309638402853" flag="0"/>
			<psa03 value="0.0662632080016605" flag="0"/>
			<psa10 value="0.0219017575617102" flag="0"/>
			<psa30 value="0.00111855516545679" flag="0"/>
		</comp>
		<comp name="--.HNZ" depth="0.0">
			<acc value="0.0114570218306591" flag="0"/>
			<vel value="0.00575748990090533" flag="0"/>
			<psa03 value="0.0258162532187428" flag="0"/>
			<psa10 value="0.00689387919574331" flag="0"/>
			<psa30 value="0.000827283400371845" flag="0"/>
		</comp>
	</station>
</stationlist>
