<?xml version="1.0" encoding="UTF-8" standalone="yes"?>
<!DOCTYPE earthquake SYSTEM "stationlist.dtd">
<stationlist created="" xmlns="ch.ethz.sed.shakemap.usgs.xml">
  <station code="UPC" name="UPC" netid="CZ" insttype="" commtype="DIG" lat="50.5074" lon="16.0121">
    <comp name="--.HHN">
      <acc value="0.0202018930" flag="0"/>
      <vel value="0.0104056535" flag="0"/>
      <psa03 value="0.0549791169" flag="0"/>
      <psa10 value="0.0091853897" flag="0"/>
      <psa30 value="0.0013374750" flag="0"/>
    </comp>
    <comp name="--.HHE">
      <acc value="0.0224348128" flag="0"/>
      <vel value="0.0144265604" flag="0"/>
      <psa03 value="0.0707604852" flag="0"/>
      <psa10 value="0.0129738209" flag="0"/>
      <psa30 value="0.0013491053" flag="0"/>
    </comp>
    <comp name="--.HHZ">
      <acc value="0.0145869369" flag="0"/>
      <vel value="0.0060556386" flag="0"/>
      <psa03 value="0.0320946135" flag="0"/>
      <psa10 value="0.0055721192" flag="0"/>
      <psa30 value="0.0012325209" flag="0"/>
    </comp>
  </station>
  <station code="KSP" name="KSP" netid="PL" insttype="STS-2/N" commtype="DIG" lat="50.8428" lon="16.2931">
    <comp name="--.HHZ">
      <acc value="0.0071822847" flag="0"/>
      <vel value="0.0117244088" flag="0"/>
      <psa03 value="0.0090607369" flag="0"/>
      <psa10 value="0.0069788640" flag="0"/>
      <psa30 value="0.0040453551" flag="0"/>
    </comp>
    <comp name="--.HHE">
      <acc value="0.0067510222" flag="0"/>
      <vel value="0.0052650637" flag="0"/>
      <psa03 value="0.0138683867" flag="0"/>
      <psa10 value="0.0037353897" flag="0"/>
      <psa30 value="0.0016388999" flag="0"/>
    </comp>
    <comp name="--.HHN">
      <acc value="0.0085013099" flag="0"/>
      <vel value="0.0100524362" flag="0"/>
      <psa03 value="0.0227375855" flag="0"/>
      <psa10 value="0.0048687063" flag="0"/>
      <psa30 value="0.0033870675" flag="0"/>
    </comp>
  </station>
</stationlist>
