<?xml version="1.0" encoding="UTF-8" standalone="yes"?>
<!DOCTYPE earthquake SYSTEM "stationlist.dtd">
<stationlist created="" xmlns="ch.ethz.sed.shakemap.usgs.xml">
  <station code="ANDN" name="ANDN" netid="TU" source="ODC" insttype="T" lat="37.58" lon="36.3452">
    <comp name="--.HHE">
      <acc value="0.0964700152" flag="0"/>
      <vel value="0.0491214485" flag="0"/>
      <psa03 value="0.2206261579" flag="0"/>
      <psa10 value="0.0394383785" flag="0"/>
      <psa30 value="0.0022375599" flag="0"/>
    </comp>
    <comp name="--.HHN">
      <acc value="0.1440671913" flag="0"/>
      <vel value="0.0415834153" flag="0"/>
      <psa03 value="0.2520455319" flag="0"/>
      <psa10 value="0.0285198066" flag="0"/>
      <psa30 value="0.0026616441" flag="0"/>
    </comp>
    <comp name="--.HHZ">
      <acc value="0.0774017191" flag="0"/>
      <vel value="0.0199457573" flag="0"/>
      <psa03 value="0.0764324025" flag="0"/>
      <psa10 value="0.0293762707" flag="0"/>
      <psa30 value="0.0016557847" flag="0"/>
    </comp>
  </station>
</stationlist>
