<stationlist created="1778069601">
	<station code="KRTS" name="KRTS" netid="KO" source="Bogazici University Kandilli Observatory And Earthquake Research Institute (KOERI)" insttype="" lat="36.573" lon="35.375">
		<comp name="--.HNE" depth="0.0">
			<acc value="0.0383937337401069" flag="0"/>
			<vel value="0.0264631420175949" flag="0"/>
			<psa03 value="0.122280450687737" flag="0"/>
			<psa10 value="0.0267701570638444" flag="0"/>
			<psa30 value="0.00532611227583907" flag="0"/>
		</comp>
		<comp name="--.HNN" depth="0.0">
			<acc value="0.0556180005120432" flag="0"/>
			<vel value="0.0261997672954011" flag="0"/>
			<psa03 value="0.199550241517492" flag="0"/>
			<psa10 value="0.0285822164318844" flag="0"/>
			<psa30 value="0.00326841819346475" flag="0"/>
		</comp>
		<comp name="--.HNZ" depth="0.0">
			<acc value="0.0487967116371548" flag="0"/>
			<vel value="0.0128171543821083" flag="0"/>
			<psa03 value="0.11856684753842" flag="0"/>
			<psa10 value="0.0121770389532288" flag="0"/>
			<psa30 value="0.00465855855309445" flag="0"/>
		</comp>
	</station>
</stationlist>
