<stationlist xmlns:esm="https://esm-db.eu/esmws/shakemap/1/" created="1781661279">
	<station code="KRK1" name="KRK1" netid="HI" source="ITSAK Strong Motion Network" insttype="" lat="39.618861" lon="19.9202" esm:processing="manual (Paolucci et al 2011)" esm:quality="good">
		<comp name="--.HNE" depth="0.0">
			<acc value="0.146406821682776" flag="0"/>
			<vel value="0.0387174925273904" flag="0"/>
			<psa03 value="0.087918436004904" flag="0"/>
			<psa10 value="0.0116293943442212" flag="0"/>
			<psa30 value="0.0012505446749807" flag="0"/>
		</comp>
		<comp name="--.HNN" depth="0.0">
			<acc value="0.134667748903325" flag="0"/>
			<vel value="0.0489323184265352" flag="0"/>
			<psa03 value="0.0975827526344507" flag="0"/>
			<psa10 value="0.0152293522887273" flag="0"/>
			<psa30 value="0.00126262507076763" flag="0"/>
		</comp>
		<comp name="--.HNZ" depth="0.0">
			<acc value="0.101766548915225" flag="0"/>
			<vel value="0.0193520450801663" flag="0"/>
			<psa03 value="0.0616547607199785" flag="0"/>
			<psa10 value="0.00383753906164917" flag="0"/>
			<psa30 value="0.000594176503890649" flag="0"/>
		</comp>
	</station>
	<station code="LMS2" name="LMS2" netid="HI" source="ITSAK Strong Motion Network" insttype="" lat="40.834985" lon="21.141815" esm:processing="manual (Paolucci et al 2011)" esm:quality="good">
		<comp name="--.HNE" depth="0.0">
			<acc value="0.00908542153027848" flag="0"/>
			<vel value="0.00403313849813449" flag="0"/>
			<psa03 value="0.016465132035524" flag="0"/>
			<psa10 value="0.00531537414625068" flag="0"/>
			<psa30 value="0.000258609954253611" flag="0"/>
		</comp>
		<comp name="--.HNN" depth="0.0">
			<acc value="0.0078553661982404" flag="0"/>
			<vel value="0.0031999621777929" flag="0"/>
			<psa03 value="0.0209840949039695" flag="0"/>
			<psa10 value="0.0026536602745297" flag="0"/>
			<psa30 value="0.000199997663583675" flag="0"/>
		</comp>
		<comp name="--.HNZ" depth="0.0">
			<acc value="0.00368876883413682" flag="0"/>
			<vel value="0.00143839491928465" flag="0"/>
			<psa03 value="0.00948534780307361" flag="0"/>
			<psa10 value="0.0033060016470241" flag="0"/>
			<psa30 value="0.000327512952445749" flag="0"/>
		</comp>
	</station>
	<station code="JAN" name="JAN" netid="HL" source="National Observatory of Athens Seismic Network" insttype="" lat="39.65616" lon="20.84874" esm:processing="manual (Paolucci et al 2011)" esm:quality="good">
		<comp name="00.HNE" depth="0.0">
			<acc value="0.02515702624052" flag="0"/>
			<vel value="0.00666195475456818" flag="0"/>
			<psa03 value="0.0350331477821068" flag="0"/>
			<psa10 value="0.00647106534320064" flag="0"/>
			<psa30 value="0.00057627962124334" flag="0"/>
		</comp>
		<comp name="00.HNN" depth="0.0">
			<acc value="0.0256415548080373" flag="0"/>
			<vel value="0.00930176247564735" flag="0"/>
			<psa03 value="0.0366886094269828" flag="0"/>
			<psa10 value="0.00650730653056144" flag="0"/>
			<psa30 value="0.000561962115125493" flag="0"/>
		</comp>
		<comp name="00.HNZ" depth="0.0">
			<acc value="0.0120832624755587" flag="0"/>
			<vel value="0.00410707879574143" flag="0"/>
			<psa03 value="0.0268453239709631" flag="0"/>
			<psa10 value="0.00281875901695112" flag="0"/>
			<psa30 value="0.00034898921162252" flag="0"/>
		</comp>
	</station>
</stationlist>
