<?xml version="1.0" encoding="UTF-8" standalone="yes"?>
<!DOCTYPE earthquake SYSTEM "stationlist.dtd">
<stationlist created="" xmlns="ch.ethz.sed.shakemap.usgs.xml">
  <station code="KBN" name="KBN" netid="AC" source="INGV" insttype="" lat="40.6236" lon="20.7874">
    <comp name="--.HHZ">
      <acc value="0.0051474095" flag="0"/>
      <vel value="0.0025008995" flag="0"/>
      <psa03 value="0.0081464090" flag="0"/>
      <psa10 value="0.0048970895" flag="0"/>
      <psa30 value="0.0002700797" flag="0"/>
    </comp>
    <comp name="--.HHN">
      <acc value="0.0045165024" flag="0"/>
      <vel value="0.0036131970" flag="0"/>
      <psa03 value="0.0139348604" flag="0"/>
      <psa10 value="0.0054637399" flag="0"/>
      <psa30 value="0.0003210721" flag="0"/>
    </comp>
    <comp name="--.HHE">
      <acc value="0.0043272499" flag="0"/>
      <vel value="0.0028945107" flag="0"/>
      <psa03 value="0.0178978995" flag="0"/>
      <psa10 value="0.0051242184" flag="0"/>
      <psa30 value="0.0002653640" flag="0"/>
    </comp>
  </station>
  <station code="SRN" name="SRN" netid="AC" source="INGV" insttype="" lat="39.88" lon="20.0005">
    <comp name="--.HHE">
      <acc value="0.0608863447" flag="0"/>
      <vel value="0.0166059026" flag="0"/>
      <psa03 value="0.0421148800" flag="0"/>
      <psa10 value="0.0151737765" flag="0"/>
      <psa30 value="0.0007996532" flag="0"/>
    </comp>
    <comp name="--.HHN">
      <acc value="0.0736336372" flag="0"/>
      <vel value="0.0165117645" flag="0"/>
      <psa03 value="0.0388626305" flag="0"/>
      <psa10 value="0.0168822757" flag="0"/>
      <psa30 value="0.0009107821" flag="0"/>
    </comp>
    <comp name="--.HHZ">
      <acc value="0.0590076092" flag="0"/>
      <vel value="0.0171943440" flag="0"/>
      <psa03 value="0.0351843509" flag="0"/>
      <psa10 value="0.0082103670" flag="0"/>
      <psa30 value="0.0010066374" flag="0"/>
    </comp>
  </station>
  <station code="KRK1" name="KRK1" netid="HI" source="NOA" insttype="CMG-5TD,ACCELEROMETER,GURALP" lat="39.6189" lon="19.9202">
    <comp name="--.HNE">
      <acc value="0.1452009055" flag="0"/>
      <vel value="0.0377112599" flag="0"/>
      <psa03 value="0.0872216975" flag="0"/>
      <psa10 value="0.0116025013" flag="0"/>
      <psa30 value="0.0011870249" flag="0"/>
    </comp>
    <comp name="--.HNN">
      <acc value="0.1327474859" flag="0"/>
      <vel value="0.0484253872" flag="0"/>
      <psa03 value="0.0966781771" flag="0"/>
      <psa10 value="0.0152171580" flag="0"/>
      <psa30 value="0.0012471924" flag="0"/>
    </comp>
    <comp name="--.HNZ">
      <acc value="0.0998658253" flag="0"/>
      <vel value="0.0190061249" flag="0"/>
      <psa03 value="0.0605964508" flag="0"/>
      <psa10 value="0.0038465849" flag="0"/>
      <psa30 value="0.0005055416" flag="0"/>
    </comp>
  </station>
  <station code="JAN" name="JAN" netid="HL" source="NOA" insttype="CMG3EPSC60_DR24" lat="39.6562" lon="20.8487">
    <comp name="--.HHE">
      <acc value="0.0251477969" flag="0"/>
      <vel value="0.0065522352" flag="0"/>
      <psa03 value="0.0345087827" flag="0"/>
      <psa10 value="0.0064399610" flag="0"/>
      <psa30 value="0.0005004405" flag="0"/>
    </comp>
    <comp name="--.HHN">
      <acc value="0.0258288300" flag="0"/>
      <vel value="0.0091080119" flag="0"/>
      <psa03 value="0.0357014809" flag="0"/>
      <psa10 value="0.0065902516" flag="0"/>
      <psa30 value="0.0005466833" flag="0"/>
    </comp>
    <comp name="--.HHZ">
      <acc value="0.0127726409" flag="0"/>
      <vel value="0.0042077821" flag="0"/>
      <psa03 value="0.0270828897" flag="0"/>
      <psa10 value="0.0027858343" flag="0"/>
      <psa30 value="0.0003448357" flag="0"/>
    </comp>
  </station>
  <station code="KEK" name="KEK" netid="HL" source="NOA" insttype="120" lat="39.7127" lon="19.7962">
    <comp name="--.HHE">
      <acc value="0.0633923688" flag="0"/>
      <vel value="0.0160075260" flag="0"/>
      <psa03 value="0.0338637518" flag="0"/>
      <psa10 value="0.0054958585" flag="0"/>
      <psa30 value="0.0009684798" flag="0"/>
    </comp>
    <comp name="--.HHN">
      <acc value="0.0593038840" flag="0"/>
      <vel value="0.0129849570" flag="0"/>
      <psa03 value="0.0321969922" flag="0"/>
      <psa10 value="0.0147031075" flag="0"/>
      <psa30 value="0.0007878755" flag="0"/>
    </comp>
    <comp name="--.HHZ">
      <acc value="0.0379686864" flag="0"/>
      <vel value="0.0112153270" flag="0"/>
      <psa03 value="0.0232966234" flag="0"/>
      <psa10 value="0.0184541325" flag="0"/>
      <psa30 value="0.0008906195" flag="0"/>
    </comp>
  </station>
  <station code="PENT" name="PENT" netid="HL" source="NOA" insttype="30" lat="40.1959" lon="21.1384">
    <comp name="--.HHE">
      <acc value="0.0067339120" flag="0"/>
      <vel value="0.0033805988" flag="0"/>
      <psa03 value="0.0109187263" flag="0"/>
      <psa10 value="0.0024182409" flag="0"/>
      <psa30 value="0.0001740288" flag="0"/>
    </comp>
    <comp name="--.HHN">
      <acc value="0.0004455325" flag="0"/>
      <vel value="0.0003395037" flag="0"/>
      <psa03 value="0.0006511200" flag="0"/>
      <psa10 value="0.0004351341" flag="0"/>
      <psa30 value="0.0001896971" flag="0"/>
    </comp>
    <comp name="--.HHZ">
      <acc value="0.0073188833" flag="0"/>
      <vel value="0.0023454471" flag="0"/>
      <psa03 value="0.0078077296" flag="0"/>
      <psa10 value="0.0021346771" flag="0"/>
      <psa30 value="0.0001476239" flag="0"/>
    </comp>
  </station>
  <station code="IGT" name="IGT" netid="HT" source="NOA" insttype="100" lat="39.5315" lon="20.3299">
    <comp name="--.HHE">
      <acc value="0.0140489589" flag="0"/>
      <vel value="0.0041939406" flag="0"/>
      <psa03 value="0.0164670046" flag="0"/>
      <psa10 value="0.0061934505" flag="0"/>
      <psa30 value="0.0005441969" flag="0"/>
    </comp>
    <comp name="--.HHN">
      <acc value="0.0146796824" flag="0"/>
      <vel value="0.0033221707" flag="0"/>
      <psa03 value="0.0187433397" flag="0"/>
      <psa10 value="0.0034166429" flag="0"/>
      <psa30 value="0.0002552687" flag="0"/>
    </comp>
    <comp name="--.HHZ">
      <acc value="0.0144186162" flag="0"/>
      <vel value="0.0040826111" flag="0"/>
      <psa03 value="0.0217607653" flag="0"/>
      <psa10 value="0.0023943852" flag="0"/>
      <psa30 value="0.0002776311" flag="0"/>
    </comp>
  </station>
  <station code="KEK" name="KEK" netid="MN" source="INGV" insttype="" lat="39.7127" lon="19.7962">
    <comp name="--.HHE">
      <acc value="0.0633923249" flag="0"/>
      <vel value="0.0160075149" flag="0"/>
      <psa03 value="0.0338637284" flag="0"/>
      <psa10 value="0.0054958546" flag="0"/>
      <psa30 value="0.0009684791" flag="0"/>
    </comp>
    <comp name="--.HHZ">
      <acc value="0.0379686601" flag="0"/>
      <vel value="0.0112153192" flag="0"/>
      <psa03 value="0.0232966073" flag="0"/>
      <psa10 value="0.0184541197" flag="0"/>
      <psa30 value="0.0008906189" flag="0"/>
    </comp>
    <comp name="--.HHN">
      <acc value="0.0593038429" flag="0"/>
      <vel value="0.0129849480" flag="0"/>
      <psa03 value="0.0321969699" flag="0"/>
      <psa10 value="0.0147030973" flag="0"/>
      <psa30 value="0.0007878749" flag="0"/>
    </comp>
  </station>
</stationlist>
