<?xml version="1.0" encoding="UTF-8" standalone="yes"?>
<!DOCTYPE earthquake SYSTEM "stationlist.dtd">
<stationlist created="" xmlns="ch.ethz.sed.shakemap.usgs.xml">
  <station code="CHVC" name="CHVC" netid="CZ" insttype="" lat="50.5881" lon="16.0547">
    <comp name="--.HHE">
      <acc value="0.0198860012" flag="0"/>
      <vel value="0.0067488959" flag="0"/>
      <psa03 value="0.0340726897" flag="0"/>
      <psa10 value="0.0050221119" flag="0"/>
      <psa30 value="0.0009441811" flag="0"/>
    </comp>
    <comp name="--.HHZ">
      <acc value="0.0200363304" flag="0"/>
      <vel value="0.0086071464" flag="0"/>
      <psa03 value="0.0139737906" flag="0"/>
      <psa10 value="0.0049629724" flag="0"/>
      <psa30 value="0.0021364366" flag="0"/>
    </comp>
    <comp name="--.HHN">
      <acc value="0.0126433436" flag="0"/>
      <vel value="0.0071744154" flag="0"/>
      <psa03 value="0.0434414207" flag="0"/>
      <psa10 value="0.0066732603" flag="0"/>
      <psa30 value="0.0015268252" flag="0"/>
    </comp>
  </station>
  <station code="UPC" name="UPC" netid="CZ" insttype="" lat="50.5074" lon="16.0121">
    <comp name="--.HHN">
      <acc value="0.0146118704" flag="0"/>
      <vel value="0.0051447941" flag="0"/>
      <psa03 value="0.0302278998" flag="0"/>
      <psa10 value="0.0031285051" flag="0"/>
      <psa30 value="0.0002090139" flag="0"/>
    </comp>
    <comp name="--.HHE">
      <acc value="0.0118635279" flag="0"/>
      <vel value="0.0053259062" flag="0"/>
      <psa03 value="0.0281685396" flag="0"/>
      <psa10 value="0.0034376615" flag="0"/>
      <psa30 value="0.0002415253" flag="0"/>
    </comp>
    <comp name="--.HHZ">
      <acc value="0.0106870850" flag="0"/>
      <vel value="0.0031977921" flag="0"/>
      <psa03 value="0.0110306430" flag="0"/>
      <psa10 value="0.0021719740" flag="0"/>
      <psa30 value="0.0001716517" flag="0"/>
    </comp>
  </station>
  <station code="KSP" name="KSP" netid="PL" insttype="STS-2/N" lat="50.8428" lon="16.2931">
    <comp name="--.HHE">
      <acc value="0.0055666245" flag="0"/>
      <vel value="0.0020532715" flag="0"/>
      <psa03 value="0.0148942220" flag="0"/>
      <psa10 value="0.0012426015" flag="0"/>
      <psa30 value="0.0002741845" flag="0"/>
    </comp>
    <comp name="--.HHN">
      <acc value="0.0059250526" flag="0"/>
      <vel value="0.0028528371" flag="0"/>
      <psa03 value="0.0185510991" flag="0"/>
      <psa10 value="0.0012032904" flag="0"/>
      <psa30 value="0.0004484860" flag="0"/>
    </comp>
    <comp name="--.HHZ">
      <acc value="0.0072712835" flag="0"/>
      <vel value="0.0027905745" flag="0"/>
      <psa03 value="0.0064659193" flag="0"/>
      <psa10 value="0.0016798738" flag="0"/>
      <psa30 value="0.0007173411" flag="0"/>
    </comp>
  </station>
</stationlist>
