<stationlist created="1778138856">
	<station code="DPC" name="DPC" netid="CZ" source="Czech Regional Seismic Network (CZ)" insttype="" lat="50.3502" lon="16.3222">
		<comp name="--.HNE" depth="0.0">
			<acc value="0.000918680142909442" flag="0"/>
			<vel value="0.000288366075504536" flag="0"/>
			<psa03 value="0.00177101657245944" flag="0"/>
			<psa10 value="0.000169463105981748" flag="0"/>
			<psa30 value="2.28931767168719e-05" flag="0"/>
		</comp>
		<comp name="--.HNN" depth="0.0">
			<acc value="0.00166829951924935" flag="0"/>
			<vel value="0.000475920908953655" flag="0"/>
			<psa03 value="0.00309779701072547" flag="0"/>
			<psa10 value="0.000297418022796986" flag="0"/>
			<psa30 value="3.60297142656821e-05" flag="0"/>
		</comp>
		<comp name="--.HNZ" depth="0.0">
			<acc value="0.0009175831973329" flag="0"/>
			<vel value="0.000294627307993971" flag="0"/>
			<psa03 value="0.00177538681639411" flag="0"/>
			<psa10 value="0.000177493427990446" flag="0"/>
			<psa30 value="2.97952908490751e-05" flag="0"/>
		</comp>
	</station>
</stationlist>
