<?xml version="1.0" encoding="UTF-8" standalone="yes"?>
<!DOCTYPE earthquake SYSTEM "stationlist.dtd">
<stationlist created="" xmlns="ch.ethz.sed.shakemap.usgs.xml">
  <station code="GVD" name="GVD" netid="GE" insttype="STS-2/N" lat="34.8391" lon="24.0874">
    <comp name="--.HHE">
      <acc value="0.0264017629" flag="0"/>
      <vel value="0.0118860846" flag="0"/>
      <psa03 value="0.1078782448" flag="0"/>
      <psa10 value="0.0093554785" flag="0"/>
      <psa30 value="0.0004521708" flag="0"/>
    </comp>
    <comp name="--.HHN">
      <acc value="0.0164895178" flag="0"/>
      <vel value="0.0090938149" flag="0"/>
      <psa03 value="0.0529850724" flag="0"/>
      <psa10 value="0.0077095265" flag="0"/>
      <psa30 value="0.0006436269" flag="0"/>
    </comp>
    <comp name="--.HHZ">
      <acc value="0.0187421233" flag="0"/>
      <vel value="0.0057067702" flag="0"/>
      <psa03 value="0.0273820663" flag="0"/>
      <psa10 value="0.0077588856" flag="0"/>
      <psa30 value="0.0004654342" flag="0"/>
    </comp>
  </station>
  <station code="IMMV" name="IMMV" netid="GE" insttype="STS-2/N" lat="35.4606" lon="23.9811">
    <comp name="--.HHE">
      <acc value="0.0996578671" flag="0"/>
      <vel value="0.0491092486" flag="0"/>
      <psa03 value="0.2844443410" flag="0"/>
      <psa10 value="0.0217115300" flag="0"/>
      <psa30 value="0.0018832011" flag="0"/>
    </comp>
    <comp name="--.HHN">
      <acc value="0.1259416683" flag="0"/>
      <vel value="0.0433210664" flag="0"/>
      <psa03 value="0.2034928771" flag="0"/>
      <psa10 value="0.0251519024" flag="0"/>
      <psa30 value="0.0014186188" flag="0"/>
    </comp>
    <comp name="--.HHZ">
      <acc value="0.0885712617" flag="0"/>
      <vel value="0.0222997857" flag="0"/>
      <psa03 value="0.1028196222" flag="0"/>
      <psa10 value="0.0111532983" flag="0"/>
      <psa30 value="0.0007435787" flag="0"/>
    </comp>
  </station>
</stationlist>
