<stationlist created="1651735815">
	<station code="ABEA" name="ABEA" netid="HC" source="Seismological Network of Crete (HC)" insttype="" lat="35.5163" lon="24.0113">
		<comp name=".HNE" depth="0.0">
			<acc value="0.159345060869" flag="0"/>
			<vel value="0.0462520476931" flag="0"/>
			<psa03 value="0.138877720801" flag="0"/>
			<psa10 value="0.0593485590509" flag="0"/>
			<psa30 value="0.0032328452018" flag="0"/>
		</comp>
		<comp name=".HNN" depth="0.0">
			<acc value="0.169195610141" flag="0"/>
			<vel value="0.0470767050924" flag="0"/>
			<psa03 value="0.149350893764" flag="0"/>
			<psa10 value="0.0314413422096" flag="0"/>
			<psa30 value="0.00203199419298" flag="0"/>
		</comp>
		<comp name=".HNZ" depth="0.0">
			<acc value="0.127262161631" flag="0"/>
			<vel value="0.0241832263433" flag="0"/>
			<psa03 value="0.0767601058135" flag="0"/>
			<psa10 value="0.0209680459051" flag="0"/>
			<psa30 value="0.00236184396057" flag="0"/>
		</comp>
	</station>
	<station code="ATEI" name="ATEI" netid="HC" source="Seismological Network of Crete (HC)" insttype="" lat="35.5193" lon="24.0432">
		<comp name=".HNE" depth="0.0">
			<acc value="0.0896015134218" flag="0"/>
			<vel value="0.0346353827625" flag="0"/>
			<psa03 value="0.105096035013" flag="0"/>
			<psa10 value="0.0501382976661" flag="0"/>
			<psa30 value="0.00189330417211" flag="0"/>
		</comp>
		<comp name=".HNN" depth="0.0">
			<acc value="0.0674967775163" flag="0"/>
			<vel value="0.0268567206474" flag="0"/>
			<psa03 value="0.139333980192" flag="0"/>
			<psa10 value="0.0356456500994" flag="0"/>
			<psa30 value="0.00195149031832" flag="0"/>
		</comp>
		<comp name=".HNZ" depth="0.0">
			<acc value="0.0655573535801" flag="0"/>
			<vel value="0.0164613791045" flag="0"/>
			<psa03 value="0.0808053373321" flag="0"/>
			<psa10 value="0.0129644138288" flag="0"/>
			<psa30 value="0.00143574136082" flag="0"/>
		</comp>
	</station>
	<station code="G0LD" name="G0LD" netid="HC" source="Seismological Network of Crete (HC)" insttype="" lat="35.4955" lon="24.0306">
		<comp name=".HNE" depth="0.0">
			<acc value="0.139694425798" flag="0"/>
			<vel value="0.0763689023541" flag="0"/>
			<psa03 value="0.258401409492" flag="0"/>
			<psa10 value="0.0826324639952" flag="0"/>
			<psa30 value="0.00354980224031" flag="0"/>
		</comp>
		<comp name=".HNN" depth="0.0">
			<acc value="0.130166499483" flag="0"/>
			<vel value="0.0493658221555" flag="0"/>
			<psa03 value="0.196935108485" flag="0"/>
			<psa10 value="0.0665873485852" flag="0"/>
			<psa30 value="0.00354998225223" flag="0"/>
		</comp>
		<comp name=".HNZ" depth="0.0">
			<acc value="0.0867168289139" flag="0"/>
			<vel value="0.0374076155922" flag="0"/>
			<psa03 value="0.112244477312" flag="0"/>
			<psa10 value="0.0352926804669" flag="0"/>
			<psa30 value="0.00301703965574" flag="0"/>
		</comp>
	</station>
	<station code="NERO" name="NERO" netid="HC" source="Seismological Network of Crete (HC)" insttype="" lat="35.474" lon="24.0423">
		<comp name=".HNE" depth="0.0">
			<acc value="0.0526652690794" flag="0"/>
			<vel value="0.0152244979564" flag="0"/>
			<psa03 value="0.0616602617729" flag="0"/>
			<psa10 value="0.0206224380103" flag="0"/>
			<psa30 value="0.00107277148251" flag="0"/>
		</comp>
		<comp name=".HNN" depth="0.0">
			<acc value="0.0410215201448" flag="0"/>
			<vel value="0.0173638559296" flag="0"/>
			<psa03 value="0.0847928358593" flag="0"/>
			<psa10 value="0.0234417885284" flag="0"/>
			<psa30 value="0.000836845697339" flag="0"/>
		</comp>
		<comp name=".HNZ" depth="0.0">
			<acc value="0.0386051331006" flag="0"/>
			<vel value="0.0154735765969" flag="0"/>
			<psa03 value="0.069251441735" flag="0"/>
			<psa10 value="0.0193934778477" flag="0"/>
			<psa30 value="0.000722058822438" flag="0"/>
		</comp>
	</station>
	<station code="PASK" name="PASK" netid="HC" source="Seismological Network of Crete (HC)" insttype="" lat="35.4996" lon="24.0121">
		<comp name=".HNE" depth="0.0">
			<acc value="0.152210926982" flag="0"/>
			<vel value="0.0660241773257" flag="0"/>
			<psa03 value="0.211809031309" flag="0"/>
			<psa10 value="0.057636829407" flag="0"/>
			<psa30 value="0.00324807933598" flag="0"/>
		</comp>
		<comp name=".HNN" depth="0.0">
			<acc value="0.172259793558" flag="0"/>
			<vel value="0.0802204086961" flag="0"/>
			<psa03 value="0.202730367392" flag="0"/>
			<psa10 value="0.051754294718" flag="0"/>
			<psa30 value="0.00324221478082" flag="0"/>
		</comp>
		<comp name=".HNZ" depth="0.0">
			<acc value="0.145825033942" flag="0"/>
			<vel value="0.0489407647018" flag="0"/>
			<psa03 value="0.13867723877" flag="0"/>
			<psa10 value="0.0234815561629" flag="0"/>
			<psa30 value="0.00208037427292" flag="0"/>
		</comp>
	</station>
	<station code="POLY" name="POLY" netid="HC" source="Seismological Network of Crete (HC)" insttype="" lat="35.5226" lon="24.0602">
		<comp name=".HNE" depth="0.0">
			<acc value="0.0745953432073" flag="0"/>
			<vel value="0.0321105575933" flag="0"/>
			<psa03 value="0.0958827371776" flag="0"/>
			<psa10 value="0.0420335007631" flag="0"/>
			<psa30 value="0.00182554947536" flag="0"/>
		</comp>
		<comp name=".HNN" depth="0.0">
			<acc value="0.0941611069433" flag="0"/>
			<vel value="0.0216854200985" flag="0"/>
			<psa03 value="0.111720265502" flag="0"/>
			<psa10 value="0.0317463630407" flag="0"/>
			<psa30 value="0.00141692240582" flag="0"/>
		</comp>
		<comp name=".HNZ" depth="0.0">
			<acc value="0.0763653934885" flag="0"/>
			<vel value="0.0213349909506" flag="0"/>
			<psa03 value="0.0717855991935" flag="0"/>
			<psa10 value="0.0216496629339" flag="0"/>
			<psa30 value="0.00126305023338" flag="0"/>
		</comp>
	</station>
	<station code="CH01" name="CH01" netid="HI" source="ITSAK Strong Motion Network" insttype="" lat="35.517" lon="24.0208">
		<comp name=".HNE" depth="0.0">
			<acc value="0.118175885759" flag="0"/>
			<vel value="0.0442299276936" flag="0"/>
			<psa03 value="0.170634220346" flag="0"/>
			<psa10 value="0.0477978913755" flag="0"/>
			<psa30 value="0.00266979873606" flag="0"/>
		</comp>
		<comp name=".HNN" depth="0.0">
			<acc value="0.114260252986" flag="0"/>
			<vel value="0.025367939756" flag="0"/>
			<psa03 value="0.103302957897" flag="0"/>
			<psa10 value="0.0255771481105" flag="0"/>
			<psa30 value="0.00174820330989" flag="0"/>
		</comp>
		<comp name=".HNZ" depth="0.0">
			<acc value="0.0748598036184" flag="0"/>
			<vel value="0.0245507755736" flag="0"/>
			<psa03 value="0.082014203872" flag="0"/>
			<psa10 value="0.0276451382297" flag="0"/>
			<psa30 value="0.00187912656625" flag="0"/>
		</comp>
	</station>
	<station code="NPS1" name="NPS1" netid="HI" source="ITSAK Strong Motion Network" insttype="" lat="36.51263" lon="23.06248">
		<comp name=".HNE" depth="0.0">
			<acc value="0.0350962421317" flag="0"/>
			<vel value="0.0155252668667" flag="0"/>
			<psa03 value="0.080877972352" flag="0"/>
			<psa10 value="0.00920035416579" flag="0"/>
			<psa30 value="0.000446714853083" flag="0"/>
		</comp>
		<comp name=".HNN" depth="0.0">
			<acc value="0.0374459196302" flag="0"/>
			<vel value="0.0156902629156" flag="0"/>
			<psa03 value="0.0808590388063" flag="0"/>
			<psa10 value="0.00607197426975" flag="0"/>
			<psa30 value="0.000345361159732" flag="0"/>
		</comp>
		<comp name=".HNZ" depth="0.0">
			<acc value="0.028167326463" flag="0"/>
			<vel value="0.00919185749994" flag="0"/>
			<psa03 value="0.0631318592593" flag="0"/>
			<psa10 value="0.00285759461412" flag="0"/>
			<psa30 value="0.000259599853466" flag="0"/>
		</comp>
	</station>
	<station code="IACM" name="IACM" netid="HL" source="National Observatory of Athens Seismic Network" insttype="" lat="35.3058" lon="25.0709">
		<comp name=".HNE" depth="0.0">
			<acc value="0.0317115407827" flag="0"/>
			<vel value="0.014907182963" flag="0"/>
			<psa03 value="0.0688853758181" flag="0"/>
			<psa10 value="0.0276992111868" flag="0"/>
			<psa30 value="0.00110180465582" flag="0"/>
		</comp>
		<comp name=".HNN" depth="0.0">
			<acc value="0.0300110391869" flag="0"/>
			<vel value="0.0153469770537" flag="0"/>
			<psa03 value="0.0800379531631" flag="0"/>
			<psa10 value="0.0303641714773" flag="0"/>
			<psa30 value="0.00144615600907" flag="0"/>
		</comp>
		<comp name=".HNZ" depth="0.0">
			<acc value="0.0256098562452" flag="0"/>
			<vel value="0.0101728167712" flag="0"/>
			<psa03 value="0.0458996604188" flag="0"/>
			<psa10 value="0.0160330921137" flag="0"/>
			<psa30 value="0.000611304766774" flag="0"/>
		</comp>
	</station>
	<station code="IMMV" name="IMMV" netid="HL" source="National Observatory of Athens Seismic Network" insttype="" lat="35.4606" lon="23.9811">
		<comp name=".HNE" depth="0.0">
			<acc value="0.0909281398542" flag="0"/>
			<vel value="0.0467355363279" flag="0"/>
			<psa03 value="0.268333671622" flag="0"/>
			<psa10 value="0.020938940227" flag="0"/>
			<psa30 value="0.0017750582139" flag="0"/>
		</comp>
		<comp name=".HNN" depth="0.0">
			<acc value="0.116818028567" flag="0"/>
			<vel value="0.0409145645127" flag="0"/>
			<psa03 value="0.195414195231" flag="0"/>
			<psa10 value="0.0243216436895" flag="0"/>
			<psa30 value="0.00139562276566" flag="0"/>
		</comp>
		<comp name=".HNZ" depth="0.0">
			<acc value="0.0838940961858" flag="0"/>
			<vel value="0.0215782758675" flag="0"/>
			<psa03 value="0.101331993997" flag="0"/>
			<psa10 value="0.0110074535648" flag="0"/>
			<psa30 value="0.000800355623798" flag="0"/>
		</comp>
	</station>
	<station code="KTHA" name="KTHA" netid="HL" source="National Observatory of Athens Seismic Network" insttype="" lat="36.2566" lon="23.0621">
		<comp name=".HNE" depth="0.0">
			<acc value="1.06205730102" flag="0"/>
			<vel value="0.405971657426" flag="0"/>
			<psa03 value="2.24500272041" flag="0"/>
			<psa10 value="0.0927578197504" flag="0"/>
			<psa30 value="0.00828081606345" flag="0"/>
		</comp>
		<comp name=".HNN" depth="0.0">
			<acc value="0.760678866364" flag="0"/>
			<vel value="0.203925961432" flag="0"/>
			<psa03 value="1.16451506007" flag="0"/>
			<psa10 value="0.0554458742672" flag="0"/>
			<psa30 value="0.0040589809709" flag="0"/>
		</comp>
		<comp name=".HNZ" depth="0.0">
			<acc value="0.508276144952" flag="0"/>
			<vel value="0.148810705784" flag="0"/>
			<psa03 value="0.771274093123" flag="0"/>
			<psa10 value="0.0341594416453" flag="0"/>
			<psa30 value="0.00336112286623" flag="0"/>
		</comp>
	</station>
	<station code="MNVA" name="MNVA" netid="HL" source="National Observatory of Athens Seismic Network" insttype="" lat="36.68709" lon="23.03734">
		<comp name="00.HNE" depth="0.0">
			<acc value="0.00760874069551" flag="0"/>
			<vel value="0.00343451749702" flag="0"/>
			<psa03 value="0.0269561971741" flag="0"/>
			<psa10 value="0.00486586390212" flag="0"/>
			<psa30 value="0.00024956892855" flag="0"/>
		</comp>
		<comp name="00.HNN" depth="0.0">
			<acc value="0.00748505215651" flag="0"/>
			<vel value="0.00205493220803" flag="0"/>
			<psa03 value="0.0179377638096" flag="0"/>
			<psa10 value="0.00139928496139" flag="0"/>
			<psa30 value="0.000206509956313" flag="0"/>
		</comp>
		<comp name="00.HNZ" depth="0.0">
			<acc value="0.0067404172505" flag="0"/>
			<vel value="0.00294986780156" flag="0"/>
			<psa03 value="0.0179317282536" flag="0"/>
			<psa10 value="0.00376235517507" flag="0"/>
			<psa30 value="0.000229342145916" flag="0"/>
		</comp>
	</station>
	<station code="THRA" name="THRA" netid="HL" source="National Observatory of Athens Seismic Network" insttype="" lat="36.41502" lon="25.43244">
		<comp name="00.HNE" depth="0.0">
			<acc value="0.0145608489046" flag="0"/>
			<vel value="0.00699109544848" flag="0"/>
			<psa03 value="0.0253283028758" flag="0"/>
			<psa10 value="0.0130788160949" flag="0"/>
			<psa30 value="0.000669806767243" flag="0"/>
		</comp>
		<comp name="00.HNN" depth="0.0">
			<acc value="0.00997303895163" flag="0"/>
			<vel value="0.00552467302918" flag="0"/>
			<psa03 value="0.0180761323509" flag="0"/>
			<psa10 value="0.00694000114729" flag="0"/>
			<psa30 value="0.000896904102994" flag="0"/>
		</comp>
		<comp name="00.HNZ" depth="0.0">
			<acc value="0.0198245682101" flag="0"/>
			<vel value="0.00444789226304" flag="0"/>
			<psa03 value="0.0218311623532" flag="0"/>
			<psa10 value="0.00313688686586" flag="0"/>
			<psa30 value="0.000388305384784" flag="0"/>
		</comp>
	</station>
	<station code="YDRA" name="YDRA" netid="HL" source="National Observatory of Athens Seismic Network" insttype="" lat="37.34923" lon="23.46525">
		<comp name="00.HNE" depth="0.0">
			<acc value="0.0158889433844" flag="0"/>
			<vel value="0.00237764338682" flag="0"/>
			<psa03 value="0.010049895574" flag="0"/>
			<psa10 value="0.00217553271212" flag="0"/>
			<psa30 value="0.000211600775325" flag="0"/>
		</comp>
		<comp name="00.HNN" depth="0.0">
			<acc value="0.00616581196739" flag="0"/>
			<vel value="0.00176902960214" flag="0"/>
			<psa03 value="0.0110610374269" flag="0"/>
			<psa10 value="0.00166842693135" flag="0"/>
			<psa30 value="0.000157383902474" flag="0"/>
		</comp>
		<comp name="00.HNZ" depth="0.0">
			<acc value="0.0185892252305" flag="0"/>
			<vel value="0.00216748509142" flag="0"/>
			<psa03 value="0.00743419560396" flag="0"/>
			<psa10 value="0.000931473228966" flag="0"/>
			<psa30 value="0.000110208511711" flag="0"/>
		</comp>
	</station>
	<station code="PYL" name="PYL" netid="HP" source="University of Patras, Seismological Laboratory (PSLNET)" insttype="" lat="36.8955" lon="21.742">
		<comp name=".HNE" depth="0.0">
			<acc value="0.00219610701881" flag="0"/>
			<vel value="0.0011811126942" flag="0"/>
			<psa03 value="0.00654604562257" flag="0"/>
			<psa10 value="0.00173186214924" flag="0"/>
			<psa30 value="0.000255831687177" flag="0"/>
		</comp>
		<comp name=".HNN" depth="0.0">
			<acc value="0.00129441374232" flag="0"/>
			<vel value="0.000871664338854" flag="0"/>
			<psa03 value="0.00456326030142" flag="0"/>
			<psa10 value="0.00135604072948" flag="0"/>
			<psa30 value="0.000146569423046" flag="0"/>
		</comp>
		<comp name=".HNZ" depth="0.0">
			<acc value="0.00122189597738" flag="0"/>
			<vel value="0.000749073123476" flag="0"/>
			<psa03 value="0.00359703385876" flag="0"/>
			<psa10 value="0.000643814114368" flag="0"/>
			<psa30 value="0.000299061321762" flag="0"/>
		</comp>
	</station>
</stationlist>
