<?xml version="1.0" encoding="UTF-8" standalone="yes"?>
<!DOCTYPE earthquake SYSTEM "stationlist.dtd">
<stationlist created="" xmlns="ch.ethz.sed.shakemap.usgs.xml">
  <station code="GVD" name="GVD" netid="GE" insttype="STS-2/N" lat="34.8391" lon="24.0874">
    <comp name="--.HHZ">
      <acc value="0.0187421235" flag="0"/>
      <vel value="0.0057067696" flag="0"/>
      <psa03 value="0.0273820663" flag="0"/>
      <psa10 value="0.0077588856" flag="0"/>
      <psa30 value="0.0004654665" flag="0"/>
    </comp>
    <comp name="--.HHE">
      <acc value="0.0264017628" flag="0"/>
      <vel value="0.0118860946" flag="0"/>
      <psa03 value="0.1078782448" flag="0"/>
      <psa10 value="0.0093554786" flag="0"/>
      <psa30 value="0.0004521512" flag="0"/>
    </comp>
    <comp name="--.HHN">
      <acc value="0.0164895181" flag="0"/>
      <vel value="0.0090938115" flag="0"/>
      <psa03 value="0.0529850724" flag="0"/>
      <psa10 value="0.0077095265" flag="0"/>
      <psa30 value="0.0006437139" flag="0"/>
    </comp>
  </station>
  <station code="IMMV" name="IMMV" netid="GE" insttype="STS-2/N" lat="35.4606" lon="23.9811">
    <comp name="--.HHN">
      <acc value="0.1259416683" flag="0"/>
      <vel value="0.0433210659" flag="0"/>
      <psa03 value="0.2034928771" flag="0"/>
      <psa10 value="0.0251519021" flag="0"/>
      <psa30 value="0.0014186025" flag="0"/>
    </comp>
    <comp name="--.HHE">
      <acc value="0.0996578672" flag="0"/>
      <vel value="0.0491092483" flag="0"/>
      <psa03 value="0.2844443410" flag="0"/>
      <psa10 value="0.0217115300" flag="0"/>
      <psa30 value="0.0018832194" flag="0"/>
    </comp>
    <comp name="--.HHZ">
      <acc value="0.0885712617" flag="0"/>
      <vel value="0.0222997858" flag="0"/>
      <psa03 value="0.1028196222" flag="0"/>
      <psa10 value="0.0111532983" flag="0"/>
      <psa30 value="0.0007435556" flag="0"/>
    </comp>
  </station>
  <station code="ABEA" name="ABEA" netid="HC" insttype="DC" lat="35.5163" lon="24.0113">
    <comp name="--.HNE">
      <acc value="0.0050122700" flag="0"/>
      <vel value="0.0004824221" flag="0"/>
      <psa03 value="0.0012848748" flag="0"/>
      <psa10 value="0.0009085818" flag="0"/>
      <psa30 value="0.0002297657" flag="0"/>
    </comp>
    <comp name="--.HNZ">
      <acc value="0.1302436499" flag="0"/>
      <vel value="0.0242374522" flag="0"/>
      <psa03 value="0.0765948803" flag="0"/>
      <psa10 value="0.0210625662" flag="0"/>
      <psa30 value="0.0025393268" flag="0"/>
    </comp>
    <comp name="--.HNN">
      <acc value="0.0092031069" flag="0"/>
      <vel value="0.0004587001" flag="0"/>
      <psa03 value="0.0011260707" flag="0"/>
      <psa10 value="0.0012512065" flag="0"/>
      <psa30 value="0.0005664607" flag="0"/>
    </comp>
  </station>
  <station code="ATEI" name="ATEI" netid="HC" insttype="DC" lat="35.5193" lon="24.0432">
    <comp name="--.HNZ">
      <acc value="0.0679713760" flag="0"/>
      <vel value="0.0163435584" flag="0"/>
      <psa03 value="0.0804834706" flag="0"/>
      <psa10 value="0.0129831035" flag="0"/>
      <psa30 value="0.0015412980" flag="0"/>
    </comp>
    <comp name="--.HNN">
      <acc value="0.0683983880" flag="0"/>
      <vel value="0.0268506306" flag="0"/>
      <psa03 value="0.1393197881" flag="0"/>
      <psa10 value="0.0356874528" flag="0"/>
      <psa30 value="0.0020327591" flag="0"/>
    </comp>
    <comp name="--.HNE">
      <acc value="0.0903530804" flag="0"/>
      <vel value="0.0344234108" flag="0"/>
      <psa03 value="0.1048383471" flag="0"/>
      <psa10 value="0.0502974430" flag="0"/>
      <psa30 value="0.0019801515" flag="0"/>
    </comp>
  </station>
  <station code="CHAN" name="CHAN" netid="HC" insttype="120" lat="35.5193" lon="24.0428">
    <comp name="--.HHN">
      <acc value="0.1091466587" flag="0"/>
      <vel value="0.0523716611" flag="0"/>
      <psa03 value="0.2344829308" flag="0"/>
      <psa10 value="0.0765524647" flag="0"/>
      <psa30 value="0.0034479405" flag="0"/>
    </comp>
    <comp name="--.HHE">
      <acc value="0.1792291675" flag="0"/>
      <vel value="0.0698326613" flag="0"/>
      <psa03 value="0.2348480004" flag="0"/>
      <psa10 value="0.0912034162" flag="0"/>
      <psa30 value="0.0035317610" flag="0"/>
    </comp>
    <comp name="--.HHZ">
      <acc value="0.1237642780" flag="0"/>
      <vel value="0.0306770860" flag="0"/>
      <psa03 value="0.1504846830" flag="0"/>
      <psa10 value="0.0253446446" flag="0"/>
      <psa30 value="0.0028435195" flag="0"/>
    </comp>
  </station>
  <station code="GVDS" name="GVDS" netid="HC" insttype="60" lat="34.8389" lon="24.0585">
    <comp name="--.HHZ">
      <acc value="0.0211490505" flag="0"/>
      <vel value="0.0091502801" flag="0"/>
      <psa03 value="0.0469270751" flag="0"/>
      <psa10 value="0.0062064998" flag="0"/>
      <psa30 value="0.0004801136" flag="0"/>
    </comp>
    <comp name="--.HHE">
      <acc value="0.0504640460" flag="0"/>
      <vel value="0.0151282267" flag="0"/>
      <psa03 value="0.0625239245" flag="0"/>
      <psa10 value="0.0075946525" flag="0"/>
      <psa30 value="0.0003033732" flag="0"/>
    </comp>
    <comp name="--.HHN">
      <acc value="0.0592261754" flag="0"/>
      <vel value="0.0199679472" flag="0"/>
      <psa03 value="0.0936304664" flag="0"/>
      <psa10 value="0.0073739516" flag="0"/>
      <psa30 value="0.0005766321" flag="0"/>
    </comp>
  </station>
  <station code="KNDR" name="KNDR" netid="HC" insttype="120" lat="35.2348" lon="23.6248">
    <comp name="--.HHE">
      <acc value="0.3751006684" flag="0"/>
      <vel value="0.1439851141" flag="0"/>
      <psa03 value="0.6407645741" flag="0"/>
      <psa10 value="0.0742357399" flag="0"/>
      <psa30 value="0.0034205507" flag="0"/>
    </comp>
    <comp name="--.HHN">
      <acc value="0.3664773161" flag="0"/>
      <vel value="0.0977464602" flag="0"/>
      <psa03 value="0.3852580642" flag="0"/>
      <psa10 value="0.0323170353" flag="0"/>
      <psa30 value="0.0018480231" flag="0"/>
    </comp>
    <comp name="--.HHZ">
      <acc value="0.3538307825" flag="0"/>
      <vel value="0.0824526512" flag="0"/>
      <psa03 value="0.3048952430" flag="0"/>
      <psa10 value="0.0238061750" flag="0"/>
      <psa30 value="0.0014229792" flag="0"/>
    </comp>
  </station>
  <station code="PASK" name="PASK" netid="HC" insttype="DC" lat="35.4996" lon="24.0121">
    <comp name="--.HNE">
      <acc value="0.1528116087" flag="0"/>
      <vel value="0.0659083642" flag="0"/>
      <psa03 value="0.2116068741" flag="0"/>
      <psa10 value="0.0577089458" flag="0"/>
      <psa30 value="0.0032468087" flag="0"/>
    </comp>
    <comp name="--.HNN">
      <acc value="0.1737406437" flag="0"/>
      <vel value="0.0799845361" flag="0"/>
      <psa03 value="0.2023242145" flag="0"/>
      <psa10 value="0.0517846793" flag="0"/>
      <psa30 value="0.0032246242" flag="0"/>
    </comp>
    <comp name="--.HNZ">
      <acc value="0.1470320262" flag="0"/>
      <vel value="0.0489213738" flag="0"/>
      <psa03 value="0.1385704905" flag="0"/>
      <psa10 value="0.0235387093" flag="0"/>
      <psa30 value="0.0020756241" flag="0"/>
    </comp>
  </station>
  <station code="POLY" name="POLY" netid="HC" insttype="DC" lat="35.5226" lon="24.0602">
    <comp name="--.HNE">
      <acc value="0.0766507684" flag="0"/>
      <vel value="0.0320767867" flag="0"/>
      <psa03 value="0.0962144558" flag="0"/>
      <psa10 value="0.0420919959" flag="0"/>
      <psa30 value="0.0019756756" flag="0"/>
    </comp>
    <comp name="--.HNZ">
      <acc value="0.0798230866" flag="0"/>
      <vel value="0.0213133087" flag="0"/>
      <psa03 value="0.0718029969" flag="0"/>
      <psa10 value="0.0217116054" flag="0"/>
      <psa30 value="0.0013782342" flag="0"/>
    </comp>
    <comp name="--.HNN">
      <acc value="0.0939221350" flag="0"/>
      <vel value="0.0216842850" flag="0"/>
      <psa03 value="0.1122788570" flag="0"/>
      <psa10 value="0.0318087324" flag="0"/>
      <psa30 value="0.0014902061" flag="0"/>
    </comp>
  </station>
  <station code="RODP" name="RODP" netid="HC" insttype="120" lat="35.5604" lon="23.7577">
    <comp name="--.HHN">
      <acc value="0.1473784225" flag="0"/>
      <vel value="0.0416652439" flag="0"/>
      <psa03 value="0.2370655818" flag="0"/>
      <psa10 value="0.0178416296" flag="0"/>
      <psa30 value="0.0015963832" flag="0"/>
    </comp>
    <comp name="--.HHE">
      <acc value="0.1733870840" flag="0"/>
      <vel value="0.0531500627" flag="0"/>
      <psa03 value="0.2712909864" flag="0"/>
      <psa10 value="0.0562659633" flag="0"/>
      <psa30 value="0.0034221886" flag="0"/>
    </comp>
    <comp name="--.HHZ">
      <acc value="0.0744748929" flag="0"/>
      <vel value="0.0239567332" flag="0"/>
      <psa03 value="0.1215000623" flag="0"/>
      <psa10 value="0.0193864633" flag="0"/>
      <psa30 value="0.0019736019" flag="0"/>
    </comp>
  </station>
  <station code="CH01" name="CH01" netid="HI" insttype="CMG-5TD,ACCELEROMETER,GURALP" lat="35.517" lon="24.0208">
    <comp name="--.HNZ">
      <acc value="0.0761434467" flag="0"/>
      <vel value="0.0243559509" flag="0"/>
      <psa03 value="0.0812948321" flag="0"/>
      <psa10 value="0.0276757535" flag="0"/>
      <psa30 value="0.0017314620" flag="0"/>
    </comp>
    <comp name="--.HNE">
      <acc value="0.1212880328" flag="0"/>
      <vel value="0.0440167213" flag="0"/>
      <psa03 value="0.1680572898" flag="0"/>
      <psa10 value="0.0478476968" flag="0"/>
      <psa30 value="0.0026651234" flag="0"/>
    </comp>
    <comp name="--.HNN">
      <acc value="0.1136874583" flag="0"/>
      <vel value="0.0250663102" flag="0"/>
      <psa03 value="0.1026410414" flag="0"/>
      <psa10 value="0.0254840958" flag="0"/>
      <psa30 value="0.0016204869" flag="0"/>
    </comp>
  </station>
  <station code="NPS1" name="NPS1" netid="HI" insttype="CMG-5TD,ACCELEROMETER,GURALP" lat="36.5126" lon="23.0625">
    <comp name="--.HNN">
      <acc value="0.0378950062" flag="0"/>
      <vel value="0.0155644296" flag="0"/>
      <psa03 value="0.0817098995" flag="0"/>
      <psa10 value="0.0060568203" flag="0"/>
      <psa30 value="0.0003397725" flag="0"/>
    </comp>
    <comp name="--.HNZ">
      <acc value="0.0292648182" flag="0"/>
      <vel value="0.0091157338" flag="0"/>
      <psa03 value="0.0627521733" flag="0"/>
      <psa10 value="0.0028371361" flag="0"/>
      <psa30 value="0.0002437148" flag="0"/>
    </comp>
    <comp name="--.HNE">
      <acc value="0.0352926687" flag="0"/>
      <vel value="0.0153618360" flag="0"/>
      <psa03 value="0.0811561781" flag="0"/>
      <psa10 value="0.0091982451" flag="0"/>
      <psa30 value="0.0004332192" flag="0"/>
    </comp>
  </station>
  <station code="ANKY" name="ANKY" netid="HL" insttype="60" lat="35.867" lon="23.3012">
    <comp name="--.HHE">
      <acc value="0.1381952502" flag="0"/>
      <vel value="0.0418215535" flag="0"/>
      <psa03 value="0.2619097720" flag="0"/>
      <psa10 value="0.0290344053" flag="0"/>
      <psa30 value="0.0014542046" flag="0"/>
    </comp>
    <comp name="--.HHN">
      <acc value="0.1632501517" flag="0"/>
      <vel value="0.0686313961" flag="0"/>
      <psa03 value="0.4468300272" flag="0"/>
      <psa10 value="0.0187390152" flag="0"/>
      <psa30 value="0.0014099587" flag="0"/>
    </comp>
    <comp name="--.HHZ">
      <acc value="0.1598127115" flag="0"/>
      <vel value="0.0375267809" flag="0"/>
      <psa03 value="0.2984760496" flag="0"/>
      <psa10 value="0.0135095055" flag="0"/>
      <psa30 value="0.0010048339" flag="0"/>
    </comp>
  </station>
  <station code="GVD" name="GVD" netid="HL" insttype="120" lat="34.8391" lon="24.0874">
    <comp name="--.HHZ">
      <acc value="0.0181113299" flag="0"/>
      <vel value="0.0055155014" flag="0"/>
      <psa03 value="0.0266992739" flag="0"/>
      <psa10 value="0.0077021529" flag="0"/>
      <psa30 value="0.0004624677" flag="0"/>
    </comp>
    <comp name="--.HHE">
      <acc value="0.0257866023" flag="0"/>
      <vel value="0.0116450923" flag="0"/>
      <psa03 value="0.1047515679" flag="0"/>
      <psa10 value="0.0092536387" flag="0"/>
      <psa30 value="0.0004460008" flag="0"/>
    </comp>
    <comp name="--.HHN">
      <acc value="0.0162401457" flag="0"/>
      <vel value="0.0089067118" flag="0"/>
      <psa03 value="0.0515555824" flag="0"/>
      <psa10 value="0.0076462405" flag="0"/>
      <psa30 value="0.0006416816" flag="0"/>
    </comp>
  </station>
  <station code="IMMV" name="IMMV" netid="HL" insttype="120" lat="35.4606" lon="23.9811">
    <comp name="--.HHN">
      <acc value="0.1230685413" flag="0"/>
      <vel value="0.0418741115" flag="0"/>
      <psa03 value="0.1980732640" flag="0"/>
      <psa10 value="0.0249619767" flag="0"/>
      <psa30 value="0.0014008913" flag="0"/>
    </comp>
    <comp name="--.HHE">
      <acc value="0.0956904396" flag="0"/>
      <vel value="0.0478540607" flag="0"/>
      <psa03 value="0.2766243630" flag="0"/>
      <psa10 value="0.0215499715" flag="0"/>
      <psa30 value="0.0018683607" flag="0"/>
    </comp>
    <comp name="--.HHZ">
      <acc value="0.0864874136" flag="0"/>
      <vel value="0.0218746913" flag="0"/>
      <psa03 value="0.0998231747" flag="0"/>
      <psa10 value="0.0110650849" flag="0"/>
      <psa30 value="0.0007331750" flag="0"/>
    </comp>
  </station>
  <station code="KTHA" name="KTHA" netid="HL" insttype="120" lat="36.2566" lon="23.0621">
    <comp name="--.HHE">
      <acc value="0.1032537678" flag="0"/>
      <vel value="0.0344529334" flag="0"/>
      <psa03 value="0.1952740562" flag="0"/>
      <psa10 value="0.0123716701" flag="0"/>
      <psa30 value="0.0007960716" flag="0"/>
    </comp>
    <comp name="--.HHZ">
      <acc value="0.0436777541" flag="0"/>
      <vel value="0.0134095692" flag="0"/>
      <psa03 value="0.0727113348" flag="0"/>
      <psa10 value="0.0040944044" flag="0"/>
      <psa30 value="0.0003206951" flag="0"/>
    </comp>
    <comp name="--.HHN">
      <acc value="0.0674296777" flag="0"/>
      <vel value="0.0192911352" flag="0"/>
      <psa03 value="0.1010969906" flag="0"/>
      <psa10 value="0.0049603472" flag="0"/>
      <psa30 value="0.0004725071" flag="0"/>
    </comp>
  </station>
  <station code="VAM" name="VAM" netid="HL" insttype="CMG3ESPC-120s" lat="35.407" lon="24.1997">
    <comp name="--.HHN">
      <acc value="0.0630714584" flag="0"/>
      <vel value="0.0167904438" flag="0"/>
      <psa03 value="0.0973425756" flag="0"/>
      <psa10 value="0.0123631728" flag="0"/>
      <psa30 value="0.0007909870" flag="0"/>
    </comp>
    <comp name="--.HHE">
      <acc value="0.0432166781" flag="0"/>
      <vel value="0.0205020388" flag="0"/>
      <psa03 value="0.0716476308" flag="0"/>
      <psa10 value="0.0244391379" flag="0"/>
      <psa30 value="0.0008683058" flag="0"/>
    </comp>
    <comp name="--.HHZ">
      <acc value="0.0365425544" flag="0"/>
      <vel value="0.0111424020" flag="0"/>
      <psa03 value="0.0441293608" flag="0"/>
      <psa10 value="0.0120298998" flag="0"/>
      <psa30 value="0.0008047666" flag="0"/>
    </comp>
  </station>
</stationlist>
