<stationlist created="1778118897">
	<station code="AUP" name="AUP" netid="IT" source="Italian Strong Motion Network (RAN)" insttype="" lat="46.506454" lon="13.256343">
		<comp name="--.HGE" depth="0.0">
			<acc value="0.301064424" flag="0"/>
			<vel value="0.065868" flag="0"/>
			<psa03 value="0.360040536657233" flag="0"/>
			<psa10 value="0.0396277249797371" flag="0"/>
			<psa30 value="0.00206306314716851" flag="0"/>
		</comp>
		<comp name="--.HGN" depth="0.0">
			<acc value="0.368871984" flag="0"/>
			<vel value="0.108801" flag="0"/>
			<psa03 value="0.341159325464322" flag="0"/>
			<psa10 value="0.0630636928063878" flag="0"/>
			<psa30 value="0.0032438099798247" flag="0"/>
		</comp>
		<comp name="--.HGZ" depth="0.0">
			<acc value="0.222182928" flag="0"/>
			<vel value="0.063339" flag="0"/>
			<psa03 value="0.147470313013824" flag="0"/>
			<psa10 value="0.0307003124931933" flag="0"/>
			<psa30 value="0.00365454343658044" flag="0"/>
		</comp>
	</station>
	<station code="CHF" name="CHF" netid="IT" source="Italian Strong Motion Network (RAN)" insttype="" lat="46.3887" lon="13.4737">
		<comp name="--.HGE" depth="0.0">
			<acc value="1.680524154" flag="0"/>
			<vel value="0.335857" flag="0"/>
			<psa03 value="0.480799752319948" flag="0"/>
			<psa10 value="0.0603254697613496" flag="0"/>
			<psa30 value="0.00761333387816512" flag="0"/>
		</comp>
		<comp name="--.HGN" depth="0.0">
			<acc value="1.61151891" flag="0"/>
			<vel value="0.28331" flag="0"/>
			<psa03 value="0.513237852118195" flag="0"/>
			<psa10 value="0.043026342994461" flag="0"/>
			<psa30 value="0.00577711371855125" flag="0"/>
		</comp>
		<comp name="--.HGZ" depth="0.0">
			<acc value="2.255130036" flag="0"/>
			<vel value="0.347658" flag="0"/>
			<psa03 value="0.734488063845549" flag="0"/>
			<psa10 value="0.0694340881846974" flag="0"/>
			<psa30 value="0.0105184453538895" flag="0"/>
		</comp>
	</station>
	<station code="CVF" name="CVF" netid="IT" source="Italian Strong Motion Network (RAN)" insttype="" lat="46.0918" lon="13.429">
		<comp name="--.HGE" depth="0.0">
			<acc value="0.463347546" flag="0"/>
			<vel value="0.091819" flag="0"/>
			<psa03 value="0.405498618581397" flag="0"/>
			<psa10 value="0.0667562671185938" flag="0"/>
			<psa30 value="0.00601290514742954" flag="0"/>
		</comp>
		<comp name="--.HGN" depth="0.0">
			<acc value="0.515973528" flag="0"/>
			<vel value="0.106043" flag="0"/>
			<psa03 value="0.268453239709631" flag="0"/>
			<psa10 value="0.0406022102398831" flag="0"/>
			<psa30 value="0.00464155651457951" flag="0"/>
		</comp>
		<comp name="--.HGZ" depth="0.0">
			<acc value="0.35491104" flag="0"/>
			<vel value="0.07037" flag="0"/>
			<psa03 value="0.173599761678894" flag="0"/>
			<psa10 value="0.0694904633650364" flag="0"/>
			<psa30 value="0.00486347785940614" flag="0"/>
		</comp>
	</station>
	<station code="FDS" name="FDS" netid="IT" source="Italian Strong Motion Network (RAN)" insttype="" lat="46.4513" lon="12.5627">
		<comp name="--.HGE" depth="0.0">
			<acc value="0.012054666" flag="0"/>
			<vel value="0.006273" flag="0"/>
			<psa03 value="0.0178073982340722" flag="0"/>
			<psa10 value="0.00850862543259674" flag="0"/>
			<psa30 value="0.00107023358230906" flag="0"/>
		</comp>
		<comp name="--.HGN" depth="0.0">
			<acc value="0.01074111" flag="0"/>
			<vel value="0.004211" flag="0"/>
			<psa03 value="0.0130647243325354" flag="0"/>
			<psa10 value="0.00373686909675806" flag="0"/>
			<psa30 value="0.000875157561453395" flag="0"/>
		</comp>
		<comp name="--.HGZ" depth="0.0">
			<acc value="0.007016682" flag="0"/>
			<vel value="0.005512" flag="0"/>
			<psa03 value="0.00975380104278324" flag="0"/>
			<psa10 value="0.00861734899467914" flag="0"/>
			<psa30 value="0.0012867858623415" flag="0"/>
		</comp>
	</station>
	<station code="RST" name="RST" netid="IT" source="Italian Strong Motion Network (RAN)" insttype="" lat="46.3629" lon="13.3537">
		<comp name="--.HGE" depth="0.0">
			<acc value="0.243172794" flag="0"/>
			<vel value="0.0587" flag="0"/>
			<psa03 value="0.21928155463615" flag="0"/>
			<psa10 value="0.0523282477503997" flag="0"/>
			<psa30 value="0.00365633312484517" flag="0"/>
		</comp>
		<comp name="--.HGN" depth="0.0">
			<acc value="0.27017301" flag="0"/>
			<vel value="0.045208" flag="0"/>
			<psa03 value="0.137448058731331" flag="0"/>
			<psa10 value="0.0688743631799028" flag="0"/>
			<psa30 value="0.00210646308758823" flag="0"/>
		</comp>
		<comp name="--.HGZ" depth="0.0">
			<acc value="0.101821602" flag="0"/>
			<vel value="0.016816" flag="0"/>
			<psa03 value="0.0547197186941464" flag="0"/>
			<psa10 value="0.0209232455029686" flag="0"/>
			<psa30 value="0.00211093730825006" flag="0"/>
		</comp>
	</station>
	<station code="SDV" name="SDV" netid="IT" source="Italian Strong Motion Network (RAN)" insttype="" lat="45.6281" lon="13.8967">
		<comp name="--.HGE" depth="0.0">
			<acc value="0.0313648128172527" flag="0"/>
			<vel value="0.0087408421169373" flag="0"/>
			<psa03 value="0.0344962413026875" flag="0"/>
			<psa10 value="0.00886298370901345" flag="0"/>
			<psa30 value="0.000618784717530698" flag="0"/>
		</comp>
		<comp name="--.HGN" depth="0.0">
			<acc value="0.0324417221442887" flag="0"/>
			<vel value="0.0085555801210897" flag="0"/>
			<psa03 value="0.0287244966489305" flag="0"/>
			<psa10 value="0.00729253225671211" flag="0"/>
			<psa30 value="0.00140982693054174" flag="0"/>
		</comp>
		<comp name="--.HGZ" depth="0.0">
			<acc value="0.0223639861003197" flag="0"/>
			<vel value="0.0100798944679443" flag="0"/>
			<psa03 value="0.063712902224419" flag="0"/>
			<psa10 value="0.00707911193114296" flag="0"/>
			<psa30 value="0.0016568039110746" flag="0"/>
		</comp>
	</station>
	<station code="SPP" name="SPP" netid="IT" source="Italian Strong Motion Network (RAN)" insttype="" lat="46.5725" lon="12.709">
		<comp name="--.HGE" depth="0.0">
			<acc value="0.018847662" flag="0"/>
			<vel value="0.008109" flag="0"/>
			<psa03 value="0.0421919008410303" flag="0"/>
			<psa10 value="0.00809386517724536" flag="0"/>
			<psa30 value="0.00173957699331841" flag="0"/>
		</comp>
		<comp name="--.HGN" depth="0.0">
			<acc value="0.023649414" flag="0"/>
			<vel value="0.01005" flag="0"/>
			<psa03 value="0.0262636752849255" flag="0"/>
			<psa10 value="0.0126481743889192" flag="0"/>
			<psa30 value="0.000822361757643835" flag="0"/>
		</comp>
		<comp name="--.HGZ" depth="0.0">
			<acc value="0.014059986" flag="0"/>
			<vel value="0.006908" flag="0"/>
			<psa03 value="0.0194181176723299" flag="0"/>
			<psa10 value="0.0106186678967144" flag="0"/>
			<psa30 value="0.00201384671988841" flag="0"/>
		</comp>
	</station>
	<station code="VDB" name="VDB" netid="IT" source="Italian Strong Motion Network (RAN)" insttype="" lat="45.9069" lon="11.9913">
		<comp name="--.HGE" depth="0.0">
			<acc value="0.04148391" flag="0"/>
			<vel value="0.012281" flag="0"/>
			<psa03 value="0.0392836574108426" flag="0"/>
			<psa10 value="0.00848446464102287" flag="0"/>
			<psa30 value="0.000485452941808248" flag="0"/>
		</comp>
		<comp name="--.HGN" depth="0.0">
			<acc value="0.038744292" flag="0"/>
			<vel value="0.013119" flag="0"/>
			<psa03 value="0.0350778899887251" flag="0"/>
			<psa10 value="0.00815426715618003" flag="0"/>
			<psa30 value="0.000442053001388525" flag="0"/>
		</comp>
		<comp name="--.HGZ" depth="0.0">
			<acc value="0.014393322" flag="0"/>
			<vel value="0.006266" flag="0"/>
			<psa03 value="0.0204024462179319" flag="0"/>
			<psa10 value="0.0046469255793737" flag="0"/>
			<psa30 value="0.000247424402599043" flag="0"/>
		</comp>
	</station>
	<station code="FRE8" name="FRE8" netid="IV" source="Italian National Seismic Network (INSN)" insttype="" lat="46.015" lon="12.3552">
		<comp name="--.HNE" depth="0.0">
			<acc value="0.0285033105777765" flag="0"/>
			<vel value="0.01017436041915" flag="0"/>
			<psa03 value="0.0276954258967102" flag="0"/>
			<psa10 value="0.0127568979510016" flag="0"/>
			<psa30 value="0.000901108041291993" flag="0"/>
		</comp>
		<comp name="--.HNN" depth="0.0">
			<acc value="0.02219700535045" flag="0"/>
			<vel value="0.00975056761908402" flag="0"/>
			<psa03 value="0.0225053299289907" flag="0"/>
			<psa10 value="0.00715159430586456" flag="0"/>
			<psa30 value="0.000727060857546916" flag="0"/>
		</comp>
		<comp name="--.HNZ" depth="0.0">
			<acc value="0.0184067151338856" flag="0"/>
			<vel value="0.00541414069952111" flag="0"/>
			<psa03 value="0.0156597723163951" flag="0"/>
			<psa10 value="0.00903210925003052" flag="0"/>
			<psa30 value="0.00080670198532744" flag="0"/>
		</comp>
	</station>
	<station code="OPPE" name="OPPE" netid="IV" source="Italian National Seismic Network (INSN)" insttype="" lat="45.3082" lon="11.1724">
		<comp name="--.HNE" depth="0.0">
			<acc value="0.0108327131154045" flag="0"/>
			<vel value="0.00779274963851685" flag="0"/>
			<psa03 value="0.0183890469201097" flag="0"/>
			<psa10 value="0.0150723071434972" flag="0"/>
			<psa30 value="0.00291450733911422" flag="0"/>
		</comp>
		<comp name="--.HNN" depth="0.0">
			<acc value="0.0116735165582166" flag="0"/>
			<vel value="0.00786227986114217" flag="0"/>
			<psa03 value="0.0217894546230983" flag="0"/>
			<psa10 value="0.0144843945485331" flag="0"/>
			<psa30 value="0.00146620211088077" flag="0"/>
		</comp>
		<comp name="--.HNZ" depth="0.0">
			<acc value="0.00499995708784829" flag="0"/>
			<vel value="0.0029287119102511" flag="0"/>
			<psa03 value="0.00845627705085336" flag="0"/>
			<psa10 value="0.00428048690717006" flag="0"/>
			<psa30 value="0.000668001144810797" flag="0"/>
		</comp>
	</station>
	<station code="SANR" name="SANR" netid="IV" source="Italian National Seismic Network (INSN)" insttype="" lat="45.64" lon="11.6099">
		<comp name="--.HNE" depth="0.0">
			<acc value="0.0442280255436232" flag="0"/>
			<vel value="0.0319617635959537" flag="0"/>
			<psa03 value="0.106173256305159" flag="0"/>
			<psa10 value="0.0276479991576948" flag="0"/>
			<psa30 value="0.00269929732528033" flag="0"/>
		</comp>
		<comp name="--.HNN" depth="0.0">
			<acc value="0.0429458918659799" flag="0"/>
			<vel value="0.033874731261573" flag="0"/>
			<psa03 value="0.0501560136190826" flag="0"/>
			<psa10 value="0.0327298189853982" flag="0"/>
			<psa30 value="0.00245276776681366" flag="0"/>
		</comp>
		<comp name="--.HNZ" depth="0.0">
			<acc value="0.00934477911696428" flag="0"/>
			<vel value="0.00590114623134043" flag="0"/>
			<psa03 value="0.0170020385149433" flag="0"/>
			<psa10 value="0.00860526859889221" flag="0"/>
			<psa30 value="0.000727955701679281" flag="0"/>
		</comp>
	</station>
	<station code="TREG" name="TREG" netid="IV" source="Italian National Seismic Network (INSN)" insttype="" lat="45.523" lon="11.1606">
		<comp name="--.HNE" depth="0.0">
			<acc value="0.0166112253400489" flag="0"/>
			<vel value="0.00636358542403454" flag="0"/>
			<psa03 value="0.0279638791364198" flag="0"/>
			<psa10 value="0.00427646010857441" flag="0"/>
			<psa30 value="0.00029306145334968" flag="0"/>
		</comp>
		<comp name="--.HNN" depth="0.0">
			<acc value="0.0165354560733827" flag="0"/>
			<vel value="0.00611544159870742" flag="0"/>
			<psa03 value="0.0217894546230983" flag="0"/>
			<psa10 value="0.00558919645075451" flag="0"/>
			<psa30 value="0.00031945935525446" flag="0"/>
		</comp>
		<comp name="--.HNZ" depth="0.0">
			<acc value="0.011100830451615" flag="0"/>
			<vel value="0.00289167567550441" flag="0"/>
			<psa03 value="0.0203577040113136" flag="0"/>
			<psa10 value="0.00251272232368214" flag="0"/>
			<psa30 value="0.000215210013833887" flag="0"/>
		</comp>
	</station>
	<station code="ZOVE" name="ZOVE" netid="IV" source="Italian National Seismic Network (INSN)" insttype="" lat="45.4536" lon="11.4876">
		<comp name="--.HNE" depth="0.0">
			<acc value="0.00681914727272" flag="0"/>
			<vel value="0.0039019212063647" flag="0"/>
			<psa03 value="0.0131542087457719" flag="0"/>
			<psa10 value="0.00648314573898758" flag="0"/>
			<psa30 value="0.000736904143002936" flag="0"/>
		</comp>
		<comp name="--.HNN" depth="0.0">
			<acc value="0.0090408372430236" flag="0"/>
			<vel value="0.00568514447908582" flag="0"/>
			<psa03 value="0.0225948143422272" flag="0"/>
			<psa10 value="0.0133891053305178" flag="0"/>
			<psa30 value="0.000702005221840684" flag="0"/>
		</comp>
		<comp name="--.HNZ" depth="0.0">
			<acc value="0.00692129644970522" flag="0"/>
			<vel value="0.00292423907850858" flag="0"/>
			<psa03 value="0.00774040174496101" flag="0"/>
			<psa10 value="0.00539188331956793" flag="0"/>
			<psa30 value="0.00047739934461696" flag="0"/>
		</comp>
	</station>
	<station code="GEPF" name="GEPF" netid="RF" source="Friuli Venezia Giulia Accelerometric Network (RF)" insttype="" lat="46.275" lon="13.1386">
		<comp name="--.HGE" depth="0.0">
			<acc value="0.104571210161339" flag="0"/>
			<vel value="0.0367434518423747" flag="0"/>
			<psa03 value="0.0827283400371845" flag="0"/>
			<psa10 value="0.0460947635243421" flag="0"/>
			<psa30 value="0.00387691220347325" flag="0"/>
		</comp>
		<comp name="--.HGN" depth="0.0">
			<acc value="0.107073716199655" flag="0"/>
			<vel value="0.0490829180389331" flag="0"/>
			<psa03 value="0.131542087457719" flag="0"/>
			<psa10 value="0.0405055670735876" flag="0"/>
			<psa30 value="0.0056151469305931" flag="0"/>
		</comp>
		<comp name="--.HGZ" depth="0.0">
			<acc value="0.0840107020699044" flag="0"/>
			<vel value="0.0263833783447532" flag="0"/>
			<psa03 value="0.0519009596771952" flag="0"/>
			<psa10 value="0.0276721599492687" flag="0"/>
			<psa30 value="0.00207961776361727" flag="0"/>
		</comp>
	</station>
	<station code="GESC" name="GESC" netid="RF" source="Friuli Venezia Giulia Accelerometric Network (RF)" insttype="" lat="46.281898" lon="13.1409">
		<comp name="00.HGE" depth="0.0">
			<acc value="0.334724372418858" flag="0"/>
			<vel value="0.0725045215357259" flag="0"/>
			<psa03 value="0.294761657201174" flag="0"/>
			<psa10 value="0.0584691156087575" flag="0"/>
			<psa30 value="0.00439905375470848" flag="0"/>
		</comp>
		<comp name="00.HGN" depth="0.0">
			<acc value="0.406829014915646" flag="0"/>
			<vel value="0.111999947784889" flag="0"/>
			<psa03 value="0.245008323441656" flag="0"/>
			<psa10 value="0.081172206091001" flag="0"/>
			<psa30 value="0.00770818735619586" flag="0"/>
		</comp>
		<comp name="00.HGZ" depth="0.0">
			<acc value="0.228897065760503" flag="0"/>
			<vel value="0.0585712502928" flag="0"/>
			<psa03 value="0.179282021919415" flag="0"/>
			<psa10 value="0.0366962156021079" flag="0"/>
			<psa30 value="0.00220892274074408" flag="0"/>
		</comp>
	</station>
	<station code="GORI" name="GORI" netid="RF" source="Friuli Venezia Giulia Accelerometric Network (RF)" insttype="" lat="45.9403" lon="13.6308">
		<comp name="00.HNE" depth="2.0">
			<acc value="0.915059203487172" flag="0"/>
			<vel value="0.250087754960798" flag="0"/>
			<psa03 value="0.93484366508217" flag="0"/>
			<psa10 value="0.0978069110896082" flag="0"/>
			<psa30 value="0.00969160937558384" flag="0"/>
		</comp>
		<comp name="00.HNN" depth="2.0">
			<acc value="1.07302703536677" flag="0"/>
			<vel value="0.272630371235811" flag="0"/>
			<psa03 value="1.21560101161183" flag="0"/>
			<psa10 value="0.213988104171142" flag="0"/>
			<psa30 value="0.00945850247910265" flag="0"/>
		</comp>
		<comp name="00.HNZ" depth="2.0">
			<acc value="0.359676950012042" flag="0"/>
			<vel value="0.102217818047474" flag="0"/>
			<psa03 value="0.3344927366782" flag="0"/>
			<psa10 value="0.092113017875367" flag="0"/>
			<psa30 value="0.00840974515597036" flag="0"/>
		</comp>
	</station>
	<station code="MOGG" name="MOGG" netid="RF" source="Friuli Venezia Giulia Accelerometric Network (RF)" insttype="" lat="46.4048" lon="13.1885">
		<comp name="00.HNE" depth="0.0">
			<acc value="0.228796470082168" flag="0"/>
			<vel value="0.0612477197704881" flag="0"/>
			<psa03 value="0.332524079586996" flag="0"/>
			<psa10 value="0.0580664357491931" flag="0"/>
			<psa30 value="0.00334403252264963" flag="0"/>
		</comp>
		<comp name="00.HNN" depth="0.0">
			<acc value="0.186300231211668" flag="0"/>
			<vel value="0.0504453292274327" flag="0"/>
			<psa03 value="0.220981758487644" flag="0"/>
			<psa10 value="0.0553080787111766" flag="0"/>
			<psa30 value="0.00652565083527493" flag="0"/>
		</comp>
		<comp name="00.HNZ" depth="0.0">
			<acc value="0.333368066175439" flag="0"/>
			<vel value="0.0995220560090378" flag="0"/>
			<psa03 value="0.505989614646035" flag="0"/>
			<psa10 value="0.0692367750535108" flag="0"/>
			<psa30 value="0.00464155651457951" flag="0"/>
		</comp>
	</station>
</stationlist>
