<?xml version="1.0" encoding="UTF-8" standalone="yes"?>
<!DOCTYPE earthquake SYSTEM "stationlist.dtd">
<stationlist created="" xmlns="ch.ethz.sed.shakemap.usgs.xml">
  <station code="FRE8" name="FRE8" netid="IV" source="INGV" insttype="" lat="46.015" lon="12.3552">
    <comp name="--.HNE">
      <acc value="0.0285450498" flag="0"/>
      <vel value="0.0103599228" flag="0"/>
      <psa03 value="0.0276834831" flag="0"/>
      <psa10 value="0.0127372020" flag="0"/>
      <psa30 value="0.0007701488" flag="0"/>
    </comp>
    <comp name="--.HNN">
      <acc value="0.0219713024" flag="0"/>
      <vel value="0.0093387110" flag="0"/>
      <psa03 value="0.0222297022" flag="0"/>
      <psa10 value="0.0070744099" flag="0"/>
      <psa30 value="0.0006190349" flag="0"/>
    </comp>
    <comp name="--.HNZ">
      <acc value="0.0185205883" flag="0"/>
      <vel value="0.0051315673" flag="0"/>
      <psa03 value="0.0154735884" flag="0"/>
      <psa10 value="0.0090547389" flag="0"/>
      <psa30 value="0.0006977453" flag="0"/>
    </comp>
  </station>
  <station code="ACOM" name="ACOM" netid="NI" source="INGV" insttype="" lat="46.548" lon="13.5137">
    <comp name="--.HHE">
      <acc value="0.7919700733" flag="0"/>
      <vel value="0.2567303964" flag="0"/>
      <psa03 value="1.3046700495" flag="0"/>
      <psa10 value="0.0996433157" flag="0"/>
      <psa30 value="0.0063637065" flag="0"/>
    </comp>
    <comp name="--.HHN">
      <acc value="0.4292496227" flag="0"/>
      <vel value="0.1631468707" flag="0"/>
      <psa03 value="0.4813988886" flag="0"/>
      <psa10 value="0.1147065410" flag="0"/>
      <psa30 value="0.0072915101" flag="0"/>
    </comp>
    <comp name="--.HHZ">
      <acc value="0.2315948413" flag="0"/>
      <vel value="0.0591004250" flag="0"/>
      <psa03 value="0.2464304557" flag="0"/>
      <psa10 value="0.0492949700" flag="0"/>
      <psa30 value="0.0037593456" flag="0"/>
    </comp>
  </station>
  <station code="AGOR" name="AGOR" netid="NI" source="INGV" insttype="" lat="46.2329" lon="12.0472">
    <comp name="--.HHE">
      <acc value="0.0084777051" flag="0"/>
      <vel value="0.0042180933" flag="0"/>
      <psa03 value="0.0171444121" flag="0"/>
      <psa10 value="0.0043172573" flag="0"/>
      <psa30 value="0.0003040835" flag="0"/>
    </comp>
    <comp name="--.HHN">
      <acc value="0.0143922128" flag="0"/>
      <vel value="0.0046264476" flag="0"/>
      <psa03 value="0.0176820587" flag="0"/>
      <psa10 value="0.0059303182" flag="0"/>
      <psa30 value="0.0003737462" flag="0"/>
    </comp>
    <comp name="--.HHZ">
      <acc value="0.0066454676" flag="0"/>
      <vel value="0.0026854789" flag="0"/>
      <psa03 value="0.0086018020" flag="0"/>
      <psa10 value="0.0038265461" flag="0"/>
      <psa30 value="0.0003884712" flag="0"/>
    </comp>
  </station>
  <station code="CLUD" name="CLUD" netid="NI" source="INGV" insttype="" lat="46.4569" lon="12.8814">
    <comp name="--.HHE">
      <acc value="0.0151646641" flag="0"/>
      <vel value="0.0083904303" flag="0"/>
      <psa03 value="0.0214019127" flag="0"/>
      <psa10 value="0.0119185484" flag="0"/>
      <psa30 value="0.0013017530" flag="0"/>
    </comp>
    <comp name="--.HHN">
      <acc value="0.0209562822" flag="0"/>
      <vel value="0.0139217836" flag="0"/>
      <psa03 value="0.0262483427" flag="0"/>
      <psa10 value="0.0211644875" flag="0"/>
      <psa30 value="0.0015206200" flag="0"/>
    </comp>
    <comp name="--.HHZ">
      <acc value="0.0224732826" flag="0"/>
      <vel value="0.0116979866" flag="0"/>
      <psa03 value="0.0330237694" flag="0"/>
      <psa10 value="0.0237177605" flag="0"/>
      <psa30 value="0.0014270169" flag="0"/>
    </comp>
  </station>
  <station code="MPRI" name="MPRI" netid="NI" source="INGV" insttype="" lat="46.2408" lon="12.9877">
    <comp name="--.HHE">
      <acc value="0.0352327758" flag="0"/>
      <vel value="0.0147886017" flag="0"/>
      <psa03 value="0.0488529381" flag="0"/>
      <psa10 value="0.0108082545" flag="0"/>
      <psa30 value="0.0023812663" flag="0"/>
    </comp>
    <comp name="--.HHN">
      <acc value="0.0432211901" flag="0"/>
      <vel value="0.0200405861" flag="0"/>
      <psa03 value="0.0556774257" flag="0"/>
      <psa10 value="0.0148114059" flag="0"/>
      <psa30 value="0.0042745931" flag="0"/>
    </comp>
    <comp name="--.HHZ">
      <acc value="0.0247141517" flag="0"/>
      <vel value="0.0075430334" flag="0"/>
      <psa03 value="0.0325269356" flag="0"/>
      <psa10 value="0.0078317541" flag="0"/>
      <psa30 value="0.0019224570" flag="0"/>
    </comp>
  </station>
  <station code="SABO" name="SABO" netid="NI" source="INGV" insttype="" lat="45.9875" lon="13.6336">
    <comp name="--.HHE">
      <acc value="0.3241910021" flag="0"/>
      <vel value="0.1018176315" flag="0"/>
      <psa03 value="0.4157420239" flag="0"/>
      <psa10 value="0.0706549091" flag="0"/>
      <psa30 value="0.0054621323" flag="0"/>
    </comp>
    <comp name="--.HHN">
      <acc value="0.2371935835" flag="0"/>
      <vel value="0.1229884407" flag="0"/>
      <psa03 value="0.3777316227" flag="0"/>
      <psa10 value="0.1550880319" flag="0"/>
      <psa30 value="0.0069314109" flag="0"/>
    </comp>
    <comp name="--.HHZ">
      <acc value="0.1549201338" flag="0"/>
      <vel value="0.0499561909" flag="0"/>
      <psa03 value="0.3094757614" flag="0"/>
      <psa10 value="0.0541670392" flag="0"/>
      <psa30 value="0.0051024005" flag="0"/>
    </comp>
  </station>
  <station code="VARN" name="VARN" netid="NI" source="INGV" insttype="" lat="45.9922" lon="12.1051">
    <comp name="--.HHE">
      <acc value="0.0625727557" flag="0"/>
      <vel value="0.0197634338" flag="0"/>
      <psa03 value="0.0685776701" flag="0"/>
      <psa10 value="0.0192260245" flag="0"/>
      <psa30 value="0.0009470726" flag="0"/>
    </comp>
    <comp name="--.HHN">
      <acc value="0.0319380698" flag="0"/>
      <vel value="0.0132471606" flag="0"/>
      <psa03 value="0.0563898982" flag="0"/>
      <psa10 value="0.0216764496" flag="0"/>
      <psa30 value="0.0009350779" flag="0"/>
    </comp>
    <comp name="--.HHZ">
      <acc value="0.0134804218" flag="0"/>
      <vel value="0.0057476361" flag="0"/>
      <psa03 value="0.0146090333" flag="0"/>
      <psa10 value="0.0055420261" flag="0"/>
      <psa30 value="0.0003760352" flag="0"/>
    </comp>
  </station>
  <station code="ZOU2" name="ZOU2" netid="NI" source="INGV" insttype="" lat="46.5584" lon="12.9729">
    <comp name="--.HHE">
      <acc value="0.0438025098" flag="0"/>
      <vel value="0.0137761669" flag="0"/>
      <psa03 value="0.0417990813" flag="0"/>
      <psa10 value="0.0136252718" flag="0"/>
      <psa30 value="0.0024401804" flag="0"/>
    </comp>
    <comp name="--.HHN">
      <acc value="0.0332267920" flag="0"/>
      <vel value="0.0217773815" flag="0"/>
      <psa03 value="0.0550772058" flag="0"/>
      <psa10 value="0.0340783058" flag="0"/>
      <psa30 value="0.0022616200" flag="0"/>
    </comp>
    <comp name="--.HHZ">
      <acc value="0.0232121995" flag="0"/>
      <vel value="0.0137263533" flag="0"/>
      <psa03 value="0.0367773415" flag="0"/>
      <psa10 value="0.0116228406" flag="0"/>
      <psa30 value="0.0016536624" flag="0"/>
    </comp>
  </station>
</stationlist>
