<?xml version="1.0" encoding="UTF-8" standalone="yes"?>
<!DOCTYPE earthquake SYSTEM "stationlist.dtd">
<stationlist created="" xmlns="ch.ethz.sed.shakemap.usgs.xml">
  <station code="CEYT" name="CEYT" netid="KO" insttype="CMG-3ESP" lat="37.0105" lon="35.7478">
    <comp name="--.HHE">
      <acc value="0.0326226171" flag="0"/>
      <vel value="0.0422238281" flag="0"/>
      <psa03 value="0.1309427509" flag="0"/>
      <psa10 value="0.0404532149" flag="0"/>
      <psa30 value="0.0104203829" flag="0"/>
    </comp>
    <comp name="--.HHZ">
      <acc value="0.0206510843" flag="0"/>
      <vel value="0.0318035141" flag="0"/>
      <psa03 value="0.0579172821" flag="0"/>
      <psa10 value="0.0597020056" flag="0"/>
      <psa30 value="0.0065702024" flag="0"/>
    </comp>
    <comp name="--.HHN">
      <acc value="0.0267907216" flag="0"/>
      <vel value="0.0281635419" flag="0"/>
      <psa03 value="0.0630660232" flag="0"/>
      <psa10 value="0.0491934568" flag="0"/>
      <psa30 value="0.0063860685" flag="0"/>
    </comp>
  </station>
  <station code="GAZ" name="GAZ" netid="KO" insttype="CMG-3T" lat="37.1721" lon="37.2096">
    <comp name="--.HHE">
      <acc value="0.1376168305" flag="0"/>
      <vel value="0.1754364741" flag="0"/>
      <psa03 value="0.2812544887" flag="0"/>
      <psa10 value="0.2005229876" flag="0"/>
      <psa30 value="0.0109270159" flag="0"/>
    </comp>
    <comp name="--.HHZ">
      <acc value="0.0926512692" flag="0"/>
      <vel value="0.0721118480" flag="0"/>
      <psa03 value="0.2055421935" flag="0"/>
      <psa10 value="0.0833184205" flag="0"/>
      <psa30 value="0.0080870385" flag="0"/>
    </comp>
  </station>
  <station code="KHMN" name="KHMN" netid="KO" insttype="CMG-5T" lat="37.3916" lon="37.1574">
    <comp name="--.HNE">
      <acc value="0.1565398278" flag="0"/>
      <vel value="0.1007643523" flag="0"/>
      <psa03 value="0.3256215208" flag="0"/>
      <psa10 value="0.1025047661" flag="0"/>
      <psa30 value="0.0132497809" flag="0"/>
    </comp>
    <comp name="--.HNN">
      <acc value="0.1647338454" flag="0"/>
      <vel value="0.0798739270" flag="0"/>
      <psa03 value="0.3156191008" flag="0"/>
      <psa10 value="0.0625545642" flag="0"/>
      <psa30 value="0.0100623196" flag="0"/>
    </comp>
    <comp name="--.HNZ">
      <acc value="0.0691749367" flag="0"/>
      <vel value="0.0430389402" flag="0"/>
      <psa03 value="0.1739919433" flag="0"/>
      <psa10 value="0.0399008272" flag="0"/>
      <psa30 value="0.0094749421" flag="0"/>
    </comp>
  </station>
  <station code="ANDN" name="ANDN" netid="TU" insttype="T" lat="37.58" lon="36.3452">
    <comp name="--.HHE">
      <acc value="0.4811594599" flag="0"/>
      <vel value="0.3470368080" flag="0"/>
      <psa03 value="1.2941569921" flag="0"/>
      <psa10 value="0.3907700912" flag="0"/>
      <psa30 value="0.0502924045" flag="0"/>
    </comp>
    <comp name="--.HHN">
      <acc value="0.6859144149" flag="0"/>
      <vel value="0.4041303913" flag="0"/>
      <psa03 value="1.4449770475" flag="0"/>
      <psa10 value="0.7088793628" flag="0"/>
      <psa30 value="0.0361270815" flag="0"/>
    </comp>
    <comp name="--.HHZ">
      <acc value="0.4188358357" flag="0"/>
      <vel value="0.4391473841" flag="0"/>
      <psa03 value="0.6206225713" flag="0"/>
      <psa10 value="0.6810180929" flag="0"/>
      <psa30 value="0.0411766006" flag="0"/>
    </comp>
  </station>
</stationlist>
