<?xml version="1.0" encoding="UTF-8" standalone="yes"?>
<!DOCTYPE earthquake SYSTEM "stationlist.dtd">
<stationlist created="" xmlns="ch.ethz.sed.shakemap.usgs.xml">
  <station code="DARE" name="DARE" netid="KO" insttype="CMG-3ESP" lat="38.5712" lon="37.4832">
    <comp name="--.HHZ">
      <acc value="0.0996037709" flag="0"/>
      <vel value="0.0234808025" flag="0"/>
      <psa03 value="0.1449052165" flag="0"/>
      <psa10 value="0.0104600373" flag="0"/>
      <psa30 value="0.0011197428" flag="0"/>
    </comp>
    <comp name="--.HHE">
      <acc value="0.0883316598" flag="0"/>
      <vel value="0.0269475437" flag="0"/>
      <psa03 value="0.1785442122" flag="0"/>
      <psa10 value="0.0197147089" flag="0"/>
      <psa30 value="0.0011733970" flag="0"/>
    </comp>
    <comp name="--.HHN">
      <acc value="0.0820296424" flag="0"/>
      <vel value="0.0306807697" flag="0"/>
      <psa03 value="0.1555811202" flag="0"/>
      <psa10 value="0.0243722942" flag="0"/>
      <psa30 value="0.0011849761" flag="0"/>
    </comp>
  </station>
  <station code="GAZ" name="GAZ" netid="KO" insttype="CMG-3T" lat="37.1721" lon="37.2096">
    <comp name="--.HHE">
      <acc value="0.0302990162" flag="0"/>
      <vel value="0.0109055385" flag="0"/>
      <psa03 value="0.0430785707" flag="0"/>
      <psa10 value="0.0084771336" flag="0"/>
      <psa30 value="0.0012274482" flag="0"/>
    </comp>
    <comp name="--.HHN">
      <acc value="0.0292329036" flag="0"/>
      <vel value="0.0089843329" flag="0"/>
      <psa03 value="0.0399921543" flag="0"/>
      <psa10 value="0.0100859471" flag="0"/>
      <psa30 value="0.0008677903" flag="0"/>
    </comp>
  </station>
  <station code="KHMN" name="KHMN" netid="KO" insttype="CMG-5T" lat="37.3916" lon="37.1574">
    <comp name="--.HNE">
      <acc value="0.0397766015" flag="0"/>
      <vel value="0.0112914941" flag="0"/>
      <psa03 value="0.0279173301" flag="0"/>
      <psa10 value="0.0094483520" flag="0"/>
      <psa30 value="0.0022851438" flag="0"/>
    </comp>
    <comp name="--.HNZ">
      <acc value="0.0260710129" flag="0"/>
      <vel value="0.0051709654" flag="0"/>
      <psa03 value="0.0407720561" flag="0"/>
      <psa10 value="0.0060735761" flag="0"/>
      <psa30 value="0.0013059292" flag="0"/>
    </comp>
    <comp name="--.HNN">
      <acc value="0.0358634363" flag="0"/>
      <vel value="0.0088475533" flag="0"/>
      <psa03 value="0.0330448600" flag="0"/>
      <psa10 value="0.0106440908" flag="0"/>
      <psa30 value="0.0019995717" flag="0"/>
    </comp>
  </station>
  <station code="KMRS" name="KMRS" netid="KO" insttype="CMG-3T" lat="37.5053" lon="36.9">
    <comp name="--.HHN">
      <acc value="0.0241389389" flag="0"/>
      <vel value="0.0135530494" flag="0"/>
      <psa03 value="0.0372607885" flag="0"/>
      <psa10 value="0.0123149315" flag="0"/>
      <psa30 value="0.0010083629" flag="0"/>
    </comp>
    <comp name="--.HHE">
      <acc value="0.0196379204" flag="0"/>
      <vel value="0.0111535784" flag="0"/>
      <psa03 value="0.0249156700" flag="0"/>
      <psa10 value="0.0129063504" flag="0"/>
      <psa30 value="0.0010774169" flag="0"/>
    </comp>
    <comp name="--.HHZ">
      <acc value="0.0172653330" flag="0"/>
      <vel value="0.0066748593" flag="0"/>
      <psa03 value="0.0248119473" flag="0"/>
      <psa10 value="0.0078518339" flag="0"/>
      <psa30 value="0.0009515744" flag="0"/>
    </comp>
  </station>
  <station code="SARI" name="SARI" netid="KO" insttype="CMG-3T" lat="38.4072" lon="36.4181">
    <comp name="--.HHE">
      <acc value="0.0504390893" flag="0"/>
      <vel value="0.0146216145" flag="0"/>
      <psa03 value="0.0615578690" flag="0"/>
      <psa10 value="0.0229082349" flag="0"/>
      <psa30 value="0.0012190761" flag="0"/>
    </comp>
    <comp name="--.HHN">
      <acc value="0.0398786213" flag="0"/>
      <vel value="0.0154279304" flag="0"/>
      <psa03 value="0.0591004282" flag="0"/>
      <psa10 value="0.0252656244" flag="0"/>
      <psa30 value="0.0013114457" flag="0"/>
    </comp>
    <comp name="--.HHZ">
      <acc value="0.0353853731" flag="0"/>
      <vel value="0.0145518275" flag="0"/>
      <psa03 value="0.0428328935" flag="0"/>
      <psa10 value="0.0168122831" flag="0"/>
      <psa30 value="0.0007129462" flag="0"/>
    </comp>
  </station>
  <station code="ANDN" name="ANDN" netid="TU" insttype="T" lat="37.58" lon="36.3452">
    <comp name="--.HHN">
      <acc value="0.1515128081" flag="0"/>
      <vel value="0.0515649262" flag="0"/>
      <psa03 value="0.2573874096" flag="0"/>
      <psa10 value="0.0461363729" flag="0"/>
      <psa30 value="0.0068404872" flag="0"/>
    </comp>
    <comp name="--.HHE">
      <acc value="0.1037234839" flag="0"/>
      <vel value="0.0454479804" flag="0"/>
      <psa03 value="0.2374045179" flag="0"/>
      <psa10 value="0.0492987292" flag="0"/>
      <psa30 value="0.0049769344" flag="0"/>
    </comp>
    <comp name="--.HHZ">
      <acc value="0.0494519766" flag="0"/>
      <vel value="0.0289957711" flag="0"/>
      <psa03 value="0.0902059414" flag="0"/>
      <psa10 value="0.0477360046" flag="0"/>
      <psa30 value="0.0031147599" flag="0"/>
    </comp>
  </station>
</stationlist>
