<?xml version="1.0" encoding="UTF-8" standalone="yes"?>
<!DOCTYPE earthquake SYSTEM "stationlist.dtd">
<stationlist created="" xmlns="ch.ethz.sed.shakemap.usgs.xml">
  <station code="DARE" name="DARE" netid="KO" insttype="CMG-3ESP" lat="38.5712" lon="37.4832">
    <comp name="--.HHN">
      <acc value="0.0820296424" flag="0"/>
      <vel value="0.0306807695" flag="0"/>
      <psa03 value="0.1555811202" flag="0"/>
      <psa10 value="0.0243722942" flag="0"/>
      <psa30 value="0.0011849532" flag="0"/>
    </comp>
    <comp name="--.HHE">
      <acc value="0.0883316599" flag="0"/>
      <vel value="0.0269475441" flag="0"/>
      <psa03 value="0.1785442122" flag="0"/>
      <psa10 value="0.0197147089" flag="0"/>
      <psa30 value="0.0011733956" flag="0"/>
    </comp>
  </station>
  <station code="GAZ" name="GAZ" netid="KO" insttype="CMG-3T" lat="37.1721" lon="37.2096">
    <comp name="--.HHN">
      <acc value="0.0292329031" flag="0"/>
      <vel value="0.0089843326" flag="0"/>
      <psa03 value="0.0399921543" flag="0"/>
      <psa10 value="0.0100859471" flag="0"/>
      <psa30 value="0.0008677914" flag="0"/>
    </comp>
    <comp name="--.HHE">
      <acc value="0.0302990159" flag="0"/>
      <vel value="0.0109055389" flag="0"/>
      <psa03 value="0.0430785707" flag="0"/>
      <psa10 value="0.0084771336" flag="0"/>
      <psa30 value="0.0012274396" flag="0"/>
    </comp>
  </station>
  <station code="KMRS" name="KMRS" netid="KO" insttype="CMG-3T" lat="37.5053" lon="36.9">
    <comp name="--.HHE">
      <acc value="0.0196379203" flag="0"/>
      <vel value="0.0111535784" flag="0"/>
      <psa03 value="0.0249156700" flag="0"/>
      <psa10 value="0.0129063500" flag="0"/>
      <psa30 value="0.0010774488" flag="0"/>
    </comp>
    <comp name="--.HHN">
      <acc value="0.0241389387" flag="0"/>
      <vel value="0.0135530494" flag="0"/>
      <psa03 value="0.0372607885" flag="0"/>
      <psa10 value="0.0123149309" flag="0"/>
      <psa30 value="0.0010083643" flag="0"/>
    </comp>
    <comp name="--.HHZ">
      <acc value="0.0172653328" flag="0"/>
      <vel value="0.0066748591" flag="0"/>
      <psa03 value="0.0248119473" flag="0"/>
      <psa10 value="0.0078518340" flag="0"/>
      <psa30 value="0.0009515724" flag="0"/>
    </comp>
  </station>
  <station code="ANDN" name="ANDN" netid="TU" insttype="T" lat="37.58" lon="36.3452">
    <comp name="--.HHZ">
      <acc value="0.0494519758" flag="0"/>
      <vel value="0.0289957710" flag="0"/>
      <psa03 value="0.0902059414" flag="0"/>
      <psa10 value="0.0477360047" flag="0"/>
      <psa30 value="0.0031147187" flag="0"/>
    </comp>
    <comp name="--.HHE">
      <acc value="0.1037234837" flag="0"/>
      <vel value="0.0454479795" flag="0"/>
      <psa03 value="0.2374045179" flag="0"/>
      <psa10 value="0.0492987293" flag="0"/>
      <psa30 value="0.0049770653" flag="0"/>
    </comp>
    <comp name="--.HHN">
      <acc value="0.1515128079" flag="0"/>
      <vel value="0.0515649266" flag="0"/>
      <psa03 value="0.2573874096" flag="0"/>
      <psa10 value="0.0461363730" flag="0"/>
      <psa30 value="0.0068403858" flag="0"/>
    </comp>
  </station>
</stationlist>
