<?xml version="1.0" encoding="UTF-8" standalone="yes"?>
<!DOCTYPE earthquake SYSTEM "stationlist.dtd">
<stationlist created="" xmlns="ch.ethz.sed.shakemap.usgs.xml">
  <station code="BNN" name="BNN" netid="KO" insttype="CMG-3T" lat="38.8521" lon="35.8472">
    <comp name="--.HHN">
      <acc value="0.0076358530" flag="0"/>
      <vel value="0.0090509133" flag="0"/>
      <psa03 value="0.0143617257" flag="0"/>
      <psa10 value="0.0173092565" flag="0"/>
      <psa30 value="0.0011530430" flag="0"/>
    </comp>
    <comp name="--.HHZ">
      <acc value="0.0051869916" flag="0"/>
      <vel value="0.0039186617" flag="0"/>
      <psa03 value="0.0085096324" flag="0"/>
      <psa10 value="0.0098509446" flag="0"/>
      <psa30 value="0.0006225875" flag="0"/>
    </comp>
    <comp name="--.HHE">
      <acc value="0.0082917706" flag="0"/>
      <vel value="0.0084980815" flag="0"/>
      <psa03 value="0.0126863052" flag="0"/>
      <psa10 value="0.0220214573" flag="0"/>
      <psa30 value="0.0010455085" flag="0"/>
    </comp>
  </station>
  <station code="DARE" name="DARE" netid="KO" insttype="CMG-3ESP" lat="38.5712" lon="37.4832">
    <comp name="--.HHN">
      <acc value="0.0820296428" flag="0"/>
      <vel value="0.0306807698" flag="0"/>
      <psa03 value="0.1555811202" flag="0"/>
      <psa10 value="0.0243722942" flag="0"/>
      <psa30 value="0.0011849688" flag="0"/>
    </comp>
    <comp name="--.HHE">
      <acc value="0.0883316598" flag="0"/>
      <vel value="0.0269475435" flag="0"/>
      <psa03 value="0.1785442122" flag="0"/>
      <psa10 value="0.0197147089" flag="0"/>
      <psa30 value="0.0011733972" flag="0"/>
    </comp>
  </station>
  <station code="GAZ" name="GAZ" netid="KO" insttype="CMG-3T" lat="37.1721" lon="37.2096">
    <comp name="--.HHE">
      <acc value="0.0302990173" flag="0"/>
      <vel value="0.0109055386" flag="0"/>
      <psa03 value="0.0430785707" flag="0"/>
      <psa10 value="0.0084771336" flag="0"/>
      <psa30 value="0.0012274703" flag="0"/>
    </comp>
    <comp name="--.HHN">
      <acc value="0.0292329035" flag="0"/>
      <vel value="0.0089843334" flag="0"/>
      <psa03 value="0.0399921543" flag="0"/>
      <psa10 value="0.0100859471" flag="0"/>
      <psa30 value="0.0008677887" flag="0"/>
    </comp>
  </station>
  <station code="KMRS" name="KMRS" netid="KO" insttype="CMG-3T" lat="37.5053" lon="36.9">
    <comp name="--.HHN">
      <acc value="0.0241389390" flag="0"/>
      <vel value="0.0135530494" flag="0"/>
      <psa03 value="0.0372607885" flag="0"/>
      <psa10 value="0.0123149315" flag="0"/>
      <psa30 value="0.0010083628" flag="0"/>
    </comp>
    <comp name="--.HHZ">
      <acc value="0.0172653331" flag="0"/>
      <vel value="0.0066748592" flag="0"/>
      <psa03 value="0.0248119473" flag="0"/>
      <psa10 value="0.0078518339" flag="0"/>
      <psa30 value="0.0009515747" flag="0"/>
    </comp>
  </station>
  <station code="SARI" name="SARI" netid="KO" insttype="CMG-3T" lat="38.4072" lon="36.4181">
    <comp name="--.HHE">
      <acc value="0.0504390892" flag="0"/>
      <vel value="0.0146216145" flag="0"/>
      <psa03 value="0.0615578690" flag="0"/>
      <psa10 value="0.0229082349" flag="0"/>
      <psa30 value="0.0012190769" flag="0"/>
    </comp>
    <comp name="--.HHN">
      <acc value="0.0398786208" flag="0"/>
      <vel value="0.0154279304" flag="0"/>
      <psa03 value="0.0591004282" flag="0"/>
      <psa10 value="0.0252656244" flag="0"/>
      <psa30 value="0.0013114454" flag="0"/>
    </comp>
    <comp name="--.HHZ">
      <acc value="0.0353853731" flag="0"/>
      <vel value="0.0145518276" flag="0"/>
      <psa03 value="0.0428328935" flag="0"/>
      <psa10 value="0.0168122831" flag="0"/>
      <psa30 value="0.0007129475" flag="0"/>
    </comp>
  </station>
  <station code="ANDN" name="ANDN" netid="TU" insttype="T" lat="37.58" lon="36.3452">
    <comp name="--.HHZ">
      <acc value="0.0494519762" flag="0"/>
      <vel value="0.0289957708" flag="0"/>
      <psa03 value="0.0902059414" flag="0"/>
      <psa10 value="0.0477360046" flag="0"/>
      <psa30 value="0.0031147647" flag="0"/>
    </comp>
    <comp name="--.HHE">
      <acc value="0.1037234836" flag="0"/>
      <vel value="0.0454479807" flag="0"/>
      <psa03 value="0.2374045179" flag="0"/>
      <psa10 value="0.0492987292" flag="0"/>
      <psa30 value="0.0049769518" flag="0"/>
    </comp>
    <comp name="--.HHN">
      <acc value="0.1515128075" flag="0"/>
      <vel value="0.0515649266" flag="0"/>
      <psa03 value="0.2573874096" flag="0"/>
      <psa10 value="0.0461363729" flag="0"/>
      <psa30 value="0.0068404820" flag="0"/>
    </comp>
  </station>
</stationlist>
