<?xml version="1.0" encoding="UTF-8" standalone="yes"?>
<!DOCTYPE earthquake SYSTEM "stationlist.dtd">
<stationlist created="" xmlns="ch.ethz.sed.shakemap.usgs.xml">
  <station code="THERA" name="THERA" netid="GE" insttype="STS-2/N" lat="36.367" lon="25.4753">
    <comp name="--.HHZ">
      <acc value="0.1029429838" flag="0"/>
      <vel value="0.0204431415" flag="0"/>
      <psa03 value="0.0679738972" flag="0"/>
      <psa10 value="0.0046462107" flag="0"/>
      <psa30 value="0.0007560278" flag="0"/>
    </comp>
    <comp name="--.HHN">
      <acc value="0.0942860016" flag="0"/>
      <vel value="0.0180395376" flag="0"/>
      <psa03 value="0.0765582861" flag="0"/>
      <psa10 value="0.0066277739" flag="0"/>
      <psa30 value="0.0003463485" flag="0"/>
    </comp>
    <comp name="--.HHE">
      <acc value="0.1452475066" flag="0"/>
      <vel value="0.0281799946" flag="0"/>
      <psa03 value="0.1246138897" flag="0"/>
      <psa10 value="0.0063687510" flag="0"/>
      <psa30 value="0.0008497512" flag="0"/>
    </comp>
  </station>
  <station code="MHLO" name="MHLO" netid="HL" insttype="20" lat="36.6898" lon="24.4017">
    <comp name="--.HHE">
      <acc value="0.1720254261" flag="0"/>
      <vel value="0.0646337617" flag="0"/>
      <psa03 value="0.4513857737" flag="0"/>
      <psa10 value="0.0375417804" flag="0"/>
      <psa30 value="0.0016791117" flag="0"/>
    </comp>
    <comp name="--.HHN">
      <acc value="0.1181895480" flag="0"/>
      <vel value="0.0517123709" flag="0"/>
      <psa03 value="0.3352608971" flag="0"/>
      <psa10 value="0.0440193950" flag="0"/>
      <psa30 value="0.0018155805" flag="0"/>
    </comp>
    <comp name="--.HHZ">
      <acc value="0.0456546816" flag="0"/>
      <vel value="0.0229842575" flag="0"/>
      <psa03 value="0.2224411395" flag="0"/>
      <psa10 value="0.0213843038" flag="0"/>
      <psa30 value="0.0013836844" flag="0"/>
    </comp>
  </station>
  <station code="SAP3" name="SAP3" netid="HL" insttype="LE3D20_SMART24" lat="36.4356" lon="25.3454">
    <comp name="--.HHE">
      <acc value="0.6533655935" flag="0"/>
      <vel value="0.1405263634" flag="0"/>
      <psa03 value="0.5454409886" flag="0"/>
      <psa10 value="0.0726149226" flag="0"/>
      <psa30 value="0.0067899020" flag="0"/>
    </comp>
    <comp name="--.HHN">
      <acc value="0.6423390878" flag="0"/>
      <vel value="0.1730070089" flag="0"/>
      <psa03 value="0.6543206250" flag="0"/>
      <psa10 value="0.0862404902" flag="0"/>
      <psa30 value="0.0052826733" flag="0"/>
    </comp>
    <comp name="--.HHZ">
      <acc value="0.5918856025" flag="0"/>
      <vel value="0.1250306300" flag="0"/>
      <psa03 value="0.5275865415" flag="0"/>
      <psa10 value="0.0283322689" flag="0"/>
      <psa30 value="0.0027239998" flag="0"/>
    </comp>
  </station>
  <station code="THERA" name="THERA" netid="HL" insttype="120" lat="36.367" lon="25.4753">
    <comp name="--.HHE">
      <acc value="0.1464171778" flag="0"/>
      <vel value="0.0272857793" flag="0"/>
      <psa03 value="0.1212780237" flag="0"/>
      <psa10 value="0.0063315928" flag="0"/>
      <psa30 value="0.0008395151" flag="0"/>
    </comp>
    <comp name="--.HHN">
      <acc value="0.0920383100" flag="0"/>
      <vel value="0.0176938818" flag="0"/>
      <psa03 value="0.0744023703" flag="0"/>
      <psa10 value="0.0065616185" flag="0"/>
      <psa30 value="0.0003444506" flag="0"/>
    </comp>
    <comp name="--.HHZ">
      <acc value="0.1013362359" flag="0"/>
      <vel value="0.0196732360" flag="0"/>
      <psa03 value="0.0658309179" flag="0"/>
      <psa10 value="0.0045822832" flag="0"/>
      <psa30 value="0.0007543628" flag="0"/>
    </comp>
  </station>
  <station code="CMBO" name="CMBO" netid="HT" insttype="120P," lat="36.4709" lon="25.4056">
    <comp name="--.HHN">
      <acc value="1.0324125234" flag="0"/>
      <vel value="0.2139476704" flag="0"/>
      <psa03 value="0.7603183056" flag="0"/>
      <psa10 value="0.0894730187" flag="0"/>
      <psa30 value="0.0066161308" flag="0"/>
    </comp>
    <comp name="--.HHE">
      <acc value="0.5819745330" flag="0"/>
      <vel value="0.1724282991" flag="0"/>
      <psa03 value="0.5416138875" flag="0"/>
      <psa10 value="0.0542074744" flag="0"/>
      <psa30 value="0.0040899167" flag="0"/>
    </comp>
    <comp name="--.HHZ">
      <acc value="0.7617752234" flag="0"/>
      <vel value="0.1418313078" flag="0"/>
      <psa03 value="0.7319791748" flag="0"/>
      <psa10 value="0.0561728966" flag="0"/>
      <psa30 value="0.0035543109" flag="0"/>
    </comp>
  </station>
</stationlist>
