<?xml version="1.0" encoding="UTF-8" standalone="yes"?>
<!DOCTYPE earthquake SYSTEM "stationlist.dtd">
<stationlist created="" xmlns="ch.ethz.sed.shakemap.usgs.xml">
  <station code="THERA" name="THERA" netid="GE" insttype="STS-2/N" lat="36.367" lon="25.4753">
    <comp name="--.HHE">
      <acc value="0.1452475066" flag="0"/>
      <vel value="0.0281799811" flag="0"/>
      <psa03 value="0.1246138897" flag="0"/>
      <psa10 value="0.0063687550" flag="0"/>
      <psa30 value="0.0008499366" flag="0"/>
    </comp>
    <comp name="--.HHN">
      <acc value="0.0942860017" flag="0"/>
      <vel value="0.0180395354" flag="0"/>
      <psa03 value="0.0765582861" flag="0"/>
      <psa10 value="0.0066277737" flag="0"/>
      <psa30 value="0.0003464444" flag="0"/>
    </comp>
    <comp name="--.HHZ">
      <acc value="0.1029429841" flag="0"/>
      <vel value="0.0204431414" flag="0"/>
      <psa03 value="0.0679738972" flag="0"/>
      <psa10 value="0.0046462129" flag="0"/>
      <psa30 value="0.0007560197" flag="0"/>
    </comp>
  </station>
</stationlist>
