<stationlist created="1750233754">
	<station code="ATEI" name="ATEI" netid="HC" source="Seismological Network of Crete (HC)" insttype="" lat="35.5193" lon="24.0432">
		<comp name=".HNE" depth="0.0">
			<acc value="0.031111910104428" flag="0"/>
			<vel value="0.0195483968162" flag="0"/>
			<psa03 value="0.0958870082937229" flag="0"/>
			<psa10 value="0.0249409878430277" flag="0"/>
			<psa30 value="0.00194554075752694" flag="0"/>
		</comp>
		<comp name=".HNN" depth="0.0">
			<acc value="0.029276209676286" flag="0"/>
			<vel value="0.0231998934034" flag="0"/>
			<psa03 value="0.0678760849990532" flag="0"/>
			<psa10 value="0.0278502880698942" flag="0"/>
			<psa30 value="0.00262367838915151" flag="0"/>
		</comp>
		<comp name=".HNZ" depth="0.0">
			<acc value="0.027994311433626" flag="0"/>
			<vel value="0.0156991619389" flag="0"/>
			<psa03 value="0.0723087744762581" flag="0"/>
			<psa10 value="0.0179438830691881" flag="0"/>
			<psa30 value="0.00113668675825255" flag="0"/>
		</comp>
	</station>
	<station code="PASK" name="PASK" netid="HC" source="Seismological Network of Crete (HC)" insttype="" lat="35.4996" lon="24.0121">
		<comp name=".HNE" depth="0.0">
			<acc value="0.067189996121646" flag="0"/>
			<vel value="0.0490864373457" flag="0"/>
			<psa03 value="0.174040435574694" flag="0"/>
			<psa10 value="0.0581051491810954" flag="0"/>
			<psa30 value="0.00323098591196041" flag="0"/>
		</comp>
		<comp name=".HNN" depth="0.0">
			<acc value="0.062831759509602" flag="0"/>
			<vel value="0.045513634224" flag="0"/>
			<psa03 value="0.11850573584026" flag="0"/>
			<psa10 value="0.0498094983847778" flag="0"/>
			<psa30 value="0.00368882811675731" flag="0"/>
		</comp>
		<comp name=".HNZ" depth="0.0">
			<acc value="0.032967351161628" flag="0"/>
			<vel value="0.0187822498044" flag="0"/>
			<psa03 value="0.0899443542052473" flag="0"/>
			<psa10 value="0.0237830161330816" flag="0"/>
			<psa30 value="0.0017642493728621" flag="0"/>
		</comp>
	</station>
	<station code="ARK1" name="ARK1" netid="HI" source="ITSAK Strong Motion Network" insttype="" lat="35.148777" lon="25.264194">
		<comp name=".HNE" depth="0.0">
			<acc value="0.03180566835447" flag="0"/>
			<vel value="0.0233185398323" flag="0"/>
			<psa03 value="0.0807820649569922" flag="0"/>
			<psa10 value="0.0277156185237104" flag="0"/>
			<psa30 value="0.00238737627695949" flag="0"/>
		</comp>
		<comp name=".HNN" depth="0.0">
			<acc value="0.036785630882244" flag="0"/>
			<vel value="0.0257237109465" flag="0"/>
			<psa03 value="0.108165467514487" flag="0"/>
			<psa10 value="0.0220797789269922" flag="0"/>
			<psa30 value="0.00206997170880123" flag="0"/>
		</comp>
		<comp name=".HNZ" depth="0.0">
			<acc value="0.014298841844838" flag="0"/>
			<vel value="0.0147483926497" flag="0"/>
			<psa03 value="0.0400328941702654" flag="0"/>
			<psa10 value="0.0222617747333071" flag="0"/>
			<psa30 value="0.00110195039464093" flag="0"/>
		</comp>
	</station>
	<station code="CH01" name="CH01" netid="HI" source="ITSAK Strong Motion Network" insttype="" lat="35.517" lon="24.0208">
		<comp name=".HNE" depth="0.0">
			<acc value="0.045247353501636" flag="0"/>
			<vel value="0.0273208970926" flag="0"/>
			<psa03 value="0.119035666778797" flag="0"/>
			<psa10 value="0.0355271947522873" flag="0"/>
			<psa30 value="0.00242701390275869" flag="0"/>
		</comp>
		<comp name=".HNN" depth="0.0">
			<acc value="0.034979234111418" flag="0"/>
			<vel value="0.0231555796538" flag="0"/>
			<psa03 value="0.0867090930101175" flag="0"/>
			<psa10 value="0.0259345524118018" flag="0"/>
			<psa30 value="0.00345041190618882" flag="0"/>
		</comp>
		<comp name=".HNZ" depth="0.0">
			<acc value="0.035425867916202" flag="0"/>
			<vel value="0.0160778592476" flag="0"/>
			<psa03 value="0.0486372323944783" flag="0"/>
			<psa10 value="0.0455666210649558" flag="0"/>
			<psa30 value="0.00168456784435444" flag="0"/>
		</comp>
	</station>
	<station code="CH02" name="CH02" netid="HI" source="ITSAK Strong Motion Network" insttype="" lat="35.5145" lon="24.0315">
		<comp name=".HNE" depth="0.0">
			<acc value="0.032748232659" flag="0"/>
			<vel value="0.0229020521158" flag="0"/>
			<psa03 value="0.0900151505620814" flag="0"/>
			<psa10 value="0.037909131293918" flag="0"/>
			<psa30 value="0.00182919700865762" flag="0"/>
		</comp>
		<comp name=".HNN" depth="0.0">
			<acc value="0.03316425765231" flag="0"/>
			<vel value="0.0322799751321" flag="0"/>
			<psa03 value="0.0957074964020057" flag="0"/>
			<psa10 value="0.0241008890656206" flag="0"/>
			<psa30 value="0.00310279054464495" flag="0"/>
		</comp>
		<comp name=".HNZ" depth="0.0">
			<acc value="0.02968021767801" flag="0"/>
			<vel value="0.0165951922856" flag="0"/>
			<psa03 value="0.0718978149608457" flag="0"/>
			<psa10 value="0.0229012239687055" flag="0"/>
			<psa30 value="0.00113928318025168" flag="0"/>
		</comp>
	</station>
	<station code="CH03" name="CH03" netid="HI" source="ITSAK Strong Motion Network" insttype="" lat="35.53303" lon="24.0705">
		<comp name=".HNE" depth="0.0">
			<acc value="0.017578144549674" flag="0"/>
			<vel value="0.0178060432342" flag="0"/>
			<psa03 value="0.0643216412015881" flag="0"/>
			<psa10 value="0.0237877939495882" flag="0"/>
			<psa30 value="0.00145392621131064" flag="0"/>
		</comp>
		<comp name=".HNN" depth="0.0">
			<acc value="0.025530581165292" flag="0"/>
			<vel value="0.0210964508768" flag="0"/>
			<psa03 value="0.0675304943969444" flag="0"/>
			<psa10 value="0.019670791843439" flag="0"/>
			<psa30 value="0.00334425695727606" flag="0"/>
		</comp>
		<comp name=".HNZ" depth="0.0">
			<acc value="0.018848436941838" flag="0"/>
			<vel value="0.00981152019495" flag="0"/>
			<psa03 value="0.0423161600087364" flag="0"/>
			<psa10 value="0.0158743159705102" flag="0"/>
			<psa30 value="0.000801694462488606" flag="0"/>
		</comp>
	</station>
	<station code="GOR1" name="GOR1" netid="HI" source="ITSAK Strong Motion Network" insttype="" lat="35.0582" lon="24.9628">
		<comp name=".HNE" depth="0.0">
			<acc value="0.037261964467464" flag="0"/>
			<vel value="0.0306796944839" flag="0"/>
			<psa03 value="0.116066782604679" flag="0"/>
			<psa10 value="0.0407434265520425" flag="0"/>
			<psa30 value="0.00322706252705599" flag="0"/>
		</comp>
		<comp name=".HNN" depth="0.0">
			<acc value="0.046607574350268" flag="0"/>
			<vel value="0.0314707685715" flag="0"/>
			<psa03 value="0.140826881173284" flag="0"/>
			<psa10 value="0.0368059619643492" flag="0"/>
			<psa30 value="0.00246317817346547" flag="0"/>
		</comp>
		<comp name=".HNZ" depth="0.0">
			<acc value="0.032285708133966" flag="0"/>
			<vel value="0.0218431763191" flag="0"/>
			<psa03 value="0.0959200208973243" flag="0"/>
			<psa10 value="0.033252496564707" flag="0"/>
			<psa30 value="0.0021657813890529" flag="0"/>
		</comp>
	</station>
	<station code="HER1" name="HER1" netid="HI" source="ITSAK Strong Motion Network" insttype="" lat="35.317672" lon="25.10217">
		<comp name=".HNE" depth="0.0">
			<acc value="0.058622094834492" flag="0"/>
			<vel value="0.08385211738" flag="0"/>
			<psa03 value="0.117476782260273" flag="0"/>
			<psa10 value="0.128843040219047" flag="0"/>
			<psa30 value="0.00891809161315036" flag="0"/>
		</comp>
		<comp name=".HNN" depth="0.0">
			<acc value="0.044008066237356" flag="0"/>
			<vel value="0.0574380828405" flag="0"/>
			<psa03 value="0.112367631303983" flag="0"/>
			<psa10 value="0.127806996586093" flag="0"/>
			<psa30 value="0.00569133035603795" flag="0"/>
		</comp>
		<comp name=".HNZ" depth="0.0">
			<acc value="0.045470178154374" flag="0"/>
			<vel value="0.0514017354" flag="0"/>
			<psa03 value="0.073838261214277" flag="0"/>
			<psa10 value="0.0586126177983739" flag="0"/>
			<psa30 value="0.00316463193300126" flag="0"/>
		</comp>
	</station>
	<station code="KTL1" name="KTL1" netid="HI" source="ITSAK Strong Motion Network" insttype="" lat="35.20778" lon="25.34272">
		<comp name=".HNE" depth="0.0">
			<acc value="0.016955446496118" flag="0"/>
			<vel value="0.0140016904236" flag="0"/>
			<psa03 value="0.0424363580754736" flag="0"/>
			<psa10 value="0.0149667220968708" flag="0"/>
			<psa30 value="0.00156234224750464" flag="0"/>
		</comp>
		<comp name=".HNN" depth="0.0">
			<acc value="0.016283647065972" flag="0"/>
			<vel value="0.0148112229627" flag="0"/>
			<psa03 value="0.0374664949922609" flag="0"/>
			<psa10 value="0.0153750875865782" flag="0"/>
			<psa30 value="0.00116220792807288" flag="0"/>
		</comp>
		<comp name=".HNZ" depth="0.0">
			<acc value="0.0084884821564164" flag="0"/>
			<vel value="0.00722973782034" flag="0"/>
			<psa03 value="0.0173380964804502" flag="0"/>
			<psa10 value="0.00985935157115967" flag="0"/>
			<psa30 value="0.000574002868623858" flag="0"/>
		</comp>
	</station>
	<station code="RTH1" name="RTH1" netid="HI" source="ITSAK Strong Motion Network" insttype="" lat="35.365393" lon="24.471773">
		<comp name=".HNE" depth="0.0">
			<acc value="0.073666223271522" flag="0"/>
			<vel value="0.0409850167746" flag="0"/>
			<psa03 value="0.165799848009478" flag="0"/>
			<psa10 value="0.0318616531781582" flag="0"/>
			<psa30 value="0.00154106927577852" flag="0"/>
		</comp>
		<comp name=".HNN" depth="0.0">
			<acc value="0.056165402004546" flag="0"/>
			<vel value="0.0283353230174" flag="0"/>
			<psa03 value="0.236053345708903" flag="0"/>
			<psa10 value="0.0276644145067057" flag="0"/>
			<psa30 value="0.00169728139489685" flag="0"/>
		</comp>
		<comp name=".HNZ" depth="0.0">
			<acc value="0.03271214708523" flag="0"/>
			<vel value="0.0126936233623" flag="0"/>
			<psa03 value="0.0845497416303148" flag="0"/>
			<psa10 value="0.0106315136605937" flag="0"/>
			<psa30 value="0.000966265156157109" flag="0"/>
		</comp>
	</station>
	<station code="CHNB" name="CHNB" netid="HL" source="National Observatory of Athens Seismic Network" insttype="" lat="35.48765" lon="24.06605">
		<comp name="00.HNE" depth="0.0">
			<acc value="0.10715734859424" flag="0"/>
			<vel value="0.0847538470158" flag="0"/>
			<psa03 value="0.225585673110421" flag="0"/>
			<psa10 value="0.0992211779158884" flag="0"/>
			<psa30 value="0.00415870632721543" flag="0"/>
		</comp>
		<comp name="00.HNN" depth="0.0">
			<acc value="0.072611024219226" flag="0"/>
			<vel value="0.0634169646603" flag="0"/>
			<psa03 value="0.247682970281307" flag="0"/>
			<psa10 value="0.104294393991888" flag="0"/>
			<psa30 value="0.00470374993366001" flag="0"/>
		</comp>
		<comp name="00.HNZ" depth="0.0">
			<acc value="0.060167990427282" flag="0"/>
			<vel value="0.0316743851479" flag="0"/>
			<psa03 value="0.224001255650356" flag="0"/>
			<psa10 value="0.0284246929964028" flag="0"/>
			<psa30 value="0.00209840442565969" flag="0"/>
		</comp>
	</station>
	<station code="IACM" name="IACM" netid="HL" source="National Observatory of Athens Seismic Network" insttype="" lat="35.3058" lon="25.0709">
		<comp name=".HNE" depth="0.0">
			<acc value="0.078876665517864" flag="0"/>
			<vel value="0.0562526377663" flag="0"/>
			<psa03 value="0.194879513978147" flag="0"/>
			<psa10 value="0.117604693233774" flag="0"/>
			<psa30 value="0.00521957410451281" flag="0"/>
		</comp>
		<comp name=".HNN" depth="0.0">
			<acc value="0.071921425477572" flag="0"/>
			<vel value="0.0712123331176" flag="0"/>
			<psa03 value="0.232426980480051" flag="0"/>
			<psa10 value="0.118250951044989" flag="0"/>
			<psa30 value="0.00728555513226962" flag="0"/>
		</comp>
		<comp name=".HNZ" depth="0.0">
			<acc value="0.06177337980885" flag="0"/>
			<vel value="0.0347056983098" flag="0"/>
			<psa03 value="0.11968935591586" flag="0"/>
			<psa10 value="0.0479892928051922" flag="0"/>
			<psa30 value="0.00264391181284736" flag="0"/>
		</comp>
	</station>
	<station code="IMMV" name="IMMV" netid="HL" source="National Observatory of Athens Seismic Network" insttype="" lat="35.4606" lon="23.9811">
		<comp name=".HNE" depth="0.0">
			<acc value="0.07836075866349" flag="0"/>
			<vel value="0.0282677163873" flag="0"/>
			<psa03 value="0.166078356042687" flag="0"/>
			<psa10 value="0.0349593621361539" flag="0"/>
			<psa30 value="0.00174037039516381" flag="0"/>
		</comp>
		<comp name=".HNN" depth="0.0">
			<acc value="0.072167039635146" flag="0"/>
			<vel value="0.0435118899857" flag="0"/>
			<psa03 value="0.265532319379662" flag="0"/>
			<psa10 value="0.0281238836942676" flag="0"/>
			<psa30 value="0.00181528858729543" flag="0"/>
		</comp>
		<comp name=".HNZ" depth="0.0">
			<acc value="0.058371428953518" flag="0"/>
			<vel value="0.0243205504175" flag="0"/>
			<psa03 value="0.15018681372247" flag="0"/>
			<psa10 value="0.0270526402296399" flag="0"/>
			<psa30 value="0.00206103570016455" flag="0"/>
		</comp>
	</station>
	<station code="SIVA" name="SIVA" netid="HL" source="National Observatory of Athens Seismic Network" insttype="" lat="35.01777" lon="24.81204">
		<comp name="00.HNE" depth="0.0">
			<acc value="0.1107641160681" flag="0"/>
			<vel value="0.0646241782446" flag="0"/>
			<psa03 value="0.41005320567931" flag="0"/>
			<psa10 value="0.0874222737967496" flag="0"/>
			<psa30 value="0.00352112825746543" flag="0"/>
		</comp>
		<comp name="00.HNN" depth="0.0">
			<acc value="0.096684644156604" flag="0"/>
			<vel value="0.0534143340819" flag="0"/>
			<psa03 value="0.228496470103171" flag="0"/>
			<psa10 value="0.0534702958947845" flag="0"/>
			<psa30 value="0.0034611159486139" flag="0"/>
		</comp>
		<comp name="00.HNZ" depth="0.0">
			<acc value="0.059393745245814" flag="0"/>
			<vel value="0.0315248728484" flag="0"/>
			<psa03 value="0.160147036038359" flag="0"/>
			<psa10 value="0.0158964968148921" flag="0"/>
			<psa30 value="0.00179059445142872" flag="0"/>
		</comp>
	</station>
</stationlist>
