<?xml version="1.0" encoding="UTF-8" standalone="yes"?>
<!DOCTYPE earthquake SYSTEM "stationlist.dtd">
<stationlist created="" xmlns="ch.ethz.sed.shakemap.usgs.xml">
  <station code="IMMV" name="IMMV" netid="GE" insttype="STS-2/N" commtype="DIG" lat="35.4606" lon="23.9811">
    <comp name="--.HHZ">
      <acc value="0.0617599153" flag="0"/>
      <vel value="0.0249386026" flag="0"/>
      <psa03 value="0.1589097042" flag="0"/>
      <psa10 value="0.0272640869" flag="0"/>
      <psa30 value="0.0019530379" flag="0"/>
    </comp>
    <comp name="--.HHN">
      <acc value="0.0801092730" flag="0"/>
      <vel value="0.0474176356" flag="0"/>
      <psa03 value="0.3008030162" flag="0"/>
      <psa10 value="0.0306505106" flag="0"/>
      <psa30 value="0.0020084630" flag="0"/>
    </comp>
    <comp name="--.HHE">
      <acc value="0.0845144354" flag="0"/>
      <vel value="0.0302711693" flag="0"/>
      <psa03 value="0.1781562164" flag="0"/>
      <psa10 value="0.0357679226" flag="0"/>
      <psa30 value="0.0016595427" flag="0"/>
    </comp>
  </station>
  <station code="ATEI" name="ATEI" netid="HC" insttype="DC" commtype="DIG" lat="35.5193" lon="24.0432">
    <comp name="--.HNE">
      <acc value="0.0310835121" flag="0"/>
      <vel value="0.0196902829" flag="0"/>
      <psa03 value="0.0961850471" flag="0"/>
      <psa10 value="0.0249876533" flag="0"/>
      <psa30 value="0.0020125864" flag="0"/>
    </comp>
    <comp name="--.HNN">
      <acc value="0.0291981416" flag="0"/>
      <vel value="0.0233458149" flag="0"/>
      <psa03 value="0.0677922169" flag="0"/>
      <psa10 value="0.0279814276" flag="0"/>
      <psa30 value="0.0027571419" flag="0"/>
    </comp>
    <comp name="--.HNZ">
      <acc value="0.0282205501" flag="0"/>
      <vel value="0.0158183490" flag="0"/>
      <psa03 value="0.0722245045" flag="0"/>
      <psa10 value="0.0179749117" flag="0"/>
      <psa30 value="0.0011863160" flag="0"/>
    </comp>
  </station>
  <station code="CHAN" name="CHAN" netid="HC" insttype="120" commtype="DIG" lat="35.5193" lon="24.0428">
    <comp name="--.HHE">
      <acc value="0.0615418115" flag="0"/>
      <vel value="0.0405317602" flag="0"/>
      <psa03 value="0.1816421962" flag="0"/>
      <psa10 value="0.0462192786" flag="0"/>
      <psa30 value="0.0041378165" flag="0"/>
    </comp>
    <comp name="--.HHN">
      <acc value="0.0516196775" flag="0"/>
      <vel value="0.0413401280" flag="0"/>
      <psa03 value="0.1275529626" flag="0"/>
      <psa10 value="0.0567550704" flag="0"/>
      <psa30 value="0.0047131752" flag="0"/>
    </comp>
    <comp name="--.HHZ">
      <acc value="0.0521923641" flag="0"/>
      <vel value="0.0307794457" flag="0"/>
      <psa03 value="0.1371519775" flag="0"/>
      <psa10 value="0.0345659905" flag="0"/>
      <psa30 value="0.0021796215" flag="0"/>
    </comp>
  </station>
  <station code="IMOD" name="IMOD" netid="HC" insttype="120" commtype="DIG" lat="34.9731" lon="24.7995">
    <comp name="--.HHN">
      <acc value="0.1159317242" flag="0"/>
      <vel value="0.0794542730" flag="0"/>
      <psa03 value="0.2996515829" flag="0"/>
      <psa10 value="0.0592430673" flag="0"/>
      <psa30 value="0.0047413463" flag="0"/>
    </comp>
    <comp name="--.HHZ">
      <acc value="0.0587488057" flag="0"/>
      <vel value="0.0289515100" flag="0"/>
      <psa03 value="0.1463214637" flag="0"/>
      <psa10 value="0.0210725952" flag="0"/>
      <psa30 value="0.0014641456" flag="0"/>
    </comp>
    <comp name="--.HHE">
      <acc value="0.0646692735" flag="0"/>
      <vel value="0.0496686591" flag="0"/>
      <psa03 value="0.2105603405" flag="0"/>
      <psa10 value="0.0555524870" flag="0"/>
      <psa30 value="0.0029701426" flag="0"/>
    </comp>
  </station>
  <station code="IPPL" name="IPPL" netid="HC" insttype="60" commtype="DIG" lat="35.3486" lon="24.4632">
    <comp name="--.HHE">
      <acc value="0.0000000000" flag="0"/>
      <vel value="-100.0000000000" flag="0"/>
      <psa03 value="0.0000000000" flag="0"/>
      <psa10 value="0.0000000000" flag="0"/>
      <psa30 value="0.0000000000" flag="0"/>
    </comp>
    <comp name="--.HHN">
      <acc value="0.0000000000" flag="0"/>
      <vel value="-100.0000000000" flag="0"/>
      <psa03 value="0.0000000000" flag="0"/>
      <psa10 value="0.0000000000" flag="0"/>
      <psa30 value="0.0000000000" flag="0"/>
    </comp>
    <comp name="--.HHZ">
      <acc value="0.0521563050" flag="0"/>
      <vel value="0.0221629990" flag="0"/>
      <psa03 value="0.1256689609" flag="0"/>
      <psa10 value="0.0229350538" flag="0"/>
      <psa30 value="0.0011858136" flag="0"/>
    </comp>
  </station>
  <station code="KNDR" name="KNDR" netid="HC" insttype="120" commtype="DIG" lat="35.2348" lon="23.6248">
    <comp name="--.HHE">
      <acc value="0.0787113163" flag="0"/>
      <vel value="0.0268452970" flag="0"/>
      <psa03 value="0.1566454742" flag="0"/>
      <psa10 value="0.0309517921" flag="0"/>
      <psa30 value="0.0014035269" flag="0"/>
    </comp>
    <comp name="--.HHN">
      <acc value="0.0733724144" flag="0"/>
      <vel value="0.0314596903" flag="0"/>
      <psa03 value="0.2262990152" flag="0"/>
      <psa10 value="0.0392625160" flag="0"/>
      <psa30 value="0.0017968256" flag="0"/>
    </comp>
    <comp name="--.HHZ">
      <acc value="0.0577016774" flag="0"/>
      <vel value="0.0163686607" flag="0"/>
      <psa03 value="0.1215605726" flag="0"/>
      <psa10 value="0.0177940620" flag="0"/>
      <psa30 value="0.0008862232" flag="0"/>
    </comp>
  </station>
  <station code="KNSS" name="KNSS" netid="HC" insttype="60" commtype="DIG" lat="35.3042" lon="25.1802">
    <comp name="--.HHE">
      <acc value="0.0165657246" flag="0"/>
      <vel value="0.0145748867" flag="0"/>
      <psa03 value="0.0561904848" flag="0"/>
      <psa10 value="0.0177377541" flag="0"/>
      <psa30 value="0.0016318348" flag="0"/>
    </comp>
    <comp name="--.HHZ">
      <acc value="0.0111821663" flag="0"/>
      <vel value="0.0062954724" flag="0"/>
      <psa03 value="0.0273311506" flag="0"/>
      <psa10 value="0.0078295412" flag="0"/>
      <psa30 value="0.0004589536" flag="0"/>
    </comp>
    <comp name="--.HHN">
      <acc value="0.0170886094" flag="0"/>
      <vel value="0.0097657862" flag="0"/>
      <psa03 value="0.0487667422" flag="0"/>
      <psa10 value="0.0141178077" flag="0"/>
      <psa30 value="0.0017146961" flag="0"/>
    </comp>
  </station>
  <station code="PFKS" name="PFKS" netid="HC" insttype="120" commtype="DIG" lat="35.0429" lon="25.4733">
    <comp name="--.HHE">
      <acc value="0.0134041890" flag="0"/>
      <vel value="0.0086180431" flag="0"/>
      <psa03 value="0.0422535537" flag="0"/>
      <psa10 value="0.0132207757" flag="0"/>
      <psa30 value="0.0012104133" flag="0"/>
    </comp>
    <comp name="--.HHN">
      <acc value="0.0150205005" flag="0"/>
      <vel value="0.0095967073" flag="0"/>
      <psa03 value="0.0486748901" flag="0"/>
      <psa10 value="0.0203195842" flag="0"/>
      <psa30 value="0.0014702197" flag="0"/>
    </comp>
    <comp name="--.HHZ">
      <acc value="0.0065950040" flag="0"/>
      <vel value="0.0047309683" flag="0"/>
      <psa03 value="0.0184403628" flag="0"/>
      <psa10 value="0.0098692602" flag="0"/>
      <psa30 value="0.0004672594" flag="0"/>
    </comp>
  </station>
  <station code="TEFL" name="TEFL" netid="HC" insttype="GEOtiny," commtype="DIG" lat="35.0933" lon="25.1634">
    <comp name="--.HHN">
      <acc value="0.0408919672" flag="0"/>
      <vel value="0.0239819788" flag="0"/>
      <psa03 value="0.0962275585" flag="0"/>
      <psa10 value="0.0365493408" flag="0"/>
      <psa30 value="0.0031480407" flag="0"/>
    </comp>
    <comp name="--.HHE">
      <acc value="0.0484949902" flag="0"/>
      <vel value="0.0270974005" flag="0"/>
      <psa03 value="0.1448942479" flag="0"/>
      <psa10 value="0.0337895889" flag="0"/>
      <psa30 value="0.0022769070" flag="0"/>
    </comp>
    <comp name="--.HHZ">
      <acc value="0.0190939649" flag="0"/>
      <vel value="0.0128758655" flag="0"/>
      <psa03 value="0.0694381527" flag="0"/>
      <psa10 value="0.0149763687" flag="0"/>
      <psa30 value="0.0011316685" flag="0"/>
    </comp>
  </station>
  <station code="ARK1" name="ARK1" netid="HI" insttype="unknown" commtype="DIG" lat="35.1488" lon="25.2642">
    <comp name="--.HNE">
      <acc value="0.0318559335" flag="0"/>
      <vel value="0.0233297352" flag="0"/>
      <psa03 value="0.0802961574" flag="0"/>
      <psa10 value="0.0276319689" flag="0"/>
      <psa30 value="0.0022687071" flag="0"/>
    </comp>
    <comp name="--.HNZ">
      <acc value="0.0143521910" flag="0"/>
      <vel value="0.0147527242" flag="0"/>
      <psa03 value="0.0398486957" flag="0"/>
      <psa10 value="0.0222889260" flag="0"/>
      <psa30 value="0.0010113260" flag="0"/>
    </comp>
    <comp name="--.HNN">
      <acc value="0.0369223161" flag="0"/>
      <vel value="0.0255053850" flag="0"/>
      <psa03 value="0.1081350428" flag="0"/>
      <psa10 value="0.0220336414" flag="0"/>
      <psa30 value="0.0019086364" flag="0"/>
    </comp>
  </station>
  <station code="CH01" name="CH01" netid="HI" insttype="CMG-5TD,ACCELEROMETER,GURALP" commtype="DIG" lat="35.517" lon="24.0208">
    <comp name="--.HNN">
      <acc value="0.0353416503" flag="0"/>
      <vel value="0.0229712495" flag="0"/>
      <psa03 value="0.0864678767" flag="0"/>
      <psa10 value="0.0259179178" flag="0"/>
      <psa30 value="0.0032601214" flag="0"/>
    </comp>
    <comp name="--.HNE">
      <acc value="0.0455499695" flag="0"/>
      <vel value="0.0273575951" flag="0"/>
      <psa03 value="0.1188807002" flag="0"/>
      <psa10 value="0.0354802920" flag="0"/>
      <psa30 value="0.0023528778" flag="0"/>
    </comp>
    <comp name="--.HNZ">
      <acc value="0.0355127565" flag="0"/>
      <vel value="0.0160546789" flag="0"/>
      <psa03 value="0.0497794011" flag="0"/>
      <psa10 value="0.0455336375" flag="0"/>
      <psa30 value="0.0016811590" flag="0"/>
    </comp>
  </station>
  <station code="CH02" name="CH02" netid="HI" insttype="unknown" commtype="DIG" lat="35.5145" lon="24.0315">
    <comp name="--.HNE">
      <acc value="0.0329315970" flag="0"/>
      <vel value="0.0229918244" flag="0"/>
      <psa03 value="0.0899654949" flag="0"/>
      <psa10 value="0.0378321776" flag="0"/>
      <psa30 value="0.0018471958" flag="0"/>
    </comp>
    <comp name="--.HNN">
      <acc value="0.0330783912" flag="0"/>
      <vel value="0.0321655415" flag="0"/>
      <psa03 value="0.0967912629" flag="0"/>
      <psa10 value="0.0241444085" flag="0"/>
      <psa30 value="0.0029746158" flag="0"/>
    </comp>
    <comp name="--.HNZ">
      <acc value="0.0297027187" flag="0"/>
      <vel value="0.0166970355" flag="0"/>
      <psa03 value="0.0718885324" flag="0"/>
      <psa10 value="0.0228473261" flag="0"/>
      <psa30 value="0.0011215476" flag="0"/>
    </comp>
  </station>
  <station code="CH03" name="CH03" netid="HI" insttype="unknown" commtype="DIG" lat="35.533" lon="24.0705">
    <comp name="--.HNN">
      <acc value="0.0255459694" flag="0"/>
      <vel value="0.0209727440" flag="0"/>
      <psa03 value="0.0676023739" flag="0"/>
      <psa10 value="0.0197029527" flag="0"/>
      <psa30 value="0.0032163803" flag="0"/>
    </comp>
    <comp name="--.HNZ">
      <acc value="0.0189341729" flag="0"/>
      <vel value="0.0096711710" flag="0"/>
      <psa03 value="0.0415714815" flag="0"/>
      <psa10 value="0.0159201892" flag="0"/>
      <psa30 value="0.0007309894" flag="0"/>
    </comp>
    <comp name="--.HNE">
      <acc value="0.0176419033" flag="0"/>
      <vel value="0.0177973265" flag="0"/>
      <psa03 value="0.0641392111" flag="0"/>
      <psa10 value="0.0237974138" flag="0"/>
      <psa30 value="0.0014129882" flag="0"/>
    </comp>
  </station>
  <station code="GOR1" name="GOR1" netid="HI" insttype="unknown" commtype="DIG" lat="35.0582" lon="24.9628">
    <comp name="--.HNE">
      <acc value="0.0372401858" flag="0"/>
      <vel value="0.0305640433" flag="0"/>
      <psa03 value="0.1158209273" flag="0"/>
      <psa10 value="0.0407816839" flag="0"/>
      <psa30 value="0.0030656387" flag="0"/>
    </comp>
    <comp name="--.HNN">
      <acc value="0.0467501186" flag="0"/>
      <vel value="0.0308759309" flag="0"/>
      <psa03 value="0.1408337953" flag="0"/>
      <psa10 value="0.0366119828" flag="0"/>
      <psa30 value="0.0022736440" flag="0"/>
    </comp>
    <comp name="--.HNZ">
      <acc value="0.0323820082" flag="0"/>
      <vel value="0.0217868238" flag="0"/>
      <psa03 value="0.0963160022" flag="0"/>
      <psa10 value="0.0332296615" flag="0"/>
      <psa30 value="0.0020788441" flag="0"/>
    </comp>
  </station>
  <station code="ANKY" name="ANKY" netid="HL" insttype="60" commtype="DIG" lat="35.867" lon="23.3012">
    <comp name="--.HHE">
      <acc value="0.0053299550" flag="0"/>
      <vel value="0.0053939136" flag="0"/>
      <psa03 value="0.0110760596" flag="0"/>
      <psa10 value="0.0077643431" flag="0"/>
      <psa30 value="0.0012349826" flag="0"/>
    </comp>
    <comp name="--.HHN">
      <acc value="0.0046042315" flag="0"/>
      <vel value="0.0040050808" flag="0"/>
      <psa03 value="0.0126494324" flag="0"/>
      <psa10 value="0.0076024170" flag="0"/>
      <psa30 value="0.0007250237" flag="0"/>
    </comp>
    <comp name="--.HHZ">
      <acc value="0.0043447233" flag="0"/>
      <vel value="0.0040276348" flag="0"/>
      <psa03 value="0.0118195297" flag="0"/>
      <psa10 value="0.0055965883" flag="0"/>
      <psa30 value="0.0005857872" flag="0"/>
    </comp>
  </station>
  <station code="CHNB" name="CHNB" netid="HL" insttype="CMG-5" commtype="DIG" lat="35.4877" lon="24.0661">
    <comp name="00.HNE">
      <acc value="0.1070267455" flag="0"/>
      <vel value="0.0847796143" flag="0"/>
      <psa03 value="0.2245812585" flag="0"/>
      <psa10 value="0.0991047359" flag="0"/>
      <psa30 value="0.0041356997" flag="0"/>
    </comp>
    <comp name="00.HNZ">
      <acc value="0.0622177177" flag="0"/>
      <vel value="0.0317333802" flag="0"/>
      <psa03 value="0.2234826100" flag="0"/>
      <psa10 value="0.0283974560" flag="0"/>
      <psa30 value="0.0020143323" flag="0"/>
    </comp>
    <comp name="00.HNN">
      <acc value="0.0733959483" flag="0"/>
      <vel value="0.0635945646" flag="0"/>
      <psa03 value="0.2472736711" flag="0"/>
      <psa10 value="0.1042680843" flag="0"/>
      <psa30 value="0.0046307950" flag="0"/>
    </comp>
  </station>
  <station code="IACM" name="IACM" netid="HL" insttype="120" commtype="DIG" lat="35.3058" lon="25.0709">
    <comp name="--.HHE">
      <acc value="0.0795952024" flag="0"/>
      <vel value="0.0579415613" flag="0"/>
      <psa03 value="0.1944707557" flag="0"/>
      <psa10 value="0.1144658178" flag="0"/>
      <psa30 value="0.0054117622" flag="0"/>
    </comp>
    <comp name="--.HHN">
      <acc value="0.0730665122" flag="0"/>
      <vel value="0.0702670682" flag="0"/>
      <psa03 value="0.2325396504" flag="0"/>
      <psa10 value="0.1201474389" flag="0"/>
      <psa30 value="0.0069688237" flag="0"/>
    </comp>
    <comp name="--.HHZ">
      <acc value="0.0631610156" flag="0"/>
      <vel value="0.0347311970" flag="0"/>
      <psa03 value="0.1178845719" flag="0"/>
      <psa10 value="0.0494319509" flag="0"/>
      <psa30 value="0.0025766068" flag="0"/>
    </comp>
  </station>
  <station code="IMMV" name="IMMV" netid="HL" insttype="120" commtype="DIG" lat="35.4606" lon="23.9811">
    <comp name="--.HHN">
      <acc value="0.0782638043" flag="0"/>
      <vel value="0.0466344491" flag="0"/>
      <psa03 value="0.2922708454" flag="0"/>
      <psa10 value="0.0303523714" flag="0"/>
      <psa30 value="0.0019868484" flag="0"/>
    </comp>
    <comp name="--.HHE">
      <acc value="0.0827600192" flag="0"/>
      <vel value="0.0293316591" flag="0"/>
      <psa03 value="0.1731155208" flag="0"/>
      <psa10 value="0.0355513019" flag="0"/>
      <psa30 value="0.0016428693" flag="0"/>
    </comp>
    <comp name="--.HHZ">
      <acc value="0.0599311768" flag="0"/>
      <vel value="0.0244238350" flag="0"/>
      <psa03 value="0.1546926391" flag="0"/>
      <psa10 value="0.0271199584" flag="0"/>
      <psa30 value="0.0019387783" flag="0"/>
    </comp>
  </station>
  <station code="NPS" name="NPS" netid="HL" insttype="CMG3ESPC-120s" commtype="DIG" lat="35.2613" lon="25.6104">
    <comp name="--.HHE">
      <acc value="0.0025240396" flag="0"/>
      <vel value="0.0019688730" flag="0"/>
      <psa03 value="0.0068265031" flag="0"/>
      <psa10 value="0.0048756266" flag="0"/>
      <psa30 value="0.0003361785" flag="0"/>
    </comp>
    <comp name="--.HHZ">
      <acc value="0.0021733364" flag="0"/>
      <vel value="0.0007676124" flag="0"/>
      <psa03 value="0.0017349238" flag="0"/>
      <psa10 value="0.0009057326" flag="0"/>
      <psa30 value="0.0001164353" flag="0"/>
    </comp>
    <comp name="--.HHN">
      <acc value="0.0029989175" flag="0"/>
      <vel value="0.0019670831" flag="0"/>
      <psa03 value="0.0082327642" flag="0"/>
      <psa10 value="0.0019696949" flag="0"/>
      <psa30 value="0.0001551664" flag="0"/>
    </comp>
  </station>
  <station code="SIVA" name="SIVA" netid="HL" insttype="60" commtype="DIG" lat="35.0178" lon="24.812">
    <comp name="--.HHE">
      <acc value="0.1200749392" flag="0"/>
      <vel value="0.0693513633" flag="0"/>
      <psa03 value="0.4314377845" flag="0"/>
      <psa10 value="0.0934949156" flag="0"/>
      <psa30 value="0.0037735131" flag="0"/>
    </comp>
    <comp name="--.HHN">
      <acc value="0.0935710860" flag="0"/>
      <vel value="0.0475218475" flag="0"/>
      <psa03 value="0.2086304120" flag="0"/>
      <psa10 value="0.0467143963" flag="0"/>
      <psa30 value="0.0028464309" flag="0"/>
    </comp>
    <comp name="--.HHZ">
      <acc value="0.0610665816" flag="0"/>
      <vel value="0.0323975182" flag="0"/>
      <psa03 value="0.1627995215" flag="0"/>
      <psa10 value="0.0159574069" flag="0"/>
      <psa30 value="0.0017438057" flag="0"/>
    </comp>
  </station>
  <station code="VAM" name="VAM" netid="HL" insttype="CMG3ESPC-120s" commtype="DIG" lat="35.407" lon="24.1997">
    <comp name="--.HHN">
      <acc value="0.0522671705" flag="0"/>
      <vel value="0.0283135045" flag="0"/>
      <psa03 value="0.1806426045" flag="0"/>
      <psa10 value="0.0263294299" flag="0"/>
      <psa30 value="0.0014171516" flag="0"/>
    </comp>
    <comp name="--.HHZ">
      <acc value="0.0380541469" flag="0"/>
      <vel value="0.0176768549" flag="0"/>
      <psa03 value="0.0809017301" flag="0"/>
      <psa10 value="0.0180941063" flag="0"/>
      <psa30 value="0.0014539466" flag="0"/>
    </comp>
    <comp name="--.HHE">
      <acc value="0.0546942631" flag="0"/>
      <vel value="0.0241589736" flag="0"/>
      <psa03 value="0.0913000971" flag="0"/>
      <psa10 value="0.0303719801" flag="0"/>
      <psa30 value="0.0023397830" flag="0"/>
    </comp>
  </station>
</stationlist>
