<?xml version="1.0" encoding="UTF-8" standalone="yes"?>
<!DOCTYPE earthquake SYSTEM "stationlist.dtd">
<stationlist created="" xmlns="ch.ethz.sed.shakemap.usgs.xml">
  <station code="IMMV" name="IMMV" netid="GE" insttype="STS-2/N" commtype="DIG" lat="35.4606" lon="23.9811">
    <comp name="--.HHE">
      <acc value="0.0845144354" flag="0"/>
      <vel value="0.0302711668" flag="0"/>
      <psa03 value="0.1781562164" flag="0"/>
      <psa10 value="0.0357679225" flag="0"/>
      <psa30 value="0.0016593160" flag="0"/>
    </comp>
    <comp name="--.HHN">
      <acc value="0.0801092726" flag="0"/>
      <vel value="0.0474176369" flag="0"/>
      <psa03 value="0.3008030162" flag="0"/>
      <psa10 value="0.0306505100" flag="0"/>
      <psa30 value="0.0020081757" flag="0"/>
    </comp>
    <comp name="--.HHZ">
      <acc value="0.0617599146" flag="0"/>
      <vel value="0.0249386036" flag="0"/>
      <psa03 value="0.1589097042" flag="0"/>
      <psa10 value="0.0272640869" flag="0"/>
      <psa30 value="0.0019529796" flag="0"/>
    </comp>
  </station>
  <station code="ATEI" name="ATEI" netid="HC" insttype="DC" commtype="DIG" lat="35.5193" lon="24.0432">
    <comp name="--.HNZ">
      <acc value="0.0282205592" flag="0"/>
      <vel value="0.0158183731" flag="0"/>
      <psa03 value="0.0722245045" flag="0"/>
      <psa10 value="0.0179749118" flag="0"/>
      <psa30 value="0.0011853503" flag="0"/>
    </comp>
    <comp name="--.HNN">
      <acc value="0.0291981464" flag="0"/>
      <vel value="0.0233458087" flag="0"/>
      <psa03 value="0.0677922169" flag="0"/>
      <psa10 value="0.0279814277" flag="0"/>
      <psa30 value="0.0027563437" flag="0"/>
    </comp>
    <comp name="--.HNE">
      <acc value="0.0310835142" flag="0"/>
      <vel value="0.0196902972" flag="0"/>
      <psa03 value="0.0961850471" flag="0"/>
      <psa10 value="0.0249876533" flag="0"/>
      <psa30 value="0.0020122404" flag="0"/>
    </comp>
  </station>
  <station code="CHAN" name="CHAN" netid="HC" insttype="120" commtype="DIG" lat="35.5193" lon="24.0428">
    <comp name="--.HHN">
      <acc value="0.0516196785" flag="0"/>
      <vel value="0.0413401304" flag="0"/>
      <psa03 value="0.1275529626" flag="0"/>
      <psa10 value="0.0567550704" flag="0"/>
      <psa30 value="0.0047131791" flag="0"/>
    </comp>
    <comp name="--.HHZ">
      <acc value="0.0521923642" flag="0"/>
      <vel value="0.0307794482" flag="0"/>
      <psa03 value="0.1371519775" flag="0"/>
      <psa10 value="0.0345659906" flag="0"/>
      <psa30 value="0.0021799798" flag="0"/>
    </comp>
    <comp name="--.HHE">
      <acc value="0.0615418100" flag="0"/>
      <vel value="0.0405317637" flag="0"/>
      <psa03 value="0.1816421962" flag="0"/>
      <psa10 value="0.0462192783" flag="0"/>
      <psa30 value="0.0041376073" flag="0"/>
    </comp>
  </station>
  <station code="IMOD" name="IMOD" netid="HC" insttype="120" commtype="DIG" lat="34.9731" lon="24.7995">
    <comp name="--.HHN">
      <acc value="0.1159317244" flag="0"/>
      <vel value="0.0794542730" flag="0"/>
      <psa03 value="0.2996515829" flag="0"/>
      <psa10 value="0.0592430672" flag="0"/>
      <psa30 value="0.0047413499" flag="0"/>
    </comp>
    <comp name="--.HHE">
      <acc value="0.0646692736" flag="0"/>
      <vel value="0.0496686583" flag="0"/>
      <psa03 value="0.2105603405" flag="0"/>
      <psa10 value="0.0555524870" flag="0"/>
      <psa30 value="0.0029701678" flag="0"/>
    </comp>
    <comp name="--.HHZ">
      <acc value="0.0587488057" flag="0"/>
      <vel value="0.0289515100" flag="0"/>
      <psa03 value="0.1463214637" flag="0"/>
      <psa10 value="0.0210725952" flag="0"/>
      <psa30 value="0.0014641399" flag="0"/>
    </comp>
  </station>
  <station code="IPPL" name="IPPL" netid="HC" insttype="60" commtype="DIG" lat="35.3486" lon="24.4632">
    <comp name="--.HHE">
      <acc value="0.0000000000" flag="0"/>
      <vel value="-100.0000000000" flag="0"/>
      <psa03 value="0.0000000000" flag="0"/>
      <psa10 value="0.0000000000" flag="0"/>
      <psa30 value="0.0000000000" flag="0"/>
    </comp>
    <comp name="--.HHZ">
      <acc value="0.0521563042" flag="0"/>
      <vel value="0.0221629992" flag="0"/>
      <psa03 value="0.1256689609" flag="0"/>
      <psa10 value="0.0229350541" flag="0"/>
      <psa30 value="0.0011858239" flag="0"/>
    </comp>
    <comp name="--.HHN">
      <acc value="0.0000000000" flag="0"/>
      <vel value="-100.0000000000" flag="0"/>
      <psa03 value="0.0000000000" flag="0"/>
      <psa10 value="0.0000000000" flag="0"/>
      <psa30 value="0.0000000000" flag="0"/>
    </comp>
  </station>
  <station code="KNDR" name="KNDR" netid="HC" insttype="120" commtype="DIG" lat="35.2348" lon="23.6248">
    <comp name="--.HHE">
      <acc value="0.0787113165" flag="0"/>
      <vel value="0.0268452970" flag="0"/>
      <psa03 value="0.1566454742" flag="0"/>
      <psa10 value="0.0309517921" flag="0"/>
      <psa30 value="0.0014035269" flag="0"/>
    </comp>
    <comp name="--.HHN">
      <acc value="0.0733724144" flag="0"/>
      <vel value="0.0314596903" flag="0"/>
      <psa03 value="0.2262990152" flag="0"/>
      <psa10 value="0.0392625160" flag="0"/>
      <psa30 value="0.0017968262" flag="0"/>
    </comp>
    <comp name="--.HHZ">
      <acc value="0.0577016776" flag="0"/>
      <vel value="0.0163686625" flag="0"/>
      <psa03 value="0.1215605726" flag="0"/>
      <psa10 value="0.0177940620" flag="0"/>
      <psa30 value="0.0008861983" flag="0"/>
    </comp>
  </station>
  <station code="KNSS" name="KNSS" netid="HC" insttype="60" commtype="DIG" lat="35.3042" lon="25.1802">
    <comp name="--.HHZ">
      <acc value="0.0111821667" flag="0"/>
      <vel value="0.0062954736" flag="0"/>
      <psa03 value="0.0273311506" flag="0"/>
      <psa10 value="0.0078295412" flag="0"/>
      <psa30 value="0.0004589451" flag="0"/>
    </comp>
    <comp name="--.HHN">
      <acc value="0.0170886105" flag="0"/>
      <vel value="0.0097657872" flag="0"/>
      <psa03 value="0.0487667422" flag="0"/>
      <psa10 value="0.0141178077" flag="0"/>
      <psa30 value="0.0017147127" flag="0"/>
    </comp>
    <comp name="--.HHE">
      <acc value="0.0165657245" flag="0"/>
      <vel value="0.0145748859" flag="0"/>
      <psa03 value="0.0561904848" flag="0"/>
      <psa10 value="0.0177377541" flag="0"/>
      <psa30 value="0.0016318303" flag="0"/>
    </comp>
  </station>
  <station code="PFKS" name="PFKS" netid="HC" insttype="120" commtype="DIG" lat="35.0429" lon="25.4733">
    <comp name="--.HHE">
      <acc value="0.0134041887" flag="0"/>
      <vel value="0.0086180432" flag="0"/>
      <psa03 value="0.0422535537" flag="0"/>
      <psa10 value="0.0132207757" flag="0"/>
      <psa30 value="0.0012104125" flag="0"/>
    </comp>
    <comp name="--.HHZ">
      <acc value="0.0065950047" flag="0"/>
      <vel value="0.0047309682" flag="0"/>
      <psa03 value="0.0184403628" flag="0"/>
      <psa10 value="0.0098692602" flag="0"/>
      <psa30 value="0.0004672594" flag="0"/>
    </comp>
    <comp name="--.HHN">
      <acc value="0.0150204998" flag="0"/>
      <vel value="0.0095967074" flag="0"/>
      <psa03 value="0.0486748901" flag="0"/>
      <psa10 value="0.0203195842" flag="0"/>
      <psa30 value="0.0014702197" flag="0"/>
    </comp>
  </station>
  <station code="TEFL" name="TEFL" netid="HC" insttype="GEOtiny," commtype="DIG" lat="35.0933" lon="25.1634">
    <comp name="--.HHN">
      <acc value="0.0408919661" flag="0"/>
      <vel value="0.0239818450" flag="0"/>
      <psa03 value="0.0962275569" flag="0"/>
      <psa10 value="0.0365493420" flag="0"/>
      <psa30 value="0.0031480398" flag="0"/>
    </comp>
    <comp name="--.HHE">
      <acc value="0.0484949915" flag="0"/>
      <vel value="0.0270974647" flag="0"/>
      <psa03 value="0.1448942474" flag="0"/>
      <psa10 value="0.0337895895" flag="0"/>
      <psa30 value="0.0022769060" flag="0"/>
    </comp>
    <comp name="--.HHZ">
      <acc value="0.0190939605" flag="0"/>
      <vel value="0.0128746880" flag="0"/>
      <psa03 value="0.0694381520" flag="0"/>
      <psa10 value="0.0149763682" flag="0"/>
      <psa30 value="0.0011316654" flag="0"/>
    </comp>
  </station>
  <station code="ARK1" name="ARK1" netid="HI" insttype="unknown" commtype="DIG" lat="35.1488" lon="25.2642">
    <comp name="--.HNE">
      <acc value="0.0318559394" flag="0"/>
      <vel value="0.0233297348" flag="0"/>
      <psa03 value="0.0802961574" flag="0"/>
      <psa10 value="0.0276319689" flag="0"/>
      <psa30 value="0.0022687048" flag="0"/>
    </comp>
    <comp name="--.HNZ">
      <acc value="0.0143521832" flag="0"/>
      <vel value="0.0147527240" flag="0"/>
      <psa03 value="0.0398486957" flag="0"/>
      <psa10 value="0.0222889260" flag="0"/>
      <psa30 value="0.0010113119" flag="0"/>
    </comp>
    <comp name="--.HNN">
      <acc value="0.0369223115" flag="0"/>
      <vel value="0.0255053855" flag="0"/>
      <psa03 value="0.1081350428" flag="0"/>
      <psa10 value="0.0220336414" flag="0"/>
      <psa30 value="0.0019086595" flag="0"/>
    </comp>
  </station>
  <station code="CH01" name="CH01" netid="HI" insttype="CMG-5TD,ACCELEROMETER,GURALP" commtype="DIG" lat="35.517" lon="24.0208">
    <comp name="--.HNZ">
      <acc value="0.0355127423" flag="0"/>
      <vel value="0.0160546769" flag="0"/>
      <psa03 value="0.0497794011" flag="0"/>
      <psa10 value="0.0455336374" flag="0"/>
      <psa30 value="0.0016811376" flag="0"/>
    </comp>
    <comp name="--.HNN">
      <acc value="0.0353416483" flag="0"/>
      <vel value="0.0229712449" flag="0"/>
      <psa03 value="0.0864678767" flag="0"/>
      <psa10 value="0.0259179178" flag="0"/>
      <psa30 value="0.0032599023" flag="0"/>
    </comp>
    <comp name="--.HNE">
      <acc value="0.0455499714" flag="0"/>
      <vel value="0.0273575911" flag="0"/>
      <psa03 value="0.1188807002" flag="0"/>
      <psa10 value="0.0354802922" flag="0"/>
      <psa30 value="0.0023528535" flag="0"/>
    </comp>
  </station>
  <station code="CH02" name="CH02" netid="HI" insttype="unknown" commtype="DIG" lat="35.5145" lon="24.0315">
    <comp name="--.HNE">
      <acc value="0.0329315903" flag="0"/>
      <vel value="0.0229918224" flag="0"/>
      <psa03 value="0.0899654949" flag="0"/>
      <psa10 value="0.0378321779" flag="0"/>
      <psa30 value="0.0018465708" flag="0"/>
    </comp>
    <comp name="--.HNN">
      <acc value="0.0330783916" flag="0"/>
      <vel value="0.0321655405" flag="0"/>
      <psa03 value="0.0967912629" flag="0"/>
      <psa10 value="0.0241444090" flag="0"/>
      <psa30 value="0.0029744835" flag="0"/>
    </comp>
    <comp name="--.HNZ">
      <acc value="0.0297027122" flag="0"/>
      <vel value="0.0166970327" flag="0"/>
      <psa03 value="0.0718885324" flag="0"/>
      <psa10 value="0.0228473261" flag="0"/>
      <psa30 value="0.0011215266" flag="0"/>
    </comp>
  </station>
  <station code="CH03" name="CH03" netid="HI" insttype="unknown" commtype="DIG" lat="35.533" lon="24.0705">
    <comp name="--.HNE">
      <acc value="0.0176419064" flag="0"/>
      <vel value="0.0177973231" flag="0"/>
      <psa03 value="0.0641392111" flag="0"/>
      <psa10 value="0.0237974140" flag="0"/>
      <psa30 value="0.0014130786" flag="0"/>
    </comp>
    <comp name="--.HNN">
      <acc value="0.0255459806" flag="0"/>
      <vel value="0.0209727414" flag="0"/>
      <psa03 value="0.0676023739" flag="0"/>
      <psa10 value="0.0197029517" flag="0"/>
      <psa30 value="0.0032165387" flag="0"/>
    </comp>
    <comp name="--.HNZ">
      <acc value="0.0189341753" flag="0"/>
      <vel value="0.0096711813" flag="0"/>
      <psa03 value="0.0415714815" flag="0"/>
      <psa10 value="0.0159201897" flag="0"/>
      <psa30 value="0.0007303470" flag="0"/>
    </comp>
  </station>
  <station code="GOR1" name="GOR1" netid="HI" insttype="unknown" commtype="DIG" lat="35.0582" lon="24.9628">
    <comp name="--.HNE">
      <acc value="0.0372402019" flag="0"/>
      <vel value="0.0305640438" flag="0"/>
      <psa03 value="0.1158209273" flag="0"/>
      <psa10 value="0.0407816839" flag="0"/>
      <psa30 value="0.0030656249" flag="0"/>
    </comp>
    <comp name="--.HNZ">
      <acc value="0.0323820139" flag="0"/>
      <vel value="0.0217868239" flag="0"/>
      <psa03 value="0.0963160022" flag="0"/>
      <psa10 value="0.0332296615" flag="0"/>
      <psa30 value="0.0020788393" flag="0"/>
    </comp>
    <comp name="--.HNN">
      <acc value="0.0467501054" flag="0"/>
      <vel value="0.0308759307" flag="0"/>
      <psa03 value="0.1408337953" flag="0"/>
      <psa10 value="0.0366119828" flag="0"/>
      <psa30 value="0.0022736399" flag="0"/>
    </comp>
  </station>
  <station code="ANKY" name="ANKY" netid="HL" insttype="60" commtype="DIG" lat="35.867" lon="23.3012">
    <comp name="--.HHE">
      <acc value="0.0053299547" flag="0"/>
      <vel value="0.0053939146" flag="0"/>
      <psa03 value="0.0110760596" flag="0"/>
      <psa10 value="0.0077643427" flag="0"/>
      <psa30 value="0.0012349945" flag="0"/>
    </comp>
    <comp name="--.HHZ">
      <acc value="0.0043447219" flag="0"/>
      <vel value="0.0040276346" flag="0"/>
      <psa03 value="0.0118195297" flag="0"/>
      <psa10 value="0.0055965883" flag="0"/>
      <psa30 value="0.0005857851" flag="0"/>
    </comp>
    <comp name="--.HHN">
      <acc value="0.0046042313" flag="0"/>
      <vel value="0.0040050792" flag="0"/>
      <psa03 value="0.0126494324" flag="0"/>
      <psa10 value="0.0076024170" flag="0"/>
      <psa30 value="0.0007250300" flag="0"/>
    </comp>
  </station>
  <station code="IACM" name="IACM" netid="HL" insttype="120" commtype="DIG" lat="35.3058" lon="25.0709">
    <comp name="--.HHZ">
      <acc value="0.0631610153" flag="0"/>
      <vel value="0.0347311979" flag="0"/>
      <psa03 value="0.1178845719" flag="0"/>
      <psa10 value="0.0494319509" flag="0"/>
      <psa30 value="0.0025766407" flag="0"/>
    </comp>
    <comp name="--.HHE">
      <acc value="0.0795952024" flag="0"/>
      <vel value="0.0579415608" flag="0"/>
      <psa03 value="0.1944707557" flag="0"/>
      <psa10 value="0.1144658178" flag="0"/>
      <psa30 value="0.0054118395" flag="0"/>
    </comp>
    <comp name="--.HHN">
      <acc value="0.0730665155" flag="0"/>
      <vel value="0.0702670688" flag="0"/>
      <psa03 value="0.2325396504" flag="0"/>
      <psa10 value="0.1201474388" flag="0"/>
      <psa30 value="0.0069687687" flag="0"/>
    </comp>
  </station>
  <station code="IMMV" name="IMMV" netid="HL" insttype="120" commtype="DIG" lat="35.4606" lon="23.9811">
    <comp name="--.HHE">
      <acc value="0.0827600192" flag="0"/>
      <vel value="0.0293316566" flag="0"/>
      <psa03 value="0.1731155208" flag="0"/>
      <psa10 value="0.0355513018" flag="0"/>
      <psa30 value="0.0016426423" flag="0"/>
    </comp>
    <comp name="--.HHZ">
      <acc value="0.0599311759" flag="0"/>
      <vel value="0.0244238360" flag="0"/>
      <psa03 value="0.1546926391" flag="0"/>
      <psa10 value="0.0271199584" flag="0"/>
      <psa30 value="0.0019387205" flag="0"/>
    </comp>
    <comp name="--.HHN">
      <acc value="0.0782638040" flag="0"/>
      <vel value="0.0466344504" flag="0"/>
      <psa03 value="0.2922708454" flag="0"/>
      <psa10 value="0.0303523708" flag="0"/>
      <psa30 value="0.0019865613" flag="0"/>
    </comp>
  </station>
  <station code="SIVA" name="SIVA" netid="HL" insttype="60" commtype="DIG" lat="35.0178" lon="24.812">
    <comp name="--.HHE">
      <acc value="0.1200749395" flag="0"/>
      <vel value="0.0693513641" flag="0"/>
      <psa03 value="0.4314377845" flag="0"/>
      <psa10 value="0.0934949156" flag="0"/>
      <psa30 value="0.0037735062" flag="0"/>
    </comp>
    <comp name="--.HHN">
      <acc value="0.0935710860" flag="0"/>
      <vel value="0.0475218475" flag="0"/>
      <psa03 value="0.2086304120" flag="0"/>
      <psa10 value="0.0467143963" flag="0"/>
      <psa30 value="0.0028464335" flag="0"/>
    </comp>
    <comp name="--.HHZ">
      <acc value="0.0610665816" flag="0"/>
      <vel value="0.0323975183" flag="0"/>
      <psa03 value="0.1627995215" flag="0"/>
      <psa10 value="0.0159574069" flag="0"/>
      <psa30 value="0.0017438076" flag="0"/>
    </comp>
  </station>
  <station code="VAM" name="VAM" netid="HL" insttype="CMG3ESPC-120s" commtype="DIG" lat="35.407" lon="24.1997">
    <comp name="--.HHN">
      <acc value="0.0522671714" flag="0"/>
      <vel value="0.0283135075" flag="0"/>
      <psa03 value="0.1806426045" flag="0"/>
      <psa10 value="0.0263294299" flag="0"/>
      <psa30 value="0.0014174985" flag="0"/>
    </comp>
    <comp name="--.HHZ">
      <acc value="0.0380541460" flag="0"/>
      <vel value="0.0176768541" flag="0"/>
      <psa03 value="0.0809017301" flag="0"/>
      <psa10 value="0.0180941063" flag="0"/>
      <psa30 value="0.0014539576" flag="0"/>
    </comp>
    <comp name="--.HHE">
      <acc value="0.0546942622" flag="0"/>
      <vel value="0.0241589714" flag="0"/>
      <psa03 value="0.0913000971" flag="0"/>
      <psa10 value="0.0303719801" flag="0"/>
      <psa30 value="0.0023399571" flag="0"/>
    </comp>
  </station>
</stationlist>
