<?xml version="1.0" encoding="UTF-8" standalone="yes"?>
<!DOCTYPE earthquake SYSTEM "stationlist.dtd">
<stationlist created="" xmlns="ch.ethz.sed.shakemap.usgs.xml">
  <station code="IMMV" name="IMMV" netid="GE" insttype="STS-2/N" commtype="DIG" lat="35.4606" lon="23.9811">
    <comp name="--.HHE">
      <acc value="0.0845144354" flag="0"/>
      <vel value="0.0302711668" flag="0"/>
      <psa03 value="0.1781562164" flag="0"/>
      <psa10 value="0.0357679225" flag="0"/>
      <psa30 value="0.0016593160" flag="0"/>
    </comp>
    <comp name="--.HHN">
      <acc value="0.0801092726" flag="0"/>
      <vel value="0.0474176369" flag="0"/>
      <psa03 value="0.3008030162" flag="0"/>
      <psa10 value="0.0306505100" flag="0"/>
      <psa30 value="0.0020081757" flag="0"/>
    </comp>
    <comp name="--.HHZ">
      <acc value="0.0617599146" flag="0"/>
      <vel value="0.0249386036" flag="0"/>
      <psa03 value="0.1589097042" flag="0"/>
      <psa10 value="0.0272640869" flag="0"/>
      <psa30 value="0.0019529796" flag="0"/>
    </comp>
  </station>
</stationlist>
