<?xml version="1.0" encoding="UTF-8" standalone="yes"?>
<!DOCTYPE earthquake SYSTEM "stationlist.dtd">
<stationlist created="" xmlns="ch.ethz.sed.shakemap.usgs.xml">
  <station code="IT07A" name="IT07A" netid="4P" insttype="" lat="44.8739" lon="9.83696">
    <comp name="--.HHE">
      <acc value="0.1217507448" flag="0"/>
      <vel value="0.0654499122" flag="0"/>
      <psa03 value="0.4867208379" flag="0"/>
      <psa10 value="0.0790982605" flag="0"/>
      <psa30 value="0.0122922945" flag="0"/>
    </comp>
    <comp name="--.HHN">
      <acc value="0.1489833357" flag="0"/>
      <vel value="0.1031479173" flag="0"/>
      <psa03 value="0.6469444627" flag="0"/>
      <psa10 value="0.0694474794" flag="0"/>
      <psa30 value="0.0085176954" flag="0"/>
    </comp>
    <comp name="--.HHZ">
      <acc value="0.0471815834" flag="0"/>
      <vel value="0.0213731443" flag="0"/>
      <psa03 value="0.1398053978" flag="0"/>
      <psa10 value="0.0348565917" flag="0"/>
      <psa30 value="0.0056423150" flag="0"/>
    </comp>
  </station>
  <station code="IT09A" name="IT09A" netid="4P" insttype="" lat="44.6605" lon="11.4359">
    <comp name="--.HHE">
      <acc value="0.0331471686" flag="0"/>
      <vel value="0.0173861080" flag="0"/>
      <psa03 value="0.0569507170" flag="0"/>
      <psa10 value="0.0231286693" flag="0"/>
      <psa30 value="0.0041953896" flag="0"/>
    </comp>
    <comp name="--.HHN">
      <acc value="0.0311198697" flag="0"/>
      <vel value="0.0210207514" flag="0"/>
      <psa03 value="0.0555830440" flag="0"/>
      <psa10 value="0.0214560975" flag="0"/>
      <psa30 value="0.0044494676" flag="0"/>
    </comp>
    <comp name="--.HHZ">
      <acc value="0.0081604235" flag="0"/>
      <vel value="0.0039692605" flag="0"/>
      <psa03 value="0.0213476420" flag="0"/>
      <psa10 value="0.0051354767" flag="0"/>
      <psa30 value="0.0014684321" flag="0"/>
    </comp>
  </station>
  <station code="CARD" name="CARD" netid="GU" insttype="" lat="44.0261" lon="10.4821">
    <comp name="--.HHE">
      <acc value="0.0268004669" flag="0"/>
      <vel value="0.0077156490" flag="0"/>
      <psa03 value="0.0215441146" flag="0"/>
      <psa10 value="0.0052079811" flag="0"/>
      <psa30 value="0.0010022514" flag="0"/>
    </comp>
    <comp name="--.HHN">
      <acc value="0.0290836519" flag="0"/>
      <vel value="0.0110665538" flag="0"/>
      <psa03 value="0.0365087960" flag="0"/>
      <psa10 value="0.0056473531" flag="0"/>
      <psa30 value="0.0015286771" flag="0"/>
    </comp>
    <comp name="--.HHZ">
      <acc value="0.0108236266" flag="0"/>
      <vel value="0.0046960067" flag="0"/>
      <psa03 value="0.0131541581" flag="0"/>
      <psa10 value="0.0031897641" flag="0"/>
      <psa30 value="0.0005747623" flag="0"/>
    </comp>
  </station>
  <station code="EQUI" name="EQUI" netid="GU" insttype="" lat="44.166" lon="10.153">
    <comp name="--.HHE">
      <acc value="0.0156910861" flag="0"/>
      <vel value="0.0071959104" flag="0"/>
      <psa03 value="0.0338916307" flag="0"/>
      <psa10 value="0.0077346399" flag="0"/>
      <psa30 value="0.0010828638" flag="0"/>
    </comp>
    <comp name="--.HHN">
      <acc value="0.0150393850" flag="0"/>
      <vel value="0.0087928766" flag="0"/>
      <psa03 value="0.0607619363" flag="0"/>
      <psa10 value="0.0069213100" flag="0"/>
      <psa30 value="0.0006650247" flag="0"/>
    </comp>
    <comp name="--.HHZ">
      <acc value="0.0115776412" flag="0"/>
      <vel value="0.0098956392" flag="0"/>
      <psa03 value="0.0297556053" flag="0"/>
      <psa10 value="0.0073930104" flag="0"/>
      <psa30 value="0.0011251572" flag="0"/>
    </comp>
  </station>
  <station code="FIVI" name="FIVI" netid="GU" insttype="" lat="44.2394" lon="10.1271">
    <comp name="--.HNE">
      <acc value="0.0770570514" flag="0"/>
      <vel value="0.0276344712" flag="0"/>
      <psa03 value="0.0900000694" flag="0"/>
      <psa10 value="0.0094935734" flag="0"/>
      <psa30 value="0.0016561960" flag="0"/>
    </comp>
    <comp name="--.HNN">
      <acc value="0.0780588349" flag="0"/>
      <vel value="0.0345485845" flag="0"/>
      <psa03 value="0.0825948286" flag="0"/>
      <psa10 value="0.0110174914" flag="0"/>
      <psa30 value="0.0011401502" flag="0"/>
    </comp>
    <comp name="--.HNZ">
      <acc value="0.0656526787" flag="0"/>
      <vel value="0.0219789108" flag="0"/>
      <psa03 value="0.0798703185" flag="0"/>
      <psa10 value="0.0185365900" flag="0"/>
      <psa30 value="0.0011156615" flag="0"/>
    </comp>
  </station>
  <station code="GORR" name="GORR" netid="GU" insttype="" lat="44.6071" lon="9.2926">
    <comp name="--.HHE">
      <acc value="0.0237898000" flag="0"/>
      <vel value="0.0109937276" flag="0"/>
      <psa03 value="0.0544301743" flag="0"/>
      <psa10 value="0.0073357884" flag="0"/>
      <psa30 value="0.0010690025" flag="0"/>
    </comp>
    <comp name="--.HHN">
      <acc value="0.0287162435" flag="0"/>
      <vel value="0.0141767269" flag="0"/>
      <psa03 value="0.0748353693" flag="0"/>
      <psa10 value="0.0134372464" flag="0"/>
      <psa30 value="0.0013788336" flag="0"/>
    </comp>
    <comp name="--.HHZ">
      <acc value="0.0185018403" flag="0"/>
      <vel value="0.0094241169" flag="0"/>
      <psa03 value="0.0385098668" flag="0"/>
      <psa10 value="0.0071840333" flag="0"/>
      <psa30 value="0.0010874491" flag="0"/>
    </comp>
  </station>
  <station code="GRAM" name="GRAM" netid="GU" insttype="" lat="44.4904" lon="10.065">
    <comp name="--.HHE">
      <acc value="0.5456408344" flag="0"/>
      <vel value="0.1925082007" flag="0"/>
      <psa03 value="2.0190669941" flag="0"/>
      <psa10 value="0.0811898911" flag="0"/>
      <psa30 value="0.0087345003" flag="0"/>
    </comp>
    <comp name="--.HHN">
      <acc value="0.6630762772" flag="0"/>
      <vel value="0.2359864554" flag="0"/>
      <psa03 value="1.4973472734" flag="0"/>
      <psa10 value="0.0935426747" flag="0"/>
      <psa30 value="0.0081208530" flag="0"/>
    </comp>
    <comp name="--.HHZ">
      <acc value="1.2520046438" flag="0"/>
      <vel value="0.1595938222" flag="0"/>
      <psa03 value="0.5012680112" flag="0"/>
      <psa10 value="0.0388016731" flag="0"/>
      <psa30 value="0.0035672716" flag="0"/>
    </comp>
  </station>
  <station code="GSCL" name="GSCL" netid="GU" insttype="" lat="44.3506" lon="10.588">
    <comp name="--.HHE">
      <acc value="0.0412611878" flag="0"/>
      <vel value="0.0249715610" flag="0"/>
      <psa03 value="0.1382077453" flag="0"/>
      <psa10 value="0.0147670787" flag="0"/>
      <psa30 value="0.0031802291" flag="0"/>
    </comp>
    <comp name="--.HHZ">
      <acc value="0.0258893556" flag="0"/>
      <vel value="0.0105979934" flag="0"/>
      <psa03 value="0.0691900226" flag="0"/>
      <psa10 value="0.0144690464" flag="0"/>
      <psa30 value="0.0012420423" flag="0"/>
    </comp>
    <comp name="--.HHN">
      <acc value="0.0431040792" flag="0"/>
      <vel value="0.0181976984" flag="0"/>
      <psa03 value="0.1258171994" flag="0"/>
      <psa10 value="0.0124477253" flag="0"/>
      <psa30 value="0.0020519217" flag="0"/>
    </comp>
  </station>
  <station code="POPM" name="POPM" netid="GU" insttype="" lat="44.045" lon="10.757">
    <comp name="--.HHE">
      <acc value="0.0301981691" flag="0"/>
      <vel value="0.0140414059" flag="0"/>
      <psa03 value="0.0630555042" flag="0"/>
      <psa10 value="0.0058864062" flag="0"/>
      <psa30 value="0.0010486118" flag="0"/>
    </comp>
    <comp name="--.HHN">
      <acc value="0.0368789861" flag="0"/>
      <vel value="0.0170713137" flag="0"/>
      <psa03 value="0.1122147168" flag="0"/>
      <psa10 value="0.0068104759" flag="0"/>
      <psa30 value="0.0014521721" flag="0"/>
    </comp>
    <comp name="--.HHZ">
      <acc value="0.0478180776" flag="0"/>
      <vel value="0.0096327277" flag="0"/>
      <psa03 value="0.0398467100" flag="0"/>
      <psa10 value="0.0050490702" flag="0"/>
      <psa30 value="0.0006128642" flag="0"/>
    </comp>
  </station>
  <station code="RNCA" name="RNCA" netid="GU" insttype="" lat="44.4711" lon="8.9512">
    <comp name="--.HHE">
      <acc value="0.0256232240" flag="0"/>
      <vel value="0.0097950775" flag="0"/>
      <psa03 value="0.0416503145" flag="0"/>
      <psa10 value="0.0048303373" flag="0"/>
      <psa30 value="0.0007435811" flag="0"/>
    </comp>
    <comp name="--.HHN">
      <acc value="0.0197791782" flag="0"/>
      <vel value="0.0103504091" flag="0"/>
      <psa03 value="0.0406406726" flag="0"/>
      <psa10 value="0.0063906659" flag="0"/>
      <psa30 value="0.0014954159" flag="0"/>
    </comp>
    <comp name="--.HHZ">
      <acc value="0.0161906132" flag="0"/>
      <vel value="0.0070173012" flag="0"/>
      <psa03 value="0.0430767663" flag="0"/>
      <psa10 value="0.0076484104" flag="0"/>
      <psa30 value="0.0008189159" flag="0"/>
    </comp>
  </station>
  <station code="BDI" name="BDI" netid="IV" insttype="" lat="44.0624" lon="10.597">
    <comp name="--.HHE">
      <acc value="0.0217601351" flag="0"/>
      <vel value="0.0098972465" flag="0"/>
      <psa03 value="0.0598272636" flag="0"/>
      <psa10 value="0.0068950565" flag="0"/>
      <psa30 value="0.0008270345" flag="0"/>
    </comp>
    <comp name="--.HHN">
      <acc value="0.0247262191" flag="0"/>
      <vel value="0.0105630508" flag="0"/>
      <psa03 value="0.0681499716" flag="0"/>
      <psa10 value="0.0090663621" flag="0"/>
      <psa30 value="0.0010557724" flag="0"/>
    </comp>
    <comp name="--.HHZ">
      <acc value="0.0195962219" flag="0"/>
      <vel value="0.0103086147" flag="0"/>
      <psa03 value="0.0460104366" flag="0"/>
      <psa10 value="0.0065329516" flag="0"/>
      <psa30 value="0.0006392424" flag="0"/>
    </comp>
  </station>
  <station code="BOB" name="BOB" netid="IV" insttype="" lat="44.7679" lon="9.44782">
    <comp name="--.HHE">
      <acc value="0.0488641852" flag="0"/>
      <vel value="0.0207016472" flag="0"/>
      <psa03 value="0.1132718167" flag="0"/>
      <psa10 value="0.0194448380" flag="0"/>
      <psa30 value="0.0019600272" flag="0"/>
    </comp>
    <comp name="--.HHZ">
      <acc value="0.0315627935" flag="0"/>
      <vel value="0.0134531942" flag="0"/>
      <psa03 value="0.0817442145" flag="0"/>
      <psa10 value="0.0156890710" flag="0"/>
      <psa30 value="0.0013382535" flag="0"/>
    </comp>
    <comp name="--.HHN">
      <acc value="0.0384162096" flag="0"/>
      <vel value="0.0154463790" flag="0"/>
      <psa03 value="0.0824562906" flag="0"/>
      <psa10 value="0.0175170500" flag="0"/>
      <psa30 value="0.0020566171" flag="0"/>
    </comp>
  </station>
  <station code="BOSL" name="BOSL" netid="IV" insttype="" lat="43.931" lon="11.3743">
    <comp name="--.HHE">
      <acc value="0.0016287176" flag="0"/>
      <vel value="0.0009142991" flag="0"/>
      <psa03 value="0.0037301172" flag="0"/>
      <psa10 value="0.0010581350" flag="0"/>
      <psa30 value="0.0002801419" flag="0"/>
    </comp>
    <comp name="--.HHN">
      <acc value="0.0015840622" flag="0"/>
      <vel value="0.0011454485" flag="0"/>
      <psa03 value="0.0037710818" flag="0"/>
      <psa10 value="0.0010412721" flag="0"/>
      <psa30 value="0.0001909403" flag="0"/>
    </comp>
    <comp name="--.HHZ">
      <acc value="0.0013535311" flag="0"/>
      <vel value="0.0007055282" flag="0"/>
      <psa03 value="0.0023295138" flag="0"/>
      <psa10 value="0.0007179183" flag="0"/>
      <psa30 value="0.0001403786" flag="0"/>
    </comp>
  </station>
  <station code="BOZZ" name="BOZZ" netid="IV" insttype="" lat="45.1071" lon="10.482">
    <comp name="--.HHE">
      <acc value="0.0374463779" flag="0"/>
      <vel value="0.0448260159" flag="0"/>
      <psa03 value="0.0643616083" flag="0"/>
      <psa10 value="0.0675957606" flag="0"/>
      <psa30 value="0.0088196466" flag="0"/>
    </comp>
    <comp name="--.HHN">
      <acc value="0.0560566319" flag="0"/>
      <vel value="0.0564353257" flag="0"/>
      <psa03 value="0.0730574681" flag="0"/>
      <psa10 value="0.0621268149" flag="0"/>
      <psa30 value="0.0106975232" flag="0"/>
    </comp>
    <comp name="--.HHZ">
      <acc value="0.0326811198" flag="0"/>
      <vel value="0.0225941618" flag="0"/>
      <psa03 value="0.0618506131" flag="0"/>
      <psa10 value="0.0168282149" flag="0"/>
      <psa30 value="0.0063531056" flag="0"/>
    </comp>
  </station>
  <station code="CAVE" name="CAVE" netid="IV" insttype="" lat="44.8658" lon="11.0031">
    <comp name="--.HHE">
      <acc value="0.0610676233" flag="0"/>
      <vel value="0.0163339317" flag="0"/>
      <psa03 value="0.0901892868" flag="0"/>
      <psa10 value="0.0231052430" flag="0"/>
      <psa30 value="0.0021123572" flag="0"/>
    </comp>
    <comp name="--.HHN">
      <acc value="0.0657307226" flag="0"/>
      <vel value="0.0195196262" flag="0"/>
      <psa03 value="0.1109130673" flag="0"/>
      <psa10 value="0.0172376317" flag="0"/>
      <psa30 value="0.0021967157" flag="0"/>
    </comp>
    <comp name="--.HHZ">
      <acc value="0.0219677997" flag="0"/>
      <vel value="0.0050498868" flag="0"/>
      <psa03 value="0.0347195818" flag="0"/>
      <psa10 value="0.0052803573" flag="0"/>
      <psa30 value="0.0007844952" flag="0"/>
    </comp>
  </station>
  <station code="CRMI" name="CRMI" netid="IV" insttype="" lat="43.7956" lon="10.9795">
    <comp name="--.HHE">
      <acc value="0.0023178196" flag="0"/>
      <vel value="0.0016442254" flag="0"/>
      <psa03 value="0.0045761715" flag="0"/>
      <psa10 value="0.0016512081" flag="0"/>
      <psa30 value="0.0005046039" flag="0"/>
    </comp>
    <comp name="--.HHZ">
      <acc value="0.0037353777" flag="0"/>
      <vel value="0.0016760129" flag="0"/>
      <psa03 value="0.0048509774" flag="0"/>
      <psa10 value="0.0015867362" flag="0"/>
      <psa30 value="0.0004973833" flag="0"/>
    </comp>
    <comp name="--.HHN">
      <acc value="0.0038961660" flag="0"/>
      <vel value="0.0021573892" flag="0"/>
      <psa03 value="0.0125048579" flag="0"/>
      <psa10 value="0.0019388773" flag="0"/>
      <psa30 value="0.0006137550" flag="0"/>
    </comp>
  </station>
  <station code="CTL8" name="CTL8" netid="IV" insttype="" lat="45.2763" lon="9.7622">
    <comp name="--.HHE">
      <acc value="0.0390277303" flag="0"/>
      <vel value="0.0209355923" flag="0"/>
      <psa03 value="0.1105828636" flag="0"/>
      <psa10 value="0.0277032063" flag="0"/>
      <psa30 value="0.0063333300" flag="0"/>
    </comp>
    <comp name="--.HHN">
      <acc value="0.0475190938" flag="0"/>
      <vel value="0.0196714596" flag="0"/>
      <psa03 value="0.1392467605" flag="0"/>
      <psa10 value="0.0240514645" flag="0"/>
      <psa30 value="0.0057030892" flag="0"/>
    </comp>
    <comp name="--.HHZ">
      <acc value="0.0123332616" flag="0"/>
      <vel value="0.0088761114" flag="0"/>
      <psa03 value="0.0384203747" flag="0"/>
      <psa10 value="0.0202635688" flag="0"/>
      <psa30 value="0.0020848580" flag="0"/>
    </comp>
  </station>
  <station code="MSSA" name="MSSA" netid="IV" insttype="" lat="44.3162" lon="9.51739">
    <comp name="--.HHE">
      <acc value="0.0710996224" flag="0"/>
      <vel value="0.0133049881" flag="0"/>
      <psa03 value="0.0337583389" flag="0"/>
      <psa10 value="0.0042604700" flag="0"/>
      <psa30 value="0.0007032287" flag="0"/>
    </comp>
    <comp name="--.HHN">
      <acc value="0.1233945560" flag="0"/>
      <vel value="0.0230871331" flag="0"/>
      <psa03 value="0.0585968550" flag="0"/>
      <psa10 value="0.0073938197" flag="0"/>
      <psa30 value="0.0012204083" flag="0"/>
    </comp>
    <comp name="--.HHZ">
      <acc value="0.0007267924" flag="0"/>
      <vel value="0.0001393379" flag="0"/>
      <psa03 value="0.0003414761" flag="0"/>
      <psa10 value="0.0000433734" flag="0"/>
      <psa30 value="0.0000065491" flag="0"/>
    </comp>
  </station>
  <station code="NEVI" name="NEVI" netid="IV" insttype="" lat="44.5834" lon="10.3163">
    <comp name="--.HNE">
      <acc value="0.5046690546" flag="0"/>
      <vel value="0.2633339413" flag="0"/>
      <psa03 value="1.3960733336" flag="0"/>
      <psa10 value="0.1394781234" flag="0"/>
      <psa30 value="0.0182807734" flag="0"/>
    </comp>
    <comp name="--.HNZ">
      <acc value="0.2549110608" flag="0"/>
      <vel value="0.0888418218" flag="0"/>
      <psa03 value="0.3746511822" flag="0"/>
      <psa10 value="0.0709834161" flag="0"/>
      <psa30 value="0.0076941699" flag="0"/>
    </comp>
    <comp name="--.HNN">
      <acc value="0.9614549371" flag="0"/>
      <vel value="0.4189316041" flag="0"/>
      <psa03 value="2.0318575216" flag="0"/>
      <psa10 value="0.2927138822" flag="0"/>
      <psa30 value="0.0426119869" flag="0"/>
    </comp>
  </station>
  <station code="OPPE" name="OPPE" netid="IV" insttype="" lat="45.3082" lon="11.1724">
    <comp name="--.HHE">
      <acc value="0.0464917461" flag="0"/>
      <vel value="0.0235062210" flag="0"/>
      <psa03 value="0.0464095529" flag="0"/>
      <psa10 value="0.0250944200" flag="0"/>
      <psa30 value="0.0023653534" flag="0"/>
    </comp>
    <comp name="--.HHN">
      <acc value="0.0492993117" flag="0"/>
      <vel value="0.0156494136" flag="0"/>
      <psa03 value="0.0552316866" flag="0"/>
      <psa10 value="0.0169278279" flag="0"/>
      <psa30 value="0.0034344908" flag="0"/>
    </comp>
    <comp name="--.HHZ">
      <acc value="0.0298485122" flag="0"/>
      <vel value="0.0066656307" flag="0"/>
      <psa03 value="0.0292330612" flag="0"/>
      <psa10 value="0.0075616408" flag="0"/>
      <psa30 value="0.0017821349" flag="0"/>
    </comp>
  </station>
  <station code="PII" name="PII" netid="IV" insttype="" lat="43.7219" lon="10.525">
    <comp name="--.HHE">
      <acc value="0.0200861824" flag="0"/>
      <vel value="0.0111106101" flag="0"/>
      <psa03 value="0.0620146999" flag="0"/>
      <psa10 value="0.0076231997" flag="0"/>
      <psa30 value="0.0008673931" flag="0"/>
    </comp>
    <comp name="--.HHN">
      <acc value="0.0192426298" flag="0"/>
      <vel value="0.0112762153" flag="0"/>
      <psa03 value="0.0660182551" flag="0"/>
      <psa10 value="0.0040346162" flag="0"/>
      <psa30 value="0.0007811364" flag="0"/>
    </comp>
    <comp name="--.HHZ">
      <acc value="0.0195703047" flag="0"/>
      <vel value="0.0074841053" flag="0"/>
      <psa03 value="0.0339656058" flag="0"/>
      <psa10 value="0.0051451628" flag="0"/>
      <psa30 value="0.0006244169" flag="0"/>
    </comp>
  </station>
  <station code="PLMA" name="PLMA" netid="IV" insttype="" lat="44.0498" lon="9.85365">
    <comp name="--.HHE">
      <acc value="0.0175658632" flag="0"/>
      <vel value="0.0068946856" flag="0"/>
      <psa03 value="0.0533108684" flag="0"/>
      <psa10 value="0.0031149532" flag="0"/>
      <psa30 value="0.0006797488" flag="0"/>
    </comp>
    <comp name="--.HHN">
      <acc value="0.0181458739" flag="0"/>
      <vel value="0.0089626747" flag="0"/>
      <psa03 value="0.0521186345" flag="0"/>
      <psa10 value="0.0030608098" flag="0"/>
      <psa30 value="0.0008011157" flag="0"/>
    </comp>
    <comp name="--.HHZ">
      <acc value="0.0089218021" flag="0"/>
      <vel value="0.0046667111" flag="0"/>
      <psa03 value="0.0241602456" flag="0"/>
      <psa10 value="0.0028531132" flag="0"/>
      <psa30 value="0.0007433189" flag="0"/>
    </comp>
  </station>
  <station code="PRMA" name="PRMA" netid="IV" insttype="" lat="44.7637" lon="10.3131">
    <comp name="--.HHE">
      <acc value="0.9503356766" flag="0"/>
      <vel value="0.4864536433" flag="0"/>
      <psa03 value="1.5128899172" flag="0"/>
      <psa10 value="0.4650186596" flag="0"/>
      <psa30 value="0.0279980822" flag="0"/>
    </comp>
    <comp name="--.HHN">
      <acc value="0.8095327388" flag="0"/>
      <vel value="0.3849835062" flag="0"/>
      <psa03 value="1.7470078185" flag="0"/>
      <psa10 value="0.3551408538" flag="0"/>
      <psa30 value="0.0344183441" flag="0"/>
    </comp>
