<?xml version="1.0" encoding="UTF-8" standalone="yes"?>
<!DOCTYPE earthquake SYSTEM "stationlist.dtd">
<stationlist created="" xmlns="ch.ethz.sed.shakemap.usgs.xml">
  <station code="IT07A" name="IT07A" netid="4P" insttype="" lat="44.8739" lon="9.83696">
    <comp name="--.HHN">
      <acc value="0.1489833357" flag="0"/>
      <vel value="0.1031479166" flag="0"/>
      <psa03 value="0.6469444627" flag="0"/>
      <psa10 value="0.0694474794" flag="0"/>
      <psa30 value="0.0085176308" flag="0"/>
    </comp>
    <comp name="--.HHE">
      <acc value="0.1217507449" flag="0"/>
      <vel value="0.0654499117" flag="0"/>
      <psa03 value="0.4867208379" flag="0"/>
      <psa10 value="0.0790982605" flag="0"/>
      <psa30 value="0.0122922782" flag="0"/>
    </comp>
    <comp name="--.HHZ">
      <acc value="0.0471815834" flag="0"/>
      <vel value="0.0213731402" flag="0"/>
      <psa03 value="0.1398053978" flag="0"/>
      <psa10 value="0.0348565917" flag="0"/>
      <psa30 value="0.0056423982" flag="0"/>
    </comp>
  </station>
  <station code="IT09A" name="IT09A" netid="4P" insttype="" lat="44.6605" lon="11.4359">
    <comp name="--.HHE">
      <acc value="0.0331471685" flag="0"/>
      <vel value="0.0173861073" flag="0"/>
      <psa03 value="0.0569507170" flag="0"/>
      <psa10 value="0.0231286693" flag="0"/>
      <psa30 value="0.0041954136" flag="0"/>
    </comp>
    <comp name="--.HHZ">
      <acc value="0.0081604236" flag="0"/>
      <vel value="0.0039692606" flag="0"/>
      <psa03 value="0.0213476420" flag="0"/>
      <psa10 value="0.0051354767" flag="0"/>
      <psa30 value="0.0014684223" flag="0"/>
    </comp>
    <comp name="--.HHN">
      <acc value="0.0311198695" flag="0"/>
      <vel value="0.0210207488" flag="0"/>
      <psa03 value="0.0555830440" flag="0"/>
      <psa10 value="0.0214560976" flag="0"/>
      <psa30 value="0.0044494493" flag="0"/>
    </comp>
  </station>
  <station code="CARD" name="CARD" netid="GU" insttype="" lat="44.0261" lon="10.4821">
    <comp name="--.HHE">
      <acc value="0.0268004669" flag="0"/>
      <vel value="0.0077156393" flag="0"/>
      <psa03 value="0.0215441146" flag="0"/>
      <psa10 value="0.0052079809" flag="0"/>
      <psa30 value="0.0010023006" flag="0"/>
    </comp>
    <comp name="--.HHN">
      <acc value="0.0290836519" flag="0"/>
      <vel value="0.0110665550" flag="0"/>
      <psa03 value="0.0365087960" flag="0"/>
      <psa10 value="0.0056473532" flag="0"/>
      <psa30 value="0.0015287887" flag="0"/>
    </comp>
    <comp name="--.HHZ">
      <acc value="0.0108236266" flag="0"/>
      <vel value="0.0046960014" flag="0"/>
      <psa03 value="0.0131541581" flag="0"/>
      <psa10 value="0.0031897641" flag="0"/>
      <psa30 value="0.0005747498" flag="0"/>
    </comp>
  </station>
  <station code="FIVI" name="FIVI" netid="GU" insttype="" lat="44.2394" lon="10.1271">
    <comp name="--.HNE">
      <acc value="0.0770570518" flag="0"/>
      <vel value="0.0276344716" flag="0"/>
      <psa03 value="0.0900000694" flag="0"/>
      <psa10 value="0.0094935736" flag="0"/>
      <psa30 value="0.0016564337" flag="0"/>
    </comp>
    <comp name="--.HNN">
      <acc value="0.0780588354" flag="0"/>
      <vel value="0.0345485848" flag="0"/>
      <psa03 value="0.0825948286" flag="0"/>
      <psa10 value="0.0110174934" flag="0"/>
      <psa30 value="0.0011402709" flag="0"/>
    </comp>
    <comp name="--.HNZ">
      <acc value="0.0656526790" flag="0"/>
      <vel value="0.0219789105" flag="0"/>
      <psa03 value="0.0798703185" flag="0"/>
      <psa10 value="0.0185365860" flag="0"/>
      <psa30 value="0.0011152504" flag="0"/>
    </comp>
  </station>
  <station code="GORR" name="GORR" netid="GU" insttype="" lat="44.6071" lon="9.2926">
    <comp name="--.HHN">
      <acc value="0.0287162435" flag="0"/>
      <vel value="0.0141767302" flag="0"/>
      <psa03 value="0.0748353693" flag="0"/>
      <psa10 value="0.0134372464" flag="0"/>
      <psa30 value="0.0013788871" flag="0"/>
    </comp>
    <comp name="--.HHE">
      <acc value="0.0237897999" flag="0"/>
      <vel value="0.0109937263" flag="0"/>
      <psa03 value="0.0544301743" flag="0"/>
      <psa10 value="0.0073357883" flag="0"/>
      <psa30 value="0.0010690442" flag="0"/>
    </comp>
    <comp name="--.HHZ">
      <acc value="0.0185018403" flag="0"/>
      <vel value="0.0094241196" flag="0"/>
      <psa03 value="0.0385098668" flag="0"/>
      <psa10 value="0.0071840334" flag="0"/>
      <psa30 value="0.0010875189" flag="0"/>
    </comp>
  </station>
  <station code="GRAM" name="GRAM" netid="GU" insttype="" lat="44.4904" lon="10.065">
    <comp name="--.HHE">
      <acc value="0.5456408346" flag="0"/>
      <vel value="0.1925082012" flag="0"/>
      <psa03 value="2.0190669941" flag="0"/>
      <psa10 value="0.0811898910" flag="0"/>
      <psa30 value="0.0087344866" flag="0"/>
    </comp>
    <comp name="--.HHN">
      <acc value="0.6630762790" flag="0"/>
      <vel value="0.2359864554" flag="0"/>
      <psa03 value="1.4973472734" flag="0"/>
      <psa10 value="0.0935426733" flag="0"/>
      <psa30 value="0.0081208212" flag="0"/>
    </comp>
    <comp name="--.HHZ">
      <acc value="1.2520046443" flag="0"/>
      <vel value="0.1595938217" flag="0"/>
      <psa03 value="0.5012680112" flag="0"/>
      <psa10 value="0.0388016730" flag="0"/>
      <psa30 value="0.0035674430" flag="0"/>
    </comp>
  </station>
  <station code="GSCL" name="GSCL" netid="GU" insttype="" lat="44.3506" lon="10.588">
    <comp name="--.HHE">
      <acc value="0.0412611878" flag="0"/>
      <vel value="0.0249715602" flag="0"/>
      <psa03 value="0.1382077453" flag="0"/>
      <psa10 value="0.0147670787" flag="0"/>
      <psa30 value="0.0031802534" flag="0"/>
    </comp>
    <comp name="--.HHN">
      <acc value="0.0431040792" flag="0"/>
      <vel value="0.0181976990" flag="0"/>
      <psa03 value="0.1258171994" flag="0"/>
      <psa10 value="0.0124477252" flag="0"/>
      <psa30 value="0.0020519528" flag="0"/>
    </comp>
    <comp name="--.HHZ">
      <acc value="0.0258893556" flag="0"/>
      <vel value="0.0105979933" flag="0"/>
      <psa03 value="0.0691900226" flag="0"/>
      <psa10 value="0.0144690464" flag="0"/>
      <psa30 value="0.0012420302" flag="0"/>
    </comp>
  </station>
  <station code="POPM" name="POPM" netid="GU" insttype="" lat="44.045" lon="10.757">
    <comp name="--.HHE">
      <acc value="0.0301981691" flag="0"/>
      <vel value="0.0140414050" flag="0"/>
      <psa03 value="0.0630555042" flag="0"/>
      <psa10 value="0.0058864063" flag="0"/>
      <psa30 value="0.0010485341" flag="0"/>
    </comp>
    <comp name="--.HHN">
      <acc value="0.0368789861" flag="0"/>
      <vel value="0.0170713140" flag="0"/>
      <psa03 value="0.1122147168" flag="0"/>
      <psa10 value="0.0068104759" flag="0"/>
      <psa30 value="0.0014521344" flag="0"/>
    </comp>
    <comp name="--.HHZ">
      <acc value="0.0478180776" flag="0"/>
      <vel value="0.0096327268" flag="0"/>
      <psa03 value="0.0398467100" flag="0"/>
      <psa10 value="0.0050490702" flag="0"/>
      <psa30 value="0.0006128522" flag="0"/>
    </comp>
  </station>
  <station code="RNCA" name="RNCA" netid="GU" insttype="" lat="44.4711" lon="8.9512">
    <comp name="--.HHE">
      <acc value="0.0256232257" flag="0"/>
      <vel value="0.0097950790" flag="0"/>
      <psa03 value="0.0416503145" flag="0"/>
      <psa10 value="0.0048303374" flag="0"/>
      <psa30 value="0.0007438238" flag="0"/>
    </comp>
    <comp name="--.HHN">
      <acc value="0.0197791764" flag="0"/>
      <vel value="0.0103504068" flag="0"/>
      <psa03 value="0.0406406726" flag="0"/>
      <psa10 value="0.0063906660" flag="0"/>
      <psa30 value="0.0014955924" flag="0"/>
    </comp>
    <comp name="--.HHZ">
      <acc value="0.0161906133" flag="0"/>
      <vel value="0.0070172987" flag="0"/>
      <psa03 value="0.0430767663" flag="0"/>
      <psa10 value="0.0076484104" flag="0"/>
      <psa30 value="0.0008188245" flag="0"/>
    </comp>
  </station>
  <station code="BDI" name="BDI" netid="IV" insttype="" lat="44.0624" lon="10.597">
    <comp name="--.HHE">
      <acc value="0.0217601352" flag="0"/>
      <vel value="0.0098972483" flag="0"/>
      <psa03 value="0.0598272636" flag="0"/>
      <psa10 value="0.0068950565" flag="0"/>
      <psa30 value="0.0008270802" flag="0"/>
    </comp>
    <comp name="--.HHZ">
      <acc value="0.0195962217" flag="0"/>
      <vel value="0.0103086133" flag="0"/>
      <psa03 value="0.0460104366" flag="0"/>
      <psa10 value="0.0065329515" flag="0"/>
      <psa30 value="0.0006393113" flag="0"/>
    </comp>
    <comp name="--.HHN">
      <acc value="0.0247262191" flag="0"/>
      <vel value="0.0105630504" flag="0"/>
      <psa03 value="0.0681499716" flag="0"/>
      <psa10 value="0.0090663621" flag="0"/>
      <psa30 value="0.0010558203" flag="0"/>
    </comp>
  </station>
  <station code="BOB" name="BOB" netid="IV" insttype="" lat="44.7679" lon="9.44782">
    <comp name="--.HHE">
      <acc value="0.0488641852" flag="0"/>
      <vel value="0.0207016460" flag="0"/>
      <psa03 value="0.1132718167" flag="0"/>
      <psa10 value="0.0194448380" flag="0"/>
      <psa30 value="0.0019600086" flag="0"/>
    </comp>
    <comp name="--.HHN">
      <acc value="0.0384162095" flag="0"/>
      <vel value="0.0154463975" flag="0"/>
      <psa03 value="0.0824562906" flag="0"/>
      <psa10 value="0.0175170501" flag="0"/>
      <psa30 value="0.0020565860" flag="0"/>
    </comp>
    <comp name="--.HHZ">
      <acc value="0.0315627935" flag="0"/>
      <vel value="0.0134531883" flag="0"/>
      <psa03 value="0.0817442145" flag="0"/>
      <psa10 value="0.0156890710" flag="0"/>
      <psa30 value="0.0013383142" flag="0"/>
    </comp>
  </station>
  <station code="BOSL" name="BOSL" netid="IV" insttype="" lat="43.931" lon="11.3743">
    <comp name="--.HHE">
      <acc value="0.0016287189" flag="0"/>
      <vel value="0.0009142989" flag="0"/>
      <psa03 value="0.0037301172" flag="0"/>
      <psa10 value="0.0010581350" flag="0"/>
      <psa30 value="0.0002801444" flag="0"/>
    </comp>
    <comp name="--.HHN">
      <acc value="0.0015840613" flag="0"/>
      <vel value="0.0011454483" flag="0"/>
      <psa03 value="0.0037710818" flag="0"/>
      <psa10 value="0.0010412721" flag="0"/>
      <psa30 value="0.0001909388" flag="0"/>
    </comp>
    <comp name="--.HHZ">
      <acc value="0.0013535308" flag="0"/>
      <vel value="0.0007055281" flag="0"/>
      <psa03 value="0.0023295138" flag="0"/>
      <psa10 value="0.0007179183" flag="0"/>
      <psa30 value="0.0001403785" flag="0"/>
    </comp>
  </station>
  <station code="BOZZ" name="BOZZ" netid="IV" insttype="" lat="45.1071" lon="10.482">
    <comp name="--.HHE">
      <acc value="0.0374463780" flag="0"/>
      <vel value="0.0448260132" flag="0"/>
      <psa03 value="0.0643616083" flag="0"/>
      <psa10 value="0.0675957605" flag="0"/>
      <psa30 value="0.0088189904" flag="0"/>
    </comp>
    <comp name="--.HHN">
      <acc value="0.0560566317" flag="0"/>
      <vel value="0.0564353241" flag="0"/>
      <psa03 value="0.0730574681" flag="0"/>
      <psa10 value="0.0621268149" flag="0"/>
      <psa30 value="0.0106974954" flag="0"/>
    </comp>
    <comp name="--.HHZ">
      <acc value="0.0326811194" flag="0"/>
      <vel value="0.0225941602" flag="0"/>
      <psa03 value="0.0618506131" flag="0"/>
      <psa10 value="0.0168282149" flag="0"/>
      <psa30 value="0.0063527119" flag="0"/>
    </comp>
  </station>
  <station code="CAVE" name="CAVE" netid="IV" insttype="" lat="44.8658" lon="11.0031">
    <comp name="--.HHE">
      <acc value="0.0610676232" flag="0"/>
      <vel value="0.0163339318" flag="0"/>
      <psa03 value="0.0901892868" flag="0"/>
      <psa10 value="0.0231052421" flag="0"/>
      <psa30 value="0.0021123625" flag="0"/>
    </comp>
    <comp name="--.HHN">
      <acc value="0.0657307226" flag="0"/>
      <vel value="0.0195196247" flag="0"/>
      <psa03 value="0.1109130673" flag="0"/>
      <psa10 value="0.0172376317" flag="0"/>
      <psa30 value="0.0021970170" flag="0"/>
    </comp>
    <comp name="--.HHZ">
      <acc value="0.0219677997" flag="0"/>
      <vel value="0.0050498851" flag="0"/>
      <psa03 value="0.0347195818" flag="0"/>
      <psa10 value="0.0052803573" flag="0"/>
      <psa30 value="0.0007845762" flag="0"/>
    </comp>
  </station>
  <station code="CRMI" name="CRMI" netid="IV" insttype="" lat="43.7956" lon="10.9795">
    <comp name="--.HHE">
      <acc value="0.0023178196" flag="0"/>
      <vel value="0.0016442257" flag="0"/>
      <psa03 value="0.0045761715" flag="0"/>
      <psa10 value="0.0016512081" flag="0"/>
      <psa30 value="0.0005046011" flag="0"/>
    </comp>
    <comp name="--.HHN">
      <acc value="0.0038961659" flag="0"/>
      <vel value="0.0021573891" flag="0"/>
      <psa03 value="0.0125048579" flag="0"/>
      <psa10 value="0.0019388772" flag="0"/>
      <psa30 value="0.0006137792" flag="0"/>
    </comp>
    <comp name="--.HHZ">
      <acc value="0.0037353775" flag="0"/>
      <vel value="0.0016760108" flag="0"/>
      <psa03 value="0.0048509774" flag="0"/>
      <psa10 value="0.0015867362" flag="0"/>
      <psa30 value="0.0004973918" flag="0"/>
    </comp>
  </station>
  <station code="CTL8" name="CTL8" netid="IV" insttype="" lat="45.2763" lon="9.7622">
    <comp name="--.HHE">
      <acc value="0.0390277303" flag="0"/>
      <vel value="0.0209355975" flag="0"/>
      <psa03 value="0.1105828636" flag="0"/>
      <psa10 value="0.0277032063" flag="0"/>
      <psa30 value="0.0063333656" flag="0"/>
    </comp>
    <comp name="--.HHN">
      <acc value="0.0475190940" flag="0"/>
      <vel value="0.0196714583" flag="0"/>
      <psa03 value="0.1392467605" flag="0"/>
      <psa10 value="0.0240514645" flag="0"/>
      <psa30 value="0.0057030660" flag="0"/>
    </comp>
    <comp name="--.HHZ">
      <acc value="0.0123332615" flag="0"/>
      <vel value="0.0088761100" flag="0"/>
      <psa03 value="0.0384203747" flag="0"/>
      <psa10 value="0.0202635688" flag="0"/>
      <psa30 value="0.0022126830" flag="0"/>
    </comp>
  </station>
  <station code="MSSA" name="MSSA" netid="IV" insttype="" lat="44.3162" lon="9.51739">
    <comp name="--.HHN">
      <acc value="0.1233945561" flag="0"/>
      <vel value="0.0230871334" flag="0"/>
      <psa03 value="0.0585968550" flag="0"/>
      <psa10 value="0.0073938190" flag="0"/>
      <psa30 value="0.0012205522" flag="0"/>
    </comp>
    <comp name="--.HHZ">
      <acc value="0.0007267924" flag="0"/>
      <vel value="0.0001393380" flag="0"/>
      <psa03 value="0.0003414761" flag="0"/>
      <psa10 value="0.0000433733" flag="0"/>
      <psa30 value="0.0000065528" flag="0"/>
    </comp>
    <comp name="--.HHE">
      <acc value="0.0710996224" flag="0"/>
      <vel value="0.0133049904" flag="0"/>
      <psa03 value="0.0337583389" flag="0"/>
      <psa10 value="0.0042604696" flag="0"/>
      <psa30 value="0.0007033128" flag="0"/>
    </comp>
  </station>
  <station code="NEVI" name="NEVI" netid="IV" insttype="" lat="44.5834" lon="10.3163">
    <comp name="--.HNE">
      <acc value="0.5046690537" flag="0"/>
      <vel value="0.2633339402" flag="0"/>
      <psa03 value="1.3960733336" flag="0"/>
      <psa10 value="0.1394781081" flag="0"/>
      <psa30 value="0.0182810654" flag="0"/>
    </comp>
    <comp name="--.HNN">
      <acc value="0.9614549378" flag="0"/>
      <vel value="0.4189315972" flag="0"/>
      <psa03 value="2.0318575216" flag="0"/>
      <psa10 value="0.2927139094" flag="0"/>
      <psa30 value="0.0426135677" flag="0"/>
    </comp>
    <comp name="--.HNZ">
      <acc value="0.2549110593" flag="0"/>
      <vel value="0.0888418174" flag="0"/>
      <psa03 value="0.3746511822" flag="0"/>
      <psa10 value="0.0709834209" flag="0"/>
      <psa30 value="0.0076937337" flag="0"/>
    </comp>
  </station>
  <station code="OPPE" name="OPPE" netid="IV" insttype="" lat="45.3082" lon="11.1724">
    <comp name="--.HHE">
      <acc value="0.0464917461" flag="0"/>
      <vel value="0.0235062244" flag="0"/>
      <psa03 value="0.0464095529" flag="0"/>
      <psa10 value="0.0250944203" flag="0"/>
      <psa30 value="0.0023649733" flag="0"/>
    </comp>
    <comp name="--.HHN">
      <acc value="0.0492993117" flag="0"/>
      <vel value="0.0156494123" flag="0"/>
      <psa03 value="0.0552316866" flag="0"/>
      <psa10 value="0.0169278279" flag="0"/>
      <psa30 value="0.0034344924" flag="0"/>
    </comp>
    <comp name="--.HHZ">
      <acc value="0.0298485121" flag="0"/>
      <vel value="0.0066656315" flag="0"/>
      <psa03 value="0.0292330612" flag="0"/>
      <psa10 value="0.0075616408" flag="0"/>
      <psa30 value="0.0017821330" flag="0"/>
    </comp>
  </station>
  <station code="PII" name="PII" netid="IV" insttype="" lat="43.7219" lon="10.525">
    <comp name="--.HHN">
      <acc value="0.0192426298" flag="0"/>
      <vel value="0.0112762140" flag="0"/>
      <psa03 value="0.0660182551" flag="0"/>
      <psa10 value="0.0040346162" flag="0"/>
      <psa30 value="0.0007812698" flag="0"/>
    </comp>
    <comp name="--.HHE">
      <acc value="0.0200861824" flag="0"/>
      <vel value="0.0111106115" flag="0"/>
      <psa03 value="0.0620146999" flag="0"/>
      <psa10 value="0.0076231997" flag="0"/>
      <psa30 value="0.0008675488" flag="0"/>
    </comp>
    <comp name="--.HHZ">
      <acc value="0.0195703047" flag="0"/>
      <vel value="0.0074841041" flag="0"/>
      <psa03 value="0.0339656058" flag="0"/>
      <psa10 value="0.0051451628" flag="0"/>
      <psa30 value="0.0006243116" flag="0"/>
    </comp>
  </station>
  <station code="PRMA" name="PRMA" netid="IV" insttype="" lat="44.7637" lon="10.3131">
    <comp name="--.HHE">
      <acc value="0.9503356766" flag="0"/>
      <vel value="0.4864536439" flag="0"/>
      <psa03 value="1.5128899172" flag="0"/>
      <psa10 value="0.4650186663" flag="0"/>
      <psa30 value="0.0279975396" flag="0"/>
    </comp>
    <comp name="--.HHN">
      <acc value="0.8095327388" flag="0"/>
      <vel value="0.3849835025" flag="0"/>
      <psa03 value="1.7470078184" flag="0"/>
      <psa10 value="0.3551408495" flag="0"/>
      <psa30 value="0.0344179208" flag="0"/>
    </comp>
    <comp name="--.HHZ">
      <acc value="0.6409358270" flag="0"/>
      <vel value="0.1171273638" flag="0"/>
      <psa03 value="0.6504305400" flag="0"/>
      <psa10 value="0.0517864607" flag="0"/>
      <psa30 value="0.0162528679" flag="0"/>
    </comp>
  </station>
  <station code="SBPO" name="SBPO" netid="IV" insttype="" lat="45.0511" lon="10.9199">
    <comp name="--.HNE">
      <acc value="0.0732068613" flag="0"/>
      <vel value="0.0288545121" flag="0"/>
      <psa03 value="0.0757353244" flag="0"/>
      <psa10 value="0.0217740421" flag="0"/>
      <psa30 value="0.0055849045" flag="0"/>
    </comp>
    <comp name="--.HNZ">
      <acc value="0.0266958983" flag="0"/>
      <vel value="0.0081862164" flag="0"/>
      <psa03 value="0.0389769952" flag="0"/>
      <psa10 value="0.0109354072" flag="0"/>
      <psa30 value="0.0021244046" flag="0"/>
    </comp>
    <comp name="--.HNN">
      <acc value="0.1363488235" flag="0"/>
      <vel value="0.0333060504" flag="0"/>
      <psa03 value="0.0643628382" flag="0"/>
      <psa10 value="0.0444547434" flag="0"/>
      <psa30 value="0.0101490656" flag="0"/>
    </comp>
  </station>
  <station code="SEI" name="SEI" netid="IV" insttype="" lat="44.0543" lon="11.3585">
    <comp name="--.HHE">
      <acc value="0.0139995606" flag="0"/>
      <vel value="0.0092441033" flag="0"/>
      <psa03 value="0.0350823691" flag="0"/>
      <psa10 value="0.0059094696" flag="0"/>
      <psa30 value="0.0005599663" flag="0"/>
    </comp>
    <comp name="--.HHN">
      <acc value="0.0169672176" flag="0"/>
      <vel value="0.0109717805" flag="0"/>
      <psa03 value="0.0580170356" flag="0"/>
      <psa10 value="0.0084113351" flag="0"/>
      <psa30 value="0.0009245207" flag="0"/>
    </comp>
