<stationlist xmlns:esm="https://esm-db.eu/esmws/shakemap/1/" created="1782266060">
	<station code="SRN" name="SRN" netid="AC" source="Albanian Seismological Network (AC)" insttype="" lat="39.880001" lon="20.0005" esm:processing="automatic (Paolucci et al 2011)" esm:quality="best">
		<comp name="01.HNE" depth="0.0">
			<acc value="0.0794831537876494" flag="0"/>
			<vel value="0.026730859637029" flag="0"/>
			<psa03 value="0.168653849573157" flag="0"/>
			<psa10 value="0.0245016968671694" flag="0"/>
			<psa30 value="0.00529877935146031" flag="0"/>
		</comp>
		<comp name="01.HNN" depth="0.0">
			<acc value="0.076584317782939" flag="0"/>
			<vel value="0.0403521303734292" flag="0"/>
			<psa03 value="0.141939725726892" flag="0"/>
			<psa10 value="0.024013575781543" flag="0"/>
			<psa30 value="0.00354246967123018" flag="0"/>
		</comp>
		<comp name="01.HNZ" depth="0.0">
			<acc value="0.078654262392666" flag="0"/>
			<vel value="0.0349086991431503" flag="0"/>
			<psa03 value="0.213226083514907" flag="0"/>
			<psa10 value="0.0354258592893168" flag="0"/>
			<psa30 value="0.00562954292959072" flag="0"/>
		</comp>
	</station>
	<station code="LXR2" name="LXR2" netid="HI" source="ITSAK Strong Motion Network" insttype="" lat="38.206718" lon="20.436386" esm:processing="automatic (Paolucci et al 2011)" esm:quality="best">
		<comp name="--.HNE" depth="0.0">
			<acc value="0.029732704175465" flag="0"/>
			<vel value="0.0132698949897032" flag="0"/>
			<psa03 value="0.074549271856725" flag="0"/>
			<psa10 value="0.00938934606059599" flag="0"/>
			<psa30 value="0.00167491658000336" flag="0"/>
		</comp>
		<comp name="--.HNN" depth="0.0">
			<acc value="0.0267465978857841" flag="0"/>
			<vel value="0.0157644445089379" flag="0"/>
			<psa03 value="0.076181885217681" flag="0"/>
			<psa10 value="0.014637893751122" flag="0"/>
			<psa30 value="0.00259601530660681" flag="0"/>
		</comp>
		<comp name="--.HNZ" depth="0.0">
			<acc value="0.0121170406400602" flag="0"/>
			<vel value="0.00631799414348114" flag="0"/>
			<psa03 value="0.0345981148719782" flag="0"/>
			<psa10 value="0.00864385105021025" flag="0"/>
			<psa30 value="0.000675645956145363" flag="0"/>
		</comp>
	</station>
	<station code="MSL1" name="MSL1" netid="HI" source="ITSAK Strong Motion Network" insttype="" lat="38.3727" lon="21.4243" esm:processing="manual (Paolucci et al 2011)" esm:quality="good">
		<comp name="--.HNE" depth="0.0">
			<acc value="0.0189587830011722" flag="0"/>
			<vel value="0.0250889574316498" flag="0"/>
			<psa03 value="0.0527965652216672" flag="0"/>
			<psa10 value="0.0440517944651883" flag="0"/>
			<psa30 value="0.00289141466703136" flag="0"/>
		</comp>
		<comp name="--.HNN" depth="0.0">
			<acc value="0.0227544199298052" flag="0"/>
			<vel value="0.0184200837171643" flag="0"/>
			<psa03 value="0.0758270596288938" flag="0"/>
			<psa10 value="0.0332232558776506" flag="0"/>
			<psa30 value="0.00211755715276894" flag="0"/>
		</comp>
		<comp name="--.HNZ" depth="0.0">
			<acc value="0.014027141929676" flag="0"/>
			<vel value="0.00933439021088742" flag="0"/>
			<psa03 value="0.0311534101146938" flag="0"/>
			<psa10 value="0.0210271629463492" flag="0"/>
			<psa30 value="0.000947127221696844" flag="0"/>
		</comp>
	</station>
	<station code="PRE2" name="PRE2" netid="HI" source="ITSAK Strong Motion Network" insttype="" lat="38.9577" lon="20.7548" esm:processing="manual (Paolucci et al 2011)" esm:quality="good">
		<comp name="--.HNE" depth="0.0">
			<acc value="0.11172042703935" flag="0"/>
			<vel value="0.0808264544595776" flag="0"/>
			<psa03 value="0.232249052026544" flag="0"/>
			<psa10 value="0.0762064658043576" flag="0"/>
			<psa30 value="0.00709727849320187" flag="0"/>
		</comp>
		<comp name="--.HNN" depth="0.0">
			<acc value="0.0792334203711533" flag="0"/>
			<vel value="0.0485354469931941" flag="0"/>
			<psa03 value="0.250543847300278" flag="0"/>
			<psa10 value="0.042733364625682" flag="0"/>
			<psa30 value="0.00545020396593119" flag="0"/>
		</comp>
		<comp name="--.HNZ" depth="0.0">
			<acc value="0.0403730866566375" flag="0"/>
			<vel value="0.0246554459476002" flag="0"/>
			<psa03 value="0.129896052892674" flag="0"/>
			<psa10 value="0.0201249281777237" flag="0"/>
			<psa30 value="0.0015593870517391" flag="0"/>
		</comp>
	</station>
	<station code="VSK1" name="VSK1" netid="HI" source="ITSAK Strong Motion Network" insttype="" lat="38.4091" lon="20.564" esm:processing="automatic (Paolucci et al 2011)" esm:quality="best">
		<comp name="--.HNE" depth="0.0">
			<acc value="0.0147151399011202" flag="0"/>
			<vel value="0.00704955187559319" flag="0"/>
			<psa03 value="0.0537724215340253" flag="0"/>
			<psa10 value="0.00547684172013501" flag="0"/>
			<psa30 value="0.000977627992223202" flag="0"/>
		</comp>
		<comp name="--.HNN" depth="0.0">
			<acc value="0.0120499836283785" flag="0"/>
			<vel value="0.00709118831014493" flag="0"/>
			<psa03 value="0.0351821613746926" flag="0"/>
			<psa10 value="0.00663211981413893" flag="0"/>
			<psa30 value="0.000780542852966636" flag="0"/>
		</comp>
		<comp name="--.HNZ" depth="0.0">
			<acc value="0.00757359320133256" flag="0"/>
			<vel value="0.00528252088320406" flag="0"/>
			<psa03 value="0.0206557589676584" flag="0"/>
			<psa10 value="0.00588633134681311" flag="0"/>
			<psa30 value="0.000601172689323598" flag="0"/>
		</comp>
	</station>
	<station code="ARTB" name="ARTB" netid="HL" source="National Observatory of Athens Seismic Network" insttype="" lat="39.15702" lon="20.9785" esm:processing="automatic (Paolucci et al 2011)" esm:quality="best">
		<comp name="00.HNE" depth="0.0">
			<acc value="0.147979371285808" flag="0"/>
			<vel value="0.0580767720552991" flag="0"/>
			<psa03 value="0.584091609869247" flag="0"/>
			<psa10 value="0.0209440161882846" flag="0"/>
			<psa30 value="0.00249225884991743" flag="0"/>
		</comp>
		<comp name="00.HNN" depth="0.0">
			<acc value="0.0856681745990135" flag="0"/>
			<vel value="0.0320169710764351" flag="0"/>
			<psa03 value="0.213315193584678" flag="0"/>
			<psa10 value="0.0168310212225536" flag="0"/>
			<psa30 value="0.00165069101684536" flag="0"/>
		</comp>
		<comp name="00.HNZ" depth="0.0">
			<acc value="0.0771961024546607" flag="0"/>
			<vel value="0.0294780193732252" flag="0"/>
			<psa03 value="0.117814283784765" flag="0"/>
			<psa10 value="0.0138837497302817" flag="0"/>
			<psa30 value="0.00113754129402797" flag="0"/>
		</comp>
	</station>
	<station code="SMHA" name="SMHA" netid="HL" source="National Observatory of Athens Seismic Network" insttype="" lat="38.25123" lon="20.6477" esm:processing="automatic (Paolucci et al 2011)" esm:quality="best">
		<comp name="00.HNE" depth="0.0">
			<acc value="0.0293573125425872" flag="0"/>
			<vel value="0.0139136106909262" flag="0"/>
			<psa03 value="0.108682699695468" flag="0"/>
			<psa10 value="0.0142635814547693" flag="0"/>
			<psa30 value="0.000889058270747165" flag="0"/>
		</comp>
		<comp name="00.HNN" depth="0.0">
			<acc value="0.0296504080028341" flag="0"/>
			<vel value="0.0195894953692899" flag="0"/>
			<psa03 value="0.0795887671568894" flag="0"/>
			<psa10 value="0.0149609598401648" flag="0"/>
			<psa30 value="0.000894219237635893" flag="0"/>
		</comp>
		<comp name="00.HNZ" depth="0.0">
			<acc value="0.0147226684669346" flag="0"/>
			<vel value="0.00794673488062116" flag="0"/>
			<psa03 value="0.0484497824769766" flag="0"/>
			<psa10 value="0.00770333796458413" flag="0"/>
			<psa30 value="0.000637498168624992" flag="0"/>
		</comp>
	</station>
	<station code="ANX" name="ANX" netid="HP" source="University of Patras, Seismological Laboratory (PSLNET)" insttype="" lat="38.5933" lon="21.9209" esm:processing="automatic (Paolucci et al 2011)" esm:quality="best">
		<comp name="--.HNE" depth="0.0">
			<acc value="0.0101170662187303" flag="0"/>
			<vel value="0.00854417350584994" flag="0"/>
			<psa03 value="0.0230363281270153" flag="0"/>
			<psa10 value="0.0113033144141061" flag="0"/>
			<psa30 value="0.000593111478224592" flag="0"/>
		</comp>
		<comp name="--.HNN" depth="0.0">
			<acc value="0.00990451360521919" flag="0"/>
			<vel value="0.0076522241659644" flag="0"/>
			<psa03 value="0.0327885366629695" flag="0"/>
			<psa10 value="0.0101630785665772" flag="0"/>
			<psa30 value="0.00069517662495632" flag="0"/>
		</comp>
		<comp name="--.HNZ" depth="0.0">
			<acc value="0.00705343453988527" flag="0"/>
			<vel value="0.00670529838482906" flag="0"/>
			<psa03 value="0.0137480604811182" flag="0"/>
			<psa10 value="0.0123353724703873" flag="0"/>
			<psa30 value="0.000808492516994708" flag="0"/>
		</comp>
	</station>
	<station code="FSK" name="FSK" netid="HP" source="University of Patras, Seismological Laboratory (PSLNET)" insttype="" lat="38.4593" lon="20.5623" esm:processing="manual (Paolucci et al 2011)" esm:quality="good">
		<comp name="--.HNE" depth="0.0">
			<acc value="0.0345769380085272" flag="0"/>
			<vel value="0.0136821573576915" flag="0"/>
			<psa03 value="0.096799693754643" flag="0"/>
			<psa10 value="0.0087144860419318" flag="0"/>
			<psa30 value="0.000900767171404369" flag="0"/>
		</comp>
		<comp name="--.HNN" depth="0.0">
			<acc value="0.0114359469086954" flag="0"/>
			<vel value="0.00688597557740244" flag="0"/>
			<psa03 value="0.044974739772452" flag="0"/>
			<psa10 value="0.00709264985324386" flag="0"/>
			<psa30 value="0.000569449025286547" flag="0"/>
		</comp>
		<comp name="--.HNZ" depth="0.0">
			<acc value="0.0112091111600939" flag="0"/>
			<vel value="0.00663627593034201" flag="0"/>
			<psa03 value="0.0435233076846995" flag="0"/>
			<psa10 value="0.00324913531739385" flag="0"/>
			<psa30 value="0.000346671454865843" flag="0"/>
		</comp>
	</station>
	<station code="PDO" name="PDO" netid="HP" source="University of Patras, Seismological Laboratory (PSLNET)" insttype="" lat="38.5986" lon="21.1833" esm:processing="manual (Paolucci et al 2011)" esm:quality="good">
		<comp name="--.HNE" depth="0.0">
			<acc value="0.0139790406811721" flag="0"/>
			<vel value="0.00848294849206397" flag="0"/>
			<psa03 value="0.0394867303854305" flag="0"/>
			<psa10 value="0.00838909292373466" flag="0"/>
			<psa30 value="0.001915482516316" flag="0"/>
		</comp>
		<comp name="--.HNN" depth="0.0">
			<acc value="0.0171581511020387" flag="0"/>
			<vel value="0.0090358035900879" flag="0"/>
			<psa03 value="0.0365385376862999" flag="0"/>
			<psa10 value="0.00919864967789653" flag="0"/>
			<psa30 value="0.0012959954366706" flag="0"/>
		</comp>
		<comp name="--.HNZ" depth="0.0">
			<acc value="0.00831242622116693" flag="0"/>
			<vel value="0.00438473521962176" flag="0"/>
			<psa03 value="0.0217472974225574" flag="0"/>
			<psa10 value="0.00488307097948752" flag="0"/>
			<psa30 value="0.000708500997213923" flag="0"/>
		</comp>
	</station>
	<station code="PVO" name="PVO" netid="HP" source="University of Patras, Seismological Laboratory (PSLNET)" insttype="" lat="38.616" lon="21.525" esm:processing="automatic (Paolucci et al 2011)" esm:quality="best">
		<comp name="--.HNE" depth="0.0">
			<acc value="0.00690588754260082" flag="0"/>
			<vel value="0.00627315040381427" flag="0"/>
			<psa03 value="0.0191347337280344" flag="0"/>
			<psa10 value="0.00597795272878001" flag="0"/>
			<psa30 value="0.00187940387628317" flag="0"/>
		</comp>
		<comp name="--.HNN" depth="0.0">
			<acc value="0.00972175588088974" flag="0"/>
			<vel value="0.00889304154385445" flag="0"/>
			<psa03 value="0.0290829786879395" flag="0"/>
			<psa10 value="0.00718035410071982" flag="0"/>
			<psa30 value="0.00132422022309084" flag="0"/>
		</comp>
		<comp name="--.HNZ" depth="0.0">
			<acc value="0.00643674693294266" flag="0"/>
			<vel value="0.00539884510095315" flag="0"/>
			<psa03 value="0.0169199685211256" flag="0"/>
			<psa10 value="0.00830570239952169" flag="0"/>
			<psa30 value="0.00127009278324693" flag="0"/>
		</comp>
	</station>
</stationlist>
