<?xml version="1.0" encoding="UTF-8" standalone="yes"?>
<!DOCTYPE earthquake SYSTEM "stationlist.dtd">
<stationlist created="" xmlns="ch.ethz.sed.shakemap.usgs.xml">
  <station code="PRE2" name="PRE2" netid="HI" insttype="unknown" commtype="DIG" lat="38.9577" lon="20.7548">
    <comp name="--.HNN">
      <acc value="0.0791617673" flag="0"/>
      <vel value="0.0485140137" flag="0"/>
      <psa03 value="0.2541303140" flag="0"/>
      <psa10 value="0.0426220247" flag="0"/>
      <psa30 value="0.0051671956" flag="0"/>
    </comp>
    <comp name="--.HNE">
      <acc value="0.1118215332" flag="0"/>
      <vel value="0.0799293960" flag="0"/>
      <psa03 value="0.2273344413" flag="0"/>
      <psa10 value="0.0759943567" flag="0"/>
      <psa30 value="0.0065079341" flag="0"/>
    </comp>
    <comp name="--.HNZ">
      <acc value="0.0405361054" flag="0"/>
      <vel value="0.0243590225" flag="0"/>
      <psa03 value="0.1294614545" flag="0"/>
      <psa10 value="0.0200772954" flag="0"/>
      <psa30 value="0.0015746075" flag="0"/>
    </comp>
  </station>
  <station code="ARTB" name="ARTB" netid="HL" insttype="CMG-5" commtype="DIG" lat="39.157" lon="20.9785">
    <comp name="00.HNE">
      <acc value="0.1482444921" flag="0"/>
      <vel value="0.0578135446" flag="0"/>
      <psa03 value="0.5849109193" flag="0"/>
      <psa10 value="0.0209653539" flag="0"/>
      <psa30 value="0.0023524489" flag="0"/>
    </comp>
    <comp name="00.HNZ">
      <acc value="0.0788403820" flag="0"/>
      <vel value="0.0295810224" flag="0"/>
      <psa03 value="0.1178793241" flag="0"/>
      <psa10 value="0.0138564733" flag="0"/>
      <psa30 value="0.0010314246" flag="0"/>
    </comp>
    <comp name="00.HNN">
      <acc value="0.0875485925" flag="0"/>
      <vel value="0.0325962112" flag="0"/>
      <psa03 value="0.2123883958" flag="0"/>
      <psa10 value="0.0168252960" flag="0"/>
      <psa30 value="0.0015124468" flag="0"/>
    </comp>
  </station>
  <station code="JAN" name="JAN" netid="HL" insttype="CMG3EPSC60_DR24" commtype="DIG" lat="39.6562" lon="20.8487">
    <comp name="--.HHE">
      <acc value="0.5085769124" flag="0"/>
      <vel value="0.1444950151" flag="0"/>
      <psa03 value="0.5842402371" flag="0"/>
      <psa10 value="0.0502398635" flag="0"/>
      <psa30 value="0.0085622455" flag="0"/>
    </comp>
    <comp name="--.HHZ">
      <acc value="0.2426782236" flag="0"/>
      <vel value="0.0596760355" flag="0"/>
      <psa03 value="0.2256076346" flag="0"/>
      <psa10 value="0.0374864220" flag="0"/>
      <psa30 value="0.0044494424" flag="0"/>
    </comp>
    <comp name="--.HHN">
      <acc value="0.5221011998" flag="0"/>
      <vel value="0.2673657725" flag="0"/>
      <psa03 value="0.7214462527" flag="0"/>
      <psa10 value="0.1524397854" flag="0"/>
      <psa30 value="0.0115544273" flag="0"/>
    </comp>
  </station>
  <station code="KEK" name="KEK" netid="HL" insttype="120" commtype="DIG" lat="39.7127" lon="19.7962">
    <comp name="--.HHZ">
      <acc value="0.0130572148" flag="0"/>
      <vel value="0.0062485680" flag="0"/>
      <psa03 value="0.0342947920" flag="0"/>
      <psa10 value="0.0080515851" flag="0"/>
      <psa30 value="0.0009284075" flag="0"/>
    </comp>
    <comp name="--.HHN">
      <acc value="0.0153289774" flag="0"/>
      <vel value="0.0098863501" flag="0"/>
      <psa03 value="0.0397367063" flag="0"/>
      <psa10 value="0.0191571651" flag="0"/>
      <psa30 value="0.0021626818" flag="0"/>
    </comp>
    <comp name="--.HHE">
      <acc value="0.0266061821" flag="0"/>
      <vel value="0.0107357780" flag="0"/>
      <psa03 value="0.0492046980" flag="0"/>
      <psa10 value="0.0111826809" flag="0"/>
      <psa30 value="0.0010721520" flag="0"/>
    </comp>
  </station>
  <station code="PENT" name="PENT" netid="HL" insttype="Horizon,120s,1200" commtype="DIG" lat="40.1961" lon="21.1381">
    <comp name="--.HHN">
      <acc value="0.0112634012" flag="0"/>
      <vel value="0.0070668457" flag="0"/>
      <psa03 value="0.0404884467" flag="0"/>
      <psa10 value="0.0066642749" flag="0"/>
      <psa30 value="0.0008065283" flag="0"/>
    </comp>
    <comp name="--.HHE">
      <acc value="0.0132509356" flag="0"/>
      <vel value="0.0061972083" flag="0"/>
      <psa03 value="0.0292288219" flag="0"/>
      <psa10 value="0.0111282308" flag="0"/>
      <psa30 value="0.0009783818" flag="0"/>
    </comp>
    <comp name="--.HHZ">
      <acc value="0.0114078193" flag="0"/>
      <vel value="0.0058557607" flag="0"/>
      <psa03 value="0.0192625812" flag="0"/>
      <psa10 value="0.0078770408" flag="0"/>
      <psa30 value="0.0008331363" flag="0"/>
    </comp>
  </station>
  <station code="PRGA" name="PRGA" netid="HL" insttype="CMG-5" commtype="DIG" lat="39.2856" lon="20.4016">
    <comp name="00.HNE">
      <acc value="0.1212120973" flag="0"/>
      <vel value="0.0518125930" flag="0"/>
      <psa03 value="0.2974014182" flag="0"/>
      <psa10 value="0.0233869134" flag="0"/>
      <psa30 value="0.0023458301" flag="0"/>
    </comp>
    <comp name="00.HNN">
      <acc value="0.0960927032" flag="0"/>
      <vel value="0.0398189625" flag="0"/>
      <psa03 value="0.1932099703" flag="0"/>
      <psa10 value="0.0295788016" flag="0"/>
      <psa30 value="0.0039793835" flag="0"/>
    </comp>
    <comp name="00.HNZ">
      <acc value="0.0376811265" flag="0"/>
      <vel value="0.0148328212" flag="0"/>
      <psa03 value="0.0503887882" flag="0"/>
      <psa10 value="0.0126282645" flag="0"/>
      <psa30 value="0.0014951527" flag="0"/>
    </comp>
  </station>
  <station code="TETR" name="TETR" netid="HL" insttype="60" commtype="DIG" lat="39.3445" lon="21.2747">
    <comp name="--.HHE">
      <acc value="0.0971455966" flag="0"/>
      <vel value="0.0505646515" flag="0"/>
      <psa03 value="0.2917466118" flag="0"/>
      <psa10 value="0.0706654148" flag="0"/>
      <psa30 value="0.0037002447" flag="0"/>
    </comp>
    <comp name="--.HHN">
      <acc value="0.0957767654" flag="0"/>
      <vel value="0.0340644535" flag="0"/>
      <psa03 value="0.1680302892" flag="0"/>
      <psa10 value="0.0454173698" flag="0"/>
      <psa30 value="0.0033444958" flag="0"/>
    </comp>
    <comp name="--.HHZ">
      <acc value="0.0399739765" flag="0"/>
      <vel value="0.0274550008" flag="0"/>
      <psa03 value="0.1245815211" flag="0"/>
      <psa10 value="0.0296092486" flag="0"/>
      <psa30 value="0.0024342611" flag="0"/>
    </comp>
  </station>
  <station code="AMPL" name="AMPL" netid="HP" insttype="Compact," commtype="DIG" lat="38.9224" lon="21.2135">
    <comp name="--.HHE">
      <acc value="0.0260864047" flag="0"/>
      <vel value="0.0130023777" flag="0"/>
      <psa03 value="0.0602962697" flag="0"/>
      <psa10 value="0.0069351177" flag="0"/>
      <psa30 value="0.0009295182" flag="0"/>
    </comp>
    <comp name="--.HHN">
      <acc value="0.0184976973" flag="0"/>
      <vel value="0.0104056493" flag="0"/>
      <psa03 value="0.0695343436" flag="0"/>
      <psa10 value="0.0090123233" flag="0"/>
      <psa30 value="0.0008240144" flag="0"/>
    </comp>
    <comp name="--.HHZ">
      <acc value="0.0121464003" flag="0"/>
      <vel value="0.0060561770" flag="0"/>
      <psa03 value="0.0225600476" flag="0"/>
      <psa10 value="0.0083924060" flag="0"/>
      <psa30 value="0.0005151430" flag="0"/>
    </comp>
  </station>
  <station code="KSTR" name="KSTR" netid="HP" insttype="Compact," commtype="DIG" lat="39.2492" lon="20.576">
    <comp name="--.HHE">
      <acc value="0.0908728437" flag="0"/>
      <vel value="0.0425653140" flag="0"/>
      <psa03 value="0.1271136534" flag="0"/>
      <psa10 value="0.0200162338" flag="0"/>
      <psa30 value="0.0024266639" flag="0"/>
    </comp>
    <comp name="--.HHZ">
      <acc value="0.0690399979" flag="0"/>
      <vel value="0.0250057298" flag="0"/>
      <psa03 value="0.0982075496" flag="0"/>
      <psa10 value="0.0138950381" flag="0"/>
      <psa30 value="0.0017637775" flag="0"/>
    </comp>
    <comp name="--.HHN">
      <acc value="0.0732976426" flag="0"/>
      <vel value="0.0268244699" flag="0"/>
      <psa03 value="0.0890797748" flag="0"/>
      <psa10 value="0.0193125789" flag="0"/>
      <psa30 value="0.0014757118" flag="0"/>
    </comp>
  </station>
  <station code="PRMD" name="PRMD" netid="HP" insttype="120P," commtype="DIG" lat="39.5299" lon="21.0965">
    <comp name="--.HHN">
      <acc value="0.0907141011" flag="0"/>
      <vel value="0.0505557040" flag="0"/>
      <psa03 value="0.1784430069" flag="0"/>
      <psa10 value="0.0895097585" flag="0"/>
      <psa30 value="0.0042951260" flag="0"/>
    </comp>
    <comp name="--.HHE">
      <acc value="0.0804639203" flag="0"/>
      <vel value="0.0615662395" flag="0"/>
      <psa03 value="0.1309455595" flag="0"/>
      <psa10 value="0.0642239135" flag="0"/>
      <psa30 value="0.0048783229" flag="0"/>
    </comp>
    <comp name="--.HHZ">
      <acc value="0.0607069006" flag="0"/>
      <vel value="0.0208545289" flag="0"/>
      <psa03 value="0.0918141900" flag="0"/>
      <psa10 value="0.0305529940" flag="0"/>
      <psa30 value="0.0051436286" flag="0"/>
    </comp>
  </station>
  <station code="EVGI" name="EVGI" netid="HT" insttype="30" commtype="DIG" lat="38.621" lon="20.656">
    <comp name="--.HHN">
      <acc value="0.0293262741" flag="0"/>
      <vel value="0.0148357164" flag="0"/>
      <psa03 value="0.0735441890" flag="0"/>
      <psa10 value="0.0124047988" flag="0"/>
      <psa30 value="0.0009298550" flag="0"/>
    </comp>
    <comp name="--.HHE">
      <acc value="0.0278323205" flag="0"/>
      <vel value="0.0115397468" flag="0"/>
      <psa03 value="0.0413755391" flag="0"/>
      <psa10 value="0.0067246892" flag="0"/>
      <psa30 value="0.0006550245" flag="0"/>
    </comp>
    <comp name="--.HHZ">
      <acc value="0.0187313097" flag="0"/>
      <vel value="0.0070446126" flag="0"/>
      <psa03 value="0.0494138463" flag="0"/>
      <psa10 value="0.0045495850" flag="0"/>
      <psa30 value="0.0003222614" flag="0"/>
    </comp>
  </station>
  <station code="IGT" name="IGT" netid="HT" insttype="Compact," commtype="DIG" lat="39.5315" lon="20.3299">
    <comp name="--.HHE">
      <acc value="0.4397760054" flag="0"/>
      <vel value="0.1163910415" flag="0"/>
      <psa03 value="0.9660946385" flag="0"/>
      <psa10 value="0.0982089408" flag="0"/>
      <psa30 value="0.0126996892" flag="0"/>
    </comp>
    <comp name="--.HHN">
      <acc value="0.4981533390" flag="0"/>
      <vel value="0.1473818682" flag="0"/>
      <psa03 value="0.6042894161" flag="0"/>
      <psa10 value="0.0560013774" flag="0"/>
      <psa30 value="0.0084368301" flag="0"/>
    </comp>
    <comp name="--.HHZ">
      <acc value="0.3223531676" flag="0"/>
      <vel value="0.1070370377" flag="0"/>
      <psa03 value="0.3994827909" flag="0"/>
      <psa10 value="0.0575883446" flag="0"/>
      <psa30 value="0.0036989320" flag="0"/>
    </comp>
  </station>
  <station code="KPRO" name="KPRO" netid="HT" insttype="100" commtype="DIG" lat="39.9549" lon="21.3632">
    <comp name="--.HHE">
      <acc value="0.0352057628" flag="0"/>
      <vel value="0.0236308435" flag="0"/>
      <psa03 value="0.0833449363" flag="0"/>
      <psa10 value="0.0447093023" flag="0"/>
      <psa30 value="0.0040842836" flag="0"/>
    </comp>
    <comp name="--.HHN">
      <acc value="0.0272707257" flag="0"/>
      <vel value="0.0182646005" flag="0"/>
      <psa03 value="0.0700467991" flag="0"/>
      <psa10 value="0.0375361870" flag="0"/>
      <psa30 value="0.0025793883" flag="0"/>
    </comp>
    <comp name="--.HHZ">
      <acc value="0.0142071089" flag="0"/>
      <vel value="0.0099742291" flag="0"/>
      <psa03 value="0.0319487144" flag="0"/>
      <psa10 value="0.0113166980" flag="0"/>
      <psa30 value="0.0018974278" flag="0"/>
    </comp>
  </station>
  <station code="LKD2" name="LKD2" netid="HT" insttype="100" commtype="DIG" lat="38.7889" lon="20.6578">
    <comp name="--.HHN">
      <acc value="0.0229028817" flag="0"/>
      <vel value="0.0131870015" flag="0"/>
      <psa03 value="0.0817262790" flag="0"/>
      <psa10 value="0.0079397047" flag="0"/>
      <psa30 value="0.0009166279" flag="0"/>
    </comp>
    <comp name="--.HHE">
      <acc value="0.0236788941" flag="0"/>
      <vel value="0.0103905441" flag="0"/>
      <psa03 value="0.0588236828" flag="0"/>
      <psa10 value="0.0111457736" flag="0"/>
      <psa30 value="0.0012212116" flag="0"/>
    </comp>
    <comp name="--.HHZ">
      <acc value="0.0093303536" flag="0"/>
      <vel value="0.0064635417" flag="0"/>
      <psa03 value="0.0284027150" flag="0"/>
      <psa10 value="0.0058413242" flag="0"/>
      <psa30 value="0.0005658016" flag="0"/>
    </comp>
  </station>
  <station code="NEST" name="NEST" netid="HT" insttype="120P," commtype="DIG" lat="40.4147" lon="21.0489">
    <comp name="--.HHN">
      <acc value="0.0095391837" flag="0"/>
      <vel value="0.0050386448" flag="0"/>
      <psa03 value="0.0285590807" flag="0"/>
      <psa10 value="0.0082166551" flag="0"/>
      <psa30 value="0.0006001716" flag="0"/>
    </comp>
    <comp name="--.HHE">
      <acc value="0.0118881717" flag="0"/>
      <vel value="0.0053224240" flag="0"/>
      <psa03 value="0.0432514371" flag="0"/>
      <psa10 value="0.0042007548" flag="0"/>
      <psa30 value="0.0009937258" flag="0"/>
    </comp>
    <comp name="--.HHZ">
      <acc value="0.0098203807" flag="0"/>
      <vel value="0.0054037869" flag="0"/>
      <psa03 value="0.0341984464" flag="0"/>
      <psa10 value="0.0072029022" flag="0"/>
      <psa30 value="0.0005913085" flag="0"/>
    </comp>
  </station>
  <station code="NYDR" name="NYDR" netid="HT" insttype="1s-100Hz," commtype="DIG" lat="38.7135" lon="20.6983">
    <comp name="--.HHE">
      <acc value="0.0195795627" flag="0"/>
      <vel value="0.0123138568" flag="0"/>
      <psa03 value="0.0508521803" flag="0"/>
      <psa10 value="0.0108769307" flag="0"/>
      <psa30 value="0.0010122698" flag="0"/>
    </comp>
    <comp name="--.HHN">
      <acc value="0.0198457998" flag="0"/>
      <vel value="0.0112891070" flag="0"/>
      <psa03 value="0.0465295265" flag="0"/>
      <psa10 value="0.0079266399" flag="0"/>
      <psa30 value="0.0007105336" flag="0"/>
    </comp>
    <comp name="--.HHZ">
      <acc value="0.0125393363" flag="0"/>
      <vel value="0.0084999445" flag="0"/>
      <psa03 value="0.0518305439" flag="0"/>
      <psa10 value="0.0056634002" flag="0"/>
      <psa30 value="0.0005286321" flag="0"/>
    </comp>
  </station>
  <station code="TSLK" name="TSLK" netid="HT" insttype="1s-100Hz," commtype="DIG" lat="38.8249" lon="20.6554">
    <comp name="--.HHE">
      <acc value="0.0239305005" flag="0"/>
      <vel value="0.0142278010" flag="0"/>
      <psa03 value="0.0667295030" flag="0"/>
      <psa10 value="0.0090037417" flag="0"/>
      <psa30 value="0.0021240187" flag="0"/>
    </comp>
    <comp name="--.HHN">
      <acc value="0.0219479409" flag="0"/>
      <vel value="0.0177729763" flag="0"/>
      <psa03 value="0.0812108145" flag="0"/>
      <psa10 value="0.0175798094" flag="0"/>
      <psa30 value="0.0013064315" flag="0"/>
    </comp>
    <comp name="--.HHZ">
      <acc value="0.0151462637" flag="0"/>
      <vel value="0.0063446643" flag="0"/>
      <psa03 value="0.0484540747" flag="0"/>
      <psa10 value="0.0057206857" flag="0"/>
      <psa30 value="0.0009911209" flag="0"/>
    </comp>
  </station>
  <station code="KEK" name="KEK" netid="MN" insttype="" commtype="DIG" lat="39.7127" lon="19.7962">
    <comp name="--.HHN">
      <acc value="0.0153289668" flag="0"/>
      <vel value="0.0098863433" flag="0"/>
      <psa03 value="0.0397366788" flag="0"/>
      <psa10 value="0.0191571518" flag="0"/>
      <psa30 value="0.0021626803" flag="0"/>
    </comp>
    <comp name="--.HHZ">
      <acc value="0.0130572057" flag="0"/>
      <vel value="0.0062485636" flag="0"/>
      <psa03 value="0.0342947682" flag="0"/>
      <psa10 value="0.0080515795" flag="0"/>
      <psa30 value="0.0009284069" flag="0"/>
    </comp>
    <comp name="--.HHE">
      <acc value="0.0266061636" flag="0"/>
      <vel value="0.0107357706" flag="0"/>
      <psa03 value="0.0492046639" flag="0"/>
      <psa10 value="0.0111826731" flag="0"/>
      <psa30 value="0.0010721513" flag="0"/>
    </comp>
  </station>
</stationlist>
