<?xml version="1.0" encoding="UTF-8" standalone="yes"?>
<!DOCTYPE earthquake SYSTEM "stationlist.dtd">
<stationlist created="" xmlns="ch.ethz.sed.shakemap.usgs.xml">
  <station code="PRE2" name="PRE2" netid="HI" insttype="unknown" commtype="DIG" lat="38.9577" lon="20.7548">
    <comp name="--.HNN">
      <acc value="0.0791617665" flag="0"/>
      <vel value="0.0485140191" flag="0"/>
      <psa03 value="0.2541303140" flag="0"/>
      <psa10 value="0.0426220243" flag="0"/>
      <psa30 value="0.0051673366" flag="0"/>
    </comp>
    <comp name="--.HNZ">
      <acc value="0.0405361054" flag="0"/>
      <vel value="0.0243590211" flag="0"/>
      <psa03 value="0.1294614545" flag="0"/>
      <psa10 value="0.0200772953" flag="0"/>
      <psa30 value="0.0015746039" flag="0"/>
    </comp>
    <comp name="--.HNE">
      <acc value="0.1118215334" flag="0"/>
      <vel value="0.0799293960" flag="0"/>
      <psa03 value="0.2273344413" flag="0"/>
      <psa10 value="0.0759943567" flag="0"/>
      <psa30 value="0.0065079082" flag="0"/>
    </comp>
  </station>
  <station code="ARTB" name="ARTB" netid="HL" insttype="CMG-5" commtype="DIG" lat="39.157" lon="20.9785">
    <comp name="00.HNE">
      <acc value="0.1482444912" flag="0"/>
      <vel value="0.0578135439" flag="0"/>
      <psa03 value="0.5849109193" flag="0"/>
      <psa10 value="0.0209653529" flag="0"/>
      <psa30 value="0.0023524983" flag="0"/>
    </comp>
    <comp name="00.HNZ">
      <acc value="0.0788403809" flag="0"/>
      <vel value="0.0295810217" flag="0"/>
      <psa03 value="0.1178793241" flag="0"/>
      <psa10 value="0.0138564726" flag="0"/>
      <psa30 value="0.0010314936" flag="0"/>
    </comp>
    <comp name="00.HNN">
      <acc value="0.0875485929" flag="0"/>
      <vel value="0.0325962113" flag="0"/>
      <psa03 value="0.2123883958" flag="0"/>
      <psa10 value="0.0168252966" flag="0"/>
      <psa30 value="0.0015122817" flag="0"/>
    </comp>
  </station>
  <station code="JAN" name="JAN" netid="HL" insttype="CMG3EPSC60_DR24" commtype="DIG" lat="39.6562" lon="20.8487">
    <comp name="--.HHN">
      <acc value="0.5221011998" flag="0"/>
      <vel value="0.2673657724" flag="0"/>
      <psa03 value="0.7214462527" flag="0"/>
      <psa10 value="0.1524397845" flag="0"/>
      <psa30 value="0.0115544572" flag="0"/>
    </comp>
    <comp name="--.HHE">
      <acc value="0.5085769125" flag="0"/>
      <vel value="0.1444950130" flag="0"/>
      <psa03 value="0.5842402371" flag="0"/>
      <psa10 value="0.0502398634" flag="0"/>
      <psa30 value="0.0085621424" flag="0"/>
    </comp>
    <comp name="--.HHZ">
      <acc value="0.2426782236" flag="0"/>
      <vel value="0.0596760357" flag="0"/>
      <psa03 value="0.2256076346" flag="0"/>
      <psa10 value="0.0374864223" flag="0"/>
      <psa30 value="0.0044493851" flag="0"/>
    </comp>
  </station>
  <station code="KEK" name="KEK" netid="HL" insttype="120" commtype="DIG" lat="39.7127" lon="19.7962">
    <comp name="--.HHZ">
      <acc value="0.0130572146" flag="0"/>
      <vel value="0.0062485697" flag="0"/>
      <psa03 value="0.0342947920" flag="0"/>
      <psa10 value="0.0080515850" flag="0"/>
      <psa30 value="0.0009283509" flag="0"/>
    </comp>
    <comp name="--.HHN">
      <acc value="0.0153289774" flag="0"/>
      <vel value="0.0098863505" flag="0"/>
      <psa03 value="0.0397367063" flag="0"/>
      <psa10 value="0.0191571651" flag="0"/>
      <psa30 value="0.0021626328" flag="0"/>
    </comp>
    <comp name="--.HHE">
      <acc value="0.0266061819" flag="0"/>
      <vel value="0.0107357748" flag="0"/>
      <psa03 value="0.0492046980" flag="0"/>
      <psa10 value="0.0111826808" flag="0"/>
      <psa30 value="0.0010722141" flag="0"/>
    </comp>
  </station>
  <station code="PENT" name="PENT" netid="HL" insttype="Horizon,120s,1200" commtype="DIG" lat="40.1961" lon="21.1381">
    <comp name="--.HHE">
      <acc value="0.0132509354" flag="0"/>
      <vel value="0.0061972090" flag="0"/>
      <psa03 value="0.0292288219" flag="0"/>
      <psa10 value="0.0111282308" flag="0"/>
      <psa30 value="0.0009783843" flag="0"/>
    </comp>
    <comp name="--.HHZ">
      <acc value="0.0114078193" flag="0"/>
      <vel value="0.0058557608" flag="0"/>
      <psa03 value="0.0192625812" flag="0"/>
      <psa10 value="0.0078770408" flag="0"/>
      <psa30 value="0.0008331421" flag="0"/>
    </comp>
    <comp name="--.HHN">
      <acc value="0.0112634013" flag="0"/>
      <vel value="0.0070668458" flag="0"/>
      <psa03 value="0.0404884467" flag="0"/>
      <psa10 value="0.0066642749" flag="0"/>
      <psa30 value="0.0008065331" flag="0"/>
    </comp>
  </station>
  <station code="PRGA" name="PRGA" netid="HL" insttype="CMG-5" commtype="DIG" lat="39.2856" lon="20.4016">
    <comp name="00.HNN">
      <acc value="0.0960927030" flag="0"/>
      <vel value="0.0398189625" flag="0"/>
      <psa03 value="0.1932099703" flag="0"/>
      <psa10 value="0.0295788017" flag="0"/>
      <psa30 value="0.0039793976" flag="0"/>
    </comp>
    <comp name="00.HNE">
      <acc value="0.1212120974" flag="0"/>
      <vel value="0.0518125931" flag="0"/>
      <psa03 value="0.2974014182" flag="0"/>
      <psa10 value="0.0233869135" flag="0"/>
      <psa30 value="0.0023458453" flag="0"/>
    </comp>
    <comp name="00.HNZ">
      <acc value="0.0376811266" flag="0"/>
      <vel value="0.0148328215" flag="0"/>
      <psa03 value="0.0503887882" flag="0"/>
      <psa10 value="0.0126282645" flag="0"/>
      <psa30 value="0.0014951490" flag="0"/>
    </comp>
  </station>
  <station code="TETR" name="TETR" netid="HL" insttype="60" commtype="DIG" lat="39.3445" lon="21.2747">
    <comp name="--.HHN">
      <acc value="0.0957767654" flag="0"/>
      <vel value="0.0340644538" flag="0"/>
      <psa03 value="0.1680302892" flag="0"/>
      <psa10 value="0.0454173698" flag="0"/>
      <psa30 value="0.0033444732" flag="0"/>
    </comp>
    <comp name="--.HHZ">
      <acc value="0.0399739766" flag="0"/>
      <vel value="0.0274550012" flag="0"/>
      <psa03 value="0.1245815211" flag="0"/>
      <psa10 value="0.0296092486" flag="0"/>
      <psa30 value="0.0024342206" flag="0"/>
    </comp>
    <comp name="--.HHE">
      <acc value="0.0971455965" flag="0"/>
      <vel value="0.0505646493" flag="0"/>
      <psa03 value="0.2917466118" flag="0"/>
      <psa10 value="0.0706654148" flag="0"/>
      <psa30 value="0.0037002135" flag="0"/>
    </comp>
  </station>
  <station code="AMPL" name="AMPL" netid="HP" insttype="Compact," commtype="DIG" lat="38.9224" lon="21.2135">
    <comp name="--.HHZ">
      <acc value="0.0121464002" flag="0"/>
      <vel value="0.0060561779" flag="0"/>
      <psa03 value="0.0225600476" flag="0"/>
      <psa10 value="0.0083924060" flag="0"/>
      <psa30 value="0.0005151351" flag="0"/>
    </comp>
    <comp name="--.HHN">
      <acc value="0.0184976974" flag="0"/>
      <vel value="0.0104056492" flag="0"/>
      <psa03 value="0.0695343436" flag="0"/>
      <psa10 value="0.0090123233" flag="0"/>
      <psa30 value="0.0008239807" flag="0"/>
    </comp>
    <comp name="--.HHE">
      <acc value="0.0260864049" flag="0"/>
      <vel value="0.0130023777" flag="0"/>
      <psa03 value="0.0602962697" flag="0"/>
      <psa10 value="0.0069351178" flag="0"/>
      <psa30 value="0.0009295218" flag="0"/>
    </comp>
  </station>
  <station code="KSTR" name="KSTR" netid="HP" insttype="Compact," commtype="DIG" lat="39.2492" lon="20.576">
    <comp name="--.HHN">
      <acc value="0.0732976426" flag="0"/>
      <vel value="0.0268244700" flag="0"/>
      <psa03 value="0.0890797748" flag="0"/>
      <psa10 value="0.0193125789" flag="0"/>
      <psa30 value="0.0014757047" flag="0"/>
    </comp>
    <comp name="--.HHZ">
      <acc value="0.0690399979" flag="0"/>
      <vel value="0.0250057296" flag="0"/>
      <psa03 value="0.0982075496" flag="0"/>
      <psa10 value="0.0138950383" flag="0"/>
      <psa30 value="0.0017638091" flag="0"/>
    </comp>
    <comp name="--.HHE">
      <acc value="0.0908728438" flag="0"/>
      <vel value="0.0425653140" flag="0"/>
      <psa03 value="0.1271136534" flag="0"/>
      <psa10 value="0.0200162339" flag="0"/>
      <psa30 value="0.0024266529" flag="0"/>
    </comp>
  </station>
  <station code="PRMD" name="PRMD" netid="HP" insttype="120P," commtype="DIG" lat="39.5299" lon="21.0965">
    <comp name="--.HHN">
      <acc value="0.0907141011" flag="0"/>
      <vel value="0.0505557045" flag="0"/>
      <psa03 value="0.1784430069" flag="0"/>
      <psa10 value="0.0895097583" flag="0"/>
      <psa30 value="0.0042950617" flag="0"/>
    </comp>
    <comp name="--.HHE">
      <acc value="0.0804639203" flag="0"/>
      <vel value="0.0615662393" flag="0"/>
      <psa03 value="0.1309455595" flag="0"/>
      <psa10 value="0.0642239135" flag="0"/>
      <psa30 value="0.0048782942" flag="0"/>
    </comp>
    <comp name="--.HHZ">
      <acc value="0.0607069006" flag="0"/>
      <vel value="0.0208545283" flag="0"/>
      <psa03 value="0.0918141900" flag="0"/>
      <psa10 value="0.0305529940" flag="0"/>
      <psa30 value="0.0051436229" flag="0"/>
    </comp>
  </station>
  <station code="EVGI" name="EVGI" netid="HT" insttype="30" commtype="DIG" lat="38.621" lon="20.656">
    <comp name="--.HHZ">
      <acc value="0.0187313100" flag="0"/>
      <vel value="0.0070446112" flag="0"/>
      <psa03 value="0.0494138463" flag="0"/>
      <psa10 value="0.0045495850" flag="0"/>
      <psa30 value="0.0003223023" flag="0"/>
    </comp>
    <comp name="--.HHN">
      <acc value="0.0293262743" flag="0"/>
      <vel value="0.0148357281" flag="0"/>
      <psa03 value="0.0735441890" flag="0"/>
      <psa10 value="0.0124047989" flag="0"/>
      <psa30 value="0.0009296455" flag="0"/>
    </comp>
    <comp name="--.HHE">
      <acc value="0.0278323202" flag="0"/>
      <vel value="0.0115397397" flag="0"/>
      <psa03 value="0.0413755391" flag="0"/>
      <psa10 value="0.0067246892" flag="0"/>
      <psa30 value="0.0006550525" flag="0"/>
    </comp>
  </station>
  <station code="IGT" name="IGT" netid="HT" insttype="Compact," commtype="DIG" lat="39.5315" lon="20.3299">
    <comp name="--.HHZ">
      <acc value="0.3223531673" flag="0"/>
      <vel value="0.1070370403" flag="0"/>
      <psa03 value="0.3994827909" flag="0"/>
      <psa10 value="0.0575883462" flag="0"/>
      <psa30 value="0.0036990487" flag="0"/>
    </comp>
    <comp name="--.HHE">
      <acc value="0.4397760053" flag="0"/>
      <vel value="0.1163910333" flag="0"/>
      <psa03 value="0.9660946385" flag="0"/>
      <psa10 value="0.0982089386" flag="0"/>
      <psa30 value="0.0126987427" flag="0"/>
    </comp>
    <comp name="--.HHN">
      <acc value="0.4981533390" flag="0"/>
      <vel value="0.1473818690" flag="0"/>
      <psa03 value="0.6042894161" flag="0"/>
      <psa10 value="0.0560013764" flag="0"/>
      <psa30 value="0.0084371452" flag="0"/>
    </comp>
  </station>
  <station code="KPRO" name="KPRO" netid="HT" insttype="100" commtype="DIG" lat="39.9549" lon="21.3632">
    <comp name="--.HHE">
      <acc value="0.0352057628" flag="0"/>
      <vel value="0.0236308439" flag="0"/>
      <psa03 value="0.0833449363" flag="0"/>
      <psa10 value="0.0447093023" flag="0"/>
      <psa30 value="0.0040842844" flag="0"/>
    </comp>
    <comp name="--.HHN">
      <acc value="0.0272707257" flag="0"/>
      <vel value="0.0182646006" flag="0"/>
      <psa03 value="0.0700467991" flag="0"/>
      <psa10 value="0.0375361870" flag="0"/>
      <psa30 value="0.0025793893" flag="0"/>
    </comp>
    <comp name="--.HHZ">
      <acc value="0.0142071089" flag="0"/>
      <vel value="0.0099742293" flag="0"/>
      <psa03 value="0.0319487144" flag="0"/>
      <psa10 value="0.0113166980" flag="0"/>
      <psa30 value="0.0018974303" flag="0"/>
    </comp>
  </station>
  <station code="LKD2" name="LKD2" netid="HT" insttype="100" commtype="DIG" lat="38.7889" lon="20.6578">
    <comp name="--.HHE">
      <acc value="0.0236788941" flag="0"/>
      <vel value="0.0103905432" flag="0"/>
      <psa03 value="0.0588236828" flag="0"/>
      <psa10 value="0.0111457736" flag="0"/>
      <psa30 value="0.0012212356" flag="0"/>
    </comp>
    <comp name="--.HHN">
      <acc value="0.0229028816" flag="0"/>
      <vel value="0.0131870025" flag="0"/>
      <psa03 value="0.0817262790" flag="0"/>
      <psa10 value="0.0079397047" flag="0"/>
      <psa30 value="0.0009166212" flag="0"/>
    </comp>
    <comp name="--.HHZ">
      <acc value="0.0093303535" flag="0"/>
      <vel value="0.0064635408" flag="0"/>
      <psa03 value="0.0284027150" flag="0"/>
      <psa10 value="0.0058413242" flag="0"/>
      <psa30 value="0.0005638993" flag="0"/>
    </comp>
  </station>
  <station code="NEST" name="NEST" netid="HT" insttype="120P," commtype="DIG" lat="40.4147" lon="21.0489">
    <comp name="--.HHE">
      <acc value="0.0118881717" flag="0"/>
      <vel value="0.0053224221" flag="0"/>
      <psa03 value="0.0432514371" flag="0"/>
      <psa10 value="0.0042007548" flag="0"/>
      <psa30 value="0.0009937439" flag="0"/>
    </comp>
    <comp name="--.HHZ">
      <acc value="0.0098203806" flag="0"/>
      <vel value="0.0054037871" flag="0"/>
      <psa03 value="0.0341984464" flag="0"/>
      <psa10 value="0.0072029022" flag="0"/>
      <psa30 value="0.0005913193" flag="0"/>
    </comp>
    <comp name="--.HHN">
      <acc value="0.0095391837" flag="0"/>
      <vel value="0.0050386443" flag="0"/>
      <psa03 value="0.0285590807" flag="0"/>
      <psa10 value="0.0082166551" flag="0"/>
      <psa30 value="0.0006001717" flag="0"/>
    </comp>
  </station>
  <station code="NYDR" name="NYDR" netid="HT" insttype="1s-100Hz," commtype="DIG" lat="38.7135" lon="20.6983">
    <comp name="--.HHE">
      <acc value="0.0195795628" flag="0"/>
      <vel value="0.0123138345" flag="0"/>
      <psa03 value="0.0508521803" flag="0"/>
      <psa10 value="0.0108769307" flag="0"/>
      <psa30 value="0.0010122712" flag="0"/>
    </comp>
    <comp name="--.HHN">
      <acc value="0.0198457998" flag="0"/>
      <vel value="0.0112890795" flag="0"/>
      <psa03 value="0.0465295266" flag="0"/>
      <psa10 value="0.0079266400" flag="0"/>
      <psa30 value="0.0007104618" flag="0"/>
    </comp>
    <comp name="--.HHZ">
      <acc value="0.0125393361" flag="0"/>
      <vel value="0.0085000304" flag="0"/>
      <psa03 value="0.0518305441" flag="0"/>
      <psa10 value="0.0056634003" flag="0"/>
      <psa30 value="0.0005286389" flag="0"/>
    </comp>
  </station>
  <station code="TSLK" name="TSLK" netid="HT" insttype="1s-100Hz," commtype="DIG" lat="38.8249" lon="20.6554">
    <comp name="--.HHE">
      <acc value="0.0239305025" flag="0"/>
      <vel value="0.0142286385" flag="0"/>
      <psa03 value="0.0667295010" flag="0"/>
      <psa10 value="0.0090037396" flag="0"/>
      <psa30 value="0.0021240097" flag="0"/>
    </comp>
    <comp name="--.HHZ">
      <acc value="0.0151462638" flag="0"/>
      <vel value="0.0063446973" flag="0"/>
      <psa03 value="0.0484540747" flag="0"/>
      <psa10 value="0.0057206856" flag="0"/>
      <psa30 value="0.0009910996" flag="0"/>
    </comp>
    <comp name="--.HHN">
      <acc value="0.0219479399" flag="0"/>
      <vel value="0.0177726903" flag="0"/>
      <psa03 value="0.0812108135" flag="0"/>
      <psa10 value="0.0175798084" flag="0"/>
      <psa30 value="0.0013063278" flag="0"/>
    </comp>
  </station>
  <station code="KEK" name="KEK" netid="MN" insttype="" commtype="DIG" lat="39.7127" lon="19.7962">
    <comp name="--.HHE">
      <acc value="0.0266061635" flag="0"/>
      <vel value="0.0107357674" flag="0"/>
      <psa03 value="0.0492046639" flag="0"/>
      <psa10 value="0.0111826730" flag="0"/>
      <psa30 value="0.0010722134" flag="0"/>
    </comp>
    <comp name="--.HHZ">
      <acc value="0.0130572055" flag="0"/>
      <vel value="0.0062485654" flag="0"/>
      <psa03 value="0.0342947682" flag="0"/>
      <psa10 value="0.0080515795" flag="0"/>
      <psa30 value="0.0009283502" flag="0"/>
    </comp>
    <comp name="--.HHN">
      <acc value="0.0153289668" flag="0"/>
      <vel value="0.0098863437" flag="0"/>
      <psa03 value="0.0397366788" flag="0"/>
      <psa10 value="0.0191571518" flag="0"/>
      <psa30 value="0.0021626313" flag="0"/>
    </comp>
  </station>
</stationlist>
