<?xml version="1.0" encoding="UTF-8" standalone="yes"?>
<!DOCTYPE earthquake SYSTEM "stationlist.dtd">
<stationlist created="" xmlns="ch.ethz.sed.shakemap.usgs.xml">
  <station code="BNN" name="BNN" netid="KO" insttype="CMG-3T" lat="38.8521" lon="35.8472">
    <comp name="--.HHE">
      <acc value="0.0199393448" flag="0"/>
      <vel value="0.0312700356" flag="0"/>
      <psa03 value="0.0455026256" flag="0"/>
      <psa10 value="0.0582699140" flag="0"/>
      <psa30 value="0.0033281861" flag="0"/>
    </comp>
    <comp name="--.HHZ">
      <acc value="0.0093292595" flag="0"/>
      <vel value="0.0156264224" flag="0"/>
      <psa03 value="0.0253444241" flag="0"/>
      <psa10 value="0.0219674227" flag="0"/>
      <psa30 value="0.0014279717" flag="0"/>
    </comp>
    <comp name="--.HHN">
      <acc value="0.0135917543" flag="0"/>
      <vel value="0.0191292073" flag="0"/>
      <psa03 value="0.0338960857" flag="0"/>
      <psa10 value="0.0263815368" flag="0"/>
      <psa30 value="0.0026062153" flag="0"/>
    </comp>
  </station>
</stationlist>
