<?xml version="1.0" encoding="UTF-8" standalone="yes"?>
<!DOCTYPE earthquake SYSTEM "stationlist.dtd">
<stationlist created="" xmlns="ch.ethz.sed.shakemap.usgs.xml">
  <station code="GAZ" name="GAZ" netid="KO" insttype="CMG-3T" lat="37.1721" lon="37.2096">
    <comp name="--.HHE">
      <acc value="0.0412939852" flag="0"/>
      <vel value="0.0255508765" flag="0"/>
      <psa03 value="0.1511223438" flag="0"/>
      <psa10 value="0.0286828120" flag="0"/>
      <psa30 value="0.0024935359" flag="0"/>
    </comp>
    <comp name="--.HHZ">
      <acc value="0.0262770307" flag="0"/>
      <vel value="0.0164130161" flag="0"/>
      <psa03 value="0.0671808781" flag="0"/>
      <psa10 value="0.0093997584" flag="0"/>
      <psa30 value="0.0019413346" flag="0"/>
    </comp>
  </station>
  <station code="ANDN" name="ANDN" netid="TU" insttype="T" lat="37.58" lon="36.3452">
    <comp name="--.HHE">
      <acc value="0.0653879752" flag="0"/>
      <vel value="0.0397621259" flag="0"/>
      <psa03 value="0.2477419869" flag="0"/>
      <psa10 value="0.0396021708" flag="0"/>
      <psa30 value="0.0063716075" flag="0"/>
    </comp>
    <comp name="--.HHN">
      <acc value="0.0852333265" flag="0"/>
      <vel value="0.0428932349" flag="0"/>
      <psa03 value="0.2637899623" flag="0"/>
      <psa10 value="0.0454047915" flag="0"/>
      <psa30 value="0.0076181726" flag="0"/>
    </comp>
    <comp name="--.HHZ">
      <acc value="0.0547009420" flag="0"/>
      <vel value="0.0380770959" flag="0"/>
      <psa03 value="0.2695121407" flag="0"/>
      <psa10 value="0.0467841098" flag="0"/>
      <psa30 value="0.0035310272" flag="0"/>
    </comp>
  </station>
</stationlist>
