<?xml version="1.0" encoding="UTF-8" standalone="yes"?>
<!DOCTYPE earthquake SYSTEM "stationlist.dtd">
<stationlist created="" xmlns="ch.ethz.sed.shakemap.usgs.xml">
  <station code="KRL1" name="KRL1" netid="HI" insttype="CMG-5TD,ACCELEROMETER,GURALP" lat="37.7951" lon="26.7065">
    <comp name="--.HNE">
      <acc value="0.1182221398" flag="0"/>
      <vel value="0.0339788185" flag="0"/>
      <psa03 value="0.2355030746" flag="0"/>
      <psa10 value="0.0254704650" flag="0"/>
      <psa30 value="0.0026181210" flag="0"/>
    </comp>
    <comp name="--.HNN">
      <acc value="0.0564677584" flag="0"/>
      <vel value="0.0425501017" flag="0"/>
      <psa03 value="0.1249656789" flag="0"/>
      <psa10 value="0.0528675491" flag="0"/>
      <psa30 value="0.0038298375" flag="0"/>
    </comp>
    <comp name="--.HNZ">
      <acc value="0.0501140014" flag="0"/>
      <vel value="0.0224970358" flag="0"/>
      <psa03 value="0.1106166373" flag="0"/>
      <psa10 value="0.0277041030" flag="0"/>
      <psa30 value="0.0015612091" flag="0"/>
    </comp>
  </station>
  <station code="EAG2" name="EAG2" netid="HL" insttype="SMART24" lat="38.5438" lon="26.1079">
    <comp name="--.HHE">
      <acc value="0.8245643667" flag="0"/>
      <vel value="0.3655919095" flag="0"/>
      <psa03 value="2.1522948915" flag="0"/>
      <psa10 value="0.1535083780" flag="0"/>
      <psa30 value="0.0098031446" flag="0"/>
    </comp>
    <comp name="--.HHZ">
      <acc value="0.3056906928" flag="0"/>
      <vel value="0.0888389160" flag="0"/>
      <psa03 value="0.5724913322" flag="0"/>
      <psa10 value="0.0353809215" flag="0"/>
      <psa30 value="0.0022662246" flag="0"/>
    </comp>
    <comp name="--.HHN">
      <acc value="0.6354211079" flag="0"/>
      <vel value="0.2356404613" flag="0"/>
      <psa03 value="2.3985072998" flag="0"/>
      <psa10 value="0.1125550103" flag="0"/>
      <psa30 value="0.0068122993" flag="0"/>
    </comp>
  </station>
  <station code="PRK" name="PRK" netid="HL" insttype="120" lat="39.2456" lon="26.265">
    <comp name="--.HHN">
      <acc value="0.2129041839" flag="0"/>
      <vel value="0.1324507165" flag="0"/>
      <psa03 value="0.6255979725" flag="0"/>
      <psa10 value="0.0830710819" flag="0"/>
      <psa30 value="0.0057132759" flag="0"/>
    </comp>
    <comp name="--.HHE">
      <acc value="0.1146902230" flag="0"/>
      <vel value="0.0732301532" flag="0"/>
      <psa03 value="0.5376748754" flag="0"/>
      <psa10 value="0.0695699417" flag="0"/>
      <psa30 value="0.0045265035" flag="0"/>
    </comp>
    <comp name="--.HHZ">
      <acc value="0.1266132165" flag="0"/>
      <vel value="0.0736161272" flag="0"/>
      <psa03 value="0.3441190380" flag="0"/>
      <psa10 value="0.0281858140" flag="0"/>
      <psa30 value="0.0043230909" flag="0"/>
    </comp>
  </station>
  <station code="CHOS" name="CHOS" netid="HT" insttype="100" lat="38.3869" lon="26.0506">
    <comp name="--.HHZ">
      <acc value="0.0519273126" flag="0"/>
      <vel value="0.0182725919" flag="0"/>
      <psa03 value="0.1006994390" flag="0"/>
      <psa10 value="0.0191755673" flag="0"/>
      <psa30 value="0.0024656852" flag="0"/>
    </comp>
    <comp name="--.HHE">
      <acc value="0.1477494405" flag="0"/>
      <vel value="0.0680774409" flag="0"/>
      <psa03 value="0.3361145196" flag="0"/>
      <psa10 value="0.0277717838" flag="0"/>
      <psa30 value="0.0042408911" flag="0"/>
    </comp>
    <comp name="--.HHN">
      <acc value="0.1163500463" flag="0"/>
      <vel value="0.0332031315" flag="0"/>
      <psa03 value="0.2471119924" flag="0"/>
      <psa10 value="0.0213555440" flag="0"/>
      <psa30 value="0.0021790805" flag="0"/>
    </comp>
  </station>
  <station code="CESE" name="CESE" netid="KO" insttype="100" lat="38.3306" lon="26.2997">
    <comp name="--.HNZ">
      <acc value="0.9425571985" flag="0"/>
      <vel value="0.2819346007" flag="0"/>
      <psa03 value="1.8172115599" flag="0"/>
      <psa10 value="0.3459813250" flag="0"/>
      <psa30 value="0.0352755724" flag="0"/>
    </comp>
    <comp name="--.HNN">
      <acc value="3.4337047775" flag="0"/>
      <vel value="1.3992590332" flag="0"/>
      <psa03 value="6.3708198385" flag="0"/>
      <psa10 value="0.5144058907" flag="0"/>
      <psa30 value="0.0560615780" flag="0"/>
    </comp>
    <comp name="--.HNE">
      <acc value="1.5050859184" flag="0"/>
      <vel value="0.8714126280" flag="0"/>
      <psa03 value="2.7436276279" flag="0"/>
      <psa10 value="0.3465278653" flag="0"/>
      <psa30 value="0.0219045768" flag="0"/>
    </comp>
  </station>
  <station code="FOCM" name="FOCM" netid="KO" insttype="100" lat="38.7131" lon="26.7309">
    <comp name="--.HNN">
      <acc value="1.7671783844" flag="0"/>
      <vel value="0.4299335574" flag="0"/>
      <psa03 value="3.1003737062" flag="0"/>
      <psa10 value="0.3070834544" flag="0"/>
      <psa30 value="0.0161158123" flag="0"/>
    </comp>
    <comp name="--.HNE">
      <acc value="1.5908671776" flag="0"/>
      <vel value="0.4198643045" flag="0"/>
      <psa03 value="2.1587012485" flag="0"/>
      <psa10 value="0.1956268190" flag="0"/>
      <psa30 value="0.0131480998" flag="0"/>
    </comp>
    <comp name="--.HNZ">
      <acc value="0.9766195477" flag="0"/>
      <vel value="0.3136943670" flag="0"/>
      <psa03 value="2.1620418858" flag="0"/>
      <psa10 value="0.1319166936" flag="0"/>
      <psa30 value="0.0114261613" flag="0"/>
    </comp>
  </station>
  <station code="GMLD" name="GMLD" netid="KO" insttype="100" lat="38.0764" lon="26.8747">
    <comp name="--.HNN">
      <acc value="3.3127576036" flag="0"/>
      <vel value="1.0035443179" flag="0"/>
      <psa03 value="3.3937788158" flag="0"/>
      <psa10 value="0.5676758698" flag="0"/>
      <psa30 value="0.0338836811" flag="0"/>
    </comp>
    <comp name="--.HNE">
      <acc value="1.4195689240" flag="0"/>
      <vel value="0.5447580550" flag="0"/>
      <psa03 value="2.3324367613" flag="0"/>
      <psa10 value="0.5655072856" flag="0"/>
      <psa30 value="0.0303939262" flag="0"/>
    </comp>
    <comp name="--.HNZ">
      <acc value="1.5787253419" flag="0"/>
      <vel value="0.4633236870" flag="0"/>
      <psa03 value="2.2220859380" flag="0"/>
      <psa10 value="0.2645148257" flag="0"/>
      <psa30 value="0.0239185984" flag="0"/>
    </comp>
  </station>
  <station code="KRBN" name="KRBN" netid="KO" insttype="100" lat="38.5936" lon="26.5537">
    <comp name="--.HNZ">
      <acc value="3.6306628503" flag="0"/>
      <vel value="2.0435272102" flag="0"/>
      <psa03 value="7.7942193284" flag="0"/>
      <psa10 value="0.9669883357" flag="0"/>
      <psa30 value="0.0624058135" flag="0"/>
    </comp>
    <comp name="--.HNN">
      <acc value="11.7054893981" flag="0"/>
      <vel value="3.7410583693" flag="0"/>
      <psa03 value="13.4588370573" flag="0"/>
      <psa10 value="0.9356867219" flag="0"/>
      <psa30 value="0.0770322230" flag="0"/>
    </comp>
    <comp name="--.HNE">
      <acc value="13.6027010454" flag="0"/>
      <vel value="4.5713835656" flag="0"/>
      <psa03 value="23.6029510084" flag="0"/>
      <psa10 value="1.3327399010" flag="0"/>
      <psa30 value="0.1759172149" flag="0"/>
    </comp>
  </station>
</stationlist>
