<stationlist created="1778069724">
	<station code="KRL1" name="KRL1" netid="HI" source="ITSAK Strong Motion Network" insttype="" lat="37.7951" lon="26.7065">
		<comp name="--.HNE" depth="0.0">
			<acc value="0.11718976823969" flag="0"/>
			<vel value="0.0340378283514141" flag="0"/>
			<psa03 value="0.241249978085721" flag="0"/>
			<psa10 value="0.0254332599300904" flag="0"/>
			<psa30 value="0.00284291980852499" flag="0"/>
		</comp>
		<comp name="--.HNN" depth="0.0">
			<acc value="0.0564580191587925" flag="0"/>
			<vel value="0.0434411224387921" flag="0"/>
			<psa03 value="0.124830756464978" flag="0"/>
			<psa10 value="0.0529765623242985" flag="0"/>
			<psa30 value="0.00385498852223029" flag="0"/>
		</comp>
		<comp name="--.HNZ" depth="0.0">
			<acc value="0.0500413900477265" flag="0"/>
			<vel value="0.0224865401289492" flag="0"/>
			<psa03 value="0.113287267157464" flag="0"/>
			<psa10 value="0.0277849103099468" flag="0"/>
			<psa30 value="0.00177984497927485" flag="0"/>
		</comp>
	</station>
	<station code="PRK" name="PRK" netid="HL" source="National Observatory of Athens Seismic Network" insttype="" lat="39.24565" lon="26.26499">
		<comp name="--.HNE" depth="0.0">
			<acc value="0.122239069719344" flag="0"/>
			<vel value="0.0673069572433646" flag="0"/>
			<psa03 value="0.53900936313032" flag="0"/>
			<psa10 value="0.0737830306679934" flag="0"/>
			<psa30 value="0.0045408865496884" flag="0"/>
		</comp>
		<comp name="--.HNN" depth="0.0">
			<acc value="0.264970398583953" flag="0"/>
			<vel value="0.154115748330122" flag="0"/>
			<psa03 value="0.745136709020698" flag="0"/>
			<psa10 value="0.093188173100404" flag="0"/>
			<psa30 value="0.00711445827437139" flag="0"/>
		</comp>
		<comp name="--.HNZ" depth="0.0">
			<acc value="0.125436651686906" flag="0"/>
			<vel value="0.0729979727512456" flag="0"/>
			<psa03 value="0.346304679225423" flag="0"/>
			<psa10 value="0.0286144308206495" flag="0"/>
			<psa30 value="0.00456504734126227" flag="0"/>
		</comp>
	</station>
	<station code="BIGA" name="BIGA" netid="KO" source="Bogazici University Kandilli Observatory And Earthquake Research Institute (KOERI)" insttype="" lat="40.28134" lon="27.15048">
		<comp name="--.HNE" depth="0.0">
			<acc value="0.0642998522304052" flag="0"/>
			<vel value="0.0360200395886586" flag="0"/>
			<psa03 value="0.202995391427099" flag="0"/>
			<psa10 value="0.0262023784618585" flag="0"/>
			<psa30 value="0.00472790897335278" flag="0"/>
		</comp>
		<comp name="--.HNN" depth="0.0">
			<acc value="0.0927364287884562" flag="0"/>
			<vel value="0.0628841125700753" flag="0"/>
			<psa03 value="0.3526133303586" flag="0"/>
			<psa10 value="0.0669455266525891" flag="0"/>
			<psa30 value="0.00398026670076145" flag="0"/>
		</comp>
		<comp name="--.HNZ" depth="0.0">
			<acc value="0.0358625342471999" flag="0"/>
			<vel value="0.0189625633464705" flag="0"/>
			<psa03 value="0.100983160337439" flag="0"/>
			<psa10 value="0.0239634784426802" flag="0"/>
			<psa30 value="0.00285097340571628" flag="0"/>
		</comp>
	</station>
	<station code="CANM" name="CANM" netid="KO" source="Bogazici University Kandilli Observatory And Earthquake Research Institute (KOERI)" insttype="" lat="40.0113" lon="27.0529">
		<comp name="--.HNE" depth="0.0">
			<acc value="0.131060475014033" flag="0"/>
			<vel value="0.0799198480548462" flag="0"/>
			<psa03 value="0.518070010432969" flag="0"/>
			<psa10 value="0.0794004147089174" flag="0"/>
			<psa30 value="0.00535877408667041" flag="0"/>
		</comp>
		<comp name="--.HNN" depth="0.0">
			<acc value="0.280583622946799" flag="0"/>
			<vel value="0.220213141063409" flag="0"/>
			<psa03 value="0.80204879583914" flag="0"/>
			<psa10 value="0.200671481215346" flag="0"/>
			<psa30 value="0.0105421587233972" flag="0"/>
		</comp>
		<comp name="--.HNZ" depth="0.0">
			<acc value="0.134370806959997" flag="0"/>
			<vel value="0.0819605397001462" flag="0"/>
			<psa03 value="0.511671874886556" flag="0"/>
			<psa10 value="0.0610744543001395" flag="0"/>
			<psa30 value="0.00428496112783189" flag="0"/>
		</comp>
	</station>
	<station code="CESE" name="CESE" netid="KO" source="Bogazici University Kandilli Observatory And Earthquake Research Institute (KOERI)" insttype="" lat="38.3306" lon="26.2997">
		<comp name="--.HNE" depth="0.0">
			<acc value="1.45430181725714" flag="0"/>
			<vel value="0.875272430165521" flag="0"/>
			<psa03 value="2.76940836305117" flag="0"/>
			<psa10 value="0.347798621504407" flag="0"/>
			<psa30 value="0.0217465021047448" flag="0"/>
		</comp>
		<comp name="--.HNN" depth="0.0">
			<acc value="3.38449288386795" flag="0"/>
			<vel value="1.40077066446382" flag="0"/>
			<psa03 value="6.43558477335236" flag="0"/>
			<psa10 value="0.516259740753193" flag="0"/>
			<psa30 value="0.0558915170854789" flag="0"/>
		</comp>
		<comp name="--.HNZ" depth="0.0">
			<acc value="0.922195268281929" flag="0"/>
			<vel value="0.281108393124969" flag="0"/>
			<psa03 value="1.81062761742822" flag="0"/>
			<psa10 value="0.346361054405762" flag="0"/>
			<psa30 value="0.0383234896568145" flag="0"/>
		</comp>
	</station>
	<station code="EZNE" name="EZNE" netid="KO" source="Bogazici University Kandilli Observatory And Earthquake Research Institute (KOERI)" insttype="" lat="39.756" lon="26.3655">
		<comp name="--.HNE" depth="0.0">
			<acc value="0.140644193691126" flag="0"/>
			<vel value="0.0731729213284715" flag="0"/>
			<psa03 value="0.4478694882489" flag="0"/>
			<psa10 value="0.040795496572474" flag="0"/>
			<psa30 value="0.00359011465905012" flag="0"/>
		</comp>
		<comp name="--.HNN" depth="0.0">
			<acc value="0.134144087879023" flag="0"/>
			<vel value="0.0661446118670415" flag="0"/>
			<psa03 value="0.479770681567728" flag="0"/>
			<psa10 value="0.0746810067548221" flag="0"/>
			<psa30 value="0.0059542928567596" flag="0"/>
		</comp>
		<comp name="--.HNZ" depth="0.0">
			<acc value="0.0697695504534036" flag="0"/>
			<vel value="0.0368497313254536" flag="0"/>
			<psa03 value="0.231048754976755" flag="0"/>
			<psa10 value="0.0351901929273369" flag="0"/>
			<psa30 value="0.0047610182062503" flag="0"/>
		</comp>
	</station>
	<station code="FOCM" name="FOCM" netid="KO" source="Bogazici University Kandilli Observatory And Earthquake Research Institute (KOERI)" insttype="" lat="38.7131" lon="26.7309">
		<comp name="--.HNE" depth="0.0">
			<acc value="1.61161025869187" flag="0"/>
			<vel value="0.427631532426365" flag="0"/>
			<psa03 value="2.13348738038567" flag="0"/>
			<psa10 value="0.196080930816311" flag="0"/>
			<psa30 value="0.0138025233196707" flag="0"/>
		</comp>
		<comp name="--.HNN" depth="0.0">
			<acc value="1.75455466881323" flag="0"/>
			<vel value="0.434864679410689" flag="0"/>
			<psa03 value="3.14296104610712" flag="0"/>
			<psa10 value="0.307578957131111" flag="0"/>
			<psa30 value="0.0166606554784458" flag="0"/>
		</comp>
		<comp name="--.HNZ" depth="0.0">
			<acc value="0.997628532622236" flag="0"/>
			<vel value="0.315320628704724" flag="0"/>
			<psa03 value="2.15424776425655" flag="0"/>
			<psa10 value="0.132320601852877" flag="0"/>
			<psa30 value="0.0112768257560692" flag="0"/>
		</comp>
	</station>
	<station code="GMLD" name="GMLD" netid="KO" source="Bogazici University Kandilli Observatory And Earthquake Research Institute (KOERI)" insttype="" lat="38.0766" lon="26.9157">
		<comp name="--.HNE" depth="0.0">
			<acc value="1.42193441073887" flag="0"/>
			<vel value="0.544346031545043" flag="0"/>
			<psa03 value="2.33080051157225" flag="0"/>
			<psa10 value="0.566526267622623" flag="0"/>
			<psa30 value="0.0319835189790054" flag="0"/>
		</comp>
		<comp name="--.HNN" depth="0.0">
			<acc value="3.33008589298375" flag="0"/>
			<vel value="1.02112610516372" flag="0"/>
			<psa03 value="3.40846130017994" flag="0"/>
			<psa10 value="0.566989349461122" flag="0"/>
			<psa30 value="0.0345127959191363" flag="0"/>
		</comp>
		<comp name="--.HNZ" depth="0.0">
			<acc value="1.53475175115767" flag="0"/>
			<vel value="0.471801504483078" flag="0"/>
			<psa03 value="2.23948166786436" flag="0"/>
			<psa10 value="0.265519045799604" flag="0"/>
			<psa30 value="0.0247652587852796" flag="0"/>
		</comp>
	</station>
	<station code="GONE" name="GONE" netid="KO" source="Bogazici University Kandilli Observatory And Earthquake Research Institute (KOERI)" insttype="" lat="40.0466" lon="27.686">
		<comp name="--.HNE" depth="0.0">
			<acc value="0.0745845134424823" flag="0"/>
			<vel value="0.0589449378977786" flag="0"/>
			<psa03 value="0.141967021599776" flag="0"/>
			<psa10 value="0.0718944621266361" flag="0"/>
			<psa30 value="0.00999988317918373" flag="0"/>
		</comp>
		<comp name="--.HNN" depth="0.0">
			<acc value="0.104691079036377" flag="0"/>
			<vel value="0.0686823625403515" flag="0"/>
			<psa03 value="0.38236689775975" flag="0"/>
			<psa10 value="0.0564879306997005" flag="0"/>
			<psa30 value="0.00974798455592287" flag="0"/>
		</comp>
		<comp name="--.HNZ" depth="0.0">
			<acc value="0.041713236864831" flag="0"/>
			<vel value="0.0274125010581376" flag="0"/>
			<psa03 value="0.103891403767627" flag="0"/>
			<psa10 value="0.030941920408932" flag="0"/>
			<psa30 value="0.00588673212476601" flag="0"/>
		</comp>
	</station>
	<station code="GORD" name="GORD" netid="KO" source="Bogazici University Kandilli Observatory And Earthquake Research Institute (KOERI)" insttype="" lat="38.9088" lon="28.1769">
		<comp name="--.HNE" depth="0.0">
			<acc value="0.0728253846178842" flag="0"/>
			<vel value="0.0775794157548273" flag="0"/>
			<psa03 value="0.146485984468222" flag="0"/>
			<psa10 value="0.183118666136932" flag="0"/>
			<psa30 value="0.0104772825238007" flag="0"/>
		</comp>
		<comp name="--.HNN" depth="0.0">
			<acc value="0.0642461314319659" flag="0"/>
			<vel value="0.0635073500683406" flag="0"/>
			<psa03 value="0.150602267477103" flag="0"/>
			<psa10 value="0.111510106710586" flag="0"/>
			<psa30 value="0.0108651974551811" flag="0"/>
		</comp>
		<comp name="--.HNZ" depth="0.0">
			<acc value="0.0686711220974187" flag="0"/>
			<vel value="0.0671377615232262" flag="0"/>
			<psa03 value="0.0973590416013593" flag="0"/>
			<psa10 value="0.110410790693975" flag="0"/>
			<psa30 value="0.00970011039484132" flag="0"/>
		</comp>
	</station>
	<station code="KRBN" name="KRBN" netid="KO" source="Bogazici University Kandilli Observatory And Earthquake Research Institute (KOERI)" insttype="" lat="38.5936" lon="26.5537">
		<comp name="--.HNE" depth="0.0">
			<acc value="13.5597976493314" flag="0"/>
			<vel value="4.60279987390708" flag="0"/>
			<psa03 value="23.8194085373693" flag="0"/>
			<psa10 value="1.33624076558287" flag="0"/>
			<psa30 value="0.176772878972262" flag="0"/>
		</comp>
		<comp name="--.HNN" depth="0.0">
			<acc value="11.6439879746436" flag="0"/>
			<vel value="3.77681315044465" flag="0"/>
			<psa03 value="13.7090121078385" flag="0"/>
			<psa10 value="0.937921928897507" flag="0"/>
			<psa30 value="0.0788380051717257" flag="0"/>
		</comp>
		<comp name="--.HNZ" depth="0.0">
			<acc value="3.6165497099307" flag="0"/>
			<vel value="2.05243654523638" flag="0"/>
			<psa03 value="8.02719928938414" flag="0"/>
			<psa10 value="0.971078588534044" flag="0"/>
			<psa30 value="0.0625768975983811" flag="0"/>
		</comp>
	</station>
	<station code="NAZL" name="NAZL" netid="KO" source="Bogazici University Kandilli Observatory And Earthquake Research Institute (KOERI)" insttype="" lat="37.9641" lon="28.2922">
		<comp name="--.HNE" depth="0.0">
			<acc value="0.0911866664084502" flag="0"/>
			<vel value="0.0617206326398696" flag="0"/>
			<psa03 value="0.244247705929146" flag="0"/>
			<psa10 value="0.0558758573131625" flag="0"/>
			<psa30 value="0.00332613564000232" flag="0"/>
		</comp>
		<comp name="--.HNN" depth="0.0">
			<acc value="0.086362620592039" flag="0"/>
			<vel value="0.0554601029491776" flag="0"/>
			<psa03 value="0.190243862540892" flag="0"/>
			<psa10 value="0.0478907156979995" flag="0"/>
			<psa30 value="0.00355029409515986" flag="0"/>
		</comp>
		<comp name="--.HNZ" depth="0.0">
			<acc value="0.0447717632600081" flag="0"/>
			<vel value="0.0216994865174354" flag="0"/>
			<psa03 value="0.0761959778709168" flag="0"/>
			<psa10 value="0.027068140159922" flag="0"/>
			<psa30 value="0.00196820966913777" flag="0"/>
		</comp>
	</station>
	<station code="ODEM" name="ODEM" netid="KO" source="Bogazici University Kandilli Observatory And Earthquake Research Institute (KOERI)" insttype="" lat="38.2762" lon="28.0747">
		<comp name="--.HNE" depth="0.0">
			<acc value="0.0751928057445128" flag="0"/>
			<vel value="0.0397140712277837" flag="0"/>
			<psa03 value="0.141251146293884" flag="0"/>
			<psa10 value="0.0270077381809874" flag="0"/>
			<psa30 value="0.00326931303759712" flag="0"/>
		</comp>
		<comp name="--.HNN" depth="0.0">
			<acc value="0.115770341060346" flag="0"/>
			<vel value="0.0491317062884484" flag="0"/>
			<psa03 value="0.207872291948491" flag="0"/>
			<psa10 value="0.0500088117593085" flag="0"/>
			<psa30 value="0.00293822070862191" flag="0"/>
		</comp>
		<comp name="--.HNZ" depth="0.0">
			<acc value="0.0790098046899487" flag="0"/>
			<vel value="0.0281255505485459" flag="0"/>
			<psa03 value="0.110468508140513" flag="0"/>
			<psa10 value="0.0355324708079667" flag="0"/>
			<psa30 value="0.00224292681777396" flag="0"/>
		</comp>
	</station>
	<station code="SOMA" name="SOMA" netid="KO" source="Bogazici University Kandilli Observatory And Earthquake Research Institute (KOERI)" insttype="" lat="39.1564" lon="27.5341">
		<comp name="--.HNE" depth="0.0">
			<acc value="0.384417886626197" flag="0"/>
			<vel value="0.193817943590623" flag="0"/>
			<psa03 value="1.25340817620427" flag="0"/>
			<psa10 value="0.111232257607487" flag="0"/>
			<psa30 value="0.0107345502118558" flag="0"/>
		</comp>
		<comp name="--.HNN" depth="0.0">
			<acc value="0.380316261137923" flag="0"/>
			<vel value="0.211668474325837" flag="0"/>
			<psa03 value="1.08441686180705" flag="0"/>
			<psa10 value="0.165642360231835" flag="0"/>
			<psa30 value="0.0119157444665781" flag="0"/>
		</comp>
		<comp name="--.HNZ" depth="0.0">
			<acc value="0.172537099646694" flag="0"/>
			<vel value="0.0831177615942414" flag="0"/>
			<psa03 value="0.753011337385514" flag="0"/>
			<psa10 value="0.0548409700740819" flag="0"/>
			<psa30 value="0.00689074724128003" flag="0"/>
		</comp>
	</station>
	<station code="SUSR" name="SUSR" netid="KO" source="Bogazici University Kandilli Observatory And Earthquake Research Institute (KOERI)" insttype="" lat="39.9627" lon="28.0835">
		<comp name="--.HNE" depth="0.0">
			<acc value="0.0607772394124282" flag="0"/>
			<vel value="0.033996060167891" flag="0"/>
			<psa03 value="0.268319013089776" flag="0"/>
			<psa10 value="0.030523133354985" flag="0"/>
			<psa30 value="0.00278162298545795" flag="0"/>
		</comp>
		<comp name="--.HNN" depth="0.0">
			<acc value="0.0543155973583422" flag="0"/>
			<vel value="0.030979316912644" flag="0"/>
			<psa03 value="0.16854389233103" flag="0"/>
			<psa10 value="0.0350774425666589" flag="0"/>
			<psa30 value="0.00221250211727354" flag="0"/>
		</comp>
		<comp name="--.HNZ" depth="0.0">
			<acc value="0.0743274774403467" flag="0"/>
			<vel value="0.0390895756363345" flag="0"/>
			<psa03 value="0.154852777105839" flag="0"/>
			<psa10 value="0.0459014771917512" flag="0"/>
			<psa30 value="0.0023583617108491" flag="0"/>
		</comp>
	</station>
	<station code="YENI" name="YENI" netid="KO" source="Bogazici University Kandilli Observatory And Earthquake Research Institute (KOERI)" insttype="" lat="39.9364" lon="27.24216">
		<comp name="--.HNE" depth="0.0">
			<acc value="0.219289178288858" flag="0"/>
			<vel value="0.134417588656399" flag="0"/>
			<psa03 value="1.31774746932134" flag="0"/>
			<psa10 value="0.157375342714977" flag="0"/>
			<psa30 value="0.00949384882233108" flag="0"/>
		</comp>
		<comp name="--.HNN" depth="0.0">
			<acc value="0.195586316992959" flag="0"/>
			<vel value="0.119779056795837" flag="0"/>
			<psa03 value="0.655741780197391" flag="0"/>
			<psa10 value="0.131330009398348" flag="0"/>
			<psa30 value="0.00978198863295275" flag="0"/>
		</comp>
		<comp name="--.HNZ" depth="0.0">
			<acc value="0.0808075492590631" flag="0"/>
			<vel value="0.0535848671307697" flag="0"/>
			<psa03 value="0.23869967230848" flag="0"/>
			<psa10 value="0.0395190014176547" flag="0"/>
			<psa30 value="0.00418518600707314" flag="0"/>
		</comp>
	</station>
</stationlist>
