<?xml version="1.0" encoding="UTF-8" standalone="yes"?>
<!DOCTYPE earthquake SYSTEM "stationlist.dtd">
<stationlist created="" xmlns="ch.ethz.sed.shakemap.usgs.xml">
  <station code="CEYT" name="CEYT" netid="KO" insttype="CMG-3ESP" lat="37.0105" lon="35.7478">
    <comp name="--.HHZ">
      <acc value="0.0085130675" flag="0"/>
      <vel value="0.0045282354" flag="0"/>
      <psa03 value="0.0229407354" flag="0"/>
      <psa10 value="0.0025966318" flag="0"/>
      <psa30 value="0.0001166241" flag="0"/>
    </comp>
    <comp name="--.HHE">
      <acc value="0.0168686681" flag="0"/>
      <vel value="0.0069279943" flag="0"/>
      <psa03 value="0.0430944275" flag="0"/>
      <psa10 value="0.0047240055" flag="0"/>
      <psa30 value="0.0003297188" flag="0"/>
    </comp>
    <comp name="--.HHN">
      <acc value="0.0144119217" flag="0"/>
      <vel value="0.0046774260" flag="0"/>
      <psa03 value="0.0305603097" flag="0"/>
      <psa10 value="0.0033654631" flag="0"/>
      <psa30 value="0.0002089299" flag="0"/>
    </comp>
  </station>
</stationlist>
