<?xml version="1.0" encoding="UTF-8" standalone="yes"?>
<!DOCTYPE earthquake SYSTEM "stationlist.dtd">
<stationlist created="" xmlns="ch.ethz.sed.shakemap.usgs.xml">
  <station code="PRAS" name="PRAS" netid="HL" insttype="120" lat="41.3524" lon="24.55">
    <comp name="--.HHE">
      <acc value="0.0900565744" flag="0"/>
      <vel value="0.0250601438" flag="0"/>
      <psa03 value="0.1424077691" flag="0"/>
      <psa10 value="0.0102478863" flag="0"/>
      <psa30 value="0.0013978361" flag="0"/>
    </comp>
    <comp name="--.HHN">
      <acc value="0.0594914534" flag="0"/>
      <vel value="0.0145297702" flag="0"/>
      <psa03 value="0.0746163628" flag="0"/>
      <psa10 value="0.0105021819" flag="0"/>
      <psa30 value="0.0009200549" flag="0"/>
    </comp>
    <comp name="--.HHZ">
      <acc value="0.0379664716" flag="0"/>
      <vel value="0.0119453761" flag="0"/>
      <psa03 value="0.0497923031" flag="0"/>
      <psa10 value="0.0083934501" flag="0"/>
      <psa30 value="0.0005764541" flag="0"/>
    </comp>
  </station>
  <station code="RDO" name="RDO" netid="HL" insttype="120" lat="41.145" lon="25.5355">
    <comp name="--.HHN">
      <acc value="0.1385719054" flag="0"/>
      <vel value="0.0276254537" flag="0"/>
      <psa03 value="0.1623151707" flag="0"/>
      <psa10 value="0.0071469650" flag="0"/>
      <psa30 value="0.0007963255" flag="0"/>
    </comp>
    <comp name="--.HHE">
      <acc value="0.1133948517" flag="0"/>
      <vel value="0.0244421670" flag="0"/>
      <psa03 value="0.1127325794" flag="0"/>
      <psa10 value="0.0068723459" flag="0"/>
      <psa30 value="0.0005768925" flag="0"/>
    </comp>
    <comp name="--.HHZ">
      <acc value="0.0589698768" flag="0"/>
      <vel value="0.0140532749" flag="0"/>
      <psa03 value="0.0616642383" flag="0"/>
      <psa10 value="0.0066056573" flag="0"/>
      <psa30 value="0.0004414592" flag="0"/>
    </comp>
  </station>
  <station code="KAVA" name="KAVA" netid="HT" insttype="Compact," lat="40.9967" lon="24.5137">
    <comp name="--.HHZ">
      <acc value="0.0482987451" flag="0"/>
      <vel value="0.0158469309" flag="0"/>
      <psa03 value="0.0760134398" flag="0"/>
      <psa10 value="0.0143682513" flag="0"/>
      <psa30 value="0.0008053740" flag="0"/>
    </comp>
    <comp name="--.HHE">
      <acc value="0.1270133284" flag="0"/>
      <vel value="0.0236191132" flag="0"/>
      <psa03 value="0.1389060087" flag="0"/>
      <psa10 value="0.0216336730" flag="0"/>
      <psa30 value="0.0016106977" flag="0"/>
    </comp>
    <comp name="--.HHN">
      <acc value="0.1064519684" flag="0"/>
      <vel value="0.0320101809" flag="0"/>
      <psa03 value="0.1696938606" flag="0"/>
      <psa10 value="0.0128805023" flag="0"/>
      <psa30 value="0.0013242909" flag="0"/>
    </comp>
  </station>
</stationlist>
