<stationlist created="1762439546">
	<station code="CH03" name="CH03" netid="HI" source="ITSAK Strong Motion Network" insttype="" lat="35.53303" lon="24.0705">
		<comp name="--.HNE" depth="0.0">
			<acc value="0.006907584431643" flag="0"/>
			<vel value="0.00868771493271" flag="0"/>
			<psa03 value="0.0141972035159104" flag="0"/>
			<psa10 value="0.0128767658350413" flag="0"/>
			<psa30 value="0.00181084870983866" flag="0"/>
		</comp>
		<comp name="--.HNN" depth="0.0">
			<acc value="0.0081661764708312" flag="0"/>
			<vel value="0.0103256729505" flag="0"/>
			<psa03 value="0.021092255331333" flag="0"/>
			<psa10 value="0.0219064649458048" flag="0"/>
			<psa30 value="0.00128676711700791" flag="0"/>
		</comp>
		<comp name="--.HNZ" depth="0.0">
			<acc value="0.00663730686792" flag="0"/>
			<vel value="0.00597663491858" flag="0"/>
			<psa03 value="0.0132050075794429" flag="0"/>
			<psa10 value="0.00935948283230576" flag="0"/>
			<psa30 value="0.00159697756275758" flag="0"/>
		</comp>
	</station>
	<station code="GOR1" name="GOR1" netid="HI" source="ITSAK Strong Motion Network" insttype="" lat="35.0582" lon="24.9628">
		<comp name="--.HNE" depth="0.0">
			<acc value="0.016391412714096" flag="0"/>
			<vel value="0.0156664110575" flag="0"/>
			<psa03 value="0.044923168647858" flag="0"/>
			<psa10 value="0.0415219593761127" flag="0"/>
			<psa30 value="0.00227771109551488" flag="0"/>
		</comp>
		<comp name="--.HNN" depth="0.0">
			<acc value="0.014499735447588" flag="0"/>
			<vel value="0.0208106099189" flag="0"/>
			<psa03 value="0.035651030976657" flag="0"/>
			<psa10 value="0.0317414202133231" flag="0"/>
			<psa30 value="0.00302379760341745" flag="0"/>
		</comp>
		<comp name="--.HNZ" depth="0.0">
			<acc value="0.01182443162652" flag="0"/>
			<vel value="0.0159719664317" flag="0"/>
			<psa03 value="0.0258831000450272" flag="0"/>
			<psa10 value="0.0236630381851599" flag="0"/>
			<psa30 value="0.00206311000424528" flag="0"/>
		</comp>
	</station>
	<station code="HER1" name="HER1" netid="HI" source="ITSAK Strong Motion Network" insttype="" lat="35.317672" lon="25.10217">
		<comp name="--.HNE" depth="0.0">
			<acc value="0.032120234567124" flag="0"/>
			<vel value="0.051939639197" flag="0"/>
			<psa03 value="0.0386317935417185" flag="0"/>
			<psa10 value="0.087652981579826" flag="0"/>
			<psa30 value="0.00609200523213467" flag="0"/>
		</comp>
		<comp name="--.HNN" depth="0.0">
			<acc value="0.020279776092888" flag="0"/>
			<vel value="0.0320841784325" flag="0"/>
			<psa03 value="0.0286727874522927" flag="0"/>
			<psa10 value="0.0483095302694774" flag="0"/>
			<psa30 value="0.00415945721029132" flag="0"/>
		</comp>
		<comp name="--.HNZ" depth="0.0">
			<acc value="0.02315662766994" flag="0"/>
			<vel value="0.0252224834278" flag="0"/>
			<psa03 value="0.0313798105292878" flag="0"/>
			<psa10 value="0.0461777578000198" flag="0"/>
			<psa30 value="0.00160912920107689" flag="0"/>
		</comp>
	</station>
	<station code="CHNB" name="CHNB" netid="HL" source="National Observatory of Athens Seismic Network" insttype="" lat="35.48765" lon="24.06605">
		<comp name="00.HNE" depth="0.0">
			<acc value="0.028375146288318" flag="0"/>
			<vel value="0.0307137206098" flag="0"/>
			<psa03 value="0.0629600197508524" flag="0"/>
			<psa10 value="0.0597742760025287" flag="0"/>
			<psa30 value="0.00256263101172969" flag="0"/>
		</comp>
		<comp name="00.HNN" depth="0.0">
			<acc value="0.024908561826774" flag="0"/>
			<vel value="0.0271083572798" flag="0"/>
			<psa03 value="0.0492532315347074" flag="0"/>
			<psa10 value="0.0445773655317218" flag="0"/>
			<psa30 value="0.00319523291849821" flag="0"/>
		</comp>
		<comp name="00.HNZ" depth="0.0">
			<acc value="0.01468023542442" flag="0"/>
			<vel value="0.0111384951054" flag="0"/>
			<psa03 value="0.0453707868419509" flag="0"/>
			<psa10 value="0.0133761798562811" flag="0"/>
			<psa30 value="0.00229331421247971" flag="0"/>
		</comp>
	</station>
	<station code="IACM" name="IACM" netid="HL" source="National Observatory of Athens Seismic Network" insttype="" lat="35.3058" lon="25.0709">
		<comp name="--.HNE" depth="0.0">
			<acc value="0.019693707502908" flag="0"/>
			<vel value="0.0252234124639" flag="0"/>
			<psa03 value="0.0458017060132283" flag="0"/>
			<psa10 value="0.0492920091037575" flag="0"/>
			<psa30 value="0.00256908268912041" flag="0"/>
		</comp>
		<comp name="--.HNN" depth="0.0">
			<acc value="0.022174516121556" flag="0"/>
			<vel value="0.02252511614" flag="0"/>
			<psa03 value="0.0456081254809422" flag="0"/>
			<psa10 value="0.0501763814391726" flag="0"/>
			<psa30 value="0.0021214267841124" flag="0"/>
		</comp>
		<comp name="--.HNZ" depth="0.0">
			<acc value="0.011540980635654" flag="0"/>
			<vel value="0.0107941693719" flag="0"/>
			<psa03 value="0.0249162365158872" flag="0"/>
			<psa10 value="0.0165072153970021" flag="0"/>
			<psa30 value="0.000996378088492071" flag="0"/>
		</comp>
	</station>
	<station code="IMMV" name="IMMV" netid="HL" source="National Observatory of Athens Seismic Network" insttype="" lat="35.4606" lon="23.9811">
		<comp name="--.HNE" depth="0.0">
			<acc value="0.025352631873186" flag="0"/>
			<vel value="0.0140806483552" flag="0"/>
			<psa03 value="0.0657578457179409" flag="0"/>
			<psa10 value="0.02876100965074" flag="0"/>
			<psa30 value="0.0023179554281727" flag="0"/>
		</comp>
		<comp name="--.HNN" depth="0.0">
			<acc value="0.019750163331846" flag="0"/>
			<vel value="0.0141133651841" flag="0"/>
			<psa03 value="0.0693037524916474" flag="0"/>
			<psa10 value="0.0142020595667514" flag="0"/>
			<psa30 value="0.00129064216537633" flag="0"/>
		</comp>
		<comp name="--.HNZ" depth="0.0">
			<acc value="0.018050023191054" flag="0"/>
			<vel value="0.00829156814243" flag="0"/>
			<psa03 value="0.054024047578175" flag="0"/>
			<psa10 value="0.00839812445953348" flag="0"/>
			<psa30 value="0.0015935011866311" flag="0"/>
		</comp>
	</station>
	<station code="SIVA" name="SIVA" netid="HL" source="National Observatory of Athens Seismic Network" insttype="" lat="35.01777" lon="24.81204">
		<comp name="00.HNE" depth="0.0">
			<acc value="0.033800838370986" flag="0"/>
			<vel value="0.0388565865673" flag="0"/>
			<psa03 value="0.0931025113342331" flag="0"/>
			<psa10 value="0.0408177977288598" flag="0"/>
			<psa30 value="0.00269015737639078" flag="0"/>
		</comp>
		<comp name="00.HNN" depth="0.0">
			<acc value="0.027781634125632" flag="0"/>
			<vel value="0.0246380821519" flag="0"/>
			<psa03 value="0.0602080874485191" flag="0"/>
			<psa10 value="0.0320778962531809" flag="0"/>
			<psa30 value="0.00243082519690546" flag="0"/>
		</comp>
		<comp name="00.HNZ" depth="0.0">
			<acc value="0.010222788980862" flag="0"/>
			<vel value="0.00996990956716" flag="0"/>
			<psa03 value="0.0282915382380755" flag="0"/>
			<psa10 value="0.0147976205822308" flag="0"/>
			<psa30 value="0.00171746512780406" flag="0"/>
		</comp>
	</station>
</stationlist>
