<?xml version="1.0" encoding="UTF-8" standalone="yes"?>
<!DOCTYPE earthquake SYSTEM "stationlist.dtd">
<stationlist created="" xmlns="ch.ethz.sed.shakemap.usgs.xml">
  <station code="IMMV" name="IMMV" netid="GE" insttype="STS-2/N" commtype="DIG" lat="35.4606" lon="23.9811">
    <comp name="--.HHE">
      <acc value="0.0264407397" flag="0"/>
      <vel value="0.0146092908" flag="0"/>
      <psa03 value="0.0694750941" flag="0"/>
      <psa10 value="0.0294499080" flag="0"/>
      <psa30 value="0.0022300757" flag="0"/>
    </comp>
    <comp name="--.HHN">
      <acc value="0.0227206306" flag="0"/>
      <vel value="0.0159140548" flag="0"/>
      <psa03 value="0.0789251177" flag="0"/>
      <psa10 value="0.0158742972" flag="0"/>
      <psa30 value="0.0013571224" flag="0"/>
    </comp>
    <comp name="--.HHZ">
      <acc value="0.0187113147" flag="0"/>
      <vel value="0.0084182491" flag="0"/>
      <psa03 value="0.0561947047" flag="0"/>
      <psa10 value="0.0085747520" flag="0"/>
      <psa30 value="0.0014478814" flag="0"/>
    </comp>
  </station>
  <station code="IMOD" name="IMOD" netid="HC" insttype="120" commtype="DIG" lat="34.9731" lon="24.7995">
    <comp name="--.HHZ">
      <acc value="0.0116724569" flag="0"/>
      <vel value="0.0095458714" flag="0"/>
      <psa03 value="0.0295092027" flag="0"/>
      <psa10 value="0.0169290122" flag="0"/>
      <psa30 value="0.0012738178" flag="0"/>
    </comp>
    <comp name="--.HHN">
      <acc value="0.0226452458" flag="0"/>
      <vel value="0.0238304879" flag="0"/>
      <psa03 value="0.0702123038" flag="0"/>
      <psa10 value="0.0245309029" flag="0"/>
      <psa30 value="0.0034377389" flag="0"/>
    </comp>
    <comp name="--.HHE">
      <acc value="0.0175128411" flag="0"/>
      <vel value="0.0145971409" flag="0"/>
      <psa03 value="0.0516293485" flag="0"/>
      <psa10 value="0.0214891183" flag="0"/>
      <psa30 value="0.0018357918" flag="0"/>
    </comp>
  </station>
  <station code="IPPL" name="IPPL" netid="HC" insttype="60" commtype="DIG" lat="35.3486" lon="24.4632">
    <comp name="--.HHE">
      <acc value="0.0000000000" flag="0"/>
      <vel value="-100.0000000000" flag="0"/>
      <psa03 value="0.0000000000" flag="0"/>
      <psa10 value="0.0000000000" flag="0"/>
      <psa30 value="0.0000000000" flag="0"/>
    </comp>
    <comp name="--.HHN">
      <acc value="0.0000000000" flag="0"/>
      <vel value="-100.0000000000" flag="0"/>
      <psa03 value="0.0000000000" flag="0"/>
      <psa10 value="0.0000000000" flag="0"/>
      <psa30 value="0.0000000000" flag="0"/>
    </comp>
    <comp name="--.HHZ">
      <acc value="0.0093788858" flag="0"/>
      <vel value="0.0045264163" flag="0"/>
      <psa03 value="0.0183749361" flag="0"/>
      <psa10 value="0.0066089460" flag="0"/>
      <psa30 value="0.0006397400" flag="0"/>
    </comp>
  </station>
  <station code="KNDR" name="KNDR" netid="HC" insttype="120" commtype="DIG" lat="35.2348" lon="23.6248">
    <comp name="--.HHN">
      <acc value="0.0179504876" flag="0"/>
      <vel value="0.0159010710" flag="0"/>
      <psa03 value="0.0395098007" flag="0"/>
      <psa10 value="0.0250175803" flag="0"/>
      <psa30 value="0.0016422013" flag="0"/>
    </comp>
    <comp name="--.HHE">
      <acc value="0.0239988577" flag="0"/>
      <vel value="0.0125933590" flag="0"/>
      <psa03 value="0.0502470986" flag="0"/>
      <psa10 value="0.0271058679" flag="0"/>
      <psa30 value="0.0012377485" flag="0"/>
    </comp>
    <comp name="--.HHZ">
      <acc value="0.0141136597" flag="0"/>
      <vel value="0.0081566090" flag="0"/>
      <psa03 value="0.0309390063" flag="0"/>
      <psa10 value="0.0090052435" flag="0"/>
      <psa30 value="0.0012446717" flag="0"/>
    </comp>
  </station>
  <station code="IMMV" name="IMMV" netid="HL" insttype="120" commtype="DIG" lat="35.4606" lon="23.9811">
    <comp name="--.HHN">
      <acc value="0.0221597995" flag="0"/>
      <vel value="0.0156133586" flag="0"/>
      <psa03 value="0.0766890797" flag="0"/>
      <psa10 value="0.0157514318" flag="0"/>
      <psa30 value="0.0013519321" flag="0"/>
    </comp>
    <comp name="--.HHE">
      <acc value="0.0257710707" flag="0"/>
      <vel value="0.0143844933" flag="0"/>
      <psa03 value="0.0676929174" flag="0"/>
      <psa10 value="0.0292554977" flag="0"/>
      <psa30 value="0.0022221854" flag="0"/>
    </comp>
    <comp name="--.HHZ">
      <acc value="0.0183193821" flag="0"/>
      <vel value="0.0082875839" flag="0"/>
      <psa03 value="0.0544831856" flag="0"/>
      <psa10 value="0.0084963016" flag="0"/>
      <psa30 value="0.0014437604" flag="0"/>
    </comp>
  </station>
  <station code="SIVA" name="SIVA" netid="HL" insttype="60" commtype="DIG" lat="35.0178" lon="24.812">
    <comp name="--.HHE">
      <acc value="0.0360993279" flag="0"/>
      <vel value="0.0414301697" flag="0"/>
      <psa03 value="0.1003097756" flag="0"/>
      <psa10 value="0.0437932501" flag="0"/>
      <psa30 value="0.0027451120" flag="0"/>
    </comp>
    <comp name="--.HHZ">
      <acc value="0.0106473584" flag="0"/>
      <vel value="0.0101931539" flag="0"/>
      <psa03 value="0.0292561588" flag="0"/>
      <psa10 value="0.0153749972" flag="0"/>
      <psa30 value="0.0016522658" flag="0"/>
    </comp>
    <comp name="--.HHN">
      <acc value="0.0255219303" flag="0"/>
      <vel value="0.0212710071" flag="0"/>
      <psa03 value="0.0559665261" flag="0"/>
      <psa10 value="0.0275063022" flag="0"/>
      <psa30 value="0.0018930529" flag="0"/>
    </comp>
  </station>
</stationlist>
