<?xml version="1.0" encoding="UTF-8" standalone="yes"?>
<!DOCTYPE earthquake SYSTEM "stationlist.dtd">
<stationlist created="" xmlns="ch.ethz.sed.shakemap.usgs.xml">
  <station code="CHAN" name="CHAN" netid="HC" insttype="120" commtype="DIG" lat="35.5193" lon="24.0428">
    <comp name="--.HHE">
      <acc value="0.0252778675" flag="0"/>
      <vel value="0.0255230491" flag="0"/>
      <psa03 value="0.0429680590" flag="0"/>
      <psa10 value="0.0534551858" flag="0"/>
      <psa30 value="0.0035607015" flag="0"/>
    </comp>
    <comp name="--.HHZ">
      <acc value="0.0179723193" flag="0"/>
      <vel value="0.0090326256" flag="0"/>
      <psa03 value="0.0295393368" flag="0"/>
      <psa10 value="0.0156036684" flag="0"/>
      <psa30 value="0.0023921812" flag="0"/>
    </comp>
    <comp name="--.HHN">
      <acc value="0.0239065185" flag="0"/>
      <vel value="0.0266265614" flag="0"/>
      <psa03 value="0.0436446634" flag="0"/>
      <psa10 value="0.0559053377" flag="0"/>
      <psa30 value="0.0034506716" flag="0"/>
    </comp>
  </station>
  <station code="IMOD" name="IMOD" netid="HC" insttype="120" commtype="DIG" lat="34.9731" lon="24.7995">
    <comp name="--.HHE">
      <acc value="0.0175128415" flag="0"/>
      <vel value="0.0145971420" flag="0"/>
      <psa03 value="0.0516293485" flag="0"/>
      <psa10 value="0.0214891183" flag="0"/>
      <psa30 value="0.0018350005" flag="0"/>
    </comp>
    <comp name="--.HHN">
      <acc value="0.0226452463" flag="0"/>
      <vel value="0.0238304880" flag="0"/>
      <psa03 value="0.0702123038" flag="0"/>
      <psa10 value="0.0245309029" flag="0"/>
      <psa30 value="0.0034377814" flag="0"/>
    </comp>
    <comp name="--.HHZ">
      <acc value="0.0116724570" flag="0"/>
      <vel value="0.0095458732" flag="0"/>
      <psa03 value="0.0295092027" flag="0"/>
      <psa10 value="0.0169290121" flag="0"/>
      <psa30 value="0.0012745757" flag="0"/>
    </comp>
  </station>
  <station code="IPPL" name="IPPL" netid="HC" insttype="60" commtype="DIG" lat="35.3486" lon="24.4632">
    <comp name="--.HHN">
      <acc value="0.0000000000" flag="0"/>
      <vel value="-100.0000000000" flag="0"/>
      <psa03 value="0.0000000000" flag="0"/>
      <psa10 value="0.0000000000" flag="0"/>
      <psa30 value="0.0000000000" flag="0"/>
    </comp>
    <comp name="--.HHE">
      <acc value="0.0000000000" flag="0"/>
      <vel value="-100.0000000000" flag="0"/>
      <psa03 value="0.0000000000" flag="0"/>
      <psa10 value="0.0000000000" flag="0"/>
      <psa30 value="0.0000000000" flag="0"/>
    </comp>
    <comp name="--.HHZ">
      <acc value="0.0093788855" flag="0"/>
      <vel value="0.0045264168" flag="0"/>
      <psa03 value="0.0183749361" flag="0"/>
      <psa10 value="0.0066089460" flag="0"/>
      <psa30 value="0.0006401020" flag="0"/>
    </comp>
  </station>
  <station code="KNDR" name="KNDR" netid="HC" insttype="120" commtype="DIG" lat="35.2348" lon="23.6248">
    <comp name="--.HHE">
      <acc value="0.0239988581" flag="0"/>
      <vel value="0.0125933601" flag="0"/>
      <psa03 value="0.0502470986" flag="0"/>
      <psa10 value="0.0271058680" flag="0"/>
      <psa30 value="0.0012375586" flag="0"/>
    </comp>
    <comp name="--.HHN">
      <acc value="0.0179504874" flag="0"/>
      <vel value="0.0159010709" flag="0"/>
      <psa03 value="0.0395098007" flag="0"/>
      <psa10 value="0.0250175802" flag="0"/>
      <psa30 value="0.0016423931" flag="0"/>
    </comp>
    <comp name="--.HHZ">
      <acc value="0.0141136597" flag="0"/>
      <vel value="0.0081566095" flag="0"/>
      <psa03 value="0.0309390063" flag="0"/>
      <psa10 value="0.0090052435" flag="0"/>
      <psa30 value="0.0012441423" flag="0"/>
    </comp>
  </station>
  <station code="CH03" name="CH03" netid="HI" insttype="unknown" commtype="DIG" lat="35.533" lon="24.0705">
    <comp name="--.HNN">
      <acc value="0.0082841688" flag="0"/>
      <vel value="0.0105431074" flag="0"/>
      <psa03 value="0.0209212510" flag="0"/>
      <psa10 value="0.0218652154" flag="0"/>
      <psa30 value="0.0012020873" flag="0"/>
    </comp>
    <comp name="--.HNZ">
      <acc value="0.0066627549" flag="0"/>
      <vel value="0.0055956323" flag="0"/>
      <psa03 value="0.0131885240" flag="0"/>
      <psa10 value="0.0093163924" flag="0"/>
      <psa30 value="0.0014066326" flag="0"/>
    </comp>
    <comp name="--.HNE">
      <acc value="0.0068908024" flag="0"/>
      <vel value="0.0086678436" flag="0"/>
      <psa03 value="0.0138812205" flag="0"/>
      <psa10 value="0.0128491245" flag="0"/>
      <psa30 value="0.0016426845" flag="0"/>
    </comp>
  </station>
  <station code="GOR1" name="GOR1" netid="HI" insttype="unknown" commtype="DIG" lat="35.0582" lon="24.9628">
    <comp name="--.HNE">
      <acc value="0.0163670804" flag="0"/>
      <vel value="0.0154808248" flag="0"/>
      <psa03 value="0.0455251508" flag="0"/>
      <psa10 value="0.0415707084" flag="0"/>
      <psa30 value="0.0021876964" flag="0"/>
    </comp>
    <comp name="--.HNZ">
      <acc value="0.0118633103" flag="0"/>
      <vel value="0.0160425392" flag="0"/>
      <psa03 value="0.0256301655" flag="0"/>
      <psa10 value="0.0236184024" flag="0"/>
      <psa30 value="0.0019182358" flag="0"/>
    </comp>
    <comp name="--.HNN">
      <acc value="0.0144563734" flag="0"/>
      <vel value="0.0204402231" flag="0"/>
      <psa03 value="0.0357145850" flag="0"/>
      <psa10 value="0.0318077895" flag="0"/>
      <psa30 value="0.0027828569" flag="0"/>
    </comp>
  </station>
  <station code="IMMV" name="IMMV" netid="HL" insttype="120" commtype="DIG" lat="35.4606" lon="23.9811">
    <comp name="--.HHE">
      <acc value="0.0257710700" flag="0"/>
      <vel value="0.0143844927" flag="0"/>
      <psa03 value="0.0676929174" flag="0"/>
      <psa10 value="0.0292554978" flag="0"/>
      <psa30 value="0.0022220035" flag="0"/>
    </comp>
    <comp name="--.HHN">
      <acc value="0.0221598012" flag="0"/>
      <vel value="0.0156133585" flag="0"/>
      <psa03 value="0.0766890797" flag="0"/>
      <psa10 value="0.0157514318" flag="0"/>
      <psa30 value="0.0013515888" flag="0"/>
    </comp>
    <comp name="--.HHZ">
      <acc value="0.0183193825" flag="0"/>
      <vel value="0.0082875843" flag="0"/>
      <psa03 value="0.0544831856" flag="0"/>
      <psa10 value="0.0084963018" flag="0"/>
      <psa30 value="0.0014439001" flag="0"/>
    </comp>
  </station>
  <station code="SIVA" name="SIVA" netid="HL" insttype="60" commtype="DIG" lat="35.0178" lon="24.812">
    <comp name="--.HHE">
      <acc value="0.0360993268" flag="0"/>
      <vel value="0.0414301681" flag="0"/>
      <psa03 value="0.1003097756" flag="0"/>
      <psa10 value="0.0437932500" flag="0"/>
      <psa30 value="0.0027452027" flag="0"/>
    </comp>
    <comp name="--.HHN">
      <acc value="0.0255219310" flag="0"/>
      <vel value="0.0212710071" flag="0"/>
      <psa03 value="0.0559665261" flag="0"/>
      <psa10 value="0.0275063022" flag="0"/>
      <psa30 value="0.0018930506" flag="0"/>
    </comp>
    <comp name="--.HHZ">
      <acc value="0.0106473586" flag="0"/>
      <vel value="0.0101931542" flag="0"/>
      <psa03 value="0.0292561588" flag="0"/>
      <psa10 value="0.0153749971" flag="0"/>
      <psa30 value="0.0016523481" flag="0"/>
    </comp>
  </station>
</stationlist>
