<?xml version="1.0" encoding="UTF-8" standalone="yes"?>
<!DOCTYPE earthquake SYSTEM "stationlist.dtd">
<stationlist created="" xmlns="ch.ethz.sed.shakemap.usgs.xml">
  <station code="BNN" name="BNN" netid="KO" insttype="CMG-3T" lat="38.8521" lon="35.8472">
    <comp name="--.HHN">
      <acc value="0.0031636224" flag="0"/>
      <vel value="0.0014524229" flag="0"/>
      <psa03 value="0.0094916470" flag="0"/>
      <psa10 value="0.0011802327" flag="0"/>
      <psa30 value="0.0003357223" flag="0"/>
    </comp>
    <comp name="--.HHE">
      <acc value="0.0034809260" flag="0"/>
      <vel value="0.0020885719" flag="0"/>
      <psa03 value="0.0110493185" flag="0"/>
      <psa10 value="0.0025926311" flag="0"/>
      <psa30 value="0.0001513219" flag="0"/>
    </comp>
    <comp name="--.HHZ">
      <acc value="0.0019077554" flag="0"/>
      <vel value="0.0010042257" flag="0"/>
      <psa03 value="0.0048314598" flag="0"/>
      <psa10 value="0.0018218730" flag="0"/>
      <psa30 value="0.0004279629" flag="0"/>
    </comp>
  </station>
  <station code="CMRD" name="CMRD" netid="KO" insttype="CMG-5T" lat="37.6623" lon="34.9902">
    <comp name="--.HNN">
      <acc value="0.0111532441" flag="0"/>
      <vel value="0.0024565183" flag="0"/>
      <psa03 value="0.0124526062" flag="0"/>
      <psa10 value="0.0025805607" flag="0"/>
      <psa30 value="0.0003317400" flag="0"/>
    </comp>
    <comp name="--.HNZ">
      <acc value="0.0139642800" flag="0"/>
      <vel value="0.0022133675" flag="0"/>
      <psa03 value="0.0075754231" flag="0"/>
      <psa10 value="0.0020867075" flag="0"/>
      <psa30 value="0.0004906798" flag="0"/>
    </comp>
    <comp name="--.HNE">
      <acc value="0.0134088153" flag="0"/>
      <vel value="0.0028241576" flag="0"/>
      <psa03 value="0.0138907748" flag="0"/>
      <psa10 value="0.0013135880" flag="0"/>
      <psa30 value="0.0004149311" flag="0"/>
    </comp>
  </station>
  <station code="KMRS" name="KMRS" netid="KO" insttype="CMG-3T" lat="37.5087" lon="36.9">
    <comp name="--.HHE">
      <acc value="0.0032255947" flag="0"/>
      <vel value="0.0027345334" flag="0"/>
      <psa03 value="0.0090361428" flag="0"/>
      <psa10 value="0.0036071007" flag="0"/>
      <psa30 value="0.0002700027" flag="0"/>
    </comp>
    <comp name="--.HHN">
      <acc value="0.0023220434" flag="0"/>
      <vel value="0.0018439283" flag="0"/>
      <psa03 value="0.0074648950" flag="0"/>
      <psa10 value="0.0025693073" flag="0"/>
      <psa30 value="0.0003294930" flag="0"/>
    </comp>
    <comp name="--.HHZ">
      <acc value="0.0021118776" flag="0"/>
      <vel value="0.0016225189" flag="0"/>
      <psa03 value="0.0053288313" flag="0"/>
      <psa10 value="0.0016687880" flag="0"/>
      <psa30 value="0.0001406734" flag="0"/>
    </comp>
  </station>
  <station code="SARI" name="SARI" netid="KO" insttype="CMG-3T" lat="38.4072" lon="36.4181">
    <comp name="--.HHZ">
      <acc value="0.0063690402" flag="0"/>
      <vel value="0.0027266313" flag="0"/>
      <psa03 value="0.0199525541" flag="0"/>
      <psa10 value="0.0019919894" flag="0"/>
      <psa30 value="0.0002072741" flag="0"/>
    </comp>
    <comp name="--.HHN">
      <acc value="0.0146166481" flag="0"/>
      <vel value="0.0043758909" flag="0"/>
      <psa03 value="0.0205725091" flag="0"/>
      <psa10 value="0.0034984627" flag="0"/>
      <psa30 value="0.0002822301" flag="0"/>
    </comp>
    <comp name="--.HHE">
      <acc value="0.0140230614" flag="0"/>
      <vel value="0.0040689144" flag="0"/>
      <psa03 value="0.0201503252" flag="0"/>
      <psa10 value="0.0024669040" flag="0"/>
      <psa30 value="0.0001854278" flag="0"/>
    </comp>
  </station>
  <station code="ANDN" name="ANDN" netid="TU" insttype="T" lat="37.58" lon="36.3452">
    <comp name="--.HHN">
      <acc value="0.0279989012" flag="0"/>
      <vel value="0.0170152775" flag="0"/>
      <psa03 value="0.0554943208" flag="0"/>
      <psa10 value="0.0121924495" flag="0"/>
      <psa30 value="0.0014928009" flag="0"/>
    </comp>
    <comp name="--.HHE">
      <acc value="0.0156445740" flag="0"/>
      <vel value="0.0084861167" flag="0"/>
      <psa03 value="0.0344450187" flag="0"/>
      <psa10 value="0.0096309251" flag="0"/>
      <psa30 value="0.0014911329" flag="0"/>
    </comp>
    <comp name="--.HHZ">
      <acc value="0.0101281682" flag="0"/>
      <vel value="0.0053933734" flag="0"/>
      <psa03 value="0.0169133458" flag="0"/>
      <psa10 value="0.0095540455" flag="0"/>
      <psa30 value="0.0016745773" flag="0"/>
    </comp>
  </station>
</stationlist>
