<stationlist created="1778069332">
	<station code="ARG2" name="ARG2" netid="HI" source="ITSAK Strong Motion Network" insttype="" lat="38.1783" lon="20.4878">
		<comp name="--.HNE" depth="0.0">
			<acc value="0.0826508138241034" flag="0"/>
			<vel value="0.0394118029512866" flag="0"/>
			<psa03 value="0.13176579849081" flag="0"/>
			<psa10 value="0.0224534289693135" flag="0"/>
			<psa30 value="0.00132794869243031" flag="0"/>
		</comp>
		<comp name="--.HNN" depth="0.0">
			<acc value="0.0994610584874806" flag="0"/>
			<vel value="0.0369489033353127" flag="0"/>
			<psa03 value="0.100938418130821" flag="0"/>
			<psa10 value="0.0268788806259268" flag="0"/>
			<psa30 value="0.0013462929971438" flag="0"/>
		</comp>
		<comp name="--.HNZ" depth="0.0">
			<acc value="0.0504587671904385" flag="0"/>
			<vel value="0.0163829691950245" flag="0"/>
			<psa03 value="0.0855918412607539" flag="0"/>
			<psa10 value="0.0109247045899834" flag="0"/>
			<psa30 value="0.000610731120339409" flag="0"/>
		</comp>
	</station>
	<station code="ARS1" name="ARS1" netid="HI" source="ITSAK Strong Motion Network" insttype="" lat="37.6349" lon="22.7293">
		<comp name="--.HNE" depth="0.0">
			<acc value="0.00700716198653347" flag="0"/>
			<vel value="0.00377875265698642" flag="0"/>
			<psa03 value="0.0153514179977627" flag="0"/>
			<psa10 value="0.00409172168146727" flag="0"/>
			<psa30 value="0.000300967411572207" flag="0"/>
		</comp>
		<comp name="--.HNN" depth="0.0">
			<acc value="0.00448782448181841" flag="0"/>
			<vel value="0.00368739938435407" flag="0"/>
			<psa03 value="0.0210314726589486" flag="0"/>
			<psa10 value="0.00517729718929581" flag="0"/>
			<psa30 value="0.000420870328510427" flag="0"/>
		</comp>
		<comp name="--.HNZ" depth="0.0">
			<acc value="0.00335539828329646" flag="0"/>
			<vel value="0.00205587557064158" flag="0"/>
			<psa03 value="0.0128176407724422" flag="0"/>
			<psa10 value="0.00180179584450717" flag="0"/>
			<psa30 value="0.000311832063593939" flag="0"/>
		</comp>
	</station>
	<station code="KLV1" name="KLV1" netid="HI" source="ITSAK Strong Motion Network" insttype="" lat="38.03256" lon="22.10797">
		<comp name="--.HNE" depth="0.0">
			<acc value="0.0135127292930203" flag="0"/>
			<vel value="0.00784037590489946" flag="0"/>
			<psa03 value="0.0447798049839611" flag="0"/>
			<psa10 value="0.00624334046566656" flag="0"/>
			<psa30 value="0.000373477084774006" flag="0"/>
		</comp>
		<comp name="--.HNN" depth="0.0">
			<acc value="0.0103548240119432" flag="0"/>
			<vel value="0.00610797591704616" flag="0"/>
			<psa03 value="0.0392949650777596" flag="0"/>
			<psa10 value="0.00639696564259447" flag="0"/>
			<psa30 value="0.000369511275183548" flag="0"/>
		</comp>
		<comp name="--.HNZ" depth="0.0">
			<acc value="0.00558020252318596" flag="0"/>
			<vel value="0.00333328514142949" flag="0"/>
			<psa03 value="0.0107891574370542" flag="0"/>
			<psa10 value="0.00489401514197391" flag="0"/>
			<psa30 value="0.00031462784775893" flag="0"/>
		</comp>
	</station>
	<station code="MSL1" name="MSL1" netid="HI" source="ITSAK Strong Motion Network" insttype="" lat="38.3727" lon="21.4243">
		<comp name="--.HNE" depth="0.0">
			<acc value="0.0453497206178376" flag="0"/>
			<vel value="0.0231208656384144" flag="0"/>
			<psa03 value="0.132962787298825" flag="0"/>
			<psa10 value="0.041137855181154" flag="0"/>
			<psa30 value="0.00187899843275914" flag="0"/>
		</comp>
		<comp name="--.HNN" depth="0.0">
			<acc value="0.0471832071129844" flag="0"/>
			<vel value="0.0253763327110779" flag="0"/>
			<psa03 value="0.116226428596931" flag="0"/>
			<psa10 value="0.0417319395363672" flag="0"/>
			<psa30 value="0.00272852116780497" flag="0"/>
		</comp>
		<comp name="--.HNZ" depth="0.0">
			<acc value="0.0203074782415797" flag="0"/>
			<vel value="0.00879808719946256" flag="0"/>
			<psa03 value="0.0431051601928065" flag="0"/>
			<psa10 value="0.0231167957492617" flag="0"/>
			<psa30 value="0.000944027224670307" flag="0"/>
		</comp>
	</station>
	<station code="PYL1" name="PYL1" netid="HI" source="ITSAK Strong Motion Network" insttype="" lat="36.914188" lon="21.695161">
		<comp name="--.HNE" depth="0.0">
			<acc value="0.0196731680842724" flag="0"/>
			<vel value="0.00995197272584064" flag="0"/>
			<psa03 value="0.0436059147195272" flag="0"/>
			<psa10 value="0.00542414322911674" flag="0"/>
			<psa30 value="0.000518590291562985" flag="0"/>
		</comp>
		<comp name="--.HNN" depth="0.0">
			<acc value="0.0151714522229932" flag="0"/>
			<vel value="0.00858785531498463" flag="0"/>
			<psa03 value="0.0285740074710942" flag="0"/>
			<psa10 value="0.005815895118277" flag="0"/>
			<psa30 value="0.000482550716616479" flag="0"/>
		</comp>
		<comp name="--.HNZ" depth="0.0">
			<acc value="0.00668274277147615" flag="0"/>
			<vel value="0.00374452248070284" flag="0"/>
			<psa03 value="0.0174668198515303" flag="0"/>
			<psa10 value="0.00290524269244607" flag="0"/>
			<psa30 value="0.00029779201892645" flag="0"/>
		</comp>
	</station>
	<station code="VAS2" name="VAS2" netid="HI" source="ITSAK Strong Motion Network" insttype="" lat="38.630558" lon="20.608081">
		<comp name="--.HNE" depth="0.0">
			<acc value="0.0375858196707099" flag="0"/>
			<vel value="0.0231630526076634" flag="0"/>
			<psa03 value="0.0954242068018369" flag="0"/>
			<psa10 value="0.0538521761923675" flag="0"/>
			<psa30 value="0.00228617832309552" flag="0"/>
		</comp>
		<comp name="--.HNN" depth="0.0">
			<acc value="0.0308689238561992" flag="0"/>
			<vel value="0.026015583119627" flag="0"/>
			<psa03 value="0.115312982669347" flag="0"/>
			<psa10 value="0.041252624033822" flag="0"/>
			<psa30 value="0.00213817872718212" flag="0"/>
		</comp>
		<comp name="--.HNZ" depth="0.0">
			<acc value="0.022217502598536" flag="0"/>
			<vel value="0.0204267584449449" flag="0"/>
			<psa03 value="0.0405504753324942" flag="0"/>
			<psa10 value="0.0232785064618132" flag="0"/>
			<psa30 value="0.00120567455752114" flag="0"/>
		</comp>
	</station>
	<station code="ITM" name="ITM" netid="HL" source="National Observatory of Athens Seismic Network" insttype="" lat="37.17872" lon="21.92522">
		<comp name="--.HNE" depth="0.0">
			<acc value="0.011451592155212" flag="0"/>
			<vel value="0.00666520400259852" flag="0"/>
			<psa03 value="0.0250556357062322" flag="0"/>
			<psa10 value="0.00668045887017416" flag="0"/>
			<psa30 value="0.000785673148216852" flag="0"/>
		</comp>
		<comp name="--.HNN" depth="0.0">
			<acc value="0.0126259344755292" flag="0"/>
			<vel value="0.00654269268234603" flag="0"/>
			<psa03 value="0.0312300602195537" flag="0"/>
			<psa10 value="0.00557308925637193" flag="0"/>
			<psa30 value="0.000594176503890649" flag="0"/>
		</comp>
		<comp name="--.HNZ" depth="0.0">
			<acc value="0.00732303884138639" flag="0"/>
			<vel value="0.00532823649659005" flag="0"/>
			<psa03 value="0.0229527519951734" flag="0"/>
			<psa10 value="0.0051261146122554" flag="0"/>
			<psa30 value="0.000590149705295004" flag="0"/>
		</comp>
	</station>
	<station code="PATC" name="PATC" netid="HL" source="National Observatory of Athens Seismic Network" insttype="" lat="38.26933" lon="21.76001">
		<comp name="00.HNE" depth="0.0">
			<acc value="0.0299494524738059" flag="0"/>
			<vel value="0.0141607087260056" flag="0"/>
			<psa03 value="0.0672922787538807" flag="0"/>
			<psa10 value="0.020238689741709" flag="0"/>
			<psa30 value="0.00211227957444861" flag="0"/>
		</comp>
		<comp name="00.HNN" depth="0.0">
			<acc value="0.0286301479028655" flag="0"/>
			<vel value="0.0153549066328142" flag="0"/>
			<psa03 value="0.0871578184923934" flag="0"/>
			<psa10 value="0.0176534850433053" flag="0"/>
			<psa30 value="0.00200400343443239" flag="0"/>
		</comp>
		<comp name="00.HNZ" depth="0.0">
			<acc value="0.0162565407213045" flag="0"/>
			<vel value="0.00882014437304614" flag="0"/>
			<psa03 value="0.0369570626666925" flag="0"/>
			<psa10 value="0.0126360939931323" flag="0"/>
			<psa30 value="0.000766433999370995" flag="0"/>
		</comp>
	</station>
	<station code="PATG" name="PATG" netid="HL" source="National Observatory of Athens Seismic Network" insttype="" lat="38.23865" lon="21.72657">
		<comp name="00.HNE" depth="0.0">
			<acc value="0.0509880871973514" flag="0"/>
			<vel value="0.0214173414816132" flag="0"/>
			<psa03 value="0.0946297669976448" flag="0"/>
			<psa10 value="0.0218896771659233" flag="0"/>
			<psa30 value="0.00256775523782262" flag="0"/>
		</comp>
		<comp name="00.HNN" depth="0.0">
			<acc value="0.050916476971277" flag="0"/>
			<vel value="0.0188984361273179" flag="0"/>
			<psa03 value="0.129662914779752" flag="0"/>
			<psa10 value="0.0231097971404035" flag="0"/>
			<psa30 value="0.00280578377703182" flag="0"/>
		</comp>
		<comp name="00.HNZ" depth="0.0">
			<acc value="0.0184334469876226" flag="0"/>
			<vel value="0.00837757654049263" flag="0"/>
			<psa03 value="0.0297535674011507" flag="0"/>
			<psa10 value="0.0125233436324543" flag="0"/>
			<psa30 value="0.00124293849985559" flag="0"/>
		</comp>
	</station>
	<station code="RIOA" name="RIOA" netid="HL" source="National Observatory of Athens Seismic Network" insttype="" lat="38.29585" lon="21.79118">
		<comp name="00.HNE" depth="0.0">
			<acc value="0.0180193729461823" flag="0"/>
			<vel value="0.00978580751478652" flag="0"/>
			<psa03 value="0.0439368468991429" flag="0"/>
			<psa10 value="0.0120602617939551" flag="0"/>
			<psa30 value="0.00156731949783806" flag="0"/>
		</comp>
		<comp name="00.HNN" depth="0.0">
			<acc value="0.0176219983063862" flag="0"/>
			<vel value="0.00729867426500041" flag="0"/>
			<psa03 value="0.0335119127570855" flag="0"/>
			<psa10 value="0.00939049432504288" flag="0"/>
			<psa30 value="0.00094182344931462" flag="0"/>
		</comp>
		<comp name="00.HNZ" depth="0.0">
			<acc value="0.0141072289820353" flag="0"/>
			<vel value="0.00560659803586895" flag="0"/>
			<psa03 value="0.0233554318547379" flag="0"/>
			<psa10 value="0.0053435617364202" flag="0"/>
			<psa30 value="0.000947639936174996" flag="0"/>
		</comp>
	</station>
	<station code="ANX" name="ANX" netid="HP" source="University of Patras, Seismological Laboratory (PSLNET)" insttype="" lat="38.5933" lon="21.9209">
		<comp name="--.HNE" depth="0.0">
			<acc value="0.0207412842463863" flag="0"/>
			<vel value="0.016146959635118" flag="0"/>
			<psa03 value="0.0490462751166232" flag="0"/>
			<psa10 value="0.0108679443229887" flag="0"/>
			<psa30 value="0.000661824363448051" flag="0"/>
		</comp>
		<comp name="--.HNN" depth="0.0">
			<acc value="0.0135955525922489" flag="0"/>
			<vel value="0.00915222219856941" flag="0"/>
			<psa03 value="0.0436531808715148" flag="0"/>
			<psa10 value="0.0110217926396857" flag="0"/>
			<psa30 value="0.000600545876967702" flag="0"/>
		</comp>
		<comp name="--.HNZ" depth="0.0">
			<acc value="0.00905271380734273" flag="0"/>
			<vel value="0.00646897536359521" flag="0"/>
			<psa03 value="0.0304256796144452" flag="0"/>
			<psa10 value="0.00549838689739675" flag="0"/>
			<psa30 value="0.000525637633413371" flag="0"/>
		</comp>
	</station>
	<station code="LTHK" name="LTHK" netid="HP" source="University of Patras, Seismological Laboratory (PSLNET)" insttype="" lat="37.7095" lon="20.8367">
		<comp name="--.HNE" depth="0.0">
			<acc value="1.11539025835604" flag="0"/>
			<vel value="0.226079037004373" flag="0"/>
			<psa03 value="1.25783765465947" flag="0"/>
			<psa10 value="0.0801171848589421" flag="0"/>
			<psa30 value="0.00699678627096533" flag="0"/>
		</comp>
		<comp name="--.HNN" depth="0.0">
			<acc value="1.05532523076096" flag="0"/>
			<vel value="0.483860638457958" flag="0"/>
			<psa03 value="2.48399782703321" flag="0"/>
			<psa10 value="0.17133222664748" flag="0"/>
			<psa30 value="0.0187769618514901" flag="0"/>
		</comp>
		<comp name="--.HNZ" depth="0.0">
			<acc value="0.576242789540161" flag="0"/>
			<vel value="0.167996743396234" flag="0"/>
			<psa03 value="1.04938371402495" flag="0"/>
			<psa10 value="0.0504839739935946" flag="0"/>
			<psa30 value="0.00375208144700827" flag="0"/>
		</comp>
	</station>
	<station code="PVO" name="PVO" netid="HP" source="University of Patras, Seismological Laboratory (PSLNET)" insttype="" lat="38.616" lon="21.525">
		<comp name="--.HNE" depth="0.0">
			<acc value="0.0150905333832082" flag="0"/>
			<vel value="0.00695721714259359" flag="0"/>
			<psa03 value="0.036554382807128" flag="0"/>
			<psa10 value="0.0037046547079929" flag="0"/>
			<psa30 value="0.000473819968087498" flag="0"/>
		</comp>
		<comp name="--.HNN" depth="0.0">
			<acc value="0.0112629865903905" flag="0"/>
			<vel value="0.00590658880120334" flag="0"/>
			<psa03 value="0.0272480038305275" flag="0"/>
			<psa10 value="0.00601201030329718" flag="0"/>
			<psa30 value="0.000331987173107576" flag="0"/>
		</comp>
		<comp name="--.HNZ" depth="0.0">
			<acc value="0.00722654981103696" flag="0"/>
			<vel value="0.00250771444345806" flag="0"/>
			<psa03 value="0.0122146224067882" flag="0"/>
			<psa10 value="0.00257715110121245" flag="0"/>
			<psa30 value="0.00029798309607769" flag="0"/>
		</comp>
	</station>
	<station code="PYL" name="PYL" netid="HP" source="University of Patras, Seismological Laboratory (PSLNET)" insttype="" lat="36.8955" lon="21.742">
		<comp name="--.HNE" depth="0.0">
			<acc value="0.0414235057646975" flag="0"/>
			<vel value="0.0299922148101409" flag="0"/>
			<psa03 value="0.0857260678806087" flag="0"/>
			<psa10 value="0.0210802906481987" flag="0"/>
			<psa30 value="0.0016362224960302" flag="0"/>
		</comp>
		<comp name="--.HNN" depth="0.0">
			<acc value="0.0350394084924921" flag="0"/>
			<vel value="0.0127699529340415" flag="0"/>
			<psa03 value="0.0624153782324891" flag="0"/>
			<psa10 value="0.00773950690082865" flag="0"/>
			<psa30 value="0.000599992990751024" flag="0"/>
		</comp>
		<comp name="--.HNZ" depth="0.0">
			<acc value="0.0192284487668436" flag="0"/>
			<vel value="0.006604479195503" flag="0"/>
			<psa03 value="0.0260847064584524" flag="0"/>
			<psa10 value="0.00615294825414473" flag="0"/>
			<psa30 value="0.000488584896271528" flag="0"/>
		</comp>
	</station>
	<station code="SERG" name="SERG" netid="HP" source="University of Patras, Seismological Laboratory (PSLNET)" insttype="" lat="38.4133" lon="22.0566">
		<comp name="--.HNE" depth="0.0">
			<acc value="0.0138425529552402" flag="0"/>
			<vel value="0.00562230845787681" flag="0"/>
			<psa03 value="0.0242950181937216" flag="0"/>
			<psa10 value="0.00365633312484517" flag="0"/>
			<psa30 value="0.000298877940210055" flag="0"/>
		</comp>
		<comp name="--.HNN" depth="0.0">
			<acc value="0.0153560562856987" flag="0"/>
			<vel value="0.00560344021980058" flag="0"/>
			<psa03 value="0.0453238553043093" flag="0"/>
			<psa10 value="0.00389391424198819" flag="0"/>
			<psa30 value="0.000323486153850105" flag="0"/>
		</comp>
		<comp name="--.HNZ" depth="0.0">
			<acc value="0.00722906003085469" flag="0"/>
			<vel value="0.0026714410468259" flag="0"/>
			<psa03 value="0.0135568886053363" flag="0"/>
			<psa10 value="0.00235165037985636" flag="0"/>
			<psa30 value="0.000392389152042243" flag="0"/>
		</comp>
	</station>
</stationlist>
