<?xml version="1.0" encoding="UTF-8" standalone="yes"?>
<!DOCTYPE earthquake SYSTEM "stationlist.dtd">
<stationlist created="" xmlns="ch.ethz.sed.shakemap.usgs.xml">
  <station code="ARG2" name="ARG2" netid="HI" insttype="CMG-5TD,ACCELEROMETER,GURALP" lat="38.1783" lon="20.4878">
    <comp name="--.HNE">
      <acc value="0.0830522666" flag="0"/>
      <vel value="0.0387146254" flag="0"/>
      <psa03 value="0.1312897451" flag="0"/>
      <psa10 value="0.0223709738" flag="0"/>
      <psa30 value="0.0013141343" flag="0"/>
    </comp>
    <comp name="--.HNN">
      <acc value="0.1000981749" flag="0"/>
      <vel value="0.0372148505" flag="0"/>
      <psa03 value="0.1008402761" flag="0"/>
      <psa10 value="0.0268160041" flag="0"/>
      <psa30 value="0.0012332049" flag="0"/>
    </comp>
    <comp name="--.HNZ">
      <acc value="0.0516424282" flag="0"/>
      <vel value="0.0159702289" flag="0"/>
      <psa03 value="0.0860777737" flag="0"/>
      <psa10 value="0.0109410133" flag="0"/>
      <psa30 value="0.0005529472" flag="0"/>
    </comp>
  </station>
  <station code="PYL1" name="PYL1" netid="HI" insttype="CMG-5TD,ACCELEROMETER,GURALP" lat="36.9142" lon="21.6952">
    <comp name="--.HNE">
      <acc value="0.0197049917" flag="0"/>
      <vel value="0.0098935356" flag="0"/>
      <psa03 value="0.0430946027" flag="0"/>
      <psa10 value="0.0054402378" flag="0"/>
      <psa30 value="0.0005382999" flag="0"/>
    </comp>
    <comp name="--.HNN">
      <acc value="0.0150665061" flag="0"/>
      <vel value="0.0085255242" flag="0"/>
      <psa03 value="0.0285081136" flag="0"/>
      <psa10 value="0.0058213096" flag="0"/>
      <psa30 value="0.0004962161" flag="0"/>
    </comp>
    <comp name="--.HNZ">
      <acc value="0.0066541842" flag="0"/>
      <vel value="0.0037236153" flag="0"/>
      <psa03 value="0.0171931870" flag="0"/>
      <psa10 value="0.0029190732" flag="0"/>
      <psa30 value="0.0003159821" flag="0"/>
    </comp>
  </station>
  <station code="ITM" name="ITM" netid="HL" insttype="DR24" lat="37.1787" lon="21.9252">
    <comp name="--.HHE">
      <acc value="0.0117140336" flag="0"/>
      <vel value="0.0068021057" flag="0"/>
      <psa03 value="0.0254664476" flag="0"/>
      <psa10 value="0.0068159269" flag="0"/>
      <psa30 value="0.0007776976" flag="0"/>
    </comp>
    <comp name="--.HHN">
      <acc value="0.0128857289" flag="0"/>
      <vel value="0.0066891112" flag="0"/>
      <psa03 value="0.0324543918" flag="0"/>
      <psa10 value="0.0056721833" flag="0"/>
      <psa30 value="0.0005885317" flag="0"/>
    </comp>
    <comp name="--.HHZ">
      <acc value="0.0077000809" flag="0"/>
      <vel value="0.0058115448" flag="0"/>
      <psa03 value="0.0250704417" flag="0"/>
      <psa10 value="0.0054864632" flag="0"/>
      <psa30 value="0.0005979852" flag="0"/>
    </comp>
  </station>
  <station code="ORTH" name="ORTH" netid="HL" insttype="30" lat="37.8511" lon="20.6963">
    <comp name="--.HHE">
      <acc value="0.1745953447" flag="0"/>
      <vel value="0.0483772640" flag="0"/>
      <psa03 value="0.3004326516" flag="0"/>
      <psa10 value="0.0373331321" flag="0"/>
      <psa30 value="0.0013978580" flag="0"/>
    </comp>
    <comp name="--.HHN">
      <acc value="0.1301930132" flag="0"/>
      <vel value="0.0409066354" flag="0"/>
      <psa03 value="0.1872542712" flag="0"/>
      <psa10 value="0.0306587242" flag="0"/>
      <psa30 value="0.0013282667" flag="0"/>
    </comp>
    <comp name="--.HHZ">
      <acc value="0.1117890901" flag="0"/>
      <vel value="0.0194735502" flag="0"/>
      <psa03 value="0.1379122493" flag="0"/>
      <psa10 value="0.0102646331" flag="0"/>
      <psa30 value="0.0004961978" flag="0"/>
    </comp>
  </station>
  <station code="RLS" name="RLS" netid="HL" insttype="120" lat="38.0559" lon="21.4647">
    <comp name="--.HHE">
      <acc value="0.0477403375" flag="0"/>
      <vel value="0.0161387932" flag="0"/>
      <psa03 value="0.0529197784" flag="0"/>
      <psa10 value="0.0052958767" flag="0"/>
      <psa30 value="0.0005426565" flag="0"/>
    </comp>
    <comp name="--.HHN">
      <acc value="0.0401045802" flag="0"/>
      <vel value="0.0093095361" flag="0"/>
      <psa03 value="0.0545531213" flag="0"/>
      <psa10 value="0.0054213186" flag="0"/>
      <psa30 value="0.0005164160" flag="0"/>
    </comp>
    <comp name="--.HHZ">
      <acc value="0.0189727098" flag="0"/>
      <vel value="0.0061883783" flag="0"/>
      <psa03 value="0.0350089594" flag="0"/>
      <psa10 value="0.0038694818" flag="0"/>
      <psa30 value="0.0002751752" flag="0"/>
    </comp>
  </station>
  <station code="VLS" name="VLS" netid="HL" insttype="120P," lat="38.1768" lon="20.5886">
    <comp name="--.HHE">
      <acc value="0.2270956830" flag="0"/>
      <vel value="0.0255402136" flag="0"/>
      <psa03 value="0.0671162149" flag="0"/>
      <psa10 value="0.0059013469" flag="0"/>
      <psa30 value="0.0005210312" flag="0"/>
    </comp>
    <comp name="--.HHN">
      <acc value="0.1026852880" flag="0"/>
      <vel value="0.0145432789" flag="0"/>
      <psa03 value="0.0817683048" flag="0"/>
      <psa10 value="0.0103105115" flag="0"/>
      <psa30 value="0.0005399975" flag="0"/>
    </comp>
    <comp name="--.HHZ">
      <acc value="0.0559644125" flag="0"/>
      <vel value="0.0093977216" flag="0"/>
      <psa03 value="0.0416528011" flag="0"/>
      <psa10 value="0.0057715907" flag="0"/>
      <psa30 value="0.0003863555" flag="0"/>
    </comp>
  </station>
  <station code="AMT" name="AMT" netid="HP" insttype="CMG-3T," lat="37.5324" lon="21.7089">
    <comp name="00.HHE">
      <acc value="0.0371379398" flag="0"/>
      <vel value="0.0156259445" flag="0"/>
      <psa03 value="0.0873634879" flag="0"/>
      <psa10 value="0.0220833902" flag="0"/>
      <psa30 value="0.0009026000" flag="0"/>
    </comp>
    <comp name="00.HHN">
      <acc value="0.0360627690" flag="0"/>
      <vel value="0.0177467900" flag="0"/>
      <psa03 value="0.1022070339" flag="0"/>
      <psa10 value="0.0188225374" flag="0"/>
      <psa30 value="0.0007944829" flag="0"/>
    </comp>
    <comp name="00.HHZ">
      <acc value="0.0276953246" flag="0"/>
      <vel value="0.0097518918" flag="0"/>
      <psa03 value="0.0620375515" flag="0"/>
      <psa10 value="0.0101139841" flag="0"/>
      <psa30 value="0.0005375087" flag="0"/>
    </comp>
  </station>
  <station code="AXS" name="AXS" netid="HP" insttype="40," lat="38.1962" lon="21.3763">
    <comp name="--.HHE">
      <acc value="0.0178716060" flag="0"/>
      <vel value="0.0056363208" flag="0"/>
      <psa03 value="0.0526523206" flag="0"/>
      <psa10 value="0.0043843419" flag="0"/>
      <psa30 value="0.0002719938" flag="0"/>
    </comp>
    <comp name="--.HHZ">
      <acc value="0.0091972925" flag="0"/>
      <vel value="0.0045407626" flag="0"/>
      <psa03 value="0.0221032889" flag="0"/>
      <psa10 value="0.0063448726" flag="0"/>
      <psa30 value="0.0004111914" flag="0"/>
    </comp>
    <comp name="--.HHN">
      <acc value="0.0187603575" flag="0"/>
      <vel value="0.0107988952" flag="0"/>
      <psa03 value="0.0552355739" flag="0"/>
      <psa10 value="0.0109261487" flag="0"/>
      <psa30 value="0.0005890900" flag="0"/>
    </comp>
  </station>
  <station code="DRO" name="DRO" netid="HP" insttype="120P," lat="37.952" lon="21.71">
    <comp name="--.HHE">
      <acc value="0.0564735404" flag="0"/>
      <vel value="0.0196740601" flag="0"/>
      <psa03 value="0.1706702587" flag="0"/>
      <psa10 value="0.0099541592" flag="0"/>
      <psa30 value="0.0006928399" flag="0"/>
    </comp>
    <comp name="--.HHN">
      <acc value="0.0450120364" flag="0"/>
      <vel value="0.0177531023" flag="0"/>
      <psa03 value="0.0929057735" flag="0"/>
      <psa10 value="0.0083903975" flag="0"/>
      <psa30 value="0.0008250277" flag="0"/>
    </comp>
    <comp name="--.HHZ">
      <acc value="0.0217204179" flag="0"/>
      <vel value="0.0082416725" flag="0"/>
      <psa03 value="0.0517949148" flag="0"/>
      <psa10 value="0.0044842864" flag="0"/>
      <psa30 value="0.0005000837" flag="0"/>
    </comp>
  </station>
  <station code="FSK" name="FSK" netid="HP" insttype="40," lat="38.4593" lon="20.5623">
    <comp name="--.HHE">
      <acc value="0.0489718178" flag="0"/>
      <vel value="0.0126406290" flag="0"/>
      <psa03 value="0.0284344100" flag="0"/>
      <psa10 value="0.0108297795" flag="0"/>
      <psa30 value="0.0010993411" flag="0"/>
    </comp>
    <comp name="--.HHN">
      <acc value="0.0232149978" flag="0"/>
      <vel value="0.0107204396" flag="0"/>
      <psa03 value="0.0336412205" flag="0"/>
      <psa10 value="0.0109445712" flag="0"/>
      <psa30 value="0.0006291165" flag="0"/>
    </comp>
    <comp name="--.HHZ">
      <acc value="0.0162596025" flag="0"/>
      <vel value="0.0053383714" flag="0"/>
      <psa03 value="0.0232774133" flag="0"/>
      <psa10 value="0.0066234680" flag="0"/>
      <psa30 value="0.0007398224" flag="0"/>
    </comp>
  </station>
  <station code="LTHK" name="LTHK" netid="HP" insttype="40," lat="37.7095" lon="20.8367">
    <comp name="--.HHE">
      <acc value="1.1809996381" flag="0"/>
      <vel value="0.2241769897" flag="0"/>
      <psa03 value="1.2448105222" flag="0"/>
      <psa10 value="0.0797745828" flag="0"/>
      <psa30 value="0.0068662557" flag="0"/>
    </comp>
    <comp name="--.HHZ">
      <acc value="0.5624620046" flag="0"/>
      <vel value="0.1638140767" flag="0"/>
      <psa03 value="1.0049845999" flag="0"/>
      <psa10 value="0.0478677456" flag="0"/>
      <psa30 value="0.0033518967" flag="0"/>
    </comp>
    <comp name="--.HHN">
      <acc value="1.1130928484" flag="0"/>
      <vel value="0.4839930929" flag="0"/>
      <psa03 value="2.4938871513" flag="0"/>
      <psa10 value="0.1709766481" flag="0"/>
      <psa30 value="0.0187169021" flag="0"/>
    </comp>
  </station>
  <station code="PYL" name="PYL" netid="HP" insttype="DC_100" lat="36.8955" lon="21.742">
    <comp name="--.HNN">
      <acc value="0.0343397736" flag="0"/>
      <vel value="0.0126885114" flag="0"/>
      <psa03 value="0.0625332849" flag="0"/>
      <psa10 value="0.0077236275" flag="0"/>
      <psa30 value="0.0005879025" flag="0"/>
    </comp>
    <comp name="--.HNE">
      <acc value="0.0412568405" flag="0"/>
      <vel value="0.0299621091" flag="0"/>
      <psa03 value="0.0862836315" flag="0"/>
      <psa10 value="0.0210538740" flag="0"/>
      <psa30 value="0.0016417755" flag="0"/>
    </comp>
    <comp name="--.HNZ">
      <acc value="0.0190658984" flag="0"/>
      <vel value="0.0065845799" flag="0"/>
      <psa03 value="0.0262477789" flag="0"/>
      <psa10 value="0.0061023766" flag="0"/>
      <psa30 value="0.0004313667" flag="0"/>
    </comp>
  </station>
  <station code="DMLN" name="DMLN" netid="HT" insttype="1s-100Hz," lat="38.2385" lon="20.3734">
    <comp name="--.HHN">
      <acc value="0.0721798331" flag="0"/>
      <vel value="0.0296425810" flag="0"/>
      <psa03 value="0.1117459252" flag="0"/>
      <psa10 value="0.0350080497" flag="0"/>
      <psa30 value="0.0013427586" flag="0"/>
    </comp>
    <comp name="--.HHE">
      <acc value="0.0728951708" flag="0"/>
      <vel value="0.0324992881" flag="0"/>
      <psa03 value="0.1342454610" flag="0"/>
      <psa10 value="0.0387452466" flag="0"/>
      <psa30 value="0.0017713600" flag="0"/>
    </comp>
    <comp name="--.HHZ">
      <acc value="0.0525707977" flag="0"/>
      <vel value="0.0171417999" flag="0"/>
      <psa03 value="0.0481178001" flag="0"/>
      <psa10 value="0.0159672592" flag="0"/>
      <psa30 value="0.0008995920" flag="0"/>
    </comp>
  </station>
  <station code="RTZL" name="RTZL" netid="HT" insttype="Compact," lat="38.076" lon="20.7715">
    <comp name="--.HHE">
      <acc value="0.1306238909" flag="0"/>
      <vel value="0.0226738762" flag="0"/>
      <psa03 value="0.0955372450" flag="0"/>
      <psa10 value="0.0101883784" flag="0"/>
      <psa30 value="0.0007470079" flag="0"/>
    </comp>
    <comp name="--.HHN">
      <acc value="0.1032500974" flag="0"/>
      <vel value="0.0188213388" flag="0"/>
      <psa03 value="0.1037620869" flag="0"/>
      <psa10 value="0.0097627635" flag="0"/>
      <psa30 value="0.0006614352" flag="0"/>
    </comp>
    <comp name="--.HHZ">
      <acc value="0.0486508534" flag="0"/>
      <vel value="0.0105343701" flag="0"/>
      <psa03 value="0.0500354016" flag="0"/>
      <psa10 value="0.0067315504" flag="0"/>
      <psa30 value="0.0003521198" flag="0"/>
    </comp>
  </station>
</stationlist>
