<?xml version="1.0" encoding="UTF-8" standalone="yes"?>
<!DOCTYPE earthquake SYSTEM "stationlist.dtd">
<stationlist created="" xmlns="ch.ethz.sed.shakemap.usgs.xml">
  <station code="SMG" name="SMG" netid="HL" source="NOA" insttype="120P," lat="37.7043" lon="26.8377">
    <comp name="--.HHE">
      <acc value="0.0095570127" flag="0"/>
      <vel value="0.0051007325" flag="0"/>
      <psa03 value="0.0356570526" flag="0"/>
      <psa10 value="0.0053463572" flag="0"/>
      <psa30 value="0.0004475170" flag="0"/>
    </comp>
    <comp name="--.HHN">
      <acc value="0.0154019097" flag="0"/>
      <vel value="0.0071560147" flag="0"/>
      <psa03 value="0.0369595936" flag="0"/>
      <psa10 value="0.0046693971" flag="0"/>
      <psa30 value="0.0004794808" flag="0"/>
    </comp>
    <comp name="--.HHZ">
      <acc value="0.0057444229" flag="0"/>
      <vel value="0.0030085770" flag="0"/>
      <psa03 value="0.0140781122" flag="0"/>
      <psa10 value="0.0046482706" flag="0"/>
      <psa30 value="0.0002711570" flag="0"/>
    </comp>
  </station>
  <station code="AYDN" name="AYDN" netid="TU" source="ODC" insttype="T" lat="37.6608" lon="27.8792">
    <comp name="--.HHE">
      <acc value="0.0968869011" flag="0"/>
      <vel value="0.0275435926" flag="0"/>
      <psa03 value="0.1511777822" flag="0"/>
      <psa10 value="0.0118478804" flag="0"/>
      <psa30 value="0.0011624866" flag="0"/>
    </comp>
    <comp name="--.HHN">
      <acc value="0.0722787710" flag="0"/>
      <vel value="0.0261136420" flag="0"/>
      <psa03 value="0.1481094102" flag="0"/>
      <psa10 value="0.0210001725" flag="0"/>
      <psa30 value="0.0043223090" flag="0"/>
    </comp>
    <comp name="--.HHZ">
      <acc value="0.1499557781" flag="0"/>
      <vel value="0.0370537330" flag="0"/>
      <psa03 value="0.2234784529" flag="0"/>
      <psa10 value="0.0154575403" flag="0"/>
      <psa30 value="0.0017190575" flag="0"/>
    </comp>
  </station>
</stationlist>
