<stationlist xmlns:esm="https://esm-db.eu/esmws/shakemap/1/" created="1780710874">
	<station code="KOS2" name="KOS2" netid="HI" source="ITSAK Strong Motion Network" insttype="" lat="36.8941" lon="27.2888" esm:processing="manual (Paolucci et al 2011)" esm:quality="good">
		<comp name="--.HNE" depth="0.0">
			<acc value="0.0664849864900347" flag="0"/>
			<vel value="0.0455893771826584" flag="0"/>
			<psa03 value="0.195154553031369" flag="0"/>
			<psa10 value="0.0362789057994616" flag="0"/>
			<psa30 value="0.00407796431178871" flag="0"/>
		</comp>
		<comp name="--.HNN" depth="0.0">
			<acc value="0.0635311570230925" flag="0"/>
			<vel value="0.037407983570758" flag="0"/>
			<psa03 value="0.154362475756447" flag="0"/>
			<psa10 value="0.0390629364778307" flag="0"/>
			<psa30 value="0.0033518989218533" flag="0"/>
		</comp>
		<comp name="--.HNZ" depth="0.0">
			<acc value="0.0320534723344679" flag="0"/>
			<vel value="0.0131077564992692" flag="0"/>
			<psa03 value="0.0520833877688277" flag="0"/>
			<psa10 value="0.0190832160444074" flag="0"/>
			<psa30 value="0.0017973044792677" flag="0"/>
		</comp>
	</station>
	<station code="KRL1" name="KRL1" netid="HI" source="ITSAK Strong Motion Network" insttype="" lat="37.7951" lon="26.7065" esm:processing="manual (Paolucci et al 2011)" esm:quality="good">
		<comp name="--.HNE" depth="0.0">
			<acc value="0.0152781644308794" flag="0"/>
			<vel value="0.00972211791679542" flag="0"/>
			<psa03 value="0.0297805144795957" flag="0"/>
			<psa10 value="0.0195891808120901" flag="0"/>
			<psa30 value="0.00100619540550746" flag="0"/>
		</comp>
		<comp name="--.HNN" depth="0.0">
			<acc value="0.0100889750661175" flag="0"/>
			<vel value="0.0111109635485046" flag="0"/>
			<psa03 value="0.0173368268651117" flag="0"/>
			<psa10 value="0.0126926755149604" flag="0"/>
			<psa30 value="0.00122578588979935" flag="0"/>
		</comp>
		<comp name="--.HNZ" depth="0.0">
			<acc value="0.00763032503883107" flag="0"/>
			<vel value="0.00675381102898327" flag="0"/>
			<psa03 value="0.0129980420460778" flag="0"/>
			<psa10 value="0.0120139536779697" flag="0"/>
			<psa30 value="0.000607780939587747" flag="0"/>
		</comp>
	</station>
	<station code="RGE1" name="RGE1" netid="HI" source="ITSAK Strong Motion Network" insttype="" lat="36.0269" lon="27.9306" esm:processing="manual (Paolucci et al 2011)" esm:quality="good">
		<comp name="--.HNE" depth="0.0">
			<acc value="0.0168335574814458" flag="0"/>
			<vel value="0.01104231583816" flag="0"/>
			<psa03 value="0.037598571450001" flag="0"/>
			<psa10 value="0.0148943066747197" flag="0"/>
			<psa30 value="0.000830094729285254" flag="0"/>
		</comp>
		<comp name="--.HNN" depth="0.0">
			<acc value="0.021731876326059" flag="0"/>
			<vel value="0.0165905828910233" flag="0"/>
			<psa03 value="0.0786571898194627" flag="0"/>
			<psa10 value="0.0323761835132637" flag="0"/>
			<psa30 value="0.0017623619561637" flag="0"/>
		</comp>
		<comp name="--.HNZ" depth="0.0">
			<acc value="0.00665058618302288" flag="0"/>
			<vel value="0.00729034267699239" flag="0"/>
			<psa03 value="0.0272400545199247" flag="0"/>
			<psa10 value="0.0107123390148863" flag="0"/>
			<psa30 value="0.000575802102396727" flag="0"/>
		</comp>
	</station>
	<station code="RKT1" name="RKT1" netid="HI" source="ITSAK Strong Motion Network" insttype="" lat="35.954336" lon="27.767327" esm:processing="manual (Paolucci et al 2011)" esm:quality="good">
		<comp name="--.HNE" depth="0.0">
			<acc value="0.00969019676727426" flag="0"/>
			<vel value="0.00802544606879234" flag="0"/>
			<psa03 value="0.0311351172362137" flag="0"/>
			<psa10 value="0.0134505913481647" flag="0"/>
			<psa30 value="0.000549600418747109" flag="0"/>
		</comp>
		<comp name="--.HNN" depth="0.0">
			<acc value="0.0142845299401293" flag="0"/>
			<vel value="0.00922554687676046" flag="0"/>
			<psa03 value="0.0415185576923513" flag="0"/>
			<psa10 value="0.00583803189721161" flag="0"/>
			<psa30 value="0.000481999325923146" flag="0"/>
		</comp>
		<comp name="--.HNZ" depth="0.0">
			<acc value="0.00564160462866246" flag="0"/>
			<vel value="0.00320807406628634" flag="0"/>
			<psa03 value="0.0102688768772794" flag="0"/>
			<psa10 value="0.00518163622671987" flag="0"/>
			<psa30 value="0.000557153835790585" flag="0"/>
		</comp>
	</station>
	<station code="RLN1" name="RLN1" netid="HI" source="ITSAK Strong Motion Network" insttype="" lat="36.089085" lon="28.086909" esm:processing="manual (Paolucci et al 2011)" esm:quality="good">
		<comp name="--.HNE" depth="0.0">
			<acc value="0.00853539680751385" flag="0"/>
			<vel value="0.00654600903687093" flag="0"/>
			<psa03 value="0.0220999796401901" flag="0"/>
			<psa10 value="0.00768008736184581" flag="0"/>
			<psa30 value="0.000787430027958179" flag="0"/>
		</comp>
		<comp name="--.HNN" depth="0.0">
			<acc value="0.0058564278623394" flag="0"/>
			<vel value="0.00508054201536759" flag="0"/>
			<psa03 value="0.0174525415618925" flag="0"/>
			<psa10 value="0.00586993151040443" flag="0"/>
			<psa30 value="0.000606923851559871" flag="0"/>
		</comp>
		<comp name="--.HNZ" depth="0.0">
			<acc value="0.00547574323221055" flag="0"/>
			<vel value="0.00327893673139442" flag="0"/>
			<psa03 value="0.0137430223869525" flag="0"/>
			<psa10 value="0.00307542943523166" flag="0"/>
			<psa30 value="0.000270313740291997" flag="0"/>
		</comp>
	</station>
	<station code="RSO1" name="RSO1" netid="HI" source="ITSAK Strong Motion Network" insttype="" lat="36.3632" lon="28.0016" esm:processing="manual (Paolucci et al 2011)" esm:quality="good">
		<comp name="--.HNE" depth="0.0">
			<acc value="0.0308642411326357" flag="0"/>
			<vel value="0.017094708390566" flag="0"/>
			<psa03 value="0.13921173251073" flag="0"/>
			<psa10 value="0.0226697192576436" flag="0"/>
			<psa30 value="0.000994177213527894" flag="0"/>
		</comp>
		<comp name="--.HNN" depth="0.0">
			<acc value="0.0311876575494128" flag="0"/>
			<vel value="0.0157670638511827" flag="0"/>
			<psa03 value="0.0781653811978886" flag="0"/>
			<psa10 value="0.0191883673851676" flag="0"/>
			<psa30 value="0.00262073486082263" flag="0"/>
		</comp>
		<comp name="--.HNZ" depth="0.0">
			<acc value="0.0144191713996572" flag="0"/>
			<vel value="0.00945388679440276" flag="0"/>
			<psa03 value="0.0467055210948871" flag="0"/>
			<psa10 value="0.00929664554464176" flag="0"/>
			<psa30 value="0.00107715208520592" flag="0"/>
		</comp>
	</station>
	<station code="KLNA" name="KLNA" netid="HL" source="National Observatory of Athens Seismic Network" insttype="" lat="36.95708" lon="26.97274" esm:processing="manual (Paolucci et al 2011)" esm:quality="good">
		<comp name="00.HNE" depth="0.0">
			<acc value="0.0416512921260098" flag="0"/>
			<vel value="0.0155551782602696" flag="0"/>
			<psa03 value="0.128768070647386" flag="0"/>
			<psa10 value="0.00600395670610589" flag="0"/>
			<psa30 value="0.000478741610815508" flag="0"/>
		</comp>
		<comp name="00.HNN" depth="0.0">
			<acc value="0.0265914138381205" flag="0"/>
			<vel value="0.0101612108651631" flag="0"/>
			<psa03 value="0.0638918710508921" flag="0"/>
			<psa10 value="0.00521470418135957" flag="0"/>
			<psa30 value="0.000476504500484594" flag="0"/>
		</comp>
		<comp name="00.HNZ" depth="0.0">
			<acc value="0.0344583882568588" flag="0"/>
			<vel value="0.00798164214198033" flag="0"/>
			<psa03 value="0.0321696465585374" flag="0"/>
			<psa10 value="0.00320935848072863" flag="0"/>
			<psa30 value="0.000242950181937216" flag="0"/>
		</comp>
	</station>
	<station code="RODB" name="RODB" netid="HL" source="National Observatory of Athens Seismic Network" insttype="" lat="36.4471" lon="28.22116" esm:processing="manual (Paolucci et al 2011)" esm:quality="good">
		<comp name="00.HNE" depth="0.0">
			<acc value="0.0188831562507374" flag="0"/>
			<vel value="0.0153920238830194" flag="0"/>
			<psa03 value="0.101117386957294" flag="0"/>
			<psa10 value="0.0188454174276161" flag="0"/>
			<psa30 value="0.00255477999790332" flag="0"/>
		</comp>
		<comp name="00.HNN" depth="0.0">
			<acc value="0.01544916461856" flag="0"/>
			<vel value="0.00896630724711328" flag="0"/>
			<psa03 value="0.050871888924975" flag="0"/>
			<psa10 value="0.0131958189979269" flag="0"/>
			<psa30 value="0.00125680858390725" flag="0"/>
		</comp>
		<comp name="00.HNZ" depth="0.0">
			<acc value="0.0131852478416054" flag="0"/>
			<vel value="0.0064165335759994" flag="0"/>
			<psa03 value="0.0394178840306974" flag="0"/>
			<psa10 value="0.00821064233651905" flag="0"/>
			<psa30 value="0.00083802152996023" flag="0"/>
		</comp>
	</station>
	<station code="CAME" name="CAME" netid="KO" source="Bogazici University Kandilli Observatory And Earthquake Research Institute (KOERI)" insttype="" lat="36.9435" lon="29.3023" esm:processing="manual (Paolucci et al 2011)" esm:quality="good">
		<comp name="--.HNE" depth="0.0">
			<acc value="0.00735640250859324" flag="0"/>
			<vel value="0.0039150971380662" flag="0"/>
			<psa03 value="0.0215210013833887" flag="0"/>
			<psa10 value="0.00172749659753147" flag="0"/>
			<psa30 value="0.000162861632090509" flag="0"/>
		</comp>
		<comp name="--.HNN" depth="0.0">
			<acc value="0.0077076711587398" flag="0"/>
			<vel value="0.00441801293736429" flag="0"/>
			<psa03 value="0.0267110973511082" flag="0"/>
			<psa10 value="0.00187246134697467" flag="0"/>
			<psa30 value="0.000187917267796741" flag="0"/>
		</comp>
		<comp name="--.HNZ" depth="0.0">
			<acc value="0.0036299976474981" flag="0"/>
			<vel value="0.00229346260201004" flag="0"/>
			<psa03 value="0.0079193705714341" flag="0"/>
			<psa10 value="0.00123622716886285" flag="0"/>
			<psa30 value="0.00018612757953201" flag="0"/>
		</comp>
	</station>
</stationlist>
