<?xml version="1.0" encoding="UTF-8" standalone="yes"?>
<!DOCTYPE earthquake SYSTEM "stationlist.dtd">
<stationlist created="" xmlns="ch.ethz.sed.shakemap.usgs.xml">
  <station code="KARP" name="KARP" netid="GE" insttype="STS-2/N" commtype="DIG" lat="35.5471" lon="27.1611">
    <comp name="--.HHN">
      <acc value="0.1885835234" flag="0"/>
      <vel value="0.0548293786" flag="0"/>
      <psa03 value="0.1384860135" flag="0"/>
      <psa10 value="0.0253877846" flag="0"/>
      <psa30 value="0.0016093800" flag="0"/>
    </comp>
    <comp name="--.HHZ">
      <acc value="0.1001258728" flag="0"/>
      <vel value="0.0304256884" flag="0"/>
      <psa03 value="0.1814358476" flag="0"/>
      <psa10 value="0.0124268096" flag="0"/>
      <psa30 value="0.0007010998" flag="0"/>
    </comp>
    <comp name="--.HHE">
      <acc value="0.1498609174" flag="0"/>
      <vel value="0.0443619173" flag="0"/>
      <psa03 value="0.3030756125" flag="0"/>
      <psa10 value="0.0218793216" flag="0"/>
      <psa30 value="0.0014380204" flag="0"/>
    </comp>
  </station>
  <station code="ZKR" name="ZKR" netid="GE" insttype="STS-2/N" commtype="DIG" lat="35.1147" lon="26.2169">
    <comp name="--.HHN">
      <acc value="0.0276070862" flag="0"/>
      <vel value="0.0133019620" flag="0"/>
      <psa03 value="0.0542215071" flag="0"/>
      <psa10 value="0.0088640158" flag="0"/>
      <psa30 value="0.0013460583" flag="0"/>
    </comp>
    <comp name="--.HHE">
      <acc value="0.0668947740" flag="0"/>
      <vel value="0.0221764517" flag="0"/>
      <psa03 value="0.1156799952" flag="0"/>
      <psa10 value="0.0165667744" flag="0"/>
      <psa30 value="0.0013997816" flag="0"/>
    </comp>
    <comp name="--.HHZ">
      <acc value="0.0699792894" flag="0"/>
      <vel value="0.0168550606" flag="0"/>
      <psa03 value="0.0751942582" flag="0"/>
      <psa10 value="0.0111272960" flag="0"/>
      <psa30 value="0.0009861111" flag="0"/>
    </comp>
  </station>
  <station code="PFKS" name="PFKS" netid="HC" insttype="120" commtype="DIG" lat="35.0429" lon="25.4733">
    <comp name="--.HHE">
      <acc value="0.0206894405" flag="0"/>
      <vel value="0.0110400154" flag="0"/>
      <psa03 value="0.0703828405" flag="0"/>
      <psa10 value="0.0104750783" flag="0"/>
      <psa30 value="0.0004798446" flag="0"/>
    </comp>
    <comp name="--.HHZ">
      <acc value="0.0087796651" flag="0"/>
      <vel value="0.0064822740" flag="0"/>
      <psa03 value="0.0282242506" flag="0"/>
      <psa10 value="0.0083051920" flag="0"/>
      <psa30 value="0.0005962894" flag="0"/>
    </comp>
    <comp name="--.HHN">
      <acc value="0.0148551078" flag="0"/>
      <vel value="0.0109814911" flag="0"/>
      <psa03 value="0.0331518573" flag="0"/>
      <psa10 value="0.0101329425" flag="0"/>
      <psa30 value="0.0009079212" flag="0"/>
    </comp>
  </station>
  <station code="STIA" name="STIA" netid="HC" insttype="120" commtype="DIG" lat="35.2021" lon="26.0909">
    <comp name="--.HHE">
      <acc value="0.0458675581" flag="0"/>
      <vel value="0.0221314810" flag="0"/>
      <psa03 value="0.0923991092" flag="0"/>
      <psa10 value="0.0318956652" flag="0"/>
      <psa30 value="0.0015501588" flag="0"/>
    </comp>
    <comp name="--.HHN">
      <acc value="0.0000000000" flag="0"/>
      <vel value="-100.0000000000" flag="0"/>
      <psa03 value="0.0000000000" flag="0"/>
      <psa10 value="0.0000000000" flag="0"/>
      <psa30 value="0.0000000000" flag="0"/>
    </comp>
    <comp name="--.HHZ">
      <acc value="0.0459935544" flag="0"/>
      <vel value="0.0184355484" flag="0"/>
      <psa03 value="0.0809880926" flag="0"/>
      <psa10 value="0.0109651575" flag="0"/>
      <psa30 value="0.0011308499" flag="0"/>
    </comp>
  </station>
  <station code="AGN1" name="AGN1" netid="HI" insttype="unknown" commtype="DIG" lat="35.1879" lon="25.7155">
    <comp name="--.HNZ">
      <acc value="0.0100711114" flag="0"/>
      <vel value="0.0038234584" flag="0"/>
      <psa03 value="0.0229750979" flag="0"/>
      <psa10 value="0.0055268182" flag="0"/>
      <psa30 value="0.0003472140" flag="0"/>
    </comp>
    <comp name="--.HNN">
      <acc value="0.0213457928" flag="0"/>
      <vel value="0.0124596016" flag="0"/>
      <psa03 value="0.0601397875" flag="0"/>
      <psa10 value="0.0159991944" flag="0"/>
      <psa30 value="0.0008076436" flag="0"/>
    </comp>
    <comp name="--.HNE">
      <acc value="0.0182300705" flag="0"/>
      <vel value="0.0169976189" flag="0"/>
      <psa03 value="0.0475917205" flag="0"/>
      <psa10 value="0.0245450258" flag="0"/>
      <psa30 value="0.0009252556" flag="0"/>
    </comp>
  </station>
  <station code="KSS1" name="KSS1" netid="HI" insttype="CMG-5TD,ACCELEROMETER,GURALP" commtype="DIG" lat="35.4189" lon="26.9207">
    <comp name="--.HNE">
      <acc value="0.1303526850" flag="0"/>
      <vel value="0.0558355062" flag="0"/>
      <psa03 value="0.5404022192" flag="0"/>
      <psa10 value="0.0218837874" flag="0"/>
      <psa30 value="0.0017469668" flag="0"/>
    </comp>
    <comp name="--.HNZ">
      <acc value="0.2267288296" flag="0"/>
      <vel value="0.0589332496" flag="0"/>
      <psa03 value="0.1042453958" flag="0"/>
      <psa10 value="0.0222478275" flag="0"/>
      <psa30 value="0.0017207319" flag="0"/>
    </comp>
    <comp name="--.HNN">
      <acc value="0.3169044669" flag="0"/>
      <vel value="0.1020045843" flag="0"/>
      <psa03 value="0.4944340200" flag="0"/>
      <psa10 value="0.0306153678" flag="0"/>
      <psa30 value="0.0028029063" flag="0"/>
    </comp>
  </station>
  <station code="KARP" name="KARP" netid="HL" insttype="120" commtype="DIG" lat="35.5471" lon="27.1611">
    <comp name="--.HHZ">
      <acc value="0.0948300201" flag="0"/>
      <vel value="0.0293147396" flag="0"/>
      <psa03 value="0.1772418375" flag="0"/>
      <psa10 value="0.0123049497" flag="0"/>
      <psa30 value="0.0006920989" flag="0"/>
    </comp>
    <comp name="--.HHN">
      <acc value="0.1793519586" flag="0"/>
      <vel value="0.0522167778" flag="0"/>
      <psa03 value="0.1355826515" flag="0"/>
      <psa10 value="0.0252253315" flag="0"/>
      <psa30 value="0.0015778330" flag="0"/>
    </comp>
    <comp name="--.HHE">
      <acc value="0.1398036246" flag="0"/>
      <vel value="0.0435575271" flag="0"/>
      <psa03 value="0.2959879245" flag="0"/>
      <psa10 value="0.0217233411" flag="0"/>
      <psa30 value="0.0014069119" flag="0"/>
    </comp>
  </station>
</stationlist>
