<?xml version="1.0" encoding="UTF-8" standalone="yes"?>
<!DOCTYPE earthquake SYSTEM "stationlist.dtd">
<stationlist created="" xmlns="ch.ethz.sed.shakemap.usgs.xml">
  <station code="KARO" name="KARO" netid="KO" insttype="CMG-3T" lat="39.3089" lon="41.0493">
    <comp name="--.HHZ">
      <acc value="0.0098742034" flag="0"/>
      <vel value="0.0038920384" flag="0"/>
      <psa03 value="0.0256072158" flag="0"/>
      <psa10 value="0.0038171882" flag="0"/>
      <psa30 value="0.0020457769" flag="0"/>
    </comp>
    <comp name="--.HHN">
      <acc value="0.0095292650" flag="0"/>
      <vel value="0.0061857671" flag="0"/>
      <psa03 value="0.0304357537" flag="0"/>
      <psa10 value="0.0072218814" flag="0"/>
      <psa30 value="0.0037092212" flag="0"/>
    </comp>
  </station>
</stationlist>
