<?xml version="1.0" encoding="UTF-8" standalone="yes"?>
<!DOCTYPE earthquake SYSTEM "stationlist.dtd">
<stationlist created="" xmlns="ch.ethz.sed.shakemap.usgs.xml">
  <station code="KARP" name="KARP" netid="GE" insttype="STS-2/N" lat="35.5471" lon="27.1611">
    <comp name="--.HHN">
      <acc value="0.1207149024" flag="0"/>
      <vel value="0.0366804360" flag="0"/>
      <psa03 value="0.0894141246" flag="0"/>
      <psa10 value="0.0308202634" flag="0"/>
      <psa30 value="0.0015050830" flag="0"/>
    </comp>
    <comp name="--.HHZ">
      <acc value="0.0677958727" flag="0"/>
      <vel value="0.0173890365" flag="0"/>
      <psa03 value="0.0705456979" flag="0"/>
      <psa10 value="0.0142784092" flag="0"/>
      <psa30 value="0.0012448622" flag="0"/>
    </comp>
    <comp name="--.HHE">
      <acc value="0.1349170791" flag="0"/>
      <vel value="0.0250913915" flag="0"/>
      <psa03 value="0.0741966305" flag="0"/>
      <psa10 value="0.0264564126" flag="0"/>
      <psa30 value="0.0011007964" flag="0"/>
    </comp>
  </station>
  <station code="THERA" name="THERA" netid="GE" insttype="STS-2/N" lat="36.367" lon="25.4753">
    <comp name="--.HHN">
      <acc value="0.0145367835" flag="0"/>
      <vel value="0.0076630750" flag="0"/>
      <psa03 value="0.0394936138" flag="0"/>
      <psa10 value="0.0042323525" flag="0"/>
      <psa30 value="0.0005232137" flag="0"/>
    </comp>
    <comp name="--.HHE">
      <acc value="0.0285216615" flag="0"/>
      <vel value="0.0142181361" flag="0"/>
      <psa03 value="0.0597454073" flag="0"/>
      <psa10 value="0.0225511256" flag="0"/>
      <psa30 value="0.0016613657" flag="0"/>
    </comp>
    <comp name="--.HHZ">
      <acc value="0.0181306905" flag="0"/>
      <vel value="0.0075750095" flag="0"/>
      <psa03 value="0.0488376089" flag="0"/>
      <psa10 value="0.0078269324" flag="0"/>
      <psa30 value="0.0008606138" flag="0"/>
    </comp>
  </station>
  <station code="ZKR" name="ZKR" netid="GE" insttype="STS-2/N" lat="35.1147" lon="26.2169">
    <comp name="--.HHE">
      <acc value="0.0969181603" flag="0"/>
      <vel value="0.0594216042" flag="0"/>
      <psa03 value="0.1088523164" flag="0"/>
      <psa10 value="0.0504683779" flag="0"/>
      <psa30 value="0.0030193211" flag="0"/>
    </comp>
    <comp name="--.HHZ">
      <acc value="0.0614067639" flag="0"/>
      <vel value="0.0161901840" flag="0"/>
      <psa03 value="0.0772964023" flag="0"/>
      <psa10 value="0.0232307192" flag="0"/>
      <psa30 value="0.0011445366" flag="0"/>
    </comp>
    <comp name="--.HHN">
      <acc value="0.0390503375" flag="0"/>
      <vel value="0.0148679160" flag="0"/>
      <psa03 value="0.0922863482" flag="0"/>
      <psa10 value="0.0094289961" flag="0"/>
      <psa30 value="0.0006603121" flag="0"/>
    </comp>
  </station>
  <station code="SNT5" name="SNT5" netid="HA" insttype="1s-100Hz," lat="36.4037" lon="25.3953">
    <comp name="--.HHZ">
      <acc value="0.0283331344" flag="0"/>
      <vel value="0.0089238872" flag="0"/>
      <psa03 value="0.0351286425" flag="0"/>
      <psa10 value="0.0072415460" flag="0"/>
      <psa30 value="0.0012817600" flag="0"/>
    </comp>
    <comp name="--.HHE">
      <acc value="0.0762395526" flag="0"/>
      <vel value="0.0339371476" flag="0"/>
      <psa03 value="0.1476614727" flag="0"/>
      <psa10 value="0.0193052638" flag="0"/>
      <psa30 value="0.0032207924" flag="0"/>
    </comp>
    <comp name="--.HHN">
      <acc value="0.0635015837" flag="0"/>
      <vel value="0.0186393789" flag="0"/>
      <psa03 value="0.1087542317" flag="0"/>
      <psa10 value="0.0108905779" flag="0"/>
      <psa30 value="0.0019371911" flag="0"/>
    </comp>
  </station>
  <station code="SIT2" name="SIT2" netid="HI" insttype="CMG-5TD,ACCELEROMETER,GURALP" lat="35.2059" lon="26.107">
    <comp name="--.HNE">
      <acc value="0.2057715721" flag="0"/>
      <vel value="0.1245644308" flag="0"/>
      <psa03 value="0.7937958226" flag="0"/>
      <psa10 value="0.0545270093" flag="0"/>
      <psa30 value="0.0052435536" flag="0"/>
    </comp>
    <comp name="--.HNZ">
      <acc value="0.1913940817" flag="0"/>
      <vel value="0.0651023026" flag="0"/>
      <psa03 value="0.4746609028" flag="0"/>
      <psa10 value="0.0284378510" flag="0"/>
      <psa30 value="0.0016990197" flag="0"/>
    </comp>
    <comp name="--.HNN">
      <acc value="0.3107119094" flag="0"/>
      <vel value="0.1527078227" flag="0"/>
      <psa03 value="1.1748533507" flag="0"/>
      <psa10 value="0.0632114589" flag="0"/>
      <psa30 value="0.0050631453" flag="0"/>
    </comp>
  </station>
  <station code="IACM" name="IACM" netid="HL" insttype="120" lat="35.3058" lon="25.0709">
    <comp name="--.HHE">
      <acc value="0.1152831276" flag="0"/>
      <vel value="0.0615399024" flag="0"/>
      <psa03 value="0.3110831533" flag="0"/>
      <psa10 value="0.0825532635" flag="0"/>
      <psa30 value="0.0033849868" flag="0"/>
    </comp>
    <comp name="--.HHZ">
      <acc value="0.0874408952" flag="0"/>
      <vel value="0.0383516210" flag="0"/>
      <psa03 value="0.1653317018" flag="0"/>
      <psa10 value="0.0310444808" flag="0"/>
      <psa30 value="0.0012033926" flag="0"/>
    </comp>
    <comp name="--.HHN">
      <acc value="0.1668333266" flag="0"/>
      <vel value="0.0751374831" flag="0"/>
      <psa03 value="0.6092371573" flag="0"/>
      <psa10 value="0.0644644692" flag="0"/>
      <psa30 value="0.0021304710" flag="0"/>
    </comp>
  </station>
  <station code="KARP" name="KARP" netid="HL" insttype="120" lat="35.5471" lon="27.1611">
    <comp name="--.HHZ">
      <acc value="0.0648105597" flag="0"/>
      <vel value="0.0164529297" flag="0"/>
      <psa03 value="0.0690026494" flag="0"/>
      <psa10 value="0.0141811705" flag="0"/>
      <psa30 value="0.0012422392" flag="0"/>
    </comp>
    <comp name="--.HHE">
      <acc value="0.1197167005" flag="0"/>
      <vel value="0.0237203411" flag="0"/>
      <psa03 value="0.0723848267" flag="0"/>
      <psa10 value="0.0263050062" flag="0"/>
      <psa30 value="0.0010925051" flag="0"/>
    </comp>
    <comp name="--.HHN">
      <acc value="0.1187782106" flag="0"/>
      <vel value="0.0359107181" flag="0"/>
      <psa03 value="0.0865736844" flag="0"/>
      <psa10 value="0.0305685728" flag="0"/>
      <psa30 value="0.0014956491" flag="0"/>
    </comp>
  </station>
  <station code="NPS" name="NPS" netid="HL" insttype="CMG3ESPC-120s" lat="35.2613" lon="25.6104">
    <comp name="--.HHZ">
      <acc value="0.1504534794" flag="0"/>
      <vel value="0.0387762958" flag="0"/>
      <psa03 value="0.2235387274" flag="0"/>
      <psa10 value="0.0221940639" flag="0"/>
      <psa30 value="0.0016520607" flag="0"/>
    </comp>
    <comp name="--.HHN">
      <acc value="0.1236842613" flag="0"/>
      <vel value="0.0559027151" flag="0"/>
      <psa03 value="0.2305788252" flag="0"/>
      <psa10 value="0.0292215114" flag="0"/>
      <psa30 value="0.0018457648" flag="0"/>
    </comp>
    <comp name="--.HHE">
      <acc value="0.0658349205" flag="0"/>
      <vel value="0.0267060577" flag="0"/>
      <psa03 value="0.1444340071" flag="0"/>
      <psa10 value="0.0128460028" flag="0"/>
      <psa30 value="0.0008124717" flag="0"/>
    </comp>
  </station>
  <station code="SAP3" name="SAP3" netid="HL" insttype="LE3D20_SMART24" lat="36.4356" lon="25.3454">
    <comp name="--.HHZ">
      <acc value="0.0497361004" flag="0"/>
      <vel value="0.0187189373" flag="0"/>
      <psa03 value="0.1004414745" flag="0"/>
      <psa10 value="0.0217788530" flag="0"/>
      <psa30 value="0.0020438078" flag="0"/>
    </comp>
    <comp name="--.HHN">
      <acc value="0.0548723688" flag="0"/>
      <vel value="0.0365798542" flag="0"/>
      <psa03 value="0.1914716325" flag="0"/>
      <psa10 value="0.0619356090" flag="0"/>
      <psa30 value="0.0050387736" flag="0"/>
    </comp>
    <comp name="--.HHE">
      <acc value="0.0611506253" flag="0"/>
      <vel value="0.0387242660" flag="0"/>
      <psa03 value="0.2078563999" flag="0"/>
      <psa10 value="0.0530643374" flag="0"/>
      <psa30 value="0.0054389462" flag="0"/>
    </comp>
  </station>
  <station code="THERA" name="THERA" netid="HL" insttype="120" lat="36.367" lon="25.4753">
    <comp name="--.HHZ">
      <acc value="0.0175598507" flag="0"/>
      <vel value="0.0073810618" flag="0"/>
      <psa03 value="0.0474149819" flag="0"/>
      <psa10 value="0.0077577705" flag="0"/>
      <psa30 value="0.0008608387" flag="0"/>
    </comp>
    <comp name="--.HHE">
      <acc value="0.0277188527" flag="0"/>
      <vel value="0.0138873608" flag="0"/>
      <psa03 value="0.0579961026" flag="0"/>
      <psa10 value="0.0223748762" flag="0"/>
      <psa30 value="0.0016545010" flag="0"/>
    </comp>
    <comp name="--.HHN">
      <acc value="0.0142167979" flag="0"/>
      <vel value="0.0075107439" flag="0"/>
      <psa03 value="0.0383975390" flag="0"/>
      <psa10 value="0.0041969302" flag="0"/>
      <psa30 value="0.0005223248" flag="0"/>
    </comp>
  </station>
  <station code="THRA" name="THRA" netid="HL" insttype="CMG-5" lat="36.415" lon="25.4324">
    <comp name="00.HNN">
      <acc value="0.0580190148" flag="0"/>
      <vel value="0.0438560266" flag="0"/>
      <psa03 value="0.1182016949" flag="0"/>
      <psa10 value="0.0577008808" flag="0"/>
      <psa30 value="0.0036361201" flag="0"/>
    </comp>
    <comp name="00.HNE">
      <acc value="0.0827468698" flag="0"/>
      <vel value="0.0510356540" flag="0"/>
      <psa03 value="0.1939627179" flag="0"/>
      <psa10 value="0.0872522458" flag="0"/>
      <psa30 value="0.0063167113" flag="0"/>
    </comp>
    <comp name="00.HNZ">
      <acc value="0.0488461401" flag="0"/>
      <vel value="0.0283275475" flag="0"/>
      <psa03 value="0.1417906607" flag="0"/>
      <psa10 value="0.0300542227" flag="0"/>
      <psa30 value="0.0016006241" flag="0"/>
    </comp>
  </station>
  <station code="ZKR" name="ZKR" netid="HL" insttype="120" lat="35.1147" lon="26.2169">
    <comp name="--.HHZ">
      <acc value="0.0602026936" flag="0"/>
      <vel value="0.0157123074" flag="0"/>
      <psa03 value="0.0749724167" flag="0"/>
      <psa10 value="0.0230840046" flag="0"/>
      <psa30 value="0.0011423166" flag="0"/>
    </comp>
    <comp name="--.HHN">
      <acc value="0.0385276521" flag="0"/>
      <vel value="0.0144599373" flag="0"/>
      <psa03 value="0.0900640114" flag="0"/>
      <psa10 value="0.0093348672" flag="0"/>
      <psa30 value="0.0006552889" flag="0"/>
    </comp>
    <comp name="--.HHE">
      <acc value="0.0934889347" flag="0"/>
      <vel value="0.0584516360" flag="0"/>
      <psa03 value="0.1058504205" flag="0"/>
      <psa10 value="0.0502242378" flag="0"/>
      <psa30 value="0.0030015549" flag="0"/>
    </comp>
  </station>
  <station code="CMBO" name="CMBO" netid="HT" insttype="120P," lat="36.4709" lon="25.4056">
    <comp name="--.HHZ">
      <acc value="0.0703917620" flag="0"/>
      <vel value="0.0405332308" flag="0"/>
      <psa03 value="0.2073821266" flag="0"/>
      <psa10 value="0.0186889048" flag="0"/>
      <psa30 value="0.0024948535" flag="0"/>
    </comp>
    <comp name="--.HHN">
      <acc value="0.1057329430" flag="0"/>
      <vel value="0.0635313202" flag="0"/>
      <psa03 value="0.2959931914" flag="0"/>
      <psa10 value="0.0906380377" flag="0"/>
      <psa30 value="0.0044161473" flag="0"/>
    </comp>
    <comp name="--.HHE">
      <acc value="0.1393405936" flag="0"/>
      <vel value="0.0949460778" flag="0"/>
      <psa03 value="0.2778861269" flag="0"/>
      <psa10 value="0.0864528265" flag="0"/>
      <psa30 value="0.0065502804" flag="0"/>
    </comp>
  </station>
</stationlist>
