<stationlist created="1631873549">
	<station code="CH01" name="CH01" netid="HI" source="ITSAK Strong Motion Network" insttype="" lat="35.517" lon="24.0208">
		<comp name="--.HNE" depth="0.0">
			<acc value="-0.011761926" flag="0"/>
			<vel value="0.006814" flag="0"/>
			<psa03 value="0.0230422364084" flag="0"/>
			<psa10 value="0.0105864535079" flag="0"/>
			<psa30 value="0.000595966192155" flag="0"/>
		</comp>
		<comp name="--.HNN" depth="0.0">
			<acc value="0.01379805" flag="0"/>
			<vel value="-0.005805" flag="0"/>
			<psa03 value="0.0303352160872" flag="0"/>
			<psa10 value="0.0106347750911" flag="0"/>
			<psa30 value="0.00068679287159" flag="0"/>
		</comp>
		<comp name="--.HNZ" depth="0.0">
			<acc value="0.007558608" flag="0"/>
			<vel value="-0.003404" flag="0"/>
			<psa03 value="0.0105591607619" flag="0"/>
			<psa10 value="0.00617308224712" flag="0"/>
			<psa30 value="0.000372255159064" flag="0"/>
		</comp>
	</station>
	<station code="KSS1" name="KSS1" netid="HI" source="ITSAK Strong Motion Network" insttype="" lat="35.4189" lon="26.9207">
		<comp name="--.HNE" depth="0.0">
			<acc value="-0.183399672" flag="0"/>
			<vel value="-0.059569" flag="0"/>
			<psa03 value="0.18760407235" flag="0"/>
			<psa10 value="0.0290936198535" flag="0"/>
			<psa30 value="0.00149438970105" flag="0"/>
		</comp>
		<comp name="--.HNN" depth="0.0">
			<acc value="-0.33575187" flag="0"/>
			<vel value="0.100005" flag="0"/>
			<psa03 value="0.584377960641" flag="0"/>
			<psa10 value="0.0448343755639" flag="0"/>
			<psa30 value="0.00391046885844" flag="0"/>
		</comp>
		<comp name="--.HNZ" depth="0.0">
			<acc value="0.159432222" flag="0"/>
			<vel value="0.046375" flag="0"/>
			<psa03 value="0.112034485372" flag="0"/>
			<psa10 value="0.0225822865244" flag="0"/>
			<psa30 value="0.0019104922226" flag="0"/>
		</comp>
	</station>
	<station code="NAX1" name="NAX1" netid="HI" source="ITSAK Strong Motion Network" insttype="" lat="37.101394" lon="25.374103">
		<comp name="--.HNE" depth="0.0">
			<acc value="0.005447922" flag="0"/>
			<vel value="0.004233" flag="0"/>
			<psa03 value="0.013601630812" flag="0"/>
			<psa10 value="0.00533953493782" flag="0"/>
			<psa30 value="0.000574489932979" flag="0"/>
		</comp>
		<comp name="--.HNN" depth="0.0">
			<acc value="-0.003800724" flag="0"/>
			<vel value="0.001804" flag="0"/>
			<psa03 value="0.0102907075222" flag="0"/>
			<psa10 value="0.00318117089056" flag="0"/>
			<psa30 value="0.00038791493138" flag="0"/>
		</comp>
		<comp name="--.HNZ" depth="0.0">
			<acc value="-0.002818362" flag="0"/>
			<vel value="0.001887" flag="0"/>
			<psa03 value="0.00724823747216" flag="0"/>
			<psa10 value="0.0028670806001" flag="0"/>
			<psa30 value="0.000365543828071" flag="0"/>
		</comp>
	</station>
	<station code="SIT2" name="SIT2" netid="HI" source="ITSAK Strong Motion Network" insttype="" lat="35.2059" lon="26.107">
		<comp name="--.HNE" depth="0.0">
			<acc value="-0.205377306" flag="0"/>
			<vel value="0.124212" flag="0"/>
			<psa03 value="0.778066973092" flag="0"/>
			<psa10 value="0.0546557373387" flag="0"/>
			<psa30 value="0.00531447930212" flag="0"/>
		</comp>
		<comp name="--.HNN" depth="0.0">
			<acc value="-0.310888656" flag="0"/>
			<vel value="0.152846" flag="0"/>
			<psa03 value="1.1607470663" flag="0"/>
			<psa10 value="0.0634542922702" flag="0"/>
			<psa30 value="0.00519188565598" flag="0"/>
		</comp>
		<comp name="--.HNZ" depth="0.0">
			<acc value="0.1897149" flag="0"/>
			<vel value="-0.065517" flag="0"/>
			<psa03 value="0.481157689973" flag="0"/>
			<psa10 value="0.0284573856754" flag="0"/>
			<psa30 value="0.00171138940315" flag="0"/>
		</comp>
	</station>
	<station code="IACM" name="IACM" netid="HL" source="National Observatory of Athens Seismic Network" insttype="" lat="35.3058" lon="25.0709">
		<comp name="--.HNE" depth="0.0">
			<acc value="-0.117934644" flag="0"/>
			<vel value="-0.062629" flag="0"/>
			<psa03 value="0.285097340572" flag="0"/>
			<psa10 value="0.0815466983604" flag="0"/>
			<psa30 value="0.00339682832646" flag="0"/>
		</comp>
		<comp name="--.HNN" depth="0.0">
			<acc value="-0.166161264" flag="0"/>
			<vel value="0.077266" flag="0"/>
			<psa03 value="0.61985853049" flag="0"/>
			<psa10 value="0.0657092994837" flag="0"/>
			<psa30 value="0.00224740103844" flag="0"/>
		</comp>
		<comp name="--.HNZ" depth="0.0">
			<acc value="-0.086933478" flag="0"/>
			<vel value="0.037808" flag="0"/>
			<psa03 value="0.166754204066" flag="0"/>
			<psa10 value="0.0306358837157" flag="0"/>
			<psa30 value="0.00120580246836" flag="0"/>
		</comp>
	</station>
	<station code="IMMV" name="IMMV" netid="HL" source="National Observatory of Athens Seismic Network" insttype="" lat="35.4606" lon="23.9811">
		<comp name="--.HNE" depth="0.0">
			<acc value="-0.008171934" flag="0"/>
			<vel value="0.004656" flag="0"/>
			<psa03 value="0.025905737632" flag="0"/>
			<psa10 value="0.00802138280252" flag="0"/>
			<psa30 value="0.000440263313124" flag="0"/>
		</comp>
		<comp name="--.HNN" depth="0.0">
			<acc value="-0.010755696" flag="0"/>
			<vel value="-0.005707" flag="0"/>
			<psa03 value="0.0301115050541" flag="0"/>
			<psa10 value="0.00614086785836" flag="0"/>
			<psa30 value="0.000383888132785" flag="0"/>
		</comp>
		<comp name="--.HNZ" depth="0.0">
			<acc value="-0.007998024" flag="0"/>
			<vel value="0.004749" flag="0"/>
			<psa03 value="0.0270242927974" flag="0"/>
			<psa10 value="0.00350734157681" flag="0"/>
			<psa30 value="0.000211630637304" flag="0"/>
		</comp>
	</station>
	<station code="KARP" name="KARP" netid="HL" source="National Observatory of Athens Seismic Network" insttype="" lat="35.5471" lon="27.16106">
		<comp name="--.HNE" depth="0.0">
			<acc value="0.102400554" flag="0"/>
			<vel value="0.019185" flag="0"/>
			<psa03 value="0.0614310496869" flag="0"/>
			<psa10 value="0.0219621595406" flag="0"/>
			<psa30 value="0.00102056973296" flag="0"/>
		</comp>
		<comp name="--.HNN" depth="0.0">
			<acc value="0.100200822" flag="0"/>
			<vel value="0.030613" flag="0"/>
			<psa03 value="0.0742720629863" flag="0"/>
			<psa10 value="0.0259043953658" flag="0"/>
			<psa30 value="0.00125009725291" flag="0"/>
		</comp>
		<comp name="--.HNZ" depth="0.0">
			<acc value="0.04940982" flag="0"/>
			<vel value="0.013663" flag="0"/>
			<psa03 value="0.0559277582728" flag="0"/>
			<psa10 value="0.0116092603512" flag="0"/>
			<psa30 value="0.00109931601661" flag="0"/>
		</comp>
	</station>
	<station code="KLNA" name="KLNA" netid="HL" source="National Observatory of Athens Seismic Network" insttype="" lat="36.95708" lon="26.97274">
		<comp name="--.HNE" depth="0.0">
			<acc value="0.014604258" flag="0"/>
			<vel value="0.006253" flag="0"/>
			<psa03 value="0.0264426441114" flag="0"/>
			<psa10 value="0.0056415448325" flag="0"/>
			<psa30 value="0.000493953961066" flag="0"/>
		</comp>
		<comp name="--.HNN" depth="0.0">
			<acc value="0.011684304" flag="0"/>
			<vel value="-0.006499" flag="0"/>
			<psa03 value="0.041028603469" flag="0"/>
			<psa10 value="0.00583483116509" flag="0"/>
			<psa30 value="0.00041610252155" flag="0"/>
		</comp>
		<comp name="--.HNZ" depth="0.0">
			<acc value="0.009758952" flag="0"/>
			<vel value="-0.003401" flag="0"/>
			<psa03 value="0.0158387411429" flag="0"/>
			<psa10 value="0.00410733456756" flag="0"/>
			<psa30 value="0.000366438672204" flag="0"/>
		</comp>
	</station>
	<station code="SIVA" name="SIVA" netid="HL" source="National Observatory of Athens Seismic Network" insttype="" lat="35.01777" lon="24.81204">
		<comp name="--.HNE" depth="0.0">
			<acc value="0.022972236" flag="0"/>
			<vel value="-0.013204" flag="0"/>
			<psa03 value="0.057896415364" flag="0"/>
			<psa10 value="0.0127609247496" flag="0"/>
			<psa30 value="0.000957930643697" flag="0"/>
		</comp>
		<comp name="--.HNN" depth="0.0">
			<acc value="0.02191674" flag="0"/>
			<vel value="-0.013403" flag="0"/>
			<psa03 value="0.0909609060549" flag="0"/>
			<psa10 value="0.0200695642007" flag="0"/>
			<psa30 value="0.00105502123206" flag="0"/>
		</comp>
		<comp name="--.HNZ" depth="0.0">
			<acc value="-0.014378328" flag="0"/>
			<vel value="-0.007321" flag="0"/>
			<psa03 value="0.0446079799984" flag="0"/>
			<psa10 value="0.00575429519318" flag="0"/>
			<psa30 value="0.000397758216836" flag="0"/>
		</comp>
	</station>
	<station code="THRA" name="THRA" netid="HL" source="National Observatory of Athens Seismic Network" insttype="" lat="36.41502" lon="25.43244">
		<comp name="--.HNE" depth="0.0">
			<acc value="-0.08225994" flag="0"/>
			<vel value="0.051529" flag="0"/>
			<psa03 value="0.194852309823" flag="0"/>
			<psa10 value="0.087256698769" flag="0"/>
			<psa30 value="0.00674399280357" flag="0"/>
		</comp>
		<comp name="--.HNN" depth="0.0">
			<acc value="-0.057671412" flag="0"/>
			<vel value="-0.04405" flag="0"/>
			<psa03 value="0.118343136505" flag="0"/>
			<psa10 value="0.0577926134447" flag="0"/>
			<psa30 value="0.00398787287589" flag="0"/>
		</comp>
		<comp name="--.HNZ" depth="0.0">
			<acc value="0.048717852" flag="0"/>
			<vel value="-0.02837" flag="0"/>
			<psa03 value="0.14143011512" flag="0"/>
			<psa10 value="0.0300560247179" flag="0"/>
			<psa30 value="0.00170959971488" flag="0"/>
		</comp>
	</station>
</stationlist>
