<stationlist created="1778069892">
	<station code="KOZK" name="KOZK" netid="KO" source="Bogazici University Kandilli Observatory And Earthquake Research Institute (KOERI)" insttype="" lat="39.2101" lon="34.868">
		<comp name="--.HNE" depth="0.0">
			<acc value="0.0381674411824997" flag="0"/>
			<vel value="0.0272010506297299" flag="0"/>
			<psa03 value="0.112481907438335" flag="0"/>
			<psa10 value="0.0347754326719855" flag="0"/>
			<psa30 value="0.00319235644221369" flag="0"/>
		</comp>
		<comp name="--.HNN" depth="0.0">
			<acc value="0.0317934495060046" flag="0"/>
			<vel value="0.0279118423863683" flag="0"/>
			<psa03 value="0.0679186696465365" flag="0"/>
			<psa10 value="0.0338130278076265" flag="0"/>
			<psa30 value="0.00321562238965519" flag="0"/>
		</comp>
		<comp name="--.HNZ" depth="0.0">
			<acc value="0.027271879816093" flag="0"/>
			<vel value="0.0158987618153454" flag="0"/>
			<psa03 value="0.0764196889040082" flag="0"/>
			<psa10 value="0.0199608406386096" flag="0"/>
			<psa30 value="0.00113287267157464" flag="0"/>
		</comp>
	</station>
	<station code="KRTS" name="KRTS" netid="KO" source="Bogazici University Kandilli Observatory And Earthquake Research Institute (KOERI)" insttype="" lat="36.573" lon="35.375">
		<comp name="--.HNE" depth="0.0">
			<acc value="0.0207127514074357" flag="0"/>
			<vel value="0.0152639511801641" flag="0"/>
			<psa03 value="0.0168230696884702" flag="0"/>
			<psa10 value="0.0161514891671299" flag="0"/>
			<psa30 value="0.00597174231734073" flag="0"/>
		</comp>
		<comp name="--.HNN" depth="0.0">
			<acc value="0.0204223854682074" flag="0"/>
			<vel value="0.0125998000667331" flag="0"/>
			<psa03 value="0.0179863670605452" flag="0"/>
			<psa10 value="0.0145488233260634" flag="0"/>
			<psa30 value="0.003888545177194" flag="0"/>
		</comp>
		<comp name="--.HNZ" depth="0.0">
			<acc value="0.0460769112613903" flag="0"/>
			<vel value="0.00989488311730069" flag="0"/>
			<psa03 value="0.0152570924568307" flag="0"/>
			<psa10 value="0.0155756569679528" flag="0"/>
			<psa30 value="0.00451672575811453" flag="0"/>
		</comp>
	</station>
</stationlist>
