<?xml version="1.0" encoding="UTF-8" standalone="yes"?>
<!DOCTYPE earthquake SYSTEM "stationlist.dtd">
<stationlist created="" xmlns="ch.ethz.sed.shakemap.usgs.xml">
  <station code="GULA" name="GULA" netid="KO" insttype="30s," lat="38.3444" lon="34.236">
    <comp name="--.HHE">
      <acc value="0.1412022677" flag="0"/>
      <vel value="0.0374036048" flag="0"/>
      <psa03 value="0.1196369183" flag="0"/>
      <psa10 value="0.0098877049" flag="0"/>
      <psa30 value="0.0011726700" flag="0"/>
    </comp>
    <comp name="--.HHN">
      <acc value="0.1212024525" flag="0"/>
      <vel value="0.0342575082" flag="0"/>
      <psa03 value="0.1742491324" flag="0"/>
      <psa10 value="0.0133596893" flag="0"/>
      <psa30 value="0.0011579737" flag="0"/>
    </comp>
    <comp name="--.HHZ">
      <acc value="0.1253887867" flag="0"/>
      <vel value="0.0207440355" flag="0"/>
      <psa03 value="0.0686770607" flag="0"/>
      <psa10 value="0.0045582857" flag="0"/>
      <psa30 value="0.0004520545" flag="0"/>
    </comp>
  </station>
  <station code="SERE" name="SERE" netid="KO" insttype="30s," lat="38.9463" lon="33.564">
    <comp name="--.HHZ">
      <acc value="0.0062387835" flag="0"/>
      <vel value="0.0020293362" flag="0"/>
      <psa03 value="0.0136242138" flag="0"/>
      <psa10 value="0.0024956339" flag="0"/>
      <psa30 value="0.0007172268" flag="0"/>
    </comp>
    <comp name="--.HHE">
      <acc value="0.0101349431" flag="0"/>
      <vel value="0.0051442809" flag="0"/>
      <psa03 value="0.0237904153" flag="0"/>
      <psa10 value="0.0045648564" flag="0"/>
      <psa30 value="0.0013736304" flag="0"/>
    </comp>
    <comp name="--.HHN">
      <acc value="0.0109109240" flag="0"/>
      <vel value="0.0072008020" flag="0"/>
      <psa03 value="0.0220119814" flag="0"/>
      <psa10 value="0.0088735589" flag="0"/>
      <psa30 value="0.0018173903" flag="0"/>
    </comp>
  </station>
  <station code="YESY" name="YESY" netid="KO" insttype="30s," lat="37.7825" lon="33.7432">
    <comp name="--.HHE">
      <acc value="0.0204389466" flag="0"/>
      <vel value="0.0185832576" flag="0"/>
      <psa03 value="0.0407968217" flag="0"/>
      <psa10 value="0.0382798863" flag="0"/>
      <psa30 value="0.0051070185" flag="0"/>
    </comp>
    <comp name="--.HHN">
      <acc value="0.0184697474" flag="0"/>
      <vel value="0.0152844441" flag="0"/>
      <psa03 value="0.0431982388" flag="0"/>
      <psa10 value="0.0287229788" flag="0"/>
      <psa30 value="0.0026247695" flag="0"/>
    </comp>
    <comp name="--.HHZ">
      <acc value="0.0169871238" flag="0"/>
      <vel value="0.0118511833" flag="0"/>
      <psa03 value="0.0523384241" flag="0"/>
      <psa10 value="0.0143284444" flag="0"/>
      <psa30 value="0.0018599743" flag="0"/>
    </comp>
  </station>
</stationlist>
