<?xml version="1.0" encoding="UTF-8" standalone="yes"?>
<!DOCTYPE earthquake SYSTEM "stationlist.dtd">
<stationlist created="" xmlns="ch.ethz.sed.shakemap.usgs.xml">
  <station code="MARCO" name="MARCO" netid="GE" insttype="VBB" lat="40.2972" lon="15.8063">
    <comp name="--.HHE">
      <acc value="0.0168508851" flag="0"/>
      <vel value="0.0210165138" flag="0"/>
      <psa03 value="0.0542295567" flag="0"/>
      <psa10 value="0.0199475466" flag="0"/>
      <psa30 value="0.0090158018" flag="0"/>
    </comp>
    <comp name="--.HHZ">
      <acc value="0.0089704746" flag="0"/>
      <vel value="0.0142306405" flag="0"/>
      <psa03 value="0.0309552427" flag="0"/>
      <psa10 value="0.0192416042" flag="0"/>
      <psa30 value="0.0052468723" flag="0"/>
    </comp>
    <comp name="--.HHN">
      <acc value="0.0196138100" flag="0"/>
      <vel value="0.0218852670" flag="0"/>
      <psa03 value="0.0626905041" flag="0"/>
      <psa10 value="0.0453527525" flag="0"/>
      <psa30 value="0.0090881190" flag="0"/>
    </comp>
  </station>
  <station code="MATE" name="MATE" netid="GE" insttype="STS-2/N" lat="40.6491" lon="16.7044">
    <comp name="--.HHE">
      <acc value="0.0075160656" flag="0"/>
      <vel value="0.0067439181" flag="0"/>
      <psa03 value="0.0245979397" flag="0"/>
      <psa10 value="0.0070333153" flag="0"/>
      <psa30 value="0.0004517836" flag="0"/>
    </comp>
    <comp name="--.HHZ">
      <acc value="0.0040541840" flag="0"/>
      <vel value="0.0046551851" flag="0"/>
      <psa03 value="0.0138689728" flag="0"/>
      <psa10 value="0.0059310361" flag="0"/>
      <psa30 value="0.0006926884" flag="0"/>
    </comp>
    <comp name="--.HHN">
      <acc value="0.0084904529" flag="0"/>
      <vel value="0.0057343670" flag="0"/>
      <psa03 value="0.0184126459" flag="0"/>
      <psa10 value="0.0070840002" flag="0"/>
      <psa30 value="0.0004696014" flag="0"/>
    </comp>
  </station>
  <station code="ACER" name="ACER" netid="IV" insttype="" lat="40.7867" lon="15.9427">
    <comp name="--.HHZ">
      <acc value="0.0325387161" flag="0"/>
      <vel value="0.0185171495" flag="0"/>
      <psa03 value="0.0790787465" flag="0"/>
      <psa10 value="0.0269478773" flag="0"/>
      <psa30 value="0.0039623532" flag="0"/>
    </comp>
    <comp name="--.HHE">
      <acc value="0.0502338316" flag="0"/>
      <vel value="0.0317666856" flag="0"/>
      <psa03 value="0.1446283049" flag="0"/>
      <psa10 value="0.0371859705" flag="0"/>
      <psa30 value="0.0057146046" flag="0"/>
    </comp>
    <comp name="--.HHN">
      <acc value="0.0388190621" flag="0"/>
      <vel value="0.0282774061" flag="0"/>
      <psa03 value="0.0805373009" flag="0"/>
      <psa10 value="0.0293789814" flag="0"/>
      <psa30 value="0.0060182357" flag="0"/>
    </comp>
  </station>
  <station code="AMUR" name="AMUR" netid="IV" insttype="" lat="40.9071" lon="16.6041">
    <comp name="--.HHE">
      <acc value="0.0043447729" flag="0"/>
      <vel value="0.0031221372" flag="0"/>
      <psa03 value="0.0130049121" flag="0"/>
      <psa10 value="0.0039796320" flag="0"/>
      <psa30 value="0.0006269337" flag="0"/>
    </comp>
    <comp name="--.HHN">
      <acc value="0.0058283336" flag="0"/>
      <vel value="0.0044791448" flag="0"/>
      <psa03 value="0.0104521080" flag="0"/>
      <psa10 value="0.0082505087" flag="0"/>
      <psa30 value="0.0007019615" flag="0"/>
    </comp>
    <comp name="--.HHZ">
      <acc value="0.0031621647" flag="0"/>
      <vel value="0.0034358492" flag="0"/>
      <psa03 value="0.0063229646" flag="0"/>
      <psa10 value="0.0037801532" flag="0"/>
      <psa30 value="0.0005976021" flag="0"/>
    </comp>
  </station>
  <station code="APRC" name="APRC" netid="IV" insttype="" lat="41.7574" lon="15.5431">
    <comp name="--.HHE">
      <acc value="0.0046117402" flag="0"/>
      <vel value="0.0034102148" flag="0"/>
      <psa03 value="0.0098168948" flag="0"/>
      <psa10 value="0.0042960042" flag="0"/>
      <psa30 value="0.0008139078" flag="0"/>
    </comp>
    <comp name="--.HHN">
      <acc value="0.0079129425" flag="0"/>
      <vel value="0.0045349930" flag="0"/>
      <psa03 value="0.0131362895" flag="0"/>
      <psa10 value="0.0057592753" flag="0"/>
      <psa30 value="0.0008344886" flag="0"/>
    </comp>
    <comp name="--.HHZ">
      <acc value="0.0027345479" flag="0"/>
      <vel value="0.0022838976" flag="0"/>
      <psa03 value="0.0071144528" flag="0"/>
      <psa10 value="0.0030625915" flag="0"/>
      <psa30 value="0.0006726349" flag="0"/>
    </comp>
  </station>
  <station code="BULG" name="BULG" netid="IV" insttype="" lat="40.0783" lon="15.3776">
    <comp name="--.HHN">
      <acc value="0.0128381235" flag="0"/>
      <vel value="0.0093460799" flag="0"/>
      <psa03 value="0.0315406532" flag="0"/>
      <psa10 value="0.0119621915" flag="0"/>
      <psa30 value="0.0027662689" flag="0"/>
    </comp>
    <comp name="--.HHE">
      <acc value="0.0076788852" flag="0"/>
      <vel value="0.0067196577" flag="0"/>
      <psa03 value="0.0167404332" flag="0"/>
      <psa10 value="0.0071301121" flag="0"/>
      <psa30 value="0.0025817093" flag="0"/>
    </comp>
    <comp name="--.HHZ">
      <acc value="0.0033777120" flag="0"/>
      <vel value="0.0059528519" flag="0"/>
      <psa03 value="0.0094613504" flag="0"/>
      <psa10 value="0.0054848092" flag="0"/>
      <psa30 value="0.0034430175" flag="0"/>
    </comp>
  </station>
  <station code="CAFE" name="CAFE" netid="IV" insttype="" lat="41.028" lon="15.2366">
    <comp name="--.HHE">
      <acc value="0.0183348314" flag="0"/>
      <vel value="0.0131743915" flag="0"/>
      <psa03 value="0.0397285834" flag="0"/>
      <psa10 value="0.0197195033" flag="0"/>
      <psa30 value="0.0091563252" flag="0"/>
    </comp>
    <comp name="--.HHN">
      <acc value="0.0168104144" flag="0"/>
      <vel value="0.0141871097" flag="0"/>
      <psa03 value="0.0451317565" flag="0"/>
      <psa10 value="0.0261206790" flag="0"/>
      <psa30 value="0.0046800310" flag="0"/>
    </comp>
    <comp name="--.HHZ">
      <acc value="0.0078276730" flag="0"/>
      <vel value="0.0099480499" flag="0"/>
      <psa03 value="0.0336719531" flag="0"/>
      <psa10 value="0.0125971063" flag="0"/>
      <psa30 value="0.0034696987" flag="0"/>
    </comp>
  </station>
  <station code="CAPA" name="CAPA" netid="IV" insttype="" lat="41.1583" lon="15.8169">
    <comp name="--.HHE">
      <acc value="0.0085734190" flag="0"/>
      <vel value="0.0170066909" flag="0"/>
      <psa03 value="0.0261683793" flag="0"/>
      <psa10 value="0.0241482508" flag="0"/>
      <psa30 value="0.0087220275" flag="0"/>
    </comp>
    <comp name="--.HHZ">
      <acc value="0.0052209268" flag="0"/>
      <vel value="0.0084182004" flag="0"/>
      <psa03 value="0.0168810244" flag="0"/>
      <psa10 value="0.0126600836" flag="0"/>
      <psa30 value="0.0026171143" flag="0"/>
    </comp>
    <comp name="--.HHN">
      <acc value="0.0082463515" flag="0"/>
      <vel value="0.0191542030" flag="0"/>
      <psa03 value="0.0145266939" flag="0"/>
      <psa10 value="0.0174547889" flag="0"/>
      <psa30 value="0.0101192186" flag="0"/>
    </comp>
  </station>
  <station code="CDRU" name="CDRU" netid="IV" insttype="" lat="40.4896" lon="15.3046">
    <comp name="--.HHE">
      <acc value="0.0566014017" flag="0"/>
      <vel value="0.0200457651" flag="0"/>
      <psa03 value="0.1260327432" flag="0"/>
      <psa10 value="0.0227488852" flag="0"/>
      <psa30 value="0.0072556624" flag="0"/>
    </comp>
    <comp name="--.HHN">
      <acc value="0.0234841707" flag="0"/>
      <vel value="0.0149409917" flag="0"/>
      <psa03 value="0.0505143675" flag="0"/>
      <psa10 value="0.0191116899" flag="0"/>
      <psa30 value="0.0048846155" flag="0"/>
    </comp>
    <comp name="--.HHZ">
      <acc value="0.0180245758" flag="0"/>
      <vel value="0.0231549659" flag="0"/>
      <psa03 value="0.0360665435" flag="0"/>
      <psa10 value="0.0172282092" flag="0"/>
      <psa30 value="0.0054568707" flag="0"/>
    </comp>
  </station>
  <station code="MCEL" name="MCEL" netid="IV" insttype="" lat="40.3249" lon="15.8019">
    <comp name="--.HHE">
      <acc value="0.0160069138" flag="0"/>
      <vel value="0.0191551575" flag="0"/>
      <psa03 value="0.0384810423" flag="0"/>
      <psa10 value="0.0281188324" flag="0"/>
      <psa30 value="0.0074081050" flag="0"/>
    </comp>
    <comp name="--.HHZ">
      <acc value="0.0080239964" flag="0"/>
      <vel value="0.0118281769" flag="0"/>
      <psa03 value="0.0209348851" flag="0"/>
      <psa10 value="0.0188161895" flag="0"/>
      <psa30 value="0.0056122673" flag="0"/>
    </comp>
    <comp name="--.HHN">
      <acc value="0.0151780442" flag="0"/>
      <vel value="0.0181284773" flag="0"/>
      <psa03 value="0.0363915412" flag="0"/>
      <psa10 value="0.0297909800" flag="0"/>
      <psa30 value="0.0063512672" flag="0"/>
    </comp>
  </station>
  <station code="MMN" name="MMN" netid="IV" insttype="" lat="39.891" lon="15.9904">
    <comp name="--.HHE">
      <acc value="0.0032627814" flag="0"/>
      <vel value="0.0028232574" flag="0"/>
      <psa03 value="0.0109511797" flag="0"/>
      <psa10 value="0.0053504232" flag="0"/>
      <psa30 value="0.0014998828" flag="0"/>
    </comp>
    <comp name="--.HHN">
      <acc value="0.0050012209" flag="0"/>
      <vel value="0.0035680951" flag="0"/>
      <psa03 value="0.0151532107" flag="0"/>
      <psa10 value="0.0051724745" flag="0"/>
      <psa30 value="0.0012960069" flag="0"/>
    </comp>
    <comp name="--.HHZ">
      <acc value="0.0025982647" flag="0"/>
      <vel value="0.0021817872" flag="0"/>
      <psa03 value="0.0080911729" flag="0"/>
      <psa10 value="0.0027989826" flag="0"/>
      <psa30 value="0.0008247929" flag="0"/>
    </comp>
  </station>
  <station code="MRLC" name="MRLC" netid="IV" insttype="" lat="40.7564" lon="15.4889">
    <comp name="--.HHE">
      <acc value="0.5722315869" flag="0"/>
      <vel value="0.2544591622" flag="0"/>
      <psa03 value="0.5934588407" flag="0"/>
      <psa10 value="0.2298680627" flag="0"/>
      <psa30 value="0.0142956792" flag="0"/>
    </comp>
    <comp name="--.HHN">
      <acc value="0.5192552587" flag="0"/>
      <vel value="0.2610139969" flag="0"/>
      <psa03 value="0.9587218304" flag="0"/>
      <psa10 value="0.2635912969" flag="0"/>
      <psa30 value="0.0501592325" flag="0"/>
    </comp>
    <comp name="--.HHZ">
      <acc value="0.3592965569" flag="0"/>
      <vel value="0.1451579138" flag="0"/>
      <psa03 value="0.7341273433" flag="0"/>
      <psa10 value="0.1694724357" flag="0"/>
      <psa30 value="0.0140584945" flag="0"/>
    </comp>
  </station>
  <station code="MRVN" name="MRVN" netid="IV" insttype="" lat="41.0609" lon="16.1958">
    <comp name="--.HHE">
      <acc value="0.0079857850" flag="0"/>
      <vel value="0.0044461865" flag="0"/>
      <psa03 value="0.0203557821" flag="0"/>
      <psa10 value="0.0049624068" flag="0"/>
      <psa30 value="0.0014499136" flag="0"/>
    </comp>
    <comp name="--.HHN">
      <acc value="0.0071483028" flag="0"/>
      <vel value="0.0050486140" flag="0"/>
      <psa03 value="0.0242698343" flag="0"/>
      <psa10 value="0.0038933872" flag="0"/>
      <psa30 value="0.0009386316" flag="0"/>
    </comp>
    <comp name="--.HHZ">
      <acc value="0.0084978983" flag="0"/>
      <vel value="0.0045099486" flag="0"/>
      <psa03 value="0.0195453352" flag="0"/>
      <psa10 value="0.0067723829" flag="0"/>
      <psa30 value="0.0014618549" flag="0"/>
    </comp>
  </station>
  <station code="MSAG" name="MSAG" netid="IV" insttype="" lat="41.712" lon="15.9096">
    <comp name="--.HHZ">
      <acc value="0.0030555948" flag="0"/>
      <vel value="0.0027661731" flag="0"/>
      <psa03 value="0.0060821132" flag="0"/>
      <psa10 value="0.0042252242" flag="0"/>
      <psa30 value="0.0007232761" flag="0"/>
    </comp>
    <comp name="--.HHN">
      <acc value="0.0090052211" flag="0"/>
      <vel value="0.0068150027" flag="0"/>
      <psa03 value="0.0309064340" flag="0"/>
      <psa10 value="0.0109463713" flag="0"/>
      <psa30 value="0.0012407563" flag="0"/>
    </comp>
    <comp name="--.HHE">
      <acc value="0.0054088989" flag="0"/>
      <vel value="0.0038066229" flag="0"/>
      <psa03 value="0.0152914423" flag="0"/>
      <psa10 value="0.0047823802" flag="0"/>
      <psa30 value="0.0008446212" flag="0"/>
    </comp>
  </station>
  <station code="MTSN" name="MTSN" netid="IV" insttype="" lat="40.2663" lon="15.7515">
    <comp name="--.HHE">
      <acc value="0.0134218295" flag="0"/>
      <vel value="0.0155367745" flag="0"/>
      <psa03 value="0.0409413485" flag="0"/>
      <psa10 value="0.0168916997" flag="0"/>
      <psa30 value="0.0062795911" flag="0"/>
    </comp>
    <comp name="--.HHN">
      <acc value="0.0233656206" flag="0"/>
      <vel value="0.0152929350" flag="0"/>
      <psa03 value="0.0830888739" flag="0"/>
      <psa10 value="0.0154794268" flag="0"/>
      <psa30 value="0.0061837470" flag="0"/>
    </comp>
    <comp name="--.HHZ">
      <acc value="0.0090354728" flag="0"/>
      <vel value="0.0093394510" flag="0"/>
      <psa03 value="0.0262629460" flag="0"/>
      <psa10 value="0.0165332068" flag="0"/>
      <psa30 value="0.0025350205" flag="0"/>
    </comp>
  </station>
  <station code="ORI" name="ORI" netid="IV" insttype="" lat="40.051" lon="16.4504">
    <comp name="--.HHE">
      <acc value="0.0085934332" flag="0"/>
      <vel value="0.0072975576" flag="0"/>
      <psa03 value="0.0189043906" flag="0"/>
      <psa10 value="0.0086495218" flag="0"/>
      <psa30 value="0.0017300004" flag="0"/>
    </comp>
    <comp name="--.HHN">
      <acc value="0.0101784346" flag="0"/>
      <vel value="0.0098081290" flag="0"/>
      <psa03 value="0.0253120636" flag="0"/>
      <psa10 value="0.0087837910" flag="0"/>
      <psa30 value="0.0014602634" flag="0"/>
    </comp>
    <comp name="--.HHZ">
      <acc value="0.0022106106" flag="0"/>
      <vel value="0.0028049013" flag="0"/>
      <psa03 value="0.0059818052" flag="0"/>
      <psa10 value="0.0034153457" flag="0"/>
      <psa30 value="0.0011175943" flag="0"/>
    </comp>
  </station>
  <station code="OVO" name="OVO" netid="IV" insttype="" lat="40.8275" lon="14.3967">
    <comp name="--.HHE">
      <acc value="0.0047027218" flag="0"/>
      <vel value="0.0055585304" flag="0"/>
      <psa03 value="0.0114512096" flag="0"/>
      <psa10 value="0.0136165003" flag="0"/>
      <psa30 value="0.0020646706" flag="0"/>
    </comp>
    <comp name="--.HHN">
      <acc value="0.0061890663" flag="0"/>
      <vel value="0.0088006907" flag="0"/>
      <psa03 value="0.0145638509" flag="0"/>
      <psa10 value="0.0110953903" flag="0"/>
      <psa30 value="0.0021776549" flag="0"/>
    </comp>
    <comp name="--.HHZ">
      <acc value="0.0037823007" flag="0"/>
      <vel value="0.0030322346" flag="0"/>
      <psa03 value="0.0129933578" flag="0"/>
      <psa10 value="0.0038709573" flag="0"/>
      <psa30 value="0.0008194570" flag="0"/>
    </comp>
  </station>
  <station code="PAOL" name="PAOL" netid="IV" insttype="" lat="41.0312" lon="14.5675">
    <comp name="--.HHE">
      <acc value="0.0038437369" flag="0"/>
      <vel value="0.0036627441" flag="0"/>
      <psa03 value="0.0102381075" flag="0"/>
      <psa10 value="0.0065167174" flag="0"/>
      <psa30 value="0.0013138103" flag="0"/>
    </comp>
    <comp name="--.HHN">
      <acc value="0.0048394614" flag="0"/>
      <vel value="0.0043301005" flag="0"/>
      <psa03 value="0.0126773642" flag="0"/>
      <psa10 value="0.0067329366" flag="0"/>
      <psa30 value="0.0014190210" flag="0"/>
    </comp>
    <comp name="--.HHZ">
      <acc value="0.0024045720" flag="0"/>
      <vel value="0.0029539699" flag="0"/>
      <psa03 value="0.0065195254" flag="0"/>
      <psa10 value="0.0027201483" flag="0"/>
      <psa30 value="0.0013787102" flag="0"/>
    </comp>
  </station>
  <station code="PIGN" name="PIGN" netid="IV" insttype="" lat="41.2" lon="14.1799">
    <comp name="--.HHZ">
      <acc value="0.0008714139" flag="0"/>
      <vel value="0.0019649219" flag="0"/>
      <psa03 value="0.0026909839" flag="0"/>
      <psa10 value="0.0028552593" flag="0"/>
      <psa30 value="0.0008351480" flag="0"/>
    </comp>
    <comp name="--.HHN">
      <acc value="0.0016192568" flag="0"/>
      <vel value="0.0018478861" flag="0"/>
      <psa03 value="0.0031810962" flag="0"/>
      <psa10 value="0.0043308439" flag="0"/>
      <psa30 value="0.0006015830" flag="0"/>
    </comp>
    <comp name="--.HHE">
      <acc value="0.0013649034" flag="0"/>
      <vel value="0.0023264672" flag="0"/>
      <psa03 value="0.0033249215" flag="0"/>
      <psa10 value="0.0040534606" flag="0"/>
      <psa30 value="0.0006219322" flag="0"/>
    </comp>
  </station>
  <station code="PTRJ" name="PTRJ" netid="IV" insttype="" lat="41.3641" lon="14.529">
    <comp name="--.HHE">
      <acc value="0.0021356448" flag="0"/>
      <vel value="0.0017618476" flag="0"/>
      <psa03 value="0.0064758590" flag="0"/>
      <psa10 value="0.0024076716" flag="0"/>
      <psa30 value="0.0001922467" flag="0"/>
    </comp>
    <comp name="--.HHZ">
      <acc value="0.0007826923" flag="0"/>
      <vel value="0.0007313279" flag="0"/>
      <psa03 value="0.0021587054" flag="0"/>
      <psa10 value="0.0015699439" flag="0"/>
      <psa30 value="0.0000827563" flag="0"/>
    </comp>
    <comp name="--.HHN">
      <acc value="0.0018385107" flag="0"/>
      <vel value="0.0019719537" flag="0"/>
      <psa03 value="0.0060901442" flag="0"/>
      <psa10 value="0.0026251498" flag="0"/>
      <psa30 value="0.0002086313" flag="0"/>
    </comp>
  </station>
  <station code="PTRP" name="PTRP" netid="IV" insttype="" lat="40.5215" lon="16.0612">
    <comp name="--.HHE">
      <acc value="0.0179223605" flag="0"/>
      <vel value="0.0333044937" flag="0"/>
      <psa03 value="0.0327886846" flag="0"/>
      <psa10 value="0.0254558519" flag="0"/>
      <psa30 value="0.0109216273" flag="0"/>
    </comp>
    <comp name="--.HHN">
      <acc value="0.0110365732" flag="0"/>
      <vel value="0.0157469556" flag="0"/>
      <psa03 value="0.0375969790" flag="0"/>
      <psa10 value="0.0200547084" flag="0"/>
      <psa30 value="0.0081936870" flag="0"/>
    </comp>
    <comp name="--.HHZ">
      <acc value="0.0065280340" flag="0"/>
      <vel value="0.0095592308" flag="0"/>
      <psa03 value="0.0179581821" flag="0"/>
      <psa10 value="0.0114910329" flag="0"/>
      <psa30 value="0.0058858074" flag="0"/>
    </comp>
  </station>
  <station code="PZUN" name="PZUN" netid="IV" insttype="" lat="40.6458" lon="15.807">
    <comp name="--.HHE">
      <acc value="0.0720306690" flag="0"/>
      <vel value="0.0642103793" flag="0"/>
      <psa03 value="0.1817807697" flag="0"/>
      <psa10 value="0.0621781244" flag="0"/>
      <psa30 value="0.0145388654" flag="0"/>
    </comp>
    <comp name="--.HHN">
      <acc value="0.0812304184" flag="0"/>
      <vel value="0.0581822486" flag="0"/>
      <psa03 value="0.2321675177" flag="0"/>
      <psa10 value="0.0701656714" flag="0"/>
      <psa30 value="0.0072378446" flag="0"/>
    </comp>
    <comp name="--.HHZ">
      <acc value="0.0368851811" flag="0"/>
      <vel value="0.0481281949" flag="0"/>
      <psa03 value="0.1574511890" flag="0"/>
      <psa10 value="0.0478659610" flag="0"/>
      <psa30 value="0.0190129798" flag="0"/>
    </comp>
  </station>
  <station code="SALB" name="SALB" netid="IV" insttype="" lat="39.8772" lon="16.3459">
    <comp name="--.HHE">
      <acc value="0.0019413870" flag="0"/>
      <vel value="0.0015204830" flag="0"/>
      <psa03 value="0.0073432313" flag="0"/>
      <psa10 value="0.0011879967" flag="0"/>
      <psa30 value="0.0001022970" flag="0"/>
    </comp>
    <comp name="--.HHN">
      <acc value="0.0014638371" flag="0"/>
      <vel value="0.0008857206" flag="0"/>
      <psa03 value="0.0051565634" flag="0"/>
      <psa10 value="0.0009675265" flag="0"/>
      <psa30 value="0.0000825607" flag="0"/>
    </comp>
