<stationlist created="1775820618">
	<station code="LMS2" name="LMS2" netid="HI" source="ITSAK Strong Motion Network" insttype="" lat="40.834985" lon="21.141815">
		<comp name="--.HNE" depth="0.0">
			<acc value="0.0103135926939068" flag="0"/>
			<vel value="0.00362892763223338" flag="0"/>
			<psa03 value="0.0174581018260831" flag="0"/>
			<psa10 value="0.00164517000006189" flag="0"/>
			<psa30 value="0.000120704324193902" flag="0"/>
		</comp>
		<comp name="--.HNN" depth="0.0">
			<acc value="0.0105870212120472" flag="0"/>
			<vel value="0.00367146780592637" flag="0"/>
			<psa03 value="0.0162735936707009" flag="0"/>
			<psa10 value="0.00205236470909094" flag="0"/>
			<psa30 value="0.000226403331442922" flag="0"/>
		</comp>
		<comp name="--.HNZ" depth="0.0">
			<acc value="0.00263293359931022" flag="0"/>
			<vel value="0.00122253485344391" flag="0"/>
			<psa03 value="0.00757600773269604" flag="0"/>
			<psa10 value="0.001049020078371" flag="0"/>
			<psa30 value="7.80223626089649e-05" flag="0"/>
		</comp>
	</station>
</stationlist>
