<?xml version="1.0" encoding="UTF-8" standalone="yes"?>
<!DOCTYPE earthquake SYSTEM "stationlist.dtd">
<stationlist created="" xmlns="ch.ethz.sed.shakemap.usgs.xml">
  <station code="BCI" name="BCI" netid="AC" insttype="" lat="42.3666" lon="20.0675">
    <comp name="--.HHZ">
      <acc value="0.3596696749" flag="0"/>
      <vel value="0.0876467101" flag="0"/>
      <psa03 value="0.7291506412" flag="0"/>
      <psa10 value="0.0320053716" flag="0"/>
      <psa30 value="0.0031268928" flag="0"/>
    </comp>
    <comp name="--.HHN">
      <acc value="0.6951844509" flag="0"/>
      <vel value="0.1759474797" flag="0"/>
      <psa03 value="0.7245423035" flag="0"/>
      <psa10 value="0.0837588586" flag="0"/>
      <psa30 value="0.0067135289" flag="0"/>
    </comp>
    <comp name="--.HHE">
      <acc value="0.6464337150" flag="0"/>
      <vel value="0.2332614940" flag="0"/>
      <psa03 value="0.7325019428" flag="0"/>
      <psa10 value="0.0499676518" flag="0"/>
      <psa30 value="0.0055328442" flag="0"/>
    </comp>
  </station>
  <station code="PHP" name="PHP" netid="AC" insttype="" lat="41.6847" lon="20.4408">
    <comp name="--.HHE">
      <acc value="0.0717288285" flag="0"/>
      <vel value="0.0091045512" flag="0"/>
      <psa03 value="0.0432851262" flag="0"/>
      <psa10 value="0.0048710008" flag="0"/>
      <psa30 value="0.0004419426" flag="0"/>
    </comp>
    <comp name="--.HHN">
      <acc value="0.0419135078" flag="0"/>
      <vel value="0.0114916323" flag="0"/>
      <psa03 value="0.0834460741" flag="0"/>
      <psa10 value="0.0052384965" flag="0"/>
      <psa30 value="0.0003678613" flag="0"/>
    </comp>
    <comp name="--.HHZ">
      <acc value="0.0214590560" flag="0"/>
      <vel value="0.0047165614" flag="0"/>
      <psa03 value="0.0250921881" flag="0"/>
      <psa10 value="0.0044349248" flag="0"/>
      <psa30 value="0.0002289205" flag="0"/>
    </comp>
  </station>
  <station code="PUK" name="PUK" netid="AC" insttype="" lat="42.0426" lon="19.8926">
    <comp name="--.HHE">
      <acc value="0.2206906232" flag="0"/>
      <vel value="0.0307201792" flag="0"/>
      <psa03 value="0.1079512687" flag="0"/>
      <psa10 value="0.0062753654" flag="0"/>
      <psa30 value="0.0007108511" flag="0"/>
    </comp>
    <comp name="--.HHN">
      <acc value="0.2580802076" flag="0"/>
      <vel value="0.0431994885" flag="0"/>
      <psa03 value="0.0882803142" flag="0"/>
      <psa10 value="0.0082145345" flag="0"/>
      <psa30 value="0.0009513411" flag="0"/>
    </comp>
    <comp name="--.HHZ">
      <acc value="0.0937731465" flag="0"/>
      <vel value="0.0172217357" flag="0"/>
      <psa03 value="0.0618797562" flag="0"/>
      <psa10 value="0.0042244752" flag="0"/>
      <psa30 value="0.0002612900" flag="0"/>
    </comp>
  </station>
  <station code="KOME" name="KOME" netid="ME" insttype="SMART24" lat="42.8505" lon="19.5152">
    <comp name="--.HHZ">
      <acc value="0.0091358835" flag="0"/>
      <vel value="0.0060951537" flag="0"/>
      <psa03 value="0.0214184817" flag="0"/>
      <psa10 value="0.0099146593" flag="0"/>
      <psa30 value="0.0008053460" flag="0"/>
    </comp>
  </station>
  <station code="PDG" name="PDG" netid="MN" insttype="" lat="42.4297" lon="19.2608">
    <comp name="--.HHE">
      <acc value="0.5432835319" flag="0"/>
      <vel value="0.1111562811" flag="0"/>
      <psa03 value="0.4703248234" flag="0"/>
      <psa10 value="0.0271780390" flag="0"/>
      <psa30 value="0.0021095372" flag="0"/>
    </comp>
    <comp name="--.HHN">
      <acc value="0.5703369004" flag="0"/>
      <vel value="0.0855394376" flag="0"/>
      <psa03 value="0.3113166497" flag="0"/>
      <psa10 value="0.0405500192" flag="0"/>
      <psa30 value="0.0040419224" flag="0"/>
    </comp>
    <comp name="--.HHZ">
      <acc value="0.4553742523" flag="0"/>
      <vel value="0.0746649371" flag="0"/>
      <psa03 value="0.1698156274" flag="0"/>
      <psa10 value="0.0218154545" flag="0"/>
      <psa30 value="0.0016080530" flag="0"/>
    </comp>
  </station>
  <station code="TIR" name="TIR" netid="MN" insttype="" lat="41.3472" lon="19.8631">
    <comp name="--.HHE">
      <acc value="0.0564851941" flag="0"/>
      <vel value="0.0233527718" flag="0"/>
      <psa03 value="0.1231864824" flag="0"/>
      <psa10 value="0.0132613993" flag="0"/>
      <psa30 value="0.0006977970" flag="0"/>
    </comp>
    <comp name="--.HHN">
      <acc value="0.0776497684" flag="0"/>
      <vel value="0.0200084382" flag="0"/>
      <psa03 value="0.1324560922" flag="0"/>
      <psa10 value="0.0078272900" flag="0"/>
      <psa30 value="0.0006531650" flag="0"/>
    </comp>
    <comp name="--.HHZ">
      <acc value="0.0354343712" flag="0"/>
      <vel value="0.0133468867" flag="0"/>
      <psa03 value="0.0612229688" flag="0"/>
      <psa10 value="0.0090242726" flag="0"/>
      <psa30 value="0.0007517141" flag="0"/>
    </comp>
  </station>
</stationlist>
