<?xml version="1.0" encoding="UTF-8" standalone="yes"?>
<!DOCTYPE earthquake SYSTEM "stationlist.dtd">
<stationlist created="" xmlns="ch.ethz.sed.shakemap.usgs.xml">
  <station code="AOI" name="AOI" netid="IV" insttype="" lat="43.5502" lon="13.602">
    <comp name="--.HHN">
      <acc value="0.1883595566" flag="0"/>
      <vel value="0.0414478745" flag="0"/>
      <psa03 value="0.1288584915" flag="0"/>
      <psa10 value="0.0085050709" flag="0"/>
      <psa30 value="0.0006689177" flag="0"/>
    </comp>
    <comp name="--.HHE">
      <acc value="0.1560917063" flag="0"/>
      <vel value="0.0340539133" flag="0"/>
      <psa03 value="0.1452156533" flag="0"/>
      <psa10 value="0.0091440852" flag="0"/>
      <psa30 value="0.0008189255" flag="0"/>
    </comp>
    <comp name="--.HHZ">
      <acc value="0.0737735688" flag="0"/>
      <vel value="0.0168396894" flag="0"/>
      <psa03 value="0.1391643381" flag="0"/>
      <psa10 value="0.0038261792" flag="0"/>
      <psa30 value="0.0004191250" flag="0"/>
    </comp>
  </station>
  <station code="ARVD" name="ARVD" netid="IV" insttype="" lat="43.4981" lon="12.9415">
    <comp name="--.HHZ">
      <acc value="0.0405837029" flag="0"/>
      <vel value="0.0118030550" flag="0"/>
      <psa03 value="0.0659795661" flag="0"/>
      <psa10 value="0.0032962194" flag="0"/>
      <psa30 value="0.0002333116" flag="0"/>
    </comp>
    <comp name="--.HHN">
      <acc value="0.0373608074" flag="0"/>
      <vel value="0.0097692084" flag="0"/>
      <psa03 value="0.0537860017" flag="0"/>
      <psa10 value="0.0044515817" flag="0"/>
      <psa30 value="0.0002304087" flag="0"/>
    </comp>
    <comp name="--.HHE">
      <acc value="0.0408803477" flag="0"/>
      <vel value="0.0109072011" flag="0"/>
      <psa03 value="0.0556873761" flag="0"/>
      <psa10 value="0.0061484499" flag="0"/>
      <psa30 value="0.0002307197" flag="0"/>
    </comp>
  </station>
  <station code="ASCOL" name="ASCOL" netid="IV" insttype="" lat="42.8512" lon="13.5897">
    <comp name="--.HNE">
      <acc value="0.3946794851" flag="0"/>
      <vel value="0.0680505181" flag="0"/>
      <psa03 value="0.1160862164" flag="0"/>
      <psa10 value="0.0150787773" flag="0"/>
      <psa30 value="0.0009324836" flag="0"/>
    </comp>
    <comp name="--.HNN">
      <acc value="0.4444698353" flag="0"/>
      <vel value="0.0384331676" flag="0"/>
      <psa03 value="0.0994317563" flag="0"/>
      <psa10 value="0.0147003084" flag="0"/>
      <psa30 value="0.0010504809" flag="0"/>
    </comp>
    <comp name="--.HNZ">
      <acc value="0.1195580506" flag="0"/>
      <vel value="0.0146321445" flag="0"/>
      <psa03 value="0.0398530883" flag="0"/>
      <psa10 value="0.0071269227" flag="0"/>
      <psa30 value="0.0005144461" flag="0"/>
    </comp>
  </station>
  <station code="ASSB" name="ASSB" netid="IV" insttype="" lat="43.0426" lon="12.6587">
    <comp name="--.HHE">
      <acc value="0.0303730422" flag="0"/>
      <vel value="0.0086118349" flag="0"/>
      <psa03 value="0.0369121392" flag="0"/>
      <psa10 value="0.0124739141" flag="0"/>
      <psa30 value="0.0006384735" flag="0"/>
    </comp>
    <comp name="--.HHN">
      <acc value="0.0356646464" flag="0"/>
      <vel value="0.0119107284" flag="0"/>
      <psa03 value="0.0458174819" flag="0"/>
      <psa10 value="0.0205957378" flag="0"/>
      <psa30 value="0.0008375348" flag="0"/>
    </comp>
    <comp name="--.HHZ">
      <acc value="0.0248092772" flag="0"/>
      <vel value="0.0065786549" flag="0"/>
      <psa03 value="0.0291753863" flag="0"/>
      <psa10 value="0.0068408018" flag="0"/>
      <psa30 value="0.0006691028" flag="0"/>
    </comp>
  </station>
  <station code="ATCC" name="ATCC" netid="IV" insttype="" lat="43.1851" lon="12.6399">
    <comp name="--.HNE">
      <acc value="0.0619264207" flag="0"/>
      <vel value="0.0163432314" flag="0"/>
      <psa03 value="0.0643858981" flag="0"/>
      <psa10 value="0.0184958693" flag="0"/>
      <psa30 value="0.0012655493" flag="0"/>
    </comp>
    <comp name="--.HNN">
      <acc value="0.0388780128" flag="0"/>
      <vel value="0.0150293513" flag="0"/>
      <psa03 value="0.0593767013" flag="0"/>
      <psa10 value="0.0148902493" flag="0"/>
      <psa30 value="0.0010456460" flag="0"/>
    </comp>
    <comp name="--.HNZ">
      <acc value="0.0211451361" flag="0"/>
      <vel value="0.0085573129" flag="0"/>
      <psa03 value="0.0338601504" flag="0"/>
      <psa10 value="0.0108432955" flag="0"/>
      <psa30 value="0.0011658816" flag="0"/>
    </comp>
  </station>
  <station code="ATFO" name="ATFO" netid="IV" insttype="" lat="43.3666" lon="12.5715">
    <comp name="--.HHE">
      <acc value="0.0294409014" flag="0"/>
      <vel value="0.0154548678" flag="0"/>
      <psa03 value="0.0557236376" flag="0"/>
      <psa10 value="0.0118834669" flag="0"/>
      <psa30 value="0.0007156075" flag="0"/>
    </comp>
    <comp name="--.HHN">
      <acc value="0.0220303332" flag="0"/>
      <vel value="0.0104460683" flag="0"/>
      <psa03 value="0.0404502551" flag="0"/>
      <psa10 value="0.0115740599" flag="0"/>
      <psa30 value="0.0005264987" flag="0"/>
    </comp>
    <comp name="--.HHZ">
      <acc value="0.0194951375" flag="0"/>
      <vel value="0.0095483632" flag="0"/>
      <psa03 value="0.0328089769" flag="0"/>
      <psa10 value="0.0069223687" flag="0"/>
      <psa30 value="0.0005081734" flag="0"/>
    </comp>
  </station>
  <station code="ATMI" name="ATMI" netid="IV" insttype="" lat="43.3342" lon="12.268">
    <comp name="--.HHN">
      <acc value="0.0124980219" flag="0"/>
      <vel value="0.0070411266" flag="0"/>
      <psa03 value="0.0331030522" flag="0"/>
      <psa10 value="0.0107190688" flag="0"/>
      <psa30 value="0.0006608015" flag="0"/>
    </comp>
    <comp name="--.HHE">
      <acc value="0.0171229291" flag="0"/>
      <vel value="0.0090092179" flag="0"/>
      <psa03 value="0.0476907316" flag="0"/>
      <psa10 value="0.0076832262" flag="0"/>
      <psa30 value="0.0007636902" flag="0"/>
    </comp>
    <comp name="--.HHZ">
      <acc value="0.0066663951" flag="0"/>
      <vel value="0.0034046030" flag="0"/>
      <psa03 value="0.0166734974" flag="0"/>
      <psa10 value="0.0037636835" flag="0"/>
      <psa30 value="0.0004642200" flag="0"/>
    </comp>
  </station>
  <station code="ATPC" name="ATPC" netid="IV" insttype="" lat="43.4807" lon="12.457">
    <comp name="--.HHN">
      <acc value="0.0267851230" flag="0"/>
      <vel value="0.0105457182" flag="0"/>
      <psa03 value="0.0576617177" flag="0"/>
      <psa10 value="0.0081504032" flag="0"/>
      <psa30 value="0.0008406695" flag="0"/>
    </comp>
    <comp name="--.HHE">
      <acc value="0.0333105078" flag="0"/>
      <vel value="0.0133292326" flag="0"/>
      <psa03 value="0.0651616480" flag="0"/>
      <psa10 value="0.0140083277" flag="0"/>
      <psa30 value="0.0007015440" flag="0"/>
    </comp>
    <comp name="--.HHZ">
      <acc value="0.0100797687" flag="0"/>
      <vel value="0.0058083446" flag="0"/>
      <psa03 value="0.0300200358" flag="0"/>
      <psa10 value="0.0070491801" flag="0"/>
      <psa30 value="0.0005321784" flag="0"/>
    </comp>
  </station>
  <station code="ATVO" name="ATVO" netid="IV" insttype="" lat="43.3821" lon="12.4066">
    <comp name="--.HHZ">
      <acc value="0.0096116076" flag="0"/>
      <vel value="0.0047825552" flag="0"/>
      <psa03 value="0.0182438341" flag="0"/>
      <psa10 value="0.0033169037" flag="0"/>
      <psa30 value="0.0003550102" flag="0"/>
    </comp>
    <comp name="--.HHN">
      <acc value="0.0129055694" flag="0"/>
      <vel value="0.0063024067" flag="0"/>
      <psa03 value="0.0562954479" flag="0"/>
      <psa10 value="0.0050573051" flag="0"/>
      <psa30 value="0.0006470231" flag="0"/>
    </comp>
    <comp name="--.HHE">
      <acc value="0.0154890766" flag="0"/>
      <vel value="0.0072578471" flag="0"/>
      <psa03 value="0.0532266942" flag="0"/>
      <psa10 value="0.0044572728" flag="0"/>
      <psa30 value="0.0008344935" flag="0"/>
    </comp>
  </station>
  <station code="CADA" name="CADA" netid="IV" insttype="" lat="43.1942" lon="13.7614">
    <comp name="--.HNE">
      <acc value="0.4787760085" flag="0"/>
      <vel value="0.1585674863" flag="0"/>
      <psa03 value="0.8671811070" flag="0"/>
      <psa10 value="0.1722649455" flag="0"/>
      <psa30 value="0.0074863119" flag="0"/>
    </comp>
    <comp name="--.HNN">
      <acc value="0.4174413655" flag="0"/>
      <vel value="0.1370751917" flag="0"/>
      <psa03 value="1.0481304035" flag="0"/>
      <psa10 value="0.1218173029" flag="0"/>
      <psa30 value="0.0049933611" flag="0"/>
    </comp>
    <comp name="--.HNZ">
      <acc value="0.3811527503" flag="0"/>
      <vel value="0.0720450111" flag="0"/>
      <psa03 value="0.5381327468" flag="0"/>
      <psa10 value="0.0625459187" flag="0"/>
      <psa30 value="0.0040253239" flag="0"/>
    </comp>
  </station>
  <station code="CAMP" name="CAMP" netid="IV" insttype="" lat="42.5358" lon="13.409">
    <comp name="--.HHE">
      <acc value="0.0126827188" flag="0"/>
      <vel value="0.0052881204" flag="0"/>
      <psa03 value="0.0175119163" flag="0"/>
      <psa10 value="0.0109995221" flag="0"/>
      <psa30 value="0.0005919506" flag="0"/>
    </comp>
    <comp name="--.HHN">
      <acc value="0.0092834899" flag="0"/>
      <vel value="0.0055675136" flag="0"/>
      <psa03 value="0.0218391841" flag="0"/>
      <psa10 value="0.0125425668" flag="0"/>
      <psa30 value="0.0004698861" flag="0"/>
    </comp>
    <comp name="--.HHZ">
      <acc value="0.0091016541" flag="0"/>
      <vel value="0.0048452397" flag="0"/>
      <psa03 value="0.0141812041" flag="0"/>
      <psa10 value="0.0140891976" flag="0"/>
      <psa30 value="0.0007957265" flag="0"/>
    </comp>
  </station>
  <station code="CERT" name="CERT" netid="IV" insttype="" lat="41.949" lon="12.9818">
    <comp name="--.HHN">
      <acc value="0.0032622493" flag="0"/>
      <vel value="0.0032101265" flag="0"/>
      <psa03 value="0.0065192900" flag="0"/>
      <psa10 value="0.0055371925" flag="0"/>
      <psa30 value="0.0005111197" flag="0"/>
    </comp>
    <comp name="--.HHE">
      <acc value="0.0038475310" flag="0"/>
      <vel value="0.0026076631" flag="0"/>
      <psa03 value="0.0092167353" flag="0"/>
      <psa10 value="0.0037649642" flag="0"/>
      <psa30 value="0.0002921840" flag="0"/>
    </comp>
    <comp name="--.HHZ">
      <acc value="0.0024792089" flag="0"/>
      <vel value="0.0018057187" flag="0"/>
      <psa03 value="0.0057070256" flag="0"/>
      <psa10 value="0.0026306169" flag="0"/>
      <psa30 value="0.0005226346" flag="0"/>
    </comp>
  </station>
  <station code="CESI" name="CESI" netid="IV" insttype="" lat="43.0049" lon="12.9046">
    <comp name="--.HHE">
      <acc value="0.0448309651" flag="0"/>
      <vel value="0.0221868134" flag="0"/>
      <psa03 value="0.0497821564" flag="0"/>
      <psa10 value="0.0244043718" flag="0"/>
      <psa30 value="0.0014043357" flag="0"/>
    </comp>
    <comp name="--.HHN">
      <acc value="0.0540521549" flag="0"/>
      <vel value="0.0187830955" flag="0"/>
      <psa03 value="0.0750733505" flag="0"/>
      <psa10 value="0.0116461167" flag="0"/>
      <psa30 value="0.0007175713" flag="0"/>
    </comp>
    <comp name="--.HHZ">
      <acc value="0.0342342074" flag="0"/>
      <vel value="0.0091634802" flag="0"/>
      <psa03 value="0.0345530653" flag="0"/>
      <psa10 value="0.0107768614" flag="0"/>
      <psa30 value="0.0009390807" flag="0"/>
    </comp>
  </station>
  <station code="CESX" name="CESX" netid="IV" insttype="" lat="42.6085" lon="12.5868">
    <comp name="--.HHE">
      <acc value="0.0085722197" flag="0"/>
      <vel value="0.0062215653" flag="0"/>
      <psa03 value="0.0187527938" flag="0"/>
      <psa10 value="0.0087475464" flag="0"/>
      <psa30 value="0.0004650699" flag="0"/>
    </comp>
    <comp name="--.HHN">
      <acc value="0.0094651395" flag="0"/>
      <vel value="0.0059974539" flag="0"/>
      <psa03 value="0.0287028638" flag="0"/>
      <psa10 value="0.0067923104" flag="0"/>
      <psa30 value="0.0003456038" flag="0"/>
    </comp>
    <comp name="--.HHZ">
      <acc value="0.0050203776" flag="0"/>
      <vel value="0.0028764635" flag="0"/>
      <psa03 value="0.0099771694" flag="0"/>
      <psa10 value="0.0029174631" flag="0"/>
      <psa30 value="0.0003656222" flag="0"/>
    </comp>
  </station>
  <station code="CIMA" name="CIMA" netid="IV" insttype="" lat="43.3053" lon="13.6701">
    <comp name="--.HNE">
      <acc value="0.4429518625" flag="0"/>
      <vel value="0.0971126622" flag="0"/>
      <psa03 value="0.3076000507" flag="0"/>
      <psa10 value="0.0693039230" flag="0"/>
      <psa30 value="0.0048090939" flag="0"/>
    </comp>
    <comp name="--.HNN">
      <acc value="0.3360258070" flag="0"/>
      <vel value="0.0854531300" flag="0"/>
      <psa03 value="0.3368112872" flag="0"/>
      <psa10 value="0.0711587064" flag="0"/>
      <psa30 value="0.0058448433" flag="0"/>
    </comp>
    <comp name="--.HNZ">
      <acc value="0.2996232187" flag="0"/>
      <vel value="0.0462213949" flag="0"/>
      <psa03 value="0.1194854919" flag="0"/>
      <psa10 value="0.0234858343" flag="0"/>
      <psa30 value="0.0018580531" flag="0"/>
    </comp>
  </station>
  <station code="CING" name="CING" netid="IV" insttype="" lat="43.3756" lon="13.1954">
    <comp name="--.HHE">
      <acc value="0.1633296764" flag="0"/>
      <vel value="0.0235446524" flag="0"/>
      <psa03 value="0.1062929765" flag="0"/>
      <psa10 value="0.0114431926" flag="0"/>
      <psa30 value="0.0008712165" flag="0"/>
    </comp>
    <comp name="--.HHZ">
      <acc value="0.1029846563" flag="0"/>
      <vel value="0.0163613250" flag="0"/>
      <psa03 value="0.0840745601" flag="0"/>
      <psa10 value="0.0065290606" flag="0"/>
      <psa30 value="0.0005223826" flag="0"/>
    </comp>
    <comp name="--.HHN">
      <acc value="0.1564653425" flag="0"/>
      <vel value="0.0295410056" flag="0"/>
      <psa03 value="0.0838602339" flag="0"/>
      <psa10 value="0.0072074944" flag="0"/>
      <psa30 value="0.0005970850" flag="0"/>
    </comp>
  </station>
  <station code="CRTC" name="CRTC" netid="IV" insttype="" lat="43.7685" lon="12.883">
    <comp name="--.HHE">
      <acc value="0.0523639622" flag="0"/>
      <vel value="0.0211452225" flag="0"/>
      <psa03 value="0.2022441181" flag="0"/>
      <psa10 value="0.0115929027" flag="0"/>
      <psa30 value="0.0012847513" flag="0"/>
    </comp>
    <comp name="--.HHN">
      <acc value="0.0468178890" flag="0"/>
      <vel value="0.0198684036" flag="0"/>
      <psa03 value="0.1135556739" flag="0"/>
      <psa10 value="0.0123245945" flag="0"/>
      <psa30 value="0.0008180125" flag="0"/>
    </comp>
    <comp name="--.HHZ">
      <acc value="0.0352119839" flag="0"/>
      <vel value="0.0135732198" flag="0"/>
      <psa03 value="0.1003396925" flag="0"/>
      <psa10 value="0.0079304682" flag="0"/>
      <psa30 value="0.0005791349" flag="0"/>
    </comp>
  </station>
  <station code="FAGN" name="FAGN" netid="IV" insttype="" lat="42.2657" lon="13.5838">
    <comp name="--.HHE">
      <acc value="0.0128322435" flag="0"/>
      <vel value="0.0078746010" flag="0"/>
      <psa03 value="0.0453874772" flag="0"/>
      <psa10 value="0.0095627008" flag="0"/>
      <psa30 value="0.0003962280" flag="0"/>
    </comp>
    <comp name="--.HHN">
      <acc value="0.0173974314" flag="0"/>
      <vel value="0.0099386111" flag="0"/>
      <psa03 value="0.0461994617" flag="0"/>
      <psa10 value="0.0090400598" flag="0"/>
      <psa30 value="0.0004518690" flag="0"/>
    </comp>
    <comp name="--.HHZ">
      <acc value="0.0129188860" flag="0"/>
      <vel value="0.0071184050" flag="0"/>
      <psa03 value="0.0556530245" flag="0"/>
      <psa10 value="0.0041072459" flag="0"/>
      <psa30 value="0.0002094124" flag="0"/>
    </comp>
  </station>
  <station code="FDMO" name="FDMO" netid="IV" insttype="" lat="43.0365" lon="13.0873">
    <comp name="--.HHE">
      <acc value="0.3389279874" flag="0"/>
      <vel value="0.0940034888" flag="0"/>
      <psa03 value="0.2759462324" flag="0"/>
      <psa10 value="0.0202461297" flag="0"/>
      <psa30 value="0.0024458883" flag="0"/>
    </comp>
    <comp name="--.HHN">
      <acc value="0.1670728517" flag="0"/>
      <vel value="0.0468909674" flag="0"/>
      <psa03 value="0.1522429003" flag="0"/>
      <psa10 value="0.0110905775" flag="0"/>
      <psa30 value="0.0007956606" flag="0"/>
    </comp>
    <comp name="--.HHZ">
      <acc value="0.1485851431" flag="0"/>
      <vel value="0.0489515147" flag="0"/>
      <psa03 value="0.0794035022" flag="0"/>
      <psa10 value="0.0290189373" flag="0"/>
      <psa30 value="0.0022000200" flag="0"/>
    </comp>
  </station>
  <station code="FEMA" name="FEMA" netid="IV" insttype="" lat="42.9621" lon="13.0498">
    <comp name="--.HNE">
      <acc value="0.1356484719" flag="0"/>
      <vel value="0.0422507782" flag="0"/>
      <psa03 value="0.1337954201" flag="0"/>
      <psa10 value="0.0346381801" flag="0"/>
      <psa30 value="0.0017781701" flag="0"/>
    </comp>
    <comp name="--.HNN">
      <acc value="0.1606620943" flag="0"/>
      <vel value="0.0366576535" flag="0"/>
      <psa03 value="0.1180416032" flag="0"/>
      <psa10 value="0.0202638408" flag="0"/>
      <psa30 value="0.0010684773" flag="0"/>
    </comp>
    <comp name="--.HNZ">
      <acc value="0.0754592200" flag="0"/>
      <vel value="0.0362830432" flag="0"/>
      <psa03 value="0.0521662101" flag="0"/>
      <psa10 value="0.0373363304" flag="0"/>
      <psa30 value="0.0027172551" flag="0"/>
    </comp>
  </station>
  <station code="FIAM" name="FIAM" netid="IV" insttype="" lat="42.268" lon="13.1172">
    <comp name="--.HHE">
      <acc value="0.0077825328" flag="0"/>
      <vel value="0.0042676437" flag="0"/>
      <psa03 value="0.0207588600" flag="0"/>
      <psa10 value="0.0076570126" flag="0"/>
      <psa30 value="0.0004676308" flag="0"/>
    </comp>
    <comp name="--.HHN">
      <acc value="0.0058792298" flag="0"/>
      <vel value="0.0035303983" flag="0"/>
      <psa03 value="0.0105522430" flag="0"/>
      <psa10 value="0.0042653370" flag="0"/>
      <psa30 value="0.0005195813" flag="0"/>
    </comp>
    <comp name="--.HHZ">
      <acc value="0.0040582697" flag="0"/>
      <vel value="0.0028714379" flag="0"/>
      <psa03 value="0.0107874642" flag="0"/>
      <psa10 value="0.0038650984" flag="0"/>
      <psa30 value="0.0002303979" flag="0"/>
    </comp>
  </station>
  <station code="FOSV" name="FOSV" netid="IV" insttype="" lat="43.2948" lon="12.7612">
    <comp name="--.HNN">
      <acc value="0.0442471288" flag="0"/>
      <vel value="0.0159094407" flag="0"/>
      <psa03 value="0.0602009853" flag="0"/>
      <psa10 value="0.0093092222" flag="0"/>
      <psa30 value="0.0006224860" flag="0"/>
    </comp>
    <comp name="--.HNE">
      <acc value="0.0459511429" flag="0"/>
      <vel value="0.0173600570" flag="0"/>
      <psa03 value="0.0860105086" flag="0"/>
      <psa10 value="0.0100815107" flag="0"/>
      <psa30 value="0.0008583850" flag="0"/>
    </comp>
    <comp name="--.HNZ">
      <acc value="0.0332685025" flag="0"/>
      <vel value="0.0168003005" flag="0"/>
      <psa03 value="0.0498815052" flag="0"/>
      <psa10 value="0.0127867072" flag="0"/>
      <psa30 value="0.0010405103" flag="0"/>
    </comp>
  </station>
  <station code="GAG1" name="GAG1" netid="IV" insttype="" lat="43.2381" lon="13.0674">
    <comp name="--.HNE">
      <acc value="0.2082050514" flag="0"/>
      <vel value="0.0646948247" flag="0"/>
      <psa03 value="0.3896386550" flag="0"/>
      <psa10 value="0.0415561255" flag="0"/>
      <psa30 value="0.0026578935" flag="0"/>
    </comp>
    <comp name="--.HNZ">
      <acc value="0.2701157337" flag="0"/>
      <vel value="0.0950056691" flag="0"/>
      <psa03 value="0.4251033015" flag="0"/>
      <psa10 value="0.0446746965" flag="0"/>
      <psa30 value="0.0040929205" flag="0"/>
    </comp>
