<?xml version="1.0" encoding="UTF-8" standalone="yes"?>
<!DOCTYPE earthquake SYSTEM "stationlist.dtd">
<stationlist created="" xmlns="ch.ethz.sed.shakemap.usgs.xml">
  <station code="BH04A" name="BH04A" netid="Y5" insttype="STS2_gen2" lat="43.3483" lon="17.7935">
    <comp name="--.HH2">
      <acc value="0.0417716574" flag="0"/>
      <vel value="0.0172755283" flag="0"/>
      <psa03 value="0.0578863536" flag="0"/>
      <psa10 value="0.0189317820" flag="0"/>
      <psa30 value="0.0024199529" flag="0"/>
    </comp>
    <comp name="--.HHZ">
      <acc value="0.0262564302" flag="0"/>
      <vel value="0.0095545785" flag="0"/>
      <psa03 value="0.0290585261" flag="0"/>
      <psa10 value="0.0081653104" flag="0"/>
      <psa30 value="0.0014840826" flag="0"/>
    </comp>
    <comp name="--.HH1">
      <acc value="0.0519239010" flag="0"/>
      <vel value="0.0116735391" flag="0"/>
      <psa03 value="0.0683973764" flag="0"/>
      <psa10 value="0.0072380987" flag="0"/>
      <psa30 value="0.0013133745" flag="0"/>
    </comp>
  </station>
</stationlist>
