<?xml version="1.0" encoding="UTF-8" standalone="yes"?>
<!DOCTYPE earthquake SYSTEM "stationlist.dtd">
<stationlist created="" xmlns="ch.ethz.sed.shakemap.usgs.xml">
  <station code="BH03A" name="BH03A" netid="Y5" insttype="STS2_gen3" lat="43.8212" lon="17.6885">
    <comp name="--.HH2">
      <acc value="0.0126557373" flag="0"/>
      <vel value="0.0060100230" flag="0"/>
      <psa03 value="0.0289445633" flag="0"/>
      <psa10 value="0.0042714717" flag="0"/>
      <psa30 value="0.0012415134" flag="0"/>
    </comp>
    <comp name="--.HH1">
      <acc value="0.0077654646" flag="0"/>
      <vel value="0.0024691689" flag="0"/>
      <psa03 value="0.0109193167" flag="0"/>
      <psa10 value="0.0023985156" flag="0"/>
      <psa30 value="0.0007646337" flag="0"/>
    </comp>
    <comp name="--.HHZ">
      <acc value="0.0055150470" flag="0"/>
      <vel value="0.0029381499" flag="0"/>
      <psa03 value="0.0122557188" flag="0"/>
      <psa10 value="0.0026976538" flag="0"/>
      <psa30 value="0.0009382171" flag="0"/>
    </comp>
  </station>
  <station code="BH04A" name="BH04A" netid="Y5" insttype="STS2_gen2" lat="43.3483" lon="17.7935">
    <comp name="--.HH2">
      <acc value="0.0417716573" flag="0"/>
      <vel value="0.0172755278" flag="0"/>
      <psa03 value="0.0578863536" flag="0"/>
      <psa10 value="0.0189317828" flag="0"/>
      <psa30 value="0.0024198978" flag="0"/>
    </comp>
    <comp name="--.HH1">
      <acc value="0.0519239005" flag="0"/>
      <vel value="0.0116735391" flag="0"/>
      <psa03 value="0.0683973764" flag="0"/>
      <psa10 value="0.0072380987" flag="0"/>
      <psa30 value="0.0013134358" flag="0"/>
    </comp>
    <comp name="--.HHZ">
      <acc value="0.0262564312" flag="0"/>
      <vel value="0.0095545784" flag="0"/>
      <psa03 value="0.0290585261" flag="0"/>
      <psa10 value="0.0081653107" flag="0"/>
      <psa30 value="0.0014842356" flag="0"/>
    </comp>
  </station>
  <station code="BH06A" name="BH06A" netid="Y5" insttype="STS2_gen3" lat="43.5022" lon="18.4463">
    <comp name="--.HH2">
      <acc value="0.0091703648" flag="0"/>
      <vel value="0.0047889660" flag="0"/>
      <psa03 value="0.0187989552" flag="0"/>
      <psa10 value="0.0060576237" flag="0"/>
      <psa30 value="0.0017385961" flag="0"/>
    </comp>
    <comp name="--.HH1">
      <acc value="0.0079577582" flag="0"/>
      <vel value="0.0037147763" flag="0"/>
      <psa03 value="0.0163321441" flag="0"/>
      <psa10 value="0.0048710066" flag="0"/>
      <psa30 value="0.0007186167" flag="0"/>
    </comp>
    <comp name="--.HHZ">
      <acc value="0.0042668306" flag="0"/>
      <vel value="0.0043253265" flag="0"/>
      <psa03 value="0.0135834059" flag="0"/>
      <psa10 value="0.0043243400" flag="0"/>
      <psa30 value="0.0017292294" flag="0"/>
    </comp>
  </station>
</stationlist>
