<?xml version="1.0" encoding="UTF-8" standalone="yes"?>
<!DOCTYPE earthquake SYSTEM "stationlist.dtd">
<stationlist created="" xmlns="ch.ethz.sed.shakemap.usgs.xml">
  <station code="BASIC" name="BASIC" netid="IV" insttype="" lat="38.067" lon="15.0688">
    <comp name="--.HHN">
      <acc value="0.3135947948" flag="0"/>
      <vel value="0.1728048146" flag="0"/>
      <psa03 value="0.8566940347" flag="0"/>
      <psa10 value="0.1834933637" flag="0"/>
      <psa30 value="0.0199554428" flag="0"/>
    </comp>
    <comp name="--.HHE">
      <acc value="0.3146846632" flag="0"/>
      <vel value="0.1707625270" flag="0"/>
      <psa03 value="0.7995049779" flag="0"/>
      <psa10 value="0.2152879923" flag="0"/>
      <psa30 value="0.0258018262" flag="0"/>
    </comp>
    <comp name="--.HHZ">
      <acc value="0.1581268654" flag="0"/>
      <vel value="0.1005779779" flag="0"/>
      <psa03 value="0.3483516090" flag="0"/>
      <psa10 value="0.0631629157" flag="0"/>
      <psa30 value="0.0245918520" flag="0"/>
    </comp>
  </station>
  <station code="CPTP" name="CPTP" netid="IV" insttype="" lat="37.4075" lon="14.1625">
    <comp name="--.HHE">
      <acc value="0.0000000000" flag="0"/>
      <vel value="-100.0000000000" flag="0"/>
      <psa03 value="0.0000000000" flag="0"/>
      <psa10 value="0.0000000000" flag="0"/>
      <psa30 value="0.0000000000" flag="0"/>
    </comp>
    <comp name="--.HHN">
      <acc value="0.0369657392" flag="0"/>
      <vel value="0.0708027398" flag="0"/>
      <psa03 value="0.0560532418" flag="0"/>
      <psa10 value="0.0765989626" flag="0"/>
      <psa30 value="0.0424167470" flag="0"/>
    </comp>
    <comp name="--.HHZ">
      <acc value="0.0211164471" flag="0"/>
      <vel value="0.0469001433" flag="0"/>
      <psa03 value="0.0288034273" flag="0"/>
      <psa10 value="0.0673752806" flag="0"/>
      <psa30 value="0.0187848595" flag="0"/>
    </comp>
  </station>
  <station code="CSLB" name="CSLB" netid="IV" insttype="" lat="37.9374" lon="14.0579">
    <comp name="--.HHE">
      <acc value="0.2960285480" flag="0"/>
      <vel value="0.2173978741" flag="0"/>
      <psa03 value="0.9074952249" flag="0"/>
      <psa10 value="0.4028308228" flag="0"/>
      <psa30 value="0.0182344617" flag="0"/>
    </comp>
    <comp name="--.HHZ">
      <acc value="0.2621194487" flag="0"/>
      <vel value="0.1541605290" flag="0"/>
      <psa03 value="0.8816733435" flag="0"/>
      <psa10 value="0.2301731108" flag="0"/>
      <psa30 value="0.0232428659" flag="0"/>
    </comp>
    <comp name="--.HHN">
      <acc value="0.2984183908" flag="0"/>
      <vel value="0.1981204494" flag="0"/>
      <psa03 value="1.0331839910" flag="0"/>
      <psa10 value="0.2541663824" flag="0"/>
      <psa30 value="0.0145166268" flag="0"/>
    </comp>
  </station>
  <station code="EBDA" name="EBDA" netid="IV" insttype="" lat="37.6335" lon="15.1223">
    <comp name="--.HHN">
      <acc value="0.0405299490" flag="0"/>
      <vel value="0.0502600928" flag="0"/>
      <psa03 value="0.1281127634" flag="0"/>
      <psa10 value="0.0538885223" flag="0"/>
      <psa30 value="0.0164778012" flag="0"/>
    </comp>
    <comp name="--.HHE">
      <acc value="0.0457607731" flag="0"/>
      <vel value="0.0440008634" flag="0"/>
      <psa03 value="0.1055830078" flag="0"/>
      <psa10 value="0.0636237744" flag="0"/>
      <psa30 value="0.0125524557" flag="0"/>
    </comp>
    <comp name="--.HHZ">
      <acc value="0.0289396639" flag="0"/>
      <vel value="0.0301078756" flag="0"/>
      <psa03 value="0.0481809816" flag="0"/>
      <psa10 value="0.0352725444" flag="0"/>
      <psa30 value="0.0087233301" flag="0"/>
    </comp>
  </station>
  <station code="ECBD" name="ECBD" netid="IV" insttype="" lat="37.7802" lon="15.0865">
    <comp name="--.HHZ">
      <acc value="0.0620958814" flag="0"/>
      <vel value="0.0613678424" flag="0"/>
      <psa03 value="0.1483225752" flag="0"/>
      <psa10 value="0.0848176394" flag="0"/>
      <psa30 value="0.0122280240" flag="0"/>
    </comp>
    <comp name="--.HHN">
      <acc value="0.1013323373" flag="0"/>
      <vel value="0.1353633501" flag="0"/>
      <psa03 value="0.3041324452" flag="0"/>
      <psa10 value="0.1648455832" flag="0"/>
      <psa30 value="0.0353053491" flag="0"/>
    </comp>
    <comp name="--.HHE">
      <acc value="0.0936229025" flag="0"/>
      <vel value="0.1146763206" flag="0"/>
      <psa03 value="0.2667368995" flag="0"/>
      <psa10 value="0.1265546021" flag="0"/>
      <psa30 value="0.0336709607" flag="0"/>
    </comp>
  </station>
  <station code="ECHR" name="ECHR" netid="IV" insttype="" lat="37.6863" lon="14.9129">
    <comp name="--.HHE">
      <acc value="0.1426734293" flag="0"/>
      <vel value="0.2107472870" flag="0"/>
      <psa03 value="0.2494291973" flag="0"/>
      <psa10 value="0.2460170602" flag="0"/>
      <psa30 value="0.0822738809" flag="0"/>
    </comp>
    <comp name="--.HHN">
      <acc value="0.1234327817" flag="0"/>
      <vel value="0.1549803685" flag="0"/>
      <psa03 value="0.2545857456" flag="0"/>
      <psa10 value="0.1901149077" flag="0"/>
      <psa30 value="0.0917356683" flag="0"/>
    </comp>
    <comp name="--.HHZ">
      <acc value="0.0766949308" flag="0"/>
      <vel value="0.0933893272" flag="0"/>
      <psa03 value="0.1407801614" flag="0"/>
      <psa10 value="0.0785084481" flag="0"/>
      <psa30 value="0.0560500172" flag="0"/>
    </comp>
  </station>
  <station code="ECNE" name="ECNE" netid="IV" insttype="" lat="37.7653" lon="15.0018">
    <comp name="--.HHE">
      <acc value="0.1211302265" flag="0"/>
      <vel value="0.2126418015" flag="0"/>
      <psa03 value="0.3170862721" flag="0"/>
      <psa10 value="0.2581483396" flag="0"/>
      <psa30 value="0.0477952348" flag="0"/>
    </comp>
    <comp name="--.HHN">
      <acc value="0.1257189343" flag="0"/>
      <vel value="0.1225051387" flag="0"/>
      <psa03 value="0.3642736505" flag="0"/>
      <psa10 value="0.1852554620" flag="0"/>
      <psa30 value="0.0306763573" flag="0"/>
    </comp>
    <comp name="--.HHZ">
      <acc value="0.0836334000" flag="0"/>
      <vel value="0.0839959779" flag="0"/>
      <psa03 value="0.2494392790" flag="0"/>
      <psa10 value="0.1518627759" flag="0"/>
      <psa30 value="0.0160959214" flag="0"/>
    </comp>
  </station>
  <station code="ECPN" name="ECPN" netid="IV" insttype="" lat="37.7437" lon="14.9865">
    <comp name="--.HHE">
      <acc value="0.1694158358" flag="0"/>
      <vel value="0.1974612865" flag="0"/>
      <psa03 value="0.4266840673" flag="0"/>
      <psa10 value="0.3807932876" flag="0"/>
      <psa30 value="0.0395017755" flag="0"/>
    </comp>
    <comp name="--.HHN">
      <acc value="0.1478341853" flag="0"/>
      <vel value="0.1339159350" flag="0"/>
      <psa03 value="0.3580511345" flag="0"/>
      <psa10 value="0.2477773319" flag="0"/>
      <psa30 value="0.0326964945" flag="0"/>
    </comp>
    <comp name="--.HHZ">
      <acc value="0.0786465905" flag="0"/>
      <vel value="0.0885187343" flag="0"/>
      <psa03 value="0.2923569938" flag="0"/>
      <psa10 value="0.1916549098" flag="0"/>
      <psa30 value="0.0135251727" flag="0"/>
    </comp>
  </station>
  <station code="ECTS" name="ECTS" netid="IV" insttype="" lat="37.882" lon="15.121">
    <comp name="--.HHE">
      <acc value="0.0656036781" flag="0"/>
      <vel value="0.0537817809" flag="0"/>
      <psa03 value="0.1992542984" flag="0"/>
      <psa10 value="0.0746525076" flag="0"/>
      <psa30 value="0.0183378277" flag="0"/>
    </comp>
    <comp name="--.HHZ">
      <acc value="0.0452462672" flag="0"/>
      <vel value="0.0471433452" flag="0"/>
      <psa03 value="0.1193179550" flag="0"/>
      <psa10 value="0.0744023956" flag="0"/>
      <psa30 value="0.0109003878" flag="0"/>
    </comp>
    <comp name="--.HHN">
      <acc value="0.1030418539" flag="0"/>
      <vel value="0.0660275777" flag="0"/>
      <psa03 value="0.4595456697" flag="0"/>
      <psa10 value="0.0880357451" flag="0"/>
      <psa30 value="0.0166761661" flag="0"/>
    </comp>
  </station>
  <station code="ECZM" name="ECZM" netid="IV" insttype="" lat="37.7313" lon="14.9041">
    <comp name="--.HHE">
      <acc value="0.1158048306" flag="0"/>
      <vel value="0.1455671720" flag="0"/>
      <psa03 value="0.2901905932" flag="0"/>
      <psa10 value="0.1796099372" flag="0"/>
      <psa30 value="0.0321322133" flag="0"/>
    </comp>
    <comp name="--.HHN">
      <acc value="0.1373121558" flag="0"/>
      <vel value="0.1471150788" flag="0"/>
      <psa03 value="0.5003319665" flag="0"/>
      <psa10 value="0.2349981399" flag="0"/>
      <psa30 value="0.0445099927" flag="0"/>
    </comp>
    <comp name="--.HHZ">
      <acc value="0.0738467238" flag="0"/>
      <vel value="0.0857199610" flag="0"/>
      <psa03 value="0.2238721182" flag="0"/>
      <psa10 value="0.1507496642" flag="0"/>
      <psa30 value="0.0463811285" flag="0"/>
    </comp>
  </station>
  <station code="EFIU" name="EFIU" netid="IV" insttype="" lat="37.7896" lon="15.2103">
    <comp name="--.HHE">
      <acc value="0.0331442291" flag="0"/>
      <vel value="0.0731471521" flag="0"/>
      <psa03 value="0.0634060975" flag="0"/>
      <psa10 value="0.0733275284" flag="0"/>
      <psa30 value="0.0548351390" flag="0"/>
    </comp>
    <comp name="--.HHN">
      <acc value="0.0548570301" flag="0"/>
      <vel value="0.0853821061" flag="0"/>
      <psa03 value="0.0953776079" flag="0"/>
      <psa10 value="0.1030261041" flag="0"/>
      <psa30 value="0.0527530195" flag="0"/>
    </comp>
    <comp name="--.HHZ">
      <acc value="0.0288456344" flag="0"/>
      <vel value="0.0418788703" flag="0"/>
      <psa03 value="0.0552148859" flag="0"/>
      <psa10 value="0.0778372058" flag="0"/>
      <psa30 value="0.0277152308" flag="0"/>
    </comp>
  </station>
  <station code="EMAS" name="EMAS" netid="IV" insttype="" lat="37.5792" lon="15.0526">
    <comp name="--.HHE">
      <acc value="0.1396029006" flag="0"/>
      <vel value="0.0807566807" flag="0"/>
      <psa03 value="0.1083927836" flag="0"/>
      <psa10 value="0.1200583366" flag="0"/>
      <psa30 value="0.0278295900" flag="0"/>
    </comp>
    <comp name="--.HHN">
      <acc value="0.1118602272" flag="0"/>
      <vel value="0.0579215675" flag="0"/>
      <psa03 value="0.1143810168" flag="0"/>
      <psa10 value="0.0614735102" flag="0"/>
      <psa30 value="0.0256916757" flag="0"/>
    </comp>
    <comp name="--.HHZ">
      <acc value="0.0464962846" flag="0"/>
      <vel value="0.0476410034" flag="0"/>
      <psa03 value="0.1303462024" flag="0"/>
      <psa10 value="0.0395252036" flag="0"/>
      <psa30 value="0.0245386416" flag="0"/>
    </comp>
  </station>
  <station code="EMCN" name="EMCN" netid="IV" insttype="" lat="37.7912" lon="15.0336">
    <comp name="--.HHE">
      <acc value="0.1194039365" flag="0"/>
      <vel value="0.0872516844" flag="0"/>
      <psa03 value="0.3304297598" flag="0"/>
      <psa10 value="0.1534539827" flag="0"/>
      <psa30 value="0.0265249739" flag="0"/>
    </comp>
    <comp name="--.HHN">
      <acc value="0.1115838880" flag="0"/>
      <vel value="0.0849130342" flag="0"/>
      <psa03 value="0.2325218484" flag="0"/>
      <psa10 value="0.1490327443" flag="0"/>
      <psa30 value="0.0230605459" flag="0"/>
    </comp>
    <comp name="--.HHZ">
      <acc value="0.0870161355" flag="0"/>
      <vel value="0.0851162535" flag="0"/>
      <psa03 value="0.2094230470" flag="0"/>
      <psa10 value="0.1168669393" flag="0"/>
      <psa30 value="0.0262071868" flag="0"/>
    </comp>
  </station>
  <station code="EMCO" name="EMCO" netid="IV" insttype="" lat="37.9264" lon="14.9029">
    <comp name="--.HHN">
      <acc value="0.2136735768" flag="0"/>
      <vel value="0.1305551438" flag="0"/>
      <psa03 value="0.6816447883" flag="0"/>
      <psa10 value="0.1342146524" flag="0"/>
      <psa30 value="0.0229810999" flag="0"/>
    </comp>
    <comp name="--.HHE">
      <acc value="0.2522572311" flag="0"/>
      <vel value="0.1571657224" flag="0"/>
      <psa03 value="0.4517775840" flag="0"/>
      <psa10 value="0.1372966343" flag="0"/>
      <psa30 value="0.0243666611" flag="0"/>
    </comp>
    <comp name="--.HHZ">
      <acc value="0.0969935293" flag="0"/>
      <vel value="0.1126351549" flag="0"/>
      <psa03 value="0.2447046846" flag="0"/>
      <psa10 value="0.1044532785" flag="0"/>
      <psa30 value="0.0378747540" flag="0"/>
    </comp>
  </station>
  <station code="EMFO" name="EMFO" netid="IV" insttype="" lat="37.7357" lon="15.0902">
    <comp name="--.HHE">
      <acc value="0.0987560147" flag="0"/>
      <vel value="0.0785033568" flag="0"/>
      <psa03 value="0.2832208648" flag="0"/>
      <psa10 value="0.1269691236" flag="0"/>
      <psa30 value="0.0319586308" flag="0"/>
    </comp>
    <comp name="--.HHN">
      <acc value="0.0909028322" flag="0"/>
      <vel value="0.0895552601" flag="0"/>
      <psa03 value="0.2687177429" flag="0"/>
      <psa10 value="0.1087864877" flag="0"/>
      <psa30 value="0.0280635204" flag="0"/>
    </comp>
    <comp name="--.HHZ">
      <acc value="0.0497726010" flag="0"/>
      <vel value="0.0563440024" flag="0"/>
      <psa03 value="0.1569734394" flag="0"/>
      <psa10 value="0.0477807071" flag="0"/>
      <psa30 value="0.0246646586" flag="0"/>
    </comp>
  </station>
  <station code="EMFS" name="EMFS" netid="IV" insttype="" lat="37.7196" lon="14.9979">
    <comp name="--.HHE">
      <acc value="0.1020649587" flag="0"/>
      <vel value="0.1594361819" flag="0"/>
      <psa03 value="0.3034959137" flag="0"/>
      <psa10 value="0.2342518184" flag="0"/>
      <psa30 value="0.0332954297" flag="0"/>
    </comp>
    <comp name="--.HHZ">
      <acc value="0.0707464356" flag="0"/>
      <vel value="0.0793896571" flag="0"/>
      <psa03 value="0.2197008298" flag="0"/>
      <psa10 value="0.0783957651" flag="0"/>
      <psa30 value="0.0189512540" flag="0"/>
    </comp>
    <comp name="--.HHN">
      <acc value="0.1161882272" flag="0"/>
      <vel value="0.1012837556" flag="0"/>
      <psa03 value="0.3068475946" flag="0"/>
      <psa10 value="0.2239531391" flag="0"/>
      <psa30 value="0.0427653392" flag="0"/>
    </comp>
  </station>
  <station code="EMPL" name="EMPL" netid="IV" insttype="" lat="37.679" lon="14.9703">
    <comp name="--.HHE">
      <acc value="0.1058198055" flag="0"/>
      <vel value="0.1300640241" flag="0"/>
      <psa03 value="0.3313583328" flag="0"/>
      <psa10 value="0.2680306425" flag="0"/>
      <psa30 value="0.0301427351" flag="0"/>
    </comp>
    <comp name="--.HHN">
      <acc value="0.1445057025" flag="0"/>
      <vel value="0.1793208618" flag="0"/>
      <psa03 value="0.4443806933" flag="0"/>
      <psa10 value="0.1738920860" flag="0"/>
      <psa30 value="0.0450581158" flag="0"/>
    </comp>
    <comp name="--.HHZ">
      <acc value="0.1049796909" flag="0"/>
      <vel value="0.0542387970" flag="0"/>
      <psa03 value="0.1984530958" flag="0"/>
      <psa10 value="0.0879612422" flag="0"/>
      <psa30 value="0.0304801568" flag="0"/>
    </comp>
  </station>
  <station code="EMSA" name="EMSA" netid="IV" insttype="" lat="37.498" lon="14.945">
    <comp name="--.HHE">
      <acc value="0.1196671792" flag="0"/>
      <vel value="0.2624673342" flag="0"/>
      <psa03 value="0.1779515352" flag="0"/>
      <psa10 value="0.3107894946" flag="0"/>
      <psa30 value="0.0736189191" flag="0"/>
    </comp>
    <comp name="--.HHN">
      <acc value="0.1195155257" flag="0"/>
      <vel value="0.3910314198" flag="0"/>
      <psa03 value="0.1726748804" flag="0"/>
      <psa10 value="0.3038924300" flag="0"/>
      <psa30 value="0.2015852680" flag="0"/>
    </comp>
    <comp name="--.HHZ">
      <acc value="0.0684170271" flag="0"/>
      <vel value="0.1592341053" flag="0"/>
      <psa03 value="0.0899319653" flag="0"/>
      <psa10 value="0.1556652806" flag="0"/>
      <psa30 value="0.1409824022" flag="0"/>
    </comp>
  </station>
  <station code="EMSG" name="EMSG" netid="IV" insttype="" lat="37.8208" lon="14.9498">
    <comp name="--.HHE">
      <acc value="0.2117433034" flag="0"/>
      <vel value="0.1959609059" flag="0"/>
      <psa03 value="0.5369898727" flag="0"/>
      <psa10 value="0.2392116571" flag="0"/>
      <psa30 value="0.0426323980" flag="0"/>
    </comp>
    <comp name="--.HHN">
      <acc value="0.1672846085" flag="0"/>
      <vel value="0.1757210904" flag="0"/>
      <psa03 value="0.4060015479" flag="0"/>
      <psa10 value="0.1543969773" flag="0"/>
      <psa30 value="0.0651525211" flag="0"/>
    </comp>
    <comp name="--.HHZ">
      <acc value="0.1058316048" flag="0"/>
      <vel value="0.0944023594" flag="0"/>
      <psa03 value="0.3346207722" flag="0"/>
      <psa10 value="0.0936869870" flag="0"/>
      <psa30 value="0.0449499911" flag="0"/>
    </comp>
  </station>
  <station code="EPDN" name="EPDN" netid="IV" insttype="" lat="37.7659" lon="15.0168">
    <comp name="--.HHN">
      <acc value="0.1219010227" flag="0"/>
      <vel value="0.2464769246" flag="0"/>
      <psa03 value="0.2879399517" flag="0"/>
      <psa10 value="0.4463104891" flag="0"/>
      <psa30 value="0.0530927446" flag="0"/>
    </comp>
    <comp name="--.HHE">
      <acc value="0.1581848875" flag="0"/>
      <vel value="0.2168583256" flag="0"/>
      <psa03 value="0.2353685722" flag="0"/>
      <psa10 value="0.4988103386" flag="0"/>
      <psa30 value="0.0665561072" flag="0"/>
    </comp>
    <comp name="--.HHZ">
      <acc value="0.0886470092" flag="0"/>
      <vel value="0.1003021315" flag="0"/>
      <psa03 value="0.1901148176" flag="0"/>
      <psa10 value="0.1074252557" flag="0"/>
      <psa30 value="0.0204561291" flag="0"/>
    </comp>
  </station>
  <station code="EPIT" name="EPIT" netid="IV" insttype="" lat="37.8113" lon="15.0567">
    <comp name="--.HHE">
      <acc value="0.1943014818" flag="0"/>
      <vel value="0.1956335741" flag="0"/>
      <psa03 value="0.6536737590" flag="0"/>
      <psa10 value="0.1910299369" flag="0"/>
      <psa30 value="0.0473091994" flag="0"/>
    </comp>
    <comp name="--.HHN">
      <acc value="0.1321945936" flag="0"/>
      <vel value="0.1422903216" flag="0"/>
      <psa03 value="0.3808979002" flag="0"/>
      <psa10 value="0.2443845795" flag="0"/>
      <psa30 value="0.0317505134" flag="0"/>
    </comp>
    <comp name="--.HHZ">
      <acc value="0.0987593177" flag="0"/>
      <vel value="0.0896253769" flag="0"/>
      <psa03 value="0.2173542022" flag="0"/>
      <psa10 value="0.1997556348" flag="0"/>
      <psa30 value="0.0402372877" flag="0"/>
    </comp>
  </station>
  <station code="EPMN" name="EPMN" netid="IV" insttype="" lat="37.8204" lon="15.1773">
    <comp name="--.HHE">
      <acc value="0.0743921675" flag="0"/>
      <vel value="0.0595500481" flag="0"/>
      <psa03 value="0.1848299201" flag="0"/>
      <psa10 value="0.0635165754" flag="0"/>
      <psa30 value="0.0144484384" flag="0"/>
    </comp>
    <comp name="--.HHN">
      <acc value="0.1013637656" flag="0"/>
      <vel value="0.0636056998" flag="0"/>
      <psa03 value="0.1908403834" flag="0"/>
      <psa10 value="0.0519051784" flag="0"/>
      <psa30 value="0.0218815650" flag="0"/>
    </comp>
    <comp name="--.HHZ">
      <acc value="0.0501209043" flag="0"/>
      <vel value="0.0387375380" flag="0"/>
      <psa03 value="0.1541648254" flag="0"/>
      <psa10 value="0.0413637014" flag="0"/>
      <psa30 value="0.0134745543" flag="0"/>
    </comp>
  </station>
  <station code="EPOZ" name="EPOZ" netid="IV" insttype="" lat="37.6719" lon="15.1885">
    <comp name="--.HHE">
      <acc value="0.0638984782" flag="0"/>
      <vel value="0.0772988524" flag="0"/>
      <psa03 value="0.1134533059" flag="0"/>
      <psa10 value="0.1138372714" flag="0"/>
      <psa30 value="0.0409085605" flag="0"/>
    </comp>
    <comp name="--.HHN">
      <acc value="0.0481072568" flag="0"/>
      <vel value="0.0834274769" flag="0"/>
      <psa03 value="0.1130098732" flag="0"/>
      <psa10 value="0.1059981839" flag="0"/>
      <psa30 value="0.0322527644" flag="0"/>
    </comp>
