<?xml version="1.0" encoding="UTF-8" standalone="yes"?>
<!DOCTYPE earthquake SYSTEM "stationlist.dtd">
<stationlist created="" xmlns="ch.ethz.sed.shakemap.usgs.xml">
  <station code="HVAR" name="HVAR" netid="CR" insttype="120" commtype="DIG" lat="43.1776" lon="16.4488">
    <comp name="--.HHE">
      <acc value="0.0307473868" flag="0"/>
      <vel value="0.0253237654" flag="0"/>
      <psa03 value="0.0573871153" flag="0"/>
      <psa10 value="0.0328010980" flag="0"/>
      <psa30 value="0.0075029408" flag="0"/>
    </comp>
  </station>
</stationlist>
