<?xml version="1.0" encoding="UTF-8" standalone="yes"?>
<!DOCTYPE earthquake SYSTEM "stationlist.dtd">
<stationlist created="" xmlns="ch.ethz.sed.shakemap.usgs.xml">
  <station code="ACER" name="ACER" netid="IV" insttype="" commtype="DIG" lat="40.7867" lon="15.9427">
    <comp name="--.HHE">
      <acc value="0.1728127498" flag="0"/>
      <vel value="0.0890284787" flag="0"/>
      <psa03 value="0.6102037437" flag="0"/>
      <psa10 value="0.1275255158" flag="0"/>
      <psa30 value="0.0102940945" flag="0"/>
    </comp>
    <comp name="--.HHN">
      <acc value="0.0927586806" flag="0"/>
      <vel value="0.0620937157" flag="0"/>
      <psa03 value="0.2554118659" flag="0"/>
      <psa10 value="0.0808271078" flag="0"/>
      <psa30 value="0.0076685927" flag="0"/>
    </comp>
    <comp name="--.HHZ">
      <acc value="0.0791759428" flag="0"/>
      <vel value="0.0444155571" flag="0"/>
      <psa03 value="0.2369207354" flag="0"/>
      <psa10 value="0.0199457416" flag="0"/>
      <psa30 value="0.0070655297" flag="0"/>
    </comp>
  </station>
  <station code="APRC" name="APRC" netid="IV" insttype="" commtype="DIG" lat="41.7574" lon="15.5431">
    <comp name="--.HHZ">
      <acc value="0.7507883010" flag="0"/>
      <vel value="0.2159062546" flag="0"/>
      <psa03 value="1.5885243412" flag="0"/>
      <psa10 value="0.0927657363" flag="0"/>
      <psa30 value="0.0208935470" flag="0"/>
    </comp>
    <comp name="--.HHN">
      <acc value="1.7800538204" flag="0"/>
      <vel value="0.4693617004" flag="0"/>
      <psa03 value="2.3742886366" flag="0"/>
      <psa10 value="0.1685982137" flag="0"/>
      <psa30 value="0.0128349161" flag="0"/>
    </comp>
    <comp name="--.HHE">
      <acc value="1.4293441950" flag="0"/>
      <vel value="0.4145368266" flag="0"/>
      <psa03 value="3.6046682150" flag="0"/>
      <psa10 value="0.1218158042" flag="0"/>
      <psa30 value="0.0232864924" flag="0"/>
    </comp>
  </station>
  <station code="BIOG" name="BIOG" netid="IV" insttype="" commtype="DIG" lat="41.1999" lon="15.1326">
    <comp name="--.HNE">
      <acc value="0.0665184135" flag="0"/>
      <vel value="0.0861166154" flag="0"/>
      <psa03 value="0.1603585824" flag="0"/>
      <psa10 value="0.1428413262" flag="0"/>
      <psa30 value="0.0191492053" flag="0"/>
    </comp>
    <comp name="--.HNN">
      <acc value="0.0783674801" flag="0"/>
      <vel value="0.0752001326" flag="0"/>
      <psa03 value="0.1437791255" flag="0"/>
      <psa10 value="0.1454871829" flag="0"/>
      <psa30 value="0.0196197033" flag="0"/>
    </comp>
    <comp name="--.HNZ">
      <acc value="0.0351593790" flag="0"/>
      <vel value="0.0401515542" flag="0"/>
      <psa03 value="0.1324578283" flag="0"/>
      <psa10 value="0.0639474798" flag="0"/>
      <psa30 value="0.0112532440" flag="0"/>
    </comp>
  </station>
  <station code="BSSO" name="BSSO" netid="IV" insttype="" commtype="DIG" lat="41.5461" lon="14.5938">
    <comp name="--.HHZ">
      <acc value="0.0213619090" flag="0"/>
      <vel value="0.0093008046" flag="0"/>
      <psa03 value="0.0515856565" flag="0"/>
      <psa10 value="0.0116663393" flag="0"/>
      <psa30 value="0.0013104314" flag="0"/>
    </comp>
    <comp name="--.HHN">
      <acc value="0.0232124403" flag="0"/>
      <vel value="0.0221474035" flag="0"/>
      <psa03 value="0.0711920856" flag="0"/>
      <psa10 value="0.0203761033" flag="0"/>
      <psa30 value="0.0041285387" flag="0"/>
    </comp>
    <comp name="--.HHE">
      <acc value="0.0278204366" flag="0"/>
      <vel value="0.0151349640" flag="0"/>
      <psa03 value="0.0892769629" flag="0"/>
      <psa10 value="0.0188806584" flag="0"/>
      <psa30 value="0.0028305242" flag="0"/>
    </comp>
  </station>
  <station code="CAFE" name="CAFE" netid="IV" insttype="" commtype="DIG" lat="41.028" lon="15.2366">
    <comp name="--.HHE">
      <acc value="0.0734977508" flag="0"/>
      <vel value="0.0408059564" flag="0"/>
      <psa03 value="0.3086708036" flag="0"/>
      <psa10 value="0.0377967930" flag="0"/>
      <psa30 value="0.0050637461" flag="0"/>
    </comp>
    <comp name="--.HHN">
      <acc value="0.0591201304" flag="0"/>
      <vel value="0.0374340003" flag="0"/>
      <psa03 value="0.2451815090" flag="0"/>
      <psa10 value="0.0258013541" flag="0"/>
      <psa30 value="0.0045228423" flag="0"/>
    </comp>
    <comp name="--.HHZ">
      <acc value="0.0263843217" flag="0"/>
      <vel value="0.0172103748" flag="0"/>
      <psa03 value="0.1022704658" flag="0"/>
      <psa10 value="0.0197033246" flag="0"/>
      <psa30 value="0.0038380200" flag="0"/>
    </comp>
  </station>
  <station code="CERA" name="CERA" netid="IV" insttype="" commtype="DIG" lat="41.5978" lon="14.0183">
    <comp name="--.HHN">
      <acc value="0.0333257285" flag="0"/>
      <vel value="0.0377275790" flag="0"/>
      <psa03 value="0.0730774089" flag="0"/>
      <psa10 value="0.0384509100" flag="0"/>
      <psa30 value="0.0044742858" flag="0"/>
    </comp>
    <comp name="--.HHE">
      <acc value="0.0253219209" flag="0"/>
      <vel value="0.0258702340" flag="0"/>
      <psa03 value="0.0983766035" flag="0"/>
      <psa10 value="0.0473625387" flag="0"/>
      <psa30 value="0.0070582275" flag="0"/>
    </comp>
    <comp name="--.HHZ">
      <acc value="0.0182111454" flag="0"/>
      <vel value="0.0137266259" flag="0"/>
      <psa03 value="0.0569345101" flag="0"/>
      <psa10 value="0.0257722389" flag="0"/>
      <psa30 value="0.0017460576" flag="0"/>
    </comp>
  </station>
  <station code="CIGN" name="CIGN" netid="IV" insttype="" commtype="DIG" lat="41.6542" lon="14.905">
    <comp name="--.HHE">
      <acc value="0.0129807065" flag="0"/>
      <vel value="0.0093149877" flag="0"/>
      <psa03 value="0.0483172480" flag="0"/>
      <psa10 value="0.0118926395" flag="0"/>
      <psa30 value="0.0023479981" flag="0"/>
    </comp>
    <comp name="--.HHN">
      <acc value="0.0116494157" flag="0"/>
      <vel value="0.0100704869" flag="0"/>
      <psa03 value="0.0393889457" flag="0"/>
      <psa10 value="0.0126493763" flag="0"/>
      <psa30 value="0.0028384974" flag="0"/>
    </comp>
    <comp name="--.HHZ">
      <acc value="0.0166071709" flag="0"/>
      <vel value="0.0129767012" flag="0"/>
      <psa03 value="0.0417354749" flag="0"/>
      <psa10 value="0.0111547994" flag="0"/>
      <psa30 value="0.0023318576" flag="0"/>
    </comp>
  </station>
  <station code="CRTO" name="CRTO" netid="IV" insttype="" commtype="DIG" lat="40.8212" lon="14.4223">
    <comp name="--.HHE">
      <acc value="0.0788625681" flag="0"/>
      <vel value="0.0564448097" flag="0"/>
      <psa03 value="0.2382406718" flag="0"/>
      <psa10 value="0.1022511181" flag="0"/>
      <psa30 value="0.0059193564" flag="0"/>
    </comp>
    <comp name="--.HHN">
      <acc value="3.3603364010" flag="0"/>
      <vel value="2.6642450119" flag="0"/>
      <psa03 value="11.5565561426" flag="0"/>
      <psa10 value="4.0666845073" flag="0"/>
      <psa30 value="0.3121001247" flag="0"/>
    </comp>
    <comp name="--.HHZ">
      <acc value="0.0015007891" flag="0"/>
      <vel value="0.0000611803" flag="0"/>
      <psa03 value="0.0001405987" flag="0"/>
      <psa10 value="0.0000250611" flag="0"/>
      <psa30 value="0.0000063993" flag="0"/>
    </comp>
  </station>
  <station code="FRES" name="FRES" netid="IV" insttype="" commtype="DIG" lat="41.9735" lon="14.6693">
    <comp name="--.HHE">
      <acc value="0.1688670299" flag="0"/>
      <vel value="0.0777216739" flag="0"/>
      <psa03 value="0.2672750066" flag="0"/>
      <psa10 value="0.0763011787" flag="0"/>
      <psa30 value="0.0155617666" flag="0"/>
    </comp>
    <comp name="--.HHN">
      <acc value="0.1442840508" flag="0"/>
      <vel value="0.0615407289" flag="0"/>
      <psa03 value="0.1819483448" flag="0"/>
      <psa10 value="0.0576996841" flag="0"/>
      <psa30 value="0.0143825041" flag="0"/>
    </comp>
    <comp name="--.HHZ">
      <acc value="0.0566954696" flag="0"/>
      <vel value="0.0300698432" flag="0"/>
      <psa03 value="0.1486189641" flag="0"/>
      <psa10 value="0.0215985578" flag="0"/>
      <psa30 value="0.0070637355" flag="0"/>
    </comp>
  </station>
  <station code="GATE" name="GATE" netid="IV" insttype="" commtype="DIG" lat="41.5131" lon="14.9102">
    <comp name="--.HHE">
      <acc value="0.0457354549" flag="0"/>
      <vel value="0.0321184222" flag="0"/>
      <psa03 value="0.1127943744" flag="0"/>
      <psa10 value="0.0207292919" flag="0"/>
      <psa30 value="0.0034152135" flag="0"/>
    </comp>
    <comp name="--.HHZ">
      <acc value="0.0322208003" flag="0"/>
      <vel value="0.0206980546" flag="0"/>
      <psa03 value="0.0949589849" flag="0"/>
      <psa10 value="0.0215169613" flag="0"/>
      <psa30 value="0.0019700299" flag="0"/>
    </comp>
    <comp name="--.HHN">
      <acc value="0.0412970804" flag="0"/>
      <vel value="0.0224071196" flag="0"/>
      <psa03 value="0.0933408342" flag="0"/>
      <psa10 value="0.0208326240" flag="0"/>
      <psa30 value="0.0027177345" flag="0"/>
    </comp>
  </station>
  <station code="INTR" name="INTR" netid="IV" insttype="" commtype="DIG" lat="42.0115" lon="13.9046">
    <comp name="--.HHE">
      <acc value="0.0521998844" flag="0"/>
      <vel value="0.0461051500" flag="0"/>
      <psa03 value="0.1365697746" flag="0"/>
      <psa10 value="0.0573505727" flag="0"/>
      <psa30 value="0.0034206127" flag="0"/>
    </comp>
    <comp name="--.HHN">
      <acc value="0.0823276856" flag="0"/>
      <vel value="0.0751124349" flag="0"/>
      <psa03 value="0.1541875546" flag="0"/>
      <psa10 value="0.0919948208" flag="0"/>
      <psa30 value="0.0071615928" flag="0"/>
    </comp>
    <comp name="--.HHZ">
      <acc value="0.0381782574" flag="0"/>
      <vel value="0.0212459950" flag="0"/>
      <psa03 value="0.1039503164" flag="0"/>
      <psa10 value="0.0342380000" flag="0"/>
      <psa30 value="0.0014179309" flag="0"/>
    </comp>
  </station>
  <station code="LPEL" name="LPEL" netid="IV" insttype="" commtype="DIG" lat="42.0468" lon="14.1832">
    <comp name="--.HHN">
      <acc value="0.0847430485" flag="0"/>
      <vel value="0.0335111455" flag="0"/>
      <psa03 value="0.2311122408" flag="0"/>
      <psa10 value="0.0440361031" flag="0"/>
      <psa30 value="0.0042181585" flag="0"/>
    </comp>
    <comp name="--.HHE">
      <acc value="0.1167638943" flag="0"/>
      <vel value="0.0457448563" flag="0"/>
      <psa03 value="0.3975612938" flag="0"/>
      <psa10 value="0.0350793238" flag="0"/>
      <psa30 value="0.0029302558" flag="0"/>
    </comp>
    <comp name="--.HHZ">
      <acc value="0.0820585691" flag="0"/>
      <vel value="0.0311589376" flag="0"/>
      <psa03 value="0.1161373118" flag="0"/>
      <psa10 value="0.0334023459" flag="0"/>
      <psa30 value="0.0025529169" flag="0"/>
    </comp>
  </station>
  <station code="MCRV" name="MCRV" netid="IV" insttype="" commtype="DIG" lat="40.7826" lon="15.1684">
    <comp name="--.HHN">
      <acc value="0.0732011682" flag="0"/>
      <vel value="0.0232257040" flag="0"/>
      <psa03 value="0.1329667127" flag="0"/>
      <psa10 value="0.0178554769" flag="0"/>
      <psa30 value="0.0021151290" flag="0"/>
    </comp>
    <comp name="--.HHE">
      <acc value="0.0470398337" flag="0"/>
      <vel value="0.0331903143" flag="0"/>
      <psa03 value="0.1153334953" flag="0"/>
      <psa10 value="0.0221878806" flag="0"/>
      <psa30 value="0.0018424311" flag="0"/>
    </comp>
    <comp name="--.HHZ">
      <acc value="0.0249515398" flag="0"/>
      <vel value="0.0116388985" flag="0"/>
      <psa03 value="0.0622794853" flag="0"/>
      <psa10 value="0.0101609898" flag="0"/>
      <psa30 value="0.0010322737" flag="0"/>
    </comp>
  </station>
  <station code="MELA" name="MELA" netid="IV" insttype="" commtype="DIG" lat="41.7059" lon="15.127">
    <comp name="--.HHE">
      <acc value="0.1390947216" flag="0"/>
      <vel value="0.0599308700" flag="0"/>
      <psa03 value="0.3386802900" flag="0"/>
      <psa10 value="0.0628449730" flag="0"/>
      <psa30 value="0.0066614006" flag="0"/>
    </comp>
    <comp name="--.HHN">
      <acc value="0.1563907796" flag="0"/>
      <vel value="0.0559358907" flag="0"/>
      <psa03 value="0.4669393142" flag="0"/>
      <psa10 value="0.0627209633" flag="0"/>
      <psa30 value="0.0045175490" flag="0"/>
    </comp>
    <comp name="--.HHZ">
      <acc value="0.1227163220" flag="0"/>
      <vel value="0.0321232761" flag="0"/>
      <psa03 value="0.1877315445" flag="0"/>
      <psa10 value="0.0221174979" flag="0"/>
      <psa30 value="0.0038632373" flag="0"/>
    </comp>
  </station>
  <station code="MIDA" name="MIDA" netid="IV" insttype="" commtype="DIG" lat="41.6419" lon="14.254">
    <comp name="--.HHE">
      <acc value="nan" flag="0"/>
      <vel value="-100.0000000000" flag="0"/>
      <psa03 value="0.0000000000" flag="0"/>
      <psa10 value="0.0000000000" flag="0"/>
      <psa30 value="0.0000000000" flag="0"/>
    </comp>
    <comp name="--.HHN">
      <acc value="nan" flag="0"/>
      <vel value="-100.0000000000" flag="0"/>
      <psa03 value="0.0000000000" flag="0"/>
      <psa10 value="0.0000000000" flag="0"/>
      <psa30 value="0.0000000000" flag="0"/>
    </comp>
    <comp name="--.HHZ">
      <acc value="nan" flag="0"/>
      <vel value="-100.0000000000" flag="0"/>
      <psa03 value="0.0000000000" flag="0"/>
      <psa10 value="0.0000000000" flag="0"/>
      <psa30 value="0.0000000000" flag="0"/>
    </comp>
  </station>
  <station code="MOCO" name="MOCO" netid="IV" insttype="" commtype="DIG" lat="41.37" lon="15.158">
    <comp name="--.HHE">
      <acc value="0.0317672588" flag="0"/>
      <vel value="0.0215420276" flag="0"/>
      <psa03 value="0.0902085491" flag="0"/>
      <psa10 value="0.0269812413" flag="0"/>
      <psa30 value="0.0088546781" flag="0"/>
    </comp>
    <comp name="--.HHZ">
      <acc value="0.0227025712" flag="0"/>
      <vel value="0.0135174596" flag="0"/>
      <psa03 value="0.0528139574" flag="0"/>
      <psa10 value="0.0079160358" flag="0"/>
      <psa30 value="0.0046188325" flag="0"/>
    </comp>
    <comp name="--.HHN">
      <acc value="0.0235792436" flag="0"/>
      <vel value="0.0154369511" flag="0"/>
      <psa03 value="0.0783867587" flag="0"/>
      <psa10 value="0.0160917707" flag="0"/>
      <psa30 value="0.0039432696" flag="0"/>
    </comp>
  </station>
  <station code="MRB1" name="MRB1" netid="IV" insttype="" commtype="DIG" lat="41.1227" lon="14.9681">
    <comp name="--.HHE">
      <acc value="0.0561422155" flag="0"/>
      <vel value="0.0470719784" flag="0"/>
      <psa03 value="0.1309554328" flag="0"/>
      <psa10 value="0.0541844200" flag="0"/>
      <psa30 value="0.0040011567" flag="0"/>
    </comp>
    <comp name="--.HHN">
      <acc value="0.0444085354" flag="0"/>
      <vel value="0.0329858716" flag="0"/>
      <psa03 value="0.1323432766" flag="0"/>
      <psa10 value="0.0366729114" flag="0"/>
      <psa30 value="0.0042226416" flag="0"/>
    </comp>
    <comp name="--.HHZ">
      <acc value="0.0301618982" flag="0"/>
      <vel value="0.0196972151" flag="0"/>
      <psa03 value="0.0658218730" flag="0"/>
      <psa10 value="0.0323531832" flag="0"/>
      <psa30 value="0.0020766351" flag="0"/>
    </comp>
  </station>
  <station code="MRLC" name="MRLC" netid="IV" insttype="" commtype="DIG" lat="40.7564" lon="15.4889">
    <comp name="--.HHE">
      <acc value="0.0504472529" flag="0"/>
      <vel value="0.0455544968" flag="0"/>
      <psa03 value="0.1854059373" flag="0"/>
      <psa10 value="0.0272426501" flag="0"/>
      <psa30 value="0.0045312190" flag="0"/>
    </comp>
    <comp name="--.HHN">
      <acc value="0.0386545177" flag="0"/>
      <vel value="0.0228304973" flag="0"/>
      <psa03 value="0.1493104028" flag="0"/>
      <psa10 value="0.0145449201" flag="0"/>
      <psa30 value="0.0025776365" flag="0"/>
    </comp>
    <comp name="--.HHZ">
      <acc value="0.0183936037" flag="0"/>
      <vel value="0.0125976287" flag="0"/>
      <psa03 value="0.0559641239" flag="0"/>
      <psa10 value="0.0155058376" flag="0"/>
      <psa30 value="0.0014035693" flag="0"/>
    </comp>
  </station>
  <station code="MRVN" name="MRVN" netid="IV" insttype="" commtype="DIG" lat="41.0609" lon="16.1958">
    <comp name="--.HHE">
      <acc value="0.1291586867" flag="0"/>
      <vel value="0.0423748348" flag="0"/>
      <psa03 value="0.2329025081" flag="0"/>
      <psa10 value="0.0314089889" flag="0"/>
      <psa30 value="0.0063873302" flag="0"/>
    </comp>
    <comp name="--.HHN">
      <acc value="0.1407590548" flag="0"/>
      <vel value="0.0316919428" flag="0"/>
      <psa03 value="0.2977211769" flag="0"/>
      <psa10 value="0.0285255632" flag="0"/>
      <psa30 value="0.0040999475" flag="0"/>
    </comp>
    <comp name="--.HHZ">
      <acc value="0.0625092169" flag="0"/>
      <vel value="0.0344837326" flag="0"/>
      <psa03 value="0.1563090358" flag="0"/>
      <psa10 value="0.0453866303" flag="0"/>
      <psa30 value="0.0057355060" flag="0"/>
    </comp>
  </station>
  <station code="MSAG" name="MSAG" netid="IV" insttype="" commtype="DIG" lat="41.712" lon="15.9096">
    <comp name="--.HHE">
      <acc value="0.1423762771" flag="0"/>
      <vel value="0.0446632554" flag="0"/>
      <psa03 value="0.1637822122" flag="0"/>
      <psa10 value="0.0355181662" flag="0"/>
      <psa30 value="0.0052911411" flag="0"/>
    </comp>
    <comp name="--.HHZ">
      <acc value="0.1336561604" flag="0"/>
      <vel value="0.0381574415" flag="0"/>
      <psa03 value="0.1325945663" flag="0"/>
      <psa10 value="0.0278035239" flag="0"/>
      <psa30 value="0.0052150720" flag="0"/>
    </comp>
    <comp name="--.HHN">
      <acc value="0.2380645565" flag="0"/>
      <vel value="0.1324439965" flag="0"/>
      <psa03 value="0.4997653777" flag="0"/>
      <psa10 value="0.0705479360" flag="0"/>
      <psa30 value="0.0101587766" flag="0"/>
    </comp>
  </station>
  <station code="MTMR" name="MTMR" netid="IV" insttype="" commtype="DIG" lat="40.9184" lon="15.0026">
    <comp name="--.HHE">
      <acc value="0.0220758132" flag="0"/>
      <vel value="0.0138341440" flag="0"/>
      <psa03 value="0.0874139751" flag="0"/>
      <psa10 value="0.0095502160" flag="0"/>
      <psa30 value="0.0018409807" flag="0"/>
    </comp>
    <comp name="--.HHN">
      <acc value="0.0194827840" flag="0"/>
      <vel value="0.0110293774" flag="0"/>
      <psa03 value="0.0654456814" flag="0"/>
      <psa10 value="0.0145269104" flag="0"/>
      <psa30 value="0.0018720895" flag="0"/>
    </comp>
    <comp name="--.HHZ">
      <acc value="0.0087205766" flag="0"/>
      <vel value="0.0066242170" flag="0"/>
      <psa03 value="0.0296919982" flag="0"/>
      <psa10 value="0.0061372839" flag="0"/>
      <psa30 value="0.0012792830" flag="0"/>
    </comp>
  </station>
  <station code="OVO" name="OVO" netid="IV" insttype="" commtype="DIG" lat="40.8275" lon="14.3967">
    <comp name="--.HHE">
      <acc value="0.0159202385" flag="0"/>
      <vel value="0.0128884222" flag="0"/>
      <psa03 value="0.0359480718" flag="0"/>
      <psa10 value="0.0237723088" flag="0"/>
      <psa30 value="0.0030640129" flag="0"/>
    </comp>
    <comp name="--.HHN">
      <acc value="0.0159476644" flag="0"/>
      <vel value="0.0224849358" flag="0"/>
      <psa03 value="0.0397325669" flag="0"/>
      <psa10 value="0.0469116372" flag="0"/>
      <psa30 value="0.0029473492" flag="0"/>
    </comp>
    <comp name="--.HHZ">
      <acc value="0.0112777097" flag="0"/>
      <vel value="0.0079724465" flag="0"/>
      <psa03 value="0.0381410970" flag="0"/>
      <psa10 value="0.0088669488" flag="0"/>
      <psa30 value="0.0011942878" flag="0"/>
    </comp>
  </station>
  <station code="PABO" name="PABO" netid="IV" insttype="" commtype="DIG" lat="41.7489" lon="14.387">
    <comp name="--.HHE">
      <acc value="0.0216253212" flag="0"/>
      <vel value="0.0158418759" flag="0"/>
      <psa03 value="0.0645763201" flag="0"/>
      <psa10 value="0.0312092552" flag="0"/>
