<?xml version="1.0" encoding="UTF-8" standalone="yes"?>
<!DOCTYPE earthquake SYSTEM "stationlist.dtd">
<stationlist created="" xmlns="ch.ethz.sed.shakemap.usgs.xml">
  <station code="APE" name="APE" netid="GE" insttype="STS-2/N" lat="37.0727" lon="25.523">
    <comp name="--.HHE">
      <acc value="0.1058495300" flag="0"/>
      <vel value="0.0194501956" flag="0"/>
      <psa03 value="0.1073923350" flag="0"/>
      <psa10 value="0.0066005070" flag="0"/>
      <psa30 value="0.0010879399" flag="0"/>
    </comp>
    <comp name="--.HHN">
      <acc value="0.1518442942" flag="0"/>
      <vel value="0.0211286731" flag="0"/>
      <psa03 value="0.0760257123" flag="0"/>
      <psa10 value="0.0053414462" flag="0"/>
      <psa30 value="0.0010767493" flag="0"/>
    </comp>
    <comp name="--.HHZ">
      <acc value="0.0684757897" flag="0"/>
      <vel value="0.0111453160" flag="0"/>
      <psa03 value="0.0366778762" flag="0"/>
      <psa10 value="0.0048809308" flag="0"/>
      <psa30 value="0.0010388158" flag="0"/>
    </comp>
  </station>
  <station code="THERA" name="THERA" netid="GE" insttype="STS-2/N" lat="36.367" lon="25.4753">
    <comp name="--.HHE">
      <acc value="0.1030718606" flag="0"/>
      <vel value="0.0333374227" flag="0"/>
      <psa03 value="0.1584574405" flag="0"/>
      <psa10 value="0.0066632883" flag="0"/>
      <psa30 value="0.0013748503" flag="0"/>
    </comp>
    <comp name="--.HHN">
      <acc value="0.0832139334" flag="0"/>
      <vel value="0.0162256922" flag="0"/>
      <psa03 value="0.0904434502" flag="0"/>
      <psa10 value="0.0056150879" flag="0"/>
      <psa30 value="0.0005333674" flag="0"/>
    </comp>
    <comp name="--.HHZ">
      <acc value="0.0826752032" flag="0"/>
      <vel value="0.0168138877" flag="0"/>
      <psa03 value="0.0841993262" flag="0"/>
      <psa10 value="0.0074339761" flag="0"/>
      <psa30 value="0.0008123895" flag="0"/>
    </comp>
  </station>
</stationlist>
