<?xml version="1.0" encoding="UTF-8" standalone="yes"?>
<!DOCTYPE earthquake SYSTEM "stationlist.dtd">
<stationlist created="" xmlns="ch.ethz.sed.shakemap.usgs.xml">
  <station code="APE" name="APE" netid="GE" insttype="STS-2/N" lat="37.0727" lon="25.523">
    <comp name="--.HHZ">
      <acc value="0.0684757897" flag="0"/>
      <vel value="0.0111453160" flag="0"/>
      <psa03 value="0.0366778762" flag="0"/>
      <psa10 value="0.0048809308" flag="0"/>
      <psa30 value="0.0010388158" flag="0"/>
    </comp>
    <comp name="--.HHN">
      <acc value="0.1518442942" flag="0"/>
      <vel value="0.0211286731" flag="0"/>
      <psa03 value="0.0760257123" flag="0"/>
      <psa10 value="0.0053414462" flag="0"/>
      <psa30 value="0.0010767493" flag="0"/>
    </comp>
    <comp name="--.HHE">
      <acc value="0.1058495300" flag="0"/>
      <vel value="0.0194501956" flag="0"/>
      <psa03 value="0.1073923350" flag="0"/>
      <psa10 value="0.0066005070" flag="0"/>
      <psa30 value="0.0010879399" flag="0"/>
    </comp>
  </station>
  <station code="THERA" name="THERA" netid="GE" insttype="STS-2/N" lat="36.367" lon="25.4753">
    <comp name="--.HHE">
      <acc value="0.1030718606" flag="0"/>
      <vel value="0.0333374227" flag="0"/>
      <psa03 value="0.1584574405" flag="0"/>
      <psa10 value="0.0066632883" flag="0"/>
      <psa30 value="0.0013748503" flag="0"/>
    </comp>
    <comp name="--.HHZ">
      <acc value="0.0826752032" flag="0"/>
      <vel value="0.0168138877" flag="0"/>
      <psa03 value="0.0841993262" flag="0"/>
      <psa10 value="0.0074339761" flag="0"/>
      <psa30 value="0.0008123895" flag="0"/>
    </comp>
    <comp name="--.HHN">
      <acc value="0.0832139334" flag="0"/>
      <vel value="0.0162256922" flag="0"/>
      <psa03 value="0.0904434502" flag="0"/>
      <psa10 value="0.0056150879" flag="0"/>
      <psa30 value="0.0005333674" flag="0"/>
    </comp>
  </station>
  <station code="NAX1" name="NAX1" netid="HI" insttype="CMG-5TD,ACCELEROMETER,GURALP" lat="37.1014" lon="25.3741">
    <comp name="--.HNE">
      <acc value="0.1267114730" flag="0"/>
      <vel value="0.0244818147" flag="0"/>
      <psa03 value="0.1330524775" flag="0"/>
      <psa10 value="0.0067469745" flag="0"/>
      <psa30 value="0.0009072831" flag="0"/>
    </comp>
    <comp name="--.HNN">
      <acc value="0.1598189596" flag="0"/>
      <vel value="0.0325884938" flag="0"/>
      <psa03 value="0.0486887275" flag="0"/>
      <psa10 value="0.0065077787" flag="0"/>
      <psa30 value="0.0009942537" flag="0"/>
    </comp>
    <comp name="--.HNZ">
      <acc value="0.0916849796" flag="0"/>
      <vel value="0.0163880937" flag="0"/>
      <psa03 value="0.0295259894" flag="0"/>
      <psa10 value="0.0085928790" flag="0"/>
      <psa30 value="0.0010195045" flag="0"/>
    </comp>
  </station>
  <station code="APE" name="APE" netid="HL" insttype="120" lat="37.0727" lon="25.523">
    <comp name="--.HHZ">
      <acc value="0.0609703898" flag="0"/>
      <vel value="0.0105565860" flag="0"/>
      <psa03 value="0.0357135217" flag="0"/>
      <psa10 value="0.0048190808" flag="0"/>
      <psa30 value="0.0010337102" flag="0"/>
    </comp>
    <comp name="--.HHE">
      <acc value="0.0985666148" flag="0"/>
      <vel value="0.0183794305" flag="0"/>
      <psa03 value="0.1045474755" flag="0"/>
      <psa10 value="0.0065316774" flag="0"/>
      <psa30 value="0.0010868458" flag="0"/>
    </comp>
    <comp name="--.HHN">
      <acc value="0.1295172114" flag="0"/>
      <vel value="0.0195427602" flag="0"/>
      <psa03 value="0.0742805357" flag="0"/>
      <psa10 value="0.0052549608" flag="0"/>
      <psa30 value="0.0010731591" flag="0"/>
    </comp>
  </station>
  <station code="MHLO" name="MHLO" netid="HL" insttype="20" lat="36.6898" lon="24.4017">
    <comp name="--.HHZ">
      <acc value="0.0263872176" flag="0"/>
      <vel value="0.0120371018" flag="0"/>
      <psa03 value="0.0635843870" flag="0"/>
      <psa10 value="0.0190010054" flag="0"/>
      <psa30 value="0.0010853540" flag="0"/>
    </comp>
    <comp name="--.HHE">
      <acc value="0.0726596317" flag="0"/>
      <vel value="0.0214037514" flag="0"/>
      <psa03 value="0.0936913669" flag="0"/>
      <psa10 value="0.0403418691" flag="0"/>
      <psa30 value="0.0017623755" flag="0"/>
    </comp>
    <comp name="--.HHN">
      <acc value="0.0537238354" flag="0"/>
      <vel value="0.0296873850" flag="0"/>
      <psa03 value="0.1257123955" flag="0"/>
      <psa10 value="0.0339908666" flag="0"/>
      <psa30 value="0.0014718456" flag="0"/>
    </comp>
  </station>
  <station code="SAP3" name="SAP3" netid="HL" insttype="LE3D20_SMART24" lat="36.4356" lon="25.3454">
    <comp name="--.HHE">
      <acc value="0.2473056280" flag="0"/>
      <vel value="0.0599579858" flag="0"/>
      <psa03 value="0.2677538964" flag="0"/>
      <psa10 value="0.0542826961" flag="0"/>
      <psa30 value="0.0070537823" flag="0"/>
    </comp>
    <comp name="--.HHN">
      <acc value="0.3107772939" flag="0"/>
      <vel value="0.0791005902" flag="0"/>
      <psa03 value="0.4783183579" flag="0"/>
      <psa10 value="0.0503595195" flag="0"/>
      <psa30 value="0.0048015855" flag="0"/>
    </comp>
    <comp name="--.HHZ">
      <acc value="0.3419630813" flag="0"/>
      <vel value="0.0563186262" flag="0"/>
      <psa03 value="0.2291744397" flag="0"/>
      <psa10 value="0.0229290879" flag="0"/>
      <psa30 value="0.0035153792" flag="0"/>
    </comp>
  </station>
  <station code="THERA" name="THERA" netid="HL" insttype="120" lat="36.367" lon="25.4753">
    <comp name="--.HHE">
      <acc value="0.1026563413" flag="0"/>
      <vel value="0.0327733416" flag="0"/>
      <psa03 value="0.1540800850" flag="0"/>
      <psa10 value="0.0065442318" flag="0"/>
      <psa30 value="0.0013758993" flag="0"/>
    </comp>
    <comp name="--.HHN">
      <acc value="0.0853863774" flag="0"/>
      <vel value="0.0157203694" flag="0"/>
      <psa03 value="0.0879218150" flag="0"/>
      <psa10 value="0.0055642934" flag="0"/>
      <psa30 value="0.0005311553" flag="0"/>
    </comp>
    <comp name="--.HHZ">
      <acc value="0.0855818271" flag="0"/>
      <vel value="0.0167484924" flag="0"/>
      <psa03 value="0.0815807406" flag="0"/>
      <psa10 value="0.0073456294" flag="0"/>
      <psa30 value="0.0008107306" flag="0"/>
    </comp>
  </station>
  <station code="THRA" name="THRA" netid="HL" insttype="CMG-5" lat="36.415" lon="25.4324">
    <comp name="00.HNE">
      <acc value="0.1725345244" flag="0"/>
      <vel value="0.0510234115" flag="0"/>
      <psa03 value="0.3623787363" flag="0"/>
      <psa10 value="0.0448174883" flag="0"/>
      <psa30 value="0.0042368978" flag="0"/>
    </comp>
    <comp name="00.HNN">
      <acc value="0.1757470683" flag="0"/>
      <vel value="0.0586444416" flag="0"/>
      <psa03 value="0.3809868460" flag="0"/>
      <psa10 value="0.0572171192" flag="0"/>
      <psa30 value="0.0031661548" flag="0"/>
    </comp>
    <comp name="00.HNZ">
      <acc value="0.1803796265" flag="0"/>
      <vel value="0.0452482868" flag="0"/>
      <psa03 value="0.2663563179" flag="0"/>
      <psa10 value="0.0190440488" flag="0"/>
      <psa30 value="0.0017200988" flag="0"/>
    </comp>
  </station>
</stationlist>
