<?xml version="1.0" encoding="UTF-8" standalone="yes"?>
<!DOCTYPE earthquake SYSTEM "stationlist.dtd">
<stationlist created="" xmlns="ch.ethz.sed.shakemap.usgs.xml">
  <station code="THERA" name="THERA" netid="GE" insttype="STS-2/N" lat="36.367" lon="25.4753">
    <comp name="--.HHN">
      <acc value="0.0832139335" flag="0"/>
      <vel value="0.0162256926" flag="0"/>
      <psa03 value="0.0904434502" flag="0"/>
      <psa10 value="0.0056150880" flag="0"/>
      <psa30 value="0.0005333687" flag="0"/>
    </comp>
    <comp name="--.HHE">
      <acc value="0.1030718608" flag="0"/>
      <vel value="0.0333374237" flag="0"/>
      <psa03 value="0.1584574405" flag="0"/>
      <psa10 value="0.0066633026" flag="0"/>
      <psa30 value="0.0013750156" flag="0"/>
    </comp>
    <comp name="--.HHZ">
      <acc value="0.0826752023" flag="0"/>
      <vel value="0.0168138872" flag="0"/>
      <psa03 value="0.0841993262" flag="0"/>
      <psa10 value="0.0074339761" flag="0"/>
      <psa30 value="0.0008120118" flag="0"/>
    </comp>
  </station>
  <station code="MHLO" name="MHLO" netid="HL" insttype="20" lat="36.6898" lon="24.4017">
    <comp name="--.HHE">
      <acc value="0.0726596322" flag="0"/>
      <vel value="0.0214037554" flag="0"/>
      <psa03 value="0.0936913669" flag="0"/>
      <psa10 value="0.0403418688" flag="0"/>
      <psa30 value="0.0017623216" flag="0"/>
    </comp>
    <comp name="--.HHN">
      <acc value="0.0537238345" flag="0"/>
      <vel value="0.0296873821" flag="0"/>
      <psa03 value="0.1257123955" flag="0"/>
      <psa10 value="0.0339908673" flag="0"/>
      <psa30 value="0.0014718883" flag="0"/>
    </comp>
    <comp name="--.HHZ">
      <acc value="0.0263872179" flag="0"/>
      <vel value="0.0120371122" flag="0"/>
      <psa03 value="0.0635843871" flag="0"/>
      <psa10 value="0.0190010051" flag="0"/>
      <psa30 value="0.0010852782" flag="0"/>
    </comp>
  </station>
  <station code="SAP3" name="SAP3" netid="HL" insttype="LE3D20_SMART24" lat="36.4356" lon="25.3454">
    <comp name="--.HHE">
      <acc value="0.2473056281" flag="0"/>
      <vel value="0.0599579443" flag="0"/>
      <psa03 value="0.2677538963" flag="0"/>
      <psa10 value="0.0542826935" flag="0"/>
      <psa30 value="0.0070553467" flag="0"/>
    </comp>
    <comp name="--.HHN">
      <acc value="0.3107772941" flag="0"/>
      <vel value="0.0791005463" flag="0"/>
      <psa03 value="0.4783183580" flag="0"/>
      <psa10 value="0.0503595173" flag="0"/>
      <psa30 value="0.0048016650" flag="0"/>
    </comp>
    <comp name="--.HHZ">
      <acc value="0.3419630812" flag="0"/>
      <vel value="0.0563186289" flag="0"/>
      <psa03 value="0.2291744397" flag="0"/>
      <psa10 value="0.0229290878" flag="0"/>
      <psa30 value="0.0035155312" flag="0"/>
    </comp>
  </station>
  <station code="THERA" name="THERA" netid="HL" insttype="120" lat="36.367" lon="25.4753">
    <comp name="--.HHE">
      <acc value="0.1026563416" flag="0"/>
      <vel value="0.0327733426" flag="0"/>
      <psa03 value="0.1540800850" flag="0"/>
      <psa10 value="0.0065442459" flag="0"/>
      <psa30 value="0.0013760641" flag="0"/>
    </comp>
    <comp name="--.HHZ">
      <acc value="0.0855818259" flag="0"/>
      <vel value="0.0167484919" flag="0"/>
      <psa03 value="0.0815807406" flag="0"/>
      <psa10 value="0.0073456294" flag="0"/>
      <psa30 value="0.0008103618" flag="0"/>
    </comp>
    <comp name="--.HHN">
      <acc value="0.0853863775" flag="0"/>
      <vel value="0.0157203698" flag="0"/>
      <psa03 value="0.0879218150" flag="0"/>
      <psa10 value="0.0055642935" flag="0"/>
      <psa30 value="0.0005311517" flag="0"/>
    </comp>
  </station>
  <station code="THRA" name="THRA" netid="HL" insttype="CMG-5" lat="36.415" lon="25.4324">
    <comp name="00.HNE">
      <acc value="0.1725345314" flag="0"/>
      <vel value="0.0510234077" flag="0"/>
      <psa03 value="0.3623787363" flag="0"/>
      <psa10 value="0.0448174927" flag="0"/>
      <psa30 value="0.0042353098" flag="0"/>
    </comp>
    <comp name="00.HNN">
      <acc value="0.1757470636" flag="0"/>
      <vel value="0.0586444379" flag="0"/>
      <psa03 value="0.3809868460" flag="0"/>
      <psa10 value="0.0572172159" flag="0"/>
      <psa30 value="0.0031658886" flag="0"/>
    </comp>
    <comp name="00.HNZ">
      <acc value="0.1803796278" flag="0"/>
      <vel value="0.0452482880" flag="0"/>
      <psa03 value="0.2663563179" flag="0"/>
      <psa10 value="0.0190440622" flag="0"/>
      <psa30 value="0.0017198839" flag="0"/>
    </comp>
  </station>
</stationlist>
