<?xml version="1.0" encoding="UTF-8" standalone="yes"?>
<!DOCTYPE earthquake SYSTEM "stationlist.dtd">
<stationlist created="" xmlns="ch.ethz.sed.shakemap.usgs.xml">
  <station code="KYHL" name="KYHL" netid="KO" insttype="CMG-5T" lat="40.3244" lon="37.8955">
    <comp name="--.HNE">
      <acc value="0.0312690552" flag="0"/>
      <vel value="0.0203675738" flag="0"/>
      <psa03 value="0.0884402198" flag="0"/>
      <psa10 value="0.0226356382" flag="0"/>
      <psa30 value="0.0010321587" flag="0"/>
    </comp>
    <comp name="--.HNZ">
      <acc value="0.0236412270" flag="0"/>
      <vel value="0.0115601130" flag="0"/>
      <psa03 value="0.0618903402" flag="0"/>
      <psa10 value="0.0083120628" flag="0"/>
      <psa30 value="0.0009663436" flag="0"/>
    </comp>
    <comp name="--.HNN">
      <acc value="0.0354325853" flag="0"/>
      <vel value="0.0241204567" flag="0"/>
      <psa03 value="0.0736554097" flag="0"/>
      <psa10 value="0.0144400637" flag="0"/>
      <psa30 value="0.0009450759" flag="0"/>
    </comp>
  </station>
  <station code="RFHY" name="RFHY" netid="KO" insttype="CMG-5T" lat="39.927" lon="38.833">
    <comp name="--.HNZ">
      <acc value="0.0228583084" flag="0"/>
      <vel value="0.0191542616" flag="0"/>
      <psa03 value="0.0865789054" flag="0"/>
      <psa10 value="0.0324926459" flag="0"/>
      <psa30 value="0.0027312593" flag="0"/>
    </comp>
    <comp name="--.HNE">
      <acc value="0.0078705512" flag="0"/>
      <vel value="0.0102994299" flag="0"/>
      <psa03 value="0.0225587120" flag="0"/>
      <psa10 value="0.0097112927" flag="0"/>
      <psa30 value="0.0030432821" flag="0"/>
    </comp>
    <comp name="--.HNN">
      <acc value="0.0752687040" flag="0"/>
      <vel value="0.0505822503" flag="0"/>
      <psa03 value="0.1855386806" flag="0"/>
      <psa10 value="0.0791161645" flag="0"/>
      <psa30 value="0.0060675918" flag="0"/>
    </comp>
  </station>
  <station code="TUNC" name="TUNC" netid="KO" insttype="CMG-5T" lat="39.6942" lon="37.5388">
    <comp name="--.HNN">
      <acc value="0.0937855040" flag="0"/>
      <vel value="0.0567391397" flag="0"/>
      <psa03 value="0.2511053194" flag="0"/>
      <psa10 value="0.0618661337" flag="0"/>
      <psa30 value="0.0031299599" flag="0"/>
    </comp>
    <comp name="--.HNE">
      <acc value="0.1599376185" flag="0"/>
      <vel value="0.1191310248" flag="0"/>
      <psa03 value="0.2740978071" flag="0"/>
      <psa10 value="0.0910341786" flag="0"/>
      <psa30 value="0.0053773499" flag="0"/>
    </comp>
    <comp name="--.HNZ">
      <acc value="0.0550803553" flag="0"/>
      <vel value="0.0301425741" flag="0"/>
      <psa03 value="0.1366349627" flag="0"/>
      <psa10 value="0.0327746908" flag="0"/>
      <psa30 value="0.0045015187" flag="0"/>
    </comp>
  </station>
</stationlist>
