<?xml version="1.0" encoding="UTF-8" standalone="yes"?>
<!DOCTYPE earthquake SYSTEM "stationlist.dtd">
<stationlist created="" xmlns="ch.ethz.sed.shakemap.usgs.xml">
  <station code="KOSP" name="KOSP" netid="HC" insttype="60" commtype="DIG" lat="36.881" lon="27.281">
    <comp name="--.HHN">
      <acc value="0.0736436164" flag="0"/>
      <vel value="0.0572703831" flag="0"/>
      <psa03 value="0.2195484472" flag="0"/>
      <psa10 value="0.0412257300" flag="0"/>
      <psa30 value="0.0142092381" flag="0"/>
    </comp>
    <comp name="--.HHE">
      <acc value="0.0924035230" flag="0"/>
      <vel value="0.0461740303" flag="0"/>
      <psa03 value="0.2543590097" flag="0"/>
      <psa10 value="0.0403261936" flag="0"/>
      <psa30 value="0.0146252230" flag="0"/>
    </comp>
    <comp name="--.HHZ">
      <acc value="0.0602492785" flag="0"/>
      <vel value="0.0259563777" flag="0"/>
      <psa03 value="0.1481682579" flag="0"/>
      <psa10 value="0.0258487061" flag="0"/>
      <psa30 value="0.0064019815" flag="0"/>
    </comp>
  </station>
  <station code="RKL1" name="RKL1" netid="HI" insttype="unknown" commtype="DIG" lat="36.3367" lon="28.1712">
    <comp name="--.HNN">
      <acc value="0.0210607181" flag="0"/>
      <vel value="0.0211417499" flag="0"/>
      <psa03 value="0.0534459454" flag="0"/>
      <psa10 value="0.0291147858" flag="0"/>
      <psa30 value="0.0014249785" flag="0"/>
    </comp>
    <comp name="--.HNE">
      <acc value="0.0202196224" flag="0"/>
      <vel value="0.0156785552" flag="0"/>
      <psa03 value="0.0660897343" flag="0"/>
      <psa10 value="0.0259456007" flag="0"/>
      <psa30 value="0.0009523486" flag="0"/>
    </comp>
    <comp name="--.HNZ">
      <acc value="0.0133300861" flag="0"/>
      <vel value="0.0067431963" flag="0"/>
      <psa03 value="0.0377227498" flag="0"/>
      <psa10 value="0.0053726350" flag="0"/>
      <psa30 value="0.0006764659" flag="0"/>
    </comp>
  </station>
  <station code="ARG" name="ARG" netid="HL" insttype="LE3D20_DR24" commtype="DIG" lat="36.2136" lon="28.1212">
    <comp name="--.HHN">
      <acc value="0.0137113646" flag="0"/>
      <vel value="0.0097884764" flag="0"/>
      <psa03 value="0.0202194659" flag="0"/>
      <psa10 value="0.0156515391" flag="0"/>
      <psa30 value="0.0015136540" flag="0"/>
    </comp>
    <comp name="--.HHE">
      <acc value="0.0109743257" flag="0"/>
      <vel value="0.0066683130" flag="0"/>
      <psa03 value="0.0342507105" flag="0"/>
      <psa10 value="0.0102281303" flag="0"/>
      <psa30 value="0.0008259643" flag="0"/>
    </comp>
    <comp name="--.HHZ">
      <acc value="0.0090040292" flag="0"/>
      <vel value="0.0070492081" flag="0"/>
      <psa03 value="0.0186490870" flag="0"/>
      <psa10 value="0.0140078051" flag="0"/>
      <psa30 value="0.0011018011" flag="0"/>
    </comp>
  </station>
  <station code="KLNA" name="KLNA" netid="HL" insttype="CMG-5" commtype="DIG" lat="36.9571" lon="26.9727">
    <comp name="00.HNN">
      <acc value="0.0478599873" flag="0"/>
      <vel value="0.0210313331" flag="0"/>
      <psa03 value="0.1038773466" flag="0"/>
      <psa10 value="0.0067722845" flag="0"/>
      <psa30 value="0.0004624350" flag="0"/>
    </comp>
    <comp name="00.HNZ">
      <acc value="0.0625188755" flag="0"/>
      <vel value="0.0153863551" flag="0"/>
      <psa03 value="0.0758844152" flag="0"/>
      <psa10 value="0.0052249895" flag="0"/>
      <psa30 value="0.0008512738" flag="0"/>
    </comp>
    <comp name="00.HNE">
      <acc value="0.0689307425" flag="0"/>
      <vel value="0.0263835593" flag="0"/>
      <psa03 value="0.1441762728" flag="0"/>
      <psa10 value="0.0077152729" flag="0"/>
      <psa30 value="0.0006107365" flag="0"/>
    </comp>
  </station>
  <station code="NISR" name="NISR" netid="HL" insttype="65535" commtype="DIG" lat="36.6106" lon="27.131">
    <comp name="--.HHE">
      <acc value="0.0000000000" flag="0"/>
      <vel value="-100.0000000000" flag="0"/>
      <psa03 value="0.0000000000" flag="0"/>
      <psa10 value="0.0000000000" flag="0"/>
      <psa30 value="0.0000000000" flag="0"/>
    </comp>
    <comp name="--.HHZ">
      <acc value="0.0203846512" flag="0"/>
      <vel value="0.0097869294" flag="0"/>
      <psa03 value="0.0464687087" flag="0"/>
      <psa10 value="0.0100903277" flag="0"/>
      <psa30 value="0.0008259629" flag="0"/>
    </comp>
    <comp name="--.HHN">
      <acc value="0.0336109593" flag="0"/>
      <vel value="0.0151371371" flag="0"/>
      <psa03 value="0.0819299413" flag="0"/>
      <psa10 value="0.0103506980" flag="0"/>
      <psa30 value="0.0028250255" flag="0"/>
    </comp>
  </station>
  <station code="NISR2" name="NISR2" netid="HL" insttype="120" commtype="DIG" lat="36.5744" lon="27.1767">
    <comp name="--.HHZ">
      <acc value="0.0327491844" flag="0"/>
      <vel value="0.0164667961" flag="0"/>
      <psa03 value="0.1082108096" flag="0"/>
      <psa10 value="0.0105997619" flag="0"/>
      <psa30 value="0.0011557425" flag="0"/>
    </comp>
    <comp name="--.HHE">
      <acc value="0.0654999075" flag="0"/>
      <vel value="0.0403722037" flag="0"/>
      <psa03 value="0.2094163286" flag="0"/>
      <psa10 value="0.0499599616" flag="0"/>
      <psa30 value="0.0039155834" flag="0"/>
    </comp>
    <comp name="--.HHN">
      <acc value="0.0647052390" flag="0"/>
      <vel value="0.0512044260" flag="0"/>
      <psa03 value="0.2726138164" flag="0"/>
      <psa10 value="0.0428553931" flag="0"/>
      <psa30 value="0.0026199573" flag="0"/>
    </comp>
  </station>
  <station code="SMG" name="SMG" netid="HL" insttype="120" commtype="DIG" lat="37.7043" lon="26.8377">
    <comp name="--.HHE">
      <acc value="0.0365461825" flag="0"/>
      <vel value="0.0175557903" flag="0"/>
      <psa03 value="0.1190232434" flag="0"/>
      <psa10 value="0.0113521733" flag="0"/>
      <psa30 value="0.0006877629" flag="0"/>
    </comp>
    <comp name="--.HHN">
      <acc value="0.0181030619" flag="0"/>
      <vel value="0.0093237437" flag="0"/>
      <psa03 value="0.0541999306" flag="0"/>
      <psa10 value="0.0092241767" flag="0"/>
      <psa30 value="0.0005790224" flag="0"/>
    </comp>
    <comp name="--.HHZ">
      <acc value="0.0125533621" flag="0"/>
      <vel value="0.0070852280" flag="0"/>
      <psa03 value="0.0306409852" flag="0"/>
      <psa10 value="0.0066339327" flag="0"/>
      <psa30 value="0.0010626761" flag="0"/>
    </comp>
  </station>
  <station code="AYDB" name="AYDB" netid="KO" insttype="CMG-3ESPC" commtype="DIG" lat="37.9467" lon="27.8908">
    <comp name="--.HHZ">
      <acc value="0.0074230834" flag="0"/>
      <vel value="0.0057741362" flag="0"/>
      <psa03 value="0.0225476709" flag="0"/>
      <psa10 value="0.0077810618" flag="0"/>
      <psa30 value="0.0012372624" flag="0"/>
    </comp>
  </station>
  <station code="BODA" name="BODA" netid="KO" insttype="ACEBOX" commtype="DIG" lat="37.0348" lon="27.4304">
    <comp name="--.HNZ">
      <acc value="0.3520475398" flag="0"/>
      <vel value="0.0862553814" flag="0"/>
      <psa03 value="0.3775535432" flag="0"/>
      <psa10 value="0.0370656201" flag="0"/>
      <psa30 value="0.0036315055" flag="0"/>
    </comp>
    <comp name="--.HNN">
      <acc value="0.6708063510" flag="0"/>
      <vel value="0.2108582791" flag="0"/>
      <psa03 value="1.0670066942" flag="0"/>
      <psa10 value="0.0514990270" flag="0"/>
      <psa30 value="0.0046708000" flag="0"/>
    </comp>
    <comp name="--.HNE">
      <acc value="1.0648078768" flag="0"/>
      <vel value="0.3535395030" flag="0"/>
      <psa03 value="1.6386896540" flag="0"/>
      <psa10 value="0.0627089732" flag="0"/>
      <psa30 value="0.0056426085" flag="0"/>
    </comp>
  </station>
  <station code="BODT" name="BODT" netid="KO" insttype="CMG-3ESP" commtype="DIG" lat="37.0622" lon="27.3103">
    <comp name="--.HHE">
      <acc value="0.5264203242" flag="0"/>
      <vel value="0.2000873979" flag="0"/>
      <psa03 value="0.9135778355" flag="0"/>
      <psa10 value="0.0666868158" flag="0"/>
      <psa30 value="0.0048975892" flag="0"/>
    </comp>
    <comp name="--.HHN">
      <acc value="0.4629262448" flag="0"/>
      <vel value="0.1784320310" flag="0"/>
      <psa03 value="0.9326631220" flag="0"/>
      <psa10 value="0.0711544970" flag="0"/>
      <psa30 value="0.0046372486" flag="0"/>
    </comp>
    <comp name="--.HHZ">
      <acc value="0.2487489948" flag="0"/>
      <vel value="0.0889620242" flag="0"/>
      <psa03 value="0.8440216725" flag="0"/>
      <psa10 value="0.0252711172" flag="0"/>
      <psa30 value="0.0022451844" flag="0"/>
    </comp>
  </station>
  <station code="DALY" name="DALY" netid="KO" insttype="CMG-3T" commtype="DIG" lat="36.8162" lon="28.6532">
    <comp name="--.HHN">
      <acc value="0.0051492390" flag="0"/>
      <vel value="0.0027791706" flag="0"/>
      <psa03 value="0.0113556716" flag="0"/>
      <psa10 value="0.0039982429" flag="0"/>
      <psa30 value="0.0003822417" flag="0"/>
    </comp>
    <comp name="--.HHZ">
      <acc value="0.0026472332" flag="0"/>
      <vel value="0.0021963622" flag="0"/>
      <psa03 value="0.0048426666" flag="0"/>
      <psa10 value="0.0027967863" flag="0"/>
      <psa30 value="0.0014742418" flag="0"/>
    </comp>
  </station>
  <station code="NAZL" name="NAZL" netid="KO" insttype="CMG-5T" commtype="DIG" lat="37.9641" lon="28.2922">
    <comp name="--.HNN">
      <acc value="0.0139167900" flag="0"/>
      <vel value="0.0088789069" flag="0"/>
      <psa03 value="0.0304657038" flag="0"/>
      <psa10 value="0.0078529434" flag="0"/>
      <psa30 value="0.0010102899" flag="0"/>
    </comp>
    <comp name="--.HNZ">
      <acc value="0.0049855246" flag="0"/>
      <vel value="0.0030168828" flag="0"/>
      <psa03 value="0.0138201947" flag="0"/>
      <psa10 value="0.0042973586" flag="0"/>
      <psa30 value="0.0009395476" flag="0"/>
    </comp>
    <comp name="--.HNE">
      <acc value="0.0132574130" flag="0"/>
      <vel value="0.0100149466" flag="0"/>
      <psa03 value="0.0417027282" flag="0"/>
      <psa10 value="0.0105318755" flag="0"/>
      <psa30 value="0.0008802303" flag="0"/>
    </comp>
  </station>
  <station code="YER" name="YER" netid="KO" insttype="CMG-3T" commtype="DIG" lat="37.1336" lon="28.284">
    <comp name="--.HHE">
      <acc value="0.0285359240" flag="0"/>
      <vel value="0.0063101796" flag="0"/>
      <psa03 value="0.0307859441" flag="0"/>
      <psa10 value="0.0077558559" flag="0"/>
      <psa30 value="0.0016129750" flag="0"/>
    </comp>
    <comp name="--.HHN">
      <acc value="0.0271061437" flag="0"/>
      <vel value="0.0082687036" flag="0"/>
      <psa03 value="0.0374101820" flag="0"/>
      <psa10 value="0.0110061302" flag="0"/>
      <psa30 value="0.0019252609" flag="0"/>
    </comp>
    <comp name="--.HHZ">
      <acc value="0.0142451804" flag="0"/>
      <vel value="0.0049217216" flag="0"/>
      <psa03 value="0.0191420682" flag="0"/>
      <psa10 value="0.0137766930" flag="0"/>
      <psa30 value="0.0014914304" flag="0"/>
    </comp>
  </station>
  <station code="YKAV" name="YKAV" netid="KO" insttype="CMG-5T" commtype="DIG" lat="37.1246" lon="27.2801">
    <comp name="--.HNE">
      <acc value="0.5998888539" flag="0"/>
      <vel value="0.2595020736" flag="0"/>
      <psa03 value="1.1275285383" flag="0"/>
      <psa10 value="0.0862141311" flag="0"/>
      <psa30 value="0.0058937704" flag="0"/>
    </comp>
    <comp name="--.HNN">
      <acc value="0.3887096438" flag="0"/>
      <vel value="0.0996127299" flag="0"/>
      <psa03 value="0.6245432021" flag="0"/>
      <psa10 value="0.0415754291" flag="0"/>
      <psa30 value="0.0048517794" flag="0"/>
    </comp>
    <comp name="--.HNZ">
      <acc value="0.1427969864" flag="0"/>
      <vel value="0.0549178229" flag="0"/>
      <psa03 value="0.2660828910" flag="0"/>
      <psa10 value="0.0409814898" flag="0"/>
      <psa30 value="0.0028704322" flag="0"/>
    </comp>
  </station>
</stationlist>
