<?xml version="1.0" encoding="UTF-8" standalone="yes"?>
<!DOCTYPE earthquake SYSTEM "stationlist.dtd">
<stationlist created="" xmlns="ch.ethz.sed.shakemap.usgs.xml">
  <station code="APE" name="APE" netid="GE" insttype="STS-2/N" commtype="DIG" lat="37.0727" lon="25.523">
    <comp name="--.HHE">
      <acc value="0.1133397155" flag="0"/>
      <vel value="0.0327596406" flag="0"/>
      <psa03 value="0.0605259588" flag="0"/>
      <psa10 value="0.0141099930" flag="0"/>
      <psa30 value="0.0011169497" flag="0"/>
    </comp>
    <comp name="--.HHZ">
      <acc value="0.0537878071" flag="0"/>
      <vel value="0.0128985532" flag="0"/>
      <psa03 value="0.0421605761" flag="0"/>
      <psa10 value="0.0056828434" flag="0"/>
      <psa30 value="0.0016696906" flag="0"/>
    </comp>
    <comp name="--.HHN">
      <acc value="0.0984532532" flag="0"/>
      <vel value="0.0181336841" flag="0"/>
      <psa03 value="0.0490727057" flag="0"/>
      <psa10 value="0.0073245864" flag="0"/>
      <psa30 value="0.0009938626" flag="0"/>
    </comp>
  </station>
  <station code="THERA" name="THERA" netid="GE" insttype="STS-2/N" commtype="DIG" lat="36.367" lon="25.4753">
    <comp name="--.HHN">
      <acc value="0.1193119766" flag="0"/>
      <vel value="0.0239223529" flag="0"/>
      <psa03 value="0.0884476746" flag="0"/>
      <psa10 value="0.0082299946" flag="0"/>
      <psa30 value="0.0004919036" flag="0"/>
    </comp>
    <comp name="--.HHE">
      <acc value="0.1753509853" flag="0"/>
      <vel value="0.0349058737" flag="0"/>
      <psa03 value="0.1317372922" flag="0"/>
      <psa10 value="0.0116784624" flag="0"/>
      <psa30 value="0.0011475326" flag="0"/>
    </comp>
    <comp name="--.HHZ">
      <acc value="0.1402059376" flag="0"/>
      <vel value="0.0305507730" flag="0"/>
      <psa03 value="0.1069539282" flag="0"/>
      <psa10 value="0.0091562940" flag="0"/>
      <psa30 value="0.0009518382" flag="0"/>
    </comp>
  </station>
</stationlist>
