<?xml version="1.0" encoding="UTF-8" standalone="yes"?>
<!DOCTYPE earthquake SYSTEM "stationlist.dtd">
<stationlist created="" xmlns="ch.ethz.sed.shakemap.usgs.xml">
  <station code="APE" name="APE" netid="GE" insttype="STS-2/N" commtype="DIG" lat="37.0727" lon="25.523">
    <comp name="--.HHZ">
      <acc value="0.0537878071" flag="0"/>
      <vel value="0.0128985519" flag="0"/>
      <psa03 value="0.0421605761" flag="0"/>
      <psa10 value="0.0056828436" flag="0"/>
      <psa30 value="0.0016697530" flag="0"/>
    </comp>
    <comp name="--.HHE">
      <acc value="0.1133397151" flag="0"/>
      <vel value="0.0327596388" flag="0"/>
      <psa03 value="0.0605259588" flag="0"/>
      <psa10 value="0.0141099923" flag="0"/>
      <psa30 value="0.0011170604" flag="0"/>
    </comp>
    <comp name="--.HHN">
      <acc value="0.0984532532" flag="0"/>
      <vel value="0.0181336868" flag="0"/>
      <psa03 value="0.0490727057" flag="0"/>
      <psa10 value="0.0073245863" flag="0"/>
      <psa30 value="0.0009937517" flag="0"/>
    </comp>
  </station>
  <station code="THERA" name="THERA" netid="GE" insttype="STS-2/N" commtype="DIG" lat="36.367" lon="25.4753">
    <comp name="--.HHZ">
      <acc value="0.1402059374" flag="0"/>
      <vel value="0.0305507748" flag="0"/>
      <psa03 value="0.1069539282" flag="0"/>
      <psa10 value="0.0091562935" flag="0"/>
      <psa30 value="0.0009515832" flag="0"/>
    </comp>
    <comp name="--.HHE">
      <acc value="0.1753509855" flag="0"/>
      <vel value="0.0349058734" flag="0"/>
      <psa03 value="0.1317372922" flag="0"/>
      <psa10 value="0.0116784622" flag="0"/>
      <psa30 value="0.0011474826" flag="0"/>
    </comp>
    <comp name="--.HHN">
      <acc value="0.1193119767" flag="0"/>
      <vel value="0.0239223524" flag="0"/>
      <psa03 value="0.0884476746" flag="0"/>
      <psa10 value="0.0082299943" flag="0"/>
      <psa30 value="0.0004919915" flag="0"/>
    </comp>
  </station>
</stationlist>
