<?xml version="1.0" encoding="UTF-8" standalone="yes"?>
<!DOCTYPE earthquake SYSTEM "stationlist.dtd">
<stationlist created="" xmlns="ch.ethz.sed.shakemap.usgs.xml">
  <station code="BH02A" name="BH02A" netid="Y5" insttype="STS2_gen3" lat="43.8746" lon="18.4241">
    <comp name="--.HH2">
      <acc value="0.0077304104" flag="0"/>
      <vel value="0.0055078132" flag="0"/>
      <psa03 value="0.0196376062" flag="0"/>
      <psa10 value="0.0060639564" flag="0"/>
      <psa30 value="0.0037879661" flag="0"/>
    </comp>
    <comp name="--.HHZ">
      <acc value="0.0081828172" flag="0"/>
      <vel value="0.0049451472" flag="0"/>
      <psa03 value="0.0203661874" flag="0"/>
      <psa10 value="0.0049715868" flag="0"/>
      <psa30 value="0.0013782981" flag="0"/>
    </comp>
    <comp name="--.HH1">
      <acc value="0.0075269941" flag="0"/>
      <vel value="0.0067906287" flag="0"/>
      <psa03 value="0.0218175584" flag="0"/>
      <psa10 value="0.0076487919" flag="0"/>
      <psa30 value="0.0020626841" flag="0"/>
    </comp>
  </station>
  <station code="BH03A" name="BH03A" netid="Y5" insttype="STS2_gen3" lat="43.8212" lon="17.6885">
    <comp name="--.HH2">
      <acc value="0.1229268174" flag="0"/>
      <vel value="0.0645651479" flag="0"/>
      <psa03 value="0.3333648320" flag="0"/>
      <psa10 value="0.0524254114" flag="0"/>
      <psa30 value="0.0036617629" flag="0"/>
    </comp>
    <comp name="--.HHZ">
      <acc value="0.0468769295" flag="0"/>
      <vel value="0.0231569615" flag="0"/>
      <psa03 value="0.1157673841" flag="0"/>
      <psa10 value="0.0223088719" flag="0"/>
      <psa30 value="0.0026388166" flag="0"/>
    </comp>
    <comp name="--.HH1">
      <acc value="0.1153025302" flag="0"/>
      <vel value="0.0492988777" flag="0"/>
      <psa03 value="0.2867115856" flag="0"/>
      <psa10 value="0.0410703051" flag="0"/>
      <psa30 value="0.0044966435" flag="0"/>
    </comp>
  </station>
  <station code="BH04A" name="BH04A" netid="Y5" insttype="STS2_gen2" lat="43.3483" lon="17.7935">
    <comp name="--.HHZ">
      <acc value="0.2029012668" flag="0"/>
      <vel value="0.0578386159" flag="0"/>
      <psa03 value="0.3331120943" flag="0"/>
      <psa10 value="0.0551577167" flag="0"/>
      <psa30 value="0.0064522467" flag="0"/>
    </comp>
    <comp name="--.HH2">
      <acc value="0.3233304929" flag="0"/>
      <vel value="0.1144755289" flag="0"/>
      <psa03 value="0.4993769269" flag="0"/>
      <psa10 value="0.0614635650" flag="0"/>
      <psa30 value="0.0094183297" flag="0"/>
    </comp>
    <comp name="--.HH1">
      <acc value="0.3666748510" flag="0"/>
      <vel value="0.1329582111" flag="0"/>
      <psa03 value="0.4973427189" flag="0"/>
      <psa10 value="0.1011028819" flag="0"/>
      <psa30 value="0.0125024612" flag="0"/>
    </comp>
  </station>
  <station code="BH05A" name="BH05A" netid="Y5" insttype="STS2_gen2" lat="43.1695" lon="18.5854">
    <comp name="--.HH1">
      <acc value="0.0221498287" flag="0"/>
      <vel value="0.0160912038" flag="0"/>
      <psa03 value="0.0478599188" flag="0"/>
      <psa10 value="0.0170512484" flag="0"/>
      <psa30 value="0.0050448881" flag="0"/>
    </comp>
    <comp name="--.HH2">
      <acc value="0.0180636297" flag="0"/>
      <vel value="0.0092862814" flag="0"/>
      <psa03 value="0.0241896477" flag="0"/>
      <psa10 value="0.0088865013" flag="0"/>
      <psa30 value="0.0030122791" flag="0"/>
    </comp>
    <comp name="--.HHZ">
      <acc value="0.0119072027" flag="0"/>
      <vel value="0.0075992125" flag="0"/>
      <psa03 value="0.0292407308" flag="0"/>
      <psa10 value="0.0122145816" flag="0"/>
      <psa30 value="0.0031169926" flag="0"/>
    </comp>
  </station>
  <station code="BH07A" name="BH07A" netid="Y5" insttype="STS2_gen3" lat="43.7511" lon="18.0361">
    <comp name="--.HHZ">
      <acc value="0.0438556724" flag="0"/>
      <vel value="0.0134240410" flag="0"/>
      <psa03 value="0.0758302997" flag="0"/>
      <psa10 value="0.0118454416" flag="0"/>
      <psa30 value="0.0014576158" flag="0"/>
    </comp>
    <comp name="--.HH1">
      <acc value="0.0576581480" flag="0"/>
      <vel value="0.0234674925" flag="0"/>
      <psa03 value="0.0747758769" flag="0"/>
      <psa10 value="0.0120665673" flag="0"/>
      <psa30 value="0.0033894710" flag="0"/>
    </comp>
    <comp name="--.HH2">
      <acc value="0.0685357809" flag="0"/>
      <vel value="0.0190425305" flag="0"/>
      <psa03 value="0.1351794457" flag="0"/>
      <psa10 value="0.0168081171" flag="0"/>
      <psa30 value="0.0022969026" flag="0"/>
    </comp>
  </station>
  <station code="BH11A" name="BH11A" netid="Y5" insttype="STS2_gen3" lat="44.4818" lon="16.5313">
    <comp name="--.HH1">
      <acc value="0.0080726337" flag="0"/>
      <vel value="0.0060986743" flag="0"/>
      <psa03 value="0.0277152957" flag="0"/>
      <psa10 value="0.0059658394" flag="0"/>
      <psa30 value="0.0005987670" flag="0"/>
    </comp>
    <comp name="--.HH2">
      <acc value="0.0127985355" flag="0"/>
      <vel value="0.0083242764" flag="0"/>
      <psa03 value="0.0322841630" flag="0"/>
      <psa10 value="0.0055315976" flag="0"/>
      <psa30 value="0.0016810114" flag="0"/>
    </comp>
    <comp name="--.HHZ">
      <acc value="0.0051152940" flag="0"/>
      <vel value="0.0026358724" flag="0"/>
      <psa03 value="0.0111330059" flag="0"/>
      <psa10 value="0.0036990918" flag="0"/>
      <psa30 value="0.0004031300" flag="0"/>
    </comp>
  </station>
  <station code="BH12A" name="BH12A" netid="Y5" insttype="STS2_gen3" lat="44.3931" lon="17.1573">
    <comp name="--.HHZ">
      <acc value="0.0104954821" flag="0"/>
      <vel value="0.0075224543" flag="0"/>
      <psa03 value="0.0388386265" flag="0"/>
      <psa10 value="0.0061312961" flag="0"/>
      <psa30 value="0.0032855259" flag="0"/>
    </comp>
    <comp name="--.HH2">
      <acc value="0.0274617102" flag="0"/>
      <vel value="0.0140478269" flag="0"/>
      <psa03 value="0.0844957656" flag="0"/>
      <psa10 value="0.0065372694" flag="0"/>
      <psa30 value="0.0030667432" flag="0"/>
    </comp>
    <comp name="--.HH1">
      <acc value="0.0186058611" flag="0"/>
      <vel value="0.0120869667" flag="0"/>
      <psa03 value="0.0714532610" flag="0"/>
      <psa10 value="0.0065241243" flag="0"/>
      <psa30 value="0.0026391555" flag="0"/>
    </comp>
  </station>
  <station code="BH14A" name="BH14A" netid="Y5" insttype="STS2_gen3" lat="44.5136" lon="17.6572">
    <comp name="--.HH1">
      <acc value="0.0160945693" flag="0"/>
      <vel value="0.0103842503" flag="0"/>
      <psa03 value="0.0395535512" flag="0"/>
      <psa10 value="0.0091482667" flag="0"/>
      <psa30 value="0.0029344990" flag="0"/>
    </comp>
    <comp name="--.HHZ">
      <acc value="0.0091671438" flag="0"/>
      <vel value="0.0056057305" flag="0"/>
      <psa03 value="0.0329243087" flag="0"/>
      <psa10 value="0.0101336321" flag="0"/>
      <psa30 value="0.0019765567" flag="0"/>
    </comp>
    <comp name="--.HH2">
      <acc value="0.0161017577" flag="0"/>
      <vel value="0.0108205060" flag="0"/>
      <psa03 value="0.0501282965" flag="0"/>
      <psa10 value="0.0058662372" flag="0"/>
      <psa30 value="0.0016480366" flag="0"/>
    </comp>
  </station>
</stationlist>
