<stationlist created="1778069411">
	<station code="SIT2" name="SIT2" netid="HI" source="ITSAK Strong Motion Network" insttype="" lat="35.2059" lon="26.107">
		<comp name="--.HNE" depth="0.0">
			<acc value="0.00975195041020248" flag="0"/>
			<vel value="0.00748973233822491" flag="0"/>
			<psa03 value="0.0212972903502974" flag="0"/>
			<psa10 value="0.00725226427075567" flag="0"/>
			<psa30 value="0.000584333218434629" flag="0"/>
		</comp>
		<comp name="--.HNN" depth="0.0">
			<acc value="0.00819324911984502" flag="0"/>
			<vel value="0.00677382858078475" flag="0"/>
			<psa03 value="0.0236238850944475" flag="0"/>
			<psa10 value="0.00647911894039193" flag="0"/>
			<psa30 value="0.000570910556449147" flag="0"/>
		</comp>
		<comp name="--.HNZ" depth="0.0">
			<acc value="0.00486365236283456" flag="0"/>
			<vel value="0.00279859939006638" flag="0"/>
			<psa03 value="0.00939586338983707" flag="0"/>
			<psa10 value="0.00178789857646614" flag="0"/>
			<psa30 value="0.00039015204171133" flag="0"/>
		</comp>
	</station>
</stationlist>
