<?xml version="1.0" encoding="UTF-8" standalone="yes"?>
<!DOCTYPE earthquake SYSTEM "stationlist.dtd">
<stationlist created="" xmlns="ch.ethz.sed.shakemap.usgs.xml">
  <station code="AKS" name="AKS" netid="KO" insttype="CMG-5T" commtype="DIG" lat="38.8785" lon="27.8129">
    <comp name="--.HNE">
      <acc value="0.1125706422" flag="0"/>
      <vel value="0.0344181042" flag="0"/>
      <psa03 value="0.1851282326" flag="0"/>
      <psa10 value="0.0430623263" flag="0"/>
      <psa30 value="0.0027258624" flag="0"/>
    </comp>
    <comp name="--.HNZ">
      <acc value="0.1090680121" flag="0"/>
      <vel value="0.0273571710" flag="0"/>
      <psa03 value="0.0899133909" flag="0"/>
      <psa10 value="0.0267371118" flag="0"/>
      <psa30 value="0.0025837189" flag="0"/>
    </comp>
    <comp name="--.HNN">
      <acc value="0.1173041968" flag="0"/>
      <vel value="0.0442983064" flag="0"/>
      <psa03 value="0.1320017221" flag="0"/>
      <psa10 value="0.0350745045" flag="0"/>
      <psa30 value="0.0040647612" flag="0"/>
    </comp>
  </station>
  <station code="AYDB" name="AYDB" netid="KO" insttype="CMG-3ESPC" commtype="DIG" lat="37.9467" lon="27.8908">
    <comp name="--.HHN">
      <acc value="0.0417023913" flag="0"/>
      <vel value="0.0226835117" flag="0"/>
      <psa03 value="0.0874617918" flag="0"/>
      <psa10 value="0.0225182063" flag="0"/>
      <psa30 value="0.0018220501" flag="0"/>
    </comp>
    <comp name="--.HHE">
      <acc value="0.0424730195" flag="0"/>
      <vel value="0.0243274169" flag="0"/>
      <psa03 value="0.1230825140" flag="0"/>
      <psa10 value="0.0260296702" flag="0"/>
      <psa30 value="0.0014090684" flag="0"/>
    </comp>
    <comp name="--.HHZ">
      <acc value="0.0291232101" flag="0"/>
      <vel value="0.0139587837" flag="0"/>
      <psa03 value="0.0595961577" flag="0"/>
      <psa10 value="0.0160024788" flag="0"/>
      <psa30 value="0.0016855876" flag="0"/>
    </comp>
  </station>
  <station code="AYVL" name="AYVL" netid="KO" insttype="CMG-6T" commtype="DIG" lat="39.2907" lon="26.69">
    <comp name="--.HHZ">
      <acc value="0.0222397440" flag="0"/>
      <vel value="0.0090736811" flag="0"/>
      <psa03 value="0.0477675447" flag="0"/>
      <psa10 value="0.0061350062" flag="0"/>
      <psa30 value="0.0002563767" flag="0"/>
    </comp>
    <comp name="--.HHN">
      <acc value="0.0703600353" flag="0"/>
      <vel value="0.0245035471" flag="0"/>
      <psa03 value="0.0821013816" flag="0"/>
      <psa10 value="0.0197485862" flag="0"/>
      <psa30 value="0.0008521183" flag="0"/>
    </comp>
    <comp name="--.HHE">
      <acc value="0.0393017504" flag="0"/>
      <vel value="0.0155040990" flag="0"/>
      <psa03 value="0.0914089089" flag="0"/>
      <psa10 value="0.0088468887" flag="0"/>
      <psa30 value="0.0004248451" flag="0"/>
    </comp>
  </station>
  <station code="BALB" name="BALB" netid="KO" insttype="CMG-5T" commtype="DIG" lat="39.6507" lon="27.8642">
    <comp name="--.HNE">
      <acc value="0.0983290910" flag="0"/>
      <vel value="0.0351596960" flag="0"/>
      <psa03 value="0.1316210633" flag="0"/>
      <psa10 value="0.0461086138" flag="0"/>
      <psa30 value="0.0030462079" flag="0"/>
    </comp>
    <comp name="--.HNN">
      <acc value="0.1496078063" flag="0"/>
      <vel value="0.0532587316" flag="0"/>
      <psa03 value="0.1699846654" flag="0"/>
      <psa10 value="0.0349132652" flag="0"/>
      <psa30 value="0.0041881366" flag="0"/>
    </comp>
    <comp name="--.HNZ">
      <acc value="0.0471797250" flag="0"/>
      <vel value="0.0125709521" flag="0"/>
      <psa03 value="0.0755877051" flag="0"/>
      <psa10 value="0.0124959850" flag="0"/>
      <psa30 value="0.0021741957" flag="0"/>
    </comp>
  </station>
  <station code="BLCB" name="BLCB" netid="KO" insttype="CMG-3T" commtype="DIG" lat="38.3853" lon="27.042">
    <comp name="--.HHE">
      <acc value="0.0300360797" flag="0"/>
      <vel value="0.0197513980" flag="0"/>
      <psa03 value="0.0548412313" flag="0"/>
      <psa10 value="0.0280372708" flag="0"/>
      <psa30 value="0.0021320305" flag="0"/>
    </comp>
    <comp name="--.HHZ">
      <acc value="0.0212826256" flag="0"/>
      <vel value="0.0075630500" flag="0"/>
      <psa03 value="0.0289470205" flag="0"/>
      <psa10 value="0.0072898702" flag="0"/>
      <psa30 value="0.0009998526" flag="0"/>
    </comp>
    <comp name="--.HHN">
      <acc value="0.0000326489" flag="0"/>
      <vel value="0.0000098316" flag="0"/>
      <psa03 value="0.0000287763" flag="0"/>
      <psa10 value="0.0000092891" flag="0"/>
      <psa30 value="0.0000012496" flag="0"/>
    </comp>
  </station>
  <station code="CANM" name="CANM" netid="KO" insttype="CMG-5T" commtype="DIG" lat="40.0113" lon="27.0529">
    <comp name="--.HNE">
      <acc value="0.0216842845" flag="0"/>
      <vel value="0.0176983691" flag="0"/>
      <psa03 value="0.0496631942" flag="0"/>
      <psa10 value="0.0234872917" flag="0"/>
      <psa30 value="0.0014749716" flag="0"/>
    </comp>
    <comp name="--.HNN">
      <acc value="0.0198983505" flag="0"/>
      <vel value="0.0146431374" flag="0"/>
      <psa03 value="0.0442870688" flag="0"/>
      <psa10 value="0.0277669225" flag="0"/>
      <psa30 value="0.0017627594" flag="0"/>
    </comp>
    <comp name="--.HNZ">
      <acc value="0.0172197019" flag="0"/>
      <vel value="0.0090103150" flag="0"/>
      <psa03 value="0.0202113187" flag="0"/>
      <psa10 value="0.0081936339" flag="0"/>
      <psa30 value="0.0015864379" flag="0"/>
    </comp>
  </station>
  <station code="DKL" name="DKL" netid="KO" insttype="CMG-3ESPC" commtype="DIG" lat="39.0713" lon="26.9053">
    <comp name="--.HHZ">
      <acc value="0.0096448173" flag="0"/>
      <vel value="0.0064777534" flag="0"/>
      <psa03 value="0.0158495571" flag="0"/>
      <psa10 value="0.0103240986" flag="0"/>
      <psa30 value="0.0016549065" flag="0"/>
    </comp>
    <comp name="--.HHE">
      <acc value="0.0101786394" flag="0"/>
      <vel value="0.0062970278" flag="0"/>
      <psa03 value="0.0171273620" flag="0"/>
      <psa10 value="0.0157595897" flag="0"/>
      <psa30 value="0.0013108485" flag="0"/>
    </comp>
    <comp name="--.HHN">
      <acc value="0.0115881033" flag="0"/>
      <vel value="0.0126522993" flag="0"/>
      <psa03 value="0.0189015712" flag="0"/>
      <psa10 value="0.0221926967" flag="0"/>
      <psa30 value="0.0028730635" flag="0"/>
    </comp>
  </station>
  <station code="DST" name="DST" netid="KO" insttype="CMG-5T" commtype="DIG" lat="39.6041" lon="28.6267">
    <comp name="--.HNE">
      <acc value="0.0711716547" flag="0"/>
      <vel value="0.0273942840" flag="0"/>
      <psa03 value="0.1001160131" flag="0"/>
      <psa10 value="0.0290925040" flag="0"/>
      <psa30 value="0.0019015273" flag="0"/>
    </comp>
    <comp name="--.HNZ">
      <acc value="0.0707329710" flag="0"/>
      <vel value="0.0257373735" flag="0"/>
      <psa03 value="0.0896361840" flag="0"/>
      <psa10 value="0.0152114688" flag="0"/>
      <psa30 value="0.0017469602" flag="0"/>
    </comp>
    <comp name="--.HNN">
      <acc value="0.0660969816" flag="0"/>
      <vel value="0.0277679568" flag="0"/>
      <psa03 value="0.1411665293" flag="0"/>
      <psa10 value="0.0244135337" flag="0"/>
      <psa30 value="0.0028419581" flag="0"/>
    </comp>
  </station>
  <station code="EDC" name="EDC" netid="KO" insttype="CMG-3T" commtype="DIG" lat="40.3465" lon="27.8618">
    <comp name="--.HHN">
      <acc value="0.0582943032" flag="0"/>
      <vel value="0.0417734611" flag="0"/>
      <psa03 value="0.1545030050" flag="0"/>
      <psa10 value="0.0443908160" flag="0"/>
      <psa30 value="0.0033415068" flag="0"/>
    </comp>
    <comp name="--.HHE">
      <acc value="0.0420727177" flag="0"/>
      <vel value="0.0345760174" flag="0"/>
      <psa03 value="0.0778009409" flag="0"/>
      <psa10 value="0.0303466259" flag="0"/>
      <psa30 value="0.0022093555" flag="0"/>
    </comp>
    <comp name="--.HHZ">
      <acc value="0.0173971808" flag="0"/>
      <vel value="0.0159881639" flag="0"/>
      <psa03 value="0.0312374035" flag="0"/>
      <psa10 value="0.0152738689" flag="0"/>
      <psa30 value="0.0019494204" flag="0"/>
    </comp>
  </station>
  <station code="FOCM" name="FOCM" netid="KO" insttype="CMG-5T" commtype="DIG" lat="38.7131" lon="26.7309">
    <comp name="--.HNZ">
      <acc value="0.0153655071" flag="0"/>
      <vel value="0.0096219676" flag="0"/>
      <psa03 value="0.0282007600" flag="0"/>
      <psa10 value="0.0109183868" flag="0"/>
      <psa30 value="0.0016339617" flag="0"/>
    </comp>
    <comp name="--.HNN">
      <acc value="0.0188252191" flag="0"/>
      <vel value="0.0093509902" flag="0"/>
      <psa03 value="0.0286070276" flag="0"/>
      <psa10 value="0.0164657658" flag="0"/>
      <psa30 value="0.0020009118" flag="0"/>
    </comp>
    <comp name="--.HNE">
      <acc value="0.0175081821" flag="0"/>
      <vel value="0.0112907341" flag="0"/>
      <psa03 value="0.0339597036" flag="0"/>
      <psa10 value="0.0196996016" flag="0"/>
      <psa30 value="0.0022223936" flag="0"/>
    </comp>
  </station>
  <station code="GEDZ" name="GEDZ" netid="KO" insttype="CMG-6T" commtype="DIG" lat="39.0445" lon="29.4105">
    <comp name="--.HHZ">
      <acc value="0.1364380125" flag="0"/>
      <vel value="0.0739803181" flag="0"/>
      <psa03 value="0.2540542478" flag="0"/>
      <psa10 value="0.0825262252" flag="0"/>
      <psa30 value="0.0034708137" flag="0"/>
    </comp>
    <comp name="--.HHN">
      <acc value="0.3149982040" flag="0"/>
      <vel value="0.2020485396" flag="0"/>
      <psa03 value="1.1386487034" flag="0"/>
      <psa10 value="0.2429395786" flag="0"/>
      <psa30 value="0.0107839085" flag="0"/>
    </comp>
    <comp name="--.HHE">
      <acc value="0.2074743208" flag="0"/>
      <vel value="0.1145028100" flag="0"/>
      <psa03 value="0.5323075837" flag="0"/>
      <psa10 value="0.1353220645" flag="0"/>
      <psa30 value="0.0074483668" flag="0"/>
    </comp>
  </station>
  <station code="GOMA" name="GOMA" netid="KO" insttype="CMG-5T" commtype="DIG" lat="38.7077" lon="27.9175">
    <comp name="--.HNE">
      <acc value="0.1465656080" flag="0"/>
      <vel value="0.0920140796" flag="0"/>
      <psa03 value="0.3939532879" flag="0"/>
      <psa10 value="0.0714248698" flag="0"/>
      <psa30 value="0.0036487341" flag="0"/>
    </comp>
    <comp name="--.HNZ">
      <acc value="0.1062040989" flag="0"/>
      <vel value="0.0413722667" flag="0"/>
      <psa03 value="0.1631502199" flag="0"/>
      <psa10 value="0.0305875388" flag="0"/>
      <psa30 value="0.0050765148" flag="0"/>
    </comp>
  </station>
  <station code="GONE" name="GONE" netid="KO" insttype="CMG-5T" commtype="DIG" lat="40.0466" lon="27.686">
    <comp name="--.HNE">
      <acc value="0.0536434954" flag="0"/>
      <vel value="0.0280671373" flag="0"/>
      <psa03 value="0.0963303033" flag="0"/>
      <psa10 value="0.0468072839" flag="0"/>
      <psa30 value="0.0026416091" flag="0"/>
    </comp>
    <comp name="--.HNN">
      <acc value="0.0999806530" flag="0"/>
      <vel value="0.0492892064" flag="0"/>
      <psa03 value="0.2689837249" flag="0"/>
      <psa10 value="0.0695510377" flag="0"/>
      <psa30 value="0.0033798726" flag="0"/>
    </comp>
    <comp name="--.HNZ">
      <acc value="0.0267985565" flag="0"/>
      <vel value="0.0112962453" flag="0"/>
      <psa03 value="0.0465638924" flag="0"/>
      <psa10 value="0.0152560624" flag="0"/>
      <psa30 value="0.0013145831" flag="0"/>
    </comp>
  </station>
  <station code="GORD" name="GORD" netid="KO" insttype="CMG-5T" commtype="DIG" lat="38.9088" lon="28.1769">
    <comp name="--.HNE">
      <acc value="0.2173657362" flag="0"/>
      <vel value="0.1157837413" flag="0"/>
      <psa03 value="0.3370742359" flag="0"/>
      <psa10 value="0.1670260215" flag="0"/>
      <psa30 value="0.0102386057" flag="0"/>
    </comp>
    <comp name="--.HNN">
      <acc value="0.2617992344" flag="0"/>
      <vel value="0.1605629773" flag="0"/>
      <psa03 value="0.3593681798" flag="0"/>
      <psa10 value="0.1934184499" flag="0"/>
      <psa30 value="0.0182723859" flag="0"/>
    </comp>
    <comp name="--.HNZ">
      <acc value="0.1809420022" flag="0"/>
      <vel value="0.1312849453" flag="0"/>
      <psa03 value="0.3831482422" flag="0"/>
      <psa10 value="0.1527504148" flag="0"/>
      <psa30 value="0.0152049267" flag="0"/>
    </comp>
  </station>
  <station code="KULA" name="KULA" netid="KO" insttype="CMG-3T" commtype="DIG" lat="38.5145" lon="28.6607">
    <comp name="--.HHE">
      <acc value="0.1456784833" flag="0"/>
      <vel value="0.0857576357" flag="0"/>
      <psa03 value="0.4138764231" flag="0"/>
      <psa10 value="0.0860453894" flag="0"/>
      <psa30 value="0.0045738539" flag="0"/>
    </comp>
    <comp name="--.HHZ">
      <acc value="0.1210990052" flag="0"/>
      <vel value="0.0579606454" flag="0"/>
      <psa03 value="0.3989443867" flag="0"/>
      <psa10 value="0.0283516002" flag="0"/>
      <psa30 value="0.0029981718" flag="0"/>
    </comp>
    <comp name="--.HHN">
      <acc value="0.1903232009" flag="0"/>
      <vel value="0.0524041714" flag="0"/>
      <psa03 value="0.3254548306" flag="0"/>
      <psa10 value="0.0248542459" flag="0"/>
      <psa30 value="0.0020501496" flag="0"/>
    </comp>
  </station>
  <station code="MDNY" name="MDNY" netid="KO" insttype="CMG-3ESP" commtype="DIG" lat="40.3709" lon="28.8846">
    <comp name="--.HHE">
      <acc value="0.1416873095" flag="0"/>
      <vel value="0.0643481884" flag="0"/>
      <psa03 value="0.6133838492" flag="0"/>
      <psa10 value="0.0420590154" flag="0"/>
      <psa30 value="0.0031812867" flag="0"/>
    </comp>
    <comp name="--.HHN">
      <acc value="0.1765242363" flag="0"/>
      <vel value="0.0916562235" flag="0"/>
      <psa03 value="0.6089229826" flag="0"/>
      <psa10 value="0.0645447662" flag="0"/>
      <psa30 value="0.0030973316" flag="0"/>
    </comp>
    <comp name="--.HHZ">
      <acc value="0.0452219919" flag="0"/>
      <vel value="0.0210347964" flag="0"/>
      <psa03 value="0.0902454134" flag="0"/>
      <psa10 value="0.0187607244" flag="0"/>
      <psa30 value="0.0041424095" flag="0"/>
    </comp>
  </station>
  <station code="NAZL" name="NAZL" netid="KO" insttype="CMG-5T" commtype="DIG" lat="37.9641" lon="28.2922">
    <comp name="--.HNE">
      <acc value="0.0412369809" flag="0"/>
      <vel value="0.0302220655" flag="0"/>
      <psa03 value="0.1126392064" flag="0"/>
      <psa10 value="0.0282560212" flag="0"/>
      <psa30 value="0.0031490890" flag="0"/>
    </comp>
    <comp name="--.HNN">
      <acc value="0.0511274837" flag="0"/>
      <vel value="0.0363427745" flag="0"/>
      <psa03 value="0.1742148005" flag="0"/>
      <psa10 value="0.0539029728" flag="0"/>
      <psa30 value="0.0025828324" flag="0"/>
    </comp>
    <comp name="--.HNZ">
      <acc value="0.0184036166" flag="0"/>
      <vel value="0.0113195518" flag="0"/>
      <psa03 value="0.0482388047" flag="0"/>
      <psa10 value="0.0173333993" flag="0"/>
      <psa30 value="0.0014197046" flag="0"/>
    </comp>
  </station>
  <station code="ODEM" name="ODEM" netid="KO" insttype="CMG-5T" commtype="DIG" lat="38.2762" lon="28.0747">
    <comp name="--.HNE">
      <acc value="0.0432875932" flag="0"/>
      <vel value="0.0195677146" flag="0"/>
      <psa03 value="0.0996264525" flag="0"/>
      <psa10 value="0.0438016183" flag="0"/>
      <psa30 value="0.0014810699" flag="0"/>
    </comp>
    <comp name="--.HNN">
      <acc value="0.0369634102" flag="0"/>
      <vel value="0.0243576114" flag="0"/>
      <psa03 value="0.0993404683" flag="0"/>
      <psa10 value="0.0273391285" flag="0"/>
      <psa30 value="0.0020190663" flag="0"/>
    </comp>
    <comp name="--.HNZ">
      <acc value="0.0513516393" flag="0"/>
      <vel value="0.0212069279" flag="0"/>
      <psa03 value="0.0777588982" flag="0"/>
      <psa10 value="0.0372028914" flag="0"/>
      <psa30 value="0.0019333743" flag="0"/>
    </comp>
  </station>
  <station code="ORLT" name="ORLT" netid="KO" insttype="CMG-5T" commtype="DIG" lat="40.0452" lon="28.8914">
    <comp name="--.HNE">
      <acc value="0.0978079112" flag="0"/>
      <vel value="0.0604471467" flag="0"/>
      <psa03 value="0.2629444683" flag="0"/>
      <psa10 value="0.0745286341" flag="0"/>
      <psa30 value="0.0040984750" flag="0"/>
    </comp>
    <comp name="--.HNN">
      <acc value="0.1149196338" flag="0"/>
      <vel value="0.0823183957" flag="0"/>
      <psa03 value="0.3742919827" flag="0"/>
      <psa10 value="0.1413076454" flag="0"/>
      <psa30 value="0.0062312868" flag="0"/>
    </comp>
    <comp name="--.HNZ">
      <acc value="0.0382671788" flag="0"/>
      <vel value="0.0343301190" flag="0"/>
      <psa03 value="0.0997432851" flag="0"/>
      <psa10 value="0.0669512129" flag="0"/>
      <psa30 value="0.0036880145" flag="0"/>
    </comp>
  </station>
  <station code="SHAP" name="SHAP" netid="KO" insttype="CMG-5T" commtype="DIG" lat="39.0231" lon="29.222">
    <comp name="--.HNE">
      <acc value="0.3057643886" flag="0"/>
      <vel value="0.1470472053" flag="0"/>
      <psa03 value="0.9375089186" flag="0"/>
      <psa10 value="0.0616296411" flag="0"/>
      <psa30 value="0.0038485290" flag="0"/>
    </comp>
    <comp name="--.HNN">
      <acc value="0.3075973851" flag="0"/>
      <vel value="0.1424497984" flag="0"/>
      <psa03 value="1.0258092183" flag="0"/>
      <psa10 value="0.0636656889" flag="0"/>
      <psa30 value="0.0038822549" flag="0"/>
    </comp>
    <comp name="--.HNZ">
      <acc value="0.1889146751" flag="0"/>
      <vel value="0.0428922974" flag="0"/>
      <psa03 value="0.1779814602" flag="0"/>
      <psa10 value="0.0371276962" flag="0"/>
      <psa30 value="0.0016653058" flag="0"/>
    </comp>
  </station>
  <station code="SIMA" name="SIMA" netid="KO" insttype="CMG-6T" commtype="DIG" lat="39.0833" lon="28.9825">
    <comp name="--.HHE">
      <acc value="0.3758651126" flag="0"/>
      <vel value="0.0909330525" flag="0"/>
      <psa03 value="0.4840329488" flag="0"/>
      <psa10 value="0.0273278912" flag="0"/>
      <psa30 value="0.0032607387" flag="0"/>
    </comp>
    <comp name="--.HHN">
      <acc value="0.2890567182" flag="0"/>
      <vel value="0.1118439616" flag="0"/>
      <psa03 value="0.8562140886" flag="0"/>
      <psa10 value="0.0526514915" flag="0"/>
      <psa30 value="0.0056145164" flag="0"/>
    </comp>
    <comp name="--.HHZ">
      <acc value="0.2126200153" flag="0"/>
      <vel value="0.0481013042" flag="0"/>
      <psa03 value="0.2188786334" flag="0"/>
      <psa10 value="0.0323657287" flag="0"/>
      <psa30 value="0.0019231240" flag="0"/>
    </comp>
  </station>
  <station code="SOMA" name="SOMA" netid="KO" insttype="CMG-5T" commtype="DIG" lat="39.1564" lon="27.5341">
    <comp name="--.HNE">
      <acc value="0.0887225915" flag="0"/>
      <vel value="0.0266222244" flag="0"/>
      <psa03 value="0.1722934932" flag="0"/>
      <psa10 value="0.0155004464" flag="0"/>
      <psa30 value="0.0022306176" flag="0"/>
    </comp>
    <comp name="--.HNZ">
      <acc value="0.0618817783" flag="0"/>
      <vel value="0.0188016608" flag="0"/>
      <psa03 value="0.0594975877" flag="0"/>
      <psa10 value="0.0102532938" flag="0"/>
      <psa30 value="0.0019593013" flag="0"/>
    </comp>
    <comp name="--.HNN">
      <acc value="0.0728597919" flag="0"/>
      <vel value="0.0285581852" flag="0"/>
      <psa03 value="0.1755048965" flag="0"/>
      <psa10 value="0.0212046606" flag="0"/>
      <psa30 value="0.0018783086" flag="0"/>
    </comp>
  </station>
  <station code="SUSR" name="SUSR" netid="KO" insttype="CMG-5T" commtype="DIG" lat="39.9627" lon="28.0835">
    <comp name="--.HNN">
      <acc value="0.0605118651" flag="0"/>
      <vel value="0.0172566499" flag="0"/>
      <psa03 value="0.1563291203" flag="0"/>
      <psa10 value="0.0102742770" flag="0"/>
      <psa30 value="0.0008310322" flag="0"/>
    </comp>
    <comp name="--.HNE">
