<?xml version="1.0" encoding="UTF-8" standalone="yes"?>
<!DOCTYPE earthquake SYSTEM "stationlist.dtd">
<stationlist created="" xmlns="ch.ethz.sed.shakemap.usgs.xml">
  <station code="AKS" name="AKS" netid="KO" insttype="CMG-5T" commtype="DIG" lat="38.8785" lon="27.8129">
    <comp name="--.HNE">
      <acc value="0.1125706085" flag="0"/>
      <vel value="0.0344181038" flag="0"/>
      <psa03 value="0.1851282326" flag="0"/>
      <psa10 value="0.0430623263" flag="0"/>
      <psa30 value="0.0027258624" flag="0"/>
    </comp>
    <comp name="--.HNN">
      <acc value="0.1173042448" flag="0"/>
      <vel value="0.0442983090" flag="0"/>
      <psa03 value="0.1320017221" flag="0"/>
      <psa10 value="0.0350745045" flag="0"/>
      <psa30 value="0.0040647612" flag="0"/>
    </comp>
    <comp name="--.HNZ">
      <acc value="0.1090680328" flag="0"/>
      <vel value="0.0273571724" flag="0"/>
      <psa03 value="0.0899133909" flag="0"/>
      <psa10 value="0.0267371118" flag="0"/>
      <psa30 value="0.0025837189" flag="0"/>
    </comp>
  </station>
  <station code="BALB" name="BALB" netid="KO" insttype="CMG-5T" commtype="DIG" lat="39.6507" lon="27.8642">
    <comp name="--.HNN">
      <acc value="0.1496078004" flag="0"/>
      <vel value="0.0532587318" flag="0"/>
      <psa03 value="0.1699846654" flag="0"/>
      <psa10 value="0.0349132652" flag="0"/>
      <psa30 value="0.0041881366" flag="0"/>
    </comp>
    <comp name="--.HNZ">
      <acc value="0.0471797240" flag="0"/>
      <vel value="0.0125709523" flag="0"/>
      <psa03 value="0.0755877051" flag="0"/>
      <psa10 value="0.0124959850" flag="0"/>
      <psa30 value="0.0021741957" flag="0"/>
    </comp>
    <comp name="--.HNE">
      <acc value="0.0983290888" flag="0"/>
      <vel value="0.0351596963" flag="0"/>
      <psa03 value="0.1316210633" flag="0"/>
      <psa10 value="0.0461086138" flag="0"/>
      <psa30 value="0.0030462079" flag="0"/>
    </comp>
  </station>
  <station code="DKL" name="DKL" netid="KO" insttype="CMG-3ESPC" commtype="DIG" lat="39.0713" lon="26.9053">
    <comp name="--.HHN">
      <acc value="0.0115881031" flag="0"/>
      <vel value="0.0126522993" flag="0"/>
      <psa03 value="0.0189015712" flag="0"/>
      <psa10 value="0.0221926967" flag="0"/>
      <psa30 value="0.0028730635" flag="0"/>
    </comp>
    <comp name="--.HHE">
      <acc value="0.0101786396" flag="0"/>
      <vel value="0.0062970278" flag="0"/>
      <psa03 value="0.0171273620" flag="0"/>
      <psa10 value="0.0157595897" flag="0"/>
      <psa30 value="0.0013108485" flag="0"/>
    </comp>
    <comp name="--.HHZ">
      <acc value="0.0096448195" flag="0"/>
      <vel value="0.0064777534" flag="0"/>
      <psa03 value="0.0158495571" flag="0"/>
      <psa10 value="0.0103240986" flag="0"/>
      <psa30 value="0.0016549065" flag="0"/>
    </comp>
  </station>
  <station code="DST" name="DST" netid="KO" insttype="CMG-5T" commtype="DIG" lat="39.6041" lon="28.6267">
    <comp name="--.HNE">
      <acc value="0.0711716672" flag="0"/>
      <vel value="0.0273942831" flag="0"/>
      <psa03 value="0.1001160131" flag="0"/>
      <psa10 value="0.0290925040" flag="0"/>
      <psa30 value="0.0019015273" flag="0"/>
    </comp>
    <comp name="--.HNN">
      <acc value="0.0660970125" flag="0"/>
      <vel value="0.0277679585" flag="0"/>
      <psa03 value="0.1411665293" flag="0"/>
      <psa10 value="0.0244135337" flag="0"/>
      <psa30 value="0.0028419581" flag="0"/>
    </comp>
    <comp name="--.HNZ">
      <acc value="0.0707329701" flag="0"/>
      <vel value="0.0257373727" flag="0"/>
      <psa03 value="0.0896361840" flag="0"/>
      <psa10 value="0.0152114688" flag="0"/>
      <psa30 value="0.0017469602" flag="0"/>
    </comp>
  </station>
  <station code="GEDZ" name="GEDZ" netid="KO" insttype="CMG-6T" commtype="DIG" lat="39.0445" lon="29.4105">
    <comp name="--.HHE">
      <acc value="0.2074742770" flag="0"/>
      <vel value="0.1145028107" flag="0"/>
      <psa03 value="0.5323075837" flag="0"/>
      <psa10 value="0.1353220645" flag="0"/>
      <psa30 value="0.0074483668" flag="0"/>
    </comp>
    <comp name="--.HHZ">
      <acc value="0.1364379823" flag="0"/>
      <vel value="0.0739803184" flag="0"/>
      <psa03 value="0.2540542478" flag="0"/>
      <psa10 value="0.0825262252" flag="0"/>
      <psa30 value="0.0034708137" flag="0"/>
    </comp>
    <comp name="--.HHN">
      <acc value="0.3149982208" flag="0"/>
      <vel value="0.2020485398" flag="0"/>
      <psa03 value="1.1386487034" flag="0"/>
      <psa10 value="0.2429395786" flag="0"/>
      <psa30 value="0.0107839085" flag="0"/>
    </comp>
  </station>
  <station code="GOMA" name="GOMA" netid="KO" insttype="CMG-5T" commtype="DIG" lat="38.7077" lon="27.9175">
    <comp name="--.HNE">
      <acc value="0.1465656311" flag="0"/>
      <vel value="0.0920140791" flag="0"/>
      <psa03 value="0.3939532879" flag="0"/>
      <psa10 value="0.0714248698" flag="0"/>
      <psa30 value="0.0036487341" flag="0"/>
    </comp>
    <comp name="--.HNZ">
      <acc value="0.1062041407" flag="0"/>
      <vel value="0.0413722664" flag="0"/>
      <psa03 value="0.1631502199" flag="0"/>
      <psa10 value="0.0305875388" flag="0"/>
      <psa30 value="0.0050765148" flag="0"/>
    </comp>
  </station>
  <station code="GONE" name="GONE" netid="KO" insttype="CMG-5T" commtype="DIG" lat="40.0466" lon="27.686">
    <comp name="--.HNZ">
      <acc value="0.0267985500" flag="0"/>
      <vel value="0.0112962456" flag="0"/>
      <psa03 value="0.0465638924" flag="0"/>
      <psa10 value="0.0152560624" flag="0"/>
      <psa30 value="0.0013145831" flag="0"/>
    </comp>
    <comp name="--.HNN">
      <acc value="0.0999806621" flag="0"/>
      <vel value="0.0492892066" flag="0"/>
      <psa03 value="0.2689837249" flag="0"/>
      <psa10 value="0.0695510377" flag="0"/>
      <psa30 value="0.0033798726" flag="0"/>
    </comp>
    <comp name="--.HNE">
      <acc value="0.0536435015" flag="0"/>
      <vel value="0.0280671373" flag="0"/>
      <psa03 value="0.0963303033" flag="0"/>
      <psa10 value="0.0468072839" flag="0"/>
      <psa30 value="0.0026416091" flag="0"/>
    </comp>
  </station>
  <station code="GORD" name="GORD" netid="KO" insttype="CMG-5T" commtype="DIG" lat="38.9088" lon="28.1769">
    <comp name="--.HNE">
      <acc value="0.2173657291" flag="0"/>
      <vel value="0.1157837412" flag="0"/>
      <psa03 value="0.3370742359" flag="0"/>
      <psa10 value="0.1670260215" flag="0"/>
      <psa30 value="0.0102386057" flag="0"/>
    </comp>
    <comp name="--.HNN">
      <acc value="0.2617992330" flag="0"/>
      <vel value="0.1605629774" flag="0"/>
      <psa03 value="0.3593681798" flag="0"/>
      <psa10 value="0.1934184499" flag="0"/>
      <psa30 value="0.0182723859" flag="0"/>
    </comp>
    <comp name="--.HNZ">
      <acc value="0.1809419928" flag="0"/>
      <vel value="0.1312849454" flag="0"/>
      <psa03 value="0.3831482422" flag="0"/>
      <psa10 value="0.1527504148" flag="0"/>
      <psa30 value="0.0152049267" flag="0"/>
    </comp>
  </station>
  <station code="KULA" name="KULA" netid="KO" insttype="CMG-3T" commtype="DIG" lat="38.5145" lon="28.6607">
    <comp name="--.HHZ">
      <acc value="0.1210990052" flag="0"/>
      <vel value="0.0579606454" flag="0"/>
      <psa03 value="0.3989443867" flag="0"/>
      <psa10 value="0.0283516002" flag="0"/>
      <psa30 value="0.0029981718" flag="0"/>
    </comp>
    <comp name="--.HHE">
      <acc value="0.1456784838" flag="0"/>
      <vel value="0.0857576357" flag="0"/>
      <psa03 value="0.4138764231" flag="0"/>
      <psa10 value="0.0860453894" flag="0"/>
      <psa30 value="0.0045738539" flag="0"/>
    </comp>
    <comp name="--.HHN">
      <acc value="0.1903232015" flag="0"/>
      <vel value="0.0524041715" flag="0"/>
      <psa03 value="0.3254548306" flag="0"/>
      <psa10 value="0.0248542459" flag="0"/>
      <psa30 value="0.0020501496" flag="0"/>
    </comp>
  </station>
  <station code="ODEM" name="ODEM" netid="KO" insttype="CMG-5T" commtype="DIG" lat="38.2762" lon="28.0747">
    <comp name="--.HNE">
      <acc value="0.0432875974" flag="0"/>
      <vel value="0.0195677146" flag="0"/>
      <psa03 value="0.0996264525" flag="0"/>
      <psa10 value="0.0438016183" flag="0"/>
      <psa30 value="0.0014810699" flag="0"/>
    </comp>
    <comp name="--.HNN">
      <acc value="0.0369634153" flag="0"/>
      <vel value="0.0243576110" flag="0"/>
      <psa03 value="0.0993404683" flag="0"/>
      <psa10 value="0.0273391285" flag="0"/>
      <psa30 value="0.0020190663" flag="0"/>
    </comp>
    <comp name="--.HNZ">
      <acc value="0.0513516403" flag="0"/>
      <vel value="0.0212069280" flag="0"/>
      <psa03 value="0.0777588982" flag="0"/>
      <psa10 value="0.0372028914" flag="0"/>
      <psa30 value="0.0019333743" flag="0"/>
    </comp>
  </station>
  <station code="ORLT" name="ORLT" netid="KO" insttype="CMG-5T" commtype="DIG" lat="40.0452" lon="28.8914">
    <comp name="--.HNZ">
      <acc value="0.0382671547" flag="0"/>
      <vel value="0.0343301191" flag="0"/>
      <psa03 value="0.0997432851" flag="0"/>
      <psa10 value="0.0669512129" flag="0"/>
      <psa30 value="0.0036880145" flag="0"/>
    </comp>
    <comp name="--.HNE">
      <acc value="0.0978079308" flag="0"/>
      <vel value="0.0604471465" flag="0"/>
      <psa03 value="0.2629444683" flag="0"/>
      <psa10 value="0.0745286341" flag="0"/>
      <psa30 value="0.0040984750" flag="0"/>
    </comp>
    <comp name="--.HNN">
      <acc value="0.1149196198" flag="0"/>
      <vel value="0.0823183956" flag="0"/>
      <psa03 value="0.3742919827" flag="0"/>
      <psa10 value="0.1413076454" flag="0"/>
      <psa30 value="0.0062312868" flag="0"/>
    </comp>
  </station>
  <station code="SHAP" name="SHAP" netid="KO" insttype="CMG-5T" commtype="DIG" lat="39.0231" lon="29.222">
    <comp name="--.HNZ">
      <acc value="0.1889146814" flag="0"/>
      <vel value="0.0428922973" flag="0"/>
      <psa03 value="0.1779814602" flag="0"/>
      <psa10 value="0.0371276962" flag="0"/>
      <psa30 value="0.0016653058" flag="0"/>
    </comp>
    <comp name="--.HNN">
      <acc value="0.3075973836" flag="0"/>
      <vel value="0.1424497983" flag="0"/>
      <psa03 value="1.0258092183" flag="0"/>
      <psa10 value="0.0636656889" flag="0"/>
      <psa30 value="0.0038822549" flag="0"/>
    </comp>
    <comp name="--.HNE">
      <acc value="0.3057643763" flag="0"/>
      <vel value="0.1470472054" flag="0"/>
      <psa03 value="0.9375089186" flag="0"/>
      <psa10 value="0.0616296411" flag="0"/>
      <psa30 value="0.0038485290" flag="0"/>
    </comp>
  </station>
  <station code="SIMA" name="SIMA" netid="KO" insttype="CMG-6T" commtype="DIG" lat="39.0833" lon="28.9825">
    <comp name="--.HHE">
      <acc value="0.3758650649" flag="0"/>
      <vel value="0.0909330528" flag="0"/>
      <psa03 value="0.4840329488" flag="0"/>
      <psa10 value="0.0273278912" flag="0"/>
      <psa30 value="0.0032607387" flag="0"/>
    </comp>
    <comp name="--.HHN">
      <acc value="0.2890566947" flag="0"/>
      <vel value="0.1118439625" flag="0"/>
      <psa03 value="0.8562140886" flag="0"/>
      <psa10 value="0.0526514915" flag="0"/>
      <psa30 value="0.0056145164" flag="0"/>
    </comp>
    <comp name="--.HHZ">
      <acc value="0.2126200173" flag="0"/>
      <vel value="0.0481013040" flag="0"/>
      <psa03 value="0.2188786334" flag="0"/>
      <psa10 value="0.0323657287" flag="0"/>
      <psa30 value="0.0019231240" flag="0"/>
    </comp>
  </station>
  <station code="SOMA" name="SOMA" netid="KO" insttype="CMG-5T" commtype="DIG" lat="39.1564" lon="27.5341">
    <comp name="--.HNZ">
      <acc value="0.0618817657" flag="0"/>
      <vel value="0.0188016608" flag="0"/>
      <psa03 value="0.0594975877" flag="0"/>
      <psa10 value="0.0102532938" flag="0"/>
      <psa30 value="0.0019593013" flag="0"/>
    </comp>
    <comp name="--.HNN">
      <acc value="0.0728598004" flag="0"/>
      <vel value="0.0285581853" flag="0"/>
      <psa03 value="0.1755048965" flag="0"/>
      <psa10 value="0.0212046606" flag="0"/>
      <psa30 value="0.0018783086" flag="0"/>
    </comp>
    <comp name="--.HNE">
      <acc value="0.0887225889" flag="0"/>
      <vel value="0.0266222243" flag="0"/>
      <psa03 value="0.1722934932" flag="0"/>
      <psa10 value="0.0155004464" flag="0"/>
      <psa30 value="0.0022306176" flag="0"/>
    </comp>
  </station>
  <station code="SUSR" name="SUSR" netid="KO" insttype="CMG-5T" commtype="DIG" lat="39.9627" lon="28.0835">
    <comp name="--.HNE">
      <acc value="0.0623339123" flag="0"/>
      <vel value="0.0171661360" flag="0"/>
      <psa03 value="0.0757498688" flag="0"/>
      <psa10 value="0.0121152141" flag="0"/>
      <psa30 value="0.0010273733" flag="0"/>
    </comp>
    <comp name="--.HNN">
      <acc value="0.0605118698" flag="0"/>
      <vel value="0.0172566499" flag="0"/>
      <psa03 value="0.1563291203" flag="0"/>
      <psa10 value="0.0102742770" flag="0"/>
      <psa30 value="0.0008310322" flag="0"/>
    </comp>
    <comp name="--.HNZ">
      <acc value="0.0607944005" flag="0"/>
      <vel value="0.0149325865" flag="0"/>
      <psa03 value="0.0690238077" flag="0"/>
      <psa10 value="0.0065797931" flag="0"/>
      <psa30 value="0.0008192878" flag="0"/>
    </comp>
  </station>
  <station code="TVSB" name="TVSB" netid="KO" insttype="CMG-3T" commtype="DIG" lat="39.4497" lon="29.4615">
    <comp name="--.HHE">
      <acc value="0.1196950382" flag="0"/>
      <vel value="0.0622237152" flag="0"/>
      <psa03 value="0.2440940043" flag="0"/>
      <psa10 value="0.0577410154" flag="0"/>
      <psa30 value="0.0034487027" flag="0"/>
    </comp>
    <comp name="--.HHN">
      <acc value="0.1660468756" flag="0"/>
      <vel value="0.1002824031" flag="0"/>
      <psa03 value="0.3727736921" flag="0"/>
      <psa10 value="0.0764727031" flag="0"/>
      <psa30 value="0.0048827250" flag="0"/>
    </comp>
    <comp name="--.HHZ">
      <acc value="0.0627443432" flag="0"/>
      <vel value="0.0340608972" flag="0"/>
      <psa03 value="0.1791235762" flag="0"/>
      <psa10 value="0.0259801888" flag="0"/>
      <psa30 value="0.0018111882" flag="0"/>
    </comp>
  </station>
  <station code="YAYO" name="YAYO" netid="KO" insttype="CMG-6T" commtype="DIG" lat="39.6113" lon="27.0726">
    <comp name="--.HHN">
      <acc value="0.0213099539" flag="0"/>
      <vel value="0.0169819645" flag="0"/>
      <psa03 value="0.0460554086" flag="0"/>
      <psa10 value="0.0259897835" flag="0"/>
      <psa30 value="0.0017942785" flag="0"/>
    </comp>
    <comp name="--.HHZ">
      <acc value="0.0231248626" flag="0"/>
      <vel value="0.0146466127" flag="0"/>
      <psa03 value="0.0291805093" flag="0"/>
      <psa10 value="0.0118512762" flag="0"/>
      <psa30 value="0.0009851104" flag="0"/>
    </comp>
    <comp name="--.HHE">
      <acc value="0.0192635099" flag="0"/>
      <vel value="0.0149564823" flag="0"/>
      <psa03 value="0.0448557005" flag="0"/>
      <psa10 value="0.0184835260" flag="0"/>
      <psa30 value="0.0011705330" flag="0"/>
    </comp>
  </station>
</stationlist>
