<stationlist created="1778069649">
	<station code="IMMV" name="IMMV" netid="GE" source="GEOFON" insttype="" lat="35.4606" lon="23.9811">
		<comp name="--.HNE" depth="0.0">
			<acc value="0.00303251696769834" flag="0"/>
			<vel value="0.00400793067691894" flag="0"/>
			<psa03 value="0.0114987471008958" flag="0"/>
			<psa10 value="0.00533550813922891" flag="0"/>
			<psa30 value="0.000782541193753573" flag="0"/>
		</comp>
		<comp name="--.HNN" depth="0.0">
			<acc value="0.00268343568933913" flag="0"/>
			<vel value="0.00309994933226786" flag="0"/>
			<psa03 value="0.00639813554641286" flag="0"/>
			<psa10 value="0.00669656606455673" flag="0"/>
			<psa30 value="0.00082817824450421" flag="0"/>
		</comp>
		<comp name="--.HNZ" depth="0.0">
			<acc value="0.00199075600545149" flag="0"/>
			<vel value="0.00192285401798623" flag="0"/>
			<psa03 value="0.00747194850525138" flag="0"/>
			<psa10 value="0.00319325128634605" flag="0"/>
			<psa30 value="0.000441605579322342" flag="0"/>
		</comp>
	</station>
	<station code="SIT2" name="SIT2" netid="HI" source="ITSAK Strong Motion Network" insttype="" lat="35.2059" lon="26.107">
		<comp name="--.HNE" depth="0.0">
			<acc value="0.0778167836251827" flag="0"/>
			<vel value="0.0591280391526951" flag="0"/>
			<psa03 value="0.207514354295544" flag="0"/>
			<psa10 value="0.0434249960554298" flag="0"/>
			<psa30 value="0.00326662850520002" flag="0"/>
		</comp>
		<comp name="--.HNN" depth="0.0">
			<acc value="0.09163846051581" flag="0"/>
			<vel value="0.0666910488174135" flag="0"/>
			<psa03 value="0.294940626027647" flag="0"/>
			<psa10 value="0.0500571333424562" flag="0"/>
			<psa30 value="0.00294627430581319" flag="0"/>
		</comp>
		<comp name="--.HNZ" depth="0.0">
			<acc value="0.0573940738981963" flag="0"/>
			<vel value="0.0219211453353512" flag="0"/>
			<psa03 value="0.15172082264256" flag="0"/>
			<psa10 value="0.0117703322950687" flag="0"/>
			<psa30 value="0.00138029707417368" flag="0"/>
		</comp>
	</station>
	<station code="IACM" name="IACM" netid="HL" source="National Observatory of Athens Seismic Network" insttype="" lat="35.3058" lon="25.0709">
		<comp name="--.HNE" depth="0.0">
			<acc value="0.0283605473912577" flag="0"/>
			<vel value="0.0288765720092637" flag="0"/>
			<psa03 value="0.0826835978305662" flag="0"/>
			<psa10 value="0.0675455196433401" flag="0"/>
			<psa30 value="0.00511582390473319" flag="0"/>
		</comp>
		<comp name="--.HNN" depth="0.0">
			<acc value="0.0281022626244685" flag="0"/>
			<vel value="0.0309375944866058" flag="0"/>
			<psa03 value="0.0742720629863311" flag="0"/>
			<psa10 value="0.0699454916063442" flag="0"/>
			<psa30 value="0.00290376920952584" flag="0"/>
		</comp>
		<comp name="--.HNZ" depth="0.0">
			<acc value="0.0190188973771199" flag="0"/>
			<vel value="0.0139390898429275" flag="0"/>
			<psa03 value="0.042147158634412" flag="0"/>
			<psa10 value="0.0160387388064519" flag="0"/>
			<psa30 value="0.00113734689223647" flag="0"/>
		</comp>
	</station>
	<station code="IMMV" name="IMMV" netid="HL" source="National Observatory of Athens Seismic Network" insttype="" lat="35.4606" lon="23.9811">
		<comp name="--.HNE" depth="0.0">
			<acc value="0.00297098758556959" flag="0"/>
			<vel value="0.00392662329417467" flag="0"/>
			<psa03 value="0.0112302938611862" flag="0"/>
			<psa10 value="0.00523081137574215" flag="0"/>
			<psa30 value="0.000766881421437178" flag="0"/>
		</comp>
		<comp name="--.HNN" depth="0.0">
			<acc value="0.00262900643159924" flag="0"/>
			<vel value="0.00303701312559326" flag="0"/>
			<psa03 value="0.00626390892655805" flag="0"/>
			<psa10 value="0.00655965491230482" flag="0"/>
			<psa30 value="0.000811623628055449" flag="0"/>
		</comp>
		<comp name="--.HNZ" depth="0.0">
			<acc value="0.00195037201601521" flag="0"/>
			<vel value="0.00188381972988901" flag="0"/>
			<psa03 value="0.00733772188539657" flag="0"/>
			<psa10 value="0.00312882250881574" flag="0"/>
			<psa30 value="0.000432657137998688" flag="0"/>
		</comp>
	</station>
</stationlist>
