<?xml version="1.0" encoding="UTF-8" standalone="yes"?>
<!DOCTYPE earthquake SYSTEM "stationlist.dtd">
<stationlist created="" xmlns="ch.ethz.sed.shakemap.usgs.xml">
  <station code="NPS" name="NPS" netid="HL" insttype="CMG3ESPC-120s" lat="35.2613" lon="25.6104">
    <comp name="--.HHZ">
      <acc value="0.0097320248" flag="0"/>
      <vel value="0.0038095099" flag="0"/>
      <psa03 value="0.0168356166" flag="0"/>
      <psa10 value="0.0056092240" flag="0"/>
      <psa30 value="0.0010382660" flag="0"/>
    </comp>
    <comp name="--.HHE">
      <acc value="0.0053068740" flag="0"/>
      <vel value="0.0027730358" flag="0"/>
      <psa03 value="0.0116814089" flag="0"/>
      <psa10 value="0.0037798455" flag="0"/>
      <psa30 value="0.0003204309" flag="0"/>
    </comp>
  </station>
</stationlist>
