<?xml version="1.0" encoding="UTF-8" standalone="yes"?>
<!DOCTYPE earthquake SYSTEM "stationlist.dtd">
<stationlist created="" xmlns="ch.ethz.sed.shakemap.usgs.xml">
  <station code="ZKR" name="ZKR" netid="GE" insttype="STS-2/N" commtype="DIG" lat="35.1147" lon="26.2169">
    <comp name="--.HHZ">
      <acc value="0.4325110813" flag="0"/>
      <vel value="0.1791653312" flag="0"/>
      <psa03 value="0.7684571724" flag="0"/>
      <psa10 value="0.1382929221" flag="0"/>
      <psa30 value="0.0278655826" flag="0"/>
    </comp>
    <comp name="--.HHE">
      <acc value="0.6214559818" flag="0"/>
      <vel value="0.3328298500" flag="0"/>
      <psa03 value="1.5586535244" flag="0"/>
      <psa10 value="0.2100881884" flag="0"/>
      <psa30 value="0.0289702276" flag="0"/>
    </comp>
    <comp name="--.HHN">
      <acc value="0.3588784351" flag="0"/>
      <vel value="0.1301833050" flag="0"/>
      <psa03 value="1.1323768700" flag="0"/>
      <psa10 value="0.1037483036" flag="0"/>
      <psa30 value="0.0145574915" flag="0"/>
    </comp>
  </station>
  <station code="IMOD" name="IMOD" netid="HC" insttype="120" commtype="DIG" lat="34.9731" lon="24.7995">
    <comp name="--.HHE">
      <acc value="0.4970702532" flag="0"/>
      <vel value="0.4873594094" flag="0"/>
      <psa03 value="1.1076757422" flag="0"/>
      <psa10 value="0.4029224592" flag="0"/>
      <psa30 value="0.0357831722" flag="0"/>
    </comp>
    <comp name="--.HHZ">
      <acc value="0.2032187446" flag="0"/>
      <vel value="0.1561733177" flag="0"/>
      <psa03 value="0.6147568525" flag="0"/>
      <psa10 value="0.1646021139" flag="0"/>
      <psa30 value="0.0084180264" flag="0"/>
    </comp>
    <comp name="--.HHN">
      <acc value="0.3770843635" flag="0"/>
      <vel value="0.3800611589" flag="0"/>
      <psa03 value="0.9289695018" flag="0"/>
      <psa10 value="0.4448386898" flag="0"/>
      <psa30 value="0.0241223341" flag="0"/>
    </comp>
  </station>
  <station code="IPPL" name="IPPL" netid="HC" insttype="60" commtype="DIG" lat="35.3486" lon="24.4632">
    <comp name="--.HHE">
      <acc value="0.0000000000" flag="0"/>
      <vel value="-100.0000000000" flag="0"/>
      <psa03 value="0.0000000000" flag="0"/>
      <psa10 value="0.0000000000" flag="0"/>
      <psa30 value="0.0000000000" flag="0"/>
    </comp>
    <comp name="--.HHN">
      <acc value="0.0000000000" flag="0"/>
      <vel value="-100.0000000000" flag="0"/>
      <psa03 value="0.0000000000" flag="0"/>
      <psa10 value="0.0000000000" flag="0"/>
      <psa30 value="0.0000000000" flag="0"/>
    </comp>
    <comp name="--.HHZ">
      <acc value="0.0810304561" flag="0"/>
      <vel value="0.0525005248" flag="0"/>
      <psa03 value="0.2512638043" flag="0"/>
      <psa10 value="0.0706063853" flag="0"/>
      <psa30 value="0.0080358935" flag="0"/>
    </comp>
  </station>
  <station code="KNSS" name="KNSS" netid="HC" insttype="60" commtype="DIG" lat="35.3042" lon="25.1802">
    <comp name="--.HHE">
      <acc value="0.0002080527" flag="0"/>
      <vel value="-100.0000000000" flag="0"/>
      <psa03 value="0.0000001366" flag="0"/>
      <psa10 value="0.0000001386" flag="0"/>
      <psa30 value="0.0000001038" flag="0"/>
    </comp>
    <comp name="--.HHN">
      <acc value="0.2050013735" flag="0"/>
      <vel value="0.1252528271" flag="0"/>
      <psa03 value="0.8151448305" flag="0"/>
      <psa10 value="0.1241451463" flag="0"/>
      <psa30 value="0.0194499466" flag="0"/>
    </comp>
    <comp name="--.HHZ">
      <acc value="0.1506854770" flag="0"/>
      <vel value="0.0958245376" flag="0"/>
      <psa03 value="0.4062161455" flag="0"/>
      <psa10 value="0.1175428014" flag="0"/>
      <psa30 value="0.0127991918" flag="0"/>
    </comp>
  </station>
  <station code="STIA" name="STIA" netid="HC" insttype="120" commtype="DIG" lat="35.2021" lon="26.0909">
    <comp name="--.HHE">
      <acc value="0.6242246446" flag="0"/>
      <vel value="0.2618525974" flag="0"/>
      <psa03 value="1.0609988370" flag="0"/>
      <psa10 value="0.4167942160" flag="0"/>
      <psa30 value="0.0303901176" flag="0"/>
    </comp>
    <comp name="--.HHN">
      <acc value="0.0000000000" flag="0"/>
      <vel value="-100.0000000000" flag="0"/>
      <psa03 value="0.0000000000" flag="0"/>
      <psa10 value="0.0000000000" flag="0"/>
      <psa30 value="0.0000000000" flag="0"/>
    </comp>
    <comp name="--.HHZ">
      <acc value="0.6687594727" flag="0"/>
      <vel value="0.2557428497" flag="0"/>
      <psa03 value="0.8822720059" flag="0"/>
      <psa10 value="0.2164017734" flag="0"/>
      <psa30 value="0.0230345223" flag="0"/>
    </comp>
  </station>
  <station code="TEFL" name="TEFL" netid="HC" insttype="GEOtiny," commtype="DIG" lat="35.0933" lon="25.1634">
    <comp name="--.HHN">
      <acc value="1.5636524811" flag="0"/>
      <vel value="0.8714617443" flag="0"/>
      <psa03 value="4.1001144192" flag="0"/>
      <psa10 value="0.6239709443" flag="0"/>
      <psa30 value="0.0408206395" flag="0"/>
    </comp>
    <comp name="--.HHE">
      <acc value="0.9886011881" flag="0"/>
      <vel value="0.5399120076" flag="0"/>
      <psa03 value="3.2713353122" flag="0"/>
      <psa10 value="0.7180467835" flag="0"/>
      <psa30 value="0.0597943568" flag="0"/>
    </comp>
    <comp name="--.HHZ">
      <acc value="0.5764598879" flag="0"/>
      <vel value="0.3710435084" flag="0"/>
      <psa03 value="1.9881028587" flag="0"/>
      <psa10 value="0.3390281137" flag="0"/>
      <psa30 value="0.0288319795" flag="0"/>
    </comp>
  </station>
  <station code="AGN1" name="AGN1" netid="HI" insttype="unknown" commtype="DIG" lat="35.1879" lon="25.7155">
    <comp name="--.HNE">
      <acc value="1.1898113333" flag="0"/>
      <vel value="0.4950074191" flag="0"/>
      <psa03 value="3.5362754076" flag="0"/>
      <psa10 value="0.4811058662" flag="0"/>
      <psa30 value="0.0404679052" flag="0"/>
    </comp>
    <comp name="--.HNZ">
      <acc value="0.6559439944" flag="0"/>
      <vel value="0.2193614529" flag="0"/>
      <psa03 value="1.0979565241" flag="0"/>
      <psa10 value="0.2284116116" flag="0"/>
      <psa30 value="0.0199901924" flag="0"/>
    </comp>
    <comp name="--.HNN">
      <acc value="1.3630575939" flag="0"/>
      <vel value="0.4032409505" flag="0"/>
      <psa03 value="1.7485039737" flag="0"/>
      <psa10 value="0.4414353903" flag="0"/>
      <psa30 value="0.0262798579" flag="0"/>
    </comp>
  </station>
  <station code="ARK1" name="ARK1" netid="HI" insttype="unknown" commtype="DIG" lat="35.1488" lon="25.2642">
    <comp name="--.HNE">
      <acc value="0.6675124447" flag="0"/>
      <vel value="0.3320192897" flag="0"/>
      <psa03 value="1.9875441439" flag="0"/>
      <psa10 value="0.3301414087" flag="0"/>
      <psa30 value="0.0405794651" flag="0"/>
    </comp>
    <comp name="--.HNN">
      <acc value="0.5910039582" flag="0"/>
      <vel value="0.2887406304" flag="0"/>
      <psa03 value="1.8314620689" flag="0"/>
      <psa10 value="0.3394202508" flag="0"/>
      <psa30 value="0.0348128937" flag="0"/>
    </comp>
    <comp name="--.HNZ">
      <acc value="0.5607320984" flag="0"/>
      <vel value="0.3174573958" flag="0"/>
      <psa03 value="1.7361592780" flag="0"/>
      <psa10 value="0.3575095038" flag="0"/>
      <psa30 value="0.0344514185" flag="0"/>
    </comp>
  </station>
  <station code="GOR1" name="GOR1" netid="HI" insttype="unknown" commtype="DIG" lat="35.0582" lon="24.9628">
    <comp name="--.HNE">
      <acc value="0.3285729794" flag="0"/>
      <vel value="0.3935544101" flag="0"/>
      <psa03 value="1.0989019328" flag="0"/>
      <psa10 value="0.5571326104" flag="0"/>
      <psa30 value="0.0386782606" flag="0"/>
    </comp>
    <comp name="--.HNN">
      <acc value="0.4572615917" flag="0"/>
      <vel value="0.3303700628" flag="0"/>
      <psa03 value="1.3119304682" flag="0"/>
      <psa10 value="0.4885108222" flag="0"/>
      <psa30 value="0.0390326725" flag="0"/>
    </comp>
    <comp name="--.HNZ">
      <acc value="0.2800728242" flag="0"/>
      <vel value="0.2307513722" flag="0"/>
      <psa03 value="0.6526526806" flag="0"/>
      <psa10 value="0.3933087184" flag="0"/>
      <psa30 value="0.0236840548" flag="0"/>
    </comp>
  </station>
  <station code="HER1" name="HER1" netid="HI" insttype="unknown" commtype="DIG" lat="35.3177" lon="25.1022">
    <comp name="--.HNZ">
      <acc value="0.4554503279" flag="0"/>
      <vel value="0.4094261809" flag="0"/>
      <psa03 value="1.0803326019" flag="0"/>
      <psa10 value="0.8059954443" flag="0"/>
      <psa30 value="0.0268126537" flag="0"/>
    </comp>
    <comp name="--.HNE">
      <acc value="0.5462504449" flag="0"/>
      <vel value="0.7469957927" flag="0"/>
      <psa03 value="1.0400301848" flag="0"/>
      <psa10 value="1.2427531858" flag="0"/>
      <psa30 value="0.0666113253" flag="0"/>
    </comp>
    <comp name="--.HNN">
      <acc value="0.5632252526" flag="0"/>
      <vel value="0.6777846647" flag="0"/>
      <psa03 value="1.2628185760" flag="0"/>
      <psa10 value="1.1003972343" flag="0"/>
      <psa30 value="0.0846711051" flag="0"/>
    </comp>
  </station>
  <station code="HER3" name="HER3" netid="HI" insttype="unknown" commtype="DIG" lat="35.3296" lon="25.1065">
    <comp name="--.HNN">
      <acc value="0.5587664083" flag="0"/>
      <vel value="0.5988269452" flag="0"/>
      <psa03 value="1.2930326165" flag="0"/>
      <psa10 value="0.9012044671" flag="0"/>
      <psa30 value="0.0662551297" flag="0"/>
    </comp>
    <comp name="--.HNZ">
      <acc value="0.3429404612" flag="0"/>
      <vel value="0.3070576182" flag="0"/>
      <psa03 value="0.8289571926" flag="0"/>
      <psa10 value="0.3807805626" flag="0"/>
      <psa30 value="0.0233288262" flag="0"/>
    </comp>
    <comp name="--.HNE">
      <acc value="0.5457090501" flag="0"/>
      <vel value="0.5060670151" flag="0"/>
      <psa03 value="1.5287883472" flag="0"/>
      <psa10 value="1.2209015057" flag="0"/>
      <psa30 value="0.0458496179" flag="0"/>
    </comp>
  </station>
  <station code="KSS1" name="KSS1" netid="HI" insttype="CMG-5TD,ACCELEROMETER,GURALP" commtype="DIG" lat="35.4189" lon="26.9207">
    <comp name="--.HNN">
      <acc value="0.0598631363" flag="0"/>
      <vel value="0.0391105100" flag="0"/>
      <psa03 value="0.1999757838" flag="0"/>
      <psa10 value="0.0372209696" flag="0"/>
      <psa30 value="0.0125945321" flag="0"/>
    </comp>
    <comp name="--.HNE">
      <acc value="0.0290925346" flag="0"/>
      <vel value="0.0226435580" flag="0"/>
      <psa03 value="0.1150389669" flag="0"/>
      <psa10 value="0.0403039285" flag="0"/>
      <psa30 value="0.0082329908" flag="0"/>
    </comp>
    <comp name="--.HNZ">
      <acc value="0.0298016550" flag="0"/>
      <vel value="0.0220958051" flag="0"/>
      <psa03 value="0.0496821950" flag="0"/>
      <psa10 value="0.0355795352" flag="0"/>
      <psa30 value="0.0050968611" flag="0"/>
    </comp>
  </station>
  <station code="KTL1" name="KTL1" netid="HI" insttype="unknown" commtype="DIG" lat="35.2078" lon="25.3427">
    <comp name="--.HNE">
      <acc value="0.7213765403" flag="0"/>
      <vel value="0.3228112152" flag="0"/>
      <psa03 value="3.1397045023" flag="0"/>
      <psa10 value="0.2381167661" flag="0"/>
      <psa30 value="0.0232129179" flag="0"/>
    </comp>
    <comp name="--.HNN">
      <acc value="0.5973174082" flag="0"/>
      <vel value="0.3107425191" flag="0"/>
      <psa03 value="2.2521596043" flag="0"/>
      <psa10 value="0.2973902220" flag="0"/>
      <psa30 value="0.0233425701" flag="0"/>
    </comp>
    <comp name="--.HNZ">
      <acc value="0.3607105301" flag="0"/>
      <vel value="0.2230496819" flag="0"/>
      <psa03 value="0.8853816780" flag="0"/>
      <psa10 value="0.1559811197" flag="0"/>
      <psa30 value="0.0217115234" flag="0"/>
    </comp>
  </station>
  <station code="AGNA" name="AGNA" netid="HL" insttype="CMG-5" commtype="DIG" lat="35.1895" lon="25.7185">
    <comp name="00.HNN">
      <acc value="0.7957444619" flag="0"/>
      <vel value="0.4623779678" flag="0"/>
      <psa03 value="1.7486486783" flag="0"/>
      <psa10 value="0.7191165359" flag="0"/>
      <psa30 value="0.0403651676" flag="0"/>
    </comp>
    <comp name="00.HNZ">
      <acc value="0.5025239035" flag="0"/>
      <vel value="0.2505974155" flag="0"/>
      <psa03 value="1.0325114693" flag="0"/>
      <psa10 value="0.2462122835" flag="0"/>
      <psa30 value="0.0225982540" flag="0"/>
    </comp>
    <comp name="00.HNE">
      <acc value="0.4475571806" flag="0"/>
      <vel value="0.3684047178" flag="0"/>
      <psa03 value="1.1547084827" flag="0"/>
      <psa10 value="0.4147809607" flag="0"/>
      <psa30 value="0.0365069916" flag="0"/>
    </comp>
  </station>
  <station code="HERG" name="HERG" netid="HL" insttype="CMG-5" commtype="DIG" lat="35.3262" lon="25.0659">
    <comp name="00.HNE">
      <acc value="0.4089617626" flag="0"/>
      <vel value="0.4918118093" flag="0"/>
      <psa03 value="0.9059583298" flag="0"/>
      <psa10 value="0.8285957999" flag="0"/>
      <psa30 value="0.0575209057" flag="0"/>
    </comp>
    <comp name="00.HNN">
      <acc value="0.3374746380" flag="0"/>
      <vel value="0.3999756869" flag="0"/>
      <psa03 value="0.9797507817" flag="0"/>
      <psa10 value="0.6740086571" flag="0"/>
      <psa30 value="0.0456837082" flag="0"/>
    </comp>
    <comp name="00.HNZ">
      <acc value="0.2799436598" flag="0"/>
      <vel value="0.2525224219" flag="0"/>
      <psa03 value="0.5475145668" flag="0"/>
      <psa10 value="0.2904823476" flag="0"/>
      <psa30 value="0.0188705470" flag="0"/>
    </comp>
  </station>
  <station code="IACM" name="IACM" netid="HL" insttype="120" commtype="DIG" lat="35.3058" lon="25.0709">
    <comp name="--.HHE">
      <acc value="0.7684611345" flag="0"/>
      <vel value="0.7300165516" flag="0"/>
      <psa03 value="1.9987425736" flag="0"/>
      <psa10 value="1.0236099080" flag="0"/>
      <psa30 value="0.0617435363" flag="0"/>
    </comp>
    <comp name="--.HHN">
      <acc value="0.6230433914" flag="0"/>
      <vel value="0.5943368681" flag="0"/>
      <psa03 value="2.0715665793" flag="0"/>
      <psa10 value="1.0140375992" flag="0"/>
      <psa30 value="0.0484293947" flag="0"/>
    </comp>
    <comp name="--.HHZ">
      <acc value="0.4211914142" flag="0"/>
      <vel value="0.3258780192" flag="0"/>
      <psa03 value="1.2369391263" flag="0"/>
      <psa10 value="0.4292224372" flag="0"/>
      <psa30 value="0.0243168790" flag="0"/>
    </comp>
  </station>
  <station code="NPS" name="NPS" netid="HL" insttype="CMG3ESPC-120s" commtype="DIG" lat="35.2613" lon="25.6104">
    <comp name="--.HHE">
      <acc value="0.1681804541" flag="0"/>
      <vel value="0.0922738403" flag="0"/>
      <psa03 value="0.4079402077" flag="0"/>
      <psa10 value="0.1772902875" flag="0"/>
      <psa30 value="0.0062059109" flag="0"/>
    </comp>
    <comp name="--.HHN">
      <acc value="0.6180122287" flag="0"/>
      <vel value="0.1907428320" flag="0"/>
      <psa03 value="1.5075370072" flag="0"/>
      <psa10 value="0.2276349149" flag="0"/>
      <psa30 value="0.0190426854" flag="0"/>
    </comp>
    <comp name="--.HHZ">
      <acc value="0.3424122647" flag="0"/>
      <vel value="0.1242866404" flag="0"/>
      <psa03 value="0.8949770137" flag="0"/>
      <psa10 value="0.1861564147" flag="0"/>
      <psa30 value="0.0190888100" flag="0"/>
    </comp>
  </station>
  <station code="SIVA" name="SIVA" netid="HL" insttype="60" commtype="DIG" lat="35.0178" lon="24.812">
    <comp name="--.HHN">
      <acc value="0.3394968868" flag="0"/>
      <vel value="0.2820127622" flag="0"/>
      <psa03 value="1.0135460947" flag="0"/>
      <psa10 value="0.3053466445" flag="0"/>
      <psa30 value="0.0202734302" flag="0"/>
    </comp>
    <comp name="--.HHZ">
      <acc value="0.2416152509" flag="0"/>
      <vel value="0.1839315129" flag="0"/>
      <psa03 value="0.4893186189" flag="0"/>
      <psa10 value="0.1483558059" flag="0"/>
      <psa30 value="0.0109760451" flag="0"/>
    </comp>
    <comp name="--.HHE">
      <acc value="0.4000280480" flag="0"/>
      <vel value="0.2929846254" flag="0"/>
      <psa03 value="0.9198426260" flag="0"/>
      <psa10 value="0.4965484191" flag="0"/>
      <psa30 value="0.0280873614" flag="0"/>
    </comp>
  </station>
</stationlist>
