<?xml version="1.0" encoding="UTF-8" standalone="yes"?>
<!DOCTYPE earthquake SYSTEM "stationlist.dtd">
<stationlist created="" xmlns="ch.ethz.sed.shakemap.usgs.xml">
  <station code="IMMV" name="IMMV" netid="GE" insttype="STS-2/N" commtype="DIG" lat="35.4606" lon="23.9811">
    <comp name="--.HHE">
      <acc value="0.0520977877" flag="0"/>
      <vel value="0.0776371876" flag="0"/>
      <psa03 value="0.1547064110" flag="0"/>
      <psa10 value="0.1452301300" flag="0"/>
      <psa30 value="0.0110101413" flag="0"/>
    </comp>
    <comp name="--.HHN">
      <acc value="0.0614041383" flag="0"/>
      <vel value="0.0542434942" flag="0"/>
      <psa03 value="0.2211807585" flag="0"/>
      <psa10 value="0.1205617985" flag="0"/>
      <psa30 value="0.0108725228" flag="0"/>
    </comp>
    <comp name="--.HHZ">
      <acc value="0.0495715588" flag="0"/>
      <vel value="0.0535905188" flag="0"/>
      <psa03 value="0.1155816952" flag="0"/>
      <psa10 value="0.0835766869" flag="0"/>
      <psa30 value="0.0123056171" flag="0"/>
    </comp>
  </station>
  <station code="THERA" name="THERA" netid="GE" insttype="STS-2/N" commtype="DIG" lat="36.367" lon="25.4753">
    <comp name="--.HHN">
      <acc value="0.0231989329" flag="0"/>
      <vel value="0.0153779912" flag="0"/>
      <psa03 value="0.1011810891" flag="0"/>
      <psa10 value="0.0183441555" flag="0"/>
      <psa30 value="0.0038189853" flag="0"/>
    </comp>
    <comp name="--.HHE">
      <acc value="0.0441419440" flag="0"/>
      <vel value="0.0392641617" flag="0"/>
      <psa03 value="0.1605982285" flag="0"/>
      <psa10 value="0.0561496976" flag="0"/>
      <psa30 value="0.0102883741" flag="0"/>
    </comp>
    <comp name="--.HHZ">
      <acc value="0.0264294597" flag="0"/>
      <vel value="0.0187210732" flag="0"/>
      <psa03 value="0.0832062515" flag="0"/>
      <psa10 value="0.0314868183" flag="0"/>
      <psa30 value="0.0056709364" flag="0"/>
    </comp>
  </station>
  <station code="ZKR" name="ZKR" netid="GE" insttype="STS-2/N" commtype="DIG" lat="35.1147" lon="26.2169">
    <comp name="--.HHN">
      <acc value="0.3591966894" flag="0"/>
      <vel value="0.1334829387" flag="0"/>
      <psa03 value="1.1320909981" flag="0"/>
      <psa10 value="0.1043450609" flag="0"/>
      <psa30 value="0.0170183133" flag="0"/>
    </comp>
    <comp name="--.HHE">
      <acc value="0.6225451608" flag="0"/>
      <vel value="0.3356448286" flag="0"/>
      <psa03 value="1.5580012825" flag="0"/>
      <psa10 value="0.2099508181" flag="0"/>
      <psa30 value="0.0323017144" flag="0"/>
    </comp>
    <comp name="--.HHZ">
      <acc value="0.4330358621" flag="0"/>
      <vel value="0.1843563073" flag="0"/>
      <psa03 value="0.7676795242" flag="0"/>
      <psa10 value="0.1388287524" flag="0"/>
      <psa30 value="0.0317345499" flag="0"/>
    </comp>
  </station>
  <station code="SNT1" name="SNT1" netid="HA" insttype="30" commtype="DIG" lat="36.4159" lon="25.4282">
    <comp name="--.HHN">
      <acc value="0.0262721987" flag="0"/>
      <vel value="0.0297761564" flag="0"/>
      <psa03 value="0.0552892575" flag="0"/>
      <psa10 value="0.0470141114" flag="0"/>
      <psa30 value="0.0060981279" flag="0"/>
    </comp>
    <comp name="--.HHE">
      <acc value="0.0218226345" flag="0"/>
      <vel value="0.0326813249" flag="0"/>
      <psa03 value="0.0542138676" flag="0"/>
      <psa10 value="0.0544795443" flag="0"/>
      <psa30 value="0.0086402216" flag="0"/>
    </comp>
    <comp name="--.HHZ">
      <acc value="0.0161609745" flag="0"/>
      <vel value="0.0151260939" flag="0"/>
      <psa03 value="0.0352413468" flag="0"/>
      <psa10 value="0.0170501351" flag="0"/>
      <psa30 value="0.0025184919" flag="0"/>
    </comp>
  </station>
  <station code="SNT5" name="SNT5" netid="HA" insttype="1s-100Hz," commtype="DIG" lat="36.4037" lon="25.3953">
    <comp name="--.HHE">
      <acc value="0.0609328284" flag="0"/>
      <vel value="0.0403764500" flag="0"/>
      <psa03 value="0.1919673543" flag="0"/>
      <psa10 value="0.0450379125" flag="0"/>
      <psa30 value="0.0126488625" flag="0"/>
    </comp>
    <comp name="--.HHN">
      <acc value="0.0356872695" flag="0"/>
      <vel value="0.0231789882" flag="0"/>
      <psa03 value="0.1109232463" flag="0"/>
      <psa10 value="0.0310053965" flag="0"/>
      <psa30 value="0.0065793518" flag="0"/>
    </comp>
    <comp name="--.HHZ">
      <acc value="0.0125569134" flag="0"/>
      <vel value="0.0134656560" flag="0"/>
      <psa03 value="0.0332964748" flag="0"/>
      <psa10 value="0.0222822409" flag="0"/>
      <psa30 value="0.0020793157" flag="0"/>
    </comp>
  </station>
  <station code="CHAN" name="CHAN" netid="HC" insttype="120" commtype="DIG" lat="35.5193" lon="24.0428">
    <comp name="--.HHE">
      <acc value="0.0937074510" flag="0"/>
      <vel value="0.1350875196" flag="0"/>
      <psa03 value="0.2143449944" flag="0"/>
      <psa10 value="0.3042380930" flag="0"/>
      <psa30 value="0.0352035886" flag="0"/>
    </comp>
    <comp name="--.HHN">
      <acc value="0.0992061259" flag="0"/>
      <vel value="0.1288301502" flag="0"/>
      <psa03 value="0.2065157201" flag="0"/>
      <psa10 value="0.3380951487" flag="0"/>
      <psa30 value="0.0363497742" flag="0"/>
    </comp>
    <comp name="--.HHZ">
      <acc value="0.0702288588" flag="0"/>
      <vel value="0.0876080278" flag="0"/>
      <psa03 value="0.1566133870" flag="0"/>
      <psa10 value="0.1249230595" flag="0"/>
      <psa30 value="0.0172466275" flag="0"/>
    </comp>
  </station>
  <station code="IMOD" name="IMOD" netid="HC" insttype="120" commtype="DIG" lat="34.9731" lon="24.7995">
    <comp name="--.HHN">
      <acc value="0.3774980952" flag="0"/>
      <vel value="0.3792395414" flag="0"/>
      <psa03 value="0.9282427162" flag="0"/>
      <psa10 value="0.4452633245" flag="0"/>
      <psa30 value="0.0232563140" flag="0"/>
    </comp>
    <comp name="--.HHE">
      <acc value="0.4972481158" flag="0"/>
      <vel value="0.4852437840" flag="0"/>
      <psa03 value="1.1075497137" flag="0"/>
      <psa10 value="0.4033669813" flag="0"/>
      <psa30 value="0.0379906184" flag="0"/>
    </comp>
    <comp name="--.HHZ">
      <acc value="0.2027723559" flag="0"/>
      <vel value="0.1576663310" flag="0"/>
      <psa03 value="0.6151588881" flag="0"/>
      <psa10 value="0.1649403492" flag="0"/>
      <psa30 value="0.0082190588" flag="0"/>
    </comp>
  </station>
  <station code="IPPL" name="IPPL" netid="HC" insttype="60" commtype="DIG" lat="35.3486" lon="24.4632">
    <comp name="--.HHE">
      <acc value="0.0000000000" flag="0"/>
      <vel value="-100.0000000000" flag="0"/>
      <psa03 value="0.0000000000" flag="0"/>
      <psa10 value="0.0000000000" flag="0"/>
      <psa30 value="0.0000000000" flag="0"/>
    </comp>
    <comp name="--.HHZ">
      <acc value="0.0813067087" flag="0"/>
      <vel value="0.0544435115" flag="0"/>
      <psa03 value="0.2509781653" flag="0"/>
      <psa10 value="0.0706276520" flag="0"/>
      <psa30 value="0.0091720620" flag="0"/>
    </comp>
    <comp name="--.HHN">
      <acc value="0.0000000000" flag="0"/>
      <vel value="-100.0000000000" flag="0"/>
      <psa03 value="0.0000000000" flag="0"/>
      <psa10 value="0.0000000000" flag="0"/>
      <psa30 value="0.0000000000" flag="0"/>
    </comp>
  </station>
  <station code="KNSS" name="KNSS" netid="HC" insttype="60" commtype="DIG" lat="35.3042" lon="25.1802">
    <comp name="--.HHN">
      <acc value="0.2053436336" flag="0"/>
      <vel value="0.1242454220" flag="0"/>
      <psa03 value="0.8146661418" flag="0"/>
      <psa10 value="0.1241148113" flag="0"/>
      <psa30 value="0.0213225975" flag="0"/>
    </comp>
    <comp name="--.HHZ">
      <acc value="0.1512042679" flag="0"/>
      <vel value="0.0971051563" flag="0"/>
      <psa03 value="0.4056054992" flag="0"/>
      <psa10 value="0.1167040702" flag="0"/>
      <psa30 value="0.0160436070" flag="0"/>
    </comp>
    <comp name="--.HHE">
      <acc value="0.0000838368" flag="0"/>
      <vel value="-100.0000000000" flag="0"/>
      <psa03 value="0.0000002643" flag="0"/>
      <psa10 value="0.0000002599" flag="0"/>
      <psa30 value="0.0000002243" flag="0"/>
    </comp>
  </station>
  <station code="STIA" name="STIA" netid="HC" insttype="120" commtype="DIG" lat="35.2021" lon="26.0909">
    <comp name="--.HHE">
      <acc value="0.6236304948" flag="0"/>
      <vel value="0.2621955147" flag="0"/>
      <psa03 value="1.0604604508" flag="0"/>
      <psa10 value="0.4178482784" flag="0"/>
      <psa30 value="0.0319093586" flag="0"/>
    </comp>
    <comp name="--.HHN">
      <acc value="0.0000000000" flag="0"/>
      <vel value="-100.0000000000" flag="0"/>
      <psa03 value="0.0000000000" flag="0"/>
      <psa10 value="0.0000000000" flag="0"/>
      <psa30 value="0.0000000000" flag="0"/>
    </comp>
    <comp name="--.HHZ">
      <acc value="0.6693718364" flag="0"/>
      <vel value="0.2531188908" flag="0"/>
      <psa03 value="0.8815016617" flag="0"/>
      <psa10 value="0.2169167390" flag="0"/>
      <psa30 value="0.0264948643" flag="0"/>
    </comp>
  </station>
  <station code="TEFL" name="TEFL" netid="HC" insttype="GEOtiny," commtype="DIG" lat="35.0933" lon="25.1634">
    <comp name="--.HHN">
      <acc value="1.5632119068" flag="0"/>
      <vel value="0.8661077440" flag="0"/>
      <psa03 value="4.1000174412" flag="0"/>
      <psa10 value="0.6243324856" flag="0"/>
      <psa30 value="0.0433471556" flag="0"/>
    </comp>
    <comp name="--.HHE">
      <acc value="0.9894580757" flag="0"/>
      <vel value="0.5410724283" flag="0"/>
      <psa03 value="3.2710876886" flag="0"/>
      <psa10 value="0.7186283942" flag="0"/>
      <psa30 value="0.0647822763" flag="0"/>
    </comp>
    <comp name="--.HHZ">
      <acc value="0.5765448858" flag="0"/>
      <vel value="0.3736069897" flag="0"/>
      <psa03 value="1.9878220908" flag="0"/>
      <psa10 value="0.3393007352" flag="0"/>
      <psa30 value="0.0315051329" flag="0"/>
    </comp>
  </station>
  <station code="AGN1" name="AGN1" netid="HI" insttype="unknown" commtype="DIG" lat="35.1879" lon="25.7155">
    <comp name="--.HNE">
      <acc value="1.1901559633" flag="0"/>
      <vel value="0.5042341432" flag="0"/>
      <psa03 value="3.5350257289" flag="0"/>
      <psa10 value="0.4798776805" flag="0"/>
      <psa30 value="0.0433858634" flag="0"/>
    </comp>
    <comp name="--.HNN">
      <acc value="1.3644762727" flag="0"/>
      <vel value="0.3963602181" flag="0"/>
      <psa03 value="1.7485928734" flag="0"/>
      <psa10 value="0.4418676100" flag="0"/>
      <psa30 value="0.0282765978" flag="0"/>
    </comp>
    <comp name="--.HNZ">
      <acc value="0.6561995363" flag="0"/>
      <vel value="0.2207125773" flag="0"/>
      <psa03 value="1.0982234672" flag="0"/>
      <psa10 value="0.2286786023" flag="0"/>
      <psa30 value="0.0229519703" flag="0"/>
    </comp>
  </station>
  <station code="ARK1" name="ARK1" netid="HI" insttype="unknown" commtype="DIG" lat="35.1488" lon="25.2642">
    <comp name="--.HNZ">
      <acc value="0.5611519739" flag="0"/>
      <vel value="0.3137602297" flag="0"/>
      <psa03 value="1.7361895822" flag="0"/>
      <psa10 value="0.3571430126" flag="0"/>
      <psa30 value="0.0365277171" flag="0"/>
    </comp>
    <comp name="--.HNN">
      <acc value="0.5900723613" flag="0"/>
      <vel value="0.2837549551" flag="0"/>
      <psa03 value="1.8327620506" flag="0"/>
      <psa10 value="0.3393446652" flag="0"/>
      <psa30 value="0.0390694697" flag="0"/>
    </comp>
    <comp name="--.HNE">
      <acc value="0.6668088101" flag="0"/>
      <vel value="0.3415765306" flag="0"/>
      <psa03 value="1.9865618782" flag="0"/>
      <psa10 value="0.3301715744" flag="0"/>
      <psa30 value="0.0416911106" flag="0"/>
    </comp>
  </station>
  <station code="CH03" name="CH03" netid="HI" insttype="unknown" commtype="DIG" lat="35.533" lon="24.0705">
    <comp name="--.HNZ">
      <acc value="0.0271122605" flag="0"/>
      <vel value="0.0362525218" flag="0"/>
      <psa03 value="0.0937136147" flag="0"/>
      <psa10 value="0.0919914481" flag="0"/>
      <psa30 value="0.0081190689" flag="0"/>
    </comp>
    <comp name="--.HNE">
      <acc value="0.0522467456" flag="0"/>
      <vel value="0.0688238729" flag="0"/>
      <psa03 value="0.1198500598" flag="0"/>
      <psa10 value="0.1372956723" flag="0"/>
      <psa30 value="0.0092827261" flag="0"/>
    </comp>
    <comp name="--.HNN">
      <acc value="0.0546735151" flag="0"/>
      <vel value="0.0817369580" flag="0"/>
      <psa03 value="0.1390149114" flag="0"/>
      <psa10 value="0.1655081064" flag="0"/>
      <psa30 value="0.0197295043" flag="0"/>
    </comp>
  </station>
  <station code="GOR1" name="GOR1" netid="HI" insttype="unknown" commtype="DIG" lat="35.0582" lon="24.9628">
    <comp name="--.HNN">
      <acc value="0.4581151869" flag="0"/>
      <vel value="0.3328301081" flag="0"/>
      <psa03 value="1.3122706299" flag="0"/>
      <psa10 value="0.4880928762" flag="0"/>
      <psa30 value="0.0415247301" flag="0"/>
    </comp>
    <comp name="--.HNE">
      <acc value="0.3283661415" flag="0"/>
      <vel value="0.4003767671" flag="0"/>
      <psa03 value="1.0988431010" flag="0"/>
      <psa10 value="0.5567954478" flag="0"/>
      <psa30 value="0.0434699369" flag="0"/>
    </comp>
    <comp name="--.HNZ">
      <acc value="0.2792712373" flag="0"/>
      <vel value="0.2362042703" flag="0"/>
      <psa03 value="0.6528855736" flag="0"/>
      <psa10 value="0.3933278268" flag="0"/>
      <psa30 value="0.0261154272" flag="0"/>
    </comp>
  </station>
  <station code="HER1" name="HER1" netid="HI" insttype="unknown" commtype="DIG" lat="35.3177" lon="25.1022">
    <comp name="--.HNE">
      <acc value="0.5460336831" flag="0"/>
      <vel value="0.7488849867" flag="0"/>
      <psa03 value="1.0412577085" flag="0"/>
      <psa10 value="1.2431672143" flag="0"/>
      <psa30 value="0.0692481495" flag="0"/>
    </comp>
    <comp name="--.HNN">
      <acc value="0.5633391108" flag="0"/>
      <vel value="0.6772383339" flag="0"/>
      <psa03 value="1.2625730507" flag="0"/>
      <psa10 value="1.1005910340" flag="0"/>
      <psa30 value="0.0854013222" flag="0"/>
    </comp>
    <comp name="--.HNZ">
      <acc value="0.4554402944" flag="0"/>
      <vel value="0.4086783658" flag="0"/>
      <psa03 value="1.0813835965" flag="0"/>
      <psa10 value="0.8059932666" flag="0"/>
      <psa30 value="0.0290250069" flag="0"/>
    </comp>
  </station>
  <station code="HER3" name="HER3" netid="HI" insttype="unknown" commtype="DIG" lat="35.3296" lon="25.1065">
    <comp name="--.HNZ">
      <acc value="0.3429844306" flag="0"/>
      <vel value="0.3070539721" flag="0"/>
      <psa03 value="0.8293461272" flag="0"/>
      <psa10 value="0.3810014130" flag="0"/>
      <psa30 value="0.0246884009" flag="0"/>
    </comp>
    <comp name="--.HNE">
      <acc value="0.5452452424" flag="0"/>
      <vel value="0.5077837688" flag="0"/>
      <psa03 value="1.5278500303" flag="0"/>
      <psa10 value="1.2209549751" flag="0"/>
      <psa30 value="0.0481179692" flag="0"/>
    </comp>
    <comp name="--.HNN">
      <acc value="0.5587788429" flag="0"/>
      <vel value="0.5991206740" flag="0"/>
      <psa03 value="1.2932784678" flag="0"/>
      <psa10 value="0.9017517944" flag="0"/>
      <psa30 value="0.0678861069" flag="0"/>
    </comp>
  </station>
  <station code="KSS1" name="KSS1" netid="HI" insttype="CMG-5TD,ACCELEROMETER,GURALP" commtype="DIG" lat="35.4189" lon="26.9207">
    <comp name="--.HNE">
      <acc value="0.0291917465" flag="0"/>
      <vel value="0.0243974413" flag="0"/>
      <psa03 value="0.1150144458" flag="0"/>
      <psa10 value="0.0403947559" flag="0"/>
      <psa30 value="0.0090767363" flag="0"/>
    </comp>
    <comp name="--.HNN">
      <acc value="0.0598366319" flag="0"/>
      <vel value="0.0425858451" flag="0"/>
      <psa03 value="0.1996932146" flag="0"/>
      <psa10 value="0.0369647746" flag="0"/>
      <psa30 value="0.0137918619" flag="0"/>
    </comp>
    <comp name="--.HNZ">
      <acc value="0.0298096803" flag="0"/>
      <vel value="0.0226276071" flag="0"/>
      <psa03 value="0.0500166769" flag="0"/>
      <psa10 value="0.0357205026" flag="0"/>
      <psa30 value="0.0059249785" flag="0"/>
    </comp>
  </station>
  <station code="KTL1" name="KTL1" netid="HI" insttype="unknown" commtype="DIG" lat="35.2078" lon="25.3427">
    <comp name="--.HNE">
      <acc value="0.7216948204" flag="0"/>
      <vel value="0.3155559296" flag="0"/>
      <psa03 value="3.1387116713" flag="0"/>
      <psa10 value="0.2379405009" flag="0"/>
      <psa30 value="0.0270908980" flag="0"/>
    </comp>
    <comp name="--.HNN">
      <acc value="0.5973305268" flag="0"/>
      <vel value="0.3118656788" flag="0"/>
      <psa03 value="2.2520903008" flag="0"/>
      <psa10 value="0.2970112831" flag="0"/>
      <psa30 value="0.0237777227" flag="0"/>
    </comp>
    <comp name="--.HNZ">
      <acc value="0.3604574869" flag="0"/>
      <vel value="0.2157482202" flag="0"/>
      <psa03 value="0.8853408779" flag="0"/>
      <psa10 value="0.1559459571" flag="0"/>
      <psa30 value="0.0251204445" flag="0"/>
    </comp>
  </station>
  <station code="AGNA" name="AGNA" netid="HL" insttype="CMG-5" commtype="DIG" lat="35.1895" lon="25.7185">
    <comp name="00.HNE">
      <acc value="0.4477881096" flag="0"/>
      <vel value="0.3823903647" flag="0"/>
      <psa03 value="1.1533024283" flag="0"/>
      <psa10 value="0.4148478641" flag="0"/>
      <psa30 value="0.0380438346" flag="0"/>
    </comp>
    <comp name="00.HNN">
      <acc value="0.7962598563" flag="0"/>
      <vel value="0.4631745325" flag="0"/>
      <psa03 value="1.7481836438" flag="0"/>
      <psa10 value="0.7186596210" flag="0"/>
      <psa30 value="0.0392268011" flag="0"/>
    </comp>
    <comp name="00.HNZ">
      <acc value="0.5027902837" flag="0"/>
      <vel value="0.2525119673" flag="0"/>
      <psa03 value="1.0324222046" flag="0"/>
      <psa10 value="0.2464949946" flag="0"/>
      <psa30 value="0.0252220414" flag="0"/>
    </comp>
  </station>
  <station code="HERG" name="HERG" netid="HL" insttype="CMG-5" commtype="DIG" lat="35.3262" lon="25.0659">
    <comp name="00.HNE">
      <acc value="0.4085066619" flag="0"/>
      <vel value="0.4916476122" flag="0"/>
      <psa03 value="0.9054976177" flag="0"/>
      <psa10 value="0.8290452513" flag="0"/>
      <psa30 value="0.0597757611" flag="0"/>
    </comp>
    <comp name="00.HNN">
      <acc value="0.3370303473" flag="0"/>
      <vel value="0.4004977219" flag="0"/>
      <psa03 value="0.9797640180" flag="0"/>
      <psa10 value="0.6737071685" flag="0"/>
      <psa30 value="0.0456601298" flag="0"/>
    </comp>
    <comp name="00.HNZ">
      <acc value="0.2797280041" flag="0"/>
      <vel value="0.2531093651" flag="0"/>
      <psa03 value="0.5475359615" flag="0"/>
      <psa10 value="0.2904653639" flag="0"/>
      <psa30 value="0.0193052232" flag="0"/>
    </comp>
  </station>
  <station code="IACM" name="IACM" netid="HL" insttype="120" commtype="DIG" lat="35.3058" lon="25.0709">
    <comp name="--.HHN">
      <acc value="0.6229095955" flag="0"/>
      <vel value="0.5959163884" flag="0"/>
      <psa03 value="2.0713406619" flag="0"/>
      <psa10 value="1.0138965657" flag="0"/>
      <psa30 value="0.0499908729" flag="0"/>
    </comp>
    <comp name="--.HHE">
      <acc value="0.7685587299" flag="0"/>
      <vel value="0.7395034471" flag="0"/>
      <psa03 value="1.9986077545" flag="0"/>
      <psa10 value="1.0239079225" flag="0"/>
      <psa30 value="0.0629724911" flag="0"/>
    </comp>
    <comp name="--.HHZ">
      <acc value="0.4213764770" flag="0"/>
      <vel value="0.3260171874" flag="0"/>
      <psa03 value="1.2365442819" flag="0"/>
      <psa10 value="0.4293233271" flag="0"/>
      <psa30 value="0.0246265753" flag="0"/>
    </comp>
  </station>
  <station code="IMMV" name="IMMV" netid="HL" insttype="120" commtype="DIG" lat="35.4606" lon="23.9811">
