<?xml version="1.0" encoding="UTF-8" standalone="yes"?>
<!DOCTYPE earthquake SYSTEM "stationlist.dtd">
<stationlist created="" xmlns="ch.ethz.sed.shakemap.usgs.xml">
  <station code="IMMV" name="IMMV" netid="GE" insttype="STS-2/N" commtype="DIG" lat="35.4606" lon="23.9811">
    <comp name="--.HHZ">
      <acc value="0.0495715590" flag="0"/>
      <vel value="0.0535905170" flag="0"/>
      <psa03 value="0.1155816952" flag="0"/>
      <psa10 value="0.0835766869" flag="0"/>
      <psa30 value="0.0123056191" flag="0"/>
    </comp>
    <comp name="--.HHE">
      <acc value="0.0520977878" flag="0"/>
      <vel value="0.0776371928" flag="0"/>
      <psa03 value="0.1547064110" flag="0"/>
      <psa10 value="0.1452301300" flag="0"/>
      <psa30 value="0.0110101391" flag="0"/>
    </comp>
    <comp name="--.HHN">
      <acc value="0.0614041385" flag="0"/>
      <vel value="0.0542434944" flag="0"/>
      <psa03 value="0.2211807585" flag="0"/>
      <psa10 value="0.1205617985" flag="0"/>
      <psa30 value="0.0108725214" flag="0"/>
    </comp>
  </station>
  <station code="THERA" name="THERA" netid="GE" insttype="STS-2/N" commtype="DIG" lat="36.367" lon="25.4753">
    <comp name="--.HHN">
      <acc value="0.0231989326" flag="0"/>
      <vel value="0.0153779923" flag="0"/>
      <psa03 value="0.1011810891" flag="0"/>
      <psa10 value="0.0183441555" flag="0"/>
      <psa30 value="0.0038189799" flag="0"/>
    </comp>
    <comp name="--.HHZ">
      <acc value="0.0264294592" flag="0"/>
      <vel value="0.0187210681" flag="0"/>
      <psa03 value="0.0832062515" flag="0"/>
      <psa10 value="0.0314868183" flag="0"/>
      <psa30 value="0.0056709375" flag="0"/>
    </comp>
    <comp name="--.HHE">
      <acc value="0.0441419443" flag="0"/>
      <vel value="0.0392641638" flag="0"/>
      <psa03 value="0.1605982285" flag="0"/>
      <psa10 value="0.0561496976" flag="0"/>
      <psa30 value="0.0102883215" flag="0"/>
    </comp>
  </station>
  <station code="ZKR" name="ZKR" netid="GE" insttype="STS-2/N" commtype="DIG" lat="35.1147" lon="26.2169">
    <comp name="--.HHN">
      <acc value="0.3591966895" flag="0"/>
      <vel value="0.1334829386" flag="0"/>
      <psa03 value="1.1320909981" flag="0"/>
      <psa10 value="0.1043450609" flag="0"/>
      <psa30 value="0.0170182963" flag="0"/>
    </comp>
    <comp name="--.HHE">
      <acc value="0.6225451609" flag="0"/>
      <vel value="0.3356448332" flag="0"/>
      <psa03 value="1.5580012825" flag="0"/>
      <psa10 value="0.2099508167" flag="0"/>
      <psa30 value="0.0323017237" flag="0"/>
    </comp>
    <comp name="--.HHZ">
      <acc value="0.4330358620" flag="0"/>
      <vel value="0.1843563042" flag="0"/>
      <psa03 value="0.7676795242" flag="0"/>
      <psa10 value="0.1388287524" flag="0"/>
      <psa30 value="0.0317344912" flag="0"/>
    </comp>
  </station>
</stationlist>
