<?xml version="1.0" encoding="UTF-8" standalone="yes"?>
<!DOCTYPE earthquake SYSTEM "stationlist.dtd">
<stationlist created="" xmlns="ch.ethz.sed.shakemap.usgs.xml">
  <station code="RP05B" name="RP05B" netid="5B" insttype="Compact" lat="37.6182" lon="21.6541">
    <comp name="--.HHE">
      <acc value="0.3292071172" flag="0"/>
      <vel value="0.2249470943" flag="0"/>
      <psa03 value="0.8264322235" flag="0"/>
      <psa10 value="0.4759247156" flag="0"/>
      <psa30 value="0.0489759063" flag="0"/>
    </comp>
    <comp name="--.HHZ">
      <acc value="0.1664606080" flag="0"/>
      <vel value="0.1321430137" flag="0"/>
      <psa03 value="0.4862337522" flag="0"/>
      <psa10 value="0.1582137806" flag="0"/>
      <psa30 value="0.0320746240" flag="0"/>
    </comp>
    <comp name="--.HHN">
      <acc value="0.2916382392" flag="0"/>
      <vel value="0.2838514154" flag="0"/>
      <psa03 value="0.9081978603" flag="0"/>
      <psa10 value="0.2510846698" flag="0"/>
      <psa30 value="0.0699187507" flag="0"/>
    </comp>
  </station>
  <station code="AGRP" name="AGRP" netid="CL" insttype="CMG40-T" lat="38.3959" lon="21.7228">
    <comp name="00.HHE">
      <acc value="0.2865743825" flag="0"/>
      <vel value="0.2225025164" flag="0"/>
      <psa03 value="1.0822464682" flag="0"/>
      <psa10 value="0.2356087114" flag="0"/>
      <psa30 value="0.0146659103" flag="0"/>
    </comp>
    <comp name="00.HHN">
      <acc value="0.2432399269" flag="0"/>
      <vel value="0.2069426249" flag="0"/>
      <psa03 value="0.5835799995" flag="0"/>
      <psa10 value="0.2458195365" flag="0"/>
      <psa30 value="0.0224485784" flag="0"/>
    </comp>
    <comp name="00.HHZ">
      <acc value="0.1301779943" flag="0"/>
      <vel value="0.0794412635" flag="0"/>
      <psa03 value="0.3166397303" flag="0"/>
      <psa10 value="0.0921428854" flag="0"/>
      <psa30 value="0.0110543099" flag="0"/>
    </comp>
  </station>
  <station code="ALIK" name="ALIK" netid="CL" insttype="TRILLIUM-40" lat="38.2605" lon="22.1114">
    <comp name="02.HHE">
      <acc value="0.3922261505" flag="0"/>
      <vel value="0.2158042810" flag="0"/>
      <psa03 value="1.1775278941" flag="0"/>
      <psa10 value="0.1064685630" flag="0"/>
      <psa30 value="0.0189876879" flag="0"/>
    </comp>
    <comp name="02.HHN">
      <acc value="0.2197740022" flag="0"/>
      <vel value="0.1152244204" flag="0"/>
      <psa03 value="0.8983633620" flag="0"/>
      <psa10 value="0.0718968435" flag="0"/>
      <psa30 value="0.0091381167" flag="0"/>
    </comp>
    <comp name="02.HHZ">
      <acc value="0.0699735098" flag="0"/>
      <vel value="0.0545336665" flag="0"/>
      <psa03 value="0.1792201514" flag="0"/>
      <psa10 value="0.0412542251" flag="0"/>
      <psa30 value="0.0129422322" flag="0"/>
    </comp>
  </station>
  <station code="MALA" name="MALA" netid="CL" insttype="TRILLIUM-40" lat="38.3934" lon="21.8726">
    <comp name="01.HHN">
      <acc value="4.8149655765" flag="0"/>
      <vel value="0.5339730442" flag="0"/>
      <psa03 value="1.5607543177" flag="0"/>
      <psa10 value="0.4569731189" flag="0"/>
      <psa30 value="0.0582824182" flag="0"/>
    </comp>
    <comp name="01.HHE">
      <acc value="0.4571187690" flag="0"/>
      <vel value="0.3477025762" flag="0"/>
      <psa03 value="1.1943401136" flag="0"/>
      <psa10 value="0.6353115305" flag="0"/>
      <psa30 value="0.0510193519" flag="0"/>
    </comp>
    <comp name="01.HHZ">
      <acc value="2.1854426198" flag="0"/>
      <vel value="0.2207905653" flag="0"/>
      <psa03 value="0.5508008213" flag="0"/>
      <psa10 value="0.1548992086" flag="0"/>
      <psa30 value="0.0233416318" flag="0"/>
    </comp>
  </station>
  <station code="MG06" name="MG06" netid="CL" insttype="TRILLIUM-40" lat="38.4129" lon="21.9462">
    <comp name="06.HHE">
      <acc value="0.1151658804" flag="0"/>
      <vel value="0.0552122208" flag="0"/>
      <psa03 value="0.3584844696" flag="0"/>
      <psa10 value="0.0618316912" flag="0"/>
      <psa30 value="0.0117828627" flag="0"/>
    </comp>
    <comp name="06.HHN">
      <acc value="0.1337775242" flag="0"/>
      <vel value="0.0619427207" flag="0"/>
      <psa03 value="0.2580318565" flag="0"/>
      <psa10 value="0.0814715041" flag="0"/>
      <psa30 value="0.0094955973" flag="0"/>
    </comp>
    <comp name="06.HHZ">
      <acc value="0.0564865981" flag="0"/>
      <vel value="0.0362364986" flag="0"/>
      <psa03 value="0.1944189942" flag="0"/>
      <psa10 value="0.0507281877" flag="0"/>
      <psa30 value="0.0069798206" flag="0"/>
    </comp>
  </station>
  <station code="PANR" name="PANR" netid="CL" insttype="TRILLIUM-40" lat="38.3735" lon="22.2497">
    <comp name="01.HHE">
      <acc value="0.0336377672" flag="0"/>
      <vel value="0.0452582274" flag="0"/>
      <psa03 value="0.0867853194" flag="0"/>
      <psa10 value="0.0775774941" flag="0"/>
      <psa30 value="0.0071029358" flag="0"/>
    </comp>
    <comp name="01.HHN">
      <acc value="0.0276412206" flag="0"/>
      <vel value="0.0361584127" flag="0"/>
      <psa03 value="0.1138239015" flag="0"/>
      <psa10 value="0.0596747004" flag="0"/>
      <psa30 value="0.0089757393" flag="0"/>
    </comp>
    <comp name="01.HHZ">
      <acc value="0.0201029028" flag="0"/>
      <vel value="0.0314571310" flag="0"/>
      <psa03 value="0.0545337510" flag="0"/>
      <psa10 value="0.0511655557" flag="0"/>
      <psa30 value="0.0098626804" flag="0"/>
    </comp>
  </station>
  <station code="PSAM" name="PSAM" netid="CL" insttype="CMG40-T" lat="38.3218" lon="22.1842">
    <comp name="00.HHZ">
      <acc value="0.0332069847" flag="0"/>
      <vel value="0.0272906172" flag="0"/>
      <psa03 value="0.0888222398" flag="0"/>
      <psa10 value="0.0402055303" flag="0"/>
      <psa30 value="0.0065025205" flag="0"/>
    </comp>
    <comp name="00.HHN">
      <acc value="0.0601790050" flag="0"/>
      <vel value="0.0536372823" flag="0"/>
      <psa03 value="0.1578642802" flag="0"/>
      <psa10 value="0.0952315305" flag="0"/>
      <psa30 value="0.0132004773" flag="0"/>
    </comp>
    <comp name="00.HHE">
      <acc value="0.0935912454" flag="0"/>
      <vel value="0.0552394911" flag="0"/>
      <psa03 value="0.2880741222" flag="0"/>
      <psa10 value="0.1003901941" flag="0"/>
      <psa30 value="0.0109098740" flag="0"/>
    </comp>
  </station>
  <station code="ROD3" name="ROD3" netid="CL" insttype="CMG40-T" lat="38.3081" lon="21.892">
    <comp name="00.HHE">
      <acc value="0.5354628454" flag="0"/>
      <vel value="0.2952443915" flag="0"/>
      <psa03 value="1.9612786468" flag="0"/>
      <psa10 value="0.2003832772" flag="0"/>
      <psa30 value="0.0135784914" flag="0"/>
    </comp>
    <comp name="00.HHZ">
      <acc value="0.1999451986" flag="0"/>
      <vel value="0.1514611294" flag="0"/>
      <psa03 value="0.4888188779" flag="0"/>
      <psa10 value="0.1569059839" flag="0"/>
      <psa30 value="0.0172442426" flag="0"/>
    </comp>
    <comp name="00.HHN">
      <acc value="0.8874642848" flag="0"/>
      <vel value="0.4113403691" flag="0"/>
      <psa03 value="2.4589217738" flag="0"/>
      <psa10 value="0.2513700753" flag="0"/>
      <psa30 value="0.0229680452" flag="0"/>
    </comp>
  </station>
  <station code="TRIZ" name="TRIZ" netid="CL" insttype="STS-2" lat="38.3654" lon="22.0727">
    <comp name="00.HH3">
      <acc value="0.1132209136" flag="0"/>
      <vel value="0.0772190954" flag="0"/>
      <psa03 value="0.3467086226" flag="0"/>
      <psa10 value="0.0504012876" flag="0"/>
      <psa30 value="0.0101779566" flag="0"/>
    </comp>
    <comp name="00.HHZ">
      <acc value="0.0662209189" flag="0"/>
      <vel value="0.0329791872" flag="0"/>
      <psa03 value="0.1569831379" flag="0"/>
      <psa10 value="0.0590453534" flag="0"/>
      <psa30 value="0.0064621705" flag="0"/>
    </comp>
    <comp name="00.HH2">
      <acc value="0.1086105648" flag="0"/>
      <vel value="0.0460235932" flag="0"/>
      <psa03 value="0.2786558424" flag="0"/>
      <psa10 value="0.0684457888" flag="0"/>
      <psa30 value="0.0107423021" flag="0"/>
    </comp>
  </station>
  <station code="ZIRI" name="ZIRI" netid="CL" insttype="TRILLIUM-40" lat="38.3051" lon="21.9476">
    <comp name="01.HHN">
      <acc value="0.3325123736" flag="0"/>
      <vel value="0.2520387072" flag="0"/>
      <psa03 value="0.8547064621" flag="0"/>
      <psa10 value="0.1579500203" flag="0"/>
      <psa30 value="0.0149019335" flag="0"/>
    </comp>
    <comp name="01.HHE">
      <acc value="0.3373280570" flag="0"/>
      <vel value="0.1565354368" flag="0"/>
      <psa03 value="0.8293421401" flag="0"/>
      <psa10 value="0.1751052231" flag="0"/>
      <psa30 value="0.0153629185" flag="0"/>
    </comp>
    <comp name="01.HHZ">
      <acc value="0.2515382726" flag="0"/>
      <vel value="0.1318974846" flag="0"/>
      <psa03 value="0.8940514949" flag="0"/>
      <psa10 value="0.0810584770" flag="0"/>
      <psa30 value="0.0166167397" flag="0"/>
    </comp>
  </station>
  <station code="ANTK" name="ANTK" netid="HA" insttype="25" lat="38.3605" lon="22.6385">
    <comp name="--.HHN">
      <acc value="0.0075888203" flag="0"/>
      <vel value="0.0091197124" flag="0"/>
      <psa03 value="0.0292593576" flag="0"/>
      <psa10 value="0.0211835732" flag="0"/>
      <psa30 value="0.0031396132" flag="0"/>
    </comp>
    <comp name="--.HHE">
      <acc value="0.0063783487" flag="0"/>
      <vel value="0.0104607568" flag="0"/>
      <psa03 value="0.0167025394" flag="0"/>
      <psa10 value="0.0174446104" flag="0"/>
      <psa30 value="0.0028596173" flag="0"/>
    </comp>
    <comp name="--.HHZ">
      <acc value="0.0066724749" flag="0"/>
      <vel value="0.0084132050" flag="0"/>
      <psa03 value="0.0131043983" flag="0"/>
      <psa10 value="0.0115146448" flag="0"/>
      <psa30 value="0.0018827999" flag="0"/>
    </comp>
  </station>
  <station code="ATHR" name="ATHR" netid="HA" insttype="GEOtiny," lat="38.3172" lon="20.4165">
    <comp name="--.HHE">
      <acc value="0.3021421816" flag="0"/>
      <vel value="0.1649502879" flag="0"/>
      <psa03 value="0.4670762081" flag="0"/>
      <psa10 value="0.2418264319" flag="0"/>
      <psa30 value="0.0220082412" flag="0"/>
    </comp>
    <comp name="--.HHN">
      <acc value="0.2181092334" flag="0"/>
      <vel value="0.1682243201" flag="0"/>
      <psa03 value="0.6467151556" flag="0"/>
      <psa10 value="0.2737676906" flag="0"/>
      <psa30 value="0.0186718232" flag="0"/>
    </comp>
    <comp name="--.HHZ">
      <acc value="0.1578291201" flag="0"/>
      <vel value="0.1529189873" flag="0"/>
      <psa03 value="0.3253084023" flag="0"/>
      <psa10 value="0.3179743619" flag="0"/>
      <psa30 value="0.0168253622" flag="0"/>
    </comp>
  </station>
  <station code="HAVD" name="HAVD" netid="HA" insttype="GEOtiny," lat="38.2036" lon="20.3848">
    <comp name="--.HHZ">
      <acc value="0.4001578785" flag="0"/>
      <vel value="0.1175557746" flag="0"/>
      <psa03 value="0.9176031661" flag="0"/>
      <psa10 value="0.1455472847" flag="0"/>
      <psa30 value="0.0131296709" flag="0"/>
    </comp>
    <comp name="--.HHN">
      <acc value="0.6915274977" flag="0"/>
      <vel value="0.2367762879" flag="0"/>
      <psa03 value="1.2863359527" flag="0"/>
      <psa10 value="0.1893793943" flag="0"/>
      <psa30 value="0.0199486071" flag="0"/>
    </comp>
    <comp name="--.HHE">
      <acc value="0.4813654035" flag="0"/>
      <vel value="0.1771079476" flag="0"/>
      <psa03 value="1.4478515401" flag="0"/>
      <psa10 value="0.3120780415" flag="0"/>
      <psa30 value="0.0221408590" flag="0"/>
    </comp>
  </station>
  <station code="KALE" name="KALE" netid="HA" insttype="40," lat="38.3911" lon="22.1398">
    <comp name="--.HHE">
      <acc value="0.0532224171" flag="0"/>
      <vel value="0.0400922847" flag="0"/>
      <psa03 value="0.1767342185" flag="0"/>
      <psa10 value="0.0776977360" flag="0"/>
      <psa30 value="0.0052400168" flag="0"/>
    </comp>
    <comp name="--.HHN">
      <acc value="0.0798592763" flag="0"/>
      <vel value="0.0474503421" flag="0"/>
      <psa03 value="0.1743675050" flag="0"/>
      <psa10 value="0.1009228632" flag="0"/>
      <psa30 value="0.0044552858" flag="0"/>
    </comp>
    <comp name="--.HHZ">
      <acc value="0.0499967382" flag="0"/>
      <vel value="0.0279348825" flag="0"/>
      <psa03 value="0.1486176333" flag="0"/>
      <psa10 value="0.0453728427" flag="0"/>
      <psa30 value="0.0075431440" flag="0"/>
    </comp>
  </station>
  <station code="LAKA" name="LAKA" netid="HA" insttype="120s," lat="38.2401" lon="21.9785">
    <comp name="--.HHZ">
      <acc value="0.0528512603" flag="0"/>
      <vel value="0.0539384647" flag="0"/>
      <psa03 value="0.0973729332" flag="0"/>
      <psa10 value="0.0382159045" flag="0"/>
      <psa30 value="0.0117641625" flag="0"/>
    </comp>
    <comp name="--.HHN">
      <acc value="0.0814414049" flag="0"/>
      <vel value="0.0534461979" flag="0"/>
      <psa03 value="0.1482049449" flag="0"/>
      <psa10 value="0.1194289309" flag="0"/>
      <psa30 value="0.0122420514" flag="0"/>
    </comp>
    <comp name="--.HHE">
      <acc value="0.0593314668" flag="0"/>
      <vel value="0.0553143276" flag="0"/>
      <psa03 value="0.1367257352" flag="0"/>
      <psa10 value="0.0621136352" flag="0"/>
      <psa30 value="0.0112698256" flag="0"/>
    </comp>
  </station>
  <station code="THAL" name="THAL" netid="HA" insttype="30" lat="38.0357" lon="22.6634">
    <comp name="--.HHE">
      <acc value="0.1139997225" flag="0"/>
      <vel value="0.1025668621" flag="0"/>
      <psa03 value="0.2553105123" flag="0"/>
      <psa10 value="0.1655261218" flag="0"/>
      <psa30 value="0.0161598072" flag="0"/>
    </comp>
    <comp name="--.HHN">
      <acc value="0.0721029907" flag="0"/>
      <vel value="0.0770328739" flag="0"/>
      <psa03 value="0.1908222005" flag="0"/>
      <psa10 value="0.0856492685" flag="0"/>
      <psa30 value="0.0102660143" flag="0"/>
    </comp>
    <comp name="--.HHZ">
      <acc value="0.0412073624" flag="0"/>
      <vel value="0.0307326448" flag="0"/>
      <psa03 value="0.1212524880" flag="0"/>
      <psa10 value="0.0637629657" flag="0"/>
      <psa30 value="0.0047984931" flag="0"/>
    </comp>
  </station>
  <station code="AGR3" name="AGR3" netid="HI" insttype="unknown" lat="38.5893" lon="21.4162">
    <comp name="--.HNE">
      <acc value="0.5104296066" flag="0"/>
      <vel value="0.4386522932" flag="0"/>
      <psa03 value="1.2237272314" flag="0"/>
      <psa10 value="0.8860803052" flag="0"/>
      <psa30 value="0.0663919776" flag="0"/>
    </comp>
    <comp name="--.HNN">
      <acc value="0.6043111187" flag="0"/>
      <vel value="0.4387728829" flag="0"/>
      <psa03 value="1.3755796984" flag="0"/>
      <psa10 value="0.6880563890" flag="0"/>
      <psa30 value="0.0649922405" flag="0"/>
    </comp>
    <comp name="--.HNZ">
      <acc value="0.2685335937" flag="0"/>
      <vel value="0.2387226736" flag="0"/>
      <psa03 value="0.6220426841" flag="0"/>
      <psa10 value="0.4438000238" flag="0"/>
      <psa30 value="0.0272741930" flag="0"/>
    </comp>
  </station>
  <station code="AIG2" name="AIG2" netid="HI" insttype="unknown" lat="38.2417" lon="22.0726">
    <comp name="--.HNE">
      <acc value="0.1143328737" flag="0"/>
      <vel value="0.0888737842" flag="0"/>
      <psa03 value="0.3441169302" flag="0"/>
      <psa10 value="0.1361638419" flag="0"/>
      <psa30 value="0.0216083419" flag="0"/>
    </comp>
    <comp name="--.HNN">
      <acc value="0.1091769873" flag="0"/>
      <vel value="0.0800433697" flag="0"/>
      <psa03 value="0.2913964733" flag="0"/>
      <psa10 value="0.0802700310" flag="0"/>
      <psa30 value="0.0229754966" flag="0"/>
    </comp>
    <comp name="--.HNZ">
      <acc value="0.0680402224" flag="0"/>
      <vel value="0.0513108354" flag="0"/>
      <psa03 value="0.1989553908" flag="0"/>
      <psa10 value="0.0818830362" flag="0"/>
      <psa30 value="0.0141867676" flag="0"/>
    </comp>
  </station>
  <station code="AOL1" name="AOL1" netid="HI" insttype="unknown" lat="37.6424" lon="21.6246">
    <comp name="--.HNZ">
      <acc value="0.1427121743" flag="0"/>
      <vel value="0.1151263711" flag="0"/>
      <psa03 value="0.3558071431" flag="0"/>
      <psa10 value="0.2135792489" flag="0"/>
      <psa30 value="0.0207751559" flag="0"/>
    </comp>
    <comp name="--.HNN">
      <acc value="0.2064387502" flag="0"/>
      <vel value="0.2616144633" flag="0"/>
      <psa03 value="0.5301678955" flag="0"/>
      <psa10 value="0.2401808903" flag="0"/>
      <psa30 value="0.0555492190" flag="0"/>
    </comp>
    <comp name="--.HNE">
      <acc value="0.1960339515" flag="0"/>
      <vel value="0.1752996594" flag="0"/>
      <psa03 value="0.5096162702" flag="0"/>
      <psa10 value="0.2998269917" flag="0"/>
      <psa30 value="0.0431321629" flag="0"/>
    </comp>
  </station>
  <station code="ARG2" name="ARG2" netid="HI" insttype="CMG-5TD,ACCELEROMETER,GURALP" lat="38.1783" lon="20.4878">
    <comp name="--.HNZ">
      <acc value="0.7315954324" flag="0"/>
      <vel value="0.3065053796" flag="0"/>
      <psa03 value="2.4833185106" flag="0"/>
      <psa10 value="0.2083037678" flag="0"/>
      <psa30 value="0.0168013817" flag="0"/>
    </comp>
    <comp name="--.HNE">
      <acc value="1.2224705309" flag="0"/>
      <vel value="0.4514524576" flag="0"/>
      <psa03 value="2.9106744869" flag="0"/>
      <psa10 value="0.1443551779" flag="0"/>
      <psa30 value="0.0192501222" flag="0"/>
    </comp>
    <comp name="--.HNN">
      <acc value="1.3815383895" flag="0"/>
      <vel value="0.4232888032" flag="0"/>
      <psa03 value="2.7631530469" flag="0"/>
      <psa10 value="0.2976540976" flag="0"/>
      <psa30 value="0.0211240685" flag="0"/>
    </comp>
  </station>
  <station code="LEF2" name="LEF2" netid="HI" insttype="unknown" lat="38.8301" lon="20.7083">
    <comp name="--.HNE">
      <acc value="0.6133242675" flag="0"/>
      <vel value="0.4963124952" flag="0"/>
      <psa03 value="1.6456832360" flag="0"/>
      <psa10 value="0.7226998392" flag="0"/>
      <psa30 value="0.0332882176" flag="0"/>
    </comp>
    <comp name="--.HNN">
      <acc value="0.5017819303" flag="0"/>
      <vel value="0.4000651347" flag="0"/>
      <psa03 value="1.5852781648" flag="0"/>
      <psa10 value="0.7237361254" flag="0"/>
      <psa30 value="0.0274801858" flag="0"/>
    </comp>
    <comp name="--.HNZ">
      <acc value="0.4632036685" flag="0"/>
      <vel value="0.4765284319" flag="0"/>
      <psa03 value="1.0128745894" flag="0"/>
      <psa10 value="0.7484692487" flag="0"/>
      <psa30 value="0.0306496073" flag="0"/>
    </comp>
  </station>
  <station code="LXR2" name="LXR2" netid="HI" insttype="unknown" lat="38.2067" lon="20.4364">
    <comp name="--.HNE">
      <acc value="0.7892344664" flag="0"/>
      <vel value="0.4007168990" flag="0"/>
      <psa03 value="2.5269193264" flag="0"/>
      <psa10 value="0.6357597515" flag="0"/>
      <psa30 value="0.0312462263" flag="0"/>
    </comp>
    <comp name="--.HNN">
      <acc value="1.1477903156" flag="0"/>
      <vel value="0.4025291174" flag="0"/>
      <psa03 value="2.0698338100" flag="0"/>
      <psa10 value="0.6158234642" flag="0"/>
      <psa30 value="0.0609488281" flag="0"/>
    </comp>
    <comp name="--.HNZ">
      <acc value="0.5114179197" flag="0"/>
      <vel value="0.2025692073" flag="0"/>
      <psa03 value="1.1429858477" flag="0"/>
      <psa10 value="0.3640505418" flag="0"/>
      <psa30 value="0.0239494877" flag="0"/>
    </comp>
  </station>
  <station code="MSL1" name="MSL1" netid="HI" insttype="CMG-5TD,ACCELEROMETER,GURALP" lat="38.3727" lon="21.4243">
    <comp name="--.HNZ">
      <acc value="0.4710757713" flag="0"/>
      <vel value="0.2471237365" flag="0"/>
      <psa03 value="0.8120443156" flag="0"/>
      <psa10 value="0.5162777599" flag="0"/>
      <psa30 value="0.0246870886" flag="0"/>
    </comp>
    <comp name="--.HNN">
