<?xml version="1.0" encoding="UTF-8" standalone="yes"?>
<!DOCTYPE earthquake SYSTEM "stationlist.dtd">
<stationlist created="" xmlns="ch.ethz.sed.shakemap.usgs.xml">
  <station code="RP05B" name="RP05B" netid="5B" insttype="Compact" lat="37.6182" lon="21.6541">
    <comp name="--.HHN">
      <acc value="0.2904573193" flag="0"/>
      <vel value="0.2974361571" flag="0"/>
      <psa03 value="0.9094160555" flag="0"/>
      <psa10 value="0.2516443579" flag="0"/>
      <psa30 value="0.0775019866" flag="0"/>
    </comp>
    <comp name="--.HHZ">
      <acc value="0.1655614168" flag="0"/>
      <vel value="0.1358537823" flag="0"/>
      <psa03 value="0.4870129760" flag="0"/>
      <psa10 value="0.1580205398" flag="0"/>
      <psa30 value="0.0355310078" flag="0"/>
    </comp>
    <comp name="--.HHE">
      <acc value="0.3283486339" flag="0"/>
      <vel value="0.2286811831" flag="0"/>
      <psa03 value="0.8278959809" flag="0"/>
      <psa10 value="0.4761743751" flag="0"/>
      <psa30 value="0.0545064316" flag="0"/>
    </comp>
  </station>
  <station code="AGRP" name="AGRP" netid="CL" insttype="CMG40-T" lat="38.3959" lon="21.7228">
    <comp name="00.HHN">
      <acc value="0.2434855210" flag="0"/>
      <vel value="0.2060978310" flag="0"/>
      <psa03 value="0.5835986019" flag="0"/>
      <psa10 value="0.2462983672" flag="0"/>
      <psa30 value="0.0241902122" flag="0"/>
    </comp>
    <comp name="00.HHE">
      <acc value="0.2870886789" flag="0"/>
      <vel value="0.2254361544" flag="0"/>
      <psa03 value="1.0817232965" flag="0"/>
      <psa10 value="0.2359558887" flag="0"/>
      <psa30 value="0.0157370366" flag="0"/>
    </comp>
    <comp name="00.HHZ">
      <acc value="0.1298489510" flag="0"/>
      <vel value="0.0779552573" flag="0"/>
      <psa03 value="0.3169255545" flag="0"/>
      <psa10 value="0.0923302256" flag="0"/>
      <psa30 value="0.0113281227" flag="0"/>
    </comp>
  </station>
  <station code="ALIK" name="ALIK" netid="CL" insttype="TRILLIUM-40" lat="38.2605" lon="22.1114">
    <comp name="02.HHN">
      <acc value="0.2198956437" flag="0"/>
      <vel value="0.1153796422" flag="0"/>
      <psa03 value="0.8984645798" flag="0"/>
      <psa10 value="0.0720082400" flag="0"/>
      <psa30 value="0.0107520569" flag="0"/>
    </comp>
    <comp name="02.HHZ">
      <acc value="0.0702796899" flag="0"/>
      <vel value="0.0554088340" flag="0"/>
      <psa03 value="0.1786836886" flag="0"/>
      <psa10 value="0.0408940122" flag="0"/>
      <psa30 value="0.0151961541" flag="0"/>
    </comp>
    <comp name="02.HHE">
      <acc value="0.3921027774" flag="0"/>
      <vel value="0.2164683809" flag="0"/>
      <psa03 value="1.1773842611" flag="0"/>
      <psa10 value="0.1060009663" flag="0"/>
      <psa30 value="0.0201444234" flag="0"/>
    </comp>
  </station>
  <station code="MALA" name="MALA" netid="CL" insttype="TRILLIUM-40" lat="38.3934" lon="21.8726">
    <comp name="01.HHZ">
      <acc value="2.1853139071" flag="0"/>
      <vel value="0.2213840890" flag="0"/>
      <psa03 value="0.5513050333" flag="0"/>
      <psa10 value="0.1546832627" flag="0"/>
      <psa30 value="0.0258262837" flag="0"/>
    </comp>
    <comp name="01.HHE">
      <acc value="0.4576138180" flag="0"/>
      <vel value="0.3503121562" flag="0"/>
      <psa03 value="1.1948159286" flag="0"/>
      <psa10 value="0.6355104705" flag="0"/>
      <psa30 value="0.0529638423" flag="0"/>
    </comp>
    <comp name="01.HHN">
      <acc value="4.8138377519" flag="0"/>
      <vel value="0.5310260851" flag="0"/>
      <psa03 value="1.5596884974" flag="0"/>
      <psa10 value="0.4568892227" flag="0"/>
      <psa30 value="0.0626324565" flag="0"/>
    </comp>
  </station>
  <station code="MG06" name="MG06" netid="CL" insttype="TRILLIUM-40" lat="38.4129" lon="21.9462">
    <comp name="06.HHE">
      <acc value="0.1152347665" flag="0"/>
      <vel value="0.0543430642" flag="0"/>
      <psa03 value="0.3583187257" flag="0"/>
      <psa10 value="0.0619025630" flag="0"/>
      <psa30 value="0.0128908298" flag="0"/>
    </comp>
    <comp name="06.HHZ">
      <acc value="0.0565494057" flag="0"/>
      <vel value="0.0366003155" flag="0"/>
      <psa03 value="0.1943134461" flag="0"/>
      <psa10 value="0.0507631339" flag="0"/>
      <psa30 value="0.0079933146" flag="0"/>
    </comp>
    <comp name="06.HHN">
      <acc value="0.1336428174" flag="0"/>
      <vel value="0.0627566955" flag="0"/>
      <psa03 value="0.2580121589" flag="0"/>
      <psa10 value="0.0813424077" flag="0"/>
      <psa30 value="0.0104404013" flag="0"/>
    </comp>
  </station>
  <station code="PANR" name="PANR" netid="CL" insttype="TRILLIUM-40" lat="38.3735" lon="22.2497">
    <comp name="01.HHN">
      <acc value="0.0274978748" flag="0"/>
      <vel value="0.0371954783" flag="0"/>
      <psa03 value="0.1136861737" flag="0"/>
      <psa10 value="0.0599344113" flag="0"/>
      <psa30 value="0.0098247134" flag="0"/>
    </comp>
    <comp name="01.HHE">
      <acc value="0.0336347553" flag="0"/>
      <vel value="0.0451807993" flag="0"/>
      <psa03 value="0.0867818576" flag="0"/>
      <psa10 value="0.0778005041" flag="0"/>
      <psa30 value="0.0069311959" flag="0"/>
    </comp>
    <comp name="01.HHZ">
      <acc value="0.0201454498" flag="0"/>
      <vel value="0.0327964682" flag="0"/>
      <psa03 value="0.0545530379" flag="0"/>
      <psa10 value="0.0510309540" flag="0"/>
      <psa30 value="0.0104981887" flag="0"/>
    </comp>
  </station>
  <station code="PSAM" name="PSAM" netid="CL" insttype="CMG40-T" lat="38.3218" lon="22.1842">
    <comp name="00.HHE">
      <acc value="0.0936342941" flag="0"/>
      <vel value="0.0559336235" flag="0"/>
      <psa03 value="0.2882396684" flag="0"/>
      <psa10 value="0.1006980878" flag="0"/>
      <psa30 value="0.0126202943" flag="0"/>
    </comp>
    <comp name="00.HHN">
      <acc value="0.0601516733" flag="0"/>
      <vel value="0.0543636175" flag="0"/>
      <psa03 value="0.1583408792" flag="0"/>
      <psa10 value="0.0952155773" flag="0"/>
      <psa30 value="0.0147370681" flag="0"/>
    </comp>
    <comp name="00.HHZ">
      <acc value="0.0332254350" flag="0"/>
      <vel value="0.0283936878" flag="0"/>
      <psa03 value="0.0891893305" flag="0"/>
      <psa10 value="0.0402824118" flag="0"/>
      <psa30 value="0.0074824213" flag="0"/>
    </comp>
  </station>
  <station code="ROD3" name="ROD3" netid="CL" insttype="CMG40-T" lat="38.3081" lon="21.892">
    <comp name="00.HHN">
      <acc value="0.8875912176" flag="0"/>
      <vel value="0.4126631079" flag="0"/>
      <psa03 value="2.4588008789" flag="0"/>
      <psa10 value="0.2515128146" flag="0"/>
      <psa30 value="0.0231062268" flag="0"/>
    </comp>
    <comp name="00.HHE">
      <acc value="0.5353209537" flag="0"/>
      <vel value="0.2951794139" flag="0"/>
      <psa03 value="1.9611437561" flag="0"/>
      <psa10 value="0.2002739293" flag="0"/>
      <psa30 value="0.0138851587" flag="0"/>
    </comp>
    <comp name="00.HHZ">
      <acc value="0.1997301870" flag="0"/>
      <vel value="0.1528633957" flag="0"/>
      <psa03 value="0.4890654296" flag="0"/>
      <psa10 value="0.1569330295" flag="0"/>
      <psa30 value="0.0187499260" flag="0"/>
    </comp>
  </station>
  <station code="TRIZ" name="TRIZ" netid="CL" insttype="STS-2" lat="38.3654" lon="22.0727">
    <comp name="00.HH2">
      <acc value="0.1084285665" flag="0"/>
      <vel value="0.0461198927" flag="0"/>
      <psa03 value="0.2788090626" flag="0"/>
      <psa10 value="0.0681774981" flag="0"/>
      <psa30 value="0.0118046836" flag="0"/>
    </comp>
    <comp name="00.HH3">
      <acc value="0.1131708927" flag="0"/>
      <vel value="0.0777330397" flag="0"/>
      <psa03 value="0.3467482383" flag="0"/>
      <psa10 value="0.0504971618" flag="0"/>
      <psa30 value="0.0116823913" flag="0"/>
    </comp>
    <comp name="00.HHZ">
      <acc value="0.0662748005" flag="0"/>
      <vel value="0.0338850232" flag="0"/>
      <psa03 value="0.1571691734" flag="0"/>
      <psa10 value="0.0588443840" flag="0"/>
      <psa30 value="0.0077368253" flag="0"/>
    </comp>
  </station>
  <station code="ZIRI" name="ZIRI" netid="CL" insttype="TRILLIUM-40" lat="38.3051" lon="21.9476">
    <comp name="01.HHZ">
      <acc value="0.2511976117" flag="0"/>
      <vel value="0.1330594541" flag="0"/>
      <psa03 value="0.8939949898" flag="0"/>
      <psa10 value="0.0810186814" flag="0"/>
      <psa30 value="0.0182968527" flag="0"/>
    </comp>
    <comp name="01.HHN">
      <acc value="0.3326037004" flag="0"/>
      <vel value="0.2510899075" flag="0"/>
      <psa03 value="0.8549512775" flag="0"/>
      <psa10 value="0.1580474679" flag="0"/>
      <psa30 value="0.0168007079" flag="0"/>
    </comp>
    <comp name="01.HHE">
      <acc value="0.3373402793" flag="0"/>
      <vel value="0.1574059541" flag="0"/>
      <psa03 value="0.8295190346" flag="0"/>
      <psa10 value="0.1750620168" flag="0"/>
      <psa30 value="0.0152399436" flag="0"/>
    </comp>
  </station>
  <station code="ACOR" name="ACOR" netid="HA" insttype="Horizon,120s,1200" lat="37.8905" lon="22.8694">
    <comp name="--.HHE">
      <acc value="0.0128986636" flag="0"/>
      <vel value="0.0207573195" flag="0"/>
      <psa03 value="0.0295668548" flag="0"/>
      <psa10 value="0.0344847516" flag="0"/>
      <psa30 value="0.0081930527" flag="0"/>
    </comp>
    <comp name="--.HHN">
      <acc value="0.0137538433" flag="0"/>
      <vel value="0.0211545774" flag="0"/>
      <psa03 value="0.0264616525" flag="0"/>
      <psa10 value="0.0385025206" flag="0"/>
      <psa30 value="0.0076139137" flag="0"/>
    </comp>
    <comp name="--.HHZ">
      <acc value="0.0110243724" flag="0"/>
      <vel value="0.0154285475" flag="0"/>
      <psa03 value="0.0365703307" flag="0"/>
      <psa10 value="0.0286904391" flag="0"/>
      <psa30 value="0.0061450545" flag="0"/>
    </comp>
  </station>
  <station code="ANTK" name="ANTK" netid="HA" insttype="25" lat="38.3605" lon="22.6385">
    <comp name="--.HHN">
      <acc value="0.0076672235" flag="0"/>
      <vel value="0.0096473253" flag="0"/>
      <psa03 value="0.0292920777" flag="0"/>
      <psa10 value="0.0211894450" flag="0"/>
      <psa30 value="0.0034619833" flag="0"/>
    </comp>
    <comp name="--.HHE">
      <acc value="0.0065070252" flag="0"/>
      <vel value="0.0106651018" flag="0"/>
      <psa03 value="0.0166590150" flag="0"/>
      <psa10 value="0.0175824594" flag="0"/>
      <psa30 value="0.0033016184" flag="0"/>
    </comp>
    <comp name="--.HHZ">
      <acc value="0.0066692735" flag="0"/>
      <vel value="0.0085867029" flag="0"/>
      <psa03 value="0.0131772531" flag="0"/>
      <psa10 value="0.0115514069" flag="0"/>
      <psa30 value="0.0020495574" flag="0"/>
    </comp>
  </station>
  <station code="ATHR" name="ATHR" netid="HA" insttype="GEOtiny," lat="38.3172" lon="20.4165">
    <comp name="--.HHE">
      <acc value="0.3026845105" flag="0"/>
      <vel value="0.1667623688" flag="0"/>
      <psa03 value="0.4666890024" flag="0"/>
      <psa10 value="0.2421203488" flag="0"/>
      <psa30 value="0.0242496956" flag="0"/>
    </comp>
    <comp name="--.HHZ">
      <acc value="0.1578121108" flag="0"/>
      <vel value="0.1543246712" flag="0"/>
      <psa03 value="0.3253874403" flag="0"/>
      <psa10 value="0.3179292828" flag="0"/>
      <psa30 value="0.0184321087" flag="0"/>
    </comp>
    <comp name="--.HHN">
      <acc value="0.2179539396" flag="0"/>
      <vel value="0.1711938069" flag="0"/>
      <psa03 value="0.6468775833" flag="0"/>
      <psa10 value="0.2741517339" flag="0"/>
      <psa30 value="0.0198569872" flag="0"/>
    </comp>
  </station>
  <station code="AXAR" name="AXAR" netid="HA" insttype="Horizon,120s,1200" lat="38.7664" lon="22.659">
    <comp name="--.HHE">
      <acc value="0.0625628808" flag="0"/>
      <vel value="0.0716168722" flag="0"/>
      <psa03 value="0.1357812863" flag="0"/>
      <psa10 value="0.1380768591" flag="0"/>
      <psa30 value="0.0124429260" flag="0"/>
    </comp>
    <comp name="--.HHN">
      <acc value="0.0615709911" flag="0"/>
      <vel value="0.0647079624" flag="0"/>
      <psa03 value="0.1895370131" flag="0"/>
      <psa10 value="0.1446482498" flag="0"/>
      <psa30 value="0.0148888494" flag="0"/>
    </comp>
    <comp name="--.HHZ">
      <acc value="0.0313890362" flag="0"/>
      <vel value="0.0369538929" flag="0"/>
      <psa03 value="0.0804133213" flag="0"/>
      <psa10 value="0.0679841994" flag="0"/>
      <psa30 value="0.0072004848" flag="0"/>
    </comp>
  </station>
  <station code="HAVD" name="HAVD" netid="HA" insttype="GEOtiny," lat="38.2036" lon="20.3848">
    <comp name="--.HHE">
      <acc value="0.4814872669" flag="0"/>
      <vel value="0.1782669333" flag="0"/>
      <psa03 value="1.4479074467" flag="0"/>
      <psa10 value="0.3118312207" flag="0"/>
      <psa30 value="0.0243924841" flag="0"/>
    </comp>
    <comp name="--.HHN">
      <acc value="0.6915799843" flag="0"/>
      <vel value="0.2378710650" flag="0"/>
      <psa03 value="1.2862418186" flag="0"/>
      <psa10 value="0.1894411417" flag="0"/>
      <psa30 value="0.0219367482" flag="0"/>
    </comp>
    <comp name="--.HHZ">
      <acc value="0.4002351409" flag="0"/>
      <vel value="0.1183721831" flag="0"/>
      <psa03 value="0.9174566626" flag="0"/>
      <psa10 value="0.1460132512" flag="0"/>
      <psa30 value="0.0146275669" flag="0"/>
    </comp>
  </station>
  <station code="KALE" name="KALE" netid="HA" insttype="40," lat="38.3911" lon="22.1398">
    <comp name="--.HHE">
      <acc value="0.0531357607" flag="0"/>
      <vel value="0.0406161888" flag="0"/>
      <psa03 value="0.1766636819" flag="0"/>
      <psa10 value="0.0776704098" flag="0"/>
      <psa30 value="0.0057969664" flag="0"/>
    </comp>
    <comp name="--.HHZ">
      <acc value="0.0497747474" flag="0"/>
      <vel value="0.0274445812" flag="0"/>
      <psa03 value="0.1482986212" flag="0"/>
      <psa10 value="0.0455312287" flag="0"/>
      <psa30 value="0.0087821027" flag="0"/>
    </comp>
    <comp name="--.HHN">
      <acc value="0.0800559808" flag="0"/>
      <vel value="0.0475480797" flag="0"/>
      <psa03 value="0.1744098319" flag="0"/>
      <psa10 value="0.1009855522" flag="0"/>
      <psa30 value="0.0053190615" flag="0"/>
    </comp>
  </station>
  <station code="LAKA" name="LAKA" netid="HA" insttype="120s," lat="38.2401" lon="21.9785">
    <comp name="--.HHE">
      <acc value="0.0593651487" flag="0"/>
      <vel value="0.0558517444" flag="0"/>
      <psa03 value="0.1367307117" flag="0"/>
      <psa10 value="0.0626261318" flag="0"/>
      <psa30 value="0.0122226502" flag="0"/>
    </comp>
    <comp name="--.HHN">
      <acc value="0.0815063493" flag="0"/>
      <vel value="0.0529590291" flag="0"/>
      <psa03 value="0.1482128667" flag="0"/>
      <psa10 value="0.1196589049" flag="0"/>
      <psa30 value="0.0140471356" flag="0"/>
    </comp>
    <comp name="--.HHZ">
      <acc value="0.0525920911" flag="0"/>
      <vel value="0.0555496949" flag="0"/>
      <psa03 value="0.0977594706" flag="0"/>
      <psa10 value="0.0381883215" flag="0"/>
      <psa30 value="0.0128708251" flag="0"/>
    </comp>
  </station>
  <station code="LOUT" name="LOUT" netid="HA" insttype="30" lat="37.9879" lon="22.9743">
    <comp name="--.HHE">
      <acc value="0.0273383983" flag="0"/>
      <vel value="0.0389952875" flag="0"/>
      <psa03 value="0.0622679862" flag="0"/>
      <psa10 value="0.0812433247" flag="0"/>
      <psa30 value="0.0054055743" flag="0"/>
    </comp>
    <comp name="--.HHN">
      <acc value="0.0292384893" flag="0"/>
      <vel value="0.0312617246" flag="0"/>
      <psa03 value="0.0554518360" flag="0"/>
      <psa10 value="0.0646302188" flag="0"/>
      <psa30 value="0.0044942738" flag="0"/>
    </comp>
    <comp name="--.HHZ">
      <acc value="0.0143304092" flag="0"/>
      <vel value="0.0202746048" flag="0"/>
      <psa03 value="0.0318230992" flag="0"/>
      <psa10 value="0.0277562365" flag="0"/>
      <psa30 value="0.0060372092" flag="0"/>
    </comp>
  </station>
  <station code="PRDM" name="PRDM" netid="HA" insttype="25" lat="38.2804" lon="22.847">
    <comp name="--.HHE">
      <acc value="0.0093408599" flag="0"/>
      <vel value="0.0097712458" flag="0"/>
      <psa03 value="0.0254517776" flag="0"/>
      <psa10 value="0.0141739814" flag="0"/>
      <psa30 value="0.0021003797" flag="0"/>
    </comp>
    <comp name="--.HHN">
      <acc value="0.0071405495" flag="0"/>
      <vel value="0.0079605296" flag="0"/>
      <psa03 value="0.0216425576" flag="0"/>
      <psa10 value="0.0096507324" flag="0"/>
      <psa30 value="0.0016833640" flag="0"/>
    </comp>
    <comp name="--.HHZ">
      <acc value="0.0060931822" flag="0"/>
      <vel value="0.0062371294" flag="0"/>
      <psa03 value="0.0170597491" flag="0"/>
      <psa10 value="0.0076427549" flag="0"/>
      <psa30 value="0.0018920102" flag="0"/>
    </comp>
  </station>
  <station code="THAL" name="THAL" netid="HA" insttype="30" lat="38.0357" lon="22.6634">
    <comp name="--.HHE">
      <acc value="0.1138725396" flag="0"/>
      <vel value="0.1049232449" flag="0"/>
      <psa03 value="0.2556007286" flag="0"/>
      <psa10 value="0.1654447205" flag="0"/>
      <psa30 value="0.0174515201" flag="0"/>
    </comp>
    <comp name="--.HHZ">
      <acc value="0.0409483319" flag="0"/>
      <vel value="0.0317161858" flag="0"/>
      <psa03 value="0.1214457750" flag="0"/>
      <psa10 value="0.0639038285" flag="0"/>
      <psa30 value="0.0055666710" flag="0"/>
    </comp>
    <comp name="--.HHN">
      <acc value="0.0719841876" flag="0"/>
      <vel value="0.0766730304" flag="0"/>
      <psa03 value="0.1905565125" flag="0"/>
      <psa10 value="0.0858867067" flag="0"/>
      <psa30 value="0.0114269787" flag="0"/>
    </comp>
  </station>
  <station code="AGR3" name="AGR3" netid="HI" insttype="unknown" lat="38.5893" lon="21.4162">
    <comp name="--.HNE">
      <acc value="0.5095823082" flag="0"/>
      <vel value="0.4276866848" flag="0"/>
      <psa03 value="1.2237873925" flag="0"/>
      <psa10 value="0.8841712906" flag="0"/>
      <psa30 value="0.0741644962" flag="0"/>
    </comp>
    <comp name="--.HNN">
      <acc value="0.6084927642" flag="0"/>
      <vel value="0.4501798127" flag="0"/>
      <psa03 value="1.3772131479" flag="0"/>
      <psa10 value="0.6856253119" flag="0"/>
      <psa30 value="0.0769949963" flag="0"/>
    </comp>
    <comp name="--.HNZ">
      <acc value="0.2690781428" flag="0"/>
      <vel value="0.2380584741" flag="0"/>
      <psa03 value="0.6227158258" flag="0"/>
      <psa10 value="0.4447969335" flag="0"/>
      <psa30 value="0.0302332939" flag="0"/>
    </comp>
  </station>
  <station code="AIG2" name="AIG2" netid="HI" insttype="unknown" lat="38.2417" lon="22.0726">
    <comp name="--.HNZ">
      <acc value="0.0676228406" flag="0"/>
      <vel value="0.0537328267" flag="0"/>
      <psa03 value="0.1985824206" flag="0"/>
      <psa10 value="0.0821664721" flag="0"/>
      <psa30 value="0.0164497435" flag="0"/>
    </comp>
    <comp name="--.HNN">
      <acc value="0.1092720482" flag="0"/>
      <vel value="0.0865396274" flag="0"/>
      <psa03 value="0.2912168005" flag="0"/>
      <psa10 value="0.0799234354" flag="0"/>
      <psa30 value="0.0269039575" flag="0"/>
    </comp>
    <comp name="--.HNE">
      <acc value="0.1143955916" flag="0"/>
      <vel value="0.0874090505" flag="0"/>
      <psa03 value="0.3442559964" flag="0"/>
      <psa10 value="0.1363990305" flag="0"/>
      <psa30 value="0.0235335265" flag="0"/>
    </comp>
  </station>
  <station code="AOL1" name="AOL1" netid="HI" insttype="unknown" lat="37.6424" lon="21.6246">
    <comp name="--.HNN">
      <acc value="0.2062744045" flag="0"/>
      <vel value="0.2662476666" flag="0"/>
      <psa03 value="0.5302495627" flag="0"/>
      <psa10 value="0.2399428728" flag="0"/>
      <psa30 value="0.0607972695" flag="0"/>
    </comp>
    <comp name="--.HNE">
      <acc value="0.1955492718" flag="0"/>
