<stationlist created="1739957504">
	<station code="AGRP" name="AGRP" netid="CL" source="Corinth Riff Laboratory (CRLNET)" insttype="" lat="38.3959" lon="21.72277">
		<comp name="00.HNE" depth="0.0">
			<acc value="0.27059595044388" flag="0"/>
			<vel value="0.225272658586" flag="0"/>
			<psa03 value="1.05244613605667" flag="0"/>
			<psa10 value="0.230914586957916" flag="0"/>
			<psa30 value="0.0164949260412447" flag="0"/>
		</comp>
		<comp name="00.HNN" depth="0.0">
			<acc value="0.26078281488516" flag="0"/>
			<vel value="0.204972911883" flag="0"/>
			<psa03 value="0.583470068697103" flag="0"/>
			<psa10 value="0.237385970655384" flag="0"/>
			<psa30 value="0.023269293143132" flag="0"/>
		</comp>
		<comp name="00.HNZ" depth="0.0">
			<acc value="0.1319695975068" flag="0"/>
			<vel value="0.07139996111" flag="0"/>
			<psa03 value="0.313754722210427" flag="0"/>
			<psa10 value="0.0953739480561741" flag="0"/>
			<psa30 value="0.0107969735798383" flag="0"/>
		</comp>
	</station>
	<station code="MALA" name="MALA" netid="CL" source="Corinth Riff Laboratory (CRLNET)" insttype="" lat="38.39341" lon="21.87263">
		<comp name="01.HNE" depth="0.0">
			<acc value="0.4567786970859" flag="0"/>
			<vel value="0.371485453395" flag="0"/>
			<psa03 value="1.21332229331508" flag="0"/>
			<psa10 value="0.670467195162038" flag="0"/>
			<psa30 value="0.0607832199234321" flag="0"/>
		</comp>
		<comp name="01.HNN" depth="0.0">
			<acc value="0.41279246483778" flag="0"/>
			<vel value="0.259825544269" flag="0"/>
			<psa03 value="1.37893868125525" flag="0"/>
			<psa10 value="0.444047745983023" flag="0"/>
			<psa30 value="0.0522478444963995" flag="0"/>
		</comp>
		<comp name="01.HNZ" depth="0.0">
			<acc value="0.13199523496404" flag="0"/>
			<vel value="0.131360797198" flag="0"/>
			<psa03 value="0.465361619588808" flag="0"/>
			<psa10 value="0.142905151765078" flag="0"/>
			<psa30 value="0.0193699348297985" flag="0"/>
		</comp>
	</station>
	<station code="ROD3" name="ROD3" netid="CL" source="Corinth Riff Laboratory (CRLNET)" insttype="" lat="38.30811" lon="21.89204">
		<comp name="00.HNE" depth="0.0">
			<acc value="0.42946524778854" flag="0"/>
			<vel value="0.230922159196" flag="0"/>
			<psa03 value="1.61851438530289" flag="0"/>
			<psa10 value="0.155635265072608" flag="0"/>
			<psa30 value="0.0110472743277167" flag="0"/>
		</comp>
		<comp name="00.HNN" depth="0.0">
			<acc value="0.72573036937158" flag="0"/>
			<vel value="0.343242685306" flag="0"/>
			<psa03 value="2.02172359593167" flag="0"/>
			<psa10 value="0.218857688247894" flag="0"/>
			<psa30 value="0.019613719312638" flag="0"/>
		</comp>
		<comp name="00.HNZ" depth="0.0">
			<acc value="0.1655238421983" flag="0"/>
			<vel value="0.12745394893" flag="0"/>
			<psa03 value="0.411212324131524" flag="0"/>
			<psa10 value="0.126841007594343" flag="0"/>
			<psa30 value="0.0148758971218498" flag="0"/>
		</comp>
	</station>
	<station code="TRIZ" name="TRIZ" netid="CL" source="Corinth Riff Laboratory (CRLNET)" insttype="" lat="38.36543" lon="22.07272">
		<comp name="00.HNE" depth="0.0">
			<acc value="0.094616610726606" flag="0"/>
			<vel value="0.0560387545612" flag="0"/>
			<psa03 value="0.190367694258916" flag="0"/>
			<psa10 value="0.0617172084623519" flag="0"/>
			<psa30 value="0.0100196945889058" flag="0"/>
		</comp>
		<comp name="00.HNN" depth="0.0">
			<acc value="0.11228174407296" flag="0"/>
			<vel value="0.0862134265159" flag="0"/>
			<psa03 value="0.372197197904447" flag="0"/>
			<psa10 value="0.0580746971638224" flag="0"/>
			<psa30 value="0.0101426327329841" flag="0"/>
		</comp>
		<comp name="00.HNZ" depth="0.0">
			<acc value="0.067721567787996" flag="0"/>
			<vel value="0.0340424993996" flag="0"/>
			<psa03 value="0.153786489683694" flag="0"/>
			<psa10 value="0.0590646014900139" flag="0"/>
			<psa30 value="0.00824537538230366" flag="0"/>
		</comp>
	</station>
	<station code="KTHA" name="KTHA" netid="GE" source="GEOFON" insttype="" lat="36.2566" lon="23.0621">
		<comp name=".HNE" depth="0.0">
			<acc value="0.002526825834294" flag="0"/>
			<vel value="0.00344389726705" flag="0"/>
			<psa03 value="0.00561904671344662" flag="0"/>
			<psa10 value="0.00631076852621228" flag="0"/>
			<psa30 value="0.00118112147266883" flag="0"/>
		</comp>
		<comp name=".HNN" depth="0.0">
			<acc value="0.0047305823364" flag="0"/>
			<vel value="0.0126896573835" flag="0"/>
			<psa03 value="0.00907377231682579" flag="0"/>
			<psa10 value="0.00804633896796026" flag="0"/>
			<psa30 value="0.00562716443870307" flag="0"/>
		</comp>
		<comp name=".HNZ" depth="0.0">
			<acc value="0.0029504969008182" flag="0"/>
			<vel value="0.00293482137323" flag="0"/>
			<psa03 value="0.00617531012566015" flag="0"/>
			<psa10 value="0.00431328354636814" flag="0"/>
			<psa30 value="0.000763381299431512" flag="0"/>
		</comp>
	</station>
	<station code="ATHU" name="ATHU" netid="HA" source="Hellenic Seismological Network, University of Athens, Seismological Laboratory (HA)" insttype="" lat="37.9665" lon="23.7845">
		<comp name=".HNE" depth="0.0">
			<acc value="0.00024898141162422" flag="0"/>
			<vel value="0.000354252441616" flag="0"/>
			<psa03 value="0.000701611256948661" flag="0"/>
			<psa10 value="0.000380602547035083" flag="0"/>
			<psa30 value="0.000124396391691895" flag="0"/>
		</comp>
		<comp name=".HNN" depth="0.0">
			<acc value="0.00016950875009016" flag="0"/>
			<vel value="0.000266036676349" flag="0"/>
			<psa03 value="0.000351091332622131" flag="0"/>
			<psa10 value="0.000249316721087152" flag="0"/>
			<psa30 value="0.000113862751181738" flag="0"/>
		</comp>
		<comp name=".HNZ" depth="0.0">
			<acc value="0.00024450599305086" flag="0"/>
			<vel value="0.000332175309615" flag="0"/>
			<psa03 value="0.00054634153098664" flag="0"/>
			<psa10 value="0.000345825878017139" flag="0"/>
			<psa30 value="0.000123949291761546" flag="0"/>
		</comp>
	</station>
	<station code="KIAS" name="KIAS" netid="HA" source="Hellenic Seismological Network, University of Athens, Seismological Laboratory (HA)" insttype="" lat="37.9875" lon="22.7543">
		<comp name=".HNE" depth="0.0">
			<acc value="0.058062980100492" flag="0"/>
			<vel value="0.096011705905" flag="0"/>
			<psa03 value="0.109094310296205" flag="0"/>
			<psa10 value="0.116825076588003" flag="0"/>
			<psa30 value="0.0218700854525161" flag="0"/>
		</comp>
		<comp name=".HNN" depth="0.0">
			<acc value="0.043686411659142" flag="0"/>
			<vel value="0.0865924291859" flag="0"/>
			<psa03 value="0.111267235491485" flag="0"/>
			<psa10 value="0.124810098056381" flag="0"/>
			<psa30 value="0.0342256572818299" flag="0"/>
		</comp>
		<comp name=".HNZ" depth="0.0">
			<acc value="0.034647345003858" flag="0"/>
			<vel value="0.0400257380231" flag="0"/>
			<psa03 value="0.0789954882715712" flag="0"/>
			<psa10 value="0.0818477845139143" flag="0"/>
			<psa30 value="0.0117705647421519" flag="0"/>
		</comp>
	</station>
	<station code="AGR3" name="AGR3" netid="HI" source="ITSAK Strong Motion Network" insttype="" lat="38.5893" lon="21.4162">
		<comp name=".HNE" depth="0.0">
			<acc value="0.50981027879334" flag="0"/>
			<vel value="0.425680477065" flag="0"/>
			<psa03 value="1.22749781570459" flag="0"/>
			<psa10 value="0.883876372470827" flag="0"/>
			<psa30 value="0.0741500387429411" flag="0"/>
		</comp>
		<comp name=".HNN" depth="0.0">
			<acc value="0.60765378186558" flag="0"/>
			<vel value="0.449969501404" flag="0"/>
			<psa03 value="1.37422136875319" flag="0"/>
			<psa10 value="0.684792664155094" flag="0"/>
			<psa30 value="0.0774489172772058" flag="0"/>
		</comp>
		<comp name=".HNZ" depth="0.0">
			<acc value="0.2686820110107" flag="0"/>
			<vel value="0.238277101962" flag="0"/>
			<psa03 value="0.608522394956539" flag="0"/>
			<psa10 value="0.445596958613642" flag="0"/>
			<psa30 value="0.0305226353081411" flag="0"/>
		</comp>
	</station>
	<station code="AIG2" name="AIG2" netid="HI" source="ITSAK Strong Motion Network" insttype="" lat="38.2417" lon="22.0726">
		<comp name=".HNE" depth="0.0">
			<acc value="0.1145832315657" flag="0"/>
			<vel value="0.08642792698" flag="0"/>
			<psa03 value="0.34466658246941" flag="0"/>
			<psa10 value="0.136262111696158" flag="0"/>
			<psa30 value="0.0235251917618117" flag="0"/>
		</comp>
		<comp name=".HNN" depth="0.0">
			<acc value="0.10971027170922" flag="0"/>
			<vel value="0.0882431883243" flag="0"/>
			<psa03 value="0.295766947275501" flag="0"/>
			<psa10 value="0.0797359821173364" flag="0"/>
			<psa30 value="0.0270653629474443" flag="0"/>
		</comp>
		<comp name=".HNZ" depth="0.0">
			<acc value="0.067468786442016" flag="0"/>
			<vel value="0.0551827898513" flag="0"/>
			<psa03 value="0.203050076071035" flag="0"/>
			<psa10 value="0.0822154963732577" flag="0"/>
			<psa30 value="0.0166968110817953" flag="0"/>
		</comp>
	</station>
	<station code="AOL1" name="AOL1" netid="HI" source="ITSAK Strong Motion Network" insttype="" lat="37.642378" lon="21.624555">
		<comp name=".HNE" depth="0.0">
			<acc value="0.19561966338114" flag="0"/>
			<vel value="0.16737512986" flag="0"/>
			<psa03 value="0.515722122393947" flag="0"/>
			<psa10 value="0.300640645967451" flag="0"/>
			<psa30 value="0.0478369889659154" flag="0"/>
		</comp>
		<comp name=".HNN" depth="0.0">
			<acc value="0.20524277911494" flag="0"/>
			<vel value="0.26687182328" flag="0"/>
			<psa03 value="0.522591327443935" flag="0"/>
			<psa10 value="0.240359122612173" flag="0"/>
			<psa30 value="0.0607147020509421" flag="0"/>
		</comp>
		<comp name=".HNZ" depth="0.0">
			<acc value="0.14257117378242" flag="0"/>
			<vel value="0.116014689345" flag="0"/>
			<psa03 value="0.349407438194424" flag="0"/>
			<psa10 value="0.213480027003926" flag="0"/>
			<psa30 value="0.0231950282234626" flag="0"/>
		</comp>
	</station>
	<station code="ARG2" name="ARG2" netid="HI" source="ITSAK Strong Motion Network" insttype="" lat="38.1783" lon="20.4878">
		<comp name=".HNE" depth="0.0">
			<acc value="1.1916078888864" flag="0"/>
			<vel value="0.450528529869" flag="0"/>
			<psa03 value="2.89702991401415" flag="0"/>
			<psa10 value="0.145245456798547" flag="0"/>
			<psa30 value="0.0224219970139134" flag="0"/>
		</comp>
		<comp name=".HNN" depth="0.0">
			<acc value="1.3653964720746" flag="0"/>
			<vel value="0.42855160535" flag="0"/>
			<psa03 value="2.7907270386371" flag="0"/>
			<psa10 value="0.297766335558524" flag="0"/>
			<psa30 value="0.0221490139301201" flag="0"/>
		</comp>
		<comp name=".HNZ" depth="0.0">
			<acc value="0.72429780953502" flag="0"/>
			<vel value="0.311779787647" flag="0"/>
			<psa03 value="2.4915393855888" flag="0"/>
			<psa10 value="0.208541819872065" flag="0"/>
			<psa30 value="0.0166720677759974" flag="0"/>
		</comp>
	</station>
	<station code="ARS1" name="ARS1" netid="HI" source="ITSAK Strong Motion Network" insttype="" lat="37.6349" lon="22.7293">
		<comp name=".HNE" depth="0.0">
			<acc value="0.043757014947648" flag="0"/>
			<vel value="0.0493493392628" flag="0"/>
			<psa03 value="0.116869585786336" flag="0"/>
			<psa10 value="0.0788923712323143" flag="0"/>
			<psa30 value="0.0105436667995155" flag="0"/>
		</comp>
		<comp name=".HNN" depth="0.0">
			<acc value="0.04432905544968" flag="0"/>
			<vel value="0.0497039774151" flag="0"/>
			<psa03 value="0.146464587976793" flag="0"/>
			<psa10 value="0.0634784976388024" flag="0"/>
			<psa30 value="0.012995579226657" flag="0"/>
		</comp>
		<comp name=".HNZ" depth="0.0">
			<acc value="0.020314182618444" flag="0"/>
			<vel value="0.026274759659" flag="0"/>
			<psa03 value="0.0762294144078207" flag="0"/>
			<psa10 value="0.0321287946249777" flag="0"/>
			<psa30 value="0.008859628573578" flag="0"/>
		</comp>
	</station>
	<station code="ATH5" name="ATH5" netid="HI" source="ITSAK Strong Motion Network" insttype="" lat="37.975421" lon="23.737098">
		<comp name=".HNE" depth="0.0">
			<acc value="0.0094769430372552" flag="0"/>
			<vel value="0.014960662253" flag="0"/>
			<psa03 value="0.0192219960191706" flag="0"/>
			<psa10 value="0.0256327624197138" flag="0"/>
			<psa30 value="0.00383759713864408" flag="0"/>
		</comp>
		<comp name=".HNN" depth="0.0">
			<acc value="0.0083094736601616" flag="0"/>
			<vel value="0.0108317431495" flag="0"/>
			<psa03 value="0.0241880033781649" flag="0"/>
			<psa10 value="0.0166299516526738" flag="0"/>
			<psa30 value="0.00446206475655994" flag="0"/>
		</comp>
		<comp name=".HNZ" depth="0.0">
			<acc value="0.0044743847817462" flag="0"/>
			<vel value="0.00741484328692" flag="0"/>
			<psa03 value="0.0105897926676429" flag="0"/>
			<psa10 value="0.0151629847858188" flag="0"/>
			<psa30 value="0.00288175173524437" flag="0"/>
		</comp>
	</station>
	<station code="KLR1" name="KLR1" netid="HI" source="ITSAK Strong Motion Network" insttype="" lat="40.58251" lon="22.949554">
		<comp name=".HNE" depth="0.0">
			<acc value="0.0059145961146462" flag="0"/>
			<vel value="0.0103836213484" flag="0"/>
			<psa03 value="0.0092589818516911" flag="0"/>
			<psa10 value="0.024444623711353" flag="0"/>
			<psa30 value="0.0077349232340181" flag="0"/>
		</comp>
		<comp name=".HNN" depth="0.0">
			<acc value="0.0044277365016576" flag="0"/>
			<vel value="0.00874762790949" flag="0"/>
			<psa03 value="0.0131567257351598" flag="0"/>
			<psa10 value="0.0153130519145542" flag="0"/>
			<psa30 value="0.00466565282659344" flag="0"/>
		</comp>
		<comp name=".HNZ" depth="0.0">
			<acc value="0.0035595867307194" flag="0"/>
			<vel value="0.00456254685811" flag="0"/>
			<psa03 value="0.0071160059056876" flag="0"/>
			<psa10 value="0.00790711193236032" flag="0"/>
			<psa30 value="0.00134267957093157" flag="0"/>
		</comp>
	</station>
	<station code="KOR2" name="KOR2" netid="HI" source="ITSAK Strong Motion Network" insttype="" lat="37.9401" lon="22.9495">
		<comp name=".HNE" depth="0.0">
			<acc value="0.047355685808694" flag="0"/>
			<vel value="0.0924589084013" flag="0"/>
			<psa03 value="0.122376096399018" flag="0"/>
			<psa10 value="0.0791125858205248" flag="0"/>
			<psa30 value="0.0223190201922131" flag="0"/>
		</comp>
		<comp name=".HNN" depth="0.0">
			<acc value="0.039231463137954" flag="0"/>
			<vel value="0.0575450614364" flag="0"/>
			<psa03 value="0.0985145052689763" flag="0"/>
			<psa10 value="0.0938689958603069" flag="0"/>
			<psa30 value="0.0180903933997835" flag="0"/>
		</comp>
		<comp name=".HNZ" depth="0.0">
			<acc value="0.030877358845128" flag="0"/>
			<vel value="0.039432367074" flag="0"/>
			<psa03 value="0.0700379417531671" flag="0"/>
			<psa10 value="0.0620947534727283" flag="0"/>
			<psa30 value="0.00799665890607407" flag="0"/>
		</comp>
	</station>
	<station code="KRK1" name="KRK1" netid="HI" source="ITSAK Strong Motion Network" insttype="" lat="39.618861" lon="19.9202">
		<comp name=".HNE" depth="0.0">
			<acc value="0.085218275447706" flag="0"/>
			<vel value="0.0538240976637" flag="0"/>
			<psa03 value="0.281922988514161" flag="0"/>
			<psa10 value="0.0523332205692189" flag="0"/>
			<psa30 value="0.00484611228115604" flag="0"/>
		</comp>
		<comp name=".HNN" depth="0.0">
			<acc value="0.084285199597602" flag="0"/>
			<vel value="0.0525151255493" flag="0"/>
			<psa03 value="0.213432576360715" flag="0"/>
			<psa10 value="0.0434391313792912" flag="0"/>
			<psa30 value="0.00424640005316536" flag="0"/>
		</comp>
		<comp name=".HNZ" depth="0.0">
			<acc value="0.033521951200698" flag="0"/>
			<vel value="0.0224676687205" flag="0"/>
			<psa03 value="0.102823905329204" flag="0"/>
			<psa10 value="0.0172303739276984" flag="0"/>
			<psa30 value="0.00221155442129327" flag="0"/>
		</comp>
	</station>
	<station code="KYP2" name="KYP2" netid="HI" source="ITSAK Strong Motion Network" insttype="" lat="37.2497" lon="21.667">
		<comp name=".HNE" depth="0.0">
			<acc value="0.04495321182651" flag="0"/>
			<vel value="0.030099536615" flag="0"/>
			<psa03 value="0.147901631090508" flag="0"/>
			<psa10 value="0.0469797934307331" flag="0"/>
			<psa30 value="0.00673463155297701" flag="0"/>
		</comp>
		<comp name=".HNN" depth="0.0">
			<acc value="0.045673841365062" flag="0"/>
			<vel value="0.0262456623001" flag="0"/>
			<psa03 value="0.120383662326969" flag="0"/>
			<psa10 value="0.0420952673548454" flag="0"/>
			<psa30 value="0.00774254957257656" flag="0"/>
		</comp>
		<comp name=".HNZ" depth="0.0">
			<acc value="0.031368951075366" flag="0"/>
			<vel value="0.0173982216037" flag="0"/>
			<psa03 value="0.0557428176879421" flag="0"/>
			<psa10 value="0.0351137673647745" flag="0"/>
			<psa30 value="0.00434898268209262" flag="0"/>
		</comp>
	</station>
	<station code="LAM2" name="LAM2" netid="HI" source="ITSAK Strong Motion Network" insttype="" lat="38.90203" lon="22.431301">
		<comp name=".HNE" depth="0.0">
			<acc value="0.026940313982742" flag="0"/>
			<vel value="0.0303407421398" flag="0"/>
			<psa03 value="0.089170042494326" flag="0"/>
			<psa10 value="0.0642290573597275" flag="0"/>
			<psa30 value="0.00922914388549963" flag="0"/>
		</comp>
		<comp name=".HNN" depth="0.0">
			<acc value="0.029751529843056" flag="0"/>
			<vel value="0.0411264568346" flag="0"/>
			<psa03 value="0.0886113492336305" flag="0"/>
			<psa10 value="0.0891312545083058" flag="0"/>
			<psa30 value="0.00873195178226259" flag="0"/>
		</comp>
		<comp name=".HNZ" depth="0.0">
			<acc value="0.016429861892862" flag="0"/>
			<vel value="0.0192181044085" flag="0"/>
			<psa03 value="0.0332023922038894" flag="0"/>
			<psa10 value="0.0384995216543658" flag="0"/>
			<psa30 value="0.00502187809144567" flag="0"/>
		</comp>
	</station>
	<station code="LEF2" name="LEF2" netid="HI" source="ITSAK Strong Motion Network" insttype="" lat="38.830093" lon="20.708346">
		<comp name=".HNE" depth="0.0">
			<acc value="0.61169825856528" flag="0"/>
			<vel value="0.49530476878" flag="0"/>
			<psa03 value="1.63441977228912" flag="0"/>
			<psa10 value="0.723320556435665" flag="0"/>
			<psa30 value="0.0343955785382939" flag="0"/>
		</comp>
		<comp name=".HNN" depth="0.0">
			<acc value="0.50214485480622" flag="0"/>
			<vel value="0.401422123561" flag="0"/>
			<psa03 value="1.58289069207515" flag="0"/>
			<psa10 value="0.726748283508989" flag="0"/>
			<psa30 value="0.0311103009047379" flag="0"/>
		</comp>
		<comp name=".HNZ" depth="0.0">
			<acc value="0.46237302376284" flag="0"/>
			<vel value="0.477015532906" flag="0"/>
			<psa03 value="1.01790393113881" flag="0"/>
			<psa10 value="0.750075488818307" flag="0"/>
			<psa30 value="0.0319237247901068" flag="0"/>
		</comp>
	</station>
	<station code="LMS2" name="LMS2" netid="HI" source="ITSAK Strong Motion Network" insttype="" lat="40.834985" lon="21.141815">
		<comp name=".HNE" depth="0.0">
			<acc value="0.0061421108944092" flag="0"/>
			<vel value="0.010260562381" flag="0"/>
			<psa03 value="0.0143530484752508" flag="0"/>
			<psa10 value="0.0200188111480029" flag="0"/>
			<psa30 value="0.0030490553182842" flag="0"/>
		</comp>
		<comp name=".HNN" depth="0.0">
			<acc value="0.0078767645842776" flag="0"/>
			<vel value="0.00908921235514" flag="0"/>
			<psa03 value="0.0187080687448155" flag="0"/>
			<psa10 value="0.0134406344385838" flag="0"/>
			<psa30 value="0.00265801712225398" flag="0"/>
		</comp>
		<comp name=".HNZ" depth="0.0">
			<acc value="0.0051989421522918" flag="0"/>
			<vel value="0.008175369857" flag="0"/>
			<psa03 value="0.00987303294622124" flag="0"/>
			<psa10 value="0.0144684125238024" flag="0"/>
			<psa30 value="0.00329710529204498" flag="0"/>
		</comp>
	</station>
	<station code="LXR2" name="LXR2" netid="HI" source="ITSAK Strong Motion Network" insttype="" lat="38.206718" lon="20.436386">
		<comp name=".HNE" depth="0.0">
			<acc value="0.78427130311452" flag="0"/>
			<vel value="0.405018949135" flag="0"/>
			<psa03 value="2.50496860854461" flag="0"/>
			<psa10 value="0.63737572301229" flag="0"/>
			<psa30 value="0.0328477193335192" flag="0"/>
		</comp>
		<comp name=".HNN" depth="0.0">
			<acc value="1.1339565958458" flag="0"/>
			<vel value="0.399372879487" flag="0"/>
			<psa03 value="2.08613019588661" flag="0"/>
			<psa10 value="0.615526295594952" flag="0"/>
			<psa30 value="0.0692135917274755" flag="0"/>
		</comp>
