<?xml version="1.0" encoding="UTF-8" standalone="yes"?>
<!DOCTYPE earthquake SYSTEM "stationlist.dtd">
<stationlist created="" xmlns="ch.ethz.sed.shakemap.usgs.xml">
  <station code="AGRP" name="AGRP" netid="CL" insttype="CMG40-T" lat="38.3959" lon="21.7228">
    <comp name="00.HHN">
      <acc value="0.2434855210" flag="0"/>
      <vel value="0.2060978310" flag="0"/>
      <psa03 value="0.5835986019" flag="0"/>
      <psa10 value="0.2462983672" flag="0"/>
      <psa30 value="0.0241902122" flag="0"/>
    </comp>
    <comp name="00.HHE">
      <acc value="0.2870886789" flag="0"/>
      <vel value="0.2254361544" flag="0"/>
      <psa03 value="1.0817232965" flag="0"/>
      <psa10 value="0.2359558887" flag="0"/>
      <psa30 value="0.0157370366" flag="0"/>
    </comp>
    <comp name="00.HHZ">
      <acc value="0.1298489510" flag="0"/>
      <vel value="0.0779552573" flag="0"/>
      <psa03 value="0.3169255545" flag="0"/>
      <psa10 value="0.0923302256" flag="0"/>
      <psa30 value="0.0113281227" flag="0"/>
    </comp>
  </station>
  <station code="ALIK" name="ALIK" netid="CL" insttype="TRILLIUM-40" lat="38.2605" lon="22.1114">
    <comp name="02.HHN">
      <acc value="0.2198956437" flag="0"/>
      <vel value="0.1153796422" flag="0"/>
      <psa03 value="0.8984645798" flag="0"/>
      <psa10 value="0.0720082400" flag="0"/>
      <psa30 value="0.0107520569" flag="0"/>
    </comp>
    <comp name="02.HHZ">
      <acc value="0.0702796899" flag="0"/>
      <vel value="0.0554088340" flag="0"/>
      <psa03 value="0.1786836886" flag="0"/>
      <psa10 value="0.0408940122" flag="0"/>
      <psa30 value="0.0151961541" flag="0"/>
    </comp>
    <comp name="02.HHE">
      <acc value="0.3921027774" flag="0"/>
      <vel value="0.2164683809" flag="0"/>
      <psa03 value="1.1773842611" flag="0"/>
      <psa10 value="0.1060009663" flag="0"/>
      <psa30 value="0.0201444234" flag="0"/>
    </comp>
  </station>
  <station code="MALA" name="MALA" netid="CL" insttype="TRILLIUM-40" lat="38.3934" lon="21.8726">
    <comp name="01.HHZ">
      <acc value="2.1853139071" flag="0"/>
      <vel value="0.2213840890" flag="0"/>
      <psa03 value="0.5513050333" flag="0"/>
      <psa10 value="0.1546832627" flag="0"/>
      <psa30 value="0.0258262837" flag="0"/>
    </comp>
    <comp name="01.HHE">
      <acc value="0.4576138180" flag="0"/>
      <vel value="0.3503121562" flag="0"/>
      <psa03 value="1.1948159286" flag="0"/>
      <psa10 value="0.6355104705" flag="0"/>
      <psa30 value="0.0529638423" flag="0"/>
    </comp>
    <comp name="01.HHN">
      <acc value="4.8138377519" flag="0"/>
      <vel value="0.5310260851" flag="0"/>
      <psa03 value="1.5596884974" flag="0"/>
      <psa10 value="0.4568892227" flag="0"/>
      <psa30 value="0.0626324565" flag="0"/>
    </comp>
  </station>
  <station code="MG06" name="MG06" netid="CL" insttype="TRILLIUM-40" lat="38.4129" lon="21.9462">
    <comp name="06.HHE">
      <acc value="0.1152347665" flag="0"/>
      <vel value="0.0543430642" flag="0"/>
      <psa03 value="0.3583187257" flag="0"/>
      <psa10 value="0.0619025630" flag="0"/>
      <psa30 value="0.0128908298" flag="0"/>
    </comp>
    <comp name="06.HHZ">
      <acc value="0.0565494057" flag="0"/>
      <vel value="0.0366003155" flag="0"/>
      <psa03 value="0.1943134461" flag="0"/>
      <psa10 value="0.0507631339" flag="0"/>
      <psa30 value="0.0079933146" flag="0"/>
    </comp>
    <comp name="06.HHN">
      <acc value="0.1336428174" flag="0"/>
      <vel value="0.0627566955" flag="0"/>
      <psa03 value="0.2580121589" flag="0"/>
      <psa10 value="0.0813424077" flag="0"/>
      <psa30 value="0.0104404013" flag="0"/>
    </comp>
  </station>
  <station code="PANR" name="PANR" netid="CL" insttype="TRILLIUM-40" lat="38.3735" lon="22.2497">
    <comp name="01.HHN">
      <acc value="0.0274978748" flag="0"/>
      <vel value="0.0371954783" flag="0"/>
      <psa03 value="0.1136861737" flag="0"/>
      <psa10 value="0.0599344113" flag="0"/>
      <psa30 value="0.0098247134" flag="0"/>
    </comp>
    <comp name="01.HHE">
      <acc value="0.0336347553" flag="0"/>
      <vel value="0.0451807993" flag="0"/>
      <psa03 value="0.0867818576" flag="0"/>
      <psa10 value="0.0778005041" flag="0"/>
      <psa30 value="0.0069311959" flag="0"/>
    </comp>
    <comp name="01.HHZ">
      <acc value="0.0201454498" flag="0"/>
      <vel value="0.0327964682" flag="0"/>
      <psa03 value="0.0545530379" flag="0"/>
      <psa10 value="0.0510309540" flag="0"/>
      <psa30 value="0.0104981887" flag="0"/>
    </comp>
  </station>
  <station code="PSAM" name="PSAM" netid="CL" insttype="CMG40-T" lat="38.3218" lon="22.1842">
    <comp name="00.HHE">
      <acc value="0.0936342941" flag="0"/>
      <vel value="0.0559336235" flag="0"/>
      <psa03 value="0.2882396684" flag="0"/>
      <psa10 value="0.1006980878" flag="0"/>
      <psa30 value="0.0126202943" flag="0"/>
    </comp>
    <comp name="00.HHN">
      <acc value="0.0601516733" flag="0"/>
      <vel value="0.0543636175" flag="0"/>
      <psa03 value="0.1583408792" flag="0"/>
      <psa10 value="0.0952155773" flag="0"/>
      <psa30 value="0.0147370681" flag="0"/>
    </comp>
    <comp name="00.HHZ">
      <acc value="0.0332254350" flag="0"/>
      <vel value="0.0283936878" flag="0"/>
      <psa03 value="0.0891893305" flag="0"/>
      <psa10 value="0.0402824118" flag="0"/>
      <psa30 value="0.0074824213" flag="0"/>
    </comp>
  </station>
  <station code="ROD3" name="ROD3" netid="CL" insttype="CMG40-T" lat="38.3081" lon="21.892">
    <comp name="00.HHN">
      <acc value="0.8875912176" flag="0"/>
      <vel value="0.4126631079" flag="0"/>
      <psa03 value="2.4588008789" flag="0"/>
      <psa10 value="0.2515128146" flag="0"/>
      <psa30 value="0.0231062268" flag="0"/>
    </comp>
    <comp name="00.HHE">
      <acc value="0.5353209537" flag="0"/>
      <vel value="0.2951794139" flag="0"/>
      <psa03 value="1.9611437561" flag="0"/>
      <psa10 value="0.2002739293" flag="0"/>
      <psa30 value="0.0138851587" flag="0"/>
    </comp>
    <comp name="00.HHZ">
      <acc value="0.1997301870" flag="0"/>
      <vel value="0.1528633957" flag="0"/>
      <psa03 value="0.4890654296" flag="0"/>
      <psa10 value="0.1569330295" flag="0"/>
      <psa30 value="0.0187499260" flag="0"/>
    </comp>
  </station>
  <station code="TRIZ" name="TRIZ" netid="CL" insttype="STS-2" lat="38.3654" lon="22.0727">
    <comp name="00.HH2">
      <acc value="0.1084285665" flag="0"/>
      <vel value="0.0461198927" flag="0"/>
      <psa03 value="0.2788090626" flag="0"/>
      <psa10 value="0.0681774981" flag="0"/>
      <psa30 value="0.0118046836" flag="0"/>
    </comp>
    <comp name="00.HH3">
      <acc value="0.1131708927" flag="0"/>
      <vel value="0.0777330397" flag="0"/>
      <psa03 value="0.3467482383" flag="0"/>
      <psa10 value="0.0504971618" flag="0"/>
      <psa30 value="0.0116823913" flag="0"/>
    </comp>
    <comp name="00.HHZ">
      <acc value="0.0662748005" flag="0"/>
      <vel value="0.0338850232" flag="0"/>
      <psa03 value="0.1571691734" flag="0"/>
      <psa10 value="0.0588443840" flag="0"/>
      <psa30 value="0.0077368253" flag="0"/>
    </comp>
  </station>
  <station code="ZIRI" name="ZIRI" netid="CL" insttype="TRILLIUM-40" lat="38.3051" lon="21.9476">
    <comp name="01.HHZ">
      <acc value="0.2511976117" flag="0"/>
      <vel value="0.1330594541" flag="0"/>
      <psa03 value="0.8939949898" flag="0"/>
      <psa10 value="0.0810186814" flag="0"/>
      <psa30 value="0.0182968527" flag="0"/>
    </comp>
    <comp name="01.HHN">
      <acc value="0.3326037004" flag="0"/>
      <vel value="0.2510899075" flag="0"/>
      <psa03 value="0.8549512775" flag="0"/>
      <psa10 value="0.1580474679" flag="0"/>
      <psa30 value="0.0168007079" flag="0"/>
    </comp>
    <comp name="01.HHE">
      <acc value="0.3373402793" flag="0"/>
      <vel value="0.1574059541" flag="0"/>
      <psa03 value="0.8295190346" flag="0"/>
      <psa10 value="0.1750620168" flag="0"/>
      <psa30 value="0.0152399436" flag="0"/>
    </comp>
  </station>
  <station code="KLV" name="KLV" netid="MN" insttype="" lat="38.0437" lon="22.1504">
    <comp name="--.HHE">
      <acc value="0.0679100059" flag="0"/>
      <vel value="0.0356000105" flag="0"/>
      <psa03 value="0.1086622341" flag="0"/>
      <psa10 value="0.0410660494" flag="0"/>
      <psa30 value="0.0062654713" flag="0"/>
    </comp>
    <comp name="--.HHZ">
      <acc value="0.0621832859" flag="0"/>
      <vel value="0.0312298793" flag="0"/>
      <psa03 value="0.1280053313" flag="0"/>
      <psa10 value="0.0519850583" flag="0"/>
      <psa30 value="0.0065059938" flag="0"/>
    </comp>
    <comp name="--.HHN">
      <acc value="0.0447364911" flag="0"/>
      <vel value="0.0330533923" flag="0"/>
      <psa03 value="0.0873978975" flag="0"/>
      <psa10 value="0.0369947318" flag="0"/>
      <psa30 value="0.0045721499" flag="0"/>
    </comp>
  </station>
</stationlist>
