<?xml version="1.0" encoding="UTF-8" standalone="yes"?>
<!DOCTYPE earthquake SYSTEM "stationlist.dtd">
<stationlist created="" xmlns="ch.ethz.sed.shakemap.usgs.xml">
  <station code="ARPRA" name="ARPRA" netid="KO" insttype="CMG-5T" lat="39.0929" lon="38.3356">
    <comp name="--.HNE">
      <acc value="0.0070796098" flag="0"/>
      <vel value="0.0038952467" flag="0"/>
      <psa03 value="0.0253211535" flag="0"/>
      <psa10 value="0.0027203055" flag="0"/>
      <psa30 value="0.0002987255" flag="0"/>
    </comp>
    <comp name="--.HNN">
      <acc value="0.0086881293" flag="0"/>
      <vel value="0.0057570274" flag="0"/>
      <psa03 value="0.0287985104" flag="0"/>
      <psa10 value="0.0037512321" flag="0"/>
      <psa30 value="0.0003295584" flag="0"/>
    </comp>
    <comp name="--.HNZ">
      <acc value="0.0046295558" flag="0"/>
      <vel value="0.0018966444" flag="0"/>
      <psa03 value="0.0148452110" flag="0"/>
      <psa10 value="0.0027838874" flag="0"/>
      <psa30 value="0.0003034385" flag="0"/>
    </comp>
  </station>
  <station code="SVRC" name="SVRC" netid="KO" insttype="CMG-3T" lat="38.3775" lon="39.306">
    <comp name="--.HHE">
      <acc value="0.0099861746" flag="0"/>
      <vel value="0.0039722560" flag="0"/>
      <psa03 value="0.0189229854" flag="0"/>
      <psa10 value="0.0019256961" flag="0"/>
      <psa30 value="0.0003475551" flag="0"/>
    </comp>
    <comp name="--.HHN">
      <acc value="0.0127525927" flag="0"/>
      <vel value="0.0030605335" flag="0"/>
      <psa03 value="0.0155571151" flag="0"/>
      <psa10 value="0.0018629258" flag="0"/>
      <psa30 value="0.0001504709" flag="0"/>
    </comp>
    <comp name="--.HHZ">
      <acc value="0.0095517624" flag="0"/>
      <vel value="0.0030232588" flag="0"/>
      <psa03 value="0.0180397607" flag="0"/>
      <psa10 value="0.0015621700" flag="0"/>
      <psa30 value="0.0002335214" flag="0"/>
    </comp>
  </station>
  <station code="URFA" name="URFA" netid="KO" insttype="CMG-3ESP" lat="37.4409" lon="38.8213">
    <comp name="--.HHE">
      <acc value="0.0106809896" flag="0"/>
      <vel value="0.0032268679" flag="0"/>
      <psa03 value="0.0137827355" flag="0"/>
      <psa10 value="0.0022500141" flag="0"/>
      <psa30 value="0.0003728674" flag="0"/>
    </comp>
    <comp name="--.HHN">
      <acc value="0.0084372490" flag="0"/>
      <vel value="0.0032816156" flag="0"/>
      <psa03 value="0.0138740724" flag="0"/>
      <psa10 value="0.0021434549" flag="0"/>
      <psa30 value="0.0003258779" flag="0"/>
    </comp>
    <comp name="--.HHZ">
      <acc value="0.0113303246" flag="0"/>
      <vel value="0.0031663614" flag="0"/>
      <psa03 value="0.0115261555" flag="0"/>
      <psa10 value="0.0017179753" flag="0"/>
      <psa30 value="0.0002755166" flag="0"/>
    </comp>
  </station>
</stationlist>
