<?xml version="1.0" encoding="UTF-8" standalone="yes"?>
<!DOCTYPE earthquake SYSTEM "stationlist.dtd">
<stationlist created="" xmlns="ch.ethz.sed.shakemap.usgs.xml">
  <station code="ARPRA" name="ARPRA" netid="KO" insttype="CMG-5T" lat="39.0929" lon="38.3356">
    <comp name="--.HNN">
      <acc value="0.0086881285" flag="0"/>
      <vel value="0.0057570279" flag="0"/>
      <psa03 value="0.0287985104" flag="0"/>
      <psa10 value="0.0037512321" flag="0"/>
      <psa30 value="0.0003293940" flag="0"/>
    </comp>
    <comp name="--.HNZ">
      <acc value="0.0046295562" flag="0"/>
      <vel value="0.0018966456" flag="0"/>
      <psa03 value="0.0148452110" flag="0"/>
      <psa10 value="0.0027838873" flag="0"/>
      <psa30 value="0.0003034483" flag="0"/>
    </comp>
    <comp name="--.HNE">
      <acc value="0.0070796079" flag="0"/>
      <vel value="0.0038952479" flag="0"/>
      <psa03 value="0.0253211535" flag="0"/>
      <psa10 value="0.0027203052" flag="0"/>
      <psa30 value="0.0002988043" flag="0"/>
    </comp>
  </station>
  <station code="SVRC" name="SVRC" netid="KO" insttype="CMG-3T" lat="38.3775" lon="39.306">
    <comp name="--.HHN">
      <acc value="0.0127525926" flag="0"/>
      <vel value="0.0030605334" flag="0"/>
      <psa03 value="0.0155571151" flag="0"/>
      <psa10 value="0.0018629258" flag="0"/>
      <psa30 value="0.0001504715" flag="0"/>
    </comp>
    <comp name="--.HHE">
      <acc value="0.0099861747" flag="0"/>
      <vel value="0.0039722564" flag="0"/>
      <psa03 value="0.0189229854" flag="0"/>
      <psa10 value="0.0019256961" flag="0"/>
      <psa30 value="0.0003475375" flag="0"/>
    </comp>
    <comp name="--.HHZ">
      <acc value="0.0095517624" flag="0"/>
      <vel value="0.0030232586" flag="0"/>
      <psa03 value="0.0180397607" flag="0"/>
      <psa10 value="0.0015621700" flag="0"/>
      <psa30 value="0.0002335224" flag="0"/>
    </comp>
  </station>
  <station code="URFA" name="URFA" netid="KO" insttype="CMG-3ESP" lat="37.4409" lon="38.8213">
    <comp name="--.HHE">
      <acc value="0.0106809896" flag="0"/>
      <vel value="0.0032268672" flag="0"/>
      <psa03 value="0.0137827355" flag="0"/>
      <psa10 value="0.0022500141" flag="0"/>
      <psa30 value="0.0003728677" flag="0"/>
    </comp>
    <comp name="--.HHN">
      <acc value="0.0084372490" flag="0"/>
      <vel value="0.0032816157" flag="0"/>
      <psa03 value="0.0138740724" flag="0"/>
      <psa10 value="0.0021434549" flag="0"/>
      <psa30 value="0.0003258802" flag="0"/>
    </comp>
    <comp name="--.HHZ">
      <acc value="0.0113303246" flag="0"/>
      <vel value="0.0031663615" flag="0"/>
      <psa03 value="0.0115261555" flag="0"/>
      <psa10 value="0.0017179753" flag="0"/>
      <psa30 value="0.0002755164" flag="0"/>
    </comp>
  </station>
</stationlist>
