<?xml version="1.0" encoding="UTF-8" standalone="yes"?>
<!DOCTYPE earthquake SYSTEM "stationlist.dtd">
<stationlist created="" xmlns="ch.ethz.sed.shakemap.usgs.xml">
  <station code="KARP" name="KARP" netid="GE" source="GFZ" insttype="STS-2/N" lat="35.5471" lon="27.1611">
    <comp name="--.HHE">
      <acc value="0.0735947711" flag="0"/>
      <vel value="0.0366993616" flag="0"/>
      <psa03 value="0.1185474389" flag="0"/>
      <psa10 value="0.0584955866" flag="0"/>
      <psa30 value="0.0064052315" flag="0"/>
    </comp>
    <comp name="--.HHN">
      <acc value="0.0727827604" flag="0"/>
      <vel value="0.0382272060" flag="0"/>
      <psa03 value="0.1635462240" flag="0"/>
      <psa10 value="0.0508788999" flag="0"/>
      <psa30 value="0.0055362390" flag="0"/>
    </comp>
    <comp name="--.HHZ">
      <acc value="0.0647103051" flag="0"/>
      <vel value="0.0262956723" flag="0"/>
      <psa03 value="0.2007024904" flag="0"/>
      <psa10 value="0.0465551372" flag="0"/>
      <psa30 value="0.0063755922" flag="0"/>
    </comp>
  </station>
  <station code="ZKR" name="ZKR" netid="GE" source="GFZ" insttype="STS-2/N" lat="35.1147" lon="26.2169">
    <comp name="--.HHE">
      <acc value="0.0261553740" flag="0"/>
      <vel value="0.0202559947" flag="0"/>
      <psa03 value="0.0974327463" flag="0"/>
      <psa10 value="0.0313374299" flag="0"/>
      <psa30 value="0.0048989366" flag="0"/>
    </comp>
    <comp name="--.HHN">
      <acc value="0.0172550622" flag="0"/>
      <vel value="0.0125195636" flag="0"/>
      <psa03 value="0.0701148318" flag="0"/>
      <psa10 value="0.0117779348" flag="0"/>
      <psa30 value="0.0018132382" flag="0"/>
    </comp>
    <comp name="--.HHZ">
      <acc value="0.0176177769" flag="0"/>
      <vel value="0.0143245753" flag="0"/>
      <psa03 value="0.0470209870" flag="0"/>
      <psa10 value="0.0323396252" flag="0"/>
      <psa30 value="0.0036770051" flag="0"/>
    </comp>
  </station>
  <station code="FRMA" name="FRMA" netid="HC" source="NOA" insttype="60" lat="35.0187" lon="25.8555">
    <comp name="--.HHE">
      <acc value="0.0199879726" flag="0"/>
      <vel value="0.0137512845" flag="0"/>
      <psa03 value="0.0549595630" flag="0"/>
      <psa10 value="0.0281318341" flag="0"/>
      <psa30 value="0.0039588595" flag="0"/>
    </comp>
    <comp name="--.HHN">
      <acc value="0.0146379933" flag="0"/>
      <vel value="0.0128786320" flag="0"/>
      <psa03 value="0.0538324201" flag="0"/>
      <psa10 value="0.0208103809" flag="0"/>
      <psa30 value="0.0058092143" flag="0"/>
    </comp>
    <comp name="--.HHZ">
      <acc value="0.0094573294" flag="0"/>
      <vel value="0.0067266478" flag="0"/>
      <psa03 value="0.0276250621" flag="0"/>
      <psa10 value="0.0158750131" flag="0"/>
      <psa30 value="0.0038502600" flag="0"/>
    </comp>
  </station>
  <station code="KARP" name="KARP" netid="HL" source="NOA" insttype="120" lat="35.5471" lon="27.1611">
    <comp name="--.HHE">
      <acc value="0.0710031772" flag="0"/>
      <vel value="0.0363202041" flag="0"/>
      <psa03 value="0.1159160633" flag="0"/>
      <psa10 value="0.0580249360" flag="0"/>
      <psa30 value="0.0063975440" flag="0"/>
    </comp>
    <comp name="--.HHN">
      <acc value="0.0710910151" flag="0"/>
      <vel value="0.0372191488" flag="0"/>
      <psa03 value="0.1592233597" flag="0"/>
      <psa10 value="0.0505100224" flag="0"/>
      <psa30 value="0.0055282757" flag="0"/>
    </comp>
    <comp name="--.HHZ">
      <acc value="0.0618031749" flag="0"/>
      <vel value="0.0254333069" flag="0"/>
      <psa03 value="0.1950705803" flag="0"/>
      <psa10 value="0.0462869578" flag="0"/>
      <psa30 value="0.0063670734" flag="0"/>
    </comp>
  </station>
  <station code="ZKR" name="ZKR" netid="HL" source="NOA" insttype="120" lat="35.1147" lon="26.2169">
    <comp name="--.HHE">
      <acc value="0.0254586281" flag="0"/>
      <vel value="0.0199868669" flag="0"/>
      <psa03 value="0.0947353079" flag="0"/>
      <psa10 value="0.0311464197" flag="0"/>
      <psa30 value="0.0048990605" flag="0"/>
    </comp>
  </station>
</stationlist>
