<stationlist xmlns:esm="https://esm-db.eu/esmws/shakemap/1/" created="1783475719">
	<station code="KARP" name="KARP" netid="GE" source="GEOFON" insttype="" lat="35.5471" lon="27.16106" esm:processing="manual (Paolucci et al 2011)" esm:quality="good">
		<comp name="--.HNE" depth="0.0">
			<acc value="0.0607730162921805" flag="0"/>
			<vel value="0.0439383149180045" flag="0"/>
			<psa03 value="0.109305210768438" flag="0"/>
			<psa10 value="0.050399411223086" flag="0"/>
			<psa30 value="0.00759856894998109" flag="0"/>
		</comp>
		<comp name="--.HNN" depth="0.0">
			<acc value="0.0580994443924437" flag="0"/>
			<vel value="0.0358035908543978" flag="0"/>
			<psa03 value="0.14317506117847" flag="0"/>
			<psa10 value="0.0476652149766434" flag="0"/>
			<psa30 value="0.00590328674121477" flag="0"/>
		</comp>
		<comp name="--.HNZ" depth="0.0">
			<acc value="0.051584081101266" flag="0"/>
			<vel value="0.0210764343004469" flag="0"/>
			<psa03 value="0.162369467817708" flag="0"/>
			<psa10 value="0.0390760535721338" flag="0"/>
			<psa30 value="0.00640842625393506" flag="0"/>
		</comp>
	</station>
	<station code="RGE1" name="RGE1" netid="HI" source="ITSAK Strong Motion Network" insttype="" lat="36.0269" lon="27.9306" esm:processing="manual (Paolucci et al 2011)" esm:quality="good">
		<comp name="--.HNE" depth="0.0">
			<acc value="0.01201334059949" flag="0"/>
			<vel value="0.0197223190195561" flag="0"/>
			<psa03 value="0.033671701939163" flag="0"/>
			<psa10 value="0.017404068559137" flag="0"/>
			<psa30 value="0.00530394761052096" flag="0"/>
		</comp>
		<comp name="--.HNN" depth="0.0">
			<acc value="0.0149570830465301" flag="0"/>
			<vel value="0.0218010623325197" flag="0"/>
			<psa03 value="0.0309456932294656" flag="0"/>
			<psa10 value="0.0328235506491427" flag="0"/>
			<psa30 value="0.00681216293905053" flag="0"/>
		</comp>
		<comp name="--.HNZ" depth="0.0">
			<acc value="0.0080429484185012" flag="0"/>
			<vel value="0.00805374551519102" flag="0"/>
			<psa03 value="0.0223997130377296" flag="0"/>
			<psa10 value="0.0129836413525116" flag="0"/>
			<psa30 value="0.00271979642316558" flag="0"/>
		</comp>
	</station>
	<station code="SIT2" name="SIT2" netid="HI" source="ITSAK Strong Motion Network" insttype="" lat="35.2059" lon="26.107" esm:processing="manual (Paolucci et al 2011)" esm:quality="good">
		<comp name="--.HNE" depth="0.0">
			<acc value="0.114903347082398" flag="0"/>
			<vel value="0.0746149242893314" flag="0"/>
			<psa03 value="0.416594685822728" flag="0"/>
			<psa10 value="0.0711776919766114" flag="0"/>
			<psa30 value="0.00381829991280331" flag="0"/>
		</comp>
		<comp name="--.HNN" depth="0.0">
			<acc value="0.158003767565766" flag="0"/>
			<vel value="0.119383593408677" flag="0"/>
			<psa03 value="0.342367365043016" flag="0"/>
			<psa10 value="0.0572127544469165" flag="0"/>
			<psa30 value="0.00639679328021431" flag="0"/>
		</comp>
		<comp name="--.HNZ" depth="0.0">
			<acc value="0.047471856870624" flag="0"/>
			<vel value="0.0312813612339037" flag="0"/>
			<psa03 value="0.122056739654645" flag="0"/>
			<psa10 value="0.0191434005236938" flag="0"/>
			<psa30 value="0.00323307185023632" flag="0"/>
		</comp>
	</station>
	<station code="KARP" name="KARP" netid="HL" source="National Observatory of Athens Seismic Network" insttype="" lat="35.5471" lon="27.16106" esm:processing="manual (Paolucci et al 2011)" esm:quality="good">
		<comp name="--.HNE" depth="0.0">
			<acc value="0.0595391354680051" flag="0"/>
			<vel value="0.0430456573741978" flag="0"/>
			<psa03 value="0.107112842644143" flag="0"/>
			<psa10 value="0.0493766043797923" flag="0"/>
			<psa30 value="0.00744420833714805" flag="0"/>
		</comp>
		<comp name="--.HNN" depth="0.0">
			<acc value="0.0569198462258383" flag="0"/>
			<vel value="0.0350761127367676" flag="0"/>
			<psa03 value="0.140266817748282" flag="0"/>
			<psa10 value="0.0466947565150931" flag="0"/>
			<psa30 value="0.00578337762747781" flag="0"/>
		</comp>
		<comp name="--.HNZ" depth="0.0">
			<acc value="0.0505367386263688" flag="0"/>
			<vel value="0.0206485977993464" flag="0"/>
			<psa03 value="0.159103286734574" flag="0"/>
			<psa10 value="0.0382827742487919" flag="0"/>
			<psa30 value="0.00627822643267589" flag="0"/>
		</comp>
	</station>
	<station code="NISR" name="NISR" netid="HL" source="National Observatory of Athens Seismic Network" insttype="" lat="36.6106" lon="27.131" esm:processing="manual (Paolucci et al 2011)" esm:quality="good">
		<comp name="00.HNE" depth="0.0">
			<acc value="0.0108497343013179" flag="0"/>
			<vel value="0.0136138404360444" flag="0"/>
			<psa03 value="0.035525910708899" flag="0"/>
			<psa10 value="0.0146931077212765" flag="0"/>
			<psa30 value="0.00388425772967831" flag="0"/>
		</comp>
		<comp name="00.HNN" depth="0.0">
			<acc value="0.00699910035852114" flag="0"/>
			<vel value="0.00947944485837567" flag="0"/>
			<psa03 value="0.0218397006792363" flag="0"/>
			<psa10 value="0.0139471120527246" flag="0"/>
			<psa30 value="0.0043583583031812" flag="0"/>
		</comp>
		<comp name="00.HNZ" depth="0.0">
			<acc value="0.00401931383503023" flag="0"/>
			<vel value="0.00470908130239101" flag="0"/>
			<psa03 value="0.0154407325081661" flag="0"/>
			<psa10 value="0.00952727644780722" flag="0"/>
			<psa30 value="0.00173560476696457" flag="0"/>
		</comp>
	</station>
	<station code="ZKR" name="ZKR" netid="HL" source="National Observatory of Athens Seismic Network" insttype="" lat="35.1147" lon="26.21691" esm:processing="manual (Paolucci et al 2011)" esm:quality="best">
		<comp name="00.HNE" depth="0.0">
			<acc value="0.0275661754082786" flag="0"/>
			<vel value="0.021911918429385" flag="0"/>
			<psa03 value="0.100535738271257" flag="0"/>
			<psa10 value="0.0306157497226848" flag="0"/>
			<psa30 value="0.00496414782429725" flag="0"/>
		</comp>
		<comp name="00.HNN" depth="0.0">
			<acc value="0.0334780769873415" flag="0"/>
			<vel value="0.0265453464032202" flag="0"/>
			<psa03 value="0.13333177572245" flag="0"/>
			<psa10 value="0.0209031115099904" flag="0"/>
			<psa30 value="0.00485318715188394" flag="0"/>
		</comp>
		<comp name="00.HNZ" depth="0.0">
			<acc value="0.0168503088467713" flag="0"/>
			<vel value="0.0141246560634091" flag="0"/>
			<psa03 value="0.0454133397175458" flag="0"/>
			<psa10 value="0.0312399035050097" flag="0"/>
			<psa30 value="0.00428317143956715" flag="0"/>
		</comp>
	</station>
	<station code="RDI1" name="RDI1" netid="HI" source="ITSAK Strong Motion Network" insttype="" lat="36.4514" lon="28.224" esm:processing="discarded" esm:quality="good">
		<comp name="--.HNE" depth="0.0">
			<acc value="0" flag="1"/>
			<vel value="0" flag="1"/>
			<psa03 value="0" flag="1"/>
			<psa10 value="0" flag="1"/>
			<psa30 value="0" flag="1"/>
		</comp>
		<comp name="--.HNN" depth="0.0">
			<acc value="0" flag="1"/>
			<vel value="0" flag="1"/>
			<psa03 value="0" flag="1"/>
			<psa10 value="0" flag="1"/>
			<psa30 value="0" flag="1"/>
		</comp>
		<comp name="--.HNZ" depth="0.0">
			<acc value="0" flag="1"/>
			<vel value="0" flag="1"/>
			<psa03 value="0" flag="1"/>
			<psa10 value="0" flag="1"/>
			<psa30 value="0" flag="1"/>
		</comp>
	</station>
	<station code="ASTA" name="ASTA" netid="HL" source="National Observatory of Athens Seismic Network" insttype="" lat="36.54552" lon="26.35295" esm:processing="automatic (Paolucci et al 2011)" esm:quality="bad">
		<comp name="00.HNE" depth="0.0">
			<acc value="0" flag="1"/>
			<vel value="0" flag="1"/>
			<psa03 value="0" flag="1"/>
			<psa10 value="0" flag="1"/>
			<psa30 value="0" flag="1"/>
		</comp>
		<comp name="00.HNN" depth="0.0">
			<acc value="0" flag="1"/>
			<vel value="0" flag="1"/>
			<psa03 value="0" flag="1"/>
			<psa10 value="0" flag="1"/>
			<psa30 value="0" flag="1"/>
		</comp>
		<comp name="00.HNZ" depth="0.0">
			<acc value="0" flag="1"/>
			<vel value="0" flag="1"/>
			<psa03 value="0" flag="1"/>
			<psa10 value="0" flag="1"/>
			<psa30 value="0" flag="1"/>
		</comp>
	</station>
	<station code="RODB" name="RODB" netid="HL" source="National Observatory of Athens Seismic Network" insttype="" lat="36.4471" lon="28.22116" esm:processing="automatic (Paolucci et al 2011)" esm:quality="bad">
		<comp name="00.HNE" depth="0.0">
			<acc value="0" flag="1"/>
			<vel value="0" flag="1"/>
			<psa03 value="0" flag="1"/>
			<psa10 value="0" flag="1"/>
			<psa30 value="0" flag="1"/>
		</comp>
		<comp name="00.HNN" depth="0.0">
			<acc value="0" flag="1"/>
			<vel value="0" flag="1"/>
			<psa03 value="0" flag="1"/>
			<psa10 value="0" flag="1"/>
			<psa30 value="0" flag="1"/>
		</comp>
		<comp name="00.HNZ" depth="0.0">
			<acc value="0" flag="1"/>
			<vel value="0" flag="1"/>
			<psa03 value="0" flag="1"/>
			<psa10 value="0" flag="1"/>
			<psa30 value="0" flag="1"/>
		</comp>
	</station>
</stationlist>
