<?xml version="1.0" encoding="UTF-8" standalone="yes"?>
<!DOCTYPE earthquake SYSTEM "stationlist.dtd">
<stationlist created="" xmlns="ch.ethz.sed.shakemap.usgs.xml">
  <station code="GAZ" name="GAZ" netid="KO" insttype="CMG-3T" lat="37.1721" lon="37.2096">
    <comp name="--.HHZ">
      <acc value="0.0072614057" flag="0"/>
      <vel value="0.0052396596" flag="0"/>
      <psa03 value="0.0181765543" flag="0"/>
      <psa10 value="0.0085448862" flag="0"/>
      <psa30 value="0.0018359346" flag="0"/>
    </comp>
    <comp name="--.HHE">
      <acc value="0.0123848987" flag="0"/>
      <vel value="0.0119819261" flag="0"/>
      <psa03 value="0.0367968517" flag="0"/>
      <psa10 value="0.0173061418" flag="0"/>
      <psa30 value="0.0057191583" flag="0"/>
    </comp>
    <comp name="--.HHN">
      <acc value="0.0084423070" flag="0"/>
      <vel value="0.0069127113" flag="0"/>
      <psa03 value="0.0237974180" flag="0"/>
      <psa10 value="0.0081656445" flag="0"/>
      <psa30 value="0.0011377199" flag="0"/>
    </comp>
  </station>
  <station code="KMRS" name="KMRS" netid="KO" insttype="CMG-3T" lat="37.5053" lon="36.9">
    <comp name="--.HHE">
      <acc value="0.0327281360" flag="0"/>
      <vel value="0.0208221526" flag="0"/>
      <psa03 value="0.0741036822" flag="0"/>
      <psa10 value="0.0327124363" flag="0"/>
      <psa30 value="0.0022753956" flag="0"/>
    </comp>
    <comp name="--.HHN">
      <acc value="0.0439206838" flag="0"/>
      <vel value="0.0192531868" flag="0"/>
      <psa03 value="0.0567602771" flag="0"/>
      <psa10 value="0.0199486409" flag="0"/>
      <psa30 value="0.0027273648" flag="0"/>
    </comp>
    <comp name="--.HHZ">
      <acc value="0.0167769331" flag="0"/>
      <vel value="0.0094113514" flag="0"/>
      <psa03 value="0.0416369290" flag="0"/>
      <psa10 value="0.0158855715" flag="0"/>
      <psa30 value="0.0013877495" flag="0"/>
    </comp>
  </station>
  <station code="SARI" name="SARI" netid="KO" insttype="CMG-3T" lat="38.4072" lon="36.4181">
    <comp name="--.HHE">
      <acc value="0.0234477690" flag="0"/>
      <vel value="0.0082693560" flag="0"/>
      <psa03 value="0.0554680149" flag="0"/>
      <psa10 value="0.0122726156" flag="0"/>
      <psa30 value="0.0018428088" flag="0"/>
    </comp>
    <comp name="--.HHZ">
      <acc value="0.0164245709" flag="0"/>
      <vel value="0.0087074366" flag="0"/>
      <psa03 value="0.0432509823" flag="0"/>
      <psa10 value="0.0178957368" flag="0"/>
      <psa30 value="0.0013610357" flag="0"/>
    </comp>
  </station>
</stationlist>
