<?xml version="1.0" encoding="UTF-8" standalone="yes"?>
<!DOCTYPE earthquake SYSTEM "stationlist.dtd">
<stationlist created="" xmlns="ch.ethz.sed.shakemap.usgs.xml">
  <station code="GAZ" name="GAZ" netid="KO" insttype="CMG-3T" lat="37.1721" lon="37.2096">
    <comp name="--.HHN">
      <acc value="0.0084423070" flag="0"/>
      <vel value="0.0069127076" flag="0"/>
      <psa03 value="0.0237974180" flag="0"/>
      <psa10 value="0.0081656445" flag="0"/>
      <psa30 value="0.0011377299" flag="0"/>
    </comp>
    <comp name="--.HHE">
      <acc value="0.0123848985" flag="0"/>
      <vel value="0.0119819260" flag="0"/>
      <psa03 value="0.0367968517" flag="0"/>
      <psa10 value="0.0173061418" flag="0"/>
      <psa30 value="0.0057191614" flag="0"/>
    </comp>
    <comp name="--.HHZ">
      <acc value="0.0072614058" flag="0"/>
      <vel value="0.0052396597" flag="0"/>
      <psa03 value="0.0181765543" flag="0"/>
      <psa10 value="0.0085448862" flag="0"/>
      <psa30 value="0.0018359366" flag="0"/>
    </comp>
  </station>
  <station code="KMRS" name="KMRS" netid="KO" insttype="CMG-3T" lat="37.5053" lon="36.9">
    <comp name="--.HHN">
      <acc value="0.0439206839" flag="0"/>
      <vel value="0.0192531842" flag="0"/>
      <psa03 value="0.0567602771" flag="0"/>
      <psa10 value="0.0199486402" flag="0"/>
      <psa30 value="0.0027273899" flag="0"/>
    </comp>
    <comp name="--.HHE">
      <acc value="0.0327281361" flag="0"/>
      <vel value="0.0208221549" flag="0"/>
      <psa03 value="0.0741036822" flag="0"/>
      <psa10 value="0.0327124351" flag="0"/>
      <psa30 value="0.0022752738" flag="0"/>
    </comp>
  </station>
  <station code="SARI" name="SARI" netid="KO" insttype="CMG-3T" lat="38.4072" lon="36.4181">
    <comp name="--.HHE">
      <acc value="0.0234477698" flag="0"/>
      <vel value="0.0082693575" flag="0"/>
      <psa03 value="0.0554680149" flag="0"/>
      <psa10 value="0.0122726150" flag="0"/>
      <psa30 value="0.0018427954" flag="0"/>
    </comp>
    <comp name="--.HHZ">
      <acc value="0.0164245712" flag="0"/>
      <vel value="0.0087074358" flag="0"/>
      <psa03 value="0.0432509823" flag="0"/>
      <psa10 value="0.0178957377" flag="0"/>
      <psa30 value="0.0013611439" flag="0"/>
    </comp>
  </station>
  <station code="ANDN" name="ANDN" netid="TU" insttype="T" lat="37.58" lon="36.3452">
    <comp name="--.HHE">
      <acc value="0.0555138265" flag="0"/>
      <vel value="0.0227436782" flag="0"/>
      <psa03 value="0.1160715046" flag="0"/>
      <psa10 value="0.0360056912" flag="0"/>
      <psa30 value="0.0032763813" flag="0"/>
    </comp>
    <comp name="--.HHZ">
      <acc value="0.0253242104" flag="0"/>
      <vel value="0.0148627508" flag="0"/>
      <psa03 value="0.0455241278" flag="0"/>
      <psa10 value="0.0299964311" flag="0"/>
      <psa30 value="0.0031896298" flag="0"/>
    </comp>
    <comp name="--.HHN">
      <acc value="0.1021381476" flag="0"/>
      <vel value="0.0391075404" flag="0"/>
      <psa03 value="0.1384927699" flag="0"/>
      <psa10 value="0.0547927787" flag="0"/>
      <psa30 value="0.0027110202" flag="0"/>
    </comp>
  </station>
</stationlist>
