<stationlist created="1675764067">
	<station code="ARPRA" name="ARPRA" netid="KO" source="Bogazici University Kandilli Observatory And Earthquake Research Institute (KOERI)" insttype="" lat="39.0929" lon="38.3356">
		<comp name=".HNE" depth="0.0">
			<acc value="0.0326214347506" flag="0"/>
			<vel value="0.0212725713337" flag="0"/>
			<psa03 value="0.0879822033893" flag="0"/>
			<psa10 value="0.0309008882822" flag="0"/>
			<psa30 value="0.00200568578351" flag="0"/>
		</comp>
		<comp name=".HNN" depth="0.0">
			<acc value="0.0285218082293" flag="0"/>
			<vel value="0.0202761596734" flag="0"/>
			<psa03 value="0.146337600398" flag="0"/>
			<psa10 value="0.0277040846346" flag="0"/>
			<psa30 value="0.00242094808426" flag="0"/>
		</comp>
		<comp name=".HNZ" depth="0.0">
			<acc value="0.0144123669997" flag="0"/>
			<vel value="0.0139160525033" flag="0"/>
			<psa03 value="0.0508221688025" flag="0"/>
			<psa10 value="0.0238422869345" flag="0"/>
			<psa30 value="0.00131250496785" flag="0"/>
		</comp>
	</station>
	<station code="CMRD" name="CMRD" netid="KO" source="Bogazici University Kandilli Observatory And Earthquake Research Institute (KOERI)" insttype="" lat="37.6623" lon="34.9902">
		<comp name=".HNE" depth="0.0">
			<acc value="0.00128544990528" flag="0"/>
			<vel value="0.00134259149855" flag="0"/>
			<psa03 value="0.00429422848198" flag="0"/>
			<psa10 value="0.00180435058406" flag="0"/>
			<psa30 value="0.000338322281982" flag="0"/>
		</comp>
		<comp name=".HNN" depth="0.0">
			<acc value="0.00124483749863" flag="0"/>
			<vel value="0.0013387229096" flag="0"/>
			<psa03 value="0.00437312107802" flag="0"/>
			<psa10 value="0.00284810320411" flag="0"/>
			<psa30 value="0.00023365172828" flag="0"/>
		</comp>
		<comp name=".HNZ" depth="0.0">
			<acc value="0.00207914722327" flag="0"/>
			<vel value="0.00143530066633" flag="0"/>
			<psa03 value="0.00664705882461" flag="0"/>
			<psa10 value="0.00228375245927" flag="0"/>
			<psa30 value="0.000582648285089" flag="0"/>
		</comp>
	</station>
</stationlist>
