<?xml version="1.0" encoding="UTF-8" standalone="yes"?>
<!DOCTYPE earthquake SYSTEM "stationlist.dtd">
<stationlist created="" xmlns="ch.ethz.sed.shakemap.usgs.xml">
  <station code="GAZ" name="GAZ" netid="KO" insttype="CMG-3T" lat="37.1721" lon="37.2096">
    <comp name="--.HHN">
      <acc value="0.0066926583" flag="0"/>
      <vel value="0.0039115125" flag="0"/>
      <psa03 value="0.0174797649" flag="0"/>
      <psa10 value="0.0056664058" flag="0"/>
      <psa30 value="0.0006396004" flag="0"/>
    </comp>
    <comp name="--.HHZ">
      <acc value="0.0072944148" flag="0"/>
      <vel value="0.0043309755" flag="0"/>
      <psa03 value="0.0160034948" flag="0"/>
      <psa10 value="0.0028764194" flag="0"/>
      <psa30 value="0.0002936867" flag="0"/>
    </comp>
    <comp name="--.HHE">
      <acc value="0.0114098983" flag="0"/>
      <vel value="0.0072544527" flag="0"/>
      <psa03 value="0.0258348252" flag="0"/>
      <psa10 value="0.0102158867" flag="0"/>
      <psa30 value="0.0004427695" flag="0"/>
    </comp>
  </station>
  <station code="URFA" name="URFA" netid="KO" insttype="CMG-3ESP" lat="37.4409" lon="38.8213">
    <comp name="--.HHE">
      <acc value="0.0264880892" flag="0"/>
      <vel value="0.0120903436" flag="0"/>
      <psa03 value="0.0677708341" flag="0"/>
      <psa10 value="0.0083214527" flag="0"/>
      <psa30 value="0.0007430534" flag="0"/>
    </comp>
    <comp name="--.HHN">
      <acc value="0.0245130041" flag="0"/>
      <vel value="0.0099303121" flag="0"/>
      <psa03 value="0.0521412763" flag="0"/>
      <psa10 value="0.0072042933" flag="0"/>
      <psa30 value="0.0006959428" flag="0"/>
    </comp>
    <comp name="--.HHZ">
      <acc value="0.0131973598" flag="0"/>
      <vel value="0.0055453749" flag="0"/>
      <psa03 value="0.0199040576" flag="0"/>
      <psa10 value="0.0044698290" flag="0"/>
      <psa30 value="0.0003232764" flag="0"/>
    </comp>
  </station>
</stationlist>
