<?xml version="1.0" encoding="UTF-8" standalone="yes"?>
<!DOCTYPE earthquake SYSTEM "stationlist.dtd">
<stationlist created="" xmlns="ch.ethz.sed.shakemap.usgs.xml">
  <station code="ZKR" name="ZKR" netid="GE" insttype="STS-2/N" lat="35.1147" lon="26.2169">
    <comp name="--.HHN">
      <acc value="0.0041564456" flag="0"/>
      <vel value="0.0022626685" flag="0"/>
      <psa03 value="0.0113386780" flag="0"/>
      <psa10 value="0.0019778277" flag="0"/>
      <psa30 value="0.0003271836" flag="0"/>
    </comp>
    <comp name="--.HHE">
      <acc value="0.0088935162" flag="0"/>
      <vel value="0.0057806357" flag="0"/>
      <psa03 value="0.0250362889" flag="0"/>
      <psa10 value="0.0054247031" flag="0"/>
      <psa30 value="0.0004757795" flag="0"/>
    </comp>
    <comp name="--.HHZ">
      <acc value="0.0068570507" flag="0"/>
      <vel value="0.0024188644" flag="0"/>
      <psa03 value="0.0152322479" flag="0"/>
      <psa10 value="0.0038667300" flag="0"/>
      <psa30 value="0.0002860291" flag="0"/>
    </comp>
  </station>
  <station code="IACM" name="IACM" netid="HL" insttype="120" lat="35.3058" lon="25.0709">
    <comp name="--.HHE">
      <acc value="0.3303079047" flag="0"/>
      <vel value="0.2378656268" flag="0"/>
      <psa03 value="0.7960708591" flag="0"/>
      <psa10 value="0.4011032697" flag="0"/>
      <psa30 value="0.0141975102" flag="0"/>
    </comp>
    <comp name="--.HHZ">
      <acc value="0.3158258815" flag="0"/>
      <vel value="0.1081876502" flag="0"/>
      <psa03 value="0.4254793262" flag="0"/>
      <psa10 value="0.0931492571" flag="0"/>
      <psa30 value="0.0054969826" flag="0"/>
    </comp>
    <comp name="--.HHN">
      <acc value="0.3082870096" flag="0"/>
      <vel value="0.1619941194" flag="0"/>
      <psa03 value="0.9225275134" flag="0"/>
      <psa10 value="0.1730707986" flag="0"/>
      <psa30 value="0.0086515336" flag="0"/>
    </comp>
  </station>
  <station code="IDI" name="IDI" netid="HL" insttype="120" lat="35.288" lon="24.89">
    <comp name="--.HHE">
      <acc value="0.0505112912" flag="0"/>
      <vel value="0.0125981612" flag="0"/>
      <psa03 value="0.0676865826" flag="0"/>
      <psa10 value="0.0044793005" flag="0"/>
      <psa30 value="0.0009905642" flag="0"/>
    </comp>
    <comp name="--.HHN">
      <acc value="0.0550157033" flag="0"/>
      <vel value="0.0117728163" flag="0"/>
      <psa03 value="0.0535037424" flag="0"/>
      <psa10 value="0.0092915567" flag="0"/>
      <psa30 value="0.0008742529" flag="0"/>
    </comp>
    <comp name="--.HHZ">
      <acc value="0.0386344682" flag="0"/>
      <vel value="0.0118830638" flag="0"/>
      <psa03 value="0.0440496648" flag="0"/>
      <psa10 value="0.0063161819" flag="0"/>
      <psa30 value="0.0012268767" flag="0"/>
    </comp>
  </station>
  <station code="IMMV" name="IMMV" netid="HL" insttype="DC" lat="35.4606" lon="23.9811">
    <comp name="--.HNN">
      <acc value="0.0128503165" flag="0"/>
      <vel value="0.0056380629" flag="0"/>
      <psa03 value="0.0337477395" flag="0"/>
      <psa10 value="0.0079044775" flag="0"/>
      <psa30 value="0.0005306123" flag="0"/>
    </comp>
    <comp name="--.HNZ">
      <acc value="0.0079945399" flag="0"/>
      <vel value="0.0050538452" flag="0"/>
      <psa03 value="0.0278095057" flag="0"/>
      <psa10 value="0.0057046114" flag="0"/>
      <psa30 value="0.0002927564" flag="0"/>
    </comp>
    <comp name="--.HNE">
      <acc value="0.0098012935" flag="0"/>
      <vel value="0.0053100660" flag="0"/>
      <psa03 value="0.0340203864" flag="0"/>
      <psa10 value="0.0091439200" flag="0"/>
      <psa30 value="0.0004849217" flag="0"/>
    </comp>
  </station>
  <station code="NPS" name="NPS" netid="HL" insttype="CMG3ESPC-120s" lat="35.2613" lon="25.6104">
    <comp name="--.HHZ">
      <acc value="0.0817113198" flag="0"/>
      <vel value="0.0182940102" flag="0"/>
      <psa03 value="0.0502821174" flag="0"/>
      <psa10 value="0.0152354860" flag="0"/>
      <psa30 value="0.0015467561" flag="0"/>
    </comp>
    <comp name="--.HHN">
      <acc value="0.1213158246" flag="0"/>
      <vel value="0.0215018149" flag="0"/>
      <psa03 value="0.0500571914" flag="0"/>
      <psa10 value="0.0210383066" flag="0"/>
      <psa30 value="0.0014414834" flag="0"/>
    </comp>
    <comp name="--.HHE">
      <acc value="0.0425639441" flag="0"/>
      <vel value="0.0089009947" flag="0"/>
      <psa03 value="0.0378092450" flag="0"/>
      <psa10 value="0.0050249146" flag="0"/>
      <psa30 value="0.0004116204" flag="0"/>
    </comp>
  </station>
  <station code="SIVA" name="SIVA" netid="HL" insttype="60" lat="35.0178" lon="24.812">
    <comp name="--.HHE">
      <acc value="0.0748805724" flag="0"/>
      <vel value="0.0287834947" flag="0"/>
      <psa03 value="0.1790570621" flag="0"/>
      <psa10 value="0.0152508809" flag="0"/>
      <psa30 value="0.0014291291" flag="0"/>
    </comp>
    <comp name="--.HHN">
      <acc value="0.0478880093" flag="0"/>
      <vel value="0.0163789594" flag="0"/>
      <psa03 value="0.1117621488" flag="0"/>
      <psa10 value="0.0112015534" flag="0"/>
      <psa30 value="0.0008000106" flag="0"/>
    </comp>
    <comp name="--.HHZ">
      <acc value="0.0298286394" flag="0"/>
      <vel value="0.0113025128" flag="0"/>
      <psa03 value="0.0555742215" flag="0"/>
      <psa10 value="0.0067098036" flag="0"/>
      <psa30 value="0.0008642646" flag="0"/>
    </comp>
  </station>
  <station code="ZKR" name="ZKR" netid="HL" insttype="120" lat="35.1147" lon="26.2169">
    <comp name="--.HHE">
      <acc value="0.0087379599" flag="0"/>
      <vel value="0.0056805860" flag="0"/>
      <psa03 value="0.0243112523" flag="0"/>
      <psa10 value="0.0053895412" flag="0"/>
      <psa30 value="0.0004751803" flag="0"/>
    </comp>
    <comp name="--.HHN">
      <acc value="0.0040162491" flag="0"/>
      <vel value="0.0022195220" flag="0"/>
      <psa03 value="0.0110183516" flag="0"/>
      <psa10 value="0.0019605240" flag="0"/>
      <psa30 value="0.0003269722" flag="0"/>
    </comp>
    <comp name="--.HHZ">
      <acc value="0.0070941645" flag="0"/>
      <vel value="0.0023834447" flag="0"/>
      <psa03 value="0.0148098682" flag="0"/>
      <psa10 value="0.0038376994" flag="0"/>
      <psa30 value="0.0002858956" flag="0"/>
    </comp>
  </station>
  <station code="IDI" name="IDI" netid="MN" insttype="" lat="35.288" lon="24.89">
    <comp name="--.HHE">
      <acc value="0.0521141700" flag="0"/>
      <vel value="0.0129089092" flag="0"/>
      <psa03 value="0.0682763981" flag="0"/>
      <psa10 value="0.0044600312" flag="0"/>
      <psa30 value="0.0009819768" flag="0"/>
    </comp>
    <comp name="--.HHZ">
      <acc value="0.0442390289" flag="0"/>
      <vel value="0.0120595495" flag="0"/>
      <psa03 value="0.0446826443" flag="0"/>
      <psa10 value="0.0062900124" flag="0"/>
      <psa30 value="0.0012141029" flag="0"/>
    </comp>
    <comp name="--.HHN">
      <acc value="0.0601024298" flag="0"/>
      <vel value="0.0119795067" flag="0"/>
      <psa03 value="0.0545436497" flag="0"/>
      <psa10 value="0.0092254823" flag="0"/>
      <psa30 value="0.0008647206" flag="0"/>
    </comp>
  </station>
</stationlist>
