<?xml version="1.0" encoding="UTF-8" standalone="yes"?>
<!DOCTYPE earthquake SYSTEM "stationlist.dtd">
<stationlist created="" xmlns="ch.ethz.sed.shakemap.usgs.xml">
  <station code="BNN" name="BNN" netid="KO" insttype="CMG-3T" lat="38.8521" lon="35.8472">
    <comp name="--.HHE">
      <acc value="0.0105319953" flag="0"/>
      <vel value="0.0064662531" flag="0"/>
      <psa03 value="0.0292126333" flag="0"/>
      <psa10 value="0.0132667937" flag="0"/>
      <psa30 value="0.0017882814" flag="0"/>
    </comp>
    <comp name="--.HHN">
      <acc value="0.0094869765" flag="0"/>
      <vel value="0.0081333520" flag="0"/>
      <psa03 value="0.0178949597" flag="0"/>
      <psa10 value="0.0151486429" flag="0"/>
      <psa30 value="0.0014852499" flag="0"/>
    </comp>
    <comp name="--.HHZ">
      <acc value="0.0069231929" flag="0"/>
      <vel value="0.0052958216" flag="0"/>
      <psa03 value="0.0152876105" flag="0"/>
      <psa10 value="0.0064644356" flag="0"/>
      <psa30 value="0.0008956886" flag="0"/>
    </comp>
  </station>
  <station code="CEYT" name="CEYT" netid="KO" insttype="CMG-3ESP" lat="37.0105" lon="35.7478">
    <comp name="--.HHE">
      <acc value="0.0084101892" flag="0"/>
      <vel value="0.0058477928" flag="0"/>
      <psa03 value="0.0263563346" flag="0"/>
      <psa10 value="0.0052161151" flag="0"/>
      <psa30 value="0.0008840323" flag="0"/>
    </comp>
    <comp name="--.HHN">
      <acc value="0.0061349185" flag="0"/>
      <vel value="0.0039487343" flag="0"/>
      <psa03 value="0.0178291601" flag="0"/>
      <psa10 value="0.0058715661" flag="0"/>
      <psa30 value="0.0011427732" flag="0"/>
    </comp>
    <comp name="--.HHZ">
      <acc value="0.0064001304" flag="0"/>
      <vel value="0.0041077988" flag="0"/>
      <psa03 value="0.0157310974" flag="0"/>
      <psa10 value="0.0063149346" flag="0"/>
      <psa30 value="0.0017393911" flag="0"/>
    </comp>
  </station>
  <station code="DARE" name="DARE" netid="KO" insttype="CMG-3ESP" lat="38.5712" lon="37.4832">
    <comp name="--.HHE">
      <acc value="0.0055856342" flag="0"/>
      <vel value="0.0034677672" flag="0"/>
      <psa03 value="0.0134581034" flag="0"/>
      <psa10 value="0.0068519846" flag="0"/>
      <psa30 value="0.0005803137" flag="0"/>
    </comp>
    <comp name="--.HHN">
      <acc value="0.0051916767" flag="0"/>
      <vel value="0.0032838539" flag="0"/>
      <psa03 value="0.0135638590" flag="0"/>
      <psa10 value="0.0052875611" flag="0"/>
      <psa30 value="0.0009209425" flag="0"/>
    </comp>
    <comp name="--.HHZ">
      <acc value="0.0043131743" flag="0"/>
      <vel value="0.0048947830" flag="0"/>
      <psa03 value="0.0157779712" flag="0"/>
      <psa10 value="0.0051202657" flag="0"/>
      <psa30 value="0.0010173009" flag="0"/>
    </comp>
  </station>
  <station code="GAZ" name="GAZ" netid="KO" insttype="CMG-3T" lat="37.1721" lon="37.2096">
    <comp name="--.HHE">
      <acc value="0.0304308114" flag="0"/>
      <vel value="0.0183072128" flag="0"/>
      <psa03 value="0.0806297657" flag="0"/>
      <psa10 value="0.0195894256" flag="0"/>
      <psa30 value="0.0018339981" flag="0"/>
    </comp>
    <comp name="--.HHN">
      <acc value="0.0231480179" flag="0"/>
      <vel value="0.0140431944" flag="0"/>
      <psa03 value="0.0754680891" flag="0"/>
      <psa10 value="0.0240639037" flag="0"/>
      <psa30 value="0.0009905829" flag="0"/>
    </comp>
    <comp name="--.HHZ">
      <acc value="0.0129142164" flag="0"/>
      <vel value="0.0092310951" flag="0"/>
      <psa03 value="0.0369453790" flag="0"/>
      <psa10 value="0.0120138635" flag="0"/>
      <psa30 value="0.0013062700" flag="0"/>
    </comp>
  </station>
  <station code="KMRS" name="KMRS" netid="KO" insttype="CMG-3T" lat="37.5087" lon="36.9">
    <comp name="--.HHE">
      <acc value="0.0437257852" flag="0"/>
      <vel value="0.0344433405" flag="0"/>
      <psa03 value="0.0846984231" flag="0"/>
      <psa10 value="0.0283413783" flag="0"/>
      <psa30 value="0.0046218170" flag="0"/>
    </comp>
    <comp name="--.HHN">
      <acc value="0.0526565159" flag="0"/>
      <vel value="0.0261863166" flag="0"/>
      <psa03 value="0.1612384829" flag="0"/>
      <psa10 value="0.0183379155" flag="0"/>
      <psa30 value="0.0043591797" flag="0"/>
    </comp>
    <comp name="--.HHZ">
      <acc value="0.0254229600" flag="0"/>
      <vel value="0.0167711093" flag="0"/>
      <psa03 value="0.0625171768" flag="0"/>
      <psa10 value="0.0088723648" flag="0"/>
      <psa30 value="0.0017114110" flag="0"/>
    </comp>
  </station>
  <station code="SARI" name="SARI" netid="KO" insttype="CMG-3T" lat="38.4072" lon="36.4181">
    <comp name="--.HHZ">
      <acc value="0.0941931467" flag="0"/>
      <vel value="0.0425272100" flag="0"/>
      <psa03 value="0.1888787842" flag="0"/>
      <psa10 value="0.0312792730" flag="0"/>
      <psa30 value="0.0029639399" flag="0"/>
    </comp>
    <comp name="--.HHN">
      <acc value="0.1393157456" flag="0"/>
      <vel value="0.0554113257" flag="0"/>
      <psa03 value="0.3090880627" flag="0"/>
      <psa10 value="0.0518336213" flag="0"/>
      <psa30 value="0.0035370491" flag="0"/>
    </comp>
    <comp name="--.HHE">
      <acc value="0.1292610070" flag="0"/>
      <vel value="0.0768227700" flag="0"/>
      <psa03 value="0.3327007880" flag="0"/>
      <psa10 value="0.0596116604" flag="0"/>
      <psa30 value="0.0036574849" flag="0"/>
    </comp>
  </station>
  <station code="ANDN" name="ANDN" netid="TU" insttype="T" lat="37.58" lon="36.3452">
    <comp name="--.HHE">
      <acc value="0.1067768022" flag="0"/>
      <vel value="0.0623745590" flag="0"/>
      <psa03 value="0.2074824316" flag="0"/>
      <psa10 value="0.0508631398" flag="0"/>
      <psa30 value="0.0075172786" flag="0"/>
    </comp>
    <comp name="--.HHZ">
      <acc value="0.0590310009" flag="0"/>
      <vel value="0.0336547420" flag="0"/>
      <psa03 value="0.1447234613" flag="0"/>
      <psa10 value="0.0747979553" flag="0"/>
      <psa30 value="0.0062359252" flag="0"/>
    </comp>
    <comp name="--.HHN">
      <acc value="0.1369952413" flag="0"/>
      <vel value="0.0685416742" flag="0"/>
      <psa03 value="0.2225993552" flag="0"/>
      <psa10 value="0.0807991883" flag="0"/>
      <psa30 value="0.0063130366" flag="0"/>
    </comp>
  </station>
</stationlist>
