<?xml version="1.0" encoding="UTF-8" standalone="yes"?>
<!DOCTYPE earthquake SYSTEM "stationlist.dtd">
<stationlist created="" xmlns="ch.ethz.sed.shakemap.usgs.xml">
  <station code="ZKR" name="ZKR" netid="GE" insttype="STS-2/N" lat="35.1147" lon="26.2169">
    <comp name="--.HHZ">
      <acc value="0.0138416192" flag="0"/>
      <vel value="0.0051523189" flag="0"/>
      <psa03 value="0.0215916086" flag="0"/>
      <psa10 value="0.0046531180" flag="0"/>
      <psa30 value="0.0003118520" flag="0"/>
    </comp>
    <comp name="--.HHE">
      <acc value="0.0177484315" flag="0"/>
      <vel value="0.0074921605" flag="0"/>
      <psa03 value="0.0515578861" flag="0"/>
      <psa10 value="0.0089442964" flag="0"/>
      <psa30 value="0.0005191547" flag="0"/>
    </comp>
    <comp name="--.HHN">
      <acc value="0.0133350238" flag="0"/>
      <vel value="0.0062990333" flag="0"/>
      <psa03 value="0.0485737638" flag="0"/>
      <psa10 value="0.0045840373" flag="0"/>
      <psa30 value="0.0002885257" flag="0"/>
    </comp>
  </station>
  <station code="IMOD" name="IMOD" netid="HC" insttype="120" lat="34.9731" lon="24.7995">
    <comp name="--.HHE">
      <acc value="0.0413269688" flag="0"/>
      <vel value="0.0130692985" flag="0"/>
      <psa03 value="0.0945839112" flag="0"/>
      <psa10 value="0.0098369922" flag="0"/>
      <psa30 value="0.0006249801" flag="0"/>
    </comp>
    <comp name="--.HHZ">
      <acc value="0.0293025930" flag="0"/>
      <vel value="0.0091706244" flag="0"/>
      <psa03 value="0.0509201421" flag="0"/>
      <psa10 value="0.0077586487" flag="0"/>
      <psa30 value="0.0005057160" flag="0"/>
    </comp>
    <comp name="--.HHN">
      <acc value="0.0361750954" flag="0"/>
      <vel value="0.0196937130" flag="0"/>
      <psa03 value="0.0871589099" flag="0"/>
      <psa10 value="0.0213944164" flag="0"/>
      <psa30 value="0.0012386047" flag="0"/>
    </comp>
  </station>
  <station code="KNSS" name="KNSS" netid="HC" insttype="60" lat="35.3042" lon="25.1802">
    <comp name="--.HHZ">
      <acc value="0.3130500341" flag="0"/>
      <vel value="0.0687340412" flag="0"/>
      <psa03 value="0.3027367752" flag="0"/>
      <psa10 value="0.0395914344" flag="0"/>
      <psa30 value="0.0019148788" flag="0"/>
    </comp>
    <comp name="--.HHE">
      <acc value="0.2713309588" flag="0"/>
      <vel value="0.0686724835" flag="0"/>
      <psa03 value="0.4606751023" flag="0"/>
      <psa10 value="0.0424590889" flag="0"/>
      <psa30 value="0.0032111307" flag="0"/>
    </comp>
    <comp name="--.HHN">
      <acc value="0.3376586387" flag="0"/>
      <vel value="0.0951221545" flag="0"/>
      <psa03 value="0.5851038284" flag="0"/>
      <psa10 value="0.0456599353" flag="0"/>
      <psa30 value="0.0039576129" flag="0"/>
    </comp>
  </station>
  <station code="STIA" name="STIA" netid="HC" insttype="120" lat="35.2021" lon="26.0909">
    <comp name="--.HHE">
      <acc value="0.0443713599" flag="0"/>
      <vel value="0.0141702483" flag="0"/>
      <psa03 value="0.1051971715" flag="0"/>
      <psa10 value="0.0117308253" flag="0"/>
      <psa30 value="0.0005470417" flag="0"/>
    </comp>
    <comp name="--.HHZ">
      <acc value="0.0282718204" flag="0"/>
      <vel value="0.0086817236" flag="0"/>
      <psa03 value="0.0445068111" flag="0"/>
      <psa10 value="0.0050106867" flag="0"/>
      <psa30 value="0.0007356904" flag="0"/>
    </comp>
    <comp name="--.HHN">
      <acc value="0.0392585353" flag="0"/>
      <vel value="0.0106002185" flag="0"/>
      <psa03 value="0.0689079288" flag="0"/>
      <psa10 value="0.0110030800" flag="0"/>
      <psa30 value="0.0006439700" flag="0"/>
    </comp>
  </station>
  <station code="SIT2" name="SIT2" netid="HI" insttype="CMG-5TD,ACCELEROMETER,GURALP" lat="35.2059" lon="26.107">
    <comp name="--.HNZ">
      <acc value="0.1006589990" flag="0"/>
      <vel value="0.0277866549" flag="0"/>
      <psa03 value="0.1037252362" flag="0"/>
      <psa10 value="0.0072572448" flag="0"/>
      <psa30 value="0.0006500932" flag="0"/>
    </comp>
    <comp name="--.HNN">
      <acc value="0.0553047730" flag="0"/>
      <vel value="0.0301867292" flag="0"/>
      <psa03 value="0.2158568849" flag="0"/>
      <psa10 value="0.0164359450" flag="0"/>
      <psa30 value="0.0014018678" flag="0"/>
    </comp>
    <comp name="--.HNE">
      <acc value="0.0577625096" flag="0"/>
      <vel value="0.0261628770" flag="0"/>
      <psa03 value="0.1526639344" flag="0"/>
      <psa10 value="0.0249280778" flag="0"/>
      <psa30 value="0.0011670242" flag="0"/>
    </comp>
  </station>
  <station code="IACM" name="IACM" netid="HL" insttype="120" lat="35.3058" lon="25.0709">
    <comp name="--.HHN">
      <acc value="0.3467395235" flag="0"/>
      <vel value="0.1566464006" flag="0"/>
      <psa03 value="1.1341778730" flag="0"/>
      <psa10 value="0.1522541022" flag="0"/>
      <psa30 value="0.0059070256" flag="0"/>
    </comp>
    <comp name="--.HHE">
      <acc value="0.4346579589" flag="0"/>
      <vel value="0.1862767152" flag="0"/>
      <psa03 value="1.2702862622" flag="0"/>
      <psa10 value="0.1469685307" flag="0"/>
      <psa30 value="0.0066755761" flag="0"/>
    </comp>
    <comp name="--.HHZ">
      <acc value="0.3722551557" flag="0"/>
      <vel value="0.1127742216" flag="0"/>
      <psa03 value="0.5901114887" flag="0"/>
      <psa10 value="0.0864777083" flag="0"/>
      <psa30 value="0.0039177078" flag="0"/>
    </comp>
  </station>
  <station code="IDI" name="IDI" netid="HL" insttype="120" lat="35.288" lon="24.89">
    <comp name="--.HHN">
      <acc value="0.1101347905" flag="0"/>
      <vel value="0.0219707523" flag="0"/>
      <psa03 value="0.0768635848" flag="0"/>
      <psa10 value="0.0137901412" flag="0"/>
      <psa30 value="0.0007959975" flag="0"/>
    </comp>
    <comp name="--.HHZ">
      <acc value="0.0576037243" flag="0"/>
      <vel value="0.0134610490" flag="0"/>
      <psa03 value="0.0701395218" flag="0"/>
      <psa10 value="0.0060482114" flag="0"/>
      <psa30 value="0.0007487291" flag="0"/>
    </comp>
    <comp name="--.HHE">
      <acc value="0.0831050703" flag="0"/>
      <vel value="0.0150429493" flag="0"/>
      <psa03 value="0.0733450070" flag="0"/>
      <psa10 value="0.0093699097" flag="0"/>
      <psa30 value="0.0004670802" flag="0"/>
    </comp>
  </station>
  <station code="NPS" name="NPS" netid="HL" insttype="CMG3ESPC-120s" lat="35.2613" lon="25.6104">
    <comp name="--.HHN">
      <acc value="0.1778128367" flag="0"/>
      <vel value="0.0481398188" flag="0"/>
      <psa03 value="0.1346102167" flag="0"/>
      <psa10 value="0.0203481586" flag="0"/>
      <psa30 value="0.0009856490" flag="0"/>
    </comp>
    <comp name="--.HHE">
      <acc value="0.0829197983" flag="0"/>
      <vel value="0.0205498989" flag="0"/>
      <psa03 value="0.0663750762" flag="0"/>
      <psa10 value="0.0157197470" flag="0"/>
      <psa30 value="0.0006174945" flag="0"/>
    </comp>
    <comp name="--.HHZ">
      <acc value="0.1956136153" flag="0"/>
      <vel value="0.0476636467" flag="0"/>
      <psa03 value="0.1142422562" flag="0"/>
      <psa10 value="0.0312580268" flag="0"/>
      <psa30 value="0.0021267487" flag="0"/>
    </comp>
  </station>
  <station code="SIVA" name="SIVA" netid="HL" insttype="60" lat="35.0178" lon="24.812">
    <comp name="--.HHZ">
      <acc value="0.0377877052" flag="0"/>
      <vel value="0.0132094280" flag="0"/>
      <psa03 value="0.0709472809" flag="0"/>
      <psa10 value="0.0081917800" flag="0"/>
      <psa30 value="0.0006983989" flag="0"/>
    </comp>
    <comp name="--.HHN">
      <acc value="0.0503652472" flag="0"/>
      <vel value="0.0196187267" flag="0"/>
      <psa03 value="0.0854323572" flag="0"/>
      <psa10 value="0.0150213563" flag="0"/>
      <psa30 value="0.0009217481" flag="0"/>
    </comp>
    <comp name="--.HHE">
      <acc value="0.0751315806" flag="0"/>
      <vel value="0.0281463542" flag="0"/>
      <psa03 value="0.1285524085" flag="0"/>
      <psa10 value="0.0153242204" flag="0"/>
      <psa30 value="0.0012184682" flag="0"/>
    </comp>
  </station>
  <station code="ZKR" name="ZKR" netid="HL" insttype="120" lat="35.1147" lon="26.2169">
    <comp name="--.HHN">
      <acc value="0.0129211753" flag="0"/>
      <vel value="0.0061837102" flag="0"/>
      <psa03 value="0.0471646107" flag="0"/>
      <psa10 value="0.0045636975" flag="0"/>
      <psa30 value="0.0002872725" flag="0"/>
    </comp>
    <comp name="--.HHE">
      <acc value="0.0171243707" flag="0"/>
      <vel value="0.0072699431" flag="0"/>
      <psa03 value="0.0500434242" flag="0"/>
      <psa10 value="0.0088296533" flag="0"/>
      <psa30 value="0.0005186250" flag="0"/>
    </comp>
    <comp name="--.HHZ">
      <acc value="0.0135846492" flag="0"/>
      <vel value="0.0050389659" flag="0"/>
      <psa03 value="0.0210580679" flag="0"/>
      <psa10 value="0.0046226820" flag="0"/>
      <psa30 value="0.0003111083" flag="0"/>
    </comp>
  </station>
  <station code="IDI" name="IDI" netid="MN" insttype="" lat="35.288" lon="24.89">
    <comp name="--.HHE">
      <acc value="0.0935784490" flag="0"/>
      <vel value="0.0159137514" flag="0"/>
      <psa03 value="0.0744159126" flag="0"/>
      <psa10 value="0.0093785719" flag="0"/>
      <psa30 value="0.0004630042" flag="0"/>
    </comp>
    <comp name="--.HHN">
      <acc value="0.1163523317" flag="0"/>
      <vel value="0.0222444481" flag="0"/>
      <psa03 value="0.0783837790" flag="0"/>
      <psa10 value="0.0138023704" flag="0"/>
      <psa30 value="0.0007948492" flag="0"/>
    </comp>
    <comp name="--.HHZ">
      <acc value="0.0604743544" flag="0"/>
      <vel value="0.0135918366" flag="0"/>
      <psa03 value="0.0711245740" flag="0"/>
      <psa10 value="0.0059925702" flag="0"/>
      <psa30 value="0.0007445665" flag="0"/>
    </comp>
  </station>
</stationlist>
