<?xml version="1.0" encoding="UTF-8" standalone="yes"?>
<!DOCTYPE earthquake SYSTEM "stationlist.dtd">
<stationlist created="" xmlns="ch.ethz.sed.shakemap.usgs.xml">
  <station code="APE" name="APE" netid="GE" insttype="STS-2/N" lat="37.0727" lon="25.523">
    <comp name="--.HHN">
      <acc value="0.1076002920" flag="0"/>
      <vel value="0.0182585051" flag="0"/>
      <psa03 value="0.0692704760" flag="0"/>
      <psa10 value="0.0082720063" flag="0"/>
      <psa30 value="0.0009921563" flag="0"/>
    </comp>
    <comp name="--.HHZ">
      <acc value="0.0444924094" flag="0"/>
      <vel value="0.0102554585" flag="0"/>
      <psa03 value="0.0292123653" flag="0"/>
      <psa10 value="0.0062739608" flag="0"/>
      <psa30 value="0.0010466657" flag="0"/>
    </comp>
    <comp name="--.HHE">
      <acc value="0.1228602924" flag="0"/>
      <vel value="0.0307816837" flag="0"/>
      <psa03 value="0.0920251577" flag="0"/>
      <psa10 value="0.0058145320" flag="0"/>
      <psa30 value="0.0009887734" flag="0"/>
    </comp>
  </station>
  <station code="THERA" name="THERA" netid="GE" insttype="STS-2/N" lat="36.367" lon="25.4753">
    <comp name="--.HHE">
      <acc value="0.1036780631" flag="0"/>
      <vel value="0.0186011813" flag="0"/>
      <psa03 value="0.0997457299" flag="0"/>
      <psa10 value="0.0103587536" flag="0"/>
      <psa30 value="0.0012536957" flag="0"/>
    </comp>
    <comp name="--.HHN">
      <acc value="0.0660632091" flag="0"/>
      <vel value="0.0139079938" flag="0"/>
      <psa03 value="0.0787525381" flag="0"/>
      <psa10 value="0.0052248212" flag="0"/>
      <psa30 value="0.0005893145" flag="0"/>
    </comp>
    <comp name="--.HHZ">
      <acc value="0.0862062829" flag="0"/>
      <vel value="0.0166455388" flag="0"/>
      <psa03 value="0.0664843866" flag="0"/>
      <psa10 value="0.0055494831" flag="0"/>
      <psa30 value="0.0008572011" flag="0"/>
    </comp>
  </station>
  <station code="SERI" name="SERI" netid="HA" insttype="30" lat="37.1609" lon="24.4853">
    <comp name="--.HHE">
      <acc value="0.0211536259" flag="0"/>
      <vel value="0.0043482361" flag="0"/>
      <psa03 value="0.0193374537" flag="0"/>
      <psa10 value="0.0028062256" flag="0"/>
      <psa30 value="0.0002076696" flag="0"/>
    </comp>
    <comp name="--.HHZ">
      <acc value="0.0214242532" flag="0"/>
      <vel value="0.0042888322" flag="0"/>
      <psa03 value="0.0190874082" flag="0"/>
      <psa10 value="0.0025025995" flag="0"/>
      <psa30 value="0.0002157690" flag="0"/>
    </comp>
    <comp name="--.HHN">
      <acc value="0.0266370505" flag="0"/>
      <vel value="0.0059178620" flag="0"/>
      <psa03 value="0.0153775485" flag="0"/>
      <psa10 value="0.0027006626" flag="0"/>
      <psa30 value="0.0004219468" flag="0"/>
    </comp>
  </station>
  <station code="SNT1" name="SNT1" netid="HA" insttype="30" lat="36.4159" lon="25.4282">
    <comp name="--.HHE">
      <acc value="0.0745082416" flag="0"/>
      <vel value="0.0231255431" flag="0"/>
      <psa03 value="0.1062968073" flag="0"/>
      <psa10 value="0.0222886887" flag="0"/>
      <psa30 value="0.0020906849" flag="0"/>
    </comp>
    <comp name="--.HHN">
      <acc value="0.0703356663" flag="0"/>
      <vel value="0.0290415573" flag="0"/>
      <psa03 value="0.1119104543" flag="0"/>
      <psa10 value="0.0207873956" flag="0"/>
      <psa30 value="0.0018557560" flag="0"/>
    </comp>
    <comp name="--.HHZ">
      <acc value="0.0504017831" flag="0"/>
      <vel value="0.0135646021" flag="0"/>
      <psa03 value="0.0822544836" flag="0"/>
      <psa10 value="0.0112113991" flag="0"/>
      <psa30 value="0.0009672627" flag="0"/>
    </comp>
  </station>
  <station code="SNT5" name="SNT5" netid="HA" insttype="1s-100Hz," lat="36.4037" lon="25.3953">
    <comp name="--.HHZ">
      <acc value="0.0894556373" flag="0"/>
      <vel value="0.0190894813" flag="0"/>
      <psa03 value="0.0892329306" flag="0"/>
      <psa10 value="0.0071884923" flag="0"/>
      <psa30 value="0.0004865556" flag="0"/>
    </comp>
    <comp name="--.HHE">
      <acc value="0.2760907953" flag="0"/>
      <vel value="0.0655036433" flag="0"/>
      <psa03 value="0.3066237135" flag="0"/>
      <psa10 value="0.0273364046" flag="0"/>
      <psa30 value="0.0033962189" flag="0"/>
    </comp>
    <comp name="--.HHN">
      <acc value="0.2092436391" flag="0"/>
      <vel value="0.0512441150" flag="0"/>
      <psa03 value="0.2058927966" flag="0"/>
      <psa10 value="0.0142930662" flag="0"/>
      <psa30 value="0.0013017031" flag="0"/>
    </comp>
  </station>
  <station code="NAX1" name="NAX1" netid="HI" insttype="CMG-5TD,ACCELEROMETER,GURALP" lat="37.1014" lon="25.3741">
    <comp name="--.HNZ">
      <acc value="0.0369905240" flag="0"/>
      <vel value="0.0053613043" flag="0"/>
      <psa03 value="0.0219680918" flag="0"/>
      <psa10 value="0.0048835578" flag="0"/>
      <psa30 value="0.0008603237" flag="0"/>
    </comp>
    <comp name="--.HNN">
      <acc value="0.0680173939" flag="0"/>
      <vel value="0.0149456868" flag="0"/>
      <psa03 value="0.0466853536" flag="0"/>
      <psa10 value="0.0044110015" flag="0"/>
      <psa30 value="0.0005905534" flag="0"/>
    </comp>
    <comp name="--.HNE">
      <acc value="0.0691119512" flag="0"/>
      <vel value="0.0180426183" flag="0"/>
      <psa03 value="0.0557132993" flag="0"/>
      <psa10 value="0.0045753201" flag="0"/>
      <psa30 value="0.0003675262" flag="0"/>
    </comp>
  </station>
  <station code="SFR2" name="SFR2" netid="HI" insttype="unknown" lat="36.3998" lon="25.4382">
    <comp name="--.HNZ">
      <acc value="0.2157479272" flag="0"/>
      <vel value="0.0425167186" flag="0"/>
      <psa03 value="0.2269124681" flag="0"/>
      <psa10 value="0.0206506434" flag="0"/>
      <psa30 value="0.0012931823" flag="0"/>
    </comp>
    <comp name="--.HNN">
      <acc value="0.1491629691" flag="0"/>
      <vel value="0.0556726264" flag="0"/>
      <psa03 value="0.2140450665" flag="0"/>
      <psa10 value="0.0453219227" flag="0"/>
      <psa30 value="0.0021363060" flag="0"/>
    </comp>
    <comp name="--.HNE">
      <acc value="0.1942613189" flag="0"/>
      <vel value="0.0553478161" flag="0"/>
      <psa03 value="0.1830993428" flag="0"/>
      <psa10 value="0.0259334077" flag="0"/>
      <psa30 value="0.0025033330" flag="0"/>
    </comp>
  </station>
  <station code="AMGA" name="AMGA" netid="HL" insttype="SMART24" lat="36.8316" lon="25.8938">
    <comp name="--.HHE">
      <acc value="0.4122732143" flag="0"/>
      <vel value="0.0717314023" flag="0"/>
      <psa03 value="0.1315024891" flag="0"/>
      <psa10 value="0.0235231630" flag="0"/>
      <psa30 value="0.0019406923" flag="0"/>
    </comp>
    <comp name="--.HHN">
      <acc value="0.3655951536" flag="0"/>
      <vel value="0.0653337922" flag="0"/>
      <psa03 value="0.1596759400" flag="0"/>
      <psa10 value="0.0456728432" flag="0"/>
      <psa30 value="0.0027777768" flag="0"/>
    </comp>
    <comp name="--.HHZ">
      <acc value="0.3798658752" flag="0"/>
      <vel value="0.0799347514" flag="0"/>
      <psa03 value="0.2068765809" flag="0"/>
      <psa10 value="0.0291519176" flag="0"/>
      <psa30 value="0.0031671584" flag="0"/>
    </comp>
  </station>
  <station code="APE" name="APE" netid="HL" insttype="120" lat="37.0727" lon="25.523">
    <comp name="--.HHE">
      <acc value="0.1101832078" flag="0"/>
      <vel value="0.0289237562" flag="0"/>
      <psa03 value="0.0896310299" flag="0"/>
      <psa10 value="0.0056600156" flag="0"/>
      <psa30 value="0.0009865200" flag="0"/>
    </comp>
    <comp name="--.HHN">
      <acc value="0.0990806694" flag="0"/>
      <vel value="0.0173214817" flag="0"/>
      <psa03 value="0.0665401781" flag="0"/>
      <psa10 value="0.0081513380" flag="0"/>
      <psa30 value="0.0009883415" flag="0"/>
    </comp>
    <comp name="--.HHZ">
      <acc value="0.0407758821" flag="0"/>
      <vel value="0.0098375549" flag="0"/>
      <psa03 value="0.0283994725" flag="0"/>
      <psa10 value="0.0062265835" flag="0"/>
      <psa30 value="0.0010431638" flag="0"/>
    </comp>
  </station>
  <station code="MHLO" name="MHLO" netid="HL" insttype="20" lat="36.6898" lon="24.4017">
    <comp name="--.HHE">
      <acc value="0.0314445690" flag="0"/>
      <vel value="0.0141329211" flag="0"/>
      <psa03 value="0.0915899550" flag="0"/>
      <psa10 value="0.0241186721" flag="0"/>
      <psa30 value="0.0011226816" flag="0"/>
    </comp>
    <comp name="--.HHZ">
      <acc value="0.0176491205" flag="0"/>
      <vel value="0.0104289827" flag="0"/>
      <psa03 value="0.0702897003" flag="0"/>
      <psa10 value="0.0121605519" flag="0"/>
      <psa30 value="0.0007251859" flag="0"/>
    </comp>
    <comp name="--.HHN">
      <acc value="0.0431042897" flag="0"/>
      <vel value="0.0150264869" flag="0"/>
      <psa03 value="0.1345153056" flag="0"/>
      <psa10 value="0.0141664045" flag="0"/>
      <psa30 value="0.0009528790" flag="0"/>
    </comp>
  </station>
  <station code="MILA" name="MILA" netid="HL" insttype="CMG-5" lat="36.7429" lon="24.4282">
    <comp name="00.HNE">
      <acc value="0.0637853080" flag="0"/>
      <vel value="0.0176398020" flag="0"/>
      <psa03 value="0.0766649046" flag="0"/>
      <psa10 value="0.0076565786" flag="0"/>
      <psa30 value="0.0011652235" flag="0"/>
    </comp>
    <comp name="00.HNN">
      <acc value="0.0679285420" flag="0"/>
      <vel value="0.0242516985" flag="0"/>
      <psa03 value="0.2131918669" flag="0"/>
      <psa10 value="0.0124364392" flag="0"/>
      <psa30 value="0.0009052560" flag="0"/>
    </comp>
    <comp name="00.HNZ">
      <acc value="0.0372047722" flag="0"/>
      <vel value="0.0152926469" flag="0"/>
      <psa03 value="0.0692077385" flag="0"/>
      <psa10 value="0.0086259272" flag="0"/>
      <psa30 value="0.0006121831" flag="0"/>
    </comp>
  </station>
  <station code="SANT" name="SANT" netid="HL" insttype="30" lat="36.3705" lon="25.4593">
    <comp name="--.HHZ">
      <acc value="0.1964120091" flag="0"/>
      <vel value="0.0313939905" flag="0"/>
      <psa03 value="0.1203432319" flag="0"/>
      <psa10 value="0.0089632536" flag="0"/>
      <psa30 value="0.0007924689" flag="0"/>
    </comp>
    <comp name="--.HHE">
      <acc value="0.2032408185" flag="0"/>
      <vel value="0.0362942479" flag="0"/>
      <psa03 value="0.1293935824" flag="0"/>
      <psa10 value="0.0148216309" flag="0"/>
      <psa30 value="0.0014056421" flag="0"/>
    </comp>
    <comp name="--.HHN">
      <acc value="0.1740312360" flag="0"/>
      <vel value="0.0250988471" flag="0"/>
      <psa03 value="0.0969051364" flag="0"/>
      <psa10 value="0.0080367238" flag="0"/>
      <psa30 value="0.0011626796" flag="0"/>
    </comp>
  </station>
  <station code="SAP3" name="SAP3" netid="HL" insttype="65535" lat="36.4356" lon="25.3454">
    <comp name="--.HHE">
      <acc value="0.0784163973" flag="0"/>
      <vel value="0.0307234477" flag="0"/>
      <psa03 value="0.1817350904" flag="0"/>
      <psa10 value="0.0196225313" flag="0"/>
      <psa30 value="0.0015974298" flag="0"/>
    </comp>
    <comp name="--.HHN">
      <acc value="0.1294602553" flag="0"/>
      <vel value="0.0428871985" flag="0"/>
      <psa03 value="0.1762057983" flag="0"/>
      <psa10 value="0.0126235789" flag="0"/>
      <psa30 value="0.0014756807" flag="0"/>
    </comp>
    <comp name="--.HHZ">
      <acc value="0.0919299856" flag="0"/>
      <vel value="0.0230867639" flag="0"/>
      <psa03 value="0.1192798467" flag="0"/>
      <psa10 value="0.0084799546" flag="0"/>
      <psa30 value="0.0008253449" flag="0"/>
    </comp>
  </station>
  <station code="THERA" name="THERA" netid="HL" insttype="120" lat="36.367" lon="25.4753">
    <comp name="--.HHZ">
      <acc value="0.0849143947" flag="0"/>
      <vel value="0.0161514052" flag="0"/>
      <psa03 value="0.0645628430" flag="0"/>
      <psa10 value="0.0054574283" flag="0"/>
      <psa30 value="0.0008562880" flag="0"/>
    </comp>
    <comp name="--.HHE">
      <acc value="0.1047760918" flag="0"/>
      <vel value="0.0180995751" flag="0"/>
      <psa03 value="0.0966194879" flag="0"/>
      <psa10 value="0.0103099579" flag="0"/>
      <psa30 value="0.0012536198" flag="0"/>
    </comp>
    <comp name="--.HHN">
      <acc value="0.1307382634" flag="0"/>
      <vel value="0.0272395535" flag="0"/>
      <psa03 value="0.1530469378" flag="0"/>
      <psa10 value="0.0103664757" flag="0"/>
      <psa30 value="0.0011783957" flag="0"/>
    </comp>
  </station>
  <station code="THRA" name="THRA" netid="HL" insttype="CMG-5" lat="36.415" lon="25.4324">
    <comp name="00.HNE">
      <acc value="0.2025257314" flag="0"/>
      <vel value="0.0656349589" flag="0"/>
      <psa03 value="0.3538725711" flag="0"/>
      <psa10 value="0.0491634281" flag="0"/>
      <psa30 value="0.0046948896" flag="0"/>
    </comp>
    <comp name="00.HNN">
      <acc value="0.1730267997" flag="0"/>
      <vel value="0.0611561529" flag="0"/>
      <psa03 value="0.3332120976" flag="0"/>
      <psa10 value="0.0521165951" flag="0"/>
      <psa30 value="0.0035494986" flag="0"/>
    </comp>
    <comp name="00.HNZ">
      <acc value="0.1690933489" flag="0"/>
      <vel value="0.0704504230" flag="0"/>
      <psa03 value="0.2297496050" flag="0"/>
      <psa10 value="0.0293441336" flag="0"/>
      <psa30 value="0.0020475571" flag="0"/>
    </comp>
  </station>
  <station code="TNSA" name="TNSA" netid="HL" insttype="CMG-5" lat="37.5394" lon="25.1631">
    <comp name="00.HNZ">
      <acc value="0.0190848127" flag="0"/>
      <vel value="0.0080201909" flag="0"/>
      <psa03 value="0.0447348439" flag="0"/>
      <psa10 value="0.0047602123" flag="0"/>
      <psa30 value="0.0004751683" flag="0"/>
    </comp>
    <comp name="00.HNN">
      <acc value="0.0383852671" flag="0"/>
      <vel value="0.0106567548" flag="0"/>
      <psa03 value="0.0672985142" flag="0"/>
      <psa10 value="0.0042314317" flag="0"/>
      <psa30 value="0.0004812367" flag="0"/>
    </comp>
    <comp name="00.HNE">
      <acc value="0.0329391666" flag="0"/>
      <vel value="0.0080926083" flag="0"/>
      <psa03 value="0.0372656240" flag="0"/>
      <psa10 value="0.0025222079" flag="0"/>
      <psa30 value="0.0002470691" flag="0"/>
    </comp>
  </station>
  <station code="AKRO" name="AKRO" netid="HT" insttype="Compact," lat="36.3584" lon="25.3967">
    <comp name="--.HHN">
      <acc value="0.1752406467" flag="0"/>
      <vel value="0.0458822847" flag="0"/>
      <psa03 value="0.1650036814" flag="0"/>
      <psa10 value="0.0221111226" flag="0"/>
      <psa30 value="0.0013090664" flag="0"/>
    </comp>
    <comp name="--.HHE">
      <acc value="0.3088938190" flag="0"/>
      <vel value="0.0718078977" flag="0"/>
      <psa03 value="0.2832535332" flag="0"/>
      <psa10 value="0.0251102837" flag="0"/>
      <psa30 value="0.0019391310" flag="0"/>
    </comp>
    <comp name="--.HHZ">
      <acc value="0.1820998132" flag="0"/>
      <vel value="0.0375756382" flag="0"/>
      <psa03 value="0.1057271655" flag="0"/>
      <psa10 value="0.0144073470" flag="0"/>
      <psa30 value="0.0010201138" flag="0"/>
    </comp>
  </station>
  <station code="CMBO" name="CMBO" netid="HT" insttype="120P," lat="36.4709" lon="25.4056">
    <comp name="--.HHE">
      <acc value="0.0967964712" flag="0"/>
      <vel value="0.0353728424" flag="0"/>
      <psa03 value="0.2169880212" flag="0"/>
      <psa10 value="0.0185140199" flag="0"/>
      <psa30 value="0.0015269602" flag="0"/>
    </comp>
    <comp name="--.HHN">
      <acc value="0.1875684370" flag="0"/>
      <vel value="0.0720597088" flag="0"/>
      <psa03 value="0.2517409980" flag="0"/>
      <psa10 value="0.0247696634" flag="0"/>
      <psa30 value="0.0017731231" flag="0"/>
    </comp>
    <comp name="--.HHZ">
      <acc value="0.1135303739" flag="0"/>
      <vel value="0.0296605181" flag="0"/>
      <psa03 value="0.1720462856" flag="0"/>
      <psa10 value="0.0089949610" flag="0"/>
      <psa30 value="0.0011866433" flag="0"/>
    </comp>
  </station>
</stationlist>
