<?xml version="1.0" encoding="UTF-8" standalone="yes"?>
<!DOCTYPE earthquake SYSTEM "stationlist.dtd">
<stationlist created="" xmlns="ch.ethz.sed.shakemap.usgs.xml">
  <station code="APE" name="APE" netid="GE" insttype="STS-2/N" lat="37.0727" lon="25.523">
    <comp name="--.HHZ">
      <acc value="0.0444924094" flag="0"/>
      <vel value="0.0102554586" flag="0"/>
      <psa03 value="0.0292123653" flag="0"/>
      <psa10 value="0.0062739610" flag="0"/>
      <psa30 value="0.0010466522" flag="0"/>
    </comp>
    <comp name="--.HHE">
      <acc value="0.1228602924" flag="0"/>
      <vel value="0.0307816838" flag="0"/>
      <psa03 value="0.0920251577" flag="0"/>
      <psa10 value="0.0058145322" flag="0"/>
      <psa30 value="0.0009887805" flag="0"/>
    </comp>
    <comp name="--.HHN">
      <acc value="0.1076002920" flag="0"/>
      <vel value="0.0182585052" flag="0"/>
      <psa03 value="0.0692704760" flag="0"/>
      <psa10 value="0.0082720061" flag="0"/>
      <psa30 value="0.0009921243" flag="0"/>
    </comp>
  </station>
  <station code="THERA" name="THERA" netid="GE" insttype="STS-2/N" lat="36.367" lon="25.4753">
    <comp name="--.HHN">
      <acc value="0.0660632089" flag="0"/>
      <vel value="0.0139079940" flag="0"/>
      <psa03 value="0.0787525381" flag="0"/>
      <psa10 value="0.0052248211" flag="0"/>
      <psa30 value="0.0005893213" flag="0"/>
    </comp>
    <comp name="--.HHZ">
      <acc value="0.0862062829" flag="0"/>
      <vel value="0.0166455388" flag="0"/>
      <psa03 value="0.0664843866" flag="0"/>
      <psa10 value="0.0055494835" flag="0"/>
      <psa30 value="0.0008572082" flag="0"/>
    </comp>
    <comp name="--.HHE">
      <acc value="0.1036780630" flag="0"/>
      <vel value="0.0186011807" flag="0"/>
      <psa03 value="0.0997457299" flag="0"/>
      <psa10 value="0.0103587523" flag="0"/>
      <psa30 value="0.0012536444" flag="0"/>
    </comp>
  </station>
  <station code="SERI" name="SERI" netid="HA" insttype="30" lat="37.1609" lon="24.4853">
    <comp name="--.HHE">
      <acc value="0.0211536261" flag="0"/>
      <vel value="0.0043482366" flag="0"/>
      <psa03 value="0.0193374537" flag="0"/>
      <psa10 value="0.0028062256" flag="0"/>
      <psa30 value="0.0002076633" flag="0"/>
    </comp>
    <comp name="--.HHN">
      <acc value="0.0266370505" flag="0"/>
      <vel value="0.0059178621" flag="0"/>
      <psa03 value="0.0153775485" flag="0"/>
      <psa10 value="0.0027006626" flag="0"/>
      <psa30 value="0.0004219538" flag="0"/>
    </comp>
    <comp name="--.HHZ">
      <acc value="0.0214242533" flag="0"/>
      <vel value="0.0042888313" flag="0"/>
      <psa03 value="0.0190874082" flag="0"/>
      <psa10 value="0.0025025995" flag="0"/>
      <psa30 value="0.0002157328" flag="0"/>
    </comp>
  </station>
  <station code="SNT1" name="SNT1" netid="HA" insttype="30" lat="36.4159" lon="25.4282">
    <comp name="--.HHE">
      <acc value="0.0745082415" flag="0"/>
      <vel value="0.0231255383" flag="0"/>
      <psa03 value="0.1062968073" flag="0"/>
      <psa10 value="0.0222886915" flag="0"/>
      <psa30 value="0.0020906949" flag="0"/>
    </comp>
    <comp name="--.HHN">
      <acc value="0.0703356664" flag="0"/>
      <vel value="0.0290415555" flag="0"/>
      <psa03 value="0.1119104543" flag="0"/>
      <psa10 value="0.0207873911" flag="0"/>
      <psa30 value="0.0018557472" flag="0"/>
    </comp>
    <comp name="--.HHZ">
      <acc value="0.0504017833" flag="0"/>
      <vel value="0.0135646024" flag="0"/>
      <psa03 value="0.0822544836" flag="0"/>
      <psa10 value="0.0112113984" flag="0"/>
      <psa30 value="0.0009672681" flag="0"/>
    </comp>
  </station>
  <station code="SNT5" name="SNT5" netid="HA" insttype="1s-100Hz," lat="36.4037" lon="25.3953">
    <comp name="--.HHN">
      <acc value="0.2092436380" flag="0"/>
      <vel value="0.0512443667" flag="0"/>
      <psa03 value="0.2058927977" flag="0"/>
      <psa10 value="0.0142930651" flag="0"/>
      <psa30 value="0.0013017277" flag="0"/>
    </comp>
    <comp name="--.HHZ">
      <acc value="0.0894556375" flag="0"/>
      <vel value="0.0190895473" flag="0"/>
      <psa03 value="0.0892329305" flag="0"/>
      <psa10 value="0.0071884916" flag="0"/>
      <psa30 value="0.0004863569" flag="0"/>
    </comp>
    <comp name="--.HHE">
      <acc value="0.2760907947" flag="0"/>
      <vel value="0.0655034968" flag="0"/>
      <psa03 value="0.3066237128" flag="0"/>
      <psa10 value="0.0273364052" flag="0"/>
      <psa30 value="0.0033962704" flag="0"/>
    </comp>
  </station>
  <station code="NAX1" name="NAX1" netid="HI" insttype="CMG-5TD,ACCELEROMETER,GURALP" lat="37.1014" lon="25.3741">
    <comp name="--.HNE">
      <acc value="0.0691119509" flag="0"/>
      <vel value="0.0180426190" flag="0"/>
      <psa03 value="0.0557132993" flag="0"/>
      <psa10 value="0.0045753190" flag="0"/>
      <psa30 value="0.0003675885" flag="0"/>
    </comp>
    <comp name="--.HNN">
      <acc value="0.0680173934" flag="0"/>
      <vel value="0.0149456859" flag="0"/>
      <psa03 value="0.0466853536" flag="0"/>
      <psa10 value="0.0044110016" flag="0"/>
      <psa30 value="0.0005905371" flag="0"/>
    </comp>
    <comp name="--.HNZ">
      <acc value="0.0369905237" flag="0"/>
      <vel value="0.0053613051" flag="0"/>
      <psa03 value="0.0219680918" flag="0"/>
      <psa10 value="0.0048835582" flag="0"/>
      <psa30 value="0.0008603406" flag="0"/>
    </comp>
  </station>
  <station code="SFR2" name="SFR2" netid="HI" insttype="unknown" lat="36.3998" lon="25.4382">
    <comp name="--.HNN">
      <acc value="0.1491629685" flag="0"/>
      <vel value="0.0556726242" flag="0"/>
      <psa03 value="0.2140450665" flag="0"/>
      <psa10 value="0.0453219226" flag="0"/>
      <psa30 value="0.0021361717" flag="0"/>
    </comp>
    <comp name="--.HNZ">
      <acc value="0.2157479272" flag="0"/>
      <vel value="0.0425167197" flag="0"/>
      <psa03 value="0.2269124681" flag="0"/>
      <psa10 value="0.0206506439" flag="0"/>
      <psa30 value="0.0012933056" flag="0"/>
    </comp>
    <comp name="--.HNE">
      <acc value="0.1942613183" flag="0"/>
      <vel value="0.0553478143" flag="0"/>
      <psa03 value="0.1830993428" flag="0"/>
      <psa10 value="0.0259334138" flag="0"/>
      <psa30 value="0.0025031372" flag="0"/>
    </comp>
  </station>
  <station code="AMGA" name="AMGA" netid="HL" insttype="SMART24" lat="36.8316" lon="25.8938">
    <comp name="--.HHE">
      <acc value="0.4122732146" flag="0"/>
      <vel value="0.0717313989" flag="0"/>
      <psa03 value="0.1315024891" flag="0"/>
      <psa10 value="0.0235231629" flag="0"/>
      <psa30 value="0.0019409277" flag="0"/>
    </comp>
    <comp name="--.HHN">
      <acc value="0.3655951537" flag="0"/>
      <vel value="0.0653337927" flag="0"/>
      <psa03 value="0.1596759400" flag="0"/>
      <psa10 value="0.0456728443" flag="0"/>
      <psa30 value="0.0027775200" flag="0"/>
    </comp>
    <comp name="--.HHZ">
      <acc value="0.3798658750" flag="0"/>
      <vel value="0.0799347510" flag="0"/>
      <psa03 value="0.2068765809" flag="0"/>
      <psa10 value="0.0291519190" flag="0"/>
      <psa30 value="0.0031675327" flag="0"/>
    </comp>
  </station>
  <station code="APE" name="APE" netid="HL" insttype="120" lat="37.0727" lon="25.523">
    <comp name="--.HHZ">
      <acc value="0.0407758820" flag="0"/>
      <vel value="0.0098375546" flag="0"/>
      <psa03 value="0.0283994725" flag="0"/>
      <psa10 value="0.0062265839" flag="0"/>
      <psa30 value="0.0010431390" flag="0"/>
    </comp>
    <comp name="--.HHN">
      <acc value="0.0990806695" flag="0"/>
      <vel value="0.0173214818" flag="0"/>
      <psa03 value="0.0665401781" flag="0"/>
      <psa10 value="0.0081513377" flag="0"/>
      <psa30 value="0.0009882900" flag="0"/>
    </comp>
    <comp name="--.HHE">
      <acc value="0.1101832078" flag="0"/>
      <vel value="0.0289237567" flag="0"/>
      <psa03 value="0.0896310299" flag="0"/>
      <psa10 value="0.0056600159" flag="0"/>
      <psa30 value="0.0009865321" flag="0"/>
    </comp>
  </station>
  <station code="MHLO" name="MHLO" netid="HL" insttype="20" lat="36.6898" lon="24.4017">
    <comp name="--.HHE">
      <acc value="0.0314445691" flag="0"/>
      <vel value="0.0141329280" flag="0"/>
      <psa03 value="0.0915899550" flag="0"/>
      <psa10 value="0.0241186721" flag="0"/>
      <psa30 value="0.0011227379" flag="0"/>
    </comp>
    <comp name="--.HHZ">
      <acc value="0.0176491206" flag="0"/>
      <vel value="0.0104289834" flag="0"/>
      <psa03 value="0.0702897003" flag="0"/>
      <psa10 value="0.0121605519" flag="0"/>
      <psa30 value="0.0007252198" flag="0"/>
    </comp>
    <comp name="--.HHN">
      <acc value="0.0431042896" flag="0"/>
      <vel value="0.0150264833" flag="0"/>
      <psa03 value="0.1345153056" flag="0"/>
      <psa10 value="0.0141664045" flag="0"/>
      <psa30 value="0.0009529053" flag="0"/>
    </comp>
  </station>
  <station code="MILA" name="MILA" netid="HL" insttype="CMG-5" lat="36.7429" lon="24.4282">
    <comp name="00.HNE">
      <acc value="0.0637853083" flag="0"/>
      <vel value="0.0176398025" flag="0"/>
      <psa03 value="0.0766649046" flag="0"/>
      <psa10 value="0.0076565786" flag="0"/>
      <psa30 value="0.0011652437" flag="0"/>
    </comp>
    <comp name="00.HNZ">
      <acc value="0.0372047713" flag="0"/>
      <vel value="0.0152926461" flag="0"/>
      <psa03 value="0.0692077385" flag="0"/>
      <psa10 value="0.0086259272" flag="0"/>
      <psa30 value="0.0006122206" flag="0"/>
    </comp>
    <comp name="00.HNN">
      <acc value="0.0679285427" flag="0"/>
      <vel value="0.0242516986" flag="0"/>
      <psa03 value="0.2131918669" flag="0"/>
      <psa10 value="0.0124364392" flag="0"/>
      <psa30 value="0.0009051466" flag="0"/>
    </comp>
  </station>
  <station code="SANT" name="SANT" netid="HL" insttype="30" lat="36.3705" lon="25.4593">
    <comp name="--.HHE">
      <acc value="0.2032408183" flag="0"/>
      <vel value="0.0362942527" flag="0"/>
      <psa03 value="0.1293935824" flag="0"/>
      <psa10 value="0.0148216374" flag="0"/>
      <psa30 value="0.0014056048" flag="0"/>
    </comp>
    <comp name="--.HHN">
      <acc value="0.1740312358" flag="0"/>
      <vel value="0.0250988379" flag="0"/>
      <psa03 value="0.0969051365" flag="0"/>
      <psa10 value="0.0080367237" flag="0"/>
      <psa30 value="0.0011626191" flag="0"/>
    </comp>
    <comp name="--.HHZ">
      <acc value="0.1964120092" flag="0"/>
      <vel value="0.0313939940" flag="0"/>
      <psa03 value="0.1203432319" flag="0"/>
      <psa10 value="0.0089632557" flag="0"/>
      <psa30 value="0.0007924927" flag="0"/>
    </comp>
  </station>
  <station code="SAP3" name="SAP3" netid="HL" insttype="65535" lat="36.4356" lon="25.3454">
    <comp name="--.HHZ">
      <acc value="0.0919299856" flag="0"/>
      <vel value="0.0230867649" flag="0"/>
      <psa03 value="0.1192798467" flag="0"/>
      <psa10 value="0.0084799538" flag="0"/>
      <psa30 value="0.0008250449" flag="0"/>
    </comp>
    <comp name="--.HHE">
      <acc value="0.0784163972" flag="0"/>
      <vel value="0.0307234477" flag="0"/>
      <psa03 value="0.1817350904" flag="0"/>
      <psa10 value="0.0196225306" flag="0"/>
      <psa30 value="0.0015975361" flag="0"/>
    </comp>
    <comp name="--.HHN">
      <acc value="0.1294602553" flag="0"/>
      <vel value="0.0428872026" flag="0"/>
      <psa03 value="0.1762057983" flag="0"/>
      <psa10 value="0.0126235789" flag="0"/>
      <psa30 value="0.0014758976" flag="0"/>
    </comp>
  </station>
  <station code="THERA" name="THERA" netid="HL" insttype="120" lat="36.367" lon="25.4753">
    <comp name="--.HHN">
      <acc value="0.1307382631" flag="0"/>
      <vel value="0.0272395538" flag="0"/>
      <psa03 value="0.1530469378" flag="0"/>
      <psa10 value="0.0103664754" flag="0"/>
      <psa30 value="0.0011784079" flag="0"/>
    </comp>
    <comp name="--.HHZ">
      <acc value="0.0849143947" flag="0"/>
      <vel value="0.0161514050" flag="0"/>
      <psa03 value="0.0645628430" flag="0"/>
      <psa10 value="0.0054574288" flag="0"/>
      <psa30 value="0.0008562938" flag="0"/>
    </comp>
    <comp name="--.HHE">
      <acc value="0.1047760920" flag="0"/>
      <vel value="0.0180995746" flag="0"/>
      <psa03 value="0.0966194879" flag="0"/>
      <psa10 value="0.0103099569" flag="0"/>
      <psa30 value="0.0012535707" flag="0"/>
    </comp>
  </station>
  <station code="THRA" name="THRA" netid="HL" insttype="CMG-5" lat="36.415" lon="25.4324">
    <comp name="00.HNE">
      <acc value="0.2025257309" flag="0"/>
      <vel value="0.0656349597" flag="0"/>
      <psa03 value="0.3538725711" flag="0"/>
      <psa10 value="0.0491634269" flag="0"/>
      <psa30 value="0.0046950789" flag="0"/>
    </comp>
    <comp name="00.HNN">
      <acc value="0.1730268008" flag="0"/>
      <vel value="0.0611561524" flag="0"/>
      <psa03 value="0.3332120976" flag="0"/>
      <psa10 value="0.0521165892" flag="0"/>
      <psa30 value="0.0035495831" flag="0"/>
    </comp>
    <comp name="00.HNZ">
      <acc value="0.1690933487" flag="0"/>
      <vel value="0.0704504222" flag="0"/>
      <psa03 value="0.2297496050" flag="0"/>
      <psa10 value="0.0293441336" flag="0"/>
      <psa30 value="0.0020475068" flag="0"/>
    </comp>
  </station>
  <station code="TNSA" name="TNSA" netid="HL" insttype="CMG-5" lat="37.5394" lon="25.1631">
    <comp name="00.HNE">
      <acc value="0.0329391669" flag="0"/>
      <vel value="0.0080926080" flag="0"/>
      <psa03 value="0.0372656240" flag="0"/>
      <psa10 value="0.0025222079" flag="0"/>
      <psa30 value="0.0002470527" flag="0"/>
    </comp>
    <comp name="00.HNZ">
      <acc value="0.0190848127" flag="0"/>
      <vel value="0.0080201919" flag="0"/>
      <psa03 value="0.0447348439" flag="0"/>
      <psa10 value="0.0047602118" flag="0"/>
      <psa30 value="0.0004752664" flag="0"/>
    </comp>
    <comp name="00.HNN">
      <acc value="0.0383852677" flag="0"/>
      <vel value="0.0106567546" flag="0"/>
      <psa03 value="0.0672985142" flag="0"/>
      <psa10 value="0.0042314318" flag="0"/>
      <psa30 value="0.0004810845" flag="0"/>
    </comp>
  </station>
  <station code="AKRO" name="AKRO" netid="HT" insttype="Compact," lat="36.3584" lon="25.3967">
    <comp name="--.HHN">
      <acc value="0.1752406468" flag="0"/>
      <vel value="0.0458822867" flag="0"/>
      <psa03 value="0.1650036814" flag="0"/>
      <psa10 value="0.0221111194" flag="0"/>
      <psa30 value="0.0013089676" flag="0"/>
    </comp>
    <comp name="--.HHZ">
      <acc value="0.1820998132" flag="0"/>
      <vel value="0.0375756391" flag="0"/>
      <psa03 value="0.1057271655" flag="0"/>
      <psa10 value="0.0144073470" flag="0"/>
      <psa30 value="0.0010200826" flag="0"/>
    </comp>
    <comp name="--.HHE">
      <acc value="0.3088938190" flag="0"/>
      <vel value="0.0718079004" flag="0"/>
      <psa03 value="0.2832535332" flag="0"/>
      <psa10 value="0.0251102839" flag="0"/>
      <psa30 value="0.0019390563" flag="0"/>
    </comp>
  </station>
  <station code="CMBO" name="CMBO" netid="HT" insttype="120P," lat="36.4709" lon="25.4056">
    <comp name="--.HHN">
      <acc value="0.1875684370" flag="0"/>
      <vel value="0.0720597070" flag="0"/>
      <psa03 value="0.2517409980" flag="0"/>
      <psa10 value="0.0247696635" flag="0"/>
      <psa30 value="0.0017733983" flag="0"/>
    </comp>
    <comp name="--.HHE">
      <acc value="0.0967964712" flag="0"/>
      <vel value="0.0353728413" flag="0"/>
      <psa03 value="0.2169880212" flag="0"/>
      <psa10 value="0.0185140185" flag="0"/>
      <psa30 value="0.0015270762" flag="0"/>
    </comp>
    <comp name="--.HHZ">
      <acc value="0.1135303740" flag="0"/>
      <vel value="0.0296605187" flag="0"/>
      <psa03 value="0.1720462856" flag="0"/>
      <psa10 value="0.0089949615" flag="0"/>
      <psa30 value="0.0011866648" flag="0"/>
    </comp>
  </station>
</stationlist>
