<?xml version="1.0" encoding="UTF-8" standalone="yes"?>
<!DOCTYPE earthquake SYSTEM "stationlist.dtd">
<stationlist created="" xmlns="ch.ethz.sed.shakemap.usgs.xml">
  <station code="APE" name="APE" netid="GE" insttype="STS-2/N" lat="37.0727" lon="25.523">
    <comp name="--.HHN">
      <acc value="0.1076002920" flag="0"/>
      <vel value="0.0182585051" flag="0"/>
      <psa03 value="0.0692704760" flag="0"/>
      <psa10 value="0.0082720063" flag="0"/>
      <psa30 value="0.0009921563" flag="0"/>
    </comp>
    <comp name="--.HHZ">
      <acc value="0.0444924094" flag="0"/>
      <vel value="0.0102554585" flag="0"/>
      <psa03 value="0.0292123653" flag="0"/>
      <psa10 value="0.0062739608" flag="0"/>
      <psa30 value="0.0010466657" flag="0"/>
    </comp>
    <comp name="--.HHE">
      <acc value="0.1228602924" flag="0"/>
      <vel value="0.0307816837" flag="0"/>
      <psa03 value="0.0920251577" flag="0"/>
      <psa10 value="0.0058145320" flag="0"/>
      <psa30 value="0.0009887734" flag="0"/>
    </comp>
  </station>
  <station code="THERA" name="THERA" netid="GE" insttype="STS-2/N" lat="36.367" lon="25.4753">
    <comp name="--.HHE">
      <acc value="0.1036780631" flag="0"/>
      <vel value="0.0186011813" flag="0"/>
      <psa03 value="0.0997457299" flag="0"/>
      <psa10 value="0.0103587536" flag="0"/>
      <psa30 value="0.0012536957" flag="0"/>
    </comp>
    <comp name="--.HHN">
      <acc value="0.0660632091" flag="0"/>
      <vel value="0.0139079938" flag="0"/>
      <psa03 value="0.0787525381" flag="0"/>
      <psa10 value="0.0052248212" flag="0"/>
      <psa30 value="0.0005893145" flag="0"/>
    </comp>
    <comp name="--.HHZ">
      <acc value="0.0862062829" flag="0"/>
      <vel value="0.0166455388" flag="0"/>
      <psa03 value="0.0664843866" flag="0"/>
      <psa10 value="0.0055494831" flag="0"/>
      <psa30 value="0.0008572011" flag="0"/>
    </comp>
  </station>
</stationlist>
