<?xml version="1.0" encoding="UTF-8" standalone="yes"?>
<!DOCTYPE earthquake SYSTEM "stationlist.dtd">
<stationlist created="" xmlns="ch.ethz.sed.shakemap.usgs.xml">
  <station code="AGRP" name="AGRP" netid="CL" insttype="CMG40-T" commtype="DIG" lat="38.3959" lon="21.7228">
    <comp name="00.HHE">
      <acc value="0.0101290680" flag="0"/>
      <vel value="0.0034076092" flag="0"/>
      <psa03 value="0.0196381567" flag="0"/>
      <psa10 value="0.0029004588" flag="0"/>
      <psa30 value="0.0002402462" flag="0"/>
    </comp>
    <comp name="00.HHN">
      <acc value="0.0087387868" flag="0"/>
      <vel value="0.0042903234" flag="0"/>
      <psa03 value="0.0189094115" flag="0"/>
      <psa10 value="0.0044767064" flag="0"/>
      <psa30 value="0.0002753908" flag="0"/>
    </comp>
    <comp name="00.HHZ">
      <acc value="0.0054068935" flag="0"/>
      <vel value="0.0020066060" flag="0"/>
      <psa03 value="0.0071656908" flag="0"/>
      <psa10 value="0.0021127921" flag="0"/>
      <psa30 value="0.0002264983" flag="0"/>
    </comp>
  </station>
  <station code="MALA" name="MALA" netid="CL" insttype="TRILLIUM-40" commtype="DIG" lat="38.3934" lon="21.8726">
    <comp name="01.HHE">
      <acc value="0.0185492994" flag="0"/>
      <vel value="0.0075145779" flag="0"/>
      <psa03 value="0.0324015743" flag="0"/>
      <psa10 value="0.0127661147" flag="0"/>
      <psa30 value="0.0004540147" flag="0"/>
    </comp>
    <comp name="01.HHN">
      <acc value="0.0192585200" flag="0"/>
      <vel value="0.0071128445" flag="0"/>
      <psa03 value="0.0506817690" flag="0"/>
      <psa10 value="0.0060694821" flag="0"/>
      <psa30 value="0.0003953372" flag="0"/>
    </comp>
    <comp name="01.HHZ">
      <acc value="0.0043664328" flag="0"/>
      <vel value="0.0023416002" flag="0"/>
      <psa03 value="0.0122144072" flag="0"/>
      <psa10 value="0.0030131654" flag="0"/>
      <psa30 value="0.0001558897" flag="0"/>
    </comp>
  </station>
  <station code="MG06" name="MG06" netid="CL" insttype="TRILLIUM-40" commtype="DIG" lat="38.4129" lon="21.9462">
    <comp name="06.HHE">
      <acc value="0.0120308941" flag="0"/>
      <vel value="0.0053661107" flag="0"/>
      <psa03 value="0.0259702041" flag="0"/>
      <psa10 value="0.0026016086" flag="0"/>
      <psa30 value="0.0002100926" flag="0"/>
    </comp>
    <comp name="06.HHZ">
      <acc value="0.0069035658" flag="0"/>
      <vel value="0.0021192918" flag="0"/>
      <psa03 value="0.0133259374" flag="0"/>
      <psa10 value="0.0012540603" flag="0"/>
      <psa30 value="0.0000865929" flag="0"/>
    </comp>
    <comp name="06.HHN">
      <acc value="0.0146268545" flag="0"/>
      <vel value="0.0048617187" flag="0"/>
      <psa03 value="0.0222648265" flag="0"/>
      <psa10 value="0.0020712984" flag="0"/>
      <psa30 value="0.0001246642" flag="0"/>
    </comp>
  </station>
  <station code="ROD3" name="ROD3" netid="CL" insttype="CMG40-T" commtype="DIG" lat="38.3081" lon="21.892">
    <comp name="00.HHE">
      <acc value="0.0183589902" flag="0"/>
      <vel value="0.0076736915" flag="0"/>
      <psa03 value="0.0553271028" flag="0"/>
      <psa10 value="0.0030322602" flag="0"/>
      <psa30 value="0.0002317763" flag="0"/>
    </comp>
    <comp name="00.HHN">
      <acc value="0.0155836763" flag="0"/>
      <vel value="0.0071736227" flag="0"/>
      <psa03 value="0.0481067842" flag="0"/>
      <psa10 value="0.0028919870" flag="0"/>
      <psa30 value="0.0002651867" flag="0"/>
    </comp>
    <comp name="00.HHZ">
      <acc value="0.0077750243" flag="0"/>
      <vel value="0.0021934886" flag="0"/>
      <psa03 value="0.0138663365" flag="0"/>
      <psa10 value="0.0022265795" flag="0"/>
      <psa30 value="0.0001057199" flag="0"/>
    </comp>
  </station>
  <station code="TRIZ" name="TRIZ" netid="CL" insttype="STS-2" commtype="DIG" lat="38.3654" lon="22.0727">
    <comp name="00.HH3">
      <acc value="0.0157073067" flag="0"/>
      <vel value="0.0065565860" flag="0"/>
      <psa03 value="0.0660867947" flag="0"/>
      <psa10 value="0.0029558227" flag="0"/>
      <psa30 value="0.0002314667" flag="0"/>
    </comp>
    <comp name="00.HH2">
      <acc value="0.0171320418" flag="0"/>
      <vel value="0.0064456381" flag="0"/>
      <psa03 value="0.0705957385" flag="0"/>
      <psa10 value="0.0026352299" flag="0"/>
      <psa30 value="0.0002433248" flag="0"/>
    </comp>
    <comp name="00.HHZ">
      <acc value="0.0092477043" flag="0"/>
      <vel value="0.0026526674" flag="0"/>
      <psa03 value="0.0198092947" flag="0"/>
      <psa10 value="0.0017887458" flag="0"/>
      <psa30 value="0.0001146365" flag="0"/>
    </comp>
  </station>
  <station code="ZIRI" name="ZIRI" netid="CL" insttype="TRILLIUM-40" commtype="DIG" lat="38.3051" lon="21.9476">
    <comp name="01.HHE">
      <acc value="0.0129721424" flag="0"/>
      <vel value="0.0062841802" flag="0"/>
      <psa03 value="0.0303597075" flag="0"/>
      <psa10 value="0.0032268329" flag="0"/>
      <psa30 value="0.0001888209" flag="0"/>
    </comp>
    <comp name="01.HHZ">
      <acc value="0.0099050482" flag="0"/>
      <vel value="0.0035119062" flag="0"/>
      <psa03 value="0.0242997337" flag="0"/>
      <psa10 value="0.0010881867" flag="0"/>
      <psa30 value="0.0001117061" flag="0"/>
    </comp>
    <comp name="01.HHN">
      <acc value="0.0133655161" flag="0"/>
      <vel value="0.0058401449" flag="0"/>
      <psa03 value="0.0267258474" flag="0"/>
      <psa10 value="0.0025414118" flag="0"/>
      <psa30 value="0.0002502741" flag="0"/>
    </comp>
  </station>
  <station code="AXAR" name="AXAR" netid="HA" insttype="Horizon,120s,1200" commtype="DIG" lat="38.7664" lon="22.659">
    <comp name="--.HHZ">
      <acc value="0.0098434563" flag="0"/>
      <vel value="0.0031575277" flag="0"/>
      <psa03 value="0.0225982896" flag="0"/>
      <psa10 value="0.0014092137" flag="0"/>
      <psa30 value="0.0001094122" flag="0"/>
    </comp>
    <comp name="--.HHN">
      <acc value="0.0145965741" flag="0"/>
      <vel value="0.0054621660" flag="0"/>
      <psa03 value="0.0344901881" flag="0"/>
      <psa10 value="0.0031008851" flag="0"/>
      <psa30 value="0.0002110375" flag="0"/>
    </comp>
    <comp name="--.HHE">
      <acc value="0.0165376560" flag="0"/>
      <vel value="0.0059847829" flag="0"/>
      <psa03 value="0.0420495654" flag="0"/>
      <psa10 value="0.0024423669" flag="0"/>
      <psa30 value="0.0002484034" flag="0"/>
    </comp>
  </station>
  <station code="KALE" name="KALE" netid="HA" insttype="40," commtype="DIG" lat="38.3911" lon="22.1398">
    <comp name="--.HHE">
      <acc value="0.0136704377" flag="0"/>
      <vel value="0.0046634924" flag="0"/>
      <psa03 value="0.0248545964" flag="0"/>
      <psa10 value="0.0019705358" flag="0"/>
      <psa30 value="0.0001345183" flag="0"/>
    </comp>
    <comp name="--.HHZ">
      <acc value="0.0114963539" flag="0"/>
      <vel value="0.0028256625" flag="0"/>
      <psa03 value="0.0151336609" flag="0"/>
      <psa10 value="0.0014741723" flag="0"/>
      <psa30 value="0.0001020293" flag="0"/>
    </comp>
    <comp name="--.HHN">
      <acc value="0.0203629995" flag="0"/>
      <vel value="0.0066169422" flag="0"/>
      <psa03 value="0.0299795284" flag="0"/>
      <psa10 value="0.0023363110" flag="0"/>
      <psa30 value="0.0001634221" flag="0"/>
    </comp>
  </station>
  <station code="VSK1" name="VSK1" netid="HI" insttype="unknown" commtype="DIG" lat="38.4091" lon="20.564">
    <comp name="--.HNN">
      <acc value="0.0058255146" flag="0"/>
      <vel value="0.0028541912" flag="0"/>
      <psa03 value="0.0170724951" flag="0"/>
      <psa10 value="0.0018357317" flag="0"/>
      <psa30 value="0.0002241233" flag="0"/>
    </comp>
    <comp name="--.HNE">
      <acc value="0.0059636776" flag="0"/>
      <vel value="0.0022108908" flag="0"/>
      <psa03 value="0.0117773707" flag="0"/>
      <psa10 value="0.0028100251" flag="0"/>
      <psa30 value="0.0002074330" flag="0"/>
    </comp>
  </station>
  <station code="EVR" name="EVR" netid="HL" insttype="DR24" commtype="DIG" lat="38.9166" lon="21.8105">
    <comp name="--.HHN">
      <acc value="0.1117210285" flag="0"/>
      <vel value="0.0197296744" flag="0"/>
      <psa03 value="0.0563898212" flag="0"/>
      <psa10 value="0.0076610056" flag="0"/>
      <psa30 value="0.0004564700" flag="0"/>
    </comp>
    <comp name="--.HHZ">
      <acc value="0.0697370680" flag="0"/>
      <vel value="0.0144535779" flag="0"/>
      <psa03 value="0.0494769430" flag="0"/>
      <psa10 value="0.0066104415" flag="0"/>
      <psa30 value="0.0004621355" flag="0"/>
    </comp>
    <comp name="--.HHE">
      <acc value="0.1137229354" flag="0"/>
      <vel value="0.0256334919" flag="0"/>
      <psa03 value="0.1209544101" flag="0"/>
      <psa10 value="0.0085199935" flag="0"/>
      <psa30 value="0.0004641426" flag="0"/>
    </comp>
  </station>
  <station code="JAN" name="JAN" netid="HL" insttype="CMG3EPSC60_DR24" commtype="DIG" lat="39.6562" lon="20.8487">
    <comp name="--.HHE">
      <acc value="0.0103984176" flag="0"/>
      <vel value="0.0026461707" flag="0"/>
      <psa03 value="0.0188445402" flag="0"/>
      <psa10 value="0.0020010386" flag="0"/>
      <psa30 value="0.0001442717" flag="0"/>
    </comp>
    <comp name="--.HHN">
      <acc value="0.0082870654" flag="0"/>
      <vel value="0.0029939434" flag="0"/>
      <psa03 value="0.0137936964" flag="0"/>
      <psa10 value="0.0013765484" flag="0"/>
      <psa30 value="0.0001701370" flag="0"/>
    </comp>
    <comp name="--.HHZ">
      <acc value="0.0050367952" flag="0"/>
      <vel value="0.0015106847" flag="0"/>
      <psa03 value="0.0089179445" flag="0"/>
      <psa10 value="0.0011837692" flag="0"/>
      <psa30 value="0.0001233673" flag="0"/>
    </comp>
  </station>
  <station code="TETR" name="TETR" netid="HL" insttype="60" commtype="DIG" lat="39.3445" lon="21.2747">
    <comp name="--.HHE">
      <acc value="0.2000156392" flag="0"/>
      <vel value="0.0485284028" flag="0"/>
      <psa03 value="0.1429478365" flag="0"/>
      <psa10 value="0.0241305571" flag="0"/>
      <psa30 value="0.0013232380" flag="0"/>
    </comp>
    <comp name="--.HHZ">
      <acc value="0.1061955460" flag="0"/>
      <vel value="0.0138135384" flag="0"/>
      <psa03 value="0.0418893865" flag="0"/>
      <psa10 value="0.0134550641" flag="0"/>
      <psa30 value="0.0006490908" flag="0"/>
    </comp>
    <comp name="--.HHN">
      <acc value="0.2200199105" flag="0"/>
      <vel value="0.0354650638" flag="0"/>
      <psa03 value="0.1126210818" flag="0"/>
      <psa10 value="0.0218109687" flag="0"/>
      <psa30 value="0.0011630714" flag="0"/>
    </comp>
  </station>
  <station code="THL" name="THL" netid="HL" insttype="120" commtype="DIG" lat="39.5647" lon="22.0144">
    <comp name="--.HHE">
      <acc value="0.0066886022" flag="0"/>
      <vel value="0.0030675103" flag="0"/>
      <psa03 value="0.0098020415" flag="0"/>
      <psa10 value="0.0019429156" flag="0"/>
      <psa30 value="0.0002570764" flag="0"/>
    </comp>
    <comp name="--.HHN">
      <acc value="0.0073034213" flag="0"/>
      <vel value="0.0026324981" flag="0"/>
      <psa03 value="0.0130157371" flag="0"/>
      <psa10 value="0.0018792341" flag="0"/>
      <psa30 value="0.0002646285" flag="0"/>
    </comp>
    <comp name="--.HHZ">
      <acc value="0.0054370528" flag="0"/>
      <vel value="0.0017565819" flag="0"/>
      <psa03 value="0.0084126098" flag="0"/>
      <psa10 value="0.0019962494" flag="0"/>
      <psa30 value="0.0002939753" flag="0"/>
    </comp>
  </station>
  <station code="AMPL" name="AMPL" netid="HP" insttype="Compact," commtype="DIG" lat="38.9224" lon="21.2135">
    <comp name="--.HHN">
      <acc value="0.1237428070" flag="0"/>
      <vel value="0.0344621748" flag="0"/>
      <psa03 value="0.1642112407" flag="0"/>
      <psa10 value="0.0107006548" flag="0"/>
      <psa30 value="0.0008247602" flag="0"/>
    </comp>
    <comp name="--.HHZ">
      <acc value="0.0499720262" flag="0"/>
      <vel value="0.0166765401" flag="0"/>
      <psa03 value="0.1411361008" flag="0"/>
      <psa10 value="0.0154187864" flag="0"/>
      <psa30 value="0.0008307643" flag="0"/>
    </comp>
    <comp name="--.HHE">
      <acc value="0.1146917054" flag="0"/>
      <vel value="0.0349904488" flag="0"/>
      <psa03 value="0.1951541356" flag="0"/>
      <psa10 value="0.0116685260" flag="0"/>
      <psa30 value="0.0009321358" flag="0"/>
    </comp>
  </station>
  <station code="ANX" name="ANX" netid="HP" insttype="120" commtype="DIG" lat="38.5933" lon="21.9209">
    <comp name="--.HHE">
      <acc value="0.0349113205" flag="0"/>
      <vel value="0.0096156964" flag="0"/>
      <psa03 value="0.0626806879" flag="0"/>
      <psa10 value="0.0032785319" flag="0"/>
      <psa30 value="0.0002816382" flag="0"/>
    </comp>
    <comp name="--.HHN">
      <acc value="0.0332567874" flag="0"/>
      <vel value="0.0115916101" flag="0"/>
      <psa03 value="0.0427026344" flag="0"/>
      <psa10 value="0.0035807287" flag="0"/>
      <psa30 value="0.0002630123" flag="0"/>
    </comp>
    <comp name="--.HHZ">
      <acc value="0.0165942718" flag="0"/>
      <vel value="0.0051363769" flag="0"/>
      <psa03 value="0.0247641911" flag="0"/>
      <psa10 value="0.0026783896" flag="0"/>
      <psa30 value="0.0002028356" flag="0"/>
    </comp>
  </station>
  <station code="AXS" name="AXS" netid="HP" insttype="Compact," commtype="DIG" lat="38.1962" lon="21.3763">
    <comp name="--.HHN">
      <acc value="0.0050059264" flag="0"/>
      <vel value="0.0025730183" flag="0"/>
      <psa03 value="0.0130442418" flag="0"/>
      <psa10 value="0.0016201516" flag="0"/>
      <psa30 value="0.0001008374" flag="0"/>
    </comp>
    <comp name="--.HHZ">
      <acc value="0.0036483957" flag="0"/>
      <vel value="0.0017588041" flag="0"/>
      <psa03 value="0.0105396720" flag="0"/>
      <psa10 value="0.0011436857" flag="0"/>
      <psa30 value="0.0000654921" flag="0"/>
    </comp>
    <comp name="--.HHE">
      <acc value="0.0064068715" flag="0"/>
      <vel value="0.0031586067" flag="0"/>
      <psa03 value="0.0172935306" flag="0"/>
      <psa10 value="0.0015966236" flag="0"/>
      <psa30 value="0.0001277337" flag="0"/>
    </comp>
  </station>
  <station code="DSF" name="DSF" netid="HP" insttype="Compact," commtype="DIG" lat="38.4112" lon="22.5271">
    <comp name="--.HHE">
      <acc value="0.0146885230" flag="0"/>
      <vel value="0.0025456279" flag="0"/>
      <psa03 value="0.0121664260" flag="0"/>
      <psa10 value="0.0006814936" flag="0"/>
      <psa30 value="0.0000764949" flag="0"/>
    </comp>
    <comp name="--.HHZ">
      <acc value="0.0072749012" flag="0"/>
      <vel value="0.0016038303" flag="0"/>
      <psa03 value="0.0085548201" flag="0"/>
      <psa10 value="0.0006612738" flag="0"/>
      <psa30 value="0.0000864084" flag="0"/>
    </comp>
    <comp name="--.HHN">
      <acc value="0.0167495078" flag="0"/>
      <vel value="0.0044923837" flag="0"/>
      <psa03 value="0.0145755889" flag="0"/>
      <psa10 value="0.0011054573" flag="0"/>
      <psa30 value="0.0000645465" flag="0"/>
    </comp>
  </station>
  <station code="EFP" name="EFP" netid="HP" insttype="40," commtype="DIG" lat="38.4269" lon="21.9058">
    <comp name="--.HHN">
      <acc value="0.0190305527" flag="0"/>
      <vel value="0.0081968530" flag="0"/>
      <psa03 value="0.0295496389" flag="0"/>
      <psa10 value="0.0041286179" flag="0"/>
      <psa30 value="0.0002930446" flag="0"/>
    </comp>
    <comp name="--.HHZ">
      <acc value="0.0157159746" flag="0"/>
      <vel value="0.0050929149" flag="0"/>
      <psa03 value="0.0247736161" flag="0"/>
      <psa10 value="0.0024022197" flag="0"/>
      <psa30 value="0.0001724088" flag="0"/>
    </comp>
    <comp name="--.HHE">
      <acc value="0.0270423714" flag="0"/>
      <vel value="0.0104773758" flag="0"/>
      <psa03 value="0.0652798471" flag="0"/>
      <psa10 value="0.0033050313" flag="0"/>
      <psa30 value="0.0002064138" flag="0"/>
    </comp>
  </station>
  <station code="FSK" name="FSK" netid="HP" insttype="40," commtype="DIG" lat="38.4593" lon="20.5623">
    <comp name="--.HHN">
      <acc value="0.0062647902" flag="0"/>
      <vel value="0.0025028111" flag="0"/>
      <psa03 value="0.0179541377" flag="0"/>
      <psa10 value="0.0017157980" flag="0"/>
      <psa30 value="0.0002065350" flag="0"/>
    </comp>
    <comp name="--.HHZ">
      <acc value="0.0043141578" flag="0"/>
      <vel value="0.0016674959" flag="0"/>
      <psa03 value="0.0129561599" flag="0"/>
      <psa10 value="0.0016651751" flag="0"/>
      <psa30 value="0.0001175175" flag="0"/>
    </comp>
    <comp name="--.HHE">
      <acc value="0.0099271659" flag="0"/>
      <vel value="0.0039391978" flag="0"/>
      <psa03 value="0.0260002486" flag="0"/>
      <psa10 value="0.0032712316" flag="0"/>
      <psa30 value="0.0002254464" flag="0"/>
    </comp>
  </station>
  <station code="KSTR" name="KSTR" netid="HP" insttype="Compact," commtype="DIG" lat="39.2492" lon="20.576">
    <comp name="--.HHN">
      <acc value="0.0033653081" flag="0"/>
      <vel value="0.0014008588" flag="0"/>
      <psa03 value="0.0060219881" flag="0"/>
      <psa10 value="0.0009322271" flag="0"/>
      <psa30 value="0.0000908677" flag="0"/>
    </comp>
    <comp name="--.HHZ">
      <acc value="0.0027071930" flag="0"/>
      <vel value="0.0009278163" flag="0"/>
      <psa03 value="0.0047648168" flag="0"/>
      <psa10 value="0.0011346425" flag="0"/>
      <psa30 value="0.0000907240" flag="0"/>
    </comp>
    <comp name="--.HHE">
      <acc value="0.0028056965" flag="0"/>
      <vel value="0.0013736397" flag="0"/>
      <psa03 value="0.0065692121" flag="0"/>
      <psa10 value="0.0010754155" flag="0"/>
      <psa30 value="0.0000963912" flag="0"/>
    </comp>
  </station>
  <station code="PDO" name="PDO" netid="HP" insttype="120s" commtype="DIG" lat="38.5986" lon="21.1833">
    <comp name="--.HHE">
      <acc value="0.0442279392" flag="0"/>
      <vel value="0.0157905350" flag="0"/>
      <psa03 value="0.0958821362" flag="0"/>
      <psa10 value="0.0085972222" flag="0"/>
      <psa30 value="0.0004930450" flag="0"/>
    </comp>
    <comp name="--.HHZ">
      <acc value="0.0372695240" flag="0"/>
      <vel value="0.0139034781" flag="0"/>
      <psa03 value="0.0550317537" flag="0"/>
      <psa10 value="0.0039657150" flag="0"/>
      <psa30 value="0.0004783199" flag="0"/>
    </comp>
    <comp name="--.HHN">
      <acc value="0.0404686007" flag="0"/>
      <vel value="0.0184961237" flag="0"/>
      <psa03 value="0.1593229900" flag="0"/>
      <psa10 value="0.0068425805" flag="0"/>
      <psa30 value="0.0004583354" flag="0"/>
    </comp>
  </station>
  <station code="PLEV" name="PLEV" netid="HP" insttype="Compact," commtype="DIG" lat="38.4124" lon="21.4073">
    <comp name="--.HHE">
      <acc value="0.0074964500" flag="0"/>
      <vel value="0.0029013563" flag="0"/>
      <psa03 value="0.0202541501" flag="0"/>
      <psa10 value="0.0016652989" flag="0"/>
      <psa30 value="0.0001447329" flag="0"/>
    </comp>
    <comp name="--.HHZ">
      <acc value="0.0074432369" flag="0"/>
      <vel value="0.0029441654" flag="0"/>
      <psa03 value="0.0128217322" flag="0"/>
      <psa10 value="0.0018298637" flag="0"/>
      <psa30 value="0.0001480061" flag="0"/>
    </comp>
    <comp name="--.HHN">
      <acc value="0.0082290693" flag="0"/>
      <vel value="0.0037281911" flag="0"/>
      <psa03 value="0.0177742116" flag="0"/>
      <psa10 value="0.0030228462" flag="0"/>
      <psa30 value="0.0001472072" flag="0"/>
    </comp>
  </station>
  <station code="PRMD" name="PRMD" netid="HP" insttype="120P," commtype="DIG" lat="39.5299" lon="21.0965">
    <comp name="--.HHE">
      <acc value="0.0155202771" flag="0"/>
      <vel value="0.0057028162" flag="0"/>
      <psa03 value="0.0258547228" flag="0"/>
      <psa10 value="0.0061304437" flag="0"/>
      <psa30 value="0.0004088514" flag="0"/>
    </comp>
    <comp name="--.HHN">
