<?xml version="1.0" encoding="UTF-8" standalone="yes"?>
<!DOCTYPE earthquake SYSTEM "stationlist.dtd">
<stationlist created="" xmlns="ch.ethz.sed.shakemap.usgs.xml">
  <station code="RLS" name="RLS" netid="HL" source="NOA" insttype="120" lat="38.0559" lon="21.4647">
    <comp name="--.HHE">
      <acc value="0.0062715784" flag="0"/>
      <vel value="0.0043751113" flag="0"/>
      <psa03 value="0.0185429719" flag="0"/>
      <psa10 value="0.0042419093" flag="0"/>
      <psa30 value="0.0007939328" flag="0"/>
    </comp>
    <comp name="--.HHN">
      <acc value="0.0108194306" flag="0"/>
      <vel value="0.0045749232" flag="0"/>
      <psa03 value="0.0224420892" flag="0"/>
      <psa10 value="0.0033386173" flag="0"/>
      <psa30 value="0.0007273954" flag="0"/>
    </comp>
    <comp name="--.HHZ">
      <acc value="0.0044008419" flag="0"/>
      <vel value="0.0019878006" flag="0"/>
      <psa03 value="0.0104270448" flag="0"/>
      <psa10 value="0.0026131792" flag="0"/>
      <psa30 value="0.0006850507" flag="0"/>
    </comp>
  </station>
  <station code="VLS" name="VLS" netid="HL" source="NOA" insttype="120P," lat="38.1768" lon="20.5886">
    <comp name="--.HHE">
      <acc value="0.0571242601" flag="0"/>
      <vel value="0.0151049553" flag="0"/>
      <psa03 value="0.0569224613" flag="0"/>
      <psa10 value="0.0130702971" flag="0"/>
      <psa30 value="0.0014392009" flag="0"/>
    </comp>
    <comp name="--.HHN">
      <acc value="0.0813280859" flag="0"/>
      <vel value="0.0199321066" flag="0"/>
      <psa03 value="0.0669719677" flag="0"/>
      <psa10 value="0.0182522843" flag="0"/>
      <psa30 value="0.0029378484" flag="0"/>
    </comp>
    <comp name="--.HHZ">
      <acc value="0.0220138333" flag="0"/>
      <vel value="0.0105581420" flag="0"/>
      <psa03 value="0.0487344647" flag="0"/>
      <psa10 value="0.0131566082" flag="0"/>
      <psa30 value="0.0034941427" flag="0"/>
    </comp>
  </station>
  <station code="AMT" name="AMT" netid="HP" source="NOA" insttype="CMG-3T," lat="37.5324" lon="21.7089">
    <comp name="00.HHE">
      <acc value="0.0081671104" flag="0"/>
      <vel value="0.0056629945" flag="0"/>
      <psa03 value="0.0218449427" flag="0"/>
      <psa10 value="0.0080288487" flag="0"/>
      <psa30 value="0.0008339539" flag="0"/>
    </comp>
    <comp name="00.HHN">
      <acc value="0.0075699556" flag="0"/>
      <vel value="0.0077658040" flag="0"/>
      <psa03 value="0.0186369444" flag="0"/>
      <psa10 value="0.0105897430" flag="0"/>
      <psa30 value="0.0007563986" flag="0"/>
    </comp>
    <comp name="00.HHZ">
      <acc value="0.0059389143" flag="0"/>
      <vel value="0.0028176478" flag="0"/>
      <psa03 value="0.0197765675" flag="0"/>
      <psa10 value="0.0035601213" flag="0"/>
      <psa30 value="0.0004103764" flag="0"/>
    </comp>
  </station>
  <station code="DRO" name="DRO" netid="HP" source="NOA" insttype="120P," lat="37.952" lon="21.71">
    <comp name="--.HHE">
      <acc value="0.0087755096" flag="0"/>
      <vel value="0.0046300937" flag="0"/>
      <psa03 value="0.0303472079" flag="0"/>
      <psa10 value="0.0066705946" flag="0"/>
      <psa30 value="0.0011631018" flag="0"/>
    </comp>
    <comp name="--.HHN">
      <acc value="0.0094024922" flag="0"/>
      <vel value="0.0046978291" flag="0"/>
      <psa03 value="0.0198865648" flag="0"/>
      <psa10 value="0.0061997748" flag="0"/>
      <psa30 value="0.0007434504" flag="0"/>
    </comp>
    <comp name="--.HHZ">
      <acc value="0.0042365522" flag="0"/>
      <vel value="0.0020869722" flag="0"/>
      <psa03 value="0.0090045427" flag="0"/>
      <psa10 value="0.0027983701" flag="0"/>
      <psa30 value="0.0009053761" flag="0"/>
    </comp>
  </station>
  <station code="FSK" name="FSK" netid="HP" source="NOA" insttype="40," lat="38.4593" lon="20.5623">
    <comp name="--.HHE">
      <acc value="0.0374403062" flag="0"/>
      <vel value="0.0141504165" flag="0"/>
      <psa03 value="0.0399548895" flag="0"/>
      <psa10 value="0.0242889607" flag="0"/>
      <psa30 value="0.0028270441" flag="0"/>
    </comp>
    <comp name="--.HHN">
      <acc value="0.0188274042" flag="0"/>
      <vel value="0.0211112731" flag="0"/>
      <psa03 value="0.0246538874" flag="0"/>
      <psa10 value="0.0359546579" flag="0"/>
      <psa30 value="0.0028924151" flag="0"/>
    </comp>
    <comp name="--.HHZ">
      <acc value="0.0126366495" flag="0"/>
      <vel value="0.0081459715" flag="0"/>
      <psa03 value="0.0204230417" flag="0"/>
      <psa10 value="0.0171839229" flag="0"/>
      <psa30 value="0.0020425441" flag="0"/>
    </comp>
  </station>
  <station code="LTHK" name="LTHK" netid="HP" source="NOA" insttype="40," lat="37.7095" lon="20.8367">
    <comp name="--.HHE">
      <acc value="0.2394558864" flag="0"/>
      <vel value="0.0548843382" flag="0"/>
      <psa03 value="0.1652863026" flag="0"/>
      <psa10 value="0.0186344994" flag="0"/>
      <psa30 value="0.0033966931" flag="0"/>
    </comp>
    <comp name="--.HHN">
      <acc value="0.2274448807" flag="0"/>
      <vel value="0.0478220307" flag="0"/>
      <psa03 value="0.1336229053" flag="0"/>
      <psa10 value="0.0248021990" flag="0"/>
      <psa30 value="0.0038215518" flag="0"/>
    </comp>
    <comp name="--.HHZ">
      <acc value="0.1073793621" flag="0"/>
      <vel value="0.0307420242" flag="0"/>
      <psa03 value="0.1260788447" flag="0"/>
      <psa10 value="0.0114220370" flag="0"/>
      <psa30 value="0.0083032564" flag="0"/>
    </comp>
  </station>
  <station code="DMLN" name="DMLN" netid="HT" source="NOA" insttype="1s-100Hz," lat="38.2385" lon="20.3734">
    <comp name="--.HHE">
      <acc value="0.0484755041" flag="0"/>
      <vel value="0.0376338832" flag="0"/>
      <psa03 value="0.0879159286" flag="0"/>
      <psa10 value="0.0496623715" flag="0"/>
      <psa30 value="0.0042794870" flag="0"/>
    </comp>
    <comp name="--.HHN">
      <acc value="0.0652058985" flag="0"/>
      <vel value="0.0489343804" flag="0"/>
      <psa03 value="0.1337037338" flag="0"/>
      <psa10 value="0.0899925333" flag="0"/>
      <psa30 value="0.0051035938" flag="0"/>
    </comp>
    <comp name="--.HHZ">
      <acc value="0.0364884419" flag="0"/>
      <vel value="0.0254543232" flag="0"/>
      <psa03 value="0.0595532212" flag="0"/>
      <psa10 value="0.0366684518" flag="0"/>
      <psa30 value="0.0031811334" flag="0"/>
    </comp>
  </station>
  <station code="DRAG" name="DRAG" netid="HT" source="NOA" insttype="1s-100Hz," lat="38.6839" lon="20.5746">
    <comp name="--.HHE">
      <acc value="0.0002463030" flag="0"/>
      <vel value="0.0001327709" flag="0"/>
      <psa03 value="0.0006220523" flag="0"/>
      <psa10 value="0.0002120789" flag="0"/>
      <psa30 value="0.0000202632" flag="0"/>
    </comp>
    <comp name="--.HHN">
      <acc value="0.0000089683" flag="0"/>
      <vel value="0.0000011204" flag="0"/>
      <psa03 value="0.0000048914" flag="0"/>
      <psa10 value="0.0000018502" flag="0"/>
      <psa30 value="0.0000003169" flag="0"/>
    </comp>
    <comp name="--.HHZ">
      <acc value="0.0001063763" flag="0"/>
      <vel value="0.0000415670" flag="0"/>
      <psa03 value="0.0002305067" flag="0"/>
      <psa10 value="0.0000768870" flag="0"/>
      <psa30 value="0.0000067214" flag="0"/>
    </comp>
  </station>
  <station code="EVGI" name="EVGI" netid="HT" source="NOA" insttype="30" lat="38.621" lon="20.656">
    <comp name="--.HHE">
      <acc value="0.0197555173" flag="0"/>
      <vel value="0.0080837289" flag="0"/>
      <psa03 value="0.0340396711" flag="0"/>
      <psa10 value="0.0084027969" flag="0"/>
      <psa30 value="0.0019864253" flag="0"/>
    </comp>
    <comp name="--.HHN">
      <acc value="nan" flag="0"/>
      <vel value="-100.0000000000" flag="0"/>
      <psa03 value="0.0000000000" flag="0"/>
      <psa10 value="0.0000000000" flag="0"/>
      <psa30 value="0.0000000000" flag="0"/>
    </comp>
    <comp name="--.HHZ">
      <acc value="0.0147226210" flag="0"/>
      <vel value="0.0069246572" flag="0"/>
      <psa03 value="0.0477535588" flag="0"/>
      <psa10 value="0.0157169862" flag="0"/>
      <psa30 value="0.0014853111" flag="0"/>
    </comp>
  </station>
  <station code="PSDA" name="PSDA" netid="HT" source="NOA" insttype="30" lat="38.114" lon="20.5841">
    <comp name="--.HHE">
      <acc value="0.1053231619" flag="0"/>
      <vel value="0.0291415565" flag="0"/>
      <psa03 value="0.0827438845" flag="0"/>
      <psa10 value="0.0213455336" flag="0"/>
      <psa30 value="0.0023764413" flag="0"/>
    </comp>
    <comp name="--.HHN">
      <acc value="0.0638833442" flag="0"/>
      <vel value="0.0216630129" flag="0"/>
      <psa03 value="0.1031210381" flag="0"/>
      <psa10 value="0.0363094645" flag="0"/>
      <psa30 value="0.0078014125" flag="0"/>
    </comp>
    <comp name="--.HHZ">
      <acc value="0.0693247873" flag="0"/>
      <vel value="0.0168075510" flag="0"/>
      <psa03 value="0.0541704893" flag="0"/>
      <psa10 value="0.0135484339" flag="0"/>
      <psa30 value="0.0039831950" flag="0"/>
    </comp>
  </station>
</stationlist>
