<?xml version="1.0" encoding="UTF-8" standalone="yes"?>
<!DOCTYPE earthquake SYSTEM "stationlist.dtd">
<stationlist created="" xmlns="ch.ethz.sed.shakemap.usgs.xml">
  <station code="ADVT" name="ADVT" netid="KO" insttype="CMG-3ESP" lat="40.4332" lon="29.7383">
    <comp name="--.HHN">
      <acc value="0.0020727140" flag="0"/>
      <vel value="0.0006266279" flag="0"/>
      <psa03 value="0.0027652029" flag="0"/>
      <psa10 value="0.0003052180" flag="0"/>
      <psa30 value="0.0000222242" flag="0"/>
    </comp>
    <comp name="--.HHE">
      <acc value="0.0223914198" flag="0"/>
      <vel value="0.0091386196" flag="0"/>
      <psa03 value="0.0553140335" flag="0"/>
      <psa10 value="0.0035385017" flag="0"/>
      <psa30 value="0.0002768326" flag="0"/>
    </comp>
    <comp name="--.HHZ">
      <acc value="0.0076192162" flag="0"/>
      <vel value="0.0033057866" flag="0"/>
      <psa03 value="0.0156094496" flag="0"/>
      <psa10 value="0.0041585286" flag="0"/>
      <psa30 value="0.0001330487" flag="0"/>
    </comp>
  </station>
  <station code="ARMT" name="ARMT" netid="KO" insttype="CMG-3ESP" lat="40.5683" lon="28.866">
    <comp name="--.HHN">
      <acc value="0.0319771688" flag="0"/>
      <vel value="0.0170286753" flag="0"/>
      <psa03 value="0.0969510592" flag="0"/>
      <psa10 value="0.0092814975" flag="0"/>
      <psa30 value="0.0005062124" flag="0"/>
    </comp>
    <comp name="--.HHZ">
      <acc value="0.0279926220" flag="0"/>
      <vel value="0.0098443920" flag="0"/>
      <psa03 value="0.0483965119" flag="0"/>
      <psa10 value="0.0031149846" flag="0"/>
      <psa30 value="0.0002830704" flag="0"/>
    </comp>
    <comp name="--.HHE">
      <acc value="0.0408506403" flag="0"/>
      <vel value="0.0120156274" flag="0"/>
      <psa03 value="0.0986538456" flag="0"/>
      <psa10 value="0.0051503069" flag="0"/>
      <psa30 value="0.0003125974" flag="0"/>
    </comp>
  </station>
  <station code="BALB" name="BALB" netid="KO" insttype="CMG-5T" lat="39.6507" lon="27.8642">
    <comp name="--.HNE">
      <acc value="0.0234025278" flag="0"/>
      <vel value="0.0085579286" flag="0"/>
      <psa03 value="0.0529327327" flag="0"/>
      <psa10 value="0.0068420721" flag="0"/>
      <psa30 value="0.0004614420" flag="0"/>
    </comp>
    <comp name="--.HNN">
      <acc value="0.0232410530" flag="0"/>
      <vel value="0.0087678131" flag="0"/>
      <psa03 value="0.0531035103" flag="0"/>
      <psa10 value="0.0074906811" flag="0"/>
      <psa30 value="0.0004828285" flag="0"/>
    </comp>
    <comp name="--.HNZ">
      <acc value="0.0194477027" flag="0"/>
      <vel value="0.0043988080" flag="0"/>
      <psa03 value="0.0262866209" flag="0"/>
      <psa10 value="0.0038724274" flag="0"/>
      <psa30 value="0.0003584787" flag="0"/>
    </comp>
  </station>
  <station code="EDC" name="EDC" netid="KO" insttype="CMG-3T" lat="40.3465" lon="27.8618">
    <comp name="--.HHN">
      <acc value="0.0352455137" flag="0"/>
      <vel value="0.0146217892" flag="0"/>
      <psa03 value="0.1019515594" flag="0"/>
      <psa10 value="0.0104587999" flag="0"/>
      <psa30 value="0.0008071643" flag="0"/>
    </comp>
    <comp name="--.HHZ">
      <acc value="0.0174720814" flag="0"/>
      <vel value="0.0066247113" flag="0"/>
      <psa03 value="0.0278027676" flag="0"/>
      <psa10 value="0.0065379777" flag="0"/>
      <psa30 value="0.0002387649" flag="0"/>
    </comp>
    <comp name="--.HHE">
      <acc value="0.0374060332" flag="0"/>
      <vel value="0.0186088621" flag="0"/>
      <psa03 value="0.0734341376" flag="0"/>
      <psa10 value="0.0159554218" flag="0"/>
      <psa30 value="0.0009137127" flag="0"/>
    </comp>
  </station>
  <station code="GEDZ" name="GEDZ" netid="KO" insttype="CMG-6T" lat="39.0445" lon="29.4105">
    <comp name="--.HHZ">
      <acc value="0.0402414347" flag="0"/>
      <vel value="0.0180931002" flag="0"/>
      <psa03 value="0.0861506285" flag="0"/>
      <psa10 value="0.0114078636" flag="0"/>
      <psa30 value="0.0007337453" flag="0"/>
    </comp>
    <comp name="--.HHE">
      <acc value="0.0993680984" flag="0"/>
      <vel value="0.0511339366" flag="0"/>
      <psa03 value="0.2921262097" flag="0"/>
      <psa10 value="0.0357931154" flag="0"/>
      <psa30 value="0.0020473581" flag="0"/>
    </comp>
    <comp name="--.HHN">
      <acc value="0.0872046830" flag="0"/>
      <vel value="0.0563291189" flag="0"/>
      <psa03 value="0.3307695256" flag="0"/>
      <psa10 value="0.0489774425" flag="0"/>
      <psa30 value="0.0029415610" flag="0"/>
    </comp>
  </station>
  <station code="GEML" name="GEML" netid="KO" insttype="CMG-3T" lat="40.4646" lon="29.2116">
    <comp name="--.HHZ">
      <acc value="0.0489947785" flag="0"/>
      <vel value="0.0090218806" flag="0"/>
      <psa03 value="0.0398784008" flag="0"/>
      <psa10 value="0.0032311057" flag="0"/>
      <psa30 value="0.0002228670" flag="0"/>
    </comp>
    <comp name="--.HHN">
      <acc value="0.0539685235" flag="0"/>
      <vel value="0.0174853824" flag="0"/>
      <psa03 value="0.1326538496" flag="0"/>
      <psa10 value="0.0052483101" flag="0"/>
      <psa30 value="0.0004902909" flag="0"/>
    </comp>
    <comp name="--.HHE">
      <acc value="0.0883779799" flag="0"/>
      <vel value="0.0242868041" flag="0"/>
      <psa03 value="0.1118719990" flag="0"/>
      <psa10 value="0.0082591156" flag="0"/>
      <psa30 value="0.0005338055" flag="0"/>
    </comp>
  </station>
  <station code="GONE" name="GONE" netid="KO" insttype="CMG-5T" lat="40.0466" lon="27.686">
    <comp name="--.HNE">
      <acc value="0.0284086300" flag="0"/>
      <vel value="0.0147167463" flag="0"/>
      <psa03 value="0.0581044145" flag="0"/>
      <psa10 value="0.0141457810" flag="0"/>
      <psa30 value="0.0005096820" flag="0"/>
    </comp>
    <comp name="--.HNN">
      <acc value="0.0251484908" flag="0"/>
      <vel value="0.0077131665" flag="0"/>
      <psa03 value="0.0428274612" flag="0"/>
      <psa10 value="0.0073708593" flag="0"/>
      <psa30 value="0.0003377218" flag="0"/>
    </comp>
    <comp name="--.HNZ">
      <acc value="0.0182040744" flag="0"/>
      <vel value="0.0044108945" flag="0"/>
      <psa03 value="0.0178041192" flag="0"/>
      <psa10 value="0.0031772362" flag="0"/>
      <psa30 value="0.0002481365" flag="0"/>
    </comp>
  </station>
  <station code="GORD" name="GORD" netid="KO" insttype="CMG-5T" lat="38.9088" lon="28.1769">
    <comp name="--.HNN">
      <acc value="0.0211199319" flag="0"/>
      <vel value="0.0121782767" flag="0"/>
      <psa03 value="0.0570104657" flag="0"/>
      <psa10 value="0.0114272143" flag="0"/>
      <psa30 value="0.0006153455" flag="0"/>
    </comp>
    <comp name="--.HNE">
      <acc value="0.0199920321" flag="0"/>
      <vel value="0.0180497398" flag="0"/>
      <psa03 value="0.0751588380" flag="0"/>
      <psa10 value="0.0160331606" flag="0"/>
      <psa30 value="0.0010972019" flag="0"/>
    </comp>
    <comp name="--.HNZ">
      <acc value="0.0125228696" flag="0"/>
      <vel value="0.0085048930" flag="0"/>
      <psa03 value="0.0339180326" flag="0"/>
      <psa10 value="0.0053544017" flag="0"/>
      <psa30 value="0.0003843821" flag="0"/>
    </comp>
  </station>
  <station code="HYBA" name="HYBA" netid="KO" insttype="CMG-5T" lat="40.8754" lon="29.0854">
    <comp name="--.HNE">
      <acc value="0.0169131086" flag="0"/>
      <vel value="0.0099532712" flag="0"/>
      <psa03 value="0.0304429602" flag="0"/>
      <psa10 value="0.0057765774" flag="0"/>
      <psa30 value="0.0004890380" flag="0"/>
    </comp>
    <comp name="--.HNN">
      <acc value="0.0268898983" flag="0"/>
      <vel value="0.0137684265" flag="0"/>
      <psa03 value="0.0543248230" flag="0"/>
      <psa10 value="0.0078423158" flag="0"/>
      <psa30 value="0.0007806785" flag="0"/>
    </comp>
    <comp name="--.HNZ">
      <acc value="0.0177563881" flag="0"/>
      <vel value="0.0055652203" flag="0"/>
      <psa03 value="0.0236162697" flag="0"/>
      <psa10 value="0.0024151691" flag="0"/>
      <psa30 value="0.0003287589" flag="0"/>
    </comp>
  </station>
  <station code="KCTX" name="KCTX" netid="KO" insttype="CMG-3ESP" lat="40.2626" lon="28.3353">
    <comp name="--.HHE">
      <acc value="0.0445263722" flag="0"/>
      <vel value="0.0099264282" flag="0"/>
      <psa03 value="0.0723025146" flag="0"/>
      <psa10 value="0.0043133039" flag="0"/>
      <psa30 value="0.0004198949" flag="0"/>
    </comp>
    <comp name="--.HHZ">
      <acc value="0.0443676073" flag="0"/>
      <vel value="0.0098474390" flag="0"/>
      <psa03 value="0.0399734516" flag="0"/>
      <psa10 value="0.0079879235" flag="0"/>
      <psa30 value="0.0004636819" flag="0"/>
    </comp>
    <comp name="--.HHN">
      <acc value="0.0448312444" flag="0"/>
      <vel value="0.0146733327" flag="0"/>
      <psa03 value="0.0910953833" flag="0"/>
      <psa10 value="0.0054457676" flag="0"/>
      <psa30 value="0.0006606405" flag="0"/>
    </comp>
  </station>
  <station code="KOUK" name="KOUK" netid="KO" insttype="CMG-5T" lat="40.6572" lon="29.1918">
    <comp name="--.HNZ">
      <acc value="0.0233996414" flag="0"/>
      <vel value="0.0110126975" flag="0"/>
      <psa03 value="0.0727915473" flag="0"/>
      <psa10 value="0.0184569042" flag="0"/>
      <psa30 value="0.0009303284" flag="0"/>
    </comp>
    <comp name="--.HNE">
      <acc value="0.0543204990" flag="0"/>
      <vel value="0.0326552677" flag="0"/>
      <psa03 value="0.0942435535" flag="0"/>
      <psa10 value="0.0287447813" flag="0"/>
      <psa30 value="0.0021947616" flag="0"/>
    </comp>
  </station>
  <station code="MDNY" name="MDNY" netid="KO" insttype="CMG-3ESP" lat="40.3709" lon="28.8846">
    <comp name="--.HHE">
      <acc value="0.1126475512" flag="0"/>
      <vel value="0.0315998655" flag="0"/>
      <psa03 value="0.2094634654" flag="0"/>
      <psa10 value="0.0091879834" flag="0"/>
      <psa30 value="0.0007639608" flag="0"/>
    </comp>
  </station>
  <station code="SHAP" name="SHAP" netid="KO" insttype="CMG-5T" lat="39.0231" lon="29.222">
    <comp name="--.HNE">
      <acc value="0.0869321746" flag="0"/>
      <vel value="0.0347166874" flag="0"/>
      <psa03 value="0.3014166954" flag="0"/>
      <psa10 value="0.0126260533" flag="0"/>
      <psa30 value="0.0008837698" flag="0"/>
    </comp>
    <comp name="--.HNN">
      <acc value="0.1078875220" flag="0"/>
      <vel value="0.0386090505" flag="0"/>
      <psa03 value="0.2341135812" flag="0"/>
      <psa10 value="0.0159764463" flag="0"/>
      <psa30 value="0.0012394876" flag="0"/>
    </comp>
  </station>
  <station code="SMAA" name="SMAA" netid="KO" insttype="CMG-5T" lat="39.1005" lon="28.9805">
    <comp name="--.HNE">
      <acc value="0.0602700935" flag="0"/>
      <vel value="0.0235674221" flag="0"/>
      <psa03 value="0.1640846649" flag="0"/>
      <psa10 value="0.0334904529" flag="0"/>
      <psa30 value="0.0013343208" flag="0"/>
    </comp>
    <comp name="--.HNZ">
      <acc value="0.0458198035" flag="0"/>
      <vel value="0.0131850261" flag="0"/>
      <psa03 value="0.0457892481" flag="0"/>
      <psa10 value="0.0107053010" flag="0"/>
      <psa30 value="0.0004992121" flag="0"/>
    </comp>
    <comp name="--.HNN">
      <acc value="0.0612938269" flag="0"/>
      <vel value="0.0266639252" flag="0"/>
      <psa03 value="0.1746810390" flag="0"/>
      <psa10 value="0.0300290862" flag="0"/>
      <psa30 value="0.0011410375" flag="0"/>
    </comp>
  </station>
  <station code="SUSR" name="SUSR" netid="KO" insttype="CMG-5T" lat="39.9627" lon="28.0835">
    <comp name="--.HNE">
      <acc value="0.1075406988" flag="0"/>
      <vel value="0.0247062142" flag="0"/>
      <psa03 value="0.0922390143" flag="0"/>
      <psa10 value="0.0060247647" flag="0"/>
      <psa30 value="0.0005222239" flag="0"/>
    </comp>
    <comp name="--.HNZ">
      <acc value="0.0645838086" flag="0"/>
      <vel value="0.0135255440" flag="0"/>
      <psa03 value="0.0547889460" flag="0"/>
      <psa10 value="0.0052507451" flag="0"/>
      <psa30 value="0.0003228550" flag="0"/>
    </comp>
    <comp name="--.HNN">
      <acc value="0.0884756042" flag="0"/>
      <vel value="0.0173695423" flag="0"/>
      <psa03 value="0.1010067550" flag="0"/>
      <psa10 value="0.0068640824" flag="0"/>
      <psa30 value="0.0006156788" flag="0"/>
    </comp>
  </station>
  <station code="TVSB" name="TVSB" netid="KO" insttype="CMG-3T" lat="39.4497" lon="29.4615">
    <comp name="--.HHN">
      <acc value="0.0442111684" flag="0"/>
      <vel value="0.0131138098" flag="0"/>
      <psa03 value="0.0541247032" flag="0"/>
      <psa10 value="0.0044657464" flag="0"/>
      <psa30 value="0.0006428473" flag="0"/>
    </comp>
    <comp name="--.HHZ">
      <acc value="0.0316564714" flag="0"/>
      <vel value="0.0066492971" flag="0"/>
      <psa03 value="0.0287383567" flag="0"/>
      <psa10 value="0.0047944379" flag="0"/>
      <psa30 value="0.0002186026" flag="0"/>
    </comp>
    <comp name="--.HHE">
      <acc value="0.0426032033" flag="0"/>
      <vel value="0.0136466269" flag="0"/>
      <psa03 value="0.0527586487" flag="0"/>
      <psa10 value="0.0046809927" flag="0"/>
      <psa30 value="0.0003644450" flag="0"/>
    </comp>
  </station>
  <station code="YLV" name="YLV" netid="KO" insttype="CMG-3ESPC" lat="40.5658" lon="29.3708">
    <comp name="--.HHE">
      <acc value="0.0619409828" flag="0"/>
      <vel value="0.0198014139" flag="0"/>
      <psa03 value="0.0836793247" flag="0"/>
      <psa10 value="0.0178840217" flag="0"/>
      <psa30 value="0.0009011270" flag="0"/>
    </comp>
    <comp name="--.HHZ">
      <acc value="0.0210983592" flag="0"/>
      <vel value="0.0072876850" flag="0"/>
      <psa03 value="0.0464626256" flag="0"/>
      <psa10 value="0.0035572241" flag="0"/>
      <psa30 value="0.0001687451" flag="0"/>
    </comp>
    <comp name="--.HHN">
      <acc value="0.0347815539" flag="0"/>
      <vel value="0.0129674689" flag="0"/>
      <psa03 value="0.0750217711" flag="0"/>
      <psa10 value="0.0055272291" flag="0"/>
      <psa30 value="0.0004941248" flag="0"/>
    </comp>
  </station>
</stationlist>
