<?xml version="1.0" encoding="UTF-8" standalone="yes"?>
<!DOCTYPE earthquake SYSTEM "stationlist.dtd">
<stationlist created="" xmlns="ch.ethz.sed.shakemap.usgs.xml">
  <station code="GAZ" name="GAZ" netid="KO" insttype="CMG-3T" lat="37.1721" lon="37.2096">
    <comp name="--.HHN">
      <acc value="0.0343033572" flag="0"/>
      <vel value="0.0130582154" flag="0"/>
      <psa03 value="0.0772201250" flag="0"/>
      <psa10 value="0.0191224787" flag="0"/>
      <psa30 value="0.0019245895" flag="0"/>
    </comp>
    <comp name="--.HHE">
      <acc value="0.0322102249" flag="0"/>
      <vel value="0.0172148407" flag="0"/>
      <psa03 value="0.0683258143" flag="0"/>
      <psa10 value="0.0198985546" flag="0"/>
      <psa30 value="0.0036385051" flag="0"/>
    </comp>
    <comp name="--.HHZ">
      <acc value="0.0379255784" flag="0"/>
      <vel value="0.0181531255" flag="0"/>
      <psa03 value="0.0888562146" flag="0"/>
      <psa10 value="0.0133897180" flag="0"/>
      <psa30 value="0.0021317107" flag="0"/>
    </comp>
  </station>
</stationlist>
