<?xml version="1.0" encoding="UTF-8" standalone="yes"?>
<!DOCTYPE earthquake SYSTEM "stationlist.dtd">
<stationlist created="" xmlns="ch.ethz.sed.shakemap.usgs.xml">
  <station code="SNT5" name="SNT5" netid="HA" insttype="1s-100Hz," lat="36.4037" lon="25.3953">
    <comp name="--.HHE">
      <acc value="0.0622322409" flag="0"/>
      <vel value="0.0202871130" flag="0"/>
      <psa03 value="0.0981846128" flag="0"/>
      <psa10 value="0.0115659012" flag="0"/>
      <psa30 value="0.0049025504" flag="0"/>
    </comp>
    <comp name="--.HHZ">
      <acc value="0.0245661007" flag="0"/>
      <vel value="0.0066013820" flag="0"/>
      <psa03 value="0.0314387377" flag="0"/>
      <psa10 value="0.0071042669" flag="0"/>
      <psa30 value="0.0007523569" flag="0"/>
    </comp>
    <comp name="--.HHN">
      <acc value="0.0482528175" flag="0"/>
      <vel value="0.0153166201" flag="0"/>
      <psa03 value="0.0986057248" flag="0"/>
      <psa10 value="0.0132682148" flag="0"/>
      <psa30 value="0.0024253632" flag="0"/>
    </comp>
  </station>
  <station code="IMOD" name="IMOD" netid="HC" insttype="120" lat="34.9731" lon="24.7995">
    <comp name="--.HHN">
      <acc value="0.0264021068" flag="0"/>
      <vel value="0.0146451447" flag="0"/>
      <psa03 value="0.0868639758" flag="0"/>
      <psa10 value="0.0143930624" flag="0"/>
      <psa30 value="0.0011799930" flag="0"/>
    </comp>
    <comp name="--.HHZ">
      <acc value="0.0169750779" flag="0"/>
      <vel value="0.0097391903" flag="0"/>
      <psa03 value="0.0341499339" flag="0"/>
      <psa10 value="0.0070107703" flag="0"/>
      <psa30 value="0.0004487036" flag="0"/>
    </comp>
    <comp name="--.HHE">
      <acc value="0.0234191055" flag="0"/>
      <vel value="0.0154598308" flag="0"/>
      <psa03 value="0.0687489639" flag="0"/>
      <psa10 value="0.0097154033" flag="0"/>
      <psa30 value="0.0011937372" flag="0"/>
    </comp>
  </station>
  <station code="IPPL" name="IPPL" netid="HC" insttype="60" lat="35.3486" lon="24.4632">
    <comp name="--.HHE">
      <acc value="0.0392215761" flag="0"/>
      <vel value="0.0189685661" flag="0"/>
      <psa03 value="0.1258030625" flag="0"/>
      <psa10 value="0.0160959287" flag="0"/>
      <psa30 value="0.0011998682" flag="0"/>
    </comp>
    <comp name="--.HHZ">
      <acc value="0.0207163044" flag="0"/>
      <vel value="0.0099184000" flag="0"/>
      <psa03 value="0.0700747593" flag="0"/>
      <psa10 value="0.0085056515" flag="0"/>
      <psa30 value="0.0006365863" flag="0"/>
    </comp>
    <comp name="--.HHN">
      <acc value="0.0272782899" flag="0"/>
      <vel value="0.0171939036" flag="0"/>
      <psa03 value="0.0755505456" flag="0"/>
      <psa10 value="0.0230545284" flag="0"/>
      <psa30 value="0.0015798229" flag="0"/>
    </comp>
  </station>
  <station code="KNSS" name="KNSS" netid="HC" insttype="60" lat="35.3042" lon="25.1802">
    <comp name="--.HHZ">
      <acc value="0.0695405171" flag="0"/>
      <vel value="0.0171716792" flag="0"/>
      <psa03 value="0.1061517643" flag="0"/>
      <psa10 value="0.0124268273" flag="0"/>
      <psa30 value="0.0010938399" flag="0"/>
    </comp>
    <comp name="--.HHE">
      <acc value="0.0571739913" flag="0"/>
      <vel value="0.0221314313" flag="0"/>
      <psa03 value="0.1455948079" flag="0"/>
      <psa10 value="0.0192248702" flag="0"/>
      <psa30 value="0.0014490949" flag="0"/>
    </comp>
    <comp name="--.HHN">
      <acc value="0.0528111376" flag="0"/>
      <vel value="0.0222060991" flag="0"/>
      <psa03 value="0.1504404481" flag="0"/>
      <psa10 value="0.0152382542" flag="0"/>
      <psa30 value="0.0036529842" flag="0"/>
    </comp>
  </station>
  <station code="PFKS" name="PFKS" netid="HC" insttype="120" lat="35.0429" lon="25.4733">
    <comp name="--.HHZ">
      <acc value="0.0400792675" flag="0"/>
      <vel value="0.0174872842" flag="0"/>
      <psa03 value="0.0529344356" flag="0"/>
      <psa10 value="0.0159763657" flag="0"/>
      <psa30 value="0.0014457922" flag="0"/>
    </comp>
    <comp name="--.HHE">
      <acc value="0.0662536334" flag="0"/>
      <vel value="0.0213077608" flag="0"/>
      <psa03 value="0.1255685478" flag="0"/>
      <psa10 value="0.0199182021" flag="0"/>
      <psa30 value="0.0024755391" flag="0"/>
    </comp>
    <comp name="--.HHN">
      <acc value="0.0740577151" flag="0"/>
      <vel value="0.0259200373" flag="0"/>
      <psa03 value="0.1037398882" flag="0"/>
      <psa10 value="0.0164179791" flag="0"/>
      <psa30 value="0.0013819610" flag="0"/>
    </comp>
  </station>
  <station code="STIA" name="STIA" netid="HC" insttype="120" lat="35.2021" lon="26.0909">
    <comp name="--.HHN">
      <acc value="0.0510141983" flag="0"/>
      <vel value="0.0318363921" flag="0"/>
      <psa03 value="0.0888718028" flag="0"/>
      <psa10 value="0.0349710387" flag="0"/>
      <psa30 value="0.0036012706" flag="0"/>
    </comp>
    <comp name="--.HHZ">
      <acc value="0.0541684295" flag="0"/>
      <vel value="0.0155996576" flag="0"/>
      <psa03 value="0.0701423541" flag="0"/>
      <psa10 value="0.0138622634" flag="0"/>
      <psa30 value="0.0015890399" flag="0"/>
    </comp>
    <comp name="--.HHE">
      <acc value="0.0543210138" flag="0"/>
      <vel value="0.0264771851" flag="0"/>
      <psa03 value="0.0946478938" flag="0"/>
      <psa10 value="0.0372278217" flag="0"/>
      <psa30 value="0.0035454349" flag="0"/>
    </comp>
  </station>
  <station code="TEFL" name="TEFL" netid="HC" insttype="GEOtiny," lat="35.0933" lon="25.1634">
    <comp name="--.HHE">
      <acc value="0.2040624956" flag="0"/>
      <vel value="0.0450096708" flag="0"/>
      <psa03 value="0.2479900725" flag="0"/>
      <psa10 value="0.0326546217" flag="0"/>
      <psa30 value="0.0035624357" flag="0"/>
    </comp>
    <comp name="--.HHZ">
      <acc value="0.0839363481" flag="0"/>
      <vel value="0.0315528922" flag="0"/>
      <psa03 value="0.1322269225" flag="0"/>
      <psa10 value="0.0164484222" flag="0"/>
      <psa30 value="0.0015744221" flag="0"/>
    </comp>
    <comp name="--.HHN">
      <acc value="0.1144029425" flag="0"/>
      <vel value="0.0387025664" flag="0"/>
      <psa03 value="0.2977745640" flag="0"/>
      <psa10 value="0.0329449217" flag="0"/>
      <psa30 value="0.0034025951" flag="0"/>
    </comp>
  </station>
  <station code="IACM" name="IACM" netid="HL" insttype="120" lat="35.3058" lon="25.0709">
    <comp name="--.HHE">
      <acc value="0.1509648999" flag="0"/>
      <vel value="0.0865850394" flag="0"/>
      <psa03 value="0.3702593187" flag="0"/>
      <psa10 value="0.1167405811" flag="0"/>
      <psa30 value="0.0046541550" flag="0"/>
    </comp>
    <comp name="--.HHN">
      <acc value="0.1732623724" flag="0"/>
      <vel value="0.0704283828" flag="0"/>
      <psa03 value="0.5496355997" flag="0"/>
      <psa10 value="0.0848428514" flag="0"/>
      <psa30 value="0.0050669919" flag="0"/>
    </comp>
    <comp name="--.HHZ">
      <acc value="0.1517107007" flag="0"/>
      <vel value="0.0478552581" flag="0"/>
      <psa03 value="0.1839048279" flag="0"/>
      <psa10 value="0.0357972886" flag="0"/>
      <psa30 value="0.0018646968" flag="0"/>
    </comp>
  </station>
  <station code="KSTE" name="KSTE" netid="HL" insttype="60" lat="35.1801" lon="25.3372">
    <comp name="--.HHN">
      <acc value="0.0509516549" flag="0"/>
      <vel value="0.0192950296" flag="0"/>
      <psa03 value="0.0832482306" flag="0"/>
      <psa10 value="0.0171563680" flag="0"/>
      <psa30 value="0.0019943810" flag="0"/>
    </comp>
    <comp name="--.HHE">
      <acc value="0.0286058195" flag="0"/>
      <vel value="0.0124372908" flag="0"/>
      <psa03 value="0.0417605437" flag="0"/>
      <psa10 value="0.0128520210" flag="0"/>
      <psa30 value="0.0019917967" flag="0"/>
    </comp>
    <comp name="--.HHZ">
      <acc value="0.0416645906" flag="0"/>
      <vel value="0.0153110535" flag="0"/>
      <psa03 value="0.0720962987" flag="0"/>
      <psa10 value="0.0155716105" flag="0"/>
      <psa30 value="0.0019030785" flag="0"/>
    </comp>
  </station>
  <station code="NPS" name="NPS" netid="HL" insttype="CMG3ESPC-120s" lat="35.2613" lon="25.6104">
    <comp name="--.HHE">
      <acc value="0.0389682193" flag="0"/>
      <vel value="0.0161552167" flag="0"/>
      <psa03 value="0.1034095759" flag="0"/>
      <psa10 value="0.0237828660" flag="0"/>
      <psa30 value="0.0022452429" flag="0"/>
    </comp>
    <comp name="--.HHN">
      <acc value="0.1048427875" flag="0"/>
      <vel value="0.0291681877" flag="0"/>
      <psa03 value="0.1224543765" flag="0"/>
      <psa10 value="0.0487979788" flag="0"/>
      <psa30 value="0.0021572415" flag="0"/>
    </comp>
    <comp name="--.HHZ">
      <acc value="0.0927485735" flag="0"/>
      <vel value="0.0243356805" flag="0"/>
      <psa03 value="0.1134830353" flag="0"/>
      <psa10 value="0.0302509178" flag="0"/>
      <psa30 value="0.0030775723" flag="0"/>
    </comp>
  </station>
  <station code="SAP3" name="SAP3" netid="HL" insttype="LE3D20_SMART24" lat="36.4356" lon="25.3454">
    <comp name="--.HHZ">
      <acc value="0.0836210077" flag="0"/>
      <vel value="0.0244115822" flag="0"/>
      <psa03 value="0.1080353939" flag="0"/>
      <psa10 value="0.0160690907" flag="0"/>
      <psa30 value="0.0022138604" flag="0"/>
    </comp>
    <comp name="--.HHE">
      <acc value="0.0599754542" flag="0"/>
      <vel value="0.0482387952" flag="0"/>
      <psa03 value="0.1926883319" flag="0"/>
      <psa10 value="0.0457235116" flag="0"/>
      <psa30 value="0.0064032327" flag="0"/>
    </comp>
    <comp name="--.HHN">
      <acc value="0.0602895502" flag="0"/>
      <vel value="0.0316326502" flag="0"/>
      <psa03 value="0.2292566003" flag="0"/>
      <psa10 value="0.0329340482" flag="0"/>
      <psa30 value="0.0058322873" flag="0"/>
    </comp>
  </station>
  <station code="SIVA" name="SIVA" netid="HL" insttype="60" lat="35.0178" lon="24.812">
    <comp name="--.HHE">
      <acc value="0.0413746353" flag="0"/>
      <vel value="0.0281175645" flag="0"/>
      <psa03 value="0.0686016651" flag="0"/>
      <psa10 value="0.0236226775" flag="0"/>
      <psa30 value="0.0015742147" flag="0"/>
    </comp>
    <comp name="--.HHZ">
      <acc value="0.0157898386" flag="0"/>
      <vel value="0.0109866017" flag="0"/>
      <psa03 value="0.0525341109" flag="0"/>
      <psa10 value="0.0082640889" flag="0"/>
      <psa30 value="0.0006709485" flag="0"/>
    </comp>
    <comp name="--.HHN">
      <acc value="0.0249780153" flag="0"/>
      <vel value="0.0181177620" flag="0"/>
      <psa03 value="0.0846859409" flag="0"/>
      <psa10 value="0.0151686710" flag="0"/>
      <psa30 value="0.0010922117" flag="0"/>
    </comp>
  </station>
  <station code="THERA" name="THERA" netid="HL" insttype="120" lat="36.367" lon="25.4753">
    <comp name="--.HHZ">
      <acc value="0.0208796938" flag="0"/>
      <vel value="0.0074421695" flag="0"/>
      <psa03 value="0.0366475567" flag="0"/>
      <psa10 value="0.0067626854" flag="0"/>
      <psa30 value="0.0005692472" flag="0"/>
    </comp>
    <comp name="--.HHE">
      <acc value="0.0216151629" flag="0"/>
      <vel value="0.0083614841" flag="0"/>
      <psa03 value="0.0547713498" flag="0"/>
      <psa10 value="0.0066898740" flag="0"/>
      <psa30 value="0.0009564682" flag="0"/>
    </comp>
    <comp name="--.HHN">
      <acc value="0.0135793767" flag="0"/>
      <vel value="0.0051189101" flag="0"/>
      <psa03 value="0.0186433731" flag="0"/>
      <psa10 value="0.0056082676" flag="0"/>
      <psa30 value="0.0004709000" flag="0"/>
    </comp>
  </station>
  <station code="ZKR" name="ZKR" netid="HL" insttype="120" lat="35.1147" lon="26.2169">
    <comp name="--.HHZ">
      <acc value="0.0247907257" flag="0"/>
      <vel value="0.0084655500" flag="0"/>
      <psa03 value="0.0293851373" flag="0"/>
      <psa10 value="0.0207931635" flag="0"/>
      <psa30 value="0.0014117228" flag="0"/>
    </comp>
    <comp name="--.HHE">
      <acc value="0.0361900207" flag="0"/>
      <vel value="0.0173009604" flag="0"/>
      <psa03 value="0.0610642821" flag="0"/>
      <psa10 value="0.0289407450" flag="0"/>
      <psa30 value="0.0026889393" flag="0"/>
    </comp>
    <comp name="--.HHN">
      <acc value="0.0150611625" flag="0"/>
      <vel value="0.0076103533" flag="0"/>
      <psa03 value="0.0335243863" flag="0"/>
      <psa10 value="0.0135360740" flag="0"/>
      <psa30 value="0.0007205580" flag="0"/>
    </comp>
  </station>
  <station code="CMBO" name="CMBO" netid="HT" insttype="120P," lat="36.4709" lon="25.4056">
    <comp name="--.HHE">
      <acc value="0.0538633382" flag="0"/>
      <vel value="0.0276168742" flag="0"/>
      <psa03 value="0.1470802215" flag="0"/>
      <psa10 value="0.0375623596" flag="0"/>
      <psa30 value="0.0030183998" flag="0"/>
    </comp>
    <comp name="--.HHN">
      <acc value="0.0551922843" flag="0"/>
      <vel value="0.0243790964" flag="0"/>
      <psa03 value="0.1446775640" flag="0"/>
      <psa10 value="0.0308157319" flag="0"/>
      <psa30 value="0.0026237937" flag="0"/>
    </comp>
    <comp name="--.HHZ">
      <acc value="0.0677177580" flag="0"/>
      <vel value="0.0221966239" flag="0"/>
      <psa03 value="0.1990413624" flag="0"/>
      <psa10 value="0.0098194212" flag="0"/>
      <psa30 value="0.0025245177" flag="0"/>
    </comp>
  </station>
</stationlist>
