<?xml version="1.0" encoding="UTF-8" standalone="yes"?>
<!DOCTYPE earthquake SYSTEM "stationlist.dtd">
<stationlist created="" xmlns="ch.ethz.sed.shakemap.usgs.xml">
  <station code="SNT5" name="SNT5" netid="HA" insttype="1s-100Hz," lat="36.4037" lon="25.3953">
    <comp name="--.HHE">
      <acc value="0.0622322412" flag="0"/>
      <vel value="0.0202870827" flag="0"/>
      <psa03 value="0.0981846129" flag="0"/>
      <psa10 value="0.0115659013" flag="0"/>
      <psa30 value="0.0049025211" flag="0"/>
    </comp>
    <comp name="--.HHZ">
      <acc value="0.0245660997" flag="0"/>
      <vel value="0.0066016544" flag="0"/>
      <psa03 value="0.0314387385" flag="0"/>
      <psa10 value="0.0071042677" flag="0"/>
      <psa30 value="0.0007524294" flag="0"/>
    </comp>
    <comp name="--.HHN">
      <acc value="0.0482528170" flag="0"/>
      <vel value="0.0153168329" flag="0"/>
      <psa03 value="0.0986057243" flag="0"/>
      <psa10 value="0.0132682152" flag="0"/>
      <psa30 value="0.0024253741" flag="0"/>
    </comp>
  </station>
  <station code="IMOD" name="IMOD" netid="HC" insttype="120" lat="34.9731" lon="24.7995">
    <comp name="--.HHN">
      <acc value="0.0264021068" flag="0"/>
      <vel value="0.0146451450" flag="0"/>
      <psa03 value="0.0868639758" flag="0"/>
      <psa10 value="0.0143930624" flag="0"/>
      <psa30 value="0.0011799967" flag="0"/>
    </comp>
    <comp name="--.HHZ">
      <acc value="0.0169750779" flag="0"/>
      <vel value="0.0097391898" flag="0"/>
      <psa03 value="0.0341499339" flag="0"/>
      <psa10 value="0.0070107703" flag="0"/>
      <psa30 value="0.0004487116" flag="0"/>
    </comp>
    <comp name="--.HHE">
      <acc value="0.0234191055" flag="0"/>
      <vel value="0.0154598312" flag="0"/>
      <psa03 value="0.0687489639" flag="0"/>
      <psa10 value="0.0097154034" flag="0"/>
      <psa30 value="0.0011937424" flag="0"/>
    </comp>
  </station>
  <station code="IPPL" name="IPPL" netid="HC" insttype="60" lat="35.3486" lon="24.4632">
    <comp name="--.HHZ">
      <acc value="0.0207163042" flag="0"/>
      <vel value="0.0099183984" flag="0"/>
      <psa03 value="0.0700747593" flag="0"/>
      <psa10 value="0.0085056515" flag="0"/>
      <psa30 value="0.0006365914" flag="0"/>
    </comp>
    <comp name="--.HHE">
      <acc value="0.0392215761" flag="0"/>
      <vel value="0.0189685638" flag="0"/>
      <psa03 value="0.1258030625" flag="0"/>
      <psa10 value="0.0160959287" flag="0"/>
      <psa30 value="0.0011998723" flag="0"/>
    </comp>
    <comp name="--.HHN">
      <acc value="0.0272782898" flag="0"/>
      <vel value="0.0171939062" flag="0"/>
      <psa03 value="0.0755505456" flag="0"/>
      <psa10 value="0.0230545284" flag="0"/>
      <psa30 value="0.0015798109" flag="0"/>
    </comp>
  </station>
  <station code="KNSS" name="KNSS" netid="HC" insttype="60" lat="35.3042" lon="25.1802">
    <comp name="--.HHZ">
      <acc value="0.0695405171" flag="0"/>
      <vel value="0.0171716785" flag="0"/>
      <psa03 value="0.1061517643" flag="0"/>
      <psa10 value="0.0124268273" flag="0"/>
      <psa30 value="0.0010938398" flag="0"/>
    </comp>
    <comp name="--.HHE">
      <acc value="0.0571739913" flag="0"/>
      <vel value="0.0221314311" flag="0"/>
      <psa03 value="0.1455948079" flag="0"/>
      <psa10 value="0.0192248697" flag="0"/>
      <psa30 value="0.0014490966" flag="0"/>
    </comp>
    <comp name="--.HHN">
      <acc value="0.0528111376" flag="0"/>
      <vel value="0.0222060990" flag="0"/>
      <psa03 value="0.1504404481" flag="0"/>
      <psa10 value="0.0152382541" flag="0"/>
      <psa30 value="0.0036529663" flag="0"/>
    </comp>
  </station>
  <station code="PFKS" name="PFKS" netid="HC" insttype="120" lat="35.0429" lon="25.4733">
    <comp name="--.HHZ">
      <acc value="0.0400792675" flag="0"/>
      <vel value="0.0174872845" flag="0"/>
      <psa03 value="0.0529344356" flag="0"/>
      <psa10 value="0.0159763656" flag="0"/>
      <psa30 value="0.0014457875" flag="0"/>
    </comp>
    <comp name="--.HHN">
      <acc value="0.0740577150" flag="0"/>
      <vel value="0.0259200370" flag="0"/>
      <psa03 value="0.1037398882" flag="0"/>
      <psa10 value="0.0164179790" flag="0"/>
      <psa30 value="0.0013819668" flag="0"/>
    </comp>
    <comp name="--.HHE">
      <acc value="0.0662536335" flag="0"/>
      <vel value="0.0213077612" flag="0"/>
      <psa03 value="0.1255685478" flag="0"/>
      <psa10 value="0.0199182020" flag="0"/>
      <psa30 value="0.0024755336" flag="0"/>
    </comp>
  </station>
  <station code="STIA" name="STIA" netid="HC" insttype="120" lat="35.2021" lon="26.0909">
    <comp name="--.HHN">
      <acc value="0.0510141982" flag="0"/>
      <vel value="0.0318363917" flag="0"/>
      <psa03 value="0.0888718028" flag="0"/>
      <psa10 value="0.0349710374" flag="0"/>
      <psa30 value="0.0036013434" flag="0"/>
    </comp>
    <comp name="--.HHE">
      <acc value="0.0543210137" flag="0"/>
      <vel value="0.0264771847" flag="0"/>
      <psa03 value="0.0946478938" flag="0"/>
      <psa10 value="0.0372278217" flag="0"/>
      <psa30 value="0.0035454337" flag="0"/>
    </comp>
    <comp name="--.HHZ">
      <acc value="0.0541684295" flag="0"/>
      <vel value="0.0155996583" flag="0"/>
      <psa03 value="0.0701423541" flag="0"/>
      <psa10 value="0.0138622633" flag="0"/>
      <psa30 value="0.0015890502" flag="0"/>
    </comp>
  </station>
  <station code="TEFL" name="TEFL" netid="HC" insttype="GEOtiny," lat="35.0933" lon="25.1634">
    <comp name="--.HHE">
      <acc value="0.2040624966" flag="0"/>
      <vel value="0.0450094219" flag="0"/>
      <psa03 value="0.2479900728" flag="0"/>
      <psa10 value="0.0326546215" flag="0"/>
      <psa30 value="0.0035624465" flag="0"/>
    </comp>
    <comp name="--.HHN">
      <acc value="0.1144029424" flag="0"/>
      <vel value="0.0387034514" flag="0"/>
      <psa03 value="0.2977745627" flag="0"/>
      <psa10 value="0.0329449206" flag="0"/>
      <psa30 value="0.0034025647" flag="0"/>
    </comp>
    <comp name="--.HHZ">
      <acc value="0.0839363465" flag="0"/>
      <vel value="0.0315526836" flag="0"/>
      <psa03 value="0.1322269224" flag="0"/>
      <psa10 value="0.0164484220" flag="0"/>
      <psa30 value="0.0015743945" flag="0"/>
    </comp>
  </station>
  <station code="IACM" name="IACM" netid="HL" insttype="120" lat="35.3058" lon="25.0709">
    <comp name="--.HHE">
      <acc value="0.1509648998" flag="0"/>
      <vel value="0.0865850366" flag="0"/>
      <psa03 value="0.3702593187" flag="0"/>
      <psa10 value="0.1167405808" flag="0"/>
      <psa30 value="0.0046541453" flag="0"/>
    </comp>
    <comp name="--.HHN">
      <acc value="0.1732623724" flag="0"/>
      <vel value="0.0704283828" flag="0"/>
      <psa03 value="0.5496355997" flag="0"/>
      <psa10 value="0.0848428514" flag="0"/>
      <psa30 value="0.0050670047" flag="0"/>
    </comp>
    <comp name="--.HHZ">
      <acc value="0.1517107008" flag="0"/>
      <vel value="0.0478552522" flag="0"/>
      <psa03 value="0.1839048279" flag="0"/>
      <psa10 value="0.0357972886" flag="0"/>
      <psa30 value="0.0018647138" flag="0"/>
    </comp>
  </station>
  <station code="KSTE" name="KSTE" netid="HL" insttype="60" lat="35.1801" lon="25.3372">
    <comp name="--.HHZ">
      <acc value="0.0416645907" flag="0"/>
      <vel value="0.0153110535" flag="0"/>
      <psa03 value="0.0720962987" flag="0"/>
      <psa10 value="0.0155716105" flag="0"/>
      <psa30 value="0.0019030747" flag="0"/>
    </comp>
    <comp name="--.HHN">
      <acc value="0.0509516552" flag="0"/>
      <vel value="0.0192950280" flag="0"/>
      <psa03 value="0.0832482306" flag="0"/>
      <psa10 value="0.0171564096" flag="0"/>
      <psa30 value="0.0019962885" flag="0"/>
    </comp>
    <comp name="--.HHE">
      <acc value="0.0286058195" flag="0"/>
      <vel value="0.0124372908" flag="0"/>
      <psa03 value="0.0417605437" flag="0"/>
      <psa10 value="0.0128520210" flag="0"/>
      <psa30 value="0.0019917744" flag="0"/>
    </comp>
  </station>
  <station code="NPS" name="NPS" netid="HL" insttype="CMG3ESPC-120s" lat="35.2613" lon="25.6104">
    <comp name="--.HHZ">
      <acc value="0.0927485736" flag="0"/>
      <vel value="0.0243356803" flag="0"/>
      <psa03 value="0.1134830353" flag="0"/>
      <psa10 value="0.0302509178" flag="0"/>
      <psa30 value="0.0030775727" flag="0"/>
    </comp>
    <comp name="--.HHN">
      <acc value="0.1048427874" flag="0"/>
      <vel value="0.0291681876" flag="0"/>
      <psa03 value="0.1224543765" flag="0"/>
      <psa10 value="0.0487979788" flag="0"/>
      <psa30 value="0.0021572172" flag="0"/>
    </comp>
    <comp name="--.HHE">
      <acc value="0.0389682192" flag="0"/>
      <vel value="0.0161552169" flag="0"/>
      <psa03 value="0.1034095759" flag="0"/>
      <psa10 value="0.0237828660" flag="0"/>
      <psa30 value="0.0022452507" flag="0"/>
    </comp>
  </station>
  <station code="SAP3" name="SAP3" netid="HL" insttype="LE3D20_SMART24" lat="36.4356" lon="25.3454">
    <comp name="--.HHE">
      <acc value="0.0599754544" flag="0"/>
      <vel value="0.0482387824" flag="0"/>
      <psa03 value="0.1926883319" flag="0"/>
      <psa10 value="0.0457235119" flag="0"/>
      <psa30 value="0.0064027507" flag="0"/>
    </comp>
    <comp name="--.HHN">
      <acc value="0.0602895507" flag="0"/>
      <vel value="0.0316326400" flag="0"/>
      <psa03 value="0.2292566003" flag="0"/>
      <psa10 value="0.0329340485" flag="0"/>
      <psa30 value="0.0058321951" flag="0"/>
    </comp>
    <comp name="--.HHZ">
      <acc value="0.0836210079" flag="0"/>
      <vel value="0.0244115467" flag="0"/>
      <psa03 value="0.1080353938" flag="0"/>
      <psa10 value="0.0160690905" flag="0"/>
      <psa30 value="0.0022140526" flag="0"/>
    </comp>
  </station>
  <station code="SIVA" name="SIVA" netid="HL" insttype="60" lat="35.0178" lon="24.812">
    <comp name="--.HHE">
      <acc value="0.0413746354" flag="0"/>
      <vel value="0.0281175649" flag="0"/>
      <psa03 value="0.0686016651" flag="0"/>
      <psa10 value="0.0236226775" flag="0"/>
      <psa30 value="0.0015742300" flag="0"/>
    </comp>
    <comp name="--.HHZ">
      <acc value="0.0157898385" flag="0"/>
      <vel value="0.0109866015" flag="0"/>
      <psa03 value="0.0525341109" flag="0"/>
      <psa10 value="0.0082640889" flag="0"/>
      <psa30 value="0.0006709488" flag="0"/>
    </comp>
    <comp name="--.HHN">
      <acc value="0.0249780154" flag="0"/>
      <vel value="0.0181177614" flag="0"/>
      <psa03 value="0.0846859409" flag="0"/>
      <psa10 value="0.0151686709" flag="0"/>
      <psa30 value="0.0010922107" flag="0"/>
    </comp>
  </station>
  <station code="THERA" name="THERA" netid="HL" insttype="120" lat="36.367" lon="25.4753">
    <comp name="--.HHZ">
      <acc value="0.0208796938" flag="0"/>
      <vel value="0.0074421695" flag="0"/>
      <psa03 value="0.0366475567" flag="0"/>
      <psa10 value="0.0067626854" flag="0"/>
      <psa30 value="0.0005692444" flag="0"/>
    </comp>
    <comp name="--.HHE">
      <acc value="0.0216151630" flag="0"/>
      <vel value="0.0083614838" flag="0"/>
      <psa03 value="0.0547713498" flag="0"/>
      <psa10 value="0.0066898740" flag="0"/>
      <psa30 value="0.0009564382" flag="0"/>
    </comp>
    <comp name="--.HHN">
      <acc value="0.0135793767" flag="0"/>
      <vel value="0.0051189101" flag="0"/>
      <psa03 value="0.0186433731" flag="0"/>
      <psa10 value="0.0056082676" flag="0"/>
      <psa30 value="0.0004709013" flag="0"/>
    </comp>
  </station>
  <station code="ZKR" name="ZKR" netid="HL" insttype="120" lat="35.1147" lon="26.2169">
    <comp name="--.HHZ">
      <acc value="0.0247907256" flag="0"/>
      <vel value="0.0084655499" flag="0"/>
      <psa03 value="0.0293851373" flag="0"/>
      <psa10 value="0.0207931635" flag="0"/>
      <psa30 value="0.0014117102" flag="0"/>
    </comp>
    <comp name="--.HHE">
      <acc value="0.0361900206" flag="0"/>
      <vel value="0.0173009607" flag="0"/>
      <psa03 value="0.0610642821" flag="0"/>
      <psa10 value="0.0289407451" flag="0"/>
      <psa30 value="0.0026889405" flag="0"/>
    </comp>
    <comp name="--.HHN">
      <acc value="0.0150611625" flag="0"/>
      <vel value="0.0076103533" flag="0"/>
      <psa03 value="0.0335243863" flag="0"/>
      <psa10 value="0.0135360740" flag="0"/>
      <psa30 value="0.0007205700" flag="0"/>
    </comp>
  </station>
  <station code="CMBO" name="CMBO" netid="HT" insttype="120P," lat="36.4709" lon="25.4056">
    <comp name="--.HHN">
      <acc value="0.0551922842" flag="0"/>
      <vel value="0.0243791022" flag="0"/>
      <psa03 value="0.1446775640" flag="0"/>
      <psa10 value="0.0308157318" flag="0"/>
      <psa30 value="0.0026235954" flag="0"/>
    </comp>
    <comp name="--.HHE">
      <acc value="0.0538633384" flag="0"/>
      <vel value="0.0276168738" flag="0"/>
      <psa03 value="0.1470802215" flag="0"/>
      <psa10 value="0.0375623595" flag="0"/>
      <psa30 value="0.0030184064" flag="0"/>
    </comp>
    <comp name="--.HHZ">
      <acc value="0.0677177580" flag="0"/>
      <vel value="0.0221966252" flag="0"/>
      <psa03 value="0.1990413624" flag="0"/>
      <psa10 value="0.0098194212" flag="0"/>
      <psa30 value="0.0025245746" flag="0"/>
    </comp>
  </station>
</stationlist>
