<?xml version="1.0" encoding="UTF-8" standalone="yes"?>
<!DOCTYPE earthquake SYSTEM "stationlist.dtd">
<stationlist created="" xmlns="ch.ethz.sed.shakemap.usgs.xml">
  <station code="KRL1" name="KRL1" netid="HI" insttype="CMG-5TD,ACCELEROMETER,GURALP" lat="37.7951" lon="26.7065">
    <comp name="--.HNE">
      <acc value="0.3495257541" flag="0"/>
      <vel value="0.1268574360" flag="0"/>
      <psa03 value="0.4436794381" flag="0"/>
      <psa10 value="0.0365057545" flag="0"/>
      <psa30 value="0.0030857342" flag="0"/>
    </comp>
    <comp name="--.HNN">
      <acc value="0.1712020306" flag="0"/>
      <vel value="0.0462206436" flag="0"/>
      <psa03 value="0.2044996854" flag="0"/>
      <psa10 value="0.0247012621" flag="0"/>
      <psa30 value="0.0025977650" flag="0"/>
    </comp>
    <comp name="--.HNZ">
      <acc value="0.1315099487" flag="0"/>
      <vel value="0.0325400018" flag="0"/>
      <psa03 value="0.1187661771" flag="0"/>
      <psa10 value="0.0203967068" flag="0"/>
      <psa30 value="0.0024325716" flag="0"/>
    </comp>
  </station>
</stationlist>
