<stationlist created="1778069688">
	<station code="KARP" name="KARP" netid="GE" source="GEOFON" insttype="" lat="35.5471" lon="27.16106">
		<comp name="--.HNE" depth="0.0">
			<acc value="0.629425825986005" flag="0"/>
			<vel value="0.188805175884491" flag="0"/>
			<psa03 value="0.641692727319254" flag="0"/>
			<psa10 value="0.0904257892637919" flag="0"/>
			<psa30 value="0.00828894119810102" flag="0"/>
		</comp>
		<comp name="--.HNN" depth="0.0">
			<acc value="0.624509942394752" flag="0"/>
			<vel value="0.169104111296926" flag="0"/>
			<psa03 value="0.490419326742877" flag="0"/>
			<psa10 value="0.103790733802736" flag="0"/>
			<psa30 value="0.00976543401650399" flag="0"/>
		</comp>
		<comp name="--.HNZ" depth="0.0">
			<acc value="0.503673484521043" flag="0"/>
			<vel value="0.182757754455542" flag="0"/>
			<psa03 value="0.617173998092441" flag="0"/>
			<psa10 value="0.0563872607348093" flag="0"/>
			<psa30 value="0.00523797012880107" flag="0"/>
		</comp>
	</station>
	<station code="KSS1" name="KSS1" netid="HI" source="ITSAK Strong Motion Network" insttype="" lat="35.4189" lon="26.9207">
		<comp name="--.HNE" depth="0.0">
			<acc value="1.05947253943256" flag="0"/>
			<vel value="0.272274294137542" flag="0"/>
			<psa03 value="1.11698918822515" flag="0"/>
			<psa10 value="0.198279562849533" flag="0"/>
			<psa30 value="0.0252328148444405" flag="0"/>
		</comp>
		<comp name="--.HNN" depth="0.0">
			<acc value="1.33632353611384" flag="0"/>
			<vel value="0.375931185217492" flag="0"/>
			<psa03 value="1.61434355699386" flag="0"/>
			<psa10 value="0.170011436708109" flag="0"/>
			<psa30 value="0.022574680349249" flag="0"/>
		</comp>
		<comp name="--.HNZ" depth="0.0">
			<acc value="0.878136959992825" flag="0"/>
			<vel value="0.145397267884713" flag="0"/>
			<psa03 value="0.286797544423122" flag="0"/>
			<psa10 value="0.106577278430922" flag="0"/>
			<psa30 value="0.0260806796598568" flag="0"/>
		</comp>
	</station>
	<station code="RDI1" name="RDI1" netid="HI" source="ITSAK Strong Motion Network" insttype="" lat="36.4514" lon="28.224">
		<comp name="--.HNE" depth="0.0">
			<acc value="0.0238312868663136" flag="0"/>
			<vel value="0.021050364253344" flag="0"/>
			<psa03 value="0.0555250784132752" flag="0"/>
			<psa10 value="0.0240037464286366" flag="0"/>
			<psa30 value="0.00738156924788247" flag="0"/>
		</comp>
		<comp name="--.HNN" depth="0.0">
			<acc value="0.0295259757957122" flag="0"/>
			<vel value="0.0244258879084946" flag="0"/>
			<psa03 value="0.0787910258547766" flag="0"/>
			<psa10 value="0.0193084992661152" flag="0"/>
			<psa30 value="0.00528360717955171" flag="0"/>
		</comp>
		<comp name="--.HNZ" depth="0.0">
			<acc value="0.017596454636865" flag="0"/>
			<vel value="0.0118121521654812" flag="0"/>
			<psa03 value="0.0359727341210905" flag="0"/>
			<psa10 value="0.0147260024642718" flag="0"/>
			<psa30 value="0.00204874564105066" flag="0"/>
		</comp>
	</station>
	<station code="SIT2" name="SIT2" netid="HI" source="ITSAK Strong Motion Network" insttype="" lat="35.2059" lon="26.107">
		<comp name="--.HNE" depth="0.0">
			<acc value="0.289603706549738" flag="0"/>
			<vel value="0.185478317565379" flag="0"/>
			<psa03 value="0.712743351429069" flag="0"/>
			<psa10 value="0.104632334709226" flag="0"/>
			<psa30 value="0.00741736301317709" flag="0"/>
		</comp>
		<comp name="--.HNN" depth="0.0">
			<acc value="0.215806782384473" flag="0"/>
			<vel value="0.141191606261547" flag="0"/>
			<psa03 value="0.686748129383853" flag="0"/>
			<psa10 value="0.14671238003371" flag="0"/>
			<psa30 value="0.00917036266848098" flag="0"/>
		</comp>
		<comp name="--.HNZ" depth="0.0">
			<acc value="0.22970000623731" flag="0"/>
			<vel value="0.0804633695732368" flag="0"/>
			<psa03 value="0.386796376214959" flag="0"/>
			<psa10 value="0.0328707569362457" flag="0"/>
			<psa30 value="0.00396058012984942" flag="0"/>
		</comp>
	</station>
	<station code="AGNA" name="AGNA" netid="HL" source="National Observatory of Athens Seismic Network" insttype="" lat="35.1895" lon="25.71853">
		<comp name="00.HNE" depth="0.0">
			<acc value="0.038368883750579" flag="0"/>
			<vel value="0.0180202442451395" flag="0"/>
			<psa03 value="0.102219854897263" flag="0"/>
			<psa10 value="0.0390532533363838" flag="0"/>
			<psa30 value="0.00273727112244515" flag="0"/>
		</comp>
		<comp name="00.HNN" depth="0.0">
			<acc value="0.0450381258486873" flag="0"/>
			<vel value="0.0333221997548839" flag="0"/>
			<psa03 value="0.0805213653953825" flag="0"/>
			<psa10 value="0.066104091571679" flag="0"/>
			<psa30 value="0.0061295014660418" flag="0"/>
		</comp>
		<comp name="00.HNZ" depth="0.0">
			<acc value="0.0317543970982751" flag="0"/>
			<vel value="0.0128658111647024" flag="0"/>
			<psa03 value="0.0471059278280313" flag="0"/>
			<psa10 value="0.013911447190111" flag="0"/>
			<psa30 value="0.00238809903317381" flag="0"/>
		</comp>
	</station>
	<station code="HERG" name="HERG" netid="HL" source="National Observatory of Athens Seismic Network" insttype="" lat="35.32622" lon="25.06586">
		<comp name="00.HNE" depth="0.0">
			<acc value="0.0435871843156191" flag="0"/>
			<vel value="0.0439255233095441" flag="0"/>
			<psa03 value="0.10687836141696" flag="0"/>
			<psa10 value="0.0684998402782483" flag="0"/>
			<psa30 value="0.00484139863555074" flag="0"/>
		</comp>
		<comp name="00.HNN" depth="0.0">
			<acc value="0.0417961225224004" flag="0"/>
			<vel value="0.0409434415900178" flag="0"/>
			<psa03 value="0.0852998121523911" flag="0"/>
			<psa10 value="0.0902487835388597" flag="0"/>
			<psa30 value="0.00635588146262936" flag="0"/>
		</comp>
		<comp name="00.HNZ" depth="0.0">
			<acc value="0.0506155323305486" flag="0"/>
			<vel value="0.0408485377286237" flag="0"/>
			<psa03 value="0.0814511769908388" flag="0"/>
			<psa10 value="0.0371955152703213" flag="0"/>
			<psa30 value="0.00260103334736026" flag="0"/>
		</comp>
	</station>
	<station code="KARP" name="KARP" netid="HL" source="National Observatory of Athens Seismic Network" insttype="" lat="35.5471" lon="27.16106">
		<comp name="--.HNE" depth="0.0">
			<acc value="0.632306618662087" flag="0"/>
			<vel value="0.185397043385771" flag="0"/>
			<psa03 value="0.628672745193336" flag="0"/>
			<psa10 value="0.0885895691041781" flag="0"/>
			<psa30 value="0.00812071050121632" flag="0"/>
		</comp>
		<comp name="--.HNN" depth="0.0">
			<acc value="0.626732746073548" flag="0"/>
			<vel value="0.166232511758982" flag="0"/>
			<psa03 value="0.480441814667002" flag="0"/>
			<psa10 value="0.101684718137214" flag="0"/>
			<psa30 value="0.00956633119705268" flag="0"/>
		</comp>
		<comp name="--.HNZ" depth="0.0">
			<acc value="0.493364170607326" flag="0"/>
			<vel value="0.179810529677337" flag="0"/>
			<psa03 value="0.604646180239325" flag="0"/>
			<psa10 value="0.0552436499336463" flag="0"/>
			<psa30 value="0.00513193109911577" flag="0"/>
		</comp>
	</station>
	<station code="KLNA" name="KLNA" netid="HL" source="National Observatory of Athens Seismic Network" insttype="" lat="36.95708" lon="26.97274">
		<comp name="00.HNE" depth="0.0">
			<acc value="0.0261009166014076" flag="0"/>
			<vel value="0.00875907514617552" flag="0"/>
			<psa03 value="0.06058094776114" flag="0"/>
			<psa10 value="0.00690998639012589" flag="0"/>
			<psa30 value="0.00118701074158275" flag="0"/>
		</comp>
		<comp name="00.HNN" depth="0.0">
			<acc value="0.0227900459755766" flag="0"/>
			<vel value="0.00835524475136355" flag="0"/>
			<psa03 value="0.0527510616029424" flag="0"/>
			<psa10 value="0.00728045186092518" flag="0"/>
			<psa30 value="0.00108365624429454" flag="0"/>
		</comp>
		<comp name="00.HNZ" depth="0.0">
			<acc value="0.0205022681905609" flag="0"/>
			<vel value="0.00589525492045376" flag="0"/>
			<psa03 value="0.0226395565488455" flag="0"/>
			<psa10 value="0.00460665759341726" flag="0"/>
			<psa30 value="0.000681871228862461" flag="0"/>
		</comp>
	</station>
	<station code="SIVA" name="SIVA" netid="HL" source="National Observatory of Athens Seismic Network" insttype="" lat="35.01777" lon="24.81204">
		<comp name="00.HNE" depth="0.0">
			<acc value="0.0309591687013706" flag="0"/>
			<vel value="0.0132369132429586" flag="0"/>
			<psa03 value="0.0596861036287745" flag="0"/>
			<psa10 value="0.0221030974914924" flag="0"/>
			<psa30 value="0.00198476428558653" flag="0"/>
		</comp>
		<comp name="00.HNN" depth="0.0">
			<acc value="0.0204842040271306" flag="0"/>
			<vel value="0.0110847070649199" flag="0"/>
			<psa03 value="0.0480531299080239" flag="0"/>
			<psa10 value="0.020238689741709" flag="0"/>
			<psa30 value="0.00229438035538497" flag="0"/>
		</comp>
		<comp name="00.HNZ" depth="0.0">
			<acc value="0.0159225832449981" flag="0"/>
			<vel value="0.00645900709852045" flag="0"/>
			<psa03 value="0.0231317208216465" flag="0"/>
			<psa10 value="0.0101676664540023" flag="0"/>
			<psa30 value="0.00185993352912156" flag="0"/>
		</comp>
	</station>
	<station code="THRA" name="THRA" netid="HL" source="National Observatory of Athens Seismic Network" insttype="" lat="36.41502" lon="25.43244">
		<comp name="00.HNE" depth="0.0">
			<acc value="0.0647152668175689" flag="0"/>
			<vel value="0.04060562041054" flag="0"/>
			<psa03 value="0.137358574318094" flag="0"/>
			<psa10 value="0.0926727428801615" flag="0"/>
			<psa30 value="0.0043829465603259" flag="0"/>
		</comp>
		<comp name="00.HNN" depth="0.0">
			<acc value="0.0540831443815666" flag="0"/>
			<vel value="0.0326909859497203" flag="0"/>
			<psa03 value="0.102146457709514" flag="0"/>
			<psa10 value="0.0675334392475532" flag="0"/>
			<psa30 value="0.00576727043309523" flag="0"/>
		</comp>
		<comp name="00.HNZ" depth="0.0">
			<acc value="0.0653033979389659" flag="0"/>
			<vel value="0.0231480167172232" flag="0"/>
			<psa03 value="0.0907371950218551" flag="0"/>
			<psa10 value="0.0212252553976419" flag="0"/>
			<psa30 value="0.00223711033091359" flag="0"/>
		</comp>
	</station>
</stationlist>
