<?xml version="1.0" encoding="UTF-8" standalone="yes"?>
<!DOCTYPE earthquake SYSTEM "stationlist.dtd">
<stationlist created="" xmlns="ch.ethz.sed.shakemap.usgs.xml">
  <station code="KARP" name="KARP" netid="GE" insttype="STS-2/N" lat="35.5471" lon="27.1611">
    <comp name="--.HHN">
      <acc value="0.8172627763" flag="0"/>
      <vel value="0.2098522323" flag="0"/>
      <psa03 value="0.5868360056" flag="0"/>
      <psa10 value="0.1161780685" flag="0"/>
      <psa30 value="0.0102446011" flag="0"/>
    </comp>
    <comp name="--.HHZ">
      <acc value="0.6222004216" flag="0"/>
      <vel value="0.2196518654" flag="0"/>
      <psa03 value="0.7551498594" flag="0"/>
      <psa10 value="0.0695187854" flag="0"/>
      <psa30 value="0.0050779713" flag="0"/>
    </comp>
    <comp name="--.HHE">
      <acc value="0.7889378878" flag="0"/>
      <vel value="0.2333778302" flag="0"/>
      <psa03 value="0.6879624614" flag="0"/>
      <psa10 value="0.1134409683" flag="0"/>
      <psa30 value="0.0088685927" flag="0"/>
    </comp>
  </station>
  <station code="THERA" name="THERA" netid="GE" insttype="STS-2/N" lat="36.367" lon="25.4753">
    <comp name="--.HHZ">
      <acc value="0.0118565344" flag="0"/>
      <vel value="0.0056980793" flag="0"/>
      <psa03 value="0.0220182195" flag="0"/>
      <psa10 value="0.0067541349" flag="0"/>
      <psa30 value="0.0013899841" flag="0"/>
    </comp>
    <comp name="--.HHN">
      <acc value="0.0164636029" flag="0"/>
      <vel value="0.0067401943" flag="0"/>
      <psa03 value="0.0346322065" flag="0"/>
      <psa10 value="0.0058853378" flag="0"/>
      <psa30 value="0.0009856635" flag="0"/>
    </comp>
    <comp name="--.HHE">
      <acc value="0.0167289843" flag="0"/>
      <vel value="0.0074925229" flag="0"/>
      <psa03 value="0.0348875631" flag="0"/>
      <psa10 value="0.0133500286" flag="0"/>
      <psa30 value="0.0022176527" flag="0"/>
    </comp>
  </station>
  <station code="ZKR" name="ZKR" netid="GE" insttype="STS-2/N" lat="35.1147" lon="26.2169">
    <comp name="--.HHN">
      <acc value="0.0893842320" flag="0"/>
      <vel value="0.0411947281" flag="0"/>
      <psa03 value="0.1093460452" flag="0"/>
      <psa10 value="0.0457351540" flag="0"/>
      <psa30 value="0.0023515100" flag="0"/>
    </comp>
    <comp name="--.HHZ">
      <acc value="0.1136075005" flag="0"/>
      <vel value="0.0319540375" flag="0"/>
      <psa03 value="0.1543736736" flag="0"/>
      <psa10 value="0.0384283400" flag="0"/>
      <psa30 value="0.0024351031" flag="0"/>
    </comp>
    <comp name="--.HHE">
      <acc value="0.1695082947" flag="0"/>
      <vel value="0.0850544282" flag="0"/>
      <psa03 value="0.3871172559" flag="0"/>
      <psa10 value="0.0532257278" flag="0"/>
      <psa30 value="0.0038180716" flag="0"/>
    </comp>
  </station>
  <station code="SIT2" name="SIT2" netid="HI" insttype="CMG-5TD,ACCELEROMETER,GURALP" lat="35.2059" lon="26.107">
    <comp name="--.HNN">
      <acc value="0.2147051016" flag="0"/>
      <vel value="0.1345894934" flag="0"/>
      <psa03 value="0.6989722884" flag="0"/>
      <psa10 value="0.1471363634" flag="0"/>
      <psa30 value="0.0084369452" flag="0"/>
    </comp>
    <comp name="--.HNE">
      <acc value="0.2899842949" flag="0"/>
      <vel value="0.1823299130" flag="0"/>
      <psa03 value="0.7080904763" flag="0"/>
      <psa10 value="0.1045996653" flag="0"/>
      <psa30 value="0.0071625191" flag="0"/>
    </comp>
    <comp name="--.HNZ">
      <acc value="0.2312511773" flag="0"/>
      <vel value="0.0793957239" flag="0"/>
      <psa03 value="0.3914046832" flag="0"/>
      <psa10 value="0.0325853479" flag="0"/>
      <psa30 value="0.0032757055" flag="0"/>
    </comp>
  </station>
  <station code="KARP" name="KARP" netid="HL" insttype="120" lat="35.5471" lon="27.1611">
    <comp name="--.HHN">
      <acc value="0.7583897739" flag="0"/>
      <vel value="0.2046071237" flag="0"/>
      <psa03 value="0.5694692585" flag="0"/>
      <psa10 value="0.1148521190" flag="0"/>
      <psa30 value="0.0101596077" flag="0"/>
    </comp>
    <comp name="--.HHE">
      <acc value="0.7100891861" flag="0"/>
      <vel value="0.2187495772" flag="0"/>
      <psa03 value="0.6710563492" flag="0"/>
      <psa10 value="0.1126288942" flag="0"/>
      <psa30 value="0.0088550211" flag="0"/>
    </comp>
    <comp name="--.HHZ">
      <acc value="0.5835567171" flag="0"/>
      <vel value="0.2086117819" flag="0"/>
      <psa03 value="0.7387370547" flag="0"/>
      <psa10 value="0.0684308926" flag="0"/>
      <psa30 value="0.0050590548" flag="0"/>
    </comp>
  </station>
  <station code="NPS" name="NPS" netid="HL" insttype="CMG3ESPC-120s" lat="35.2613" lon="25.6104">
    <comp name="--.HHZ">
      <acc value="0.0958754568" flag="0"/>
      <vel value="0.0219584368" flag="0"/>
      <psa03 value="0.0925966861" flag="0"/>
      <psa10 value="0.0158310687" flag="0"/>
      <psa30 value="0.0032087065" flag="0"/>
    </comp>
    <comp name="--.HHN">
      <acc value="0.0846405996" flag="0"/>
      <vel value="0.0412700287" flag="0"/>
      <psa03 value="0.1253684157" flag="0"/>
      <psa10 value="0.0388902884" flag="0"/>
      <psa30 value="0.0030898387" flag="0"/>
    </comp>
    <comp name="--.HHE">
      <acc value="0.0527791131" flag="0"/>
      <vel value="0.0165624186" flag="0"/>
      <psa03 value="0.0710390641" flag="0"/>
      <psa10 value="0.0130748248" flag="0"/>
      <psa30 value="0.0011144227" flag="0"/>
    </comp>
  </station>
  <station code="THERA" name="THERA" netid="HL" insttype="120" lat="36.367" lon="25.4753">
    <comp name="--.HHE">
      <acc value="0.0163381202" flag="0"/>
      <vel value="0.0073267545" flag="0"/>
      <psa03 value="0.0338966330" flag="0"/>
      <psa10 value="0.0132687645" flag="0"/>
      <psa30 value="0.0022183783" flag="0"/>
    </comp>
    <comp name="--.HHN">
      <acc value="0.0160129347" flag="0"/>
      <vel value="0.0066031222" flag="0"/>
      <psa03 value="0.0335803204" flag="0"/>
      <psa10 value="0.0058542626" flag="0"/>
      <psa30 value="0.0009858459" flag="0"/>
    </comp>
    <comp name="--.HHZ">
      <acc value="0.0115521585" flag="0"/>
      <vel value="0.0056356493" flag="0"/>
      <psa03 value="0.0213202641" flag="0"/>
      <psa10 value="0.0067095994" flag="0"/>
      <psa30 value="0.0013896092" flag="0"/>
    </comp>
  </station>
  <station code="ZKR" name="ZKR" netid="HL" insttype="120" lat="35.1147" lon="26.2169">
    <comp name="--.HHN">
      <acc value="0.0872199392" flag="0"/>
      <vel value="0.0400716145" flag="0"/>
      <psa03 value="0.1059271183" flag="0"/>
      <psa10 value="0.0454975584" flag="0"/>
      <psa30 value="0.0023452810" flag="0"/>
    </comp>
    <comp name="--.HHE">
      <acc value="0.1650691633" flag="0"/>
      <vel value="0.0831585290" flag="0"/>
      <psa03 value="0.3761102691" flag="0"/>
      <psa10 value="0.0528667120" flag="0"/>
      <psa30 value="0.0037798574" flag="0"/>
    </comp>
    <comp name="--.HHZ">
      <acc value="0.1104380556" flag="0"/>
      <vel value="0.0314243958" flag="0"/>
      <psa03 value="0.1498973463" flag="0"/>
      <psa10 value="0.0381960387" flag="0"/>
      <psa30 value="0.0024270780" flag="0"/>
    </comp>
  </station>
</stationlist>
