<?xml version="1.0" encoding="UTF-8" standalone="yes"?>
<!DOCTYPE earthquake SYSTEM "stationlist.dtd">
<stationlist created="" xmlns="ch.ethz.sed.shakemap.usgs.xml">
  <station code="KEK" name="KEK" netid="MN" insttype="" lat="39.7127" lon="19.7962">
    <comp name="--.HHE">
      <acc value="0.0186990572" flag="0"/>
      <vel value="0.0067764839" flag="0"/>
      <psa03 value="0.0372760819" flag="0"/>
      <psa10 value="0.0071443740" flag="0"/>
      <psa30 value="0.0005020050" flag="0"/>
    </comp>
    <comp name="--.HHN">
      <acc value="0.0120419147" flag="0"/>
      <vel value="0.0046868256" flag="0"/>
      <psa03 value="0.0297005431" flag="0"/>
      <psa10 value="0.0057173669" flag="0"/>
      <psa30 value="0.0004130362" flag="0"/>
    </comp>
    <comp name="--.HHZ">
      <acc value="0.0147814381" flag="0"/>
      <vel value="0.0067925221" flag="0"/>
      <psa03 value="0.0240347974" flag="0"/>
      <psa10 value="0.0044030786" flag="0"/>
      <psa30 value="0.0003686650" flag="0"/>
    </comp>
  </station>
  <station code="THL" name="THL" netid="MN" insttype="" lat="39.5647" lon="22.0144">
    <comp name="--.HHE">
      <acc value="0.0085718919" flag="0"/>
      <vel value="0.0045997271" flag="0"/>
      <psa03 value="0.0224697266" flag="0"/>
      <psa10 value="0.0053276538" flag="0"/>
      <psa30 value="0.0002539050" flag="0"/>
    </comp>
    <comp name="--.HHN">
      <acc value="0.0064910890" flag="0"/>
      <vel value="0.0038982352" flag="0"/>
      <psa03 value="0.0100876438" flag="0"/>
      <psa10 value="0.0039245569" flag="0"/>
      <psa30 value="0.0006467200" flag="0"/>
    </comp>
    <comp name="--.HHZ">
      <acc value="0.0048129607" flag="0"/>
      <vel value="0.0025689067" flag="0"/>
      <psa03 value="0.0095918754" flag="0"/>
      <psa10 value="0.0024827236" flag="0"/>
      <psa30 value="0.0002376971" flag="0"/>
    </comp>
  </station>
</stationlist>
