<?xml version="1.0" encoding="UTF-8" standalone="yes"?>
<!DOCTYPE earthquake SYSTEM "stationlist.dtd">
<stationlist created="" xmlns="ch.ethz.sed.shakemap.usgs.xml">
  <station code="ATHR" name="ATHR" netid="HA" insttype="GEOtiny," lat="38.3172" lon="20.4165">
    <comp name="--.HHE">
      <acc value="0.0078006748" flag="0"/>
      <vel value="0.0049765931" flag="0"/>
      <psa03 value="0.0223985824" flag="0"/>
      <psa10 value="0.0062119135" flag="0"/>
      <psa30 value="0.0007005731" flag="0"/>
    </comp>
    <comp name="--.HHZ">
      <acc value="0.0058014749" flag="0"/>
      <vel value="0.0027068849" flag="0"/>
      <psa03 value="0.0156432814" flag="0"/>
      <psa10 value="0.0042912492" flag="0"/>
      <psa30 value="0.0004521335" flag="0"/>
    </comp>
    <comp name="--.HHN">
      <acc value="0.0064216225" flag="0"/>
      <vel value="0.0050616423" flag="0"/>
      <psa03 value="0.0196998741" flag="0"/>
      <psa10 value="0.0069367953" flag="0"/>
      <psa30 value="0.0006689942" flag="0"/>
    </comp>
  </station>
  <station code="MSL1" name="MSL1" netid="HI" insttype="CMG-5TD,ACCELEROMETER,GURALP" lat="38.3727" lon="21.4243">
    <comp name="--.HNE">
      <acc value="0.0388707833" flag="0"/>
      <vel value="0.0301348953" flag="0"/>
      <psa03 value="0.1526618868" flag="0"/>
      <psa10 value="0.0578785907" flag="0"/>
      <psa30 value="0.0030240118" flag="0"/>
    </comp>
    <comp name="--.HNN">
      <acc value="0.0439620584" flag="0"/>
      <vel value="0.0331990939" flag="0"/>
      <psa03 value="0.1554997406" flag="0"/>
      <psa10 value="0.0417740523" flag="0"/>
      <psa30 value="0.0021819289" flag="0"/>
    </comp>
    <comp name="--.HNZ">
      <acc value="0.0162846844" flag="0"/>
      <vel value="0.0142394092" flag="0"/>
      <psa03 value="0.0570657266" flag="0"/>
      <psa10 value="0.0242059081" flag="0"/>
      <psa30 value="0.0009026571" flag="0"/>
    </comp>
  </station>
  <station code="VAS2" name="VAS2" netid="HI" insttype="CMG-5TD,ACCELEROMETER,GURALP" lat="38.6306" lon="20.6081">
    <comp name="--.HNE">
      <acc value="0.1420935460" flag="0"/>
      <vel value="0.0733742637" flag="0"/>
      <psa03 value="0.4257904377" flag="0"/>
      <psa10 value="0.0866700361" flag="0"/>
      <psa30 value="0.0039810576" flag="0"/>
    </comp>
    <comp name="--.HNN">
      <acc value="0.1796825758" flag="0"/>
      <vel value="0.0829308034" flag="0"/>
      <psa03 value="0.5836629587" flag="0"/>
      <psa10 value="0.0946274271" flag="0"/>
      <psa30 value="0.0039797047" flag="0"/>
    </comp>
    <comp name="--.HNZ">
      <acc value="0.0675795402" flag="0"/>
      <vel value="0.0402511956" flag="0"/>
      <psa03 value="0.2188599993" flag="0"/>
      <psa10 value="0.0321542116" flag="0"/>
      <psa30 value="0.0017379311" flag="0"/>
    </comp>
  </station>
  <station code="EVR" name="EVR" netid="HL" insttype="DR24" lat="38.9166" lon="21.8105">
    <comp name="--.HHZ">
      <acc value="0.0136433497" flag="0"/>
      <vel value="0.0050136568" flag="0"/>
      <psa03 value="0.0351448565" flag="0"/>
      <psa10 value="0.0067242643" flag="0"/>
      <psa30 value="0.0005621683" flag="0"/>
    </comp>
    <comp name="--.HHE">
      <acc value="0.0167938466" flag="0"/>
      <vel value="0.0083831807" flag="0"/>
      <psa03 value="0.0384824898" flag="0"/>
      <psa10 value="0.0067382431" flag="0"/>
      <psa30 value="0.0006407648" flag="0"/>
    </comp>
    <comp name="--.HHN">
      <acc value="0.0136987910" flag="0"/>
      <vel value="0.0071104297" flag="0"/>
      <psa03 value="0.0400939442" flag="0"/>
      <psa10 value="0.0059771720" flag="0"/>
      <psa30 value="0.0004720963" flag="0"/>
    </comp>
  </station>
  <station code="JAN" name="JAN" netid="HL" insttype="CMG3EPSC60_DR24" lat="39.6562" lon="20.8487">
    <comp name="--.HHE">
      <acc value="0.2048427768" flag="0"/>
      <vel value="0.0496559658" flag="0"/>
      <psa03 value="0.2368370071" flag="0"/>
      <psa10 value="0.0248580468" flag="0"/>
      <psa30 value="0.0031424943" flag="0"/>
    </comp>
    <comp name="--.HHZ">
      <acc value="0.0001892597" flag="0"/>
      <vel value="0.0000538891" flag="0"/>
      <psa03 value="0.0005343522" flag="0"/>
      <psa10 value="0.0000124423" flag="0"/>
      <psa30 value="0.0000011741" flag="0"/>
    </comp>
    <comp name="--.HHN">
      <acc value="0.1815364389" flag="0"/>
      <vel value="0.0464051903" flag="0"/>
      <psa03 value="0.2687820001" flag="0"/>
      <psa10 value="0.0226811285" flag="0"/>
      <psa30 value="0.0014676409" flag="0"/>
    </comp>
  </station>
  <station code="KEK" name="KEK" netid="HL" insttype="120" lat="39.7127" lon="19.7962">
    <comp name="--.HHE">
      <acc value="0.0186990700" flag="0"/>
      <vel value="0.0067764886" flag="0"/>
      <psa03 value="0.0372761077" flag="0"/>
      <psa10 value="0.0071443789" flag="0"/>
      <psa30 value="0.0005019893" flag="0"/>
    </comp>
    <comp name="--.HHN">
      <acc value="0.0120419233" flag="0"/>
      <vel value="0.0046868289" flag="0"/>
      <psa03 value="0.0297005636" flag="0"/>
      <psa10 value="0.0057173709" flag="0"/>
      <psa30 value="0.0004130281" flag="0"/>
    </comp>
    <comp name="--.HHZ">
      <acc value="0.0147814485" flag="0"/>
      <vel value="0.0067925268" flag="0"/>
      <psa03 value="0.0240348140" flag="0"/>
      <psa10 value="0.0044030817" flag="0"/>
      <psa30 value="0.0003687028" flag="0"/>
    </comp>
  </station>
  <station code="PENT" name="PENT" netid="HL" insttype="30s-100Hz," lat="40.1959" lon="21.1384">
    <comp name="--.HHE">
      <acc value="0.0070906675" flag="0"/>
      <vel value="0.0040626238" flag="0"/>
      <psa03 value="0.0195094872" flag="0"/>
      <psa10 value="0.0034479450" flag="0"/>
      <psa30 value="0.0006356228" flag="0"/>
    </comp>
    <comp name="--.HHN">
      <acc value="0.0057367278" flag="0"/>
      <vel value="0.0032056687" flag="0"/>
      <psa03 value="0.0151155183" flag="0"/>
      <psa10 value="0.0052844012" flag="0"/>
      <psa30 value="0.0004029133" flag="0"/>
    </comp>
    <comp name="--.HHZ">
      <acc value="0.0050681386" flag="0"/>
      <vel value="0.0024828008" flag="0"/>
      <psa03 value="0.0111553014" flag="0"/>
      <psa10 value="0.0045161435" flag="0"/>
      <psa30 value="0.0002852950" flag="0"/>
    </comp>
  </station>
  <station code="TETR" name="TETR" netid="HL" insttype="60" lat="39.3445" lon="21.2747">
    <comp name="--.HHN">
      <acc value="0.9342405912" flag="0"/>
      <vel value="0.1813270678" flag="0"/>
      <psa03 value="0.6218147001" flag="0"/>
      <psa10 value="0.0799120214" flag="0"/>
      <psa30 value="0.0070787693" flag="0"/>
    </comp>
    <comp name="--.HHE">
      <acc value="0.8296982229" flag="0"/>
      <vel value="0.2495241702" flag="0"/>
      <psa03 value="0.9049067140" flag="0"/>
      <psa10 value="0.0572394640" flag="0"/>
      <psa30 value="0.0042160117" flag="0"/>
    </comp>
    <comp name="--.HHZ">
      <acc value="0.2415576932" flag="0"/>
      <vel value="0.0570570846" flag="0"/>
      <psa03 value="0.2417197313" flag="0"/>
      <psa10 value="0.0245053272" flag="0"/>
      <psa30 value="0.0017702953" flag="0"/>
    </comp>
  </station>
  <station code="THL" name="THL" netid="HL" insttype="120" lat="39.5647" lon="22.0144">
    <comp name="--.HHE">
      <acc value="0.0085718919" flag="0"/>
      <vel value="0.0045997269" flag="0"/>
      <psa03 value="0.0224697266" flag="0"/>
      <psa10 value="0.0053276538" flag="0"/>
      <psa30 value="0.0002539062" flag="0"/>
    </comp>
    <comp name="--.HHN">
      <acc value="0.0064910893" flag="0"/>
      <vel value="0.0038982350" flag="0"/>
      <psa03 value="0.0100876438" flag="0"/>
      <psa10 value="0.0039245569" flag="0"/>
      <psa30 value="0.0006467248" flag="0"/>
    </comp>
    <comp name="--.HHZ">
      <acc value="0.0048129610" flag="0"/>
      <vel value="0.0025689063" flag="0"/>
      <psa03 value="0.0095918754" flag="0"/>
      <psa10 value="0.0024827236" flag="0"/>
      <psa30 value="0.0002377028" flag="0"/>
    </comp>
  </station>
  <station code="AMPL" name="AMPL" netid="HP" insttype="Compact," lat="38.9224" lon="21.2135">
    <comp name="--.HHE">
      <acc value="0.1274687739" flag="0"/>
      <vel value="0.0371174975" flag="0"/>
      <psa03 value="0.2543168027" flag="0"/>
      <psa10 value="0.0142918809" flag="0"/>
      <psa30 value="0.0012554454" flag="0"/>
    </comp>
    <comp name="--.HHN">
      <acc value="0.1082660914" flag="0"/>
      <vel value="0.0318157711" flag="0"/>
      <psa03 value="0.1422088004" flag="0"/>
      <psa10 value="0.0109132575" flag="0"/>
      <psa30 value="0.0012676953" flag="0"/>
    </comp>
    <comp name="--.HHZ">
      <acc value="0.0468797678" flag="0"/>
      <vel value="0.0146561933" flag="0"/>
      <psa03 value="0.0842961636" flag="0"/>
      <psa10 value="0.0154079388" flag="0"/>
      <psa30 value="0.0007145047" flag="0"/>
    </comp>
  </station>
  <station code="FSK" name="FSK" netid="HP" insttype="40," lat="38.4593" lon="20.5623">
    <comp name="--.HHN">
      <acc value="0.0219593456" flag="0"/>
      <vel value="0.0079246156" flag="0"/>
      <psa03 value="0.0390138646" flag="0"/>
      <psa10 value="0.0074286080" flag="0"/>
      <psa30 value="0.0004010388" flag="0"/>
    </comp>
    <comp name="--.HHE">
      <acc value="0.0293962599" flag="0"/>
      <vel value="0.0108322647" flag="0"/>
      <psa03 value="0.0479470624" flag="0"/>
      <psa10 value="0.0070474171" flag="0"/>
      <psa30 value="0.0006624059" flag="0"/>
    </comp>
    <comp name="--.HHZ">
      <acc value="0.0116016661" flag="0"/>
      <vel value="0.0044899830" flag="0"/>
      <psa03 value="0.0288260591" flag="0"/>
      <psa10 value="0.0053011824" flag="0"/>
      <psa30 value="0.0004518420" flag="0"/>
    </comp>
  </station>
  <station code="KSTR" name="KSTR" netid="HP" insttype="Compact," lat="39.2492" lon="20.576">
    <comp name="--.HHE">
      <acc value="0.1805514376" flag="0"/>
      <vel value="0.0432476257" flag="0"/>
      <psa03 value="0.1647620543" flag="0"/>
      <psa10 value="0.0243026587" flag="0"/>
      <psa30 value="0.0020360828" flag="0"/>
    </comp>
    <comp name="--.HHZ">
      <acc value="0.0971625752" flag="0"/>
      <vel value="0.0269464822" flag="0"/>
      <psa03 value="0.1806814441" flag="0"/>
      <psa10 value="0.0166789293" flag="0"/>
      <psa30 value="0.0011793385" flag="0"/>
    </comp>
    <comp name="--.HHN">
      <acc value="0.1340201344" flag="0"/>
      <vel value="0.0441045412" flag="0"/>
      <psa03 value="0.2341076206" flag="0"/>
      <psa10 value="0.0241166147" flag="0"/>
      <psa30 value="0.0021702925" flag="0"/>
    </comp>
  </station>
  <station code="PDO" name="PDO" netid="HP" insttype="120s" lat="38.5986" lon="21.1833">
    <comp name="--.HHE">
      <acc value="0.0425167818" flag="0"/>
      <vel value="0.0164571848" flag="0"/>
      <psa03 value="0.1114402876" flag="0"/>
      <psa10 value="0.0190393237" flag="0"/>
      <psa30 value="0.0006753351" flag="0"/>
    </comp>
    <comp name="--.HHN">
      <acc value="0.0469577201" flag="0"/>
      <vel value="0.0176118598" flag="0"/>
      <psa03 value="0.1660997854" flag="0"/>
      <psa10 value="0.0114660843" flag="0"/>
      <psa30 value="0.0005861293" flag="0"/>
    </comp>
    <comp name="--.HHZ">
      <acc value="0.0285391063" flag="0"/>
      <vel value="0.0115029567" flag="0"/>
      <psa03 value="0.0995539018" flag="0"/>
      <psa10 value="0.0061724603" flag="0"/>
      <psa30 value="0.0005196302" flag="0"/>
    </comp>
  </station>
  <station code="PLEV" name="PLEV" netid="HP" insttype="Compact," lat="38.4124" lon="21.4073">
    <comp name="--.HHE">
      <acc value="0.0109077063" flag="0"/>
      <vel value="0.0066009164" flag="0"/>
      <psa03 value="0.0468333038" flag="0"/>
      <psa10 value="0.0086111218" flag="0"/>
      <psa30 value="0.0005330894" flag="0"/>
    </comp>
    <comp name="--.HHN">
      <acc value="0.0114227408" flag="0"/>
      <vel value="0.0066796913" flag="0"/>
      <psa03 value="0.0341591731" flag="0"/>
      <psa10 value="0.0090908007" flag="0"/>
      <psa30 value="0.0004451277" flag="0"/>
    </comp>
    <comp name="--.HHZ">
      <acc value="0.0065814469" flag="0"/>
      <vel value="0.0043537180" flag="0"/>
      <psa03 value="0.0231445754" flag="0"/>
      <psa10 value="0.0039610435" flag="0"/>
      <psa30 value="0.0003024772" flag="0"/>
    </comp>
  </station>
  <station code="PRMD" name="PRMD" netid="HP" insttype="120P," lat="39.5299" lon="21.0965">
    <comp name="--.HHE">
      <acc value="0.3316426434" flag="0"/>
      <vel value="0.1206777720" flag="0"/>
      <psa03 value="0.4316079005" flag="0"/>
      <psa10 value="0.0447881761" flag="0"/>
      <psa30 value="0.0029438655" flag="0"/>
    </comp>
    <comp name="--.HHZ">
      <acc value="0.2571748411" flag="0"/>
      <vel value="0.0647295399" flag="0"/>
      <psa03 value="0.2068052314" flag="0"/>
      <psa10 value="0.0253844138" flag="0"/>
      <psa30 value="0.0019945323" flag="0"/>
    </comp>
    <comp name="--.HHN">
      <acc value="0.3641819658" flag="0"/>
      <vel value="0.0781665966" flag="0"/>
      <psa03 value="0.2137617662" flag="0"/>
      <psa10 value="0.0460095969" flag="0"/>
      <psa30 value="0.0025348273" flag="0"/>
    </comp>
  </station>
  <station code="EVGI" name="EVGI" netid="HT" insttype="30" lat="38.621" lon="20.656">
    <comp name="--.HHE">
      <acc value="0.0737131415" flag="0"/>
      <vel value="0.0226965694" flag="0"/>
      <psa03 value="0.1685541367" flag="0"/>
      <psa10 value="0.0162100121" flag="0"/>
      <psa30 value="0.0008697181" flag="0"/>
    </comp>
    <comp name="--.HHN">
      <acc value="0.0695964254" flag="0"/>
      <vel value="0.0275806433" flag="0"/>
      <psa03 value="0.1738688279" flag="0"/>
      <psa10 value="0.0079361395" flag="0"/>
      <psa30 value="0.0007202991" flag="0"/>
    </comp>
    <comp name="--.HHZ">
      <acc value="0.0570287209" flag="0"/>
      <vel value="0.0203294616" flag="0"/>
      <psa03 value="0.1372420386" flag="0"/>
      <psa10 value="0.0083104060" flag="0"/>
      <psa30 value="0.0005749121" flag="0"/>
    </comp>
  </station>
  <station code="KPRO" name="KPRO" netid="HT" insttype="100" lat="39.9549" lon="21.3632">
    <comp name="--.HHE">
      <acc value="0.0190370841" flag="0"/>
      <vel value="0.0089381660" flag="0"/>
      <psa03 value="0.0531598173" flag="0"/>
      <psa10 value="0.0081805827" flag="0"/>
      <psa30 value="0.0009942210" flag="0"/>
    </comp>
    <comp name="--.HHN">
      <acc value="0.0169017026" flag="0"/>
      <vel value="0.0073672820" flag="0"/>
      <psa03 value="0.0474611506" flag="0"/>
      <psa10 value="0.0094981869" flag="0"/>
      <psa30 value="0.0007345508" flag="0"/>
    </comp>
    <comp name="--.HHZ">
      <acc value="0.0098626023" flag="0"/>
      <vel value="0.0045045376" flag="0"/>
      <psa03 value="0.0215937069" flag="0"/>
      <psa10 value="0.0054065858" flag="0"/>
      <psa30 value="0.0004960817" flag="0"/>
    </comp>
  </station>
  <station code="LKD2" name="LKD2" netid="HT" insttype="100" lat="38.7889" lon="20.6578">
    <comp name="--.HHE">
      <acc value="0.0587991175" flag="0"/>
      <vel value="0.0221576977" flag="0"/>
      <psa03 value="0.1092103836" flag="0"/>
      <psa10 value="0.0171503750" flag="0"/>
      <psa30 value="0.0011491435" flag="0"/>
    </comp>
    <comp name="--.HHN">
      <acc value="0.0622473149" flag="0"/>
      <vel value="0.0211728853" flag="0"/>
      <psa03 value="0.1432534485" flag="0"/>
      <psa10 value="0.0196163931" flag="0"/>
      <psa30 value="0.0014356002" flag="0"/>
    </comp>
    <comp name="--.HHZ">
      <acc value="0.0334968073" flag="0"/>
      <vel value="0.0115883527" flag="0"/>
      <psa03 value="0.0628361266" flag="0"/>
      <psa10 value="0.0081429885" flag="0"/>
      <psa30 value="0.0006516382" flag="0"/>
    </comp>
  </station>
  <station code="NYDR" name="NYDR" netid="HT" insttype="1s-100Hz," lat="38.7135" lon="20.6983">
    <comp name="--.HHE">
      <acc value="0.0401078456" flag="0"/>
      <vel value="0.0202726064" flag="0"/>
      <psa03 value="0.1421481286" flag="0"/>
      <psa10 value="0.0246860009" flag="0"/>
      <psa30 value="0.0011411985" flag="0"/>
    </comp>
    <comp name="--.HHN">
      <acc value="0.0460037749" flag="0"/>
      <vel value="0.0172528384" flag="0"/>
      <psa03 value="0.0796827542" flag="0"/>
      <psa10 value="0.0176987588" flag="0"/>
      <psa30 value="0.0010214640" flag="0"/>
    </comp>
    <comp name="--.HHZ">
      <acc value="0.0305055907" flag="0"/>
      <vel value="0.0138014379" flag="0"/>
      <psa03 value="0.0773205509" flag="0"/>
      <psa10 value="0.0098230477" flag="0"/>
      <psa30 value="0.0005844471" flag="0"/>
    </comp>
  </station>
  <station code="TSLK" name="TSLK" netid="HT" insttype="1s-100Hz," lat="38.8249" lon="20.6554">
    <comp name="--.HHN">
      <acc value="0.0706446327" flag="0"/>
      <vel value="0.0322766042" flag="0"/>
      <psa03 value="0.3072531836" flag="0"/>
      <psa10 value="0.0256179077" flag="0"/>
      <psa30 value="0.0024296505" flag="0"/>
    </comp>
    <comp name="--.HHZ">
      <acc value="0.0472200337" flag="0"/>
      <vel value="0.0209639889" flag="0"/>
      <psa03 value="0.1084310805" flag="0"/>
      <psa10 value="0.0155380865" flag="0"/>
      <psa30 value="0.0011261367" flag="0"/>
    </comp>
    <comp name="--.HHE">
      <acc value="0.0665151164" flag="0"/>
      <vel value="0.0272524187" flag="0"/>
      <psa03 value="0.1713025668" flag="0"/>
      <psa10 value="0.0173727666" flag="0"/>
      <psa30 value="0.0018461687" flag="0"/>
    </comp>
  </station>
  <station code="KEK" name="KEK" netid="MN" insttype="" lat="39.7127" lon="19.7962">
    <comp name="--.HHE">
      <acc value="0.0186990570" flag="0"/>
      <vel value="0.0067764839" flag="0"/>
      <psa03 value="0.0372760819" flag="0"/>
      <psa10 value="0.0071443740" flag="0"/>
      <psa30 value="0.0005019889" flag="0"/>
    </comp>
    <comp name="--.HHN">
      <acc value="0.0120419150" flag="0"/>
      <vel value="0.0046868256" flag="0"/>
      <psa03 value="0.0297005431" flag="0"/>
      <psa10 value="0.0057173669" flag="0"/>
      <psa30 value="0.0004130279" flag="0"/>
    </comp>
    <comp name="--.HHZ">
      <acc value="0.0147814383" flag="0"/>
      <vel value="0.0067925221" flag="0"/>
      <psa03 value="0.0240347974" flag="0"/>
      <psa10 value="0.0044030786" flag="0"/>
      <psa30 value="0.0003687025" flag="0"/>
    </comp>
  </station>
  <station code="THL" name="THL" netid="MN" insttype="" lat="39.5647" lon="22.0144">
    <comp name="--.HHE">
      <acc value="0.0085718919" flag="0"/>
      <vel value="0.0045997269" flag="0"/>
      <psa03 value="0.0224697266" flag="0"/>
      <psa10 value="0.0053276538" flag="0"/>
      <psa30 value="0.0002539062" flag="0"/>
    </comp>
    <comp name="--.HHN">
      <acc value="0.0064910893" flag="0"/>
      <vel value="0.0038982350" flag="0"/>
      <psa03 value="0.0100876438" flag="0"/>
      <psa10 value="0.0039245569" flag="0"/>
      <psa30 value="0.0006467248" flag="0"/>
    </comp>
    <comp name="--.HHZ">
      <acc value="0.0048129610" flag="0"/>
      <vel value="0.0025689063" flag="0"/>
      <psa03 value="0.0095918754" flag="0"/>
      <psa10 value="0.0024827236" flag="0"/>
      <psa30 value="0.0002377028" flag="0"/>
    </comp>
  </station>
</stationlist>
