<?xml version="1.0" encoding="UTF-8" standalone="yes"?>
<!DOCTYPE earthquake SYSTEM "stationlist.dtd">
<stationlist created="" xmlns="ch.ethz.sed.shakemap.usgs.xml">
  <station code="KEK" name="KEK" netid="MN" insttype="" lat="39.7127" lon="19.7962">
    <comp name="--.HHE">
      <acc value="0.0186990571" flag="0"/>
      <vel value="0.0067764838" flag="0"/>
      <psa03 value="0.0372760819" flag="0"/>
      <psa10 value="0.0071443740" flag="0"/>
      <psa30 value="0.0005020016" flag="0"/>
    </comp>
    <comp name="--.HHN">
      <acc value="0.0120419148" flag="0"/>
      <vel value="0.0046868256" flag="0"/>
      <psa03 value="0.0297005431" flag="0"/>
      <psa10 value="0.0057173669" flag="0"/>
      <psa30 value="0.0004130363" flag="0"/>
    </comp>
    <comp name="--.HHZ">
      <acc value="0.0147814382" flag="0"/>
      <vel value="0.0067925219" flag="0"/>
      <psa03 value="0.0240347974" flag="0"/>
      <psa10 value="0.0044030786" flag="0"/>
      <psa30 value="0.0003686728" flag="0"/>
    </comp>
  </station>
  <station code="THL" name="THL" netid="MN" insttype="" lat="39.5647" lon="22.0144">
    <comp name="--.HHE">
      <acc value="0.0085718919" flag="0"/>
      <vel value="0.0045997269" flag="0"/>
      <psa03 value="0.0224697266" flag="0"/>
      <psa10 value="0.0053276538" flag="0"/>
      <psa30 value="0.0002539083" flag="0"/>
    </comp>
    <comp name="--.HHN">
      <acc value="0.0064910893" flag="0"/>
      <vel value="0.0038982349" flag="0"/>
      <psa03 value="0.0100876438" flag="0"/>
      <psa10 value="0.0039245569" flag="0"/>
      <psa30 value="0.0006467241" flag="0"/>
    </comp>
    <comp name="--.HHZ">
      <acc value="0.0048129610" flag="0"/>
      <vel value="0.0025689062" flag="0"/>
      <psa03 value="0.0095918754" flag="0"/>
      <psa10 value="0.0024827236" flag="0"/>
      <psa30 value="0.0002377028" flag="0"/>
    </comp>
  </station>
</stationlist>
