<stationlist created="1778136888">
	<station code="KRL1" name="KRL1" netid="HI" source="ITSAK Strong Motion Network" insttype="" lat="37.7951" lon="26.7065">
		<comp name="--.HNE" depth="0.0">
			<acc value="0.0104726053733123" flag="0"/>
			<vel value="0.00901579445366018" flag="0"/>
			<psa03 value="0.0293258723826331" flag="0"/>
			<psa10 value="0.0126430906677178" flag="0"/>
			<psa30 value="0.000593131271201956" flag="0"/>
		</comp>
		<comp name="--.HNN" depth="0.0">
			<acc value="0.00909815521492285" flag="0"/>
			<vel value="0.00809478150351431" flag="0"/>
			<psa03 value="0.018551417742453" flag="0"/>
			<psa10 value="0.0149763499221682" flag="0"/>
			<psa30 value="0.000522214333718304" flag="0"/>
		</comp>
		<comp name="--.HNZ" depth="0.0">
			<acc value="0.00535878633276236" flag="0"/>
			<vel value="0.00291907338819074" flag="0"/>
			<psa03 value="0.0130639396406285" flag="0"/>
			<psa10 value="0.00394639814825975" flag="0"/>
			<psa30 value="0.000254002347242202" flag="0"/>
		</comp>
	</station>
	<station code="KSS1" name="KSS1" netid="HI" source="ITSAK Strong Motion Network" insttype="" lat="35.4189" lon="26.9207">
		<comp name="--.HNE" depth="0.0">
			<acc value="0.0063373886158623" flag="0"/>
			<vel value="0.00245317827145868" flag="0"/>
			<psa03 value="0.018103807361289" flag="0"/>
			<psa10 value="0.00131256011472741" flag="0"/>
			<psa30 value="0.000120274347793714" flag="0"/>
		</comp>
		<comp name="--.HNN" depth="0.0">
			<acc value="0.00643285357484568" flag="0"/>
			<vel value="0.00269040413225517" flag="0"/>
			<psa03 value="0.0187829135466591" flag="0"/>
			<psa10 value="0.00207233829786518" flag="0"/>
			<psa30 value="0.000132366659266502" flag="0"/>
		</comp>
		<comp name="--.HNZ" depth="0.0">
			<acc value="0.00444263609155124" flag="0"/>
			<vel value="0.00141885385079171" flag="0"/>
			<psa03 value="0.00526624111522228" flag="0"/>
			<psa10 value="0.00183180732480718" flag="0"/>
			<psa30 value="0.000135152820398497" flag="0"/>
		</comp>
	</station>
	<station code="NAX1" name="NAX1" netid="HI" source="ITSAK Strong Motion Network" insttype="" lat="37.101394" lon="25.374103">
		<comp name="--.HNE" depth="0.0">
			<acc value="0.00495554221111827" flag="0"/>
			<vel value="0.00309346896668051" flag="0"/>
			<psa03 value="0.0160163513692396" flag="0"/>
			<psa10 value="0.00275699795008153" flag="0"/>
			<psa30 value="0.000202206819688583" flag="0"/>
		</comp>
		<comp name="--.HNN" depth="0.0">
			<acc value="0.00762978120503526" flag="0"/>
			<vel value="0.00485110896081255" flag="0"/>
			<psa03 value="0.0248229126253119" flag="0"/>
			<psa10 value="0.00314170101289914" flag="0"/>
			<psa30 value="0.000274508132733439" flag="0"/>
		</comp>
		<comp name="--.HNZ" depth="0.0">
			<acc value="0.00350460619320893" flag="0"/>
			<vel value="0.00226303215761836" flag="0"/>
			<psa03 value="0.0113942652308271" flag="0"/>
			<psa10 value="0.00180780315652307" flag="0"/>
			<psa30 value="0.000184585313808603" flag="0"/>
		</comp>
	</station>
	<station code="AGNA" name="AGNA" netid="HL" source="National Observatory of Athens Seismic Network" insttype="" lat="35.1895" lon="25.71853">
		<comp name="00.HNE" depth="0.0">
			<acc value="0.00393341793566297" flag="0"/>
			<vel value="0.00275684055763874" flag="0"/>
			<psa03 value="0.00663848989760131" flag="0"/>
			<psa10 value="0.0022979937933125" flag="0"/>
			<psa30 value="0.000226019529976238" flag="0"/>
		</comp>
		<comp name="00.HNN" depth="0.0">
			<acc value="0.00528963777941504" flag="0"/>
			<vel value="0.00325449585929802" flag="0"/>
			<psa03 value="0.0105648411449039" flag="0"/>
			<psa10 value="0.00528977370278374" flag="0"/>
			<psa30 value="0.00050048502967663" flag="0"/>
		</comp>
		<comp name="00.HNZ" depth="0.0">
			<acc value="0.0094633100122215" flag="0"/>
			<vel value="0.00133636725651479" flag="0"/>
			<psa03 value="0.00519031062946236" flag="0"/>
			<psa10 value="0.00120231746012964" flag="0"/>
			<psa30 value="0.000241417008316988" flag="0"/>
		</comp>
	</station>
	<station code="KARP" name="KARP" netid="HL" source="National Observatory of Athens Seismic Network" insttype="" lat="35.5471" lon="27.16106">
		<comp name="--.HNE" depth="0.0">
			<acc value="0.0222273569042071" flag="0"/>
			<vel value="0.00676144895825505" flag="0"/>
			<psa03 value="0.0268697695737063" flag="0"/>
			<psa10 value="0.00827462221560222" flag="0"/>
			<psa30 value="0.00059263712388297" flag="0"/>
		</comp>
		<comp name="--.HNN" depth="0.0">
			<acc value="0.033700505658916" flag="0"/>
			<vel value="0.00786911238295111" flag="0"/>
			<psa03 value="0.0255428926121115" flag="0"/>
			<psa10 value="0.00621035656189104" flag="0"/>
			<psa30 value="0.00032312044160163" flag="0"/>
		</comp>
		<comp name="--.HNZ" depth="0.0">
			<acc value="0.0117734835217922" flag="0"/>
			<vel value="0.00463240934130009" flag="0"/>
			<psa03 value="0.0171409167515978" flag="0"/>
			<psa10 value="0.00448284352890057" flag="0"/>
			<psa30 value="0.000216443335704699" flag="0"/>
		</comp>
	</station>
	<station code="KLNA" name="KLNA" netid="HL" source="National Observatory of Athens Seismic Network" insttype="" lat="36.95708" lon="26.97274">
		<comp name="00.HNE" depth="0.0">
			<acc value="0.0657439267114383" flag="0"/>
			<vel value="0.0268325437718785" flag="0"/>
			<psa03 value="0.194108462899828" flag="0"/>
			<psa10 value="0.0072990593081261" flag="0"/>
			<psa30 value="0.000753431369462947" flag="0"/>
		</comp>
		<comp name="00.HNN" depth="0.0">
			<acc value="0.0641908948672346" flag="0"/>
			<vel value="0.0239257247667093" flag="0"/>
			<psa03 value="0.199920952115182" flag="0"/>
			<psa10 value="0.00671964686238491" flag="0"/>
			<psa30 value="0.000550922693839861" flag="0"/>
		</comp>
		<comp name="00.HNZ" depth="0.0">
			<acc value="0.113274537687262" flag="0"/>
			<vel value="0.0249567722687669" flag="0"/>
			<psa03 value="0.0647045832362531" flag="0"/>
			<psa10 value="0.00328137643758439" flag="0"/>
			<psa30 value="0.000492271464734432" flag="0"/>
		</comp>
	</station>
	<station code="NISR" name="NISR" netid="HL" source="National Observatory of Athens Seismic Network" insttype="" lat="36.6106" lon="27.131">
		<comp name="--.HNE" depth="0.0">
			<acc value="0.651678702498449" flag="0"/>
			<vel value="0.176244443218442" flag="0"/>
			<psa03 value="0.568458949281751" flag="0"/>
			<psa10 value="0.0347393875639448" flag="0"/>
			<psa30 value="0.00439407733605661" flag="0"/>
		</comp>
		<comp name="--.HNN" depth="0.0">
			<acc value="0.584339044399237" flag="0"/>
			<vel value="0.105422116141052" flag="0"/>
			<psa03 value="0.344787465477362" flag="0"/>
			<psa10 value="0.0183521707412542" flag="0"/>
			<psa30 value="0.00197351136044163" flag="0"/>
		</comp>
		<comp name="--.HNZ" depth="0.0">
			<acc value="0.276980615730965" flag="0"/>
			<vel value="0.0490592023302749" flag="0"/>
			<psa03 value="0.182143336935414" flag="0"/>
			<psa10 value="0.0232075105086799" flag="0"/>
			<psa30 value="0.00143228384011022" flag="0"/>
		</comp>
	</station>
	<station code="RODB" name="RODB" netid="HL" source="National Observatory of Athens Seismic Network" insttype="" lat="36.4471" lon="28.22116">
		<comp name="00.HNE" depth="0.0">
			<acc value="0.00899478054126192" flag="0"/>
			<vel value="0.00736903719151328" flag="0"/>
			<psa03 value="0.0273018242368641" flag="0"/>
			<psa10 value="0.0114430861732911" flag="0"/>
			<psa30 value="0.00115779940686278" flag="0"/>
		</comp>
		<comp name="00.HNN" depth="0.0">
			<acc value="0.0100270996249311" flag="0"/>
			<vel value="0.00552860192250208" flag="0"/>
			<psa03 value="0.0250079300901168" flag="0"/>
			<psa10 value="0.00793467719590736" flag="0"/>
			<psa30 value="0.00104459378254573" flag="0"/>
		</comp>
		<comp name="00.HNZ" depth="0.0">
			<acc value="0.006070024521389" flag="0"/>
			<vel value="0.00406692172500634" flag="0"/>
			<psa03 value="0.0149723785653366" flag="0"/>
			<psa10 value="0.00597515410588616" flag="0"/>
			<psa30 value="0.000448944375776841" flag="0"/>
		</comp>
	</station>
	<station code="THRA" name="THRA" netid="HL" source="National Observatory of Athens Seismic Network" insttype="" lat="36.41502" lon="25.43244">
		<comp name="00.HNE" depth="0.0">
			<acc value="0.0215970399848369" flag="0"/>
			<vel value="0.0158468586191609" flag="0"/>
			<psa03 value="0.0602597679557381" flag="0"/>
			<psa10 value="0.0209530730382752" flag="0"/>
			<psa30 value="0.00271504256658037" flag="0"/>
		</comp>
		<comp name="00.HNN" depth="0.0">
			<acc value="0.0289730006754041" flag="0"/>
			<vel value="0.0214098751285703" flag="0"/>
			<psa03 value="0.0453979709342238" flag="0"/>
			<psa10 value="0.01906836506061" flag="0"/>
			<psa30 value="0.00123886779807708" flag="0"/>
		</comp>
		<comp name="00.HNZ" depth="0.0">
			<acc value="0.0202478823359666" flag="0"/>
			<vel value="0.0107760957162296" flag="0"/>
			<psa03 value="0.0420101006713472" flag="0"/>
			<psa10 value="0.00997875666864596" flag="0"/>
			<psa30 value="0.000607695673522756" flag="0"/>
		</comp>
	</station>
</stationlist>
