<?xml version="1.0" encoding="UTF-8" standalone="yes"?>
<!DOCTYPE earthquake SYSTEM "stationlist.dtd">
<stationlist created="" xmlns="ch.ethz.sed.shakemap.usgs.xml">
  <station code="KARP" name="KARP" netid="GE" insttype="STS-2/N" lat="35.5471" lon="27.1611">
    <comp name="--.HHN">
      <acc value="0.0529213013" flag="0"/>
      <vel value="0.0195107011" flag="0"/>
      <psa03 value="0.0838832376" flag="0"/>
      <psa10 value="0.0225924454" flag="0"/>
      <psa30 value="0.0012121909" flag="0"/>
    </comp>
    <comp name="--.HHZ">
      <acc value="0.0282853081" flag="0"/>
      <vel value="0.0134505374" flag="0"/>
      <psa03 value="0.0477472958" flag="0"/>
      <psa10 value="0.0114772661" flag="0"/>
      <psa30 value="0.0011572417" flag="0"/>
    </comp>
    <comp name="--.HHE">
      <acc value="0.0562977642" flag="0"/>
      <vel value="0.0193493023" flag="0"/>
      <psa03 value="0.0817839475" flag="0"/>
      <psa10 value="0.0213108079" flag="0"/>
      <psa30 value="0.0010883342" flag="0"/>
    </comp>
  </station>
</stationlist>
