<stationlist created="1778136406">
	<station code="AGRP" name="AGRP" netid="CL" source="Corinth Riff Laboratory (CRLNET)" insttype="" lat="38.3959" lon="21.72277">
		<comp name="00.HNE" depth="0.0">
			<acc value="0.0564730033801606" flag="0"/>
			<vel value="0.0163713289085015" flag="0"/>
			<psa03 value="0.0665764034479884" flag="0"/>
			<psa10 value="0.00834352669017532" flag="0"/>
			<psa30 value="0.00133779197788633" flag="0"/>
		</comp>
		<comp name="00.HNN" depth="0.0">
			<acc value="0.039992695698763" flag="0"/>
			<vel value="0.0179784698106777" flag="0"/>
			<psa03 value="0.0585228062566995" flag="0"/>
			<psa10 value="0.0155917641623353" flag="0"/>
			<psa30 value="0.00168946572190594" flag="0"/>
		</comp>
		<comp name="00.HNZ" depth="0.0">
			<acc value="0.0207511482763502" flag="0"/>
			<vel value="0.00705095244596527" flag="0"/>
			<psa03 value="0.0288587232687853" flag="0"/>
			<psa10 value="0.00694622757748669" flag="0"/>
			<psa30 value="0.00109842117247857" flag="0"/>
		</comp>
	</station>
	<station code="MALA" name="MALA" netid="CL" source="Corinth Riff Laboratory (CRLNET)" insttype="" lat="38.39341" lon="21.87263">
		<comp name="01.HNE" depth="0.0">
			<acc value="0.0846311255809356" flag="0"/>
			<vel value="0.0277290519622357" flag="0"/>
			<psa03 value="0.131363118631246" flag="0"/>
			<psa10 value="0.0562584031797487" flag="0"/>
			<psa30 value="0.0044581134674446" flag="0"/>
		</comp>
		<comp name="01.HNN" depth="0.0">
			<acc value="0.0922133765267577" flag="0"/>
			<vel value="0.0248123968606222" flag="0"/>
			<psa03 value="0.0758827824245889" flag="0"/>
			<psa10 value="0.0398814132912627" flag="0"/>
			<psa30 value="0.00450106598579814" flag="0"/>
		</comp>
		<comp name="01.HNZ" depth="0.0">
			<acc value="0.0231898708761801" flag="0"/>
			<vel value="0.00903740190909942" flag="0"/>
			<psa03 value="0.0342277880629779" flag="0"/>
			<psa10 value="0.00918512759666501" flag="0"/>
			<psa30 value="0.00192480972871805" flag="0"/>
		</comp>
	</station>
	<station code="ROD3" name="ROD3" netid="CL" source="Corinth Riff Laboratory (CRLNET)" insttype="" lat="38.30811" lon="21.89204">
		<comp name="00.HNE" depth="0.0">
			<acc value="0.100064759766918" flag="0"/>
			<vel value="0.0361459639624264" flag="0"/>
			<psa03 value="0.253285631666036" flag="0"/>
			<psa10 value="0.013715276016765" flag="0"/>
			<psa30 value="0.00106217998511777" flag="0"/>
		</comp>
		<comp name="00.HNN" depth="0.0">
			<acc value="0.0936493537319391" flag="0"/>
			<vel value="0.0307675817022773" flag="0"/>
			<psa03 value="0.149528454518264" flag="0"/>
			<psa10 value="0.017701806626453" flag="0"/>
			<psa30 value="0.00135345175020272" flag="0"/>
		</comp>
		<comp name="00.HNZ" depth="0.0">
			<acc value="0.0425032761312188" flag="0"/>
			<vel value="0.0130220105651015" flag="0"/>
			<psa03 value="0.0337803659967952" flag="0"/>
			<psa10 value="0.00847238424523594" flag="0"/>
			<psa30 value="0.000585228062566994" flag="0"/>
		</comp>
	</station>
	<station code="AIGS" name="AIGS" netid="HA" source="Hellenic Seismological Network, University of Athens, Seismological Laboratory (HA)" insttype="" lat="38.25001" lon="22.0878">
		<comp name="--.HNE" depth="0.0">
			<acc value="0.0366946516922128" flag="0"/>
			<vel value="0.0131550855520133" flag="0"/>
			<psa03 value="0.0620574405795429" flag="0"/>
			<psa10 value="0.00885493011182216" flag="0"/>
			<psa30 value="0.00206172088096996" flag="0"/>
		</comp>
		<comp name="--.HNN" depth="0.0">
			<acc value="0.0330550158079242" flag="0"/>
			<vel value="0.00940718973254139" flag="0"/>
			<psa03 value="0.0432657137998688" flag="0"/>
			<psa10 value="0.0127649515481929" flag="0"/>
			<psa30 value="0.00167783274818519" flag="0"/>
		</comp>
		<comp name="--.HNZ" depth="0.0">
			<acc value="0.0266305866022178" flag="0"/>
			<vel value="0.00595279141274719" flag="0"/>
			<psa03 value="0.0200445085649857" flag="0"/>
			<psa10 value="0.0109609457773442" flag="0"/>
			<psa30 value="0.00130199821259171" flag="0"/>
		</comp>
	</station>
	<station code="KIAS" name="KIAS" netid="HA" source="Hellenic Seismological Network, University of Athens, Seismological Laboratory (HA)" insttype="" lat="37.9875" lon="22.7543">
		<comp name="--.HNE" depth="0.0">
			<acc value="0.00692589148713868" flag="0"/>
			<vel value="0.00974121219323124" flag="0"/>
			<psa03 value="0.0146307015641749" flag="0"/>
			<psa10 value="0.0155233085862094" flag="0"/>
			<psa30 value="0.00453283295249711" flag="0"/>
		</comp>
		<comp name="--.HNN" depth="0.0">
			<acc value="0.00611077040529616" flag="0"/>
			<vel value="0.00750079259008914" flag="0"/>
			<psa03 value="0.013825341845046" flag="0"/>
			<psa10 value="0.00975693299724652" flag="0"/>
			<psa30 value="0.00258207274394046" flag="0"/>
		</comp>
		<comp name="--.HNZ" depth="0.0">
			<acc value="0.00458969508924103" flag="0"/>
			<vel value="0.00372676418287827" flag="0"/>
			<psa03 value="0.008232566017762" flag="0"/>
			<psa10 value="0.00469927396111708" flag="0"/>
			<psa30 value="0.00140087848921809" flag="0"/>
		</comp>
	</station>
	<station code="XLKS" name="XLKS" netid="HA" source="Hellenic Seismological Network, University of Athens, Seismological Laboratory (HA)" insttype="" lat="38.0772" lon="22.6361">
		<comp name="--.HNE" depth="0.0">
			<acc value="0.0144591900642295" flag="0"/>
			<vel value="0.0154994314149729" flag="0"/>
			<psa03 value="0.0295745985746776" flag="0"/>
			<psa10 value="0.0219541059434536" flag="0"/>
			<psa30 value="0.00390554721570894" flag="0"/>
		</comp>
		<comp name="--.HNN" depth="0.0">
			<acc value="0.0117479451918514" flag="0"/>
			<vel value="0.017537501888526" flag="0"/>
			<psa03 value="0.0244739870201947" flag="0"/>
			<psa10 value="0.0152132450943448" flag="0"/>
			<psa30 value="0.00707776966494441" flag="0"/>
		</comp>
		<comp name="--.HNZ" depth="0.0">
			<acc value="0.00865703968207359" flag="0"/>
			<vel value="0.00584264194064248" flag="0"/>
			<psa03 value="0.0202682195980771" flag="0"/>
			<psa10 value="0.0113072504565696" flag="0"/>
			<psa30 value="0.00188185721036451" flag="0"/>
		</comp>
	</station>
	<station code="ART2" name="ART2" netid="HI" source="ITSAK Strong Motion Network" insttype="" lat="39.1474" lon="20.9937">
		<comp name="--.HNE" depth="0.0">
			<acc value="0.025235733248837" flag="0"/>
			<vel value="0.00586229004514996" flag="0"/>
			<psa03 value="0.0390826150731096" flag="0"/>
			<psa10 value="0.00967058844152634" flag="0"/>
			<psa30 value="0.00108411879671641" flag="0"/>
		</comp>
		<comp name="--.HNN" depth="0.0">
			<acc value="0.0273793401472116" flag="0"/>
			<vel value="0.0070143623530596" flag="0"/>
			<psa03 value="0.046321704002033" flag="0"/>
			<psa10 value="0.00697724017666725" flag="0"/>
			<psa30 value="0.000811660487275859" flag="0"/>
		</comp>
		<comp name="--.HNZ" depth="0.0">
			<acc value="0.020353896951491" flag="0"/>
			<vel value="0.00606342946367976" flag="0"/>
			<psa03 value="0.0252932823266368" flag="0"/>
			<psa10 value="0.0065225633378046" flag="0"/>
			<psa30 value="0.000949705830018402" flag="0"/>
		</comp>
	</station>
	<station code="KLV1" name="KLV1" netid="HI" source="ITSAK Strong Motion Network" insttype="" lat="38.03256" lon="22.10797">
		<comp name="--.HNE" depth="0.0">
			<acc value="0.0176217860188274" flag="0"/>
			<vel value="0.00797092881099659" flag="0"/>
			<psa03 value="0.0514051813826319" flag="0"/>
			<psa10 value="0.014543617193245" flag="0"/>
			<psa30 value="0.000728053542473644" flag="0"/>
		</comp>
		<comp name="--.HNN" depth="0.0">
			<acc value="0.0147072200902204" flag="0"/>
			<vel value="0.00821603438631808" flag="0"/>
			<psa03 value="0.0342911934982797" flag="0"/>
			<psa10 value="0.0108921793659099" flag="0"/>
			<psa30 value="0.000901209388197522" flag="0"/>
		</comp>
		<comp name="--.HNZ" depth="0.0">
			<acc value="0.0108124769387403" flag="0"/>
			<vel value="0.00437995495428863" flag="0"/>
			<psa03 value="0.015417400233342" flag="0"/>
			<psa10 value="0.0064835593477396" flag="0"/>
			<psa30 value="0.000539913266602042" flag="0"/>
		</comp>
	</station>
	<station code="MSL1" name="MSL1" netid="HI" source="ITSAK Strong Motion Network" insttype="" lat="38.3727" lon="21.4243">
		<comp name="--.HNE" depth="0.0">
			<acc value="0.199547092846497" flag="0"/>
			<vel value="0.0737096439074734" flag="0"/>
			<psa03 value="0.431560713779167" flag="0"/>
			<psa10 value="0.105379190854222" flag="0"/>
			<psa30 value="0.00670541586756961" flag="0"/>
		</comp>
		<comp name="--.HNN" depth="0.0">
			<acc value="0.247064322223473" flag="0"/>
			<vel value="0.10357395012534" flag="0"/>
			<psa03 value="0.751567620998527" flag="0"/>
			<psa10 value="0.0775299284772583" flag="0"/>
			<psa30 value="0.00970550627547436" flag="0"/>
		</comp>
		<comp name="--.HNZ" depth="0.0">
			<acc value="0.126075015550808" flag="0"/>
			<vel value="0.0479667488063261" flag="0"/>
			<psa03 value="0.233451319170774" flag="0"/>
			<psa10 value="0.0640803750102242" flag="0"/>
			<psa30 value="0.0032359033210466" flag="0"/>
		</comp>
	</station>
	<station code="VAS2" name="VAS2" netid="HI" source="ITSAK Strong Motion Network" insttype="" lat="38.630558" lon="20.608081">
		<comp name="--.HNE" depth="0.0">
			<acc value="8.11661309882403" flag="0"/>
			<vel value="3.81145114223755" flag="0"/>
			<psa03 value="12.5531755862775" flag="0"/>
			<psa10 value="2.67486199647877" flag="0"/>
			<psa30 value="0.13672657746453" flag="0"/>
		</comp>
		<comp name="--.HNN" depth="0.0">
			<acc value="8.43387944050632" flag="0"/>
			<vel value="4.13140350089549" flag="0"/>
			<psa03 value="23.5474745712977" flag="0"/>
			<psa10 value="2.8364114183346" flag="0"/>
			<psa30 value="0.191415160314806" flag="0"/>
		</comp>
		<comp name="--.HNZ" depth="0.0">
			<acc value="4.92794641370807" flag="0"/>
			<vel value="1.5508989533726" flag="0"/>
			<psa03 value="6.2990686157254" flag="0"/>
			<psa10 value="1.0657904833897" flag="0"/>
			<psa30 value="0.0681513613599485" flag="0"/>
		</comp>
	</station>
	<station code="DLFA" name="DLFA" netid="HL" source="National Observatory of Athens Seismic Network" insttype="" lat="38.47836" lon="22.49583">
		<comp name="00.HNE" depth="0.0">
			<acc value="0.0042633256642674" flag="0"/>
			<vel value="0.00389851294800764" flag="0"/>
			<psa03 value="0.0109416480075724" flag="0"/>
			<psa10 value="0.00333574355476594" flag="0"/>
			<psa30 value="0.00117467094118418" flag="0"/>
		</comp>
		<comp name="00.HNN" depth="0.0">
			<acc value="0.0049117584894196" flag="0"/>
			<vel value="0.00358674785735751" flag="0"/>
			<psa03 value="0.0113073219712599" flag="0"/>
			<psa10 value="0.00569703427556012" flag="0"/>
			<psa30 value="0.000625136360130319" flag="0"/>
		</comp>
		<comp name="00.HNZ" depth="0.0">
			<acc value="0.00396763850016164" flag="0"/>
			<vel value="0.00237115758084198" flag="0"/>
			<psa03 value="0.00669803941535368" flag="0"/>
			<psa10 value="0.0024056435027023" flag="0"/>
			<psa30 value="0.000522818123716152" flag="0"/>
		</comp>
	</station>
	<station code="ITM" name="ITM" netid="HL" source="National Observatory of Athens Seismic Network" insttype="" lat="37.17872" lon="21.92522">
		<comp name="--.HNE" depth="0.0">
			<acc value="0.00474332267883903" flag="0"/>
			<vel value="0.0047073645023787" flag="0"/>
			<psa03 value="0.0126967278146382" flag="0"/>
			<psa10 value="0.00363554825910414" flag="0"/>
			<psa30 value="0.00111505272093687" flag="0"/>
		</comp>
		<comp name="--.HNN" depth="0.0">
			<acc value="0.0059292844247316" flag="0"/>
			<vel value="0.00470308625176272" flag="0"/>
			<psa03 value="0.0112312010432058" flag="0"/>
			<psa10 value="0.00624456210909975" flag="0"/>
			<psa30 value="0.000985193180879196" flag="0"/>
		</comp>
		<comp name="--.HNZ" depth="0.0">
			<acc value="0.00317340423239701" flag="0"/>
			<vel value="0.00438197912588073" flag="0"/>
			<psa03 value="0.00838867745349725" flag="0"/>
			<psa10 value="0.0039859370175151" flag="0"/>
			<psa30 value="0.000676985524050187" flag="0"/>
		</comp>
	</station>
	<station code="JAN" name="JAN" netid="HL" source="National Observatory of Athens Seismic Network" insttype="" lat="39.65616" lon="20.84874">
		<comp name="00.HNE" depth="0.0">
			<acc value="0.0185957671176814" flag="0"/>
			<vel value="0.00812813633856344" flag="0"/>
			<psa03 value="0.0492573203473437" flag="0"/>
			<psa10 value="0.0116168923745941" flag="0"/>
			<psa30 value="0.00154643796476055" flag="0"/>
		</comp>
		<comp name="00.HNN" depth="0.0">
			<acc value="0.0119834570991778" flag="0"/>
			<vel value="0.00464464027749695" flag="0"/>
			<psa03 value="0.0291236506530852" flag="0"/>
			<psa10 value="0.00625160320052204" flag="0"/>
			<psa30 value="0.000619515206509271" flag="0"/>
		</comp>
		<comp name="00.HNZ" depth="0.0">
			<acc value="0.00826801222527328" flag="0"/>
			<vel value="0.00437395183676694" flag="0"/>
			<psa03 value="0.0302420580754357" flag="0"/>
			<psa10 value="0.00502454019489674" flag="0"/>
			<psa30 value="0.000842777340281011" flag="0"/>
		</comp>
	</station>
	<station code="PATC" name="PATC" netid="HL" source="National Observatory of Athens Seismic Network" insttype="" lat="38.26933" lon="21.76001">
		<comp name="00.HNE" depth="0.0">
			<acc value="0.0552817538442098" flag="0"/>
			<vel value="0.020782714168576" flag="0"/>
			<psa03 value="0.111567682478242" flag="0"/>
			<psa10 value="0.0265561973427242" flag="0"/>
			<psa30 value="0.0040456213358918" flag="0"/>
		</comp>
		<comp name="00.HNN" depth="0.0">
			<acc value="0.0671743019480732" flag="0"/>
			<vel value="0.0296336034917498" flag="0"/>
			<psa03 value="0.115290564517371" flag="0"/>
			<psa10 value="0.034024912733495" flag="0"/>
			<psa30 value="0.0058181825093807" flag="0"/>
		</comp>
		<comp name="00.HNZ" depth="0.0">
			<acc value="0.0368929737583986" flag="0"/>
			<vel value="0.0139751741049969" flag="0"/>
			<psa03 value="0.0534661147842108" flag="0"/>
			<psa10 value="0.0156832989415967" flag="0"/>
			<psa30 value="0.00218136179618013" flag="0"/>
		</comp>
	</station>
	<station code="PATG" name="PATG" netid="HL" source="National Observatory of Athens Seismic Network" insttype="" lat="38.23865" lon="21.72657">
		<comp name="00.HNE" depth="0.0">
			<acc value="0.050971080972959" flag="0"/>
			<vel value="0.0268481239217725" flag="0"/>
			<psa03 value="0.0830275105815825" flag="0"/>
			<psa10 value="0.0319815411201246" flag="0"/>
			<psa30 value="0.00534538368878228" flag="0"/>
		</comp>
		<comp name="00.HNN" depth="0.0">
			<acc value="0.0432040334802185" flag="0"/>
			<vel value="0.0280076157261913" flag="0"/>
			<psa03 value="0.0690147020934531" flag="0"/>
			<psa10 value="0.0303773348493624" flag="0"/>
			<psa30 value="0.00656487655752366" flag="0"/>
		</comp>
		<comp name="00.HNZ" depth="0.0">
			<acc value="0.0220718759180332" flag="0"/>
			<vel value="0.0112022971725777" flag="0"/>
			<psa03 value="0.0371074347479549" flag="0"/>
			<psa10 value="0.0218967124247291" flag="0"/>
			<psa30 value="0.00427965517281945" flag="0"/>
		</comp>
	</station>
	<station code="RIOA" name="RIOA" netid="HL" source="National Observatory of Athens Seismic Network" insttype="" lat="38.29585" lon="21.79118">
		<comp name="00.HNE" depth="0.0">
			<acc value="0.0858422127896452" flag="0"/>
			<vel value="0.0238115122121628" flag="0"/>
			<psa03 value="0.10641997688466" flag="0"/>
			<psa10 value="0.0156601411575001" flag="0"/>
			<psa30 value="0.00285208018631682" flag="0"/>
		</comp>
		<comp name="00.HNN" depth="0.0">
			<acc value="0.132793895948882" flag="0"/>
			<vel value="0.0374964725999795" flag="0"/>
			<psa03 value="0.133219023023097" flag="0"/>
			<psa10 value="0.0246037242510011" flag="0"/>
			<psa30 value="0.00256300791169355" flag="0"/>
		</comp>
		<comp name="00.HNZ" depth="0.0">
			<acc value="0.0515098470611886" flag="0"/>
			<vel value="0.012707042257742" flag="0"/>
			<psa03 value="0.0500326217071063" flag="0"/>
			<psa10 value="0.012021015395769" flag="0"/>
			<psa30 value="0.00160707062721061" flag="0"/>
		</comp>
	</station>
	<station code="ANX" name="ANX" netid="HP" source="University of Patras, Seismological Laboratory (PSLNET)" insttype="" lat="38.5933" lon="21.9209">
		<comp name="--.HNE" depth="0.0">
			<acc value="0.0406867942516826" flag="0"/>
			<vel value="0.0150450013556136" flag="0"/>
			<psa03 value="0.0825402230929732" flag="0"/>
			<psa10 value="0.0145116360121716" flag="0"/>
			<psa30 value="0.00135517466950249" flag="0"/>
		</comp>
		<comp name="--.HNN" depth="0.0">
			<acc value="0.0340808591129896" flag="0"/>
			<vel value="0.0206217618688388" flag="0"/>
			<psa03 value="0.0666756877704539" flag="0"/>
			<psa10 value="0.0157405352332049" flag="0"/>
			<psa30 value="0.00141890899575851" flag="0"/>
		</comp>
		<comp name="--.HNZ" depth="0.0">
			<acc value="0.0188864091681113" flag="0"/>
			<vel value="0.00832264246297894" flag="0"/>
			<psa03 value="0.033911405318359" flag="0"/>
			<psa10 value="0.0085021816653239" flag="0"/>
			<psa30 value="0.000757492159303557" flag="0"/>
		</comp>
	</station>
	<station code="GUR" name="GUR" netid="HP" source="University of Patras, Seismological Laboratory (PSLNET)" insttype="" lat="37.9363" lon="22.3423">
		<comp name="--.HNE" depth="0.0">
			<acc value="0.0110091226296956" flag="0"/>
			<vel value="0.00722797168731633" flag="0"/>
			<psa03 value="0.0274490970137963" flag="0"/>
			<psa10 value="0.0122479551169184" flag="0"/>
			<psa30 value="0.00065159170641995" flag="0"/>
		</comp>
		<comp name="--.HNN" depth="0.0">
			<acc value="0.0107826493155713" flag="0"/>
			<vel value="0.00739144691294323" flag="0"/>
			<psa03 value="0.040955351111864" flag="0"/>
			<psa10 value="0.00696195041378224" flag="0"/>
			<psa30 value="0.000516238729531089" flag="0"/>
		</comp>
		<comp name="--.HNZ" depth="0.0">
			<acc value="0.00495590011335326" flag="0"/>
			<vel value="0.0032643075989411" flag="0"/>
			<psa03 value="0.011930662743709" flag="0"/>
			<psa10 value="0.00796057922432093" flag="0"/>
			<psa30 value="0.000367833195269123" flag="0"/>
		</comp>
	</station>
	<station code="LTK" name="LTK" netid="HP" source="University of Patras, Seismological Laboratory (PSLNET)" insttype="" lat="38.0228" lon="22.9673">
		<comp name="--.HNE" depth="0.0">
			<acc value="0.00174449180478086" flag="0"/>
			<vel value="0.00184015058303434" flag="0"/>
			<psa03 value="0.00460137968863194" flag="0"/>
			<psa10 value="0.00292207779206335" flag="0"/>
			<psa30 value="0.00049494919420429" flag="0"/>
		</comp>
		<comp name="--.HNN" depth="0.0">
			<acc value="0.00246031051179496" flag="0"/>
			<vel value="0.00172814545198708" flag="0"/>
			<psa03 value="0.0069173325882881" flag="0"/>
			<psa10 value="0.00206435425333922" flag="0"/>
			<psa30 value="0.00056345769088875" flag="0"/>
		</comp>
		<comp name="--.HNZ" depth="0.0">
			<acc value="0.00211725853918488" flag="0"/>
			<vel value="0.00140705579601452" flag="0"/>
			<psa03 value="0.00530806289613658" flag="0"/>
			<psa10 value="0.00226297678610693" flag="0"/>
			<psa30 value="0.000299825408836822" flag="0"/>
		</comp>
	</station>
	<station code="PDO" name="PDO" netid="HP" source="University of Patras, Seismological Laboratory (PSLNET)" insttype="" lat="38.5986" lon="21.1833">
		<comp name="--.HNE" depth="0.0">
			<acc value="0.105212457360412" flag="0"/>
			<vel value="0.032333660566326" flag="0"/>
			<psa03 value="0.155829312510714" flag="0"/>
			<psa10 value="0.0167672482479128" flag="0"/>
			<psa30 value="0.0029424774246882" flag="0"/>
		</comp>
		<comp name="--.HNN" depth="0.0">
			<acc value="0.164721059939224" flag="0"/>
			<vel value="0.0532732502292433" flag="0"/>
			<psa03 value="0.210571699341836" flag="0"/>
			<psa10 value="0.0204319291400295" flag="0"/>
			<psa30 value="0.00442039991313218" flag="0"/>
		</comp>
		<comp name="--.HNZ" depth="0.0">
			<acc value="0.109176033743903" flag="0"/>
			<vel value="0.0237676169503394" flag="0"/>
			<psa03 value="0.0983926534472857" flag="0"/>
