<?xml version="1.0" encoding="UTF-8" standalone="yes"?>
<!DOCTYPE earthquake SYSTEM "stationlist.dtd">
<stationlist created="" xmlns="ch.ethz.sed.shakemap.usgs.xml">
  <station code="ART2" name="ART2" netid="HI" insttype="CMG-5TD,ACCELEROMETER,GURALP" lat="39.1474" lon="20.9937">
    <comp name="--.HNN">
      <acc value="0.0267000766" flag="0"/>
      <vel value="0.0065219752" flag="0"/>
      <psa03 value="0.0454188644" flag="0"/>
      <psa10 value="0.0070316319" flag="0"/>
      <psa30 value="0.0006418250" flag="0"/>
    </comp>
    <comp name="--.HNE">
      <acc value="0.0251479753" flag="0"/>
      <vel value="0.0056549735" flag="0"/>
      <psa03 value="0.0386458583" flag="0"/>
      <psa10 value="0.0096646519" flag="0"/>
      <psa30 value="0.0009366442" flag="0"/>
    </comp>
    <comp name="--.HNZ">
      <acc value="0.0208684516" flag="0"/>
      <vel value="0.0058496093" flag="0"/>
      <psa03 value="0.0255871179" flag="0"/>
      <psa10 value="0.0063906235" flag="0"/>
      <psa30 value="0.0007365328" flag="0"/>
    </comp>
  </station>
  <station code="MSL1" name="MSL1" netid="HI" insttype="CMG-5TD,ACCELEROMETER,GURALP" lat="38.3727" lon="21.4243">
    <comp name="--.HNN">
      <acc value="0.2462464416" flag="0"/>
      <vel value="0.1038034562" flag="0"/>
      <psa03 value="0.7469893910" flag="0"/>
      <psa10 value="0.0774004253" flag="0"/>
      <psa30 value="0.0084507358" flag="0"/>
    </comp>
    <comp name="--.HNZ">
      <acc value="0.1245870148" flag="0"/>
      <vel value="0.0475735987" flag="0"/>
      <psa03 value="0.2315001917" flag="0"/>
      <psa10 value="0.0638764012" flag="0"/>
      <psa30 value="0.0029560145" flag="0"/>
    </comp>
    <comp name="--.HNE">
      <acc value="0.2001201167" flag="0"/>
      <vel value="0.0739972348" flag="0"/>
      <psa03 value="0.4310713982" flag="0"/>
      <psa10 value="0.1048936575" flag="0"/>
      <psa30 value="0.0060896151" flag="0"/>
    </comp>
  </station>
  <station code="JAN" name="JAN" netid="HL" insttype="CMG3EPSC60_DR24" lat="39.6562" lon="20.8487">
    <comp name="--.HHE">
      <acc value="0.0572737275" flag="0"/>
      <vel value="0.0072979611" flag="0"/>
      <psa03 value="0.0571791251" flag="0"/>
      <psa10 value="0.0055172520" flag="0"/>
      <psa30 value="0.0012334603" flag="0"/>
    </comp>
    <comp name="--.HHZ">
      <acc value="0.0573429537" flag="0"/>
      <vel value="0.0042338930" flag="0"/>
      <psa03 value="0.0301631492" flag="0"/>
      <psa10 value="0.0042813818" flag="0"/>
      <psa30 value="0.0006970380" flag="0"/>
    </comp>
    <comp name="--.HHN">
      <acc value="0.1011803296" flag="0"/>
      <vel value="0.0057594758" flag="0"/>
      <psa03 value="0.0282886613" flag="0"/>
      <psa10 value="0.0062656094" flag="0"/>
      <psa30 value="0.0005605272" flag="0"/>
    </comp>
  </station>
  <station code="TETR" name="TETR" netid="HL" insttype="60" lat="39.3445" lon="21.2747">
    <comp name="--.HHE">
      <acc value="0.0332396240" flag="0"/>
      <vel value="0.0179381516" flag="0"/>
      <psa03 value="0.1113626204" flag="0"/>
      <psa10 value="0.0202792273" flag="0"/>
      <psa30 value="0.0010983131" flag="0"/>
    </comp>
    <comp name="--.HHZ">
      <acc value="0.0157935189" flag="0"/>
      <vel value="0.0074560966" flag="0"/>
      <psa03 value="0.0432297688" flag="0"/>
      <psa10 value="0.0101823494" flag="0"/>
      <psa30 value="0.0007368650" flag="0"/>
    </comp>
    <comp name="--.HHN">
      <acc value="0.0299469210" flag="0"/>
      <vel value="0.0127477072" flag="0"/>
      <psa03 value="0.0833138188" flag="0"/>
      <psa10 value="0.0177690516" flag="0"/>
      <psa30 value="0.0015533925" flag="0"/>
    </comp>
  </station>
  <station code="VLS" name="VLS" netid="HL" insttype="120P," lat="38.1768" lon="20.5886">
    <comp name="--.HHN">
      <acc value="0.1926593378" flag="0"/>
      <vel value="0.0601833611" flag="0"/>
      <psa03 value="0.2835385831" flag="0"/>
      <psa10 value="0.0349518904" flag="0"/>
      <psa30 value="0.0029767241" flag="0"/>
    </comp>
    <comp name="--.HHE">
      <acc value="0.2673187534" flag="0"/>
      <vel value="0.0856695517" flag="0"/>
      <psa03 value="0.4248411295" flag="0"/>
      <psa10 value="0.0460041346" flag="0"/>
      <psa30 value="0.0030697393" flag="0"/>
    </comp>
    <comp name="--.HHZ">
      <acc value="0.0901942205" flag="0"/>
      <vel value="0.0401803808" flag="0"/>
      <psa03 value="0.1796373294" flag="0"/>
      <psa10 value="0.0274874500" flag="0"/>
      <psa30 value="0.0018550002" flag="0"/>
    </comp>
  </station>
  <station code="AMPL" name="AMPL" netid="HP" insttype="Compact," lat="38.9224" lon="21.2135">
    <comp name="--.HHN">
      <acc value="0.1400976816" flag="0"/>
      <vel value="0.0283746863" flag="0"/>
      <psa03 value="0.0845316983" flag="0"/>
      <psa10 value="0.0207473137" flag="0"/>
      <psa30 value="0.0030302893" flag="0"/>
    </comp>
    <comp name="--.HHE">
      <acc value="0.1077905663" flag="0"/>
      <vel value="0.0300728391" flag="0"/>
      <psa03 value="0.0816120329" flag="0"/>
      <psa10 value="0.0162682005" flag="0"/>
      <psa30 value="0.0019634629" flag="0"/>
    </comp>
    <comp name="--.HHZ">
      <acc value="0.0564452166" flag="0"/>
      <vel value="0.0149069063" flag="0"/>
      <psa03 value="0.0519537979" flag="0"/>
      <psa10 value="0.0128094483" flag="0"/>
      <psa30 value="0.0013080930" flag="0"/>
    </comp>
  </station>
  <station code="ANX" name="ANX" netid="HP" insttype="120" lat="38.5933" lon="21.9209">
    <comp name="--.HHE">
      <acc value="0.0334169756" flag="0"/>
      <vel value="0.0122738330" flag="0"/>
      <psa03 value="0.0668619314" flag="0"/>
      <psa10 value="0.0116462371" flag="0"/>
      <psa30 value="0.0010583512" flag="0"/>
    </comp>
    <comp name="--.HHN">
      <acc value="0.0270130942" flag="0"/>
      <vel value="0.0160956947" flag="0"/>
      <psa03 value="0.0534560861" flag="0"/>
      <psa10 value="0.0122133473" flag="0"/>
      <psa30 value="0.0010909134" flag="0"/>
    </comp>
    <comp name="--.HHZ">
      <acc value="0.0154864053" flag="0"/>
      <vel value="0.0068234121" flag="0"/>
      <psa03 value="0.0276272153" flag="0"/>
      <psa10 value="0.0069851403" flag="0"/>
      <psa30 value="0.0005519812" flag="0"/>
    </comp>
  </station>
  <station code="AXS" name="AXS" netid="HP" insttype="40," lat="38.1962" lon="21.3763">
    <comp name="--.HHE">
      <acc value="0.0271926799" flag="0"/>
      <vel value="0.0105240550" flag="0"/>
      <psa03 value="0.0560882027" flag="0"/>
      <psa10 value="0.0104511273" flag="0"/>
      <psa30 value="0.0006206221" flag="0"/>
    </comp>
    <comp name="--.HHZ">
      <acc value="0.0152314701" flag="0"/>
      <vel value="0.0051435187" flag="0"/>
      <psa03 value="0.0228665596" flag="0"/>
      <psa10 value="0.0063851526" flag="0"/>
      <psa30 value="0.0006440561" flag="0"/>
    </comp>
    <comp name="--.HHN">
      <acc value="0.0202880389" flag="0"/>
      <vel value="0.0127238684" flag="0"/>
      <psa03 value="0.0439689959" flag="0"/>
      <psa10 value="0.0150221132" flag="0"/>
      <psa30 value="0.0015851810" flag="0"/>
    </comp>
  </station>
  <station code="EFP" name="EFP" netid="HP" insttype="40," lat="38.4269" lon="21.9058">
    <comp name="--.HHZ">
      <acc value="0.0289154254" flag="0"/>
      <vel value="0.0073271091" flag="0"/>
      <psa03 value="0.0371623933" flag="0"/>
      <psa10 value="0.0069195539" flag="0"/>
      <psa30 value="0.0006465987" flag="0"/>
    </comp>
    <comp name="--.HHN">
      <acc value="0.0523670723" flag="0"/>
      <vel value="0.0150750774" flag="0"/>
      <psa03 value="0.0620203427" flag="0"/>
      <psa10 value="0.0105013615" flag="0"/>
      <psa30 value="0.0010081647" flag="0"/>
    </comp>
    <comp name="--.HHE">
      <acc value="0.0658901479" flag="0"/>
      <vel value="0.0176169025" flag="0"/>
      <psa03 value="0.0733283022" flag="0"/>
      <psa10 value="0.0087517689" flag="0"/>
      <psa30 value="0.0011303563" flag="0"/>
    </comp>
  </station>
  <station code="FSK" name="FSK" netid="HP" insttype="40," lat="38.4593" lon="20.5623">
    <comp name="--.HHE">
      <acc value="0.6088523375" flag="0"/>
      <vel value="0.2274978719" flag="0"/>
      <psa03 value="2.5534273708" flag="0"/>
      <psa10 value="0.1082590915" flag="0"/>
      <psa30 value="0.0125249439" flag="0"/>
    </comp>
    <comp name="--.HHN">
      <acc value="0.2998399190" flag="0"/>
      <vel value="0.1575151263" flag="0"/>
      <psa03 value="0.6638517637" flag="0"/>
      <psa10 value="0.1707614117" flag="0"/>
      <psa30 value="0.0081276674" flag="0"/>
    </comp>
    <comp name="--.HHZ">
      <acc value="0.1622845412" flag="0"/>
      <vel value="0.0805367416" flag="0"/>
      <psa03 value="0.4626391625" flag="0"/>
      <psa10 value="0.0703499280" flag="0"/>
      <psa30 value="0.0078394149" flag="0"/>
    </comp>
  </station>
  <station code="LTHK" name="LTHK" netid="HP" insttype="40," lat="37.7095" lon="20.8367">
    <comp name="--.HHE">
      <acc value="0.0298890498" flag="0"/>
      <vel value="0.0174161281" flag="0"/>
      <psa03 value="0.0839060985" flag="0"/>
      <psa10 value="0.0216783607" flag="0"/>
      <psa30 value="0.0023049381" flag="0"/>
    </comp>
    <comp name="--.HHZ">
      <acc value="0.0194169791" flag="0"/>
      <vel value="0.0118600646" flag="0"/>
      <psa03 value="0.0468254316" flag="0"/>
      <psa10 value="0.0164552016" flag="0"/>
      <psa30 value="0.0014171289" flag="0"/>
    </comp>
    <comp name="--.HHN">
      <acc value="0.0357553710" flag="0"/>
      <vel value="0.0228953440" flag="0"/>
      <psa03 value="0.0744956912" flag="0"/>
      <psa10 value="0.0359726258" flag="0"/>
      <psa30 value="0.0015284982" flag="0"/>
    </comp>
  </station>
  <station code="PLEV" name="PLEV" netid="HP" insttype="Compact," lat="38.4124" lon="21.4073">
    <comp name="--.HHE">
      <acc value="0.0648216173" flag="0"/>
      <vel value="0.0293095722" flag="0"/>
      <psa03 value="0.1215670193" flag="0"/>
      <psa10 value="0.0223047230" flag="0"/>
      <psa30 value="0.0021359301" flag="0"/>
    </comp>
    <comp name="--.HHN">
      <acc value="0.0660015088" flag="0"/>
      <vel value="0.0241559302" flag="0"/>
      <psa03 value="0.1152123413" flag="0"/>
      <psa10 value="0.0233836868" flag="0"/>
      <psa30 value="0.0021628009" flag="0"/>
    </comp>
    <comp name="--.HHZ">
      <acc value="0.0559147933" flag="0"/>
      <vel value="0.0184677876" flag="0"/>
      <psa03 value="0.0708003294" flag="0"/>
      <psa10 value="0.0106545921" flag="0"/>
      <psa30 value="0.0020477364" flag="0"/>
    </comp>
  </station>
  <station code="PVO" name="PVO" netid="HP" insttype="120P," lat="38.616" lon="21.525">
    <comp name="--.HHN">
      <acc value="0.1035855165" flag="0"/>
      <vel value="0.0388884245" flag="0"/>
      <psa03 value="0.2228328378" flag="0"/>
      <psa10 value="0.0155855511" flag="0"/>
      <psa30 value="0.0030248607" flag="0"/>
    </comp>
    <comp name="--.HHZ">
      <acc value="0.0796803191" flag="0"/>
      <vel value="0.0208598299" flag="0"/>
      <psa03 value="0.1461885474" flag="0"/>
      <psa10 value="0.0139205696" flag="0"/>
      <psa30 value="0.0016999237" flag="0"/>
    </comp>
    <comp name="--.HHE">
      <acc value="0.1129322651" flag="0"/>
      <vel value="0.0348757307" flag="0"/>
      <psa03 value="0.1626720426" flag="0"/>
      <psa10 value="0.0140186861" flag="0"/>
      <psa30 value="0.0017099587" flag="0"/>
    </comp>
  </station>
  <station code="DMLN" name="DMLN" netid="HT" insttype="1s-100Hz," lat="38.2385" lon="20.3734">
    <comp name="--.HHE">
      <acc value="0.2535637109" flag="0"/>
      <vel value="0.1597392160" flag="0"/>
      <psa03 value="0.5024286139" flag="0"/>
      <psa10 value="0.0983830380" flag="0"/>
      <psa30 value="0.0071509495" flag="0"/>
    </comp>
    <comp name="--.HHN">
      <acc value="0.1978163799" flag="0"/>
      <vel value="0.1176295112" flag="0"/>
      <psa03 value="0.5650722334" flag="0"/>
      <psa10 value="0.1268219217" flag="0"/>
      <psa30 value="0.0082018028" flag="0"/>
    </comp>
    <comp name="--.HHZ">
      <acc value="0.1342020108" flag="0"/>
      <vel value="0.0817577448" flag="0"/>
      <psa03 value="0.3111627669" flag="0"/>
      <psa10 value="0.0383983282" flag="0"/>
      <psa30 value="0.0035577041" flag="0"/>
    </comp>
  </station>
  <station code="EVGI" name="EVGI" netid="HT" insttype="30" lat="38.621" lon="20.656">
    <comp name="--.HHE">
      <acc value="2.5116110770" flag="0"/>
      <vel value="0.6673965623" flag="0"/>
      <psa03 value="2.4180148113" flag="0"/>
      <psa10 value="0.2767701991" flag="0"/>
      <psa30 value="0.0209663223" flag="0"/>
    </comp>
    <comp name="--.HHZ">
      <acc value="2.5450577806" flag="0"/>
      <vel value="0.4029304233" flag="0"/>
      <psa03 value="2.1520264777" flag="0"/>
      <psa10 value="0.1508484638" flag="0"/>
      <psa30 value="0.0141481146" flag="0"/>
    </comp>
    <comp name="--.HHN">
      <acc value="3.1259461372" flag="0"/>
      <vel value="0.8308656887" flag="0"/>
      <psa03 value="3.2351972352" flag="0"/>
      <psa10 value="0.4883512312" flag="0"/>
      <psa30 value="0.0297481688" flag="0"/>
    </comp>
  </station>
  <station code="IGT" name="IGT" netid="HT" insttype="100" lat="39.5315" lon="20.3299">
    <comp name="--.HHE">
      <acc value="0.0121898913" flag="0"/>
      <vel value="0.0045178282" flag="0"/>
      <psa03 value="0.0349438729" flag="0"/>
      <psa10 value="0.0062185138" flag="0"/>
      <psa30 value="0.0004134099" flag="0"/>
    </comp>
    <comp name="--.HHN">
      <acc value="0.0211678874" flag="0"/>
      <vel value="0.0060296424" flag="0"/>
      <psa03 value="0.0502704950" flag="0"/>
      <psa10 value="0.0043857224" flag="0"/>
      <psa30 value="0.0006030799" flag="0"/>
    </comp>
    <comp name="--.HHZ">
      <acc value="0.0138032201" flag="0"/>
      <vel value="0.0053012837" flag="0"/>
      <psa03 value="0.0402145071" flag="0"/>
      <psa10 value="0.0036086415" flag="0"/>
      <psa30 value="0.0006545959" flag="0"/>
    </comp>
  </station>
  <station code="LKD2" name="LKD2" netid="HT" insttype="100" lat="38.7889" lon="20.6578">
    <comp name="--.HHE">
      <acc value="5.1449589732" flag="0"/>
      <vel value="0.8797596693" flag="0"/>
      <psa03 value="2.3842142062" flag="0"/>
      <psa10 value="0.1393895640" flag="0"/>
      <psa30 value="0.0154773262" flag="0"/>
    </comp>
    <comp name="--.HHN">
      <acc value="3.7472147804" flag="0"/>
      <vel value="0.8501797736" flag="0"/>
      <psa03 value="2.6650873672" flag="0"/>
      <psa10 value="0.2486772264" flag="0"/>
      <psa30 value="0.0213341399" flag="0"/>
    </comp>
    <comp name="--.HHZ">
      <acc value="1.7763112827" flag="0"/>
      <vel value="0.4436630187" flag="0"/>
      <psa03 value="1.3361487511" flag="0"/>
      <psa10 value="0.1732545024" flag="0"/>
      <psa30 value="0.0169877194" flag="0"/>
    </comp>
  </station>
  <station code="PSDA" name="PSDA" netid="HT" insttype="30" lat="38.114" lon="20.5841">
    <comp name="--.HHE">
      <acc value="0.1681904281" flag="0"/>
      <vel value="0.0805710090" flag="0"/>
      <psa03 value="0.6345302795" flag="0"/>
      <psa10 value="0.0909496946" flag="0"/>
      <psa30 value="0.0050189000" flag="0"/>
    </comp>
    <comp name="--.HHZ">
      <acc value="0.0844552548" flag="0"/>
      <vel value="0.0366283200" flag="0"/>
      <psa03 value="0.1875734476" flag="0"/>
      <psa10 value="0.0283269504" flag="0"/>
      <psa30 value="0.0018981780" flag="0"/>
    </comp>
    <comp name="--.HHN">
      <acc value="0.1818179944" flag="0"/>
      <vel value="0.0699515026" flag="0"/>
      <psa03 value="0.5554871091" flag="0"/>
      <psa10 value="0.0477302026" flag="0"/>
      <psa30 value="0.0026984399" flag="0"/>
    </comp>
  </station>
  <station code="TSLK" name="TSLK" netid="HT" insttype="1s-100Hz," lat="38.8249" lon="20.6554">
    <comp name="--.HHE">
      <acc value="1.2068434509" flag="0"/>
      <vel value="0.3840489117" flag="0"/>
      <psa03 value="2.6118437003" flag="0"/>
      <psa10 value="0.3911216964" flag="0"/>
      <psa30 value="0.0316668857" flag="0"/>
    </comp>
    <comp name="--.HHN">
      <acc value="0.8490721927" flag="0"/>
      <vel value="0.3046596375" flag="0"/>
      <psa03 value="1.2548230592" flag="0"/>
      <psa10 value="0.1658674971" flag="0"/>
      <psa30 value="0.0222683645" flag="0"/>
    </comp>
    <comp name="--.HHZ">
      <acc value="0.9679208403" flag="0"/>
      <vel value="0.2335365905" flag="0"/>
      <psa03 value="1.2598095927" flag="0"/>
      <psa10 value="0.0632860747" flag="0"/>
      <psa30 value="0.0139629806" flag="0"/>
    </comp>
  </station>
</stationlist>
