<?xml version="1.0" encoding="UTF-8" standalone="yes"?>
<!DOCTYPE earthquake SYSTEM "stationlist.dtd">
<stationlist created="" xmlns="ch.ethz.sed.shakemap.usgs.xml">
  <station code="CEVME" name="CEVME" netid="ME" insttype="CMG-5" commtype="DIG" lat="42.5467" lon="18.9177">
    <comp name="--.HNN">
      <acc value="0.0118886457" flag="0"/>
      <vel value="0.0035505678" flag="0"/>
      <psa03 value="0.0166871520" flag="0"/>
      <psa10 value="0.0018786944" flag="0"/>
      <psa30 value="0.0003693446" flag="0"/>
    </comp>
    <comp name="--.HNZ">
      <acc value="0.0107403223" flag="0"/>
      <vel value="0.0027135788" flag="0"/>
      <psa03 value="0.0146421763" flag="0"/>
      <psa10 value="0.0019752714" flag="0"/>
      <psa30 value="0.0003133302" flag="0"/>
    </comp>
    <comp name="--.HNE">
      <acc value="0.0155359065" flag="0"/>
      <vel value="0.0042701852" flag="0"/>
      <psa03 value="0.0188224500" flag="0"/>
      <psa10 value="0.0021863777" flag="0"/>
      <psa30 value="0.0003988579" flag="0"/>
    </comp>
  </station>
</stationlist>
