<?xml version="1.0" encoding="UTF-8" standalone="yes"?>
<!DOCTYPE earthquake SYSTEM "stationlist.dtd">
<stationlist created="" xmlns="ch.ethz.sed.shakemap.usgs.xml">
  <station code="CEVME" name="CEVME" netid="ME" insttype="CMG-5" commtype="DIG" lat="42.5467" lon="18.9177">
    <comp name="--.HNE">
      <acc value="0.0155358784" flag="0"/>
      <vel value="0.0042701917" flag="0"/>
      <psa03 value="0.0188224500" flag="0"/>
      <psa10 value="0.0021863777" flag="0"/>
      <psa30 value="0.0003994483" flag="0"/>
    </comp>
    <comp name="--.HNN">
      <acc value="0.0118886431" flag="0"/>
      <vel value="0.0035505772" flag="0"/>
      <psa03 value="0.0166871520" flag="0"/>
      <psa10 value="0.0018786945" flag="0"/>
      <psa30 value="0.0003695880" flag="0"/>
    </comp>
    <comp name="--.HNZ">
      <acc value="0.0107403881" flag="0"/>
      <vel value="0.0027135860" flag="0"/>
      <psa03 value="0.0146421763" flag="0"/>
      <psa10 value="0.0019752715" flag="0"/>
      <psa30 value="0.0003134255" flag="0"/>
    </comp>
  </station>
  <station code="KOLME" name="KOLME" netid="ME" insttype="CMG-5" commtype="DIG" lat="42.8505" lon="19.5152">
    <comp name="--.HNE">
      <acc value="0.0073350520" flag="0"/>
      <vel value="0.0023555271" flag="0"/>
      <psa03 value="0.0113269254" flag="0"/>
      <psa10 value="0.0028833511" flag="0"/>
      <psa30 value="0.0004665119" flag="0"/>
    </comp>
    <comp name="--.HNN">
      <acc value="0.0067046020" flag="0"/>
      <vel value="0.0018517668" flag="0"/>
      <psa03 value="0.0103133173" flag="0"/>
      <psa10 value="0.0019401151" flag="0"/>
      <psa30 value="0.0002011163" flag="0"/>
    </comp>
    <comp name="--.HNZ">
      <acc value="0.0062088867" flag="0"/>
      <vel value="0.0011774379" flag="0"/>
      <psa03 value="0.0057050296" flag="0"/>
      <psa10 value="0.0017903263" flag="0"/>
      <psa30 value="0.0001778625" flag="0"/>
    </comp>
  </station>
  <station code="PDG" name="PDG" netid="MN" insttype="" commtype="DIG" lat="42.4297" lon="19.2608">
    <comp name="--.HHE">
      <acc value="0.0161080951" flag="0"/>
      <vel value="0.0032539412" flag="0"/>
      <psa03 value="0.0191751732" flag="0"/>
      <psa10 value="0.0013844627" flag="0"/>
      <psa30 value="0.0001277413" flag="0"/>
    </comp>
    <comp name="--.HHZ">
      <acc value="0.0085363572" flag="0"/>
      <vel value="0.0024620224" flag="0"/>
      <psa03 value="0.0118831461" flag="0"/>
      <psa10 value="0.0011723751" flag="0"/>
      <psa30 value="0.0000807391" flag="0"/>
    </comp>
    <comp name="--.HHN">
      <acc value="0.0112400421" flag="0"/>
      <vel value="0.0029172673" flag="0"/>
      <psa03 value="0.0160423582" flag="0"/>
      <psa10 value="0.0014736466" flag="0"/>
      <psa30 value="0.0001598153" flag="0"/>
    </comp>
  </station>
</stationlist>
