<?xml version="1.0" encoding="UTF-8" standalone="yes"?>
<!DOCTYPE earthquake SYSTEM "stationlist.dtd">
<stationlist created="" xmlns="ch.ethz.sed.shakemap.usgs.xml">
  <station code="CEYT" name="CEYT" netid="KO" insttype="CMG-3ESP" lat="37.0105" lon="35.7478">
    <comp name="--.HHE">
      <acc value="0.0136824582" flag="0"/>
      <vel value="0.0054369547" flag="0"/>
      <psa03 value="0.0415425067" flag="0"/>
      <psa10 value="0.0036417400" flag="0"/>
      <psa30 value="0.0003091134" flag="0"/>
    </comp>
    <comp name="--.HHN">
      <acc value="0.0118174543" flag="0"/>
      <vel value="0.0055902471" flag="0"/>
      <psa03 value="0.0256561922" flag="0"/>
      <psa10 value="0.0034914240" flag="0"/>
      <psa30 value="0.0002296090" flag="0"/>
    </comp>
    <comp name="--.HHZ">
      <acc value="0.0078819912" flag="0"/>
      <vel value="0.0036659653" flag="0"/>
      <psa03 value="0.0153809700" flag="0"/>
      <psa10 value="0.0038173439" flag="0"/>
      <psa30 value="0.0001625980" flag="0"/>
    </comp>
  </station>
  <station code="GAZ" name="GAZ" netid="KO" insttype="CMG-3T" lat="37.1721" lon="37.2096">
    <comp name="--.HHZ">
      <acc value="0.0129620044" flag="0"/>
      <vel value="0.0074497646" flag="0"/>
      <psa03 value="0.0434135422" flag="0"/>
      <psa10 value="0.0056184858" flag="0"/>
      <psa30 value="0.0003974843" flag="0"/>
    </comp>
    <comp name="--.HHE">
      <acc value="0.0255545985" flag="0"/>
      <vel value="0.0110411227" flag="0"/>
      <psa03 value="0.0566068718" flag="0"/>
      <psa10 value="0.0081343002" flag="0"/>
      <psa30 value="0.0005282078" flag="0"/>
    </comp>
    <comp name="--.HHN">
      <acc value="0.0198479572" flag="0"/>
      <vel value="0.0094291156" flag="0"/>
      <psa03 value="0.0604802000" flag="0"/>
      <psa10 value="0.0091084495" flag="0"/>
      <psa30 value="0.0006010563" flag="0"/>
    </comp>
  </station>
  <station code="ANDN" name="ANDN" netid="TU" insttype="T" lat="37.58" lon="36.3452">
    <comp name="--.HHZ">
      <acc value="0.0111757523" flag="0"/>
      <vel value="0.0072498344" flag="0"/>
      <psa03 value="0.0343796576" flag="0"/>
      <psa10 value="0.0088001097" flag="0"/>
      <psa30 value="0.0008356773" flag="0"/>
    </comp>
    <comp name="--.HHN">
      <acc value="0.0323038141" flag="0"/>
      <vel value="0.0123583112" flag="0"/>
      <psa03 value="0.0526707162" flag="0"/>
      <psa10 value="0.0105005633" flag="0"/>
      <psa30 value="0.0007187030" flag="0"/>
    </comp>
    <comp name="--.HHE">
      <acc value="0.0281253610" flag="0"/>
      <vel value="0.0161987432" flag="0"/>
      <psa03 value="0.0906423396" flag="0"/>
      <psa10 value="0.0118210347" flag="0"/>
      <psa30 value="0.0006601907" flag="0"/>
    </comp>
  </station>
</stationlist>
