<?xml version="1.0" encoding="UTF-8" standalone="yes"?>
<!DOCTYPE earthquake SYSTEM "stationlist.dtd">
<stationlist created="" xmlns="ch.ethz.sed.shakemap.usgs.xml">
  <station code="DIVS" name="DIVS" netid="MN" insttype="" commtype="DIG" lat="44.0981" lon="19.9917">
    <comp name="--.HHN">
      <acc value="0.0242849833" flag="0"/>
      <vel value="0.0070132023" flag="0"/>
      <psa03 value="0.0343696626" flag="0"/>
      <psa10 value="0.0058637851" flag="0"/>
      <psa30 value="0.0004043682" flag="0"/>
    </comp>
    <comp name="--.HHZ">
      <acc value="0.0261827362" flag="0"/>
      <vel value="0.0069767061" flag="0"/>
      <psa03 value="0.0322440240" flag="0"/>
      <psa10 value="0.0064398522" flag="0"/>
      <psa30 value="0.0004037972" flag="0"/>
    </comp>
    <comp name="--.HHE">
      <acc value="0.0326549647" flag="0"/>
      <vel value="0.0099500452" flag="0"/>
      <psa03 value="0.0429348225" flag="0"/>
      <psa10 value="0.0113522084" flag="0"/>
      <psa30 value="0.0006040782" flag="0"/>
    </comp>
  </station>
</stationlist>
