<?xml version="1.0" encoding="UTF-8" standalone="yes"?>
<!DOCTYPE earthquake SYSTEM "stationlist.dtd">
<stationlist created="" xmlns="ch.ethz.sed.shakemap.usgs.xml">
  <station code="DIVS" name="DIVS" netid="MN" insttype="" commtype="DIG" lat="44.0981" lon="19.9917">
    <comp name="--.HHN">
      <acc value="0.0242849833" flag="0"/>
      <vel value="0.0070132023" flag="0"/>
      <psa03 value="0.0343696626" flag="0"/>
      <psa10 value="0.0058637851" flag="0"/>
      <psa30 value="0.0004043682" flag="0"/>
    </comp>
    <comp name="--.HHZ">
      <acc value="0.0261827362" flag="0"/>
      <vel value="0.0069767061" flag="0"/>
      <psa03 value="0.0322440240" flag="0"/>
      <psa10 value="0.0064398522" flag="0"/>
      <psa30 value="0.0004037972" flag="0"/>
    </comp>
    <comp name="--.HHE">
      <acc value="0.0326549647" flag="0"/>
      <vel value="0.0099500452" flag="0"/>
      <psa03 value="0.0429348225" flag="0"/>
      <psa10 value="0.0113522084" flag="0"/>
      <psa30 value="0.0006040782" flag="0"/>
    </comp>
  </station>
  <station code="IVAS" name="IVAS" netid="SJ" insttype="Trillium All-Terrain" commtype="DIG" lat="43.5767" lon="20.1524">
    <comp name="--.HHN">
      <acc value="0.6835240950" flag="0"/>
      <vel value="0.1007333129" flag="0"/>
      <psa03 value="0.4079239856" flag="0"/>
      <psa10 value="0.0337100588" flag="0"/>
      <psa30 value="0.0018907947" flag="0"/>
    </comp>
    <comp name="--.HHZ">
      <acc value="0.4554197919" flag="0"/>
      <vel value="0.0707722564" flag="0"/>
      <psa03 value="0.1463581067" flag="0"/>
      <psa10 value="0.0199740861" flag="0"/>
      <psa30 value="0.0013904568" flag="0"/>
    </comp>
    <comp name="--.HHE">
      <acc value="0.7560109430" flag="0"/>
      <vel value="0.0937072797" flag="0"/>
      <psa03 value="0.4141929979" flag="0"/>
      <psa10 value="0.0282608786" flag="0"/>
      <psa30 value="0.0031049911" flag="0"/>
    </comp>
  </station>
  <station code="SELS" name="SELS" netid="SJ" insttype="Trillium120P" commtype="DIG" lat="43.2143" lon="21.1209">
    <comp name="--.HHZ">
      <acc value="0.0989965850" flag="0"/>
      <vel value="0.0200185037" flag="0"/>
      <psa03 value="0.0922256705" flag="0"/>
      <psa10 value="0.0060450694" flag="0"/>
      <psa30 value="0.0004597307" flag="0"/>
    </comp>
  </station>
</stationlist>
