<?xml version="1.0" encoding="UTF-8" standalone="yes"?>
<!DOCTYPE earthquake SYSTEM "stationlist.dtd">
<stationlist created="" xmlns="ch.ethz.sed.shakemap.usgs.xml">
  <station code="BCI" name="BCI" netid="AC" insttype="" lat="42.3666" lon="20.0675">
    <comp name="--.HHZ">
      <acc value="0.0360870717" flag="0"/>
      <vel value="0.0182045532" flag="0"/>
      <psa03 value="0.1023741989" flag="0"/>
      <psa10 value="0.0137257918" flag="0"/>
      <psa30 value="0.0076371602" flag="0"/>
    </comp>
    <comp name="--.HHN">
      <acc value="0.0473204965" flag="0"/>
      <vel value="0.0234585188" flag="0"/>
      <psa03 value="0.1247529292" flag="0"/>
      <psa10 value="0.0244648222" flag="0"/>
      <psa30 value="0.0070217917" flag="0"/>
    </comp>
    <comp name="--.HHE">
      <acc value="0.0556527091" flag="0"/>
      <vel value="0.0207402119" flag="0"/>
      <psa03 value="0.1131142400" flag="0"/>
      <psa10 value="0.0165466991" flag="0"/>
      <psa30 value="0.0048943582" flag="0"/>
    </comp>
  </station>
  <station code="KBN" name="KBN" netid="AC" insttype="" lat="40.6236" lon="20.7874">
    <comp name="--.HHE">
      <acc value="0.0116009612" flag="0"/>
      <vel value="0.0069692932" flag="0"/>
      <psa03 value="0.0240731785" flag="0"/>
      <psa10 value="0.0092406490" flag="0"/>
      <psa30 value="0.0018157633" flag="0"/>
    </comp>
    <comp name="--.HHN">
      <acc value="0.0034732488" flag="0"/>
      <vel value="0.0010416685" flag="0"/>
    </comp>
    <comp name="--.HHZ">
      <acc value="0.0064472042" flag="0"/>
      <vel value="0.0067589321" flag="0"/>
      <psa03 value="0.0175425891" flag="0"/>
      <psa10 value="0.0087101241" flag="0"/>
      <psa30 value="0.0017671209" flag="0"/>
    </comp>
  </station>
  <station code="PHP" name="PHP" netid="AC" insttype="" lat="41.6847" lon="20.4408">
    <comp name="--.HHE">
      <acc value="0.8992914519" flag="0"/>
      <vel value="0.0786442766" flag="0"/>
      <psa03 value="0.6616598992" flag="0"/>
      <psa10 value="0.0883002421" flag="0"/>
      <psa30 value="0.0206256355" flag="0"/>
    </comp>
    <comp name="--.HHN">
      <acc value="0.6284230020" flag="0"/>
      <vel value="0.1277837365" flag="0"/>
      <psa03 value="0.4650993953" flag="0"/>
      <psa10 value="0.0651295402" flag="0"/>
      <psa30 value="0.0132748078" flag="0"/>
    </comp>
    <comp name="--.HHZ">
      <acc value="0.5141573948" flag="0"/>
      <vel value="0.0773857984" flag="0"/>
      <psa03 value="0.3744002228" flag="0"/>
      <psa10 value="0.0516793402" flag="0"/>
      <psa30 value="0.0120435676" flag="0"/>
    </comp>
  </station>
</stationlist>
