<stationlist created="1778136428">
	<station code="MMAA" name="MMAA" netid="EG" source="EUROSEISTEST Strong Motion Network" insttype="" lat="40.630855" lon="22.943725">
		<comp name="--.EN1" depth="0.0">
			<acc value="0.017885041316117" flag="0"/>
			<vel value="0.00793480997560013" flag="0"/>
			<psa03 value="0.0331262387215847" flag="0"/>
			<psa10 value="0.00752965364633987" flag="0"/>
			<psa30 value="0.00131016752133503" flag="0"/>
		</comp>
		<comp name="--.EN2" depth="0.0">
			<acc value="0.0197754625360418" flag="0"/>
			<vel value="0.00682701080495147" flag="0"/>
			<psa03 value="0.0296189126284453" flag="0"/>
			<psa10 value="0.0086664247330972" flag="0"/>
			<psa30 value="0.0016804589263244" flag="0"/>
		</comp>
		<comp name="--.EN3" depth="0.0">
			<acc value="0.0575397680603771" flag="0"/>
			<vel value="0.00917166411450634" flag="0"/>
			<psa03 value="0.0157100276914038" flag="0"/>
			<psa10 value="0.00228173037218721" flag="0"/>
			<psa30 value="0.0012092206257641" flag="0"/>
		</comp>
	</station>
	<station code="SHTA" name="SHTA" netid="EG" source="EUROSEISTEST Strong Motion Network" insttype="" lat="40.613764" lon="22.952972">
		<comp name="--.EN1" depth="0.0">
			<acc value="0.0313931013489401" flag="0"/>
			<vel value="0.00704658369224771" flag="0"/>
			<psa03 value="0.0208337395080155" flag="0"/>
			<psa10 value="0.00753658832449523" flag="0"/>
			<psa30 value="0.00230496998461421" flag="0"/>
		</comp>
		<comp name="--.EN2" depth="0.0">
			<acc value="0.0312532373291735" flag="0"/>
			<vel value="0.00579422879940889" flag="0"/>
			<psa03 value="0.0147622396446548" flag="0"/>
			<psa10 value="0.0067890836497327" flag="0"/>
			<psa30 value="0.00174285774743935" flag="0"/>
		</comp>
		<comp name="--.EN3" depth="0.0">
			<acc value="0.0992268853455796" flag="0"/>
			<vel value="0.0141738904177637" flag="0"/>
			<psa03 value="0.0107475733020885" flag="0"/>
			<psa10 value="0.00679912447114505" flag="0"/>
			<psa30 value="0.00126680006512195" flag="0"/>
		</comp>
	</station>
	<station code="LMS2" name="LMS2" netid="HI" source="ITSAK Strong Motion Network" insttype="" lat="40.834985" lon="21.141815">
		<comp name="--.HNE" depth="0.0">
			<acc value="0.0783521759832723" flag="0"/>
			<vel value="0.0223591930270772" flag="0"/>
			<psa03 value="0.105285557984617" flag="0"/>
			<psa10 value="0.00881956612798549" flag="0"/>
			<psa30 value="0.00398208504359077" flag="0"/>
		</comp>
		<comp name="--.HNN" depth="0.0">
			<acc value="0.106374873004331" flag="0"/>
			<vel value="0.0282156503460477" flag="0"/>
			<psa03 value="0.0860923646551412" flag="0"/>
			<psa10 value="0.00778265337510427" flag="0"/>
			<psa30 value="0.00400155466669272" flag="0"/>
		</comp>
		<comp name="--.HNZ" depth="0.0">
			<acc value="0.0326017678005451" flag="0"/>
			<vel value="0.00984397663578128" flag="0"/>
			<psa03 value="0.0436709606951716" flag="0"/>
			<psa10 value="0.00499855566104433" flag="0"/>
			<psa30 value="0.00504457876191145" flag="0"/>
		</comp>
	</station>
</stationlist>
