<?xml version="1.0" encoding="UTF-8" standalone="yes"?>
<!DOCTYPE earthquake SYSTEM "stationlist.dtd">
<stationlist created="" xmlns="ch.ethz.sed.shakemap.usgs.xml">
  <station code="AGRB" name="AGRB" netid="KO" insttype="CMG-3T" lat="39.5755" lon="42.992">
    <comp name="--.HHN">
      <acc value="0.0189546966" flag="0"/>
      <vel value="0.0078388518" flag="0"/>
      <psa03 value="0.0343939569" flag="0"/>
      <psa10 value="0.0073424426" flag="0"/>
      <psa30 value="0.0005525152" flag="0"/>
    </comp>
    <comp name="--.HHE">
      <acc value="0.0227196373" flag="0"/>
      <vel value="0.0093273402" flag="0"/>
      <psa03 value="0.0466016641" flag="0"/>
      <psa10 value="0.0094900829" flag="0"/>
      <psa30 value="0.0006142766" flag="0"/>
    </comp>
    <comp name="--.HHZ">
      <acc value="0.0130420165" flag="0"/>
      <vel value="0.0059378295" flag="0"/>
      <psa03 value="0.0392167742" flag="0"/>
      <psa10 value="0.0060905887" flag="0"/>
      <psa30 value="0.0004019424" flag="0"/>
    </comp>
  </station>
  <station code="AKDM" name="AKDM" netid="KO" insttype="CMG-3ESP" lat="38.3285" lon="42.98">
    <comp name="--.HHE">
      <acc value="0.0260873240" flag="0"/>
      <vel value="0.0134935707" flag="0"/>
      <psa03 value="0.0722016718" flag="0"/>
      <psa10 value="0.0165206344" flag="0"/>
      <psa30 value="0.0014447853" flag="0"/>
    </comp>
    <comp name="--.HHZ">
      <acc value="0.0209038105" flag="0"/>
      <vel value="0.0090556741" flag="0"/>
      <psa03 value="0.0532794816" flag="0"/>
      <psa10 value="0.0098068331" flag="0"/>
      <psa30 value="0.0008136404" flag="0"/>
    </comp>
    <comp name="--.HHN">
      <acc value="0.0214706370" flag="0"/>
      <vel value="0.0136798794" flag="0"/>
      <psa03 value="0.0509183063" flag="0"/>
      <psa10 value="0.0149290688" flag="0"/>
      <psa30 value="0.0016709983" flag="0"/>
    </comp>
  </station>
  <station code="CLDR" name="CLDR" netid="KO" insttype="CMG-3ESP" lat="39.144" lon="43.9172">
    <comp name="--.HHN">
      <acc value="0.0361965571" flag="0"/>
      <vel value="0.0172555691" flag="0"/>
      <psa03 value="0.1592562783" flag="0"/>
      <psa10 value="0.0146625738" flag="0"/>
      <psa30 value="0.0014204420" flag="0"/>
    </comp>
    <comp name="--.HHZ">
      <acc value="0.0186407165" flag="0"/>
      <vel value="0.0068977474" flag="0"/>
      <psa03 value="0.0501737563" flag="0"/>
      <psa10 value="0.0068884371" flag="0"/>
      <psa30 value="0.0006507077" flag="0"/>
    </comp>
    <comp name="--.HHE">
      <acc value="0.0385383797" flag="0"/>
      <vel value="0.0184198091" flag="0"/>
      <psa03 value="0.1604767739" flag="0"/>
      <psa10 value="0.0143592945" flag="0"/>
      <psa30 value="0.0012471266" flag="0"/>
    </comp>
  </station>
  <station code="ERCV" name="ERCV" netid="KO" insttype="CMG-5T" lat="39.0198" lon="43.3381">
    <comp name="--.HNE">
      <acc value="0.3669166461" flag="0"/>
      <vel value="0.1508880330" flag="0"/>
      <psa03 value="0.9049517708" flag="0"/>
      <psa10 value="0.0744490962" flag="0"/>
      <psa30 value="0.0087783959" flag="0"/>
    </comp>
    <comp name="--.HNN">
      <acc value="0.3533392048" flag="0"/>
      <vel value="0.1212607332" flag="0"/>
      <psa03 value="0.5380077705" flag="0"/>
      <psa10 value="0.0861833386" flag="0"/>
      <psa30 value="0.0057972574" flag="0"/>
    </comp>
    <comp name="--.HNZ">
      <acc value="0.3742413136" flag="0"/>
      <vel value="0.0890445880" flag="0"/>
      <psa03 value="0.3313670151" flag="0"/>
      <psa10 value="0.0438234661" flag="0"/>
      <psa30 value="0.0041190606" flag="0"/>
    </comp>
  </station>
  <station code="GURO" name="GURO" netid="KO" insttype="CMG-3T" lat="38.5509" lon="42.0322">
    <comp name="--.HHE">
      <acc value="0.0504492875" flag="0"/>
      <vel value="0.0160848568" flag="0"/>
      <psa03 value="0.1444424104" flag="0"/>
      <psa10 value="0.0060934977" flag="0"/>
      <psa30 value="0.0004380015" flag="0"/>
    </comp>
    <comp name="--.HHN">
      <acc value="0.0586678332" flag="0"/>
      <vel value="0.0278156662" flag="0"/>
      <psa03 value="0.1240647017" flag="0"/>
      <psa10 value="0.0089117528" flag="0"/>
      <psa30 value="0.0006081057" flag="0"/>
    </comp>
    <comp name="--.HHZ">
      <acc value="0.0684109087" flag="0"/>
      <vel value="0.0221070509" flag="0"/>
      <psa03 value="0.1479768235" flag="0"/>
      <psa10 value="0.0065546151" flag="0"/>
      <psa30 value="0.0005601519" flag="0"/>
    </comp>
  </station>
  <station code="MLAZ" name="MLAZ" netid="KO" insttype="CMG-3T" lat="39.141" lon="42.5496">
    <comp name="--.HHE">
      <acc value="0.0215221729" flag="0"/>
      <vel value="0.0155791086" flag="0"/>
      <psa03 value="0.0677513792" flag="0"/>
      <psa10 value="0.0206142324" flag="0"/>
      <psa30 value="0.0047822026" flag="0"/>
    </comp>
    <comp name="--.HHN">
      <acc value="0.0297995501" flag="0"/>
      <vel value="0.0247765885" flag="0"/>
      <psa03 value="0.0720128007" flag="0"/>
      <psa10 value="0.0295347565" flag="0"/>
      <psa30 value="0.0070390346" flag="0"/>
    </comp>
    <comp name="--.HHZ">
      <acc value="0.0213276149" flag="0"/>
      <vel value="0.0116306654" flag="0"/>
      <psa03 value="0.0503514678" flag="0"/>
      <psa10 value="0.0215149141" flag="0"/>
      <psa30 value="0.0017514436" flag="0"/>
    </comp>
  </station>
  <station code="VANB" name="VANB" netid="KO" insttype="CMG-3T" lat="38.509" lon="43.4056">
    <comp name="--.HHZ">
      <acc value="0.0764078312" flag="0"/>
      <vel value="0.0166608170" flag="0"/>
      <psa03 value="0.0700352042" flag="0"/>
      <psa10 value="0.0165971868" flag="0"/>
      <psa30 value="0.0017139468" flag="0"/>
    </comp>
    <comp name="--.HHE">
      <acc value="0.0734743682" flag="0"/>
      <vel value="0.0433540414" flag="0"/>
      <psa03 value="0.1851305889" flag="0"/>
      <psa10 value="0.0393673409" flag="0"/>
      <psa30 value="0.0031597190" flag="0"/>
    </comp>
    <comp name="--.HHN">
      <acc value="0.0601403409" flag="0"/>
      <vel value="0.0328035083" flag="0"/>
      <psa03 value="0.1013819631" flag="0"/>
      <psa10 value="0.0504336997" flag="0"/>
      <psa30 value="0.0022842868" flag="0"/>
    </comp>
  </station>
</stationlist>
