<?xml version="1.0" encoding="UTF-8" standalone="yes"?>
<!DOCTYPE earthquake SYSTEM "stationlist.dtd">
<stationlist created="" xmlns="ch.ethz.sed.shakemap.usgs.xml">
  <station code="AKDM" name="AKDM" netid="KO" insttype="CMG-3ESP" lat="38.3285" lon="42.98">
    <comp name="--.HHN">
      <acc value="0.0214706370" flag="0"/>
      <vel value="0.0136798785" flag="0"/>
      <psa03 value="0.0509183063" flag="0"/>
      <psa10 value="0.0149290688" flag="0"/>
      <psa30 value="0.0016709997" flag="0"/>
    </comp>
    <comp name="--.HHZ">
      <acc value="0.0209038104" flag="0"/>
      <vel value="0.0090556736" flag="0"/>
      <psa03 value="0.0532794816" flag="0"/>
      <psa10 value="0.0098068331" flag="0"/>
      <psa30 value="0.0008136380" flag="0"/>
    </comp>
    <comp name="--.HHE">
      <acc value="0.0260873241" flag="0"/>
      <vel value="0.0134935678" flag="0"/>
      <psa03 value="0.0722016718" flag="0"/>
      <psa10 value="0.0165206346" flag="0"/>
      <psa30 value="0.0014448096" flag="0"/>
    </comp>
  </station>
  <station code="CLDR" name="CLDR" netid="KO" insttype="CMG-3ESP" lat="39.144" lon="43.9172">
    <comp name="--.HHE">
      <acc value="0.0385383797" flag="0"/>
      <vel value="0.0184198094" flag="0"/>
      <psa03 value="0.1604767739" flag="0"/>
      <psa10 value="0.0143592945" flag="0"/>
      <psa30 value="0.0012471207" flag="0"/>
    </comp>
    <comp name="--.HHN">
      <acc value="0.0361965570" flag="0"/>
      <vel value="0.0172555691" flag="0"/>
      <psa03 value="0.1592562783" flag="0"/>
      <psa10 value="0.0146625738" flag="0"/>
      <psa30 value="0.0014204196" flag="0"/>
    </comp>
    <comp name="--.HHZ">
      <acc value="0.0186407165" flag="0"/>
      <vel value="0.0068977500" flag="0"/>
      <psa03 value="0.0501737563" flag="0"/>
      <psa10 value="0.0068884371" flag="0"/>
      <psa30 value="0.0006507096" flag="0"/>
    </comp>
  </station>
  <station code="ERCV" name="ERCV" netid="KO" insttype="CMG-5T" lat="39.0198" lon="43.3381">
    <comp name="--.HNE">
      <acc value="0.3669166476" flag="0"/>
      <vel value="0.1508880408" flag="0"/>
      <psa03 value="0.9049517708" flag="0"/>
      <psa10 value="0.0744490961" flag="0"/>
      <psa30 value="0.0087781623" flag="0"/>
    </comp>
    <comp name="--.HNN">
      <acc value="0.3533392116" flag="0"/>
      <vel value="0.1212607205" flag="0"/>
      <psa03 value="0.5380077705" flag="0"/>
      <psa10 value="0.0861833446" flag="0"/>
      <psa30 value="0.0057966916" flag="0"/>
    </comp>
    <comp name="--.HNZ">
      <acc value="0.3742413163" flag="0"/>
      <vel value="0.0890445659" flag="0"/>
      <psa03 value="0.3313670151" flag="0"/>
      <psa10 value="0.0438234650" flag="0"/>
      <psa30 value="0.0041173495" flag="0"/>
    </comp>
  </station>
  <station code="MLAZ" name="MLAZ" netid="KO" insttype="CMG-3T" lat="39.141" lon="42.5496">
    <comp name="--.HHN">
      <acc value="0.0297995507" flag="0"/>
      <vel value="0.0247765885" flag="0"/>
      <psa03 value="0.0720128007" flag="0"/>
      <psa10 value="0.0295347565" flag="0"/>
      <psa30 value="0.0070390389" flag="0"/>
    </comp>
    <comp name="--.HHE">
      <acc value="0.0215221732" flag="0"/>
      <vel value="0.0155791070" flag="0"/>
      <psa03 value="0.0677513792" flag="0"/>
      <psa10 value="0.0206142324" flag="0"/>
      <psa30 value="0.0047821724" flag="0"/>
    </comp>
    <comp name="--.HHZ">
      <acc value="0.0213276151" flag="0"/>
      <vel value="0.0116306645" flag="0"/>
      <psa03 value="0.0503514678" flag="0"/>
      <psa10 value="0.0215149141" flag="0"/>
      <psa30 value="0.0017514643" flag="0"/>
    </comp>
  </station>
  <station code="VANB" name="VANB" netid="KO" insttype="CMG-3T" lat="38.509" lon="43.4056">
    <comp name="--.HHZ">
      <acc value="0.0764078312" flag="0"/>
      <vel value="0.0166608169" flag="0"/>
      <psa03 value="0.0700352042" flag="0"/>
      <psa10 value="0.0165971886" flag="0"/>
      <psa30 value="0.0017139333" flag="0"/>
    </comp>
    <comp name="--.HHN">
      <acc value="0.0601403409" flag="0"/>
      <vel value="0.0328035082" flag="0"/>
      <psa03 value="0.1013819631" flag="0"/>
      <psa10 value="0.0504336997" flag="0"/>
      <psa30 value="0.0022842911" flag="0"/>
    </comp>
    <comp name="--.HHE">
      <acc value="0.0734743682" flag="0"/>
      <vel value="0.0433540417" flag="0"/>
      <psa03 value="0.1851305889" flag="0"/>
      <psa10 value="0.0393673408" flag="0"/>
      <psa30 value="0.0031596232" flag="0"/>
    </comp>
  </station>
</stationlist>
