<?xml version="1.0" encoding="UTF-8" standalone="yes"?>
<!DOCTYPE earthquake SYSTEM "stationlist.dtd">
<stationlist created="" xmlns="ch.ethz.sed.shakemap.usgs.xml">
  <station code="DARE" name="DARE" netid="KO" insttype="CMG-3ESP" lat="38.5712" lon="37.4832">
    <comp name="--.HHE">
      <acc value="0.0096901205" flag="0"/>
      <vel value="0.0055482459" flag="0"/>
      <psa03 value="0.0293763767" flag="0"/>
      <psa10 value="0.0078618916" flag="0"/>
      <psa30 value="0.0009276833" flag="0"/>
    </comp>
    <comp name="--.HHN">
      <acc value="0.0099172639" flag="0"/>
      <vel value="0.0070455737" flag="0"/>
      <psa03 value="0.0235563437" flag="0"/>
      <psa10 value="0.0111460278" flag="0"/>
      <psa30 value="0.0012662266" flag="0"/>
    </comp>
    <comp name="--.HHZ">
      <acc value="0.0084904447" flag="0"/>
      <vel value="0.0064526028" flag="0"/>
      <psa03 value="0.0220092726" flag="0"/>
      <psa10 value="0.0081733863" flag="0"/>
      <psa30 value="0.0018100609" flag="0"/>
    </comp>
  </station>
  <station code="GAZ" name="GAZ" netid="KO" insttype="CMG-3T" lat="37.1721" lon="37.2096">
    <comp name="--.HHN">
      <acc value="0.0689505515" flag="0"/>
      <vel value="0.0382703005" flag="0"/>
      <psa03 value="0.1423007831" flag="0"/>
      <psa10 value="0.0736257920" flag="0"/>
      <psa30 value="0.0027473382" flag="0"/>
    </comp>
  </station>
  <station code="KMRS" name="KMRS" netid="KO" insttype="CMG-3T" lat="37.5087" lon="36.9">
    <comp name="--.HHE">
      <acc value="0.2874161330" flag="0"/>
      <vel value="0.0862797153" flag="0"/>
      <psa03 value="0.4800175212" flag="0"/>
      <psa10 value="0.0364820278" flag="0"/>
      <psa30 value="0.0036495589" flag="0"/>
    </comp>
    <comp name="--.HHN">
      <acc value="0.7713897216" flag="0"/>
      <vel value="0.2775259358" flag="0"/>
      <psa03 value="1.3526442424" flag="0"/>
      <psa10 value="0.0960329544" flag="0"/>
      <psa30 value="0.0082934003" flag="0"/>
    </comp>
  </station>
  <station code="ANDN" name="ANDN" netid="TU" insttype="T" lat="37.58" lon="36.3452">
    <comp name="--.HHE">
      <acc value="0.3297317023" flag="0"/>
      <vel value="0.0859443703" flag="0"/>
      <psa03 value="0.4816804656" flag="0"/>
      <psa10 value="0.0324762476" flag="0"/>
      <psa30 value="0.0020958210" flag="0"/>
    </comp>
    <comp name="--.HHZ">
      <acc value="0.1901049938" flag="0"/>
      <vel value="0.0450288682" flag="0"/>
      <psa03 value="0.2235115098" flag="0"/>
      <psa10 value="0.0243228792" flag="0"/>
      <psa30 value="0.0015918793" flag="0"/>
    </comp>
    <comp name="--.HHN">
      <acc value="0.5153267831" flag="0"/>
      <vel value="0.1020596067" flag="0"/>
      <psa03 value="0.5190176613" flag="0"/>
      <psa10 value="0.0431900027" flag="0"/>
      <psa30 value="0.0021627128" flag="0"/>
    </comp>
  </station>
</stationlist>
