<stationlist xmlns:esm="https://esm-db.eu/esmws/shakemap/1/" created="1784339616">
	<station code="BLY" name="BLY" netid="MN" source="Mediterranean Very Broadband Seismographic Network (MedNet)" insttype="" lat="44.7488" lon="17.1839" esm:processing="manual (Paolucci et al 2011)" esm:quality="best">
		<comp name="--.HNE" depth="1.0">
			<acc value="0.0514563591467992" flag="0"/>
			<vel value="0.0225415446984482" flag="0"/>
			<psa03 value="0.161608850305198" flag="0"/>
			<psa10 value="0.0190266233644201" flag="0"/>
			<psa30 value="0.00123712201299521" flag="0"/>
		</comp>
		<comp name="--.HNN" depth="1.0">
			<acc value="0.0511650229471633" flag="0"/>
			<vel value="0.0226081600919205" flag="0"/>
			<psa03 value="0.132750127036412" flag="0"/>
			<psa10 value="0.0263996915930451" flag="0"/>
			<psa30 value="0.00127917968721639" flag="0"/>
		</comp>
		<comp name="--.HNZ" depth="1.0">
			<acc value="0.0390608419881776" flag="0"/>
			<vel value="0.0187049715274669" flag="0"/>
			<psa03 value="0.145591140335856" flag="0"/>
			<psa10 value="0.0196588307439362" flag="0"/>
			<psa30 value="0.00134584557507761" flag="0"/>
		</comp>
	</station>
	<station code="BOJS" name="BOJS" netid="SL" source="Seismic Network of the Republic of Slovenia (SNRS)" insttype="" lat="45.5043" lon="15.2518" esm:processing="manual (Paolucci et al 2011)" esm:quality="best">
		<comp name="--.HNE" depth="0.0">
			<acc value="0.0474504504732843" flag="0"/>
			<vel value="0.0142445591599202" flag="0"/>
			<psa03 value="0.0617889873398333" flag="0"/>
			<psa10 value="0.00779588208116767" flag="0"/>
			<psa30 value="0.000812965894253998" flag="0"/>
		</comp>
		<comp name="--.HNN" depth="0.0">
			<acc value="0.0390642981398381" flag="0"/>
			<vel value="0.0156362064931946" flag="0"/>
			<psa03 value="0.0540485855948723" flag="0"/>
			<psa10 value="0.00827507111404936" flag="0"/>
			<psa30 value="0.000671133099274076" flag="0"/>
		</comp>
		<comp name="--.HNZ" depth="0.0">
			<acc value="0.0331697791206494" flag="0"/>
			<vel value="0.0116140459415614" flag="0"/>
			<psa03 value="0.0388362353446599" flag="0"/>
			<psa10 value="0.00925760997138661" flag="0"/>
			<psa30 value="0.000751221649120783" flag="0"/>
		</comp>
	</station>
	<station code="CEY" name="CEY" netid="SL" source="Seismic Network of the Republic of Slovenia (SNRS)" insttype="" lat="45.7381" lon="14.4221" esm:processing="manual (Paolucci et al 2011)" esm:quality="best">
		<comp name="--.HNE" depth="0.0">
			<acc value="0.0150430744470104" flag="0"/>
			<vel value="0.0044837741157016" flag="0"/>
			<psa03 value="0.0260847064584524" flag="0"/>
			<psa10 value="0.00542812450692873" flag="0"/>
			<psa30 value="0.000485900363874431" flag="0"/>
		</comp>
		<comp name="--.HNN" depth="0.0">
			<acc value="0.0113395640778506" flag="0"/>
			<vel value="0.00722873733364028" flag="0"/>
			<psa03 value="0.0247871824665226" flag="0"/>
			<psa10 value="0.00827507111404936" flag="0"/>
			<psa30 value="0.00119461691670786" flag="0"/>
		</comp>
		<comp name="--.HNZ" depth="0.0">
			<acc value="0.00641059461664523" flag="0"/>
			<vel value="0.00572046813351306" flag="0"/>
			<psa03 value="0.0212078059370608" flag="0"/>
			<psa10 value="0.00789655204605878" flag="0"/>
			<psa30 value="0.000876947249718126" flag="0"/>
		</comp>
	</station>
	<station code="CRES" name="CRES" netid="SL" source="Seismic Network of the Republic of Slovenia (SNRS)" insttype="" lat="45.826" lon="15.4569" esm:processing="manual (Paolucci et al 2011)" esm:quality="best">
		<comp name="--.HNE" depth="0.0">
			<acc value="0.130525592702291" flag="0"/>
			<vel value="0.0480623677568343" flag="0"/>
			<psa03 value="0.452746388770292" flag="0"/>
			<psa10 value="0.0293835493524176" flag="0"/>
			<psa30 value="0.0021046733993235" flag="0"/>
		</comp>
		<comp name="--.HNN" depth="0.0">
			<acc value="0.0877422378405899" flag="0"/>
			<vel value="0.0325178639318443" flag="0"/>
			<psa03 value="0.197805295459379" flag="0"/>
			<psa10 value="0.0236010665690722" flag="0"/>
			<psa30 value="0.00153018346634489" flag="0"/>
		</comp>
		<comp name="--.HNZ" depth="0.0">
			<acc value="0.0636851850083958" flag="0"/>
			<vel value="0.0161236775545294" flag="0"/>
			<psa03 value="0.101385840197004" flag="0"/>
			<psa10 value="0.00960794144920768" flag="0"/>
			<psa30 value="0.000582096108103715" flag="0"/>
		</comp>
	</station>
	<station code="CRNS" name="CRNS" netid="SL" source="Seismic Network of the Republic of Slovenia (SNRS)" insttype="" lat="46.0807" lon="14.2613" esm:processing="manual (Paolucci et al 2011)" esm:quality="good">
		<comp name="--.HNE" depth="0.0">
			<acc value="0.0226682245871924" flag="0"/>
			<vel value="0.00919841695113209" flag="0"/>
			<psa03 value="0.0520799285036683" flag="0"/>
			<psa10 value="0.00821466913511469" flag="0"/>
			<psa30 value="0.000625943470589622" flag="0"/>
		</comp>
		<comp name="--.HNN" depth="0.0">
			<acc value="0.0150025848420505" flag="0"/>
			<vel value="0.00724309820183085" flag="0"/>
			<psa03 value="0.0406259236093908" flag="0"/>
			<psa10 value="0.00706300473676038" flag="0"/>
			<psa30 value="0.000741378363664763" flag="0"/>
		</comp>
		<comp name="--.HNZ" depth="0.0">
			<acc value="0.00719047611286196" flag="0"/>
			<vel value="0.00361788312203163" flag="0"/>
			<psa03 value="0.0145412171509383" flag="0"/>
			<psa10 value="0.00393418222794463" flag="0"/>
			<psa30 value="0.000430420027667774" flag="0"/>
		</comp>
	</station>
	<station code="DOBS" name="DOBS" netid="SL" source="Seismic Network of the Republic of Slovenia (SNRS)" insttype="" lat="46.1495" lon="15.4695" esm:processing="manual (Paolucci et al 2011)" esm:quality="best">
		<comp name="--.HNE" depth="0.0">
			<acc value="0.0834087523310136" flag="0"/>
			<vel value="0.0258637432007295" flag="0"/>
			<psa03 value="0.113369228905114" flag="0"/>
			<psa10 value="0.0171275158638725" flag="0"/>
			<psa30 value="0.00227001454399143" flag="0"/>
		</comp>
		<comp name="--.HNN" depth="0.0">
			<acc value="0.0779780970769632" flag="0"/>
			<vel value="0.0202349326994052" flag="0"/>
			<psa03 value="0.119978833425396" flag="0"/>
			<psa10 value="0.0144561229597073" flag="0"/>
			<psa30 value="0.00166510342992989" flag="0"/>
		</comp>
		<comp name="--.HNZ" depth="0.0">
			<acc value="0.0331875045864572" flag="0"/>
			<vel value="0.00952673573065551" flag="0"/>
			<psa03 value="0.0404156643185716" flag="0"/>
			<psa10 value="0.00982034148693767" flag="0"/>
			<psa30 value="0.000960545506424969" flag="0"/>
		</comp>
	</station>
	<station code="DTSE" name="DTSE" netid="SL" source="Seismic Network of the Republic of Slovenia (SNRS)" insttype="" lat="46.0251" lon="14.8395" esm:processing="manual (Paolucci et al 2011)" esm:quality="good">
		<comp name="--.HN1" depth="0.0">
			<acc value="0.0484617104476148" flag="0"/>
			<vel value="0.025343347968431" flag="0"/>
			<psa03 value="0.0743083340207705" flag="0"/>
			<psa10 value="0.0329778733722438" flag="0"/>
			<psa30 value="0.00147477227975995" flag="0"/>
		</comp>
		<comp name="--.HN2" depth="0.0">
			<acc value="0.018781022172481" flag="0"/>
			<vel value="0.0165294836103121" flag="0"/>
			<psa03 value="0.0720514709729615" flag="0"/>
			<psa10 value="0.0232800740656343" flag="0"/>
			<psa30 value="0.00139693701938848" flag="0"/>
		</comp>
		<comp name="--.HNZ" depth="0.0">
			<acc value="0.0207586239436086" flag="0"/>
			<vel value="0.018237226276578" flag="0"/>
			<psa03 value="0.0371239566757475" flag="0"/>
			<psa10 value="0.0137326822227911" flag="0"/>
			<psa30 value="0.00119319248064597" flag="0"/>
		</comp>
	</station>
	<station code="GBAS" name="GBAS" netid="SL" source="Seismic Network of the Republic of Slovenia (SNRS)" insttype="" lat="45.9348" lon="14.4434" esm:processing="manual (Paolucci et al 2011)" esm:quality="best">
		<comp name="--.HNE" depth="0.0">
			<acc value="0.00725139405324908" flag="0"/>
			<vel value="0.00418777537764021" flag="0"/>
			<psa03 value="0.0151228658369759" flag="0"/>
			<psa10 value="0.00622543062886633" flag="0"/>
			<psa30 value="0.000518114752639587" flag="0"/>
		</comp>
		<comp name="--.HNN" depth="0.0">
			<acc value="0.007327826491068" flag="0"/>
			<vel value="0.005503352028646" flag="0"/>
			<psa03 value="0.0226842987554638" flag="0"/>
			<psa10 value="0.00917707399947372" flag="0"/>
			<psa30 value="0.000664869190347518" flag="0"/>
		</comp>
		<comp name="--.HNZ" depth="0.0">
			<acc value="0.00737812052744892" flag="0"/>
			<vel value="0.00427537905798626" flag="0"/>
			<psa03 value="0.0144517327377018" flag="0"/>
			<psa10 value="0.00671267325893931" flag="0"/>
			<psa30 value="0.000917662657740753" flag="0"/>
		</comp>
	</station>
	<station code="GBRS" name="GBRS" netid="SL" source="Seismic Network of the Republic of Slovenia (SNRS)" insttype="" lat="45.5311" lon="14.8101" esm:processing="manual (Paolucci et al 2011)" esm:quality="best">
		<comp name="--.HNE" depth="0.0">
			<acc value="0.0208443450043239" flag="0"/>
			<vel value="0.00761454985553531" flag="0"/>
			<psa03 value="0.0211884101385908" flag="0"/>
			<psa10 value="0.0105216782595538" flag="0"/>
			<psa30 value="0.000826574756520623" flag="0"/>
		</comp>
		<comp name="--.HNN" depth="0.0">
			<acc value="0.0167377445767206" flag="0"/>
			<vel value="0.00629887155404829" flag="0"/>
			<psa03 value="0.0206158617934" flag="0"/>
			<psa10 value="0.00798726786730349" flag="0"/>
			<psa30 value="0.000699064642935897" flag="0"/>
		</comp>
		<comp name="--.HNZ" depth="0.0">
			<acc value="0.0115089868753196" flag="0"/>
			<vel value="0.00592589373094708" flag="0"/>
			<psa03 value="0.0166133557616155" flag="0"/>
			<psa10 value="0.00657639721654308" flag="0"/>
			<psa30 value="0.000986551812550989" flag="0"/>
		</comp>
	</station>
	<station code="GCIS" name="GCIS" netid="SL" source="Seismic Network of the Republic of Slovenia (SNRS)" insttype="" lat="45.8672" lon="15.6275" esm:processing="manual (Paolucci et al 2011)" esm:quality="best">
		<comp name="--.HNE" depth="0.0">
			<acc value="0.0601265476738509" flag="0"/>
			<vel value="0.0237598596880549" flag="0"/>
			<psa03 value="0.0958281814802795" flag="0"/>
			<psa10 value="0.0127310152422818" flag="0"/>
			<psa30 value="0.00123645492990232" flag="0"/>
		</comp>
		<comp name="--.HNN" depth="0.0">
			<acc value="0.0672385421372158" flag="0"/>
			<vel value="0.0279306251061746" flag="0"/>
			<psa03 value="0.104756241670219" flag="0"/>
			<psa10 value="0.0129841026330826" flag="0"/>
			<psa30 value="0.00124454786185557" flag="0"/>
		</comp>
		<comp name="--.HNZ" depth="0.0">
			<acc value="0.0350155678914767" flag="0"/>
			<vel value="0.0118849635258011" flag="0"/>
			<psa03 value="0.0603785154051935" flag="0"/>
			<psa10 value="0.00786275774411293" flag="0"/>
			<psa30 value="0.000441409762063613" flag="0"/>
		</comp>
	</station>
	<station code="GOLS" name="GOLS" netid="SL" source="Seismic Network of the Republic of Slovenia (SNRS)" insttype="" lat="46.0108" lon="15.6245" esm:processing="manual (Paolucci et al 2011)" esm:quality="best">
		<comp name="--.HNE" depth="0.0">
			<acc value="0.0934562733718288" flag="0"/>
			<vel value="0.0345438383583089" flag="0"/>
			<psa03 value="0.1026449038879" flag="0"/>
			<psa10 value="0.0391629556036099" flag="0"/>
			<psa30 value="0.00260021183460836" flag="0"/>
		</comp>
		<comp name="--.HNN" depth="0.0">
			<acc value="0.0740827936390331" flag="0"/>
			<vel value="0.0227034724531045" flag="0"/>
			<psa03 value="0.103901851737742" flag="0"/>
			<psa10 value="0.0172996935197844" flag="0"/>
			<psa30 value="0.00211597392288774" flag="0"/>
		</comp>
		<comp name="--.HNZ" depth="0.0">
			<acc value="0.045770170666121" flag="0"/>
			<vel value="0.0177048494149229" flag="0"/>
			<psa03 value="0.0656511719847083" flag="0"/>
			<psa10 value="0.0150959406569624" flag="0"/>
			<psa30 value="0.000863075091153784" flag="0"/>
		</comp>
	</station>
	<station code="GORS" name="GORS" netid="SL" source="Seismic Network of the Republic of Slovenia (SNRS)" insttype="" lat="46.3174" lon="13.9999" esm:processing="manual (Paolucci et al 2011)" esm:quality="best">
		<comp name="--.HNE" depth="0.0">
			<acc value="0.00469916612581538" flag="0"/>
			<vel value="0.00290142764578472" flag="0"/>
			<psa03 value="0.0132884353656267" flag="0"/>
			<psa10 value="0.0021825248388393" flag="0"/>
			<psa30 value="0.000489479740403893" flag="0"/>
		</comp>
		<comp name="--.HNN" depth="0.0">
			<acc value="0.00521568653965046" flag="0"/>
			<vel value="0.00342880124101076" flag="0"/>
			<psa03 value="0.0101117386957294" flag="0"/>
			<psa10 value="0.0035596899585497" flag="0"/>
			<psa30 value="0.000424603540807399" flag="0"/>
		</comp>
		<comp name="--.HNZ" depth="0.0">
			<acc value="0.00399998818659862" flag="0"/>
			<vel value="0.0028202447692483" flag="0"/>
			<psa03 value="0.00984328545601979" flag="0"/>
			<psa10 value="0.00297177736358561" flag="0"/>
			<psa30 value="0.000577621887441888" flag="0"/>
		</comp>
	</station>
	<station code="GROS" name="GROS" netid="SL" source="Seismic Network of the Republic of Slovenia (SNRS)" insttype="" lat="46.461" lon="15.5018" esm:processing="manual (Paolucci et al 2011)" esm:quality="best">
		<comp name="--.HNE" depth="0.0">
			<acc value="0.0423637944979201" flag="0"/>
			<vel value="0.00828079406403132" flag="0"/>
			<psa03 value="0.0385741777458055" flag="0"/>
			<psa10 value="0.00859888369632767" flag="0"/>
			<psa30 value="0.000810389361400596" flag="0"/>
		</comp>
		<comp name="--.HNN" depth="0.0">
			<acc value="0.0251737644677015" flag="0"/>
			<vel value="0.00712659326948082" flag="0"/>
			<psa03 value="0.0266084319488571" flag="0"/>
			<psa10 value="0.00399538529966975" flag="0"/>
			<psa30 value="0.000612277018682572" flag="0"/>
		</comp>
		<comp name="--.HNZ" depth="0.0">
			<acc value="0.0245221501940827" flag="0"/>
			<vel value="0.00742806461025587" flag="0"/>
			<psa03 value="0.0294073413211861" flag="0"/>
			<psa10 value="0.00585110713838559" flag="0"/>
			<psa30 value="0.000514639977787474" flag="0"/>
		</comp>
	</station>
	<station code="JAVS" name="JAVS" netid="SL" source="Seismic Network of the Republic of Slovenia (SNRS)" insttype="" lat="45.8934" lon="14.0643" esm:processing="manual (Paolucci et al 2011)" esm:quality="best">
		<comp name="--.HNE" depth="0.0">
			<acc value="0.00970402789894589" flag="0"/>
			<vel value="0.00748165080674358" flag="0"/>
			<psa03 value="0.0202033722284346" flag="0"/>
			<psa10 value="0.00662846425947915" flag="0"/>
			<psa30 value="0.000507590239947181" flag="0"/>
		</comp>
		<comp name="--.HNN" depth="0.0">
			<acc value="0.00664533823118487" flag="0"/>
			<vel value="0.00366210432544628" flag="0"/>
			<psa03 value="0.0221503241210782" flag="0"/>
			<psa10 value="0.00449352189251601" flag="0"/>
			<psa30 value="0.000718217317955271" flag="0"/>
		</comp>
		<comp name="--.HNZ" depth="0.0">
			<acc value="0.0046903672325613" flag="0"/>
			<vel value="0.00331413957097484" flag="0"/>
			<psa03 value="0.0113505722322202" flag="0"/>
			<psa10 value="0.00557945320512756" flag="0"/>
			<psa30 value="0.000311651348497486" flag="0"/>
		</comp>
	</station>
	<station code="KNDS" name="KNDS" netid="SL" source="Seismic Network of the Republic of Slovenia (SNRS)" insttype="" lat="45.5278" lon="14.3807" esm:processing="manual (Paolucci et al 2011)" esm:quality="best">
		<comp name="--.HNE" depth="0.0">
			<acc value="0.012905924908034" flag="0"/>
			<vel value="0.00967357163620042" flag="0"/>
			<psa03 value="0.0261954801136769" flag="0"/>
			<psa10 value="0.015919090186589" flag="0"/>
			<psa30 value="0.000784433475285111" flag="0"/>
		</comp>
		<comp name="--.HNN" depth="0.0">
			<acc value="0.0122274083051279" flag="0"/>
			<vel value="0.00820882025993511" flag="0"/>
			<psa03 value="0.0365698783041376" flag="0"/>
			<psa10 value="0.00830689779120962" flag="0"/>
			<psa30 value="0.000888388330535198" flag="0"/>
		</comp>
		<comp name="--.HNZ" depth="0.0">
			<acc value="0.00487692503362711" flag="0"/>
			<vel value="0.00341599409168313" flag="0"/>
			<psa03 value="0.013925337849891" flag="0"/>
			<psa10 value="0.00582269947525682" flag="0"/>
			<psa30 value="0.00046030044056248" flag="0"/>
		</comp>
	</station>
	<station code="KOGS" name="KOGS" netid="SL" source="Seismic Network of the Republic of Slovenia (SNRS)" insttype="" lat="46.4481" lon="16.2504" esm:processing="manual (Paolucci et al 2011)" esm:quality="best">
		<comp name="--.HNE" depth="0.0">
			<acc value="0.0645549316373116" flag="0"/>
			<vel value="0.0210979917418252" flag="0"/>
			<psa03 value="0.104562536866901" flag="0"/>
			<psa10 value="0.0275392755956124" flag="0"/>
			<psa30 value="0.00293464133209244" flag="0"/>
		</comp>
		<comp name="--.HNN" depth="0.0">
			<acc value="0.0701345545765894" flag="0"/>
			<vel value="0.0280379505613419" flag="0"/>
			<psa03 value="0.103354497288208" flag="0"/>
			<psa10 value="0.0184628715610298" flag="0"/>
			<psa30 value="0.00169170283223685" flag="0"/>
		</comp>
		<comp name="--.HNZ" depth="0.0">
			<acc value="0.037046139099986" flag="0"/>
			<vel value="0.0112603999641652" flag="0"/>
			<psa03 value="0.0564199225456407" flag="0"/>
			<psa10 value="0.0106790698756491" flag="0"/>
			<psa30 value="0.00113510978190555" flag="0"/>
		</comp>
	</station>
	<station code="LEGS" name="LEGS" netid="SL" source="Seismic Network of the Republic of Slovenia (SNRS)" insttype="" lat="45.9488" lon="15.3177" esm:processing="manual (Paolucci et al 2011)" esm:quality="best">
		<comp name="--.HNE" depth="0.0">
			<acc value="0.0640448354504776" flag="0"/>
			<vel value="0.0413953700105791" flag="0"/>
			<psa03 value="0.151915261557211" flag="0"/>
			<psa10 value="0.0518219379491139" flag="0"/>
			<psa30 value="0.0030769917522692" flag="0"/>
		</comp>
		<comp name="--.HNN" depth="0.0">
			<acc value="0.0385320933764824" flag="0"/>
			<vel value="0.0272677586322882" flag="0"/>
			<psa03 value="0.0878737795400134" flag="0"/>
			<psa10 value="0.0329989610192088" flag="0"/>
			<psa30 value="0.00227496737209114" flag="0"/>
		</comp>
		<comp name="--.HNZ" depth="0.0">
			<acc value="0.0356133722007505" flag="0"/>
			<vel value="0.0155524775666745" flag="0"/>
			<psa03 value="0.0700902420929661" flag="0"/>
			<psa10 value="0.0103971503226921" flag="0"/>
			<psa30 value="0.00090317097647645" flag="0"/>
		</comp>
	</station>
	<station code="LJU" name="LJU" netid="SL" source="Seismic Network of the Republic of Slovenia (SNRS)" insttype="" lat="46.0438" lon="14.5278" esm:processing="manual (Paolucci et al 2011)" esm:quality="best">
		<comp name="--.HNE" depth="0.0">
			<acc value="0.0185596067391498" flag="0"/>
			<vel value="0.00814619339940311" flag="0"/>
			<psa03 value="0.0379413912122945" flag="0"/>
			<psa10 value="0.00829923190562323" flag="0"/>
			<psa30 value="0.00113421493777319" flag="0"/>
		</comp>
		<comp name="--.HNN" depth="0.0">
			<acc value="0.0186451851960334" flag="0"/>
			<vel value="0.00793816442290255" flag="0"/>
			<psa03 value="0.0346304679225423" flag="0"/>
			<psa10 value="0.00888714450058732" flag="0"/>
			<psa30 value="0.00103130786255116" flag="0"/>
		</comp>
		<comp name="--.HNZ" depth="0.0">
			<acc value="0.00786240597667427" flag="0"/>
			<vel value="0.00644796634528348" flag="0"/>
			<psa03 value="0.0124830756464978" flag="0"/>
			<psa10 value="0.0092656635685779" flag="0"/>
			<psa30 value="0.00166619977446444" flag="0"/>
		</comp>
	</station>
	<station code="MOZS" name="MOZS" netid="SL" source="Seismic Network of the Republic of Slovenia (SNRS)" insttype="" lat="46.2941" lon="14.4433" esm:processing="manual (Paolucci et al 2011)" esm:quality="good">
		<comp name="--.HNE" depth="0.0">
			<acc value="0.0172935852131797" flag="0"/>
			<vel value="0.00928748168181094" flag="0"/>
			<psa03 value="0.0321249043519191" flag="0"/>
			<psa10 value="0.00695428117467798" flag="0"/>
			<psa30 value="0.000911398748814196" flag="0"/>
		</comp>
		<comp name="--.HNN" depth="0.0">
			<acc value="0.00931068162077943" flag="0"/>
