<?xml version="1.0" encoding="UTF-8" standalone="yes"?>
<!DOCTYPE earthquake SYSTEM "stationlist.dtd">
<stationlist created="" xmlns="ch.ethz.sed.shakemap.usgs.xml">
  <station code="BEHE" name="BEHE" netid="HU" insttype="" lat="46.4703" lon="16.7755">
    <comp name="--.HHE">
      <acc value="0.0238320629" flag="0"/>
      <vel value="0.0116729007" flag="0"/>
      <psa03 value="0.0766057397" flag="0"/>
      <psa10 value="0.0163210749" flag="0"/>
      <psa30 value="0.0012260384" flag="0"/>
    </comp>
    <comp name="--.HHN">
      <acc value="0.0248016331" flag="0"/>
      <vel value="0.0148961415" flag="0"/>
      <psa03 value="0.0811748795" flag="0"/>
      <psa10 value="0.0192950939" flag="0"/>
      <psa30 value="0.0014672017" flag="0"/>
    </comp>
    <comp name="--.HHZ">
      <acc value="0.0309183591" flag="0"/>
      <vel value="0.0152236309" flag="0"/>
      <psa03 value="0.0760071300" flag="0"/>
      <psa10 value="0.0091115936" flag="0"/>
      <psa30 value="0.0007377737" flag="0"/>
    </comp>
  </station>
  <station code="BLY" name="BLY" netid="MN" insttype="" lat="44.7488" lon="17.1839">
    <comp name="--.HHZ">
      <acc value="0.0398949925" flag="0"/>
      <vel value="0.0190349522" flag="0"/>
      <psa03 value="0.1471553453" flag="0"/>
      <psa10 value="0.0195001456" flag="0"/>
      <psa30 value="0.0013115770" flag="0"/>
    </comp>
    <comp name="--.HHN">
      <acc value="0.0518129648" flag="0"/>
      <vel value="0.0223605313" flag="0"/>
      <psa03 value="0.1404208171" flag="0"/>
      <psa10 value="0.0270027970" flag="0"/>
      <psa30 value="0.0013309249" flag="0"/>
    </comp>
    <comp name="--.HHE">
      <acc value="0.0525352136" flag="0"/>
      <vel value="0.0234800997" flag="0"/>
      <psa03 value="0.1583627560" flag="0"/>
      <psa10 value="0.0184599334" flag="0"/>
      <psa30 value="0.0010905973" flag="0"/>
    </comp>
  </station>
</stationlist>
