<?xml version="1.0" encoding="UTF-8" standalone="yes"?>
<!DOCTYPE earthquake SYSTEM "stationlist.dtd">
<stationlist created="" xmlns="ch.ethz.sed.shakemap.usgs.xml">
  <station code="ZKR" name="ZKR" netid="GE" insttype="STS-2/N" lat="35.1147" lon="26.2169">
    <comp name="--.HHE">
      <acc value="1.2260941559" flag="0"/>
      <vel value="0.5140868723" flag="0"/>
      <psa03 value="1.3306340458" flag="0"/>
      <psa10 value="0.3492298013" flag="0"/>
      <psa30 value="0.0241171508" flag="0"/>
    </comp>
    <comp name="--.HHN">
      <acc value="0.1981070760" flag="0"/>
      <vel value="0.0882445612" flag="0"/>
      <psa03 value="0.2898302811" flag="0"/>
      <psa10 value="0.0533845454" flag="0"/>
      <psa30 value="0.0046923066" flag="0"/>
    </comp>
    <comp name="--.HHZ">
      <acc value="0.4873228597" flag="0"/>
      <vel value="0.1050652190" flag="0"/>
      <psa03 value="0.3828372146" flag="0"/>
      <psa10 value="0.0907875967" flag="0"/>
      <psa30 value="0.0054603147" flag="0"/>
    </comp>
  </station>
  <station code="KNSS" name="KNSS" netid="HC" insttype="60" lat="35.3042" lon="25.1802">
    <comp name="--.HHE">
      <acc value="0.0103511925" flag="0"/>
      <vel value="0.0072332092" flag="0"/>
      <psa03 value="0.0231550854" flag="0"/>
      <psa10 value="0.0121064670" flag="0"/>
      <psa30 value="0.0007454870" flag="0"/>
    </comp>
    <comp name="--.HHZ">
      <acc value="0.0080367473" flag="0"/>
      <vel value="0.0036770784" flag="0"/>
      <psa03 value="0.0144409250" flag="0"/>
      <psa10 value="0.0038114201" flag="0"/>
      <psa30 value="0.0006594616" flag="0"/>
    </comp>
    <comp name="--.HHN">
      <acc value="0.0074682932" flag="0"/>
      <vel value="0.0069750058" flag="0"/>
      <psa03 value="0.0209786443" flag="0"/>
      <psa10 value="0.0119712496" flag="0"/>
      <psa30 value="0.0012132665" flag="0"/>
    </comp>
  </station>
  <station code="PFKS" name="PFKS" netid="HC" insttype="120" lat="35.0429" lon="25.4733">
    <comp name="--.HHE">
      <acc value="0.0666635598" flag="0"/>
      <vel value="0.0236109972" flag="0"/>
      <psa03 value="0.1647745371" flag="0"/>
      <psa10 value="0.0161366756" flag="0"/>
      <psa30 value="0.0011762695" flag="0"/>
    </comp>
    <comp name="--.HHZ">
      <acc value="0.0356510441" flag="0"/>
      <vel value="0.0126324983" flag="0"/>
      <psa03 value="0.0755725926" flag="0"/>
      <psa10 value="0.0111508937" flag="0"/>
      <psa30 value="0.0007839127" flag="0"/>
    </comp>
    <comp name="--.HHN">
      <acc value="0.0558319572" flag="0"/>
      <vel value="0.0200933097" flag="0"/>
      <psa03 value="0.0808629732" flag="0"/>
      <psa10 value="0.0181173991" flag="0"/>
      <psa30 value="0.0013896393" flag="0"/>
    </comp>
  </station>
  <station code="STIA" name="STIA" netid="HC" insttype="120" lat="35.2021" lon="26.0909">
    <comp name="--.HHN">
      <acc value="0.1576029685" flag="0"/>
      <vel value="0.0713982496" flag="0"/>
      <psa03 value="0.2047370439" flag="0"/>
      <psa10 value="0.0938793000" flag="0"/>
      <psa30 value="0.0048872733" flag="0"/>
    </comp>
    <comp name="--.HHZ">
      <acc value="0.1920948772" flag="0"/>
      <vel value="0.0432580656" flag="0"/>
      <psa03 value="0.1088938157" flag="0"/>
      <psa10 value="0.0297358961" flag="0"/>
      <psa30 value="0.0019893808" flag="0"/>
    </comp>
    <comp name="--.HHE">
      <acc value="0.1607213585" flag="0"/>
      <vel value="0.0988988861" flag="0"/>
      <psa03 value="0.1835977907" flag="0"/>
      <psa10 value="0.1414537593" flag="0"/>
      <psa30 value="0.0087617670" flag="0"/>
    </comp>
  </station>
  <station code="KSS1" name="KSS1" netid="HI" insttype="CMG-5TD,ACCELEROMETER,GURALP" lat="35.4189" lon="26.9207">
    <comp name="--.HNE">
      <acc value="0.0315533565" flag="0"/>
      <vel value="0.0133022354" flag="0"/>
      <psa03 value="0.1249929165" flag="0"/>
      <psa10 value="0.0224551247" flag="0"/>
      <psa30 value="0.0016764396" flag="0"/>
    </comp>
    <comp name="--.HNZ">
      <acc value="0.0240485844" flag="0"/>
      <vel value="0.0110264728" flag="0"/>
      <psa03 value="0.0448597804" flag="0"/>
      <psa10 value="0.0134609961" flag="0"/>
      <psa30 value="0.0008314555" flag="0"/>
    </comp>
    <comp name="--.HNN">
      <acc value="0.0468430019" flag="0"/>
      <vel value="0.0212367681" flag="0"/>
      <psa03 value="0.1622195001" flag="0"/>
      <psa10 value="0.0196710045" flag="0"/>
      <psa30 value="0.0016611996" flag="0"/>
    </comp>
  </station>
  <station code="IACM" name="IACM" netid="HL" insttype="120" lat="35.3058" lon="25.0709">
    <comp name="--.HHE">
      <acc value="0.0322317252" flag="0"/>
      <vel value="0.0392683412" flag="0"/>
      <psa03 value="0.0792303148" flag="0"/>
      <psa10 value="0.0825645762" flag="0"/>
      <psa30 value="0.0050136905" flag="0"/>
    </comp>
    <comp name="--.HHN">
      <acc value="0.0300810416" flag="0"/>
      <vel value="0.0238032401" flag="0"/>
      <psa03 value="0.0774402402" flag="0"/>
      <psa10 value="0.0500576367" flag="0"/>
      <psa30 value="0.0025634368" flag="0"/>
    </comp>
    <comp name="--.HHZ">
      <acc value="0.0220811571" flag="0"/>
      <vel value="0.0156175670" flag="0"/>
      <psa03 value="0.0485114632" flag="0"/>
      <psa10 value="0.0315524597" flag="0"/>
      <psa30 value="0.0015305403" flag="0"/>
    </comp>
  </station>
  <station code="ZKR" name="ZKR" netid="HL" insttype="120" lat="35.1147" lon="26.2169">
    <comp name="--.HHZ">
      <acc value="0.4779150176" flag="0"/>
      <vel value="0.1019281017" flag="0"/>
      <psa03 value="0.3722198354" flag="0"/>
      <psa10 value="0.0902090359" flag="0"/>
      <psa30 value="0.0054358334" flag="0"/>
    </comp>
    <comp name="--.HHE">
      <acc value="1.2120777529" flag="0"/>
      <vel value="0.5062597545" flag="0"/>
      <psa03 value="1.3013541252" flag="0"/>
      <psa10 value="0.3447781797" flag="0"/>
      <psa30 value="0.0239512518" flag="0"/>
    </comp>
    <comp name="--.HHN">
      <acc value="0.1962096844" flag="0"/>
      <vel value="0.0863858107" flag="0"/>
      <psa03 value="0.2814036065" flag="0"/>
      <psa10 value="0.0527033206" flag="0"/>
      <psa30 value="0.0046680588" flag="0"/>
    </comp>
  </station>
</stationlist>
