<?xml version="1.0" encoding="UTF-8" standalone="yes"?>
<!DOCTYPE earthquake SYSTEM "stationlist.dtd">
<stationlist created="" xmlns="ch.ethz.sed.shakemap.usgs.xml">
  <station code="ZKR" name="ZKR" netid="GE" insttype="STS-2/N" lat="35.1147" lon="26.2169">
    <comp name="--.HHE">
      <acc value="1.2260941559" flag="0"/>
      <vel value="0.5140868723" flag="0"/>
      <psa03 value="1.3306340458" flag="0"/>
      <psa10 value="0.3492298013" flag="0"/>
      <psa30 value="0.0241171508" flag="0"/>
    </comp>
    <comp name="--.HHN">
      <acc value="0.1981070760" flag="0"/>
      <vel value="0.0882445612" flag="0"/>
      <psa03 value="0.2898302811" flag="0"/>
      <psa10 value="0.0533845454" flag="0"/>
      <psa30 value="0.0046923066" flag="0"/>
    </comp>
    <comp name="--.HHZ">
      <acc value="0.4873228597" flag="0"/>
      <vel value="0.1050652190" flag="0"/>
      <psa03 value="0.3828372146" flag="0"/>
      <psa10 value="0.0907875967" flag="0"/>
      <psa30 value="0.0054603147" flag="0"/>
    </comp>
  </station>
</stationlist>
