<stationlist xmlns:esm="https://esm-db.eu/esmws/shakemap/1/" created="1784685245">
	<station code="CIMA" name="CIMA" netid="IV" source="Italian National Seismic Network (INSN)" insttype="" lat="43.305297" lon="13.670091" esm:processing="manual (Paolucci et al 2011)" esm:quality="good">
		<comp name="--.HNE" depth="0.0">
			<acc value="0.349604898396514" flag="0"/>
			<vel value="0.863640770324681" flag="0"/>
			<psa03 value="0.443797947446638" flag="0"/>
			<psa10 value="1.20922748427905" flag="0"/>
			<psa30 value="0.42795562692724" flag="0"/>
		</comp>
		<comp name="--.HNN" depth="0.0">
			<acc value="0.344263320720604" flag="0"/>
			<vel value="1.26535421822761" flag="0"/>
			<psa03 value="0.473596257054407" flag="0"/>
			<psa10 value="0.71912180040457" flag="0"/>
			<psa30 value="0.454692674758187" flag="0"/>
		</comp>
		<comp name="--.HNZ" depth="0.0">
			<acc value="0.121337603042155" flag="0"/>
			<vel value="0.409740403033954" flag="0"/>
			<psa03 value="0.168051728058229" flag="0"/>
			<psa10 value="0.238853585499247" flag="0"/>
			<psa30 value="0.219690050982575" flag="0"/>
		</comp>
	</station>
	<station code="COR1" name="COR1" netid="IV" source="Italian National Seismic Network (INSN)" insttype="" lat="43.63183" lon="13.00033" esm:processing="manual (Paolucci et al 2011)" esm:quality="good">
		<comp name="--.HNE" depth="0.0">
			<acc value="0.202001777072175" flag="0"/>
			<vel value="0.889156865658586" flag="0"/>
			<psa03 value="0.375297629114064" flag="0"/>
			<psa10 value="0.674243130056112" flag="0"/>
			<psa30 value="0.289284316266965" flag="0"/>
		</comp>
		<comp name="--.HNN" depth="0.0">
			<acc value="0.277112332002143" flag="0"/>
			<vel value="0.801870520091646" flag="0"/>
			<psa03 value="0.306842052988108" flag="0"/>
			<psa10 value="0.623815531242857" flag="0"/>
			<psa30 value="0.308633978363169" flag="0"/>
		</comp>
		<comp name="--.HNZ" depth="0.0">
			<acc value="0.123152396053103" flag="0"/>
			<vel value="0.360513118897074" flag="0"/>
			<psa03 value="0.171541620174454" flag="0"/>
			<psa10 value="0.31001114348288" flag="0"/>
			<psa30 value="0.142682449483602" flag="0"/>
		</comp>
	</station>
	<station code="FANO" name="FANO" netid="IV" source="Italian National Seismic Network (INSN)" insttype="" lat="43.843471" lon="13.018354" esm:processing="manual (Paolucci et al 2011)" esm:quality="good">
		<comp name="--.HNE" depth="0.0">
			<acc value="0.264071619769136" flag="0"/>
			<vel value="0.65225258225371" flag="0"/>
			<psa03 value="0.384514523677427" flag="0"/>
			<psa10 value="0.728584777104334" flag="0"/>
			<psa30 value="0.271255891532199" flag="0"/>
		</comp>
		<comp name="--.HNN" depth="0.0">
			<acc value="0.227708548899108" flag="0"/>
			<vel value="0.610879605742229" flag="0"/>
			<psa03 value="0.398071412282764" flag="0"/>
			<psa10 value="1.07842498549673" flag="0"/>
			<psa30 value="0.225218845454394" flag="0"/>
		</comp>
		<comp name="--.HNZ" depth="0.0">
			<acc value="0.104019794113247" flag="0"/>
			<vel value="0.291132668776972" flag="0"/>
			<psa03 value="0.135837339293073" flag="0"/>
			<psa10 value="0.267061309661736" flag="0"/>
			<psa30 value="0.119634844010398" flag="0"/>
		</comp>
	</station>
	<station code="FCOR" name="FCOR" netid="IV" source="Italian National Seismic Network (INSN)" insttype="" lat="43.76911" lon="12.81459" esm:processing="manual (Paolucci et al 2011)" esm:quality="good">
		<comp name="--.HNE" depth="0.0">
			<acc value="0.153886423537361" flag="0"/>
			<vel value="0.306559568259721" flag="0"/>
			<psa03 value="0.215433724866979" flag="0"/>
			<psa10 value="0.386113610141964" flag="0"/>
			<psa30 value="0.0941778707108002" flag="0"/>
		</comp>
		<comp name="--.HNN" depth="0.0">
			<acc value="0.209192610216015" flag="0"/>
			<vel value="0.435063957028453" flag="0"/>
			<psa03 value="0.218744648156731" flag="0"/>
			<psa10 value="0.299247510836722" flag="0"/>
			<psa30 value="0.187255977982923" flag="0"/>
		</comp>
		<comp name="--.HNZ" depth="0.0">
			<acc value="0.0626335037724135" flag="0"/>
			<vel value="0.139541109707006" flag="0"/>
			<psa03 value="0.155479167998494" flag="0"/>
			<psa10 value="0.142294981974288" flag="0"/>
			<psa30 value="0.0346412060521307" flag="0"/>
		</comp>
	</station>
	<station code="FRE8" name="FRE8" netid="IV" source="Italian National Seismic Network (INSN)" insttype="" lat="46.015" lon="12.3552" esm:processing="manual (Paolucci et al 2011)" esm:quality="good">
		<comp name="--.HNE" depth="0.0">
			<acc value="0.353512067608397" flag="0"/>
			<vel value="0.508834174730123" flag="0"/>
			<psa03 value="0.858066038525216" flag="0"/>
			<psa10 value="0.567790682381655" flag="0"/>
			<psa30 value="0.115752562742131" flag="0"/>
		</comp>
		<comp name="--.HNN" depth="0.0">
			<acc value="0.152214590705234" flag="0"/>
			<vel value="0.324721356699107" flag="0"/>
			<psa03 value="0.363127748913894" flag="0"/>
			<psa10 value="0.358739433288773" flag="0"/>
			<psa30 value="0.0843547192477586" flag="0"/>
		</comp>
		<comp name="--.HNZ" depth="0.0">
			<acc value="0.152510373287483" flag="0"/>
			<vel value="0.248706718627503" flag="0"/>
			<psa03 value="0.325320584321454" flag="0"/>
			<psa10 value="0.205910346188279" flag="0"/>
			<psa30 value="0.0717660519936417" flag="0"/>
		</comp>
	</station>
	<station code="FREG" name="FREG" netid="IV" source="Italian National Seismic Network (INSN)" insttype="" lat="46.011092" lon="12.312986" esm:processing="manual (Paolucci et al 2011)" esm:quality="best">
		<comp name="--.HNE" depth="0.0">
			<acc value="0.749534577917963" flag="0"/>
			<vel value="0.544575927530591" flag="0"/>
			<psa03 value="1.93885878159619" flag="0"/>
			<psa10 value="0.419302484167266" flag="0"/>
			<psa30 value="0.164862503570478" flag="0"/>
		</comp>
		<comp name="--.HNN" depth="0.0">
			<acc value="0.554300023272641" flag="0"/>
			<vel value="0.771398016825009" flag="0"/>
			<psa03 value="2.15836404726543" flag="0"/>
			<psa10 value="0.535568240019309" flag="0"/>
			<psa30 value="0.153194183506499" flag="0"/>
		</comp>
		<comp name="--.HNZ" depth="0.0">
			<acc value="0.299295194577596" flag="0"/>
			<vel value="0.293075621495713" flag="0"/>
			<psa03 value="1.17837549570542" flag="0"/>
			<psa10 value="0.309910473517989" flag="0"/>
			<psa30 value="0.0624560936405117" flag="0"/>
		</comp>
	</station>
	<station code="GUMA" name="GUMA" netid="IV" source="Italian National Seismic Network (INSN)" insttype="" lat="43.0627" lon="13.3352" esm:processing="manual (Paolucci et al 2011)" esm:quality="bad">
		<comp name="--.HNE" depth="0.0">
			<acc value="0.238513888136138" flag="0"/>
			<vel value="0.580485348648252" flag="0"/>
			<psa03 value="0.494490867545139" flag="0"/>
			<psa10 value="0.366096394323016" flag="0"/>
			<psa30 value="0.238082229857148" flag="0"/>
		</comp>
		<comp name="--.HNN" depth="0.0">
			<acc value="0.194426011663046" flag="0"/>
			<vel value="0.39744618224965" flag="0"/>
			<psa03 value="0.3888545177194" flag="0"/>
			<psa10 value="0.351901929273369" flag="0"/>
			<psa30 value="0.173700879065852" flag="0"/>
		</comp>
		<comp name="--.HNZ" depth="0.0">
			<acc value="0.0733672132020788" flag="0"/>
			<vel value="0.241181325641496" flag="0"/>
			<psa03 value="0.194270661136536" flag="0"/>
			<psa10 value="0.239695186405736" flag="0"/>
			<psa30 value="0.107447066927581" flag="0"/>
		</comp>
	</station>
	<station code="MCIF" name="MCIF" netid="IV" source="Italian National Seismic Network (INSN)" insttype="" lat="43.811583" lon="12.631683" esm:processing="manual (Paolucci et al 2011)" esm:quality="bad">
		<comp name="--.HNE" depth="0.0">
			<acc value="0.18874009888433" flag="0"/>
			<vel value="0.698685814955066" flag="0"/>
			<psa03 value="0.292971968936443" flag="0"/>
			<psa10 value="0.396776572823231" flag="0"/>
			<psa30 value="0.28601947745003" flag="0"/>
		</comp>
		<comp name="--.HNN" depth="0.0">
			<acc value="0.190057244623091" flag="0"/>
			<vel value="0.441687801389543" flag="0"/>
			<psa03 value="0.344380764340838" flag="0"/>
			<psa10 value="0.481154110596365" flag="0"/>
			<psa30 value="0.213098181681505" flag="0"/>
		</comp>
		<comp name="--.HNZ" depth="0.0">
			<acc value="0.112050515711235" flag="0"/>
			<vel value="0.211286640731208" flag="0"/>
			<psa03 value="0.157895247155881" flag="0"/>
			<psa10 value="0.184532072444003" flag="0"/>
			<psa30 value="0.0986104811204724" flag="0"/>
		</comp>
	</station>
	<station code="MNTP" name="MNTP" netid="IV" source="Italian National Seismic Network (INSN)" insttype="" lat="43.137378" lon="13.469252" esm:processing="manual (Paolucci et al 2011)" esm:quality="good">
		<comp name="--.HNE" depth="0.0">
			<acc value="0.149433009458819" flag="0"/>
			<vel value="0.611141938458692" flag="0"/>
			<psa03 value="0.303083707632173" flag="0"/>
			<psa10 value="0.438755948182824" flag="0"/>
			<psa30 value="0.231021014808652" flag="0"/>
		</comp>
		<comp name="--.HNN" depth="0.0">
			<acc value="0.178163955649371" flag="0"/>
			<vel value="0.734734641820906" flag="0"/>
			<psa03 value="0.356192706888061" flag="0"/>
			<psa10 value="0.386536423994507" flag="0"/>
			<psa30 value="0.335103915220605" flag="0"/>
		</comp>
		<comp name="--.HNZ" depth="0.0">
			<acc value="0.138143691335362" flag="0"/>
			<vel value="0.30697259860951" flag="0"/>
			<psa03 value="0.18769355676365" flag="0"/>
			<psa10 value="0.365399758165969" flag="0"/>
			<psa30 value="0.149230471422186" flag="0"/>
		</comp>
	</station>
	<station code="MPAG" name="MPAG" netid="IV" source="Italian National Seismic Network (INSN)" insttype="" lat="43.6292" lon="12.7595" esm:processing="manual (Paolucci et al 2011)" esm:quality="bad">
		<comp name="--.HNE" depth="1.0">
			<acc value="0.078632131868408" flag="0"/>
			<vel value="0.224501771130908" flag="0"/>
			<psa03 value="0.101385840197004" flag="0"/>
			<psa10 value="0.165122903212997" flag="0"/>
			<psa30 value="0.0844298861548773" flag="0"/>
		</comp>
		<comp name="--.HNN" depth="1.0">
			<acc value="0.0841372631526416" flag="0"/>
			<vel value="0.234210229534138" flag="0"/>
			<psa03 value="0.130557758912117" flag="0"/>
			<psa10 value="0.255866809565845" flag="0"/>
			<psa30 value="0.0868942868954117" flag="0"/>
		</comp>
		<comp name="--.HNZ" depth="1.0">
			<acc value="0.0446376256609368" flag="0"/>
			<vel value="0.109641009610084" flag="0"/>
			<psa03 value="0.0782541193753573" flag="0"/>
			<psa10 value="0.0643361611626115" flag="0"/>
			<psa30 value="0.0769463046759052" flag="0"/>
		</comp>
	</station>
	<station code="MSAG" name="MSAG" netid="IV" source="Italian National Seismic Network (INSN)" insttype="" lat="41.712" lon="15.9096" esm:processing="manual (Paolucci et al 2011)" esm:quality="good">
		<comp name="--.HNE" depth="0.0">
			<acc value="0.0482619229289871" flag="0"/>
			<vel value="0.247176454196575" flag="0"/>
			<psa03 value="0.0728850545811647" flag="0"/>
			<psa10 value="0.116587899739694" flag="0"/>
			<psa30 value="0.0605397849310511" flag="0"/>
		</comp>
		<comp name="--.HNN" depth="0.0">
			<acc value="0.0721894703488823" flag="0"/>
			<vel value="0.262821851574883" flag="0"/>
			<psa03 value="0.162861632090509" flag="0"/>
			<psa10 value="0.123123393860425" flag="0"/>
			<psa30 value="0.0648717253758322" flag="0"/>
		</comp>
		<comp name="--.HNZ" depth="0.0">
			<acc value="0.0386371175338462" flag="0"/>
			<vel value="0.280283043861702" flag="0"/>
			<psa03 value="0.0494848805198086" flag="0"/>
			<psa10 value="0.0856540329279533" flag="0"/>
			<psa30 value="0.0595576934957801" flag="0"/>
		</comp>
	</station>
	<station code="MTL1" name="MTL1" netid="IV" source="Italian National Seismic Network (INSN)" insttype="" lat="43.256732" lon="13.009601" esm:processing="manual (Paolucci et al 2011)" esm:quality="bad">
		<comp name="--.HNE" depth="0.0">
			<acc value="0.178238843544389" flag="0"/>
			<vel value="0.407526790049731" flag="0"/>
			<psa03 value="0.19288365273137" flag="0"/>
			<psa10 value="0.456208093296348" flag="0"/>
			<psa30 value="0.145958921274258" flag="0"/>
		</comp>
		<comp name="--.HNN" depth="0.0">
			<acc value="0.139524853818671" flag="0"/>
			<vel value="0.36378678027886" flag="0"/>
			<psa03 value="0.215836404726543" flag="0"/>
			<psa10 value="0.378925774648739" flag="0"/>
			<psa30 value="0.0821086604755214" flag="0"/>
		</comp>
		<comp name="--.HNZ" depth="0.0">
			<acc value="0.092972293943564" flag="0"/>
			<vel value="0.159047590607496" flag="0"/>
			<psa03 value="0.091050390468183" flag="0"/>
			<psa10 value="0.21081901367637" flag="0"/>
			<psa30 value="0.0512960450437162" flag="0"/>
		</comp>
	</station>
	<station code="SENI" name="SENI" netid="IV" source="Italian National Seismic Network (INSN)" insttype="" lat="43.7052" lon="13.2331" esm:processing="manual (Paolucci et al 2011)" esm:quality="good">
		<comp name="--.HNE" depth="0.0">
			<acc value="0.376825621279955" flag="0"/>
			<vel value="0.980080630203281" flag="0"/>
			<psa03 value="1.04370145378443" flag="0"/>
			<psa10 value="0.43907406527188" flag="0"/>
			<psa30 value="0.289483419086417" flag="0"/>
		</comp>
		<comp name="--.HNN" depth="0.0">
			<acc value="0.345499987190898" flag="0"/>
			<vel value="0.654949192794441" flag="0"/>
			<psa03 value="1.07945047687242" flag="0"/>
			<psa10 value="0.497390162534003" flag="0"/>
			<psa30 value="0.309377593837165" flag="0"/>
		</comp>
		<comp name="--.HNZ" depth="0.0">
			<acc value="0.102531478561809" flag="0"/>
			<vel value="0.220029101947443" flag="0"/>
			<psa03 value="0.217357639751564" flag="0"/>
			<psa10 value="0.193644717665946" flag="0"/>
			<psa30 value="0.0985867677509647" flag="0"/>
		</comp>
	</station>
	<station code="SSFR" name="SSFR" netid="IV" source="Italian National Seismic Network (INSN)" insttype="" lat="43.43628" lon="12.78225" esm:processing="manual (Paolucci et al 2011)" esm:quality="good">
		<comp name="--.HNE" depth="1.0">
			<acc value="0.0716781695914726" flag="0"/>
			<vel value="0.199184632853114" flag="0"/>
			<psa03 value="0.19131767549973" flag="0"/>
			<psa10 value="0.144831865089544" flag="0"/>
			<psa30 value="0.0542060781621686" flag="0"/>
		</comp>
		<comp name="--.HNN" depth="1.0">
			<acc value="0.0780257946296137" flag="0"/>
			<vel value="0.245810086359277" flag="0"/>
			<psa03 value="0.28089157314951" flag="0"/>
			<psa10 value="0.110140995188067" flag="0"/>
			<psa30 value="0.10494597757762" flag="0"/>
		</comp>
		<comp name="--.HNZ" depth="1.0">
			<acc value="0.0403386034464021" flag="0"/>
			<vel value="0.110133781138298" flag="0"/>
			<psa03 value="0.0798648388136151" flag="0"/>
			<psa10 value="0.0584570352129706" flag="0"/>
			<psa30 value="0.0566543717083204" flag="0"/>
		</comp>
	</station>
	<station code="STAL" name="STAL" netid="IV" source="Italian National Seismic Network (INSN)" insttype="" lat="46.2601" lon="12.7104" esm:processing="manual (Paolucci et al 2011)" esm:quality="good">
		<comp name="--.HNE" depth="0.0">
			<acc value="0.290857243247755" flag="0"/>
			<vel value="0.362611018246525" flag="0"/>
			<psa03 value="0.998377598480116" flag="0"/>
			<psa10 value="0.284988617009545" flag="0"/>
			<psa30 value="0.0722953522979358" flag="0"/>
		</comp>
		<comp name="--.HNN" depth="0.0">
			<acc value="0.293431726701376" flag="0"/>
			<vel value="0.559542728070256" flag="0"/>
			<psa03 value="0.738335893614721" flag="0"/>
			<psa10 value="0.269936443859026" flag="0"/>
			<psa30 value="0.1378467117923" flag="0"/>
		</comp>
		<comp name="--.HNZ" depth="0.0">
			<acc value="0.225395667858917" flag="0"/>
			<vel value="0.29093036380004" flag="0"/>
			<psa03 value="0.375789793386865" flag="0"/>
			<psa10 value="0.236381131161521" flag="0"/>
			<psa30 value="0.0737986904403098" flag="0"/>
		</comp>
	</station>
	<station code="TERO" name="TERO" netid="IV" source="Italian National Seismic Network (INSN)" insttype="" lat="42.62279" lon="13.60393" esm:processing="manual (Paolucci et al 2011)" esm:quality="good">
		<comp name="--.HNE" depth="0.0">
			<acc value="0.0556496805516438" flag="0"/>
			<vel value="0.301814352772428" flag="0"/>
			<psa03 value="0.0737351565069119" flag="0"/>
			<psa10 value="0.129252181322996" flag="0"/>
			<psa30 value="0.0807950292892089" flag="0"/>
		</comp>
		<comp name="--.HNN" depth="0.0">
			<acc value="0.0553599555518458" flag="0"/>
			<vel value="0.276064909575299" flag="0"/>
			<psa03 value="0.0737798987135301" flag="0"/>
			<psa10 value="0.139701723678693" flag="0"/>
			<psa30 value="0.120070185680794" flag="0"/>
		</comp>
		<comp name="--.HNZ" depth="0.0">
			<acc value="0.0300460489378079" flag="0"/>
			<vel value="0.11962075966674" flag="0"/>
			<psa03 value="0.04841106756097" flag="0"/>
			<psa10 value="0.0588315274823655" flag="0"/>
			<psa30 value="0.0747995736023605" flag="0"/>
		</comp>
	</station>
	<station code="TREM" name="TREM" netid="IV" source="Italian National Seismic Network (INSN)" insttype="" lat="42.123" lon="15.51" esm:processing="manual (Paolucci et al 2011)" esm:quality="good">
		<comp name="--.HNE" depth="0.0">
			<acc value="0.10915203922691" flag="0"/>
			<vel value="0.467226378468444" flag="0"/>
			<psa03 value="0.153063088841108" flag="0"/>
			<psa10 value="0.293783145142433" flag="0"/>
			<psa30 value="0.236384263115984" flag="0"/>
		</comp>
		<comp name="--.HNN" depth="0.0">
			<acc value="0.143742488534441" flag="0"/>
			<vel value="0.280357991809521" flag="0"/>
			<psa03 value="0.169930900736196" flag="0"/>
			<psa10 value="0.438997556098563" flag="0"/>
			<psa30 value="0.0861475394669528" flag="0"/>
		</comp>
		<comp name="--.HNZ" depth="0.0">
			<acc value="0.0604100209391745" flag="0"/>
			<vel value="0.161591089253615" flag="0"/>
			<psa03 value="0.127649515481929" flag="0"/>
			<psa10 value="0.0804675163367632" flag="0"/>
			<psa30 value="0.0659231672313616" flag="0"/>
		</comp>
	</station>
	<station code="BLY" name="BLY" netid="MN" source="Mediterranean Very Broadband Seismographic Network (MedNet)" insttype="" lat="44.7488" lon="17.1839" esm:processing="manual (Paolucci et al 2011)" esm:quality="good">
		<comp name="--.HNE" depth="1.0">
			<acc value="1.20760451589263" flag="0"/>
			<vel value="2.15291786646903" flag="0"/>
			<psa03 value="3.59754186534876" flag="0"/>
			<psa10 value="1.39030859032659" flag="0"/>
			<psa30 value="0.42961645763691" flag="0"/>
		</comp>
		<comp name="--.HNN" depth="1.0">
			<acc value="0.948732288901759" flag="0"/>
			<vel value="1.68004238894814" flag="0"/>
			<psa03 value="2.25236742337042" flag="0"/>
			<psa10 value="1.02238000264255" flag="0"/>
			<psa30 value="0.315197212652004" flag="0"/>
		</comp>
		<comp name="--.HNZ" depth="1.0">
			<acc value="0.899229823644616" flag="0"/>
			<vel value="0.873745642233771" flag="0"/>
			<psa03 value="2.32511825133173" flag="0"/>
			<psa10 value="0.926397231316773" flag="0"/>
			<psa30 value="0.24079181788995" flag="0"/>
		</comp>
	</station>
	<station code="DST2" name="DST2" netid="NI" source="North-East Italy Broadband Network (NI)" insttype="" lat="45.6589" lon="13.8013" esm:processing="manual (Paolucci et al 2011)" esm:quality="good">
		<comp name="--.HNE" depth="0.0">
			<acc value="0.573001154259971" flag="0"/>
			<vel value="0.350226322246575" flag="0"/>
			<psa03 value="2.60104343954661" flag="0"/>
			<psa10 value="0.275497452719611" flag="0"/>
			<psa30 value="0.114935122627215" flag="0"/>
		</comp>
		<comp name="--.HNN" depth="0.0">
			<acc value="0.868632593898262" flag="0"/>
			<vel value="0.960464105840891" flag="0"/>
			<psa03 value="3.47284533550364" flag="0"/>
			<psa10 value="0.378957989037504" flag="0"/>
			<psa30 value="0.193680511431241" flag="0"/>
		</comp>
		<comp name="--.HNZ" depth="0.0">
			<acc value="0.383318466690984" flag="0"/>
			<vel value="0.370286259862745" flag="0"/>
			<psa03 value="1.8328644941175" flag="0"/>
			<psa10 value="0.442589460445878" flag="0"/>
			<psa30 value="0.121135945042441" flag="0"/>
		</comp>
	</station>
