<?xml version="1.0" encoding="UTF-8" standalone="yes"?>
<!DOCTYPE earthquake SYSTEM "stationlist.dtd">
<stationlist created="" xmlns="ch.ethz.sed.shakemap.usgs.xml">
  <station code="MORH" name="MORH" netid="HU" insttype="" lat="46.215" lon="18.6436">
    <comp name="--.HHZ">
      <acc value="0.1527126335" flag="0"/>
      <vel value="0.1656758813" flag="0"/>
      <psa03 value="0.2409485627" flag="0"/>
      <psa10 value="0.2680153480" flag="0"/>
      <psa30 value="0.1005317181" flag="0"/>
    </comp>
    <comp name="--.HHN">
      <acc value="0.1825685446" flag="0"/>
      <vel value="0.2568446010" flag="0"/>
      <psa03 value="0.3041568164" flag="0"/>
      <psa10 value="0.3320959263" flag="0"/>
      <psa30 value="0.0787106581" flag="0"/>
    </comp>
    <comp name="--.HHE">
      <acc value="0.1558135811" flag="0"/>
      <vel value="0.2642984466" flag="0"/>
      <psa03 value="0.3065430549" flag="0"/>
      <psa10 value="0.3432047013" flag="0"/>
      <psa30 value="0.0761760586" flag="0"/>
    </comp>
  </station>
  <station code="MPLH" name="MPLH" netid="HU" insttype="" lat="47.1712" lon="17.5348">
    <comp name="--.HHN">
      <acc value="0.1306872573" flag="0"/>
      <vel value="0.3637242566" flag="0"/>
      <psa03 value="0.3892669882" flag="0"/>
      <psa10 value="0.2424625828" flag="0"/>
      <psa30 value="0.1097916442" flag="0"/>
    </comp>
    <comp name="--.HHE">
      <acc value="0.1440755060" flag="0"/>
      <vel value="0.4003293768" flag="0"/>
      <psa03 value="0.3429333438" flag="0"/>
      <psa10 value="0.1992893993" flag="0"/>
      <psa30 value="0.1289420003" flag="0"/>
    </comp>
    <comp name="--.HHZ">
      <acc value="0.1159659566" flag="0"/>
      <vel value="0.2820165160" flag="0"/>
      <psa03 value="0.1834031166" flag="0"/>
      <psa10 value="0.1692555875" flag="0"/>
      <psa30 value="0.0741422883" flag="0"/>
    </comp>
  </station>
  <station code="TIH" name="TIH" netid="HU" insttype="" lat="46.9001" lon="17.8877">
    <comp name="--.HHE">
      <acc value="0.0004607217" flag="0"/>
      <vel value="0.0002269839" flag="0"/>
      <psa03 value="0.0008148497" flag="0"/>
      <psa10 value="0.0002121259" flag="0"/>
      <psa30 value="0.0000495021" flag="0"/>
    </comp>
    <comp name="--.HHN">
      <acc value="0.0009197135" flag="0"/>
      <vel value="0.0005104468" flag="0"/>
      <psa03 value="0.0016035364" flag="0"/>
      <psa10 value="0.0003670672" flag="0"/>
      <psa30 value="0.0000613267" flag="0"/>
    </comp>
    <comp name="--.HHZ">
      <acc value="0.5779431807" flag="0"/>
      <vel value="0.5817271651" flag="0"/>
      <psa03 value="1.4268974370" flag="0"/>
      <psa10 value="0.6571965807" flag="0"/>
      <psa30 value="0.1199349890" flag="0"/>
    </comp>
  </station>
  <station code="BLY" name="BLY" netid="MN" insttype="" lat="44.7488" lon="17.1839">
    <comp name="--.HHZ">
      <acc value="1.9283757346" flag="0"/>
      <vel value="0.7704919163" flag="0"/>
      <psa03 value="2.4803173551" flag="0"/>
      <psa10 value="0.9492979716" flag="0"/>
      <psa30 value="0.2364715954" flag="0"/>
    </comp>
    <comp name="--.HHN">
      <acc value="1.2618058053" flag="0"/>
      <vel value="0.9606003052" flag="0"/>
      <psa03 value="2.2584017615" flag="0"/>
      <psa10 value="0.9576046047" flag="0"/>
      <psa30 value="0.3014592669" flag="0"/>
    </comp>
    <comp name="--.HHE">
      <acc value="2.7558924531" flag="0"/>
      <vel value="1.1918301127" flag="0"/>
      <psa03 value="4.0611777166" flag="0"/>
      <psa10 value="1.3013017204" flag="0"/>
      <psa30 value="0.4015169224" flag="0"/>
    </comp>
  </station>
  <station code="TRI" name="TRI" netid="MN" insttype="" lat="45.709" lon="13.764">
    <comp name="--.HHE">
      <acc value="0.2204184379" flag="0"/>
      <vel value="0.1636317707" flag="0"/>
      <psa03 value="0.5991568172" flag="0"/>
      <psa10 value="0.1512960199" flag="0"/>
      <psa30 value="0.0776977355" flag="0"/>
    </comp>
    <comp name="--.HHN">
      <acc value="0.1915329337" flag="0"/>
      <vel value="0.2491885371" flag="0"/>
      <psa03 value="0.4007105672" flag="0"/>
      <psa10 value="0.2360110523" flag="0"/>
      <psa30 value="0.1339724146" flag="0"/>
    </comp>
    <comp name="--.HHZ">
      <acc value="0.2837776279" flag="0"/>
      <vel value="0.2203891241" flag="0"/>
      <psa03 value="0.7055080558" flag="0"/>
      <psa10 value="0.2030986860" flag="0"/>
      <psa30 value="0.0834952950" flag="0"/>
    </comp>
  </station>
  <station code="DST2" name="DST2" netid="NI" insttype="" lat="45.6589" lon="13.8013">
    <comp name="--.HHE">
      <acc value="0.4094377976" flag="0"/>
      <vel value="0.2669310082" flag="0"/>
      <psa03 value="1.6070867244" flag="0"/>
      <psa10 value="0.2358622993" flag="0"/>
      <psa30 value="0.0920380629" flag="0"/>
    </comp>
    <comp name="--.HHN">
      <acc value="0.7046793441" flag="0"/>
      <vel value="0.5328526431" flag="0"/>
      <psa03 value="2.9649039453" flag="0"/>
      <psa10 value="0.2841179159" flag="0"/>
      <psa30 value="0.1592803728" flag="0"/>
    </comp>
    <comp name="--.HHZ">
      <acc value="0.2994879943" flag="0"/>
      <vel value="0.2139924387" flag="0"/>
      <psa03 value="1.4388113556" flag="0"/>
      <psa10 value="0.3532547923" flag="0"/>
      <psa30 value="0.0944390617" flag="0"/>
    </comp>
  </station>
  <station code="ARSA" name="ARSA" netid="OE" source="ODC" insttype="STS-2" lat="47.2505" lon="15.5232">
    <comp name="--.HHZ">
      <acc value="0.0793209596" flag="0"/>
      <vel value="0.1586888348" flag="0"/>
      <psa03 value="0.1699984473" flag="0"/>
      <psa10 value="0.1373443529" flag="0"/>
      <psa30 value="0.1248738080" flag="0"/>
    </comp>
    <comp name="--.HHE">
      <acc value="0.0972620258" flag="0"/>
      <vel value="0.1915347084" flag="0"/>
      <psa03 value="0.1862093317" flag="0"/>
      <psa10 value="0.1198126322" flag="0"/>
      <psa30 value="0.0947319747" flag="0"/>
    </comp>
    <comp name="--.HHN">
      <acc value="0.0757768216" flag="0"/>
      <vel value="0.1367348831" flag="0"/>
      <psa03 value="0.2594158798" flag="0"/>
      <psa10 value="0.1215632732" flag="0"/>
      <psa30 value="0.0994889028" flag="0"/>
    </comp>
  </station>
  <station code="SOKA" name="SOKA" netid="OE" source="ODC" insttype="STS-2" lat="46.678" lon="15.0327">
    <comp name="--.HHE">
      <acc value="0.1634037385" flag="0"/>
      <vel value="0.2361338129" flag="0"/>
      <psa03 value="0.6542078020" flag="0"/>
      <psa10 value="0.2912669317" flag="0"/>
      <psa30 value="0.1242166548" flag="0"/>
    </comp>
    <comp name="--.HHN">
      <acc value="0.2359767717" flag="0"/>
      <vel value="0.3824269846" flag="0"/>
      <psa03 value="0.6115566073" flag="0"/>
      <psa10 value="0.2952103192" flag="0"/>
      <psa30 value="0.1019097482" flag="0"/>
    </comp>
    <comp name="--.HHZ">
      <acc value="0.4548428869" flag="0"/>
      <vel value="0.3126421449" flag="0"/>
      <psa03 value="1.2398407895" flag="0"/>
      <psa10 value="0.3676326310" flag="0"/>
      <psa30 value="0.0955911106" flag="0"/>
    </comp>
  </station>
  <station code="DRE" name="DRE" netid="OX" insttype="" lat="46.1733" lon="13.645">
    <comp name="--.HHE">
      <acc value="0.5170238925" flag="0"/>
      <vel value="0.4542710528" flag="0"/>
      <psa03 value="1.4488878511" flag="0"/>
      <psa10 value="0.4232956314" flag="0"/>
      <psa30 value="0.0877022509" flag="0"/>
    </comp>
    <comp name="--.HHN">
      <acc value="0.4826398466" flag="0"/>
      <vel value="0.3925647794" flag="0"/>
      <psa03 value="1.5893434739" flag="0"/>
      <psa10 value="0.3918255732" flag="0"/>
      <psa30 value="0.0918720725" flag="0"/>
    </comp>
    <comp name="--.HHZ">
      <acc value="0.3038227375" flag="0"/>
      <vel value="0.2347188023" flag="0"/>
      <psa03 value="0.6625310830" flag="0"/>
      <psa10 value="0.2377776029" flag="0"/>
      <psa30 value="0.0810269282" flag="0"/>
    </comp>
  </station>
  <station code="SABO" name="SABO" netid="OX" insttype="" lat="45.9875" lon="13.6336">
    <comp name="--.HHE">
      <acc value="0.4153580208" flag="0"/>
      <vel value="0.4174173814" flag="0"/>
      <psa03 value="1.3156549893" flag="0"/>
      <psa10 value="0.6188136902" flag="0"/>
      <psa30 value="0.2451186349" flag="0"/>
    </comp>
    <comp name="--.HHN">
      <acc value="0.4741138847" flag="0"/>
      <vel value="0.5242633515" flag="0"/>
      <psa03 value="1.2051586684" flag="0"/>
      <psa10 value="0.7174503925" flag="0"/>
      <psa30 value="0.1802877539" flag="0"/>
    </comp>
    <comp name="--.HHZ">
      <acc value="0.1533493170" flag="0"/>
      <vel value="0.4211941450" flag="0"/>
      <psa03 value="0.3936064090" flag="0"/>
      <psa10 value="0.1845527421" flag="0"/>
      <psa30 value="0.2410906475" flag="0"/>
    </comp>
  </station>
</stationlist>
