<?xml version="1.0" encoding="UTF-8" standalone="yes"?>
<!DOCTYPE earthquake SYSTEM "stationlist.dtd">
<stationlist created="" xmlns="ch.ethz.sed.shakemap.usgs.xml">
  <station code="DARE" name="DARE" netid="KO" insttype="CMG-3ESP" lat="38.5712" lon="37.4832">
    <comp name="--.HHN">
      <acc value="0.0134177504" flag="0"/>
      <vel value="0.0046143368" flag="0"/>
      <psa03 value="0.0351663176" flag="0"/>
      <psa10 value="0.0024444123" flag="0"/>
      <psa30 value="0.0001880602" flag="0"/>
    </comp>
    <comp name="--.HHZ">
      <acc value="0.0102983246" flag="0"/>
      <vel value="0.0048215069" flag="0"/>
      <psa03 value="0.0298395767" flag="0"/>
      <psa10 value="0.0026911190" flag="0"/>
      <psa30 value="0.0001873300" flag="0"/>
    </comp>
    <comp name="--.HHE">
      <acc value="0.0141915743" flag="0"/>
      <vel value="0.0049082890" flag="0"/>
      <psa03 value="0.0277826392" flag="0"/>
      <psa10 value="0.0048865576" flag="0"/>
      <psa30 value="0.0003236628" flag="0"/>
    </comp>
  </station>
  <station code="GAZ" name="GAZ" netid="KO" insttype="CMG-3T" lat="37.1721" lon="37.2096">
    <comp name="--.HHE">
      <acc value="0.0147158507" flag="0"/>
      <vel value="0.0043865641" flag="0"/>
      <psa03 value="0.0218840049" flag="0"/>
      <psa10 value="0.0022253480" flag="0"/>
      <psa30 value="0.0003433314" flag="0"/>
    </comp>
    <comp name="--.HHN">
      <acc value="0.0093280103" flag="0"/>
      <vel value="0.0029059806" flag="0"/>
      <psa03 value="0.0151235421" flag="0"/>
      <psa10 value="0.0025136316" flag="0"/>
      <psa30 value="0.0001816199" flag="0"/>
    </comp>
    <comp name="--.HHZ">
      <acc value="0.0086111086" flag="0"/>
      <vel value="0.0019699522" flag="0"/>
      <psa03 value="0.0102895598" flag="0"/>
      <psa10 value="0.0018874345" flag="0"/>
      <psa30 value="0.0003606726" flag="0"/>
    </comp>
  </station>
  <station code="URFA" name="URFA" netid="KO" insttype="CMG-3ESP" lat="37.4409" lon="38.8213">
    <comp name="--.HHE">
      <acc value="0.0922274932" flag="0"/>
      <vel value="0.0224527875" flag="0"/>
      <psa03 value="0.0776654500" flag="0"/>
      <psa10 value="0.0069523173" flag="0"/>
      <psa30 value="0.0006140137" flag="0"/>
    </comp>
    <comp name="--.HHN">
      <acc value="0.0937318203" flag="0"/>
      <vel value="0.0285068302" flag="0"/>
      <psa03 value="0.1250741545" flag="0"/>
      <psa10 value="0.0091846694" flag="0"/>
      <psa30 value="0.0007427806" flag="0"/>
    </comp>
    <comp name="--.HHZ">
      <acc value="0.0613983410" flag="0"/>
      <vel value="0.0201072574" flag="0"/>
      <psa03 value="0.0547466102" flag="0"/>
      <psa10 value="0.0048506279" flag="0"/>
      <psa30 value="0.0003819818" flag="0"/>
    </comp>
  </station>
</stationlist>
