<?xml version="1.0" encoding="UTF-8" standalone="yes"?>
<!DOCTYPE earthquake SYSTEM "stationlist.dtd">
<stationlist created="" xmlns="ch.ethz.sed.shakemap.usgs.xml">
  <station code="ARPRA" name="ARPRA" netid="KO" insttype="CMG-5T" lat="39.0929" lon="38.3356">
    <comp name="--.HNN">
      <acc value="0.0321619766" flag="0"/>
      <vel value="0.0218026449" flag="0"/>
      <psa03 value="0.0800778485" flag="0"/>
      <psa10 value="0.0240226721" flag="0"/>
      <psa30 value="0.0017613858" flag="0"/>
    </comp>
    <comp name="--.HNE">
      <acc value="0.0433476652" flag="0"/>
      <vel value="0.0407424898" flag="0"/>
      <psa03 value="0.0953006346" flag="0"/>
      <psa10 value="0.0355871876" flag="0"/>
      <psa30 value="0.0041712227" flag="0"/>
    </comp>
    <comp name="--.HNZ">
      <acc value="0.0139633583" flag="0"/>
      <vel value="0.0113604156" flag="0"/>
      <psa03 value="0.0371397567" flag="0"/>
      <psa10 value="0.0118314818" flag="0"/>
      <psa30 value="0.0010033828" flag="0"/>
    </comp>
  </station>
</stationlist>
