<?xml version="1.0" encoding="UTF-8" standalone="yes"?>
<!DOCTYPE earthquake SYSTEM "stationlist.dtd">
<stationlist created="" xmlns="ch.ethz.sed.shakemap.usgs.xml">
  <station code="CEYT" name="CEYT" netid="KO" insttype="CMG-3ESP" lat="37.0105" lon="35.7478">
    <comp name="--.HHN">
      <acc value="0.0074345755" flag="0"/>
      <vel value="0.0018894470" flag="0"/>
      <psa03 value="0.0149876844" flag="0"/>
      <psa10 value="0.0011046455" flag="0"/>
      <psa30 value="0.0001021792" flag="0"/>
    </comp>
    <comp name="--.HHE">
      <acc value="0.0070985473" flag="0"/>
      <vel value="0.0027440567" flag="0"/>
      <psa03 value="0.0179319871" flag="0"/>
      <psa10 value="0.0015688986" flag="0"/>
      <psa30 value="0.0000782325" flag="0"/>
    </comp>
    <comp name="--.HHZ">
      <acc value="0.0040982373" flag="0"/>
      <vel value="0.0013348191" flag="0"/>
      <psa03 value="0.0074053933" flag="0"/>
      <psa10 value="0.0005583932" flag="0"/>
      <psa30 value="0.0000416711" flag="0"/>
    </comp>
  </station>
</stationlist>
