<?xml version="1.0" encoding="UTF-8" standalone="yes"?>
<!DOCTYPE earthquake SYSTEM "stationlist.dtd">
<stationlist created="" xmlns="ch.ethz.sed.shakemap.usgs.xml">
  <station code="ARPRA" name="ARPRA" netid="KO" insttype="CMG-5T" lat="39.0929" lon="38.3356">
    <comp name="--.HNE">
      <acc value="0.0660662022" flag="0"/>
      <vel value="0.0288898438" flag="0"/>
      <psa03 value="0.1670280630" flag="0"/>
      <psa10 value="0.0312203153" flag="0"/>
      <psa30 value="0.0021488396" flag="0"/>
    </comp>
    <comp name="--.HNN">
      <acc value="0.0646070511" flag="0"/>
      <vel value="0.0403801374" flag="0"/>
      <psa03 value="0.2134427087" flag="0"/>
      <psa10 value="0.0290363246" flag="0"/>
      <psa30 value="0.0016692268" flag="0"/>
    </comp>
    <comp name="--.HNZ">
      <acc value="0.0208333894" flag="0"/>
      <vel value="0.0131680055" flag="0"/>
      <psa03 value="0.0729305740" flag="0"/>
      <psa10 value="0.0161144949" flag="0"/>
      <psa30 value="0.0008174927" flag="0"/>
    </comp>
  </station>
  <station code="DARE" name="DARE" netid="KO" insttype="CMG-3ESP" lat="38.5712" lon="37.4832">
    <comp name="--.HHZ">
      <acc value="0.0089196413" flag="0"/>
      <vel value="0.0066803797" flag="0"/>
      <psa03 value="0.0279315653" flag="0"/>
      <psa10 value="0.0080151166" flag="0"/>
      <psa30 value="0.0006578092" flag="0"/>
    </comp>
    <comp name="--.HHN">
      <acc value="0.0084721442" flag="0"/>
      <vel value="0.0056126227" flag="0"/>
      <psa03 value="0.0251081421" flag="0"/>
      <psa10 value="0.0085498746" flag="0"/>
      <psa30 value="0.0005715439" flag="0"/>
    </comp>
  </station>
  <station code="DYBB" name="DYBB" netid="KO" insttype="CMG-3T" lat="37.9532" lon="40.1393">
    <comp name="--.HHE">
      <acc value="0.0248629344" flag="0"/>
      <vel value="0.0092480691" flag="0"/>
      <psa03 value="0.0376487649" flag="0"/>
      <psa10 value="0.0141314282" flag="0"/>
      <psa30 value="0.0014587912" flag="0"/>
    </comp>
    <comp name="--.HHN">
      <acc value="0.0240059863" flag="0"/>
      <vel value="0.0113743966" flag="0"/>
      <psa03 value="0.0376645833" flag="0"/>
      <psa10 value="0.0109240747" flag="0"/>
      <psa30 value="0.0023823903" flag="0"/>
    </comp>
    <comp name="--.HHZ">
      <acc value="0.0224992733" flag="0"/>
      <vel value="0.0099380010" flag="0"/>
      <psa03 value="0.0237676983" flag="0"/>
      <psa10 value="0.0081258602" flag="0"/>
      <psa30 value="0.0013187835" flag="0"/>
    </comp>
  </station>
  <station code="SINE" name="SINE" netid="KO" insttype="CMG-6T" lat="39.1636" lon="39.3871">
    <comp name="--.HHE">
      <acc value="0.0093874345" flag="0"/>
      <vel value="0.0063812962" flag="0"/>
      <psa03 value="0.0316612704" flag="0"/>
      <psa10 value="0.0059172462" flag="0"/>
      <psa30 value="0.0002951662" flag="0"/>
    </comp>
    <comp name="--.HHN">
      <acc value="0.0105965472" flag="0"/>
      <vel value="0.0053320603" flag="0"/>
      <psa03 value="0.0304342338" flag="0"/>
      <psa10 value="0.0055699699" flag="0"/>
      <psa30 value="0.0002298589" flag="0"/>
    </comp>
    <comp name="--.HHZ">
      <acc value="0.0082000230" flag="0"/>
      <vel value="0.0050687970" flag="0"/>
      <psa03 value="0.0228215767" flag="0"/>
      <psa10 value="0.0048784902" flag="0"/>
      <psa30 value="0.0002417546" flag="0"/>
    </comp>
  </station>
  <station code="SVRC" name="SVRC" netid="KO" insttype="CMG-3T" lat="38.3775" lon="39.306">
    <comp name="--.HHE">
      <acc value="0.0637284051" flag="0"/>
      <vel value="0.0304920788" flag="0"/>
      <psa03 value="0.2015847083" flag="0"/>
      <psa10 value="0.0240796892" flag="0"/>
      <psa30 value="0.0015044588" flag="0"/>
    </comp>
  </station>
  <station code="URFA" name="URFA" netid="KO" insttype="CMG-3ESP" lat="37.4409" lon="38.8213">
    <comp name="--.HHZ">
      <acc value="0.0658886574" flag="0"/>
      <vel value="0.0209883656" flag="0"/>
      <psa03 value="0.1555793712" flag="0"/>
      <psa10 value="0.0069766292" flag="0"/>
      <psa30 value="0.0007634521" flag="0"/>
    </comp>
  </station>
</stationlist>
