<?xml version="1.0" encoding="UTF-8" standalone="yes"?>
<!DOCTYPE earthquake SYSTEM "stationlist.dtd">
<stationlist created="" xmlns="ch.ethz.sed.shakemap.usgs.xml">
  <station code="ARPRA" name="ARPRA" netid="KO" insttype="CMG-5T" lat="39.0929" lon="38.3356">
    <comp name="--.HNE">
      <acc value="0.0660661887" flag="0"/>
      <vel value="0.0288898276" flag="0"/>
      <psa03 value="0.1670280630" flag="0"/>
      <psa10 value="0.0312203119" flag="0"/>
      <psa30 value="0.0021495411" flag="0"/>
    </comp>
    <comp name="--.HNN">
      <acc value="0.0646070343" flag="0"/>
      <vel value="0.0403801331" flag="0"/>
      <psa03 value="0.2134427087" flag="0"/>
      <psa10 value="0.0290363247" flag="0"/>
      <psa30 value="0.0016692274" flag="0"/>
    </comp>
    <comp name="--.HNZ">
      <acc value="0.0208333711" flag="0"/>
      <vel value="0.0131680010" flag="0"/>
      <psa03 value="0.0729305740" flag="0"/>
      <psa10 value="0.0161144946" flag="0"/>
      <psa30 value="0.0008181441" flag="0"/>
    </comp>
  </station>
  <station code="DARE" name="DARE" netid="KO" insttype="CMG-3ESP" lat="38.5712" lon="37.4832">
    <comp name="--.HHN">
      <acc value="0.0084721447" flag="0"/>
      <vel value="0.0056126228" flag="0"/>
      <psa03 value="0.0251081421" flag="0"/>
      <psa10 value="0.0085498745" flag="0"/>
      <psa30 value="0.0005715666" flag="0"/>
    </comp>
    <comp name="--.HHZ">
      <acc value="0.0089196414" flag="0"/>
      <vel value="0.0066803819" flag="0"/>
      <psa03 value="0.0279315653" flag="0"/>
      <psa10 value="0.0080151166" flag="0"/>
      <psa30 value="0.0006578296" flag="0"/>
    </comp>
  </station>
  <station code="SINE" name="SINE" netid="KO" insttype="CMG-6T" lat="39.1636" lon="39.3871">
    <comp name="--.HHZ">
      <acc value="0.0082000247" flag="0"/>
      <vel value="0.0050687971" flag="0"/>
      <psa03 value="0.0228215767" flag="0"/>
      <psa10 value="0.0048784902" flag="0"/>
      <psa30 value="0.0002417542" flag="0"/>
    </comp>
    <comp name="--.HHN">
      <acc value="0.0105965421" flag="0"/>
      <vel value="0.0053320602" flag="0"/>
      <psa03 value="0.0304342338" flag="0"/>
      <psa10 value="0.0055699699" flag="0"/>
      <psa30 value="0.0002298581" flag="0"/>
    </comp>
    <comp name="--.HHE">
      <acc value="0.0093874401" flag="0"/>
      <vel value="0.0063812961" flag="0"/>
      <psa03 value="0.0316612704" flag="0"/>
      <psa10 value="0.0059172462" flag="0"/>
      <psa30 value="0.0002951648" flag="0"/>
    </comp>
  </station>
  <station code="SVRC" name="SVRC" netid="KO" insttype="CMG-3T" lat="38.3775" lon="39.306">
    <comp name="--.HHE">
      <acc value="0.0637284048" flag="0"/>
      <vel value="0.0304920788" flag="0"/>
      <psa03 value="0.2015847083" flag="0"/>
      <psa10 value="0.0240796893" flag="0"/>
      <psa30 value="0.0015044309" flag="0"/>
    </comp>
    <comp name="--.HHZ">
      <acc value="0.0442254330" flag="0"/>
      <vel value="0.0162445222" flag="0"/>
      <psa03 value="0.0922824573" flag="0"/>
      <psa10 value="0.0189955077" flag="0"/>
      <psa30 value="0.0011295807" flag="0"/>
    </comp>
  </station>
</stationlist>
