<?xml version="1.0" encoding="UTF-8" standalone="yes"?>
<!DOCTYPE earthquake SYSTEM "stationlist.dtd">
<stationlist created="" xmlns="ch.ethz.sed.shakemap.usgs.xml">
  <station code="AKS" name="AKS" netid="KO" insttype="CMG-5T" commtype="DIG" lat="38.8785" lon="27.8129">
    <comp name="--.HNE">
      <acc value="0.1423164431" flag="0"/>
      <vel value="0.0519420957" flag="0"/>
      <psa03 value="0.2048335958" flag="0"/>
      <psa10 value="0.0131299377" flag="0"/>
      <psa30 value="0.0009588920" flag="0"/>
    </comp>
    <comp name="--.HNN">
      <acc value="0.1475451796" flag="0"/>
      <vel value="0.0329558135" flag="0"/>
      <psa03 value="0.2933261176" flag="0"/>
      <psa10 value="0.0098201826" flag="0"/>
      <psa30 value="0.0008138665" flag="0"/>
    </comp>
  </station>
  <station code="GOMA" name="GOMA" netid="KO" insttype="CMG-5T" commtype="DIG" lat="38.7077" lon="27.9175">
    <comp name="--.HNN">
      <acc value="0.0456516575" flag="0"/>
      <vel value="0.0158188172" flag="0"/>
      <psa03 value="0.1113963198" flag="0"/>
      <psa10 value="0.0043599121" flag="0"/>
      <psa30 value="0.0004904915" flag="0"/>
    </comp>
  </station>
  <station code="GORD" name="GORD" netid="KO" insttype="CMG-5T" commtype="DIG" lat="38.9088" lon="28.1769">
    <comp name="--.HNZ">
      <acc value="0.0483790214" flag="0"/>
      <vel value="0.0212250432" flag="0"/>
      <psa03 value="0.0509536003" flag="0"/>
      <psa10 value="0.0174462269" flag="0"/>
      <psa30 value="0.0009731302" flag="0"/>
    </comp>
    <comp name="--.HNN">
      <acc value="0.0485424090" flag="0"/>
      <vel value="0.0289508039" flag="0"/>
      <psa03 value="0.1172890467" flag="0"/>
      <psa10 value="0.0237434684" flag="0"/>
      <psa30 value="0.0015598336" flag="0"/>
    </comp>
    <comp name="--.HNE">
      <acc value="0.0486213880" flag="0"/>
      <vel value="0.0221204670" flag="0"/>
      <psa03 value="0.0646694232" flag="0"/>
      <psa10 value="0.0256408666" flag="0"/>
      <psa30 value="0.0015622435" flag="0"/>
    </comp>
  </station>
  <station code="SOMA" name="SOMA" netid="KO" insttype="CMG-5T" commtype="DIG" lat="39.1564" lon="27.5341">
    <comp name="--.HNN">
      <acc value="0.0822141048" flag="0"/>
      <vel value="0.0248472135" flag="0"/>
      <psa03 value="0.1013872684" flag="0"/>
      <psa10 value="0.0146999014" flag="0"/>
      <psa30 value="0.0009957807" flag="0"/>
    </comp>
    <comp name="--.HNZ">
      <acc value="0.0904676536" flag="0"/>
      <vel value="0.0210441711" flag="0"/>
      <psa03 value="0.0649641557" flag="0"/>
      <psa10 value="0.0075162474" flag="0"/>
      <psa30 value="0.0006707946" flag="0"/>
    </comp>
  </station>
</stationlist>
