<?xml version="1.0" encoding="UTF-8" standalone="yes"?>
<!DOCTYPE earthquake SYSTEM "stationlist.dtd">
<stationlist created="" xmlns="ch.ethz.sed.shakemap.usgs.xml">
  <station code="AKS" name="AKS" netid="KO" insttype="CMG-5T" commtype="DIG" lat="38.8785" lon="27.8129">
    <comp name="--.HNE">
      <acc value="0.1423164431" flag="0"/>
      <vel value="0.0519420957" flag="0"/>
      <psa03 value="0.2048335958" flag="0"/>
      <psa10 value="0.0131299377" flag="0"/>
      <psa30 value="0.0009588920" flag="0"/>
    </comp>
    <comp name="--.HNN">
      <acc value="0.1475451796" flag="0"/>
      <vel value="0.0329558135" flag="0"/>
      <psa03 value="0.2933261176" flag="0"/>
      <psa10 value="0.0098201826" flag="0"/>
      <psa30 value="0.0008138665" flag="0"/>
    </comp>
    <comp name="--.HNZ">
      <acc value="0.0871980321" flag="0"/>
      <vel value="0.0205646754" flag="0"/>
      <psa03 value="0.0667070528" flag="0"/>
      <psa10 value="0.0035088608" flag="0"/>
      <psa30 value="0.0004580827" flag="0"/>
    </comp>
  </station>
  <station code="AYVL" name="AYVL" netid="KO" insttype="CMG-6T" commtype="DIG" lat="39.2907" lon="26.69">
    <comp name="--.HHZ">
      <acc value="0.0264993673" flag="0"/>
      <vel value="0.0081742199" flag="0"/>
      <psa03 value="0.0448138204" flag="0"/>
      <psa10 value="0.0028011711" flag="0"/>
      <psa30 value="0.0002248674" flag="0"/>
    </comp>
    <comp name="--.HHE">
      <acc value="0.0348409326" flag="0"/>
      <vel value="0.0133042368" flag="0"/>
      <psa03 value="0.0579080166" flag="0"/>
      <psa10 value="0.0087533593" flag="0"/>
      <psa30 value="0.0004532853" flag="0"/>
    </comp>
    <comp name="--.HHN">
      <acc value="0.0439811290" flag="0"/>
      <vel value="0.0201147129" flag="0"/>
      <psa03 value="0.0989621408" flag="0"/>
      <psa10 value="0.0052226280" flag="0"/>
      <psa30 value="0.0004312644" flag="0"/>
    </comp>
  </station>
  <station code="BALB" name="BALB" netid="KO" insttype="CMG-5T" commtype="DIG" lat="39.6507" lon="27.8642">
    <comp name="--.HNZ">
      <acc value="0.0654740111" flag="0"/>
      <vel value="0.0159160086" flag="0"/>
      <psa03 value="0.0794061182" flag="0"/>
      <psa10 value="0.0078156065" flag="0"/>
      <psa30 value="0.0004079042" flag="0"/>
    </comp>
    <comp name="--.HNN">
      <acc value="0.0593563224" flag="0"/>
      <vel value="0.0171669343" flag="0"/>
      <psa03 value="0.1293895035" flag="0"/>
      <psa10 value="0.0125082997" flag="0"/>
      <psa30 value="0.0007849697" flag="0"/>
    </comp>
    <comp name="--.HNE">
      <acc value="0.0592206959" flag="0"/>
      <vel value="0.0191387959" flag="0"/>
      <psa03 value="0.0651789056" flag="0"/>
      <psa10 value="0.0223118799" flag="0"/>
      <psa30 value="0.0013640930" flag="0"/>
    </comp>
  </station>
  <station code="CANM" name="CANM" netid="KO" insttype="CMG-5T" commtype="DIG" lat="40.0113" lon="27.0529">
    <comp name="--.HNE">
      <acc value="0.0211564753" flag="0"/>
      <vel value="0.0087844928" flag="0"/>
      <psa03 value="0.0599043640" flag="0"/>
      <psa10 value="0.0057117926" flag="0"/>
      <psa30 value="0.0003228379" flag="0"/>
    </comp>
    <comp name="--.HNN">
      <acc value="0.0285453503" flag="0"/>
      <vel value="0.0119662835" flag="0"/>
      <psa03 value="0.0673638062" flag="0"/>
      <psa10 value="0.0114787467" flag="0"/>
      <psa30 value="0.0008127588" flag="0"/>
    </comp>
    <comp name="--.HNZ">
      <acc value="0.0220154955" flag="0"/>
      <vel value="0.0093835737" flag="0"/>
      <psa03 value="0.0411967616" flag="0"/>
      <psa10 value="0.0048772980" flag="0"/>
      <psa30 value="0.0004014753" flag="0"/>
    </comp>
  </station>
  <station code="DST" name="DST" netid="KO" insttype="CMG-5T" commtype="DIG" lat="39.6041" lon="28.6267">
    <comp name="--.HNE">
      <acc value="0.0826252226" flag="0"/>
      <vel value="0.0175893688" flag="0"/>
      <psa03 value="0.0923196684" flag="0"/>
      <psa10 value="0.0079494407" flag="0"/>
      <psa30 value="0.0006454004" flag="0"/>
    </comp>
    <comp name="--.HNN">
      <acc value="0.0736475176" flag="0"/>
      <vel value="0.0232126783" flag="0"/>
      <psa03 value="0.0862938732" flag="0"/>
      <psa10 value="0.0074442664" flag="0"/>
      <psa30 value="0.0006940472" flag="0"/>
    </comp>
    <comp name="--.HNZ">
      <acc value="0.0564134391" flag="0"/>
      <vel value="0.0132223994" flag="0"/>
      <psa03 value="0.0732753123" flag="0"/>
      <psa10 value="0.0052247742" flag="0"/>
      <psa30 value="0.0007355781" flag="0"/>
    </comp>
  </station>
  <station code="GEDZ" name="GEDZ" netid="KO" insttype="CMG-6T" commtype="DIG" lat="39.0445" lon="29.4105">
    <comp name="--.HHE">
      <acc value="0.0422060234" flag="0"/>
      <vel value="0.0147605584" flag="0"/>
      <psa03 value="0.0978199444" flag="0"/>
      <psa10 value="0.0072607773" flag="0"/>
      <psa30 value="0.0004517265" flag="0"/>
    </comp>
    <comp name="--.HHZ">
      <acc value="0.0203235688" flag="0"/>
      <vel value="0.0087286449" flag="0"/>
      <psa03 value="0.0393091575" flag="0"/>
      <psa10 value="0.0041667656" flag="0"/>
      <psa30 value="0.0002353683" flag="0"/>
    </comp>
    <comp name="--.HHN">
      <acc value="0.0423630364" flag="0"/>
      <vel value="0.0172375873" flag="0"/>
      <psa03 value="0.1415662433" flag="0"/>
      <psa10 value="0.0140234162" flag="0"/>
      <psa30 value="0.0007131125" flag="0"/>
    </comp>
  </station>
  <station code="GOMA" name="GOMA" netid="KO" insttype="CMG-5T" commtype="DIG" lat="38.7077" lon="27.9175">
    <comp name="--.HNN">
      <acc value="0.0456516575" flag="0"/>
      <vel value="0.0158188172" flag="0"/>
      <psa03 value="0.1113963198" flag="0"/>
      <psa10 value="0.0043599121" flag="0"/>
      <psa30 value="0.0004904915" flag="0"/>
    </comp>
    <comp name="--.HNZ">
      <acc value="0.0478625275" flag="0"/>
      <vel value="0.0132754250" flag="0"/>
      <psa03 value="0.0467649107" flag="0"/>
      <psa10 value="0.0028027214" flag="0"/>
      <psa30 value="0.0003020541" flag="0"/>
    </comp>
    <comp name="--.HNE">
      <acc value="0.0650343472" flag="0"/>
      <vel value="0.0242761832" flag="0"/>
      <psa03 value="0.0918180962" flag="0"/>
      <psa10 value="0.0078803615" flag="0"/>
      <psa30 value="0.0005264179" flag="0"/>
    </comp>
  </station>
  <station code="GONE" name="GONE" netid="KO" insttype="CMG-5T" commtype="DIG" lat="40.0466" lon="27.686">
    <comp name="--.HNE">
      <acc value="0.0276925844" flag="0"/>
      <vel value="0.0114214824" flag="0"/>
      <psa03 value="0.0455033431" flag="0"/>
      <psa10 value="0.0065428797" flag="0"/>
      <psa30 value="0.0005407979" flag="0"/>
    </comp>
    <comp name="--.HNN">
      <acc value="0.0366308306" flag="0"/>
      <vel value="0.0135390378" flag="0"/>
      <psa03 value="0.0541211502" flag="0"/>
      <psa10 value="0.0081714207" flag="0"/>
      <psa30 value="0.0004842922" flag="0"/>
    </comp>
    <comp name="--.HNZ">
      <acc value="0.0236517665" flag="0"/>
      <vel value="0.0050381686" flag="0"/>
      <psa03 value="0.0231710503" flag="0"/>
      <psa10 value="0.0029608955" flag="0"/>
      <psa30 value="0.0002265991" flag="0"/>
    </comp>
  </station>
  <station code="GORD" name="GORD" netid="KO" insttype="CMG-5T" commtype="DIG" lat="38.9088" lon="28.1769">
    <comp name="--.HNZ">
      <acc value="0.0483790214" flag="0"/>
      <vel value="0.0212250432" flag="0"/>
      <psa03 value="0.0509536003" flag="0"/>
      <psa10 value="0.0174462269" flag="0"/>
      <psa30 value="0.0009731302" flag="0"/>
    </comp>
    <comp name="--.HNN">
      <acc value="0.0485424090" flag="0"/>
      <vel value="0.0289508039" flag="0"/>
      <psa03 value="0.1172890467" flag="0"/>
      <psa10 value="0.0237434684" flag="0"/>
      <psa30 value="0.0015598336" flag="0"/>
    </comp>
    <comp name="--.HNE">
      <acc value="0.0486213880" flag="0"/>
      <vel value="0.0221204670" flag="0"/>
      <psa03 value="0.0646694232" flag="0"/>
      <psa10 value="0.0256408666" flag="0"/>
      <psa30 value="0.0015622435" flag="0"/>
    </comp>
  </station>
  <station code="KULA" name="KULA" netid="KO" insttype="CMG-3T" commtype="DIG" lat="38.5145" lon="28.6607">
    <comp name="--.HHE">
      <acc value="0.0275741633" flag="0"/>
      <vel value="0.0091637576" flag="0"/>
      <psa03 value="0.0456393690" flag="0"/>
      <psa10 value="0.0068798789" flag="0"/>
      <psa30 value="0.0005051208" flag="0"/>
    </comp>
    <comp name="--.HHZ">
      <acc value="0.0197856842" flag="0"/>
      <vel value="0.0055730611" flag="0"/>
      <psa03 value="0.0333796574" flag="0"/>
      <psa10 value="0.0028875799" flag="0"/>
      <psa30 value="0.0001487474" flag="0"/>
    </comp>
    <comp name="--.HHN">
      <acc value="0.0250793108" flag="0"/>
      <vel value="0.0059476109" flag="0"/>
      <psa03 value="0.0459278767" flag="0"/>
      <psa10 value="0.0040704313" flag="0"/>
      <psa30 value="0.0002295977" flag="0"/>
    </comp>
  </station>
  <station code="ODEM" name="ODEM" netid="KO" insttype="CMG-5T" commtype="DIG" lat="38.2762" lon="28.0747">
    <comp name="--.HNN">
      <acc value="0.0161315278" flag="0"/>
      <vel value="0.0073372604" flag="0"/>
      <psa03 value="0.0414784021" flag="0"/>
      <psa10 value="0.0068173133" flag="0"/>
      <psa30 value="0.0003211089" flag="0"/>
    </comp>
    <comp name="--.HNE">
      <acc value="0.0259981250" flag="0"/>
      <vel value="0.0113799456" flag="0"/>
      <psa03 value="0.0508136085" flag="0"/>
      <psa10 value="0.0051517143" flag="0"/>
      <psa30 value="0.0003993370" flag="0"/>
    </comp>
    <comp name="--.HNZ">
      <acc value="0.0194996844" flag="0"/>
      <vel value="0.0083217370" flag="0"/>
      <psa03 value="0.0462420664" flag="0"/>
      <psa10 value="0.0055544966" flag="0"/>
      <psa30 value="0.0003108281" flag="0"/>
    </comp>
  </station>
  <station code="ORLT" name="ORLT" netid="KO" insttype="CMG-5T" commtype="DIG" lat="40.0452" lon="28.8914">
    <comp name="--.HNZ">
      <acc value="0.0331468739" flag="0"/>
      <vel value="0.0088827252" flag="0"/>
      <psa03 value="0.0433768420" flag="0"/>
      <psa10 value="0.0052135767" flag="0"/>
      <psa30 value="0.0005124551" flag="0"/>
    </comp>
    <comp name="--.HNN">
      <acc value="0.0669010648" flag="0"/>
      <vel value="0.0271690640" flag="0"/>
      <psa03 value="0.1959449408" flag="0"/>
      <psa10 value="0.0116485502" flag="0"/>
      <psa30 value="0.0010982553" flag="0"/>
    </comp>
    <comp name="--.HNE">
      <acc value="0.0923782126" flag="0"/>
      <vel value="0.0318698656" flag="0"/>
      <psa03 value="0.2093619081" flag="0"/>
      <psa10 value="0.0094003419" flag="0"/>
      <psa30 value="0.0009586398" flag="0"/>
    </comp>
  </station>
  <station code="SHAP" name="SHAP" netid="KO" insttype="CMG-5T" commtype="DIG" lat="39.0231" lon="29.222">
    <comp name="--.HNN">
      <acc value="0.0522835179" flag="0"/>
      <vel value="0.0206734630" flag="0"/>
      <psa03 value="0.1117692794" flag="0"/>
      <psa10 value="0.0066593984" flag="0"/>
      <psa30 value="0.0005090632" flag="0"/>
    </comp>
    <comp name="--.HNE">
      <acc value="0.0387700926" flag="0"/>
      <vel value="0.0139998832" flag="0"/>
      <psa03 value="0.0778770530" flag="0"/>
      <psa10 value="0.0031473153" flag="0"/>
      <psa30 value="0.0002705179" flag="0"/>
    </comp>
    <comp name="--.HNZ">
      <acc value="0.0300501252" flag="0"/>
      <vel value="0.0084419370" flag="0"/>
      <psa03 value="0.0307571723" flag="0"/>
      <psa10 value="0.0023127922" flag="0"/>
      <psa30 value="0.0001716425" flag="0"/>
    </comp>
  </station>
  <station code="SIMA" name="SIMA" netid="KO" insttype="CMG-6T" commtype="DIG" lat="39.0833" lon="28.9825">
    <comp name="--.HHZ">
      <acc value="0.0344778288" flag="0"/>
      <vel value="0.0073754666" flag="0"/>
      <psa03 value="0.0265582775" flag="0"/>
      <psa10 value="0.0022831685" flag="0"/>
      <psa30 value="0.0001381454" flag="0"/>
    </comp>
    <comp name="--.HHN">
      <acc value="0.0373529074" flag="0"/>
      <vel value="0.0125665420" flag="0"/>
      <psa03 value="0.0813934115" flag="0"/>
      <psa10 value="0.0049240525" flag="0"/>
      <psa30 value="0.0004309303" flag="0"/>
    </comp>
    <comp name="--.HHE">
      <acc value="0.0574325428" flag="0"/>
      <vel value="0.0130404504" flag="0"/>
      <psa03 value="0.0550660678" flag="0"/>
      <psa10 value="0.0036947211" flag="0"/>
      <psa30 value="0.0003137625" flag="0"/>
    </comp>
  </station>
  <station code="SMAA" name="SMAA" netid="KO" insttype="CMG-5T" commtype="DIG" lat="39.1005" lon="28.9805">
    <comp name="--.HNE">
      <acc value="0.0697655721" flag="0"/>
      <vel value="0.0286029647" flag="0"/>
      <psa03 value="0.1192381223" flag="0"/>
      <psa10 value="0.0251504573" flag="0"/>
      <psa30 value="0.0010251624" flag="0"/>
    </comp>
    <comp name="--.HNN">
      <acc value="0.0479008083" flag="0"/>
      <vel value="0.0300157059" flag="0"/>
      <psa03 value="0.1055055827" flag="0"/>
      <psa10 value="0.0195872835" flag="0"/>
      <psa30 value="0.0014229231" flag="0"/>
    </comp>
    <comp name="--.HNZ">
      <acc value="0.0297769949" flag="0"/>
      <vel value="0.0073555064" flag="0"/>
      <psa03 value="0.0376937533" flag="0"/>
      <psa10 value="0.0190586690" flag="0"/>
      <psa30 value="0.0007283017" flag="0"/>
    </comp>
  </station>
  <station code="SOMA" name="SOMA" netid="KO" insttype="CMG-5T" commtype="DIG" lat="39.1564" lon="27.5341">
    <comp name="--.HNN">
      <acc value="0.0822141048" flag="0"/>
      <vel value="0.0248472135" flag="0"/>
      <psa03 value="0.1013872684" flag="0"/>
      <psa10 value="0.0146999014" flag="0"/>
      <psa30 value="0.0009957807" flag="0"/>
    </comp>
    <comp name="--.HNZ">
      <acc value="0.0904676536" flag="0"/>
      <vel value="0.0210441711" flag="0"/>
      <psa03 value="0.0649641557" flag="0"/>
      <psa10 value="0.0075162474" flag="0"/>
      <psa30 value="0.0006707946" flag="0"/>
    </comp>
    <comp name="--.HNE">
      <acc value="0.1439253100" flag="0"/>
      <vel value="0.0399626061" flag="0"/>
      <psa03 value="0.1773430663" flag="0"/>
      <psa10 value="0.0076970768" flag="0"/>
      <psa30 value="0.0007777597" flag="0"/>
    </comp>
  </station>
  <station code="SUSR" name="SUSR" netid="KO" insttype="CMG-5T" commtype="DIG" lat="39.9627" lon="28.0835">
    <comp name="--.HNE">
      <acc value="0.0367418189" flag="0"/>
      <vel value="0.0096026151" flag="0"/>
      <psa03 value="0.0287640160" flag="0"/>
      <psa10 value="0.0035463776" flag="0"/>
      <psa30 value="0.0002111286" flag="0"/>
    </comp>
    <comp name="--.HNZ">
      <acc value="0.0324993875" flag="0"/>
      <vel value="0.0077500947" flag="0"/>
      <psa03 value="0.0233070854" flag="0"/>
      <psa10 value="0.0019490205" flag="0"/>
      <psa30 value="0.0001786443" flag="0"/>
    </comp>
    <comp name="--.HNN">
      <acc value="0.0301711762" flag="0"/>
      <vel value="0.0096475316" flag="0"/>
      <psa03 value="0.0484458570" flag="0"/>
      <psa10 value="0.0023328309" flag="0"/>
      <psa30 value="0.0002503100" flag="0"/>
    </comp>
  </station>
  <station code="TVSB" name="TVSB" netid="KO" insttype="CMG-3T" commtype="DIG" lat="39.4497" lon="29.4615">
    <comp name="--.HHN">
      <acc value="0.0367537673" flag="0"/>
      <vel value="0.0126621902" flag="0"/>
      <psa03 value="0.0699271283" flag="0"/>
      <psa10 value="0.0057455355" flag="0"/>
      <psa30 value="0.0004741467" flag="0"/>
    </comp>
    <comp name="--.HHZ">
      <acc value="0.0193099416" flag="0"/>
      <vel value="0.0049214980" flag="0"/>
      <psa03 value="0.0441347936" flag="0"/>
      <psa10 value="0.0029031772" flag="0"/>
      <psa30 value="0.0002214955" flag="0"/>
    </comp>
    <comp name="--.HHE">
      <acc value="0.0437098325" flag="0"/>
      <vel value="0.0132119012" flag="0"/>
      <psa03 value="0.0731780696" flag="0"/>
      <psa10 value="0.0084615211" flag="0"/>
      <psa30 value="0.0005461714" flag="0"/>
    </comp>
  </station>
  <station code="YENI" name="YENI" netid="KO" insttype="CMG-5T" commtype="DIG" lat="39.9364" lon="27.2422">
    <comp name="--.HNZ">
      <acc value="0.0710082938" flag="0"/>
      <vel value="0.0119763997" flag="0"/>
      <psa03 value="0.0371036587" flag="0"/>
      <psa10 value="0.0028757805" flag="0"/>
      <psa30 value="0.0003702733" flag="0"/>
    </comp>
    <comp name="--.HNE">
      <acc value="0.0727278694" flag="0"/>
      <vel value="0.0192415187" flag="0"/>
      <psa03 value="0.1047520502" flag="0"/>
      <psa10 value="0.0094645441" flag="0"/>
      <psa30 value="0.0006140674" flag="0"/>
    </comp>
    <comp name="--.HNN">
      <acc value="0.0835755044" flag="0"/>
      <vel value="0.0308431006" flag="0"/>
      <psa03 value="0.1279783446" flag="0"/>
      <psa10 value="0.0139034723" flag="0"/>
      <psa30 value="0.0008689434" flag="0"/>
    </comp>
  </station>
</stationlist>
