<?xml version="1.0" encoding="UTF-8" standalone="yes"?>
<!DOCTYPE earthquake SYSTEM "stationlist.dtd">
<stationlist created="" xmlns="ch.ethz.sed.shakemap.usgs.xml">
  <station code="ZKR" name="ZKR" netid="GE" insttype="STS-2/N" commtype="DIG" lat="35.1147" lon="26.2169">
    <comp name="--.HHN">
      <acc value="0.1002008343" flag="0"/>
      <vel value="0.0386429688" flag="0"/>
      <psa03 value="0.2850817870" flag="0"/>
      <psa10 value="0.0134312818" flag="0"/>
      <psa30 value="0.0010946534" flag="0"/>
    </comp>
    <comp name="--.HHZ">
      <acc value="0.1893483338" flag="0"/>
      <vel value="0.0283219504" flag="0"/>
      <psa03 value="0.1314595672" flag="0"/>
      <psa10 value="0.0232753318" flag="0"/>
      <psa30 value="0.0019191788" flag="0"/>
    </comp>
    <comp name="--.HHE">
      <acc value="0.2003020603" flag="0"/>
      <vel value="0.0592526753" flag="0"/>
      <psa03 value="0.2372977217" flag="0"/>
      <psa10 value="0.0462512465" flag="0"/>
      <psa30 value="0.0016083330" flag="0"/>
    </comp>
  </station>
  <station code="KNSS" name="KNSS" netid="HC" insttype="60" commtype="DIG" lat="35.3042" lon="25.1802">
    <comp name="--.HHN">
      <acc value="0.0105675039" flag="0"/>
      <vel value="0.0056267040" flag="0"/>
      <psa03 value="0.0407279060" flag="0"/>
      <psa10 value="0.0034132518" flag="0"/>
      <psa30 value="0.0003065418" flag="0"/>
    </comp>
    <comp name="--.HHE">
      <acc value="0.0000000000" flag="0"/>
      <vel value="-100.0000000000" flag="0"/>
      <psa03 value="0.0000000000" flag="0"/>
      <psa10 value="0.0000000000" flag="0"/>
      <psa30 value="0.0000000000" flag="0"/>
    </comp>
    <comp name="--.HHZ">
      <acc value="0.0099884578" flag="0"/>
      <vel value="0.0033865412" flag="0"/>
      <psa03 value="0.0205999886" flag="0"/>
      <psa10 value="0.0018852883" flag="0"/>
      <psa30 value="0.0006547032" flag="0"/>
    </comp>
  </station>
  <station code="PFKS" name="PFKS" netid="HC" insttype="120" commtype="DIG" lat="35.0429" lon="25.4733">
    <comp name="--.HHE">
      <acc value="0.1390138994" flag="0"/>
      <vel value="0.0602739988" flag="0"/>
      <psa03 value="0.5187914604" flag="0"/>
      <psa10 value="0.0240457062" flag="0"/>
      <psa30 value="0.0019352158" flag="0"/>
    </comp>
    <comp name="--.HHZ">
      <acc value="0.0560953686" flag="0"/>
      <vel value="0.0184680726" flag="0"/>
      <psa03 value="0.1795859919" flag="0"/>
      <psa10 value="0.0125753890" flag="0"/>
      <psa30 value="0.0007702868" flag="0"/>
    </comp>
    <comp name="--.HHN">
      <acc value="0.0842181431" flag="0"/>
      <vel value="0.0336558482" flag="0"/>
      <psa03 value="0.2895611614" flag="0"/>
      <psa10 value="0.0183061992" flag="0"/>
      <psa30 value="0.0016002647" flag="0"/>
    </comp>
  </station>
  <station code="STIA" name="STIA" netid="HC" insttype="120" commtype="DIG" lat="35.2021" lon="26.0909">
    <comp name="--.HHN">
      <acc value="0.2223774232" flag="0"/>
      <vel value="0.0508830870" flag="0"/>
      <psa03 value="0.2130712847" flag="0"/>
      <psa10 value="0.0223982213" flag="0"/>
      <psa30 value="0.0018488932" flag="0"/>
    </comp>
    <comp name="--.HHZ">
      <acc value="0.4041820285" flag="0"/>
      <vel value="0.0572243871" flag="0"/>
      <psa03 value="0.2294675401" flag="0"/>
      <psa10 value="0.0154411832" flag="0"/>
      <psa30 value="0.0018873075" flag="0"/>
    </comp>
    <comp name="--.HHE">
      <acc value="0.2085266507" flag="0"/>
      <vel value="0.0556166332" flag="0"/>
      <psa03 value="0.2170706911" flag="0"/>
      <psa10 value="0.0306617663" flag="0"/>
      <psa30 value="0.0014354836" flag="0"/>
    </comp>
  </station>
  <station code="AGN1" name="AGN1" netid="HI" insttype="unknown" commtype="DIG" lat="35.1879" lon="25.7155">
    <comp name="--.HNE">
      <acc value="0.0002481418" flag="0"/>
      <vel value="0.0002500759" flag="0"/>
      <psa03 value="0.0003420401" flag="0"/>
      <psa10 value="0.0003135720" flag="0"/>
      <psa30 value="0.0001397611" flag="0"/>
    </comp>
    <comp name="--.HNZ">
      <acc value="0.0289921651" flag="0"/>
      <vel value="0.0080860242" flag="0"/>
      <psa03 value="0.0356738213" flag="0"/>
      <psa10 value="0.0032682108" flag="0"/>
      <psa30 value="0.0004452878" flag="0"/>
    </comp>
    <comp name="--.HNN">
      <acc value="0.1170757346" flag="0"/>
      <vel value="0.0289770754" flag="0"/>
      <psa03 value="0.0973701874" flag="0"/>
      <psa10 value="0.0059137571" flag="0"/>
      <psa30 value="0.0012417246" flag="0"/>
    </comp>
  </station>
  <station code="KSS1" name="KSS1" netid="HI" insttype="CMG-5TD,ACCELEROMETER,GURALP" commtype="DIG" lat="35.4189" lon="26.9207">
    <comp name="--.HNE">
      <acc value="0.0068733719" flag="0"/>
      <vel value="0.0035562886" flag="0"/>
      <psa03 value="0.0216916390" flag="0"/>
      <psa10 value="0.0024123754" flag="0"/>
      <psa30 value="0.0002795570" flag="0"/>
    </comp>
    <comp name="--.HNZ">
      <acc value="0.0046097696" flag="0"/>
      <vel value="0.0017599825" flag="0"/>
      <psa03 value="0.0075108361" flag="0"/>
      <psa10 value="0.0028761495" flag="0"/>
      <psa30 value="0.0003350933" flag="0"/>
    </comp>
    <comp name="--.HNN">
      <acc value="0.0085245006" flag="0"/>
      <vel value="0.0045400729" flag="0"/>
      <psa03 value="0.0381924634" flag="0"/>
      <psa10 value="0.0045941232" flag="0"/>
      <psa30 value="0.0002635908" flag="0"/>
    </comp>
  </station>
  <station code="SIT2" name="SIT2" netid="HI" insttype="CMG-5TD,ACCELEROMETER,GURALP" commtype="DIG" lat="35.2059" lon="26.107">
    <comp name="--.HNE">
      <acc value="0.2797963393" flag="0"/>
      <vel value="0.1370149230" flag="0"/>
      <psa03 value="1.0274335553" flag="0"/>
      <psa10 value="0.0540647244" flag="0"/>
      <psa30 value="0.0039361967" flag="0"/>
    </comp>
    <comp name="--.HNZ">
      <acc value="0.2104267296" flag="0"/>
      <vel value="0.0733625483" flag="0"/>
      <psa03 value="0.3885817241" flag="0"/>
      <psa10 value="0.0200413799" flag="0"/>
      <psa30 value="0.0020366012" flag="0"/>
    </comp>
    <comp name="--.HNN">
      <acc value="0.3129735241" flag="0"/>
      <vel value="0.1557661955" flag="0"/>
      <psa03 value="0.7255113261" flag="0"/>
      <psa10 value="0.0729685505" flag="0"/>
      <psa30 value="0.0055476318" flag="0"/>
    </comp>
  </station>
  <station code="SIVA" name="SIVA" netid="HL" insttype="60" commtype="DIG" lat="35.0178" lon="24.812">
    <comp name="--.HHZ">
      <acc value="0.0060465021" flag="0"/>
      <vel value="0.0029612516" flag="0"/>
      <psa03 value="0.0251929797" flag="0"/>
      <psa10 value="0.0035568661" flag="0"/>
      <psa30 value="0.0002965213" flag="0"/>
    </comp>
    <comp name="--.HHE">
      <acc value="0.0098490707" flag="0"/>
      <vel value="0.0053898712" flag="0"/>
      <psa03 value="0.0392419380" flag="0"/>
      <psa10 value="0.0057845792" flag="0"/>
      <psa30 value="0.0005001332" flag="0"/>
    </comp>
    <comp name="--.HHN">
      <acc value="0.0069614329" flag="0"/>
      <vel value="0.0043394214" flag="0"/>
      <psa03 value="0.0165561758" flag="0"/>
      <psa10 value="0.0069776977" flag="0"/>
      <psa30 value="0.0004978356" flag="0"/>
    </comp>
  </station>
</stationlist>
