<stationlist created="1778138996">
	<station code="MESG" name="MESG" netid="IV" source="Italian National Seismic Network (INSN)" insttype="" lat="40.589408" lon="17.850423">
		<comp name="--.HNE" depth="0.0">
			<acc value="0.00848276483828881" flag="0"/>
			<vel value="0.00253916834437956" flag="0"/>
			<psa03 value="0.0105381466682087" flag="0"/>
			<psa10 value="0.002638460800704" flag="0"/>
			<psa30 value="0.00037081643976944" flag="0"/>
		</comp>
		<comp name="--.HNN" depth="0.0">
			<acc value="0.00773153632404827" flag="0"/>
			<vel value="0.00412826822516954" flag="0"/>
			<psa03 value="0.0119788000471303" flag="0"/>
			<psa10 value="0.00464309914501454" flag="0"/>
			<psa30 value="0.000402338293562301" flag="0"/>
		</comp>
		<comp name="--.HNZ" depth="0.0">
			<acc value="0.00395461253696778" flag="0"/>
			<vel value="0.00120869101331973" flag="0"/>
			<psa03 value="0.0065259883042632" flag="0"/>
			<psa10 value="0.00148018930527886" flag="0"/>
			<psa30 value="0.000374951401190093" flag="0"/>
		</comp>
	</station>
	<station code="NOCI" name="NOCI" netid="IV" source="Italian National Seismic Network (INSN)" insttype="" lat="40.7888" lon="17.0644">
		<comp name="--.HNE" depth="0.0">
			<acc value="0.00702573703570997" flag="0"/>
			<vel value="0.00175996425720534" flag="0"/>
			<psa03 value="0.015467398337128" flag="0"/>
			<psa10 value="0.00224394240017011" flag="0"/>
			<psa30 value="0.000173054172322834" flag="0"/>
		</comp>
		<comp name="--.HNN" depth="0.0">
			<acc value="0.00914960851049907" flag="0"/>
			<vel value="0.00287371973776599" flag="0"/>
			<psa03 value="0.0135150320233074" flag="0"/>
			<psa10 value="0.00216948145187405" flag="0"/>
			<psa30 value="0.000243896287140537" flag="0"/>
		</comp>
		<comp name="--.HNZ" depth="0.0">
			<acc value="0.00547269900026611" flag="0"/>
			<vel value="0.0016131619608514" flag="0"/>
			<psa03 value="0.00739899340222679" flag="0"/>
			<psa10 value="0.00154221056231825" flag="0"/>
			<psa30 value="0.00019263152391393" flag="0"/>
		</comp>
	</station>
</stationlist>
