<?xml version="1.0" encoding="UTF-8" standalone="yes"?>
<!DOCTYPE earthquake SYSTEM "stationlist.dtd">
<stationlist created="" xmlns="ch.ethz.sed.shakemap.usgs.xml">
  <station code="BCI" name="BCI" netid="AC" insttype="" lat="42.3666" lon="20.0675">
    <comp name="--.HHE">
      <acc value="0.0294420215" flag="0"/>
      <vel value="0.0222041536" flag="0"/>
      <psa03 value="0.0451626600" flag="0"/>
      <psa10 value="0.0356276329" flag="0"/>
      <psa30 value="0.0016410824" flag="0"/>
    </comp>
    <comp name="--.HHN">
      <acc value="0.0255984032" flag="0"/>
      <vel value="0.0150019971" flag="0"/>
      <psa03 value="0.0461189457" flag="0"/>
      <psa10 value="0.0252115813" flag="0"/>
      <psa30 value="0.0012492287" flag="0"/>
    </comp>
    <comp name="--.HHZ">
      <acc value="0.0408849986" flag="0"/>
      <vel value="0.0155281857" flag="0"/>
      <psa03 value="0.0459222383" flag="0"/>
      <psa10 value="0.0336380018" flag="0"/>
      <psa30 value="0.0015725476" flag="0"/>
    </comp>
  </station>
  <station code="PHP" name="PHP" netid="AC" insttype="" lat="41.6847" lon="20.4408">
    <comp name="--.HHE">
      <acc value="0.0775421005" flag="0"/>
      <vel value="0.0075279983" flag="0"/>
      <psa03 value="0.0267799898" flag="0"/>
      <psa10 value="0.0083589126" flag="0"/>
      <psa30 value="0.0006794656" flag="0"/>
    </comp>
    <comp name="--.HHN">
      <acc value="0.0051414008" flag="0"/>
      <vel value="0.0023953658" flag="0"/>
      <psa03 value="0.0070370699" flag="0"/>
      <psa10 value="0.0028961342" flag="0"/>
      <psa30 value="0.0003581092" flag="0"/>
    </comp>
    <comp name="--.HHZ">
      <acc value="0.0034837415" flag="0"/>
      <vel value="0.0010878900" flag="0"/>
      <psa03 value="0.0045259307" flag="0"/>
      <psa10 value="0.0020340145" flag="0"/>
      <psa30 value="0.0001714774" flag="0"/>
    </comp>
  </station>
  <station code="PUK" name="PUK" netid="AC" insttype="" lat="42.0426" lon="19.8926">
    <comp name="--.HHE">
      <acc value="0.0114078897" flag="0"/>
      <vel value="0.0041379194" flag="0"/>
      <psa03 value="0.0149075039" flag="0"/>
      <psa10 value="0.0053142596" flag="0"/>
      <psa30 value="0.0005196342" flag="0"/>
    </comp>
    <comp name="--.HHN">
      <acc value="0.0127306808" flag="0"/>
      <vel value="0.0035057855" flag="0"/>
      <psa03 value="0.0155103041" flag="0"/>
      <psa10 value="0.0041478996" flag="0"/>
      <psa30 value="0.0004306651" flag="0"/>
    </comp>
    <comp name="--.HHZ">
      <acc value="0.0065023439" flag="0"/>
      <vel value="0.0023273057" flag="0"/>
      <psa03 value="0.0098842882" flag="0"/>
      <psa10 value="0.0021278845" flag="0"/>
      <psa30 value="0.0001044539" flag="0"/>
    </comp>
  </station>
  <station code="KOME" name="KOME" netid="ME" insttype="SMART24" lat="42.8505" lon="19.5152">
    <comp name="--.HHE">
      <acc value="0.0041912987" flag="0"/>
      <vel value="0.0036137975" flag="0"/>
      <psa03 value="0.0078156773" flag="0"/>
      <psa10 value="0.0042145714" flag="0"/>
      <psa30 value="0.0004267303" flag="0"/>
    </comp>
    <comp name="--.HHZ">
      <acc value="0.0028929113" flag="0"/>
      <vel value="0.0022701887" flag="0"/>
      <psa03 value="0.0090440854" flag="0"/>
      <psa10 value="0.0045088771" flag="0"/>
      <psa30 value="0.0007559427" flag="0"/>
    </comp>
    <comp name="--.HHN">
      <acc value="0.0033330304" flag="0"/>
      <vel value="0.0027619310" flag="0"/>
      <psa03 value="0.0101918517" flag="0"/>
      <psa10 value="0.0026856568" flag="0"/>
      <psa30 value="0.0006497747" flag="0"/>
    </comp>
  </station>
  <station code="PDG" name="PDG" netid="MN" insttype="" lat="42.4297" lon="19.2608">
    <comp name="--.HHE">
      <acc value="0.0257246637" flag="0"/>
      <vel value="0.0099112271" flag="0"/>
      <psa03 value="0.0497519713" flag="0"/>
      <psa10 value="0.0095536162" flag="0"/>
      <psa30 value="0.0013361317" flag="0"/>
    </comp>
    <comp name="--.HHN">
      <acc value="0.0322789072" flag="0"/>
      <vel value="0.0086142517" flag="0"/>
      <psa03 value="0.0462735309" flag="0"/>
      <psa10 value="0.0079443944" flag="0"/>
      <psa30 value="0.0006998878" flag="0"/>
    </comp>
    <comp name="--.HHZ">
      <acc value="0.0299473699" flag="0"/>
      <vel value="0.0088870993" flag="0"/>
      <psa03 value="0.0640857330" flag="0"/>
      <psa10 value="0.0053803078" flag="0"/>
      <psa30 value="0.0005058885" flag="0"/>
    </comp>
  </station>
  <station code="TIR" name="TIR" netid="MN" insttype="" lat="41.3472" lon="19.8631">
    <comp name="--.HHE">
      <acc value="0.0084067228" flag="0"/>
      <vel value="0.0043316500" flag="0"/>
      <psa03 value="0.0212037172" flag="0"/>
      <psa10 value="0.0050508472" flag="0"/>
      <psa30 value="0.0006749288" flag="0"/>
    </comp>
    <comp name="--.HHN">
      <acc value="0.0104332057" flag="0"/>
      <vel value="0.0042212819" flag="0"/>
      <psa03 value="0.0169512826" flag="0"/>
      <psa10 value="0.0040094081" flag="0"/>
      <psa30 value="0.0005324688" flag="0"/>
    </comp>
    <comp name="--.HHZ">
      <acc value="0.0073139911" flag="0"/>
      <vel value="0.0028255838" flag="0"/>
      <psa03 value="0.0095219462" flag="0"/>
      <psa10 value="0.0033957286" flag="0"/>
      <psa30 value="0.0004881194" flag="0"/>
    </comp>
  </station>
</stationlist>
