<?xml version="1.0" encoding="UTF-8" standalone="yes"?>
<!DOCTYPE earthquake SYSTEM "stationlist.dtd">
<stationlist created="" xmlns="ch.ethz.sed.shakemap.usgs.xml">
  <station code="CANT" name="CANT" netid="KO" insttype="CMG-3ESP" commtype="DIG" lat="40.6062" lon="33.6193">
    <comp name="--.HHE">
      <acc value="0.0792540839" flag="0"/>
      <vel value="0.0238689001" flag="0"/>
      <psa03 value="0.0810666287" flag="0"/>
      <psa10 value="0.0226505488" flag="0"/>
      <psa30 value="0.0029703309" flag="0"/>
    </comp>
    <comp name="--.HHN">
      <acc value="0.0547840442" flag="0"/>
      <vel value="0.0200569592" flag="0"/>
      <psa03 value="0.0548204621" flag="0"/>
      <psa10 value="0.0196735705" flag="0"/>
      <psa30 value="0.0016743198" flag="0"/>
    </comp>
    <comp name="--.HHZ">
      <acc value="0.0463456275" flag="0"/>
      <vel value="0.0143522003" flag="0"/>
      <psa03 value="0.0493055597" flag="0"/>
      <psa10 value="0.0130489708" flag="0"/>
      <psa30 value="0.0017053367" flag="0"/>
    </comp>
  </station>
  <station code="CORM" name="CORM" netid="KO" insttype="CMG-6T" commtype="DIG" lat="40.1785" lon="34.6302">
    <comp name="--.HHZ">
      <acc value="0.0127543863" flag="0"/>
      <vel value="0.0052755871" flag="0"/>
      <psa03 value="0.0269889099" flag="0"/>
      <psa10 value="0.0042438593" flag="0"/>
      <psa30 value="0.0006945300" flag="0"/>
    </comp>
    <comp name="--.HHE">
      <acc value="0.0137694609" flag="0"/>
      <vel value="0.0070377450" flag="0"/>
      <psa03 value="0.0350506142" flag="0"/>
      <psa10 value="0.0049732614" flag="0"/>
      <psa30 value="0.0008637126" flag="0"/>
    </comp>
    <comp name="--.HHN">
      <acc value="0.0155230155" flag="0"/>
      <vel value="0.0091030976" flag="0"/>
      <psa03 value="0.0417007820" flag="0"/>
      <psa10 value="0.0122894395" flag="0"/>
      <psa30 value="0.0008768376" flag="0"/>
    </comp>
  </station>
  <station code="KMON" name="KMON" netid="KO" insttype="CMG-5T" commtype="DIG" lat="41.3738" lon="33.7839">
    <comp name="--.HNN">
      <acc value="0.0519436473" flag="0"/>
      <vel value="0.0219197059" flag="0"/>
      <psa03 value="0.0750603526" flag="0"/>
      <psa10 value="0.0200662005" flag="0"/>
      <psa30 value="0.0012815321" flag="0"/>
    </comp>
    <comp name="--.HNE">
      <acc value="0.0411821265" flag="0"/>
      <vel value="0.0266262257" flag="0"/>
      <psa03 value="0.0810690673" flag="0"/>
      <psa10 value="0.0187889916" flag="0"/>
      <psa30 value="0.0010482506" flag="0"/>
    </comp>
    <comp name="--.HNZ">
      <acc value="0.0759727491" flag="0"/>
      <vel value="0.0236891900" flag="0"/>
      <psa03 value="0.0867456197" flag="0"/>
      <psa10 value="0.0073441731" flag="0"/>
      <psa30 value="0.0004695732" flag="0"/>
    </comp>
  </station>
  <station code="OSMA" name="OSMA" netid="KO" insttype="CMG-6T" commtype="DIG" lat="40.9939" lon="34.7605">
    <comp name="--.HHE">
      <acc value="0.2657335026" flag="0"/>
      <vel value="0.0780636145" flag="0"/>
      <psa03 value="0.4310048548" flag="0"/>
      <psa10 value="0.0586896977" flag="0"/>
      <psa30 value="0.0020342629" flag="0"/>
    </comp>
    <comp name="--.HHN">
      <acc value="0.2931118578" flag="0"/>
      <vel value="0.0849975600" flag="0"/>
      <psa03 value="0.6030777063" flag="0"/>
      <psa10 value="0.0579293274" flag="0"/>
      <psa30 value="0.0024517064" flag="0"/>
    </comp>
    <comp name="--.HHZ">
      <acc value="0.2399489873" flag="0"/>
      <vel value="0.0636215074" flag="0"/>
      <psa03 value="0.2723455353" flag="0"/>
      <psa10 value="0.0163049426" flag="0"/>
      <psa30 value="0.0011188546" flag="0"/>
    </comp>
  </station>
  <station code="TOS" name="TOS" netid="KO" insttype="CMG-5T" commtype="DIG" lat="41.0362" lon="34.0226">
    <comp name="--.HNN">
      <acc value="0.4784926553" flag="0"/>
      <vel value="0.1210807789" flag="0"/>
      <psa03 value="0.4049413981" flag="0"/>
      <psa10 value="0.0269404813" flag="0"/>
      <psa30 value="0.0039949094" flag="0"/>
    </comp>
    <comp name="--.HNE">
      <acc value="0.2756202529" flag="0"/>
      <vel value="0.1003853004" flag="0"/>
      <psa03 value="0.4210551092" flag="0"/>
      <psa10 value="0.0500836666" flag="0"/>
      <psa30 value="0.0038947648" flag="0"/>
    </comp>
    <comp name="--.HNZ">
      <acc value="0.2063265771" flag="0"/>
      <vel value="0.0687887952" flag="0"/>
      <psa03 value="0.3352966260" flag="0"/>
      <psa10 value="0.0214167000" flag="0"/>
      <psa30 value="0.0014785444" flag="0"/>
    </comp>
  </station>
  <station code="YALI" name="YALI" netid="KO" insttype="CMG-6T" commtype="DIG" lat="40.7676" lon="32.9822">
    <comp name="--.HHE">
      <acc value="0.0078164828" flag="0"/>
      <vel value="0.0058659764" flag="0"/>
      <psa03 value="0.0189448946" flag="0"/>
      <psa10 value="0.0076679465" flag="0"/>
      <psa30 value="0.0008035778" flag="0"/>
    </comp>
    <comp name="--.HHN">
      <acc value="0.0079605454" flag="0"/>
      <vel value="0.0043717845" flag="0"/>
      <psa03 value="0.0201967085" flag="0"/>
      <psa10 value="0.0056631704" flag="0"/>
      <psa30 value="0.0009376254" flag="0"/>
    </comp>
    <comp name="--.HHZ">
      <acc value="0.0057489319" flag="0"/>
      <vel value="0.0019285015" flag="0"/>
      <psa03 value="0.0111666210" flag="0"/>
      <psa10 value="0.0030349954" flag="0"/>
      <psa30 value="0.0002880478" flag="0"/>
    </comp>
  </station>
</stationlist>
