<?xml version="1.0" encoding="UTF-8" standalone="yes"?>
<!DOCTYPE earthquake SYSTEM "stationlist.dtd">
<stationlist created="" xmlns="ch.ethz.sed.shakemap.usgs.xml">
  <station code="CANT" name="CANT" netid="KO" insttype="CMG-3ESP" commtype="DIG" lat="40.6062" lon="33.6193">
    <comp name="--.HHN">
      <acc value="0.0547840442" flag="0"/>
      <vel value="0.0200569594" flag="0"/>
      <psa03 value="0.0548204621" flag="0"/>
      <psa10 value="0.0196735705" flag="0"/>
      <psa30 value="0.0016743358" flag="0"/>
    </comp>
    <comp name="--.HHZ">
      <acc value="0.0463456277" flag="0"/>
      <vel value="0.0143521992" flag="0"/>
      <psa03 value="0.0493055597" flag="0"/>
      <psa10 value="0.0130489708" flag="0"/>
      <psa30 value="0.0017053322" flag="0"/>
    </comp>
    <comp name="--.HHE">
      <acc value="0.0792540840" flag="0"/>
      <vel value="0.0238689000" flag="0"/>
      <psa03 value="0.0810666287" flag="0"/>
      <psa10 value="0.0226505483" flag="0"/>
      <psa30 value="0.0029703274" flag="0"/>
    </comp>
  </station>
  <station code="CORM" name="CORM" netid="KO" insttype="CMG-6T" commtype="DIG" lat="40.1785" lon="34.6302">
    <comp name="--.HHE">
      <acc value="0.0137694607" flag="0"/>
      <vel value="0.0070377449" flag="0"/>
      <psa03 value="0.0350506142" flag="0"/>
      <psa10 value="0.0049732614" flag="0"/>
      <psa30 value="0.0008637110" flag="0"/>
    </comp>
    <comp name="--.HHN">
      <acc value="0.0155230147" flag="0"/>
      <vel value="0.0091030977" flag="0"/>
      <psa03 value="0.0417007820" flag="0"/>
      <psa10 value="0.0122894395" flag="0"/>
      <psa30 value="0.0008768415" flag="0"/>
    </comp>
    <comp name="--.HHZ">
      <acc value="0.0127543837" flag="0"/>
      <vel value="0.0052755867" flag="0"/>
      <psa03 value="0.0269889099" flag="0"/>
      <psa10 value="0.0042438593" flag="0"/>
      <psa30 value="0.0006945324" flag="0"/>
    </comp>
  </station>
  <station code="KMON" name="KMON" netid="KO" insttype="CMG-5T" commtype="DIG" lat="41.3738" lon="33.7839">
    <comp name="--.HNE">
      <acc value="0.0411821247" flag="0"/>
      <vel value="0.0266262211" flag="0"/>
      <psa03 value="0.0810690673" flag="0"/>
      <psa10 value="0.0187889905" flag="0"/>
      <psa30 value="0.0010484548" flag="0"/>
    </comp>
    <comp name="--.HNZ">
      <acc value="0.0759727509" flag="0"/>
      <vel value="0.0236891972" flag="0"/>
      <psa03 value="0.0867456197" flag="0"/>
      <psa10 value="0.0073441538" flag="0"/>
      <psa30 value="0.0004698079" flag="0"/>
    </comp>
    <comp name="--.HNN">
      <acc value="0.0519436466" flag="0"/>
      <vel value="0.0219197114" flag="0"/>
      <psa03 value="0.0750603526" flag="0"/>
      <psa10 value="0.0200662011" flag="0"/>
      <psa30 value="0.0012803623" flag="0"/>
    </comp>
  </station>
  <station code="OSMA" name="OSMA" netid="KO" insttype="CMG-6T" commtype="DIG" lat="40.9939" lon="34.7605">
    <comp name="--.HHE">
      <acc value="0.2657335014" flag="0"/>
      <vel value="0.0780636145" flag="0"/>
      <psa03 value="0.4310048548" flag="0"/>
      <psa10 value="0.0586896977" flag="0"/>
      <psa30 value="0.0020342939" flag="0"/>
    </comp>
    <comp name="--.HHN">
      <acc value="0.2931118591" flag="0"/>
      <vel value="0.0849975567" flag="0"/>
      <psa03 value="0.6030777063" flag="0"/>
      <psa10 value="0.0579293273" flag="0"/>
      <psa30 value="0.0024516827" flag="0"/>
    </comp>
    <comp name="--.HHZ">
      <acc value="0.2399489885" flag="0"/>
      <vel value="0.0636215082" flag="0"/>
      <psa03 value="0.2723455353" flag="0"/>
      <psa10 value="0.0163049426" flag="0"/>
      <psa30 value="0.0011188091" flag="0"/>
    </comp>
  </station>
  <station code="TOS" name="TOS" netid="KO" insttype="CMG-5T" commtype="DIG" lat="41.0362" lon="34.0226">
    <comp name="--.HNZ">
      <acc value="0.2063265810" flag="0"/>
      <vel value="0.0687888054" flag="0"/>
      <psa03 value="0.3352966260" flag="0"/>
      <psa10 value="0.0214167140" flag="0"/>
      <psa30 value="0.0014765609" flag="0"/>
    </comp>
    <comp name="--.HNE">
      <acc value="0.2756202534" flag="0"/>
      <vel value="0.1003853040" flag="0"/>
      <psa03 value="0.4210551092" flag="0"/>
      <psa10 value="0.0500836868" flag="0"/>
      <psa30 value="0.0038939090" flag="0"/>
    </comp>
    <comp name="--.HNN">
      <acc value="0.4784926578" flag="0"/>
      <vel value="0.1210807819" flag="0"/>
      <psa03 value="0.4049413981" flag="0"/>
      <psa10 value="0.0269404360" flag="0"/>
      <psa30 value="0.0039930097" flag="0"/>
    </comp>
  </station>
</stationlist>
