<stationlist created="1775640326">
	<station code="ANTO" name="ANTO" netid="IU" source="Global Seismograph Network - IRIS/USGS (GSN)" insttype="" lat="39.8681" lon="32.79356">
		<comp name="20.HN1" depth="0.0">
			<acc value="0.0134432120082111" flag="0"/>
			<vel value="0.00485951011672307" flag="0"/>
			<psa03 value="0.0196958737653913" flag="0"/>
			<psa10 value="0.00279724233482653" flag="0"/>
			<psa30 value="0.000245234292443327" flag="0"/>
		</comp>
		<comp name="20.HN2" depth="0.0">
			<acc value="0.0125747666555955" flag="0"/>
			<vel value="0.00413298076698429" flag="0"/>
			<psa03 value="0.01648330157325" flag="0"/>
			<psa10 value="0.00341154474809657" flag="0"/>
			<psa30 value="0.000328973042849573" flag="0"/>
		</comp>
		<comp name="20.HNZ" depth="0.0">
			<acc value="0.00824566437632024" flag="0"/>
			<vel value="0.00225882373335428" flag="0"/>
			<psa03 value="0.011013072009888" flag="0"/>
			<psa10 value="0.00180386527847179" flag="0"/>
			<psa30 value="0.000233984953479829" flag="0"/>
		</comp>
	</station>
	<station code="GULF" name="GULF" netid="KO" source="Bogazici University Kandilli Observatory And Earthquake Research Institute (KOERI)" insttype="" lat="40.914" lon="35.879">
		<comp name="--.HNE" depth="0.0">
			<acc value="0.0240973396758137" flag="0"/>
			<vel value="0.0124236131578382" flag="0"/>
			<psa03 value="0.0845919475513695" flag="0"/>
			<psa10 value="0.0143748353872964" flag="0"/>
			<psa30 value="0.000663230081571273" flag="0"/>
		</comp>
		<comp name="--.HNN" depth="0.0">
			<acc value="0.0254499482710885" flag="0"/>
			<vel value="0.0116634324788472" flag="0"/>
			<psa03 value="0.0382594485631997" flag="0"/>
			<psa10 value="0.0133957702165338" flag="0"/>
			<psa30 value="0.00078040326038598" flag="0"/>
		</comp>
		<comp name="--.HNZ" depth="0.0">
			<acc value="0.0128361354216954" flag="0"/>
			<vel value="0.00388927126678173" flag="0"/>
			<psa03 value="0.0193959736901498" flag="0"/>
			<psa10 value="0.00241949270139221" flag="0"/>
			<psa30 value="0.000268878254573113" flag="0"/>
		</comp>
	</station>
	<station code="KMON" name="KMON" netid="KO" source="Bogazici University Kandilli Observatory And Earthquake Research Institute (KOERI)" insttype="" lat="41.3738" lon="33.7839">
		<comp name="--.HNE" depth="0.0">
			<acc value="0.0416733229816428" flag="0"/>
			<vel value="0.0264767907974656" flag="0"/>
			<psa03 value="0.0827329494018656" flag="0"/>
			<psa10 value="0.0186132011582279" flag="0"/>
			<psa30 value="0.000943801480549482" flag="0"/>
		</comp>
		<comp name="--.HNN" depth="0.0">
			<acc value="0.0519865700613472" flag="0"/>
			<vel value="0.0217532436270442" flag="0"/>
			<psa03 value="0.0767965457275899" flag="0"/>
			<psa10 value="0.019880200090689" flag="0"/>
			<psa30 value="0.00119430620025775" flag="0"/>
		</comp>
		<comp name="--.HNZ" depth="0.0">
			<acc value="0.0764069704722309" flag="0"/>
			<vel value="0.0238019708019537" flag="0"/>
			<psa03 value="0.088656487640536" flag="0"/>
			<psa10 value="0.00740902690542086" flag="0"/>
			<psa30 value="0.000435331911519306" flag="0"/>
		</comp>
	</station>
	<station code="SINP" name="SINP" netid="KO" source="Bogazici University Kandilli Observatory And Earthquake Research Institute (KOERI)" insttype="" lat="41.9824" lon="35.0956">
		<comp name="--.HNE" depth="0.0">
			<acc value="0.0111529063630793" flag="0"/>
			<vel value="0.00787686936170391" flag="0"/>
			<psa03 value="0.0212955917180213" flag="0"/>
			<psa10 value="0.0210540841047438" flag="0"/>
			<psa30 value="0.00159397090524967" flag="0"/>
		</comp>
		<comp name="--.HNN" depth="0.0">
			<acc value="0.0129493224757677" flag="0"/>
			<vel value="0.00925483723562368" flag="0"/>
			<psa03 value="0.0361604136791068" flag="0"/>
			<psa10 value="0.0185843598726342" flag="0"/>
			<psa30 value="0.00130404940770665" flag="0"/>
		</comp>
		<comp name="--.HNZ" depth="0.0">
			<acc value="0.0107113054541661" flag="0"/>
			<vel value="0.00549269687694798" flag="0"/>
			<psa03 value="0.0179073946103413" flag="0"/>
			<psa10 value="0.00876425371379581" flag="0"/>
			<psa30 value="0.000763382862034787" flag="0"/>
		</comp>
	</station>
	<station code="TOS" name="TOS" netid="KO" source="Bogazici University Kandilli Observatory And Earthquake Research Institute (KOERI)" insttype="" lat="41.0362" lon="34.0226">
		<comp name="--.HNE" depth="0.0">
			<acc value="0.276761250192864" flag="0"/>
			<vel value="0.102074371594551" flag="0"/>
			<psa03 value="0.426342159742371" flag="0"/>
			<psa10 value="0.0500017773723549" flag="0"/>
			<psa30 value="0.00385138263519797" flag="0"/>
		</comp>
		<comp name="--.HNN" depth="0.0">
			<acc value="0.48328097716355" flag="0"/>
			<vel value="0.123848960719844" flag="0"/>
			<psa03 value="0.412307104988874" flag="0"/>
			<psa10 value="0.027316539586685" flag="0"/>
			<psa30 value="0.00402877146967101" flag="0"/>
		</comp>
		<comp name="--.HNZ" depth="0.0">
			<acc value="0.195870329640628" flag="0"/>
			<vel value="0.0691615233743567" flag="0"/>
			<psa03 value="0.342894006711775" flag="0"/>
			<psa10 value="0.0214072600009137" flag="0"/>
			<psa30 value="0.00148207109660319" flag="0"/>
		</comp>
	</station>
</stationlist>
