<?xml version="1.0" encoding="UTF-8" standalone="yes"?>
<!DOCTYPE earthquake SYSTEM "stationlist.dtd">
<stationlist created="" xmlns="ch.ethz.sed.shakemap.usgs.xml">
  <station code="CANT" name="CANT" netid="KO" insttype="CMG-3ESP" commtype="DIG" lat="40.6062" lon="33.6193">
    <comp name="--.HHN">
      <acc value="0.0547840442" flag="0"/>
      <vel value="0.0200569608" flag="0"/>
      <psa03 value="0.0548204621" flag="0"/>
      <psa10 value="0.0196735705" flag="0"/>
      <psa30 value="0.0016743319" flag="0"/>
    </comp>
    <comp name="--.HHE">
      <acc value="0.0792540840" flag="0"/>
      <vel value="0.0238688994" flag="0"/>
      <psa03 value="0.0810666287" flag="0"/>
      <psa10 value="0.0226505484" flag="0"/>
      <psa30 value="0.0029703280" flag="0"/>
    </comp>
    <comp name="--.HHZ">
      <acc value="0.0463456277" flag="0"/>
      <vel value="0.0143522003" flag="0"/>
      <psa03 value="0.0493055597" flag="0"/>
      <psa10 value="0.0130489708" flag="0"/>
      <psa30 value="0.0017053343" flag="0"/>
    </comp>
  </station>
  <station code="CORM" name="CORM" netid="KO" insttype="CMG-6T" commtype="DIG" lat="40.1785" lon="34.6302">
    <comp name="--.HHE">
      <acc value="0.0137694614" flag="0"/>
      <vel value="0.0070377449" flag="0"/>
      <psa03 value="0.0350506142" flag="0"/>
      <psa10 value="0.0049732614" flag="0"/>
      <psa30 value="0.0008637113" flag="0"/>
    </comp>
    <comp name="--.HHN">
      <acc value="0.0155230150" flag="0"/>
      <vel value="0.0091030976" flag="0"/>
      <psa03 value="0.0417007820" flag="0"/>
      <psa10 value="0.0122894395" flag="0"/>
      <psa30 value="0.0008768411" flag="0"/>
    </comp>
    <comp name="--.HHZ">
      <acc value="0.0127543840" flag="0"/>
      <vel value="0.0052755839" flag="0"/>
      <psa03 value="0.0269889099" flag="0"/>
      <psa10 value="0.0042438593" flag="0"/>
      <psa30 value="0.0006945322" flag="0"/>
    </comp>
  </station>
  <station code="KMON" name="KMON" netid="KO" insttype="CMG-5T" commtype="DIG" lat="41.3738" lon="33.7839">
    <comp name="--.HNZ">
      <acc value="0.0759727518" flag="0"/>
      <vel value="0.0236891995" flag="0"/>
      <psa03 value="0.0867456197" flag="0"/>
      <psa10 value="0.0073441574" flag="0"/>
      <psa30 value="0.0004729794" flag="0"/>
    </comp>
    <comp name="--.HNN">
      <acc value="0.0519436463" flag="0"/>
      <vel value="0.0219197162" flag="0"/>
      <psa03 value="0.0750603526" flag="0"/>
      <psa10 value="0.0200662003" flag="0"/>
      <psa30 value="0.0012792666" flag="0"/>
    </comp>
    <comp name="--.HNE">
      <acc value="0.0411821227" flag="0"/>
      <vel value="0.0266262219" flag="0"/>
      <psa03 value="0.0810690673" flag="0"/>
      <psa10 value="0.0187889891" flag="0"/>
      <psa30 value="0.0010489119" flag="0"/>
    </comp>
  </station>
  <station code="OSMA" name="OSMA" netid="KO" insttype="CMG-6T" commtype="DIG" lat="40.9939" lon="34.7605">
    <comp name="--.HHZ">
      <acc value="0.2399489832" flag="0"/>
      <vel value="0.0636215077" flag="0"/>
      <psa03 value="0.2723455353" flag="0"/>
      <psa10 value="0.0163049426" flag="0"/>
      <psa30 value="0.0011187732" flag="0"/>
    </comp>
    <comp name="--.HHE">
      <acc value="0.2657335046" flag="0"/>
      <vel value="0.0780636147" flag="0"/>
      <psa03 value="0.4310048548" flag="0"/>
      <psa10 value="0.0586896977" flag="0"/>
      <psa30 value="0.0020343179" flag="0"/>
    </comp>
    <comp name="--.HHN">
      <acc value="0.2931118583" flag="0"/>
      <vel value="0.0849975511" flag="0"/>
      <psa03 value="0.6030777062" flag="0"/>
      <psa10 value="0.0579293273" flag="0"/>
      <psa30 value="0.0024516546" flag="0"/>
    </comp>
  </station>
  <station code="TOS" name="TOS" netid="KO" insttype="CMG-5T" commtype="DIG" lat="41.0362" lon="34.0226">
    <comp name="--.HNN">
      <acc value="0.4784926581" flag="0"/>
      <vel value="0.1210807811" flag="0"/>
      <psa03 value="0.4049413981" flag="0"/>
      <psa10 value="0.0269404250" flag="0"/>
      <psa30 value="0.0039924404" flag="0"/>
    </comp>
    <comp name="--.HNE">
      <acc value="0.2756202542" flag="0"/>
      <vel value="0.1003853061" flag="0"/>
      <psa03 value="0.4210551092" flag="0"/>
      <psa10 value="0.0500836913" flag="0"/>
      <psa30 value="0.0038936034" flag="0"/>
    </comp>
    <comp name="--.HNZ">
      <acc value="0.2063265812" flag="0"/>
      <vel value="0.0687888076" flag="0"/>
      <psa03 value="0.3352966260" flag="0"/>
      <psa10 value="0.0214167177" flag="0"/>
      <psa30 value="0.0014762339" flag="0"/>
    </comp>
  </station>
  <station code="YALI" name="YALI" netid="KO" insttype="CMG-6T" commtype="DIG" lat="40.7676" lon="32.9822">
    <comp name="--.HHE">
      <acc value="0.0078164818" flag="0"/>
      <vel value="0.0058659763" flag="0"/>
      <psa03 value="0.0189448946" flag="0"/>
      <psa10 value="0.0076679466" flag="0"/>
      <psa30 value="0.0008035747" flag="0"/>
    </comp>
    <comp name="--.HHZ">
      <acc value="0.0057489312" flag="0"/>
      <vel value="0.0019284964" flag="0"/>
      <psa03 value="0.0111666210" flag="0"/>
      <psa10 value="0.0030349955" flag="0"/>
      <psa30 value="0.0002880156" flag="0"/>
    </comp>
    <comp name="--.HHN">
      <acc value="0.0079605399" flag="0"/>
      <vel value="0.0043717836" flag="0"/>
      <psa03 value="0.0201967085" flag="0"/>
      <psa10 value="0.0056631704" flag="0"/>
      <psa30 value="0.0009376258" flag="0"/>
    </comp>
  </station>
</stationlist>
