<stationlist created="1778069832">
	<station code="IACM" name="IACM" netid="HL" source="National Observatory of Athens Seismic Network" insttype="" lat="35.3058" lon="25.0709">
		<comp name="--.HNE" depth="0.0">
			<acc value="0.0415999934712735" flag="0"/>
			<vel value="0.0311198988798187" flag="0"/>
			<psa03 value="0.147201859774114" flag="0"/>
			<psa10 value="0.0397968505207542" flag="0"/>
			<psa30 value="0.00201697867435169" flag="0"/>
		</comp>
		<comp name="--.HNN" depth="0.0">
			<acc value="0.0459703663435191" flag="0"/>
			<vel value="0.0282376690401498" flag="0"/>
			<psa03 value="0.164606578148622" flag="0"/>
			<psa10 value="0.0340506089247695" flag="0"/>
			<psa30 value="0.00194986536442428" flag="0"/>
		</comp>
		<comp name="--.HNZ" depth="0.0">
			<acc value="0.0308428560370781" flag="0"/>
			<vel value="0.0167574787015907" flag="0"/>
			<psa03 value="0.0667553722744615" flag="0"/>
			<psa10 value="0.0174400647177361" flag="0"/>
			<psa30 value="0.000884553424843232" flag="0"/>
		</comp>
	</station>
	<station code="KARP" name="KARP" netid="HL" source="National Observatory of Athens Seismic Network" insttype="" lat="35.5471" lon="27.16106">
		<comp name="--.HNE" depth="0.0">
			<acc value="0.0571150875649726" flag="0"/>
			<vel value="0.0333692181508138" flag="0"/>
			<psa03 value="0.154987003725693" flag="0"/>
			<psa10 value="0.0218896771659233" flag="0"/>
			<psa30 value="0.00110826445793459" flag="0"/>
		</comp>
		<comp name="--.HNN" depth="0.0">
			<acc value="0.0604314832743702" flag="0"/>
			<vel value="0.0346921749667162" flag="0"/>
			<psa03 value="0.196776224707159" flag="0"/>
			<psa10 value="0.0224574557679091" flag="0"/>
			<psa30 value="0.00130870954358445" flag="0"/>
		</comp>
		<comp name="--.HNZ" depth="0.0">
			<acc value="0.0473215650845677" flag="0"/>
			<vel value="0.0204454828024061" flag="0"/>
			<psa03 value="0.161340397065488" flag="0"/>
			<psa10 value="0.0108522222152618" flag="0"/>
			<psa30 value="0.000792831901275775" flag="0"/>
		</comp>
	</station>
	<station code="SIVA" name="SIVA" netid="HL" source="National Observatory of Athens Seismic Network" insttype="" lat="35.01777" lon="24.81204">
		<comp name="00.HNE" depth="0.0">
			<acc value="0.0131722027515524" flag="0"/>
			<vel value="0.00748334215167995" flag="0"/>
			<psa03 value="0.0486347785940614" flag="0"/>
			<psa10 value="0.0129219966934231" flag="0"/>
			<psa30 value="0.00056151469305931" flag="0"/>
		</comp>
		<comp name="00.HNN" depth="0.0">
			<acc value="0.0120111130185766" flag="0"/>
			<vel value="0.0079115703539538" flag="0"/>
			<psa03 value="0.0332882017239942" flag="0"/>
			<psa10 value="0.00931801195032128" flag="0"/>
			<psa30 value="0.000621021827861612" flag="0"/>
		</comp>
		<comp name="00.HNZ" depth="0.0">
			<acc value="0.00698026427307963" flag="0"/>
			<vel value="0.00383594685169256" flag="0"/>
			<psa03 value="0.0258162532187428" flag="0"/>
			<psa10 value="0.00387780704760561" flag="0"/>
			<psa30 value="0.000441605579322342" flag="0"/>
		</comp>
	</station>
	<station code="THRA" name="THRA" netid="HL" source="National Observatory of Athens Seismic Network" insttype="" lat="36.41502" lon="25.43244">
		<comp name="00.HNE" depth="0.0">
			<acc value="0.0279498164459558" flag="0"/>
			<vel value="0.0170519813907949" flag="0"/>
			<psa03 value="0.0682318650928644" flag="0"/>
			<psa10 value="0.025811778998081" flag="0"/>
			<psa30 value="0.00200803023302804" flag="0"/>
		</comp>
		<comp name="00.HNN" depth="0.0">
			<acc value="0.0212930781519615" flag="0"/>
			<vel value="0.0147335604931673" flag="0"/>
			<psa03 value="0.063220737951618" flag="0"/>
			<psa10 value="0.0203796276925566" flag="0"/>
			<psa30 value="0.00101967488883041" flag="0"/>
		</comp>
		<comp name="00.HNZ" depth="0.0">
			<acc value="0.0221790335867626" flag="0"/>
			<vel value="0.00924042048762382" flag="0"/>
			<psa03 value="0.0616995029265968" flag="0"/>
			<psa10 value="0.00656770850949611" flag="0"/>
			<psa30 value="0.000483663253543518" flag="0"/>
		</comp>
	</station>
</stationlist>
