<?xml version="1.0" encoding="UTF-8" standalone="yes"?>
<!DOCTYPE earthquake SYSTEM "stationlist.dtd">
<stationlist created="" xmlns="ch.ethz.sed.shakemap.usgs.xml">
  <station code="KARP" name="KARP" netid="GE" insttype="STS-2/N" lat="35.5471" lon="27.1611">
    <comp name="--.HHE">
      <acc value="0.0742129522" flag="0"/>
      <vel value="0.0390357241" flag="0"/>
      <psa03 value="0.2118765874" flag="0"/>
      <psa10 value="0.0242936762" flag="0"/>
      <psa30 value="0.0013398482" flag="0"/>
    </comp>
    <comp name="--.HHZ">
      <acc value="0.0606928002" flag="0"/>
      <vel value="0.0258569400" flag="0"/>
      <psa03 value="0.2064478524" flag="0"/>
      <psa10 value="0.0133931068" flag="0"/>
      <psa30 value="0.0009442102" flag="0"/>
    </comp>
    <comp name="--.HHN">
      <acc value="0.0732227960" flag="0"/>
      <vel value="0.0396896231" flag="0"/>
      <psa03 value="0.2256081618" flag="0"/>
      <psa10 value="0.0278792515" flag="0"/>
      <psa30 value="0.0015149173" flag="0"/>
    </comp>
  </station>
  <station code="ZKR" name="ZKR" netid="GE" insttype="STS-2/N" lat="35.1147" lon="26.2169">
    <comp name="--.HHN">
      <acc value="0.3934353088" flag="0"/>
      <vel value="0.1440667380" flag="0"/>
      <psa03 value="0.6043646465" flag="0"/>
      <psa10 value="0.0304612283" flag="0"/>
      <psa30 value="0.0023310355" flag="0"/>
    </comp>
    <comp name="--.HHE">
      <acc value="0.4419038818" flag="0"/>
      <vel value="0.1391308900" flag="0"/>
      <psa03 value="0.4618401796" flag="0"/>
      <psa10 value="0.0453585617" flag="0"/>
      <psa30 value="0.0038516703" flag="0"/>
    </comp>
    <comp name="--.HHZ">
      <acc value="0.4761408817" flag="0"/>
      <vel value="0.0779677314" flag="0"/>
      <psa03 value="0.3196323922" flag="0"/>
      <psa10 value="0.0369851577" flag="0"/>
      <psa30 value="0.0034241826" flag="0"/>
    </comp>
  </station>
  <station code="STIA" name="STIA" netid="HC" insttype="120" lat="35.2021" lon="26.0909">
    <comp name="--.HHZ">
      <acc value="0.2927483495" flag="0"/>
      <vel value="0.0642578876" flag="0"/>
      <psa03 value="0.3551533637" flag="0"/>
      <psa10 value="0.0214962315" flag="0"/>
      <psa30 value="0.0021692007" flag="0"/>
    </comp>
    <comp name="--.HHE">
      <acc value="0.2243700682" flag="0"/>
      <vel value="0.0636131146" flag="0"/>
      <psa03 value="0.2847241944" flag="0"/>
      <psa10 value="0.0273277350" flag="0"/>
      <psa30 value="0.0023500955" flag="0"/>
    </comp>
    <comp name="--.HHN">
      <acc value="0.2144088536" flag="0"/>
      <vel value="0.0753386930" flag="0"/>
      <psa03 value="0.4732378987" flag="0"/>
      <psa10 value="0.0256602153" flag="0"/>
      <psa30 value="0.0021631967" flag="0"/>
    </comp>
  </station>
  <station code="KARP" name="KARP" netid="HL" insttype="120" lat="35.5471" lon="27.1611">
    <comp name="--.HHZ">
      <acc value="0.0581875915" flag="0"/>
      <vel value="0.0248101320" flag="0"/>
      <psa03 value="0.2020758348" flag="0"/>
      <psa10 value="0.0132553673" flag="0"/>
      <psa30 value="0.0009338741" flag="0"/>
    </comp>
    <comp name="--.HHE">
      <acc value="0.0713796068" flag="0"/>
      <vel value="0.0383886123" flag="0"/>
      <psa03 value="0.2075789834" flag="0"/>
      <psa10 value="0.0239994653" flag="0"/>
      <psa30 value="0.0013198533" flag="0"/>
    </comp>
    <comp name="--.HHN">
      <acc value="0.0700965366" flag="0"/>
      <vel value="0.0391600076" flag="0"/>
      <psa03 value="0.2194152095" flag="0"/>
      <psa10 value="0.0275378759" flag="0"/>
      <psa30 value="0.0015008166" flag="0"/>
    </comp>
  </station>
  <station code="NPS" name="NPS" netid="HL" insttype="CMG3ESPC-120s" lat="35.2613" lon="25.6104">
    <comp name="--.HHE">
      <acc value="0.0219453907" flag="0"/>
      <vel value="0.0083174614" flag="0"/>
      <psa03 value="0.0426950799" flag="0"/>
      <psa10 value="0.0049024890" flag="0"/>
      <psa30 value="0.0002390092" flag="0"/>
    </comp>
    <comp name="--.HHZ">
      <acc value="0.0239861580" flag="0"/>
      <vel value="0.0107592550" flag="0"/>
      <psa03 value="0.0657487882" flag="0"/>
      <psa10 value="0.0051674357" flag="0"/>
      <psa30 value="0.0004000040" flag="0"/>
    </comp>
    <comp name="--.HHN">
      <acc value="0.0289564327" flag="0"/>
      <vel value="0.0143756478" flag="0"/>
      <psa03 value="0.0876670325" flag="0"/>
      <psa10 value="0.0116964248" flag="0"/>
      <psa30 value="0.0006982873" flag="0"/>
    </comp>
  </station>
  <station code="ZKR" name="ZKR" netid="HL" insttype="120" lat="35.1147" lon="26.2169">
    <comp name="--.HHZ">
      <acc value="0.4874795669" flag="0"/>
      <vel value="0.0763330657" flag="0"/>
      <psa03 value="0.3105014206" flag="0"/>
      <psa10 value="0.0367309778" flag="0"/>
      <psa30 value="0.0033973399" flag="0"/>
    </comp>
    <comp name="--.HHE">
      <acc value="0.4276168402" flag="0"/>
      <vel value="0.1353478298" flag="0"/>
      <psa03 value="0.4483875082" flag="0"/>
      <psa10 value="0.0448075783" flag="0"/>
      <psa30 value="0.0038241951" flag="0"/>
    </comp>
    <comp name="--.HHN">
      <acc value="0.3840892701" flag="0"/>
      <vel value="0.1396543895" flag="0"/>
      <psa03 value="0.5859240300" flag="0"/>
      <psa10 value="0.0299725190" flag="0"/>
      <psa30 value="0.0022932145" flag="0"/>
    </comp>
  </station>
</stationlist>
