<stationlist created="1778136464">
	<station code="KSS1" name="KSS1" netid="HI" source="ITSAK Strong Motion Network" insttype="" lat="35.4189" lon="26.9207">
		<comp name="--.HNE" depth="0.0">
			<acc value="0.0681948322267564" flag="0"/>
			<vel value="0.037488248781804" flag="0"/>
			<psa03 value="0.297478539826612" flag="0"/>
			<psa10 value="0.00994345558014165" flag="0"/>
			<psa30 value="0.00101175181525973" flag="0"/>
		</comp>
		<comp name="--.HNN" depth="0.0">
			<acc value="0.0674020291131246" flag="0"/>
			<vel value="0.0253197888821749" flag="0"/>
			<psa03 value="0.125929508878777" flag="0"/>
			<psa10 value="0.00814941173351958" flag="0"/>
			<psa30 value="0.000733196070639119" flag="0"/>
		</comp>
		<comp name="--.HNZ" depth="0.0">
			<acc value="0.0326400517136688" flag="0"/>
			<vel value="0.00812367372864085" flag="0"/>
			<psa03 value="0.0411509526111447" flag="0"/>
			<psa10 value="0.00416806923914234" flag="0"/>
			<psa30 value="0.00038610505673182" flag="0"/>
		</comp>
	</station>
	<station code="RDI1" name="RDI1" netid="HI" source="ITSAK Strong Motion Network" insttype="" lat="36.4514" lon="28.224">
		<comp name="--.HNE" depth="0.0">
			<acc value="0.00653764108559935" flag="0"/>
			<vel value="0.00622602155415217" flag="0"/>
			<psa03 value="0.0155284544651545" flag="0"/>
			<psa10 value="0.0117972230706161" flag="0"/>
			<psa30 value="0.00143687664435764" flag="0"/>
		</comp>
		<comp name="--.HNN" depth="0.0">
			<acc value="0.00574808700596983" flag="0"/>
			<vel value="0.00658042958039685" flag="0"/>
			<psa03 value="0.0189461665488979" flag="0"/>
			<psa10 value="0.0136716694310189" flag="0"/>
			<psa30 value="0.0012840589167665" flag="0"/>
		</comp>
		<comp name="--.HNZ" depth="0.0">
			<acc value="0.00349409702159446" flag="0"/>
			<vel value="0.00343945387118786" flag="0"/>
			<psa03 value="0.00985819342150374" flag="0"/>
			<psa10 value="0.00634922966778674" flag="0"/>
			<psa30 value="0.000593941585297211" flag="0"/>
		</comp>
	</station>
	<station code="SIT2" name="SIT2" netid="HI" source="ITSAK Strong Motion Network" insttype="" lat="35.2059" lon="26.107">
		<comp name="--.HNE" depth="0.0">
			<acc value="0.0121096567734369" flag="0"/>
			<vel value="0.00831971837955927" flag="0"/>
			<psa03 value="0.0495966344921266" flag="0"/>
			<psa10 value="0.00639294115723355" flag="0"/>
			<psa30 value="0.000420340475702073" flag="0"/>
		</comp>
		<comp name="--.HNN" depth="0.0">
			<acc value="0.0164295307567586" flag="0"/>
			<vel value="0.0109710076437381" flag="0"/>
			<psa03 value="0.0522282359057845" flag="0"/>
			<psa10 value="0.00607558622775714" flag="0"/>
			<psa30 value="0.000403107380969153" flag="0"/>
		</comp>
		<comp name="--.HNZ" depth="0.0">
			<acc value="0.00844393087278712" flag="0"/>
			<vel value="0.00335470923975639" flag="0"/>
			<psa03 value="0.0237423853165003" flag="0"/>
			<psa10 value="0.00241262552772602" flag="0"/>
			<psa30 value="0.000211481236156697" flag="0"/>
		</comp>
	</station>
	<station code="KARP" name="KARP" netid="HL" source="National Observatory of Athens Seismic Network" insttype="" lat="35.5471" lon="27.16106">
		<comp name="--.HNE" depth="0.0">
			<acc value="0.0854513303773955" flag="0"/>
			<vel value="0.0230800137509453" flag="0"/>
			<psa03 value="0.109385037888676" flag="0"/>
			<psa10 value="0.00894784525082362" flag="0"/>
			<psa30 value="0.000620663772178725" flag="0"/>
		</comp>
		<comp name="--.HNN" depth="0.0">
			<acc value="0.0900166976575434" flag="0"/>
			<vel value="0.0175069023018171" flag="0"/>
			<psa03 value="0.0728267879589398" flag="0"/>
			<psa10 value="0.0127914073679625" flag="0"/>
			<psa30 value="0.000561312809220893" flag="0"/>
		</comp>
		<comp name="--.HNZ" depth="0.0">
			<acc value="0.0709050376358233" flag="0"/>
			<vel value="0.0219943026627864" flag="0"/>
			<psa03 value="0.0835078601109742" flag="0"/>
			<psa10 value="0.00984557878376107" flag="0"/>
			<psa30 value="0.000584141977787312" flag="0"/>
		</comp>
	</station>
	<station code="DATC" name="DATC" netid="KO" source="Bogazici University Kandilli Observatory And Earthquake Research Institute (KOERI)" insttype="" lat="36.7584" lon="27.6602">
		<comp name="--.HNE" depth="0.0">
			<acc value="0.0384925455467888" flag="0"/>
			<vel value="0.00781619525325362" flag="0"/>
			<psa03 value="0.0160624521759596" flag="0"/>
			<psa10 value="0.00913680601351727" flag="0"/>
			<psa30 value="0.00127023124589273" flag="0"/>
		</comp>
		<comp name="--.HNN" depth="0.0">
			<acc value="0.038874123620706" flag="0"/>
			<vel value="0.00607880040158777" flag="0"/>
			<psa03 value="0.0165993586553788" flag="0"/>
			<psa10 value="0.0103086044048498" flag="0"/>
			<psa30 value="0.00115345408661905" flag="0"/>
		</comp>
		<comp name="--.HNZ" depth="0.0">
			<acc value="0.0314458749074952" flag="0"/>
			<vel value="0.00554579500189827" flag="0"/>
			<psa03 value="0.0114540048942776" flag="0"/>
			<psa10 value="0.00880258173007878" flag="0"/>
			<psa30 value="0.000557040472397483" flag="0"/>
		</comp>
	</station>
	<station code="FETI" name="FETI" netid="KO" source="Bogazici University Kandilli Observatory And Earthquake Research Institute (KOERI)" insttype="" lat="36.6903" lon="29.096">
		<comp name="--.HNE" depth="0.0">
			<acc value="0.00610743411423935" flag="0"/>
			<vel value="0.00124523867064891" flag="0"/>
			<psa03 value="0.00134226619854815" flag="0"/>
			<psa10 value="0.00143354030004943" flag="0"/>
			<psa30 value="0.00056643633578732" flag="0"/>
		</comp>
		<comp name="--.HNN" depth="0.0">
			<acc value="0.00542170630919111" flag="0"/>
			<vel value="0.00261722382526267" flag="0"/>
			<psa03 value="0.0034898921162252" flag="0"/>
			<psa10 value="0.00194091692310063" flag="0"/>
			<psa30 value="0.000857708100872269" flag="0"/>
		</comp>
		<comp name="--.HNZ" depth="0.0">
			<acc value="0.033103694763485" flag="0"/>
			<vel value="0.00231682913422061" flag="0"/>
			<psa03 value="0.00178968826473087" flag="0"/>
			<psa10 value="0.00106307482925014" flag="0"/>
			<psa30 value="0.000379861334189127" flag="0"/>
		</comp>
	</station>
</stationlist>
