<?xml version="1.0" encoding="UTF-8" standalone="yes"?>
<!DOCTYPE earthquake SYSTEM "stationlist.dtd">
<stationlist created="" xmlns="ch.ethz.sed.shakemap.usgs.xml">
  <station code="KARP" name="KARP" netid="GE" insttype="STS-2/N" lat="35.5471" lon="27.1611">
    <comp name="--.HHN">
      <acc value="0.1147411150" flag="0"/>
      <vel value="0.0224437304" flag="0"/>
      <psa03 value="0.0892249122" flag="0"/>
      <psa10 value="0.0161327712" flag="0"/>
      <psa30 value="0.0007209661" flag="0"/>
    </comp>
    <comp name="--.HHE">
      <acc value="0.1091593843" flag="0"/>
      <vel value="0.0277231747" flag="0"/>
      <psa03 value="0.1273639426" flag="0"/>
      <psa10 value="0.0099481384" flag="0"/>
      <psa30 value="0.0007010649" flag="0"/>
    </comp>
    <comp name="--.HHZ">
      <acc value="0.0883005901" flag="0"/>
      <vel value="0.0274447841" flag="0"/>
      <psa03 value="0.1022584403" flag="0"/>
      <psa10 value="0.0119652544" flag="0"/>
      <psa30 value="0.0007070781" flag="0"/>
    </comp>
  </station>
  <station code="KARP" name="KARP" netid="HL" insttype="120" lat="35.5471" lon="27.1611">
    <comp name="--.HHE">
      <acc value="0.1050475810" flag="0"/>
      <vel value="0.0269946674" flag="0"/>
      <psa03 value="0.1236558145" flag="0"/>
      <psa10 value="0.0098779808" flag="0"/>
      <psa30 value="0.0006959599" flag="0"/>
    </comp>
    <comp name="--.HHN">
      <acc value="0.1063209463" flag="0"/>
      <vel value="0.0215295645" flag="0"/>
      <psa03 value="0.0862114629" flag="0"/>
      <psa10 value="0.0160004060" flag="0"/>
      <psa30 value="0.0007074224" flag="0"/>
    </comp>
    <comp name="--.HHZ">
      <acc value="0.0856759443" flag="0"/>
      <vel value="0.0260311852" flag="0"/>
      <psa03 value="0.0985466664" flag="0"/>
      <psa10 value="0.0118942552" flag="0"/>
      <psa30 value="0.0006960755" flag="0"/>
    </comp>
  </station>
</stationlist>
