<?xml version="1.0" encoding="UTF-8" standalone="yes"?>
<!DOCTYPE earthquake SYSTEM "stationlist.dtd">
<stationlist created="" xmlns="ch.ethz.sed.shakemap.usgs.xml">
  <station code="AKDG" name="AKDG" netid="KO" insttype="CMG-6T" commtype="DIG" lat="38.3618" lon="37.9703">
    <comp name="--.HHE">
      <acc value="0.0257439122" flag="0"/>
      <vel value="0.0226798413" flag="0"/>
      <psa03 value="0.0480142413" flag="0"/>
      <psa10 value="0.0321289693" flag="0"/>
      <psa30 value="0.0048890617" flag="0"/>
    </comp>
    <comp name="--.HHN">
      <acc value="0.0396338890" flag="0"/>
      <vel value="0.0396717836" flag="0"/>
      <psa03 value="0.0510462614" flag="0"/>
      <psa10 value="0.0767938156" flag="0"/>
      <psa30 value="0.0040299622" flag="0"/>
    </comp>
    <comp name="--.HHZ">
      <acc value="0.0191445195" flag="0"/>
      <vel value="0.0185720617" flag="0"/>
      <psa03 value="0.0394618918" flag="0"/>
      <psa10 value="0.0333146083" flag="0"/>
      <psa30 value="0.0018498653" flag="0"/>
    </comp>
  </station>
  <station code="DARE" name="DARE" netid="KO" insttype="CMG-3ESP" commtype="DIG" lat="38.5712" lon="37.4832">
    <comp name="--.HHE">
      <acc value="0.0081772928" flag="0"/>
      <vel value="0.0060409977" flag="0"/>
      <psa03 value="0.0149946706" flag="0"/>
      <psa10 value="0.0088974448" flag="0"/>
      <psa30 value="0.0008302623" flag="0"/>
    </comp>
    <comp name="--.HHN">
      <acc value="0.0079722742" flag="0"/>
      <vel value="0.0064180483" flag="0"/>
      <psa03 value="0.0135868022" flag="0"/>
      <psa10 value="0.0150649283" flag="0"/>
      <psa30 value="0.0005136231" flag="0"/>
    </comp>
    <comp name="--.HHZ">
      <acc value="0.0107119298" flag="0"/>
      <vel value="0.0064316668" flag="0"/>
      <psa03 value="0.0142025265" flag="0"/>
      <psa10 value="0.0124606881" flag="0"/>
      <psa30 value="0.0007466380" flag="0"/>
    </comp>
  </station>
  <station code="GAZ" name="GAZ" netid="KO" insttype="CMG-3T" commtype="DIG" lat="37.1721" lon="37.2096">
    <comp name="--.HHZ">
      <acc value="0.0558101696" flag="0"/>
      <vel value="0.0362938068" flag="0"/>
      <psa03 value="0.1157942510" flag="0"/>
      <psa10 value="0.0507193762" flag="0"/>
      <psa30 value="0.0051617627" flag="0"/>
    </comp>
    <comp name="--.HHE">
      <acc value="0.0716759209" flag="0"/>
      <vel value="0.0460625955" flag="0"/>
      <psa03 value="0.1638846142" flag="0"/>
      <psa10 value="0.0614771243" flag="0"/>
      <psa30 value="0.0070399244" flag="0"/>
    </comp>
    <comp name="--.HHN">
      <acc value="0.0515841984" flag="0"/>
      <vel value="0.0504995754" flag="0"/>
      <psa03 value="0.1507018837" flag="0"/>
      <psa10 value="0.0476455484" flag="0"/>
      <psa30 value="0.0040021178" flag="0"/>
    </comp>
  </station>
  <station code="KHMN" name="KHMN" netid="KO" insttype="CMG-5T" commtype="DIG" lat="37.3916" lon="37.1574">
    <comp name="--.HNN">
      <acc value="0.9691229429" flag="0"/>
      <vel value="0.3379765980" flag="0"/>
      <psa03 value="2.2492541160" flag="0"/>
      <psa10 value="0.2213827788" flag="0"/>
      <psa30 value="0.0138017028" flag="0"/>
    </comp>
    <comp name="--.HNE">
      <acc value="1.5281142596" flag="0"/>
      <vel value="0.5595319033" flag="0"/>
      <psa03 value="2.2869918198" flag="0"/>
      <psa10 value="0.2661223961" flag="0"/>
      <psa30 value="0.0247684901" flag="0"/>
    </comp>
  </station>
  <station code="KOZT" name="KOZT" netid="KO" insttype="CMG-3T" commtype="DIG" lat="37.4795" lon="35.8264">
    <comp name="--.HHE">
      <acc value="0.0233657816" flag="0"/>
      <vel value="0.0218693677" flag="0"/>
      <psa03 value="0.0831075120" flag="0"/>
      <psa10 value="0.0294142838" flag="0"/>
      <psa30 value="0.0024485886" flag="0"/>
    </comp>
    <comp name="--.HHN">
      <acc value="0.0193683849" flag="0"/>
      <vel value="0.0150821305" flag="0"/>
      <psa03 value="0.0398542732" flag="0"/>
      <psa10 value="0.0218447832" flag="0"/>
      <psa30 value="0.0021397160" flag="0"/>
    </comp>
    <comp name="--.HHZ">
      <acc value="0.0105324671" flag="0"/>
      <vel value="0.0088215548" flag="0"/>
      <psa03 value="0.0409446657" flag="0"/>
      <psa10 value="0.0123927539" flag="0"/>
      <psa30 value="0.0012588471" flag="0"/>
    </comp>
  </station>
  <station code="NURH" name="NURH" netid="KO" insttype="CMG-6T" commtype="DIG" lat="37.9693" lon="37.4363">
    <comp name="--.HHZ">
      <acc value="0.0242385142" flag="0"/>
      <vel value="0.0148824207" flag="0"/>
      <psa03 value="0.0331714669" flag="0"/>
      <psa10 value="0.0246856860" flag="0"/>
      <psa30 value="0.0013305500" flag="0"/>
    </comp>
    <comp name="--.HHE">
      <acc value="0.0369809329" flag="0"/>
      <vel value="0.0203869991" flag="0"/>
      <psa03 value="0.0530990108" flag="0"/>
      <psa10 value="0.0317281817" flag="0"/>
      <psa30 value="0.0027141316" flag="0"/>
    </comp>
    <comp name="--.HHN">
      <acc value="0.0608240750" flag="0"/>
      <vel value="0.0356512939" flag="0"/>
      <psa03 value="0.0939496909" flag="0"/>
      <psa10 value="0.0208101181" flag="0"/>
      <psa30 value="0.0018287446" flag="0"/>
    </comp>
  </station>
  <station code="SARI" name="SARI" netid="KO" insttype="CMG-3T" commtype="DIG" lat="38.4072" lon="36.4181">
    <comp name="--.HHN">
      <acc value="0.0246884545" flag="0"/>
      <vel value="0.0112248218" flag="0"/>
      <psa03 value="0.0496523651" flag="0"/>
      <psa10 value="0.0168603728" flag="0"/>
      <psa30 value="0.0015026956" flag="0"/>
    </comp>
    <comp name="--.HHE">
      <acc value="0.0357405996" flag="0"/>
      <vel value="0.0148967071" flag="0"/>
      <psa03 value="0.0714900564" flag="0"/>
      <psa10 value="0.0159834217" flag="0"/>
      <psa30 value="0.0014474211" flag="0"/>
    </comp>
    <comp name="--.HHZ">
      <acc value="0.0224995947" flag="0"/>
      <vel value="0.0158959933" flag="0"/>
      <psa03 value="0.0356031227" flag="0"/>
      <psa10 value="0.0157552973" flag="0"/>
      <psa30 value="0.0014074318" flag="0"/>
    </comp>
  </station>
  <station code="ANDN" name="ANDN" netid="TU" insttype="T" commtype="DIG" lat="37.58" lon="36.3452">
    <comp name="--.HHZ">
      <acc value="0.0621670083" flag="0"/>
      <vel value="0.0321007463" flag="0"/>
      <psa03 value="0.1223560621" flag="0"/>
      <psa10 value="0.0313740385" flag="0"/>
      <psa30 value="0.0030190463" flag="0"/>
    </comp>
    <comp name="--.HHE">
      <acc value="0.1037361075" flag="0"/>
      <vel value="0.0368263741" flag="0"/>
      <psa03 value="0.3240202569" flag="0"/>
      <psa10 value="0.0324208708" flag="0"/>
      <psa30 value="0.0027467368" flag="0"/>
    </comp>
    <comp name="--.HHN">
      <acc value="0.1954276133" flag="0"/>
      <vel value="0.0568369059" flag="0"/>
      <psa03 value="0.3354672944" flag="0"/>
      <psa10 value="0.0451218494" flag="0"/>
      <psa30 value="0.0030036690" flag="0"/>
    </comp>
  </station>
</stationlist>
