<?xml version="1.0" encoding="UTF-8" standalone="yes"?>
<!DOCTYPE earthquake SYSTEM "stationlist.dtd">
<stationlist created="" xmlns="ch.ethz.sed.shakemap.usgs.xml">
  <station code="AKDG" name="AKDG" netid="KO" insttype="CMG-6T" commtype="DIG" lat="38.3618" lon="37.9703">
    <comp name="--.HHN">
      <acc value="0.0396338884" flag="0"/>
      <vel value="0.0396717889" flag="0"/>
      <psa03 value="0.0510462614" flag="0"/>
      <psa10 value="0.0767938156" flag="0"/>
      <psa30 value="0.0040299632" flag="0"/>
    </comp>
    <comp name="--.HHE">
      <acc value="0.0257439293" flag="0"/>
      <vel value="0.0226798380" flag="0"/>
      <psa03 value="0.0480142413" flag="0"/>
      <psa10 value="0.0321289693" flag="0"/>
      <psa30 value="0.0048890624" flag="0"/>
    </comp>
    <comp name="--.HHZ">
      <acc value="0.0191445201" flag="0"/>
      <vel value="0.0185720622" flag="0"/>
      <psa03 value="0.0394618918" flag="0"/>
      <psa10 value="0.0333146083" flag="0"/>
      <psa30 value="0.0018498675" flag="0"/>
    </comp>
  </station>
  <station code="DARE" name="DARE" netid="KO" insttype="CMG-3ESP" commtype="DIG" lat="38.5712" lon="37.4832">
    <comp name="--.HHN">
      <acc value="0.0079722739" flag="0"/>
      <vel value="0.0064180483" flag="0"/>
      <psa03 value="0.0135868022" flag="0"/>
      <psa10 value="0.0150649283" flag="0"/>
      <psa30 value="0.0005136251" flag="0"/>
    </comp>
    <comp name="--.HHE">
      <acc value="0.0081772925" flag="0"/>
      <vel value="0.0060409971" flag="0"/>
      <psa03 value="0.0149946706" flag="0"/>
      <psa10 value="0.0088974448" flag="0"/>
      <psa30 value="0.0008302617" flag="0"/>
    </comp>
    <comp name="--.HHZ">
      <acc value="0.0107119297" flag="0"/>
      <vel value="0.0064316672" flag="0"/>
      <psa03 value="0.0142025265" flag="0"/>
      <psa10 value="0.0124606881" flag="0"/>
      <psa30 value="0.0007466374" flag="0"/>
    </comp>
  </station>
  <station code="GAZ" name="GAZ" netid="KO" insttype="CMG-3T" commtype="DIG" lat="37.1721" lon="37.2096">
    <comp name="--.HHZ">
      <acc value="0.0558101687" flag="0"/>
      <vel value="0.0362938070" flag="0"/>
      <psa03 value="0.1157942510" flag="0"/>
      <psa10 value="0.0507193762" flag="0"/>
      <psa30 value="0.0051617714" flag="0"/>
    </comp>
    <comp name="--.HHE">
      <acc value="0.0716759219" flag="0"/>
      <vel value="0.0460625951" flag="0"/>
      <psa03 value="0.1638846142" flag="0"/>
      <psa10 value="0.0614771243" flag="0"/>
      <psa30 value="0.0070399060" flag="0"/>
    </comp>
    <comp name="--.HHN">
      <acc value="0.0515841989" flag="0"/>
      <vel value="0.0504995771" flag="0"/>
      <psa03 value="0.1507018837" flag="0"/>
      <psa10 value="0.0476455485" flag="0"/>
      <psa30 value="0.0040021134" flag="0"/>
    </comp>
  </station>
  <station code="KHMN" name="KHMN" netid="KO" insttype="CMG-5T" commtype="DIG" lat="37.3916" lon="37.1574">
    <comp name="--.HNN">
      <acc value="0.9691228159" flag="0"/>
      <vel value="0.3379766121" flag="0"/>
      <psa03 value="2.2492541160" flag="0"/>
      <psa10 value="0.2213827842" flag="0"/>
      <psa30 value="0.0137995186" flag="0"/>
    </comp>
    <comp name="--.HNE">
      <acc value="1.5281142229" flag="0"/>
      <vel value="0.5595318966" flag="0"/>
      <psa03 value="2.2869918198" flag="0"/>
      <psa10 value="0.2661223091" flag="0"/>
      <psa30 value="0.0247726681" flag="0"/>
    </comp>
  </station>
  <station code="KOZT" name="KOZT" netid="KO" insttype="CMG-3T" commtype="DIG" lat="37.4795" lon="35.8264">
    <comp name="--.HHE">
      <acc value="0.0233657818" flag="0"/>
      <vel value="0.0218693676" flag="0"/>
      <psa03 value="0.0831075120" flag="0"/>
      <psa10 value="0.0294142838" flag="0"/>
      <psa30 value="0.0024485990" flag="0"/>
    </comp>
    <comp name="--.HHZ">
      <acc value="0.0105324671" flag="0"/>
      <vel value="0.0088215547" flag="0"/>
      <psa03 value="0.0409446657" flag="0"/>
      <psa10 value="0.0123927539" flag="0"/>
      <psa30 value="0.0012588409" flag="0"/>
    </comp>
    <comp name="--.HHN">
      <acc value="0.0193683850" flag="0"/>
      <vel value="0.0150821306" flag="0"/>
      <psa03 value="0.0398542732" flag="0"/>
      <psa10 value="0.0218447832" flag="0"/>
      <psa30 value="0.0021397180" flag="0"/>
    </comp>
  </station>
  <station code="MLTY" name="MLTY" netid="KO" insttype="CMG-6T" commtype="DIG" lat="38.3223" lon="38.4407">
    <comp name="--.HHN">
      <acc value="0.0123122879" flag="0"/>
      <vel value="0.0089530749" flag="0"/>
      <psa03 value="0.0190476117" flag="0"/>
      <psa10 value="0.0128988352" flag="0"/>
      <psa30 value="0.0009678501" flag="0"/>
    </comp>
    <comp name="--.HHZ">
      <acc value="0.0074764691" flag="0"/>
      <vel value="0.0068342604" flag="0"/>
      <psa03 value="0.0137853897" flag="0"/>
      <psa10 value="0.0108205766" flag="0"/>
      <psa30 value="0.0008096911" flag="0"/>
    </comp>
    <comp name="--.HHE">
      <acc value="0.0066441805" flag="0"/>
      <vel value="0.0055382684" flag="0"/>
      <psa03 value="0.0136354110" flag="0"/>
      <psa10 value="0.0073600570" flag="0"/>
      <psa30 value="0.0009444926" flag="0"/>
    </comp>
  </station>
  <station code="NURH" name="NURH" netid="KO" insttype="CMG-6T" commtype="DIG" lat="37.9693" lon="37.4363">
    <comp name="--.HHE">
      <acc value="0.0369809262" flag="0"/>
      <vel value="0.0203870008" flag="0"/>
      <psa03 value="0.0530990108" flag="0"/>
      <psa10 value="0.0317281818" flag="0"/>
      <psa30 value="0.0027141104" flag="0"/>
    </comp>
    <comp name="--.HHZ">
      <acc value="0.0242385103" flag="0"/>
      <vel value="0.0148824258" flag="0"/>
      <psa03 value="0.0331714669" flag="0"/>
      <psa10 value="0.0246856860" flag="0"/>
      <psa30 value="0.0013305779" flag="0"/>
    </comp>
    <comp name="--.HHN">
      <acc value="0.0608240614" flag="0"/>
      <vel value="0.0356512935" flag="0"/>
      <psa03 value="0.0939496909" flag="0"/>
      <psa10 value="0.0208101186" flag="0"/>
      <psa30 value="0.0018287393" flag="0"/>
    </comp>
  </station>
  <station code="SARI" name="SARI" netid="KO" insttype="CMG-3T" commtype="DIG" lat="38.4072" lon="36.4181">
    <comp name="--.HHN">
      <acc value="0.0246884544" flag="0"/>
      <vel value="0.0112248215" flag="0"/>
      <psa03 value="0.0496523651" flag="0"/>
      <psa10 value="0.0168603728" flag="0"/>
      <psa30 value="0.0015026530" flag="0"/>
    </comp>
    <comp name="--.HHZ">
      <acc value="0.0224995949" flag="0"/>
      <vel value="0.0158959934" flag="0"/>
      <psa03 value="0.0356031227" flag="0"/>
      <psa10 value="0.0157552973" flag="0"/>
      <psa30 value="0.0014074448" flag="0"/>
    </comp>
    <comp name="--.HHE">
      <acc value="0.0357406001" flag="0"/>
      <vel value="0.0148967073" flag="0"/>
      <psa03 value="0.0714900564" flag="0"/>
      <psa10 value="0.0159834216" flag="0"/>
      <psa30 value="0.0014473900" flag="0"/>
    </comp>
  </station>
  <station code="URFA" name="URFA" netid="KO" insttype="CMG-3ESP" commtype="DIG" lat="37.4409" lon="38.8213">
    <comp name="--.HHE">
      <acc value="0.0280262069" flag="0"/>
      <vel value="0.0114816340" flag="0"/>
      <psa03 value="0.0771758254" flag="0"/>
      <psa10 value="0.0134153239" flag="0"/>
      <psa30 value="0.0011492313" flag="0"/>
    </comp>
    <comp name="--.HHN">
      <acc value="0.0345698677" flag="0"/>
      <vel value="0.0121285706" flag="0"/>
      <psa03 value="0.0419714355" flag="0"/>
      <psa10 value="0.0157467767" flag="0"/>
      <psa30 value="0.0014820083" flag="0"/>
    </comp>
    <comp name="--.HHZ">
      <acc value="0.0200310412" flag="0"/>
      <vel value="0.0091078208" flag="0"/>
      <psa03 value="0.0354972164" flag="0"/>
      <psa10 value="0.0114906625" flag="0"/>
      <psa30 value="0.0012025266" flag="0"/>
    </comp>
  </station>
</stationlist>
