<?xml version="1.0" encoding="UTF-8" standalone="yes"?>
<!DOCTYPE earthquake SYSTEM "stationlist.dtd">
<stationlist created="" xmlns="ch.ethz.sed.shakemap.usgs.xml">
  <station code="APMY" name="APMY" netid="KO" insttype="CMG-6T" commtype="DIG" lat="37.4717" lon="29.3018">
    <comp name="--.HHE">
      <acc value="0.0902253247" flag="0"/>
      <vel value="0.0257912264" flag="0"/>
      <psa03 value="0.1242694972" flag="0"/>
      <psa10 value="0.0090006164" flag="0"/>
      <psa30 value="0.0005822753" flag="0"/>
    </comp>
    <comp name="--.HHZ">
      <acc value="0.0431083643" flag="0"/>
      <vel value="0.0152494423" flag="0"/>
      <psa03 value="0.1042233309" flag="0"/>
      <psa10 value="0.0076405190" flag="0"/>
      <psa30 value="0.0006260287" flag="0"/>
    </comp>
    <comp name="--.HHN">
      <acc value="0.0855603263" flag="0"/>
      <vel value="0.0224582546" flag="0"/>
      <psa03 value="0.1359937250" flag="0"/>
      <psa10 value="0.0113267237" flag="0"/>
      <psa30 value="0.0007486902" flag="0"/>
    </comp>
  </station>
  <station code="BABD" name="BABD" netid="KO" insttype="CMG-6T" commtype="DIG" lat="37.802" lon="28.8531">
    <comp name="--.HHE">
      <acc value="0.3166217091" flag="0"/>
      <vel value="0.0538491150" flag="0"/>
      <psa03 value="0.2242971542" flag="0"/>
      <psa10 value="0.0376548498" flag="0"/>
      <psa30 value="0.0017392387" flag="0"/>
    </comp>
    <comp name="--.HHN">
      <acc value="0.2710747284" flag="0"/>
      <vel value="0.0546593238" flag="0"/>
      <psa03 value="0.1257634966" flag="0"/>
      <psa10 value="0.0260575662" flag="0"/>
      <psa30 value="0.0025775173" flag="0"/>
    </comp>
    <comp name="--.HHZ">
      <acc value="0.1269309341" flag="0"/>
      <vel value="0.0302519146" flag="0"/>
      <psa03 value="0.0765952063" flag="0"/>
      <psa10 value="0.0236755036" flag="0"/>
      <psa30 value="0.0016888943" flag="0"/>
    </comp>
  </station>
  <station code="BAKL" name="BAKL" netid="KO" insttype="CMG-6T" commtype="DIG" lat="37.9793" lon="29.6135">
    <comp name="--.HHE">
      <acc value="0.0946511925" flag="0"/>
      <vel value="0.0471631365" flag="0"/>
      <psa03 value="0.2146635371" flag="0"/>
      <psa10 value="0.0216736798" flag="0"/>
      <psa30 value="0.0018606923" flag="0"/>
    </comp>
    <comp name="--.HHN">
      <acc value="0.0637597645" flag="0"/>
      <vel value="0.0261605639" flag="0"/>
      <psa03 value="0.1151744863" flag="0"/>
      <psa10 value="0.0354929004" flag="0"/>
      <psa30 value="0.0025833129" flag="0"/>
    </comp>
    <comp name="--.HHZ">
      <acc value="0.0429392393" flag="0"/>
      <vel value="0.0135319731" flag="0"/>
      <psa03 value="0.0695913999" flag="0"/>
      <psa10 value="0.0161178234" flag="0"/>
      <psa30 value="0.0017838312" flag="0"/>
    </comp>
  </station>
  <station code="BASM" name="BASM" netid="KO" insttype="CMG-5T" commtype="DIG" lat="37.9194" lon="30.035">
    <comp name="--.HNE">
      <acc value="0.1348480550" flag="0"/>
      <vel value="0.0417261113" flag="0"/>
      <psa03 value="0.1370823424" flag="0"/>
      <psa10 value="0.0381679455" flag="0"/>
      <psa30 value="0.0027603625" flag="0"/>
    </comp>
    <comp name="--.HNN">
      <acc value="0.0971913637" flag="0"/>
      <vel value="0.0513596708" flag="0"/>
      <psa03 value="0.2139575176" flag="0"/>
      <psa10 value="0.0331975427" flag="0"/>
      <psa30 value="0.0029956736" flag="0"/>
    </comp>
    <comp name="--.HNZ">
      <acc value="0.0545870995" flag="0"/>
      <vel value="0.0224510380" flag="0"/>
      <psa03 value="0.0905626192" flag="0"/>
      <psa10 value="0.0144276305" flag="0"/>
      <psa30 value="0.0012824088" flag="0"/>
    </comp>
  </station>
  <station code="GEDZ" name="GEDZ" netid="KO" insttype="CMG-6T" commtype="DIG" lat="39.0445" lon="29.4105">
    <comp name="--.HHE">
      <acc value="0.0818258079" flag="0"/>
      <vel value="0.0381497110" flag="0"/>
      <psa03 value="0.2906355559" flag="0"/>
      <psa10 value="0.0216954444" flag="0"/>
      <psa30 value="0.0019340639" flag="0"/>
    </comp>
    <comp name="--.HHN">
      <acc value="0.0657712866" flag="0"/>
      <vel value="0.0325639179" flag="0"/>
      <psa03 value="0.2239665797" flag="0"/>
      <psa10 value="0.0340566356" flag="0"/>
      <psa30 value="0.0025632886" flag="0"/>
    </comp>
    <comp name="--.HHZ">
      <acc value="0.0315995908" flag="0"/>
      <vel value="0.0193659439" flag="0"/>
      <psa03 value="0.0715159080" flag="0"/>
      <psa10 value="0.0140851990" flag="0"/>
      <psa30 value="0.0013420252" flag="0"/>
    </comp>
  </station>
  <station code="GOMA" name="GOMA" netid="KO" insttype="CMG-5T" commtype="DIG" lat="38.7077" lon="27.9175">
    <comp name="--.HNE">
      <acc value="0.0131230427" flag="0"/>
      <vel value="0.0069834173" flag="0"/>
      <psa03 value="0.0419928135" flag="0"/>
      <psa10 value="0.0095913456" flag="0"/>
      <psa30 value="0.0004952839" flag="0"/>
    </comp>
    <comp name="--.HNN">
      <acc value="0.0102314530" flag="0"/>
      <vel value="0.0060008110" flag="0"/>
      <psa03 value="0.0178448433" flag="0"/>
      <psa10 value="0.0053171556" flag="0"/>
      <psa30 value="0.0008503197" flag="0"/>
    </comp>
    <comp name="--.HNZ">
      <acc value="0.0102084384" flag="0"/>
      <vel value="0.0035974515" flag="0"/>
      <psa03 value="0.0161056341" flag="0"/>
      <psa10 value="0.0034775785" flag="0"/>
      <psa30 value="0.0004484748" flag="0"/>
    </comp>
  </station>
  <station code="GORD" name="GORD" netid="KO" insttype="CMG-5T" commtype="DIG" lat="38.9088" lon="28.1769">
    <comp name="--.HNE">
      <acc value="0.0154132651" flag="0"/>
      <vel value="0.0183534919" flag="0"/>
      <psa03 value="0.0451020804" flag="0"/>
      <psa10 value="0.0318887983" flag="0"/>
      <psa30 value="0.0017980453" flag="0"/>
    </comp>
    <comp name="--.HNN">
      <acc value="0.0219435368" flag="0"/>
      <vel value="0.0228943133" flag="0"/>
      <psa03 value="0.0404325559" flag="0"/>
      <psa10 value="0.0427875654" flag="0"/>
      <psa30 value="0.0029497100" flag="0"/>
    </comp>
    <comp name="--.HNZ">
      <acc value="0.0128672669" flag="0"/>
      <vel value="0.0127938192" flag="0"/>
      <psa03 value="0.0198866540" flag="0"/>
      <psa10 value="0.0158617170" flag="0"/>
      <psa30 value="0.0011475824" flag="0"/>
    </comp>
  </station>
  <station code="KHL" name="KHL" netid="KO" insttype="CMG-5T" commtype="DIG" lat="38.3231" lon="29.5286">
    <comp name="--.HNE">
      <acc value="0.1251958253" flag="0"/>
      <vel value="0.0300383536" flag="0"/>
      <psa03 value="0.1056043332" flag="0"/>
      <psa10 value="0.0088237530" flag="0"/>
      <psa30 value="0.0009568460" flag="0"/>
    </comp>
    <comp name="--.HNN">
      <acc value="0.1730638933" flag="0"/>
      <vel value="0.0461216688" flag="0"/>
      <psa03 value="0.1626912456" flag="0"/>
      <psa10 value="0.0155410784" flag="0"/>
      <psa30 value="0.0018232372" flag="0"/>
    </comp>
    <comp name="--.HNZ">
      <acc value="0.0785872566" flag="0"/>
      <vel value="0.0205739798" flag="0"/>
      <psa03 value="0.0824018101" flag="0"/>
      <psa10 value="0.0079596464" flag="0"/>
      <psa30 value="0.0011846474" flag="0"/>
    </comp>
  </station>
  <station code="NAZL" name="NAZL" netid="KO" insttype="CMG-5T" commtype="DIG" lat="37.9641" lon="28.2922">
    <comp name="--.HNE">
      <acc value="0.2465485696" flag="0"/>
      <vel value="0.0891544177" flag="0"/>
      <psa03 value="0.7518633508" flag="0"/>
      <psa10 value="0.0369770904" flag="0"/>
      <psa30 value="0.0026529513" flag="0"/>
    </comp>
    <comp name="--.HNN">
      <acc value="0.2546675186" flag="0"/>
      <vel value="0.0821744056" flag="0"/>
      <psa03 value="0.6252933126" flag="0"/>
      <psa10 value="0.0241937815" flag="0"/>
      <psa30 value="0.0018978660" flag="0"/>
    </comp>
    <comp name="--.HNZ">
      <acc value="0.1302634828" flag="0"/>
      <vel value="0.0493513706" flag="0"/>
      <psa03 value="0.1901214534" flag="0"/>
      <psa10 value="0.0116031894" flag="0"/>
      <psa30 value="0.0009172346" flag="0"/>
    </comp>
  </station>
  <station code="ODEM" name="ODEM" netid="KO" insttype="CMG-5T" commtype="DIG" lat="38.2762" lon="28.0747">
    <comp name="--.HNN">
      <acc value="0.0444629684" flag="0"/>
      <vel value="0.0131720233" flag="0"/>
      <psa03 value="0.0451793656" flag="0"/>
      <psa10 value="0.0059662302" flag="0"/>
      <psa30 value="0.0011680082" flag="0"/>
    </comp>
    <comp name="--.HNE">
      <acc value="0.0420383347" flag="0"/>
      <vel value="0.0110666107" flag="0"/>
      <psa03 value="0.0315001309" flag="0"/>
      <psa10 value="0.0061413764" flag="0"/>
      <psa30 value="0.0007510748" flag="0"/>
    </comp>
    <comp name="--.HNZ">
      <acc value="0.0332609682" flag="0"/>
      <vel value="0.0088168335" flag="0"/>
      <psa03 value="0.0238478451" flag="0"/>
      <psa10 value="0.0049138062" flag="0"/>
      <psa30 value="0.0008452620" flag="0"/>
    </comp>
  </station>
  <station code="SERH" name="SERH" netid="KO" insttype="CMG-6T" commtype="DIG" lat="37.582" lon="29.2588">
    <comp name="--.HHZ">
      <acc value="0.0742136984" flag="0"/>
      <vel value="0.0269176100" flag="0"/>
      <psa03 value="0.1160738698" flag="0"/>
      <psa10 value="0.0074957817" flag="0"/>
      <psa30 value="0.0005663724" flag="0"/>
    </comp>
    <comp name="--.HHE">
      <acc value="0.1578850059" flag="0"/>
      <vel value="0.0445710743" flag="0"/>
      <psa03 value="0.1960590271" flag="0"/>
      <psa10 value="0.0131839891" flag="0"/>
      <psa30 value="0.0012325406" flag="0"/>
    </comp>
    <comp name="--.HHN">
      <acc value="0.1590784912" flag="0"/>
      <vel value="0.0401323641" flag="0"/>
      <psa03 value="0.1685031787" flag="0"/>
      <psa10 value="0.0110962464" flag="0"/>
      <psa30 value="0.0015393481" flag="0"/>
    </comp>
  </station>
  <station code="SHAP" name="SHAP" netid="KO" insttype="CMG-5T" commtype="DIG" lat="39.0231" lon="29.222">
    <comp name="--.HNE">
      <acc value="0.0396213021" flag="0"/>
      <vel value="0.0163932196" flag="0"/>
      <psa03 value="0.0968787097" flag="0"/>
      <psa10 value="0.0157726785" flag="0"/>
      <psa30 value="0.0007889048" flag="0"/>
    </comp>
    <comp name="--.HNZ">
      <acc value="0.0255318407" flag="0"/>
      <vel value="0.0091392869" flag="0"/>
      <psa03 value="0.0544704530" flag="0"/>
      <psa10 value="0.0095390699" flag="0"/>
      <psa30 value="0.0010041856" flag="0"/>
    </comp>
    <comp name="--.HNN">
      <acc value="0.0393356507" flag="0"/>
      <vel value="0.0190591262" flag="0"/>
      <psa03 value="0.0856454317" flag="0"/>
      <psa10 value="0.0164639759" flag="0"/>
      <psa30 value="0.0019863422" flag="0"/>
    </comp>
  </station>
  <station code="SIMA" name="SIMA" netid="KO" insttype="CMG-6T" commtype="DIG" lat="39.0833" lon="28.9825">
    <comp name="--.HHN">
      <acc value="0.0295786275" flag="0"/>
      <vel value="0.0145530445" flag="0"/>
      <psa03 value="0.0728388686" flag="0"/>
      <psa10 value="0.0160750007" flag="0"/>
      <psa30 value="0.0012727460" flag="0"/>
    </comp>
    <comp name="--.HHE">
      <acc value="0.0341410269" flag="0"/>
      <vel value="0.0144394072" flag="0"/>
      <psa03 value="0.0764383856" flag="0"/>
      <psa10 value="0.0101176065" flag="0"/>
      <psa30 value="0.0009083513" flag="0"/>
    </comp>
    <comp name="--.HHZ">
      <acc value="0.0281334308" flag="0"/>
      <vel value="0.0084098414" flag="0"/>
      <psa03 value="0.0392010010" flag="0"/>
      <psa10 value="0.0078415290" flag="0"/>
      <psa30 value="0.0008113037" flag="0"/>
    </comp>
  </station>
  <station code="SMAA" name="SMAA" netid="KO" insttype="CMG-5T" commtype="DIG" lat="39.1005" lon="28.9805">
    <comp name="--.HNE">
      <acc value="0.0485165350" flag="0"/>
      <vel value="0.0426281856" flag="0"/>
      <psa03 value="0.1041045186" flag="0"/>
      <psa10 value="0.0751247154" flag="0"/>
      <psa30 value="0.0045965895" flag="0"/>
    </comp>
    <comp name="--.HNZ">
      <acc value="0.0348861288" flag="0"/>
      <vel value="0.0114052859" flag="0"/>
      <psa03 value="0.0484022543" flag="0"/>
      <psa10 value="0.0173649796" flag="0"/>
      <psa30 value="0.0013100424" flag="0"/>
    </comp>
    <comp name="--.HNN">
      <acc value="0.0405859610" flag="0"/>
      <vel value="0.0357141043" flag="0"/>
      <psa03 value="0.1468299761" flag="0"/>
      <psa10 value="0.0762771253" flag="0"/>
      <psa30 value="0.0038567976" flag="0"/>
    </comp>
  </station>
  <station code="AYDN" name="AYDN" netid="TU" insttype="T" commtype="DIG" lat="37.6608" lon="27.8792">
    <comp name="--.HHN">
      <acc value="0.0348155206" flag="0"/>
      <vel value="0.0239646580" flag="0"/>
      <psa03 value="0.0833315927" flag="0"/>
      <psa10 value="0.0171349451" flag="0"/>
      <psa30 value="0.0028819615" flag="0"/>
    </comp>
    <comp name="--.HHZ">
      <acc value="0.0285317116" flag="0"/>
      <vel value="0.0167761706" flag="0"/>
      <psa03 value="0.0425312096" flag="0"/>
      <psa10 value="0.0170444557" flag="0"/>
      <psa30 value="0.0016642411" flag="0"/>
    </comp>
    <comp name="--.HHE">
      <acc value="0.0771253958" flag="0"/>
      <vel value="0.0358491974" flag="0"/>
      <psa03 value="0.1684769448" flag="0"/>
      <psa10 value="0.0302011260" flag="0"/>
      <psa30 value="0.0016399700" flag="0"/>
    </comp>
  </station>
</stationlist>
