<?xml version="1.0" encoding="UTF-8" standalone="yes"?>
<!DOCTYPE earthquake SYSTEM "stationlist.dtd">
<stationlist created="" xmlns="ch.ethz.sed.shakemap.usgs.xml">
  <station code="APMY" name="APMY" netid="KO" insttype="CMG-6T" commtype="DIG" lat="37.4717" lon="29.3018">
    <comp name="--.HHZ">
      <acc value="0.0431083625" flag="0"/>
      <vel value="0.0152494416" flag="0"/>
      <psa03 value="0.1042233309" flag="0"/>
      <psa10 value="0.0076405189" flag="0"/>
      <psa30 value="0.0006260497" flag="0"/>
    </comp>
    <comp name="--.HHN">
      <acc value="0.0855603308" flag="0"/>
      <vel value="0.0224582577" flag="0"/>
      <psa03 value="0.1359937250" flag="0"/>
      <psa10 value="0.0113267238" flag="0"/>
      <psa30 value="0.0007485861" flag="0"/>
    </comp>
    <comp name="--.HHE">
      <acc value="0.0902253167" flag="0"/>
      <vel value="0.0257912276" flag="0"/>
      <psa03 value="0.1242694972" flag="0"/>
      <psa10 value="0.0090006162" flag="0"/>
      <psa30 value="0.0005826322" flag="0"/>
    </comp>
  </station>
  <station code="BABD" name="BABD" netid="KO" insttype="CMG-6T" commtype="DIG" lat="37.802" lon="28.8531">
    <comp name="--.HHE">
      <acc value="0.3166217085" flag="0"/>
      <vel value="0.0538491263" flag="0"/>
      <psa03 value="0.2242971542" flag="0"/>
      <psa10 value="0.0376548502" flag="0"/>
      <psa30 value="0.0017375190" flag="0"/>
    </comp>
    <comp name="--.HHZ">
      <acc value="0.1269309612" flag="0"/>
      <vel value="0.0302519031" flag="0"/>
      <psa03 value="0.0765952063" flag="0"/>
      <psa10 value="0.0236756112" flag="0"/>
      <psa30 value="0.0016894140" flag="0"/>
    </comp>
    <comp name="--.HHN">
      <acc value="0.2710747717" flag="0"/>
      <vel value="0.0546592852" flag="0"/>
      <psa03 value="0.1257634966" flag="0"/>
      <psa10 value="0.0260575607" flag="0"/>
      <psa30 value="0.0025770155" flag="0"/>
    </comp>
  </station>
  <station code="BASM" name="BASM" netid="KO" insttype="CMG-5T" commtype="DIG" lat="37.9194" lon="30.035">
    <comp name="--.HNZ">
      <acc value="0.0545871008" flag="0"/>
      <vel value="0.0224510393" flag="0"/>
      <psa03 value="0.0905626192" flag="0"/>
      <psa10 value="0.0144276305" flag="0"/>
      <psa30 value="0.0012825070" flag="0"/>
    </comp>
    <comp name="--.HNE">
      <acc value="0.1348480523" flag="0"/>
      <vel value="0.0417261161" flag="0"/>
      <psa03 value="0.1370823424" flag="0"/>
      <psa10 value="0.0381679455" flag="0"/>
      <psa30 value="0.0027598821" flag="0"/>
    </comp>
    <comp name="--.HNN">
      <acc value="0.0971913616" flag="0"/>
      <vel value="0.0513596699" flag="0"/>
      <psa03 value="0.2139575176" flag="0"/>
      <psa10 value="0.0331975428" flag="0"/>
      <psa30 value="0.0029944450" flag="0"/>
    </comp>
  </station>
  <station code="GEDZ" name="GEDZ" netid="KO" insttype="CMG-6T" commtype="DIG" lat="39.0445" lon="29.4105">
    <comp name="--.HHE">
      <acc value="0.0818258022" flag="0"/>
      <vel value="0.0381497176" flag="0"/>
      <psa03 value="0.2906355559" flag="0"/>
      <psa10 value="0.0216954437" flag="0"/>
      <psa30 value="0.0019341296" flag="0"/>
    </comp>
    <comp name="--.HHZ">
      <acc value="0.0315995800" flag="0"/>
      <vel value="0.0193659420" flag="0"/>
      <psa03 value="0.0715159080" flag="0"/>
      <psa10 value="0.0140851989" flag="0"/>
      <psa30 value="0.0013420661" flag="0"/>
    </comp>
    <comp name="--.HHN">
      <acc value="0.0657713019" flag="0"/>
      <vel value="0.0325639084" flag="0"/>
      <psa03 value="0.2239665797" flag="0"/>
      <psa10 value="0.0340566356" flag="0"/>
      <psa30 value="0.0025632587" flag="0"/>
    </comp>
  </station>
  <station code="GORD" name="GORD" netid="KO" insttype="CMG-5T" commtype="DIG" lat="38.9088" lon="28.1769">
    <comp name="--.HNE">
      <acc value="0.0154132683" flag="0"/>
      <vel value="0.0183534947" flag="0"/>
      <psa03 value="0.0451020804" flag="0"/>
      <psa10 value="0.0318887982" flag="0"/>
      <psa30 value="0.0017987455" flag="0"/>
    </comp>
    <comp name="--.HNN">
      <acc value="0.0219435326" flag="0"/>
      <vel value="0.0228943146" flag="0"/>
      <psa03 value="0.0404325559" flag="0"/>
      <psa10 value="0.0427875653" flag="0"/>
      <psa30 value="0.0029496299" flag="0"/>
    </comp>
    <comp name="--.HNZ">
      <acc value="0.0128672606" flag="0"/>
      <vel value="0.0127938219" flag="0"/>
      <psa03 value="0.0198866540" flag="0"/>
      <psa10 value="0.0158617171" flag="0"/>
      <psa30 value="0.0011473328" flag="0"/>
    </comp>
  </station>
  <station code="NAZL" name="NAZL" netid="KO" insttype="CMG-5T" commtype="DIG" lat="37.9641" lon="28.2922">
    <comp name="--.HNZ">
      <acc value="0.1302634766" flag="0"/>
      <vel value="0.0493513720" flag="0"/>
      <psa03 value="0.1901214534" flag="0"/>
      <psa10 value="0.0116031905" flag="0"/>
      <psa30 value="0.0009186915" flag="0"/>
    </comp>
    <comp name="--.HNN">
      <acc value="0.2546675214" flag="0"/>
      <vel value="0.0821744048" flag="0"/>
      <psa03 value="0.6252933126" flag="0"/>
      <psa10 value="0.0241937822" flag="0"/>
      <psa30 value="0.0018970150" flag="0"/>
    </comp>
    <comp name="--.HNE">
      <acc value="0.2465485736" flag="0"/>
      <vel value="0.0891544209" flag="0"/>
      <psa03 value="0.7518633508" flag="0"/>
      <psa10 value="0.0369770930" flag="0"/>
      <psa30 value="0.0026545915" flag="0"/>
    </comp>
  </station>
  <station code="SHAP" name="SHAP" netid="KO" insttype="CMG-5T" commtype="DIG" lat="39.0231" lon="29.222">
    <comp name="--.HNE">
      <acc value="0.0396213060" flag="0"/>
      <vel value="0.0163932173" flag="0"/>
      <psa03 value="0.0968787097" flag="0"/>
      <psa10 value="0.0157726786" flag="0"/>
      <psa30 value="0.0007887859" flag="0"/>
    </comp>
    <comp name="--.HNZ">
      <acc value="0.0255318381" flag="0"/>
      <vel value="0.0091392872" flag="0"/>
      <psa03 value="0.0544704530" flag="0"/>
      <psa10 value="0.0095390700" flag="0"/>
      <psa30 value="0.0010040336" flag="0"/>
    </comp>
    <comp name="--.HNN">
      <acc value="0.0393356559" flag="0"/>
      <vel value="0.0190591266" flag="0"/>
      <psa03 value="0.0856454317" flag="0"/>
      <psa10 value="0.0164639758" flag="0"/>
      <psa30 value="0.0019862706" flag="0"/>
    </comp>
  </station>
  <station code="SIMA" name="SIMA" netid="KO" insttype="CMG-6T" commtype="DIG" lat="39.0833" lon="28.9825">
    <comp name="--.HHZ">
      <acc value="0.0281334124" flag="0"/>
      <vel value="0.0084098429" flag="0"/>
      <psa03 value="0.0392010010" flag="0"/>
      <psa10 value="0.0078415290" flag="0"/>
      <psa30 value="0.0008113536" flag="0"/>
    </comp>
    <comp name="--.HHE">
      <acc value="0.0341410307" flag="0"/>
      <vel value="0.0144394071" flag="0"/>
      <psa03 value="0.0764383856" flag="0"/>
      <psa10 value="0.0101176064" flag="0"/>
      <psa30 value="0.0009083539" flag="0"/>
    </comp>
    <comp name="--.HHN">
      <acc value="0.0295786354" flag="0"/>
      <vel value="0.0145530399" flag="0"/>
      <psa03 value="0.0728388686" flag="0"/>
      <psa10 value="0.0160750007" flag="0"/>
      <psa30 value="0.0012727904" flag="0"/>
    </comp>
  </station>
  <station code="SMAA" name="SMAA" netid="KO" insttype="CMG-5T" commtype="DIG" lat="39.1005" lon="28.9805">
    <comp name="--.HNE">
      <acc value="0.0485165264" flag="0"/>
      <vel value="0.0426281888" flag="0"/>
      <psa03 value="0.1041045186" flag="0"/>
      <psa10 value="0.0751247154" flag="0"/>
      <psa30 value="0.0045963217" flag="0"/>
    </comp>
    <comp name="--.HNZ">
      <acc value="0.0348861306" flag="0"/>
      <vel value="0.0114052776" flag="0"/>
      <psa03 value="0.0484022543" flag="0"/>
      <psa10 value="0.0173649793" flag="0"/>
      <psa30 value="0.0013107672" flag="0"/>
    </comp>
    <comp name="--.HNN">
      <acc value="0.0405859616" flag="0"/>
      <vel value="0.0357141180" flag="0"/>
      <psa03 value="0.1468299761" flag="0"/>
      <psa10 value="0.0762771252" flag="0"/>
      <psa30 value="0.0038568881" flag="0"/>
    </comp>
  </station>
  <station code="AYDN" name="AYDN" netid="TU" insttype="T" commtype="DIG" lat="37.6608" lon="27.8792">
    <comp name="--.HHN">
      <acc value="0.0348155205" flag="0"/>
      <vel value="0.0239646555" flag="0"/>
      <psa03 value="0.0833315927" flag="0"/>
      <psa10 value="0.0171349453" flag="0"/>
      <psa30 value="0.0028821176" flag="0"/>
    </comp>
    <comp name="--.HHZ">
      <acc value="0.0285317121" flag="0"/>
      <vel value="0.0167761703" flag="0"/>
      <psa03 value="0.0425312096" flag="0"/>
      <psa10 value="0.0170444557" flag="0"/>
      <psa30 value="0.0016641535" flag="0"/>
    </comp>
    <comp name="--.HHE">
      <acc value="0.0771253962" flag="0"/>
      <vel value="0.0358491970" flag="0"/>
      <psa03 value="0.1684769448" flag="0"/>
      <psa10 value="0.0302011261" flag="0"/>
      <psa30 value="0.0016399890" flag="0"/>
    </comp>
  </station>
</stationlist>
