<?xml version="1.0" encoding="UTF-8" standalone="yes"?>
<!DOCTYPE earthquake SYSTEM "stationlist.dtd">
<stationlist created="" xmlns="ch.ethz.sed.shakemap.usgs.xml">
  <station code="IMMV" name="IMMV" netid="GE" insttype="STS-2/N" commtype="DIG" lat="35.4606" lon="23.9811">
    <comp name="--.HHZ">
      <acc value="0.0057027459" flag="0"/>
      <vel value="0.0049926306" flag="0"/>
      <psa03 value="0.0270014474" flag="0"/>
      <psa10 value="0.0092829284" flag="0"/>
      <psa30 value="0.0010548310" flag="0"/>
    </comp>
    <comp name="--.HHN">
      <acc value="0.0103158591" flag="0"/>
      <vel value="0.0086939821" flag="0"/>
      <psa03 value="0.0416897372" flag="0"/>
      <psa10 value="0.0173390735" flag="0"/>
      <psa30 value="0.0018336728" flag="0"/>
    </comp>
    <comp name="--.HHE">
      <acc value="0.0084369268" flag="0"/>
      <vel value="0.0077475426" flag="0"/>
      <psa03 value="0.0238923695" flag="0"/>
      <psa10 value="0.0156071903" flag="0"/>
      <psa30 value="0.0010125590" flag="0"/>
    </comp>
  </station>
  <station code="IMMV" name="IMMV" netid="HL" insttype="DC" commtype="DIG" lat="35.4606" lon="23.9811">
    <comp name="--.HNE">
      <acc value="0.0080518699" flag="0"/>
      <vel value="0.0075737053" flag="0"/>
      <psa03 value="0.0226695274" flag="0"/>
      <psa10 value="0.0152436972" flag="0"/>
      <psa30 value="0.0009015908" flag="0"/>
    </comp>
    <comp name="--.HNZ">
      <acc value="0.0054697347" flag="0"/>
      <vel value="0.0048978917" flag="0"/>
      <psa03 value="0.0257482407" flag="0"/>
      <psa10 value="0.0091233296" flag="0"/>
      <psa30 value="0.0010449044" flag="0"/>
    </comp>
    <comp name="--.HNN">
      <acc value="0.0091417626" flag="0"/>
      <vel value="0.0079076022" flag="0"/>
      <psa03 value="0.0369761741" flag="0"/>
      <psa10 value="0.0156818985" flag="0"/>
      <psa30 value="0.0016733553" flag="0"/>
    </comp>
  </station>
</stationlist>
