<?xml version="1.0" encoding="UTF-8" standalone="yes"?>
<!DOCTYPE earthquake SYSTEM "stationlist.dtd">
<stationlist created="" xmlns="ch.ethz.sed.shakemap.usgs.xml">
  <station code="IMMV" name="IMMV" netid="GE" insttype="STS-2/N" commtype="DIG" lat="35.4606" lon="23.9811">
    <comp name="--.HHZ">
      <acc value="0.0057027463" flag="0"/>
      <vel value="0.0049926283" flag="0"/>
      <psa03 value="0.0270014474" flag="0"/>
      <psa10 value="0.0092829284" flag="0"/>
      <psa30 value="0.0010547661" flag="0"/>
    </comp>
    <comp name="--.HHE">
      <acc value="0.0084369260" flag="0"/>
      <vel value="0.0077475413" flag="0"/>
      <psa03 value="0.0238923695" flag="0"/>
      <psa10 value="0.0156071903" flag="0"/>
      <psa30 value="0.0010125119" flag="0"/>
    </comp>
    <comp name="--.HHN">
      <acc value="0.0103158595" flag="0"/>
      <vel value="0.0086939806" flag="0"/>
      <psa03 value="0.0416897372" flag="0"/>
      <psa10 value="0.0173390736" flag="0"/>
      <psa30 value="0.0018336623" flag="0"/>
    </comp>
  </station>
</stationlist>
