<?xml version="1.0" encoding="UTF-8" standalone="yes"?>
<!DOCTYPE earthquake SYSTEM "stationlist.dtd">
<stationlist created="" xmlns="ch.ethz.sed.shakemap.usgs.xml">
  <station code="ACOR" name="ACOR" netid="HA" insttype="30" lat="37.8902" lon="22.8692">
    <comp name="--.HHE">
      <acc value="0.0943387280" flag="0"/>
      <vel value="0.0460856232" flag="0"/>
      <psa03 value="0.2426203348" flag="0"/>
      <psa10 value="0.0441694323" flag="0"/>
      <psa30 value="0.0022012647" flag="0"/>
    </comp>
    <comp name="--.HHN">
      <acc value="0.3433775737" flag="0"/>
      <vel value="0.1708666009" flag="0"/>
      <psa03 value="0.6142263279" flag="0"/>
      <psa10 value="0.1920758860" flag="0"/>
      <psa30 value="0.0115028725" flag="0"/>
    </comp>
    <comp name="--.HHZ">
      <acc value="0.1231810995" flag="0"/>
      <vel value="0.0386522478" flag="0"/>
      <psa03 value="0.2158062943" flag="0"/>
      <psa10 value="0.0220179422" flag="0"/>
      <psa30 value="0.0019744437" flag="0"/>
    </comp>
  </station>
  <station code="ATAL" name="ATAL" netid="HA" insttype="120" lat="38.6926" lon="23.0213">
    <comp name="--.HHE">
      <acc value="0.0432949129" flag="0"/>
      <vel value="0.0193921542" flag="0"/>
      <psa03 value="0.1125477566" flag="0"/>
      <psa10 value="0.0115050616" flag="0"/>
      <psa30 value="0.0012841462" flag="0"/>
    </comp>
    <comp name="--.HHZ">
      <acc value="0.0350439369" flag="0"/>
      <vel value="0.0130587965" flag="0"/>
      <psa03 value="0.0551894786" flag="0"/>
      <psa10 value="0.0098065452" flag="0"/>
      <psa30 value="0.0012861420" flag="0"/>
    </comp>
    <comp name="--.HHN">
      <acc value="0.0527394117" flag="0"/>
      <vel value="0.0216529358" flag="0"/>
      <psa03 value="0.0993534500" flag="0"/>
      <psa10 value="0.0230018574" flag="0"/>
      <psa30 value="0.0020170351" flag="0"/>
    </comp>
  </station>
  <station code="ATHU" name="ATHU" netid="HA" insttype="60" lat="37.9665" lon="23.7845">
    <comp name="--.HHZ">
      <acc value="0.0846435543" flag="0"/>
      <vel value="0.0150437855" flag="0"/>
      <psa03 value="0.0615782763" flag="0"/>
      <psa10 value="0.0081331873" flag="0"/>
      <psa30 value="0.0006971735" flag="0"/>
    </comp>
    <comp name="--.HHN">
      <acc value="0.0932115402" flag="0"/>
      <vel value="0.0200703953" flag="0"/>
      <psa03 value="0.0948568291" flag="0"/>
      <psa10 value="0.0116023143" flag="0"/>
      <psa30 value="0.0006388333" flag="0"/>
    </comp>
    <comp name="--.HHE">
      <acc value="0.0527211420" flag="0"/>
      <vel value="0.0113359128" flag="0"/>
      <psa03 value="0.0528165185" flag="0"/>
      <psa10 value="0.0064144847" flag="0"/>
      <psa30 value="0.0003842362" flag="0"/>
    </comp>
  </station>
  <station code="AXAR" name="AXAR" netid="HA" insttype="30" lat="38.7664" lon="22.659">
    <comp name="--.HHE">
      <acc value="0.1928123250" flag="0"/>
      <vel value="0.0886308477" flag="0"/>
      <psa03 value="0.4504792032" flag="0"/>
      <psa10 value="0.0819264168" flag="0"/>
      <psa30 value="0.0029212301" flag="0"/>
    </comp>
    <comp name="--.HHN">
      <acc value="0.1827853198" flag="0"/>
      <vel value="0.0785311710" flag="0"/>
      <psa03 value="0.3556237314" flag="0"/>
      <psa10 value="0.0657484618" flag="0"/>
      <psa30 value="0.0035917294" flag="0"/>
    </comp>
    <comp name="--.HHZ">
      <acc value="0.0897576355" flag="0"/>
      <vel value="0.0365051901" flag="0"/>
      <psa03 value="0.1921764980" flag="0"/>
      <psa10 value="0.0318511205" flag="0"/>
      <psa30 value="0.0016140060" flag="0"/>
    </comp>
  </station>
  <station code="KALE" name="KALE" netid="HA" insttype="40," lat="38.3911" lon="22.1398">
    <comp name="--.HHE">
      <acc value="0.0293146248" flag="0"/>
      <vel value="0.0141314491" flag="0"/>
      <psa03 value="0.0723242287" flag="0"/>
      <psa10 value="0.0141233921" flag="0"/>
      <psa30 value="0.0010553766" flag="0"/>
    </comp>
    <comp name="--.HHZ">
      <acc value="0.0315444178" flag="0"/>
      <vel value="0.0129088127" flag="0"/>
      <psa03 value="0.0369372948" flag="0"/>
      <psa10 value="0.0052411112" flag="0"/>
      <psa30 value="0.0011398197" flag="0"/>
    </comp>
    <comp name="--.HHN">
      <acc value="0.0557354224" flag="0"/>
      <vel value="0.0194129378" flag="0"/>
      <psa03 value="0.1166451141" flag="0"/>
      <psa10 value="0.0147333303" flag="0"/>
      <psa30 value="0.0012695751" flag="0"/>
    </comp>
  </station>
  <station code="KARY" name="KARY" netid="HA" insttype="60" lat="38.0321" lon="24.437">
    <comp name="--.HHN">
      <acc value="0.0690973812" flag="0"/>
      <vel value="0.0163185342" flag="0"/>
      <psa03 value="0.0678716706" flag="0"/>
      <psa10 value="0.0138037832" flag="0"/>
      <psa30 value="0.0011345083" flag="0"/>
    </comp>
    <comp name="--.HHZ">
      <acc value="0.0811042675" flag="0"/>
      <vel value="0.0252635585" flag="0"/>
      <psa03 value="0.0665052874" flag="0"/>
      <psa10 value="0.0086632437" flag="0"/>
      <psa30 value="0.0007666875" flag="0"/>
    </comp>
    <comp name="--.HHE">
      <acc value="0.0697830896" flag="0"/>
      <vel value="0.0188395312" flag="0"/>
      <psa03 value="0.0664202949" flag="0"/>
      <psa10 value="0.0075644075" flag="0"/>
      <psa30 value="0.0004020852" flag="0"/>
    </comp>
  </station>
  <station code="LAKA" name="LAKA" netid="HA" insttype="120s" lat="38.2401" lon="21.9785">
    <comp name="--.HHN">
      <acc value="0.0108593575" flag="0"/>
      <vel value="0.0037003002" flag="0"/>
      <psa03 value="0.0193690540" flag="0"/>
      <psa10 value="0.0048434747" flag="0"/>
      <psa30 value="0.0006301465" flag="0"/>
    </comp>
    <comp name="--.HHE">
      <acc value="0.0075999720" flag="0"/>
      <vel value="0.0039507160" flag="0"/>
      <psa03 value="0.0121991057" flag="0"/>
      <psa10 value="0.0047649123" flag="0"/>
      <psa30 value="0.0006227464" flag="0"/>
    </comp>
    <comp name="--.HHZ">
      <acc value="0.0058394936" flag="0"/>
      <vel value="0.0049079601" flag="0"/>
      <psa03 value="0.0122987844" flag="0"/>
      <psa10 value="0.0050639768" flag="0"/>
      <psa30 value="0.0005353257" flag="0"/>
    </comp>
  </station>
  <station code="LOUT" name="LOUT" netid="HA" insttype="30" lat="37.9879" lon="22.9743">
    <comp name="--.HHZ">
      <acc value="1.1447526974" flag="0"/>
      <vel value="0.2259810260" flag="0"/>
      <psa03 value="0.9716504989" flag="0"/>
      <psa10 value="0.1152594765" flag="0"/>
      <psa30 value="0.0075388070" flag="0"/>
    </comp>
    <comp name="--.HHN">
      <acc value="0.9024102593" flag="0"/>
      <vel value="0.2911776770" flag="0"/>
      <psa03 value="1.2974354586" flag="0"/>
      <psa10 value="0.1394109112" flag="0"/>
      <psa30 value="0.0120850300" flag="0"/>
    </comp>
    <comp name="--.HHE">
      <acc value="1.3531667976" flag="0"/>
      <vel value="0.3272763884" flag="0"/>
      <psa03 value="1.5797494223" flag="0"/>
      <psa10 value="0.1826004391" flag="0"/>
      <psa30 value="0.0145960963" flag="0"/>
    </comp>
  </station>
  <station code="STFN" name="STFN" netid="HA" insttype="1s-100Hz," lat="38.1766" lon="23.544">
    <comp name="--.HHZ">
      <acc value="0.1554248773" flag="0"/>
      <vel value="0.0570201110" flag="0"/>
      <psa03 value="0.2626123952" flag="0"/>
      <psa10 value="0.0409576648" flag="0"/>
      <psa30 value="0.0038760201" flag="0"/>
    </comp>
    <comp name="--.HHN">
      <acc value="0.3708665454" flag="0"/>
      <vel value="0.0878931708" flag="0"/>
      <psa03 value="0.4105551113" flag="0"/>
      <psa10 value="0.0587720563" flag="0"/>
      <psa30 value="0.0043706791" flag="0"/>
    </comp>
    <comp name="--.HHE">
      <acc value="0.2288778320" flag="0"/>
      <vel value="0.0906605169" flag="0"/>
      <psa03 value="0.4521390267" flag="0"/>
      <psa10 value="0.0799837860" flag="0"/>
      <psa30 value="0.0047860460" flag="0"/>
    </comp>
  </station>
  <station code="THAL" name="THAL" netid="HA" insttype="30" lat="38.0357" lon="22.6634">
    <comp name="--.HHE">
      <acc value="0.3871667955" flag="0"/>
      <vel value="0.1054092397" flag="0"/>
      <psa03 value="0.4084867705" flag="0"/>
      <psa10 value="0.0889318779" flag="0"/>
      <psa30 value="0.0046259656" flag="0"/>
    </comp>
    <comp name="--.HHN">
      <acc value="0.4445723742" flag="0"/>
      <vel value="0.0942150052" flag="0"/>
      <psa03 value="0.4066562428" flag="0"/>
      <psa10 value="0.0786623612" flag="0"/>
      <psa30 value="0.0033848403" flag="0"/>
    </comp>
    <comp name="--.HHZ">
      <acc value="0.2041620520" flag="0"/>
      <vel value="0.0558120283" flag="0"/>
      <psa03 value="0.1884210507" flag="0"/>
      <psa10 value="0.0336422768" flag="0"/>
      <psa30 value="0.0016582347" flag="0"/>
    </comp>
  </station>
  <station code="VILL" name="VILL" netid="HA" insttype="30" lat="38.1642" lon="23.3122">
    <comp name="--.HHN">
      <acc value="0.8621692909" flag="0"/>
      <vel value="0.2867762974" flag="0"/>
      <psa03 value="1.5064108882" flag="0"/>
      <psa10 value="0.1670355664" flag="0"/>
      <psa30 value="0.0130373670" flag="0"/>
    </comp>
    <comp name="--.HHE">
      <acc value="0.5563486547" flag="0"/>
      <vel value="0.2000105234" flag="0"/>
      <psa03 value="0.9019789169" flag="0"/>
      <psa10 value="0.2550758868" flag="0"/>
      <psa30 value="0.0124166945" flag="0"/>
    </comp>
    <comp name="--.HHZ">
      <acc value="0.2391068189" flag="0"/>
      <vel value="0.0985803401" flag="0"/>
      <psa03 value="0.3799774535" flag="0"/>
      <psa10 value="0.0788074420" flag="0"/>
      <psa30 value="0.0109028331" flag="0"/>
    </comp>
  </station>
  <station code="ARS1" name="ARS1" netid="HI" insttype="CMG-5TD,ACCELEROMETER,GURALP" lat="37.6349" lon="22.7293">
    <comp name="--.HNE">
      <acc value="0.1000999608" flag="0"/>
      <vel value="0.0808333477" flag="0"/>
      <psa03 value="0.2833641999" flag="0"/>
      <psa10 value="0.0861406949" flag="0"/>
      <psa30 value="0.0034930182" flag="0"/>
    </comp>
    <comp name="--.HNN">
      <acc value="0.0970743054" flag="0"/>
      <vel value="0.0537766731" flag="0"/>
      <psa03 value="0.3085352785" flag="0"/>
      <psa10 value="0.0565847007" flag="0"/>
      <psa30 value="0.0035323185" flag="0"/>
    </comp>
    <comp name="--.HNZ">
      <acc value="0.0536320380" flag="0"/>
      <vel value="0.0263808722" flag="0"/>
      <psa03 value="0.1820329951" flag="0"/>
      <psa10 value="0.0224956875" flag="0"/>
      <psa30 value="0.0019335482" flag="0"/>
    </comp>
  </station>
  <station code="ATH5" name="ATH5" netid="HI" insttype="CMG-5TD,ACCELEROMETER,GURALP" lat="37.9754" lon="23.7371">
    <comp name="--.HNE">
      <acc value="0.1045886118" flag="0"/>
      <vel value="0.0442779872" flag="0"/>
      <psa03 value="0.1648807862" flag="0"/>
      <psa10 value="0.0395167259" flag="0"/>
      <psa30 value="0.0014993407" flag="0"/>
    </comp>
    <comp name="--.HNZ">
      <acc value="0.0555165529" flag="0"/>
      <vel value="0.0202169717" flag="0"/>
      <psa03 value="0.1075844410" flag="0"/>
      <psa10 value="0.0164796055" flag="0"/>
      <psa30 value="0.0014834242" flag="0"/>
    </comp>
    <comp name="--.HNN">
      <acc value="0.1074017784" flag="0"/>
      <vel value="0.0231423531" flag="0"/>
      <psa03 value="0.1241010352" flag="0"/>
      <psa10 value="0.0215037772" flag="0"/>
      <psa30 value="0.0013418109" flag="0"/>
    </comp>
  </station>
  <station code="KLV1" name="KLV1" netid="HI" insttype="CMG-5TD,ACCELEROMETER,GURALP" lat="38.0326" lon="22.108">
    <comp name="--.HNE">
      <acc value="0.0381407263" flag="0"/>
      <vel value="0.0195763345" flag="0"/>
      <psa03 value="0.0998746955" flag="0"/>
      <psa10 value="0.0169707391" flag="0"/>
      <psa30 value="0.0006135685" flag="0"/>
    </comp>
    <comp name="--.HNN">
      <acc value="0.0678005458" flag="0"/>
      <vel value="0.0213296346" flag="0"/>
      <psa03 value="0.0949318241" flag="0"/>
      <psa10 value="0.0181304726" flag="0"/>
      <psa30 value="0.0009826315" flag="0"/>
    </comp>
    <comp name="--.HNZ">
      <acc value="0.0286796976" flag="0"/>
      <vel value="0.0079465383" flag="0"/>
      <psa03 value="0.0306707047" flag="0"/>
      <psa10 value="0.0055389836" flag="0"/>
      <psa30 value="0.0003971762" flag="0"/>
    </comp>
  </station>
  <station code="LAM2" name="LAM2" netid="HI" insttype="CMG-5TD,ACCELEROMETER,GURALP" lat="38.902" lon="22.4313">
    <comp name="--.HNE">
      <acc value="0.0219881907" flag="0"/>
      <vel value="0.0096675954" flag="0"/>
      <psa03 value="0.0369994959" flag="0"/>
      <psa10 value="0.0199990203" flag="0"/>
      <psa30 value="0.0014778818" flag="0"/>
    </comp>
    <comp name="--.HNN">
      <acc value="0.0167638595" flag="0"/>
      <vel value="0.0110403560" flag="0"/>
      <psa03 value="0.0287856168" flag="0"/>
      <psa10 value="0.0177541570" flag="0"/>
      <psa30 value="0.0011896589" flag="0"/>
    </comp>
    <comp name="--.HNZ">
      <acc value="0.0099598553" flag="0"/>
      <vel value="0.0047967716" flag="0"/>
      <psa03 value="0.0279574754" flag="0"/>
      <psa10 value="0.0072154115" flag="0"/>
      <psa30 value="0.0005207010" flag="0"/>
    </comp>
  </station>
  <station code="SKO1" name="SKO1" netid="HI" insttype="CMG-5TD,ACCELEROMETER,GURALP" lat="39.1234" lon="23.7287">
    <comp name="--.HNE">
      <acc value="0.0198405084" flag="0"/>
      <vel value="0.0108071634" flag="0"/>
      <psa03 value="0.0438181624" flag="0"/>
      <psa10 value="0.0087619168" flag="0"/>
      <psa30 value="0.0007235772" flag="0"/>
    </comp>
    <comp name="--.HNN">
      <acc value="0.0169308831" flag="0"/>
      <vel value="0.0102490219" flag="0"/>
      <psa03 value="0.0635441678" flag="0"/>
      <psa10 value="0.0086359264" flag="0"/>
      <psa30 value="0.0009207234" flag="0"/>
    </comp>
    <comp name="--.HNZ">
      <acc value="0.0108859083" flag="0"/>
      <vel value="0.0050646193" flag="0"/>
      <psa03 value="0.0335476758" flag="0"/>
      <psa10 value="0.0060565952" flag="0"/>
      <psa30 value="0.0009449339" flag="0"/>
    </comp>
  </station>
  <station code="ATH" name="ATH" netid="HL" insttype="DR24" lat="37.9738" lon="23.7177">
    <comp name="--.HHE">
      <acc value="0.1452347382" flag="0"/>
      <vel value="0.0489770046" flag="0"/>
      <psa03 value="0.2695877578" flag="0"/>
      <psa10 value="0.0436107132" flag="0"/>
      <psa30 value="0.0017819934" flag="0"/>
    </comp>
    <comp name="--.HHZ">
      <acc value="0.1080149722" flag="0"/>
      <vel value="0.0333079985" flag="0"/>
      <psa03 value="0.1415807102" flag="0"/>
      <psa10 value="0.0256804245" flag="0"/>
      <psa30 value="0.0015534854" flag="0"/>
    </comp>
    <comp name="--.HHN">
      <acc value="0.1163347382" flag="0"/>
      <vel value="0.0459901241" flag="0"/>
      <psa03 value="0.3176207281" flag="0"/>
      <psa10 value="0.0181467138" flag="0"/>
      <psa30 value="0.0015830270" flag="0"/>
    </comp>
  </station>
  <station code="ATHP" name="ATHP" netid="HL" insttype="CMG-5" lat="38.0008" lon="23.7735">
    <comp name="00.HNZ">
      <acc value="0.1306810771" flag="0"/>
      <vel value="0.0280514301" flag="0"/>
      <psa03 value="0.1333354467" flag="0"/>
      <psa10 value="0.0131547948" flag="0"/>
      <psa30 value="0.0014908587" flag="0"/>
    </comp>
    <comp name="00.HNN">
      <acc value="0.1170493758" flag="0"/>
      <vel value="0.0331751879" flag="0"/>
      <psa03 value="0.1555746695" flag="0"/>
      <psa10 value="0.0271838133" flag="0"/>
      <psa30 value="0.0013535204" flag="0"/>
    </comp>
    <comp name="00.HNE">
      <acc value="0.1438517938" flag="0"/>
      <vel value="0.0375593636" flag="0"/>
      <psa03 value="0.1387155414" flag="0"/>
      <psa10 value="0.0324035334" flag="0"/>
      <psa30 value="0.0015288795" flag="0"/>
    </comp>
  </station>
  <station code="DION" name="DION" netid="HL" insttype="30" lat="38.0779" lon="23.9331">
    <comp name="--.HHE">
      <acc value="0.1491203611" flag="0"/>
      <vel value="0.0395654916" flag="0"/>
      <psa03 value="0.1766688191" flag="0"/>
      <psa10 value="0.0117140810" flag="0"/>
      <psa30 value="0.0009921424" flag="0"/>
    </comp>
    <comp name="--.HHN">
      <acc value="0.1314957883" flag="0"/>
      <vel value="0.0348806065" flag="0"/>
      <psa03 value="0.1519077479" flag="0"/>
      <psa10 value="0.0097480773" flag="0"/>
      <psa30 value="0.0010142262" flag="0"/>
    </comp>
    <comp name="--.HHZ">
      <acc value="0.1338088474" flag="0"/>
      <vel value="0.0333021869" flag="0"/>
      <psa03 value="0.1013968437" flag="0"/>
      <psa10 value="0.0161830118" flag="0"/>
      <psa30 value="0.0010718022" flag="0"/>
    </comp>
  </station>
  <station code="KLV" name="KLV" netid="HL" insttype="120" lat="38.0435" lon="22.1504">
    <comp name="--.HHE">
      <acc value="0.0182386942" flag="0"/>
      <vel value="0.0064035411" flag="0"/>
      <psa03 value="0.0278132039" flag="0"/>
      <psa10 value="0.0056708136" flag="0"/>
      <psa30 value="0.0003365727" flag="0"/>
    </comp>
    <comp name="--.HHN">
      <acc value="0.0203011329" flag="0"/>
      <vel value="0.0058626281" flag="0"/>
      <psa03 value="0.0234689089" flag="0"/>
      <psa10 value="0.0085916554" flag="0"/>
      <psa30 value="0.0004256935" flag="0"/>
    </comp>
    <comp name="--.HHZ">
      <acc value="0.0169631097" flag="0"/>
      <vel value="0.0072382696" flag="0"/>
      <psa03 value="0.0245561939" flag="0"/>
      <psa10 value="0.0099618289" flag="0"/>
      <psa30 value="0.0004073715" flag="0"/>
    </comp>
  </station>
  <station code="KYMI" name="KYMI" netid="HL" insttype="60" lat="38.6331" lon="24.1001">
    <comp name="--.HHN">
      <acc value="0.0565315862" flag="0"/>
      <vel value="0.0264752996" flag="0"/>
      <psa03 value="0.1276427118" flag="0"/>
      <psa10 value="0.0282810507" flag="0"/>
      <psa30 value="0.0014073817" flag="0"/>
    </comp>
    <comp name="--.HHZ">
      <acc value="0.0561957255" flag="0"/>
      <vel value="0.0206001913" flag="0"/>
      <psa03 value="0.1062096260" flag="0"/>
      <psa10 value="0.0151718948" flag="0"/>
      <psa30 value="0.0011218645" flag="0"/>
    </comp>
    <comp name="--.HHE">
      <acc value="0.0659167574" flag="0"/>
      <vel value="0.0233591076" flag="0"/>
      <psa03 value="0.1433506285" flag="0"/>
      <psa10 value="0.0193232145" flag="0"/>
      <psa30 value="0.0017076088" flag="0"/>
    </comp>
  </station>
  <station code="LKR" name="LKR" netid="HL" insttype="30" lat="38.6496" lon="22.9989">
    <comp name="--.HHN">
      <acc value="0.2293696743" flag="0"/>
      <vel value="0.0861256525" flag="0"/>
      <psa03 value="0.3734544384" flag="0"/>
      <psa10 value="0.0181428443" flag="0"/>
      <psa30 value="0.0014909017" flag="0"/>
    </comp>
    <comp name="--.HHZ">
      <acc value="0.1170476458" flag="0"/>
      <vel value="0.0350311802" flag="0"/>
      <psa03 value="0.0926534253" flag="0"/>
      <psa10 value="0.0131017635" flag="0"/>
      <psa30 value="0.0015754276" flag="0"/>
    </comp>
    <comp name="--.HHE">
      <acc value="0.2858672732" flag="0"/>
      <vel value="0.0905790715" flag="0"/>
      <psa03 value="0.2393674498" flag="0"/>
      <psa10 value="0.0184732342" flag="0"/>
      <psa30 value="0.0019078478" flag="0"/>
    </comp>
  </station>
  <station code="NOAC" name="NOAC" netid="HL" insttype="CMG-5" lat="37.9738" lon="23.7177">
    <comp name="00.HNN">
      <acc value="0.1117267169" flag="0"/>
      <vel value="0.0460158154" flag="0"/>
      <psa03 value="0.3134354159" flag="0"/>
      <psa10 value="0.0186101413" flag="0"/>
      <psa30 value="0.0016542668" flag="0"/>
    </comp>
    <comp name="00.HNE">
      <acc value="0.1420901742" flag="0"/>
