<stationlist created="1778069808">
	<station code="ROD3" name="ROD3" netid="CL" source="Corinth Riff Laboratory (CRLNET)" insttype="" lat="38.30811" lon="21.89204">
		<comp name="00.HNE" depth="0.0">
			<acc value="0.0246158618975573" flag="0"/>
			<vel value="0.0120029312243347" flag="0"/>
			<psa03 value="0.0810728783923084" flag="0"/>
			<psa10 value="0.00964820943516412" flag="0"/>
			<psa30 value="0.000657710437288595" flag="0"/>
		</comp>
		<comp name="00.HNN" depth="0.0">
			<acc value="0.0327786992419481" flag="0"/>
			<vel value="0.0193842399405291" flag="0"/>
			<psa03 value="0.0933769852123332" flag="0"/>
			<psa10 value="0.0139810447240776" flag="0"/>
			<psa30 value="0.00108768304289019" flag="0"/>
		</comp>
		<comp name="00.HNZ" depth="0.0">
			<acc value="0.0130935703405473" flag="0"/>
			<vel value="0.00642250086274575" flag="0"/>
			<psa03 value="0.0272927460371458" flag="0"/>
			<psa10 value="0.00558516965215886" flag="0"/>
			<psa30 value="0.000766433999370995" flag="0"/>
		</comp>
	</station>
	<station code="KTHA" name="KTHA" netid="GE" source="GEOFON" insttype="" lat="36.2566" lon="23.0621">
		<comp name="--.HNE" depth="0.0">
			<acc value="0.00820069647993344" flag="0"/>
			<vel value="0.00437040772476997" flag="0"/>
			<psa03 value="0.0280981057562747" flag="0"/>
			<psa10 value="0.00615697505274038" flag="0"/>
			<psa30 value="0.00393194511761372" flag="0"/>
		</comp>
		<comp name="--.HNN" depth="0.0">
			<acc value="0.0044733805434571" flag="0"/>
			<vel value="0.00228412377650963" flag="0"/>
			<psa03 value="0.0148991548038845" flag="0"/>
			<psa10 value="0.00368049391641903" flag="0"/>
			<psa30 value="0.000908266794350916" flag="0"/>
		</comp>
		<comp name="--.HNZ" depth="0.0">
			<acc value="0.00403049465015887" flag="0"/>
			<vel value="0.00173447664489556" flag="0"/>
			<psa03 value="0.0118119425472237" flag="0"/>
			<psa10 value="0.00385767305462739" flag="0"/>
			<psa30 value="0.00209617238006603" flag="0"/>
		</comp>
	</station>
	<station code="AIGS" name="AIGS" netid="HA" source="Hellenic Seismological Network, University of Athens, Seismological Laboratory (HA)" insttype="" lat="38.25001" lon="22.0878">
		<comp name="--.HNE" depth="0.0">
			<acc value="0.0324777685838204" flag="0"/>
			<vel value="0.0112808669087259" flag="0"/>
			<psa03 value="0.0480978721146421" flag="0"/>
			<psa10 value="0.00835560708596225" flag="0"/>
			<psa30 value="0.00209259300353657" flag="0"/>
		</comp>
		<comp name="--.HNN" depth="0.0">
			<acc value="0.0258046451048624" flag="0"/>
			<vel value="0.0115653733224778" flag="0"/>
			<psa03 value="0.0850101925747163" flag="0"/>
			<psa10 value="0.016139408771343" flag="0"/>
			<psa30 value="0.0013825341845046" flag="0"/>
		</comp>
		<comp name="--.HNZ" depth="0.0">
			<acc value="0.0260535180344051" flag="0"/>
			<vel value="0.00850158957655407" flag="0"/>
			<psa03 value="0.0541828122147271" flag="0"/>
			<psa10 value="0.00600798350470153" flag="0"/>
			<psa30 value="0.000719902104487992" flag="0"/>
		</comp>
	</station>
	<station code="LTRS" name="LTRS" netid="HA" source="Hellenic Seismological Network, University of Athens, Seismological Laboratory (HA)" insttype="" lat="37.97528" lon="22.9765">
		<comp name="--.HNE" depth="0.0">
			<acc value="0.518642327046446" flag="0"/>
			<vel value="0.204771656988908" flag="0"/>
			<psa03 value="1.08759355847695" flag="0"/>
			<psa10 value="0.326577392905361" flag="0"/>
			<psa30 value="0.0182915089096819" flag="0"/>
		</comp>
		<comp name="--.HNN" depth="0.0">
			<acc value="0.513337301436738" flag="0"/>
			<vel value="0.264204636366155" flag="0"/>
			<psa03 value="1.02562560231064" flag="0"/>
			<psa10 value="0.187338751065167" flag="0"/>
			<psa30 value="0.0125774817024624" flag="0"/>
		</comp>
		<comp name="--.HNZ" depth="0.0">
			<acc value="0.505449070708457" flag="0"/>
			<vel value="0.205816361715082" flag="0"/>
			<psa03 value="0.77381646346301" flag="0"/>
			<psa10 value="0.221957138591923" flag="0"/>
			<psa30 value="0.00935335829354971" flag="0"/>
		</comp>
	</station>
	<station code="XLKS" name="XLKS" netid="HA" source="Hellenic Seismological Network, University of Athens, Seismological Laboratory (HA)" insttype="" lat="38.0772" lon="22.6361">
		<comp name="--.HNE" depth="0.0">
			<acc value="0.354220492720309" flag="0"/>
			<vel value="0.102699464564716" flag="0"/>
			<psa03 value="0.282681261414241" flag="0"/>
			<psa10 value="0.160190074933332" flag="0"/>
			<psa30 value="0.00918960181732684" flag="0"/>
		</comp>
		<comp name="--.HNN" depth="0.0">
			<acc value="0.415115037358878" flag="0"/>
			<vel value="0.0857183888314775" flag="0"/>
			<psa03 value="0.292345578043788" flag="0"/>
			<psa10 value="0.210299556657532" flag="0"/>
			<psa30 value="0.00813010636460616" flag="0"/>
		</comp>
		<comp name="--.HNZ" depth="0.0">
			<acc value="0.250546313974368" flag="0"/>
			<vel value="0.0552799694386149" flag="0"/>
			<psa03 value="0.23946028982099" flag="0"/>
			<psa10 value="0.0535805821136452" flag="0"/>
			<psa30 value="0.00299996495375512" flag="0"/>
		</comp>
	</station>
	<station code="ARS1" name="ARS1" netid="HI" source="ITSAK Strong Motion Network" insttype="" lat="37.6349" lon="22.7293">
		<comp name="--.HNE" depth="0.0">
			<acc value="0.100325681449015" flag="0"/>
			<vel value="0.0811086184846473" flag="0"/>
			<psa03 value="0.280981057562747" flag="0"/>
			<psa10 value="0.0862942939046607" flag="0"/>
			<psa30 value="0.00356863839987335" flag="0"/>
		</comp>
		<comp name="--.HNN" depth="0.0">
			<acc value="0.0969311563192347" flag="0"/>
			<vel value="0.0534224379251422" flag="0"/>
			<psa03 value="0.313553383980848" flag="0"/>
			<psa10 value="0.0567617530042043" flag="0"/>
			<psa30 value="0.00348049625283536" flag="0"/>
		</comp>
		<comp name="--.HNZ" depth="0.0">
			<acc value="0.0540450240619409" flag="0"/>
			<vel value="0.0266292477471411" flag="0"/>
			<psa03 value="0.180758514737818" flag="0"/>
			<psa10 value="0.0225903401215654" flag="0"/>
			<psa30 value="0.00197089420153487" flag="0"/>
		</comp>
	</station>
	<station code="ATH5" name="ATH5" netid="HI" source="ITSAK Strong Motion Network" insttype="" lat="37.975421" lon="23.737098">
		<comp name="--.HNE" depth="0.0">
			<acc value="0.10509049966772" flag="0"/>
			<vel value="0.0447541759225428" flag="0"/>
			<psa03 value="0.166127813173643" flag="0"/>
			<psa10 value="0.0395673230008024" flag="0"/>
			<psa30 value="0.00147112375360877" flag="0"/>
		</comp>
		<comp name="--.HNN" depth="0.0">
			<acc value="0.105305190581419" flag="0"/>
			<vel value="0.0237736219969001" flag="0"/>
			<psa03 value="0.124964983084833" flag="0"/>
			<psa10 value="0.0216078012642282" flag="0"/>
			<psa30 value="0.00147649281840297" flag="0"/>
		</comp>
		<comp name="--.HNZ" depth="0.0">
			<acc value="0.0550434710350299" flag="0"/>
			<vel value="0.0205161720334569" flag="0"/>
			<psa03 value="0.109976343867712" flag="0"/>
			<psa10 value="0.0164897402491641" flag="0"/>
			<psa30 value="0.00143667225451271" flag="0"/>
		</comp>
	</station>
	<station code="KLV1" name="KLV1" netid="HI" source="ITSAK Strong Motion Network" insttype="" lat="38.03256" lon="22.10797">
		<comp name="--.HNE" depth="0.0">
			<acc value="0.0381056008938818" flag="0"/>
			<vel value="0.0197366984922824" flag="0"/>
			<psa03 value="0.0991039876594719" flag="0"/>
			<psa10 value="0.0170011436708109" flag="0"/>
			<psa30 value="0.000624153782324891" flag="0"/>
		</comp>
		<comp name="--.HNN" depth="0.0">
			<acc value="0.0675142058776406" flag="0"/>
			<vel value="0.0217114771885447" flag="0"/>
			<psa03 value="0.0967326507087035" flag="0"/>
			<psa10 value="0.0181850224579304" flag="0"/>
			<psa30 value="0.00104428310247046" flag="0"/>
		</comp>
		<comp name="--.HNZ" depth="0.0">
			<acc value="0.0284402629728637" flag="0"/>
			<vel value="0.00807644494183463" flag="0"/>
			<psa03 value="0.0315879978724999" flag="0"/>
			<psa10 value="0.00558516965215886" flag="0"/>
			<psa30 value="0.000421919008410303" flag="0"/>
		</comp>
	</station>
	<station code="LAM2" name="LAM2" netid="HI" source="ITSAK Strong Motion Network" insttype="" lat="38.90203" lon="22.431301">
		<comp name="--.HNE" depth="0.0">
			<acc value="0.022034587183578" flag="0"/>
			<vel value="0.00967067906008398" flag="0"/>
			<psa03 value="0.0368675782534559" flag="0"/>
			<psa10 value="0.0199809746315878" flag="0"/>
			<psa30 value="0.00158521638048537" flag="0"/>
		</comp>
		<comp name="--.HNN" depth="0.0">
			<acc value="0.0168076920266641" flag="0"/>
			<vel value="0.0113516464592911" flag="0"/>
			<psa03 value="0.0284113012026026" flag="0"/>
			<psa10 value="0.0177863693969616" flag="0"/>
			<psa30 value="0.0012943920374666" flag="0"/>
		</comp>
		<comp name="--.HNZ" depth="0.0">
			<acc value="0.00997616686935485" flag="0"/>
			<vel value="0.0048546286677313" flag="0"/>
			<psa03 value="0.0288587232687853" flag="0"/>
			<psa10 value="0.00721602308339487" flag="0"/>
			<psa30 value="0.000557935316529849" flag="0"/>
		</comp>
	</station>
	<station code="MSL1" name="MSL1" netid="HI" source="ITSAK Strong Motion Network" insttype="" lat="38.3727" lon="21.4243">
		<comp name="--.HNE" depth="0.0">
			<acc value="0.0112381349151864" flag="0"/>
			<vel value="0.0100678167942517" flag="0"/>
			<psa03 value="0.027829652516565" flag="0"/>
			<psa10 value="0.0150763339420928" flag="0"/>
			<psa30 value="0.001221909662745" flag="0"/>
		</comp>
		<comp name="--.HNN" depth="0.0">
			<acc value="0.0100560042648937" flag="0"/>
			<vel value="0.010209367261685" flag="0"/>
			<psa03 value="0.0325275842114836" flag="0"/>
			<psa10 value="0.0125313972296456" flag="0"/>
			<psa30 value="0.00158297927015445" flag="0"/>
		</comp>
		<comp name="--.HNZ" depth="0.0">
			<acc value="0.00610760655591183" flag="0"/>
			<vel value="0.0047829602676528" flag="0"/>
			<psa03 value="0.0155255456965403" flag="0"/>
			<psa10 value="0.00839587507191869" flag="0"/>
			<psa30 value="0.000386572665181868" flag="0"/>
		</comp>
	</station>
	<station code="NPS1" name="NPS1" netid="HI" source="ITSAK Strong Motion Network" insttype="" lat="36.51263" lon="23.06248">
		<comp name="--.HNE" depth="0.0">
			<acc value="0.0169532738501452" flag="0"/>
			<vel value="0.0143724397645834" flag="0"/>
			<psa03 value="0.053019514842652" flag="0"/>
			<psa10 value="0.00730863945109469" flag="0"/>
			<psa30 value="0.000939138916917524" flag="0"/>
		</comp>
		<comp name="--.HNN" depth="0.0">
			<acc value="0.0300402762731799" flag="0"/>
			<vel value="0.0161376476790509" flag="0"/>
			<psa03 value="0.0734667032672022" flag="0"/>
			<psa10 value="0.0141864114524554" flag="0"/>
			<psa30 value="0.000753458759451696" flag="0"/>
		</comp>
		<comp name="--.HNZ" depth="0.0">
			<acc value="0.0212135241684995" flag="0"/>
			<vel value="0.00753423810800392" flag="0"/>
			<psa03 value="0.030782638153371" flag="0"/>
			<psa10 value="0.00828715150983629" flag="0"/>
			<psa30 value="0.000365991250137463" flag="0"/>
		</comp>
	</station>
	<station code="PYL1" name="PYL1" netid="HI" source="ITSAK Strong Motion Network" insttype="" lat="36.914188" lon="21.695161">
		<comp name="--.HNE" depth="0.0">
			<acc value="0.00286904398928486" flag="0"/>
			<vel value="0.00359048465769529" flag="0"/>
			<psa03 value="0.00545854920742915" flag="0"/>
			<psa10 value="0.00604825149065798" flag="0"/>
			<psa30 value="0.00080178034259943" flag="0"/>
		</comp>
		<comp name="--.HNN" depth="0.0">
			<acc value="0.00235150346822669" flag="0"/>
			<vel value="0.0044155848829991" flag="0"/>
			<psa03 value="0.00774040174496101" flag="0"/>
			<psa10 value="0.00546436569428953" flag="0"/>
			<psa30 value="0.000688582559855202" flag="0"/>
		</comp>
		<comp name="--.HNZ" depth="0.0">
			<acc value="0.00252477303774935" flag="0"/>
			<vel value="0.00284952744731084" flag="0"/>
			<psa03 value="0.00487690052139162" flag="0"/>
			<psa10 value="0.00405498618581397" flag="0"/>
			<psa30 value="0.0010742603809047" flag="0"/>
		</comp>
	</station>
	<station code="SKO1" name="SKO1" netid="HI" source="ITSAK Strong Motion Network" insttype="" lat="39.123383" lon="23.728705">
		<comp name="--.HNE" depth="0.0">
			<acc value="0.0198371147138342" flag="0"/>
			<vel value="0.0109875670338318" flag="0"/>
			<psa03 value="0.043131487180014" flag="0"/>
			<psa10 value="0.00875426014693105" flag="0"/>
			<psa30 value="0.000787462836481583" flag="0"/>
		</comp>
		<comp name="--.HNN" depth="0.0">
			<acc value="0.0169991364965825" flag="0"/>
			<vel value="0.0103535446340407" flag="0"/>
			<psa03 value="0.0641603242906017" flag="0"/>
			<psa10 value="0.00865359018203994" flag="0"/>
			<psa30 value="0.00103488723908063" flag="0"/>
		</comp>
		<comp name="--.HNZ" depth="0.0">
			<acc value="0.0108685272634769" flag="0"/>
			<vel value="0.00509018931608218" flag="0"/>
			<psa03 value="0.0340935614431231" flag="0"/>
			<psa10 value="0.00606435868504055" flag="0"/>
			<psa30 value="0.00108052428983126" flag="0"/>
		</comp>
	</station>
	<station code="SKY1" name="SKY1" netid="HI" source="ITSAK Strong Motion Network" insttype="" lat="38.904483" lon="24.564572">
		<comp name="--.HNE" depth="0.0">
			<acc value="0.0328830411924247" flag="0"/>
			<vel value="0.0129029503207241" flag="0"/>
			<psa03 value="0.0814308160452546" flag="0"/>
			<psa10 value="0.00705092434097344" flag="0"/>
			<psa30 value="0.00110379023727276" flag="0"/>
		</comp>
		<comp name="--.HNN" depth="0.0">
			<acc value="0.0356409515856484" flag="0"/>
			<vel value="0.0228831963589621" flag="0"/>
			<psa03 value="0.103891403767627" flag="0"/>
			<psa10 value="0.0100468624961329" flag="0"/>
			<psa30 value="0.00148812579212372" flag="0"/>
		</comp>
		<comp name="--.HNZ" depth="0.0">
			<acc value="0.029439939705802" flag="0"/>
			<vel value="0.00986738222035736" flag="0"/>
			<psa03 value="0.0565541491654955" flag="0"/>
			<psa10 value="0.00932203874891692" flag="0"/>
			<psa30 value="0.00112213454198626" flag="0"/>
		</comp>
	</station>
	<station code="VOL2" name="VOL2" netid="HI" source="ITSAK Strong Motion Network" insttype="" lat="39.366" lon="22.9506">
		<comp name="--.HNE" depth="0.0">
			<acc value="0.0150594947997523" flag="0"/>
			<vel value="0.0086863361067525" flag="0"/>
			<psa03 value="0.0387914931380416" flag="0"/>
			<psa10 value="0.00515430220242491" flag="0"/>
			<psa30 value="0.00116463963827361" flag="0"/>
		</comp>
		<comp name="--.HNN" depth="0.0">
			<acc value="0.0117563427270053" flag="0"/>
			<vel value="0.00888849833405956" flag="0"/>
			<psa03 value="0.0395968528571705" flag="0"/>
			<psa10 value="0.00643482415583984" flag="0"/>
			<psa30 value="0.000944507981711717" flag="0"/>
		</comp>
		<comp name="--.HNZ" depth="0.0">
			<acc value="0.010022396564063" flag="0"/>
			<vel value="0.00431475517551223" flag="0"/>
			<psa03 value="0.0178073982340722" flag="0"/>
			<psa10 value="0.00498517666140784" flag="0"/>
			<psa30 value="0.000557040472397483" flag="0"/>
		</comp>
	</station>
	<station code="ATHP" name="ATHP" netid="HL" source="National Observatory of Athens Seismic Network" insttype="" lat="38.000799" lon="23.773487">
		<comp name="00.HNE" depth="0.0">
			<acc value="0.14170911396089" flag="0"/>
			<vel value="0.0377925964959654" flag="0"/>
			<psa03 value="0.139237746996062" flag="0"/>
			<psa10 value="0.0324076750977466" flag="0"/>
			<psa30 value="0.00165188226834659" flag="0"/>
		</comp>
		<comp name="00.HNN" depth="0.0">
			<acc value="0.116925447952316" flag="0"/>
			<vel value="0.0333588554965794" flag="0"/>
			<psa03 value="0.155837105651441" flag="0"/>
			<psa10 value="0.0271728369234088" flag="0"/>
			<psa30 value="0.0016102720161916" flag="0"/>
		</comp>
		<comp name="00.HNZ" depth="0.0">
			<acc value="0.127477735638619" flag="0"/>
			<vel value="0.0284579762527075" flag="0"/>
			<psa03 value="0.134137135441579" flag="0"/>
			<psa10 value="0.0131998457965225" flag="0"/>
			<psa30 value="0.00148723094799135" flag="0"/>
		</comp>
	</station>
	<station code="DLFA" name="DLFA" netid="HL" source="National Observatory of Athens Seismic Network" insttype="" lat="38.47836" lon="22.49583">
		<comp name="00.HNE" depth="0.0">
			<acc value="0.0820228326112138" flag="0"/>
			<vel value="0.037558118523478" flag="0"/>
			<psa03 value="0.134584557507761" flag="0"/>
			<psa10 value="0.0205245924419998" flag="0"/>
			<psa30 value="0.00163130085330219" flag="0"/>
		</comp>
		<comp name="00.HNN" depth="0.0">
			<acc value="0.118622620871458" flag="0"/>
			<vel value="0.0344951776746273" flag="0"/>
			<psa03 value="0.176060583042899" flag="0"/>
			<psa10 value="0.0173031535654842" flag="0"/>
			<psa30 value="0.00122996325993629" flag="0"/>
		</comp>
		<comp name="00.HNZ" depth="0.0">
			<acc value="0.0860932185756261" flag="0"/>
			<vel value="0.0191130992460488" flag="0"/>
			<psa03 value="0.107247069263997" flag="0"/>
			<psa10 value="0.00973277220567265" flag="0"/>
			<psa30 value="0.000680528962663913" flag="0"/>
		</comp>
	</station>
	<station code="ITM" name="ITM" netid="HL" source="National Observatory of Athens Seismic Network" insttype="" lat="37.17872" lon="21.92522">
		<comp name="--.HNE" depth="0.0">
			<acc value="0.0106229307349644" flag="0"/>
			<vel value="0.00834921572213791" flag="0"/>
			<psa03 value="0.0225948143422272" flag="0"/>
			<psa10 value="0.00641469016286162" flag="0"/>
			<psa30 value="0.00095166673477064" flag="0"/>
		</comp>
		<comp name="--.HNN" depth="0.0">
			<acc value="0.00952585002794186" flag="0"/>
			<vel value="0.00732526716288569" flag="0"/>
			<psa03 value="0.0177179138208356" flag="0"/>
			<psa10 value="0.00695428117467798" flag="0"/>
			<psa30 value="0.000647867151832575" flag="0"/>
		</comp>
		<comp name="--.HNZ" depth="0.0">
			<acc value="0.00673247439606716" flag="0"/>
			<vel value="0.00550180979396218" flag="0"/>
			<psa03 value="0.0144069905310835" flag="0"/>
			<psa10 value="0.00624556462184455" flag="0"/>
			<psa30 value="0.00126754671349564" flag="0"/>
		</comp>
	</station>
	<station code="KYMI" name="KYMI" netid="HL" source="National Observatory of Athens Seismic Network" insttype="" lat="38.633147" lon="24.100138">
		<comp name="--.HNE" depth="1.0">
			<acc value="0.0645311688541664" flag="0"/>
			<vel value="0.0233291569621939" flag="0"/>
			<psa03 value="0.143622483244652" flag="0"/>
			<psa10 value="0.0195178927930887" flag="0"/>
			<psa30 value="0.00186217063945247" flag="0"/>
		</comp>
		<comp name="--.HNN" depth="1.0">
			<acc value="0.0555807283001456" flag="0"/>
			<vel value="0.0268252981724612" flag="0"/>
			<psa03 value="0.126262507076763" flag="0"/>
			<psa10 value="0.0282318849540633" flag="0"/>
			<psa30 value="0.00145591140335856" flag="0"/>
		</comp>
		<comp name="--.HNZ" depth="1.0">
			<acc value="0.0545256718089034" flag="0"/>
			<vel value="0.0202070302424878" flag="0"/>
			<psa03 value="0.105054701139702" flag="0"/>
			<psa10 value="0.015289754267662" flag="0"/>
			<psa30 value="0.00126888897969419" flag="0"/>
		</comp>
	</station>
	<station code="MNVA" name="MNVA" netid="HL" source="National Observatory of Athens Seismic Network" insttype="" lat="36.68709" lon="23.03734">
		<comp name="00.HNE" depth="0.0">
			<acc value="0.00602098692898833" flag="0"/>
			<vel value="0.00543258613113577" flag="0"/>
			<psa03 value="0.01449647494432" flag="0"/>
			<psa10 value="0.00825896391966678" flag="0"/>
			<psa30 value="0.000941376027248438" flag="0"/>
		</comp>
		<comp name="00.HNN" depth="0.0">
			<acc value="0.0061911670302039" flag="0"/>
			<vel value="0.00515197090975002" flag="0"/>
			<psa03 value="0.0130647243325354" flag="0"/>
			<psa10 value="0.00504557864034251" flag="0"/>
			<psa30 value="0.00077717212895938" flag="0"/>
		</comp>
		<comp name="00.HNZ" depth="0.0">
			<acc value="0.00472429377978321" flag="0"/>
			<vel value="0.00325816370008462" flag="0"/>
			<psa03 value="0.0165098742421423" flag="0"/>
			<psa10 value="0.0044294784552089" flag="0"/>
			<psa30 value="0.000532879680823616" flag="0"/>
		</comp>
	</station>
