<?xml version="1.0" encoding="UTF-8" standalone="yes"?>
<!DOCTYPE earthquake SYSTEM "stationlist.dtd">
<stationlist created="" xmlns="ch.ethz.sed.shakemap.usgs.xml">
  <station code="ARPRA" name="ARPRA" netid="KO" insttype="CMG-5T" lat="39.0929" lon="38.3356">
    <comp name="--.HNE">
      <acc value="0.0185180179" flag="0"/>
      <vel value="0.0103157129" flag="0"/>
      <psa03 value="0.0362862597" flag="0"/>
      <psa10 value="0.0066023656" flag="0"/>
      <psa30 value="0.0007596452" flag="0"/>
    </comp>
    <comp name="--.HNN">
      <acc value="0.0149876108" flag="0"/>
      <vel value="0.0066167183" flag="0"/>
      <psa03 value="0.0456441262" flag="0"/>
      <psa10 value="0.0064788759" flag="0"/>
      <psa30 value="0.0004404982" flag="0"/>
    </comp>
  </station>
  <station code="DARE" name="DARE" netid="KO" insttype="CMG-3ESP" lat="38.5712" lon="37.4832">
    <comp name="--.HHE">
      <acc value="0.0214830585" flag="0"/>
      <vel value="0.0093235171" flag="0"/>
      <psa03 value="0.0303409507" flag="0"/>
      <psa10 value="0.0139783954" flag="0"/>
      <psa30 value="0.0006434088" flag="0"/>
    </comp>
  </station>
  <station code="GAZ" name="GAZ" netid="KO" insttype="CMG-3T" lat="37.1721" lon="37.2096">
    <comp name="--.HHZ">
      <acc value="0.0056666988" flag="0"/>
      <vel value="0.0026025987" flag="0"/>
      <psa03 value="0.0119199888" flag="0"/>
      <psa10 value="0.0026323671" flag="0"/>
      <psa30 value="0.0002379655" flag="0"/>
    </comp>
  </station>
  <station code="KMRS" name="KMRS" netid="KO" insttype="CMG-3T" lat="37.5053" lon="36.9">
    <comp name="--.HHE">
      <acc value="0.0080871698" flag="0"/>
      <vel value="0.0038050851" flag="0"/>
      <psa03 value="0.0194114517" flag="0"/>
      <psa10 value="0.0040053478" flag="0"/>
      <psa30 value="0.0003695781" flag="0"/>
    </comp>
    <comp name="--.HHN">
      <acc value="0.0114748050" flag="0"/>
      <vel value="0.0072679700" flag="0"/>
      <psa03 value="0.0298987972" flag="0"/>
      <psa10 value="0.0043433228" flag="0"/>
      <psa30 value="0.0005884575" flag="0"/>
    </comp>
    <comp name="--.HHZ">
      <acc value="0.0079547958" flag="0"/>
      <vel value="0.0031022739" flag="0"/>
      <psa03 value="0.0127428211" flag="0"/>
      <psa10 value="0.0027983048" flag="0"/>
      <psa30 value="0.0002572105" flag="0"/>
    </comp>
  </station>
</stationlist>
