<?xml version="1.0" encoding="UTF-8" standalone="yes"?>
<!DOCTYPE earthquake SYSTEM "stationlist.dtd">
<stationlist created="" xmlns="ch.ethz.sed.shakemap.usgs.xml">
  <station code="AKDM" name="AKDM" netid="KO" insttype="30s," lat="38.3285" lon="42.98">
    <comp name="--.HHN">
      <acc value="0.0149433321" flag="0"/>
      <vel value="0.0149802231" flag="0"/>
      <psa03 value="0.0417824999" flag="0"/>
      <psa10 value="0.0171699032" flag="0"/>
      <psa30 value="0.0090624356" flag="0"/>
    </comp>
    <comp name="--.HHE">
      <acc value="0.0167028114" flag="0"/>
      <vel value="0.0166912280" flag="0"/>
      <psa03 value="0.0615219566" flag="0"/>
      <psa10 value="0.0272449282" flag="0"/>
      <psa30 value="0.0049169488" flag="0"/>
    </comp>
    <comp name="--.HHZ">
      <acc value="0.0140097939" flag="0"/>
      <vel value="0.0120914428" flag="0"/>
      <psa03 value="0.0518856135" flag="0"/>
      <psa10 value="0.0126857145" flag="0"/>
      <psa30 value="0.0037756694" flag="0"/>
    </comp>
  </station>
  <station code="ERCV" name="ERCV" netid="KO" insttype="CMG-5T" lat="39.0198" lon="43.3381">
    <comp name="--.HNN">
      <acc value="0.8488864058" flag="0"/>
      <vel value="0.4695788562" flag="0"/>
      <psa03 value="1.7283218317" flag="0"/>
      <psa10 value="0.5057440034" flag="0"/>
      <psa30 value="0.1382438924" flag="0"/>
    </comp>
    <comp name="--.HNZ">
      <acc value="0.7294857620" flag="0"/>
      <vel value="0.2761331285" flag="0"/>
      <psa03 value="1.1837656197" flag="0"/>
      <psa10 value="0.3398761560" flag="0"/>
      <psa30 value="0.0277619530" flag="0"/>
    </comp>
    <comp name="--.HNE">
      <acc value="1.0460062946" flag="0"/>
      <vel value="0.4343953238" flag="0"/>
      <psa03 value="2.1863348535" flag="0"/>
      <psa10 value="0.5111298204" flag="0"/>
      <psa30 value="0.0705134224" flag="0"/>
    </comp>
  </station>
  <station code="GURO" name="GURO" netid="KO" insttype="120s," lat="38.5509" lon="42.0322">
    <comp name="--.HHN">
      <acc value="0.0327125554" flag="0"/>
      <vel value="0.0249913487" flag="0"/>
      <psa03 value="0.1184377080" flag="0"/>
      <psa10 value="0.0181345831" flag="0"/>
      <psa30 value="0.0014379289" flag="0"/>
    </comp>
    <comp name="--.HHE">
      <acc value="0.0275922773" flag="0"/>
      <vel value="0.0151758453" flag="0"/>
      <psa03 value="0.1000398507" flag="0"/>
      <psa10 value="0.0145045646" flag="0"/>
      <psa30 value="0.0011090990" flag="0"/>
    </comp>
    <comp name="--.HHZ">
      <acc value="0.0388586546" flag="0"/>
      <vel value="0.0183636067" flag="0"/>
      <psa03 value="0.1240401448" flag="0"/>
      <psa10 value="0.0124303538" flag="0"/>
      <psa30 value="0.0009454567" flag="0"/>
    </comp>
  </station>
  <station code="TASB" name="TASB" netid="KO" insttype="120s," lat="39.9839" lon="44.2384">
    <comp name="--.HHE">
      <acc value="0.0069724037" flag="0"/>
      <vel value="0.0151581925" flag="0"/>
      <psa03 value="0.0111642664" flag="0"/>
      <psa10 value="0.0149386297" flag="0"/>
      <psa30 value="0.0069237935" flag="0"/>
    </comp>
    <comp name="--.HHZ">
      <acc value="0.0030793695" flag="0"/>
      <vel value="0.0066195500" flag="0"/>
      <psa03 value="0.0081578143" flag="0"/>
      <psa10 value="0.0063745661" flag="0"/>
      <psa30 value="0.0038632364" flag="0"/>
    </comp>
    <comp name="--.HHN">
      <acc value="0.0052637409" flag="0"/>
      <vel value="0.0095669524" flag="0"/>
      <psa03 value="0.0106185247" flag="0"/>
      <psa10 value="0.0128224251" flag="0"/>
      <psa30 value="0.0042720510" flag="0"/>
    </comp>
  </station>
</stationlist>
