<?xml version="1.0" encoding="UTF-8" standalone="yes"?>
<!DOCTYPE earthquake SYSTEM "stationlist.dtd">
<stationlist created="" xmlns="ch.ethz.sed.shakemap.usgs.xml">
  <station code="ADA" name="ADA" netid="VI" insttype="CMG-3ESP" lat="65.0188" lon="-15.5745">
    <comp name="--.HHZ">
      <acc value="0.0182477817" flag="0"/>
      <vel value="0.0793872617" flag="0"/>
      <psa03 value="0.0186135416" flag="0"/>
      <psa10 value="0.0308932258" flag="0"/>
      <psa30 value="0.0539643748" flag="0"/>
    </comp>
    <comp name="--.HHN">
      <acc value="0.0260937078" flag="0"/>
      <vel value="0.1187766451" flag="0"/>
      <psa03 value="0.0270641161" flag="0"/>
      <psa10 value="0.0436486093" flag="0"/>
      <psa30 value="0.0631412249" flag="0"/>
    </comp>
    <comp name="--.HHE">
      <acc value="0.0184797259" flag="0"/>
      <vel value="0.0785553334" flag="0"/>
      <psa03 value="0.0189108564" flag="0"/>
      <psa10 value="0.0312148793" flag="0"/>
      <psa30 value="0.0706216908" flag="0"/>
    </comp>
  </station>
  <station code="SKR" name="SKR" netid="VI" insttype="LE-3D/5s" lat="64.5601" lon="-18.3865">
    <comp name="--.HHE">
      <acc value="0.4506869981" flag="0"/>
      <vel value="1.1398914078" flag="0"/>
      <psa03 value="0.5020178593" flag="0"/>
      <psa10 value="0.7662628457" flag="0"/>
      <psa30 value="0.6654234633" flag="0"/>
    </comp>
    <comp name="--.HHN">
      <acc value="0.4095674990" flag="0"/>
      <vel value="1.3785912243" flag="0"/>
      <psa03 value="0.4235637490" flag="0"/>
      <psa10 value="0.6151315720" flag="0"/>
      <psa30 value="0.5725667081" flag="0"/>
    </comp>
    <comp name="--.HHZ">
      <acc value="0.2857739790" flag="0"/>
      <vel value="0.9582066360" flag="0"/>
      <psa03 value="0.4065178843" flag="0"/>
      <psa10 value="0.7908048781" flag="0"/>
      <psa30 value="0.7500744888" flag="0"/>
    </comp>
  </station>
</stationlist>
