<?xml version="1.0" encoding="UTF-8" standalone="yes"?>
<!DOCTYPE earthquake SYSTEM "stationlist.dtd">
<stationlist created="" xmlns="ch.ethz.sed.shakemap.usgs.xml">
  <station code="AMPE" name="AMPE" netid="HA" insttype="1s-100Hz," lat="38.3015" lon="23.2688">
    <comp name="--.HHE">
      <acc value="0.1096444514" flag="0"/>
      <vel value="0.0841944476" flag="0"/>
      <psa03 value="0.2875925989" flag="0"/>
      <psa10 value="0.0812902170" flag="0"/>
      <psa30 value="0.0052658739" flag="0"/>
    </comp>
    <comp name="--.HHN">
      <acc value="0.1229414156" flag="0"/>
      <vel value="0.1155345683" flag="0"/>
      <psa03 value="0.2238081032" flag="0"/>
      <psa10 value="0.1613335192" flag="0"/>
      <psa30 value="0.0075342892" flag="0"/>
    </comp>
    <comp name="--.HHZ">
      <acc value="0.0540097884" flag="0"/>
      <vel value="0.0321845431" flag="0"/>
      <psa03 value="0.1206711006" flag="0"/>
      <psa10 value="0.0366293209" flag="0"/>
      <psa30 value="0.0021923242" flag="0"/>
    </comp>
  </station>
  <station code="ANTK" name="ANTK" netid="HA" insttype="25" lat="38.3605" lon="22.6385">
    <comp name="--.HHN">
      <acc value="0.0013103261" flag="0"/>
      <vel value="0.0007777326" flag="0"/>
      <psa03 value="0.0024385871" flag="0"/>
      <psa10 value="0.0006423391" flag="0"/>
      <psa30 value="0.0000301891" flag="0"/>
    </comp>
    <comp name="--.HHZ">
      <acc value="0.0324825054" flag="0"/>
      <vel value="0.0223162408" flag="0"/>
      <psa03 value="0.0383084198" flag="0"/>
      <psa10 value="0.0308997192" flag="0"/>
      <psa30 value="0.0020249423" flag="0"/>
    </comp>
    <comp name="--.HHE">
      <acc value="0.0487281455" flag="0"/>
      <vel value="0.0314832337" flag="0"/>
      <psa03 value="0.0928765822" flag="0"/>
      <psa10 value="0.0210931172" flag="0"/>
      <psa30 value="0.0017365416" flag="0"/>
    </comp>
  </station>
  <station code="ATAL" name="ATAL" netid="HA" insttype="120s," lat="38.6926" lon="23.0213">
    <comp name="--.HHE">
      <acc value="0.2102044491" flag="0"/>
      <vel value="0.0695557988" flag="0"/>
      <psa03 value="0.3392204400" flag="0"/>
      <psa10 value="0.0525434903" flag="0"/>
      <psa30 value="0.0046647114" flag="0"/>
    </comp>
    <comp name="--.HHZ">
      <acc value="0.2396076986" flag="0"/>
      <vel value="0.0514913781" flag="0"/>
      <psa03 value="0.2906786703" flag="0"/>
      <psa10 value="0.0404093227" flag="0"/>
      <psa30 value="0.0053663875" flag="0"/>
    </comp>
    <comp name="--.HHN">
      <acc value="0.2367366863" flag="0"/>
      <vel value="0.0899946338" flag="0"/>
      <psa03 value="0.3154762299" flag="0"/>
      <psa10 value="0.0753157488" flag="0"/>
      <psa30 value="0.0045274346" flag="0"/>
    </comp>
  </station>
  <station code="ATHU" name="ATHU" netid="HA" insttype="60s," lat="37.9665" lon="23.7845">
    <comp name="--.HHE">
      <acc value="0.0423097115" flag="0"/>
      <vel value="0.0120610952" flag="0"/>
      <psa03 value="0.0362862512" flag="0"/>
      <psa10 value="0.0124082035" flag="0"/>
      <psa30 value="0.0016865424" flag="0"/>
    </comp>
    <comp name="--.HHN">
      <acc value="0.0273656504" flag="0"/>
      <vel value="0.0094033562" flag="0"/>
      <psa03 value="0.0359282863" flag="0"/>
      <psa10 value="0.0109672159" flag="0"/>
      <psa30 value="0.0020227269" flag="0"/>
    </comp>
    <comp name="--.HHZ">
      <acc value="0.0282851063" flag="0"/>
      <vel value="0.0088705195" flag="0"/>
      <psa03 value="0.0301476668" flag="0"/>
      <psa10 value="0.0128186276" flag="0"/>
      <psa30 value="0.0022572143" flag="0"/>
    </comp>
  </station>
  <station code="AXAR" name="AXAR" netid="HA" insttype="Horizon,120s,1200" lat="38.7664" lon="22.659">
    <comp name="--.HHZ">
      <acc value="0.1546409816" flag="0"/>
      <vel value="0.0527396942" flag="0"/>
      <psa03 value="0.4465315263" flag="0"/>
      <psa10 value="0.0318931842" flag="0"/>
      <psa30 value="0.0022498606" flag="0"/>
    </comp>
    <comp name="--.HHN">
      <acc value="0.2250493777" flag="0"/>
      <vel value="0.0987379662" flag="0"/>
      <psa03 value="0.7001887745" flag="0"/>
      <psa10 value="0.0486592182" flag="0"/>
      <psa30 value="0.0043203531" flag="0"/>
    </comp>
    <comp name="--.HHE">
      <acc value="0.2484056747" flag="0"/>
      <vel value="0.1009203774" flag="0"/>
      <psa03 value="0.7610691248" flag="0"/>
      <psa10 value="0.0617791651" flag="0"/>
      <psa30 value="0.0041299481" flag="0"/>
    </comp>
  </station>
  <station code="DOMV" name="DOMV" netid="HA" insttype="60" lat="38.2569" lon="22.9795">
    <comp name="--.HHN">
      <acc value="0.2857020012" flag="0"/>
      <vel value="0.0807338135" flag="0"/>
      <psa03 value="0.4754110036" flag="0"/>
      <psa10 value="0.0536913342" flag="0"/>
      <psa30 value="0.0063287434" flag="0"/>
    </comp>
    <comp name="--.HHE">
      <acc value="0.2501713165" flag="0"/>
      <vel value="0.1103464387" flag="0"/>
      <psa03 value="0.6525634873" flag="0"/>
      <psa10 value="0.0733033468" flag="0"/>
      <psa30 value="0.0044311258" flag="0"/>
    </comp>
    <comp name="--.HHZ">
      <acc value="0.1284454442" flag="0"/>
      <vel value="0.0367848001" flag="0"/>
      <psa03 value="0.2562375831" flag="0"/>
      <psa10 value="0.0410286983" flag="0"/>
      <psa30 value="0.0024638445" flag="0"/>
    </comp>
  </station>
  <station code="ERTR" name="ERTR" netid="HA" insttype="Horizon,120s,1200" lat="38.4066" lon="23.7865">
    <comp name="--.HHE">
      <acc value="0.0663387046" flag="0"/>
      <vel value="0.0357990409" flag="0"/>
      <psa03 value="0.0937688992" flag="0"/>
      <psa10 value="0.0319202011" flag="0"/>
      <psa30 value="0.0023143611" flag="0"/>
    </comp>
    <comp name="--.HHN">
      <acc value="0.0600460401" flag="0"/>
      <vel value="0.0360726782" flag="0"/>
      <psa03 value="0.0972732853" flag="0"/>
      <psa10 value="0.0265400452" flag="0"/>
      <psa30 value="0.0037642816" flag="0"/>
    </comp>
    <comp name="--.HHZ">
      <acc value="0.0825181253" flag="0"/>
      <vel value="0.0234474369" flag="0"/>
      <psa03 value="0.0547515028" flag="0"/>
      <psa10 value="0.0161757436" flag="0"/>
      <psa30 value="0.0020859273" flag="0"/>
    </comp>
  </station>
  <station code="KIAS" name="KIAS" netid="HA" insttype="DC" lat="37.9875" lon="22.7543">
    <comp name="--.HNE">
      <acc value="0.0811974556" flag="0"/>
      <vel value="0.0484026260" flag="0"/>
      <psa03 value="0.1491839337" flag="0"/>
      <psa10 value="0.0530262075" flag="0"/>
      <psa30 value="0.0074249042" flag="0"/>
    </comp>
    <comp name="--.HNZ">
      <acc value="0.0401893918" flag="0"/>
      <vel value="0.0306938941" flag="0"/>
      <psa03 value="0.1487106547" flag="0"/>
      <psa10 value="0.0366518631" flag="0"/>
      <psa30 value="0.0034113579" flag="0"/>
    </comp>
    <comp name="--.HNN">
      <acc value="0.0933436488" flag="0"/>
      <vel value="0.0694524080" flag="0"/>
      <psa03 value="0.2852467096" flag="0"/>
      <psa10 value="0.0636962936" flag="0"/>
      <psa30 value="0.0061857965" flag="0"/>
    </comp>
  </station>
  <station code="LOUT" name="LOUT" netid="HA" insttype="30" lat="37.9879" lon="22.9743">
    <comp name="--.HHN">
      <acc value="0.0708217595" flag="0"/>
      <vel value="0.0402619756" flag="0"/>
      <psa03 value="0.2554118278" flag="0"/>
      <psa10 value="0.0406900600" flag="0"/>
      <psa30 value="0.0064978072" flag="0"/>
    </comp>
    <comp name="--.HHZ">
      <acc value="0.0508515516" flag="0"/>
      <vel value="0.0239623928" flag="0"/>
      <psa03 value="0.0988853940" flag="0"/>
      <psa10 value="0.0314045348" flag="0"/>
      <psa30 value="0.0025154636" flag="0"/>
    </comp>
    <comp name="--.HHE">
      <acc value="0.0892831978" flag="0"/>
      <vel value="0.0355172005" flag="0"/>
      <psa03 value="0.2909583610" flag="0"/>
      <psa10 value="0.0408982623" flag="0"/>
      <psa30 value="0.0028348772" flag="0"/>
    </comp>
  </station>
  <station code="MDRA" name="MDRA" netid="HA" insttype="60" lat="38.0606" lon="23.4662">
    <comp name="--.HHE">
      <acc value="0.0368517301" flag="0"/>
      <vel value="0.0287539603" flag="0"/>
      <psa03 value="0.0986290527" flag="0"/>
      <psa10 value="0.0452183674" flag="0"/>
      <psa30 value="0.0024673319" flag="0"/>
    </comp>
    <comp name="--.HHN">
      <acc value="0.0434120143" flag="0"/>
      <vel value="0.0384127214" flag="0"/>
      <psa03 value="0.1453721305" flag="0"/>
      <psa10 value="0.0426007808" flag="0"/>
      <psa30 value="0.0034411849" flag="0"/>
    </comp>
    <comp name="--.HHZ">
      <acc value="0.0376922644" flag="0"/>
      <vel value="0.0191726109" flag="0"/>
      <psa03 value="0.0849827055" flag="0"/>
      <psa10 value="0.0348521049" flag="0"/>
      <psa30 value="0.0044188268" flag="0"/>
    </comp>
  </station>
  <station code="MRKA" name="MRKA" netid="HA" insttype="Horizon,120s,1200" lat="38.7047" lon="23.5863">
    <comp name="--.HHE">
      <acc value="1.0826511503" flag="0"/>
      <vel value="0.1949466760" flag="0"/>
      <psa03 value="0.3766414098" flag="0"/>
      <psa10 value="0.0856079768" flag="0"/>
      <psa30 value="0.0064142329" flag="0"/>
    </comp>
    <comp name="--.HHN">
      <acc value="0.5856124901" flag="0"/>
      <vel value="0.1207732732" flag="0"/>
      <psa03 value="0.4287206055" flag="0"/>
      <psa10 value="0.1179472899" flag="0"/>
      <psa30 value="0.0074609110" flag="0"/>
    </comp>
    <comp name="--.HHZ">
      <acc value="0.4064180865" flag="0"/>
      <vel value="0.0875609728" flag="0"/>
      <psa03 value="0.1714630025" flag="0"/>
      <psa10 value="0.0715281470" flag="0"/>
      <psa30 value="0.0056228034" flag="0"/>
    </comp>
  </station>
  <station code="MRTH" name="MRTH" netid="HA" insttype="S100," lat="38.1225" lon="23.9409">
    <comp name="--.HHN">
      <acc value="0.0688648653" flag="0"/>
      <vel value="0.0408752238" flag="0"/>
      <psa03 value="0.1070389967" flag="0"/>
      <psa10 value="0.0906768750" flag="0"/>
      <psa30 value="0.0043342833" flag="0"/>
    </comp>
    <comp name="--.HHZ">
      <acc value="0.0881719585" flag="0"/>
      <vel value="0.0285675567" flag="0"/>
      <psa03 value="0.1209525883" flag="0"/>
      <psa10 value="0.0402093322" flag="0"/>
      <psa30 value="0.0017985237" flag="0"/>
    </comp>
    <comp name="--.HHE">
      <acc value="0.0606381833" flag="0"/>
      <vel value="0.0318432918" flag="0"/>
      <psa03 value="0.1200695289" flag="0"/>
      <psa10 value="0.0490065812" flag="0"/>
      <psa30 value="0.0022049181" flag="0"/>
    </comp>
  </station>
  <station code="PRDM" name="PRDM" netid="HA" insttype="25" lat="38.2804" lon="22.847">
    <comp name="--.HHN">
      <acc value="0.0503221803" flag="0"/>
      <vel value="0.0167887836" flag="0"/>
      <psa03 value="0.0947081013" flag="0"/>
      <psa10 value="0.0202790778" flag="0"/>
      <psa30 value="0.0008587579" flag="0"/>
    </comp>
    <comp name="--.HHE">
      <acc value="0.0642533164" flag="0"/>
      <vel value="0.0222615552" flag="0"/>
      <psa03 value="0.1737030924" flag="0"/>
      <psa10 value="0.0200900894" flag="0"/>
      <psa30 value="0.0011369433" flag="0"/>
    </comp>
    <comp name="--.HHZ">
      <acc value="0.0267611769" flag="0"/>
      <vel value="0.0113920498" flag="0"/>
      <psa03 value="0.0934243501" flag="0"/>
      <psa10 value="0.0079535038" flag="0"/>
      <psa30 value="0.0007666005" flag="0"/>
    </comp>
  </station>
  <station code="PSAH" name="PSAH" netid="HA" insttype="25" lat="38.5694" lon="23.6473">
    <comp name="--.HHE">
      <acc value="0.0639755195" flag="0"/>
      <vel value="0.0216507660" flag="0"/>
      <psa03 value="0.0445726012" flag="0"/>
      <psa10 value="0.0368061757" flag="0"/>
      <psa30 value="0.0017219287" flag="0"/>
    </comp>
    <comp name="--.HHZ">
      <acc value="0.0604196816" flag="0"/>
      <vel value="0.0147049203" flag="0"/>
      <psa03 value="0.0253331237" flag="0"/>
      <psa10 value="0.0236205630" flag="0"/>
      <psa30 value="0.0011437810" flag="0"/>
    </comp>
    <comp name="--.HHN">
      <acc value="0.0455090483" flag="0"/>
      <vel value="0.0174323552" flag="0"/>
      <psa03 value="0.0439790153" flag="0"/>
      <psa10 value="0.0274663626" flag="0"/>
      <psa30 value="0.0023902284" flag="0"/>
    </comp>
  </station>
  <station code="STFN" name="STFN" netid="HA" insttype="1s-100Hz," lat="38.1766" lon="23.544">
    <comp name="--.HHN">
      <acc value="0.0795448726" flag="0"/>
      <vel value="0.0462075920" flag="0"/>
      <psa03 value="0.1774489310" flag="0"/>
      <psa10 value="0.0485798771" flag="0"/>
      <psa30 value="0.0028003245" flag="0"/>
    </comp>
    <comp name="--.HHE">
      <acc value="0.0579750655" flag="0"/>
      <vel value="0.0438822700" flag="0"/>
      <psa03 value="0.1978749569" flag="0"/>
      <psa10 value="0.0417289436" flag="0"/>
      <psa30 value="0.0036051524" flag="0"/>
    </comp>
    <comp name="--.HHZ">
      <acc value="0.0502678090" flag="0"/>
      <vel value="0.0374801985" flag="0"/>
      <psa03 value="0.1622740578" flag="0"/>
      <psa10 value="0.0289950420" flag="0"/>
      <psa30 value="0.0032911712" flag="0"/>
    </comp>
  </station>
  <station code="THAL" name="THAL" netid="HA" insttype="30" lat="38.0357" lon="22.6634">
    <comp name="--.HHE">
      <acc value="0.0846939651" flag="0"/>
      <vel value="0.0453747624" flag="0"/>
      <psa03 value="0.3113447272" flag="0"/>
      <psa10 value="0.0568228224" flag="0"/>
      <psa30 value="0.0032503547" flag="0"/>
    </comp>
    <comp name="--.HHN">
      <acc value="0.0772562328" flag="0"/>
      <vel value="0.0514762761" flag="0"/>
      <psa03 value="0.3272398205" flag="0"/>
      <psa10 value="0.0608799101" flag="0"/>
      <psa30 value="0.0052365576" flag="0"/>
    </comp>
    <comp name="--.HHZ">
      <acc value="0.0475394060" flag="0"/>
      <vel value="0.0226107221" flag="0"/>
      <psa03 value="0.1354789007" flag="0"/>
      <psa10 value="0.0213757874" flag="0"/>
      <psa30 value="0.0017031682" flag="0"/>
    </comp>
  </station>
  <station code="THIV" name="THIV" netid="HA" insttype="25" lat="38.299" lon="23.332">
    <comp name="--.HHN">
      <acc value="0.0926512732" flag="0"/>
      <vel value="0.0786593546" flag="0"/>
      <psa03 value="0.2305464522" flag="0"/>
      <psa10 value="0.0606036314" flag="0"/>
      <psa30 value="0.0055584520" flag="0"/>
    </comp>
    <comp name="--.HHZ">
      <acc value="0.0703178429" flag="0"/>
      <vel value="0.0416189528" flag="0"/>
      <psa03 value="0.1294520873" flag="0"/>
      <psa10 value="0.0292924979" flag="0"/>
      <psa30 value="0.0027471165" flag="0"/>
    </comp>
    <comp name="--.HHE">
      <acc value="0.0811225572" flag="0"/>
      <vel value="0.0764343334" flag="0"/>
      <psa03 value="0.1847135653" flag="0"/>
      <psa10 value="0.0852525011" flag="0"/>
      <psa30 value="0.0059773332" flag="0"/>
    </comp>
  </station>
  <station code="VILL" name="VILL" netid="HA" insttype="Horizon,120s,1200" lat="38.1642" lon="23.3122">
    <comp name="--.HHE">
      <acc value="0.1150156571" flag="0"/>
      <vel value="0.0934357542" flag="0"/>
      <psa03 value="0.2179014350" flag="0"/>
      <psa10 value="0.1297169025" flag="0"/>
      <psa30 value="0.0077688448" flag="0"/>
    </comp>
    <comp name="--.HHZ">
      <acc value="0.0407785767" flag="0"/>
      <vel value="0.0281017323" flag="0"/>
      <psa03 value="0.1963580329" flag="0"/>
      <psa10 value="0.0338716176" flag="0"/>
      <psa30 value="0.0031871497" flag="0"/>
    </comp>
    <comp name="--.HHN">
      <acc value="0.0919656735" flag="0"/>
      <vel value="0.0688071026" flag="0"/>
      <psa03 value="0.3900812167" flag="0"/>
      <psa10 value="0.0351465711" flag="0"/>
      <psa30 value="0.0041194028" flag="0"/>
    </comp>
  </station>
  <station code="LAM2" name="LAM2" netid="HI" insttype="CMG-5TD,ACCELEROMETER,GURALP" lat="38.902" lon="22.4313">
    <comp name="--.HNE">
      <acc value="0.0325600444" flag="0"/>
      <vel value="0.0170274890" flag="0"/>
      <psa03 value="0.0844017692" flag="0"/>
      <psa10 value="0.0170325763" flag="0"/>
      <psa30 value="0.0022722857" flag="0"/>
    </comp>
    <comp name="--.HNN">
      <acc value="0.0356549204" flag="0"/>
      <vel value="0.0154612831" flag="0"/>
      <psa03 value="0.0752594571" flag="0"/>
      <psa10 value="0.0250626593" flag="0"/>
      <psa30 value="0.0010600959" flag="0"/>
    </comp>
    <comp name="--.HNZ">
      <acc value="0.0267045732" flag="0"/>
      <vel value="0.0114428253" flag="0"/>
      <psa03 value="0.0501439073" flag="0"/>
      <psa10 value="0.0080008708" flag="0"/>
      <psa30 value="0.0015971179" flag="0"/>
    </comp>
  </station>
  <station code="PLN1" name="PLN1" netid="HI" insttype="CMG-5TD,ACCELEROMETER,GURALP" lat="39.998" lon="23.575">
    <comp name="--.HNZ">
      <acc value="0.0424529530" flag="0"/>
      <vel value="0.0120020031" flag="0"/>
      <psa03 value="0.0235200195" flag="0"/>
      <psa10 value="0.0228230781" flag="0"/>
      <psa30 value="0.0016929035" flag="0"/>
    </comp>
    <comp name="--.HNN">
      <acc value="0.0137152987" flag="0"/>
      <vel value="0.0207418448" flag="0"/>
      <psa03 value="0.0361998558" flag="0"/>
      <psa10 value="0.0334877138" flag="0"/>
      <psa30 value="0.0043309599" flag="0"/>
    </comp>
    <comp name="--.HNE">
      <acc value="0.0145874859" flag="0"/>
      <vel value="0.0139116347" flag="0"/>
      <psa03 value="0.0341395295" flag="0"/>
      <psa10 value="0.0350160495" flag="0"/>
      <psa30 value="0.0031861047" flag="0"/>
    </comp>
  </station>
  <station code="SKY1" name="SKY1" netid="HI" insttype="CMG-5TD,ACCELEROMETER,GURALP" lat="38.9045" lon="24.5646">
    <comp name="--.HNE">
      <acc value="0.0407993956" flag="0"/>
      <vel value="0.0145667314" flag="0"/>
      <psa03 value="0.0898560339" flag="0"/>
      <psa10 value="0.0132449505" flag="0"/>
      <psa30 value="0.0012593180" flag="0"/>
    </comp>
    <comp name="--.HNZ">
      <acc value="0.0250693042" flag="0"/>
      <vel value="0.0080270978" flag="0"/>
      <psa03 value="0.0482955579" flag="0"/>
      <psa10 value="0.0085368187" flag="0"/>
      <psa30 value="0.0007826749" flag="0"/>
    </comp>
    <comp name="--.HNN">
      <acc value="0.0432876577" flag="0"/>
      <vel value="0.0206175935" flag="0"/>
      <psa03 value="0.1111728442" flag="0"/>
      <psa10 value="0.0132675272" flag="0"/>
      <psa30 value="0.0010420811" flag="0"/>
    </comp>
  </station>
  <station code="VOL2" name="VOL2" netid="HI" insttype="CMG-5TD,ACCELEROMETER,GURALP" lat="39.366" lon="22.9506">
    <comp name="--.HNN">
      <acc value="0.2741831753" flag="0"/>
      <vel value="0.1585275375" flag="0"/>
      <psa03 value="0.7412873527" flag="0"/>
      <psa10 value="0.1604396527" flag="0"/>
      <psa30 value="0.0072067201" flag="0"/>
    </comp>
    <comp name="--.HNE">
      <acc value="0.3836233877" flag="0"/>
      <vel value="0.1305622677" flag="0"/>
      <psa03 value="0.9029786611" flag="0"/>
      <psa10 value="0.0638698132" flag="0"/>
      <psa30 value="0.0042919350" flag="0"/>
    </comp>
    <comp name="--.HNZ">
      <acc value="0.3733121524" flag="0"/>
      <vel value="0.0666483585" flag="0"/>
      <psa03 value="0.2258706799" flag="0"/>
      <psa10 value="0.0347872912" flag="0"/>
      <psa30 value="0.0025552225" flag="0"/>
    </comp>
  </station>
  <station code="ALNA" name="ALNA" netid="HL" insttype="CMG-5" lat="39.148" lon="23.8667">
    <comp name="00.HNE">
      <acc value="0.0894746813" flag="0"/>
      <vel value="0.0278531233" flag="0"/>
      <psa03 value="0.1310135441" flag="0"/>
      <psa10 value="0.0255807504" flag="0"/>
      <psa30 value="0.0028911357" flag="0"/>
    </comp>
    <comp name="00.HNN">
