<?xml version="1.0" encoding="UTF-8" standalone="yes"?>
<!DOCTYPE earthquake SYSTEM "stationlist.dtd">
<stationlist created="" xmlns="ch.ethz.sed.shakemap.usgs.xml">
  <station code="PSAM" name="PSAM" netid="CL" insttype="CMG40-T" lat="38.3218" lon="22.1842">
    <comp name="00.HHZ">
      <acc value="0.0143372840" flag="0"/>
      <vel value="0.0136825716" flag="0"/>
      <psa03 value="0.0448957214" flag="0"/>
      <psa10 value="0.0164202033" flag="0"/>
      <psa30 value="0.0021254698" flag="0"/>
    </comp>
    <comp name="00.HHE">
      <acc value="0.0307714291" flag="0"/>
      <vel value="0.0204540066" flag="0"/>
      <psa03 value="0.0785386313" flag="0"/>
      <psa10 value="0.0296343336" flag="0"/>
      <psa30 value="0.0035801457" flag="0"/>
    </comp>
    <comp name="00.HHN">
      <acc value="0.0235076441" flag="0"/>
      <vel value="0.0217392004" flag="0"/>
      <psa03 value="0.0614739308" flag="0"/>
      <psa10 value="0.0360217216" flag="0"/>
      <psa30 value="0.0041262285" flag="0"/>
    </comp>
  </station>
  <station code="ROD3" name="ROD3" netid="CL" insttype="CMG40-T" lat="38.3081" lon="21.892">
    <comp name="00.HHE">
      <acc value="0.0360907568" flag="0"/>
      <vel value="0.0181967697" flag="0"/>
      <psa03 value="0.1772903423" flag="0"/>
      <psa10 value="0.0141836048" flag="0"/>
      <psa30 value="0.0014317413" flag="0"/>
    </comp>
    <comp name="00.HHN">
      <acc value="0.0331349392" flag="0"/>
      <vel value="0.0163366015" flag="0"/>
      <psa03 value="0.1554759783" flag="0"/>
      <psa10 value="0.0170830546" flag="0"/>
      <psa30 value="0.0013901109" flag="0"/>
    </comp>
    <comp name="00.HHZ">
      <acc value="0.0139177584" flag="0"/>
      <vel value="0.0087280057" flag="0"/>
      <psa03 value="0.0283763919" flag="0"/>
      <psa10 value="0.0114281715" flag="0"/>
      <psa30 value="0.0006731545" flag="0"/>
    </comp>
  </station>
  <station code="TRIZ" name="TRIZ" netid="CL" insttype="STS-2" lat="38.3654" lon="22.0727">
    <comp name="00.HH2">
      <acc value="0.0353559546" flag="0"/>
      <vel value="0.0175797672" flag="0"/>
      <psa03 value="0.1055499842" flag="0"/>
      <psa10 value="0.0205207023" flag="0"/>
      <psa30 value="0.0023817960" flag="0"/>
    </comp>
    <comp name="00.HHZ">
      <acc value="0.0180331181" flag="0"/>
      <vel value="0.0123868666" flag="0"/>
      <psa03 value="0.0857357807" flag="0"/>
      <psa10 value="0.0195447323" flag="0"/>
      <psa30 value="0.0023272520" flag="0"/>
    </comp>
    <comp name="00.HH3">
      <acc value="0.0320704037" flag="0"/>
      <vel value="0.0233990155" flag="0"/>
      <psa03 value="0.1460710263" flag="0"/>
      <psa10 value="0.0164266982" flag="0"/>
      <psa30 value="0.0020419007" flag="0"/>
    </comp>
  </station>
  <station code="KLV" name="KLV" netid="MN" insttype="" lat="38.0437" lon="22.1504">
    <comp name="--.HHE">
      <acc value="0.0081885361" flag="0"/>
      <vel value="0.0080879719" flag="0"/>
      <psa03 value="0.0200863077" flag="0"/>
      <psa10 value="0.0108102008" flag="0"/>
      <psa30 value="0.0012272475" flag="0"/>
    </comp>
    <comp name="--.HHN">
      <acc value="0.0084473299" flag="0"/>
      <vel value="0.0081055495" flag="0"/>
      <psa03 value="0.0299264228" flag="0"/>
      <psa10 value="0.0124815349" flag="0"/>
      <psa30 value="0.0010998064" flag="0"/>
    </comp>
    <comp name="--.HHZ">
      <acc value="0.0067164976" flag="0"/>
      <vel value="0.0073083343" flag="0"/>
      <psa03 value="0.0188201497" flag="0"/>
      <psa10 value="0.0112153046" flag="0"/>
      <psa30 value="0.0007758909" flag="0"/>
    </comp>
  </station>
  <station code="THL" name="THL" netid="MN" insttype="" lat="39.5647" lon="22.0144">
    <comp name="--.HHE">
      <acc value="0.0063750725" flag="0"/>
      <vel value="0.0051162058" flag="0"/>
      <psa03 value="0.0147092255" flag="0"/>
      <psa10 value="0.0077979888" flag="0"/>
      <psa30 value="0.0012501494" flag="0"/>
    </comp>
    <comp name="--.HHN">
      <acc value="0.0055602926" flag="0"/>
      <vel value="0.0059410566" flag="0"/>
      <psa03 value="0.0115362439" flag="0"/>
      <psa10 value="0.0070478573" flag="0"/>
      <psa30 value="0.0008107097" flag="0"/>
    </comp>
    <comp name="--.HHZ">
      <acc value="0.0057729865" flag="0"/>
      <vel value="0.0060907548" flag="0"/>
      <psa03 value="0.0126709420" flag="0"/>
      <psa10 value="0.0096732304" flag="0"/>
      <psa30 value="0.0008890418" flag="0"/>
    </comp>
  </station>
</stationlist>
