<?xml version="1.0" encoding="UTF-8" standalone="yes"?>
<!DOCTYPE earthquake SYSTEM "stationlist.dtd">
<stationlist created="" xmlns="ch.ethz.sed.shakemap.usgs.xml">
  <station code="PSAM" name="PSAM" netid="CL" insttype="CMG40-T" lat="38.3218" lon="22.1842">
    <comp name="00.HHZ">
      <acc value="0.0143372840" flag="0"/>
      <vel value="0.0136825716" flag="0"/>
      <psa03 value="0.0448957214" flag="0"/>
      <psa10 value="0.0164202033" flag="0"/>
      <psa30 value="0.0021254698" flag="0"/>
    </comp>
    <comp name="00.HHE">
      <acc value="0.0307714291" flag="0"/>
      <vel value="0.0204540066" flag="0"/>
      <psa03 value="0.0785386313" flag="0"/>
      <psa10 value="0.0296343336" flag="0"/>
      <psa30 value="0.0035801457" flag="0"/>
    </comp>
    <comp name="00.HHN">
      <acc value="0.0235076441" flag="0"/>
      <vel value="0.0217392004" flag="0"/>
      <psa03 value="0.0614739308" flag="0"/>
      <psa10 value="0.0360217216" flag="0"/>
      <psa30 value="0.0041262285" flag="0"/>
    </comp>
  </station>
  <station code="ROD3" name="ROD3" netid="CL" insttype="CMG40-T" lat="38.3081" lon="21.892">
    <comp name="00.HHE">
      <acc value="0.0360907568" flag="0"/>
      <vel value="0.0181967697" flag="0"/>
      <psa03 value="0.1772903423" flag="0"/>
      <psa10 value="0.0141836048" flag="0"/>
      <psa30 value="0.0014317413" flag="0"/>
    </comp>
    <comp name="00.HHN">
      <acc value="0.0331349392" flag="0"/>
      <vel value="0.0163366015" flag="0"/>
      <psa03 value="0.1554759783" flag="0"/>
      <psa10 value="0.0170830546" flag="0"/>
      <psa30 value="0.0013901109" flag="0"/>
    </comp>
    <comp name="00.HHZ">
      <acc value="0.0139177584" flag="0"/>
      <vel value="0.0087280057" flag="0"/>
      <psa03 value="0.0283763919" flag="0"/>
      <psa10 value="0.0114281715" flag="0"/>
      <psa30 value="0.0006731545" flag="0"/>
    </comp>
  </station>
  <station code="TRIZ" name="TRIZ" netid="CL" insttype="STS-2" lat="38.3654" lon="22.0727">
    <comp name="00.HH2">
      <acc value="0.0353559546" flag="0"/>
      <vel value="0.0175797672" flag="0"/>
      <psa03 value="0.1055499842" flag="0"/>
      <psa10 value="0.0205207023" flag="0"/>
      <psa30 value="0.0023817960" flag="0"/>
    </comp>
    <comp name="00.HHZ">
      <acc value="0.0180331181" flag="0"/>
      <vel value="0.0123868666" flag="0"/>
      <psa03 value="0.0857357807" flag="0"/>
      <psa10 value="0.0195447323" flag="0"/>
      <psa30 value="0.0023272520" flag="0"/>
    </comp>
    <comp name="00.HH3">
      <acc value="0.0320704037" flag="0"/>
      <vel value="0.0233990155" flag="0"/>
      <psa03 value="0.1460710263" flag="0"/>
      <psa10 value="0.0164266982" flag="0"/>
      <psa30 value="0.0020419007" flag="0"/>
    </comp>
  </station>
  <station code="ACOR" name="ACOR" netid="HA" insttype="Horizon,120s,1200" lat="37.8905" lon="22.8694">
    <comp name="--.HHZ">
      <acc value="0.0161590741" flag="0"/>
      <vel value="0.0108466456" flag="0"/>
      <psa03 value="0.0317590266" flag="0"/>
      <psa10 value="0.0153146907" flag="0"/>
      <psa30 value="0.0020208247" flag="0"/>
    </comp>
    <comp name="--.HHE">
      <acc value="0.0142144117" flag="0"/>
      <vel value="0.0122415241" flag="0"/>
      <psa03 value="0.0368956239" flag="0"/>
      <psa10 value="0.0252509645" flag="0"/>
      <psa30 value="0.0020477601" flag="0"/>
    </comp>
    <comp name="--.HHN">
      <acc value="0.0126297651" flag="0"/>
      <vel value="0.0129006081" flag="0"/>
      <psa03 value="0.0286255790" flag="0"/>
      <psa10 value="0.0154879439" flag="0"/>
      <psa30 value="0.0030066749" flag="0"/>
    </comp>
  </station>
  <station code="AMPE" name="AMPE" netid="HA" insttype="1s-100Hz," lat="38.3015" lon="23.2688">
    <comp name="--.HHE">
      <acc value="0.1096444508" flag="0"/>
      <vel value="0.0841943468" flag="0"/>
      <psa03 value="0.2875925987" flag="0"/>
      <psa10 value="0.0812902165" flag="0"/>
      <psa30 value="0.0052658464" flag="0"/>
    </comp>
    <comp name="--.HHN">
      <acc value="0.1229414151" flag="0"/>
      <vel value="0.1155343858" flag="0"/>
      <psa03 value="0.2238081027" flag="0"/>
      <psa10 value="0.1613335197" flag="0"/>
      <psa30 value="0.0075342539" flag="0"/>
    </comp>
    <comp name="--.HHZ">
      <acc value="0.0540097883" flag="0"/>
      <vel value="0.0321848527" flag="0"/>
      <psa03 value="0.1206711015" flag="0"/>
      <psa10 value="0.0366293217" flag="0"/>
      <psa30 value="0.0021923202" flag="0"/>
    </comp>
  </station>
  <station code="ANTK" name="ANTK" netid="HA" insttype="25" lat="38.3605" lon="22.6385">
    <comp name="--.HHZ">
      <acc value="0.0324825059" flag="0"/>
      <vel value="0.0223162397" flag="0"/>
      <psa03 value="0.0383084198" flag="0"/>
      <psa10 value="0.0308997192" flag="0"/>
      <psa30 value="0.0020249423" flag="0"/>
    </comp>
    <comp name="--.HHN">
      <acc value="0.0013103255" flag="0"/>
      <vel value="0.0007777332" flag="0"/>
      <psa03 value="0.0024385871" flag="0"/>
      <psa10 value="0.0006423391" flag="0"/>
      <psa30 value="0.0000301995" flag="0"/>
    </comp>
    <comp name="--.HHE">
      <acc value="0.0487281451" flag="0"/>
      <vel value="0.0314832318" flag="0"/>
      <psa03 value="0.0928765822" flag="0"/>
      <psa10 value="0.0210931172" flag="0"/>
      <psa30 value="0.0017365041" flag="0"/>
    </comp>
  </station>
  <station code="ATAL" name="ATAL" netid="HA" insttype="120s," lat="38.6926" lon="23.0213">
    <comp name="--.HHZ">
      <acc value="0.2396076997" flag="0"/>
      <vel value="0.0514913780" flag="0"/>
      <psa03 value="0.2906786703" flag="0"/>
      <psa10 value="0.0404093227" flag="0"/>
      <psa30 value="0.0053663920" flag="0"/>
    </comp>
    <comp name="--.HHE">
      <acc value="0.2102044499" flag="0"/>
      <vel value="0.0695557988" flag="0"/>
      <psa03 value="0.3392204400" flag="0"/>
      <psa10 value="0.0525434903" flag="0"/>
      <psa30 value="0.0046647188" flag="0"/>
    </comp>
    <comp name="--.HHN">
      <acc value="0.2367366856" flag="0"/>
      <vel value="0.0899946339" flag="0"/>
      <psa03 value="0.3154762299" flag="0"/>
      <psa10 value="0.0753157488" flag="0"/>
      <psa30 value="0.0045274306" flag="0"/>
    </comp>
  </station>
  <station code="ATHU" name="ATHU" netid="HA" insttype="60s," lat="37.9665" lon="23.7845">
    <comp name="--.HHE">
      <acc value="0.0423097088" flag="0"/>
      <vel value="0.0120610951" flag="0"/>
      <psa03 value="0.0362862512" flag="0"/>
      <psa10 value="0.0124082035" flag="0"/>
      <psa30 value="0.0016865307" flag="0"/>
    </comp>
    <comp name="--.HHZ">
      <acc value="0.0282851073" flag="0"/>
      <vel value="0.0088705199" flag="0"/>
      <psa03 value="0.0301476668" flag="0"/>
      <psa10 value="0.0128186276" flag="0"/>
      <psa30 value="0.0022572101" flag="0"/>
    </comp>
    <comp name="--.HHN">
      <acc value="0.0273656486" flag="0"/>
      <vel value="0.0094033560" flag="0"/>
      <psa03 value="0.0359282863" flag="0"/>
      <psa10 value="0.0109672159" flag="0"/>
      <psa30 value="0.0020227113" flag="0"/>
    </comp>
  </station>
  <station code="AXAR" name="AXAR" netid="HA" insttype="Horizon,120s,1200" lat="38.7664" lon="22.659">
    <comp name="--.HHN">
      <acc value="0.2250493774" flag="0"/>
      <vel value="0.0987379662" flag="0"/>
      <psa03 value="0.7001887745" flag="0"/>
      <psa10 value="0.0486592182" flag="0"/>
      <psa30 value="0.0043203517" flag="0"/>
    </comp>
    <comp name="--.HHE">
      <acc value="0.2484056738" flag="0"/>
      <vel value="0.1009203777" flag="0"/>
      <psa03 value="0.7610691248" flag="0"/>
      <psa10 value="0.0617791651" flag="0"/>
      <psa30 value="0.0041299491" flag="0"/>
    </comp>
    <comp name="--.HHZ">
      <acc value="0.1546409815" flag="0"/>
      <vel value="0.0527396940" flag="0"/>
      <psa03 value="0.4465315263" flag="0"/>
      <psa10 value="0.0318931842" flag="0"/>
      <psa30 value="0.0022498618" flag="0"/>
    </comp>
  </station>
  <station code="DOMV" name="DOMV" netid="HA" insttype="60" lat="38.2569" lon="22.9795">
    <comp name="--.HHZ">
      <acc value="0.1284454433" flag="0"/>
      <vel value="0.0367848003" flag="0"/>
      <psa03 value="0.2562375831" flag="0"/>
      <psa10 value="0.0410286983" flag="0"/>
      <psa30 value="0.0024638486" flag="0"/>
    </comp>
    <comp name="--.HHE">
      <acc value="0.2501713203" flag="0"/>
      <vel value="0.1103464384" flag="0"/>
      <psa03 value="0.6525634873" flag="0"/>
      <psa10 value="0.0733033468" flag="0"/>
      <psa30 value="0.0044311389" flag="0"/>
    </comp>
    <comp name="--.HHN">
      <acc value="0.2857020019" flag="0"/>
      <vel value="0.0807338136" flag="0"/>
      <psa03 value="0.4754110036" flag="0"/>
      <psa10 value="0.0536913342" flag="0"/>
      <psa30 value="0.0063287282" flag="0"/>
    </comp>
  </station>
  <station code="EPID" name="EPID" netid="HA" insttype="30" lat="37.6144" lon="23.1189">
    <comp name="--.HHE">
      <acc value="0.0268707988" flag="0"/>
      <vel value="0.0144606049" flag="0"/>
      <psa03 value="0.1155836411" flag="0"/>
      <psa10 value="0.0127272720" flag="0"/>
      <psa30 value="0.0011614759" flag="0"/>
    </comp>
    <comp name="--.HHZ">
      <acc value="0.0188835185" flag="0"/>
      <vel value="0.0111975612" flag="0"/>
      <psa03 value="0.0586688491" flag="0"/>
      <psa10 value="0.0234678034" flag="0"/>
      <psa30 value="0.0028654351" flag="0"/>
    </comp>
    <comp name="--.HHN">
      <acc value="0.0292695826" flag="0"/>
      <vel value="0.0122480288" flag="0"/>
      <psa03 value="0.0515798586" flag="0"/>
      <psa10 value="0.0178240068" flag="0"/>
      <psa30 value="0.0012812414" flag="0"/>
    </comp>
  </station>
  <station code="ERTR" name="ERTR" netid="HA" insttype="Horizon,120s,1200" lat="38.4066" lon="23.7865">
    <comp name="--.HHE">
      <acc value="0.0663387044" flag="0"/>
      <vel value="0.0357990405" flag="0"/>
      <psa03 value="0.0937688992" flag="0"/>
      <psa10 value="0.0319202011" flag="0"/>
      <psa30 value="0.0023143146" flag="0"/>
    </comp>
    <comp name="--.HHN">
      <acc value="0.0600460399" flag="0"/>
      <vel value="0.0360726778" flag="0"/>
      <psa03 value="0.0972732853" flag="0"/>
      <psa10 value="0.0265400451" flag="0"/>
      <psa30 value="0.0037642660" flag="0"/>
    </comp>
    <comp name="--.HHZ">
      <acc value="0.0825181255" flag="0"/>
      <vel value="0.0234474360" flag="0"/>
      <psa03 value="0.0547515028" flag="0"/>
      <psa10 value="0.0161757434" flag="0"/>
      <psa30 value="0.0020859284" flag="0"/>
    </comp>
  </station>
  <station code="KALE" name="KALE" netid="HA" insttype="40," lat="38.3911" lon="22.1398">
    <comp name="--.HHN">
      <acc value="0.0362440328" flag="0"/>
      <vel value="0.0167978726" flag="0"/>
      <psa03 value="0.1282553620" flag="0"/>
      <psa10 value="0.0123693747" flag="0"/>
      <psa30 value="0.0024810391" flag="0"/>
    </comp>
    <comp name="--.HHE">
      <acc value="0.0413291611" flag="0"/>
      <vel value="0.0178251952" flag="0"/>
      <psa03 value="0.1243083566" flag="0"/>
      <psa10 value="0.0142597394" flag="0"/>
      <psa30 value="0.0017291884" flag="0"/>
    </comp>
    <comp name="--.HHZ">
      <acc value="0.0211691709" flag="0"/>
      <vel value="0.0138391366" flag="0"/>
      <psa03 value="0.0689926395" flag="0"/>
      <psa10 value="0.0098353743" flag="0"/>
      <psa30 value="0.0013551864" flag="0"/>
    </comp>
  </station>
  <station code="KARY" name="KARY" netid="HA" insttype="60" lat="38.0321" lon="24.437">
    <comp name="--.HHZ">
      <acc value="0.0191923737" flag="0"/>
      <vel value="0.0072737581" flag="0"/>
      <psa03 value="0.0180472220" flag="0"/>
      <psa10 value="0.0111905175" flag="0"/>
      <psa30 value="0.0017471046" flag="0"/>
    </comp>
    <comp name="--.HHN">
      <acc value="0.0271964307" flag="0"/>
      <vel value="0.0081285384" flag="0"/>
      <psa03 value="0.0191126310" flag="0"/>
      <psa10 value="0.0063154112" flag="0"/>
      <psa30 value="0.0008635712" flag="0"/>
    </comp>
    <comp name="--.HHE">
      <acc value="0.0192549260" flag="0"/>
      <vel value="0.0065425848" flag="0"/>
      <psa03 value="0.0218301328" flag="0"/>
      <psa10 value="0.0059045995" flag="0"/>
      <psa30 value="0.0007796050" flag="0"/>
    </comp>
  </station>
  <station code="KIAS" name="KIAS" netid="HA" insttype="DC" lat="37.9875" lon="22.7543">
    <comp name="--.HNE">
      <acc value="0.0811974572" flag="0"/>
      <vel value="0.0484026300" flag="0"/>
      <psa03 value="0.1491839337" flag="0"/>
      <psa10 value="0.0530262073" flag="0"/>
      <psa30 value="0.0074247403" flag="0"/>
    </comp>
    <comp name="--.HNN">
      <acc value="0.0933436419" flag="0"/>
      <vel value="0.0694524133" flag="0"/>
      <psa03 value="0.2852467096" flag="0"/>
      <psa10 value="0.0636962930" flag="0"/>
      <psa30 value="0.0061859285" flag="0"/>
    </comp>
    <comp name="--.HNZ">
      <acc value="0.0401893920" flag="0"/>
      <vel value="0.0306938962" flag="0"/>
      <psa03 value="0.1487106547" flag="0"/>
      <psa10 value="0.0366518631" flag="0"/>
      <psa30 value="0.0034113715" flag="0"/>
    </comp>
  </station>
  <station code="LAKA" name="LAKA" netid="HA" insttype="120s," lat="38.2401" lon="21.9785">
    <comp name="--.HHE">
      <acc value="0.0043615866" flag="0"/>
      <vel value="0.0032117414" flag="0"/>
      <psa03 value="0.0118954958" flag="0"/>
      <psa10 value="0.0037043518" flag="0"/>
      <psa30 value="0.0006499293" flag="0"/>
    </comp>
    <comp name="--.HHN">
      <acc value="0.0052485164" flag="0"/>
      <vel value="0.0037062363" flag="0"/>
      <psa03 value="0.0139875665" flag="0"/>
      <psa10 value="0.0040358150" flag="0"/>
      <psa30 value="0.0013509810" flag="0"/>
    </comp>
    <comp name="--.HHZ">
      <acc value="0.0035342864" flag="0"/>
      <vel value="0.0018480755" flag="0"/>
      <psa03 value="0.0160324901" flag="0"/>
      <psa10 value="0.0026160344" flag="0"/>
      <psa30 value="0.0001939734" flag="0"/>
    </comp>
  </station>
  <station code="LOUT" name="LOUT" netid="HA" insttype="30" lat="37.9879" lon="22.9743">
    <comp name="--.HHE">
      <acc value="0.0892831916" flag="0"/>
      <vel value="0.0355171980" flag="0"/>
      <psa03 value="0.2909583610" flag="0"/>
      <psa10 value="0.0408982623" flag="0"/>
      <psa30 value="0.0028348689" flag="0"/>
    </comp>
    <comp name="--.HHZ">
      <acc value="0.0508515516" flag="0"/>
      <vel value="0.0239623938" flag="0"/>
      <psa03 value="0.0988853940" flag="0"/>
      <psa10 value="0.0314045348" flag="0"/>
      <psa30 value="0.0025154608" flag="0"/>
    </comp>
    <comp name="--.HHN">
      <acc value="0.0708217604" flag="0"/>
      <vel value="0.0402619755" flag="0"/>
      <psa03 value="0.2554118278" flag="0"/>
      <psa10 value="0.0406900600" flag="0"/>
      <psa30 value="0.0064978132" flag="0"/>
    </comp>
  </station>
  <station code="MDRA" name="MDRA" netid="HA" insttype="60" lat="38.0606" lon="23.4662">
    <comp name="--.HHE">
      <acc value="0.0368517301" flag="0"/>
      <vel value="0.0287539601" flag="0"/>
      <psa03 value="0.0986290527" flag="0"/>
      <psa10 value="0.0452183674" flag="0"/>
      <psa30 value="0.0024673295" flag="0"/>
    </comp>
    <comp name="--.HHN">
      <acc value="0.0434120155" flag="0"/>
      <vel value="0.0384127219" flag="0"/>
      <psa03 value="0.1453721305" flag="0"/>
      <psa10 value="0.0426007807" flag="0"/>
      <psa30 value="0.0034412180" flag="0"/>
    </comp>
    <comp name="--.HHZ">
      <acc value="0.0376922635" flag="0"/>
      <vel value="0.0191726115" flag="0"/>
      <psa03 value="0.0849827055" flag="0"/>
      <psa10 value="0.0348521049" flag="0"/>
      <psa30 value="0.0044188041" flag="0"/>
    </comp>
  </station>
  <station code="MRKA" name="MRKA" netid="HA" insttype="Horizon,120s,1200" lat="38.7047" lon="23.5863">
    <comp name="--.HHE">
      <acc value="1.0826511506" flag="0"/>
      <vel value="0.1949466761" flag="0"/>
      <psa03 value="0.3766414098" flag="0"/>
      <psa10 value="0.0856079770" flag="0"/>
      <psa30 value="0.0064142377" flag="0"/>
    </comp>
    <comp name="--.HHN">
      <acc value="0.5856124888" flag="0"/>
      <vel value="0.1207732733" flag="0"/>
      <psa03 value="0.4287206055" flag="0"/>
      <psa10 value="0.1179472902" flag="0"/>
      <psa30 value="0.0074608913" flag="0"/>
    </comp>
    <comp name="--.HHZ">
      <acc value="0.4064180864" flag="0"/>
      <vel value="0.0875609726" flag="0"/>
      <psa03 value="0.1714630025" flag="0"/>
      <psa10 value="0.0715281464" flag="0"/>
      <psa30 value="0.0056227679" flag="0"/>
    </comp>
  </station>
  <station code="MRTH" name="MRTH" netid="HA" insttype="S100," lat="38.1225" lon="23.9409">
    <comp name="--.HHZ">
      <acc value="0.0881719611" flag="0"/>
      <vel value="0.0285677655" flag="0"/>
      <psa03 value="0.1209525883" flag="0"/>
      <psa10 value="0.0402093322" flag="0"/>
      <psa30 value="0.0017985385" flag="0"/>
    </comp>
    <comp name="--.HHN">
      <acc value="0.0688648730" flag="0"/>
      <vel value="0.0408751905" flag="0"/>
      <psa03 value="0.1070389967" flag="0"/>
      <psa10 value="0.0906768750" flag="0"/>
      <psa30 value="0.0043342782" flag="0"/>
    </comp>
    <comp name="--.HHE">
      <acc value="0.0606381967" flag="0"/>
      <vel value="0.0318432960" flag="0"/>
      <psa03 value="0.1200695289" flag="0"/>
      <psa10 value="0.0490065811" flag="0"/>
      <psa30 value="0.0022049203" flag="0"/>
    </comp>
  </station>
  <station code="PRDM" name="PRDM" netid="HA" insttype="25" lat="38.2804" lon="22.847">
    <comp name="--.HHN">
      <acc value="0.0503221798" flag="0"/>
      <vel value="0.0167887829" flag="0"/>
      <psa03 value="0.0947081013" flag="0"/>
      <psa10 value="0.0202790778" flag="0"/>
      <psa30 value="0.0008587532" flag="0"/>
    </comp>
    <comp name="--.HHZ">
      <acc value="0.0267611774" flag="0"/>
      <vel value="0.0113920487" flag="0"/>
      <psa03 value="0.0934243502" flag="0"/>
      <psa10 value="0.0079535038" flag="0"/>
      <psa30 value="0.0007666009" flag="0"/>
    </comp>
    <comp name="--.HHE">
      <acc value="0.0642533167" flag="0"/>
      <vel value="0.0222615547" flag="0"/>
      <psa03 value="0.1737030924" flag="0"/>
      <psa10 value="0.0200900894" flag="0"/>
      <psa30 value="0.0011369374" flag="0"/>
    </comp>
  </station>
  <station code="PSAH" name="PSAH" netid="HA" insttype="25" lat="38.5694" lon="23.6473">
    <comp name="--.HHZ">
      <acc value="0.0604196819" flag="0"/>
      <vel value="0.0147049202" flag="0"/>
      <psa03 value="0.0253331237" flag="0"/>
      <psa10 value="0.0236205631" flag="0"/>
      <psa30 value="0.0011437713" flag="0"/>
    </comp>
    <comp name="--.HHN">
      <acc value="0.0455090483" flag="0"/>
      <vel value="0.0174323563" flag="0"/>
      <psa03 value="0.0439790153" flag="0"/>
      <psa10 value="0.0274663626" flag="0"/>
      <psa30 value="0.0023902321" flag="0"/>
    </comp>
    <comp name="--.HHE">
      <acc value="0.0639755189" flag="0"/>
      <vel value="0.0216507653" flag="0"/>
      <psa03 value="0.0445726012" flag="0"/>
      <psa10 value="0.0368061757" flag="0"/>
      <psa30 value="0.0017219456" flag="0"/>
    </comp>
  </station>
  <station code="STFN" name="STFN" netid="HA" insttype="1s-100Hz," lat="38.1766" lon="23.544">
    <comp name="--.HHN">
      <acc value="0.0795448732" flag="0"/>
      <vel value="0.0462073233" flag="0"/>
      <psa03 value="0.1774489318" flag="0"/>
      <psa10 value="0.0485798763" flag="0"/>
      <psa30 value="0.0028003226" flag="0"/>
    </comp>
    <comp name="--.HHE">
      <acc value="0.0579750650" flag="0"/>
      <vel value="0.0438822617" flag="0"/>
