<?xml version="1.0" encoding="UTF-8" standalone="yes"?>
<!DOCTYPE earthquake SYSTEM "stationlist.dtd">
<stationlist created="" xmlns="ch.ethz.sed.shakemap.usgs.xml">
  <station code="ARG" name="ARG" netid="HL" insttype="LE3D20_DR24" lat="36.2136" lon="28.1212">
    <comp name="--.HHZ">
      <acc value="0.0164581369" flag="0"/>
      <vel value="0.0095737984" flag="0"/>
      <psa03 value="0.0368433755" flag="0"/>
      <psa10 value="0.0185655581" flag="0"/>
      <psa30 value="0.0018349030" flag="0"/>
    </comp>
    <comp name="--.HHN">
      <acc value="0.0491714341" flag="0"/>
      <vel value="0.0158131111" flag="0"/>
      <psa03 value="0.0772341773" flag="0"/>
      <psa10 value="0.0214656948" flag="0"/>
      <psa30 value="0.0020484239" flag="0"/>
    </comp>
    <comp name="--.HHE">
      <acc value="0.0555437898" flag="0"/>
      <vel value="0.0279959656" flag="0"/>
      <psa03 value="0.1202485452" flag="0"/>
      <psa10 value="0.0234421210" flag="0"/>
      <psa30 value="0.0035990305" flag="0"/>
    </comp>
  </station>
  <station code="KLNA" name="KLNA" netid="HL" insttype="CMG-5" lat="36.9571" lon="26.9727">
    <comp name="00.HNZ">
      <acc value="0.0751224247" flag="0"/>
      <vel value="0.0176519325" flag="0"/>
      <psa03 value="0.0561859028" flag="0"/>
      <psa10 value="0.0045298317" flag="0"/>
      <psa30 value="0.0007937883" flag="0"/>
    </comp>
    <comp name="00.HNE">
      <acc value="0.0628353203" flag="0"/>
      <vel value="0.0253069428" flag="0"/>
      <psa03 value="0.1636928717" flag="0"/>
      <psa10 value="0.0132601145" flag="0"/>
      <psa30 value="0.0013760234" flag="0"/>
    </comp>
    <comp name="00.HNN">
      <acc value="0.0642733522" flag="0"/>
      <vel value="0.0210465146" flag="0"/>
      <psa03 value="0.1589668771" flag="0"/>
      <psa10 value="0.0129138182" flag="0"/>
      <psa30 value="0.0008053973" flag="0"/>
    </comp>
  </station>
  <station code="NISR" name="NISR" netid="HL" insttype="65535" lat="36.6106" lon="27.131">
    <comp name="--.HHZ">
      <acc value="1.5058789714" flag="0"/>
      <vel value="0.3982899014" flag="0"/>
      <psa03 value="2.7019789802" flag="0"/>
      <psa10 value="0.1512673390" flag="0"/>
      <psa30 value="0.0111170507" flag="0"/>
    </comp>
    <comp name="--.HHE">
      <acc value="3.6031981578" flag="0"/>
      <vel value="1.2845964408" flag="0"/>
      <psa03 value="10.9199900367" flag="0"/>
      <psa10 value="0.3472408970" flag="0"/>
      <psa30 value="0.0281303066" flag="0"/>
    </comp>
    <comp name="--.HHN">
      <acc value="2.9445162735" flag="0"/>
      <vel value="0.7772905119" flag="0"/>
      <psa03 value="2.3942277410" flag="0"/>
      <psa10 value="0.3084508697" flag="0"/>
      <psa30 value="0.1530957658" flag="0"/>
    </comp>
  </station>
</stationlist>
