<stationlist created="1778138355">
	<station code="KRL1" name="KRL1" netid="HI" source="ITSAK Strong Motion Network" insttype="" lat="37.7951" lon="26.7065">
		<comp name="--.HNE" depth="0.0">
			<acc value="0.00988055100124673" flag="0"/>
			<vel value="0.0100787971053039" flag="0"/>
			<psa03 value="0.0266076949208677" flag="0"/>
			<psa10 value="0.0228971962018662" flag="0"/>
			<psa30 value="0.002034579364231" flag="0"/>
		</comp>
		<comp name="--.HNN" depth="0.0">
			<acc value="0.0100870214913143" flag="0"/>
			<vel value="0.00805412191931723" flag="0"/>
			<psa03 value="0.0137404414868034" flag="0"/>
			<psa10 value="0.0157834755777946" flag="0"/>
			<psa30 value="0.000898935070869501" flag="0"/>
		</comp>
		<comp name="--.HNZ" depth="0.0">
			<acc value="0.00427318289834214" flag="0"/>
			<vel value="0.00392886832261059" flag="0"/>
			<psa03 value="0.0107035502034901" flag="0"/>
			<psa10 value="0.00966296887427134" flag="0"/>
			<psa30 value="0.00063352873900147" flag="0"/>
		</comp>
	</station>
	<station code="KSS1" name="KSS1" netid="HI" source="ITSAK Strong Motion Network" insttype="" lat="35.4189" lon="26.9207">
		<comp name="--.HNE" depth="0.0">
			<acc value="0.00954919210199131" flag="0"/>
			<vel value="0.00397219978306733" flag="0"/>
			<psa03 value="0.0285275330382245" flag="0"/>
			<psa10 value="0.00340068988839233" flag="0"/>
			<psa30 value="0.000633946891704886" flag="0"/>
		</comp>
		<comp name="--.HNN" depth="0.0">
			<acc value="0.0091110226999979" flag="0"/>
			<vel value="0.0041804085664247" flag="0"/>
			<psa03 value="0.0256392792055654" flag="0"/>
			<psa10 value="0.00466619692514097" flag="0"/>
			<psa30 value="0.000370103918610046" flag="0"/>
		</comp>
		<comp name="--.HNZ" depth="0.0">
			<acc value="0.00559057735167071" flag="0"/>
			<vel value="0.00229852020303361" flag="0"/>
			<psa03 value="0.00651894421787366" flag="0"/>
			<psa10 value="0.00343766358771791" flag="0"/>
			<psa30 value="0.000340799060640352" flag="0"/>
		</comp>
	</station>
	<station code="NAX1" name="NAX1" netid="HI" source="ITSAK Strong Motion Network" insttype="" lat="37.101394" lon="25.374103">
		<comp name="--.HNE" depth="0.0">
			<acc value="0.0035212811452304" flag="0"/>
			<vel value="0.00291908348894451" flag="0"/>
			<psa03 value="0.00855537599646883" flag="0"/>
			<psa10 value="0.00362328822818621" flag="0"/>
			<psa30 value="0.000783762649596116" flag="0"/>
		</comp>
		<comp name="--.HNN" depth="0.0">
			<acc value="0.00652276772632919" flag="0"/>
			<vel value="0.00375025746601376" flag="0"/>
			<psa03 value="0.013268217495955" flag="0"/>
			<psa10 value="0.00508834270272313" flag="0"/>
			<psa30 value="0.000930682590654717" flag="0"/>
		</comp>
		<comp name="--.HNZ" depth="0.0">
			<acc value="0.00418989241298421" flag="0"/>
			<vel value="0.00325711791971564" flag="0"/>
			<psa03 value="0.00685727066676784" flag="0"/>
			<psa10 value="0.00302225231875839" flag="0"/>
			<psa30 value="0.000978414606833078" flag="0"/>
		</comp>
	</station>
	<station code="RDI1" name="RDI1" netid="HI" source="ITSAK Strong Motion Network" insttype="" lat="36.4514" lon="28.224">
		<comp name="--.HNE" depth="0.0">
			<acc value="0.0160233388517636" flag="0"/>
			<vel value="0.0211486525436849" flag="0"/>
			<psa03 value="0.0365479367464592" flag="0"/>
			<psa10 value="0.0302294156754402" flag="0"/>
			<psa30 value="0.00783745835980456" flag="0"/>
		</comp>
		<comp name="--.HNN" depth="0.0">
			<acc value="0.0113418231844066" flag="0"/>
			<vel value="0.0143177221109474" flag="0"/>
			<psa03 value="0.0309012814332603" flag="0"/>
			<psa10 value="0.0226809831288285" flag="0"/>
			<psa30 value="0.00360273449681258" flag="0"/>
		</comp>
		<comp name="--.HNZ" depth="0.0">
			<acc value="0.0110436518162713" flag="0"/>
			<vel value="0.00882564732003581" flag="0"/>
			<psa03 value="0.0429937752099586" flag="0"/>
			<psa10 value="0.0193296748710861" flag="0"/>
			<psa30 value="0.0024767565729694" flag="0"/>
		</comp>
	</station>
	<station code="KLNA" name="KLNA" netid="HL" source="National Observatory of Athens Seismic Network" insttype="" lat="36.95708" lon="26.97274">
		<comp name="00.HNE" depth="0.0">
			<acc value="0.060687778594906" flag="0"/>
			<vel value="0.0259819142861919" flag="0"/>
			<psa03 value="0.164511783515094" flag="0"/>
			<psa10 value="0.0133295239530571" flag="0"/>
			<psa30 value="0.00155397356812396" flag="0"/>
		</comp>
		<comp name="00.HNN" depth="0.0">
			<acc value="0.0627222001742174" flag="0"/>
			<vel value="0.0210420008812434" flag="0"/>
			<psa03 value="0.158674417651652" flag="0"/>
			<psa10 value="0.0129083185502477" flag="0"/>
			<psa30 value="0.000964336903421633" flag="0"/>
		</comp>
		<comp name="00.HNZ" depth="0.0">
			<acc value="0.0715823187222983" flag="0"/>
			<vel value="0.0175710112304938" flag="0"/>
			<psa03 value="0.0563614680455211" flag="0"/>
			<psa10 value="0.00455960126997171" flag="0"/>
			<psa30 value="0.000964500247576051" flag="0"/>
		</comp>
	</station>
	<station code="NISR" name="NISR" netid="HL" source="National Observatory of Athens Seismic Network" insttype="" lat="36.6106" lon="27.131">
		<comp name="--.HNE" depth="0.0">
			<acc value="3.22329214677922" flag="0"/>
			<vel value="1.16672692283975" flag="0"/>
			<psa03 value="10.0244014007207" flag="0"/>
			<psa10 value="0.35002436739645" flag="0"/>
			<psa30 value="0.0347737602576081" flag="0"/>
		</comp>
		<comp name="--.HNN" depth="0.0">
			<acc value="3.15672587798" flag="0"/>
			<vel value="0.912980649442423" flag="0"/>
			<psa03 value="3.31706073899269" flag="0"/>
			<psa10 value="0.209818599452555" flag="0"/>
			<psa30 value="0.0246488545322983" flag="0"/>
		</comp>
		<comp name="--.HNZ" depth="0.0">
			<acc value="1.2330001243898" flag="0"/>
			<vel value="0.347727721467759" flag="0"/>
			<psa03 value="2.18345764335147" flag="0"/>
			<psa10 value="0.15073942074666" flag="0"/>
			<psa30 value="0.0117973656842252" flag="0"/>
		</comp>
	</station>
	<station code="CAME" name="CAME" netid="KO" source="Bogazici University Kandilli Observatory And Earthquake Research Institute (KOERI)" insttype="" lat="36.9435" lon="29.3023">
		<comp name="--.HNE" depth="0.0">
			<acc value="0.00402963527297415" flag="0"/>
			<vel value="0.00369731463402919" flag="0"/>
			<psa03 value="0.0147799048773908" flag="0"/>
			<psa10 value="0.00532900411413652" flag="0"/>
			<psa30 value="0.00112204485079691" flag="0"/>
		</comp>
		<comp name="--.HNN" depth="0.0">
			<acc value="0.00354096403220386" flag="0"/>
			<vel value="0.0026828788754173" flag="0"/>
			<psa03 value="0.0128822804711774" flag="0"/>
			<psa10 value="0.00621387663882243" flag="0"/>
			<psa30 value="0.000671772887075103" flag="0"/>
		</comp>
		<comp name="--.HNZ" depth="0.0">
			<acc value="0.00310949456735167" flag="0"/>
			<vel value="0.00203174067258931" flag="0"/>
			<psa03 value="0.00763558785147794" flag="0"/>
			<psa10 value="0.00377327707046438" flag="0"/>
			<psa30 value="0.000639079002515549" flag="0"/>
		</comp>
	</station>
</stationlist>
