<stationlist created="1778138567">
	<station code="LMS2" name="LMS2" netid="HI" source="ITSAK Strong Motion Network" insttype="" lat="40.834985" lon="21.141815">
		<comp name="--.HNE" depth="0.0">
			<acc value="0.0154089379378826" flag="0"/>
			<vel value="0.00704908661975441" flag="0"/>
			<psa03 value="0.0298344894093145" flag="0"/>
			<psa10 value="0.0069114162849249" flag="0"/>
			<psa30 value="0.000623240244938868" flag="0"/>
		</comp>
		<comp name="--.HNN" depth="0.0">
			<acc value="0.0233324826089162" flag="0"/>
			<vel value="0.00877237754468122" flag="0"/>
			<psa03 value="0.0678518386013206" flag="0"/>
			<psa10 value="0.0039683746040911" flag="0"/>
			<psa30 value="0.000425275203645003" flag="0"/>
		</comp>
		<comp name="--.HNZ" depth="0.0">
			<acc value="0.0178433221532236" flag="0"/>
			<vel value="0.00463999730592541" flag="0"/>
			<psa03 value="0.0198767229853619" flag="0"/>
			<psa10 value="0.006009850466851" flag="0"/>
			<psa30 value="0.000540020982072993" flag="0"/>
		</comp>
	</station>
</stationlist>
