<?xml version="1.0" encoding="UTF-8" standalone="yes"?>
<!DOCTYPE earthquake SYSTEM "stationlist.dtd">
<stationlist created="" xmlns="ch.ethz.sed.shakemap.usgs.xml">
  <station code="BCI" name="BCI" netid="AC" insttype="" lat="42.3666" lon="20.0675">
    <comp name="--.HHZ">
      <acc value="0.0174323060" flag="0"/>
      <vel value="0.0113963056" flag="0"/>
      <psa03 value="0.0341591232" flag="0"/>
      <psa10 value="0.0194443800" flag="0"/>
      <psa30 value="0.0010746056" flag="0"/>
    </comp>
    <comp name="--.HHE">
      <acc value="0.0405080887" flag="0"/>
      <vel value="0.0159753759" flag="0"/>
      <psa03 value="0.0577274225" flag="0"/>
      <psa10 value="0.0216295231" flag="0"/>
      <psa30 value="0.0024219184" flag="0"/>
    </comp>
    <comp name="--.HHN">
      <acc value="0.0637157267" flag="0"/>
      <vel value="0.0129733712" flag="0"/>
      <psa03 value="0.0440263890" flag="0"/>
      <psa10 value="0.0277438323" flag="0"/>
      <psa30 value="0.0016204387" flag="0"/>
    </comp>
  </station>
  <station code="KBN" name="KBN" netid="AC" insttype="" lat="40.6236" lon="20.7874">
    <comp name="--.HHE">
      <acc value="0.0043297231" flag="0"/>
      <vel value="0.0039720685" flag="0"/>
      <psa03 value="0.0120701164" flag="0"/>
      <psa10 value="0.0072289860" flag="0"/>
      <psa30 value="0.0008578854" flag="0"/>
    </comp>
    <comp name="--.HHN">
      <acc value="0.0056391923" flag="0"/>
      <vel value="0.0052897102" flag="0"/>
      <psa03 value="0.0239163042" flag="0"/>
      <psa10 value="0.0082376260" flag="0"/>
      <psa30 value="0.0006248870" flag="0"/>
    </comp>
    <comp name="--.HHZ">
      <acc value="0.0031321979" flag="0"/>
      <vel value="0.0030609761" flag="0"/>
      <psa03 value="0.0095533100" flag="0"/>
      <psa10 value="0.0044632189" flag="0"/>
      <psa30 value="0.0007621989" flag="0"/>
    </comp>
  </station>
  <station code="PHP" name="PHP" netid="AC" insttype="" lat="41.6847" lon="20.4408">
    <comp name="--.HHN">
      <acc value="0.1167962288" flag="0"/>
      <vel value="0.0421101685" flag="0"/>
      <psa03 value="0.1656170243" flag="0"/>
      <psa10 value="0.0278382680" flag="0"/>
      <psa30 value="0.0025265424" flag="0"/>
    </comp>
    <comp name="--.HHE">
      <acc value="0.1727214861" flag="0"/>
      <vel value="0.0509707844" flag="0"/>
      <psa03 value="0.1929321701" flag="0"/>
      <psa10 value="0.0606482882" flag="0"/>
      <psa30 value="0.0026591159" flag="0"/>
    </comp>
    <comp name="--.HHZ">
      <acc value="0.0827066594" flag="0"/>
      <vel value="0.0288593577" flag="0"/>
      <psa03 value="0.1119518229" flag="0"/>
      <psa10 value="0.0339858068" flag="0"/>
      <psa30 value="0.0014182298" flag="0"/>
    </comp>
  </station>
  <station code="PUK" name="PUK" netid="AC" insttype="" lat="42.0426" lon="19.8926">
    <comp name="--.HHE">
      <acc value="0.0184584301" flag="0"/>
      <vel value="0.0093699416" flag="0"/>
      <psa03 value="0.0506116567" flag="0"/>
      <psa10 value="0.0088818504" flag="0"/>
      <psa30 value="0.0008534195" flag="0"/>
    </comp>
    <comp name="--.HHZ">
      <acc value="0.0147717082" flag="0"/>
      <vel value="0.0034344947" flag="0"/>
      <psa03 value="0.0173713238" flag="0"/>
      <psa10 value="0.0029088452" flag="0"/>
      <psa30 value="0.0001299082" flag="0"/>
    </comp>
    <comp name="--.HHN">
      <acc value="0.0293054340" flag="0"/>
      <vel value="0.0105848369" flag="0"/>
      <psa03 value="0.0423710045" flag="0"/>
      <psa10 value="0.0084815009" flag="0"/>
      <psa30 value="0.0006758104" flag="0"/>
    </comp>
  </station>
  <station code="PDG" name="PDG" netid="MN" insttype="" lat="42.4297" lon="19.2608">
    <comp name="--.HHE">
      <acc value="0.0158002956" flag="0"/>
      <vel value="0.0076655072" flag="0"/>
      <psa03 value="0.0196963897" flag="0"/>
      <psa10 value="0.0071844999" flag="0"/>
      <psa30 value="0.0008677533" flag="0"/>
    </comp>
    <comp name="--.HHN">
      <acc value="0.0140607786" flag="0"/>
      <vel value="0.0069921837" flag="0"/>
      <psa03 value="0.0253531243" flag="0"/>
      <psa10 value="0.0103471268" flag="0"/>
      <psa30 value="0.0008052897" flag="0"/>
    </comp>
    <comp name="--.HHZ">
      <acc value="0.0134801248" flag="0"/>
      <vel value="0.0054806797" flag="0"/>
      <psa03 value="0.0233396007" flag="0"/>
      <psa10 value="0.0075920321" flag="0"/>
      <psa30 value="0.0006172432" flag="0"/>
    </comp>
  </station>
  <station code="TIR" name="TIR" netid="MN" insttype="" lat="41.3472" lon="19.8631">
    <comp name="--.HHZ">
      <acc value="0.0988124466" flag="0"/>
      <vel value="0.0490000976" flag="0"/>
      <psa03 value="0.1683930555" flag="0"/>
      <psa10 value="0.0862395429" flag="0"/>
      <psa30 value="0.0069638452" flag="0"/>
    </comp>
    <comp name="--.HHN">
      <acc value="0.1691121849" flag="0"/>
      <vel value="0.0796582545" flag="0"/>
      <psa03 value="0.2564948352" flag="0"/>
      <psa10 value="0.0531632342" flag="0"/>
      <psa30 value="0.0090605984" flag="0"/>
    </comp>
    <comp name="--.HHE">
      <acc value="0.1399831768" flag="0"/>
      <vel value="0.0477185793" flag="0"/>
      <psa03 value="0.2470469697" flag="0"/>
      <psa10 value="0.0473810727" flag="0"/>
      <psa30 value="0.0074327851" flag="0"/>
    </comp>
  </station>
</stationlist>
