<?xml version="1.0" encoding="UTF-8" standalone="yes"?>
<!DOCTYPE earthquake SYSTEM "stationlist.dtd">
<stationlist created="" xmlns="ch.ethz.sed.shakemap.usgs.xml">
  <station code="BALB" name="BALB" netid="KO" insttype="CMG-5T" commtype="DIG" lat="39.6507" lon="27.8642">
    <comp name="--.HNE">
      <acc value="0.0815354177" flag="0"/>
      <vel value="0.0301847632" flag="0"/>
      <psa03 value="0.1774852258" flag="0"/>
      <psa10 value="0.0169539837" flag="0"/>
      <psa30 value="0.0013994033" flag="0"/>
    </comp>
    <comp name="--.HNN">
      <acc value="0.0907519597" flag="0"/>
      <vel value="0.0338870039" flag="0"/>
      <psa03 value="0.1655864502" flag="0"/>
      <psa10 value="0.0214378948" flag="0"/>
      <psa30 value="0.0015023011" flag="0"/>
    </comp>
    <comp name="--.HNZ">
      <acc value="0.0530048097" flag="0"/>
      <vel value="0.0157277453" flag="0"/>
      <psa03 value="0.0897648349" flag="0"/>
      <psa10 value="0.0099819445" flag="0"/>
      <psa30 value="0.0009135528" flag="0"/>
    </comp>
  </station>
  <station code="GORD" name="GORD" netid="KO" insttype="CMG-5T" commtype="DIG" lat="38.9088" lon="28.1769">
    <comp name="--.HNN">
      <acc value="0.0483718032" flag="0"/>
      <vel value="0.0343175441" flag="0"/>
      <psa03 value="0.0771459385" flag="0"/>
      <psa10 value="0.0429312446" flag="0"/>
      <psa30 value="0.0020186779" flag="0"/>
    </comp>
    <comp name="--.HNE">
      <acc value="0.0409010718" flag="0"/>
      <vel value="0.0239692304" flag="0"/>
      <psa03 value="0.0615720532" flag="0"/>
      <psa10 value="0.0303198180" flag="0"/>
      <psa30 value="0.0017668301" flag="0"/>
    </comp>
    <comp name="--.HNZ">
      <acc value="0.0494700518" flag="0"/>
      <vel value="0.0153843639" flag="0"/>
      <psa03 value="0.0497858398" flag="0"/>
      <psa10 value="0.0154210943" flag="0"/>
      <psa30 value="0.0029324931" flag="0"/>
    </comp>
  </station>
  <station code="KCTX" name="KCTX" netid="KO" insttype="CMG-5T" commtype="DIG" lat="40.2626" lon="28.3353">
    <comp name="--.HNZ">
      <acc value="0.0270338271" flag="0"/>
      <vel value="0.0088133503" flag="0"/>
      <psa03 value="0.0515825928" flag="0"/>
      <psa10 value="0.0061976351" flag="0"/>
      <psa30 value="0.0005389863" flag="0"/>
    </comp>
    <comp name="--.HNE">
      <acc value="0.0450681618" flag="0"/>
      <vel value="0.0146035013" flag="0"/>
      <psa03 value="0.0579107884" flag="0"/>
      <psa10 value="0.0190617089" flag="0"/>
      <psa30 value="0.0008298549" flag="0"/>
    </comp>
    <comp name="--.HNN">
      <acc value="0.0450075688" flag="0"/>
      <vel value="0.0162804846" flag="0"/>
      <psa03 value="0.0921749280" flag="0"/>
      <psa10 value="0.0083646413" flag="0"/>
      <psa30 value="0.0006250401" flag="0"/>
    </comp>
  </station>
  <station code="ORLT" name="ORLT" netid="KO" insttype="CMG-5T" commtype="DIG" lat="40.0452" lon="28.8914">
    <comp name="--.HNE">
      <acc value="0.0729589564" flag="0"/>
      <vel value="0.0401709894" flag="0"/>
      <psa03 value="0.2139238186" flag="0"/>
      <psa10 value="0.0299502045" flag="0"/>
      <psa30 value="0.0014010278" flag="0"/>
    </comp>
    <comp name="--.HNN">
      <acc value="0.0904152967" flag="0"/>
      <vel value="0.0384517265" flag="0"/>
      <psa03 value="0.4096550714" flag="0"/>
      <psa10 value="0.0334801733" flag="0"/>
      <psa30 value="0.0012596789" flag="0"/>
    </comp>
    <comp name="--.HNZ">
      <acc value="0.0310859966" flag="0"/>
      <vel value="0.0184413359" flag="0"/>
      <psa03 value="0.0929159774" flag="0"/>
      <psa10 value="0.0231563382" flag="0"/>
      <psa30 value="0.0012069635" flag="0"/>
    </comp>
  </station>
</stationlist>
