<?xml version="1.0" encoding="UTF-8" standalone="yes"?>
<!DOCTYPE earthquake SYSTEM "stationlist.dtd">
<stationlist created="" xmlns="ch.ethz.sed.shakemap.usgs.xml">
  <station code="CEYT" name="CEYT" netid="KO" insttype="CMG-3ESP" lat="37.0105" lon="35.7478">
    <comp name="--.HHZ">
      <acc value="0.0038648988" flag="0"/>
      <vel value="0.0017470899" flag="0"/>
      <psa03 value="0.0053429298" flag="0"/>
      <psa10 value="0.0043992194" flag="0"/>
      <psa30 value="0.0005426874" flag="0"/>
    </comp>
    <comp name="--.HHE">
      <acc value="0.0212030050" flag="0"/>
      <vel value="0.0036353775" flag="0"/>
      <psa03 value="0.0128494868" flag="0"/>
      <psa10 value="0.0054981469" flag="0"/>
      <psa30 value="0.0004646581" flag="0"/>
    </comp>
    <comp name="--.HHN">
      <acc value="0.0137419143" flag="0"/>
      <vel value="0.0032234968" flag="0"/>
      <psa03 value="0.0100214699" flag="0"/>
      <psa10 value="0.0047503860" flag="0"/>
      <psa30 value="0.0006340339" flag="0"/>
    </comp>
  </station>
  <station code="GAZ" name="GAZ" netid="KO" insttype="CMG-3T" lat="37.1721" lon="37.2096">
    <comp name="--.HHZ">
      <acc value="0.0160827322" flag="0"/>
      <vel value="0.0099610399" flag="0"/>
      <psa03 value="0.0548604690" flag="0"/>
      <psa10 value="0.0065691993" flag="0"/>
      <psa30 value="0.0005357658" flag="0"/>
    </comp>
  </station>
  <station code="ANDN" name="ANDN" netid="TU" insttype="T" lat="37.58" lon="36.3452">
    <comp name="--.HHZ">
      <acc value="0.0796109269" flag="0"/>
      <vel value="0.0447611094" flag="0"/>
      <psa03 value="0.1495887829" flag="0"/>
      <psa10 value="0.0578696711" flag="0"/>
      <psa30 value="0.0054132440" flag="0"/>
    </comp>
    <comp name="--.HHE">
      <acc value="0.2201165114" flag="0"/>
      <vel value="0.1025836831" flag="0"/>
      <psa03 value="0.3083814777" flag="0"/>
      <psa10 value="0.0789013234" flag="0"/>
      <psa30 value="0.0058653670" flag="0"/>
    </comp>
    <comp name="--.HHN">
      <acc value="0.2463093720" flag="0"/>
      <vel value="0.0808100552" flag="0"/>
      <psa03 value="0.3749995076" flag="0"/>
      <psa10 value="0.0640115595" flag="0"/>
      <psa30 value="0.0082581913" flag="0"/>
    </comp>
  </station>
</stationlist>
