<?xml version="1.0" encoding="UTF-8" standalone="yes"?>
<!DOCTYPE earthquake SYSTEM "stationlist.dtd">
<stationlist created="" xmlns="ch.ethz.sed.shakemap.usgs.xml">
  <station code="CEYT" name="CEYT" netid="KO" insttype="CMG-3ESP" lat="37.0105" lon="35.7478">
    <comp name="--.HHE">
      <acc value="0.0212030041" flag="0"/>
      <vel value="0.0036353642" flag="0"/>
      <psa03 value="0.0128494868" flag="0"/>
      <psa10 value="0.0054981469" flag="0"/>
      <psa30 value="0.0004646557" flag="0"/>
    </comp>
    <comp name="--.HHN">
      <acc value="0.0137419142" flag="0"/>
      <vel value="0.0032235137" flag="0"/>
      <psa03 value="0.0100214699" flag="0"/>
      <psa10 value="0.0047503861" flag="0"/>
      <psa30 value="0.0006340457" flag="0"/>
    </comp>
    <comp name="--.HHZ">
      <acc value="0.0038648987" flag="0"/>
      <vel value="0.0017470889" flag="0"/>
      <psa03 value="0.0053429298" flag="0"/>
      <psa10 value="0.0043992195" flag="0"/>
      <psa30 value="0.0005426768" flag="0"/>
    </comp>
  </station>
  <station code="GAZ" name="GAZ" netid="KO" insttype="CMG-3T" lat="37.1721" lon="37.2096">
    <comp name="--.HHZ">
      <acc value="0.0160827322" flag="0"/>
      <vel value="0.0099610396" flag="0"/>
      <psa03 value="0.0548604690" flag="0"/>
      <psa10 value="0.0065691993" flag="0"/>
      <psa30 value="0.0005357651" flag="0"/>
    </comp>
  </station>
  <station code="ANDN" name="ANDN" netid="TU" insttype="T" lat="37.58" lon="36.3452">
    <comp name="--.HHZ">
      <acc value="0.0796109268" flag="0"/>
      <vel value="0.0447611092" flag="0"/>
      <psa03 value="0.1495887829" flag="0"/>
      <psa10 value="0.0578696720" flag="0"/>
      <psa30 value="0.0054132612" flag="0"/>
    </comp>
    <comp name="--.HHE">
      <acc value="0.2201165113" flag="0"/>
      <vel value="0.1025836832" flag="0"/>
      <psa03 value="0.3083814777" flag="0"/>
      <psa10 value="0.0789013234" flag="0"/>
      <psa30 value="0.0058653014" flag="0"/>
    </comp>
    <comp name="--.HHN">
      <acc value="0.2463093721" flag="0"/>
      <vel value="0.0808100550" flag="0"/>
      <psa03 value="0.3749995076" flag="0"/>
      <psa10 value="0.0640115595" flag="0"/>
      <psa30 value="0.0082582215" flag="0"/>
    </comp>
  </station>
</stationlist>
