<?xml version="1.0" encoding="UTF-8" standalone="yes"?>
<!DOCTYPE earthquake SYSTEM "stationlist.dtd">
<stationlist created="" xmlns="ch.ethz.sed.shakemap.usgs.xml">
  <station code="APE" name="APE" netid="GE" insttype="STS-2/N" lat="37.0727" lon="25.523">
    <comp name="--.HHE">
      <acc value="0.2690480059" flag="0"/>
      <vel value="0.0754749551" flag="0"/>
      <psa03 value="0.2746441779" flag="0"/>
      <psa10 value="0.0148189563" flag="0"/>
      <psa30 value="0.0012830171" flag="0"/>
    </comp>
    <comp name="--.HHN">
      <acc value="0.2305436176" flag="0"/>
      <vel value="0.0398691428" flag="0"/>
      <psa03 value="0.1882418787" flag="0"/>
      <psa10 value="0.0073839452" flag="0"/>
      <psa30 value="0.0008532225" flag="0"/>
    </comp>
    <comp name="--.HHZ">
      <acc value="0.0744362249" flag="0"/>
      <vel value="0.0220972379" flag="0"/>
      <psa03 value="0.1086390263" flag="0"/>
      <psa10 value="0.0084601970" flag="0"/>
      <psa30 value="0.0008671515" flag="0"/>
    </comp>
  </station>
</stationlist>
