<?xml version="1.0" encoding="UTF-8" standalone="yes"?>
<!DOCTYPE earthquake SYSTEM "stationlist.dtd">
<stationlist created="" xmlns="ch.ethz.sed.shakemap.usgs.xml">
  <station code="BIR" name="BIR" netid="RO" insttype="200" lat="46.2334" lon="27.6436">
    <comp name="--.HNZ">
      <acc value="0.0655662847" flag="0"/>
      <vel value="0.0132262487" flag="0"/>
      <psa03 value="0.0608596814" flag="0"/>
      <psa10 value="0.0022637501" flag="0"/>
      <psa30 value="0.0002115786" flag="0"/>
    </comp>
  </station>
  <station code="BISRR" name="BISRR" netid="RO" insttype="CMG40T.1to100/Basalt" lat="45.5481" lon="26.7099">
    <comp name="--.HHZ">
      <acc value="0.0727480428" flag="0"/>
      <vel value="0.0095481071" flag="0"/>
      <psa03 value="0.0309522694" flag="0"/>
      <psa10 value="0.0034212502" flag="0"/>
      <psa30 value="0.0001766819" flag="0"/>
    </comp>
    <comp name="--.HHE">
      <acc value="0.0547935068" flag="0"/>
      <vel value="0.0086125685" flag="0"/>
      <psa03 value="0.0559195879" flag="0"/>
      <psa10 value="0.0086012674" flag="0"/>
      <psa30 value="0.0003581988" flag="0"/>
    </comp>
    <comp name="--.HHN">
      <acc value="0.0299673351" flag="0"/>
      <vel value="0.0089630955" flag="0"/>
      <psa03 value="0.0399430498" flag="0"/>
      <psa10 value="0.0091595240" flag="0"/>
      <psa30 value="0.0004432983" flag="0"/>
    </comp>
  </station>
  <station code="BOSR" name="BOSR" netid="RO" insttype="Seismometer/Basalt" lat="46.0749" lon="25.6611">
    <comp name="--.HHE">
      <acc value="0.0054784212" flag="0"/>
      <vel value="0.0014492098" flag="0"/>
      <psa03 value="0.0094446455" flag="0"/>
      <psa10 value="0.0008685534" flag="0"/>
      <psa30 value="0.0000517279" flag="0"/>
    </comp>
    <comp name="--.HHN">
      <acc value="0.0046936920" flag="0"/>
      <vel value="0.0012835809" flag="0"/>
      <psa03 value="0.0075990211" flag="0"/>
      <psa10 value="0.0008448718" flag="0"/>
      <psa30 value="0.0000579690" flag="0"/>
    </comp>
    <comp name="--.HHZ">
      <acc value="0.0099767005" flag="0"/>
      <vel value="0.0020877372" flag="0"/>
      <psa03 value="0.0066431808" flag="0"/>
      <psa10 value="0.0004113583" flag="0"/>
      <psa30 value="0.0000521152" flag="0"/>
    </comp>
  </station>
  <station code="COPR" name="COPR" netid="RO" insttype="200" lat="45.8442" lon="26.1687">
    <comp name="--.HNN">
      <acc value="0.0148238803" flag="0"/>
      <vel value="0.0053277018" flag="0"/>
      <psa03 value="0.0414674701" flag="0"/>
      <psa10 value="0.0027381344" flag="0"/>
      <psa30 value="0.0003398957" flag="0"/>
    </comp>
    <comp name="--.HNZ">
      <acc value="0.0125077789" flag="0"/>
      <vel value="0.0054812638" flag="0"/>
      <psa03 value="0.0287885140" flag="0"/>
      <psa10 value="0.0016136120" flag="0"/>
      <psa30 value="0.0001429767" flag="0"/>
    </comp>
  </station>
  <station code="DOPR" name="DOPR" netid="RO" insttype="330" lat="45.9675" lon="25.3886">
    <comp name="--.HHE">
      <acc value="0.0146685235" flag="0"/>
      <vel value="0.0022868102" flag="0"/>
      <psa03 value="0.0080167582" flag="0"/>
      <psa10 value="0.0008652019" flag="0"/>
      <psa30 value="0.0000986109" flag="0"/>
    </comp>
    <comp name="--.HHN">
      <acc value="0.0105896793" flag="0"/>
      <vel value="0.0019422196" flag="0"/>
      <psa03 value="0.0070723271" flag="0"/>
      <psa10 value="0.0009317238" flag="0"/>
      <psa30 value="0.0000391421" flag="0"/>
    </comp>
    <comp name="--.HHZ">
      <acc value="0.0093797590" flag="0"/>
      <vel value="0.0019261550" flag="0"/>
      <psa03 value="0.0058163932" flag="0"/>
      <psa10 value="0.0005713157" flag="0"/>
      <psa30 value="0.0000548605" flag="0"/>
    </comp>
  </station>
  <station code="GISR" name="GISR" netid="RO" insttype="2.5V" lat="45.4411" lon="28.0541">
    <comp name="--.HNN">
      <acc value="0.0507149682" flag="0"/>
      <vel value="0.0138401172" flag="0"/>
      <psa03 value="0.0686085073" flag="0"/>
      <psa10 value="0.0042305920" flag="0"/>
      <psa30 value="0.0005372937" flag="0"/>
    </comp>
    <comp name="--.HNZ">
      <acc value="0.0527708017" flag="0"/>
      <vel value="0.0120458999" flag="0"/>
      <psa03 value="0.0531319107" flag="0"/>
      <psa10 value="0.0018226595" flag="0"/>
      <psa30 value="0.0006082287" flag="0"/>
    </comp>
    <comp name="--.HNE">
      <acc value="0.0816631525" flag="0"/>
      <vel value="0.0248490388" flag="0"/>
      <psa03 value="0.1079075782" flag="0"/>
      <psa10 value="0.0056638934" flag="0"/>
      <psa30 value="0.0008238802" flag="0"/>
    </comp>
  </station>
  <station code="ISR" name="ISR" netid="RO" insttype="CMG3ESP/Quanterra" lat="45.1187" lon="26.5432">
    <comp name="--.HHE">
      <acc value="0.0800246936" flag="0"/>
      <vel value="0.0054793885" flag="0"/>
      <psa03 value="0.0136581019" flag="0"/>
      <psa10 value="0.0010608048" flag="0"/>
      <psa30 value="0.0000807862" flag="0"/>
    </comp>
    <comp name="--.HHN">
      <acc value="0.0634039685" flag="0"/>
      <vel value="0.0044315754" flag="0"/>
      <psa03 value="0.0276262813" flag="0"/>
      <psa10 value="0.0019783836" flag="0"/>
      <psa30 value="0.0001367849" flag="0"/>
    </comp>
    <comp name="--.HHZ">
      <acc value="0.0294462833" flag="0"/>
      <vel value="0.0036183551" flag="0"/>
      <psa03 value="0.0153816432" flag="0"/>
      <psa10 value="0.0009749762" flag="0"/>
      <psa30 value="0.0000584590" flag="0"/>
    </comp>
  </station>
  <station code="IZVR" name="IZVR" netid="RO" insttype="CMG40T.1to100/Quanterra" lat="45.5442" lon="27.7655">
    <comp name="--.HHE">
      <acc value="0.0405055655" flag="0"/>
      <vel value="0.0071224128" flag="0"/>
      <psa03 value="0.0311181634" flag="0"/>
      <psa10 value="0.0021731093" flag="0"/>
      <psa30 value="0.0002408354" flag="0"/>
    </comp>
    <comp name="--.HHN">
      <acc value="0.0396479955" flag="0"/>
      <vel value="0.0104451633" flag="0"/>
      <psa03 value="0.0637147517" flag="0"/>
      <psa10 value="0.0027280157" flag="0"/>
      <psa30 value="0.0002199237" flag="0"/>
    </comp>
  </station>
  <station code="MLR" name="MLR" netid="RO" insttype="330HR" lat="45.4909" lon="25.945">
    <comp name="--.HHZ">
      <acc value="0.0049127416" flag="0"/>
      <vel value="0.0012704303" flag="0"/>
      <psa03 value="0.0051362302" flag="0"/>
      <psa10 value="0.0006852154" flag="0"/>
      <psa30 value="0.0000600486" flag="0"/>
    </comp>
  </station>
  <station code="NEGRR" name="NEGRR" netid="RO" insttype="CMG40T.1to100/Quanterra" lat="45.5373" lon="27.8771">
    <comp name="--.HHE">
      <acc value="0.0689713234" flag="0"/>
      <vel value="0.0124320850" flag="0"/>
      <psa03 value="0.0231060286" flag="0"/>
      <psa10 value="0.0033161138" flag="0"/>
      <psa30 value="0.0003159259" flag="0"/>
    </comp>
    <comp name="--.HHN">
      <acc value="0.0640465760" flag="0"/>
      <vel value="0.0116333524" flag="0"/>
      <psa03 value="0.0341768800" flag="0"/>
      <psa10 value="0.0025608814" flag="0"/>
      <psa30 value="0.0002151567" flag="0"/>
    </comp>
    <comp name="--.HHZ">
      <acc value="0.0255030105" flag="0"/>
      <vel value="0.0039349916" flag="0"/>
      <psa03 value="0.0158384245" flag="0"/>
      <psa10 value="0.0014177171" flag="0"/>
      <psa30 value="0.0000904596" flag="0"/>
    </comp>
  </station>
  <station code="NEHR" name="NEHR" netid="RO" insttype="Seismometer/Basalt" lat="45.4272" lon="26.2952">
    <comp name="--.HHE">
      <acc value="0.0142565198" flag="0"/>
      <vel value="0.0038189621" flag="0"/>
      <psa03 value="0.0335502079" flag="0"/>
      <psa10 value="0.0012712923" flag="0"/>
      <psa30 value="0.0001055462" flag="0"/>
    </comp>
    <comp name="--.HHZ">
      <acc value="0.0209958626" flag="0"/>
      <vel value="0.0040926013" flag="0"/>
      <psa03 value="0.0130316414" flag="0"/>
      <psa10 value="0.0005407400" flag="0"/>
      <psa30 value="0.0000569083" flag="0"/>
    </comp>
    <comp name="--.HHN">
      <acc value="0.0110876168" flag="0"/>
      <vel value="0.0026668080" flag="0"/>
      <psa03 value="0.0217067176" flag="0"/>
      <psa10 value="0.0007394385" flag="0"/>
      <psa30 value="0.0000673608" flag="0"/>
    </comp>
  </station>
  <station code="ODBI" name="ODBI" netid="RO" insttype="200" lat="45.7633" lon="27.0558">
    <comp name="--.HNN">
      <acc value="0.0350245615" flag="0"/>
      <vel value="0.0105594605" flag="0"/>
      <psa03 value="0.0591101745" flag="0"/>
      <psa10 value="0.0025833801" flag="0"/>
      <psa30 value="0.0001933829" flag="0"/>
    </comp>
    <comp name="--.HNE">
      <acc value="0.0528656533" flag="0"/>
      <vel value="0.0134053992" flag="0"/>
      <psa03 value="0.0586015793" flag="0"/>
      <psa10 value="0.0054121889" flag="0"/>
      <psa30 value="0.0004291742" flag="0"/>
    </comp>
    <comp name="--.HNZ">
      <acc value="0.0456484674" flag="0"/>
      <vel value="0.0066796651" flag="0"/>
      <psa03 value="0.0365267280" flag="0"/>
      <psa10 value="0.0016613828" flag="0"/>
      <psa30 value="0.0001076543" flag="0"/>
    </comp>
  </station>
  <station code="ONER" name="ONER" netid="RO" insttype="CMG40T.1to100/obsidian" lat="46.3349" lon="26.394">
    <comp name="--.HHZ">
      <acc value="0.0050163545" flag="0"/>
      <vel value="0.0011223479" flag="0"/>
      <psa03 value="0.0052903308" flag="0"/>
      <psa10 value="0.0004071157" flag="0"/>
      <psa30 value="0.0000295608" flag="0"/>
    </comp>
    <comp name="--.HHN">
      <acc value="0.0047865649" flag="0"/>
      <vel value="0.0017221204" flag="0"/>
      <psa03 value="0.0068384745" flag="0"/>
      <psa10 value="0.0011723466" flag="0"/>
      <psa30 value="0.0000437068" flag="0"/>
    </comp>
    <comp name="--.HHE">
      <acc value="0.0040050774" flag="0"/>
      <vel value="0.0016629371" flag="0"/>
      <psa03 value="0.0078812581" flag="0"/>
      <psa10 value="0.0008408203" flag="0"/>
      <psa30 value="0.0000670888" flag="0"/>
    </comp>
  </station>
  <station code="PANC" name="PANC" netid="RO" insttype="Seismometer/Basalt" lat="45.8723" lon="27.1477">
    <comp name="--.HHE">
      <acc value="0.0657776367" flag="0"/>
      <vel value="0.0126011264" flag="0"/>
      <psa03 value="0.0509553790" flag="0"/>
      <psa10 value="0.0030643806" flag="0"/>
      <psa30 value="0.0002995529" flag="0"/>
    </comp>
    <comp name="--.HHN">
      <acc value="0.0626190754" flag="0"/>
      <vel value="0.0136571093" flag="0"/>
      <psa03 value="0.0862036849" flag="0"/>
      <psa10 value="0.0028715138" flag="0"/>
      <psa30 value="0.0002141007" flag="0"/>
    </comp>
    <comp name="--.HHZ">
      <acc value="0.0558890122" flag="0"/>
      <vel value="0.0072743896" flag="0"/>
      <psa03 value="0.0191016671" flag="0"/>
      <psa10 value="0.0007812398" flag="0"/>
      <psa30 value="0.0000836637" flag="0"/>
    </comp>
  </station>
  <station code="PGOR" name="PGOR" netid="RO" insttype="CMG40T.1to100/Quanterra" lat="44.9199" lon="26.9768">
    <comp name="--.HHN">
      <acc value="0.0335834335" flag="0"/>
      <vel value="0.0075571348" flag="0"/>
      <psa03 value="0.0241409268" flag="0"/>
      <psa10 value="0.0021675944" flag="0"/>
      <psa30 value="0.0001805507" flag="0"/>
    </comp>
    <comp name="--.HHZ">
      <acc value="0.1891538681" flag="0"/>
      <vel value="0.0213826017" flag="0"/>
      <psa03 value="0.0162113679" flag="0"/>
      <psa10 value="0.0011506076" flag="0"/>
      <psa30 value="0.0001362031" flag="0"/>
    </comp>
    <comp name="--.HHE">
      <acc value="0.0461133067" flag="0"/>
      <vel value="0.0125266478" flag="0"/>
      <psa03 value="0.0456078414" flag="0"/>
      <psa10 value="0.0025175176" flag="0"/>
      <psa30 value="0.0003110484" flag="0"/>
    </comp>
  </station>
  <station code="PLAR" name="PLAR" netid="RO" insttype="200" lat="44.9142" lon="26.0274">
    <comp name="--.HNE">
      <acc value="0.0279605106" flag="0"/>
      <vel value="0.0093712093" flag="0"/>
      <psa03 value="0.0379757066" flag="0"/>
      <psa10 value="0.0027524069" flag="0"/>
      <psa30 value="0.0003372181" flag="0"/>
    </comp>
    <comp name="--.HNN">
      <acc value="0.0124583694" flag="0"/>
      <vel value="0.0047886014" flag="0"/>
      <psa03 value="0.0185914292" flag="0"/>
      <psa10 value="0.0021135976" flag="0"/>
      <psa30 value="0.0002574810" flag="0"/>
    </comp>
    <comp name="--.HNZ">
      <acc value="0.0350912235" flag="0"/>
      <vel value="0.0036321295" flag="0"/>
      <psa03 value="0.0095331571" flag="0"/>
      <psa10 value="0.0006499227" flag="0"/>
      <psa30 value="0.0000695363" flag="0"/>
    </comp>
  </station>
  <station code="PLOR" name="PLOR" netid="RO" insttype="330" lat="45.8512" lon="26.6498">
    <comp name="--.HHE">
      <acc value="0.0079338193" flag="0"/>
      <vel value="0.0032383159" flag="0"/>
      <psa03 value="0.0213046355" flag="0"/>
      <psa10 value="0.0016782690" flag="0"/>
      <psa30 value="0.0001002331" flag="0"/>
    </comp>
    <comp name="--.HHZ">
      <acc value="0.0098050194" flag="0"/>
      <vel value="0.0013370998" flag="0"/>
      <psa03 value="0.0054674554" flag="0"/>
      <psa10 value="0.0007037986" flag="0"/>
      <psa30 value="0.0000299017" flag="0"/>
    </comp>
    <comp name="--.HHN">
      <acc value="0.0069383225" flag="0"/>
      <vel value="0.0028633637" flag="0"/>
      <psa03 value="0.0229086482" flag="0"/>
      <psa10 value="0.0018301981" flag="0"/>
      <psa30 value="0.0000966817" flag="0"/>
    </comp>
  </station>
  <station code="PLOR4" name="PLOR4" netid="RO" insttype="330" lat="45.8512" lon="26.6498">
    <comp name="--.HHE">
      <acc value="0.0079338193" flag="0"/>
      <vel value="0.0032383159" flag="0"/>
      <psa03 value="0.0213046355" flag="0"/>
      <psa10 value="0.0016782690" flag="0"/>
      <psa30 value="0.0001002331" flag="0"/>
    </comp>
    <comp name="--.HHN">
      <acc value="0.0069383225" flag="0"/>
      <vel value="0.0028633637" flag="0"/>
      <psa03 value="0.0229086482" flag="0"/>
      <psa10 value="0.0018301981" flag="0"/>
      <psa30 value="0.0000966817" flag="0"/>
    </comp>
    <comp name="--.HHZ">
      <acc value="0.0098050194" flag="0"/>
      <vel value="0.0013370998" flag="0"/>
      <psa03 value="0.0054674554" flag="0"/>
      <psa10 value="0.0007037986" flag="0"/>
      <psa30 value="0.0000299017" flag="0"/>
    </comp>
  </station>
  <station code="SAHR" name="SAHR" netid="RO" insttype="2.5V" lat="45.7266" lon="26.6855">
    <comp name="--.HNE">
      <acc value="0.0298118877" flag="0"/>
      <vel value="0.0103060473" flag="0"/>
      <psa03 value="0.0420789391" flag="0"/>
      <psa10 value="0.0038093988" flag="0"/>
      <psa30 value="0.0002687191" flag="0"/>
    </comp>
    <comp name="--.HNN">
      <acc value="0.0326075158" flag="0"/>
      <vel value="0.0079819457" flag="0"/>
      <psa03 value="0.0666789560" flag="0"/>
      <psa10 value="0.0043717910" flag="0"/>
      <psa30 value="0.0002668334" flag="0"/>
    </comp>
    <comp name="--.HNZ">
      <acc value="0.0345797939" flag="0"/>
      <vel value="0.0085300750" flag="0"/>
      <psa03 value="0.0350365827" flag="0"/>
      <psa10 value="0.0020997376" flag="0"/>
      <psa30 value="0.0001679678" flag="0"/>
    </comp>
  </station>
  <station code="SCHL" name="SCHL" netid="RO" insttype="CMG40T.1to100/Quanterra" lat="45.5007" lon="27.8302">
    <comp name="--.HHN">
      <acc value="0.0566158951" flag="0"/>
      <vel value="0.0137275716" flag="0"/>
      <psa03 value="0.0422899468" flag="0"/>
      <psa10 value="0.0053489139" flag="0"/>
      <psa30 value="0.0002926132" flag="0"/>
    </comp>
    <comp name="--.HHE">
      <acc value="0.0317036743" flag="0"/>
      <vel value="0.0097335167" flag="0"/>
      <psa03 value="0.0430871071" flag="0"/>
      <psa10 value="0.0046464490" flag="0"/>
      <psa30 value="0.0003340629" flag="0"/>
    </comp>
    <comp name="--.HHZ">
      <acc value="0.0473975756" flag="0"/>
      <vel value="0.0074275706" flag="0"/>
      <psa03 value="0.0149005600" flag="0"/>
      <psa10 value="0.0012573361" flag="0"/>
      <psa30 value="0.0000899633" flag="0"/>
    </comp>
  </station>
  <station code="SCHLR" name="SCHLR" netid="RO" insttype="CMG40T.1to100/Quanterra" lat="45.4702" lon="27.8314">
    <comp name="--.HHZ">
      <acc value="0.0304661472" flag="0"/>
      <vel value="0.0041187501" flag="0"/>
      <psa03 value="0.0092164017" flag="0"/>
      <psa10 value="0.0004024976" flag="0"/>
      <psa30 value="0.0000492184" flag="0"/>
    </comp>
    <comp name="--.HHE">
      <acc value="0.0536971514" flag="0"/>
      <vel value="0.0093066145" flag="0"/>
      <psa03 value="0.0336205861" flag="0"/>
      <psa10 value="0.0019923519" flag="0"/>
      <psa30 value="0.0002027755" flag="0"/>
    </comp>
    <comp name="--.HHN">
      <acc value="0.0416950094" flag="0"/>
      <vel value="0.0083532745" flag="0"/>
      <psa03 value="0.0400866691" flag="0"/>
      <psa10 value="0.0020439318" flag="0"/>
      <psa30 value="0.0001395599" flag="0"/>
    </comp>
  </station>
  <station code="SCTR" name="SCTR" netid="RO" insttype="MBB2/Basalt" lat="45.6741" lon="27.9949">
    <comp name="--.HHZ">
      <acc value="0.0342248425" flag="0"/>
      <vel value="0.0065583172" flag="0"/>
      <psa03 value="0.0295110308" flag="0"/>
      <psa10 value="0.0027466372" flag="0"/>
      <psa30 value="0.0001768920" flag="0"/>
    </comp>
    <comp name="--.HHN">
      <acc value="0.0677677108" flag="0"/>
      <vel value="0.0134007015" flag="0"/>
      <psa03 value="0.0404164483" flag="0"/>
      <psa10 value="0.0036785527" flag="0"/>
      <psa30 value="0.0003097736" flag="0"/>
    </comp>
    <comp name="--.HHE">
      <acc value="0.0673129938" flag="0"/>
      <vel value="0.0168866876" flag="0"/>
      <psa03 value="0.0813218119" flag="0"/>
      <psa10 value="0.0036841656" flag="0"/>
      <psa30 value="0.0004028875" flag="0"/>
    </comp>
  </station>
  <station code="SULR" name="SULR" netid="RO" insttype="330" lat="44.6777" lon="26.2526">
    <comp name="--.HHE">
      <acc value="0.0384310426" flag="0"/>
      <vel value="0.0117069006" flag="0"/>
      <psa03 value="0.0422203799" flag="0"/>
      <psa10 value="0.0050285017" flag="0"/>
      <psa30 value="0.0004255297" flag="0"/>
    </comp>
    <comp name="--.HHZ">
      <acc value="0.0481048577" flag="0"/>
      <vel value="0.0108308775" flag="0"/>
      <psa03 value="0.0227917773" flag="0"/>
      <psa10 value="0.0011638716" flag="0"/>
      <psa30 value="0.0001341320" flag="0"/>
    </comp>
    <comp name="--.HHN">
      <acc value="0.0411652971" flag="0"/>
      <vel value="0.0108892806" flag="0"/>
      <psa03 value="0.0430933467" flag="0"/>
      <psa10 value="0.0026941628" flag="0"/>
      <psa30 value="0.0003295399" flag="0"/>
    </comp>
  </station>
  <station code="TATR" name="TATR" netid="RO" insttype="MBB2/Basalt" lat="45.5977" lon="28.0498">
    <comp name="--.HHN">
      <acc value="0.0725248456" flag="0"/>
      <vel value="0.0175129893" flag="0"/>
      <psa03 value="0.1109667002" flag="0"/>
      <psa10 value="0.0068108767" flag="0"/>
      <psa30 value="0.0004702256" flag="0"/>
    </comp>
    <comp name="--.HHE">
      <acc value="0.1029630271" flag="0"/>
      <vel value="0.0212980432" flag="0"/>
      <psa03 value="0.0683785360" flag="0"/>
      <psa10 value="0.0064053845" flag="0"/>
      <psa30 value="0.0005430853" flag="0"/>
    </comp>
    <comp name="--.HHZ">
      <acc value="0.0685221918" flag="0"/>
      <vel value="0.0102982221" flag="0"/>
      <psa03 value="0.0427171474" flag="0"/>
      <psa10 value="0.0022464911" flag="0"/>
      <psa30 value="0.0001867675" flag="0"/>
    </comp>
  </station>
  <station code="TESR" name="TESR" netid="RO" insttype="200" lat="46.5118" lon="26.6489">
    <comp name="--.HNZ">
