<?xml version="1.0" encoding="UTF-8" standalone="yes"?>
<!DOCTYPE earthquake SYSTEM "stationlist.dtd">
<stationlist created="" xmlns="ch.ethz.sed.shakemap.usgs.xml">
  <station code="BIR" name="BIR" netid="RO" insttype="MBB2/Quanterra" lat="46.2334" lon="27.6436">
    <comp name="--.HHE">
      <acc value="0.2118860994" flag="0"/>
      <vel value="0.0373253983" flag="0"/>
      <psa03 value="0.0774325600" flag="0"/>
      <psa10 value="0.0071407797" flag="0"/>
      <psa30 value="0.0006204566" flag="0"/>
    </comp>
    <comp name="--.HHZ">
      <acc value="0.0654906878" flag="0"/>
      <vel value="0.0130698075" flag="0"/>
      <psa03 value="0.0594218583" flag="0"/>
      <psa10 value="0.0022011985" flag="0"/>
      <psa30 value="0.0002069558" flag="0"/>
    </comp>
  </station>
  <station code="BISRR" name="BISRR" netid="RO" insttype="CMG40T.1to100/Basalt" lat="45.5481" lon="26.7099">
    <comp name="--.HHE">
      <acc value="0.0547935068" flag="0"/>
      <vel value="0.0086125685" flag="0"/>
      <psa03 value="0.0559195879" flag="0"/>
      <psa10 value="0.0086012674" flag="0"/>
      <psa30 value="0.0003581988" flag="0"/>
    </comp>
    <comp name="--.HHZ">
      <acc value="0.0727480428" flag="0"/>
      <vel value="0.0095481071" flag="0"/>
      <psa03 value="0.0309522694" flag="0"/>
      <psa10 value="0.0034212502" flag="0"/>
      <psa30 value="0.0001766819" flag="0"/>
    </comp>
    <comp name="--.HHN">
      <acc value="0.0299673351" flag="0"/>
      <vel value="0.0089630955" flag="0"/>
      <psa03 value="0.0399430498" flag="0"/>
      <psa10 value="0.0091595240" flag="0"/>
      <psa30 value="0.0004432983" flag="0"/>
    </comp>
  </station>
  <station code="BOSR" name="BOSR" netid="RO" insttype="Seismometer/Basalt" lat="46.0749" lon="25.6611">
    <comp name="--.HHE">
      <acc value="0.0054784212" flag="0"/>
      <vel value="0.0014492085" flag="0"/>
      <psa03 value="0.0094446455" flag="0"/>
      <psa10 value="0.0008685534" flag="0"/>
      <psa30 value="0.0000517281" flag="0"/>
    </comp>
    <comp name="--.HHZ">
      <acc value="0.0099767004" flag="0"/>
      <vel value="0.0020877373" flag="0"/>
      <psa03 value="0.0066431808" flag="0"/>
      <psa10 value="0.0004113586" flag="0"/>
      <psa30 value="0.0000521353" flag="0"/>
    </comp>
    <comp name="--.HHN">
      <acc value="0.0046936920" flag="0"/>
      <vel value="0.0012835808" flag="0"/>
      <psa03 value="0.0075990211" flag="0"/>
      <psa10 value="0.0008448718" flag="0"/>
      <psa30 value="0.0000579719" flag="0"/>
    </comp>
  </station>
  <station code="COPR" name="COPR" netid="RO" insttype="200" lat="45.8442" lon="26.1687">
    <comp name="--.HNE">
      <acc value="0.0137371861" flag="0"/>
      <vel value="0.0038907991" flag="0"/>
      <psa03 value="0.0356594201" flag="0"/>
      <psa10 value="0.0014030519" flag="0"/>
      <psa30 value="0.0000910521" flag="0"/>
    </comp>
    <comp name="--.HNN">
      <acc value="0.0148238802" flag="0"/>
      <vel value="0.0053277021" flag="0"/>
      <psa03 value="0.0414674701" flag="0"/>
      <psa10 value="0.0027381497" flag="0"/>
      <psa30 value="0.0003398869" flag="0"/>
    </comp>
    <comp name="--.HNZ">
      <acc value="0.0125077791" flag="0"/>
      <vel value="0.0054812639" flag="0"/>
      <psa03 value="0.0287885140" flag="0"/>
      <psa10 value="0.0016136121" flag="0"/>
      <psa30 value="0.0001431191" flag="0"/>
    </comp>
  </station>
  <station code="DOPR" name="DOPR" netid="RO" insttype="330" lat="45.9675" lon="25.3886">
    <comp name="--.HHE">
      <acc value="0.0146685235" flag="0"/>
      <vel value="0.0022868102" flag="0"/>
      <psa03 value="0.0080167582" flag="0"/>
      <psa10 value="0.0008652019" flag="0"/>
      <psa30 value="0.0000986100" flag="0"/>
    </comp>
    <comp name="--.HHN">
      <acc value="0.0105896792" flag="0"/>
      <vel value="0.0019422196" flag="0"/>
      <psa03 value="0.0070723271" flag="0"/>
      <psa10 value="0.0009317238" flag="0"/>
      <psa30 value="0.0000391415" flag="0"/>
    </comp>
    <comp name="--.HHZ">
      <acc value="0.0093797588" flag="0"/>
      <vel value="0.0019261551" flag="0"/>
      <psa03 value="0.0058163932" flag="0"/>
      <psa10 value="0.0005713159" flag="0"/>
      <psa30 value="0.0000548386" flag="0"/>
    </comp>
  </station>
  <station code="GISR" name="GISR" netid="RO" insttype="2.5V" lat="45.4411" lon="28.0541">
    <comp name="--.HNN">
      <acc value="0.0507149681" flag="0"/>
      <vel value="0.0138401164" flag="0"/>
      <psa03 value="0.0686085073" flag="0"/>
      <psa10 value="0.0042305918" flag="0"/>
      <psa30 value="0.0005371505" flag="0"/>
    </comp>
    <comp name="--.HNZ">
      <acc value="0.0527708021" flag="0"/>
      <vel value="0.0120459000" flag="0"/>
      <psa03 value="0.0531319107" flag="0"/>
      <psa10 value="0.0018226595" flag="0"/>
      <psa30 value="0.0006090708" flag="0"/>
    </comp>
    <comp name="--.HNE">
      <acc value="0.0816631529" flag="0"/>
      <vel value="0.0248490360" flag="0"/>
      <psa03 value="0.1079075782" flag="0"/>
      <psa10 value="0.0056638938" flag="0"/>
      <psa30 value="0.0008240876" flag="0"/>
    </comp>
  </station>
  <station code="ISR" name="ISR" netid="RO" insttype="CMG3ESP/Quanterra" lat="45.1187" lon="26.5432">
    <comp name="--.HHE">
      <acc value="0.0800246935" flag="0"/>
      <vel value="0.0054793888" flag="0"/>
      <psa03 value="0.0136581019" flag="0"/>
      <psa10 value="0.0010608048" flag="0"/>
      <psa30 value="0.0000807854" flag="0"/>
    </comp>
    <comp name="--.HHN">
      <acc value="0.0634039685" flag="0"/>
      <vel value="0.0044315754" flag="0"/>
      <psa03 value="0.0276262813" flag="0"/>
      <psa10 value="0.0019783836" flag="0"/>
      <psa30 value="0.0001367861" flag="0"/>
    </comp>
    <comp name="--.HHZ">
      <acc value="0.0294462833" flag="0"/>
      <vel value="0.0036183552" flag="0"/>
      <psa03 value="0.0153816432" flag="0"/>
      <psa10 value="0.0009749762" flag="0"/>
      <psa30 value="0.0000584743" flag="0"/>
    </comp>
  </station>
  <station code="IZVR" name="IZVR" netid="RO" insttype="CMG40T.1to100/Quanterra" lat="45.5442" lon="27.7655">
    <comp name="--.HHN">
      <acc value="0.0396479955" flag="0"/>
      <vel value="0.0104451624" flag="0"/>
      <psa03 value="0.0637147517" flag="0"/>
      <psa10 value="0.0027280157" flag="0"/>
      <psa30 value="0.0002199321" flag="0"/>
    </comp>
    <comp name="--.HHZ">
      <acc value="0.0282970652" flag="0"/>
      <vel value="0.0031352401" flag="0"/>
      <psa03 value="0.0081053898" flag="0"/>
      <psa10 value="0.0006592444" flag="0"/>
      <psa30 value="0.0000530000" flag="0"/>
    </comp>
    <comp name="--.HHE">
      <acc value="0.0405055655" flag="0"/>
      <vel value="0.0071224125" flag="0"/>
      <psa03 value="0.0311181634" flag="0"/>
      <psa10 value="0.0021731093" flag="0"/>
      <psa30 value="0.0002408330" flag="0"/>
    </comp>
  </station>
  <station code="MLR" name="MLR" netid="RO" insttype="330HR" lat="45.4909" lon="25.945">
    <comp name="--.HHN">
      <acc value="0.0055098077" flag="0"/>
      <vel value="0.0020680617" flag="0"/>
      <psa03 value="0.0078035604" flag="0"/>
      <psa10 value="0.0009316576" flag="0"/>
      <psa30 value="0.0000837481" flag="0"/>
    </comp>
    <comp name="--.HHZ">
      <acc value="0.0049127416" flag="0"/>
      <vel value="0.0012704303" flag="0"/>
      <psa03 value="0.0051362302" flag="0"/>
      <psa10 value="0.0006852154" flag="0"/>
      <psa30 value="0.0000600509" flag="0"/>
    </comp>
    <comp name="--.HHE">
      <acc value="0.0031946599" flag="0"/>
      <vel value="0.0020939760" flag="0"/>
      <psa03 value="0.0055283767" flag="0"/>
      <psa10 value="0.0024988835" flag="0"/>
      <psa30 value="0.0001020201" flag="0"/>
    </comp>
  </station>
  <station code="NEGRR" name="NEGRR" netid="RO" insttype="CMG40T.1to100/Quanterra" lat="45.5373" lon="27.8771">
    <comp name="--.HHE">
      <acc value="0.0689713235" flag="0"/>
      <vel value="0.0124320858" flag="0"/>
      <psa03 value="0.0231060286" flag="0"/>
      <psa10 value="0.0033161138" flag="0"/>
      <psa30 value="0.0003159280" flag="0"/>
    </comp>
    <comp name="--.HHZ">
      <acc value="0.0255030104" flag="0"/>
      <vel value="0.0039349916" flag="0"/>
      <psa03 value="0.0158384245" flag="0"/>
      <psa10 value="0.0014177171" flag="0"/>
      <psa30 value="0.0000904634" flag="0"/>
    </comp>
    <comp name="--.HHN">
      <acc value="0.0640465759" flag="0"/>
      <vel value="0.0116333533" flag="0"/>
      <psa03 value="0.0341768800" flag="0"/>
      <psa10 value="0.0025608814" flag="0"/>
      <psa30 value="0.0002151562" flag="0"/>
    </comp>
  </station>
  <station code="NEHR" name="NEHR" netid="RO" insttype="Seismometer/Basalt" lat="45.4272" lon="26.2952">
    <comp name="--.HHN">
      <acc value="0.0110876169" flag="0"/>
      <vel value="0.0026668061" flag="0"/>
      <psa03 value="0.0217067176" flag="0"/>
      <psa10 value="0.0007394385" flag="0"/>
      <psa30 value="0.0000673888" flag="0"/>
    </comp>
    <comp name="--.HHZ">
      <acc value="0.0209958627" flag="0"/>
      <vel value="0.0040926010" flag="0"/>
      <psa03 value="0.0130316414" flag="0"/>
      <psa10 value="0.0005407400" flag="0"/>
      <psa30 value="0.0000569017" flag="0"/>
    </comp>
    <comp name="--.HHE">
      <acc value="0.0142565198" flag="0"/>
      <vel value="0.0038189621" flag="0"/>
      <psa03 value="0.0335502079" flag="0"/>
      <psa10 value="0.0012712923" flag="0"/>
      <psa30 value="0.0001055453" flag="0"/>
    </comp>
  </station>
  <station code="ODBI" name="ODBI" netid="RO" insttype="200" lat="45.7633" lon="27.0558">
    <comp name="--.HNZ">
      <acc value="0.0456484674" flag="0"/>
      <vel value="0.0066796649" flag="0"/>
      <psa03 value="0.0365267280" flag="0"/>
      <psa10 value="0.0016613828" flag="0"/>
      <psa30 value="0.0001077208" flag="0"/>
    </comp>
    <comp name="--.HNN">
      <acc value="0.0350245615" flag="0"/>
      <vel value="0.0105594606" flag="0"/>
      <psa03 value="0.0591101745" flag="0"/>
      <psa10 value="0.0025833800" flag="0"/>
      <psa30 value="0.0001934599" flag="0"/>
    </comp>
    <comp name="--.HNE">
      <acc value="0.0528656536" flag="0"/>
      <vel value="0.0134053998" flag="0"/>
      <psa03 value="0.0586015793" flag="0"/>
      <psa10 value="0.0054121889" flag="0"/>
      <psa30 value="0.0004291458" flag="0"/>
    </comp>
  </station>
  <station code="ODSR" name="ODSR" netid="RO" insttype="CMG40T.1to100/Quanterra" lat="46.2969" lon="25.2919">
    <comp name="--.HHE">
      <acc value="0.0076542156" flag="0"/>
      <vel value="0.0013767196" flag="0"/>
      <psa03 value="0.0047423819" flag="0"/>
      <psa10 value="0.0005194738" flag="0"/>
      <psa30 value="0.0000554352" flag="0"/>
    </comp>
    <comp name="--.HHZ">
      <acc value="0.0031401361" flag="0"/>
      <vel value="0.0009205785" flag="0"/>
      <psa03 value="0.0025745081" flag="0"/>
      <psa10 value="0.0002284401" flag="0"/>
      <psa30 value="0.0000259683" flag="0"/>
    </comp>
    <comp name="--.HHN">
      <acc value="0.0029403024" flag="0"/>
      <vel value="0.0006566355" flag="0"/>
      <psa03 value="0.0042700372" flag="0"/>
      <psa10 value="0.0005414410" flag="0"/>
      <psa30 value="0.0000403840" flag="0"/>
    </comp>
  </station>
  <station code="ONER" name="ONER" netid="RO" insttype="CMG40T.1to100/obsidian" lat="46.3349" lon="26.394">
    <comp name="--.HHE">
      <acc value="0.0040050773" flag="0"/>
      <vel value="0.0016629383" flag="0"/>
      <psa03 value="0.0078812581" flag="0"/>
      <psa10 value="0.0008408203" flag="0"/>
      <psa30 value="0.0000670855" flag="0"/>
    </comp>
    <comp name="--.HHZ">
      <acc value="0.0050163544" flag="0"/>
      <vel value="0.0011223480" flag="0"/>
      <psa03 value="0.0052903308" flag="0"/>
      <psa10 value="0.0004071156" flag="0"/>
      <psa30 value="0.0000295499" flag="0"/>
    </comp>
    <comp name="--.HHN">
      <acc value="0.0047865650" flag="0"/>
      <vel value="0.0017221208" flag="0"/>
      <psa03 value="0.0068384745" flag="0"/>
      <psa10 value="0.0011723466" flag="0"/>
      <psa30 value="0.0000437046" flag="0"/>
    </comp>
  </station>
  <station code="PANC" name="PANC" netid="RO" insttype="Seismometer/Basalt" lat="45.8723" lon="27.1477">
    <comp name="--.HHZ">
      <acc value="0.0558890122" flag="0"/>
      <vel value="0.0072743893" flag="0"/>
      <psa03 value="0.0191016671" flag="0"/>
      <psa10 value="0.0007812398" flag="0"/>
      <psa30 value="0.0000836622" flag="0"/>
    </comp>
    <comp name="--.HHN">
      <acc value="0.0626190754" flag="0"/>
      <vel value="0.0136571091" flag="0"/>
      <psa03 value="0.0862036849" flag="0"/>
      <psa10 value="0.0028715138" flag="0"/>
      <psa30 value="0.0002140957" flag="0"/>
    </comp>
    <comp name="--.HHE">
      <acc value="0.0657776366" flag="0"/>
      <vel value="0.0126011260" flag="0"/>
      <psa03 value="0.0509553790" flag="0"/>
      <psa10 value="0.0030643806" flag="0"/>
      <psa30 value="0.0002995446" flag="0"/>
    </comp>
  </station>
  <station code="PGOR" name="PGOR" netid="RO" insttype="CMG40T.1to100/Quanterra" lat="44.9199" lon="26.9768">
    <comp name="--.HHN">
      <acc value="0.0335834335" flag="0"/>
      <vel value="0.0075571333" flag="0"/>
      <psa03 value="0.0241409268" flag="0"/>
      <psa10 value="0.0021675944" flag="0"/>
      <psa30 value="0.0001805491" flag="0"/>
    </comp>
    <comp name="--.HHZ">
      <acc value="0.1891538681" flag="0"/>
      <vel value="0.0213825959" flag="0"/>
      <psa03 value="0.0162113679" flag="0"/>
      <psa10 value="0.0011506083" flag="0"/>
      <psa30 value="0.0001361453" flag="0"/>
    </comp>
    <comp name="--.HHE">
      <acc value="0.0461133067" flag="0"/>
      <vel value="0.0125266599" flag="0"/>
      <psa03 value="0.0456078414" flag="0"/>
      <psa10 value="0.0025175176" flag="0"/>
      <psa30 value="0.0003110256" flag="0"/>
    </comp>
  </station>
  <station code="PLAR" name="PLAR" netid="RO" insttype="200" lat="44.9142" lon="26.0274">
    <comp name="--.HNN">
      <acc value="0.0124583698" flag="0"/>
      <vel value="0.0047886013" flag="0"/>
      <psa03 value="0.0185914292" flag="0"/>
      <psa10 value="0.0021135976" flag="0"/>
      <psa30 value="0.0002574559" flag="0"/>
    </comp>
    <comp name="--.HNZ">
      <acc value="0.0350912233" flag="0"/>
      <vel value="0.0036321293" flag="0"/>
      <psa03 value="0.0095331571" flag="0"/>
      <psa10 value="0.0006499190" flag="0"/>
      <psa30 value="0.0000695336" flag="0"/>
    </comp>
    <comp name="--.HNE">
      <acc value="0.0279605109" flag="0"/>
      <vel value="0.0093712094" flag="0"/>
      <psa03 value="0.0379757066" flag="0"/>
      <psa10 value="0.0027524069" flag="0"/>
      <psa30 value="0.0003371914" flag="0"/>
    </comp>
  </station>
  <station code="PLOR" name="PLOR" netid="RO" insttype="330" lat="45.8512" lon="26.6498">
    <comp name="--.HHE">
      <acc value="0.0079338193" flag="0"/>
      <vel value="0.0032383159" flag="0"/>
      <psa03 value="0.0213046355" flag="0"/>
      <psa10 value="0.0016782690" flag="0"/>
      <psa30 value="0.0001002351" flag="0"/>
    </comp>
    <comp name="--.HHN">
      <acc value="0.0069383225" flag="0"/>
      <vel value="0.0028633638" flag="0"/>
      <psa03 value="0.0229086482" flag="0"/>
      <psa10 value="0.0018301981" flag="0"/>
      <psa30 value="0.0000966815" flag="0"/>
    </comp>
    <comp name="--.HHZ">
      <acc value="0.0098050194" flag="0"/>
      <vel value="0.0013370998" flag="0"/>
      <psa03 value="0.0054674554" flag="0"/>
      <psa10 value="0.0007037986" flag="0"/>
      <psa30 value="0.0000299023" flag="0"/>
    </comp>
  </station>
  <station code="PLOR4" name="PLOR4" netid="RO" insttype="330" lat="45.8512" lon="26.6498">
    <comp name="--.HHN">
      <acc value="0.0069383225" flag="0"/>
      <vel value="0.0028633638" flag="0"/>
      <psa03 value="0.0229086482" flag="0"/>
      <psa10 value="0.0018301981" flag="0"/>
      <psa30 value="0.0000966815" flag="0"/>
    </comp>
    <comp name="--.HHZ">
      <acc value="0.0098050194" flag="0"/>
      <vel value="0.0013370998" flag="0"/>
      <psa03 value="0.0054674554" flag="0"/>
      <psa10 value="0.0007037986" flag="0"/>
      <psa30 value="0.0000299023" flag="0"/>
    </comp>
    <comp name="--.HHE">
      <acc value="0.0079338193" flag="0"/>
      <vel value="0.0032383159" flag="0"/>
      <psa03 value="0.0213046355" flag="0"/>
      <psa10 value="0.0016782690" flag="0"/>
      <psa30 value="0.0001002351" flag="0"/>
    </comp>
  </station>
  <station code="SAHR" name="SAHR" netid="RO" insttype="2.5V" lat="45.7266" lon="26.6855">
    <comp name="--.HNE">
      <acc value="0.0298118870" flag="0"/>
      <vel value="0.0103060474" flag="0"/>
      <psa03 value="0.0420789391" flag="0"/>
      <psa10 value="0.0038093988" flag="0"/>
      <psa30 value="0.0002686887" flag="0"/>
    </comp>
    <comp name="--.HNZ">
      <acc value="0.0345797939" flag="0"/>
      <vel value="0.0085300749" flag="0"/>
      <psa03 value="0.0350365827" flag="0"/>
      <psa10 value="0.0020997376" flag="0"/>
      <psa30 value="0.0001685834" flag="0"/>
    </comp>
    <comp name="--.HNN">
      <acc value="0.0326075159" flag="0"/>
      <vel value="0.0079819457" flag="0"/>
      <psa03 value="0.0666789560" flag="0"/>
      <psa10 value="0.0043717910" flag="0"/>
      <psa30 value="0.0002668085" flag="0"/>
    </comp>
  </station>
  <station code="SCHL" name="SCHL" netid="RO" insttype="CMG40T.1to100/Quanterra" lat="45.5007" lon="27.8302">
    <comp name="--.HHE">
      <acc value="0.0317036743" flag="0"/>
      <vel value="0.0097335107" flag="0"/>
      <psa03 value="0.0430871072" flag="0"/>
      <psa10 value="0.0046464490" flag="0"/>
      <psa30 value="0.0003340780" flag="0"/>
    </comp>
    <comp name="--.HHN">
      <acc value="0.0566158951" flag="0"/>
      <vel value="0.0137275711" flag="0"/>
      <psa03 value="0.0422899468" flag="0"/>
      <psa10 value="0.0053489139" flag="0"/>
      <psa30 value="0.0002926117" flag="0"/>
    </comp>
    <comp name="--.HHZ">
      <acc value="0.0473975756" flag="0"/>
      <vel value="0.0074275667" flag="0"/>
      <psa03 value="0.0149005600" flag="0"/>
      <psa10 value="0.0012573361" flag="0"/>
      <psa30 value="0.0000899698" flag="0"/>
    </comp>
  </station>
  <station code="SCHLR" name="SCHLR" netid="RO" insttype="CMG40T.1to100/Quanterra" lat="45.4702" lon="27.8314">
    <comp name="--.HHZ">
      <acc value="0.0304661473" flag="0"/>
      <vel value="0.0041187500" flag="0"/>
      <psa03 value="0.0092164017" flag="0"/>
      <psa10 value="0.0004024976" flag="0"/>
      <psa30 value="0.0000492190" flag="0"/>
    </comp>
    <comp name="--.HHE">
      <acc value="0.0536971514" flag="0"/>
      <vel value="0.0093066143" flag="0"/>
      <psa03 value="0.0336205861" flag="0"/>
      <psa10 value="0.0019923519" flag="0"/>
      <psa30 value="0.0002027662" flag="0"/>
    </comp>
    <comp name="--.HHN">
      <acc value="0.0416950094" flag="0"/>
      <vel value="0.0083532745" flag="0"/>
      <psa03 value="0.0400866691" flag="0"/>
      <psa10 value="0.0020439318" flag="0"/>
      <psa30 value="0.0001395580" flag="0"/>
    </comp>
  </station>
  <station code="SCTR" name="SCTR" netid="RO" insttype="MBB2/Basalt" lat="45.6741" lon="27.9949">
    <comp name="--.HHZ">
      <acc value="0.0342248424" flag="0"/>
      <vel value="0.0065583170" flag="0"/>
      <psa03 value="0.0295110308" flag="0"/>
      <psa10 value="0.0027466372" flag="0"/>
      <psa30 value="0.0001768914" flag="0"/>
    </comp>
    <comp name="--.HHN">
      <acc value="0.0677677108" flag="0"/>
      <vel value="0.0134007034" flag="0"/>
      <psa03 value="0.0404164483" flag="0"/>
      <psa10 value="0.0036785527" flag="0"/>
