<?xml version="1.0" encoding="UTF-8" standalone="yes"?>
<!DOCTYPE earthquake SYSTEM "stationlist.dtd">
<stationlist created="" xmlns="ch.ethz.sed.shakemap.usgs.xml">
  <station code="BIR" name="BIR" netid="RO" insttype="200" lat="46.2334" lon="27.6436">
    <comp name="--.HNZ">
      <acc value="0.0655662848" flag="0"/>
      <vel value="0.0132262481" flag="0"/>
      <psa03 value="0.0608596814" flag="0"/>
      <psa10 value="0.0022637501" flag="0"/>
      <psa30 value="0.0002116694" flag="0"/>
    </comp>
  </station>
  <station code="BISRR" name="BISRR" netid="RO" insttype="CMG40T.1to100/Basalt" lat="45.5481" lon="26.7099">
    <comp name="--.HHN">
      <acc value="0.0299673355" flag="0"/>
      <vel value="0.0089630958" flag="0"/>
      <psa03 value="0.0399430498" flag="0"/>
      <psa10 value="0.0091595240" flag="0"/>
      <psa30 value="0.0004432355" flag="0"/>
    </comp>
    <comp name="--.HHE">
      <acc value="0.0547935067" flag="0"/>
      <vel value="0.0086125713" flag="0"/>
      <psa03 value="0.0559195879" flag="0"/>
      <psa10 value="0.0086012673" flag="0"/>
      <psa30 value="0.0003582219" flag="0"/>
    </comp>
  </station>
  <station code="BOSR" name="BOSR" netid="RO" insttype="Seismometer/Basalt" lat="46.0749" lon="25.6611">
    <comp name="--.HHE">
      <acc value="0.0054784212" flag="0"/>
      <vel value="0.0014492092" flag="0"/>
      <psa03 value="0.0094446455" flag="0"/>
      <psa10 value="0.0008685533" flag="0"/>
      <psa30 value="0.0000517459" flag="0"/>
    </comp>
    <comp name="--.HHN">
      <acc value="0.0046936922" flag="0"/>
      <vel value="0.0012835811" flag="0"/>
      <psa03 value="0.0075990211" flag="0"/>
      <psa10 value="0.0008448717" flag="0"/>
      <psa30 value="0.0000579720" flag="0"/>
    </comp>
    <comp name="--.HHZ">
      <acc value="0.0099767007" flag="0"/>
      <vel value="0.0020877370" flag="0"/>
      <psa03 value="0.0066431808" flag="0"/>
      <psa10 value="0.0004113617" flag="0"/>
      <psa30 value="0.0000520666" flag="0"/>
    </comp>
  </station>
  <station code="COPR" name="COPR" netid="RO" insttype="200" lat="45.8442" lon="26.1687">
    <comp name="--.HNE">
      <acc value="0.0137371846" flag="0"/>
      <vel value="0.0038907991" flag="0"/>
      <psa03 value="0.0356594201" flag="0"/>
      <psa10 value="0.0014030603" flag="0"/>
      <psa30 value="0.0000910197" flag="0"/>
    </comp>
    <comp name="--.HNN">
      <acc value="0.0148238804" flag="0"/>
      <vel value="0.0053277118" flag="0"/>
      <psa03 value="0.0414674701" flag="0"/>
      <psa10 value="0.0027380231" flag="0"/>
      <psa30 value="0.0003398932" flag="0"/>
    </comp>
    <comp name="--.HNZ">
      <acc value="0.0125077774" flag="0"/>
      <vel value="0.0054812636" flag="0"/>
      <psa03 value="0.0287885140" flag="0"/>
      <psa10 value="0.0016136063" flag="0"/>
      <psa30 value="0.0001432373" flag="0"/>
    </comp>
  </station>
  <station code="DOPR" name="DOPR" netid="RO" insttype="330" lat="45.9675" lon="25.3886">
    <comp name="--.HHE">
      <acc value="0.0146685236" flag="0"/>
      <vel value="0.0022868100" flag="0"/>
      <psa03 value="0.0080167582" flag="0"/>
      <psa10 value="0.0008652019" flag="0"/>
      <psa30 value="0.0000986154" flag="0"/>
    </comp>
    <comp name="--.HHN">
      <acc value="0.0105896797" flag="0"/>
      <vel value="0.0019422197" flag="0"/>
      <psa03 value="0.0070723271" flag="0"/>
      <psa10 value="0.0009317238" flag="0"/>
      <psa30 value="0.0000391420" flag="0"/>
    </comp>
    <comp name="--.HHZ">
      <acc value="0.0093797597" flag="0"/>
      <vel value="0.0019261548" flag="0"/>
      <psa03 value="0.0058163932" flag="0"/>
      <psa10 value="0.0005713153" flag="0"/>
      <psa30 value="0.0000549546" flag="0"/>
    </comp>
  </station>
  <station code="GISR" name="GISR" netid="RO" insttype="2.5V" lat="45.4411" lon="28.0541">
    <comp name="--.HNE">
      <acc value="0.0816631530" flag="0"/>
      <vel value="0.0248490354" flag="0"/>
      <psa03 value="0.1079075782" flag="0"/>
      <psa10 value="0.0056638939" flag="0"/>
      <psa30 value="0.0008240803" flag="0"/>
    </comp>
    <comp name="--.HNN">
      <acc value="0.0507149680" flag="0"/>
      <vel value="0.0138401162" flag="0"/>
      <psa03 value="0.0686085073" flag="0"/>
      <psa10 value="0.0042305918" flag="0"/>
      <psa30 value="0.0005371125" flag="0"/>
    </comp>
    <comp name="--.HNZ">
      <acc value="0.0527708022" flag="0"/>
      <vel value="0.0120459001" flag="0"/>
      <psa03 value="0.0531319107" flag="0"/>
      <psa10 value="0.0018226595" flag="0"/>
      <psa30 value="0.0006092908" flag="0"/>
    </comp>
  </station>
  <station code="ISR" name="ISR" netid="RO" insttype="CMG3ESP/Quanterra" lat="45.1187" lon="26.5432">
    <comp name="--.HHN">
      <acc value="0.0634039686" flag="0"/>
      <vel value="0.0044315752" flag="0"/>
      <psa03 value="0.0276262813" flag="0"/>
      <psa10 value="0.0019783836" flag="0"/>
      <psa30 value="0.0001367869" flag="0"/>
    </comp>
    <comp name="--.HHE">
      <acc value="0.0800246935" flag="0"/>
      <vel value="0.0054793886" flag="0"/>
      <psa03 value="0.0136581019" flag="0"/>
      <psa10 value="0.0010608048" flag="0"/>
      <psa30 value="0.0000807646" flag="0"/>
    </comp>
    <comp name="--.HHZ">
      <acc value="0.0294462831" flag="0"/>
      <vel value="0.0036183554" flag="0"/>
      <psa03 value="0.0153816432" flag="0"/>
      <psa10 value="0.0009749762" flag="0"/>
      <psa30 value="0.0000585581" flag="0"/>
    </comp>
  </station>
  <station code="IZVR" name="IZVR" netid="RO" insttype="CMG40T.1to100/Quanterra" lat="45.5442" lon="27.7655">
    <comp name="--.HHN">
      <acc value="0.0396479955" flag="0"/>
      <vel value="0.0104451633" flag="0"/>
      <psa03 value="0.0637147517" flag="0"/>
      <psa10 value="0.0027280157" flag="0"/>
      <psa30 value="0.0002199237" flag="0"/>
    </comp>
    <comp name="--.HHE">
      <acc value="0.0405055655" flag="0"/>
      <vel value="0.0071224128" flag="0"/>
      <psa03 value="0.0311181634" flag="0"/>
      <psa10 value="0.0021731093" flag="0"/>
      <psa30 value="0.0002408354" flag="0"/>
    </comp>
    <comp name="--.HHZ">
      <acc value="0.0282970652" flag="0"/>
      <vel value="0.0031352403" flag="0"/>
      <psa03 value="0.0081053898" flag="0"/>
      <psa10 value="0.0006592444" flag="0"/>
      <psa30 value="0.0000530001" flag="0"/>
    </comp>
  </station>
  <station code="MLR" name="MLR" netid="RO" insttype="330HR" lat="45.4909" lon="25.945">
    <comp name="--.HHE">
      <acc value="0.0031946598" flag="0"/>
      <vel value="0.0020939759" flag="0"/>
      <psa03 value="0.0055283767" flag="0"/>
      <psa10 value="0.0024988835" flag="0"/>
      <psa30 value="0.0001020332" flag="0"/>
    </comp>
    <comp name="--.HHN">
      <acc value="0.0055098072" flag="0"/>
      <vel value="0.0020680618" flag="0"/>
      <psa03 value="0.0078035604" flag="0"/>
      <psa10 value="0.0009316576" flag="0"/>
      <psa30 value="0.0000837561" flag="0"/>
    </comp>
    <comp name="--.HHZ">
      <acc value="0.0049127417" flag="0"/>
      <vel value="0.0012704303" flag="0"/>
      <psa03 value="0.0051362302" flag="0"/>
      <psa10 value="0.0006852154" flag="0"/>
      <psa30 value="0.0000601396" flag="0"/>
    </comp>
  </station>
  <station code="NEGRR" name="NEGRR" netid="RO" insttype="CMG40T.1to100/Quanterra" lat="45.5373" lon="27.8771">
    <comp name="--.HHE">
      <acc value="0.0689713235" flag="0"/>
      <vel value="0.0124320857" flag="0"/>
      <psa03 value="0.0231060286" flag="0"/>
      <psa10 value="0.0033161138" flag="0"/>
      <psa30 value="0.0003159278" flag="0"/>
    </comp>
    <comp name="--.HHZ">
      <acc value="0.0255030104" flag="0"/>
      <vel value="0.0039349916" flag="0"/>
      <psa03 value="0.0158384245" flag="0"/>
      <psa10 value="0.0014177171" flag="0"/>
      <psa30 value="0.0000904617" flag="0"/>
    </comp>
    <comp name="--.HHN">
      <acc value="0.0640465759" flag="0"/>
      <vel value="0.0116333523" flag="0"/>
      <psa03 value="0.0341768800" flag="0"/>
      <psa10 value="0.0025608814" flag="0"/>
      <psa30 value="0.0002151567" flag="0"/>
    </comp>
  </station>
  <station code="NEHR" name="NEHR" netid="RO" insttype="Seismometer/Basalt" lat="45.4272" lon="26.2952">
    <comp name="--.HHE">
      <acc value="0.0142565201" flag="0"/>
      <vel value="0.0038189621" flag="0"/>
      <psa03 value="0.0335502079" flag="0"/>
      <psa10 value="0.0012712923" flag="0"/>
      <psa30 value="0.0001055279" flag="0"/>
    </comp>
    <comp name="--.HHN">
      <acc value="0.0110876169" flag="0"/>
      <vel value="0.0026668056" flag="0"/>
      <psa03 value="0.0217067176" flag="0"/>
      <psa10 value="0.0007394385" flag="0"/>
      <psa30 value="0.0000674205" flag="0"/>
    </comp>
    <comp name="--.HHZ">
      <acc value="0.0209958629" flag="0"/>
      <vel value="0.0040925993" flag="0"/>
      <psa03 value="0.0130316414" flag="0"/>
      <psa10 value="0.0005407400" flag="0"/>
      <psa30 value="0.0000568435" flag="0"/>
    </comp>
  </station>
  <station code="ODBI" name="ODBI" netid="RO" insttype="200" lat="45.7633" lon="27.0558">
    <comp name="--.HNZ">
      <acc value="0.0456484673" flag="0"/>
      <vel value="0.0066796655" flag="0"/>
      <psa03 value="0.0365267280" flag="0"/>
      <psa10 value="0.0016613828" flag="0"/>
      <psa30 value="0.0001075587" flag="0"/>
    </comp>
    <comp name="--.HNE">
      <acc value="0.0528656528" flag="0"/>
      <vel value="0.0134053981" flag="0"/>
      <psa03 value="0.0586015793" flag="0"/>
      <psa10 value="0.0054121887" flag="0"/>
      <psa30 value="0.0004292821" flag="0"/>
    </comp>
    <comp name="--.HNN">
      <acc value="0.0350245615" flag="0"/>
      <vel value="0.0105594593" flag="0"/>
      <psa03 value="0.0591101745" flag="0"/>
      <psa10 value="0.0025833806" flag="0"/>
      <psa30 value="0.0001933577" flag="0"/>
    </comp>
  </station>
  <station code="ONER" name="ONER" netid="RO" insttype="CMG40T.1to100/obsidian" lat="46.3349" lon="26.394">
    <comp name="--.HHE">
      <acc value="0.0040050776" flag="0"/>
      <vel value="0.0016629402" flag="0"/>
      <psa03 value="0.0078812581" flag="0"/>
      <psa10 value="0.0008408203" flag="0"/>
      <psa30 value="0.0000670769" flag="0"/>
    </comp>
    <comp name="--.HHN">
      <acc value="0.0047865648" flag="0"/>
      <vel value="0.0017221219" flag="0"/>
      <psa03 value="0.0068384745" flag="0"/>
      <psa10 value="0.0011723466" flag="0"/>
      <psa30 value="0.0000437050" flag="0"/>
    </comp>
    <comp name="--.HHZ">
      <acc value="0.0050163546" flag="0"/>
      <vel value="0.0011223474" flag="0"/>
      <psa03 value="0.0052903308" flag="0"/>
      <psa10 value="0.0004071159" flag="0"/>
      <psa30 value="0.0000295824" flag="0"/>
    </comp>
  </station>
  <station code="PANC" name="PANC" netid="RO" insttype="Seismometer/Basalt" lat="45.8723" lon="27.1477">
    <comp name="--.HHE">
      <acc value="0.0657776367" flag="0"/>
      <vel value="0.0126011267" flag="0"/>
      <psa03 value="0.0509553790" flag="0"/>
      <psa10 value="0.0030643806" flag="0"/>
      <psa30 value="0.0002995656" flag="0"/>
    </comp>
    <comp name="--.HHZ">
      <acc value="0.0558890122" flag="0"/>
      <vel value="0.0072743897" flag="0"/>
      <psa03 value="0.0191016671" flag="0"/>
      <psa10 value="0.0007812398" flag="0"/>
      <psa30 value="0.0000836796" flag="0"/>
    </comp>
    <comp name="--.HHN">
      <acc value="0.0626190754" flag="0"/>
      <vel value="0.0136571095" flag="0"/>
      <psa03 value="0.0862036849" flag="0"/>
      <psa10 value="0.0028715138" flag="0"/>
      <psa30 value="0.0002141051" flag="0"/>
    </comp>
  </station>
  <station code="PGOR" name="PGOR" netid="RO" insttype="CMG40T.1to100/Quanterra" lat="44.9199" lon="26.9768">
    <comp name="--.HHE">
      <acc value="0.0461133065" flag="0"/>
      <vel value="0.0125266717" flag="0"/>
      <psa03 value="0.0456078414" flag="0"/>
      <psa10 value="0.0025175174" flag="0"/>
      <psa30 value="0.0003109930" flag="0"/>
    </comp>
    <comp name="--.HHN">
      <acc value="0.0335834337" flag="0"/>
      <vel value="0.0075571321" flag="0"/>
      <psa03 value="0.0241409268" flag="0"/>
      <psa10 value="0.0021675945" flag="0"/>
      <psa30 value="0.0001805306" flag="0"/>
    </comp>
    <comp name="--.HHZ">
      <acc value="0.1891538678" flag="0"/>
      <vel value="0.0213826011" flag="0"/>
      <psa03 value="0.0162113679" flag="0"/>
      <psa10 value="0.0011506104" flag="0"/>
      <psa30 value="0.0001363291" flag="0"/>
    </comp>
  </station>
  <station code="PLAR" name="PLAR" netid="RO" insttype="200" lat="44.9142" lon="26.0274">
    <comp name="--.HNE">
      <acc value="0.0279605117" flag="0"/>
      <vel value="0.0093712099" flag="0"/>
      <psa03 value="0.0379757066" flag="0"/>
      <psa10 value="0.0027524068" flag="0"/>
      <psa30 value="0.0003372229" flag="0"/>
    </comp>
    <comp name="--.HNN">
      <acc value="0.0124583712" flag="0"/>
      <vel value="0.0047886007" flag="0"/>
      <psa03 value="0.0185914292" flag="0"/>
      <psa10 value="0.0021135976" flag="0"/>
      <psa30 value="0.0002574310" flag="0"/>
    </comp>
    <comp name="--.HNZ">
      <acc value="0.0350912222" flag="0"/>
      <vel value="0.0036321281" flag="0"/>
      <psa03 value="0.0095331571" flag="0"/>
      <psa10 value="0.0006499022" flag="0"/>
      <psa30 value="0.0000695291" flag="0"/>
    </comp>
  </station>
  <station code="PLOR" name="PLOR" netid="RO" insttype="330" lat="45.8512" lon="26.6498">
    <comp name="--.HHN">
      <acc value="0.0069383224" flag="0"/>
      <vel value="0.0028633637" flag="0"/>
      <psa03 value="0.0229086482" flag="0"/>
      <psa10 value="0.0018301981" flag="0"/>
      <psa30 value="0.0000966835" flag="0"/>
    </comp>
    <comp name="--.HHE">
      <acc value="0.0079338192" flag="0"/>
      <vel value="0.0032383160" flag="0"/>
      <psa03 value="0.0213046355" flag="0"/>
      <psa10 value="0.0016782690" flag="0"/>
      <psa30 value="0.0001002230" flag="0"/>
    </comp>
    <comp name="--.HHZ">
      <acc value="0.0098050194" flag="0"/>
      <vel value="0.0013370998" flag="0"/>
      <psa03 value="0.0054674554" flag="0"/>
      <psa10 value="0.0007037986" flag="0"/>
      <psa30 value="0.0000298987" flag="0"/>
    </comp>
  </station>
  <station code="PLOR4" name="PLOR4" netid="RO" insttype="330" lat="45.8512" lon="26.6498">
    <comp name="--.HHE">
      <acc value="0.0079338192" flag="0"/>
      <vel value="0.0032383160" flag="0"/>
      <psa03 value="0.0213046355" flag="0"/>
      <psa10 value="0.0016782690" flag="0"/>
      <psa30 value="0.0001002230" flag="0"/>
    </comp>
    <comp name="--.HHZ">
      <acc value="0.0098050194" flag="0"/>
      <vel value="0.0013370998" flag="0"/>
      <psa03 value="0.0054674554" flag="0"/>
      <psa10 value="0.0007037986" flag="0"/>
      <psa30 value="0.0000298987" flag="0"/>
    </comp>
    <comp name="--.HHN">
      <acc value="0.0069383224" flag="0"/>
      <vel value="0.0028633637" flag="0"/>
      <psa03 value="0.0229086482" flag="0"/>
      <psa10 value="0.0018301981" flag="0"/>
      <psa30 value="0.0000966835" flag="0"/>
    </comp>
  </station>
  <station code="SAHR" name="SAHR" netid="RO" insttype="2.5V" lat="45.7266" lon="26.6855">
    <comp name="--.HNE">
      <acc value="0.0254684928" flag="0"/>
      <vel value="0.0103060458" flag="0"/>
      <psa03 value="0.0420789391" flag="0"/>
      <psa10 value="0.0038093988" flag="0"/>
      <psa30 value="0.0002693581" flag="0"/>
    </comp>
    <comp name="--.HNZ">
      <acc value="0.0345797935" flag="0"/>
      <vel value="0.0085300750" flag="0"/>
      <psa03 value="0.0350365827" flag="0"/>
      <psa10 value="0.0020997374" flag="0"/>
      <psa30 value="0.0001676637" flag="0"/>
    </comp>
    <comp name="--.HNN">
      <acc value="0.0326075152" flag="0"/>
      <vel value="0.0079819461" flag="0"/>
      <psa03 value="0.0666789560" flag="0"/>
      <psa10 value="0.0043717911" flag="0"/>
      <psa30 value="0.0002669706" flag="0"/>
    </comp>
  </station>
  <station code="SCHL" name="SCHL" netid="RO" insttype="CMG40T.1to100/Quanterra" lat="45.5007" lon="27.8302">
    <comp name="--.HHE">
      <acc value="0.0317036743" flag="0"/>
      <vel value="0.0097335108" flag="0"/>
      <psa03 value="0.0430871072" flag="0"/>
      <psa10 value="0.0046464490" flag="0"/>
      <psa30 value="0.0003340728" flag="0"/>
    </comp>
    <comp name="--.HHN">
      <acc value="0.0566158951" flag="0"/>
      <vel value="0.0137275711" flag="0"/>
      <psa03 value="0.0422899468" flag="0"/>
      <psa10 value="0.0053489139" flag="0"/>
      <psa30 value="0.0002926135" flag="0"/>
    </comp>
    <comp name="--.HHZ">
      <acc value="0.0473975756" flag="0"/>
      <vel value="0.0074275667" flag="0"/>
      <psa03 value="0.0149005600" flag="0"/>
      <psa10 value="0.0012573361" flag="0"/>
      <psa30 value="0.0000899686" flag="0"/>
    </comp>
  </station>
  <station code="SCHLR" name="SCHLR" netid="RO" insttype="CMG40T.1to100/Quanterra" lat="45.4702" lon="27.8314">
    <comp name="--.HHN">
      <acc value="0.0416950094" flag="0"/>
      <vel value="0.0083532745" flag="0"/>
      <psa03 value="0.0400866691" flag="0"/>
      <psa10 value="0.0020439318" flag="0"/>
      <psa30 value="0.0001395594" flag="0"/>
    </comp>
    <comp name="--.HHZ">
      <acc value="0.0304661472" flag="0"/>
      <vel value="0.0041187502" flag="0"/>
      <psa03 value="0.0092164017" flag="0"/>
      <psa10 value="0.0004024976" flag="0"/>
      <psa30 value="0.0000492193" flag="0"/>
    </comp>
    <comp name="--.HHE">
      <acc value="0.0536971514" flag="0"/>
      <vel value="0.0093066132" flag="0"/>
      <psa03 value="0.0336205860" flag="0"/>
      <psa10 value="0.0019923519" flag="0"/>
      <psa30 value="0.0002027657" flag="0"/>
    </comp>
  </station>
  <station code="SCTR" name="SCTR" netid="RO" insttype="MBB2/Basalt" lat="45.6741" lon="27.9949">
    <comp name="--.HHE">
      <acc value="0.0673129938" flag="0"/>
      <vel value="0.0168866879" flag="0"/>
      <psa03 value="0.0813218119" flag="0"/>
      <psa10 value="0.0036841656" flag="0"/>
      <psa30 value="0.0004028836" flag="0"/>
    </comp>
    <comp name="--.HHZ">
      <acc value="0.0342248424" flag="0"/>
      <vel value="0.0065583171" flag="0"/>
      <psa03 value="0.0295110308" flag="0"/>
      <psa10 value="0.0027466372" flag="0"/>
      <psa30 value="0.0001768904" flag="0"/>
    </comp>
    <comp name="--.HHN">
      <acc value="0.0677677108" flag="0"/>
      <vel value="0.0134007033" flag="0"/>
      <psa03 value="0.0404164483" flag="0"/>
      <psa10 value="0.0036785526" flag="0"/>
      <psa30 value="0.0003097722" flag="0"/>
    </comp>
  </station>
  <station code="TATR" name="TATR" netid="RO" insttype="MBB2/Basalt" lat="45.5977" lon="28.0498">
    <comp name="--.HHN">
      <acc value="0.0725248455" flag="0"/>
      <vel value="0.0175129888" flag="0"/>
      <psa03 value="0.1109667002" flag="0"/>
      <psa10 value="0.0068108767" flag="0"/>
      <psa30 value="0.0004702319" flag="0"/>
    </comp>
    <comp name="--.HHZ">
      <acc value="0.0685221917" flag="0"/>
      <vel value="0.0102982230" flag="0"/>
      <psa03 value="0.0427171474" flag="0"/>
      <psa10 value="0.0022464911" flag="0"/>
      <psa30 value="0.0001867521" flag="0"/>
    </comp>
    <comp name="--.HHE">
      <acc value="0.1029630270" flag="0"/>
      <vel value="0.0212980432" flag="0"/>
      <psa03 value="0.0683785360" flag="0"/>
      <psa10 value="0.0064053845" flag="0"/>
      <psa30 value="0.0005430875" flag="0"/>
    </comp>
  </station>
  <station code="TESR" name="TESR" netid="RO" insttype="200" lat="46.5118" lon="26.6489">
    <comp name="--.HNE">
      <acc value="0.0186189294" flag="0"/>
      <vel value="0.0042619031" flag="0"/>
