<?xml version="1.0" encoding="UTF-8" standalone="yes"?>
<!DOCTYPE earthquake SYSTEM "stationlist.dtd">
<stationlist created="" xmlns="ch.ethz.sed.shakemap.usgs.xml">
  <station code="DARE" name="DARE" netid="KO" insttype="CMG-3ESP" lat="38.5712" lon="37.4832">
    <comp name="--.HHZ">
      <acc value="0.0180065258" flag="0"/>
      <vel value="0.0051147809" flag="0"/>
      <psa03 value="0.0265648416" flag="0"/>
      <psa10 value="0.0067565690" flag="0"/>
      <psa30 value="0.0006384776" flag="0"/>
    </comp>
    <comp name="--.HHE">
      <acc value="0.0270031485" flag="0"/>
      <vel value="0.0060672800" flag="0"/>
      <psa03 value="0.0372604015" flag="0"/>
      <psa10 value="0.0047844202" flag="0"/>
      <psa30 value="0.0004259973" flag="0"/>
    </comp>
    <comp name="--.HHN">
      <acc value="0.0224736878" flag="0"/>
      <vel value="0.0056918590" flag="0"/>
      <psa03 value="0.0310725480" flag="0"/>
      <psa10 value="0.0083203600" flag="0"/>
      <psa30 value="0.0004998883" flag="0"/>
    </comp>
  </station>
  <station code="GAZ" name="GAZ" netid="KO" insttype="CMG-3T" lat="37.1721" lon="37.2096">
    <comp name="--.HHE">
      <acc value="0.0072869199" flag="0"/>
      <vel value="0.0039959463" flag="0"/>
      <psa03 value="0.0181222699" flag="0"/>
      <psa10 value="0.0052306199" flag="0"/>
      <psa30 value="0.0015703487" flag="0"/>
    </comp>
    <comp name="--.HHN">
      <acc value="0.0042352869" flag="0"/>
      <vel value="0.0023084919" flag="0"/>
      <psa03 value="0.0136131874" flag="0"/>
      <psa10 value="0.0032844304" flag="0"/>
      <psa30 value="0.0002527391" flag="0"/>
    </comp>
    <comp name="--.HHZ">
      <acc value="0.0041993302" flag="0"/>
      <vel value="0.0015929280" flag="0"/>
      <psa03 value="0.0078736727" flag="0"/>
      <psa10 value="0.0027980387" flag="0"/>
      <psa30 value="0.0003236680" flag="0"/>
    </comp>
  </station>
  <station code="KMRS" name="KMRS" netid="KO" insttype="CMG-3T" lat="37.5053" lon="36.9">
    <comp name="--.HHE">
      <acc value="0.0186963387" flag="0"/>
      <vel value="0.0121628431" flag="0"/>
      <psa03 value="0.0595116135" flag="0"/>
      <psa10 value="0.0105183386" flag="0"/>
      <psa30 value="0.0006961496" flag="0"/>
    </comp>
    <comp name="--.HHN">
      <acc value="0.0205081883" flag="0"/>
      <vel value="0.0107102511" flag="0"/>
      <psa03 value="0.0516702473" flag="0"/>
      <psa10 value="0.0086549270" flag="0"/>
      <psa30 value="0.0008980613" flag="0"/>
    </comp>
    <comp name="--.HHZ">
      <acc value="0.0213277895" flag="0"/>
      <vel value="0.0096193856" flag="0"/>
      <psa03 value="0.0655572238" flag="0"/>
      <psa10 value="0.0069623565" flag="0"/>
      <psa30 value="0.0005066193" flag="0"/>
    </comp>
  </station>
  <station code="ANDN" name="ANDN" netid="TU" insttype="T" lat="37.58" lon="36.3452">
    <comp name="--.HHZ">
      <acc value="0.0188783451" flag="0"/>
      <vel value="0.0089808067" flag="0"/>
      <psa03 value="0.0444656945" flag="0"/>
      <psa10 value="0.0106180133" flag="0"/>
      <psa30 value="0.0006967100" flag="0"/>
    </comp>
    <comp name="--.HHE">
      <acc value="0.0341902270" flag="0"/>
      <vel value="0.0152416655" flag="0"/>
      <psa03 value="0.0931097694" flag="0"/>
      <psa10 value="0.0135553131" flag="0"/>
      <psa30 value="0.0007425127" flag="0"/>
    </comp>
    <comp name="--.HHN">
      <acc value="0.0577234021" flag="0"/>
      <vel value="0.0192262399" flag="0"/>
      <psa03 value="0.1186612992" flag="0"/>
      <psa10 value="0.0240467472" flag="0"/>
      <psa30 value="0.0008506430" flag="0"/>
    </comp>
  </station>
</stationlist>
