<?xml version="1.0" encoding="UTF-8" standalone="yes"?>
<!DOCTYPE earthquake SYSTEM "stationlist.dtd">
<stationlist created="" xmlns="ch.ethz.sed.shakemap.usgs.xml">
  <station code="DARE" name="DARE" netid="KO" insttype="CMG-3ESP" lat="38.5712" lon="37.4832">
    <comp name="--.HHZ">
      <acc value="0.0180065256" flag="0"/>
      <vel value="0.0051147811" flag="0"/>
      <psa03 value="0.0265648416" flag="0"/>
      <psa10 value="0.0067565671" flag="0"/>
      <psa30 value="0.0006383672" flag="0"/>
    </comp>
    <comp name="--.HHE">
      <acc value="0.0270031482" flag="0"/>
      <vel value="0.0060672808" flag="0"/>
      <psa03 value="0.0372604015" flag="0"/>
      <psa10 value="0.0047844188" flag="0"/>
      <psa30 value="0.0004260887" flag="0"/>
    </comp>
  </station>
  <station code="GAZ" name="GAZ" netid="KO" insttype="CMG-3T" lat="37.1721" lon="37.2096">
    <comp name="--.HHE">
      <acc value="0.0072869199" flag="0"/>
      <vel value="0.0039959450" flag="0"/>
      <psa03 value="0.0181222699" flag="0"/>
      <psa10 value="0.0052306199" flag="0"/>
      <psa30 value="0.0015703441" flag="0"/>
    </comp>
  </station>
  <station code="KMRS" name="KMRS" netid="KO" insttype="CMG-3T" lat="37.5053" lon="36.9">
    <comp name="--.HHE">
      <acc value="0.0186963387" flag="0"/>
      <vel value="0.0121628429" flag="0"/>
      <psa03 value="0.0595116135" flag="0"/>
      <psa10 value="0.0105183386" flag="0"/>
      <psa30 value="0.0006961591" flag="0"/>
    </comp>
    <comp name="--.HHN">
      <acc value="0.0205081881" flag="0"/>
      <vel value="0.0107102513" flag="0"/>
      <psa03 value="0.0516702473" flag="0"/>
      <psa10 value="0.0086549266" flag="0"/>
      <psa30 value="0.0008980558" flag="0"/>
    </comp>
    <comp name="--.HHZ">
      <acc value="0.0213277895" flag="0"/>
      <vel value="0.0096193857" flag="0"/>
      <psa03 value="0.0655572238" flag="0"/>
      <psa10 value="0.0069623566" flag="0"/>
      <psa30 value="0.0005066336" flag="0"/>
    </comp>
  </station>
  <station code="ANDN" name="ANDN" netid="TU" insttype="T" lat="37.58" lon="36.3452">
    <comp name="--.HHN">
      <acc value="0.0577234023" flag="0"/>
      <vel value="0.0192262415" flag="0"/>
      <psa03 value="0.1186612992" flag="0"/>
      <psa10 value="0.0240467467" flag="0"/>
      <psa30 value="0.0008505822" flag="0"/>
    </comp>
    <comp name="--.HHE">
      <acc value="0.0341902268" flag="0"/>
      <vel value="0.0152416664" flag="0"/>
      <psa03 value="0.0931097694" flag="0"/>
      <psa10 value="0.0135553130" flag="0"/>
      <psa30 value="0.0007425416" flag="0"/>
    </comp>
    <comp name="--.HHZ">
      <acc value="0.0188783451" flag="0"/>
      <vel value="0.0089808071" flag="0"/>
      <psa03 value="0.0444656945" flag="0"/>
      <psa10 value="0.0106180132" flag="0"/>
      <psa30 value="0.0006967155" flag="0"/>
    </comp>
  </station>
</stationlist>
