<?xml version="1.0" encoding="UTF-8" standalone="yes"?>
<!DOCTYPE earthquake SYSTEM "stationlist.dtd">
<stationlist created="" xmlns="ch.ethz.sed.shakemap.usgs.xml">
  <station code="KMRS" name="KMRS" netid="KO" insttype="CMG-3T" lat="37.5053" lon="36.9">
    <comp name="--.HHN">
      <acc value="0.0022512883" flag="0"/>
      <vel value="0.0012503831" flag="0"/>
      <psa03 value="0.0074659582" flag="0"/>
      <psa10 value="0.0007454239" flag="0"/>
      <psa30 value="0.0001361836" flag="0"/>
    </comp>
    <comp name="--.HHZ">
      <acc value="0.0014369017" flag="0"/>
      <vel value="0.0004419873" flag="0"/>
      <psa03 value="0.0027205991" flag="0"/>
      <psa10 value="0.0004099151" flag="0"/>
      <psa30 value="0.0000769613" flag="0"/>
    </comp>
    <comp name="--.HHE">
      <acc value="0.0014918201" flag="0"/>
      <vel value="0.0006997000" flag="0"/>
      <psa03 value="0.0026871204" flag="0"/>
      <psa10 value="0.0005086953" flag="0"/>
      <psa30 value="0.0000774584" flag="0"/>
    </comp>
  </station>
  <station code="URFA" name="URFA" netid="KO" insttype="CMG-3ESP" lat="37.4409" lon="38.8213">
    <comp name="--.HHE">
      <acc value="0.0036197916" flag="0"/>
      <vel value="0.0013846100" flag="0"/>
      <psa03 value="0.0063668927" flag="0"/>
      <psa10 value="0.0011717563" flag="0"/>
      <psa30 value="0.0000658641" flag="0"/>
    </comp>
    <comp name="--.HHZ">
      <acc value="0.0028538268" flag="0"/>
      <vel value="0.0007724198" flag="0"/>
      <psa03 value="0.0042519956" flag="0"/>
      <psa10 value="0.0008812009" flag="0"/>
      <psa30 value="0.0000440825" flag="0"/>
    </comp>
    <comp name="--.HHN">
      <acc value="0.0030861731" flag="0"/>
      <vel value="0.0015098926" flag="0"/>
      <psa03 value="0.0048803126" flag="0"/>
      <psa10 value="0.0016329755" flag="0"/>
      <psa30 value="0.0000973222" flag="0"/>
    </comp>
  </station>
</stationlist>
