<stationlist created="1768010407">
	<station code="ARMO" name="ARMO" netid="IT" source="Italian Strong Motion Network (RAN)" insttype="" lat="38.0761" lon="15.7125">
		<comp name="--.HNE" depth="0.0">
			<acc value="0.023889530597172" flag="0"/>
			<vel value="0.00258105861314" flag="0"/>
			<psa03 value="0.0100487021355367" flag="0"/>
			<psa10 value="0.000997069058745286" flag="0"/>
			<psa30 value="9.87522840415284e-05" flag="0"/>
		</comp>
		<comp name="--.HNN" depth="0.0">
			<acc value="0.030485696444106" flag="0"/>
			<vel value="0.00307122846998" flag="0"/>
			<psa03 value="0.00643427194206721" flag="0"/>
			<psa10 value="0.000628195091404712" flag="0"/>
			<psa30 value="8.65651681111664e-05" flag="0"/>
		</comp>
		<comp name="--.HNZ" depth="0.0">
			<acc value="0.02284908138156" flag="0"/>
			<vel value="0.00229007400937" flag="0"/>
			<psa03 value="0.0104331462228558" flag="0"/>
			<psa10 value="0.000967148170384274" flag="0"/>
			<psa30 value="9.77081133077676e-05" flag="0"/>
		</comp>
	</station>
	<station code="CTV" name="CTV" netid="IT" source="Italian Strong Motion Network (RAN)" insttype="" lat="38.3498" lon="16.0804">
		<comp name="--.HNE" depth="0.0">
			<acc value="0.043432275092508" flag="0"/>
			<vel value="0.00275415478946" flag="0"/>
			<psa03 value="0.00190631964369417" flag="0"/>
			<psa10 value="0.000430390815966526" flag="0"/>
			<psa30 value="0.000278893188846749" flag="0"/>
		</comp>
		<comp name="--.HNN" depth="0.0">
			<acc value="0.044584488401634" flag="0"/>
			<vel value="0.0023324917757" flag="0"/>
			<psa03 value="0.00218897915626182" flag="0"/>
			<psa10 value="0.000449150086022011" flag="0"/>
			<psa30 value="0.000216274535460106" flag="0"/>
		</comp>
		<comp name="--.HNZ" depth="0.0">
			<acc value="0.042580238866848" flag="0"/>
			<vel value="0.00297905538387" flag="0"/>
			<psa03 value="0.0023601679055295" flag="0"/>
			<psa10 value="0.000598425443530567" flag="0"/>
			<psa30 value="0.00020130851799303" flag="0"/>
		</comp>
	</station>
	<station code="DLNV" name="DLNV" netid="IT" source="Italian Strong Motion Network (RAN)" insttype="" lat="38.237" lon="15.919">
		<comp name="--.HNE" depth="0.0">
			<acc value="0.016928254543986" flag="0"/>
			<vel value="0.00308286669834" flag="0"/>
			<psa03 value="0.0134694652026535" flag="0"/>
			<psa10 value="0.000573756367918746" flag="0"/>
			<psa30 value="7.57344310968113e-05" flag="0"/>
		</comp>
		<comp name="--.HNN" depth="0.0">
			<acc value="0.013854764202996" flag="0"/>
			<vel value="0.00355746353138" flag="0"/>
			<psa03 value="0.0142786359937259" flag="0"/>
			<psa10 value="0.000479629527009567" flag="0"/>
			<psa30 value="8.32477608492867e-05" flag="0"/>
		</comp>
		<comp name="--.HNZ" depth="0.0">
			<acc value="0.019972923749574" flag="0"/>
			<vel value="0.00314331160472" flag="0"/>
			<psa03 value="0.00929023066654614" flag="0"/>
			<psa10 value="0.000562996729365526" flag="0"/>
			<psa30 value="5.3556005505005e-05" flag="0"/>
		</comp>
	</station>
	<station code="GMB" name="GMB" netid="IT" source="Italian Strong Motion Network (RAN)" insttype="" lat="38.1666" lon="15.8363">
		<comp name="--.HGE" depth="0.0">
			<acc value="0.005400997956618" flag="0"/>
			<vel value="0.000876868322911" flag="0"/>
			<psa03 value="0.00312083239086945" flag="0"/>
			<psa10 value="0.000294320258991376" flag="0"/>
			<psa30 value="0.000101924942131312" flag="0"/>
		</comp>
		<comp name="--.HGN" depth="0.0">
			<acc value="0.0069054831664854" flag="0"/>
			<vel value="0.000996793684025" flag="0"/>
			<psa03 value="0.00464506910625159" flag="0"/>
			<psa10 value="0.000290031527618372" flag="0"/>
			<psa30 value="0.000131503125499011" flag="0"/>
		</comp>
		<comp name="--.HGZ" depth="0.0">
			<acc value="0.013703212990392" flag="0"/>
			<vel value="0.00165314636856" flag="0"/>
			<psa03 value="0.0015209023473685" flag="0"/>
			<psa10 value="0.000190034434551591" flag="0"/>
			<psa30 value="0.000125917078367617" flag="0"/>
		</comp>
	</station>
	<station code="ISI" name="ISI" netid="IT" source="Italian Strong Motion Network (RAN)" insttype="" lat="36.7977" lon="14.8923">
		<comp name="--.HGE" depth="0.0">
			<acc value="0.040540500638832" flag="0"/>
			<vel value="0.00592925741206" flag="0"/>
			<psa03 value="0.0150986733901118" flag="0"/>
			<psa10 value="0.00259714009466177" flag="0"/>
			<psa30 value="0.000583329163528871" flag="0"/>
		</comp>
		<comp name="--.HGN" depth="0.0">
			<acc value="0.037889067773724" flag="0"/>
			<vel value="0.00551102391289" flag="0"/>
			<psa03 value="0.0110327269577517" flag="0"/>
			<psa10 value="0.00130009745320216" flag="0"/>
			<psa30 value="0.000165324050865383" flag="0"/>
		</comp>
		<comp name="--.HGZ" depth="0.0">
			<acc value="0.042942947286648" flag="0"/>
			<vel value="0.00523195339148" flag="0"/>
			<psa03 value="0.0095671852113712" flag="0"/>
			<psa10 value="0.00197883475996438" flag="0"/>
			<psa30 value="0.000152378375569384" flag="0"/>
		</comp>
	</station>
	<station code="LAZR" name="LAZR" netid="IT" source="Italian Strong Motion Network (RAN)" insttype="" lat="37.9778" lon="15.6659">
		<comp name="--.HNE" depth="0.0">
			<acc value="0.00404119102062" flag="0"/>
			<vel value="0.00098492796616" flag="0"/>
			<psa03 value="0.00420214262913878" flag="0"/>
			<psa10 value="0.000472166239634902" flag="0"/>
			<psa30 value="0.00010671476464178" flag="0"/>
		</comp>
		<comp name="--.HNN" depth="0.0">
			<acc value="0.0045768411082752" flag="0"/>
			<vel value="0.0006625218307" flag="0"/>
			<psa03 value="0.0019999340808708" flag="0"/>
			<psa10 value="0.000827805697441621" flag="0"/>
			<psa30 value="9.80236680661308e-05" flag="0"/>
		</comp>
		<comp name="--.HNZ" depth="0.0">
			<acc value="0.0059792876350914" flag="0"/>
			<vel value="0.000752380015581" flag="0"/>
			<psa03 value="0.00216066884985253" flag="0"/>
			<psa10 value="0.000306842777999906" flag="0"/>
			<psa30 value="7.52785740754763e-05" flag="0"/>
		</comp>
	</station>
	<station code="NTE" name="NTE" netid="IT" source="Italian Strong Motion Network (RAN)" insttype="" lat="36.9095" lon="15.0692">
		<comp name="--.HGE" depth="0.0">
			<acc value="0.039923515060596" flag="0"/>
			<vel value="0.00582243364792" flag="0"/>
			<psa03 value="0.0283383590480621" flag="0"/>
			<psa10 value="0.00433203338221437" flag="0"/>
			<psa30 value="0.000385960854470561" flag="0"/>
		</comp>
		<comp name="--.HGN" depth="0.0">
			<acc value="0.041573525915412" flag="0"/>
			<vel value="0.00757592997814" flag="0"/>
			<psa03 value="0.0171454170497179" flag="0"/>
			<psa10 value="0.0041506910566547" flag="0"/>
			<psa30 value="0.000400679694104864" flag="0"/>
		</comp>
		<comp name="--.HGZ" depth="0.0">
			<acc value="0.038185481611968" flag="0"/>
			<vel value="0.00528104756616" flag="0"/>
			<psa03 value="0.0117758647286479" flag="0"/>
			<psa10 value="0.00485747272124627" flag="0"/>
			<psa30 value="0.000221695024748848" flag="0"/>
		</comp>
	</station>
	<station code="PCH" name="PCH" netid="IT" source="Italian Strong Motion Network (RAN)" insttype="" lat="36.7119" lon="15.0915">
		<comp name="--.HGE" depth="0.0">
			<acc value="0.059222175421002" flag="0"/>
			<vel value="0.0105965531446" flag="0"/>
			<psa03 value="0.018317730386802" flag="0"/>
			<psa10 value="0.00320089751250171" flag="0"/>
			<psa30 value="0.000206613114188234" flag="0"/>
		</comp>
		<comp name="--.HGN" depth="0.0">
			<acc value="0.093035950965762" flag="0"/>
			<vel value="0.0151110868613" flag="0"/>
			<psa03 value="0.0155602000577408" flag="0"/>
			<psa10 value="0.00263017345483268" flag="0"/>
			<psa30 value="0.000409351857134809" flag="0"/>
		</comp>
		<comp name="--.HGZ" depth="0.0">
			<acc value="0.0012654863387526" flag="0"/>
			<vel value="0.000218105171139" flag="0"/>
			<psa03 value="0.000267520671964269" flag="0"/>
			<psa10 value="0.000172159124423722" flag="0"/>
			<psa30 value="8.90313601301035e-05" flag="0"/>
		</comp>
	</station>
	<station code="PLZ" name="PLZ" netid="IT" source="Italian Strong Motion Network (RAN)" insttype="" lat="37.0682" lon="14.9097">
		<comp name="--.HNE" depth="0.0">
			<acc value="0.058267831145346" flag="0"/>
			<vel value="0.0149163748332" flag="0"/>
			<psa03 value="0.0476636001879015" flag="0"/>
			<psa10 value="0.00836218020338842" flag="0"/>
			<psa30 value="0.000417947634896477" flag="0"/>
		</comp>
		<comp name="--.HNN" depth="0.0">
			<acc value="0.063617112208224" flag="0"/>
			<vel value="0.0155807997377" flag="0"/>
			<psa03 value="0.0695325905677518" flag="0"/>
			<psa10 value="0.0185930548236368" flag="0"/>
			<psa30 value="0.00102138630766499" flag="0"/>
		</comp>
		<comp name="--.HNZ" depth="0.0">
			<acc value="0.035047374828816" flag="0"/>
			<vel value="0.0106997565773" flag="0"/>
			<psa03 value="0.0245150146243912" flag="0"/>
			<psa10 value="0.00695104469135977" flag="0"/>
			<psa30 value="0.000273102050003899" flag="0"/>
		</comp>
	</station>
	<station code="PPL1" name="PPL1" netid="IT" source="Italian Strong Motion Network (RAN)" insttype="" lat="36.6857" lon="15.1328">
		<comp name="--.HNE" depth="0.0">
			<acc value="0.023385179826372" flag="0"/>
			<vel value="0.00506329060753" flag="0"/>
			<psa03 value="0.01488024485777" flag="0"/>
			<psa10 value="0.00212414047950885" flag="0"/>
			<psa30 value="0.000211195071365956" flag="0"/>
		</comp>
		<comp name="--.HNN" depth="0.0">
			<acc value="0.026714414402406" flag="0"/>
			<vel value="0.00608585159533" flag="0"/>
			<psa03 value="0.0116878146249195" flag="0"/>
			<psa10 value="0.00143153006621798" flag="0"/>
			<psa30 value="0.000267232286160996" flag="0"/>
		</comp>
		<comp name="--.HNZ" depth="0.0">
			<acc value="0.025202466739296" flag="0"/>
			<vel value="0.00442270689382" flag="0"/>
			<psa03 value="0.00879986680215311" flag="0"/>
			<psa10 value="0.000952410983176839" flag="0"/>
			<psa30 value="0.000114557510747732" flag="0"/>
		</comp>
	</station>
	<station code="PTR" name="PTR" netid="IT" source="Italian Strong Motion Network (RAN)" insttype="" lat="37.562" lon="14.9077">
		<comp name="--.HGE" depth="0.0">
			<acc value="0.029677200028818" flag="0"/>
			<vel value="0.0024518926553" flag="0"/>
			<psa03 value="0.0074345452365222" flag="0"/>
			<psa10 value="0.00216726833651741" flag="0"/>
			<psa30 value="0.000536427931551149" flag="0"/>
		</comp>
		<comp name="--.HGN" depth="0.0">
			<acc value="0.027588824799714" flag="0"/>
			<vel value="0.00207695675556" flag="0"/>
			<psa03 value="0.00522045162356793" flag="0"/>
			<psa10 value="0.00204040376048443" flag="0"/>
			<psa30 value="0.000252347393859845" flag="0"/>
		</comp>
		<comp name="--.HGZ" depth="0.0">
			<acc value="0.032414113748922" flag="0"/>
			<vel value="0.00229570561518" flag="0"/>
			<psa03 value="0.00603249402418085" flag="0"/>
			<psa10 value="0.00200074300815362" flag="0"/>
			<psa30 value="0.000273033607969897" flag="0"/>
		</comp>
	</station>
	<station code="RCPC" name="RCPC" netid="IT" source="Italian Strong Motion Network (RAN)" insttype="" lat="38.093" lon="15.6565">
		<comp name="--.HNE" depth="0.0">
			<acc value="0.0081875250108858" flag="0"/>
			<vel value="0.00134987628103" flag="0"/>
			<psa03 value="0.00519026440244087" flag="0"/>
			<psa10 value="0.000605119109607525" flag="0"/>
			<psa30 value="7.47329650149485e-05" flag="0"/>
		</comp>
		<comp name="--.HNN" depth="0.0">
			<acc value="0.0101829030108792" flag="0"/>
			<vel value="0.00177233512983" flag="0"/>
			<psa03 value="0.00447681349399799" flag="0"/>
			<psa10 value="0.000794218765439674" flag="0"/>
			<psa30 value="0.000108138328997968" flag="0"/>
		</comp>
		<comp name="--.HNZ" depth="0.0">
			<acc value="0.030572051164212" flag="0"/>
			<vel value="0.00441541686411" flag="0"/>
			<psa03 value="0.00790308669173305" flag="0"/>
			<psa10 value="0.000509195372320955" flag="0"/>
			<psa30 value="8.48073368196893e-05" flag="0"/>
		</comp>
	</station>
	<station code="RCU" name="RCU" netid="IT" source="Italian Strong Motion Network (RAN)" insttype="" lat="38.1214" lon="15.6662">
		<comp name="--.HNE" depth="0.0">
			<acc value="0.0019532145456342" flag="0"/>
			<vel value="0.000333541530558" flag="0"/>
			<psa03 value="0.00159153104961088" flag="0"/>
			<psa10 value="0.000274334921389146" flag="0"/>
			<psa30 value="7.05306423610895e-05" flag="0"/>
		</comp>
		<comp name="--.HNN" depth="0.0">
			<acc value="0.0020525731667922" flag="0"/>
			<vel value="0.00048165582129" flag="0"/>
			<psa03 value="0.00194916313941978" flag="0"/>
			<psa10 value="0.000356164404690551" flag="0"/>
			<psa30 value="8.17652277430585e-05" flag="0"/>
		</comp>
		<comp name="--.HNZ" depth="0.0">
			<acc value="0.0029238871968264" flag="0"/>
			<vel value="0.000418724096853" flag="0"/>
			<psa03 value="0.00110955120414639" flag="0"/>
			<psa10 value="0.000269526458320916" flag="0"/>
			<psa30 value="6.84550621556737e-05" flag="0"/>
		</comp>
	</station>
	<station code="RGS" name="RGS" netid="IT" source="Italian Strong Motion Network (RAN)" insttype="" lat="36.9248" lon="14.7032">
		<comp name="--.HNE" depth="0.0">
			<acc value="0.02152548433275" flag="0"/>
			<vel value="0.0042596290474" flag="0"/>
			<psa03 value="0.0101568095575239" flag="0"/>
			<psa10 value="0.00455714860746988" flag="0"/>
			<psa30 value="0.000353005416126267" flag="0"/>
		</comp>
		<comp name="--.HNN" depth="0.0">
			<acc value="0.02603309334468" flag="0"/>
			<vel value="0.00593846093636" flag="0"/>
			<psa03 value="0.0183860018365331" flag="0"/>
			<psa10 value="0.00235388304257391" flag="0"/>
			<psa30 value="0.000203780517688192" flag="0"/>
		</comp>
		<comp name="--.HNZ" depth="0.0">
			<acc value="0.016540285120386" flag="0"/>
			<vel value="0.00306017756812" flag="0"/>
			<psa03 value="0.00955361269766876" flag="0"/>
			<psa10 value="0.00193061394838572" flag="0"/>
			<psa30 value="0.000248513884700111" flag="0"/>
		</comp>
	</station>
	<station code="SAAM" name="SAAM" netid="IT" source="Italian Strong Motion Network (RAN)" insttype="" lat="38.1733" lon="15.7583">
		<comp name="--.HNE" depth="0.0">
			<acc value="0.0079899312582288" flag="0"/>
			<vel value="0.0025799279223" flag="0"/>
			<psa03 value="0.0194185468001132" flag="0"/>
			<psa10 value="0.00108560070477983" flag="0"/>
			<psa30 value="9.06053641400083e-05" flag="0"/>
		</comp>
		<comp name="--.HNN" depth="0.0">
			<acc value="0.0062669137274322" flag="0"/>
			<vel value="0.00219411292902" flag="0"/>
			<psa03 value="0.0137934436958527" flag="0"/>
			<psa10 value="0.000651629573511806" flag="0"/>
			<psa30 value="8.37174273790947e-05" flag="0"/>
		</comp>
		<comp name="--.HNZ" depth="0.0">
			<acc value="0.010697497697718" flag="0"/>
			<vel value="0.00256740983586" flag="0"/>
			<psa03 value="0.00665375002308759" flag="0"/>
			<psa10 value="0.000376442583957914" flag="0"/>
			<psa30 value="7.92684412493179e-05" flag="0"/>
		</comp>
	</station>
	<station code="SCI" name="SCI" netid="IT" source="Italian Strong Motion Network (RAN)" insttype="" lat="38.2557" lon="15.7147">
		<comp name="--.HNE" depth="0.0">
			<acc value="0.0028752352113774" flag="0"/>
			<vel value="0.00087404551688" flag="0"/>
			<psa03 value="0.0054700127521225" flag="0"/>
			<psa10 value="0.000560282076876004" flag="0"/>
			<psa30 value="7.85185999093516e-05" flag="0"/>
		</comp>
		<comp name="--.HNN" depth="0.0">
			<acc value="0.0021461227952016" flag="0"/>
			<vel value="0.000874954730691" flag="0"/>
			<psa03 value="0.00518457196809102" flag="0"/>
			<psa10 value="0.000465468940499715" flag="0"/>
			<psa30 value="7.6651262665827e-05" flag="0"/>
		</comp>
		<comp name="--.HNZ" depth="0.0">
			<acc value="0.0039845255295906" flag="0"/>
			<vel value="0.000547398883346" flag="0"/>
			<psa03 value="0.00152833578250712" flag="0"/>
			<psa10 value="0.000502670291626223" flag="0"/>
			<psa30 value="7.51355437674167e-05" flag="0"/>
		</comp>
	</station>
	<station code="SCR" name="SCR" netid="IT" source="Italian Strong Motion Network (RAN)" insttype="" lat="36.8296" lon="14.5275">
		<comp name="--.HNE" depth="0.0">
			<acc value="0.016821919216566" flag="0"/>
			<vel value="0.00254109996147" flag="0"/>
			<psa03 value="0.00643507407851303" flag="0"/>
			<psa10 value="0.00150970270570628" flag="0"/>
			<psa30 value="0.000108576704392655" flag="0"/>
		</comp>
		<comp name="--.HNN" depth="0.0">
			<acc value="0.016067857691058" flag="0"/>
			<vel value="0.0024710589864" flag="0"/>
			<psa03 value="0.0093831333052641" flag="0"/>
			<psa10 value="0.00158602682430484" flag="0"/>
			<psa30 value="0.000104822406209574" flag="0"/>
		</comp>
		<comp name="--.HNZ" depth="0.0">
			<acc value="0.010290283242864" flag="0"/>
			<vel value="0.00181916564138" flag="0"/>
			<psa03 value="0.00608492067427163" flag="0"/>
			<psa10 value="0.00219714164360206" flag="0"/>
			<psa30 value="0.000109035562914496" flag="0"/>
		</comp>
	</station>
	<station code="SCZA" name="SCZA" netid="IT" source="Italian Strong Motion Network (RAN)" insttype="" lat="38.0422" lon="15.4561">
		<comp name="--.HNE" depth="0.0">
			<acc value="0.009653603605914" flag="0"/>
			<vel value="0.0012520332034" flag="0"/>
			<psa03 value="0.00352703084900672" flag="0"/>
			<psa10 value="0.000335651014529227" flag="0"/>
			<psa30 value="8.81781590785924e-05" flag="0"/>
		</comp>
		<comp name="--.HNN" depth="0.0">
			<acc value="0.0054643918814418" flag="0"/>
			<vel value="0.000903976346588" flag="0"/>
			<psa03 value="0.00186645974405762" flag="0"/>
			<psa10 value="0.000716629758361444" flag="0"/>
			<psa30 value="8.70395419841924e-05" flag="0"/>
		</comp>
		<comp name="--.HNZ" depth="0.0">
			<acc value="0.0061118352787668" flag="0"/>
			<vel value="0.000797246324714" flag="0"/>
			<psa03 value="0.00133913876019766" flag="0"/>
			<psa10 value="0.000343798019072264" flag="0"/>
			<psa30 value="8.69047739420273e-05" flag="0"/>
		</comp>
	</station>
	<station code="SRC" name="SRC" netid="IT" source="Italian Strong Motion Network (RAN)" insttype="" lat="37.0896" lon="15.2924">
		<comp name="--.HNE" depth="0.0">
			<acc value="0.031845509142186" flag="0"/>
			<vel value="0.00682287238433" flag="0"/>
			<psa03 value="0.0205414792617713" flag="0"/>
			<psa10 value="0.0051750404772968" flag="0"/>
			<psa30 value="0.000381586632408314" flag="0"/>
		</comp>
		<comp name="--.HNN" depth="0.0">
			<acc value="0.028212052086492" flag="0"/>
			<vel value="0.00603374572142" flag="0"/>
			<psa03 value="0.0170865316384355" flag="0"/>
			<psa10 value="0.00247128597619086" flag="0"/>
			<psa30 value="0.000452116460912244" flag="0"/>
		</comp>
		<comp name="--.HNZ" depth="0.0">
			<acc value="0.021742109006982" flag="0"/>
			<vel value="0.00359030947174" flag="0"/>
			<psa03 value="0.012255190752502" flag="0"/>
			<psa10 value="0.00252052791010229" flag="0"/>
			<psa30 value="0.000157025870943443" flag="0"/>
		</comp>
	</station>
	<station code="SRT" name="SRT" netid="IT" source="Italian Strong Motion Network (RAN)" insttype="" lat="37.1665" lon="15.0542">
		<comp name="--.HGE" depth="0.0">
			<acc value="0.11759312949822" flag="0"/>
			<vel value="0.0225283940937" flag="0"/>
			<psa03 value="0.0689119973733616" flag="0"/>
			<psa10 value="0.00505965002073609" flag="0"/>
			<psa30 value="0.000337029930745528" flag="0"/>
		</comp>
		<comp name="--.HGN" depth="0.0">
			<acc value="0.14427681416142" flag="0"/>
			<vel value="0.0227040884313" flag="0"/>
			<psa03 value="0.0844405677316589" flag="0"/>
			<psa10 value="0.00488070832298411" flag="0"/>
			<psa30 value="0.000449081520282071" flag="0"/>
		</comp>
		<comp name="--.HGZ" depth="0.0">
			<acc value="0.052303156828272" flag="0"/>
			<vel value="0.0088178213005" flag="0"/>
			<psa03 value="0.0288900700753367" flag="0"/>
			<psa10 value="0.00333914245180156" flag="0"/>
			<psa30 value="0.000226052084216067" flag="0"/>
		</comp>
	</station>
	<station code="STRV" name="STRV" netid="IT" source="Italian Strong Motion Network (RAN)" insttype="" lat="37.949" lon="15.365">
		<comp name="--.HNE" depth="0.0">
			<acc value="0.020861403457926" flag="0"/>
