<?xml version="1.0" encoding="UTF-8" standalone="yes"?>
<!DOCTYPE earthquake SYSTEM "stationlist.dtd">
<stationlist created="" xmlns="ch.ethz.sed.shakemap.usgs.xml">
  <station code="MHPPL" name="MHPPL" netid="K3" insttype="Trillium Compact 120 (Vault, Posthole, OBS)" commtype="DIG" lat="36.2874" lon="15.9715">
    <comp name="--.HHZ">
      <acc value="0.0318813361" flag="0"/>
      <vel value="0.0066535522" flag="0"/>
      <psa03 value="0.0213582323" flag="0"/>
      <psa10 value="0.0099782380" flag="0"/>
      <psa30 value="0.0004357966" flag="0"/>
    </comp>
    <comp name="--.HH1">
      <acc value="0.1094705318" flag="0"/>
      <vel value="0.0376320804" flag="0"/>
      <psa03 value="0.3729969504" flag="0"/>
      <psa10 value="0.0191314505" flag="0"/>
      <psa30 value="0.0013664872" flag="0"/>
    </comp>
    <comp name="--.HH2">
      <acc value="0.0930975672" flag="0"/>
      <vel value="0.0300685037" flag="0"/>
      <psa03 value="0.1877551484" flag="0"/>
      <psa10 value="0.0212517458" flag="0"/>
      <psa30 value="0.0012608670" flag="0"/>
    </comp>
  </station>
</stationlist>
