<stationlist created="1765936807">
	<station code="ECHR" name="ECHR" netid="IV" source="Italian National Seismic Network (INSN)" insttype="" lat="37.6863" lon="14.9129">
		<comp name="--.HNE" depth="0.0">
			<acc value="0.0018040192761024" flag="0"/>
			<vel value="0.000654859412857" flag="0"/>
			<psa03 value="0.00340799854963511" flag="0"/>
			<psa10 value="0.000656567537344899" flag="0"/>
			<psa30 value="4.94245338986164e-05" flag="0"/>
		</comp>
		<comp name="--.HNN" depth="0.0">
			<acc value="0.0019437656586606" flag="0"/>
			<vel value="0.000674091512265" flag="0"/>
			<psa03 value="0.00369875251118079" flag="0"/>
			<psa10 value="0.000638580935665618" flag="0"/>
			<psa30 value="4.00796895879312e-05" flag="0"/>
		</comp>
		<comp name="--.HNZ" depth="0.0">
			<acc value="0.0014452503201312" flag="0"/>
			<vel value="0.000446886899575" flag="0"/>
			<psa03 value="0.00204487862723715" flag="0"/>
			<psa10 value="0.000293838469262701" flag="0"/>
			<psa30 value="3.65610938680568e-05" flag="0"/>
		</comp>
	</station>
	<station code="EMCN" name="EMCN" netid="IV" source="Italian National Seismic Network (INSN)" insttype="" lat="37.7912" lon="15.0336">
		<comp name="--.HNE" depth="0.0">
			<acc value="0.0030508431142404" flag="0"/>
			<vel value="0.000542785511448" flag="0"/>
			<psa03 value="0.00144411340631285" flag="0"/>
			<psa10 value="0.000309689890435425" flag="0"/>
			<psa30 value="2.29130901454022e-05" flag="0"/>
		</comp>
		<comp name="--.HNN" depth="0.0">
			<acc value="0.0049540450503828" flag="0"/>
			<vel value="0.00087497069629" flag="0"/>
			<psa03 value="0.00213665130828751" flag="0"/>
			<psa10 value="0.000596171192634345" flag="0"/>
			<psa30 value="2.85859268804844e-05" flag="0"/>
		</comp>
		<comp name="--.HNZ" depth="0.0">
			<acc value="0.004745011320303" flag="0"/>
			<vel value="0.000880970200598" flag="0"/>
			<psa03 value="0.00210459335778429" flag="0"/>
			<psa10 value="0.000519991048418277" flag="0"/>
			<psa30 value="3.54940733133579e-05" flag="0"/>
		</comp>
	</station>
	<station code="EPOZ" name="EPOZ" netid="IV" source="Italian National Seismic Network (INSN)" insttype="" lat="37.6719" lon="15.1885">
		<comp name="--.HNE" depth="0.0">
			<acc value="0.011131346182452" flag="0"/>
			<vel value="0.00162312799613" flag="0"/>
			<psa03 value="0.00597200173560769" flag="0"/>
			<psa10 value="0.0010329986654655" flag="0"/>
			<psa30 value="0.000137578397747832" flag="0"/>
		</comp>
		<comp name="--.HNN" depth="0.0">
			<acc value="0.0089077428715116" flag="0"/>
			<vel value="0.00172275108505" flag="0"/>
			<psa03 value="0.00504081765341106" flag="0"/>
			<psa10 value="0.00121125441934626" flag="0"/>
			<psa30 value="7.70734586029933e-05" flag="0"/>
		</comp>
		<comp name="--.HNZ" depth="0.0">
			<acc value="0.009108883547454" flag="0"/>
			<vel value="0.00123156159419" flag="0"/>
			<psa03 value="0.00407269460071669" flag="0"/>
			<psa10 value="0.000654262951083686" flag="0"/>
			<psa30 value="0.000118343829281128" flag="0"/>
		</comp>
	</station>
	<station code="ESML" name="ESML" netid="IV" source="Italian National Seismic Network (INSN)" insttype="" lat="37.6181" lon="14.8794">
		<comp name="--.HNE" depth="0.0">
			<acc value="0.0100500439579092" flag="0"/>
			<vel value="0.002478771923" flag="0"/>
			<psa03 value="0.00666543504192741" flag="0"/>
			<psa10 value="0.00181049524892581" flag="0"/>
			<psa30 value="0.000173155090466482" flag="0"/>
		</comp>
		<comp name="--.HNN" depth="0.0">
			<acc value="0.0061337476090314" flag="0"/>
			<vel value="0.00169965212847" flag="0"/>
			<psa03 value="0.0065362591669613" flag="0"/>
			<psa10 value="0.00130151692223304" flag="0"/>
			<psa30 value="0.000138774753041994" flag="0"/>
		</comp>
		<comp name="--.HNZ" depth="0.0">
			<acc value="0.0096679301213208" flag="0"/>
			<vel value="0.00191614131805" flag="0"/>
			<psa03 value="0.00793933974436911" flag="0"/>
			<psa10 value="0.000845434267590753" flag="0"/>
			<psa30 value="9.10330487217798e-05" flag="0"/>
		</comp>
	</station>
	<station code="GMB1" name="GMB1" netid="IV" source="Italian National Seismic Network (INSN)" insttype="" lat="38.1723" lon="15.8179">
		<comp name="--.HNE" depth="0.0">
			<acc value="0.0072340312926462" flag="0"/>
			<vel value="0.00121622189415" flag="0"/>
			<psa03 value="0.00277260782530746" flag="0"/>
			<psa10 value="0.000400175240114292" flag="0"/>
			<psa30 value="3.82860453771997e-05" flag="0"/>
		</comp>
		<comp name="--.HNN" depth="0.0">
			<acc value="0.0057079175196864" flag="0"/>
			<vel value="0.001013254787" flag="0"/>
			<psa03 value="0.00264372054366794" flag="0"/>
			<psa10 value="0.000359597552041761" flag="0"/>
			<psa30 value="4.37005153874017e-05" flag="0"/>
		</comp>
		<comp name="--.HNZ" depth="0.0">
			<acc value="0.01201600231452" flag="0"/>
			<vel value="0.00149196179096" flag="0"/>
			<psa03 value="0.00223363478374835" flag="0"/>
			<psa10 value="0.000337644212975121" flag="0"/>
			<psa30 value="3.7501393788503e-05" flag="0"/>
		</comp>
	</station>
	<station code="HLNI" name="HLNI" netid="IV" source="Italian National Seismic Network (INSN)" insttype="" lat="37.3485" lon="14.872">
		<comp name="--.HNE" depth="0.0">
			<acc value="0.039651450060552" flag="0"/>
			<vel value="0.00693881051002" flag="0"/>
			<psa03 value="0.019177672770432" flag="0"/>
			<psa10 value="0.00190094924886943" flag="0"/>
			<psa30 value="0.000184776042589416" flag="0"/>
		</comp>
		<comp name="--.HNN" depth="0.0">
			<acc value="0.044380005584634" flag="0"/>
			<vel value="0.00763330735525" flag="0"/>
			<psa03 value="0.0257652510922789" flag="0"/>
			<psa10 value="0.00175780906340927" flag="0"/>
			<psa30 value="0.00018998374434475" flag="0"/>
		</comp>
		<comp name="--.HNZ" depth="0.0">
			<acc value="0.033057323032152" flag="0"/>
			<vel value="0.00622983370404" flag="0"/>
			<psa03 value="0.0164860608706261" flag="0"/>
			<psa10 value="0.00177662675530172" flag="0"/>
			<psa30 value="0.000125354384841797" flag="0"/>
		</comp>
	</station>
	<station code="HMDC" name="HMDC" netid="IV" source="Italian National Seismic Network (INSN)" insttype="" lat="36.959" lon="14.7831">
		<comp name="--.HNE" depth="0.0">
			<acc value="0.037471557853296" flag="0"/>
			<vel value="0.00836067531048" flag="0"/>
			<psa03 value="0.0222237065864928" flag="0"/>
			<psa10 value="0.00479513234149334" flag="0"/>
			<psa30 value="0.000335038705086655" flag="0"/>
		</comp>
		<comp name="--.HNN" depth="0.0">
			<acc value="0.030869230118124" flag="0"/>
			<vel value="0.00695114559167" flag="0"/>
			<psa03 value="0.0224920186316998" flag="0"/>
			<psa10 value="0.00454692730538743" flag="0"/>
			<psa30 value="0.000276805394290512" flag="0"/>
		</comp>
		<comp name="--.HNZ" depth="0.0">
			<acc value="0.0245946194859" flag="0"/>
			<vel value="0.00496293170022" flag="0"/>
			<psa03 value="0.0138970364958603" flag="0"/>
			<psa10 value="0.00220849997415989" flag="0"/>
			<psa30 value="0.000195938943534993" flag="0"/>
		</comp>
	</station>
	<station code="HVZN" name="HVZN" netid="IV" source="Italian National Seismic Network (INSN)" insttype="" lat="37.1783" lon="14.7155">
		<comp name="--.HNE" depth="0.0">
			<acc value="0.034157462243232" flag="0"/>
			<vel value="0.0190090541441" flag="0"/>
			<psa03 value="0.0699388362295077" flag="0"/>
			<psa10 value="0.0272192075138988" flag="0"/>
			<psa30 value="0.00134092695482884" flag="0"/>
		</comp>
		<comp name="--.HNN" depth="0.0">
			<acc value="0.043962652233492" flag="0"/>
			<vel value="0.0192830222898" flag="0"/>
			<psa03 value="0.0861275023994642" flag="0"/>
			<psa10 value="0.0281237430599374" flag="0"/>
			<psa30 value="0.00154441970606088" flag="0"/>
		</comp>
		<comp name="--.HNZ" depth="0.0">
			<acc value="0.034520056553082" flag="0"/>
			<vel value="0.00988318785439" flag="0"/>
			<psa03 value="0.0652769753208086" flag="0"/>
			<psa10 value="0.00977587197854755" flag="0"/>
			<psa30 value="0.000508843604226807" flag="0"/>
		</comp>
	</station>
	<station code="ISPIC" name="ISPIC" netid="IV" source="Italian National Seismic Network (INSN)" insttype="" lat="36.7804" lon="14.9033">
		<comp name="--.HNE" depth="0.0">
			<acc value="0.039865220949408" flag="0"/>
			<vel value="0.00529734545059" flag="0"/>
			<psa03 value="0.0124719681337526" flag="0"/>
			<psa10 value="0.00301346126764529" flag="0"/>
			<psa30 value="0.000178930577230885" flag="0"/>
		</comp>
		<comp name="--.HNN" depth="0.0">
			<acc value="0.03223386206712" flag="0"/>
			<vel value="0.00532203995289" flag="0"/>
			<psa03 value="0.0128146223433194" flag="0"/>
			<psa10 value="0.00211253064791193" flag="0"/>
			<psa30 value="0.000128082338992928" flag="0"/>
		</comp>
		<comp name="--.HNZ" depth="0.0">
			<acc value="0.043472336868426" flag="0"/>
			<vel value="0.00497738629242" flag="0"/>
			<psa03 value="0.00913522039790208" flag="0"/>
			<psa10 value="0.0011512383732668" flag="0"/>
			<psa30 value="0.00011876198198186" flag="0"/>
		</comp>
	</station>
	<station code="PLAC" name="PLAC" netid="IV" source="Italian National Seismic Network (INSN)" insttype="" lat="38.4494" lon="16.4383">
		<comp name="--.HNE" depth="1.0">
			<acc value="0.0031549440301806" flag="0"/>
			<vel value="0.000679516545827" flag="0"/>
			<psa03 value="0.00146284348823326" flag="0"/>
			<psa10 value="0.000835759739982506" flag="0"/>
			<psa30 value="0.000180656056118654" flag="0"/>
		</comp>
		<comp name="--.HNN" depth="1.0">
			<acc value="0.0026409009588114" flag="0"/>
			<vel value="0.000491903404623" flag="0"/>
			<psa03 value="0.00152705509870772" flag="0"/>
			<psa10 value="0.000489600939517325" flag="0"/>
			<psa30 value="9.95201408981027e-05" flag="0"/>
		</comp>
		<comp name="--.HNZ" depth="1.0">
			<acc value="0.0032205077694558" flag="0"/>
			<vel value="0.000585312206732" flag="0"/>
			<psa03 value="0.00103217026423479" flag="0"/>
			<psa10 value="0.000582399753001212" flag="0"/>
			<psa30 value="0.000183180012380898" flag="0"/>
		</comp>
	</station>
	<station code="SSY" name="SSY" netid="IV" source="Italian National Seismic Network (INSN)" insttype="" lat="37.1577" lon="15.0737">
		<comp name="--.HNE" depth="0.0">
			<acc value="0.053073078057258" flag="0"/>
			<vel value="0.0126865871847" flag="0"/>
			<psa03 value="0.0753754203351487" flag="0"/>
			<psa10 value="0.0044905080991332" flag="0"/>
			<psa30 value="0.000339741646841613" flag="0"/>
		</comp>
		<comp name="--.HNN" depth="0.0">
			<acc value="0.052133772754728" flag="0"/>
			<vel value="0.0123587707718" flag="0"/>
			<psa03 value="0.0727629608142021" flag="0"/>
			<psa10 value="0.00477613498925006" flag="0"/>
			<psa30 value="0.00034541934066926" flag="0"/>
		</comp>
		<comp name="--.HNZ" depth="0.0">
			<acc value="0.042443901352044" flag="0"/>
			<vel value="0.00703163839351" flag="0"/>
			<psa03 value="0.0349558104425359" flag="0"/>
			<psa10 value="0.00241613880733681" flag="0"/>
			<psa30 value="0.000204087243736719" flag="0"/>
		</comp>
	</station>
</stationlist>
