<stationlist created="1631873529">
	<station code="HVZN" name="HVZN" netid="IV" source="Italian National Seismic Network (INSN)" insttype="" lat="37.1783" lon="14.7155">
		<comp name="--.HNE" depth="0.0">
			<acc value="0.002627928" flag="0"/>
			<vel value="0.002506" flag="0"/>
			<psa03 value="0.00702452643907" flag="0"/>
			<psa10 value="0.00394626262373" flag="0"/>
			<psa30 value="0.000356147964681" flag="0"/>
		</comp>
		<comp name="--.HNN" depth="0.0">
			<acc value="-0.003077442" flag="0"/>
			<vel value="-0.002398" flag="0"/>
			<psa03 value="0.00899318353027" flag="0"/>
			<psa10 value="0.00444961244819" flag="0"/>
			<psa30 value="0.000312748024262" flag="0"/>
		</comp>
		<comp name="--.HNZ" depth="0.0">
			<acc value="-0.002121804" flag="0"/>
			<vel value="-0.00123" flag="0"/>
			<psa03 value="0.00756143291849" flag="0"/>
			<psa10 value="0.00184024695821" flag="0"/>
			<psa30 value="0.000242950181937" flag="0"/>
		</comp>
	</station>
	<station code="SCIAR" name="SCIAR" netid="IV" source="Italian National Seismic Network (INSN)" insttype="" lat="37.94064" lon="13.74926">
		<comp name="--.HNE" depth="2.0">
			<acc value="0.011609538" flag="0"/>
			<vel value="-0.005843" flag="0"/>
			<psa03 value="0.0384782976917" flag="0"/>
			<psa10 value="0.00567778601986" flag="0"/>
			<psa30 value="0.000619232139597" flag="0"/>
		</comp>
		<comp name="--.HNN" depth="2.0">
			<acc value="0.01752717" flag="0"/>
			<vel value="-0.010039" flag="0"/>
			<psa03 value="0.0777172128959" flag="0"/>
			<psa10 value="0.00926163676998" flag="0"/>
			<psa30 value="0.000552118829669" flag="0"/>
		</comp>
		<comp name="--.HNZ" depth="2.0">
			<acc value="0.008710902" flag="0"/>
			<vel value="0.005188" flag="0"/>
			<psa03 value="0.0374492269395" flag="0"/>
			<psa10 value="0.00420800453245" flag="0"/>
			<psa30 value="0.000820572069379" flag="0"/>
		</comp>
	</station>
	<station code="SSY" name="SSY" netid="IV" source="Italian National Seismic Network (INSN)" insttype="" lat="37.1577" lon="15.0737">
		<comp name="--.HNE" depth="0.0">
			<acc value="-0.003201984" flag="0"/>
			<vel value="0.001894" flag="0"/>
			<psa03 value="0.00890369911704" flag="0"/>
			<psa10 value="0.00230332879671" flag="0"/>
			<psa30 value="0.000536011635287" flag="0"/>
		</comp>
		<comp name="--.HNN" depth="0.0">
			<acc value="-0.003489828" flag="0"/>
			<vel value="-0.002132" flag="0"/>
			<psa03 value="0.00935112118322" flag="0"/>
			<psa10 value="0.0017597109863" flag="0"/>
			<psa30 value="0.000390599463778" flag="0"/>
		</comp>
		<comp name="--.HNZ" depth="0.0">
			<acc value="-0.001767354" flag="0"/>
			<vel value="0.000926" flag="0"/>
			<psa03 value="0.00420576742212" flag="0"/>
			<psa10 value="0.000914083281211" flag="0"/>
			<psa30 value="0.000402232437498" flag="0"/>
		</comp>
	</station>
	<station code="T1573" name="T1573" netid="X3" source="INGV SISMIKO emergency seismic network for Salemi-Italy (ISesnSI)" insttype="" lat="37.862847" lon="12.930064">
		<comp name="--.HNE" depth="0.0">
			<acc value="-0.006338484" flag="0"/>
			<vel value="-0.004757" flag="0"/>
			<psa03 value="0.021923681243" flag="0"/>
			<psa10 value="0.00860929539749" flag="0"/>
			<psa30 value="0.000941376027248" flag="0"/>
		</comp>
		<comp name="--.HNN" depth="0.0">
			<acc value="0.007599714" flag="0"/>
			<vel value="-0.005503" flag="0"/>
			<psa03 value="0.0232659474415" flag="0"/>
			<psa10 value="0.00812205276741" flag="0"/>
			<psa30 value="0.00107649749124" flag="0"/>
		</comp>
		<comp name="--.HNZ" depth="0.0">
			<acc value="-0.003231972" flag="0"/>
			<vel value="-0.002875" flag="0"/>
			<psa03 value="0.00747194850525" flag="0"/>
			<psa10 value="0.00436504967768" flag="0"/>
			<psa30 value="0.000692609358451" flag="0"/>
		</comp>
	</station>
</stationlist>
