<?xml version="1.0" encoding="UTF-8" standalone="yes"?>
<!DOCTYPE earthquake SYSTEM "stationlist.dtd">
<stationlist created="" xmlns="ch.ethz.sed.shakemap.usgs.xml">
  <station code="CORL" name="CORL" netid="IV" insttype="" lat="37.8943" lon="13.3038">
    <comp name="--.HHE">
      <acc value="0.0128902691" flag="0"/>
      <vel value="0.0065697739" flag="0"/>
      <psa03 value="0.0547855019" flag="0"/>
      <psa10 value="0.0095277122" flag="0"/>
      <psa30 value="0.0015134939" flag="0"/>
    </comp>
    <comp name="--.HHN">
      <acc value="0.0082994392" flag="0"/>
      <vel value="0.0046246263" flag="0"/>
      <psa03 value="0.0407186816" flag="0"/>
      <psa10 value="0.0082347009" flag="0"/>
      <psa30 value="0.0011833785" flag="0"/>
    </comp>
    <comp name="--.HHZ">
      <acc value="0.0048663600" flag="0"/>
      <vel value="0.0047103418" flag="0"/>
      <psa03 value="0.0144190282" flag="0"/>
      <psa10 value="0.0055581939" flag="0"/>
      <psa30 value="0.0009527679" flag="0"/>
    </comp>
  </station>
  <station code="CSLB" name="CSLB" netid="IV" insttype="" lat="37.9374" lon="14.0579">
    <comp name="--.HHN">
      <acc value="0.0079255648" flag="0"/>
      <vel value="0.0068265087" flag="0"/>
      <psa03 value="0.0286651418" flag="0"/>
      <psa10 value="0.0168312676" flag="0"/>
      <psa30 value="0.0007665521" flag="0"/>
    </comp>
    <comp name="--.HHE">
      <acc value="0.0077732184" flag="0"/>
      <vel value="0.0046791117" flag="0"/>
      <psa03 value="0.0211838095" flag="0"/>
      <psa10 value="0.0034391549" flag="0"/>
      <psa30 value="0.0005456162" flag="0"/>
    </comp>
    <comp name="--.HHZ">
      <acc value="0.0076929907" flag="0"/>
      <vel value="0.0060765950" flag="0"/>
      <psa03 value="0.0213724108" flag="0"/>
      <psa10 value="0.0105637572" flag="0"/>
      <psa30 value="0.0006136611" flag="0"/>
    </comp>
  </station>
  <station code="EPZF" name="EPZF" netid="IV" insttype="" lat="37.824" lon="14.857">
    <comp name="--.HHE">
      <acc value="0.0043899676" flag="0"/>
      <vel value="0.0042491900" flag="0"/>
      <psa03 value="0.0190651134" flag="0"/>
      <psa10 value="0.0052305446" flag="0"/>
      <psa30 value="0.0011486937" flag="0"/>
    </comp>
    <comp name="--.HHN">
      <acc value="0.0065348695" flag="0"/>
      <vel value="0.0050094630" flag="0"/>
      <psa03 value="0.0275022214" flag="0"/>
      <psa10 value="0.0053552529" flag="0"/>
      <psa30 value="0.0010417543" flag="0"/>
    </comp>
    <comp name="--.HHZ">
      <acc value="0.0022924999" flag="0"/>
      <vel value="0.0010159673" flag="0"/>
      <psa03 value="0.0057092554" flag="0"/>
      <psa10 value="0.0010548828" flag="0"/>
      <psa30 value="0.0001277493" flag="0"/>
    </comp>
  </station>
  <station code="GALF" name="GALF" netid="IV" insttype="" lat="37.7107" lon="14.5665">
    <comp name="--.HHE">
      <acc value="0.0062817659" flag="0"/>
      <vel value="0.0061450107" flag="0"/>
      <psa03 value="0.0180628948" flag="0"/>
      <psa10 value="0.0090337136" flag="0"/>
      <psa30 value="0.0007447831" flag="0"/>
    </comp>
    <comp name="--.HHN">
      <acc value="0.0076349901" flag="0"/>
      <vel value="0.0060734389" flag="0"/>
      <psa03 value="0.0230736005" flag="0"/>
      <psa10 value="0.0092015539" flag="0"/>
      <psa30 value="0.0008190275" flag="0"/>
    </comp>
    <comp name="--.HHZ">
      <acc value="0.0046044423" flag="0"/>
      <vel value="0.0035228259" flag="0"/>
      <psa03 value="0.0148096063" flag="0"/>
      <psa10 value="0.0049509146" flag="0"/>
      <psa30 value="0.0006542674" flag="0"/>
    </comp>
  </station>
  <station code="GIB" name="GIB" netid="IV" insttype="" lat="37.9901" lon="14.026">
    <comp name="--.HHE">
      <acc value="0.0277540544" flag="0"/>
      <vel value="0.0207234855" flag="0"/>
      <psa03 value="0.0793230134" flag="0"/>
      <psa10 value="0.0189802376" flag="0"/>
      <psa30 value="0.0023817019" flag="0"/>
    </comp>
    <comp name="--.HHN">
      <acc value="0.0222180334" flag="0"/>
      <vel value="0.0206504489" flag="0"/>
      <psa03 value="0.0725679393" flag="0"/>
      <psa10 value="0.0400336572" flag="0"/>
      <psa30 value="0.0022141165" flag="0"/>
    </comp>
    <comp name="--.HHZ">
      <acc value="0.0135485618" flag="0"/>
      <vel value="0.0099338822" flag="0"/>
      <psa03 value="0.0356222291" flag="0"/>
      <psa10 value="0.0175412229" flag="0"/>
      <psa30 value="0.0009871259" flag="0"/>
    </comp>
  </station>
  <station code="IACL" name="IACL" netid="IV" insttype="" lat="38.533" lon="14.355">
    <comp name="--.HHE">
      <acc value="0.1481468113" flag="0"/>
      <vel value="0.0437757103" flag="0"/>
      <psa03 value="0.1903790046" flag="0"/>
      <psa10 value="0.0419756420" flag="0"/>
      <psa30 value="0.0058869138" flag="0"/>
    </comp>
    <comp name="--.HHZ">
      <acc value="0.0981943993" flag="0"/>
      <vel value="0.0275740733" flag="0"/>
      <psa03 value="0.1255810819" flag="0"/>
      <psa10 value="0.0161408803" flag="0"/>
      <psa30 value="0.0032039692" flag="0"/>
    </comp>
    <comp name="--.HHN">
      <acc value="0.1244127961" flag="0"/>
      <vel value="0.0407691638" flag="0"/>
      <psa03 value="0.2442410170" flag="0"/>
      <psa10 value="0.0353585017" flag="0"/>
      <psa30 value="0.0033947043" flag="0"/>
    </comp>
  </station>
  <station code="IFIL" name="IFIL" netid="IV" insttype="" lat="38.5642" lon="14.5753">
    <comp name="--.HHE">
      <acc value="0.2011233728" flag="0"/>
      <vel value="0.0524457612" flag="0"/>
      <psa03 value="0.2358476259" flag="0"/>
      <psa10 value="0.0354967617" flag="0"/>
      <psa30 value="0.0035852625" flag="0"/>
    </comp>
    <comp name="--.HHN">
      <acc value="0.0757278544" flag="0"/>
      <vel value="0.0271026015" flag="0"/>
      <psa03 value="0.0807756090" flag="0"/>
      <psa10 value="0.0181259702" flag="0"/>
      <psa30 value="0.0013638391" flag="0"/>
    </comp>
    <comp name="--.HHZ">
      <acc value="0.1009020740" flag="0"/>
      <vel value="0.0236009094" flag="0"/>
      <psa03 value="0.1131748829" flag="0"/>
      <psa10 value="0.0187129353" flag="0"/>
      <psa30 value="0.0020582593" flag="0"/>
    </comp>
  </station>
  <station code="ILOS" name="ILOS" netid="IV" insttype="" lat="38.4457" lon="14.9483">
    <comp name="--.HHE">
      <acc value="0.0787910882" flag="0"/>
      <vel value="0.0077718381" flag="0"/>
      <psa03 value="0.0418192124" flag="0"/>
      <psa10 value="0.0088418310" flag="0"/>
      <psa30 value="0.0018652579" flag="0"/>
    </comp>
    <comp name="--.HHN">
      <acc value="0.1091790222" flag="0"/>
      <vel value="0.0160491176" flag="0"/>
      <psa03 value="0.0652812559" flag="0"/>
      <psa10 value="0.0174937197" flag="0"/>
      <psa30 value="0.0018169503" flag="0"/>
    </comp>
    <comp name="--.HHZ">
      <acc value="0.0616337314" flag="0"/>
      <vel value="0.0052895213" flag="0"/>
      <psa03 value="0.0263084014" flag="0"/>
      <psa10 value="0.0043178245" flag="0"/>
      <psa30 value="0.0006938731" flag="0"/>
    </comp>
  </station>
  <station code="IST3" name="IST3" netid="IV" insttype="" lat="38.7992" lon="15.2304">
    <comp name="--.HHE">
      <acc value="0.0167470119" flag="0"/>
      <vel value="0.0027967464" flag="0"/>
      <psa03 value="0.0068938286" flag="0"/>
      <psa10 value="0.0011846626" flag="0"/>
      <psa30 value="0.0005173029" flag="0"/>
    </comp>
    <comp name="--.HHN">
      <acc value="0.0175058200" flag="0"/>
      <vel value="0.0029925745" flag="0"/>
      <psa03 value="0.0114417122" flag="0"/>
      <psa10 value="0.0016427774" flag="0"/>
      <psa30 value="0.0002818362" flag="0"/>
    </comp>
    <comp name="--.HHZ">
      <acc value="0.0123673924" flag="0"/>
      <vel value="0.0017952656" flag="0"/>
      <psa03 value="0.0056365273" flag="0"/>
      <psa10 value="0.0009441844" flag="0"/>
      <psa30 value="0.0002821166" flag="0"/>
    </comp>
  </station>
  <station code="IVGP" name="IVGP" netid="IV" insttype="" lat="38.3968" lon="14.9608">
    <comp name="--.HHE">
      <acc value="0.0076534253" flag="0"/>
      <vel value="0.0025984345" flag="0"/>
      <psa03 value="0.0101500458" flag="0"/>
      <psa10 value="0.0020839719" flag="0"/>
      <psa30 value="0.0005362205" flag="0"/>
    </comp>
    <comp name="--.HHN">
      <acc value="0.0063278178" flag="0"/>
      <vel value="0.0022260588" flag="0"/>
      <psa03 value="0.0119139243" flag="0"/>
      <psa10 value="0.0013926406" flag="0"/>
      <psa30 value="0.0003408938" flag="0"/>
    </comp>
    <comp name="--.HHZ">
      <acc value="0.0057322767" flag="0"/>
      <vel value="0.0022577088" flag="0"/>
      <psa03 value="0.0138838653" flag="0"/>
      <psa10 value="0.0013955049" flag="0"/>
      <psa30 value="0.0002600959" flag="0"/>
    </comp>
  </station>
  <station code="IVPL" name="IVPL" netid="IV" insttype="" lat="38.3763" lon="14.9801">
    <comp name="--.HHE">
      <acc value="0.0055449966" flag="0"/>
      <vel value="0.0039153440" flag="0"/>
      <psa03 value="0.0124356021" flag="0"/>
      <psa10 value="0.0054765912" flag="0"/>
      <psa30 value="0.0004638553" flag="0"/>
    </comp>
    <comp name="--.HHN">
      <acc value="0.0054044093" flag="0"/>
      <vel value="0.0034900674" flag="0"/>
      <psa03 value="0.0148729304" flag="0"/>
      <psa10 value="0.0058826255" flag="0"/>
      <psa30 value="0.0005130025" flag="0"/>
    </comp>
    <comp name="--.HHZ">
      <acc value="0.0031814166" flag="0"/>
      <vel value="0.0016412892" flag="0"/>
      <psa03 value="0.0096002627" flag="0"/>
      <psa10 value="0.0022012316" flag="0"/>
      <psa30 value="0.0002640938" flag="0"/>
    </comp>
  </station>
  <station code="IVUG" name="IVUG" netid="IV" insttype="" lat="38.396" lon="14.986">
    <comp name="--.HHE">
      <acc value="0.0031951187" flag="0"/>
      <vel value="0.0030704120" flag="0"/>
      <psa03 value="0.0104571956" flag="0"/>
      <psa10 value="0.0034993312" flag="0"/>
      <psa30 value="0.0004539842" flag="0"/>
    </comp>
    <comp name="--.HHN">
      <acc value="0.0035641889" flag="0"/>
      <vel value="0.0019027930" flag="0"/>
      <psa03 value="0.0091165306" flag="0"/>
      <psa10 value="0.0026896011" flag="0"/>
      <psa30 value="0.0003516647" flag="0"/>
    </comp>
    <comp name="--.HHZ">
      <acc value="0.0020193373" flag="0"/>
      <vel value="0.0008873028" flag="0"/>
      <psa03 value="0.0039744885" flag="0"/>
      <psa10 value="0.0012486375" flag="0"/>
      <psa30 value="0.0001988393" flag="0"/>
    </comp>
  </station>
  <station code="MBFT" name="MBFT" netid="IV" insttype="" lat="37.9461" lon="12.9535">
    <comp name="--.HHE">
      <acc value="0.0023310822" flag="0"/>
      <vel value="0.0018722408" flag="0"/>
      <psa03 value="0.0123854997" flag="0"/>
      <psa10 value="0.0025714572" flag="0"/>
      <psa30 value="0.0005361419" flag="0"/>
    </comp>
    <comp name="--.HHN">
      <acc value="0.0021292857" flag="0"/>
      <vel value="0.0018501658" flag="0"/>
      <psa03 value="0.0071108734" flag="0"/>
      <psa10 value="0.0031983331" flag="0"/>
      <psa30 value="0.0004891142" flag="0"/>
    </comp>
    <comp name="--.HHZ">
      <acc value="0.0016144569" flag="0"/>
      <vel value="0.0014175100" flag="0"/>
      <psa03 value="0.0051508669" flag="0"/>
      <psa10 value="0.0014440837" flag="0"/>
      <psa30 value="0.0002716158" flag="0"/>
    </comp>
  </station>
  <station code="MPG" name="MPG" netid="IV" insttype="" lat="38.1617" lon="13.36">
    <comp name="--.HHE">
      <acc value="0.0119877391" flag="0"/>
      <vel value="0.0061748863" flag="0"/>
      <psa03 value="0.0298119355" flag="0"/>
      <psa10 value="0.0100019473" flag="0"/>
      <psa30 value="0.0008384263" flag="0"/>
    </comp>
    <comp name="--.HHN">
      <acc value="0.0129670142" flag="0"/>
      <vel value="0.0073953301" flag="0"/>
      <psa03 value="0.0584571536" flag="0"/>
      <psa10 value="0.0111941860" flag="0"/>
      <psa30 value="0.0010016214" flag="0"/>
    </comp>
    <comp name="--.HHZ">
      <acc value="0.0085550614" flag="0"/>
      <vel value="0.0034512398" flag="0"/>
      <psa03 value="0.0208156848" flag="0"/>
      <psa10 value="0.0038278396" flag="0"/>
      <psa30 value="0.0007342381" flag="0"/>
    </comp>
  </station>
  <station code="MSFR" name="MSFR" netid="IV" insttype="" lat="38.0339" lon="14.5916">
    <comp name="--.HHE">
      <acc value="0.0024017187" flag="0"/>
      <vel value="0.0022260574" flag="0"/>
      <psa03 value="0.0052936369" flag="0"/>
      <psa10 value="0.0017754341" flag="0"/>
      <psa30 value="0.0007884190" flag="0"/>
    </comp>
    <comp name="--.HHN">
      <acc value="0.0026591645" flag="0"/>
      <vel value="0.0020404237" flag="0"/>
      <psa03 value="0.0097549130" flag="0"/>
      <psa10 value="0.0034072330" flag="0"/>
      <psa30 value="0.0008673661" flag="0"/>
    </comp>
    <comp name="--.HHZ">
      <acc value="0.0021595804" flag="0"/>
      <vel value="0.0018252798" flag="0"/>
      <psa03 value="0.0041563978" flag="0"/>
      <psa10 value="0.0012825997" flag="0"/>
      <psa30 value="0.0009343227" flag="0"/>
    </comp>
  </station>
  <station code="MUCR" name="MUCR" netid="IV" insttype="" lat="38.043" lon="14.8739">
    <comp name="--.HHZ">
      <acc value="0.0045136130" flag="0"/>
      <vel value="0.0025648653" flag="0"/>
      <psa03 value="0.0100070128" flag="0"/>
      <psa10 value="0.0032216327" flag="0"/>
      <psa30 value="0.0004820399" flag="0"/>
    </comp>
    <comp name="--.HHE">
      <acc value="0.0060360134" flag="0"/>
      <vel value="0.0036584091" flag="0"/>
      <psa03 value="0.0212406134" flag="0"/>
      <psa10 value="0.0053958515" flag="0"/>
      <psa30 value="0.0005474478" flag="0"/>
    </comp>
    <comp name="--.HHN">
      <acc value="0.0075397960" flag="0"/>
      <vel value="0.0058845670" flag="0"/>
      <psa03 value="0.0164928243" flag="0"/>
      <psa10 value="0.0052161909" flag="0"/>
      <psa30 value="0.0004234692" flag="0"/>
    </comp>
  </station>
  <station code="PETRA" name="PETRA" netid="IV" insttype="" lat="37.8335" lon="14.1148">
    <comp name="--.HHE">
      <acc value="0.0143321310" flag="0"/>
      <vel value="0.0152570867" flag="0"/>
      <psa03 value="0.0346352259" flag="0"/>
      <psa10 value="0.0127393081" flag="0"/>
      <psa30 value="0.0015978295" flag="0"/>
    </comp>
    <comp name="--.HHN">
      <acc value="0.0175036490" flag="0"/>
      <vel value="0.0120914857" flag="0"/>
      <psa03 value="0.0590505770" flag="0"/>
      <psa10 value="0.0162496751" flag="0"/>
      <psa30 value="0.0013433662" flag="0"/>
    </comp>
    <comp name="--.HHZ">
      <acc value="0.0092223222" flag="0"/>
      <vel value="0.0047740462" flag="0"/>
      <psa03 value="0.0239165058" flag="0"/>
      <psa10 value="0.0065467660" flag="0"/>
      <psa30 value="0.0010401001" flag="0"/>
    </comp>
  </station>
  <station code="RESU" name="RESU" netid="IV" insttype="" lat="37.6468" lon="14.0568">
    <comp name="--.HHE">
      <acc value="0.0044513030" flag="0"/>
      <vel value="0.0037358338" flag="0"/>
      <psa03 value="0.0103718840" flag="0"/>
      <psa10 value="0.0059761522" flag="0"/>
      <psa30 value="0.0009400537" flag="0"/>
    </comp>
    <comp name="--.HHN">
      <acc value="0.0053579810" flag="0"/>
      <vel value="0.0044851897" flag="0"/>
      <psa03 value="0.0121725114" flag="0"/>
      <psa10 value="0.0071230513" flag="0"/>
      <psa30 value="0.0013988173" flag="0"/>
    </comp>
    <comp name="--.HHZ">
      <acc value="0.0024965958" flag="0"/>
      <vel value="0.0033979806" flag="0"/>
      <psa03 value="0.0073396845" flag="0"/>
      <psa10 value="0.0040228546" flag="0"/>
      <psa30 value="0.0018104889" flag="0"/>
    </comp>
  </station>
  <station code="SCIAR" name="SCIAR" netid="IV" insttype="" lat="37.9406" lon="13.7493">
    <comp name="--.HHE">
      <acc value="0.0123292329" flag="0"/>
      <vel value="0.0061688944" flag="0"/>
      <psa03 value="0.0317344026" flag="0"/>
      <psa10 value="0.0059649178" flag="0"/>
      <psa30 value="0.0005643896" flag="0"/>
    </comp>
    <comp name="--.HHN">
      <acc value="0.0189114332" flag="0"/>
      <vel value="0.0100785781" flag="0"/>
      <psa03 value="0.0852730190" flag="0"/>
      <psa10 value="0.0094136935" flag="0"/>
      <psa30 value="0.0005335925" flag="0"/>
    </comp>
    <comp name="--.HHZ">
      <acc value="0.0098085277" flag="0"/>
      <vel value="0.0053579105" flag="0"/>
      <psa03 value="0.0411266131" flag="0"/>
      <psa10 value="0.0044699880" flag="0"/>
      <psa30 value="0.0006908028" flag="0"/>
    </comp>
  </station>
  <station code="USI" name="USI" netid="IV" insttype="" lat="38.7079" lon="13.1791">
    <comp name="--.HHE">
      <acc value="0.0287575815" flag="0"/>
      <vel value="0.0077429522" flag="0"/>
      <psa03 value="0.0391142012" flag="0"/>
      <psa10 value="0.0085959661" flag="0"/>
      <psa30 value="0.0027094178" flag="0"/>
    </comp>
    <comp name="--.HHN">
      <acc value="0.0912356015" flag="0"/>
      <vel value="0.0330201166" flag="0"/>
      <psa03 value="0.1573191160" flag="0"/>
      <psa10 value="0.0246219307" flag="0"/>
      <psa30 value="0.0045155288" flag="0"/>
    </comp>
    <comp name="--.HHZ">
      <acc value="0.1141428386" flag="0"/>
      <vel value="0.0251689523" flag="0"/>
      <psa03 value="0.0960910500" flag="0"/>
      <psa10 value="0.0094775736" flag="0"/>
      <psa30 value="0.0022062111" flag="0"/>
    </comp>
  </station>
</stationlist>
