<stationlist created="1775820559">
	<station code="KOZK" name="KOZK" netid="KO" source="Bogazici University Kandilli Observatory And Earthquake Research Institute (KOERI)" insttype="" lat="39.2101" lon="34.868">
		<comp name="--.HNE" depth="0.0">
			<acc value="0.0507160794916591" flag="0"/>
			<vel value="0.0421550432505979" flag="0"/>
			<psa03 value="0.146038562402039" flag="0"/>
			<psa10 value="0.0739360490146279" flag="0"/>
			<psa30 value="0.00403664188110048" flag="0"/>
		</comp>
		<comp name="--.HNN" depth="0.0">
			<acc value="0.0556716418467152" flag="0"/>
			<vel value="0.0396973009920817" flag="0"/>
			<psa03 value="0.153018346634489" flag="0"/>
			<psa10 value="0.0526906596240077" flag="0"/>
			<psa30 value="0.00472075022029385" flag="0"/>
		</comp>
		<comp name="--.HNZ" depth="0.0">
			<acc value="0.0419958632542291" flag="0"/>
			<vel value="0.0306238072449687" flag="0"/>
			<psa03 value="0.117582518992818" flag="0"/>
			<psa10 value="0.0231178507375948" flag="0"/>
			<psa30 value="0.00373507940849333" flag="0"/>
		</comp>
	</station>
</stationlist>
