<?xml version="1.0" encoding="UTF-8" standalone="yes"?>
<!DOCTYPE earthquake SYSTEM "stationlist.dtd">
<stationlist created="" xmlns="ch.ethz.sed.shakemap.usgs.xml">
  <station code="KOZK" name="KOZK" netid="KO" insttype="100" lat="39.2101" lon="34.8679">
    <comp name="--.HNZ">
      <acc value="0.0066748051" flag="0"/>
      <vel value="0.0048934469" flag="0"/>
      <psa03 value="0.0189492060" flag="0"/>
      <psa10 value="0.0036755847" flag="0"/>
      <psa30 value="0.0004898736" flag="0"/>
    </comp>
    <comp name="--.HNE">
      <acc value="0.0080674730" flag="0"/>
      <vel value="0.0066619502" flag="0"/>
      <psa03 value="0.0229574646" flag="0"/>
      <psa10 value="0.0117403483" flag="0"/>
      <psa30 value="0.0006208058" flag="0"/>
    </comp>
    <comp name="--.HNN">
      <acc value="0.0088342379" flag="0"/>
      <vel value="0.0064206448" flag="0"/>
      <psa03 value="0.0244727005" flag="0"/>
      <psa10 value="0.0083884357" flag="0"/>
      <psa30 value="0.0006613483" flag="0"/>
    </comp>
  </station>
  <station code="TOS" name="TOS" netid="KO" insttype="100" lat="41.0362" lon="34.0225">
    <comp name="--.HNE">
      <acc value="0.0052714928" flag="0"/>
      <vel value="0.0041794949" flag="0"/>
      <psa03 value="0.0128412711" flag="0"/>
      <psa10 value="0.0052485573" flag="0"/>
      <psa30 value="0.0013953970" flag="0"/>
    </comp>
    <comp name="--.HNZ">
      <acc value="0.0061022993" flag="0"/>
      <vel value="0.0043453987" flag="0"/>
      <psa03 value="0.0131276795" flag="0"/>
      <psa10 value="0.0044379432" flag="0"/>
      <psa30 value="0.0009096899" flag="0"/>
    </comp>
    <comp name="--.HNN">
      <acc value="0.0096010173" flag="0"/>
      <vel value="0.0081033530" flag="0"/>
      <psa03 value="0.0198658550" flag="0"/>
      <psa10 value="0.0087924151" flag="0"/>
      <psa30 value="0.0011231711" flag="0"/>
    </comp>
  </station>
  <station code="YOZ" name="YOZ" netid="KO" insttype="360s," lat="39.6376" lon="35.3152">
    <comp name="--.HHE">
      <acc value="0.0238096533" flag="0"/>
      <vel value="0.0130564214" flag="0"/>
      <psa03 value="0.0817906738" flag="0"/>
      <psa10 value="0.0173550628" flag="0"/>
      <psa30 value="0.0008314045" flag="0"/>
    </comp>
    <comp name="--.HHN">
      <acc value="0.0239383651" flag="0"/>
      <vel value="0.0152637002" flag="0"/>
      <psa03 value="0.0830755584" flag="0"/>
      <psa10 value="0.0112296879" flag="0"/>
      <psa30 value="0.0007003126" flag="0"/>
    </comp>
    <comp name="--.HHZ">
      <acc value="0.0134423773" flag="0"/>
      <vel value="0.0071528359" flag="0"/>
      <psa03 value="0.0540089647" flag="0"/>
      <psa10 value="0.0081112236" flag="0"/>
      <psa30 value="0.0006536837" flag="0"/>
    </comp>
  </station>
</stationlist>
