<?xml version="1.0" encoding="UTF-8" standalone="yes"?>
<!DOCTYPE earthquake SYSTEM "stationlist.dtd">
<stationlist created="" xmlns="ch.ethz.sed.shakemap.usgs.xml">
  <station code="ZKR" name="ZKR" netid="GE" insttype="STS-2/N" commtype="DIG" lat="35.1147" lon="26.2169">
    <comp name="--.HHZ">
      <acc value="0.5631967893" flag="0"/>
      <vel value="0.0882546478" flag="0"/>
      <psa03 value="0.3410399383" flag="0"/>
      <psa10 value="0.0149236051" flag="0"/>
      <psa30 value="0.0015669859" flag="0"/>
    </comp>
    <comp name="--.HHN">
      <acc value="0.3998515394" flag="0"/>
      <vel value="0.0826141732" flag="0"/>
      <psa03 value="0.2944211046" flag="0"/>
      <psa10 value="0.0151432502" flag="0"/>
      <psa30 value="0.0012355420" flag="0"/>
    </comp>
    <comp name="--.HHE">
      <acc value="1.4727371050" flag="0"/>
      <vel value="0.3016489932" flag="0"/>
      <psa03 value="1.0305659441" flag="0"/>
      <psa10 value="0.0587247722" flag="0"/>
      <psa30 value="0.0050782431" flag="0"/>
    </comp>
  </station>
</stationlist>
