<?xml version="1.0" encoding="UTF-8" standalone="yes"?>
<!DOCTYPE earthquake SYSTEM "stationlist.dtd">
<stationlist created="" xmlns="ch.ethz.sed.shakemap.usgs.xml">
  <station code="BAYT" name="BAYT" netid="KO" insttype="CMG-3ESPC" commtype="DIG" lat="40.3937" lon="40.141">
    <comp name="--.HHE">
      <acc value="0.0121333308" flag="0"/>
      <vel value="0.0071133103" flag="0"/>
      <psa03 value="0.0296949702" flag="0"/>
      <psa10 value="0.0102429835" flag="0"/>
      <psa30 value="0.0007533217" flag="0"/>
    </comp>
    <comp name="--.HHN">
      <acc value="0.0108667546" flag="0"/>
      <vel value="0.0073427675" flag="0"/>
      <psa03 value="0.0408224319" flag="0"/>
      <psa10 value="0.0069441767" flag="0"/>
      <psa30 value="0.0004648717" flag="0"/>
    </comp>
    <comp name="--.HHZ">
      <acc value="0.0006348020" flag="0"/>
      <vel value="0.0003336254" flag="0"/>
      <psa03 value="0.0031407112" flag="0"/>
      <psa10 value="0.0003039938" flag="0"/>
      <psa30 value="0.0000256401" flag="0"/>
    </comp>
  </station>
  <station code="BNGB" name="BNGB" netid="KO" insttype="CMG-3ESPC" commtype="DIG" lat="38.9913" lon="40.6792">
    <comp name="--.HHZ">
      <acc value="0.0058629425" flag="0"/>
      <vel value="0.0029446486" flag="0"/>
      <psa03 value="0.0104381082" flag="0"/>
      <psa10 value="0.0035178663" flag="0"/>
      <psa30 value="0.0006394431" flag="0"/>
    </comp>
    <comp name="--.HHN">
      <acc value="0.0089852126" flag="0"/>
      <vel value="0.0036100366" flag="0"/>
      <psa03 value="0.0140258896" flag="0"/>
      <psa10 value="0.0055742395" flag="0"/>
      <psa30 value="0.0005866397" flag="0"/>
    </comp>
    <comp name="--.HHE">
      <acc value="0.0078929667" flag="0"/>
      <vel value="0.0040267406" flag="0"/>
      <psa03 value="0.0228557419" flag="0"/>
      <psa10 value="0.0057882854" flag="0"/>
      <psa30 value="0.0007217105" flag="0"/>
    </comp>
  </station>
  <station code="KARO" name="KARO" netid="KO" insttype="CMG-3T" commtype="DIG" lat="39.3089" lon="41.0493">
    <comp name="--.HHN">
      <acc value="0.0237385625" flag="0"/>
      <vel value="0.0153926540" flag="0"/>
      <psa03 value="0.0895252671" flag="0"/>
      <psa10 value="0.0178633167" flag="0"/>
      <psa30 value="0.0021285374" flag="0"/>
    </comp>
    <comp name="--.HHE">
      <acc value="0.0241163257" flag="0"/>
      <vel value="0.0250544414" flag="0"/>
      <psa03 value="0.0832989252" flag="0"/>
      <psa10 value="0.0328181599" flag="0"/>
      <psa30 value="0.0129150842" flag="0"/>
    </comp>
    <comp name="--.HHZ">
      <acc value="0.0195478013" flag="0"/>
      <vel value="0.0105685440" flag="0"/>
      <psa03 value="0.0526765696" flag="0"/>
      <psa10 value="0.0138260703" flag="0"/>
      <psa30 value="0.0038619558" flag="0"/>
    </comp>
  </station>
  <station code="KOPR" name="KOPR" netid="KO" insttype="CMG-3T" commtype="DIG" lat="39.9917" lon="41.8535">
    <comp name="--.HHE">
      <acc value="0.0023396874" flag="0"/>
      <vel value="0.0034974827" flag="0"/>
      <psa03 value="0.0056313351" flag="0"/>
      <psa10 value="0.0046582544" flag="0"/>
      <psa30 value="0.0012009745" flag="0"/>
    </comp>
    <comp name="--.HHN">
      <acc value="0.0027932426" flag="0"/>
      <vel value="0.0031082909" flag="0"/>
      <psa03 value="0.0073341951" flag="0"/>
      <psa10 value="0.0038980414" flag="0"/>
      <psa30 value="0.0009722779" flag="0"/>
    </comp>
    <comp name="--.HHZ">
      <acc value="0.0020354261" flag="0"/>
      <vel value="0.0016920700" flag="0"/>
      <psa03 value="0.0080837005" flag="0"/>
      <psa10 value="0.0027417468" flag="0"/>
      <psa30 value="0.0004929031" flag="0"/>
    </comp>
  </station>
  <station code="SINE" name="SINE" netid="KO" insttype="CMG-6T" commtype="DIG" lat="39.1636" lon="39.3871">
    <comp name="--.HHE">
      <acc value="0.0059686569" flag="0"/>
      <vel value="0.0033158635" flag="0"/>
      <psa03 value="0.0141761390" flag="0"/>
      <psa10 value="0.0031190012" flag="0"/>
      <psa30 value="0.0001069811" flag="0"/>
    </comp>
    <comp name="--.HHZ">
      <acc value="0.0063755162" flag="0"/>
      <vel value="0.0022577658" flag="0"/>
      <psa03 value="0.0091586749" flag="0"/>
      <psa10 value="0.0030027710" flag="0"/>
      <psa30 value="0.0001308232" flag="0"/>
    </comp>
    <comp name="--.HHN">
      <acc value="0.0065454040" flag="0"/>
      <vel value="0.0022363570" flag="0"/>
      <psa03 value="0.0110668846" flag="0"/>
      <psa10 value="0.0034973299" flag="0"/>
      <psa30 value="0.0001047874" flag="0"/>
    </comp>
  </station>
  <station code="VRTB" name="VRTB" netid="KO" insttype="CMG-3ESPC" commtype="DIG" lat="39.1603" lon="41.4558">
    <comp name="--.HHZ">
      <acc value="0.0012239388" flag="0"/>
      <vel value="0.0017728735" flag="0"/>
      <psa03 value="0.0030603862" flag="0"/>
      <psa10 value="0.0028773477" flag="0"/>
      <psa30 value="0.0012200249" flag="0"/>
    </comp>
    <comp name="--.HHE">
      <acc value="0.0024952087" flag="0"/>
      <vel value="0.0037342906" flag="0"/>
      <psa03 value="0.0059524677" flag="0"/>
      <psa10 value="0.0057002961" flag="0"/>
      <psa30 value="0.0019462457" flag="0"/>
    </comp>
    <comp name="--.HHN">
      <acc value="0.0006214372" flag="0"/>
      <vel value="0.0012168686" flag="0"/>
      <psa03 value="0.0014071712" flag="0"/>
      <psa10 value="0.0009406045" flag="0"/>
      <psa30 value="0.0011710410" flag="0"/>
    </comp>
  </station>
  <station code="YEDI" name="YEDI" netid="KO" insttype="CMG-3T" commtype="DIG" lat="39.4377" lon="40.5443">
    <comp name="--.HHZ">
      <acc value="0.0062007821" flag="0"/>
      <vel value="0.0004609635" flag="0"/>
      <psa03 value="0.0008062951" flag="0"/>
      <psa10 value="0.0003467622" flag="0"/>
      <psa30 value="0.0000428174" flag="0"/>
    </comp>
    <comp name="--.HHE">
      <acc value="0.3565904163" flag="0"/>
      <vel value="0.1342298985" flag="0"/>
      <psa03 value="0.4202939238" flag="0"/>
      <psa10 value="0.1297111383" flag="0"/>
      <psa30 value="0.0136177309" flag="0"/>
    </comp>
  </station>
</stationlist>
