<?xml version="1.0" encoding="UTF-8" standalone="yes"?>
<!DOCTYPE earthquake SYSTEM "stationlist.dtd">
<stationlist created="" xmlns="ch.ethz.sed.shakemap.usgs.xml">
  <station code="NIMR" name="NIMR" netid="FR" insttype="CMG40-T" lat="43.6802" lon="7.20276">
    <comp name="00.HHE">
      <acc value="0.0449194412" flag="0"/>
      <vel value="0.0195438865" flag="0"/>
      <psa03 value="0.1203169163" flag="0"/>
      <psa10 value="0.0116867842" flag="0"/>
      <psa30 value="0.0008977033" flag="0"/>
    </comp>
    <comp name="00.HHN">
      <acc value="0.0567433667" flag="0"/>
      <vel value="0.0268200432" flag="0"/>
      <psa03 value="0.2063157432" flag="0"/>
      <psa10 value="0.0178682160" flag="0"/>
      <psa30 value="0.0011342126" flag="0"/>
    </comp>
    <comp name="00.HHZ">
      <acc value="0.0499636306" flag="0"/>
      <vel value="0.0137482057" flag="0"/>
      <psa03 value="0.1179711095" flag="0"/>
      <psa10 value="0.0061879049" flag="0"/>
      <psa30 value="0.0005991476" flag="0"/>
    </comp>
  </station>
  <station code="TRIGF" name="TRIGF" netid="FR" insttype="TRILLIUM-120PH" lat="43.7471" lon="6.4074">
    <comp name="00.HHZ">
      <acc value="0.0270338142" flag="0"/>
      <vel value="0.0080989029" flag="0"/>
      <psa03 value="0.0470227066" flag="0"/>
      <psa10 value="0.0082764977" flag="0"/>
      <psa30 value="0.0005939766" flag="0"/>
    </comp>
    <comp name="00.HHE">
      <acc value="0.0267842013" flag="0"/>
      <vel value="0.0099315205" flag="0"/>
      <psa03 value="0.0470731828" flag="0"/>
      <psa10 value="0.0082684097" flag="0"/>
      <psa30 value="0.0005241088" flag="0"/>
    </comp>
    <comp name="00.HHN">
      <acc value="0.0274539524" flag="0"/>
      <vel value="0.0079537445" flag="0"/>
      <psa03 value="0.0350899709" flag="0"/>
      <psa10 value="0.0051423918" flag="0"/>
      <psa30 value="0.0004971228" flag="0"/>
    </comp>
  </station>
  <station code="BURY" name="BURY" netid="GU" insttype="" lat="43.7825" lon="7.557">
    <comp name="--.HNN">
      <acc value="0.0170275577" flag="0"/>
      <vel value="0.0040015809" flag="0"/>
      <psa03 value="0.0205435586" flag="0"/>
      <psa10 value="0.0033667383" flag="0"/>
      <psa30 value="0.0002763783" flag="0"/>
    </comp>
    <comp name="--.HNE">
      <acc value="0.0203063736" flag="0"/>
      <vel value="0.0035633259" flag="0"/>
      <psa03 value="0.0162207413" flag="0"/>
      <psa10 value="0.0045732698" flag="0"/>
      <psa30 value="0.0002389094" flag="0"/>
    </comp>
    <comp name="--.HNZ">
      <acc value="0.0149537218" flag="0"/>
      <vel value="0.0026636278" flag="0"/>
      <psa03 value="0.0162810291" flag="0"/>
      <psa10 value="0.0025690493" flag="0"/>
      <psa30 value="0.0002650803" flag="0"/>
    </comp>
  </station>
  <station code="NCAU" name="NCAU" netid="RA" insttype="" lat="43.675" lon="7.212">
    <comp name="00.HNE">
      <acc value="0.0798426239" flag="0"/>
      <vel value="0.0259413946" flag="0"/>
      <psa03 value="0.0955717862" flag="0"/>
      <psa10 value="0.0105347089" flag="0"/>
      <psa30 value="0.0009358341" flag="0"/>
    </comp>
    <comp name="00.HNZ">
      <acc value="0.0794819655" flag="0"/>
      <vel value="0.0147860208" flag="0"/>
      <psa03 value="0.0697218738" flag="0"/>
      <psa10 value="0.0054483260" flag="0"/>
      <psa30 value="0.0005725029" flag="0"/>
    </comp>
    <comp name="00.HNN">
      <acc value="0.0881001582" flag="0"/>
      <vel value="0.0241530287" flag="0"/>
      <psa03 value="0.0777381981" flag="0"/>
      <psa10 value="0.0120237662" flag="0"/>
      <psa30 value="0.0011363617" flag="0"/>
    </comp>
  </station>
</stationlist>
