<?xml version="1.0" encoding="UTF-8" standalone="yes"?>
<!DOCTYPE earthquake SYSTEM "stationlist.dtd">
<stationlist created="" xmlns="ch.ethz.sed.shakemap.usgs.xml">
  <station code="TASB" name="TASB" netid="KO" insttype="120s," lat="39.9839" lon="44.2384">
    <comp name="--.HHN">
      <acc value="0.0272168605" flag="0"/>
      <vel value="0.0294514815" flag="0"/>
      <psa03 value="0.0581723014" flag="0"/>
      <psa10 value="0.0369631038" flag="0"/>
      <psa30 value="0.0120500619" flag="0"/>
    </comp>
    <comp name="--.HHZ">
      <acc value="0.0161646964" flag="0"/>
      <vel value="0.0175758345" flag="0"/>
      <psa03 value="0.0292934772" flag="0"/>
      <psa10 value="0.0211485100" flag="0"/>
      <psa30 value="0.0127134105" flag="0"/>
    </comp>
    <comp name="--.HHE">
      <acc value="0.0282431476" flag="0"/>
      <vel value="0.0448515029" flag="0"/>
      <psa03 value="0.0438026518" flag="0"/>
      <psa10 value="0.0667589583" flag="0"/>
      <psa30 value="0.0154623789" flag="0"/>
    </comp>
  </station>
  <station code="VANB" name="VANB" netid="KO" insttype="360s," lat="38.509" lon="43.4058">
    <comp name="--.HHE">
      <acc value="0.1475331191" flag="0"/>
      <vel value="0.2593318332" flag="0"/>
      <psa03 value="0.3915788398" flag="0"/>
      <psa10 value="0.2518118459" flag="0"/>
      <psa30 value="0.1121672402" flag="0"/>
    </comp>
    <comp name="--.HHZ">
      <acc value="0.1125331231" flag="0"/>
      <vel value="0.2025075864" flag="0"/>
      <psa03 value="0.2414089774" flag="0"/>
      <psa10 value="0.2366103144" flag="0"/>
      <psa30 value="0.0761048946" flag="0"/>
    </comp>
    <comp name="--.HHN">
      <acc value="0.1384041751" flag="0"/>
      <vel value="0.2623957708" flag="0"/>
      <psa03 value="0.3125763615" flag="0"/>
      <psa10 value="0.4018043776" flag="0"/>
      <psa30 value="0.0925896462" flag="0"/>
    </comp>
  </station>
</stationlist>
