<stationlist created="1778136349">
	<station code="MALA" name="MALA" netid="CL" source="Corinth Riff Laboratory (CRLNET)" insttype="" lat="38.39341" lon="21.87263">
		<comp name="01.HNE" depth="0.0">
			<acc value="0.0155545063434751" flag="0"/>
			<vel value="0.0213481420857465" flag="0"/>
			<psa03 value="0.0249661512929956" flag="0"/>
			<psa10 value="0.0229366448007908" flag="0"/>
			<psa30 value="0.00341383036497413" flag="0"/>
		</comp>
		<comp name="01.HNN" depth="0.0">
			<acc value="0.0139239976424487" flag="0"/>
			<vel value="0.0149450657887333" flag="0"/>
			<psa03 value="0.0201787351848406" flag="0"/>
			<psa10 value="0.0221312850816619" flag="0"/>
			<psa30 value="0.00374000105122134" flag="0"/>
		</comp>
		<comp name="01.HNZ" depth="0.0">
			<acc value="0.00880345583691248" flag="0"/>
			<vel value="0.00795499363434881" flag="0"/>
			<psa03 value="0.00975380104278324" flag="0"/>
			<psa10 value="0.00866969737642252" flag="0"/>
			<psa30 value="0.00217849804024365" flag="0"/>
		</comp>
	</station>
	<station code="ROD3" name="ROD3" netid="CL" source="Corinth Riff Laboratory (CRLNET)" insttype="" lat="38.30811" lon="21.89204">
		<comp name="00.HNE" depth="0.0">
			<acc value="0.00746197676189218" flag="0"/>
			<vel value="0.00415174401321835" flag="0"/>
			<psa03 value="0.0248766668797591" flag="0"/>
			<psa10 value="0.00610865346959264" flag="0"/>
			<psa30 value="0.00107649749123562" flag="0"/>
		</comp>
		<comp name="00.HNN" depth="0.0">
			<acc value="0.0110930058125172" flag="0"/>
			<vel value="0.00639694604748106" flag="0"/>
			<psa03 value="0.0321249043519191" flag="0"/>
			<psa10 value="0.0071193799170994" flag="0"/>
			<psa30 value="0.00106754904991196" flag="0"/>
		</comp>
		<comp name="00.HNZ" depth="0.0">
			<acc value="0.00503626703461338" flag="0"/>
			<vel value="0.0025011858584218" flag="0"/>
			<psa03 value="0.0096643166295467" flag="0"/>
			<psa10 value="0.00323754607089814" flag="0"/>
			<psa30 value="0.000574937355044792" flag="0"/>
		</comp>
	</station>
	<station code="STC" name="STC" netid="EG" source="EUROSEISTEST Strong Motion Network" insttype="" lat="40.64865" lon="23.304856">
		<comp name="--.EN1" depth="0.0">
			<acc value="0.0152339730669817" flag="0"/>
			<vel value="0.00923162753775839" flag="0"/>
			<psa03 value="0.0590495836199974" flag="0"/>
			<psa10 value="0.0136929239640208" flag="0"/>
			<psa30 value="0.000748565265857929" flag="0"/>
		</comp>
		<comp name="--.EN2" depth="0.0">
			<acc value="0.0144029420048854" flag="0"/>
			<vel value="0.00947524514917893" flag="0"/>
			<psa03 value="0.0441099585266137" flag="0"/>
			<psa10 value="0.00888785908954135" flag="0"/>
			<psa30 value="0.00148155866682441" flag="0"/>
		</comp>
		<comp name="--.EN3" depth="0.0">
			<acc value="0.00708335091302123" flag="0"/>
			<vel value="0.00402969966426975" flag="0"/>
			<psa03 value="0.0246061092006519" flag="0"/>
			<psa10 value="0.0080953087744749" flag="0"/>
			<psa30 value="0.00052309673592443" flag="0"/>
		</comp>
	</station>
	<station code="TST" name="TST" netid="EG" source="EUROSEISTEST Strong Motion Network" insttype="" lat="40.6638" lon="23.2906">
		<comp name="00.EN1" depth="0.0">
			<acc value="0.00735927978814636" flag="0"/>
			<vel value="0.00739734914264428" flag="0"/>
			<psa03 value="0.023186736528337" flag="0"/>
			<psa10 value="0.0106885474388228" flag="0"/>
			<psa30 value="0.00096765597745733" flag="0"/>
		</comp>
		<comp name="00.EN2" depth="0.0">
			<acc value="0.00437835239403897" flag="0"/>
			<vel value="0.00414682465191838" flag="0"/>
			<psa03 value="0.0134119939475128" flag="0"/>
			<psa10 value="0.00627159296227245" flag="0"/>
			<psa30 value="0.0004447403993687" flag="0"/>
		</comp>
		<comp name="00.EN3" depth="0.0">
			<acc value="0.00959617590906702" flag="0"/>
			<vel value="0.00942057982486154" flag="0"/>
			<psa03 value="0.0319497154701917" flag="0"/>
			<psa10 value="0.0188809838975302" flag="0"/>
			<psa30 value="0.001379252514542" flag="0"/>
		</comp>
	</station>
	<station code="AIGS" name="AIGS" netid="HA" source="Hellenic Seismological Network, University of Athens, Seismological Laboratory (HA)" insttype="" lat="38.25001" lon="22.0878">
		<comp name="--.HNE" depth="0.0">
			<acc value="0.00542195533695067" flag="0"/>
			<vel value="0.00294009406828546" flag="0"/>
			<psa03 value="0.0148991548038845" flag="0"/>
			<psa10 value="0.00441739805942197" flag="0"/>
			<psa30 value="0.00223397837645031" flag="0"/>
		</comp>
		<comp name="--.HNN" depth="0.0">
			<acc value="0.0042960192399617" flag="0"/>
			<vel value="0.0042605034556355" flag="0"/>
			<psa03 value="0.0093511211832188" flag="0"/>
			<psa10 value="0.00580261677632366" flag="0"/>
			<psa30 value="0.00226440307695073" flag="0"/>
		</comp>
		<comp name="--.HNZ" depth="0.0">
			<acc value="0.0122443343975586" flag="0"/>
			<vel value="0.00336395203654404" flag="0"/>
			<psa03 value="0.00604019789346669" flag="0"/>
			<psa10 value="0.00415565615070508" flag="0"/>
			<psa30 value="0.00176463262902464" flag="0"/>
		</comp>
	</station>
	<station code="KIAS" name="KIAS" netid="HA" source="Hellenic Seismological Network, University of Athens, Seismological Laboratory (HA)" insttype="" lat="37.9875" lon="22.7543">
		<comp name="--.HNE" depth="0.0">
			<acc value="0.00405531714468256" flag="0"/>
			<vel value="0.00474090081457745" flag="0"/>
			<psa03 value="0.00782988615819756" flag="0"/>
			<psa10 value="0.00514222180663797" flag="0"/>
			<psa30 value="0.00229348551125261" flag="0"/>
		</comp>
		<comp name="--.HNN" depth="0.0">
			<acc value="0.00380993310267949" flag="0"/>
			<vel value="0.00498970478049778" flag="0"/>
			<psa03 value="0.0079193705714341" flag="0"/>
			<psa10 value="0.00560530364513709" flag="0"/>
			<psa30 value="0.00188275205449688" flag="0"/>
		</comp>
		<comp name="--.HNZ" depth="0.0">
			<acc value="0.00388517120675412" flag="0"/>
			<vel value="0.00265328330475767" flag="0"/>
			<psa03 value="0.00742720629863311" flag="0"/>
			<psa10 value="0.00326573366106765" flag="0"/>
			<psa30 value="0.00126396733696618" flag="0"/>
		</comp>
	</station>
	<station code="LTRS" name="LTRS" netid="HA" source="Hellenic Seismological Network, University of Athens, Seismological Laboratory (HA)" insttype="" lat="37.97528" lon="22.9765">
		<comp name="--.HNE" depth="0.0">
			<acc value="0.00494191939249009" flag="0"/>
			<vel value="0.00486452913596384" flag="0"/>
			<psa03 value="0.00774040174496101" flag="0"/>
			<psa10 value="0.00595160832436251" flag="0"/>
			<psa30 value="0.00121967255241409" flag="0"/>
		</comp>
		<comp name="--.HNN" depth="0.0">
			<acc value="0.00453520910921068" flag="0"/>
			<vel value="0.00374770278670747" flag="0"/>
			<psa03 value="0.00711401085230521" flag="0"/>
			<psa10 value="0.00451404122571744" flag="0"/>
			<psa30 value="0.001356583704666" flag="0"/>
		</comp>
		<comp name="--.HNZ" depth="0.0">
			<acc value="0.00761093377799209" flag="0"/>
			<vel value="0.0035081348984545" flag="0"/>
			<psa03 value="0.00451896286844545" flag="0"/>
			<psa10 value="0.00461471119060855" flag="0"/>
			<psa30 value="0.000886790535174146" flag="0"/>
		</comp>
	</station>
	<station code="XLKS" name="XLKS" netid="HA" source="Hellenic Seismological Network, University of Athens, Seismological Laboratory (HA)" insttype="" lat="38.0772" lon="22.6361">
		<comp name="--.HNE" depth="0.0">
			<acc value="0.0175195590500904" flag="0"/>
			<vel value="0.00921610640234405" flag="0"/>
			<psa03 value="0.0171810073414164" flag="0"/>
			<psa10 value="0.00787641805308056" flag="0"/>
			<psa30 value="0.00294672172787938" flag="0"/>
		</comp>
		<comp name="--.HNN" depth="0.0">
			<acc value="0.0083456987304247" flag="0"/>
			<vel value="0.00864350558150938" flag="0"/>
			<psa03 value="0.0131542087457719" flag="0"/>
			<psa10 value="0.00783615006712412" flag="0"/>
			<psa30 value="0.00342904271522435" flag="0"/>
		</comp>
		<comp name="--.HNZ" depth="0.0">
			<acc value="0.0148265379315783" flag="0"/>
			<vel value="0.00376363159830583" flag="0"/>
			<psa03 value="0.0115882315141324" flag="0"/>
			<psa10 value="0.00437713007346553" flag="0"/>
			<psa30 value="0.00121475090968608" flag="0"/>
		</comp>
	</station>
	<station code="ART2" name="ART2" netid="HI" source="ITSAK Strong Motion Network" insttype="" lat="39.1474" lon="20.9937">
		<comp name="--.HNE" depth="0.0">
			<acc value="0.00471873450868647" flag="0"/>
			<vel value="0.00374880748157508" flag="0"/>
			<psa03 value="0.011492775662915" flag="0"/>
			<psa10 value="0.00582556138359519" flag="0"/>
			<psa30 value="0.000828138297597277" flag="0"/>
		</comp>
		<comp name="--.HNN" depth="0.0">
			<acc value="0.00373286259930561" flag="0"/>
			<vel value="0.00369673702201643" flag="0"/>
			<psa03 value="0.00714091510789197" flag="0"/>
			<psa10 value="0.00581051585566906" flag="0"/>
			<psa30 value="0.000747085480330789" flag="0"/>
		</comp>
		<comp name="--.HNZ" depth="0.0">
			<acc value="0.00299211559559004" flag="0"/>
			<vel value="0.00245393940972376" flag="0"/>
			<psa03 value="0.00870380705324785" flag="0"/>
			<psa10 value="0.00365994292200627" flag="0"/>
			<psa30 value="0.000540575133366615" flag="0"/>
		</comp>
	</station>
	<station code="LMS2" name="LMS2" netid="HI" source="ITSAK Strong Motion Network" insttype="" lat="40.834985" lon="21.141815">
		<comp name="--.HNE" depth="0.0">
			<acc value="0.0185720595282436" flag="0"/>
			<vel value="0.00929684349100196" flag="0"/>
			<psa03 value="0.0640587071166419" flag="0"/>
			<psa10 value="0.00765394156732086" flag="0"/>
			<psa30 value="0.000841213122075802" flag="0"/>
		</comp>
		<comp name="--.HNN" depth="0.0">
			<acc value="0.0236555962932591" flag="0"/>
			<vel value="0.0148683505399244" flag="0"/>
			<psa03 value="0.0505330715265142" flag="0"/>
			<psa10 value="0.0172968508314766" flag="0"/>
			<psa30 value="0.0010825839033722" flag="0"/>
		</comp>
		<comp name="--.HNZ" depth="0.0">
			<acc value="0.00931914600083441" flag="0"/>
			<vel value="0.00707449010649653" flag="0"/>
			<psa03 value="0.0462333283561568" flag="0"/>
			<psa10 value="0.0109180748313666" flag="0"/>
			<psa30 value="0.000905258927292608" flag="0"/>
		</comp>
	</station>
	<station code="SKO1" name="SKO1" netid="HI" source="ITSAK Strong Motion Network" insttype="" lat="39.123383" lon="23.728705">
		<comp name="--.HNE" depth="0.0">
			<acc value="0.00312893135461176" flag="0"/>
			<vel value="0.00216246842074953" flag="0"/>
			<psa03 value="0.0108516225125585" flag="0"/>
			<psa10 value="0.00284312404613904" flag="0"/>
			<psa30 value="0.0002970172280171" flag="0"/>
		</comp>
		<comp name="--.HNN" depth="0.0">
			<acc value="0.00295902283684966" flag="0"/>
			<vel value="0.00236209379768508" flag="0"/>
			<psa03 value="0.00826640893716674" flag="0"/>
			<psa10 value="0.0021464950072604" flag="0"/>
			<psa30 value="0.000431568589301033" flag="0"/>
		</comp>
		<comp name="--.HNZ" depth="0.0">
			<acc value="0.0024418292402331" flag="0"/>
			<vel value="0.001628958235747" flag="0"/>
			<psa03 value="0.00803761513486279" flag="0"/>
			<psa10 value="0.00204953186517813" flag="0"/>
			<psa30 value="0.000233286365534935" flag="0"/>
		</comp>
	</station>
	<station code="VAS2" name="VAS2" netid="HI" source="ITSAK Strong Motion Network" insttype="" lat="38.630558" lon="20.608081">
		<comp name="--.HNE" depth="0.0">
			<acc value="0.0178114658446034" flag="0"/>
			<vel value="0.021708614366934" flag="0"/>
			<psa03 value="0.0337061521380059" flag="0"/>
			<psa10 value="0.0663213509640772" flag="0"/>
			<psa30 value="0.00250259307617529" flag="0"/>
		</comp>
		<comp name="--.HNN" depth="0.0">
			<acc value="0.0195160716825227" flag="0"/>
			<vel value="0.0290364909633262" flag="0"/>
			<psa03 value="0.0427992336766844" flag="0"/>
			<psa10 value="0.0592761380030936" flag="0"/>
			<psa30 value="0.00658086219981393" flag="0"/>
		</comp>
		<comp name="--.HNZ" depth="0.0">
			<acc value="0.0113600475096631" flag="0"/>
			<vel value="0.0114335815529552" flag="0"/>
			<psa03 value="0.0209758335564535" flag="0"/>
			<psa10 value="0.0287925454898348" flag="0"/>
			<psa30 value="0.00113872366402297" flag="0"/>
		</comp>
	</station>
	<station code="VOL2" name="VOL2" netid="HI" source="ITSAK Strong Motion Network" insttype="" lat="39.366" lon="22.9506">
		<comp name="--.HNE" depth="0.0">
			<acc value="0.0191825192664718" flag="0"/>
			<vel value="0.00931133243472156" flag="0"/>
			<psa03 value="0.0475814645384795" flag="0"/>
			<psa10 value="0.00837485698069152" flag="0"/>
			<psa30 value="0.00108440350307721" flag="0"/>
		</comp>
		<comp name="--.HNN" depth="0.0">
			<acc value="0.0227445352639044" flag="0"/>
			<vel value="0.0137976545087833" flag="0"/>
			<psa03 value="0.0661245835539874" flag="0"/>
			<psa10 value="0.0117350973925966" flag="0"/>
			<psa30 value="0.000722591097280409" flag="0"/>
		</comp>
		<comp name="--.HNZ" depth="0.0">
			<acc value="0.0180736105881821" flag="0"/>
			<vel value="0.00477847764760161" flag="0"/>
			<psa03 value="0.0251824364420101" flag="0"/>
			<psa10 value="0.00527127419605337" flag="0"/>
			<psa30 value="0.0010701091186445" flag="0"/>
		</comp>
	</station>
	<station code="ANX" name="ANX" netid="HP" source="University of Patras, Seismological Laboratory (PSLNET)" insttype="" lat="38.5933" lon="21.9209">
		<comp name="--.HNE" depth="0.0">
			<acc value="0.0101002109313328" flag="0"/>
			<vel value="0.00724827243309451" flag="0"/>
			<psa03 value="0.043758940481735" flag="0"/>
			<psa10 value="0.0121981565054954" flag="0"/>
			<psa30 value="0.00184618125878082" flag="0"/>
		</comp>
		<comp name="--.HNN" depth="0.0">
			<acc value="0.0148638404122273" flag="0"/>
			<vel value="0.0086102568443718" flag="0"/>
			<psa03 value="0.0741964255656934" flag="0"/>
			<psa10 value="0.0106095325169527" flag="0"/>
			<psa30 value="0.00209237215105174" flag="0"/>
		</comp>
		<comp name="--.HNZ" depth="0.0">
			<acc value="0.00586951208257568" flag="0"/>
			<vel value="0.00577844974894604" flag="0"/>
			<psa03 value="0.0184471139578653" flag="0"/>
			<psa10 value="0.0142934212440081" flag="0"/>
			<psa30 value="0.0014041987504435" flag="0"/>
		</comp>
	</station>
	<station code="LTK" name="LTK" netid="HP" source="University of Patras, Seismological Laboratory (PSLNET)" insttype="" lat="38.0228" lon="22.9673">
		<comp name="--.HNE" depth="0.0">
			<acc value="0.00108566992287358" flag="0"/>
			<vel value="0.00186875992319686" flag="0"/>
			<psa03 value="0.00286043167706161" flag="0"/>
			<psa10 value="0.00129182323320032" flag="0"/>
			<psa30 value="0.000629885216389162" flag="0"/>
		</comp>
		<comp name="--.HNN" depth="0.0">
			<acc value="0.00122294312806146" flag="0"/>
			<vel value="0.00179419544894724" flag="0"/>
			<psa03 value="0.0033622455187226" flag="0"/>
			<psa10 value="0.00157497800643725" flag="0"/>
			<psa30 value="0.000365024259190662" flag="0"/>
		</comp>
		<comp name="--.HNZ" depth="0.0">
			<acc value="0.000736317209722804" flag="0"/>
			<vel value="0.00151166451474544" flag="0"/>
			<psa03 value="0.00283522330139923" flag="0"/>
			<psa10 value="0.00111694282010688" flag="0"/>
			<psa30 value="0.000637171740751854" flag="0"/>
		</comp>
	</station>
	<station code="PDO" name="PDO" netid="HP" source="University of Patras, Seismological Laboratory (PSLNET)" insttype="" lat="38.5986" lon="21.1833">
		<comp name="--.HNE" depth="0.0">
			<acc value="0.00788927227112826" flag="0"/>
			<vel value="0.00851738692596532" flag="0"/>
			<psa03 value="0.0211490846167921" flag="0"/>
			<psa10 value="0.0126044734220206" flag="0"/>
			<psa30 value="0.00118992986867998" flag="0"/>
		</comp>
		<comp name="--.HNN" depth="0.0">
			<acc value="0.0093397455032336" flag="0"/>
			<vel value="0.00732918121713097" flag="0"/>
			<psa03 value="0.0300533085925289" flag="0"/>
			<psa10 value="0.00852899781676318" flag="0"/>
			<psa30 value="0.00081742493163906" flag="0"/>
		</comp>
		<comp name="--.HNZ" depth="0.0">
			<acc value="0.00388711335797649" flag="0"/>
			<vel value="0.00478448026478855" flag="0"/>
			<psa03 value="0.0111665209772017" flag="0"/>
			<psa10 value="0.00559049299896365" flag="0"/>
			<psa30 value="0.000573435174768086" flag="0"/>
		</comp>
	</station>
	<station code="PVO" name="PVO" netid="HP" source="University of Patras, Seismological Laboratory (PSLNET)" insttype="" lat="38.616" lon="21.525">
		<comp name="--.HNE" depth="0.0">
			<acc value="0.00446480193198028" flag="0"/>
			<vel value="0.00685134441433507" flag="0"/>
			<psa03 value="0.0108910802045805" flag="0"/>
			<psa10 value="0.0116947690960696" flag="0"/>
			<psa30 value="0.00112315096574081" flag="0"/>
		</comp>
		<comp name="--.HNN" depth="0.0">
			<acc value="0.0047122342795381" flag="0"/>
			<vel value="0.0055089201808899" flag="0"/>
			<psa03 value="0.0117913371078068" flag="0"/>
			<psa10 value="0.00829928666203053" flag="0"/>
			<psa30 value="0.00145503003443343" flag="0"/>
		</comp>
		<comp name="--.HNZ" depth="0.0">
			<acc value="0.00361458215720968" flag="0"/>
			<vel value="0.00480554116522047" flag="0"/>
			<psa03 value="0.00883807571350639" flag="0"/>
			<psa10 value="0.00713681793539809" flag="0"/>
			<psa30 value="0.0015204857247188" flag="0"/>
		</comp>
	</station>
	<station code="SERG" name="SERG" netid="HP" source="University of Patras, Seismological Laboratory (PSLNET)" insttype="" lat="38.4133" lon="22.0566">
		<comp name="--.HNE" depth="0.0">
			<acc value="0.00743156114633299" flag="0"/>
			<vel value="0.00552843717342739" flag="0"/>
			<psa03 value="0.0210616439284499" flag="0"/>
			<psa10 value="0.0109629643675881" flag="0"/>
			<psa30 value="0.00134849735216609" flag="0"/>
		</comp>
		<comp name="--.HNN" depth="0.0">
			<acc value="0.00799688864981092" flag="0"/>
			<vel value="0.00504019672447865" flag="0"/>
			<psa03 value="0.0295072906506927" flag="0"/>
			<psa10 value="0.00668811149204972" flag="0"/>
			<psa30 value="0.00204040850038432" flag="0"/>
		</comp>
		<comp name="--.HNZ" depth="0.0">
			<acc value="0.00407889798824834" flag="0"/>
			<vel value="0.00358351777870062" flag="0"/>
			<psa03 value="0.0119980187682058" flag="0"/>
			<psa10 value="0.00320228955784222" flag="0"/>
			<psa30 value="0.00102123192243499" flag="0"/>
		</comp>
	</station>
</stationlist>
