<?xml version="1.0" encoding="UTF-8" standalone="yes"?>
<!DOCTYPE earthquake SYSTEM "stationlist.dtd">
<stationlist created="" xmlns="ch.ethz.sed.shakemap.usgs.xml">
  <station code="EVR" name="EVR" netid="HL" insttype="DR24" lat="38.9166" lon="21.8105">
    <comp name="--.HHN">
      <acc value="0.0055509837" flag="0"/>
      <vel value="0.0026540600" flag="0"/>
      <psa03 value="0.0122040082" flag="0"/>
      <psa10 value="0.0040793708" flag="0"/>
      <psa30 value="0.0003341431" flag="0"/>
    </comp>
    <comp name="--.HHE">
      <acc value="0.0122059011" flag="0"/>
      <vel value="0.0105578020" flag="0"/>
      <psa03 value="0.0231886487" flag="0"/>
      <psa10 value="0.0148105008" flag="0"/>
      <psa30 value="0.0019756902" flag="0"/>
    </comp>
    <comp name="--.HHZ">
      <acc value="0.0121932651" flag="0"/>
      <vel value="0.0153618023" flag="0"/>
      <psa03 value="0.0285001512" flag="0"/>
      <psa10 value="0.0341130700" flag="0"/>
      <psa30 value="0.0019200935" flag="0"/>
    </comp>
  </station>
  <station code="JAN" name="JAN" netid="HL" insttype="CMG3EPSC60_DR24" lat="39.6562" lon="20.8487">
    <comp name="--.HHZ">
      <acc value="0.0056299985" flag="0"/>
      <vel value="0.0042537997" flag="0"/>
      <psa03 value="0.0148404562" flag="0"/>
      <psa10 value="0.0083980000" flag="0"/>
      <psa30 value="0.0010424298" flag="0"/>
    </comp>
    <comp name="--.HHE">
      <acc value="0.0129019243" flag="0"/>
      <vel value="0.0063381627" flag="0"/>
      <psa03 value="0.0306722898" flag="0"/>
      <psa10 value="0.0130797438" flag="0"/>
      <psa30 value="0.0010218917" flag="0"/>
    </comp>
    <comp name="--.HHN">
      <acc value="0.0105224142" flag="0"/>
      <vel value="0.0065893922" flag="0"/>
      <psa03 value="0.0224026992" flag="0"/>
      <psa10 value="0.0117068532" flag="0"/>
      <psa30 value="0.0012667085" flag="0"/>
    </comp>
  </station>
  <station code="KZN" name="KZN" netid="HL" insttype="120" lat="40.3033" lon="21.7821">
    <comp name="--.HHE">
      <acc value="0.2381721146" flag="0"/>
      <vel value="0.0958042710" flag="0"/>
      <psa03 value="0.5524675408" flag="0"/>
      <psa10 value="0.0329741419" flag="0"/>
      <psa30 value="0.0027525896" flag="0"/>
    </comp>
    <comp name="--.HHN">
      <acc value="0.1182580496" flag="0"/>
      <vel value="0.0619039448" flag="0"/>
      <psa03 value="0.5785696411" flag="0"/>
      <psa10 value="0.0173516335" flag="0"/>
      <psa30 value="0.0021188015" flag="0"/>
    </comp>
    <comp name="--.HHZ">
      <acc value="0.0627392176" flag="0"/>
      <vel value="0.0288067219" flag="0"/>
      <psa03 value="0.1918801429" flag="0"/>
      <psa10 value="0.0246691324" flag="0"/>
      <psa30 value="0.0030721128" flag="0"/>
    </comp>
  </station>
  <station code="NEO" name="NEO" netid="HL" insttype="120" lat="39.3057" lon="23.2219">
    <comp name="--.HHE">
      <acc value="0.0190452497" flag="0"/>
      <vel value="0.0091779312" flag="0"/>
      <psa03 value="0.0593169831" flag="0"/>
      <psa10 value="0.0056690057" flag="0"/>
      <psa30 value="0.0006455063" flag="0"/>
    </comp>
    <comp name="--.HHN">
      <acc value="0.0188851213" flag="0"/>
      <vel value="0.0085684284" flag="0"/>
      <psa03 value="0.0713007771" flag="0"/>
      <psa10 value="0.0055624352" flag="0"/>
      <psa30 value="0.0015997773" flag="0"/>
    </comp>
    <comp name="--.HHZ">
      <acc value="0.0099667049" flag="0"/>
      <vel value="0.0064881708" flag="0"/>
      <psa03 value="0.0274527095" flag="0"/>
      <psa10 value="0.0068821765" flag="0"/>
      <psa30 value="0.0011133250" flag="0"/>
    </comp>
  </station>
  <station code="PENT" name="PENT" netid="HL" insttype="30" lat="40.1959" lon="21.1384">
    <comp name="--.HHZ">
      <acc value="0.0163408795" flag="0"/>
      <vel value="0.0088854500" flag="0"/>
      <psa03 value="0.0515130695" flag="0"/>
      <psa10 value="0.0102246655" flag="0"/>
      <psa30 value="0.0011772388" flag="0"/>
    </comp>
    <comp name="--.HHN">
      <acc value="0.0007962226" flag="0"/>
      <vel value="0.0004976771" flag="0"/>
      <psa03 value="0.0031944495" flag="0"/>
      <psa10 value="0.0003405988" flag="0"/>
      <psa30 value="0.0001491720" flag="0"/>
    </comp>
    <comp name="--.HHE">
      <acc value="0.0177945823" flag="0"/>
      <vel value="0.0085027490" flag="0"/>
      <psa03 value="0.0336627259" flag="0"/>
      <psa10 value="0.0115675704" flag="0"/>
      <psa30 value="0.0006600014" flag="0"/>
    </comp>
  </station>
  <station code="TETR" name="TETR" netid="HL" insttype="60" lat="39.3445" lon="21.2747">
    <comp name="--.HHN">
      <acc value="0.0645502480" flag="0"/>
      <vel value="0.0292896644" flag="0"/>
      <psa03 value="0.1703379844" flag="0"/>
      <psa10 value="0.0321323919" flag="0"/>
      <psa30 value="0.0023599551" flag="0"/>
    </comp>
    <comp name="--.HHZ">
      <acc value="0.0276696192" flag="0"/>
      <vel value="0.0225107765" flag="0"/>
      <psa03 value="0.0891266416" flag="0"/>
      <psa10 value="0.0291067883" flag="0"/>
      <psa30 value="0.0018849577" flag="0"/>
    </comp>
    <comp name="--.HHE">
      <acc value="0.1124643966" flag="0"/>
      <vel value="0.0389358392" flag="0"/>
      <psa03 value="0.2731412173" flag="0"/>
      <psa10 value="0.0433793682" flag="0"/>
      <psa30 value="0.0026556993" flag="0"/>
    </comp>
  </station>
  <station code="THL" name="THL" netid="HL" insttype="120" lat="39.5647" lon="22.0144">
    <comp name="--.HHZ">
      <acc value="0.1053890340" flag="0"/>
      <vel value="0.0346754842" flag="0"/>
      <psa03 value="0.0683976416" flag="0"/>
      <psa10 value="0.0304273359" flag="0"/>
      <psa30 value="0.0041668476" flag="0"/>
    </comp>
    <comp name="--.HHN">
      <acc value="0.1406291017" flag="0"/>
      <vel value="0.0348984136" flag="0"/>
      <psa03 value="0.1128539892" flag="0"/>
      <psa10 value="0.0256908651" flag="0"/>
      <psa30 value="0.0050082497" flag="0"/>
    </comp>
    <comp name="--.HHE">
      <acc value="0.1046443806" flag="0"/>
      <vel value="0.0251875740" flag="0"/>
      <psa03 value="0.1166393461" flag="0"/>
      <psa10 value="0.0275104546" flag="0"/>
      <psa30 value="0.0033014912" flag="0"/>
    </comp>
  </station>
  <station code="AMPL" name="AMPL" netid="HP" insttype="Compact," lat="38.9224" lon="21.2135">
    <comp name="--.HHN">
      <acc value="0.0056512624" flag="0"/>
      <vel value="0.0041922891" flag="0"/>
      <psa03 value="0.0125022780" flag="0"/>
      <psa10 value="0.0078963686" flag="0"/>
      <psa30 value="0.0007230834" flag="0"/>
    </comp>
    <comp name="--.HHE">
      <acc value="0.0002507430" flag="0"/>
      <vel value="0.0000224879" flag="0"/>
      <psa03 value="0.0000592796" flag="0"/>
      <psa10 value="0.0000107645" flag="0"/>
      <psa30 value="0.0000041573" flag="0"/>
    </comp>
    <comp name="--.HHZ">
      <acc value="0.0041207281" flag="0"/>
      <vel value="0.0047289787" flag="0"/>
      <psa03 value="0.0077368341" flag="0"/>
      <psa10 value="0.0072541470" flag="0"/>
      <psa30 value="0.0007282547" flag="0"/>
    </comp>
  </station>
  <station code="PRMD" name="PRMD" netid="HP" insttype="120P," lat="39.5299" lon="21.0965">
    <comp name="--.HHN">
      <acc value="0.0339187581" flag="0"/>
      <vel value="0.0316822224" flag="0"/>
      <psa03 value="0.0806212419" flag="0"/>
      <psa10 value="0.0659448572" flag="0"/>
      <psa30 value="0.0032317192" flag="0"/>
    </comp>
    <comp name="--.HHZ">
      <acc value="0.0324368998" flag="0"/>
      <vel value="0.0250824965" flag="0"/>
      <psa03 value="0.0729203605" flag="0"/>
      <psa10 value="0.0296709259" flag="0"/>
      <psa30 value="0.0033737047" flag="0"/>
    </comp>
    <comp name="--.HHE">
      <acc value="0.0348302344" flag="0"/>
      <vel value="0.0309730545" flag="0"/>
      <psa03 value="0.0934570814" flag="0"/>
      <psa10 value="0.0400854825" flag="0"/>
      <psa30 value="0.0024176940" flag="0"/>
    </comp>
  </station>
  <station code="AGG" name="AGG" netid="HT" insttype="120P," lat="39.0211" lon="22.336">
    <comp name="--.HHN">
      <acc value="0.0171943841" flag="0"/>
      <vel value="0.0081524317" flag="0"/>
      <psa03 value="0.0620526098" flag="0"/>
      <psa10 value="0.0091997843" flag="0"/>
      <psa30 value="0.0020540479" flag="0"/>
    </comp>
    <comp name="--.HHZ">
      <acc value="0.0097343254" flag="0"/>
      <vel value="0.0074786025" flag="0"/>
      <psa03 value="0.0257820377" flag="0"/>
      <psa10 value="0.0082461770" flag="0"/>
      <psa30 value="0.0014243828" flag="0"/>
    </comp>
    <comp name="--.HHE">
      <acc value="0.0161409419" flag="0"/>
      <vel value="0.0127012627" flag="0"/>
      <psa03 value="0.0549984419" flag="0"/>
      <psa10 value="0.0128334447" flag="0"/>
      <psa30 value="0.0027349819" flag="0"/>
    </comp>
  </station>
  <station code="KPRO" name="KPRO" netid="HT" insttype="100" lat="39.9549" lon="21.3632">
    <comp name="--.HHE">
      <acc value="0.0623105926" flag="0"/>
      <vel value="0.0286962818" flag="0"/>
      <psa03 value="0.1845843967" flag="0"/>
      <psa10 value="0.0340719684" flag="0"/>
      <psa30 value="0.0034296232" flag="0"/>
    </comp>
    <comp name="--.HHN">
      <acc value="0.0457395392" flag="0"/>
      <vel value="0.0222628579" flag="0"/>
      <psa03 value="0.1083595119" flag="0"/>
      <psa10 value="0.0364584762" flag="0"/>
      <psa30 value="0.0020399729" flag="0"/>
    </comp>
    <comp name="--.HHZ">
      <acc value="0.0256319960" flag="0"/>
      <vel value="0.0141062244" flag="0"/>
      <psa03 value="0.1008554104" flag="0"/>
      <psa10 value="0.0144114459" flag="0"/>
      <psa30 value="0.0016819482" flag="0"/>
    </comp>
  </station>
  <station code="LIT" name="LIT" netid="HT" insttype="100" lat="40.1033" lon="22.4892">
    <comp name="--.HHZ">
      <acc value="0.0739045376" flag="0"/>
      <vel value="0.0269518738" flag="0"/>
      <psa03 value="0.2172134822" flag="0"/>
      <psa10 value="0.0136656545" flag="0"/>
      <psa30 value="0.0024511199" flag="0"/>
    </comp>
    <comp name="--.HHE">
      <acc value="0.1220484011" flag="0"/>
      <vel value="0.0524324801" flag="0"/>
      <psa03 value="0.3075822363" flag="0"/>
      <psa10 value="0.0187071461" flag="0"/>
      <psa30 value="0.0028086604" flag="0"/>
    </comp>
    <comp name="--.HHN">
      <acc value="0.1417280274" flag="0"/>
      <vel value="0.0498509959" flag="0"/>
      <psa03 value="0.2993705858" flag="0"/>
      <psa10 value="0.0153422780" flag="0"/>
      <psa30 value="0.0027609406" flag="0"/>
    </comp>
  </station>
  <station code="THE" name="THE" netid="HT" insttype="30s-100Hz," lat="40.6319" lon="22.9628">
    <comp name="--.HHN">
      <acc value="0.0031782349" flag="0"/>
      <vel value="0.0034488396" flag="0"/>
      <psa03 value="0.0069158215" flag="0"/>
      <psa10 value="0.0048877838" flag="0"/>
      <psa30 value="0.0008397353" flag="0"/>
    </comp>
    <comp name="--.HHE">
      <acc value="0.0036319220" flag="0"/>
      <vel value="0.0025354571" flag="0"/>
      <psa03 value="0.0087320949" flag="0"/>
      <psa10 value="0.0048642258" flag="0"/>
      <psa30 value="0.0005148802" flag="0"/>
    </comp>
    <comp name="--.HHZ">
      <acc value="0.0023517656" flag="0"/>
      <vel value="0.0019146524" flag="0"/>
      <psa03 value="0.0064218682" flag="0"/>
      <psa10 value="0.0035352552" flag="0"/>
      <psa30 value="0.0004179516" flag="0"/>
    </comp>
  </station>
  <station code="TYRN" name="TYRN" netid="HT" insttype="120P," lat="39.711" lon="22.2325">
    <comp name="--.HHN">
      <acc value="0.0926914280" flag="0"/>
      <vel value="0.0556109109" flag="0"/>
      <psa03 value="0.1462514994" flag="0"/>
      <psa10 value="0.0367623058" flag="0"/>
      <psa30 value="0.0032300069" flag="0"/>
    </comp>
    <comp name="--.HHE">
      <acc value="0.1482081167" flag="0"/>
      <vel value="0.0643828976" flag="0"/>
      <psa03 value="0.3005516201" flag="0"/>
      <psa10 value="0.0456960688" flag="0"/>
      <psa30 value="0.0054969827" flag="0"/>
    </comp>
    <comp name="--.HHZ">
      <acc value="0.1105832845" flag="0"/>
      <vel value="0.0495951018" flag="0"/>
      <psa03 value="0.4224434740" flag="0"/>
      <psa10 value="0.0268543207" flag="0"/>
      <psa30 value="0.0037450198" flag="0"/>
    </comp>
  </station>
  <station code="XOR" name="XOR" netid="HT" insttype="Compact," lat="39.366" lon="23.1918">
    <comp name="--.HHN">
      <acc value="0.0326154860" flag="0"/>
      <vel value="0.0175160565" flag="0"/>
      <psa03 value="0.0627264025" flag="0"/>
      <psa10 value="0.0240531973" flag="0"/>
      <psa30 value="0.0013921829" flag="0"/>
    </comp>
    <comp name="--.HHZ">
      <acc value="0.0142771051" flag="0"/>
      <vel value="0.0127283744" flag="0"/>
      <psa03 value="0.0458469070" flag="0"/>
      <psa10 value="0.0105588470" flag="0"/>
      <psa30 value="0.0023167036" flag="0"/>
    </comp>
    <comp name="--.HHE">
      <acc value="0.0181669767" flag="0"/>
      <vel value="0.0118444051" flag="0"/>
      <psa03 value="0.0424338655" flag="0"/>
      <psa10 value="0.0096573998" flag="0"/>
      <psa30 value="0.0029205856" flag="0"/>
    </comp>
  </station>
  <station code="THL" name="THL" netid="MN" insttype="" lat="39.5647" lon="22.0144">
    <comp name="--.HHE">
      <acc value="0.1046443806" flag="0"/>
      <vel value="0.0251875740" flag="0"/>
      <psa03 value="0.1166393461" flag="0"/>
      <psa10 value="0.0275104546" flag="0"/>
      <psa30 value="0.0033014912" flag="0"/>
    </comp>
    <comp name="--.HHN">
      <acc value="0.1406291017" flag="0"/>
      <vel value="0.0348984136" flag="0"/>
      <psa03 value="0.1128539892" flag="0"/>
      <psa10 value="0.0256908651" flag="0"/>
      <psa30 value="0.0050082497" flag="0"/>
    </comp>
    <comp name="--.HHZ">
      <acc value="0.1053890340" flag="0"/>
      <vel value="0.0346754842" flag="0"/>
      <psa03 value="0.0683976416" flag="0"/>
      <psa10 value="0.0304273359" flag="0"/>
      <psa30 value="0.0041668476" flag="0"/>
    </comp>
  </station>
</stationlist>
