<?xml version="1.0" encoding="UTF-8" standalone="yes"?>
<!DOCTYPE earthquake SYSTEM "stationlist.dtd">
<stationlist created="" xmlns="ch.ethz.sed.shakemap.usgs.xml">
  <station code="PSAM" name="PSAM" netid="CL" insttype="CMG40-T" lat="38.3218" lon="22.1842">
    <comp name="00.HHN">
      <acc value="0.0069962568" flag="0"/>
      <vel value="0.0075906291" flag="0"/>
      <psa03 value="0.0111533487" flag="0"/>
      <psa10 value="0.0112079744" flag="0"/>
      <psa30 value="0.0010851155" flag="0"/>
    </comp>
    <comp name="00.HHE">
      <acc value="0.0078298229" flag="0"/>
      <vel value="0.0110257532" flag="0"/>
      <psa03 value="0.0129696500" flag="0"/>
      <psa10 value="0.0158697042" flag="0"/>
      <psa30 value="0.0013311138" flag="0"/>
    </comp>
    <comp name="00.HHZ">
      <acc value="0.0039838793" flag="0"/>
      <vel value="0.0050771661" flag="0"/>
      <psa03 value="0.0073405543" flag="0"/>
      <psa10 value="0.0084407893" flag="0"/>
      <psa30 value="0.0007179229" flag="0"/>
    </comp>
  </station>
  <station code="AMPE" name="AMPE" netid="HA" insttype="1s-100Hz," lat="38.3015" lon="23.2688">
    <comp name="--.HHE">
      <acc value="0.0918160121" flag="0"/>
      <vel value="0.0605637282" flag="0"/>
      <psa03 value="0.2263013301" flag="0"/>
      <psa10 value="0.0340618809" flag="0"/>
      <psa30 value="0.0026872466" flag="0"/>
    </comp>
    <comp name="--.HHN">
      <acc value="0.0509312242" flag="0"/>
      <vel value="0.0457650511" flag="0"/>
      <psa03 value="0.0951423080" flag="0"/>
      <psa10 value="0.0364009576" flag="0"/>
      <psa30 value="0.0023575815" flag="0"/>
    </comp>
    <comp name="--.HHZ">
      <acc value="0.0381689419" flag="0"/>
      <vel value="0.0174301128" flag="0"/>
      <psa03 value="0.1393926109" flag="0"/>
      <psa10 value="0.0188932967" flag="0"/>
      <psa30 value="0.0011916840" flag="0"/>
    </comp>
  </station>
  <station code="ANTK" name="ANTK" netid="HA" insttype="25" lat="38.3605" lon="22.6385">
    <comp name="--.HHZ">
      <acc value="0.0050769759" flag="0"/>
      <vel value="0.0045876761" flag="0"/>
      <psa03 value="0.0092163637" flag="0"/>
      <psa10 value="0.0048680371" flag="0"/>
      <psa30 value="0.0004009925" flag="0"/>
    </comp>
    <comp name="--.HHE">
      <acc value="0.0065699270" flag="0"/>
      <vel value="0.0049832113" flag="0"/>
      <psa03 value="0.0097387862" flag="0"/>
      <psa10 value="0.0090620291" flag="0"/>
      <psa30 value="0.0008849143" flag="0"/>
    </comp>
    <comp name="--.HHN">
      <acc value="0.0003652585" flag="0"/>
      <vel value="0.0001375289" flag="0"/>
      <psa03 value="0.0004071951" flag="0"/>
      <psa10 value="0.0002297673" flag="0"/>
      <psa30 value="0.0000127097" flag="0"/>
    </comp>
  </station>
  <station code="ATAL" name="ATAL" netid="HA" insttype="120s," lat="38.6926" lon="23.0213">
    <comp name="--.HHN">
      <acc value="0.1189399960" flag="0"/>
      <vel value="0.0276829039" flag="0"/>
      <psa03 value="0.0954676934" flag="0"/>
      <psa10 value="0.0246679409" flag="0"/>
      <psa30 value="0.0018756238" flag="0"/>
    </comp>
    <comp name="--.HHE">
      <acc value="0.0878599545" flag="0"/>
      <vel value="0.0221213123" flag="0"/>
      <psa03 value="0.0691505740" flag="0"/>
      <psa10 value="0.0234560184" flag="0"/>
      <psa30 value="0.0021135307" flag="0"/>
    </comp>
    <comp name="--.HHZ">
      <acc value="0.0925037113" flag="0"/>
      <vel value="0.0184498242" flag="0"/>
      <psa03 value="0.0608696919" flag="0"/>
      <psa10 value="0.0105175427" flag="0"/>
      <psa30 value="0.0013919336" flag="0"/>
    </comp>
  </station>
  <station code="ATHU" name="ATHU" netid="HA" insttype="60s," lat="37.9665" lon="23.7845">
    <comp name="--.HHE">
      <acc value="0.0157312314" flag="0"/>
      <vel value="0.0083650908" flag="0"/>
      <psa03 value="0.0399757559" flag="0"/>
      <psa10 value="0.0067460169" flag="0"/>
      <psa30 value="0.0007427705" flag="0"/>
    </comp>
    <comp name="--.HHZ">
      <acc value="0.0156250142" flag="0"/>
      <vel value="0.0055140706" flag="0"/>
      <psa03 value="0.0279343601" flag="0"/>
      <psa10 value="0.0049837981" flag="0"/>
      <psa30 value="0.0007365738" flag="0"/>
    </comp>
    <comp name="--.HHN">
      <acc value="0.0116284671" flag="0"/>
      <vel value="0.0060103114" flag="0"/>
      <psa03 value="0.0260574126" flag="0"/>
      <psa10 value="0.0047894796" flag="0"/>
      <psa30 value="0.0006543914" flag="0"/>
    </comp>
  </station>
  <station code="AXAR" name="AXAR" netid="HA" insttype="Horizon,120s,1200" lat="38.7664" lon="22.659">
    <comp name="--.HHN">
      <acc value="0.0666622330" flag="0"/>
      <vel value="0.0176346270" flag="0"/>
      <psa03 value="0.0895611548" flag="0"/>
      <psa10 value="0.0165528241" flag="0"/>
      <psa30 value="0.0018390561" flag="0"/>
    </comp>
    <comp name="--.HHZ">
      <acc value="0.0656246677" flag="0"/>
      <vel value="0.0147631720" flag="0"/>
      <psa03 value="0.0702335093" flag="0"/>
      <psa10 value="0.0129079328" flag="0"/>
      <psa30 value="0.0008426871" flag="0"/>
    </comp>
    <comp name="--.HHE">
      <acc value="0.0804308369" flag="0"/>
      <vel value="0.0187308836" flag="0"/>
      <psa03 value="0.0748823453" flag="0"/>
      <psa10 value="0.0248018875" flag="0"/>
      <psa30 value="0.0023962258" flag="0"/>
    </comp>
  </station>
  <station code="DOMV" name="DOMV" netid="HA" insttype="60" lat="38.2569" lon="22.9795">
    <comp name="--.HHE">
      <acc value="0.0960914944" flag="0"/>
      <vel value="0.0568606724" flag="0"/>
      <psa03 value="0.2534914459" flag="0"/>
      <psa10 value="0.0351912204" flag="0"/>
      <psa30 value="0.0024464609" flag="0"/>
    </comp>
    <comp name="--.HHN">
      <acc value="0.0859565863" flag="0"/>
      <vel value="0.0319219267" flag="0"/>
      <psa03 value="0.1554455182" flag="0"/>
      <psa10 value="0.0176181604" flag="0"/>
      <psa30 value="0.0020817397" flag="0"/>
    </comp>
    <comp name="--.HHZ">
      <acc value="0.0511842483" flag="0"/>
      <vel value="0.0206840207" flag="0"/>
      <psa03 value="0.1031054238" flag="0"/>
      <psa10 value="0.0134761204" flag="0"/>
      <psa30 value="0.0008005975" flag="0"/>
    </comp>
  </station>
  <station code="ERTR" name="ERTR" netid="HA" insttype="Horizon,120s,1200" lat="38.4066" lon="23.7865">
    <comp name="--.HHZ">
      <acc value="0.0382625330" flag="0"/>
      <vel value="0.0116296313" flag="0"/>
      <psa03 value="0.0565298218" flag="0"/>
      <psa10 value="0.0084493327" flag="0"/>
      <psa30 value="0.0012128071" flag="0"/>
    </comp>
    <comp name="--.HHN">
      <acc value="0.0552527537" flag="0"/>
      <vel value="0.0162144923" flag="0"/>
      <psa03 value="0.0603991287" flag="0"/>
      <psa10 value="0.0204742135" flag="0"/>
      <psa30 value="0.0018725413" flag="0"/>
    </comp>
    <comp name="--.HHE">
      <acc value="0.0722847490" flag="0"/>
      <vel value="0.0216351697" flag="0"/>
      <psa03 value="0.0780611209" flag="0"/>
      <psa10 value="0.0192284157" flag="0"/>
      <psa30 value="0.0011791615" flag="0"/>
    </comp>
  </station>
  <station code="KALE" name="KALE" netid="HA" insttype="40," lat="38.3911" lon="22.1398">
    <comp name="--.HHZ">
      <acc value="0.0053724412" flag="0"/>
      <vel value="0.0031234880" flag="0"/>
      <psa03 value="0.0076272091" flag="0"/>
      <psa10 value="0.0054068534" flag="0"/>
      <psa30 value="0.0003718994" flag="0"/>
    </comp>
    <comp name="--.HHN">
      <acc value="0.0108491381" flag="0"/>
      <vel value="0.0043289596" flag="0"/>
      <psa03 value="0.0136225151" flag="0"/>
      <psa10 value="0.0053490124" flag="0"/>
      <psa30 value="0.0004732736" flag="0"/>
    </comp>
    <comp name="--.HHE">
      <acc value="0.0082194204" flag="0"/>
      <vel value="0.0044356010" flag="0"/>
      <psa03 value="0.0156848971" flag="0"/>
      <psa10 value="0.0043750754" flag="0"/>
      <psa30 value="0.0006824314" flag="0"/>
    </comp>
  </station>
  <station code="LOUT" name="LOUT" netid="HA" insttype="30" lat="37.9879" lon="22.9743">
    <comp name="--.HHZ">
      <acc value="0.0204242544" flag="0"/>
      <vel value="0.0090635127" flag="0"/>
      <psa03 value="0.0436976833" flag="0"/>
      <psa10 value="0.0123364006" flag="0"/>
      <psa30 value="0.0007179158" flag="0"/>
    </comp>
    <comp name="--.HHN">
      <acc value="0.0449392458" flag="0"/>
      <vel value="0.0251422546" flag="0"/>
      <psa03 value="0.0894392180" flag="0"/>
      <psa10 value="0.0399107535" flag="0"/>
      <psa30 value="0.0021694379" flag="0"/>
    </comp>
    <comp name="--.HHE">
      <acc value="0.0397712811" flag="0"/>
      <vel value="0.0217672316" flag="0"/>
      <psa03 value="0.0756454568" flag="0"/>
      <psa10 value="0.0203548059" flag="0"/>
      <psa30 value="0.0013186315" flag="0"/>
    </comp>
  </station>
  <station code="MDRA" name="MDRA" netid="HA" insttype="60" lat="38.0606" lon="23.4662">
    <comp name="--.HHZ">
      <acc value="0.0281041184" flag="0"/>
      <vel value="0.0163211677" flag="0"/>
      <psa03 value="0.0751287111" flag="0"/>
      <psa10 value="0.0221510368" flag="0"/>
      <psa30 value="0.0019180608" flag="0"/>
    </comp>
    <comp name="--.HHE">
      <acc value="0.0246561998" flag="0"/>
      <vel value="0.0139176885" flag="0"/>
      <psa03 value="0.0439667330" flag="0"/>
      <psa10 value="0.0130608936" flag="0"/>
      <psa30 value="0.0010542982" flag="0"/>
    </comp>
    <comp name="--.HHN">
      <acc value="0.0380598539" flag="0"/>
      <vel value="0.0226583293" flag="0"/>
      <psa03 value="0.1017944535" flag="0"/>
      <psa10 value="0.0197352395" flag="0"/>
      <psa30 value="0.0014596185" flag="0"/>
    </comp>
  </station>
  <station code="MRKA" name="MRKA" netid="HA" insttype="Horizon,120s,1200" lat="38.7047" lon="23.5863">
    <comp name="--.HHN">
      <acc value="0.3166056454" flag="0"/>
      <vel value="0.0703430568" flag="0"/>
      <psa03 value="0.4376711392" flag="0"/>
      <psa10 value="0.0311610780" flag="0"/>
      <psa30 value="0.0029110281" flag="0"/>
    </comp>
    <comp name="--.HHZ">
      <acc value="0.2859322173" flag="0"/>
      <vel value="0.0591174730" flag="0"/>
      <psa03 value="0.2123263979" flag="0"/>
      <psa10 value="0.0163653934" flag="0"/>
      <psa30 value="0.0023397862" flag="0"/>
    </comp>
    <comp name="--.HHE">
      <acc value="0.6298854652" flag="0"/>
      <vel value="0.1165124749" flag="0"/>
      <psa03 value="0.5186878984" flag="0"/>
      <psa10 value="0.0290221377" flag="0"/>
      <psa30 value="0.0026953182" flag="0"/>
    </comp>
  </station>
  <station code="MRTH" name="MRTH" netid="HA" insttype="S100," lat="38.1225" lon="23.9409">
    <comp name="--.HHE">
      <acc value="0.0503099715" flag="0"/>
      <vel value="0.0247314251" flag="0"/>
      <psa03 value="0.1267687213" flag="0"/>
      <psa10 value="0.0336602077" flag="0"/>
      <psa30 value="0.0014878385" flag="0"/>
    </comp>
    <comp name="--.HHZ">
      <acc value="0.0537288072" flag="0"/>
      <vel value="0.0217872300" flag="0"/>
      <psa03 value="0.1175392584" flag="0"/>
      <psa10 value="0.0128968835" flag="0"/>
      <psa30 value="0.0009511617" flag="0"/>
    </comp>
    <comp name="--.HHN">
      <acc value="0.0502398963" flag="0"/>
      <vel value="0.0224936878" flag="0"/>
      <psa03 value="0.1348590739" flag="0"/>
      <psa10 value="0.0192588055" flag="0"/>
      <psa30 value="0.0009883500" flag="0"/>
    </comp>
  </station>
  <station code="PRDM" name="PRDM" netid="HA" insttype="25" lat="38.2804" lon="22.847">
    <comp name="--.HHE">
      <acc value="0.0179834433" flag="0"/>
      <vel value="0.0053636981" flag="0"/>
      <psa03 value="0.0361788409" flag="0"/>
      <psa10 value="0.0037092636" flag="0"/>
      <psa30 value="0.0003480300" flag="0"/>
    </comp>
    <comp name="--.HHN">
      <acc value="0.0204950413" flag="0"/>
      <vel value="0.0082954517" flag="0"/>
      <psa03 value="0.0364846908" flag="0"/>
      <psa10 value="0.0084995665" flag="0"/>
      <psa30 value="0.0008907069" flag="0"/>
    </comp>
    <comp name="--.HHZ">
      <acc value="0.0098334190" flag="0"/>
      <vel value="0.0046030325" flag="0"/>
      <psa03 value="0.0268101030" flag="0"/>
      <psa10 value="0.0045971968" flag="0"/>
      <psa30 value="0.0003360557" flag="0"/>
    </comp>
  </station>
  <station code="PSAH" name="PSAH" netid="HA" insttype="25" lat="38.5694" lon="23.6473">
    <comp name="--.HHZ">
      <acc value="0.0339451330" flag="0"/>
      <vel value="0.0069346315" flag="0"/>
      <psa03 value="0.0299395649" flag="0"/>
      <psa10 value="0.0101066141" flag="0"/>
      <psa30 value="0.0005810392" flag="0"/>
    </comp>
    <comp name="--.HHN">
      <acc value="0.0396771650" flag="0"/>
      <vel value="0.0149960853" flag="0"/>
      <psa03 value="0.0648492792" flag="0"/>
      <psa10 value="0.0122675923" flag="0"/>
      <psa30 value="0.0010336758" flag="0"/>
    </comp>
    <comp name="--.HHE">
      <acc value="0.0395963684" flag="0"/>
      <vel value="0.0179148494" flag="0"/>
      <psa03 value="0.0777450547" flag="0"/>
      <psa10 value="0.0145857297" flag="0"/>
      <psa30 value="0.0008703425" flag="0"/>
    </comp>
  </station>
  <station code="THAL" name="THAL" netid="HA" insttype="30" lat="38.0357" lon="22.6634">
    <comp name="--.HHE">
      <acc value="0.0364469597" flag="0"/>
      <vel value="0.0251065985" flag="0"/>
      <psa03 value="0.1138663557" flag="0"/>
      <psa10 value="0.0192825978" flag="0"/>
      <psa30 value="0.0021678635" flag="0"/>
    </comp>
    <comp name="--.HHN">
      <acc value="0.0289280673" flag="0"/>
      <vel value="0.0189971400" flag="0"/>
      <psa03 value="0.1213477179" flag="0"/>
      <psa10 value="0.0185230918" flag="0"/>
      <psa30 value="0.0020102785" flag="0"/>
    </comp>
    <comp name="--.HHZ">
      <acc value="0.0200812894" flag="0"/>
      <vel value="0.0117416078" flag="0"/>
      <psa03 value="0.0623463615" flag="0"/>
      <psa10 value="0.0115160012" flag="0"/>
      <psa30 value="0.0010253015" flag="0"/>
    </comp>
  </station>
  <station code="THIV" name="THIV" netid="HA" insttype="25" lat="38.299" lon="23.332">
    <comp name="--.HHE">
      <acc value="0.0451332290" flag="0"/>
      <vel value="0.0275485921" flag="0"/>
      <psa03 value="0.0790463558" flag="0"/>
      <psa10 value="0.0264854654" flag="0"/>
      <psa30 value="0.0020464065" flag="0"/>
    </comp>
    <comp name="--.HHN">
      <acc value="0.0476105530" flag="0"/>
      <vel value="0.0266972726" flag="0"/>
      <psa03 value="0.0922503149" flag="0"/>
      <psa10 value="0.0159614263" flag="0"/>
      <psa30 value="0.0013371420" flag="0"/>
    </comp>
    <comp name="--.HHZ">
      <acc value="0.0351969010" flag="0"/>
      <vel value="0.0160428436" flag="0"/>
      <psa03 value="0.0609695025" flag="0"/>
      <psa10 value="0.0088688481" flag="0"/>
      <psa30 value="0.0009744487" flag="0"/>
    </comp>
  </station>
  <station code="VILL" name="VILL" netid="HA" insttype="Horizon,120s,1200" lat="38.1642" lon="23.3122">
    <comp name="--.HHE">
      <acc value="0.0558078066" flag="0"/>
      <vel value="0.0369605988" flag="0"/>
      <psa03 value="0.1179584909" flag="0"/>
      <psa10 value="0.0346460149" flag="0"/>
      <psa30 value="0.0022078536" flag="0"/>
    </comp>
    <comp name="--.HHZ">
      <acc value="0.0272372818" flag="0"/>
      <vel value="0.0130654605" flag="0"/>
      <psa03 value="0.0860246977" flag="0"/>
      <psa10 value="0.0142863925" flag="0"/>
      <psa30 value="0.0012140695" flag="0"/>
    </comp>
    <comp name="--.HHN">
      <acc value="0.0700269579" flag="0"/>
      <vel value="0.0322298551" flag="0"/>
      <psa03 value="0.1653163581" flag="0"/>
      <psa10 value="0.0269430721" flag="0"/>
      <psa30 value="0.0015239444" flag="0"/>
    </comp>
  </station>
  <station code="ATH5" name="ATH5" netid="HI" insttype="CMG-5TD,ACCELEROMETER,GURALP" lat="37.9754" lon="23.7371">
    <comp name="--.HNE">
      <acc value="0.0269141609" flag="0"/>
      <vel value="0.0115606618" flag="0"/>
      <psa03 value="0.0845122055" flag="0"/>
      <psa10 value="0.0135170601" flag="0"/>
      <psa30 value="0.0006935392" flag="0"/>
    </comp>
    <comp name="--.HNN">
      <acc value="0.0302399354" flag="0"/>
      <vel value="0.0177700374" flag="0"/>
      <psa03 value="0.0664557828" flag="0"/>
      <psa10 value="0.0200796667" flag="0"/>
      <psa30 value="0.0013253498" flag="0"/>
    </comp>
    <comp name="--.HNZ">
      <acc value="0.0299543410" flag="0"/>
      <vel value="0.0137708266" flag="0"/>
      <psa03 value="0.0539524998" flag="0"/>
      <psa10 value="0.0090808109" flag="0"/>
      <psa30 value="0.0010702311" flag="0"/>
    </comp>
  </station>
  <station code="PLN1" name="PLN1" netid="HI" insttype="CMG-5TD,ACCELEROMETER,GURALP" lat="39.998" lon="23.575">
    <comp name="--.HNN">
      <acc value="0.0145448058" flag="0"/>
      <vel value="0.0176788469" flag="0"/>
      <psa03 value="0.0358877930" flag="0"/>
      <psa10 value="0.0300852572" flag="0"/>
      <psa30 value="0.0012845894" flag="0"/>
    </comp>
    <comp name="--.HNE">
      <acc value="0.0138720469" flag="0"/>
      <vel value="0.0131149475" flag="0"/>
      <psa03 value="0.0410250416" flag="0"/>
      <psa10 value="0.0275798893" flag="0"/>
      <psa30 value="0.0014122768" flag="0"/>
    </comp>
    <comp name="--.HNZ">
      <acc value="0.0131530112" flag="0"/>
      <vel value="0.0076451463" flag="0"/>
      <psa03 value="0.0257905704" flag="0"/>
      <psa10 value="0.0147409014" flag="0"/>
      <psa30 value="0.0007897148" flag="0"/>
    </comp>
  </station>
  <station code="SKY1" name="SKY1" netid="HI" insttype="CMG-5TD,ACCELEROMETER,GURALP" lat="38.9045" lon="24.5646">
    <comp name="--.HNN">
      <acc value="0.0248514426" flag="0"/>
      <vel value="0.0162563343" flag="0"/>
      <psa03 value="0.0682034874" flag="0"/>
      <psa10 value="0.0081910917" flag="0"/>
      <psa30 value="0.0006704520" flag="0"/>
    </comp>
    <comp name="--.HNE">
      <acc value="0.0320966024" flag="0"/>
      <vel value="0.0125814857" flag="0"/>
      <psa03 value="0.0862160486" flag="0"/>
      <psa10 value="0.0074750181" flag="0"/>
      <psa30 value="0.0005491808" flag="0"/>
    </comp>
    <comp name="--.HNZ">
      <acc value="0.0217582550" flag="0"/>
      <vel value="0.0123388960" flag="0"/>
      <psa03 value="0.0544400194" flag="0"/>
      <psa10 value="0.0071659591" flag="0"/>
      <psa30 value="0.0004562542" flag="0"/>
    </comp>
  </station>
  <station code="VOL2" name="VOL2" netid="HI" insttype="CMG-5TD,ACCELEROMETER,GURALP" lat="39.366" lon="22.9506">
    <comp name="--.HNN">
      <acc value="0.1694192814" flag="0"/>
      <vel value="0.0387030174" flag="0"/>
      <psa03 value="0.2008691387" flag="0"/>
      <psa10 value="0.0236221949" flag="0"/>
      <psa30 value="0.0018368118" flag="0"/>
    </comp>
    <comp name="--.HNZ">
      <acc value="0.2309594268" flag="0"/>
      <vel value="0.0392431511" flag="0"/>
      <psa03 value="0.1069621291" flag="0"/>
      <psa10 value="0.0070457876" flag="0"/>
      <psa30 value="0.0009517729" flag="0"/>
    </comp>
    <comp name="--.HNE">
      <acc value="0.1523190925" flag="0"/>
      <vel value="0.0477835149" flag="0"/>
      <psa03 value="0.2440686506" flag="0"/>
      <psa10 value="0.0156309667" flag="0"/>
      <psa30 value="0.0011139340" flag="0"/>
    </comp>
  </station>
  <station code="ALNA" name="ALNA" netid="HL" insttype="CMG-5" lat="39.148" lon="23.8667">
    <comp name="00.HNN">
      <acc value="0.0726059927" flag="0"/>
      <vel value="0.0342934828" flag="0"/>
      <psa03 value="0.1464364819" flag="0"/>
      <psa10 value="0.0297178551" flag="0"/>
      <psa30 value="0.0014266468" flag="0"/>
    </comp>
    <comp name="00.HNE">
