<?xml version="1.0" encoding="UTF-8" standalone="yes"?>
<!DOCTYPE earthquake SYSTEM "stationlist.dtd">
<stationlist created="" xmlns="ch.ethz.sed.shakemap.usgs.xml">
  <station code="PSAM" name="PSAM" netid="CL" insttype="CMG40-T" lat="38.3218" lon="22.1842">
    <comp name="00.HHZ">
      <acc value="0.0039838793" flag="0"/>
      <vel value="0.0050771661" flag="0"/>
      <psa03 value="0.0073405543" flag="0"/>
      <psa10 value="0.0084407893" flag="0"/>
      <psa30 value="0.0007179229" flag="0"/>
    </comp>
    <comp name="00.HHE">
      <acc value="0.0078298229" flag="0"/>
      <vel value="0.0110257532" flag="0"/>
      <psa03 value="0.0129696500" flag="0"/>
      <psa10 value="0.0158697042" flag="0"/>
      <psa30 value="0.0013311138" flag="0"/>
    </comp>
    <comp name="00.HHN">
      <acc value="0.0069962568" flag="0"/>
      <vel value="0.0075906291" flag="0"/>
      <psa03 value="0.0111533487" flag="0"/>
      <psa10 value="0.0112079744" flag="0"/>
      <psa30 value="0.0010851155" flag="0"/>
    </comp>
  </station>
</stationlist>
