<?xml version="1.0" encoding="UTF-8" standalone="yes"?>
<!DOCTYPE earthquake SYSTEM "stationlist.dtd">
<stationlist created="" xmlns="ch.ethz.sed.shakemap.usgs.xml">
  <station code="CEYT" name="CEYT" netid="KO" insttype="CMG-3ESP" lat="37.0105" lon="35.7478">
    <comp name="--.HHE">
      <acc value="0.0117293044" flag="0"/>
      <vel value="0.0075207755" flag="0"/>
      <psa03 value="0.0472148052" flag="0"/>
      <psa10 value="0.0084436657" flag="0"/>
      <psa30 value="0.0017406794" flag="0"/>
    </comp>
    <comp name="--.HHZ">
      <acc value="0.0048602751" flag="0"/>
      <vel value="0.0044546178" flag="0"/>
      <psa03 value="0.0166587205" flag="0"/>
      <psa10 value="0.0134591525" flag="0"/>
      <psa30 value="0.0013275226" flag="0"/>
    </comp>
    <comp name="--.HHN">
      <acc value="0.0079218767" flag="0"/>
      <vel value="0.0056929168" flag="0"/>
      <psa03 value="0.0257263383" flag="0"/>
      <psa10 value="0.0117511724" flag="0"/>
      <psa30 value="0.0011874408" flag="0"/>
    </comp>
  </station>
  <station code="DARE" name="DARE" netid="KO" insttype="CMG-3ESP" lat="38.5712" lon="37.4832">
    <comp name="--.HHZ">
      <acc value="0.0045845663" flag="0"/>
      <vel value="0.0038750746" flag="0"/>
      <psa03 value="0.0113058491" flag="0"/>
      <psa10 value="0.0048068490" flag="0"/>
      <psa30 value="0.0013684574" flag="0"/>
    </comp>
    <comp name="--.HHE">
      <acc value="0.0041920553" flag="0"/>
      <vel value="0.0031110837" flag="0"/>
      <psa03 value="0.0141392444" flag="0"/>
      <psa10 value="0.0068168736" flag="0"/>
      <psa30 value="0.0008168137" flag="0"/>
    </comp>
    <comp name="--.HHN">
      <acc value="0.0060982053" flag="0"/>
      <vel value="0.0044638538" flag="0"/>
      <psa03 value="0.0190356364" flag="0"/>
      <psa10 value="0.0068124992" flag="0"/>
      <psa30 value="0.0008725325" flag="0"/>
    </comp>
  </station>
  <station code="GAZ" name="GAZ" netid="KO" insttype="CMG-3T" lat="37.1721" lon="37.2096">
    <comp name="--.HHN">
      <acc value="0.0193177463" flag="0"/>
      <vel value="0.0125901037" flag="0"/>
      <psa03 value="0.0539943318" flag="0"/>
      <psa10 value="0.0189085346" flag="0"/>
      <psa30 value="0.0014856289" flag="0"/>
    </comp>
    <comp name="--.HHE">
      <acc value="0.0229582080" flag="0"/>
      <vel value="0.0132634596" flag="0"/>
      <psa03 value="0.0397894796" flag="0"/>
      <psa10 value="0.0104400198" flag="0"/>
      <psa30 value="0.0020093972" flag="0"/>
    </comp>
    <comp name="--.HHZ">
      <acc value="0.0157591326" flag="0"/>
      <vel value="0.0085969666" flag="0"/>
      <psa03 value="0.0398442196" flag="0"/>
      <psa10 value="0.0097218788" flag="0"/>
      <psa30 value="0.0032535198" flag="0"/>
    </comp>
  </station>
  <station code="KHMN" name="KHMN" netid="KO" insttype="CMG-5T" lat="37.3916" lon="37.1574">
    <comp name="--.HNE">
      <acc value="0.0488810013" flag="0"/>
      <vel value="0.0311196061" flag="0"/>
      <psa03 value="0.1554292958" flag="0"/>
      <psa10 value="0.0144633182" flag="0"/>
      <psa30 value="0.0036050305" flag="0"/>
    </comp>
    <comp name="--.HNN">
      <acc value="0.0589636296" flag="0"/>
      <vel value="0.0303517975" flag="0"/>
      <psa03 value="0.0983832800" flag="0"/>
      <psa10 value="0.0260455625" flag="0"/>
      <psa30 value="0.0033087386" flag="0"/>
    </comp>
    <comp name="--.HNZ">
      <acc value="0.0265569686" flag="0"/>
      <vel value="0.0149115787" flag="0"/>
      <psa03 value="0.0569277283" flag="0"/>
      <psa10 value="0.0084216576" flag="0"/>
      <psa30 value="0.0032943158" flag="0"/>
    </comp>
  </station>
  <station code="SARI" name="SARI" netid="KO" insttype="CMG-3T" lat="38.4072" lon="36.4181">
    <comp name="--.HHE">
      <acc value="0.0408831712" flag="0"/>
      <vel value="0.0406129665" flag="0"/>
      <psa03 value="0.1156075729" flag="0"/>
      <psa10 value="0.0495154162" flag="0"/>
      <psa30 value="0.0046678833" flag="0"/>
    </comp>
    <comp name="--.HHN">
      <acc value="0.0471792065" flag="0"/>
      <vel value="0.0319517598" flag="0"/>
      <psa03 value="0.1420521049" flag="0"/>
      <psa10 value="0.0307183154" flag="0"/>
      <psa30 value="0.0025741170" flag="0"/>
    </comp>
    <comp name="--.HHZ">
      <acc value="0.0501038970" flag="0"/>
      <vel value="0.0302032297" flag="0"/>
      <psa03 value="0.0945181564" flag="0"/>
      <psa10 value="0.0271796492" flag="0"/>
      <psa30 value="0.0056090601" flag="0"/>
    </comp>
  </station>
  <station code="ANDN" name="ANDN" netid="TU" insttype="T" lat="37.58" lon="36.3452">
    <comp name="--.HHN">
      <acc value="0.8120707940" flag="0"/>
      <vel value="0.3495660693" flag="0"/>
      <psa03 value="1.4563057365" flag="0"/>
      <psa10 value="0.2742053301" flag="0"/>
      <psa30 value="0.0195055331" flag="0"/>
    </comp>
    <comp name="--.HHE">
      <acc value="0.7108930248" flag="0"/>
      <vel value="0.3025456388" flag="0"/>
      <psa03 value="1.4251048480" flag="0"/>
      <psa10 value="0.3881911672" flag="0"/>
      <psa30 value="0.0192372222" flag="0"/>
    </comp>
    <comp name="--.HHZ">
      <acc value="0.2767760967" flag="0"/>
      <vel value="0.1760093865" flag="0"/>
      <psa03 value="0.5446608818" flag="0"/>
      <psa10 value="0.2519041612" flag="0"/>
      <psa30 value="0.0186085221" flag="0"/>
    </comp>
  </station>
</stationlist>
