<?xml version="1.0" encoding="UTF-8" standalone="yes"?>
<!DOCTYPE earthquake SYSTEM "stationlist.dtd">
<stationlist created="" xmlns="ch.ethz.sed.shakemap.usgs.xml">
  <station code="BNN" name="BNN" netid="KO" insttype="CMG-3T" lat="38.8521" lon="35.8472">
    <comp name="--.HHN">
      <acc value="0.0093012617" flag="0"/>
      <vel value="0.0105806002" flag="0"/>
      <psa03 value="0.0202926508" flag="0"/>
      <psa10 value="0.0180154190" flag="0"/>
      <psa30 value="0.0011669113" flag="0"/>
    </comp>
    <comp name="--.HHE">
      <acc value="0.0113267039" flag="0"/>
      <vel value="0.0103201013" flag="0"/>
      <psa03 value="0.0370156629" flag="0"/>
      <psa10 value="0.0190239859" flag="0"/>
      <psa30 value="0.0014937618" flag="0"/>
    </comp>
    <comp name="--.HHZ">
      <acc value="0.0063385585" flag="0"/>
      <vel value="0.0036460251" flag="0"/>
      <psa03 value="0.0151420285" flag="0"/>
      <psa10 value="0.0046682077" flag="0"/>
      <psa30 value="0.0004178719" flag="0"/>
    </comp>
  </station>
  <station code="CEYT" name="CEYT" netid="KO" insttype="CMG-3ESP" lat="37.0105" lon="35.7478">
    <comp name="--.HHE">
      <acc value="0.0117293041" flag="0"/>
      <vel value="0.0075207752" flag="0"/>
      <psa03 value="0.0472148052" flag="0"/>
      <psa10 value="0.0084436657" flag="0"/>
      <psa30 value="0.0017406770" flag="0"/>
    </comp>
    <comp name="--.HHN">
      <acc value="0.0079218773" flag="0"/>
      <vel value="0.0056929134" flag="0"/>
      <psa03 value="0.0257263383" flag="0"/>
      <psa10 value="0.0117511724" flag="0"/>
      <psa30 value="0.0011874501" flag="0"/>
    </comp>
    <comp name="--.HHZ">
      <acc value="0.0048602747" flag="0"/>
      <vel value="0.0044546236" flag="0"/>
      <psa03 value="0.0166587205" flag="0"/>
      <psa10 value="0.0134591525" flag="0"/>
      <psa30 value="0.0013275251" flag="0"/>
    </comp>
  </station>
  <station code="DARE" name="DARE" netid="KO" insttype="CMG-3ESP" lat="38.5712" lon="37.4832">
    <comp name="--.HHZ">
      <acc value="0.0045845660" flag="0"/>
      <vel value="0.0038750723" flag="0"/>
      <psa03 value="0.0113058491" flag="0"/>
      <psa10 value="0.0048068490" flag="0"/>
      <psa30 value="0.0013684569" flag="0"/>
    </comp>
    <comp name="--.HHN">
      <acc value="0.0060982051" flag="0"/>
      <vel value="0.0044638550" flag="0"/>
      <psa03 value="0.0190356364" flag="0"/>
      <psa10 value="0.0068124992" flag="0"/>
      <psa30 value="0.0008730154" flag="0"/>
    </comp>
    <comp name="--.HHE">
      <acc value="0.0041920552" flag="0"/>
      <vel value="0.0031110835" flag="0"/>
      <psa03 value="0.0141392444" flag="0"/>
      <psa10 value="0.0068168736" flag="0"/>
      <psa30 value="0.0008306375" flag="0"/>
    </comp>
  </station>
  <station code="GAZ" name="GAZ" netid="KO" insttype="CMG-3T" lat="37.1721" lon="37.2096">
    <comp name="--.HHN">
      <acc value="0.0193177457" flag="0"/>
      <vel value="0.0125901038" flag="0"/>
      <psa03 value="0.0539943318" flag="0"/>
      <psa10 value="0.0189085346" flag="0"/>
      <psa30 value="0.0014856285" flag="0"/>
    </comp>
    <comp name="--.HHE">
      <acc value="0.0229582090" flag="0"/>
      <vel value="0.0132634597" flag="0"/>
      <psa03 value="0.0397894796" flag="0"/>
      <psa10 value="0.0104400198" flag="0"/>
      <psa30 value="0.0020093975" flag="0"/>
    </comp>
    <comp name="--.HHZ">
      <acc value="0.0157591338" flag="0"/>
      <vel value="0.0085969665" flag="0"/>
      <psa03 value="0.0398442196" flag="0"/>
      <psa10 value="0.0097218788" flag="0"/>
      <psa30 value="0.0032535183" flag="0"/>
    </comp>
  </station>
  <station code="KHMN" name="KHMN" netid="KO" insttype="CMG-5T" lat="37.3916" lon="37.1574">
    <comp name="--.HNZ">
      <acc value="0.0265586146" flag="0"/>
      <vel value="0.0149115792" flag="0"/>
      <psa03 value="0.0569277283" flag="0"/>
      <psa10 value="0.0084216578" flag="0"/>
      <psa30 value="0.0032943707" flag="0"/>
    </comp>
    <comp name="--.HNE">
      <acc value="0.0488809026" flag="0"/>
      <vel value="0.0311196041" flag="0"/>
      <psa03 value="0.1554292958" flag="0"/>
      <psa10 value="0.0144633179" flag="0"/>
      <psa30 value="0.0036050461" flag="0"/>
    </comp>
    <comp name="--.HNN">
      <acc value="0.0589635720" flag="0"/>
      <vel value="0.0303517960" flag="0"/>
      <psa03 value="0.0983832800" flag="0"/>
      <psa10 value="0.0260455639" flag="0"/>
      <psa30 value="0.0033089186" flag="0"/>
    </comp>
  </station>
  <station code="KMRS" name="KMRS" netid="KO" insttype="CMG-3T" lat="37.5053" lon="36.9">
    <comp name="--.HHE">
      <acc value="0.0561422626" flag="0"/>
      <vel value="0.0462320548" flag="0"/>
      <psa03 value="0.1197044531" flag="0"/>
      <psa10 value="0.0577184265" flag="0"/>
      <psa30 value="0.0070560838" flag="0"/>
    </comp>
    <comp name="--.HHN">
      <acc value="0.0513414770" flag="0"/>
      <vel value="0.0323204208" flag="0"/>
      <psa03 value="0.1101017707" flag="0"/>
      <psa10 value="0.0294915990" flag="0"/>
      <psa30 value="0.0079351169" flag="0"/>
    </comp>
    <comp name="--.HHZ">
      <acc value="0.0231601294" flag="0"/>
      <vel value="0.0139890674" flag="0"/>
      <psa03 value="0.0629651058" flag="0"/>
      <psa10 value="0.0204326771" flag="0"/>
      <psa30 value="0.0024400813" flag="0"/>
    </comp>
  </station>
  <station code="SARI" name="SARI" netid="KO" insttype="CMG-3T" lat="38.4072" lon="36.4181">
    <comp name="--.HHE">
      <acc value="0.0408831715" flag="0"/>
      <vel value="0.0406129638" flag="0"/>
      <psa03 value="0.1156075729" flag="0"/>
      <psa10 value="0.0495154162" flag="0"/>
      <psa30 value="0.0046678411" flag="0"/>
    </comp>
    <comp name="--.HHN">
      <acc value="0.0471792063" flag="0"/>
      <vel value="0.0319517584" flag="0"/>
      <psa03 value="0.1420521049" flag="0"/>
      <psa10 value="0.0307183154" flag="0"/>
      <psa30 value="0.0025740596" flag="0"/>
    </comp>
    <comp name="--.HHZ">
      <acc value="0.0501038969" flag="0"/>
      <vel value="0.0302032295" flag="0"/>
      <psa03 value="0.0945181564" flag="0"/>
      <psa10 value="0.0271796491" flag="0"/>
      <psa30 value="0.0056090454" flag="0"/>
    </comp>
  </station>
  <station code="ANDN" name="ANDN" netid="TU" insttype="T" lat="37.58" lon="36.3452">
    <comp name="--.HHZ">
      <acc value="0.2767760963" flag="0"/>
      <vel value="0.1760093863" flag="0"/>
      <psa03 value="0.5446608818" flag="0"/>
      <psa10 value="0.2519041612" flag="0"/>
      <psa30 value="0.0186087020" flag="0"/>
    </comp>
    <comp name="--.HHE">
      <acc value="0.7108930243" flag="0"/>
      <vel value="0.3025456394" flag="0"/>
      <psa03 value="1.4251048480" flag="0"/>
      <psa10 value="0.3881911657" flag="0"/>
      <psa30 value="0.0192370560" flag="0"/>
    </comp>
    <comp name="--.HHN">
      <acc value="0.8120707946" flag="0"/>
      <vel value="0.3495660700" flag="0"/>
      <psa03 value="1.4563057365" flag="0"/>
      <psa10 value="0.2742053259" flag="0"/>
      <psa30 value="0.0195056413" flag="0"/>
    </comp>
  </station>
</stationlist>
