<?xml version="1.0" encoding="UTF-8" standalone="yes"?>
<!DOCTYPE earthquake SYSTEM "stationlist.dtd">
<stationlist created="" xmlns="ch.ethz.sed.shakemap.usgs.xml">
  <station code="BNN" name="BNN" netid="KO" insttype="CMG-3T" lat="38.8521" lon="35.8472">
    <comp name="--.HHE">
      <acc value="0.0113267039" flag="0"/>
      <vel value="0.0103201013" flag="0"/>
      <psa03 value="0.0370156629" flag="0"/>
      <psa10 value="0.0190239859" flag="0"/>
      <psa30 value="0.0014937605" flag="0"/>
    </comp>
    <comp name="--.HHZ">
      <acc value="0.0063385584" flag="0"/>
      <vel value="0.0036460251" flag="0"/>
      <psa03 value="0.0151420285" flag="0"/>
      <psa10 value="0.0046682077" flag="0"/>
      <psa30 value="0.0004178717" flag="0"/>
    </comp>
    <comp name="--.HHN">
      <acc value="0.0093012618" flag="0"/>
      <vel value="0.0105806003" flag="0"/>
      <psa03 value="0.0202926508" flag="0"/>
      <psa10 value="0.0180154190" flag="0"/>
      <psa30 value="0.0011669116" flag="0"/>
    </comp>
  </station>
  <station code="CEYT" name="CEYT" netid="KO" insttype="CMG-3ESP" lat="37.0105" lon="35.7478">
    <comp name="--.HHN">
      <acc value="0.0079218773" flag="0"/>
      <vel value="0.0056929177" flag="0"/>
      <psa03 value="0.0257263383" flag="0"/>
      <psa10 value="0.0117511724" flag="0"/>
      <psa30 value="0.0011874500" flag="0"/>
    </comp>
    <comp name="--.HHE">
      <acc value="0.0117293041" flag="0"/>
      <vel value="0.0075207780" flag="0"/>
      <psa03 value="0.0472148052" flag="0"/>
      <psa10 value="0.0084436657" flag="0"/>
      <psa30 value="0.0017406782" flag="0"/>
    </comp>
    <comp name="--.HHZ">
      <acc value="0.0048602746" flag="0"/>
      <vel value="0.0044546236" flag="0"/>
      <psa03 value="0.0166587205" flag="0"/>
      <psa10 value="0.0134591525" flag="0"/>
      <psa30 value="0.0013275248" flag="0"/>
    </comp>
  </station>
  <station code="DARE" name="DARE" netid="KO" insttype="CMG-3ESP" lat="38.5712" lon="37.4832">
    <comp name="--.HHE">
      <acc value="0.0041920552" flag="0"/>
      <vel value="0.0031110829" flag="0"/>
      <psa03 value="0.0141392444" flag="0"/>
      <psa10 value="0.0068168736" flag="0"/>
      <psa30 value="0.0008306375" flag="0"/>
    </comp>
    <comp name="--.HHN">
      <acc value="0.0060982051" flag="0"/>
      <vel value="0.0044638549" flag="0"/>
      <psa03 value="0.0190356364" flag="0"/>
      <psa10 value="0.0068124992" flag="0"/>
      <psa30 value="0.0008730154" flag="0"/>
    </comp>
    <comp name="--.HHZ">
      <acc value="0.0045845660" flag="0"/>
      <vel value="0.0038750721" flag="0"/>
      <psa03 value="0.0113058491" flag="0"/>
      <psa10 value="0.0048068490" flag="0"/>
      <psa30 value="0.0013684570" flag="0"/>
    </comp>
  </station>
  <station code="GAZ" name="GAZ" netid="KO" insttype="CMG-3T" lat="37.1721" lon="37.2096">
    <comp name="--.HHN">
      <acc value="0.0193177460" flag="0"/>
      <vel value="0.0125901037" flag="0"/>
      <psa03 value="0.0539943318" flag="0"/>
      <psa10 value="0.0189085346" flag="0"/>
      <psa30 value="0.0014856288" flag="0"/>
    </comp>
    <comp name="--.HHE">
      <acc value="0.0229582089" flag="0"/>
      <vel value="0.0132634593" flag="0"/>
      <psa03 value="0.0397894796" flag="0"/>
      <psa10 value="0.0104400198" flag="0"/>
      <psa30 value="0.0020093971" flag="0"/>
    </comp>
    <comp name="--.HHZ">
      <acc value="0.0157591337" flag="0"/>
      <vel value="0.0085969667" flag="0"/>
      <psa03 value="0.0398442196" flag="0"/>
      <psa10 value="0.0097218788" flag="0"/>
      <psa30 value="0.0032535206" flag="0"/>
    </comp>
  </station>
  <station code="KHMN" name="KHMN" netid="KO" insttype="CMG-5T" lat="37.3916" lon="37.1574">
    <comp name="--.HNE">
      <acc value="0.0488809030" flag="0"/>
      <vel value="0.0311196045" flag="0"/>
      <psa03 value="0.1554292958" flag="0"/>
      <psa10 value="0.0144633182" flag="0"/>
      <psa30 value="0.0036050305" flag="0"/>
    </comp>
    <comp name="--.HNN">
      <acc value="0.0589635737" flag="0"/>
      <vel value="0.0303517980" flag="0"/>
      <psa03 value="0.0983832800" flag="0"/>
      <psa10 value="0.0260455625" flag="0"/>
      <psa30 value="0.0033087386" flag="0"/>
    </comp>
    <comp name="--.HNZ">
      <acc value="0.0265586215" flag="0"/>
      <vel value="0.0149115787" flag="0"/>
      <psa03 value="0.0569277283" flag="0"/>
      <psa10 value="0.0084216576" flag="0"/>
      <psa30 value="0.0032943158" flag="0"/>
    </comp>
  </station>
  <station code="KMRS" name="KMRS" netid="KO" insttype="CMG-3T" lat="37.5053" lon="36.9">
    <comp name="--.HHZ">
      <acc value="0.0162646890" flag="0"/>
      <vel value="0.0124729351" flag="0"/>
      <psa03 value="0.0321799099" flag="0"/>
      <psa10 value="0.0179520658" flag="0"/>
      <psa30 value="0.0031714617" flag="0"/>
    </comp>
    <comp name="--.HHN">
      <acc value="0.0085952451" flag="0"/>
      <vel value="0.0092804633" flag="0"/>
      <psa03 value="0.0176440044" flag="0"/>
      <psa10 value="0.0110451962" flag="0"/>
      <psa30 value="0.0038347815" flag="0"/>
    </comp>
    <comp name="--.HHE">
      <acc value="0.0561452833" flag="0"/>
      <vel value="0.0462511807" flag="0"/>
      <psa03 value="0.1195977819" flag="0"/>
      <psa10 value="0.0573903802" flag="0"/>
      <psa30 value="0.0070469888" flag="0"/>
    </comp>
  </station>
  <station code="SARI" name="SARI" netid="KO" insttype="CMG-3T" lat="38.4072" lon="36.4181">
    <comp name="--.HHE">
      <acc value="0.0408831719" flag="0"/>
      <vel value="0.0406129656" flag="0"/>
      <psa03 value="0.1156075729" flag="0"/>
      <psa10 value="0.0495154162" flag="0"/>
      <psa30 value="0.0046678321" flag="0"/>
    </comp>
    <comp name="--.HHZ">
      <acc value="0.0501038968" flag="0"/>
      <vel value="0.0302032293" flag="0"/>
      <psa03 value="0.0945181564" flag="0"/>
      <psa10 value="0.0271796491" flag="0"/>
      <psa30 value="0.0056090495" flag="0"/>
    </comp>
    <comp name="--.HHN">
      <acc value="0.0471792063" flag="0"/>
      <vel value="0.0319517584" flag="0"/>
      <psa03 value="0.1420521049" flag="0"/>
      <psa10 value="0.0307183154" flag="0"/>
      <psa30 value="0.0025740637" flag="0"/>
    </comp>
  </station>
  <station code="ANDN" name="ANDN" netid="TU" insttype="T" lat="37.58" lon="36.3452">
    <comp name="--.HHZ">
      <acc value="0.2767760963" flag="0"/>
      <vel value="0.1760093864" flag="0"/>
      <psa03 value="0.5446608818" flag="0"/>
      <psa10 value="0.2519041612" flag="0"/>
      <psa30 value="0.0186086700" flag="0"/>
    </comp>
    <comp name="--.HHN">
      <acc value="0.8120707947" flag="0"/>
      <vel value="0.3495660699" flag="0"/>
      <psa03 value="1.4563057365" flag="0"/>
      <psa10 value="0.2742053265" flag="0"/>
      <psa30 value="0.0195056266" flag="0"/>
    </comp>
    <comp name="--.HHE">
      <acc value="0.7108930243" flag="0"/>
      <vel value="0.3025456395" flag="0"/>
      <psa03 value="1.4251048480" flag="0"/>
      <psa10 value="0.3881911660" flag="0"/>
      <psa30 value="0.0192370725" flag="0"/>
    </comp>
  </station>
</stationlist>
