<stationlist created="1678190439">
	<station code="ARPRA" name="ARPRA" netid="KO" source="Bogazici University Kandilli Observatory And Earthquake Research Institute (KOERI)" insttype="" lat="39.0929" lon="38.3356">
		<comp name=".HNE" depth="0.0">
			<acc value="0.0042583612712" flag="0"/>
			<vel value="0.00415251164978" flag="0"/>
			<psa03 value="0.0109151840149" flag="0"/>
			<psa10 value="0.00813015608292" flag="0"/>
			<psa30 value="0.00122340052345" flag="0"/>
		</comp>
		<comp name=".HNN" depth="0.0">
			<acc value="0.00564627319089" flag="0"/>
			<vel value="0.00533141930505" flag="0"/>
			<psa03 value="0.0129719830281" flag="0"/>
			<psa10 value="0.0120544873006" flag="0"/>
			<psa30 value="0.00148633117048" flag="0"/>
		</comp>
		<comp name=".HNZ" depth="0.0">
			<acc value="0.00307554135966" flag="0"/>
			<vel value="0.00538415010803" flag="0"/>
			<psa03 value="0.00545410675051" flag="0"/>
			<psa10 value="0.00716969167563" flag="0"/>
			<psa30 value="0.00184515535749" flag="0"/>
		</comp>
	</station>
	<station code="CMRD" name="CMRD" netid="KO" source="Bogazici University Kandilli Observatory And Earthquake Research Institute (KOERI)" insttype="" lat="37.6623" lon="34.9902">
		<comp name=".HNE" depth="0.0">
			<acc value="0.00607852098998" flag="0"/>
			<vel value="0.00549683173408" flag="0"/>
			<psa03 value="0.0213626716826" flag="0"/>
			<psa10 value="0.0050541680951" flag="0"/>
			<psa30 value="0.000567208251848" flag="0"/>
		</comp>
		<comp name=".HNN" depth="0.0">
			<acc value="0.00771640234948" flag="0"/>
			<vel value="0.0046919751406" flag="0"/>
			<psa03 value="0.025116781051" flag="0"/>
			<psa10 value="0.00541031887582" flag="0"/>
			<psa30 value="0.000834388555395" flag="0"/>
		</comp>
		<comp name=".HNZ" depth="0.0">
			<acc value="0.00409165977388" flag="0"/>
			<vel value="0.00339886284045" flag="0"/>
			<psa03 value="0.00945821965959" flag="0"/>
			<psa10 value="0.00557875612771" flag="0"/>
			<psa30 value="0.000563183558145" flag="0"/>
		</comp>
	</station>
	<station code="KHMN" name="KHMN" netid="KO" source="Bogazici University Kandilli Observatory And Earthquake Research Institute (KOERI)" insttype="" lat="37.3916" lon="37.1574">
		<comp name=".HNE" depth="0.0">
			<acc value="0.0487280953635" flag="0"/>
			<vel value="0.0308210763618" flag="0"/>
			<psa03 value="0.156036149129" flag="0"/>
			<psa10 value="0.0144329914274" flag="0"/>
			<psa30 value="0.00427061832417" flag="0"/>
		</comp>
		<comp name=".HNN" depth="0.0">
			<acc value="0.0589577031275" flag="0"/>
			<vel value="0.0298697291352" flag="0"/>
			<psa03 value="0.0999061287075" flag="0"/>
			<psa10 value="0.0261083389243" flag="0"/>
			<psa30 value="0.00404775231039" flag="0"/>
		</comp>
		<comp name=".HNZ" depth="0.0">
			<acc value="0.0262380486475" flag="0"/>
			<vel value="0.0166006670669" flag="0"/>
			<psa03 value="0.057139222693" flag="0"/>
			<psa10 value="0.00860597072833" flag="0"/>
			<psa30 value="0.0038823580205" flag="0"/>
		</comp>
	</station>
	<station code="KOZK" name="KOZK" netid="KO" source="Bogazici University Kandilli Observatory And Earthquake Research Institute (KOERI)" insttype="" lat="39.2101" lon="34.868">
		<comp name=".HNE" depth="0.0">
			<acc value="0.0185180403372" flag="0"/>
			<vel value="0.0209241019025" flag="0"/>
			<psa03 value="0.03729669989" flag="0"/>
			<psa10 value="0.0472089898641" flag="0"/>
			<psa30 value="0.00181389932859" flag="0"/>
		</comp>
		<comp name=".HNN" depth="0.0">
			<acc value="0.0113809444635" flag="0"/>
			<vel value="0.0133468861853" flag="0"/>
			<psa03 value="0.0177327437177" flag="0"/>
			<psa10 value="0.0406746132436" flag="0"/>
			<psa30 value="0.00132668267788" flag="0"/>
		</comp>
		<comp name=".HNZ" depth="0.0">
			<acc value="0.00664117056314" flag="0"/>
			<vel value="0.00739705113604" flag="0"/>
			<psa03 value="0.0184868991455" flag="0"/>
			<psa10 value="0.0140584203639" flag="0"/>
			<psa30 value="0.000753982239292" flag="0"/>
		</comp>
	</station>
</stationlist>
