<stationlist xmlns:esm="https://esm-db.eu/esmws/shakemap/1/" created="1780538088">
	<station code="ROD3" name="ROD3" netid="CL" source="Corinth Riff Laboratory (CRLNET)" insttype="" lat="38.30811" lon="21.89204" esm:processing="manual (Paolucci et al 2011)" esm:quality="good">
		<comp name="00.HNE" depth="0.0">
			<acc value="0.0398249577628486" flag="0"/>
			<vel value="0.0174201584116531" flag="0"/>
			<psa03 value="0.15118391616314" flag="0"/>
			<psa10 value="0.00941868191521239" flag="0"/>
			<psa30 value="0.000628628002986718" flag="0"/>
		</comp>
		<comp name="00.HNN" depth="0.0">
			<acc value="0.0460521400187239" flag="0"/>
			<vel value="0.0240595162387099" flag="0"/>
			<psa03 value="0.138969293756352" flag="0"/>
			<psa10 value="0.0108643026110487" flag="0"/>
			<psa30 value="0.00126262507076763" flag="0"/>
		</comp>
		<comp name="00.HNZ" depth="0.0">
			<acc value="0.0142864198023081" flag="0"/>
			<vel value="0.0060673031943031" flag="0"/>
			<psa03 value="0.0430867449733957" flag="0"/>
			<psa10 value="0.00668851246736544" flag="0"/>
			<psa30 value="0.000444737533785621" flag="0"/>
		</comp>
	</station>
	<station code="AGR3" name="AGR3" netid="HI" source="ITSAK Strong Motion Network" insttype="" lat="38.5893" lon="21.4162" esm:processing="automatic (Paolucci et al 2011)" esm:quality="best">
		<comp name="--.HNE" depth="0.0">
			<acc value="0.024468360536818" flag="0"/>
			<vel value="0.0184637381950669" flag="0"/>
			<psa03 value="0.0931138245838997" flag="0"/>
			<psa10 value="0.0283108842071361" flag="0"/>
			<psa30 value="0.00237649513947309" flag="0"/>
		</comp>
		<comp name="--.HNN" depth="0.0">
			<acc value="0.0167321186404135" flag="0"/>
			<vel value="0.0135399750208228" flag="0"/>
			<psa03 value="0.0683975726701782" flag="0"/>
			<psa10 value="0.0251697998757148" flag="0"/>
			<psa30 value="0.00248452542094905" flag="0"/>
		</comp>
		<comp name="--.HNZ" depth="0.0">
			<acc value="0.0118873895385653" flag="0"/>
			<vel value="0.0108912855897889" flag="0"/>
			<psa03 value="0.0249941922009015" flag="0"/>
			<psa10 value="0.0219167425016289" flag="0"/>
			<psa30 value="0.00114969626590187" flag="0"/>
		</comp>
	</station>
	<station code="AOL1" name="AOL1" netid="HI" source="ITSAK Strong Motion Network" insttype="" lat="37.642378" lon="21.624555" esm:processing="automatic (Paolucci et al 2011)" esm:quality="best">
		<comp name="--.HNE" depth="0.0">
			<acc value="0.0652704514715002" flag="0"/>
			<vel value="0.0209669477441776" flag="0"/>
			<psa03 value="0.0870563972674017" flag="0"/>
			<psa10 value="0.0158613119840757" flag="0"/>
			<psa30 value="0.00121827497557148" flag="0"/>
		</comp>
		<comp name="--.HNN" depth="0.0">
			<acc value="0.108494880671545" flag="0"/>
			<vel value="0.0372119922753061" flag="0"/>
			<psa03 value="0.132088021016471" flag="0"/>
			<psa10 value="0.028746031158486" flag="0"/>
			<psa30 value="0.00116937413196392" flag="0"/>
		</comp>
		<comp name="--.HNZ" depth="0.0">
			<acc value="0.0512504918781461" flag="0"/>
			<vel value="0.0148773855361504" flag="0"/>
			<psa03 value="0.0577726552798788" flag="0"/>
			<psa10 value="0.00976095067757812" flag="0"/>
			<psa30 value="0.000897684988058182" flag="0"/>
		</comp>
	</station>
	<station code="ARG2" name="ARG2" netid="HI" source="ITSAK Strong Motion Network" insttype="" lat="38.1783" lon="20.4878" esm:processing="manual (Paolucci et al 2011)" esm:quality="best">
		<comp name="--.HNE" depth="0.0">
			<acc value="0.0908817135565602" flag="0"/>
			<vel value="0.0377408287085259" flag="0"/>
			<psa03 value="0.205321986171249" flag="0"/>
			<psa10 value="0.0183420676031605" flag="0"/>
			<psa30 value="0.00294493203961465" flag="0"/>
		</comp>
		<comp name="--.HNN" depth="0.0">
			<acc value="0.07555793640483" flag="0"/>
			<vel value="0.0362295570069643" flag="0"/>
			<psa03 value="0.136284761359256" flag="0"/>
			<psa10 value="0.0218614895757538" flag="0"/>
			<psa30 value="0.00190243862540891" flag="0"/>
		</comp>
		<comp name="--.HNZ" depth="0.0">
			<acc value="0.0586249389727093" flag="0"/>
			<vel value="0.0212457480510044" flag="0"/>
			<psa03 value="0.125367662944397" flag="0"/>
			<psa10 value="0.0128938091032536" flag="0"/>
			<psa30 value="0.00165232969041278" flag="0"/>
		</comp>
	</station>
	<station code="AST1" name="AST1" netid="HI" source="ITSAK Strong Motion Network" insttype="" lat="38.5416" lon="21.0895" esm:processing="automatic (Paolucci et al 2011)" esm:quality="best">
		<comp name="--.HNE" depth="0.0">
			<acc value="0.0160554612917174" flag="0"/>
			<vel value="0.00829991595387343" flag="0"/>
			<psa03 value="0.044060387534437" flag="0"/>
			<psa10 value="0.0121769994789539" flag="0"/>
			<psa30 value="0.00154016848693684" flag="0"/>
		</comp>
		<comp name="--.HNN" depth="0.0">
			<acc value="0.0204760608798513" flag="0"/>
			<vel value="0.00953022923994008" flag="0"/>
			<psa03 value="0.0465416248208966" flag="0"/>
			<psa10 value="0.00979598831114939" flag="0"/>
			<psa30 value="0.00118109449171356" flag="0"/>
		</comp>
		<comp name="--.HNZ" depth="0.0">
			<acc value="0.0100719614361801" flag="0"/>
			<vel value="0.007856224894103" flag="0"/>
			<psa03 value="0.0292595945545406" flag="0"/>
			<psa10 value="0.0110141730724113" flag="0"/>
			<psa30 value="0.000694973226065475" flag="0"/>
		</comp>
	</station>
	<station code="KAC1" name="KAC1" netid="HI" source="ITSAK Strong Motion Network" insttype="" lat="38.143412" lon="21.549694" esm:processing="automatic (Paolucci et al 2011)" esm:quality="best">
		<comp name="--.HNE" depth="0.0">
			<acc value="0.0314463819074193" flag="0"/>
			<vel value="0.0226100847390877" flag="0"/>
			<psa03 value="0.1131633923527" flag="0"/>
			<psa10 value="0.0297715459688093" flag="0"/>
			<psa30 value="0.00240852996995672" flag="0"/>
		</comp>
		<comp name="--.HNN" depth="0.0">
			<acc value="0.0467714737020093" flag="0"/>
			<vel value="0.0281191415709777" flag="0"/>
			<psa03 value="0.144583723795455" flag="0"/>
			<psa10 value="0.0297760762689194" flag="0"/>
			<psa30 value="0.00207977381647501" flag="0"/>
		</comp>
		<comp name="--.HNZ" depth="0.0">
			<acc value="0.016630211615359" flag="0"/>
			<vel value="0.0101853827981862" flag="0"/>
			<psa03 value="0.0469205770079525" flag="0"/>
			<psa10 value="0.0107971799476817" flag="0"/>
			<psa30 value="0.00160517102220245" flag="0"/>
		</comp>
	</station>
	<station code="KLV1" name="KLV1" netid="HI" source="ITSAK Strong Motion Network" insttype="" lat="38.03256" lon="22.10797" esm:processing="manual (Paolucci et al 2011)" esm:quality="best">
		<comp name="--.HNE" depth="0.0">
			<acc value="0.0135219581756086" flag="0"/>
			<vel value="0.00762461787844909" flag="0"/>
			<psa03 value="0.0305589271202796" flag="0"/>
			<psa10 value="0.0102320952315326" flag="0"/>
			<psa30 value="0.000513193109911577" flag="0"/>
		</comp>
		<comp name="--.HNN" depth="0.0">
			<acc value="0.00845202828704969" flag="0"/>
			<vel value="0.0070019636298338" flag="0"/>
			<psa03 value="0.0202682195980771" flag="0"/>
			<psa10 value="0.0121005297799116" flag="0"/>
			<psa30 value="0.000631759957449997" flag="0"/>
		</comp>
		<comp name="--.HNZ" depth="0.0">
			<acc value="0.00446329548414657" flag="0"/>
			<vel value="0.00327070100664061" flag="0"/>
			<psa03 value="0.00961957442292843" flag="0"/>
			<psa10 value="0.00458652360043904" flag="0"/>
			<psa30 value="0.000363306717740367" flag="0"/>
		</comp>
	</station>
	<station code="KRI1" name="KRI1" netid="HI" source="ITSAK Strong Motion Network" insttype="" lat="37.6621" lon="20.8172" esm:processing="manual (Paolucci et al 2011)" esm:quality="best">
		<comp name="--.HNE" depth="0.0">
			<acc value="0.356657556790354" flag="0"/>
			<vel value="0.126293962030905" flag="0"/>
			<psa03 value="0.420163750452969" flag="0"/>
			<psa10 value="0.052567472336934" flag="0"/>
			<psa30 value="0.0047105516342458" flag="0"/>
		</comp>
		<comp name="--.HNN" depth="0.0">
			<acc value="0.212780915882936" flag="0"/>
			<vel value="0.0657318863673562" flag="0"/>
			<psa03 value="0.346349402281482" flag="0"/>
			<psa10 value="0.0714921785060669" flag="0"/>
			<psa30 value="0.00799025181497232" flag="0"/>
		</comp>
		<comp name="--.HNZ" depth="0.0">
			<acc value="0.147039128070709" flag="0"/>
			<vel value="0.0595282604633506" flag="0"/>
			<psa03 value="0.227164006833951" flag="0"/>
			<psa10 value="0.0302487313300053" flag="0"/>
			<psa30 value="0.00499780816359779" flag="0"/>
		</comp>
	</station>
	<station code="LEF2" name="LEF2" netid="HI" source="ITSAK Strong Motion Network" insttype="" lat="38.830093" lon="20.708346" esm:processing="automatic (Paolucci et al 2011)" esm:quality="best">
		<comp name="--.HNE" depth="0.0">
			<acc value="0.0202906782680929" flag="0"/>
			<vel value="0.0143244866950588" flag="0"/>
			<psa03 value="0.107779181508489" flag="0"/>
			<psa10 value="0.0184373913866933" flag="0"/>
			<psa30 value="0.00207786702349266" flag="0"/>
		</comp>
		<comp name="--.HNN" depth="0.0">
			<acc value="0.0318104129113865" flag="0"/>
			<vel value="0.0194970589461618" flag="0"/>
			<psa03 value="0.069079914746992" flag="0"/>
			<psa10 value="0.0301327061438984" flag="0"/>
			<psa30 value="0.00180557773566367" flag="0"/>
		</comp>
		<comp name="--.HNZ" depth="0.0">
			<acc value="0.0166569812302749" flag="0"/>
			<vel value="0.0128064895522732" flag="0"/>
			<psa03 value="0.0455929838530882" flag="0"/>
			<psa10 value="0.0153129262812142" flag="0"/>
			<psa30 value="0.00130877419986761" flag="0"/>
		</comp>
	</station>
	<station code="LXR1" name="LXR1" netid="HI" source="ITSAK Strong Motion Network" insttype="" lat="38.201" lon="20.4374" esm:processing="automatic (Paolucci et al 2011)" esm:quality="best">
		<comp name="--.HNE" depth="0.0">
			<acc value="0.139451313988089" flag="0"/>
			<vel value="0.0582624542786211" flag="0"/>
			<psa03 value="0.32331508470428" flag="0"/>
			<psa10 value="0.0801278605775161" flag="0"/>
			<psa30 value="0.00585306315337523" flag="0"/>
		</comp>
		<comp name="--.HNN" depth="0.0">
			<acc value="0.137725887128628" flag="0"/>
			<vel value="0.0659915734737501" flag="0"/>
			<psa03 value="0.43321311490943" flag="0"/>
			<psa10 value="0.0954996038800693" flag="0"/>
			<psa30 value="0.0110744336268773" flag="0"/>
		</comp>
		<comp name="--.HNZ" depth="0.0">
			<acc value="0.0946292044162314" flag="0"/>
			<vel value="0.0277343389010008" flag="0"/>
			<psa03 value="0.200654521543958" flag="0"/>
			<psa10 value="0.0260309075448718" flag="0"/>
			<psa30 value="0.00327982560568316" flag="0"/>
		</comp>
	</station>
	<station code="MGP1" name="MGP1" netid="HI" source="ITSAK Strong Motion Network" insttype="" lat="37.403248" lon="22.140703" esm:processing="automatic (Paolucci et al 2011)" esm:quality="best">
		<comp name="--.HNE" depth="0.0">
			<acc value="0.0107456115073445" flag="0"/>
			<vel value="0.011114979151269" flag="0"/>
			<psa03 value="0.0403481806814515" flag="0"/>
			<psa10 value="0.0118101408013669" flag="0"/>
			<psa30 value="0.00236468414871958" flag="0"/>
		</comp>
		<comp name="--.HNN" depth="0.0">
			<acc value="0.0103868647652401" flag="0"/>
			<vel value="0.00918723299196496" flag="0"/>
			<psa03 value="0.0275033427948141" flag="0"/>
			<psa10 value="0.0222891159195404" flag="0"/>
			<psa30 value="0.00214806688222211" flag="0"/>
		</comp>
		<comp name="--.HNZ" depth="0.0">
			<acc value="0.00598731502793235" flag="0"/>
			<vel value="0.00596771478068816" flag="0"/>
			<psa03 value="0.0122114052998373" flag="0"/>
			<psa10 value="0.00908327984771148" flag="0"/>
			<psa30 value="0.00277478360746273" flag="0"/>
		</comp>
	</station>
	<station code="MSL1" name="MSL1" netid="HI" source="ITSAK Strong Motion Network" insttype="" lat="38.3727" lon="21.4243" esm:processing="manual (Paolucci et al 2011)" esm:quality="best">
		<comp name="--.HNE" depth="0.0">
			<acc value="0.0352745986338443" flag="0"/>
			<vel value="0.022521726442402" flag="0"/>
			<psa03 value="0.117493034579582" flag="0"/>
			<psa10 value="0.0469967664097665" flag="0"/>
			<psa30 value="0.00281338995215693" flag="0"/>
		</comp>
		<comp name="--.HNN" depth="0.0">
			<acc value="0.0385780182617876" flag="0"/>
			<vel value="0.0253598250077634" flag="0"/>
			<psa03 value="0.144606811790254" flag="0"/>
			<psa10 value="0.0451524926529613" flag="0"/>
			<psa30 value="0.00222547735719284" flag="0"/>
		</comp>
		<comp name="--.HNZ" depth="0.0">
			<acc value="0.0138020638378279" flag="0"/>
			<vel value="0.014516767861473" flag="0"/>
			<psa03 value="0.0570910556449148" flag="0"/>
			<psa10 value="0.018982328579868" flag="0"/>
			<psa30 value="0.000976722370476872" flag="0"/>
		</comp>
	</station>
	<station code="PET1" name="PET1" netid="HI" source="ITSAK Strong Motion Network" insttype="" lat="36.963862" lon="21.92538" esm:processing="automatic (Paolucci et al 2011)" esm:quality="best">
		<comp name="--.HNE" depth="0.0">
			<acc value="0.0105175522687562" flag="0"/>
			<vel value="0.00959485459526289" flag="0"/>
			<psa03 value="0.0322064356016309" flag="0"/>
			<psa10 value="0.0104643613375822" flag="0"/>
			<psa30 value="0.000644441701516636" flag="0"/>
		</comp>
		<comp name="--.HNN" depth="0.0">
			<acc value="0.00976610096256396" flag="0"/>
			<vel value="0.00919412760687397" flag="0"/>
			<psa03 value="0.0254242102708216" flag="0"/>
			<psa10 value="0.0112448686673623" flag="0"/>
			<psa30 value="0.000723400994682296" flag="0"/>
		</comp>
		<comp name="--.HNZ" depth="0.0">
			<acc value="0.00505012658281176" flag="0"/>
			<vel value="0.00402631389545503" flag="0"/>
			<psa03 value="0.0193835392726807" flag="0"/>
			<psa10 value="0.00325687090796376" flag="0"/>
			<psa30 value="0.000660103364024914" flag="0"/>
		</comp>
	</station>
	<station code="PRE2" name="PRE2" netid="HI" source="ITSAK Strong Motion Network" insttype="" lat="38.9577" lon="20.7548" esm:processing="manual (Paolucci et al 2011)" esm:quality="good">
		<comp name="--.HNE" depth="0.0">
			<acc value="0.0113313223298191" flag="0"/>
			<vel value="0.0105705939956914" flag="0"/>
			<psa03 value="0.044058809304887" flag="0"/>
			<psa10 value="0.0227441091856112" flag="0"/>
			<psa30 value="0.00174795266828577" flag="0"/>
		</comp>
		<comp name="--.HNN" depth="0.0">
			<acc value="0.0131461686150197" flag="0"/>
			<vel value="0.0109607077758518" flag="0"/>
			<psa03 value="0.0419187821219222" flag="0"/>
			<psa10 value="0.014047855914011" flag="0"/>
			<psa30 value="0.00156978972003149" flag="0"/>
		</comp>
		<comp name="--.HNZ" depth="0.0">
			<acc value="0.00681402535108526" flag="0"/>
			<vel value="0.00484415760817725" flag="0"/>
			<psa03 value="0.016108675193591" flag="0"/>
			<psa10 value="0.00743465094663784" flag="0"/>
			<psa30 value="0.000679764874836845" flag="0"/>
		</comp>
	</station>
	<station code="PYL1" name="PYL1" netid="HI" source="ITSAK Strong Motion Network" insttype="" lat="36.914188" lon="21.695161" esm:processing="manual (Paolucci et al 2011)" esm:quality="best">
		<comp name="--.HNE" depth="0.0">
			<acc value="0.00878035798825309" flag="0"/>
			<vel value="0.00569342395413271" flag="0"/>
			<psa03 value="0.0202234773914588" flag="0"/>
			<psa10 value="0.00444155885099584" flag="0"/>
			<psa30 value="0.000400890171299715" flag="0"/>
		</comp>
		<comp name="--.HNN" depth="0.0">
			<acc value="0.00668717455337921" flag="0"/>
			<vel value="0.0048137619763557" flag="0"/>
			<psa03 value="0.0168230696884702" flag="0"/>
			<psa10 value="0.006104626670997" flag="0"/>
			<psa30 value="0.000398205638902619" flag="0"/>
		</comp>
		<comp name="--.HNZ" depth="0.0">
			<acc value="0.00402440185731318" flag="0"/>
			<vel value="0.00204559192463429" flag="0"/>
			<psa03 value="0.0113197782744228" flag="0"/>
			<psa10 value="0.0029435897734161" flag="0"/>
			<psa30 value="0.000253240889459418" flag="0"/>
		</comp>
	</station>
	<station code="PYR2" name="PYR2" netid="HI" source="ITSAK Strong Motion Network" insttype="" lat="37.6671" lon="21.4506" esm:processing="automatic (Paolucci et al 2011)" esm:quality="best">
		<comp name="--.HNE" depth="0.0">
			<acc value="0.0501863179863977" flag="0"/>
			<vel value="0.0218608537176946" flag="0"/>
			<psa03 value="0.161409088393285" flag="0"/>
			<psa10 value="0.0148623836224742" flag="0"/>
			<psa30 value="0.00205025206913746" flag="0"/>
		</comp>
		<comp name="--.HNN" depth="0.0">
			<acc value="0.0699015319505393" flag="0"/>
			<vel value="0.0202886496054212" flag="0"/>
			<psa03 value="0.133024280955764" flag="0"/>
			<psa10 value="0.0137429813425669" flag="0"/>
			<psa30 value="0.00226587864500654" flag="0"/>
		</comp>
		<comp name="--.HNZ" depth="0.0">
			<acc value="0.0368170931934683" flag="0"/>
			<vel value="0.0105007098584382" flag="0"/>
			<psa03 value="0.0601398120924002" flag="0"/>
			<psa10 value="0.00896565424309245" flag="0"/>
			<psa30 value="0.00156886122102299" flag="0"/>
		</comp>
	</station>
	<station code="PYR3" name="PYR3" netid="HI" source="ITSAK Strong Motion Network" insttype="" lat="37.6788" lon="21.46209" esm:processing="automatic (Paolucci et al 2011)" esm:quality="best">
		<comp name="--.HNE" depth="0.0">
			<acc value="0.0853358357217246" flag="0"/>
			<vel value="0.0374205202635045" flag="0"/>
			<psa03 value="0.190354068356153" flag="0"/>
			<psa10 value="0.0219195251859681" flag="0"/>
			<psa30 value="0.00198825171191808" flag="0"/>
		</comp>
		<comp name="--.HNN" depth="0.0">
			<acc value="0.0665422774747104" flag="0"/>
			<vel value="0.0519385442965446" flag="0"/>
			<psa03 value="0.168965422296655" flag="0"/>
			<psa10 value="0.0206657571299876" flag="0"/>
			<psa30 value="0.00269049885734501" flag="0"/>
		</comp>
		<comp name="--.HNZ" depth="0.0">
			<acc value="0.0481213627353735" flag="0"/>
			<vel value="0.0175648534891442" flag="0"/>
			<psa03 value="0.162413425759039" flag="0"/>
			<psa10 value="0.0119981501310623" flag="0"/>
			<psa30 value="0.00201858059605781" flag="0"/>
		</comp>
	</station>
	<station code="VSK1" name="VSK1" netid="HI" source="ITSAK Strong Motion Network" insttype="" lat="38.4091" lon="20.564" esm:processing="automatic (Paolucci et al 2011)" esm:quality="best">
		<comp name="--.HNE" depth="0.0">
			<acc value="0.0253684274302424" flag="0"/>
			<vel value="0.0102785126121375" flag="0"/>
			<psa03 value="0.0437724882541893" flag="0"/>
			<psa10 value="0.00964212218077339" flag="0"/>
			<psa30 value="0.00160442170173031" flag="0"/>
		</comp>
		<comp name="--.HNN" depth="0.0">
			<acc value="0.0227627582744736" flag="0"/>
			<vel value="0.0146419057467162" flag="0"/>
			<psa03 value="0.066303433943765" flag="0"/>
			<psa10 value="0.0171287215687405" flag="0"/>
			<psa30 value="0.00148321138047473" flag="0"/>
		</comp>
		<comp name="--.HNZ" depth="0.0">
			<acc value="0.024580169047601" flag="0"/>
			<vel value="0.00731818704973736" flag="0"/>
			<psa03 value="0.036523963804185" flag="0"/>
			<psa10 value="0.00890064743671057" flag="0"/>
			<psa30 value="0.000866487140103867" flag="0"/>
		</comp>
	</station>
	<station code="ZAK2" name="ZAK2" netid="HI" source="ITSAK Strong Motion Network" insttype="" lat="37.787501" lon="20.899999" esm:processing="manual (Paolucci et al 2011)" esm:quality="good">
		<comp name="--.HNE" depth="0.0">
			<acc value="0.901569251845734" flag="0"/>
			<vel value="0.363240735160257" flag="0"/>
			<psa03 value="2.36536002682653" flag="0"/>
			<psa10 value="0.120672246444098" flag="0"/>
			<psa30 value="0.00892473121964299" flag="0"/>
		</comp>
		<comp name="--.HNN" depth="0.0">
			<acc value="0.489353357021316" flag="0"/>
			<vel value="0.302219515221603" flag="0"/>
			<psa03 value="1.74877268094091" flag="0"/>
			<psa10 value="0.202388697257921" flag="0"/>
			<psa30 value="0.0115554446581641" flag="0"/>
		</comp>
		<comp name="--.HNZ" depth="0.0">
			<acc value="0.516749490443187" flag="0"/>
			<vel value="0.0974316524255404" flag="0"/>
			<psa03 value="0.484094235533959" flag="0"/>
			<psa10 value="0.0383760709763622" flag="0"/>
			<psa30 value="0.00755167609481291" flag="0"/>
		</comp>
