<?xml version="1.0" encoding="UTF-8" standalone="yes"?>
<!DOCTYPE earthquake SYSTEM "stationlist.dtd">
<stationlist created="" xmlns="ch.ethz.sed.shakemap.usgs.xml">
  <station code="ARG2" name="ARG2" netid="HI" source="NOA" insttype="CMG-5TD,ACCELEROMETER,GURALP" lat="38.1783" lon="20.4878">
    <comp name="--.HNE">
      <acc value="0.0905430872" flag="0"/>
      <vel value="0.0367226348" flag="0"/>
      <psa03 value="0.1986134346" flag="0"/>
      <psa10 value="0.0182260184" flag="0"/>
      <psa30 value="0.0023327906" flag="0"/>
    </comp>
    <comp name="--.HNN">
      <acc value="0.0742659257" flag="0"/>
      <vel value="0.0355133007" flag="0"/>
      <psa03 value="0.1369408524" flag="0"/>
      <psa10 value="0.0218846331" flag="0"/>
      <psa30 value="0.0017932013" flag="0"/>
    </comp>
    <comp name="--.HNZ">
      <acc value="0.0580522429" flag="0"/>
      <vel value="0.0204269031" flag="0"/>
      <psa03 value="0.1244181927" flag="0"/>
      <psa10 value="0.0128519051" flag="0"/>
      <psa30 value="0.0014377460" flag="0"/>
    </comp>
  </station>
  <station code="KRI1" name="KRI1" netid="HI" source="NOA" insttype="CMG-5TD,ACCELEROMETER,GURALP" lat="37.6621" lon="20.8172">
    <comp name="--.HNE">
      <acc value="0.3561540317" flag="0"/>
      <vel value="0.1259460824" flag="0"/>
      <psa03 value="0.4174838589" flag="0"/>
      <psa10 value="0.0525501259" flag="0"/>
      <psa30 value="0.0043819186" flag="0"/>
    </comp>
    <comp name="--.HNN">
      <acc value="0.2109942361" flag="0"/>
      <vel value="0.0651684850" flag="0"/>
      <psa03 value="0.3387516259" flag="0"/>
      <psa10 value="0.0716546357" flag="0"/>
      <psa30 value="0.0071718189" flag="0"/>
    </comp>
    <comp name="--.HNZ">
      <acc value="0.1467091851" flag="0"/>
      <vel value="0.0582624281" flag="0"/>
      <psa03 value="0.2250702264" flag="0"/>
      <psa10 value="0.0300422990" flag="0"/>
      <psa30 value="0.0046396884" flag="0"/>
    </comp>
  </station>
  <station code="LXRA" name="LXRA" netid="HL" source="NOA" insttype="CMG-5" lat="38.2001" lon="20.4372">
    <comp name="00.HNE">
      <acc value="0.1011462973" flag="0"/>
      <vel value="0.0458822793" flag="0"/>
      <psa03 value="0.1466489771" flag="0"/>
      <psa10 value="0.0697603877" flag="0"/>
      <psa30 value="0.0048632427" flag="0"/>
    </comp>
    <comp name="00.HNN">
      <acc value="0.0852381429" flag="0"/>
      <vel value="0.0501043254" flag="0"/>
      <psa03 value="0.2472087919" flag="0"/>
      <psa10 value="0.0796398855" flag="0"/>
      <psa30 value="0.0090381978" flag="0"/>
    </comp>
    <comp name="00.HNZ">
      <acc value="0.0688703000" flag="0"/>
      <vel value="0.0277129915" flag="0"/>
      <psa03 value="0.0928898705" flag="0"/>
      <psa10 value="0.0274016926" flag="0"/>
      <psa30 value="0.0027647948" flag="0"/>
    </comp>
  </station>
  <station code="VLS" name="VLS" netid="HL" source="NOA" insttype="120P," lat="38.1768" lon="20.5886">
    <comp name="--.HHE">
      <acc value="0.1089174763" flag="0"/>
      <vel value="0.0174503261" flag="0"/>
      <psa03 value="0.0538362417" flag="0"/>
      <psa10 value="0.0091965329" flag="0"/>
      <psa30 value="0.0008150288" flag="0"/>
    </comp>
    <comp name="--.HHN">
      <acc value="0.0583196575" flag="0"/>
      <vel value="0.0178172967" flag="0"/>
      <psa03 value="0.1091938452" flag="0"/>
      <psa10 value="0.0208821094" flag="0"/>
      <psa30 value="0.0015045621" flag="0"/>
    </comp>
    <comp name="--.HHZ">
      <acc value="0.0388418373" flag="0"/>
      <vel value="0.0108346661" flag="0"/>
      <psa03 value="0.0402279971" flag="0"/>
      <psa10 value="0.0081369051" flag="0"/>
      <psa30 value="0.0015870816" flag="0"/>
    </comp>
  </station>
  <station code="AMT" name="AMT" netid="HP" source="NOA" insttype="CMG-3T," lat="37.5324" lon="21.7089">
    <comp name="00.HHE">
      <acc value="0.0246006007" flag="0"/>
      <vel value="0.0126041687" flag="0"/>
      <psa03 value="0.0757784503" flag="0"/>
      <psa10 value="0.0160484588" flag="0"/>
      <psa30 value="0.0007951766" flag="0"/>
    </comp>
    <comp name="00.HHN">
      <acc value="0.0275500952" flag="0"/>
      <vel value="0.0119313836" flag="0"/>
      <psa03 value="0.0627259601" flag="0"/>
      <psa10 value="0.0148800949" flag="0"/>
      <psa30 value="0.0009574112" flag="0"/>
    </comp>
    <comp name="00.HHZ">
      <acc value="0.0122579559" flag="0"/>
      <vel value="0.0067238168" flag="0"/>
      <psa03 value="0.0317380049" flag="0"/>
      <psa10 value="0.0103422562" flag="0"/>
      <psa30 value="0.0006689837" flag="0"/>
    </comp>
  </station>
  <station code="DRO" name="DRO" netid="HP" source="NOA" insttype="120P," lat="37.952" lon="21.71">
    <comp name="--.HHE">
      <acc value="0.0343148170" flag="0"/>
      <vel value="0.0179979800" flag="0"/>
      <psa03 value="0.1098464290" flag="0"/>
      <psa10 value="0.0137324169" flag="0"/>
      <psa30 value="0.0010196984" flag="0"/>
    </comp>
    <comp name="--.HHN">
      <acc value="0.0252367723" flag="0"/>
      <vel value="0.0131335319" flag="0"/>
      <psa03 value="0.1162839207" flag="0"/>
      <psa10 value="0.0119172799" flag="0"/>
      <psa30 value="0.0010923394" flag="0"/>
    </comp>
    <comp name="--.HHZ">
      <acc value="0.0136354014" flag="0"/>
      <vel value="0.0078370994" flag="0"/>
      <psa03 value="0.0550930758" flag="0"/>
      <psa10 value="0.0063892790" flag="0"/>
      <psa30 value="0.0004397602" flag="0"/>
    </comp>
  </station>
  <station code="FSK" name="FSK" netid="HP" source="NOA" insttype="40," lat="38.4593" lon="20.5623">
    <comp name="--.HHE">
      <acc value="0.0363422861" flag="0"/>
      <vel value="0.0114230867" flag="0"/>
      <psa03 value="0.0502396827" flag="0"/>
      <psa10 value="0.0109282453" flag="0"/>
      <psa30 value="0.0017299366" flag="0"/>
    </comp>
    <comp name="--.HHN">
      <acc value="0.0172182260" flag="0"/>
      <vel value="0.0062327787" flag="0"/>
      <psa03 value="0.0408061234" flag="0"/>
      <psa10 value="0.0089332652" flag="0"/>
      <psa30 value="0.0006870822" flag="0"/>
    </comp>
    <comp name="--.HHZ">
      <acc value="0.0238629627" flag="0"/>
      <vel value="0.0057289869" flag="0"/>
      <psa03 value="0.0237613816" flag="0"/>
      <psa10 value="0.0055287156" flag="0"/>
      <psa30 value="0.0007505686" flag="0"/>
    </comp>
  </station>
  <station code="LTHK" name="LTHK" netid="HP" source="NOA" insttype="40," lat="37.7095" lon="20.8367">
    <comp name="--.HHE">
      <acc value="0.6034366719" flag="0"/>
      <vel value="0.1347317254" flag="0"/>
      <psa03 value="0.4319996094" flag="0"/>
      <psa10 value="0.0380711450" flag="0"/>
      <psa30 value="0.0060810377" flag="0"/>
    </comp>
    <comp name="--.HHN">
      <acc value="0.5181199965" flag="0"/>
      <vel value="0.1250449889" flag="0"/>
      <psa03 value="0.4137226222" flag="0"/>
      <psa10 value="0.0515535881" flag="0"/>
      <psa30 value="0.0053559081" flag="0"/>
    </comp>
    <comp name="--.HHZ">
      <acc value="0.3420988475" flag="0"/>
      <vel value="0.0982317987" flag="0"/>
      <psa03 value="0.2256890900" flag="0"/>
      <psa10 value="0.0251911164" flag="0"/>
      <psa30 value="0.0047048599" flag="0"/>
    </comp>
  </station>
  <station code="DMLN" name="DMLN" netid="HT" source="NOA" insttype="1s-100Hz," lat="38.2385" lon="20.3734">
    <comp name="--.HHE">
      <acc value="0.0888031243" flag="0"/>
      <vel value="0.0416694123" flag="0"/>
      <psa03 value="0.1156377170" flag="0"/>
      <psa10 value="0.0577577891" flag="0"/>
      <psa30 value="0.0036560782" flag="0"/>
    </comp>
    <comp name="--.HHN">
      <acc value="0.1001938562" flag="0"/>
      <vel value="0.0341589117" flag="0"/>
      <psa03 value="0.1716318691" flag="0"/>
      <psa10 value="0.0418071106" flag="0"/>
      <psa30 value="0.0020797276" flag="0"/>
    </comp>
    <comp name="--.HHZ">
      <acc value="0.0697136080" flag="0"/>
      <vel value="0.0220568353" flag="0"/>
      <psa03 value="0.1006260318" flag="0"/>
      <psa10 value="0.0166026756" flag="0"/>
      <psa30 value="0.0014856603" flag="0"/>
    </comp>
  </station>
  <station code="DRAG" name="DRAG" netid="HT" source="NOA" insttype="1s-100Hz," lat="38.6839" lon="20.5746">
    <comp name="--.HHE">
      <acc value="0.0003221623" flag="0"/>
      <vel value="0.0001557909" flag="0"/>
      <psa03 value="0.0007581795" flag="0"/>
      <psa10 value="0.0001131165" flag="0"/>
      <psa30 value="0.0000066305" flag="0"/>
    </comp>
    <comp name="--.HHN">
      <acc value="0.0000211302" flag="0"/>
      <vel value="0.0000069942" flag="0"/>
      <psa03 value="0.0000382238" flag="0"/>
      <psa10 value="0.0000061097" flag="0"/>
      <psa30 value="0.0000011105" flag="0"/>
    </comp>
    <comp name="--.HHZ">
      <acc value="0.0015956515" flag="0"/>
      <vel value="0.0006698291" flag="0"/>
      <psa03 value="0.0042061544" flag="0"/>
      <psa10 value="0.0005288383" flag="0"/>
      <psa30 value="0.0000495758" flag="0"/>
    </comp>
  </station>
  <station code="EVGI" name="EVGI" netid="HT" source="NOA" insttype="30" lat="38.621" lon="20.656">
    <comp name="--.HHE">
      <acc value="0.0299898880" flag="0"/>
      <vel value="0.0087326690" flag="0"/>
      <psa03 value="0.0575225363" flag="0"/>
      <psa10 value="0.0056251959" flag="0"/>
      <psa30 value="0.0005780566" flag="0"/>
    </comp>
    <comp name="--.HHN">
      <acc value="nan" flag="0"/>
      <vel value="-100.0000000000" flag="0"/>
      <psa03 value="0.0000000000" flag="0"/>
      <psa10 value="0.0000000000" flag="0"/>
      <psa30 value="0.0000000000" flag="0"/>
    </comp>
    <comp name="--.HHZ">
      <acc value="0.0228706314" flag="0"/>
      <vel value="0.0065532033" flag="0"/>
      <psa03 value="0.0453296228" flag="0"/>
      <psa10 value="0.0029795953" flag="0"/>
      <psa30 value="0.0004514414" flag="0"/>
    </comp>
  </station>
  <station code="NYDR" name="NYDR" netid="HT" source="NOA" insttype="1s-100Hz," lat="38.7135" lon="20.6983">
    <comp name="--.HHE">
      <acc value="0.0098702543" flag="0"/>
      <vel value="0.0064224420" flag="0"/>
      <psa03 value="0.0265930206" flag="0"/>
      <psa10 value="0.0095598596" flag="0"/>
      <psa30 value="0.0004480558" flag="0"/>
    </comp>
    <comp name="--.HHN">
      <acc value="0.0127327182" flag="0"/>
      <vel value="0.0067810317" flag="0"/>
      <psa03 value="0.0256449194" flag="0"/>
      <psa10 value="0.0079209974" flag="0"/>
      <psa30 value="0.0003611832" flag="0"/>
    </comp>
    <comp name="--.HHZ">
      <acc value="0.0066041080" flag="0"/>
      <vel value="0.0042016261" flag="0"/>
      <psa03 value="0.0181189525" flag="0"/>
      <psa10 value="0.0076848559" flag="0"/>
      <psa30 value="0.0002849767" flag="0"/>
    </comp>
  </station>
  <station code="PSDA" name="PSDA" netid="HT" source="NOA" insttype="30" lat="38.114" lon="20.5841">
    <comp name="--.HHE">
      <acc value="0.1311807530" flag="0"/>
      <vel value="0.0261186107" flag="0"/>
      <psa03 value="0.1465112722" flag="0"/>
      <psa10 value="0.0173653679" flag="0"/>
      <psa30 value="0.0012123717" flag="0"/>
    </comp>
    <comp name="--.HHN">
      <acc value="0.1152938338" flag="0"/>
      <vel value="0.0286704644" flag="0"/>
      <psa03 value="0.1419787508" flag="0"/>
      <psa10 value="0.0154207290" flag="0"/>
      <psa30 value="0.0025876686" flag="0"/>
    </comp>
    <comp name="--.HHZ">
      <acc value="0.1161846662" flag="0"/>
      <vel value="0.0216436328" flag="0"/>
      <psa03 value="0.0534979346" flag="0"/>
      <psa10 value="0.0094202331" flag="0"/>
      <psa30 value="0.0022583606" flag="0"/>
    </comp>
  </station>
</stationlist>
