<?xml version="1.0" encoding="UTF-8" standalone="yes"?>
<!DOCTYPE earthquake SYSTEM "stationlist.dtd">
<stationlist created="" xmlns="ch.ethz.sed.shakemap.usgs.xml">
  <station code="AMRR" name="AMRR" netid="RO" insttype="330" commtype="DIG" lat="44.6102" lon="27.3351">
    <comp name="--.HHE">
      <acc value="0.1557274884" flag="0"/>
      <vel value="0.0579946863" flag="0"/>
      <psa03 value="0.2928064309" flag="0"/>
      <psa10 value="0.0294149187" flag="0"/>
      <psa30 value="0.0017518373" flag="0"/>
    </comp>
    <comp name="--.HHN">
      <acc value="0.0940748028" flag="0"/>
      <vel value="0.0564997032" flag="0"/>
      <psa03 value="0.2025916446" flag="0"/>
      <psa10 value="0.0298136011" flag="0"/>
      <psa30 value="0.0017271445" flag="0"/>
    </comp>
    <comp name="--.HHZ">
      <acc value="0.0388704845" flag="0"/>
      <vel value="0.0136813964" flag="0"/>
      <psa03 value="0.0672144599" flag="0"/>
      <psa10 value="0.0052585544" flag="0"/>
      <psa30 value="0.0004286264" flag="0"/>
    </comp>
  </station>
  <station code="BIR" name="BIR" netid="RO" insttype="MBB2/Quanterra" commtype="DIG" lat="46.2334" lon="27.6436">
    <comp name="--.HHE">
      <acc value="0.0072374605" flag="0"/>
      <vel value="0.0025080717" flag="0"/>
      <psa03 value="0.0141751969" flag="0"/>
      <psa10 value="0.0035197322" flag="0"/>
      <psa30 value="0.0004524242" flag="0"/>
    </comp>
    <comp name="--.HHZ">
      <acc value="0.0056527976" flag="0"/>
      <vel value="0.0021182643" flag="0"/>
      <psa03 value="0.0083480835" flag="0"/>
      <psa10 value="0.0022970688" flag="0"/>
      <psa30 value="0.0001622755" flag="0"/>
    </comp>
    <comp name="--.HHN">
      <acc value="0.0077486167" flag="0"/>
      <vel value="0.0026941055" flag="0"/>
      <psa03 value="0.0124368122" flag="0"/>
      <psa10 value="0.0045155690" flag="0"/>
      <psa30 value="0.0003598806" flag="0"/>
    </comp>
  </station>
  <station code="BISRR" name="BISRR" netid="RO" insttype="CMG40T.1to100/Basalt" commtype="DIG" lat="45.5481" lon="26.7099">
    <comp name="--.HHN">
      <acc value="0.2142867056" flag="0"/>
      <vel value="0.0678053906" flag="0"/>
      <psa03 value="0.2536419259" flag="0"/>
      <psa10 value="0.0819648510" flag="0"/>
      <psa30 value="0.0062702848" flag="0"/>
    </comp>
    <comp name="--.HHE">
      <acc value="0.4130698772" flag="0"/>
      <vel value="0.1351221881" flag="0"/>
      <psa03 value="0.2923126273" flag="0"/>
      <psa10 value="0.0668468146" flag="0"/>
      <psa30 value="0.0055071637" flag="0"/>
    </comp>
    <comp name="--.HHZ">
      <acc value="0.1610447631" flag="0"/>
      <vel value="0.0320715660" flag="0"/>
      <psa03 value="0.1920048594" flag="0"/>
      <psa10 value="0.0192553766" flag="0"/>
      <psa30 value="0.0010369559" flag="0"/>
    </comp>
  </station>
  <station code="CFR" name="CFR" netid="RO" insttype="CMG3T_100sec/Quanterra" commtype="DIG" lat="45.178" lon="28.1362">
    <comp name="--.HHE">
      <acc value="0.0228460908" flag="0"/>
      <vel value="0.0049426100" flag="0"/>
      <psa03 value="0.0203805161" flag="0"/>
      <psa10 value="0.0014401686" flag="0"/>
      <psa30 value="0.0000995444" flag="0"/>
    </comp>
    <comp name="--.HHN">
      <acc value="0.0301608674" flag="0"/>
      <vel value="0.0071874383" flag="0"/>
      <psa03 value="0.0357904399" flag="0"/>
      <psa10 value="0.0021940954" flag="0"/>
      <psa30 value="0.0001771585" flag="0"/>
    </comp>
    <comp name="--.HHZ">
      <acc value="0.0124880594" flag="0"/>
      <vel value="0.0030146040" flag="0"/>
      <psa03 value="0.0201359114" flag="0"/>
      <psa10 value="0.0025809809" flag="0"/>
      <psa30 value="0.0001686312" flag="0"/>
    </comp>
  </station>
  <station code="DOPR" name="DOPR" netid="RO" insttype="330" commtype="DIG" lat="45.9675" lon="25.3886">
    <comp name="--.HHN">
      <acc value="0.0021460777" flag="0"/>
      <vel value="0.0014398496" flag="0"/>
      <psa03 value="0.0043506483" flag="0"/>
      <psa10 value="0.0018366136" flag="0"/>
      <psa30 value="0.0001865688" flag="0"/>
    </comp>
    <comp name="--.HHE">
      <acc value="0.0031966601" flag="0"/>
      <vel value="0.0013116301" flag="0"/>
      <psa03 value="0.0044655453" flag="0"/>
      <psa10 value="0.0015620469" flag="0"/>
      <psa30 value="0.0001713200" flag="0"/>
    </comp>
    <comp name="--.HHZ">
      <acc value="0.0020509360" flag="0"/>
      <vel value="0.0005507383" flag="0"/>
      <psa03 value="0.0031572269" flag="0"/>
      <psa10 value="0.0007858383" flag="0"/>
      <psa30 value="0.0001108554" flag="0"/>
    </comp>
  </station>
  <station code="GISR" name="GISR" netid="RO" insttype="2.5V" commtype="DIG" lat="45.4411" lon="28.0541">
    <comp name="--.HNE">
      <acc value="0.0219426140" flag="0"/>
      <vel value="0.0114170629" flag="0"/>
      <psa03 value="0.0604121384" flag="0"/>
      <psa10 value="0.0133918062" flag="0"/>
      <psa30 value="0.0007899557" flag="0"/>
    </comp>
    <comp name="--.HNZ">
      <acc value="0.0196489326" flag="0"/>
      <vel value="0.0054707537" flag="0"/>
      <psa03 value="0.0236169165" flag="0"/>
      <psa10 value="0.0034732489" flag="0"/>
      <psa30 value="0.0005133464" flag="0"/>
    </comp>
    <comp name="--.HNN">
      <acc value="0.0175109645" flag="0"/>
      <vel value="0.0089986980" flag="0"/>
      <psa03 value="0.0550956804" flag="0"/>
      <psa10 value="0.0070978824" flag="0"/>
      <psa30 value="0.0007799854" flag="0"/>
    </comp>
  </station>
  <station code="ISR" name="ISR" netid="RO" insttype="CMG3ESP/Quanterra" commtype="DIG" lat="45.1187" lon="26.5432">
    <comp name="--.HHZ">
      <acc value="0.0121230898" flag="0"/>
      <vel value="0.0087525150" flag="0"/>
      <psa03 value="0.0410923385" flag="0"/>
      <psa10 value="0.0145484993" flag="0"/>
      <psa30 value="0.0007900201" flag="0"/>
    </comp>
    <comp name="--.HHN">
      <acc value="0.0268186746" flag="0"/>
      <vel value="0.0177995662" flag="0"/>
      <psa03 value="0.1017217603" flag="0"/>
      <psa10 value="0.0240283036" flag="0"/>
      <psa30 value="0.0014749091" flag="0"/>
    </comp>
    <comp name="--.HHE">
      <acc value="0.0220659108" flag="0"/>
      <vel value="0.0176713374" flag="0"/>
      <psa03 value="0.0954521383" flag="0"/>
      <psa10 value="0.0238867719" flag="0"/>
      <psa30 value="0.0019658194" flag="0"/>
    </comp>
  </station>
  <station code="IZVR" name="IZVR" netid="RO" insttype="CMG40T.1to100/Quanterra" commtype="DIG" lat="45.5442" lon="27.7655">
    <comp name="--.HHN">
      <acc value="0.0132664445" flag="0"/>
      <vel value="0.0046636989" flag="0"/>
      <psa03 value="0.0149851242" flag="0"/>
      <psa10 value="0.0035944568" flag="0"/>
      <psa30 value="0.0004831257" flag="0"/>
    </comp>
    <comp name="--.HHE">
      <acc value="0.0185409965" flag="0"/>
      <vel value="0.0063168020" flag="0"/>
      <psa03 value="0.0195295034" flag="0"/>
      <psa10 value="0.0052032929" flag="0"/>
      <psa30 value="0.0003610105" flag="0"/>
    </comp>
    <comp name="--.HHZ">
      <acc value="0.0073731218" flag="0"/>
      <vel value="0.0016700300" flag="0"/>
      <psa03 value="0.0083918425" flag="0"/>
      <psa10 value="0.0017015655" flag="0"/>
      <psa30 value="0.0001280789" flag="0"/>
    </comp>
  </station>
  <station code="MLR" name="MLR" netid="RO" insttype="330HR" commtype="DIG" lat="45.4909" lon="25.945">
    <comp name="--.HHE">
      <acc value="0.0014524787" flag="0"/>
      <vel value="0.0019268011" flag="0"/>
      <psa03 value="0.0052897042" flag="0"/>
      <psa10 value="0.0020034563" flag="0"/>
      <psa30 value="0.0003389005" flag="0"/>
    </comp>
    <comp name="--.HHN">
      <acc value="0.0018513882" flag="0"/>
      <vel value="0.0024396958" flag="0"/>
      <psa03 value="0.0042705351" flag="0"/>
      <psa10 value="0.0021769525" flag="0"/>
      <psa30 value="0.0002526879" flag="0"/>
    </comp>
    <comp name="--.HHZ">
      <acc value="0.0012941684" flag="0"/>
      <vel value="0.0008200490" flag="0"/>
      <psa03 value="0.0035574426" flag="0"/>
      <psa10 value="0.0013997404" flag="0"/>
      <psa30 value="0.0001798350" flag="0"/>
    </comp>
  </station>
  <station code="NARR" name="NARR" netid="RO" insttype="OBS-SIO/Centaur" commtype="DIG" lat="45.8165" lon="26.7368">
    <comp name="--.HHE">
      <acc value="0.0203582918" flag="0"/>
      <vel value="0.0075985407" flag="0"/>
      <psa03 value="0.0663600528" flag="0"/>
      <psa10 value="0.0045338513" flag="0"/>
      <psa30 value="0.0007395528" flag="0"/>
    </comp>
    <comp name="--.HHN">
      <acc value="0.0203354350" flag="0"/>
      <vel value="0.0085276805" flag="0"/>
      <psa03 value="0.0783246199" flag="0"/>
      <psa10 value="0.0054046727" flag="0"/>
      <psa30 value="0.0013166898" flag="0"/>
    </comp>
    <comp name="--.HHZ">
      <acc value="0.0185010259" flag="0"/>
      <vel value="0.0046602323" flag="0"/>
      <psa03 value="0.0272883887" flag="0"/>
      <psa10 value="0.0013980693" flag="0"/>
      <psa30 value="0.0004734693" flag="0"/>
    </comp>
  </station>
  <station code="NEGRR" name="NEGRR" netid="RO" insttype="CMG40T.1to100/Quanterra" commtype="DIG" lat="45.5373" lon="27.8771">
    <comp name="--.HHE">
      <acc value="0.0185789483" flag="0"/>
      <vel value="0.0059111249" flag="0"/>
      <psa03 value="0.0291732268" flag="0"/>
      <psa10 value="0.0063722777" flag="0"/>
      <psa30 value="0.0002771555" flag="0"/>
    </comp>
    <comp name="--.HHN">
      <acc value="0.0215959155" flag="0"/>
      <vel value="0.0083371396" flag="0"/>
      <psa03 value="0.0263683414" flag="0"/>
      <psa10 value="0.0076332434" flag="0"/>
      <psa30 value="0.0005349151" flag="0"/>
    </comp>
    <comp name="--.HHZ">
      <acc value="0.0101886447" flag="0"/>
      <vel value="0.0030369144" flag="0"/>
      <psa03 value="0.0129501342" flag="0"/>
      <psa10 value="0.0023123673" flag="0"/>
      <psa30 value="0.0001818316" flag="0"/>
    </comp>
  </station>
  <station code="ODBI" name="ODBI" netid="RO" insttype="200" commtype="DIG" lat="45.7633" lon="27.0558">
    <comp name="--.HNE">
      <acc value="0.0166868687" flag="0"/>
      <vel value="0.0130176690" flag="0"/>
      <psa03 value="0.0403259257" flag="0"/>
      <psa10 value="0.0123197338" flag="0"/>
      <psa30 value="0.0011960032" flag="0"/>
    </comp>
    <comp name="--.HNZ">
      <acc value="0.0217241079" flag="0"/>
      <vel value="0.0067543361" flag="0"/>
      <psa03 value="0.0337188136" flag="0"/>
      <psa10 value="0.0046073538" flag="0"/>
      <psa30 value="0.0009855233" flag="0"/>
    </comp>
    <comp name="--.HNN">
      <acc value="0.0232111038" flag="0"/>
      <vel value="0.0181300983" flag="0"/>
      <psa03 value="0.0516312440" flag="0"/>
      <psa10 value="0.0139420895" flag="0"/>
      <psa30 value="0.0012588189" flag="0"/>
    </comp>
  </station>
  <station code="PANC" name="PANC" netid="RO" insttype="Seismometer/Basalt" commtype="DIG" lat="45.8723" lon="27.1477">
    <comp name="--.HHE">
      <acc value="0.0125870118" flag="0"/>
      <vel value="0.0065864948" flag="0"/>
      <psa03 value="0.0165411289" flag="0"/>
      <psa10 value="0.0079726663" flag="0"/>
      <psa30 value="0.0014022233" flag="0"/>
    </comp>
    <comp name="--.HHZ">
      <acc value="0.0186356780" flag="0"/>
      <vel value="0.0062288458" flag="0"/>
      <psa03 value="0.0202583233" flag="0"/>
      <psa10 value="0.0032568966" flag="0"/>
      <psa30 value="0.0005009377" flag="0"/>
    </comp>
    <comp name="--.HHN">
      <acc value="0.0113875613" flag="0"/>
      <vel value="0.0059724556" flag="0"/>
      <psa03 value="0.0189558672" flag="0"/>
      <psa10 value="0.0043048334" flag="0"/>
      <psa30 value="0.0018454259" flag="0"/>
    </comp>
  </station>
  <station code="PLAR" name="PLAR" netid="RO" insttype="200" commtype="DIG" lat="44.9142" lon="26.0274">
    <comp name="--.HNN">
      <acc value="0.0087064986" flag="0"/>
      <vel value="0.0053195573" flag="0"/>
      <psa03 value="0.0170960625" flag="0"/>
      <psa10 value="0.0057448172" flag="0"/>
      <psa30 value="0.0012122684" flag="0"/>
    </comp>
    <comp name="--.HNE">
      <acc value="0.0091027399" flag="0"/>
      <vel value="0.0053186911" flag="0"/>
      <psa03 value="0.0304991320" flag="0"/>
      <psa10 value="0.0066773382" flag="0"/>
      <psa30 value="0.0009464722" flag="0"/>
    </comp>
    <comp name="--.HNZ">
      <acc value="0.0043216963" flag="0"/>
      <vel value="0.0020140595" flag="0"/>
      <psa03 value="0.0055954673" flag="0"/>
      <psa10 value="0.0018028622" flag="0"/>
      <psa30 value="0.0007708564" flag="0"/>
    </comp>
  </station>
  <station code="PLOR" name="PLOR" netid="RO" insttype="MBB2/Quanterra" commtype="DIG" lat="45.8512" lon="26.6498">
    <comp name="--.HHZ">
      <acc value="0.0050956482" flag="0"/>
      <vel value="0.0024756801" flag="0"/>
      <psa03 value="0.0123787256" flag="0"/>
      <psa10 value="0.0018196512" flag="0"/>
      <psa30 value="0.0004064185" flag="0"/>
    </comp>
    <comp name="--.HHN">
      <acc value="0.0061011445" flag="0"/>
      <vel value="0.0038121833" flag="0"/>
      <psa03 value="0.0289256659" flag="0"/>
      <psa10 value="0.0042092120" flag="0"/>
      <psa30 value="0.0008255431" flag="0"/>
    </comp>
    <comp name="--.HHE">
      <acc value="0.0077773415" flag="0"/>
      <vel value="0.0038888343" flag="0"/>
      <psa03 value="0.0412364463" flag="0"/>
      <psa10 value="0.0046650537" flag="0"/>
      <psa30 value="0.0008185168" flag="0"/>
    </comp>
  </station>
  <station code="PLOR4" name="PLOR4" netid="RO" insttype="MBB2/Quanterra" commtype="DIG" lat="45.8512" lon="26.6498">
    <comp name="--.HHE">
      <acc value="0.0077773415" flag="0"/>
      <vel value="0.0038888343" flag="0"/>
      <psa03 value="0.0412364463" flag="0"/>
      <psa10 value="0.0046650537" flag="0"/>
      <psa30 value="0.0008185168" flag="0"/>
    </comp>
    <comp name="--.HHN">
      <acc value="0.0061011445" flag="0"/>
      <vel value="0.0038121833" flag="0"/>
      <psa03 value="0.0289256659" flag="0"/>
      <psa10 value="0.0042092120" flag="0"/>
      <psa30 value="0.0008255431" flag="0"/>
    </comp>
    <comp name="--.HHZ">
      <acc value="0.0050956482" flag="0"/>
      <vel value="0.0024756801" flag="0"/>
      <psa03 value="0.0123787256" flag="0"/>
      <psa10 value="0.0018196512" flag="0"/>
      <psa30 value="0.0004064185" flag="0"/>
    </comp>
  </station>
  <station code="SCHL" name="SCHL" netid="RO" insttype="CMG40T.1to100/Quanterra" commtype="DIG" lat="45.5007" lon="27.8302">
    <comp name="--.HHN">
      <acc value="0.0253404774" flag="0"/>
      <vel value="0.0158394700" flag="0"/>
      <psa03 value="0.0530933113" flag="0"/>
      <psa10 value="0.0127423782" flag="0"/>
      <psa30 value="0.0011132290" flag="0"/>
    </comp>
    <comp name="--.HHE">
      <acc value="0.0423426499" flag="0"/>
      <vel value="0.0153810928" flag="0"/>
      <psa03 value="0.0864374509" flag="0"/>
      <psa10 value="0.0074971252" flag="0"/>
      <psa30 value="0.0004829519" flag="0"/>
    </comp>
    <comp name="--.HHZ">
      <acc value="0.0195674242" flag="0"/>
      <vel value="0.0040941013" flag="0"/>
      <psa03 value="0.0246406462" flag="0"/>
      <psa10 value="0.0040309253" flag="0"/>
      <psa30 value="0.0002225219" flag="0"/>
    </comp>
  </station>
  <station code="SCHLR" name="SCHLR" netid="RO" insttype="CMG40T.1to100/Quanterra" commtype="DIG" lat="45.4702" lon="27.8314">
    <comp name="--.HHZ">
      <acc value="0.0136038885" flag="0"/>
      <vel value="0.0024919491" flag="0"/>
      <psa03 value="0.0142699302" flag="0"/>
      <psa10 value="0.0026476703" flag="0"/>
      <psa30 value="0.0001185534" flag="0"/>
    </comp>
    <comp name="--.HHN">
      <acc value="0.0193692606" flag="0"/>
      <vel value="0.0089749481" flag="0"/>
      <psa03 value="0.0256919003" flag="0"/>
      <psa10 value="0.0074293237" flag="0"/>
      <psa30 value="0.0004793916" flag="0"/>
    </comp>
    <comp name="--.HHE">
      <acc value="0.0178415642" flag="0"/>
      <vel value="0.0045236519" flag="0"/>
      <psa03 value="0.0274510349" flag="0"/>
      <psa10 value="0.0044774389" flag="0"/>
      <psa30 value="0.0002614033" flag="0"/>
    </comp>
  </station>
  <station code="SCTR" name="SCTR" netid="RO" insttype="MBB2/Basalt" commtype="DIG" lat="45.6741" lon="27.9949">
    <comp name="--.HHZ">
      <acc value="0.0102207384" flag="0"/>
      <vel value="0.0055315884" flag="0"/>
      <psa03 value="0.0183914405" flag="0"/>
      <psa10 value="0.0076938613" flag="0"/>
      <psa30 value="0.0002654516" flag="0"/>
    </comp>
    <comp name="--.HHE">
      <acc value="0.0161215494" flag="0"/>
      <vel value="0.0074427202" flag="0"/>
      <psa03 value="0.0290879432" flag="0"/>
      <psa10 value="0.0122762061" flag="0"/>
      <psa30 value="0.0006311703" flag="0"/>
    </comp>
    <comp name="--.HHN">
      <acc value="0.0197316440" flag="0"/>
      <vel value="0.0108050117" flag="0"/>
      <psa03 value="0.0404716834" flag="0"/>
      <psa10 value="0.0199135543" flag="0"/>
      <psa30 value="0.0008732571" flag="0"/>
    </comp>
  </station>
  <station code="SULR" name="SULR" netid="RO" insttype="330" commtype="DIG" lat="44.6777" lon="26.2526">
    <comp name="--.HHZ">
      <acc value="0.0107574669" flag="0"/>
      <vel value="0.0025230237" flag="0"/>
      <psa03 value="0.0107167659" flag="0"/>
      <psa10 value="0.0013044196" flag="0"/>
      <psa30 value="0.0001654088" flag="0"/>
    </comp>
    <comp name="--.HHN">
      <acc value="0.0084782230" flag="0"/>
      <vel value="0.0051078364" flag="0"/>
      <psa03 value="0.0139012505" flag="0"/>
      <psa10 value="0.0040645819" flag="0"/>
      <psa30 value="0.0004019817" flag="0"/>
    </comp>
    <comp name="--.HHE">
      <acc value="0.0087103128" flag="0"/>
      <vel value="0.0046143618" flag="0"/>
      <psa03 value="0.0197546163" flag="0"/>
      <psa10 value="0.0028465557" flag="0"/>
      <psa30 value="0.0005262977" flag="0"/>
    </comp>
  </station>
  <station code="TATR" name="TATR" netid="RO" insttype="MBB2/Basalt" commtype="DIG" lat="45.5977" lon="28.0498">
    <comp name="--.HHN">
      <acc value="0.0176452776" flag="0"/>
      <vel value="0.0125163172" flag="0"/>
      <psa03 value="0.0424925640" flag="0"/>
      <psa10 value="0.0157777959" flag="0"/>
      <psa30 value="0.0010649427" flag="0"/>
    </comp>
    <comp name="--.HHE">
      <acc value="0.0183979744" flag="0"/>
      <vel value="0.0101342239" flag="0"/>
      <psa03 value="0.0274632727" flag="0"/>
      <psa10 value="0.0106756311" flag="0"/>
      <psa30 value="0.0006070868" flag="0"/>
    </comp>
    <comp name="--.HHZ">
      <acc value="0.0252008416" flag="0"/>
      <vel value="0.0061423309" flag="0"/>
      <psa03 value="0.0126388161" flag="0"/>
      <psa10 value="0.0030800728" flag="0"/>
      <psa30 value="0.0001789049" flag="0"/>
    </comp>
  </station>
  <station code="TESR" name="TESR" netid="RO" insttype="330" commtype="DIG" lat="46.5118" lon="26.6489">
    <comp name="--.HHZ">
      <acc value="0.0026669855" flag="0"/>
      <vel value="0.0008640998" flag="0"/>
      <psa03 value="0.0036724260" flag="0"/>
      <psa10 value="0.0010347180" flag="0"/>
      <psa30 value="0.0002783827" flag="0"/>
    </comp>
    <comp name="--.HHE">
      <acc value="0.0020923613" flag="0"/>
      <vel value="0.0010753443" flag="0"/>
      <psa03 value="0.0069607128" flag="0"/>
      <psa10 value="0.0017903071" flag="0"/>
      <psa30 value="0.0002673696" flag="0"/>
    </comp>
    <comp name="--.HHN">
      <acc value="0.0015567097" flag="0"/>
      <vel value="0.0011038514" flag="0"/>
      <psa03 value="0.0053316183" flag="0"/>
      <psa10 value="0.0019735740" flag="0"/>
      <psa30 value="0.0002768113" flag="0"/>
    </comp>
  </station>
