<?xml version="1.0" encoding="UTF-8" standalone="yes"?>
<!DOCTYPE earthquake SYSTEM "stationlist.dtd">
<stationlist created="" xmlns="ch.ethz.sed.shakemap.usgs.xml">
  <station code="JAN3" name="JAN3" netid="HI" insttype="unknown" commtype="DIG" lat="39.684" lon="20.8379">
    <comp name="--.HNE">
      <acc value="0.0114303833" flag="0"/>
      <vel value="0.0031608910" flag="0"/>
      <psa03 value="0.0112062866" flag="0"/>
      <psa10 value="0.0003929977" flag="0"/>
      <psa30 value="0.0000502282" flag="0"/>
    </comp>
    <comp name="--.HNN">
      <acc value="0.0071179702" flag="0"/>
      <vel value="0.0017252717" flag="0"/>
      <psa03 value="0.0068503280" flag="0"/>
      <psa10 value="0.0003443733" flag="0"/>
      <psa30 value="0.0000686414" flag="0"/>
    </comp>
    <comp name="--.HNZ">
      <acc value="0.0065810766" flag="0"/>
      <vel value="0.0011364074" flag="0"/>
      <psa03 value="0.0026699790" flag="0"/>
      <psa10 value="0.0003985193" flag="0"/>
      <psa30 value="0.0001281972" flag="0"/>
    </comp>
  </station>
  <station code="JAN" name="JAN" netid="HL" insttype="CMG3EPSC60_DR24" commtype="DIG" lat="39.6562" lon="20.8487">
    <comp name="--.HHN">
      <acc value="0.0035667772" flag="0"/>
      <vel value="0.0008333284" flag="0"/>
      <psa03 value="0.0037285030" flag="0"/>
      <psa10 value="0.0003023136" flag="0"/>
      <psa30 value="0.0000347698" flag="0"/>
    </comp>
    <comp name="--.HHZ">
      <acc value="0.0019969259" flag="0"/>
      <vel value="0.0003708441" flag="0"/>
      <psa03 value="0.0011950074" flag="0"/>
      <psa10 value="0.0001063112" flag="0"/>
      <psa30 value="0.0000131250" flag="0"/>
    </comp>
    <comp name="--.HHE">
      <acc value="0.0044782515" flag="0"/>
      <vel value="0.0010550857" flag="0"/>
      <psa03 value="0.0040580995" flag="0"/>
      <psa10 value="0.0001437067" flag="0"/>
      <psa30 value="0.0000159052" flag="0"/>
    </comp>
  </station>
</stationlist>
