<?xml version="1.0" encoding="UTF-8" standalone="yes"?>
<!DOCTYPE earthquake SYSTEM "stationlist.dtd">
<stationlist created="" xmlns="ch.ethz.sed.shakemap.usgs.xml">
  <station code="ZKR" name="ZKR" netid="GE" insttype="STS-2/N" commtype="DIG" lat="35.1147" lon="26.2169">
    <comp name="--.HHE">
      <acc value="0.0479401072" flag="0"/>
      <vel value="0.0128237853" flag="0"/>
      <psa03 value="0.0488768652" flag="0"/>
      <psa10 value="0.0039983293" flag="0"/>
      <psa30 value="0.0002967383" flag="0"/>
    </comp>
    <comp name="--.HHN">
      <acc value="0.0224944678" flag="0"/>
      <vel value="0.0055916257" flag="0"/>
      <psa03 value="0.0249534901" flag="0"/>
      <psa10 value="0.0020338262" flag="0"/>
      <psa30 value="0.0001827525" flag="0"/>
    </comp>
    <comp name="--.HHZ">
      <acc value="0.0247971423" flag="0"/>
      <vel value="0.0061712402" flag="0"/>
      <psa03 value="0.0251590871" flag="0"/>
      <psa10 value="0.0027481298" flag="0"/>
      <psa30 value="0.0001308882" flag="0"/>
    </comp>
  </station>
  <station code="SNT1" name="SNT1" netid="HA" insttype="30" commtype="DIG" lat="36.4159" lon="25.4282">
    <comp name="--.HHE">
      <acc value="0.0112453701" flag="0"/>
      <vel value="0.0054282436" flag="0"/>
      <psa03 value="0.0255038752" flag="0"/>
      <psa10 value="0.0037931817" flag="0"/>
      <psa30 value="0.0007956792" flag="0"/>
    </comp>
    <comp name="--.HHZ">
      <acc value="0.0124583010" flag="0"/>
      <vel value="0.0032269997" flag="0"/>
      <psa03 value="0.0173871336" flag="0"/>
      <psa10 value="0.0023580036" flag="0"/>
      <psa30 value="0.0001909679" flag="0"/>
    </comp>
    <comp name="--.HHN">
      <acc value="0.0077281158" flag="0"/>
      <vel value="0.0046856690" flag="0"/>
      <psa03 value="0.0228272289" flag="0"/>
      <psa10 value="0.0024975841" flag="0"/>
      <psa30 value="0.0006266797" flag="0"/>
    </comp>
  </station>
  <station code="SNT5" name="SNT5" netid="HA" insttype="1s-100Hz," commtype="DIG" lat="36.4037" lon="25.3953">
    <comp name="--.HHE">
      <acc value="0.0499004396" flag="0"/>
      <vel value="0.0126040337" flag="0"/>
      <psa03 value="0.0643485770" flag="0"/>
      <psa10 value="0.0034972817" flag="0"/>
      <psa30 value="0.0011053160" flag="0"/>
    </comp>
    <comp name="--.HHN">
      <acc value="0.0093987762" flag="0"/>
      <vel value="0.0008373431" flag="0"/>
      <psa03 value="0.0005683459" flag="0"/>
      <psa10 value="0.0003030681" flag="0"/>
      <psa30 value="0.0004824556" flag="0"/>
    </comp>
    <comp name="--.HHZ">
      <acc value="0.0151182919" flag="0"/>
      <vel value="0.0031218078" flag="0"/>
      <psa03 value="0.0127905875" flag="0"/>
      <psa10 value="0.0022445319" flag="0"/>
      <psa30 value="0.0002489299" flag="0"/>
    </comp>
  </station>
  <station code="KNSS" name="KNSS" netid="HC" insttype="60" commtype="DIG" lat="35.3042" lon="25.1802">
    <comp name="--.HHN">
      <acc value="0.0304443890" flag="0"/>
      <vel value="0.0063429029" flag="0"/>
      <psa03 value="0.0268553737" flag="0"/>
      <psa10 value="0.0013211854" flag="0"/>
      <psa30 value="0.0001277692" flag="0"/>
    </comp>
    <comp name="--.HHZ">
      <acc value="0.0336095156" flag="0"/>
      <vel value="0.0061697628" flag="0"/>
      <psa03 value="0.0164555322" flag="0"/>
      <psa10 value="0.0009042683" flag="0"/>
      <psa30 value="0.0000972743" flag="0"/>
    </comp>
    <comp name="--.HHE">
      <acc value="0.0000000000" flag="0"/>
      <vel value="-100.0000000000" flag="0"/>
      <psa03 value="0.0000000000" flag="0"/>
      <psa10 value="0.0000000000" flag="0"/>
      <psa30 value="0.0000000000" flag="0"/>
    </comp>
  </station>
  <station code="PFKS" name="PFKS" netid="HC" insttype="120" commtype="DIG" lat="35.0429" lon="25.4733">
    <comp name="--.HHE">
      <acc value="0.0266202174" flag="0"/>
      <vel value="0.0061446627" flag="0"/>
      <psa03 value="0.0341588967" flag="0"/>
      <psa10 value="0.0037136459" flag="0"/>
      <psa30 value="0.0001993016" flag="0"/>
    </comp>
    <comp name="--.HHN">
      <acc value="0.0428333127" flag="0"/>
      <vel value="0.0086067606" flag="0"/>
      <psa03 value="0.0456282648" flag="0"/>
      <psa10 value="0.0030948736" flag="0"/>
      <psa30 value="0.0001502588" flag="0"/>
    </comp>
    <comp name="--.HHZ">
      <acc value="0.0165128367" flag="0"/>
      <vel value="0.0040807048" flag="0"/>
      <psa03 value="0.0156775797" flag="0"/>
      <psa10 value="0.0014225886" flag="0"/>
      <psa30 value="0.0001337399" flag="0"/>
    </comp>
  </station>
  <station code="STIA" name="STIA" netid="HC" insttype="120" commtype="DIG" lat="35.2021" lon="26.0909">
    <comp name="--.HHE">
      <acc value="0.0809899149" flag="0"/>
      <vel value="0.0182213390" flag="0"/>
      <psa03 value="0.1173262504" flag="0"/>
      <psa10 value="0.0056132913" flag="0"/>
      <psa30 value="0.0003755624" flag="0"/>
    </comp>
    <comp name="--.HHZ">
      <acc value="0.0627669032" flag="0"/>
      <vel value="0.0099315599" flag="0"/>
      <psa03 value="0.0384875686" flag="0"/>
      <psa10 value="0.0024019611" flag="0"/>
      <psa30 value="0.0001626697" flag="0"/>
    </comp>
    <comp name="--.HHN">
      <acc value="0.0000000000" flag="0"/>
      <vel value="-100.0000000000" flag="0"/>
      <psa03 value="0.0000000000" flag="0"/>
      <psa10 value="0.0000000000" flag="0"/>
      <psa30 value="0.0000000000" flag="0"/>
    </comp>
  </station>
  <station code="AGN1" name="AGN1" netid="HI" insttype="unknown" commtype="DIG" lat="35.1879" lon="25.7155">
    <comp name="--.HNE">
      <acc value="0.0002560033" flag="0"/>
      <vel value="0.0001474473" flag="0"/>
      <psa03 value="0.0003122033" flag="0"/>
      <psa10 value="0.0001410922" flag="0"/>
      <psa30 value="0.0001029529" flag="0"/>
    </comp>
    <comp name="--.HNN">
      <acc value="0.0845501729" flag="0"/>
      <vel value="0.0204110833" flag="0"/>
      <psa03 value="0.1383274961" flag="0"/>
      <psa10 value="0.0059210356" flag="0"/>
      <psa30 value="0.0003637674" flag="0"/>
    </comp>
    <comp name="--.HNZ">
      <acc value="0.0338884173" flag="0"/>
      <vel value="0.0069665043" flag="0"/>
      <psa03 value="0.0240508391" flag="0"/>
      <psa10 value="0.0014121715" flag="0"/>
      <psa30 value="0.0001277847" flag="0"/>
    </comp>
  </station>
  <station code="ARK1" name="ARK1" netid="HI" insttype="unknown" commtype="DIG" lat="35.1488" lon="25.2642">
    <comp name="--.HNN">
      <acc value="0.0256614094" flag="0"/>
      <vel value="0.0068892090" flag="0"/>
      <psa03 value="0.0369027725" flag="0"/>
      <psa10 value="0.0024930055" flag="0"/>
      <psa30 value="0.0002662126" flag="0"/>
    </comp>
    <comp name="--.HNE">
      <acc value="0.0224780932" flag="0"/>
      <vel value="0.0057899928" flag="0"/>
      <psa03 value="0.0219950973" flag="0"/>
      <psa10 value="0.0024199201" flag="0"/>
      <psa30 value="0.0002079608" flag="0"/>
    </comp>
    <comp name="--.HNZ">
      <acc value="0.0230030428" flag="0"/>
      <vel value="0.0048544528" flag="0"/>
      <psa03 value="0.0208441675" flag="0"/>
      <psa10 value="0.0020609076" flag="0"/>
      <psa30 value="0.0001214581" flag="0"/>
    </comp>
  </station>
  <station code="HER1" name="HER1" netid="HI" insttype="unknown" commtype="DIG" lat="35.3177" lon="25.1022">
    <comp name="--.HNN">
      <acc value="0.0387776118" flag="0"/>
      <vel value="0.0110647558" flag="0"/>
      <psa03 value="0.0662964964" flag="0"/>
      <psa10 value="0.0047909593" flag="0"/>
      <psa30 value="0.0003575580" flag="0"/>
    </comp>
    <comp name="--.HNE">
      <acc value="0.0387703561" flag="0"/>
      <vel value="0.0092372996" flag="0"/>
      <psa03 value="0.0575462637" flag="0"/>
      <psa10 value="0.0050281118" flag="0"/>
      <psa30 value="0.0003816448" flag="0"/>
    </comp>
    <comp name="--.HNZ">
      <acc value="0.0399404492" flag="0"/>
      <vel value="0.0098545894" flag="0"/>
      <psa03 value="0.0367390330" flag="0"/>
      <psa10 value="0.0058715534" flag="0"/>
      <psa30 value="0.0003000400" flag="0"/>
    </comp>
  </station>
  <station code="KSS1" name="KSS1" netid="HI" insttype="CMG-5TD,ACCELEROMETER,GURALP" commtype="DIG" lat="35.4189" lon="26.9207">
    <comp name="--.HNZ">
      <acc value="0.0559942017" flag="0"/>
      <vel value="0.0073413868" flag="0"/>
      <psa03 value="0.0241653058" flag="0"/>
      <psa10 value="0.0015498031" flag="0"/>
      <psa30 value="0.0001549530" flag="0"/>
    </comp>
    <comp name="--.HNN">
      <acc value="0.1026942894" flag="0"/>
      <vel value="0.0236252828" flag="0"/>
      <psa03 value="0.0902384071" flag="0"/>
      <psa10 value="0.0035896998" flag="0"/>
      <psa30 value="0.0002704030" flag="0"/>
    </comp>
    <comp name="--.HNE">
      <acc value="0.0799746996" flag="0"/>
      <vel value="0.0167620481" flag="0"/>
      <psa03 value="0.0884372225" flag="0"/>
      <psa10 value="0.0028528845" flag="0"/>
      <psa30 value="0.0004169799" flag="0"/>
    </comp>
  </station>
  <station code="SFR2" name="SFR2" netid="HI" insttype="unknown" commtype="DIG" lat="36.3998" lon="25.4382">
    <comp name="--.HNE">
      <acc value="0.0248254548" flag="0"/>
      <vel value="0.0105479640" flag="0"/>
      <psa03 value="0.0668120635" flag="0"/>
      <psa10 value="0.0104289243" flag="0"/>
      <psa30 value="0.0008735967" flag="0"/>
    </comp>
    <comp name="--.HNN">
      <acc value="0.0241400033" flag="0"/>
      <vel value="0.0099598471" flag="0"/>
      <psa03 value="0.0602005448" flag="0"/>
      <psa10 value="0.0060604397" flag="0"/>
      <psa30 value="0.0003871523" flag="0"/>
    </comp>
    <comp name="--.HNZ">
      <acc value="0.0296879031" flag="0"/>
      <vel value="0.0087394752" flag="0"/>
      <psa03 value="0.0632163404" flag="0"/>
      <psa10 value="0.0041251311" flag="0"/>
      <psa30 value="0.0004070909" flag="0"/>
    </comp>
  </station>
  <station code="SIT2" name="SIT2" netid="HI" insttype="CMG-5TD,ACCELEROMETER,GURALP" commtype="DIG" lat="35.2059" lon="26.107">
    <comp name="--.HNE">
      <acc value="0.0516659324" flag="0"/>
      <vel value="0.0215844130" flag="0"/>
      <psa03 value="0.1937487751" flag="0"/>
      <psa10 value="0.0103268351" flag="0"/>
      <psa30 value="0.0006592933" flag="0"/>
    </comp>
    <comp name="--.HNN">
      <acc value="0.0695400572" flag="0"/>
      <vel value="0.0323802345" flag="0"/>
      <psa03 value="0.2457841570" flag="0"/>
      <psa10 value="0.0135847073" flag="0"/>
      <psa30 value="0.0008353625" flag="0"/>
    </comp>
    <comp name="--.HNZ">
      <acc value="0.0944021860" flag="0"/>
      <vel value="0.0262225996" flag="0"/>
      <psa03 value="0.1651210591" flag="0"/>
      <psa10 value="0.0044540088" flag="0"/>
      <psa30 value="0.0005133203" flag="0"/>
    </comp>
  </station>
  <station code="AMGA" name="AMGA" netid="HL" insttype="LE3D20_SMART24" commtype="DIG" lat="36.8316" lon="25.8938">
    <comp name="--.HHE">
      <acc value="0.0102399674" flag="0"/>
      <vel value="0.0042383553" flag="0"/>
      <psa03 value="0.0094777395" flag="0"/>
      <psa10 value="0.0041376157" flag="0"/>
      <psa30 value="0.0004036064" flag="0"/>
    </comp>
    <comp name="--.HHZ">
      <acc value="0.0146244929" flag="0"/>
      <vel value="0.0058733875" flag="0"/>
      <psa03 value="0.0329453748" flag="0"/>
      <psa10 value="0.0016816446" flag="0"/>
      <psa30 value="0.0003913957" flag="0"/>
    </comp>
    <comp name="--.HHN">
      <acc value="0.0106198275" flag="0"/>
      <vel value="0.0057032036" flag="0"/>
      <psa03 value="0.0215640579" flag="0"/>
      <psa10 value="0.0043913365" flag="0"/>
      <psa30 value="0.0003099766" flag="0"/>
    </comp>
  </station>
  <station code="ANAF" name="ANAF" netid="HL" insttype="LE3D20_SMART24" commtype="DIG" lat="36.3567" lon="25.7726">
    <comp name="--.HHN">
      <acc value="0.1837658918" flag="0"/>
      <vel value="0.0631660837" flag="0"/>
      <psa03 value="0.3330186701" flag="0"/>
      <psa10 value="0.0138472852" flag="0"/>
      <psa30 value="0.0014218440" flag="0"/>
    </comp>
    <comp name="--.HHZ">
      <acc value="0.2076380688" flag="0"/>
      <vel value="0.0328494446" flag="0"/>
      <psa03 value="0.0864068849" flag="0"/>
      <psa10 value="0.0057217007" flag="0"/>
      <psa30 value="0.0005889575" flag="0"/>
    </comp>
    <comp name="--.HHE">
      <acc value="0.1749954094" flag="0"/>
      <vel value="0.0325940029" flag="0"/>
      <psa03 value="0.2387669424" flag="0"/>
      <psa10 value="0.0150007870" flag="0"/>
      <psa30 value="0.0011376906" flag="0"/>
    </comp>
  </station>
  <station code="ASTA" name="ASTA" netid="HL" insttype="LE3D20_SMART24" commtype="DIG" lat="36.5475" lon="26.3471">
    <comp name="--.HHZ">
      <acc value="0.0259290295" flag="0"/>
      <vel value="0.0065174695" flag="0"/>
      <psa03 value="0.0194601387" flag="0"/>
      <psa10 value="0.0015907090" flag="0"/>
      <psa30 value="0.0001772595" flag="0"/>
    </comp>
    <comp name="--.HHE">
      <acc value="0.0175961874" flag="0"/>
      <vel value="0.0039038487" flag="0"/>
      <psa03 value="0.0099693115" flag="0"/>
      <psa10 value="0.0008013736" flag="0"/>
      <psa30 value="0.0001279748" flag="0"/>
    </comp>
    <comp name="--.HHN">
      <acc value="0.0124607665" flag="0"/>
      <vel value="0.0032025771" flag="0"/>
      <psa03 value="0.0116180525" flag="0"/>
      <psa10 value="0.0006444382" flag="0"/>
      <psa30 value="0.0001716100" flag="0"/>
    </comp>
  </station>
  <station code="IDI" name="IDI" netid="HL" insttype="120" commtype="DIG" lat="35.288" lon="24.89">
    <comp name="--.HHN">
      <acc value="0.0238598070" flag="0"/>
      <vel value="0.0039060376" flag="0"/>
      <psa03 value="0.0113982645" flag="0"/>
      <psa10 value="0.0005533462" flag="0"/>
      <psa30 value="0.0000520545" flag="0"/>
    </comp>
    <comp name="--.HHE">
      <acc value="0.0169823687" flag="0"/>
      <vel value="0.0034503955" flag="0"/>
      <psa03 value="0.0129233512" flag="0"/>
      <psa10 value="0.0006336371" flag="0"/>
      <psa30 value="0.0000583926" flag="0"/>
    </comp>
    <comp name="--.HHZ">
      <acc value="0.0172346994" flag="0"/>
      <vel value="0.0025842551" flag="0"/>
      <psa03 value="0.0118868163" flag="0"/>
      <psa10 value="0.0004546814" flag="0"/>
      <psa30 value="0.0000511404" flag="0"/>
    </comp>
  </station>
  <station code="NPS" name="NPS" netid="HL" insttype="CMG3ESPC-120s" commtype="DIG" lat="35.2613" lon="25.6104">
    <comp name="--.HHZ">
      <acc value="0.0703359945" flag="0"/>
      <vel value="0.0134300058" flag="0"/>
      <psa03 value="0.0249212392" flag="0"/>
      <psa10 value="0.0023787775" flag="0"/>
      <psa30 value="0.0001730787" flag="0"/>
    </comp>
    <comp name="--.HHE">
      <acc value="0.0200243860" flag="0"/>
      <vel value="0.0042700339" flag="0"/>
      <psa03 value="0.0143585222" flag="0"/>
      <psa10 value="0.0012886087" flag="0"/>
      <psa30 value="0.0000991379" flag="0"/>
    </comp>
    <comp name="--.HHN">
      <acc value="0.0700043878" flag="0"/>
      <vel value="0.0123004367" flag="0"/>
      <psa03 value="0.0346258273" flag="0"/>
      <psa10 value="0.0035194790" flag="0"/>
      <psa30 value="0.0002699741" flag="0"/>
    </comp>
  </station>
  <station code="SANT" name="SANT" netid="HL" insttype="30" commtype="DIG" lat="36.3705" lon="25.4593">
    <comp name="--.HHZ">
      <acc value="0.0227775340" flag="0"/>
      <vel value="0.0059507485" flag="0"/>
      <psa03 value="0.0230565380" flag="0"/>
      <psa10 value="0.0023884509" flag="0"/>
      <psa30 value="0.0001348349" flag="0"/>
    </comp>
    <comp name="--.HHE">
      <acc value="0.0292933418" flag="0"/>
      <vel value="0.0126191865" flag="0"/>
      <psa03 value="0.0415556062" flag="0"/>
      <psa10 value="0.0081963894" flag="0"/>
      <psa30 value="0.0007094938" flag="0"/>
    </comp>
    <comp name="--.HHN">
      <acc value="0.0271474520" flag="0"/>
      <vel value="0.0078853553" flag="0"/>
      <psa03 value="0.0330471122" flag="0"/>
      <psa10 value="0.0024361174" flag="0"/>
      <psa30 value="0.0001856818" flag="0"/>
    </comp>
  </station>
  <station code="AKRO" name="AKRO" netid="HT" insttype="Compact," commtype="DIG" lat="36.3584" lon="25.3967">
    <comp name="--.HHE">
      <acc value="0.0508629431" flag="0"/>
      <vel value="0.0219319229" flag="0"/>
      <psa03 value="0.0671636165" flag="0"/>
      <psa10 value="0.0112958294" flag="0"/>
      <psa30 value="0.0010508920" flag="0"/>
    </comp>
    <comp name="--.HHN">
      <acc value="0.0469918594" flag="0"/>
      <vel value="0.0113586133" flag="0"/>
      <psa03 value="0.0493796086" flag="0"/>
      <psa10 value="0.0074989450" flag="0"/>
      <psa30 value="0.0006170666" flag="0"/>
    </comp>
    <comp name="--.HHZ">
      <acc value="0.0280438522" flag="0"/>
      <vel value="0.0077891657" flag="0"/>
      <psa03 value="0.0516048263" flag="0"/>
      <psa10 value="0.0032064046" flag="0"/>
      <psa30 value="0.0004168319" flag="0"/>
    </comp>
  </station>
  <station code="ANYD" name="ANYD" netid="HT" insttype="120" commtype="DIG" lat="36.63" lon="25.6779">
    <comp name="--.HHE">
      <acc value="0.0079393943" flag="0"/>
      <vel value="0.0037728633" flag="0"/>
      <psa03 value="0.0139220784" flag="0"/>
      <psa10 value="0.0038783478" flag="0"/>
      <psa30 value="0.0003398763" flag="0"/>
    </comp>
    <comp name="--.HHN">
      <acc value="0.0092568315" flag="0"/>
      <vel value="0.0040003030" flag="0"/>
      <psa03 value="0.0170232637" flag="0"/>
      <psa10 value="0.0029147421" flag="0"/>
      <psa30 value="0.0002420835" flag="0"/>
    </comp>
    <comp name="--.HHZ">
      <acc value="0.0121879395" flag="0"/>
      <vel value="0.0041859404" flag="0"/>
      <psa03 value="0.0176818329" flag="0"/>
      <psa10 value="0.0011086906" flag="0"/>
      <psa30 value="0.0001359040" flag="0"/>
    </comp>
  </station>
  <station code="GVRL" name="GVRL" netid="HT" insttype="" commtype="DIG" lat="36.3456" lon="25.4383">
    <comp name="--.HHZ">
      <acc value="0.0131364221" flag="0"/>
      <vel value="0.0030756830" flag="0"/>
      <psa03 value="0.0083030147" flag="0"/>
      <psa10 value="0.0008375147" flag="0"/>
      <psa30 value="0.0001321139" flag="0"/>
    </comp>
    <comp name="--.HHN">
      <acc value="0.0129713182" flag="0"/>
      <vel value="0.0065189084" flag="0"/>
      <psa03 value="0.0340897476" flag="0"/>
      <psa10 value="0.0028046451" flag="0"/>
      <psa30 value="0.0003750808" flag="0"/>
    </comp>
    <comp name="--.HHE">
      <acc value="0.0247375054" flag="0"/>
      <vel value="0.0164100638" flag="0"/>
      <psa03 value="0.0882615598" flag="0"/>
      <psa10 value="0.0086835002" flag="0"/>
      <psa30 value="0.0008735524" flag="0"/>
    </comp>
  </station>
  <station code="THR5" name="THR5" netid="HT" insttype="" commtype="DIG" lat="36.4172" lon="25.3479">
    <comp name="--.HHE">
      <acc value="0.0240410381" flag="0"/>
      <vel value="0.0081715467" flag="0"/>
      <psa03 value="0.0481497348" flag="0"/>
      <psa10 value="0.0062342450" flag="0"/>
      <psa30 value="0.0007959414" flag="0"/>
    </comp>
    <comp name="--.HHN">
      <acc value="0.0140067937" flag="0"/>
      <vel value="0.0050733695" flag="0"/>
      <psa03 value="0.0275901594" flag="0"/>
      <psa10 value="0.0031302657" flag="0"/>
      <psa30 value="0.0007674538" flag="0"/>
    </comp>
    <comp name="--.HHZ">
      <acc value="0.0146389844" flag="0"/>
      <vel value="0.0036565997" flag="0"/>
      <psa03 value="0.0213222948" flag="0"/>
      <psa10 value="0.0017171018" flag="0"/>
      <psa30 value="0.0002042945" flag="0"/>
    </comp>
  </station>
  <station code="IDI" name="IDI" netid="MN" insttype="" commtype="DIG" lat="35.288" lon="24.89">
