<?xml version="1.0" encoding="UTF-8" standalone="yes"?>
<!DOCTYPE earthquake SYSTEM "stationlist.dtd">
<stationlist created="" xmlns="ch.ethz.sed.shakemap.usgs.xml">
  <station code="ZKR" name="ZKR" netid="GE" insttype="STS-2/N" commtype="DIG" lat="35.1147" lon="26.2169">
    <comp name="--.HHN">
      <acc value="0.0224944677" flag="0"/>
      <vel value="0.0055916254" flag="0"/>
      <psa03 value="0.0249534901" flag="0"/>
      <psa10 value="0.0020338262" flag="0"/>
      <psa30 value="0.0001829072" flag="0"/>
    </comp>
    <comp name="--.HHZ">
      <acc value="0.0247971427" flag="0"/>
      <vel value="0.0061712388" flag="0"/>
      <psa03 value="0.0251590871" flag="0"/>
      <psa10 value="0.0027481299" flag="0"/>
      <psa30 value="0.0001288931" flag="0"/>
    </comp>
    <comp name="--.HHE">
      <acc value="0.0479401076" flag="0"/>
      <vel value="0.0128237849" flag="0"/>
      <psa03 value="0.0488768652" flag="0"/>
      <psa10 value="0.0039983293" flag="0"/>
      <psa30 value="0.0002968811" flag="0"/>
    </comp>
  </station>
  <station code="SNT1" name="SNT1" netid="HA" insttype="30" commtype="DIG" lat="36.4159" lon="25.4282">
    <comp name="--.HHE">
      <acc value="0.0112453692" flag="0"/>
      <vel value="0.0054282340" flag="0"/>
      <psa03 value="0.0255038752" flag="0"/>
      <psa10 value="0.0037931811" flag="0"/>
      <psa30 value="0.0007958447" flag="0"/>
    </comp>
    <comp name="--.HHN">
      <acc value="0.0077281141" flag="0"/>
      <vel value="0.0046856811" flag="0"/>
      <psa03 value="0.0228272289" flag="0"/>
      <psa10 value="0.0024975841" flag="0"/>
      <psa30 value="0.0006272035" flag="0"/>
    </comp>
    <comp name="--.HHZ">
      <acc value="0.0124583001" flag="0"/>
      <vel value="0.0032269982" flag="0"/>
      <psa03 value="0.0173871336" flag="0"/>
      <psa10 value="0.0023580029" flag="0"/>
      <psa30 value="0.0001896187" flag="0"/>
    </comp>
  </station>
  <station code="SNT5" name="SNT5" netid="HA" insttype="1s-100Hz," commtype="DIG" lat="36.4037" lon="25.3953">
    <comp name="--.HHZ">
      <acc value="0.0151182890" flag="0"/>
      <vel value="0.0031212224" flag="0"/>
      <psa03 value="0.0127905846" flag="0"/>
      <psa10 value="0.0022445291" flag="0"/>
      <psa30 value="0.0002463551" flag="0"/>
    </comp>
    <comp name="--.HHE">
      <acc value="0.0499003921" flag="0"/>
      <vel value="0.0126209204" flag="0"/>
      <psa03 value="0.0643486218" flag="0"/>
      <psa10 value="0.0034973265" flag="0"/>
      <psa30 value="0.0010974561" flag="0"/>
    </comp>
    <comp name="--.HHN">
      <acc value="0.0093987762" flag="0"/>
      <vel value="0.0008369740" flag="0"/>
      <psa03 value="0.0005683456" flag="0"/>
      <psa10 value="0.0003013454" flag="0"/>
      <psa30 value="0.0004813665" flag="0"/>
    </comp>
  </station>
  <station code="KNSS" name="KNSS" netid="HC" insttype="60" commtype="DIG" lat="35.3042" lon="25.1802">
    <comp name="--.HHE">
      <acc value="0.0000000000" flag="0"/>
      <vel value="-100.0000000000" flag="0"/>
      <psa03 value="0.0000000000" flag="0"/>
      <psa10 value="0.0000000000" flag="0"/>
      <psa30 value="0.0000000000" flag="0"/>
    </comp>
    <comp name="--.HHN">
      <acc value="0.0304443891" flag="0"/>
      <vel value="0.0063429012" flag="0"/>
      <psa03 value="0.0268553737" flag="0"/>
      <psa10 value="0.0013211848" flag="0"/>
      <psa30 value="0.0001276926" flag="0"/>
    </comp>
    <comp name="--.HHZ">
      <acc value="0.0336095155" flag="0"/>
      <vel value="0.0061697618" flag="0"/>
      <psa03 value="0.0164555322" flag="0"/>
      <psa10 value="0.0009042682" flag="0"/>
      <psa30 value="0.0000972734" flag="0"/>
    </comp>
  </station>
  <station code="PFKS" name="PFKS" netid="HC" insttype="120" commtype="DIG" lat="35.0429" lon="25.4733">
    <comp name="--.HHN">
      <acc value="0.0428333127" flag="0"/>
      <vel value="0.0086067602" flag="0"/>
      <psa03 value="0.0456282648" flag="0"/>
      <psa10 value="0.0030948736" flag="0"/>
      <psa30 value="0.0001502158" flag="0"/>
    </comp>
    <comp name="--.HHZ">
      <acc value="0.0165128364" flag="0"/>
      <vel value="0.0040807058" flag="0"/>
      <psa03 value="0.0156775797" flag="0"/>
      <psa10 value="0.0014225886" flag="0"/>
      <psa30 value="0.0001338052" flag="0"/>
    </comp>
    <comp name="--.HHE">
      <acc value="0.0266202175" flag="0"/>
      <vel value="0.0061446620" flag="0"/>
      <psa03 value="0.0341588967" flag="0"/>
      <psa10 value="0.0037136459" flag="0"/>
      <psa30 value="0.0001992267" flag="0"/>
    </comp>
  </station>
  <station code="STIA" name="STIA" netid="HC" insttype="120" commtype="DIG" lat="35.2021" lon="26.0909">
    <comp name="--.HHN">
      <acc value="0.0000000000" flag="0"/>
      <vel value="-100.0000000000" flag="0"/>
      <psa03 value="0.0000000000" flag="0"/>
      <psa10 value="0.0000000000" flag="0"/>
      <psa30 value="0.0000000000" flag="0"/>
    </comp>
    <comp name="--.HHE">
      <acc value="0.0809899151" flag="0"/>
      <vel value="0.0182213365" flag="0"/>
      <psa03 value="0.1173262504" flag="0"/>
      <psa10 value="0.0056132914" flag="0"/>
      <psa30 value="0.0003756281" flag="0"/>
    </comp>
    <comp name="--.HHZ">
      <acc value="0.0627669031" flag="0"/>
      <vel value="0.0099315592" flag="0"/>
      <psa03 value="0.0384875686" flag="0"/>
      <psa10 value="0.0024019612" flag="0"/>
      <psa30 value="0.0001626931" flag="0"/>
    </comp>
  </station>
  <station code="AGN1" name="AGN1" netid="HI" insttype="unknown" commtype="DIG" lat="35.1879" lon="25.7155">
    <comp name="--.HNN">
      <acc value="0.0845501661" flag="0"/>
      <vel value="0.0204110887" flag="0"/>
      <psa03 value="0.1383274961" flag="0"/>
      <psa10 value="0.0059210351" flag="0"/>
      <psa30 value="0.0003627542" flag="0"/>
    </comp>
    <comp name="--.HNE">
      <acc value="0.0002560051" flag="0"/>
      <vel value="0.0001474485" flag="0"/>
      <psa03 value="0.0003122033" flag="0"/>
      <psa10 value="0.0001410922" flag="0"/>
      <psa30 value="0.0001029305" flag="0"/>
    </comp>
    <comp name="--.HNZ">
      <acc value="0.0338884213" flag="0"/>
      <vel value="0.0069665058" flag="0"/>
      <psa03 value="0.0240508391" flag="0"/>
      <psa10 value="0.0014121715" flag="0"/>
      <psa30 value="0.0001275968" flag="0"/>
    </comp>
  </station>
  <station code="ARK1" name="ARK1" netid="HI" insttype="unknown" commtype="DIG" lat="35.1488" lon="25.2642">
    <comp name="--.HNZ">
      <acc value="0.0230030476" flag="0"/>
      <vel value="0.0048544512" flag="0"/>
      <psa03 value="0.0208441675" flag="0"/>
      <psa10 value="0.0020609076" flag="0"/>
      <psa30 value="0.0001213726" flag="0"/>
    </comp>
    <comp name="--.HNE">
      <acc value="0.0224780917" flag="0"/>
      <vel value="0.0057899932" flag="0"/>
      <psa03 value="0.0219950973" flag="0"/>
      <psa10 value="0.0024199201" flag="0"/>
      <psa30 value="0.0002078288" flag="0"/>
    </comp>
    <comp name="--.HNN">
      <acc value="0.0256614041" flag="0"/>
      <vel value="0.0068892052" flag="0"/>
      <psa03 value="0.0369027725" flag="0"/>
      <psa10 value="0.0024930054" flag="0"/>
      <psa30 value="0.0002666793" flag="0"/>
    </comp>
  </station>
  <station code="HER1" name="HER1" netid="HI" insttype="unknown" commtype="DIG" lat="35.3177" lon="25.1022">
    <comp name="--.HNE">
      <acc value="0.0387703543" flag="0"/>
      <vel value="0.0092373018" flag="0"/>
      <psa03 value="0.0575462637" flag="0"/>
      <psa10 value="0.0050281118" flag="0"/>
      <psa30 value="0.0003821584" flag="0"/>
    </comp>
    <comp name="--.HNN">
      <acc value="0.0387776128" flag="0"/>
      <vel value="0.0110647575" flag="0"/>
      <psa03 value="0.0662964964" flag="0"/>
      <psa10 value="0.0047909588" flag="0"/>
      <psa30 value="0.0003573595" flag="0"/>
    </comp>
    <comp name="--.HNZ">
      <acc value="0.0399404462" flag="0"/>
      <vel value="0.0098545889" flag="0"/>
      <psa03 value="0.0367390330" flag="0"/>
      <psa10 value="0.0058715536" flag="0"/>
      <psa30 value="0.0003000565" flag="0"/>
    </comp>
  </station>
  <station code="KSS1" name="KSS1" netid="HI" insttype="CMG-5TD,ACCELEROMETER,GURALP" commtype="DIG" lat="35.4189" lon="26.9207">
    <comp name="--.HNE">
      <acc value="0.0799747032" flag="0"/>
      <vel value="0.0167620453" flag="0"/>
      <psa03 value="0.0884372225" flag="0"/>
      <psa10 value="0.0028528843" flag="0"/>
      <psa30 value="0.0004172052" flag="0"/>
    </comp>
    <comp name="--.HNZ">
      <acc value="0.0559941991" flag="0"/>
      <vel value="0.0073413902" flag="0"/>
      <psa03 value="0.0241653058" flag="0"/>
      <psa10 value="0.0015498029" flag="0"/>
      <psa30 value="0.0001549837" flag="0"/>
    </comp>
    <comp name="--.HNN">
      <acc value="0.1026942887" flag="0"/>
      <vel value="0.0236252823" flag="0"/>
      <psa03 value="0.0902384071" flag="0"/>
      <psa10 value="0.0035896992" flag="0"/>
      <psa30 value="0.0002699759" flag="0"/>
    </comp>
  </station>
  <station code="SFR2" name="SFR2" netid="HI" insttype="unknown" commtype="DIG" lat="36.3998" lon="25.4382">
    <comp name="--.HNE">
      <acc value="0.0248254574" flag="0"/>
      <vel value="0.0105479752" flag="0"/>
      <psa03 value="0.0668120635" flag="0"/>
      <psa10 value="0.0104289234" flag="0"/>
      <psa30 value="0.0008745117" flag="0"/>
    </comp>
    <comp name="--.HNN">
      <acc value="0.0241400018" flag="0"/>
      <vel value="0.0099598592" flag="0"/>
      <psa03 value="0.0602005448" flag="0"/>
      <psa10 value="0.0060604374" flag="0"/>
      <psa30 value="0.0003856370" flag="0"/>
    </comp>
    <comp name="--.HNZ">
      <acc value="0.0296879051" flag="0"/>
      <vel value="0.0087394774" flag="0"/>
      <psa03 value="0.0632163404" flag="0"/>
      <psa10 value="0.0041251305" flag="0"/>
      <psa30 value="0.0004054964" flag="0"/>
    </comp>
  </station>
  <station code="SIT2" name="SIT2" netid="HI" insttype="CMG-5TD,ACCELEROMETER,GURALP" commtype="DIG" lat="35.2059" lon="26.107">
    <comp name="--.HNE">
      <acc value="0.0516659343" flag="0"/>
      <vel value="0.0215844132" flag="0"/>
      <psa03 value="0.1937487751" flag="0"/>
      <psa10 value="0.0103268350" flag="0"/>
      <psa30 value="0.0006593111" flag="0"/>
    </comp>
    <comp name="--.HNN">
      <acc value="0.0695400574" flag="0"/>
      <vel value="0.0323802331" flag="0"/>
      <psa03 value="0.2457841570" flag="0"/>
      <psa10 value="0.0135847070" flag="0"/>
      <psa30 value="0.0008351834" flag="0"/>
    </comp>
    <comp name="--.HNZ">
      <acc value="0.0944021865" flag="0"/>
      <vel value="0.0262226021" flag="0"/>
      <psa03 value="0.1651210591" flag="0"/>
      <psa10 value="0.0044540087" flag="0"/>
      <psa30 value="0.0005130635" flag="0"/>
    </comp>
  </station>
  <station code="AMGA" name="AMGA" netid="HL" insttype="LE3D20_SMART24" commtype="DIG" lat="36.8316" lon="25.8938">
    <comp name="--.HHN">
      <acc value="0.0106198274" flag="0"/>
      <vel value="0.0057031948" flag="0"/>
      <psa03 value="0.0215640579" flag="0"/>
      <psa10 value="0.0043913370" flag="0"/>
      <psa30 value="0.0003101344" flag="0"/>
    </comp>
    <comp name="--.HHE">
      <acc value="0.0102399683" flag="0"/>
      <vel value="0.0042383445" flag="0"/>
      <psa03 value="0.0094777395" flag="0"/>
      <psa10 value="0.0041376157" flag="0"/>
      <psa30 value="0.0004034348" flag="0"/>
    </comp>
    <comp name="--.HHZ">
      <acc value="0.0146244924" flag="0"/>
      <vel value="0.0058733818" flag="0"/>
      <psa03 value="0.0329453748" flag="0"/>
      <psa10 value="0.0016816403" flag="0"/>
      <psa30 value="0.0003928706" flag="0"/>
    </comp>
  </station>
  <station code="ANAF" name="ANAF" netid="HL" insttype="LE3D20_SMART24" commtype="DIG" lat="36.3567" lon="25.7726">
    <comp name="--.HHZ">
      <acc value="0.2076380687" flag="0"/>
      <vel value="0.0328494817" flag="0"/>
      <psa03 value="0.0864068848" flag="0"/>
      <psa10 value="0.0057216998" flag="0"/>
      <psa30 value="0.0005926249" flag="0"/>
    </comp>
    <comp name="--.HHE">
      <acc value="0.1749954091" flag="0"/>
      <vel value="0.0325940294" flag="0"/>
      <psa03 value="0.2387669424" flag="0"/>
      <psa10 value="0.0150007855" flag="0"/>
      <psa30 value="0.0011377854" flag="0"/>
    </comp>
    <comp name="--.HHN">
      <acc value="0.1837658918" flag="0"/>
      <vel value="0.0631661945" flag="0"/>
      <psa03 value="0.3330186703" flag="0"/>
      <psa10 value="0.0138472819" flag="0"/>
      <psa30 value="0.0014202537" flag="0"/>
    </comp>
  </station>
  <station code="ASTA" name="ASTA" netid="HL" insttype="LE3D20_SMART24" commtype="DIG" lat="36.5475" lon="26.3471">
    <comp name="--.HHE">
      <acc value="0.0175961879" flag="0"/>
      <vel value="0.0039038559" flag="0"/>
      <psa03 value="0.0099693115" flag="0"/>
      <psa10 value="0.0008013868" flag="0"/>
      <psa30 value="0.0001273486" flag="0"/>
    </comp>
    <comp name="--.HHN">
      <acc value="0.0124607657" flag="0"/>
      <vel value="0.0032025823" flag="0"/>
      <psa03 value="0.0116180524" flag="0"/>
      <psa10 value="0.0006444059" flag="0"/>
      <psa30 value="0.0001715238" flag="0"/>
    </comp>
    <comp name="--.HHZ">
      <acc value="0.0259290303" flag="0"/>
      <vel value="0.0065174699" flag="0"/>
      <psa03 value="0.0194601387" flag="0"/>
      <psa10 value="0.0015907160" flag="0"/>
      <psa30 value="0.0001778202" flag="0"/>
    </comp>
  </station>
  <station code="IDI" name="IDI" netid="HL" insttype="120" commtype="DIG" lat="35.288" lon="24.89">
    <comp name="--.HHZ">
      <acc value="0.0172346994" flag="0"/>
      <vel value="0.0025842544" flag="0"/>
      <psa03 value="0.0118868163" flag="0"/>
      <psa10 value="0.0004546814" flag="0"/>
      <psa30 value="0.0000511279" flag="0"/>
    </comp>
    <comp name="--.HHN">
      <acc value="0.0238598070" flag="0"/>
      <vel value="0.0039060372" flag="0"/>
      <psa03 value="0.0113982645" flag="0"/>
      <psa10 value="0.0005533462" flag="0"/>
      <psa30 value="0.0000520462" flag="0"/>
    </comp>
    <comp name="--.HHE">
      <acc value="0.0169823687" flag="0"/>
      <vel value="0.0034503953" flag="0"/>
      <psa03 value="0.0129233512" flag="0"/>
      <psa10 value="0.0006336371" flag="0"/>
      <psa30 value="0.0000584205" flag="0"/>
    </comp>
  </station>
  <station code="NPS" name="NPS" netid="HL" insttype="CMG3ESPC-120s" commtype="DIG" lat="35.2613" lon="25.6104">
    <comp name="--.HHZ">
      <acc value="0.0703359946" flag="0"/>
      <vel value="0.0134300039" flag="0"/>
      <psa03 value="0.0249212392" flag="0"/>
      <psa10 value="0.0023787776" flag="0"/>
      <psa30 value="0.0001728292" flag="0"/>
    </comp>
    <comp name="--.HHN">
      <acc value="0.0700043874" flag="0"/>
      <vel value="0.0123004370" flag="0"/>
      <psa03 value="0.0346258273" flag="0"/>
      <psa10 value="0.0035194791" flag="0"/>
      <psa30 value="0.0002696426" flag="0"/>
    </comp>
    <comp name="--.HHE">
      <acc value="0.0200243856" flag="0"/>
      <vel value="0.0042700341" flag="0"/>
      <psa03 value="0.0143585222" flag="0"/>
      <psa10 value="0.0012886087" flag="0"/>
      <psa30 value="0.0000991133" flag="0"/>
    </comp>
  </station>
  <station code="SANT" name="SANT" netid="HL" insttype="30" commtype="DIG" lat="36.3705" lon="25.4593">
    <comp name="--.HHN">
      <acc value="0.0271474514" flag="0"/>
      <vel value="0.0078853591" flag="0"/>
      <psa03 value="0.0330471122" flag="0"/>
      <psa10 value="0.0024361176" flag="0"/>
      <psa30 value="0.0001855545" flag="0"/>
    </comp>
    <comp name="--.HHE">
      <acc value="0.0292933423" flag="0"/>
      <vel value="0.0126191756" flag="0"/>
      <psa03 value="0.0415556063" flag="0"/>
      <psa10 value="0.0081963890" flag="0"/>
      <psa30 value="0.0007084937" flag="0"/>
    </comp>
    <comp name="--.HHZ">
      <acc value="0.0227775338" flag="0"/>
      <vel value="0.0059507651" flag="0"/>
      <psa03 value="0.0230565380" flag="0"/>
      <psa10 value="0.0023884509" flag="0"/>
      <psa30 value="0.0001353055" flag="0"/>
    </comp>
  </station>
  <station code="AKRO" name="AKRO" netid="HT" insttype="Compact," commtype="DIG" lat="36.3584" lon="25.3967">
    <comp name="--.HHE">
      <acc value="0.0508629430" flag="0"/>
      <vel value="0.0219319104" flag="0"/>
      <psa03 value="0.0671636165" flag="0"/>
      <psa10 value="0.0112958289" flag="0"/>
      <psa30 value="0.0010506538" flag="0"/>
    </comp>
    <comp name="--.HHN">
      <acc value="0.0469918593" flag="0"/>
      <vel value="0.0113586384" flag="0"/>
      <psa03 value="0.0493796086" flag="0"/>
      <psa10 value="0.0074989452" flag="0"/>
      <psa30 value="0.0006181359" flag="0"/>
    </comp>
    <comp name="--.HHZ">
      <acc value="0.0280438523" flag="0"/>
      <vel value="0.0077891535" flag="0"/>
      <psa03 value="0.0516048263" flag="0"/>
      <psa10 value="0.0032064047" flag="0"/>
      <psa30 value="0.0004151968" flag="0"/>
    </comp>
  </station>
  <station code="ANYD" name="ANYD" netid="HT" insttype="120" commtype="DIG" lat="36.63" lon="25.6779">
    <comp name="--.HHE">
      <acc value="0.0079393943" flag="0"/>
      <vel value="0.0037728644" flag="0"/>
      <psa03 value="0.0139220784" flag="0"/>
      <psa10 value="0.0038783478" flag="0"/>
      <psa30 value="0.0003406672" flag="0"/>
    </comp>
    <comp name="--.HHZ">
      <acc value="0.0121879399" flag="0"/>
      <vel value="0.0041859455" flag="0"/>
      <psa03 value="0.0176818329" flag="0"/>
      <psa10 value="0.0011086336" flag="0"/>
      <psa30 value="0.0001312322" flag="0"/>
    </comp>
    <comp name="--.HHN">
      <acc value="0.0092568308" flag="0"/>
      <vel value="0.0040002971" flag="0"/>
      <psa03 value="0.0170232637" flag="0"/>
      <psa10 value="0.0029147420" flag="0"/>
      <psa30 value="0.0002416868" flag="0"/>
    </comp>
  </station>
  <station code="GVRL" name="GVRL" netid="HT" insttype="" commtype="DIG" lat="36.3456" lon="25.4383">
    <comp name="--.HHZ">
      <acc value="0.0131364230" flag="0"/>
      <vel value="0.0030761132" flag="0"/>
      <psa03 value="0.0083030147" flag="0"/>
      <psa10 value="0.0008375146" flag="0"/>
      <psa30 value="0.0001320154" flag="0"/>
    </comp>
    <comp name="--.HHE">
      <acc value="0.0247375072" flag="0"/>
      <vel value="0.0164101076" flag="0"/>
      <psa03 value="0.0882615599" flag="0"/>
      <psa10 value="0.0086835006" flag="0"/>
      <psa30 value="0.0008736678" flag="0"/>
    </comp>
    <comp name="--.HHN">
      <acc value="0.0129713215" flag="0"/>
      <vel value="0.0065153574" flag="0"/>
      <psa03 value="0.0340897466" flag="0"/>
      <psa10 value="0.0028046463" flag="0"/>
      <psa30 value="0.0003755155" flag="0"/>
    </comp>
  </station>
  <station code="THR3" name="THR3" netid="HT" insttype="" commtype="DIG" lat="36.4091" lon="25.4008">
    <comp name="--.HHN">
      <acc value="0.0180440549" flag="0"/>
      <vel value="0.0068114902" flag="0"/>
      <psa03 value="0.0461911666" flag="0"/>
      <psa10 value="0.0037513412" flag="0"/>
      <psa30 value="0.0015267311" flag="0"/>
    </comp>
    <comp name="--.HHZ">
      <acc value="0.0073302427" flag="0"/>
      <vel value="0.0018001109" flag="0"/>
      <psa03 value="0.0095736752" flag="0"/>
      <psa10 value="0.0010472341" flag="0"/>
      <psa30 value="0.0002593040" flag="0"/>
    </comp>
    <comp name="--.HHE">
      <acc value="0.0199351381" flag="0"/>
      <vel value="0.0068335548" flag="0"/>
      <psa03 value="0.0402855710" flag="0"/>
      <psa10 value="0.0024052664" flag="0"/>
      <psa30 value="0.0006673640" flag="0"/>
    </comp>
  </station>
