<?xml version="1.0" encoding="UTF-8" standalone="yes"?>
<!DOCTYPE earthquake SYSTEM "stationlist.dtd">
<stationlist created="" xmlns="ch.ethz.sed.shakemap.usgs.xml">
  <station code="SNT1" name="SNT1" netid="HA" insttype="30" commtype="DIG" lat="36.4159" lon="25.4282">
    <comp name="--.HHN">
      <acc value="0.0077281183" flag="0"/>
      <vel value="0.0046856805" flag="0"/>
      <psa03 value="0.0228272289" flag="0"/>
      <psa10 value="0.0024975841" flag="0"/>
      <psa30 value="0.0006273143" flag="0"/>
    </comp>
    <comp name="--.HHZ">
      <acc value="0.0124582995" flag="0"/>
      <vel value="0.0032269984" flag="0"/>
      <psa03 value="0.0173871336" flag="0"/>
      <psa10 value="0.0023580027" flag="0"/>
      <psa30 value="0.0001887126" flag="0"/>
    </comp>
    <comp name="--.HHE">
      <acc value="0.0112453667" flag="0"/>
      <vel value="0.0054282538" flag="0"/>
      <psa03 value="0.0255038752" flag="0"/>
      <psa10 value="0.0037931811" flag="0"/>
      <psa30 value="0.0007960239" flag="0"/>
    </comp>
  </station>
  <station code="SNT5" name="SNT5" netid="HA" insttype="1s-100Hz," commtype="DIG" lat="36.4037" lon="25.3953">
    <comp name="--.HHE">
      <acc value="0.0499004012" flag="0"/>
      <vel value="0.0126178417" flag="0"/>
      <psa03 value="0.0643486146" flag="0"/>
      <psa10 value="0.0034973172" flag="0"/>
      <psa30 value="0.0010905242" flag="0"/>
    </comp>
    <comp name="--.HHN">
      <acc value="0.0281546610" flag="0"/>
      <vel value="0.0077450374" flag="0"/>
      <psa03 value="0.0278530295" flag="0"/>
      <psa10 value="0.0023206697" flag="0"/>
      <psa30 value="0.0010377485" flag="0"/>
    </comp>
    <comp name="--.HHZ">
      <acc value="0.0151182793" flag="0"/>
      <vel value="0.0031181164" flag="0"/>
      <psa03 value="0.0127905759" flag="0"/>
      <psa10 value="0.0022445202" flag="0"/>
      <psa30 value="0.0002449796" flag="0"/>
    </comp>
  </station>
  <station code="STIA" name="STIA" netid="HC" insttype="120" commtype="DIG" lat="35.2021" lon="26.0909">
    <comp name="--.HHZ">
      <acc value="0.0627669024" flag="0"/>
      <vel value="0.0099315583" flag="0"/>
      <psa03 value="0.0384875686" flag="0"/>
      <psa10 value="0.0024019612" flag="0"/>
      <psa30 value="0.0001627033" flag="0"/>
    </comp>
    <comp name="--.HHN">
      <acc value="0.0000000000" flag="0"/>
      <vel value="-100.0000000000" flag="0"/>
      <psa03 value="0.0000000000" flag="0"/>
      <psa10 value="0.0000000000" flag="0"/>
      <psa30 value="0.0000000000" flag="0"/>
    </comp>
    <comp name="--.HHE">
      <acc value="0.0809899153" flag="0"/>
      <vel value="0.0182213366" flag="0"/>
      <psa03 value="0.1173262504" flag="0"/>
      <psa10 value="0.0056132914" flag="0"/>
      <psa30 value="0.0003756317" flag="0"/>
    </comp>
  </station>
  <station code="AGN1" name="AGN1" netid="HI" insttype="unknown" commtype="DIG" lat="35.1879" lon="25.7155">
    <comp name="--.HNZ">
      <acc value="0.0338884002" flag="0"/>
      <vel value="0.0069665053" flag="0"/>
      <psa03 value="0.0240508391" flag="0"/>
      <psa10 value="0.0014121714" flag="0"/>
      <psa30 value="0.0001276095" flag="0"/>
    </comp>
    <comp name="--.HNE">
      <acc value="0.0002560064" flag="0"/>
      <vel value="0.0001231981" flag="0"/>
      <psa03 value="0.0003122033" flag="0"/>
      <psa10 value="0.0001410898" flag="0"/>
      <psa30 value="0.0000806523" flag="0"/>
    </comp>
    <comp name="--.HNN">
      <acc value="0.0845501836" flag="0"/>
      <vel value="0.0204110877" flag="0"/>
      <psa03 value="0.1383274961" flag="0"/>
      <psa10 value="0.0059210350" flag="0"/>
      <psa30 value="0.0003628145" flag="0"/>
    </comp>
  </station>
  <station code="SFR2" name="SFR2" netid="HI" insttype="unknown" commtype="DIG" lat="36.3998" lon="25.4382">
    <comp name="--.HNE">
      <acc value="0.0248254496" flag="0"/>
      <vel value="0.0105479692" flag="0"/>
      <psa03 value="0.0668120635" flag="0"/>
      <psa10 value="0.0104289228" flag="0"/>
      <psa30 value="0.0008755859" flag="0"/>
    </comp>
    <comp name="--.HNZ">
      <acc value="0.0296879013" flag="0"/>
      <vel value="0.0087394843" flag="0"/>
      <psa03 value="0.0632163404" flag="0"/>
      <psa10 value="0.0041251301" flag="0"/>
      <psa30 value="0.0004021721" flag="0"/>
    </comp>
    <comp name="--.HNN">
      <acc value="0.0241400118" flag="0"/>
      <vel value="0.0099598552" flag="0"/>
      <psa03 value="0.0602005448" flag="0"/>
      <psa10 value="0.0060604357" flag="0"/>
      <psa30 value="0.0003852198" flag="0"/>
    </comp>
  </station>
  <station code="SIT2" name="SIT2" netid="HI" insttype="CMG-5TD,ACCELEROMETER,GURALP" commtype="DIG" lat="35.2059" lon="26.107">
    <comp name="--.HNE">
      <acc value="0.0516659211" flag="0"/>
      <vel value="0.0215844140" flag="0"/>
      <psa03 value="0.1937487751" flag="0"/>
      <psa10 value="0.0103268349" flag="0"/>
      <psa30 value="0.0006593381" flag="0"/>
    </comp>
    <comp name="--.HNN">
      <acc value="0.0695400544" flag="0"/>
      <vel value="0.0323802322" flag="0"/>
      <psa03 value="0.2457841570" flag="0"/>
      <psa10 value="0.0135847071" flag="0"/>
      <psa30 value="0.0008350791" flag="0"/>
    </comp>
    <comp name="--.HNZ">
      <acc value="0.0944021758" flag="0"/>
      <vel value="0.0262226030" flag="0"/>
      <psa03 value="0.1651210591" flag="0"/>
      <psa10 value="0.0044540087" flag="0"/>
      <psa30 value="0.0005130591" flag="0"/>
    </comp>
  </station>
  <station code="AMGA" name="AMGA" netid="HL" insttype="LE3D20_SMART24" commtype="DIG" lat="36.8316" lon="25.8938">
    <comp name="--.HHE">
      <acc value="0.0102399693" flag="0"/>
      <vel value="0.0042383459" flag="0"/>
      <psa03 value="0.0094777395" flag="0"/>
      <psa10 value="0.0041376159" flag="0"/>
      <psa30 value="0.0004034266" flag="0"/>
    </comp>
    <comp name="--.HHZ">
      <acc value="0.0146244898" flag="0"/>
      <vel value="0.0058733931" flag="0"/>
      <psa03 value="0.0329453748" flag="0"/>
      <psa10 value="0.0016816666" flag="0"/>
      <psa30 value="0.0003931296" flag="0"/>
    </comp>
    <comp name="--.HHN">
      <acc value="0.0106198269" flag="0"/>
      <vel value="0.0057032240" flag="0"/>
      <psa03 value="0.0215640578" flag="0"/>
      <psa10 value="0.0043913369" flag="0"/>
      <psa30 value="0.0003102729" flag="0"/>
    </comp>
  </station>
  <station code="ANAF" name="ANAF" netid="HL" insttype="LE3D20_SMART24" commtype="DIG" lat="36.3567" lon="25.7726">
    <comp name="--.HHE">
      <acc value="0.1749954101" flag="0"/>
      <vel value="0.0325940253" flag="0"/>
      <psa03 value="0.2387669424" flag="0"/>
      <psa10 value="0.0150007841" flag="0"/>
      <psa30 value="0.0011375102" flag="0"/>
    </comp>
    <comp name="--.HHN">
      <acc value="0.1837658919" flag="0"/>
      <vel value="0.0631661249" flag="0"/>
      <psa03 value="0.3330186701" flag="0"/>
      <psa10 value="0.0138472826" flag="0"/>
      <psa30 value="0.0014195673" flag="0"/>
    </comp>
    <comp name="--.HHZ">
      <acc value="0.2076380659" flag="0"/>
      <vel value="0.0328494526" flag="0"/>
      <psa03 value="0.0864068849" flag="0"/>
      <psa10 value="0.0057217712" flag="0"/>
      <psa30 value="0.0005950409" flag="0"/>
    </comp>
  </station>
  <station code="ASTA" name="ASTA" netid="HL" insttype="LE3D20_SMART24" commtype="DIG" lat="36.5475" lon="26.3471">
    <comp name="--.HHE">
      <acc value="0.0175961870" flag="0"/>
      <vel value="0.0039038619" flag="0"/>
      <psa03 value="0.0099693115" flag="0"/>
      <psa10 value="0.0008014006" flag="0"/>
      <psa30 value="0.0001271431" flag="0"/>
    </comp>
    <comp name="--.HHZ">
      <acc value="0.0259290332" flag="0"/>
      <vel value="0.0065174679" flag="0"/>
      <psa03 value="0.0194601387" flag="0"/>
      <psa10 value="0.0015906932" flag="0"/>
      <psa30 value="0.0001782958" flag="0"/>
    </comp>
    <comp name="--.HHN">
      <acc value="0.0124607658" flag="0"/>
      <vel value="0.0032025797" flag="0"/>
      <psa03 value="0.0116180524" flag="0"/>
      <psa10 value="0.0006444048" flag="0"/>
      <psa30 value="0.0001715369" flag="0"/>
    </comp>
  </station>
  <station code="NPS" name="NPS" netid="HL" insttype="CMG3ESPC-120s" commtype="DIG" lat="35.2613" lon="25.6104">
    <comp name="--.HHE">
      <acc value="0.0200243832" flag="0"/>
      <vel value="0.0042700339" flag="0"/>
      <psa03 value="0.0143585222" flag="0"/>
      <psa10 value="0.0012886087" flag="0"/>
      <psa30 value="0.0000991018" flag="0"/>
    </comp>
    <comp name="--.HHN">
      <acc value="0.0700043880" flag="0"/>
      <vel value="0.0123004379" flag="0"/>
      <psa03 value="0.0346258273" flag="0"/>
      <psa10 value="0.0035194792" flag="0"/>
      <psa30 value="0.0002695658" flag="0"/>
    </comp>
    <comp name="--.HHZ">
      <acc value="0.0703359955" flag="0"/>
      <vel value="0.0134300042" flag="0"/>
      <psa03 value="0.0249212392" flag="0"/>
      <psa10 value="0.0023787776" flag="0"/>
      <psa30 value="0.0001728487" flag="0"/>
    </comp>
  </station>
  <station code="SANT" name="SANT" netid="HL" insttype="30" commtype="DIG" lat="36.3705" lon="25.4593">
    <comp name="--.HHN">
      <acc value="0.0271474514" flag="0"/>
      <vel value="0.0078853491" flag="0"/>
      <psa03 value="0.0330471122" flag="0"/>
      <psa10 value="0.0024361177" flag="0"/>
      <psa30 value="0.0001854511" flag="0"/>
    </comp>
    <comp name="--.HHE">
      <acc value="0.0292933394" flag="0"/>
      <vel value="0.0126191793" flag="0"/>
      <psa03 value="0.0415556063" flag="0"/>
      <psa10 value="0.0081963878" flag="0"/>
      <psa30 value="0.0007077757" flag="0"/>
    </comp>
    <comp name="--.HHZ">
      <acc value="0.0227775335" flag="0"/>
      <vel value="0.0059507607" flag="0"/>
      <psa03 value="0.0230565380" flag="0"/>
      <psa10 value="0.0023884515" flag="0"/>
      <psa30 value="0.0001355004" flag="0"/>
    </comp>
  </station>
  <station code="AKRO" name="AKRO" netid="HT" insttype="Compact," commtype="DIG" lat="36.3584" lon="25.3967">
    <comp name="--.HHN">
      <acc value="0.0469918645" flag="0"/>
      <vel value="0.0113586188" flag="0"/>
      <psa03 value="0.0493796086" flag="0"/>
      <psa10 value="0.0074989444" flag="0"/>
      <psa30 value="0.0006202712" flag="0"/>
    </comp>
    <comp name="--.HHE">
      <acc value="0.0508629425" flag="0"/>
      <vel value="0.0219318961" flag="0"/>
      <psa03 value="0.0671636165" flag="0"/>
      <psa10 value="0.0112958250" flag="0"/>
      <psa30 value="0.0010506118" flag="0"/>
    </comp>
    <comp name="--.HHZ">
      <acc value="0.0280438523" flag="0"/>
      <vel value="0.0077891540" flag="0"/>
      <psa03 value="0.0516048263" flag="0"/>
      <psa10 value="0.0032064046" flag="0"/>
      <psa30 value="0.0004147778" flag="0"/>
    </comp>
  </station>
  <station code="ANYD" name="ANYD" netid="HT" insttype="120" commtype="DIG" lat="36.63" lon="25.6779">
    <comp name="--.HHE">
      <acc value="0.0079393941" flag="0"/>
      <vel value="0.0037728638" flag="0"/>
      <psa03 value="0.0139220784" flag="0"/>
      <psa10 value="0.0038783473" flag="0"/>
      <psa30 value="0.0003408203" flag="0"/>
    </comp>
    <comp name="--.HHN">
      <acc value="0.0092568333" flag="0"/>
      <vel value="0.0040003001" flag="0"/>
      <psa03 value="0.0170232637" flag="0"/>
      <psa10 value="0.0029147425" flag="0"/>
      <psa30 value="0.0002413964" flag="0"/>
    </comp>
    <comp name="--.HHZ">
      <acc value="0.0121879381" flag="0"/>
      <vel value="0.0041859404" flag="0"/>
      <psa03 value="0.0176818329" flag="0"/>
      <psa10 value="0.0011086999" flag="0"/>
      <psa30 value="0.0001295688" flag="0"/>
    </comp>
  </station>
  <station code="GVRL" name="GVRL" netid="HT" insttype="" commtype="DIG" lat="36.3456" lon="25.4383">
    <comp name="--.HHN">
      <acc value="0.0129713209" flag="0"/>
      <vel value="0.0065185015" flag="0"/>
      <psa03 value="0.0340897472" flag="0"/>
      <psa10 value="0.0028046460" flag="0"/>
      <psa30 value="0.0003753129" flag="0"/>
    </comp>
    <comp name="--.HHZ">
      <acc value="0.0131364172" flag="0"/>
      <vel value="0.0030761406" flag="0"/>
      <psa03 value="0.0083030147" flag="0"/>
      <psa10 value="0.0008375146" flag="0"/>
      <psa30 value="0.0001318764" flag="0"/>
    </comp>
    <comp name="--.HHE">
      <acc value="0.0247375043" flag="0"/>
      <vel value="0.0164106068" flag="0"/>
      <psa03 value="0.0882615597" flag="0"/>
      <psa10 value="0.0086835010" flag="0"/>
      <psa30 value="0.0008736774" flag="0"/>
    </comp>
  </station>
  <station code="THR3" name="THR3" netid="HT" insttype="" commtype="DIG" lat="36.4091" lon="25.4008">
    <comp name="--.HHN">
      <acc value="0.0180440576" flag="0"/>
      <vel value="0.0068151615" flag="0"/>
      <psa03 value="0.0461911678" flag="0"/>
      <psa10 value="0.0037513445" flag="0"/>
      <psa30 value="0.0015254619" flag="0"/>
    </comp>
    <comp name="--.HHZ">
      <acc value="0.0073302433" flag="0"/>
      <vel value="0.0018000695" flag="0"/>
      <psa03 value="0.0095736753" flag="0"/>
      <psa10 value="0.0010472343" flag="0"/>
      <psa30 value="0.0002581741" flag="0"/>
    </comp>
    <comp name="--.HHE">
      <acc value="0.0199351443" flag="0"/>
      <vel value="0.0068341629" flag="0"/>
      <psa03 value="0.0402855706" flag="0"/>
      <psa10 value="0.0024052659" flag="0"/>
      <psa30 value="0.0006674995" flag="0"/>
    </comp>
  </station>
  <station code="THR5" name="THR5" netid="HT" insttype="" commtype="DIG" lat="36.4172" lon="25.3479">
    <comp name="--.HHE">
      <acc value="0.0240410271" flag="0"/>
      <vel value="0.0081665121" flag="0"/>
      <psa03 value="0.0481497352" flag="0"/>
      <psa10 value="0.0062342450" flag="0"/>
      <psa30 value="0.0007967410" flag="0"/>
    </comp>
    <comp name="--.HHN">
      <acc value="0.0140067938" flag="0"/>
      <vel value="0.0050718127" flag="0"/>
      <psa03 value="0.0275901590" flag="0"/>
      <psa10 value="0.0031302687" flag="0"/>
      <psa30 value="0.0007673071" flag="0"/>
    </comp>
    <comp name="--.HHZ">
      <acc value="0.0146389822" flag="0"/>
      <vel value="0.0036558517" flag="0"/>
      <psa03 value="0.0213222948" flag="0"/>
      <psa10 value="0.0017171028" flag="0"/>
      <psa30 value="0.0002038591" flag="0"/>
    </comp>
  </station>
</stationlist>
