<?xml version="1.0" encoding="UTF-8" standalone="yes"?>
<!DOCTYPE earthquake SYSTEM "stationlist.dtd">
<stationlist created="" xmlns="ch.ethz.sed.shakemap.usgs.xml">
  <station code="AKDN" name="AKDN" netid="KO" insttype="CMG-5T" lat="35.2977" lon="32.9677">
    <comp name="--.HNZ">
      <acc value="0.0158362668" flag="0"/>
      <vel value="0.0054765556" flag="0"/>
      <psa03 value="0.0272329139" flag="0"/>
      <psa10 value="0.0030921685" flag="0"/>
      <psa30 value="0.0003313910" flag="0"/>
    </comp>
    <comp name="--.HNN">
      <acc value="0.0147221067" flag="0"/>
      <vel value="0.0104391439" flag="0"/>
      <psa03 value="0.0547901192" flag="0"/>
      <psa10 value="0.0106591913" flag="0"/>
      <psa30 value="0.0007472306" flag="0"/>
    </comp>
    <comp name="--.HNE">
      <acc value="0.0248718188" flag="0"/>
      <vel value="0.0120620538" flag="0"/>
      <psa03 value="0.0786074667" flag="0"/>
      <psa10 value="0.0055077870" flag="0"/>
      <psa30 value="0.0004544017" flag="0"/>
    </comp>
  </station>
  <station code="AKIN" name="AKIN" netid="KO" insttype="CMG-5T" lat="35.0157" lon="33.4662">
    <comp name="--.HNE">
      <acc value="0.0066443986" flag="0"/>
      <vel value="0.0035403929" flag="0"/>
      <psa03 value="0.0185276222" flag="0"/>
      <psa10 value="0.0026474028" flag="0"/>
      <psa30 value="0.0003117271" flag="0"/>
    </comp>
    <comp name="--.HNN">
      <acc value="0.0065849404" flag="0"/>
      <vel value="0.0027054108" flag="0"/>
      <psa03 value="0.0173397686" flag="0"/>
      <psa10 value="0.0039779751" flag="0"/>
      <psa30 value="0.0002645553" flag="0"/>
    </comp>
    <comp name="--.HNZ">
      <acc value="0.0070780049" flag="0"/>
      <vel value="0.0023792953" flag="0"/>
      <psa03 value="0.0190432389" flag="0"/>
      <psa10 value="0.0014369793" flag="0"/>
      <psa30 value="0.0001988751" flag="0"/>
    </comp>
  </station>
  <station code="HSY" name="HSY" netid="KO" insttype="CMG-6T" lat="35.2916" lon="33.0974">
    <comp name="--.HHE">
      <acc value="0.0943592356" flag="0"/>
      <vel value="0.0317899767" flag="0"/>
      <psa03 value="0.2335861113" flag="0"/>
      <psa10 value="0.0073281697" flag="0"/>
      <psa30 value="0.0006040414" flag="0"/>
    </comp>
    <comp name="--.HHN">
      <acc value="0.1468356328" flag="0"/>
      <vel value="0.0482240813" flag="0"/>
      <psa03 value="0.1882242775" flag="0"/>
      <psa10 value="0.0098065098" flag="0"/>
      <psa30 value="0.0007967966" flag="0"/>
    </comp>
    <comp name="--.HHZ">
      <acc value="0.0610350700" flag="0"/>
      <vel value="0.0101364785" flag="0"/>
      <psa03 value="0.0437844144" flag="0"/>
      <psa10 value="0.0034313917" flag="0"/>
      <psa30 value="0.0002043398" flag="0"/>
    </comp>
  </station>
  <station code="LEF" name="LEF" netid="KO" insttype="CMG-6T" lat="35.1118" lon="32.8433">
    <comp name="--.HHN">
      <acc value="0.0406913580" flag="0"/>
      <vel value="0.0165006547" flag="0"/>
      <psa03 value="0.0755171459" flag="0"/>
      <psa10 value="0.0088327591" flag="0"/>
      <psa30 value="0.0008191661" flag="0"/>
    </comp>
    <comp name="--.HHE">
      <acc value="0.0513279924" flag="0"/>
      <vel value="0.0132868404" flag="0"/>
      <psa03 value="0.0836097829" flag="0"/>
      <psa10 value="0.0081455293" flag="0"/>
      <psa30 value="0.0005134987" flag="0"/>
    </comp>
    <comp name="--.HHZ">
      <acc value="0.0661171160" flag="0"/>
      <vel value="0.0162599054" flag="0"/>
      <psa03 value="0.0711890373" flag="0"/>
      <psa10 value="0.0081639104" flag="0"/>
      <psa30 value="0.0004619802" flag="0"/>
    </comp>
  </station>
</stationlist>
