<?xml version="1.0" encoding="UTF-8" standalone="yes"?>
<!DOCTYPE earthquake SYSTEM "stationlist.dtd">
<stationlist created="" xmlns="ch.ethz.sed.shakemap.usgs.xml">
  <station code="AKS" name="AKS" netid="KO" insttype="CMG-5T" commtype="DIG" lat="38.8785" lon="27.8129">
    <comp name="--.HNE">
      <acc value="0.1214312201" flag="0"/>
      <vel value="0.0491744265" flag="0"/>
      <psa03 value="0.1760744322" flag="0"/>
      <psa10 value="0.0441229025" flag="0"/>
      <psa30 value="0.0019697999" flag="0"/>
    </comp>
    <comp name="--.HNZ">
      <acc value="0.0895335026" flag="0"/>
      <vel value="0.0245386801" flag="0"/>
      <psa03 value="0.1196381829" flag="0"/>
      <psa10 value="0.0096333910" flag="0"/>
      <psa30 value="0.0009485010" flag="0"/>
    </comp>
    <comp name="--.HNN">
      <acc value="0.1614887796" flag="0"/>
      <vel value="0.0629711094" flag="0"/>
      <psa03 value="0.2542752238" flag="0"/>
      <psa10 value="0.0236704985" flag="0"/>
      <psa30 value="0.0019123536" flag="0"/>
    </comp>
  </station>
  <station code="BALB" name="BALB" netid="KO" insttype="CMG-5T" commtype="DIG" lat="39.6507" lon="27.8642">
    <comp name="--.HNE">
      <acc value="0.0575611391" flag="0"/>
      <vel value="0.0181306492" flag="0"/>
      <psa03 value="0.0882996240" flag="0"/>
      <psa10 value="0.0161659456" flag="0"/>
      <psa30 value="0.0012973262" flag="0"/>
    </comp>
    <comp name="--.HNN">
      <acc value="0.0746333153" flag="0"/>
      <vel value="0.0259123342" flag="0"/>
      <psa03 value="0.1335674993" flag="0"/>
      <psa10 value="0.0358608821" flag="0"/>
      <psa30 value="0.0023990269" flag="0"/>
    </comp>
    <comp name="--.HNZ">
      <acc value="0.0589311489" flag="0"/>
      <vel value="0.0164157357" flag="0"/>
      <psa03 value="0.0589073383" flag="0"/>
      <psa10 value="0.0130976918" flag="0"/>
      <psa30 value="0.0015983640" flag="0"/>
    </comp>
  </station>
  <station code="DKL" name="DKL" netid="KO" insttype="CMG-3ESPC" commtype="DIG" lat="39.0713" lon="26.9053">
    <comp name="--.HHN">
      <acc value="0.0296971727" flag="0"/>
      <vel value="0.0081710303" flag="0"/>
      <psa03 value="0.0250020170" flag="0"/>
      <psa10 value="0.0071265748" flag="0"/>
      <psa30 value="0.0005817582" flag="0"/>
    </comp>
    <comp name="--.HHE">
      <acc value="0.0362834214" flag="0"/>
      <vel value="0.0052957433" flag="0"/>
      <psa03 value="0.0165121640" flag="0"/>
      <psa10 value="0.0062528482" flag="0"/>
      <psa30 value="0.0004857335" flag="0"/>
    </comp>
  </station>
  <station code="DST" name="DST" netid="KO" insttype="CMG-5T" commtype="DIG" lat="39.6041" lon="28.6267">
    <comp name="--.HNN">
      <acc value="0.0615250969" flag="0"/>
      <vel value="0.0151114838" flag="0"/>
      <psa03 value="0.0710439766" flag="0"/>
      <psa10 value="0.0099343561" flag="0"/>
      <psa30 value="0.0016047529" flag="0"/>
    </comp>
    <comp name="--.HNZ">
      <acc value="0.0631373754" flag="0"/>
      <vel value="0.0128491333" flag="0"/>
      <psa03 value="0.0682903636" flag="0"/>
      <psa10 value="0.0108158872" flag="0"/>
      <psa30 value="0.0008964308" flag="0"/>
    </comp>
    <comp name="--.HNE">
      <acc value="0.0588224319" flag="0"/>
      <vel value="0.0215221262" flag="0"/>
      <psa03 value="0.0563916737" flag="0"/>
      <psa10 value="0.0177535393" flag="0"/>
      <psa30 value="0.0012186914" flag="0"/>
    </comp>
  </station>
  <station code="GOMA" name="GOMA" netid="KO" insttype="CMG-5T" commtype="DIG" lat="38.7077" lon="27.9175">
    <comp name="--.HNN">
      <acc value="0.0841992587" flag="0"/>
      <vel value="0.0561078529" flag="0"/>
      <psa03 value="0.2129843232" flag="0"/>
      <psa10 value="0.0266199337" flag="0"/>
      <psa30 value="0.0020116769" flag="0"/>
    </comp>
    <comp name="--.HNE">
      <acc value="0.1073261084" flag="0"/>
      <vel value="0.0499563675" flag="0"/>
      <psa03 value="0.2123785743" flag="0"/>
      <psa10 value="0.0211116031" flag="0"/>
      <psa30 value="0.0015859115" flag="0"/>
    </comp>
    <comp name="--.HNZ">
      <acc value="0.0656351053" flag="0"/>
      <vel value="0.0200621377" flag="0"/>
      <psa03 value="0.0956384829" flag="0"/>
      <psa10 value="0.0087121203" flag="0"/>
      <psa30 value="0.0009832910" flag="0"/>
    </comp>
  </station>
  <station code="GONE" name="GONE" netid="KO" insttype="CMG-5T" commtype="DIG" lat="40.0466" lon="27.686">
    <comp name="--.HNZ">
      <acc value="0.0248960756" flag="0"/>
      <vel value="0.0088467208" flag="0"/>
      <psa03 value="0.0415220597" flag="0"/>
      <psa10 value="0.0086523651" flag="0"/>
      <psa30 value="0.0005956992" flag="0"/>
    </comp>
    <comp name="--.HNE">
      <acc value="0.0410191472" flag="0"/>
      <vel value="0.0273512742" flag="0"/>
      <psa03 value="0.0969484934" flag="0"/>
      <psa10 value="0.0273722247" flag="0"/>
      <psa30 value="0.0011821884" flag="0"/>
    </comp>
    <comp name="--.HNN">
      <acc value="0.0684269650" flag="0"/>
      <vel value="0.0341029854" flag="0"/>
      <psa03 value="0.1640720277" flag="0"/>
      <psa10 value="0.0217593652" flag="0"/>
      <psa30 value="0.0015366713" flag="0"/>
    </comp>
  </station>
  <station code="GORD" name="GORD" netid="KO" insttype="CMG-5T" commtype="DIG" lat="38.9088" lon="28.1769">
    <comp name="--.HNE">
      <acc value="0.1195700182" flag="0"/>
      <vel value="0.0257813829" flag="0"/>
      <psa03 value="0.0921465950" flag="0"/>
      <psa10 value="0.0398656256" flag="0"/>
      <psa30 value="0.0035480507" flag="0"/>
    </comp>
    <comp name="--.HNN">
      <acc value="0.0875353096" flag="0"/>
      <vel value="0.0372238830" flag="0"/>
      <psa03 value="0.1763274117" flag="0"/>
      <psa10 value="0.0355769673" flag="0"/>
      <psa30 value="0.0066425622" flag="0"/>
    </comp>
    <comp name="--.HNZ">
      <acc value="0.2563037538" flag="0"/>
      <vel value="0.0453235166" flag="0"/>
      <psa03 value="0.1647928616" flag="0"/>
      <psa10 value="0.0318204234" flag="0"/>
      <psa30 value="0.0039352899" flag="0"/>
    </comp>
  </station>
  <station code="KCTX" name="KCTX" netid="KO" insttype="CMG-3ESP" commtype="DIG" lat="40.2626" lon="28.3353">
    <comp name="--.HHE">
      <acc value="0.0377677531" flag="0"/>
      <vel value="0.0161625711" flag="0"/>
      <psa03 value="0.0451870759" flag="0"/>
      <psa10 value="0.0172882344" flag="0"/>
      <psa30 value="0.0007870109" flag="0"/>
    </comp>
    <comp name="--.HHN">
      <acc value="0.0521018180" flag="0"/>
      <vel value="0.0167246188" flag="0"/>
      <psa03 value="0.0874970157" flag="0"/>
      <psa10 value="0.0142759666" flag="0"/>
      <psa30 value="0.0009984663" flag="0"/>
    </comp>
    <comp name="--.HHZ">
      <acc value="0.0407344898" flag="0"/>
      <vel value="0.0141608642" flag="0"/>
      <psa03 value="0.0473805385" flag="0"/>
      <psa10 value="0.0091384403" flag="0"/>
      <psa30 value="0.0006037793" flag="0"/>
    </comp>
  </station>
  <station code="KULA" name="KULA" netid="KO" insttype="CMG-3T" commtype="DIG" lat="38.5145" lon="28.6607">
    <comp name="--.HHN">
      <acc value="0.0319363371" flag="0"/>
      <vel value="0.0107308462" flag="0"/>
      <psa03 value="0.0713311539" flag="0"/>
      <psa10 value="0.0080197756" flag="0"/>
      <psa30 value="0.0004142698" flag="0"/>
    </comp>
    <comp name="--.HHE">
      <acc value="0.0448221548" flag="0"/>
      <vel value="0.0151463704" flag="0"/>
      <psa03 value="0.0599871222" flag="0"/>
      <psa10 value="0.0094089041" flag="0"/>
      <psa30 value="0.0006690975" flag="0"/>
    </comp>
  </station>
  <station code="ORLT" name="ORLT" netid="KO" insttype="CMG-5T" commtype="DIG" lat="40.0452" lon="28.8914">
    <comp name="--.HNE">
      <acc value="0.0797892794" flag="0"/>
      <vel value="0.0369870135" flag="0"/>
      <psa03 value="0.3888877571" flag="0"/>
      <psa10 value="0.0369918569" flag="0"/>
      <psa30 value="0.0017647724" flag="0"/>
    </comp>
    <comp name="--.HNN">
      <acc value="0.1175334993" flag="0"/>
      <vel value="0.0450596122" flag="0"/>
      <psa03 value="0.3008688097" flag="0"/>
      <psa10 value="0.0518607250" flag="0"/>
      <psa30 value="0.0022625792" flag="0"/>
    </comp>
    <comp name="--.HNZ">
      <acc value="0.0478321497" flag="0"/>
      <vel value="0.0267648427" flag="0"/>
      <psa03 value="0.1031415785" flag="0"/>
      <psa10 value="0.0344345238" flag="0"/>
      <psa30 value="0.0013908824" flag="0"/>
    </comp>
  </station>
  <station code="SHAP" name="SHAP" netid="KO" insttype="CMG-5T" commtype="DIG" lat="39.0231" lon="29.222">
    <comp name="--.HNE">
      <acc value="0.0614725998" flag="0"/>
      <vel value="0.0225212740" flag="0"/>
      <psa03 value="0.1392688597" flag="0"/>
      <psa10 value="0.0082225221" flag="0"/>
      <psa30 value="0.0007526496" flag="0"/>
    </comp>
    <comp name="--.HNN">
      <acc value="0.0687342126" flag="0"/>
      <vel value="0.0227938535" flag="0"/>
      <psa03 value="0.1124566174" flag="0"/>
      <psa10 value="0.0092693068" flag="0"/>
      <psa30 value="0.0008979575" flag="0"/>
    </comp>
    <comp name="--.HNZ">
      <acc value="0.0436184766" flag="0"/>
      <vel value="0.0128038317" flag="0"/>
      <psa03 value="0.0519820537" flag="0"/>
      <psa10 value="0.0066960043" flag="0"/>
      <psa30 value="0.0005389058" flag="0"/>
    </comp>
  </station>
  <station code="SIMA" name="SIMA" netid="KO" insttype="CMG-6T" commtype="DIG" lat="39.0833" lon="28.9825">
    <comp name="--.HHE">
      <acc value="0.0888824861" flag="0"/>
      <vel value="0.0316751974" flag="0"/>
      <psa03 value="0.1853767262" flag="0"/>
      <psa10 value="0.0068835535" flag="0"/>
      <psa30 value="0.0008247594" flag="0"/>
    </comp>
    <comp name="--.HHN">
      <acc value="0.0752098191" flag="0"/>
      <vel value="0.0303976022" flag="0"/>
      <psa03 value="0.1953145756" flag="0"/>
      <psa10 value="0.0112455184" flag="0"/>
      <psa30 value="0.0010414887" flag="0"/>
    </comp>
    <comp name="--.HHZ">
      <acc value="0.0465821813" flag="0"/>
      <vel value="0.0112595883" flag="0"/>
      <psa03 value="0.0548156326" flag="0"/>
      <psa10 value="0.0037423061" flag="0"/>
      <psa30 value="0.0006900097" flag="0"/>
    </comp>
  </station>
  <station code="SMAA" name="SMAA" netid="KO" insttype="CMG-5T" commtype="DIG" lat="39.1005" lon="28.9805">
    <comp name="--.HNN">
      <acc value="0.0675713072" flag="0"/>
      <vel value="0.0273759542" flag="0"/>
      <psa03 value="0.1718633334" flag="0"/>
      <psa10 value="0.0340192719" flag="0"/>
      <psa30 value="0.0027104720" flag="0"/>
    </comp>
    <comp name="--.HNZ">
      <acc value="0.0368247652" flag="0"/>
      <vel value="0.0167858839" flag="0"/>
      <psa03 value="0.0360795191" flag="0"/>
      <psa10 value="0.0195289917" flag="0"/>
      <psa30 value="0.0012840773" flag="0"/>
    </comp>
    <comp name="--.HNE">
      <acc value="0.0854008337" flag="0"/>
      <vel value="0.0331480622" flag="0"/>
      <psa03 value="0.1499423987" flag="0"/>
      <psa10 value="0.0391825056" flag="0"/>
      <psa30 value="0.0039572264" flag="0"/>
    </comp>
  </station>
  <station code="SOMA" name="SOMA" netid="KO" insttype="CMG-5T" commtype="DIG" lat="39.1564" lon="27.5341">
    <comp name="--.HNE">
      <acc value="0.0708708403" flag="0"/>
      <vel value="0.0229100794" flag="0"/>
      <psa03 value="0.1354368741" flag="0"/>
      <psa10 value="0.0118254876" flag="0"/>
      <psa30 value="0.0008569509" flag="0"/>
    </comp>
    <comp name="--.HNZ">
      <acc value="0.0771850356" flag="0"/>
      <vel value="0.0172207975" flag="0"/>
      <psa03 value="0.0680070468" flag="0"/>
      <psa10 value="0.0062853444" flag="0"/>
      <psa30 value="0.0006976985" flag="0"/>
    </comp>
    <comp name="--.HNN">
      <acc value="0.0868295517" flag="0"/>
      <vel value="0.0272528730" flag="0"/>
      <psa03 value="0.1574586639" flag="0"/>
      <psa10 value="0.0136855969" flag="0"/>
      <psa30 value="0.0009120040" flag="0"/>
    </comp>
  </station>
  <station code="SUSR" name="SUSR" netid="KO" insttype="CMG-5T" commtype="DIG" lat="39.9627" lon="28.0835">
    <comp name="--.HNE">
      <acc value="0.0728535370" flag="0"/>
      <vel value="0.0137929981" flag="0"/>
      <psa03 value="0.0724120396" flag="0"/>
      <psa10 value="0.0069104174" flag="0"/>
      <psa30 value="0.0006054752" flag="0"/>
    </comp>
    <comp name="--.HNZ">
      <acc value="0.0645606531" flag="0"/>
      <vel value="0.0122965682" flag="0"/>
      <psa03 value="0.0660745814" flag="0"/>
      <psa10 value="0.0052241030" flag="0"/>
      <psa30 value="0.0012145868" flag="0"/>
    </comp>
    <comp name="--.HNN">
      <acc value="0.0655845463" flag="0"/>
      <vel value="0.0140664440" flag="0"/>
      <psa03 value="0.0546137533" flag="0"/>
      <psa10 value="0.0053434586" flag="0"/>
      <psa30 value="0.0007757803" flag="0"/>
    </comp>
  </station>
  <station code="TVSB" name="TVSB" netid="KO" insttype="CMG-3T" commtype="DIG" lat="39.4497" lon="29.4615">
    <comp name="--.HHE">
      <acc value="0.0317760712" flag="0"/>
      <vel value="0.0127493913" flag="0"/>
      <psa03 value="0.0790555768" flag="0"/>
      <psa10 value="0.0083091735" flag="0"/>
      <psa30 value="0.0005680714" flag="0"/>
    </comp>
    <comp name="--.HHN">
      <acc value="0.0300582943" flag="0"/>
      <vel value="0.0070033098" flag="0"/>
      <psa03 value="0.0439298321" flag="0"/>
      <psa10 value="0.0071550766" flag="0"/>
      <psa30 value="0.0004096069" flag="0"/>
    </comp>
    <comp name="--.HHZ">
      <acc value="0.0163311449" flag="0"/>
      <vel value="0.0046968595" flag="0"/>
      <psa03 value="0.0274722298" flag="0"/>
      <psa10 value="0.0033806872" flag="0"/>
      <psa30 value="0.0004099204" flag="0"/>
    </comp>
  </station>
  <station code="YAYO" name="YAYO" netid="KO" insttype="CMG-6T" commtype="DIG" lat="39.6113" lon="27.0726">
    <comp name="--.HHE">
      <acc value="0.0260198795" flag="0"/>
      <vel value="0.0158567544" flag="0"/>
      <psa03 value="0.0474661408" flag="0"/>
      <psa10 value="0.0147138164" flag="0"/>
      <psa30 value="0.0010612625" flag="0"/>
    </comp>
    <comp name="--.HHN">
      <acc value="0.0328857629" flag="0"/>
      <vel value="0.0122824250" flag="0"/>
      <psa03 value="0.0970286843" flag="0"/>
      <psa10 value="0.0103115397" flag="0"/>
      <psa30 value="0.0006786284" flag="0"/>
    </comp>
    <comp name="--.HHZ">
      <acc value="0.0294767802" flag="0"/>
      <vel value="0.0139820757" flag="0"/>
      <psa03 value="0.0594525099" flag="0"/>
      <psa10 value="0.0092618056" flag="0"/>
      <psa30 value="0.0006908156" flag="0"/>
    </comp>
  </station>
  <station code="YENI" name="YENI" netid="KO" insttype="CMG-5T" commtype="DIG" lat="39.9364" lon="27.2422">
    <comp name="--.HNE">
      <acc value="0.0624335741" flag="0"/>
      <vel value="0.0438687952" flag="0"/>
      <psa03 value="0.1453443554" flag="0"/>
      <psa10 value="0.0497627033" flag="0"/>
      <psa30 value="0.0021475780" flag="0"/>
    </comp>
    <comp name="--.HNN">
      <acc value="0.0781991136" flag="0"/>
      <vel value="0.0312069110" flag="0"/>
      <psa03 value="0.1024264966" flag="0"/>
      <psa10 value="0.0231695159" flag="0"/>
      <psa30 value="0.0013638553" flag="0"/>
    </comp>
    <comp name="--.HNZ">
      <acc value="0.0256970259" flag="0"/>
      <vel value="0.0122341749" flag="0"/>
      <psa03 value="0.0283371931" flag="0"/>
      <psa10 value="0.0125868395" flag="0"/>
      <psa30 value="0.0007992323" flag="0"/>
    </comp>
  </station>
</stationlist>
