<stationlist created="1761969745">
	<station code="KRL1" name="KRL1" netid="HI" source="ITSAK Strong Motion Network" insttype="" lat="37.7951" lon="26.7065">
		<comp name="--.HNE" depth="0.0">
			<acc value="0.0096846630518376" flag="0"/>
			<vel value="0.00574083694656" flag="0"/>
			<psa03 value="0.0261148471679528" flag="0"/>
			<psa10 value="0.00567696200837087" flag="0"/>
			<psa30 value="0.000667178572303937" flag="0"/>
		</comp>
		<comp name="--.HNN" depth="0.0">
			<acc value="0.0065316334685616" flag="0"/>
			<vel value="0.00553549736504" flag="0"/>
			<psa03 value="0.0169245417407249" flag="0"/>
			<psa10 value="0.00834709764176069" flag="0"/>
			<psa30 value="0.000531321864131991" flag="0"/>
		</comp>
		<comp name="--.HNZ" depth="0.0">
			<acc value="0.0054526527146508" flag="0"/>
			<vel value="0.00366082491914" flag="0"/>
			<psa03 value="0.011335179285422" flag="0"/>
			<psa10 value="0.00419080371392908" flag="0"/>
			<psa30 value="0.000247300054289738" flag="0"/>
		</comp>
	</station>
	<station code="MYT1" name="MYT1" netid="HI" source="ITSAK Strong Motion Network" insttype="" lat="39.085" lon="26.5694">
		<comp name="--.HNE" depth="0.0">
			<acc value="0.016399895794608" flag="0"/>
			<vel value="0.010056808693" flag="0"/>
			<psa03 value="0.0384761373969507" flag="0"/>
			<psa10 value="0.0100796130373863" flag="0"/>
			<psa30 value="0.000710384246970745" flag="0"/>
		</comp>
		<comp name="--.HNN" depth="0.0">
			<acc value="0.013605780094452" flag="0"/>
			<vel value="0.0115776533699" flag="0"/>
			<psa03 value="0.0226332727807326" flag="0"/>
			<psa10 value="0.0209300483879925" flag="0"/>
			<psa30 value="0.000958752679324424" flag="0"/>
		</comp>
		<comp name="--.HNZ" depth="0.0">
			<acc value="0.012142194048954" flag="0"/>
			<vel value="0.00599879105846" flag="0"/>
			<psa03 value="0.030184887621479" flag="0"/>
			<psa10 value="0.00981384136884662" flag="0"/>
			<psa30 value="0.000623541983677873" flag="0"/>
		</comp>
	</station>
	<station code="PLM1" name="PLM1" netid="HI" source="ITSAK Strong Motion Network" insttype="" lat="38.9751" lon="26.3688">
		<comp name="--.HNE" depth="0.0">
			<acc value="0.014410170126114" flag="0"/>
			<vel value="0.00538502220599" flag="0"/>
			<psa03 value="0.0344173893581261" flag="0"/>
			<psa10 value="0.00258309424231493" flag="0"/>
			<psa30 value="0.000237481539278125" flag="0"/>
		</comp>
		<comp name="--.HNN" depth="0.0">
			<acc value="0.0096742001065986" flag="0"/>
			<vel value="0.00351872104632" flag="0"/>
			<psa03 value="0.0177617339193895" flag="0"/>
			<psa10 value="0.00322467760344113" flag="0"/>
			<psa30 value="0.000179229425153101" flag="0"/>
		</comp>
		<comp name="--.HNZ" depth="0.0">
			<acc value="0.004992894883119" flag="0"/>
			<vel value="0.00200737674404" flag="0"/>
			<psa03 value="0.00723542462385594" flag="0"/>
			<psa10 value="0.00270911548123082" flag="0"/>
			<psa30 value="0.000206000013677229" flag="0"/>
		</comp>
	</station>
	<station code="PRK" name="PRK" netid="HL" source="National Observatory of Athens Seismic Network" insttype="" lat="39.24565" lon="26.26499">
		<comp name="--.HNE" depth="0.0">
			<acc value="0.007267567446072" flag="0"/>
			<vel value="0.00475697675521" flag="0"/>
			<psa03 value="0.0273943876603949" flag="0"/>
			<psa10 value="0.00520728745723826" flag="0"/>
			<psa30 value="0.000372428994509747" flag="0"/>
		</comp>
		<comp name="--.HNN" depth="0.0">
			<acc value="0.007713809489409" flag="0"/>
			<vel value="0.0036354082229" flag="0"/>
			<psa03 value="0.0157315447417819" flag="0"/>
			<psa10 value="0.00663925372423964" flag="0"/>
			<psa30 value="0.000418175931269737" flag="0"/>
		</comp>
		<comp name="--.HNZ" depth="0.0">
			<acc value="0.0060568847425218" flag="0"/>
			<vel value="0.00328058347372" flag="0"/>
			<psa03 value="0.0152401176558946" flag="0"/>
			<psa10 value="0.00317539769826456" flag="0"/>
			<psa30 value="0.000392847430464374" flag="0"/>
		</comp>
	</station>
	<station code="SMG" name="SMG" netid="HL" source="National Observatory of Athens Seismic Network" insttype="" lat="37.70425" lon="26.83772">
		<comp name="00.HNE" depth="0.0">
			<acc value="0.005763613574268" flag="0"/>
			<vel value="0.00366016937085" flag="0"/>
			<psa03 value="0.0259584956645971" flag="0"/>
			<psa10 value="0.00412852568206524" flag="0"/>
			<psa30 value="0.000246714650926311" flag="0"/>
		</comp>
		<comp name="00.HNN" depth="0.0">
			<acc value="0.0069273226572852" flag="0"/>
			<vel value="0.00499055922124" flag="0"/>
			<psa03 value="0.0337192493597663" flag="0"/>
			<psa10 value="0.00402923410446748" flag="0"/>
			<psa30 value="0.000332707613163274" flag="0"/>
		</comp>
		<comp name="00.HNZ" depth="0.0">
			<acc value="0.0033982204740408" flag="0"/>
			<vel value="0.00185239429455" flag="0"/>
			<psa03 value="0.0107375843591395" flag="0"/>
			<psa10 value="0.00301236150729158" flag="0"/>
			<psa30 value="0.000325003639271055" flag="0"/>
		</comp>
	</station>
	<station code="LES3" name="LES3" netid="HT" source="Aristotle University of Thessaloniki Seismological Network" insttype="" lat="39.303248" lon="26.180664">
		<comp name="--.HNE" depth="0.0">
			<acc value="0.031560677912922" flag="0"/>
			<vel value="0.0201070190991" flag="0"/>
			<psa03 value="0.0388001796964739" flag="0"/>
			<psa10 value="0.0210135907972533" flag="0"/>
			<psa30 value="0.0125746446751577" flag="0"/>
		</comp>
		<comp name="--.HNN" depth="0.0">
			<acc value="0.029877438109188" flag="0"/>
			<vel value="0.0186463652804" flag="0"/>
			<psa03 value="0.0435730557719384" flag="0"/>
			<psa10 value="0.0174075056618297" flag="0"/>
			<psa30 value="0.0086782590587297" flag="0"/>
		</comp>
		<comp name="--.HNZ" depth="0.0">
			<acc value="0.042189938491716" flag="0"/>
			<vel value="0.0307197456046" flag="0"/>
			<psa03 value="0.0572111857936534" flag="0"/>
			<psa10 value="0.024171939397367" flag="0"/>
			<psa30 value="0.0127423482846877" flag="0"/>
		</comp>
	</station>
	<station code="AKS" name="AKS" netid="KO" source="Bogazici University Kandilli Observatory And Earthquake Research Institute (KOERI)" insttype="" lat="38.8785" lon="27.8129">
		<comp name="--.HNE" depth="0.0">
			<acc value="0.1194905979612" flag="0"/>
			<vel value="0.0500540268234" flag="0"/>
			<psa03 value="0.172426870350442" flag="0"/>
			<psa10 value="0.0442744129626918" flag="0"/>
			<psa30 value="0.00205854699363637" flag="0"/>
		</comp>
		<comp name="--.HNN" depth="0.0">
			<acc value="0.15950520634866" flag="0"/>
			<vel value="0.0632523127772" flag="0"/>
			<psa03 value="0.253533420344917" flag="0"/>
			<psa10 value="0.0237380337782263" flag="0"/>
			<psa30 value="0.00199813882522591" flag="0"/>
		</comp>
		<comp name="--.HNZ" depth="0.0">
			<acc value="0.089306237492328" flag="0"/>
			<vel value="0.0242819863073" flag="0"/>
			<psa03 value="0.121171766618149" flag="0"/>
			<psa10 value="0.00964510269070611" flag="0"/>
			<psa30 value="0.00112939064992128" flag="0"/>
		</comp>
	</station>
	<station code="ALT" name="ALT" netid="KO" source="Bogazici University Kandilli Observatory And Earthquake Research Institute (KOERI)" insttype="" lat="39.0541" lon="30.1104">
		<comp name="--.HNE" depth="0.0">
			<acc value="0.0042006344103042" flag="0"/>
			<vel value="0.00144031264069" flag="0"/>
			<psa03 value="0.00654640437027728" flag="0"/>
			<psa10 value="0.00116591614247173" flag="0"/>
			<psa30 value="0.000342573396931408" flag="0"/>
		</comp>
		<comp name="--.HNN" depth="0.0">
			<acc value="0.0050972527027566" flag="0"/>
			<vel value="0.00241218109413" flag="0"/>
			<psa03 value="0.0125749424032232" flag="0"/>
			<psa10 value="0.00165719810155504" flag="0"/>
			<psa30 value="0.00042404730980295" flag="0"/>
		</comp>
		<comp name="--.HNZ" depth="0.0">
			<acc value="0.0025445131728744" flag="0"/>
			<vel value="0.00190537564434" flag="0"/>
			<psa03 value="0.00433633543802393" flag="0"/>
			<psa10 value="0.00152278392383629" flag="0"/>
			<psa30 value="0.000657957440617813" flag="0"/>
		</comp>
	</station>
	<station code="ASYA" name="ASYA" netid="KO" source="Bogazici University Kandilli Observatory And Earthquake Research Institute (KOERI)" insttype="" lat="40.8956" lon="27.465">
		<comp name="--.HNE" depth="0.0">
			<acc value="0.15885296559426" flag="0"/>
			<vel value="0.0216030133953" flag="0"/>
			<psa03 value="0.0590841744530362" flag="0"/>
			<psa10 value="0.0111213908000509" flag="0"/>
			<psa30 value="0.000567623487686091" flag="0"/>
		</comp>
		<comp name="--.HNN" depth="0.0">
			<acc value="0.20435579494038" flag="0"/>
			<vel value="0.0295850933421" flag="0"/>
			<psa03 value="0.0444124629410581" flag="0"/>
			<psa10 value="0.0135102174856189" flag="0"/>
			<psa30 value="0.000910596989249877" flag="0"/>
		</comp>
		<comp name="--.HNZ" depth="0.0">
			<acc value="0.1419067093827" flag="0"/>
			<vel value="0.0275394400917" flag="0"/>
			<psa03 value="0.160951224728663" flag="0"/>
			<psa10 value="0.00364084407867749" flag="0"/>
			<psa30 value="0.000409363212053612" flag="0"/>
		</comp>
	</station>
	<station code="AVCI" name="AVCI" netid="KO" source="Bogazici University Kandilli Observatory And Earthquake Research Institute (KOERI)" insttype="" lat="40.9958" lon="28.7225">
		<comp name="--.HNE" depth="0.0">
			<acc value="0.01172839421094" flag="0"/>
			<vel value="0.010897019146" flag="0"/>
			<psa03 value="0.0291539677656255" flag="0"/>
			<psa10 value="0.0175108268813456" flag="0"/>
			<psa30 value="0.00199574137473681" flag="0"/>
		</comp>
		<comp name="--.HNN" depth="0.0">
			<acc value="0.013365897283626" flag="0"/>
			<vel value="0.0114162310616" flag="0"/>
			<psa03 value="0.0317119080499206" flag="0"/>
			<psa10 value="0.0132576373159263" flag="0"/>
			<psa30 value="0.00190306961068638" flag="0"/>
		</comp>
		<comp name="--.HNZ" depth="0.0">
			<acc value="0.006897318694887" flag="0"/>
			<vel value="0.00487402892555" flag="0"/>
			<psa03 value="0.0216194491094978" flag="0"/>
			<psa10 value="0.00588414917101223" flag="0"/>
			<psa30 value="0.000544118128491114" flag="0"/>
		</comp>
	</station>
	<station code="BALB" name="BALB" netid="KO" source="Bogazici University Kandilli Observatory And Earthquake Research Institute (KOERI)" insttype="" lat="39.6507" lon="27.8642">
		<comp name="--.HNE" depth="0.0">
			<acc value="0.057912735941694" flag="0"/>
			<vel value="0.0180751617286" flag="0"/>
			<psa03 value="0.0895841740952765" flag="0"/>
			<psa10 value="0.0162300270346536" flag="0"/>
			<psa30 value="0.00160949516282402" flag="0"/>
		</comp>
		<comp name="--.HNN" depth="0.0">
			<acc value="0.074244844497048" flag="0"/>
			<vel value="0.0256100864027" flag="0"/>
			<psa03 value="0.13347400866488" flag="0"/>
			<psa10 value="0.0359396695767134" flag="0"/>
			<psa30 value="0.00252002568933355" flag="0"/>
		</comp>
		<comp name="--.HNZ" depth="0.0">
			<acc value="0.05779116980271" flag="0"/>
			<vel value="0.0165584726097" flag="0"/>
			<psa03 value="0.0608217687272352" flag="0"/>
			<psa10 value="0.0130857859316122" flag="0"/>
			<psa30 value="0.00173826952682518" flag="0"/>
		</comp>
	</station>
	<station code="BASM" name="BASM" netid="KO" source="Bogazici University Kandilli Observatory And Earthquake Research Institute (KOERI)" insttype="" lat="37.9194" lon="30.035">
		<comp name="--.HNE" depth="0.0">
			<acc value="0.0060266446113024" flag="0"/>
			<vel value="0.00559272684927" flag="0"/>
			<psa03 value="0.010450185763125" flag="0"/>
			<psa10 value="0.00473518602659121" flag="0"/>
			<psa30 value="0.00146108501887899" flag="0"/>
		</comp>
		<comp name="--.HNN" depth="0.0">
			<acc value="0.005961288593232" flag="0"/>
			<vel value="0.00508438635707" flag="0"/>
			<psa03 value="0.0129317030160048" flag="0"/>
			<psa10 value="0.00936521696217747" flag="0"/>
			<psa30 value="0.00189102027081405" flag="0"/>
		</comp>
		<comp name="--.HNZ" depth="0.0">
			<acc value="0.0035486671830414" flag="0"/>
			<vel value="0.00217460890258" flag="0"/>
			<psa03 value="0.00770483788163388" flag="0"/>
			<psa10 value="0.0046135917215522" flag="0"/>
			<psa30 value="0.000548501960562348" flag="0"/>
		</comp>
	</station>
	<station code="BIGA" name="BIGA" netid="KO" source="Bogazici University Kandilli Observatory And Earthquake Research Institute (KOERI)" insttype="" lat="40.28134" lon="27.15048">
		<comp name="--.HNE" depth="0.0">
			<acc value="0.025522334883186" flag="0"/>
			<vel value="0.0121707989474" flag="0"/>
			<psa03 value="0.0559066202056853" flag="0"/>
			<psa10 value="0.0165527771652497" flag="0"/>
			<psa30 value="0.000683450327314418" flag="0"/>
		</comp>
		<comp name="--.HNN" depth="0.0">
			<acc value="0.045034702530144" flag="0"/>
			<vel value="0.013837660184" flag="0"/>
			<psa03 value="0.0499856706802069" flag="0"/>
			<psa10 value="0.0105882629829582" flag="0"/>
			<psa30 value="0.00100070254163282" flag="0"/>
		</comp>
		<comp name="--.HNZ" depth="0.0">
			<acc value="0.013474894392948" flag="0"/>
			<vel value="0.00444612359997" flag="0"/>
			<psa03 value="0.0150496948851082" flag="0"/>
			<psa10 value="0.00446838725872147" flag="0"/>
			<psa30 value="0.000619541927029331" flag="0"/>
		</comp>
	</station>
	<station code="BMYO" name="BMYO" netid="KO" source="Bogazici University Kandilli Observatory And Earthquake Research Institute (KOERI)" insttype="" lat="39.8098" lon="26.6009">
		<comp name="--.HNE" depth="0.0">
			<acc value="0.030254169545496" flag="0"/>
			<vel value="0.0167108845203" flag="0"/>
			<psa03 value="0.0568363692971737" flag="0"/>
			<psa10 value="0.0128711217111651" flag="0"/>
			<psa30 value="0.00147539388343783" flag="0"/>
		</comp>
		<comp name="--.HNN" depth="0.0">
			<acc value="0.042756299703414" flag="0"/>
			<vel value="0.0257807082775" flag="0"/>
			<psa03 value="0.12994921266424" flag="0"/>
			<psa10 value="0.01884341953407" flag="0"/>
			<psa30 value="0.00132776847897855" flag="0"/>
		</comp>
		<comp name="--.HNZ" depth="0.0">
			<acc value="0.013959005307012" flag="0"/>
			<vel value="0.00697970567038" flag="0"/>
			<psa03 value="0.0214571545041165" flag="0"/>
			<psa10 value="0.0167496408314991" flag="0"/>
			<psa30 value="0.00120743113222192" flag="0"/>
		</comp>
	</station>
	<station code="BOTS" name="BOTS" netid="KO" source="Bogazici University Kandilli Observatory And Earthquake Research Institute (KOERI)" insttype="" lat="40.9902" lon="27.981">
		<comp name="--.HNE" depth="0.0">
			<acc value="0.014318433188226" flag="0"/>
			<vel value="0.00622980999144" flag="0"/>
			<psa03 value="0.0245322267021079" flag="0"/>
			<psa10 value="0.00452786291745747" flag="0"/>
			<psa30 value="0.000593712038842358" flag="0"/>
		</comp>
		<comp name="--.HNN" depth="0.0">
			<acc value="0.01234777468971" flag="0"/>
			<vel value="0.010011421273" flag="0"/>
			<psa03 value="0.0349562323454819" flag="0"/>
			<psa10 value="0.00884582067970362" flag="0"/>
			<psa30 value="0.000526890372653318" flag="0"/>
		</comp>
		<comp name="--.HNZ" depth="0.0">
			<acc value="0.00375730812993" flag="0"/>
			<vel value="0.00263836182834" flag="0"/>
			<psa03 value="0.00934331426122186" flag="0"/>
			<psa10 value="0.00335781048534034" flag="0"/>
			<psa30 value="0.000364428568687456" flag="0"/>
		</comp>
	</station>
	<station code="BUYK" name="BUYK" netid="KO" source="Bogazici University Kandilli Observatory And Earthquake Research Institute (KOERI)" insttype="" lat="41.0168" lon="28.5828">
		<comp name="--.HNE" depth="0.0">
			<acc value="0.012277894224612" flag="0"/>
			<vel value="0.0109728607366" flag="0"/>
			<psa03 value="0.0343254197239448" flag="0"/>
			<psa10 value="0.0200197299588665" flag="0"/>
			<psa30 value="0.00117833107948605" flag="0"/>
		</comp>
		<comp name="--.HNN" depth="0.0">
			<acc value="0.014489209001688" flag="0"/>
			<vel value="0.0123672042819" flag="0"/>
			<psa03 value="0.0431107751481062" flag="0"/>
			<psa10 value="0.0223336538699617" flag="0"/>
			<psa30 value="0.0018102638794314" flag="0"/>
		</comp>
		<comp name="--.HNZ" depth="0.0">
			<acc value="0.0068820779050302" flag="0"/>
			<vel value="0.0067974593916" flag="0"/>
			<psa03 value="0.0159319121818064" flag="0"/>
			<psa10 value="0.0106651487012457" flag="0"/>
			<psa30 value="0.00056441989004634" flag="0"/>
		</comp>
	</station>
	<station code="CANM" name="CANM" netid="KO" source="Bogazici University Kandilli Observatory And Earthquake Research Institute (KOERI)" insttype="" lat="40.0113" lon="27.0529">
		<comp name="--.HNE" depth="0.0">
			<acc value="0.031724026958076" flag="0"/>
			<vel value="0.015800801017" flag="0"/>
			<psa03 value="0.0323287327657399" flag="0"/>
			<psa10 value="0.0128122578116851" flag="0"/>
			<psa30 value="0.00112034567573429" flag="0"/>
		</comp>
		<comp name="--.HNN" depth="0.0">
			<acc value="0.039025176606606" flag="0"/>
			<vel value="0.0201172796718" flag="0"/>
			<psa03 value="0.0628215418271947" flag="0"/>
			<psa10 value="0.0216658958842655" flag="0"/>
			<psa30 value="0.00155132370508024" flag="0"/>
		</comp>
		<comp name="--.HNZ" depth="0.0">
			<acc value="0.025987218149856" flag="0"/>
			<vel value="0.00903642240284" flag="0"/>
			<psa03 value="0.0349954016069585" flag="0"/>
			<psa10 value="0.00725088783573481" flag="0"/>
			<psa30 value="0.00112014587083356" flag="0"/>
		</comp>
	</station>
	<station code="CESE" name="CESE" netid="KO" source="Bogazici University Kandilli Observatory And Earthquake Research Institute (KOERI)" insttype="" lat="38.3306" lon="26.2997">
		<comp name="--.HNE" depth="0.0">
			<acc value="0.0034498487151642" flag="0"/>
			<vel value="0.00176494130141" flag="0"/>
			<psa03 value="0.00801598154025336" flag="0"/>
			<psa10 value="0.00167973732904284" flag="0"/>
			<psa30 value="0.000493159596484363" flag="0"/>
		</comp>
		<comp name="--.HNN" depth="0.0">
			<acc value="0.0033919229114004" flag="0"/>
			<vel value="0.00400760242582" flag="0"/>
			<psa03 value="0.00757550118872546" flag="0"/>
			<psa10 value="0.00553953087299889" flag="0"/>
			<psa30 value="0.000769820475992882" flag="0"/>
		</comp>
		<comp name="--.HNZ" depth="0.0">
			<acc value="0.0015652674336774" flag="0"/>
			<vel value="0.00140610147766" flag="0"/>
			<psa03 value="0.0063394381858195" flag="0"/>
			<psa10 value="0.00174753115598675" flag="0"/>
			<psa30 value="0.000338428955715907" flag="0"/>
		</comp>
	</station>
	<station code="CRLU" name="CRLU" netid="KO" source="Bogazici University Kandilli Observatory And Earthquake Research Institute (KOERI)" insttype="" lat="41.1428" lon="27.8215">
		<comp name="--.HNE" depth="0.0">
			<acc value="0.012485115081774" flag="0"/>
			<vel value="0.0116143825778" flag="0"/>
			<psa03 value="0.0360484479285763" flag="0"/>
			<psa10 value="0.0119613142533853" flag="0"/>
			<psa30 value="0.000953652445626824" flag="0"/>
		</comp>
		<comp name="--.HNN" depth="0.0">
			<acc value="0.015657205273266" flag="0"/>
			<vel value="0.0125320944355" flag="0"/>
			<psa03 value="0.0452620713066203" flag="0"/>
			<psa10 value="0.0154904836685363" flag="0"/>
			<psa30 value="0.00144919183517793" flag="0"/>
		</comp>
		<comp name="--.HNZ" depth="0.0">
			<acc value="0.007301010628497" flag="0"/>
			<vel value="0.00562291830918" flag="0"/>
			<psa03 value="0.0222293033114014" flag="0"/>
			<psa10 value="0.0102641740136671" flag="0"/>
			<psa30 value="0.000791829850673224" flag="0"/>
		</comp>
	</station>
	<station code="DIDI" name="DIDI" netid="KO" source="Bogazici University Kandilli Observatory And Earthquake Research Institute (KOERI)" insttype="" lat="37.3767" lon="27.2398">
		<comp name="--.HNE" depth="0.0">
			<acc value="0.0085802218926846" flag="0"/>
			<vel value="0.0070792515395" flag="0"/>
			<psa03 value="0.0226537897648966" flag="0"/>
			<psa10 value="0.0135693429648888" flag="0"/>
			<psa30 value="0.00111844179961337" flag="0"/>
		</comp>
		<comp name="--.HNN" depth="0.0">
			<acc value="0.0093918138994344" flag="0"/>
			<vel value="0.00616335833466" flag="0"/>
			<psa03 value="0.0195076243156424" flag="0"/>
			<psa10 value="0.00911020944417051" flag="0"/>
