<stationlist created="1775820694">
	<station code="LMS2" name="LMS2" netid="HI" source="ITSAK Strong Motion Network" insttype="" lat="40.834985" lon="21.141815">
		<comp name="--.HNE" depth="0.0">
			<acc value="0.00414483952689184" flag="0"/>
			<vel value="0.00251975487848091" flag="0"/>
			<psa03 value="0.00942912202890866" flag="0"/>
			<psa10 value="0.00262923495516288" flag="0"/>
			<psa30 value="0.000622551605569833" flag="0"/>
		</comp>
		<comp name="--.HNN" depth="0.0">
			<acc value="0.0053482344590503" flag="0"/>
			<vel value="0.00260843291963627" flag="0"/>
			<psa03 value="0.0093946907115455" flag="0"/>
			<psa10 value="0.00214661689033586" flag="0"/>
			<psa30 value="0.000923239285072124" flag="0"/>
		</comp>
		<comp name="--.HNZ" depth="0.0">
			<acc value="0.00219207323044931" flag="0"/>
			<vel value="0.00174357401230299" flag="0"/>
			<psa03 value="0.00620254695601942" flag="0"/>
			<psa10 value="0.00197128011888511" flag="0"/>
			<psa30 value="0.000621954586857535" flag="0"/>
		</comp>
	</station>
</stationlist>
