<?xml version="1.0" encoding="UTF-8" standalone="yes"?>
<!DOCTYPE earthquake SYSTEM "stationlist.dtd">
<stationlist created="" xmlns="ch.ethz.sed.shakemap.usgs.xml">
  <station code="BCI" name="BCI" netid="AC" insttype="" lat="42.3666" lon="20.0675">
    <comp name="--.HHE">
      <acc value="1.8750031234" flag="0"/>
      <vel value="0.3583616598" flag="0"/>
      <psa03 value="2.3839863992" flag="0"/>
      <psa10 value="0.2054507068" flag="0"/>
      <psa30 value="0.0270714451" flag="0"/>
    </comp>
    <comp name="--.HHN">
      <acc value="1.6636531692" flag="0"/>
      <vel value="0.4003104780" flag="0"/>
      <psa03 value="1.0052646831" flag="0"/>
      <psa10 value="0.3970230775" flag="0"/>
      <psa30 value="0.0197898195" flag="0"/>
    </comp>
    <comp name="--.HHZ">
      <acc value="1.3214595056" flag="0"/>
      <vel value="0.2700555211" flag="0"/>
      <psa03 value="1.1412502677" flag="0"/>
      <psa10 value="0.1876007208" flag="0"/>
      <psa30 value="0.0106083589" flag="0"/>
    </comp>
  </station>
  <station code="PHP" name="PHP" netid="AC" insttype="" lat="41.6847" lon="20.4408">
    <comp name="--.HHE">
      <acc value="0.0901856208" flag="0"/>
      <vel value="0.0180741491" flag="0"/>
      <psa03 value="0.0517583586" flag="0"/>
      <psa10 value="0.0326029163" flag="0"/>
      <psa30 value="0.0025615259" flag="0"/>
    </comp>
    <comp name="--.HHN">
      <acc value="0.0424790450" flag="0"/>
      <vel value="0.0141155555" flag="0"/>
      <psa03 value="0.0420612314" flag="0"/>
      <psa10 value="0.0121253323" flag="0"/>
      <psa30 value="0.0020587308" flag="0"/>
    </comp>
    <comp name="--.HHZ">
      <acc value="0.0293783432" flag="0"/>
      <vel value="0.0086293609" flag="0"/>
      <psa03 value="0.0209584399" flag="0"/>
      <psa10 value="0.0178267142" flag="0"/>
      <psa30 value="0.0013893962" flag="0"/>
    </comp>
  </station>
  <station code="PUK" name="PUK" netid="AC" insttype="" lat="42.0426" lon="19.8926">
    <comp name="--.HHE">
      <acc value="1.4158262380" flag="0"/>
      <vel value="0.5394094526" flag="0"/>
      <psa03 value="2.4801098586" flag="0"/>
      <psa10 value="0.2596469225" flag="0"/>
      <psa30 value="0.0227742449" flag="0"/>
    </comp>
    <comp name="--.HHN">
      <acc value="6.1295859499" flag="0"/>
      <vel value="0.4407167644" flag="0"/>
      <psa03 value="2.0046768844" flag="0"/>
      <psa10 value="0.1771376484" flag="0"/>
      <psa30 value="0.0137256619" flag="0"/>
    </comp>
    <comp name="--.HHZ">
      <acc value="0.8000709838" flag="0"/>
      <vel value="0.3352314376" flag="0"/>
      <psa03 value="2.1639214437" flag="0"/>
      <psa10 value="0.1381968718" flag="0"/>
      <psa30 value="0.0104692188" flag="0"/>
    </comp>
  </station>
  <station code="KOME" name="KOME" netid="ME" insttype="SMART24" lat="42.8505" lon="19.5152">
    <comp name="--.HHE">
      <acc value="0.0482263727" flag="0"/>
      <vel value="0.0234648746" flag="0"/>
      <psa03 value="0.0861812384" flag="0"/>
      <psa10 value="0.0171575660" flag="0"/>
      <psa30 value="0.0009686815" flag="0"/>
    </comp>
    <comp name="--.HHZ">
      <acc value="0.0249150736" flag="0"/>
      <vel value="0.0107436231" flag="0"/>
      <psa03 value="0.0682685635" flag="0"/>
      <psa10 value="0.0133131835" flag="0"/>
      <psa30 value="0.0014182853" flag="0"/>
    </comp>
    <comp name="--.HHN">
      <acc value="0.0419463120" flag="0"/>
      <vel value="0.0172635477" flag="0"/>
      <psa03 value="0.0803279280" flag="0"/>
      <psa10 value="0.0149565935" flag="0"/>
      <psa30 value="0.0009465176" flag="0"/>
    </comp>
  </station>
  <station code="PDG" name="PDG" netid="MN" insttype="" lat="42.4297" lon="19.2608">
    <comp name="--.HHE">
      <acc value="0.1473330307" flag="0"/>
      <vel value="0.0439417572" flag="0"/>
      <psa03 value="0.2268146293" flag="0"/>
      <psa10 value="0.0172045687" flag="0"/>
      <psa30 value="0.0011067849" flag="0"/>
    </comp>
    <comp name="--.HHN">
      <acc value="0.1368627758" flag="0"/>
      <vel value="0.0459700860" flag="0"/>
      <psa03 value="0.1836130731" flag="0"/>
      <psa10 value="0.0139739444" flag="0"/>
      <psa30 value="0.0024188104" flag="0"/>
    </comp>
    <comp name="--.HHZ">
      <acc value="0.1308675968" flag="0"/>
      <vel value="0.0406887655" flag="0"/>
      <psa03 value="0.2052921639" flag="0"/>
      <psa10 value="0.0195234107" flag="0"/>
      <psa30 value="0.0014137653" flag="0"/>
    </comp>
  </station>
  <station code="TIR" name="TIR" netid="MN" insttype="" lat="41.3472" lon="19.8631">
    <comp name="--.HHE">
      <acc value="0.0286287829" flag="0"/>
      <vel value="0.0142616992" flag="0"/>
      <psa03 value="0.0683965104" flag="0"/>
      <psa10 value="0.0142691552" flag="0"/>
      <psa30 value="0.0015541029" flag="0"/>
    </comp>
    <comp name="--.HHZ">
      <acc value="0.0258587852" flag="0"/>
      <vel value="0.0106600726" flag="0"/>
      <psa03 value="0.0461115915" flag="0"/>
      <psa10 value="0.0106656744" flag="0"/>
      <psa30 value="0.0011418520" flag="0"/>
    </comp>
    <comp name="--.HHN">
      <acc value="0.0289537048" flag="0"/>
      <vel value="0.0112483409" flag="0"/>
      <psa03 value="0.0626362981" flag="0"/>
      <psa10 value="0.0125529730" flag="0"/>
      <psa30 value="0.0015201281" flag="0"/>
    </comp>
  </station>
</stationlist>
