<?xml version="1.0" encoding="UTF-8" standalone="yes"?>
<!DOCTYPE earthquake SYSTEM "stationlist.dtd">
<stationlist created="" xmlns="ch.ethz.sed.shakemap.usgs.xml">
  <station code="BERA" name="BERA" netid="AC" insttype="" commtype="DIG" lat="40.7081" lon="19.9455">
    <comp name="00.HHN">
      <acc value="0.0116818934" flag="0"/>
      <vel value="0.0037563898" flag="0"/>
      <psa03 value="0.0152235503" flag="0"/>
      <psa10 value="0.0077722912" flag="0"/>
      <psa30 value="0.0003715472" flag="0"/>
    </comp>
    <comp name="00.HHE">
      <acc value="0.0158083452" flag="0"/>
      <vel value="0.0040042962" flag="0"/>
      <psa03 value="0.0272083143" flag="0"/>
      <psa10 value="0.0049147171" flag="0"/>
      <psa30 value="0.0007621190" flag="0"/>
    </comp>
    <comp name="00.HHZ">
      <acc value="0.0098546806" flag="0"/>
      <vel value="0.0025293396" flag="0"/>
      <psa03 value="0.0093375346" flag="0"/>
      <psa10 value="0.0032256583" flag="0"/>
      <psa30 value="0.0002997062" flag="0"/>
    </comp>
  </station>
  <station code="PHP" name="PHP" netid="AC" insttype="" commtype="DIG" lat="41.6847" lon="20.4408">
    <comp name="00.HHE">
      <acc value="0.0140144873" flag="0"/>
      <vel value="0.0081131376" flag="0"/>
      <psa03 value="0.0280895772" flag="0"/>
      <psa10 value="0.0131402165" flag="0"/>
      <psa30 value="0.0005750375" flag="0"/>
    </comp>
    <comp name="00.HHZ">
      <acc value="0.0216277539" flag="0"/>
      <vel value="0.0061003476" flag="0"/>
      <psa03 value="0.0184547508" flag="0"/>
      <psa10 value="0.0080394611" flag="0"/>
      <psa30 value="0.0008942546" flag="0"/>
    </comp>
    <comp name="00.HHN">
      <acc value="0.0296173091" flag="0"/>
      <vel value="0.0095208561" flag="0"/>
      <psa03 value="0.0268787836" flag="0"/>
      <psa10 value="0.0117027390" flag="0"/>
      <psa30 value="0.0006675183" flag="0"/>
    </comp>
  </station>
  <station code="PUK" name="PUK" netid="AC" insttype="" commtype="DIG" lat="42.0426" lon="19.8926">
    <comp name="00.HHN">
      <acc value="0.0001064941" flag="0"/>
      <vel value="0.0000345209" flag="0"/>
      <psa03 value="0.0002109517" flag="0"/>
      <psa10 value="0.0000209965" flag="0"/>
      <psa30 value="0.0000013821" flag="0"/>
    </comp>
    <comp name="00.HHE">
      <acc value="0.0002455716" flag="0"/>
      <vel value="0.0000775527" flag="0"/>
      <psa03 value="0.0002971770" flag="0"/>
      <psa10 value="0.0000284500" flag="0"/>
      <psa30 value="0.0000027608" flag="0"/>
    </comp>
    <comp name="00.HHZ">
      <acc value="0.0001120563" flag="0"/>
      <vel value="0.0000323514" flag="0"/>
      <psa03 value="0.0001031687" flag="0"/>
      <psa10 value="0.0000213475" flag="0"/>
      <psa30 value="0.0000011137" flag="0"/>
    </comp>
  </station>
  <station code="VLO" name="VLO" netid="AC" insttype="" commtype="DIG" lat="40.4686" lon="19.4955">
    <comp name="00.HHZ">
      <acc value="0.0091678679" flag="0"/>
      <vel value="0.0073490209" flag="0"/>
      <psa03 value="0.0255659418" flag="0"/>
      <psa10 value="0.0106604890" flag="0"/>
      <psa30 value="0.0008753428" flag="0"/>
    </comp>
    <comp name="00.HHN">
      <acc value="0.0186788106" flag="0"/>
      <vel value="0.0108163289" flag="0"/>
      <psa03 value="0.0397904080" flag="0"/>
      <psa10 value="0.0135519705" flag="0"/>
      <psa30 value="0.0011663280" flag="0"/>
    </comp>
    <comp name="00.HHE">
      <acc value="0.0195044899" flag="0"/>
      <vel value="0.0089237463" flag="0"/>
      <psa03 value="0.0349950376" flag="0"/>
      <psa10 value="0.0139351001" flag="0"/>
      <psa30 value="0.0019533479" flag="0"/>
    </comp>
  </station>
  <station code="OHR" name="OHR" netid="MK" insttype="120" commtype="DIG" lat="41.1117" lon="20.7924">
    <comp name="00.HHE">
      <acc value="0.0037927899" flag="0"/>
      <vel value="0.0021365644" flag="0"/>
      <psa03 value="0.0105639998" flag="0"/>
      <psa10 value="0.0028457867" flag="0"/>
      <psa30 value="0.0004466545" flag="0"/>
    </comp>
    <comp name="00.HHZ">
      <acc value="0.0038703424" flag="0"/>
      <vel value="0.0015143500" flag="0"/>
      <psa03 value="0.0091499717" flag="0"/>
      <psa10 value="0.0026411786" flag="0"/>
      <psa30 value="0.0003903020" flag="0"/>
    </comp>
    <comp name="00.HHN">
      <acc value="0.0085334153" flag="0"/>
      <vel value="0.0040462337" flag="0"/>
      <psa03 value="0.0298044135" flag="0"/>
      <psa10 value="0.0058501407" flag="0"/>
      <psa30 value="0.0003708820" flag="0"/>
    </comp>
  </station>
  <station code="PDG" name="PDG" netid="MN" insttype="" commtype="DIG" lat="42.4297" lon="19.2608">
    <comp name="--.HHZ">
      <acc value="0.0129864913" flag="0"/>
      <vel value="0.0048704641" flag="0"/>
      <psa03 value="0.0209269121" flag="0"/>
      <psa10 value="0.0030727355" flag="0"/>
      <psa30 value="0.0004091580" flag="0"/>
    </comp>
    <comp name="--.HHN">
      <acc value="0.0161920046" flag="0"/>
      <vel value="0.0070578909" flag="0"/>
      <psa03 value="0.0475191818" flag="0"/>
      <psa10 value="0.0027032485" flag="0"/>
      <psa30 value="0.0002584589" flag="0"/>
    </comp>
    <comp name="--.HHE">
      <acc value="0.0167160145" flag="0"/>
      <vel value="0.0066869616" flag="0"/>
      <psa03 value="0.0266674067" flag="0"/>
      <psa10 value="0.0037832461" flag="0"/>
      <psa30 value="0.0004743295" flag="0"/>
    </comp>
  </station>
  <station code="TIR" name="TIR" netid="MN" insttype="" commtype="DIG" lat="41.3472" lon="19.8631">
    <comp name="--.HHE">
      <acc value="0.4115876066" flag="0"/>
      <vel value="0.1278561404" flag="0"/>
      <psa03 value="0.2839305148" flag="0"/>
      <psa10 value="0.1043782412" flag="0"/>
      <psa30 value="0.0080119667" flag="0"/>
    </comp>
    <comp name="--.HHN">
      <acc value="0.3140507077" flag="0"/>
      <vel value="0.0584046689" flag="0"/>
      <psa03 value="0.1858676645" flag="0"/>
      <psa10 value="0.0580396880" flag="0"/>
      <psa30 value="0.0055059169" flag="0"/>
    </comp>
    <comp name="--.HHZ">
      <acc value="0.2308355757" flag="0"/>
      <vel value="0.0591597996" flag="0"/>
      <psa03 value="0.2074438266" flag="0"/>
      <psa10 value="0.0771287395" flag="0"/>
      <psa30 value="0.0031844810" flag="0"/>
    </comp>
  </station>
</stationlist>
