<?xml version="1.0" encoding="UTF-8" standalone="yes"?>
<!DOCTYPE earthquake SYSTEM "stationlist.dtd">
<stationlist created="" xmlns="ch.ethz.sed.shakemap.usgs.xml">
  <station code="BERA" name="BERA" netid="AC" insttype="" commtype="DIG" lat="40.7081" lon="19.9455">
    <comp name="00.HHE">
      <acc value="0.0158083453" flag="0"/>
      <vel value="0.0040042968" flag="0"/>
      <psa03 value="0.0272083143" flag="0"/>
      <psa10 value="0.0049147171" flag="0"/>
      <psa30 value="0.0007621186" flag="0"/>
    </comp>
    <comp name="00.HHN">
      <acc value="0.0116818935" flag="0"/>
      <vel value="0.0037563897" flag="0"/>
      <psa03 value="0.0152235503" flag="0"/>
      <psa10 value="0.0077722912" flag="0"/>
      <psa30 value="0.0003715475" flag="0"/>
    </comp>
    <comp name="00.HHZ">
      <acc value="0.0098546804" flag="0"/>
      <vel value="0.0025293395" flag="0"/>
      <psa03 value="0.0093375346" flag="0"/>
      <psa10 value="0.0032256583" flag="0"/>
      <psa30 value="0.0002997083" flag="0"/>
    </comp>
  </station>
  <station code="PHP" name="PHP" netid="AC" insttype="" commtype="DIG" lat="41.6847" lon="20.4408">
    <comp name="00.HHE">
      <acc value="0.0140144874" flag="0"/>
      <vel value="0.0081131375" flag="0"/>
      <psa03 value="0.0280895772" flag="0"/>
      <psa10 value="0.0131402165" flag="0"/>
      <psa30 value="0.0005750361" flag="0"/>
    </comp>
    <comp name="00.HHN">
      <acc value="0.0296173090" flag="0"/>
      <vel value="0.0095208563" flag="0"/>
      <psa03 value="0.0268787836" flag="0"/>
      <psa10 value="0.0117027390" flag="0"/>
      <psa30 value="0.0006675129" flag="0"/>
    </comp>
    <comp name="00.HHZ">
      <acc value="0.0216277533" flag="0"/>
      <vel value="0.0061003474" flag="0"/>
      <psa03 value="0.0184547508" flag="0"/>
      <psa10 value="0.0080394611" flag="0"/>
      <psa30 value="0.0008942677" flag="0"/>
    </comp>
  </station>
  <station code="PUK" name="PUK" netid="AC" insttype="" commtype="DIG" lat="42.0426" lon="19.8926">
    <comp name="00.HHE">
      <acc value="0.0002455715" flag="0"/>
      <vel value="0.0000775527" flag="0"/>
      <psa03 value="0.0002971770" flag="0"/>
      <psa10 value="0.0000284500" flag="0"/>
      <psa30 value="0.0000027608" flag="0"/>
    </comp>
    <comp name="00.HHN">
      <acc value="0.0001064940" flag="0"/>
      <vel value="0.0000345209" flag="0"/>
      <psa03 value="0.0002109517" flag="0"/>
      <psa10 value="0.0000209965" flag="0"/>
      <psa30 value="0.0000013821" flag="0"/>
    </comp>
    <comp name="00.HHZ">
      <acc value="0.0001120562" flag="0"/>
      <vel value="0.0000323514" flag="0"/>
      <psa03 value="0.0001031687" flag="0"/>
      <psa10 value="0.0000213475" flag="0"/>
      <psa30 value="0.0000011137" flag="0"/>
    </comp>
  </station>
  <station code="TIR" name="TIR" netid="MN" insttype="" commtype="DIG" lat="41.3472" lon="19.8631">
    <comp name="--.HHE">
      <acc value="0.4115876073" flag="0"/>
      <vel value="0.1278561402" flag="0"/>
      <psa03 value="0.2839305148" flag="0"/>
      <psa10 value="0.1043782399" flag="0"/>
      <psa30 value="0.0080119573" flag="0"/>
    </comp>
    <comp name="--.HHZ">
      <acc value="0.2308355758" flag="0"/>
      <vel value="0.0591597989" flag="0"/>
      <psa03 value="0.2074438266" flag="0"/>
      <psa10 value="0.0771287395" flag="0"/>
      <psa30 value="0.0031844839" flag="0"/>
    </comp>
    <comp name="--.HHN">
      <acc value="0.3140507080" flag="0"/>
      <vel value="0.0584046685" flag="0"/>
      <psa03 value="0.1858676645" flag="0"/>
      <psa10 value="0.0580396882" flag="0"/>
      <psa30 value="0.0055059061" flag="0"/>
    </comp>
  </station>
</stationlist>
