<?xml version="1.0" encoding="UTF-8" standalone="yes"?>
<!DOCTYPE earthquake SYSTEM "stationlist.dtd">
<stationlist created="" xmlns="ch.ethz.sed.shakemap.usgs.xml">
  <station code="VLO" name="VLO" netid="AC" insttype="" commtype="DIG" lat="40.4686" lon="19.4955">
    <comp name="00.HHE">
      <acc value="0.0195044899" flag="0"/>
      <vel value="0.0089237580" flag="0"/>
      <psa03 value="0.0349950376" flag="0"/>
      <psa10 value="0.0139351001" flag="0"/>
      <psa30 value="0.0019533079" flag="0"/>
    </comp>
    <comp name="00.HHN">
      <acc value="0.0186788106" flag="0"/>
      <vel value="0.0108163263" flag="0"/>
      <psa03 value="0.0397904080" flag="0"/>
      <psa10 value="0.0135519705" flag="0"/>
      <psa30 value="0.0011663271" flag="0"/>
    </comp>
  </station>
  <station code="PDG" name="PDG" netid="MN" insttype="" commtype="DIG" lat="42.4297" lon="19.2608">
    <comp name="--.HNE">
      <acc value="0.0159733525" flag="0"/>
      <vel value="0.0065260983" flag="0"/>
      <psa03 value="0.0262090527" flag="0"/>
      <psa10 value="0.0037656910" flag="0"/>
      <psa30 value="0.0004661006" flag="0"/>
    </comp>
    <comp name="--.HNZ">
      <acc value="0.0126542301" flag="0"/>
      <vel value="0.0048239218" flag="0"/>
      <psa03 value="0.0205981517" flag="0"/>
      <psa10 value="0.0030680486" flag="0"/>
      <psa30 value="0.0004032058" flag="0"/>
    </comp>
    <comp name="--.HNN">
      <acc value="0.0155537075" flag="0"/>
      <vel value="0.0069219997" flag="0"/>
      <psa03 value="0.0467830876" flag="0"/>
      <psa10 value="0.0026814329" flag="0"/>
      <psa30 value="0.0002555956" flag="0"/>
    </comp>
  </station>
  <station code="TIR" name="TIR" netid="MN" insttype="" commtype="DIG" lat="41.3472" lon="19.8631">
    <comp name="--.HHE">
      <acc value="0.4115876068" flag="0"/>
      <vel value="0.1278561414" flag="0"/>
      <psa03 value="0.2839305148" flag="0"/>
      <psa10 value="0.1043782420" flag="0"/>
      <psa30 value="0.0080120318" flag="0"/>
    </comp>
    <comp name="--.HHN">
      <acc value="0.3140507078" flag="0"/>
      <vel value="0.0584046688" flag="0"/>
      <psa03 value="0.1858676645" flag="0"/>
      <psa10 value="0.0580396879" flag="0"/>
      <psa30 value="0.0055059302" flag="0"/>
    </comp>
    <comp name="--.HHZ">
      <acc value="0.2308355758" flag="0"/>
      <vel value="0.0591597992" flag="0"/>
      <psa03 value="0.2074438266" flag="0"/>
      <psa10 value="0.0771287393" flag="0"/>
      <psa30 value="0.0031844534" flag="0"/>
    </comp>
  </station>
</stationlist>
