<?xml version="1.0" encoding="UTF-8" standalone="yes"?>
<!DOCTYPE earthquake SYSTEM "stationlist.dtd">
<stationlist created="" xmlns="ch.ethz.sed.shakemap.usgs.xml">
  <station code="BERA" name="BERA" netid="AC" insttype="" commtype="DIG" lat="40.7081" lon="19.9455">
    <comp name="00.HHE">
      <acc value="0.0158083452" flag="0"/>
      <vel value="0.0040042963" flag="0"/>
      <psa03 value="0.0272083143" flag="0"/>
      <psa10 value="0.0049147171" flag="0"/>
      <psa30 value="0.0007621273" flag="0"/>
    </comp>
    <comp name="00.HHN">
      <acc value="0.0116818934" flag="0"/>
      <vel value="0.0037563899" flag="0"/>
      <psa03 value="0.0152235503" flag="0"/>
      <psa10 value="0.0077722912" flag="0"/>
      <psa30 value="0.0003715452" flag="0"/>
    </comp>
    <comp name="00.HHZ">
      <acc value="0.0098546803" flag="0"/>
      <vel value="0.0025293391" flag="0"/>
      <psa03 value="0.0093375346" flag="0"/>
      <psa10 value="0.0032256583" flag="0"/>
      <psa30 value="0.0002997059" flag="0"/>
    </comp>
  </station>
  <station code="PHP" name="PHP" netid="AC" insttype="" commtype="DIG" lat="41.6847" lon="20.4408">
    <comp name="00.HHN">
      <acc value="0.0296173091" flag="0"/>
      <vel value="0.0095208562" flag="0"/>
      <psa03 value="0.0268787836" flag="0"/>
      <psa10 value="0.0117027390" flag="0"/>
      <psa30 value="0.0006675275" flag="0"/>
    </comp>
    <comp name="00.HHE">
      <acc value="0.0140144874" flag="0"/>
      <vel value="0.0081131376" flag="0"/>
      <psa03 value="0.0280895772" flag="0"/>
      <psa10 value="0.0131402165" flag="0"/>
      <psa30 value="0.0005750424" flag="0"/>
    </comp>
    <comp name="00.HHZ">
      <acc value="0.0216277541" flag="0"/>
      <vel value="0.0061003477" flag="0"/>
      <psa03 value="0.0184547508" flag="0"/>
      <psa10 value="0.0080394611" flag="0"/>
      <psa30 value="0.0008942484" flag="0"/>
    </comp>
  </station>
  <station code="PUK" name="PUK" netid="AC" insttype="" commtype="DIG" lat="42.0426" lon="19.8926">
    <comp name="00.HHE">
      <acc value="0.0002455716" flag="0"/>
      <vel value="0.0000775527" flag="0"/>
      <psa03 value="0.0002971770" flag="0"/>
      <psa10 value="0.0000284500" flag="0"/>
      <psa30 value="0.0000027608" flag="0"/>
    </comp>
    <comp name="00.HHN">
      <acc value="0.0001064941" flag="0"/>
      <vel value="0.0000345209" flag="0"/>
      <psa03 value="0.0002109517" flag="0"/>
      <psa10 value="0.0000209965" flag="0"/>
      <psa30 value="0.0000013820" flag="0"/>
    </comp>
    <comp name="00.HHZ">
      <acc value="0.0001120563" flag="0"/>
      <vel value="0.0000323514" flag="0"/>
      <psa03 value="0.0001031687" flag="0"/>
      <psa10 value="0.0000213475" flag="0"/>
      <psa30 value="0.0000011137" flag="0"/>
    </comp>
  </station>
  <station code="VLO" name="VLO" netid="AC" insttype="" commtype="DIG" lat="40.4686" lon="19.4955">
    <comp name="00.HHZ">
      <acc value="0.0091678674" flag="0"/>
      <vel value="0.0073490215" flag="0"/>
      <psa03 value="0.0255659418" flag="0"/>
      <psa10 value="0.0106604890" flag="0"/>
      <psa30 value="0.0008753085" flag="0"/>
    </comp>
    <comp name="00.HHE">
      <acc value="0.0195044897" flag="0"/>
      <vel value="0.0089237579" flag="0"/>
      <psa03 value="0.0349950376" flag="0"/>
      <psa10 value="0.0139350997" flag="0"/>
      <psa30 value="0.0019533052" flag="0"/>
    </comp>
    <comp name="00.HHN">
      <acc value="0.0186788110" flag="0"/>
      <vel value="0.0108163284" flag="0"/>
      <psa03 value="0.0397904080" flag="0"/>
      <psa10 value="0.0135519705" flag="0"/>
      <psa30 value="0.0011663382" flag="0"/>
    </comp>
  </station>
  <station code="OHR" name="OHR" netid="MK" insttype="120" commtype="DIG" lat="41.1117" lon="20.7924">
    <comp name="00.HHE">
      <acc value="0.0037927899" flag="0"/>
      <vel value="0.0021365645" flag="0"/>
      <psa03 value="0.0105639998" flag="0"/>
      <psa10 value="0.0028457867" flag="0"/>
      <psa30 value="0.0004466538" flag="0"/>
    </comp>
    <comp name="00.HHZ">
      <acc value="0.0038703424" flag="0"/>
      <vel value="0.0015143499" flag="0"/>
      <psa03 value="0.0091499717" flag="0"/>
      <psa10 value="0.0026411786" flag="0"/>
      <psa30 value="0.0003903011" flag="0"/>
    </comp>
    <comp name="00.HHN">
      <acc value="0.0085334152" flag="0"/>
      <vel value="0.0040462338" flag="0"/>
      <psa03 value="0.0298044135" flag="0"/>
      <psa10 value="0.0058501407" flag="0"/>
      <psa30 value="0.0003708838" flag="0"/>
    </comp>
  </station>
  <station code="PDG" name="PDG" netid="MN" insttype="" commtype="DIG" lat="42.4297" lon="19.2608">
    <comp name="--.HHE">
      <acc value="0.0167160145" flag="0"/>
      <vel value="0.0066869616" flag="0"/>
      <psa03 value="0.0266674067" flag="0"/>
      <psa10 value="0.0037832461" flag="0"/>
      <psa30 value="0.0004743293" flag="0"/>
    </comp>
    <comp name="--.HHZ">
      <acc value="0.0129864913" flag="0"/>
      <vel value="0.0048704639" flag="0"/>
      <psa03 value="0.0209269121" flag="0"/>
      <psa10 value="0.0030727355" flag="0"/>
      <psa30 value="0.0004091576" flag="0"/>
    </comp>
    <comp name="--.HHN">
      <acc value="0.0161920046" flag="0"/>
      <vel value="0.0070578909" flag="0"/>
      <psa03 value="0.0475191818" flag="0"/>
      <psa10 value="0.0027032485" flag="0"/>
      <psa30 value="0.0002584589" flag="0"/>
    </comp>
  </station>
  <station code="TIR" name="TIR" netid="MN" insttype="" commtype="DIG" lat="41.3472" lon="19.8631">
    <comp name="--.HHE">
      <acc value="0.4115876066" flag="0"/>
      <vel value="0.1278561401" flag="0"/>
      <psa03 value="0.2839305148" flag="0"/>
      <psa10 value="0.1043782402" flag="0"/>
      <psa30 value="0.0080119564" flag="0"/>
    </comp>
    <comp name="--.HHN">
      <acc value="0.3140507078" flag="0"/>
      <vel value="0.0584046702" flag="0"/>
      <psa03 value="0.1858676645" flag="0"/>
      <psa10 value="0.0580396882" flag="0"/>
      <psa30 value="0.0055059256" flag="0"/>
    </comp>
    <comp name="--.HHZ">
      <acc value="0.2308355756" flag="0"/>
      <vel value="0.0591597994" flag="0"/>
      <psa03 value="0.2074438266" flag="0"/>
      <psa10 value="0.0771287395" flag="0"/>
      <psa30 value="0.0031844778" flag="0"/>
    </comp>
  </station>
</stationlist>
