<?xml version="1.0" encoding="UTF-8" standalone="yes"?>
<!DOCTYPE earthquake SYSTEM "stationlist.dtd">
<stationlist created="" xmlns="ch.ethz.sed.shakemap.usgs.xml">
  <station code="URFA" name="URFA" netid="KO" insttype="CMG-3ESP" lat="37.4409" lon="38.8213">
    <comp name="--.HHN">
      <acc value="0.1082583163" flag="0"/>
      <vel value="0.0980742185" flag="0"/>
      <psa03 value="0.1628332956" flag="0"/>
      <psa10 value="0.0921528953" flag="0"/>
      <psa30 value="0.0206712045" flag="0"/>
    </comp>
    <comp name="--.HHE">
      <acc value="0.1172962864" flag="0"/>
      <vel value="0.0551371253" flag="0"/>
      <psa03 value="0.1981723183" flag="0"/>
      <psa10 value="0.0669620837" flag="0"/>
      <psa30 value="0.0156624365" flag="0"/>
    </comp>
    <comp name="--.HHZ">
      <acc value="0.0663352955" flag="0"/>
      <vel value="0.0406756266" flag="0"/>
      <psa03 value="0.2154241955" flag="0"/>
      <psa10 value="0.0464294066" flag="0"/>
      <psa30 value="0.0089532208" flag="0"/>
    </comp>
  </station>
</stationlist>
