<?xml version="1.0" encoding="UTF-8" standalone="yes"?>
<!DOCTYPE earthquake SYSTEM "stationlist.dtd">
<stationlist created="" xmlns="ch.ethz.sed.shakemap.usgs.xml">
  <station code="URFA" name="URFA" netid="KO" insttype="CMG-3ESP" lat="37.4409" lon="38.8213">
    <comp name="--.HHN">
      <acc value="0.1082583164" flag="0"/>
      <vel value="0.0980742908" flag="0"/>
      <psa03 value="0.1628332955" flag="0"/>
      <psa10 value="0.0921528963" flag="0"/>
      <psa30 value="0.0206712132" flag="0"/>
    </comp>
  </station>
</stationlist>
