<stationlist created="1777341307">
	<station code="ACR" name="ACR" netid="IT" source="Italian Strong Motion Network (RAN)" insttype="" lat="39.4889" lon="16.3798">
		<comp name="--.HNE" depth="0.0">
			<acc value="0.00153481556559521" flag="0"/>
			<vel value="0.000927266530464429" flag="0"/>
			<psa03 value="0.00375211574675379" flag="0"/>
			<psa10 value="0.00181980746737606" flag="0"/>
			<psa30 value="0.000111415740120983" flag="0"/>
		</comp>
		<comp name="--.HNN" depth="0.0">
			<acc value="0.00174584535543264" flag="0"/>
			<vel value="0.00099325261017849" flag="0"/>
			<psa03 value="0.00294978818242778" flag="0"/>
			<psa10 value="0.001089254970296" flag="0"/>
			<psa30 value="7.2699861581954e-05" flag="0"/>
		</comp>
		<comp name="--.HNZ" depth="0.0">
			<acc value="0.00146555956349575" flag="0"/>
			<vel value="0.000562915110510972" flag="0"/>
			<psa03 value="0.00234844268217714" flag="0"/>
			<psa10 value="0.000586695603985661" flag="0"/>
			<psa30 value="5.94395821118505e-05" flag="0"/>
		</comp>
	</station>
	<station code="ARE" name="ARE" netid="IT" source="Italian Strong Motion Network (RAN)" insttype="" lat="38.5614" lon="16.2088">
		<comp name="--.HGE" depth="0.0">
			<acc value="0.014818432713175" flag="0"/>
			<vel value="0.00131520218410032" flag="0"/>
			<psa03 value="0.00749703375106747" flag="0"/>
			<psa10 value="0.000893598942638143" flag="0"/>
			<psa30 value="0.000129401189381228" flag="0"/>
		</comp>
		<comp name="--.HGN" depth="0.0">
			<acc value="0.00634171365027037" flag="0"/>
			<vel value="0.00151847527221911" flag="0"/>
			<psa03 value="0.00729215168905304" flag="0"/>
			<psa10 value="0.00112846733354762" flag="0"/>
			<psa30 value="9.44501045121368e-05" flag="0"/>
		</comp>
		<comp name="--.HGZ" depth="0.0">
			<acc value="0.0156547625260932" flag="0"/>
			<vel value="0.00170655925070297" flag="0"/>
			<psa03 value="0.00520067101632709" flag="0"/>
			<psa10 value="0.000562306332066093" flag="0"/>
			<psa30 value="8.96486666487759e-05" flag="0"/>
		</comp>
	</station>
	<station code="BRO" name="BRO" netid="IT" source="Italian Strong Motion Network (RAN)" insttype="" lat="38.6021" lon="16.3493">
		<comp name="--.HGE" depth="0.0">
			<acc value="0.00665926306014361" flag="0"/>
			<vel value="0.00164251775267475" flag="0"/>
			<psa03 value="0.00966642225407566" flag="0"/>
			<psa10 value="0.00109401485592756" flag="0"/>
			<psa30 value="7.52255497297317e-05" flag="0"/>
		</comp>
		<comp name="--.HGN" depth="0.0">
			<acc value="0.00703464603514359" flag="0"/>
			<vel value="0.00155690372560319" flag="0"/>
			<psa03 value="0.00768718892603958" flag="0"/>
			<psa10 value="0.00084571366109825" flag="0"/>
			<psa30 value="7.64484562621211e-05" flag="0"/>
		</comp>
		<comp name="--.HGZ" depth="0.0">
			<acc value="0.00835729549509904" flag="0"/>
			<vel value="0.00243310920554003" flag="0"/>
			<psa03 value="0.00677087041193508" flag="0"/>
			<psa10 value="0.000567161087263549" flag="0"/>
			<psa30 value="6.2684562700889e-05" flag="0"/>
		</comp>
	</station>
	<station code="CLS7" name="CLS7" netid="IT" source="Italian Strong Motion Network (RAN)" insttype="" lat="40.0095" lon="15.974">
		<comp name="--.HNE" depth="0.0">
			<acc value="0.00055342610881183" flag="0"/>
			<vel value="0.000402375564741805" flag="0"/>
			<psa03 value="0.0013180886189855" flag="0"/>
			<psa10 value="0.000512967712062159" flag="0"/>
			<psa30 value="4.61388051673215e-05" flag="0"/>
		</comp>
		<comp name="--.HNN" depth="0.0">
			<acc value="0.000978211371674702" flag="0"/>
			<vel value="0.000955147701718216" flag="0"/>
			<psa03 value="0.00192708696994994" flag="0"/>
			<psa10 value="0.000570048719961293" flag="0"/>
			<psa30 value="0.00045099597001964" flag="0"/>
		</comp>
		<comp name="--.HNZ" depth="0.0">
			<acc value="0.000664310560539735" flag="0"/>
			<vel value="0.00019641331865364" flag="0"/>
			<psa03 value="0.000669822530007378" flag="0"/>
			<psa10 value="0.000223730211653511" flag="0"/>
			<psa30 value="5.01386534709747e-05" flag="0"/>
		</comp>
	</station>
	<station code="CSA7" name="CSA7" netid="IT" source="Italian Strong Motion Network (RAN)" insttype="" lat="40.1619" lon="15.9908">
		<comp name="--.HNE" depth="0.0">
			<acc value="0.0100424688800419" flag="0"/>
			<vel value="0.000867046138354303" flag="0"/>
			<psa03 value="0.00108150336629548" flag="0"/>
			<psa10 value="0.000568775920800845" flag="0"/>
			<psa30 value="6.76140689439849e-05" flag="0"/>
		</comp>
		<comp name="--.HNN" depth="0.0">
			<acc value="0.00801426005100029" flag="0"/>
			<vel value="0.000662720302743497" flag="0"/>
			<psa03 value="0.00194045781012956" flag="0"/>
			<psa10 value="0.000663290795228671" flag="0"/>
			<psa30 value="6.45782688787962e-05" flag="0"/>
		</comp>
		<comp name="--.HNZ" depth="0.0">
			<acc value="0.00831414633523885" flag="0"/>
			<vel value="0.0010003461773074" flag="0"/>
			<psa03 value="0.000945273882776403" flag="0"/>
			<psa10 value="0.000550103844023647" flag="0"/>
			<psa30 value="0.000292976647848398" flag="0"/>
		</comp>
	</station>
	<station code="CSPC" name="CSPC" netid="IT" source="Italian Strong Motion Network (RAN)" insttype="" lat="39.3102" lon="16.2337">
		<comp name="--.HNE" depth="0.0">
			<acc value="0.00606959638333482" flag="0"/>
			<vel value="0.00179022189402369" flag="0"/>
			<psa03 value="0.00562128839839354" flag="0"/>
			<psa10 value="0.00210735577385265" flag="0"/>
			<psa30 value="0.000108405130526623" flag="0"/>
		</comp>
		<comp name="--.HNN" depth="0.0">
			<acc value="0.00675314151073355" flag="0"/>
			<vel value="0.00216597347054293" flag="0"/>
			<psa03 value="0.0129517863777001" flag="0"/>
			<psa10 value="0.00145156987031747" flag="0"/>
			<psa30 value="9.30154000950103e-05" flag="0"/>
		</comp>
		<comp name="--.HNZ" depth="0.0">
			<acc value="0.0156731155972624" flag="0"/>
			<vel value="0.00242732971737817" flag="0"/>
			<psa03 value="0.00485514584833463" flag="0"/>
			<psa10 value="0.000716718416577626" flag="0"/>
			<psa30 value="6.68404434763444e-05" flag="0"/>
		</comp>
	</station>
	<station code="CSSE" name="CSSE" netid="IT" source="Italian Strong Motion Network (RAN)" insttype="" lat="39.3023" lon="16.2494">
		<comp name="--.HNE" depth="0.0">
			<acc value="0.00499022618666652" flag="0"/>
			<vel value="0.00186370377689545" flag="0"/>
			<psa03 value="0.00645389303353107" flag="0"/>
			<psa10 value="0.00221859118952802" flag="0"/>
			<psa30 value="0.000105365560680454" flag="0"/>
		</comp>
		<comp name="--.HNN" depth="0.0">
			<acc value="0.0055669206329333" flag="0"/>
			<vel value="0.00160334328516961" flag="0"/>
			<psa03 value="0.00645957309730742" flag="0"/>
			<psa10 value="0.00118691718212573" flag="0"/>
			<psa30 value="6.44351734619271e-05" flag="0"/>
		</comp>
		<comp name="--.HNZ" depth="0.0">
			<acc value="0.0163821977101725" flag="0"/>
			<vel value="0.00211858404259798" flag="0"/>
			<psa03 value="0.00332643194833296" flag="0"/>
			<psa10 value="0.000421227025316902" flag="0"/>
			<psa30 value="6.33842705114308e-05" flag="0"/>
		</comp>
	</station>
	<station code="CSST" name="CSST" netid="IT" source="Italian Strong Motion Network (RAN)" insttype="" lat="39.2911" lon="16.2545">
		<comp name="--.HNE" depth="0.0">
			<acc value="0.00321325857754746" flag="0"/>
			<vel value="0.00134531461123132" flag="0"/>
			<psa03 value="0.00529657971355759" flag="0"/>
			<psa10 value="0.0011924938015494" flag="0"/>
			<psa30 value="9.71077545267405e-05" flag="0"/>
		</comp>
		<comp name="--.HNN" depth="0.0">
			<acc value="0.00203745065646278" flag="0"/>
			<vel value="0.000827702076471827" flag="0"/>
			<psa03 value="0.00452011421402894" flag="0"/>
			<psa10 value="0.00048803140195087" flag="0"/>
			<psa30 value="7.64963109947623e-05" flag="0"/>
		</comp>
		<comp name="--.HNZ" depth="0.0">
			<acc value="0.00243527544902113" flag="0"/>
			<vel value="0.000519694943796566" flag="0"/>
			<psa03 value="0.00222575551829631" flag="0"/>
			<psa10 value="0.000288467820514882" flag="0"/>
			<psa30 value="6.73057347162722e-05" flag="0"/>
		</comp>
	</station>
	<station code="CTN" name="CTN" netid="IT" source="Italian Strong Motion Network (RAN)" insttype="" lat="38.9171" lon="16.5849">
		<comp name="--.HGE" depth="0.0">
			<acc value="0.00645838401067994" flag="0"/>
			<vel value="0.00086538770455122" flag="0"/>
			<psa03 value="0.0056033425481107" flag="0"/>
			<psa10 value="0.00111143100966227" flag="0"/>
			<psa30 value="9.91544851646838e-05" flag="0"/>
		</comp>
		<comp name="--.HGN" depth="0.0">
			<acc value="0.00534404807323148" flag="0"/>
			<vel value="0.000647509694547887" flag="0"/>
			<psa03 value="0.00383128082178066" flag="0"/>
			<psa10 value="0.00052184958950545" flag="0"/>
			<psa30 value="8.69382201679154e-05" flag="0"/>
		</comp>
		<comp name="--.HGZ" depth="0.0">
			<acc value="0.0105885903076614" flag="0"/>
			<vel value="0.000709992818381427" flag="0"/>
			<psa03 value="0.00108273147499541" flag="0"/>
			<psa10 value="0.000274945801700624" flag="0"/>
			<psa30 value="0.000120300729749607" flag="0"/>
		</comp>
	</station>
	<station code="CTV" name="CTV" netid="IT" source="Italian Strong Motion Network (RAN)" insttype="" lat="38.3498" lon="16.0804">
		<comp name="--.HNE" depth="0.0">
			<acc value="0.00938929028150544" flag="0"/>
			<vel value="0.00080790348683317" flag="0"/>
			<psa03 value="0.00255324189365104" flag="0"/>
			<psa10 value="0.000645068045092157" flag="0"/>
			<psa30 value="6.11643838715022e-05" flag="0"/>
		</comp>
		<comp name="--.HNN" depth="0.0">
			<acc value="0.0121805867769082" flag="0"/>
			<vel value="0.000972046041623699" flag="0"/>
			<psa03 value="0.00333564935581597" flag="0"/>
			<psa10 value="0.0013513612398" flag="0"/>
			<psa30 value="5.85296325092385e-05" flag="0"/>
		</comp>
		<comp name="--.HNZ" depth="0.0">
			<acc value="0.0122199177773456" flag="0"/>
			<vel value="0.00101313545055235" flag="0"/>
			<psa03 value="0.00362376154079258" flag="0"/>
			<psa10 value="0.00059862555444258" flag="0"/>
			<psa30 value="6.93849154205397e-05" flag="0"/>
		</comp>
	</station>
	<station code="CVL" name="CVL" netid="IT" source="Italian Strong Motion Network (RAN)" insttype="" lat="39.8168" lon="16.1947">
		<comp name="--.HGE" depth="0.0">
			<acc value="0.000859490058143695" flag="0"/>
			<vel value="0.000473651907540121" flag="0"/>
			<psa03 value="0.00153792919145909" flag="0"/>
			<psa10 value="0.000984328292856069" flag="0"/>
			<psa30 value="7.46362593900555e-05" flag="0"/>
		</comp>
		<comp name="--.HGN" depth="0.0">
			<acc value="0.00105093637080012" flag="0"/>
			<vel value="0.000776702997771056" flag="0"/>
			<psa03 value="0.00180257367598238" flag="0"/>
			<psa10 value="0.00141571538575884" flag="0"/>
			<psa30 value="0.000117650684405442" flag="0"/>
		</comp>
		<comp name="--.HGZ" depth="0.0">
			<acc value="0.000828904854790008" flag="0"/>
			<vel value="0.000288838744687192" flag="0"/>
			<psa03 value="0.000827575656159023" flag="0"/>
			<psa10 value="0.000312205838354564" flag="0"/>
			<psa30 value="9.35475317002843e-05" flag="0"/>
		</comp>
	</station>
	<station code="FDF" name="FDF" netid="IT" source="Italian Strong Motion Network (RAN)" insttype="" lat="38.7891" lon="16.3">
		<comp name="--.HGE" depth="0.0">
			<acc value="0.0055103040578665" flag="0"/>
			<vel value="0.0016998375328257" flag="0"/>
			<psa03 value="0.013961398832487" flag="0"/>
			<psa10 value="0.000730689029562172" flag="0"/>
			<psa30 value="3.51164083209589e-05" flag="0"/>
		</comp>
		<comp name="--.HGN" depth="0.0">
			<acc value="0.00534220724689381" flag="0"/>
			<vel value="0.00202505355016247" flag="0"/>
			<psa03 value="0.0240219481070018" flag="0"/>
			<psa10 value="0.000903705276195642" flag="0"/>
			<psa30 value="5.22936595107986e-05" flag="0"/>
		</comp>
		<comp name="--.HGZ" depth="0.0">
			<acc value="0.00947286482961355" flag="0"/>
			<vel value="0.00185387555688806" flag="0"/>
			<psa03 value="0.00367773581944865" flag="0"/>
			<psa10 value="0.000283940538182772" flag="0"/>
			<psa30 value="2.03156638468799e-05" flag="0"/>
		</comp>
	</station>
	<station code="GTR" name="GTR" netid="IT" source="Italian Strong Motion Network (RAN)" insttype="" lat="38.4484" lon="15.918">
		<comp name="--.HGE" depth="0.0">
			<acc value="0.148025208453602" flag="0"/>
			<vel value="0.00798556255175789" flag="0"/>
			<psa03 value="0.00410662230399005" flag="0"/>
			<psa10 value="0.000286219956761191" flag="0"/>
			<psa30 value="3.13881698069962e-05" flag="0"/>
		</comp>
		<comp name="--.HGN" depth="0.0">
			<acc value="0.212961625865506" flag="0"/>
			<vel value="0.0115377034171709" flag="0"/>
			<psa03 value="0.0055189743289219" flag="0"/>
			<psa10 value="0.000442965633361748" flag="0"/>
			<psa30 value="4.89659032559868e-05" flag="0"/>
		</comp>
		<comp name="--.HGZ" depth="0.0">
			<acc value="0.0563401010480549" flag="0"/>
			<vel value="0.00614812638630103" flag="0"/>
			<psa03 value="0.00478605175296074" flag="0"/>
			<psa10 value="0.000356322471802517" flag="0"/>
			<psa30 value="3.91028605548965e-05" flag="0"/>
		</comp>
	</station>
	<station code="LMZ" name="LMZ" netid="IT" source="Italian Strong Motion Network (RAN)" insttype="" lat="38.9187" lon="16.2527">
		<comp name="--.HNE" depth="0.0">
			<acc value="0.00272806707001752" flag="0"/>
			<vel value="0.000920140670449108" flag="0"/>
			<psa03 value="0.00546044278222336" flag="0"/>
			<psa10 value="0.00154785761609557" flag="0"/>
			<psa30 value="0.000149731833061595" flag="0"/>
		</comp>
		<comp name="--.HNN" depth="0.0">
			<acc value="0.00310457497337427" flag="0"/>
			<vel value="0.000999343700536519" flag="0"/>
			<psa03 value="0.0060182788897736" flag="0"/>
			<psa10 value="0.00145480703788894" flag="0"/>
			<psa30 value="0.000126101061909813" flag="0"/>
		</comp>
		<comp name="--.HNZ" depth="0.0">
			<acc value="0.00334119404745318" flag="0"/>
			<vel value="0.000723108773116915" flag="0"/>
			<psa03 value="0.00269991583534026" flag="0"/>
			<psa10 value="0.000809543276706549" flag="0"/>
			<psa30 value="0.00014260524116819" flag="0"/>
		</comp>
	</station>
	<station code="LRG" name="LRG" netid="IT" source="Italian Strong Motion Network (RAN)" insttype="" lat="40.0218" lon="15.8908">
		<comp name="--.HGE" depth="0.0">
			<acc value="0.0036017271760495" flag="0"/>
			<vel value="0.000425844904532743" flag="0"/>
			<psa03 value="0.00098611179316567" flag="0"/>
			<psa10 value="0.000336637417764296" flag="0"/>
			<psa30 value="9.52787596668906e-05" flag="0"/>
		</comp>
		<comp name="--.HGN" depth="0.0">
			<acc value="0.00350659743841837" flag="0"/>
			<vel value="0.000431624120128267" flag="0"/>
			<psa03 value="0.000651759687924925" flag="0"/>
			<psa10 value="0.000257641979626084" flag="0"/>
			<psa30 value="0.000110880704677511" flag="0"/>
		</comp>
		<comp name="--.HGZ" depth="0.0">
			<acc value="0.00291413632355168" flag="0"/>
			<vel value="0.000421293784191633" flag="0"/>
			<psa03 value="0.000753146734722839" flag="0"/>
			<psa10 value="0.000297462381204135" flag="0"/>
			<psa30 value="0.000145436131825803" flag="0"/>
		</comp>
	</station>
	<station code="LRS" name="LRS" netid="IT" source="Italian Strong Motion Network (RAN)" insttype="" lat="40.0466" lon="15.8348">
		<comp name="--.HGE" depth="0.0">
			<acc value="0.00297596946809824" flag="0"/>
			<vel value="0.000280479626347421" flag="0"/>
			<psa03 value="0.000694496853362288" flag="0"/>
			<psa10 value="0.000420082672165372" flag="0"/>
			<psa30 value="0.000144579395383719" flag="0"/>
		</comp>
		<comp name="--.HGN" depth="0.0">
			<acc value="0.00248797240549914" flag="0"/>
			<vel value="0.000394556871828091" flag="0"/>
			<psa03 value="0.000832687892606056" flag="0"/>
			<psa10 value="0.000478222070490178" flag="0"/>
			<psa30 value="0.000151772931816036" flag="0"/>
		</comp>
		<comp name="--.HGZ" depth="0.0">
			<acc value="0.00087136461515156" flag="0"/>
			<vel value="0.000299770438607964" flag="0"/>
			<psa03 value="0.000842592357321985" flag="0"/>
			<psa10 value="0.000386013276563242" flag="0"/>
			<psa30 value="0.000131577961185844" flag="0"/>
		</comp>
	</station>
	<station code="LTR" name="LTR" netid="IT" source="Italian Strong Motion Network (RAN)" insttype="" lat="40.0876" lon="16.0094">
		<comp name="--.HNE" depth="0.0">
			<acc value="0.00237234657990792" flag="0"/>
			<vel value="0.000365591937524861" flag="0"/>
			<psa03 value="0.000848952560555277" flag="0"/>
			<psa10 value="0.000388839850528645" flag="0"/>
			<psa30 value="7.77067036773372e-05" flag="0"/>
		</comp>
		<comp name="--.HNN" depth="0.0">
			<acc value="0.00376878909930038" flag="0"/>
			<vel value="0.000453094389966789" flag="0"/>
			<psa03 value="0.000906914570826911" flag="0"/>
			<psa10 value="0.000439386226321723" flag="0"/>
			<psa30 value="6.93044673829187e-05" flag="0"/>
		</comp>
		<comp name="--.HNZ" depth="0.0">
			<acc value="0.00223653224494239" flag="0"/>
			<vel value="0.000270844108637908" flag="0"/>
			<psa03 value="0.00052468299172267" flag="0"/>
			<psa10 value="0.00029940366214822" flag="0"/>
			<psa30 value="5.86837377700391e-05" flag="0"/>
		</comp>
	</station>
	<station code="MLR" name="MLR" netid="IT" source="Italian Strong Motion Network (RAN)" insttype="" lat="40.2402" lon="15.8631">
		<comp name="--.HNE" depth="0.0">
			<acc value="0.00157465628254162" flag="0"/>
			<vel value="0.000231942528457417" flag="0"/>
			<psa03 value="0.000516930036721201" flag="0"/>
			<psa10 value="0.000430974126092617" flag="0"/>
			<psa30 value="5.24887538150471e-05" flag="0"/>
		</comp>
		<comp name="--.HNN" depth="0.0">
			<acc value="0.00127656054160054" flag="0"/>
			<vel value="0.000211742455904515" flag="0"/>
			<psa03 value="0.000621588418393058" flag="0"/>
			<psa10 value="0.00035207361611793" flag="0"/>
			<psa30 value="5.57358146200147e-05" flag="0"/>
		</comp>
		<comp name="--.HNZ" depth="0.0">
			<acc value="0.00172938133531916" flag="0"/>
			<vel value="0.000175968180614872" flag="0"/>
			<psa03 value="0.00038408489198129" flag="0"/>
			<psa10 value="0.000309573779227939" flag="0"/>
			<psa30 value="6.46166373059328e-05" flag="0"/>
		</comp>
	</station>
	<station code="MRA" name="MRA" netid="IT" source="Italian Strong Motion Network (RAN)" insttype="" lat="39.9871" lon="15.7309">
		<comp name="--.HNE" depth="0.0">
			<acc value="0.00721141632108098" flag="0"/>
			<vel value="0.000435048228407491" flag="0"/>
			<psa03 value="0.00106192060744527" flag="0"/>
			<psa10 value="0.000337772424593553" flag="0"/>
			<psa30 value="7.84421885975203e-05" flag="0"/>
		</comp>
		<comp name="--.HNN" depth="0.0">
			<acc value="0.00876010522356085" flag="0"/>
			<vel value="0.000497840300141369" flag="0"/>
			<psa03 value="0.00135870280036111" flag="0"/>
			<psa10 value="0.00100723305237148" flag="0"/>
			<psa30 value="8.22012396995406e-05" flag="0"/>
		</comp>
		<comp name="--.HNZ" depth="0.0">
			<acc value="0.00559054168275861" flag="0"/>
			<vel value="0.000305776324263662" flag="0"/>
			<psa03 value="0.00046007576584749" flag="0"/>
			<psa10 value="0.000350362506671577" flag="0"/>
			<psa30 value="5.17565373405492e-05" flag="0"/>
		</comp>
	</station>
	<station code="MRM" name="MRM" netid="IT" source="Italian Strong Motion Network (RAN)" insttype="" lat="39.8832" lon="15.9895">
		<comp name="--.HNE" depth="0.0">
			<acc value="0.000539855235557387" flag="0"/>
			<vel value="0.000261923590274931" flag="0"/>
			<psa03 value="0.0012876243612946" flag="0"/>
			<psa10 value="0.00035475226036184" flag="0"/>
			<psa30 value="6.52198869036747e-05" flag="0"/>
		</comp>
		<comp name="--.HNN" depth="0.0">
			<acc value="0.000625206663148587" flag="0"/>
			<vel value="0.000335962416931502" flag="0"/>
			<psa03 value="0.00114363549331168" flag="0"/>
			<psa10 value="0.000448614239976089" flag="0"/>
			<psa30 value="7.02340211487937e-05" flag="0"/>
		</comp>
		<comp name="--.HNZ" depth="0.0">
			<acc value="0.000539660204372093" flag="0"/>
			<vel value="0.000217672977583737" flag="0"/>
