<?xml version="1.0" encoding="UTF-8" standalone="yes"?>
<!DOCTYPE earthquake SYSTEM "stationlist.dtd">
<stationlist created="" xmlns="ch.ethz.sed.shakemap.usgs.xml">
  <station code="CAR1" name="CAR1" netid="IV" insttype="" commtype="DIG" lat="39.2534" lon="16.2114">
    <comp name="--.HHE">
      <acc value="0.0031564501" flag="0"/>
      <vel value="0.0022939303" flag="0"/>
      <psa03 value="0.0080421790" flag="0"/>
      <psa10 value="0.0012330154" flag="0"/>
      <psa30 value="0.0001146162" flag="0"/>
    </comp>
    <comp name="--.HHN">
      <acc value="0.0018462400" flag="0"/>
      <vel value="0.0009306455" flag="0"/>
      <psa03 value="0.0057945322" flag="0"/>
      <psa10 value="0.0006584940" flag="0"/>
      <psa30 value="0.0000563209" flag="0"/>
    </comp>
    <comp name="--.HHZ">
      <acc value="0.0016162465" flag="0"/>
      <vel value="0.0009242380" flag="0"/>
      <psa03 value="0.0038857943" flag="0"/>
      <psa10 value="0.0004799948" flag="0"/>
      <psa30 value="0.0000458987" flag="0"/>
    </comp>
  </station>
  <station code="CELI" name="CELI" netid="IV" insttype="SS08" commtype="DIG" lat="39.4027" lon="16.5088">
    <comp name="--.HHE">
      <acc value="0.0003477839" flag="0"/>
      <vel value="0.0001638329" flag="0"/>
      <psa03 value="0.0010343587" flag="0"/>
      <psa10 value="0.0001086337" flag="0"/>
      <psa30 value="0.0000068011" flag="0"/>
    </comp>
    <comp name="--.HHN">
      <acc value="0.0003889576" flag="0"/>
      <vel value="0.0001361795" flag="0"/>
      <psa03 value="0.0008014159" flag="0"/>
      <psa10 value="0.0001062663" flag="0"/>
      <psa30 value="0.0000101209" flag="0"/>
    </comp>
    <comp name="--.HHZ">
      <acc value="0.0011150666" flag="0"/>
      <vel value="0.0005009616" flag="0"/>
      <psa03 value="0.0024646729" flag="0"/>
      <psa10 value="0.0003438704" flag="0"/>
      <psa30 value="0.0000277502" flag="0"/>
    </comp>
  </station>
  <station code="CET2" name="CET2" netid="IV" insttype="" commtype="DIG" lat="39.5288" lon="15.9546">
    <comp name="--.HHN">
      <acc value="0.0057255404" flag="0"/>
      <vel value="0.0042412583" flag="0"/>
      <psa03 value="0.0095179504" flag="0"/>
      <psa10 value="0.0049481355" flag="0"/>
      <psa30 value="0.0002389728" flag="0"/>
    </comp>
    <comp name="--.HHE">
      <acc value="0.0023321148" flag="0"/>
      <vel value="0.0019375514" flag="0"/>
      <psa03 value="0.0036089090" flag="0"/>
      <psa10 value="0.0028812389" flag="0"/>
      <psa30 value="0.0001568359" flag="0"/>
    </comp>
    <comp name="--.HHZ">
      <acc value="0.0030715391" flag="0"/>
      <vel value="0.0017541350" flag="0"/>
      <psa03 value="0.0055002032" flag="0"/>
      <psa10 value="0.0008650357" flag="0"/>
      <psa30 value="0.0000641472" flag="0"/>
    </comp>
  </station>
  <station code="CMPR" name="CMPR" netid="IV" insttype="" commtype="DIG" lat="40.3181" lon="15.303">
    <comp name="--.HHE">
      <acc value="0.0003932990" flag="0"/>
      <vel value="0.0001704593" flag="0"/>
      <psa03 value="0.0009899325" flag="0"/>
      <psa10 value="0.0001616833" flag="0"/>
      <psa30 value="0.0000356454" flag="0"/>
    </comp>
    <comp name="--.HHZ">
      <acc value="0.0004168166" flag="0"/>
      <vel value="0.0002700034" flag="0"/>
      <psa03 value="0.0009780986" flag="0"/>
      <psa10 value="0.0001581772" flag="0"/>
      <psa30 value="0.0000144932" flag="0"/>
    </comp>
    <comp name="--.HHN">
      <acc value="0.0003669218" flag="0"/>
      <vel value="0.0001911232" flag="0"/>
      <psa03 value="0.0010788731" flag="0"/>
      <psa10 value="0.0001976919" flag="0"/>
      <psa30 value="0.0000325621" flag="0"/>
    </comp>
  </station>
  <station code="GIZZ" name="GIZZ" netid="IV" insttype="TrilliumCompact120PH" commtype="DIG" lat="38.9798" lon="16.2078">
    <comp name="--.HHN">
      <acc value="0.0029299905" flag="0"/>
      <vel value="0.0006289695" flag="0"/>
      <psa03 value="0.0034110371" flag="0"/>
      <psa10 value="0.0001615707" flag="0"/>
      <psa30 value="0.0000124368" flag="0"/>
    </comp>
    <comp name="--.HHE">
      <acc value="0.0051097137" flag="0"/>
      <vel value="0.0013305137" flag="0"/>
      <psa03 value="0.0075068688" flag="0"/>
      <psa10 value="0.0006008121" flag="0"/>
      <psa30 value="0.0000563263" flag="0"/>
    </comp>
    <comp name="--.HHZ">
      <acc value="0.0045539140" flag="0"/>
      <vel value="0.0010727772" flag="0"/>
      <psa03 value="0.0029203424" flag="0"/>
      <psa10 value="0.0002933864" flag="0"/>
      <psa30 value="0.0000225633" flag="0"/>
    </comp>
  </station>
  <station code="GRI" name="GRI" netid="IV" insttype="TrilliumCompact120PH" commtype="DIG" lat="38.8221" lon="16.42">
    <comp name="--.HHN">
      <acc value="0.0017728032" flag="0"/>
      <vel value="0.0006148730" flag="0"/>
      <psa03 value="0.0030864959" flag="0"/>
      <psa10 value="0.0002675145" flag="0"/>
      <psa30 value="0.0000306001" flag="0"/>
    </comp>
    <comp name="--.HHE">
      <acc value="0.0017259551" flag="0"/>
      <vel value="0.0005758218" flag="0"/>
      <psa03 value="0.0027502842" flag="0"/>
      <psa10 value="0.0003007021" flag="0"/>
      <psa30 value="0.0000185053" flag="0"/>
    </comp>
    <comp name="--.HHZ">
      <acc value="0.0041367547" flag="0"/>
      <vel value="0.0014556572" flag="0"/>
      <psa03 value="0.0053286961" flag="0"/>
      <psa10 value="0.0005370167" flag="0"/>
      <psa30 value="0.0000402333" flag="0"/>
    </comp>
  </station>
  <station code="IVPL" name="IVPL" netid="IV" insttype="" commtype="DIG" lat="38.3763" lon="14.9801">
    <comp name="--.HHE">
      <acc value="0.0015786808" flag="0"/>
      <vel value="0.0005051816" flag="0"/>
      <psa03 value="0.0029888424" flag="0"/>
      <psa10 value="0.0007608240" flag="0"/>
      <psa30 value="0.0000466948" flag="0"/>
    </comp>
    <comp name="--.HHN">
      <acc value="0.0013270758" flag="0"/>
      <vel value="0.0005149346" flag="0"/>
      <psa03 value="0.0019342199" flag="0"/>
      <psa10 value="0.0005590683" flag="0"/>
      <psa30 value="0.0000423440" flag="0"/>
    </comp>
    <comp name="--.HHZ">
      <acc value="0.0012210205" flag="0"/>
      <vel value="0.0004295091" flag="0"/>
      <psa03 value="0.0019791645" flag="0"/>
      <psa10 value="0.0002647300" flag="0"/>
      <psa30 value="0.0000364616" flag="0"/>
    </comp>
  </station>
  <station code="MCEL" name="MCEL" netid="IV" insttype="SS08" commtype="DIG" lat="40.3249" lon="15.8019">
    <comp name="--.HHN">
      <acc value="0.0003771777" flag="0"/>
      <vel value="0.0003772115" flag="0"/>
      <psa03 value="0.0011463697" flag="0"/>
      <psa10 value="0.0006698804" flag="0"/>
      <psa30 value="0.0000577805" flag="0"/>
    </comp>
    <comp name="--.HHZ">
      <acc value="0.0004884333" flag="0"/>
      <vel value="0.0002946114" flag="0"/>
      <psa03 value="0.0010453317" flag="0"/>
      <psa10 value="0.0001188472" flag="0"/>
      <psa30 value="0.0000139093" flag="0"/>
    </comp>
    <comp name="--.HHE">
      <acc value="0.0005689180" flag="0"/>
      <vel value="0.0003373515" flag="0"/>
      <psa03 value="0.0018038290" flag="0"/>
      <psa10 value="0.0005003413" flag="0"/>
      <psa30 value="0.0000380556" flag="0"/>
    </comp>
  </station>
  <station code="MGR" name="MGR" netid="IV" insttype="" commtype="DIG" lat="40.1376" lon="15.5535">
    <comp name="--.HHN">
      <acc value="0.0002875417" flag="0"/>
      <vel value="0.0002316763" flag="0"/>
      <psa03 value="0.0007462548" flag="0"/>
      <psa10 value="0.0005433797" flag="0"/>
      <psa30 value="0.0000303982" flag="0"/>
    </comp>
    <comp name="--.HHE">
      <acc value="0.0002420051" flag="0"/>
      <vel value="0.0001891482" flag="0"/>
      <psa03 value="0.0006739159" flag="0"/>
      <psa10 value="0.0001548869" flag="0"/>
      <psa30 value="0.0000389224" flag="0"/>
    </comp>
    <comp name="--.HHZ">
      <acc value="0.0003107319" flag="0"/>
      <vel value="0.0001558590" flag="0"/>
      <psa03 value="0.0007336196" flag="0"/>
      <psa10 value="0.0003046424" flag="0"/>
      <psa30 value="0.0000112803" flag="0"/>
    </comp>
  </station>
  <station code="MILZ" name="MILZ" netid="IV" insttype="" commtype="DIG" lat="38.2713" lon="15.2313">
    <comp name="--.HHE">
      <acc value="0.0010589265" flag="0"/>
      <vel value="0.0008389711" flag="0"/>
      <psa03 value="0.0030349233" flag="0"/>
      <psa10 value="0.0014283945" flag="0"/>
      <psa30 value="0.0000495375" flag="0"/>
    </comp>
    <comp name="--.HHN">
      <acc value="0.0011702426" flag="0"/>
      <vel value="0.0005697931" flag="0"/>
      <psa03 value="0.0024181361" flag="0"/>
      <psa10 value="0.0011879376" flag="0"/>
      <psa30 value="0.0000739764" flag="0"/>
    </comp>
    <comp name="--.HHZ">
      <acc value="0.0023015659" flag="0"/>
      <vel value="0.0005138088" flag="0"/>
      <psa03 value="0.0023052421" flag="0"/>
      <psa10 value="0.0004335692" flag="0"/>
      <psa30 value="0.0000309830" flag="0"/>
    </comp>
  </station>
  <station code="MSRU" name="MSRU" netid="IV" insttype="" commtype="DIG" lat="38.2639" lon="15.5083">
    <comp name="--.HHN">
      <acc value="0.0013617103" flag="0"/>
      <vel value="0.0005959040" flag="0"/>
      <psa03 value="0.0024578422" flag="0"/>
      <psa10 value="0.0004769569" flag="0"/>
      <psa30 value="0.0000549421" flag="0"/>
    </comp>
    <comp name="--.HHE">
      <acc value="0.0014732613" flag="0"/>
      <vel value="0.0007317057" flag="0"/>
      <psa03 value="0.0025591599" flag="0"/>
      <psa10 value="0.0013576567" flag="0"/>
      <psa30 value="0.0000563810" flag="0"/>
    </comp>
    <comp name="--.HHZ">
      <acc value="0.0013812173" flag="0"/>
      <vel value="0.0004066750" flag="0"/>
      <psa03 value="0.0024396693" flag="0"/>
      <psa10 value="0.0002887724" flag="0"/>
      <psa30 value="0.0000273411" flag="0"/>
    </comp>
  </station>
  <station code="MTSN" name="MTSN" netid="IV" insttype="" commtype="DIG" lat="40.2663" lon="15.7515">
    <comp name="--.HHE">
      <acc value="0.0003054513" flag="0"/>
      <vel value="0.0002111351" flag="0"/>
      <psa03 value="0.0007971872" flag="0"/>
      <psa10 value="0.0003216812" flag="0"/>
      <psa30 value="0.0000321966" flag="0"/>
    </comp>
    <comp name="--.HHN">
      <acc value="0.0002702804" flag="0"/>
      <vel value="0.0002584646" flag="0"/>
      <psa03 value="0.0009697441" flag="0"/>
      <psa10 value="0.0003706419" flag="0"/>
      <psa30 value="0.0000341752" flag="0"/>
    </comp>
    <comp name="--.HHZ">
      <acc value="0.0001733238" flag="0"/>
      <vel value="0.0001185537" flag="0"/>
      <psa03 value="0.0005235551" flag="0"/>
      <psa10 value="0.0001958544" flag="0"/>
      <psa30 value="0.0000194664" flag="0"/>
    </comp>
  </station>
  <station code="PIPA" name="PIPA" netid="IV" insttype="SS08" commtype="DIG" lat="39.4851" lon="16.8158">
    <comp name="--.HHE">
      <acc value="0.0049707703" flag="0"/>
      <vel value="0.0017670770" flag="0"/>
      <psa03 value="0.0084562921" flag="0"/>
      <psa10 value="0.0007704112" flag="0"/>
      <psa30 value="0.0000475510" flag="0"/>
    </comp>
    <comp name="--.HHN">
      <acc value="0.0088311492" flag="0"/>
      <vel value="0.0022655636" flag="0"/>
      <psa03 value="0.0155616691" flag="0"/>
      <psa10 value="0.0019837758" flag="0"/>
      <psa30 value="0.0001324998" flag="0"/>
    </comp>
    <comp name="--.HHZ">
      <acc value="0.0088020936" flag="0"/>
      <vel value="0.0021482386" flag="0"/>
      <psa03 value="0.0102033821" flag="0"/>
      <psa10 value="0.0012933451" flag="0"/>
      <psa30 value="0.0001484756" flag="0"/>
    </comp>
  </station>
  <station code="PLAC" name="PLAC" netid="IV" insttype="" commtype="DIG" lat="38.4494" lon="16.4383">
    <comp name="--.HHN">
      <acc value="0.0013567619" flag="0"/>
      <vel value="0.0003644290" flag="0"/>
      <psa03 value="0.0018410976" flag="0"/>
      <psa10 value="0.0002751677" flag="0"/>
      <psa30 value="0.0000127267" flag="0"/>
    </comp>
    <comp name="--.HHE">
      <acc value="0.0014999894" flag="0"/>
      <vel value="0.0003739653" flag="0"/>
      <psa03 value="0.0018286487" flag="0"/>
      <psa10 value="0.0003888252" flag="0"/>
      <psa30 value="0.0000129243" flag="0"/>
    </comp>
    <comp name="--.HHZ">
      <acc value="0.0035526926" flag="0"/>
      <vel value="0.0009221256" flag="0"/>
      <psa03 value="0.0025282095" flag="0"/>
      <psa10 value="0.0003788479" flag="0"/>
      <psa30 value="0.0000252037" flag="0"/>
    </comp>
  </station>
  <station code="SALB" name="SALB" netid="IV" insttype="" commtype="DIG" lat="39.8772" lon="16.3459">
    <comp name="--.HHE">
      <acc value="0.0009109648" flag="0"/>
      <vel value="0.0006674659" flag="0"/>
      <psa03 value="0.0037475759" flag="0"/>
      <psa10 value="0.0005843038" flag="0"/>
      <psa30 value="0.0001003548" flag="0"/>
    </comp>
    <comp name="--.HHN">
      <acc value="0.0003202946" flag="0"/>
      <vel value="0.0001094020" flag="0"/>
      <psa03 value="0.0007386299" flag="0"/>
      <psa10 value="0.0000609169" flag="0"/>
      <psa30 value="0.0000049163" flag="0"/>
    </comp>
    <comp name="--.HHZ">
      <acc value="0.0004773611" flag="0"/>
      <vel value="0.0002365050" flag="0"/>
      <psa03 value="0.0009335031" flag="0"/>
      <psa10 value="0.0002832999" flag="0"/>
      <psa30 value="0.0000147393" flag="0"/>
    </comp>
  </station>
  <station code="SELL" name="SELL" netid="IV" insttype="" commtype="DIG" lat="38.983" lon="16.6279">
    <comp name="--.HHE">
      <acc value="0.0002924744" flag="0"/>
      <vel value="0.0001346322" flag="0"/>
      <psa03 value="0.0006243423" flag="0"/>
      <psa10 value="0.0001307454" flag="0"/>
      <psa30 value="0.0000074247" flag="0"/>
    </comp>
    <comp name="--.HHZ">
      <acc value="0.0004713468" flag="0"/>
      <vel value="0.0001851459" flag="0"/>
      <psa03 value="0.0007543377" flag="0"/>
      <psa10 value="0.0001439161" flag="0"/>
      <psa30 value="0.0000088270" flag="0"/>
    </comp>
    <comp name="--.HHN">
      <acc value="0.0003054587" flag="0"/>
      <vel value="0.0001398027" flag="0"/>
      <psa03 value="0.0007389508" flag="0"/>
      <psa10 value="0.0001234658" flag="0"/>
      <psa30 value="0.0000068714" flag="0"/>
    </comp>
  </station>
  <station code="SIRI" name="SIRI" netid="IV" insttype="" commtype="DIG" lat="40.1821" lon="15.8675">
    <comp name="--.HHE">
      <acc value="0.0003283000" flag="0"/>
      <vel value="0.0002204284" flag="0"/>
      <psa03 value="0.0011087454" flag="0"/>
      <psa10 value="0.0002205725" flag="0"/>
      <psa30 value="0.0000212683" flag="0"/>
    </comp>
    <comp name="--.HHZ">
      <acc value="0.0001528866" flag="0"/>
      <vel value="0.0000993236" flag="0"/>
      <psa03 value="0.0002996593" flag="0"/>
      <psa10 value="0.0001717865" flag="0"/>
      <psa30 value="0.0000278570" flag="0"/>
    </comp>
    <comp name="--.HHN">
      <acc value="0.0003104246" flag="0"/>
      <vel value="0.0001277188" flag="0"/>
      <psa03 value="0.0009932042" flag="0"/>
      <psa10 value="0.0001117343" flag="0"/>
      <psa30 value="0.0000217059" flag="0"/>
    </comp>
  </station>
  <station code="SPS2" name="SPS2" netid="IV" insttype="" commtype="DIG" lat="39.291" lon="16.3388">
    <comp name="--.HHN">
      <acc value="0.0003770227" flag="0"/>
      <vel value="0.0001386589" flag="0"/>
      <psa03 value="0.0011480695" flag="0"/>
      <psa10 value="0.0000670222" flag="0"/>
      <psa30 value="0.0000046445" flag="0"/>
    </comp>
    <comp name="--.HHZ">
      <acc value="0.0005737564" flag="0"/>
      <vel value="0.0002376806" flag="0"/>
      <psa03 value="0.0008725954" flag="0"/>
      <psa10 value="0.0001172330" flag="0"/>
      <psa30 value="0.0000079983" flag="0"/>
    </comp>
    <comp name="--.HHE">
      <acc value="0.0003266709" flag="0"/>
      <vel value="0.0001139971" flag="0"/>
      <psa03 value="0.0006689142" flag="0"/>
      <psa10 value="0.0000670689" flag="0"/>
      <psa30 value="0.0000042120" flag="0"/>
    </comp>
  </station>
  <station code="TDS" name="TDS" netid="IV" insttype="" commtype="DIG" lat="39.6601" lon="16.3376">
    <comp name="--.HHE">
      <acc value="0.0020548534" flag="0"/>
      <vel value="0.0001983510" flag="0"/>
      <psa03 value="0.0007477154" flag="0"/>
      <psa10 value="0.0002194135" flag="0"/>
      <psa30 value="0.0000196636" flag="0"/>
    </comp>
    <comp name="--.HHN">
      <acc value="0.0018556771" flag="0"/>
      <vel value="0.0007323354" flag="0"/>
      <psa03 value="0.0027087514" flag="0"/>
      <psa10 value="0.0010541667" flag="0"/>
      <psa30 value="0.0001327178" flag="0"/>
    </comp>
    <comp name="--.HHZ">
      <acc value="0.0019215433" flag="0"/>
      <vel value="0.0007197266" flag="0"/>
      <psa03 value="0.0019110086" flag="0"/>
      <psa10 value="0.0007514513" flag="0"/>
      <psa30 value="0.0001032778" flag="0"/>
    </comp>
  </station>
  <station code="CHCE" name="CHCE" netid="IY" insttype="SS08" commtype="DIG" lat="38.684" lon="16.4142">
    <comp name="00.HHE">
      <acc value="0.0059160139" flag="0"/>
      <vel value="0.0019228244" flag="0"/>
      <psa03 value="0.0122071203" flag="0"/>
      <psa10 value="0.0006015233" flag="0"/>
      <psa30 value="0.0000459706" flag="0"/>
    </comp>
    <comp name="00.HHN">
      <acc value="0.0049652947" flag="0"/>
      <vel value="0.0029696576" flag="0"/>
      <psa03 value="0.0201122295" flag="0"/>
      <psa10 value="0.0017413742" flag="0"/>
      <psa30 value="0.0001182681" flag="0"/>
    </comp>
    <comp name="00.HHZ">
      <acc value="0.0084496716" flag="0"/>
      <vel value="0.0023652615" flag="0"/>
      <psa03 value="0.0152709540" flag="0"/>
      <psa10 value="0.0005307394" flag="0"/>
      <psa30 value="0.0000482681" flag="0"/>
    </comp>
  </station>
  <station code="CMPN" name="CMPN" netid="IY" insttype="SS08" commtype="DIG" lat="39.4076" lon="16.8303">
    <comp name="00.HHN">
      <acc value="0.0007609866" flag="0"/>
      <vel value="0.0004190505" flag="0"/>
      <psa03 value="0.0014859571" flag="0"/>
      <psa10 value="0.0003051417" flag="0"/>
      <psa30 value="0.0000151777" flag="0"/>
    </comp>
    <comp name="00.HHE">
      <acc value="0.0007646669" flag="0"/>
      <vel value="0.0002948648" flag="0"/>
      <psa03 value="0.0011682484" flag="0"/>
      <psa10 value="0.0001648116" flag="0"/>
      <psa30 value="0.0000144486" flag="0"/>
    </comp>
    <comp name="00.HHZ">
      <acc value="0.0011724802" flag="0"/>
      <vel value="0.0004133830" flag="0"/>
      <psa03 value="0.0020545304" flag="0"/>
      <psa10 value="0.0002837324" flag="0"/>
      <psa30 value="0.0000275701" flag="0"/>
    </comp>
  </station>
  <station code="FALC" name="FALC" netid="IY" insttype="SS08" commtype="DIG" lat="39.2721" lon="16.0796">
    <comp name="00.HHE">
      <acc value="0.0015248768" flag="0"/>
      <vel value="0.0008554515" flag="0"/>
      <psa03 value="0.0022920871" flag="0"/>
      <psa10 value="0.0004706299" flag="0"/>
      <psa30 value="0.0000569691" flag="0"/>
    </comp>
    <comp name="00.HHZ">
      <acc value="0.0019414214" flag="0"/>
      <vel value="0.0003706585" flag="0"/>
      <psa03 value="0.0021646142" flag="0"/>
      <psa10 value="0.0002448735" flag="0"/>
      <psa30 value="0.0000185891" flag="0"/>
    </comp>
    <comp name="00.HHN">
      <acc value="0.0011409324" flag="0"/>
      <vel value="0.0005437877" flag="0"/>
      <psa03 value="0.0043067279" flag="0"/>
      <psa10 value="0.0004207660" flag="0"/>
      <psa30 value="0.0000394765" flag="0"/>
    </comp>
  </station>
  <station code="GIOM" name="GIOM" netid="IY" insttype="SS08" commtype="DIG" lat="38.3862" lon="16.1102">
    <comp name="00.HHE">
      <acc value="0.0045002751" flag="0"/>
      <vel value="0.0011458538" flag="0"/>
