<?xml version="1.0" encoding="UTF-8" standalone="yes"?>
<!DOCTYPE earthquake SYSTEM "stationlist.dtd">
<stationlist created="" xmlns="ch.ethz.sed.shakemap.usgs.xml">
  <station code="ARPRA" name="ARPRA" netid="KO" insttype="CMG-5T" lat="39.0929" lon="38.3356">
    <comp name="--.HNE">
      <acc value="0.0714992102" flag="0"/>
      <vel value="0.0270324217" flag="0"/>
      <psa03 value="0.1599712583" flag="0"/>
      <psa10 value="0.0423953511" flag="0"/>
      <psa30 value="0.0016915798" flag="0"/>
    </comp>
    <comp name="--.HNZ">
      <acc value="0.0361480810" flag="0"/>
      <vel value="0.0124789640" flag="0"/>
      <psa03 value="0.0614032018" flag="0"/>
      <psa10 value="0.0155250627" flag="0"/>
      <psa30 value="0.0017356855" flag="0"/>
    </comp>
    <comp name="--.HNN">
      <acc value="0.0666776853" flag="0"/>
      <vel value="0.0241054146" flag="0"/>
      <psa03 value="0.1826637440" flag="0"/>
      <psa10 value="0.0295778642" flag="0"/>
      <psa30 value="0.0021130242" flag="0"/>
    </comp>
  </station>
  <station code="SVRC" name="SVRC" netid="KO" insttype="CMG-3T" lat="38.3775" lon="39.306">
    <comp name="--.HHZ">
      <acc value="0.0019091095" flag="0"/>
      <vel value="0.0009968339" flag="0"/>
      <psa03 value="0.0057697080" flag="0"/>
      <psa10 value="0.0008486981" flag="0"/>
      <psa30 value="0.0001360180" flag="0"/>
    </comp>
  </station>
  <station code="URFA" name="URFA" netid="KO" insttype="CMG-3ESP" lat="37.4409" lon="38.8213">
    <comp name="--.HHZ">
      <acc value="0.0044945057" flag="0"/>
      <vel value="0.0016298600" flag="0"/>
      <psa03 value="0.0080090046" flag="0"/>
      <psa10 value="0.0023957362" flag="0"/>
      <psa30 value="0.0002356656" flag="0"/>
    </comp>
  </station>
</stationlist>
