<?xml version="1.0" encoding="UTF-8" standalone="yes"?>
<!DOCTYPE earthquake SYSTEM "stationlist.dtd">
<stationlist created="" xmlns="ch.ethz.sed.shakemap.usgs.xml">
  <station code="ARPRA" name="ARPRA" netid="KO" insttype="CMG-5T" lat="39.0929" lon="38.3356">
    <comp name="--.HNE">
      <acc value="0.0714992156" flag="0"/>
      <vel value="0.0270324280" flag="0"/>
      <psa03 value="0.1599712583" flag="0"/>
      <psa10 value="0.0423953513" flag="0"/>
      <psa30 value="0.0016920110" flag="0"/>
    </comp>
    <comp name="--.HNZ">
      <acc value="0.0361480863" flag="0"/>
      <vel value="0.0124789772" flag="0"/>
      <psa03 value="0.0614032018" flag="0"/>
      <psa10 value="0.0155250625" flag="0"/>
      <psa30 value="0.0017369304" flag="0"/>
    </comp>
    <comp name="--.HNN">
      <acc value="0.0666776906" flag="0"/>
      <vel value="0.0241054028" flag="0"/>
      <psa03 value="0.1826637440" flag="0"/>
      <psa10 value="0.0295778625" flag="0"/>
      <psa30 value="0.0021121631" flag="0"/>
    </comp>
  </station>
  <station code="SARI" name="SARI" netid="KO" insttype="CMG-3T" lat="38.4072" lon="36.4181">
    <comp name="--.HHE">
      <acc value="0.0126187683" flag="0"/>
      <vel value="0.0053641181" flag="0"/>
      <psa03 value="0.0272020450" flag="0"/>
      <psa10 value="0.0057988417" flag="0"/>
      <psa30 value="0.0002777791" flag="0"/>
    </comp>
    <comp name="--.HHN">
      <acc value="0.0146694776" flag="0"/>
      <vel value="0.0065974425" flag="0"/>
      <psa03 value="0.0336799776" flag="0"/>
      <psa10 value="0.0077204206" flag="0"/>
      <psa30 value="0.0004101065" flag="0"/>
    </comp>
    <comp name="--.HHZ">
      <acc value="0.0092298063" flag="0"/>
      <vel value="0.0041860068" flag="0"/>
      <psa03 value="0.0200539906" flag="0"/>
      <psa10 value="0.0067068577" flag="0"/>
      <psa30 value="0.0002928199" flag="0"/>
    </comp>
  </station>
</stationlist>
