<?xml version="1.0" encoding="UTF-8" standalone="yes"?>
<!DOCTYPE earthquake SYSTEM "stationlist.dtd">
<stationlist created="" xmlns="ch.ethz.sed.shakemap.usgs.xml">
  <station code="LMS2" name="LMS2" netid="HI" insttype="CMG-5TD,ACCELEROMETER,GURALP" lat="40.835" lon="21.1418">
    <comp name="--.HNZ">
      <acc value="0.6303499786" flag="0"/>
      <vel value="0.1956947172" flag="0"/>
      <psa03 value="0.6843991677" flag="0"/>
      <psa10 value="0.1574329568" flag="0"/>
      <psa30 value="0.0089774465" flag="0"/>
    </comp>
    <comp name="--.HNE">
      <acc value="1.2867804437" flag="0"/>
      <vel value="0.3278434901" flag="0"/>
      <psa03 value="0.9471409748" flag="0"/>
      <psa10 value="0.0957341606" flag="0"/>
      <psa30 value="0.0080404590" flag="0"/>
    </comp>
    <comp name="--.HNN">
      <acc value="1.2893178821" flag="0"/>
      <vel value="0.3088664158" flag="0"/>
      <psa03 value="1.3374468177" flag="0"/>
      <psa10 value="0.0825804940" flag="0"/>
      <psa30 value="0.0055271437" flag="0"/>
    </comp>
  </station>
  <station code="KZN" name="KZN" netid="HL" insttype="120" lat="40.3033" lon="21.7821">
    <comp name="--.HHE">
      <acc value="0.0573131171" flag="0"/>
      <vel value="0.0230687426" flag="0"/>
      <psa03 value="0.1350510016" flag="0"/>
      <psa10 value="0.0104807958" flag="0"/>
      <psa30 value="0.0015151594" flag="0"/>
    </comp>
    <comp name="--.HHN">
      <acc value="0.0553439217" flag="0"/>
      <vel value="0.0213728194" flag="0"/>
      <psa03 value="0.1273480621" flag="0"/>
      <psa10 value="0.0126868064" flag="0"/>
      <psa30 value="0.0010687867" flag="0"/>
    </comp>
    <comp name="--.HHZ">
      <acc value="0.0222289776" flag="0"/>
      <vel value="0.0107016838" flag="0"/>
      <psa03 value="0.0616362684" flag="0"/>
      <psa10 value="0.0065638421" flag="0"/>
      <psa30 value="0.0008145638" flag="0"/>
    </comp>
  </station>
  <station code="PENT" name="PENT" netid="HL" insttype="30s-100Hz," lat="40.1959" lon="21.1384">
    <comp name="--.HHE">
      <acc value="0.0295330829" flag="0"/>
      <vel value="0.0169199431" flag="0"/>
      <psa03 value="0.0700781345" flag="0"/>
      <psa10 value="0.0106348122" flag="0"/>
      <psa30 value="0.0011887288" flag="0"/>
    </comp>
    <comp name="--.HHN">
      <acc value="0.0194788079" flag="0"/>
      <vel value="0.0110523426" flag="0"/>
      <psa03 value="0.0613578301" flag="0"/>
      <psa10 value="0.0106409735" flag="0"/>
      <psa30 value="0.0011543821" flag="0"/>
    </comp>
    <comp name="--.HHZ">
      <acc value="0.0187198647" flag="0"/>
      <vel value="0.0133200833" flag="0"/>
      <psa03 value="0.0975387323" flag="0"/>
      <psa10 value="0.0157802233" flag="0"/>
      <psa30 value="0.0016734588" flag="0"/>
    </comp>
  </station>
  <station code="KNT" name="KNT" netid="HT" insttype="100" lat="41.162" lon="22.898">
    <comp name="--.HHE">
      <acc value="0.0093219040" flag="0"/>
      <vel value="0.0043027895" flag="0"/>
      <psa03 value="0.0265436608" flag="0"/>
      <psa10 value="0.0047614082" flag="0"/>
      <psa30 value="0.0006487638" flag="0"/>
    </comp>
    <comp name="--.HHZ">
      <acc value="0.0135795285" flag="0"/>
      <vel value="0.0053364559" flag="0"/>
      <psa03 value="0.0496438449" flag="0"/>
      <psa10 value="0.0050857455" flag="0"/>
      <psa30 value="0.0008616132" flag="0"/>
    </comp>
    <comp name="--.HHN">
      <acc value="0.0321471368" flag="0"/>
      <vel value="0.0137260503" flag="0"/>
      <psa03 value="0.0980617081" flag="0"/>
      <psa10 value="0.0139497377" flag="0"/>
      <psa30 value="0.0008822940" flag="0"/>
    </comp>
  </station>
  <station code="KPRO" name="KPRO" netid="HT" insttype="100" lat="39.9549" lon="21.3632">
    <comp name="--.HHN">
      <acc value="0.0250958257" flag="0"/>
      <vel value="0.0130307440" flag="0"/>
      <psa03 value="0.0625276432" flag="0"/>
      <psa10 value="0.0146185005" flag="0"/>
      <psa30 value="0.0013819852" flag="0"/>
    </comp>
    <comp name="--.HHZ">
      <acc value="0.0160933059" flag="0"/>
      <vel value="0.0102821931" flag="0"/>
      <psa03 value="0.0624203121" flag="0"/>
      <psa10 value="0.0087847318" flag="0"/>
      <psa30 value="0.0015121351" flag="0"/>
    </comp>
    <comp name="--.HHE">
      <acc value="0.0232904425" flag="0"/>
      <vel value="0.0158716110" flag="0"/>
      <psa03 value="0.0887985368" flag="0"/>
      <psa10 value="0.0186123721" flag="0"/>
      <psa30 value="0.0017216277" flag="0"/>
    </comp>
  </station>
  <station code="LIT" name="LIT" netid="HT" insttype="100" lat="40.1033" lon="22.4892">
    <comp name="--.HHZ">
      <acc value="0.0122753134" flag="0"/>
      <vel value="0.0060942565" flag="0"/>
      <psa03 value="0.0285525520" flag="0"/>
      <psa10 value="0.0065948195" flag="0"/>
      <psa30 value="0.0013073094" flag="0"/>
    </comp>
    <comp name="--.HHN">
      <acc value="0.0168337649" flag="0"/>
      <vel value="0.0080476128" flag="0"/>
      <psa03 value="0.0485828972" flag="0"/>
      <psa10 value="0.0070176448" flag="0"/>
      <psa30 value="0.0010365921" flag="0"/>
    </comp>
    <comp name="--.HHE">
      <acc value="0.0211152615" flag="0"/>
      <vel value="0.0110284500" flag="0"/>
      <psa03 value="0.0540860944" flag="0"/>
      <psa10 value="0.0061990195" flag="0"/>
      <psa30 value="0.0010411846" flag="0"/>
    </comp>
  </station>
  <station code="NEST" name="NEST" netid="HT" insttype="120P," lat="40.4147" lon="21.0489">
    <comp name="--.HHN">
      <acc value="0.0973711185" flag="0"/>
      <vel value="0.0488418419" flag="0"/>
      <psa03 value="0.3147128290" flag="0"/>
      <psa10 value="0.0249948448" flag="0"/>
      <psa30 value="0.0028958749" flag="0"/>
    </comp>
    <comp name="--.HHE">
      <acc value="0.1077438671" flag="0"/>
      <vel value="0.0398816368" flag="0"/>
      <psa03 value="0.3028584854" flag="0"/>
      <psa10 value="0.0355227240" flag="0"/>
      <psa30 value="0.0020196836" flag="0"/>
    </comp>
    <comp name="--.HHZ">
      <acc value="0.0925224065" flag="0"/>
      <vel value="0.0273549824" flag="0"/>
      <psa03 value="0.1537645797" flag="0"/>
      <psa10 value="0.0128244914" flag="0"/>
      <psa30 value="0.0014710802" flag="0"/>
    </comp>
  </station>
</stationlist>
