<stationlist created="1775820661">
	<station code="E02" name="E02" netid="EG" source="EUROSEISTEST Strong Motion Network" insttype="" lat="40.674206" lon="23.315498">
		<comp name="--.EN1" depth="0.0">
			<acc value="0.0202103749969069" flag="0"/>
			<vel value="0.0200478347146736" flag="0"/>
			<psa03 value="0.0538847362660429" flag="0"/>
			<psa10 value="0.0363219436505016" flag="0"/>
			<psa30 value="0.00161392962325235" flag="0"/>
		</comp>
		<comp name="--.EN2" depth="0.0">
			<acc value="0.0251161424862385" flag="0"/>
			<vel value="0.0265784530050131" flag="0"/>
			<psa03 value="0.0590028617752081" flag="0"/>
			<psa10 value="0.0349555706349974" flag="0"/>
			<psa30 value="0.00171420918294587" flag="0"/>
		</comp>
		<comp name="--.EN3" depth="0.0">
			<acc value="0.0113683821981801" flag="0"/>
			<vel value="0.012372218122363" flag="0"/>
			<psa03 value="0.0224299806678054" flag="0"/>
			<psa10 value="0.0160826928994806" flag="0"/>
			<psa30 value="0.000754582070691345" flag="0"/>
		</comp>
	</station>
	<station code="E03" name="E03" netid="EG" source="EUROSEISTEST Strong Motion Network" insttype="" lat="40.676239" lon="23.324046">
		<comp name="--.EN1" depth="0.0">
			<acc value="0.0184902123328805" flag="0"/>
			<vel value="0.0185106645688822" flag="0"/>
			<psa03 value="0.0488901293559646" flag="0"/>
			<psa10 value="0.0192148816415888" flag="0"/>
			<psa30 value="0.00127373750385804" flag="0"/>
		</comp>
		<comp name="--.EN2" depth="0.0">
			<acc value="0.0129338181792619" flag="0"/>
			<vel value="0.0163533958257633" flag="0"/>
			<psa03 value="0.0390154882304544" flag="0"/>
			<psa10 value="0.0254522854640045" flag="0"/>
			<psa30 value="0.00130149236331547" flag="0"/>
		</comp>
		<comp name="--.EN3" depth="0.0">
			<acc value="0.0101611443844413" flag="0"/>
			<vel value="0.00898304169882023" flag="0"/>
			<psa03 value="0.019017705142117" flag="0"/>
			<psa10 value="0.0109023622279716" flag="0"/>
			<psa30 value="0.000600151527928041" flag="0"/>
		</comp>
	</station>
	<station code="MMAA" name="MMAA" netid="EG" source="EUROSEISTEST Strong Motion Network" insttype="" lat="40.630855" lon="22.943725">
		<comp name="--.EN1" depth="0.0">
			<acc value="0.026201534109593" flag="0"/>
			<vel value="0.0234406440257669" flag="0"/>
			<psa03 value="0.0754413413686242" flag="0"/>
			<psa10 value="0.0345611645075157" flag="0"/>
			<psa30 value="0.0018658179762842" flag="0"/>
		</comp>
		<comp name="--.EN2" depth="0.0">
			<acc value="0.0253248305875282" flag="0"/>
			<vel value="0.0172093492933975" flag="0"/>
			<psa03 value="0.10698163909188" flag="0"/>
			<psa10 value="0.0284636543274091" flag="0"/>
			<psa30 value="0.00142948250870175" flag="0"/>
		</comp>
		<comp name="--.EN3" depth="0.0">
			<acc value="0.0247194011194083" flag="0"/>
			<vel value="0.0107631664910392" flag="0"/>
			<psa03 value="0.0519868657496844" flag="0"/>
			<psa10 value="0.0125627556584236" flag="0"/>
			<psa30 value="0.000638569802115146" flag="0"/>
		</comp>
	</station>
	<station code="PRR" name="PRR" netid="EG" source="EUROSEISTEST Strong Motion Network" insttype="" lat="40.682635" lon="23.300668">
		<comp name="--.EN1" depth="0.0">
			<acc value="0.00730089059700237" flag="0"/>
			<vel value="0.00535152955235651" flag="0"/>
			<psa03 value="0.0185978700384448" flag="0"/>
			<psa10 value="0.00529095034323931" flag="0"/>
			<psa30 value="0.000792014289977177" flag="0"/>
		</comp>
		<comp name="--.EN2" depth="0.0">
			<acc value="0.00775290047833554" flag="0"/>
			<vel value="0.00596198687166179" flag="0"/>
			<psa03 value="0.0197642480865218" flag="0"/>
			<psa10 value="0.00732680833386197" flag="0"/>
			<psa30 value="0.000540909113822924" flag="0"/>
		</comp>
		<comp name="--.EN3" depth="0.0">
			<acc value="0.00338990228188896" flag="0"/>
			<vel value="0.00218608182634975" flag="0"/>
			<psa03 value="0.0108757198120329" flag="0"/>
			<psa10 value="0.00304468021074549" flag="0"/>
			<psa30 value="0.00048004831125952" flag="0"/>
		</comp>
	</station>
	<station code="STC" name="STC" netid="EG" source="EUROSEISTEST Strong Motion Network" insttype="" lat="40.64865" lon="23.304856">
		<comp name="--.EN1" depth="0.0">
			<acc value="0.014638612815019" flag="0"/>
			<vel value="0.0123147511071239" flag="0"/>
			<psa03 value="0.0512298728941586" flag="0"/>
			<psa10 value="0.0115192921590764" flag="0"/>
			<psa30 value="0.00110602733138463" flag="0"/>
		</comp>
		<comp name="--.EN2" depth="0.0">
			<acc value="0.0128665280509075" flag="0"/>
			<vel value="0.00738873602833487" flag="0"/>
			<psa03 value="0.0372059152301018" flag="0"/>
			<psa10 value="0.00694829857192375" flag="0"/>
			<psa30 value="0.000724207193922068" flag="0"/>
		</comp>
		<comp name="--.EN3" depth="0.0">
			<acc value="0.0068197561091991" flag="0"/>
			<vel value="0.00532006668478834" flag="0"/>
			<psa03 value="0.0162159648531055" flag="0"/>
			<psa10 value="0.00640349857534915" flag="0"/>
			<psa30 value="0.000368110895956954" flag="0"/>
		</comp>
	</station>
	<station code="TST" name="TST" netid="EG" source="EUROSEISTEST Strong Motion Network" insttype="" lat="40.6638" lon="23.2906">
		<comp name="00.EN1" depth="0.0">
			<acc value="0.0136152863364857" flag="0"/>
			<vel value="0.0126354324516905" flag="0"/>
			<psa03 value="0.0294982848457886" flag="0"/>
			<psa10 value="0.0144409147647419" flag="0"/>
			<psa30 value="0.00116726597147589" flag="0"/>
		</comp>
		<comp name="00.EN2" depth="0.0">
			<acc value="0.00602637166353188" flag="0"/>
			<vel value="0.00504468899997645" flag="0"/>
			<psa03 value="0.0188662537029494" flag="0"/>
			<psa10 value="0.00770680600682078" flag="0"/>
			<psa30 value="0.000466803527607658" flag="0"/>
		</comp>
		<comp name="00.EN3" depth="0.0">
			<acc value="0.0160067462815733" flag="0"/>
			<vel value="0.0136442334132902" flag="0"/>
			<psa03 value="0.0433457959254058" flag="0"/>
			<psa10 value="0.0149490687399199" flag="0"/>
			<psa30 value="0.00126190349074538" flag="0"/>
		</comp>
	</station>
	<station code="KRK1" name="KRK1" netid="HI" source="ITSAK Strong Motion Network" insttype="" lat="39.618861" lon="19.9202">
		<comp name="--.HNE" depth="0.0">
			<acc value="0.0124843149163074" flag="0"/>
			<vel value="0.00769356892092237" flag="0"/>
			<psa03 value="0.0431413579032255" flag="0"/>
			<psa10 value="0.00829507794572116" flag="0"/>
			<psa30 value="0.00121135878823975" flag="0"/>
		</comp>
		<comp name="--.HNN" depth="0.0">
			<acc value="0.0101765707908062" flag="0"/>
			<vel value="0.00652217332463885" flag="0"/>
			<psa03 value="0.0322730676198355" flag="0"/>
			<psa10 value="0.00951722015663092" flag="0"/>
			<psa30 value="0.000688798181582347" flag="0"/>
		</comp>
		<comp name="--.HNZ" depth="0.0">
			<acc value="0.00525156182497659" flag="0"/>
			<vel value="0.00334172849784803" flag="0"/>
			<psa03 value="0.0199154325809332" flag="0"/>
			<psa10 value="0.00249510685108201" flag="0"/>
			<psa30 value="0.000825434264300477" flag="0"/>
		</comp>
	</station>
	<station code="LMS2" name="LMS2" netid="HI" source="ITSAK Strong Motion Network" insttype="" lat="40.834985" lon="21.141815">
		<comp name="--.HNE" depth="0.0">
			<acc value="1.28116656379952" flag="0"/>
			<vel value="0.341515829351186" flag="0"/>
			<psa03 value="0.952925209952528" flag="0"/>
			<psa10 value="0.0959707325900446" flag="0"/>
			<psa30 value="0.00834033083932202" flag="0"/>
		</comp>
		<comp name="--.HNN" depth="0.0">
			<acc value="1.28930152269524" flag="0"/>
			<vel value="0.314963525766019" flag="0"/>
			<psa03 value="1.35275027973526" flag="0"/>
			<psa10 value="0.0829893676383624" flag="0"/>
			<psa30 value="0.00585969317589818" flag="0"/>
		</comp>
		<comp name="--.HNZ" depth="0.0">
			<acc value="0.635655349157787" flag="0"/>
			<vel value="0.19684150768835" flag="0"/>
			<psa03 value="0.686879294048427" flag="0"/>
			<psa10 value="0.157434739278811" flag="0"/>
			<psa30 value="0.0087735987078594" flag="0"/>
		</comp>
	</station>
	<station code="PLG" name="PLG" netid="HL" source="National Observatory of Athens Seismic Network" insttype="" lat="40.37328" lon="23.44443">
		<comp name="--.HNE" depth="0.0">
			<acc value="0.00186498250247032" flag="0"/>
			<vel value="0.0015740579943932" flag="0"/>
			<psa03 value="0.00579709106007092" flag="0"/>
			<psa10 value="0.0020286404030958" flag="0"/>
			<psa30 value="0.000145585360461544" flag="0"/>
		</comp>
		<comp name="--.HNN" depth="0.0">
			<acc value="0.00362012523749033" flag="0"/>
			<vel value="0.00326566146003163" flag="0"/>
			<psa03 value="0.0125573396746339" flag="0"/>
			<psa10 value="0.00257329578071826" flag="0"/>
			<psa30 value="0.000286459419238946" flag="0"/>
		</comp>
		<comp name="--.HNZ" depth="0.0">
			<acc value="0.00270711623965844" flag="0"/>
			<vel value="0.00142420872915304" flag="0"/>
			<psa03 value="0.0108383755412722" flag="0"/>
			<psa10 value="0.00122873034266925" flag="0"/>
			<psa30 value="0.000227635366184251" flag="0"/>
		</comp>
	</station>
</stationlist>
