<stationlist created="1778136283">
	<station code="BLY" name="BLY" netid="MN" source="Mediterranean Very Broadband Seismographic Network (MedNet)" insttype="" lat="44.7488" lon="17.1839">
		<comp name="--.HNE" depth="1.0">
			<acc value="0.0160587761441126" flag="0"/>
			<vel value="0.00782300116881347" flag="0"/>
			<psa03 value="0.055491514582109" flag="0"/>
			<psa10 value="0.0100310079425305" flag="0"/>
			<psa30 value="0.000502806745981126" flag="0"/>
		</comp>
		<comp name="--.HNN" depth="1.0">
			<acc value="0.0113080684750997" flag="0"/>
			<vel value="0.00628517273370275" flag="0"/>
			<psa03 value="0.0481193230855237" flag="0"/>
			<psa10 value="0.00917456558244202" flag="0"/>
			<psa30 value="0.000467990897933407" flag="0"/>
		</comp>
		<comp name="--.HNZ" depth="1.0">
			<acc value="0.00910958869339567" flag="0"/>
			<vel value="0.00538252764044974" flag="0"/>
			<psa03 value="0.0435182526623169" flag="0"/>
			<psa10 value="0.00575053719486292" flag="0"/>
			<psa30 value="0.000322302366575115" flag="0"/>
		</comp>
	</station>
	<station code="BOJS" name="BOJS" netid="SL" source="Seismic Network of the Republic of Slovenia (SNRS)" insttype="" lat="45.5043" lon="15.2518">
		<comp name="--.HNE" depth="0.0">
			<acc value="0.045393215073849" flag="0"/>
			<vel value="0.0104190855486274" flag="0"/>
			<psa03 value="0.0497980759661365" flag="0"/>
			<psa10 value="0.00535161533361148" flag="0"/>
			<psa30 value="0.000327065530379566" flag="0"/>
		</comp>
		<comp name="--.HNN" depth="0.0">
			<acc value="0.0476237560379711" flag="0"/>
			<vel value="0.010263508142076" flag="0"/>
			<psa03 value="0.0560172426860762" flag="0"/>
			<psa10 value="0.0041757901436833" flag="0"/>
			<psa30 value="0.000276506836900919" flag="0"/>
		</comp>
		<comp name="--.HNZ" depth="0.0">
			<acc value="0.0403383219931327" flag="0"/>
			<vel value="0.0069154552923208" flag="0"/>
			<psa03 value="0.0377624223858214" flag="0"/>
			<psa10 value="0.00244426674755619" flag="0"/>
			<psa30 value="0.000275611992768554" flag="0"/>
		</comp>
	</station>
	<station code="CADS" name="CADS" netid="SL" source="Seismic Network of the Republic of Slovenia (SNRS)" insttype="" lat="46.2281" lon="13.7368">
		<comp name="--.HNE" depth="0.0">
			<acc value="0.00863887906680262" flag="0"/>
			<vel value="0.00391000390190679" flag="0"/>
			<psa03 value="0.0347288370733277" flag="0"/>
			<psa10 value="0.00168715438288648" flag="0"/>
			<psa30 value="0.000118858446705497" flag="0"/>
		</comp>
		<comp name="--.HNN" depth="0.0">
			<acc value="0.00911135032882949" flag="0"/>
			<vel value="0.00349335936318572" flag="0"/>
			<psa03 value="0.0234955356305877" flag="0"/>
			<psa10 value="0.00252517071766803" flag="0"/>
			<psa30 value="0.000129470647107296" flag="0"/>
		</comp>
		<comp name="--.HNZ" depth="0.0">
			<acc value="0.00468315062677447" flag="0"/>
			<vel value="0.002087298156118" flag="0"/>
			<psa03 value="0.0163872118744397" flag="0"/>
			<psa10 value="0.0015998711007958" flag="0"/>
			<psa30 value="8.21009661296142e-05" flag="0"/>
		</comp>
	</station>
	<station code="CEY" name="CEY" netid="SL" source="Seismic Network of the Republic of Slovenia (SNRS)" insttype="" lat="45.7381" lon="14.4221">
		<comp name="--.HNE" depth="0.0">
			<acc value="0.02187900379028" flag="0"/>
			<vel value="0.00789815443902772" flag="0"/>
			<psa03 value="0.0548434143569366" flag="0"/>
			<psa10 value="0.00403900772069265" flag="0"/>
			<psa30 value="0.000213342401116176" flag="0"/>
		</comp>
		<comp name="--.HNN" depth="0.0">
			<acc value="0.0155659036549401" flag="0"/>
			<vel value="0.00760490497973559" flag="0"/>
			<psa03 value="0.0548123810510181" flag="0"/>
			<psa10 value="0.00650910510253" flag="0"/>
			<psa30 value="0.000309086803608737" flag="0"/>
		</comp>
		<comp name="--.HNZ" depth="0.0">
			<acc value="0.0134781921567144" flag="0"/>
			<vel value="0.00551224663965033" flag="0"/>
			<psa03 value="0.0317897257049988" flag="0"/>
			<psa10 value="0.00417123538636948" flag="0"/>
			<psa30 value="0.000319134995293816" flag="0"/>
		</comp>
	</station>
	<station code="CRES" name="CRES" netid="SL" source="Seismic Network of the Republic of Slovenia (SNRS)" insttype="" lat="45.826" lon="15.4569">
		<comp name="--.HNE" depth="0.0">
			<acc value="0.0910914403946517" flag="0"/>
			<vel value="0.0225945166470311" flag="0"/>
			<psa03 value="0.102638621982315" flag="0"/>
			<psa10 value="0.00476370273864739" flag="0"/>
			<psa30 value="0.000419681898079389" flag="0"/>
		</comp>
		<comp name="--.HNN" depth="0.0">
			<acc value="0.052727534766652" flag="0"/>
			<vel value="0.0126794437149299" flag="0"/>
			<psa03 value="0.0947639936174996" flag="0"/>
			<psa10 value="0.00458652360043904" flag="0"/>
			<psa30 value="0.000258609954253611" flag="0"/>
		</comp>
		<comp name="--.HNZ" depth="0.0">
			<acc value="0.0371009838881974" flag="0"/>
			<vel value="0.0109697697340237" flag="0"/>
			<psa03 value="0.0454580819241641" flag="0"/>
			<psa10 value="0.00296775056498997" flag="0"/>
			<psa30 value="0.000178968826473087" flag="0"/>
		</comp>
	</station>
	<station code="CRNS" name="CRNS" netid="SL" source="Seismic Network of the Republic of Slovenia (SNRS)" insttype="" lat="46.0807" lon="14.2613">
		<comp name="--.HNE" depth="0.0">
			<acc value="0.0243772436774935" flag="0"/>
			<vel value="0.0121734597180575" flag="0"/>
			<psa03 value="0.0380038509019556" flag="0"/>
			<psa10 value="0.00411371970126012" flag="0"/>
			<psa30 value="0.000308310814703538" flag="0"/>
		</comp>
		<comp name="--.HNN" depth="0.0">
			<acc value="0.0143481081539987" flag="0"/>
			<vel value="0.00601483892105752" flag="0"/>
			<psa03 value="0.0280566815341164" flag="0"/>
			<psa10 value="0.00357609861773131" flag="0"/>
			<psa30 value="0.000285956391124379" flag="0"/>
		</comp>
		<comp name="--.HNZ" depth="0.0">
			<acc value="0.00912227883531829" flag="0"/>
			<vel value="0.00266024929824615" flag="0"/>
			<psa03 value="0.0184921091260474" flag="0"/>
			<psa10 value="0.00258815098355104" flag="0"/>
			<psa30 value="0.000141777152457243" flag="0"/>
		</comp>
	</station>
	<station code="DOBS" name="DOBS" netid="SL" source="Seismic Network of the Republic of Slovenia (SNRS)" insttype="" lat="46.1495" lon="15.4695">
		<comp name="--.HNE" depth="0.0">
			<acc value="0.0679205207987151" flag="0"/>
			<vel value="0.0192724865597503" flag="0"/>
			<psa03 value="0.0730070134396362" flag="0"/>
			<psa10 value="0.00745254713216196" flag="0"/>
			<psa30 value="0.000606316519661178" flag="0"/>
		</comp>
		<comp name="--.HNN" depth="0.0">
			<acc value="0.0560575933999526" flag="0"/>
			<vel value="0.0171057449753834" flag="0"/>
			<psa03 value="0.0439921590562851" flag="0"/>
			<psa10 value="0.00325046759315013" flag="0"/>
			<psa30 value="0.000373019294030742" flag="0"/>
		</comp>
		<comp name="--.HNZ" depth="0.0">
			<acc value="0.0270660852897217" flag="0"/>
			<vel value="0.00910430342061301" flag="0"/>
			<psa03 value="0.023491483278823" flag="0"/>
			<psa10 value="0.00394110185990664" flag="0"/>
			<psa30 value="0.000285698144849993" flag="0"/>
		</comp>
	</station>
	<station code="GBAS" name="GBAS" netid="SL" source="Seismic Network of the Republic of Slovenia (SNRS)" insttype="" lat="45.9348" lon="14.4434">
		<comp name="--.HNE" depth="0.0">
			<acc value="0.00670829336656172" flag="0"/>
			<vel value="0.00309610229062528" flag="0"/>
			<psa03 value="0.0187609303195793" flag="0"/>
			<psa10 value="0.00308256147019225" flag="0"/>
			<psa30 value="0.000189414240472091" flag="0"/>
		</comp>
		<comp name="--.HNN" depth="0.0">
			<acc value="0.00853910162258074" flag="0"/>
			<vel value="0.0039693459078605" flag="0"/>
			<psa03 value="0.0175757593599043" flag="0"/>
			<psa10 value="0.00314263154329291" flag="0"/>
			<psa30 value="0.000270159928019153" flag="0"/>
		</comp>
		<comp name="--.HNZ" depth="0.0">
			<acc value="0.0072544591277717" flag="0"/>
			<vel value="0.0030427716869408" flag="0"/>
			<psa03 value="0.0173425980807474" flag="0"/>
			<psa10 value="0.00206677574187636" flag="0"/>
			<psa30 value="0.000173341404892153" flag="0"/>
		</comp>
	</station>
	<station code="GBRS" name="GBRS" netid="SL" source="Seismic Network of the Republic of Slovenia (SNRS)" insttype="" lat="45.5311" lon="14.8101">
		<comp name="--.HNE" depth="0.0">
			<acc value="0.0370602235149497" flag="0"/>
			<vel value="0.00809281098818451" flag="0"/>
			<psa03 value="0.0289237155333793" flag="0"/>
			<psa10 value="0.00282032089491834" flag="0"/>
			<psa30 value="0.000198848185737405" flag="0"/>
		</comp>
		<comp name="--.HNN" depth="0.0">
			<acc value="0.0321960721234257" flag="0"/>
			<vel value="0.00754624745889942" flag="0"/>
			<psa03 value="0.0378122913370669" flag="0"/>
			<psa10 value="0.00331978601328072" flag="0"/>
			<psa30 value="0.00020449427590875" flag="0"/>
		</comp>
		<comp name="--.HNZ" depth="0.0">
			<acc value="0.0199332362674898" flag="0"/>
			<vel value="0.00605130685476876" flag="0"/>
			<psa03 value="0.0319207630313734" flag="0"/>
			<psa10 value="0.00279188721445056" flag="0"/>
			<psa30 value="0.000208321925305172" flag="0"/>
		</comp>
	</station>
	<station code="GCIS" name="GCIS" netid="SL" source="Seismic Network of the Republic of Slovenia (SNRS)" insttype="" lat="45.8672" lon="15.6275">
		<comp name="--.HNE" depth="0.0">
			<acc value="0.0779039562348115" flag="0"/>
			<vel value="0.0352024484753236" flag="0"/>
			<psa03 value="0.145170887692319" flag="0"/>
			<psa10 value="0.00872554739968849" flag="0"/>
			<psa30 value="0.000886766243909823" flag="0"/>
		</comp>
		<comp name="--.HNN" depth="0.0">
			<acc value="0.071135120223706" flag="0"/>
			<vel value="0.0210403093324849" flag="0"/>
			<psa03 value="0.132298191189404" flag="0"/>
			<psa10 value="0.00591643271589566" flag="0"/>
			<psa30 value="0.000543716591472785" flag="0"/>
		</comp>
		<comp name="--.HNZ" depth="0.0">
			<acc value="0.0422902707116437" flag="0"/>
			<vel value="0.0138317015865168" flag="0"/>
			<psa03 value="0.0660444324111359" flag="0"/>
			<psa10 value="0.00383118489094709" flag="0"/>
			<psa30 value="0.000364438387046133" flag="0"/>
		</comp>
	</station>
	<station code="GOLS" name="GOLS" netid="SL" source="Seismic Network of the Republic of Slovenia (SNRS)" insttype="" lat="46.0108" lon="15.6245">
		<comp name="--.HNE" depth="0.0">
			<acc value="0.0636598486218963" flag="0"/>
			<vel value="0.0191072470468769" flag="0"/>
			<psa03 value="0.130533615961498" flag="0"/>
			<psa10 value="0.00645395113632717" flag="0"/>
			<psa30 value="0.000542220294433838" flag="0"/>
		</comp>
		<comp name="--.HNN" depth="0.0">
			<acc value="0.0583750534120649" flag="0"/>
			<vel value="0.0216731296018469" flag="0"/>
			<psa03 value="0.0929906601746835" flag="0"/>
			<psa10 value="0.00558651914197772" flag="0"/>
			<psa30 value="0.000516815799008877" flag="0"/>
		</comp>
		<comp name="--.HNZ" depth="0.0">
			<acc value="0.0225096701880926" flag="0"/>
			<vel value="0.00865629304996649" flag="0"/>
			<psa03 value="0.0483510780215125" flag="0"/>
			<psa10 value="0.00382555834634204" flag="0"/>
			<psa30 value="0.000243446778195825" flag="0"/>
		</comp>
	</station>
	<station code="GORS" name="GORS" netid="SL" source="Seismic Network of the Republic of Slovenia (SNRS)" insttype="" lat="46.3174" lon="13.9999">
		<comp name="--.HNE" depth="0.0">
			<acc value="0.0059777727842432" flag="0"/>
			<vel value="0.0018078839424195" flag="0"/>
			<psa03 value="0.00942085976279043" flag="0"/>
			<psa10 value="0.00171005679849385" flag="0"/>
			<psa30 value="7.83324677875908e-05" flag="0"/>
		</comp>
		<comp name="--.HNN" depth="0.0">
			<acc value="0.00379791529490209" flag="0"/>
			<vel value="0.00197006671510093" flag="0"/>
			<psa03 value="0.0080828805032441" flag="0"/>
			<psa10 value="0.00150343932203757" flag="0"/>
			<psa30 value="9.00989048082545e-05" flag="0"/>
		</comp>
		<comp name="--.HNZ" depth="0.0">
			<acc value="0.00317260709473978" flag="0"/>
			<vel value="0.00179360463670823" flag="0"/>
			<psa03 value="0.0105142752951778" flag="0"/>
			<psa10 value="0.00174426773667582" flag="0"/>
			<psa30 value="0.000128110934637391" flag="0"/>
		</comp>
	</station>
	<station code="GROS" name="GROS" netid="SL" source="Seismic Network of the Republic of Slovenia (SNRS)" insttype="" lat="46.461" lon="15.5018">
		<comp name="--.HNE" depth="0.0">
			<acc value="0.0238772096182115" flag="0"/>
			<vel value="0.00472259238578231" flag="0"/>
			<psa03 value="0.0348601061859431" flag="0"/>
			<psa10 value="0.00251622121855762" flag="0"/>
			<psa30 value="0.000167423135232012" flag="0"/>
		</comp>
		<comp name="--.HNN" depth="0.0">
			<acc value="0.0265086201043821" flag="0"/>
			<vel value="0.0047413056757827" flag="0"/>
			<psa03 value="0.0234817300285568" flag="0"/>
			<psa10 value="0.00228159630080581" flag="0"/>
			<psa30 value="0.000139723253375724" flag="0"/>
		</comp>
		<comp name="--.HNZ" depth="0.0">
			<acc value="0.0136342013882905" flag="0"/>
			<vel value="0.00384649121327314" flag="0"/>
			<psa03 value="0.0237460886868385" flag="0"/>
			<psa10 value="0.00370508559998597" flag="0"/>
			<psa30 value="0.000180157077751408" flag="0"/>
		</comp>
	</station>
	<station code="JAVS" name="JAVS" netid="SL" source="Seismic Network of the Republic of Slovenia (SNRS)" insttype="" lat="45.8934" lon="14.0643">
		<comp name="--.HNE" depth="0.0">
			<acc value="0.00813115441746792" flag="0"/>
			<vel value="0.00513428293672699" flag="0"/>
			<psa03 value="0.0199946722051716" flag="0"/>
			<psa10 value="0.00327293790982417" flag="0"/>
			<psa30 value="0.000227825769422559" flag="0"/>
		</comp>
		<comp name="--.HNN" depth="0.0">
			<acc value="0.00787368970856011" flag="0"/>
			<vel value="0.0041623158539483" flag="0"/>
			<psa03 value="0.0252541391086144" flag="0"/>
			<psa10 value="0.00356305056586485" flag="0"/>
			<psa30 value="0.000188542763470325" flag="0"/>
		</comp>
		<comp name="--.HNZ" depth="0.0">
			<acc value="0.00469239591366651" flag="0"/>
			<vel value="0.00251480509071905" flag="0"/>
			<psa03 value="0.0104817685844584" flag="0"/>
			<psa10 value="0.00303302889202921" flag="0"/>
			<psa30 value="0.000112650131788985" flag="0"/>
		</comp>
	</station>
	<station code="KNDS" name="KNDS" netid="SL" source="Seismic Network of the Republic of Slovenia (SNRS)" insttype="" lat="45.5278" lon="14.3807">
		<comp name="--.HNE" depth="0.0">
			<acc value="0.0151211299121274" flag="0"/>
			<vel value="0.00543118261588548" flag="0"/>
			<psa03 value="0.0290131693759216" flag="0"/>
			<psa10 value="0.00386497416057052" flag="0"/>
			<psa30 value="0.000209552202117597" flag="0"/>
		</comp>
		<comp name="--.HNN" depth="0.0">
			<acc value="0.0148977616421522" flag="0"/>
			<vel value="0.00614250940051134" flag="0"/>
			<psa03 value="0.0308384152895108" flag="0"/>
			<psa10 value="0.00413441779113838" flag="0"/>
			<psa30 value="0.000199969991822378" flag="0"/>
		</comp>
		<comp name="--.HNZ" depth="0.0">
			<acc value="0.00686955120689165" flag="0"/>
			<vel value="0.00273295181277053" flag="0"/>
			<psa03 value="0.0222919298559366" flag="0"/>
			<psa10 value="0.00314771430187609" flag="0"/>
			<psa30 value="0.000154065648801467" flag="0"/>
		</comp>
	</station>
	<station code="KOGS" name="KOGS" netid="SL" source="Seismic Network of the Republic of Slovenia (SNRS)" insttype="" lat="46.4481" lon="16.2504">
		<comp name="--.HNE" depth="0.0">
			<acc value="0.109727216497353" flag="0"/>
			<vel value="0.035609645341026" flag="0"/>
			<psa03 value="0.139281112106911" flag="0"/>
			<psa10 value="0.0175455841838401" flag="0"/>
			<psa30 value="0.00122273089575521" flag="0"/>
		</comp>
		<comp name="--.HNN" depth="0.0">
			<acc value="0.100711356375388" flag="0"/>
			<vel value="0.0440720166890317" flag="0"/>
			<psa03 value="0.200305310910477" flag="0"/>
			<psa10 value="0.0251198709431689" flag="0"/>
			<psa30 value="0.00242056160032829" flag="0"/>
		</comp>
		<comp name="--.HNZ" depth="0.0">
			<acc value="0.0440981525704554" flag="0"/>
			<vel value="0.0202442439165028" flag="0"/>
			<psa03 value="0.104140200860678" flag="0"/>
			<psa10 value="0.0115124779576612" flag="0"/>
			<psa30 value="0.000955712686274527" flag="0"/>
		</comp>
	</station>
	<station code="LEGS" name="LEGS" netid="SL" source="Seismic Network of the Republic of Slovenia (SNRS)" insttype="" lat="45.9488" lon="15.3177">
		<comp name="--.HNE" depth="0.0">
			<acc value="0.0629985597618581" flag="0"/>
			<vel value="0.023653002531293" flag="0"/>
			<psa03 value="0.132988466083404" flag="0"/>
			<psa10 value="0.00889668154899894" flag="0"/>
			<psa30 value="0.00078544796957227" flag="0"/>
		</comp>
		<comp name="--.HNN" depth="0.0">
			<acc value="0.0421297931981725" flag="0"/>
			<vel value="0.013595034612166" flag="0"/>
			<psa03 value="0.0830092489555452" flag="0"/>
			<psa10 value="0.00557404440933443" flag="0"/>
			<psa30 value="0.000357213377174659" flag="0"/>
		</comp>
		<comp name="--.HNZ" depth="0.0">
			<acc value="0.0277621382003444" flag="0"/>
			<vel value="0.0127789547499477" flag="0"/>
			<psa03 value="0.0570886933042795" flag="0"/>
			<psa10 value="0.00397893999149481" flag="0"/>
			<psa30 value="0.000290534324598324" flag="0"/>
		</comp>
	</station>
	<station code="LJU" name="LJU" netid="SL" source="Seismic Network of the Republic of Slovenia (SNRS)" insttype="" lat="46.0438" lon="14.5278">
		<comp name="--.HNE" depth="0.0">
			<acc value="0.0209590486578738" flag="0"/>
			<vel value="0.00907778347413944" flag="0"/>
			<psa03 value="0.0495338282482142" flag="0"/>
			<psa10 value="0.0064535142323842" flag="0"/>
			<psa30 value="0.000399998971927008" flag="0"/>
		</comp>
		<comp name="--.HNN" depth="0.0">
			<acc value="0.0220015782710323" flag="0"/>
			<vel value="0.00851360920465141" flag="0"/>
			<psa03 value="0.0556908663297485" flag="0"/>
			<psa10 value="0.00631167139852379" flag="0"/>
			<psa30 value="0.000305933235325472" flag="0"/>
		</comp>
		<comp name="--.HNZ" depth="0.0">
			<acc value="0.00913728054227731" flag="0"/>
			<vel value="0.00514982810294464" flag="0"/>
			<psa03 value="0.020239108970816" flag="0"/>
			<psa10 value="0.00348954710286914" flag="0"/>
			<psa30 value="0.000333508004727019" flag="0"/>
		</comp>
	</station>
	<station code="MOZS" name="MOZS" netid="SL" source="Seismic Network of the Republic of Slovenia (SNRS)" insttype="" lat="46.2941" lon="14.4433">
		<comp name="--.HNE" depth="0.0">
			<acc value="0.0110669624702205" flag="0"/>
			<vel value="0.00485925290867814" flag="0"/>
			<psa03 value="0.0277826555687256" flag="0"/>
			<psa10 value="0.00256587708613943" flag="0"/>
			<psa30 value="0.000190839842723935" flag="0"/>
		</comp>
		<comp name="--.HNN" depth="0.0">
			<acc value="0.00880630995499188" flag="0"/>
			<vel value="0.00405966327813541" flag="0"/>
			<psa03 value="0.0280101498058087" flag="0"/>
			<psa10 value="0.00200999369909442" flag="0"/>
			<psa30 value="0.000198432429028818" flag="0"/>
		</comp>
		<comp name="--.HNZ" depth="0.0">
			<acc value="0.00526191660983696" flag="0"/>
			<vel value="0.00183481583138168" flag="0"/>
			<psa03 value="0.0142207233031158" flag="0"/>
			<psa10 value="0.00109977512033081" flag="0"/>
			<psa30 value="0.000159745946968264" flag="0"/>
		</comp>
	</station>
	<station code="PDKS" name="PDKS" netid="SL" source="Seismic Network of the Republic of Slovenia (SNRS)" insttype="" lat="46.0612" lon="14.9977">
		<comp name="--.HNE" depth="0.0">
			<acc value="0.0186804335119461" flag="0"/>
			<vel value="0.00760760210036407" flag="0"/>
			<psa03 value="0.0516093407403271" flag="0"/>
			<psa10 value="0.00490964570868965" flag="0"/>
			<psa30 value="0.000290502030792142" flag="0"/>
		</comp>
		<comp name="--.HNN" depth="0.0">
			<acc value="0.0179280887327114" flag="0"/>
			<vel value="0.00528382537601234" flag="0"/>
			<psa03 value="0.0318300955667674" flag="0"/>
			<psa10 value="0.00544122748587029" flag="0"/>
			<psa30 value="0.000256691327457137" flag="0"/>
		</comp>
		<comp name="--.HNZ" depth="0.0">
