<?xml version="1.0" encoding="UTF-8" standalone="yes"?>
<!DOCTYPE earthquake SYSTEM "stationlist.dtd">
<stationlist created="" xmlns="ch.ethz.sed.shakemap.usgs.xml">
  <station code="BLY" name="BLY" netid="MN" insttype="" lat="44.7488" lon="17.1839">
    <comp name="--.HHN">
      <acc value="0.0112358236" flag="0"/>
      <vel value="0.0062684050" flag="0"/>
      <psa03 value="0.0456051094" flag="0"/>
      <psa10 value="0.0092722596" flag="0"/>
      <psa30 value="0.0004529075" flag="0"/>
    </comp>
    <comp name="--.HHZ">
      <acc value="0.0092898348" flag="0"/>
      <vel value="0.0053372328" flag="0"/>
      <psa03 value="0.0449042170" flag="0"/>
      <psa10 value="0.0056927967" flag="0"/>
      <psa30 value="0.0003112120" flag="0"/>
    </comp>
    <comp name="--.HHE">
      <acc value="0.0165945408" flag="0"/>
      <vel value="0.0079500989" flag="0"/>
      <psa03 value="0.0579916103" flag="0"/>
      <psa10 value="0.0099744214" flag="0"/>
      <psa30 value="0.0004891864" flag="0"/>
    </comp>
  </station>
</stationlist>
