<?xml version="1.0" encoding="UTF-8" standalone="yes"?>
<!DOCTYPE earthquake SYSTEM "stationlist.dtd">
<stationlist created="" xmlns="ch.ethz.sed.shakemap.usgs.xml">
  <station code="RDI1" name="RDI1" netid="HI" insttype="CMG-5TD,ACCELEROMETER,GURALP" lat="36.4514" lon="28.224">
    <comp name="--.HNN">
      <acc value="0.0519782878" flag="0"/>
      <vel value="0.0264685234" flag="0"/>
      <psa03 value="0.1648244746" flag="0"/>
      <psa10 value="0.0207905424" flag="0"/>
      <psa30 value="0.0062728420" flag="0"/>
    </comp>
    <comp name="--.HNZ">
      <acc value="0.0547518551" flag="0"/>
      <vel value="0.0184560211" flag="0"/>
      <psa03 value="0.0975998516" flag="0"/>
      <psa10 value="0.0120523727" flag="0"/>
      <psa30 value="0.0032412295" flag="0"/>
    </comp>
    <comp name="--.HNE">
      <acc value="0.0652471298" flag="0"/>
      <vel value="0.0309316237" flag="0"/>
      <psa03 value="0.2120880326" flag="0"/>
      <psa10 value="0.0193628401" flag="0"/>
      <psa30 value="0.0044864133" flag="0"/>
    </comp>
  </station>
  <station code="ARG" name="ARG" netid="HL" insttype="LE3D20_DR24" lat="36.2136" lon="28.1212">
    <comp name="--.HHE">
      <acc value="0.5513295932" flag="0"/>
      <vel value="0.1686608507" flag="0"/>
      <psa03 value="0.6668546929" flag="0"/>
      <psa10 value="0.0493157235" flag="0"/>
      <psa30 value="0.0069403146" flag="0"/>
    </comp>
    <comp name="--.HHN">
      <acc value="0.5150143944" flag="0"/>
      <vel value="0.1120757582" flag="0"/>
      <psa03 value="0.4602866814" flag="0"/>
      <psa10 value="0.0662738727" flag="0"/>
      <psa30 value="0.0110187159" flag="0"/>
    </comp>
    <comp name="--.HHZ">
      <acc value="0.3025797499" flag="0"/>
      <vel value="0.0863030672" flag="0"/>
      <psa03 value="0.3436330619" flag="0"/>
      <psa10 value="0.0666676669" flag="0"/>
      <psa30 value="0.0084329756" flag="0"/>
    </comp>
  </station>
  <station code="NISR" name="NISR" netid="HL" insttype="65535" lat="36.6106" lon="27.131">
    <comp name="--.HHN">
      <acc value="0.0127626414" flag="0"/>
      <vel value="0.0075175795" flag="0"/>
      <psa03 value="0.0291370013" flag="0"/>
      <psa10 value="0.0136849620" flag="0"/>
      <psa30 value="0.0009170190" flag="0"/>
    </comp>
    <comp name="--.HHE">
      <acc value="0.0000000000" flag="0"/>
      <vel value="-100.0000000000" flag="0"/>
      <psa03 value="0.0000000000" flag="0"/>
      <psa10 value="0.0000000000" flag="0"/>
      <psa30 value="0.0000000000" flag="0"/>
    </comp>
    <comp name="--.HHZ">
      <acc value="0.0074760597" flag="0"/>
      <vel value="0.0069904055" flag="0"/>
      <psa03 value="0.0209611048" flag="0"/>
      <psa10 value="0.0169024523" flag="0"/>
      <psa30 value="0.0006269485" flag="0"/>
    </comp>
  </station>
  <station code="NISR2" name="NISR2" netid="HL" insttype="120" lat="36.5744" lon="27.1767">
    <comp name="--.HHZ">
      <acc value="0.0299415616" flag="0"/>
      <vel value="0.0156733600" flag="0"/>
      <psa03 value="0.0661653110" flag="0"/>
      <psa10 value="0.0136055321" flag="0"/>
      <psa30 value="0.0011818858" flag="0"/>
    </comp>
    <comp name="--.HHE">
      <acc value="0.0693132855" flag="0"/>
      <vel value="0.0426842740" flag="0"/>
      <psa03 value="0.2566849034" flag="0"/>
      <psa10 value="0.0604564034" flag="0"/>
      <psa30 value="0.0020285099" flag="0"/>
    </comp>
    <comp name="--.HHN">
      <acc value="0.0798512401" flag="0"/>
      <vel value="0.0514022640" flag="0"/>
      <psa03 value="0.2725847949" flag="0"/>
      <psa10 value="0.0760441045" flag="0"/>
      <psa30 value="0.0028114491" flag="0"/>
    </comp>
  </station>
  <station code="RODB" name="RODB" netid="HL" insttype="CMG-5" lat="36.4471" lon="28.2212">
    <comp name="00.HNE">
      <acc value="0.0740409310" flag="0"/>
      <vel value="0.0295164096" flag="0"/>
      <psa03 value="0.1669111732" flag="0"/>
      <psa10 value="0.0262436750" flag="0"/>
      <psa30 value="0.0036642022" flag="0"/>
    </comp>
    <comp name="00.HNZ">
      <acc value="0.1093916578" flag="0"/>
      <vel value="0.0308766866" flag="0"/>
      <psa03 value="0.1523195223" flag="0"/>
      <psa10 value="0.0172277317" flag="0"/>
      <psa30 value="0.0031418364" flag="0"/>
    </comp>
    <comp name="00.HNN">
      <acc value="0.1184164612" flag="0"/>
      <vel value="0.0560141816" flag="0"/>
      <psa03 value="0.2655855136" flag="0"/>
      <psa10 value="0.0168587966" flag="0"/>
      <psa30 value="0.0064332353" flag="0"/>
    </comp>
  </station>
  <station code="BODA" name="BODA" netid="KO" insttype="ACEBOX" lat="37.0348" lon="27.4304">
    <comp name="--.HNE">
      <acc value="0.0443440539" flag="0"/>
      <vel value="0.0162114780" flag="0"/>
      <psa03 value="0.1143174083" flag="0"/>
      <psa10 value="0.0064795949" flag="0"/>
      <psa30 value="0.0005104080" flag="0"/>
    </comp>
    <comp name="--.HNN">
      <acc value="0.0645791140" flag="0"/>
      <vel value="0.0280720567" flag="0"/>
      <psa03 value="0.1853840330" flag="0"/>
      <psa10 value="0.0083394039" flag="0"/>
      <psa30 value="0.0006696280" flag="0"/>
    </comp>
    <comp name="--.HNZ">
      <acc value="0.0126684217" flag="0"/>
      <vel value="0.0049268308" flag="0"/>
      <psa03 value="0.0313113144" flag="0"/>
      <psa10 value="0.0027319720" flag="0"/>
      <psa30 value="0.0003720476" flag="0"/>
    </comp>
  </station>
  <station code="BODM" name="BODM" netid="KO" insttype="ACEBOX" lat="37.031" lon="27.4247">
    <comp name="--.HNE">
      <acc value="0.0766685723" flag="0"/>
      <vel value="0.0464451771" flag="0"/>
      <psa03 value="0.1962183109" flag="0"/>
      <psa10 value="0.0166019817" flag="0"/>
      <psa30 value="0.0015398947" flag="0"/>
    </comp>
    <comp name="--.HNN">
      <acc value="0.0767934248" flag="0"/>
      <vel value="0.0510851258" flag="0"/>
      <psa03 value="0.2078625431" flag="0"/>
      <psa10 value="0.0185416266" flag="0"/>
      <psa30 value="0.0018571305" flag="0"/>
    </comp>
    <comp name="--.HNZ">
      <acc value="0.0107052111" flag="0"/>
      <vel value="0.0054959377" flag="0"/>
      <psa03 value="0.0300486720" flag="0"/>
      <psa10 value="0.0032456252" flag="0"/>
      <psa30 value="0.0003978870" flag="0"/>
    </comp>
  </station>
  <station code="DAT" name="DAT" netid="KO" insttype="CMG-3T" lat="36.7308" lon="27.5767">
    <comp name="--.HHE">
      <acc value="0.0418446455" flag="0"/>
      <vel value="0.0141016134" flag="0"/>
      <psa03 value="0.0730716259" flag="0"/>
      <psa10 value="0.0041918601" flag="0"/>
      <psa30 value="0.0004666689" flag="0"/>
    </comp>
    <comp name="--.HHN">
      <acc value="0.0533023904" flag="0"/>
      <vel value="0.0168318718" flag="0"/>
      <psa03 value="0.0883407531" flag="0"/>
      <psa10 value="0.0040794623" flag="0"/>
      <psa30 value="0.0005155472" flag="0"/>
    </comp>
    <comp name="--.HHZ">
      <acc value="0.0000279006" flag="0"/>
      <vel value="0.0000029554" flag="0"/>
      <psa03 value="0.0000105030" flag="0"/>
      <psa10 value="0.0000038083" flag="0"/>
      <psa30 value="0.0000007035" flag="0"/>
    </comp>
  </station>
  <station code="FETY" name="FETY" netid="KO" insttype="CMG-3ESP" lat="36.6353" lon="29.0835">
    <comp name="--.HHZ">
      <acc value="0.0142359639" flag="0"/>
      <vel value="0.0060413316" flag="0"/>
      <psa03 value="0.0338073511" flag="0"/>
      <psa10 value="0.0075872027" flag="0"/>
      <psa30 value="0.0007446447" flag="0"/>
    </comp>
    <comp name="--.HHN">
      <acc value="0.0179487571" flag="0"/>
      <vel value="0.0125357522" flag="0"/>
      <psa03 value="0.0563046463" flag="0"/>
      <psa10 value="0.0247482074" flag="0"/>
      <psa30 value="0.0008398908" flag="0"/>
    </comp>
  </station>
  <station code="YER" name="YER" netid="KO" insttype="CMG-3T" lat="37.1336" lon="28.284">
    <comp name="--.HHN">
      <acc value="0.0086820537" flag="0"/>
      <vel value="0.0050840170" flag="0"/>
      <psa03 value="0.0179772902" flag="0"/>
      <psa10 value="0.0070738619" flag="0"/>
      <psa30 value="0.0004325796" flag="0"/>
    </comp>
    <comp name="--.HHZ">
      <acc value="0.0044198323" flag="0"/>
      <vel value="0.0026999596" flag="0"/>
      <psa03 value="0.0111670797" flag="0"/>
      <psa10 value="0.0032579541" flag="0"/>
      <psa30 value="0.0003943411" flag="0"/>
    </comp>
    <comp name="--.HHE">
      <acc value="0.0106087988" flag="0"/>
      <vel value="0.0039833713" flag="0"/>
      <psa03 value="0.0237336758" flag="0"/>
      <psa10 value="0.0030057533" flag="0"/>
      <psa30 value="0.0004055121" flag="0"/>
    </comp>
  </station>
</stationlist>
