<?xml version="1.0" encoding="UTF-8" standalone="yes"?>
<!DOCTYPE earthquake SYSTEM "stationlist.dtd">
<stationlist created="" xmlns="ch.ethz.sed.shakemap.usgs.xml">
  <station code="RDI1" name="RDI1" netid="HI" insttype="CMG-5TD,ACCELEROMETER,GURALP" lat="36.4514" lon="28.224">
    <comp name="--.HNE">
      <acc value="0.0652471290" flag="0"/>
      <vel value="0.0309316262" flag="0"/>
      <psa03 value="0.2120880326" flag="0"/>
      <psa10 value="0.0193628404" flag="0"/>
      <psa30 value="0.0044865287" flag="0"/>
    </comp>
    <comp name="--.HNN">
      <acc value="0.0519782873" flag="0"/>
      <vel value="0.0264685236" flag="0"/>
      <psa03 value="0.1648244746" flag="0"/>
      <psa10 value="0.0207905424" flag="0"/>
      <psa30 value="0.0062726309" flag="0"/>
    </comp>
    <comp name="--.HNZ">
      <acc value="0.0547518533" flag="0"/>
      <vel value="0.0184560212" flag="0"/>
      <psa03 value="0.0975998516" flag="0"/>
      <psa10 value="0.0120523726" flag="0"/>
      <psa30 value="0.0032411515" flag="0"/>
    </comp>
  </station>
  <station code="ARG" name="ARG" netid="HL" insttype="LE3D20_DR24" lat="36.2136" lon="28.1212">
    <comp name="--.HHE">
      <acc value="0.5513295931" flag="0"/>
      <vel value="0.1686608504" flag="0"/>
      <psa03 value="0.6668546929" flag="0"/>
      <psa10 value="0.0493157274" flag="0"/>
      <psa30 value="0.0069404812" flag="0"/>
    </comp>
    <comp name="--.HHN">
      <acc value="0.5150143937" flag="0"/>
      <vel value="0.1120757578" flag="0"/>
      <psa03 value="0.4602866814" flag="0"/>
      <psa10 value="0.0662738717" flag="0"/>
      <psa30 value="0.0110186152" flag="0"/>
    </comp>
    <comp name="--.HHZ">
      <acc value="0.3025797500" flag="0"/>
      <vel value="0.0863030666" flag="0"/>
      <psa03 value="0.3436330619" flag="0"/>
      <psa10 value="0.0666676656" flag="0"/>
      <psa30 value="0.0084331164" flag="0"/>
    </comp>
  </station>
  <station code="NISR" name="NISR" netid="HL" insttype="65535" lat="36.6106" lon="27.131">
    <comp name="--.HHZ">
      <acc value="0.0074760596" flag="0"/>
      <vel value="0.0069904056" flag="0"/>
      <psa03 value="0.0209611048" flag="0"/>
      <psa10 value="0.0169024525" flag="0"/>
      <psa30 value="0.0006269461" flag="0"/>
    </comp>
    <comp name="--.HHE">
      <acc value="0.0000000000" flag="0"/>
      <vel value="-100.0000000000" flag="0"/>
      <psa03 value="0.0000000000" flag="0"/>
      <psa10 value="0.0000000000" flag="0"/>
      <psa30 value="0.0000000000" flag="0"/>
    </comp>
    <comp name="--.HHN">
      <acc value="0.0127626414" flag="0"/>
      <vel value="0.0075175791" flag="0"/>
      <psa03 value="0.0291370013" flag="0"/>
      <psa10 value="0.0136849620" flag="0"/>
      <psa30 value="0.0009169903" flag="0"/>
    </comp>
  </station>
  <station code="NISR2" name="NISR2" netid="HL" insttype="120" lat="36.5744" lon="27.1767">
    <comp name="--.HHN">
      <acc value="0.0798512401" flag="0"/>
      <vel value="0.0514022648" flag="0"/>
      <psa03 value="0.2725847949" flag="0"/>
      <psa10 value="0.0760441044" flag="0"/>
      <psa30 value="0.0028115615" flag="0"/>
    </comp>
    <comp name="--.HHE">
      <acc value="0.0693132855" flag="0"/>
      <vel value="0.0426842761" flag="0"/>
      <psa03 value="0.2566849034" flag="0"/>
      <psa10 value="0.0604564035" flag="0"/>
      <psa30 value="0.0020285030" flag="0"/>
    </comp>
    <comp name="--.HHZ">
      <acc value="0.0299415617" flag="0"/>
      <vel value="0.0156733608" flag="0"/>
      <psa03 value="0.0661653110" flag="0"/>
      <psa10 value="0.0136055321" flag="0"/>
      <psa30 value="0.0011819016" flag="0"/>
    </comp>
  </station>
  <station code="RODB" name="RODB" netid="HL" insttype="CMG-5" lat="36.4471" lon="28.2212">
    <comp name="00.HNE">
      <acc value="0.0740409312" flag="0"/>
      <vel value="0.0295164142" flag="0"/>
      <psa03 value="0.1669111732" flag="0"/>
      <psa10 value="0.0262436766" flag="0"/>
      <psa30 value="0.0036636985" flag="0"/>
    </comp>
    <comp name="00.HNN">
      <acc value="0.1184164601" flag="0"/>
      <vel value="0.0560141860" flag="0"/>
      <psa03 value="0.2655855136" flag="0"/>
      <psa10 value="0.0168587966" flag="0"/>
      <psa30 value="0.0064334972" flag="0"/>
    </comp>
    <comp name="00.HNZ">
      <acc value="0.1093916582" flag="0"/>
      <vel value="0.0308766883" flag="0"/>
      <psa03 value="0.1523195223" flag="0"/>
      <psa10 value="0.0172277314" flag="0"/>
      <psa30 value="0.0031420035" flag="0"/>
    </comp>
  </station>
  <station code="BODA" name="BODA" netid="KO" insttype="ACEBOX" lat="37.0348" lon="27.4304">
    <comp name="--.HNE">
      <acc value="0.0443440531" flag="0"/>
      <vel value="0.0162114769" flag="0"/>
      <psa03 value="0.1143174083" flag="0"/>
      <psa10 value="0.0064795947" flag="0"/>
      <psa30 value="0.0005104537" flag="0"/>
    </comp>
    <comp name="--.HNZ">
      <acc value="0.0126684220" flag="0"/>
      <vel value="0.0049268316" flag="0"/>
      <psa03 value="0.0313113144" flag="0"/>
      <psa10 value="0.0027319720" flag="0"/>
      <psa30 value="0.0003721299" flag="0"/>
    </comp>
    <comp name="--.HNN">
      <acc value="0.0645791131" flag="0"/>
      <vel value="0.0280720572" flag="0"/>
      <psa03 value="0.1853840330" flag="0"/>
      <psa10 value="0.0083394037" flag="0"/>
      <psa30 value="0.0006694520" flag="0"/>
    </comp>
  </station>
  <station code="BODM" name="BODM" netid="KO" insttype="ACEBOX" lat="37.031" lon="27.4247">
    <comp name="--.HNZ">
      <acc value="0.0107052103" flag="0"/>
      <vel value="0.0054959402" flag="0"/>
      <psa03 value="0.0300486720" flag="0"/>
      <psa10 value="0.0032456256" flag="0"/>
      <psa30 value="0.0003981755" flag="0"/>
    </comp>
    <comp name="--.HNN">
      <acc value="0.0767934228" flag="0"/>
      <vel value="0.0510851264" flag="0"/>
      <psa03 value="0.2078625431" flag="0"/>
      <psa10 value="0.0185416267" flag="0"/>
      <psa30 value="0.0018570459" flag="0"/>
    </comp>
    <comp name="--.HNE">
      <acc value="0.0766685726" flag="0"/>
      <vel value="0.0464451747" flag="0"/>
      <psa03 value="0.1962183109" flag="0"/>
      <psa10 value="0.0166019820" flag="0"/>
      <psa30 value="0.0015393650" flag="0"/>
    </comp>
  </station>
  <station code="BODT" name="BODT" netid="KO" insttype="CMG-3ESP" lat="37.0622" lon="27.3103">
    <comp name="--.HHZ">
      <acc value="0.0127389835" flag="0"/>
      <vel value="0.0046856118" flag="0"/>
      <psa03 value="0.0257199352" flag="0"/>
      <psa10 value="0.0034507709" flag="0"/>
      <psa30 value="0.0003638919" flag="0"/>
    </comp>
    <comp name="--.HHN">
      <acc value="0.0273298703" flag="0"/>
      <vel value="0.0095839870" flag="0"/>
      <psa03 value="0.0479886841" flag="0"/>
      <psa10 value="0.0039881819" flag="0"/>
      <psa30 value="0.0003562564" flag="0"/>
    </comp>
    <comp name="--.HHE">
      <acc value="0.0201589604" flag="0"/>
      <vel value="0.0099173759" flag="0"/>
      <psa03 value="0.0368226488" flag="0"/>
      <psa10 value="0.0077951090" flag="0"/>
      <psa30 value="0.0008050432" flag="0"/>
    </comp>
  </station>
  <station code="DAT" name="DAT" netid="KO" insttype="CMG-3T" lat="36.7308" lon="27.5767">
    <comp name="--.HHE">
      <acc value="0.0418446456" flag="0"/>
      <vel value="0.0141016137" flag="0"/>
      <psa03 value="0.0730716259" flag="0"/>
      <psa10 value="0.0041918602" flag="0"/>
      <psa30 value="0.0004666644" flag="0"/>
    </comp>
    <comp name="--.HHZ">
      <acc value="0.0000279005" flag="0"/>
      <vel value="0.0000029554" flag="0"/>
      <psa03 value="0.0000105030" flag="0"/>
      <psa10 value="0.0000038083" flag="0"/>
      <psa30 value="0.0000007038" flag="0"/>
    </comp>
    <comp name="--.HHN">
      <acc value="0.0533023907" flag="0"/>
      <vel value="0.0168318714" flag="0"/>
      <psa03 value="0.0883407531" flag="0"/>
      <psa10 value="0.0040794623" flag="0"/>
      <psa30 value="0.0005155417" flag="0"/>
    </comp>
  </station>
  <station code="FETY" name="FETY" netid="KO" insttype="CMG-3ESP" lat="36.6353" lon="29.0835">
    <comp name="--.HHZ">
      <acc value="0.0142359640" flag="0"/>
      <vel value="0.0060413315" flag="0"/>
      <psa03 value="0.0338073511" flag="0"/>
      <psa10 value="0.0075872027" flag="0"/>
      <psa30 value="0.0007446526" flag="0"/>
    </comp>
    <comp name="--.HHN">
      <acc value="0.0179487571" flag="0"/>
      <vel value="0.0125357523" flag="0"/>
      <psa03 value="0.0563046463" flag="0"/>
      <psa10 value="0.0247482074" flag="0"/>
      <psa30 value="0.0008398757" flag="0"/>
    </comp>
  </station>
  <station code="MLSB" name="MLSB" netid="KO" insttype="CMG-3ESP" lat="37.2953" lon="27.7767">
    <comp name="--.HHE">
      <acc value="0.0054353300" flag="0"/>
      <vel value="0.0024464235" flag="0"/>
      <psa03 value="0.0143881675" flag="0"/>
      <psa10 value="0.0026185828" flag="0"/>
      <psa30 value="0.0002533373" flag="0"/>
    </comp>
    <comp name="--.HHN">
      <acc value="0.0034321603" flag="0"/>
      <vel value="0.0017854894" flag="0"/>
      <psa03 value="0.0092222041" flag="0"/>
      <psa10 value="0.0015761898" flag="0"/>
      <psa30 value="0.0002734893" flag="0"/>
    </comp>
    <comp name="--.HHZ">
      <acc value="0.0038058281" flag="0"/>
      <vel value="0.0022222987" flag="0"/>
      <psa03 value="0.0123154489" flag="0"/>
      <psa10 value="0.0015728358" flag="0"/>
      <psa30 value="0.0002267681" flag="0"/>
    </comp>
  </station>
  <station code="YER" name="YER" netid="KO" insttype="CMG-3T" lat="37.1336" lon="28.284">
    <comp name="--.HHN">
      <acc value="0.0086820542" flag="0"/>
      <vel value="0.0050840162" flag="0"/>
      <psa03 value="0.0179772902" flag="0"/>
      <psa10 value="0.0070738618" flag="0"/>
      <psa30 value="0.0004325242" flag="0"/>
    </comp>
    <comp name="--.HHE">
      <acc value="0.0106087994" flag="0"/>
      <vel value="0.0039833719" flag="0"/>
      <psa03 value="0.0237336758" flag="0"/>
      <psa10 value="0.0030057533" flag="0"/>
      <psa30 value="0.0004055182" flag="0"/>
    </comp>
    <comp name="--.HHZ">
      <acc value="0.0044198320" flag="0"/>
      <vel value="0.0026999599" flag="0"/>
      <psa03 value="0.0111670797" flag="0"/>
      <psa10 value="0.0032579541" flag="0"/>
      <psa30 value="0.0003943817" flag="0"/>
    </comp>
  </station>
</stationlist>
