<?xml version="1.0" encoding="UTF-8" standalone="yes"?>
<!DOCTYPE earthquake SYSTEM "stationlist.dtd">
<stationlist created="" xmlns="ch.ethz.sed.shakemap.usgs.xml">
  <station code="SKR" name="SKR" netid="VI" insttype="LE-3D/5s" lat="64.5601" lon="-18.3865">
    <comp name="--.HHN">
      <acc value="0.0212293871" flag="0"/>
      <vel value="0.0429834331" flag="0"/>
      <psa03 value="0.0533077771" flag="0"/>
      <psa10 value="0.0450375360" flag="0"/>
      <psa30 value="0.0253384188" flag="0"/>
    </comp>
    <comp name="--.HHE">
      <acc value="0.0200277317" flag="0"/>
      <vel value="0.0452009975" flag="0"/>
      <psa03 value="0.0619955918" flag="0"/>
      <psa10 value="0.0528174515" flag="0"/>
      <psa30 value="0.0238902756" flag="0"/>
    </comp>
    <comp name="--.HHZ">
      <acc value="0.0212160693" flag="0"/>
      <vel value="0.0421551557" flag="0"/>
      <psa03 value="0.1002021325" flag="0"/>
      <psa10 value="0.0423821788" flag="0"/>
      <psa30 value="0.0228619454" flag="0"/>
    </comp>
  </station>
</stationlist>
