<?xml version="1.0" encoding="UTF-8" standalone="yes"?>
<!DOCTYPE earthquake SYSTEM "stationlist.dtd">
<stationlist created="" xmlns="ch.ethz.sed.shakemap.usgs.xml">
  <station code="AIO" name="AIO" netid="IV" insttype="" lat="37.9712" lon="15.233">
    <comp name="--.HHE">
      <acc value="0.0103753883" flag="0"/>
      <vel value="0.0073625585" flag="0"/>
      <psa03 value="0.0295443462" flag="0"/>
      <psa10 value="0.0079915148" flag="0"/>
      <psa30 value="0.0005087559" flag="0"/>
    </comp>
    <comp name="--.HHN">
      <acc value="0.0054973319" flag="0"/>
      <vel value="0.0022235545" flag="0"/>
      <psa03 value="0.0176659818" flag="0"/>
      <psa10 value="0.0010733815" flag="0"/>
      <psa30 value="0.0000622207" flag="0"/>
    </comp>
    <comp name="--.HHZ">
      <acc value="0.0062977468" flag="0"/>
      <vel value="0.0040339432" flag="0"/>
      <psa03 value="0.0157117753" flag="0"/>
      <psa10 value="0.0090814406" flag="0"/>
      <psa30 value="0.0002361232" flag="0"/>
    </comp>
  </station>
  <station code="CET2" name="CET2" netid="IV" insttype="" lat="39.5288" lon="15.9546">
    <comp name="--.HHE">
      <acc value="0.0094586203" flag="0"/>
      <vel value="0.0036756224" flag="0"/>
      <psa03 value="0.0157396312" flag="0"/>
      <psa10 value="0.0058499527" flag="0"/>
      <psa30 value="0.0003765280" flag="0"/>
    </comp>
    <comp name="--.HHZ">
      <acc value="0.0069807714" flag="0"/>
      <vel value="0.0022424342" flag="0"/>
      <psa03 value="0.0145115438" flag="0"/>
      <psa10 value="0.0012897652" flag="0"/>
      <psa30 value="0.0001083297" flag="0"/>
    </comp>
    <comp name="--.HHN">
      <acc value="0.0218248346" flag="0"/>
      <vel value="0.0064065097" flag="0"/>
      <psa03 value="0.0391216720" flag="0"/>
      <psa10 value="0.0044797657" flag="0"/>
      <psa30 value="0.0003059954" flag="0"/>
    </comp>
  </station>
  <station code="CIMI" name="CIMI" netid="IV" insttype="" lat="37.8815" lon="13.5726">
    <comp name="--.HHE">
      <acc value="0.0029951847" flag="0"/>
      <vel value="0.0026508534" flag="0"/>
      <psa03 value="0.0076802074" flag="0"/>
      <psa10 value="0.0026778722" flag="0"/>
      <psa30 value="0.0002225544" flag="0"/>
    </comp>
    <comp name="--.HHN">
      <acc value="0.0023885647" flag="0"/>
      <vel value="0.0020194070" flag="0"/>
      <psa03 value="0.0067730964" flag="0"/>
      <psa10 value="0.0017238958" flag="0"/>
      <psa30 value="0.0001791691" flag="0"/>
    </comp>
    <comp name="--.HHZ">
      <acc value="0.0052701071" flag="0"/>
      <vel value="0.0028856836" flag="0"/>
      <psa03 value="0.0178465442" flag="0"/>
      <psa10 value="0.0013966852" flag="0"/>
      <psa30 value="0.0002379567" flag="0"/>
    </comp>
  </station>
  <station code="CSLB" name="CSLB" netid="IV" insttype="" lat="37.9374" lon="14.0579">
    <comp name="--.HHE">
      <acc value="0.0012685426" flag="0"/>
      <vel value="0.0005946251" flag="0"/>
      <psa03 value="0.0035249125" flag="0"/>
      <psa10 value="0.0006301397" flag="0"/>
      <psa30 value="0.0000906808" flag="0"/>
    </comp>
    <comp name="--.HHN">
      <acc value="0.0010727912" flag="0"/>
      <vel value="0.0005388010" flag="0"/>
      <psa03 value="0.0046614644" flag="0"/>
      <psa10 value="0.0007761298" flag="0"/>
      <psa30 value="0.0000643350" flag="0"/>
    </comp>
    <comp name="--.HHZ">
      <acc value="0.0027505756" flag="0"/>
      <vel value="0.0012233339" flag="0"/>
      <psa03 value="0.0047257731" flag="0"/>
      <psa10 value="0.0010693368" flag="0"/>
      <psa30 value="0.0001514445" flag="0"/>
    </comp>
  </station>
  <station code="ECBD" name="ECBD" netid="IV" insttype="" lat="37.7802" lon="15.0865">
    <comp name="--.HHE">
      <acc value="0.0139090396" flag="0"/>
      <vel value="0.0096789765" flag="0"/>
      <psa03 value="0.0384581735" flag="0"/>
      <psa10 value="0.0111181678" flag="0"/>
      <psa30 value="0.0009151669" flag="0"/>
    </comp>
    <comp name="--.HHN">
      <acc value="0.0094170900" flag="0"/>
      <vel value="0.0067895711" flag="0"/>
      <psa03 value="0.0253775175" flag="0"/>
      <psa10 value="0.0089820257" flag="0"/>
      <psa30 value="0.0004821770" flag="0"/>
    </comp>
    <comp name="--.HHZ">
      <acc value="0.0074983087" flag="0"/>
      <vel value="0.0042783136" flag="0"/>
      <psa03 value="0.0276886209" flag="0"/>
      <psa10 value="0.0047429332" flag="0"/>
      <psa30 value="0.0002207077" flag="0"/>
    </comp>
  </station>
  <station code="ECTS" name="ECTS" netid="IV" insttype="" lat="37.882" lon="15.121">
    <comp name="--.HHE">
      <acc value="0.0073084185" flag="0"/>
      <vel value="0.0059483684" flag="0"/>
      <psa03 value="0.0247759498" flag="0"/>
      <psa10 value="0.0119913635" flag="0"/>
      <psa30 value="0.0007124897" flag="0"/>
    </comp>
    <comp name="--.HHN">
      <acc value="0.0077532073" flag="0"/>
      <vel value="0.0056804638" flag="0"/>
      <psa03 value="0.0239256135" flag="0"/>
      <psa10 value="0.0102972258" flag="0"/>
      <psa30 value="0.0005031353" flag="0"/>
    </comp>
    <comp name="--.HHZ">
      <acc value="0.0072459662" flag="0"/>
      <vel value="0.0036968123" flag="0"/>
      <psa03 value="0.0236312461" flag="0"/>
      <psa10 value="0.0034592237" flag="0"/>
      <psa30 value="0.0001294309" flag="0"/>
    </comp>
  </station>
  <station code="ECZM" name="ECZM" netid="IV" insttype="" lat="37.7313" lon="14.9041">
    <comp name="--.HHE">
      <acc value="0.0054859341" flag="0"/>
      <vel value="0.0045518560" flag="0"/>
      <psa03 value="0.0178179955" flag="0"/>
      <psa10 value="0.0083548728" flag="0"/>
      <psa30 value="0.0006169425" flag="0"/>
    </comp>
    <comp name="--.HHN">
      <acc value="0.0093516239" flag="0"/>
      <vel value="0.0079894694" flag="0"/>
      <psa03 value="0.0257738927" flag="0"/>
      <psa10 value="0.0125111270" flag="0"/>
      <psa30 value="0.0005488418" flag="0"/>
    </comp>
    <comp name="--.HHZ">
      <acc value="0.0052426673" flag="0"/>
      <vel value="0.0032501545" flag="0"/>
      <psa03 value="0.0144387198" flag="0"/>
      <psa10 value="0.0044238031" flag="0"/>
      <psa30 value="0.0002970135" flag="0"/>
    </comp>
  </station>
  <station code="EFIU" name="EFIU" netid="IV" insttype="" lat="37.7896" lon="15.2103">
    <comp name="--.HHE">
      <acc value="0.0057226301" flag="0"/>
      <vel value="0.0048947617" flag="0"/>
      <psa03 value="0.0122755843" flag="0"/>
      <psa10 value="0.0082837127" flag="0"/>
      <psa30 value="0.0008472785" flag="0"/>
    </comp>
    <comp name="--.HHN">
      <acc value="0.0055212849" flag="0"/>
      <vel value="0.0046314375" flag="0"/>
      <psa03 value="0.0123642272" flag="0"/>
      <psa10 value="0.0049638306" flag="0"/>
      <psa30 value="0.0007957325" flag="0"/>
    </comp>
    <comp name="--.HHZ">
      <acc value="0.0059692247" flag="0"/>
      <vel value="0.0027539154" flag="0"/>
      <psa03 value="0.0158017294" flag="0"/>
      <psa10 value="0.0036926990" flag="0"/>
      <psa30 value="0.0002120080" flag="0"/>
    </comp>
  </station>
  <station code="EMAS" name="EMAS" netid="IV" insttype="" lat="37.5792" lon="15.0526">
    <comp name="--.HHE">
      <acc value="0.0532468046" flag="0"/>
      <vel value="0.0049589384" flag="0"/>
      <psa03 value="0.0104395474" flag="0"/>
      <psa10 value="0.0058488803" flag="0"/>
      <psa30 value="0.0010049014" flag="0"/>
    </comp>
    <comp name="--.HHN">
      <acc value="0.0205408518" flag="0"/>
      <vel value="0.0035683826" flag="0"/>
      <psa03 value="0.0106510965" flag="0"/>
      <psa10 value="0.0076252422" flag="0"/>
      <psa30 value="0.0008038907" flag="0"/>
    </comp>
    <comp name="--.HHZ">
      <acc value="0.0065832688" flag="0"/>
      <vel value="0.0028908739" flag="0"/>
      <psa03 value="0.0185749753" flag="0"/>
      <psa10 value="0.0019006194" flag="0"/>
      <psa30 value="0.0002500045" flag="0"/>
    </comp>
  </station>
  <station code="EMFO" name="EMFO" netid="IV" insttype="" lat="37.7357" lon="15.0902">
    <comp name="--.HHE">
      <acc value="0.0170620538" flag="0"/>
      <vel value="0.0088309341" flag="0"/>
      <psa03 value="0.0584097240" flag="0"/>
      <psa10 value="0.0134469183" flag="0"/>
      <psa30 value="0.0008498425" flag="0"/>
    </comp>
    <comp name="--.HHN">
      <acc value="0.0139278577" flag="0"/>
      <vel value="0.0072922383" flag="0"/>
      <psa03 value="0.0318030305" flag="0"/>
      <psa10 value="0.0042676108" flag="0"/>
      <psa30 value="0.0005673759" flag="0"/>
    </comp>
    <comp name="--.HHZ">
      <acc value="0.0176406679" flag="0"/>
      <vel value="0.0093079011" flag="0"/>
      <psa03 value="0.0497974500" flag="0"/>
      <psa10 value="0.0035535882" flag="0"/>
      <psa30 value="0.0002929315" flag="0"/>
    </comp>
  </station>
  <station code="EMNR" name="EMNR" netid="IV" insttype="" lat="37.8168" lon="15.026">
    <comp name="--.HHE">
      <acc value="0.0160476764" flag="0"/>
      <vel value="0.0139641491" flag="0"/>
      <psa03 value="0.0484650305" flag="0"/>
      <psa10 value="0.0125340237" flag="0"/>
      <psa30 value="0.0010207588" flag="0"/>
    </comp>
    <comp name="--.HHN">
      <acc value="0.0132338936" flag="0"/>
      <vel value="0.0050969635" flag="0"/>
      <psa03 value="0.0299098313" flag="0"/>
      <psa10 value="0.0098312596" flag="0"/>
      <psa30 value="0.0006394207" flag="0"/>
    </comp>
    <comp name="--.HHZ">
      <acc value="0.0119998695" flag="0"/>
      <vel value="0.0040064708" flag="0"/>
      <psa03 value="0.0230151813" flag="0"/>
      <psa10 value="0.0028180903" flag="0"/>
      <psa30 value="0.0001653882" flag="0"/>
    </comp>
  </station>
  <station code="EMSG" name="EMSG" netid="IV" insttype="" lat="37.8208" lon="14.9498">
    <comp name="--.HHE">
      <acc value="0.0111883306" flag="0"/>
      <vel value="0.0078232817" flag="0"/>
      <psa03 value="0.0250523121" flag="0"/>
      <psa10 value="0.0082743817" flag="0"/>
      <psa30 value="0.0006321266" flag="0"/>
    </comp>
    <comp name="--.HHN">
      <acc value="0.0096142667" flag="0"/>
      <vel value="0.0039346218" flag="0"/>
      <psa03 value="0.0195480409" flag="0"/>
      <psa10 value="0.0035646356" flag="0"/>
      <psa30 value="0.0003954311" flag="0"/>
    </comp>
    <comp name="--.HHZ">
      <acc value="0.0061986135" flag="0"/>
      <vel value="0.0027814227" flag="0"/>
      <psa03 value="0.0167246828" flag="0"/>
      <psa10 value="0.0028295565" flag="0"/>
      <psa30 value="0.0002204805" flag="0"/>
    </comp>
  </station>
  <station code="EPMN" name="EPMN" netid="IV" insttype="" lat="37.8204" lon="15.1773">
    <comp name="--.HHE">
      <acc value="0.0123845283" flag="0"/>
      <vel value="0.0081152232" flag="0"/>
      <psa03 value="0.0512684380" flag="0"/>
      <psa10 value="0.0062332372" flag="0"/>
      <psa30 value="0.0004247565" flag="0"/>
    </comp>
    <comp name="--.HHN">
      <acc value="0.0090848981" flag="0"/>
      <vel value="0.0078639937" flag="0"/>
      <psa03 value="0.0393049592" flag="0"/>
      <psa10 value="0.0102559405" flag="0"/>
      <psa30 value="0.0004603130" flag="0"/>
    </comp>
    <comp name="--.HHZ">
      <acc value="0.0053545592" flag="0"/>
      <vel value="0.0026330416" flag="0"/>
      <psa03 value="0.0130125542" flag="0"/>
      <psa10 value="0.0035544433" flag="0"/>
      <psa30 value="0.0001853629" flag="0"/>
    </comp>
  </station>
  <station code="EPZF" name="EPZF" netid="IV" insttype="" lat="37.824" lon="14.857">
    <comp name="--.HHE">
      <acc value="0.0069970501" flag="0"/>
      <vel value="0.0067299821" flag="0"/>
      <psa03 value="0.0194838591" flag="0"/>
      <psa10 value="0.0061305640" flag="0"/>
      <psa30 value="0.0005899424" flag="0"/>
    </comp>
    <comp name="--.HHN">
      <acc value="0.0069914327" flag="0"/>
      <vel value="0.0056662270" flag="0"/>
      <psa03 value="0.0308044003" flag="0"/>
      <psa10 value="0.0069187457" flag="0"/>
      <psa30 value="0.0003927108" flag="0"/>
    </comp>
    <comp name="--.HHZ">
      <acc value="0.0035623460" flag="0"/>
      <vel value="0.0022585244" flag="0"/>
      <psa03 value="0.0133400698" flag="0"/>
      <psa10 value="0.0034900974" flag="0"/>
      <psa30 value="0.0004100389" flag="0"/>
    </comp>
  </station>
  <station code="ESAL" name="ESAL" netid="IV" insttype="" lat="37.7551" lon="15.1345">
    <comp name="--.HHE">
      <acc value="0.0107478561" flag="0"/>
      <vel value="0.0081686855" flag="0"/>
      <psa03 value="0.0324305949" flag="0"/>
      <psa10 value="0.0123171298" flag="0"/>
      <psa30 value="0.0007621811" flag="0"/>
    </comp>
    <comp name="--.HHN">
      <acc value="0.0075424299" flag="0"/>
      <vel value="0.0061360342" flag="0"/>
      <psa03 value="0.0362493108" flag="0"/>
      <psa10 value="0.0094612912" flag="0"/>
      <psa30 value="0.0005298030" flag="0"/>
    </comp>
    <comp name="--.HHZ">
      <acc value="0.0082901396" flag="0"/>
      <vel value="0.0030005565" flag="0"/>
      <psa03 value="0.0247923783" flag="0"/>
      <psa10 value="0.0030622605" flag="0"/>
      <psa30 value="0.0003645519" flag="0"/>
    </comp>
  </station>
  <station code="ESML" name="ESML" netid="IV" insttype="" lat="37.6181" lon="14.8794">
    <comp name="--.HHE">
      <acc value="0.0025111275" flag="0"/>
      <vel value="0.0019238447" flag="0"/>
      <psa03 value="0.0073082048" flag="0"/>
      <psa10 value="0.0031484659" flag="0"/>
      <psa30 value="0.0005176054" flag="0"/>
    </comp>
    <comp name="--.HHN">
      <acc value="0.0032263387" flag="0"/>
      <vel value="0.0024930961" flag="0"/>
      <psa03 value="0.0085612349" flag="0"/>
      <psa10 value="0.0045465416" flag="0"/>
      <psa30 value="0.0002405931" flag="0"/>
    </comp>
    <comp name="--.HHZ">
      <acc value="0.0035546009" flag="0"/>
      <vel value="0.0016521377" flag="0"/>
      <psa03 value="0.0129750464" flag="0"/>
      <psa10 value="0.0017842771" flag="0"/>
      <psa30 value="0.0002373182" flag="0"/>
    </comp>
  </station>
  <station code="ESPC" name="ESPC" netid="IV" insttype="" lat="37.6925" lon="15.0274">
    <comp name="--.HHE">
      <acc value="0.0099035869" flag="0"/>
      <vel value="0.0072831765" flag="0"/>
      <psa03 value="0.0225812451" flag="0"/>
      <psa10 value="0.0062969342" flag="0"/>
      <psa30 value="0.0005040555" flag="0"/>
    </comp>
    <comp name="--.HHN">
      <acc value="0.0065114049" flag="0"/>
      <vel value="0.0030606308" flag="0"/>
      <psa03 value="0.0125229766" flag="0"/>
      <psa10 value="0.0019449396" flag="0"/>
      <psa30 value="0.0001345109" flag="0"/>
    </comp>
    <comp name="--.HHZ">
      <acc value="0.0087577097" flag="0"/>
      <vel value="0.0050302196" flag="0"/>
      <psa03 value="0.0302819012" flag="0"/>
      <psa10 value="0.0049631671" flag="0"/>
      <psa30 value="0.0002278565" flag="0"/>
    </comp>
  </station>
  <station code="ESVO" name="ESVO" netid="IV" insttype="" lat="37.7731" lon="14.9469">
    <comp name="--.HHE">
      <acc value="0.0094427692" flag="0"/>
      <vel value="0.0032763341" flag="0"/>
      <psa03 value="0.0251472075" flag="0"/>
      <psa10 value="0.0015613766" flag="0"/>
      <psa30 value="0.0001583290" flag="0"/>
    </comp>
    <comp name="--.HHN">
      <acc value="0.0128477961" flag="0"/>
      <vel value="0.0116745805" flag="0"/>
      <psa03 value="0.0348636345" flag="0"/>
      <psa10 value="0.0092568249" flag="0"/>
      <psa30 value="0.0008325810" flag="0"/>
    </comp>
    <comp name="--.HHZ">
      <acc value="0.0052392028" flag="0"/>
      <vel value="0.0039907216" flag="0"/>
      <psa03 value="0.0213438022" flag="0"/>
      <psa10 value="0.0049704385" flag="0"/>
      <psa30 value="0.0004345966" flag="0"/>
    </comp>
  </station>
  <station code="EVRN" name="EVRN" netid="IV" insttype="" lat="37.6892" lon="15.1356">
    <comp name="--.HHE">
      <acc value="0.0098518533" flag="0"/>
      <vel value="0.0066642253" flag="0"/>
      <psa03 value="0.0369778967" flag="0"/>
      <psa10 value="0.0111281494" flag="0"/>
      <psa30 value="0.0009508733" flag="0"/>
    </comp>
    <comp name="--.HHN">
      <acc value="0.0106742366" flag="0"/>
      <vel value="0.0047978228" flag="0"/>
      <psa03 value="0.0313891419" flag="0"/>
      <psa10 value="0.0089448822" flag="0"/>
      <psa30 value="0.0004103244" flag="0"/>
    </comp>
    <comp name="--.HHZ">
      <acc value="0.0061304587" flag="0"/>
      <vel value="0.0024937835" flag="0"/>
      <psa03 value="0.0114672969" flag="0"/>
      <psa10 value="0.0016066636" flag="0"/>
      <psa30 value="0.0001683284" flag="0"/>
    </comp>
  </station>
  <station code="GALF" name="GALF" netid="IV" insttype="" lat="37.7107" lon="14.5665">
    <comp name="--.HHE">
      <acc value="0.0041879953" flag="0"/>
      <vel value="0.0040869358" flag="0"/>
      <psa03 value="0.0130027171" flag="0"/>
      <psa10 value="0.0056225335" flag="0"/>
      <psa30 value="0.0004213217" flag="0"/>
    </comp>
    <comp name="--.HHN">
      <acc value="0.0071796498" flag="0"/>
      <vel value="0.0064622841" flag="0"/>
      <psa03 value="0.0150174697" flag="0"/>
      <psa10 value="0.0068785326" flag="0"/>
      <psa30 value="0.0004451894" flag="0"/>
    </comp>
    <comp name="--.HHZ">
      <acc value="0.0039587675" flag="0"/>
      <vel value="0.0029151352" flag="0"/>
      <psa03 value="0.0103088295" flag="0"/>
      <psa10 value="0.0023784695" flag="0"/>
      <psa30 value="0.0002563408" flag="0"/>
    </comp>
  </station>
  <station code="GIB" name="GIB" netid="IV" insttype="" lat="37.9901" lon="14.026">
    <comp name="--.HHE">
      <acc value="0.0056700134" flag="0"/>
      <vel value="0.0049094567" flag="0"/>
      <psa03 value="0.0156749015" flag="0"/>
      <psa10 value="0.0054061448" flag="0"/>
      <psa30 value="0.0003818038" flag="0"/>
    </comp>
    <comp name="--.HHN">
      <acc value="0.0062203949" flag="0"/>
      <vel value="0.0050801347" flag="0"/>
      <psa03 value="0.0178199814" flag="0"/>
      <psa10 value="0.0041527826" flag="0"/>
      <psa30 value="0.0006308083" flag="0"/>
    </comp>
    <comp name="--.HHZ">
      <acc value="0.0053893348" flag="0"/>
      <vel value="0.0035109118" flag="0"/>
      <psa03 value="0.0138692001" flag="0"/>
      <psa10 value="0.0020559377" flag="0"/>
      <psa30 value="0.0001691936" flag="0"/>
    </comp>
  </station>
  <station code="GMB1" name="GMB1" netid="IV" insttype="" lat="38.1723" lon="15.8179">
    <comp name="--.HHE">
      <acc value="0.0140936886" flag="0"/>
      <vel value="0.0092485341" flag="0"/>
      <psa03 value="0.0271793924" flag="0"/>
      <psa10 value="0.0115983188" flag="0"/>
      <psa30 value="0.0006773211" flag="0"/>
    </comp>
    <comp name="--.HHN">
      <acc value="0.0097325708" flag="0"/>
      <vel value="0.0024953163" flag="0"/>
      <psa03 value="0.0157220989" flag="0"/>
      <psa10 value="0.0011043492" flag="0"/>
      <psa30 value="0.0000954176" flag="0"/>
    </comp>
    <comp name="--.HHZ">
      <acc value="0.0109477583" flag="0"/>
      <vel value="0.0040167271" flag="0"/>
      <psa03 value="0.0200290261" flag="0"/>
      <psa10 value="0.0039224597" flag="0"/>
      <psa30 value="0.0002797235" flag="0"/>
    </comp>
  </station>
  <station code="HAGA" name="HAGA" netid="IV" insttype="" lat="37.285" lon="15.155">
    <comp name="--.HHE">
      <acc value="0.0040240693" flag="0"/>
      <vel value="0.0014737792" flag="0"/>
      <psa03 value="0.0126050215" flag="0"/>
      <psa10 value="0.0005129701" flag="0"/>
      <psa30 value="0.0001058655" flag="0"/>
    </comp>
    <comp name="--.HHN">
      <acc value="0.0031363896" flag="0"/>
      <vel value="0.0013384208" flag="0"/>
      <psa03 value="0.0079993304" flag="0"/>
      <psa10 value="0.0005930487" flag="0"/>
      <psa30 value="0.0001024680" flag="0"/>
    </comp>
