<?xml version="1.0" encoding="UTF-8" standalone="yes"?>
<!DOCTYPE earthquake SYSTEM "stationlist.dtd">
<stationlist created="" xmlns="ch.ethz.sed.shakemap.usgs.xml">
  <station code="BNN" name="BNN" netid="KO" insttype="CMG-3T" lat="38.8521" lon="35.8472">
    <comp name="--.HHE">
      <acc value="0.0097137180" flag="0"/>
      <vel value="0.0037597614" flag="0"/>
      <psa03 value="0.0124475754" flag="0"/>
      <psa10 value="0.0058663719" flag="0"/>
      <psa30 value="0.0003218669" flag="0"/>
    </comp>
    <comp name="--.HHN">
      <acc value="0.0089765916" flag="0"/>
      <vel value="0.0038026674" flag="0"/>
      <psa03 value="0.0190362766" flag="0"/>
      <psa10 value="0.0029599811" flag="0"/>
      <psa30 value="0.0002709665" flag="0"/>
    </comp>
    <comp name="--.HHZ">
      <acc value="0.0059407771" flag="0"/>
      <vel value="0.0024109330" flag="0"/>
      <psa03 value="0.0101770135" flag="0"/>
      <psa10 value="0.0047930134" flag="0"/>
      <psa30 value="0.0002553993" flag="0"/>
    </comp>
  </station>
  <station code="DARE" name="DARE" netid="KO" insttype="CMG-3ESP" lat="38.5712" lon="37.4832">
    <comp name="--.HHN">
      <acc value="0.0049451420" flag="0"/>
      <vel value="0.0025850662" flag="0"/>
      <psa03 value="0.0132404630" flag="0"/>
      <psa10 value="0.0024077672" flag="0"/>
      <psa30 value="0.0002208125" flag="0"/>
    </comp>
    <comp name="--.HHZ">
      <acc value="0.0031406032" flag="0"/>
      <vel value="0.0027187006" flag="0"/>
      <psa03 value="0.0077442515" flag="0"/>
      <psa10 value="0.0042631545" flag="0"/>
      <psa30 value="0.0002018031" flag="0"/>
    </comp>
    <comp name="--.HHE">
      <acc value="0.0053397998" flag="0"/>
      <vel value="0.0031797980" flag="0"/>
      <psa03 value="0.0098423308" flag="0"/>
      <psa10 value="0.0044745150" flag="0"/>
      <psa30 value="0.0002396936" flag="0"/>
    </comp>
  </station>
  <station code="GAZ" name="GAZ" netid="KO" insttype="CMG-3T" lat="37.1721" lon="37.2096">
    <comp name="--.HHN">
      <acc value="0.0188383227" flag="0"/>
      <vel value="0.0086735315" flag="0"/>
      <psa03 value="0.0417183244" flag="0"/>
      <psa10 value="0.0097203803" flag="0"/>
      <psa30 value="0.0006516524" flag="0"/>
    </comp>
    <comp name="--.HHZ">
      <acc value="0.0113831211" flag="0"/>
      <vel value="0.0053247427" flag="0"/>
      <psa03 value="0.0390787172" flag="0"/>
      <psa10 value="0.0044688483" flag="0"/>
      <psa30 value="0.0002979494" flag="0"/>
    </comp>
    <comp name="--.HHE">
      <acc value="0.0153618422" flag="0"/>
      <vel value="0.0105612666" flag="0"/>
      <psa03 value="0.0375162447" flag="0"/>
      <psa10 value="0.0103780822" flag="0"/>
      <psa30 value="0.0008714141" flag="0"/>
    </comp>
  </station>
  <station code="KMRS" name="KMRS" netid="KO" insttype="CMG-3T" lat="37.5087" lon="36.9">
    <comp name="--.HHE">
      <acc value="0.0166279596" flag="0"/>
      <vel value="0.0129127763" flag="0"/>
      <psa03 value="0.0644435812" flag="0"/>
      <psa10 value="0.0135115858" flag="0"/>
      <psa30 value="0.0011301974" flag="0"/>
    </comp>
    <comp name="--.HHZ">
      <acc value="0.0247199515" flag="0"/>
      <vel value="0.0095226376" flag="0"/>
      <psa03 value="0.0456545794" flag="0"/>
      <psa10 value="0.0045797987" flag="0"/>
      <psa30 value="0.0003676975" flag="0"/>
    </comp>
    <comp name="--.HHN">
      <acc value="0.0199908940" flag="0"/>
      <vel value="0.0121382485" flag="0"/>
      <psa03 value="0.0636861314" flag="0"/>
      <psa10 value="0.0070535923" flag="0"/>
      <psa30 value="0.0005845335" flag="0"/>
    </comp>
  </station>
  <station code="SARI" name="SARI" netid="KO" insttype="CMG-3T" lat="38.4072" lon="36.4181">
    <comp name="--.HHZ">
      <acc value="0.0660661653" flag="0"/>
      <vel value="0.0191292096" flag="0"/>
      <psa03 value="0.1462602289" flag="0"/>
      <psa10 value="0.0096174853" flag="0"/>
      <psa30 value="0.0009433152" flag="0"/>
    </comp>
    <comp name="--.HHE">
      <acc value="0.1072459348" flag="0"/>
      <vel value="0.0273169817" flag="0"/>
      <psa03 value="0.1241657429" flag="0"/>
      <psa10 value="0.0118770822" flag="0"/>
      <psa30 value="0.0007639523" flag="0"/>
    </comp>
    <comp name="--.HHN">
      <acc value="0.0883081842" flag="0"/>
      <vel value="0.0244206756" flag="0"/>
      <psa03 value="0.1658610649" flag="0"/>
      <psa10 value="0.0135819079" flag="0"/>
      <psa30 value="0.0007389500" flag="0"/>
    </comp>
  </station>
  <station code="ANDN" name="ANDN" netid="TU" insttype="T" lat="37.58" lon="36.3452">
    <comp name="--.HHE">
      <acc value="0.1334419696" flag="0"/>
      <vel value="0.0548067543" flag="0"/>
      <psa03 value="0.3233978987" flag="0"/>
      <psa10 value="0.0323324412" flag="0"/>
      <psa30 value="0.0018832352" flag="0"/>
    </comp>
    <comp name="--.HHZ">
      <acc value="0.0865325265" flag="0"/>
      <vel value="0.0316160315" flag="0"/>
      <psa03 value="0.1746922621" flag="0"/>
      <psa10 value="0.0340655976" flag="0"/>
      <psa30 value="0.0015703538" flag="0"/>
    </comp>
    <comp name="--.HHN">
      <acc value="0.2124433513" flag="0"/>
      <vel value="0.0650813105" flag="0"/>
      <psa03 value="0.3749521843" flag="0"/>
      <psa10 value="0.0316968230" flag="0"/>
      <psa30 value="0.0023285085" flag="0"/>
    </comp>
  </station>
</stationlist>
