<stationlist created="1778136529">
	<station code="ROD3" name="ROD3" netid="CL" source="Corinth Riff Laboratory (CRLNET)" insttype="" lat="38.30811" lon="21.89204">
		<comp name="00.HNE" depth="0.0">
			<acc value="0.122856785433239" flag="0"/>
			<vel value="0.0537378722537061" flag="0"/>
			<psa03 value="0.341383036497414" flag="0"/>
			<psa10 value="0.0152615666774925" flag="0"/>
			<psa30 value="0.00145412171509383" flag="0"/>
		</comp>
		<comp name="00.HNN" depth="0.0">
			<acc value="0.113546993007757" flag="0"/>
			<vel value="0.0387617588532347" flag="0"/>
			<psa03 value="0.322636051924358" flag="0"/>
			<psa10 value="0.0204964048518303" flag="0"/>
			<psa30 value="0.00152123502502124" flag="0"/>
		</comp>
		<comp name="00.HNZ" depth="0.0">
			<acc value="0.0617072532369094" flag="0"/>
			<vel value="0.0168397272366834" flag="0"/>
			<psa03 value="0.0489479740403893" flag="0"/>
			<psa10 value="0.00953545907448607" flag="0"/>
			<psa30 value="0.0014679917991455" flag="0"/>
		</comp>
	</station>
	<station code="AIGS" name="AIGS" netid="HA" source="Hellenic Seismological Network, University of Athens, Seismological Laboratory (HA)" insttype="" lat="38.25001" lon="22.0878">
		<comp name="--.HNE" depth="0.0">
			<acc value="0.0534897862235979" flag="0"/>
			<vel value="0.0255229312848079" flag="0"/>
			<psa03 value="0.143040834558615" flag="0"/>
			<psa10 value="0.0133931321291135" flag="0"/>
			<psa30 value="0.00199460757104255" flag="0"/>
		</comp>
		<comp name="--.HNN" depth="0.0">
			<acc value="0.0566830479494999" flag="0"/>
			<vel value="0.0211633097033416" flag="0"/>
			<psa03 value="0.069484646878176" flag="0"/>
			<psa10 value="0.0131636046091617" flag="0"/>
			<psa30 value="0.00193733754657117" flag="0"/>
		</comp>
		<comp name="--.HNZ" depth="0.0">
			<acc value="0.0448971398506117" flag="0"/>
			<vel value="0.0107211484365483" flag="0"/>
			<psa03 value="0.0397758216836436" flag="0"/>
			<psa10 value="0.00965626303235541" flag="0"/>
			<psa30 value="0.00201742609641787" flag="0"/>
		</comp>
	</station>
	<station code="KIAS" name="KIAS" netid="HA" source="Hellenic Seismological Network, University of Athens, Seismological Laboratory (HA)" insttype="" lat="37.9875" lon="22.7543">
		<comp name="--.HNE" depth="0.0">
			<acc value="0.0148532607870444" flag="0"/>
			<vel value="0.0104630274471421" flag="0"/>
			<psa03 value="0.0198207975318944" flag="0"/>
			<psa10 value="0.0144038585766202" flag="0"/>
			<psa30 value="0.00277446423239903" flag="0"/>
		</comp>
		<comp name="--.HNN" depth="0.0">
			<acc value="0.0169437192475788" flag="0"/>
			<vel value="0.00851759370498243" flag="0"/>
			<psa03 value="0.0160624521759596" flag="0"/>
			<psa10 value="0.0129985058667403" flag="0"/>
			<psa30 value="0.00297759385044598" flag="0"/>
		</comp>
		<comp name="--.HNZ" depth="0.0">
			<acc value="0.00580053632209757" flag="0"/>
			<vel value="0.00552161258265977" flag="0"/>
			<psa03 value="0.0148991548038845" flag="0"/>
			<psa10 value="0.00982941537196812" flag="0"/>
			<psa30 value="0.00133868682201869" flag="0"/>
		</comp>
	</station>
	<station code="LTRS" name="LTRS" netid="HA" source="Hellenic Seismological Network, University of Athens, Seismological Laboratory (HA)" insttype="" lat="37.97528" lon="22.9765">
		<comp name="--.HNE" depth="0.0">
			<acc value="0.00595251334420617" flag="0"/>
			<vel value="0.00734519208490199" flag="0"/>
			<psa03 value="0.0175836872009808" flag="0"/>
			<psa10 value="0.0114763759975867" flag="0"/>
			<psa30 value="0.0016800698585161" flag="0"/>
		</comp>
		<comp name="--.HNN" depth="0.0">
			<acc value="0.00766953659003836" flag="0"/>
			<vel value="0.00713221427215997" flag="0"/>
			<psa03 value="0.0222816188958993" flag="0"/>
			<psa10 value="0.0141904382510511" flag="0"/>
			<psa30 value="0.00129976110226079" flag="0"/>
		</comp>
		<comp name="--.HNZ" depth="0.0">
			<acc value="0.00414798947396015" flag="0"/>
			<vel value="0.00478557934423147" flag="0"/>
			<psa03 value="0.0114987471008958" flag="0"/>
			<psa10 value="0.00742541661036838" flag="0"/>
			<psa30 value="0.000976274948410689" flag="0"/>
		</comp>
	</station>
	<station code="XLKS" name="XLKS" netid="HA" source="Hellenic Seismological Network, University of Athens, Seismological Laboratory (HA)" insttype="" lat="38.0772" lon="22.6361">
		<comp name="--.HNE" depth="0.0">
			<acc value="0.0204744188304685" flag="0"/>
			<vel value="0.0152923173172369" flag="0"/>
			<psa03 value="0.0332882017239942" flag="0"/>
			<psa10 value="0.0331808204281103" flag="0"/>
			<psa30 value="0.00343172724762144" flag="0"/>
		</comp>
		<comp name="--.HNN" depth="0.0">
			<acc value="0.0202171987424568" flag="0"/>
			<vel value="0.015441168049517" flag="0"/>
			<psa03 value="0.0378519067990579" flag="0"/>
			<psa10 value="0.0237339509227284" flag="0"/>
			<psa30 value="0.00368810009154414" flag="0"/>
		</comp>
		<comp name="--.HNZ" depth="0.0">
			<acc value="0.0100330273429942" flag="0"/>
			<vel value="0.00722336550405956" flag="0"/>
			<psa03 value="0.0229974942017917" flag="0"/>
			<psa10 value="0.00929385115874741" flag="0"/>
			<psa30 value="0.00115524377488378" flag="0"/>
		</comp>
	</station>
	<station code="ARS1" name="ARS1" netid="HI" source="ITSAK Strong Motion Network" insttype="" lat="37.6349" lon="22.7293">
		<comp name="--.HNE" depth="0.0">
			<acc value="0.00906209715489584" flag="0"/>
			<vel value="0.0104212129713662" flag="0"/>
			<psa03 value="0.0135331191589894" flag="0"/>
			<psa10 value="0.0140318189141573" flag="0"/>
			<psa30 value="0.00143759585867151" flag="0"/>
		</comp>
		<comp name="--.HNN" depth="0.0">
			<acc value="0.0100662250145487" flag="0"/>
			<vel value="0.00777622165826248" flag="0"/>
			<psa03 value="0.0273462881198881" flag="0"/>
			<psa10 value="0.0114788194779408" flag="0"/>
			<psa30 value="0.00128243287155203" flag="0"/>
		</comp>
		<comp name="--.HNZ" depth="0.0">
			<acc value="0.00398534067613468" flag="0"/>
			<vel value="0.00329703579808544" flag="0"/>
			<psa03 value="0.01457151346833" flag="0"/>
			<psa10 value="0.00356869914317895" flag="0"/>
			<psa30 value="0.00115511297889946" flag="0"/>
		</comp>
	</station>
	<station code="ART2" name="ART2" netid="HI" source="ITSAK Strong Motion Network" insttype="" lat="39.1474" lon="20.9937">
		<comp name="--.HNE" depth="0.0">
			<acc value="0.0089337364814051" flag="0"/>
			<vel value="0.00397120778498718" flag="0"/>
			<psa03 value="0.0165366267203522" flag="0"/>
			<psa10 value="0.00476013361675876" flag="0"/>
			<psa30 value="0.000496283813865769" flag="0"/>
		</comp>
		<comp name="--.HNN" depth="0.0">
			<acc value="0.00757688412576257" flag="0"/>
			<vel value="0.00576225910047079" flag="0"/>
			<psa03 value="0.00954920159814874" flag="0"/>
			<psa10 value="0.00696983999894325" flag="0"/>
			<psa30 value="0.000397289443475612" flag="0"/>
		</comp>
		<comp name="--.HNZ" depth="0.0">
			<acc value="0.00465743131907548" flag="0"/>
			<vel value="0.00282556700007039" flag="0"/>
			<psa03 value="0.0103143395243833" flag="0"/>
			<psa10 value="0.00373671003870077" flag="0"/>
			<psa30 value="0.000730498808627869" flag="0"/>
		</comp>
	</station>
	<station code="KLV1" name="KLV1" netid="HI" source="ITSAK Strong Motion Network" insttype="" lat="38.03256" lon="22.10797">
		<comp name="--.HNE" depth="0.0">
			<acc value="0.113642152942642" flag="0"/>
			<vel value="0.038774704141409" flag="0"/>
			<psa03 value="0.155269483758139" flag="0"/>
			<psa10 value="0.0168457184461733" flag="0"/>
			<psa30 value="0.00110576679329183" flag="0"/>
		</comp>
		<comp name="--.HNN" depth="0.0">
			<acc value="0.0745938693062727" flag="0"/>
			<vel value="0.0259311156942943" flag="0"/>
			<psa03 value="0.145589686268727" flag="0"/>
			<psa10 value="0.0108515397987373" flag="0"/>
			<psa30 value="0.000956696188928211" flag="0"/>
		</comp>
		<comp name="--.HNZ" depth="0.0">
			<acc value="0.0539388823784579" flag="0"/>
			<vel value="0.0141544073489316" flag="0"/>
			<psa03 value="0.0558738940797216" flag="0"/>
			<psa10 value="0.0103091019899094" flag="0"/>
			<psa30 value="0.000837001749341091" flag="0"/>
		</comp>
	</station>
	<station code="KRK1" name="KRK1" netid="HI" source="ITSAK Strong Motion Network" insttype="" lat="39.618861" lon="19.9202">
		<comp name="--.HNE" depth="0.0">
			<acc value="0.0123533639544161" flag="0"/>
			<vel value="0.00609509727467548" flag="0"/>
			<psa03 value="0.0258320107231166" flag="0"/>
			<psa10 value="0.00429199572990269" flag="0"/>
			<psa30 value="0.000628826917114861" flag="0"/>
		</comp>
		<comp name="--.HNN" depth="0.0">
			<acc value="0.0126400052377044" flag="0"/>
			<vel value="0.00491763726696609" flag="0"/>
			<psa03 value="0.0229869785036988" flag="0"/>
			<psa10 value="0.00495452633803536" flag="0"/>
			<psa30 value="0.000760308647966717" flag="0"/>
		</comp>
		<comp name="--.HNZ" depth="0.0">
			<acc value="0.00565863709248698" flag="0"/>
			<vel value="0.00255241669579975" flag="0"/>
			<psa03 value="0.017351648159452" flag="0"/>
			<psa10 value="0.00153868954781929" flag="0"/>
			<psa30 value="0.000270925108917279" flag="0"/>
		</comp>
	</station>
	<station code="LAM2" name="LAM2" netid="HI" source="ITSAK Strong Motion Network" insttype="" lat="38.90203" lon="22.431301">
		<comp name="--.HNE" depth="0.0">
			<acc value="0.00392036548433356" flag="0"/>
			<vel value="0.00463682857762972" flag="0"/>
			<psa03 value="0.00944967677594246" flag="0"/>
			<psa10 value="0.00417697373527915" flag="0"/>
			<psa30 value="0.00144411920747551" flag="0"/>
		</comp>
		<comp name="--.HNN" depth="0.0">
			<acc value="0.00462413818836054" flag="0"/>
			<vel value="0.00488939959719664" flag="0"/>
			<psa03 value="0.0088174493471303" flag="0"/>
			<psa10 value="0.00851040689767789" flag="0"/>
			<psa30 value="0.00158039833946876" flag="0"/>
		</comp>
		<comp name="--.HNZ" depth="0.0">
			<acc value="0.00195476469165029" flag="0"/>
			<vel value="0.00203413184313044" flag="0"/>
			<psa03 value="0.00474056469020392" flag="0"/>
			<psa10 value="0.0036918662086406" flag="0"/>
			<psa30 value="0.000641632244571687" flag="0"/>
		</comp>
	</station>
	<station code="MSL1" name="MSL1" netid="HI" source="ITSAK Strong Motion Network" insttype="" lat="38.3727" lon="21.4243">
		<comp name="--.HNE" depth="0.0">
			<acc value="0.229680613719267" flag="0"/>
			<vel value="0.115966478941108" flag="0"/>
			<psa03 value="0.606303122940724" flag="0"/>
			<psa10 value="0.1787423758052" flag="0"/>
			<psa30 value="0.00933318494434222" flag="0"/>
		</comp>
		<comp name="--.HNN" depth="0.0">
			<acc value="0.123903055108911" flag="0"/>
			<vel value="0.0830205074239223" flag="0"/>
			<psa03 value="0.615698662016676" flag="0"/>
			<psa10 value="0.127862590269119" flag="0"/>
			<psa30 value="0.00625099118082167" flag="0"/>
		</comp>
		<comp name="--.HNZ" depth="0.0">
			<acc value="0.0672676394824764" flag="0"/>
			<vel value="0.0382006393578851" flag="0"/>
			<psa03 value="0.266268243130987" flag="0"/>
			<psa10 value="0.0658135598251973" flag="0"/>
			<psa30 value="0.00232236655371927" flag="0"/>
		</comp>
	</station>
	<station code="PYL1" name="PYL1" netid="HI" source="ITSAK Strong Motion Network" insttype="" lat="36.914188" lon="21.695161">
		<comp name="--.HNE" depth="0.0">
			<acc value="0.00202910649909499" flag="0"/>
			<vel value="0.00164226386042141" flag="0"/>
			<psa03 value="0.00614391286345653" flag="0"/>
			<psa10 value="0.00271267798285317" flag="0"/>
			<psa30 value="0.000368822349337323" flag="0"/>
		</comp>
		<comp name="--.HNN" depth="0.0">
			<acc value="0.00156015573929954" flag="0"/>
			<vel value="0.00133366477409587" flag="0"/>
			<psa03 value="0.00289787719149414" flag="0"/>
			<psa10 value="0.00295746396434954" flag="0"/>
			<psa30 value="0.000481031657651048" flag="0"/>
		</comp>
		<comp name="--.HNZ" depth="0.0">
			<acc value="0.00131590562928452" flag="0"/>
			<vel value="0.00113387001995044" flag="0"/>
			<psa03 value="0.00245271863291785" flag="0"/>
			<psa10 value="0.00180344419588835" flag="0"/>
			<psa30 value="0.000259255559825152" flag="0"/>
		</comp>
	</station>
	<station code="VAS2" name="VAS2" netid="HI" source="ITSAK Strong Motion Network" insttype="" lat="38.630558" lon="20.608081">
		<comp name="--.HNE" depth="0.0">
			<acc value="0.189102001962913" flag="0"/>
			<vel value="0.0763770923168238" flag="0"/>
			<psa03 value="0.533479965430648" flag="0"/>
			<psa10 value="0.103623459545729" flag="0"/>
			<psa30 value="0.00613311670555275" flag="0"/>
		</comp>
		<comp name="--.HNN" depth="0.0">
			<acc value="0.275907187704861" flag="0"/>
			<vel value="0.119526896555949" flag="0"/>
			<psa03 value="0.622624204131117" flag="0"/>
			<psa10 value="0.179296152490356" flag="0"/>
			<psa30 value="0.00852676152278514" flag="0"/>
		</comp>
		<comp name="--.HNZ" depth="0.0">
			<acc value="0.100610655948767" flag="0"/>
			<vel value="0.0405353168309382" flag="0"/>
			<psa03 value="0.213752430882718" flag="0"/>
			<psa10 value="0.0516285901405968" flag="0"/>
			<psa30 value="0.00296974402263261" flag="0"/>
		</comp>
	</station>
	<station code="DLFA" name="DLFA" netid="HL" source="National Observatory of Athens Seismic Network" insttype="" lat="38.47836" lon="22.49583">
		<comp name="00.HNE" depth="0.0">
			<acc value="0.00346913409712534" flag="0"/>
			<vel value="0.00350953963136943" flag="0"/>
			<psa03 value="0.00680081540597731" flag="0"/>
			<psa10 value="0.00435296928189166" flag="0"/>
			<psa30 value="0.000420129320145572" flag="0"/>
		</comp>
		<comp name="00.HNN" depth="0.0">
			<acc value="0.00367544412859599" flag="0"/>
			<vel value="0.00316592987197599" flag="0"/>
			<psa03 value="0.0076061751251062" flag="0"/>
			<psa10 value="0.00546436569428953" flag="0"/>
			<psa30 value="0.0004478694882489" flag="0"/>
		</comp>
		<comp name="00.HNZ" depth="0.0">
			<acc value="0.00451156980098591" flag="0"/>
			<vel value="0.00505400495280686" flag="0"/>
			<psa03 value="0.00720349526554175" flag="0"/>
			<psa10 value="0.00729655905530776" flag="0"/>
			<psa30 value="0.00111229125653024" flag="0"/>
		</comp>
	</station>
	<station code="ITM" name="ITM" netid="HL" source="National Observatory of Athens Seismic Network" insttype="" lat="37.17872" lon="21.92522">
		<comp name="--.HNE" depth="0.0">
			<acc value="0.00512360474650763" flag="0"/>
			<vel value="0.00499661742815829" flag="0"/>
			<psa03 value="0.00796411277805237" flag="0"/>
			<psa10 value="0.00362009193748437" flag="0"/>
			<psa30 value="0.00170781002661943" flag="0"/>
		</comp>
		<comp name="--.HNN" depth="0.0">
			<acc value="0.00504620784674666" flag="0"/>
			<vel value="0.00418906851621063" flag="0"/>
			<psa03 value="0.012841013299444" flag="0"/>
			<psa10 value="0.00727239826373389" flag="0"/>
			<psa30 value="0.000840258640291143" flag="0"/>
		</comp>
		<comp name="--.HNZ" depth="0.0">
			<acc value="0.00265243071638452" flag="0"/>
			<vel value="0.00292759147591712" flag="0"/>
			<psa03 value="0.00644287775303113" flag="0"/>
			<psa10 value="0.00390599463777512" flag="0"/>
			<psa30 value="0.000739141253333849" flag="0"/>
		</comp>
	</station>
	<station code="JAN" name="JAN" netid="HL" source="National Observatory of Athens Seismic Network" insttype="" lat="39.65616" lon="20.84874">
		<comp name="00.HNE" depth="0.0">
			<acc value="0.00484257155336531" flag="0"/>
			<vel value="0.00399824338136125" flag="0"/>
			<psa03 value="0.0125278178531161" flag="0"/>
			<psa10 value="0.00647106534320064" flag="0"/>
			<psa30 value="0.00110915930206696" flag="0"/>
		</comp>
		<comp name="00.HNN" depth="0.0">
			<acc value="0.00378586001740453" flag="0"/>
			<vel value="0.00247059379346772" flag="0"/>
			<psa03 value="0.00765091733172447" flag="0"/>
			<psa10 value="0.00336237682736312" flag="0"/>
			<psa30 value="0.000531089992558886" flag="0"/>
		</comp>
		<comp name="00.HNZ" depth="0.0">
			<acc value="0.00236080098118865" flag="0"/>
			<vel value="0.00226625390243381" flag="0"/>
			<psa03 value="0.00733772188539657" flag="0"/>
			<psa10 value="0.00295567016920303" flag="0"/>
			<psa30 value="0.000834889575496951" flag="0"/>
		</comp>
	</station>
	<station code="PATC" name="PATC" netid="HL" source="National Observatory of Athens Seismic Network" insttype="" lat="38.26933" lon="21.76001">
		<comp name="00.HNE" depth="0.0">
			<acc value="0.149909271642572" flag="0"/>
			<vel value="0.0495402209637077" flag="0"/>
			<psa03 value="0.185903868498919" flag="0"/>
			<psa10 value="0.0599227899017852" flag="0"/>
			<psa30 value="0.00734353837225694" flag="0"/>
		</comp>
		<comp name="00.HNN" depth="0.0">
			<acc value="0.242723674456335" flag="0"/>
			<vel value="0.0556251273490137" flag="0"/>
			<psa03 value="0.163890702842729" flag="0"/>
			<psa10 value="0.049980624169139" flag="0"/>
			<psa30 value="0.00550284399198124" flag="0"/>
		</comp>
		<comp name="00.HNZ" depth="0.0">
			<acc value="0.107788860292278" flag="0"/>
			<vel value="0.0272259963670208" flag="0"/>
			<psa03 value="0.0830862776901306" flag="0"/>
			<psa10 value="0.0313687610600703" flag="0"/>
			<psa30 value="0.00392389152042243" flag="0"/>
		</comp>
	</station>
	<station code="PATG" name="PATG" netid="HL" source="National Observatory of Athens Seismic Network" insttype="" lat="38.23865" lon="21.72657">
		<comp name="00.HNE" depth="0.0">
			<acc value="0.122469053309928" flag="0"/>
			<vel value="0.053084189742198" flag="0"/>
			<psa03 value="0.25395676476531" flag="0"/>
			<psa10 value="0.0510155114082196" flag="0"/>
			<psa30 value="0.00658650023627578" flag="0"/>
		</comp>
		<comp name="00.HNN" depth="0.0">
			<acc value="0.16570136830155" flag="0"/>
			<vel value="0.08750957266853" flag="0"/>
			<psa03 value="0.497041173322381" flag="0"/>
			<psa10 value="0.0569993341213473" flag="0"/>
			<psa30 value="0.00708179646354005" flag="0"/>
		</comp>
		<comp name="00.HNZ" depth="0.0">
			<acc value="0.0599473004884571" flag="0"/>
			<vel value="0.0276784805437054" flag="0"/>
			<psa03 value="0.108678819875782" flag="0"/>
			<psa10 value="0.0346586555127118" flag="0"/>
			<psa30 value="0.00476593984897831" flag="0"/>
		</comp>
	</station>
	<station code="RIOA" name="RIOA" netid="HL" source="National Observatory of Athens Seismic Network" insttype="" lat="38.29585" lon="21.79118">
		<comp name="00.HNE" depth="0.0">
			<acc value="0.0742770907182822" flag="0"/>
			<vel value="0.0291988457518994" flag="0"/>
			<psa03 value="0.105233669966175" flag="0"/>
			<psa10 value="0.0453175913953827" flag="0"/>
			<psa30 value="0.00669925059695383" flag="0"/>
		</comp>
		<comp name="00.HNN" depth="0.0">
			<acc value="0.0635538658903505" flag="0"/>
			<vel value="0.0260164576613535" flag="0"/>
			<psa03 value="0.112839845091281" flag="0"/>
			<psa10 value="0.0453135645967871" flag="0"/>
			<psa30 value="0.00282278581554676" flag="0"/>
		</comp>
		<comp name="00.HNZ" depth="0.0">
			<acc value="0.0656907290306071" flag="0"/>
			<vel value="0.0164024710881342" flag="0"/>
			<psa03 value="0.0739588675400032" flag="0"/>
			<psa10 value="0.0150964679350711" flag="0"/>
			<psa30 value="0.00285857958084138" flag="0"/>
		</comp>
	</station>
	<station code="ANX" name="ANX" netid="HP" source="University of Patras, Seismological Laboratory (PSLNET)" insttype="" lat="38.5933" lon="21.9209">
		<comp name="--.HNE" depth="0.0">
			<acc value="0.0260023821615103" flag="0"/>
			<vel value="0.0206844626178078" flag="0"/>
			<psa03 value="0.0473564131716055" flag="0"/>
			<psa10 value="0.0173584786640234" flag="0"/>
			<psa30 value="0.0013354583633942" flag="0"/>
		</comp>
		<comp name="--.HNN" depth="0.0">
			<acc value="0.018088495407683" flag="0"/>
			<vel value="0.0164885881521087" flag="0"/>
			<psa03 value="0.0378485046735226" flag="0"/>
			<psa10 value="0.0204953945943035" flag="0"/>
			<psa30 value="0.00144599620681869" flag="0"/>
		</comp>
		<comp name="--.HNZ" depth="0.0">
			<acc value="0.00962622444662949" flag="0"/>
			<vel value="0.00740548076426019" flag="0"/>
			<psa03 value="0.0195319162894421" flag="0"/>
