<?xml version="1.0" encoding="UTF-8" standalone="yes"?>
<!DOCTYPE earthquake SYSTEM "stationlist.dtd">
<stationlist created="" xmlns="ch.ethz.sed.shakemap.usgs.xml">
  <station code="KALE" name="KALE" netid="HA" insttype="40," lat="38.3911" lon="22.1398">
    <comp name="--.HHE">
      <acc value="0.0146236968" flag="0"/>
      <vel value="0.0088930291" flag="0"/>
      <psa03 value="0.0239705098" flag="0"/>
      <psa10 value="0.0130771595" flag="0"/>
      <psa30 value="0.0008441596" flag="0"/>
    </comp>
    <comp name="--.HHZ">
      <acc value="0.0099253424" flag="0"/>
      <vel value="0.0053981164" flag="0"/>
      <psa03 value="0.0138804496" flag="0"/>
      <psa10 value="0.0053855541" flag="0"/>
      <psa30 value="0.0010411585" flag="0"/>
    </comp>
    <comp name="--.HHN">
      <acc value="0.0163665568" flag="0"/>
      <vel value="0.0071405011" flag="0"/>
      <psa03 value="0.0272201338" flag="0"/>
      <psa10 value="0.0107525911" flag="0"/>
      <psa30 value="0.0012225953" flag="0"/>
    </comp>
  </station>
  <station code="KLV1" name="KLV1" netid="HI" insttype="CMG-5TD,ACCELEROMETER,GURALP" lat="38.0326" lon="22.108">
    <comp name="--.HNE">
      <acc value="0.1160317847" flag="0"/>
      <vel value="0.0387014274" flag="0"/>
      <psa03 value="0.1545227850" flag="0"/>
      <psa10 value="0.0168125066" flag="0"/>
      <psa30 value="0.0010054696" flag="0"/>
    </comp>
    <comp name="--.HNZ">
      <acc value="0.0567135684" flag="0"/>
      <vel value="0.0142176145" flag="0"/>
      <psa03 value="0.0553654628" flag="0"/>
      <psa10 value="0.0103323779" flag="0"/>
      <psa30 value="0.0007874794" flag="0"/>
    </comp>
    <comp name="--.HNN">
      <acc value="0.0762928945" flag="0"/>
      <vel value="0.0259265631" flag="0"/>
      <psa03 value="0.1439718760" flag="0"/>
      <psa10 value="0.0108697495" flag="0"/>
      <psa30 value="0.0008929605" flag="0"/>
    </comp>
  </station>
  <station code="MSL1" name="MSL1" netid="HI" insttype="CMG-5TD,ACCELEROMETER,GURALP" lat="38.3727" lon="21.4243">
    <comp name="--.HNZ">
      <acc value="0.0676494595" flag="0"/>
      <vel value="0.0377833567" flag="0"/>
      <psa03 value="0.2667687557" flag="0"/>
      <psa10 value="0.0657155183" flag="0"/>
      <psa30 value="0.0021898835" flag="0"/>
    </comp>
    <comp name="--.HNE">
      <acc value="0.2291810261" flag="0"/>
      <vel value="0.1165781433" flag="0"/>
      <psa03 value="0.6013982510" flag="0"/>
      <psa10 value="0.1785302900" flag="0"/>
      <psa30 value="0.0090729349" flag="0"/>
    </comp>
    <comp name="--.HNN">
      <acc value="0.1239209654" flag="0"/>
      <vel value="0.0827704657" flag="0"/>
      <psa03 value="0.6095471656" flag="0"/>
      <psa10 value="0.1276779596" flag="0"/>
      <psa30 value="0.0059006400" flag="0"/>
    </comp>
  </station>
  <station code="EVR" name="EVR" netid="HL" insttype="DR24" lat="38.9166" lon="21.8105">
    <comp name="--.HHN">
      <acc value="0.0053675427" flag="0"/>
      <vel value="0.0050241953" flag="0"/>
      <psa03 value="0.0142577232" flag="0"/>
      <psa10 value="0.0120467682" flag="0"/>
      <psa30 value="0.0008057835" flag="0"/>
    </comp>
    <comp name="--.HHZ">
      <acc value="0.0053018244" flag="0"/>
      <vel value="0.0071946051" flag="0"/>
      <psa03 value="0.0088762798" flag="0"/>
      <psa10 value="0.0126567908" flag="0"/>
      <psa30 value="0.0009614059" flag="0"/>
    </comp>
    <comp name="--.HHE">
      <acc value="0.0049073376" flag="0"/>
      <vel value="0.0065851843" flag="0"/>
      <psa03 value="0.0140462630" flag="0"/>
      <psa10 value="0.0067644706" flag="0"/>
      <psa30 value="0.0013439889" flag="0"/>
    </comp>
  </station>
  <station code="KLV" name="KLV" netid="HL" insttype="120" lat="38.0435" lon="22.1504">
    <comp name="--.HHN">
      <acc value="0.0355630747" flag="0"/>
      <vel value="0.0102678083" flag="0"/>
      <psa03 value="0.0466064577" flag="0"/>
      <psa10 value="0.0054448323" flag="0"/>
      <psa30 value="0.0005999358" flag="0"/>
    </comp>
    <comp name="--.HHZ">
      <acc value="0.0297600921" flag="0"/>
      <vel value="0.0102891139" flag="0"/>
      <psa03 value="0.0725502513" flag="0"/>
      <psa10 value="0.0086256340" flag="0"/>
      <psa30 value="0.0005474737" flag="0"/>
    </comp>
    <comp name="--.HHE">
      <acc value="0.0438887573" flag="0"/>
      <vel value="0.0098448657" flag="0"/>
      <psa03 value="0.0460839572" flag="0"/>
      <psa10 value="0.0077850022" flag="0"/>
      <psa30 value="0.0004489189" flag="0"/>
    </comp>
  </station>
  <station code="PATC" name="PATC" netid="HL" insttype="CMG-5" lat="38.2693" lon="21.76">
    <comp name="00.HNZ">
      <acc value="0.1085944083" flag="0"/>
      <vel value="0.0267656321" flag="0"/>
      <psa03 value="0.0833944880" flag="0"/>
      <psa10 value="0.0313190850" flag="0"/>
      <psa30 value="0.0035909269" flag="0"/>
    </comp>
    <comp name="00.HNE">
      <acc value="0.1489020359" flag="0"/>
      <vel value="0.0489356430" flag="0"/>
      <psa03 value="0.1855500065" flag="0"/>
      <psa10 value="0.0597439600" flag="0"/>
      <psa30 value="0.0062815884" flag="0"/>
    </comp>
    <comp name="00.HNN">
      <acc value="0.2443369121" flag="0"/>
      <vel value="0.0556006945" flag="0"/>
      <psa03 value="0.1638207893" flag="0"/>
      <psa10 value="0.0500156658" flag="0"/>
      <psa30 value="0.0052346234" flag="0"/>
    </comp>
  </station>
  <station code="PATG" name="PATG" netid="HL" insttype="CMG-5" lat="38.2386" lon="21.7266">
    <comp name="00.HNN">
      <acc value="0.1651882661" flag="0"/>
      <vel value="0.0866620347" flag="0"/>
      <psa03 value="0.4972018308" flag="0"/>
      <psa10 value="0.0569314458" flag="0"/>
      <psa30 value="0.0062350361" flag="0"/>
    </comp>
    <comp name="00.HNE">
      <acc value="0.1221645720" flag="0"/>
      <vel value="0.0536066753" flag="0"/>
      <psa03 value="0.2546587572" flag="0"/>
      <psa10 value="0.0510665334" flag="0"/>
      <psa30 value="0.0055482474" flag="0"/>
    </comp>
    <comp name="00.HNZ">
      <acc value="0.0604955246" flag="0"/>
      <vel value="0.0266047548" flag="0"/>
      <psa03 value="0.1085570188" flag="0"/>
      <psa10 value="0.0345811757" flag="0"/>
      <psa30 value="0.0044932754" flag="0"/>
    </comp>
  </station>
  <station code="RIOA" name="RIOA" netid="HL" insttype="CMG-5" lat="38.2959" lon="21.7912">
    <comp name="00.HNN">
      <acc value="0.0635812970" flag="0"/>
      <vel value="0.0275676974" flag="0"/>
      <psa03 value="0.1129813612" flag="0"/>
      <psa10 value="0.0451583969" flag="0"/>
      <psa30 value="0.0024087361" flag="0"/>
    </comp>
    <comp name="00.HNZ">
      <acc value="0.0671219216" flag="0"/>
      <vel value="0.0155690006" flag="0"/>
      <psa03 value="0.0740705039" flag="0"/>
      <psa10 value="0.0150467777" flag="0"/>
      <psa30 value="0.0024932542" flag="0"/>
    </comp>
    <comp name="00.HNE">
      <acc value="0.0740564226" flag="0"/>
      <vel value="0.0284631310" flag="0"/>
      <psa03 value="0.1052049894" flag="0"/>
      <psa10 value="0.0452519472" flag="0"/>
      <psa30 value="0.0060805595" flag="0"/>
    </comp>
  </station>
  <station code="RLS" name="RLS" netid="HL" insttype="CMG3ESPC-120s" lat="38.0559" lon="21.4647">
    <comp name="--.HHN">
      <acc value="0.1052777722" flag="0"/>
      <vel value="0.0181682858" flag="0"/>
      <psa03 value="0.0538308753" flag="0"/>
      <psa10 value="0.0095107748" flag="0"/>
      <psa30 value="0.0018540668" flag="0"/>
    </comp>
    <comp name="--.HHE">
      <acc value="0.0625773801" flag="0"/>
      <vel value="0.0237162154" flag="0"/>
      <psa03 value="0.0522411792" flag="0"/>
      <psa10 value="0.0146688880" flag="0"/>
      <psa30 value="0.0016494280" flag="0"/>
    </comp>
    <comp name="--.HHZ">
      <acc value="0.0290860383" flag="0"/>
      <vel value="0.0100784669" flag="0"/>
      <psa03 value="0.0259894688" flag="0"/>
      <psa10 value="0.0097521143" flag="0"/>
      <psa30 value="0.0017194572" flag="0"/>
    </comp>
  </station>
  <station code="TETR" name="TETR" netid="HL" insttype="60" lat="39.3445" lon="21.2747">
    <comp name="--.HHZ">
      <acc value="0.0068704262" flag="0"/>
      <vel value="0.0071569448" flag="0"/>
      <psa03 value="0.0157359954" flag="0"/>
      <psa10 value="0.0193576226" flag="0"/>
      <psa30 value="0.0012537291" flag="0"/>
    </comp>
    <comp name="--.HHE">
      <acc value="0.0169792661" flag="0"/>
      <vel value="0.0127969478" flag="0"/>
      <psa03 value="0.0536818854" flag="0"/>
      <psa10 value="0.0282359372" flag="0"/>
      <psa30 value="0.0011588014" flag="0"/>
    </comp>
    <comp name="--.HHN">
      <acc value="0.0153980645" flag="0"/>
      <vel value="0.0146932654" flag="0"/>
      <psa03 value="0.0300163873" flag="0"/>
      <psa10 value="0.0207342184" flag="0"/>
      <psa30 value="0.0012548726" flag="0"/>
    </comp>
  </station>
  <station code="VLS" name="VLS" netid="HL" insttype="120P," lat="38.1768" lon="20.5886">
    <comp name="--.HHZ">
      <acc value="1.4498949934" flag="0"/>
      <vel value="0.3228798633" flag="0"/>
      <psa03 value="1.1527657536" flag="0"/>
      <psa10 value="0.1129677219" flag="0"/>
      <psa30 value="0.0140285238" flag="0"/>
    </comp>
    <comp name="--.HHE">
      <acc value="2.8116888641" flag="0"/>
      <vel value="0.4150173831" flag="0"/>
      <psa03 value="1.2833742765" flag="0"/>
      <psa10 value="0.1564762295" flag="0"/>
      <psa30 value="0.0147263810" flag="0"/>
    </comp>
    <comp name="--.HHN">
      <acc value="1.8361126448" flag="0"/>
      <vel value="0.2208389015" flag="0"/>
      <psa03 value="0.7287368487" flag="0"/>
      <psa10 value="0.1326089526" flag="0"/>
      <psa30 value="0.0104623766" flag="0"/>
    </comp>
  </station>
  <station code="AMPL" name="AMPL" netid="HP" insttype="Compact," lat="38.9224" lon="21.2135">
    <comp name="--.HHN">
      <acc value="0.0176866233" flag="0"/>
      <vel value="0.0076313845" flag="0"/>
      <psa03 value="0.0303145537" flag="0"/>
      <psa10 value="0.0110126983" flag="0"/>
      <psa30 value="0.0008348654" flag="0"/>
    </comp>
    <comp name="--.HHE">
      <acc value="0.0162238410" flag="0"/>
      <vel value="0.0078021173" flag="0"/>
      <psa03 value="0.0316467594" flag="0"/>
      <psa10 value="0.0104278386" flag="0"/>
      <psa30 value="0.0010957730" flag="0"/>
    </comp>
    <comp name="--.HHZ">
      <acc value="0.0100763706" flag="0"/>
      <vel value="0.0067903379" flag="0"/>
      <psa03 value="0.0218024039" flag="0"/>
      <psa10 value="0.0074993173" flag="0"/>
      <psa30 value="0.0008749903" flag="0"/>
    </comp>
  </station>
  <station code="AMT" name="AMT" netid="HP" insttype="CMG-3T," lat="37.5324" lon="21.7089">
    <comp name="00.HHE">
      <acc value="0.0147642621" flag="0"/>
      <vel value="0.0142286765" flag="0"/>
      <psa03 value="0.0529520816" flag="0"/>
      <psa10 value="0.0303199839" flag="0"/>
      <psa30 value="0.0011459706" flag="0"/>
    </comp>
    <comp name="00.HHN">
      <acc value="0.0148894853" flag="0"/>
      <vel value="0.0097049218" flag="0"/>
      <psa03 value="0.0453259058" flag="0"/>
      <psa10 value="0.0121648961" flag="0"/>
      <psa30 value="0.0010000529" flag="0"/>
    </comp>
    <comp name="00.HHZ">
      <acc value="0.0101349082" flag="0"/>
      <vel value="0.0056106578" flag="0"/>
      <psa03 value="0.0251207930" flag="0"/>
      <psa10 value="0.0085813069" flag="0"/>
      <psa30 value="0.0007672110" flag="0"/>
    </comp>
  </station>
  <station code="ANX" name="ANX" netid="HP" insttype="120" lat="38.5933" lon="21.9209">
    <comp name="--.HHE">
      <acc value="0.0214076277" flag="0"/>
      <vel value="0.0169357705" flag="0"/>
      <psa03 value="0.0393592174" flag="0"/>
      <psa10 value="0.0134781271" flag="0"/>
      <psa30 value="0.0009489003" flag="0"/>
    </comp>
    <comp name="--.HHN">
      <acc value="0.0137844921" flag="0"/>
      <vel value="0.0132068045" flag="0"/>
      <psa03 value="0.0302653283" flag="0"/>
      <psa10 value="0.0163706760" flag="0"/>
      <psa30 value="0.0010685233" flag="0"/>
    </comp>
    <comp name="--.HHZ">
      <acc value="0.0078468099" flag="0"/>
      <vel value="0.0062219546" flag="0"/>
      <psa03 value="0.0161428999" flag="0"/>
      <psa10 value="0.0094545780" flag="0"/>
      <psa30 value="0.0010371696" flag="0"/>
    </comp>
  </station>
  <station code="AXS" name="AXS" netid="HP" insttype="40," lat="38.1962" lon="21.3763">
    <comp name="--.HHE">
      <acc value="0.0898688037" flag="0"/>
      <vel value="0.0189670445" flag="0"/>
      <psa03 value="0.0419240439" flag="0"/>
      <psa10 value="0.0090965269" flag="0"/>
      <psa30 value="0.0022202508" flag="0"/>
    </comp>
    <comp name="--.HHZ">
      <acc value="0.0756313912" flag="0"/>
      <vel value="0.0297433885" flag="0"/>
      <psa03 value="0.0530858404" flag="0"/>
      <psa10 value="0.0165694848" flag="0"/>
      <psa30 value="0.0015232198" flag="0"/>
    </comp>
    <comp name="--.HHN">
      <acc value="0.0980464271" flag="0"/>
      <vel value="0.0268685147" flag="0"/>
      <psa03 value="0.0729774034" flag="0"/>
      <psa10 value="0.0162542224" flag="0"/>
      <psa30 value="0.0027903528" flag="0"/>
    </comp>
  </station>
  <station code="DRO" name="DRO" netid="HP" insttype="120P," lat="37.952" lon="21.71">
    <comp name="--.HHN">
      <acc value="0.1636708395" flag="0"/>
      <vel value="0.0340802735" flag="0"/>
      <psa03 value="0.1216109477" flag="0"/>
      <psa10 value="0.0204436707" flag="0"/>
      <psa30 value="0.0014592694" flag="0"/>
    </comp>
    <comp name="--.HHZ">
      <acc value="0.0750092561" flag="0"/>
      <vel value="0.0195306993" flag="0"/>
      <psa03 value="0.0422247233" flag="0"/>
      <psa10 value="0.0103604620" flag="0"/>
      <psa30 value="0.0015116540" flag="0"/>
    </comp>
    <comp name="--.HHE">
      <acc value="0.2354678265" flag="0"/>
      <vel value="0.0512549509" flag="0"/>
      <psa03 value="0.0928930098" flag="0"/>
      <psa10 value="0.0190189473" flag="0"/>
      <psa30 value="0.0013297956" flag="0"/>
    </comp>
  </station>
  <station code="EFP" name="EFP" netid="HP" insttype="40," lat="38.4269" lon="21.9058">
    <comp name="--.HHE">
      <acc value="0.0250173487" flag="0"/>
      <vel value="0.0101856357" flag="0"/>
      <psa03 value="0.0314232151" flag="0"/>
      <psa10 value="0.0098099482" flag="0"/>
      <psa30 value="0.0010619980" flag="0"/>
    </comp>
    <comp name="--.HHN">
      <acc value="0.0158471140" flag="0"/>
      <vel value="0.0075743730" flag="0"/>
      <psa03 value="0.0319662045" flag="0"/>
      <psa10 value="0.0085083710" flag="0"/>
      <psa30 value="0.0011169457" flag="0"/>
    </comp>
    <comp name="--.HHZ">
      <acc value="0.0121992268" flag="0"/>
      <vel value="0.0045869057" flag="0"/>
      <psa03 value="0.0264995203" flag="0"/>
      <psa10 value="0.0078615503" flag="0"/>
      <psa30 value="0.0007366715" flag="0"/>
    </comp>
  </station>
  <station code="FSK" name="FSK" netid="HP" insttype="40," lat="38.4593" lon="20.5623">
    <comp name="--.HHN">
      <acc value="0.1842173135" flag="0"/>
      <vel value="0.0397619482" flag="0"/>
      <psa03 value="0.1024532743" flag="0"/>
      <psa10 value="0.0215792957" flag="0"/>
      <psa30 value="0.0027182134" flag="0"/>
    </comp>
    <comp name="--.HHZ">
      <acc value="0.2124357262" flag="0"/>
      <vel value="0.0454203249" flag="0"/>
      <psa03 value="0.1365331543" flag="0"/>
      <psa10 value="0.0232206580" flag="0"/>
      <psa30 value="0.0024479051" flag="0"/>
    </comp>
    <comp name="--.HHE">
      <acc value="0.4645086025" flag="0"/>
      <vel value="0.0854355784" flag="0"/>
      <psa03 value="0.2609094556" flag="0"/>
      <psa10 value="0.0368233639" flag="0"/>
      <psa30 value="0.0060410299" flag="0"/>
    </comp>
  </station>
  <station code="GUR" name="GUR" netid="HP" insttype="40," lat="37.9363" lon="22.3423">
    <comp name="--.HHE">
      <acc value="0.0876315546" flag="0"/>
      <vel value="0.0349552757" flag="0"/>
      <psa03 value="0.1382021679" flag="0"/>
      <psa10 value="0.0143516492" flag="0"/>
      <psa30 value="0.0010003220" flag="0"/>
    </comp>
    <comp name="--.HHN">
      <acc value="0.0638991808" flag="0"/>
      <vel value="0.0245689811" flag="0"/>
      <psa03 value="0.1217388912" flag="0"/>
      <psa10 value="0.0097819105" flag="0"/>
      <psa30 value="0.0009265058" flag="0"/>
    </comp>
    <comp name="--.HHZ">
      <acc value="0.0523808914" flag="0"/>
      <vel value="0.0210410112" flag="0"/>
      <psa03 value="0.0661179587" flag="0"/>
      <psa10 value="0.0074553393" flag="0"/>
      <psa30 value="0.0006280335" flag="0"/>
    </comp>
  </station>
  <station code="LTHK" name="LTHK" netid="HP" insttype="40," lat="37.7095" lon="20.8367">
    <comp name="--.HHZ">
      <acc value="0.1160193711" flag="0"/>
      <vel value="0.0183935767" flag="0"/>
      <psa03 value="0.1007692726" flag="0"/>
      <psa10 value="0.0081886502" flag="0"/>
      <psa30 value="0.0010292348" flag="0"/>
    </comp>
    <comp name="--.HHE">
      <acc value="0.1857325518" flag="0"/>
      <vel value="0.0320607572" flag="0"/>
      <psa03 value="0.1350218234" flag="0"/>
      <psa10 value="0.0192628687" flag="0"/>
      <psa30 value="0.0016976726" flag="0"/>
    </comp>
    <comp name="--.HHN">
      <acc value="0.1924868093" flag="0"/>
      <vel value="0.0375340318" flag="0"/>
      <psa03 value="0.1397499973" flag="0"/>
      <psa10 value="0.0173636348" flag="0"/>
      <psa30 value="0.0012639619" flag="0"/>
    </comp>
  </station>
  <station code="PDO" name="PDO" netid="HP" insttype="120s" lat="38.5986" lon="21.1833">
    <comp name="--.HHZ">
      <acc value="0.0398342030" flag="0"/>
      <vel value="0.0167226810" flag="0"/>
      <psa03 value="0.0829393899" flag="0"/>
      <psa10 value="0.0183350489" flag="0"/>
      <psa30 value="0.0021396502" flag="0"/>
    </comp>
    <comp name="--.HHE">
      <acc value="0.0459454282" flag="0"/>
      <vel value="0.0287954543" flag="0"/>
      <psa03 value="0.1307113385" flag="0"/>
      <psa10 value="0.0276260590" flag="0"/>
      <psa30 value="0.0026991640" flag="0"/>
    </comp>
    <comp name="--.HHN">
      <acc value="0.0624574474" flag="0"/>
      <vel value="0.0342557327" flag="0"/>
      <psa03 value="0.2308229809" flag="0"/>
      <psa10 value="0.0211734098" flag="0"/>
      <psa30 value="0.0020341979" flag="0"/>
    </comp>
  </station>
  <station code="PLEV" name="PLEV" netid="HP" insttype="Compact," lat="38.4124" lon="21.4073">
    <comp name="--.HHE">
      <acc value="0.0430744069" flag="0"/>
      <vel value="0.0198373100" flag="0"/>
      <psa03 value="0.1137602091" flag="0"/>
      <psa10 value="0.0276075361" flag="0"/>
      <psa30 value="0.0018475905" flag="0"/>
    </comp>
    <comp name="--.HHZ">
      <acc value="0.0279400052" flag="0"/>
      <vel value="0.0175601347" flag="0"/>
      <psa03 value="0.0483540283" flag="0"/>
      <psa10 value="0.0207422257" flag="0"/>
      <psa30 value="0.0018155290" flag="0"/>
    </comp>
    <comp name="--.HHN">
      <acc value="0.0348364906" flag="0"/>
      <vel value="0.0186173319" flag="0"/>
      <psa03 value="0.0882002316" flag="0"/>
      <psa10 value="0.0222544093" flag="0"/>
      <psa30 value="0.0018072935" flag="0"/>
    </comp>
  </station>
  <station code="PRMD" name="PRMD" netid="HP" insttype="120P," lat="39.5299" lon="21.0965">
    <comp name="--.HHE">
      <acc value="0.0045155825" flag="0"/>
      <vel value="0.0051783019" flag="0"/>
      <psa03 value="0.0157814834" flag="0"/>
      <psa10 value="0.0082697451" flag="0"/>
      <psa30 value="0.0012749568" flag="0"/>
    </comp>
    <comp name="--.HHN">
      <acc value="0.0031391891" flag="0"/>
      <vel value="0.0032822018" flag="0"/>
