<?xml version="1.0" encoding="UTF-8" standalone="yes"?>
<!DOCTYPE earthquake SYSTEM "stationlist.dtd">
<stationlist created="" xmlns="ch.ethz.sed.shakemap.usgs.xml">
  <station code="UPC" name="UPC" netid="CZ" insttype="" lat="50.5074" lon="16.0121">
    <comp name="--.HHN">
      <acc value="0.0025293959" flag="0"/>
      <vel value="0.0012555619" flag="0"/>
      <psa03 value="0.0036701469" flag="0"/>
      <psa10 value="0.0010532910" flag="0"/>
      <psa30 value="0.0000714712" flag="0"/>
    </comp>
    <comp name="--.HHE">
      <acc value="0.0019135232" flag="0"/>
      <vel value="0.0010024696" flag="0"/>
      <psa03 value="0.0052956772" flag="0"/>
      <psa10 value="0.0012192301" flag="0"/>
      <psa30 value="0.0000577601" flag="0"/>
    </comp>
    <comp name="--.HHZ">
      <acc value="0.0014098665" flag="0"/>
      <vel value="0.0007404752" flag="0"/>
      <psa03 value="0.0031573095" flag="0"/>
      <psa10 value="0.0006582577" flag="0"/>
      <psa30 value="0.0000485970" flag="0"/>
    </comp>
  </station>
</stationlist>
