<?xml version="1.0" encoding="UTF-8" standalone="yes"?>
<!DOCTYPE earthquake SYSTEM "stationlist.dtd">
<stationlist created="" xmlns="ch.ethz.sed.shakemap.usgs.xml">
  <station code="AKDM" name="AKDM" netid="KO" insttype="CMG-3ESP" lat="38.3285" lon="42.98">
    <comp name="--.HHE">
      <acc value="0.1392203966" flag="0"/>
      <vel value="0.0737160320" flag="0"/>
      <psa03 value="0.1298800107" flag="0"/>
      <psa10 value="0.1123355977" flag="0"/>
      <psa30 value="0.0060809922" flag="0"/>
    </comp>
    <comp name="--.HHZ">
      <acc value="0.1424400679" flag="0"/>
      <vel value="0.0418872473" flag="0"/>
      <psa03 value="0.1243495736" flag="0"/>
      <psa10 value="0.0292966544" flag="0"/>
      <psa30 value="0.0021440934" flag="0"/>
    </comp>
    <comp name="--.HHN">
      <acc value="0.1746812218" flag="0"/>
      <vel value="0.0593553990" flag="0"/>
      <psa03 value="0.1913025140" flag="0"/>
      <psa10 value="0.0560380335" flag="0"/>
      <psa30 value="0.0034741294" flag="0"/>
    </comp>
  </station>
</stationlist>
