<?xml version="1.0" encoding="UTF-8" standalone="yes"?>
<!DOCTYPE earthquake SYSTEM "stationlist.dtd">
<stationlist created="" xmlns="ch.ethz.sed.shakemap.usgs.xml">
  <station code="AKDM" name="AKDM" netid="KO" insttype="CMG-3ESP" lat="38.3285" lon="42.98">
    <comp name="--.HHZ">
      <acc value="0.1424400681" flag="0"/>
      <vel value="0.0418872555" flag="0"/>
      <psa03 value="0.1243495736" flag="0"/>
      <psa10 value="0.0292966652" flag="0"/>
      <psa30 value="0.0021399825" flag="0"/>
    </comp>
    <comp name="--.HHE">
      <acc value="0.1392203965" flag="0"/>
      <vel value="0.0737160326" flag="0"/>
      <psa03 value="0.1298800107" flag="0"/>
      <psa10 value="0.1123356054" flag="0"/>
      <psa30 value="0.0060804519" flag="0"/>
    </comp>
    <comp name="--.HHN">
      <acc value="0.1746812219" flag="0"/>
      <vel value="0.0593553978" flag="0"/>
      <psa03 value="0.1913025140" flag="0"/>
      <psa10 value="0.0560380410" flag="0"/>
      <psa30 value="0.0034741172" flag="0"/>
    </comp>
  </station>
</stationlist>
