<?xml version="1.0" encoding="UTF-8" standalone="yes"?>
<!DOCTYPE earthquake SYSTEM "stationlist.dtd">
<stationlist created="" xmlns="ch.ethz.sed.shakemap.usgs.xml">
  <station code="AKDM" name="AKDM" netid="KO" insttype="CMG-3ESP" lat="38.3285" lon="42.98">
    <comp name="--.HHN">
      <acc value="0.1746812218" flag="0"/>
      <vel value="0.0593553977" flag="0"/>
      <psa03 value="0.1913025140" flag="0"/>
      <psa10 value="0.0560380422" flag="0"/>
      <psa30 value="0.0034741276" flag="0"/>
    </comp>
    <comp name="--.HHE">
      <acc value="0.1392203966" flag="0"/>
      <vel value="0.0737160316" flag="0"/>
      <psa03 value="0.1298800107" flag="0"/>
      <psa10 value="0.1123356072" flag="0"/>
      <psa30 value="0.0060804695" flag="0"/>
    </comp>
    <comp name="--.HHZ">
      <acc value="0.1424400682" flag="0"/>
      <vel value="0.0418872567" flag="0"/>
      <psa03 value="0.1243495736" flag="0"/>
      <psa10 value="0.0292966629" flag="0"/>
      <psa30 value="0.0021415548" flag="0"/>
    </comp>
  </station>
  <station code="GURO" name="GURO" netid="KO" insttype="CMG-3T" lat="38.5509" lon="42.0322">
    <comp name="--.HHE">
      <acc value="0.0351140048" flag="0"/>
      <vel value="0.0202600662" flag="0"/>
      <psa03 value="0.1021836919" flag="0"/>
      <psa10 value="0.0235968091" flag="0"/>
      <psa30 value="0.0009219278" flag="0"/>
    </comp>
    <comp name="--.HHZ">
      <acc value="0.0203241191" flag="0"/>
      <vel value="0.0123273907" flag="0"/>
      <psa03 value="0.0662808908" flag="0"/>
      <psa10 value="0.0095401758" flag="0"/>
      <psa30 value="0.0007430179" flag="0"/>
    </comp>
    <comp name="--.HHN">
      <acc value="0.0333294027" flag="0"/>
      <vel value="0.0200393763" flag="0"/>
      <psa03 value="0.1504340910" flag="0"/>
      <psa10 value="0.0219131129" flag="0"/>
      <psa30 value="0.0009399847" flag="0"/>
    </comp>
  </station>
</stationlist>
