<?xml version="1.0" encoding="UTF-8" standalone="yes"?>
<!DOCTYPE earthquake SYSTEM "stationlist.dtd">
<stationlist created="" xmlns="ch.ethz.sed.shakemap.usgs.xml">
  <station code="BERA" name="BERA" netid="AC" insttype="" commtype="DIG" lat="40.7081" lon="19.9455">
    <comp name="00.HHZ">
      <acc value="0.0057021823" flag="0"/>
      <vel value="0.0015548830" flag="0"/>
      <psa03 value="0.0107324517" flag="0"/>
      <psa10 value="0.0023930458" flag="0"/>
      <psa30 value="0.0002879715" flag="0"/>
    </comp>
    <comp name="00.HHN">
      <acc value="0.0078549303" flag="0"/>
      <vel value="0.0035016086" flag="0"/>
      <psa03 value="0.0199864716" flag="0"/>
      <psa10 value="0.0043130216" flag="0"/>
      <psa30 value="0.0003537785" flag="0"/>
    </comp>
    <comp name="00.HHE">
      <acc value="0.0079002442" flag="0"/>
      <vel value="0.0035291685" flag="0"/>
      <psa03 value="0.0203657732" flag="0"/>
      <psa10 value="0.0022669252" flag="0"/>
      <psa30 value="0.0002657896" flag="0"/>
    </comp>
  </station>
  <station code="FLO2" name="FLO2" netid="HI" insttype="unknown" commtype="DIG" lat="40.7801" lon="21.4052">
    <comp name="--.HNE">
      <acc value="0.1861208847" flag="0"/>
      <vel value="0.0693059131" flag="0"/>
      <psa03 value="0.3442918941" flag="0"/>
      <psa10 value="0.0246173233" flag="0"/>
      <psa30 value="0.0015474694" flag="0"/>
    </comp>
    <comp name="--.HNZ">
      <acc value="0.0929095746" flag="0"/>
      <vel value="0.0298236692" flag="0"/>
      <psa03 value="0.1246785631" flag="0"/>
      <psa10 value="0.0081439912" flag="0"/>
      <psa30 value="0.0006513988" flag="0"/>
    </comp>
    <comp name="--.HNN">
      <acc value="0.1297914660" flag="0"/>
      <vel value="0.0526383693" flag="0"/>
      <psa03 value="0.2706148324" flag="0"/>
      <psa10 value="0.0304136170" flag="0"/>
      <psa30 value="0.0018754711" flag="0"/>
    </comp>
  </station>
  <station code="LMS2" name="LMS2" netid="HI" insttype="CMG-5TD,ACCELEROMETER,GURALP" commtype="DIG" lat="40.835" lon="21.1418">
    <comp name="--.HNZ">
      <acc value="0.0936420329" flag="0"/>
      <vel value="0.0152375569" flag="0"/>
      <psa03 value="0.0428687615" flag="0"/>
      <psa10 value="0.0037458501" flag="0"/>
      <psa30 value="0.0007244701" flag="0"/>
    </comp>
    <comp name="--.HNE">
      <acc value="0.2009217605" flag="0"/>
      <vel value="0.0591777821" flag="0"/>
      <psa03 value="0.1910670327" flag="0"/>
      <psa10 value="0.0084106646" flag="0"/>
      <psa30 value="0.0008502809" flag="0"/>
    </comp>
    <comp name="--.HNN">
      <acc value="0.2507151617" flag="0"/>
      <vel value="0.0710831961" flag="0"/>
      <psa03 value="0.2546198818" flag="0"/>
      <psa10 value="0.0088713928" flag="0"/>
      <psa30 value="0.0008858973" flag="0"/>
    </comp>
  </station>
  <station code="BIA" name="BIA" netid="MK" insttype="120" commtype="DIG" lat="41.032" lon="21.3304">
    <comp name="00.HHZ">
      <acc value="0.0560370607" flag="0"/>
      <vel value="0.0142545863" flag="0"/>
      <psa03 value="0.0766739870" flag="0"/>
      <psa10 value="0.0062738168" flag="0"/>
      <psa30 value="0.0005758585" flag="0"/>
    </comp>
    <comp name="00.HHN">
      <acc value="0.1156673144" flag="0"/>
      <vel value="0.0342999043" flag="0"/>
      <psa03 value="0.1504021024" flag="0"/>
      <psa10 value="0.0083990175" flag="0"/>
      <psa30 value="0.0008628670" flag="0"/>
    </comp>
    <comp name="00.HHE">
      <acc value="0.0883607647" flag="0"/>
      <vel value="0.0225312591" flag="0"/>
      <psa03 value="0.1388907343" flag="0"/>
      <psa10 value="0.0077426762" flag="0"/>
      <psa30 value="0.0007311577" flag="0"/>
    </comp>
  </station>
  <station code="KRUS" name="KRUS" netid="MK" insttype="120" commtype="DIG" lat="41.3696" lon="21.2467">
    <comp name="00.HHE">
      <acc value="0.1029652437" flag="0"/>
      <vel value="0.0236661782" flag="0"/>
      <psa03 value="0.1941016470" flag="0"/>
      <psa10 value="0.0052413691" flag="0"/>
      <psa30 value="0.0006852407" flag="0"/>
    </comp>
    <comp name="00.HHN">
      <acc value="0.1211613472" flag="0"/>
      <vel value="0.0250806783" flag="0"/>
      <psa03 value="0.0716235391" flag="0"/>
      <psa10 value="0.0053822773" flag="0"/>
      <psa30 value="0.0006619709" flag="0"/>
    </comp>
    <comp name="00.HHZ">
      <acc value="0.0846966839" flag="0"/>
      <vel value="0.0177227384" flag="0"/>
      <psa03 value="0.0533022017" flag="0"/>
      <psa10 value="0.0068251284" flag="0"/>
      <psa30 value="0.0008333806" flag="0"/>
    </comp>
  </station>
  <station code="TIR" name="TIR" netid="MN" insttype="" commtype="DIG" lat="41.3472" lon="19.8631">
    <comp name="--.HHE">
      <acc value="0.0139663944" flag="0"/>
      <vel value="0.0085870358" flag="0"/>
      <psa03 value="0.0318546319" flag="0"/>
      <psa10 value="0.0052435123" flag="0"/>
      <psa30 value="0.0004315481" flag="0"/>
    </comp>
    <comp name="--.HHZ">
      <acc value="0.0104474620" flag="0"/>
      <vel value="0.0051392857" flag="0"/>
      <psa03 value="0.0231170413" flag="0"/>
      <psa10 value="0.0050297969" flag="0"/>
      <psa30 value="0.0005349432" flag="0"/>
    </comp>
    <comp name="--.HHN">
      <acc value="0.0154279390" flag="0"/>
      <vel value="0.0070960567" flag="0"/>
      <psa03 value="0.0343021917" flag="0"/>
      <psa10 value="0.0094992770" flag="0"/>
      <psa30 value="0.0008727727" flag="0"/>
    </comp>
  </station>
</stationlist>
