<?xml version="1.0" encoding="UTF-8" standalone="yes"?>
<!DOCTYPE earthquake SYSTEM "stationlist.dtd">
<stationlist created="" xmlns="ch.ethz.sed.shakemap.usgs.xml">
  <station code="BERA" name="BERA" netid="AC" insttype="" commtype="DIG" lat="40.7081" lon="19.9455">
    <comp name="00.HHE">
      <acc value="0.0079002445" flag="0"/>
      <vel value="0.0035291684" flag="0"/>
      <psa03 value="0.0203657732" flag="0"/>
      <psa10 value="0.0022669252" flag="0"/>
      <psa30 value="0.0002658031" flag="0"/>
    </comp>
    <comp name="00.HHN">
      <acc value="0.0078549305" flag="0"/>
      <vel value="0.0035016086" flag="0"/>
      <psa03 value="0.0199864716" flag="0"/>
      <psa10 value="0.0043130216" flag="0"/>
      <psa30 value="0.0003537776" flag="0"/>
    </comp>
    <comp name="00.HHZ">
      <acc value="0.0057021820" flag="0"/>
      <vel value="0.0015548835" flag="0"/>
      <psa03 value="0.0107324517" flag="0"/>
      <psa10 value="0.0023930458" flag="0"/>
      <psa30 value="0.0002879735" flag="0"/>
    </comp>
  </station>
  <station code="LSK" name="LSK" netid="AC" insttype="" commtype="DIG" lat="40.1499" lon="20.5987">
    <comp name="00.HHE">
      <acc value="0.0042848717" flag="0"/>
      <vel value="0.0029457051" flag="0"/>
      <psa03 value="0.0147258431" flag="0"/>
      <psa10 value="0.0058450494" flag="0"/>
      <psa30 value="0.0007510462" flag="0"/>
    </comp>
    <comp name="00.HHZ">
      <acc value="0.0023967906" flag="0"/>
      <vel value="0.0028895646" flag="0"/>
      <psa03 value="0.0074017349" flag="0"/>
      <psa10 value="0.0032099024" flag="0"/>
      <psa30 value="0.0003665304" flag="0"/>
    </comp>
    <comp name="00.HHN">
      <acc value="0.0067742772" flag="0"/>
      <vel value="0.0042997946" flag="0"/>
      <psa03 value="0.0200767317" flag="0"/>
      <psa10 value="0.0074280966" flag="0"/>
      <psa30 value="0.0005571660" flag="0"/>
    </comp>
  </station>
  <station code="PUK" name="PUK" netid="AC" insttype="" commtype="DIG" lat="42.0426" lon="19.8926">
    <comp name="00.HHE">
      <acc value="0.0000286319" flag="0"/>
      <vel value="0.0000113411" flag="0"/>
      <psa03 value="0.0000614617" flag="0"/>
      <psa10 value="0.0000098414" flag="0"/>
      <psa30 value="0.0000010426" flag="0"/>
    </comp>
    <comp name="00.HHN">
      <acc value="0.0000200652" flag="0"/>
      <vel value="0.0000077325" flag="0"/>
      <psa03 value="0.0000294317" flag="0"/>
      <psa10 value="0.0000057905" flag="0"/>
      <psa30 value="0.0000005686" flag="0"/>
    </comp>
    <comp name="00.HHZ">
      <acc value="0.0000192976" flag="0"/>
      <vel value="0.0000066418" flag="0"/>
      <psa03 value="0.0000307668" flag="0"/>
      <psa10 value="0.0000050290" flag="0"/>
      <psa30 value="0.0000001944" flag="0"/>
    </comp>
  </station>
  <station code="FLO2" name="FLO2" netid="HI" insttype="unknown" commtype="DIG" lat="40.7801" lon="21.4052">
    <comp name="--.HNE">
      <acc value="0.1861208820" flag="0"/>
      <vel value="0.0693059135" flag="0"/>
      <psa03 value="0.3442918941" flag="0"/>
      <psa10 value="0.0246173243" flag="0"/>
      <psa30 value="0.0015474919" flag="0"/>
    </comp>
    <comp name="--.HNZ">
      <acc value="0.0929095781" flag="0"/>
      <vel value="0.0298236707" flag="0"/>
      <psa03 value="0.1246785631" flag="0"/>
      <psa10 value="0.0081439906" flag="0"/>
      <psa30 value="0.0006511555" flag="0"/>
    </comp>
    <comp name="--.HNN">
      <acc value="0.1297914671" flag="0"/>
      <vel value="0.0526383692" flag="0"/>
      <psa03 value="0.2706148324" flag="0"/>
      <psa10 value="0.0304136182" flag="0"/>
      <psa30 value="0.0018757123" flag="0"/>
    </comp>
  </station>
  <station code="LMS2" name="LMS2" netid="HI" insttype="CMG-5TD,ACCELEROMETER,GURALP" commtype="DIG" lat="40.835" lon="21.1418">
    <comp name="--.HNZ">
      <acc value="0.0936420302" flag="0"/>
      <vel value="0.0152375569" flag="0"/>
      <psa03 value="0.0428687615" flag="0"/>
      <psa10 value="0.0037458461" flag="0"/>
      <psa30 value="0.0007244859" flag="0"/>
    </comp>
    <comp name="--.HNN">
      <acc value="0.2507151461" flag="0"/>
      <vel value="0.0710831961" flag="0"/>
      <psa03 value="0.2546198818" flag="0"/>
      <psa10 value="0.0088713926" flag="0"/>
      <psa30 value="0.0008858711" flag="0"/>
    </comp>
    <comp name="--.HNE">
      <acc value="0.2009217578" flag="0"/>
      <vel value="0.0591777819" flag="0"/>
      <psa03 value="0.1910670327" flag="0"/>
      <psa10 value="0.0084106652" flag="0"/>
      <psa30 value="0.0008503023" flag="0"/>
    </comp>
  </station>
  <station code="PTO1" name="PTO1" netid="HI" insttype="unknown" commtype="DIG" lat="40.5101" lon="21.6816">
    <comp name="--.HNE">
      <acc value="0.0197687964" flag="0"/>
      <vel value="0.0104485907" flag="0"/>
      <psa03 value="0.0563329337" flag="0"/>
      <psa10 value="0.0125174314" flag="0"/>
      <psa30 value="0.0010652091" flag="0"/>
    </comp>
    <comp name="--.HNN">
      <acc value="0.0205557657" flag="0"/>
      <vel value="0.0096919906" flag="0"/>
      <psa03 value="0.0431522742" flag="0"/>
      <psa10 value="0.0188932546" flag="0"/>
      <psa30 value="0.0011395511" flag="0"/>
    </comp>
    <comp name="--.HNZ">
      <acc value="0.0140785943" flag="0"/>
      <vel value="0.0052733092" flag="0"/>
      <psa03 value="0.0378508883" flag="0"/>
      <psa10 value="0.0110210245" flag="0"/>
      <psa30 value="0.0004774377" flag="0"/>
    </comp>
  </station>
  <station code="SIA1" name="SIA1" netid="HI" insttype="unknown" commtype="DIG" lat="40.2573" lon="21.5534">
    <comp name="--.HNE">
      <acc value="0.0239399334" flag="0"/>
      <vel value="0.0067281112" flag="0"/>
      <psa03 value="0.0384162673" flag="0"/>
      <psa10 value="0.0028981627" flag="0"/>
      <psa30 value="0.0002243632" flag="0"/>
    </comp>
    <comp name="--.HNZ">
      <acc value="0.0113213414" flag="0"/>
      <vel value="0.0045444153" flag="0"/>
      <psa03 value="0.0239357658" flag="0"/>
      <psa10 value="0.0027902371" flag="0"/>
      <psa30 value="0.0003885025" flag="0"/>
    </comp>
    <comp name="--.HNN">
      <acc value="0.0172317757" flag="0"/>
      <vel value="0.0062381845" flag="0"/>
      <psa03 value="0.0429662182" flag="0"/>
      <psa10 value="0.0048515454" flag="0"/>
      <psa30 value="0.0002090236" flag="0"/>
    </comp>
  </station>
  <station code="PENT" name="PENT" netid="HL" insttype="Horizon,120s,1200" commtype="DIG" lat="40.1961" lon="21.1381">
    <comp name="--.HHE">
      <acc value="0.0098043256" flag="0"/>
      <vel value="0.0055682074" flag="0"/>
      <psa03 value="0.0287766906" flag="0"/>
      <psa10 value="0.0032260839" flag="0"/>
      <psa30 value="0.0004580345" flag="0"/>
    </comp>
    <comp name="--.HHN">
      <acc value="0.0058273330" flag="0"/>
      <vel value="0.0035096028" flag="0"/>
      <psa03 value="0.0226637891" flag="0"/>
      <psa10 value="0.0046625658" flag="0"/>
      <psa30 value="0.0002263694" flag="0"/>
    </comp>
    <comp name="--.HHZ">
      <acc value="0.0046677245" flag="0"/>
      <vel value="0.0032720059" flag="0"/>
      <psa03 value="0.0114954423" flag="0"/>
      <psa10 value="0.0034845157" flag="0"/>
      <psa30 value="0.0004345272" flag="0"/>
    </comp>
  </station>
  <station code="BIA" name="BIA" netid="MK" insttype="120" commtype="DIG" lat="41.032" lon="21.3304">
    <comp name="00.HHE">
      <acc value="0.0883607642" flag="0"/>
      <vel value="0.0225312592" flag="0"/>
      <psa03 value="0.1388907343" flag="0"/>
      <psa10 value="0.0077426761" flag="0"/>
      <psa30 value="0.0007311538" flag="0"/>
    </comp>
    <comp name="00.HHZ">
      <acc value="0.0560370614" flag="0"/>
      <vel value="0.0142545860" flag="0"/>
      <psa03 value="0.0766739870" flag="0"/>
      <psa10 value="0.0062738167" flag="0"/>
      <psa30 value="0.0005758581" flag="0"/>
    </comp>
    <comp name="00.HHN">
      <acc value="0.1156673141" flag="0"/>
      <vel value="0.0342999045" flag="0"/>
      <psa03 value="0.1504021024" flag="0"/>
      <psa10 value="0.0083990173" flag="0"/>
      <psa30 value="0.0008628334" flag="0"/>
    </comp>
  </station>
  <station code="KRUS" name="KRUS" netid="MK" insttype="120" commtype="DIG" lat="41.3696" lon="21.2467">
    <comp name="00.HHZ">
      <acc value="0.0846966873" flag="0"/>
      <vel value="0.0177227384" flag="0"/>
      <psa03 value="0.0533022017" flag="0"/>
      <psa10 value="0.0068251285" flag="0"/>
      <psa30 value="0.0008333759" flag="0"/>
    </comp>
    <comp name="00.HHN">
      <acc value="0.1211613465" flag="0"/>
      <vel value="0.0250806785" flag="0"/>
      <psa03 value="0.0716235391" flag="0"/>
      <psa10 value="0.0053822774" flag="0"/>
      <psa30 value="0.0006619862" flag="0"/>
    </comp>
    <comp name="00.HHE">
      <acc value="0.1029652460" flag="0"/>
      <vel value="0.0236661783" flag="0"/>
      <psa03 value="0.1941016470" flag="0"/>
      <psa10 value="0.0052413692" flag="0"/>
      <psa30 value="0.0006852480" flag="0"/>
    </comp>
  </station>
  <station code="OHR" name="OHR" netid="MK" insttype="120" commtype="DIG" lat="41.1117" lon="20.7924">
    <comp name="00.HHN">
      <acc value="1.4599820640" flag="0"/>
      <vel value="0.6306428762" flag="0"/>
      <psa03 value="2.2248695129" flag="0"/>
      <psa10 value="0.2278266013" flag="0"/>
      <psa30 value="0.0228666871" flag="0"/>
    </comp>
    <comp name="00.HHE">
      <acc value="2.0458194893" flag="0"/>
      <vel value="1.2866881471" flag="0"/>
      <psa03 value="4.8129382042" flag="0"/>
      <psa10 value="0.6787213214" flag="0"/>
      <psa30 value="0.0625560171" flag="0"/>
    </comp>
    <comp name="00.HHZ">
      <acc value="1.1871603212" flag="0"/>
      <vel value="0.5717269492" flag="0"/>
      <psa03 value="2.1388991321" flag="0"/>
      <psa10 value="0.1274233900" flag="0"/>
      <psa30 value="0.0128775442" flag="0"/>
    </comp>
  </station>
  <station code="OTOV" name="OTOV" netid="MK" insttype="120" commtype="DIG" lat="41.7786" lon="21.7558">
    <comp name="00.HHZ">
      <acc value="0.0124458912" flag="0"/>
      <vel value="0.0048414534" flag="0"/>
      <psa03 value="0.0331993968" flag="0"/>
      <psa10 value="0.0031072769" flag="0"/>
      <psa30 value="0.0002735253" flag="0"/>
    </comp>
    <comp name="00.HHE">
      <acc value="0.0218126323" flag="0"/>
      <vel value="0.0075234197" flag="0"/>
      <psa03 value="0.0319491099" flag="0"/>
      <psa10 value="0.0041839257" flag="0"/>
      <psa30 value="0.0004024467" flag="0"/>
    </comp>
    <comp name="00.HHN">
      <acc value="0.0214169479" flag="0"/>
      <vel value="0.0073140132" flag="0"/>
      <psa03 value="0.0520612251" flag="0"/>
      <psa10 value="0.0042791041" flag="0"/>
      <psa30 value="0.0002197508" flag="0"/>
    </comp>
  </station>
  <station code="SKO" name="SKO" netid="MK" insttype="120" commtype="DIG" lat="41.9715" lon="21.4344">
    <comp name="00.HHE">
      <acc value="0.0227338581" flag="0"/>
      <vel value="0.0084338109" flag="0"/>
      <psa03 value="0.0742833210" flag="0"/>
      <psa10 value="0.0046681331" flag="0"/>
      <psa30 value="0.0003806703" flag="0"/>
    </comp>
    <comp name="00.HHZ">
      <acc value="0.0164018034" flag="0"/>
      <vel value="0.0061600978" flag="0"/>
      <psa03 value="0.0492289402" flag="0"/>
      <psa10 value="0.0021368003" flag="0"/>
      <psa30 value="0.0002213062" flag="0"/>
    </comp>
    <comp name="00.HHN">
      <acc value="0.0338538221" flag="0"/>
      <vel value="0.0161786469" flag="0"/>
      <psa03 value="0.1385190869" flag="0"/>
      <psa10 value="0.0037900852" flag="0"/>
      <psa30 value="0.0003724312" flag="0"/>
    </comp>
  </station>
  <station code="TIR" name="TIR" netid="MN" insttype="" commtype="DIG" lat="41.3472" lon="19.8631">
    <comp name="--.HHN">
      <acc value="0.0154279372" flag="0"/>
      <vel value="0.0070960564" flag="0"/>
      <psa03 value="0.0343021917" flag="0"/>
      <psa10 value="0.0094992771" flag="0"/>
      <psa30 value="0.0008727890" flag="0"/>
    </comp>
    <comp name="--.HHE">
      <acc value="0.0139663934" flag="0"/>
      <vel value="0.0085870361" flag="0"/>
      <psa03 value="0.0318546319" flag="0"/>
      <psa10 value="0.0052435123" flag="0"/>
      <psa30 value="0.0004315533" flag="0"/>
    </comp>
    <comp name="--.HHZ">
      <acc value="0.0104474614" flag="0"/>
      <vel value="0.0051392854" flag="0"/>
      <psa03 value="0.0231170413" flag="0"/>
      <psa10 value="0.0050297969" flag="0"/>
      <psa30 value="0.0005466321" flag="0"/>
    </comp>
  </station>
</stationlist>
