<?xml version="1.0" encoding="UTF-8" standalone="yes"?>
<!DOCTYPE earthquake SYSTEM "stationlist.dtd">
<stationlist created="" xmlns="ch.ethz.sed.shakemap.usgs.xml">
  <station code="ITM" name="ITM" netid="HL" source="NOA" insttype="DR24" lat="37.1787" lon="21.9252">
    <comp name="--.HHE">
      <acc value="0.0344433620" flag="0"/>
      <vel value="0.0219909664" flag="0"/>
      <psa03 value="0.0735462316" flag="0"/>
      <psa10 value="0.0226942411" flag="0"/>
      <psa30 value="0.0021561043" flag="0"/>
    </comp>
    <comp name="--.HHN">
      <acc value="0.0586328131" flag="0"/>
      <vel value="0.0228939788" flag="0"/>
      <psa03 value="0.1385478699" flag="0"/>
      <psa10 value="0.0181348127" flag="0"/>
      <psa30 value="0.0023003923" flag="0"/>
    </comp>
    <comp name="--.HHZ">
      <acc value="0.0367369272" flag="0"/>
      <vel value="0.0168167334" flag="0"/>
      <psa03 value="0.0662390629" flag="0"/>
      <psa10 value="0.0158501679" flag="0"/>
      <psa30 value="0.0008229817" flag="0"/>
    </comp>
  </station>
  <station code="RLS" name="RLS" netid="HL" source="NOA" insttype="120" lat="38.0559" lon="21.4647">
    <comp name="--.HHE">
      <acc value="0.0069051603" flag="0"/>
      <vel value="0.0062115770" flag="0"/>
      <psa03 value="0.0178981953" flag="0"/>
      <psa10 value="0.0130352267" flag="0"/>
      <psa30 value="0.0010827641" flag="0"/>
    </comp>
    <comp name="--.HHN">
      <acc value="0.0053515183" flag="0"/>
      <vel value="0.0067101522" flag="0"/>
      <psa03 value="0.0154606600" flag="0"/>
      <psa10 value="0.0119693772" flag="0"/>
      <psa30 value="0.0009895553" flag="0"/>
    </comp>
    <comp name="--.HHZ">
      <acc value="0.0035440512" flag="0"/>
      <vel value="0.0030748334" flag="0"/>
      <psa03 value="0.0102053869" flag="0"/>
      <psa10 value="0.0047953567" flag="0"/>
      <psa30 value="0.0009057280" flag="0"/>
    </comp>
  </station>
  <station code="VLI" name="VLI" netid="HL" source="NOA" insttype="60" lat="36.718" lon="22.9469">
    <comp name="--.HHE">
      <acc value="0.0074995216" flag="0"/>
      <vel value="0.0071462609" flag="0"/>
      <psa03 value="0.0224443805" flag="0"/>
      <psa10 value="0.0117128696" flag="0"/>
      <psa30 value="0.0007463415" flag="0"/>
    </comp>
    <comp name="--.HHN">
      <acc value="0.0069652507" flag="0"/>
      <vel value="0.0063531033" flag="0"/>
      <psa03 value="0.0217402234" flag="0"/>
      <psa10 value="0.0136267008" flag="0"/>
      <psa30 value="0.0008384990" flag="0"/>
    </comp>
    <comp name="--.HHZ">
      <acc value="0.0056172387" flag="0"/>
      <vel value="0.0041135643" flag="0"/>
      <psa03 value="0.0229656178" flag="0"/>
      <psa10 value="0.0047050606" flag="0"/>
      <psa30 value="0.0005317455" flag="0"/>
    </comp>
  </station>
  <station code="AMT" name="AMT" netid="HP" source="NOA" insttype="CMG-3T," lat="37.5324" lon="21.7089">
    <comp name="00.HHE">
      <acc value="0.0311290079" flag="0"/>
      <vel value="0.0242517059" flag="0"/>
      <psa03 value="0.1083173405" flag="0"/>
      <psa10 value="0.0287253652" flag="0"/>
      <psa30 value="0.0016141322" flag="0"/>
    </comp>
    <comp name="00.HHN">
      <acc value="0.0356313150" flag="0"/>
      <vel value="0.0221927974" flag="0"/>
      <psa03 value="0.1153083225" flag="0"/>
      <psa10 value="0.0266969517" flag="0"/>
      <psa30 value="0.0010230953" flag="0"/>
    </comp>
    <comp name="00.HHZ">
      <acc value="0.0276201449" flag="0"/>
      <vel value="0.0188338111" flag="0"/>
      <psa03 value="0.1006852513" flag="0"/>
      <psa10 value="0.0119691120" flag="0"/>
      <psa30 value="0.0012345299" flag="0"/>
    </comp>
  </station>
  <station code="DRO" name="DRO" netid="HP" source="NOA" insttype="120P," lat="37.952" lon="21.71">
    <comp name="--.HHE">
      <acc value="0.0187792588" flag="0"/>
      <vel value="0.0123900290" flag="0"/>
      <psa03 value="0.0559313450" flag="0"/>
      <psa10 value="0.0130207794" flag="0"/>
      <psa30 value="0.0017774903" flag="0"/>
    </comp>
    <comp name="--.HHN">
      <acc value="0.0195580246" flag="0"/>
      <vel value="0.0132410148" flag="0"/>
      <psa03 value="0.0625387340" flag="0"/>
      <psa10 value="0.0228934035" flag="0"/>
      <psa30 value="0.0015701737" flag="0"/>
    </comp>
    <comp name="--.HHZ">
      <acc value="0.0086177078" flag="0"/>
      <vel value="0.0070214095" flag="0"/>
      <psa03 value="0.0294304627" flag="0"/>
      <psa10 value="0.0128912514" flag="0"/>
      <psa30 value="0.0010783457" flag="0"/>
    </comp>
  </station>
  <station code="LTHK" name="LTHK" netid="HP" source="NOA" insttype="40," lat="37.7095" lon="20.8367">
    <comp name="--.HHE">
      <acc value="0.0291285284" flag="0"/>
      <vel value="0.0125944093" flag="0"/>
      <psa03 value="0.0645929554" flag="0"/>
      <psa10 value="0.0132139556" flag="0"/>
      <psa30 value="0.0011026738" flag="0"/>
    </comp>
    <comp name="--.HHN">
      <acc value="0.0320068421" flag="0"/>
      <vel value="0.0150021303" flag="0"/>
      <psa03 value="0.1121179569" flag="0"/>
      <psa10 value="0.0212324345" flag="0"/>
      <psa30 value="0.0010900010" flag="0"/>
    </comp>
    <comp name="--.HHZ">
      <acc value="0.0151806037" flag="0"/>
      <vel value="0.0060900471" flag="0"/>
      <psa03 value="0.0432960899" flag="0"/>
      <psa10 value="0.0080245400" flag="0"/>
      <psa30 value="0.0008560189" flag="0"/>
    </comp>
  </station>
  <station code="PYL" name="PYL" netid="HP" source="NOA" insttype="120s" lat="36.8955" lon="21.742">
    <comp name="--.HHE">
      <acc value="0.0013008603" flag="0"/>
      <vel value="0.0003373134" flag="0"/>
      <psa03 value="0.0013265644" flag="0"/>
      <psa10 value="0.0001407417" flag="0"/>
      <psa30 value="0.0000147953" flag="0"/>
    </comp>
    <comp name="--.HHN">
      <acc value="0.0075436243" flag="0"/>
      <vel value="0.0022462209" flag="0"/>
      <psa03 value="0.0144247932" flag="0"/>
      <psa10 value="0.0018608453" flag="0"/>
      <psa30 value="0.0001911339" flag="0"/>
    </comp>
    <comp name="--.HHZ">
      <acc value="0.0039318056" flag="0"/>
      <vel value="0.0010453169" flag="0"/>
      <psa03 value="0.0059914062" flag="0"/>
      <psa10 value="0.0008063714" flag="0"/>
      <psa30 value="0.0000464713" flag="0"/>
    </comp>
  </station>
</stationlist>
