<stationlist xmlns:esm="https://esm-db.eu/esmws/shakemap/1/" created="1783994056">
	<station code="ARG2" name="ARG2" netid="HI" source="ITSAK Strong Motion Network" insttype="" lat="38.1783" lon="20.4878" esm:processing="manual (Paolucci et al 2011)" esm:quality="bad">
		<comp name="--.HNE" depth="0.0">
			<acc value="0.0121306980291777" flag="0"/>
			<vel value="0.0069847410813882" flag="0"/>
			<psa03 value="0.0295298563680594" flag="0"/>
			<psa10 value="0.00490866748809059" flag="0"/>
			<psa30 value="0.000765091733172447" flag="0"/>
		</comp>
		<comp name="--.HNN" depth="0.0">
			<acc value="0.0102365232416344" flag="0"/>
			<vel value="0.00806451710720124" flag="0"/>
			<psa03 value="0.0235791428878292" flag="0"/>
			<psa10 value="0.0110253745548745" flag="0"/>
			<psa30 value="0.000948982202373544" flag="0"/>
		</comp>
		<comp name="--.HNZ" depth="0.0">
			<acc value="0.00859434997473652" flag="0"/>
			<vel value="0.00401142949639936" flag="0"/>
			<psa03 value="0.0274717148636189" flag="0"/>
			<psa10 value="0.00508181982770331" flag="0"/>
			<psa30 value="0.000632654801582362" flag="0"/>
		</comp>
	</station>
	<station code="KLV1" name="KLV1" netid="HI" source="ITSAK Strong Motion Network" insttype="" lat="38.03256" lon="22.10797" esm:processing="manual (Paolucci et al 2011)" esm:quality="good">
		<comp name="--.HNE" depth="0.0">
			<acc value="0.0107985233860583" flag="0"/>
			<vel value="0.0067051144614863" flag="0"/>
			<psa03 value="0.0361964451541819" flag="0"/>
			<psa10 value="0.0104737031472712" flag="0"/>
			<psa30 value="0.000758380402179706" flag="0"/>
		</comp>
		<comp name="--.HNN" depth="0.0">
			<acc value="0.0085321365853939" flag="0"/>
			<vel value="0.00604343637495557" flag="0"/>
			<psa03 value="0.0264426441113986" flag="0"/>
			<psa10 value="0.0107112842644143" flag="0"/>
			<psa30 value="0.000674712475803538" flag="0"/>
		</comp>
		<comp name="--.HNZ" depth="0.0">
			<acc value="0.00432236901855201" flag="0"/>
			<vel value="0.00386809542023993" flag="0"/>
			<psa03 value="0.0119909113736968" flag="0"/>
			<psa10 value="0.00840392866910998" flag="0"/>
			<psa30 value="0.000392836574108426" flag="0"/>
		</comp>
	</station>
	<station code="KRI1" name="KRI1" netid="HI" source="ITSAK Strong Motion Network" insttype="" lat="37.6621" lon="20.8172" esm:processing="manual (Paolucci et al 2011)" esm:quality="best">
		<comp name="--.HNE" depth="0.0">
			<acc value="0.0318097257991991" flag="0"/>
			<vel value="0.0123881025886265" flag="0"/>
			<psa03 value="0.0849207081614798" flag="0"/>
			<psa10 value="0.0157367289117785" flag="0"/>
			<psa30 value="0.00107873460156653" flag="0"/>
		</comp>
		<comp name="--.HNN" depth="0.0">
			<acc value="0.0238015197384954" flag="0"/>
			<vel value="0.013849338783089" flag="0"/>
			<psa03 value="0.0578964153640437" flag="0"/>
			<psa10 value="0.0233071102715901" flag="0"/>
			<psa30 value="0.00144830522823346" flag="0"/>
		</comp>
		<comp name="--.HNZ" depth="0.0">
			<acc value="0.014600617802182" flag="0"/>
			<vel value="0.00632169366105186" flag="0"/>
			<psa03 value="0.0303799582938065" flag="0"/>
			<psa10 value="0.00702676354939958" flag="0"/>
			<psa30 value="0.000740036097466215" flag="0"/>
		</comp>
	</station>
	<station code="NPS1" name="NPS1" netid="HI" source="ITSAK Strong Motion Network" insttype="" lat="36.51263" lon="23.06248" esm:processing="manual (Paolucci et al 2011)" esm:quality="good">
		<comp name="--.HNE" depth="0.0">
			<acc value="0.0113927746384866" flag="0"/>
			<vel value="0.0107938678390552" flag="0"/>
			<psa03 value="0.0431762293866323" flag="0"/>
			<psa10 value="0.0125515312226238" flag="0"/>
			<psa30 value="0.00096151002022666" flag="0"/>
		</comp>
		<comp name="--.HNN" depth="0.0">
			<acc value="0.0104185804715583" flag="0"/>
			<vel value="0.00908994179377761" flag="0"/>
			<psa03 value="0.0314090290460268" flag="0"/>
			<psa10 value="0.0106146410981188" flag="0"/>
			<psa30 value="0.00124920240878215" flag="0"/>
		</comp>
		<comp name="--.HNZ" depth="0.0">
			<acc value="0.00500253597579441" flag="0"/>
			<vel value="0.00315228402095855" flag="0"/>
			<psa03 value="0.020089250771604" flag="0"/>
			<psa10 value="0.00483618511336899" flag="0"/>
			<psa30 value="0.000743168051929494" flag="0"/>
		</comp>
	</station>
	<station code="PYL1" name="PYL1" netid="HI" source="ITSAK Strong Motion Network" insttype="" lat="36.914188" lon="21.695161" esm:processing="manual (Paolucci et al 2011)" esm:quality="best">
		<comp name="--.HNE" depth="0.0">
			<acc value="0.104826555128994" flag="0"/>
			<vel value="0.0730460210815574" flag="0"/>
			<psa03 value="0.378026903717778" flag="0"/>
			<psa10 value="0.0465256309740761" flag="0"/>
			<psa30 value="0.00425543127146383" flag="0"/>
		</comp>
		<comp name="--.HNN" depth="0.0">
			<acc value="0.125428156884292" flag="0"/>
			<vel value="0.0408299451527053" flag="0"/>
			<psa03 value="0.327736663478841" flag="0"/>
			<psa10 value="0.0317110389407001" flag="0"/>
			<psa30 value="0.00234001740613561" flag="0"/>
		</comp>
		<comp name="--.HNZ" depth="0.0">
			<acc value="0.0881264320569292" flag="0"/>
			<vel value="0.0248944944229928" flag="0"/>
			<psa03 value="0.139327231409298" flag="0"/>
			<psa10 value="0.0237540849157067" flag="0"/>
			<psa30 value="0.00103578208321299" flag="0"/>
		</comp>
	</station>
	<station code="ITM" name="ITM" netid="HL" source="National Observatory of Athens Seismic Network" insttype="" lat="37.17872" lon="21.92522" esm:processing="manual (Paolucci et al 2011)" esm:quality="best">
		<comp name="--.HNE" depth="0.0">
			<acc value="0.0341639369970555" flag="0"/>
			<vel value="0.0216529578240494" flag="0"/>
			<psa03 value="0.0744957740194225" flag="0"/>
			<psa10 value="0.0224775897608874" flag="0"/>
			<psa30 value="0.00235657202258437" flag="0"/>
		</comp>
		<comp name="--.HNN" depth="0.0">
			<acc value="0.0579956376171811" flag="0"/>
			<vel value="0.0220967691652826" flag="0"/>
			<psa03 value="0.134226619854815" flag="0"/>
			<psa10 value="0.0177299942166225" flag="0"/>
			<psa30 value="0.00259191602939648" flag="0"/>
		</comp>
		<comp name="--.HNZ" depth="0.0">
			<acc value="0.0348785066788387" flag="0"/>
			<vel value="0.01560844967042" flag="0"/>
			<psa03 value="0.0605362055545217" flag="0"/>
			<psa10 value="0.0147662704502282" flag="0"/>
			<psa30 value="0.00093690180658661" flag="0"/>
		</comp>
	</station>
	<station code="PATC" name="PATC" netid="HL" source="National Observatory of Athens Seismic Network" insttype="" lat="38.26933" lon="21.76001" esm:processing="manual (Paolucci et al 2011)" esm:quality="bad">
		<comp name="00.HNE" depth="0.0">
			<acc value="0.0162680958450593" flag="0"/>
			<vel value="0.0216020076778311" flag="0"/>
			<psa03 value="0.0333329439306125" flag="0"/>
			<psa10 value="0.0343244312292734" flag="0"/>
			<psa30 value="0.00283889300992934" flag="0"/>
		</comp>
		<comp name="00.HNN" depth="0.0">
			<acc value="0.0122524475981765" flag="0"/>
			<vel value="0.0128428174995867" flag="0"/>
			<psa03 value="0.0402232437498263" flag="0"/>
			<psa10 value="0.0203031185192394" flag="0"/>
			<psa30 value="0.00270108701354507" flag="0"/>
		</comp>
		<comp name="00.HNZ" depth="0.0">
			<acc value="0.00992059717675721" flag="0"/>
			<vel value="0.00806212181091913" flag="0"/>
			<psa03 value="0.0165993586553788" flag="0"/>
			<psa10 value="0.0156763269328439" flag="0"/>
			<psa30 value="0.00131318376424628" flag="0"/>
		</comp>
	</station>
	<station code="ZARA" name="ZARA" netid="HL" source="National Observatory of Athens Seismic Network" insttype="" lat="37.4865" lon="21.6491" esm:processing="manual (Paolucci et al 2011)" esm:quality="best">
		<comp name="00.HNE" depth="0.0">
			<acc value="0.0715677257637276" flag="0"/>
			<vel value="0.0403101945823145" flag="0"/>
			<psa03 value="0.230407492532105" flag="0"/>
			<psa10 value="0.0323158232647126" flag="0"/>
			<psa30 value="0.0028574013721491" flag="0"/>
		</comp>
		<comp name="00.HNN" depth="0.0">
			<acc value="0.0657652260462296" flag="0"/>
			<vel value="0.0304067683384018" flag="0"/>
			<psa03 value="0.210994039819596" flag="0"/>
			<psa10 value="0.0204662626644545" flag="0"/>
			<psa30 value="0.00157891397029942" flag="0"/>
		</comp>
		<comp name="00.HNZ" depth="0.0">
			<acc value="0.031081368049592" flag="0"/>
			<vel value="0.0141155953624959" flag="0"/>
			<psa03 value="0.0541239864903089" flag="0"/>
			<psa10 value="0.0222686601894468" flag="0"/>
			<psa30 value="0.00102816279824104" flag="0"/>
		</comp>
	</station>
	<station code="ANX" name="ANX" netid="HP" source="University of Patras, Seismological Laboratory (PSLNET)" insttype="" lat="38.5933" lon="21.9209" esm:processing="automatic (Paolucci et al 2011)" esm:quality="best">
		<comp name="--.HNE" depth="0.0">
			<acc value="0.0053196762838132" flag="0"/>
			<vel value="0.00559298135851001" flag="0"/>
			<psa03 value="0.00963255086963452" flag="0"/>
			<psa10 value="0.00733817955589336" flag="0"/>
			<psa30 value="0.000559859119169661" flag="0"/>
		</comp>
		<comp name="--.HNN" depth="0.0">
			<acc value="0.00668166035970609" flag="0"/>
			<vel value="0.00655085319961495" flag="0"/>
			<psa03 value="0.0123904913821813" flag="0"/>
			<psa10 value="0.0137576673154601" flag="0"/>
			<psa30 value="0.00065068914662828" flag="0"/>
		</comp>
		<comp name="--.HNZ" depth="0.0">
			<acc value="0.00286065903413705" flag="0"/>
			<vel value="0.00314512603460351" flag="0"/>
			<psa03 value="0.00678180212567849" flag="0"/>
			<psa10 value="0.0041993514676831" flag="0"/>
			<psa30 value="0.000441712021670358" flag="0"/>
		</comp>
	</station>
	<station code="FSK" name="FSK" netid="HP" source="University of Patras, Seismological Laboratory (PSLNET)" insttype="" lat="38.4593" lon="20.5623" esm:processing="automatic (Paolucci et al 2011)" esm:quality="best">
		<comp name="--.HNE" depth="0.0">
			<acc value="0.00360727583766445" flag="0"/>
			<vel value="0.00266892552573841" flag="0"/>
			<psa03 value="0.010508252109703" flag="0"/>
			<psa10 value="0.00485718629598833" flag="0"/>
			<psa30 value="0.000754533057026797" flag="0"/>
		</comp>
		<comp name="--.HNN" depth="0.0">
			<acc value="0.00229113212886604" flag="0"/>
			<vel value="0.00213751941752421" flag="0"/>
			<psa03 value="0.00526943891822279" flag="0"/>
			<psa10 value="0.00504203229112743" flag="0"/>
			<psa30 value="0.000500606548145168" flag="0"/>
		</comp>
		<comp name="--.HNZ" depth="0.0">
			<acc value="0.00212935315507194" flag="0"/>
			<vel value="0.00191558265943033" flag="0"/>
			<psa03 value="0.00404839774377488" flag="0"/>
			<psa10 value="0.00306021889635878" flag="0"/>
			<psa30 value="0.000428967375316723" flag="0"/>
		</comp>
	</station>
	<station code="ARS1" name="ARS1" netid="HI" source="ITSAK Strong Motion Network" insttype="" lat="37.6349" lon="22.7293" esm:processing="discarded" esm:quality="bad">
		<comp name="--.HNE" depth="0.0">
			<acc value="0" flag="1"/>
			<vel value="0" flag="1"/>
			<psa03 value="0" flag="1"/>
			<psa10 value="0" flag="1"/>
			<psa30 value="0" flag="1"/>
		</comp>
		<comp name="--.HNN" depth="0.0">
			<acc value="0" flag="1"/>
			<vel value="0" flag="1"/>
			<psa03 value="0" flag="1"/>
			<psa10 value="0" flag="1"/>
			<psa30 value="0" flag="1"/>
		</comp>
		<comp name="--.HNZ" depth="0.0">
			<acc value="0" flag="1"/>
			<vel value="0" flag="1"/>
			<psa03 value="0" flag="1"/>
			<psa10 value="0" flag="1"/>
			<psa30 value="0" flag="1"/>
		</comp>
	</station>
	<station code="MSL1" name="MSL1" netid="HI" source="ITSAK Strong Motion Network" insttype="" lat="38.3727" lon="21.4243" esm:processing="discarded" esm:quality="bad">
		<comp name="--.HNE" depth="0.0">
			<acc value="0" flag="1"/>
			<vel value="0" flag="1"/>
			<psa03 value="0" flag="1"/>
			<psa10 value="0" flag="1"/>
			<psa30 value="0" flag="1"/>
		</comp>
		<comp name="--.HNN" depth="0.0">
			<acc value="0" flag="1"/>
			<vel value="0" flag="1"/>
			<psa03 value="0" flag="1"/>
			<psa10 value="0" flag="1"/>
			<psa30 value="0" flag="1"/>
		</comp>
		<comp name="--.HNZ" depth="0.0">
			<acc value="0" flag="1"/>
			<vel value="0" flag="1"/>
			<psa03 value="0" flag="1"/>
			<psa10 value="0" flag="1"/>
			<psa30 value="0" flag="1"/>
		</comp>
	</station>
	<station code="ANKY" name="ANKY" netid="HL" source="National Observatory of Athens Seismic Network" insttype="" lat="35.86704" lon="23.30117" esm:processing="discarded" esm:quality="bad">
		<comp name="00.HNE" depth="0.0">
			<acc value="0" flag="1"/>
			<vel value="0" flag="1"/>
			<psa03 value="0" flag="1"/>
			<psa10 value="0" flag="1"/>
			<psa30 value="0" flag="1"/>
		</comp>
		<comp name="00.HNN" depth="0.0">
			<acc value="0" flag="1"/>
			<vel value="0" flag="1"/>
			<psa03 value="0" flag="1"/>
			<psa10 value="0" flag="1"/>
			<psa30 value="0" flag="1"/>
		</comp>
		<comp name="00.HNZ" depth="0.0">
			<acc value="0" flag="1"/>
			<vel value="0" flag="1"/>
			<psa03 value="0" flag="1"/>
			<psa10 value="0" flag="1"/>
			<psa30 value="0" flag="1"/>
		</comp>
	</station>
	<station code="DLFA" name="DLFA" netid="HL" source="National Observatory of Athens Seismic Network" insttype="" lat="38.47836" lon="22.49583" esm:processing="discarded" esm:quality="bad">
		<comp name="00.HNE" depth="0.0">
			<acc value="0" flag="1"/>
			<vel value="0" flag="1"/>
			<psa03 value="0" flag="1"/>
			<psa10 value="0" flag="1"/>
			<psa30 value="0" flag="1"/>
		</comp>
		<comp name="00.HNN" depth="0.0">
			<acc value="0" flag="1"/>
			<vel value="0" flag="1"/>
			<psa03 value="0" flag="1"/>
			<psa10 value="0" flag="1"/>
			<psa30 value="0" flag="1"/>
		</comp>
		<comp name="00.HNZ" depth="0.0">
			<acc value="0" flag="1"/>
			<vel value="0" flag="1"/>
			<psa03 value="0" flag="1"/>
			<psa10 value="0" flag="1"/>
			<psa30 value="0" flag="1"/>
		</comp>
	</station>
	<station code="KIAA" name="KIAA" netid="HL" source="National Observatory of Athens Seismic Network" insttype="" lat="38.0139" lon="22.7495" esm:processing="discarded" esm:quality="bad">
		<comp name="00.HNE" depth="0.0">
			<acc value="0" flag="1"/>
			<vel value="0" flag="1"/>
			<psa03 value="0" flag="1"/>
			<psa10 value="0" flag="1"/>
			<psa30 value="0" flag="1"/>
		</comp>
		<comp name="00.HNN" depth="0.0">
			<acc value="0" flag="1"/>
			<vel value="0" flag="1"/>
			<psa03 value="0" flag="1"/>
			<psa10 value="0" flag="1"/>
			<psa30 value="0" flag="1"/>
		</comp>
		<comp name="00.HNZ" depth="0.0">
			<acc value="0" flag="1"/>
			<vel value="0" flag="1"/>
			<psa03 value="0" flag="1"/>
			<psa10 value="0" flag="1"/>
			<psa30 value="0" flag="1"/>
		</comp>
	</station>
	<station code="LXRA" name="LXRA" netid="HL" source="National Observatory of Athens Seismic Network" insttype="" lat="38.20006" lon="20.43718" esm:processing="discarded" esm:quality="bad">
		<comp name="00.HNE" depth="0.0">
			<acc value="0" flag="1"/>
			<vel value="0" flag="1"/>
			<psa03 value="0" flag="1"/>
			<psa10 value="0" flag="1"/>
			<psa30 value="0" flag="1"/>
		</comp>
		<comp name="00.HNN" depth="0.0">
			<acc value="0" flag="1"/>
			<vel value="0" flag="1"/>
			<psa03 value="0" flag="1"/>
			<psa10 value="0" flag="1"/>
			<psa30 value="0" flag="1"/>
		</comp>
		<comp name="00.HNZ" depth="0.0">
			<acc value="0" flag="1"/>
			<vel value="0" flag="1"/>
			<psa03 value="0" flag="1"/>
			<psa10 value="0" flag="1"/>
			<psa30 value="0" flag="1"/>
		</comp>
	</station>
	<station code="MNVA" name="MNVA" netid="HL" source="National Observatory of Athens Seismic Network" insttype="" lat="36.68709" lon="23.03734" esm:processing="discarded" esm:quality="bad">
		<comp name="00.HNE" depth="0.0">
			<acc value="0" flag="1"/>
			<vel value="0" flag="1"/>
			<psa03 value="0" flag="1"/>
			<psa10 value="0" flag="1"/>
			<psa30 value="0" flag="1"/>
		</comp>
		<comp name="00.HNN" depth="0.0">
			<acc value="0" flag="1"/>
			<vel value="0" flag="1"/>
			<psa03 value="0" flag="1"/>
			<psa10 value="0" flag="1"/>
			<psa30 value="0" flag="1"/>
		</comp>
		<comp name="00.HNZ" depth="0.0">
			<acc value="0" flag="1"/>
			<vel value="0" flag="1"/>
			<psa03 value="0" flag="1"/>
			<psa10 value="0" flag="1"/>
			<psa30 value="0" flag="1"/>
		</comp>
	</station>
	<station code="PATG" name="PATG" netid="HL" source="National Observatory of Athens Seismic Network" insttype="" lat="38.23865" lon="21.72657" esm:processing="discarded" esm:quality="bad">
		<comp name="00.HNE" depth="0.0">
			<acc value="0" flag="1"/>
			<vel value="0" flag="1"/>
			<psa03 value="0" flag="1"/>
			<psa10 value="0" flag="1"/>
			<psa30 value="0" flag="1"/>
		</comp>
		<comp name="00.HNN" depth="0.0">
			<acc value="0" flag="1"/>
			<vel value="0" flag="1"/>
			<psa03 value="0" flag="1"/>
			<psa10 value="0" flag="1"/>
			<psa30 value="0" flag="1"/>
		</comp>
		<comp name="00.HNZ" depth="0.0">
			<acc value="0" flag="1"/>
			<vel value="0" flag="1"/>
			<psa03 value="0" flag="1"/>
			<psa10 value="0" flag="1"/>
			<psa30 value="0" flag="1"/>
		</comp>
	</station>
	<station code="RIOA" name="RIOA" netid="HL" source="National Observatory of Athens Seismic Network" insttype="" lat="38.29585" lon="21.79118" esm:processing="discarded" esm:quality="bad">
		<comp name="00.HNE" depth="0.0">
			<acc value="0" flag="1"/>
			<vel value="0" flag="1"/>
			<psa03 value="0" flag="1"/>
			<psa10 value="0" flag="1"/>
			<psa30 value="0" flag="1"/>
		</comp>
		<comp name="00.HNN" depth="0.0">
			<acc value="0" flag="1"/>
			<vel value="0" flag="1"/>
			<psa03 value="0" flag="1"/>
			<psa10 value="0" flag="1"/>
			<psa30 value="0" flag="1"/>
		</comp>
		<comp name="00.HNZ" depth="0.0">
			<acc value="0" flag="1"/>
			<vel value="0" flag="1"/>
			<psa03 value="0" flag="1"/>
			<psa10 value="0" flag="1"/>
			<psa30 value="0" flag="1"/>
		</comp>
	</station>
	<station code="SMHA" name="SMHA" netid="HL" source="National Observatory of Athens Seismic Network" insttype="" lat="38.25123" lon="20.6477" esm:processing="discarded" esm:quality="bad">
		<comp name="00.HNE" depth="0.0">
			<acc value="0" flag="1"/>
			<vel value="0" flag="1"/>
			<psa03 value="0" flag="1"/>
			<psa10 value="0" flag="1"/>
			<psa30 value="0" flag="1"/>
		</comp>
		<comp name="00.HNN" depth="0.0">
			<acc value="0" flag="1"/>
			<vel value="0" flag="1"/>
			<psa03 value="0" flag="1"/>
			<psa10 value="0" flag="1"/>
			<psa30 value="0" flag="1"/>
		</comp>
		<comp name="00.HNZ" depth="0.0">
			<acc value="0" flag="1"/>
			<vel value="0" flag="1"/>
			<psa03 value="0" flag="1"/>
			<psa10 value="0" flag="1"/>
			<psa30 value="0" flag="1"/>
		</comp>
	</station>
	<station code="YDRA" name="YDRA" netid="HL" source="National Observatory of Athens Seismic Network" insttype="" lat="37.34923" lon="23.46525" esm:processing="discarded" esm:quality="bad">
		<comp name="00.HNE" depth="0.0">
			<acc value="0" flag="1"/>
			<vel value="0" flag="1"/>
			<psa03 value="0" flag="1"/>
			<psa10 value="0" flag="1"/>
			<psa30 value="0" flag="1"/>
		</comp>
		<comp name="00.HNN" depth="0.0">
			<acc value="0" flag="1"/>
			<vel value="0" flag="1"/>
			<psa03 value="0" flag="1"/>
			<psa10 value="0" flag="1"/>
			<psa30 value="0" flag="1"/>
		</comp>
		<comp name="00.HNZ" depth="0.0">
			<acc value="0" flag="1"/>
			<vel value="0" flag="1"/>
			<psa03 value="0" flag="1"/>
			<psa10 value="0" flag="1"/>
			<psa30 value="0" flag="1"/>
		</comp>
	</station>
</stationlist>
