<stationlist xmlns:esm="https://esm-db.eu/esmws/shakemap/1/" created="1781661276">
	<station code="ARG2" name="ARG2" netid="HI" source="ITSAK Strong Motion Network" insttype="" lat="38.1783" lon="20.4878" esm:processing="manual (Paolucci et al 2011)" esm:quality="best">
		<comp name="--.HNE" depth="0.0">
			<acc value="0.0169578964267257" flag="0"/>
			<vel value="0.0100159037340463" flag="0"/>
			<psa03 value="0.0378071645924396" flag="0"/>
			<psa10 value="0.00859318820310527" flag="0"/>
			<psa30 value="0.00127917968721639" flag="0"/>
		</comp>
		<comp name="--.HNN" depth="0.0">
			<acc value="0.0178878145123357" flag="0"/>
			<vel value="0.010661293097928" flag="0"/>
			<psa03 value="0.0427288073204495" flag="0"/>
			<psa10 value="0.0138642675648039" flag="0"/>
			<psa30 value="0.000870683340791568" flag="0"/>
		</comp>
		<comp name="--.HNZ" depth="0.0">
			<acc value="0.0105783920602956" flag="0"/>
			<vel value="0.00493476738035487" flag="0"/>
			<psa03 value="0.0235344006812109" flag="0"/>
			<psa10 value="0.00558516965215886" flag="0"/>
			<psa30 value="0.00101833262263186" flag="0"/>
		</comp>
	</station>
	<station code="KRI1" name="KRI1" netid="HI" source="ITSAK Strong Motion Network" insttype="" lat="37.6621" lon="20.8172" esm:processing="manual (Paolucci et al 2011)" esm:quality="good">
		<comp name="--.HNE" depth="0.0">
			<acc value="0.15375789679836" flag="0"/>
			<vel value="0.0693564639612772" flag="0"/>
			<psa03 value="0.251943365467488" flag="0"/>
			<psa10 value="0.0459014771917512" flag="0"/>
			<psa30 value="0.00296193407812959" flag="0"/>
		</comp>
		<comp name="--.HNN" depth="0.0">
			<acc value="0.117072665341404" flag="0"/>
			<vel value="0.0595034170377839" flag="0"/>
			<psa03 value="0.24984048175643" flag="0"/>
			<psa10 value="0.0331969276224929" flag="0"/>
			<psa30 value="0.00291942898184223" flag="0"/>
		</comp>
		<comp name="--.HNZ" depth="0.0">
			<acc value="0.0610517387009707" flag="0"/>
			<vel value="0.0244383666902886" flag="0"/>
			<psa03 value="0.11726932354649" flag="0"/>
			<psa10 value="0.0197836615004012" flag="0"/>
			<psa30 value="0.00231227723803228" flag="0"/>
		</comp>
	</station>
	<station code="MSL1" name="MSL1" netid="HI" source="ITSAK Strong Motion Network" insttype="" lat="38.3727" lon="21.4243" esm:processing="manual (Paolucci et al 2011)" esm:quality="good">
		<comp name="--.HNE" depth="0.0">
			<acc value="0.00851112270770164" flag="0"/>
			<vel value="0.00916656409844752" flag="0"/>
			<psa03 value="0.0312300602195537" flag="0"/>
			<psa10 value="0.0213903541400634" flag="0"/>
			<psa30 value="0.00138611356103406" flag="0"/>
		</comp>
		<comp name="--.HNN" depth="0.0">
			<acc value="0.0112692003555207" flag="0"/>
			<vel value="0.0143998375911716" flag="0"/>
			<psa03 value="0.0312300602195537" flag="0"/>
			<psa10 value="0.0294036833453958" flag="0"/>
			<psa30 value="0.00164875031388331" flag="0"/>
		</comp>
		<comp name="--.HNZ" depth="0.0">
			<acc value="0.00428348277090788" flag="0"/>
			<vel value="0.00406023377488574" flag="0"/>
			<psa03 value="0.0101564809023477" flag="0"/>
			<psa10 value="0.0118548950655773" flag="0"/>
			<psa30 value="0.00044294784552089" flag="0"/>
		</comp>
	</station>
	<station code="PYL1" name="PYL1" netid="HI" source="ITSAK Strong Motion Network" insttype="" lat="36.914188" lon="21.695161" esm:processing="manual (Paolucci et al 2011)" esm:quality="best">
		<comp name="--.HNE" depth="0.0">
			<acc value="0.0057406361296486" flag="0"/>
			<vel value="0.00311614062788521" flag="0"/>
			<psa03 value="0.0143622483244652" flag="0"/>
			<psa10 value="0.00248856153210827" flag="0"/>
			<psa30 value="0.000299772784342421" flag="0"/>
		</comp>
		<comp name="--.HNN" depth="0.0">
			<acc value="0.00733777754753392" flag="0"/>
			<vel value="0.0021860230778526" flag="0"/>
			<psa03 value="0.00863524587732645" flag="0"/>
			<psa10 value="0.00198923850624836" flag="0"/>
			<psa30 value="0.000263084174915438" flag="0"/>
		</comp>
		<comp name="--.HNZ" depth="0.0">
			<acc value="0.00410026158323199" flag="0"/>
			<vel value="0.00118664340616243" flag="0"/>
			<psa03 value="0.00720349526554175" flag="0"/>
			<psa10 value="0.00196910451327014" flag="0"/>
			<psa30 value="0.000302457316739517" flag="0"/>
		</comp>
	</station>
	<station code="VAS2" name="VAS2" netid="HI" source="ITSAK Strong Motion Network" insttype="" lat="38.630558" lon="20.608081" esm:processing="manual (Paolucci et al 2011)" esm:quality="good">
		<comp name="--.HNE" depth="0.0">
			<acc value="0.0133467928806676" flag="0"/>
			<vel value="0.0135855120993039" flag="0"/>
			<psa03 value="0.0300220206408604" flag="0"/>
			<psa10 value="0.0298627383852993" flag="0"/>
			<psa30 value="0.00235030811365781" flag="0"/>
		</comp>
		<comp name="--.HNN" depth="0.0">
			<acc value="0.0126083130810987" flag="0"/>
			<vel value="0.0149580460487461" flag="0"/>
			<psa03 value="0.0378966490056762" flag="0"/>
			<psa10 value="0.0299392475586165" flag="0"/>
			<psa30 value="0.00218476194917021" flag="0"/>
		</comp>
		<comp name="--.HNZ" depth="0.0">
			<acc value="0.006775749758576" flag="0"/>
			<vel value="0.00784899517325314" flag="0"/>
			<psa03 value="0.0163756476222875" flag="0"/>
			<psa10 value="0.0115810727610735" flag="0"/>
			<psa30 value="0.000979406902873968" flag="0"/>
		</comp>
	</station>
	<station code="AAMF" name="AAMF" netid="HP" source="University of Patras, Seismological Laboratory (PSLNET)" insttype="" lat="37.107022" lon="22.068923" esm:processing="automatic (Paolucci et al 2011)" esm:quality="best">
		<comp name="--.HNE" depth="0.0">
			<acc value="0.00223744670597543" flag="0"/>
			<vel value="0.00114401726100722" flag="0"/>
			<psa03 value="0.00322143887651557" flag="0"/>
			<psa10 value="0.00197715811046143" flag="0"/>
			<psa30 value="0.000148544125972662" flag="0"/>
		</comp>
		<comp name="--.HNN" depth="0.0">
			<acc value="0.00320230721024799" flag="0"/>
			<vel value="0.0018748107356454" flag="0"/>
			<psa03 value="0.00322143887651557" flag="0"/>
			<psa10 value="0.00201742609641787" flag="0"/>
			<psa30 value="0.000195076020855665" flag="0"/>
		</comp>
		<comp name="--.HNZ" depth="0.0">
			<acc value="0.00204464754748286" flag="0"/>
			<vel value="0.000727498481807892" flag="0"/>
			<psa03 value="0.00201339929782223" flag="0"/>
			<psa10 value="0.00111139641239787" flag="0"/>
			<psa30 value="0.000170020385149433" flag="0"/>
		</comp>
	</station>
	<station code="ANX" name="ANX" netid="HP" source="University of Patras, Seismological Laboratory (PSLNET)" insttype="" lat="38.5933" lon="21.9209" esm:processing="manual (Paolucci et al 2011)" esm:quality="good">
		<comp name="--.HNE" depth="0.0">
			<acc value="0.00425113076523194" flag="0"/>
			<vel value="0.00462722825547074" flag="0"/>
			<psa03 value="0.0121251379935516" flag="0"/>
			<psa10 value="0.00856902741153141" flag="0"/>
			<psa30 value="0.000487690052139162" flag="0"/>
		</comp>
		<comp name="--.HNN" depth="0.0">
			<acc value="0.00538825606106466" flag="0"/>
			<vel value="0.00438789277424404" flag="0"/>
			<psa03 value="0.010201223108966" flag="0"/>
			<psa10 value="0.00635428818392695" flag="0"/>
			<psa30 value="0.000450106598579814" flag="0"/>
		</comp>
		<comp name="--.HNZ" depth="0.0">
			<acc value="0.00153588454422775" flag="0"/>
			<vel value="0.00181099802662731" flag="0"/>
			<psa03 value="0.00487690052139162" flag="0"/>
			<psa10 value="0.00456236280886517" flag="0"/>
			<psa30 value="0.000287692388555487" flag="0"/>
		</comp>
	</station>
	<station code="LTHK" name="LTHK" netid="HP" source="University of Patras, Seismological Laboratory (PSLNET)" insttype="" lat="37.7095" lon="20.8367" esm:processing="manual (Paolucci et al 2011)" esm:quality="best">
		<comp name="--.HNE" depth="0.0">
			<acc value="0.203186882696468" flag="0"/>
			<vel value="0.067027020501257" flag="0"/>
			<psa03 value="0.163935445049348" flag="0"/>
			<psa10 value="0.033535178704527" flag="0"/>
			<psa30 value="0.00204874564105066" flag="0"/>
		</comp>
		<comp name="--.HNN" depth="0.0">
			<acc value="0.148448361969137" flag="0"/>
			<vel value="0.0568183858666854" flag="0"/>
			<psa03 value="0.125099209704688" flag="0"/>
			<psa10 value="0.0302533378490768" flag="0"/>
			<psa30 value="0.0019829745973218" flag="0"/>
		</comp>
		<comp name="--.HNZ" depth="0.0">
			<acc value="0.113799475843403" flag="0"/>
			<vel value="0.0363488397757734" flag="0"/>
			<psa03 value="0.0703794910105415" flag="0"/>
			<psa10 value="0.0214749169105719" flag="0"/>
			<psa30 value="0.00206619510163179" flag="0"/>
		</comp>
	</station>
	<station code="PYL" name="PYL" netid="HP" source="University of Patras, Seismological Laboratory (PSLNET)" insttype="" lat="36.8955" lon="21.742" esm:processing="manual (Paolucci et al 2011)" esm:quality="bad">
		<comp name="--.HNE" depth="0.0">
			<acc value="0.0133572446588707" flag="0"/>
			<vel value="0.00422322640233979" flag="0"/>
			<psa03 value="0.018310222076934" flag="0"/>
			<psa10 value="0.00522039598186342" flag="0"/>
			<psa30 value="0.00024738904456008" flag="0"/>
		</comp>
		<comp name="--.HNN" depth="0.0">
			<acc value="0.0144910747845929" flag="0"/>
			<vel value="0.00409884626203735" flag="0"/>
			<psa03 value="0.0205625171137599" flag="0"/>
			<psa10 value="0.0046374817416558" flag="0"/>
			<psa30 value="0.000297669510810872" flag="0"/>
		</comp>
		<comp name="--.HNZ" depth="0.0">
			<acc value="0.00762243954967958" flag="0"/>
			<vel value="0.00209660393217351" flag="0"/>
			<psa03 value="0.0115520191708257" flag="0"/>
			<psa10 value="0.0030466558885004" flag="0"/>
			<psa30 value="0.000167991649455649" flag="0"/>
		</comp>
	</station>
</stationlist>
