<?xml version="1.0" encoding="UTF-8" standalone="yes"?>
<!DOCTYPE earthquake SYSTEM "stationlist.dtd">
<stationlist created="" xmlns="ch.ethz.sed.shakemap.usgs.xml">
  <station code="KRI1" name="KRI1" netid="HI" source="NOA" insttype="CMG-5TD,ACCELEROMETER,GURALP" lat="37.6621" lon="20.8172">
    <comp name="--.HNE">
      <acc value="0.1530659376" flag="0"/>
      <vel value="0.0687411983" flag="0"/>
      <psa03 value="0.2511422078" flag="0"/>
      <psa10 value="0.0458138290" flag="0"/>
      <psa30 value="0.0028808413" flag="0"/>
    </comp>
    <comp name="--.HNN">
      <acc value="0.1175921247" flag="0"/>
      <vel value="0.0589229871" flag="0"/>
      <psa03 value="0.2472545578" flag="0"/>
      <psa10 value="0.0332338207" flag="0"/>
      <psa30 value="0.0027170177" flag="0"/>
    </comp>
    <comp name="--.HNZ">
      <acc value="0.0620485609" flag="0"/>
      <vel value="0.0247762861" flag="0"/>
      <psa03 value="0.1150821252" flag="0"/>
      <psa10 value="0.0196268496" flag="0"/>
      <psa30 value="0.0019734927" flag="0"/>
    </comp>
  </station>
  <station code="RLS" name="RLS" netid="HL" source="NOA" insttype="120" lat="38.0559" lon="21.4647">
    <comp name="--.HHE">
      <acc value="0.0061024699" flag="0"/>
      <vel value="0.0045725903" flag="0"/>
      <psa03 value="0.0165872031" flag="0"/>
      <psa10 value="0.0085224585" flag="0"/>
      <psa30 value="0.0005964371" flag="0"/>
    </comp>
    <comp name="--.HHN">
      <acc value="0.0069094040" flag="0"/>
      <vel value="0.0050063378" flag="0"/>
      <psa03 value="0.0141288884" flag="0"/>
      <psa10 value="0.0065347066" flag="0"/>
      <psa30 value="0.0005026542" flag="0"/>
    </comp>
    <comp name="--.HHZ">
      <acc value="0.0031018428" flag="0"/>
      <vel value="0.0021610786" flag="0"/>
      <psa03 value="0.0074130735" flag="0"/>
      <psa10 value="0.0029290346" flag="0"/>
      <psa30 value="0.0003599556" flag="0"/>
    </comp>
  </station>
  <station code="VLS" name="VLS" netid="HL" source="NOA" insttype="120P," lat="38.1768" lon="20.5886">
    <comp name="--.HHE">
      <acc value="0.0185731558" flag="0"/>
      <vel value="0.0054513785" flag="0"/>
      <psa03 value="0.0148479841" flag="0"/>
      <psa10 value="0.0049391024" flag="0"/>
      <psa30 value="0.0003562455" flag="0"/>
    </comp>
    <comp name="--.HHN">
      <acc value="0.0144616176" flag="0"/>
      <vel value="0.0068121040" flag="0"/>
      <psa03 value="0.0246056716" flag="0"/>
      <psa10 value="0.0154546335" flag="0"/>
      <psa30 value="0.0006579447" flag="0"/>
    </comp>
    <comp name="--.HHZ">
      <acc value="0.0097842240" flag="0"/>
      <vel value="0.0050076934" flag="0"/>
      <psa03 value="0.0176454830" flag="0"/>
      <psa10 value="0.0079386254" flag="0"/>
      <psa30 value="0.0006046379" flag="0"/>
    </comp>
  </station>
  <station code="AMT" name="AMT" netid="HP" source="NOA" insttype="CMG-3T," lat="37.5324" lon="21.7089">
    <comp name="00.HHE">
      <acc value="0.0100386485" flag="0"/>
      <vel value="0.0066224632" flag="0"/>
      <psa03 value="0.0324286387" flag="0"/>
      <psa10 value="0.0155481827" flag="0"/>
      <psa30 value="0.0005900586" flag="0"/>
    </comp>
    <comp name="00.HHN">
      <acc value="0.0126094946" flag="0"/>
      <vel value="0.0090470358" flag="0"/>
      <psa03 value="0.0223780749" flag="0"/>
      <psa10 value="0.0171720821" flag="0"/>
      <psa30 value="0.0012027612" flag="0"/>
    </comp>
    <comp name="00.HHZ">
      <acc value="0.0089894174" flag="0"/>
      <vel value="0.0040782501" flag="0"/>
      <psa03 value="0.0199466217" flag="0"/>
      <psa10 value="0.0078497020" flag="0"/>
      <psa30 value="0.0004958276" flag="0"/>
    </comp>
  </station>
  <station code="AXS" name="AXS" netid="HP" source="NOA" insttype="40," lat="38.1962" lon="21.3763">
    <comp name="--.HHE">
      <acc value="0.0024997495" flag="0"/>
      <vel value="0.0019009210" flag="0"/>
      <psa03 value="0.0065957638" flag="0"/>
      <psa10 value="0.0021230510" flag="0"/>
      <psa30 value="0.0002376724" flag="0"/>
    </comp>
    <comp name="--.HHN">
      <acc value="0.0031326949" flag="0"/>
      <vel value="0.0037552794" flag="0"/>
      <psa03 value="0.0093337437" flag="0"/>
      <psa10 value="0.0045762901" flag="0"/>
      <psa30 value="0.0003717818" flag="0"/>
    </comp>
    <comp name="--.HHZ">
      <acc value="0.0020811863" flag="0"/>
      <vel value="0.0018669565" flag="0"/>
      <psa03 value="0.0039166653" flag="0"/>
      <psa10 value="0.0032599483" flag="0"/>
      <psa30 value="0.0002778849" flag="0"/>
    </comp>
  </station>
  <station code="DRO" name="DRO" netid="HP" source="NOA" insttype="120P," lat="37.952" lon="21.71">
    <comp name="--.HHE">
      <acc value="0.0113802097" flag="0"/>
      <vel value="0.0064695255" flag="0"/>
      <psa03 value="0.0277290030" flag="0"/>
      <psa10 value="0.0090981249" flag="0"/>
      <psa30 value="0.0006127742" flag="0"/>
    </comp>
    <comp name="--.HHN">
      <acc value="0.0077433147" flag="0"/>
      <vel value="0.0050954655" flag="0"/>
      <psa03 value="0.0255972537" flag="0"/>
      <psa10 value="0.0091079836" flag="0"/>
      <psa30 value="0.0004798383" flag="0"/>
    </comp>
    <comp name="--.HHZ">
      <acc value="0.0042001040" flag="0"/>
      <vel value="0.0031087333" flag="0"/>
      <psa03 value="0.0124736936" flag="0"/>
      <psa10 value="0.0061890061" flag="0"/>
      <psa30 value="0.0002853823" flag="0"/>
    </comp>
  </station>
  <station code="FSK" name="FSK" netid="HP" source="NOA" insttype="40," lat="38.4593" lon="20.5623">
    <comp name="--.HHE">
      <acc value="0.0076995835" flag="0"/>
      <vel value="0.0042892979" flag="0"/>
      <psa03 value="0.0120910092" flag="0"/>
      <psa10 value="0.0086814073" flag="0"/>
      <psa30 value="0.0013012005" flag="0"/>
    </comp>
    <comp name="--.HHN">
      <acc value="0.0036131735" flag="0"/>
      <vel value="0.0038251278" flag="0"/>
      <psa03 value="0.0069263691" flag="0"/>
      <psa10 value="0.0103449839" flag="0"/>
      <psa30 value="0.0004346129" flag="0"/>
    </comp>
    <comp name="--.HHZ">
      <acc value="0.0044781047" flag="0"/>
      <vel value="0.0031120761" flag="0"/>
      <psa03 value="0.0065713374" flag="0"/>
      <psa10 value="0.0034011900" flag="0"/>
      <psa30 value="0.0007511191" flag="0"/>
    </comp>
  </station>
  <station code="LTHK" name="LTHK" netid="HP" source="NOA" insttype="40," lat="37.7095" lon="20.8367">
    <comp name="--.HHE">
      <acc value="0.2092009734" flag="0"/>
      <vel value="0.0677587544" flag="0"/>
      <psa03 value="0.1653105518" flag="0"/>
      <psa10 value="0.0339474607" flag="0"/>
      <psa30 value="0.0021647026" flag="0"/>
    </comp>
    <comp name="--.HHN">
      <acc value="0.1489810344" flag="0"/>
      <vel value="0.0566300535" flag="0"/>
      <psa03 value="0.1257404751" flag="0"/>
      <psa10 value="0.0305304809" flag="0"/>
      <psa30 value="0.0017673123" flag="0"/>
    </comp>
    <comp name="--.HHZ">
      <acc value="0.1159682411" flag="0"/>
      <vel value="0.0360379979" flag="0"/>
      <psa03 value="0.0688715131" flag="0"/>
      <psa10 value="0.0212347010" flag="0"/>
      <psa30 value="0.0017597576" flag="0"/>
    </comp>
  </station>
  <station code="EVGI" name="EVGI" netid="HT" source="NOA" insttype="30" lat="38.621" lon="20.656">
    <comp name="--.HHE">
      <acc value="0.0070056428" flag="0"/>
      <vel value="0.0032592436" flag="0"/>
      <psa03 value="0.0100600832" flag="0"/>
      <psa10 value="0.0047072038" flag="0"/>
      <psa30 value="0.0005470571" flag="0"/>
    </comp>
    <comp name="--.HHZ">
      <acc value="0.0058815045" flag="0"/>
      <vel value="0.0027881946" flag="0"/>
      <psa03 value="0.0083569466" flag="0"/>
      <psa10 value="0.0024350728" flag="0"/>
      <psa30 value="0.0003732717" flag="0"/>
    </comp>
  </station>
  <station code="NYDR" name="NYDR" netid="HT" source="NOA" insttype="1s-100Hz," lat="38.7135" lon="20.6983">
    <comp name="--.HHE">
      <acc value="0.0029589610" flag="0"/>
      <vel value="0.0027494217" flag="0"/>
      <psa03 value="0.0059989083" flag="0"/>
      <psa10 value="0.0037427524" flag="0"/>
      <psa30 value="0.0004524973" flag="0"/>
    </comp>
    <comp name="--.HHN">
      <acc value="0.0029873535" flag="0"/>
      <vel value="0.0023727295" flag="0"/>
      <psa03 value="0.0073456062" flag="0"/>
      <psa10 value="0.0033491964" flag="0"/>
      <psa30 value="0.0002427521" flag="0"/>
    </comp>
    <comp name="--.HHZ">
      <acc value="0.0015108158" flag="0"/>
      <vel value="0.0006990041" flag="0"/>
      <psa03 value="0.0035950475" flag="0"/>
      <psa10 value="0.0012615557" flag="0"/>
      <psa30 value="0.0000747247" flag="0"/>
    </comp>
  </station>
  <station code="PSDA" name="PSDA" netid="HT" source="NOA" insttype="30" lat="38.114" lon="20.5841">
    <comp name="--.HHE">
      <acc value="0.0263389841" flag="0"/>
      <vel value="0.0085092423" flag="0"/>
      <psa03 value="0.0273219390" flag="0"/>
      <psa10 value="0.0074509926" flag="0"/>
      <psa30 value="0.0007703822" flag="0"/>
    </comp>
    <comp name="--.HHN">
      <acc value="0.0279464356" flag="0"/>
      <vel value="0.0089405596" flag="0"/>
      <psa03 value="0.0260789019" flag="0"/>
      <psa10 value="0.0116414982" flag="0"/>
      <psa30 value="0.0007865800" flag="0"/>
    </comp>
    <comp name="--.HHZ">
      <acc value="0.0183452861" flag="0"/>
      <vel value="0.0062494808" flag="0"/>
      <psa03 value="0.0144733522" flag="0"/>
      <psa10 value="0.0078869908" flag="0"/>
      <psa30 value="0.0006832587" flag="0"/>
    </comp>
  </station>
</stationlist>
