<?xml version="1.0" encoding="UTF-8" standalone="yes"?>
<!DOCTYPE earthquake SYSTEM "stationlist.dtd">
<stationlist created="" xmlns="ch.ethz.sed.shakemap.usgs.xml">
  <station code="KARP" name="KARP" netid="GE" insttype="STS-2/N" commtype="DIG" lat="35.5471" lon="27.1611">
    <comp name="--.HHN">
      <acc value="0.0089065757" flag="0"/>
      <vel value="0.0047831794" flag="0"/>
      <psa03 value="0.0200109903" flag="0"/>
      <psa10 value="0.0078255370" flag="0"/>
      <psa30 value="0.0003047165" flag="0"/>
    </comp>
    <comp name="--.HHE">
      <acc value="0.0125592384" flag="0"/>
      <vel value="0.0051266913" flag="0"/>
      <psa03 value="0.0290390637" flag="0"/>
      <psa10 value="0.0052830694" flag="0"/>
      <psa30 value="0.0002863609" flag="0"/>
    </comp>
    <comp name="--.HHZ">
      <acc value="0.0045895659" flag="0"/>
      <vel value="0.0026316521" flag="0"/>
      <psa03 value="0.0097247615" flag="0"/>
      <psa10 value="0.0026784106" flag="0"/>
      <psa30 value="0.0002436800" flag="0"/>
    </comp>
  </station>
  <station code="ZKR" name="ZKR" netid="GE" insttype="STS-2/N" commtype="DIG" lat="35.1147" lon="26.2169">
    <comp name="--.HHE">
      <acc value="0.3032826331" flag="0"/>
      <vel value="0.0795326526" flag="0"/>
      <psa03 value="0.4000772483" flag="0"/>
      <psa10 value="0.0653086137" flag="0"/>
      <psa30 value="0.0030248054" flag="0"/>
    </comp>
    <comp name="--.HHZ">
      <acc value="0.2221000080" flag="0"/>
      <vel value="0.0905164354" flag="0"/>
      <psa03 value="0.3629900521" flag="0"/>
      <psa10 value="0.0395462002" flag="0"/>
      <psa30 value="0.0046038016" flag="0"/>
    </comp>
    <comp name="--.HHN">
      <acc value="0.2077474342" flag="0"/>
      <vel value="0.0817282945" flag="0"/>
      <psa03 value="0.3108406513" flag="0"/>
      <psa10 value="0.0297081730" flag="0"/>
      <psa30 value="0.0023230196" flag="0"/>
    </comp>
  </station>
  <station code="KNSS" name="KNSS" netid="HC" insttype="60" commtype="DIG" lat="35.3042" lon="25.1802">
    <comp name="--.HHE">
      <acc value="0.0000000000" flag="0"/>
      <vel value="-100.0000000000" flag="0"/>
      <psa03 value="0.0000000000" flag="0"/>
      <psa10 value="0.0000000000" flag="0"/>
      <psa30 value="0.0000000000" flag="0"/>
    </comp>
    <comp name="--.HHN">
      <acc value="0.0116546665" flag="0"/>
      <vel value="0.0046181802" flag="0"/>
      <psa03 value="0.0400810395" flag="0"/>
      <psa10 value="0.0051490814" flag="0"/>
      <psa30 value="0.0002918160" flag="0"/>
    </comp>
    <comp name="--.HHZ">
      <acc value="0.0085301168" flag="0"/>
      <vel value="0.0028358439" flag="0"/>
      <psa03 value="0.0160743799" flag="0"/>
      <psa10 value="0.0019116067" flag="0"/>
      <psa30 value="0.0004076084" flag="0"/>
    </comp>
  </station>
  <station code="PFKS" name="PFKS" netid="HC" insttype="120" commtype="DIG" lat="35.0429" lon="25.4733">
    <comp name="--.HHZ">
      <acc value="0.0278231656" flag="0"/>
      <vel value="0.0089443557" flag="0"/>
      <psa03 value="0.0592545394" flag="0"/>
      <psa10 value="0.0049005675" flag="0"/>
      <psa30 value="0.0003951786" flag="0"/>
    </comp>
    <comp name="--.HHE">
      <acc value="0.0589895868" flag="0"/>
      <vel value="0.0185151319" flag="0"/>
      <psa03 value="0.1702777850" flag="0"/>
      <psa10 value="0.0073928685" flag="0"/>
      <psa30 value="0.0006229657" flag="0"/>
    </comp>
    <comp name="--.HHN">
      <acc value="0.0568044537" flag="0"/>
      <vel value="0.0171390678" flag="0"/>
      <psa03 value="0.0868586849" flag="0"/>
      <psa10 value="0.0080990604" flag="0"/>
      <psa30 value="0.0004816668" flag="0"/>
    </comp>
  </station>
  <station code="STIA" name="STIA" netid="HC" insttype="120" commtype="DIG" lat="35.2021" lon="26.0909">
    <comp name="--.HHE">
      <acc value="0.1444484140" flag="0"/>
      <vel value="0.0514889736" flag="0"/>
      <psa03 value="0.2792632742" flag="0"/>
      <psa10 value="0.0410137678" flag="0"/>
      <psa30 value="0.0024704005" flag="0"/>
    </comp>
    <comp name="--.HHN">
      <acc value="0.1540714383" flag="0"/>
      <vel value="0.0506196929" flag="0"/>
      <psa03 value="0.2783163750" flag="0"/>
      <psa10 value="0.0384817645" flag="0"/>
      <psa30 value="0.0025518064" flag="0"/>
    </comp>
    <comp name="--.HHZ">
      <acc value="0.1939547633" flag="0"/>
      <vel value="0.0446712163" flag="0"/>
      <psa03 value="0.1939671106" flag="0"/>
      <psa10 value="0.0276133186" flag="0"/>
      <psa30 value="0.0022122493" flag="0"/>
    </comp>
  </station>
  <station code="AGN1" name="AGN1" netid="HI" insttype="unknown" commtype="DIG" lat="35.1879" lon="25.7155">
    <comp name="--.HNN">
      <acc value="0.0812878468" flag="0"/>
      <vel value="0.0227919266" flag="0"/>
      <psa03 value="0.1305716309" flag="0"/>
      <psa10 value="0.0111353108" flag="0"/>
      <psa30 value="0.0006530249" flag="0"/>
    </comp>
    <comp name="--.HNZ">
      <acc value="0.0023914492" flag="0"/>
      <vel value="0.0002228074" flag="0"/>
      <psa03 value="0.0003477588" flag="0"/>
      <psa10 value="0.0001539893" flag="0"/>
      <psa30 value="0.0001249809" flag="0"/>
    </comp>
    <comp name="--.HNE">
      <acc value="0.0033234916" flag="0"/>
      <vel value="0.0019041798" flag="0"/>
      <psa03 value="0.0027484233" flag="0"/>
      <psa10 value="0.0013349186" flag="0"/>
      <psa30 value="0.0005456231" flag="0"/>
    </comp>
  </station>
  <station code="KSS1" name="KSS1" netid="HI" insttype="CMG-5TD,ACCELEROMETER,GURALP" commtype="DIG" lat="35.4189" lon="26.9207">
    <comp name="--.HNN">
      <acc value="0.0130219601" flag="0"/>
      <vel value="0.0048896358" flag="0"/>
      <psa03 value="0.0402759901" flag="0"/>
      <psa10 value="0.0071554795" flag="0"/>
      <psa30 value="0.0003555799" flag="0"/>
    </comp>
    <comp name="--.HNZ">
      <acc value="0.0074196542" flag="0"/>
      <vel value="0.0035635853" flag="0"/>
      <psa03 value="0.0103635197" flag="0"/>
      <psa10 value="0.0031544040" flag="0"/>
      <psa30 value="0.0002355136" flag="0"/>
    </comp>
  </station>
  <station code="SIT2" name="SIT2" netid="HI" insttype="CMG-5TD,ACCELEROMETER,GURALP" commtype="DIG" lat="35.2059" lon="26.107">
    <comp name="--.HNZ">
      <acc value="0.2242484597" flag="0"/>
      <vel value="0.0612781635" flag="0"/>
      <psa03 value="0.2753340758" flag="0"/>
      <psa10 value="0.0255752840" flag="0"/>
      <psa30 value="0.0031888132" flag="0"/>
    </comp>
    <comp name="--.HNE">
      <acc value="0.1624111872" flag="0"/>
      <vel value="0.0925258037" flag="0"/>
      <psa03 value="0.5474281271" flag="0"/>
      <psa10 value="0.0628308648" flag="0"/>
      <psa30 value="0.0042470267" flag="0"/>
    </comp>
    <comp name="--.HNN">
      <acc value="0.2486596624" flag="0"/>
      <vel value="0.1187416248" flag="0"/>
      <psa03 value="0.4612485197" flag="0"/>
      <psa10 value="0.0753935967" flag="0"/>
      <psa30 value="0.0046026272" flag="0"/>
    </comp>
  </station>
  <station code="KARP" name="KARP" netid="HL" insttype="120" commtype="DIG" lat="35.5471" lon="27.1611">
    <comp name="--.HHZ">
      <acc value="0.0043664746" flag="0"/>
      <vel value="0.0025768998" flag="0"/>
      <psa03 value="0.0094491607" flag="0"/>
      <psa10 value="0.0026581828" flag="0"/>
      <psa30 value="0.0002426129" flag="0"/>
    </comp>
    <comp name="--.HHE">
      <acc value="0.0121953078" flag="0"/>
      <vel value="0.0050519280" flag="0"/>
      <psa03 value="0.0284090370" flag="0"/>
      <psa10 value="0.0052357876" flag="0"/>
      <psa30 value="0.0002847171" flag="0"/>
    </comp>
    <comp name="--.HHN">
      <acc value="0.0085805614" flag="0"/>
      <vel value="0.0047483222" flag="0"/>
      <psa03 value="0.0194949247" flag="0"/>
      <psa10 value="0.0077719853" flag="0"/>
      <psa30 value="0.0003020013" flag="0"/>
    </comp>
  </station>
</stationlist>
