<?xml version="1.0" encoding="UTF-8" standalone="yes"?>
<!DOCTYPE earthquake SYSTEM "stationlist.dtd">
<stationlist created="" xmlns="ch.ethz.sed.shakemap.usgs.xml">
  <station code="GIL" name="GIL" netid="VI" source="ODC" insttype="CMG-3ESP" lat="66.0773" lon="-16.3513">
    <comp name="--.HHN">
      <acc value="0.0423032692" flag="0"/>
      <vel value="0.0356079276" flag="0"/>
      <psa03 value="0.0976977782" flag="0"/>
      <psa10 value="0.0300666009" flag="0"/>
      <psa30 value="0.0027580883" flag="0"/>
    </comp>
    <comp name="--.HHZ">
      <acc value="0.0168763207" flag="0"/>
      <vel value="0.0116218481" flag="0"/>
      <psa03 value="0.0588900455" flag="0"/>
      <psa10 value="0.0115352664" flag="0"/>
      <psa30 value="0.0013630378" flag="0"/>
    </comp>
  </station>
</stationlist>
