<?xml version="1.0" encoding="UTF-8" standalone="yes"?>
<!DOCTYPE earthquake SYSTEM "stationlist.dtd">
<stationlist created="" xmlns="ch.ethz.sed.shakemap.usgs.xml">
  <station code="ERIK" name="ERIK" netid="KO" insttype="CMG-3ESP" lat="40.6708" lon="26.5132">
    <comp name="--.HHZ">
      <acc value="0.0205219097" flag="0"/>
      <vel value="0.0122752089" flag="0"/>
      <psa03 value="0.0460969239" flag="0"/>
      <psa10 value="0.0092581970" flag="0"/>
      <psa30 value="0.0007736584" flag="0"/>
    </comp>
    <comp name="--.HHE">
      <acc value="0.0206115315" flag="0"/>
      <vel value="0.0094511176" flag="0"/>
      <psa03 value="0.0482779267" flag="0"/>
      <psa10 value="0.0085513308" flag="0"/>
      <psa30 value="0.0009054308" flag="0"/>
    </comp>
    <comp name="--.HHN">
      <acc value="0.0320613300" flag="0"/>
      <vel value="0.0110335637" flag="0"/>
      <psa03 value="0.0611127256" flag="0"/>
      <psa10 value="0.0072208903" flag="0"/>
      <psa30 value="0.0009361340" flag="0"/>
    </comp>
  </station>
  <station code="EZN" name="EZN" netid="KO" insttype="CMG-3ESP" lat="39.8255" lon="26.3246">
    <comp name="--.HHE">
      <acc value="0.0354702185" flag="0"/>
      <vel value="0.0135355427" flag="0"/>
      <psa03 value="0.0328804122" flag="0"/>
      <psa10 value="0.0144657619" flag="0"/>
      <psa30 value="0.0010573313" flag="0"/>
    </comp>
    <comp name="--.HHN">
      <acc value="0.0226846545" flag="0"/>
      <vel value="0.0145233737" flag="0"/>
      <psa03 value="0.0478257633" flag="0"/>
      <psa10 value="0.0132108895" flag="0"/>
      <psa30 value="0.0010499299" flag="0"/>
    </comp>
    <comp name="--.HHZ">
      <acc value="0.0263101181" flag="0"/>
      <vel value="0.0139939669" flag="0"/>
      <psa03 value="0.0558541693" flag="0"/>
      <psa10 value="0.0184387384" flag="0"/>
      <psa30 value="0.0008415955" flag="0"/>
    </comp>
  </station>
  <station code="GADA" name="GADA" netid="KO" insttype="CMG-3T" lat="40.1908" lon="25.8987">
    <comp name="--.HHE">
      <acc value="0.0473454235" flag="0"/>
      <vel value="0.0131541469" flag="0"/>
      <psa03 value="0.0708372396" flag="0"/>
      <psa10 value="0.0093055522" flag="0"/>
      <psa30 value="0.0007243098" flag="0"/>
    </comp>
    <comp name="--.HHZ">
      <acc value="0.0780988415" flag="0"/>
      <vel value="0.0169712506" flag="0"/>
      <psa03 value="0.0799473745" flag="0"/>
      <psa10 value="0.0075095265" flag="0"/>
      <psa30 value="0.0010226769" flag="0"/>
    </comp>
  </station>
  <station code="GELI" name="GELI" netid="KO" insttype="CMG-3ESP" lat="40.398" lon="26.4742">
    <comp name="--.HHZ">
      <acc value="0.0108827584" flag="0"/>
      <vel value="0.0039982564" flag="0"/>
      <psa03 value="0.0242172844" flag="0"/>
      <psa10 value="0.0053794858" flag="0"/>
      <psa30 value="0.0007261807" flag="0"/>
    </comp>
    <comp name="--.HHE">
      <acc value="0.0093385701" flag="0"/>
      <vel value="0.0039416863" flag="0"/>
      <psa03 value="0.0255609839" flag="0"/>
      <psa10 value="0.0057680993" flag="0"/>
      <psa30 value="0.0007087588" flag="0"/>
    </comp>
    <comp name="--.HHN">
      <acc value="0.0072943231" flag="0"/>
      <vel value="0.0043839881" flag="0"/>
      <psa03 value="0.0329139262" flag="0"/>
      <psa10 value="0.0053999973" flag="0"/>
      <psa30 value="0.0007450451" flag="0"/>
    </comp>
  </station>
</stationlist>
