<?xml version="1.0" encoding="UTF-8" standalone="yes"?>
<!DOCTYPE earthquake SYSTEM "stationlist.dtd">
<stationlist created="" xmlns="ch.ethz.sed.shakemap.usgs.xml">
  <station code="EFSA" name="EFSA" netid="HL" insttype="CMG-5" lat="39.5401" lon="24.9886">
    <comp name="00.HNZ">
      <acc value="0.0346825559" flag="0"/>
      <vel value="0.0172525772" flag="0"/>
      <psa03 value="0.0736966339" flag="0"/>
      <psa10 value="0.0186077821" flag="0"/>
      <psa30 value="0.0009028148" flag="0"/>
    </comp>
    <comp name="00.HNE">
      <acc value="0.0439212787" flag="0"/>
      <vel value="0.0282473075" flag="0"/>
      <psa03 value="0.0666571161" flag="0"/>
      <psa10 value="0.0348764894" flag="0"/>
      <psa30 value="0.0017350063" flag="0"/>
    </comp>
    <comp name="00.HNN">
      <acc value="0.0332193759" flag="0"/>
      <vel value="0.0146402974" flag="0"/>
      <psa03 value="0.0689063580" flag="0"/>
      <psa10 value="0.0169989694" flag="0"/>
      <psa30 value="0.0016492401" flag="0"/>
    </comp>
  </station>
  <station code="KVLA" name="KVLA" netid="HL" insttype="CMG-5" lat="40.937" lon="24.3859">
    <comp name="00.HNE">
      <acc value="0.0236373358" flag="0"/>
      <vel value="0.0096027616" flag="0"/>
      <psa03 value="0.0720019268" flag="0"/>
      <psa10 value="0.0099321824" flag="0"/>
      <psa30 value="0.0004188125" flag="0"/>
    </comp>
    <comp name="00.HNN">
      <acc value="0.0335884101" flag="0"/>
      <vel value="0.0247877458" flag="0"/>
      <psa03 value="0.0758471033" flag="0"/>
      <psa10 value="0.0170715657" flag="0"/>
      <psa30 value="0.0021281847" flag="0"/>
    </comp>
    <comp name="00.HNZ">
      <acc value="0.0233202564" flag="0"/>
      <vel value="0.0097137357" flag="0"/>
      <psa03 value="0.0331337126" flag="0"/>
      <psa10 value="0.0072176745" flag="0"/>
      <psa30 value="0.0006141299" flag="0"/>
    </comp>
  </station>
  <station code="LIA" name="LIA" netid="HL" insttype="P6C" lat="39.8972" lon="25.1806">
    <comp name="--.HHE">
      <acc value="0.1455380966" flag="0"/>
      <vel value="0.0486590881" flag="0"/>
      <psa03 value="0.1914210142" flag="0"/>
      <psa10 value="0.0259835464" flag="0"/>
      <psa30 value="0.0017483291" flag="0"/>
    </comp>
    <comp name="--.HHZ">
      <acc value="0.0964085429" flag="0"/>
      <vel value="0.0317624707" flag="0"/>
      <psa03 value="0.1420716291" flag="0"/>
      <psa10 value="0.0208343279" flag="0"/>
      <psa30 value="0.0020406590" flag="0"/>
    </comp>
    <comp name="--.HHN">
      <acc value="0.1401532563" flag="0"/>
      <vel value="0.0532182961" flag="0"/>
      <psa03 value="0.1436825635" flag="0"/>
      <psa10 value="0.0399232627" flag="0"/>
      <psa30 value="0.0026214302" flag="0"/>
    </comp>
  </station>
  <station code="RDO" name="RDO" netid="HL" insttype="120" lat="41.145" lon="25.5355">
    <comp name="--.HHE">
      <acc value="0.0214271715" flag="0"/>
      <vel value="0.0065374613" flag="0"/>
      <psa03 value="0.0310173059" flag="0"/>
      <psa10 value="0.0033177995" flag="0"/>
      <psa30 value="0.0005764532" flag="0"/>
    </comp>
    <comp name="--.HHZ">
      <acc value="0.0125269534" flag="0"/>
      <vel value="0.0042256166" flag="0"/>
      <psa03 value="0.0219775729" flag="0"/>
      <psa10 value="0.0055422990" flag="0"/>
      <psa30 value="0.0005515853" flag="0"/>
    </comp>
    <comp name="--.HHN">
      <acc value="0.0325813531" flag="0"/>
      <vel value="0.0089917696" flag="0"/>
      <psa03 value="0.0483397623" flag="0"/>
      <psa10 value="0.0109579821" flag="0"/>
      <psa30 value="0.0006558905" flag="0"/>
    </comp>
  </station>
  <station code="KAVA" name="KAVA" netid="HT" insttype="Compact," lat="40.9967" lon="24.5137">
    <comp name="--.HHZ">
      <acc value="0.0615818893" flag="0"/>
      <vel value="0.0146605189" flag="0"/>
      <psa03 value="0.0794770675" flag="0"/>
      <psa10 value="0.0095723256" flag="0"/>
      <psa30 value="0.0006602727" flag="0"/>
    </comp>
    <comp name="--.HHN">
      <acc value="0.0757070210" flag="0"/>
      <vel value="0.0249422142" flag="0"/>
      <psa03 value="0.0617139273" flag="0"/>
      <psa10 value="0.0179701703" flag="0"/>
      <psa30 value="0.0020245092" flag="0"/>
    </comp>
    <comp name="--.HHE">
      <acc value="0.0994048360" flag="0"/>
      <vel value="0.0268734198" flag="0"/>
      <psa03 value="0.1430570529" flag="0"/>
      <psa10 value="0.0119056844" flag="0"/>
      <psa30 value="0.0019614600" flag="0"/>
    </comp>
  </station>
  <station code="OUR" name="OUR" netid="HT" insttype="100" lat="40.3325" lon="23.9791">
    <comp name="--.HHZ">
      <acc value="0.0643233482" flag="0"/>
      <vel value="0.0141700554" flag="0"/>
      <psa03 value="0.0404833888" flag="0"/>
      <psa10 value="0.0113242429" flag="0"/>
      <psa30 value="0.0008257272" flag="0"/>
    </comp>
    <comp name="--.HHN">
      <acc value="0.0299645086" flag="0"/>
      <vel value="0.0103528386" flag="0"/>
      <psa03 value="0.0321457460" flag="0"/>
      <psa10 value="0.0132447912" flag="0"/>
      <psa30 value="0.0017959990" flag="0"/>
    </comp>
    <comp name="--.HHE">
      <acc value="0.0648528842" flag="0"/>
      <vel value="0.0156431009" flag="0"/>
      <psa03 value="0.0459142900" flag="0"/>
      <psa10 value="0.0072459513" flag="0"/>
      <psa30 value="0.0005749822" flag="0"/>
    </comp>
  </station>
  <station code="THAS" name="THAS" netid="HT" insttype="100" lat="40.6064" lon="24.7194">
    <comp name="--.HHN">
      <acc value="0.0875403213" flag="0"/>
      <vel value="0.0267128024" flag="0"/>
      <psa03 value="0.1245399263" flag="0"/>
      <psa10 value="0.0135885375" flag="0"/>
      <psa30 value="0.0012069437" flag="0"/>
    </comp>
    <comp name="--.HHE">
      <acc value="0.0534668947" flag="0"/>
      <vel value="0.0189169781" flag="0"/>
      <psa03 value="0.0907404448" flag="0"/>
      <psa10 value="0.0085528446" flag="0"/>
      <psa30 value="0.0009751747" flag="0"/>
    </comp>
    <comp name="--.HHZ">
      <acc value="0.0432464275" flag="0"/>
      <vel value="0.0107731402" flag="0"/>
      <psa03 value="0.0476857545" flag="0"/>
      <psa10 value="0.0074056005" flag="0"/>
      <psa30 value="0.0005074658" flag="0"/>
    </comp>
  </station>
  <station code="ERIK" name="ERIK" netid="KO" insttype="CMG-3ESP" lat="40.6708" lon="26.5132">
    <comp name="--.HHE">
      <acc value="0.0206115316" flag="0"/>
      <vel value="0.0094511165" flag="0"/>
      <psa03 value="0.0482779267" flag="0"/>
      <psa10 value="0.0085513308" flag="0"/>
      <psa30 value="0.0009054263" flag="0"/>
    </comp>
    <comp name="--.HHN">
      <acc value="0.0320613299" flag="0"/>
      <vel value="0.0110335631" flag="0"/>
      <psa03 value="0.0611127256" flag="0"/>
      <psa10 value="0.0072208903" flag="0"/>
      <psa30 value="0.0009361445" flag="0"/>
    </comp>
    <comp name="--.HHZ">
      <acc value="0.0205219097" flag="0"/>
      <vel value="0.0122752099" flag="0"/>
      <psa03 value="0.0460969239" flag="0"/>
      <psa10 value="0.0092581975" flag="0"/>
      <psa30 value="0.0007736318" flag="0"/>
    </comp>
  </station>
  <station code="EZN" name="EZN" netid="KO" insttype="CMG-3ESP" lat="39.8255" lon="26.3246">
    <comp name="--.HHE">
      <acc value="0.0354702187" flag="0"/>
      <vel value="0.0135355436" flag="0"/>
      <psa03 value="0.0328804122" flag="0"/>
      <psa10 value="0.0144657619" flag="0"/>
      <psa30 value="0.0010573889" flag="0"/>
    </comp>
    <comp name="--.HHZ">
      <acc value="0.0263101182" flag="0"/>
      <vel value="0.0139939669" flag="0"/>
      <psa03 value="0.0558541693" flag="0"/>
      <psa10 value="0.0184387384" flag="0"/>
      <psa30 value="0.0008416236" flag="0"/>
    </comp>
    <comp name="--.HHN">
      <acc value="0.0226846547" flag="0"/>
      <vel value="0.0145233723" flag="0"/>
      <psa03 value="0.0478257633" flag="0"/>
      <psa10 value="0.0132108897" flag="0"/>
      <psa30 value="0.0010499347" flag="0"/>
    </comp>
  </station>
  <station code="GADA" name="GADA" netid="KO" insttype="CMG-3T" lat="40.1908" lon="25.8987">
    <comp name="--.HHZ">
      <acc value="0.0780988413" flag="0"/>
      <vel value="0.0169712493" flag="0"/>
      <psa03 value="0.0799473745" flag="0"/>
      <psa10 value="0.0075095265" flag="0"/>
      <psa30 value="0.0010227887" flag="0"/>
    </comp>
    <comp name="--.HHE">
      <acc value="0.0473454236" flag="0"/>
      <vel value="0.0131541467" flag="0"/>
      <psa03 value="0.0708372396" flag="0"/>
      <psa10 value="0.0093055521" flag="0"/>
      <psa30 value="0.0007243164" flag="0"/>
    </comp>
  </station>
  <station code="GELI" name="GELI" netid="KO" insttype="CMG-3ESP" lat="40.398" lon="26.4742">
    <comp name="--.HHZ">
      <acc value="0.0108827586" flag="0"/>
      <vel value="0.0039982563" flag="0"/>
      <psa03 value="0.0242172844" flag="0"/>
      <psa10 value="0.0053794858" flag="0"/>
      <psa30 value="0.0007261800" flag="0"/>
    </comp>
    <comp name="--.HHE">
      <acc value="0.0093385701" flag="0"/>
      <vel value="0.0039416825" flag="0"/>
      <psa03 value="0.0255609839" flag="0"/>
      <psa10 value="0.0057680993" flag="0"/>
      <psa30 value="0.0007087554" flag="0"/>
    </comp>
    <comp name="--.HHN">
      <acc value="0.0072943231" flag="0"/>
      <vel value="0.0043839882" flag="0"/>
      <psa03 value="0.0329139262" flag="0"/>
      <psa10 value="0.0053999972" flag="0"/>
      <psa30 value="0.0007449183" flag="0"/>
    </comp>
  </station>
</stationlist>
