<?xml version="1.0" encoding="UTF-8" standalone="yes"?>
<!DOCTYPE earthquake SYSTEM "stationlist.dtd">
<stationlist created="" xmlns="ch.ethz.sed.shakemap.usgs.xml">
  <station code="MYT1" name="MYT1" netid="HI" insttype="CMG-5TD,ACCELEROMETER,GURALP" lat="39.085" lon="26.5694">
    <comp name="--.HNE">
      <acc value="0.0144211288" flag="0"/>
      <vel value="0.0091857336" flag="0"/>
      <psa03 value="0.0272099142" flag="0"/>
      <psa10 value="0.0143916423" flag="0"/>
      <psa30 value="0.0014639061" flag="0"/>
    </comp>
    <comp name="--.HNN">
      <acc value="0.0141874635" flag="0"/>
      <vel value="0.0133998216" flag="0"/>
      <psa03 value="0.0267402007" flag="0"/>
      <psa10 value="0.0241912969" flag="0"/>
      <psa30 value="0.0017686143" flag="0"/>
    </comp>
    <comp name="--.HNZ">
      <acc value="0.0118292226" flag="0"/>
      <vel value="0.0071507471" flag="0"/>
      <psa03 value="0.0235740142" flag="0"/>
      <psa10 value="0.0089381240" flag="0"/>
      <psa30 value="0.0008885815" flag="0"/>
    </comp>
  </station>
  <station code="PRK" name="PRK" netid="HL" insttype="120" lat="39.2456" lon="26.265">
    <comp name="--.HHE">
      <acc value="0.0257166125" flag="0"/>
      <vel value="0.0122947061" flag="0"/>
      <psa03 value="0.0567068751" flag="0"/>
      <psa10 value="0.0180944057" flag="0"/>
      <psa30 value="0.0019063893" flag="0"/>
    </comp>
    <comp name="--.HHN">
      <acc value="0.0275189635" flag="0"/>
      <vel value="0.0164094867" flag="0"/>
      <psa03 value="0.0613803409" flag="0"/>
      <psa10 value="0.0154080447" flag="0"/>
      <psa30 value="0.0020147697" flag="0"/>
    </comp>
    <comp name="--.HHZ">
      <acc value="0.0265858428" flag="0"/>
      <vel value="0.0121345276" flag="0"/>
      <psa03 value="0.0421279639" flag="0"/>
      <psa10 value="0.0074516358" flag="0"/>
      <psa30 value="0.0008797034" flag="0"/>
    </comp>
  </station>
  <station code="CHOS" name="CHOS" netid="HT" insttype="100" lat="38.3869" lon="26.0506">
    <comp name="--.HHN">
      <acc value="0.0112815448" flag="0"/>
      <vel value="0.0039347134" flag="0"/>
      <psa03 value="0.0178988487" flag="0"/>
      <psa10 value="0.0052284724" flag="0"/>
      <psa30 value="0.0009734385" flag="0"/>
    </comp>
    <comp name="--.HHZ">
      <acc value="0.0070181638" flag="0"/>
      <vel value="0.0022779243" flag="0"/>
      <psa03 value="0.0111858293" flag="0"/>
      <psa10 value="0.0034464687" flag="0"/>
      <psa30 value="0.0004441236" flag="0"/>
    </comp>
    <comp name="--.HHE">
      <acc value="0.0174119437" flag="0"/>
      <vel value="0.0072789939" flag="0"/>
      <psa03 value="0.0395792057" flag="0"/>
      <psa10 value="0.0071186005" flag="0"/>
      <psa30 value="0.0010027275" flag="0"/>
    </comp>
  </station>
  <station code="SIGR" name="SIGR" netid="HT" insttype="100" lat="39.2114" lon="25.8553">
    <comp name="--.HHE">
      <acc value="0.0342980652" flag="0"/>
      <vel value="0.0151356297" flag="0"/>
      <psa03 value="0.0726499454" flag="0"/>
      <psa10 value="0.0118296061" flag="0"/>
      <psa30 value="0.0009123617" flag="0"/>
    </comp>
    <comp name="--.HHN">
      <acc value="0.0496653091" flag="0"/>
      <vel value="0.0168303669" flag="0"/>
      <psa03 value="0.0553281147" flag="0"/>
      <psa10 value="0.0093726971" flag="0"/>
      <psa30 value="0.0011225986" flag="0"/>
    </comp>
    <comp name="--.HHZ">
      <acc value="0.0280316036" flag="0"/>
      <vel value="0.0079876696" flag="0"/>
      <psa03 value="0.0561688195" flag="0"/>
      <psa10 value="0.0034168271" flag="0"/>
      <psa30 value="0.0007272231" flag="0"/>
    </comp>
  </station>
</stationlist>
