<?xml version="1.0" encoding="UTF-8" standalone="yes"?>
<!DOCTYPE earthquake SYSTEM "stationlist.dtd">
<stationlist created="" xmlns="ch.ethz.sed.shakemap.usgs.xml">
  <station code="APE" name="APE" netid="GE" insttype="STS-2/N" lat="37.0727" lon="25.523">
    <comp name="--.HHE">
      <acc value="0.0419386885" flag="0"/>
      <vel value="0.0375576975" flag="0"/>
      <psa03 value="0.1521599410" flag="0"/>
      <psa10 value="0.0313084290" flag="0"/>
      <psa30 value="0.0129505787" flag="0"/>
    </comp>
    <comp name="--.HHN">
      <acc value="0.0559453016" flag="0"/>
      <vel value="0.0438627964" flag="0"/>
      <psa03 value="0.1201489883" flag="0"/>
      <psa10 value="0.0518283767" flag="0"/>
      <psa30 value="0.0179602511" flag="0"/>
    </comp>
    <comp name="--.HHZ">
      <acc value="0.0339470572" flag="0"/>
      <vel value="0.0299366275" flag="0"/>
      <psa03 value="0.0755830709" flag="0"/>
      <psa10 value="0.0185535492" flag="0"/>
      <psa30 value="0.0100771023" flag="0"/>
    </comp>
  </station>
  <station code="KARP" name="KARP" netid="GE" insttype="STS-2/N" lat="35.5471" lon="27.1611">
    <comp name="--.HHE">
      <acc value="0.4144996436" flag="0"/>
      <vel value="0.3035261204" flag="0"/>
      <psa03 value="0.7256815134" flag="0"/>
      <psa10 value="0.5907740245" flag="0"/>
      <psa30 value="0.0420740629" flag="0"/>
    </comp>
    <comp name="--.HHN">
      <acc value="0.3281420797" flag="0"/>
      <vel value="0.1990027845" flag="0"/>
      <psa03 value="0.5721268991" flag="0"/>
      <psa10 value="0.3208107614" flag="0"/>
      <psa30 value="0.0299852382" flag="0"/>
    </comp>
    <comp name="--.HHZ">
      <acc value="0.2148330268" flag="0"/>
      <vel value="0.1523298037" flag="0"/>
      <psa03 value="0.3295490491" flag="0"/>
      <psa10 value="0.1820940827" flag="0"/>
      <psa30 value="0.0335458728" flag="0"/>
    </comp>
  </station>
  <station code="THERA" name="THERA" netid="GE" insttype="STS-2/N" lat="36.367" lon="25.4753">
    <comp name="--.HHN">
      <acc value="0.0418154045" flag="0"/>
      <vel value="0.0309736986" flag="0"/>
      <psa03 value="0.1135831319" flag="0"/>
      <psa10 value="0.0404136223" flag="0"/>
      <psa30 value="0.0092354739" flag="0"/>
    </comp>
    <comp name="--.HHE">
      <acc value="0.0625609022" flag="0"/>
      <vel value="0.0545568639" flag="0"/>
      <psa03 value="0.1780871563" flag="0"/>
      <psa10 value="0.0443717176" flag="0"/>
      <psa30 value="0.0255690255" flag="0"/>
    </comp>
    <comp name="--.HHZ">
      <acc value="0.0406848714" flag="0"/>
      <vel value="0.0447362758" flag="0"/>
      <psa03 value="0.1453293824" flag="0"/>
      <psa10 value="0.0259310270" flag="0"/>
      <psa30 value="0.0111827425" flag="0"/>
    </comp>
  </station>
  <station code="ZKR" name="ZKR" netid="GE" insttype="STS-2/N" lat="35.1147" lon="26.2169">
    <comp name="--.HHE">
      <acc value="0.0435492362" flag="0"/>
      <vel value="0.0593811773" flag="0"/>
      <psa03 value="0.1485930283" flag="0"/>
      <psa10 value="0.0835252962" flag="0"/>
      <psa30 value="0.0137456371" flag="0"/>
    </comp>
    <comp name="--.HHZ">
      <acc value="0.0287924600" flag="0"/>
      <vel value="0.0322834432" flag="0"/>
      <psa03 value="0.1027269539" flag="0"/>
      <psa10 value="0.0373717696" flag="0"/>
      <psa30 value="0.0121916038" flag="0"/>
    </comp>
    <comp name="--.HHN">
      <acc value="0.0230701464" flag="0"/>
      <vel value="0.0220442754" flag="0"/>
      <psa03 value="0.0608545432" flag="0"/>
      <psa10 value="0.0241167604" flag="0"/>
      <psa30 value="0.0064818577" flag="0"/>
    </comp>
  </station>
  <station code="SNT1" name="SNT1" netid="HA" insttype="30" lat="36.4159" lon="25.4282">
    <comp name="--.HHN">
      <acc value="0.0472910367" flag="0"/>
      <vel value="0.0577605824" flag="0"/>
      <psa03 value="0.0775097441" flag="0"/>
      <psa10 value="0.0667764507" flag="0"/>
      <psa30 value="0.0249401024" flag="0"/>
    </comp>
    <comp name="--.HHE">
      <acc value="0.0478934610" flag="0"/>
      <vel value="0.0798252206" flag="0"/>
      <psa03 value="0.1275304908" flag="0"/>
      <psa10 value="0.0836363035" flag="0"/>
      <psa30 value="0.0563036359" flag="0"/>
    </comp>
    <comp name="--.HHZ">
      <acc value="0.0266416521" flag="0"/>
      <vel value="0.0266413525" flag="0"/>
      <psa03 value="0.0780726157" flag="0"/>
      <psa10 value="0.0381648934" flag="0"/>
      <psa30 value="0.0127030140" flag="0"/>
    </comp>
  </station>
  <station code="SNT5" name="SNT5" netid="HA" insttype="1s-100Hz," lat="36.4037" lon="25.3953">
    <comp name="--.HHN">
      <acc value="0.0732288890" flag="0"/>
      <vel value="0.0793638911" flag="0"/>
      <psa03 value="0.2484079481" flag="0"/>
      <psa10 value="0.0547016141" flag="0"/>
      <psa30 value="0.0469034507" flag="0"/>
    </comp>
    <comp name="--.HHZ">
      <acc value="0.0316246321" flag="0"/>
      <vel value="0.0347810022" flag="0"/>
      <psa03 value="0.0731183852" flag="0"/>
      <psa10 value="0.0378656625" flag="0"/>
      <psa30 value="0.0166046256" flag="0"/>
    </comp>
    <comp name="--.HHE">
      <acc value="0.1099980756" flag="0"/>
      <vel value="0.1094510940" flag="0"/>
      <psa03 value="0.4096660060" flag="0"/>
      <psa10 value="0.0547190573" flag="0"/>
      <psa30 value="0.0591269818" flag="0"/>
    </comp>
  </station>
  <station code="STIA" name="STIA" netid="HC" insttype="120" lat="35.2021" lon="26.0909">
    <comp name="--.HHN">
      <acc value="0.0544639055" flag="0"/>
      <vel value="0.0483028895" flag="0"/>
      <psa03 value="0.1261179271" flag="0"/>
      <psa10 value="0.0487407613" flag="0"/>
      <psa30 value="0.0124661827" flag="0"/>
    </comp>
    <comp name="--.HHE">
      <acc value="0.0556863424" flag="0"/>
      <vel value="0.0572967879" flag="0"/>
      <psa03 value="0.2303919638" flag="0"/>
      <psa10 value="0.0711947958" flag="0"/>
      <psa30 value="0.0188977146" flag="0"/>
    </comp>
    <comp name="--.HHZ">
      <acc value="0.0539534413" flag="0"/>
      <vel value="0.0390190491" flag="0"/>
      <psa03 value="0.1561782793" flag="0"/>
      <psa10 value="0.0564515226" flag="0"/>
      <psa30 value="0.0165869371" flag="0"/>
    </comp>
  </station>
  <station code="RDI1" name="RDI1" netid="HI" insttype="CMG-5TD,ACCELEROMETER,GURALP" lat="36.4514" lon="28.224">
    <comp name="--.HNE">
      <acc value="0.2503278825" flag="0"/>
      <vel value="0.5756247287" flag="0"/>
      <psa03 value="0.4228259284" flag="0"/>
      <psa10 value="0.4954013080" flag="0"/>
      <psa30 value="0.2506938507" flag="0"/>
    </comp>
    <comp name="--.HNN">
      <acc value="0.2055497023" flag="0"/>
      <vel value="0.4760590897" flag="0"/>
      <psa03 value="0.2945780966" flag="0"/>
      <psa10 value="0.4850911448" flag="0"/>
      <psa30 value="0.2432322059" flag="0"/>
    </comp>
    <comp name="--.HNZ">
      <acc value="0.1129657595" flag="0"/>
      <vel value="0.2230544837" flag="0"/>
      <psa03 value="0.2288263679" flag="0"/>
      <psa10 value="0.2788892169" flag="0"/>
      <psa30 value="0.0843266375" flag="0"/>
    </comp>
  </station>
  <station code="SIT2" name="SIT2" netid="HI" insttype="CMG-5TD,ACCELEROMETER,GURALP" lat="35.2059" lon="26.107">
    <comp name="--.HNE">
      <acc value="0.1440515197" flag="0"/>
      <vel value="0.0927438844" flag="0"/>
      <psa03 value="0.3721553287" flag="0"/>
      <psa10 value="0.1054892933" flag="0"/>
      <psa30 value="0.0203867147" flag="0"/>
    </comp>
    <comp name="--.HNZ">
      <acc value="0.0745353230" flag="0"/>
      <vel value="0.0395407395" flag="0"/>
      <psa03 value="0.1863169086" flag="0"/>
      <psa10 value="0.0347061774" flag="0"/>
      <psa30 value="0.0175773160" flag="0"/>
    </comp>
    <comp name="--.HNN">
      <acc value="0.1960064076" flag="0"/>
      <vel value="0.1553391781" flag="0"/>
      <psa03 value="0.5547452775" flag="0"/>
      <psa10 value="0.1209757561" flag="0"/>
      <psa30 value="0.0145828818" flag="0"/>
    </comp>
  </station>
  <station code="APE" name="APE" netid="HL" insttype="120" lat="37.0727" lon="25.523">
    <comp name="--.HHE">
      <acc value="0.0408979484" flag="0"/>
      <vel value="0.0370495643" flag="0"/>
      <psa03 value="0.1478651456" flag="0"/>
      <psa10 value="0.0311333418" flag="0"/>
      <psa30 value="0.0129334764" flag="0"/>
    </comp>
    <comp name="--.HHN">
      <acc value="0.0534403598" flag="0"/>
      <vel value="0.0433704928" flag="0"/>
      <psa03 value="0.1174472123" flag="0"/>
      <psa10 value="0.0514534040" flag="0"/>
      <psa30 value="0.0179334206" flag="0"/>
    </comp>
    <comp name="--.HHZ">
      <acc value="0.0326544546" flag="0"/>
      <vel value="0.0297292635" flag="0"/>
      <psa03 value="0.0739550952" flag="0"/>
      <psa10 value="0.0184181612" flag="0"/>
      <psa30 value="0.0100608260" flag="0"/>
    </comp>
  </station>
  <station code="ARG" name="ARG" netid="HL" insttype="LE3D20_DR24" lat="36.2136" lon="28.1212">
    <comp name="--.HHE">
      <acc value="0.4301678285" flag="0"/>
      <vel value="0.5166217348" flag="0"/>
      <psa03 value="0.7772325772" flag="0"/>
      <psa10 value="0.4397657212" flag="0"/>
      <psa30 value="0.1462604440" flag="0"/>
    </comp>
    <comp name="--.HHN">
      <acc value="0.3030227428" flag="0"/>
      <vel value="0.4397852463" flag="0"/>
      <psa03 value="0.9136190830" flag="0"/>
      <psa10 value="0.4084560945" flag="0"/>
      <psa30 value="0.0805558494" flag="0"/>
    </comp>
    <comp name="--.HHZ">
      <acc value="0.2461077457" flag="0"/>
      <vel value="0.2229507736" flag="0"/>
      <psa03 value="0.3993772137" flag="0"/>
      <psa10 value="0.3743989970" flag="0"/>
      <psa30 value="0.0869660219" flag="0"/>
    </comp>
  </station>
  <station code="KARP" name="KARP" netid="HL" insttype="120" lat="35.5471" lon="27.1611">
    <comp name="--.HHE">
      <acc value="0.3956882497" flag="0"/>
      <vel value="0.3016746742" flag="0"/>
      <psa03 value="0.7079214353" flag="0"/>
      <psa10 value="0.5873230231" flag="0"/>
      <psa30 value="0.0419260835" flag="0"/>
    </comp>
    <comp name="--.HHN">
      <acc value="0.3117807685" flag="0"/>
      <vel value="0.1952960477" flag="0"/>
      <psa03 value="0.5579296073" flag="0"/>
      <psa10 value="0.3188994223" flag="0"/>
      <psa30 value="0.0299227003" flag="0"/>
    </comp>
    <comp name="--.HHZ">
      <acc value="0.2073061526" flag="0"/>
      <vel value="0.1507566487" flag="0"/>
      <psa03 value="0.3219145008" flag="0"/>
      <psa10 value="0.1810310941" flag="0"/>
      <psa30 value="0.0334767019" flag="0"/>
    </comp>
  </station>
  <station code="KLNA" name="KLNA" netid="HL" insttype="CMG-5" lat="36.9571" lon="26.9727">
    <comp name="00.HNE">
      <acc value="0.4354493563" flag="0"/>
      <vel value="0.1749074008" flag="0"/>
      <psa03 value="0.8930395165" flag="0"/>
      <psa10 value="0.1184870981" flag="0"/>
      <psa30 value="0.0285324361" flag="0"/>
    </comp>
    <comp name="00.HNN">
      <acc value="0.3742197058" flag="0"/>
      <vel value="0.2156518797" flag="0"/>
      <psa03 value="1.1785374793" flag="0"/>
      <psa10 value="0.0939537615" flag="0"/>
      <psa30 value="0.0248648030" flag="0"/>
    </comp>
    <comp name="00.HNZ">
      <acc value="0.4258658024" flag="0"/>
      <vel value="0.1300857335" flag="0"/>
      <psa03 value="0.4008588922" flag="0"/>
      <psa10 value="0.0451917739" flag="0"/>
      <psa30 value="0.0385381244" flag="0"/>
    </comp>
  </station>
  <station code="NISR" name="NISR" netid="HL" insttype="65535" lat="36.6106" lon="27.131">
    <comp name="--.HHZ">
      <acc value="4.5561754660" flag="0"/>
      <vel value="1.0924381498" flag="0"/>
      <psa03 value="5.3211655101" flag="0"/>
      <psa10 value="1.9128150441" flag="0"/>
      <psa30 value="0.1046165904" flag="0"/>
    </comp>
    <comp name="--.HHE">
      <acc value="11.5626141934" flag="0"/>
      <vel value="2.8094103737" flag="0"/>
      <psa03 value="20.2377037560" flag="0"/>
      <psa10 value="1.6068247903" flag="0"/>
      <psa30 value="0.5440267059" flag="0"/>
    </comp>
    <comp name="--.HHN">
      <acc value="10.9545897786" flag="0"/>
      <vel value="8.9287867404" flag="0"/>
      <psa03 value="8.2785308935" flag="0"/>
      <psa10 value="2.8373345115" flag="0"/>
      <psa30 value="2.7697845497" flag="0"/>
    </comp>
  </station>
  <station code="NPS" name="NPS" netid="HL" insttype="CMG3ESPC-120s" lat="35.2613" lon="25.6104">
    <comp name="--.HHE">
      <acc value="0.0225761395" flag="0"/>
      <vel value="0.0176709157" flag="0"/>
      <psa03 value="0.0816444874" flag="0"/>
      <psa10 value="0.0216898490" flag="0"/>
      <psa30 value="0.0034053388" flag="0"/>
    </comp>
    <comp name="--.HHN">
      <acc value="0.0602859081" flag="0"/>
      <vel value="0.0480677001" flag="0"/>
      <psa03 value="0.1434215834" flag="0"/>
      <psa10 value="0.0577410879" flag="0"/>
      <psa30 value="0.0123241274" flag="0"/>
    </comp>
    <comp name="--.HHZ">
      <acc value="0.0286000475" flag="0"/>
      <vel value="0.0233270782" flag="0"/>
      <psa03 value="0.0854312698" flag="0"/>
      <psa10 value="0.0330097650" flag="0"/>
      <psa30 value="0.0093366713" flag="0"/>
    </comp>
  </station>
  <station code="RODB" name="RODB" netid="HL" insttype="CMG-5" lat="36.4471" lon="28.2212">
    <comp name="00.HNE">
      <acc value="0.2677397426" flag="0"/>
      <vel value="0.4805446749" flag="0"/>
      <psa03 value="0.5742974436" flag="0"/>
      <psa10 value="0.4197338122" flag="0"/>
      <psa30 value="0.1946416831" flag="0"/>
    </comp>
    <comp name="00.HNN">
      <acc value="0.2266296060" flag="0"/>
      <vel value="0.5974281219" flag="0"/>
      <psa03 value="0.4287407775" flag="0"/>
      <psa10 value="0.4927415228" flag="0"/>
      <psa30 value="0.2580845407" flag="0"/>
    </comp>
    <comp name="00.HNZ">
      <acc value="0.1049030293" flag="0"/>
      <vel value="0.2128708563" flag="0"/>
      <psa03 value="0.2302094465" flag="0"/>
      <psa10 value="0.2412192362" flag="0"/>
      <psa30 value="0.0769966152" flag="0"/>
    </comp>
  </station>
  <station code="SAP3" name="SAP3" netid="HL" insttype="LE3D20_SMART24" lat="36.4356" lon="25.3454">
    <comp name="--.HHN">
      <acc value="0.1274108695" flag="0"/>
      <vel value="0.1793757536" flag="0"/>
      <psa03 value="0.2982955014" flag="0"/>
      <psa10 value="0.1931773846" flag="0"/>
      <psa30 value="0.1005409612" flag="0"/>
    </comp>
    <comp name="--.HHE">
      <acc value="0.1189960018" flag="0"/>
      <vel value="0.1843442350" flag="0"/>
      <psa03 value="0.2447009279" flag="0"/>
      <psa10 value="0.2603024603" flag="0"/>
      <psa30 value="0.1675648924" flag="0"/>
    </comp>
    <comp name="--.HHZ">
      <acc value="0.0823503062" flag="0"/>
      <vel value="0.1064690343" flag="0"/>
      <psa03 value="0.1890305721" flag="0"/>
      <psa10 value="0.0844598112" flag="0"/>
      <psa30 value="0.0393246653" flag="0"/>
    </comp>
  </station>
  <station code="SMG" name="SMG" netid="HL" insttype="120" lat="37.7043" lon="26.8377">
    <comp name="--.HHE">
      <acc value="0.0556043187" flag="0"/>
      <vel value="0.0620670861" flag="0"/>
      <psa03 value="0.2441759772" flag="0"/>
      <psa10 value="0.0346958916" flag="0"/>
      <psa30 value="0.0306552658" flag="0"/>
    </comp>
    <comp name="--.HHZ">
      <acc value="0.0324199899" flag="0"/>
      <vel value="0.0413668539" flag="0"/>
      <psa03 value="0.0854723144" flag="0"/>
      <psa10 value="0.0308326756" flag="0"/>
      <psa30 value="0.0120019056" flag="0"/>
    </comp>
    <comp name="--.HHN">
      <acc value="0.0551588073" flag="0"/>
      <vel value="0.0544771800" flag="0"/>
      <psa03 value="0.2632673930" flag="0"/>
      <psa10 value="0.0485273878" flag="0"/>
      <psa30 value="0.0206023974" flag="0"/>
    </comp>
  </station>
  <station code="THERA" name="THERA" netid="HL" insttype="120" lat="36.367" lon="25.4753">
    <comp name="--.HHZ">
      <acc value="0.0394715964" flag="0"/>
      <vel value="0.0442825954" flag="0"/>
      <psa03 value="0.1413781193" flag="0"/>
      <psa10 value="0.0257727665" flag="0"/>
      <psa30 value="0.0111946490" flag="0"/>
    </comp>
    <comp name="--.HHN">
      <acc value="0.0408009931" flag="0"/>
      <vel value="0.0304260535" flag="0"/>
      <psa03 value="0.1104420592" flag="0"/>
      <psa10 value="0.0401401068" flag="0"/>
      <psa30 value="0.0092419831" flag="0"/>
    </comp>
    <comp name="--.HHE">
      <acc value="0.0612204776" flag="0"/>
      <vel value="0.0544367337" flag="0"/>
      <psa03 value="0.1732200885" flag="0"/>
      <psa10 value="0.0440098495" flag="0"/>
      <psa30 value="0.0255879389" flag="0"/>
    </comp>
  </station>
  <station code="THRA" name="THRA" netid="HL" insttype="CMG-5" lat="36.415" lon="25.4324">
    <comp name="00.HNN">
      <acc value="0.1858267338" flag="0"/>
      <vel value="0.1987634276" flag="0"/>
      <psa03 value="0.5689826132" flag="0"/>
      <psa10 value="0.2669806015" flag="0"/>
      <psa30 value="0.0681283888" flag="0"/>
    </comp>
    <comp name="00.HNZ">
      <acc value="0.1616303878" flag="0"/>
      <vel value="0.1016128553" flag="0"/>
      <psa03 value="0.5500352376" flag="0"/>
      <psa10 value="0.0962715795" flag="0"/>
      <psa30 value="0.0251062471" flag="0"/>
    </comp>
    <comp name="00.HNE">
      <acc value="0.1499525520" flag="0"/>
      <vel value="0.2725486145" flag="0"/>
      <psa03 value="0.4093578939" flag="0"/>
      <psa10 value="0.3235549652" flag="0"/>
      <psa30 value="0.1292687019" flag="0"/>
    </comp>
  </station>
  <station code="ZKR" name="ZKR" netid="HL" insttype="120" lat="35.1147" lon="26.2169">
    <comp name="--.HHE">
      <acc value="0.0423732365" flag="0"/>
      <vel value="0.0591736957" flag="0"/>
      <psa03 value="0.1450043914" flag="0"/>
      <psa10 value="0.0829825631" flag="0"/>
      <psa30 value="0.0137367833" flag="0"/>
    </comp>
    <comp name="--.HHZ">
      <acc value="0.0282161912" flag="0"/>
      <vel value="0.0321641760" flag="0"/>
      <psa03 value="0.1000212583" flag="0"/>
      <psa10 value="0.0371385524" flag="0"/>
      <psa30 value="0.0121963058" flag="0"/>
    </comp>
    <comp name="--.HHN">
      <acc value="0.0225654343" flag="0"/>
      <vel value="0.0218313293" flag="0"/>
      <psa03 value="0.0591804762" flag="0"/>
      <psa10 value="0.0239370002" flag="0"/>
      <psa30 value="0.0064809064" flag="0"/>
    </comp>
  </station>
  <station code="CMBO" name="CMBO" netid="HT" insttype="120P," lat="36.4709" lon="25.4056">
    <comp name="--.HHE">
      <acc value="0.2818936794" flag="0"/>
      <vel value="0.2972270635" flag="0"/>
      <psa03 value="0.6929160338" flag="0"/>
      <psa10 value="0.3775077711" flag="0"/>
      <psa30 value="0.1105237552" flag="0"/>
    </comp>
    <comp name="--.HHZ">
      <acc value="0.4026574196" flag="0"/>
      <vel value="0.1988726075" flag="0"/>
      <psa03 value="1.3307525612" flag="0"/>
      <psa10 value="0.1061459278" flag="0"/>
      <psa30 value="0.0500971806" flag="0"/>
    </comp>
    <comp name="--.HHN">
      <acc value="0.3364081626" flag="0"/>
      <vel value="0.3414798188" flag="0"/>
      <psa03 value="0.8830729517" flag="0"/>
      <psa10 value="0.5923539369" flag="0"/>
      <psa30 value="0.0622430164" flag="0"/>
    </comp>
  </station>
  <station code="THT1" name="THT1" netid="HT" insttype="30" lat="36.3858" lon="25.4296">
    <comp name="--.HHZ">
      <acc value="0.0343442820" flag="0"/>
      <vel value="0.0347631898" flag="0"/>
      <psa03 value="0.0605487499" flag="0"/>
      <psa10 value="0.0217215459" flag="0"/>
      <psa30 value="0.0200594011" flag="0"/>
    </comp>
    <comp name="--.HHE">
      <acc value="0.0553032706" flag="0"/>
