<stationlist created="1778118931">
	<station code="ABEA" name="ABEA" netid="HC" source="Seismological Network of Crete (HC)" insttype="" lat="35.5163" lon="24.0113">
		<comp name="--.HNE" depth="0.0">
			<acc value="0.017509058560337" flag="0"/>
			<vel value="0.0329341746761067" flag="0"/>
			<psa03 value="0.0164091117627167" flag="0"/>
			<psa10 value="0.0100570806072191" flag="0"/>
			<psa30 value="0.00291511498706253" flag="0"/>
		</comp>
		<comp name="--.HNN" depth="0.0">
			<acc value="0.0153608119928575" flag="0"/>
			<vel value="0.0376751782529175" flag="0"/>
			<psa03 value="0.0179536633004053" flag="0"/>
			<psa10 value="0.00816774951081045" flag="0"/>
			<psa30 value="0.000967082501968876" flag="0"/>
		</comp>
		<comp name="--.HNZ" depth="0.0">
			<acc value="0.00981046039373733" flag="0"/>
			<vel value="0.0261953217215814" flag="0"/>
			<psa03 value="0.0109401075409153" flag="0"/>
			<psa10 value="0.00815613780409852" flag="0"/>
			<psa30 value="0.00143994716026797" flag="0"/>
		</comp>
	</station>
	<station code="ATEI" name="ATEI" netid="HC" source="Seismological Network of Crete (HC)" insttype="" lat="35.5193" lon="24.0432">
		<comp name="--.HNE" depth="0.0">
			<acc value="0.0118910077816962" flag="0"/>
			<vel value="0.0212798659210471" flag="0"/>
			<psa03 value="0.000920126383545101" flag="0"/>
			<psa10 value="0.000532315946913977" flag="0"/>
			<psa30 value="0.00035620450825892" flag="0"/>
		</comp>
		<comp name="--.HNN" depth="0.0">
			<acc value="0.0149714644477582" flag="0"/>
			<vel value="0.025560432065736" flag="0"/>
			<psa03 value="0.00100809363672468" flag="0"/>
			<psa10 value="0.00116386967878031" flag="0"/>
			<psa30 value="0.000581509095041867" flag="0"/>
		</comp>
		<comp name="--.HNZ" depth="0.0">
			<acc value="0.00798626697275821" flag="0"/>
			<vel value="0.0193693262325983" flag="0"/>
			<psa03 value="0.00189436719174591" flag="0"/>
			<psa10 value="0.000648949903806897" flag="0"/>
			<psa30 value="0.000364898313347447" flag="0"/>
		</comp>
	</station>
	<station code="G0LD" name="G0LD" netid="HC" source="Seismological Network of Crete (HC)" insttype="" lat="35.4955" lon="24.0306">
		<comp name="--.HNE" depth="0.0">
			<acc value="0.0386859548176065" flag="0"/>
			<vel value="0.0630883199724128" flag="0"/>
			<psa03 value="0.0236738651523593" flag="0"/>
			<psa10 value="0.010798744738843" flag="0"/>
			<psa30 value="0.00212009752939049" flag="0"/>
		</comp>
		<comp name="--.HNN" depth="0.0">
			<acc value="0.0279556125317609" flag="0"/>
			<vel value="0.062259418055087" flag="0"/>
			<psa03 value="0.0293843788625481" flag="0"/>
			<psa10 value="0.00832401486262681" flag="0"/>
			<psa30 value="0.00304943971875104" flag="0"/>
		</comp>
		<comp name="--.HNZ" depth="0.0">
			<acc value="0.0293461140861705" flag="0"/>
			<vel value="0.045508788435619" flag="0"/>
			<psa03 value="0.0252340752794698" flag="0"/>
			<psa10 value="0.00452695395098897" flag="0"/>
			<psa30 value="0.00148460199342821" flag="0"/>
		</comp>
	</station>
	<station code="LENT" name="LENT" netid="HC" source="Seismological Network of Crete (HC)" insttype="" lat="35.5074" lon="24.0402">
		<comp name="--.HNE" depth="0.0">
			<acc value="0.0147506849940407" flag="0"/>
			<vel value="0.0353045567942785" flag="0"/>
			<psa03 value="0.0173497574091911" flag="0"/>
			<psa10 value="0.00705366273930503" flag="0"/>
			<psa30 value="0.0027490446107123" flag="0"/>
		</comp>
		<comp name="--.HNN" depth="0.0">
			<acc value="0.0162705676934397" flag="0"/>
			<vel value="0.0376719811309255" flag="0"/>
			<psa03 value="0.0216054924557639" flag="0"/>
			<psa10 value="0.00585805869265253" flag="0"/>
			<psa30 value="0.00133065054490247" flag="0"/>
		</comp>
		<comp name="--.HNZ" depth="0.0">
			<acc value="0.0104331079527842" flag="0"/>
			<vel value="0.0282314572834345" flag="0"/>
			<psa03 value="0.0198219328974227" flag="0"/>
			<psa10 value="0.00753784653283012" flag="0"/>
			<psa30 value="0.00164669564800717" flag="0"/>
		</comp>
	</station>
	<station code="MULT" name="MULT" netid="HC" source="Seismological Network of Crete (HC)" insttype="" lat="35.5091" lon="24.0118">
		<comp name="--.HNE" depth="0.0">
			<acc value="0.0185255848511019" flag="0"/>
			<vel value="0.0339705939970799" flag="0"/>
			<psa03 value="0.0132504715287259" flag="0"/>
			<psa10 value="0.00194599008416774" flag="0"/>
			<psa30 value="0.000762084234342498" flag="0"/>
		</comp>
		<comp name="--.HNN" depth="0.0">
			<acc value="0.0193142993484127" flag="0"/>
			<vel value="0.0400548563453652" flag="0"/>
			<psa03 value="0.0101484919492334" flag="0"/>
			<psa10 value="0.00301229822184701" flag="0"/>
			<psa30 value="0.000723931602747848" flag="0"/>
		</comp>
		<comp name="--.HNZ" depth="0.0">
			<acc value="0.0157617660262328" flag="0"/>
			<vel value="0.0438246050533379" flag="0"/>
			<psa03 value="0.0126519149501876" flag="0"/>
			<psa10 value="0.00503585469439614" flag="0"/>
			<psa30 value="0.0029365397396777" flag="0"/>
		</comp>
	</station>
	<station code="NERO" name="NERO" netid="HC" source="Seismological Network of Crete (HC)" insttype="" lat="35.474" lon="24.0423">
		<comp name="--.HNE" depth="0.0">
			<acc value="0.00896871201240511" flag="0"/>
			<vel value="0.0187185369844575" flag="0"/>
			<psa03 value="0.0151971590809675" flag="0"/>
			<psa10 value="0.0121014450988562" flag="0"/>
			<psa30 value="0.0018398679238858" flag="0"/>
		</comp>
		<comp name="--.HNN" depth="0.0">
			<acc value="0.0101303475253672" flag="0"/>
			<vel value="0.0227117180107995" flag="0"/>
			<psa03 value="0.0170171168838057" flag="0"/>
			<psa10 value="0.00885712486604834" flag="0"/>
			<psa30 value="0.00209401309308995" flag="0"/>
		</comp>
		<comp name="--.HNZ" depth="0.0">
			<acc value="0.0074478507195647" flag="0"/>
			<vel value="0.0196922471879929" flag="0"/>
			<psa03 value="0.0122096864359502" flag="0"/>
			<psa10 value="0.00903558231300106" flag="0"/>
			<psa30 value="0.00230225126284919" flag="0"/>
		</comp>
	</station>
	<station code="PASK" name="PASK" netid="HC" source="Seismological Network of Crete (HC)" insttype="" lat="35.4996" lon="24.0121">
		<comp name="--.HNE" depth="0.0">
			<acc value="0.0228233492108724" flag="0"/>
			<vel value="0.0415904111223109" flag="0"/>
			<psa03 value="0.0219783387695774" flag="0"/>
			<psa10 value="0.00787834752684875" flag="0"/>
			<psa30 value="0.00240380549031843" flag="0"/>
		</comp>
		<comp name="--.HNN" depth="0.0">
			<acc value="0.0187362995967894" flag="0"/>
			<vel value="0.0394709296245298" flag="0"/>
			<psa03 value="0.0273594556588138" flag="0"/>
			<psa10 value="0.00858910117330722" flag="0"/>
			<psa30 value="0.00180570795262341" flag="0"/>
		</comp>
		<comp name="--.HNZ" depth="0.0">
			<acc value="0.010670332934675" flag="0"/>
			<vel value="0.0372593143173386" flag="0"/>
			<psa03 value="0.0223040478462284" flag="0"/>
			<psa10 value="0.00736112873241353" flag="0"/>
			<psa30 value="0.00179008462598863" flag="0"/>
		</comp>
	</station>
	<station code="POLY" name="POLY" netid="HC" source="Seismological Network of Crete (HC)" insttype="" lat="35.5226" lon="24.0602">
		<comp name="--.HNE" depth="0.0">
			<acc value="0.0110392425127736" flag="0"/>
			<vel value="0.027876033578467" flag="0"/>
			<psa03 value="0.0106228677753463" flag="0"/>
			<psa10 value="0.00356241982095415" flag="0"/>
			<psa30 value="0.00135428554810417" flag="0"/>
		</comp>
		<comp name="--.HNN" depth="0.0">
			<acc value="0.0107622965608752" flag="0"/>
			<vel value="0.0296569260764364" flag="0"/>
			<psa03 value="0.01293828678549" flag="0"/>
			<psa10 value="0.00231477967091823" flag="0"/>
			<psa30 value="0.000857536807607135" flag="0"/>
		</comp>
		<comp name="--.HNZ" depth="0.0">
			<acc value="0.00995377322553215" flag="0"/>
			<vel value="0.0209043563389798" flag="0"/>
			<psa03 value="0.0128678680581146" flag="0"/>
			<psa10 value="0.00167007715785346" flag="0"/>
			<psa30 value="0.00105337582264553" flag="0"/>
		</comp>
	</station>
	<station code="SOUD" name="SOUD" netid="HC" source="Seismological Network of Crete (HC)" insttype="" lat="35.4878" lon="24.0678">
		<comp name="--.HNE" depth="0.0">
			<acc value="0.0299052663180783" flag="0"/>
			<vel value="0.0371548405557967" flag="0"/>
			<psa03 value="0.00690025723837009" flag="0"/>
			<psa10 value="0.000952164404343333" flag="0"/>
			<psa30 value="0.000519801621805697" flag="0"/>
		</comp>
		<comp name="--.HNN" depth="0.0">
			<acc value="0.0228818862859798" flag="0"/>
			<vel value="0.0412937219061755" flag="0"/>
			<psa03 value="0.00445159697978639" flag="0"/>
			<psa10 value="0.000752243523846554" flag="0"/>
			<psa30 value="0.00082619884620068" flag="0"/>
		</comp>
		<comp name="--.HNZ" depth="0.0">
			<acc value="0.0057446602643884" flag="0"/>
			<vel value="0.0117154175569933" flag="0"/>
			<psa03 value="0.00616394804483741" flag="0"/>
			<psa10 value="0.00303254159412327" flag="0"/>
			<psa30 value="0.00139656293210764" flag="0"/>
		</comp>
	</station>
	<station code="KRL1" name="KRL1" netid="HI" source="ITSAK Strong Motion Network" insttype="" lat="37.7951" lon="26.7065">
		<comp name="--.HNE" depth="0.0">
			<acc value="0.0880416969528108" flag="0"/>
			<vel value="0.138305428155544" flag="0"/>
			<psa03 value="0.202253939997621" flag="0"/>
			<psa10 value="0.13609794082075" flag="0"/>
			<psa30 value="0.030076495753553" flag="0"/>
		</comp>
		<comp name="--.HNN" depth="0.0">
			<acc value="0.061857553376221" flag="0"/>
			<vel value="0.0974372224601738" flag="0"/>
			<psa03 value="0.154980985479669" flag="0"/>
			<psa10 value="0.114371859074542" flag="0"/>
			<psa30 value="0.033802429245043" flag="0"/>
		</comp>
		<comp name="--.HNZ" depth="0.0">
			<acc value="0.0361379703405526" flag="0"/>
			<vel value="0.0537601243714221" flag="0"/>
			<psa03 value="0.105281505632852" flag="0"/>
			<psa10 value="0.0612981369509226" flag="0"/>
			<psa30 value="0.0215963823210272" flag="0"/>
		</comp>
	</station>
	<station code="MYT1" name="MYT1" netid="HI" source="ITSAK Strong Motion Network" insttype="" lat="39.085" lon="26.5694">
		<comp name="--.HNE" depth="0.0">
			<acc value="0.00981993813637616" flag="0"/>
			<vel value="0.0432351455234438" flag="0"/>
			<psa03 value="0.013019445807722" flag="0"/>
			<psa10 value="0.0247247466431223" flag="0"/>
			<psa30 value="0.0242847004088856" flag="0"/>
		</comp>
		<comp name="--.HNN" depth="0.0">
			<acc value="0.00715421941391181" flag="0"/>
			<vel value="0.0319866751874402" flag="0"/>
			<psa03 value="0.0117543620021286" flag="0"/>
			<psa10 value="0.0177482326083065" flag="0"/>
			<psa30 value="0.0172168255301956" flag="0"/>
		</comp>
		<comp name="--.HNZ" depth="0.0">
			<acc value="0.00876482093126713" flag="0"/>
			<vel value="0.0387125686625193" flag="0"/>
			<psa03 value="0.0105846393314507" flag="0"/>
			<psa10 value="0.0165371948830006" flag="0"/>
			<psa30 value="0.0180279709312642" flag="0"/>
		</comp>
	</station>
	<station code="RDI1" name="RDI1" netid="HI" source="ITSAK Strong Motion Network" insttype="" lat="36.4514" lon="28.224">
		<comp name="--.HNE" depth="0.0">
			<acc value="0.255452909959915" flag="0"/>
			<vel value="0.661412837343965" flag="0"/>
			<psa03 value="0.422920599747525" flag="0"/>
			<psa10 value="0.493388984597442" flag="0"/>
			<psa30 value="0.253261203978699" flag="0"/>
		</comp>
		<comp name="--.HNN" depth="0.0">
			<acc value="0.203678336000696" flag="0"/>
			<vel value="0.50964013526833" flag="0"/>
			<psa03 value="0.291887440277285" flag="0"/>
			<psa10 value="0.474113157671789" flag="0"/>
			<psa30 value="0.247944265090549" flag="0"/>
		</comp>
		<comp name="--.HNZ" depth="0.0">
			<acc value="0.113386961409869" flag="0"/>
			<vel value="0.22047332234832" flag="0"/>
			<psa03 value="0.224790766284839" flag="0"/>
			<psa10 value="0.276397779996557" flag="0"/>
			<psa30 value="0.0862057573752054" flag="0"/>
		</comp>
	</station>
	<station code="SIT2" name="SIT2" netid="HI" source="ITSAK Strong Motion Network" insttype="" lat="35.2059" lon="26.107">
		<comp name="--.HNE" depth="0.0">
			<acc value="0.143500066296245" flag="0"/>
			<vel value="0.101208060902057" flag="0"/>
			<psa03 value="0.379595688018191" flag="0"/>
			<psa10 value="0.106550468445598" flag="0"/>
			<psa30 value="0.0200061703105797" flag="0"/>
		</comp>
		<comp name="--.HNN" depth="0.0">
			<acc value="0.196086039005653" flag="0"/>
			<vel value="0.156592755898409" flag="0"/>
			<psa03 value="0.550125568118501" flag="0"/>
			<psa10 value="0.121176797368238" flag="0"/>
			<psa30 value="0.0160358806317433" flag="0"/>
		</comp>
		<comp name="--.HNZ" depth="0.0">
			<acc value="0.0752655298729106" flag="0"/>
			<vel value="0.0514867639221277" flag="0"/>
			<psa03 value="0.190276354874508" flag="0"/>
			<psa10 value="0.0348771866924541" flag="0"/>
			<psa30 value="0.0184995088349939" flag="0"/>
		</comp>
	</station>
	<station code="IACM" name="IACM" netid="HL" source="National Observatory of Athens Seismic Network" insttype="" lat="35.3058" lon="25.0709">
		<comp name="--.HNE" depth="0.0">
			<acc value="0.101004152427772" flag="0"/>
			<vel value="0.113603890231462" flag="0"/>
			<psa03 value="0.342286362291768" flag="0"/>
			<psa10 value="0.241241856088882" flag="0"/>
			<psa30 value="0.0214552046353516" flag="0"/>
		</comp>
		<comp name="--.HNN" depth="0.0">
			<acc value="0.0916143210520165" flag="0"/>
			<vel value="0.0986910661336408" flag="0"/>
			<psa03 value="0.347927215137272" flag="0"/>
			<psa10 value="0.15381493948476" flag="0"/>
			<psa30 value="0.016723539519078" flag="0"/>
		</comp>
		<comp name="--.HNZ" depth="0.0">
			<acc value="0.0474733174575374" flag="0"/>
			<vel value="0.0505638908817393" flag="0"/>
			<psa03 value="0.130384751933222" flag="0"/>
			<psa10 value="0.0722526013800907" flag="0"/>
			<psa30 value="0.0078582097344742" flag="0"/>
		</comp>
	</station>
	<station code="KARP" name="KARP" netid="HL" source="National Observatory of Athens Seismic Network" insttype="" lat="35.5471" lon="27.16106">
		<comp name="--.HNE" depth="0.0">
			<acc value="0.319832443697818" flag="0"/>
			<vel value="0.205868668022381" flag="0"/>
			<psa03 value="0.594666227051028" flag="0"/>
			<psa10 value="0.485959922461876" flag="0"/>
			<psa30 value="0.0332487425660385" flag="0"/>
		</comp>
		<comp name="--.HNN" depth="0.0">
			<acc value="0.286026345889675" flag="0"/>
			<vel value="0.175262258817309" flag="0"/>
			<psa03 value="0.547690698487116" flag="0"/>
			<psa10 value="0.322469071993622" flag="0"/>
			<psa30 value="0.0317660776800969" flag="0"/>
		</comp>
		<comp name="--.HNZ" depth="0.0">
			<acc value="0.171113629040739" flag="0"/>
			<vel value="0.125322465455682" flag="0"/>
			<psa03 value="0.263807538454656" flag="0"/>
			<psa10 value="0.146067061226022" flag="0"/>
			<psa30 value="0.0277735065251817" flag="0"/>
		</comp>
	</station>
	<station code="KLNA" name="KLNA" netid="HL" source="National Observatory of Athens Seismic Network" insttype="" lat="36.95708" lon="26.97274">
		<comp name="00.HNE" depth="0.0">
			<acc value="0.438095094989628" flag="0"/>
			<vel value="0.245895619742931" flag="0"/>
			<psa03 value="0.894851779537844" flag="0"/>
			<psa10 value="0.120085917602603" flag="0"/>
			<psa30 value="0.032958099979062" flag="0"/>
		</comp>
		<comp name="00.HNN" depth="0.0">
			<acc value="0.373169501163286" flag="0"/>
			<vel value="0.211160584865527" flag="0"/>
			<psa03 value="1.18493632954803" flag="0"/>
			<psa10 value="0.0961622802790541" flag="0"/>
			<psa30 value="0.0254494859035328" flag="0"/>
		</comp>
		<comp name="00.HNZ" depth="0.0">
			<acc value="0.419873291119579" flag="0"/>
			<vel value="0.137944093114892" flag="0"/>
			<psa03 value="0.401713611555274" flag="0"/>
			<psa10 value="0.0479592083122163" flag="0"/>
			<psa30 value="0.0412942655424351" flag="0"/>
		</comp>
	</station>
	<station code="NISR" name="NISR" netid="HL" source="National Observatory of Athens Seismic Network" insttype="" lat="36.6106" lon="27.131">
		<comp name="--.HNE" depth="0.0">
			<acc value="9.931388286705" flag="0"/>
			<vel value="3.45069768840932" flag="0"/>
			<psa03 value="19.9679854477151" flag="0"/>
			<psa10 value="1.62948558542487" flag="0"/>
			<psa30 value="0.564652658799121" flag="0"/>
		</comp>
		<comp name="--.HNN" depth="0.0">
			<acc value="10.4348835309824" flag="0"/>
			<vel value="3.15975247265611" flag="0"/>
			<psa03 value="7.58977211847467" flag="0"/>
			<psa10 value="1.3409821534869" flag="0"/>
			<psa30 value="0.313882473173493" flag="0"/>
		</comp>
		<comp name="--.HNZ" depth="0.0">
			<acc value="3.95069623434805" flag="0"/>
			<vel value="0.929556617676445" flag="0"/>
			<psa03 value="4.50636585793309" flag="0"/>
			<psa10 value="1.9667610882707" flag="0"/>
			<psa30 value="0.138998567972754" flag="0"/>
		</comp>
	</station>
	<station code="SIVA" name="SIVA" netid="HL" source="National Observatory of Athens Seismic Network" insttype="" lat="35.01777" lon="24.81204">
		<comp name="00.HNE" depth="0.0">
			<acc value="0.0224307814730253" flag="0"/>
			<vel value="0.0251675120838917" flag="0"/>
			<psa03 value="0.0430984514150725" flag="0"/>
			<psa10 value="0.0331791717072905" flag="0"/>
			<psa30 value="0.0108523389142117" flag="0"/>
		</comp>
		<comp name="00.HNN" depth="0.0">
			<acc value="0.0181252729866151" flag="0"/>
			<vel value="0.020164784203062" flag="0"/>
			<psa03 value="0.039980562578572" flag="0"/>
			<psa10 value="0.027883436515828" flag="0"/>
			<psa30 value="0.00847369550741189" flag="0"/>
		</comp>
		<comp name="00.HNZ" depth="0.0">
			<acc value="0.0149123450814905" flag="0"/>
			<vel value="0.0156262187086674" flag="0"/>
			<psa03 value="0.0276612725277331" flag="0"/>
			<psa10 value="0.0127366078002638" flag="0"/>
			<psa30 value="0.00695938060812542" flag="0"/>
		</comp>
	</station>
	<station code="THRA" name="THRA" netid="HL" source="National Observatory of Athens Seismic Network" insttype="" lat="36.41502" lon="25.43244">
		<comp name="00.HNE" depth="0.0">
			<acc value="0.149945957417986" flag="0"/>
			<vel value="0.304265546584427" flag="0"/>
			<psa03 value="0.410738584415295" flag="0"/>
			<psa10 value="0.326301405866817" flag="0"/>
			<psa30 value="0.135323751201199" flag="0"/>
		</comp>
		<comp name="00.HNN" depth="0.0">
			<acc value="0.189169622725525" flag="0"/>
			<vel value="0.231836810608649" flag="0"/>
			<psa03 value="0.569797996318801" flag="0"/>
			<psa10 value="0.2708753141602" flag="0"/>
			<psa30 value="0.06985293408091" flag="0"/>
		</comp>
		<comp name="00.HNZ" depth="0.0">
			<acc value="0.163079786922883" flag="0"/>
			<vel value="0.116852477248935" flag="0"/>
			<psa03 value="0.553205480482812" flag="0"/>
			<psa10 value="0.0969225906459359" flag="0"/>
			<psa30 value="0.0253384885505189" flag="0"/>
		</comp>
	</station>
	<station code="TNSA" name="TNSA" netid="HL" source="National Observatory of Athens Seismic Network" insttype="" lat="37.53942" lon="25.1631">
		<comp name="00.HNE" depth="0.0">
			<acc value="0.0220570033273331" flag="0"/>
			<vel value="0.0314038824780396" flag="0"/>
			<psa03 value="0.0595649719288726" flag="0"/>
			<psa10 value="0.0459288688122932" flag="0"/>
			<psa30 value="0.0101426927369363" flag="0"/>
		</comp>
		<comp name="00.HNN" depth="0.0">
			<acc value="0.0266900680829372" flag="0"/>
			<vel value="0.0230292038750997" flag="0"/>
			<psa03 value="0.111526836022086" flag="0"/>
			<psa10 value="0.0354951188774208" flag="0"/>
			<psa30 value="0.0101849547032676" flag="0"/>
		</comp>
		<comp name="00.HNZ" depth="0.0">
			<acc value="0.0219615074946458" flag="0"/>
			<vel value="0.0250157265748428" flag="0"/>
			<psa03 value="0.0544572846109653" flag="0"/>
			<psa10 value="0.0242718422654208" flag="0"/>
			<psa30 value="0.0105142581846841" flag="0"/>
		</comp>
	</station>
	<station code="BASM" name="BASM" netid="KO" source="Bogazici University Kandilli Observatory And Earthquake Research Institute (KOERI)" insttype="" lat="37.9194" lon="30.035">
		<comp name="--.HNE" depth="0.0">
