<?xml version="1.0" encoding="UTF-8" standalone="yes"?>
<!DOCTYPE earthquake SYSTEM "stationlist.dtd">
<stationlist created="" xmlns="ch.ethz.sed.shakemap.usgs.xml">
  <station code="CLDR" name="CLDR" netid="KO" insttype="CMG-3ESP" commtype="DIG" lat="39.144" lon="43.9172">
    <comp name="--.HHE">
      <acc value="0.0348634336" flag="0"/>
      <vel value="0.0156844438" flag="0"/>
      <psa03 value="0.0871267946" flag="0"/>
      <psa10 value="0.0264244925" flag="0"/>
      <psa30 value="0.0041720209" flag="0"/>
    </comp>
    <comp name="--.HHN">
      <acc value="0.0208307353" flag="0"/>
      <vel value="0.0133327180" flag="0"/>
      <psa03 value="0.0570944359" flag="0"/>
      <psa10 value="0.0247244924" flag="0"/>
      <psa30 value="0.0033490040" flag="0"/>
    </comp>
    <comp name="--.HHZ">
      <acc value="0.0098626211" flag="0"/>
      <vel value="0.0085041523" flag="0"/>
      <psa03 value="0.0291655250" flag="0"/>
      <psa10 value="0.0092641499" flag="0"/>
      <psa30 value="0.0022401879" flag="0"/>
    </comp>
  </station>
</stationlist>
