<stationlist created="1678266042">
	<station code="ARPRA" name="ARPRA" netid="KO" source="Bogazici University Kandilli Observatory And Earthquake Research Institute (KOERI)" insttype="" lat="39.0929" lon="38.3356">
		<comp name=".HNE" depth="0.0">
			<acc value="0.0325609384125" flag="0"/>
			<vel value="0.0148070877861" flag="0"/>
			<psa03 value="0.0943054660242" flag="0"/>
			<psa10 value="0.0158697706694" flag="0"/>
			<psa30 value="0.00386140371571" flag="0"/>
		</comp>
		<comp name=".HNN" depth="0.0">
			<acc value="0.0322362906016" flag="0"/>
			<vel value="0.0118790957209" flag="0"/>
			<psa03 value="0.0630691311455" flag="0"/>
			<psa10 value="0.0246532275303" flag="0"/>
			<psa30 value="0.00294088044389" flag="0"/>
		</comp>
		<comp name=".HNZ" depth="0.0">
			<acc value="0.0154306024085" flag="0"/>
			<vel value="0.00700949385937" flag="0"/>
			<psa03 value="0.0271017198351" flag="0"/>
			<psa10 value="0.0146513365167" flag="0"/>
			<psa30 value="0.00264977178438" flag="0"/>
		</comp>
	</station>
	<station code="KYHL" name="KYHL" netid="KO" source="Bogazici University Kandilli Observatory And Earthquake Research Institute (KOERI)" insttype="" lat="40.3244" lon="37.8955">
		<comp name=".HNE" depth="0.0">
			<acc value="0.00858923852449" flag="0"/>
			<vel value="0.00616559372166" flag="0"/>
			<psa03 value="0.0302427951034" flag="0"/>
			<psa10 value="0.0101193178551" flag="0"/>
			<psa30 value="0.000816694883277" flag="0"/>
		</comp>
		<comp name=".HNN" depth="0.0">
			<acc value="0.0109317556652" flag="0"/>
			<vel value="0.00750720240345" flag="0"/>
			<psa03 value="0.0264009494541" flag="0"/>
			<psa10 value="0.00716725354536" flag="0"/>
			<psa30 value="0.000767474226816" flag="0"/>
		</comp>
		<comp name=".HNZ" depth="0.0">
			<acc value="0.00481684539341" flag="0"/>
			<vel value="0.00287991842313" flag="0"/>
			<psa03 value="0.0219423181542" flag="0"/>
			<psa10 value="0.00669670565514" flag="0"/>
			<psa30 value="0.000415253602263" flag="0"/>
		</comp>
	</station>
	<station code="TUNC" name="TUNC" netid="KO" source="Bogazici University Kandilli Observatory And Earthquake Research Institute (KOERI)" insttype="" lat="39.6942" lon="37.5388">
		<comp name=".HNE" depth="0.0">
			<acc value="0.0363832853044" flag="0"/>
			<vel value="0.0194810383401" flag="0"/>
			<psa03 value="0.115747501037" flag="0"/>
			<psa10 value="0.0251041461515" flag="0"/>
			<psa30 value="0.00282062435252" flag="0"/>
		</comp>
		<comp name=".HNN" depth="0.0">
			<acc value="0.0338154311616" flag="0"/>
			<vel value="0.0178662993946" flag="0"/>
			<psa03 value="0.087213350373" flag="0"/>
			<psa10 value="0.0165464861235" flag="0"/>
			<psa30 value="0.00286000966994" flag="0"/>
		</comp>
		<comp name=".HNZ" depth="0.0">
			<acc value="0.018049188252" flag="0"/>
			<vel value="0.0114689215334" flag="0"/>
			<psa03 value="0.0699202360392" flag="0"/>
			<psa10 value="0.0114112793788" flag="0"/>
			<psa30 value="0.00121464202657" flag="0"/>
		</comp>
	</station>
</stationlist>
