<?xml version="1.0" encoding="UTF-8" standalone="yes"?>
<!DOCTYPE earthquake SYSTEM "stationlist.dtd">
<stationlist created="" xmlns="ch.ethz.sed.shakemap.usgs.xml">
  <station code="ARPRA" name="ARPRA" netid="KO" insttype="CMG-5T" lat="39.0929" lon="38.3356">
    <comp name="--.HNZ">
      <acc value="0.0153308345" flag="0"/>
      <vel value="0.0071642821" flag="0"/>
      <psa03 value="0.0276595829" flag="0"/>
      <psa10 value="0.0145584969" flag="0"/>
      <psa30 value="0.0023175084" flag="0"/>
    </comp>
    <comp name="--.HNE">
      <acc value="0.0325840035" flag="0"/>
      <vel value="0.0140787065" flag="0"/>
      <psa03 value="0.0950408090" flag="0"/>
      <psa10 value="0.0157781093" flag="0"/>
      <psa30 value="0.0032059788" flag="0"/>
    </comp>
    <comp name="--.HNN">
      <acc value="0.0324541616" flag="0"/>
      <vel value="0.0127386474" flag="0"/>
      <psa03 value="0.0631998514" flag="0"/>
      <psa10 value="0.0244570832" flag="0"/>
      <psa30 value="0.0025819721" flag="0"/>
    </comp>
  </station>
  <station code="DARE" name="DARE" netid="KO" insttype="CMG-3ESP" lat="38.5712" lon="37.4832">
    <comp name="--.HHE">
      <acc value="0.0412343791" flag="0"/>
      <vel value="0.0213935557" flag="0"/>
      <psa03 value="0.0553636380" flag="0"/>
      <psa10 value="0.0287326705" flag="0"/>
      <psa30 value="0.0062582039" flag="0"/>
    </comp>
    <comp name="--.HHZ">
      <acc value="0.0290851455" flag="0"/>
      <vel value="0.0207891987" flag="0"/>
      <psa03 value="0.0640848773" flag="0"/>
      <psa10 value="0.0364632639" flag="0"/>
      <psa30 value="0.0038466077" flag="0"/>
    </comp>
    <comp name="--.HHN">
      <acc value="0.0408057510" flag="0"/>
      <vel value="0.0178919875" flag="0"/>
      <psa03 value="0.0501830431" flag="0"/>
      <psa10 value="0.0207681833" flag="0"/>
      <psa30 value="0.0044272886" flag="0"/>
    </comp>
  </station>
  <station code="SARI" name="SARI" netid="KO" insttype="CMG-3T" lat="38.4072" lon="36.4181">
    <comp name="--.HHE">
      <acc value="0.0222606032" flag="0"/>
      <vel value="0.0141884860" flag="0"/>
      <psa03 value="0.0617739989" flag="0"/>
      <psa10 value="0.0207440104" flag="0"/>
      <psa30 value="0.0019346762" flag="0"/>
    </comp>
    <comp name="--.HHN">
      <acc value="0.0175039704" flag="0"/>
      <vel value="0.0173153446" flag="0"/>
      <psa03 value="0.0461013717" flag="0"/>
      <psa10 value="0.0166857195" flag="0"/>
      <psa30 value="0.0023826225" flag="0"/>
    </comp>
    <comp name="--.HHZ">
      <acc value="0.0130556671" flag="0"/>
      <vel value="0.0102996228" flag="0"/>
      <psa03 value="0.0338007818" flag="0"/>
      <psa10 value="0.0187181639" flag="0"/>
      <psa30 value="0.0011186986" flag="0"/>
    </comp>
  </station>
</stationlist>
