<?xml version="1.0" encoding="UTF-8" standalone="yes"?>
<!DOCTYPE earthquake SYSTEM "stationlist.dtd">
<stationlist created="" xmlns="ch.ethz.sed.shakemap.usgs.xml">
  <station code="ARPRA" name="ARPRA" netid="KO" insttype="CMG-5T" lat="39.0929" lon="38.3356">
    <comp name="--.HNZ">
      <acc value="0.0153308305" flag="0"/>
      <vel value="0.0071642981" flag="0"/>
      <psa03 value="0.0276595829" flag="0"/>
      <psa10 value="0.0145584969" flag="0"/>
      <psa30 value="0.0023175056" flag="0"/>
    </comp>
    <comp name="--.HNN">
      <acc value="0.0324541545" flag="0"/>
      <vel value="0.0127386543" flag="0"/>
      <psa03 value="0.0631998514" flag="0"/>
      <psa10 value="0.0244570835" flag="0"/>
      <psa30 value="0.0025819505" flag="0"/>
    </comp>
    <comp name="--.HNE">
      <acc value="0.0325840098" flag="0"/>
      <vel value="0.0140786994" flag="0"/>
      <psa03 value="0.0950408090" flag="0"/>
      <psa10 value="0.0157781093" flag="0"/>
      <psa30 value="0.0032060794" flag="0"/>
    </comp>
  </station>
  <station code="DARE" name="DARE" netid="KO" insttype="CMG-3ESP" lat="38.5712" lon="37.4832">
    <comp name="--.HHN">
      <acc value="0.0408057510" flag="0"/>
      <vel value="0.0178919867" flag="0"/>
      <psa03 value="0.0501830431" flag="0"/>
      <psa10 value="0.0207681833" flag="0"/>
      <psa30 value="0.0044272198" flag="0"/>
    </comp>
    <comp name="--.HHE">
      <acc value="0.0412343791" flag="0"/>
      <vel value="0.0213935564" flag="0"/>
      <psa03 value="0.0553636380" flag="0"/>
      <psa10 value="0.0287326705" flag="0"/>
      <psa30 value="0.0062582261" flag="0"/>
    </comp>
    <comp name="--.HHZ">
      <acc value="0.0290851455" flag="0"/>
      <vel value="0.0207891988" flag="0"/>
      <psa03 value="0.0640848773" flag="0"/>
      <psa10 value="0.0364632639" flag="0"/>
      <psa30 value="0.0038466161" flag="0"/>
    </comp>
  </station>
  <station code="SARI" name="SARI" netid="KO" insttype="CMG-3T" lat="38.4072" lon="36.4181">
    <comp name="--.HHE">
      <acc value="0.0222606027" flag="0"/>
      <vel value="0.0141884860" flag="0"/>
      <psa03 value="0.0617739989" flag="0"/>
      <psa10 value="0.0207440104" flag="0"/>
      <psa30 value="0.0019346757" flag="0"/>
    </comp>
    <comp name="--.HHN">
      <acc value="0.0175039704" flag="0"/>
      <vel value="0.0173153449" flag="0"/>
      <psa03 value="0.0461013717" flag="0"/>
      <psa10 value="0.0166857195" flag="0"/>
      <psa30 value="0.0023826186" flag="0"/>
    </comp>
    <comp name="--.HHZ">
      <acc value="0.0130556670" flag="0"/>
      <vel value="0.0102996224" flag="0"/>
      <psa03 value="0.0338007818" flag="0"/>
      <psa10 value="0.0187181639" flag="0"/>
      <psa30 value="0.0011187015" flag="0"/>
    </comp>
  </station>
</stationlist>
