<?xml version="1.0" encoding="UTF-8" standalone="yes"?>
<!DOCTYPE earthquake SYSTEM "stationlist.dtd">
<stationlist created="" xmlns="ch.ethz.sed.shakemap.usgs.xml">
  <station code="BLY" name="BLY" netid="MN" insttype="" lat="44.7488" lon="17.1839">
    <comp name="--.HHN">
      <acc value="0.0305114099" flag="0"/>
      <vel value="0.0166694804" flag="0"/>
      <psa03 value="0.1057086812" flag="0"/>
      <psa10 value="0.0185852245" flag="0"/>
      <psa30 value="0.0011169410" flag="0"/>
    </comp>
    <comp name="--.HHZ">
      <acc value="0.0330289918" flag="0"/>
      <vel value="0.0151772208" flag="0"/>
      <psa03 value="0.1221408181" flag="0"/>
      <psa10 value="0.0109567151" flag="0"/>
      <psa30 value="0.0007149138" flag="0"/>
    </comp>
    <comp name="--.HHE">
      <acc value="0.0484917361" flag="0"/>
      <vel value="0.0295235573" flag="0"/>
      <psa03 value="0.1122737842" flag="0"/>
      <psa10 value="0.0306368425" flag="0"/>
      <psa30 value="0.0012347800" flag="0"/>
    </comp>
  </station>
</stationlist>
