<?xml version="1.0" encoding="UTF-8" standalone="yes"?>
<!DOCTYPE earthquake SYSTEM "stationlist.dtd">
<stationlist created="" xmlns="ch.ethz.sed.shakemap.usgs.xml">
  <station code="OBER" name="OBER" netid="BW" insttype="Trillium Compact 120s 754 V/m/s" commtype="DIG" lat="47.4069" lon="10.2934">
    <comp name="--.HHE">
      <acc value="0.0240413957" flag="0"/>
      <vel value="0.0060732192" flag="0"/>
      <psa03 value="0.0255982898" flag="0"/>
      <psa10 value="0.0031160314" flag="0"/>
      <psa30 value="0.0002177323" flag="0"/>
    </comp>
    <comp name="--.HHZ">
      <acc value="0.0149822320" flag="0"/>
      <vel value="0.0068046345" flag="0"/>
      <psa03 value="0.0380126545" flag="0"/>
      <psa10 value="0.0034390117" flag="0"/>
      <psa30 value="0.0002682176" flag="0"/>
    </comp>
    <comp name="--.HHN">
      <acc value="0.0202171176" flag="0"/>
      <vel value="0.0081607790" flag="0"/>
      <psa03 value="0.0328446389" flag="0"/>
      <psa10 value="0.0033718098" flag="0"/>
      <psa30 value="0.0001786931" flag="0"/>
    </comp>
  </station>
  <station code="SCE" name="SCE" netid="BW" insttype="STS-2, generation 1" commtype="DIG" lat="47.0378" lon="11.709">
    <comp name="--.HHZ">
      <acc value="0.0018850750" flag="0"/>
      <vel value="0.0004290252" flag="0"/>
      <psa03 value="0.0018138871" flag="0"/>
      <psa10 value="0.0002104450" flag="0"/>
      <psa30 value="0.0000121457" flag="0"/>
    </comp>
    <comp name="--.HHE">
      <acc value="0.0022685239" flag="0"/>
      <vel value="0.0004415944" flag="0"/>
      <psa03 value="0.0020860302" flag="0"/>
      <psa10 value="0.0001042012" flag="0"/>
      <psa30 value="0.0000104245" flag="0"/>
    </comp>
    <comp name="--.HHN">
      <acc value="0.0030774799" flag="0"/>
      <vel value="0.0004784819" flag="0"/>
      <psa03 value="0.0029153025" flag="0"/>
      <psa10 value="0.0001515807" flag="0"/>
      <psa30 value="0.0000132330" flag="0"/>
    </comp>
  </station>
  <station code="BERNI" name="BERNI" netid="CH" insttype="Trillium 240s_g2" commtype="DIG" lat="46.4136" lon="10.0231">
    <comp name="--.HHE">
      <acc value="0.0591544259" flag="0"/>
      <vel value="0.0088019787" flag="0"/>
      <psa03 value="0.0442950311" flag="0"/>
      <psa10 value="0.0025496439" flag="0"/>
      <psa30 value="0.0002163453" flag="0"/>
    </comp>
    <comp name="--.HHZ">
      <acc value="0.0417556870" flag="0"/>
      <vel value="0.0082560071" flag="0"/>
      <psa03 value="0.0339084460" flag="0"/>
      <psa10 value="0.0024289248" flag="0"/>
      <psa30 value="0.0002270858" flag="0"/>
    </comp>
    <comp name="--.HHN">
      <acc value="0.0544804243" flag="0"/>
      <vel value="0.0101476919" flag="0"/>
      <psa03 value="0.0407937969" flag="0"/>
      <psa10 value="0.0030377199" flag="0"/>
      <psa30 value="0.0002705488" flag="0"/>
    </comp>
  </station>
  <station code="DAVOX" name="DAVOX" netid="CH" insttype="STS2.5" commtype="DIG" lat="46.7805" lon="9.87952">
    <comp name="--.HHZ">
      <acc value="0.0327010908" flag="0"/>
      <vel value="0.0053275646" flag="0"/>
      <psa03 value="0.0214763214" flag="0"/>
      <psa10 value="0.0012227480" flag="0"/>
      <psa30 value="0.0000795975" flag="0"/>
    </comp>
    <comp name="--.HHE">
      <acc value="0.0461724705" flag="0"/>
      <vel value="0.0083271676" flag="0"/>
      <psa03 value="0.0338868252" flag="0"/>
      <psa10 value="0.0016669275" flag="0"/>
      <psa30 value="0.0001256794" flag="0"/>
    </comp>
    <comp name="--.HHN">
      <acc value="0.0347855941" flag="0"/>
      <vel value="0.0076837857" flag="0"/>
      <psa03 value="0.0449852320" flag="0"/>
      <psa10 value="0.0028092827" flag="0"/>
      <psa30 value="0.0002023580" flag="0"/>
    </comp>
  </station>
  <station code="FUORN" name="FUORN" netid="CH" insttype="Trillium 240s_g2" commtype="DIG" lat="46.6203" lon="10.2635">
    <comp name="--.HHZ">
      <acc value="0.0637068868" flag="0"/>
      <vel value="0.0160426262" flag="0"/>
      <psa03 value="0.0691217806" flag="0"/>
      <psa10 value="0.0090994237" flag="0"/>
      <psa30 value="0.0005660308" flag="0"/>
    </comp>
    <comp name="--.HHN">
      <acc value="0.0872900446" flag="0"/>
      <vel value="0.0154157433" flag="0"/>
      <psa03 value="0.0718550050" flag="0"/>
      <psa10 value="0.0114927357" flag="0"/>
      <psa30 value="0.0006112621" flag="0"/>
    </comp>
    <comp name="--.HHE">
      <acc value="0.0828560687" flag="0"/>
      <vel value="0.0185416444" flag="0"/>
      <psa03 value="0.0945566236" flag="0"/>
      <psa10 value="0.0113494171" flag="0"/>
      <psa30 value="0.0005843591" flag="0"/>
    </comp>
  </station>
  <station code="SARD" name="SARD" netid="CH" insttype="EpiSensor ES-T" commtype="DIG" lat="46.7766" lon="10.2049">
    <comp name="--.HGN">
      <acc value="2.5275123526" flag="0"/>
      <vel value="0.4417016915" flag="0"/>
      <psa03 value="0.6290422003" flag="0"/>
      <psa10 value="0.0365187637" flag="0"/>
      <psa30 value="0.0044516138" flag="0"/>
    </comp>
    <comp name="--.HGZ">
      <acc value="0.7894141331" flag="0"/>
      <vel value="0.1188525338" flag="0"/>
      <psa03 value="0.1630284439" flag="0"/>
      <psa10 value="0.0170676183" flag="0"/>
      <psa30 value="0.0014606075" flag="0"/>
    </comp>
    <comp name="--.HGE">
      <acc value="1.0525396921" flag="0"/>
      <vel value="0.2052847182" flag="0"/>
      <psa03 value="0.3172213812" flag="0"/>
      <psa10 value="0.0217644598" flag="0"/>
      <psa30 value="0.0021492380" flag="0"/>
    </comp>
  </station>
  <station code="SCHK" name="SCHK" netid="CH" insttype="EpiSensor ES-T" commtype="DIG" lat="46.7889" lon="9.53633">
    <comp name="--.HGE">
      <acc value="0.0962839280" flag="0"/>
      <vel value="0.0175810827" flag="0"/>
      <psa03 value="0.0372993775" flag="0"/>
      <psa10 value="0.0013682823" flag="0"/>
      <psa30 value="0.0001734780" flag="0"/>
    </comp>
    <comp name="--.HGN">
      <acc value="0.0600533115" flag="0"/>
      <vel value="0.0124614918" flag="0"/>
      <psa03 value="0.0773631008" flag="0"/>
      <psa10 value="0.0022593311" flag="0"/>
      <psa30 value="0.0002122566" flag="0"/>
    </comp>
    <comp name="--.HGZ">
      <acc value="0.0331742973" flag="0"/>
      <vel value="0.0065371104" flag="0"/>
      <psa03 value="0.0307448596" flag="0"/>
      <psa10 value="0.0015122495" flag="0"/>
      <psa30 value="0.0001201921" flag="0"/>
    </comp>
  </station>
  <station code="SCUC" name="SCUC" netid="CH" insttype="EpiSensor ES-T" commtype="DIG" lat="46.798" lon="10.3038">
    <comp name="--.HGZ">
      <acc value="0.9358027711" flag="0"/>
      <vel value="0.1632031489" flag="0"/>
      <psa03 value="0.2881657372" flag="0"/>
      <psa10 value="0.0173100408" flag="0"/>
      <psa30 value="0.0015108213" flag="0"/>
    </comp>
    <comp name="--.HGE">
      <acc value="1.1754061926" flag="0"/>
      <vel value="0.2111184177" flag="0"/>
      <psa03 value="0.7059939919" flag="0"/>
      <psa10 value="0.0307394820" flag="0"/>
      <psa30 value="0.0032524688" flag="0"/>
    </comp>
    <comp name="--.HGN">
      <acc value="1.2538600317" flag="0"/>
      <vel value="0.2684853077" flag="0"/>
      <psa03 value="0.8506966878" flag="0"/>
      <psa10 value="0.0435999419" flag="0"/>
      <psa30 value="0.0050577655" flag="0"/>
    </comp>
  </station>
  <station code="STRW" name="STRW" netid="CH" insttype="EpiSensor ES-T" commtype="DIG" lat="47.1165" lon="9.55025">
    <comp name="--.HGE">
      <acc value="0.0332174121" flag="0"/>
      <vel value="0.0122361533" flag="0"/>
      <psa03 value="0.0801836261" flag="0"/>
      <psa10 value="0.0040645902" flag="0"/>
      <psa30 value="0.0002350466" flag="0"/>
    </comp>
    <comp name="--.HGN">
      <acc value="0.0346415631" flag="0"/>
      <vel value="0.0099464244" flag="0"/>
      <psa03 value="0.0943707636" flag="0"/>
      <psa10 value="0.0047209546" flag="0"/>
      <psa30 value="0.0002484332" flag="0"/>
    </comp>
    <comp name="--.HGZ">
      <acc value="0.0126021753" flag="0"/>
      <vel value="0.0044060479" flag="0"/>
      <psa03 value="0.0232823247" flag="0"/>
      <psa10 value="0.0014173700" flag="0"/>
      <psa30 value="0.0001275974" flag="0"/>
    </comp>
  </station>
  <station code="STSP" name="STSP" netid="CH" insttype="EpiSensor ES-T" commtype="DIG" lat="46.6264" lon="10.3332">
    <comp name="--.HGE">
      <acc value="0.5882115304" flag="0"/>
      <vel value="0.1506019427" flag="0"/>
      <psa03 value="0.9374333512" flag="0"/>
      <psa10 value="0.0493095889" flag="0"/>
      <psa30 value="0.0032571649" flag="0"/>
    </comp>
    <comp name="--.HGZ">
      <acc value="0.3362861428" flag="0"/>
      <vel value="0.1055365176" flag="0"/>
      <psa03 value="0.5534779959" flag="0"/>
      <psa10 value="0.0190089820" flag="0"/>
      <psa30 value="0.0016230167" flag="0"/>
    </comp>
    <comp name="--.HGN">
      <acc value="0.5180574305" flag="0"/>
      <vel value="0.1589181826" flag="0"/>
      <psa03 value="0.9877025193" flag="0"/>
      <psa10 value="0.0333420107" flag="0"/>
      <psa30 value="0.0028049138" flag="0"/>
    </comp>
  </station>
  <station code="SZER" name="SZER" netid="CH" insttype="EpiSensor ES-T" commtype="DIG" lat="46.6975" lon="10.0977">
    <comp name="--.HGE">
      <acc value="0.2069218685" flag="0"/>
      <vel value="0.0310292266" flag="0"/>
      <psa03 value="0.0859924765" flag="0"/>
      <psa10 value="0.0049765179" flag="0"/>
      <psa30 value="0.0004552111" flag="0"/>
    </comp>
    <comp name="--.HGZ">
      <acc value="0.1117157736" flag="0"/>
      <vel value="0.0178866077" flag="0"/>
      <psa03 value="0.0358556627" flag="0"/>
      <psa10 value="0.0019677640" flag="0"/>
      <psa30 value="0.0002208471" flag="0"/>
    </comp>
    <comp name="--.HGN">
      <acc value="0.1389119310" flag="0"/>
      <vel value="0.0313148007" flag="0"/>
      <psa03 value="0.1537456089" flag="0"/>
      <psa10 value="0.0066871921" flag="0"/>
      <psa30 value="0.0006006980" flag="0"/>
    </comp>
  </station>
  <station code="VDL" name="VDL" netid="CH" insttype="STS2_gen3" commtype="DIG" lat="46.4831" lon="9.44933">
    <comp name="--.HHE">
      <acc value="0.0061847316" flag="0"/>
      <vel value="0.0013261743" flag="0"/>
      <psa03 value="0.0099977362" flag="0"/>
      <psa10 value="0.0006809464" flag="0"/>
      <psa30 value="0.0000673724" flag="0"/>
    </comp>
    <comp name="--.HHN">
      <acc value="0.0138762567" flag="0"/>
      <vel value="0.0028968636" flag="0"/>
      <psa03 value="0.0107320958" flag="0"/>
      <psa10 value="0.0005787053" flag="0"/>
      <psa30 value="0.0000826480" flag="0"/>
    </comp>
    <comp name="--.HHZ">
      <acc value="0.0117027597" flag="0"/>
      <vel value="0.0027408861" flag="0"/>
      <psa03 value="0.0163533130" flag="0"/>
      <psa10 value="0.0007540965" flag="0"/>
      <psa30 value="0.0001280613" flag="0"/>
    </comp>
  </station>
  <station code="BRMO" name="BRMO" netid="IV" insttype="" commtype="DIG" lat="46.4762" lon="10.3722">
    <comp name="--.HHE">
      <acc value="0.1193414535" flag="0"/>
      <vel value="0.0335445142" flag="0"/>
      <psa03 value="0.0941679151" flag="0"/>
      <psa10 value="0.0119908110" flag="0"/>
      <psa30 value="0.0011516459" flag="0"/>
    </comp>
    <comp name="--.HHN">
      <acc value="0.1546379944" flag="0"/>
      <vel value="0.0193241776" flag="0"/>
      <psa03 value="0.0475643372" flag="0"/>
      <psa10 value="0.0049070739" flag="0"/>
      <psa30 value="0.0003846295" flag="0"/>
    </comp>
    <comp name="--.HHZ">
      <acc value="0.1562316284" flag="0"/>
      <vel value="0.0158968995" flag="0"/>
      <psa03 value="0.0530047835" flag="0"/>
      <psa10 value="0.0051568651" flag="0"/>
      <psa30 value="0.0005755812" flag="0"/>
    </comp>
  </station>
  <station code="MABI" name="MABI" netid="IV" insttype="" commtype="DIG" lat="46.0549" lon="10.514">
    <comp name="--.HHZ">
      <acc value="0.0420710505" flag="0"/>
      <vel value="0.0044598476" flag="0"/>
      <psa03 value="0.0118787454" flag="0"/>
      <psa10 value="0.0011350610" flag="0"/>
      <psa30 value="0.0001262286" flag="0"/>
    </comp>
    <comp name="--.HHN">
      <acc value="0.0266339251" flag="0"/>
      <vel value="0.0033480593" flag="0"/>
      <psa03 value="0.0091411804" flag="0"/>
      <psa10 value="0.0010605464" flag="0"/>
      <psa30 value="0.0000699810" flag="0"/>
    </comp>
    <comp name="--.HHE">
      <acc value="0.0345667509" flag="0"/>
      <vel value="0.0039914011" flag="0"/>
      <psa03 value="0.0122889232" flag="0"/>
      <psa10 value="0.0008376763" flag="0"/>
      <psa30 value="0.0000649516" flag="0"/>
    </comp>
  </station>
  <station code="TUE" name="TUE" netid="MN" insttype="" commtype="DIG" lat="46.4722" lon="9.34732">
    <comp name="--.HHE">
      <acc value="0.0113890682" flag="0"/>
      <vel value="0.0024551519" flag="0"/>
      <psa03 value="0.0124862371" flag="0"/>
      <psa10 value="0.0007612009" flag="0"/>
      <psa30 value="0.0000750038" flag="0"/>
    </comp>
    <comp name="--.HHN">
      <acc value="0.0113784932" flag="0"/>
      <vel value="0.0021731589" flag="0"/>
      <psa03 value="0.0111126425" flag="0"/>
      <psa10 value="0.0007204687" flag="0"/>
      <psa30 value="0.0001223857" flag="0"/>
    </comp>
    <comp name="--.HHZ">
      <acc value="0.0095162219" flag="0"/>
      <vel value="0.0019771236" flag="0"/>
      <psa03 value="0.0064286462" flag="0"/>
      <psa10 value="0.0006307834" flag="0"/>
      <psa30 value="0.0000900591" flag="0"/>
    </comp>
  </station>
  <station code="CARE" name="CARE" netid="ST" insttype="" commtype="DIG" lat="46.4252" lon="10.6945">
    <comp name="--.HNE">
      <acc value="1.1983516516" flag="0"/>
      <vel value="0.0605564550" flag="0"/>
      <psa03 value="0.0731347249" flag="0"/>
      <psa10 value="0.0045210842" flag="0"/>
      <psa30 value="0.0003655166" flag="0"/>
    </comp>
    <comp name="--.HNN">
      <acc value="1.0307325625" flag="0"/>
      <vel value="0.0617860089" flag="0"/>
      <psa03 value="0.0544389154" flag="0"/>
      <psa10 value="0.0033461617" flag="0"/>
      <psa30 value="0.0002630225" flag="0"/>
    </comp>
    <comp name="--.HNZ">
      <acc value="1.8550496813" flag="0"/>
      <vel value="0.0468680949" flag="0"/>
      <psa03 value="0.0514636971" flag="0"/>
      <psa10 value="0.0030575365" flag="0"/>
      <psa30 value="0.0003009312" flag="0"/>
    </comp>
  </station>
  <station code="GAGG" name="GAGG" netid="ST" insttype="" commtype="DIG" lat="46.0835" lon="10.9587">
    <comp name="--.HHE">
      <acc value="0.0225018556" flag="0"/>
      <vel value="0.0052180140" flag="0"/>
      <psa03 value="0.0170265910" flag="0"/>
      <psa10 value="0.0030213984" flag="0"/>
      <psa30 value="0.0001678980" flag="0"/>
    </comp>
    <comp name="--.HHN">
      <acc value="0.0146135329" flag="0"/>
      <vel value="0.0036119056" flag="0"/>
      <psa03 value="0.0109573764" flag="0"/>
      <psa10 value="0.0045609685" flag="0"/>
      <psa30 value="0.0002231030" flag="0"/>
    </comp>
    <comp name="--.HHZ">
      <acc value="0.0043103225" flag="0"/>
      <vel value="0.0014151770" flag="0"/>
      <psa03 value="0.0053936916" flag="0"/>
      <psa10 value="0.0011129575" flag="0"/>
      <psa30 value="0.0000487481" flag="0"/>
    </comp>
  </station>
  <station code="OZOL" name="OZOL" netid="ST" insttype="" commtype="DIG" lat="46.404" lon="11.0518">
    <comp name="--.HNE">
      <acc value="0.0571927652" flag="0"/>
      <vel value="0.0149870936" flag="0"/>
      <psa03 value="0.0812105615" flag="0"/>
      <psa10 value="0.0069831845" flag="0"/>
      <psa30 value="0.0004881572" flag="0"/>
    </comp>
    <comp name="--.HNN">
      <acc value="0.0422157242" flag="0"/>
      <vel value="0.0121481309" flag="0"/>
      <psa03 value="0.0567803010" flag="0"/>
      <psa10 value="0.0057965582" flag="0"/>
      <psa30 value="0.0003396231" flag="0"/>
    </comp>
    <comp name="--.HNZ">
      <acc value="0.0271534912" flag="0"/>
      <vel value="0.0079652892" flag="0"/>
      <psa03 value="0.0256968204" flag="0"/>
      <psa10 value="0.0021348158" flag="0"/>
      <psa30 value="0.0002424889" flag="0"/>
    </comp>
  </station>
  <station code="PANI" name="PANI" netid="ST" insttype="" commtype="DIG" lat="46.0501" lon="11.3341">
    <comp name="--.HNE">
      <acc value="0.0107935423" flag="0"/>
      <vel value="0.0031130923" flag="0"/>
      <psa03 value="0.0239424756" flag="0"/>
      <psa10 value="0.0014757088" flag="0"/>
      <psa30 value="0.0001267215" flag="0"/>
    </comp>
    <comp name="--.HNN">
      <acc value="0.0100898783" flag="0"/>
      <vel value="0.0028047386" flag="0"/>
      <psa03 value="0.0228798011" flag="0"/>
      <psa10 value="0.0012521027" flag="0"/>
      <psa30 value="0.0001242896" flag="0"/>
    </comp>
    <comp name="--.HNZ">
      <acc value="0.0104576833" flag="0"/>
      <vel value="0.0014767908" flag="0"/>
      <psa03 value="0.0087918423" flag="0"/>
      <psa10 value="0.0007047212" flag="0"/>
      <psa30 value="0.0002907595" flag="0"/>
    </comp>
  </station>
  <station code="RONC" name="RONC" netid="ST" insttype="" commtype="DIG" lat="45.9802" lon="10.6228">
    <comp name="--.HNN">
      <acc value="0.0406904780" flag="0"/>
      <vel value="0.0097737242" flag="0"/>
      <psa03 value="0.0634751359" flag="0"/>
      <psa10 value="0.0030639377" flag="0"/>
      <psa30 value="0.0002963705" flag="0"/>
    </comp>
    <comp name="--.HNE">
      <acc value="0.0530180699" flag="0"/>
      <vel value="0.0105123602" flag="0"/>
      <psa03 value="0.0401155518" flag="0"/>
      <psa10 value="0.0027902820" flag="0"/>
      <psa30 value="0.0001629753" flag="0"/>
    </comp>
    <comp name="--.HNZ">
      <acc value="0.0214097105" flag="0"/>
      <vel value="0.0033551543" flag="0"/>
      <psa03 value="0.0170731096" flag="0"/>
      <psa10 value="0.0011022675" flag="0"/>
      <psa30 value="0.0003124099" flag="0"/>
    </comp>
  </station>
  <station code="ZIAN" name="ZIAN" netid="ST" insttype="" commtype="DIG" lat="46.2764" lon="11.5632">
    <comp name="--.HNE">
      <acc value="0.0129225915" flag="0"/>
      <vel value="0.0038117086" flag="0"/>
      <psa03 value="0.0228913061" flag="0"/>
      <psa10 value="0.0014135080" flag="0"/>
      <psa30 value="0.0001741258" flag="0"/>
    </comp>
    <comp name="--.HNN">
      <acc value="0.0137528562" flag="0"/>
      <vel value="0.0027362574" flag="0"/>
      <psa03 value="0.0130368267" flag="0"/>
      <psa10 value="0.0017408990" flag="0"/>
      <psa30 value="0.0004515875" flag="0"/>
    </comp>
    <comp name="--.HNZ">
      <acc value="0.0130260891" flag="0"/>
      <vel value="0.0025062716" flag="0"/>
      <psa03 value="0.0123338054" flag="0"/>
      <psa10 value="0.0012779337" flag="0"/>
      <psa30 value="0.0004161108" flag="0"/>
    </comp>
  </station>
</stationlist>
