<?xml version="1.0" encoding="UTF-8" standalone="yes"?>
<!DOCTYPE earthquake SYSTEM "stationlist.dtd">
<stationlist created="" xmlns="ch.ethz.sed.shakemap.usgs.xml">
  <station code="OBER" name="OBER" netid="BW" insttype="Trillium Compact 120s 754 V/m/s" commtype="DIG" lat="47.4069" lon="10.2934">
    <comp name="--.HHE">
      <acc value="0.0240413951" flag="0"/>
      <vel value="0.0060732193" flag="0"/>
      <psa03 value="0.0255982898" flag="0"/>
      <psa10 value="0.0031160315" flag="0"/>
      <psa30 value="0.0002177007" flag="0"/>
    </comp>
    <comp name="--.HHN">
      <acc value="0.0202171177" flag="0"/>
      <vel value="0.0081607789" flag="0"/>
      <psa03 value="0.0328446389" flag="0"/>
      <psa10 value="0.0033718098" flag="0"/>
      <psa30 value="0.0001787163" flag="0"/>
    </comp>
    <comp name="--.HHZ">
      <acc value="0.0149822312" flag="0"/>
      <vel value="0.0068046343" flag="0"/>
      <psa03 value="0.0380126545" flag="0"/>
      <psa10 value="0.0034390117" flag="0"/>
      <psa30 value="0.0002682751" flag="0"/>
    </comp>
  </station>
  <station code="SCE" name="SCE" netid="BW" insttype="STS-2, generation 1" commtype="DIG" lat="47.0378" lon="11.709">
    <comp name="--.HHE">
      <acc value="0.0022685210" flag="0"/>
      <vel value="0.0004415943" flag="0"/>
      <psa03 value="0.0020860302" flag="0"/>
      <psa10 value="0.0001042012" flag="0"/>
      <psa30 value="0.0000104253" flag="0"/>
    </comp>
    <comp name="--.HHZ">
      <acc value="0.0018850746" flag="0"/>
      <vel value="0.0004290252" flag="0"/>
      <psa03 value="0.0018138871" flag="0"/>
      <psa10 value="0.0002104450" flag="0"/>
      <psa30 value="0.0000121467" flag="0"/>
    </comp>
    <comp name="--.HHN">
      <acc value="0.0030774829" flag="0"/>
      <vel value="0.0004784818" flag="0"/>
      <psa03 value="0.0029153025" flag="0"/>
      <psa10 value="0.0001515807" flag="0"/>
      <psa30 value="0.0000132344" flag="0"/>
    </comp>
  </station>
  <station code="BERNI" name="BERNI" netid="CH" insttype="Trillium 240s_g2" commtype="DIG" lat="46.4136" lon="10.0231">
    <comp name="--.HHE">
      <acc value="0.0591544264" flag="0"/>
      <vel value="0.0088019785" flag="0"/>
      <psa03 value="0.0442950311" flag="0"/>
      <psa10 value="0.0025496448" flag="0"/>
      <psa30 value="0.0002161927" flag="0"/>
    </comp>
    <comp name="--.HHN">
      <acc value="0.0544804246" flag="0"/>
      <vel value="0.0101476922" flag="0"/>
      <psa03 value="0.0407937969" flag="0"/>
      <psa10 value="0.0030377206" flag="0"/>
      <psa30 value="0.0002703365" flag="0"/>
    </comp>
    <comp name="--.HHZ">
      <acc value="0.0417556873" flag="0"/>
      <vel value="0.0082560066" flag="0"/>
      <psa03 value="0.0339084460" flag="0"/>
      <psa10 value="0.0024289246" flag="0"/>
      <psa30 value="0.0002271140" flag="0"/>
    </comp>
  </station>
  <station code="DAVOX" name="DAVOX" netid="CH" insttype="STS2.5" commtype="DIG" lat="46.7805" lon="9.87952">
    <comp name="--.HHE">
      <acc value="0.0461724720" flag="0"/>
      <vel value="0.0083271678" flag="0"/>
      <psa03 value="0.0338868252" flag="0"/>
      <psa10 value="0.0016669276" flag="0"/>
      <psa30 value="0.0001256734" flag="0"/>
    </comp>
    <comp name="--.HHN">
      <acc value="0.0347855931" flag="0"/>
      <vel value="0.0076837865" flag="0"/>
      <psa03 value="0.0449852320" flag="0"/>
      <psa10 value="0.0028092830" flag="0"/>
      <psa30 value="0.0002022679" flag="0"/>
    </comp>
    <comp name="--.HHZ">
      <acc value="0.0327010893" flag="0"/>
      <vel value="0.0053275641" flag="0"/>
      <psa03 value="0.0214763214" flag="0"/>
      <psa10 value="0.0012227480" flag="0"/>
      <psa30 value="0.0000797363" flag="0"/>
    </comp>
  </station>
  <station code="FUORN" name="FUORN" netid="CH" insttype="Trillium 240s_g2" commtype="DIG" lat="46.6203" lon="10.2635">
    <comp name="--.HHZ">
      <acc value="0.0637068874" flag="0"/>
      <vel value="0.0160426261" flag="0"/>
      <psa03 value="0.0691217806" flag="0"/>
      <psa10 value="0.0090994240" flag="0"/>
      <psa30 value="0.0005656803" flag="0"/>
    </comp>
    <comp name="--.HHE">
      <acc value="0.0828560703" flag="0"/>
      <vel value="0.0185416452" flag="0"/>
      <psa03 value="0.0945566236" flag="0"/>
      <psa10 value="0.0113494176" flag="0"/>
      <psa30 value="0.0005842749" flag="0"/>
    </comp>
    <comp name="--.HHN">
      <acc value="0.0872900448" flag="0"/>
      <vel value="0.0154157438" flag="0"/>
      <psa03 value="0.0718550050" flag="0"/>
      <psa10 value="0.0114927356" flag="0"/>
      <psa30 value="0.0006114128" flag="0"/>
    </comp>
  </station>
  <station code="SARD" name="SARD" netid="CH" insttype="EpiSensor ES-T" commtype="DIG" lat="46.7766" lon="10.2049">
    <comp name="--.HGN">
      <acc value="2.5275123580" flag="0"/>
      <vel value="0.4417016917" flag="0"/>
      <psa03 value="0.6290422003" flag="0"/>
      <psa10 value="0.0365187630" flag="0"/>
      <psa30 value="0.0044515008" flag="0"/>
    </comp>
    <comp name="--.HGE">
      <acc value="1.0525396915" flag="0"/>
      <vel value="0.2052847176" flag="0"/>
      <psa03 value="0.3172213812" flag="0"/>
      <psa10 value="0.0217644555" flag="0"/>
      <psa30 value="0.0021497724" flag="0"/>
    </comp>
    <comp name="--.HGZ">
      <acc value="0.7894141284" flag="0"/>
      <vel value="0.1188525348" flag="0"/>
      <psa03 value="0.1630284439" flag="0"/>
      <psa10 value="0.0170676346" flag="0"/>
      <psa30 value="0.0014607589" flag="0"/>
    </comp>
  </station>
  <station code="SCUC" name="SCUC" netid="CH" insttype="EpiSensor ES-T" commtype="DIG" lat="46.798" lon="10.3038">
    <comp name="--.HGE">
      <acc value="1.1754062016" flag="0"/>
      <vel value="0.2111184186" flag="0"/>
      <psa03 value="0.7059939919" flag="0"/>
      <psa10 value="0.0307395132" flag="0"/>
      <psa30 value="0.0032515257" flag="0"/>
    </comp>
    <comp name="--.HGZ">
      <acc value="0.9358027703" flag="0"/>
      <vel value="0.1632031477" flag="0"/>
      <psa03 value="0.2881657372" flag="0"/>
      <psa10 value="0.0173100357" flag="0"/>
      <psa30 value="0.0015125011" flag="0"/>
    </comp>
    <comp name="--.HGN">
      <acc value="1.2538600285" flag="0"/>
      <vel value="0.2684853080" flag="0"/>
      <psa03 value="0.8506966878" flag="0"/>
      <psa10 value="0.0435999304" flag="0"/>
      <psa30 value="0.0050570987" flag="0"/>
    </comp>
  </station>
  <station code="SGT00" name="SGT00" netid="CH" insttype="Trillium Compact 20s" commtype="DIG" lat="47.424" lon="9.3103">
    <comp name="BT.HH2">
      <acc value="0.0024973778" flag="0"/>
      <vel value="0.0014778330" flag="0"/>
      <psa03 value="0.0072250351" flag="0"/>
      <psa10 value="0.0023559764" flag="0"/>
      <psa30 value="0.0000769155" flag="0"/>
    </comp>
    <comp name="BT.HH1">
      <acc value="0.0029626770" flag="0"/>
      <vel value="0.0018833898" flag="0"/>
      <psa03 value="0.0088804351" flag="0"/>
      <psa10 value="0.0008236248" flag="0"/>
      <psa30 value="0.0000895828" flag="0"/>
    </comp>
    <comp name="BT.HHZ">
      <acc value="0.0018174663" flag="0"/>
      <vel value="0.0011444710" flag="0"/>
      <psa03 value="0.0020441818" flag="0"/>
      <psa10 value="0.0011214187" flag="0"/>
      <psa30 value="0.0000705873" flag="0"/>
    </comp>
  </station>
  <station code="STRW" name="STRW" netid="CH" insttype="EpiSensor ES-T" commtype="DIG" lat="47.1165" lon="9.55025">
    <comp name="--.HGN">
      <acc value="0.0346415643" flag="0"/>
      <vel value="0.0099464231" flag="0"/>
      <psa03 value="0.0943707636" flag="0"/>
      <psa10 value="0.0047209547" flag="0"/>
      <psa30 value="0.0002487002" flag="0"/>
    </comp>
    <comp name="--.HGZ">
      <acc value="0.0126021665" flag="0"/>
      <vel value="0.0044060489" flag="0"/>
      <psa03 value="0.0232823247" flag="0"/>
      <psa10 value="0.0014173702" flag="0"/>
      <psa30 value="0.0001275118" flag="0"/>
    </comp>
    <comp name="--.HGE">
      <acc value="0.0332174136" flag="0"/>
      <vel value="0.0122361527" flag="0"/>
      <psa03 value="0.0801836261" flag="0"/>
      <psa10 value="0.0040645902" flag="0"/>
      <psa30 value="0.0002351017" flag="0"/>
    </comp>
  </station>
  <station code="STSP" name="STSP" netid="CH" insttype="EpiSensor ES-T" commtype="DIG" lat="46.6264" lon="10.3332">
    <comp name="--.HGE">
      <acc value="0.5882115270" flag="0"/>
      <vel value="0.1506019431" flag="0"/>
      <psa03 value="0.9374333512" flag="0"/>
      <psa10 value="0.0493095815" flag="0"/>
      <psa30 value="0.0032573605" flag="0"/>
    </comp>
    <comp name="--.HGZ">
      <acc value="0.3362861477" flag="0"/>
      <vel value="0.1055365180" flag="0"/>
      <psa03 value="0.5534779959" flag="0"/>
      <psa10 value="0.0190090078" flag="0"/>
      <psa30 value="0.0016232078" flag="0"/>
    </comp>
    <comp name="--.HGN">
      <acc value="0.5180574397" flag="0"/>
      <vel value="0.1589181809" flag="0"/>
      <psa03 value="0.9877025193" flag="0"/>
      <psa10 value="0.0333420259" flag="0"/>
      <psa30 value="0.0028038801" flag="0"/>
    </comp>
  </station>
  <station code="SZER" name="SZER" netid="CH" insttype="EpiSensor ES-T" commtype="DIG" lat="46.6975" lon="10.0977">
    <comp name="--.HGN">
      <acc value="0.1389119340" flag="0"/>
      <vel value="0.0313148009" flag="0"/>
      <psa03 value="0.1537456089" flag="0"/>
      <psa10 value="0.0066871975" flag="0"/>
      <psa30 value="0.0006008065" flag="0"/>
    </comp>
    <comp name="--.HGE">
      <acc value="0.2069218715" flag="0"/>
      <vel value="0.0310292262" flag="0"/>
      <psa03 value="0.0859924765" flag="0"/>
      <psa10 value="0.0049765140" flag="0"/>
      <psa30 value="0.0004552810" flag="0"/>
    </comp>
    <comp name="--.HGZ">
      <acc value="0.1117157702" flag="0"/>
      <vel value="0.0178866062" flag="0"/>
      <psa03 value="0.0358556627" flag="0"/>
      <psa10 value="0.0019677616" flag="0"/>
      <psa30 value="0.0002197108" flag="0"/>
    </comp>
  </station>
  <station code="VDL" name="VDL" netid="CH" insttype="STS2_gen3" commtype="DIG" lat="46.4831" lon="9.44933">
    <comp name="--.HHE">
      <acc value="0.0061847321" flag="0"/>
      <vel value="0.0013261744" flag="0"/>
      <psa03 value="0.0099977362" flag="0"/>
      <psa10 value="0.0006809464" flag="0"/>
      <psa30 value="0.0000673149" flag="0"/>
    </comp>
    <comp name="--.HHZ">
      <acc value="0.0117027615" flag="0"/>
      <vel value="0.0027408862" flag="0"/>
      <psa03 value="0.0163533130" flag="0"/>
      <psa10 value="0.0007540971" flag="0"/>
      <psa30 value="0.0001280382" flag="0"/>
    </comp>
    <comp name="--.HHN">
      <acc value="0.0138762602" flag="0"/>
      <vel value="0.0028968637" flag="0"/>
      <psa03 value="0.0107320958" flag="0"/>
      <psa10 value="0.0005787053" flag="0"/>
      <psa30 value="0.0000826628" flag="0"/>
    </comp>
  </station>
  <station code="VDR" name="VDR" netid="CH" insttype="STS2.5" commtype="DIG" lat="46.2061" lon="9.16648">
    <comp name="--.HHE">
      <acc value="0.0058808292" flag="0"/>
      <vel value="0.0015580740" flag="0"/>
      <psa03 value="0.0090947290" flag="0"/>
      <psa10 value="0.0005671523" flag="0"/>
      <psa30 value="0.0000613759" flag="0"/>
    </comp>
    <comp name="--.HHZ">
      <acc value="0.0035019797" flag="0"/>
      <vel value="0.0011303537" flag="0"/>
      <psa03 value="0.0068990380" flag="0"/>
      <psa10 value="0.0009167240" flag="0"/>
      <psa30 value="0.0000398987" flag="0"/>
    </comp>
    <comp name="--.HHN">
      <acc value="0.0039660589" flag="0"/>
      <vel value="0.0012346968" flag="0"/>
      <psa03 value="0.0080489738" flag="0"/>
      <psa10 value="0.0011005048" flag="0"/>
      <psa30 value="0.0000580122" flag="0"/>
    </comp>
  </station>
  <station code="BRMO" name="BRMO" netid="IV" insttype="" commtype="DIG" lat="46.4762" lon="10.3722">
    <comp name="--.HHE">
      <acc value="0.1193414533" flag="0"/>
      <vel value="0.0335445149" flag="0"/>
      <psa03 value="0.0941679151" flag="0"/>
      <psa10 value="0.0119908097" flag="0"/>
      <psa30 value="0.0011515923" flag="0"/>
    </comp>
    <comp name="--.HHN">
      <acc value="0.1546379945" flag="0"/>
      <vel value="0.0193241769" flag="0"/>
      <psa03 value="0.0475643372" flag="0"/>
      <psa10 value="0.0049070737" flag="0"/>
      <psa30 value="0.0003845532" flag="0"/>
    </comp>
    <comp name="--.HHZ">
      <acc value="0.1562316280" flag="0"/>
      <vel value="0.0158968987" flag="0"/>
      <psa03 value="0.0530047835" flag="0"/>
      <psa10 value="0.0051568651" flag="0"/>
      <psa30 value="0.0005755637" flag="0"/>
    </comp>
  </station>
  <station code="CTI" name="CTI" netid="IV" insttype="" commtype="DIG" lat="46.0482" lon="11.6497">
    <comp name="--.HHN">
      <acc value="0.0267712964" flag="0"/>
      <vel value="0.0072170101" flag="0"/>
      <psa03 value="0.0469510861" flag="0"/>
      <psa10 value="0.0013854889" flag="0"/>
      <psa30 value="0.0001183995" flag="0"/>
    </comp>
    <comp name="--.HHE">
      <acc value="0.0312227995" flag="0"/>
      <vel value="0.0068811160" flag="0"/>
      <psa03 value="0.0451853309" flag="0"/>
      <psa10 value="0.0016386768" flag="0"/>
      <psa30 value="0.0001371346" flag="0"/>
    </comp>
    <comp name="--.HHZ">
      <acc value="0.0102274493" flag="0"/>
      <vel value="0.0024277131" flag="0"/>
      <psa03 value="0.0164002545" flag="0"/>
      <psa10 value="0.0007882033" flag="0"/>
      <psa30 value="0.0000523596" flag="0"/>
    </comp>
  </station>
  <station code="MABI" name="MABI" netid="IV" insttype="" commtype="DIG" lat="46.0549" lon="10.514">
    <comp name="--.HHE">
      <acc value="0.0345667510" flag="0"/>
      <vel value="0.0039914007" flag="0"/>
      <psa03 value="0.0122889232" flag="0"/>
      <psa10 value="0.0008376764" flag="0"/>
      <psa30 value="0.0000648520" flag="0"/>
    </comp>
    <comp name="--.HHN">
      <acc value="0.0266339257" flag="0"/>
      <vel value="0.0033480593" flag="0"/>
      <psa03 value="0.0091411804" flag="0"/>
      <psa10 value="0.0010605464" flag="0"/>
      <psa30 value="0.0000698826" flag="0"/>
    </comp>
    <comp name="--.HHZ">
      <acc value="0.0420710498" flag="0"/>
      <vel value="0.0044598480" flag="0"/>
      <psa03 value="0.0118787454" flag="0"/>
      <psa10 value="0.0011350608" flag="0"/>
      <psa30 value="0.0001263334" flag="0"/>
    </comp>
  </station>
  <station code="MAGA" name="MAGA" netid="IV" insttype="" commtype="DIG" lat="45.7753" lon="10.6286">
    <comp name="--.HHE">
      <acc value="0.0210016246" flag="0"/>
      <vel value="0.0061961233" flag="0"/>
      <psa03 value="0.0329165345" flag="0"/>
      <psa10 value="0.0055817401" flag="0"/>
      <psa30 value="0.0001946713" flag="0"/>
    </comp>
    <comp name="--.HHN">
      <acc value="0.0246434252" flag="0"/>
      <vel value="0.0062358642" flag="0"/>
      <psa03 value="0.0300409099" flag="0"/>
      <psa10 value="0.0017938480" flag="0"/>
      <psa30 value="0.0001108143" flag="0"/>
    </comp>
    <comp name="--.HHZ">
      <acc value="0.0105464140" flag="0"/>
      <vel value="0.0030423064" flag="0"/>
      <psa03 value="0.0097199878" flag="0"/>
      <psa10 value="0.0010246350" flag="0"/>
      <psa30 value="0.0000766767" flag="0"/>
    </comp>
  </station>
  <station code="MBAL" name="MBAL" netid="IV" insttype="" commtype="DIG" lat="45.6975" lon="10.8589">
    <comp name="--.HHE">
      <acc value="0.0254795301" flag="0"/>
      <vel value="0.0040139576" flag="0"/>
      <psa03 value="0.0140225596" flag="0"/>
      <psa10 value="0.0008323832" flag="0"/>
      <psa30 value="0.0000936930" flag="0"/>
    </comp>
    <comp name="--.HHN">
      <acc value="0.0184524755" flag="0"/>
      <vel value="0.0031892634" flag="0"/>
      <psa03 value="0.0101263911" flag="0"/>
      <psa10 value="0.0010769838" flag="0"/>
      <psa30 value="0.0000855849" flag="0"/>
    </comp>
    <comp name="--.HHZ">
      <acc value="0.0014629056" flag="0"/>
      <vel value="0.0003040205" flag="0"/>
      <psa03 value="0.0021164183" flag="0"/>
      <psa10 value="0.0003256664" flag="0"/>
      <psa30 value="0.0000201147" flag="0"/>
    </comp>
  </station>
  <station code="TUE" name="TUE" netid="MN" insttype="" commtype="DIG" lat="46.4722" lon="9.34732">
    <comp name="--.HNE">
      <acc value="0.0111271218" flag="0"/>
      <vel value="0.0024321142" flag="0"/>
      <psa03 value="0.0126403904" flag="0"/>
      <psa10 value="0.0008000523" flag="0"/>
      <psa30 value="0.0000800576" flag="0"/>
    </comp>
    <comp name="--.HNN">
      <acc value="0.0114209160" flag="0"/>
      <vel value="0.0020986282" flag="0"/>
      <psa03 value="0.0107802188" flag="0"/>
      <psa10 value="0.0007025759" flag="0"/>
      <psa30 value="0.0001196743" flag="0"/>
    </comp>
    <comp name="--.HNZ">
      <acc value="0.0094100593" flag="0"/>
      <vel value="0.0019818909" flag="0"/>
      <psa03 value="0.0065032049" flag="0"/>
      <psa10 value="0.0006268503" flag="0"/>
      <psa30 value="0.0000881203" flag="0"/>
    </comp>
  </station>
  <station code="BALD" name="BALD" netid="OX" insttype="" commtype="DIG" lat="45.683" lon="10.8187">
    <comp name="--.HHN">
      <acc value="0.0078511692" flag="0"/>
      <vel value="0.0023451110" flag="0"/>
      <psa03 value="0.0131510355" flag="0"/>
      <psa10 value="0.0015819061" flag="0"/>
      <psa30 value="0.0001357922" flag="0"/>
    </comp>
    <comp name="--.HHE">
      <acc value="0.0093713403" flag="0"/>
      <vel value="0.0044927061" flag="0"/>
      <psa03 value="0.0254045546" flag="0"/>
      <psa10 value="0.0024486991" flag="0"/>
      <psa30 value="0.0002657139" flag="0"/>
    </comp>
    <comp name="--.HHZ">
      <acc value="0.0046711113" flag="0"/>
      <vel value="0.0013894656" flag="0"/>
      <psa03 value="0.0073634405" flag="0"/>
      <psa10 value="0.0009621317" flag="0"/>
      <psa30 value="0.0000764596" flag="0"/>
    </comp>
  </station>
  <station code="CARE" name="CARE" netid="ST" insttype="" commtype="DIG" lat="46.4252" lon="10.6945">
    <comp name="--.HNE">
      <acc value="1.1983516398" flag="0"/>
      <vel value="0.0605564485" flag="0"/>
      <psa03 value="0.0731347249" flag="0"/>
      <psa10 value="0.0045210897" flag="0"/>
      <psa30 value="0.0003638837" flag="0"/>
    </comp>
    <comp name="--.HNN">
      <acc value="1.0307325887" flag="0"/>
      <vel value="0.0617860120" flag="0"/>
      <psa03 value="0.0544389154" flag="0"/>
      <psa10 value="0.0033461549" flag="0"/>
      <psa30 value="0.0002644201" flag="0"/>
    </comp>
    <comp name="--.HNZ">
      <acc value="1.8550496627" flag="0"/>
      <vel value="0.0468680940" flag="0"/>
      <psa03 value="0.0514636971" flag="0"/>
      <psa10 value="0.0030574552" flag="0"/>
      <psa30 value="0.0003022581" flag="0"/>
    </comp>
  </station>
  <station code="DOSS" name="DOSS" netid="ST" insttype="" commtype="DIG" lat="45.8808" lon="11.1884">
    <comp name="--.HHE">
      <acc value="0.0117817113" flag="0"/>
      <vel value="0.0036395062" flag="0"/>
      <psa03 value="0.0163632719" flag="0"/>
      <psa10 value="0.0022850608" flag="0"/>
      <psa30 value="0.0001463059" flag="0"/>
    </comp>
    <comp name="--.HHN">
      <acc value="0.0135444717" flag="0"/>
      <vel value="0.0035917760" flag="0"/>
      <psa03 value="0.0243169341" flag="0"/>
      <psa10 value="0.0015721657" flag="0"/>
      <psa30 value="0.0001477994" flag="0"/>
    </comp>
    <comp name="--.HHZ">
      <acc value="0.0065100177" flag="0"/>
      <vel value="0.0019497540" flag="0"/>
      <psa03 value="0.0080964988" flag="0"/>
      <psa10 value="0.0009345728" flag="0"/>
      <psa30 value="0.0000519854" flag="0"/>
    </comp>
  </station>
