<stationlist created="1777082107">
	<station code="DAVOX" name="DAVOX" netid="CH" source="Switzerland Seismological Network" insttype="" lat="46.7805" lon="9.87952">
		<comp name="--.HGE" depth="0.0">
			<acc value="0.0467184404689968" flag="0"/>
			<vel value="0.00861256318195464" flag="0"/>
			<psa03 value="0.0343257218272758" flag="0"/>
			<psa10 value="0.00165978835126995" flag="0"/>
			<psa30 value="0.000125316244294498" flag="0"/>
		</comp>
		<comp name="--.HGN" depth="0.0">
			<acc value="0.0341029041824902" flag="0"/>
			<vel value="0.00755519835511438" flag="0"/>
			<psa03 value="0.0458498758709236" flag="0"/>
			<psa10 value="0.00288038182678484" flag="0"/>
			<psa30 value="0.000204069781642344" flag="0"/>
		</comp>
		<comp name="--.HGZ" depth="0.0">
			<acc value="0.0317298647099556" flag="0"/>
			<vel value="0.00538425651330784" flag="0"/>
			<psa03 value="0.0217104264904557" flag="0"/>
			<psa10 value="0.00124890281180698" flag="0"/>
			<psa30 value="9.27536444737351e-05" flag="0"/>
		</comp>
	</station>
	<station code="FUORN" name="FUORN" netid="CH" source="Switzerland Seismological Network" insttype="" lat="46.620334" lon="10.263551">
		<comp name="--.HGE" depth="0.0">
			<acc value="0.0781688963616733" flag="0"/>
			<vel value="0.0197993234893674" flag="0"/>
			<psa03 value="0.0963712799576648" flag="0"/>
			<psa10 value="0.011649180138513" flag="0"/>
			<psa30 value="0.000688269865334058" flag="0"/>
		</comp>
		<comp name="--.HGN" depth="0.0">
			<acc value="0.0841981648419216" flag="0"/>
			<vel value="0.0147670686290201" flag="0"/>
			<psa03 value="0.0712014459130198" flag="0"/>
			<psa10 value="0.0111437254046175" flag="0"/>
			<psa30 value="0.000610902865149994" flag="0"/>
		</comp>
		<comp name="--.HGZ" depth="0.0">
			<acc value="0.06418545481055" flag="0"/>
			<vel value="0.0164257484743966" flag="0"/>
			<psa03 value="0.0707155126806613" flag="0"/>
			<psa10 value="0.00928940193978849" flag="0"/>
			<psa30 value="0.000618105269357258" flag="0"/>
		</comp>
	</station>
	<station code="LIENZ" name="LIENZ" netid="CH" source="Switzerland Seismological Network" insttype="" lat="47.294601" lon="9.4927">
		<comp name="--.HGE" depth="0.0">
			<acc value="0.00340152896824123" flag="0"/>
			<vel value="0.00119827255144644" flag="0"/>
			<psa03 value="0.00787012161734926" flag="0"/>
			<psa10 value="0.00179752806178728" flag="0"/>
			<psa30 value="0.000115959374447791" flag="0"/>
		</comp>
		<comp name="--.HGN" depth="0.0">
			<acc value="0.00354061775383122" flag="0"/>
			<vel value="0.00188132858655491" flag="0"/>
			<psa03 value="0.00741234064056456" flag="0"/>
			<psa10 value="0.00313635104911459" flag="0"/>
			<psa30 value="0.000168971466967918" flag="0"/>
		</comp>
		<comp name="--.HGZ" depth="0.0">
			<acc value="0.00402664327742826" flag="0"/>
			<vel value="0.0013498533002476" flag="0"/>
			<psa03 value="0.0094321710590003" flag="0"/>
			<psa10 value="0.000932510700038602" flag="0"/>
			<psa30 value="0.000111556582784451" flag="0"/>
		</comp>
	</station>
	<station code="SARD" name="SARD" netid="CH" source="Switzerland Seismological Network" insttype="" lat="46.776631" lon="10.204926">
		<comp name="--.HGE" depth="0.0">
			<acc value="1.0590423201253" flag="0"/>
			<vel value="0.206088547773042" flag="0"/>
			<psa03 value="0.318116719504765" flag="0"/>
			<psa10 value="0.021763634858999" flag="0"/>
			<psa30 value="0.00211077295334902" flag="0"/>
		</comp>
		<comp name="--.HGN" depth="0.0">
			<acc value="2.52310901936496" flag="0"/>
			<vel value="0.443835376581831" flag="0"/>
			<psa03 value="0.63197982389507" flag="0"/>
			<psa10 value="0.0366489128106102" flag="0"/>
			<psa30 value="0.0044023962204771" flag="0"/>
		</comp>
		<comp name="--.HGZ" depth="0.0">
			<acc value="0.787411012509626" flag="0"/>
			<vel value="0.11907227964068" flag="0"/>
			<psa03 value="0.163515290418832" flag="0"/>
			<psa10 value="0.0171156257012036" flag="0"/>
			<psa30 value="0.00143934774555752" flag="0"/>
		</comp>
	</station>
	<station code="SBGN" name="SBGN" netid="CH" source="Switzerland Seismological Network" insttype="" lat="46.628162" lon="9.748359">
		<comp name="--.HGE" depth="0.0">
			<acc value="0.0691565340527293" flag="0"/>
			<vel value="0.0148604684958474" flag="0"/>
			<psa03 value="0.0777496765761642" flag="0"/>
			<psa10 value="0.00244251969556757" flag="0"/>
			<psa30 value="0.000280188795507607" flag="0"/>
		</comp>
		<comp name="--.HGN" depth="0.0">
			<acc value="0.0902221513047055" flag="0"/>
			<vel value="0.01718510446476" flag="0"/>
			<psa03 value="0.0544077761231486" flag="0"/>
			<psa10 value="0.00223555895418416" flag="0"/>
			<psa30 value="0.000194446865525545" flag="0"/>
		</comp>
		<comp name="--.HGZ" depth="0.0">
			<acc value="0.0407420335588897" flag="0"/>
			<vel value="0.0110390679118572" flag="0"/>
			<psa03 value="0.0458072584643962" flag="0"/>
			<psa10 value="0.00208064767644727" flag="0"/>
			<psa30 value="0.00015703272035538" flag="0"/>
		</comp>
	</station>
	<station code="SCHK" name="SCHK" netid="CH" source="Switzerland Seismological Network" insttype="" lat="46.788912" lon="9.536332">
		<comp name="--.HGE" depth="0.0">
			<acc value="0.0948813286100604" flag="0"/>
			<vel value="0.0176436873902687" flag="0"/>
			<psa03 value="0.0373455052064377" flag="0"/>
			<psa10 value="0.00137283164648407" flag="0"/>
			<psa30 value="0.000171185806365369" flag="0"/>
		</comp>
		<comp name="--.HGN" depth="0.0">
			<acc value="0.0600176120654178" flag="0"/>
			<vel value="0.012570326962866" flag="0"/>
			<psa03 value="0.0775982134174733" flag="0"/>
			<psa10 value="0.00225830046069736" flag="0"/>
			<psa30 value="0.00021281412393294" flag="0"/>
		</comp>
		<comp name="--.HGZ" depth="0.0">
			<acc value="0.0329582270480651" flag="0"/>
			<vel value="0.0065269355660207" flag="0"/>
			<psa03 value="0.0308250315903948" flag="0"/>
			<psa10 value="0.00150852829197087" flag="0"/>
			<psa30 value="0.00011848309631948" flag="0"/>
		</comp>
	</station>
	<station code="SCUC" name="SCUC" netid="CH" source="Switzerland Seismological Network" insttype="" lat="46.798" lon="10.3038">
		<comp name="--.HGE" depth="0.0">
			<acc value="1.16852821668665" flag="0"/>
			<vel value="0.211610941959592" flag="0"/>
			<psa03 value="0.707997318014314" flag="0"/>
			<psa10 value="0.0307732635776847" flag="0"/>
			<psa30 value="0.00325522543437587" flag="0"/>
		</comp>
		<comp name="--.HGN" depth="0.0">
			<acc value="1.2287984093793" flag="0"/>
			<vel value="0.269090705435924" flag="0"/>
			<psa03 value="0.851892100337444" flag="0"/>
			<psa10 value="0.0437219076118033" flag="0"/>
			<psa30 value="0.00504486544757698" flag="0"/>
		</comp>
		<comp name="--.HGZ" depth="0.0">
			<acc value="0.902229413313013" flag="0"/>
			<vel value="0.160301198310793" flag="0"/>
			<psa03 value="0.288833862992567" flag="0"/>
			<psa10 value="0.017286785164678" flag="0"/>
			<psa30 value="0.00151697892990916" flag="0"/>
		</comp>
	</station>
	<station code="SCUG" name="SCUG" netid="CH" source="Switzerland Seismological Network" insttype="" lat="46.856125" lon="9.523831">
		<comp name="--.HGE" depth="1.0">
			<acc value="0.0245819228113004" flag="0"/>
			<vel value="0.00583922694074563" flag="0"/>
			<psa03 value="0.0448255059281089" flag="0"/>
			<psa10 value="0.00196665395304755" flag="0"/>
			<psa30 value="0.000170750165527134" flag="0"/>
		</comp>
		<comp name="--.HGN" depth="1.0">
			<acc value="0.0191067893084389" flag="0"/>
			<vel value="0.00696432976723888" flag="0"/>
			<psa03 value="0.0432338484052761" flag="0"/>
			<psa10 value="0.0017101952061017" flag="0"/>
			<psa30 value="0.000204686736575081" flag="0"/>
		</comp>
		<comp name="--.HGZ" depth="1.0">
			<acc value="0.0198869389996887" flag="0"/>
			<vel value="0.00385196463881973" flag="0"/>
			<psa03 value="0.0232820918034861" flag="0"/>
			<psa10 value="0.00188342902574206" flag="0"/>
			<psa30 value="0.000113969333763196" flag="0"/>
		</comp>
	</station>
	<station code="SDAK" name="SDAK" netid="CH" source="Switzerland Seismological Network" insttype="" lat="46.80054" lon="9.832">
		<comp name="--.HGE" depth="1.0">
			<acc value="0.0946441767141052" flag="0"/>
			<vel value="0.0221920031171855" flag="0"/>
			<psa03 value="0.13320841815395" flag="0"/>
			<psa10 value="0.00474996903713707" flag="0"/>
			<psa30 value="0.000362867501732795" flag="0"/>
		</comp>
		<comp name="--.HGN" depth="1.0">
			<acc value="0.113441167750836" flag="0"/>
			<vel value="0.0249594002214112" flag="0"/>
			<psa03 value="0.0856624507586199" flag="0"/>
			<psa10 value="0.00623890673445219" flag="0"/>
			<psa30 value="0.000517697419913342" flag="0"/>
		</comp>
		<comp name="--.HGZ" depth="1.0">
			<acc value="0.0835822054043946" flag="0"/>
			<vel value="0.0177426177601718" flag="0"/>
			<psa03 value="0.0851080442402423" flag="0"/>
			<psa10 value="0.00281339512361951" flag="0"/>
			<psa30 value="0.000285083130149924" flag="0"/>
		</comp>
	</station>
	<station code="SLUX" name="SLUX" netid="CH" source="Switzerland Seismological Network" insttype="" lat="46.69309" lon="9.14976">
		<comp name="--.HGE" depth="0.0">
			<acc value="0.0163057387202025" flag="0"/>
			<vel value="0.00597479200131823" flag="0"/>
			<psa03 value="0.0381700389944212" flag="0"/>
			<psa10 value="0.00106759986387647" flag="0"/>
			<psa30 value="0.000108043212020048" flag="0"/>
		</comp>
		<comp name="--.HGN" depth="0.0">
			<acc value="0.0112287798067978" flag="0"/>
			<vel value="0.00243965778361731" flag="0"/>
			<psa03 value="0.0192650522568307" flag="0"/>
			<psa10 value="0.000658990901006782" flag="0"/>
			<psa30 value="5.56789293412275e-05" flag="0"/>
		</comp>
		<comp name="--.HGZ" depth="0.0">
			<acc value="0.00466729131363235" flag="0"/>
			<vel value="0.00107168794271712" flag="0"/>
			<psa03 value="0.00615342130583708" flag="0"/>
			<psa10 value="0.000829033493619017" flag="0"/>
			<psa30 value="3.1593717277674e-05" flag="0"/>
		</comp>
	</station>
	<station code="SMFL" name="SMFL" netid="CH" source="Switzerland Seismological Network" insttype="" lat="47.21004" lon="9.54632">
		<comp name="--.HGE" depth="1.0">
			<acc value="0.0283111426400143" flag="0"/>
			<vel value="0.0223084402755583" flag="0"/>
			<psa03 value="0.0551024002635889" flag="0"/>
			<psa10 value="0.0272186787288834" flag="0"/>
			<psa30 value="0.00126560258996033" flag="0"/>
		</comp>
		<comp name="--.HGN" depth="1.0">
			<acc value="0.0329461021889892" flag="0"/>
			<vel value="0.0293131571914061" flag="0"/>
			<psa03 value="0.071760092295601" flag="0"/>
			<psa10 value="0.0397769875302085" flag="0"/>
			<psa30 value="0.00134571133427149" flag="0"/>
		</comp>
		<comp name="--.HGZ" depth="1.0">
			<acc value="0.0117892373351148" flag="0"/>
			<vel value="0.00557091462498184" flag="0"/>
			<psa03 value="0.0468141741259505" flag="0"/>
			<psa10 value="0.00265943711215684" flag="0"/>
			<psa30 value="0.000186318097867915" flag="0"/>
		</comp>
	</station>
	<station code="STRW" name="STRW" netid="CH" source="Switzerland Seismological Network" insttype="" lat="47.11655" lon="9.55025">
		<comp name="--.HGE" depth="1.0">
			<acc value="0.033019143070205" flag="0"/>
			<vel value="0.0122034646260095" flag="0"/>
			<psa03 value="0.080224819708916" flag="0"/>
			<psa10 value="0.0040644634695075" flag="0"/>
			<psa30 value="0.000231583153747385" flag="0"/>
		</comp>
		<comp name="--.HGN" depth="1.0">
			<acc value="0.0340706584585222" flag="0"/>
			<vel value="0.00999605374133006" flag="0"/>
			<psa03 value="0.0945532636896761" flag="0"/>
			<psa10 value="0.00472547569582342" flag="0"/>
			<psa30 value="0.000262406159161888" flag="0"/>
		</comp>
		<comp name="--.HGZ" depth="1.0">
			<acc value="0.0123475471352136" flag="0"/>
			<vel value="0.00438768581265136" flag="0"/>
			<psa03 value="0.0232815865616829" flag="0"/>
			<psa10 value="0.00141664802566665" flag="0"/>
			<psa30 value="0.000123784879828284" flag="0"/>
		</comp>
	</station>
	<station code="STSP" name="STSP" netid="CH" source="Switzerland Seismological Network" insttype="" lat="46.62645" lon="10.33317">
		<comp name="--.HGE" depth="1.0">
			<acc value="0.567099344761878" flag="0"/>
			<vel value="0.149457715693565" flag="0"/>
			<psa03 value="0.939021872257223" flag="0"/>
			<psa10 value="0.0492600382357774" flag="0"/>
			<psa30 value="0.00319915859522294" flag="0"/>
		</comp>
		<comp name="--.HGN" depth="1.0">
			<acc value="0.516924197015354" flag="0"/>
			<vel value="0.157347341584047" flag="0"/>
			<psa03 value="0.988895676151963" flag="0"/>
			<psa10 value="0.0333918445458225" flag="0"/>
			<psa30 value="0.00284834014688913" flag="0"/>
		</comp>
		<comp name="--.HGZ" depth="1.0">
			<acc value="0.278139274566004" flag="0"/>
			<vel value="0.103162910594515" flag="0"/>
			<psa03 value="0.554078288300658" flag="0"/>
			<psa10 value="0.0190254565931272" flag="0"/>
			<psa30 value="0.00164804761256613" flag="0"/>
		</comp>
	</station>
	<station code="SWERG" name="SWERG" netid="CH" source="Switzerland Seismological Network" insttype="" lat="47.17139" lon="9.45983">
		<comp name="--.HGE" depth="0.0">
			<acc value="0.0138299516790324" flag="0"/>
			<vel value="0.00931232575045668" flag="0"/>
			<psa03 value="0.0319274171180258" flag="0"/>
			<psa10 value="0.00932658002765435" flag="0"/>
			<psa30 value="0.000390895217806432" flag="0"/>
		</comp>
		<comp name="--.HGN" depth="0.0">
			<acc value="0.0167478625308736" flag="0"/>
			<vel value="0.0157885291920551" flag="0"/>
			<psa03 value="0.0490667556400873" flag="0"/>
			<psa10 value="0.018931792263325" flag="0"/>
			<psa30 value="0.000833147431511795" flag="0"/>
		</comp>
		<comp name="--.HGZ" depth="0.0">
			<acc value="0.0125177316845875" flag="0"/>
			<vel value="0.0044363336433952" flag="0"/>
			<psa03 value="0.0384538755055304" flag="0"/>
			<psa10 value="0.00290627682345129" flag="0"/>
			<psa30 value="0.00015900751263401" flag="0"/>
		</comp>
	</station>
	<station code="SWIM" name="SWIM" netid="CH" source="Switzerland Seismological Network" insttype="" lat="47.20475" lon="9.35224">
		<comp name="--.HGE" depth="1.0">
			<acc value="0.0253169953151703" flag="0"/>
			<vel value="0.00666736498020686" flag="0"/>
			<psa03 value="0.0251426890172535" flag="0"/>
			<psa10 value="0.00215431216573316" flag="0"/>
			<psa30 value="0.000153383598410627" flag="0"/>
		</comp>
		<comp name="--.HGN" depth="1.0">
			<acc value="0.0158318817058686" flag="0"/>
			<vel value="0.00497392256637917" flag="0"/>
			<psa03 value="0.0203794737380345" flag="0"/>
			<psa10 value="0.00282586634040142" flag="0"/>
			<psa30 value="0.000124714446615855" flag="0"/>
		</comp>
		<comp name="--.HGZ" depth="1.0">
			<acc value="0.0100126594759621" flag="0"/>
			<vel value="0.002603621487095" flag="0"/>
			<psa03 value="0.00790810199794641" flag="0"/>
			<psa10 value="0.00128930177710267" flag="0"/>
			<psa30 value="8.65372365734702e-05" flag="0"/>
		</comp>
	</station>
	<station code="SZER" name="SZER" netid="CH" source="Switzerland Seismological Network" insttype="" lat="46.69749" lon="10.09768">
		<comp name="--.HGE" depth="0.0">
			<acc value="0.205021878568334" flag="0"/>
			<vel value="0.0313359230043231" flag="0"/>
			<psa03 value="0.0861442951784479" flag="0"/>
			<psa10 value="0.00498414298751202" flag="0"/>
			<psa30 value="0.000460759481387685" flag="0"/>
		</comp>
		<comp name="--.HGN" depth="0.0">
			<acc value="0.138596331410299" flag="0"/>
			<vel value="0.0314322482474947" flag="0"/>
			<psa03 value="0.153645146986937" flag="0"/>
			<psa10 value="0.00670227852430916" flag="0"/>
			<psa30 value="0.000603372730898889" flag="0"/>
		</comp>
		<comp name="--.HGZ" depth="0.0">
			<acc value="0.109993992003482" flag="0"/>
			<vel value="0.0180146773521591" flag="0"/>
			<psa03 value="0.0358319205638834" flag="0"/>
			<psa10 value="0.00197726551538648" flag="0"/>
			<psa30 value="0.000210345314553101" flag="0"/>
		</comp>
	</station>
	<station code="VDL" name="VDL" netid="CH" source="Switzerland Seismological Network" insttype="" lat="46.48318" lon="9.44956">
		<comp name="--.HGE" depth="0.0">
			<acc value="0.00625650034501342" flag="0"/>
			<vel value="0.00139387732825246" flag="0"/>
			<psa03 value="0.0100445384482512" flag="0"/>
			<psa10 value="0.000678848056289615" flag="0"/>
			<psa30 value="7.84200712469377e-05" flag="0"/>
		</comp>
		<comp name="--.HGN" depth="0.0">
			<acc value="0.0139745681814042" flag="0"/>
			<vel value="0.00299914432664908" flag="0"/>
			<psa03 value="0.0113093260102616" flag="0"/>
			<psa10 value="0.000590336216252107" flag="0"/>
			<psa30 value="0.000102581730432029" flag="0"/>
		</comp>
		<comp name="--.HGZ" depth="0.0">
			<acc value="0.0123890537230815" flag="0"/>
			<vel value="0.00281411433915797" flag="0"/>
			<psa03 value="0.0168583016755831" flag="0"/>
			<psa10 value="0.000736925516917603" flag="0"/>
			<psa30 value="0.000128489944119869" flag="0"/>
		</comp>
	</station>
	<station code="MRNO" name="MRNO" netid="IT" source="Italian Strong Motion Network (RAN)" insttype="" lat="46.6536" lon="11.1544">
		<comp name="--.HNE" depth="0.0">
			<acc value="0.0500871330736256" flag="0"/>
			<vel value="0.0178182005751735" flag="0"/>
			<psa03 value="0.101257843252024" flag="0"/>
			<psa10 value="0.0120845764813956" flag="0"/>
			<psa30 value="0.000715731476198996" flag="0"/>
		</comp>
		<comp name="--.HNN" depth="0.0">
			<acc value="0.0535092153764302" flag="0"/>
			<vel value="0.0141327444524974" flag="0"/>
			<psa03 value="0.083443298542154" flag="0"/>
			<psa10 value="0.00847267471062118" flag="0"/>
			<psa30 value="0.000731642426055353" flag="0"/>
		</comp>
		<comp name="--.HNZ" depth="0.0">
			<acc value="0.0891803132929332" flag="0"/>
			<vel value="0.0160523507692755" flag="0"/>
			<psa03 value="0.0652952577819493" flag="0"/>
			<psa10 value="0.0122805082109079" flag="0"/>
			<psa30 value="0.000524072581821925" flag="0"/>
		</comp>
	</station>
	<station code="SEM" name="SEM" netid="IT" source="Italian Strong Motion Network (RAN)" insttype="" lat="46.4847" lon="10.2713">
		<comp name="--.HGE" depth="0.0">
			<acc value="0.279941506380413" flag="0"/>
			<vel value="0.0748855225300788" flag="0"/>
			<psa03 value="0.195813805036709" flag="0"/>
			<psa10 value="0.0165603489168485" flag="0"/>
			<psa30 value="0.00121333402325859" flag="0"/>
		</comp>
		<comp name="--.HGN" depth="0.0">
			<acc value="0.249229570916173" flag="0"/>
			<vel value="0.0575378277060429" flag="0"/>
			<psa03 value="0.17408290713804" flag="0"/>
			<psa10 value="0.0110170682641923" flag="0"/>
			<psa30 value="0.00086175286814838" flag="0"/>
		</comp>
		<comp name="--.HGZ" depth="0.0">
			<acc value="0.181670177937117" flag="0"/>
			<vel value="0.0275172623996657" flag="0"/>
			<psa03 value="0.0628829365193645" flag="0"/>
			<psa10 value="0.00661986118955256" flag="0"/>
			<psa30 value="0.000462098476340431" flag="0"/>
		</comp>
	</station>
	<station code="BAG8" name="BAG8" netid="IV" source="Italian National Seismic Network (INSN)" insttype="" lat="45.8228" lon="10.4664">
		<comp name="--.HNE" depth="0.0">
			<acc value="0.0337735753846761" flag="0"/>
			<vel value="0.00823535184309172" flag="0"/>
			<psa03 value="0.0280317137342969" flag="0"/>
			<psa10 value="0.00176459736466524" flag="0"/>
			<psa30 value="0.000123520226879569" flag="0"/>
		</comp>
		<comp name="--.HNN" depth="0.0">
			<acc value="0.0404246482409492" flag="0"/>
			<vel value="0.00743695229495957" flag="0"/>
			<psa03 value="0.0215477177951296" flag="0"/>
			<psa10 value="0.00198269142170062" flag="0"/>
			<psa30 value="0.000125047893184268" flag="0"/>
		</comp>
		<comp name="--.HNZ" depth="0.0">
			<acc value="0.0298916441425443" flag="0"/>
			<vel value="0.00711930858312581" flag="0"/>
			<psa03 value="0.0148244963730628" flag="0"/>
			<psa10 value="0.00125567165864633" flag="0"/>
			<psa30 value="9.61046346896189e-05" flag="0"/>
		</comp>
	</station>
