<?xml version="1.0" encoding="UTF-8" standalone="yes"?>
<!DOCTYPE earthquake SYSTEM "stationlist.dtd">
<stationlist created="" xmlns="ch.ethz.sed.shakemap.usgs.xml">
  <station code="XLND" name="XLND" netid="ML" insttype="" lat="36.0323" lon="14.2201">
    <comp name="--.HHZ">
      <acc value="0.0082777296" flag="0"/>
      <vel value="0.0037291022" flag="0"/>
      <psa03 value="0.0237923448" flag="0"/>
      <psa10 value="0.0037333123" flag="0"/>
      <psa30 value="0.0009737466" flag="0"/>
    </comp>
    <comp name="--.HHE">
      <acc value="0.0102815826" flag="0"/>
      <vel value="0.0076323397" flag="0"/>
      <psa03 value="0.0360952121" flag="0"/>
      <psa10 value="0.0067709267" flag="0"/>
      <psa30 value="0.0006797603" flag="0"/>
    </comp>
    <comp name="--.HHN">
      <acc value="0.0094728690" flag="0"/>
      <vel value="0.0072844054" flag="0"/>
      <psa03 value="0.0333007892" flag="0"/>
      <psa10 value="0.0095143415" flag="0"/>
      <psa30 value="0.0007068045" flag="0"/>
    </comp>
  </station>
</stationlist>
