<?xml version="1.0" encoding="UTF-8" standalone="yes"?>
<!DOCTYPE earthquake SYSTEM "stationlist.dtd">
<stationlist created="" xmlns="ch.ethz.sed.shakemap.usgs.xml">
  <station code="ZKR" name="ZKR" netid="GE" insttype="STS-2/N" lat="35.1147" lon="26.2169">
    <comp name="--.HHZ">
      <acc value="0.0036048528" flag="0"/>
      <vel value="0.0011000416" flag="0"/>
      <psa03 value="0.0085433166" flag="0"/>
      <psa10 value="0.0012643932" flag="0"/>
      <psa30 value="0.0001120239" flag="0"/>
    </comp>
    <comp name="--.HHE">
      <acc value="0.0057617563" flag="0"/>
      <vel value="0.0018105989" flag="0"/>
      <psa03 value="0.0098773544" flag="0"/>
      <psa10 value="0.0018257047" flag="0"/>
      <psa30 value="0.0002238647" flag="0"/>
    </comp>
    <comp name="--.HHN">
      <acc value="0.0049327175" flag="0"/>
      <vel value="0.0017248260" flag="0"/>
      <psa03 value="0.0081329253" flag="0"/>
      <psa10 value="0.0007688269" flag="0"/>
      <psa30 value="0.0000871703" flag="0"/>
    </comp>
  </station>
  <station code="ZKR" name="ZKR" netid="HL" insttype="120" lat="35.1147" lon="26.2169">
    <comp name="--.HHE">
      <acc value="0.0056020273" flag="0"/>
      <vel value="0.0017713584" flag="0"/>
      <psa03 value="0.0096011630" flag="0"/>
      <psa10 value="0.0018117302" flag="0"/>
      <psa30 value="0.0002236698" flag="0"/>
    </comp>
    <comp name="--.HHN">
      <acc value="0.0047802769" flag="0"/>
      <vel value="0.0016748475" flag="0"/>
      <psa03 value="0.0078851146" flag="0"/>
      <psa10 value="0.0007653540" flag="0"/>
      <psa30 value="0.0000868302" flag="0"/>
    </comp>
    <comp name="--.HHZ">
      <acc value="0.0034808636" flag="0"/>
      <vel value="0.0010739658" flag="0"/>
      <psa03 value="0.0082956559" flag="0"/>
      <psa10 value="0.0012569772" flag="0"/>
      <psa30 value="0.0001117216" flag="0"/>
    </comp>
  </station>
</stationlist>
