<stationlist created="1778069508">
	<station code="SIT2" name="SIT2" netid="HI" source="ITSAK Strong Motion Network" insttype="" lat="35.2059" lon="26.107">
		<comp name="--.HNE" depth="0.0">
			<acc value="0.00680145754265579" flag="0"/>
			<vel value="0.00468929901264942" flag="0"/>
			<psa03 value="0.0205366728377867" flag="0"/>
			<psa10 value="0.00339056441753263" flag="0"/>
			<psa30 value="0.000238475961275388" flag="0"/>
		</comp>
		<comp name="--.HNN" depth="0.0">
			<acc value="0.0122484439374013" flag="0"/>
			<vel value="0.00740765034528278" flag="0"/>
			<psa03 value="0.0308721225666075" flag="0"/>
			<psa10 value="0.00370062790939726" flag="0"/>
			<psa30 value="0.000284560434092208" flag="0"/>
		</comp>
		<comp name="--.HNZ" depth="0.0">
			<acc value="0.00549279466726456" flag="0"/>
			<vel value="0.00197896648654341" flag="0"/>
			<psa03 value="0.0127962710928257" flag="0"/>
			<psa10 value="0.000962404864359025" flag="0"/>
			<psa30 value="0.000183443047134914" flag="0"/>
		</comp>
	</station>
</stationlist>
