<stationlist created="1778136291">
	<station code="DLFA" name="DLFA" netid="HL" source="National Observatory of Athens Seismic Network" insttype="" lat="38.47836" lon="22.49583">
		<comp name="00.HNE" depth="0.0">
			<acc value="0.00571132977070759" flag="0"/>
			<vel value="0.00550719151025038" flag="0"/>
			<psa03 value="0.022057907862808" flag="0"/>
			<psa10 value="0.0108079274307097" flag="0"/>
			<psa30 value="0.000805807141195074" flag="0"/>
		</comp>
		<comp name="00.HNN" depth="0.0">
			<acc value="0.00635366602796273" flag="0"/>
			<vel value="0.00429468412740973" flag="0"/>
			<psa03 value="0.0163309054156692" flag="0"/>
			<psa10 value="0.00524691857012473" flag="0"/>
			<psa30 value="0.000452343708910727" flag="0"/>
		</comp>
		<comp name="00.HNZ" depth="0.0">
			<acc value="0.00466586703716255" flag="0"/>
			<vel value="0.00255046768481787" flag="0"/>
			<psa03 value="0.00796411277805237" flag="0"/>
			<psa10 value="0.00618516264290989" flag="0"/>
			<psa30 value="0.000445184955851804" flag="0"/>
		</comp>
	</station>
	<station code="JAN" name="JAN" netid="HL" source="National Observatory of Athens Seismic Network" insttype="" lat="39.65616" lon="20.84874">
		<comp name="00.HNE" depth="0.0">
			<acc value="0.018683477941193" flag="0"/>
			<vel value="0.00749575033548527" flag="0"/>
			<psa03 value="0.0591939393559735" flag="0"/>
			<psa10 value="0.00589523314402349" flag="0"/>
			<psa30 value="0.00073600929887057" flag="0"/>
		</comp>
		<comp name="00.HNN" depth="0.0">
			<acc value="0.0165298393448641" flag="0"/>
			<vel value="0.00810280041524753" flag="0"/>
			<psa03 value="0.0471582857756584" flag="0"/>
			<psa10 value="0.00695428117467798" flag="0"/>
			<psa30 value="0.000672027943406442" flag="0"/>
		</comp>
		<comp name="00.HNZ" depth="0.0">
			<acc value="0.00881977577642497" flag="0"/>
			<vel value="0.00418214451774026" flag="0"/>
			<psa03 value="0.0294403719548228" flag="0"/>
			<psa10 value="0.00483215831477335" flag="0"/>
			<psa30 value="0.000486347785940614" flag="0"/>
		</comp>
	</station>
	<station code="PATC" name="PATC" netid="HL" source="National Observatory of Athens Seismic Network" insttype="" lat="38.26933" lon="21.76001">
		<comp name="00.HNE" depth="0.0">
			<acc value="0.0196877950609736" flag="0"/>
			<vel value="0.00927188173593358" flag="0"/>
			<psa03 value="0.0297088251945324" flag="0"/>
			<psa10 value="0.0122213337377809" flag="0"/>
			<psa30 value="0.00210646308758823" flag="0"/>
		</comp>
		<comp name="00.HNN" depth="0.0">
			<acc value="0.0192573229554627" flag="0"/>
			<vel value="0.0090471583427765" flag="0"/>
			<psa03 value="0.0137805996384277" flag="0"/>
			<psa10 value="0.0133729981361352" flag="0"/>
			<psa30 value="0.00229751230984825" flag="0"/>
		</comp>
		<comp name="00.HNZ" depth="0.0">
			<acc value="0.0204601082584268" flag="0"/>
			<vel value="0.00592792364086822" flag="0"/>
			<psa03 value="0.0106039029685304" flag="0"/>
			<psa10 value="0.00758648855419416" flag="0"/>
			<psa30 value="0.00109349952975056" flag="0"/>
		</comp>
	</station>
	<station code="PLG" name="PLG" netid="HL" source="National Observatory of Athens Seismic Network" insttype="" lat="40.37328" lon="23.44443">
		<comp name="--.HNE" depth="0.0">
			<acc value="0.0" flag="1"/>
			<vel value="0.0" flag="1"/>
			<psa03 value="0.0" flag="1"/>
			<psa10 value="0.0" flag="1"/>
			<psa30 value="0.0" flag="1"/>
		</comp>
		<comp name="--.HNN" depth="0.0">
			<acc value="0.0" flag="1"/>
			<vel value="0.0" flag="1"/>
			<psa03 value="0.0" flag="1"/>
			<psa10 value="0.0" flag="1"/>
			<psa30 value="0.0" flag="1"/>
		</comp>
		<comp name="--.HNZ" depth="0.0">
			<acc value="0.0" flag="1"/>
			<vel value="0.0" flag="1"/>
			<psa03 value="0.0" flag="1"/>
			<psa10 value="0.0" flag="1"/>
			<psa30 value="0.0" flag="1"/>
		</comp>
	</station>
	<station code="ANX" name="ANX" netid="HP" source="University of Patras, Seismological Laboratory (PSLNET)" insttype="" lat="38.5933" lon="21.9209">
		<comp name="--.HNE" depth="0.0">
			<acc value="0.031943009756794" flag="0"/>
			<vel value="0.0146796865991864" flag="0"/>
			<psa03 value="0.077888451394374" flag="0"/>
			<psa10 value="0.0219487546222776" flag="0"/>
			<psa30 value="0.00101739687671782" flag="0"/>
		</comp>
		<comp name="--.HNN" depth="0.0">
			<acc value="0.0408083029853152" flag="0"/>
			<vel value="0.0225352593044886" flag="0"/>
			<psa03 value="0.137223757067108" flag="0"/>
			<psa10 value="0.0237838111857667" flag="0"/>
			<psa30 value="0.00164893517136135" flag="0"/>
		</comp>
		<comp name="--.HNZ" depth="0.0">
			<acc value="0.0166656197487261" flag="0"/>
			<vel value="0.0154898478375746" flag="0"/>
			<psa03 value="0.0541538895127874" flag="0"/>
			<psa10 value="0.0137684052142861" flag="0"/>
			<psa30 value="0.000865481031785316" flag="0"/>
		</comp>
	</station>
	<station code="PDO" name="PDO" netid="HP" source="University of Patras, Seismological Laboratory (PSLNET)" insttype="" lat="38.5986" lon="21.1833">
		<comp name="--.HNE" depth="0.0">
			<acc value="0.0116523966118079" flag="0"/>
			<vel value="0.00839553523311768" flag="0"/>
			<psa03 value="0.0347693501738256" flag="0"/>
			<psa10 value="0.00758407162626816" flag="0"/>
			<psa30 value="0.000505041477351017" flag="0"/>
		</comp>
		<comp name="--.HNN" depth="0.0">
			<acc value="0.0151565708757824" flag="0"/>
			<vel value="0.00832318736205189" flag="0"/>
			<psa03 value="0.0414799092987602" flag="0"/>
			<psa10 value="0.00723890532320707" flag="0"/>
			<psa30 value="0.00046066197492956" flag="0"/>
		</comp>
		<comp name="--.HNZ" depth="0.0">
			<acc value="0.00666808177848574" flag="0"/>
			<vel value="0.003384189803368" flag="0"/>
			<psa03 value="0.0197213038354095" flag="0"/>
			<psa10 value="0.00283640781997127" flag="0"/>
			<psa30 value="0.000255464735785106" flag="0"/>
		</comp>
	</station>
	<station code="PVO" name="PVO" netid="HP" source="University of Patras, Seismological Laboratory (PSLNET)" insttype="" lat="38.616" lon="21.525">
		<comp name="--.HNE" depth="0.0">
			<acc value="0.00718596902319404" flag="0"/>
			<vel value="0.00481118949028862" flag="0"/>
			<psa03 value="0.0231630083939459" flag="0"/>
			<psa10 value="0.00538888245575219" flag="0"/>
			<psa30 value="0.000604484992082091" flag="0"/>
		</comp>
		<comp name="--.HNN" depth="0.0">
			<acc value="0.00840322838491645" flag="0"/>
			<vel value="0.00455333699581504" flag="0"/>
			<psa03 value="0.0216777290119255" flag="0"/>
			<psa10 value="0.00557893567086479" flag="0"/>
			<psa30 value="0.00036219016519581" flag="0"/>
		</comp>
		<comp name="--.HNZ" depth="0.0">
			<acc value="0.00423286704244805" flag="0"/>
			<vel value="0.00348930126963304" flag="0"/>
			<psa03 value="0.011677325648841" flag="0"/>
			<psa10 value="0.00469727570270278" flag="0"/>
			<psa30 value="0.00038685312712111" flag="0"/>
		</comp>
	</station>
	<station code="SERG" name="SERG" netid="HP" source="University of Patras, Seismological Laboratory (PSLNET)" insttype="" lat="38.4133" lon="22.0566">
		<comp name="--.HNE" depth="0.0">
			<acc value="0.0192068264339612" flag="0"/>
			<vel value="0.0116997830378799" flag="0"/>
			<psa03 value="0.0409611145144676" flag="0"/>
			<psa10 value="0.0145964385049266" flag="0"/>
			<psa30 value="0.00101519016803174" flag="0"/>
		</comp>
		<comp name="--.HNN" depth="0.0">
			<acc value="0.0186534114812828" flag="0"/>
			<vel value="0.00708110923608452" flag="0"/>
			<psa03 value="0.0467789426255724" flag="0"/>
			<psa10 value="0.00738157180541859" flag="0"/>
			<psa30 value="0.000642376720970749" flag="0"/>
		</comp>
		<comp name="--.HNZ" depth="0.0">
			<acc value="0.0107354451270928" flag="0"/>
			<vel value="0.00584610671638568" flag="0"/>
			<psa03 value="0.0368370262097004" flag="0"/>
			<psa10 value="0.00726699984057126" flag="0"/>
			<psa30 value="0.000454530110388843" flag="0"/>
		</comp>
	</station>
</stationlist>
