<?xml version="1.0" encoding="UTF-8" standalone="yes"?>
<!DOCTYPE earthquake SYSTEM "stationlist.dtd">
<stationlist created="" xmlns="ch.ethz.sed.shakemap.usgs.xml">
  <station code="KZN" name="KZN" netid="HL" insttype="120" lat="40.3033" lon="21.7821">
    <comp name="--.HHE">
      <acc value="0.1203068278" flag="0"/>
      <vel value="0.0522865062" flag="0"/>
      <psa03 value="0.2519025680" flag="0"/>
      <psa10 value="0.0288030559" flag="0"/>
      <psa30 value="0.0018277121" flag="0"/>
    </comp>
    <comp name="--.HHZ">
      <acc value="0.0289809381" flag="0"/>
      <vel value="0.0214129264" flag="0"/>
      <psa03 value="0.0696489766" flag="0"/>
      <psa10 value="0.0284335308" flag="0"/>
      <psa30 value="0.0017409426" flag="0"/>
    </comp>
    <comp name="--.HHN">
      <acc value="0.0790573115" flag="0"/>
      <vel value="0.0429274486" flag="0"/>
      <psa03 value="0.2639406216" flag="0"/>
      <psa10 value="0.0138416041" flag="0"/>
      <psa30 value="0.0012494195" flag="0"/>
    </comp>
  </station>
  <station code="THL" name="THL" netid="HL" insttype="120" lat="39.5647" lon="22.0144">
    <comp name="--.HHZ">
      <acc value="0.4779905887" flag="0"/>
      <vel value="0.1483689268" flag="0"/>
      <psa03 value="0.5665153459" flag="0"/>
      <psa10 value="0.0750212476" flag="0"/>
      <psa30 value="0.0053252362" flag="0"/>
    </comp>
    <comp name="--.HHN">
      <acc value="0.6263493048" flag="0"/>
      <vel value="0.0989831782" flag="0"/>
      <psa03 value="0.2015006679" flag="0"/>
      <psa10 value="0.0673205857" flag="0"/>
      <psa30 value="0.0042323642" flag="0"/>
    </comp>
    <comp name="--.HHE">
      <acc value="0.3162992354" flag="0"/>
      <vel value="0.0941410794" flag="0"/>
      <psa03 value="0.2815506186" flag="0"/>
      <psa10 value="0.0469037097" flag="0"/>
      <psa30 value="0.0040580884" flag="0"/>
    </comp>
  </station>
  <station code="TYRN" name="TYRN" netid="HT" insttype="120P," lat="39.711" lon="22.2325">
    <comp name="--.HHE">
      <acc value="0.9560391953" flag="0"/>
      <vel value="0.4639215512" flag="0"/>
      <psa03 value="1.2488880449" flag="0"/>
      <psa10 value="0.3060337626" flag="0"/>
      <psa30 value="0.0271090812" flag="0"/>
    </comp>
    <comp name="--.HHN">
      <acc value="0.8277372439" flag="0"/>
      <vel value="0.5077943329" flag="0"/>
      <psa03 value="1.6782072572" flag="0"/>
      <psa10 value="0.3319393937" flag="0"/>
      <psa30 value="0.0321756739" flag="0"/>
    </comp>
    <comp name="--.HHZ">
      <acc value="0.6750550997" flag="0"/>
      <vel value="0.2083780368" flag="0"/>
      <psa03 value="1.7131893235" flag="0"/>
      <psa10 value="0.1006217317" flag="0"/>
      <psa30 value="0.0085905662" flag="0"/>
    </comp>
  </station>
  <station code="THL" name="THL" netid="MN" insttype="" lat="39.5647" lon="22.0144">
    <comp name="--.HHN">
      <acc value="0.6263493048" flag="0"/>
      <vel value="0.0989831782" flag="0"/>
      <psa03 value="0.2015006679" flag="0"/>
      <psa10 value="0.0673205857" flag="0"/>
      <psa30 value="0.0042323642" flag="0"/>
    </comp>
    <comp name="--.HHE">
      <acc value="0.3162992354" flag="0"/>
      <vel value="0.0941410794" flag="0"/>
      <psa03 value="0.2815506186" flag="0"/>
      <psa10 value="0.0469037097" flag="0"/>
      <psa30 value="0.0040580884" flag="0"/>
    </comp>
    <comp name="--.HHZ">
      <acc value="0.4779905887" flag="0"/>
      <vel value="0.1483689268" flag="0"/>
      <psa03 value="0.5665153459" flag="0"/>
      <psa10 value="0.0750212476" flag="0"/>
      <psa30 value="0.0053252362" flag="0"/>
    </comp>
  </station>
</stationlist>
