<?xml version="1.0" encoding="UTF-8" standalone="yes"?>
<!DOCTYPE earthquake SYSTEM "stationlist.dtd">
<stationlist created="" xmlns="ch.ethz.sed.shakemap.usgs.xml">
  <station code="AGRB" name="AGRB" netid="KO" insttype="120s," lat="39.5755" lon="42.992">
    <comp name="--.HHZ">
      <acc value="0.0056844237" flag="0"/>
      <vel value="0.0039864485" flag="0"/>
      <psa03 value="0.0123540288" flag="0"/>
      <psa10 value="0.0055917478" flag="0"/>
      <psa30 value="0.0002954470" flag="0"/>
    </comp>
    <comp name="--.HHE">
      <acc value="0.0113766772" flag="0"/>
      <vel value="0.0046429468" flag="0"/>
      <psa03 value="0.0295125495" flag="0"/>
      <psa10 value="0.0074705090" flag="0"/>
      <psa30 value="0.0004684214" flag="0"/>
    </comp>
    <comp name="--.HHN">
      <acc value="0.0000226578" flag="0"/>
      <vel value="0.0000022628" flag="0"/>
      <psa03 value="0.0000088410" flag="0"/>
      <psa10 value="0.0000031290" flag="0"/>
      <psa30 value="0.0000002504" flag="0"/>
    </comp>
  </station>
  <station code="ERCV" name="ERCV" netid="KO" insttype="CMG-5T" lat="39.0198" lon="43.3381">
    <comp name="--.HNZ">
      <acc value="0.2902005648" flag="0"/>
      <vel value="0.0801451310" flag="0"/>
      <psa03 value="0.4044361249" flag="0"/>
      <psa10 value="0.0686217374" flag="0"/>
      <psa30 value="0.0046882367" flag="0"/>
    </comp>
    <comp name="--.HNE">
      <acc value="0.4963218737" flag="0"/>
      <vel value="0.1609495622" flag="0"/>
      <psa03 value="0.9983751163" flag="0"/>
      <psa10 value="0.1198451306" flag="0"/>
      <psa30 value="0.0075341915" flag="0"/>
    </comp>
    <comp name="--.HNN">
      <acc value="0.5490367917" flag="0"/>
      <vel value="0.1904631079" flag="0"/>
      <psa03 value="0.9335306783" flag="0"/>
      <psa10 value="0.2049378244" flag="0"/>
      <psa30 value="0.0155661008" flag="0"/>
    </comp>
  </station>
  <station code="VANB" name="VANB" netid="KO" insttype="360s," lat="38.509" lon="43.4058">
    <comp name="--.HHE">
      <acc value="0.0455350015" flag="0"/>
      <vel value="0.0398255419" flag="0"/>
      <psa03 value="0.0984856937" flag="0"/>
      <psa10 value="0.0512338351" flag="0"/>
      <psa30 value="0.0072148905" flag="0"/>
    </comp>
    <comp name="--.HHZ">
      <acc value="0.0226558570" flag="0"/>
      <vel value="0.0264025125" flag="0"/>
      <psa03 value="0.0572415442" flag="0"/>
      <psa10 value="0.0340630358" flag="0"/>
      <psa30 value="0.0060644833" flag="0"/>
    </comp>
    <comp name="--.HHN">
      <acc value="0.0345292600" flag="0"/>
      <vel value="0.0411238632" flag="0"/>
      <psa03 value="0.0841455275" flag="0"/>
      <psa10 value="0.0650540726" flag="0"/>
      <psa30 value="0.0057531611" flag="0"/>
    </comp>
  </station>
</stationlist>
