<?xml version="1.0" encoding="UTF-8" standalone="yes"?>
<!DOCTYPE earthquake SYSTEM "stationlist.dtd">
<stationlist created="" xmlns="ch.ethz.sed.shakemap.usgs.xml">
  <station code="AGRB" name="AGRB" netid="KO" insttype="120s," lat="39.5755" lon="42.992">
    <comp name="--.HHE">
      <acc value="0.0113766774" flag="0"/>
      <vel value="0.0046429466" flag="0"/>
      <psa03 value="0.0295125495" flag="0"/>
      <psa10 value="0.0074705090" flag="0"/>
      <psa30 value="0.0004684206" flag="0"/>
    </comp>
    <comp name="--.HHZ">
      <acc value="0.0056844239" flag="0"/>
      <vel value="0.0039864485" flag="0"/>
      <psa03 value="0.0123540288" flag="0"/>
      <psa10 value="0.0055917478" flag="0"/>
      <psa30 value="0.0002974805" flag="0"/>
    </comp>
    <comp name="--.HHN">
      <acc value="0.0000226583" flag="0"/>
      <vel value="0.0000022628" flag="0"/>
      <psa03 value="0.0000080826" flag="0"/>
      <psa10 value="0.0000031292" flag="0"/>
      <psa30 value="0.0000002397" flag="0"/>
    </comp>
  </station>
  <station code="ERCV" name="ERCV" netid="KO" insttype="CMG-5T" lat="39.0198" lon="43.3381">
    <comp name="--.HNE">
      <acc value="0.4963218890" flag="0"/>
      <vel value="0.1609495621" flag="0"/>
      <psa03 value="0.9983751163" flag="0"/>
      <psa10 value="0.1198451304" flag="0"/>
      <psa30 value="0.0075333846" flag="0"/>
    </comp>
    <comp name="--.HNN">
      <acc value="0.5490367532" flag="0"/>
      <vel value="0.1904631079" flag="0"/>
      <psa03 value="0.9335306784" flag="0"/>
      <psa10 value="0.2049378240" flag="0"/>
      <psa30 value="0.0155665084" flag="0"/>
    </comp>
    <comp name="--.HNZ">
      <acc value="0.2902005880" flag="0"/>
      <vel value="0.0801451333" flag="0"/>
      <psa03 value="0.4044361249" flag="0"/>
      <psa10 value="0.0686217375" flag="0"/>
      <psa30 value="0.0046887525" flag="0"/>
    </comp>
  </station>
  <station code="VANB" name="VANB" netid="KO" insttype="360s," lat="38.509" lon="43.4058">
    <comp name="--.HHE">
      <acc value="0.0455350015" flag="0"/>
      <vel value="0.0398255419" flag="0"/>
      <psa03 value="0.0984856937" flag="0"/>
      <psa10 value="0.0512338353" flag="0"/>
      <psa30 value="0.0072148531" flag="0"/>
    </comp>
    <comp name="--.HHZ">
      <acc value="0.0226558568" flag="0"/>
      <vel value="0.0264025120" flag="0"/>
      <psa03 value="0.0572415442" flag="0"/>
      <psa10 value="0.0340630360" flag="0"/>
      <psa30 value="0.0060643776" flag="0"/>
    </comp>
    <comp name="--.HHN">
      <acc value="0.0345292602" flag="0"/>
      <vel value="0.0411238637" flag="0"/>
      <psa03 value="0.0841455275" flag="0"/>
      <psa10 value="0.0650540728" flag="0"/>
      <psa30 value="0.0057531794" flag="0"/>
    </comp>
  </station>
</stationlist>
