<?xml version="1.0" encoding="UTF-8" standalone="yes"?>
<!DOCTYPE earthquake SYSTEM "stationlist.dtd">
<stationlist created="" xmlns="ch.ethz.sed.shakemap.usgs.xml">
  <station code="APE" name="APE" netid="GE" insttype="STS-2/N" lat="37.0727" lon="25.523">
    <comp name="--.HHE">
      <acc value="0.2105119549" flag="0"/>
      <vel value="0.0370555583" flag="0"/>
      <psa03 value="0.1350038616" flag="0"/>
      <psa10 value="0.0148523346" flag="0"/>
      <psa30 value="0.0039252013" flag="0"/>
    </comp>
    <comp name="--.HHN">
      <acc value="0.2415991127" flag="0"/>
      <vel value="0.0382203655" flag="0"/>
      <psa03 value="0.1724642392" flag="0"/>
      <psa10 value="0.0150431109" flag="0"/>
      <psa30 value="0.0027841785" flag="0"/>
    </comp>
    <comp name="--.HHZ">
      <acc value="0.0991186664" flag="0"/>
      <vel value="0.0220170956" flag="0"/>
      <psa03 value="0.1122599763" flag="0"/>
      <psa10 value="0.0239454538" flag="0"/>
      <psa30 value="0.0025373929" flag="0"/>
    </comp>
  </station>
  <station code="THERA" name="THERA" netid="GE" insttype="STS-2/N" lat="36.367" lon="25.4753">
    <comp name="--.HHE">
      <acc value="0.2412125747" flag="0"/>
      <vel value="0.0681234464" flag="0"/>
      <psa03 value="0.2809093775" flag="0"/>
      <psa10 value="0.0483847256" flag="0"/>
      <psa30 value="0.0042979680" flag="0"/>
    </comp>
    <comp name="--.HHN">
      <acc value="0.1945484744" flag="0"/>
      <vel value="0.0350849156" flag="0"/>
      <psa03 value="0.1730836380" flag="0"/>
      <psa10 value="0.0208198932" flag="0"/>
      <psa30 value="0.0017301136" flag="0"/>
    </comp>
    <comp name="--.HHZ">
      <acc value="0.2212238992" flag="0"/>
      <vel value="0.0616359460" flag="0"/>
      <psa03 value="0.2439876014" flag="0"/>
      <psa10 value="0.0425981831" flag="0"/>
      <psa30 value="0.0037362882" flag="0"/>
    </comp>
  </station>
</stationlist>
