<?xml version="1.0" encoding="UTF-8" standalone="yes"?>
<!DOCTYPE earthquake SYSTEM "stationlist.dtd">
<stationlist created="" xmlns="ch.ethz.sed.shakemap.usgs.xml">
  <station code="AKS" name="AKS" netid="KO" insttype="CMG-5T" commtype="DIG" lat="38.8785" lon="27.8129">
    <comp name="--.HNN">
      <acc value="0.2202764966" flag="0"/>
      <vel value="0.0690475960" flag="0"/>
      <psa03 value="0.3766007089" flag="0"/>
      <psa10 value="0.0177781739" flag="0"/>
      <psa30 value="0.0019501112" flag="0"/>
    </comp>
    <comp name="--.HNE">
      <acc value="0.1724739208" flag="0"/>
      <vel value="0.0722261346" flag="0"/>
      <psa03 value="0.4413918150" flag="0"/>
      <psa10 value="0.0249826255" flag="0"/>
      <psa30 value="0.0016980335" flag="0"/>
    </comp>
    <comp name="--.HNZ">
      <acc value="0.1263874854" flag="0"/>
      <vel value="0.0355306222" flag="0"/>
      <psa03 value="0.1456994754" flag="0"/>
      <psa10 value="0.0103251207" flag="0"/>
      <psa30 value="0.0016655616" flag="0"/>
    </comp>
  </station>
  <station code="BALB" name="BALB" netid="KO" insttype="CMG-5T" commtype="DIG" lat="39.6507" lon="27.8642">
    <comp name="--.HNE">
      <acc value="0.0474640684" flag="0"/>
      <vel value="0.0171200185" flag="0"/>
      <psa03 value="0.0722815051" flag="0"/>
      <psa10 value="0.0256176130" flag="0"/>
      <psa30 value="0.0014119054" flag="0"/>
    </comp>
    <comp name="--.HNZ">
      <acc value="0.0294811717" flag="0"/>
      <vel value="0.0089494293" flag="0"/>
      <psa03 value="0.0360677243" flag="0"/>
      <psa10 value="0.0109528178" flag="0"/>
      <psa30 value="0.0010056409" flag="0"/>
    </comp>
    <comp name="--.HNN">
      <acc value="0.0563885141" flag="0"/>
      <vel value="0.0245821445" flag="0"/>
      <psa03 value="0.0990063395" flag="0"/>
      <psa10 value="0.0292674186" flag="0"/>
      <psa30 value="0.0021022405" flag="0"/>
    </comp>
  </station>
  <station code="DKL" name="DKL" netid="KO" insttype="CMG-3ESPC" commtype="DIG" lat="39.0713" lon="26.9053">
    <comp name="--.HHN">
      <acc value="0.0163192225" flag="0"/>
      <vel value="0.0111245850" flag="0"/>
      <psa03 value="0.0257824934" flag="0"/>
      <psa10 value="0.0130342239" flag="0"/>
      <psa30 value="0.0012281752" flag="0"/>
    </comp>
    <comp name="--.HHE">
      <acc value="0.0107879421" flag="0"/>
      <vel value="0.0063267013" flag="0"/>
      <psa03 value="0.0204617336" flag="0"/>
      <psa10 value="0.0100007940" flag="0"/>
      <psa30 value="0.0006110604" flag="0"/>
    </comp>
    <comp name="--.HHZ">
      <acc value="0.0092026048" flag="0"/>
      <vel value="0.0060579578" flag="0"/>
      <psa03 value="0.0186284921" flag="0"/>
      <psa10 value="0.0062261923" flag="0"/>
      <psa30 value="0.0005808192" flag="0"/>
    </comp>
  </station>
  <station code="DST" name="DST" netid="KO" insttype="CMG-5T" commtype="DIG" lat="39.6041" lon="28.6267">
    <comp name="--.HNE">
      <acc value="0.0589460580" flag="0"/>
      <vel value="0.0251508461" flag="0"/>
      <psa03 value="0.1371092497" flag="0"/>
      <psa10 value="0.0200002843" flag="0"/>
      <psa30 value="0.0012718308" flag="0"/>
    </comp>
    <comp name="--.HNN">
      <acc value="0.1008092428" flag="0"/>
      <vel value="0.0390340706" flag="0"/>
      <psa03 value="0.1691241491" flag="0"/>
      <psa10 value="0.0258708171" flag="0"/>
      <psa30 value="0.0022421215" flag="0"/>
    </comp>
    <comp name="--.HNZ">
      <acc value="0.0623767815" flag="0"/>
      <vel value="0.0336683913" flag="0"/>
      <psa03 value="0.1193027605" flag="0"/>
      <psa10 value="0.0112811390" flag="0"/>
      <psa30 value="0.0011227855" flag="0"/>
    </comp>
  </station>
  <station code="GOMA" name="GOMA" netid="KO" insttype="CMG-5T" commtype="DIG" lat="38.7077" lon="27.9175">
    <comp name="--.HNE">
      <acc value="0.2846235588" flag="0"/>
      <vel value="0.1154954915" flag="0"/>
      <psa03 value="0.6749631732" flag="0"/>
      <psa10 value="0.0404514840" flag="0"/>
      <psa30 value="0.0035664376" flag="0"/>
    </comp>
    <comp name="--.HNN">
      <acc value="0.2420154031" flag="0"/>
      <vel value="0.0982323676" flag="0"/>
      <psa03 value="1.0057006226" flag="0"/>
      <psa10 value="0.0218460875" flag="0"/>
      <psa30 value="0.0026888694" flag="0"/>
    </comp>
  </station>
  <station code="GONE" name="GONE" netid="KO" insttype="CMG-5T" commtype="DIG" lat="40.0466" lon="27.686">
    <comp name="--.HNZ">
      <acc value="0.0178566510" flag="0"/>
      <vel value="0.0054660720" flag="0"/>
      <psa03 value="0.0206454370" flag="0"/>
      <psa10 value="0.0064109325" flag="0"/>
      <psa30 value="0.0005094461" flag="0"/>
    </comp>
    <comp name="--.HNE">
      <acc value="0.0285869633" flag="0"/>
      <vel value="0.0161798879" flag="0"/>
      <psa03 value="0.0755383246" flag="0"/>
      <psa10 value="0.0161027451" flag="0"/>
      <psa30 value="0.0008559529" flag="0"/>
    </comp>
    <comp name="--.HNN">
      <acc value="0.0622120762" flag="0"/>
      <vel value="0.0244113389" flag="0"/>
      <psa03 value="0.1213381478" flag="0"/>
      <psa10 value="0.0169269896" flag="0"/>
      <psa30 value="0.0011234225" flag="0"/>
    </comp>
  </station>
  <station code="GORD" name="GORD" netid="KO" insttype="CMG-5T" commtype="DIG" lat="38.9088" lon="28.1769">
    <comp name="--.HNN">
      <acc value="0.1916333890" flag="0"/>
      <vel value="0.0883585247" flag="0"/>
      <psa03 value="0.3568631104" flag="0"/>
      <psa10 value="0.0694427456" flag="0"/>
      <psa30 value="0.0041593797" flag="0"/>
    </comp>
    <comp name="--.HNZ">
      <acc value="0.1559271751" flag="0"/>
      <vel value="0.0586037008" flag="0"/>
      <psa03 value="0.2189252560" flag="0"/>
      <psa10 value="0.0518644220" flag="0"/>
      <psa30 value="0.0060718996" flag="0"/>
    </comp>
    <comp name="--.HNE">
      <acc value="0.1593673876" flag="0"/>
      <vel value="0.0680422641" flag="0"/>
      <psa03 value="0.2330928030" flag="0"/>
      <psa10 value="0.0611833039" flag="0"/>
      <psa30 value="0.0037122574" flag="0"/>
    </comp>
  </station>
  <station code="KCTX" name="KCTX" netid="KO" insttype="CMG-3ESP" commtype="DIG" lat="40.2626" lon="28.3353">
    <comp name="--.HHE">
      <acc value="0.0227218041" flag="0"/>
      <vel value="0.0116594647" flag="0"/>
      <psa03 value="0.0589869289" flag="0"/>
      <psa10 value="0.0135505800" flag="0"/>
      <psa30 value="0.0009042980" flag="0"/>
    </comp>
    <comp name="--.HHN">
      <acc value="0.0389732206" flag="0"/>
      <vel value="0.0203103226" flag="0"/>
      <psa03 value="0.0975199928" flag="0"/>
      <psa10 value="0.0162102345" flag="0"/>
      <psa30 value="0.0007209499" flag="0"/>
    </comp>
    <comp name="--.HHZ">
      <acc value="0.0282062854" flag="0"/>
      <vel value="0.0147940619" flag="0"/>
      <psa03 value="0.0509047550" flag="0"/>
      <psa10 value="0.0073401670" flag="0"/>
      <psa30 value="0.0006131019" flag="0"/>
    </comp>
  </station>
  <station code="KULA" name="KULA" netid="KO" insttype="CMG-3T" commtype="DIG" lat="38.5145" lon="28.6607">
    <comp name="--.HHZ">
      <acc value="0.0757240298" flag="0"/>
      <vel value="0.0189533991" flag="0"/>
      <psa03 value="0.0949798611" flag="0"/>
      <psa10 value="0.0111767048" flag="0"/>
      <psa30 value="0.0009731936" flag="0"/>
    </comp>
  </station>
  <station code="ORLT" name="ORLT" netid="KO" insttype="CMG-5T" commtype="DIG" lat="40.0452" lon="28.8914">
    <comp name="--.HNZ">
      <acc value="0.0303632809" flag="0"/>
      <vel value="0.0216235565" flag="0"/>
      <psa03 value="0.0911433379" flag="0"/>
      <psa10 value="0.0338373234" flag="0"/>
      <psa30 value="0.0014675148" flag="0"/>
    </comp>
    <comp name="--.HNE">
      <acc value="0.0894456732" flag="0"/>
      <vel value="0.0397113513" flag="0"/>
      <psa03 value="0.2686860644" flag="0"/>
      <psa10 value="0.0380394801" flag="0"/>
      <psa30 value="0.0016765433" flag="0"/>
    </comp>
    <comp name="--.HNN">
      <acc value="0.0910029331" flag="0"/>
      <vel value="0.0576659678" flag="0"/>
      <psa03 value="0.4744394577" flag="0"/>
      <psa10 value="0.0635175852" flag="0"/>
      <psa30 value="0.0023933679" flag="0"/>
    </comp>
  </station>
  <station code="SHAP" name="SHAP" netid="KO" insttype="CMG-5T" commtype="DIG" lat="39.0231" lon="29.222">
    <comp name="--.HNE">
      <acc value="0.1842055495" flag="0"/>
      <vel value="0.0579697661" flag="0"/>
      <psa03 value="0.4308123253" flag="0"/>
      <psa10 value="0.0196967717" flag="0"/>
      <psa30 value="0.0016163543" flag="0"/>
    </comp>
    <comp name="--.HNN">
      <acc value="0.1649995601" flag="0"/>
      <vel value="0.0548068339" flag="0"/>
      <psa03 value="0.3526616649" flag="0"/>
      <psa10 value="0.0185517303" flag="0"/>
      <psa30 value="0.0013685690" flag="0"/>
    </comp>
    <comp name="--.HNZ">
      <acc value="0.0977026704" flag="0"/>
      <vel value="0.0182472478" flag="0"/>
      <psa03 value="0.0970781394" flag="0"/>
      <psa10 value="0.0113841889" flag="0"/>
      <psa30 value="0.0006597751" flag="0"/>
    </comp>
  </station>
  <station code="SIMA" name="SIMA" netid="KO" insttype="CMG-6T" commtype="DIG" lat="39.0833" lon="28.9825">
    <comp name="--.HHE">
      <acc value="0.1555170026" flag="0"/>
      <vel value="0.0346977751" flag="0"/>
      <psa03 value="0.1871312628" flag="0"/>
      <psa10 value="0.0108701162" flag="0"/>
      <psa30 value="0.0009204529" flag="0"/>
    </comp>
    <comp name="--.HHN">
      <acc value="0.1276528360" flag="0"/>
      <vel value="0.0468660284" flag="0"/>
      <psa03 value="0.3016693329" flag="0"/>
      <psa10 value="0.0128703038" flag="0"/>
      <psa30 value="0.0016019987" flag="0"/>
    </comp>
    <comp name="--.HHZ">
      <acc value="0.0755142341" flag="0"/>
      <vel value="0.0172102612" flag="0"/>
      <psa03 value="0.0894905017" flag="0"/>
      <psa10 value="0.0086630569" flag="0"/>
      <psa30 value="0.0006839021" flag="0"/>
    </comp>
  </station>
  <station code="SMAA" name="SMAA" netid="KO" insttype="CMG-5T" commtype="DIG" lat="39.1005" lon="28.9805">
    <comp name="--.HNE">
      <acc value="0.1721575767" flag="0"/>
      <vel value="0.0913769077" flag="0"/>
      <psa03 value="0.3517199337" flag="0"/>
      <psa10 value="0.0489585543" flag="0"/>
      <psa30 value="0.0042287659" flag="0"/>
    </comp>
    <comp name="--.HNN">
      <acc value="0.1876495173" flag="0"/>
      <vel value="0.0634864407" flag="0"/>
      <psa03 value="0.3972942732" flag="0"/>
      <psa10 value="0.0618370198" flag="0"/>
      <psa30 value="0.0031134255" flag="0"/>
    </comp>
    <comp name="--.HNZ">
      <acc value="0.0634366961" flag="0"/>
      <vel value="0.0271594297" flag="0"/>
      <psa03 value="0.0693082012" flag="0"/>
      <psa10 value="0.0587085937" flag="0"/>
      <psa30 value="0.0022733215" flag="0"/>
    </comp>
  </station>
  <station code="SOMA" name="SOMA" netid="KO" insttype="CMG-5T" commtype="DIG" lat="39.1564" lon="27.5341">
    <comp name="--.HNN">
      <acc value="0.0669687049" flag="0"/>
      <vel value="0.0253921390" flag="0"/>
      <psa03 value="0.1722931464" flag="0"/>
      <psa10 value="0.0238768229" flag="0"/>
      <psa30 value="0.0011285762" flag="0"/>
    </comp>
    <comp name="--.HNZ">
      <acc value="0.0622603110" flag="0"/>
      <vel value="0.0191046019" flag="0"/>
      <psa03 value="0.0529568157" flag="0"/>
      <psa10 value="0.0153070896" flag="0"/>
      <psa30 value="0.0009943685" flag="0"/>
    </comp>
    <comp name="--.HNE">
      <acc value="0.0866425030" flag="0"/>
      <vel value="0.0280673581" flag="0"/>
      <psa03 value="0.0857638925" flag="0"/>
      <psa10 value="0.0212911110" flag="0"/>
      <psa30 value="0.0012107893" flag="0"/>
    </comp>
  </station>
  <station code="SUSR" name="SUSR" netid="KO" insttype="CMG-5T" commtype="DIG" lat="39.9627" lon="28.0835">
    <comp name="--.HNE">
      <acc value="0.0471311054" flag="0"/>
      <vel value="0.0121737502" flag="0"/>
      <psa03 value="0.0693053462" flag="0"/>
      <psa10 value="0.0066960731" flag="0"/>
      <psa30 value="0.0007911222" flag="0"/>
    </comp>
    <comp name="--.HNZ">
      <acc value="0.0312389988" flag="0"/>
      <vel value="0.0107796641" flag="0"/>
      <psa03 value="0.0624994149" flag="0"/>
      <psa10 value="0.0073469511" flag="0"/>
      <psa30 value="0.0010771813" flag="0"/>
    </comp>
    <comp name="--.HNN">
      <acc value="0.0346883671" flag="0"/>
      <vel value="0.0112350104" flag="0"/>
      <psa03 value="0.0578557267" flag="0"/>
      <psa10 value="0.0047472814" flag="0"/>
      <psa30 value="0.0007036817" flag="0"/>
    </comp>
  </station>
  <station code="TVSB" name="TVSB" netid="KO" insttype="CMG-3T" commtype="DIG" lat="39.4497" lon="29.4615">
    <comp name="--.HHZ">
      <acc value="0.0283206264" flag="0"/>
      <vel value="0.0152908394" flag="0"/>
      <psa03 value="0.0860758262" flag="0"/>
      <psa10 value="0.0081514212" flag="0"/>
      <psa30 value="0.0007132014" flag="0"/>
    </comp>
    <comp name="--.HHE">
      <acc value="0.0699979344" flag="0"/>
      <vel value="0.0383450393" flag="0"/>
      <psa03 value="0.1873985246" flag="0"/>
      <psa10 value="0.0164514814" flag="0"/>
      <psa30 value="0.0011723521" flag="0"/>
    </comp>
    <comp name="--.HHN">
      <acc value="0.0588117298" flag="0"/>
      <vel value="0.0358255494" flag="0"/>
      <psa03 value="0.1622684734" flag="0"/>
      <psa10 value="0.0145897286" flag="0"/>
      <psa30 value="0.0010051119" flag="0"/>
    </comp>
  </station>
  <station code="YAYO" name="YAYO" netid="KO" insttype="CMG-6T" commtype="DIG" lat="39.6113" lon="27.0726">
    <comp name="--.HHZ">
      <acc value="0.0185489501" flag="0"/>
      <vel value="0.0117265116" flag="0"/>
      <psa03 value="0.0644423088" flag="0"/>
      <psa10 value="0.0066848914" flag="0"/>
      <psa30 value="0.0005253673" flag="0"/>
    </comp>
    <comp name="--.HHE">
      <acc value="0.0341950974" flag="0"/>
      <vel value="0.0256876742" flag="0"/>
      <psa03 value="0.0801499235" flag="0"/>
      <psa10 value="0.0163983539" flag="0"/>
      <psa30 value="0.0013625836" flag="0"/>
    </comp>
    <comp name="--.HHN">
      <acc value="0.0245910090" flag="0"/>
      <vel value="0.0147614803" flag="0"/>
      <psa03 value="0.0746468168" flag="0"/>
      <psa10 value="0.0131461864" flag="0"/>
      <psa30 value="0.0008113302" flag="0"/>
    </comp>
  </station>
  <station code="YENI" name="YENI" netid="KO" insttype="CMG-5T" commtype="DIG" lat="39.9364" lon="27.2422">
    <comp name="--.HNN">
      <acc value="0.0327802323" flag="0"/>
      <vel value="0.0146199331" flag="0"/>
      <psa03 value="0.0444443415" flag="0"/>
      <psa10 value="0.0140917743" flag="0"/>
      <psa30 value="0.0008109061" flag="0"/>
    </comp>
    <comp name="--.HNZ">
      <acc value="0.0111951738" flag="0"/>
      <vel value="0.0075692649" flag="0"/>
      <psa03 value="0.0291150380" flag="0"/>
      <psa10 value="0.0074198248" flag="0"/>
      <psa30 value="0.0007302967" flag="0"/>
    </comp>
    <comp name="--.HNE">
      <acc value="0.0475883216" flag="0"/>
      <vel value="0.0322730728" flag="0"/>
      <psa03 value="0.0642183112" flag="0"/>
      <psa10 value="0.0303739870" flag="0"/>
      <psa30 value="0.0016935208" flag="0"/>
    </comp>
  </station>
</stationlist>
