<?xml version="1.0" encoding="UTF-8" standalone="yes"?>
<!DOCTYPE earthquake SYSTEM "stationlist.dtd">
<stationlist created="" xmlns="ch.ethz.sed.shakemap.usgs.xml">
  <station code="AKS" name="AKS" netid="KO" insttype="CMG-5T" commtype="DIG" lat="38.8785" lon="27.8129">
    <comp name="--.HNE">
      <acc value="0.1724739261" flag="0"/>
      <vel value="0.0722261223" flag="0"/>
      <psa03 value="0.4413918150" flag="0"/>
      <psa10 value="0.0249826355" flag="0"/>
      <psa30 value="0.0016977059" flag="0"/>
    </comp>
    <comp name="--.HNN">
      <acc value="0.2202764901" flag="0"/>
      <vel value="0.0690475872" flag="0"/>
      <psa03 value="0.3766007089" flag="0"/>
      <psa10 value="0.0177781806" flag="0"/>
      <psa30 value="0.0019559204" flag="0"/>
    </comp>
    <comp name="--.HNZ">
      <acc value="0.1263874725" flag="0"/>
      <vel value="0.0355306259" flag="0"/>
      <psa03 value="0.1456994754" flag="0"/>
      <psa10 value="0.0103251248" flag="0"/>
      <psa30 value="0.0016665136" flag="0"/>
    </comp>
  </station>
  <station code="BALB" name="BALB" netid="KO" insttype="CMG-5T" commtype="DIG" lat="39.6507" lon="27.8642">
    <comp name="--.HNE">
      <acc value="0.0474640694" flag="0"/>
      <vel value="0.0171200154" flag="0"/>
      <psa03 value="0.0722815051" flag="0"/>
      <psa10 value="0.0256176119" flag="0"/>
      <psa30 value="0.0014116520" flag="0"/>
    </comp>
    <comp name="--.HNZ">
      <acc value="0.0294811699" flag="0"/>
      <vel value="0.0089494338" flag="0"/>
      <psa03 value="0.0360677243" flag="0"/>
      <psa10 value="0.0109528176" flag="0"/>
      <psa30 value="0.0010056018" flag="0"/>
    </comp>
    <comp name="--.HNN">
      <acc value="0.0563885140" flag="0"/>
      <vel value="0.0245821514" flag="0"/>
      <psa03 value="0.0990063395" flag="0"/>
      <psa10 value="0.0292674166" flag="0"/>
      <psa30 value="0.0021007620" flag="0"/>
    </comp>
  </station>
  <station code="DKL" name="DKL" netid="KO" insttype="CMG-3ESPC" commtype="DIG" lat="39.0713" lon="26.9053">
    <comp name="--.HHE">
      <acc value="0.0107879419" flag="0"/>
      <vel value="0.0063267022" flag="0"/>
      <psa03 value="0.0204617336" flag="0"/>
      <psa10 value="0.0100007936" flag="0"/>
      <psa30 value="0.0006110841" flag="0"/>
    </comp>
    <comp name="--.HHN">
      <acc value="0.0163192230" flag="0"/>
      <vel value="0.0111245830" flag="0"/>
      <psa03 value="0.0257824934" flag="0"/>
      <psa10 value="0.0130342239" flag="0"/>
      <psa30 value="0.0012284047" flag="0"/>
    </comp>
    <comp name="--.HHZ">
      <acc value="0.0092026053" flag="0"/>
      <vel value="0.0060579579" flag="0"/>
      <psa03 value="0.0186284921" flag="0"/>
      <psa10 value="0.0062261923" flag="0"/>
      <psa30 value="0.0005808250" flag="0"/>
    </comp>
  </station>
  <station code="DST" name="DST" netid="KO" insttype="CMG-5T" commtype="DIG" lat="39.6041" lon="28.6267">
    <comp name="--.HNE">
      <acc value="0.0589460591" flag="0"/>
      <vel value="0.0251508367" flag="0"/>
      <psa03 value="0.1371092497" flag="0"/>
      <psa10 value="0.0200002832" flag="0"/>
      <psa30 value="0.0012692707" flag="0"/>
    </comp>
    <comp name="--.HNN">
      <acc value="0.1008092373" flag="0"/>
      <vel value="0.0390340998" flag="0"/>
      <psa03 value="0.1691241491" flag="0"/>
      <psa10 value="0.0258708165" flag="0"/>
      <psa30 value="0.0022481676" flag="0"/>
    </comp>
    <comp name="--.HNZ">
      <acc value="0.0623767807" flag="0"/>
      <vel value="0.0336683799" flag="0"/>
      <psa03 value="0.1193027605" flag="0"/>
      <psa10 value="0.0112811295" flag="0"/>
      <psa30 value="0.0011201644" flag="0"/>
    </comp>
  </station>
  <station code="GOMA" name="GOMA" netid="KO" insttype="CMG-5T" commtype="DIG" lat="38.7077" lon="27.9175">
    <comp name="--.HNE">
      <acc value="0.2846235493" flag="0"/>
      <vel value="0.1154954894" flag="0"/>
      <psa03 value="0.6749631732" flag="0"/>
      <psa10 value="0.0404514828" flag="0"/>
      <psa30 value="0.0035637765" flag="0"/>
    </comp>
    <comp name="--.HNN">
      <acc value="0.2420153990" flag="0"/>
      <vel value="0.0982323690" flag="0"/>
      <psa03 value="1.0057006226" flag="0"/>
      <psa10 value="0.0218460842" flag="0"/>
      <psa30 value="0.0026900394" flag="0"/>
    </comp>
  </station>
  <station code="GONE" name="GONE" netid="KO" insttype="CMG-5T" commtype="DIG" lat="40.0466" lon="27.686">
    <comp name="--.HNZ">
      <acc value="0.0178566518" flag="0"/>
      <vel value="0.0054660741" flag="0"/>
      <psa03 value="0.0206454370" flag="0"/>
      <psa10 value="0.0064109325" flag="0"/>
      <psa30 value="0.0005094459" flag="0"/>
    </comp>
    <comp name="--.HNE">
      <acc value="0.0285869642" flag="0"/>
      <vel value="0.0161798866" flag="0"/>
      <psa03 value="0.0755383246" flag="0"/>
      <psa10 value="0.0161027453" flag="0"/>
      <psa30 value="0.0008561760" flag="0"/>
    </comp>
    <comp name="--.HNN">
      <acc value="0.0622120757" flag="0"/>
      <vel value="0.0244113370" flag="0"/>
      <psa03 value="0.1213381478" flag="0"/>
      <psa10 value="0.0169269899" flag="0"/>
      <psa30 value="0.0011234778" flag="0"/>
    </comp>
  </station>
  <station code="GORD" name="GORD" netid="KO" insttype="CMG-5T" commtype="DIG" lat="38.9088" lon="28.1769">
    <comp name="--.HNN">
      <acc value="0.1916333855" flag="0"/>
      <vel value="0.0883585183" flag="0"/>
      <psa03 value="0.3568631104" flag="0"/>
      <psa10 value="0.0694427451" flag="0"/>
      <psa30 value="0.0041600544" flag="0"/>
    </comp>
    <comp name="--.HNE">
      <acc value="0.1593673891" flag="0"/>
      <vel value="0.0680422639" flag="0"/>
      <psa03 value="0.2330928030" flag="0"/>
      <psa10 value="0.0611833371" flag="0"/>
      <psa30 value="0.0037133114" flag="0"/>
    </comp>
    <comp name="--.HNZ">
      <acc value="0.1559271778" flag="0"/>
      <vel value="0.0586037080" flag="0"/>
      <psa03 value="0.2189252560" flag="0"/>
      <psa10 value="0.0518644234" flag="0"/>
      <psa30 value="0.0060714831" flag="0"/>
    </comp>
  </station>
  <station code="KCTX" name="KCTX" netid="KO" insttype="CMG-3ESP" commtype="DIG" lat="40.2626" lon="28.3353">
    <comp name="--.HHE">
      <acc value="0.0227218041" flag="0"/>
      <vel value="0.0116594634" flag="0"/>
      <psa03 value="0.0589869289" flag="0"/>
      <psa10 value="0.0135505800" flag="0"/>
      <psa30 value="0.0009042570" flag="0"/>
    </comp>
    <comp name="--.HHN">
      <acc value="0.0389732206" flag="0"/>
      <vel value="0.0203103215" flag="0"/>
      <psa03 value="0.0975199928" flag="0"/>
      <psa10 value="0.0162102345" flag="0"/>
      <psa30 value="0.0007209624" flag="0"/>
    </comp>
    <comp name="--.HHZ">
      <acc value="0.0282062850" flag="0"/>
      <vel value="0.0147940631" flag="0"/>
      <psa03 value="0.0509047550" flag="0"/>
      <psa10 value="0.0073401670" flag="0"/>
      <psa30 value="0.0006131376" flag="0"/>
    </comp>
  </station>
  <station code="ORLT" name="ORLT" netid="KO" insttype="CMG-5T" commtype="DIG" lat="40.0452" lon="28.8914">
    <comp name="--.HNE">
      <acc value="0.0894456742" flag="0"/>
      <vel value="0.0397113478" flag="0"/>
      <psa03 value="0.2686860644" flag="0"/>
      <psa10 value="0.0380394797" flag="0"/>
      <psa30 value="0.0016760383" flag="0"/>
    </comp>
    <comp name="--.HNN">
      <acc value="0.0910029352" flag="0"/>
      <vel value="0.0576659749" flag="0"/>
      <psa03 value="0.4744394577" flag="0"/>
      <psa10 value="0.0635175862" flag="0"/>
      <psa30 value="0.0023930034" flag="0"/>
    </comp>
    <comp name="--.HNZ">
      <acc value="0.0303632725" flag="0"/>
      <vel value="0.0216235650" flag="0"/>
      <psa03 value="0.0911433379" flag="0"/>
      <psa10 value="0.0338373234" flag="0"/>
      <psa30 value="0.0014675473" flag="0"/>
    </comp>
  </station>
  <station code="SHAP" name="SHAP" netid="KO" insttype="CMG-5T" commtype="DIG" lat="39.0231" lon="29.222">
    <comp name="--.HNN">
      <acc value="0.1649995601" flag="0"/>
      <vel value="0.0548068333" flag="0"/>
      <psa03 value="0.3526616649" flag="0"/>
      <psa10 value="0.0185517317" flag="0"/>
      <psa30 value="0.0013686610" flag="0"/>
    </comp>
    <comp name="--.HNE">
      <acc value="0.1842055488" flag="0"/>
      <vel value="0.0579697662" flag="0"/>
      <psa03 value="0.4308123253" flag="0"/>
      <psa10 value="0.0196967724" flag="0"/>
      <psa30 value="0.0016163970" flag="0"/>
    </comp>
    <comp name="--.HNZ">
      <acc value="0.0977026740" flag="0"/>
      <vel value="0.0182472508" flag="0"/>
      <psa03 value="0.0970781394" flag="0"/>
      <psa10 value="0.0113841886" flag="0"/>
      <psa30 value="0.0006601434" flag="0"/>
    </comp>
  </station>
  <station code="SIMA" name="SIMA" netid="KO" insttype="CMG-6T" commtype="DIG" lat="39.0833" lon="28.9825">
    <comp name="--.HHE">
      <acc value="0.1555170121" flag="0"/>
      <vel value="0.0346977741" flag="0"/>
      <psa03 value="0.1871312628" flag="0"/>
      <psa10 value="0.0108701161" flag="0"/>
      <psa30 value="0.0009204779" flag="0"/>
    </comp>
    <comp name="--.HHN">
      <acc value="0.1276528520" flag="0"/>
      <vel value="0.0468660275" flag="0"/>
      <psa03 value="0.3016693329" flag="0"/>
      <psa10 value="0.0128703038" flag="0"/>
      <psa30 value="0.0016019716" flag="0"/>
    </comp>
    <comp name="--.HHZ">
      <acc value="0.0755142369" flag="0"/>
      <vel value="0.0172102645" flag="0"/>
      <psa03 value="0.0894905017" flag="0"/>
      <psa10 value="0.0086630570" flag="0"/>
      <psa30 value="0.0006839060" flag="0"/>
    </comp>
  </station>
  <station code="SMAA" name="SMAA" netid="KO" insttype="CMG-5T" commtype="DIG" lat="39.1005" lon="28.9805">
    <comp name="--.HNE">
      <acc value="0.1721575704" flag="0"/>
      <vel value="0.0913769111" flag="0"/>
      <psa03 value="0.3517199337" flag="0"/>
      <psa10 value="0.0489585532" flag="0"/>
      <psa30 value="0.0042283694" flag="0"/>
    </comp>
    <comp name="--.HNZ">
      <acc value="0.0634366985" flag="0"/>
      <vel value="0.0271594301" flag="0"/>
      <psa03 value="0.0693082012" flag="0"/>
      <psa10 value="0.0587085929" flag="0"/>
      <psa30 value="0.0022733323" flag="0"/>
    </comp>
    <comp name="--.HNN">
      <acc value="0.1876495220" flag="0"/>
      <vel value="0.0634864324" flag="0"/>
      <psa03 value="0.3972942732" flag="0"/>
      <psa10 value="0.0618370203" flag="0"/>
      <psa30 value="0.0031145218" flag="0"/>
    </comp>
  </station>
  <station code="SOMA" name="SOMA" netid="KO" insttype="CMG-5T" commtype="DIG" lat="39.1564" lon="27.5341">
    <comp name="--.HNZ">
      <acc value="0.0622603053" flag="0"/>
      <vel value="0.0191045965" flag="0"/>
      <psa03 value="0.0529568157" flag="0"/>
      <psa10 value="0.0153070897" flag="0"/>
      <psa30 value="0.0009940852" flag="0"/>
    </comp>
    <comp name="--.HNN">
      <acc value="0.0669687055" flag="0"/>
      <vel value="0.0253921357" flag="0"/>
      <psa03 value="0.1722931464" flag="0"/>
      <psa10 value="0.0238768251" flag="0"/>
      <psa30 value="0.0011284637" flag="0"/>
    </comp>
    <comp name="--.HNE">
      <acc value="0.0866425067" flag="0"/>
      <vel value="0.0280673599" flag="0"/>
      <psa03 value="0.0857638925" flag="0"/>
      <psa10 value="0.0212911093" flag="0"/>
      <psa30 value="0.0012107789" flag="0"/>
    </comp>
  </station>
  <station code="SUSR" name="SUSR" netid="KO" insttype="CMG-5T" commtype="DIG" lat="39.9627" lon="28.0835">
    <comp name="--.HNN">
      <acc value="0.0346883687" flag="0"/>
      <vel value="0.0112350114" flag="0"/>
      <psa03 value="0.0578557267" flag="0"/>
      <psa10 value="0.0047472806" flag="0"/>
      <psa30 value="0.0007036116" flag="0"/>
    </comp>
    <comp name="--.HNZ">
      <acc value="0.0312389945" flag="0"/>
      <vel value="0.0107796637" flag="0"/>
      <psa03 value="0.0624994149" flag="0"/>
      <psa10 value="0.0073469510" flag="0"/>
      <psa30 value="0.0010772596" flag="0"/>
    </comp>
    <comp name="--.HNE">
      <acc value="0.0471311111" flag="0"/>
      <vel value="0.0121737486" flag="0"/>
      <psa03 value="0.0693053462" flag="0"/>
      <psa10 value="0.0066960767" flag="0"/>
      <psa30 value="0.0007910559" flag="0"/>
    </comp>
  </station>
  <station code="TVSB" name="TVSB" netid="KO" insttype="CMG-3T" commtype="DIG" lat="39.4497" lon="29.4615">
    <comp name="--.HHE">
      <acc value="0.0699979337" flag="0"/>
      <vel value="0.0383450390" flag="0"/>
      <psa03 value="0.1873985246" flag="0"/>
      <psa10 value="0.0164514814" flag="0"/>
      <psa30 value="0.0011723878" flag="0"/>
    </comp>
    <comp name="--.HHN">
      <acc value="0.0588117317" flag="0"/>
      <vel value="0.0358255490" flag="0"/>
      <psa03 value="0.1622684734" flag="0"/>
      <psa10 value="0.0145897286" flag="0"/>
      <psa30 value="0.0010051077" flag="0"/>
    </comp>
    <comp name="--.HHZ">
      <acc value="0.0283206271" flag="0"/>
      <vel value="0.0152908397" flag="0"/>
      <psa03 value="0.0860758262" flag="0"/>
      <psa10 value="0.0081514212" flag="0"/>
      <psa30 value="0.0007132133" flag="0"/>
    </comp>
  </station>
  <station code="YAYO" name="YAYO" netid="KO" insttype="CMG-6T" commtype="DIG" lat="39.6113" lon="27.0726">
    <comp name="--.HHE">
      <acc value="0.0341950974" flag="0"/>
      <vel value="0.0256876797" flag="0"/>
      <psa03 value="0.0801499235" flag="0"/>
      <psa10 value="0.0163983543" flag="0"/>
      <psa30 value="0.0013625663" flag="0"/>
    </comp>
    <comp name="--.HHN">
      <acc value="0.0245910091" flag="0"/>
      <vel value="0.0147614787" flag="0"/>
      <psa03 value="0.0746468168" flag="0"/>
      <psa10 value="0.0131461866" flag="0"/>
      <psa30 value="0.0008112480" flag="0"/>
    </comp>
    <comp name="--.HHZ">
      <acc value="0.0185489506" flag="0"/>
      <vel value="0.0117265111" flag="0"/>
      <psa03 value="0.0644423088" flag="0"/>
      <psa10 value="0.0066848915" flag="0"/>
      <psa30 value="0.0005253328" flag="0"/>
    </comp>
  </station>
  <station code="YENI" name="YENI" netid="KO" insttype="CMG-5T" commtype="DIG" lat="39.9364" lon="27.2422">
    <comp name="--.HNE">
      <acc value="0.0475883250" flag="0"/>
      <vel value="0.0322730517" flag="0"/>
      <psa03 value="0.0642183112" flag="0"/>
      <psa10 value="0.0303739871" flag="0"/>
      <psa30 value="0.0016928480" flag="0"/>
    </comp>
    <comp name="--.HNN">
      <acc value="0.0327802449" flag="0"/>
      <vel value="0.0146199251" flag="0"/>
      <psa03 value="0.0444443415" flag="0"/>
      <psa10 value="0.0140917744" flag="0"/>
      <psa30 value="0.0008106334" flag="0"/>
    </comp>
    <comp name="--.HNZ">
      <acc value="0.0111951722" flag="0"/>
      <vel value="0.0075692537" flag="0"/>
      <psa03 value="0.0291150380" flag="0"/>
      <psa10 value="0.0074198252" flag="0"/>
      <psa30 value="0.0007296763" flag="0"/>
    </comp>
  </station>
</stationlist>
