<?xml version="1.0" encoding="UTF-8" standalone="yes"?>
<!DOCTYPE earthquake SYSTEM "stationlist.dtd">
<stationlist created="" xmlns="ch.ethz.sed.shakemap.usgs.xml">
  <station code="ARGN" name="ARGN" netid="KO" insttype="CMG-6T" commtype="DIG" lat="38.7763" lon="38.2639">
    <comp name="--.HHZ">
      <acc value="0.1820695560" flag="0"/>
      <vel value="0.0291703409" flag="0"/>
      <psa03 value="0.0752801681" flag="0"/>
      <psa10 value="0.0161635805" flag="0"/>
      <psa30 value="0.0006216693" flag="0"/>
    </comp>
    <comp name="--.HHE">
      <acc value="0.3291648207" flag="0"/>
      <vel value="0.0591203200" flag="0"/>
      <psa03 value="0.1814845163" flag="0"/>
      <psa10 value="0.0143505358" flag="0"/>
      <psa30 value="0.0008819285" flag="0"/>
    </comp>
    <comp name="--.HHN">
      <acc value="0.2166153884" flag="0"/>
      <vel value="0.0470383831" flag="0"/>
      <psa03 value="0.0796820500" flag="0"/>
      <psa10 value="0.0135393687" flag="0"/>
      <psa30 value="0.0007017297" flag="0"/>
    </comp>
  </station>
  <station code="ARPRA" name="ARPRA" netid="KO" insttype="CMG-5T" commtype="DIG" lat="39.0929" lon="38.3356">
    <comp name="--.HNE">
      <acc value="0.0571195291" flag="0"/>
      <vel value="0.0248416223" flag="0"/>
      <psa03 value="0.0885966128" flag="0"/>
      <psa10 value="0.0354284202" flag="0"/>
      <psa30 value="0.0024471015" flag="0"/>
    </comp>
    <comp name="--.HNZ">
      <acc value="0.0311265733" flag="0"/>
      <vel value="0.0139341212" flag="0"/>
      <psa03 value="0.0352035837" flag="0"/>
      <psa10 value="0.0263752298" flag="0"/>
      <psa30 value="0.0010863418" flag="0"/>
    </comp>
    <comp name="--.HNN">
      <acc value="0.0389992473" flag="0"/>
      <vel value="0.0187366023" flag="0"/>
      <psa03 value="0.0820044543" flag="0"/>
      <psa10 value="0.0147464176" flag="0"/>
      <psa30 value="0.0011191836" flag="0"/>
    </comp>
  </station>
  <station code="DARE" name="DARE" netid="KO" insttype="CMG-3ESP" commtype="DIG" lat="38.5712" lon="37.4832">
    <comp name="--.HHZ">
      <acc value="0.0649624395" flag="0"/>
      <vel value="0.0230132540" flag="0"/>
      <psa03 value="0.1153247021" flag="0"/>
      <psa10 value="0.0127608954" flag="0"/>
      <psa30 value="0.0008442492" flag="0"/>
    </comp>
    <comp name="--.HHN">
      <acc value="0.0697752407" flag="0"/>
      <vel value="0.0315560524" flag="0"/>
      <psa03 value="0.1472580475" flag="0"/>
      <psa10 value="0.0200415144" flag="0"/>
      <psa30 value="0.0018047100" flag="0"/>
    </comp>
    <comp name="--.HHE">
      <acc value="0.0796942421" flag="0"/>
      <vel value="0.0308747448" flag="0"/>
      <psa03 value="0.1242114176" flag="0"/>
      <psa10 value="0.0162001333" flag="0"/>
      <psa30 value="0.0015597132" flag="0"/>
    </comp>
  </station>
  <station code="DIVR" name="DIVR" netid="KO" insttype="CMG-6T" commtype="DIG" lat="39.3562" lon="38.1237">
    <comp name="--.HHZ">
      <acc value="0.0211335790" flag="0"/>
      <vel value="0.0050257492" flag="0"/>
      <psa03 value="0.0303112200" flag="0"/>
      <psa10 value="0.0030585586" flag="0"/>
      <psa30 value="0.0002077384" flag="0"/>
    </comp>
    <comp name="--.HHE">
      <acc value="0.0206562633" flag="0"/>
      <vel value="0.0054235380" flag="0"/>
      <psa03 value="0.0154019848" flag="0"/>
      <psa10 value="0.0049631672" flag="0"/>
      <psa30 value="0.0004837775" flag="0"/>
    </comp>
    <comp name="--.HHN">
      <acc value="0.0222612388" flag="0"/>
      <vel value="0.0065967213" flag="0"/>
      <psa03 value="0.0336558066" flag="0"/>
      <psa10 value="0.0027827287" flag="0"/>
      <psa30 value="0.0002391813" flag="0"/>
    </comp>
  </station>
  <station code="KBAN" name="KBAN" netid="KO" insttype="CMG-6T" commtype="DIG" lat="38.797" lon="38.7278">
    <comp name="--.HHN">
      <acc value="0.0242027851" flag="0"/>
      <vel value="0.0065621161" flag="0"/>
      <psa03 value="0.0304263144" flag="0"/>
      <psa10 value="0.0035923477" flag="0"/>
      <psa30 value="0.0002534451" flag="0"/>
    </comp>
    <comp name="--.HHE">
      <acc value="0.0305344074" flag="0"/>
      <vel value="0.0051907716" flag="0"/>
      <psa03 value="0.0335091359" flag="0"/>
      <psa10 value="0.0026138539" flag="0"/>
      <psa30 value="0.0002249302" flag="0"/>
    </comp>
    <comp name="--.HHZ">
      <acc value="0.0179625285" flag="0"/>
      <vel value="0.0054796622" flag="0"/>
      <psa03 value="0.0272006400" flag="0"/>
      <psa10 value="0.0030552038" flag="0"/>
      <psa30 value="0.0002166920" flag="0"/>
    </comp>
  </station>
  <station code="MLTY" name="MLTY" netid="KO" insttype="CMG-6T" commtype="DIG" lat="38.3223" lon="38.4407">
    <comp name="--.HHN">
      <acc value="0.0774807932" flag="0"/>
      <vel value="0.0222723126" flag="0"/>
      <psa03 value="0.1181222788" flag="0"/>
      <psa10 value="0.0125402238" flag="0"/>
      <psa30 value="0.0008542575" flag="0"/>
    </comp>
    <comp name="--.HHZ">
      <acc value="0.0589713920" flag="0"/>
      <vel value="0.0172600825" flag="0"/>
      <psa03 value="0.0748445116" flag="0"/>
      <psa10 value="0.0087267776" flag="0"/>
      <psa30 value="0.0006142369" flag="0"/>
    </comp>
    <comp name="--.HHE">
      <acc value="0.0495702176" flag="0"/>
      <vel value="0.0165544872" flag="0"/>
      <psa03 value="0.0503742173" flag="0"/>
      <psa10 value="0.0116068789" flag="0"/>
      <psa30 value="0.0005716828" flag="0"/>
    </comp>
  </station>
  <station code="NURH" name="NURH" netid="KO" insttype="CMG-6T" commtype="DIG" lat="37.9693" lon="37.4363">
    <comp name="--.HHN">
      <acc value="0.1087502913" flag="0"/>
      <vel value="0.0428411632" flag="0"/>
      <psa03 value="0.2734030016" flag="0"/>
      <psa10 value="0.0235076964" flag="0"/>
      <psa30 value="0.0011000985" flag="0"/>
    </comp>
    <comp name="--.HHE">
      <acc value="0.0857507588" flag="0"/>
      <vel value="0.0294817114" flag="0"/>
      <psa03 value="0.1008003811" flag="0"/>
      <psa10 value="0.0178079959" flag="0"/>
      <psa30 value="0.0011983638" flag="0"/>
    </comp>
    <comp name="--.HHZ">
      <acc value="0.0556625831" flag="0"/>
      <vel value="0.0169424517" flag="0"/>
      <psa03 value="0.1129343545" flag="0"/>
      <psa10 value="0.0098094176" flag="0"/>
      <psa30 value="0.0006854906" flag="0"/>
    </comp>
  </station>
</stationlist>
