<stationlist xmlns:esm="https://esm-db.eu/esmws/shakemap/1/" created="1784795000">
	<station code="ARPRA" name="ARPRA" netid="KO" source="Bogazici University Kandilli Observatory And Earthquake Research Institute (KOERI)" insttype="" lat="39.0929" lon="38.3356" esm:processing="automatic (Paolucci et al 2011)" esm:quality="best">
		<comp name="--.HNE" depth="0.0">
			<acc value="0.0568944140441487" flag="0"/>
			<vel value="0.0249362641813753" flag="0"/>
			<psa03 value="0.0906859033293656" flag="0"/>
			<psa10 value="0.0354015239272185" flag="0"/>
			<psa30 value="0.00242689993687688" flag="0"/>
		</comp>
		<comp name="--.HNN" depth="0.0">
			<acc value="0.0392160404164493" flag="0"/>
			<vel value="0.0189133572862072" flag="0"/>
			<psa03 value="0.0826623978531718" flag="0"/>
			<psa10 value="0.0147753722333967" flag="0"/>
			<psa30 value="0.00110825070783705" flag="0"/>
		</comp>
		<comp name="--.HNZ" depth="0.0">
			<acc value="0.0308472647776852" flag="0"/>
			<vel value="0.0139919842960788" flag="0"/>
			<psa03 value="0.036086718693009" flag="0"/>
			<psa10 value="0.0263850247533989" flag="0"/>
			<psa30 value="0.00109736123646301" flag="0"/>
		</comp>
	</station>
	<station code="TUNC" name="TUNC" netid="KO" source="Bogazici University Kandilli Observatory And Earthquake Research Institute (KOERI)" insttype="" lat="39.6942" lon="37.5388" esm:processing="automatic (Paolucci et al 2011)" esm:quality="good">
		<comp name="--.HNE" depth="0.0">
			<acc value="0.00720448674163627" flag="0"/>
			<vel value="0.00492214858090046" flag="0"/>
			<psa03 value="0.027120767971943" flag="0"/>
			<psa10 value="0.00481423423189082" flag="0"/>
			<psa30 value="0.000386685199330036" flag="0"/>
		</comp>
		<comp name="--.HNN" depth="0.0">
			<acc value="0.0091075673416711" flag="0"/>
			<vel value="0.00618050795756402" flag="0"/>
			<psa03 value="0.0234871210106648" flag="0"/>
			<psa10 value="0.00645903647321704" flag="0"/>
			<psa30 value="0.000390591473726544" flag="0"/>
		</comp>
		<comp name="--.HNZ" depth="0.0">
			<acc value="0.00610005809351655" flag="0"/>
			<vel value="0.00445565055683869" flag="0"/>
			<psa03 value="0.0119561800590844" flag="0"/>
			<psa10 value="0.0054943928828134" flag="0"/>
			<psa30 value="0.000454129042153626" flag="0"/>
		</comp>
	</station>
	<station code="KHMN" name="KHMN" netid="KO" source="Bogazici University Kandilli Observatory And Earthquake Research Institute (KOERI)" insttype="" lat="37.3916" lon="37.1574" esm:processing="automatic (Paolucci et al 2011)" esm:quality="bad">
		<comp name="--.HNE" depth="0.0">
			<acc value="0" flag="1"/>
			<vel value="0" flag="1"/>
			<psa03 value="0" flag="1"/>
			<psa10 value="0" flag="1"/>
			<psa30 value="0" flag="1"/>
		</comp>
		<comp name="--.HNN" depth="0.0">
			<acc value="0" flag="1"/>
			<vel value="0" flag="1"/>
			<psa03 value="0" flag="1"/>
			<psa10 value="0" flag="1"/>
			<psa30 value="0" flag="1"/>
		</comp>
		<comp name="--.HNZ" depth="0.0">
			<acc value="0" flag="1"/>
			<vel value="0" flag="1"/>
			<psa03 value="0" flag="1"/>
			<psa10 value="0" flag="1"/>
			<psa30 value="0" flag="1"/>
		</comp>
	</station>
</stationlist>
