<?xml version="1.0" encoding="UTF-8" standalone="yes"?>
<!DOCTYPE earthquake SYSTEM "stationlist.dtd">
<stationlist created="" xmlns="ch.ethz.sed.shakemap.usgs.xml">
  <station code="PLN1" name="PLN1" netid="HI" insttype="CMG-5TD,ACCELEROMETER,GURALP" commtype="DIG" lat="39.998" lon="23.575">
    <comp name="--.HNZ">
      <acc value="0.0920426542" flag="0"/>
      <vel value="0.0219008018" flag="0"/>
      <psa03 value="0.0665400151" flag="0"/>
      <psa10 value="0.0044562012" flag="0"/>
      <psa30 value="0.0005366591" flag="0"/>
    </comp>
    <comp name="--.HNN">
      <acc value="0.0614498682" flag="0"/>
      <vel value="0.0253626606" flag="0"/>
      <psa03 value="0.1561609602" flag="0"/>
      <psa10 value="0.0238275500" flag="0"/>
      <psa30 value="0.0014258673" flag="0"/>
    </comp>
    <comp name="--.HNE">
      <acc value="0.0461369990" flag="0"/>
      <vel value="0.0222243613" flag="0"/>
      <psa03 value="0.1176404698" flag="0"/>
      <psa10 value="0.0159743648" flag="0"/>
      <psa30 value="0.0018870100" flag="0"/>
    </comp>
  </station>
  <station code="LIA" name="LIA" netid="HL" insttype="60s" commtype="DIG" lat="39.8972" lon="25.1806">
    <comp name="--.HHE">
      <acc value="0.0240391202" flag="0"/>
      <vel value="0.0067162161" flag="0"/>
      <psa03 value="0.0384270082" flag="0"/>
      <psa10 value="0.0041014138" flag="0"/>
      <psa30 value="0.0002478132" flag="0"/>
    </comp>
    <comp name="--.HHN">
      <acc value="0.0273568231" flag="0"/>
      <vel value="0.0117987187" flag="0"/>
      <psa03 value="0.0457792957" flag="0"/>
      <psa10 value="0.0036425356" flag="0"/>
      <psa30 value="0.0003319649" flag="0"/>
    </comp>
    <comp name="--.HHZ">
      <acc value="0.0306739282" flag="0"/>
      <vel value="0.0066284027" flag="0"/>
      <psa03 value="0.0227974567" flag="0"/>
      <psa10 value="0.0038464601" flag="0"/>
      <psa30 value="0.0003879822" flag="0"/>
    </comp>
  </station>
  <station code="PLG" name="PLG" netid="HL" insttype="120" commtype="DIG" lat="40.3733" lon="23.4444">
    <comp name="--.HHE">
      <acc value="0.1045998007" flag="0"/>
      <vel value="0.0239154695" flag="0"/>
      <psa03 value="0.1247195437" flag="0"/>
      <psa10 value="0.0060375223" flag="0"/>
      <psa30 value="0.0004542269" flag="0"/>
    </comp>
    <comp name="--.HHN">
      <acc value="0.0629719942" flag="0"/>
      <vel value="0.0198151789" flag="0"/>
      <psa03 value="0.0919349518" flag="0"/>
      <psa10 value="0.0047488148" flag="0"/>
      <psa30 value="0.0004496019" flag="0"/>
    </comp>
    <comp name="--.HHZ">
      <acc value="0.0521903828" flag="0"/>
      <vel value="0.0195927026" flag="0"/>
      <psa03 value="0.1243254265" flag="0"/>
      <psa10 value="0.0065740226" flag="0"/>
      <psa30 value="0.0005115934" flag="0"/>
    </comp>
  </station>
</stationlist>
