<stationlist created="1685107848">
	<station code="ARPRA" name="ARPRA" netid="KO" source="Bogazici University Kandilli Observatory And Earthquake Research Institute (KOERI)" insttype="" lat="39.0929" lon="38.3356">
		<comp name=".HNE" depth="0.0">
			<acc value="0.0331362581677" flag="0"/>
			<vel value="0.0219048070118" flag="0"/>
			<psa03 value="0.0844686893861" flag="0"/>
			<psa10 value="0.0137406833779" flag="0"/>
			<psa30 value="0.0013386093013" flag="0"/>
		</comp>
		<comp name=".HNN" depth="0.0">
			<acc value="0.0207113092893" flag="0"/>
			<vel value="0.0118127679037" flag="0"/>
			<psa03 value="0.0841318337379" flag="0"/>
			<psa10 value="0.0140117757114" flag="0"/>
			<psa30 value="0.000637985492574" flag="0"/>
		</comp>
		<comp name=".HNZ" depth="0.0">
			<acc value="0.0114295129017" flag="0"/>
			<vel value="0.00625709885209" flag="0"/>
			<psa03 value="0.031662899595" flag="0"/>
			<psa10 value="0.00454429931877" flag="0"/>
			<psa30 value="0.000408628215447" flag="0"/>
		</comp>
	</station>
</stationlist>
