<?xml version="1.0" encoding="UTF-8" standalone="yes"?>
<!DOCTYPE earthquake SYSTEM "stationlist.dtd">
<stationlist created="" xmlns="ch.ethz.sed.shakemap.usgs.xml">
  <station code="ARPRA" name="ARPRA" netid="KO" insttype="CMG-5T" lat="39.0929" lon="38.3356">
    <comp name="--.HNN">
      <acc value="0.0207028602" flag="0"/>
      <vel value="0.0118122503" flag="0"/>
      <psa03 value="0.0832704587" flag="0"/>
      <psa10 value="0.0140268590" flag="0"/>
      <psa30 value="0.0006515224" flag="0"/>
    </comp>
    <comp name="--.HNE">
      <acc value="0.0333138467" flag="0"/>
      <vel value="0.0218306198" flag="0"/>
      <psa03 value="0.0835913967" flag="0"/>
      <psa10 value="0.0137872278" flag="0"/>
      <psa30 value="0.0013677408" flag="0"/>
    </comp>
    <comp name="--.HNZ">
      <acc value="0.0114671460" flag="0"/>
      <vel value="0.0062810691" flag="0"/>
      <psa03 value="0.0315503802" flag="0"/>
      <psa10 value="0.0045420255" flag="0"/>
      <psa30 value="0.0004296080" flag="0"/>
    </comp>
  </station>
  <station code="DARE" name="DARE" netid="KO" insttype="CMG-3ESP" lat="38.5712" lon="37.4832">
    <comp name="--.HHE">
      <acc value="0.0021961514" flag="0"/>
      <vel value="0.0016136051" flag="0"/>
      <psa03 value="0.0050569991" flag="0"/>
      <psa10 value="0.0030149080" flag="0"/>
      <psa30 value="0.0002023445" flag="0"/>
    </comp>
    <comp name="--.HHN">
      <acc value="0.0024181812" flag="0"/>
      <vel value="0.0016921793" flag="0"/>
      <psa03 value="0.0062530503" flag="0"/>
      <psa10 value="0.0019759451" flag="0"/>
      <psa30 value="0.0001993291" flag="0"/>
    </comp>
    <comp name="--.HHZ">
      <acc value="0.0018616797" flag="0"/>
      <vel value="0.0011888707" flag="0"/>
      <psa03 value="0.0057017060" flag="0"/>
      <psa10 value="0.0018313916" flag="0"/>
      <psa30 value="0.0002042659" flag="0"/>
    </comp>
  </station>
  <station code="SVRC" name="SVRC" netid="KO" insttype="CMG-3T" lat="38.3775" lon="39.306">
    <comp name="--.HHE">
      <acc value="0.0302491280" flag="0"/>
      <vel value="0.0118231042" flag="0"/>
      <psa03 value="0.0958170860" flag="0"/>
      <psa10 value="0.0099540328" flag="0"/>
      <psa30 value="0.0013900610" flag="0"/>
    </comp>
    <comp name="--.HHZ">
      <acc value="0.0189200063" flag="0"/>
      <vel value="0.0070069116" flag="0"/>
      <psa03 value="0.0341007676" flag="0"/>
      <psa10 value="0.0061836841" flag="0"/>
      <psa30 value="0.0008875360" flag="0"/>
    </comp>
  </station>
  <station code="URFA" name="URFA" netid="KO" insttype="CMG-3ESP" lat="37.4409" lon="38.8213">
    <comp name="--.HHE">
      <acc value="0.0818749147" flag="0"/>
      <vel value="0.0235576768" flag="0"/>
      <psa03 value="0.0906870858" flag="0"/>
      <psa10 value="0.0101589302" flag="0"/>
      <psa30 value="0.0014881403" flag="0"/>
    </comp>
    <comp name="--.HHN">
      <acc value="0.0543476076" flag="0"/>
      <vel value="0.0148670378" flag="0"/>
      <psa03 value="0.0846543852" flag="0"/>
      <psa10 value="0.0064479397" flag="0"/>
      <psa30 value="0.0006532777" flag="0"/>
    </comp>
  </station>
</stationlist>
