<?xml version="1.0" encoding="UTF-8" standalone="yes"?>
<!DOCTYPE earthquake SYSTEM "stationlist.dtd">
<stationlist created="" xmlns="ch.ethz.sed.shakemap.usgs.xml">
  <station code="APE" name="APE" netid="GE" insttype="STS-2/N" lat="37.0727" lon="25.523">
    <comp name="--.HHZ">
      <acc value="0.0638737731" flag="0"/>
      <vel value="0.0112546625" flag="0"/>
      <psa03 value="0.0545892334" flag="0"/>
      <psa10 value="0.0036824791" flag="0"/>
      <psa30 value="0.0025767710" flag="0"/>
    </comp>
    <comp name="--.HHE">
      <acc value="0.1706268403" flag="0"/>
      <vel value="0.0160789943" flag="0"/>
      <psa03 value="0.0618084418" flag="0"/>
      <psa10 value="0.0041476892" flag="0"/>
      <psa30 value="0.0024890558" flag="0"/>
    </comp>
    <comp name="--.HHN">
      <acc value="0.1791065468" flag="0"/>
      <vel value="0.0198451126" flag="0"/>
      <psa03 value="0.0590272407" flag="0"/>
      <psa10 value="0.0031822949" flag="0"/>
      <psa30 value="0.0027883254" flag="0"/>
    </comp>
  </station>
  <station code="THERA" name="THERA" netid="GE" insttype="STS-2/N" lat="36.367" lon="25.4753">
    <comp name="--.HHN">
      <acc value="0.0606457562" flag="0"/>
      <vel value="0.0148306066" flag="0"/>
      <psa03 value="0.0582491727" flag="0"/>
      <psa10 value="0.0114822356" flag="0"/>
      <psa30 value="0.0007980546" flag="0"/>
    </comp>
    <comp name="--.HHZ">
      <acc value="0.0957436674" flag="0"/>
      <vel value="0.0195173848" flag="0"/>
      <psa03 value="0.0634492164" flag="0"/>
      <psa10 value="0.0080808932" flag="0"/>
      <psa30 value="0.0015503696" flag="0"/>
    </comp>
    <comp name="--.HHE">
      <acc value="0.1393933769" flag="0"/>
      <vel value="0.0201377019" flag="0"/>
      <psa03 value="0.0761015104" flag="0"/>
      <psa10 value="0.0122032241" flag="0"/>
      <psa30 value="0.0016933543" flag="0"/>
    </comp>
  </station>
  <station code="SNT1" name="SNT1" netid="HA" insttype="30" lat="36.4159" lon="25.4282">
    <comp name="--.HHN">
      <acc value="0.0751612687" flag="0"/>
      <vel value="0.0397918689" flag="0"/>
      <psa03 value="0.1518811252" flag="0"/>
      <psa10 value="0.0212664302" flag="0"/>
      <psa30 value="0.0029593544" flag="0"/>
    </comp>
    <comp name="--.HHE">
      <acc value="0.0878797024" flag="0"/>
      <vel value="0.0236830176" flag="0"/>
      <psa03 value="0.0838519489" flag="0"/>
      <psa10 value="0.0300024390" flag="0"/>
      <psa30 value="0.0029988110" flag="0"/>
    </comp>
    <comp name="--.HHZ">
      <acc value="0.0827264204" flag="0"/>
      <vel value="0.0162895490" flag="0"/>
      <psa03 value="0.0903181327" flag="0"/>
      <psa10 value="0.0248551082" flag="0"/>
      <psa30 value="0.0015698374" flag="0"/>
    </comp>
  </station>
  <station code="NAX1" name="NAX1" netid="HI" insttype="CMG-5TD,ACCELEROMETER,GURALP" lat="37.1014" lon="25.3741">
    <comp name="--.HNN">
      <acc value="0.0967167148" flag="0"/>
      <vel value="0.0119987536" flag="0"/>
      <psa03 value="0.0371903911" flag="0"/>
      <psa10 value="0.0043661718" flag="0"/>
      <psa30 value="0.0014115709" flag="0"/>
    </comp>
    <comp name="--.HNZ">
      <acc value="0.0736535941" flag="0"/>
      <vel value="0.0085937646" flag="0"/>
      <psa03 value="0.0455681677" flag="0"/>
      <psa10 value="0.0070459486" flag="0"/>
      <psa30 value="0.0019356001" flag="0"/>
    </comp>
    <comp name="--.HNE">
      <acc value="0.1048984229" flag="0"/>
      <vel value="0.0187403111" flag="0"/>
      <psa03 value="0.0509853325" flag="0"/>
      <psa10 value="0.0054483363" flag="0"/>
      <psa30 value="0.0009772219" flag="0"/>
    </comp>
  </station>
  <station code="APE" name="APE" netid="HL" insttype="120" lat="37.0727" lon="25.523">
    <comp name="--.HHE">
      <acc value="0.1407306219" flag="0"/>
      <vel value="0.0154135831" flag="0"/>
      <psa03 value="0.0601819326" flag="0"/>
      <psa10 value="0.0041285295" flag="0"/>
      <psa30 value="0.0024832889" flag="0"/>
    </comp>
    <comp name="--.HHN">
      <acc value="0.1565987470" flag="0"/>
      <vel value="0.0179085702" flag="0"/>
      <psa03 value="0.0576678668" flag="0"/>
      <psa10 value="0.0031418283" flag="0"/>
      <psa30 value="0.0027802980" flag="0"/>
    </comp>
    <comp name="--.HHZ">
      <acc value="0.0559240381" flag="0"/>
      <vel value="0.0107266059" flag="0"/>
      <psa03 value="0.0525013374" flag="0"/>
      <psa10 value="0.0036477087" flag="0"/>
      <psa30 value="0.0025743961" flag="0"/>
    </comp>
  </station>
  <station code="MHLO" name="MHLO" netid="HL" insttype="20" lat="36.6898" lon="24.4017">
    <comp name="--.HHN">
      <acc value="0.0719475340" flag="0"/>
      <vel value="0.0272687083" flag="0"/>
      <psa03 value="0.1672696161" flag="0"/>
      <psa10 value="0.0372662623" flag="0"/>
      <psa30 value="0.0021176878" flag="0"/>
    </comp>
    <comp name="--.HHE">
      <acc value="0.0765845841" flag="0"/>
      <vel value="0.0356938146" flag="0"/>
      <psa03 value="0.1376551483" flag="0"/>
      <psa10 value="0.0502247158" flag="0"/>
      <psa30 value="0.0037229450" flag="0"/>
    </comp>
    <comp name="--.HHZ">
      <acc value="0.0313171411" flag="0"/>
      <vel value="0.0195590683" flag="0"/>
      <psa03 value="0.0678971951" flag="0"/>
      <psa10 value="0.0299778980" flag="0"/>
      <psa30 value="0.0021690487" flag="0"/>
    </comp>
  </station>
  <station code="SAP3" name="SAP3" netid="HL" insttype="LE3D20_SMART24" lat="36.4356" lon="25.3454">
    <comp name="--.HHE">
      <acc value="0.3610581932" flag="0"/>
      <vel value="0.1233609209" flag="0"/>
      <psa03 value="0.5033390517" flag="0"/>
      <psa10 value="0.1063293505" flag="0"/>
      <psa30 value="0.0158148508" flag="0"/>
    </comp>
    <comp name="--.HHZ">
      <acc value="0.3831829713" flag="0"/>
      <vel value="0.0787582933" flag="0"/>
      <psa03 value="0.3903312343" flag="0"/>
      <psa10 value="0.0470094163" flag="0"/>
      <psa30 value="0.0083797044" flag="0"/>
    </comp>
  </station>
  <station code="THERA" name="THERA" netid="HL" insttype="120" lat="36.367" lon="25.4753">
    <comp name="--.HHN">
      <acc value="0.0597079564" flag="0"/>
      <vel value="0.0143509162" flag="0"/>
      <psa03 value="0.0565280272" flag="0"/>
      <psa10 value="0.0113924560" flag="0"/>
      <psa30 value="0.0007975612" flag="0"/>
    </comp>
    <comp name="--.HHZ">
      <acc value="0.0980187048" flag="0"/>
      <vel value="0.0189902557" flag="0"/>
      <psa03 value="0.0614540583" flag="0"/>
      <psa10 value="0.0080295027" flag="0"/>
      <psa30 value="0.0015504272" flag="0"/>
    </comp>
  </station>
  <station code="THRA" name="THRA" netid="HL" insttype="CMG-5" lat="36.415" lon="25.4324">
    <comp name="00.HNN">
      <acc value="0.2348737891" flag="0"/>
      <vel value="0.0832919144" flag="0"/>
      <psa03 value="0.4046764771" flag="0"/>
      <psa10 value="0.0917760176" flag="0"/>
      <psa30 value="0.0046562465" flag="0"/>
    </comp>
    <comp name="00.HNE">
      <acc value="0.2432097899" flag="0"/>
      <vel value="0.0824100850" flag="0"/>
      <psa03 value="0.4408025675" flag="0"/>
      <psa10 value="0.0774307571" flag="0"/>
      <psa30 value="0.0062414804" flag="0"/>
    </comp>
    <comp name="00.HNZ">
      <acc value="0.2004191291" flag="0"/>
      <vel value="0.0590261051" flag="0"/>
      <psa03 value="0.3194364058" flag="0"/>
      <psa10 value="0.0420896261" flag="0"/>
      <psa30 value="0.0029836547" flag="0"/>
    </comp>
  </station>
  <station code="TNSA" name="TNSA" netid="HL" insttype="CMG-5" lat="37.5394" lon="25.1631">
    <comp name="00.HNE">
      <acc value="0.0364457664" flag="0"/>
      <vel value="0.0079345589" flag="0"/>
      <psa03 value="0.0373050308" flag="0"/>
      <psa10 value="0.0033535433" flag="0"/>
      <psa30 value="0.0005868966" flag="0"/>
    </comp>
    <comp name="00.HNZ">
      <acc value="0.0283540589" flag="0"/>
      <vel value="0.0100775125" flag="0"/>
      <psa03 value="0.0493663003" flag="0"/>
      <psa10 value="0.0073444447" flag="0"/>
      <psa30 value="0.0010146559" flag="0"/>
    </comp>
    <comp name="00.HNN">
      <acc value="0.0461458815" flag="0"/>
      <vel value="0.0114535115" flag="0"/>
      <psa03 value="0.0458193142" flag="0"/>
      <psa10 value="0.0034666198" flag="0"/>
      <psa30 value="0.0009094863" flag="0"/>
    </comp>
  </station>
  <station code="CMBO" name="CMBO" netid="HT" insttype="120P," lat="36.4709" lon="25.4056">
    <comp name="--.HHE">
      <acc value="0.5632353393" flag="0"/>
      <vel value="0.2149516365" flag="0"/>
      <psa03 value="0.9492211097" flag="0"/>
      <psa10 value="0.1711109845" flag="0"/>
      <psa30 value="0.0088012888" flag="0"/>
    </comp>
    <comp name="--.HHZ">
      <acc value="0.4934541062" flag="0"/>
      <vel value="0.1236737546" flag="0"/>
      <psa03 value="0.6172133837" flag="0"/>
      <psa10 value="0.0520145527" flag="0"/>
      <psa30 value="0.0052548291" flag="0"/>
    </comp>
  </station>
</stationlist>
