<?xml version="1.0" encoding="UTF-8" standalone="yes"?>
<!DOCTYPE earthquake SYSTEM "stationlist.dtd">
<stationlist created="" xmlns="ch.ethz.sed.shakemap.usgs.xml">
  <station code="APE" name="APE" netid="GE" insttype="STS-2/N" lat="37.0727" lon="25.523">
    <comp name="--.HHN">
      <acc value="0.1426650501" flag="0"/>
      <vel value="0.0279738659" flag="0"/>
      <psa03 value="0.1117078966" flag="0"/>
      <psa10 value="0.0039579646" flag="0"/>
      <psa30 value="0.0005235028" flag="0"/>
    </comp>
    <comp name="--.HHZ">
      <acc value="0.0710945134" flag="0"/>
      <vel value="0.0148585220" flag="0"/>
      <psa03 value="0.0498018911" flag="0"/>
      <psa10 value="0.0056756972" flag="0"/>
      <psa30 value="0.0005477650" flag="0"/>
    </comp>
    <comp name="--.HHE">
      <acc value="0.1210400820" flag="0"/>
      <vel value="0.0274453295" flag="0"/>
      <psa03 value="0.1068638581" flag="0"/>
      <psa10 value="0.0061041842" flag="0"/>
      <psa30 value="0.0005786453" flag="0"/>
    </comp>
  </station>
  <station code="THERA" name="THERA" netid="GE" insttype="STS-2/N" lat="36.367" lon="25.4753">
    <comp name="--.HHE">
      <acc value="0.1083148252" flag="0"/>
      <vel value="0.0309623842" flag="0"/>
      <psa03 value="0.1439704450" flag="0"/>
      <psa10 value="0.0149059133" flag="0"/>
      <psa30 value="0.0009377552" flag="0"/>
    </comp>
    <comp name="--.HHN">
      <acc value="0.0722087039" flag="0"/>
      <vel value="0.0199676483" flag="0"/>
      <psa03 value="0.0930649429" flag="0"/>
      <psa10 value="0.0058647902" flag="0"/>
      <psa30 value="0.0004027423" flag="0"/>
    </comp>
    <comp name="--.HHZ">
      <acc value="0.0756929883" flag="0"/>
      <vel value="0.0218770615" flag="0"/>
      <psa03 value="0.0850577945" flag="0"/>
      <psa10 value="0.0087665128" flag="0"/>
      <psa30 value="0.0009006794" flag="0"/>
    </comp>
  </station>
  <station code="SNT1" name="SNT1" netid="HA" insttype="30" lat="36.4159" lon="25.4282">
    <comp name="--.HHE">
      <acc value="0.1416880064" flag="0"/>
      <vel value="0.0688274755" flag="0"/>
      <psa03 value="0.2455823228" flag="0"/>
      <psa10 value="0.0276899484" flag="0"/>
      <psa30 value="0.0019463745" flag="0"/>
    </comp>
    <comp name="--.HHN">
      <acc value="0.1594500366" flag="0"/>
      <vel value="0.0631533136" flag="0"/>
      <psa03 value="0.3018186698" flag="0"/>
      <psa10 value="0.0266775418" flag="0"/>
      <psa30 value="0.0018942429" flag="0"/>
    </comp>
    <comp name="--.HHZ">
      <acc value="0.1040454360" flag="0"/>
      <vel value="0.0376408392" flag="0"/>
      <psa03 value="0.2384988162" flag="0"/>
      <psa10 value="0.0125471465" flag="0"/>
      <psa30 value="0.0012508771" flag="0"/>
    </comp>
  </station>
  <station code="NAX1" name="NAX1" netid="HI" insttype="CMG-5TD,ACCELEROMETER,GURALP" lat="37.1014" lon="25.3741">
    <comp name="--.HNE">
      <acc value="0.0685806680" flag="0"/>
      <vel value="0.0191261777" flag="0"/>
      <psa03 value="0.0925786813" flag="0"/>
      <psa10 value="0.0056157918" flag="0"/>
      <psa30 value="0.0005802350" flag="0"/>
    </comp>
    <comp name="--.HNN">
      <acc value="0.0564190428" flag="0"/>
      <vel value="0.0106602702" flag="0"/>
      <psa03 value="0.0682597448" flag="0"/>
      <psa10 value="0.0032547688" flag="0"/>
      <psa30 value="0.0002774734" flag="0"/>
    </comp>
    <comp name="--.HNZ">
      <acc value="0.0480710825" flag="0"/>
      <vel value="0.0100551831" flag="0"/>
      <psa03 value="0.0531381993" flag="0"/>
      <psa10 value="0.0053077591" flag="0"/>
      <psa30 value="0.0005098654" flag="0"/>
    </comp>
  </station>
  <station code="SFR2" name="SFR2" netid="HI" insttype="unknown" lat="36.3998" lon="25.4382">
    <comp name="--.HNE">
      <acc value="0.2858424729" flag="0"/>
      <vel value="0.1154161266" flag="0"/>
      <psa03 value="0.5517451591" flag="0"/>
      <psa10 value="0.0505368678" flag="0"/>
      <psa30 value="0.0029822448" flag="0"/>
    </comp>
    <comp name="--.HNZ">
      <acc value="0.2574129471" flag="0"/>
      <vel value="0.0794783292" flag="0"/>
      <psa03 value="0.3121742192" flag="0"/>
      <psa10 value="0.0303869020" flag="0"/>
      <psa30 value="0.0031177673" flag="0"/>
    </comp>
    <comp name="--.HNN">
      <acc value="0.3686312635" flag="0"/>
      <vel value="0.1332957575" flag="0"/>
      <psa03 value="0.7787747658" flag="0"/>
      <psa10 value="0.0625959890" flag="0"/>
      <psa30 value="0.0034819770" flag="0"/>
    </comp>
  </station>
  <station code="AMGA" name="AMGA" netid="HL" insttype="SMART24" lat="36.8316" lon="25.8938">
    <comp name="--.HHE">
      <acc value="0.4044939303" flag="0"/>
      <vel value="0.0792891217" flag="0"/>
      <psa03 value="0.2298343710" flag="0"/>
      <psa10 value="0.0169936062" flag="0"/>
      <psa30 value="0.0016361262" flag="0"/>
    </comp>
    <comp name="--.HHN">
      <acc value="0.3807177978" flag="0"/>
      <vel value="0.0919236051" flag="0"/>
      <psa03 value="0.2836473106" flag="0"/>
      <psa10 value="0.0183466159" flag="0"/>
      <psa30 value="0.0013719739" flag="0"/>
    </comp>
    <comp name="--.HHZ">
      <acc value="0.3110991829" flag="0"/>
      <vel value="0.0831228429" flag="0"/>
      <psa03 value="0.2871115959" flag="0"/>
      <psa10 value="0.0211640382" flag="0"/>
      <psa30 value="0.0017270424" flag="0"/>
    </comp>
  </station>
  <station code="APE" name="APE" netid="HL" insttype="120" lat="37.0727" lon="25.523">
    <comp name="--.HHN">
      <acc value="0.1323391665" flag="0"/>
      <vel value="0.0269888843" flag="0"/>
      <psa03 value="0.1086812149" flag="0"/>
      <psa10 value="0.0038718235" flag="0"/>
      <psa30 value="0.0005019207" flag="0"/>
    </comp>
    <comp name="--.HHE">
      <acc value="0.1140408552" flag="0"/>
      <vel value="0.0260730006" flag="0"/>
      <psa03 value="0.1041622282" flag="0"/>
      <psa10 value="0.0060454028" flag="0"/>
      <psa30 value="0.0005648587" flag="0"/>
    </comp>
    <comp name="--.HHZ">
      <acc value="0.0649479870" flag="0"/>
      <vel value="0.0141520970" flag="0"/>
      <psa03 value="0.0483841323" flag="0"/>
      <psa10 value="0.0055649897" flag="0"/>
      <psa30 value="0.0005359263" flag="0"/>
    </comp>
  </station>
  <station code="MILA" name="MILA" netid="HL" insttype="CMG-5" lat="36.7429" lon="24.4282">
    <comp name="00.HNN">
      <acc value="0.0866483939" flag="0"/>
      <vel value="0.0374952741" flag="0"/>
      <psa03 value="0.3367417361" flag="0"/>
      <psa10 value="0.0176718541" flag="0"/>
      <psa30 value="0.0015213550" flag="0"/>
    </comp>
    <comp name="00.HNZ">
      <acc value="0.0522190529" flag="0"/>
      <vel value="0.0175240628" flag="0"/>
      <psa03 value="0.1180315497" flag="0"/>
      <psa10 value="0.0090577095" flag="0"/>
      <psa30 value="0.0007089800" flag="0"/>
    </comp>
    <comp name="00.HNE">
      <acc value="0.0504155334" flag="0"/>
      <vel value="0.0245039934" flag="0"/>
      <psa03 value="0.1756844220" flag="0"/>
      <psa10 value="0.0108322020" flag="0"/>
      <psa30 value="0.0010809003" flag="0"/>
    </comp>
  </station>
  <station code="SANT" name="SANT" netid="HL" insttype="30" lat="36.3705" lon="25.4593">
    <comp name="--.HHE">
      <acc value="0.3725400221" flag="0"/>
      <vel value="0.0755635295" flag="0"/>
      <psa03 value="0.3544448225" flag="0"/>
      <psa10 value="0.0238767063" flag="0"/>
      <psa30 value="0.0021498201" flag="0"/>
    </comp>
    <comp name="--.HHN">
      <acc value="0.2018650335" flag="0"/>
      <vel value="0.0374771180" flag="0"/>
      <psa03 value="0.2457362551" flag="0"/>
      <psa10 value="0.0133234241" flag="0"/>
      <psa30 value="0.0008870334" flag="0"/>
    </comp>
    <comp name="--.HHZ">
      <acc value="0.3275118372" flag="0"/>
      <vel value="0.0376522386" flag="0"/>
      <psa03 value="0.2576549060" flag="0"/>
      <psa10 value="0.0099178966" flag="0"/>
      <psa30 value="0.0011850159" flag="0"/>
    </comp>
  </station>
  <station code="SAP3" name="SAP3" netid="HL" insttype="65535" lat="36.4356" lon="25.3454">
    <comp name="--.HHE">
      <acc value="0.0949762778" flag="0"/>
      <vel value="0.0335716064" flag="0"/>
      <psa03 value="0.1589332240" flag="0"/>
      <psa10 value="0.0153407358" flag="0"/>
      <psa30 value="0.0013564230" flag="0"/>
    </comp>
    <comp name="--.HHN">
      <acc value="0.1420277648" flag="0"/>
      <vel value="0.0322849695" flag="0"/>
      <psa03 value="0.2439653841" flag="0"/>
      <psa10 value="0.0131619172" flag="0"/>
      <psa30 value="0.0014779946" flag="0"/>
    </comp>
    <comp name="--.HHZ">
      <acc value="0.1121452230" flag="0"/>
      <vel value="0.0281078573" flag="0"/>
      <psa03 value="0.1404044218" flag="0"/>
      <psa10 value="0.0065719060" flag="0"/>
      <psa30 value="0.0007868738" flag="0"/>
    </comp>
  </station>
  <station code="THERA" name="THERA" netid="HL" insttype="120" lat="36.367" lon="25.4753">
    <comp name="--.HHN">
      <acc value="0.1443136147" flag="0"/>
      <vel value="0.0394133600" flag="0"/>
      <psa03 value="0.1804941036" flag="0"/>
      <psa10 value="0.0114462214" flag="0"/>
      <psa30 value="0.0007926792" flag="0"/>
    </comp>
    <comp name="--.HHE">
      <acc value="0.1096056738" flag="0"/>
      <vel value="0.0302473711" flag="0"/>
      <psa03 value="0.1397947542" flag="0"/>
      <psa10 value="0.0147065729" flag="0"/>
      <psa30 value="0.0009242398" flag="0"/>
    </comp>
    <comp name="--.HHZ">
      <acc value="0.0764211911" flag="0"/>
      <vel value="0.0214822731" flag="0"/>
      <psa03 value="0.0826468203" flag="0"/>
      <psa10 value="0.0087164042" flag="0"/>
      <psa30 value="0.0008957650" flag="0"/>
    </comp>
  </station>
  <station code="THRA" name="THRA" netid="HL" insttype="CMG-5" lat="36.415" lon="25.4324">
    <comp name="00.HNN">
      <acc value="0.3029470651" flag="0"/>
      <vel value="0.1166278861" flag="0"/>
      <psa03 value="0.7388815563" flag="0"/>
      <psa10 value="0.0980719054" flag="0"/>
      <psa30 value="0.0042228953" flag="0"/>
    </comp>
    <comp name="00.HNZ">
      <acc value="0.2690887573" flag="0"/>
      <vel value="0.1033214909" flag="0"/>
      <psa03 value="0.5033604498" flag="0"/>
      <psa10 value="0.0254685759" flag="0"/>
      <psa30 value="0.0022604436" flag="0"/>
    </comp>
    <comp name="00.HNE">
      <acc value="0.3820292308" flag="0"/>
      <vel value="0.1327880220" flag="0"/>
      <psa03 value="1.0130455936" flag="0"/>
      <psa10 value="0.0563578168" flag="0"/>
      <psa30 value="0.0044791963" flag="0"/>
    </comp>
  </station>
  <station code="TNSA" name="TNSA" netid="HL" insttype="CMG-5" lat="37.5394" lon="25.1631">
    <comp name="00.HNN">
      <acc value="0.0350581052" flag="0"/>
      <vel value="0.0111177190" flag="0"/>
      <psa03 value="0.0488960762" flag="0"/>
      <psa10 value="0.0043123354" flag="0"/>
      <psa30 value="0.0002954560" flag="0"/>
    </comp>
    <comp name="00.HNE">
      <acc value="0.0306075234" flag="0"/>
      <vel value="0.0067452339" flag="0"/>
      <psa03 value="0.0577210932" flag="0"/>
      <psa10 value="0.0021853794" flag="0"/>
      <psa30 value="0.0002295717" flag="0"/>
    </comp>
    <comp name="00.HNZ">
      <acc value="0.0224641820" flag="0"/>
      <vel value="0.0075914554" flag="0"/>
      <psa03 value="0.0459173276" flag="0"/>
      <psa10 value="0.0028381428" flag="0"/>
      <psa30 value="0.0002519206" flag="0"/>
    </comp>
  </station>
  <station code="AKRO" name="AKRO" netid="HT" insttype="Compact," lat="36.3584" lon="25.3967">
    <comp name="--.HHN">
      <acc value="0.2600113881" flag="0"/>
      <vel value="0.0652487040" flag="0"/>
      <psa03 value="0.3501841453" flag="0"/>
      <psa10 value="0.0269264792" flag="0"/>
      <psa30 value="0.0024988121" flag="0"/>
    </comp>
    <comp name="--.HHE">
      <acc value="0.3685557804" flag="0"/>
      <vel value="0.1431028161" flag="0"/>
      <psa03 value="0.5830921371" flag="0"/>
      <psa10 value="0.0538057590" flag="0"/>
      <psa30 value="0.0034884273" flag="0"/>
    </comp>
    <comp name="--.HHZ">
      <acc value="0.2015885217" flag="0"/>
      <vel value="0.0537567630" flag="0"/>
      <psa03 value="0.2249609885" flag="0"/>
      <psa10 value="0.0189022671" flag="0"/>
      <psa30 value="0.0022231145" flag="0"/>
    </comp>
  </station>
  <station code="CMBO" name="CMBO" netid="HT" insttype="120P," lat="36.4709" lon="25.4056">
    <comp name="--.HHE">
      <acc value="0.1114341930" flag="0"/>
      <vel value="0.0391977724" flag="0"/>
      <psa03 value="0.1799816692" flag="0"/>
      <psa10 value="0.0268400582" flag="0"/>
      <psa30 value="0.0020255161" flag="0"/>
    </comp>
    <comp name="--.HHN">
      <acc value="0.1329538265" flag="0"/>
      <vel value="0.0557269906" flag="0"/>
      <psa03 value="0.1825435570" flag="0"/>
      <psa10 value="0.0258797566" flag="0"/>
      <psa30 value="0.0015822254" flag="0"/>
    </comp>
    <comp name="--.HHZ">
      <acc value="0.1288356191" flag="0"/>
      <vel value="0.0387519569" flag="0"/>
      <psa03 value="0.2071532890" flag="0"/>
      <psa10 value="0.0128159667" flag="0"/>
      <psa30 value="0.0011249012" flag="0"/>
    </comp>
  </station>
</stationlist>
