<?xml version="1.0" encoding="UTF-8" standalone="yes"?>
<!DOCTYPE earthquake SYSTEM "stationlist.dtd">
<stationlist created="" xmlns="ch.ethz.sed.shakemap.usgs.xml">
  <station code="URFA" name="URFA" netid="KO" insttype="CMG-3ESP" lat="37.4409" lon="38.8213">
    <comp name="--.HHN">
      <acc value="0.1752905444" flag="0"/>
      <vel value="0.2075488440" flag="0"/>
      <psa03 value="0.3480097380" flag="0"/>
      <psa10 value="0.1645228110" flag="0"/>
      <psa30 value="0.0352835716" flag="0"/>
    </comp>
    <comp name="--.HHZ">
      <acc value="0.1458949228" flag="0"/>
      <vel value="0.1091745135" flag="0"/>
      <psa03 value="0.2799116798" flag="0"/>
      <psa10 value="0.2072741546" flag="0"/>
      <psa30 value="0.0250664643" flag="0"/>
    </comp>
    <comp name="--.HHE">
      <acc value="0.2781301659" flag="0"/>
      <vel value="0.1498703442" flag="0"/>
      <psa03 value="0.6418573216" flag="0"/>
      <psa10 value="0.2870851772" flag="0"/>
      <psa30 value="0.0292805824" flag="0"/>
    </comp>
  </station>
</stationlist>
