<?xml version="1.0" encoding="UTF-8" standalone="yes"?>
<!DOCTYPE earthquake SYSTEM "stationlist.dtd">
<stationlist created="" xmlns="ch.ethz.sed.shakemap.usgs.xml">
  <station code="ARPRA" name="ARPRA" netid="KO" insttype="CMG-5T" lat="39.0929" lon="38.3356">
    <comp name="--.HNZ">
      <acc value="0.0454257751" flag="0"/>
      <vel value="0.0177136286" flag="0"/>
      <psa03 value="0.0936196317" flag="0"/>
      <psa10 value="0.0274724690" flag="0"/>
      <psa30 value="0.0027727023" flag="0"/>
    </comp>
    <comp name="--.HNN">
      <acc value="0.0975574536" flag="0"/>
      <vel value="0.0848014802" flag="0"/>
      <psa03 value="0.1984447164" flag="0"/>
      <psa10 value="0.1666449632" flag="0"/>
      <psa30 value="0.0194969534" flag="0"/>
    </comp>
    <comp name="--.HNE">
      <acc value="0.0960125637" flag="0"/>
      <vel value="0.0932550111" flag="0"/>
      <psa03 value="0.1869115971" flag="0"/>
      <psa10 value="0.1356047659" flag="0"/>
      <psa30 value="0.0443494608" flag="0"/>
    </comp>
  </station>
  <station code="URFA" name="URFA" netid="KO" insttype="CMG-3ESP" lat="37.4409" lon="38.8213">
    <comp name="--.HHE">
      <acc value="0.2781301661" flag="0"/>
      <vel value="0.1498704460" flag="0"/>
      <psa03 value="0.6418573217" flag="0"/>
      <psa10 value="0.2870851783" flag="0"/>
      <psa30 value="0.0292806882" flag="0"/>
    </comp>
    <comp name="--.HHZ">
      <acc value="0.1458949225" flag="0"/>
      <vel value="0.1091746214" flag="0"/>
      <psa03 value="0.2799116799" flag="0"/>
      <psa10 value="0.2072741546" flag="0"/>
      <psa30 value="0.0250674982" flag="0"/>
    </comp>
    <comp name="--.HHN">
      <acc value="0.1752905441" flag="0"/>
      <vel value="0.2075487056" flag="0"/>
      <psa03 value="0.3480097383" flag="0"/>
      <psa10 value="0.1645228116" flag="0"/>
      <psa30 value="0.0352826970" flag="0"/>
    </comp>
  </station>
</stationlist>
