<stationlist xmlns:esm="https://esm-db.eu/esmws/shakemap/1/" created="1784368406">
	<station code="ATEI" name="ATEI" netid="HC" source="Seismological Network of Crete (HC)" insttype="" lat="35.5193" lon="24.0432" esm:processing="automatic (Paolucci et al 2011)" esm:quality="good">
		<comp name="--.HNE" depth="0.0">
			<acc value="0.0706328381965854" flag="0"/>
			<vel value="0.0361140855015452" flag="0"/>
			<psa03 value="0.228409735190646" flag="0"/>
			<psa10 value="0.063525473250836" flag="0"/>
			<psa30 value="0.00221895928682933" flag="0"/>
		</comp>
		<comp name="--.HNN" depth="0.0">
			<acc value="0.0676254814214861" flag="0"/>
			<vel value="0.054505603061495" flag="0"/>
			<psa03 value="0.173679317902437" flag="0"/>
			<psa10 value="0.0368641845713078" flag="0"/>
			<psa30 value="0.00217621999722781" flag="0"/>
		</comp>
		<comp name="--.HNZ" depth="0.0">
			<acc value="0.0412725449871567" flag="0"/>
			<vel value="0.0258329886069819" flag="0"/>
			<psa03 value="0.0870316768797973" flag="0"/>
			<psa10 value="0.0337637979359091" flag="0"/>
			<psa30 value="0.001696727191516" flag="0"/>
		</comp>
	</station>
	<station code="ARK1" name="ARK1" netid="HI" source="ITSAK Strong Motion Network" insttype="" lat="35.148777" lon="25.264194" esm:processing="automatic (Paolucci et al 2011)" esm:quality="best">
		<comp name="--.HNE" depth="0.0">
			<acc value="0.0971678613637189" flag="0"/>
			<vel value="0.0479051408339768" flag="0"/>
			<psa03 value="0.105831865008328" flag="0"/>
			<psa10 value="0.0589117788662259" flag="0"/>
			<psa30 value="0.00492484624689396" flag="0"/>
		</comp>
		<comp name="--.HNN" depth="0.0">
			<acc value="0.09477883821381" flag="0"/>
			<vel value="0.0395757254861058" flag="0"/>
			<psa03 value="0.351011377781103" flag="0"/>
			<psa10 value="0.0605905588271592" flag="0"/>
			<psa30 value="0.00696310002120328" flag="0"/>
		</comp>
		<comp name="--.HNZ" depth="0.0">
			<acc value="0.0717489173571041" flag="0"/>
			<vel value="0.0235807118690014" flag="0"/>
			<psa03 value="0.156608197441154" flag="0"/>
			<psa10 value="0.0486580783588898" flag="0"/>
			<psa30 value="0.00338314411669412" flag="0"/>
		</comp>
	</station>
	<station code="CH01" name="CH01" netid="HI" source="ITSAK Strong Motion Network" insttype="" lat="35.517" lon="24.0208" esm:processing="automatic (Paolucci et al 2011)" esm:quality="best">
		<comp name="--.HNE" depth="0.0">
			<acc value="0.0931336334254483" flag="0"/>
			<vel value="0.0470776623143336" flag="0"/>
			<psa03 value="0.240951670198954" flag="0"/>
			<psa10 value="0.047695723357594" flag="0"/>
			<psa30 value="0.00366695833465984" flag="0"/>
		</comp>
		<comp name="--.HNN" depth="0.0">
			<acc value="0.117569191514097" flag="0"/>
			<vel value="0.0543487149133026" flag="0"/>
			<psa03 value="0.284622250660586" flag="0"/>
			<psa10 value="0.0339238135361573" flag="0"/>
			<psa30 value="0.00210946849193486" flag="0"/>
		</comp>
		<comp name="--.HNZ" depth="0.0">
			<acc value="0.0407279179052458" flag="0"/>
			<vel value="0.0203778624827233" flag="0"/>
			<psa03 value="0.0844950452987375" flag="0"/>
			<psa10 value="0.0371589728495845" flag="0"/>
			<psa30 value="0.00211623602358395" flag="0"/>
		</comp>
	</station>
	<station code="CH02" name="CH02" netid="HI" source="ITSAK Strong Motion Network" insttype="" lat="35.5145" lon="24.0315" esm:processing="automatic (Paolucci et al 2011)" esm:quality="best">
		<comp name="--.HNE" depth="0.0">
			<acc value="0.076454307493943" flag="0"/>
			<vel value="0.0449790087337672" flag="0"/>
			<psa03 value="0.197937654064821" flag="0"/>
			<psa10 value="0.0308811225978154" flag="0"/>
			<psa30 value="0.00228584975966154" flag="0"/>
		</comp>
		<comp name="--.HNN" depth="0.0">
			<acc value="0.0897842897387729" flag="0"/>
			<vel value="0.0553304827353906" flag="0"/>
			<psa03 value="0.267046815540932" flag="0"/>
			<psa10 value="0.0295818621531874" flag="0"/>
			<psa30 value="0.00196899814479708" flag="0"/>
		</comp>
		<comp name="--.HNZ" depth="0.0">
			<acc value="0.0458372899325889" flag="0"/>
			<vel value="0.0250295936828948" flag="0"/>
			<psa03 value="0.0864761296608539" flag="0"/>
			<psa10 value="0.0383357370544378" flag="0"/>
			<psa30 value="0.0023855434472124" flag="0"/>
		</comp>
	</station>
	<station code="CH03" name="CH03" netid="HI" source="ITSAK Strong Motion Network" insttype="" lat="35.53303" lon="24.0705" esm:processing="automatic (Paolucci et al 2011)" esm:quality="best">
		<comp name="--.HNE" depth="0.0">
			<acc value="0.0699516151160123" flag="0"/>
			<vel value="0.0694522143384983" flag="0"/>
			<psa03 value="0.18958837179918" flag="0"/>
			<psa10 value="0.0824944248507847" flag="0"/>
			<psa30 value="0.00368050464870333" flag="0"/>
		</comp>
		<comp name="--.HNN" depth="0.0">
			<acc value="0.0860315649157117" flag="0"/>
			<vel value="0.0512868935876846" flag="0"/>
			<psa03 value="0.272102233770912" flag="0"/>
			<psa10 value="0.0597610863786804" flag="0"/>
			<psa30 value="0.00272228367126628" flag="0"/>
		</comp>
		<comp name="--.HNZ" depth="0.0">
			<acc value="0.0601841819371424" flag="0"/>
			<vel value="0.0325745984736622" flag="0"/>
			<psa03 value="0.177974623278671" flag="0"/>
			<psa10 value="0.0220848323867589" flag="0"/>
			<psa30 value="0.00177151860441338" flag="0"/>
		</comp>
	</station>
	<station code="GOR1" name="GOR1" netid="HI" source="ITSAK Strong Motion Network" insttype="" lat="35.0582" lon="24.9628" esm:processing="automatic (Paolucci et al 2011)" esm:quality="best">
		<comp name="--.HNE" depth="0.0">
			<acc value="0.0501853004050289" flag="0"/>
			<vel value="0.0237648557215252" flag="0"/>
			<psa03 value="0.148483680065084" flag="0"/>
			<psa10 value="0.0310509188459835" flag="0"/>
			<psa30 value="0.00245846306944617" flag="0"/>
		</comp>
		<comp name="--.HNN" depth="0.0">
			<acc value="0.038504324197392" flag="0"/>
			<vel value="0.0232407779704211" flag="0"/>
			<psa03 value="0.0657490274253874" flag="0"/>
			<psa10 value="0.0319770595732614" flag="0"/>
			<psa30 value="0.00345218598204553" flag="0"/>
		</comp>
		<comp name="--.HNZ" depth="0.0">
			<acc value="0.0327101430785874" flag="0"/>
			<vel value="0.0202857036720143" flag="0"/>
			<psa03 value="0.0564607089948761" flag="0"/>
			<psa10 value="0.0283390766997504" flag="0"/>
			<psa30 value="0.00175723099126246" flag="0"/>
		</comp>
	</station>
	<station code="HER3" name="HER3" netid="HI" source="ITSAK Strong Motion Network" insttype="" lat="35.3296" lon="25.1065" esm:processing="automatic (Paolucci et al 2011)" esm:quality="best">
		<comp name="--.HNE" depth="0.0">
			<acc value="0.317681511314628" flag="0"/>
			<vel value="0.126280226169642" flag="0"/>
			<psa03 value="0.676347221350741" flag="0"/>
			<psa10 value="0.234863508554791" flag="0"/>
			<psa30 value="0.00957629938283607" flag="0"/>
		</comp>
		<comp name="--.HNN" depth="0.0">
			<acc value="0.401135932999253" flag="0"/>
			<vel value="0.146042686395416" flag="0"/>
			<psa03 value="0.363944901230224" flag="0"/>
			<psa10 value="0.264277967118313" flag="0"/>
			<psa30 value="0.0126218969720627" flag="0"/>
		</comp>
		<comp name="--.HNZ" depth="0.0">
			<acc value="0.164203149186259" flag="0"/>
			<vel value="0.0855448871696007" flag="0"/>
			<psa03 value="0.268882895505552" flag="0"/>
			<psa10 value="0.125610768596954" flag="0"/>
			<psa30 value="0.00660719936119789" flag="0"/>
		</comp>
	</station>
	<station code="KTL1" name="KTL1" netid="HI" source="ITSAK Strong Motion Network" insttype="" lat="35.20778" lon="25.34272" esm:processing="automatic (Paolucci et al 2011)" esm:quality="best">
		<comp name="--.HNE" depth="0.0">
			<acc value="0.0575389311028652" flag="0"/>
			<vel value="0.0349737230318257" flag="0"/>
			<psa03 value="0.118737969974442" flag="0"/>
			<psa10 value="0.0410328257233255" flag="0"/>
			<psa30 value="0.0021876703390901" flag="0"/>
		</comp>
		<comp name="--.HNN" depth="0.0">
			<acc value="0.0749051315367124" flag="0"/>
			<vel value="0.0399103086652515" flag="0"/>
			<psa03 value="0.22036997342922" flag="0"/>
			<psa10 value="0.0443731570038793" flag="0"/>
			<psa30 value="0.00370249860569504" flag="0"/>
		</comp>
		<comp name="--.HNZ" depth="0.0">
			<acc value="0.0432964032743689" flag="0"/>
			<vel value="0.0173858321654986" flag="0"/>
			<psa03 value="0.0666745991566388" flag="0"/>
			<psa10 value="0.0216758734202344" flag="0"/>
			<psa30 value="0.00270361597628977" flag="0"/>
		</comp>
	</station>
	<station code="RTH1" name="RTH1" netid="HI" source="ITSAK Strong Motion Network" insttype="" lat="35.365393" lon="24.471773" esm:processing="automatic (Paolucci et al 2011)" esm:quality="best">
		<comp name="--.HNE" depth="0.0">
			<acc value="0.0897934766878332" flag="0"/>
			<vel value="0.0391101697921906" flag="0"/>
			<psa03 value="0.322048209113323" flag="0"/>
			<psa10 value="0.031620227184867" flag="0"/>
			<psa30 value="0.00382729062255371" flag="0"/>
		</comp>
		<comp name="--.HNN" depth="0.0">
			<acc value="0.0732155257092593" flag="0"/>
			<vel value="0.0381989428629457" flag="0"/>
			<psa03 value="0.248289364618532" flag="0"/>
			<psa10 value="0.0240290511817123" flag="0"/>
			<psa30 value="0.00268565145289493" flag="0"/>
		</comp>
		<comp name="--.HNZ" depth="0.0">
			<acc value="0.0723564270586874" flag="0"/>
			<vel value="0.0199396076781466" flag="0"/>
			<psa03 value="0.159902217737166" flag="0"/>
			<psa10 value="0.0148589193304818" flag="0"/>
			<psa30 value="0.00290201536927586" flag="0"/>
		</comp>
	</station>
	<station code="SFR2" name="SFR2" netid="HI" source="ITSAK Strong Motion Network" insttype="" lat="36.399841" lon="25.438209" esm:processing="automatic (Paolucci et al 2011)" esm:quality="best">
		<comp name="--.HNE" depth="0.0">
			<acc value="0.0910166904838266" flag="0"/>
			<vel value="0.0342512857705244" flag="0"/>
			<psa03 value="0.238312182845871" flag="0"/>
			<psa10 value="0.0275418732639352" flag="0"/>
			<psa30 value="0.00197702992686323" flag="0"/>
		</comp>
		<comp name="--.HNN" depth="0.0">
			<acc value="0.102052607653246" flag="0"/>
			<vel value="0.0312984271538429" flag="0"/>
			<psa03 value="0.268960838168871" flag="0"/>
			<psa10 value="0.0241891867899105" flag="0"/>
			<psa30 value="0.0016223026779239" flag="0"/>
		</comp>
		<comp name="--.HNZ" depth="0.0">
			<acc value="0.0935428139754007" flag="0"/>
			<vel value="0.0318913397438555" flag="0"/>
			<psa03 value="0.161389930874193" flag="0"/>
			<psa10 value="0.0163897388647631" flag="0"/>
			<psa30 value="0.000936078781458568" flag="0"/>
		</comp>
	</station>
	<station code="SIT2" name="SIT2" netid="HI" source="ITSAK Strong Motion Network" insttype="" lat="35.2059" lon="26.107" esm:processing="automatic (Paolucci et al 2011)" esm:quality="good">
		<comp name="--.HNE" depth="0.0">
			<acc value="0.0937770579191358" flag="0"/>
			<vel value="0.0718355303981017" flag="0"/>
			<psa03 value="0.360419917717366" flag="0"/>
			<psa10 value="0.0618289358635603" flag="0"/>
			<psa30 value="0.00325350969571661" flag="0"/>
		</comp>
		<comp name="--.HNN" depth="0.0">
			<acc value="0.0949475283635637" flag="0"/>
			<vel value="0.0683055616857242" flag="0"/>
			<psa03 value="0.418882873934628" flag="0"/>
			<psa10 value="0.0378202429054803" flag="0"/>
			<psa30 value="0.00291496268530534" flag="0"/>
		</comp>
		<comp name="--.HNZ" depth="0.0">
			<acc value="0.0621606019629079" flag="0"/>
			<vel value="0.0272994371644669" flag="0"/>
			<psa03 value="0.135178059049659" flag="0"/>
			<psa10 value="0.0132590792864305" flag="0"/>
			<psa30 value="0.00175500876071726" flag="0"/>
		</comp>
	</station>
	<station code="AMGA" name="AMGA" netid="HL" source="National Observatory of Athens Seismic Network" insttype="" lat="36.831561" lon="25.893836" esm:processing="automatic (Paolucci et al 2011)" esm:quality="best">
		<comp name="00.HNE" depth="0.0">
			<acc value="0.0197587109413245" flag="0"/>
			<vel value="0.00609900813575994" flag="0"/>
			<psa03 value="0.0273781600229031" flag="0"/>
			<psa10 value="0.00584258844906081" flag="0"/>
			<psa30 value="0.000413645292595568" flag="0"/>
		</comp>
		<comp name="00.HNN" depth="0.0">
			<acc value="0.0122553824098833" flag="0"/>
			<vel value="0.00775919432108897" flag="0"/>
			<psa03 value="0.033876598325048" flag="0"/>
			<psa10 value="0.00920574702306081" flag="0"/>
			<psa30 value="0.000456030470197236" flag="0"/>
		</comp>
		<comp name="00.HNZ" depth="0.0">
			<acc value="0.0130845565454358" flag="0"/>
			<vel value="0.00419804100735871" flag="0"/>
			<psa03 value="0.0298771432766127" flag="0"/>
			<psa10 value="0.00350359131447985" flag="0"/>
			<psa30 value="0.000501509055847004" flag="0"/>
		</comp>
	</station>
	<station code="CHNB" name="CHNB" netid="HL" source="National Observatory of Athens Seismic Network" insttype="" lat="35.48765" lon="24.06605" esm:processing="automatic (Paolucci et al 2011)" esm:quality="best">
		<comp name="00.HNE" depth="0.0">
			<acc value="0.117165952481705" flag="0"/>
			<vel value="0.0849885665791069" flag="0"/>
			<psa03 value="0.310680914419171" flag="0"/>
			<psa10 value="0.0875028891369634" flag="0"/>
			<psa30 value="0.00519414033630576" flag="0"/>
		</comp>
		<comp name="00.HNN" depth="0.0">
			<acc value="0.145126147141032" flag="0"/>
			<vel value="0.0819956011805025" flag="0"/>
			<psa03 value="0.406531430712132" flag="0"/>
			<psa10 value="0.0698609929479228" flag="0"/>
			<psa30 value="0.00410352642181971" flag="0"/>
		</comp>
		<comp name="00.HNZ" depth="0.0">
			<acc value="0.0946926267337056" flag="0"/>
			<vel value="0.075196292970175" flag="0"/>
			<psa03 value="0.373424654217335" flag="0"/>
			<psa10 value="0.0528865097217155" flag="0"/>
			<psa30 value="0.00291518853360001" flag="0"/>
		</comp>
	</station>
	<station code="HERG" name="HERG" netid="HL" source="National Observatory of Athens Seismic Network" insttype="" lat="35.32622" lon="25.06586" esm:processing="automatic (Paolucci et al 2011)" esm:quality="best">
		<comp name="00.HNE" depth="0.0">
			<acc value="0.141048708316934" flag="0"/>
			<vel value="0.106152475833188" flag="0"/>
			<psa03 value="0.372728608107697" flag="0"/>
			<psa10 value="0.193772216458356" flag="0"/>
			<psa30 value="0.0088961226577995" flag="0"/>
		</comp>
		<comp name="00.HNN" depth="0.0">
			<acc value="0.176835514266725" flag="0"/>
			<vel value="0.0928079956428582" flag="0"/>
			<psa03 value="0.381692493587784" flag="0"/>
			<psa10 value="0.157195863454477" flag="0"/>
			<psa30 value="0.00713407093052027" flag="0"/>
		</comp>
		<comp name="00.HNZ" depth="0.0">
			<acc value="0.141773259980434" flag="0"/>
			<vel value="0.0717402244206851" flag="0"/>
			<psa03 value="0.202713178753228" flag="0"/>
			<psa10 value="0.116032656594041" flag="0"/>
			<psa30 value="0.0076647552524188" flag="0"/>
		</comp>
	</station>
	<station code="IMMV" name="IMMV" netid="HL" source="National Observatory of Athens Seismic Network" insttype="" lat="35.4606" lon="23.9811" esm:processing="automatic (Paolucci et al 2011)" esm:quality="best">
		<comp name="--.HNE" depth="0.0">
			<acc value="0.0509228525428983" flag="0"/>
			<vel value="0.0294412730040338" flag="0"/>
			<psa03 value="0.146068603411442" flag="0"/>
			<psa10 value="0.0355850835871451" flag="0"/>
			<psa30 value="0.00203062514394999" flag="0"/>
		</comp>
		<comp name="--.HNN" depth="0.0">
			<acc value="0.0574480146287641" flag="0"/>
			<vel value="0.0278505301607764" flag="0"/>
			<psa03 value="0.236251796355378" flag="0"/>
			<psa10 value="0.0202077205373112" flag="0"/>
			<psa30 value="0.00174175111162974" flag="0"/>
		</comp>
		<comp name="--.HNZ" depth="0.0">
			<acc value="0.0387643470939046" flag="0"/>
			<vel value="0.0175227625856105" flag="0"/>
			<psa03 value="0.111629530325201" flag="0"/>
			<psa10 value="0.0149386646132155" flag="0"/>
			<psa30 value="0.00151945732325722" flag="0"/>
		</comp>
	</station>
	<station code="MILA" name="MILA" netid="HL" source="National Observatory of Athens Seismic Network" insttype="" lat="36.74288" lon="24.4282" esm:processing="automatic (Paolucci et al 2011)" esm:quality="best">
		<comp name="00.HNE" depth="0.0">
			<acc value="0.0594369241950925" flag="0"/>
			<vel value="0.0252498078646009" flag="0"/>
			<psa03 value="0.173609136169908" flag="0"/>
			<psa10 value="0.0207702184250357" flag="0"/>
			<psa30 value="0.00308239856877755" flag="0"/>
		</comp>
		<comp name="00.HNN" depth="0.0">
			<acc value="0.0698881259421409" flag="0"/>
			<vel value="0.0325710138020049" flag="0"/>
			<psa03 value="0.22163191119307" flag="0"/>
			<psa10 value="0.0219147004913558" flag="0"/>
			<psa30 value="0.00411298246490283" flag="0"/>
		</comp>
		<comp name="00.HNZ" depth="0.0">
			<acc value="0.0454745504170918" flag="0"/>
			<vel value="0.0213096702514313" flag="0"/>
			<psa03 value="0.0971219651035382" flag="0"/>
			<psa10 value="0.0268413812347761" flag="0"/>
			<psa30 value="0.00174712667606784" flag="0"/>
		</comp>
	</station>
	<station code="SAP3" name="SAP3" netid="HL" source="National Observatory of Athens Seismic Network" insttype="" lat="36.4356" lon="25.345419" esm:processing="automatic (Paolucci et al 2011)" esm:quality="best">
		<comp name="--.HNE" depth="0.0">
			<acc value="0.110388400500762" flag="0"/>
			<vel value="0.0482091537680936" flag="0"/>
			<psa03 value="0.164916414486425" flag="0"/>
			<psa10 value="0.0316440225111905" flag="0"/>
			<psa30 value="0.00214505751619972" flag="0"/>
		</comp>
		<comp name="--.HNN" depth="0.0">
			<acc value="0.116157497690364" flag="0"/>
			<vel value="0.0419798952087441" flag="0"/>
			<psa03 value="0.252876397653625" flag="0"/>
			<psa10 value="0.0297162035526458" flag="0"/>
			<psa30 value="0.00221138149317102" flag="0"/>
		</comp>
		<comp name="--.HNZ" depth="0.0">
			<acc value="0.107461503047763" flag="0"/>
			<vel value="0.0317673182035844" flag="0"/>
			<psa03 value="0.170045066734467" flag="0"/>
			<psa10 value="0.0135085364367425" flag="0"/>
			<psa30 value="0.00125213815634102" flag="0"/>
		</comp>
	</station>
	<station code="THRA" name="THRA" netid="HL" source="National Observatory of Athens Seismic Network" insttype="" lat="36.41502" lon="25.43244" esm:processing="automatic (Paolucci et al 2011)" esm:quality="good">
		<comp name="00.HNE" depth="0.0">
			<acc value="0.107811926468425" flag="0"/>
			<vel value="0.0466413232826505" flag="0"/>
			<psa03 value="0.249033351404005" flag="0"/>
			<psa10 value="0.0609046646351275" flag="0"/>
			<psa30 value="0.0033526789735279" flag="0"/>
		</comp>
		<comp name="00.HNN" depth="0.0">
			<acc value="0.0972849767415164" flag="0"/>
			<vel value="0.0416474313879398" flag="0"/>
			<psa03 value="0.186473915481734" flag="0"/>
			<psa10 value="0.0243098697845666" flag="0"/>
			<psa30 value="0.00178716380749797" flag="0"/>
		</comp>
		<comp name="00.HNZ" depth="0.0">
			<acc value="0.0655308724878532" flag="0"/>
			<vel value="0.0230917705691265" flag="0"/>
			<psa03 value="0.201343588024564" flag="0"/>
			<psa10 value="0.0111554514939134" flag="0"/>
			<psa30 value="0.000887228670378453" flag="0"/>
		</comp>
	</station>
	<station code="G0LD" name="G0LD" netid="HC" source="Seismological Network of Crete (HC)" insttype="" lat="35.4955" lon="24.0306" esm:processing="automatic (Paolucci et al 2011)" esm:quality="bad">
		<comp name="--.HNE" depth="0.0">
			<acc value="0" flag="1"/>
			<vel value="0" flag="1"/>
			<psa03 value="0" flag="1"/>
			<psa10 value="0" flag="1"/>
			<psa30 value="0" flag="1"/>
		</comp>
		<comp name="--.HNN" depth="0.0">
			<acc value="0" flag="1"/>
			<vel value="0" flag="1"/>
			<psa03 value="0" flag="1"/>
			<psa10 value="0" flag="1"/>
			<psa30 value="0" flag="1"/>
		</comp>
		<comp name="--.HNZ" depth="0.0">
			<acc value="0" flag="1"/>
			<vel value="0" flag="1"/>
			<psa03 value="0" flag="1"/>
			<psa10 value="0" flag="1"/>
			<psa30 value="0" flag="1"/>
		</comp>
	</station>
