<?xml version="1.0" encoding="UTF-8" standalone="yes"?>
<!DOCTYPE earthquake SYSTEM "stationlist.dtd">
<stationlist created="" xmlns="ch.ethz.sed.shakemap.usgs.xml">
  <station code="IMMV" name="IMMV" netid="GE" insttype="STS-2/N" commtype="DIG" lat="35.4606" lon="23.9811">
    <comp name="--.HHE">
      <acc value="0.0532297950" flag="0"/>
      <vel value="0.0304147035" flag="0"/>
      <psa03 value="0.1539469817" flag="0"/>
      <psa10 value="0.0368174992" flag="0"/>
      <psa30 value="0.0017734628" flag="0"/>
    </comp>
    <comp name="--.HHN">
      <acc value="0.0615444084" flag="0"/>
      <vel value="0.0294867218" flag="0"/>
      <psa03 value="0.2542173331" flag="0"/>
      <psa10 value="0.0213471786" flag="0"/>
      <psa30 value="0.0014658976" flag="0"/>
    </comp>
    <comp name="--.HHZ">
      <acc value="0.0403879240" flag="0"/>
      <vel value="0.0179794400" flag="0"/>
      <psa03 value="0.1146034767" flag="0"/>
      <psa10 value="0.0152026369" flag="0"/>
      <psa30 value="0.0013122579" flag="0"/>
    </comp>
  </station>
  <station code="ZKR" name="ZKR" netid="GE" insttype="STS-2/N" commtype="DIG" lat="35.1147" lon="26.2169">
    <comp name="--.HHE">
      <acc value="0.0303314091" flag="0"/>
      <vel value="0.0207534856" flag="0"/>
      <psa03 value="0.0545943105" flag="0"/>
      <psa10 value="0.0268615134" flag="0"/>
      <psa30 value="0.0013303874" flag="0"/>
    </comp>
    <comp name="--.HHN">
      <acc value="0.0107065333" flag="0"/>
      <vel value="0.0099374518" flag="0"/>
      <psa03 value="0.0317072563" flag="0"/>
      <psa10 value="0.0109886069" flag="0"/>
      <psa30 value="0.0005556841" flag="0"/>
    </comp>
    <comp name="--.HHZ">
      <acc value="0.0158776319" flag="0"/>
      <vel value="0.0080322137" flag="0"/>
      <psa03 value="0.0317946879" flag="0"/>
      <psa10 value="0.0105319475" flag="0"/>
      <psa30 value="0.0009594291" flag="0"/>
    </comp>
  </station>
  <station code="IOSI" name="IOSI" netid="HA" insttype="60s," commtype="DIG" lat="36.7225" lon="25.2887">
    <comp name="--.HHE">
      <acc value="0.0340137142" flag="0"/>
      <vel value="0.0140655735" flag="0"/>
      <psa03 value="0.0566895314" flag="0"/>
      <psa10 value="0.0090935092" flag="0"/>
      <psa30 value="0.0005214828" flag="0"/>
    </comp>
    <comp name="--.HHN">
      <acc value="0.0364832624" flag="0"/>
      <vel value="0.0153325294" flag="0"/>
      <psa03 value="0.0611071442" flag="0"/>
      <psa10 value="0.0056486714" flag="0"/>
      <psa30 value="0.0003832677" flag="0"/>
    </comp>
    <comp name="--.HHZ">
      <acc value="0.0214194951" flag="0"/>
      <vel value="0.0082531046" flag="0"/>
      <psa03 value="0.0370486854" flag="0"/>
      <psa10 value="0.0064657563" flag="0"/>
      <psa30 value="0.0003313630" flag="0"/>
    </comp>
  </station>
  <station code="SNT1" name="SNT1" netid="HA" insttype="30" commtype="DIG" lat="36.4159" lon="25.4282">
    <comp name="--.HHE">
      <acc value="0.0288100148" flag="0"/>
      <vel value="0.0138176215" flag="0"/>
      <psa03 value="0.0459161576" flag="0"/>
      <psa10 value="0.0171712449" flag="0"/>
      <psa30 value="0.0013341568" flag="0"/>
    </comp>
    <comp name="--.HHZ">
      <acc value="0.0224707964" flag="0"/>
      <vel value="0.0075184080" flag="0"/>
      <psa03 value="0.0447395433" flag="0"/>
      <psa10 value="0.0073548392" flag="0"/>
      <psa30 value="0.0004568088" flag="0"/>
    </comp>
    <comp name="--.HHN">
      <acc value="0.0268121653" flag="0"/>
      <vel value="0.0132277847" flag="0"/>
      <psa03 value="0.0497150414" flag="0"/>
      <psa10 value="0.0099628946" flag="0"/>
      <psa30 value="0.0011845748" flag="0"/>
    </comp>
  </station>
  <station code="SNT5" name="SNT5" netid="HA" insttype="1s-100Hz," commtype="DIG" lat="36.4037" lon="25.3953">
    <comp name="--.HHN">
      <acc value="0.1314079482" flag="0"/>
      <vel value="0.0329317076" flag="0"/>
      <psa03 value="0.1771925278" flag="0"/>
      <psa10 value="0.0106747251" flag="0"/>
      <psa30 value="0.0017217557" flag="0"/>
    </comp>
    <comp name="--.HHZ">
      <acc value="0.0465400219" flag="0"/>
      <vel value="0.0129647837" flag="0"/>
      <psa03 value="0.0431095248" flag="0"/>
      <psa10 value="0.0077269825" flag="0"/>
      <psa30 value="0.0009666492" flag="0"/>
    </comp>
    <comp name="--.HHE">
      <acc value="0.1436904287" flag="0"/>
      <vel value="0.0449571877" flag="0"/>
      <psa03 value="0.3398337765" flag="0"/>
      <psa10 value="0.0188084628" flag="0"/>
      <psa30 value="0.0028473833" flag="0"/>
    </comp>
  </station>
  <station code="CHAN" name="CHAN" netid="HC" insttype="120" commtype="DIG" lat="35.5193" lon="24.0428">
    <comp name="--.HHE">
      <acc value="0.1332899569" flag="0"/>
      <vel value="0.0768033971" flag="0"/>
      <psa03 value="0.4616210611" flag="0"/>
      <psa10 value="0.1318235690" flag="0"/>
      <psa30 value="0.0044913633" flag="0"/>
    </comp>
    <comp name="--.HHN">
      <acc value="0.0000000000" flag="0"/>
      <vel value="-100.0000000000" flag="0"/>
      <psa03 value="0.0000000000" flag="0"/>
      <psa10 value="0.0000000000" flag="0"/>
      <psa30 value="0.0000000000" flag="0"/>
    </comp>
    <comp name="--.HHZ">
      <acc value="0.0753757768" flag="0"/>
      <vel value="0.0498519552" flag="0"/>
      <psa03 value="0.1630582396" flag="0"/>
      <psa10 value="0.0644783266" flag="0"/>
      <psa30 value="0.0036964336" flag="0"/>
    </comp>
  </station>
  <station code="IMOD" name="IMOD" netid="HC" insttype="120" commtype="DIG" lat="34.9731" lon="24.7995">
    <comp name="--.HHE">
      <acc value="0.0318496363" flag="0"/>
      <vel value="0.0277886676" flag="0"/>
      <psa03 value="0.0858191312" flag="0"/>
      <psa10 value="0.0209782977" flag="0"/>
      <psa30 value="0.0015084136" flag="0"/>
    </comp>
    <comp name="--.HHN">
      <acc value="0.0374315940" flag="0"/>
      <vel value="0.0294448298" flag="0"/>
      <psa03 value="0.0688169884" flag="0"/>
      <psa10 value="0.0358106685" flag="0"/>
      <psa30 value="0.0016725684" flag="0"/>
    </comp>
    <comp name="--.HHZ">
      <acc value="0.0238406091" flag="0"/>
      <vel value="0.0130523665" flag="0"/>
      <psa03 value="0.0710660207" flag="0"/>
      <psa10 value="0.0147158641" flag="0"/>
      <psa30 value="0.0016093191" flag="0"/>
    </comp>
  </station>
  <station code="IPPL" name="IPPL" netid="HC" insttype="60" commtype="DIG" lat="35.3486" lon="24.4632">
    <comp name="--.HHE">
      <acc value="0.0000000000" flag="0"/>
      <vel value="-100.0000000000" flag="0"/>
      <psa03 value="0.0000000000" flag="0"/>
      <psa10 value="0.0000000000" flag="0"/>
      <psa30 value="0.0000000000" flag="0"/>
    </comp>
    <comp name="--.HHN">
      <acc value="0.0000000000" flag="0"/>
      <vel value="-100.0000000000" flag="0"/>
      <psa03 value="0.0000000000" flag="0"/>
      <psa10 value="0.0000000000" flag="0"/>
      <psa30 value="0.0000000000" flag="0"/>
    </comp>
    <comp name="--.HHZ">
      <acc value="0.0745746010" flag="0"/>
      <vel value="0.0315879632" flag="0"/>
      <psa03 value="0.1461718853" flag="0"/>
      <psa10 value="0.0214952601" flag="0"/>
      <psa30 value="0.0018625671" flag="0"/>
    </comp>
  </station>
  <station code="KNSS" name="KNSS" netid="HC" insttype="60" commtype="DIG" lat="35.3042" lon="25.1802">
    <comp name="--.HHN">
      <acc value="0.1102623803" flag="0"/>
      <vel value="0.0274316236" flag="0"/>
      <psa03 value="0.1576407114" flag="0"/>
      <psa10 value="0.0232902627" flag="0"/>
      <psa30 value="0.0046329631" flag="0"/>
    </comp>
    <comp name="--.HHZ">
      <acc value="0.1006164046" flag="0"/>
      <vel value="0.0251228955" flag="0"/>
      <psa03 value="0.1331699610" flag="0"/>
      <psa10 value="0.0251097051" flag="0"/>
      <psa30 value="0.0043149006" flag="0"/>
    </comp>
    <comp name="--.HHE">
      <acc value="0.0000000000" flag="0"/>
      <vel value="-100.0000000000" flag="0"/>
      <psa03 value="0.0000000000" flag="0"/>
      <psa10 value="0.0000000000" flag="0"/>
      <psa30 value="0.0000000000" flag="0"/>
    </comp>
  </station>
  <station code="PFKS" name="PFKS" netid="HC" insttype="120" commtype="DIG" lat="35.0429" lon="25.4733">
    <comp name="--.HHE">
      <acc value="0.0752570275" flag="0"/>
      <vel value="0.0340499798" flag="0"/>
      <psa03 value="0.1217328879" flag="0"/>
      <psa10 value="0.0297555123" flag="0"/>
      <psa30 value="0.0012570226" flag="0"/>
    </comp>
    <comp name="--.HHN">
      <acc value="0.0919693980" flag="0"/>
      <vel value="0.0341119967" flag="0"/>
      <psa03 value="0.1494474978" flag="0"/>
      <psa10 value="0.0188383581" flag="0"/>
      <psa30 value="0.0018610320" flag="0"/>
    </comp>
    <comp name="--.HHZ">
      <acc value="0.0456627797" flag="0"/>
      <vel value="0.0142034781" flag="0"/>
      <psa03 value="0.0698353920" flag="0"/>
      <psa10 value="0.0098584874" flag="0"/>
      <psa30 value="0.0013866269" flag="0"/>
    </comp>
  </station>
  <station code="RODP" name="RODP" netid="HC" insttype="120" commtype="DIG" lat="35.5604" lon="23.7577">
    <comp name="--.HHZ">
      <acc value="0.0335750441" flag="0"/>
      <vel value="0.0255624976" flag="0"/>
      <psa03 value="0.0840856470" flag="0"/>
      <psa10 value="0.0200798006" flag="0"/>
      <psa30 value="0.0089387909" flag="0"/>
    </comp>
    <comp name="--.HHN">
      <acc value="0.0586590972" flag="0"/>
      <vel value="0.0306695049" flag="0"/>
      <psa03 value="0.2623444756" flag="0"/>
      <psa10 value="0.0300367867" flag="0"/>
      <psa30 value="0.0069986979" flag="0"/>
    </comp>
    <comp name="--.HHE">
      <acc value="0.0835991727" flag="0"/>
      <vel value="0.0501587062" flag="0"/>
      <psa03 value="0.2338371544" flag="0"/>
      <psa10 value="0.0516850772" flag="0"/>
      <psa30 value="0.0112767058" flag="0"/>
    </comp>
  </station>
  <station code="STIA" name="STIA" netid="HC" insttype="120" commtype="DIG" lat="35.2021" lon="26.0909">
    <comp name="--.HHN">
      <acc value="0.0000000000" flag="0"/>
      <vel value="-100.0000000000" flag="0"/>
      <psa03 value="0.0000000000" flag="0"/>
      <psa10 value="0.0000000000" flag="0"/>
      <psa30 value="0.0000000000" flag="0"/>
    </comp>
    <comp name="--.HHE">
      <acc value="0.0305895659" flag="0"/>
      <vel value="0.0231569452" flag="0"/>
      <psa03 value="0.1044325819" flag="0"/>
      <psa10 value="0.0260355044" flag="0"/>
      <psa30 value="0.0017874831" flag="0"/>
    </comp>
    <comp name="--.HHZ">
      <acc value="0.0467485329" flag="0"/>
      <vel value="0.0166885927" flag="0"/>
      <psa03 value="0.0986386415" flag="0"/>
      <psa10 value="0.0081224401" flag="0"/>
      <psa30 value="0.0012019916" flag="0"/>
    </comp>
  </station>
  <station code="ARK1" name="ARK1" netid="HI" insttype="unknown" commtype="DIG" lat="35.1488" lon="25.2642">
    <comp name="--.HNE">
      <acc value="0.0962910137" flag="0"/>
      <vel value="0.0462398141" flag="0"/>
      <psa03 value="0.1062078686" flag="0"/>
      <psa10 value="0.0590988314" flag="0"/>
      <psa30 value="0.0044113803" flag="0"/>
    </comp>
    <comp name="--.HNN">
      <acc value="0.0958253485" flag="0"/>
      <vel value="0.0382707900" flag="0"/>
      <psa03 value="0.3449021684" flag="0"/>
      <psa10 value="0.0601240598" flag="0"/>
      <psa30 value="0.0059958523" flag="0"/>
    </comp>
    <comp name="--.HNZ">
      <acc value="0.0722702424" flag="0"/>
      <vel value="0.0233575877" flag="0"/>
      <psa03 value="0.1549915294" flag="0"/>
      <psa10 value="0.0486838667" flag="0"/>
      <psa30 value="0.0027071032" flag="0"/>
    </comp>
  </station>
  <station code="GOR1" name="GOR1" netid="HI" insttype="unknown" commtype="DIG" lat="35.0582" lon="24.9628">
    <comp name="--.HNE">
      <acc value="0.0502048031" flag="0"/>
      <vel value="0.0225154070" flag="0"/>
      <psa03 value="0.1467092350" flag="0"/>
      <psa10 value="0.0310073645" flag="0"/>
      <psa30 value="0.0020859251" flag="0"/>
    </comp>
    <comp name="--.HNN">
      <acc value="0.0385864224" flag="0"/>
      <vel value="0.0218083180" flag="0"/>
      <psa03 value="0.0658956538" flag="0"/>
      <psa10 value="0.0317454150" flag="0"/>
      <psa30 value="0.0032502387" flag="0"/>
    </comp>
    <comp name="--.HNZ">
      <acc value="0.0321398788" flag="0"/>
      <vel value="0.0191539815" flag="0"/>
      <psa03 value="0.0560286571" flag="0"/>
      <psa10 value="0.0283658864" flag="0"/>
      <psa30 value="0.0014321877" flag="0"/>
    </comp>
  </station>
  <station code="HER3" name="HER3" netid="HI" insttype="unknown" commtype="DIG" lat="35.3296" lon="25.1065">
    <comp name="--.HNE">
      <acc value="0.3207224090" flag="0"/>
      <vel value="0.1253899128" flag="0"/>
      <psa03 value="0.6748310881" flag="0"/>
      <psa10 value="0.2346897269" flag="0"/>
      <psa30 value="0.0092523754" flag="0"/>
    </comp>
    <comp name="--.HNZ">
      <acc value="0.1611849177" flag="0"/>
      <vel value="0.0851953240" flag="0"/>
      <psa03 value="0.2710559120" flag="0"/>
      <psa10 value="0.1257156193" flag="0"/>
      <psa30 value="0.0058447837" flag="0"/>
    </comp>
    <comp name="--.HNN">
      <acc value="0.3996477290" flag="0"/>
      <vel value="0.1454749381" flag="0"/>
      <psa03 value="0.3632367452" flag="0"/>
      <psa10 value="0.2641787666" flag="0"/>
      <psa30 value="0.0119396621" flag="0"/>
    </comp>
  </station>
  <station code="KTL1" name="KTL1" netid="HI" insttype="unknown" commtype="DIG" lat="35.2078" lon="25.3427">
    <comp name="--.HNE">
      <acc value="0.0567258359" flag="0"/>
      <vel value="0.0347197438" flag="0"/>
      <psa03 value="0.1182496747" flag="0"/>
      <psa10 value="0.0408412771" flag="0"/>
      <psa30 value="0.0019924841" flag="0"/>
    </comp>
    <comp name="--.HNN">
      <acc value="0.0754428588" flag="0"/>
      <vel value="0.0396674112" flag="0"/>
      <psa03 value="0.2179993764" flag="0"/>
      <psa10 value="0.0441567607" flag="0"/>
      <psa30 value="0.0032065694" flag="0"/>
    </comp>
    <comp name="--.HNZ">
      <acc value="0.0446747729" flag="0"/>
      <vel value="0.0170393485" flag="0"/>
      <psa03 value="0.0668312012" flag="0"/>
      <psa10 value="0.0215763757" flag="0"/>
      <psa30 value="0.0022661334" flag="0"/>
    </comp>
  </station>
  <station code="RTH1" name="RTH1" netid="HI" insttype="unknown" commtype="DIG" lat="35.3654" lon="24.4718">
    <comp name="--.HNE">
      <acc value="0.0905197579" flag="0"/>
      <vel value="0.0379342400" flag="0"/>
      <psa03 value="0.3171325518" flag="0"/>
      <psa10 value="0.0313254970" flag="0"/>
      <psa30 value="0.0033155645" flag="0"/>
    </comp>
    <comp name="--.HNN">
      <acc value="0.0732990893" flag="0"/>
      <vel value="0.0383923176" flag="0"/>
      <psa03 value="0.2466539818" flag="0"/>
      <psa10 value="0.0240606375" flag="0"/>
      <psa30 value="0.0022606874" flag="0"/>
    </comp>
    <comp name="--.HNZ">
      <acc value="0.0730990396" flag="0"/>
      <vel value="0.0191451421" flag="0"/>
      <psa03 value="0.1569444867" flag="0"/>
      <psa10 value="0.0148455411" flag="0"/>
      <psa30 value="0.0025078338" flag="0"/>
    </comp>
  </station>
  <station code="CHNB" name="CHNB" netid="HL" insttype="CMG-5" commtype="DIG" lat="35.4877" lon="24.0661">
    <comp name="00.HNE">
      <acc value="0.1169325224" flag="0"/>
      <vel value="0.0851236280" flag="0"/>
      <psa03 value="0.3102042413" flag="0"/>
      <psa10 value="0.0873538354" flag="0"/>
      <psa30 value="0.0052019364" flag="0"/>
    </comp>
    <comp name="00.HNN">
      <acc value="0.1454260361" flag="0"/>
      <vel value="0.0818654565" flag="0"/>
      <psa03 value="0.4055276036" flag="0"/>
      <psa10 value="0.0696975414" flag="0"/>
      <psa30 value="0.0041369423" flag="0"/>
    </comp>
    <comp name="00.HNZ">
      <acc value="0.0945578569" flag="0"/>
      <vel value="0.0753508563" flag="0"/>
      <psa03 value="0.3735734394" flag="0"/>
      <psa10 value="0.0528637787" flag="0"/>
      <psa30 value="0.0029462440" flag="0"/>
    </comp>
  </station>
  <station code="HERG" name="HERG" netid="HL" insttype="CMG-5" commtype="DIG" lat="35.3262" lon="25.0659">
    <comp name="00.HNN">
      <acc value="0.1762022572" flag="0"/>
      <vel value="0.0926874169" flag="0"/>
      <psa03 value="0.3800805023" flag="0"/>
      <psa10 value="0.1572027874" flag="0"/>
      <psa30 value="0.0069825290" flag="0"/>
    </comp>
    <comp name="00.HNE">
      <acc value="0.1404939689" flag="0"/>
      <vel value="0.1075690875" flag="0"/>
      <psa03 value="0.3736083406" flag="0"/>
      <psa10 value="0.1937275499" flag="0"/>
      <psa30 value="0.0087459528" flag="0"/>
    </comp>
    <comp name="00.HNZ">
      <acc value="0.1437051517" flag="0"/>
      <vel value="0.0715604755" flag="0"/>
      <psa03 value="0.2025856775" flag="0"/>
      <psa10 value="0.1161642782" flag="0"/>
      <psa30 value="0.0068374829" flag="0"/>
    </comp>
  </station>
  <station code="IDI" name="IDI" netid="HL" insttype="120" commtype="DIG" lat="35.288" lon="24.89">
    <comp name="--.HHN">
      <acc value="0.0634196212" flag="0"/>
      <vel value="0.0232069697" flag="0"/>
      <psa03 value="0.1015811355" flag="0"/>
      <psa10 value="0.0148324736" flag="0"/>
      <psa30 value="0.0023347220" flag="0"/>
    </comp>
    <comp name="--.HHE">
      <acc value="0.0782070232" flag="0"/>
      <vel value="0.0207749849" flag="0"/>
      <psa03 value="0.1154006669" flag="0"/>
      <psa10 value="0.0120653242" flag="0"/>
      <psa30 value="0.0018288522" flag="0"/>
    </comp>
    <comp name="--.HHZ">
      <acc value="0.0554072308" flag="0"/>
      <vel value="0.0253290237" flag="0"/>
      <psa03 value="0.1238159296" flag="0"/>
      <psa10 value="0.0209346323" flag="0"/>
      <psa30 value="0.0025477308" flag="0"/>
    </comp>
  </station>
  <station code="IMMV" name="IMMV" netid="HL" insttype="120" commtype="DIG" lat="35.4606" lon="23.9811">
    <comp name="--.HHE">
      <acc value="0.0523974576" flag="0"/>
      <vel value="0.0300385621" flag="0"/>
      <psa03 value="0.1494992215" flag="0"/>
      <psa10 value="0.0364998081" flag="0"/>
      <psa30 value="0.0017528672" flag="0"/>
    </comp>
    <comp name="--.HHZ">
      <acc value="0.0389512344" flag="0"/>
      <vel value="0.0176096913" flag="0"/>
      <psa03 value="0.1111959055" flag="0"/>
      <psa10 value="0.0150401658" flag="0"/>
      <psa30 value="0.0013118946" flag="0"/>
    </comp>
    <comp name="--.HHN">
      <acc value="0.0599249811" flag="0"/>
      <vel value="0.0287926792" flag="0"/>
      <psa03 value="0.2467572980" flag="0"/>
      <psa10 value="0.0212276384" flag="0"/>
      <psa30 value="0.0014518350" flag="0"/>
    </comp>
  </station>
  <station code="SAP3" name="SAP3" netid="HL" insttype="65535" commtype="DIG" lat="36.4356" lon="25.3454">
    <comp name="--.HHE">
      <acc value="0.1147150193" flag="0"/>
      <vel value="0.0494889415" flag="0"/>
      <psa03 value="0.1711632370" flag="0"/>
      <psa10 value="0.0329830784" flag="0"/>
      <psa30 value="0.0020140752" flag="0"/>
    </comp>
    <comp name="--.HHN">
      <acc value="0.1199350184" flag="0"/>
      <vel value="0.0424925645" flag="0"/>
      <psa03 value="0.2609846022" flag="0"/>
      <psa10 value="0.0293796809" flag="0"/>
      <psa30 value="0.0020824725" flag="0"/>
    </comp>
    <comp name="--.HHZ">
      <acc value="0.1113529694" flag="0"/>
      <vel value="0.0322671070" flag="0"/>
      <psa03 value="0.1710940935" flag="0"/>
      <psa10 value="0.0139730034" flag="0"/>
      <psa30 value="0.0012411563" flag="0"/>
    </comp>
  </station>
  <station code="AKRO" name="AKRO" netid="HT" insttype="Compact," commtype="DIG" lat="36.3584" lon="25.3967">
    <comp name="--.HHE">
