<?xml version="1.0" encoding="UTF-8" standalone="yes"?>
<!DOCTYPE earthquake SYSTEM "stationlist.dtd">
<stationlist created="" xmlns="ch.ethz.sed.shakemap.usgs.xml">
  <station code="ALIO" name="ALIO" netid="HA" insttype="25" commtype="DIG" lat="38.0657" lon="23.6727">
    <comp name="--.HHE">
      <acc value="0.0514711582" flag="0"/>
      <vel value="0.0114281532" flag="0"/>
      <psa03 value="0.0414943583" flag="0"/>
      <psa10 value="0.0030730669" flag="0"/>
      <psa30 value="0.0002475656" flag="0"/>
    </comp>
    <comp name="--.HHN">
      <acc value="0.0647587422" flag="0"/>
      <vel value="0.0092159927" flag="0"/>
      <psa03 value="0.0247518353" flag="0"/>
      <psa10 value="0.0030278420" flag="0"/>
      <psa30 value="0.0003425711" flag="0"/>
    </comp>
    <comp name="--.HHZ">
      <acc value="0.0496766457" flag="0"/>
      <vel value="0.0076153593" flag="0"/>
      <psa03 value="0.0177881783" flag="0"/>
      <psa10 value="0.0018010144" flag="0"/>
      <psa30 value="0.0001794475" flag="0"/>
    </comp>
  </station>
  <station code="AMPE" name="AMPE" netid="HA" insttype="1s-100Hz," commtype="DIG" lat="38.3015" lon="23.2688">
    <comp name="--.HHN">
      <acc value="0.0370495235" flag="0"/>
      <vel value="0.0122409104" flag="0"/>
      <psa03 value="0.0695771900" flag="0"/>
      <psa10 value="0.0098302254" flag="0"/>
      <psa30 value="0.0012926285" flag="0"/>
    </comp>
    <comp name="--.HHE">
      <acc value="0.0369127014" flag="0"/>
      <vel value="0.0144116925" flag="0"/>
      <psa03 value="0.0796767892" flag="0"/>
      <psa10 value="0.0112138125" flag="0"/>
      <psa30 value="0.0016621353" flag="0"/>
    </comp>
    <comp name="--.HHZ">
      <acc value="0.0281315557" flag="0"/>
      <vel value="0.0084280781" flag="0"/>
      <psa03 value="0.0573104722" flag="0"/>
      <psa10 value="0.0059290863" flag="0"/>
      <psa30 value="0.0007180851" flag="0"/>
    </comp>
  </station>
  <station code="ATHU" name="ATHU" netid="HA" insttype="60s," commtype="DIG" lat="37.9665" lon="23.7845">
    <comp name="--.HHE">
      <acc value="0.0659960404" flag="0"/>
      <vel value="0.0180113028" flag="0"/>
      <psa03 value="0.0408616269" flag="0"/>
      <psa10 value="0.0047699776" flag="0"/>
      <psa30 value="0.0002744399" flag="0"/>
    </comp>
    <comp name="--.HHN">
      <acc value="0.0849465294" flag="0"/>
      <vel value="0.0136671535" flag="0"/>
      <psa03 value="0.0347754052" flag="0"/>
      <psa10 value="0.0036421813" flag="0"/>
      <psa30 value="0.0003699346" flag="0"/>
    </comp>
    <comp name="--.HHZ">
      <acc value="0.0737140804" flag="0"/>
      <vel value="0.0149611721" flag="0"/>
      <psa03 value="0.0248748837" flag="0"/>
      <psa10 value="0.0043323468" flag="0"/>
      <psa30 value="0.0002859378" flag="0"/>
    </comp>
  </station>
  <station code="DOMV" name="DOMV" netid="HA" insttype="60" commtype="DIG" lat="38.2569" lon="22.9795">
    <comp name="--.HHE">
      <acc value="0.0671526429" flag="0"/>
      <vel value="0.0142089388" flag="0"/>
      <psa03 value="0.0615230568" flag="0"/>
      <psa10 value="0.0042200629" flag="0"/>
      <psa30 value="0.0003473284" flag="0"/>
    </comp>
    <comp name="--.HHN">
      <acc value="0.0743601879" flag="0"/>
      <vel value="0.0238206849" flag="0"/>
      <psa03 value="0.1311801909" flag="0"/>
      <psa10 value="0.0058306505" flag="0"/>
      <psa30 value="0.0003460589" flag="0"/>
    </comp>
    <comp name="--.HHZ">
      <acc value="0.0499646612" flag="0"/>
      <vel value="0.0106872949" flag="0"/>
      <psa03 value="0.0488820812" flag="0"/>
      <psa10 value="0.0024343894" flag="0"/>
      <psa30 value="0.0002644675" flag="0"/>
    </comp>
  </station>
  <station code="ERTR" name="ERTR" netid="HA" insttype="Horizon,120s,1200" commtype="DIG" lat="38.4066" lon="23.7865">
    <comp name="--.HHE">
      <acc value="0.0555632831" flag="0"/>
      <vel value="0.0121137779" flag="0"/>
      <psa03 value="0.0758491517" flag="0"/>
      <psa10 value="0.0039586535" flag="0"/>
      <psa30 value="0.0004651558" flag="0"/>
    </comp>
    <comp name="--.HHZ">
      <acc value="0.0656517327" flag="0"/>
      <vel value="0.0100504431" flag="0"/>
      <psa03 value="0.0645112496" flag="0"/>
      <psa10 value="0.0061595919" flag="0"/>
      <psa30 value="0.0005830808" flag="0"/>
    </comp>
    <comp name="--.HHN">
      <acc value="0.0827853975" flag="0"/>
      <vel value="0.0159918253" flag="0"/>
      <psa03 value="0.0832654088" flag="0"/>
      <psa10 value="0.0095291244" flag="0"/>
      <psa30 value="0.0006956172" flag="0"/>
    </comp>
  </station>
  <station code="MRTH" name="MRTH" netid="HA" insttype="S100," commtype="DIG" lat="38.1225" lon="23.9409">
    <comp name="--.HHE">
      <acc value="0.1917264420" flag="0"/>
      <vel value="0.0495551946" flag="0"/>
      <psa03 value="0.2584119168" flag="0"/>
      <psa10 value="0.0193481010" flag="0"/>
      <psa30 value="0.0012010312" flag="0"/>
    </comp>
    <comp name="--.HHN">
      <acc value="0.1879497450" flag="0"/>
      <vel value="0.0499846190" flag="0"/>
      <psa03 value="0.1650438819" flag="0"/>
      <psa10 value="0.0157576318" flag="0"/>
      <psa30 value="0.0014089971" flag="0"/>
    </comp>
    <comp name="--.HHZ">
      <acc value="0.1598226181" flag="0"/>
      <vel value="0.0334184351" flag="0"/>
      <psa03 value="0.1388754400" flag="0"/>
      <psa10 value="0.0143513211" flag="0"/>
      <psa30 value="0.0008399630" flag="0"/>
    </comp>
  </station>
  <station code="PRDM" name="PRDM" netid="HA" insttype="25" commtype="DIG" lat="38.2804" lon="22.847">
    <comp name="--.HHE">
      <acc value="0.0097729716" flag="0"/>
      <vel value="0.0021508562" flag="0"/>
      <psa03 value="0.0154168063" flag="0"/>
      <psa10 value="0.0009088949" flag="0"/>
      <psa30 value="0.0000863786" flag="0"/>
    </comp>
    <comp name="--.HHN">
      <acc value="0.0114895713" flag="0"/>
      <vel value="0.0021706732" flag="0"/>
      <psa03 value="0.0115359174" flag="0"/>
      <psa10 value="0.0007103393" flag="0"/>
      <psa30 value="0.0000899240" flag="0"/>
    </comp>
    <comp name="--.HHZ">
      <acc value="0.0061727654" flag="0"/>
      <vel value="0.0016335768" flag="0"/>
      <psa03 value="0.0084090447" flag="0"/>
      <psa10 value="0.0006499097" flag="0"/>
      <psa30 value="0.0000874383" flag="0"/>
    </comp>
  </station>
  <station code="THIV" name="THIV" netid="HA" insttype="25" commtype="DIG" lat="38.299" lon="23.332">
    <comp name="--.HHE">
      <acc value="0.0324786272" flag="0"/>
      <vel value="0.0118908951" flag="0"/>
      <psa03 value="0.1042422677" flag="0"/>
      <psa10 value="0.0041065554" flag="0"/>
      <psa30 value="0.0003432823" flag="0"/>
    </comp>
    <comp name="--.HHN">
      <acc value="0.0297506199" flag="0"/>
      <vel value="0.0077015313" flag="0"/>
      <psa03 value="0.0302564420" flag="0"/>
      <psa10 value="0.0049652142" flag="0"/>
      <psa30 value="0.0003562070" flag="0"/>
    </comp>
    <comp name="--.HHZ">
      <acc value="0.0201490815" flag="0"/>
      <vel value="0.0040103988" flag="0"/>
      <psa03 value="0.0232950933" flag="0"/>
      <psa10 value="0.0019993605" flag="0"/>
      <psa30 value="0.0002582406" flag="0"/>
    </comp>
  </station>
  <station code="VILL" name="VILL" netid="HA" insttype="Horizon,120s,1200" commtype="DIG" lat="38.1642" lon="23.3122">
    <comp name="--.HHN">
      <acc value="0.0261985236" flag="0"/>
      <vel value="0.0086260194" flag="0"/>
      <psa03 value="0.0415896050" flag="0"/>
      <psa10 value="0.0048614938" flag="0"/>
      <psa30 value="0.0003614760" flag="0"/>
    </comp>
    <comp name="--.HHE">
      <acc value="0.0306920378" flag="0"/>
      <vel value="0.0098904536" flag="0"/>
      <psa03 value="0.0544707784" flag="0"/>
      <psa10 value="0.0064635114" flag="0"/>
      <psa30 value="0.0005927051" flag="0"/>
    </comp>
    <comp name="--.HHZ">
      <acc value="0.0170345544" flag="0"/>
      <vel value="0.0047115833" flag="0"/>
      <psa03 value="0.0294356382" flag="0"/>
      <psa10 value="0.0028462452" flag="0"/>
      <psa30 value="0.0002066387" flag="0"/>
    </comp>
  </station>
  <station code="ATH5" name="ATH5" netid="HI" insttype="CMG-5TD,ACCELEROMETER,GURALP" commtype="DIG" lat="37.9754" lon="23.7371">
    <comp name="--.HNE">
      <acc value="0.1827064029" flag="0"/>
      <vel value="0.0486785589" flag="0"/>
      <psa03 value="0.0978889384" flag="0"/>
      <psa10 value="0.0079980815" flag="0"/>
      <psa30 value="0.0007794420" flag="0"/>
    </comp>
    <comp name="--.HNN">
      <acc value="0.2169149432" flag="0"/>
      <vel value="0.0551378436" flag="0"/>
      <psa03 value="0.1193098272" flag="0"/>
      <psa10 value="0.0077042035" flag="0"/>
      <psa30 value="0.0008630893" flag="0"/>
    </comp>
    <comp name="--.HNZ">
      <acc value="0.0489042690" flag="0"/>
      <vel value="0.0117626005" flag="0"/>
      <psa03 value="0.0397933347" flag="0"/>
      <psa10 value="0.0058740653" flag="0"/>
      <psa30 value="0.0003238642" flag="0"/>
    </comp>
  </station>
  <station code="KIF1" name="KIF1" netid="HI" insttype="unknown" commtype="DIG" lat="38.0773" lon="23.8146">
    <comp name="--.HNN">
      <acc value="0.1215395647" flag="0"/>
      <vel value="0.0226724604" flag="0"/>
      <psa03 value="0.0556450603" flag="0"/>
      <psa10 value="0.0142089041" flag="0"/>
      <psa30 value="0.0007749760" flag="0"/>
    </comp>
    <comp name="--.HNE">
      <acc value="0.0643391278" flag="0"/>
      <vel value="0.0185639181" flag="0"/>
      <psa03 value="0.0578153820" flag="0"/>
      <psa10 value="0.0129492611" flag="0"/>
      <psa30 value="0.0007003406" flag="0"/>
    </comp>
    <comp name="--.HNZ">
      <acc value="0.0563252445" flag="0"/>
      <vel value="0.0137457869" flag="0"/>
      <psa03 value="0.0419787323" flag="0"/>
      <psa10 value="0.0121093327" flag="0"/>
      <psa30 value="0.0008361009" flag="0"/>
    </comp>
  </station>
  <station code="PER1" name="PER1" netid="HI" insttype="unknown" commtype="DIG" lat="38.0119" lon="23.7027">
    <comp name="--.HNE">
      <acc value="0.1369547760" flag="0"/>
      <vel value="0.0310465352" flag="0"/>
      <psa03 value="0.0925903086" flag="0"/>
      <psa10 value="0.0174738282" flag="0"/>
      <psa30 value="0.0009654611" flag="0"/>
    </comp>
    <comp name="--.HNN">
      <acc value="0.0650490021" flag="0"/>
      <vel value="0.0221240107" flag="0"/>
      <psa03 value="0.0691709769" flag="0"/>
      <psa10 value="0.0124714159" flag="0"/>
      <psa30 value="0.0009142607" flag="0"/>
    </comp>
    <comp name="--.HNZ">
      <acc value="0.0754862723" flag="0"/>
      <vel value="0.0158962238" flag="0"/>
      <psa03 value="0.0277208193" flag="0"/>
      <psa10 value="0.0044563059" flag="0"/>
      <psa30 value="0.0003366395" flag="0"/>
    </comp>
  </station>
  <station code="PIR1" name="PIR1" netid="HI" insttype="unknown" commtype="DIG" lat="37.9372" lon="23.6426">
    <comp name="--.HNE">
      <acc value="0.2108948304" flag="0"/>
      <vel value="0.0493321231" flag="0"/>
      <psa03 value="0.1436800474" flag="0"/>
      <psa10 value="0.0155543697" flag="0"/>
      <psa30 value="0.0010243970" flag="0"/>
    </comp>
    <comp name="--.HNZ">
      <acc value="0.0864108685" flag="0"/>
      <vel value="0.0238911892" flag="0"/>
      <psa03 value="0.0640949114" flag="0"/>
      <psa10 value="0.0093501796" flag="0"/>
      <psa30 value="0.0005546652" flag="0"/>
    </comp>
    <comp name="--.HNN">
      <acc value="0.1602322182" flag="0"/>
      <vel value="0.0477217329" flag="0"/>
      <psa03 value="0.1481035922" flag="0"/>
      <psa10 value="0.0155862900" flag="0"/>
      <psa30 value="0.0013391238" flag="0"/>
    </comp>
  </station>
  <station code="PIR2" name="PIR2" netid="HI" insttype="unknown" commtype="DIG" lat="37.9458" lon="23.6709">
    <comp name="--.HNE">
      <acc value="0.2474508217" flag="0"/>
      <vel value="0.0855109581" flag="0"/>
      <psa03 value="0.2462758469" flag="0"/>
      <psa10 value="0.0290815913" flag="0"/>
      <psa30 value="0.0024169817" flag="0"/>
    </comp>
    <comp name="--.HNN">
      <acc value="0.2368899802" flag="0"/>
      <vel value="0.0771229007" flag="0"/>
      <psa03 value="0.3468797305" flag="0"/>
      <psa10 value="0.0240044337" flag="0"/>
      <psa30 value="0.0019361623" flag="0"/>
    </comp>
    <comp name="--.HNZ">
      <acc value="0.4606326038" flag="0"/>
      <vel value="0.1283548667" flag="0"/>
      <psa03 value="0.3625561740" flag="0"/>
      <psa10 value="0.0211125362" flag="0"/>
      <psa30 value="0.0018198599" flag="0"/>
    </comp>
  </station>
  <station code="PIR3" name="PIR3" netid="HI" insttype="unknown" commtype="DIG" lat="37.9573" lon="23.6519">
    <comp name="--.HNN">
      <acc value="0.1319354801" flag="0"/>
      <vel value="0.0370391684" flag="0"/>
      <psa03 value="0.1429700240" flag="0"/>
      <psa10 value="0.0215875426" flag="0"/>
      <psa30 value="0.0015038252" flag="0"/>
    </comp>
    <comp name="--.HNZ">
      <acc value="0.0684434499" flag="0"/>
      <vel value="0.0172042632" flag="0"/>
      <psa03 value="0.0439580846" flag="0"/>
      <psa10 value="0.0046434344" flag="0"/>
      <psa30 value="0.0003797055" flag="0"/>
    </comp>
    <comp name="--.HNE">
      <acc value="0.1076400642" flag="0"/>
      <vel value="0.0524099657" flag="0"/>
      <psa03 value="0.1644965760" flag="0"/>
      <psa10 value="0.0188299135" flag="0"/>
      <psa30 value="0.0010584552" flag="0"/>
    </comp>
  </station>
  <station code="SKY1" name="SKY1" netid="HI" insttype="CMG-5TD,ACCELEROMETER,GURALP" commtype="DIG" lat="38.9045" lon="24.5646">
    <comp name="--.HNN">
      <acc value="0.0484123586" flag="0"/>
      <vel value="0.0202569036" flag="0"/>
      <psa03 value="0.0925138594" flag="0"/>
      <psa10 value="0.0084529350" flag="0"/>
      <psa30 value="0.0006538564" flag="0"/>
    </comp>
    <comp name="--.HNE">
      <acc value="0.0515087612" flag="0"/>
      <vel value="0.0153368433" flag="0"/>
      <psa03 value="0.1147349352" flag="0"/>
      <psa10 value="0.0071665062" flag="0"/>
      <psa30 value="0.0007148960" flag="0"/>
    </comp>
    <comp name="--.HNZ">
      <acc value="0.0379788026" flag="0"/>
      <vel value="0.0098992350" flag="0"/>
      <psa03 value="0.0509106026" flag="0"/>
      <psa10 value="0.0036050478" flag="0"/>
      <psa30 value="0.0003607294" flag="0"/>
    </comp>
  </station>
  <station code="ACHA" name="ACHA" netid="HL" insttype="CMG-5" commtype="DIG" lat="38.0746" lon="23.7413">
    <comp name="00.HNE">
      <acc value="0.1050804270" flag="0"/>
      <vel value="0.0304611066" flag="0"/>
      <psa03 value="0.1164016021" flag="0"/>
      <psa10 value="0.0227599178" flag="0"/>
      <psa30 value="0.0014802305" flag="0"/>
    </comp>
    <comp name="00.HNN">
      <acc value="0.1160500484" flag="0"/>
      <vel value="0.0334453959" flag="0"/>
      <psa03 value="0.0906047242" flag="0"/>
      <psa10 value="0.0220220377" flag="0"/>
      <psa30 value="0.0015744521" flag="0"/>
    </comp>
    <comp name="00.HNZ">
      <acc value="0.1208344869" flag="0"/>
      <vel value="0.0256877007" flag="0"/>
      <psa03 value="0.0784664205" flag="0"/>
      <psa10 value="0.0082635187" flag="0"/>
      <psa30 value="0.0007278072" flag="0"/>
    </comp>
  </station>
  <station code="ATH" name="ATH" netid="HL" insttype="DR24" commtype="DIG" lat="37.9738" lon="23.7177">
    <comp name="--.HHZ">
      <acc value="0.0673724315" flag="0"/>
      <vel value="0.0146686170" flag="0"/>
      <psa03 value="0.0340380250" flag="0"/>
      <psa10 value="0.0052770519" flag="0"/>
      <psa30 value="0.0004102383" flag="0"/>
    </comp>
    <comp name="--.HHE">
      <acc value="0.1727880772" flag="0"/>
      <vel value="0.0531712431" flag="0"/>
      <psa03 value="0.1344106585" flag="0"/>
      <psa10 value="0.0094482371" flag="0"/>
      <psa30 value="0.0011160111" flag="0"/>
    </comp>
    <comp name="--.HHN">
      <acc value="0.2036605824" flag="0"/>
      <vel value="0.0474631981" flag="0"/>
      <psa03 value="0.1174288824" flag="0"/>
      <psa10 value="0.0126621356" flag="0"/>
      <psa30 value="0.0009591355" flag="0"/>
    </comp>
  </station>
  <station code="ATHP" name="ATHP" netid="HL" insttype="CMG-5" commtype="DIG" lat="38.0008" lon="23.7735">
    <comp name="00.HNE">
      <acc value="0.1059883513" flag="0"/>
      <vel value="0.0343980664" flag="0"/>
      <psa03 value="0.0947781206" flag="0"/>
      <psa10 value="0.0091998331" flag="0"/>
      <psa30 value="0.0007373527" flag="0"/>
    </comp>
    <comp name="00.HNN">
      <acc value="0.1186255985" flag="0"/>
      <vel value="0.0335976581" flag="0"/>
      <psa03 value="0.0716471942" flag="0"/>
      <psa10 value="0.0120722842" flag="0"/>
      <psa30 value="0.0009008671" flag="0"/>
    </comp>
    <comp name="00.HNZ">
      <acc value="0.0752611846" flag="0"/>
      <vel value="0.0199910204" flag="0"/>
      <psa03 value="0.0352268356" flag="0"/>
      <psa10 value="0.0047812407" flag="0"/>
      <psa30 value="0.0004615262" flag="0"/>
    </comp>
  </station>
  <station code="DRPA" name="DRPA" netid="HL" insttype="CMG-5" commtype="DIG" lat="37.9474" lon="23.6302">
    <comp name="00.HNE">
      <acc value="0.1361805286" flag="0"/>
      <vel value="0.0471188121" flag="0"/>
      <psa03 value="0.1260516176" flag="0"/>
      <psa10 value="0.0202462693" flag="0"/>
      <psa30 value="0.0016717805" flag="0"/>
    </comp>
    <comp name="00.HNN">
      <acc value="0.1375924605" flag="0"/>
      <vel value="0.0497220565" flag="0"/>
      <psa03 value="0.1373323954" flag="0"/>
      <psa10 value="0.0156646636" flag="0"/>
      <psa30 value="0.0013685150" flag="0"/>
    </comp>
    <comp name="00.HNZ">
      <acc value="0.0984162777" flag="0"/>
      <vel value="0.0200393969" flag="0"/>
      <psa03 value="0.0678060467" flag="0"/>
      <psa10 value="0.0157374263" flag="0"/>
      <psa30 value="0.0009380240" flag="0"/>
    </comp>
  </station>
  <station code="ELFA" name="ELFA" netid="HL" insttype="CMG-5" commtype="DIG" lat="38.0447" lon="23.5405">
    <comp name="00.HNE">
      <acc value="0.0576433644" flag="0"/>
      <vel value="0.0221245474" flag="0"/>
      <psa03 value="0.0757470404" flag="0"/>
      <psa10 value="0.0140317807" flag="0"/>
      <psa30 value="0.0009898302" flag="0"/>
    </comp>
    <comp name="00.HNN">
      <acc value="0.1546813300" flag="0"/>
      <vel value="0.0502689327" flag="0"/>
      <psa03 value="0.1766784049" flag="0"/>
      <psa10 value="0.0181736392" flag="0"/>
      <psa30 value="0.0013673158" flag="0"/>
    </comp>
    <comp name="00.HNZ">
      <acc value="0.0708891779" flag="0"/>
      <vel value="0.0255732215" flag="0"/>
      <psa03 value="0.1097279227" flag="0"/>
      <psa10 value="0.0110768902" flag="0"/>
      <psa30 value="0.0005458798" flag="0"/>
    </comp>
  </station>
  <station code="LKR" name="LKR" netid="HL" insttype="65535" commtype="DIG" lat="38.6496" lon="22.9988">
    <comp name="--.HHE">
      <acc value="0.0230914358" flag="0"/>
      <vel value="0.0045000452" flag="0"/>
      <psa03 value="0.0142216608" flag="0"/>
      <psa10 value="0.0015194603" flag="0"/>
      <psa30 value="0.0001325648" flag="0"/>
    </comp>
    <comp name="--.HHN">
      <acc value="0.0281603462" flag="0"/>
      <vel value="0.0063587498" flag="0"/>
      <psa03 value="0.0146587112" flag="0"/>
      <psa10 value="0.0031716306" flag="0"/>
      <psa30 value="0.0001718585" flag="0"/>
    </comp>
    <comp name="--.HHZ">
      <acc value="0.0140397264" flag="0"/>
      <vel value="0.0029730990" flag="0"/>
      <psa03 value="0.0089018935" flag="0"/>
      <psa10 value="0.0023809000" flag="0"/>
      <psa30 value="0.0001467522" flag="0"/>
    </comp>
  </station>
