<stationlist xmlns:esm="https://esm-db.eu/esmws/shakemap/1/" created="1783994322">
	<station code="AOL1" name="AOL1" netid="HI" source="ITSAK Strong Motion Network" insttype="" lat="37.642378" lon="21.624555" esm:processing="automatic (Paolucci et al 2011)" esm:quality="best">
		<comp name="--.HNE" depth="0.0">
			<acc value="0.0175647168554257" flag="0"/>
			<vel value="0.00823824454123556" flag="0"/>
			<psa03 value="0.029147087101474" flag="0"/>
			<psa10 value="0.0107527020012361" flag="0"/>
			<psa30 value="0.00264365846273209" flag="0"/>
		</comp>
		<comp name="--.HNN" depth="0.0">
			<acc value="0.02215443761345" flag="0"/>
			<vel value="0.0104951641400325" flag="0"/>
			<psa03 value="0.036713072685887" flag="0"/>
			<psa10 value="0.0148460944183944" flag="0"/>
			<psa30 value="0.00316210134869556" flag="0"/>
		</comp>
		<comp name="--.HNZ" depth="0.0">
			<acc value="0.0155613962953395" flag="0"/>
			<vel value="0.00561237673622162" flag="0"/>
			<psa03 value="0.0261055444683683" flag="0"/>
			<psa10 value="0.00614927345293719" flag="0"/>
			<psa30 value="0.00143300076260105" flag="0"/>
		</comp>
	</station>
	<station code="KAC1" name="KAC1" netid="HI" source="ITSAK Strong Motion Network" insttype="" lat="38.143412" lon="21.549694" esm:processing="manual (Paolucci et al 2011)" esm:quality="good">
		<comp name="--.HNE" depth="0.0">
			<acc value="0.0063138807664271" flag="0"/>
			<vel value="0.00976916521045673" flag="0"/>
			<psa03 value="0.021942253045744" flag="0"/>
			<psa10 value="0.00948733630196857" flag="0"/>
			<psa30 value="0.00409933447745731" flag="0"/>
		</comp>
		<comp name="--.HNN" depth="0.0">
			<acc value="0.00796861047521504" flag="0"/>
			<vel value="0.00702209699461036" flag="0"/>
			<psa03 value="0.030372152631053" flag="0"/>
			<psa10 value="0.00858851519698155" flag="0"/>
			<psa30 value="0.00270382411507794" flag="0"/>
		</comp>
		<comp name="--.HNZ" depth="0.0">
			<acc value="0.00358336696374346" flag="0"/>
			<vel value="0.00445683998244502" flag="0"/>
			<psa03 value="0.0103333121353824" flag="0"/>
			<psa10 value="0.00687125206172673" flag="0"/>
			<psa30 value="0.00224999071750932" flag="0"/>
		</comp>
	</station>
	<station code="LEF2" name="LEF2" netid="HI" source="ITSAK Strong Motion Network" insttype="" lat="38.830093" lon="20.708346" esm:processing="manual (Paolucci et al 2011)" esm:quality="good">
		<comp name="--.HNE" depth="0.0">
			<acc value="0.00815702511327769" flag="0"/>
			<vel value="0.0111609308054113" flag="0"/>
			<psa03 value="0.0157172156675685" flag="0"/>
			<psa10 value="0.0184318035165244" flag="0"/>
			<psa30 value="0.0036275782259209" flag="0"/>
		</comp>
		<comp name="--.HNN" depth="0.0">
			<acc value="0.00787307173476649" flag="0"/>
			<vel value="0.0104557900862568" flag="0"/>
			<psa03 value="0.0170341700968362" flag="0"/>
			<psa10 value="0.017600337811002" flag="0"/>
			<psa30 value="0.00285854457288228" flag="0"/>
		</comp>
		<comp name="--.HNZ" depth="0.0">
			<acc value="0.00670231396342407" flag="0"/>
			<vel value="0.00786173959757974" flag="0"/>
			<psa03 value="0.01272234930362" flag="0"/>
			<psa10 value="0.0118071584162985" flag="0"/>
			<psa30 value="0.0012226089085066" flag="0"/>
		</comp>
	</station>
	<station code="LXR1" name="LXR1" netid="HI" source="ITSAK Strong Motion Network" insttype="" lat="38.201" lon="20.4374" esm:processing="manual (Paolucci et al 2011)" esm:quality="good">
		<comp name="--.HNE" depth="0.0">
			<acc value="0.027543124142911" flag="0"/>
			<vel value="0.0169032560089572" flag="0"/>
			<psa03 value="0.0797294170992578" flag="0"/>
			<psa10 value="0.0228620676247789" flag="0"/>
			<psa30 value="0.00492599923994076" flag="0"/>
		</comp>
		<comp name="--.HNN" depth="0.0">
			<acc value="0.0231107053531761" flag="0"/>
			<vel value="0.0219391507265716" flag="0"/>
			<psa03 value="0.0705137024367231" flag="0"/>
			<psa10 value="0.0202303476612472" flag="0"/>
			<psa30 value="0.00556164676513637" flag="0"/>
		</comp>
		<comp name="--.HNZ" depth="0.0">
			<acc value="0.0153727297318907" flag="0"/>
			<vel value="0.0101922314779572" flag="0"/>
			<psa03 value="0.0325236154674071" flag="0"/>
			<psa10 value="0.0153187391662893" flag="0"/>
			<psa30 value="0.00343351682863907" flag="0"/>
		</comp>
	</station>
	<station code="PET1" name="PET1" netid="HI" source="ITSAK Strong Motion Network" insttype="" lat="36.963862" lon="21.92538" esm:processing="manual (Paolucci et al 2011)" esm:quality="good">
		<comp name="--.HNE" depth="0.0">
			<acc value="0.00819819481226807" flag="0"/>
			<vel value="0.00504456062480452" flag="0"/>
			<psa03 value="0.0295405741055569" flag="0"/>
			<psa10 value="0.00789599807112066" flag="0"/>
			<psa30 value="0.00121789234605749" flag="0"/>
		</comp>
		<comp name="--.HNN" depth="0.0">
			<acc value="0.00719421333800348" flag="0"/>
			<vel value="0.00520058382555554" flag="0"/>
			<psa03 value="0.0200109467207616" flag="0"/>
			<psa10 value="0.00689183858173265" flag="0"/>
			<psa30 value="0.00126310419528728" flag="0"/>
		</comp>
		<comp name="--.HNZ" depth="0.0">
			<acc value="0.00303885479157477" flag="0"/>
			<vel value="0.0021080563727736" flag="0"/>
			<psa03 value="0.0106020857996936" flag="0"/>
			<psa10 value="0.00248385423065266" flag="0"/>
			<psa30 value="0.000729220703126086" flag="0"/>
		</comp>
	</station>
	<station code="PYL1" name="PYL1" netid="HI" source="ITSAK Strong Motion Network" insttype="" lat="36.914188" lon="21.695161" esm:processing="manual (Paolucci et al 2011)" esm:quality="best">
		<comp name="--.HNE" depth="0.0">
			<acc value="0.00500726756450551" flag="0"/>
			<vel value="0.00275622984328001" flag="0"/>
			<psa03 value="0.0134226619854815" flag="0"/>
			<psa10 value="0.00258520469840374" flag="0"/>
			<psa30 value="0.000604467211412851" flag="0"/>
		</comp>
		<comp name="--.HNN" depth="0.0">
			<acc value="0.00388511712753625" flag="0"/>
			<vel value="0.00314478692985757" flag="0"/>
			<psa03 value="0.00979854324940151" flag="0"/>
			<psa10 value="0.0023274895882825" flag="0"/>
			<psa30 value="0.000927058521130591" flag="0"/>
		</comp>
		<comp name="--.HNZ" depth="0.0">
			<acc value="0.00296036390775687" flag="0"/>
			<vel value="0.00166029392061078" flag="0"/>
			<psa03 value="0.00599545568684842" flag="0"/>
			<psa10 value="0.0023274895882825" flag="0"/>
			<psa30 value="0.000489479740403893" flag="0"/>
		</comp>
	</station>
	<station code="PYR2" name="PYR2" netid="HI" source="ITSAK Strong Motion Network" insttype="" lat="37.6671" lon="21.4506" esm:processing="manual (Paolucci et al 2011)" esm:quality="good">
		<comp name="--.HNE" depth="0.0">
			<acc value="0.0201360825931093" flag="0"/>
			<vel value="0.0133919162570436" flag="0"/>
			<psa03 value="0.0637554943219364" flag="0"/>
			<psa10 value="0.0125978739223202" flag="0"/>
			<psa30 value="0.00392403911499985" flag="0"/>
		</comp>
		<comp name="--.HNN" depth="0.0">
			<acc value="0.0211597137607006" flag="0"/>
			<vel value="0.0106302594557655" flag="0"/>
			<psa03 value="0.0577879740030024" flag="0"/>
			<psa10 value="0.0119205143630737" flag="0"/>
			<psa30 value="0.00524756345865876" flag="0"/>
		</comp>
		<comp name="--.HNZ" depth="0.0">
			<acc value="0.0143024261594681" flag="0"/>
			<vel value="0.00635187380528656" flag="0"/>
			<psa03 value="0.0244765407215315" flag="0"/>
			<psa10 value="0.0077289877887591" flag="0"/>
			<psa30 value="0.00254999121607002" flag="0"/>
		</comp>
	</station>
	<station code="PYR3" name="PYR3" netid="HI" source="ITSAK Strong Motion Network" insttype="" lat="37.6788" lon="21.46209" esm:processing="manual (Paolucci et al 2011)" esm:quality="good">
		<comp name="--.HNE" depth="0.0">
			<acc value="0.03847240705799" flag="0"/>
			<vel value="0.0155708729559603" flag="0"/>
			<psa03 value="0.0990794385265457" flag="0"/>
			<psa10 value="0.0160883801512273" flag="0"/>
			<psa30 value="0.00441464453186762" flag="0"/>
		</comp>
		<comp name="--.HNN" depth="0.0">
			<acc value="0.0295658534599887" flag="0"/>
			<vel value="0.0152446945233718" flag="0"/>
			<psa03 value="0.0714496811073832" flag="0"/>
			<psa10 value="0.0115529328251008" flag="0"/>
			<psa30 value="0.00435608065229801" flag="0"/>
		</comp>
		<comp name="--.HNZ" depth="0.0">
			<acc value="0.0117154414994814" flag="0"/>
			<vel value="0.00695640416620125" flag="0"/>
			<psa03 value="0.0416969080488538" flag="0"/>
			<psa10 value="0.00595305061038688" flag="0"/>
			<psa30 value="0.00307079780028357" flag="0"/>
		</comp>
	</station>
	<station code="VAS2" name="VAS2" netid="HI" source="ITSAK Strong Motion Network" insttype="" lat="38.630558" lon="20.608081" esm:processing="manual (Paolucci et al 2011)" esm:quality="good">
		<comp name="--.HNE" depth="0.0">
			<acc value="0.0153979136917711" flag="0"/>
			<vel value="0.018286965002994" flag="0"/>
			<psa03 value="0.0244739870201947" flag="0"/>
			<psa10 value="0.044782027182162" flag="0"/>
			<psa30 value="0.00231406692629701" flag="0"/>
		</comp>
		<comp name="--.HNN" depth="0.0">
			<acc value="0.0151078048393295" flag="0"/>
			<vel value="0.0224562955004258" flag="0"/>
			<psa03 value="0.0299772784342421" flag="0"/>
			<psa10 value="0.0516920135722879" flag="0"/>
			<psa30 value="0.00236149366531238" flag="0"/>
		</comp>
		<comp name="--.HNZ" depth="0.0">
			<acc value="0.00931818718881349" flag="0"/>
			<vel value="0.00971111335076325" flag="0"/>
			<psa03 value="0.0154360612833038" flag="0"/>
			<psa10 value="0.0142508402299857" flag="0"/>
			<psa30 value="0.00097135330568268" flag="0"/>
		</comp>
	</station>
	<station code="VSK1" name="VSK1" netid="HI" source="ITSAK Strong Motion Network" insttype="" lat="38.4091" lon="20.564" esm:processing="automatic (Paolucci et al 2011)" esm:quality="best">
		<comp name="--.HNE" depth="0.0">
			<acc value="0.00484948096039433" flag="0"/>
			<vel value="0.00493006987171373" flag="0"/>
			<psa03 value="0.00906805579231753" flag="0"/>
			<psa10 value="0.00730246359612461" flag="0"/>
			<psa30 value="0.00113535989952129" flag="0"/>
		</comp>
		<comp name="--.HNN" depth="0.0">
			<acc value="0.00763906422685208" flag="0"/>
			<vel value="0.00552310691328758" flag="0"/>
			<psa03 value="0.0102511107264008" flag="0"/>
			<psa10 value="0.0124219628940779" flag="0"/>
			<psa30 value="0.00166586910565259" flag="0"/>
		</comp>
		<comp name="--.HNZ" depth="0.0">
			<acc value="0.00295527046511359" flag="0"/>
			<vel value="0.0035121531503266" flag="0"/>
			<psa03 value="0.00937932641246848" flag="0"/>
			<psa10 value="0.0075963771289537" flag="0"/>
			<psa30 value="0.000785308793686819" flag="0"/>
		</comp>
	</station>
	<station code="ANX" name="ANX" netid="HP" source="University of Patras, Seismological Laboratory (PSLNET)" insttype="" lat="38.5933" lon="21.9209" esm:processing="manual (Paolucci et al 2011)" esm:quality="best">
		<comp name="--.HNE" depth="0.0">
			<acc value="0.00348873415396534" flag="0"/>
			<vel value="0.0032614668426412" flag="0"/>
			<psa03 value="0.00761578510733694" flag="0"/>
			<psa10 value="0.00480646934250169" flag="0"/>
			<psa30 value="0.000604017044416767" flag="0"/>
		</comp>
		<comp name="--.HNN" depth="0.0">
			<acc value="0.00361856621569421" flag="0"/>
			<vel value="0.00377839250672948" flag="0"/>
			<psa03 value="0.00625343183727584" flag="0"/>
			<psa10 value="0.0056813366731577" flag="0"/>
			<psa30 value="0.000696615001490503" flag="0"/>
		</comp>
		<comp name="--.HNZ" depth="0.0">
			<acc value="0.00335880312539224" flag="0"/>
			<vel value="0.00180753378613432" flag="0"/>
			<psa03 value="0.00425335500608163" flag="0"/>
			<psa10 value="0.00269548942231945" flag="0"/>
			<psa30 value="0.00058307914696416" flag="0"/>
		</comp>
	</station>
	<station code="AIGS" name="AIGS" netid="HA" source="Hellenic Seismological Network, University of Athens, Seismological Laboratory (HA)" insttype="" lat="38.25001" lon="22.0878" esm:processing="discarded" esm:quality="bad">
		<comp name="--.HNE" depth="0.0">
			<acc value="0" flag="1"/>
			<vel value="0" flag="1"/>
			<psa03 value="0" flag="1"/>
			<psa10 value="0" flag="1"/>
			<psa30 value="0" flag="1"/>
		</comp>
		<comp name="--.HNN" depth="0.0">
			<acc value="0" flag="1"/>
			<vel value="0" flag="1"/>
			<psa03 value="0" flag="1"/>
			<psa10 value="0" flag="1"/>
			<psa30 value="0" flag="1"/>
		</comp>
		<comp name="--.HNZ" depth="0.0">
			<acc value="0" flag="1"/>
			<vel value="0" flag="1"/>
			<psa03 value="0" flag="1"/>
			<psa10 value="0" flag="1"/>
			<psa30 value="0" flag="1"/>
		</comp>
	</station>
	<station code="KIAS" name="KIAS" netid="HA" source="Hellenic Seismological Network, University of Athens, Seismological Laboratory (HA)" insttype="" lat="37.9875" lon="22.7543" esm:processing="discarded" esm:quality="bad">
		<comp name="--.HNE" depth="0.0">
			<acc value="0" flag="1"/>
			<vel value="0" flag="1"/>
			<psa03 value="0" flag="1"/>
			<psa10 value="0" flag="1"/>
			<psa30 value="0" flag="1"/>
		</comp>
		<comp name="--.HNN" depth="0.0">
			<acc value="0" flag="1"/>
			<vel value="0" flag="1"/>
			<psa03 value="0" flag="1"/>
			<psa10 value="0" flag="1"/>
			<psa30 value="0" flag="1"/>
		</comp>
		<comp name="--.HNZ" depth="0.0">
			<acc value="0" flag="1"/>
			<vel value="0" flag="1"/>
			<psa03 value="0" flag="1"/>
			<psa10 value="0" flag="1"/>
			<psa30 value="0" flag="1"/>
		</comp>
	</station>
	<station code="XLKS" name="XLKS" netid="HA" source="Hellenic Seismological Network, University of Athens, Seismological Laboratory (HA)" insttype="" lat="38.0772" lon="22.6361" esm:processing="discarded" esm:quality="bad">
		<comp name="--.HNE" depth="0.0">
			<acc value="0" flag="1"/>
			<vel value="0" flag="1"/>
			<psa03 value="0" flag="1"/>
			<psa10 value="0" flag="1"/>
			<psa30 value="0" flag="1"/>
		</comp>
		<comp name="--.HNN" depth="0.0">
			<acc value="0" flag="1"/>
			<vel value="0" flag="1"/>
			<psa03 value="0" flag="1"/>
			<psa10 value="0" flag="1"/>
			<psa30 value="0" flag="1"/>
		</comp>
		<comp name="--.HNZ" depth="0.0">
			<acc value="0" flag="1"/>
			<vel value="0" flag="1"/>
			<psa03 value="0" flag="1"/>
			<psa10 value="0" flag="1"/>
			<psa30 value="0" flag="1"/>
		</comp>
	</station>
	<station code="AGR3" name="AGR3" netid="HI" source="ITSAK Strong Motion Network" insttype="" lat="38.5893" lon="21.4162" esm:processing="automatic (Paolucci et al 2011)" esm:quality="bad">
		<comp name="--.HNE" depth="0.0">
			<acc value="0" flag="1"/>
			<vel value="0" flag="1"/>
			<psa03 value="0" flag="1"/>
			<psa10 value="0" flag="1"/>
			<psa30 value="0" flag="1"/>
		</comp>
		<comp name="--.HNN" depth="0.0">
			<acc value="0" flag="1"/>
			<vel value="0" flag="1"/>
			<psa03 value="0" flag="1"/>
			<psa10 value="0" flag="1"/>
			<psa30 value="0" flag="1"/>
		</comp>
		<comp name="--.HNZ" depth="0.0">
			<acc value="0" flag="1"/>
			<vel value="0" flag="1"/>
			<psa03 value="0" flag="1"/>
			<psa10 value="0" flag="1"/>
			<psa30 value="0" flag="1"/>
		</comp>
	</station>
	<station code="AIG2" name="AIG2" netid="HI" source="ITSAK Strong Motion Network" insttype="" lat="38.2417" lon="22.0726" esm:processing="automatic (Paolucci et al 2011)" esm:quality="bad">
		<comp name="--.HNE" depth="0.0">
			<acc value="0" flag="1"/>
			<vel value="0" flag="1"/>
			<psa03 value="0" flag="1"/>
			<psa10 value="0" flag="1"/>
			<psa30 value="0" flag="1"/>
		</comp>
		<comp name="--.HNN" depth="0.0">
			<acc value="0" flag="1"/>
			<vel value="0" flag="1"/>
			<psa03 value="0" flag="1"/>
			<psa10 value="0" flag="1"/>
			<psa30 value="0" flag="1"/>
		</comp>
		<comp name="--.HNZ" depth="0.0">
			<acc value="0" flag="1"/>
			<vel value="0" flag="1"/>
			<psa03 value="0" flag="1"/>
			<psa10 value="0" flag="1"/>
			<psa30 value="0" flag="1"/>
		</comp>
	</station>
	<station code="AKR1" name="AKR1" netid="HI" source="ITSAK Strong Motion Network" insttype="" lat="38.153583" lon="22.31326" esm:processing="automatic (Paolucci et al 2011)" esm:quality="bad">
		<comp name="--.HNE" depth="0.0">
			<acc value="0" flag="1"/>
			<vel value="0" flag="1"/>
			<psa03 value="0" flag="1"/>
			<psa10 value="0" flag="1"/>
			<psa30 value="0" flag="1"/>
		</comp>
		<comp name="--.HNN" depth="0.0">
			<acc value="0" flag="1"/>
			<vel value="0" flag="1"/>
			<psa03 value="0" flag="1"/>
			<psa10 value="0" flag="1"/>
			<psa30 value="0" flag="1"/>
		</comp>
		<comp name="--.HNZ" depth="0.0">
			<acc value="0" flag="1"/>
			<vel value="0" flag="1"/>
			<psa03 value="0" flag="1"/>
			<psa10 value="0" flag="1"/>
			<psa30 value="0" flag="1"/>
		</comp>
	</station>
	<station code="ARE2" name="ARE2" netid="HI" source="ITSAK Strong Motion Network" insttype="" lat="36.66629" lon="22.382635" esm:processing="automatic (Paolucci et al 2011)" esm:quality="bad">
		<comp name="--.HNE" depth="0.0">
			<acc value="0" flag="1"/>
			<vel value="0" flag="1"/>
			<psa03 value="0" flag="1"/>
			<psa10 value="0" flag="1"/>
			<psa30 value="0" flag="1"/>
		</comp>
		<comp name="--.HNN" depth="0.0">
			<acc value="0" flag="1"/>
			<vel value="0" flag="1"/>
			<psa03 value="0" flag="1"/>
			<psa10 value="0" flag="1"/>
			<psa30 value="0" flag="1"/>
		</comp>
		<comp name="--.HNZ" depth="0.0">
			<acc value="0" flag="1"/>
			<vel value="0" flag="1"/>
			<psa03 value="0" flag="1"/>
			<psa10 value="0" flag="1"/>
			<psa30 value="0" flag="1"/>
		</comp>
	</station>
	<station code="ARG2" name="ARG2" netid="HI" source="ITSAK Strong Motion Network" insttype="" lat="38.1783" lon="20.4878" esm:processing="discarded" esm:quality="best">
		<comp name="--.HNE" depth="0.0">
			<acc value="0" flag="1"/>
			<vel value="0" flag="1"/>
			<psa03 value="0" flag="1"/>
			<psa10 value="0" flag="1"/>
			<psa30 value="0" flag="1"/>
		</comp>
		<comp name="--.HNN" depth="0.0">
			<acc value="0" flag="1"/>
			<vel value="0" flag="1"/>
			<psa03 value="0" flag="1"/>
			<psa10 value="0" flag="1"/>
			<psa30 value="0" flag="1"/>
		</comp>
		<comp name="--.HNZ" depth="0.0">
			<acc value="0" flag="1"/>
			<vel value="0" flag="1"/>
			<psa03 value="0" flag="1"/>
			<psa10 value="0" flag="1"/>
			<psa30 value="0" flag="1"/>
		</comp>
	</station>
	<station code="ARS1" name="ARS1" netid="HI" source="ITSAK Strong Motion Network" insttype="" lat="37.6349" lon="22.7293" esm:processing="discarded" esm:quality="bad">
		<comp name="--.HNE" depth="0.0">
			<acc value="0" flag="1"/>
			<vel value="0" flag="1"/>
			<psa03 value="0" flag="1"/>
			<psa10 value="0" flag="1"/>
			<psa30 value="0" flag="1"/>
		</comp>
		<comp name="--.HNN" depth="0.0">
			<acc value="0" flag="1"/>
			<vel value="0" flag="1"/>
			<psa03 value="0" flag="1"/>
			<psa10 value="0" flag="1"/>
			<psa30 value="0" flag="1"/>
		</comp>
		<comp name="--.HNZ" depth="0.0">
			<acc value="0" flag="1"/>
			<vel value="0" flag="1"/>
			<psa03 value="0" flag="1"/>
			<psa10 value="0" flag="1"/>
			<psa30 value="0" flag="1"/>
		</comp>
	</station>
	<station code="ART2" name="ART2" netid="HI" source="ITSAK Strong Motion Network" insttype="" lat="39.1474" lon="20.9937" esm:processing="discarded" esm:quality="bad">
		<comp name="--.HNE" depth="0.0">
			<acc value="0" flag="1"/>
			<vel value="0" flag="1"/>
			<psa03 value="0" flag="1"/>
			<psa10 value="0" flag="1"/>
			<psa30 value="0" flag="1"/>
		</comp>
		<comp name="--.HNN" depth="0.0">
			<acc value="0" flag="1"/>
			<vel value="0" flag="1"/>
			<psa03 value="0" flag="1"/>
			<psa10 value="0" flag="1"/>
			<psa30 value="0" flag="1"/>
		</comp>
		<comp name="--.HNZ" depth="0.0">
			<acc value="0" flag="1"/>
			<vel value="0" flag="1"/>
			<psa03 value="0" flag="1"/>
			<psa10 value="0" flag="1"/>
			<psa30 value="0" flag="1"/>
		</comp>
	</station>
	<station code="AST1" name="AST1" netid="HI" source="ITSAK Strong Motion Network" insttype="" lat="38.5416" lon="21.0895" esm:processing="automatic (Paolucci et al 2011)" esm:quality="bad">
		<comp name="--.HNE" depth="0.0">
			<acc value="0" flag="1"/>
			<vel value="0" flag="1"/>
			<psa03 value="0" flag="1"/>
			<psa10 value="0" flag="1"/>
