<?xml version="1.0" encoding="UTF-8" standalone="yes"?>
<!DOCTYPE earthquake SYSTEM "stationlist.dtd">
<stationlist created="" xmlns="ch.ethz.sed.shakemap.usgs.xml">
  <station code="ITM" name="ITM" netid="HL" insttype="DR24" lat="37.1787" lon="21.9252">
    <comp name="--.HHE">
      <acc value="0.0043655004" flag="0"/>
      <vel value="0.0028124314" flag="0"/>
      <psa03 value="0.0146379535" flag="0"/>
      <psa10 value="0.0033996797" flag="0"/>
      <psa30 value="0.0010340942" flag="0"/>
    </comp>
    <comp name="--.HHN">
      <acc value="0.0054319461" flag="0"/>
      <vel value="0.0031529675" flag="0"/>
      <psa03 value="0.0110280698" flag="0"/>
      <psa10 value="0.0022432252" flag="0"/>
      <psa30 value="0.0016790120" flag="0"/>
    </comp>
    <comp name="--.HHZ">
      <acc value="0.0021446899" flag="0"/>
      <vel value="0.0021391302" flag="0"/>
      <psa03 value="0.0060697600" flag="0"/>
      <psa10 value="0.0027457011" flag="0"/>
      <psa30 value="0.0008432162" flag="0"/>
    </comp>
  </station>
  <station code="ORTH" name="ORTH" netid="HL" insttype="30" lat="37.8511" lon="20.6963">
    <comp name="--.HHE">
      <acc value="0.0354950877" flag="0"/>
      <vel value="0.0142728413" flag="0"/>
      <psa03 value="0.0733569889" flag="0"/>
      <psa10 value="0.0126595475" flag="0"/>
      <psa30 value="0.0008334594" flag="0"/>
    </comp>
    <comp name="--.HHN">
      <acc value="0.0274103555" flag="0"/>
      <vel value="0.0144565514" flag="0"/>
      <psa03 value="0.0500427244" flag="0"/>
      <psa10 value="0.0128963900" flag="0"/>
      <psa30 value="0.0008418273" flag="0"/>
    </comp>
    <comp name="--.HHZ">
      <acc value="0.0206839045" flag="0"/>
      <vel value="0.0082472000" flag="0"/>
      <psa03 value="0.0311582503" flag="0"/>
      <psa10 value="0.0087410382" flag="0"/>
      <psa30 value="0.0002994796" flag="0"/>
    </comp>
  </station>
  <station code="RLS" name="RLS" netid="HL" insttype="CMG3ESPC-120s" lat="38.0559" lon="21.4647">
    <comp name="--.HHE">
      <acc value="0.0033290306" flag="0"/>
      <vel value="0.0025080338" flag="0"/>
      <psa03 value="0.0091350577" flag="0"/>
      <psa10 value="0.0040773102" flag="0"/>
      <psa30 value="0.0007003312" flag="0"/>
    </comp>
    <comp name="--.HHN">
      <acc value="0.0035494637" flag="0"/>
      <vel value="0.0027700718" flag="0"/>
      <psa03 value="0.0084276985" flag="0"/>
      <psa10 value="0.0038710290" flag="0"/>
      <psa30 value="0.0006372296" flag="0"/>
    </comp>
    <comp name="--.HHZ">
      <acc value="0.0017329476" flag="0"/>
      <vel value="0.0017594980" flag="0"/>
      <psa03 value="0.0051833393" flag="0"/>
      <psa10 value="0.0026431041" flag="0"/>
      <psa30 value="0.0008728572" flag="0"/>
    </comp>
  </station>
  <station code="VLS" name="VLS" netid="HL" insttype="120P," lat="38.1768" lon="20.5886">
    <comp name="--.HHE">
      <acc value="0.0114516600" flag="0"/>
      <vel value="0.0053976014" flag="0"/>
      <psa03 value="0.0189813388" flag="0"/>
      <psa10 value="0.0070385896" flag="0"/>
      <psa30 value="0.0007035544" flag="0"/>
    </comp>
    <comp name="--.HHN">
      <acc value="0.0101459724" flag="0"/>
      <vel value="0.0047803279" flag="0"/>
      <psa03 value="0.0185927953" flag="0"/>
      <psa10 value="0.0084362336" flag="0"/>
      <psa30 value="0.0006806889" flag="0"/>
    </comp>
    <comp name="--.HHZ">
      <acc value="0.0061457228" flag="0"/>
      <vel value="0.0040482781" flag="0"/>
      <psa03 value="0.0132978059" flag="0"/>
      <psa10 value="0.0049819159" flag="0"/>
      <psa30 value="0.0008087396" flag="0"/>
    </comp>
  </station>
  <station code="DMLN" name="DMLN" netid="HT" insttype="1s-100Hz," lat="38.2385" lon="20.3734">
    <comp name="--.HHE">
      <acc value="0.0156868348" flag="0"/>
      <vel value="0.0170122837" flag="0"/>
      <psa03 value="0.0384565057" flag="0"/>
      <psa10 value="0.0207875037" flag="0"/>
      <psa30 value="0.0026499861" flag="0"/>
    </comp>
    <comp name="--.HHN">
      <acc value="0.0126648905" flag="0"/>
      <vel value="0.0119366963" flag="0"/>
      <psa03 value="0.0376646804" flag="0"/>
      <psa10 value="0.0216148566" flag="0"/>
      <psa30 value="0.0017910011" flag="0"/>
    </comp>
    <comp name="--.HHZ">
      <acc value="0.0083206932" flag="0"/>
      <vel value="0.0063912473" flag="0"/>
      <psa03 value="0.0199083917" flag="0"/>
      <psa10 value="0.0070979039" flag="0"/>
      <psa30 value="0.0011097494" flag="0"/>
    </comp>
  </station>
  <station code="RTZL" name="RTZL" netid="HT" insttype="Compact," lat="38.076" lon="20.7715">
    <comp name="--.HHN">
      <acc value="0.0083618584" flag="0"/>
      <vel value="0.0054677322" flag="0"/>
      <psa03 value="0.0186921140" flag="0"/>
      <psa10 value="0.0103187208" flag="0"/>
      <psa30 value="0.0007692838" flag="0"/>
    </comp>
    <comp name="--.HHE">
      <acc value="0.0088829181" flag="0"/>
      <vel value="0.0052525852" flag="0"/>
      <psa03 value="0.0170043159" flag="0"/>
      <psa10 value="0.0073572069" flag="0"/>
      <psa30 value="0.0008814229" flag="0"/>
    </comp>
    <comp name="--.HHZ">
      <acc value="0.0043665118" flag="0"/>
      <vel value="0.0025854836" flag="0"/>
      <psa03 value="0.0086769641" flag="0"/>
      <psa10 value="0.0044242705" flag="0"/>
      <psa30 value="0.0012499146" flag="0"/>
    </comp>
  </station>
</stationlist>
