<stationlist created="1778069633">
	<station code="PYL1" name="PYL1" netid="HI" source="ITSAK Strong Motion Network" insttype="" lat="36.914188" lon="21.695161">
		<comp name="--.HNE" depth="0.0">
			<acc value="0.00500726756450551" flag="0"/>
			<vel value="0.00275622984328001" flag="0"/>
			<psa03 value="0.0134226619854815" flag="0"/>
			<psa10 value="0.00258520469840374" flag="0"/>
			<psa30 value="0.000604467211412851" flag="0"/>
		</comp>
		<comp name="--.HNN" depth="0.0">
			<acc value="0.00388511712753625" flag="0"/>
			<vel value="0.00314478692985757" flag="0"/>
			<psa03 value="0.00979854324940151" flag="0"/>
			<psa10 value="0.0023274895882825" flag="0"/>
			<psa30 value="0.000927058521130591" flag="0"/>
		</comp>
		<comp name="--.HNZ" depth="0.0">
			<acc value="0.00296036390775687" flag="0"/>
			<vel value="0.00166029392061078" flag="0"/>
			<psa03 value="0.00599545568684842" flag="0"/>
			<psa10 value="0.0023274895882825" flag="0"/>
			<psa30 value="0.000489479740403893" flag="0"/>
		</comp>
	</station>
	<station code="VAS2" name="VAS2" netid="HI" source="ITSAK Strong Motion Network" insttype="" lat="38.630558" lon="20.608081">
		<comp name="--.HNE" depth="0.0">
			<acc value="0.0153979136917711" flag="0"/>
			<vel value="0.018286965002994" flag="0"/>
			<psa03 value="0.0244739870201947" flag="0"/>
			<psa10 value="0.044782027182162" flag="0"/>
			<psa30 value="0.00231406692629701" flag="0"/>
		</comp>
		<comp name="--.HNN" depth="0.0">
			<acc value="0.0151078048393295" flag="0"/>
			<vel value="0.0224562955004258" flag="0"/>
			<psa03 value="0.0299772784342421" flag="0"/>
			<psa10 value="0.0516920135722879" flag="0"/>
			<psa30 value="0.00236149366531238" flag="0"/>
		</comp>
		<comp name="--.HNZ" depth="0.0">
			<acc value="0.00931818718881349" flag="0"/>
			<vel value="0.00971111335076325" flag="0"/>
			<psa03 value="0.0154360612833038" flag="0"/>
			<psa10 value="0.0142508402299857" flag="0"/>
			<psa30 value="0.00097135330568268" flag="0"/>
		</comp>
	</station>
	<station code="ANX" name="ANX" netid="HP" source="University of Patras, Seismological Laboratory (PSLNET)" insttype="" lat="38.5933" lon="21.9209">
		<comp name="--.HNE" depth="0.0">
			<acc value="0.00348873415396534" flag="0"/>
			<vel value="0.0032614668426412" flag="0"/>
			<psa03 value="0.00761578510733694" flag="0"/>
			<psa10 value="0.00480646934250169" flag="0"/>
			<psa30 value="0.000604017044416767" flag="0"/>
		</comp>
		<comp name="--.HNN" depth="0.0">
			<acc value="0.00361856621569421" flag="0"/>
			<vel value="0.00377839250672948" flag="0"/>
			<psa03 value="0.00625343183727584" flag="0"/>
			<psa10 value="0.0056813366731577" flag="0"/>
			<psa30 value="0.000696615001490503" flag="0"/>
		</comp>
		<comp name="--.HNZ" depth="0.0">
			<acc value="0.00335880312539224" flag="0"/>
			<vel value="0.00180753378613432" flag="0"/>
			<psa03 value="0.00425335500608163" flag="0"/>
			<psa10 value="0.00269548942231945" flag="0"/>
			<psa30 value="0.00058307914696416" flag="0"/>
		</comp>
	</station>
</stationlist>
