<?xml version="1.0" encoding="UTF-8" standalone="yes"?>
<!DOCTYPE earthquake SYSTEM "stationlist.dtd">
<stationlist created="" xmlns="ch.ethz.sed.shakemap.usgs.xml">
  <station code="CEYT" name="CEYT" netid="KO" insttype="CMG-3ESP" lat="37.0105" lon="35.7478">
    <comp name="--.HHZ">
      <acc value="0.0061857419" flag="0"/>
      <vel value="0.0039924390" flag="0"/>
      <psa03 value="0.0152525768" flag="0"/>
      <psa10 value="0.0057127304" flag="0"/>
      <psa30 value="0.0008608419" flag="0"/>
    </comp>
    <comp name="--.HHE">
      <acc value="0.0077674734" flag="0"/>
      <vel value="0.0072756900" flag="0"/>
      <psa03 value="0.0332315039" flag="0"/>
      <psa10 value="0.0154166896" flag="0"/>
      <psa30 value="0.0006417442" flag="0"/>
    </comp>
    <comp name="--.HHN">
      <acc value="0.0078778211" flag="0"/>
      <vel value="0.0052003795" flag="0"/>
      <psa03 value="0.0252168751" flag="0"/>
      <psa10 value="0.0075041713" flag="0"/>
      <psa30 value="0.0005463488" flag="0"/>
    </comp>
  </station>
  <station code="IKL" name="IKL" netid="KO" insttype="CMG-3ESPC" lat="36.2366" lon="33.6845">
    <comp name="--.HHE">
      <acc value="0.1505455623" flag="0"/>
      <vel value="0.0367558783" flag="0"/>
      <psa03 value="0.1738280819" flag="0"/>
      <psa10 value="0.0149370816" flag="0"/>
      <psa30 value="0.0009666209" flag="0"/>
    </comp>
    <comp name="--.HHZ">
      <acc value="0.1670973735" flag="0"/>
      <vel value="0.0460308652" flag="0"/>
      <psa03 value="0.1844225311" flag="0"/>
      <psa10 value="0.0222148596" flag="0"/>
      <psa30 value="0.0012606865" flag="0"/>
    </comp>
    <comp name="--.HHN">
      <acc value="0.1533635983" flag="0"/>
      <vel value="0.0450132948" flag="0"/>
      <psa03 value="0.1887630976" flag="0"/>
      <psa10 value="0.0153304510" flag="0"/>
      <psa30 value="0.0011791306" flag="0"/>
    </comp>
  </station>
  <station code="KRTS" name="KRTS" netid="KO" insttype="CMG-5T" lat="36.573" lon="35.375">
    <comp name="--.HNZ">
      <acc value="0.0188013270" flag="0"/>
      <vel value="0.0098150041" flag="0"/>
      <psa03 value="0.0297967034" flag="0"/>
      <psa10 value="0.0151459996" flag="0"/>
      <psa30 value="0.0020604406" flag="0"/>
    </comp>
    <comp name="--.HNN">
      <acc value="0.0376767182" flag="0"/>
      <vel value="0.0174743897" flag="0"/>
      <psa03 value="0.0629398791" flag="0"/>
      <psa10 value="0.0218492500" flag="0"/>
      <psa30 value="0.0014483799" flag="0"/>
    </comp>
    <comp name="--.HNE">
      <acc value="0.0180971091" flag="0"/>
      <vel value="0.0091694648" flag="0"/>
      <psa03 value="0.0451846789" flag="0"/>
      <psa10 value="0.0141070860" flag="0"/>
      <psa30 value="0.0013635953" flag="0"/>
    </comp>
  </station>
  <station code="MERS" name="MERS" netid="KO" insttype="CMG-3T" lat="36.8678" lon="34.522">
    <comp name="--.HHN">
      <acc value="0.2087785511" flag="0"/>
      <vel value="0.0478304819" flag="0"/>
      <psa03 value="0.2533667643" flag="0"/>
      <psa10 value="0.0251503337" flag="0"/>
      <psa30 value="0.0017115270" flag="0"/>
    </comp>
    <comp name="--.HHE">
      <acc value="0.1916087818" flag="0"/>
      <vel value="0.0364664341" flag="0"/>
      <psa03 value="0.2234298818" flag="0"/>
      <psa10 value="0.0288300454" flag="0"/>
      <psa30 value="0.0018402961" flag="0"/>
    </comp>
    <comp name="--.HHZ">
      <acc value="0.1006603583" flag="0"/>
      <vel value="0.0304099388" flag="0"/>
      <psa03 value="0.1309917567" flag="0"/>
      <psa10 value="0.0194994414" flag="0"/>
      <psa30 value="0.0012798926" flag="0"/>
    </comp>
  </station>
  <station code="SLFK" name="SLFK" netid="KO" insttype="CMG-5T" lat="36.3925" lon="33.9464">
    <comp name="--.HNE">
      <acc value="1.5333478746" flag="0"/>
      <vel value="0.3172248854" flag="0"/>
      <psa03 value="1.0962062413" flag="0"/>
      <psa10 value="0.0855807162" flag="0"/>
      <psa30 value="0.0068189238" flag="0"/>
    </comp>
    <comp name="--.HNZ">
      <acc value="0.8441228639" flag="0"/>
      <vel value="0.1609071558" flag="0"/>
      <psa03 value="0.6458728834" flag="0"/>
      <psa10 value="0.0982920194" flag="0"/>
      <psa30 value="0.0047525867" flag="0"/>
    </comp>
    <comp name="--.HNN">
      <acc value="0.8895349568" flag="0"/>
      <vel value="0.1997337947" flag="0"/>
      <psa03 value="1.0358935190" flag="0"/>
      <psa10 value="0.0732679839" flag="0"/>
      <psa30 value="0.0058728156" flag="0"/>
    </comp>
  </station>
</stationlist>
