<?xml version="1.0" encoding="UTF-8" standalone="yes"?>
<!DOCTYPE earthquake SYSTEM "stationlist.dtd">
<stationlist created="" xmlns="ch.ethz.sed.shakemap.usgs.xml">
  <station code="KMRS" name="KMRS" netid="KO" insttype="CMG-3T" lat="37.5053" lon="36.9">
    <comp name="--.HHE">
      <acc value="0.0472921414" flag="0"/>
      <vel value="0.0294592809" flag="0"/>
      <psa03 value="0.1070325946" flag="0"/>
      <psa10 value="0.0187298966" flag="0"/>
      <psa30 value="0.0013381908" flag="0"/>
    </comp>
    <comp name="--.HHZ">
      <acc value="0.0598417787" flag="0"/>
      <vel value="0.0256581368" flag="0"/>
      <psa03 value="0.1711204209" flag="0"/>
      <psa10 value="0.0088346577" flag="0"/>
      <psa30 value="0.0010835149" flag="0"/>
    </comp>
    <comp name="--.HHN">
      <acc value="0.1017222165" flag="0"/>
      <vel value="0.0566476751" flag="0"/>
      <psa03 value="0.3321426996" flag="0"/>
      <psa10 value="0.0193836060" flag="0"/>
      <psa30 value="0.0015594283" flag="0"/>
    </comp>
  </station>
  <station code="SARI" name="SARI" netid="KO" insttype="CMG-3T" lat="38.4072" lon="36.4181">
    <comp name="--.HHN">
      <acc value="0.0903840594" flag="0"/>
      <vel value="0.0168291961" flag="0"/>
      <psa03 value="0.0610245765" flag="0"/>
      <psa10 value="0.0154446368" flag="0"/>
      <psa30 value="0.0012045607" flag="0"/>
    </comp>
    <comp name="--.HHZ">
      <acc value="0.0723698492" flag="0"/>
      <vel value="0.0192518691" flag="0"/>
      <psa03 value="0.0583529276" flag="0"/>
      <psa10 value="0.0168494676" flag="0"/>
      <psa30 value="0.0015637109" flag="0"/>
    </comp>
  </station>
  <station code="ANDN" name="ANDN" netid="TU" insttype="T" lat="37.58" lon="36.3452">
    <comp name="--.HHE">
      <acc value="0.1030551721" flag="0"/>
      <vel value="0.0441545010" flag="0"/>
      <psa03 value="0.1930843398" flag="0"/>
      <psa10 value="0.0291330040" flag="0"/>
      <psa30 value="0.0030134934" flag="0"/>
    </comp>
    <comp name="--.HHN">
      <acc value="0.1700626623" flag="0"/>
      <vel value="0.0581777427" flag="0"/>
      <psa03 value="0.4780043165" flag="0"/>
      <psa10 value="0.0666143035" flag="0"/>
      <psa30 value="0.0024790449" flag="0"/>
    </comp>
    <comp name="--.HHZ">
      <acc value="0.0566600535" flag="0"/>
      <vel value="0.0340080367" flag="0"/>
      <psa03 value="0.1213299136" flag="0"/>
      <psa10 value="0.0458558731" flag="0"/>
      <psa30 value="0.0021806201" flag="0"/>
    </comp>
  </station>
</stationlist>
