<?xml version="1.0" encoding="UTF-8" standalone="yes"?>
<!DOCTYPE earthquake SYSTEM "stationlist.dtd">
<stationlist created="" xmlns="ch.ethz.sed.shakemap.usgs.xml">
  <station code="DARE" name="DARE" netid="KO" insttype="CMG-3ESP" lat="38.5712" lon="37.4832">
    <comp name="--.HHE">
      <acc value="0.0879742645" flag="0"/>
      <vel value="0.0227115072" flag="0"/>
      <psa03 value="0.0800695265" flag="0"/>
      <psa10 value="0.0150907390" flag="0"/>
      <psa30 value="0.0013135864" flag="0"/>
    </comp>
  </station>
  <station code="GAZ" name="GAZ" netid="KO" insttype="CMG-3T" lat="37.1721" lon="37.2096">
    <comp name="--.HHE">
      <acc value="0.0429602612" flag="0"/>
      <vel value="0.0143743444" flag="0"/>
      <psa03 value="0.0435420212" flag="0"/>
      <psa10 value="0.0132060361" flag="0"/>
      <psa30 value="0.0008843427" flag="0"/>
    </comp>
    <comp name="--.HHN">
      <acc value="0.0317028444" flag="0"/>
      <vel value="0.0123760051" flag="0"/>
      <psa03 value="0.0648240835" flag="0"/>
      <psa10 value="0.0143590475" flag="0"/>
      <psa30 value="0.0011665512" flag="0"/>
    </comp>
    <comp name="--.HHZ">
      <acc value="0.0311942951" flag="0"/>
      <vel value="0.0135262442" flag="0"/>
      <psa03 value="0.0517960667" flag="0"/>
      <psa10 value="0.0131066538" flag="0"/>
      <psa30 value="0.0008998609" flag="0"/>
    </comp>
  </station>
  <station code="KHMN" name="KHMN" netid="KO" insttype="CMG-5T" lat="37.3916" lon="37.1574">
    <comp name="--.HNE">
      <acc value="0.0617343885" flag="0"/>
      <vel value="0.0165741380" flag="0"/>
      <psa03 value="0.0899341477" flag="0"/>
      <psa10 value="0.0149486494" flag="0"/>
      <psa30 value="0.0014131151" flag="0"/>
    </comp>
    <comp name="--.HNZ">
      <acc value="0.0542313143" flag="0"/>
      <vel value="0.0109518455" flag="0"/>
      <psa03 value="0.0473837632" flag="0"/>
      <psa10 value="0.0066887965" flag="0"/>
      <psa30 value="0.0013109095" flag="0"/>
    </comp>
    <comp name="--.HNN">
      <acc value="0.0743348881" flag="0"/>
      <vel value="0.0218705336" flag="0"/>
      <psa03 value="0.0664907352" flag="0"/>
      <psa10 value="0.0078329234" flag="0"/>
      <psa30 value="0.0014303238" flag="0"/>
    </comp>
  </station>
  <station code="URFA" name="URFA" netid="KO" insttype="CMG-3ESP" lat="37.4409" lon="38.8213">
    <comp name="--.HHN">
      <acc value="0.0180929016" flag="0"/>
      <vel value="0.0074538201" flag="0"/>
      <psa03 value="0.0297639233" flag="0"/>
      <psa10 value="0.0064031731" flag="0"/>
      <psa30 value="0.0011022607" flag="0"/>
    </comp>
    <comp name="--.HHZ">
      <acc value="0.0134318561" flag="0"/>
      <vel value="0.0037471614" flag="0"/>
      <psa03 value="0.0200015680" flag="0"/>
      <psa10 value="0.0057847867" flag="0"/>
      <psa30 value="0.0006729451" flag="0"/>
    </comp>
  </station>
  <station code="ANDN" name="ANDN" netid="TU" insttype="T" lat="37.58" lon="36.3452">
    <comp name="--.HHE">
      <acc value="0.1518832181" flag="0"/>
      <vel value="0.0597765390" flag="0"/>
      <psa03 value="0.3040492478" flag="0"/>
      <psa10 value="0.0395469441" flag="0"/>
      <psa30 value="0.0028107621" flag="0"/>
    </comp>
    <comp name="--.HHZ">
      <acc value="0.0863133554" flag="0"/>
      <vel value="0.0437539608" flag="0"/>
      <psa03 value="0.2345989625" flag="0"/>
      <psa10 value="0.0326960247" flag="0"/>
      <psa30 value="0.0022627931" flag="0"/>
    </comp>
    <comp name="--.HHN">
      <acc value="0.3620510260" flag="0"/>
      <vel value="0.1162624453" flag="0"/>
      <psa03 value="0.4136270425" flag="0"/>
      <psa10 value="0.0431763405" flag="0"/>
      <psa30 value="0.0040184186" flag="0"/>
    </comp>
  </station>
</stationlist>
