<?xml version="1.0" encoding="UTF-8" standalone="yes"?>
<!DOCTYPE earthquake SYSTEM "stationlist.dtd">
<stationlist created="" xmlns="ch.ethz.sed.shakemap.usgs.xml">
  <station code="ARPRA" name="ARPRA" netid="KO" insttype="CMG-5T" lat="39.0929" lon="38.3356">
    <comp name="--.HNN">
      <acc value="0.0206454964" flag="0"/>
      <vel value="0.0185911866" flag="0"/>
      <psa03 value="0.0519762650" flag="0"/>
      <psa10 value="0.0303074985" flag="0"/>
      <psa30 value="0.0014960223" flag="0"/>
    </comp>
    <comp name="--.HNZ">
      <acc value="0.0106674156" flag="0"/>
      <vel value="0.0086806327" flag="0"/>
      <psa03 value="0.0325574650" flag="0"/>
      <psa10 value="0.0206579577" flag="0"/>
      <psa30 value="0.0010519982" flag="0"/>
    </comp>
    <comp name="--.HNE">
      <acc value="0.0182809664" flag="0"/>
      <vel value="0.0108945359" flag="0"/>
      <psa03 value="0.0461380922" flag="0"/>
      <psa10 value="0.0144270953" flag="0"/>
      <psa30 value="0.0021227674" flag="0"/>
    </comp>
  </station>
  <station code="BNN" name="BNN" netid="KO" insttype="CMG-3T" lat="38.8521" lon="35.8472">
    <comp name="--.HHN">
      <acc value="0.0101023891" flag="0"/>
      <vel value="0.0061334396" flag="0"/>
      <psa03 value="0.0260070372" flag="0"/>
      <psa10 value="0.0070398869" flag="0"/>
      <psa30 value="0.0007738756" flag="0"/>
    </comp>
    <comp name="--.HHZ">
      <acc value="0.0059188404" flag="0"/>
      <vel value="0.0044946195" flag="0"/>
      <psa03 value="0.0182384555" flag="0"/>
      <psa10 value="0.0047799779" flag="0"/>
      <psa30 value="0.0002874512" flag="0"/>
    </comp>
    <comp name="--.HHE">
      <acc value="0.0161597432" flag="0"/>
      <vel value="0.0122942532" flag="0"/>
      <psa03 value="0.0234388451" flag="0"/>
      <psa10 value="0.0149223986" flag="0"/>
      <psa30 value="0.0008838577" flag="0"/>
    </comp>
  </station>
  <station code="DARE" name="DARE" netid="KO" insttype="CMG-3ESP" lat="38.5712" lon="37.4832">
    <comp name="--.HHE">
      <acc value="0.0879742644" flag="0"/>
      <vel value="0.0227115060" flag="0"/>
      <psa03 value="0.0800695265" flag="0"/>
      <psa10 value="0.0150907393" flag="0"/>
      <psa30 value="0.0013136131" flag="0"/>
    </comp>
  </station>
  <station code="GAZ" name="GAZ" netid="KO" insttype="CMG-3T" lat="37.1721" lon="37.2096">
    <comp name="--.HHE">
      <acc value="0.0429602616" flag="0"/>
      <vel value="0.0143743449" flag="0"/>
      <psa03 value="0.0435420212" flag="0"/>
      <psa10 value="0.0132060361" flag="0"/>
      <psa30 value="0.0008843457" flag="0"/>
    </comp>
    <comp name="--.HHN">
      <acc value="0.0317028449" flag="0"/>
      <vel value="0.0123760041" flag="0"/>
      <psa03 value="0.0648240835" flag="0"/>
      <psa10 value="0.0143590475" flag="0"/>
      <psa30 value="0.0011665636" flag="0"/>
    </comp>
    <comp name="--.HHZ">
      <acc value="0.0311942939" flag="0"/>
      <vel value="0.0135262439" flag="0"/>
      <psa03 value="0.0517960667" flag="0"/>
      <psa10 value="0.0131066526" flag="0"/>
      <psa30 value="0.0008998600" flag="0"/>
    </comp>
  </station>
  <station code="KHMN" name="KHMN" netid="KO" insttype="CMG-5T" lat="37.3916" lon="37.1574">
    <comp name="--.HNE">
      <acc value="0.0617343897" flag="0"/>
      <vel value="0.0165741231" flag="0"/>
      <psa03 value="0.0899341477" flag="0"/>
      <psa10 value="0.0149486496" flag="0"/>
      <psa30 value="0.0014130617" flag="0"/>
    </comp>
    <comp name="--.HNN">
      <acc value="0.0743348912" flag="0"/>
      <vel value="0.0218705246" flag="0"/>
      <psa03 value="0.0664907352" flag="0"/>
      <psa10 value="0.0078329264" flag="0"/>
      <psa30 value="0.0014303671" flag="0"/>
    </comp>
    <comp name="--.HNZ">
      <acc value="0.0542312693" flag="0"/>
      <vel value="0.0109518441" flag="0"/>
      <psa03 value="0.0473837632" flag="0"/>
      <psa10 value="0.0066887928" flag="0"/>
      <psa30 value="0.0013107709" flag="0"/>
    </comp>
  </station>
  <station code="SARI" name="SARI" netid="KO" insttype="CMG-3T" lat="38.4072" lon="36.4181">
    <comp name="--.HHE">
      <acc value="0.0954209383" flag="0"/>
      <vel value="0.0329210595" flag="0"/>
      <psa03 value="0.1340856677" flag="0"/>
      <psa10 value="0.0226434276" flag="0"/>
      <psa30 value="0.0011540814" flag="0"/>
    </comp>
    <comp name="--.HHN">
      <acc value="0.0979045553" flag="0"/>
      <vel value="0.0372650949" flag="0"/>
      <psa03 value="0.2800297506" flag="0"/>
      <psa10 value="0.0378805905" flag="0"/>
      <psa30 value="0.0013031484" flag="0"/>
    </comp>
  </station>
  <station code="ANDN" name="ANDN" netid="TU" insttype="T" lat="37.58" lon="36.3452">
    <comp name="--.HHE">
      <acc value="0.1518832181" flag="0"/>
      <vel value="0.0597765389" flag="0"/>
      <psa03 value="0.3040492478" flag="0"/>
      <psa10 value="0.0395469441" flag="0"/>
      <psa30 value="0.0028107694" flag="0"/>
    </comp>
    <comp name="--.HHN">
      <acc value="0.3620510264" flag="0"/>
      <vel value="0.1162624449" flag="0"/>
      <psa03 value="0.4136270425" flag="0"/>
      <psa10 value="0.0431763405" flag="0"/>
      <psa30 value="0.0040184177" flag="0"/>
    </comp>
    <comp name="--.HHZ">
      <acc value="0.0863133557" flag="0"/>
      <vel value="0.0437539603" flag="0"/>
      <psa03 value="0.2345989625" flag="0"/>
      <psa10 value="0.0326960247" flag="0"/>
      <psa30 value="0.0022627595" flag="0"/>
    </comp>
  </station>
</stationlist>
