<?xml version="1.0" encoding="UTF-8" standalone="yes"?>
<!DOCTYPE earthquake SYSTEM "stationlist.dtd">
<stationlist created="" xmlns="ch.ethz.sed.shakemap.usgs.xml">
  <station code="GURO" name="GURO" netid="KO" insttype="CMG-3T" lat="38.5509" lon="42.0322">
    <comp name="--.HHE">
      <acc value="0.0090583169" flag="0"/>
      <vel value="0.0034968836" flag="0"/>
      <psa03 value="0.0161352176" flag="0"/>
      <psa10 value="0.0040839036" flag="0"/>
      <psa30 value="0.0002247599" flag="0"/>
    </comp>
    <comp name="--.HHZ">
      <acc value="0.0086211112" flag="0"/>
      <vel value="0.0028742525" flag="0"/>
      <psa03 value="0.0164137675" flag="0"/>
      <psa10 value="0.0024178305" flag="0"/>
      <psa30 value="0.0002717571" flag="0"/>
    </comp>
    <comp name="--.HHN">
      <acc value="0.0101199009" flag="0"/>
      <vel value="0.0034662434" flag="0"/>
      <psa03 value="0.0207896155" flag="0"/>
      <psa10 value="0.0028359443" flag="0"/>
      <psa30 value="0.0003324633" flag="0"/>
    </comp>
  </station>
  <station code="KARO" name="KARO" netid="KO" insttype="CMG-3T" lat="39.3089" lon="41.0493">
    <comp name="--.HHE">
      <acc value="0.1666149974" flag="0"/>
      <vel value="0.0642316891" flag="0"/>
      <psa03 value="0.3109320960" flag="0"/>
      <psa10 value="0.0477695936" flag="0"/>
      <psa30 value="0.0033340937" flag="0"/>
    </comp>
    <comp name="--.HHN">
      <acc value="0.2239046383" flag="0"/>
      <vel value="0.1104601148" flag="0"/>
      <psa03 value="0.2928564942" flag="0"/>
      <psa10 value="0.0495668494" flag="0"/>
      <psa30 value="0.0045799800" flag="0"/>
    </comp>
    <comp name="--.HHZ">
      <acc value="0.1189331511" flag="0"/>
      <vel value="0.0329378159" flag="0"/>
      <psa03 value="0.1758457416" flag="0"/>
      <psa10 value="0.0249284530" flag="0"/>
      <psa30 value="0.0025952316" flag="0"/>
    </comp>
  </station>
  <station code="SVAN" name="SVAN" netid="KO" insttype="CMG-3T" lat="38.1511" lon="41.1984">
    <comp name="--.HHE">
      <acc value="0.0046017544" flag="0"/>
      <vel value="0.0025445744" flag="0"/>
      <psa03 value="0.0109233329" flag="0"/>
      <psa10 value="0.0030928553" flag="0"/>
      <psa30 value="0.0005465811" flag="0"/>
    </comp>
    <comp name="--.HHN">
      <acc value="0.0025320078" flag="0"/>
      <vel value="0.0013127806" flag="0"/>
      <psa03 value="0.0072060629" flag="0"/>
      <psa10 value="0.0019395229" flag="0"/>
      <psa30 value="0.0002719438" flag="0"/>
    </comp>
    <comp name="--.HHZ">
      <acc value="0.0027075400" flag="0"/>
      <vel value="0.0018625771" flag="0"/>
      <psa03 value="0.0079088068" flag="0"/>
      <psa10 value="0.0021124565" flag="0"/>
      <psa30 value="0.0003377055" flag="0"/>
    </comp>
  </station>
  <station code="VRTB" name="VRTB" netid="KO" insttype="CMG-3ESPC" lat="39.1603" lon="41.4558">
    <comp name="--.HHE">
      <acc value="0.0085564574" flag="0"/>
      <vel value="0.0077946748" flag="0"/>
      <psa03 value="0.0191669384" flag="0"/>
      <psa10 value="0.0171471721" flag="0"/>
      <psa30 value="0.0026662268" flag="0"/>
    </comp>
    <comp name="--.HHN">
      <acc value="0.0229128249" flag="0"/>
      <vel value="0.0239038747" flag="0"/>
      <psa03 value="0.0632774678" flag="0"/>
      <psa10 value="0.0595307912" flag="0"/>
      <psa30 value="0.0064759452" flag="0"/>
    </comp>
    <comp name="--.HHZ">
      <acc value="0.0290556610" flag="0"/>
      <vel value="0.0239108483" flag="0"/>
      <psa03 value="0.0509850013" flag="0"/>
      <psa10 value="0.0591341565" flag="0"/>
      <psa30 value="0.0049445882" flag="0"/>
    </comp>
  </station>
</stationlist>
