<?xml version="1.0" encoding="UTF-8" standalone="yes"?>
<!DOCTYPE earthquake SYSTEM "stationlist.dtd">
<stationlist created="" xmlns="ch.ethz.sed.shakemap.usgs.xml">
  <station code="KARS" name="KARS" netid="KO" insttype="120s," lat="40.6152" lon="43.0937">
    <comp name="--.HHZ">
      <acc value="0.0202632366" flag="0"/>
      <vel value="0.0061730818" flag="0"/>
      <psa03 value="0.0175319442" flag="0"/>
      <psa10 value="0.0091770563" flag="0"/>
      <psa30 value="0.0011942829" flag="0"/>
    </comp>
    <comp name="--.HHE">
      <acc value="0.0286663825" flag="0"/>
      <vel value="0.0091780288" flag="0"/>
      <psa03 value="0.0385796655" flag="0"/>
      <psa10 value="0.0145383538" flag="0"/>
      <psa30 value="0.0015382099" flag="0"/>
    </comp>
    <comp name="--.HHN">
      <acc value="0.0339913532" flag="0"/>
      <vel value="0.0085942486" flag="0"/>
      <psa03 value="0.0379157221" flag="0"/>
      <psa10 value="0.0070012956" flag="0"/>
      <psa30 value="0.0024327806" flag="0"/>
    </comp>
  </station>
</stationlist>
