<stationlist xmlns:esm="https://esm-db.eu/esmws/shakemap/1/" created="1780710943">
	<station code="AKR1" name="AKR1" netid="HI" source="ITSAK Strong Motion Network" insttype="" lat="38.153583" lon="22.31326" esm:processing="automatic (Paolucci et al 2011)" esm:quality="best">
		<comp name="--.HNE" depth="0.0">
			<acc value="0.0196272673866546" flag="0"/>
			<vel value="0.00584331306537555" flag="0"/>
			<psa03 value="0.0329447475320062" flag="0"/>
			<psa10 value="0.00267416972874538" flag="0"/>
			<psa30 value="0.000146576584979394" flag="0"/>
		</comp>
		<comp name="--.HNN" depth="0.0">
			<acc value="0.0208266134508044" flag="0"/>
			<vel value="0.00585604443031236" flag="0"/>
			<psa03 value="0.0349549041325157" flag="0"/>
			<psa10 value="0.00139475782554833" flag="0"/>
			<psa30 value="0.000183518446258903" flag="0"/>
		</comp>
		<comp name="--.HNZ" depth="0.0">
			<acc value="0.0131018597013393" flag="0"/>
			<vel value="0.00432410729696523" flag="0"/>
			<psa03 value="0.0222983703867701" flag="0"/>
			<psa10 value="0.00113271191160508" flag="0"/>
			<psa30 value="7.85806352689328e-05" flag="0"/>
		</comp>
	</station>
	<station code="ARE2" name="ARE2" netid="HI" source="ITSAK Strong Motion Network" insttype="" lat="36.66629" lon="22.382635" esm:processing="automatic (Paolucci et al 2011)" esm:quality="best">
		<comp name="--.HNE" depth="0.0">
			<acc value="0.0119857831941257" flag="0"/>
			<vel value="0.00481637251441566" flag="0"/>
			<psa03 value="0.0395888934032291" flag="0"/>
			<psa10 value="0.00340817608743933" flag="0"/>
			<psa30 value="0.000157855261823882" flag="0"/>
		</comp>
		<comp name="--.HNN" depth="0.0">
			<acc value="0.0136476673706684" flag="0"/>
			<vel value="0.00517508953669717" flag="0"/>
			<psa03 value="0.0265256556320045" flag="0"/>
			<psa10 value="0.00229804301532155" flag="0"/>
			<psa30 value="0.000164089789414071" flag="0"/>
		</comp>
		<comp name="--.HNZ" depth="0.0">
			<acc value="0.00674238248573247" flag="0"/>
			<vel value="0.00247143910081676" flag="0"/>
			<psa03 value="0.0129414510576192" flag="0"/>
			<psa10 value="0.00129297409068792" flag="0"/>
			<psa30 value="0.000111246939876295" flag="0"/>
		</comp>
	</station>
	<station code="ARS1" name="ARS1" netid="HI" source="ITSAK Strong Motion Network" insttype="" lat="37.6349" lon="22.7293" esm:processing="manual (Paolucci et al 2011)" esm:quality="good">
		<comp name="--.HNE" depth="0.0">
			<acc value="0.0193812006252534" flag="0"/>
			<vel value="0.0092221313271051" flag="0"/>
			<psa03 value="0.0560619848926945" flag="0"/>
			<psa10 value="0.00587912594964091" flag="0"/>
			<psa30 value="0.000523036395367597" flag="0"/>
		</comp>
		<comp name="--.HNN" depth="0.0">
			<acc value="0.0284743806227676" flag="0"/>
			<vel value="0.0144417942459991" flag="0"/>
			<psa03 value="0.0656368171090047" flag="0"/>
			<psa10 value="0.00596771551874509" flag="0"/>
			<psa30 value="0.000522588973301414" flag="0"/>
		</comp>
		<comp name="--.HNZ" depth="0.0">
			<acc value="0.0174764651848897" flag="0"/>
			<vel value="0.00572890983956264" flag="0"/>
			<psa03 value="0.0331987173107576" flag="0"/>
			<psa10 value="0.00228722160232605" flag="0"/>
			<psa30 value="0.000356147964681443" flag="0"/>
		</comp>
	</station>
	<station code="ITE1" name="ITE1" netid="HI" source="ITSAK Strong Motion Network" insttype="" lat="38.4338" lon="22.4272" esm:processing="manual (Paolucci et al 2011)" esm:quality="good">
		<comp name="--.HNE" depth="0.0">
			<acc value="0.00874996409975607" flag="0"/>
			<vel value="0.00470960860572744" flag="0"/>
			<psa03 value="0.0369182295056861" flag="0"/>
			<psa10 value="0.00205970839869789" flag="0"/>
			<psa30 value="0.00014068236639134" flag="0"/>
		</comp>
		<comp name="--.HNN" depth="0.0">
			<acc value="0.00775071877582253" flag="0"/>
			<vel value="0.00453073627254096" flag="0"/>
			<psa03 value="0.025228655649621" flag="0"/>
			<psa10 value="0.00193090506142143" flag="0"/>
			<psa30 value="0.000136071227592692" flag="0"/>
		</comp>
		<comp name="--.HNZ" depth="0.0">
			<acc value="0.00673868888590035" flag="0"/>
			<vel value="0.00190367365139535" flag="0"/>
			<psa03 value="0.0115790287725793" flag="0"/>
			<psa10 value="0.000569528900369546" flag="0"/>
			<psa30 value="6.04168734151031e-05" flag="0"/>
		</comp>
	</station>
	<station code="KAL3" name="KAL3" netid="HI" source="ITSAK Strong Motion Network" insttype="" lat="37.0246" lon="22.103" esm:processing="manual (Paolucci et al 2011)" esm:quality="good">
		<comp name="--.HNE" depth="0.0">
			<acc value="0.0142036391338176" flag="0"/>
			<vel value="0.00754422461732154" flag="0"/>
			<psa03 value="0.0492526012847825" flag="0"/>
			<psa10 value="0.0072036576757173" flag="0"/>
			<psa30 value="0.000649181077977067" flag="0"/>
		</comp>
		<comp name="--.HNN" depth="0.0">
			<acc value="0.0194403085458076" flag="0"/>
			<vel value="0.0100830178131906" flag="0"/>
			<psa03 value="0.0615511555869802" flag="0"/>
			<psa10 value="0.00724227632776346" flag="0"/>
			<psa30 value="0.00116893014421858" flag="0"/>
		</comp>
		<comp name="--.HNZ" depth="0.0">
			<acc value="0.0101339424823759" flag="0"/>
			<vel value="0.00537161581733063" flag="0"/>
			<psa03 value="0.018665112774201" flag="0"/>
			<psa10 value="0.00679835098238801" flag="0"/>
			<psa30 value="0.000510952650188783" flag="0"/>
		</comp>
	</station>
	<station code="KOR2" name="KOR2" netid="HI" source="ITSAK Strong Motion Network" insttype="" lat="37.9401" lon="22.9495" esm:processing="automatic (Paolucci et al 2011)" esm:quality="best">
		<comp name="--.HNE" depth="0.0">
			<acc value="0.015239333806295" flag="0"/>
			<vel value="0.00851042771852841" flag="0"/>
			<psa03 value="0.0273965987443779" flag="0"/>
			<psa10 value="0.00708939229369652" flag="0"/>
			<psa30 value="0.000621145731189599" flag="0"/>
		</comp>
		<comp name="--.HNN" depth="0.0">
			<acc value="0.0180919532738487" flag="0"/>
			<vel value="0.00660498528502735" flag="0"/>
			<psa03 value="0.0228530191086925" flag="0"/>
			<psa10 value="0.0084335886838604" flag="0"/>
			<psa30 value="0.000735862028497964" flag="0"/>
		</comp>
		<comp name="--.HNZ" depth="0.0">
			<acc value="0.012307504525202" flag="0"/>
			<vel value="0.00436154764548247" flag="0"/>
			<psa03 value="0.0200221037098574" flag="0"/>
			<psa10 value="0.00392605398805863" flag="0"/>
			<psa30 value="0.000221455086979334" flag="0"/>
		</comp>
	</station>
	<station code="LEO1" name="LEO1" netid="HI" source="ITSAK Strong Motion Network" insttype="" lat="37.1689" lon="22.8637" esm:processing="manual (Paolucci et al 2011)" esm:quality="good">
		<comp name="--.HNE" depth="0.0">
			<acc value="0.0644575853085711" flag="0"/>
			<vel value="0.0101367699612286" flag="0"/>
			<psa03 value="0.035672162584868" flag="0"/>
			<psa10 value="0.00237622772592492" flag="0"/>
			<psa30 value="0.000165166657626305" flag="0"/>
		</comp>
		<comp name="--.HNN" depth="0.0">
			<acc value="0.0501896964335959" flag="0"/>
			<vel value="0.00805781552224439" flag="0"/>
			<psa03 value="0.0345689410643566" flag="0"/>
			<psa10 value="0.0032942709636589" flag="0"/>
			<psa30 value="0.0001529121869736" flag="0"/>
		</comp>
		<comp name="--.HNZ" depth="0.0">
			<acc value="0.0448735927313611" flag="0"/>
			<vel value="0.008235353432992" flag="0"/>
			<psa03 value="0.0258808446872773" flag="0"/>
			<psa10 value="0.00179197288909686" flag="0"/>
			<psa30 value="0.000105688192730328" flag="0"/>
		</comp>
	</station>
	<station code="MGP1" name="MGP1" netid="HI" source="ITSAK Strong Motion Network" insttype="" lat="37.403248" lon="22.140703" esm:processing="manual (Paolucci et al 2011)" esm:quality="good">
		<comp name="--.HNE" depth="0.0">
			<acc value="0.0148205670239295" flag="0"/>
			<vel value="0.0121690469504556" flag="0"/>
			<psa03 value="0.0422670499846255" flag="0"/>
			<psa10 value="0.00885880685247721" flag="0"/>
			<psa30 value="0.00114913945818275" flag="0"/>
		</comp>
		<comp name="--.HNN" depth="0.0">
			<acc value="0.0142980521760805" flag="0"/>
			<vel value="0.00888911955410468" flag="0"/>
			<psa03 value="0.0337829541007444" flag="0"/>
			<psa10 value="0.00923752006536893" flag="0"/>
			<psa30 value="0.000845844158024281" flag="0"/>
		</comp>
		<comp name="--.HNZ" depth="0.0">
			<acc value="0.00781294458478237" flag="0"/>
			<vel value="0.00328558057100692" flag="0"/>
			<psa03 value="0.0141808456614291" flag="0"/>
			<psa10 value="0.00516228213210608" flag="0"/>
			<psa30 value="0.000603633685685863" flag="0"/>
		</comp>
	</station>
	<station code="NMA1" name="NMA1" netid="HI" source="ITSAK Strong Motion Network" insttype="" lat="37.81873" lon="22.662702" esm:processing="manual (Paolucci et al 2011)" esm:quality="good">
		<comp name="--.HNE" depth="0.0">
			<acc value="0.021488756897111" flag="0"/>
			<vel value="0.00627914618673088" flag="0"/>
			<psa03 value="0.0421622696059397" flag="0"/>
			<psa10 value="0.00328114509413446" flag="0"/>
			<psa30 value="0.000358632064905892" flag="0"/>
		</comp>
		<comp name="--.HNN" depth="0.0">
			<acc value="0.0207360424968936" flag="0"/>
			<vel value="0.00839891966265192" flag="0"/>
			<psa03 value="0.053865359982408" flag="0"/>
			<psa10 value="0.0037308779336029" flag="0"/>
			<psa30 value="0.000255225787664183" flag="0"/>
		</comp>
		<comp name="--.HNZ" depth="0.0">
			<acc value="0.0236397996686876" flag="0"/>
			<vel value="0.00556887594725199" flag="0"/>
			<psa03 value="0.0216772367918011" flag="0"/>
			<psa10 value="0.00255787007133885" flag="0"/>
			<psa30 value="0.000226976989236592" flag="0"/>
		</comp>
	</station>
	<station code="PET1" name="PET1" netid="HI" source="ITSAK Strong Motion Network" insttype="" lat="36.963862" lon="21.92538" esm:processing="manual (Paolucci et al 2011)" esm:quality="good">
		<comp name="--.HNE" depth="0.0">
			<acc value="0.03024989927028" flag="0"/>
			<vel value="0.0144459164563446" flag="0"/>
			<psa03 value="0.0572410627728175" flag="0"/>
			<psa10 value="0.00551733643396107" flag="0"/>
			<psa30 value="0.000617167134293748" flag="0"/>
		</comp>
		<comp name="--.HNN" depth="0.0">
			<acc value="0.0234803450507667" flag="0"/>
			<vel value="0.0127097238170861" flag="0"/>
			<psa03 value="0.0493599990243557" flag="0"/>
			<psa10 value="0.00802621044705152" flag="0"/>
			<psa30 value="0.000424420667869631" flag="0"/>
		</comp>
		<comp name="--.HNZ" depth="0.0">
			<acc value="0.012591744909652" flag="0"/>
			<vel value="0.00479868747838895" flag="0"/>
			<psa03 value="0.0221717968977309" flag="0"/>
			<psa10 value="0.00168916650836618" flag="0"/>
			<psa30 value="0.000146081773554732" flag="0"/>
		</comp>
	</station>
	<station code="PYL1" name="PYL1" netid="HI" source="ITSAK Strong Motion Network" insttype="" lat="36.914188" lon="21.695161" esm:processing="manual (Paolucci et al 2011)" esm:quality="good">
		<comp name="--.HNE" depth="0.0">
			<acc value="0.0165730369184994" flag="0"/>
			<vel value="0.00459250280820772" flag="0"/>
			<psa03 value="0.0282323323761295" flag="0"/>
			<psa10 value="0.00327378725825894" flag="0"/>
			<psa30 value="0.000193286332590934" flag="0"/>
		</comp>
		<comp name="--.HNN" depth="0.0">
			<acc value="0.0178714607391103" flag="0"/>
			<vel value="0.00699064724824917" flag="0"/>
			<psa03 value="0.043623651452815" flag="0"/>
			<psa10 value="0.00417981694227895" flag="0"/>
			<psa30 value="0.000244292448135764" flag="0"/>
		</comp>
		<comp name="--.HNZ" depth="0.0">
			<acc value="0.0105130102609091" flag="0"/>
			<vel value="0.003455750933793" flag="0"/>
			<psa03 value="0.0119014269604603" flag="0"/>
			<psa10 value="0.000998646051719826" flag="0"/>
			<psa30 value="0.000113197782744228" flag="0"/>
		</comp>
	</station>
	<station code="TRP1" name="TRP1" netid="HI" source="ITSAK Strong Motion Network" insttype="" lat="37.511219" lon="22.363399" esm:processing="manual (Paolucci et al 2011)" esm:quality="good">
		<comp name="--.HNE" depth="0.0">
			<acc value="0.0200912733117274" flag="0"/>
			<vel value="0.00576833852558932" flag="0"/>
			<psa03 value="0.0283053907182194" flag="0"/>
			<psa10 value="0.00287385756645962" flag="0"/>
			<psa30 value="0.000184264446198571" flag="0"/>
		</comp>
		<comp name="--.HNN" depth="0.0">
			<acc value="0.0200807527780853" flag="0"/>
			<vel value="0.00574534537622292" flag="0"/>
			<psa03 value="0.0306640860327081" flag="0"/>
			<psa10 value="0.00273797270537946" flag="0"/>
			<psa30 value="0.000213744250653437" flag="0"/>
		</comp>
		<comp name="--.HNZ" depth="0.0">
			<acc value="0.00697506212216066" flag="0"/>
			<vel value="0.00221371421178536" flag="0"/>
			<psa03 value="0.00903160285665611" flag="0"/>
			<psa10 value="0.0017437831342621" flag="0"/>
			<psa30 value="7.38868152118067e-05" flag="0"/>
		</comp>
	</station>
	<station code="THRA" name="THRA" netid="HL" source="National Observatory of Athens Seismic Network" insttype="" lat="36.41502" lon="25.43244" esm:processing="manual (Paolucci et al 2011)" esm:quality="bad">
		<comp name="00.HNE" depth="0.0">
			<acc value="0.00613849719566862" flag="0"/>
			<vel value="0.00240425564480655" flag="0"/>
			<psa03 value="0.00999559379967352" flag="0"/>
			<psa10 value="0.00324542632169034" flag="0"/>
			<psa30 value="0.000380075490635851" flag="0"/>
		</comp>
		<comp name="00.HNN" depth="0.0">
			<acc value="0.00622831419052433" flag="0"/>
			<vel value="0.00205189295281728" flag="0"/>
			<psa03 value="0.0081157166628664" flag="0"/>
			<psa10 value="0.00366174772906575" flag="0"/>
			<psa30 value="0.000271111735863684" flag="0"/>
		</comp>
		<comp name="00.HNZ" depth="0.0">
			<acc value="0.0137919622091069" flag="0"/>
			<vel value="0.00146923802223929" flag="0"/>
			<psa03 value="0.00854962691768004" flag="0"/>
			<psa10 value="0.00127848688098104" flag="0"/>
			<psa30 value="8.6107221107983e-05" flag="0"/>
		</comp>
	</station>
	<station code="ANX" name="ANX" netid="HP" source="University of Patras, Seismological Laboratory (PSLNET)" insttype="" lat="38.5933" lon="21.9209" esm:processing="manual (Paolucci et al 2011)" esm:quality="bad">
		<comp name="--.HNE" depth="0.0">
			<acc value="0.0140245961142316" flag="0"/>
			<vel value="0.00313637745154936" flag="0"/>
			<psa03 value="0.0110178444614557" flag="0"/>
			<psa10 value="0.00140189103246495" flag="0"/>
			<psa30 value="0.000147433087030809" flag="0"/>
		</comp>
		<comp name="--.HNN" depth="0.0">
			<acc value="0.00710288842601683" flag="0"/>
			<vel value="0.00271078280063195" flag="0"/>
			<psa03 value="0.0242594195674896" flag="0"/>
			<psa10 value="0.00130973289618781" flag="0"/>
			<psa30 value="0.000167691981166463" flag="0"/>
		</comp>
		<comp name="--.HNZ" depth="0.0">
			<acc value="0.010227749602496" flag="0"/>
			<vel value="0.00257060484136806" flag="0"/>
			<psa03 value="0.0126759282596813" flag="0"/>
			<psa10 value="0.000700799490933007" flag="0"/>
			<psa30 value="0.00010235281552788" flag="0"/>
		</comp>
	</station>
	<station code="PYL" name="PYL" netid="HP" source="University of Patras, Seismological Laboratory (PSLNET)" insttype="" lat="36.8955" lon="21.742" esm:processing="manual (Paolucci et al 2011)" esm:quality="good">
		<comp name="--.HNE" depth="0.0">
			<acc value="0.0749704981904777" flag="0"/>
			<vel value="0.0279512776454268" flag="0"/>
			<psa03 value="0.175671554044892" flag="0"/>
			<psa10 value="0.00686581748297576" flag="0"/>
			<psa30 value="0.000563168192543664" flag="0"/>
		</comp>
		<comp name="--.HNN" depth="0.0">
			<acc value="0.0584813519437336" flag="0"/>
			<vel value="0.0126917069379424" flag="0"/>
			<psa03 value="0.0885261769248288" flag="0"/>
			<psa10 value="0.00814838229035113" flag="0"/>
			<psa30 value="0.000476719080299974" flag="0"/>
		</comp>
		<comp name="--.HNZ" depth="0.0">
			<acc value="0.0448699577996611" flag="0"/>
			<vel value="0.0147680825229032" flag="0"/>
			<psa03 value="0.059466819593183" flag="0"/>
			<psa10 value="0.00312635382434673" flag="0"/>
			<psa30 value="0.000224136592740907" flag="0"/>
		</comp>
	</station>
</stationlist>
