<?xml version="1.0" encoding="UTF-8" standalone="yes"?>
<!DOCTYPE earthquake SYSTEM "stationlist.dtd">
<stationlist created="" xmlns="ch.ethz.sed.shakemap.usgs.xml">
  <station code="LOUT" name="LOUT" netid="HA" source="NOA" insttype="30" lat="37.9879" lon="22.9743">
    <comp name="--.HHE">
      <acc value="0.0080998541" flag="0"/>
      <vel value="0.0028197377" flag="0"/>
      <psa03 value="0.0137166468" flag="0"/>
      <psa10 value="0.0032220604" flag="0"/>
      <psa30 value="0.0002327661" flag="0"/>
    </comp>
    <comp name="--.HHN">
      <acc value="0.0072977328" flag="0"/>
      <vel value="0.0029411405" flag="0"/>
      <psa03 value="0.0095467847" flag="0"/>
      <psa10 value="0.0051603017" flag="0"/>
      <psa30 value="0.0003737090" flag="0"/>
    </comp>
    <comp name="--.HHZ">
      <acc value="0.0050093403" flag="0"/>
      <vel value="0.0016441116" flag="0"/>
      <psa03 value="0.0061950853" flag="0"/>
      <psa10 value="0.0016968706" flag="0"/>
      <psa30 value="0.0002100700" flag="0"/>
    </comp>
  </station>
  <station code="STFN" name="STFN" netid="HA" source="NOA" insttype="1s-100Hz," lat="38.1766" lon="23.544">
    <comp name="--.HHE">
      <acc value="0.0021989244" flag="0"/>
      <vel value="0.0025868283" flag="0"/>
      <psa03 value="0.0047116890" flag="0"/>
      <psa10 value="0.0032175250" flag="0"/>
      <psa30 value="0.0002711413" flag="0"/>
    </comp>
    <comp name="--.HHN">
      <acc value="0.0014755007" flag="0"/>
      <vel value="0.0012196024" flag="0"/>
      <psa03 value="0.0038290700" flag="0"/>
      <psa10 value="0.0007362045" flag="0"/>
      <psa30 value="0.0002251955" flag="0"/>
    </comp>
    <comp name="--.HHZ">
      <acc value="0.0018904323" flag="0"/>
      <vel value="0.0009461210" flag="0"/>
      <psa03 value="0.0039150387" flag="0"/>
      <psa10 value="0.0010197489" flag="0"/>
      <psa30 value="0.0001301665" flag="0"/>
    </comp>
  </station>
  <station code="VILL" name="VILL" netid="HA" source="NOA" insttype="30" lat="38.1642" lon="23.3122">
    <comp name="--.HHZ">
      <acc value="0.0017831404" flag="0"/>
      <vel value="0.0010953112" flag="0"/>
      <psa03 value="0.0038081522" flag="0"/>
      <psa10 value="0.0017617854" flag="0"/>
      <psa30 value="0.0001315671" flag="0"/>
    </comp>
    <comp name="--.HHE">
      <acc value="0.0031253299" flag="0"/>
      <vel value="0.0033028024" flag="0"/>
      <psa03 value="0.0071024275" flag="0"/>
      <psa10 value="0.0047557678" flag="0"/>
      <psa30 value="0.0004465032" flag="0"/>
    </comp>
    <comp name="--.HHN">
      <acc value="0.0024540033" flag="0"/>
      <vel value="0.0014269516" flag="0"/>
      <psa03 value="0.0046758308" flag="0"/>
      <psa10 value="0.0018945872" flag="0"/>
      <psa30 value="0.0002249578" flag="0"/>
    </comp>
  </station>
  <station code="ARS1" name="ARS1" netid="HI" source="NOA" insttype="CMG-5TD,ACCELEROMETER,GURALP" lat="37.6349" lon="22.7293">
    <comp name="--.HNZ">
      <acc value="0.0176866954" flag="0"/>
      <vel value="0.0056739057" flag="0"/>
      <psa03 value="0.0334666548" flag="0"/>
      <psa10 value="0.0022740787" flag="0"/>
      <psa30 value="0.0003281312" flag="0"/>
    </comp>
    <comp name="--.HNE">
      <acc value="0.0192045800" flag="0"/>
      <vel value="0.0091746867" flag="0"/>
      <psa03 value="0.0568291534" flag="0"/>
      <psa10 value="0.0058628236" flag="0"/>
      <psa30 value="0.0004923737" flag="0"/>
    </comp>
    <comp name="--.HNN">
      <acc value="0.0287963751" flag="0"/>
      <vel value="0.0143223557" flag="0"/>
      <psa03 value="0.0655603422" flag="0"/>
      <psa10 value="0.0059380325" flag="0"/>
      <psa30 value="0.0004875137" flag="0"/>
    </comp>
  </station>
  <station code="NPS1" name="NPS1" netid="HI" source="NOA" insttype="CMG-5TD,ACCELEROMETER,GURALP" lat="36.5126" lon="23.0625">
    <comp name="--.HNE">
      <acc value="0.0288228714" flag="0"/>
      <vel value="0.0099930493" flag="0"/>
      <psa03 value="0.0952425312" flag="0"/>
      <psa10 value="0.0041217820" flag="0"/>
      <psa30 value="0.0002164562" flag="0"/>
    </comp>
    <comp name="--.HNN">
      <acc value="0.0312852286" flag="0"/>
      <vel value="0.0099651723" flag="0"/>
      <psa03 value="0.0560645353" flag="0"/>
      <psa10 value="0.0045599514" flag="0"/>
      <psa30 value="0.0002901132" flag="0"/>
    </comp>
    <comp name="--.HNZ">
      <acc value="0.0467818046" flag="0"/>
      <vel value="0.0117038853" flag="0"/>
      <psa03 value="0.0713617529" flag="0"/>
      <psa10 value="0.0023154798" flag="0"/>
      <psa30 value="0.0001656961" flag="0"/>
    </comp>
  </station>
  <station code="KYMI" name="KYMI" netid="HL" source="NOA" insttype="DC_100" lat="38.6331" lon="24.1001">
    <comp name="--.HNE">
      <acc value="0.0008379897" flag="0"/>
      <vel value="0.0004777748" flag="0"/>
      <psa03 value="0.0014743903" flag="0"/>
      <psa10 value="0.0009355363" flag="0"/>
      <psa30 value="0.0002519469" flag="0"/>
    </comp>
    <comp name="--.HNN">
      <acc value="0.0009394652" flag="0"/>
      <vel value="0.0009518659" flag="0"/>
      <psa03 value="0.0020512517" flag="0"/>
      <psa10 value="0.0013877592" flag="0"/>
      <psa30 value="0.0001469885" flag="0"/>
    </comp>
    <comp name="--.HNZ">
      <acc value="0.0013657168" flag="0"/>
      <vel value="0.0008107991" flag="0"/>
      <psa03 value="0.0025432936" flag="0"/>
      <psa10 value="0.0004530848" flag="0"/>
      <psa30 value="0.0001836886" flag="0"/>
    </comp>
  </station>
  <station code="LKR" name="LKR" netid="HL" source="NOA" insttype="30" lat="38.6496" lon="22.9989">
    <comp name="--.HHE">
      <acc value="0.0041346227" flag="0"/>
      <vel value="0.0011911375" flag="0"/>
      <psa03 value="0.0051081705" flag="0"/>
      <psa10 value="0.0004438196" flag="0"/>
      <psa30 value="0.0000838051" flag="0"/>
    </comp>
    <comp name="--.HHN">
      <acc value="0.0038878021" flag="0"/>
      <vel value="0.0011584040" flag="0"/>
      <psa03 value="0.0053456750" flag="0"/>
      <psa10 value="0.0008102384" flag="0"/>
      <psa30 value="0.0001451562" flag="0"/>
    </comp>
    <comp name="--.HHZ">
      <acc value="0.0026000511" flag="0"/>
      <vel value="0.0010329773" flag="0"/>
      <psa03 value="0.0029133642" flag="0"/>
      <psa10 value="0.0004449843" flag="0"/>
      <psa30 value="0.0000776077" flag="0"/>
    </comp>
  </station>
  <station code="MHLO" name="MHLO" netid="HL" source="NOA" insttype="20" lat="36.6898" lon="24.4017">
    <comp name="--.HHE">
      <acc value="0.0098129539" flag="0"/>
      <vel value="0.0052641489" flag="0"/>
      <psa03 value="0.0293383565" flag="0"/>
      <psa10 value="0.0036774112" flag="0"/>
      <psa30 value="0.0004063711" flag="0"/>
    </comp>
    <comp name="--.HHN">
      <acc value="0.0060128519" flag="0"/>
      <vel value="0.0032155868" flag="0"/>
      <psa03 value="0.0119999603" flag="0"/>
      <psa10 value="0.0046329758" flag="0"/>
      <psa30 value="0.0003205540" flag="0"/>
    </comp>
    <comp name="--.HHZ">
      <acc value="0.0054816883" flag="0"/>
      <vel value="0.0027135783" flag="0"/>
      <psa03 value="0.0127806869" flag="0"/>
      <psa10 value="0.0026145110" flag="0"/>
      <psa30 value="0.0001815781" flag="0"/>
    </comp>
  </station>
  <station code="MNVA" name="MNVA" netid="HL" source="NOA" insttype="CMG-5" lat="36.6871" lon="23.0373">
    <comp name="00.HNE">
      <acc value="0.0266691573" flag="0"/>
      <vel value="0.0061080039" flag="0"/>
      <psa03 value="0.0403576742" flag="0"/>
      <psa10 value="0.0023680857" flag="0"/>
      <psa30 value="0.0002604553" flag="0"/>
    </comp>
    <comp name="00.HNN">
      <acc value="0.0527944713" flag="0"/>
      <vel value="0.0165186087" flag="0"/>
      <psa03 value="0.0687720814" flag="0"/>
      <psa10 value="0.0029698340" flag="0"/>
      <psa30 value="0.0003092032" flag="0"/>
    </comp>
    <comp name="00.HNZ">
      <acc value="0.0275443277" flag="0"/>
      <vel value="0.0057725972" flag="0"/>
      <psa03 value="0.0187826419" flag="0"/>
      <psa10 value="0.0015949730" flag="0"/>
      <psa30 value="0.0002122948" flag="0"/>
    </comp>
  </station>
  <station code="VLI" name="VLI" netid="HL" source="NOA" insttype="60" lat="36.718" lon="22.9469">
    <comp name="--.HHN">
      <acc value="0.0559233971" flag="0"/>
      <vel value="0.0171192281" flag="0"/>
      <psa03 value="0.0702942523" flag="0"/>
      <psa10 value="0.0048020451" flag="0"/>
      <psa30 value="0.0003946003" flag="0"/>
    </comp>
    <comp name="--.HHE">
      <acc value="0.0892362657" flag="0"/>
      <vel value="0.0205750828" flag="0"/>
      <psa03 value="0.0523398111" flag="0"/>
      <psa10 value="0.0048137101" flag="0"/>
      <psa30 value="0.0006664827" flag="0"/>
    </comp>
    <comp name="--.HHZ">
      <acc value="0.0420515027" flag="0"/>
      <vel value="0.0104796617" flag="0"/>
      <psa03 value="0.0255926361" flag="0"/>
      <psa10 value="0.0025677438" flag="0"/>
      <psa30 value="0.0002921746" flag="0"/>
    </comp>
  </station>
  <station code="VLY" name="VLY" netid="HL" source="NOA" insttype="120P," lat="37.8524" lon="23.7942">
    <comp name="--.HHE">
      <acc value="0.0039662659" flag="0"/>
      <vel value="0.0043134509" flag="0"/>
      <psa03 value="0.0084054220" flag="0"/>
      <psa10 value="0.0040415859" flag="0"/>
      <psa30 value="0.0003586483" flag="0"/>
    </comp>
    <comp name="--.HHN">
      <acc value="0.0033071699" flag="0"/>
      <vel value="0.0029230924" flag="0"/>
      <psa03 value="0.0066729382" flag="0"/>
      <psa10 value="0.0039015472" flag="0"/>
      <psa30 value="0.0003578090" flag="0"/>
    </comp>
    <comp name="--.HHZ">
      <acc value="0.0046435060" flag="0"/>
      <vel value="0.0021689315" flag="0"/>
      <psa03 value="0.0096663985" flag="0"/>
      <psa10 value="0.0012788165" flag="0"/>
      <psa30 value="0.0001429743" flag="0"/>
    </comp>
  </station>
  <station code="LTK" name="LTK" netid="HP" source="NOA" insttype="120" lat="38.0228" lon="22.9673">
    <comp name="--.HHN">
      <acc value="0.0011848513" flag="0"/>
      <vel value="0.0004812363" flag="0"/>
      <psa03 value="0.0018889096" flag="0"/>
      <psa10 value="0.0006451508" flag="0"/>
      <psa30 value="0.0000550453" flag="0"/>
    </comp>
    <comp name="--.HHE">
      <acc value="0.0009814860" flag="0"/>
      <vel value="0.0006756032" flag="0"/>
      <psa03 value="0.0021389980" flag="0"/>
      <psa10 value="0.0005237451" flag="0"/>
      <psa30 value="0.0000659732" flag="0"/>
    </comp>
    <comp name="--.HHZ">
      <acc value="0.0010710869" flag="0"/>
      <vel value="0.0003411117" flag="0"/>
      <psa03 value="0.0016038034" flag="0"/>
      <psa10 value="0.0004279411" flag="0"/>
      <psa30 value="0.0000313104" flag="0"/>
    </comp>
  </station>
  <station code="VLX" name="VLX" netid="HP" source="NOA" insttype="40," lat="37.3703" lon="22.3793">
    <comp name="--.HHE">
      <acc value="0.0053766829" flag="0"/>
      <vel value="0.0026471507" flag="0"/>
      <psa03 value="0.0139698856" flag="0"/>
      <psa10 value="0.0013347238" flag="0"/>
      <psa30 value="0.0001179151" flag="0"/>
    </comp>
    <comp name="--.HHZ">
      <acc value="0.0026670008" flag="0"/>
      <vel value="0.0009529421" flag="0"/>
      <psa03 value="0.0046643289" flag="0"/>
      <psa10 value="0.0006514580" flag="0"/>
      <psa30 value="0.0000586289" flag="0"/>
    </comp>
    <comp name="--.HHN">
      <acc value="0.0038051081" flag="0"/>
      <vel value="0.0015790102" flag="0"/>
      <psa03 value="0.0092574707" flag="0"/>
      <psa10 value="0.0009411471" flag="0"/>
      <psa30 value="0.0000758891" flag="0"/>
    </comp>
  </station>
</stationlist>
