<?xml version="1.0" encoding="UTF-8" standalone="yes"?>
<!DOCTYPE earthquake SYSTEM "stationlist.dtd">
<stationlist created="" xmlns="ch.ethz.sed.shakemap.usgs.xml">
  <station code="KTHR" name="KTHR" netid="HC" insttype="120s" lat="36.2447" lon="22.9939">
    <comp name="--.HHE">
      <acc value="0.0302779939" flag="0"/>
      <vel value="0.0151028469" flag="0"/>
      <psa03 value="0.0753804297" flag="0"/>
      <psa10 value="0.0160565229" flag="0"/>
      <psa30 value="0.0016552310" flag="0"/>
    </comp>
    <comp name="--.HHN">
      <acc value="0.0321082988" flag="0"/>
      <vel value="0.0168590017" flag="0"/>
      <psa03 value="0.1459487867" flag="0"/>
      <psa10 value="0.0133272677" flag="0"/>
      <psa30 value="0.0013125166" flag="0"/>
    </comp>
    <comp name="--.HHZ">
      <acc value="0.0156969382" flag="0"/>
      <vel value="0.0079543315" flag="0"/>
      <psa03 value="0.0513042916" flag="0"/>
      <psa10 value="0.0065676213" flag="0"/>
      <psa30 value="0.0007280532" flag="0"/>
    </comp>
  </station>
  <station code="KTRS" name="KTRS" netid="HC" insttype="60" lat="36.9261" lon="22.136">
    <comp name="--.HHZ">
      <acc value="0.0098275328" flag="0"/>
      <vel value="0.0031157691" flag="0"/>
      <psa03 value="0.0161593631" flag="0"/>
      <psa10 value="0.0026653974" flag="0"/>
      <psa30 value="0.0003998603" flag="0"/>
    </comp>
    <comp name="--.HHN">
      <acc value="0.0121104896" flag="0"/>
      <vel value="0.0054150880" flag="0"/>
      <psa03 value="0.0230461915" flag="0"/>
      <psa10 value="0.0045451187" flag="0"/>
      <psa30 value="0.0003937271" flag="0"/>
    </comp>
    <comp name="--.HHE">
      <acc value="0.0122627835" flag="0"/>
      <vel value="0.0060813833" flag="0"/>
      <psa03 value="0.0286344888" flag="0"/>
      <psa10 value="0.0060584900" flag="0"/>
      <psa30 value="0.0005698629" flag="0"/>
    </comp>
  </station>
  <station code="ANKY" name="ANKY" netid="HL" insttype="60" lat="35.867" lon="23.3012">
    <comp name="--.HHZ">
      <acc value="0.0044680331" flag="0"/>
      <vel value="0.0028546308" flag="0"/>
      <psa03 value="0.0141875905" flag="0"/>
      <psa10 value="0.0040414265" flag="0"/>
      <psa30 value="0.0005266577" flag="0"/>
    </comp>
    <comp name="--.HHN">
      <acc value="0.0057959011" flag="0"/>
      <vel value="0.0054005724" flag="0"/>
      <psa03 value="0.0203365312" flag="0"/>
      <psa10 value="0.0111930941" flag="0"/>
      <psa30 value="0.0011007260" flag="0"/>
    </comp>
    <comp name="--.HHE">
      <acc value="0.0071416454" flag="0"/>
      <vel value="0.0098791027" flag="0"/>
      <psa03 value="0.0179176504" flag="0"/>
      <psa10 value="0.0224080632" flag="0"/>
      <psa30 value="0.0012287028" flag="0"/>
    </comp>
  </station>
  <station code="KTHA" name="KTHA" netid="HL" insttype="120" lat="36.2566" lon="23.0621">
    <comp name="--.HHE">
      <acc value="0.0117399879" flag="0"/>
      <vel value="0.0102741563" flag="0"/>
      <psa03 value="0.0197807817" flag="0"/>
      <psa10 value="0.0159128692" flag="0"/>
      <psa30 value="0.0015077161" flag="0"/>
    </comp>
    <comp name="--.HHN">
      <acc value="0.0056735148" flag="0"/>
      <vel value="0.0038842692" flag="0"/>
      <psa03 value="0.0154002727" flag="0"/>
      <psa10 value="0.0039412507" flag="0"/>
      <psa30 value="0.0010034239" flag="0"/>
    </comp>
    <comp name="--.HHZ">
      <acc value="0.0054802530" flag="0"/>
      <vel value="0.0042699799" flag="0"/>
      <psa03 value="0.0100725222" flag="0"/>
      <psa10 value="0.0028336118" flag="0"/>
      <psa30 value="0.0015427482" flag="0"/>
    </comp>
  </station>
  <station code="VLI" name="VLI" netid="HL" insttype="60" lat="36.718" lon="22.9469">
    <comp name="--.HHE">
      <acc value="0.0065072226" flag="0"/>
      <vel value="0.0110190881" flag="0"/>
      <psa03 value="0.0153401586" flag="0"/>
      <psa10 value="0.0138152755" flag="0"/>
      <psa30 value="0.0021825545" flag="0"/>
    </comp>
    <comp name="--.HHZ">
      <acc value="0.0049582016" flag="0"/>
      <vel value="0.0042265875" flag="0"/>
      <psa03 value="0.0131823987" flag="0"/>
      <psa10 value="0.0043126776" flag="0"/>
      <psa30 value="0.0008454774" flag="0"/>
    </comp>
    <comp name="--.HHN">
      <acc value="0.0059720549" flag="0"/>
      <vel value="0.0075678749" flag="0"/>
      <psa03 value="0.0190213321" flag="0"/>
      <psa10 value="0.0103788932" flag="0"/>
      <psa30 value="0.0016548216" flag="0"/>
    </comp>
  </station>
</stationlist>
