<?xml version="1.0" encoding="UTF-8" standalone="yes"?>
<!DOCTYPE earthquake SYSTEM "stationlist.dtd">
<stationlist created="" xmlns="ch.ethz.sed.shakemap.usgs.xml">
  <station code="KTHA" name="KTHA" netid="GE" insttype="STS-2/N" lat="36.2566" lon="23.0621">
    <comp name="--.HHE">
      <acc value="0.0120497544" flag="0"/>
      <vel value="0.0103430647" flag="0"/>
      <psa03 value="0.0202807461" flag="0"/>
      <psa10 value="0.0159995065" flag="0"/>
      <psa30 value="0.0015117015" flag="0"/>
    </comp>
    <comp name="--.HHN">
      <acc value="0.0058806578" flag="0"/>
      <vel value="0.0039165929" flag="0"/>
      <psa03 value="0.0157766627" flag="0"/>
      <psa10 value="0.0039658646" flag="0"/>
      <psa30 value="0.0010055313" flag="0"/>
    </comp>
    <comp name="--.HHZ">
      <acc value="0.0057473751" flag="0"/>
      <vel value="0.0043049415" flag="0"/>
      <psa03 value="0.0102938101" flag="0"/>
      <psa10 value="0.0028566405" flag="0"/>
      <psa30 value="0.0015455531" flag="0"/>
    </comp>
  </station>
  <station code="KTHR" name="KTHR" netid="HC" insttype="120s" lat="36.2447" lon="22.9939">
    <comp name="--.HHZ">
      <acc value="0.0156969382" flag="0"/>
      <vel value="0.0079543295" flag="0"/>
      <psa03 value="0.0513042916" flag="0"/>
      <psa10 value="0.0065676213" flag="0"/>
      <psa30 value="0.0007279553" flag="0"/>
    </comp>
    <comp name="--.HHE">
      <acc value="0.0302779939" flag="0"/>
      <vel value="0.0151028465" flag="0"/>
      <psa03 value="0.0753804297" flag="0"/>
      <psa10 value="0.0160565229" flag="0"/>
      <psa30 value="0.0016552450" flag="0"/>
    </comp>
    <comp name="--.HHN">
      <acc value="0.0321082989" flag="0"/>
      <vel value="0.0168590020" flag="0"/>
      <psa03 value="0.1459487867" flag="0"/>
      <psa10 value="0.0133272677" flag="0"/>
      <psa30 value="0.0013124484" flag="0"/>
    </comp>
  </station>
  <station code="KTRS" name="KTRS" netid="HC" insttype="60" lat="36.9261" lon="22.136">
    <comp name="--.HHZ">
      <acc value="0.0098275327" flag="0"/>
      <vel value="0.0031157681" flag="0"/>
      <psa03 value="0.0161593631" flag="0"/>
      <psa10 value="0.0026653974" flag="0"/>
      <psa30 value="0.0003999891" flag="0"/>
    </comp>
    <comp name="--.HHN">
      <acc value="0.0121104896" flag="0"/>
      <vel value="0.0054150930" flag="0"/>
      <psa03 value="0.0230461915" flag="0"/>
      <psa10 value="0.0045451187" flag="0"/>
      <psa30 value="0.0003936183" flag="0"/>
    </comp>
    <comp name="--.HHE">
      <acc value="0.0122627834" flag="0"/>
      <vel value="0.0060813865" flag="0"/>
      <psa03 value="0.0286344888" flag="0"/>
      <psa10 value="0.0060584901" flag="0"/>
      <psa30 value="0.0005697649" flag="0"/>
    </comp>
  </station>
  <station code="ANKY" name="ANKY" netid="HL" insttype="60" lat="35.867" lon="23.3012">
    <comp name="--.HHE">
      <acc value="0.0071416455" flag="0"/>
      <vel value="0.0098791037" flag="0"/>
      <psa03 value="0.0179176504" flag="0"/>
      <psa10 value="0.0224080632" flag="0"/>
      <psa30 value="0.0012287536" flag="0"/>
    </comp>
    <comp name="--.HHN">
      <acc value="0.0057959012" flag="0"/>
      <vel value="0.0054005684" flag="0"/>
      <psa03 value="0.0203365312" flag="0"/>
      <psa10 value="0.0111930941" flag="0"/>
      <psa30 value="0.0011006980" flag="0"/>
    </comp>
    <comp name="--.HHZ">
      <acc value="0.0044680331" flag="0"/>
      <vel value="0.0028546310" flag="0"/>
      <psa03 value="0.0141875905" flag="0"/>
      <psa10 value="0.0040414265" flag="0"/>
      <psa30 value="0.0005266647" flag="0"/>
    </comp>
  </station>
  <station code="KTHA" name="KTHA" netid="HL" insttype="120" lat="36.2566" lon="23.0621">
    <comp name="--.HHN">
      <acc value="0.0056735149" flag="0"/>
      <vel value="0.0038842692" flag="0"/>
      <psa03 value="0.0154002727" flag="0"/>
      <psa10 value="0.0039412507" flag="0"/>
      <psa30 value="0.0010034955" flag="0"/>
    </comp>
    <comp name="--.HHE">
      <acc value="0.0117399880" flag="0"/>
      <vel value="0.0102741584" flag="0"/>
      <psa03 value="0.0197807817" flag="0"/>
      <psa10 value="0.0159128692" flag="0"/>
      <psa30 value="0.0015076256" flag="0"/>
    </comp>
    <comp name="--.HHZ">
      <acc value="0.0054802530" flag="0"/>
      <vel value="0.0042699804" flag="0"/>
      <psa03 value="0.0100725222" flag="0"/>
      <psa10 value="0.0028336135" flag="0"/>
      <psa30 value="0.0015427846" flag="0"/>
    </comp>
  </station>
  <station code="VLI" name="VLI" netid="HL" insttype="60" lat="36.718" lon="22.9469">
    <comp name="--.HHZ">
      <acc value="0.0049582015" flag="0"/>
      <vel value="0.0042265879" flag="0"/>
      <psa03 value="0.0131823987" flag="0"/>
      <psa10 value="0.0043126776" flag="0"/>
      <psa30 value="0.0008454657" flag="0"/>
    </comp>
    <comp name="--.HHN">
      <acc value="0.0059720549" flag="0"/>
      <vel value="0.0075678762" flag="0"/>
      <psa03 value="0.0190213321" flag="0"/>
      <psa10 value="0.0103788932" flag="0"/>
      <psa30 value="0.0016548208" flag="0"/>
    </comp>
    <comp name="--.HHE">
      <acc value="0.0065072228" flag="0"/>
      <vel value="0.0110190924" flag="0"/>
      <psa03 value="0.0153401586" flag="0"/>
      <psa10 value="0.0138152755" flag="0"/>
      <psa30 value="0.0021825147" flag="0"/>
    </comp>
  </station>
</stationlist>
