<?xml version="1.0" encoding="UTF-8" standalone="yes"?>
<!DOCTYPE earthquake SYSTEM "stationlist.dtd">
<stationlist created="" xmlns="ch.ethz.sed.shakemap.usgs.xml">
  <station code="PRK" name="PRK" netid="HL" insttype="120" lat="39.2456" lon="26.265">
    <comp name="--.HHZ">
      <acc value="0.0226684568" flag="0"/>
      <vel value="0.0158784962" flag="0"/>
      <psa03 value="0.0685793036" flag="0"/>
      <psa10 value="0.0283966371" flag="0"/>
      <psa30 value="0.0030475508" flag="0"/>
    </comp>
    <comp name="--.HHN">
      <acc value="0.0341942251" flag="0"/>
      <vel value="0.0249916693" flag="0"/>
      <psa03 value="0.1182163813" flag="0"/>
      <psa10 value="0.0499694738" flag="0"/>
      <psa30 value="0.0045927124" flag="0"/>
    </comp>
    <comp name="--.HHE">
      <acc value="0.0332026744" flag="0"/>
      <vel value="0.0314497009" flag="0"/>
      <psa03 value="0.1173399418" flag="0"/>
      <psa10 value="0.0622555680" flag="0"/>
      <psa30 value="0.0053462877" flag="0"/>
    </comp>
  </station>
  <station code="CHOS" name="CHOS" netid="HT" insttype="100" lat="38.3869" lon="26.0506">
    <comp name="--.HHE">
      <acc value="0.0167418832" flag="0"/>
      <vel value="0.0109596132" flag="0"/>
      <psa03 value="0.0310770484" flag="0"/>
      <psa10 value="0.0135617477" flag="0"/>
      <psa30 value="0.0015953932" flag="0"/>
    </comp>
    <comp name="--.HHZ">
      <acc value="0.0080031547" flag="0"/>
      <vel value="0.0049712029" flag="0"/>
      <psa03 value="0.0120489837" flag="0"/>
      <psa10 value="0.0060666498" flag="0"/>
      <psa30 value="0.0014173248" flag="0"/>
    </comp>
    <comp name="--.HHN">
      <acc value="0.0124379087" flag="0"/>
      <vel value="0.0075855650" flag="0"/>
      <psa03 value="0.0201908328" flag="0"/>
      <psa10 value="0.0125144707" flag="0"/>
      <psa30 value="0.0024764395" flag="0"/>
    </comp>
  </station>
  <station code="SIGR" name="SIGR" netid="HT" insttype="100" lat="39.2114" lon="25.8553">
    <comp name="--.HHE">
      <acc value="0.0310552851" flag="0"/>
      <vel value="0.0203115253" flag="0"/>
      <psa03 value="0.0958194413" flag="0"/>
      <psa10 value="0.0191462869" flag="0"/>
      <psa30 value="0.0015861500" flag="0"/>
    </comp>
    <comp name="--.HHN">
      <acc value="0.0234496972" flag="0"/>
      <vel value="0.0137235175" flag="0"/>
      <psa03 value="0.0447731271" flag="0"/>
      <psa10 value="0.0199436922" flag="0"/>
      <psa30 value="0.0020414961" flag="0"/>
    </comp>
    <comp name="--.HHZ">
      <acc value="0.0282232149" flag="0"/>
      <vel value="0.0107997854" flag="0"/>
      <psa03 value="0.0675772491" flag="0"/>
      <psa10 value="0.0076394471" flag="0"/>
      <psa30 value="0.0019807178" flag="0"/>
    </comp>
  </station>
</stationlist>
