<stationlist created="1778069714">
	<station code="NPS1" name="NPS1" netid="HI" source="ITSAK Strong Motion Network" insttype="" lat="36.51263" lon="23.06248">
		<comp name="--.HNE" depth="0.0">
			<acc value="0.00828933539809495" flag="0"/>
			<vel value="0.00601153049807455" flag="0"/>
			<psa03 value="0.0222368766892811" flag="0"/>
			<psa10 value="0.00494893547404704" flag="0"/>
			<psa30 value="0.000426840651138312" flag="0"/>
		</comp>
		<comp name="--.HNN" depth="0.0">
			<acc value="0.00887185207587336" flag="0"/>
			<vel value="0.00673197330911376" flag="0"/>
			<psa03 value="0.0289034654754036" flag="0"/>
			<psa10 value="0.00471538115549966" flag="0"/>
			<psa30 value="0.0003391459261665" flag="0"/>
		</comp>
		<comp name="--.HNZ" depth="0.0">
			<acc value="0.00628305980667254" flag="0"/>
			<vel value="0.0030221221428098" flag="0"/>
			<psa03 value="0.0142727639112287" flag="0"/>
			<psa10 value="0.00219460523462623" flag="0"/>
			<psa30 value="0.000207603838708781" flag="0"/>
		</comp>
	</station>
</stationlist>
