<?xml version="1.0" encoding="UTF-8" standalone="yes"?>
<!DOCTYPE earthquake SYSTEM "stationlist.dtd">
<stationlist created="" xmlns="ch.ethz.sed.shakemap.usgs.xml">
  <station code="GVD" name="GVD" netid="GE" insttype="STS-2/N" lat="34.8391" lon="24.0874">
    <comp name="--.HHE">
      <acc value="0.0044269729" flag="0"/>
      <vel value="0.0024523978" flag="0"/>
      <psa03 value="0.0157461279" flag="0"/>
      <psa10 value="0.0034647687" flag="0"/>
      <psa30 value="0.0002240079" flag="0"/>
    </comp>
    <comp name="--.HHN">
      <acc value="0.0045052370" flag="0"/>
      <vel value="0.0031498702" flag="0"/>
      <psa03 value="0.0146054923" flag="0"/>
      <psa10 value="0.0032221022" flag="0"/>
      <psa30 value="0.0002946628" flag="0"/>
    </comp>
    <comp name="--.HHZ">
      <acc value="0.0030541401" flag="0"/>
      <vel value="0.0013191325" flag="0"/>
      <psa03 value="0.0056294751" flag="0"/>
      <psa10 value="0.0012365378" flag="0"/>
      <psa30 value="0.0001536300" flag="0"/>
    </comp>
  </station>
  <station code="IMMV" name="IMMV" netid="GE" insttype="STS-2/N" lat="35.4606" lon="23.9811">
    <comp name="--.HHN">
      <acc value="0.0074797672" flag="0"/>
      <vel value="0.0047599072" flag="0"/>
      <psa03 value="0.0184401887" flag="0"/>
      <psa10 value="0.0060169844" flag="0"/>
      <psa30 value="0.0004775036" flag="0"/>
    </comp>
    <comp name="--.HHE">
      <acc value="0.0052670232" flag="0"/>
      <vel value="0.0041512891" flag="0"/>
      <psa03 value="0.0224755358" flag="0"/>
      <psa10 value="0.0042046691" flag="0"/>
      <psa30 value="0.0003174714" flag="0"/>
    </comp>
    <comp name="--.HHZ">
      <acc value="0.0043551261" flag="0"/>
      <vel value="0.0029114310" flag="0"/>
      <psa03 value="0.0115411892" flag="0"/>
      <psa10 value="0.0025585084" flag="0"/>
      <psa30 value="0.0002359219" flag="0"/>
    </comp>
  </station>
  <station code="KTHA" name="KTHA" netid="GE" insttype="STS-2/N" lat="36.2566" lon="23.0621">
    <comp name="--.HHN">
      <acc value="0.0056989050" flag="0"/>
      <vel value="0.0023699623" flag="0"/>
      <psa03 value="0.0150250927" flag="0"/>
      <psa10 value="0.0028823807" flag="0"/>
      <psa30 value="0.0001887937" flag="0"/>
    </comp>
    <comp name="--.HHZ">
      <acc value="0.0064478343" flag="0"/>
      <vel value="0.0026814858" flag="0"/>
      <psa03 value="0.0087836587" flag="0"/>
      <psa10 value="0.0023624690" flag="0"/>
      <psa30 value="0.0002044679" flag="0"/>
    </comp>
    <comp name="--.HHE">
      <acc value="0.0076763042" flag="0"/>
      <vel value="0.0053909604" flag="0"/>
      <psa03 value="0.0314818374" flag="0"/>
      <psa10 value="0.0091505488" flag="0"/>
      <psa30 value="0.0004821083" flag="0"/>
    </comp>
  </station>
  <station code="CHAN" name="CHAN" netid="HC" insttype="120" lat="35.5193" lon="24.0428">
    <comp name="--.HHN">
      <acc value="0.0078971620" flag="0"/>
      <vel value="0.0060395685" flag="0"/>
      <psa03 value="0.0225273297" flag="0"/>
      <psa10 value="0.0113816518" flag="0"/>
      <psa30 value="0.0008975824" flag="0"/>
    </comp>
    <comp name="--.HHZ">
      <acc value="0.0090396990" flag="0"/>
      <vel value="0.0042923559" flag="0"/>
      <psa03 value="0.0170147972" flag="0"/>
      <psa10 value="0.0067711423" flag="0"/>
      <psa30 value="0.0003590555" flag="0"/>
    </comp>
    <comp name="--.HHE">
      <acc value="0.0071405486" flag="0"/>
      <vel value="0.0075064802" flag="0"/>
      <psa03 value="0.0222811283" flag="0"/>
      <psa10 value="0.0096152098" flag="0"/>
      <psa30 value="0.0008648687" flag="0"/>
    </comp>
  </station>
  <station code="KNDR" name="KNDR" netid="HC" insttype="60" lat="35.2348" lon="23.6248">
    <comp name="--.HHE">
      <acc value="0.0208602142" flag="0"/>
      <vel value="0.0145282091" flag="0"/>
      <psa03 value="0.0641200033" flag="0"/>
      <psa10 value="0.0208038456" flag="0"/>
      <psa30 value="0.0012354217" flag="0"/>
    </comp>
    <comp name="--.HHN">
      <acc value="0.0206763879" flag="0"/>
      <vel value="0.0224462922" flag="0"/>
      <psa03 value="0.0533738686" flag="0"/>
      <psa10 value="0.0242436535" flag="0"/>
      <psa30 value="0.0023019610" flag="0"/>
    </comp>
    <comp name="--.HHZ">
      <acc value="0.0104053439" flag="0"/>
      <vel value="0.0074376574" flag="0"/>
      <psa03 value="0.0304096974" flag="0"/>
      <psa10 value="0.0116941095" flag="0"/>
      <psa30 value="0.0008408657" flag="0"/>
    </comp>
  </station>
  <station code="ANKY" name="ANKY" netid="HL" insttype="60" lat="35.867" lon="23.3012">
    <comp name="--.HHN">
      <acc value="0.0102068458" flag="0"/>
      <vel value="0.0065215119" flag="0"/>
      <psa03 value="0.0356422300" flag="0"/>
      <psa10 value="0.0085478358" flag="0"/>
      <psa30 value="0.0004673246" flag="0"/>
    </comp>
    <comp name="--.HHE">
      <acc value="0.0079934905" flag="0"/>
      <vel value="0.0059405203" flag="0"/>
      <psa03 value="0.0225409172" flag="0"/>
      <psa10 value="0.0072300208" flag="0"/>
      <psa30 value="0.0003820663" flag="0"/>
    </comp>
    <comp name="--.HHZ">
      <acc value="0.0107184343" flag="0"/>
      <vel value="0.0045653808" flag="0"/>
      <psa03 value="0.0323833398" flag="0"/>
      <psa10 value="0.0037522772" flag="0"/>
      <psa30 value="0.0003339625" flag="0"/>
    </comp>
  </station>
  <station code="GVD" name="GVD" netid="HL" insttype="120" lat="34.8391" lon="24.0874">
    <comp name="--.HHE">
      <acc value="0.0043073100" flag="0"/>
      <vel value="0.0024048206" flag="0"/>
      <psa03 value="0.0153285555" flag="0"/>
      <psa10 value="0.0034405783" flag="0"/>
      <psa30 value="0.0002237078" flag="0"/>
    </comp>
    <comp name="--.HHZ">
      <acc value="0.0029415133" flag="0"/>
      <vel value="0.0012984925" flag="0"/>
      <psa03 value="0.0054700480" flag="0"/>
      <psa10 value="0.0012274496" flag="0"/>
      <psa30 value="0.0001535742" flag="0"/>
    </comp>
    <comp name="--.HHN">
      <acc value="0.0043904181" flag="0"/>
      <vel value="0.0030988263" flag="0"/>
      <psa03 value="0.0142194821" flag="0"/>
      <psa10 value="0.0031991666" flag="0"/>
      <psa30 value="0.0002948905" flag="0"/>
    </comp>
  </station>
  <station code="IMMV" name="IMMV" netid="HL" insttype="120" lat="35.4606" lon="23.9811">
    <comp name="--.HHN">
      <acc value="0.0073179928" flag="0"/>
      <vel value="0.0046543959" flag="0"/>
      <psa03 value="0.0179846155" flag="0"/>
      <psa10 value="0.0059709012" flag="0"/>
      <psa30 value="0.0004758109" flag="0"/>
    </comp>
    <comp name="--.HHE">
      <acc value="0.0051587022" flag="0"/>
      <vel value="0.0040733321" flag="0"/>
      <psa03 value="0.0218938423" flag="0"/>
      <psa10 value="0.0041703173" flag="0"/>
      <psa30 value="0.0003172648" flag="0"/>
    </comp>
    <comp name="--.HHZ">
      <acc value="0.0042573021" flag="0"/>
      <vel value="0.0028566324" flag="0"/>
      <psa03 value="0.0112455106" flag="0"/>
      <psa10 value="0.0025395391" flag="0"/>
      <psa30 value="0.0002350412" flag="0"/>
    </comp>
  </station>
  <station code="KTHA" name="KTHA" netid="HL" insttype="120" lat="36.2566" lon="23.0621">
    <comp name="--.HHZ">
      <acc value="0.0060063280" flag="0"/>
      <vel value="0.0025937767" flag="0"/>
      <psa03 value="0.0085495766" flag="0"/>
      <psa10 value="0.0023477835" flag="0"/>
      <psa30 value="0.0002040254" flag="0"/>
    </comp>
  </station>
</stationlist>
