<?xml version="1.0" encoding="UTF-8" standalone="yes"?>
<!DOCTYPE earthquake SYSTEM "stationlist.dtd">
<stationlist created="" xmlns="ch.ethz.sed.shakemap.usgs.xml">
  <station code="APE" name="APE" netid="GE" insttype="STS-2/N" lat="37.0727" lon="25.523">
    <comp name="--.HHN">
      <acc value="0.1116110190" flag="0"/>
      <vel value="0.0267188430" flag="0"/>
      <psa03 value="0.0899793629" flag="0"/>
      <psa10 value="0.0070455820" flag="0"/>
      <psa30 value="0.0040907672" flag="0"/>
    </comp>
    <comp name="--.HHE">
      <acc value="0.0929799293" flag="0"/>
      <vel value="0.0345558205" flag="0"/>
      <psa03 value="0.1441855405" flag="0"/>
      <psa10 value="0.0133737303" flag="0"/>
      <psa30 value="0.0032975720" flag="0"/>
    </comp>
    <comp name="--.HHZ">
      <acc value="0.0427970922" flag="0"/>
      <vel value="0.0137031709" flag="0"/>
      <psa03 value="0.0592457637" flag="0"/>
      <psa10 value="0.0116898324" flag="0"/>
      <psa30 value="0.0050296661" flag="0"/>
    </comp>
  </station>
  <station code="THERA" name="THERA" netid="GE" insttype="STS-2/N" lat="36.367" lon="25.4753">
    <comp name="--.HHZ">
      <acc value="0.0575460337" flag="0"/>
      <vel value="0.0133355592" flag="0"/>
      <psa03 value="0.0838143230" flag="0"/>
      <psa10 value="0.0083754809" flag="0"/>
      <psa30 value="0.0016454040" flag="0"/>
    </comp>
    <comp name="--.HHE">
      <acc value="0.0740640553" flag="0"/>
      <vel value="0.0222154420" flag="0"/>
      <psa03 value="0.0884776850" flag="0"/>
      <psa10 value="0.0098975157" flag="0"/>
      <psa30 value="0.0014579079" flag="0"/>
    </comp>
    <comp name="--.HHN">
      <acc value="0.0607524986" flag="0"/>
      <vel value="0.0154998393" flag="0"/>
      <psa03 value="0.0630566796" flag="0"/>
      <psa10 value="0.0074522823" flag="0"/>
      <psa30 value="0.0011710674" flag="0"/>
    </comp>
  </station>
  <station code="SERI" name="SERI" netid="HA" insttype="30" lat="37.1609" lon="24.4853">
    <comp name="--.HHE">
      <acc value="0.0205005522" flag="0"/>
      <vel value="0.0058618198" flag="0"/>
      <psa03 value="0.0263874130" flag="0"/>
      <psa10 value="0.0033362603" flag="0"/>
      <psa30 value="0.0007117511" flag="0"/>
    </comp>
    <comp name="--.HHN">
      <acc value="0.0376365546" flag="0"/>
      <vel value="0.0103193221" flag="0"/>
      <psa03 value="0.0396262567" flag="0"/>
      <psa10 value="0.0065819275" flag="0"/>
      <psa30 value="0.0005944862" flag="0"/>
    </comp>
    <comp name="--.HHZ">
      <acc value="0.0244908749" flag="0"/>
      <vel value="0.0077628948" flag="0"/>
      <psa03 value="0.0358150274" flag="0"/>
      <psa10 value="0.0055853455" flag="0"/>
      <psa30 value="0.0012548225" flag="0"/>
    </comp>
  </station>
  <station code="SNT1" name="SNT1" netid="HA" insttype="30" lat="36.4159" lon="25.4282">
    <comp name="--.HHN">
      <acc value="0.0643947229" flag="0"/>
      <vel value="0.0273240539" flag="0"/>
      <psa03 value="0.1620820671" flag="0"/>
      <psa10 value="0.0282642205" flag="0"/>
      <psa30 value="0.0069390105" flag="0"/>
    </comp>
    <comp name="--.HHZ">
      <acc value="0.0874348878" flag="0"/>
      <vel value="0.0243059141" flag="0"/>
      <psa03 value="0.1102826500" flag="0"/>
      <psa10 value="0.0194905656" flag="0"/>
      <psa30 value="0.0015950441" flag="0"/>
    </comp>
    <comp name="--.HHE">
      <acc value="0.0843246191" flag="0"/>
      <vel value="0.0434954266" flag="0"/>
      <psa03 value="0.1540526090" flag="0"/>
      <psa10 value="0.0337983788" flag="0"/>
      <psa30 value="0.0019520517" flag="0"/>
    </comp>
  </station>
  <station code="SNT5" name="SNT5" netid="HA" insttype="1s-100Hz," lat="36.4037" lon="25.3953">
    <comp name="--.HHE">
      <acc value="0.3800104836" flag="0"/>
      <vel value="0.1130065505" flag="0"/>
      <psa03 value="0.5364291153" flag="0"/>
      <psa10 value="0.0446100030" flag="0"/>
      <psa30 value="0.0086512090" flag="0"/>
    </comp>
    <comp name="--.HHZ">
      <acc value="0.0938282738" flag="0"/>
      <vel value="0.0234016583" flag="0"/>
      <psa03 value="0.0983680012" flag="0"/>
      <psa10 value="0.0177511819" flag="0"/>
      <psa30 value="0.0019221097" flag="0"/>
    </comp>
    <comp name="--.HHN">
      <acc value="0.2791407969" flag="0"/>
      <vel value="0.0787666487" flag="0"/>
      <psa03 value="0.2951629105" flag="0"/>
      <psa10 value="0.0195487027" flag="0"/>
      <psa30 value="0.0066649930" flag="0"/>
    </comp>
  </station>
  <station code="NAX1" name="NAX1" netid="HI" insttype="CMG-5TD,ACCELEROMETER,GURALP" lat="37.1014" lon="25.3741">
    <comp name="--.HNN">
      <acc value="0.0473879057" flag="0"/>
      <vel value="0.0119182727" flag="0"/>
      <psa03 value="0.0519252639" flag="0"/>
      <psa10 value="0.0118398761" flag="0"/>
      <psa30 value="0.0026559156" flag="0"/>
    </comp>
    <comp name="--.HNZ">
      <acc value="0.0421595611" flag="0"/>
      <vel value="0.0092462179" flag="0"/>
      <psa03 value="0.0429727692" flag="0"/>
      <psa10 value="0.0094658732" flag="0"/>
      <psa30 value="0.0040211818" flag="0"/>
    </comp>
  </station>
  <station code="SFR2" name="SFR2" netid="HI" insttype="unknown" lat="36.3998" lon="25.4382">
    <comp name="--.HNZ">
      <acc value="0.2524098406" flag="0"/>
      <vel value="0.0899846862" flag="0"/>
      <psa03 value="0.4963651157" flag="0"/>
      <psa10 value="0.0325814097" flag="0"/>
      <psa30 value="0.0029770152" flag="0"/>
    </comp>
    <comp name="--.HNE">
      <acc value="0.2367682562" flag="0"/>
      <vel value="0.0949641451" flag="0"/>
      <psa03 value="0.5615897276" flag="0"/>
      <psa10 value="0.0662059555" flag="0"/>
      <psa30 value="0.0050275392" flag="0"/>
    </comp>
    <comp name="--.HNN">
      <acc value="0.2419774770" flag="0"/>
      <vel value="0.0734462205" flag="0"/>
      <psa03 value="0.5170628918" flag="0"/>
      <psa10 value="0.0609835635" flag="0"/>
      <psa30 value="0.0045666020" flag="0"/>
    </comp>
  </station>
  <station code="AMGA" name="AMGA" netid="HL" insttype="SMART24" lat="36.8316" lon="25.8938">
    <comp name="--.HHN">
      <acc value="0.5677861806" flag="0"/>
      <vel value="0.1225807895" flag="0"/>
      <psa03 value="0.3023615873" flag="0"/>
      <psa10 value="0.0394295157" flag="0"/>
      <psa30 value="0.0048472998" flag="0"/>
    </comp>
    <comp name="--.HHZ">
      <acc value="0.3364149444" flag="0"/>
      <vel value="0.0953074990" flag="0"/>
      <psa03 value="0.2706158205" flag="0"/>
      <psa10 value="0.0398417232" flag="0"/>
      <psa30 value="0.0066428298" flag="0"/>
    </comp>
    <comp name="--.HHE">
      <acc value="0.4651564396" flag="0"/>
      <vel value="0.0932793130" flag="0"/>
      <psa03 value="0.3006609762" flag="0"/>
      <psa10 value="0.0451790242" flag="0"/>
      <psa30 value="0.0116042947" flag="0"/>
    </comp>
  </station>
  <station code="APE" name="APE" netid="HL" insttype="120" lat="37.0727" lon="25.523">
    <comp name="--.HHE">
      <acc value="0.0901636659" flag="0"/>
      <vel value="0.0329232470" flag="0"/>
      <psa03 value="0.1406472727" flag="0"/>
      <psa10 value="0.0131998236" flag="0"/>
      <psa30 value="0.0032923276" flag="0"/>
    </comp>
    <comp name="--.HHZ">
      <acc value="0.0404323062" flag="0"/>
      <vel value="0.0132901640" flag="0"/>
      <psa03 value="0.0574632958" flag="0"/>
      <psa10 value="0.0116034533" flag="0"/>
      <psa30 value="0.0050208387" flag="0"/>
    </comp>
    <comp name="--.HHN">
      <acc value="0.1048897472" flag="0"/>
      <vel value="0.0257979024" flag="0"/>
      <psa03 value="0.0871324187" flag="0"/>
      <psa10 value="0.0069266311" flag="0"/>
      <psa30 value="0.0040762859" flag="0"/>
    </comp>
  </station>
  <station code="MHLO" name="MHLO" netid="HL" insttype="20" lat="36.6898" lon="24.4017">
    <comp name="--.HHE">
      <acc value="0.1229414476" flag="0"/>
      <vel value="0.0559145278" flag="0"/>
      <psa03 value="0.3584497289" flag="0"/>
      <psa10 value="0.0510597654" flag="0"/>
      <psa30 value="0.0030085834" flag="0"/>
    </comp>
    <comp name="--.HHN">
      <acc value="0.0856658098" flag="0"/>
      <vel value="0.0409171924" flag="0"/>
      <psa03 value="0.2601665706" flag="0"/>
      <psa10 value="0.0238808990" flag="0"/>
      <psa30 value="0.0018771831" flag="0"/>
    </comp>
    <comp name="--.HHZ">
      <acc value="0.0302248078" flag="0"/>
      <vel value="0.0215204634" flag="0"/>
      <psa03 value="0.1192367956" flag="0"/>
      <psa10 value="0.0263637868" flag="0"/>
      <psa30 value="0.0017722528" flag="0"/>
    </comp>
  </station>
  <station code="MILA" name="MILA" netid="HL" insttype="CMG-5" lat="36.7429" lon="24.4282">
    <comp name="00.HNE">
      <acc value="0.1246320095" flag="0"/>
      <vel value="0.0525502268" flag="0"/>
      <psa03 value="0.2401041968" flag="0"/>
      <psa10 value="0.0249662502" flag="0"/>
      <psa30 value="0.0025808809" flag="0"/>
    </comp>
    <comp name="00.HNN">
      <acc value="0.1398759016" flag="0"/>
      <vel value="0.0609714766" flag="0"/>
      <psa03 value="0.3451264502" flag="0"/>
      <psa10 value="0.0385057611" flag="0"/>
      <psa30 value="0.0027539626" flag="0"/>
    </comp>
    <comp name="00.HNZ">
      <acc value="0.0783640087" flag="0"/>
      <vel value="0.0327420177" flag="0"/>
      <psa03 value="0.1564708235" flag="0"/>
      <psa10 value="0.0198629214" flag="0"/>
      <psa30 value="0.0014502542" flag="0"/>
    </comp>
  </station>
  <station code="SANT" name="SANT" netid="HL" insttype="30" lat="36.3705" lon="25.4593">
    <comp name="--.HHN">
      <acc value="0.1582444572" flag="0"/>
      <vel value="0.0310010429" flag="0"/>
      <psa03 value="0.1182497359" flag="0"/>
      <psa10 value="0.0156445864" flag="0"/>
      <psa30 value="0.0023127406" flag="0"/>
    </comp>
    <comp name="--.HHZ">
      <acc value="0.1826079519" flag="0"/>
      <vel value="0.0308016803" flag="0"/>
      <psa03 value="0.1537812248" flag="0"/>
      <psa10 value="0.0107907879" flag="0"/>
      <psa30 value="0.0015011837" flag="0"/>
    </comp>
  </station>
  <station code="SAP3" name="SAP3" netid="HL" insttype="65535" lat="36.4356" lon="25.3454">
    <comp name="--.HHN">
      <acc value="0.3339224087" flag="0"/>
      <vel value="0.1177183941" flag="0"/>
      <psa03 value="0.4951734194" flag="0"/>
      <psa10 value="0.0593658358" flag="0"/>
      <psa30 value="0.0054887524" flag="0"/>
    </comp>
    <comp name="--.HHE">
      <acc value="0.3146776441" flag="0"/>
      <vel value="0.1084302431" flag="0"/>
      <psa03 value="0.5464489547" flag="0"/>
      <psa10 value="0.0393098167" flag="0"/>
      <psa30 value="0.0076931860" flag="0"/>
    </comp>
    <comp name="--.HHZ">
      <acc value="0.1780281825" flag="0"/>
      <vel value="0.0543219588" flag="0"/>
      <psa03 value="0.3148592244" flag="0"/>
      <psa10 value="0.0162742583" flag="0"/>
      <psa30 value="0.0025636640" flag="0"/>
    </comp>
  </station>
  <station code="THERA" name="THERA" netid="HL" insttype="120" lat="36.367" lon="25.4753">
    <comp name="--.HHE">
      <acc value="0.0732372038" flag="0"/>
      <vel value="0.0215739700" flag="0"/>
      <psa03 value="0.0859832732" flag="0"/>
      <psa10 value="0.0097522534" flag="0"/>
      <psa30 value="0.0014595788" flag="0"/>
    </comp>
    <comp name="--.HHN">
      <acc value="0.1191967647" flag="0"/>
      <vel value="0.0302395037" flag="0"/>
      <psa03 value="0.1221222256" flag="0"/>
      <psa10 value="0.0148326245" flag="0"/>
      <psa30 value="0.0023376839" flag="0"/>
    </comp>
    <comp name="--.HHZ">
      <acc value="0.0557717133" flag="0"/>
      <vel value="0.0130993655" flag="0"/>
      <psa03 value="0.0814663981" flag="0"/>
      <psa10 value="0.0083057995" flag="0"/>
      <psa30 value="0.0016437171" flag="0"/>
    </comp>
  </station>
  <station code="THRA" name="THRA" netid="HL" insttype="CMG-5" lat="36.415" lon="25.4324">
    <comp name="00.HNE">
      <acc value="0.3100725919" flag="0"/>
      <vel value="0.1138213498" flag="0"/>
      <psa03 value="0.7562852570" flag="0"/>
      <psa10 value="0.0862889131" flag="0"/>
      <psa30 value="0.0061842264" flag="0"/>
    </comp>
    <comp name="00.HNN">
      <acc value="0.2564984403" flag="0"/>
      <vel value="0.1035044295" flag="0"/>
      <psa03 value="0.6260143183" flag="0"/>
      <psa10 value="0.1183093239" flag="0"/>
      <psa30 value="0.0100114165" flag="0"/>
    </comp>
    <comp name="00.HNZ">
      <acc value="0.2013783259" flag="0"/>
      <vel value="0.0820741999" flag="0"/>
      <psa03 value="0.5894494354" flag="0"/>
      <psa10 value="0.0376798076" flag="0"/>
      <psa30 value="0.0029201437" flag="0"/>
    </comp>
  </station>
  <station code="TNSA" name="TNSA" netid="HL" insttype="CMG-5" lat="37.5394" lon="25.1631">
    <comp name="00.HNE">
      <acc value="0.0337219477" flag="0"/>
      <vel value="0.0099560696" flag="0"/>
      <psa03 value="0.0860859359" flag="0"/>
      <psa10 value="0.0078090875" flag="0"/>
      <psa30 value="0.0013342940" flag="0"/>
    </comp>
    <comp name="00.HNN">
      <acc value="0.0347170125" flag="0"/>
      <vel value="0.0136492223" flag="0"/>
      <psa03 value="0.0731140315" flag="0"/>
      <psa10 value="0.0110759618" flag="0"/>
      <psa30 value="0.0010371332" flag="0"/>
    </comp>
    <comp name="00.HNZ">
      <acc value="0.0250075911" flag="0"/>
      <vel value="0.0102732387" flag="0"/>
      <psa03 value="0.0655265931" flag="0"/>
      <psa10 value="0.0065850498" flag="0"/>
      <psa30 value="0.0019296056" flag="0"/>
    </comp>
  </station>
  <station code="AKRO" name="AKRO" netid="HT" insttype="Compact," lat="36.3584" lon="25.3967">
    <comp name="--.HHE">
      <acc value="0.4057542167" flag="0"/>
      <vel value="0.1216108803" flag="0"/>
      <psa03 value="0.5787798618" flag="0"/>
      <psa10 value="0.0519770596" flag="0"/>
      <psa30 value="0.0038069091" flag="0"/>
    </comp>
    <comp name="--.HHN">
      <acc value="0.3501988346" flag="0"/>
      <vel value="0.0761836894" flag="0"/>
      <psa03 value="0.3975299192" flag="0"/>
      <psa10 value="0.0318193688" flag="0"/>
      <psa30 value="0.0027976533" flag="0"/>
    </comp>
    <comp name="--.HHZ">
      <acc value="0.1956723876" flag="0"/>
      <vel value="0.0639492878" flag="0"/>
      <psa03 value="0.3140788259" flag="0"/>
      <psa10 value="0.0196203184" flag="0"/>
      <psa30 value="0.0014779911" flag="0"/>
    </comp>
  </station>
  <station code="CMBO" name="CMBO" netid="HT" insttype="120P," lat="36.4709" lon="25.4056">
    <comp name="--.HHE">
      <acc value="0.2603016344" flag="0"/>
      <vel value="0.1017191677" flag="0"/>
      <psa03 value="0.4656140754" flag="0"/>
      <psa10 value="0.0537950836" flag="0"/>
      <psa30 value="0.0041850364" flag="0"/>
    </comp>
    <comp name="--.HHN">
      <acc value="0.3773601306" flag="0"/>
      <vel value="0.1209467377" flag="0"/>
      <psa03 value="0.5017525350" flag="0"/>
      <psa10 value="0.0679247559" flag="0"/>
      <psa30 value="0.0058119411" flag="0"/>
    </comp>
    <comp name="--.HHZ">
      <acc value="0.2302888597" flag="0"/>
      <vel value="0.0815985895" flag="0"/>
      <psa03 value="0.3769311392" flag="0"/>
      <psa10 value="0.0270976281" flag="0"/>
      <psa30 value="0.0052680117" flag="0"/>
    </comp>
  </station>
</stationlist>
