<?xml version="1.0" encoding="UTF-8" standalone="yes"?>
<!DOCTYPE earthquake SYSTEM "stationlist.dtd">
<stationlist created="" xmlns="ch.ethz.sed.shakemap.usgs.xml">
  <station code="APE" name="APE" netid="GE" insttype="STS-2/N" lat="37.0727" lon="25.523">
    <comp name="--.HHN">
      <acc value="0.1116110190" flag="0"/>
      <vel value="0.0267188430" flag="0"/>
      <psa03 value="0.0899793629" flag="0"/>
      <psa10 value="0.0070455820" flag="0"/>
      <psa30 value="0.0040907672" flag="0"/>
    </comp>
    <comp name="--.HHE">
      <acc value="0.0929799293" flag="0"/>
      <vel value="0.0345558205" flag="0"/>
      <psa03 value="0.1441855405" flag="0"/>
      <psa10 value="0.0133737303" flag="0"/>
      <psa30 value="0.0032975720" flag="0"/>
    </comp>
    <comp name="--.HHZ">
      <acc value="0.0427970922" flag="0"/>
      <vel value="0.0137031709" flag="0"/>
      <psa03 value="0.0592457637" flag="0"/>
      <psa10 value="0.0116898324" flag="0"/>
      <psa30 value="0.0050296661" flag="0"/>
    </comp>
  </station>
  <station code="THERA" name="THERA" netid="GE" insttype="STS-2/N" lat="36.367" lon="25.4753">
    <comp name="--.HHZ">
      <acc value="0.0575460337" flag="0"/>
      <vel value="0.0133355592" flag="0"/>
      <psa03 value="0.0838143230" flag="0"/>
      <psa10 value="0.0083754809" flag="0"/>
      <psa30 value="0.0016454040" flag="0"/>
    </comp>
    <comp name="--.HHE">
      <acc value="0.0740640553" flag="0"/>
      <vel value="0.0222154420" flag="0"/>
      <psa03 value="0.0884776850" flag="0"/>
      <psa10 value="0.0098975157" flag="0"/>
      <psa30 value="0.0014579079" flag="0"/>
    </comp>
    <comp name="--.HHN">
      <acc value="0.0607524986" flag="0"/>
      <vel value="0.0154998393" flag="0"/>
      <psa03 value="0.0630566796" flag="0"/>
      <psa10 value="0.0074522823" flag="0"/>
      <psa30 value="0.0011710674" flag="0"/>
    </comp>
  </station>
</stationlist>
