<?xml version="1.0" encoding="UTF-8" standalone="yes"?>
<!DOCTYPE earthquake SYSTEM "stationlist.dtd">
<stationlist created="" xmlns="ch.ethz.sed.shakemap.usgs.xml">
  <station code="LMN1" name="LMN1" netid="HI" insttype="CMG-5TD,ACCELEROMETER,GURALP" lat="39.875" lon="25.0588">
    <comp name="--.HNZ">
      <acc value="0.3808278269" flag="0"/>
      <vel value="0.0621146276" flag="0"/>
      <psa03 value="0.1464852328" flag="0"/>
      <psa10 value="0.0199942868" flag="0"/>
      <psa30 value="0.0016747830" flag="0"/>
    </comp>
    <comp name="--.HNN">
      <acc value="0.2668213535" flag="0"/>
      <vel value="0.0661095215" flag="0"/>
      <psa03 value="0.3817719476" flag="0"/>
      <psa10 value="0.0249453339" flag="0"/>
      <psa30 value="0.0023395071" flag="0"/>
    </comp>
    <comp name="--.HNE">
      <acc value="0.3705715717" flag="0"/>
      <vel value="0.1126071364" flag="0"/>
      <psa03 value="0.5367826839" flag="0"/>
      <psa10 value="0.0410036855" flag="0"/>
      <psa30 value="0.0026236448" flag="0"/>
    </comp>
  </station>
  <station code="THS1" name="THS1" netid="HI" insttype="CMG-5TD,ACCELEROMETER,GURALP" lat="40.7385" lon="24.5751">
    <comp name="--.HNZ">
      <acc value="0.1542668852" flag="0"/>
      <vel value="0.0345060706" flag="0"/>
      <psa03 value="0.1499811289" flag="0"/>
      <psa10 value="0.0136072007" flag="0"/>
      <psa30 value="0.0008030624" flag="0"/>
    </comp>
    <comp name="--.HNN">
      <acc value="0.1630195295" flag="0"/>
      <vel value="0.0410970837" flag="0"/>
      <psa03 value="0.2015989291" flag="0"/>
      <psa10 value="0.0233933984" flag="0"/>
      <psa30 value="0.0017549540" flag="0"/>
    </comp>
    <comp name="--.HNE">
      <acc value="0.1475802678" flag="0"/>
      <vel value="0.0428298612" flag="0"/>
      <psa03 value="0.1665162407" flag="0"/>
      <psa10 value="0.0193959245" flag="0"/>
      <psa30 value="0.0012646508" flag="0"/>
    </comp>
  </station>
  <station code="EFSA" name="EFSA" netid="HL" insttype="CMG-5" lat="39.5401" lon="24.9886">
    <comp name="00.HNE">
      <acc value="0.0217025464" flag="0"/>
      <vel value="0.0188801672" flag="0"/>
      <psa03 value="0.0466343039" flag="0"/>
      <psa10 value="0.0202972905" flag="0"/>
      <psa30 value="0.0011222409" flag="0"/>
    </comp>
    <comp name="00.HNN">
      <acc value="0.0228536638" flag="0"/>
      <vel value="0.0086725262" flag="0"/>
      <psa03 value="0.0634742259" flag="0"/>
      <psa10 value="0.0072923874" flag="0"/>
      <psa30 value="0.0006117148" flag="0"/>
    </comp>
    <comp name="00.HNZ">
      <acc value="0.0219077526" flag="0"/>
      <vel value="0.0068984953" flag="0"/>
      <psa03 value="0.0437898018" flag="0"/>
      <psa10 value="0.0103469451" flag="0"/>
      <psa30 value="0.0004680057" flag="0"/>
    </comp>
  </station>
  <station code="LIA" name="LIA" netid="HL" insttype="P6C" lat="39.8972" lon="25.1806">
    <comp name="--.HHZ">
      <acc value="0.1674273007" flag="0"/>
      <vel value="0.0514943440" flag="0"/>
      <psa03 value="0.3323466665" flag="0"/>
      <psa10 value="0.0372100609" flag="0"/>
      <psa30 value="0.0022276491" flag="0"/>
    </comp>
    <comp name="--.HHN">
      <acc value="0.2942563599" flag="0"/>
      <vel value="0.1657894390" flag="0"/>
      <psa03 value="0.8512996423" flag="0"/>
      <psa10 value="0.0772638680" flag="0"/>
      <psa30 value="0.0045606774" flag="0"/>
    </comp>
    <comp name="--.HHE">
      <acc value="0.3389839462" flag="0"/>
      <vel value="0.1488345639" flag="0"/>
      <psa03 value="0.9435626962" flag="0"/>
      <psa10 value="0.0808192206" flag="0"/>
      <psa30 value="0.0069371851" flag="0"/>
    </comp>
  </station>
  <station code="SMTH" name="SMTH" netid="HL" insttype="CMG3ESPC60_P6C" lat="40.4709" lon="25.5304">
    <comp name="--.HHE">
      <acc value="0.0779510788" flag="0"/>
      <vel value="0.0137703818" flag="0"/>
      <psa03 value="0.0336944051" flag="0"/>
      <psa10 value="0.0061295403" flag="0"/>
      <psa30 value="0.0004947372" flag="0"/>
    </comp>
    <comp name="--.HHN">
      <acc value="0.0842650251" flag="0"/>
      <vel value="0.0148508622" flag="0"/>
      <psa03 value="0.0543815762" flag="0"/>
      <psa10 value="0.0057023036" flag="0"/>
      <psa30 value="0.0005135544" flag="0"/>
    </comp>
    <comp name="--.HHZ">
      <acc value="0.0713685163" flag="0"/>
      <vel value="0.0124053679" flag="0"/>
      <psa03 value="0.0296680895" flag="0"/>
      <psa10 value="0.0030660574" flag="0"/>
      <psa30 value="0.0002588504" flag="0"/>
    </comp>
  </station>
  <station code="OUR" name="OUR" netid="HT" insttype="100" lat="40.3325" lon="23.9791">
    <comp name="--.HHE">
      <acc value="0.0152901100" flag="0"/>
      <vel value="0.0068569585" flag="0"/>
      <psa03 value="0.0606787219" flag="0"/>
      <psa10 value="0.0054767201" flag="0"/>
      <psa30 value="0.0004062515" flag="0"/>
    </comp>
    <comp name="--.HHZ">
      <acc value="0.0152148553" flag="0"/>
      <vel value="0.0060112697" flag="0"/>
      <psa03 value="0.0243471707" flag="0"/>
      <psa10 value="0.0057274824" flag="0"/>
      <psa30 value="0.0003929624" flag="0"/>
    </comp>
    <comp name="--.HHN">
      <acc value="0.0242996980" flag="0"/>
      <vel value="0.0082436757" flag="0"/>
      <psa03 value="0.0491106922" flag="0"/>
      <psa10 value="0.0062261021" flag="0"/>
      <psa30 value="0.0005317610" flag="0"/>
    </comp>
  </station>
  <station code="PAIG" name="PAIG" netid="HT" insttype="100" lat="39.9363" lon="23.6768">
    <comp name="--.HHZ">
      <acc value="0.0008898167" flag="0"/>
      <vel value="0.0007438580" flag="0"/>
      <psa03 value="0.0017054362" flag="0"/>
      <psa10 value="0.0010856948" flag="0"/>
      <psa30 value="0.0000632076" flag="0"/>
    </comp>
    <comp name="--.HHN">
      <acc value="0.0012672743" flag="0"/>
      <vel value="0.0009453163" flag="0"/>
      <psa03 value="0.0028894118" flag="0"/>
      <psa10 value="0.0013270834" flag="0"/>
      <psa30 value="0.0001532587" flag="0"/>
    </comp>
    <comp name="--.HHE">
      <acc value="0.0012894909" flag="0"/>
      <vel value="0.0009672669" flag="0"/>
      <psa03 value="0.0025855257" flag="0"/>
      <psa10 value="0.0013190448" flag="0"/>
      <psa30 value="0.0001396050" flag="0"/>
    </comp>
  </station>
  <station code="THAS" name="THAS" netid="HT" insttype="100" lat="40.6064" lon="24.7194">
    <comp name="--.HHZ">
      <acc value="0.0641181383" flag="0"/>
      <vel value="0.0110998409" flag="0"/>
      <psa03 value="0.0647724342" flag="0"/>
      <psa10 value="0.0045601479" flag="0"/>
      <psa30 value="0.0003286246" flag="0"/>
    </comp>
    <comp name="--.HHE">
      <acc value="0.0776857533" flag="0"/>
      <vel value="0.0172200597" flag="0"/>
      <psa03 value="0.1024191259" flag="0"/>
      <psa10 value="0.0044802520" flag="0"/>
      <psa30 value="0.0005920722" flag="0"/>
    </comp>
    <comp name="--.HHN">
      <acc value="0.1127619228" flag="0"/>
      <vel value="0.0234648399" flag="0"/>
      <psa03 value="0.0661685963" flag="0"/>
      <psa10 value="0.0072236620" flag="0"/>
      <psa30 value="0.0005107454" flag="0"/>
    </comp>
  </station>
  <station code="EZN" name="EZN" netid="KO" insttype="120s," lat="39.8255" lon="26.3247">
    <comp name="--.HHN">
      <acc value="0.0274593209" flag="0"/>
      <vel value="0.0077058536" flag="0"/>
      <psa03 value="0.0319138961" flag="0"/>
      <psa10 value="0.0091284495" flag="0"/>
      <psa30 value="0.0005890543" flag="0"/>
    </comp>
    <comp name="--.HHE">
      <acc value="0.0208556466" flag="0"/>
      <vel value="0.0083857858" flag="0"/>
      <psa03 value="0.0409656419" flag="0"/>
      <psa10 value="0.0103842093" flag="0"/>
      <psa30 value="0.0005481386" flag="0"/>
    </comp>
    <comp name="--.HHZ">
      <acc value="0.0185280948" flag="0"/>
      <vel value="0.0089423016" flag="0"/>
      <psa03 value="0.0381030209" flag="0"/>
      <psa10 value="0.0077365282" flag="0"/>
      <psa30 value="0.0005341514" flag="0"/>
    </comp>
  </station>
  <station code="GELI" name="GELI" netid="KO" insttype="30s," lat="40.398" lon="26.4742">
    <comp name="--.HHN">
      <acc value="0.0139328955" flag="0"/>
      <vel value="0.0055732246" flag="0"/>
      <psa03 value="0.0352280470" flag="0"/>
      <psa10 value="0.0054344737" flag="0"/>
      <psa30 value="0.0005999761" flag="0"/>
    </comp>
    <comp name="--.HHE">
      <acc value="0.0118416173" flag="0"/>
      <vel value="0.0072716907" flag="0"/>
      <psa03 value="0.0336421853" flag="0"/>
      <psa10 value="0.0042630402" flag="0"/>
      <psa30 value="0.0004267828" flag="0"/>
    </comp>
    <comp name="--.HHZ">
      <acc value="0.0084647573" flag="0"/>
      <vel value="0.0043889319" flag="0"/>
      <psa03 value="0.0223023078" flag="0"/>
      <psa10 value="0.0051371318" flag="0"/>
      <psa30 value="0.0005015359" flag="0"/>
    </comp>
  </station>
</stationlist>
