<stationlist created="1778136022">
	<station code="BUT" name="BUT" netid="EG" source="EUROSEISTEST Strong Motion Network" insttype="" lat="40.652694" lon="23.300668">
		<comp name="--.EN1" depth="0.0">
			<acc value="0.0207771236970437" flag="0"/>
			<vel value="0.0144202061730373" flag="0"/>
			<psa03 value="0.0592034375622394" flag="0"/>
			<psa10 value="0.0194759795630503" flag="0"/>
			<psa30 value="0.00106817190698013" flag="0"/>
		</comp>
		<comp name="--.EN2" depth="0.0">
			<acc value="0.0277099786163559" flag="0"/>
			<vel value="0.0179556984635911" flag="0"/>
			<psa03 value="0.0981965883753445" flag="0"/>
			<psa10 value="0.026638745936199" flag="0"/>
			<psa30 value="0.00102894045392139" flag="0"/>
		</comp>
		<comp name="--.EN3" depth="0.0">
			<acc value="0.0212135094984161" flag="0"/>
			<vel value="0.0136997949956509" flag="0"/>
			<psa03 value="0.0684973292784548" flag="0"/>
			<psa10 value="0.00900574908666026" flag="0"/>
			<psa30 value="0.000561273796218039" flag="0"/>
		</comp>
	</station>
	<station code="E02" name="E02" netid="EG" source="EUROSEISTEST Strong Motion Network" insttype="" lat="40.674206" lon="23.315498">
		<comp name="--.EN1" depth="0.0">
			<acc value="0.0155951878576659" flag="0"/>
			<vel value="0.0145139296483517" flag="0"/>
			<psa03 value="0.0718837827811485" flag="0"/>
			<psa10 value="0.0236174782920314" flag="0"/>
			<psa30 value="0.0011806759223168" flag="0"/>
		</comp>
		<comp name="--.EN2" depth="0.0">
			<acc value="0.0220572024346758" flag="0"/>
			<vel value="0.0198030869128006" flag="0"/>
			<psa03 value="0.0938013180435514" flag="0"/>
			<psa10 value="0.0283273627987508" flag="0"/>
			<psa30 value="0.00149776286527287" flag="0"/>
		</comp>
		<comp name="--.EN3" depth="0.0">
			<acc value="0.0135402058253727" flag="0"/>
			<vel value="0.00890000261702585" flag="0"/>
			<psa03 value="0.0492744360646201" flag="0"/>
			<psa10 value="0.0137091981670966" flag="0"/>
			<psa30 value="0.000671936960442479" flag="0"/>
		</comp>
	</station>
	<station code="GRA" name="GRA" netid="EG" source="EUROSEISTEST Strong Motion Network" insttype="" lat="40.675442" lon="23.289389">
		<comp name="--.EN1" depth="0.0">
			<acc value="0.00552527648107957" flag="0"/>
			<vel value="0.00343734156256438" flag="0"/>
			<psa03 value="0.0207504371146398" flag="0"/>
			<psa10 value="0.0033259957215201" flag="0"/>
			<psa30 value="0.000574323671126733" flag="0"/>
		</comp>
		<comp name="--.EN2" depth="0.0">
			<acc value="0.0212910501272804" flag="0"/>
			<vel value="0.011706610235976" flag="0"/>
			<psa03 value="0.0548966105891779" flag="0"/>
			<psa10 value="0.00733401818648054" flag="0"/>
			<psa30 value="0.000578642082199366" flag="0"/>
		</comp>
		<comp name="--.EN3" depth="0.0">
			<acc value="0.0214319342424751" flag="0"/>
			<vel value="0.0100420970741451" flag="0"/>
			<psa03 value="0.0695648270784062" flag="0"/>
			<psa10 value="0.00769604185624778" flag="0"/>
			<psa30 value="0.000519408835369705" flag="0"/>
		</comp>
	</station>
	<station code="PRR" name="PRR" netid="EG" source="EUROSEISTEST Strong Motion Network" insttype="" lat="40.682635" lon="23.300668">
		<comp name="--.EN1" depth="0.0">
			<acc value="0.00701262844058485" flag="0"/>
			<vel value="0.00499706432891175" flag="0"/>
			<psa03 value="0.0281135290500114" flag="0"/>
			<psa10 value="0.00344115460022776" flag="0"/>
			<psa30 value="0.000313888840470026" flag="0"/>
		</comp>
		<comp name="--.EN2" depth="0.0">
			<acc value="0.00810468812213233" flag="0"/>
			<vel value="0.00544913070402143" flag="0"/>
			<psa03 value="0.0177988118964378" flag="0"/>
			<psa10 value="0.00336787802726737" flag="0"/>
			<psa30 value="0.000218961380116991" flag="0"/>
		</comp>
		<comp name="--.EN3" depth="0.0">
			<acc value="0.00431223390019616" flag="0"/>
			<vel value="0.00348322953893592" flag="0"/>
			<psa03 value="0.012710776922415" flag="0"/>
			<psa10 value="0.00335762555121622" flag="0"/>
			<psa30 value="0.000269053526600751" flag="0"/>
		</comp>
	</station>
	<station code="STC" name="STC" netid="EG" source="EUROSEISTEST Strong Motion Network" insttype="" lat="40.64865" lon="23.304856">
		<comp name="--.EN1" depth="0.0">
			<acc value="0.0164741377767257" flag="0"/>
			<vel value="0.0100113714980344" flag="0"/>
			<psa03 value="0.0439468852237969" flag="0"/>
			<psa10 value="0.0111334816010048" flag="0"/>
			<psa30 value="0.000715905289797103" flag="0"/>
		</comp>
		<comp name="--.EN2" depth="0.0">
			<acc value="0.0171742788567027" flag="0"/>
			<vel value="0.0110570257774701" flag="0"/>
			<psa03 value="0.0526273092177723" flag="0"/>
			<psa10 value="0.00819925628547969" flag="0"/>
			<psa30 value="0.000473308958562815" flag="0"/>
		</comp>
		<comp name="--.EN3" depth="0.0">
			<acc value="0.00757340095752647" flag="0"/>
			<vel value="0.005690966911879" flag="0"/>
			<psa03 value="0.0262063271863774" flag="0"/>
			<psa10 value="0.00669839232938298" flag="0"/>
			<psa30 value="0.000332640811863125" flag="0"/>
		</comp>
	</station>
	<station code="TST" name="TST" netid="EG" source="EUROSEISTEST Strong Motion Network" insttype="" lat="40.6638" lon="23.2906">
		<comp name="00.EN1" depth="0.0">
			<acc value="0.0137437995619175" flag="0"/>
			<vel value="0.0105603951876522" flag="0"/>
			<psa03 value="0.0401521650922185" flag="0"/>
			<psa10 value="0.0119872931618403" flag="0"/>
			<psa30 value="0.000727944316487901" flag="0"/>
		</comp>
		<comp name="00.EN2" depth="0.0">
			<acc value="0.0065685480681168" flag="0"/>
			<vel value="0.0045802368230635" flag="0"/>
			<psa03 value="0.0216649234761087" flag="0"/>
			<psa10 value="0.00829273779068353" flag="0"/>
			<psa30 value="0.000283713560255819" flag="0"/>
		</comp>
		<comp name="00.EN3" depth="0.0">
			<acc value="0.00998881845092605" flag="0"/>
			<vel value="0.0124250341220285" flag="0"/>
			<psa03 value="0.0397990114892006" flag="0"/>
			<psa10 value="0.0232261773702471" flag="0"/>
			<psa30 value="0.0014561231276771" flag="0"/>
		</comp>
	</station>
	<station code="DRA2" name="DRA2" netid="HI" source="ITSAK Strong Motion Network" insttype="" lat="41.1593" lon="24.1485">
		<comp name="--.HNE" depth="0.0">
			<acc value="0.0693544160454869" flag="0"/>
			<vel value="0.035706632597607" flag="0"/>
			<psa03 value="0.260354900311723" flag="0"/>
			<psa10 value="0.0134978288926002" flag="0"/>
			<psa30 value="0.00154673808279365" flag="0"/>
		</comp>
		<comp name="--.HNN" depth="0.0">
			<acc value="0.0498789061865714" flag="0"/>
			<vel value="0.0206350736821076" flag="0"/>
			<psa03 value="0.182279749762839" flag="0"/>
			<psa10 value="0.0114401348102259" flag="0"/>
			<psa30 value="0.000897081242696348" flag="0"/>
		</comp>
		<comp name="--.HNZ" depth="0.0">
			<acc value="0.0451461927832056" flag="0"/>
			<vel value="0.0106230904588978" flag="0"/>
			<psa03 value="0.0484558097675883" flag="0"/>
			<psa10 value="0.00483215831477335" flag="0"/>
			<psa30 value="0.000420576742211754" flag="0"/>
		</comp>
	</station>
	<station code="LMN1" name="LMN1" netid="HI" source="ITSAK Strong Motion Network" insttype="" lat="39.875" lon="25.0588">
		<comp name="--.HNE" depth="0.0">
			<acc value="0.361646901154841" flag="0"/>
			<vel value="0.114781068934442" flag="0"/>
			<psa03 value="0.528852882227972" flag="0"/>
			<psa10 value="0.041089452869956" flag="0"/>
			<psa30 value="0.00283307652306897" flag="0"/>
		</comp>
		<comp name="--.HNN" depth="0.0">
			<acc value="0.259158031992018" flag="0"/>
			<vel value="0.0668766517342076" flag="0"/>
			<psa03 value="0.380845662734729" flag="0"/>
			<psa10 value="0.0250466872649085" flag="0"/>
			<psa30 value="0.00240892040432775" flag="0"/>
		</comp>
		<comp name="--.HNZ" depth="0.0">
			<acc value="0.383584314033134" flag="0"/>
			<vel value="0.0659079616387233" flag="0"/>
			<psa03 value="0.148678352592517" flag="0"/>
			<psa10 value="0.020013189020353" flag="0"/>
			<psa30 value="0.00164159156082439" flag="0"/>
		</comp>
	</station>
	<station code="MYT1" name="MYT1" netid="HI" source="ITSAK Strong Motion Network" insttype="" lat="39.085" lon="26.5694">
		<comp name="--.HNE" depth="0.0">
			<acc value="0.00619872862122979" flag="0"/>
			<vel value="0.00641876838917743" flag="0"/>
			<psa03 value="0.0194628598789482" flag="0"/>
			<psa10 value="0.00523886497293344" flag="0"/>
			<psa30 value="0.00118029941059001" flag="0"/>
		</comp>
		<comp name="--.HNN" depth="0.0">
			<acc value="0.0158119078951347" flag="0"/>
			<vel value="0.0111544138847656" flag="0"/>
			<psa03 value="0.0246529558466677" flag="0"/>
			<psa10 value="0.0081703743505626" flag="0"/>
			<psa30 value="0.00127157351209128" flag="0"/>
		</comp>
		<comp name="--.HNZ" depth="0.0">
			<acc value="0.00809589922184835" flag="0"/>
			<vel value="0.00648132641821074" flag="0"/>
			<psa03 value="0.0172257495480346" flag="0"/>
			<psa10 value="0.00669253926596109" flag="0"/>
			<psa30 value="0.000569120868184417" flag="0"/>
		</comp>
	</station>
	<station code="SFL1" name="SFL1" netid="HI" source="ITSAK Strong Motion Network" insttype="" lat="41.189954" lon="26.304374">
		<comp name="--.HNE" depth="0.0">
			<acc value="0.0937609275044847" flag="0"/>
			<vel value="0.0670968757027747" flag="0"/>
			<psa03 value="0.338072113207661" flag="0"/>
			<psa10 value="0.0375941916889367" flag="0"/>
			<psa30 value="0.00224695361636961" flag="0"/>
		</comp>
		<comp name="--.HNN" depth="0.0">
			<acc value="0.0865484326880503" flag="0"/>
			<vel value="0.0460009131931199" flag="0"/>
			<psa03 value="0.241160493672485" flag="0"/>
			<psa10 value="0.0838137859697437" flag="0"/>
			<psa30 value="0.00388541322273072" flag="0"/>
		</comp>
		<comp name="--.HNZ" depth="0.0">
			<acc value="0.0341021246575787" flag="0"/>
			<vel value="0.0194371810786672" flag="0"/>
			<psa03 value="0.0823704023842383" flag="0"/>
			<psa10 value="0.0185031395469863" flag="0"/>
			<psa30 value="0.00089394928823307" flag="0"/>
		</comp>
	</station>
	<station code="THS1" name="THS1" netid="HI" source="ITSAK Strong Motion Network" insttype="" lat="40.738476" lon="24.575145">
		<comp name="--.HNE" depth="0.0">
			<acc value="0.147309595373763" flag="0"/>
			<vel value="0.0437582543186744" flag="0"/>
			<psa03 value="0.169707189703105" flag="0"/>
			<psa10 value="0.0194252764253889" flag="0"/>
			<psa30 value="0.00128007453134875" flag="0"/>
		</comp>
		<comp name="--.HNN" depth="0.0">
			<acc value="0.160170184344749" flag="0"/>
			<vel value="0.0414092959707001" flag="0"/>
			<psa03 value="0.206887963402889" flag="0"/>
			<psa10 value="0.0234158338336725" flag="0"/>
			<psa30 value="0.00178745115439996" flag="0"/>
		</comp>
		<comp name="--.HNZ" depth="0.0">
			<acc value="0.154985676909452" flag="0"/>
			<vel value="0.036095194767729" flag="0"/>
			<psa03 value="0.150020618791065" flag="0"/>
			<psa10 value="0.0136870884265955" flag="0"/>
			<psa30 value="0.000838468952026413" flag="0"/>
		</comp>
	</station>
	<station code="EFSA" name="EFSA" netid="HL" source="National Observatory of Athens Seismic Network" insttype="" lat="39.54015" lon="24.98864">
		<comp name="00.HNE" depth="0.0">
			<acc value="0.021418151034141" flag="0"/>
			<vel value="0.0188868018193341" flag="0"/>
			<psa03 value="0.0468003481227123" flag="0"/>
			<psa10 value="0.0203111721164306" flag="0"/>
			<psa30 value="0.00113555720397174" flag="0"/>
		</comp>
		<comp name="00.HNN" depth="0.0">
			<acc value="0.0230184692698003" flag="0"/>
			<vel value="0.00859309640475676" flag="0"/>
			<psa03 value="0.0632654801582363" flag="0"/>
			<psa10 value="0.0073005858539034" flag="0"/>
			<psa30 value="0.000627733158854353" flag="0"/>
		</comp>
		<comp name="00.HNZ" depth="0.0">
			<acc value="0.0216895535602223" flag="0"/>
			<vel value="0.00690960947403274" flag="0"/>
			<psa03 value="0.0438473624859063" flag="0"/>
			<psa10 value="0.0103609527865932" flag="0"/>
			<psa30 value="0.000473819968087498" flag="0"/>
		</comp>
	</station>
	<station code="LIA" name="LIA" netid="HL" source="National Observatory of Athens Seismic Network" insttype="" lat="39.89725" lon="25.18055">
		<comp name="00.HNE" depth="0.0">
			<acc value="0.35472394723409" flag="0"/>
			<vel value="0.15924957356834" flag="0"/>
			<psa03 value="0.987639468891731" flag="0"/>
			<psa10 value="0.0698528752386444" flag="0"/>
			<psa30 value="0.00648627769345085" flag="0"/>
		</comp>
		<comp name="00.HNN" depth="0.0">
			<acc value="0.37203055416744" flag="0"/>
			<vel value="0.187397936904742" flag="0"/>
			<psa03 value="0.845582962878718" flag="0"/>
			<psa10 value="0.088601649499965" flag="0"/>
			<psa30 value="0.00428988277055989" flag="0"/>
		</comp>
		<comp name="00.HNZ" depth="0.0">
			<acc value="0.165787854510731" flag="0"/>
			<vel value="0.0509876673680444" flag="0"/>
			<psa03 value="0.320443683800062" flag="0"/>
			<psa10 value="0.0357458911335359" flag="0"/>
			<psa30 value="0.00212659708056646" flag="0"/>
		</comp>
	</station>
	<station code="PRK" name="PRK" netid="HL" source="National Observatory of Athens Seismic Network" insttype="" lat="39.24565" lon="26.26499">
		<comp name="--.HNE" depth="0.0">
			<acc value="0.0196214553304249" flag="0"/>
			<vel value="0.0127254895530104" flag="0"/>
			<psa03 value="0.0521246707102866" flag="0"/>
			<psa10 value="0.0152494862817056" flag="0"/>
			<psa30 value="0.00145993820195421" flag="0"/>
		</comp>
		<comp name="--.HNN" depth="0.0">
			<acc value="0.0210243436352847" flag="0"/>
			<vel value="0.0144303849096496" flag="0"/>
			<psa03 value="0.0540485855948723" flag="0"/>
			<psa10 value="0.0264520399747884" flag="0"/>
			<psa30 value="0.00212972903502974" flag="0"/>
		</comp>
		<comp name="--.HNZ" depth="0.0">
			<acc value="0.014621236263691" flag="0"/>
			<vel value="0.00961189741867978" flag="0"/>
			<psa03 value="0.034898921162252" flag="0"/>
			<psa10 value="0.00684153081399993" flag="0"/>
			<psa30 value="0.000611178542405592" flag="0"/>
		</comp>
	</station>
	<station code="SMTH" name="SMTH" netid="HL" source="National Observatory of Athens Seismic Network" insttype="" lat="40.47094" lon="25.53045">
		<comp name="00.HNE" depth="0.0">
			<acc value="0.0829804213018878" flag="0"/>
			<vel value="0.0144648644583238" flag="0"/>
			<psa03 value="0.0332434595173759" flag="0"/>
			<psa10 value="0.00599992990751024" flag="0"/>
			<psa30 value="0.00043802620279288" flag="0"/>
		</comp>
		<comp name="00.HNN" depth="0.0">
			<acc value="0.0901501590514122" flag="0"/>
			<vel value="0.0154729304857524" flag="0"/>
			<psa03 value="0.0548986875206194" flag="0"/>
			<psa10 value="0.00568583961704997" flag="0"/>
			<psa30 value="0.000561962115125493" flag="0"/>
		</comp>
		<comp name="00.HNZ" depth="0.0">
			<acc value="0.0750063494174726" flag="0"/>
			<vel value="0.0132980443016431" flag="0"/>
			<psa03 value="0.0299325362276238" flag="0"/>
			<psa10 value="0.00302412574532899" flag="0"/>
			<psa30 value="0.000272927460371458" flag="0"/>
		</comp>
	</station>
	<station code="GONE" name="GONE" netid="KO" source="Bogazici University Kandilli Observatory And Earthquake Research Institute (KOERI)" insttype="" lat="40.0466" lon="27.686">
		<comp name="--.HNE" depth="0.0">
			<acc value="0.0267387568628254" flag="0"/>
			<vel value="0.0247751022166759" flag="0"/>
			<psa03 value="0.0491269428668624" flag="0"/>
			<psa10 value="0.0305029993620068" flag="0"/>
			<psa30 value="0.00211720121717662" flag="0"/>
		</comp>
		<comp name="--.HNN" depth="0.0">
			<acc value="0.0265933003533089" flag="0"/>
			<vel value="0.0242658950535162" flag="0"/>
			<psa03 value="0.0622811516126343" flag="0"/>
			<psa10 value="0.0346425483183293" flag="0"/>
			<psa30 value="0.00312613797641865" flag="0"/>
		</comp>
		<comp name="--.HNZ" depth="0.0">
			<acc value="0.0152029073253614" flag="0"/>
			<vel value="0.0111430628865923" flag="0"/>
			<psa03 value="0.0270242927974361" flag="0"/>
			<psa10 value="0.0162239715418515" flag="0"/>
			<psa30 value="0.00126709929142946" flag="0"/>
		</comp>
	</station>
	<station code="UKOP" name="UKOP" netid="KO" source="Bogazici University Kandilli Observatory And Earthquake Research Institute (KOERI)" insttype="" lat="41.1288" lon="26.6323">
		<comp name="--.HNE" depth="0.0">
			<acc value="0.118815155445075" flag="0"/>
			<vel value="0.053724140642154" flag="0"/>
			<psa03 value="0.259817993832304" flag="0"/>
			<psa10 value="0.0442424361703457" flag="0"/>
			<psa30 value="0.00633728614541201" flag="0"/>
		</comp>
		<comp name="--.HNN" depth="0.0">
			<acc value="0.0950798540320987" flag="0"/>
			<vel value="0.0697628311581528" flag="0"/>
			<psa03 value="0.234583389299599" flag="0"/>
			<psa10 value="0.0768756119894483" flag="0"/>
			<psa30 value="0.00755337932129664" flag="0"/>
		</comp>
		<comp name="--.HNZ" depth="0.0">
			<acc value="0.0496402672832212" flag="0"/>
			<vel value="0.0305222557688552" flag="0"/>
			<psa03 value="0.110200054900803" flag="0"/>
			<psa10 value="0.0263352628155148" flag="0"/>
			<psa30 value="0.0022290567337223" flag="0"/>
		</comp>
	</station>
</stationlist>
