<?xml version="1.0" encoding="UTF-8" standalone="yes"?>
<!DOCTYPE earthquake SYSTEM "stationlist.dtd">
<stationlist created="" xmlns="ch.ethz.sed.shakemap.usgs.xml">
  <station code="OEM4" name="OEM4" netid="3D" insttype="" lat="38.4095" lon="14.9422">
    <comp name="--.HHE">
      <acc value="0.0108484741" flag="0"/>
      <vel value="0.0211495821" flag="0"/>
      <psa03 value="0.0291800841" flag="0"/>
      <psa10 value="0.0153598423" flag="0"/>
      <psa30 value="0.0088847666" flag="0"/>
    </comp>
    <comp name="--.HHN">
      <acc value="0.0092787209" flag="0"/>
      <vel value="0.0178690492" flag="0"/>
      <psa03 value="0.0134917850" flag="0"/>
      <psa10 value="0.0114699129" flag="0"/>
      <psa30 value="0.0121816006" flag="0"/>
    </comp>
    <comp name="--.HHZ">
      <acc value="0.0068343334" flag="0"/>
      <vel value="0.0035858785" flag="0"/>
      <psa03 value="0.0097474065" flag="0"/>
      <psa10 value="0.0029559572" flag="0"/>
      <psa30 value="0.0009427764" flag="0"/>
    </comp>
  </station>
  <station code="OEM5" name="OEM5" netid="3D" insttype="" lat="38.4223" lon="14.9661">
    <comp name="--.HHE">
      <acc value="0.0137458423" flag="0"/>
      <vel value="0.0342398590" flag="0"/>
      <psa03 value="0.0226370106" flag="0"/>
      <psa10 value="0.0235673960" flag="0"/>
      <psa30 value="0.0155015099" flag="0"/>
    </comp>
    <comp name="--.HHZ">
      <acc value="0.0076307096" flag="0"/>
      <vel value="0.0137855016" flag="0"/>
      <psa03 value="0.0168672923" flag="0"/>
      <psa10 value="0.0122887027" flag="0"/>
      <psa30 value="0.0085695094" flag="0"/>
    </comp>
    <comp name="--.HHN">
      <acc value="0.0139528936" flag="0"/>
      <vel value="0.0301901732" flag="0"/>
      <psa03 value="0.0249954955" flag="0"/>
      <psa10 value="0.0215529066" flag="0"/>
      <psa30 value="0.0124746044" flag="0"/>
    </comp>
  </station>
  <station code="OEM8" name="OEM8" netid="3D" insttype="" lat="38.4689" lon="14.9168">
    <comp name="--.HHE">
      <acc value="0.0064097480" flag="0"/>
      <vel value="0.0044591153" flag="0"/>
      <psa03 value="0.0218580688" flag="0"/>
      <psa10 value="0.0020487310" flag="0"/>
      <psa30 value="0.0003532027" flag="0"/>
    </comp>
    <comp name="--.HHN">
      <acc value="0.0096325524" flag="0"/>
      <vel value="0.0059815240" flag="0"/>
      <psa03 value="0.0261596856" flag="0"/>
      <psa10 value="0.0030851077" flag="0"/>
      <psa30 value="0.0012593226" flag="0"/>
    </comp>
    <comp name="--.HHZ">
      <acc value="0.0025103483" flag="0"/>
      <vel value="0.0014099368" flag="0"/>
      <psa03 value="0.0071326126" flag="0"/>
      <psa10 value="0.0011910677" flag="0"/>
      <psa30 value="0.0003383969" flag="0"/>
    </comp>
  </station>
  <station code="CS2FF" name="CS2FF" netid="7C" insttype="" lat="39.2933" lon="16.2584">
    <comp name="--.HH1">
      <acc value="0.0429567465" flag="0"/>
      <vel value="0.0329937725" flag="0"/>
      <psa03 value="0.0963805131" flag="0"/>
      <psa10 value="0.0378804316" flag="0"/>
      <psa30 value="0.0061698885" flag="0"/>
    </comp>
    <comp name="--.HHZ">
      <acc value="0.0177945369" flag="0"/>
      <vel value="0.0148956262" flag="0"/>
      <psa03 value="0.0390403503" flag="0"/>
      <psa10 value="0.0216967490" flag="0"/>
      <psa30 value="0.0024131952" flag="0"/>
    </comp>
    <comp name="--.HH2">
      <acc value="0.0315554619" flag="0"/>
      <vel value="0.0278907541" flag="0"/>
      <psa03 value="0.0698774904" flag="0"/>
      <psa10 value="0.0405749340" flag="0"/>
      <psa30 value="0.0079261146" flag="0"/>
    </comp>
  </station>
  <station code="CS2FS" name="CS2FS" netid="7C" insttype="" lat="39.2933" lon="16.2584">
    <comp name="--.HHE">
      <acc value="0.0239311936" flag="0"/>
      <vel value="0.0131486702" flag="0"/>
      <psa03 value="0.0472680961" flag="0"/>
      <psa10 value="0.0113807018" flag="0"/>
      <psa30 value="0.0015284959" flag="0"/>
    </comp>
    <comp name="--.HHN">
      <acc value="0.0253644546" flag="0"/>
      <vel value="0.0142458575" flag="0"/>
      <psa03 value="0.0450497637" flag="0"/>
      <psa10 value="0.0154668021" flag="0"/>
      <psa30 value="0.0028287589" flag="0"/>
    </comp>
    <comp name="--.HHZ">
      <acc value="0.0138459127" flag="0"/>
      <vel value="0.0051823397" flag="0"/>
      <psa03 value="0.0139689095" flag="0"/>
      <psa10 value="0.0072415033" flag="0"/>
      <psa30 value="0.0007783293" flag="0"/>
    </comp>
  </station>
  <station code="CSMBE" name="CSMBE" netid="7C" insttype="" lat="39.2895" lon="16.2642">
    <comp name="--.HNE">
      <acc value="0.0607013236" flag="0"/>
      <vel value="0.0583652630" flag="0"/>
      <psa03 value="0.1273987697" flag="0"/>
      <psa10 value="0.0682807891" flag="0"/>
      <psa30 value="0.0087839953" flag="0"/>
    </comp>
    <comp name="--.HNN">
      <acc value="0.0631115421" flag="0"/>
      <vel value="0.0416259298" flag="0"/>
      <psa03 value="0.1573053869" flag="0"/>
      <psa10 value="0.0382113012" flag="0"/>
      <psa30 value="0.0066196352" flag="0"/>
    </comp>
    <comp name="--.HNZ">
      <acc value="0.0408443699" flag="0"/>
      <vel value="0.0161985546" flag="0"/>
      <psa03 value="0.0429798951" flag="0"/>
      <psa10 value="0.0206021602" flag="0"/>
      <psa30 value="0.0026942709" flag="0"/>
    </comp>
  </station>
  <station code="MARCO" name="MARCO" netid="GE" insttype="VBB" lat="40.2972" lon="15.8063">
    <comp name="--.HHE">
      <acc value="0.0205502489" flag="0"/>
      <vel value="0.0143596015" flag="0"/>
      <psa03 value="0.0463699525" flag="0"/>
      <psa10 value="0.0104152017" flag="0"/>
      <psa30 value="0.0051098025" flag="0"/>
    </comp>
    <comp name="--.HHN">
      <acc value="0.0230244651" flag="0"/>
      <vel value="0.0231797051" flag="0"/>
      <psa03 value="0.0778087567" flag="0"/>
      <psa10 value="0.0220612184" flag="0"/>
      <psa30 value="0.0080710401" flag="0"/>
    </comp>
    <comp name="--.HHZ">
      <acc value="0.0219345362" flag="0"/>
      <vel value="0.0259708399" flag="0"/>
      <psa03 value="0.0493966679" flag="0"/>
      <psa10 value="0.0151139460" flag="0"/>
      <psa30 value="0.0032161684" flag="0"/>
    </comp>
  </station>
  <station code="MATE" name="MATE" netid="GE" insttype="STS-2/N" lat="40.6491" lon="16.7044">
    <comp name="--.HHN">
      <acc value="0.0195763604" flag="0"/>
      <vel value="0.0086074842" flag="0"/>
      <psa03 value="0.0300596051" flag="0"/>
      <psa10 value="0.0118929921" flag="0"/>
      <psa30 value="0.0010757343" flag="0"/>
    </comp>
    <comp name="--.HHZ">
      <acc value="0.0592760065" flag="0"/>
      <vel value="0.0193856935" flag="0"/>
      <psa03 value="0.0431985661" flag="0"/>
      <psa10 value="0.0146108542" flag="0"/>
      <psa30 value="0.0026473840" flag="0"/>
    </comp>
    <comp name="--.HHE">
      <acc value="0.0186294316" flag="0"/>
      <vel value="0.0223526880" flag="0"/>
      <psa03 value="0.0325346206" flag="0"/>
      <psa10 value="0.0228527474" flag="0"/>
      <psa30 value="0.0028361192" flag="0"/>
    </comp>
  </station>
  <station code="BULG" name="BULG" netid="IV" insttype="" lat="40.0783" lon="15.3776">
    <comp name="--.HHE">
      <acc value="0.0158428763" flag="0"/>
      <vel value="0.0142002676" flag="0"/>
      <psa03 value="0.0579089843" flag="0"/>
      <psa10 value="0.0110582421" flag="0"/>
      <psa30 value="0.0067483377" flag="0"/>
    </comp>
    <comp name="--.HHZ">
      <acc value="0.0207109040" flag="0"/>
      <vel value="0.0123172613" flag="0"/>
      <psa03 value="0.0403634524" flag="0"/>
      <psa10 value="0.0105790162" flag="0"/>
      <psa30 value="0.0033449651" flag="0"/>
    </comp>
    <comp name="--.HHN">
      <acc value="0.0319798207" flag="0"/>
      <vel value="0.0170045386" flag="0"/>
      <psa03 value="0.0538979614" flag="0"/>
      <psa10 value="0.0122690339" flag="0"/>
      <psa30 value="0.0050086159" flag="0"/>
    </comp>
  </station>
  <station code="CAFE" name="CAFE" netid="IV" insttype="" lat="41.028" lon="15.2366">
    <comp name="--.HHE">
      <acc value="0.0081637430" flag="0"/>
      <vel value="0.0186624033" flag="0"/>
      <psa03 value="0.0127729919" flag="0"/>
      <psa10 value="0.0169075124" flag="0"/>
      <psa30 value="0.0076686903" flag="0"/>
    </comp>
    <comp name="--.HHN">
      <acc value="0.0057233881" flag="0"/>
      <vel value="0.0219363678" flag="0"/>
      <psa03 value="0.0079861134" flag="0"/>
      <psa10 value="0.0091349540" flag="0"/>
      <psa30 value="0.0103351028" flag="0"/>
    </comp>
    <comp name="--.HHZ">
      <acc value="0.0118816300" flag="0"/>
      <vel value="0.0105366438" flag="0"/>
      <psa03 value="0.0183808814" flag="0"/>
      <psa10 value="0.0076520064" flag="0"/>
      <psa30 value="0.0035226211" flag="0"/>
    </comp>
  </station>
  <station code="CAR1" name="CAR1" netid="IV" insttype="" lat="39.2534" lon="16.2114">
    <comp name="--.HHE">
      <acc value="0.0968690021" flag="0"/>
      <vel value="0.1038739789" flag="0"/>
      <psa03 value="0.2162061050" flag="0"/>
      <psa10 value="0.1095257966" flag="0"/>
      <psa30 value="0.0092078683" flag="0"/>
    </comp>
    <comp name="--.HHN">
      <acc value="0.1135646290" flag="0"/>
      <vel value="0.1236528027" flag="0"/>
      <psa03 value="0.2709728311" flag="0"/>
      <psa10 value="0.1401965253" flag="0"/>
      <psa30 value="0.0114583570" flag="0"/>
    </comp>
    <comp name="--.HHZ">
      <acc value="0.0444728413" flag="0"/>
      <vel value="0.0220009376" flag="0"/>
      <psa03 value="0.1072003481" flag="0"/>
      <psa10 value="0.0234687428" flag="0"/>
      <psa30 value="0.0029368434" flag="0"/>
    </comp>
  </station>
  <station code="CBAC" name="CBAC" netid="IV" insttype="" lat="40.8109" lon="14.0806">
    <comp name="--.HHE">
      <acc value="0.0066186726" flag="0"/>
      <vel value="0.0195787692" flag="0"/>
      <psa03 value="0.0066260346" flag="0"/>
      <psa10 value="0.0081006746" flag="0"/>
      <psa30 value="0.0159333966" flag="0"/>
    </comp>
    <comp name="--.HHN">
      <acc value="0.0047237382" flag="0"/>
      <vel value="0.0155491743" flag="0"/>
      <psa03 value="0.0048153424" flag="0"/>
      <psa10 value="0.0065120672" flag="0"/>
      <psa30 value="0.0113303179" flag="0"/>
    </comp>
    <comp name="--.HHZ">
      <acc value="0.0020950065" flag="0"/>
      <vel value="0.0067489852" flag="0"/>
      <psa03 value="0.0033395465" flag="0"/>
      <psa10 value="0.0033075616" flag="0"/>
      <psa30 value="0.0043209122" flag="0"/>
    </comp>
  </station>
  <station code="CDRU" name="CDRU" netid="IV" insttype="" lat="40.4896" lon="15.3046">
    <comp name="--.HHE">
      <acc value="0.0118897637" flag="0"/>
      <vel value="0.0051307650" flag="0"/>
      <psa03 value="0.0214702488" flag="0"/>
      <psa10 value="0.0035734840" flag="0"/>
      <psa30 value="0.0025440752" flag="0"/>
    </comp>
    <comp name="--.HHZ">
      <acc value="0.0067977705" flag="0"/>
      <vel value="0.0065453895" flag="0"/>
      <psa03 value="0.0190852403" flag="0"/>
      <psa10 value="0.0064292153" flag="0"/>
      <psa30 value="0.0026835181" flag="0"/>
    </comp>
    <comp name="--.HHN">
      <acc value="0.0055486158" flag="0"/>
      <vel value="0.0032633901" flag="0"/>
      <psa03 value="0.0148345213" flag="0"/>
      <psa10 value="0.0038004424" flag="0"/>
      <psa30 value="0.0005115959" flag="0"/>
    </comp>
  </station>
  <station code="CELI" name="CELI" netid="IV" insttype="" lat="39.4027" lon="16.5088">
    <comp name="--.HHZ">
      <acc value="0.0398586568" flag="0"/>
      <vel value="0.0312370316" flag="0"/>
      <psa03 value="0.1111821417" flag="0"/>
      <psa10 value="0.0188466498" flag="0"/>
      <psa30 value="0.0036273801" flag="0"/>
    </comp>
    <comp name="--.HHE">
      <acc value="0.0516469799" flag="0"/>
      <vel value="0.0591195596" flag="0"/>
      <psa03 value="0.0940711332" flag="0"/>
      <psa10 value="0.0551243868" flag="0"/>
      <psa30 value="0.0139303550" flag="0"/>
    </comp>
    <comp name="--.HHN">
      <acc value="0.0514623477" flag="0"/>
      <vel value="0.0592374246" flag="0"/>
      <psa03 value="0.0904675456" flag="0"/>
      <psa10 value="0.0409855245" flag="0"/>
      <psa30 value="0.0106607779" flag="0"/>
    </comp>
  </station>
  <station code="CET2" name="CET2" netid="IV" insttype="" lat="39.5288" lon="15.9546">
    <comp name="--.HHE">
      <acc value="0.0960396903" flag="0"/>
      <vel value="0.0967626151" flag="0"/>
      <psa03 value="0.1467976410" flag="0"/>
      <psa10 value="0.1389541189" flag="0"/>
      <psa30 value="0.0121235128" flag="0"/>
    </comp>
    <comp name="--.HHN">
      <acc value="0.1520844703" flag="0"/>
      <vel value="0.0943002109" flag="0"/>
      <psa03 value="0.3085437185" flag="0"/>
      <psa10 value="0.0721301143" flag="0"/>
      <psa30 value="0.0110357192" flag="0"/>
    </comp>
    <comp name="--.HHZ">
      <acc value="0.1127957333" flag="0"/>
      <vel value="0.0596156160" flag="0"/>
      <psa03 value="0.2340880004" flag="0"/>
      <psa10 value="0.0306985865" flag="0"/>
      <psa30 value="0.0024462240" flag="0"/>
    </comp>
  </station>
  <station code="CMIS" name="CMIS" netid="IV" insttype="" lat="40.7782" lon="14.089">
    <comp name="--.HHE">
      <acc value="0.0042583616" flag="0"/>
      <vel value="0.0108067529" flag="0"/>
      <psa03 value="0.0068338736" flag="0"/>
      <psa10 value="0.0083129523" flag="0"/>
      <psa30 value="0.0068021671" flag="0"/>
    </comp>
    <comp name="--.HHZ">
      <acc value="0.0022056563" flag="0"/>
      <vel value="0.0045493292" flag="0"/>
      <psa03 value="0.0035123889" flag="0"/>
      <psa10 value="0.0043219701" flag="0"/>
      <psa30 value="0.0025156776" flag="0"/>
    </comp>
    <comp name="--.HHN">
      <acc value="0.0047931889" flag="0"/>
      <vel value="0.0158370503" flag="0"/>
      <psa03 value="0.0075438050" flag="0"/>
      <psa10 value="0.0052225535" flag="0"/>
      <psa30 value="0.0181145935" flag="0"/>
    </comp>
  </station>
  <station code="CMPR" name="CMPR" netid="IV" insttype="" lat="40.3181" lon="15.303">
    <comp name="--.HHE">
      <acc value="0.0062188457" flag="0"/>
      <vel value="0.0104382661" flag="0"/>
      <psa03 value="0.0169327790" flag="0"/>
      <psa10 value="0.0054599309" flag="0"/>
      <psa30 value="0.0037668980" flag="0"/>
    </comp>
    <comp name="--.HHN">
      <acc value="0.0065964530" flag="0"/>
      <vel value="0.0160921392" flag="0"/>
      <psa03 value="0.0181331721" flag="0"/>
      <psa10 value="0.0099539177" flag="0"/>
      <psa30 value="0.0058309170" flag="0"/>
    </comp>
    <comp name="--.HHZ">
      <acc value="0.0094576941" flag="0"/>
      <vel value="0.0078077226" flag="0"/>
      <psa03 value="0.0155421061" flag="0"/>
      <psa10 value="0.0074944813" flag="0"/>
      <psa30 value="0.0019005639" flag="0"/>
    </comp>
  </station>
  <station code="CNIS" name="CNIS" netid="IV" insttype="" lat="40.7982" lon="14.1632">
    <comp name="--.HHE">
      <acc value="0.0063579993" flag="0"/>
      <vel value="0.0222250249" flag="0"/>
      <psa03 value="0.0065865595" flag="0"/>
      <psa10 value="0.0094367202" flag="0"/>
      <psa30 value="0.0147075706" flag="0"/>
    </comp>
    <comp name="--.HHN">
      <acc value="0.0041443490" flag="0"/>
      <vel value="0.0162669362" flag="0"/>
      <psa03 value="0.0042024671" flag="0"/>
      <psa10 value="0.0062775761" flag="0"/>
      <psa30 value="0.0095326542" flag="0"/>
    </comp>
    <comp name="--.HHZ">
      <acc value="0.0026152909" flag="0"/>
      <vel value="0.0064341181" flag="0"/>
      <psa03 value="0.0028502188" flag="0"/>
      <psa10 value="0.0059124501" flag="0"/>
      <psa30 value="0.0031938227" flag="0"/>
    </comp>
  </station>
  <station code="CRTO" name="CRTO" netid="IV" insttype="" lat="40.8212" lon="14.4223">
    <comp name="--.HHE">
      <acc value="0.0156548313" flag="0"/>
      <vel value="0.0267124476" flag="0"/>
      <psa03 value="0.0372315302" flag="0"/>
      <psa10 value="0.0289110785" flag="0"/>
      <psa30 value="0.0089171996" flag="0"/>
    </comp>
    <comp name="--.HHN">
      <acc value="0.0099062210" flag="0"/>
      <vel value="0.0184779107" flag="0"/>
      <psa03 value="0.0217976997" flag="0"/>
      <psa10 value="0.0235630386" flag="0"/>
      <psa30 value="0.0060688206" flag="0"/>
    </comp>
    <comp name="--.HHZ">
      <acc value="0.0042718812" flag="0"/>
      <vel value="0.0059962245" flag="0"/>
      <psa03 value="0.0104428586" flag="0"/>
      <psa10 value="0.0056834315" flag="0"/>
      <psa30 value="0.0028052997" flag="0"/>
    </comp>
  </station>
  <station code="CSOB" name="CSOB" netid="IV" insttype="" lat="40.8265" lon="14.144">
    <comp name="--.HHE">
      <acc value="0.0059569400" flag="0"/>
      <vel value="0.0139023365" flag="0"/>
      <psa03 value="0.0072673075" flag="0"/>
      <psa10 value="0.0065666917" flag="0"/>
      <psa30 value="0.0082748853" flag="0"/>
    </comp>
    <comp name="--.HHN">
      <acc value="0.0038427197" flag="0"/>
      <vel value="0.0098213776" flag="0"/>
      <psa03 value="0.0052108920" flag="0"/>
      <psa10 value="0.0072287421" flag="0"/>
      <psa30 value="0.0073000505" flag="0"/>
    </comp>
    <comp name="--.HHZ">
      <acc value="0.0039496347" flag="0"/>
      <vel value="0.0094212632" flag="0"/>
      <psa03 value="0.0045566242" flag="0"/>
      <psa10 value="0.0042006043" flag="0"/>
      <psa30 value="0.0035343965" flag="0"/>
    </comp>
  </station>
  <station code="FERC" name="FERC" netid="IV" insttype="" lat="38.4527" lon="16.1281">
    <comp name="00.HHE">
      <acc value="3.4480056738" flag="0"/>
      <vel value="4.3619790799" flag="0"/>
      <psa03 value="8.7988471355" flag="0"/>
      <psa10 value="2.4499528391" flag="0"/>
      <psa30 value="1.2998049721" flag="0"/>
    </comp>
    <comp name="00.HHN">
      <acc value="2.8547721955" flag="0"/>
      <vel value="5.5139340882" flag="0"/>
      <psa03 value="7.2404509792" flag="0"/>
      <psa10 value="2.9439855121" flag="0"/>
      <psa30 value="1.4818414795" flag="0"/>
    </comp>
    <comp name="00.HHZ">
      <acc value="1.1962498982" flag="0"/>
      <vel value="1.6754960319" flag="0"/>
      <psa03 value="4.1790070429" flag="0"/>
      <psa10 value="1.4358680746" flag="0"/>
      <psa30 value="0.4342604947" flag="0"/>
    </comp>
  </station>
  <station code="GRIS" name="GRIS" netid="IV" insttype="" lat="39.7405" lon="15.8531">
    <comp name="--.HNE">
      <acc value="0.0229613560" flag="0"/>
      <vel value="0.0245053080" flag="0"/>
      <psa03 value="0.0388803604" flag="0"/>
      <psa10 value="0.0225327691" flag="0"/>
      <psa30 value="0.0078464407" flag="0"/>
    </comp>
    <comp name="--.HNZ">
      <acc value="0.0242249669" flag="0"/>
      <vel value="0.0170800198" flag="0"/>
      <psa03 value="0.0703555485" flag="0"/>
      <psa10 value="0.0109054817" flag="0"/>
      <psa30 value="0.0021649585" flag="0"/>
    </comp>
    <comp name="--.HNN">
      <acc value="0.0292622489" flag="0"/>
      <vel value="0.0134671410" flag="0"/>
      <psa03 value="0.0484426543" flag="0"/>
      <psa10 value="0.0182893320" flag="0"/>
      <psa30 value="0.0027705829" flag="0"/>
    </comp>
  </station>
  <station code="IFIL" name="IFIL" netid="IV" insttype="" lat="38.5642" lon="14.5753">
    <comp name="--.HHE">
      <acc value="0.0200759243" flag="0"/>
      <vel value="0.0309898658" flag="0"/>
      <psa03 value="0.0633107159" flag="0"/>
      <psa10 value="0.0243646676" flag="0"/>
      <psa30 value="0.0144525640" flag="0"/>
    </comp>
    <comp name="--.HHN">
      <acc value="0.0090661812" flag="0"/>
      <vel value="0.0101006502" flag="0"/>
      <psa03 value="0.0234127843" flag="0"/>
      <psa10 value="0.0090304326" flag="0"/>
      <psa30 value="0.0049480245" flag="0"/>
