<?xml version="1.0" encoding="UTF-8" standalone="yes"?>
<!DOCTYPE earthquake SYSTEM "stationlist.dtd">
<stationlist created="" xmlns="ch.ethz.sed.shakemap.usgs.xml">
  <station code="OEM8" name="OEM8" netid="3D" insttype="" lat="38.4689" lon="14.9168">
    <comp name="--.HHE">
      <acc value="0.0064097480" flag="0"/>
      <vel value="0.0044591146" flag="0"/>
      <psa03 value="0.0218580688" flag="0"/>
      <psa10 value="0.0020487305" flag="0"/>
      <psa30 value="0.0003532199" flag="0"/>
    </comp>
    <comp name="--.HHN">
      <acc value="0.0096325526" flag="0"/>
      <vel value="0.0059815239" flag="0"/>
      <psa03 value="0.0261596856" flag="0"/>
      <psa10 value="0.0030851089" flag="0"/>
      <psa30 value="0.0012593177" flag="0"/>
    </comp>
    <comp name="--.HHZ">
      <acc value="0.0025103482" flag="0"/>
      <vel value="0.0014099365" flag="0"/>
      <psa03 value="0.0071326126" flag="0"/>
      <psa10 value="0.0011910676" flag="0"/>
      <psa30 value="0.0003383977" flag="0"/>
    </comp>
  </station>
  <station code="CS2FF" name="CS2FF" netid="7C" insttype="" lat="39.2933" lon="16.2584">
    <comp name="--.HH2">
      <acc value="0.0315554618" flag="0"/>
      <vel value="0.0278908134" flag="0"/>
      <psa03 value="0.0698774903" flag="0"/>
      <psa10 value="0.0405749340" flag="0"/>
      <psa30 value="0.0079258765" flag="0"/>
    </comp>
    <comp name="--.HH1">
      <acc value="0.0429567465" flag="0"/>
      <vel value="0.0329937691" flag="0"/>
      <psa03 value="0.0963805131" flag="0"/>
      <psa10 value="0.0378804316" flag="0"/>
      <psa30 value="0.0061699188" flag="0"/>
    </comp>
    <comp name="--.HHZ">
      <acc value="0.0177945369" flag="0"/>
      <vel value="0.0148956268" flag="0"/>
      <psa03 value="0.0390403503" flag="0"/>
      <psa10 value="0.0216967490" flag="0"/>
      <psa30 value="0.0024131946" flag="0"/>
    </comp>
  </station>
  <station code="CS2FS" name="CS2FS" netid="7C" insttype="" lat="39.2933" lon="16.2584">
    <comp name="--.HHE">
      <acc value="0.0239311936" flag="0"/>
      <vel value="0.0131486940" flag="0"/>
      <psa03 value="0.0472680961" flag="0"/>
      <psa10 value="0.0113807018" flag="0"/>
      <psa30 value="0.0015284965" flag="0"/>
    </comp>
    <comp name="--.HHN">
      <acc value="0.0253644546" flag="0"/>
      <vel value="0.0142458720" flag="0"/>
      <psa03 value="0.0450497637" flag="0"/>
      <psa10 value="0.0154668021" flag="0"/>
      <psa30 value="0.0028287598" flag="0"/>
    </comp>
    <comp name="--.HHZ">
      <acc value="0.0138459128" flag="0"/>
      <vel value="0.0051823401" flag="0"/>
      <psa03 value="0.0139689095" flag="0"/>
      <psa10 value="0.0072415033" flag="0"/>
      <psa30 value="0.0007783290" flag="0"/>
    </comp>
  </station>
  <station code="CSMBE" name="CSMBE" netid="7C" insttype="" lat="39.2895" lon="16.2642">
    <comp name="--.HNE">
      <acc value="0.0607013238" flag="0"/>
      <vel value="0.0583652628" flag="0"/>
      <psa03 value="0.1273987697" flag="0"/>
      <psa10 value="0.0682807891" flag="0"/>
      <psa30 value="0.0087840223" flag="0"/>
    </comp>
    <comp name="--.HNZ">
      <acc value="0.0408443700" flag="0"/>
      <vel value="0.0161985558" flag="0"/>
      <psa03 value="0.0429798951" flag="0"/>
      <psa10 value="0.0206021602" flag="0"/>
      <psa30 value="0.0026942689" flag="0"/>
    </comp>
    <comp name="--.HNN">
      <acc value="0.0631115423" flag="0"/>
      <vel value="0.0416259305" flag="0"/>
      <psa03 value="0.1573053869" flag="0"/>
      <psa10 value="0.0382113012" flag="0"/>
      <psa30 value="0.0066196208" flag="0"/>
    </comp>
  </station>
  <station code="MARCO" name="MARCO" netid="GE" insttype="VBB" lat="40.2972" lon="15.8063">
    <comp name="--.HHE">
      <acc value="0.0205502489" flag="0"/>
      <vel value="0.0143596011" flag="0"/>
      <psa03 value="0.0463699525" flag="0"/>
      <psa10 value="0.0104152018" flag="0"/>
      <psa30 value="0.0051098029" flag="0"/>
    </comp>
    <comp name="--.HHN">
      <acc value="0.0230244651" flag="0"/>
      <vel value="0.0231797048" flag="0"/>
      <psa03 value="0.0778087567" flag="0"/>
      <psa10 value="0.0220612184" flag="0"/>
      <psa30 value="0.0080710407" flag="0"/>
    </comp>
    <comp name="--.HHZ">
      <acc value="0.0219345362" flag="0"/>
      <vel value="0.0259708399" flag="0"/>
      <psa03 value="0.0493966679" flag="0"/>
      <psa10 value="0.0151139461" flag="0"/>
      <psa30 value="0.0032161766" flag="0"/>
    </comp>
  </station>
  <station code="MATE" name="MATE" netid="GE" insttype="STS-2/N" lat="40.6491" lon="16.7044">
    <comp name="--.HHN">
      <acc value="0.0195763604" flag="0"/>
      <vel value="0.0086074842" flag="0"/>
      <psa03 value="0.0300596051" flag="0"/>
      <psa10 value="0.0118929921" flag="0"/>
      <psa30 value="0.0010757356" flag="0"/>
    </comp>
    <comp name="--.HHE">
      <acc value="0.0186294316" flag="0"/>
      <vel value="0.0223526880" flag="0"/>
      <psa03 value="0.0325346206" flag="0"/>
      <psa10 value="0.0228527474" flag="0"/>
      <psa30 value="0.0028361193" flag="0"/>
    </comp>
    <comp name="--.HHZ">
      <acc value="0.0592760065" flag="0"/>
      <vel value="0.0193856943" flag="0"/>
      <psa03 value="0.0431985661" flag="0"/>
      <psa10 value="0.0146108542" flag="0"/>
      <psa30 value="0.0026473991" flag="0"/>
    </comp>
  </station>
  <station code="BULG" name="BULG" netid="IV" insttype="" lat="40.0783" lon="15.3776">
    <comp name="--.HHE">
      <acc value="0.0158428763" flag="0"/>
      <vel value="0.0142002645" flag="0"/>
      <psa03 value="0.0579089843" flag="0"/>
      <psa10 value="0.0110582421" flag="0"/>
      <psa30 value="0.0067483385" flag="0"/>
    </comp>
    <comp name="--.HHN">
      <acc value="0.0319798208" flag="0"/>
      <vel value="0.0170045369" flag="0"/>
      <psa03 value="0.0538979614" flag="0"/>
      <psa10 value="0.0122690339" flag="0"/>
      <psa30 value="0.0050086172" flag="0"/>
    </comp>
    <comp name="--.HHZ">
      <acc value="0.0207109040" flag="0"/>
      <vel value="0.0123172598" flag="0"/>
      <psa03 value="0.0403634524" flag="0"/>
      <psa10 value="0.0105790163" flag="0"/>
      <psa30 value="0.0033449646" flag="0"/>
    </comp>
  </station>
  <station code="CAFE" name="CAFE" netid="IV" insttype="" lat="41.028" lon="15.2366">
    <comp name="--.HHE">
      <acc value="0.0081637431" flag="0"/>
      <vel value="0.0186623988" flag="0"/>
      <psa03 value="0.0127729920" flag="0"/>
      <psa10 value="0.0169075124" flag="0"/>
      <psa30 value="0.0076686925" flag="0"/>
    </comp>
    <comp name="--.HHN">
      <acc value="0.0057233882" flag="0"/>
      <vel value="0.0219363607" flag="0"/>
      <psa03 value="0.0079861134" flag="0"/>
      <psa10 value="0.0091349540" flag="0"/>
      <psa30 value="0.0103351011" flag="0"/>
    </comp>
    <comp name="--.HHZ">
      <acc value="0.0118816300" flag="0"/>
      <vel value="0.0105366456" flag="0"/>
      <psa03 value="0.0183808814" flag="0"/>
      <psa10 value="0.0076520060" flag="0"/>
      <psa30 value="0.0035226192" flag="0"/>
    </comp>
  </station>
  <station code="CAR1" name="CAR1" netid="IV" insttype="" lat="39.2534" lon="16.2114">
    <comp name="--.HHE">
      <acc value="0.0968690021" flag="0"/>
      <vel value="0.1038739830" flag="0"/>
      <psa03 value="0.2162061050" flag="0"/>
      <psa10 value="0.1095257966" flag="0"/>
      <psa30 value="0.0092078699" flag="0"/>
    </comp>
    <comp name="--.HHN">
      <acc value="0.1135646290" flag="0"/>
      <vel value="0.1236528047" flag="0"/>
      <psa03 value="0.2709728311" flag="0"/>
      <psa10 value="0.1401965253" flag="0"/>
      <psa30 value="0.0114583551" flag="0"/>
    </comp>
    <comp name="--.HHZ">
      <acc value="0.0444728413" flag="0"/>
      <vel value="0.0220009373" flag="0"/>
      <psa03 value="0.1072003481" flag="0"/>
      <psa10 value="0.0234687428" flag="0"/>
      <psa30 value="0.0029368414" flag="0"/>
    </comp>
  </station>
  <station code="CBAC" name="CBAC" netid="IV" insttype="" lat="40.8109" lon="14.0806">
    <comp name="--.HHE">
      <acc value="0.0066186726" flag="0"/>
      <vel value="0.0195787664" flag="0"/>
      <psa03 value="0.0066260346" flag="0"/>
      <psa10 value="0.0081006746" flag="0"/>
      <psa30 value="0.0159333976" flag="0"/>
    </comp>
    <comp name="--.HHN">
      <acc value="0.0047237382" flag="0"/>
      <vel value="0.0155491710" flag="0"/>
      <psa03 value="0.0048153424" flag="0"/>
      <psa10 value="0.0065120672" flag="0"/>
      <psa30 value="0.0113303093" flag="0"/>
    </comp>
    <comp name="--.HHZ">
      <acc value="0.0020950064" flag="0"/>
      <vel value="0.0067489831" flag="0"/>
      <psa03 value="0.0033395465" flag="0"/>
      <psa10 value="0.0033075616" flag="0"/>
      <psa30 value="0.0043209062" flag="0"/>
    </comp>
  </station>
  <station code="CDRU" name="CDRU" netid="IV" insttype="" lat="40.4896" lon="15.3046">
    <comp name="--.HHE">
      <acc value="0.0118897637" flag="0"/>
      <vel value="0.0051307668" flag="0"/>
      <psa03 value="0.0214702488" flag="0"/>
      <psa10 value="0.0035734840" flag="0"/>
      <psa30 value="0.0025440748" flag="0"/>
    </comp>
    <comp name="--.HHZ">
      <acc value="0.0067977706" flag="0"/>
      <vel value="0.0065453893" flag="0"/>
      <psa03 value="0.0190852403" flag="0"/>
      <psa10 value="0.0064292157" flag="0"/>
      <psa30 value="0.0026835188" flag="0"/>
    </comp>
    <comp name="--.HHN">
      <acc value="0.0055486157" flag="0"/>
      <vel value="0.0032633891" flag="0"/>
      <psa03 value="0.0148345213" flag="0"/>
      <psa10 value="0.0038004424" flag="0"/>
      <psa30 value="0.0005115980" flag="0"/>
    </comp>
  </station>
  <station code="CELI" name="CELI" netid="IV" insttype="" lat="39.4027" lon="16.5088">
    <comp name="--.HHE">
      <acc value="0.0516469799" flag="0"/>
      <vel value="0.0591195592" flag="0"/>
      <psa03 value="0.0940711332" flag="0"/>
      <psa10 value="0.0551243868" flag="0"/>
      <psa30 value="0.0139303551" flag="0"/>
    </comp>
    <comp name="--.HHN">
      <acc value="0.0514623477" flag="0"/>
      <vel value="0.0592374251" flag="0"/>
      <psa03 value="0.0904675456" flag="0"/>
      <psa10 value="0.0409855245" flag="0"/>
      <psa30 value="0.0106607792" flag="0"/>
    </comp>
    <comp name="--.HHZ">
      <acc value="0.0398586568" flag="0"/>
      <vel value="0.0312370325" flag="0"/>
      <psa03 value="0.1111821417" flag="0"/>
      <psa10 value="0.0188466502" flag="0"/>
      <psa30 value="0.0036273797" flag="0"/>
    </comp>
  </station>
  <station code="CET2" name="CET2" netid="IV" insttype="" lat="39.5288" lon="15.9546">
    <comp name="--.HHN">
      <acc value="0.1520844702" flag="0"/>
      <vel value="0.0943002089" flag="0"/>
      <psa03 value="0.3085437185" flag="0"/>
      <psa10 value="0.0721301143" flag="0"/>
      <psa30 value="0.0110357197" flag="0"/>
    </comp>
    <comp name="--.HHE">
      <acc value="0.0960396903" flag="0"/>
      <vel value="0.0967626155" flag="0"/>
      <psa03 value="0.1467976410" flag="0"/>
      <psa10 value="0.1389541189" flag="0"/>
      <psa30 value="0.0121235108" flag="0"/>
    </comp>
    <comp name="--.HHZ">
      <acc value="0.1127957332" flag="0"/>
      <vel value="0.0596156194" flag="0"/>
      <psa03 value="0.2340880004" flag="0"/>
      <psa10 value="0.0306985865" flag="0"/>
      <psa30 value="0.0024462893" flag="0"/>
    </comp>
  </station>
  <station code="CMIS" name="CMIS" netid="IV" insttype="" lat="40.7782" lon="14.089">
    <comp name="--.HHE">
      <acc value="0.0042583618" flag="0"/>
      <vel value="0.0108067541" flag="0"/>
      <psa03 value="0.0068338736" flag="0"/>
      <psa10 value="0.0083129522" flag="0"/>
      <psa30 value="0.0068021660" flag="0"/>
    </comp>
    <comp name="--.HHZ">
      <acc value="0.0022056563" flag="0"/>
      <vel value="0.0045493230" flag="0"/>
      <psa03 value="0.0035123889" flag="0"/>
      <psa10 value="0.0043219701" flag="0"/>
      <psa30 value="0.0025156757" flag="0"/>
    </comp>
    <comp name="--.HHN">
      <acc value="0.0047931889" flag="0"/>
      <vel value="0.0158370475" flag="0"/>
      <psa03 value="0.0075438051" flag="0"/>
      <psa10 value="0.0052225535" flag="0"/>
      <psa30 value="0.0181145924" flag="0"/>
    </comp>
  </station>
  <station code="CMPR" name="CMPR" netid="IV" insttype="" lat="40.3181" lon="15.303">
    <comp name="--.HHE">
      <acc value="0.0062188456" flag="0"/>
      <vel value="0.0104382651" flag="0"/>
      <psa03 value="0.0169327790" flag="0"/>
      <psa10 value="0.0054599309" flag="0"/>
      <psa30 value="0.0037668978" flag="0"/>
    </comp>
    <comp name="--.HHZ">
      <acc value="0.0094576941" flag="0"/>
      <vel value="0.0078077216" flag="0"/>
      <psa03 value="0.0155421060" flag="0"/>
      <psa10 value="0.0074944818" flag="0"/>
      <psa30 value="0.0019005639" flag="0"/>
    </comp>
    <comp name="--.HHN">
      <acc value="0.0065964530" flag="0"/>
      <vel value="0.0160921423" flag="0"/>
      <psa03 value="0.0181331721" flag="0"/>
      <psa10 value="0.0099539177" flag="0"/>
      <psa30 value="0.0058309144" flag="0"/>
    </comp>
  </station>
  <station code="CNIS" name="CNIS" netid="IV" insttype="" lat="40.7982" lon="14.1632">
    <comp name="--.HHZ">
      <acc value="0.0026152909" flag="0"/>
      <vel value="0.0064341227" flag="0"/>
      <psa03 value="0.0028502188" flag="0"/>
      <psa10 value="0.0059124501" flag="0"/>
      <psa30 value="0.0031935611" flag="0"/>
    </comp>
    <comp name="--.HHE">
      <acc value="0.0063579993" flag="0"/>
      <vel value="0.0222250225" flag="0"/>
      <psa03 value="0.0065865595" flag="0"/>
      <psa10 value="0.0094367202" flag="0"/>
      <psa30 value="0.0147075799" flag="0"/>
    </comp>
    <comp name="--.HHN">
      <acc value="0.0041443490" flag="0"/>
      <vel value="0.0162669408" flag="0"/>
      <psa03 value="0.0042024671" flag="0"/>
      <psa10 value="0.0062775761" flag="0"/>
      <psa30 value="0.0095325956" flag="0"/>
    </comp>
  </station>
  <station code="CRTO" name="CRTO" netid="IV" insttype="" lat="40.8212" lon="14.4223">
    <comp name="--.HHN">
      <acc value="0.0099062146" flag="0"/>
      <vel value="0.0184779115" flag="0"/>
      <psa03 value="0.0217976997" flag="0"/>
      <psa10 value="0.0235630386" flag="0"/>
      <psa30 value="0.0060688129" flag="0"/>
    </comp>
    <comp name="--.HHE">
      <acc value="0.0156548316" flag="0"/>
      <vel value="0.0267124474" flag="0"/>
      <psa03 value="0.0372315302" flag="0"/>
      <psa10 value="0.0289110785" flag="0"/>
      <psa30 value="0.0089171840" flag="0"/>
    </comp>
    <comp name="--.HHZ">
      <acc value="0.0042718741" flag="0"/>
      <vel value="0.0059962245" flag="0"/>
      <psa03 value="0.0104428586" flag="0"/>
      <psa10 value="0.0056834315" flag="0"/>
      <psa30 value="0.0028053019" flag="0"/>
    </comp>
  </station>
  <station code="CSOB" name="CSOB" netid="IV" insttype="" lat="40.8265" lon="14.144">
    <comp name="--.HHE">
      <acc value="0.0059569401" flag="0"/>
      <vel value="0.0139023333" flag="0"/>
      <psa03 value="0.0072673075" flag="0"/>
      <psa10 value="0.0065666917" flag="0"/>
      <psa30 value="0.0082748875" flag="0"/>
    </comp>
    <comp name="--.HHZ">
      <acc value="0.0039496346" flag="0"/>
      <vel value="0.0094212630" flag="0"/>
      <psa03 value="0.0045566242" flag="0"/>
      <psa10 value="0.0042006043" flag="0"/>
      <psa30 value="0.0035343944" flag="0"/>
    </comp>
    <comp name="--.HHN">
      <acc value="0.0038427198" flag="0"/>
      <vel value="0.0098213782" flag="0"/>
      <psa03 value="0.0052108920" flag="0"/>
      <psa10 value="0.0072287421" flag="0"/>
      <psa30 value="0.0073000424" flag="0"/>
    </comp>
  </station>
  <station code="FERC" name="FERC" netid="IV" insttype="" lat="38.4527" lon="16.1281">
    <comp name="00.HHE">
      <acc value="3.4480056738" flag="0"/>
      <vel value="4.3619769972" flag="0"/>
      <psa03 value="8.7988471348" flag="0"/>
      <psa10 value="2.4499528385" flag="0"/>
      <psa30 value="1.2998045795" flag="0"/>
    </comp>
    <comp name="00.HHN">
      <acc value="2.8547721946" flag="0"/>
      <vel value="5.5139250888" flag="0"/>
      <psa03 value="7.2404509816" flag="0"/>
      <psa10 value="2.9439855097" flag="0"/>
      <psa30 value="1.4818414614" flag="0"/>
    </comp>
    <comp name="00.HHZ">
      <acc value="1.1962499070" flag="0"/>
      <vel value="1.6754811727" flag="0"/>
      <psa03 value="4.1790070485" flag="0"/>
      <psa10 value="1.4358680801" flag="0"/>
      <psa30 value="0.4342607444" flag="0"/>
    </comp>
  </station>
  <station code="GRIS" name="GRIS" netid="IV" insttype="" lat="39.7405" lon="15.8531">
    <comp name="--.HNE">
      <acc value="0.0229613559" flag="0"/>
      <vel value="0.0245053059" flag="0"/>
      <psa03 value="0.0388803604" flag="0"/>
      <psa10 value="0.0225327691" flag="0"/>
      <psa30 value="0.0078464627" flag="0"/>
    </comp>
    <comp name="--.HNZ">
      <acc value="0.0242249661" flag="0"/>
      <vel value="0.0170800201" flag="0"/>
      <psa03 value="0.0703555485" flag="0"/>
      <psa10 value="0.0109054875" flag="0"/>
      <psa30 value="0.0021652788" flag="0"/>
    </comp>
    <comp name="--.HNN">
      <acc value="0.0292622488" flag="0"/>
      <vel value="0.0134671419" flag="0"/>
      <psa03 value="0.0484426543" flag="0"/>
      <psa10 value="0.0182893320" flag="0"/>
      <psa30 value="0.0027705680" flag="0"/>
    </comp>
  </station>
  <station code="IFIL" name="IFIL" netid="IV" insttype="" lat="38.5642" lon="14.5753">
    <comp name="--.HHE">
      <acc value="0.0200759243" flag="0"/>
      <vel value="0.0309898678" flag="0"/>
      <psa03 value="0.0633107159" flag="0"/>
      <psa10 value="0.0243646676" flag="0"/>
      <psa30 value="0.0144525637" flag="0"/>
    </comp>
    <comp name="--.HHZ">
      <acc value="0.0108371084" flag="0"/>
      <vel value="0.0132909780" flag="0"/>
      <psa03 value="0.0345150956" flag="0"/>
      <psa10 value="0.0123939431" flag="0"/>
      <psa30 value="0.0060563281" flag="0"/>
    </comp>
    <comp name="--.HHN">
      <acc value="0.0090661812" flag="0"/>
      <vel value="0.0101006473" flag="0"/>
      <psa03 value="0.0234127843" flag="0"/>
      <psa10 value="0.0090304326" flag="0"/>
      <psa30 value="0.0049482068" flag="0"/>
    </comp>
  </station>
  <station code="IFOR" name="IFOR" netid="IV" insttype="" lat="40.7115" lon="13.8552">
    <comp name="--.HHE">
      <acc value="7511.0255214593" flag="0"/>
      <vel value="2161.8939250238" flag="0"/>
      <psa03 value="7562.4448462014" flag="0"/>
      <psa10 value="3628.5348659130" flag="0"/>
      <psa30 value="601.9687233165" flag="0"/>
    </comp>
    <comp name="--.HHZ">
      <acc value="6465.7113483219" flag="0"/>
      <vel value="1482.6414261489" flag="0"/>
      <psa03 value="3527.1267733389" flag="0"/>
      <psa10 value="2121.4878928111" flag="0"/>
      <psa30 value="568.6936475563" flag="0"/>
    </comp>
    <comp name="--.HHN">
      <acc value="8854.5223141410" flag="0"/>
      <vel value="5001.1692164307" flag="0"/>
      <psa03 value="7148.8723306659" flag="0"/>
      <psa10 value="11038.1331426037" flag="0"/>
      <psa30 value="1626.8685987409" flag="0"/>
    </comp>
  </station>
  <station code="ILOS" name="ILOS" netid="IV" insttype="" lat="38.4457" lon="14.9483">
    <comp name="--.HHZ">
      <acc value="0.0186928270" flag="0"/>
      <vel value="0.0254559210" flag="0"/>
      <psa03 value="0.0487312943" flag="0"/>
      <psa10 value="0.0112817367" flag="0"/>
      <psa30 value="0.0148610435" flag="0"/>
    </comp>
    <comp name="--.HHN">
      <acc value="0.0435490996" flag="0"/>
      <vel value="0.0536351539" flag="0"/>
      <psa03 value="0.1145213108" flag="0"/>
      <psa10 value="0.0496779624" flag="0"/>
