<?xml version="1.0" encoding="UTF-8" standalone="yes"?>
<!DOCTYPE earthquake SYSTEM "stationlist.dtd">
<stationlist created="" xmlns="ch.ethz.sed.shakemap.usgs.xml">
  <station code="BNN" name="BNN" netid="KO" insttype="CMG-3T" lat="38.8521" lon="35.8472">
    <comp name="--.HHE">
      <acc value="0.0082777471" flag="0"/>
      <vel value="0.0040384721" flag="0"/>
      <psa03 value="0.0173683394" flag="0"/>
      <psa10 value="0.0056621245" flag="0"/>
      <psa30 value="0.0002126277" flag="0"/>
    </comp>
    <comp name="--.HHN">
      <acc value="0.0059783914" flag="0"/>
      <vel value="0.0032874348" flag="0"/>
      <psa03 value="0.0111427503" flag="0"/>
      <psa10 value="0.0067443596" flag="0"/>
      <psa30 value="0.0003191329" flag="0"/>
    </comp>
    <comp name="--.HHZ">
      <acc value="0.0080414899" flag="0"/>
      <vel value="0.0022398998" flag="0"/>
      <psa03 value="0.0085651231" flag="0"/>
      <psa10 value="0.0022502458" flag="0"/>
      <psa30 value="0.0001745633" flag="0"/>
    </comp>
  </station>
  <station code="DARE" name="DARE" netid="KO" insttype="CMG-3ESP" lat="38.5712" lon="37.4832">
    <comp name="--.HHE">
      <acc value="0.0132795289" flag="0"/>
      <vel value="0.0041901323" flag="0"/>
      <psa03 value="0.0132910583" flag="0"/>
      <psa10 value="0.0036263880" flag="0"/>
      <psa30 value="0.0002087222" flag="0"/>
    </comp>
    <comp name="--.HHZ">
      <acc value="0.0067696509" flag="0"/>
      <vel value="0.0028057091" flag="0"/>
      <psa03 value="0.0161650122" flag="0"/>
      <psa10 value="0.0026149241" flag="0"/>
      <psa30 value="0.0001509396" flag="0"/>
    </comp>
    <comp name="--.HHN">
      <acc value="0.0076691172" flag="0"/>
      <vel value="0.0033111357" flag="0"/>
      <psa03 value="0.0159871133" flag="0"/>
      <psa10 value="0.0032340133" flag="0"/>
      <psa30 value="0.0001885928" flag="0"/>
    </comp>
  </station>
  <station code="GAZ" name="GAZ" netid="KO" insttype="CMG-3T" lat="37.1721" lon="37.2096">
    <comp name="--.HHE">
      <acc value="0.0271902871" flag="0"/>
      <vel value="0.0106712049" flag="0"/>
      <psa03 value="0.0524573789" flag="0"/>
      <psa10 value="0.0108695645" flag="0"/>
      <psa30 value="0.0006404650" flag="0"/>
    </comp>
  </station>
  <station code="SARI" name="SARI" netid="KO" insttype="CMG-3T" lat="38.4072" lon="36.4181">
    <comp name="--.HHN">
      <acc value="0.3016271364" flag="0"/>
      <vel value="0.0639283465" flag="0"/>
      <psa03 value="0.2679308197" flag="0"/>
      <psa10 value="0.0203777210" flag="0"/>
      <psa30 value="0.0011239367" flag="0"/>
    </comp>
  </station>
  <station code="ANDN" name="ANDN" netid="TU" insttype="T" lat="37.58" lon="36.3452">
    <comp name="--.HHE">
      <acc value="0.1441625833" flag="0"/>
      <vel value="0.0462734930" flag="0"/>
      <psa03 value="0.2415386075" flag="0"/>
      <psa10 value="0.0302096732" flag="0"/>
      <psa30 value="0.0016563003" flag="0"/>
    </comp>
    <comp name="--.HHN">
      <acc value="0.1970800111" flag="0"/>
      <vel value="0.0463986758" flag="0"/>
      <psa03 value="0.2051492202" flag="0"/>
      <psa10 value="0.0331061582" flag="0"/>
      <psa30 value="0.0015773200" flag="0"/>
    </comp>
    <comp name="--.HHZ">
      <acc value="0.0741576804" flag="0"/>
      <vel value="0.0292483364" flag="0"/>
      <psa03 value="0.1443957211" flag="0"/>
      <psa10 value="0.0346532152" flag="0"/>
      <psa30 value="0.0022285242" flag="0"/>
    </comp>
  </station>
</stationlist>
