<?xml version="1.0" encoding="UTF-8" standalone="yes"?>
<!DOCTYPE earthquake SYSTEM "stationlist.dtd">
<stationlist created="" xmlns="ch.ethz.sed.shakemap.usgs.xml">
  <station code="BNN" name="BNN" netid="KO" insttype="CMG-3T" lat="38.8521" lon="35.8472">
    <comp name="--.HHE">
      <acc value="0.0082777473" flag="0"/>
      <vel value="0.0040384718" flag="0"/>
      <psa03 value="0.0173683394" flag="0"/>
      <psa10 value="0.0056621245" flag="0"/>
      <psa30 value="0.0002125903" flag="0"/>
    </comp>
    <comp name="--.HHZ">
      <acc value="0.0080414902" flag="0"/>
      <vel value="0.0022398993" flag="0"/>
      <psa03 value="0.0085651231" flag="0"/>
      <psa10 value="0.0022502458" flag="0"/>
      <psa30 value="0.0001745725" flag="0"/>
    </comp>
    <comp name="--.HHN">
      <acc value="0.0059783914" flag="0"/>
      <vel value="0.0032874353" flag="0"/>
      <psa03 value="0.0111427503" flag="0"/>
      <psa10 value="0.0067443596" flag="0"/>
      <psa30 value="0.0003190994" flag="0"/>
    </comp>
  </station>
  <station code="DARE" name="DARE" netid="KO" insttype="CMG-3ESP" lat="38.5712" lon="37.4832">
    <comp name="--.HHZ">
      <acc value="0.0067696512" flag="0"/>
      <vel value="0.0028057078" flag="0"/>
      <psa03 value="0.0161650122" flag="0"/>
      <psa10 value="0.0026149241" flag="0"/>
      <psa30 value="0.0001509406" flag="0"/>
    </comp>
    <comp name="--.HHN">
      <acc value="0.0076691172" flag="0"/>
      <vel value="0.0033111366" flag="0"/>
      <psa03 value="0.0159871133" flag="0"/>
      <psa10 value="0.0032340133" flag="0"/>
      <psa30 value="0.0001885894" flag="0"/>
    </comp>
    <comp name="--.HHE">
      <acc value="0.0132795289" flag="0"/>
      <vel value="0.0041901337" flag="0"/>
      <psa03 value="0.0132910583" flag="0"/>
      <psa10 value="0.0036263880" flag="0"/>
      <psa30 value="0.0002087704" flag="0"/>
    </comp>
  </station>
  <station code="GAZ" name="GAZ" netid="KO" insttype="CMG-3T" lat="37.1721" lon="37.2096">
    <comp name="--.HHE">
      <acc value="0.0271902871" flag="0"/>
      <vel value="0.0106712057" flag="0"/>
      <psa03 value="0.0524573789" flag="0"/>
      <psa10 value="0.0108695645" flag="0"/>
      <psa30 value="0.0006404354" flag="0"/>
    </comp>
  </station>
  <station code="SARI" name="SARI" netid="KO" insttype="CMG-3T" lat="38.4072" lon="36.4181">
    <comp name="--.HHN">
      <acc value="0.3016271364" flag="0"/>
      <vel value="0.0639283464" flag="0"/>
      <psa03 value="0.2679308197" flag="0"/>
      <psa10 value="0.0203777210" flag="0"/>
      <psa30 value="0.0011239740" flag="0"/>
    </comp>
  </station>
  <station code="ANDN" name="ANDN" netid="TU" insttype="T" lat="37.58" lon="36.3452">
    <comp name="--.HHZ">
      <acc value="0.0741576803" flag="0"/>
      <vel value="0.0292483363" flag="0"/>
      <psa03 value="0.1443957211" flag="0"/>
      <psa10 value="0.0346532152" flag="0"/>
      <psa30 value="0.0022285020" flag="0"/>
    </comp>
    <comp name="--.HHE">
      <acc value="0.1441625833" flag="0"/>
      <vel value="0.0462734928" flag="0"/>
      <psa03 value="0.2415386075" flag="0"/>
      <psa10 value="0.0302096733" flag="0"/>
      <psa30 value="0.0016562864" flag="0"/>
    </comp>
    <comp name="--.HHN">
      <acc value="0.1970800111" flag="0"/>
      <vel value="0.0463986767" flag="0"/>
      <psa03 value="0.2051492202" flag="0"/>
      <psa10 value="0.0331061582" flag="0"/>
      <psa30 value="0.0015773735" flag="0"/>
    </comp>
  </station>
</stationlist>
