<stationlist created="1775699735">
	<station code="MARCO" name="MARCO" netid="GE" source="GEOFON" insttype="" lat="40.29724" lon="15.80632">
		<comp name="--.HLE" depth="1.0">
			<acc value="0.0186079544271131" flag="0"/>
			<vel value="0.0627381815619749" flag="0"/>
			<psa03 value="0.0215855197784991" flag="0"/>
			<psa10 value="0.0327059653596925" flag="0"/>
			<psa30 value="0.027969399502117" flag="0"/>
		</comp>
		<comp name="--.HLN" depth="1.0">
			<acc value="0.0139160747959655" flag="0"/>
			<vel value="0.0585734210346835" flag="0"/>
			<psa03 value="0.0262056995406503" flag="0"/>
			<psa10 value="0.0285008886689992" flag="0"/>
			<psa30 value="0.0345892913707979" flag="0"/>
		</comp>
		<comp name="--.HLZ" depth="1.0">
			<acc value="0.00450912786005293" flag="0"/>
			<vel value="0.0115824385351509" flag="0"/>
			<psa03 value="0.00664856738808498" flag="0"/>
			<psa10 value="0.0116301607535721" flag="0"/>
			<psa30 value="0.00380855938170093" flag="0"/>
		</comp>
	</station>
	<station code="ACQT" name="ACQT" netid="IT" source="Italian Strong Motion Network (RAN)" insttype="" lat="42.7786" lon="13.4196">
		<comp name="--.HNE" depth="0.0">
			<acc value="0.0109790496962228" flag="0"/>
			<vel value="0.0326671661081673" flag="0"/>
			<psa03 value="0.0215191950723128" flag="0"/>
			<psa10 value="0.0245618471018272" flag="0"/>
			<psa30 value="0.0149442416493334" flag="0"/>
		</comp>
		<comp name="--.HNN" depth="0.0">
			<acc value="0.0107086468797305" flag="0"/>
			<vel value="0.0165294546341293" flag="0"/>
			<psa03 value="0.0304836287657998" flag="0"/>
			<psa10 value="0.0128959014776831" flag="0"/>
			<psa30 value="0.00449750793782825" flag="0"/>
		</comp>
		<comp name="--.HNZ" depth="0.0">
			<acc value="0.0127483739732699" flag="0"/>
			<vel value="0.0113543783968776" flag="0"/>
			<psa03 value="0.0208221515007638" flag="0"/>
			<psa10 value="0.0123954477000764" flag="0"/>
			<psa30 value="0.0046205390046993" flag="0"/>
		</comp>
	</station>
	<station code="ACR" name="ACR" netid="IT" source="Italian Strong Motion Network (RAN)" insttype="" lat="39.4889" lon="16.3798">
		<comp name="--.HNE" depth="0.0">
			<acc value="0.0187250204708311" flag="0"/>
			<vel value="0.0504497793457339" flag="0"/>
			<psa03 value="0.0196277364391278" flag="0"/>
			<psa10 value="0.0573201509286863" flag="0"/>
			<psa30 value="0.0190264504089626" flag="0"/>
		</comp>
		<comp name="--.HNN" depth="0.0">
			<acc value="0.0218333479989602" flag="0"/>
			<vel value="0.0787651284385495" flag="0"/>
			<psa03 value="0.0229579218913203" flag="0"/>
			<psa10 value="0.0704360110400494" flag="0"/>
			<psa30 value="0.0188886829492112" flag="0"/>
		</comp>
		<comp name="--.HNZ" depth="0.0">
			<acc value="0.00557419602907901" flag="0"/>
			<vel value="0.0185666803378196" flag="0"/>
			<psa03 value="0.00593937262095388" flag="0"/>
			<psa10 value="0.0181772535288369" flag="0"/>
			<psa30 value="0.00868635209486254" flag="0"/>
		</comp>
	</station>
	<station code="AGL" name="AGL" netid="IT" source="Italian Strong Motion Network (RAN)" insttype="" lat="42.0873" lon="12.3032">
		<comp name="--.HGE" depth="0.0">
			<acc value="0.0143281243075987" flag="0"/>
			<vel value="0.0376089611675418" flag="0"/>
			<psa03 value="0.0136790220534945" flag="0"/>
			<psa10 value="0.0148011064381615" flag="0"/>
			<psa30 value="0.0171375986151346" flag="0"/>
		</comp>
		<comp name="--.HGN" depth="0.0">
			<acc value="0.0150082500284229" flag="0"/>
			<vel value="0.0474152454291103" flag="0"/>
			<psa03 value="0.0205270850790614" flag="0"/>
			<psa10 value="0.0157013985780973" flag="0"/>
			<psa30 value="0.019217816419355" flag="0"/>
		</comp>
		<comp name="--.HGZ" depth="0.0">
			<acc value="0.010380468637579" flag="0"/>
			<vel value="0.0169688941114863" flag="0"/>
			<psa03 value="0.0211215619602373" flag="0"/>
			<psa10 value="0.00785115963204413" flag="0"/>
			<psa30 value="0.00877492629580199" flag="0"/>
		</comp>
	</station>
	<station code="AGNN" name="AGNN" netid="IT" source="Italian Strong Motion Network (RAN)" insttype="" lat="41.808" lon="14.3706">
		<comp name="--.HNE" depth="0.0">
			<acc value="0.00944190747573646" flag="0"/>
			<vel value="0.0296802521001599" flag="0"/>
			<psa03 value="0.00737734027508712" flag="0"/>
			<psa10 value="0.00917671447479697" flag="0"/>
			<psa30 value="0.0110428190325656" flag="0"/>
		</comp>
		<comp name="--.HNN" depth="0.0">
			<acc value="0.00650277684237033" flag="0"/>
			<vel value="0.0233015956952554" flag="0"/>
			<psa03 value="0.00850785331706954" flag="0"/>
			<psa10 value="0.00846848568311533" flag="0"/>
			<psa30 value="0.0171070565918755" flag="0"/>
		</comp>
		<comp name="--.HNZ" depth="0.0">
			<acc value="0.00475839518356738" flag="0"/>
			<vel value="0.023513395279464" flag="0"/>
			<psa03 value="0.00613219594142753" flag="0"/>
			<psa10 value="0.00772303989474031" flag="0"/>
			<psa30 value="0.0101538243076947" flag="0"/>
		</comp>
	</station>
	<station code="ALBL" name="ALBL" netid="IT" source="Italian Strong Motion Network (RAN)" insttype="" lat="41.7245" lon="12.6591">
		<comp name="--.HNE" depth="0.0">
			<acc value="0.0129963449843193" flag="0"/>
			<vel value="0.0465087096263519" flag="0"/>
			<psa03 value="0.0141731980193937" flag="0"/>
			<psa10 value="0.0225824547267967" flag="0"/>
			<psa30 value="0.0216158436102208" flag="0"/>
		</comp>
		<comp name="--.HNN" depth="0.0">
			<acc value="0.0181180406391745" flag="0"/>
			<vel value="0.0736224268266139" flag="0"/>
			<psa03 value="0.0187902668983808" flag="0"/>
			<psa10 value="0.0332687838936582" flag="0"/>
			<psa30 value="0.0361874539078892" flag="0"/>
		</comp>
		<comp name="--.HNZ" depth="0.0">
			<acc value="0.0161678907304962" flag="0"/>
			<vel value="0.0238956133860747" flag="0"/>
			<psa03 value="0.0245642757002099" flag="0"/>
			<psa10 value="0.0228670479547013" flag="0"/>
			<psa30 value="0.0103694077557067" flag="0"/>
		</comp>
	</station>
	<station code="ALC" name="ALC" netid="IT" source="Italian Strong Motion Network (RAN)" insttype="" lat="37.9734" lon="12.9597">
		<comp name="--.HGE" depth="0.0">
			<acc value="0.0108505890248883" flag="0"/>
			<vel value="0.0439002293311112" flag="0"/>
			<psa03 value="0.0106952482212468" flag="0"/>
			<psa10 value="0.0159767127538103" flag="0"/>
			<psa30 value="0.0210735793545418" flag="0"/>
		</comp>
		<comp name="--.HGN" depth="0.0">
			<acc value="0.00581032923341662" flag="0"/>
			<vel value="0.0258928613667934" flag="0"/>
			<psa03 value="0.00611136708765986" flag="0"/>
			<psa10 value="0.0104757677181989" flag="0"/>
			<psa30 value="0.0112663680082547" flag="0"/>
		</comp>
		<comp name="--.HGZ" depth="0.0">
			<acc value="0.00621571379151406" flag="0"/>
			<vel value="0.0310312461547483" flag="0"/>
			<psa03 value="0.0167431495160677" flag="0"/>
			<psa10 value="0.0119321738854598" flag="0"/>
			<psa30 value="0.0169767112904723" flag="0"/>
		</comp>
	</station>
	<station code="ALD" name="ALD" netid="IT" source="Italian Strong Motion Network (RAN)" insttype="" lat="39.9298" lon="16.4653">
		<comp name="--.HNE" depth="0.0">
			<acc value="0.012413864509293" flag="0"/>
			<vel value="0.0241425588914862" flag="0"/>
			<psa03 value="0.0390611579225101" flag="0"/>
			<psa10 value="0.0308208092273506" flag="0"/>
			<psa30 value="0.0101889524680962" flag="0"/>
		</comp>
		<comp name="--.HNN" depth="0.0">
			<acc value="0.0126237887345702" flag="0"/>
			<vel value="0.0243242368166684" flag="0"/>
			<psa03 value="0.0281205269093994" flag="0"/>
			<psa10 value="0.0239508772530732" flag="0"/>
			<psa30 value="0.0126572493139818" flag="0"/>
		</comp>
		<comp name="--.HNZ" depth="0.0">
			<acc value="0.00960212052259338" flag="0"/>
			<vel value="0.0226235332550407" flag="0"/>
			<psa03 value="0.0163371955402757" flag="0"/>
			<psa10 value="0.0151723388429864" flag="0"/>
			<psa30 value="0.00917332102083063" flag="0"/>
		</comp>
	</station>
	<station code="ALFD" name="ALFD" netid="IT" source="Italian Strong Motion Network (RAN)" insttype="" lat="41.7415" lon="14.0442">
		<comp name="--.HNE" depth="0.0">
			<acc value="0.0138564033561436" flag="0"/>
			<vel value="0.0442645022894841" flag="0"/>
			<psa03 value="0.013835221203005" flag="0"/>
			<psa10 value="0.024031890119778" flag="0"/>
			<psa30 value="0.018559257793078" flag="0"/>
		</comp>
		<comp name="--.HNN" depth="0.0">
			<acc value="0.00837372050345786" flag="0"/>
			<vel value="0.0253375114716136" flag="0"/>
			<psa03 value="0.00832809922174291" flag="0"/>
			<psa10 value="0.0183107867497575" flag="0"/>
			<psa30 value="0.0116471465662988" flag="0"/>
		</comp>
		<comp name="--.HNZ" depth="0.0">
			<acc value="0.00546680649324413" flag="0"/>
			<vel value="0.00951677159535696" flag="0"/>
			<psa03 value="0.00822835954156193" flag="0"/>
			<psa10 value="0.00954214993310262" flag="0"/>
			<psa30 value="0.00728563097062911" flag="0"/>
		</comp>
	</station>
	<station code="ALT" name="ALT" netid="IT" source="Italian Strong Motion Network (RAN)" insttype="" lat="40.5583" lon="15.3921">
		<comp name="--.HGE" depth="0.0">
			<acc value="0.00566179493094274" flag="0"/>
			<vel value="0.0237811775125192" flag="0"/>
			<psa03 value="0.00753075929251074" flag="0"/>
			<psa10 value="0.00920280214047679" flag="0"/>
			<psa30 value="0.0158653693361887" flag="0"/>
		</comp>
		<comp name="--.HGN" depth="0.0">
			<acc value="0.0120193509353472" flag="0"/>
			<vel value="0.0489111593194758" flag="0"/>
			<psa03 value="0.0131262640818251" flag="0"/>
			<psa10 value="0.0146716394241072" flag="0"/>
			<psa30 value="0.0259560394602286" flag="0"/>
		</comp>
		<comp name="--.HGZ" depth="0.0">
			<acc value="0.005547056556699" flag="0"/>
			<vel value="0.00898800114307892" flag="0"/>
			<psa03 value="0.00741397681666152" flag="0"/>
			<psa10 value="0.00777938034576869" flag="0"/>
			<psa30 value="0.00494987207139868" flag="0"/>
		</comp>
	</station>
	<station code="AME" name="AME" netid="IT" source="Italian Strong Motion Network (RAN)" insttype="" lat="42.5597" lon="12.414">
		<comp name="--.HNE" depth="0.0">
			<acc value="0.00681172321558746" flag="0"/>
			<vel value="0.0248754564096517" flag="0"/>
			<psa03 value="0.00946606458032141" flag="0"/>
			<psa10 value="0.00804626396299853" flag="0"/>
			<psa30 value="0.0152000702633902" flag="0"/>
		</comp>
		<comp name="--.HNN" depth="0.0">
			<acc value="0.00856097839225967" flag="0"/>
			<vel value="0.0467412094737867" flag="0"/>
			<psa03 value="0.00991110773412119" flag="0"/>
			<psa10 value="0.0133043279089297" flag="0"/>
			<psa30 value="0.0170655321744199" flag="0"/>
		</comp>
		<comp name="--.HNZ" depth="0.0">
			<acc value="0.00367000877760693" flag="0"/>
			<vel value="0.00819614111105906" flag="0"/>
			<psa03 value="0.00854146752301238" flag="0"/>
			<psa10 value="0.00789231251447062" flag="0"/>
			<psa30 value="0.00425304382661399" flag="0"/>
		</comp>
	</station>
	<station code="AMSN" name="AMSN" netid="IT" source="Italian Strong Motion Network (RAN)" insttype="" lat="41.4684" lon="13.3336">
		<comp name="--.HNE" depth="0.0">
			<acc value="0.00302138125631876" flag="0"/>
			<vel value="0.00959625270681832" flag="0"/>
			<psa03 value="0.00545269161770508" flag="0"/>
			<psa10 value="0.00702240207467328" flag="0"/>
			<psa30 value="0.00485618419837022" flag="0"/>
		</comp>
		<comp name="--.HNN" depth="0.0">
			<acc value="0.00582618988470979" flag="0"/>
			<vel value="0.0270652798895415" flag="0"/>
			<psa03 value="0.00646397703488001" flag="0"/>
			<psa10 value="0.00923726036066477" flag="0"/>
			<psa30 value="0.0104531308019477" flag="0"/>
		</comp>
		<comp name="--.HNZ" depth="0.0">
			<acc value="0.0119627176070063" flag="0"/>
			<vel value="0.0139084179849841" flag="0"/>
			<psa03 value="0.0191134328377883" flag="0"/>
			<psa10 value="0.0147796184521878" flag="0"/>
			<psa30 value="0.00684629603351234" flag="0"/>
		</comp>
	</station>
	<station code="AMT" name="AMT" netid="IT" source="Italian Strong Motion Network (RAN)" insttype="" lat="42.6325" lon="13.2866">
		<comp name="--.HNE" depth="0.0">
			<acc value="0.00616795742290857" flag="0"/>
			<vel value="0.0235794420613493" flag="0"/>
			<psa03 value="0.0113070914872354" flag="0"/>
			<psa10 value="0.0127625454560011" flag="0"/>
			<psa30 value="0.0176168370289942" flag="0"/>
		</comp>
		<comp name="--.HNN" depth="0.0">
			<acc value="0.00686454532081312" flag="0"/>
			<vel value="0.0227803842180747" flag="0"/>
			<psa03 value="0.00745290908323312" flag="0"/>
			<psa10 value="0.0153978975351427" flag="0"/>
			<psa30 value="0.00784489885271489" flag="0"/>
		</comp>
		<comp name="--.HNZ" depth="0.0">
			<acc value="0.00585582134287152" flag="0"/>
			<vel value="0.0175476727145022" flag="0"/>
			<psa03 value="0.0114972447089531" flag="0"/>
			<psa10 value="0.00948492301710029" flag="0"/>
			<psa30 value="0.0111627244757127" flag="0"/>
		</comp>
	</station>
	<station code="ANT" name="ANT" netid="IT" source="Italian Strong Motion Network (RAN)" insttype="" lat="42.4182" lon="13.0786">
		<comp name="--.HNE" depth="0.0">
			<acc value="0.0143110049712272" flag="0"/>
			<vel value="0.0627508405402898" flag="0"/>
			<psa03 value="0.0151468080891992" flag="0"/>
			<psa10 value="0.0204671908509461" flag="0"/>
			<psa30 value="0.0294477507689664" flag="0"/>
		</comp>
		<comp name="--.HNN" depth="0.0">
			<acc value="0.0062843436102223" flag="0"/>
			<vel value="0.0272342802362716" flag="0"/>
			<psa03 value="0.00943038318014543" flag="0"/>
			<psa10 value="0.0161015904013416" flag="0"/>
			<psa30 value="0.00862453049948525" flag="0"/>
		</comp>
		<comp name="--.HNZ" depth="0.0">
			<acc value="0.00456799747827003" flag="0"/>
			<vel value="0.0124441104566113" flag="0"/>
			<psa03 value="0.00799891205012503" flag="0"/>
			<psa10 value="0.0144537265509488" flag="0"/>
			<psa30 value="0.00543374829249025" flag="0"/>
		</comp>
	</station>
	<station code="ANZ" name="ANZ" netid="IT" source="Italian Strong Motion Network (RAN)" insttype="" lat="41.4507" lon="12.6258">
		<comp name="--.HGE" depth="0.0">
			<acc value="0.000517269575323396" flag="0"/>
			<vel value="0.000262004336991745" flag="0"/>
			<psa03 value="0.000519098067712406" flag="0"/>
			<psa10 value="0.000300394372309156" flag="0"/>
			<psa30 value="0.000126193919623681" flag="0"/>
		</comp>
		<comp name="--.HGN" depth="0.0">
			<acc value="0.0148970910204596" flag="0"/>
			<vel value="0.0607541967520955" flag="0"/>
			<psa03 value="0.01439102104285" flag="0"/>
			<psa10 value="0.0278410249562667" flag="0"/>
			<psa30 value="0.0204917291431542" flag="0"/>
		</comp>
		<comp name="--.HGZ" depth="0.0">
			<acc value="0.0312303194326216" flag="0"/>
			<vel value="0.0409483649135408" flag="0"/>
			<psa03 value="0.0476553340153316" flag="0"/>
			<psa10 value="0.0475547027656718" flag="0"/>
			<psa30 value="0.0185671383151239" flag="0"/>
		</comp>
	</station>
	<station code="APNO" name="APNO" netid="IT" source="Italian Strong Motion Network (RAN)" insttype="" lat="43.3638" lon="13.3451">
		<comp name="--.HNE" depth="0.0">
			<acc value="0.0145224753343845" flag="0"/>
			<vel value="0.037733511611043" flag="0"/>
			<psa03 value="0.0159107649475918" flag="0"/>
			<psa10 value="0.0425642996759588" flag="0"/>
			<psa30 value="0.0169498411771258" flag="0"/>
		</comp>
		<comp name="--.HNN" depth="0.0">
			<acc value="0.0148025710141625" flag="0"/>
			<vel value="0.024869424436682" flag="0"/>
			<psa03 value="0.0156407926361678" flag="0"/>
			<psa10 value="0.0276121791713565" flag="0"/>
			<psa30 value="0.0158993382531294" flag="0"/>
		</comp>
		<comp name="--.HNZ" depth="0.0">
			<acc value="0.0196872323417531" flag="0"/>
			<vel value="0.0192295412179583" flag="0"/>
			<psa03 value="0.0287346873861835" flag="0"/>
			<psa10 value="0.0255079429010307" flag="0"/>
			<psa30 value="0.00967385501208439" flag="0"/>
		</comp>
	</station>
	<station code="AQA" name="AQA" netid="IT" source="Italian Strong Motion Network (RAN)" insttype="" lat="42.3755" lon="13.3393">
		<comp name="--.HNE" depth="0.0">
			<acc value="0.0170815205377875" flag="0"/>
			<vel value="0.0601025182930374" flag="0"/>
			<psa03 value="0.0175326093659916" flag="0"/>
			<psa10 value="0.0228129318697763" flag="0"/>
			<psa30 value="0.0247531247730342" flag="0"/>
		</comp>
		<comp name="--.HNN" depth="0.0">
			<acc value="0.0104667084514327" flag="0"/>
			<vel value="0.0337477392706228" flag="0"/>
			<psa03 value="0.0111541672942581" flag="0"/>
			<psa10 value="0.0175714683985451" flag="0"/>
			<psa30 value="0.0213717607742641" flag="0"/>
		</comp>
		<comp name="--.HNZ" depth="0.0">
			<acc value="0.0102442350615485" flag="0"/>
			<vel value="0.0255329290051448" flag="0"/>
			<psa03 value="0.0112764918039065" flag="0"/>
			<psa10 value="0.0232791908821476" flag="0"/>
			<psa30 value="0.0101887174525276" flag="0"/>
		</comp>
	</station>
	<station code="AQF" name="AQF" netid="IT" source="Italian Strong Motion Network (RAN)" insttype="" lat="42.3807" lon="13.3547">
		<comp name="--.HNE" depth="0.0">
			<acc value="0.0141274452492074" flag="0"/>
			<vel value="0.052066746289579" flag="0"/>
			<psa03 value="0.0225459206399261" flag="0"/>
			<psa10 value="0.0205477686888324" flag="0"/>
			<psa30 value="0.0233300405006853" flag="0"/>
		</comp>
		<comp name="--.HNN" depth="0.0">
			<acc value="0.0114965812991351" flag="0"/>
			<vel value="0.0340735632160914" flag="0"/>
			<psa03 value="0.0134664259387953" flag="0"/>
			<psa10 value="0.0138785275093352" flag="0"/>
			<psa30 value="0.0159183995158445" flag="0"/>
		</comp>
		<comp name="--.HNZ" depth="0.0">
			<acc value="0.00636801324122631" flag="0"/>
			<vel value="0.0202501816097248" flag="0"/>
			<psa03 value="0.00611643838715023" flag="0"/>
			<psa10 value="0.00982221754870766" flag="0"/>
			<psa30 value="0.0118428228622264" flag="0"/>
		</comp>
	</station>
	<station code="AQG" name="AQG" netid="IT" source="Italian Strong Motion Network (RAN)" insttype="" lat="42.3737" lon="13.337">
		<comp name="--.HNE" depth="0.0">
			<acc value="0.0157059617277019" flag="0"/>
			<vel value="0.0621841004550676" flag="0"/>
			<psa03 value="0.017150287164022" flag="0"/>
			<psa10 value="0.024921557805896" flag="0"/>
			<psa30 value="0.0263223787284072" flag="0"/>
		</comp>
		<comp name="--.HNN" depth="0.0">
			<acc value="0.00924606897842926" flag="0"/>
			<vel value="0.0367963276634083" flag="0"/>
			<psa03 value="0.0106415109374571" flag="0"/>
			<psa10 value="0.0220136301699615" flag="0"/>
			<psa30 value="0.0177861465782543" flag="0"/>
		</comp>
		<comp name="--.HNZ" depth="0.0">
			<acc value="0.00949669401270545" flag="0"/>
			<vel value="0.026724433270494" flag="0"/>
			<psa03 value="0.0103249092349815" flag="0"/>
			<psa10 value="0.0242425659510179" flag="0"/>
			<psa30 value="0.00923945956885152" flag="0"/>
		</comp>
	</station>
	<station code="AQK" name="AQK" netid="IT" source="Italian Strong Motion Network (RAN)" insttype="" lat="42.345" lon="13.4009">
		<comp name="--.HNE" depth="0.0">
			<acc value="0.0277337933360144" flag="0"/>
			<vel value="0.0856883647654016" flag="0"/>
			<psa03 value="0.0278171161849279" flag="0"/>
			<psa10 value="0.0465820870846563" flag="0"/>
			<psa30 value="0.039227345285774" flag="0"/>
		</comp>
		<comp name="--.HNN" depth="0.0">
			<acc value="0.0184092263123697" flag="0"/>
			<vel value="0.0716351360067577" flag="0"/>
			<psa03 value="0.0208019340156213" flag="0"/>
			<psa10 value="0.0410138494662416" flag="0"/>
			<psa30 value="0.0217570846334121" flag="0"/>
		</comp>
		<comp name="--.HNZ" depth="0.0">
			<acc value="0.00795847730444315" flag="0"/>
			<vel value="0.0167386814426104" flag="0"/>
			<psa03 value="0.0150861439142454" flag="0"/>
			<psa10 value="0.0275025519090884" flag="0"/>
			<psa30 value="0.00645275746351346" flag="0"/>
		</comp>
	</station>
	<station code="AQP" name="AQP" netid="IT" source="Italian Strong Motion Network (RAN)" insttype="" lat="42.3837" lon="13.3686">
		<comp name="--.HNE" depth="0.0">
			<acc value="0.0151599005704361" flag="0"/>
