<?xml version="1.0" encoding="UTF-8" standalone="yes"?>
<!DOCTYPE earthquake SYSTEM "stationlist.dtd">
<stationlist created="" xmlns="ch.ethz.sed.shakemap.usgs.xml">
  <station code="CLAC" name="CLAC" netid="2I" insttype="" commtype="DIG" lat="40.8836" lon="14.0706">
    <comp name="--.HHN">
      <acc value="0.0236733189" flag="0"/>
      <vel value="0.0708327116" flag="0"/>
      <psa03 value="0.0460517246" flag="0"/>
      <psa10 value="0.0467617147" flag="0"/>
      <psa30 value="0.0366790684" flag="0"/>
    </comp>
    <comp name="--.HHE">
      <acc value="0.0274256253" flag="0"/>
      <vel value="0.0635366156" flag="0"/>
      <psa03 value="0.0369518748" flag="0"/>
      <psa10 value="0.0530230485" flag="0"/>
      <psa30 value="0.0165105186" flag="0"/>
    </comp>
    <comp name="--.HHZ">
      <acc value="0.0411775638" flag="0"/>
      <vel value="0.0454069827" flag="0"/>
      <psa03 value="0.0675305810" flag="0"/>
      <psa10 value="0.0575595601" flag="0"/>
      <psa30 value="0.0117298120" flag="0"/>
    </comp>
  </station>
  <station code="MARCO" name="MARCO" netid="GE" insttype="VBB" commtype="DIG" lat="40.2972" lon="15.8063">
    <comp name="--.HHE">
      <acc value="0.0180879276" flag="0"/>
      <vel value="0.0545584118" flag="0"/>
      <psa03 value="0.0211162752" flag="0"/>
      <psa10 value="0.0320821038" flag="0"/>
      <psa30 value="0.0278323048" flag="0"/>
    </comp>
    <comp name="--.HHN">
      <acc value="0.0123960483" flag="0"/>
      <vel value="0.0453368770" flag="0"/>
      <psa03 value="0.0264198362" flag="0"/>
      <psa10 value="0.0269602913" flag="0"/>
      <psa30 value="0.0335130592" flag="0"/>
    </comp>
    <comp name="--.HHZ">
      <acc value="0.0088280606" flag="0"/>
      <vel value="0.0218478129" flag="0"/>
      <psa03 value="0.0133314811" flag="0"/>
      <psa10 value="0.0228473123" flag="0"/>
      <psa30 value="0.0072681204" flag="0"/>
    </comp>
  </station>
  <station code="CAMPI" name="CAMPI" netid="GX" insttype="Trillium Compact" commtype="DIG" lat="40.7071" lon="15.2738">
    <comp name="--.HHE">
      <acc value="0.0139141298" flag="0"/>
      <vel value="0.0340695243" flag="0"/>
      <psa03 value="0.0159411446" flag="0"/>
      <psa10 value="0.0331805704" flag="0"/>
      <psa30 value="0.0175112062" flag="0"/>
    </comp>
    <comp name="--.HHZ">
      <acc value="0.0070279946" flag="0"/>
      <vel value="0.0160461051" flag="0"/>
      <psa03 value="0.0129868558" flag="0"/>
      <psa10 value="0.0260216482" flag="0"/>
      <psa30 value="0.0071798353" flag="0"/>
    </comp>
    <comp name="--.HHN">
      <acc value="0.0163019261" flag="0"/>
      <vel value="0.0431344654" flag="0"/>
      <psa03 value="0.0215138355" flag="0"/>
      <psa10 value="0.0392583066" flag="0"/>
      <psa30 value="0.0151156631" flag="0"/>
    </comp>
  </station>
  <station code="ACER" name="ACER" netid="IV" insttype="" commtype="DIG" lat="40.7867" lon="15.9427">
    <comp name="--.HHE">
      <acc value="0.0092040978" flag="0"/>
      <vel value="0.0174988756" flag="0"/>
      <psa03 value="0.0163300907" flag="0"/>
      <psa10 value="0.0142020747" flag="0"/>
      <psa30 value="0.0092029398" flag="0"/>
    </comp>
    <comp name="--.HHZ">
      <acc value="0.0040781592" flag="0"/>
      <vel value="0.0097399570" flag="0"/>
      <psa03 value="0.0086190948" flag="0"/>
      <psa10 value="0.0075244729" flag="0"/>
      <psa30 value="0.0055526679" flag="0"/>
    </comp>
    <comp name="--.HHN">
      <acc value="0.0053577357" flag="0"/>
      <vel value="0.0183779875" flag="0"/>
      <psa03 value="0.0105371674" flag="0"/>
      <psa10 value="0.0149965702" flag="0"/>
      <psa30 value="0.0100837198" flag="0"/>
    </comp>
  </station>
  <station code="APRC" name="APRC" netid="IV" insttype="" commtype="DIG" lat="41.7574" lon="15.5431">
    <comp name="--.HHN">
      <acc value="0.0103064840" flag="0"/>
      <vel value="0.0094355308" flag="0"/>
      <psa03 value="0.0182944837" flag="0"/>
      <psa10 value="0.0091756159" flag="0"/>
      <psa30 value="0.0023511258" flag="0"/>
    </comp>
    <comp name="--.HHE">
      <acc value="0.0071341389" flag="0"/>
      <vel value="0.0107359260" flag="0"/>
      <psa03 value="0.0113669038" flag="0"/>
      <psa10 value="0.0105454721" flag="0"/>
      <psa30 value="0.0037021453" flag="0"/>
    </comp>
    <comp name="--.HHZ">
      <acc value="0.0058388383" flag="0"/>
      <vel value="0.0036728675" flag="0"/>
      <psa03 value="0.0115090422" flag="0"/>
      <psa10 value="0.0042765365" flag="0"/>
      <psa30 value="0.0014642127" flag="0"/>
    </comp>
  </station>
  <station code="BSSO" name="BSSO" netid="IV" insttype="" commtype="DIG" lat="41.5461" lon="14.5938">
    <comp name="--.HHE">
      <acc value="0.0131847250" flag="0"/>
      <vel value="0.0417040004" flag="0"/>
      <psa03 value="0.0147298834" flag="0"/>
      <psa10 value="0.0207797814" flag="0"/>
      <psa30 value="0.0181586198" flag="0"/>
    </comp>
    <comp name="--.HHN">
      <acc value="0.0112410660" flag="0"/>
      <vel value="0.0444214451" flag="0"/>
      <psa03 value="0.0119623852" flag="0"/>
      <psa10 value="0.0195301312" flag="0"/>
      <psa30 value="0.0235918203" flag="0"/>
    </comp>
    <comp name="--.HHZ">
      <acc value="0.0050497810" flag="0"/>
      <vel value="0.0141729995" flag="0"/>
      <psa03 value="0.0099829090" flag="0"/>
      <psa10 value="0.0092138715" flag="0"/>
      <psa30 value="0.0107516397" flag="0"/>
    </comp>
  </station>
  <station code="CAAM" name="CAAM" netid="IV" insttype="" commtype="DIG" lat="40.8201" lon="14.142">
    <comp name="--.HHE">
      <acc value="0.0093019906" flag="0"/>
      <vel value="0.0320847406" flag="0"/>
      <psa03 value="0.0131082324" flag="0"/>
      <psa10 value="0.0235690798" flag="0"/>
      <psa30 value="0.0182313520" flag="0"/>
    </comp>
    <comp name="--.HHZ">
      <acc value="0.0151458407" flag="0"/>
      <vel value="0.0362832938" flag="0"/>
      <psa03 value="0.0253545453" flag="0"/>
      <psa10 value="0.0419518163" flag="0"/>
      <psa30 value="0.0098478742" flag="0"/>
    </comp>
    <comp name="--.HHN">
      <acc value="0.0135419992" flag="0"/>
      <vel value="0.0512117651" flag="0"/>
      <psa03 value="0.0145620844" flag="0"/>
      <psa10 value="0.0366449905" flag="0"/>
      <psa30 value="0.0433860477" flag="0"/>
    </comp>
  </station>
  <station code="CAFE" name="CAFE" netid="IV" insttype="" commtype="DIG" lat="41.028" lon="15.2366">
    <comp name="--.HHE">
      <acc value="0.0098830840" flag="0"/>
      <vel value="0.0363951161" flag="0"/>
      <psa03 value="0.0132085850" flag="0"/>
      <psa10 value="0.0228970654" flag="0"/>
      <psa30 value="0.0230970198" flag="0"/>
    </comp>
    <comp name="--.HHN">
      <acc value="0.0086606497" flag="0"/>
      <vel value="0.0466339552" flag="0"/>
      <psa03 value="0.0110954039" flag="0"/>
      <psa10 value="0.0142492724" flag="0"/>
      <psa30 value="0.0240546644" flag="0"/>
    </comp>
    <comp name="--.HHZ">
      <acc value="0.0069172005" flag="0"/>
      <vel value="0.0183353250" flag="0"/>
      <psa03 value="0.0127214816" flag="0"/>
      <psa10 value="0.0090835791" flag="0"/>
      <psa30 value="0.0141479872" flag="0"/>
    </comp>
  </station>
  <station code="CAPA" name="CAPA" netid="IV" insttype="" commtype="DIG" lat="41.1577" lon="15.8187">
    <comp name="--.HHE">
      <acc value="0.0078039827" flag="0"/>
      <vel value="0.0230401399" flag="0"/>
      <psa03 value="0.0090189705" flag="0"/>
      <psa10 value="0.0216522423" flag="0"/>
      <psa30 value="0.0105058138" flag="0"/>
    </comp>
    <comp name="--.HHZ">
      <acc value="0.0046067784" flag="0"/>
      <vel value="0.0079070446" flag="0"/>
      <psa03 value="0.0160882984" flag="0"/>
      <psa10 value="0.0090217636" flag="0"/>
      <psa30 value="0.0038333367" flag="0"/>
    </comp>
    <comp name="--.HHN">
      <acc value="0.0061630702" flag="0"/>
      <vel value="0.0166669469" flag="0"/>
      <psa03 value="0.0115997057" flag="0"/>
      <psa10 value="0.0207568619" flag="0"/>
      <psa30 value="0.0125798269" flag="0"/>
    </comp>
  </station>
  <station code="CAWE" name="CAWE" netid="IV" insttype="" commtype="DIG" lat="40.8405" lon="14.1393">
    <comp name="--.HHE">
      <acc value="0.0359557017" flag="0"/>
      <vel value="0.0498152762" flag="0"/>
      <psa03 value="0.0661257470" flag="0"/>
      <psa10 value="0.0740104511" flag="0"/>
      <psa30 value="0.0188353353" flag="0"/>
    </comp>
    <comp name="--.HHN">
      <acc value="0.0358560303" flag="0"/>
      <vel value="0.0773308260" flag="0"/>
      <psa03 value="0.0660070263" flag="0"/>
      <psa10 value="0.1166349940" flag="0"/>
      <psa30 value="0.0396747747" flag="0"/>
    </comp>
    <comp name="--.HHZ">
      <acc value="0.0211597654" flag="0"/>
      <vel value="0.0323840647" flag="0"/>
      <psa03 value="0.0723813220" flag="0"/>
      <psa10 value="0.0438535105" flag="0"/>
      <psa30 value="0.0181149188" flag="0"/>
    </comp>
  </station>
  <station code="CBAC" name="CBAC" netid="IV" insttype="" commtype="DIG" lat="40.8109" lon="14.0806">
    <comp name="--.HHE">
      <acc value="0.0206394019" flag="0"/>
      <vel value="0.0625790549" flag="0"/>
      <psa03 value="0.0210170469" flag="0"/>
      <psa10 value="0.0489763987" flag="0"/>
      <psa30 value="0.0354209896" flag="0"/>
    </comp>
    <comp name="--.HHN">
      <acc value="0.0269039674" flag="0"/>
      <vel value="0.0876905508" flag="0"/>
      <psa03 value="0.0278618549" flag="0"/>
      <psa10 value="0.0373783244" flag="0"/>
      <psa30 value="0.0655814108" flag="0"/>
    </comp>
    <comp name="--.HHZ">
      <acc value="0.0328681803" flag="0"/>
      <vel value="0.0639759721" flag="0"/>
      <psa03 value="0.0668774449" flag="0"/>
      <psa10 value="0.0642413828" flag="0"/>
      <psa30 value="0.0110180731" flag="0"/>
    </comp>
  </station>
  <station code="CERA" name="CERA" netid="IV" insttype="" commtype="DIG" lat="41.5978" lon="14.0183">
    <comp name="--.HHE">
      <acc value="0.0076020053" flag="0"/>
      <vel value="0.0322913738" flag="0"/>
      <psa03 value="0.0088375484" flag="0"/>
      <psa10 value="0.0209209641" flag="0"/>
      <psa30 value="0.0160782783" flag="0"/>
    </comp>
    <comp name="--.HHN">
      <acc value="0.0066133534" flag="0"/>
      <vel value="0.0257970958" flag="0"/>
      <psa03 value="0.0097624415" flag="0"/>
      <psa10 value="0.0123780529" flag="0"/>
      <psa30 value="0.0145421079" flag="0"/>
    </comp>
    <comp name="--.HHZ">
      <acc value="0.0041857188" flag="0"/>
      <vel value="0.0143347645" flag="0"/>
      <psa03 value="0.0046919608" flag="0"/>
      <psa10 value="0.0112817877" flag="0"/>
      <psa30 value="0.0059985810" flag="0"/>
    </comp>
  </station>
  <station code="CERT" name="CERT" netid="IV" insttype="" commtype="DIG" lat="41.949" lon="12.9818">
    <comp name="--.HHE">
      <acc value="0.0072453624" flag="0"/>
      <vel value="0.0324677101" flag="0"/>
      <psa03 value="0.0085040072" flag="0"/>
      <psa10 value="0.0100309171" flag="0"/>
      <psa30 value="0.0159083096" flag="0"/>
    </comp>
    <comp name="--.HHN">
      <acc value="0.0049075647" flag="0"/>
      <vel value="0.0250382239" flag="0"/>
      <psa03 value="0.0060033502" flag="0"/>
      <psa10 value="0.0068084500" flag="0"/>
      <psa30 value="0.0158464538" flag="0"/>
    </comp>
    <comp name="--.HHZ">
      <acc value="0.0036856185" flag="0"/>
      <vel value="0.0171398889" flag="0"/>
      <psa03 value="0.0057101549" flag="0"/>
      <psa10 value="0.0050646167" flag="0"/>
      <psa30 value="0.0112622870" flag="0"/>
    </comp>
  </station>
  <station code="CET2" name="CET2" netid="IV" insttype="" commtype="DIG" lat="39.5288" lon="15.9546">
    <comp name="--.HHN">
      <acc value="0.0490012148" flag="0"/>
      <vel value="0.0903621184" flag="0"/>
      <psa03 value="0.0962279167" flag="0"/>
      <psa10 value="0.1065774964" flag="0"/>
      <psa30 value="0.0406620602" flag="0"/>
    </comp>
    <comp name="--.HHZ">
      <acc value="0.0358986011" flag="0"/>
      <vel value="0.0226541719" flag="0"/>
      <psa03 value="0.0361372390" flag="0"/>
      <psa10 value="0.0260378352" flag="0"/>
      <psa30 value="0.0097542381" flag="0"/>
    </comp>
    <comp name="--.HHE">
      <acc value="0.0317905042" flag="0"/>
      <vel value="0.0429944045" flag="0"/>
      <psa03 value="0.0353924623" flag="0"/>
      <psa10 value="0.0565747283" flag="0"/>
      <psa30 value="0.0116351252" flag="0"/>
    </comp>
  </station>
  <station code="CFMN" name="CFMN" netid="IV" insttype="" commtype="DIG" lat="40.8329" lon="14.0904">
    <comp name="--.HHE">
      <acc value="0.0145389311" flag="0"/>
      <vel value="0.0407539056" flag="0"/>
      <psa03 value="0.0242265172" flag="0"/>
      <psa10 value="0.0306271367" flag="0"/>
      <psa30 value="0.0309008152" flag="0"/>
    </comp>
    <comp name="--.HHN">
      <acc value="0.0185734898" flag="0"/>
      <vel value="0.0648060627" flag="0"/>
      <psa03 value="0.0247398164" flag="0"/>
      <psa10 value="0.0219938954" flag="0"/>
      <psa30 value="0.0340762933" flag="0"/>
    </comp>
    <comp name="--.HHZ">
      <acc value="0.0267532108" flag="0"/>
      <vel value="0.0435777256" flag="0"/>
      <psa03 value="0.0566187579" flag="0"/>
      <psa10 value="0.0476288000" flag="0"/>
      <psa30 value="0.0099012233" flag="0"/>
    </comp>
  </station>
  <station code="CIGN" name="CIGN" netid="IV" insttype="SS08" commtype="DIG" lat="41.6542" lon="14.905">
    <comp name="--.HHE">
      <acc value="0.0040923673" flag="0"/>
      <vel value="0.0164914408" flag="0"/>
      <psa03 value="0.0045432208" flag="0"/>
      <psa10 value="0.0105943094" flag="0"/>
      <psa30 value="0.0085201675" flag="0"/>
    </comp>
    <comp name="--.HHN">
      <acc value="0.0041841747" flag="0"/>
      <vel value="0.0158216852" flag="0"/>
      <psa03 value="0.0044555697" flag="0"/>
      <psa10 value="0.0097415806" flag="0"/>
      <psa30 value="0.0104184646" flag="0"/>
    </comp>
    <comp name="--.HHZ">
      <acc value="0.0028024658" flag="0"/>
      <vel value="0.0106325753" flag="0"/>
      <psa03 value="0.0041650753" flag="0"/>
      <psa10 value="0.0085895494" flag="0"/>
      <psa30 value="0.0061741901" flag="0"/>
    </comp>
  </station>
  <station code="CMIS" name="CMIS" netid="IV" insttype="" commtype="DIG" lat="40.7782" lon="14.089">
    <comp name="--.HHN">
      <acc value="0.0201487363" flag="0"/>
      <vel value="0.0649567608" flag="0"/>
      <psa03 value="0.0395680120" flag="0"/>
      <psa10 value="0.0468448234" flag="0"/>
      <psa30 value="0.0691781823" flag="0"/>
    </comp>
    <comp name="--.HHE">
      <acc value="0.0245756625" flag="0"/>
      <vel value="0.0444010705" flag="0"/>
      <psa03 value="0.0596290780" flag="0"/>
      <psa10 value="0.0320164120" flag="0"/>
      <psa30 value="0.0416577596" flag="0"/>
    </comp>
    <comp name="--.HHZ">
      <acc value="0.0324614515" flag="0"/>
      <vel value="0.0565117214" flag="0"/>
      <psa03 value="0.0419484239" flag="0"/>
      <psa10 value="0.0668101358" flag="0"/>
      <psa30 value="0.0095905703" flag="0"/>
    </comp>
  </station>
  <station code="CMSN" name="CMSN" netid="IV" insttype="" commtype="DIG" lat="40.8382" lon="14.1818">
    <comp name="--.HHN">
      <acc value="0.0131248032" flag="0"/>
      <vel value="0.0521814366" flag="0"/>
      <psa03 value="0.0165605833" flag="0"/>
      <psa10 value="0.0279276150" flag="0"/>
      <psa30 value="0.0305945640" flag="0"/>
    </comp>
    <comp name="--.HHZ">
      <acc value="0.0161645543" flag="0"/>
      <vel value="0.0273984790" flag="0"/>
      <psa03 value="0.0190464225" flag="0"/>
      <psa10 value="0.0306493145" flag="0"/>
      <psa30 value="0.0138662082" flag="0"/>
    </comp>
    <comp name="--.HHE">
      <acc value="0.0148209744" flag="0"/>
      <vel value="0.0513889793" flag="0"/>
      <psa03 value="0.0164717539" flag="0"/>
      <psa10 value="0.0336266345" flag="0"/>
      <psa30 value="0.0229097471" flag="0"/>
    </comp>
  </station>
  <station code="CNIS" name="CNIS" netid="IV" insttype="" commtype="DIG" lat="40.7982" lon="14.1632">
    <comp name="--.HHN">
      <acc value="0.0152196264" flag="0"/>
      <vel value="0.0666702690" flag="0"/>
      <psa03 value="0.0158805770" flag="0"/>
      <psa10 value="0.0225527997" flag="0"/>
      <psa30 value="0.0505973572" flag="0"/>
    </comp>
    <comp name="--.HHE">
      <acc value="0.0159480138" flag="0"/>
      <vel value="0.0620461177" flag="0"/>
      <psa03 value="0.0167772319" flag="0"/>
      <psa10 value="0.0288151622" flag="0"/>
      <psa30 value="0.0380691837" flag="0"/>
    </comp>
    <comp name="--.HHZ">
      <acc value="0.0123406285" flag="0"/>
      <vel value="0.0370312446" flag="0"/>
      <psa03 value="0.0148334056" flag="0"/>
      <psa10 value="0.0303115356" flag="0"/>
      <psa30 value="0.0128409655" flag="0"/>
    </comp>
  </station>
  <station code="COLB" name="COLB" netid="IV" insttype="" commtype="DIG" lat="40.819" lon="14.1446">
    <comp name="--.HHE">
      <acc value="0.0131177265" flag="0"/>
      <vel value="0.0325185829" flag="0"/>
      <psa03 value="0.0170986066" flag="0"/>
      <psa10 value="0.0283943795" flag="0"/>
      <psa30 value="0.0181677539" flag="0"/>
    </comp>
    <comp name="--.HHN">
      <acc value="0.0134358651" flag="0"/>
      <vel value="0.0587597868" flag="0"/>
      <psa03 value="0.0142063562" flag="0"/>
      <psa10 value="0.0342823265" flag="0"/>
      <psa30 value="0.0454568278" flag="0"/>
    </comp>
    <comp name="--.HHZ">
      <acc value="0.0112362458" flag="0"/>
      <vel value="0.0283006980" flag="0"/>
      <psa03 value="0.0157045061" flag="0"/>
      <psa10 value="0.0297861220" flag="0"/>
      <psa30 value="0.0095718559" flag="0"/>
    </comp>
  </station>
  <station code="CPIS" name="CPIS" netid="IV" insttype="" commtype="DIG" lat="40.8294" lon="14.1468">
    <comp name="--.HHE">
      <acc value="0.1194914148" flag="0"/>
      <vel value="0.0366013093" flag="0"/>
      <psa03 value="0.0249359154" flag="0"/>
      <psa10 value="0.0299306458" flag="0"/>
      <psa30 value="0.0131005533" flag="0"/>
    </comp>
    <comp name="--.HHZ">
      <acc value="0.0685217325" flag="0"/>
      <vel value="0.0220691769" flag="0"/>
      <psa03 value="0.0299071093" flag="0"/>
      <psa10 value="0.0307291363" flag="0"/>
      <psa30 value="0.0083382307" flag="0"/>
    </comp>
    <comp name="--.HHN">
      <acc value="0.0721049421" flag="0"/>
      <vel value="0.0428907942" flag="0"/>
      <psa03 value="0.0152282339" flag="0"/>
      <psa10 value="0.0203510365" flag="0"/>
      <psa30 value="0.0303831036" flag="0"/>
    </comp>
  </station>
  <station code="CPOZ" name="CPOZ" netid="IV" insttype="" commtype="DIG" lat="40.8211" lon="14.1191">
    <comp name="--.HHE">
      <acc value="0.0206285283" flag="0"/>
      <vel value="0.0538847812" flag="0"/>
      <psa03 value="0.0300027069" flag="0"/>
      <psa10 value="0.0511412131" flag="0"/>
      <psa30 value="0.0453937369" flag="0"/>
    </comp>
    <comp name="--.HHN">
      <acc value="0.0160223591" flag="0"/>
      <vel value="0.0566388198" flag="0"/>
      <psa03 value="0.0232066237" flag="0"/>
      <psa10 value="0.0430098471" flag="0"/>
      <psa30 value="0.0319632879" flag="0"/>
    </comp>
    <comp name="--.HHZ">
      <acc value="0.0188619070" flag="0"/>
      <vel value="0.0381162555" flag="0"/>
      <psa03 value="0.0295640188" flag="0"/>
      <psa10 value="0.0525830935" flag="0"/>
      <psa30 value="0.0175933200" flag="0"/>
    </comp>
  </station>
  <station code="CRTO" name="CRTO" netid="IV" insttype="" commtype="DIG" lat="40.8212" lon="14.4223">
    <comp name="--.HHE">
      <acc value="0.0232808894" flag="0"/>
      <vel value="0.0568786115" flag="0"/>
