<?xml version="1.0" encoding="UTF-8" standalone="yes"?>
<!DOCTYPE earthquake SYSTEM "stationlist.dtd">
<stationlist created="" xmlns="ch.ethz.sed.shakemap.usgs.xml">
  <station code="CEYT" name="CEYT" netid="KO" insttype="CMG-3ESP" lat="37.0105" lon="35.7478">
    <comp name="--.HHN">
      <acc value="0.0027512401" flag="0"/>
      <vel value="0.0024749567" flag="0"/>
      <psa03 value="0.0055940988" flag="0"/>
      <psa10 value="0.0036246141" flag="0"/>
      <psa30 value="0.0005135750" flag="0"/>
    </comp>
    <comp name="--.HHZ">
      <acc value="0.0020607412" flag="0"/>
      <vel value="0.0018583702" flag="0"/>
      <psa03 value="0.0030008147" flag="0"/>
      <psa10 value="0.0032405025" flag="0"/>
      <psa30 value="0.0005402613" flag="0"/>
    </comp>
    <comp name="--.HHE">
      <acc value="0.0031713698" flag="0"/>
      <vel value="0.0030903330" flag="0"/>
      <psa03 value="0.0068950626" flag="0"/>
      <psa10 value="0.0044350046" flag="0"/>
      <psa30 value="0.0007223540" flag="0"/>
    </comp>
  </station>
  <station code="GAZ" name="GAZ" netid="KO" insttype="CMG-3T" lat="37.1721" lon="37.2096">
    <comp name="--.HHZ">
      <acc value="0.0164816879" flag="0"/>
      <vel value="0.0054821781" flag="0"/>
      <psa03 value="0.0182130492" flag="0"/>
      <psa10 value="0.0048113823" flag="0"/>
      <psa30 value="0.0013512423" flag="0"/>
    </comp>
    <comp name="--.HHN">
      <acc value="0.0219871648" flag="0"/>
      <vel value="0.0142184970" flag="0"/>
      <psa03 value="0.0162217082" flag="0"/>
      <psa10 value="0.0116828693" flag="0"/>
      <psa30 value="0.0009933683" flag="0"/>
    </comp>
    <comp name="--.HHE">
      <acc value="0.0306141794" flag="0"/>
      <vel value="0.0132028811" flag="0"/>
      <psa03 value="0.0342770539" flag="0"/>
      <psa10 value="0.0115388167" flag="0"/>
      <psa30 value="0.0010224261" flag="0"/>
    </comp>
  </station>
  <station code="KHMN" name="KHMN" netid="KO" insttype="CMG-5T" lat="37.3916" lon="37.1574">
    <comp name="--.HNE">
      <acc value="0.0464966714" flag="0"/>
      <vel value="0.0120727648" flag="0"/>
      <psa03 value="0.0638793776" flag="0"/>
      <psa10 value="0.0102214971" flag="0"/>
      <psa30 value="0.0014685736" flag="0"/>
    </comp>
    <comp name="--.HNN">
      <acc value="0.0439963981" flag="0"/>
      <vel value="0.0100506433" flag="0"/>
      <psa03 value="0.0430886182" flag="0"/>
      <psa10 value="0.0073261100" flag="0"/>
      <psa30 value="0.0011759597" flag="0"/>
    </comp>
    <comp name="--.HNZ">
      <acc value="0.0294880126" flag="0"/>
      <vel value="0.0072080111" flag="0"/>
      <psa03 value="0.0312403841" flag="0"/>
      <psa10 value="0.0065531126" flag="0"/>
      <psa30 value="0.0008428642" flag="0"/>
    </comp>
  </station>
  <station code="SARI" name="SARI" netid="KO" insttype="CMG-3T" lat="38.4072" lon="36.4181">
    <comp name="--.HHE">
      <acc value="0.0375348906" flag="0"/>
      <vel value="0.0117553199" flag="0"/>
      <psa03 value="0.0341811819" flag="0"/>
      <psa10 value="0.0086761448" flag="0"/>
      <psa30 value="0.0007203467" flag="0"/>
    </comp>
    <comp name="--.HHZ">
      <acc value="0.0230420028" flag="0"/>
      <vel value="0.0083311584" flag="0"/>
      <psa03 value="0.0274595032" flag="0"/>
      <psa10 value="0.0070075485" flag="0"/>
      <psa30 value="0.0007757727" flag="0"/>
    </comp>
  </station>
  <station code="ANDN" name="ANDN" netid="TU" insttype="T" lat="37.58" lon="36.3452">
    <comp name="--.HHE">
      <acc value="0.2042650057" flag="0"/>
      <vel value="0.0970945633" flag="0"/>
      <psa03 value="0.2710863779" flag="0"/>
      <psa10 value="0.1136907350" flag="0"/>
      <psa30 value="0.0081056622" flag="0"/>
    </comp>
    <comp name="--.HHN">
      <acc value="0.1912624669" flag="0"/>
      <vel value="0.0948132042" flag="0"/>
      <psa03 value="0.2757375242" flag="0"/>
      <psa10 value="0.1182045133" flag="0"/>
      <psa30 value="0.0067195459" flag="0"/>
    </comp>
    <comp name="--.HHZ">
      <acc value="0.1088917900" flag="0"/>
      <vel value="0.0851465720" flag="0"/>
      <psa03 value="0.1257778982" flag="0"/>
      <psa10 value="0.1209266776" flag="0"/>
      <psa30 value="0.0077341546" flag="0"/>
    </comp>
  </station>
</stationlist>
