<?xml version="1.0" encoding="UTF-8" standalone="yes"?>
<!DOCTYPE earthquake SYSTEM "stationlist.dtd">
<stationlist created="" xmlns="ch.ethz.sed.shakemap.usgs.xml">
  <station code="APE" name="APE" netid="GE" insttype="STS-2/N" lat="37.0727" lon="25.523">
    <comp name="--.HHE">
      <acc value="0.0240721561" flag="0"/>
      <vel value="0.0039296605" flag="0"/>
      <psa03 value="0.0086589004" flag="0"/>
      <psa10 value="0.0031112830" flag="0"/>
      <psa30 value="0.0001350892" flag="0"/>
    </comp>
    <comp name="--.HHN">
      <acc value="0.0294834244" flag="0"/>
      <vel value="0.0048008827" flag="0"/>
      <psa03 value="0.0134865471" flag="0"/>
      <psa10 value="0.0018795588" flag="0"/>
      <psa30 value="0.0001481308" flag="0"/>
    </comp>
    <comp name="--.HHZ">
      <acc value="0.0101419725" flag="0"/>
      <vel value="0.0019484425" flag="0"/>
      <psa03 value="0.0054614924" flag="0"/>
      <psa10 value="0.0011836759" flag="0"/>
      <psa30 value="0.0000986277" flag="0"/>
    </comp>
  </station>
  <station code="THERA" name="THERA" netid="GE" insttype="STS-2/N" lat="36.367" lon="25.4753">
    <comp name="--.HHZ">
      <acc value="0.1825297645" flag="0"/>
      <vel value="0.0647906268" flag="0"/>
      <psa03 value="0.1841365891" flag="0"/>
      <psa10 value="0.0216791917" flag="0"/>
      <psa30 value="0.0013643822" flag="0"/>
    </comp>
    <comp name="--.HHN">
      <acc value="0.4597906009" flag="0"/>
      <vel value="0.1132065700" flag="0"/>
      <psa03 value="0.2425177565" flag="0"/>
      <psa10 value="0.0146196077" flag="0"/>
      <psa30 value="0.0015644523" flag="0"/>
    </comp>
    <comp name="--.HHE">
      <acc value="0.3147401658" flag="0"/>
      <vel value="0.0573491346" flag="0"/>
      <psa03 value="0.1550126501" flag="0"/>
      <psa10 value="0.0260633957" flag="0"/>
      <psa30 value="0.0019173817" flag="0"/>
    </comp>
  </station>
  <station code="SNT1" name="SNT1" netid="HA" insttype="30" lat="36.4159" lon="25.4282">
    <comp name="--.HHE">
      <acc value="0.2343230565" flag="0"/>
      <vel value="0.0507984529" flag="0"/>
      <psa03 value="0.0723759892" flag="0"/>
      <psa10 value="0.0365597397" flag="0"/>
      <psa30 value="0.0026475483" flag="0"/>
    </comp>
    <comp name="--.HHN">
      <acc value="0.1406203626" flag="0"/>
      <vel value="0.0325287025" flag="0"/>
      <psa03 value="0.1176431760" flag="0"/>
      <psa10 value="0.0274045025" flag="0"/>
      <psa30 value="0.0016750206" flag="0"/>
    </comp>
    <comp name="--.HHZ">
      <acc value="0.1419387543" flag="0"/>
      <vel value="0.0273851995" flag="0"/>
      <psa03 value="0.0586978621" flag="0"/>
      <psa10 value="0.0185254806" flag="0"/>
      <psa30 value="0.0008774314" flag="0"/>
    </comp>
  </station>
  <station code="SNT5" name="SNT5" netid="HA" insttype="1s-100Hz," lat="36.4037" lon="25.3953">
    <comp name="--.HHE">
      <acc value="0.7362887172" flag="0"/>
      <vel value="0.1121509156" flag="0"/>
      <psa03 value="0.2034475785" flag="0"/>
      <psa10 value="0.0292491125" flag="0"/>
      <psa30 value="0.0027005170" flag="0"/>
    </comp>
    <comp name="--.HHN">
      <acc value="0.5994821445" flag="0"/>
      <vel value="0.0962705257" flag="0"/>
      <psa03 value="0.2003891644" flag="0"/>
      <psa10 value="0.0161460375" flag="0"/>
      <psa30 value="0.0017394343" flag="0"/>
    </comp>
    <comp name="--.HHZ">
      <acc value="0.2477342204" flag="0"/>
      <vel value="0.0388884028" flag="0"/>
      <psa03 value="0.0600647027" flag="0"/>
      <psa10 value="0.0085215877" flag="0"/>
      <psa30 value="0.0014557288" flag="0"/>
    </comp>
  </station>
  <station code="KNSS" name="KNSS" netid="HC" insttype="60" lat="35.3042" lon="25.1802">
    <comp name="--.HHZ">
      <acc value="0.0388007008" flag="0"/>
      <vel value="0.0110154141" flag="0"/>
      <psa03 value="0.0529876811" flag="0"/>
      <psa10 value="0.0069283788" flag="0"/>
      <psa30 value="0.0003689856" flag="0"/>
    </comp>
    <comp name="--.HHN">
      <acc value="0.0301143030" flag="0"/>
      <vel value="0.0133154287" flag="0"/>
      <psa03 value="0.0670255663" flag="0"/>
      <psa10 value="0.0058046155" flag="0"/>
      <psa30 value="0.0003815957" flag="0"/>
    </comp>
    <comp name="--.HHE">
      <acc value="0.0347541820" flag="0"/>
      <vel value="0.0090726908" flag="0"/>
      <psa03 value="0.0578407264" flag="0"/>
      <psa10 value="0.0038900125" flag="0"/>
      <psa30 value="0.0004272665" flag="0"/>
    </comp>
  </station>
  <station code="STIA" name="STIA" netid="HC" insttype="120" lat="35.2021" lon="26.0909">
    <comp name="--.HHN">
      <acc value="0.0134911320" flag="0"/>
      <vel value="0.0049608048" flag="0"/>
      <psa03 value="0.0290347248" flag="0"/>
      <psa10 value="0.0066167781" flag="0"/>
      <psa30 value="0.0003220634" flag="0"/>
    </comp>
    <comp name="--.HHZ">
      <acc value="0.0189676389" flag="0"/>
      <vel value="0.0043818749" flag="0"/>
      <psa03 value="0.0201635858" flag="0"/>
      <psa10 value="0.0028414269" flag="0"/>
      <psa30 value="0.0001839842" flag="0"/>
    </comp>
    <comp name="--.HHE">
      <acc value="0.0162328846" flag="0"/>
      <vel value="0.0052417826" flag="0"/>
      <psa03 value="0.0411004133" flag="0"/>
      <psa10 value="0.0047361794" flag="0"/>
      <psa30 value="0.0002969721" flag="0"/>
    </comp>
  </station>
  <station code="NAX1" name="NAX1" netid="HI" insttype="CMG-5TD,ACCELEROMETER,GURALP" lat="37.1014" lon="25.3741">
    <comp name="--.HNE">
      <acc value="0.0164181227" flag="0"/>
      <vel value="0.0028227258" flag="0"/>
      <psa03 value="0.0122264695" flag="0"/>
      <psa10 value="0.0023229513" flag="0"/>
      <psa30 value="0.0001521342" flag="0"/>
    </comp>
    <comp name="--.HNN">
      <acc value="0.0180739250" flag="0"/>
      <vel value="0.0026915642" flag="0"/>
      <psa03 value="0.0077849407" flag="0"/>
      <psa10 value="0.0011560296" flag="0"/>
      <psa30 value="0.0000888461" flag="0"/>
    </comp>
    <comp name="--.HNZ">
      <acc value="0.0084653008" flag="0"/>
      <vel value="0.0014970504" flag="0"/>
      <psa03 value="0.0056149385" flag="0"/>
      <psa10 value="0.0020731914" flag="0"/>
      <psa30 value="0.0002058079" flag="0"/>
    </comp>
  </station>
  <station code="APE" name="APE" netid="HL" insttype="120" lat="37.0727" lon="25.523">
    <comp name="--.HHZ">
      <acc value="0.0082566863" flag="0"/>
      <vel value="0.0018545906" flag="0"/>
      <psa03 value="0.0053125147" flag="0"/>
      <psa10 value="0.0011729087" flag="0"/>
      <psa30 value="0.0000982353" flag="0"/>
    </comp>
    <comp name="--.HHE">
      <acc value="0.0195464277" flag="0"/>
      <vel value="0.0037126637" flag="0"/>
      <psa03 value="0.0084289739" flag="0"/>
      <psa10 value="0.0030854557" flag="0"/>
      <psa30 value="0.0001339367" flag="0"/>
    </comp>
    <comp name="--.HHN">
      <acc value="0.0281452450" flag="0"/>
      <vel value="0.0044605569" flag="0"/>
      <psa03 value="0.0130205721" flag="0"/>
      <psa10 value="0.0018581258" flag="0"/>
      <psa30 value="0.0001471922" flag="0"/>
    </comp>
  </station>
  <station code="IDI" name="IDI" netid="HL" insttype="120" lat="35.288" lon="24.89">
    <comp name="--.HHZ">
      <acc value="0.0242186727" flag="0"/>
      <vel value="0.0082758866" flag="0"/>
      <psa03 value="0.0404182950" flag="0"/>
      <psa10 value="0.0044599759" flag="0"/>
      <psa30 value="0.0002788364" flag="0"/>
    </comp>
    <comp name="--.HHN">
      <acc value="0.0354414431" flag="0"/>
      <vel value="0.0096885666" flag="0"/>
      <psa03 value="0.0311315984" flag="0"/>
      <psa10 value="0.0035277970" flag="0"/>
      <psa30 value="0.0002817907" flag="0"/>
    </comp>
    <comp name="--.HHE">
      <acc value="0.0295863806" flag="0"/>
      <vel value="0.0083464598" flag="0"/>
      <psa03 value="0.0474035501" flag="0"/>
      <psa10 value="0.0051369400" flag="0"/>
      <psa30 value="0.0003588414" flag="0"/>
    </comp>
  </station>
  <station code="MHLO" name="MHLO" netid="HL" insttype="20" lat="36.6898" lon="24.4017">
    <comp name="--.HHN">
      <acc value="0.0244163776" flag="0"/>
      <vel value="0.0120542460" flag="0"/>
      <psa03 value="0.0573641349" flag="0"/>
      <psa10 value="0.0180116813" flag="0"/>
      <psa30 value="0.0005657523" flag="0"/>
    </comp>
    <comp name="--.HHE">
      <acc value="0.0166600184" flag="0"/>
      <vel value="0.0095864548" flag="0"/>
      <psa03 value="0.0570582522" flag="0"/>
      <psa10 value="0.0093670781" flag="0"/>
      <psa30 value="0.0006676275" flag="0"/>
    </comp>
    <comp name="--.HHZ">
      <acc value="0.0087682457" flag="0"/>
      <vel value="0.0059468793" flag="0"/>
      <psa03 value="0.0201868553" flag="0"/>
      <psa10 value="0.0060365314" flag="0"/>
      <psa30 value="0.0002914679" flag="0"/>
    </comp>
  </station>
  <station code="THERA" name="THERA" netid="HL" insttype="120" lat="36.367" lon="25.4753">
    <comp name="--.HHE">
      <acc value="0.3213210356" flag="0"/>
      <vel value="0.0556762817" flag="0"/>
      <psa03 value="0.1496056340" flag="0"/>
      <psa10 value="0.0258988772" flag="0"/>
      <psa30 value="0.0019115412" flag="0"/>
    </comp>
    <comp name="--.HHZ">
      <acc value="0.1875847696" flag="0"/>
      <vel value="0.0631185704" flag="0"/>
      <psa03 value="0.1779739386" flag="0"/>
      <psa10 value="0.0214765112" flag="0"/>
      <psa30 value="0.0013518814" flag="0"/>
    </comp>
    <comp name="--.HHN">
      <acc value="0.4634386167" flag="0"/>
      <vel value="0.1127046641" flag="0"/>
      <psa03 value="0.2353061771" flag="0"/>
      <psa10 value="0.0143117529" flag="0"/>
      <psa30 value="0.0015444854" flag="0"/>
    </comp>
  </station>
  <station code="THRA" name="THRA" netid="HL" insttype="CMG-5" lat="36.415" lon="25.4324">
    <comp name="00.HNE">
      <acc value="0.6088869843" flag="0"/>
      <vel value="0.1347578645" flag="0"/>
      <psa03 value="0.3076693430" flag="0"/>
      <psa10 value="0.1043143935" flag="0"/>
      <psa30 value="0.0056023632" flag="0"/>
    </comp>
    <comp name="00.HNZ">
      <acc value="0.3466203634" flag="0"/>
      <vel value="0.0618919992" flag="0"/>
      <psa03 value="0.2859685964" flag="0"/>
      <psa10 value="0.0290475454" flag="0"/>
      <psa30 value="0.0017700352" flag="0"/>
    </comp>
    <comp name="00.HNN">
      <acc value="0.5072843660" flag="0"/>
      <vel value="0.1320821689" flag="0"/>
      <psa03 value="0.3633540043" flag="0"/>
      <psa10 value="0.0841689546" flag="0"/>
      <psa30 value="0.0038861355" flag="0"/>
    </comp>
  </station>
  <station code="CMBO" name="CMBO" netid="HT" insttype="120P," lat="36.4709" lon="25.4056">
    <comp name="--.HHZ">
      <acc value="0.5555464378" flag="0"/>
      <vel value="0.1133817705" flag="0"/>
      <psa03 value="0.4303484264" flag="0"/>
      <psa10 value="0.0200236611" flag="0"/>
      <psa30 value="0.0020615039" flag="0"/>
    </comp>
    <comp name="--.HHE">
      <acc value="0.7873121537" flag="0"/>
      <vel value="0.1643438968" flag="0"/>
      <psa03 value="0.4256003898" flag="0"/>
      <psa10 value="0.0425595710" flag="0"/>
      <psa30 value="0.0061104920" flag="0"/>
    </comp>
    <comp name="--.HHN">
      <acc value="0.7606838733" flag="0"/>
      <vel value="0.1660308873" flag="0"/>
      <psa03 value="0.8247784839" flag="0"/>
      <psa10 value="0.0838309033" flag="0"/>
      <psa30 value="0.0046268124" flag="0"/>
    </comp>
  </station>
  <station code="IDI" name="IDI" netid="MN" insttype="" lat="35.288" lon="24.89">
    <comp name="--.HHN">
      <acc value="0.0358621617" flag="0"/>
      <vel value="0.0099986056" flag="0"/>
      <psa03 value="0.0315070967" flag="0"/>
      <psa10 value="0.0035179060" flag="0"/>
      <psa30 value="0.0002809808" flag="0"/>
    </comp>
    <comp name="--.HHZ">
      <acc value="0.0246364226" flag="0"/>
      <vel value="0.0085963985" flag="0"/>
      <psa03 value="0.0407758523" flag="0"/>
      <psa10 value="0.0044439032" flag="0"/>
      <psa30 value="0.0002774339" flag="0"/>
    </comp>
    <comp name="--.HHE">
      <acc value="0.0328882330" flag="0"/>
      <vel value="0.0084438618" flag="0"/>
      <psa03 value="0.0477860215" flag="0"/>
      <psa10 value="0.0051153568" flag="0"/>
      <psa30 value="0.0003565343" flag="0"/>
    </comp>
  </station>
</stationlist>
