<?xml version="1.0" encoding="UTF-8" standalone="yes"?>
<!DOCTYPE earthquake SYSTEM "stationlist.dtd">
<stationlist created="" xmlns="ch.ethz.sed.shakemap.usgs.xml">
  <station code="APE" name="APE" netid="GE" insttype="STS-2/N" lat="37.0727" lon="25.523">
    <comp name="--.HHE">
      <acc value="0.0240721561" flag="0"/>
      <vel value="0.0039296605" flag="0"/>
      <psa03 value="0.0086589004" flag="0"/>
      <psa10 value="0.0031112830" flag="0"/>
      <psa30 value="0.0001350892" flag="0"/>
    </comp>
    <comp name="--.HHN">
      <acc value="0.0294834244" flag="0"/>
      <vel value="0.0048008827" flag="0"/>
      <psa03 value="0.0134865471" flag="0"/>
      <psa10 value="0.0018795588" flag="0"/>
      <psa30 value="0.0001481308" flag="0"/>
    </comp>
    <comp name="--.HHZ">
      <acc value="0.0101419725" flag="0"/>
      <vel value="0.0019484425" flag="0"/>
      <psa03 value="0.0054614924" flag="0"/>
      <psa10 value="0.0011836759" flag="0"/>
      <psa30 value="0.0000986277" flag="0"/>
    </comp>
  </station>
  <station code="THERA" name="THERA" netid="GE" insttype="STS-2/N" lat="36.367" lon="25.4753">
    <comp name="--.HHZ">
      <acc value="0.1825297645" flag="0"/>
      <vel value="0.0647906268" flag="0"/>
      <psa03 value="0.1841365891" flag="0"/>
      <psa10 value="0.0216791917" flag="0"/>
      <psa30 value="0.0013643822" flag="0"/>
    </comp>
    <comp name="--.HHN">
      <acc value="0.4597906009" flag="0"/>
      <vel value="0.1132065700" flag="0"/>
      <psa03 value="0.2425177565" flag="0"/>
      <psa10 value="0.0146196077" flag="0"/>
      <psa30 value="0.0015644523" flag="0"/>
    </comp>
    <comp name="--.HHE">
      <acc value="0.3147401658" flag="0"/>
      <vel value="0.0573491346" flag="0"/>
      <psa03 value="0.1550126501" flag="0"/>
      <psa10 value="0.0260633957" flag="0"/>
      <psa30 value="0.0019173817" flag="0"/>
    </comp>
  </station>
  <station code="IDI" name="IDI" netid="MN" insttype="" lat="35.288" lon="24.89">
    <comp name="--.HHN">
      <acc value="0.0358621617" flag="0"/>
      <vel value="0.0099986056" flag="0"/>
      <psa03 value="0.0315070967" flag="0"/>
      <psa10 value="0.0035179060" flag="0"/>
      <psa30 value="0.0002809808" flag="0"/>
    </comp>
    <comp name="--.HHZ">
      <acc value="0.0246364226" flag="0"/>
      <vel value="0.0085963985" flag="0"/>
      <psa03 value="0.0407758523" flag="0"/>
      <psa10 value="0.0044439032" flag="0"/>
      <psa30 value="0.0002774339" flag="0"/>
    </comp>
    <comp name="--.HHE">
      <acc value="0.0328882330" flag="0"/>
      <vel value="0.0084438618" flag="0"/>
      <psa03 value="0.0477860215" flag="0"/>
      <psa10 value="0.0051153568" flag="0"/>
      <psa30 value="0.0003565343" flag="0"/>
    </comp>
  </station>
</stationlist>
