<?xml version="1.0" encoding="UTF-8" standalone="yes"?>
<!DOCTYPE earthquake SYSTEM "stationlist.dtd">
<stationlist created="" xmlns="ch.ethz.sed.shakemap.usgs.xml">
  <station code="ALAN" name="ALAN" netid="KO" insttype="CMG-5T" lat="36.557" lon="32.0327">
    <comp name="--.HNE">
      <acc value="0.5090702761" flag="0"/>
      <vel value="0.2164938116" flag="0"/>
      <psa03 value="0.7518628469" flag="0"/>
      <psa10 value="0.0827490086" flag="0"/>
      <psa30 value="0.0052390841" flag="0"/>
    </comp>
    <comp name="--.HNZ">
      <acc value="0.2418034680" flag="0"/>
      <vel value="0.0617010541" flag="0"/>
      <psa03 value="0.1472429267" flag="0"/>
      <psa10 value="0.0302532421" flag="0"/>
      <psa30 value="0.0017654306" flag="0"/>
    </comp>
    <comp name="--.HNN">
      <acc value="0.2994701820" flag="0"/>
      <vel value="0.1038510354" flag="0"/>
      <psa03 value="0.7911429242" flag="0"/>
      <psa10 value="0.0464713092" flag="0"/>
      <psa30 value="0.0032425026" flag="0"/>
    </comp>
  </station>
  <station code="KEMT" name="KEMT" netid="KO" insttype="CMG-5T" lat="36.6037" lon="30.5558">
    <comp name="--.HNE">
      <acc value="0.2418591403" flag="0"/>
      <vel value="0.1241809659" flag="0"/>
      <psa03 value="0.6513235363" flag="0"/>
      <psa10 value="0.0538480629" flag="0"/>
      <psa30 value="0.0038314391" flag="0"/>
    </comp>
    <comp name="--.HNN">
      <acc value="0.1424345914" flag="0"/>
      <vel value="0.0737671575" flag="0"/>
      <psa03 value="0.4055120170" flag="0"/>
      <psa10 value="0.0469702413" flag="0"/>
      <psa30 value="0.0038980860" flag="0"/>
    </comp>
    <comp name="--.HNZ">
      <acc value="0.1790889418" flag="0"/>
      <vel value="0.0301910957" flag="0"/>
      <psa03 value="0.1370230759" flag="0"/>
      <psa10 value="0.0176597033" flag="0"/>
      <psa30 value="0.0032728508" flag="0"/>
    </comp>
  </station>
</stationlist>
