<?xml version="1.0" encoding="UTF-8" standalone="yes"?>
<!DOCTYPE earthquake SYSTEM "stationlist.dtd">
<stationlist created="" xmlns="ch.ethz.sed.shakemap.usgs.xml">
  <station code="KAPA" name="KAPA" netid="Z3" source="GFZ" insttype="CMG-3ESP/60" lat="35.6402" lon="27.1376">
    <comp name="--.HHE">
      <acc value="0.0386662675" flag="0"/>
      <vel value="0.0210619556" flag="0"/>
      <psa03 value="0.0623998722" flag="0"/>
      <psa10 value="0.0212085793" flag="0"/>
      <psa30 value="0.0029833018" flag="0"/>
    </comp>
    <comp name="--.HHN">
      <acc value="0.0407775357" flag="0"/>
      <vel value="0.0267895851" flag="0"/>
      <psa03 value="0.0734613842" flag="0"/>
      <psa10 value="0.0191968388" flag="0"/>
      <psa30 value="0.0040995568" flag="0"/>
    </comp>
    <comp name="--.HHZ">
      <acc value="0.0224741618" flag="0"/>
      <vel value="0.0109402063" flag="0"/>
      <psa03 value="0.0385212873" flag="0"/>
      <psa10 value="0.0135265817" flag="0"/>
      <psa30 value="0.0017839064" flag="0"/>
    </comp>
  </station>
  <station code="KASO" name="KASO" netid="Z3" source="GFZ" insttype="CMG-3ESP/60" lat="35.4115" lon="26.9152">
    <comp name="--.HHE">
      <acc value="0.1598729528" flag="0"/>
      <vel value="0.0614589407" flag="0"/>
      <psa03 value="0.1760210848" flag="0"/>
      <psa10 value="0.0405641180" flag="0"/>
      <psa30 value="0.0059021188" flag="0"/>
    </comp>
    <comp name="--.HHN">
      <acc value="0.1224727123" flag="0"/>
      <vel value="0.0423024547" flag="0"/>
      <psa03 value="0.1642062273" flag="0"/>
      <psa10 value="0.0411906847" flag="0"/>
      <psa30 value="0.0025412183" flag="0"/>
    </comp>
    <comp name="--.HHZ">
      <acc value="0.0496624038" flag="0"/>
      <vel value="0.0199163830" flag="0"/>
      <psa03 value="0.0432530316" flag="0"/>
      <psa10 value="0.0108100531" flag="0"/>
      <psa30 value="0.0013665591" flag="0"/>
    </comp>
  </station>
</stationlist>
