<?xml version="1.0" encoding="UTF-8" standalone="yes"?>
<!DOCTYPE earthquake SYSTEM "stationlist.dtd">
<stationlist created="" xmlns="ch.ethz.sed.shakemap.usgs.xml">
  <station code="CEYT" name="CEYT" netid="KO" insttype="CMG-3ESP" lat="37.0105" lon="35.7478">
    <comp name="--.HHE">
      <acc value="0.0052179324" flag="0"/>
      <vel value="0.0061105652" flag="0"/>
      <psa03 value="0.0169899523" flag="0"/>
      <psa10 value="0.0074838736" flag="0"/>
      <psa30 value="0.0027603603" flag="0"/>
    </comp>
    <comp name="--.HHN">
      <acc value="0.0050161813" flag="0"/>
      <vel value="0.0043799079" flag="0"/>
      <psa03 value="0.0128049892" flag="0"/>
      <psa10 value="0.0081125988" flag="0"/>
      <psa30 value="0.0021092272" flag="0"/>
    </comp>
    <comp name="--.HHZ">
      <acc value="0.0035596338" flag="0"/>
      <vel value="0.0034879281" flag="0"/>
      <psa03 value="0.0120184696" flag="0"/>
      <psa10 value="0.0063308036" flag="0"/>
      <psa30 value="0.0008584174" flag="0"/>
    </comp>
  </station>
</stationlist>
