<?xml version="1.0" encoding="UTF-8" standalone="yes"?>
<!DOCTYPE earthquake SYSTEM "stationlist.dtd">
<stationlist created="" xmlns="ch.ethz.sed.shakemap.usgs.xml">
  <station code="GAZ" name="GAZ" netid="KO" insttype="CMG-3T" lat="37.1721" lon="37.2096">
    <comp name="--.HHZ">
      <acc value="0.0410729406" flag="0"/>
      <vel value="0.0097966341" flag="0"/>
      <psa03 value="0.0693481315" flag="0"/>
      <psa10 value="0.0143952515" flag="0"/>
      <psa30 value="0.0007318522" flag="0"/>
    </comp>
    <comp name="--.HHN">
      <acc value="0.0376960169" flag="0"/>
      <vel value="0.0130345510" flag="0"/>
      <psa03 value="0.0760274155" flag="0"/>
      <psa10 value="0.0169321054" flag="0"/>
      <psa30 value="0.0008806082" flag="0"/>
    </comp>
    <comp name="--.HHE">
      <acc value="0.0508629285" flag="0"/>
      <vel value="0.0208524041" flag="0"/>
      <psa03 value="0.0489714304" flag="0"/>
      <psa10 value="0.0132276632" flag="0"/>
      <psa30 value="0.0009164857" flag="0"/>
    </comp>
  </station>
  <station code="KHMN" name="KHMN" netid="KO" insttype="CMG-5T" lat="37.3916" lon="37.1574">
    <comp name="--.HNE">
      <acc value="0.2176930504" flag="0"/>
      <vel value="0.0362204368" flag="0"/>
      <psa03 value="0.1812437552" flag="0"/>
      <psa10 value="0.0162055632" flag="0"/>
      <psa30 value="0.0015598042" flag="0"/>
    </comp>
    <comp name="--.HNN">
      <acc value="0.1857296216" flag="0"/>
      <vel value="0.0327248616" flag="0"/>
      <psa03 value="0.2108383768" flag="0"/>
      <psa10 value="0.0091222628" flag="0"/>
      <psa30 value="0.0007358992" flag="0"/>
    </comp>
    <comp name="--.HNZ">
      <acc value="0.1042688180" flag="0"/>
      <vel value="0.0180411658" flag="0"/>
      <psa03 value="0.1183425618" flag="0"/>
      <psa10 value="0.0092009134" flag="0"/>
      <psa30 value="0.0009832685" flag="0"/>
    </comp>
  </station>
  <station code="SARI" name="SARI" netid="KO" insttype="CMG-3T" lat="38.4072" lon="36.4181">
    <comp name="--.HHE">
      <acc value="0.0241865459" flag="0"/>
      <vel value="0.0081313779" flag="0"/>
      <psa03 value="0.0616554114" flag="0"/>
      <psa10 value="0.0053619524" flag="0"/>
      <psa30 value="0.0002654509" flag="0"/>
    </comp>
    <comp name="--.HHZ">
      <acc value="0.0143272090" flag="0"/>
      <vel value="0.0056291681" flag="0"/>
      <psa03 value="0.0415237312" flag="0"/>
      <psa10 value="0.0024336434" flag="0"/>
      <psa30 value="0.0002046197" flag="0"/>
    </comp>
  </station>
  <station code="ANDN" name="ANDN" netid="TU" insttype="T" lat="37.58" lon="36.3452">
    <comp name="--.HHN">
      <acc value="0.1539675593" flag="0"/>
      <vel value="0.0377078822" flag="0"/>
      <psa03 value="0.1044065349" flag="0"/>
      <psa10 value="0.0111261760" flag="0"/>
      <psa30 value="0.0006428433" flag="0"/>
    </comp>
    <comp name="--.HHE">
      <acc value="0.0870474953" flag="0"/>
      <vel value="0.0206415783" flag="0"/>
      <psa03 value="0.0768790492" flag="0"/>
      <psa10 value="0.0103092479" flag="0"/>
      <psa30 value="0.0006734010" flag="0"/>
    </comp>
    <comp name="--.HHZ">
      <acc value="0.0548028294" flag="0"/>
      <vel value="0.0137210366" flag="0"/>
      <psa03 value="0.0559778104" flag="0"/>
      <psa10 value="0.0141928279" flag="0"/>
      <psa30 value="0.0006729761" flag="0"/>
    </comp>
  </station>
</stationlist>
