<?xml version="1.0" encoding="UTF-8" standalone="yes"?>
<!DOCTYPE earthquake SYSTEM "stationlist.dtd">
<stationlist created="" xmlns="ch.ethz.sed.shakemap.usgs.xml">
  <station code="AIO" name="AIO" netid="IV" insttype="" lat="37.9712" lon="15.233">
    <comp name="--.HHE">
      <acc value="0.0099758636" flag="0"/>
      <vel value="0.0053202588" flag="0"/>
      <psa03 value="0.0194693060" flag="0"/>
      <psa10 value="0.0054451531" flag="0"/>
      <psa30 value="0.0006622232" flag="0"/>
    </comp>
    <comp name="--.HHN">
      <acc value="0.0102174397" flag="0"/>
      <vel value="0.0048581792" flag="0"/>
      <psa03 value="0.0215402699" flag="0"/>
      <psa10 value="0.0042617989" flag="0"/>
      <psa30 value="0.0004351532" flag="0"/>
    </comp>
    <comp name="--.HHZ">
      <acc value="0.0061967837" flag="0"/>
      <vel value="0.0033451514" flag="0"/>
      <psa03 value="0.0127255824" flag="0"/>
      <psa10 value="0.0046530963" flag="0"/>
      <psa30 value="0.0003335403" flag="0"/>
    </comp>
  </station>
  <station code="CAGR" name="CAGR" netid="IV" insttype="" lat="37.622" lon="14.4999">
    <comp name="--.HHE">
      <acc value="0.0222327847" flag="0"/>
      <vel value="0.0167476318" flag="0"/>
      <psa03 value="0.0713634752" flag="0"/>
      <psa10 value="0.0175725258" flag="0"/>
      <psa30 value="0.0012425077" flag="0"/>
    </comp>
    <comp name="--.HHN">
      <acc value="0.0239897429" flag="0"/>
      <vel value="0.0165454922" flag="0"/>
      <psa03 value="0.0941599602" flag="0"/>
      <psa10 value="0.0186567551" flag="0"/>
      <psa30 value="0.0014643601" flag="0"/>
    </comp>
    <comp name="--.HHZ">
      <acc value="0.0117844792" flag="0"/>
      <vel value="0.0107953128" flag="0"/>
      <psa03 value="0.0306929813" flag="0"/>
      <psa10 value="0.0198524504" flag="0"/>
      <psa30 value="0.0013196245" flag="0"/>
    </comp>
  </station>
  <station code="ECBD" name="ECBD" netid="IV" insttype="" lat="37.7802" lon="15.0865">
    <comp name="--.HHE">
      <acc value="0.0930158492" flag="0"/>
      <vel value="0.0363524433" flag="0"/>
      <psa03 value="0.1611224635" flag="0"/>
      <psa10 value="0.0178265358" flag="0"/>
      <psa30 value="0.0010907323" flag="0"/>
    </comp>
    <comp name="--.HHZ">
      <acc value="0.0652784613" flag="0"/>
      <vel value="0.0141790410" flag="0"/>
      <psa03 value="0.0940575374" flag="0"/>
      <psa10 value="0.0109729917" flag="0"/>
      <psa30 value="0.0007088134" flag="0"/>
    </comp>
    <comp name="--.HHN">
      <acc value="0.0999542425" flag="0"/>
      <vel value="0.0263978901" flag="0"/>
      <psa03 value="0.1524440398" flag="0"/>
      <psa10 value="0.0305250672" flag="0"/>
      <psa30 value="0.0015238267" flag="0"/>
    </comp>
  </station>
  <station code="ECHR" name="ECHR" netid="IV" insttype="" lat="37.6863" lon="14.9129">
    <comp name="--.HHE">
      <acc value="0.2568849346" flag="0"/>
      <vel value="0.1377709228" flag="0"/>
      <psa03 value="0.7179904752" flag="0"/>
      <psa10 value="0.1470063351" flag="0"/>
      <psa30 value="0.0069327222" flag="0"/>
    </comp>
    <comp name="--.HHN">
      <acc value="0.1774616024" flag="0"/>
      <vel value="0.1417274550" flag="0"/>
      <psa03 value="0.6262344128" flag="0"/>
      <psa10 value="0.1230472242" flag="0"/>
      <psa30 value="0.0103674235" flag="0"/>
    </comp>
    <comp name="--.HHZ">
      <acc value="0.2322396885" flag="0"/>
      <vel value="0.0775687013" flag="0"/>
      <psa03 value="0.4331437329" flag="0"/>
      <psa10 value="0.0360698517" flag="0"/>
      <psa30 value="0.0031808487" flag="0"/>
    </comp>
  </station>
  <station code="ECNE" name="ECNE" netid="IV" insttype="" lat="37.7653" lon="15.0018">
    <comp name="--.HHE">
      <acc value="0.0978287979" flag="0"/>
      <vel value="0.0530330264" flag="0"/>
      <psa03 value="0.4052169084" flag="0"/>
      <psa10 value="0.0484866889" flag="0"/>
      <psa30 value="0.0032380963" flag="0"/>
    </comp>
    <comp name="--.HHN">
      <acc value="0.1039305806" flag="0"/>
      <vel value="0.0516190834" flag="0"/>
      <psa03 value="0.3694320856" flag="0"/>
      <psa10 value="0.0320085315" flag="0"/>
      <psa30 value="0.0022843842" flag="0"/>
    </comp>
    <comp name="--.HHZ">
      <acc value="0.0694954063" flag="0"/>
      <vel value="0.0298005733" flag="0"/>
      <psa03 value="0.2071363151" flag="0"/>
      <psa10 value="0.0205038678" flag="0"/>
      <psa30 value="0.0011593939" flag="0"/>
    </comp>
  </station>
  <station code="ECPN" name="ECPN" netid="IV" insttype="" lat="37.7437" lon="14.9865">
    <comp name="--.HHE">
      <acc value="0.1670710366" flag="0"/>
      <vel value="0.0920040518" flag="0"/>
      <psa03 value="0.4403581862" flag="0"/>
      <psa10 value="0.0978807047" flag="0"/>
      <psa30 value="0.0039644688" flag="0"/>
    </comp>
    <comp name="--.HHN">
      <acc value="0.1666775348" flag="0"/>
      <vel value="0.0907782677" flag="0"/>
      <psa03 value="0.6268456509" flag="0"/>
      <psa10 value="0.0763164365" flag="0"/>
      <psa30 value="0.0034601042" flag="0"/>
    </comp>
    <comp name="--.HHZ">
      <acc value="0.1245665559" flag="0"/>
      <vel value="0.0495597980" flag="0"/>
      <psa03 value="0.2662671203" flag="0"/>
      <psa10 value="0.0227639442" flag="0"/>
      <psa30 value="0.0013723181" flag="0"/>
    </comp>
  </station>
  <station code="ECTS" name="ECTS" netid="IV" insttype="" lat="37.882" lon="15.121">
    <comp name="--.HHE">
      <acc value="0.0192816028" flag="0"/>
      <vel value="0.0066644509" flag="0"/>
      <psa03 value="0.0437653876" flag="0"/>
      <psa10 value="0.0104174517" flag="0"/>
      <psa30 value="0.0005824905" flag="0"/>
    </comp>
    <comp name="--.HHZ">
      <acc value="0.0115161128" flag="0"/>
      <vel value="0.0061515946" flag="0"/>
      <psa03 value="0.0309130996" flag="0"/>
      <psa10 value="0.0071362526" flag="0"/>
      <psa30 value="0.0004219309" flag="0"/>
    </comp>
    <comp name="--.HHN">
      <acc value="0.0742729059" flag="0"/>
      <vel value="0.0293894456" flag="0"/>
    </comp>
  </station>
  <station code="EFIU" name="EFIU" netid="IV" insttype="" lat="37.7896" lon="15.2103">
    <comp name="--.HHE">
      <acc value="0.0118877657" flag="0"/>
      <vel value="0.0105591583" flag="0"/>
      <psa03 value="0.0303710674" flag="0"/>
      <psa10 value="0.0107543799" flag="0"/>
      <psa30 value="0.0016378312" flag="0"/>
    </comp>
    <comp name="--.HHN">
      <acc value="0.0183496013" flag="0"/>
      <vel value="0.0205635397" flag="0"/>
      <psa03 value="0.0343370787" flag="0"/>
      <psa10 value="0.0332995541" flag="0"/>
      <psa30 value="0.0033437351" flag="0"/>
    </comp>
    <comp name="--.HHZ">
      <acc value="0.0101875348" flag="0"/>
      <vel value="0.0084711243" flag="0"/>
      <psa03 value="0.0231449080" flag="0"/>
      <psa10 value="0.0185681915" flag="0"/>
      <psa30 value="0.0012515433" flag="0"/>
    </comp>
  </station>
  <station code="EMCN" name="EMCN" netid="IV" insttype="" lat="37.7912" lon="15.0336">
    <comp name="--.HHE">
      <acc value="0.0793307910" flag="0"/>
      <vel value="0.0322119277" flag="0"/>
      <psa03 value="0.1802491003" flag="0"/>
      <psa10 value="0.0305227450" flag="0"/>
      <psa30 value="0.0013531070" flag="0"/>
    </comp>
    <comp name="--.HHN">
      <acc value="0.1274229627" flag="0"/>
      <vel value="0.0332603304" flag="0"/>
      <psa03 value="0.1289992397" flag="0"/>
      <psa10 value="0.0370123406" flag="0"/>
      <psa30 value="0.0021402104" flag="0"/>
    </comp>
    <comp name="--.HHZ">
      <acc value="0.1156782357" flag="0"/>
      <vel value="0.0242023127" flag="0"/>
      <psa03 value="0.1565371580" flag="0"/>
      <psa10 value="0.0211738425" flag="0"/>
      <psa30 value="0.0011969232" flag="0"/>
    </comp>
  </station>
  <station code="EMSG" name="EMSG" netid="IV" insttype="" lat="37.8208" lon="14.9498">
    <comp name="--.HHE">
      <acc value="0.0893491854" flag="0"/>
      <vel value="0.0483643525" flag="0"/>
      <psa03 value="0.3354233443" flag="0"/>
      <psa10 value="0.0465715335" flag="0"/>
      <psa30 value="0.0022381679" flag="0"/>
    </comp>
    <comp name="--.HHN">
      <acc value="0.0981989084" flag="0"/>
      <vel value="0.0536305028" flag="0"/>
      <psa03 value="0.4187421046" flag="0"/>
      <psa10 value="0.0624733079" flag="0"/>
      <psa30 value="0.0046898571" flag="0"/>
    </comp>
    <comp name="--.HHZ">
      <acc value="0.0842605839" flag="0"/>
      <vel value="0.0319247484" flag="0"/>
      <psa03 value="0.2434084632" flag="0"/>
      <psa10 value="0.0257711138" flag="0"/>
      <psa30 value="0.0012998515" flag="0"/>
    </comp>
  </station>
  <station code="ENIC" name="ENIC" netid="IV" insttype="" lat="37.6314" lon="15.0216">
    <comp name="--.HHE">
      <acc value="0.4605132781" flag="0"/>
      <vel value="0.1261548311" flag="0"/>
      <psa03 value="0.7374796460" flag="0"/>
      <psa10 value="0.0569702903" flag="0"/>
      <psa30 value="0.0030191437" flag="0"/>
    </comp>
    <comp name="--.HHN">
      <acc value="0.3423411506" flag="0"/>
      <vel value="0.1156479509" flag="0"/>
      <psa03 value="0.6340814763" flag="0"/>
      <psa10 value="0.0472784977" flag="0"/>
      <psa30 value="0.0026693478" flag="0"/>
    </comp>
    <comp name="--.HHZ">
      <acc value="0.3747830514" flag="0"/>
      <vel value="0.1056689231" flag="0"/>
      <psa03 value="0.4831072386" flag="0"/>
      <psa10 value="0.0402718667" flag="0"/>
      <psa30 value="0.0026156822" flag="0"/>
    </comp>
  </station>
  <station code="EPIT" name="EPIT" netid="IV" insttype="" lat="37.8113" lon="15.0567">
    <comp name="--.HHE">
      <acc value="0.0682234236" flag="0"/>
      <vel value="0.0271861581" flag="0"/>
      <psa03 value="0.1663924460" flag="0"/>
      <psa10 value="0.0190772557" flag="0"/>
      <psa30 value="0.0011835642" flag="0"/>
    </comp>
    <comp name="--.HHN">
      <acc value="0.0758654298" flag="0"/>
      <vel value="0.0447795365" flag="0"/>
      <psa03 value="0.2328789435" flag="0"/>
      <psa10 value="0.0666508244" flag="0"/>
      <psa30 value="0.0025539762" flag="0"/>
    </comp>
    <comp name="--.HHZ">
      <acc value="0.0476245174" flag="0"/>
      <vel value="0.0158030771" flag="0"/>
      <psa03 value="0.0834347034" flag="0"/>
      <psa10 value="0.0158014882" flag="0"/>
      <psa30 value="0.0008896839" flag="0"/>
    </comp>
  </station>
  <station code="EPOZ" name="EPOZ" netid="IV" insttype="" lat="37.6719" lon="15.1885">
    <comp name="--.HHE">
      <acc value="0.0649090799" flag="0"/>
      <vel value="0.0286249361" flag="0"/>
      <psa03 value="0.0786916771" flag="0"/>
      <psa10 value="0.0354642234" flag="0"/>
      <psa30 value="0.0019459377" flag="0"/>
    </comp>
    <comp name="--.HHN">
      <acc value="0.0706601007" flag="0"/>
      <vel value="0.0264164462" flag="0"/>
      <psa03 value="0.1086266418" flag="0"/>
      <psa10 value="0.0232566137" flag="0"/>
      <psa30 value="0.0023574199" flag="0"/>
    </comp>
    <comp name="--.HHZ">
      <acc value="0.0519068770" flag="0"/>
      <vel value="0.0095185593" flag="0"/>
      <psa03 value="0.0623929641" flag="0"/>
      <psa10 value="0.0080308388" flag="0"/>
      <psa30 value="0.0007697693" flag="0"/>
    </comp>
  </station>
  <station code="EPZF" name="EPZF" netid="IV" insttype="" lat="37.824" lon="14.857">
    <comp name="--.HHE">
      <acc value="0.1150794989" flag="0"/>
      <vel value="0.0546251909" flag="0"/>
      <psa03 value="0.3654782840" flag="0"/>
      <psa10 value="0.0480385949" flag="0"/>
      <psa30 value="0.0042640885" flag="0"/>
    </comp>
    <comp name="--.HHN">
      <acc value="0.1358594842" flag="0"/>
      <vel value="0.0588048946" flag="0"/>
      <psa03 value="0.4253298548" flag="0"/>
      <psa10 value="0.0408541792" flag="0"/>
      <psa30 value="0.0048796591" flag="0"/>
    </comp>
    <comp name="--.HHZ">
      <acc value="0.0586043205" flag="0"/>
      <vel value="0.0309816148" flag="0"/>
      <psa03 value="0.2108213302" flag="0"/>
      <psa10 value="0.0168444438" flag="0"/>
      <psa30 value="0.0015908097" flag="0"/>
    </comp>
  </station>
  <station code="ESLN" name="ESLN" netid="IV" insttype="" lat="37.6934" lon="14.9744">
    <comp name="--.HHE">
      <acc value="0.2360851198" flag="0"/>
      <vel value="0.1256741649" flag="0"/>
      <psa03 value="0.5371620621" flag="0"/>
      <psa10 value="0.0516810513" flag="0"/>
      <psa30 value="0.0042662871" flag="0"/>
    </comp>
    <comp name="--.HHN">
      <acc value="0.1772762359" flag="0"/>
      <vel value="0.0765243434" flag="0"/>
      <psa03 value="0.3709975924" flag="0"/>
      <psa10 value="0.0595107375" flag="0"/>
      <psa30 value="0.0042441551" flag="0"/>
    </comp>
    <comp name="--.HHZ">
      <acc value="0.1965344538" flag="0"/>
      <vel value="0.0535233918" flag="0"/>
      <psa03 value="0.3102467429" flag="0"/>
      <psa10 value="0.0346251309" flag="0"/>
      <psa30 value="0.0019791182" flag="0"/>
    </comp>
  </station>
  <station code="ESML" name="ESML" netid="IV" insttype="" lat="37.6181" lon="14.8794">
    <comp name="--.HHE">
      <acc value="0.1795690688" flag="0"/>
      <vel value="0.0702748934" flag="0"/>
      <psa03 value="0.3928248687" flag="0"/>
      <psa10 value="0.0582715007" flag="0"/>
      <psa30 value="0.0051164485" flag="0"/>
    </comp>
    <comp name="--.HHN">
      <acc value="0.1962149381" flag="0"/>
      <vel value="0.0772217078" flag="0"/>
      <psa03 value="0.2925212136" flag="0"/>
      <psa10 value="0.0568389754" flag="0"/>
      <psa30 value="0.0049499777" flag="0"/>
    </comp>
    <comp name="--.HHZ">
      <acc value="0.1747059731" flag="0"/>
      <vel value="0.0501148067" flag="0"/>
      <psa03 value="0.2521729891" flag="0"/>
      <psa10 value="0.0304239204" flag="0"/>
      <psa30 value="0.0022729131" flag="0"/>
    </comp>
  </station>
  <station code="EVRN" name="EVRN" netid="IV" insttype="" lat="37.6892" lon="15.1356">
    <comp name="--.HHE">
      <acc value="0.0921804250" flag="0"/>
      <vel value="0.0279216153" flag="0"/>
      <psa03 value="0.1994488323" flag="0"/>
      <psa10 value="0.0186581281" flag="0"/>
      <psa30 value="0.0012398102" flag="0"/>
    </comp>
    <comp name="--.HHN">
      <acc value="0.1064856202" flag="0"/>
      <vel value="0.0377888963" flag="0"/>
      <psa03 value="0.1545404209" flag="0"/>
      <psa10 value="0.0202193914" flag="0"/>
      <psa30 value="0.0016226480" flag="0"/>
    </comp>
    <comp name="--.HHZ">
      <acc value="0.0426726173" flag="0"/>
      <vel value="0.0125454189" flag="0"/>
      <psa03 value="0.0711168928" flag="0"/>
      <psa10 value="0.0066965474" flag="0"/>
      <psa30 value="0.0004080922" flag="0"/>
    </comp>
  </station>
  <station code="GALF" name="GALF" netid="IV" insttype="" lat="37.7107" lon="14.5665">
    <comp name="--.HHE">
      <acc value="0.0704597844" flag="0"/>
      <vel value="0.0427180560" flag="0"/>
      <psa03 value="0.2411578005" flag="0"/>
      <psa10 value="0.0465605765" flag="0"/>
      <psa30 value="0.0026395303" flag="0"/>
    </comp>
    <comp name="--.HHN">
      <acc value="0.0738496673" flag="0"/>
      <vel value="0.0371596297" flag="0"/>
      <psa03 value="0.2267330885" flag="0"/>
      <psa10 value="0.0381958037" flag="0"/>
      <psa30 value="0.0022058904" flag="0"/>
    </comp>
    <comp name="--.HHZ">
      <acc value="0.0476289460" flag="0"/>
      <vel value="0.0246865672" flag="0"/>
      <psa03 value="0.1272313617" flag="0"/>
      <psa10 value="0.0123768786" flag="0"/>
      <psa30 value="0.0011847105" flag="0"/>
    </comp>
  </station>
  <station code="HAGA" name="HAGA" netid="IV" insttype="" lat="37.285" lon="15.155">
    <comp name="--.HHE">
      <acc value="0.0328364524" flag="0"/>
      <vel value="0.0158653056" flag="0"/>
      <psa03 value="0.0474625052" flag="0"/>
      <psa10 value="0.0095807936" flag="0"/>
      <psa30 value="0.0008477304" flag="0"/>
    </comp>
    <comp name="--.HHN">
      <acc value="0.0353979184" flag="0"/>
      <vel value="0.0085073488" flag="0"/>
      <psa03 value="0.0370710041" flag="0"/>
      <psa10 value="0.0058313140" flag="0"/>
      <psa30 value="0.0004332191" flag="0"/>
    </comp>
    <comp name="--.HHZ">
      <acc value="0.0310238433" flag="0"/>
      <vel value="0.0079796872" flag="0"/>
      <psa03 value="0.0479530554" flag="0"/>
      <psa10 value="0.0038083049" flag="0"/>
      <psa30 value="0.0002475240" flag="0"/>
    </comp>
  </station>
  <station code="HLNI" name="HLNI" netid="IV" insttype="" lat="37.3485" lon="14.872">
    <comp name="--.HHE">
      <acc value="0.0920802969" flag="0"/>
      <vel value="0.0240210359" flag="0"/>
      <psa03 value="0.1128720526" flag="0"/>
      <psa10 value="0.0128273806" flag="0"/>
      <psa30 value="0.0009266354" flag="0"/>
    </comp>
    <comp name="--.HHN">
      <acc value="0.0816889635" flag="0"/>
      <vel value="0.0187296733" flag="0"/>
      <psa03 value="0.0980714527" flag="0"/>
      <psa10 value="0.0045904900" flag="0"/>
      <psa30 value="0.0004759776" flag="0"/>
    </comp>
    <comp name="--.HHZ">
      <acc value="0.0616351855" flag="0"/>
      <vel value="0.0126458946" flag="0"/>
      <psa03 value="0.0459260114" flag="0"/>
      <psa10 value="0.0047302650" flag="0"/>
      <psa30 value="0.0002680703" flag="0"/>
    </comp>
  </station>
  <station code="HMDC" name="HMDC" netid="IV" insttype="" lat="36.959" lon="14.7831">
    <comp name="--.HHN">
      <acc value="0.0429785764" flag="0"/>
      <vel value="0.0158600442" flag="0"/>
      <psa03 value="0.0641295843" flag="0"/>
      <psa10 value="0.0086528592" flag="0"/>
      <psa30 value="0.0003615691" flag="0"/>
    </comp>
    <comp name="--.HHE">
      <acc value="0.0485867831" flag="0"/>
      <vel value="0.0207022639" flag="0"/>
      <psa03 value="0.1339097067" flag="0"/>
      <psa10 value="0.0091769910" flag="0"/>
      <psa30 value="0.0004999370" flag="0"/>
    </comp>
    <comp name="--.HHZ">
      <acc value="0.0281657497" flag="0"/>
      <vel value="0.0093585060" flag="0"/>
      <psa03 value="0.0642971430" flag="0"/>
      <psa10 value="0.0038086059" flag="0"/>
      <psa30 value="0.0002612166" flag="0"/>
    </comp>
  </station>
  <station code="HPAC" name="HPAC" netid="IV" insttype="" lat="36.7085" lon="15.0372">
    <comp name="--.HHE">
      <acc value="0.0241807683" flag="0"/>
      <vel value="0.0081631149" flag="0"/>
      <psa03 value="0.0518910553" flag="0"/>
      <psa10 value="0.0087194594" flag="0"/>
      <psa30 value="0.0004474295" flag="0"/>
    </comp>
    <comp name="--.HHN">
      <acc value="0.0184156734" flag="0"/>
      <vel value="0.0050721972" flag="0"/>
      <psa03 value="0.0225980323" flag="0"/>
      <psa10 value="0.0046508313" flag="0"/>
      <psa30 value="0.0003507859" flag="0"/>
    </comp>
    <comp name="--.HHZ">
      <acc value="0.0155303353" flag="0"/>
      <vel value="0.0051958861" flag="0"/>
      <psa03 value="0.0200365379" flag="0"/>
      <psa10 value="0.0028773109" flag="0"/>
      <psa30 value="0.0003452359" flag="0"/>
    </comp>
  </station>
  <station code="HVZN" name="HVZN" netid="IV" insttype="" lat="37.1783" lon="14.7155">
    <comp name="--.HHE">
      <acc value="0.0427736262" flag="0"/>
      <vel value="0.0206609777" flag="0"/>
      <psa03 value="0.0957548505" flag="0"/>
      <psa10 value="0.0261685949" flag="0"/>
      <psa30 value="0.0012318225" flag="0"/>
    </comp>
    <comp name="--.HHN">
      <acc value="0.0412624642" flag="0"/>
      <vel value="0.0233728024" flag="0"/>
      <psa03 value="0.0847225800" flag="0"/>
      <psa10 value="0.0239474848" flag="0"/>
      <psa30 value="0.0011491740" flag="0"/>
    </comp>
    <comp name="--.HHZ">
      <acc value="0.0321363805" flag="0"/>
      <vel value="0.0154382975" flag="0"/>
