<stationlist created="1778135998">
	<station code="AUG1" name="AUG1" netid="IT" source="Italian Strong Motion Network (RAN)" insttype="" lat="37.2432" lon="15.2555">
		<comp name="--.HNE" depth="0.0">
			<acc value="0.042127938" flag="0"/>
			<vel value="0.016405" flag="0"/>
			<psa03 value="0.0541380700081088" flag="0"/>
			<psa10 value="0.00734488063845549" flag="0"/>
			<psa30 value="0.000695293890847943" flag="0"/>
		</comp>
		<comp name="--.HNN" depth="0.0">
			<acc value="0.033996192" flag="0"/>
			<vel value="0.01067" flag="0"/>
			<psa03 value="0.0583885796368446" flag="0"/>
			<psa10 value="0.00677307523787398" flag="0"/>
			<psa30 value="0.000472925123955132" flag="0"/>
		</comp>
		<comp name="--.HNZ" depth="0.0">
			<acc value="0.020950392" flag="0"/>
			<vel value="0.006443" flag="0"/>
			<psa03 value="0.0310958335996989" flag="0"/>
			<psa10 value="0.00186843454837903" flag="0"/>
			<psa30 value="0.000134226619854815" flag="0"/>
		</comp>
	</station>
	<station code="BNT" name="BNT" netid="IT" source="Italian Strong Motion Network (RAN)" insttype="" lat="37.7805" lon="14.8444">
		<comp name="--.HNE" depth="0.0">
			<acc value="0.162327798" flag="0"/>
			<vel value="0.086598" flag="0"/>
			<psa03 value="0.419279218219825" flag="0"/>
			<psa10 value="0.0512410121295757" flag="0"/>
			<psa30 value="0.00383261741892116" flag="0"/>
		</comp>
		<comp name="--.HNN" depth="0.0">
			<acc value="0.133782996" flag="0"/>
			<vel value="0.06558" flag="0"/>
			<psa03 value="0.305365560169705" flag="0"/>
			<psa10 value="0.0522839529658476" flag="0"/>
			<psa30 value="0.0031869873774195" flag="0"/>
		</comp>
		<comp name="--.HNZ" depth="0.0">
			<acc value="0.146077362" flag="0"/>
			<vel value="0.048599" flag="0"/>
			<psa03 value="0.215299498247124" flag="0"/>
			<psa10 value="0.0286667792023929" flag="0"/>
			<psa30 value="0.00156329269924241" flag="0"/>
		</comp>
	</station>
	<station code="CAT" name="CAT" netid="IT" source="Italian Strong Motion Network (RAN)" insttype="" lat="37.4473" lon="15.0463">
		<comp name="--.HGE" depth="0.0">
			<acc value="0.144428226" flag="0"/>
			<vel value="0.052971" flag="0"/>
			<psa03 value="0.161116686032397" flag="0"/>
			<psa10 value="0.0333016243859797" flag="0"/>
			<psa30 value="0.00192436230665187" flag="0"/>
		</comp>
		<comp name="--.HGN" depth="0.0">
			<acc value="0.102918408" flag="0"/>
			<vel value="0.033099" flag="0"/>
			<psa03 value="0.09811965911387" flag="0"/>
			<psa10 value="0.0225138309482482" flag="0"/>
			<psa30 value="0.00202905907013862" flag="0"/>
		</comp>
		<comp name="--.HGZ" depth="0.0">
			<acc value="0.075431244" flag="0"/>
			<vel value="0.013489" flag="0"/>
			<psa03 value="0.0392389152042243" flag="0"/>
			<psa10 value="0.00862942939046607" flag="0"/>
			<psa30 value="0.000716770150024713" flag="0"/>
		</comp>
	</station>
	<station code="CDI1" name="CDI1" netid="IT" source="Italian Strong Motion Network (RAN)" insttype="" lat="37.5032" lon="14.6473">
		<comp name="--.HNE" depth="0.0">
			<acc value="0.027654852" flag="0"/>
			<vel value="0.009504" flag="0"/>
			<psa03 value="0.0665316612413701" flag="0"/>
			<psa10 value="0.00554490166620242" flag="0"/>
			<psa30 value="0.00178342435580431" flag="0"/>
		</comp>
		<comp name="--.HNN" depth="0.0">
			<acc value="0.034124712" flag="0"/>
			<vel value="0.012534" flag="0"/>
			<psa03 value="0.0672027943406442" flag="0"/>
			<psa10 value="0.00950324468572092" flag="0"/>
			<psa30 value="0.00305947208855742" flag="0"/>
		</comp>
		<comp name="--.HNZ" depth="0.0">
			<acc value="0.011690118" flag="0"/>
			<vel value="0.005279" flag="0"/>
			<psa03 value="0.0304694427070431" flag="0"/>
			<psa10 value="0.00660394969685691" flag="0"/>
			<psa30 value="0.00190691284607074" flag="0"/>
		</comp>
	</station>
	<station code="CLG1" name="CLG1" netid="IT" source="Italian Strong Motion Network (RAN)" insttype="" lat="37.2214" lon="14.5182">
		<comp name="--.HNE" depth="0.0">
			<acc value="0.05670588" flag="0"/>
			<vel value="0.022889" flag="0"/>
			<psa03 value="0.149394227898409" flag="0"/>
			<psa10 value="0.013896481953569" flag="0"/>
			<psa30 value="0.000954798689233919" flag="0"/>
		</comp>
		<comp name="--.HNN" depth="0.0">
			<acc value="0.054530118" flag="0"/>
			<vel value="0.016293" flag="0"/>
			<psa03 value="0.0774487596562284" flag="0"/>
			<psa10 value="0.0189017926079551" flag="0"/>
			<psa30 value="0.000809386517724536" flag="0"/>
		</comp>
		<comp name="--.HNZ" depth="0.0">
			<acc value="0.031563186" flag="0"/>
			<vel value="0.010907" flag="0"/>
			<psa03 value="0.0649656840097306" flag="0"/>
			<psa10 value="0.00798916841375861" flag="0"/>
			<psa30 value="0.000520799285036683" flag="0"/>
		</comp>
	</station>
	<station code="GEA" name="GEA" netid="IT" source="Italian Strong Motion Network (RAN)" insttype="" lat="37.0562" lon="14.3146">
		<comp name="--.HNE" depth="0.0">
			<acc value="0.012845676" flag="0"/>
			<vel value="0.006401" flag="0"/>
			<psa03 value="0.0382545866586224" flag="0"/>
			<psa10 value="0.0101112912736632" flag="0"/>
			<psa30 value="0.000680528962663913" flag="0"/>
		</comp>
		<comp name="--.HNN" depth="0.0">
			<acc value="0.020547492" flag="0"/>
			<vel value="0.010316" flag="0"/>
			<psa03 value="0.0409838612623369" flag="0"/>
			<psa10 value="0.00818648154494518" flag="0"/>
			<psa30 value="0.000608046587942313" flag="0"/>
		</comp>
		<comp name="--.HNZ" depth="0.0">
			<acc value="0.012202566" flag="0"/>
			<vel value="0.004804" flag="0"/>
			<psa03 value="0.0201339929782223" flag="0"/>
			<psa10 value="0.00292748257903352" flag="0"/>
			<psa30 value="0.000505586934786471" flag="0"/>
		</comp>
	</station>
	<station code="ISI" name="ISI" netid="IT" source="Italian Strong Motion Network (RAN)" insttype="" lat="36.7977" lon="14.8923">
		<comp name="--.HGE" depth="0.0">
			<acc value="0.036109632" flag="0"/>
			<vel value="0.014215" flag="0"/>
			<psa03 value="0.0725271169282185" flag="0"/>
			<psa10 value="0.00997840692000697" flag="0"/>
			<psa30 value="0.000667106300678432" flag="0"/>
		</comp>
		<comp name="--.HGN" depth="0.0">
			<acc value="0.02849727" flag="0"/>
			<vel value="0.007828" flag="0"/>
			<psa03 value="0.0417444787748475" flag="0"/>
			<psa10 value="0.00494893547404704" flag="0"/>
			<psa30 value="0.000339593348232683" flag="0"/>
		</comp>
		<comp name="--.HGZ" depth="0.0">
			<acc value="0.023376972" flag="0"/>
			<vel value="0.005268" flag="0"/>
			<psa03 value="0.0235344006812109" flag="0"/>
			<psa10 value="0.00226306081075219" flag="0"/>
			<psa30 value="0.000201339929782223" flag="0"/>
		</comp>
	</station>
	<station code="LNT" name="LNT" netid="IT" source="Italian Strong Motion Network (RAN)" insttype="" lat="37.28841" lon="15.002259">
		<comp name="--.HGE" depth="0.0">
			<acc value="0.060830454" flag="0"/>
			<vel value="0.021594" flag="0"/>
			<psa03 value="0.124651787638505" flag="0"/>
			<psa10 value="0.0126320671945367" flag="0"/>
			<psa30 value="0.00118432620918565" flag="0"/>
		</comp>
		<comp name="--.HGN" depth="0.0">
			<acc value="0.043598982" flag="0"/>
			<vel value="0.016221" flag="0"/>
			<psa03 value="0.0767328843503361" flag="0"/>
			<psa10 value="0.00761467614436367" flag="0"/>
			<psa30 value="0.000523931239499962" flag="0"/>
		</comp>
		<comp name="--.HGZ" depth="0.0">
			<acc value="0.043953738" flag="0"/>
			<vel value="0.010847" flag="0"/>
			<psa03 value="0.037046547079929" flag="0"/>
			<psa10 value="0.00551671407603291" flag="0"/>
			<psa30 value="0.000463976682631478" flag="0"/>
		</comp>
	</station>
	<station code="NSA" name="NSA" netid="IT" source="Italian Strong Motion Network (RAN)" insttype="" lat="37.7667" lon="14.411">
		<comp name="--.HNE" depth="0.0">
			<acc value="0.010245696" flag="0"/>
			<vel value="0.011109" flag="0"/>
			<psa03 value="0.0264873863180169" flag="0"/>
			<psa10 value="0.0148669404151193" flag="0"/>
			<psa30 value="0.00133734455582014" flag="0"/>
		</comp>
		<comp name="--.HNN" depth="0.0">
			<acc value="0.015775626" flag="0"/>
			<vel value="0.011313" flag="0"/>
			<psa03 value="0.0384782976917137" flag="0"/>
			<psa10 value="0.019151454120885" flag="0"/>
			<psa30 value="0.00120714473456097" flag="0"/>
		</comp>
		<comp name="--.HNZ" depth="0.0">
			<acc value="0.009554238" flag="0"/>
			<vel value="0.004777" flag="0"/>
			<psa03 value="0.0188812111929107" flag="0"/>
			<psa10 value="0.00824285672528421" flag="0"/>
			<psa30 value="0.001310051809783" flag="0"/>
		</comp>
	</station>
	<station code="NTE" name="NTE" netid="IT" source="Italian Strong Motion Network (RAN)" insttype="" lat="36.9095" lon="15.0692">
		<comp name="--.HGE" depth="0.0">
			<acc value="0.0286773" flag="0"/>
			<vel value="0.010613" flag="0"/>
			<psa03 value="0.0763749466973899" flag="0"/>
			<psa10 value="0.00745360420053789" flag="0"/>
			<psa30 value="0.000691714514318481" flag="0"/>
		</comp>
		<comp name="--.HGN" depth="0.0">
			<acc value="0.02930868" flag="0"/>
			<vel value="0.009061" flag="0"/>
			<psa03 value="0.0519009596771952" flag="0"/>
			<psa10 value="0.00703079034799522" flag="0"/>
			<psa30 value="0.000476951922550777" flag="0"/>
		</comp>
		<comp name="--.HGZ" depth="0.0">
			<acc value="0.02083605" flag="0"/>
			<vel value="0.004973" flag="0"/>
			<psa03 value="0.0304247005004248" flag="0"/>
			<psa10 value="0.00914888640930421" flag="0"/>
			<psa30 value="0.000355253120549078" flag="0"/>
		</comp>
	</station>
	<station code="PLZ" name="PLZ" netid="IT" source="Italian Strong Motion Network (RAN)" insttype="" lat="37.0682" lon="14.9097">
		<comp name="--.HNE" depth="0.0">
			<acc value="0.03601416" flag="0"/>
			<vel value="0.013478" flag="0"/>
			<psa03 value="0.0894396710299252" flag="0"/>
			<psa10 value="0.00844016985647078" flag="0"/>
			<psa30 value="0.000640708398773651" flag="0"/>
		</comp>
		<comp name="--.HNN" depth="0.0">
			<acc value="0.0360162" flag="0"/>
			<vel value="0.01511" flag="0"/>
			<psa03 value="0.0807596829459805" flag="0"/>
			<psa10 value="0.00659992289826127" flag="0"/>
			<psa30 value="0.00039686337270407" flag="0"/>
		</comp>
		<comp name="--.HNZ" depth="0.0">
			<acc value="0.026571306" flag="0"/>
			<vel value="0.007928" flag="0"/>
			<psa03 value="0.0582990952236081" flag="0"/>
			<psa10 value="0.00347512718804117" flag="0"/>
			<psa30 value="0.000314090290460268" flag="0"/>
		</comp>
	</station>
	<station code="PPL1" name="PPL1" netid="IT" source="Italian Strong Motion Network (RAN)" insttype="" lat="36.6857" lon="15.1328">
		<comp name="--.HNE" depth="0.0">
			<acc value="0.012820176" flag="0"/>
			<vel value="0.010922" flag="0"/>
			<psa03 value="0.0320354199386826" flag="0"/>
			<psa10 value="0.00633818098954438" flag="0"/>
			<psa30 value="0.000464424104697661" flag="0"/>
		</comp>
		<comp name="--.HNN" depth="0.0">
			<acc value="0.009258336" flag="0"/>
			<vel value="0.003361" flag="0"/>
			<psa03 value="0.0259952220452159" flag="0"/>
			<psa10 value="0.00245232034474747" flag="0"/>
			<psa30 value="0.000282323323761295" flag="0"/>
		</comp>
		<comp name="--.HNZ" depth="0.0">
			<acc value="0.010624014" flag="0"/>
			<vel value="0.003858" flag="0"/>
			<psa03 value="0.0198207975318944" flag="0"/>
			<psa10 value="0.00165098742421423" flag="0"/>
			<psa30 value="0.000211630637304425" flag="0"/>
		</comp>
	</station>
	<station code="PTR" name="PTR" netid="IT" source="Italian Strong Motion Network (RAN)" insttype="" lat="37.562" lon="14.9077">
		<comp name="--.HGE" depth="0.0">
			<acc value="0.072717432" flag="0"/>
			<vel value="0.051163" flag="0"/>
			<psa03 value="0.242368533251178" flag="0"/>
			<psa10 value="0.0442867309548977" flag="0"/>
			<psa30 value="0.00540754309188432" flag="0"/>
		</comp>
		<comp name="--.HGN" depth="0.0">
			<acc value="0.070667436" flag="0"/>
			<vel value="0.063622" flag="0"/>
			<psa03 value="0.131900025110665" flag="0"/>
			<psa10 value="0.0427122527040008" flag="0"/>
			<psa30 value="0.00489569224817129" flag="0"/>
		</comp>
		<comp name="--.HGZ" depth="0.0">
			<acc value="0.051101796" flag="0"/>
			<vel value="0.023238" flag="0"/>
			<psa03 value="0.199102819451309" flag="0"/>
			<psa10 value="0.0254090991385165" flag="0"/>
			<psa30 value="0.00300757112888023" flag="0"/>
		</comp>
	</station>
	<station code="PTT" name="PTT" netid="IT" source="Italian Strong Motion Network (RAN)" insttype="" lat="38.1343" lon="14.9751">
		<comp name="--.HGE" depth="0.0">
			<acc value="0.020007504" flag="0"/>
			<vel value="0.013705" flag="0"/>
			<psa03 value="0.0445632377917987" flag="0"/>
			<psa10 value="0.0215312920909109" flag="0"/>
			<psa30 value="0.00175389449943625" flag="0"/>
		</comp>
		<comp name="--.HGN" depth="0.0">
			<acc value="0.020254446" flag="0"/>
			<vel value="0.013996" flag="0"/>
			<psa03 value="0.0468898325359488" flag="0"/>
			<psa10 value="0.018257504832652" flag="0"/>
			<psa30 value="0.00137805996384277" flag="0"/>
		</comp>
		<comp name="--.HGZ" depth="0.0">
			<acc value="0.011505294" flag="0"/>
			<vel value="0.009159" flag="0"/>
			<psa03 value="0.0377624223858214" flag="0"/>
			<psa10 value="0.0144441265625767" flag="0"/>
			<psa30 value="0.000642945509104565" flag="0"/>
		</comp>
	</station>
	<station code="RGS" name="RGS" netid="IT" source="Italian Strong Motion Network (RAN)" insttype="" lat="36.9248" lon="14.7032">
		<comp name="--.HNE" depth="0.0">
			<acc value="0.035711832" flag="0"/>
			<vel value="0.014245" flag="0"/>
			<psa03 value="0.059104454942737" flag="0"/>
			<psa10 value="0.013421319719283" flag="0"/>
			<psa30 value="0.000907819372284734" flag="0"/>
		</comp>
		<comp name="--.HNN" depth="0.0">
			<acc value="0.027584166" flag="0"/>
			<vel value="0.012066" flag="0"/>
			<psa03 value="0.0667553722744615" flag="0"/>
			<psa10 value="0.00918110079806936" flag="0"/>
			<psa30 value="0.000549434297272377" flag="0"/>
		</comp>
		<comp name="--.HNZ" depth="0.0">
			<acc value="0.01605633" flag="0"/>
			<vel value="0.00544" flag="0"/>
			<psa03 value="0.0451001442712179" flag="0"/>
			<psa10 value="0.00449390723273922" flag="0"/>
			<psa30 value="0.000245634714334312" flag="0"/>
		</comp>
	</station>
	<station code="SCR" name="SCR" netid="IT" source="Italian Strong Motion Network (RAN)" insttype="" lat="36.8296" lon="14.5275">
		<comp name="--.HNE" depth="0.0">
			<acc value="0.01939887" flag="0"/>
			<vel value="0.008782" flag="0"/>
			<psa03 value="0.057627962124334" flag="0"/>
			<psa10 value="0.00657978890528304" flag="0"/>
			<psa30 value="0.000384335554850954" flag="0"/>
		</comp>
		<comp name="--.HNN" depth="0.0">
			<acc value="0.022455504" flag="0"/>
			<vel value="0.010289" flag="0"/>
			<psa03 value="0.0749431960856052" flag="0"/>
			<psa10 value="0.0040670665816009" flag="0"/>
			<psa30 value="0.000343172724762144" flag="0"/>
		</comp>
		<comp name="--.HNZ" depth="0.0">
			<acc value="0.009977436" flag="0"/>
			<vel value="0.002836" flag="0"/>
			<psa03 value="0.0187917267796741" flag="0"/>
			<psa10 value="0.0026174190871689" flag="0"/>
			<psa30 value="0.000152570924568307" flag="0"/>
		</comp>
	</station>
	<station code="SRC" name="SRC" netid="IT" source="Italian Strong Motion Network (RAN)" insttype="" lat="37.0896" lon="15.2924">
		<comp name="--.HNE" depth="0.0">
			<acc value="0.035147772" flag="0"/>
			<vel value="0.010782" flag="0"/>
			<psa03 value="0.0462186994366747" flag="0"/>
			<psa10 value="0.00658784250247433" flag="0"/>
			<psa30 value="0.000455923085440189" flag="0"/>
		</comp>
		<comp name="--.HNN" depth="0.0">
			<acc value="0.029961276" flag="0"/>
			<vel value="0.008976" flag="0"/>
			<psa03 value="0.0387467509314233" flag="0"/>
			<psa10 value="0.00466303277375628" flag="0"/>
			<psa30 value="0.000378519067990579" flag="0"/>
		</comp>
		<comp name="--.HNZ" depth="0.0">
			<acc value="0.025718178" flag="0"/>
			<vel value="0.00937" flag="0"/>
			<psa03 value="0.0340040770298865" flag="0"/>
			<psa10 value="0.00228722160232605" flag="0"/>
			<psa30 value="0.00021073579317206" flag="0"/>
		</comp>
	</station>
	<station code="SRT" name="SRT" netid="IT" source="Italian Strong Motion Network (RAN)" insttype="" lat="37.1665" lon="15.0542">
		<comp name="--.HGE" depth="0.0">
			<acc value="0.291231318" flag="0"/>
			<vel value="0.114317" flag="0"/>
			<psa03 value="0.543304614965674" flag="0"/>
			<psa10 value="0.026592977925636" flag="0"/>
			<psa30 value="0.00289347850200363" flag="0"/>
		</comp>
		<comp name="--.HGN" depth="0.0">
			<acc value="0.264295056" flag="0"/>
			<vel value="0.07201" flag="0"/>
			<psa03 value="0.349436633688702" flag="0"/>
			<psa10 value="0.0201299661796266" flag="0"/>
			<psa30 value="0.00143130318971851" flag="0"/>
		</comp>
		<comp name="--.HGZ" depth="0.0">
			<acc value="0.084198348" flag="0"/>
			<vel value="0.016935" flag="0"/>
			<psa03 value="0.13046827449888" flag="0"/>
			<psa10 value="0.00596771551874509" flag="0"/>
			<psa30 value="0.00049887560379373" flag="0"/>
		</comp>
	</station>
	<station code="STC" name="STC" netid="IT" source="Italian Strong Motion Network (RAN)" insttype="" lat="38.0063" lon="14.353">
		<comp name="--.HNE" depth="0.0">
			<acc value="0.008488848" flag="0"/>
			<vel value="0.004018" flag="0"/>
			<psa03 value="0.0238923383341571" flag="0"/>
			<psa10 value="0.00629388620499229" flag="0"/>
			<psa30 value="0.000470240591558036" flag="0"/>
		</comp>
		<comp name="--.HNN" depth="0.0">
			<acc value="0.008398068" flag="0"/>
			<vel value="0.004935" flag="0"/>
			<psa03 value="0.025189862326087" flag="0"/>
			<psa10 value="0.00477980993302997" flag="0"/>
			<psa30 value="0.000521694129169049" flag="0"/>
		</comp>
		<comp name="--.HNZ" depth="0.0">
			<acc value="0.004628454" flag="0"/>
			<vel value="0.00253" flag="0"/>
			<psa03 value="0.0108276140016218" flag="0"/>
			<psa10 value="0.00273419624644259" flag="0"/>
			<psa30 value="0.000246082136400495" flag="0"/>
		</comp>
	</station>
	<station code="SVN" name="SVN" netid="IT" source="Italian Strong Motion Network (RAN)" insttype="" lat="37.683" lon="15.1299">
		<comp name="--.HNE" depth="0.0">
			<acc value="0.114316398" flag="0"/>
			<vel value="0.028532" flag="0"/>
			<psa03 value="0.110423765933895" flag="0"/>
			<psa10 value="0.0125958260071759" flag="0"/>
			<psa30 value="0.000751669071186965" flag="0"/>
		</comp>
		<comp name="--.HNN" depth="0.0">
			<acc value="0.11608824" flag="0"/>
			<vel value="0.036061" flag="0"/>
			<psa03 value="0.137671769764422" flag="0"/>
			<psa10 value="0.0167353749634984" flag="0"/>
			<psa30 value="0.00189527987234999" flag="0"/>
		</comp>
		<comp name="--.HNZ" depth="0.0">
			<acc value="0.082007898" flag="0"/>
			<vel value="0.011622" flag="0"/>
			<psa03 value="0.0408048924358638" flag="0"/>
			<psa10 value="0.00750595258228127" flag="0"/>
			<psa30 value="0.000402679859564446" flag="0"/>
		</comp>
	</station>
	<station code="TOR" name="TOR" netid="IT" source="Italian Strong Motion Network (RAN)" insttype="" lat="38.0443" lon="14.8146">
		<comp name="--.HNE" depth="0.0">
			<acc value="0.016537566" flag="0"/>
			<vel value="0.012095" flag="0"/>
			<psa03 value="0.0349884055754885" flag="0"/>
			<psa10 value="0.00902405565283923" flag="0"/>
			<psa30 value="0.00074585258432659" flag="0"/>
		</comp>
		<comp name="--.HNN" depth="0.0">
			<acc value="0.01401633" flag="0"/>
			<vel value="0.009907" flag="0"/>
			<psa03 value="0.0441605579322342" flag="0"/>
			<psa10 value="0.0149152619982671" flag="0"/>
			<psa30 value="0.000843838016820605" flag="0"/>
		</comp>
		<comp name="--.HNZ" depth="0.0">
			<acc value="0.006047172" flag="0"/>
			<vel value="0.003744" flag="0"/>
			<psa03 value="0.018612757953201" flag="0"/>
			<psa10 value="0.00415968294930073" flag="0"/>
			<psa30 value="0.000336908815835586" flag="0"/>
		</comp>
	</station>
	<station code="ACATE" name="ACATE" netid="IV" source="Italian National Seismic Network (INSN)" insttype="" lat="37.02398" lon="14.50064">
		<comp name="--.HNE" depth="0.0">
			<acc value="0.0268002965562722" flag="0"/>
			<vel value="0.00871362228854997" flag="0"/>
