<?xml version="1.0" encoding="UTF-8" standalone="yes"?>
<!DOCTYPE earthquake SYSTEM "stationlist.dtd">
<stationlist created="" xmlns="ch.ethz.sed.shakemap.usgs.xml">
  <station code="CEYT" name="CEYT" netid="KO" insttype="CMG-3ESP" lat="37.0105" lon="35.7478">
    <comp name="--.HHE">
      <acc value="0.0075877687" flag="0"/>
      <vel value="0.0037613150" flag="0"/>
      <psa03 value="0.0214017820" flag="0"/>
      <psa10 value="0.0067912873" flag="0"/>
      <psa30 value="0.0006953100" flag="0"/>
    </comp>
    <comp name="--.HHZ">
      <acc value="0.0046234289" flag="0"/>
      <vel value="0.0023125859" flag="0"/>
      <psa03 value="0.0079193229" flag="0"/>
      <psa10 value="0.0036686834" flag="0"/>
      <psa30 value="0.0003742415" flag="0"/>
    </comp>
    <comp name="--.HHN">
      <acc value="0.0048463834" flag="0"/>
      <vel value="0.0027951219" flag="0"/>
      <psa03 value="0.0195370310" flag="0"/>
      <psa10 value="0.0060972076" flag="0"/>
      <psa30 value="0.0005592191" flag="0"/>
    </comp>
  </station>
  <station code="GAZ" name="GAZ" netid="KO" insttype="CMG-3T" lat="37.1721" lon="37.2096">
    <comp name="--.HHE">
      <acc value="0.0267826612" flag="0"/>
      <vel value="0.0128110486" flag="0"/>
      <psa03 value="0.0699863354" flag="0"/>
      <psa10 value="0.0109682337" flag="0"/>
      <psa30 value="0.0006107310" flag="0"/>
    </comp>
    <comp name="--.HHZ">
      <acc value="0.0139273710" flag="0"/>
      <vel value="0.0078516115" flag="0"/>
      <psa03 value="0.0524364009" flag="0"/>
      <psa10 value="0.0050613008" flag="0"/>
      <psa30 value="0.0015539999" flag="0"/>
    </comp>
    <comp name="--.HHN">
      <acc value="0.0191073459" flag="0"/>
      <vel value="0.0094619077" flag="0"/>
      <psa03 value="0.0790145876" flag="0"/>
      <psa10 value="0.0076998060" flag="0"/>
      <psa30 value="0.0006661314" flag="0"/>
    </comp>
  </station>
  <station code="SARI" name="SARI" netid="KO" insttype="CMG-3T" lat="38.4072" lon="36.4181">
    <comp name="--.HHN">
      <acc value="0.0577220033" flag="0"/>
      <vel value="0.0197551808" flag="0"/>
      <psa03 value="0.1307303456" flag="0"/>
      <psa10 value="0.0125917068" flag="0"/>
      <psa30 value="0.0008309946" flag="0"/>
    </comp>
    <comp name="--.HHZ">
      <acc value="0.0394669715" flag="0"/>
      <vel value="0.0155015023" flag="0"/>
      <psa03 value="0.0748618095" flag="0"/>
      <psa10 value="0.0119581690" flag="0"/>
      <psa30 value="0.0007973658" flag="0"/>
    </comp>
    <comp name="--.HHE">
      <acc value="0.0683850206" flag="0"/>
      <vel value="0.0227446492" flag="0"/>
      <psa03 value="0.0847971159" flag="0"/>
      <psa10 value="0.0117472680" flag="0"/>
      <psa30 value="0.0011078091" flag="0"/>
    </comp>
  </station>
  <station code="ANDN" name="ANDN" netid="TU" insttype="T" lat="37.58" lon="36.3452">
    <comp name="--.HHZ">
      <acc value="0.1296649947" flag="0"/>
      <vel value="0.0664523570" flag="0"/>
      <psa03 value="0.3327468008" flag="0"/>
      <psa10 value="0.1161289316" flag="0"/>
      <psa30 value="0.0057494514" flag="0"/>
    </comp>
    <comp name="--.HHE">
      <acc value="0.2005392598" flag="0"/>
      <vel value="0.0847294877" flag="0"/>
      <psa03 value="0.4435309011" flag="0"/>
      <psa10 value="0.1334297224" flag="0"/>
      <psa30 value="0.0066110536" flag="0"/>
    </comp>
    <comp name="--.HHN">
      <acc value="0.2713274691" flag="0"/>
      <vel value="0.0873018772" flag="0"/>
      <psa03 value="0.6546079596" flag="0"/>
      <psa10 value="0.1028943069" flag="0"/>
      <psa30 value="0.0068620876" flag="0"/>
    </comp>
  </station>
</stationlist>
