<?xml version="1.0" encoding="UTF-8" standalone="yes"?>
<!DOCTYPE earthquake SYSTEM "stationlist.dtd">
<stationlist created="" xmlns="ch.ethz.sed.shakemap.usgs.xml">
  <station code="ALN" name="ALN" netid="HT" source="NOA" insttype="100" lat="40.885" lon="26.046">
    <comp name="--.HHE">
      <acc value="0.0361868973" flag="0"/>
      <vel value="0.0329187520" flag="0"/>
      <psa03 value="0.1098319974" flag="0"/>
      <psa10 value="0.0225924133" flag="0"/>
      <psa30 value="0.0240022934" flag="0"/>
    </comp>
    <comp name="--.HHN">
      <acc value="0.0347274281" flag="0"/>
      <vel value="0.0392762827" flag="0"/>
      <psa03 value="0.1151937285" flag="0"/>
      <psa10 value="0.0392189503" flag="0"/>
      <psa30 value="0.0229543630" flag="0"/>
    </comp>
    <comp name="--.HHZ">
      <acc value="0.0431241481" flag="0"/>
      <vel value="0.0457239759" flag="0"/>
      <psa03 value="0.1038214358" flag="0"/>
      <psa10 value="0.0328055575" flag="0"/>
      <psa30 value="0.0279082213" flag="0"/>
    </comp>
  </station>
  <station code="BGKT" name="BGKT" netid="KO" source="KOERI" insttype="120s," lat="41.181" lon="28.773">
    <comp name="--.HHE">
      <acc value="0.0299163816" flag="0"/>
      <vel value="0.0084440100" flag="0"/>
    </comp>
    <comp name="--.HHZ">
      <acc value="0.6397123660" flag="0"/>
      <vel value="0.2700998794" flag="0"/>
      <psa03 value="1.3423536829" flag="0"/>
      <psa10 value="0.6207929999" flag="0"/>
      <psa30 value="0.1045338226" flag="0"/>
    </comp>
  </station>
  <station code="DST" name="DST" netid="KO" source="KOERI" insttype="100" lat="39.6041" lon="28.6267">
    <comp name="--.HNE">
      <acc value="1.3091716731" flag="0"/>
      <vel value="2.0601142373" flag="0"/>
      <psa03 value="2.7662171837" flag="0"/>
      <psa10 value="2.1028774896" flag="0"/>
      <psa30 value="0.3479721084" flag="0"/>
    </comp>
    <comp name="--.HNN">
      <acc value="0.9869297070" flag="0"/>
      <vel value="1.1162415013" flag="0"/>
      <psa03 value="2.9662411211" flag="0"/>
      <psa10 value="1.8208710423" flag="0"/>
      <psa30 value="0.2374664827" flag="0"/>
    </comp>
    <comp name="--.HNZ">
      <acc value="0.6829291714" flag="0"/>
      <vel value="1.1874310363" flag="0"/>
      <psa03 value="1.7395693027" flag="0"/>
      <psa10 value="1.4830193809" flag="0"/>
      <psa30 value="0.2745982290" flag="0"/>
    </comp>
  </station>
  <station code="EDRB" name="EDRB" netid="KO" source="KOERI" insttype="360s," lat="41.847" lon="26.7437">
    <comp name="--.HHN">
      <acc value="0.1228699938" flag="0"/>
      <vel value="0.0540270455" flag="0"/>
      <psa03 value="0.3286610653" flag="0"/>
      <psa10 value="0.0540394552" flag="0"/>
      <psa30 value="0.0197713483" flag="0"/>
    </comp>
  </station>
  <station code="EZN" name="EZN" netid="KO" source="KOERI" insttype="120s," lat="39.8255" lon="26.3247">
    <comp name="--.HHN">
      <acc value="0.0615543566" flag="0"/>
      <vel value="0.0520095254" flag="0"/>
      <psa03 value="0.1470872352" flag="0"/>
      <psa10 value="0.0477923711" flag="0"/>
      <psa30 value="0.0292369782" flag="0"/>
    </comp>
    <comp name="--.HHE">
      <acc value="926338198376546197539602620344340215663987296930891838505368033921995184437438799538683308090508317154148182650095030690860384741769885101860266006232734875041807982552179064262556559183085613134029849230322121986317054115840.0000000000" flag="0"/>
      <vel value="0.0000000000" flag="0"/>
    </comp>
    <comp name="--.HHZ">
      <acc value="0.2670384430" flag="0"/>
      <vel value="0.1304686723" flag="0"/>
    </comp>
  </station>
  <station code="GELI" name="GELI" netid="KO" source="KOERI" insttype="30s," lat="40.398" lon="26.4742">
    <comp name="--.HHE">
      <acc value="0.0539690410" flag="0"/>
      <vel value="0.0471391139" flag="0"/>
      <psa03 value="0.1343387275" flag="0"/>
      <psa10 value="0.0779366296" flag="0"/>
      <psa30 value="0.0257734504" flag="0"/>
    </comp>
    <comp name="--.HHN">
      <acc value="0.0544596301" flag="0"/>
      <vel value="0.0682036898" flag="0"/>
      <psa03 value="0.1270931981" flag="0"/>
      <psa10 value="0.0723913762" flag="0"/>
      <psa30 value="0.0293636745" flag="0"/>
    </comp>
  </station>
  <station code="GONE" name="GONE" netid="KO" source="KOERI" insttype="100" lat="40.0466" lon="27.686">
    <comp name="--.HNE">
      <acc value="0.7959046651" flag="0"/>
      <vel value="0.8011337891" flag="0"/>
      <psa03 value="1.8186133604" flag="0"/>
      <psa10 value="1.2412024651" flag="0"/>
      <psa30 value="0.3042122333" flag="0"/>
    </comp>
    <comp name="--.HNN">
      <acc value="1.2150933569" flag="0"/>
      <vel value="0.7659213762" flag="0"/>
      <psa03 value="3.4343306308" flag="0"/>
      <psa10 value="0.9422156744" flag="0"/>
      <psa30 value="0.2297785031" flag="0"/>
    </comp>
    <comp name="--.HNZ">
      <acc value="0.4427141383" flag="0"/>
      <vel value="0.3754922551" flag="0"/>
      <psa03 value="0.9442912977" flag="0"/>
      <psa10 value="0.4716394700" flag="0"/>
      <psa30 value="0.1110985171" flag="0"/>
    </comp>
  </station>
  <station code="GPA" name="GPA" netid="KO" source="KOERI" insttype="100" lat="40.285" lon="30.3167">
    <comp name="--.HNE">
      <acc value="0.7618933558" flag="0"/>
      <vel value="1.3160475667" flag="0"/>
      <psa03 value="1.6408943566" flag="0"/>
      <psa10 value="1.7999024027" flag="0"/>
      <psa30 value="0.3501254624" flag="0"/>
    </comp>
    <comp name="--.HNN">
      <acc value="0.8320290728" flag="0"/>
      <vel value="1.6044007270" flag="0"/>
      <psa03 value="1.5448827041" flag="0"/>
      <psa10 value="2.2300705976" flag="0"/>
      <psa30 value="0.4148513833" flag="0"/>
    </comp>
    <comp name="--.HNZ">
      <acc value="0.3814978927" flag="0"/>
      <vel value="0.8177113333" flag="0"/>
      <psa03 value="0.6395042055" flag="0"/>
      <psa10 value="1.1465866248" flag="0"/>
      <psa30 value="0.2801844600" flag="0"/>
    </comp>
  </station>
  <station code="ISK" name="ISK" netid="KO" source="KOERI" insttype="120s," lat="41.0657" lon="29.0592">
    <comp name="--.HHE">
      <acc value="0.6309091928" flag="0"/>
      <vel value="0.2577540923" flag="0"/>
      <psa03 value="1.1923360033" flag="0"/>
      <psa10 value="0.2320099076" flag="0"/>
      <psa30 value="0.0836002916" flag="0"/>
    </comp>
    <comp name="--.HHN">
      <acc value="0.9483278874" flag="0"/>
      <vel value="0.2974958144" flag="0"/>
      <psa03 value="1.2530310323" flag="0"/>
      <psa10 value="0.3906627398" flag="0"/>
      <psa30 value="0.1525045026" flag="0"/>
    </comp>
    <comp name="--.HHZ">
      <acc value="0.8716527397" flag="0"/>
      <vel value="0.2887202985" flag="0"/>
      <psa03 value="1.0190237585" flag="0"/>
      <psa10 value="0.6444077656" flag="0"/>
      <psa30 value="0.1023619328" flag="0"/>
    </comp>
  </station>
  <station code="IZI" name="IZI" netid="KO" source="KOERI" insttype="100" lat="40.3368" lon="29.4728">
    <comp name="--.HNN">
      <acc value="0.0140926368" flag="0"/>
      <vel value="0.0000000000" flag="0"/>
    </comp>
    <comp name="--.HNZ">
      <acc value="1.3338047862" flag="0"/>
      <vel value="1.2487737137" flag="0"/>
      <psa03 value="3.1203410135" flag="0"/>
      <psa10 value="1.3598204474" flag="0"/>
      <psa30 value="0.3512575601" flag="0"/>
    </comp>
  </station>
  <station code="KAVV" name="KAVV" netid="KO" source="KOERI" insttype="100" lat="41.0628" lon="29.0608">
    <comp name="--.HNE">
      <acc value="5.9900713714" flag="0"/>
      <vel value="1.9025866204" flag="0"/>
      <psa03 value="14.2368586146" flag="0"/>
      <psa10 value="1.3278528517" flag="0"/>
      <psa30 value="0.3868418905" flag="0"/>
    </comp>
    <comp name="--.HNN">
      <acc value="7.0181107997" flag="0"/>
      <vel value="3.0524235265" flag="0"/>
      <psa03 value="15.9814033683" flag="0"/>
      <psa10 value="2.3065375010" flag="0"/>
      <psa30 value="0.6325622176" flag="0"/>
    </comp>
    <comp name="--.HNZ">
      <acc value="4.6954957991" flag="0"/>
      <vel value="4.5120824516" flag="0"/>
      <psa03 value="11.1564951059" flag="0"/>
      <psa10 value="4.2039803440" flag="0"/>
      <psa30 value="0.4429810444" flag="0"/>
    </comp>
  </station>
  <station code="ORLT" name="ORLT" netid="KO" source="KOERI" insttype="100" lat="40.0452" lon="28.8914">
    <comp name="--.HNE">
      <acc value="6.3133972861" flag="0"/>
      <vel value="4.0390899302" flag="0"/>
      <psa03 value="18.4513699874" flag="0"/>
      <psa10 value="3.6509039028" flag="0"/>
      <psa30 value="0.3175607042" flag="0"/>
    </comp>
    <comp name="--.HNN">
      <acc value="4.8055132366" flag="0"/>
      <vel value="4.6399371559" flag="0"/>
      <psa03 value="14.3334990352" flag="0"/>
      <psa10 value="4.8592841770" flag="0"/>
      <psa30 value="0.2477438749" flag="0"/>
    </comp>
    <comp name="--.HNZ">
      <acc value="2.0709124377" flag="0"/>
      <vel value="2.2649297789" flag="0"/>
      <psa03 value="5.8739880708" flag="0"/>
      <psa10 value="4.4524491763" flag="0"/>
      <psa30 value="0.2888664159" flag="0"/>
    </comp>
  </station>
  <station code="OSMT" name="OSMT" netid="KO" source="KOERI" insttype="100" lat="40.601" lon="29.7">
    <comp name="--.HNE">
      <acc value="1.5545808553" flag="0"/>
      <vel value="1.0835669768" flag="0"/>
      <psa03 value="3.7028156729" flag="0"/>
      <psa10 value="2.6248610246" flag="0"/>
      <psa30 value="0.2781489256" flag="0"/>
    </comp>
    <comp name="--.HNN">
      <acc value="1.8013510724" flag="0"/>
      <vel value="1.8957900971" flag="0"/>
      <psa03 value="3.3219186809" flag="0"/>
      <psa10 value="1.6920702558" flag="0"/>
      <psa30 value="0.7539126277" flag="0"/>
    </comp>
    <comp name="--.HNZ">
      <acc value="1.0154610032" flag="0"/>
      <vel value="1.2342070235" flag="0"/>
      <psa03 value="2.0053599159" flag="0"/>
      <psa10 value="2.1855865468" flag="0"/>
      <psa30 value="0.3295387046" flag="0"/>
    </comp>
  </station>
  <station code="SILT" name="SILT" netid="KO" source="KOERI" insttype="30s," lat="41.153" lon="29.643">
    <comp name="--.HHE">
      <acc value="0.6144897503" flag="0"/>
      <vel value="0.2756678733" flag="0"/>
      <psa03 value="1.9027666387" flag="0"/>
      <psa10 value="0.3393286295" flag="0"/>
      <psa30 value="0.0913308516" flag="0"/>
    </comp>
    <comp name="--.HHN">
      <acc value="0.6381452802" flag="0"/>
      <vel value="0.2821938309" flag="0"/>
      <psa03 value="1.1790114582" flag="0"/>
      <psa10 value="0.6243306794" flag="0"/>
      <psa30 value="0.0919988225" flag="0"/>
    </comp>
    <comp name="--.HHZ">
      <acc value="0.6571378597" flag="0"/>
      <vel value="0.2655733910" flag="0"/>
      <psa03 value="1.5901631937" flag="0"/>
      <psa10 value="0.4634743400" flag="0"/>
      <psa30 value="0.0492605807" flag="0"/>
    </comp>
  </station>
  <station code="TKR" name="TKR" netid="KO" source="KOERI" insttype="100" lat="40.9902" lon="27.5357">
    <comp name="--.HNE">
      <acc value="10.2139762870" flag="0"/>
      <vel value="4.2252749030" flag="0"/>
      <psa03 value="21.4275297452" flag="0"/>
      <psa10 value="1.3269837333" flag="0"/>
      <psa30 value="0.5200254903" flag="0"/>
    </comp>
    <comp name="--.HNN">
      <acc value="4.2727711634" flag="0"/>
      <vel value="1.8895519787" flag="0"/>
      <psa03 value="10.0753170538" flag="0"/>
      <psa10 value="0.7454655135" flag="0"/>
      <psa30 value="0.3983601094" flag="0"/>
    </comp>
    <comp name="--.HNZ">
      <acc value="1.9358193682" flag="0"/>
      <vel value="0.7475971038" flag="0"/>
      <psa03 value="2.8163858579" flag="0"/>
      <psa10 value="0.4874434887" flag="0"/>
      <psa30 value="0.2346536469" flag="0"/>
    </comp>
  </station>
  <station code="TVSB" name="TVSB" netid="KO" source="KOERI" insttype="120" lat="39.4497" lon="29.4615">
    <comp name="--.HHE">
      <acc value="0.0358232083" flag="0"/>
      <vel value="0.0548231478" flag="0"/>
      <psa03 value="0.1276178744" flag="0"/>
      <psa10 value="0.0809085067" flag="0"/>
      <psa30 value="0.0157657578" flag="0"/>
    </comp>
    <comp name="--.HHN">
      <acc value="0.0544879092" flag="0"/>
      <vel value="0.0858425223" flag="0"/>
      <psa03 value="0.1484366608" flag="0"/>
      <psa10 value="0.1175853330" flag="0"/>
      <psa30 value="0.0321053622" flag="0"/>
    </comp>
    <comp name="--.HHZ">
      <acc value="0.0397101590" flag="0"/>
      <vel value="0.0621339418" flag="0"/>
      <psa03 value="0.0511510268" flag="0"/>
      <psa10 value="0.0675833237" flag="0"/>
      <psa30 value="0.0272428406" flag="0"/>
    </comp>
  </station>
  <station code="UKOP" name="UKOP" netid="KO" source="KOERI" insttype="100" lat="41.1288" lon="26.6322">
    <comp name="--.HNE">
      <acc value="3.4264331463" flag="0"/>
      <vel value="2.5150749159" flag="0"/>
      <psa03 value="7.4836145803" flag="0"/>
      <psa10 value="1.4933197855" flag="0"/>
      <psa30 value="0.3718086081" flag="0"/>
    </comp>
    <comp name="--.HNN">
      <acc value="3.5064923692" flag="0"/>
      <vel value="2.0977916332" flag="0"/>
      <psa03 value="10.9909794777" flag="0"/>
      <psa10 value="0.9644830660" flag="0"/>
      <psa30 value="0.2862539495" flag="0"/>
    </comp>
    <comp name="--.HNZ">
      <acc value="1.4738508974" flag="0"/>
      <vel value="0.8879808694" flag="0"/>
      <psa03 value="3.1038761875" flag="0"/>
      <psa10 value="0.5440081985" flag="0"/>
      <psa30 value="0.1963912067" flag="0"/>
    </comp>
  </station>
  <station code="YLV" name="YLV" netid="KO" source="KOERI" insttype="120s," lat="40.5658" lon="29.3708">
    <comp name="--.HHN">
      <acc value="0.5517660251" flag="0"/>
      <vel value="0.5757667325" flag="0"/>
      <psa03 value="1.0212173138" flag="0"/>
      <psa10 value="0.8648085199" flag="0"/>
      <psa30 value="0.0990649318" flag="0"/>
    </comp>
    <comp name="--.HHZ">
      <acc value="0.2518469577" flag="0"/>
      <vel value="0.4180996627" flag="0"/>
      <psa03 value="1.0709927262" flag="0"/>
      <psa10 value="0.5324369094" flag="0"/>
      <psa30 value="0.0610598083" flag="0"/>
    </comp>
    <comp name="--.HHE">
      <acc value="0.4868846413" flag="0"/>
      <vel value="0.6587386880" flag="0"/>
      <psa03 value="1.0524420512" flag="0"/>
      <psa10 value="0.5540626342" flag="0"/>
      <psa30 value="0.1262164220" flag="0"/>
    </comp>
  </station>
</stationlist>
