<stationlist created="1778637298">
	<station code="DOBAM" name="DOBAM" netid="BS" source="National Seismic Network of Bulgaria (BS)" insttype="" lat="43.5811" lon="27.831">
		<comp name="--.HNE" depth="0.0">
			<acc value="0.0247563620687533" flag="0"/>
			<vel value="0.038922166390273" flag="0"/>
			<psa03 value="0.0634891911913276" flag="0"/>
			<psa10 value="0.0327620333741633" flag="0"/>
			<psa30 value="0.0141000589936822" flag="0"/>
		</comp>
		<comp name="--.HNN" depth="0.0">
			<acc value="0.0257625082539708" flag="0"/>
			<vel value="0.0336660839032177" flag="0"/>
			<psa03 value="0.0924373988733495" flag="0"/>
			<psa10 value="0.0263996915930451" flag="0"/>
			<psa30 value="0.012948842017394" flag="0"/>
		</comp>
		<comp name="--.HNZ" depth="0.0">
			<acc value="0.0180376675239725" flag="0"/>
			<vel value="0.0318973980425751" flag="0"/>
			<psa03 value="0.0525720927764693" flag="0"/>
			<psa10 value="0.0320372096269473" flag="0"/>
			<psa30 value="0.0104499897777635" flag="0"/>
		</comp>
	</station>
	<station code="LOZB" name="LOZB" netid="BS" source="National Seismic Network of Bulgaria (BS)" insttype="" lat="43.3701" lon="26.593">
		<comp name="--.HNE" depth="0.0">
			<acc value="0.17298292085563" flag="0"/>
			<vel value="0.104763389048009" flag="0"/>
			<psa03 value="0.880839821693916" flag="0"/>
			<psa10 value="0.0512289317337888" flag="0"/>
			<psa30 value="0.015755073216492" flag="0"/>
		</comp>
		<comp name="--.HNN" depth="0.0">
			<acc value="0.185788690052962" flag="0"/>
			<vel value="0.0911323263008725" flag="0"/>
			<psa03 value="0.85251800490455" flag="0"/>
			<psa10 value="0.0521470418135957" flag="0"/>
			<psa30 value="0.0128020875796861" flag="0"/>
		</comp>
		<comp name="--.HNZ" depth="0.0">
			<acc value="0.0547050223164913" flag="0"/>
			<vel value="0.0335343062924376" flag="0"/>
			<psa03 value="0.114674275562631" flag="0"/>
			<psa10 value="0.0334747767255924" flag="0"/>
			<psa30 value="0.0156020548698575" flag="0"/>
		</comp>
	</station>
	<station code="RAZG" name="RAZG" netid="BS" source="National Seismic Network of Bulgaria (BS)" insttype="" lat="43.5662" lon="26.5079">
		<comp name="--.HNE" depth="0.0">
			<acc value="0.0404328060436674" flag="0"/>
			<vel value="0.036451994246909" flag="0"/>
			<psa03 value="0.095166673477064" flag="0"/>
			<psa10 value="0.0569308785452213" flag="0"/>
			<psa30 value="0.0193876929718295" flag="0"/>
		</comp>
		<comp name="--.HNN" depth="0.0">
			<acc value="0.0548793845465987" flag="0"/>
			<vel value="0.0330804998785029" flag="0"/>
			<psa03 value="0.0965984240888487" flag="0"/>
			<psa10 value="0.0391404823496641" flag="0"/>
			<psa30 value="0.0143559844155387" flag="0"/>
		</comp>
		<comp name="--.HNZ" depth="0.0">
			<acc value="0.0263043619809751" flag="0"/>
			<vel value="0.0329647620483908" flag="0"/>
			<psa03 value="0.0782541193753573" flag="0"/>
			<psa10 value="0.0193890352380281" flag="0"/>
			<psa30 value="0.0129005204342463" flag="0"/>
		</comp>
	</station>
	<station code="VETAM" name="VETAM" netid="BS" source="National Seismic Network of Bulgaria (BS)" insttype="" lat="43.0805" lon="25.6367">
		<comp name="--.HNE" depth="0.0">
			<acc value="0.0199614883349582" flag="0"/>
			<vel value="0.0274885694965817" flag="0"/>
			<psa03 value="0.0611178542405592" flag="0"/>
			<psa10 value="0.0249943388831651" flag="0"/>
			<psa30 value="0.00745226193433934" flag="0"/>
		</comp>
		<comp name="--.HNN" depth="0.0">
			<acc value="0.0221825135092393" flag="0"/>
			<vel value="0.0339330051613886" flag="0"/>
			<psa03 value="0.081833495904819" flag="0"/>
			<psa10 value="0.0232144939038903" flag="0"/>
			<psa30 value="0.0170302261051128" flag="0"/>
		</comp>
		<comp name="--.HNZ" depth="0.0">
			<acc value="0.0139338397762306" flag="0"/>
			<vel value="0.0316009450618221" flag="0"/>
			<psa03 value="0.0440710735189977" flag="0"/>
			<psa10 value="0.0249258833070392" flag="0"/>
			<psa30 value="0.017344316395573" flag="0"/>
		</comp>
	</station>
	<station code="EFSA" name="EFSA" netid="HL" source="National Observatory of Athens Seismic Network" insttype="" lat="39.54015" lon="24.98864">
		<comp name="00.HNE" depth="0.0">
			<acc value="0.01280158948566" flag="0"/>
			<vel value="0.0362190337754996" flag="0"/>
			<psa03 value="0.0259057376319793" flag="0"/>
			<psa10 value="0.0301848822729509" flag="0"/>
			<psa30 value="0.0247795762913974" flag="0"/>
		</comp>
		<comp name="00.HNN" depth="0.0">
			<acc value="0.0143567149120904" flag="0"/>
			<vel value="0.0288651105625128" flag="0"/>
			<psa03 value="0.0346752101291606" flag="0"/>
			<psa10 value="0.0273661232559997" flag="0"/>
			<psa30 value="0.0179228331271473" flag="0"/>
		</comp>
		<comp name="00.HNZ" depth="0.0">
			<acc value="0.00928399829167516" flag="0"/>
			<vel value="0.0242732458131733" flag="0"/>
			<psa03 value="0.0277401681033285" flag="0"/>
			<psa10 value="0.0201339929782223" flag="0"/>
			<psa30 value="0.010061627424317" flag="0"/>
		</comp>
	</station>
	<station code="LIA" name="LIA" netid="HL" source="National Observatory of Athens Seismic Network" insttype="" lat="39.89725" lon="25.18055">
		<comp name="00.HNE" depth="0.0">
			<acc value="0.0129449095753737" flag="0"/>
			<vel value="0.0190595548400511" flag="0"/>
			<psa03 value="0.0440710735189977" flag="0"/>
			<psa10 value="0.0159300152443695" flag="0"/>
			<psa30 value="0.00684063596986757" flag="0"/>
		</comp>
		<comp name="00.HNN" depth="0.0">
			<acc value="0.0183493429649014" flag="0"/>
			<vel value="0.0277283854000653" flag="0"/>
			<psa03 value="0.048903231833771" flag="0"/>
			<psa10 value="0.0293352277692699" flag="0"/>
			<psa30 value="0.0136629276350216" flag="0"/>
		</comp>
		<comp name="00.HNZ" depth="0.0">
			<acc value="0.0107113368459004" flag="0"/>
			<vel value="0.0184390408849104" flag="0"/>
			<psa03 value="0.0251003779128505" flag="0"/>
			<psa10 value="0.014327349403303" flag="0"/>
			<psa30 value="0.0065833682818125" flag="0"/>
		</comp>
	</station>
	<station code="PRK" name="PRK" netid="HL" source="National Observatory of Athens Seismic Network" insttype="" lat="39.24565" lon="26.26499">
		<comp name="--.HNE" depth="0.0">
			<acc value="0.0680327731418953" flag="0"/>
			<vel value="0.0935549368503482" flag="0"/>
			<psa03 value="0.164024929462584" flag="0"/>
			<psa10 value="0.136073578144018" flag="0"/>
			<psa30 value="0.0215156323185945" flag="0"/>
		</comp>
		<comp name="--.HNN" depth="0.0">
			<acc value="0.0600123980267803" flag="0"/>
			<vel value="0.0938763553867492" flag="0"/>
			<psa03 value="0.128633844027531" flag="0"/>
			<psa10 value="0.159420956401564" flag="0"/>
			<psa30 value="0.0454536077035023" flag="0"/>
		</comp>
		<comp name="--.HNZ" depth="0.0">
			<acc value="0.0388986314757948" flag="0"/>
			<vel value="0.0424428242336112" flag="0"/>
			<psa03 value="0.0916320391542206" flag="0"/>
			<psa10 value="0.0623912174409152" flag="0"/>
			<psa30 value="0.0150199587617538" flag="0"/>
		</comp>
	</station>
	<station code="SMTH" name="SMTH" netid="HL" source="National Observatory of Athens Seismic Network" insttype="" lat="40.47094" lon="25.53045">
		<comp name="00.HNE" depth="0.0">
			<acc value="0.0315687631162159" flag="0"/>
			<vel value="0.029074068820184" flag="0"/>
			<psa03 value="0.0553013673801839" flag="0"/>
			<psa10 value="0.0166588657901811" flag="0"/>
			<psa30 value="0.0128700957337459" flag="0"/>
		</comp>
		<comp name="00.HNN" depth="0.0">
			<acc value="0.0352070308639268" flag="0"/>
			<vel value="0.0300361313787858" flag="0"/>
			<psa03 value="0.066352692414897" flag="0"/>
			<psa10 value="0.0149192887968627" flag="0"/>
			<psa30 value="0.0116056809747135" flag="0"/>
		</comp>
		<comp name="00.HNZ" depth="0.0">
			<acc value="0.0316500681095803" flag="0"/>
			<vel value="0.0286856452127976" flag="0"/>
			<psa03 value="0.0594623925956832" flag="0"/>
			<psa10 value="0.0131797118035443" flag="0"/>
			<psa30 value="0.00958467550176617" flag="0"/>
		</comp>
	</station>
	<station code="AKS" name="AKS" netid="KO" source="Bogazici University Kandilli Observatory And Earthquake Research Institute (KOERI)" insttype="" lat="38.8785" lon="27.8129">
		<comp name="--.HNE" depth="0.0">
			<acc value="0.200406356582901" flag="0"/>
			<vel value="0.449240034550721" flag="0"/>
			<psa03 value="0.489703451436984" flag="0"/>
			<psa10 value="0.301462250064327" flag="0"/>
			<psa30 value="0.298196068981193" flag="0"/>
		</comp>
		<comp name="--.HNN" depth="0.0">
			<acc value="0.25935124075335" flag="0"/>
			<vel value="0.382942928160906" flag="0"/>
			<psa03 value="0.572073853821223" flag="0"/>
			<psa10 value="0.242985080858378" flag="0"/>
			<psa30 value="0.162044191975593" flag="0"/>
		</comp>
		<comp name="--.HNZ" depth="0.0">
			<acc value="0.100455983722496" flag="0"/>
			<vel value="0.321312742846036" flag="0"/>
			<psa03 value="0.203040133633717" flag="0"/>
			<psa10 value="0.164265195112124" flag="0"/>
			<psa30 value="0.116881856037176" flag="0"/>
		</comp>
	</station>
	<station code="CANM" name="CANM" netid="KO" source="Bogazici University Kandilli Observatory And Earthquake Research Institute (KOERI)" insttype="" lat="40.0113" lon="27.0529">
		<comp name="--.HNE" depth="0.0">
			<acc value="1.13975995611547" flag="0"/>
			<vel value="0.659588866319316" flag="0"/>
			<psa03 value="3.93252676629976" flag="0"/>
			<psa10 value="0.686355740231811" flag="0"/>
			<psa30 value="0.284756404957196" flag="0"/>
		</comp>
		<comp name="--.HNN" depth="0.0">
			<acc value="1.61118020757455" flag="0"/>
			<vel value="1.09392606977765" flag="0"/>
			<psa03 value="5.93008732297912" flag="0"/>
			<psa10 value="0.685940979976459" flag="0"/>
			<psa30 value="0.154680072188292" flag="0"/>
		</comp>
		<comp name="--.HNZ" depth="0.0">
			<acc value="1.07495456275656" flag="0"/>
			<vel value="0.650182787372862" flag="0"/>
			<psa03 value="6.04999643671609" flag="0"/>
			<psa10 value="0.512261129747718" flag="0"/>
			<psa30 value="0.154214305817396" flag="0"/>
		</comp>
	</station>
	<station code="DST" name="DST" netid="KO" source="Bogazici University Kandilli Observatory And Earthquake Research Institute (KOERI)" insttype="" lat="39.6041" lon="28.6267">
		<comp name="--.HNE" depth="0.0">
			<acc value="1.30924692836808" flag="0"/>
			<vel value="2.04576257009204" flag="0"/>
			<psa03 value="2.84220393321909" flag="0"/>
			<psa10 value="2.09999157482297" flag="0"/>
			<psa30 value="0.354287583730255" flag="0"/>
		</comp>
		<comp name="--.HNN" depth="0.0">
			<acc value="0.992481756850596" flag="0"/>
			<vel value="1.06912264602116" flag="0"/>
			<psa03 value="2.94072627219253" flag="0"/>
			<psa10 value="1.82678939730287" flag="0"/>
			<psa30 value="0.234034402424393" flag="0"/>
		</comp>
		<comp name="--.HNZ" depth="0.0">
			<acc value="0.677916725713779" flag="0"/>
			<vel value="1.20920189361311" flag="0"/>
			<psa03 value="1.77465488330713" flag="0"/>
			<psa10 value="1.4841370244037" flag="0"/>
			<psa30 value="0.280965845212496" flag="0"/>
		</comp>
	</station>
	<station code="ESKT" name="ESKT" netid="KO" source="Bogazici University Kandilli Observatory And Earthquake Research Institute (KOERI)" insttype="" lat="39.5212" lon="30.8492">
		<comp name="--.HNE" depth="0.0">
			<acc value="0.322612075269686" flag="0"/>
			<vel value="0.262404550946894" flag="0"/>
			<psa03 value="0.746836912872192" flag="0"/>
			<psa10 value="0.378172763311354" flag="0"/>
			<psa30 value="0.134176061161337" flag="0"/>
		</comp>
		<comp name="--.HNN" depth="0.0">
			<acc value="0.297877279029165" flag="0"/>
			<vel value="0.352354773645905" flag="0"/>
			<psa03 value="0.719902104487993" flag="0"/>
			<psa10 value="0.491925796839714" flag="0"/>
			<psa30 value="0.154534212594716" flag="0"/>
		</comp>
		<comp name="--.HNZ" depth="0.0">
			<acc value="0.111280623635887" flag="0"/>
			<vel value="0.270084217922141" flag="0"/>
			<psa03 value="0.274090757743533" flag="0"/>
			<psa10 value="0.219170593963737" flag="0"/>
			<psa30 value="0.105270805997668" flag="0"/>
		</comp>
	</station>
	<station code="EZNE" name="EZNE" netid="KO" source="Bogazici University Kandilli Observatory And Earthquake Research Institute (KOERI)" insttype="" lat="39.756" lon="26.3655">
		<comp name="--.HNE" depth="0.0">
			<acc value="0.312049132786786" flag="0"/>
			<vel value="0.308258120390374" flag="0"/>
			<psa03 value="0.918154822013555" flag="0"/>
			<psa10 value="0.308694380342104" flag="0"/>
			<psa30 value="0.138800615637401" flag="0"/>
		</comp>
		<comp name="--.HNN" depth="0.0">
			<acc value="0.409563275645798" flag="0"/>
			<vel value="0.391249162967325" flag="0"/>
			<psa03 value="2.03814173808213" flag="0"/>
			<psa10 value="0.595338011574459" flag="0"/>
			<psa30 value="0.150495781025351" flag="0"/>
		</comp>
		<comp name="--.HNZ" depth="0.0">
			<acc value="0.273539886612593" flag="0"/>
			<vel value="0.212034887291928" flag="0"/>
			<psa03 value="0.715114688379837" flag="0"/>
			<psa10 value="0.343022838369973" flag="0"/>
			<psa30 value="0.0583416003198955" flag="0"/>
		</comp>
	</station>
	<station code="GMLD" name="GMLD" netid="KO" source="Bogazici University Kandilli Observatory And Earthquake Research Institute (KOERI)" insttype="" lat="38.0766" lon="26.9157">
		<comp name="--.HNE" depth="0.0">
			<acc value="0.212489195053935" flag="0"/>
			<vel value="0.409461916268108" flag="0"/>
			<psa03 value="0.632073152896325" flag="0"/>
			<psa10 value="0.338291350020091" flag="0"/>
			<psa30 value="0.125902332313486" flag="0"/>
		</comp>
		<comp name="--.HNN" depth="0.0">
			<acc value="0.263132470581482" flag="0"/>
			<vel value="0.225174209438333" flag="0"/>
			<psa03 value="0.574624159598464" flag="0"/>
			<psa10 value="0.286474505691338" flag="0"/>
			<psa30 value="0.100204198520215" flag="0"/>
		</comp>
		<comp name="--.HNZ" depth="0.0">
			<acc value="0.132051543501915" flag="0"/>
			<vel value="0.129895953680377" flag="0"/>
			<psa03 value="0.613370910529888" flag="0"/>
			<psa10 value="0.165420886309074" flag="0"/>
			<psa30 value="0.0601075752151186" flag="0"/>
		</comp>
	</station>
	<station code="GONE" name="GONE" netid="KO" source="Bogazici University Kandilli Observatory And Earthquake Research Institute (KOERI)" insttype="" lat="40.0466" lon="27.686">
		<comp name="--.HNE" depth="0.0">
			<acc value="0.788323762681231" flag="0"/>
			<vel value="0.834389725173801" flag="0"/>
			<psa03 value="1.84252881074705" flag="0"/>
			<psa10 value="1.23737077966401" flag="0"/>
			<psa30 value="0.301038093945585" flag="0"/>
		</comp>
		<comp name="--.HNN" depth="0.0">
			<acc value="1.2216549024688" flag="0"/>
			<vel value="0.839091246296658" flag="0"/>
			<psa03 value="3.4575882430468" flag="0"/>
			<psa10 value="0.9529056464719" flag="0"/>
			<psa30 value="0.239662972016971" flag="0"/>
		</comp>
		<comp name="--.HNZ" depth="0.0">
			<acc value="0.442141568874598" flag="0"/>
			<vel value="0.437488092594876" flag="0"/>
			<psa03 value="0.960570433887676" flag="0"/>
			<psa10 value="0.473454871681493" flag="0"/>
			<psa30 value="0.110156207538317" flag="0"/>
		</comp>
	</station>
	<station code="GPA" name="GPA" netid="KO" source="Bogazici University Kandilli Observatory And Earthquake Research Institute (KOERI)" insttype="" lat="40.2911" lon="30.3171">
		<comp name="--.HNE" depth="0.0">
			<acc value="0.758233776895898" flag="0"/>
			<vel value="1.31633423111599" flag="0"/>
			<psa03 value="1.65505896501649" flag="0"/>
			<psa10 value="1.80296283001245" flag="0"/>
			<psa30 value="0.350798586458163" flag="0"/>
		</comp>
		<comp name="--.HNN" depth="0.0">
			<acc value="0.831788420558861" flag="0"/>
			<vel value="1.51639162352558" flag="0"/>
			<psa03 value="1.53416552273392" flag="0"/>
			<psa10 value="2.23587186663439" flag="0"/>
			<psa30 value="0.423621449372128" flag="0"/>
		</comp>
		<comp name="--.HNZ" depth="0.0">
			<acc value="0.38071112621804" flag="0"/>
			<vel value="0.826458413718118" flag="0"/>
			<psa03 value="0.626435634862423" flag="0"/>
			<psa10 value="1.14516917221954" flag="0"/>
			<psa30 value="0.280182856596677" flag="0"/>
		</comp>
	</station>
	<station code="GPNR" name="GPNR" netid="KO" source="Bogazici University Kandilli Observatory And Earthquake Research Institute (KOERI)" insttype="" lat="39.456" lon="26.1331">
		<comp name="--.HNE" depth="0.0">
			<acc value="0.443702373701824" flag="0"/>
			<vel value="0.571853577394514" flag="0"/>
			<psa03 value="1.2488444711292" flag="0"/>
			<psa10 value="0.638690525255167" flag="0"/>
			<psa30 value="0.136199751166681" flag="0"/>
		</comp>
		<comp name="--.HNN" depth="0.0">
			<acc value="0.363377869260328" flag="0"/>
			<vel value="0.379703164761565" flag="0"/>
			<psa03 value="0.862719228013516" flag="0"/>
			<psa10 value="0.471836098646044" flag="0"/>
			<psa30 value="0.108353096611601" flag="0"/>
		</comp>
		<comp name="--.HNZ" depth="0.0">
			<acc value="0.229474587819372" flag="0"/>
			<vel value="0.329091545618428" flag="0"/>
			<psa03 value="0.419592413666153" flag="0"/>
			<psa10 value="0.36124812881386" flag="0"/>
			<psa30 value="0.0591031126765384" flag="0"/>
		</comp>
	</station>
	<station code="KAVV" name="KAVV" netid="KO" source="Bogazici University Kandilli Observatory And Earthquake Research Institute (KOERI)" insttype="" lat="41.0638" lon="29.06">
		<comp name="--.HNE" depth="0.0">
			<acc value="5.96964830430896" flag="0"/>
			<vel value="1.89231531262404" flag="0"/>
			<psa03 value="14.301801603324" flag="0"/>
			<psa10 value="1.32099933289836" flag="0"/>
			<psa30 value="0.412349545258787" flag="0"/>
		</comp>
		<comp name="--.HNN" depth="0.0">
			<acc value="6.89531847101372" flag="0"/>
			<vel value="3.00133070516707" flag="0"/>
			<psa03 value="16.2008398210299" flag="0"/>
			<psa10 value="2.31111662519261" flag="0"/>
			<psa30 value="0.649343644650978" flag="0"/>
		</comp>
		<comp name="--.HNZ" depth="0.0">
			<acc value="4.64685229114748" flag="0"/>
			<vel value="4.60931532091393" flag="0"/>
			<psa03 value="11.2425979680062" flag="0"/>
			<psa10 value="4.2057495252349" flag="0"/>
			<psa30 value="0.466889400282327" flag="0"/>
		</comp>
	</station>
	<station code="NAZL" name="NAZL" netid="KO" source="Bogazici University Kandilli Observatory And Earthquake Research Institute (KOERI)" insttype="" lat="37.9641" lon="28.2922">
		<comp name="--.HNE" depth="0.0">
			<acc value="0.0945417457981496" flag="0"/>
			<vel value="0.325701032724238" flag="0"/>
			<psa03 value="0.154584323866129" flag="0"/>
			<psa10 value="0.210895522849687" flag="0"/>
			<psa30 value="0.0971675449570331" flag="0"/>
		</comp>
		<comp name="--.HNN" depth="0.0">
			<acc value="0.0941039928244414" flag="0"/>
			<vel value="0.236639767864683" flag="0"/>
			<psa03 value="0.16621729758688" flag="0"/>
			<psa10 value="0.201380197768179" flag="0"/>
			<psa30 value="0.0816133642482571" flag="0"/>
		</comp>
		<comp name="--.HNZ" depth="0.0">
			<acc value="0.0545478095504925" flag="0"/>
			<vel value="0.164202040852553" flag="0"/>
			<psa03 value="0.067337020960499" flag="0"/>
			<psa10 value="0.108485980965257" flag="0"/>
			<psa30 value="0.0715069946173219" flag="0"/>
		</comp>
	</station>
	<station code="ODEM" name="ODEM" netid="KO" source="Bogazici University Kandilli Observatory And Earthquake Research Institute (KOERI)" insttype="" lat="38.2762" lon="28.0747">
		<comp name="--.HNE" depth="0.0">
			<acc value="0.107194525117695" flag="0"/>
			<vel value="0.26109454062975" flag="0"/>
			<psa03 value="0.114047884669975" flag="0"/>
			<psa10 value="0.184012615425165" flag="0"/>
			<psa30 value="0.162707271477676" flag="0"/>
		</comp>
		<comp name="--.HNN" depth="0.0">
			<acc value="0.0789510302636187" flag="0"/>
			<vel value="0.179787019772609" flag="0"/>
			<psa03 value="0.115792830728087" flag="0"/>
			<psa10 value="0.148407662242476" flag="0"/>
			<psa30 value="0.106696292700526" flag="0"/>
		</comp>
		<comp name="--.HNZ" depth="0.0">
			<acc value="0.0696149821221326" flag="0"/>
			<vel value="0.210974871073996" flag="0"/>
