<?xml version="1.0" encoding="UTF-8" standalone="yes"?>
<!DOCTYPE earthquake SYSTEM "stationlist.dtd">
<stationlist created="" xmlns="ch.ethz.sed.shakemap.usgs.xml">
  <station code="CEYT" name="CEYT" netid="KO" insttype="CMG-3ESP" lat="37.0105" lon="35.7478">
    <comp name="--.HHN">
      <acc value="0.0116831932" flag="0"/>
      <vel value="0.0053069736" flag="0"/>
      <psa03 value="0.0239437800" flag="0"/>
      <psa10 value="0.0072257687" flag="0"/>
      <psa30 value="0.0004673033" flag="0"/>
    </comp>
    <comp name="--.HHZ">
      <acc value="0.0083205405" flag="0"/>
      <vel value="0.0029667296" flag="0"/>
      <psa03 value="0.0165065711" flag="0"/>
      <psa10 value="0.0037877753" flag="0"/>
      <psa30 value="0.0005531951" flag="0"/>
    </comp>
    <comp name="--.HHE">
      <acc value="0.0147248122" flag="0"/>
      <vel value="0.0065325094" flag="0"/>
      <psa03 value="0.0314850356" flag="0"/>
      <psa10 value="0.0035321807" flag="0"/>
      <psa30 value="0.0004138771" flag="0"/>
    </comp>
  </station>
  <station code="GAZ" name="GAZ" netid="KO" insttype="CMG-3T" lat="37.1721" lon="37.2096">
    <comp name="--.HHZ">
      <acc value="0.0276556458" flag="0"/>
      <vel value="0.0168132514" flag="0"/>
      <psa03 value="0.0315377591" flag="0"/>
      <psa10 value="0.0159650793" flag="0"/>
      <psa30 value="0.0011776325" flag="0"/>
    </comp>
  </station>
  <station code="KMRS" name="KMRS" netid="KO" insttype="CMG-3T" lat="37.5053" lon="36.9">
    <comp name="--.HHZ">
      <acc value="0.0099807978" flag="0"/>
      <vel value="0.0050148442" flag="0"/>
      <psa03 value="0.0144488786" flag="0"/>
      <psa10 value="0.0056949979" flag="0"/>
      <psa30 value="0.0006322247" flag="0"/>
    </comp>
    <comp name="--.HHN">
      <acc value="0.0150118962" flag="0"/>
      <vel value="0.0049272963" flag="0"/>
      <psa03 value="0.0177316321" flag="0"/>
      <psa10 value="0.0087364733" flag="0"/>
      <psa30 value="0.0006472016" flag="0"/>
    </comp>
  </station>
  <station code="ANDN" name="ANDN" netid="TU" insttype="T" lat="37.58" lon="36.3452">
    <comp name="--.HHN">
      <acc value="0.0626877059" flag="0"/>
      <vel value="0.0262385367" flag="0"/>
      <psa03 value="0.1510105971" flag="0"/>
      <psa10 value="0.0229929955" flag="0"/>
      <psa30 value="0.0013542952" flag="0"/>
    </comp>
    <comp name="--.HHZ">
      <acc value="0.0177032669" flag="0"/>
      <vel value="0.0088673715" flag="0"/>
      <psa03 value="0.0402427037" flag="0"/>
      <psa10 value="0.0145059974" flag="0"/>
      <psa30 value="0.0005990875" flag="0"/>
    </comp>
    <comp name="--.HHE">
      <acc value="0.0378708474" flag="0"/>
      <vel value="0.0232980075" flag="0"/>
      <psa03 value="0.0992958520" flag="0"/>
      <psa10 value="0.0336866968" flag="0"/>
      <psa30 value="0.0014257981" flag="0"/>
    </comp>
  </station>
</stationlist>
