<stationlist created="1778135774">
	<station code="MYT1" name="MYT1" netid="HI" source="ITSAK Strong Motion Network" insttype="" lat="39.085" lon="26.5694">
		<comp name="--.HNE" depth="0.0">
			<acc value="0.0929269338724829" flag="0"/>
			<vel value="0.0765953034240119" flag="0"/>
			<psa03 value="0.289038168193528" flag="0"/>
			<psa10 value="0.13098527213155" flag="0"/>
			<psa30 value="0.0410289279651196" flag="0"/>
		</comp>
		<comp name="--.HNN" depth="0.0">
			<acc value="0.0892798990698127" flag="0"/>
			<vel value="0.0751834413455643" flag="0"/>
			<psa03 value="0.337687536808644" flag="0"/>
			<psa10 value="0.14405857817372" flag="0"/>
			<psa30 value="0.031522421539069" flag="0"/>
		</comp>
		<comp name="--.HNZ" depth="0.0">
			<acc value="0.0786616163000201" flag="0"/>
			<vel value="0.089628219286049" flag="0"/>
			<psa03 value="0.175249901112568" flag="0"/>
			<psa10 value="0.139032855244372" flag="0"/>
			<psa30 value="0.0161584754196984" flag="0"/>
		</comp>
	</station>
	<station code="NAX1" name="NAX1" netid="HI" source="ITSAK Strong Motion Network" insttype="" lat="37.101394" lon="25.374103">
		<comp name="--.HNE" depth="0.0">
			<acc value="0.0376557463727833" flag="0"/>
			<vel value="0.0262688998751467" flag="0"/>
			<psa03 value="0.0783260376738945" flag="0"/>
			<psa10 value="0.024559461943828" flag="0"/>
			<psa30 value="0.00490809555392194" flag="0"/>
		</comp>
		<comp name="--.HNN" depth="0.0">
			<acc value="0.039159359084349" flag="0"/>
			<vel value="0.0319093379711969" flag="0"/>
			<psa03 value="0.0753293704095793" flag="0"/>
			<psa10 value="0.0151394079114906" flag="0"/>
			<psa30 value="0.00964098200107309" flag="0"/>
		</comp>
		<comp name="--.HNZ" depth="0.0">
			<acc value="0.0382715574460482" flag="0"/>
			<vel value="0.0188179559445975" flag="0"/>
			<psa03 value="0.0562979117522054" flag="0"/>
			<psa10 value="0.0172201432499805" flag="0"/>
			<psa30 value="0.00546127178246908" flag="0"/>
		</comp>
	</station>
	<station code="RDI1" name="RDI1" netid="HI" source="ITSAK Strong Motion Network" insttype="" lat="36.4514" lon="28.224">
		<comp name="--.HNE" depth="0.0">
			<acc value="0.0276168538953112" flag="0"/>
			<vel value="0.0550548133094693" flag="0"/>
			<psa03 value="0.0455705813271475" flag="0"/>
			<psa10 value="0.0631705647397658" flag="0"/>
			<psa30 value="0.0236830188837679" flag="0"/>
		</comp>
		<comp name="--.HNN" depth="0.0">
			<acc value="0.0345988833581212" flag="0"/>
			<vel value="0.0705635480045069" flag="0"/>
			<psa03 value="0.0428397650075286" flag="0"/>
			<psa10 value="0.0740336168639465" flag="0"/>
			<psa30 value="0.0305572609352253" flag="0"/>
		</comp>
		<comp name="--.HNZ" depth="0.0">
			<acc value="0.016169336432174" flag="0"/>
			<vel value="0.0263069021483482" flag="0"/>
			<psa03 value="0.0352337950035161" flag="0"/>
			<psa10 value="0.0370357171844999" flag="0"/>
			<psa30 value="0.00961525863034869" flag="0"/>
		</comp>
	</station>
	<station code="ASTA" name="ASTA" netid="HL" source="National Observatory of Athens Seismic Network" insttype="" lat="36.54552" lon="26.35295">
		<comp name="00.HNE" depth="0.0">
			<acc value="0.0261480545417873" flag="0"/>
			<vel value="0.0211783363841624" flag="0"/>
			<psa03 value="0.0500117713676868" flag="0"/>
			<psa10 value="0.0255025556691531" flag="0"/>
			<psa30 value="0.00670357699576312" flag="0"/>
		</comp>
		<comp name="00.HNN" depth="0.0">
			<acc value="0.0308638234004282" flag="0"/>
			<vel value="0.0207508994494219" flag="0"/>
			<psa03 value="0.0836186591172672" flag="0"/>
			<psa10 value="0.0206618081183989" flag="0"/>
			<psa30 value="0.00721361536660064" flag="0"/>
		</comp>
		<comp name="00.HNZ" depth="0.0">
			<acc value="0.0211982547084991" flag="0"/>
			<vel value="0.0272409189199955" flag="0"/>
			<psa03 value="0.0553425151285697" flag="0"/>
			<psa10 value="0.0203104323414621" flag="0"/>
			<psa30 value="0.00699869279571751" flag="0"/>
		</comp>
	</station>
	<station code="KLNA" name="KLNA" netid="HL" source="National Observatory of Athens Seismic Network" insttype="" lat="36.95708" lon="26.97274">
		<comp name="00.HNE" depth="0.0">
			<acc value="0.283834412613722" flag="0"/>
			<vel value="0.137904008227368" flag="0"/>
			<psa03 value="0.901287010118466" flag="0"/>
			<psa10 value="0.0463041570513156" flag="0"/>
			<psa30 value="0.0193313177914905" flag="0"/>
		</comp>
		<comp name="00.HNN" depth="0.0">
			<acc value="0.300485608625547" flag="0"/>
			<vel value="0.13747700838463" flag="0"/>
			<psa03 value="1.21730121546332" flag="0"/>
			<psa10 value="0.0596006460141336" flag="0"/>
			<psa30 value="0.0101014479882072" flag="0"/>
		</comp>
		<comp name="00.HNZ" depth="0.0">
			<acc value="0.255663966151117" flag="0"/>
			<vel value="0.128402621803528" flag="0"/>
			<psa03 value="0.470777498037455" flag="0"/>
			<psa10 value="0.0516235579961619" flag="0"/>
			<psa30 value="0.0144472585170399" flag="0"/>
		</comp>
	</station>
	<station code="PRK" name="PRK" netid="HL" source="National Observatory of Athens Seismic Network" insttype="" lat="39.24565" lon="26.26499">
		<comp name="--.HNE" depth="0.0">
			<acc value="0.126742456404906" flag="0"/>
			<vel value="0.116430961365975" flag="0"/>
			<psa03 value="0.354809296041315" flag="0"/>
			<psa10 value="0.168438778242396" flag="0"/>
			<psa30 value="0.0150057990605486" flag="0"/>
		</comp>
		<comp name="--.HNN" depth="0.0">
			<acc value="0.127381573640696" flag="0"/>
			<vel value="0.0927373341314542" flag="0"/>
			<psa03 value="0.46440555625663" flag="0"/>
			<psa10 value="0.135230733372327" flag="0"/>
			<psa30 value="0.0199953945967772" flag="0"/>
		</comp>
		<comp name="--.HNZ" depth="0.0">
			<acc value="0.0850516947983029" flag="0"/>
			<vel value="0.0812138500759647" flag="0"/>
			<psa03 value="0.261532450241234" flag="0"/>
			<psa10 value="0.0498994068407563" flag="0"/>
			<psa30 value="0.00922242010673284" flag="0"/>
		</comp>
	</station>
	<station code="RODB" name="RODB" netid="HL" source="National Observatory of Athens Seismic Network" insttype="" lat="36.4471" lon="28.22116">
		<comp name="00.HNE" depth="0.0">
			<acc value="0.0291440596663911" flag="0"/>
			<vel value="0.0573910363807306" flag="0"/>
			<psa03 value="0.0613933638841879" flag="0"/>
			<psa10 value="0.0510244438691036" flag="0"/>
			<psa30 value="0.024109970500545" flag="0"/>
		</comp>
		<comp name="00.HNN" depth="0.0">
			<acc value="0.0241108368721701" flag="0"/>
			<vel value="0.0621506959140088" flag="0"/>
			<psa03 value="0.050910742378463" flag="0"/>
			<psa10 value="0.0724180623410994" flag="0"/>
			<psa30 value="0.0274603957830991" flag="0"/>
		</comp>
		<comp name="00.HNZ" depth="0.0">
			<acc value="0.0121572116991571" flag="0"/>
			<vel value="0.0237471506001122" flag="0"/>
			<psa03 value="0.0244397153653511" flag="0"/>
			<psa10 value="0.0299973484271178" flag="0"/>
			<psa30 value="0.00805025495655287" flag="0"/>
		</comp>
	</station>
	<station code="THRA" name="THRA" netid="HL" source="National Observatory of Athens Seismic Network" insttype="" lat="36.41502" lon="25.43244">
		<comp name="00.HNE" depth="0.0">
			<acc value="0.0706053182730777" flag="0"/>
			<vel value="0.0899851826277271" flag="0"/>
			<psa03 value="0.198256300173642" flag="0"/>
			<psa10 value="0.0924953773648016" flag="0"/>
			<psa30 value="0.0340637998929069" flag="0"/>
		</comp>
		<comp name="00.HNN" depth="0.0">
			<acc value="0.0902921719631788" flag="0"/>
			<vel value="0.086337222966092" flag="0"/>
			<psa03 value="0.251024733323087" flag="0"/>
			<psa10 value="0.106765027658937" flag="0"/>
			<psa30 value="0.042932670745405" flag="0"/>
		</comp>
		<comp name="00.HNZ" depth="0.0">
			<acc value="0.053335042971414" flag="0"/>
			<vel value="0.0388545960261467" flag="0"/>
			<psa03 value="0.130943611871613" flag="0"/>
			<psa10 value="0.0327319395803699" flag="0"/>
			<psa30 value="0.00819889646997843" flag="0"/>
		</comp>
	</station>
	<station code="AKS" name="AKS" netid="KO" source="Bogazici University Kandilli Observatory And Earthquake Research Institute (KOERI)" insttype="" lat="38.8785" lon="27.8129">
		<comp name="--.HNE" depth="0.0">
			<acc value="0.0623293730986447" flag="0"/>
			<vel value="0.0546582785835147" flag="0"/>
			<psa03 value="0.179460990745888" flag="0"/>
			<psa10 value="0.0576838898826069" flag="0"/>
			<psa30 value="0.010820902670629" flag="0"/>
		</comp>
		<comp name="--.HNN" depth="0.0">
			<acc value="0.0722263922104746" flag="0"/>
			<vel value="0.056119867920661" flag="0"/>
			<psa03 value="0.137805996384277" flag="0"/>
			<psa10 value="0.0578530154236239" flag="0"/>
			<psa30 value="0.0190391511822732" flag="0"/>
		</comp>
		<comp name="--.HNZ" depth="0.0">
			<acc value="0.0239067176298724" flag="0"/>
			<vel value="0.0214375405674975" flag="0"/>
			<psa03 value="0.0565094069588772" flag="0"/>
			<psa10 value="0.0249500440986131" flag="0"/>
			<psa30 value="0.0106477503310163" flag="0"/>
		</comp>
	</station>
	<station code="CESE" name="CESE" netid="KO" source="Bogazici University Kandilli Observatory And Earthquake Research Institute (KOERI)" insttype="" lat="38.3306" lon="26.2997">
		<comp name="--.HNE" depth="0.0">
			<acc value="0.207637818003122" flag="0"/>
			<vel value="0.101946084104974" flag="0"/>
			<psa03 value="0.503036629009229" flag="0"/>
			<psa10 value="0.0847882712298897" flag="0"/>
			<psa30 value="0.0135251216386374" flag="0"/>
		</comp>
		<comp name="--.HNN" depth="0.0">
			<acc value="0.245494378630028" flag="0"/>
			<vel value="0.258536970784597" flag="0"/>
			<psa03 value="0.710685209924629" flag="0"/>
			<psa10 value="0.408216707633457" flag="0"/>
			<psa30 value="0.0213876696076663" flag="0"/>
		</comp>
		<comp name="--.HNZ" depth="0.0">
			<acc value="0.168238030286825" flag="0"/>
			<vel value="0.0913623856007444" flag="0"/>
			<psa03 value="0.362501358021238" flag="0"/>
			<psa10 value="0.153880081533957" flag="0"/>
			<psa30 value="0.00872338802436444" flag="0"/>
		</comp>
	</station>
	<station code="DATC" name="DATC" netid="KO" source="Bogazici University Kandilli Observatory And Earthquake Research Institute (KOERI)" insttype="" lat="36.7584" lon="27.6602">
		<comp name="--.HNE" depth="0.0">
			<acc value="0.0984776453537712" flag="0"/>
			<vel value="0.0427702121084693" flag="0"/>
			<psa03 value="1.01394788638327" flag="0"/>
			<psa10 value="0.54429431257607" flag="0"/>
			<psa30 value="0.109290445840254" flag="0"/>
		</comp>
		<comp name="--.HNN" depth="0.0">
			<acc value="0.118401569851352" flag="0"/>
			<vel value="0.0219588093754583" flag="0"/>
			<psa03 value="0.111766032132443" flag="0"/>
			<psa10 value="0.0144159389724072" flag="0"/>
			<psa30 value="0.00350197251201213" flag="0"/>
		</comp>
		<comp name="--.HNZ" depth="0.0">
			<acc value="0.162873239544087" flag="0"/>
			<vel value="0.0653286928048328" flag="0"/>
			<psa03 value="0.349928797961503" flag="0"/>
			<psa10 value="0.0576516754938417" flag="0"/>
			<psa30 value="0.0234619183064893" flag="0"/>
		</comp>
	</station>
	<station code="EZNE" name="EZNE" netid="KO" source="Bogazici University Kandilli Observatory And Earthquake Research Institute (KOERI)" insttype="" lat="39.756" lon="26.3655">
		<comp name="--.HNE" depth="0.0">
			<acc value="0.165438230370082" flag="0"/>
			<vel value="0.132227788968882" flag="0"/>
			<psa03 value="0.43569960804873" flag="0"/>
			<psa10 value="0.128636081137862" flag="0"/>
			<psa30 value="0.0198400366807402" flag="0"/>
		</comp>
		<comp name="--.HNN" depth="0.0">
			<acc value="0.199432531727074" flag="0"/>
			<vel value="0.152948062846362" flag="0"/>
			<psa03 value="0.846477807011083" flag="0"/>
			<psa10 value="0.145544608440973" flag="0"/>
			<psa30 value="0.0287889254264608" flag="0"/>
		</comp>
		<comp name="--.HNZ" depth="0.0">
			<acc value="0.103256648585706" flag="0"/>
			<vel value="0.0711960958706232" flag="0"/>
			<psa03 value="0.402635117357828" flag="0"/>
			<psa10 value="0.0631200679867269" flag="0"/>
			<psa30 value="0.0207304065924438" flag="0"/>
		</comp>
	</station>
	<station code="FOCM" name="FOCM" netid="KO" source="Bogazici University Kandilli Observatory And Earthquake Research Institute (KOERI)" insttype="" lat="38.7131" lon="26.7309">
		<comp name="--.HNE" depth="0.0">
			<acc value="0.169243769861756" flag="0"/>
			<vel value="0.133660673005258" flag="0"/>
			<psa03 value="0.436594452181096" flag="0"/>
			<psa10 value="0.117679162159114" flag="0"/>
			<psa30 value="0.0122146224067882" flag="0"/>
		</comp>
		<comp name="--.HNN" depth="0.0">
			<acc value="0.205407292570399" flag="0"/>
			<vel value="0.163314088614503" flag="0"/>
			<psa03 value="0.665540323446792" flag="0"/>
			<psa10 value="0.118021440039743" flag="0"/>
			<psa30 value="0.0146485984468222" flag="0"/>
		</comp>
		<comp name="--.HNZ" depth="0.0">
			<acc value="0.118795681394348" flag="0"/>
			<vel value="0.0597140678358051" flag="0"/>
			<psa03 value="0.317311729336783" flag="0"/>
			<psa10 value="0.0618637068248858" flag="0"/>
			<psa30 value="0.00929519342494595" flag="0"/>
		</comp>
	</station>
	<station code="GMLD" name="GMLD" netid="KO" source="Bogazici University Kandilli Observatory And Earthquake Research Institute (KOERI)" insttype="" lat="38.0766" lon="26.9157">
		<comp name="--.HNE" depth="0.0">
			<acc value="5.56062464413106" flag="0"/>
			<vel value="3.28520484106748" flag="0"/>
			<psa03 value="12.7470546655456" flag="0"/>
			<psa10 value="2.48092269517234" flag="0"/>
			<psa30 value="0.217609985796891" flag="0"/>
		</comp>
		<comp name="--.HNN" depth="0.0">
			<acc value="6.96353747525329" flag="0"/>
			<vel value="3.82645603138373" flag="0"/>
			<psa03 value="19.5935966066868" flag="0"/>
			<psa10 value="3.20128877634296" flag="0"/>
			<psa30 value="0.405237324094746" flag="0"/>
		</comp>
		<comp name="--.HNZ" depth="0.0">
			<acc value="3.68638749276074" flag="0"/>
			<vel value="1.37117477928005" flag="0"/>
			<psa03 value="13.0505410530374" flag="0"/>
			<psa10 value="0.730042478195958" flag="0"/>
			<psa30 value="0.235704628997453" flag="0"/>
		</comp>
	</station>
	<station code="GOMA" name="GOMA" netid="KO" source="Bogazici University Kandilli Observatory And Earthquake Research Institute (KOERI)" insttype="" lat="38.7077" lon="27.9175">
		<comp name="--.HNE" depth="0.0">
			<acc value="0.129583581215576" flag="0"/>
			<vel value="0.0805929226334608" flag="0"/>
			<psa03 value="0.576906012135996" flag="0"/>
			<psa10 value="0.0522195241883173" flag="0"/>
			<psa30 value="0.00842585235035294" flag="0"/>
		</comp>
		<comp name="--.HNN" depth="0.0">
			<acc value="0.0663921068001759" flag="0"/>
			<vel value="0.0518021843828041" flag="0"/>
			<psa03 value="0.222547735719284" flag="0"/>
			<psa10 value="0.0763964229565667" flag="0"/>
			<psa30 value="0.0105815318652213" flag="0"/>
		</comp>
		<comp name="--.HNZ" depth="0.0">
			<acc value="0.0518850415372837" flag="0"/>
			<vel value="0.0301830895976955" flag="0"/>
			<psa03 value="0.161206170445633" flag="0"/>
			<psa10 value="0.0417136066522809" flag="0"/>
			<psa30 value="0.013120204668742" flag="0"/>
		</comp>
	</station>
	<station code="GORD" name="GORD" netid="KO" source="Bogazici University Kandilli Observatory And Earthquake Research Institute (KOERI)" insttype="" lat="38.9088" lon="28.1769">
		<comp name="--.HNE" depth="0.0">
			<acc value="0.193057694224327" flag="0"/>
			<vel value="0.264818236270797" flag="0"/>
			<psa03 value="0.425722095972856" flag="0"/>
			<psa10 value="0.547068776808469" flag="0"/>
			<psa30 value="0.0456768713145274" flag="0"/>
		</comp>
		<comp name="--.HNN" depth="0.0">
			<acc value="0.152967162618739" flag="0"/>
			<vel value="0.205813739523128" flag="0"/>
			<psa03 value="0.382232671139896" flag="0"/>
			<psa10 value="0.210629754142375" flag="0"/>
			<psa30 value="0.0651849208221601" flag="0"/>
		</comp>
		<comp name="--.HNZ" depth="0.0">
			<acc value="0.152357384435233" flag="0"/>
			<vel value="0.150722208875536" flag="0"/>
			<psa03 value="0.292166609217315" flag="0"/>
			<psa10 value="0.203997616855348" flag="0"/>
			<psa30 value="0.0377785295802039" flag="0"/>
		</comp>
	</station>
	<station code="KUSD" name="KUSD" netid="KO" source="Bogazici University Kandilli Observatory And Earthquake Research Institute (KOERI)" insttype="" lat="37.8606" lon="27.2868">
		<comp name="--.HNE" depth="0.0">
			<acc value="1.47348944628956" flag="0"/>
			<vel value="0.744460485692722" flag="0"/>
			<psa03 value="5.44432118572454" flag="0"/>
			<psa10 value="0.865161705072807" flag="0"/>
			<psa30 value="0.130759098841899" flag="0"/>
		</comp>
		<comp name="--.HNN" depth="0.0">
			<acc value="1.30731772840017" flag="0"/>
			<vel value="0.589186424519876" flag="0"/>
			<psa03 value="3.20828466776979" flag="0"/>
			<psa10 value="0.602992955704779" flag="0"/>
			<psa30 value="0.17227226040853" flag="0"/>
		</comp>
		<comp name="--.HNZ" depth="0.0">
			<acc value="0.836563904384193" flag="0"/>
			<vel value="0.377858329083841" flag="0"/>
			<psa03 value="2.73777562297205" flag="0"/>
			<psa10 value="0.37499561921939" flag="0"/>
			<psa30 value="0.126931403065706" flag="0"/>
		</comp>
	</station>
	<station code="NAZL" name="NAZL" netid="KO" source="Bogazici University Kandilli Observatory And Earthquake Research Institute (KOERI)" insttype="" lat="37.9641" lon="28.2922">
		<comp name="--.HNE" depth="0.0">
			<acc value="0.39269018765989" flag="0"/>
			<vel value="0.308387848255216" flag="0"/>
			<psa03 value="1.79939732356704" flag="0"/>
			<psa10 value="0.45212894631896" flag="0"/>
			<psa30 value="0.0274408427410522" flag="0"/>
		</comp>
		<comp name="--.HNN" depth="0.0">
			<acc value="0.411432601771268" flag="0"/>
			<vel value="0.311958261971926" flag="0"/>
			<psa03 value="0.895604749877946" flag="0"/>
			<psa10 value="0.307727948679149" flag="0"/>
			<psa30 value="0.0419668475417403" flag="0"/>
		</comp>
		<comp name="--.HNZ" depth="0.0">
			<acc value="0.178856413448558" flag="0"/>
			<vel value="0.112663976660086" flag="0"/>
			<psa03 value="0.597845364833347" flag="0"/>
			<psa10 value="0.138405094530896" flag="0"/>
			<psa30 value="0.019023938832023" flag="0"/>
		</comp>
	</station>
	<station code="SOMA" name="SOMA" netid="KO" source="Bogazici University Kandilli Observatory And Earthquake Research Institute (KOERI)" insttype="" lat="39.1564" lon="27.5341">
		<comp name="--.HNE" depth="0.0">
			<acc value="0.287907367132402" flag="0"/>
			<vel value="0.213071939161949" flag="0"/>
			<psa03 value="0.891891146728629" flag="0"/>
			<psa10 value="0.149672077001509" flag="0"/>
			<psa30 value="0.0627115716403021" flag="0"/>
		</comp>
		<comp name="--.HNN" depth="0.0">
			<acc value="0.386087338456383" flag="0"/>
			<vel value="0.277570342717413" flag="0"/>
			<psa03 value="0.773771721256392" flag="0"/>
			<psa10 value="0.244809220622205" flag="0"/>
			<psa30 value="0.0668453041097642" flag="0"/>
		</comp>
		<comp name="--.HNZ" depth="0.0">
			<acc value="0.176002551492914" flag="0"/>
			<vel value="0.171107484502196" flag="0"/>
			<psa03 value="0.483394800303808" flag="0"/>
			<psa10 value="0.123067018680086" flag="0"/>
			<psa30 value="0.0618493893187679" flag="0"/>
		</comp>
	</station>
	<station code="YKAV" name="YKAV" netid="KO" source="Bogazici University Kandilli Observatory And Earthquake Research Institute (KOERI)" insttype="" lat="37.1246" lon="27.2801">
		<comp name="--.HNE" depth="0.0">
			<acc value="0.132787233895903" flag="0"/>
			<vel value="0.105031089353435" flag="0"/>
			<psa03 value="0.30912390552564" flag="0"/>
			<psa10 value="0.123413323359311" flag="0"/>
			<psa30 value="0.0139251169658047" flag="0"/>
		</comp>
		<comp name="--.HNN" depth="0.0">
			<acc value="0.141504243651007" flag="0"/>
			<vel value="0.144883841757619" flag="0"/>
			<psa03 value="0.30858699904622" flag="0"/>
			<psa10 value="0.129952844278638" flag="0"/>
			<psa30 value="0.0153698428175087" flag="0"/>
		</comp>
		<comp name="--.HNZ" depth="0.0">
			<acc value="0.104910664367666" flag="0"/>
