<stationlist created="1631873510">
	<station code="KLNA" name="KLNA" netid="HL" source="National Observatory of Athens Seismic Network" insttype="" lat="36.95708" lon="26.97274">
		<comp name="--.HNE" depth="0.0">
			<acc value="-0.28383438" flag="0"/>
			<vel value="-0.137904" flag="0"/>
			<psa03 value="0.901287010118" flag="0"/>
			<psa10 value="0.0463041570513" flag="0"/>
			<psa30 value="0.0193313177915" flag="0"/>
		</comp>
		<comp name="--.HNN" depth="0.0">
			<acc value="0.300485574" flag="0"/>
			<vel value="0.137477" flag="0"/>
			<psa03 value="1.21730121546" flag="0"/>
			<psa10 value="0.0596006460141" flag="0"/>
			<psa30 value="0.0101014479882" flag="0"/>
		</comp>
		<comp name="--.HNZ" depth="0.0">
			<acc value="0.25566402" flag="0"/>
			<vel value="0.128403" flag="0"/>
			<psa03 value="0.470777498037" flag="0"/>
			<psa10 value="0.0516235579962" flag="0"/>
			<psa30 value="0.014447258517" flag="0"/>
		</comp>
	</station>
	<station code="CESE" name="CESE" netid="KO" source="Bogazici University Kandilli Observatory And Earthquake Research Institute (KOERI)" insttype="" lat="38.3306" lon="26.2997">
		<comp name="--.HNE" depth="0.0">
			<acc value="-0.206322132" flag="0"/>
			<vel value="0.101604" flag="0"/>
			<psa03 value="0.503036629009" flag="0"/>
			<psa10 value="0.0847882712299" flag="0"/>
			<psa30 value="0.0135251216386" flag="0"/>
		</comp>
		<comp name="--.HNN" depth="0.0">
			<acc value="-0.244700244" flag="0"/>
			<vel value="-0.258148" flag="0"/>
			<psa03 value="0.710685209925" flag="0"/>
			<psa10 value="0.408216707633" flag="0"/>
			<psa30 value="0.0213876696077" flag="0"/>
		</comp>
		<comp name="--.HNZ" depth="0.0">
			<acc value="-0.167717172" flag="0"/>
			<vel value="-0.091129" flag="0"/>
			<psa03 value="0.362501358021" flag="0"/>
			<psa10 value="0.153880081534" flag="0"/>
			<psa30 value="0.00872338802436" flag="0"/>
		</comp>
	</station>
	<station code="GMLD" name="GMLD" netid="KO" source="Bogazici University Kandilli Observatory And Earthquake Research Institute (KOERI)" insttype="" lat="38.0766" lon="26.9157">
		<comp name="--.HNE" depth="0.0">
			<acc value="5.51764461" flag="0"/>
			<vel value="3.277792" flag="0"/>
			<psa03 value="12.7470546655" flag="0"/>
			<psa10 value="2.48092269517" flag="0"/>
			<psa30 value="0.217609985797" flag="0"/>
		</comp>
		<comp name="--.HNN" depth="0.0">
			<acc value="6.958334328" flag="0"/>
			<vel value="3.816574" flag="0"/>
			<psa03 value="19.5935966067" flag="0"/>
			<psa10 value="3.20128877634" flag="0"/>
			<psa30 value="0.405237324095" flag="0"/>
		</comp>
		<comp name="--.HNZ" depth="0.0">
			<acc value="-3.65288775" flag="0"/>
			<vel value="1.367745" flag="0"/>
			<psa03 value="13.050541053" flag="0"/>
			<psa10 value="0.730042478196" flag="0"/>
			<psa30 value="0.235704628997" flag="0"/>
		</comp>
	</station>
	<station code="KUSD" name="KUSD" netid="KO" source="Bogazici University Kandilli Observatory And Earthquake Research Institute (KOERI)" insttype="" lat="37.8606" lon="27.2868">
		<comp name="--.HNE" depth="0.0">
			<acc value="-1.45641873" flag="0"/>
			<vel value="-0.741288" flag="0"/>
			<psa03 value="5.44432118572" flag="0"/>
			<psa10 value="0.865161705073" flag="0"/>
			<psa30 value="0.130759098842" flag="0"/>
		</comp>
		<comp name="--.HNN" depth="0.0">
			<acc value="1.297920522" flag="0"/>
			<vel value="0.588249" flag="0"/>
			<psa03 value="3.20828466777" flag="0"/>
			<psa10 value="0.602992955705" flag="0"/>
			<psa30 value="0.172272260409" flag="0"/>
		</comp>
		<comp name="--.HNZ" depth="0.0">
			<acc value="0.825737124" flag="0"/>
			<vel value="0.377279" flag="0"/>
			<psa03 value="2.73777562297" flag="0"/>
			<psa10 value="0.374995619219" flag="0"/>
			<psa30 value="0.126931403066" flag="0"/>
		</comp>
	</station>
</stationlist>
