<stationlist created="1642764333">
	<station code="MYT1" name="MYT1" netid="HI" source="ITSAK Strong Motion Network" insttype="" lat="39.085" lon="26.5694">
		<comp name=".HNE" depth="0.0">
			<acc value="0.092798682" flag="0"/>
			<vel value="0.075472" flag="0"/>
			<psa03 value="0.288945170341" flag="0"/>
			<psa10 value="0.130947463532" flag="0"/>
			<psa30 value="0.0408017604814" flag="0"/>
		</comp>
		<comp name=".HNN" depth="0.0">
			<acc value="0.089192676" flag="0"/>
			<vel value="0.075015" flag="0"/>
			<psa03 value="0.337758917761" flag="0"/>
			<psa10 value="0.144022478572" flag="0"/>
			<psa30 value="0.031300752906" flag="0"/>
		</comp>
		<comp name=".HNZ" depth="0.0">
			<acc value="0.07844259" flag="0"/>
			<vel value="0.08899" flag="0"/>
			<psa03 value="0.175255223324" flag="0"/>
			<psa10 value="0.139005087522" flag="0"/>
			<psa30 value="0.0160414233388" flag="0"/>
		</comp>
	</station>
	<station code="NAX1" name="NAX1" netid="HI" source="ITSAK Strong Motion Network" insttype="" lat="37.101394" lon="25.374103">
		<comp name=".HNE" depth="0.0">
			<acc value="0.037280388" flag="0"/>
			<vel value="0.02623" flag="0"/>
			<psa03 value="0.0783436037886" flag="0"/>
			<psa10 value="0.0245594446348" flag="0"/>
			<psa30 value="0.00490822006602" flag="0"/>
		</comp>
		<comp name=".HNN" depth="0.0">
			<acc value="0.03896247" flag="0"/>
			<vel value="0.031854" flag="0"/>
			<psa03 value="0.0753458759452" flag="0"/>
			<psa10 value="0.0151407627196" flag="0"/>
			<psa30 value="0.00964105068211" flag="0"/>
		</comp>
		<comp name=".HNZ" depth="0.0">
			<acc value="0.038133924" flag="0"/>
			<vel value="0.018781" flag="0"/>
			<psa03 value="0.0562856959258" flag="0"/>
			<psa10 value="0.017218590795" flag="0"/>
			<psa30 value="0.00546123373983" flag="0"/>
		</comp>
	</station>
	<station code="RDI1" name="RDI1" netid="HI" source="ITSAK Strong Motion Network" insttype="" lat="36.4514" lon="28.224">
		<comp name=".HNE" depth="0.0">
			<acc value="0.027252666" flag="0"/>
			<vel value="0.051939" flag="0"/>
			<psa03 value="0.0452343708911" flag="0"/>
			<psa10 value="0.0634703994645" flag="0"/>
			<psa30 value="0.0233044257392" flag="0"/>
		</comp>
		<comp name=".HNN" depth="0.0">
			<acc value="0.034919802" flag="0"/>
			<vel value="0.068549" flag="0"/>
			<psa03 value="0.04313148718" flag="0"/>
			<psa10 value="0.0736058515298" flag="0"/>
			<psa30 value="0.0300135196216" flag="0"/>
		</comp>
		<comp name=".HNZ" depth="0.0">
			<acc value="0.016174242" flag="0"/>
			<vel value="0.025931" flag="0"/>
			<psa03 value="0.0352121166086" flag="0"/>
			<psa10 value="0.037135136649" flag="0"/>
			<psa30 value="0.00955559306746" flag="0"/>
		</comp>
	</station>
	<station code="ASTA" name="ASTA" netid="HL" source="National Observatory of Athens Seismic Network" insttype="" lat="36.54543" lon="26.3528">
		<comp name="00.HNE" depth="0.0">
			<acc value="0.026087214" flag="0"/>
			<vel value="0.020299" flag="0"/>
			<psa03 value="0.049932302586" flag="0"/>
			<psa10 value="0.0255097691034" flag="0"/>
			<psa30 value="0.00665987745513" flag="0"/>
		</comp>
		<comp name="00.HNN" depth="0.0">
			<acc value="0.03085908" flag="0"/>
			<vel value="0.020889" flag="0"/>
			<psa03 value="0.0836231841695" flag="0"/>
			<psa10 value="0.0206292892055" flag="0"/>
			<psa30 value="0.00714309328661" flag="0"/>
		</comp>
		<comp name="00.HNZ" depth="0.0">
			<acc value="0.021155412" flag="0"/>
			<vel value="0.027065" flag="0"/>
			<psa03 value="0.0553461095868" flag="0"/>
			<psa10 value="0.0202628505333" flag="0"/>
			<psa30 value="0.00695786055121" flag="0"/>
		</comp>
	</station>
	<station code="KLNA" name="KLNA" netid="HL" source="National Observatory of Athens Seismic Network" insttype="" lat="36.95708" lon="26.97274">
		<comp name="00.HNE" depth="0.0">
			<acc value="0.28383438" flag="0"/>
			<vel value="0.137904" flag="0"/>
			<psa03 value="0.901287010118" flag="0"/>
			<psa10 value="0.0463041570513" flag="0"/>
			<psa30 value="0.0193313177915" flag="0"/>
		</comp>
		<comp name="00.HNN" depth="0.0">
			<acc value="0.300485574" flag="0"/>
			<vel value="0.137477" flag="0"/>
			<psa03 value="1.21730121546" flag="0"/>
			<psa10 value="0.0596006460141" flag="0"/>
			<psa30 value="0.0101014479882" flag="0"/>
		</comp>
		<comp name="00.HNZ" depth="0.0">
			<acc value="0.25566402" flag="0"/>
			<vel value="0.128403" flag="0"/>
			<psa03 value="0.470777498037" flag="0"/>
			<psa10 value="0.0516235579962" flag="0"/>
			<psa30 value="0.014447258517" flag="0"/>
		</comp>
	</station>
	<station code="PRK" name="PRK" netid="HL" source="National Observatory of Athens Seismic Network" insttype="" lat="39.24565" lon="26.26499">
		<comp name=".HNE" depth="0.0">
			<acc value="0.126638202" flag="0"/>
			<vel value="0.116328" flag="0"/>
			<psa03 value="0.354805698483" flag="0"/>
			<psa10 value="0.168436958457" flag="0"/>
			<psa30 value="0.0150056412556" flag="0"/>
		</comp>
		<comp name=".HNN" depth="0.0">
			<acc value="0.12725928" flag="0"/>
			<vel value="0.092609" flag="0"/>
			<psa03 value="0.464424104698" flag="0"/>
			<psa10 value="0.135231977238" flag="0"/>
			<psa30 value="0.0199952921377" flag="0"/>
		</comp>
		<comp name=".HNZ" depth="0.0">
			<acc value="0.084984564" flag="0"/>
			<vel value="0.081159" flag="0"/>
			<psa03 value="0.261518197684" flag="0"/>
			<psa10 value="0.0499000881972" flag="0"/>
			<psa30 value="0.00922226362816" flag="0"/>
		</comp>
	</station>
	<station code="RODB" name="RODB" netid="HL" source="National Observatory of Athens Seismic Network" insttype="" lat="36.4471" lon="28.22116">
		<comp name="00.HNE" depth="0.0">
			<acc value="0.029144052" flag="0"/>
			<vel value="0.057391" flag="0"/>
			<psa03 value="0.0613863074803" flag="0"/>
			<psa10 value="0.0510235650054" flag="0"/>
			<psa30 value="0.0241097854583" flag="0"/>
		</comp>
		<comp name="00.HNN" depth="0.0">
			<acc value="0.024110862" flag="0"/>
			<vel value="0.06215" flag="0"/>
			<psa03 value="0.0509166311316" flag="0"/>
			<psa10 value="0.0724179459441" flag="0"/>
			<psa30 value="0.027460529312" flag="0"/>
		</comp>
		<comp name="00.HNZ" depth="0.0">
			<acc value="0.012157176" flag="0"/>
			<vel value="0.023747" flag="0"/>
			<psa03 value="0.0244292448136" flag="0"/>
			<psa10 value="0.029995622739" flag="0"/>
			<psa30 value="0.00805046523683" flag="0"/>
		</comp>
	</station>
	<station code="THRA" name="THRA" netid="HL" source="National Observatory of Athens Seismic Network" insttype="" lat="36.41502" lon="25.43244">
		<comp name="00.HNE" depth="0.0">
			<acc value="0.070605318" flag="0"/>
			<vel value="0.089985" flag="0"/>
			<psa03 value="0.198252717526" flag="0"/>
			<psa10 value="0.092495563742" flag="0"/>
			<psa30 value="0.0340635841647" flag="0"/>
		</comp>
		<comp name="00.HNN" depth="0.0">
			<acc value="0.090292134" flag="0"/>
			<vel value="0.086337" flag="0"/>
			<psa03 value="0.251003779129" flag="0"/>
			<psa10 value="0.106766537965" flag="0"/>
			<psa30 value="0.0429328317826" flag="0"/>
		</comp>
		<comp name="00.HNZ" depth="0.0">
			<acc value="0.053335086" flag="0"/>
			<vel value="0.038855" flag="0"/>
			<psa03 value="0.130960438772" flag="0"/>
			<psa10 value="0.032733845784" flag="0"/>
			<psa30 value="0.0081990093628" flag="0"/>
		</comp>
	</station>
	<station code="TNSA" name="TNSA" netid="HL" source="National Observatory of Athens Seismic Network" insttype="" lat="37.53942" lon="25.1631">
		<comp name="00.HNE" depth="0.0">
			<acc value="0.024620658" flag="0"/>
			<vel value="0.016222" flag="0"/>
			<psa03 value="0.073377218854" flag="0"/>
			<psa10 value="0.0271527029304" flag="0"/>
			<psa30 value="0.00339056441753" flag="0"/>
		</comp>
		<comp name="00.HNN" depth="0.0">
			<acc value="0.03739575" flag="0"/>
			<vel value="0.017185" flag="0"/>
			<psa03 value="0.0801332920533" flag="0"/>
			<psa10 value="0.0152937810663" flag="0"/>
			<psa30 value="0.00339548606026" flag="0"/>
		</comp>
		<comp name="00.HNZ" depth="0.0">
			<acc value="0.027414948" flag="0"/>
			<vel value="0.019249" flag="0"/>
			<psa03 value="0.0734667032672" flag="0"/>
			<psa10 value="0.0128575679159" flag="0"/>
			<psa30 value="0.00232883185448" flag="0"/>
		</comp>
	</station>
	<station code="AKS" name="AKS" netid="KO" source="Bogazici University Kandilli Observatory And Earthquake Research Institute (KOERI)" insttype="" lat="38.8785" lon="27.8129">
		<comp name=".HNE" depth="0.0">
			<acc value="0.062313636" flag="0"/>
			<vel value="0.051531" flag="0"/>
			<psa03 value="0.179460990746" flag="0"/>
			<psa10 value="0.0576838898826" flag="0"/>
			<psa30 value="0.0108209026706" flag="0"/>
		</comp>
		<comp name=".HNN" depth="0.0">
			<acc value="0.071880216" flag="0"/>
			<vel value="0.058116" flag="0"/>
			<psa03 value="0.137805996384" flag="0"/>
			<psa10 value="0.0578530154236" flag="0"/>
			<psa30 value="0.0190391511823" flag="0"/>
		</comp>
		<comp name=".HNZ" depth="0.0">
			<acc value="0.02375121" flag="0"/>
			<vel value="0.018803" flag="0"/>
			<psa03 value="0.0565094069589" flag="0"/>
			<psa10 value="0.0249500440986" flag="0"/>
			<psa30 value="0.010647750331" flag="0"/>
		</comp>
	</station>
	<station code="CESE" name="CESE" netid="KO" source="Bogazici University Kandilli Observatory And Earthquake Research Institute (KOERI)" insttype="" lat="38.3306" lon="26.2997">
		<comp name=".HNE" depth="0.0">
			<acc value="0.206322132" flag="0"/>
			<vel value="0.101604" flag="0"/>
			<psa03 value="0.503036629009" flag="0"/>
			<psa10 value="0.0847882712299" flag="0"/>
			<psa30 value="0.0135251216386" flag="0"/>
		</comp>
		<comp name=".HNN" depth="0.0">
			<acc value="0.244700244" flag="0"/>
			<vel value="0.258148" flag="0"/>
			<psa03 value="0.710685209925" flag="0"/>
			<psa10 value="0.408216707633" flag="0"/>
			<psa30 value="0.0213876696077" flag="0"/>
		</comp>
		<comp name=".HNZ" depth="0.0">
			<acc value="0.167717172" flag="0"/>
			<vel value="0.091129" flag="0"/>
			<psa03 value="0.362501358021" flag="0"/>
			<psa10 value="0.153880081534" flag="0"/>
			<psa30 value="0.00872338802436" flag="0"/>
		</comp>
	</station>
	<station code="DATC" name="DATC" netid="KO" source="Bogazici University Kandilli Observatory And Earthquake Research Institute (KOERI)" insttype="" lat="36.7584" lon="27.6602">
		<comp name=".HNE" depth="0.0">
			<acc value="0.450310314" flag="0"/>
			<vel value="0.44369" flag="0"/>
			<psa03 value="1.01394788638" flag="0"/>
			<psa10 value="0.544294312576" flag="0"/>
			<psa30 value="0.10929044584" flag="0"/>
		</comp>
		<comp name=".HNN" depth="0.0">
			<acc value="0.148973958" flag="0"/>
			<vel value="0.03241" flag="0"/>
			<psa03 value="0.111766032132" flag="0"/>
			<psa10 value="0.0144159389724" flag="0"/>
			<psa30 value="0.00350197251201" flag="0"/>
		</comp>
		<comp name=".HNZ" depth="0.0">
			<acc value="0.317421144" flag="0"/>
			<vel value="0.106301" flag="0"/>
			<psa03 value="0.349928797962" flag="0"/>
			<psa10 value="0.0576516754938" flag="0"/>
			<psa30 value="0.0234619183065" flag="0"/>
		</comp>
	</station>
	<station code="EZNE" name="EZNE" netid="KO" source="Bogazici University Kandilli Observatory And Earthquake Research Institute (KOERI)" insttype="" lat="39.756" lon="26.3655">
		<comp name=".HNE" depth="0.0">
			<acc value="0.165342204" flag="0"/>
			<vel value="0.132079" flag="0"/>
			<psa03 value="0.435699608049" flag="0"/>
			<psa10 value="0.128636081138" flag="0"/>
			<psa30 value="0.0198400366807" flag="0"/>
		</comp>
		<comp name=".HNN" depth="0.0">
			<acc value="0.199205082" flag="0"/>
			<vel value="0.152318" flag="0"/>
			<psa03 value="0.846477807011" flag="0"/>
			<psa10 value="0.145544608441" flag="0"/>
			<psa30 value="0.0287889254265" flag="0"/>
		</comp>
		<comp name=".HNZ" depth="0.0">
			<acc value="0.103482162" flag="0"/>
			<vel value="0.070297" flag="0"/>
			<psa03 value="0.402635117358" flag="0"/>
			<psa10 value="0.0631200679867" flag="0"/>
			<psa30 value="0.0207304065924" flag="0"/>
		</comp>
	</station>
	<station code="FOCM" name="FOCM" netid="KO" source="Bogazici University Kandilli Observatory And Earthquake Research Institute (KOERI)" insttype="" lat="38.7131" lon="26.7309">
		<comp name=".HNE" depth="0.0">
			<acc value="0.168724728" flag="0"/>
			<vel value="0.132118" flag="0"/>
			<psa03 value="0.436594452181" flag="0"/>
			<psa10 value="0.117679162159" flag="0"/>
			<psa30 value="0.0122146224068" flag="0"/>
		</comp>
		<comp name=".HNN" depth="0.0">
			<acc value="0.204678096" flag="0"/>
			<vel value="0.162343" flag="0"/>
			<psa03 value="0.665540323447" flag="0"/>
			<psa10 value="0.11802144004" flag="0"/>
			<psa30 value="0.0146485984468" flag="0"/>
		</comp>
		<comp name=".HNZ" depth="0.0">
			<acc value="0.118842138" flag="0"/>
			<vel value="0.059308" flag="0"/>
			<psa03 value="0.317311729337" flag="0"/>
			<psa10 value="0.0618637068249" flag="0"/>
			<psa30 value="0.00929519342495" flag="0"/>
		</comp>
	</station>
	<station code="GMLD" name="GMLD" netid="KO" source="Bogazici University Kandilli Observatory And Earthquake Research Institute (KOERI)" insttype="" lat="38.0766" lon="26.9157">
		<comp name=".HNE" depth="0.0">
			<acc value="5.51764461" flag="0"/>
			<vel value="3.277792" flag="0"/>
			<psa03 value="12.7470546655" flag="0"/>
			<psa10 value="2.48092269517" flag="0"/>
			<psa30 value="0.217609985797" flag="0"/>
		</comp>
		<comp name=".HNN" depth="0.0">
			<acc value="6.958334328" flag="0"/>
			<vel value="3.816574" flag="0"/>
			<psa03 value="19.5935966067" flag="0"/>
			<psa10 value="3.20128877634" flag="0"/>
			<psa30 value="0.405237324095" flag="0"/>
		</comp>
		<comp name=".HNZ" depth="0.0">
			<acc value="3.65288775" flag="0"/>
			<vel value="1.367745" flag="0"/>
			<psa03 value="13.050541053" flag="0"/>
			<psa10 value="0.730042478196" flag="0"/>
			<psa30 value="0.235704628997" flag="0"/>
		</comp>
	</station>
	<station code="GOMA" name="GOMA" netid="KO" source="Bogazici University Kandilli Observatory And Earthquake Research Institute (KOERI)" insttype="" lat="38.7077" lon="27.9175">
		<comp name=".HNE" depth="0.0">
			<acc value="0.129593448" flag="0"/>
			<vel value="0.080714" flag="0"/>
			<psa03 value="0.576906012136" flag="0"/>
			<psa10 value="0.0522195241883" flag="0"/>
			<psa30 value="0.00842585235035" flag="0"/>
		</comp>
		<comp name=".HNN" depth="0.0">
			<acc value="0.066387006" flag="0"/>
			<vel value="0.050799" flag="0"/>
			<psa03 value="0.222547735719" flag="0"/>
			<psa10 value="0.0763964229566" flag="0"/>
			<psa30 value="0.0105815318652" flag="0"/>
		</comp>
		<comp name=".HNZ" depth="0.0">
			<acc value="0.051573138" flag="0"/>
			<vel value="0.02949" flag="0"/>
			<psa03 value="0.161206170446" flag="0"/>
			<psa10 value="0.0417136066523" flag="0"/>
			<psa30 value="0.0131202046687" flag="0"/>
		</comp>
	</station>
	<station code="GORD" name="GORD" netid="KO" source="Bogazici University Kandilli Observatory And Earthquake Research Institute (KOERI)" insttype="" lat="38.9088" lon="28.1769">
		<comp name=".HNE" depth="0.0">
			<acc value="0.192283362" flag="0"/>
			<vel value="0.266555" flag="0"/>
			<psa03 value="0.425722095973" flag="0"/>
			<psa10 value="0.547068776808" flag="0"/>
			<psa30 value="0.0456768713145" flag="0"/>
		</comp>
		<comp name=".HNN" depth="0.0">
			<acc value="0.152350974" flag="0"/>
			<vel value="0.198509" flag="0"/>
			<psa03 value="0.38223267114" flag="0"/>
			<psa10 value="0.210629754142" flag="0"/>
			<psa30 value="0.0651849208222" flag="0"/>
		</comp>
		<comp name=".HNZ" depth="0.0">
			<acc value="0.152134224" flag="0"/>
			<vel value="0.146012" flag="0"/>
			<psa03 value="0.292166609217" flag="0"/>
			<psa10 value="0.203997616855" flag="0"/>
			<psa30 value="0.0377785295802" flag="0"/>
		</comp>
	</station>
	<station code="KUSD" name="KUSD" netid="KO" source="Bogazici University Kandilli Observatory And Earthquake Research Institute (KOERI)" insttype="" lat="37.8606" lon="27.2868">
		<comp name=".HNE" depth="0.0">
			<acc value="1.45641873" flag="0"/>
			<vel value="0.741288" flag="0"/>
			<psa03 value="5.44432118572" flag="0"/>
			<psa10 value="0.865161705073" flag="0"/>
			<psa30 value="0.130759098842" flag="0"/>
		</comp>
		<comp name=".HNN" depth="0.0">
			<acc value="1.297920522" flag="0"/>
			<vel value="0.588249" flag="0"/>
			<psa03 value="3.20828466777" flag="0"/>
			<psa10 value="0.602992955705" flag="0"/>
			<psa30 value="0.172272260409" flag="0"/>
		</comp>
		<comp name=".HNZ" depth="0.0">
			<acc value="0.825737124" flag="0"/>
			<vel value="0.377279" flag="0"/>
			<psa03 value="2.73777562297" flag="0"/>
			<psa10 value="0.374995619219" flag="0"/>
			<psa30 value="0.126931403066" flag="0"/>
		</comp>
	</station>
	<station code="NAZL" name="NAZL" netid="KO" source="Bogazici University Kandilli Observatory And Earthquake Research Institute (KOERI)" insttype="" lat="37.9641" lon="28.2922">
		<comp name=".HNE" depth="0.0">
			<acc value="0.391533324" flag="0"/>
			<vel value="0.30824" flag="0"/>
			<psa03 value="1.79939732357" flag="0"/>
			<psa10 value="0.452128946319" flag="0"/>
			<psa30 value="0.0274408427411" flag="0"/>
		</comp>
		<comp name=".HNN" depth="0.0">
			<acc value="0.410498388" flag="0"/>
			<vel value="0.31165" flag="0"/>
			<psa03 value="0.895604749878" flag="0"/>
			<psa10 value="0.307727948679" flag="0"/>
			<psa30 value="0.0419668475417" flag="0"/>
		</comp>
		<comp name=".HNZ" depth="0.0">
			<acc value="0.178799472" flag="0"/>
			<vel value="0.11253" flag="0"/>
			<psa03 value="0.597845364833" flag="0"/>
			<psa10 value="0.138405094531" flag="0"/>
			<psa30 value="0.019023938832" flag="0"/>
		</comp>
	</station>
	<station code="SOMA" name="SOMA" netid="KO" source="Bogazici University Kandilli Observatory And Earthquake Research Institute (KOERI)" insttype="" lat="39.1564" lon="27.5341">
		<comp name=".HNE" depth="0.0">
			<acc value="0.2864772" flag="0"/>
			<vel value="0.199196" flag="0"/>
			<psa03 value="0.891891146729" flag="0"/>
			<psa10 value="0.149672077002" flag="0"/>
			<psa30 value="0.0627115716403" flag="0"/>
		</comp>
		<comp name=".HNN" depth="0.0">
			<acc value="0.385231254" flag="0"/>
			<vel value="0.27136" flag="0"/>
			<psa03 value="0.773771721256" flag="0"/>
			<psa10 value="0.244809220622" flag="0"/>
			<psa30 value="0.0668453041098" flag="0"/>
		</comp>
		<comp name=".HNZ" depth="0.0">
			<acc value="0.175294854" flag="0"/>
			<vel value="0.169835" flag="0"/>
			<psa03 value="0.483394800304" flag="0"/>
			<psa10 value="0.12306701868" flag="0"/>
			<psa30 value="0.0618493893188" flag="0"/>
		</comp>
	</station>
	<station code="YKAV" name="YKAV" netid="KO" source="Bogazici University Kandilli Observatory And Earthquake Research Institute (KOERI)" insttype="" lat="37.1246" lon="27.2801">
		<comp name=".HNE" depth="0.0">
			<acc value="0.1320492" flag="0"/>
			<vel value="0.101513" flag="0"/>
			<psa03 value="0.309123905526" flag="0"/>
			<psa10 value="0.123413323359" flag="0"/>
			<psa30 value="0.0139251169658" flag="0"/>
		</comp>
		<comp name=".HNN" depth="0.0">
			<acc value="0.14113179" flag="0"/>
			<vel value="0.145475" flag="0"/>
			<psa03 value="0.308586999046" flag="0"/>
			<psa10 value="0.129952844279" flag="0"/>
			<psa30 value="0.0153698428175" flag="0"/>
		</comp>
		<comp name=".HNZ" depth="0.0">
			<acc value="0.104659242" flag="0"/>
			<vel value="0.079271" flag="0"/>
			<psa03 value="0.253777795939" flag="0"/>
			<psa10 value="0.0845104221268" flag="0"/>
			<psa30 value="0.0138284737995" flag="0"/>
		</comp>
	</station>
</stationlist>
