<?xml version="1.0" encoding="UTF-8" standalone="yes"?>
<!DOCTYPE earthquake SYSTEM "stationlist.dtd">
<stationlist created="" xmlns="ch.ethz.sed.shakemap.usgs.xml">
  <station code="MYT1" name="MYT1" netid="HI" insttype="CMG-5TD,ACCELEROMETER,GURALP" lat="39.085" lon="26.5694">
    <comp name="--.HNN">
      <acc value="0.0893330042" flag="0"/>
      <vel value="0.0738205423" flag="0"/>
      <psa03 value="0.3398199369" flag="0"/>
      <psa10 value="0.1437989981" flag="0"/>
      <psa30 value="0.0310579659" flag="0"/>
    </comp>
    <comp name="--.HNZ">
      <acc value="0.0786847002" flag="0"/>
      <vel value="0.0873460639" flag="0"/>
      <psa03 value="0.1753348468" flag="0"/>
      <psa10 value="0.1387854272" flag="0"/>
      <psa30 value="0.0159149546" flag="0"/>
    </comp>
    <comp name="--.HNE">
      <acc value="0.0930355930" flag="0"/>
      <vel value="0.0739507194" flag="0"/>
      <psa03 value="0.2831988654" flag="0"/>
      <psa10 value="0.1307484068" flag="0"/>
      <psa30 value="0.0406881630" flag="0"/>
    </comp>
  </station>
  <station code="EAG2" name="EAG2" netid="HL" insttype="SMART24" lat="38.5438" lon="26.1079">
    <comp name="--.HHN">
      <acc value="6.8624528209" flag="0"/>
      <vel value="3.0319021933" flag="0"/>
      <psa03 value="13.0896586240" flag="0"/>
      <psa10 value="1.7163374776" flag="0"/>
      <psa30 value="0.3667480540" flag="0"/>
    </comp>
    <comp name="--.HHE">
      <acc value="2.3213138539" flag="0"/>
      <vel value="1.7148604385" flag="0"/>
      <psa03 value="6.6528933443" flag="0"/>
      <psa10 value="0.7879708358" flag="0"/>
      <psa30 value="0.0961263890" flag="0"/>
    </comp>
    <comp name="--.HHZ">
      <acc value="1.4365506822" flag="0"/>
      <vel value="0.9078602937" flag="0"/>
      <psa03 value="2.6883592662" flag="0"/>
      <psa10 value="0.7615967337" flag="0"/>
      <psa30 value="0.0643525192" flag="0"/>
    </comp>
  </station>
  <station code="KLNA" name="KLNA" netid="HL" insttype="CMG-5" lat="36.9571" lon="26.9727">
    <comp name="00.HNZ">
      <acc value="0.2537224201" flag="0"/>
      <vel value="0.1272714697" flag="0"/>
      <psa03 value="0.4689828009" flag="0"/>
      <psa10 value="0.0514537344" flag="0"/>
      <psa30 value="0.0135587024" flag="0"/>
    </comp>
    <comp name="00.HNN">
      <acc value="0.3008637277" flag="0"/>
      <vel value="0.1355298522" flag="0"/>
      <psa03 value="1.2177378164" flag="0"/>
      <psa10 value="0.0594372575" flag="0"/>
      <psa30 value="0.0098055707" flag="0"/>
    </comp>
    <comp name="00.HNE">
      <acc value="0.2831025053" flag="0"/>
      <vel value="0.1319455373" flag="0"/>
      <psa03 value="0.9015045999" flag="0"/>
      <psa10 value="0.0456994908" flag="0"/>
      <psa30 value="0.0186001971" flag="0"/>
    </comp>
  </station>
  <station code="PRK" name="PRK" netid="HL" insttype="120" lat="39.2456" lon="26.265">
    <comp name="--.HHE">
      <acc value="0.1288790002" flag="0"/>
      <vel value="0.1179201942" flag="0"/>
      <psa03 value="0.3830165228" flag="0"/>
      <psa10 value="0.1792589805" flag="0"/>
      <psa30 value="0.0191155108" flag="0"/>
    </comp>
    <comp name="--.HHN">
      <acc value="0.1047714833" flag="0"/>
      <vel value="0.0846829207" flag="0"/>
      <psa03 value="0.3642615738" flag="0"/>
      <psa10 value="0.1093413758" flag="0"/>
      <psa30 value="0.0146223296" flag="0"/>
    </comp>
    <comp name="--.HHZ">
      <acc value="0.0866359088" flag="0"/>
      <vel value="0.0825034887" flag="0"/>
      <psa03 value="0.2614902328" flag="0"/>
      <psa10 value="0.0516882195" flag="0"/>
      <psa30 value="0.0093864326" flag="0"/>
    </comp>
  </station>
  <station code="CHOS" name="CHOS" netid="HT" insttype="100" lat="38.3869" lon="26.0506">
    <comp name="--.HHN">
      <acc value="0.3151956784" flag="0"/>
      <vel value="0.1650303699" flag="0"/>
      <psa03 value="0.9920578499" flag="0"/>
      <psa10 value="0.2534829322" flag="0"/>
      <psa30 value="0.0157701459" flag="0"/>
    </comp>
    <comp name="--.HHZ">
      <acc value="0.1513640565" flag="0"/>
      <vel value="0.0950821230" flag="0"/>
      <psa03 value="0.4067720154" flag="0"/>
      <psa10 value="0.1394371903" flag="0"/>
      <psa30 value="0.0147665338" flag="0"/>
    </comp>
    <comp name="--.HHE">
      <acc value="0.3058909733" flag="0"/>
      <vel value="0.2484807813" flag="0"/>
      <psa03 value="1.2864548579" flag="0"/>
      <psa10 value="0.2694235889" flag="0"/>
      <psa30 value="0.0121621180" flag="0"/>
    </comp>
  </station>
  <station code="AKS" name="AKS" netid="KO" insttype="100" lat="38.8785" lon="27.8129">
    <comp name="--.HNE">
      <acc value="0.0099076000" flag="0"/>
      <vel value="0.0078523852" flag="0"/>
      <psa03 value="0.0284423135" flag="0"/>
      <psa10 value="0.0091353257" flag="0"/>
      <psa30 value="0.0017192281" flag="0"/>
    </comp>
    <comp name="--.HNZ">
      <acc value="0.0037758862" flag="0"/>
      <vel value="0.0030461805" flag="0"/>
      <psa03 value="0.0087483137" flag="0"/>
      <psa10 value="0.0039925050" flag="0"/>
      <psa30 value="0.0016718808" flag="0"/>
    </comp>
    <comp name="--.HNN">
      <acc value="0.0114143329" flag="0"/>
      <vel value="0.0095366569" flag="0"/>
      <psa03 value="0.0215192377" flag="0"/>
      <psa10 value="0.0092029721" flag="0"/>
      <psa30 value="0.0030800992" flag="0"/>
    </comp>
  </station>
  <station code="CESE" name="CESE" netid="KO" insttype="100" lat="38.3306" lon="26.2997">
    <comp name="--.HNZ">
      <acc value="0.0269365918" flag="0"/>
      <vel value="0.0143573136" flag="0"/>
      <psa03 value="0.0589198271" flag="0"/>
      <psa10 value="0.0244961749" flag="0"/>
      <psa30 value="0.0013425924" flag="0"/>
    </comp>
    <comp name="--.HNN">
      <acc value="0.0391469188" flag="0"/>
      <vel value="0.0409004966" flag="0"/>
      <psa03 value="0.1128306137" flag="0"/>
      <psa10 value="0.0649708175" flag="0"/>
      <psa30 value="0.0033728536" flag="0"/>
    </comp>
    <comp name="--.HNE">
      <acc value="0.0329665197" flag="0"/>
      <vel value="0.0155904656" flag="0"/>
      <psa03 value="0.0795733339" flag="0"/>
      <psa10 value="0.0134331888" flag="0"/>
      <psa30 value="0.0020903055" flag="0"/>
    </comp>
  </station>
  <station code="FOCM" name="FOCM" netid="KO" insttype="100" lat="38.7131" lon="26.7309">
    <comp name="--.HNE">
      <acc value="0.0269000154" flag="0"/>
      <vel value="0.0209696155" flag="0"/>
      <psa03 value="0.0702108882" flag="0"/>
      <psa10 value="0.0186811196" flag="0"/>
      <psa30 value="0.0019283255" flag="0"/>
    </comp>
    <comp name="--.HNN">
      <acc value="0.0325873580" flag="0"/>
      <vel value="0.0257015216" flag="0"/>
      <psa03 value="0.1067027847" flag="0"/>
      <psa10 value="0.0187792788" flag="0"/>
      <psa30 value="0.0023174458" flag="0"/>
    </comp>
    <comp name="--.HNZ">
      <acc value="0.0188682452" flag="0"/>
      <vel value="0.0092017892" flag="0"/>
      <psa03 value="0.0509639014" flag="0"/>
      <psa10 value="0.0097980238" flag="0"/>
      <psa30 value="0.0014653973" flag="0"/>
    </comp>
  </station>
  <station code="GMLD" name="GMLD" netid="KO" insttype="100" lat="38.0764" lon="26.8747">
    <comp name="--.HNE">
      <acc value="0.8849445269" flag="0"/>
      <vel value="0.5182760202" flag="0"/>
      <psa03 value="1.9864476817" flag="0"/>
      <psa10 value="0.3940475971" flag="0"/>
      <psa30 value="0.0345400813" flag="0"/>
    </comp>
    <comp name="--.HNZ">
      <acc value="0.5950590613" flag="0"/>
      <vel value="0.2153278902" flag="0"/>
      <psa03 value="2.0477176120" flag="0"/>
      <psa10 value="0.1157620958" flag="0"/>
      <psa30 value="0.0377945594" flag="0"/>
    </comp>
    <comp name="--.HNN">
      <acc value="1.1084286206" flag="0"/>
      <vel value="0.6024720478" flag="0"/>
      <psa03 value="3.1058907390" flag="0"/>
      <psa10 value="0.5074173558" flag="0"/>
      <psa30 value="0.0638149705" flag="0"/>
    </comp>
  </station>
  <station code="KRBN" name="KRBN" netid="KO" insttype="100" lat="38.5936" lon="26.5537">
    <comp name="--.HNE">
      <acc value="0.2962641933" flag="0"/>
      <vel value="0.1813753403" flag="0"/>
      <psa03 value="0.9113141213" flag="0"/>
      <psa10 value="0.2892813805" flag="0"/>
      <psa30 value="0.0277750219" flag="0"/>
    </comp>
  </station>
  <station code="KUSD" name="KUSD" netid="KO" insttype="100" lat="37.86" lon="27.2815">
    <comp name="--.HNE">
      <acc value="0.2383196132" flag="0"/>
      <vel value="0.1215168241" flag="0"/>
      <psa03 value="0.8591706764" flag="0"/>
      <psa10 value="0.1370669339" flag="0"/>
      <psa30 value="0.0204419613" flag="0"/>
    </comp>
    <comp name="--.HNN">
      <acc value="0.2097315362" flag="0"/>
      <vel value="0.0942820402" flag="0"/>
      <psa03 value="0.5048941662" flag="0"/>
      <psa10 value="0.0959365255" flag="0"/>
      <psa30 value="0.0272273372" flag="0"/>
    </comp>
    <comp name="--.HNZ">
      <acc value="0.1349610629" flag="0"/>
      <vel value="0.0537095869" flag="0"/>
      <psa03 value="0.4326776155" flag="0"/>
      <psa10 value="0.0592470369" flag="0"/>
      <psa30 value="0.0201643779" flag="0"/>
    </comp>
  </station>
  <station code="YKAV" name="YKAV" netid="KO" insttype="100" lat="37.1246" lon="27.2801">
    <comp name="--.HNE">
      <acc value="0.0210093883" flag="0"/>
      <vel value="0.0155496198" flag="0"/>
      <psa03 value="0.0495673495" flag="0"/>
      <psa10 value="0.0194508873" flag="0"/>
      <psa30 value="0.0021087306" flag="0"/>
    </comp>
    <comp name="--.HNZ">
      <acc value="0.0166734942" flag="0"/>
      <vel value="0.0124024885" flag="0"/>
      <psa03 value="0.0411607526" flag="0"/>
      <psa10 value="0.0134809314" flag="0"/>
      <psa30 value="0.0021206279" flag="0"/>
    </comp>
    <comp name="--.HNN">
      <acc value="0.0224403735" flag="0"/>
      <vel value="0.0232073904" flag="0"/>
      <psa03 value="0.0495689864" flag="0"/>
      <psa10 value="0.0206557643" flag="0"/>
      <psa30 value="0.0024598662" flag="0"/>
    </comp>
  </station>
  <station code="AYDN" name="AYDN" netid="TU" source="ODC" insttype="T" lat="37.6608" lon="27.8792">
    <comp name="--.HHE">
      <acc value="0.1390534901" flag="0"/>
      <vel value="0.1027498319" flag="0"/>
      <psa03 value="0.5401982844" flag="0"/>
      <psa10 value="0.2052486156" flag="0"/>
      <psa30 value="0.0158611677" flag="0"/>
    </comp>
    <comp name="--.HHN">
      <acc value="0.2413443055" flag="0"/>
      <vel value="0.1107675950" flag="0"/>
      <psa03 value="0.9600332982" flag="0"/>
      <psa10 value="0.1305886779" flag="0"/>
      <psa30 value="0.0125558895" flag="0"/>
    </comp>
    <comp name="--.HHZ">
      <acc value="0.1190675058" flag="0"/>
      <vel value="0.1055503204" flag="0"/>
      <psa03 value="0.3130457005" flag="0"/>
      <psa10 value="0.0880934663" flag="0"/>
      <psa30 value="0.0266581756" flag="0"/>
    </comp>
  </station>
</stationlist>
