<stationlist xmlns:esm="https://esm-db.eu/esmws/shakemap/1/" created="1780710967">
	<station code="KOS2" name="KOS2" netid="HI" source="ITSAK Strong Motion Network" insttype="" lat="36.8941" lon="27.2888" esm:processing="manual (Paolucci et al 2011)" esm:quality="good">
		<comp name="--.HNE" depth="0.0">
			<acc value="0.237397181682824" flag="0"/>
			<vel value="0.352830809314958" flag="0"/>
			<psa03 value="0.608603858685432" flag="0"/>
			<psa10 value="0.37487789382066" flag="0"/>
			<psa30 value="0.0455026343262087" flag="0"/>
		</comp>
		<comp name="--.HNN" depth="0.0">
			<acc value="0.340464378589072" flag="0"/>
			<vel value="0.322275413092762" flag="0"/>
			<psa03 value="0.808785661414088" flag="0"/>
			<psa10 value="0.275553614074585" flag="0"/>
			<psa30 value="0.0636975663178238" flag="0"/>
		</comp>
		<comp name="--.HNZ" depth="0.0">
			<acc value="0.11003343860957" flag="0"/>
			<vel value="0.15647610489256" flag="0"/>
			<psa03 value="0.229807369443723" flag="0"/>
			<psa10 value="0.141722308407395" flag="0"/>
			<psa30 value="0.0480846020355645" flag="0"/>
		</comp>
	</station>
	<station code="KSS1" name="KSS1" netid="HI" source="ITSAK Strong Motion Network" insttype="" lat="35.4189" lon="26.9207" esm:processing="automatic (Paolucci et al 2011)" esm:quality="best">
		<comp name="--.HNE" depth="0.0">
			<acc value="0.00264225148317832" flag="0"/>
			<vel value="0.00501645549945209" flag="0"/>
			<psa03 value="0.00786514537623938" flag="0"/>
			<psa10 value="0.00359820562908885" flag="0"/>
			<psa30 value="0.00157909606569788" flag="0"/>
		</comp>
		<comp name="--.HNN" depth="0.0">
			<acc value="0.0023261214210674" flag="0"/>
			<vel value="0.00521065328533303" flag="0"/>
			<psa03 value="0.00878757041466281" flag="0"/>
			<psa10 value="0.00450788440646838" flag="0"/>
			<psa30 value="0.00177860240701387" flag="0"/>
		</comp>
		<comp name="--.HNZ" depth="0.0">
			<acc value="0.00196608544966597" flag="0"/>
			<vel value="0.00545219070827935" flag="0"/>
			<psa03 value="0.00317395016747582" flag="0"/>
			<psa10 value="0.00292538902704098" flag="0"/>
			<psa30 value="0.00214505230752133" flag="0"/>
		</comp>
	</station>
	<station code="MYT1" name="MYT1" netid="HI" source="ITSAK Strong Motion Network" insttype="" lat="39.085" lon="26.5694" esm:processing="manual (Paolucci et al 2011)" esm:quality="best">
		<comp name="--.HNE" depth="0.0">
			<acc value="0.0929269338724829" flag="0"/>
			<vel value="0.0765953034240119" flag="0"/>
			<psa03 value="0.289038168193528" flag="0"/>
			<psa10 value="0.13098527213155" flag="0"/>
			<psa30 value="0.0410289279651196" flag="0"/>
		</comp>
		<comp name="--.HNN" depth="0.0">
			<acc value="0.0892798990698127" flag="0"/>
			<vel value="0.0751834413455643" flag="0"/>
			<psa03 value="0.337687536808644" flag="0"/>
			<psa10 value="0.14405857817372" flag="0"/>
			<psa30 value="0.031522421539069" flag="0"/>
		</comp>
		<comp name="--.HNZ" depth="0.0">
			<acc value="0.0786616163000201" flag="0"/>
			<vel value="0.089628219286049" flag="0"/>
			<psa03 value="0.175249901112568" flag="0"/>
			<psa10 value="0.139032855244372" flag="0"/>
			<psa30 value="0.0161584754196984" flag="0"/>
		</comp>
	</station>
	<station code="NAX1" name="NAX1" netid="HI" source="ITSAK Strong Motion Network" insttype="" lat="37.101394" lon="25.374103" esm:processing="manual (Paolucci et al 2011)" esm:quality="best">
		<comp name="--.HNE" depth="0.0">
			<acc value="0.0376557463727833" flag="0"/>
			<vel value="0.0262688998751467" flag="0"/>
			<psa03 value="0.0783260376738945" flag="0"/>
			<psa10 value="0.024559461943828" flag="0"/>
			<psa30 value="0.00490809555392194" flag="0"/>
		</comp>
		<comp name="--.HNN" depth="0.0">
			<acc value="0.039159359084349" flag="0"/>
			<vel value="0.0319093379711969" flag="0"/>
			<psa03 value="0.0753293704095793" flag="0"/>
			<psa10 value="0.0151394079114906" flag="0"/>
			<psa30 value="0.00964098200107309" flag="0"/>
		</comp>
		<comp name="--.HNZ" depth="0.0">
			<acc value="0.0382715574460482" flag="0"/>
			<vel value="0.0188179559445975" flag="0"/>
			<psa03 value="0.0562979117522054" flag="0"/>
			<psa10 value="0.0172201432499805" flag="0"/>
			<psa30 value="0.00546127178246908" flag="0"/>
		</comp>
	</station>
	<station code="PLM1" name="PLM1" netid="HI" source="ITSAK Strong Motion Network" insttype="" lat="38.9751" lon="26.3688" esm:processing="automatic (Paolucci et al 2011)" esm:quality="best">
		<comp name="--.HNE" depth="0.0">
			<acc value="0.133635717704235" flag="0"/>
			<vel value="0.0748380289974787" flag="0"/>
			<psa03 value="0.3416646752746" flag="0"/>
			<psa10 value="0.0432216657232332" flag="0"/>
			<psa30 value="0.0104206178147885" flag="0"/>
		</comp>
		<comp name="--.HNN" depth="0.0">
			<acc value="0.154401322120194" flag="0"/>
			<vel value="0.0619033053400409" flag="0"/>
			<psa03 value="0.473414903080596" flag="0"/>
			<psa10 value="0.0772100397862086" flag="0"/>
			<psa30 value="0.00964394553072804" flag="0"/>
		</comp>
		<comp name="--.HNZ" depth="0.0">
			<acc value="0.0584013218092" flag="0"/>
			<vel value="0.0552027878911522" flag="0"/>
			<psa03 value="0.133075357255985" flag="0"/>
			<psa10 value="0.0468731438657396" flag="0"/>
			<psa30 value="0.0125026999091756" flag="0"/>
		</comp>
	</station>
	<station code="RDI1" name="RDI1" netid="HI" source="ITSAK Strong Motion Network" insttype="" lat="36.4514" lon="28.224" esm:processing="manual (Paolucci et al 2011)" esm:quality="good">
		<comp name="--.HNE" depth="0.0">
			<acc value="0.0276168538953112" flag="0"/>
			<vel value="0.0550548133094693" flag="0"/>
			<psa03 value="0.0455705813271475" flag="0"/>
			<psa10 value="0.0631705647397658" flag="0"/>
			<psa30 value="0.0236830188837679" flag="0"/>
		</comp>
		<comp name="--.HNN" depth="0.0">
			<acc value="0.0345988833581212" flag="0"/>
			<vel value="0.0705635480045069" flag="0"/>
			<psa03 value="0.0428397650075286" flag="0"/>
			<psa10 value="0.0740336168639465" flag="0"/>
			<psa30 value="0.0305572609352253" flag="0"/>
		</comp>
		<comp name="--.HNZ" depth="0.0">
			<acc value="0.016169336432174" flag="0"/>
			<vel value="0.0263069021483482" flag="0"/>
			<psa03 value="0.0352337950035161" flag="0"/>
			<psa10 value="0.0370357171844999" flag="0"/>
			<psa30 value="0.00961525863034869" flag="0"/>
		</comp>
	</station>
	<station code="RPN1" name="RPN1" netid="HI" source="ITSAK Strong Motion Network" insttype="" lat="36.448678" lon="28.218047" esm:processing="manual (Paolucci et al 2011)" esm:quality="good">
		<comp name="--.HNE" depth="0.0">
			<acc value="0.0217087896715059" flag="0"/>
			<vel value="0.053003650621445" flag="0"/>
			<psa03 value="0.0429072147882354" flag="0"/>
			<psa10 value="0.0422491512989255" flag="0"/>
			<psa30 value="0.0216679453950416" flag="0"/>
		</comp>
		<comp name="--.HNN" depth="0.0">
			<acc value="0.0301751980241541" flag="0"/>
			<vel value="0.0770057457410392" flag="0"/>
			<psa03 value="0.0568759604615812" flag="0"/>
			<psa10 value="0.075970065143974" flag="0"/>
			<psa30 value="0.0312549004837659" flag="0"/>
		</comp>
		<comp name="--.HNZ" depth="0.0">
			<acc value="0.0118329280649929" flag="0"/>
			<vel value="0.032597667265148" flag="0"/>
			<psa03 value="0.0342651240629713" flag="0"/>
			<psa10 value="0.0339579107949334" flag="0"/>
			<psa30 value="0.0096021602626591" flag="0"/>
		</comp>
	</station>
	<station code="RSO1" name="RSO1" netid="HI" source="ITSAK Strong Motion Network" insttype="" lat="36.3632" lon="28.0016" esm:processing="manual (Paolucci et al 2011)" esm:quality="good">
		<comp name="--.HNE" depth="0.0">
			<acc value="0.0230888907252838" flag="0"/>
			<vel value="0.0375064397927321" flag="0"/>
			<psa03 value="0.081651419422479" flag="0"/>
			<psa10 value="0.0551254230387348" flag="0"/>
			<psa30 value="0.0213502193472503" flag="0"/>
		</comp>
		<comp name="--.HNN" depth="0.0">
			<acc value="0.0258656222824848" flag="0"/>
			<vel value="0.0342986743192775" flag="0"/>
			<psa03 value="0.0548981211060973" flag="0"/>
			<psa10 value="0.0522032707104842" flag="0"/>
			<psa30 value="0.0106985670608953" flag="0"/>
		</comp>
		<comp name="--.HNZ" depth="0.0">
			<acc value="0.0124756552514853" flag="0"/>
			<vel value="0.0239337231025255" flag="0"/>
			<psa03 value="0.0323617010955412" flag="0"/>
			<psa10 value="0.0276720312612638" flag="0"/>
			<psa30 value="0.00765493876879161" flag="0"/>
		</comp>
	</station>
	<station code="SGR1" name="SGR1" netid="HI" source="ITSAK Strong Motion Network" insttype="" lat="39.211392" lon="25.855221" esm:processing="automatic (Paolucci et al 2011)" esm:quality="best">
		<comp name="--.HNE" depth="0.0">
			<acc value="0.0711568044039551" flag="0"/>
			<vel value="0.0396453176569437" flag="0"/>
			<psa03 value="0.14579772088347" flag="0"/>
			<psa10 value="0.0544851318725874" flag="0"/>
			<psa30 value="0.00860673432057574" flag="0"/>
		</comp>
		<comp name="--.HNN" depth="0.0">
			<acc value="0.0729912197889845" flag="0"/>
			<vel value="0.0528307688238845" flag="0"/>
			<psa03 value="0.203135519231212" flag="0"/>
			<psa10 value="0.0443276814913498" flag="0"/>
			<psa30 value="0.00703764787629948" flag="0"/>
		</comp>
		<comp name="--.HNZ" depth="0.0">
			<acc value="0.0510341412418927" flag="0"/>
			<vel value="0.0283234122237682" flag="0"/>
			<psa03 value="0.152930078783844" flag="0"/>
			<psa10 value="0.032835416435191" flag="0"/>
			<psa30 value="0.0049264284350395" flag="0"/>
		</comp>
	</station>
	<station code="ASTA" name="ASTA" netid="HL" source="National Observatory of Athens Seismic Network" insttype="" lat="36.54552" lon="26.35295" esm:processing="manual (Paolucci et al 2011)" esm:quality="good">
		<comp name="00.HNE" depth="0.0">
			<acc value="0.0261480545417873" flag="0"/>
			<vel value="0.0211783363841624" flag="0"/>
			<psa03 value="0.0500117713676868" flag="0"/>
			<psa10 value="0.0255025556691531" flag="0"/>
			<psa30 value="0.00670357699576312" flag="0"/>
		</comp>
		<comp name="00.HNN" depth="0.0">
			<acc value="0.0308638234004282" flag="0"/>
			<vel value="0.0207508994494219" flag="0"/>
			<psa03 value="0.0836186591172672" flag="0"/>
			<psa10 value="0.0206618081183989" flag="0"/>
			<psa30 value="0.00721361536660064" flag="0"/>
		</comp>
		<comp name="00.HNZ" depth="0.0">
			<acc value="0.0211982547084991" flag="0"/>
			<vel value="0.0272409189199955" flag="0"/>
			<psa03 value="0.0553425151285697" flag="0"/>
			<psa10 value="0.0203104323414621" flag="0"/>
			<psa30 value="0.00699869279571751" flag="0"/>
		</comp>
	</station>
	<station code="KLNA" name="KLNA" netid="HL" source="National Observatory of Athens Seismic Network" insttype="" lat="36.95708" lon="26.97274" esm:processing="manual (Paolucci et al 2011)" esm:quality="best">
		<comp name="00.HNE" depth="0.0">
			<acc value="0.283834412613722" flag="0"/>
			<vel value="0.137904008227368" flag="0"/>
			<psa03 value="0.901287010118466" flag="0"/>
			<psa10 value="0.0463041570513156" flag="0"/>
			<psa30 value="0.0193313177914905" flag="0"/>
		</comp>
		<comp name="00.HNN" depth="0.0">
			<acc value="0.300485608625547" flag="0"/>
			<vel value="0.13747700838463" flag="0"/>
			<psa03 value="1.21730121546332" flag="0"/>
			<psa10 value="0.0596006460141336" flag="0"/>
			<psa30 value="0.0101014479882072" flag="0"/>
		</comp>
		<comp name="00.HNZ" depth="0.0">
			<acc value="0.255663966151117" flag="0"/>
			<vel value="0.128402621803528" flag="0"/>
			<psa03 value="0.470777498037455" flag="0"/>
			<psa10 value="0.0516235579961619" flag="0"/>
			<psa30 value="0.0144472585170399" flag="0"/>
		</comp>
	</station>
	<station code="PRK" name="PRK" netid="HL" source="National Observatory of Athens Seismic Network" insttype="" lat="39.24565" lon="26.26499" esm:processing="manual (Paolucci et al 2011)" esm:quality="good">
		<comp name="--.HNE" depth="0.0">
			<acc value="0.126742456404906" flag="0"/>
			<vel value="0.116430961365975" flag="0"/>
			<psa03 value="0.354809296041315" flag="0"/>
			<psa10 value="0.168438778242396" flag="0"/>
			<psa30 value="0.0150057990605486" flag="0"/>
		</comp>
		<comp name="--.HNN" depth="0.0">
			<acc value="0.127381573640696" flag="0"/>
			<vel value="0.0927373341314542" flag="0"/>
			<psa03 value="0.46440555625663" flag="0"/>
			<psa10 value="0.135230733372327" flag="0"/>
			<psa30 value="0.0199953945967772" flag="0"/>
		</comp>
		<comp name="--.HNZ" depth="0.0">
			<acc value="0.0850516947983029" flag="0"/>
			<vel value="0.0812138500759647" flag="0"/>
			<psa03 value="0.261532450241234" flag="0"/>
			<psa10 value="0.0498994068407563" flag="0"/>
			<psa30 value="0.00922242010673284" flag="0"/>
		</comp>
	</station>
	<station code="RODB" name="RODB" netid="HL" source="National Observatory of Athens Seismic Network" insttype="" lat="36.4471" lon="28.22116" esm:processing="manual (Paolucci et al 2011)" esm:quality="bad">
		<comp name="00.HNE" depth="0.0">
			<acc value="0.0291440596663911" flag="0"/>
			<vel value="0.0573910363807306" flag="0"/>
			<psa03 value="0.0613933638841879" flag="0"/>
			<psa10 value="0.0510244438691036" flag="0"/>
			<psa30 value="0.024109970500545" flag="0"/>
		</comp>
		<comp name="00.HNN" depth="0.0">
			<acc value="0.0241108368721701" flag="0"/>
			<vel value="0.0621506959140088" flag="0"/>
			<psa03 value="0.050910742378463" flag="0"/>
			<psa10 value="0.0724180623410994" flag="0"/>
			<psa30 value="0.0274603957830991" flag="0"/>
		</comp>
		<comp name="00.HNZ" depth="0.0">
			<acc value="0.0121572116991571" flag="0"/>
			<vel value="0.0237471506001122" flag="0"/>
			<psa03 value="0.0244397153653511" flag="0"/>
			<psa10 value="0.0299973484271178" flag="0"/>
			<psa30 value="0.00805025495655287" flag="0"/>
		</comp>
	</station>
	<station code="THRA" name="THRA" netid="HL" source="National Observatory of Athens Seismic Network" insttype="" lat="36.41502" lon="25.43244" esm:processing="manual (Paolucci et al 2011)" esm:quality="good">
		<comp name="00.HNE" depth="0.0">
			<acc value="0.0706053182730777" flag="0"/>
			<vel value="0.0899851826277271" flag="0"/>
			<psa03 value="0.198256300173642" flag="0"/>
			<psa10 value="0.0924953773648016" flag="0"/>
			<psa30 value="0.0340637998929069" flag="0"/>
		</comp>
		<comp name="00.HNN" depth="0.0">
			<acc value="0.0902921719631788" flag="0"/>
			<vel value="0.086337222966092" flag="0"/>
			<psa03 value="0.251024733323087" flag="0"/>
			<psa10 value="0.106765027658937" flag="0"/>
			<psa30 value="0.042932670745405" flag="0"/>
		</comp>
		<comp name="00.HNZ" depth="0.0">
			<acc value="0.053335042971414" flag="0"/>
			<vel value="0.0388545960261467" flag="0"/>
			<psa03 value="0.130943611871613" flag="0"/>
			<psa10 value="0.0327319395803699" flag="0"/>
			<psa30 value="0.00819889646997843" flag="0"/>
		</comp>
	</station>
	<station code="CESE" name="CESE" netid="KO" source="Bogazici University Kandilli Observatory And Earthquake Research Institute (KOERI)" insttype="" lat="38.3306" lon="26.2997" esm:processing="manual (Paolucci et al 2011)" esm:quality="best">
		<comp name="--.HNE" depth="0.0">
			<acc value="0.207637818003122" flag="0"/>
			<vel value="0.101946084104974" flag="0"/>
			<psa03 value="0.503036629009229" flag="0"/>
			<psa10 value="0.0847882712298897" flag="0"/>
			<psa30 value="0.0135251216386374" flag="0"/>
		</comp>
		<comp name="--.HNN" depth="0.0">
			<acc value="0.245494378630028" flag="0"/>
			<vel value="0.258536970784597" flag="0"/>
			<psa03 value="0.710685209924629" flag="0"/>
			<psa10 value="0.408216707633457" flag="0"/>
			<psa30 value="0.0213876696076663" flag="0"/>
		</comp>
		<comp name="--.HNZ" depth="0.0">
			<acc value="0.168238030286825" flag="0"/>
			<vel value="0.0913623856007444" flag="0"/>
			<psa03 value="0.362501358021238" flag="0"/>
			<psa10 value="0.153880081533957" flag="0"/>
			<psa30 value="0.00872338802436444" flag="0"/>
		</comp>
	</station>
	<station code="EZNE" name="EZNE" netid="KO" source="Bogazici University Kandilli Observatory And Earthquake Research Institute (KOERI)" insttype="" lat="39.756" lon="26.3655" esm:processing="automatic (Paolucci et al 2011)" esm:quality="best">
		<comp name="--.HNE" depth="0.0">
			<acc value="0.165438230370082" flag="0"/>
			<vel value="0.132227788968882" flag="0"/>
			<psa03 value="0.43569960804873" flag="0"/>
			<psa10 value="0.128636081137862" flag="0"/>
			<psa30 value="0.0198400366807402" flag="0"/>
		</comp>
		<comp name="--.HNN" depth="0.0">
			<acc value="0.199432531727074" flag="0"/>
			<vel value="0.152948062846362" flag="0"/>
			<psa03 value="0.846477807011083" flag="0"/>
			<psa10 value="0.145544608440973" flag="0"/>
			<psa30 value="0.0287889254264608" flag="0"/>
		</comp>
		<comp name="--.HNZ" depth="0.0">
			<acc value="0.103256648585706" flag="0"/>
			<vel value="0.0711960958706232" flag="0"/>
			<psa03 value="0.402635117357828" flag="0"/>
			<psa10 value="0.0631200679867269" flag="0"/>
			<psa30 value="0.0207304065924438" flag="0"/>
		</comp>
	</station>
	<station code="FOCM" name="FOCM" netid="KO" source="Bogazici University Kandilli Observatory And Earthquake Research Institute (KOERI)" insttype="" lat="38.7131" lon="26.7309" esm:processing="automatic (Paolucci et al 2011)" esm:quality="best">
		<comp name="--.HNE" depth="0.0">
			<acc value="0.169243769861756" flag="0"/>
			<vel value="0.133660673005258" flag="0"/>
			<psa03 value="0.436594452181096" flag="0"/>
			<psa10 value="0.117679162159114" flag="0"/>
			<psa30 value="0.0122146224067882" flag="0"/>
		</comp>
		<comp name="--.HNN" depth="0.0">
			<acc value="0.205407292570399" flag="0"/>
			<vel value="0.163314088614503" flag="0"/>
			<psa03 value="0.665540323446792" flag="0"/>
			<psa10 value="0.118021440039743" flag="0"/>
			<psa30 value="0.0146485984468222" flag="0"/>
		</comp>
		<comp name="--.HNZ" depth="0.0">
			<acc value="0.118795681394348" flag="0"/>
			<vel value="0.0597140678358051" flag="0"/>
			<psa03 value="0.317311729336783" flag="0"/>
			<psa10 value="0.0618637068248858" flag="0"/>
			<psa30 value="0.00929519342494595" flag="0"/>
		</comp>
	</station>
	<station code="GMLD" name="GMLD" netid="KO" source="Bogazici University Kandilli Observatory And Earthquake Research Institute (KOERI)" insttype="" lat="38.0766" lon="26.9157" esm:processing="manual (Paolucci et al 2011)" esm:quality="best">
		<comp name="--.HNE" depth="0.0">
			<acc value="5.56062464413106" flag="0"/>
			<vel value="3.28520484106748" flag="0"/>
			<psa03 value="12.7470546655456" flag="0"/>
			<psa10 value="2.48092269517234" flag="0"/>
			<psa30 value="0.217609985796891" flag="0"/>
		</comp>
		<comp name="--.HNN" depth="0.0">
			<acc value="6.96353747525329" flag="0"/>
			<vel value="3.82645603138373" flag="0"/>
			<psa03 value="19.5935966066868" flag="0"/>
			<psa10 value="3.20128877634296" flag="0"/>
			<psa30 value="0.405237324094746" flag="0"/>
		</comp>
		<comp name="--.HNZ" depth="0.0">
			<acc value="3.68638749276074" flag="0"/>
			<vel value="1.37117477928005" flag="0"/>
			<psa03 value="13.0505410530374" flag="0"/>
			<psa10 value="0.730042478195958" flag="0"/>
			<psa30 value="0.235704628997453" flag="0"/>
		</comp>
	</station>
	<station code="GORD" name="GORD" netid="KO" source="Bogazici University Kandilli Observatory And Earthquake Research Institute (KOERI)" insttype="" lat="38.9088" lon="28.1769" esm:processing="automatic (Paolucci et al 2011)" esm:quality="best">
		<comp name="--.HNE" depth="0.0">
			<acc value="0.193057694224327" flag="0"/>
			<vel value="0.264818236270797" flag="0"/>
			<psa03 value="0.425722095972856" flag="0"/>
			<psa10 value="0.547068776808469" flag="0"/>
			<psa30 value="0.0456768713145274" flag="0"/>
		</comp>
		<comp name="--.HNN" depth="0.0">
			<acc value="0.152967162618739" flag="0"/>
			<vel value="0.205813739523128" flag="0"/>
			<psa03 value="0.382232671139896" flag="0"/>
			<psa10 value="0.210629754142375" flag="0"/>
			<psa30 value="0.0651849208221601" flag="0"/>
		</comp>
		<comp name="--.HNZ" depth="0.0">
			<acc value="0.152357384435233" flag="0"/>
