<stationlist created="1778069567">
	<station code="SIT2" name="SIT2" netid="HI" source="ITSAK Strong Motion Network" insttype="" lat="35.2059" lon="26.107">
		<comp name="--.HNE" depth="0.0">
			<acc value="0.0188178423824305" flag="0"/>
			<vel value="0.0131556617364265" flag="0"/>
			<psa03 value="0.0513193109911577" flag="0"/>
			<psa10 value="0.00774353369942429" flag="0"/>
			<psa30 value="0.000598650724552476" flag="0"/>
		</comp>
		<comp name="--.HNN" depth="0.0">
			<acc value="0.0181721824374838" flag="0"/>
			<vel value="0.0116870677306728" flag="0"/>
			<psa03 value="0.0634444489847094" flag="0"/>
			<psa10 value="0.00575026839458029" flag="0"/>
			<psa30 value="0.000420576742211754" flag="0"/>
		</comp>
		<comp name="--.HNZ" depth="0.0">
			<acc value="0.00741314274453627" flag="0"/>
			<vel value="0.00350013330620994" flag="0"/>
			<psa03 value="0.0221473922760445" flag="0"/>
			<psa10 value="0.0022912484009217" flag="0"/>
			<psa30 value="0.000240713071606302" flag="0"/>
		</comp>
	</station>
</stationlist>
