<stationlist created="1778069990">
	<station code="LMN1" name="LMN1" netid="HI" source="ITSAK Strong Motion Network" insttype="" lat="39.875" lon="25.0588">
		<comp name="--.HNE" depth="0.0">
			<acc value="0.0471988003180734" flag="0"/>
			<vel value="0.0325627761875784" flag="0"/>
			<psa03 value="0.112929329504518" flag="0"/>
			<psa10 value="0.0323794875075771" flag="0"/>
			<psa30 value="0.00451090927125416" flag="0"/>
		</comp>
		<comp name="--.HNN" depth="0.0">
			<acc value="0.0814827868342476" flag="0"/>
			<vel value="0.0390611199349078" flag="0"/>
			<psa03 value="0.157089887436752" flag="0"/>
			<psa10 value="0.0375176825156194" flag="0"/>
			<psa30 value="0.00534535142468493" flag="0"/>
		</comp>
		<comp name="--.HNZ" depth="0.0">
			<acc value="0.0632567591992587" flag="0"/>
			<vel value="0.0252765826932554" flag="0"/>
			<psa03 value="0.0448316910315083" flag="0"/>
			<psa10 value="0.0205326460391911" flag="0"/>
			<psa30 value="0.00257446656881536" flag="0"/>
		</comp>
	</station>
	<station code="MYT1" name="MYT1" netid="HI" source="ITSAK Strong Motion Network" insttype="" lat="39.085" lon="26.5694">
		<comp name="--.HNE" depth="0.0">
			<acc value="0.289711046568508" flag="0"/>
			<vel value="0.22343268123761" flag="0"/>
			<psa03 value="0.641558833456138" flag="0"/>
			<psa10 value="0.24941637761113" flag="0"/>
			<psa30 value="0.0185815109338955" flag="0"/>
		</comp>
		<comp name="--.HNN" depth="0.0">
			<acc value="0.27119358734137" flag="0"/>
			<vel value="0.224715412607409" flag="0"/>
			<psa03 value="0.711792402753024" flag="0"/>
			<psa10 value="0.35223116358584" flag="0"/>
			<psa30 value="0.0225538840841418" flag="0"/>
		</comp>
		<comp name="--.HNZ" depth="0.0">
			<acc value="0.208774334845981" flag="0"/>
			<vel value="0.140013699279754" flag="0"/>
			<psa03 value="0.329765178657794" flag="0"/>
			<psa10 value="0.143917448824706" flag="0"/>
			<psa30 value="0.0132578007642227" flag="0"/>
		</comp>
	</station>
	<station code="PRK" name="PRK" netid="HL" source="National Observatory of Athens Seismic Network" insttype="" lat="39.24565" lon="26.26499">
		<comp name="--.HNE" depth="0.0">
			<acc value="0.422820458534394" flag="0"/>
			<vel value="0.280535377674134" flag="0"/>
			<psa03 value="1.50280123589451" flag="0"/>
			<psa10 value="0.300705211928346" flag="0"/>
			<psa30 value="0.029497194557228" flag="0"/>
		</comp>
		<comp name="--.HNN" depth="0.0">
			<acc value="0.70913183931493" flag="0"/>
			<vel value="0.501157067494634" flag="0"/>
			<psa03 value="2.98117322697545" flag="0"/>
			<psa10 value="0.464640209555627" flag="0"/>
			<psa30 value="0.0239473712482976" flag="0"/>
		</comp>
		<comp name="--.HNZ" depth="0.0">
			<acc value="0.308927291933065" flag="0"/>
			<vel value="0.14412681725973" flag="0"/>
			<psa03 value="0.87453117056074" flag="0"/>
			<psa10 value="0.187701162938775" flag="0"/>
			<psa30 value="0.00902495049697159" flag="0"/>
		</comp>
	</station>
	<station code="EZNE" name="EZNE" netid="KO" source="Bogazici University Kandilli Observatory And Earthquake Research Institute (KOERI)" insttype="" lat="39.756" lon="26.3655">
		<comp name="--.HNE" depth="0.0">
			<acc value="1.43650123810192" flag="0"/>
			<vel value="0.850003702105912" flag="0"/>
			<psa03 value="3.05616116526767" flag="0"/>
			<psa10 value="0.800406756856249" flag="0"/>
			<psa30 value="0.0400371161702943" flag="0"/>
		</comp>
		<comp name="--.HNN" depth="0.0">
			<acc value="1.53954770242061" flag="0"/>
			<vel value="0.887341634885151" flag="0"/>
			<psa03 value="4.97909172130775" flag="0"/>
			<psa10 value="1.11197224459705" flag="0"/>
			<psa30 value="0.0745185925447978" flag="0"/>
		</comp>
		<comp name="--.HNZ" depth="0.0">
			<acc value="0.670468307839783" flag="0"/>
			<vel value="0.455389344594065" flag="0"/>
			<psa03 value="1.87017949443714" flag="0"/>
			<psa10 value="0.354644179117003" flag="0"/>
			<psa30 value="0.0402259282822234" flag="0"/>
		</comp>
	</station>
	<station code="FOCM" name="FOCM" netid="KO" source="Bogazici University Kandilli Observatory And Earthquake Research Institute (KOERI)" insttype="" lat="38.7131" lon="26.7309">
		<comp name="--.HNE" depth="0.0">
			<acc value="0.217828418031794" flag="0"/>
			<vel value="0.125722376218966" flag="0"/>
			<psa03 value="0.549434297272377" flag="0"/>
			<psa10 value="0.095543850278856" flag="0"/>
			<psa30 value="0.00532029578897869" flag="0"/>
		</comp>
		<comp name="--.HNN" depth="0.0">
			<acc value="0.178576520317954" flag="0"/>
			<vel value="0.074423225213004" flag="0"/>
			<psa03 value="0.231898856902503" flag="0"/>
			<psa10 value="0.0662488904955426" flag="0"/>
			<psa30 value="0.0064773292521272" flag="0"/>
		</comp>
		<comp name="--.HNZ" depth="0.0">
			<acc value="0.0643366472981298" flag="0"/>
			<vel value="0.0332094561209203" flag="0"/>
			<psa03 value="0.236865241837131" flag="0"/>
			<psa10 value="0.0298788455796819" flag="0"/>
			<psa30 value="0.00359056208111631" flag="0"/>
		</comp>
	</station>
	<station code="SUSR" name="SUSR" netid="KO" source="Bogazici University Kandilli Observatory And Earthquake Research Institute (KOERI)" insttype="" lat="39.9627" lon="28.0835">
		<comp name="--.HNE" depth="0.0">
			<acc value="0.212939672614251" flag="0"/>
			<vel value="0.165185617339093" flag="0"/>
			<psa03 value="0.733324766473474" flag="0"/>
			<psa10 value="0.112379895207246" flag="0"/>
			<psa30 value="0.0133287033515832" flag="0"/>
		</comp>
		<comp name="--.HNN" depth="0.0">
			<acc value="0.240962478922205" flag="0"/>
			<vel value="0.138193205188574" flag="0"/>
			<psa03 value="0.81887186552761" flag="0"/>
			<psa10 value="0.106303456126418" flag="0"/>
			<psa30 value="0.0101994334207012" flag="0"/>
		</comp>
		<comp name="--.HNZ" depth="0.0">
			<acc value="0.129556805493795" flag="0"/>
			<vel value="0.0877998179330639" flag="0"/>
			<psa03 value="0.41422334887196" flag="0"/>
			<psa10 value="0.0614570001667257" flag="0"/>
			<psa30 value="0.00569657774663836" flag="0"/>
		</comp>
	</station>
	<station code="YENI" name="YENI" netid="KO" source="Bogazici University Kandilli Observatory And Earthquake Research Institute (KOERI)" insttype="" lat="39.9364" lon="27.24216">
		<comp name="--.HNE" depth="0.0">
			<acc value="1.12422683852645" flag="0"/>
			<vel value="0.871707740796692" flag="0"/>
			<psa03 value="3.2491790446189" flag="0"/>
			<psa10 value="0.675576000391271" flag="0"/>
			<psa30 value="0.048824932972189" flag="0"/>
		</comp>
		<comp name="--.HNN" depth="0.0">
			<acc value="1.13465057078064" flag="0"/>
			<vel value="0.850739118184733" flag="0"/>
			<psa03 value="3.08510937294969" flag="0"/>
			<psa10 value="0.603053357683714" flag="0"/>
			<psa30 value="0.0380595106377667" flag="0"/>
		</comp>
		<comp name="--.HNZ" depth="0.0">
			<acc value="0.510582382082978" flag="0"/>
			<vel value="0.311890340467308" flag="0"/>
			<psa03 value="1.54007149400753" flag="0"/>
			<psa10 value="0.224655093651004" flag="0"/>
			<psa30 value="0.0254829237794367" flag="0"/>
		</comp>
	</station>
</stationlist>
