<?xml version="1.0" encoding="UTF-8" standalone="yes"?>
<!DOCTYPE earthquake SYSTEM "stationlist.dtd">
<stationlist created="" xmlns="ch.ethz.sed.shakemap.usgs.xml">
  <station code="PRK" name="PRK" netid="HL" insttype="CMG5T" lat="39.2456" lon="26.265">
    <comp name="--.HNE">
      <acc value="0.4223386495" flag="0"/>
      <vel value="0.2822309535" flag="0"/>
      <psa03 value="1.5062496210" flag="0"/>
      <psa10 value="0.2999823139" flag="0"/>
      <psa30 value="0.0282293607" flag="0"/>
    </comp>
    <comp name="--.HNZ">
      <acc value="0.3080486714" flag="0"/>
      <vel value="0.1498620880" flag="0"/>
      <psa03 value="0.8812375528" flag="0"/>
      <psa10 value="0.1872348653" flag="0"/>
      <psa30 value="0.0082164789" flag="0"/>
    </comp>
    <comp name="--.HNN">
      <acc value="0.7093390947" flag="0"/>
      <vel value="0.5084486948" flag="0"/>
      <psa03 value="2.9829277653" flag="0"/>
      <psa10 value="0.4640060485" flag="0"/>
      <psa30 value="0.0210402766" flag="0"/>
    </comp>
  </station>
  <station code="EZN" name="EZN" netid="KO" insttype="120s," lat="39.8255" lon="26.3247">
    <comp name="--.HHE">
      <acc value="0.2779225548" flag="0"/>
      <vel value="0.1456217249" flag="0"/>
      <psa03 value="0.3689655642" flag="0"/>
      <psa10 value="0.1075226634" flag="0"/>
      <psa30 value="0.0089609574" flag="0"/>
    </comp>
    <comp name="--.HHZ">
      <acc value="0.1420169029" flag="0"/>
      <vel value="0.0893616956" flag="0"/>
      <psa03 value="0.2777529496" flag="0"/>
      <psa10 value="0.0775073118" flag="0"/>
      <psa30 value="0.0087029259" flag="0"/>
    </comp>
    <comp name="--.HHN">
      <acc value="0.2018706261" flag="0"/>
      <vel value="0.1570605648" flag="0"/>
      <psa03 value="0.4697997068" flag="0"/>
      <psa10 value="0.1987324234" flag="0"/>
      <psa30 value="0.0135218033" flag="0"/>
    </comp>
  </station>
</stationlist>
