<?xml version="1.0" encoding="UTF-8" standalone="yes"?>
<!DOCTYPE earthquake SYSTEM "stationlist.dtd">
<stationlist created="" xmlns="ch.ethz.sed.shakemap.usgs.xml">
  <station code="KLV" name="KLV" netid="MN" insttype="" lat="38.0437" lon="22.1504">
    <comp name="--.HHZ">
      <acc value="0.0119061750" flag="0"/>
      <vel value="0.0097389942" flag="0"/>
      <psa03 value="0.0275452034" flag="0"/>
      <psa10 value="0.0189564867" flag="0"/>
      <psa30 value="0.0039168943" flag="0"/>
    </comp>
    <comp name="--.HHE">
      <acc value="0.0134289747" flag="0"/>
      <vel value="0.0177524087" flag="0"/>
      <psa03 value="0.0381444634" flag="0"/>
      <psa10 value="0.0274713905" flag="0"/>
      <psa30 value="0.0029981189" flag="0"/>
    </comp>
    <comp name="--.HHN">
      <acc value="0.0142242176" flag="0"/>
      <vel value="0.0202171081" flag="0"/>
      <psa03 value="0.0474993897" flag="0"/>
      <psa10 value="0.0473696031" flag="0"/>
      <psa30 value="0.0025877243" flag="0"/>
    </comp>
  </station>
</stationlist>
