<?xml version="1.0" encoding="UTF-8" standalone="yes"?>
<!DOCTYPE earthquake SYSTEM "stationlist.dtd">
<stationlist created="" xmlns="ch.ethz.sed.shakemap.usgs.xml">
  <station code="TRIZ" name="TRIZ" netid="CL" insttype="STS-2" lat="38.3654" lon="22.0727">
    <comp name="00.HHZ">
      <acc value="0.0320459973" flag="0"/>
      <vel value="0.0376142285" flag="0"/>
      <psa03 value="0.0957472041" flag="0"/>
      <psa10 value="0.0361378639" flag="0"/>
      <psa30 value="0.0037083092" flag="0"/>
    </comp>
    <comp name="00.HH3">
      <acc value="0.0962750892" flag="0"/>
      <vel value="0.0756125202" flag="0"/>
      <psa03 value="0.3274015812" flag="0"/>
      <psa10 value="0.0533996536" flag="0"/>
      <psa30 value="0.0078898866" flag="0"/>
    </comp>
    <comp name="00.HH2">
      <acc value="0.0564555996" flag="0"/>
      <vel value="0.0495632572" flag="0"/>
      <psa03 value="0.1913893887" flag="0"/>
      <psa10 value="0.0366911642" flag="0"/>
      <psa30 value="0.0050742660" flag="0"/>
    </comp>
  </station>
  <station code="ZIRI" name="ZIRI" netid="CL" insttype="TRILLIUM-40" lat="38.3051" lon="21.9476">
    <comp name="01.HHN">
      <acc value="0.0774802885" flag="0"/>
      <vel value="0.0553087966" flag="0"/>
      <psa03 value="0.2686279691" flag="0"/>
      <psa10 value="0.0338996931" flag="0"/>
      <psa30 value="0.0043883563" flag="0"/>
    </comp>
    <comp name="01.HHE">
      <acc value="0.0517016798" flag="0"/>
      <vel value="0.0438106736" flag="0"/>
      <psa03 value="0.1432358899" flag="0"/>
      <psa10 value="0.0501758357" flag="0"/>
      <psa30 value="0.0052286304" flag="0"/>
    </comp>
    <comp name="01.HHZ">
      <acc value="0.0419045513" flag="0"/>
      <vel value="0.0193167889" flag="0"/>
      <psa03 value="0.1429062711" flag="0"/>
      <psa10 value="0.0182238957" flag="0"/>
      <psa30 value="0.0046542387" flag="0"/>
    </comp>
  </station>
  <station code="ANTK" name="ANTK" netid="HA" insttype="25" lat="38.3605" lon="22.6385">
    <comp name="--.HHZ">
      <acc value="0.0413429796" flag="0"/>
      <vel value="0.0274204541" flag="0"/>
      <psa03 value="0.1084091135" flag="0"/>
      <psa10 value="0.0206713869" flag="0"/>
      <psa30 value="0.0033929152" flag="0"/>
    </comp>
    <comp name="--.HHE">
      <acc value="0.0651561338" flag="0"/>
      <vel value="0.0373029034" flag="0"/>
      <psa03 value="0.2400792437" flag="0"/>
      <psa10 value="0.0240529854" flag="0"/>
      <psa30 value="0.0058856138" flag="0"/>
    </comp>
    <comp name="--.HHN">
      <acc value="0.0040125824" flag="0"/>
      <vel value="0.0020977667" flag="0"/>
      <psa03 value="0.0124887733" flag="0"/>
      <psa10 value="0.0007692791" flag="0"/>
      <psa30 value="0.0000691028" flag="0"/>
    </comp>
  </station>
  <station code="ATAL" name="ATAL" netid="HA" insttype="120s," lat="38.6926" lon="23.0213">
    <comp name="--.HHN">
      <acc value="0.0710316453" flag="0"/>
      <vel value="0.0583150572" flag="0"/>
      <psa03 value="0.2128371774" flag="0"/>
      <psa10 value="0.0719372825" flag="0"/>
      <psa30 value="0.0325856594" flag="0"/>
    </comp>
    <comp name="--.HHE">
      <acc value="0.0744726034" flag="0"/>
      <vel value="0.0430209408" flag="0"/>
      <psa03 value="0.1328912683" flag="0"/>
      <psa10 value="0.0873610824" flag="0"/>
      <psa30 value="0.0114676082" flag="0"/>
    </comp>
    <comp name="--.HHZ">
      <acc value="0.1142798087" flag="0"/>
      <vel value="0.0218629428" flag="0"/>
      <psa03 value="0.0342283002" flag="0"/>
      <psa10 value="0.0258192032" flag="0"/>
      <psa30 value="0.0053494100" flag="0"/>
    </comp>
  </station>
  <station code="ATHU" name="ATHU" netid="HA" insttype="60s," lat="37.9665" lon="23.7845">
    <comp name="--.HHE">
      <acc value="0.0304710794" flag="0"/>
      <vel value="0.0188460296" flag="0"/>
      <psa03 value="0.0564296563" flag="0"/>
      <psa10 value="0.0249943656" flag="0"/>
      <psa30 value="0.0048033317" flag="0"/>
    </comp>
    <comp name="--.HHN">
      <acc value="0.0256684144" flag="0"/>
      <vel value="0.0258461493" flag="0"/>
      <psa03 value="0.0461124224" flag="0"/>
      <psa10 value="0.0191995815" flag="0"/>
      <psa30 value="0.0148461099" flag="0"/>
    </comp>
    <comp name="--.HHZ">
      <acc value="0.0195850230" flag="0"/>
      <vel value="0.0245706133" flag="0"/>
      <psa03 value="0.0329406872" flag="0"/>
      <psa10 value="0.0222778034" flag="0"/>
      <psa30 value="0.0152375863" flag="0"/>
    </comp>
  </station>
  <station code="AXAR" name="AXAR" netid="HA" insttype="Horizon,120s,1200" lat="38.7664" lon="22.659">
    <comp name="--.HHE">
      <acc value="0.1871031245" flag="0"/>
      <vel value="0.1635356227" flag="0"/>
      <psa03 value="0.5615427074" flag="0"/>
      <psa10 value="0.2594955147" flag="0"/>
      <psa30 value="0.0277790359" flag="0"/>
    </comp>
    <comp name="--.HHN">
      <acc value="0.1703858441" flag="0"/>
      <vel value="0.1194084273" flag="0"/>
      <psa03 value="0.7220752652" flag="0"/>
      <psa10 value="0.1373432468" flag="0"/>
      <psa30 value="0.0139854267" flag="0"/>
    </comp>
    <comp name="--.HHZ">
      <acc value="0.1086930798" flag="0"/>
      <vel value="0.0788163642" flag="0"/>
      <psa03 value="0.3706439371" flag="0"/>
      <psa10 value="0.1327306460" flag="0"/>
      <psa30 value="0.0111815683" flag="0"/>
    </comp>
  </station>
  <station code="DOMV" name="DOMV" netid="HA" insttype="60" lat="38.2569" lon="22.9795">
    <comp name="--.HHZ">
      <acc value="0.6943863124" flag="0"/>
      <vel value="0.1973956181" flag="0"/>
      <psa03 value="1.6166578233" flag="0"/>
      <psa10 value="0.0537685851" flag="0"/>
      <psa30 value="0.0213098395" flag="0"/>
    </comp>
    <comp name="--.HHN">
      <acc value="1.2047970664" flag="0"/>
      <vel value="0.2837120637" flag="0"/>
      <psa03 value="2.2633106671" flag="0"/>
      <psa10 value="0.1546614840" flag="0"/>
      <psa30 value="0.0148997889" flag="0"/>
    </comp>
    <comp name="--.HHE">
      <acc value="0.9124455309" flag="0"/>
      <vel value="0.1780027277" flag="0"/>
      <psa03 value="0.8713255759" flag="0"/>
      <psa10 value="0.0946834952" flag="0"/>
      <psa30 value="0.0229061044" flag="0"/>
    </comp>
  </station>
  <station code="EPID" name="EPID" netid="HA" insttype="30" lat="37.6144" lon="23.1189">
    <comp name="--.HHE">
      <acc value="0.0546856429" flag="0"/>
      <vel value="0.0233762814" flag="0"/>
      <psa03 value="0.0740129141" flag="0"/>
      <psa10 value="0.0208247842" flag="0"/>
      <psa30 value="0.0027587791" flag="0"/>
    </comp>
    <comp name="--.HHN">
      <acc value="0.0502304650" flag="0"/>
      <vel value="0.0254269487" flag="0"/>
      <psa03 value="0.0585222365" flag="0"/>
      <psa10 value="0.0169916316" flag="0"/>
      <psa30 value="0.0074858377" flag="0"/>
    </comp>
    <comp name="--.HHZ">
      <acc value="0.0258053263" flag="0"/>
      <vel value="0.0134974349" flag="0"/>
      <psa03 value="0.0431062097" flag="0"/>
      <psa10 value="0.0226827844" flag="0"/>
      <psa30 value="0.0049640046" flag="0"/>
    </comp>
  </station>
  <station code="ERTR" name="ERTR" netid="HA" insttype="Horizon,120s,1200" lat="38.4066" lon="23.7865">
    <comp name="--.HHN">
      <acc value="0.0332814654" flag="0"/>
      <vel value="0.0229169457" flag="0"/>
      <psa03 value="0.0948728977" flag="0"/>
      <psa10 value="0.0383298015" flag="0"/>
      <psa30 value="0.0051919853" flag="0"/>
    </comp>
    <comp name="--.HHZ">
      <acc value="0.0244363481" flag="0"/>
      <vel value="0.0181895448" flag="0"/>
      <psa03 value="0.0650085560" flag="0"/>
      <psa10 value="0.0226057297" flag="0"/>
      <psa30 value="0.0049700106" flag="0"/>
    </comp>
    <comp name="--.HHE">
      <acc value="0.0443949019" flag="0"/>
      <vel value="0.0141376145" flag="0"/>
      <psa03 value="0.0720922901" flag="0"/>
      <psa10 value="0.0236713656" flag="0"/>
      <psa30 value="0.0088664274" flag="0"/>
    </comp>
  </station>
  <station code="KALE" name="KALE" netid="HA" insttype="40," lat="38.3911" lon="22.1398">
    <comp name="--.HHZ">
      <acc value="0.0290950633" flag="0"/>
      <vel value="0.0366880252" flag="0"/>
      <psa03 value="0.0583322098" flag="0"/>
      <psa10 value="0.0366916147" flag="0"/>
      <psa30 value="0.0064849785" flag="0"/>
    </comp>
    <comp name="--.HHN">
      <acc value="0.0494588845" flag="0"/>
      <vel value="0.0353368678" flag="0"/>
      <psa03 value="0.1564012553" flag="0"/>
      <psa10 value="0.0615997501" flag="0"/>
      <psa30 value="0.0047194139" flag="0"/>
    </comp>
    <comp name="--.HHE">
      <acc value="0.0531963119" flag="0"/>
      <vel value="0.0333867090" flag="0"/>
      <psa03 value="0.1798348530" flag="0"/>
      <psa10 value="0.0562350219" flag="0"/>
      <psa30 value="0.0088735296" flag="0"/>
    </comp>
  </station>
  <station code="KARY" name="KARY" netid="HA" insttype="60" lat="38.0321" lon="24.437">
    <comp name="--.HHZ">
      <acc value="0.0427046651" flag="0"/>
      <vel value="0.0367926808" flag="0"/>
      <psa03 value="0.0665773658" flag="0"/>
      <psa10 value="0.0539334746" flag="0"/>
      <psa30 value="0.0057354143" flag="0"/>
    </comp>
    <comp name="--.HHN">
      <acc value="0.0538459624" flag="0"/>
      <vel value="0.0229124732" flag="0"/>
      <psa03 value="0.0430906538" flag="0"/>
      <psa10 value="0.0325138864" flag="0"/>
      <psa30 value="0.0032254915" flag="0"/>
    </comp>
    <comp name="--.HHE">
      <acc value="0.0345922244" flag="0"/>
      <vel value="0.0200840730" flag="0"/>
      <psa03 value="0.0437323034" flag="0"/>
      <psa10 value="0.0140970617" flag="0"/>
      <psa30 value="0.0039292907" flag="0"/>
    </comp>
  </station>
  <station code="KIAS" name="KIAS" netid="HA" insttype="DC" lat="37.9875" lon="22.7543">
    <comp name="--.HNE">
      <acc value="0.1191260006" flag="0"/>
      <vel value="0.0610274805" flag="0"/>
      <psa03 value="0.2684083136" flag="0"/>
      <psa10 value="0.1081001112" flag="0"/>
      <psa30 value="0.0340385317" flag="0"/>
    </comp>
    <comp name="--.HNN">
      <acc value="0.1122309621" flag="0"/>
      <vel value="0.0653989522" flag="0"/>
      <psa03 value="0.3423778901" flag="0"/>
      <psa10 value="0.0763553093" flag="0"/>
      <psa30 value="0.0183639096" flag="0"/>
    </comp>
    <comp name="--.HNZ">
      <acc value="0.0505111903" flag="0"/>
      <vel value="0.0407470239" flag="0"/>
      <psa03 value="0.1071332431" flag="0"/>
      <psa10 value="0.0552914650" flag="0"/>
      <psa30 value="0.0224424347" flag="0"/>
    </comp>
  </station>
  <station code="LAKA" name="LAKA" netid="HA" insttype="120s," lat="38.2401" lon="21.9785">
    <comp name="--.HHE">
      <acc value="0.0123721180" flag="0"/>
      <vel value="0.0097086477" flag="0"/>
      <psa03 value="0.0411936417" flag="0"/>
      <psa10 value="0.0164552746" flag="0"/>
      <psa30 value="0.0031428826" flag="0"/>
    </comp>
    <comp name="--.HHN">
      <acc value="0.0095673217" flag="0"/>
      <vel value="0.0090908710" flag="0"/>
      <psa03 value="0.0272562278" flag="0"/>
      <psa10 value="0.0133020994" flag="0"/>
      <psa30 value="0.0034588157" flag="0"/>
    </comp>
    <comp name="--.HHZ">
      <acc value="0.0082412431" flag="0"/>
      <vel value="0.0076357697" flag="0"/>
      <psa03 value="0.0203210158" flag="0"/>
      <psa10 value="0.0123546337" flag="0"/>
      <psa30 value="0.0029841292" flag="0"/>
    </comp>
  </station>
  <station code="LOUT" name="LOUT" netid="HA" insttype="30" lat="37.9879" lon="22.9743">
    <comp name="--.HHN">
      <acc value="0.1407183786" flag="0"/>
      <vel value="0.0877584428" flag="0"/>
      <psa03 value="0.2990449544" flag="0"/>
      <psa10 value="0.1079182168" flag="0"/>
      <psa30 value="0.0278699151" flag="0"/>
    </comp>
    <comp name="--.HHE">
      <acc value="0.1675035799" flag="0"/>
      <vel value="0.1247885663" flag="0"/>
      <psa03 value="0.3958274479" flag="0"/>
      <psa10 value="0.1821381886" flag="0"/>
      <psa30 value="0.0125650289" flag="0"/>
    </comp>
    <comp name="--.HHZ">
      <acc value="0.1011530854" flag="0"/>
      <vel value="0.0471688317" flag="0"/>
      <psa03 value="0.2311809677" flag="0"/>
      <psa10 value="0.0392162336" flag="0"/>
      <psa30 value="0.0243595588" flag="0"/>
    </comp>
  </station>
  <station code="MDRA" name="MDRA" netid="HA" insttype="60" lat="38.0606" lon="23.4662">
    <comp name="--.HHZ">
      <acc value="0.1316662327" flag="0"/>
      <vel value="0.1146235718" flag="0"/>
      <psa03 value="0.2628519938" flag="0"/>
      <psa10 value="0.1199082573" flag="0"/>
      <psa30 value="0.0405155785" flag="0"/>
    </comp>
    <comp name="--.HHE">
      <acc value="0.1081372025" flag="0"/>
      <vel value="0.0638794390" flag="0"/>
      <psa03 value="0.1943873931" flag="0"/>
      <psa10 value="0.0678982779" flag="0"/>
      <psa30 value="0.0241200769" flag="0"/>
    </comp>
    <comp name="--.HHN">
      <acc value="0.1454886814" flag="0"/>
      <vel value="0.1010540443" flag="0"/>
      <psa03 value="0.3202281685" flag="0"/>
      <psa10 value="0.0693625499" flag="0"/>
      <psa30 value="0.0383517366" flag="0"/>
    </comp>
  </station>
  <station code="MRKA" name="MRKA" netid="HA" insttype="Horizon,120s,1200" lat="38.7047" lon="23.5863">
    <comp name="--.HHE">
      <acc value="0.0658541275" flag="0"/>
      <vel value="0.0316056440" flag="0"/>
      <psa03 value="0.0965565814" flag="0"/>
      <psa10 value="0.0412248436" flag="0"/>
      <psa30 value="0.0123074434" flag="0"/>
    </comp>
    <comp name="--.HHZ">
      <acc value="0.0337049236" flag="0"/>
      <vel value="0.0233582585" flag="0"/>
      <psa03 value="0.0660691732" flag="0"/>
      <psa10 value="0.0277593723" flag="0"/>
      <psa30 value="0.0093431545" flag="0"/>
    </comp>
    <comp name="--.HHN">
      <acc value="0.0417468642" flag="0"/>
      <vel value="0.0294107973" flag="0"/>
      <psa03 value="0.1093586415" flag="0"/>
      <psa10 value="0.0447099205" flag="0"/>
      <psa30 value="0.0064707144" flag="0"/>
    </comp>
  </station>
  <station code="MRTH" name="MRTH" netid="HA" insttype="S100," lat="38.1225" lon="23.9409">
    <comp name="--.HHE">
      <acc value="0.0741119829" flag="0"/>
      <vel value="0.0288949984" flag="0"/>
      <psa03 value="0.1205508247" flag="0"/>
      <psa10 value="0.0299386477" flag="0"/>
      <psa30 value="0.0079392787" flag="0"/>
    </comp>
    <comp name="--.HHZ">
      <acc value="0.0611247164" flag="0"/>
      <vel value="0.0257404676" flag="0"/>
      <psa03 value="0.1078479586" flag="0"/>
      <psa10 value="0.0275547825" flag="0"/>
      <psa30 value="0.0103556472" flag="0"/>
    </comp>
    <comp name="--.HHN">
      <acc value="0.0585029803" flag="0"/>
      <vel value="0.0291788063" flag="0"/>
      <psa03 value="0.0851211319" flag="0"/>
      <psa10 value="0.0256110889" flag="0"/>
      <psa30 value="0.0062428630" flag="0"/>
    </comp>
  </station>
  <station code="PRDM" name="PRDM" netid="HA" insttype="25" lat="38.2804" lon="22.847">
    <comp name="--.HHE">
      <acc value="0.1310418626" flag="0"/>
      <vel value="0.0366568695" flag="0"/>
      <psa03 value="0.1662989323" flag="0"/>
      <psa10 value="0.0514828386" flag="0"/>
      <psa30 value="0.0043105991" flag="0"/>
    </comp>
    <comp name="--.HHZ">
      <acc value="0.1128343019" flag="0"/>
      <vel value="0.0274786300" flag="0"/>
      <psa03 value="0.2354524812" flag="0"/>
      <psa10 value="0.0205793264" flag="0"/>
      <psa30 value="0.0057687063" flag="0"/>
    </comp>
    <comp name="--.HHN">
      <acc value="0.1829528890" flag="0"/>
      <vel value="0.0548010100" flag="0"/>
      <psa03 value="0.2798302523" flag="0"/>
      <psa10 value="0.0274348818" flag="0"/>
      <psa30 value="0.0055911124" flag="0"/>
    </comp>
  </station>
  <station code="PSAH" name="PSAH" netid="HA" insttype="25" lat="38.5694" lon="23.6473">
    <comp name="--.HHE">
      <acc value="0.0354528057" flag="0"/>
      <vel value="0.0169636306" flag="0"/>
      <psa03 value="0.0725759580" flag="0"/>
      <psa10 value="0.0215361616" flag="0"/>
      <psa30 value="0.0073833346" flag="0"/>
    </comp>
    <comp name="--.HHN">
      <acc value="0.0359053302" flag="0"/>
      <vel value="0.0217114917" flag="0"/>
      <psa03 value="0.0581735988" flag="0"/>
      <psa10 value="0.0395098550" flag="0"/>
      <psa30 value="0.0086726574" flag="0"/>
    </comp>
    <comp name="--.HHZ">
      <acc value="0.0210615363" flag="0"/>
      <vel value="0.0176646661" flag="0"/>
      <psa03 value="0.0472932339" flag="0"/>
      <psa10 value="0.0235182906" flag="0"/>
      <psa30 value="0.0122566186" flag="0"/>
    </comp>
  </station>
  <station code="THAL" name="THAL" netid="HA" insttype="30" lat="38.0357" lon="22.6634">
    <comp name="--.HHN">
      <acc value="0.1584197074" flag="0"/>
      <vel value="0.0701067518" flag="0"/>
      <psa03 value="0.3869189320" flag="0"/>
      <psa10 value="0.0786084915" flag="0"/>
      <psa30 value="0.0124046572" flag="0"/>
    </comp>
    <comp name="--.HHE">
      <acc value="0.1950054632" flag="0"/>
      <vel value="0.0766943314" flag="0"/>
      <psa03 value="0.4703018911" flag="0"/>
      <psa10 value="0.1209879419" flag="0"/>
      <psa30 value="0.0118959459" flag="0"/>
    </comp>
    <comp name="--.HHZ">
      <acc value="0.0790853319" flag="0"/>
      <vel value="0.0372506981" flag="0"/>
      <psa03 value="0.1873247121" flag="0"/>
      <psa10 value="0.0282750335" flag="0"/>
      <psa30 value="0.0079872586" flag="0"/>
    </comp>
  </station>
  <station code="THIV" name="THIV" netid="HA" insttype="25" lat="38.299" lon="23.332">
    <comp name="--.HHN">
      <acc value="1.3455969610" flag="0"/>
      <vel value="0.3279968238" flag="0"/>
      <psa03 value="1.7935145445" flag="0"/>
      <psa10 value="0.3857219621" flag="0"/>
      <psa30 value="0.0751663794" flag="0"/>
    </comp>
    <comp name="--.HHE">
      <acc value="1.4225631609" flag="0"/>
      <vel value="0.3092341679" flag="0"/>
      <psa03 value="1.7376583132" flag="0"/>
      <psa10 value="0.3335669331" flag="0"/>
      <psa30 value="0.0780064739" flag="0"/>
    </comp>
    <comp name="--.HHZ">
      <acc value="1.3159178790" flag="0"/>
      <vel value="0.3033950173" flag="0"/>
      <psa03 value="1.3102967717" flag="0"/>
      <psa10 value="0.3577172440" flag="0"/>
      <psa30 value="0.0957267496" flag="0"/>
    </comp>
  </station>
  <station code="VILL" name="VILL" netid="HA" insttype="Horizon,120s,1200" lat="38.1642" lon="23.3122">
    <comp name="--.HHN">
      <acc value="1.9262885613" flag="0"/>
      <vel value="0.6648480004" flag="0"/>
      <psa03 value="1.4518785203" flag="0"/>
      <psa10 value="0.4765976729" flag="0"/>
      <psa30 value="0.0901562087" flag="0"/>
    </comp>
    <comp name="--.HHE">
      <acc value="0.9342072464" flag="0"/>
      <vel value="0.3307444388" flag="0"/>
      <psa03 value="1.2977954584" flag="0"/>
      <psa10 value="0.3711504175" flag="0"/>
      <psa30 value="0.0596883952" flag="0"/>
    </comp>
    <comp name="--.HHZ">
      <acc value="0.5893817619" flag="0"/>
      <vel value="0.3046296357" flag="0"/>
      <psa03 value="1.4063066005" flag="0"/>
      <psa10 value="0.2133041947" flag="0"/>
      <psa30 value="0.0522218571" flag="0"/>
    </comp>
  </station>
  <station code="ARS1" name="ARS1" netid="HI" insttype="CMG-5TD,ACCELEROMETER,GURALP" lat="37.6349" lon="22.7293">
    <comp name="--.HNZ">
      <acc value="0.0250301345" flag="0"/>
      <vel value="0.0163004331" flag="0"/>
      <psa03 value="0.1112437161" flag="0"/>
      <psa10 value="0.0153260859" flag="0"/>
      <psa30 value="0.0084869489" flag="0"/>
    </comp>
    <comp name="--.HNN">
      <acc value="0.0484112090" flag="0"/>
