<?xml version="1.0" encoding="UTF-8" standalone="yes"?>
<!DOCTYPE earthquake SYSTEM "stationlist.dtd">
<stationlist created="" xmlns="ch.ethz.sed.shakemap.usgs.xml">
  <station code="ARPRA" name="ARPRA" netid="KO" insttype="CMG-5T" lat="39.0929" lon="38.3356">
    <comp name="--.HNE">
      <acc value="0.0387507961" flag="0"/>
      <vel value="0.0251780652" flag="0"/>
      <psa03 value="0.0650558889" flag="0"/>
      <psa10 value="0.0130172973" flag="0"/>
      <psa30 value="0.0015130478" flag="0"/>
    </comp>
    <comp name="--.HNZ">
      <acc value="0.0187677419" flag="0"/>
      <vel value="0.0104741583" flag="0"/>
      <psa03 value="0.0401683138" flag="0"/>
      <psa10 value="0.0103396498" flag="0"/>
      <psa30 value="0.0008651329" flag="0"/>
    </comp>
    <comp name="--.HNN">
      <acc value="0.0359952325" flag="0"/>
      <vel value="0.0205075488" flag="0"/>
      <psa03 value="0.0790866332" flag="0"/>
      <psa10 value="0.0217054932" flag="0"/>
      <psa30 value="0.0008390070" flag="0"/>
    </comp>
  </station>
</stationlist>
