<?xml version="1.0" encoding="UTF-8" standalone="yes"?>
<!DOCTYPE earthquake SYSTEM "stationlist.dtd">
<stationlist created="" xmlns="ch.ethz.sed.shakemap.usgs.xml">
  <station code="KARP" name="KARP" netid="GE" source="GFZ" insttype="STS-2/N" lat="35.5471" lon="27.1611">
    <comp name="--.HHE">
      <acc value="0.1366374569" flag="0"/>
      <vel value="0.0713983006" flag="0"/>
      <psa03 value="0.4004577745" flag="0"/>
      <psa10 value="0.0511442373" flag="0"/>
      <psa30 value="0.0038398245" flag="0"/>
    </comp>
    <comp name="--.HHN">
      <acc value="0.1292068741" flag="0"/>
      <vel value="0.0542989030" flag="0"/>
      <psa03 value="0.3022574668" flag="0"/>
      <psa10 value="0.0727799946" flag="0"/>
      <psa30 value="0.0027811733" flag="0"/>
    </comp>
    <comp name="--.HHZ">
      <acc value="0.0780009753" flag="0"/>
      <vel value="0.0311142338" flag="0"/>
      <psa03 value="0.2483365839" flag="0"/>
      <psa10 value="0.0201785958" flag="0"/>
      <psa30 value="0.0013784652" flag="0"/>
    </comp>
  </station>
  <station code="ZKR" name="ZKR" netid="GE" source="GFZ" insttype="STS-2/N" lat="35.1147" lon="26.2169">
    <comp name="--.HHE">
      <acc value="0.0467225328" flag="0"/>
      <vel value="0.0216263247" flag="0"/>
      <psa03 value="0.0988419865" flag="0"/>
      <psa10 value="0.0098740183" flag="0"/>
      <psa30 value="0.0009906157" flag="0"/>
    </comp>
    <comp name="--.HHN">
      <acc value="0.0211994301" flag="0"/>
      <vel value="0.0094294420" flag="0"/>
      <psa03 value="0.0681484187" flag="0"/>
      <psa10 value="0.0062281400" flag="0"/>
      <psa30 value="0.0004765829" flag="0"/>
    </comp>
    <comp name="--.HHZ">
      <acc value="0.0240806089" flag="0"/>
      <vel value="0.0122130267" flag="0"/>
      <psa03 value="0.0534938891" flag="0"/>
      <psa10 value="0.0121996984" flag="0"/>
      <psa30 value="0.0008074132" flag="0"/>
    </comp>
  </station>
  <station code="FRMA" name="FRMA" netid="HC" source="NOA" insttype="60" lat="35.0187" lon="25.8555">
    <comp name="--.HHE">
      <acc value="0.0182578722" flag="0"/>
      <vel value="0.0119964859" flag="0"/>
      <psa03 value="0.0566719511" flag="0"/>
      <psa10 value="0.0093151184" flag="0"/>
      <psa30 value="0.0006762117" flag="0"/>
    </comp>
    <comp name="--.HHN">
      <acc value="0.0147814705" flag="0"/>
      <vel value="0.0104092006" flag="0"/>
      <psa03 value="0.0470490776" flag="0"/>
      <psa10 value="0.0068644375" flag="0"/>
      <psa30 value="0.0008565243" flag="0"/>
    </comp>
    <comp name="--.HHZ">
      <acc value="0.0113312745" flag="0"/>
      <vel value="0.0053691116" flag="0"/>
      <psa03 value="0.0389745939" flag="0"/>
      <psa10 value="0.0045965773" flag="0"/>
      <psa30 value="0.0005794281" flag="0"/>
    </comp>
  </station>
  <station code="STIA" name="STIA" netid="HC" source="NOA" insttype="120" lat="35.2021" lon="26.0909">
    <comp name="--.HHE">
      <acc value="0.0339772626" flag="0"/>
      <vel value="0.0224940267" flag="0"/>
      <psa03 value="0.1101329236" flag="0"/>
      <psa10 value="0.0194126091" flag="0"/>
      <psa30 value="0.0012798027" flag="0"/>
    </comp>
    <comp name="--.HHN">
      <acc value="0.0443293262" flag="0"/>
      <vel value="0.0224548695" flag="0"/>
      <psa03 value="0.1194704594" flag="0"/>
      <psa10 value="0.0131290456" flag="0"/>
      <psa30 value="0.0011035735" flag="0"/>
    </comp>
    <comp name="--.HHZ">
      <acc value="0.0315036066" flag="0"/>
      <vel value="0.0164485703" flag="0"/>
      <psa03 value="0.0942226335" flag="0"/>
      <psa10 value="0.0114925966" flag="0"/>
      <psa30 value="0.0007143103" flag="0"/>
    </comp>
  </station>
  <station code="KARP" name="KARP" netid="HL" source="NOA" insttype="120" lat="35.5471" lon="27.1611">
    <comp name="--.HHE">
      <acc value="0.1284642118" flag="0"/>
      <vel value="0.0700142623" flag="0"/>
      <psa03 value="0.3895422354" flag="0"/>
      <psa10 value="0.0507718973" flag="0"/>
      <psa30 value="0.0038126957" flag="0"/>
    </comp>
    <comp name="--.HHN">
      <acc value="0.1227465977" flag="0"/>
      <vel value="0.0532871191" flag="0"/>
      <psa03 value="0.2942172189" flag="0"/>
      <psa10 value="0.0720831702" flag="0"/>
      <psa30 value="0.0027601597" flag="0"/>
    </comp>
    <comp name="--.HHZ">
      <acc value="0.0748587430" flag="0"/>
      <vel value="0.0304657980" flag="0"/>
      <psa03 value="0.2402067113" flag="0"/>
      <psa10 value="0.0200225413" flag="0"/>
      <psa30 value="0.0013644480" flag="0"/>
    </comp>
  </station>
  <station code="ZKR" name="ZKR" netid="HL" source="NOA" insttype="120" lat="35.1147" lon="26.2169">
    <comp name="--.HHE">
      <acc value="0.0458329296" flag="0"/>
      <vel value="0.0211273494" flag="0"/>
      <psa03 value="0.0958559851" flag="0"/>
      <psa10 value="0.0097813903" flag="0"/>
      <psa30 value="0.0009855561" flag="0"/>
    </comp>
  </station>
</stationlist>
