<stationlist xmlns:esm="https://esm-db.eu/esmws/shakemap/1/" created="1783475661">
	<station code="KARP" name="KARP" netid="GE" source="GEOFON" insttype="" lat="35.5471" lon="27.16106" esm:processing="manual (Paolucci et al 2011)" esm:quality="best">
		<comp name="--.HNE" depth="0.0">
			<acc value="0.119072536356724" flag="0"/>
			<vel value="0.0619360192007072" flag="0"/>
			<psa03 value="0.353552916697583" flag="0"/>
			<psa10 value="0.0514423520593579" flag="0"/>
			<psa30 value="0.00391046885843695" flag="0"/>
		</comp>
		<comp name="--.HNN" depth="0.0">
			<acc value="0.121468529936857" flag="0"/>
			<vel value="0.0564121398444866" flag="0"/>
			<psa03 value="0.332524079586996" flag="0"/>
			<psa10 value="0.0724340531384525" flag="0"/>
			<psa30 value="0.00275075086289135" flag="0"/>
		</comp>
		<comp name="--.HNZ" depth="0.0">
			<acc value="0.0783224734671295" flag="0"/>
			<vel value="0.0322397547699751" flag="0"/>
			<psa03 value="0.253061920632945" flag="0"/>
			<psa10 value="0.0208467363296514" flag="0"/>
			<psa30 value="0.00139998364508572" flag="0"/>
		</comp>
	</station>
	<station code="KSS1" name="KSS1" netid="HI" source="ITSAK Strong Motion Network" insttype="" lat="35.4189" lon="26.9207" esm:processing="manual (Paolucci et al 2011)" esm:quality="best">
		<comp name="--.HNE" depth="0.0">
			<acc value="0.0984738113976723" flag="0"/>
			<vel value="0.0428585159184076" flag="0"/>
			<psa03 value="0.22885638685246" flag="0"/>
			<psa10 value="0.0284493320782281" flag="0"/>
			<psa30 value="0.00202547969360916" flag="0"/>
		</comp>
		<comp name="--.HNN" depth="0.0">
			<acc value="0.094967824981215" flag="0"/>
			<vel value="0.0631092343140408" flag="0"/>
			<psa03 value="0.219952687735424" flag="0"/>
			<psa10 value="0.0339821533486436" flag="0"/>
			<psa30 value="0.00381695764660476" flag="0"/>
		</comp>
		<comp name="--.HNZ" depth="0.0">
			<acc value="0.162291630224399" flag="0"/>
			<vel value="0.0499824414669281" flag="0"/>
			<psa03 value="0.237491632729787" flag="0"/>
			<psa10 value="0.0189501141911028" flag="0"/>
			<psa30 value="0.00149707423344737" flag="0"/>
		</comp>
	</station>
	<station code="RDI1" name="RDI1" netid="HI" source="ITSAK Strong Motion Network" insttype="" lat="36.4514" lon="28.224" esm:processing="manual (Paolucci et al 2011)" esm:quality="good">
		<comp name="--.HNE" depth="0.0">
			<acc value="0.00730737797327284" flag="0"/>
			<vel value="0.00540448385180237" flag="0"/>
			<psa03 value="0.0219430161171237" flag="0"/>
			<psa10 value="0.00680948125096025" flag="0"/>
			<psa30 value="0.00183138902886651" flag="0"/>
		</comp>
		<comp name="--.HNN" depth="0.0">
			<acc value="0.00467911036590119" flag="0"/>
			<vel value="0.00766177025618287" flag="0"/>
			<psa03 value="0.0148234845872541" flag="0"/>
			<psa10 value="0.00945242523929739" flag="0"/>
			<psa30 value="0.00132506996688347" flag="0"/>
		</comp>
		<comp name="--.HNZ" depth="0.0">
			<acc value="0.0035345872326072" flag="0"/>
			<vel value="0.00393179099714651" flag="0"/>
			<psa03 value="0.00983723890840184" flag="0"/>
			<psa10 value="0.00538291346659732" flag="0"/>
			<psa30 value="0.000551818690697015" flag="0"/>
		</comp>
	</station>
	<station code="RGE1" name="RGE1" netid="HI" source="ITSAK Strong Motion Network" insttype="" lat="36.0269" lon="27.9306" esm:processing="manual (Paolucci et al 2011)" esm:quality="best">
		<comp name="--.HNE" depth="0.0">
			<acc value="0.0121449138522241" flag="0"/>
			<vel value="0.00800183991495838" flag="0"/>
			<psa03 value="0.0335660855675827" flag="0"/>
			<psa10 value="0.00915699660608932" flag="0"/>
			<psa30 value="0.000710331274712621" flag="0"/>
		</comp>
		<comp name="--.HNN" depth="0.0">
			<acc value="0.0125451856981376" flag="0"/>
			<vel value="0.00868262787960745" flag="0"/>
			<psa03 value="0.0522140891354797" flag="0"/>
			<psa10 value="0.0146115613817344" flag="0"/>
			<psa30 value="0.000751746934961908" flag="0"/>
		</comp>
		<comp name="--.HNZ" depth="0.0">
			<acc value="0.00602091180002865" flag="0"/>
			<vel value="0.00489559312597386" flag="0"/>
			<psa03 value="0.0222567348161308" flag="0"/>
			<psa10 value="0.00361486329507926" flag="0"/>
			<psa30 value="0.000491144983862907" flag="0"/>
		</comp>
	</station>
	<station code="SIT2" name="SIT2" netid="HI" source="ITSAK Strong Motion Network" insttype="" lat="35.2059" lon="26.107" esm:processing="manual (Paolucci et al 2011)" esm:quality="good">
		<comp name="--.HNE" depth="0.0">
			<acc value="0.119026780453584" flag="0"/>
			<vel value="0.0806814631815282" flag="0"/>
			<psa03 value="0.547868320040738" flag="0"/>
			<psa10 value="0.0421605812963975" flag="0"/>
			<psa30 value="0.00302188863499807" flag="0"/>
		</comp>
		<comp name="--.HNN" depth="0.0">
			<acc value="0.167253374411386" flag="0"/>
			<vel value="0.100281643013086" flag="0"/>
			<psa03 value="0.57730869199556" flag="0"/>
			<psa10 value="0.055779214146867" flag="0"/>
			<psa30 value="0.00331450266628157" flag="0"/>
		</comp>
		<comp name="--.HNZ" depth="0.0">
			<acc value="0.0871705518778072" flag="0"/>
			<vel value="0.0349580024575308" flag="0"/>
			<psa03 value="0.261562939890417" flag="0"/>
			<psa10 value="0.0120924761827203" flag="0"/>
			<psa30 value="0.00107023358230906" flag="0"/>
		</comp>
	</station>
	<station code="IACM" name="IACM" netid="HL" source="National Observatory of Athens Seismic Network" insttype="" lat="35.3058" lon="25.0709" esm:processing="manual (Paolucci et al 2011)" esm:quality="good">
		<comp name="--.HNE" depth="0.0">
			<acc value="0.0228361100641783" flag="0"/>
			<vel value="0.022149258377671" flag="0"/>
			<psa03 value="0.073421961060584" flag="0"/>
			<psa10 value="0.0329512929081586" flag="0"/>
			<psa30 value="0.00143667225451271" flag="0"/>
		</comp>
		<comp name="--.HNN" depth="0.0">
			<acc value="0.0239263333538292" flag="0"/>
			<vel value="0.0237494560153917" flag="0"/>
			<psa03 value="0.0835784419629317" flag="0"/>
			<psa10 value="0.0314935918165353" flag="0"/>
			<psa30 value="0.00173778730505367" flag="0"/>
		</comp>
		<comp name="--.HNZ" depth="0.0">
			<acc value="0.021210077155106" flag="0"/>
			<vel value="0.0103951378708631" flag="0"/>
			<psa03 value="0.0587017750831725" flag="0"/>
			<psa10 value="0.0089757340696915" flag="0"/>
			<psa30 value="0.000824151445908566" flag="0"/>
		</comp>
	</station>
	<station code="KARP" name="KARP" netid="HL" source="National Observatory of Athens Seismic Network" insttype="" lat="35.5471" lon="27.16106" esm:processing="manual (Paolucci et al 2011)" esm:quality="best">
		<comp name="--.HNE" depth="0.0">
			<acc value="0.116691680528566" flag="0"/>
			<vel value="0.0606225372042758" flag="0"/>
			<psa03 value="0.34639416363866" flag="0"/>
			<psa10 value="0.0503671968343209" flag="0"/>
			<psa30 value="0.00380129787428837" flag="0"/>
		</comp>
		<comp name="--.HNN" depth="0.0">
			<acc value="0.119013324395352" flag="0"/>
			<vel value="0.0552764459578286" flag="0"/>
			<psa03 value="0.325812748594255" flag="0"/>
			<psa10 value="0.0709642716510423" flag="0"/>
			<psa30 value="0.00269706021494942" flag="0"/>
		</comp>
		<comp name="--.HNZ" depth="0.0">
			<acc value="0.0767510174499734" flag="0"/>
			<vel value="0.0315263963049145" flag="0"/>
			<psa03 value="0.247916566871844" flag="0"/>
			<psa10 value="0.0204158688799174" flag="0"/>
			<psa30 value="0.00137134863285003" flag="0"/>
		</comp>
	</station>
	<station code="THRA" name="THRA" netid="HL" source="National Observatory of Athens Seismic Network" insttype="" lat="36.41502" lon="25.43244" esm:processing="automatic (Paolucci et al 2011)" esm:quality="good">
		<comp name="00.HNE" depth="0.0">
			<acc value="0.013464865879269" flag="0"/>
			<vel value="0.0150848651272477" flag="0"/>
			<psa03 value="0.0479420613429112" flag="0"/>
			<psa10 value="0.0280804295656532" flag="0"/>
			<psa30 value="0.00143609857198417" flag="0"/>
		</comp>
		<comp name="00.HNN" depth="0.0">
			<acc value="0.0115097452881672" flag="0"/>
			<vel value="0.0108058030750133" flag="0"/>
			<psa03 value="0.0244906406139211" flag="0"/>
			<psa10 value="0.0145294225029363" flag="0"/>
			<psa30 value="0.00113120191574154" flag="0"/>
		</comp>
		<comp name="00.HNZ" depth="0.0">
			<acc value="0.00847988203827739" flag="0"/>
			<vel value="0.00584634717226513" flag="0"/>
			<psa03 value="0.0260144420791173" flag="0"/>
			<psa10 value="0.00558390193735785" flag="0"/>
			<psa30 value="0.000400588958927716" flag="0"/>
		</comp>
	</station>
	<station code="ZKR" name="ZKR" netid="HL" source="National Observatory of Athens Seismic Network" insttype="" lat="35.1147" lon="26.21691" esm:processing="manual (Paolucci et al 2011)" esm:quality="good">
		<comp name="00.HNE" depth="0.0">
			<acc value="0.0448962229476142" flag="0"/>
			<vel value="0.0215807703294018" flag="0"/>
			<psa03 value="0.0999540895852191" flag="0"/>
			<psa10 value="0.0102643096202977" flag="0"/>
			<psa30 value="0.00101833262263186" flag="0"/>
		</comp>
		<comp name="00.HNN" depth="0.0">
			<acc value="0.0381256748088079" flag="0"/>
			<vel value="0.0177510062975047" flag="0"/>
			<psa03 value="0.119014269604603" flag="0"/>
			<psa10 value="0.0115126171849475" flag="0"/>
			<psa30 value="0.000942270871380803" flag="0"/>
		</comp>
		<comp name="00.HNZ" depth="0.0">
			<acc value="0.0228796069002773" flag="0"/>
			<vel value="0.0116225692737792" flag="0"/>
			<psa03 value="0.050871888924975" flag="0"/>
			<psa10 value="0.0117824126908557" flag="0"/>
			<psa30 value="0.000816992692849642" flag="0"/>
		</comp>
	</station>
	<station code="AGNA" name="AGNA" netid="HL" source="National Observatory of Athens Seismic Network" insttype="" lat="35.1895" lon="25.71853" esm:processing="automatic (Paolucci et al 2011)" esm:quality="bad">
		<comp name="00.HNE" depth="0.0">
			<acc value="0" flag="1"/>
			<vel value="0" flag="1"/>
			<psa03 value="0" flag="1"/>
			<psa10 value="0" flag="1"/>
			<psa30 value="0" flag="1"/>
		</comp>
		<comp name="00.HNN" depth="0.0">
			<acc value="0" flag="1"/>
			<vel value="0" flag="1"/>
			<psa03 value="0" flag="1"/>
			<psa10 value="0" flag="1"/>
			<psa30 value="0" flag="1"/>
		</comp>
		<comp name="00.HNZ" depth="0.0">
			<acc value="0" flag="1"/>
			<vel value="0" flag="1"/>
			<psa03 value="0" flag="1"/>
			<psa10 value="0" flag="1"/>
			<psa30 value="0" flag="1"/>
		</comp>
	</station>
	<station code="ASTA" name="ASTA" netid="HL" source="National Observatory of Athens Seismic Network" insttype="" lat="36.54552" lon="26.35295" esm:processing="automatic (Paolucci et al 2011)" esm:quality="bad">
		<comp name="00.HNE" depth="0.0">
			<acc value="0" flag="1"/>
			<vel value="0" flag="1"/>
			<psa03 value="0" flag="1"/>
			<psa10 value="0" flag="1"/>
			<psa30 value="0" flag="1"/>
		</comp>
		<comp name="00.HNN" depth="0.0">
			<acc value="0" flag="1"/>
			<vel value="0" flag="1"/>
			<psa03 value="0" flag="1"/>
			<psa10 value="0" flag="1"/>
			<psa30 value="0" flag="1"/>
		</comp>
		<comp name="00.HNZ" depth="0.0">
			<acc value="0" flag="1"/>
			<vel value="0" flag="1"/>
			<psa03 value="0" flag="1"/>
			<psa10 value="0" flag="1"/>
			<psa30 value="0" flag="1"/>
		</comp>
	</station>
	<station code="KLNA" name="KLNA" netid="HL" source="National Observatory of Athens Seismic Network" insttype="" lat="36.95708" lon="26.97274" esm:processing="automatic (Paolucci et al 2011)" esm:quality="bad">
		<comp name="00.HNE" depth="0.0">
			<acc value="0" flag="1"/>
			<vel value="0" flag="1"/>
			<psa03 value="0" flag="1"/>
			<psa10 value="0" flag="1"/>
			<psa30 value="0" flag="1"/>
		</comp>
		<comp name="00.HNN" depth="0.0">
			<acc value="0" flag="1"/>
			<vel value="0" flag="1"/>
			<psa03 value="0" flag="1"/>
			<psa10 value="0" flag="1"/>
			<psa30 value="0" flag="1"/>
		</comp>
		<comp name="00.HNZ" depth="0.0">
			<acc value="0" flag="1"/>
			<vel value="0" flag="1"/>
			<psa03 value="0" flag="1"/>
			<psa10 value="0" flag="1"/>
			<psa30 value="0" flag="1"/>
		</comp>
	</station>
	<station code="RODB" name="RODB" netid="HL" source="National Observatory of Athens Seismic Network" insttype="" lat="36.4471" lon="28.22116" esm:processing="automatic (Paolucci et al 2011)" esm:quality="bad">
		<comp name="00.HNE" depth="0.0">
			<acc value="0" flag="1"/>
			<vel value="0" flag="1"/>
			<psa03 value="0" flag="1"/>
			<psa10 value="0" flag="1"/>
			<psa30 value="0" flag="1"/>
		</comp>
		<comp name="00.HNN" depth="0.0">
			<acc value="0" flag="1"/>
			<vel value="0" flag="1"/>
			<psa03 value="0" flag="1"/>
			<psa10 value="0" flag="1"/>
			<psa30 value="0" flag="1"/>
		</comp>
		<comp name="00.HNZ" depth="0.0">
			<acc value="0" flag="1"/>
			<vel value="0" flag="1"/>
			<psa03 value="0" flag="1"/>
			<psa10 value="0" flag="1"/>
			<psa30 value="0" flag="1"/>
		</comp>
	</station>
</stationlist>
