<stationlist created="1778069419">
	<station code="SIT2" name="SIT2" netid="HI" source="ITSAK Strong Motion Network" insttype="" lat="35.2059" lon="26.107">
		<comp name="--.HNE" depth="0.0">
			<acc value="0.0164909329112249" flag="0"/>
			<vel value="0.0125949894307747" flag="0"/>
			<psa03 value="0.0403127281630629" flag="0"/>
			<psa10 value="0.00771937290785043" flag="0"/>
			<psa30 value="0.000917662657740753" flag="0"/>
		</comp>
		<comp name="--.HNN" depth="0.0">
			<acc value="0.0203225218494878" flag="0"/>
			<vel value="0.0142247955313343" flag="0"/>
			<psa03 value="0.0555698206198935" flag="0"/>
			<psa10 value="0.010522024730419" flag="0"/>
			<psa30 value="0.000946297669976447" flag="0"/>
		</comp>
		<comp name="--.HNZ" depth="0.0">
			<acc value="0.00694373849451271" flag="0"/>
			<vel value="0.00390722687428622" flag="0"/>
			<psa03 value="0.0209840949039695" flag="0"/>
			<psa10 value="0.00374894949254499" flag="0"/>
			<psa30 value="0.000463529260565295" flag="0"/>
		</comp>
	</station>
</stationlist>
