<?xml version="1.0" encoding="UTF-8" standalone="yes"?>
<!DOCTYPE earthquake SYSTEM "stationlist.dtd">
<stationlist created="" xmlns="ch.ethz.sed.shakemap.usgs.xml">
  <station code="IMMV" name="IMMV" netid="GE" insttype="STS-2/N" lat="35.4606" lon="23.9811">
    <comp name="--.HHZ">
      <acc value="0.0226790495" flag="0"/>
      <vel value="0.0114808439" flag="0"/>
      <psa03 value="0.0522854918" flag="0"/>
      <psa10 value="0.0097838209" flag="0"/>
      <psa30 value="0.0004965289" flag="0"/>
    </comp>
    <comp name="--.HHE">
      <acc value="0.0217171607" flag="0"/>
      <vel value="0.0127763024" flag="0"/>
      <psa03 value="0.0574963821" flag="0"/>
      <psa10 value="0.0122858667" flag="0"/>
      <psa30 value="0.0010599235" flag="0"/>
    </comp>
    <comp name="--.HHN">
      <acc value="0.0252780670" flag="0"/>
      <vel value="0.0127255812" flag="0"/>
      <psa03 value="0.0677225730" flag="0"/>
      <psa10 value="0.0150067582" flag="0"/>
      <psa30 value="0.0009859139" flag="0"/>
    </comp>
  </station>
  <station code="ZKR" name="ZKR" netid="GE" insttype="STS-2/N" lat="35.1147" lon="26.2169">
    <comp name="--.HHZ">
      <acc value="0.0168064112" flag="0"/>
      <vel value="0.0072321959" flag="0"/>
      <psa03 value="0.0330057669" flag="0"/>
      <psa10 value="0.0065859169" flag="0"/>
      <psa30 value="0.0004982864" flag="0"/>
    </comp>
    <comp name="--.HHE">
      <acc value="0.0273411211" flag="0"/>
      <vel value="0.0118323373" flag="0"/>
      <psa03 value="0.0721540433" flag="0"/>
      <psa10 value="0.0118751952" flag="0"/>
      <psa30 value="0.0009181225" flag="0"/>
    </comp>
    <comp name="--.HHN">
      <acc value="0.0139177536" flag="0"/>
      <vel value="0.0068852738" flag="0"/>
      <psa03 value="0.0427997265" flag="0"/>
      <psa10 value="0.0054608881" flag="0"/>
      <psa30 value="0.0006238876" flag="0"/>
    </comp>
  </station>
  <station code="CHAN" name="CHAN" netid="HC" insttype="120" lat="35.5193" lon="24.0428">
    <comp name="--.HHE">
      <acc value="0.0312778592" flag="0"/>
      <vel value="0.0233211473" flag="0"/>
      <psa03 value="0.0812387419" flag="0"/>
      <psa10 value="0.0279789962" flag="0"/>
      <psa30 value="0.0029745475" flag="0"/>
    </comp>
    <comp name="--.HHZ">
      <acc value="0.0302724807" flag="0"/>
      <vel value="0.0160532311" flag="0"/>
      <psa03 value="0.0505807073" flag="0"/>
      <psa10 value="0.0257875296" flag="0"/>
      <psa30 value="0.0015617558" flag="0"/>
    </comp>
    <comp name="--.HHN">
      <acc value="0.0407362019" flag="0"/>
      <vel value="0.0254074934" flag="0"/>
      <psa03 value="0.0947381211" flag="0"/>
      <psa10 value="0.0241568143" flag="0"/>
      <psa30 value="0.0032207908" flag="0"/>
    </comp>
  </station>
  <station code="GVDS" name="GVDS" netid="HC" insttype="60" lat="34.8389" lon="24.0585">
    <comp name="--.HHZ">
      <acc value="0.0066442094" flag="0"/>
      <vel value="0.0022903144" flag="0"/>
      <psa03 value="0.0076527493" flag="0"/>
      <psa10 value="0.0025094069" flag="0"/>
      <psa30 value="0.0002711788" flag="0"/>
    </comp>
    <comp name="--.HHN">
      <acc value="0.0134715709" flag="0"/>
      <vel value="0.0054603864" flag="0"/>
      <psa03 value="0.0247458370" flag="0"/>
      <psa10 value="0.0056632820" flag="0"/>
      <psa30 value="0.0008232319" flag="0"/>
    </comp>
    <comp name="--.HHE">
      <acc value="0.0144935551" flag="0"/>
      <vel value="0.0053842466" flag="0"/>
      <psa03 value="0.0285868138" flag="0"/>
      <psa10 value="0.0051318510" flag="0"/>
      <psa30 value="0.0003463214" flag="0"/>
    </comp>
  </station>
  <station code="IMOD" name="IMOD" netid="HC" insttype="120" lat="34.9731" lon="24.7995">
    <comp name="--.HHN">
      <acc value="0.0513340662" flag="0"/>
      <vel value="0.0309815551" flag="0"/>
      <psa03 value="0.1629091420" flag="0"/>
      <psa10 value="0.0366925437" flag="0"/>
      <psa30 value="0.0030457211" flag="0"/>
    </comp>
    <comp name="--.HHZ">
      <acc value="0.0336969192" flag="0"/>
      <vel value="0.0163631182" flag="0"/>
      <psa03 value="0.0720398160" flag="0"/>
      <psa10 value="0.0150647523" flag="0"/>
      <psa30 value="0.0009057656" flag="0"/>
    </comp>
    <comp name="--.HHE">
      <acc value="0.0652564903" flag="0"/>
      <vel value="0.0256815429" flag="0"/>
      <psa03 value="0.1648675301" flag="0"/>
      <psa10 value="0.0188893212" flag="0"/>
      <psa30 value="0.0018972991" flag="0"/>
    </comp>
  </station>
  <station code="KNSS" name="KNSS" netid="HC" insttype="60" lat="35.3042" lon="25.1802">
    <comp name="--.HHN">
      <acc value="0.4895341940" flag="0"/>
      <vel value="0.1978161774" flag="0"/>
      <psa03 value="1.1721499282" flag="0"/>
      <psa10 value="0.0940380888" flag="0"/>
      <psa30 value="0.0066632251" flag="0"/>
    </comp>
    <comp name="--.HHE">
      <acc value="0.4890080233" flag="0"/>
      <vel value="0.2297413435" flag="0"/>
      <psa03 value="1.1754348633" flag="0"/>
      <psa10 value="0.1284220817" flag="0"/>
      <psa30 value="0.0114859916" flag="0"/>
    </comp>
    <comp name="--.HHZ">
      <acc value="0.5606455992" flag="0"/>
      <vel value="0.1226968026" flag="0"/>
      <psa03 value="0.8022495450" flag="0"/>
      <psa10 value="0.0494527079" flag="0"/>
      <psa30 value="0.0039860157" flag="0"/>
    </comp>
  </station>
  <station code="STIA" name="STIA" netid="HC" insttype="120" lat="35.2021" lon="26.0909">
    <comp name="--.HHE">
      <acc value="0.0549707703" flag="0"/>
      <vel value="0.0207263353" flag="0"/>
      <psa03 value="0.1284228228" flag="0"/>
      <psa10 value="0.0151272205" flag="0"/>
      <psa30 value="0.0009177247" flag="0"/>
    </comp>
    <comp name="--.HHN">
      <acc value="0.0722455753" flag="0"/>
      <vel value="0.0192576436" flag="0"/>
      <psa03 value="0.1072191126" flag="0"/>
      <psa10 value="0.0142310870" flag="0"/>
      <psa30 value="0.0012010626" flag="0"/>
    </comp>
    <comp name="--.HHZ">
      <acc value="0.0458410208" flag="0"/>
      <vel value="0.0134354472" flag="0"/>
      <psa03 value="0.0797448095" flag="0"/>
      <psa10 value="0.0074065052" flag="0"/>
      <psa30 value="0.0009182972" flag="0"/>
    </comp>
  </station>
  <station code="SIT2" name="SIT2" netid="HI" insttype="CMG-5TD,ACCELEROMETER,GURALP" lat="35.2059" lon="26.107">
    <comp name="--.HNN">
      <acc value="0.0756264947" flag="0"/>
      <vel value="0.0451289032" flag="0"/>
      <psa03 value="0.2981589654" flag="0"/>
      <psa10 value="0.0221088109" flag="0"/>
      <psa30 value="0.0022576932" flag="0"/>
    </comp>
    <comp name="--.HNE">
      <acc value="0.0678757405" flag="0"/>
      <vel value="0.0461907636" flag="0"/>
      <psa03 value="0.1842156381" flag="0"/>
      <psa10 value="0.0270868868" flag="0"/>
      <psa30 value="0.0017163282" flag="0"/>
    </comp>
    <comp name="--.HNZ">
      <acc value="0.0600617786" flag="0"/>
      <vel value="0.0188832718" flag="0"/>
      <psa03 value="0.1179941140" flag="0"/>
      <psa10 value="0.0080296023" flag="0"/>
      <psa30 value="0.0008876620" flag="0"/>
    </comp>
  </station>
  <station code="IACM" name="IACM" netid="HL" insttype="120" lat="35.3058" lon="25.0709">
    <comp name="--.HHE">
      <acc value="0.5431914427" flag="0"/>
      <vel value="0.2403572549" flag="0"/>
      <psa03 value="1.3706548369" flag="0"/>
      <psa10 value="0.2913673947" flag="0"/>
      <psa30 value="0.0123571585" flag="0"/>
    </comp>
    <comp name="--.HHZ">
      <acc value="0.5402049053" flag="0"/>
      <vel value="0.1219003460" flag="0"/>
      <psa03 value="0.5741934652" flag="0"/>
      <psa10 value="0.1028754977" flag="0"/>
      <psa30 value="0.0054677964" flag="0"/>
    </comp>
    <comp name="--.HHN">
      <acc value="0.6061765837" flag="0"/>
      <vel value="0.2254598527" flag="0"/>
      <psa03 value="1.3721095959" flag="0"/>
      <psa10 value="0.3224516318" flag="0"/>
      <psa30 value="0.0112928464" flag="0"/>
    </comp>
  </station>
  <station code="IDI" name="IDI" netid="HL" insttype="120" lat="35.288" lon="24.89">
    <comp name="--.HHZ">
      <acc value="0.0977399145" flag="0"/>
      <vel value="0.0240775857" flag="0"/>
      <psa03 value="0.1381322630" flag="0"/>
      <psa10 value="0.0126179553" flag="0"/>
      <psa30 value="0.0010620292" flag="0"/>
    </comp>
    <comp name="--.HHE">
      <acc value="0.1306630233" flag="0"/>
      <vel value="0.0252210350" flag="0"/>
      <psa03 value="0.1218321062" flag="0"/>
      <psa10 value="0.0172137775" flag="0"/>
      <psa30 value="0.0011386805" flag="0"/>
    </comp>
    <comp name="--.HHN">
      <acc value="0.1740174433" flag="0"/>
      <vel value="0.0334292745" flag="0"/>
      <psa03 value="0.1493091024" flag="0"/>
      <psa10 value="0.0259263084" flag="0"/>
      <psa30 value="0.0019846676" flag="0"/>
    </comp>
  </station>
  <station code="IMMV" name="IMMV" netid="HL" insttype="120" lat="35.4606" lon="23.9811">
    <comp name="--.HHE">
      <acc value="0.0210231827" flag="0"/>
      <vel value="0.0124651242" flag="0"/>
      <psa03 value="0.0558251146" flag="0"/>
      <psa10 value="0.0121952857" flag="0"/>
      <psa30 value="0.0010574322" flag="0"/>
    </comp>
    <comp name="--.HHN">
      <acc value="0.0248188170" flag="0"/>
      <vel value="0.0124310331" flag="0"/>
      <psa03 value="0.0657462341" flag="0"/>
      <psa10 value="0.0149463403" flag="0"/>
      <psa30 value="0.0009785039" flag="0"/>
    </comp>
    <comp name="--.HHZ">
      <acc value="0.0221043036" flag="0"/>
      <vel value="0.0112031728" flag="0"/>
      <psa03 value="0.0508197127" flag="0"/>
      <psa10 value="0.0097210873" flag="0"/>
      <psa30 value="0.0004904311" flag="0"/>
    </comp>
  </station>
  <station code="NPS" name="NPS" netid="HL" insttype="CMG3ESPC-120s" lat="35.2613" lon="25.6104">
    <comp name="--.HHN">
      <acc value="0.1871616952" flag="0"/>
      <vel value="0.0685274061" flag="0"/>
      <psa03 value="0.2755270163" flag="0"/>
      <psa10 value="0.0470373457" flag="0"/>
      <psa30 value="0.0028392945" flag="0"/>
    </comp>
    <comp name="--.HHE">
      <acc value="0.0973177524" flag="0"/>
      <vel value="0.0400423689" flag="0"/>
      <psa03 value="0.1298711977" flag="0"/>
      <psa10 value="0.0210383217" flag="0"/>
      <psa30 value="0.0014862298" flag="0"/>
    </comp>
    <comp name="--.HHZ">
      <acc value="0.1463219852" flag="0"/>
      <vel value="0.0496634988" flag="0"/>
      <psa03 value="0.1429118572" flag="0"/>
      <psa10 value="0.0336561184" flag="0"/>
      <psa30 value="0.0021726202" flag="0"/>
    </comp>
  </station>
  <station code="SIVA" name="SIVA" netid="HL" insttype="60" lat="35.0178" lon="24.812">
    <comp name="--.HHE">
      <acc value="0.0962446077" flag="0"/>
      <vel value="0.0448766589" flag="0"/>
      <psa03 value="0.2124209436" flag="0"/>
      <psa10 value="0.0580478109" flag="0"/>
      <psa30 value="0.0022708530" flag="0"/>
    </comp>
    <comp name="--.HHZ">
      <acc value="0.0630978710" flag="0"/>
      <vel value="0.0259213033" flag="0"/>
      <psa03 value="0.1807971348" flag="0"/>
      <psa10 value="0.0186698709" flag="0"/>
      <psa30 value="0.0010182790" flag="0"/>
    </comp>
    <comp name="--.HHN">
      <acc value="0.1049033898" flag="0"/>
      <vel value="0.0456383520" flag="0"/>
      <psa03 value="0.2609363038" flag="0"/>
      <psa10 value="0.0514982425" flag="0"/>
      <psa30 value="0.0026176113" flag="0"/>
    </comp>
  </station>
  <station code="VAM" name="VAM" netid="HL" insttype="CMG3ESPC-120s" lat="35.407" lon="24.1997">
    <comp name="--.HHN">
      <acc value="0.0616936542" flag="0"/>
      <vel value="0.0200813452" flag="0"/>
      <psa03 value="0.1477685470" flag="0"/>
      <psa10 value="0.0181145755" flag="0"/>
      <psa30 value="0.0013432911" flag="0"/>
    </comp>
    <comp name="--.HHE">
      <acc value="0.0450362830" flag="0"/>
      <vel value="0.0177562465" flag="0"/>
      <psa03 value="0.0826366716" flag="0"/>
      <psa10 value="0.0187966089" flag="0"/>
      <psa30 value="0.0011153459" flag="0"/>
    </comp>
    <comp name="--.HHZ">
      <acc value="0.0275401729" flag="0"/>
      <vel value="0.0096510242" flag="0"/>
      <psa03 value="0.0529096888" flag="0"/>
      <psa10 value="0.0070642926" flag="0"/>
      <psa30 value="0.0007284274" flag="0"/>
    </comp>
  </station>
  <station code="ZKR" name="ZKR" netid="HL" insttype="120" lat="35.1147" lon="26.2169">
    <comp name="--.HHN">
      <acc value="0.0136048718" flag="0"/>
      <vel value="0.0067359149" flag="0"/>
      <psa03 value="0.0416388937" flag="0"/>
      <psa10 value="0.0054233578" flag="0"/>
      <psa30 value="0.0006218892" flag="0"/>
    </comp>
    <comp name="--.HHZ">
      <acc value="0.0166244533" flag="0"/>
      <vel value="0.0070910017" flag="0"/>
      <psa03 value="0.0321553844" flag="0"/>
      <psa10 value="0.0065238603" flag="0"/>
      <psa30 value="0.0004980375" flag="0"/>
    </comp>
    <comp name="--.HHE">
      <acc value="0.0266222054" flag="0"/>
      <vel value="0.0114707545" flag="0"/>
      <psa03 value="0.0701075277" flag="0"/>
      <psa10 value="0.0117838561" flag="0"/>
      <psa30 value="0.0009145807" flag="0"/>
    </comp>
  </station>
  <station code="IDI" name="IDI" netid="MN" insttype="" lat="35.288" lon="24.89">
    <comp name="--.HHN">
      <acc value="0.1640374668" flag="0"/>
      <vel value="0.0341692688" flag="0"/>
      <psa03 value="0.1516155695" flag="0"/>
      <psa10 value="0.0258787982" flag="0"/>
      <psa30 value="0.0019796475" flag="0"/>
    </comp>
    <comp name="--.HHZ">
      <acc value="0.1077732774" flag="0"/>
      <vel value="0.0240476872" flag="0"/>
      <psa03 value="0.1399157531" flag="0"/>
      <psa10 value="0.0125613216" flag="0"/>
      <psa30 value="0.0010533568" flag="0"/>
    </comp>
    <comp name="--.HHE">
      <acc value="0.1465930650" flag="0"/>
      <vel value="0.0262597056" flag="0"/>
      <psa03 value="0.1235600292" flag="0"/>
      <psa10 value="0.0171359679" flag="0"/>
      <psa30 value="0.0011361087" flag="0"/>
    </comp>
  </station>
</stationlist>
