<stationlist created="1778136748">
	<station code="ABEA" name="ABEA" netid="HC" source="Seismological Network of Crete (HC)" insttype="" lat="35.5163" lon="24.0113">
		<comp name="--.HNE" depth="0.0">
			<acc value="0.0275733314743023" flag="0"/>
			<vel value="0.0173518693099389" flag="0"/>
			<psa03 value="0.0798323457927582" flag="0"/>
			<psa10 value="0.029822740610213" flag="0"/>
			<psa30 value="0.00228534201769317" flag="0"/>
		</comp>
		<comp name="--.HNN" depth="0.0">
			<acc value="0.0275513592564153" flag="0"/>
			<vel value="0.0152823622521391" flag="0"/>
			<psa03 value="0.0776713120097908" flag="0"/>
			<psa10 value="0.020243081629798" flag="0"/>
			<psa30 value="0.0019981152819976" flag="0"/>
		</comp>
		<comp name="--.HNZ" depth="0.0">
			<acc value="0.015222347329686" flag="0"/>
			<vel value="0.00707147597441508" flag="0"/>
			<psa03 value="0.0237614360577037" flag="0"/>
			<psa10 value="0.0123611966811064" flag="0"/>
			<psa30 value="0.00118607242564503" flag="0"/>
		</comp>
	</station>
	<station code="ATEI" name="ATEI" netid="HC" source="Seismological Network of Crete (HC)" insttype="" lat="35.5193" lon="24.0432">
		<comp name="--.HNE" depth="0.0">
			<acc value="0.0159775332269251" flag="0"/>
			<vel value="0.0113386292772315" flag="0"/>
			<psa03 value="0.039393906527989" flag="0"/>
			<psa10 value="0.0137159167371592" flag="0"/>
			<psa30 value="0.00136750673644331" flag="0"/>
		</comp>
		<comp name="--.HNN" depth="0.0">
			<acc value="0.0210230587173917" flag="0"/>
			<vel value="0.0131128679610722" flag="0"/>
			<psa03 value="0.046595920084487" flag="0"/>
			<psa10 value="0.014053408156833" flag="0"/>
			<psa30 value="0.00221178256140662" flag="0"/>
		</comp>
		<comp name="--.HNZ" depth="0.0">
			<acc value="0.0152553885729731" flag="0"/>
			<vel value="0.00834887400352084" flag="0"/>
			<psa03 value="0.0259696839057951" flag="0"/>
			<psa10 value="0.0129081413510157" flag="0"/>
			<psa30 value="0.00107181475246836" flag="0"/>
		</comp>
	</station>
	<station code="DEYA" name="DEYA" netid="HC" source="Seismological Network of Crete (HC)" insttype="" lat="35.4825" lon="24.014">
		<comp name="--.HNE" depth="0.0">
			<acc value="0.0405248414940327" flag="0"/>
			<vel value="0.0267226483480262" flag="0"/>
			<psa03 value="0.122303654100338" flag="0"/>
			<psa10 value="0.0525521675731772" flag="0"/>
			<psa30 value="0.00322752464099976" flag="0"/>
		</comp>
		<comp name="--.HNN" depth="0.0">
			<acc value="0.0412104162227067" flag="0"/>
			<vel value="0.0198585607982301" flag="0"/>
			<psa03 value="0.116437442575667" flag="0"/>
			<psa10 value="0.0252291138049834" flag="0"/>
			<psa30 value="0.00171321338781386" flag="0"/>
		</comp>
		<comp name="--.HNZ" depth="0.0">
			<acc value="0.0264228685432438" flag="0"/>
			<vel value="0.0139387559867912" flag="0"/>
			<psa03 value="0.0583711376347894" flag="0"/>
			<psa10 value="0.0174876990992341" flag="0"/>
			<psa30 value="0.00159851912321405" flag="0"/>
		</comp>
	</station>
	<station code="G0LD" name="G0LD" netid="HC" source="Seismological Network of Crete (HC)" insttype="" lat="35.4955" lon="24.0306">
		<comp name="--.HNE" depth="0.0">
			<acc value="0.0586026278249558" flag="0"/>
			<vel value="0.0407898375563541" flag="0"/>
			<psa03 value="0.102009340951611" flag="0"/>
			<psa10 value="0.086459630026054" flag="0"/>
			<psa30 value="0.00519277732932592" flag="0"/>
		</comp>
		<comp name="--.HNN" depth="0.0">
			<acc value="0.0459567655531502" flag="0"/>
			<vel value="0.0335876018511383" flag="0"/>
			<psa03 value="0.127445755155814" flag="0"/>
			<psa10 value="0.0814136032517521" flag="0"/>
			<psa30 value="0.00627764377975103" flag="0"/>
		</comp>
		<comp name="--.HNZ" depth="0.0">
			<acc value="0.0279598408504082" flag="0"/>
			<vel value="0.02307024409733" flag="0"/>
			<psa03 value="0.0824752656647954" flag="0"/>
			<psa10 value="0.0425785318687071" flag="0"/>
			<psa30 value="0.00229660568052023" flag="0"/>
		</comp>
	</station>
	<station code="LENT" name="LENT" netid="HC" source="Seismological Network of Crete (HC)" insttype="" lat="35.5074" lon="24.0402">
		<comp name="--.HNE" depth="0.0">
			<acc value="0.0206465384516464" flag="0"/>
			<vel value="0.0151575427567048" flag="0"/>
			<psa03 value="0.0370723959684712" flag="0"/>
			<psa10 value="0.0264445355707116" flag="0"/>
			<psa30 value="0.00191426910259867" flag="0"/>
		</comp>
		<comp name="--.HNN" depth="0.0">
			<acc value="0.027711906092588" flag="0"/>
			<vel value="0.0188055627477198" flag="0"/>
			<psa03 value="0.0619852416346199" flag="0"/>
			<psa10 value="0.0244675921079036" flag="0"/>
			<psa30 value="0.00270401621113762" flag="0"/>
		</comp>
		<comp name="--.HNZ" depth="0.0">
			<acc value="0.0147079134978782" flag="0"/>
			<vel value="0.0101214041986149" flag="0"/>
			<psa03 value="0.0372374433603516" flag="0"/>
			<psa10 value="0.0162844862672811" flag="0"/>
			<psa30 value="0.000988735186355302" flag="0"/>
		</comp>
	</station>
	<station code="MULT" name="MULT" netid="HC" source="Seismological Network of Crete (HC)" insttype="" lat="35.5091" lon="24.0118">
		<comp name="--.HNE" depth="0.0">
			<acc value="0.0432952389920709" flag="0"/>
			<vel value="0.0173210477087727" flag="0"/>
			<psa03 value="0.0548253662863464" flag="0"/>
			<psa10 value="0.0192858494678963" flag="0"/>
			<psa30 value="0.00182156754490972" flag="0"/>
		</comp>
		<comp name="--.HNN" depth="0.0">
			<acc value="0.0403842411466956" flag="0"/>
			<vel value="0.0186275172219948" flag="0"/>
			<psa03 value="0.0662749164295333" flag="0"/>
			<psa10 value="0.0364266393360949" flag="0"/>
			<psa30 value="0.00272744630492999" flag="0"/>
		</comp>
		<comp name="--.HNZ" depth="0.0">
			<acc value="0.0287382758266811" flag="0"/>
			<vel value="0.0132405432878737" flag="0"/>
			<psa03 value="0.0281355956159386" flag="0"/>
			<psa10 value="0.0194762777078224" flag="0"/>
			<psa30 value="0.00253230629453103" flag="0"/>
		</comp>
	</station>
	<station code="NERO" name="NERO" netid="HC" source="Seismological Network of Crete (HC)" insttype="" lat="35.474" lon="24.0423">
		<comp name="--.HNE" depth="0.0">
			<acc value="0.0179807841373905" flag="0"/>
			<vel value="0.00856351943864423" flag="0"/>
			<psa03 value="0.0500966207384266" flag="0"/>
			<psa10 value="0.0111133390166505" flag="0"/>
			<psa30 value="0.00123385486182945" flag="0"/>
		</comp>
		<comp name="--.HNN" depth="0.0">
			<acc value="0.0211841113981857" flag="0"/>
			<vel value="0.0125740075816286" flag="0"/>
			<psa03 value="0.0418656952718349" flag="0"/>
			<psa10 value="0.0187678314017379" flag="0"/>
			<psa30 value="0.00140566988956605" flag="0"/>
		</comp>
		<comp name="--.HNZ" depth="0.0">
			<acc value="0.0176806267873444" flag="0"/>
			<vel value="0.0100613180068987" flag="0"/>
			<psa03 value="0.0399858676174922" flag="0"/>
			<psa10 value="0.0115163266501094" flag="0"/>
			<psa30 value="0.000916542487274256" flag="0"/>
		</comp>
	</station>
	<station code="PASK" name="PASK" netid="HC" source="Seismological Network of Crete (HC)" insttype="" lat="35.4996" lon="24.0121">
		<comp name="--.HNE" depth="0.0">
			<acc value="0.0383610319065329" flag="0"/>
			<vel value="0.0284341363068434" flag="0"/>
			<psa03 value="0.0784624060825987" flag="0"/>
			<psa10 value="0.034743197816332" flag="0"/>
			<psa30 value="0.00238404126436726" flag="0"/>
		</comp>
		<comp name="--.HNN" depth="0.0">
			<acc value="0.0360377070437312" flag="0"/>
			<vel value="0.0217927864827356" flag="0"/>
			<psa03 value="0.0517305987734287" flag="0"/>
			<psa10 value="0.0261225036126786" flag="0"/>
			<psa30 value="0.00258890775243245" flag="0"/>
		</comp>
		<comp name="--.HNZ" depth="0.0">
			<acc value="0.0228443370668224" flag="0"/>
			<vel value="0.0145848011572562" flag="0"/>
			<psa03 value="0.0539219366471198" flag="0"/>
			<psa10 value="0.0186315154964516" flag="0"/>
			<psa30 value="0.00125119288539026" flag="0"/>
		</comp>
	</station>
	<station code="POLY" name="POLY" netid="HC" source="Seismological Network of Crete (HC)" insttype="" lat="35.5226" lon="24.0602">
		<comp name="--.HNE" depth="0.0">
			<acc value="0.0172533041395933" flag="0"/>
			<vel value="0.0139319112335249" flag="0"/>
			<psa03 value="0.0517843106649704" flag="0"/>
			<psa10 value="0.0197136159302862" flag="0"/>
			<psa30 value="0.00208357927689953" flag="0"/>
		</comp>
		<comp name="--.HNN" depth="0.0">
			<acc value="0.0173014101121024" flag="0"/>
			<vel value="0.0124436302883002" flag="0"/>
			<psa03 value="0.0437756707566686" flag="0"/>
			<psa10 value="0.0202789527560994" flag="0"/>
			<psa30 value="0.00204198547984984" flag="0"/>
		</comp>
		<comp name="--.HNZ" depth="0.0">
			<acc value="0.0112200345238259" flag="0"/>
			<vel value="0.00557836697967453" flag="0"/>
			<psa03 value="0.0293626664867114" flag="0"/>
			<psa10 value="0.0109086813965927" flag="0"/>
			<psa30 value="0.000842694157686773" flag="0"/>
		</comp>
	</station>
	<station code="SOUD" name="SOUD" netid="HC" source="Seismological Network of Crete (HC)" insttype="" lat="35.4878" lon="24.0678">
		<comp name="--.HNE" depth="0.0">
			<acc value="0.0369953548288565" flag="0"/>
			<vel value="0.0212512026826007" flag="0"/>
			<psa03 value="0.150452591746005" flag="0"/>
			<psa10 value="0.0349803785283942" flag="0"/>
			<psa30 value="0.00193742563660696" flag="0"/>
		</comp>
		<comp name="--.HNN" depth="0.0">
			<acc value="0.0418179221476315" flag="0"/>
			<vel value="0.0277139722417572" flag="0"/>
			<psa03 value="0.0808070561956879" flag="0"/>
			<psa10 value="0.0388152738213983" flag="0"/>
			<psa30 value="0.00175352866266753" flag="0"/>
		</comp>
		<comp name="--.HNZ" depth="0.0">
			<acc value="0.00575286790045586" flag="0"/>
			<vel value="0.00446438266283785" flag="0"/>
			<psa03 value="0.00693401793842213" flag="0"/>
			<psa10 value="0.00453538732215976" flag="0"/>
			<psa30 value="0.00289558806850016" flag="0"/>
		</comp>
	</station>
	<station code="CH01" name="CH01" netid="HI" source="ITSAK Strong Motion Network" insttype="" lat="35.517" lon="24.0208">
		<comp name="--.HNE" depth="0.0">
			<acc value="0.0277404580154021" flag="0"/>
			<vel value="0.0147514569636661" flag="0"/>
			<psa03 value="0.0595272923493669" flag="0"/>
			<psa10 value="0.0211553764398624" flag="0"/>
			<psa30 value="0.00198725831277739" flag="0"/>
		</comp>
		<comp name="--.HNN" depth="0.0">
			<acc value="0.0261259152812306" flag="0"/>
			<vel value="0.0152808694324417" flag="0"/>
			<psa03 value="0.0572853365390414" flag="0"/>
			<psa10 value="0.0199887341555434" flag="0"/>
			<psa30 value="0.00178652543187664" flag="0"/>
		</comp>
		<comp name="--.HNZ" depth="0.0">
			<acc value="0.0156476795400602" flag="0"/>
			<vel value="0.00830914318687586" flag="0"/>
			<psa03 value="0.0365939710459919" flag="0"/>
			<psa10 value="0.012645010794924" flag="0"/>
			<psa30 value="0.00103404235439594" flag="0"/>
		</comp>
	</station>
	<station code="KSS1" name="KSS1" netid="HI" source="ITSAK Strong Motion Network" insttype="" lat="35.4189" lon="26.9207">
		<comp name="--.HNE" depth="0.0">
			<acc value="0.010298843939673" flag="0"/>
			<vel value="0.00342062153497151" flag="0"/>
			<psa03 value="0.0248642096318646" flag="0"/>
			<psa10 value="0.00305566445402517" flag="0"/>
			<psa30 value="0.000274309161218941" flag="0"/>
		</comp>
		<comp name="--.HNN" depth="0.0">
			<acc value="0.0121104507296756" flag="0"/>
			<vel value="0.00378850890517797" flag="0"/>
			<psa03 value="0.0239635301746038" flag="0"/>
			<psa10 value="0.00359645309111638" flag="0"/>
			<psa30 value="0.000234688385495382" flag="0"/>
		</comp>
		<comp name="--.HNZ" depth="0.0">
			<acc value="0.00701111877527882" flag="0"/>
			<vel value="0.0020043438113845" flag="0"/>
			<psa03 value="0.00569836511891225" flag="0"/>
			<psa10 value="0.00223267829460549" flag="0"/>
			<psa30 value="0.000246879167033033" flag="0"/>
		</comp>
	</station>
	<station code="NAX1" name="NAX1" netid="HI" source="ITSAK Strong Motion Network" insttype="" lat="37.101394" lon="25.374103">
		<comp name="--.HNE" depth="0.0">
			<acc value="0.00531551775037722" flag="0"/>
			<vel value="0.00233795342152497" flag="0"/>
			<psa03 value="0.0158652059399647" flag="0"/>
			<psa10 value="0.00256879056039218" flag="0"/>
			<psa30 value="0.000316790621240589" flag="0"/>
		</comp>
		<comp name="--.HNN" depth="0.0">
			<acc value="0.00681150661296541" flag="0"/>
			<vel value="0.00261820964112338" flag="0"/>
			<psa03 value="0.0179705381162007" flag="0"/>
			<psa10 value="0.00282386605164131" flag="0"/>
			<psa30 value="0.00012416407161441" flag="0"/>
		</comp>
		<comp name="--.HNZ" depth="0.0">
			<acc value="0.0045412676102354" flag="0"/>
			<vel value="0.00204570183470858" flag="0"/>
			<psa03 value="0.0113999557119559" flag="0"/>
			<psa10 value="0.00210595154020406" flag="0"/>
			<psa30 value="0.000112968603407233" flag="0"/>
		</comp>
	</station>
	<station code="SIT2" name="SIT2" netid="HI" source="ITSAK Strong Motion Network" insttype="" lat="35.2059" lon="26.107">
		<comp name="--.HNE" depth="0.0">
			<acc value="0.0683931715208347" flag="0"/>
			<vel value="0.0464124491341422" flag="0"/>
			<psa03 value="0.182031892052998" flag="0"/>
			<psa10 value="0.0271502798227781" flag="0"/>
			<psa30 value="0.00169136048182911" flag="0"/>
		</comp>
		<comp name="--.HNN" depth="0.0">
			<acc value="0.0756655747438439" flag="0"/>
			<vel value="0.0452656953256257" flag="0"/>
			<psa03 value="0.300576974249265" flag="0"/>
			<psa10 value="0.0221515455561827" flag="0"/>
			<psa30 value="0.00229648046389356" flag="0"/>
		</comp>
		<comp name="--.HNZ" depth="0.0">
			<acc value="0.0597757618457069" flag="0"/>
			<vel value="0.0189010577134826" flag="0"/>
			<psa03 value="0.119939882928746" flag="0"/>
			<psa10 value="0.008034800391092" flag="0"/>
			<psa30 value="0.000921257695469808" flag="0"/>
		</comp>
	</station>
	<station code="IACM" name="IACM" netid="HL" source="National Observatory of Athens Seismic Network" insttype="" lat="35.3058" lon="25.0709">
		<comp name="--.HNE" depth="0.0">
			<acc value="0.53969815581649" flag="0"/>
			<vel value="0.23989676236259" flag="0"/>
			<psa03 value="1.38989015673607" flag="0"/>
			<psa10 value="0.271937354514958" flag="0"/>
			<psa30 value="0.0118893234426616" flag="0"/>
		</comp>
		<comp name="--.HNN" depth="0.0">
			<acc value="0.604907537218096" flag="0"/>
			<vel value="0.233906733914859" flag="0"/>
			<psa03 value="1.36098182503116" flag="0"/>
			<psa10 value="0.329901704368956" flag="0"/>
			<psa30 value="0.0106387414310701" flag="0"/>
		</comp>
		<comp name="--.HNZ" depth="0.0">
			<acc value="0.564075084040725" flag="0"/>
			<vel value="0.120863773475044" flag="0"/>
			<psa03 value="0.576630115582793" flag="0"/>
			<psa10 value="0.101221470425619" flag="0"/>
			<psa30 value="0.0051690157552807" flag="0"/>
		</comp>
	</station>
	<station code="IMMV" name="IMMV" netid="HL" source="National Observatory of Athens Seismic Network" insttype="" lat="35.4606" lon="23.9811">
		<comp name="--.HNE" depth="0.0">
			<acc value="0.0204236588787413" flag="0"/>
			<vel value="0.0119505079173926" flag="0"/>
			<psa03 value="0.0543204630473759" flag="0"/>
			<psa10 value="0.0116182180874155" flag="0"/>
			<psa30 value="0.00101323764285499" flag="0"/>
		</comp>
		<comp name="--.HNN" depth="0.0">
			<acc value="0.0241849896457047" flag="0"/>
			<vel value="0.0120261422433482" flag="0"/>
			<psa03 value="0.0637231796810893" flag="0"/>
			<psa10 value="0.0146325890247292" flag="0"/>
			<psa30 value="0.000953179497630653" flag="0"/>
		</comp>
		<comp name="--.HNZ" depth="0.0">
			<acc value="0.0220165328311652" flag="0"/>
			<vel value="0.0110339404683107" flag="0"/>
			<psa03 value="0.0501389412502931" flag="0"/>
			<psa10 value="0.00971188711485147" flag="0"/>
			<psa30 value="0.000502649027197233" flag="0"/>
		</comp>
	</station>
	<station code="KARP" name="KARP" netid="HL" source="National Observatory of Athens Seismic Network" insttype="" lat="35.5471" lon="27.16106">
		<comp name="--.HNE" depth="0.0">
			<acc value="0.0126971887959603" flag="0"/>
			<vel value="0.00408295786675878" flag="0"/>
			<psa03 value="0.0158565491164871" flag="0"/>
			<psa10 value="0.00692723530158679" flag="0"/>
			<psa30 value="0.000264239093084729" flag="0"/>
		</comp>
		<comp name="--.HNN" depth="0.0">
			<acc value="0.0123132541316705" flag="0"/>
			<vel value="0.00552406543711511" flag="0"/>
			<psa03 value="0.0247861341472256" flag="0"/>
			<psa10 value="0.00618791132500053" flag="0"/>
			<psa30 value="0.000323383453816759" flag="0"/>
		</comp>
		<comp name="--.HNZ" depth="0.0">
			<acc value="0.00807195779764041" flag="0"/>
			<vel value="0.00273447078122748" flag="0"/>
			<psa03 value="0.0211543805405616" flag="0"/>
			<psa10 value="0.00204707779635716" flag="0"/>
			<psa30 value="0.000157352559251384" flag="0"/>
		</comp>
	</station>
	<station code="SIVA" name="SIVA" netid="HL" source="National Observatory of Athens Seismic Network" insttype="" lat="35.01777" lon="24.81204">
		<comp name="00.HNE" depth="0.0">
			<acc value="0.0884872028189081" flag="0"/>
			<vel value="0.0420195940103759" flag="0"/>
			<psa03 value="0.198083184538746" flag="0"/>
			<psa10 value="0.0547150033504848" flag="0"/>
			<psa30 value="0.00216676832943377" flag="0"/>
		</comp>
		<comp name="00.HNN" depth="0.0">
			<acc value="0.105918339474293" flag="0"/>
			<vel value="0.0510402375458854" flag="0"/>
			<psa03 value="0.281748226937419" flag="0"/>
			<psa10 value="0.0612440283661181" flag="0"/>
			<psa30 value="0.00316102877764444" flag="0"/>
		</comp>
		<comp name="00.HNZ" depth="0.0">
			<acc value="0.0631867253589598" flag="0"/>
			<vel value="0.0261214469652736" flag="0"/>
			<psa03 value="0.181727246871437" flag="0"/>
			<psa10 value="0.0181772085258453" flag="0"/>
			<psa30 value="0.00100279361765632" flag="0"/>
		</comp>
	</station>
	<station code="THRA" name="THRA" netid="HL" source="National Observatory of Athens Seismic Network" insttype="" lat="36.41502" lon="25.43244">
		<comp name="00.HNE" depth="0.0">
			<acc value="0.139319986722327" flag="0"/>
			<vel value="0.0512848350956489" flag="0"/>
			<psa03 value="0.299059540393708" flag="0"/>
			<psa10 value="0.0427645891942052" flag="0"/>
			<psa30 value="0.00301091383326627" flag="0"/>
		</comp>
		<comp name="00.HNN" depth="0.0">
			<acc value="0.110853723738424" flag="0"/>
			<vel value="0.047641729320619" flag="0"/>
			<psa03 value="0.287344410157112" flag="0"/>
			<psa10 value="0.0338751090597086" flag="0"/>
			<psa30 value="0.00159047463197008" flag="0"/>
		</comp>
		<comp name="00.HNZ" depth="0.0">
			<acc value="0.080745786069917" flag="0"/>
			<vel value="0.0293155864104009" flag="0"/>
			<psa03 value="0.273645898531079" flag="0"/>
			<psa10 value="0.0147735327365564" flag="0"/>
			<psa30 value="0.00101812254978844" flag="0"/>
		</comp>
	</station>
</stationlist>
