<?xml version="1.0" encoding="UTF-8" standalone="yes"?>
<!DOCTYPE earthquake SYSTEM "stationlist.dtd">
<stationlist created="" xmlns="ch.ethz.sed.shakemap.usgs.xml">
  <station code="CHAN" name="CHAN" netid="HC" insttype="120" lat="35.5193" lon="24.0428">
    <comp name="--.HHN">
      <acc value="0.0069999253" flag="0"/>
      <vel value="0.0081555652" flag="0"/>
      <psa03 value="0.0180843368" flag="0"/>
      <psa10 value="0.0150382176" flag="0"/>
      <psa30 value="0.0019371328" flag="0"/>
    </comp>
    <comp name="--.HHZ">
      <acc value="0.0064725823" flag="0"/>
      <vel value="0.0054097625" flag="0"/>
      <psa03 value="0.0154509847" flag="0"/>
      <psa10 value="0.0118694437" flag="0"/>
      <psa30 value="0.0006942234" flag="0"/>
    </comp>
    <comp name="--.HHE">
      <acc value="0.0088595760" flag="0"/>
      <vel value="0.0079741309" flag="0"/>
      <psa03 value="0.0209910406" flag="0"/>
      <psa10 value="0.0159326638" flag="0"/>
      <psa30 value="0.0019804795" flag="0"/>
    </comp>
  </station>
  <station code="GVDS" name="GVDS" netid="HC" insttype="60" lat="34.8389" lon="24.0585">
    <comp name="--.HHE">
      <acc value="0.0219961610" flag="0"/>
      <vel value="0.0119108810" flag="0"/>
      <psa03 value="0.0810218003" flag="0"/>
      <psa10 value="0.0073473078" flag="0"/>
      <psa30 value="0.0008404164" flag="0"/>
    </comp>
    <comp name="--.HHN">
      <acc value="0.0249428656" flag="0"/>
      <vel value="0.0141107696" flag="0"/>
      <psa03 value="0.0932986303" flag="0"/>
      <psa10 value="0.0106931749" flag="0"/>
      <psa30 value="0.0009098670" flag="0"/>
    </comp>
    <comp name="--.HHZ">
      <acc value="0.0125323890" flag="0"/>
      <vel value="0.0061725029" flag="0"/>
      <psa03 value="0.0352747396" flag="0"/>
      <psa10 value="0.0057659812" flag="0"/>
      <psa30 value="0.0007594846" flag="0"/>
    </comp>
  </station>
  <station code="KNDR" name="KNDR" netid="HC" insttype="120" lat="35.2348" lon="23.6248">
    <comp name="--.HHN">
      <acc value="0.0113348733" flag="0"/>
      <vel value="0.0080608854" flag="0"/>
      <psa03 value="0.0362005250" flag="0"/>
      <psa10 value="0.0148382103" flag="0"/>
      <psa30 value="0.0012080556" flag="0"/>
    </comp>
    <comp name="--.HHE">
      <acc value="0.0129201372" flag="0"/>
      <vel value="0.0113422594" flag="0"/>
      <psa03 value="0.0306462592" flag="0"/>
      <psa10 value="0.0148988108" flag="0"/>
      <psa30 value="0.0015882408" flag="0"/>
    </comp>
    <comp name="--.HHZ">
      <acc value="0.0082504647" flag="0"/>
      <vel value="0.0048435256" flag="0"/>
      <psa03 value="0.0209431364" flag="0"/>
      <psa10 value="0.0074916951" flag="0"/>
      <psa30 value="0.0004694246" flag="0"/>
    </comp>
  </station>
  <station code="ANKY" name="ANKY" netid="HL" insttype="60" lat="35.867" lon="23.3012">
    <comp name="--.HHN">
      <acc value="0.0014447195" flag="0"/>
      <vel value="0.0018422272" flag="0"/>
      <psa03 value="0.0044575403" flag="0"/>
      <psa10 value="0.0026986688" flag="0"/>
      <psa30 value="0.0006143133" flag="0"/>
    </comp>
    <comp name="--.HHZ">
      <acc value="0.0018121185" flag="0"/>
      <vel value="0.0014563550" flag="0"/>
      <psa03 value="0.0033578411" flag="0"/>
      <psa10 value="0.0020555770" flag="0"/>
      <psa30 value="0.0004091223" flag="0"/>
    </comp>
    <comp name="--.HHE">
      <acc value="0.0026468422" flag="0"/>
      <vel value="0.0026209693" flag="0"/>
      <psa03 value="0.0057191909" flag="0"/>
      <psa10 value="0.0054488668" flag="0"/>
      <psa30 value="0.0008974343" flag="0"/>
    </comp>
  </station>
  <station code="GVD" name="GVD" netid="HL" insttype="120" lat="34.8391" lon="24.0874">
    <comp name="--.HHZ">
      <acc value="0.0171648085" flag="0"/>
      <vel value="0.0075609169" flag="0"/>
      <psa03 value="0.0507044607" flag="0"/>
      <psa10 value="0.0087407085" flag="0"/>
      <psa30 value="0.0009481822" flag="0"/>
    </comp>
    <comp name="--.HHN">
      <acc value="0.0336708524" flag="0"/>
      <vel value="0.0168754274" flag="0"/>
      <psa03 value="0.1265218522" flag="0"/>
      <psa10 value="0.0107835478" flag="0"/>
      <psa30 value="0.0010218061" flag="0"/>
    </comp>
    <comp name="--.HHE">
      <acc value="0.4838663958" flag="0"/>
      <vel value="0.0451536590" flag="0"/>
      <psa03 value="0.1581241126" flag="0"/>
      <psa10 value="0.0186051783" flag="0"/>
      <psa30 value="0.0026972131" flag="0"/>
    </comp>
  </station>
  <station code="IMMV" name="IMMV" netid="HL" insttype="120" lat="35.4606" lon="23.9811">
    <comp name="--.HHE">
      <acc value="0.0056139556" flag="0"/>
      <vel value="0.0043087322" flag="0"/>
      <psa03 value="0.0177670472" flag="0"/>
      <psa10 value="0.0082718482" flag="0"/>
      <psa30 value="0.0007925318" flag="0"/>
    </comp>
    <comp name="--.HHN">
      <acc value="0.0058827496" flag="0"/>
      <vel value="0.0054016238" flag="0"/>
      <psa03 value="0.0224684129" flag="0"/>
      <psa10 value="0.0079333955" flag="0"/>
      <psa30 value="0.0006218246" flag="0"/>
    </comp>
    <comp name="--.HHZ">
      <acc value="0.0045816552" flag="0"/>
      <vel value="0.0035270175" flag="0"/>
      <psa03 value="0.0149901283" flag="0"/>
      <psa10 value="0.0048686365" flag="0"/>
      <psa30 value="0.0004204736" flag="0"/>
    </comp>
  </station>
  <station code="VAM" name="VAM" netid="HL" insttype="CMG3ESPC-120s" lat="35.407" lon="24.1997">
    <comp name="--.HHN">
      <acc value="0.0057593962" flag="0"/>
      <vel value="0.0049582736" flag="0"/>
      <psa03 value="0.0143974918" flag="0"/>
      <psa10 value="0.0069635659" flag="0"/>
      <psa30 value="0.0005548974" flag="0"/>
    </comp>
    <comp name="--.HHE">
      <acc value="0.0053379024" flag="0"/>
      <vel value="0.0044178599" flag="0"/>
      <psa03 value="0.0119493105" flag="0"/>
      <psa10 value="0.0091933263" flag="0"/>
      <psa30 value="0.0004928833" flag="0"/>
    </comp>
    <comp name="--.HHZ">
      <acc value="0.0034756084" flag="0"/>
      <vel value="0.0029660270" flag="0"/>
      <psa03 value="0.0096913040" flag="0"/>
      <psa10 value="0.0034709496" flag="0"/>
      <psa30 value="0.0004919278" flag="0"/>
    </comp>
  </station>
</stationlist>
