<?xml version="1.0" encoding="UTF-8" standalone="yes"?>
<!DOCTYPE earthquake SYSTEM "stationlist.dtd">
<stationlist created="" xmlns="ch.ethz.sed.shakemap.usgs.xml">
  <station code="APE" name="APE" netid="GE" insttype="STS-2/N" lat="37.0727" lon="25.523">
    <comp name="--.HHZ">
      <acc value="0.0112431119" flag="0"/>
      <vel value="0.0032389785" flag="0"/>
      <psa03 value="0.0146102439" flag="0"/>
      <psa10 value="0.0016102005" flag="0"/>
      <psa30 value="0.0004124790" flag="0"/>
    </comp>
    <comp name="--.HHE">
      <acc value="0.0167266671" flag="0"/>
      <vel value="0.0039273506" flag="0"/>
      <psa03 value="0.0222997094" flag="0"/>
      <psa10 value="0.0020766157" flag="0"/>
      <psa30 value="0.0005992464" flag="0"/>
    </comp>
    <comp name="--.HHN">
      <acc value="0.0290533592" flag="0"/>
      <vel value="0.0064964248" flag="0"/>
      <psa03 value="0.0244972113" flag="0"/>
      <psa10 value="0.0025828038" flag="0"/>
      <psa30 value="0.0004787382" flag="0"/>
    </comp>
  </station>
  <station code="KRL1" name="KRL1" netid="HI" insttype="CMG-5TD,ACCELEROMETER,GURALP" lat="37.7951" lon="26.7065">
    <comp name="--.HNE">
      <acc value="0.4840146570" flag="0"/>
      <vel value="0.1077197821" flag="0"/>
      <psa03 value="0.5046223019" flag="0"/>
      <psa10 value="0.0243275273" flag="0"/>
      <psa30 value="0.0025374440" flag="0"/>
    </comp>
    <comp name="--.HNZ">
      <acc value="0.1280500132" flag="0"/>
      <vel value="0.0355829624" flag="0"/>
      <psa03 value="0.1507793374" flag="0"/>
      <psa10 value="0.0148447168" flag="0"/>
      <psa30 value="0.0022708477" flag="0"/>
    </comp>
    <comp name="--.HNN">
      <acc value="0.4221841413" flag="0"/>
      <vel value="0.1431865510" flag="0"/>
      <psa03 value="0.3192026246" flag="0"/>
      <psa10 value="0.0361815029" flag="0"/>
      <psa30 value="0.0046858928" flag="0"/>
    </comp>
  </station>
  <station code="APE" name="APE" netid="HL" insttype="120" lat="37.0727" lon="25.523">
    <comp name="--.HHE">
      <acc value="0.0150991964" flag="0"/>
      <vel value="0.0037711530" flag="0"/>
      <psa03 value="0.0216335790" flag="0"/>
      <psa10 value="0.0020465334" flag="0"/>
      <psa30 value="0.0005981139" flag="0"/>
    </comp>
    <comp name="--.HHZ">
      <acc value="0.0108748362" flag="0"/>
      <vel value="0.0031481251" flag="0"/>
      <psa03 value="0.0142050469" flag="0"/>
      <psa10 value="0.0015953232" flag="0"/>
      <psa30 value="0.0004119438" flag="0"/>
    </comp>
    <comp name="--.HHN">
      <acc value="0.0281259923" flag="0"/>
      <vel value="0.0063166947" flag="0"/>
      <psa03 value="0.0235619871" flag="0"/>
      <psa10 value="0.0025642186" flag="0"/>
      <psa30 value="0.0004781034" flag="0"/>
    </comp>
  </station>
  <station code="EAG2" name="EAG2" netid="HL" insttype="SMART24" lat="38.5438" lon="26.1079">
    <comp name="--.HHZ">
      <acc value="0.0998765091" flag="0"/>
      <vel value="0.0459302862" flag="0"/>
      <psa03 value="0.2621547763" flag="0"/>
      <psa10 value="0.0310728107" flag="0"/>
      <psa30 value="0.0016181124" flag="0"/>
    </comp>
    <comp name="--.HHE">
      <acc value="0.3213812154" flag="0"/>
      <vel value="0.1836783549" flag="0"/>
      <psa03 value="1.1093210242" flag="0"/>
      <psa10 value="0.0589609945" flag="0"/>
      <psa30 value="0.0051205731" flag="0"/>
    </comp>
    <comp name="--.HHN">
      <acc value="0.2586591441" flag="0"/>
      <vel value="0.1490990630" flag="0"/>
      <psa03 value="1.0762365336" flag="0"/>
      <psa10 value="0.1038342244" flag="0"/>
      <psa30 value="0.0053767324" flag="0"/>
    </comp>
  </station>
  <station code="KLNA" name="KLNA" netid="HL" insttype="CMG-5" lat="36.9571" lon="26.9727">
    <comp name="00.HNZ">
      <acc value="0.0361995173" flag="0"/>
      <vel value="0.0101140825" flag="0"/>
      <psa03 value="0.0408491498" flag="0"/>
      <psa10 value="0.0041447528" flag="0"/>
      <psa30 value="0.0008411122" flag="0"/>
    </comp>
    <comp name="00.HNE">
      <acc value="0.0346009481" flag="0"/>
      <vel value="0.0121949541" flag="0"/>
      <psa03 value="0.0698531116" flag="0"/>
      <psa10 value="0.0042073538" flag="0"/>
      <psa30 value="0.0007618849" flag="0"/>
    </comp>
    <comp name="00.HNN">
      <acc value="0.0338062186" flag="0"/>
      <vel value="0.0134049968" flag="0"/>
      <psa03 value="0.0865496115" flag="0"/>
      <psa10 value="0.0053538038" flag="0"/>
      <psa30 value="0.0005595936" flag="0"/>
    </comp>
  </station>
  <station code="SMG" name="SMG" netid="HL" insttype="120P," lat="37.7043" lon="26.8377">
    <comp name="--.HHE">
      <acc value="0.1861459250" flag="0"/>
      <vel value="0.0739027981" flag="0"/>
      <psa03 value="0.3165161191" flag="0"/>
      <psa10 value="0.0262618903" flag="0"/>
      <psa30 value="0.0026598004" flag="0"/>
    </comp>
    <comp name="--.HHN">
      <acc value="0.3604961446" flag="0"/>
      <vel value="0.1132815927" flag="0"/>
      <psa03 value="0.3866035748" flag="0"/>
      <psa10 value="0.0381435099" flag="0"/>
      <psa30 value="0.0037133458" flag="0"/>
    </comp>
    <comp name="--.HHZ">
      <acc value="0.1513532116" flag="0"/>
      <vel value="0.0469145817" flag="0"/>
      <psa03 value="0.1345429232" flag="0"/>
      <psa10 value="0.0118950788" flag="0"/>
      <psa30 value="0.0008363477" flag="0"/>
    </comp>
  </station>
  <station code="CHOS" name="CHOS" netid="HT" insttype="100" lat="38.3869" lon="26.0506">
    <comp name="--.HHE">
      <acc value="0.0489946611" flag="0"/>
      <vel value="0.0199388564" flag="0"/>
      <psa03 value="0.0986017054" flag="0"/>
      <psa10 value="0.0232551748" flag="0"/>
      <psa30 value="0.0007563741" flag="0"/>
    </comp>
    <comp name="--.HHZ">
      <acc value="0.0164978506" flag="0"/>
      <vel value="0.0080066998" flag="0"/>
      <psa03 value="0.0448972468" flag="0"/>
      <psa10 value="0.0052554114" flag="0"/>
      <psa30 value="0.0008665505" flag="0"/>
    </comp>
    <comp name="--.HHN">
      <acc value="0.0338743660" flag="0"/>
      <vel value="0.0138244140" flag="0"/>
      <psa03 value="0.0657464895" flag="0"/>
      <psa10 value="0.0127878590" flag="0"/>
      <psa30 value="0.0010876426" flag="0"/>
    </comp>
  </station>
  <station code="GMLD" name="GMLD" netid="KO" insttype="100" lat="38.0764" lon="26.8747">
    <comp name="--.HNN">
      <acc value="0.0842481553" flag="0"/>
      <vel value="0.0486456607" flag="0"/>
      <psa03 value="0.1251873271" flag="0"/>
      <psa10 value="0.0322331988" flag="0"/>
      <psa30 value="0.0020450643" flag="0"/>
    </comp>
    <comp name="--.HNE">
      <acc value="0.0951261656" flag="0"/>
      <vel value="0.0506494461" flag="0"/>
      <psa03 value="0.1286201459" flag="0"/>
      <psa10 value="0.0316341461" flag="0"/>
      <psa30 value="0.0018718670" flag="0"/>
    </comp>
  </station>
</stationlist>
