<stationlist created="1631873486">
	<station code="KRL1" name="KRL1" netid="HI" source="ITSAK Strong Motion Network" insttype="" lat="37.7951" lon="26.7065">
		<comp name="--.HNE" depth="0.0">
			<acc value="-0.477181398" flag="0"/>
			<vel value="0.108206" flag="0"/>
			<psa03 value="0.515340735829" flag="0"/>
			<psa10 value="0.0244789086629" flag="0"/>
			<psa30 value="0.00248632442178" flag="0"/>
		</comp>
		<comp name="--.HNN" depth="0.0">
			<acc value="0.419819046" flag="0"/>
			<vel value="0.146324" flag="0"/>
			<psa03 value="0.330555422496" flag="0"/>
			<psa10 value="0.0365633312485" flag="0"/>
			<psa30 value="0.00459726173003" flag="0"/>
		</comp>
		<comp name="--.HNZ" depth="0.0">
			<acc value="-0.120779526" flag="0"/>
			<vel value="-0.036131" flag="0"/>
			<psa03 value="0.153555253114" flag="0"/>
			<psa10 value="0.0148669404151" flag="0"/>
			<psa30 value="0.00249572028517" flag="0"/>
		</comp>
	</station>
	<station code="MYT1" name="MYT1" netid="HI" source="ITSAK Strong Motion Network" insttype="" lat="39.085" lon="26.5694">
		<comp name="--.HNE" depth="0.0">
			<acc value="-0.014630676" flag="0"/>
			<vel value="-0.015486" flag="0"/>
			<psa03 value="0.0582990952236" flag="0"/>
			<psa10 value="0.0276520259563" flag="0"/>
			<psa30 value="0.00112347680818" flag="0"/>
		</comp>
		<comp name="--.HNN" depth="0.0">
			<acc value="-0.01982421" flag="0"/>
			<vel value="-0.012314" flag="0"/>
			<psa03 value="0.039731079477" flag="0"/>
			<psa10 value="0.0169326880947" flag="0"/>
			<psa30 value="0.00131184149805" flag="0"/>
		</comp>
		<comp name="--.HNZ" depth="0.0">
			<acc value="-0.01067277" flag="0"/>
			<vel value="-0.009254" flag="0"/>
			<psa03 value="0.0272927460371" flag="0"/>
			<psa10 value="0.00974887940006" flag="0"/>
			<psa30 value="0.00187469845731" flag="0"/>
		</comp>
	</station>
	<station code="NAX1" name="NAX1" netid="HI" source="ITSAK Strong Motion Network" insttype="" lat="37.101394" lon="25.374103">
		<comp name="--.HNE" depth="0.0">
			<acc value="-0.014114964" flag="0"/>
			<vel value="0.004606" flag="0"/>
			<psa03 value="0.0272480038305" flag="0"/>
			<psa10 value="0.00410733456756" flag="0"/>
			<psa30 value="0.000648761995965" flag="0"/>
		</comp>
		<comp name="--.HNN" depth="0.0">
			<acc value="0.014050194" flag="0"/>
			<vel value="-0.004439" flag="0"/>
			<psa03 value="0.0165993586554" flag="0"/>
			<psa10 value="0.00211406926271" flag="0"/>
			<psa30 value="0.00040670665816" flag="0"/>
		</comp>
		<comp name="--.HNZ" depth="0.0">
			<acc value="0.01028874" flag="0"/>
			<vel value="0.003021" flag="0"/>
			<psa03 value="0.0170020385149" flag="0"/>
			<psa10 value="0.00151004947337" flag="0"/>
			<psa30 value="0.000350331477821" flag="0"/>
		</comp>
	</station>
	<station code="KLNA" name="KLNA" netid="HL" source="National Observatory of Athens Seismic Network" insttype="" lat="36.95708" lon="26.97274">
		<comp name="--.HNE" depth="0.0">
			<acc value="-0.034787712" flag="0"/>
			<vel value="0.012182" flag="0"/>
			<psa03 value="0.0702452643907" flag="0"/>
			<psa10 value="0.00422411172683" flag="0"/>
			<psa30 value="0.000803570030864" flag="0"/>
		</comp>
		<comp name="--.HNN" depth="0.0">
			<acc value="-0.033890418" flag="0"/>
			<vel value="0.013498" flag="0"/>
			<psa03 value="0.0870683340792" flag="0"/>
			<psa10 value="0.00535564213221" flag="0"/>
			<psa30 value="0.000573595088846" flag="0"/>
		</comp>
		<comp name="--.HNZ" depth="0.0">
			<acc value="0.036079032" flag="0"/>
			<vel value="-0.010127" flag="0"/>
			<psa03 value="0.0410733456756" flag="0"/>
			<psa10 value="0.00414357575492" flag="0"/>
			<psa30 value="0.000948982202374" flag="0"/>
		</comp>
	</station>
	<station code="PRK" name="PRK" netid="HL" source="National Observatory of Athens Seismic Network" insttype="" lat="39.24565" lon="26.26499">
		<comp name="--.HNE" depth="0.0">
			<acc value="-0.015694128" flag="0"/>
			<vel value="0.016066" flag="0"/>
			<psa03 value="0.045592308544" flag="0"/>
			<psa10 value="0.0209192187044" flag="0"/>
			<psa30 value="0.00137671769764" flag="0"/>
		</comp>
		<comp name="--.HNN" depth="0.0">
			<acc value="-0.017240958" flag="0"/>
			<vel value="0.012382" flag="0"/>
			<psa03 value="0.0447869488249" flag="0"/>
			<psa10 value="0.0129783718738" flag="0"/>
			<psa30 value="0.00103667692735" flag="0"/>
		</comp>
		<comp name="--.HNZ" depth="0.0">
			<acc value="0.00857157" flag="0"/>
			<vel value="-0.007168" flag="0"/>
			<psa03 value="0.0293508875416" flag="0"/>
			<psa10 value="0.00556503565918" flag="0"/>
			<psa30 value="0.000991934720727" flag="0"/>
		</comp>
	</station>
	<station code="GORD" name="GORD" netid="KO" source="Bogazici University Kandilli Observatory And Earthquake Research Institute (KOERI)" insttype="" lat="38.9088" lon="28.1769">
		<comp name="--.HNE" depth="0.0">
			<acc value="-0.009949794" flag="0"/>
			<vel value="0.011151" flag="0"/>
			<psa03 value="0.03082738036" flag="0"/>
			<psa10 value="0.0188172298374" flag="0"/>
			<psa30 value="0.00273598593471" flag="0"/>
		</comp>
		<comp name="--.HNN" depth="0.0">
			<acc value="-0.012601488" flag="0"/>
			<vel value="0.012186" flag="0"/>
			<psa03 value="0.0253688311526" flag="0"/>
			<psa10 value="0.0213218985639" flag="0"/>
			<psa30 value="0.00302949481012" flag="0"/>
		</comp>
		<comp name="--.HNZ" depth="0.0">
			<acc value="0.00944622" flag="0"/>
			<vel value="-0.010652" flag="0"/>
			<psa03 value="0.0173599761679" flag="0"/>
			<psa10 value="0.0162843735208" flag="0"/>
			<psa30 value="0.00262413041816" flag="0"/>
		</comp>
	</station>
	<station code="SOMA" name="SOMA" netid="KO" source="Bogazici University Kandilli Observatory And Earthquake Research Institute (KOERI)" insttype="" lat="39.1564" lon="27.5341">
		<comp name="--.HNE" depth="0.0">
			<acc value="0.017433942" flag="0"/>
			<vel value="0.015372" flag="0"/>
			<psa03 value="0.0532432258757" flag="0"/>
			<psa10 value="0.0164051774787" flag="0"/>
			<psa30 value="0.00239594516441" flag="0"/>
		</comp>
		<comp name="--.HNN" depth="0.0">
			<acc value="-0.02201517" flag="0"/>
			<vel value="0.013757" flag="0"/>
			<psa03 value="0.0459949884036" flag="0"/>
			<psa10 value="0.0189823285799" flag="0"/>
			<psa30 value="0.00265544996279" flag="0"/>
		</comp>
		<comp name="--.HNZ" depth="0.0">
			<acc value="-0.014770416" flag="0"/>
			<vel value="-0.010716" flag="0"/>
			<psa03 value="0.0326618108313" flag="0"/>
			<psa10 value="0.00779588208117" flag="0"/>
			<psa30 value="0.0027082457666" flag="0"/>
		</comp>
	</station>
</stationlist>
