<?xml version="1.0" encoding="UTF-8" standalone="yes"?>
<!DOCTYPE earthquake SYSTEM "stationlist.dtd">
<stationlist created="" xmlns="ch.ethz.sed.shakemap.usgs.xml">
  <station code="KLV" name="KLV" netid="MN" insttype="" lat="38.0437" lon="22.1504">
    <comp name="--.HHZ">
      <acc value="0.0023169900" flag="0"/>
      <vel value="0.0008583758" flag="0"/>
      <psa03 value="0.0052759246" flag="0"/>
      <psa10 value="0.0009791742" flag="0"/>
      <psa30 value="0.0000760790" flag="0"/>
    </comp>
    <comp name="--.HHE">
      <acc value="0.0019403717" flag="0"/>
      <vel value="0.0007896255" flag="0"/>
      <psa03 value="0.0036870842" flag="0"/>
      <psa10 value="0.0007076789" flag="0"/>
      <psa30 value="0.0000541189" flag="0"/>
    </comp>
    <comp name="--.HHN">
      <acc value="0.0022552977" flag="0"/>
      <vel value="0.0014794981" flag="0"/>
      <psa03 value="0.0070968814" flag="0"/>
      <psa10 value="0.0012252002" flag="0"/>
      <psa30 value="0.0000829817" flag="0"/>
    </comp>
  </station>
</stationlist>
