<stationlist xmlns:esm="https://esm-db.eu/esmws/shakemap/1/" created="1783994185">
	<station code="ARG2" name="ARG2" netid="HI" source="ITSAK Strong Motion Network" insttype="" lat="38.1783" lon="20.4878" esm:processing="manual (Paolucci et al 2011)" esm:quality="good">
		<comp name="--.HNE" depth="0.0">
			<acc value="0.0449273323873076" flag="0"/>
			<vel value="0.0211964753855481" flag="0"/>
			<psa03 value="0.0845627705085336" flag="0"/>
			<psa10 value="0.0113716792340999" flag="0"/>
			<psa30 value="0.000778066973091746" flag="0"/>
		</comp>
		<comp name="--.HNN" depth="0.0">
			<acc value="0.0450456688601066" flag="0"/>
			<vel value="0.0217917594311779" flag="0"/>
			<psa03 value="0.0945402825844082" flag="0"/>
			<psa10 value="0.0129099162976361" flag="0"/>
			<psa30 value="0.00073108765614256" flag="0"/>
		</comp>
		<comp name="--.HNZ" depth="0.0">
			<acc value="0.0282231729339181" flag="0"/>
			<vel value="0.00972578281681517" flag="0"/>
			<psa03 value="0.0816097848717277" flag="0"/>
			<psa10 value="0.00729253225671211" flag="0"/>
			<psa30 value="0.000504692090654105" flag="0"/>
		</comp>
	</station>
	<station code="KRI1" name="KRI1" netid="HI" source="ITSAK Strong Motion Network" insttype="" lat="37.6621" lon="20.8172" esm:processing="manual (Paolucci et al 2011)" esm:quality="best">
		<comp name="--.HNE" depth="0.0">
			<acc value="0.12540995184516" flag="0"/>
			<vel value="0.0478322980122498" flag="0"/>
			<psa03 value="0.219460523462623" flag="0"/>
			<psa10 value="0.0419672949638065" flag="0"/>
			<psa30 value="0.00237849570382733" flag="0"/>
		</comp>
		<comp name="--.HNN" depth="0.0">
			<acc value="0.0943175948081897" flag="0"/>
			<vel value="0.0539426689970412" flag="0"/>
			<psa03 value="0.249393059690247" flag="0"/>
			<psa10 value="0.0662005689123949" flag="0"/>
			<psa30 value="0.00467913996813886" flag="0"/>
		</comp>
		<comp name="--.HNZ" depth="0.0">
			<acc value="0.112597551043801" flag="0"/>
			<vel value="0.0437579691511729" flag="0"/>
			<psa03 value="0.152884120014635" flag="0"/>
			<psa10 value="0.0166588657901811" flag="0"/>
			<psa30 value="0.00325007388875126" flag="0"/>
		</comp>
	</station>
	<station code="MSL1" name="MSL1" netid="HI" source="ITSAK Strong Motion Network" insttype="" lat="38.3727" lon="21.4243" esm:processing="manual (Paolucci et al 2011)" esm:quality="good">
		<comp name="--.HNE" depth="0.0">
			<acc value="0.0185569025850379" flag="0"/>
			<vel value="0.0154028553078644" flag="0"/>
			<psa03 value="0.0619232139596881" flag="0"/>
			<psa10 value="0.0245634714334312" flag="0"/>
			<psa30 value="0.00127917968721639" flag="0"/>
		</comp>
		<comp name="--.HNN" depth="0.0">
			<acc value="0.0210626898064383" flag="0"/>
			<vel value="0.0125420790200007" flag="0"/>
			<psa03 value="0.0799543232268516" flag="0"/>
			<psa10 value="0.0180722720972523" flag="0"/>
			<psa30 value="0.00131900025110665" flag="0"/>
		</comp>
		<comp name="--.HNZ" depth="0.0">
			<acc value="0.0094505919642029" flag="0"/>
			<vel value="0.00575461072403103" flag="0"/>
			<psa03 value="0.0254583155657966" flag="0"/>
			<psa10 value="0.0115730191638822" flag="0"/>
			<psa30 value="0.000400890171299715" flag="0"/>
		</comp>
	</station>
	<station code="PYL1" name="PYL1" netid="HI" source="ITSAK Strong Motion Network" insttype="" lat="36.914188" lon="21.695161" esm:processing="manual (Paolucci et al 2011)" esm:quality="good">
		<comp name="--.HNE" depth="0.0">
			<acc value="0.0139457971348941" flag="0"/>
			<vel value="0.00578567739743316" flag="0"/>
			<psa03 value="0.0336908815835586" flag="0"/>
			<psa10 value="0.00467511316954322" flag="0"/>
			<psa30 value="0.000370018048733107" flag="0"/>
		</comp>
		<comp name="--.HNN" depth="0.0">
			<acc value="0.0144705396465391" flag="0"/>
			<vel value="0.00623742720786144" flag="0"/>
			<psa03 value="0.0240265649540119" flag="0"/>
			<psa10 value="0.00409525417177041" flag="0"/>
			<psa30 value="0.000344514990960692" flag="0"/>
		</comp>
		<comp name="--.HNZ" depth="0.0">
			<acc value="0.0102207153587631" flag="0"/>
			<vel value="0.00298587093400217" flag="0"/>
			<psa03 value="0.0112302938611862" flag="0"/>
			<psa10 value="0.00205366728377867" flag="0"/>
			<psa30 value="0.00016957296308325" flag="0"/>
		</comp>
	</station>
	<station code="ITM" name="ITM" netid="HL" source="National Observatory of Athens Seismic Network" insttype="" lat="37.17872" lon="21.92522" esm:processing="manual (Paolucci et al 2011)" esm:quality="best">
		<comp name="--.HNE" depth="0.0">
			<acc value="0.00693384024912628" flag="0"/>
			<vel value="0.00384354341139074" flag="0"/>
			<psa03 value="0.0166888430686154" flag="0"/>
			<psa10 value="0.00503349824455557" flag="0"/>
			<psa30 value="0.000497533337595182" flag="0"/>
		</comp>
		<comp name="--.HNN" depth="0.0">
			<acc value="0.0116891669275891" flag="0"/>
			<vel value="0.00440143719756063" flag="0"/>
			<psa03 value="0.025682026598888" flag="0"/>
			<psa10 value="0.00299593815515948" flag="0"/>
			<psa30 value="0.000504692090654105" flag="0"/>
		</comp>
		<comp name="--.HNZ" depth="0.0">
			<acc value="0.0102988399658164" flag="0"/>
			<vel value="0.0030756085430877" flag="0"/>
			<psa03 value="0.0155702879031586" flag="0"/>
			<psa10 value="0.00281875901695112" flag="0"/>
			<psa30 value="0.000399995327167349" flag="0"/>
		</comp>
	</station>
	<station code="LXRA" name="LXRA" netid="HL" source="National Observatory of Athens Seismic Network" insttype="" lat="38.20006" lon="20.43718" esm:processing="manual (Paolucci et al 2011)" esm:quality="good">
		<comp name="00.HNE" depth="0.0">
			<acc value="0.0435764394106673" flag="0"/>
			<vel value="0.0248709169653825" flag="0"/>
			<psa03 value="0.123846427919376" flag="0"/>
			<psa10 value="0.0340747697163434" flag="0"/>
			<psa30 value="0.00135568886053363" flag="0"/>
		</comp>
		<comp name="00.HNN" depth="0.0">
			<acc value="0.0448283842452012" flag="0"/>
			<vel value="0.0200332659224761" flag="0"/>
			<psa03 value="0.129528688159897" flag="0"/>
			<psa10 value="0.023750058117111" flag="0"/>
			<psa30 value="0.00208990847113947" flag="0"/>
		</comp>
		<comp name="00.HNZ" depth="0.0">
			<acc value="0.0258114802806415" flag="0"/>
			<vel value="0.0096737121203083" flag="0"/>
			<psa03 value="0.0679186696465365" flag="0"/>
			<psa10 value="0.0101435056624284" flag="0"/>
			<psa30 value="0.000951219312704457" flag="0"/>
		</comp>
	</station>
	<station code="PATC" name="PATC" netid="HL" source="National Observatory of Athens Seismic Network" insttype="" lat="38.26933" lon="21.76001" esm:processing="manual (Paolucci et al 2011)" esm:quality="good">
		<comp name="00.HNE" depth="0.0">
			<acc value="0.0127182540298943" flag="0"/>
			<vel value="0.00871258701965848" flag="0"/>
			<psa03 value="0.0422254248313196" flag="0"/>
			<psa10 value="0.0112607012786894" flag="0"/>
			<psa30 value="0.00139416371066831" flag="0"/>
		</comp>
		<comp name="00.HNN" depth="0.0">
			<acc value="0.0136831553808798" flag="0"/>
			<vel value="0.0105193133383727" flag="0"/>
			<psa03 value="0.0477560490206458" flag="0"/>
			<psa10 value="0.00988841599652204" flag="0"/>
			<psa30 value="0.00105213136520593" flag="0"/>
		</comp>
		<comp name="00.HNZ" depth="0.0">
			<acc value="0.00940749576192687" flag="0"/>
			<vel value="0.00480362140472111" flag="0"/>
			<psa03 value="0.0278621426051967" flag="0"/>
			<psa10 value="0.00536605609989117" flag="0"/>
			<psa30 value="0.000501332689997791" flag="0"/>
		</comp>
	</station>
	<station code="SMHA" name="SMHA" netid="HL" source="National Observatory of Athens Seismic Network" insttype="" lat="38.25123" lon="20.6477" esm:processing="manual (Paolucci et al 2011)" esm:quality="bad">
		<comp name="00.HNE" depth="0.0">
			<acc value="0.0414812659689172" flag="0"/>
			<vel value="0.0227003774397777" flag="0"/>
			<psa03 value="0.105987333640906" flag="0"/>
			<psa10 value="0.0210017850151979" flag="0"/>
			<psa30 value="0.000887080327216025" flag="0"/>
		</comp>
		<comp name="00.HNN" depth="0.0">
			<acc value="0.0543362319813462" flag="0"/>
			<vel value="0.0289931207645023" flag="0"/>
			<psa03 value="0.138395897215522" flag="0"/>
			<psa10 value="0.0167437248145979" flag="0"/>
			<psa30 value="0.000984605121091321" flag="0"/>
		</comp>
		<comp name="00.HNZ" depth="0.0">
			<acc value="0.0254900441886688" flag="0"/>
			<vel value="0.013764681017452" flag="0"/>
			<psa03 value="0.0626614270538425" flag="0"/>
			<psa10 value="0.00763824818395641" flag="0"/>
			<psa30 value="0.000462597728163544" flag="0"/>
		</comp>
	</station>
	<station code="ZARA" name="ZARA" netid="HL" source="National Observatory of Athens Seismic Network" insttype="" lat="37.4865" lon="21.6491" esm:processing="manual (Paolucci et al 2011)" esm:quality="good">
		<comp name="00.HNE" depth="0.0">
			<acc value="0.0453394061564026" flag="0"/>
			<vel value="0.0253724586470462" flag="0"/>
			<psa03 value="0.127767016021119" flag="0"/>
			<psa10 value="0.0174723305811483" flag="0"/>
			<psa30 value="0.001147650609553" flag="0"/>
		</comp>
		<comp name="00.HNN" depth="0.0">
			<acc value="0.0519130442395603" flag="0"/>
			<vel value="0.0238348909090758" flag="0"/>
			<psa03 value="0.148391496875172" flag="0"/>
			<psa10 value="0.0184085669771996" flag="0"/>
			<psa30 value="0.00105601891440371" flag="0"/>
		</comp>
		<comp name="00.HNZ" depth="0.0">
			<acc value="0.0243115815634122" flag="0"/>
			<vel value="0.0101388067033289" flag="0"/>
			<psa03 value="0.0545685680250221" flag="0"/>
			<psa10 value="0.00766675335351655" flag="0"/>
			<psa30 value="0.000691269595301357" flag="0"/>
		</comp>
	</station>
	<station code="ANX" name="ANX" netid="HP" source="University of Patras, Seismological Laboratory (PSLNET)" insttype="" lat="38.5933" lon="21.9209" esm:processing="automatic (Paolucci et al 2011)" esm:quality="best">
		<comp name="--.HNE" depth="0.0">
			<acc value="0.0083644450734933" flag="0"/>
			<vel value="0.0056075633909805" flag="0"/>
			<psa03 value="0.0216505475237832" flag="0"/>
			<psa10 value="0.00371353936313465" flag="0"/>
			<psa30 value="0.000404196281228248" flag="0"/>
		</comp>
		<comp name="--.HNN" depth="0.0">
			<acc value="0.00908102872525492" flag="0"/>
			<vel value="0.00657878470566554" flag="0"/>
			<psa03 value="0.0229049418191609" flag="0"/>
			<psa10 value="0.00632175112875676" flag="0"/>
			<psa30 value="0.000393964718020925" flag="0"/>
		</comp>
		<comp name="--.HNZ" depth="0.0">
			<acc value="0.00306963962934434" flag="0"/>
			<vel value="0.00214000389780456" flag="0"/>
			<psa03 value="0.0122716631978749" flag="0"/>
			<psa10 value="0.00200696209201233" flag="0"/>
			<psa30 value="0.000271680211022186" flag="0"/>
		</comp>
	</station>
	<station code="FSK" name="FSK" netid="HP" source="University of Patras, Seismological Laboratory (PSLNET)" insttype="" lat="38.4593" lon="20.5623" esm:processing="manual (Paolucci et al 2011)" esm:quality="good">
		<comp name="--.HNE" depth="0.0">
			<acc value="0.0152526095446712" flag="0"/>
			<vel value="0.00787312225275487" flag="0"/>
			<psa03 value="0.0258318544627487" flag="0"/>
			<psa10 value="0.00642430589123643" flag="0"/>
			<psa30 value="0.000671177951828671" flag="0"/>
		</comp>
		<comp name="--.HNN" depth="0.0">
			<acc value="0.00941664917757948" flag="0"/>
			<vel value="0.00613436348295066" flag="0"/>
			<psa03 value="0.0192105108833157" flag="0"/>
			<psa10 value="0.00982950521898004" flag="0"/>
			<psa30 value="0.000674141585654867" flag="0"/>
		</comp>
		<comp name="--.HNZ" depth="0.0">
			<acc value="0.00708856051320567" flag="0"/>
			<vel value="0.00325056779583717" flag="0"/>
			<psa03 value="0.0175168413943575" flag="0"/>
			<psa10 value="0.0028899630083661" flag="0"/>
			<psa30 value="0.000254920116373293" flag="0"/>
		</comp>
	</station>
	<station code="ARS1" name="ARS1" netid="HI" source="ITSAK Strong Motion Network" insttype="" lat="37.6349" lon="22.7293" esm:processing="discarded" esm:quality="bad">
		<comp name="--.HNE" depth="0.0">
			<acc value="0" flag="1"/>
			<vel value="0" flag="1"/>
			<psa03 value="0" flag="1"/>
			<psa10 value="0" flag="1"/>
			<psa30 value="0" flag="1"/>
		</comp>
		<comp name="--.HNN" depth="0.0">
			<acc value="0" flag="1"/>
			<vel value="0" flag="1"/>
			<psa03 value="0" flag="1"/>
			<psa10 value="0" flag="1"/>
			<psa30 value="0" flag="1"/>
		</comp>
		<comp name="--.HNZ" depth="0.0">
			<acc value="0" flag="1"/>
			<vel value="0" flag="1"/>
			<psa03 value="0" flag="1"/>
			<psa10 value="0" flag="1"/>
			<psa30 value="0" flag="1"/>
		</comp>
	</station>
	<station code="ART2" name="ART2" netid="HI" source="ITSAK Strong Motion Network" insttype="" lat="39.1474" lon="20.9937" esm:processing="discarded" esm:quality="bad">
		<comp name="--.HNE" depth="0.0">
			<acc value="0" flag="1"/>
			<vel value="0" flag="1"/>
			<psa03 value="0" flag="1"/>
			<psa10 value="0" flag="1"/>
			<psa30 value="0" flag="1"/>
		</comp>
		<comp name="--.HNN" depth="0.0">
			<acc value="0" flag="1"/>
			<vel value="0" flag="1"/>
			<psa03 value="0" flag="1"/>
			<psa10 value="0" flag="1"/>
			<psa30 value="0" flag="1"/>
		</comp>
		<comp name="--.HNZ" depth="0.0">
			<acc value="0" flag="1"/>
			<vel value="0" flag="1"/>
			<psa03 value="0" flag="1"/>
			<psa10 value="0" flag="1"/>
			<psa30 value="0" flag="1"/>
		</comp>
	</station>
	<station code="KLV1" name="KLV1" netid="HI" source="ITSAK Strong Motion Network" insttype="" lat="38.03256" lon="22.10797" esm:processing="discarded" esm:quality="good">
		<comp name="--.HNE" depth="0.0">
			<acc value="0" flag="1"/>
			<vel value="0" flag="1"/>
			<psa03 value="0" flag="1"/>
			<psa10 value="0" flag="1"/>
			<psa30 value="0" flag="1"/>
		</comp>
		<comp name="--.HNN" depth="0.0">
			<acc value="0" flag="1"/>
			<vel value="0" flag="1"/>
			<psa03 value="0" flag="1"/>
			<psa10 value="0" flag="1"/>
			<psa30 value="0" flag="1"/>
		</comp>
		<comp name="--.HNZ" depth="0.0">
			<acc value="0" flag="1"/>
			<vel value="0" flag="1"/>
			<psa03 value="0" flag="1"/>
			<psa10 value="0" flag="1"/>
			<psa30 value="0" flag="1"/>
		</comp>
	</station>
	<station code="LAM2" name="LAM2" netid="HI" source="ITSAK Strong Motion Network" insttype="" lat="38.90203" lon="22.431301" esm:processing="discarded" esm:quality="bad">
		<comp name="--.HNE" depth="0.0">
			<acc value="0" flag="1"/>
			<vel value="0" flag="1"/>
			<psa03 value="0" flag="1"/>
			<psa10 value="0" flag="1"/>
			<psa30 value="0" flag="1"/>
		</comp>
		<comp name="--.HNN" depth="0.0">
			<acc value="0" flag="1"/>
			<vel value="0" flag="1"/>
			<psa03 value="0" flag="1"/>
			<psa10 value="0" flag="1"/>
			<psa30 value="0" flag="1"/>
		</comp>
		<comp name="--.HNZ" depth="0.0">
			<acc value="0" flag="1"/>
			<vel value="0" flag="1"/>
			<psa03 value="0" flag="1"/>
			<psa10 value="0" flag="1"/>
			<psa30 value="0" flag="1"/>
		</comp>
	</station>
	<station code="ARTB" name="ARTB" netid="HL" source="National Observatory of Athens Seismic Network" insttype="" lat="39.15702" lon="20.9785" esm:processing="discarded" esm:quality="bad">
		<comp name="00.HNE" depth="0.0">
			<acc value="0" flag="1"/>
			<vel value="0" flag="1"/>
			<psa03 value="0" flag="1"/>
			<psa10 value="0" flag="1"/>
			<psa30 value="0" flag="1"/>
		</comp>
		<comp name="00.HNN" depth="0.0">
			<acc value="0" flag="1"/>
			<vel value="0" flag="1"/>
			<psa03 value="0" flag="1"/>
			<psa10 value="0" flag="1"/>
			<psa30 value="0" flag="1"/>
		</comp>
		<comp name="00.HNZ" depth="0.0">
			<acc value="0" flag="1"/>
			<vel value="0" flag="1"/>
			<psa03 value="0" flag="1"/>
			<psa10 value="0" flag="1"/>
			<psa30 value="0" flag="1"/>
		</comp>
	</station>
	<station code="DLFA" name="DLFA" netid="HL" source="National Observatory of Athens Seismic Network" insttype="" lat="38.47836" lon="22.49583" esm:processing="discarded" esm:quality="bad">
		<comp name="00.HNE" depth="0.0">
			<acc value="0" flag="1"/>
			<vel value="0" flag="1"/>
			<psa03 value="0" flag="1"/>
			<psa10 value="0" flag="1"/>
			<psa30 value="0" flag="1"/>
		</comp>
		<comp name="00.HNN" depth="0.0">
			<acc value="0" flag="1"/>
			<vel value="0" flag="1"/>
			<psa03 value="0" flag="1"/>
			<psa10 value="0" flag="1"/>
			<psa30 value="0" flag="1"/>
		</comp>
		<comp name="00.HNZ" depth="0.0">
			<acc value="0" flag="1"/>
			<vel value="0" flag="1"/>
			<psa03 value="0" flag="1"/>
			<psa10 value="0" flag="1"/>
			<psa30 value="0" flag="1"/>
		</comp>
	</station>
	<station code="KIAA" name="KIAA" netid="HL" source="National Observatory of Athens Seismic Network" insttype="" lat="38.0139" lon="22.7495" esm:processing="discarded" esm:quality="bad">
		<comp name="00.HNE" depth="0.0">
			<acc value="0" flag="1"/>
			<vel value="0" flag="1"/>
			<psa03 value="0" flag="1"/>
			<psa10 value="0" flag="1"/>
			<psa30 value="0" flag="1"/>
		</comp>
		<comp name="00.HNN" depth="0.0">
			<acc value="0" flag="1"/>
			<vel value="0" flag="1"/>
			<psa03 value="0" flag="1"/>
			<psa10 value="0" flag="1"/>
			<psa30 value="0" flag="1"/>
		</comp>
		<comp name="00.HNZ" depth="0.0">
			<acc value="0" flag="1"/>
			<vel value="0" flag="1"/>
			<psa03 value="0" flag="1"/>
			<psa10 value="0" flag="1"/>
			<psa30 value="0" flag="1"/>
		</comp>
	</station>
	<station code="MNVA" name="MNVA" netid="HL" source="National Observatory of Athens Seismic Network" insttype="" lat="36.68709" lon="23.03734" esm:processing="discarded" esm:quality="bad">
		<comp name="00.HNE" depth="0.0">
			<acc value="0" flag="1"/>
			<vel value="0" flag="1"/>
			<psa03 value="0" flag="1"/>
			<psa10 value="0" flag="1"/>
			<psa30 value="0" flag="1"/>
		</comp>
		<comp name="00.HNN" depth="0.0">
			<acc value="0" flag="1"/>
			<vel value="0" flag="1"/>
			<psa03 value="0" flag="1"/>
			<psa10 value="0" flag="1"/>
			<psa30 value="0" flag="1"/>
		</comp>
		<comp name="00.HNZ" depth="0.0">
			<acc value="0" flag="1"/>
			<vel value="0" flag="1"/>
			<psa03 value="0" flag="1"/>
			<psa10 value="0" flag="1"/>
			<psa30 value="0" flag="1"/>
		</comp>
	</station>
	<station code="PATG" name="PATG" netid="HL" source="National Observatory of Athens Seismic Network" insttype="" lat="38.23865" lon="21.72657" esm:processing="discarded" esm:quality="bad">
		<comp name="00.HNE" depth="0.0">
			<acc value="0" flag="1"/>
			<vel value="0" flag="1"/>
			<psa03 value="0" flag="1"/>
			<psa10 value="0" flag="1"/>
			<psa30 value="0" flag="1"/>
		</comp>
		<comp name="00.HNN" depth="0.0">
			<acc value="0" flag="1"/>
			<vel value="0" flag="1"/>
			<psa03 value="0" flag="1"/>
			<psa10 value="0" flag="1"/>
			<psa30 value="0" flag="1"/>
		</comp>
		<comp name="00.HNZ" depth="0.0">
			<acc value="0" flag="1"/>
			<vel value="0" flag="1"/>
			<psa03 value="0" flag="1"/>
			<psa10 value="0" flag="1"/>
			<psa30 value="0" flag="1"/>
		</comp>
	</station>
	<station code="PRGA" name="PRGA" netid="HL" source="National Observatory of Athens Seismic Network" insttype="" lat="39.28557" lon="20.40157" esm:processing="discarded" esm:quality="bad">
		<comp name="00.HNE" depth="0.0">
			<acc value="0" flag="1"/>
			<vel value="0" flag="1"/>
			<psa03 value="0" flag="1"/>
			<psa10 value="0" flag="1"/>
			<psa30 value="0" flag="1"/>
		</comp>
		<comp name="00.HNN" depth="0.0">
			<acc value="0" flag="1"/>
			<vel value="0" flag="1"/>
			<psa03 value="0" flag="1"/>
			<psa10 value="0" flag="1"/>
			<psa30 value="0" flag="1"/>
		</comp>
		<comp name="00.HNZ" depth="0.0">
			<acc value="0" flag="1"/>
			<vel value="0" flag="1"/>
			<psa03 value="0" flag="1"/>
			<psa10 value="0" flag="1"/>
			<psa30 value="0" flag="1"/>
		</comp>
	</station>
	<station code="RIOA" name="RIOA" netid="HL" source="National Observatory of Athens Seismic Network" insttype="" lat="38.29585" lon="21.79118" esm:processing="discarded" esm:quality="bad">
		<comp name="00.HNE" depth="0.0">
			<acc value="0" flag="1"/>
			<vel value="0" flag="1"/>
			<psa03 value="0" flag="1"/>
			<psa10 value="0" flag="1"/>
			<psa30 value="0" flag="1"/>
		</comp>
