<?xml version="1.0" encoding="UTF-8" standalone="yes"?>
<!DOCTYPE earthquake SYSTEM "stationlist.dtd">
<stationlist created="" xmlns="ch.ethz.sed.shakemap.usgs.xml">
  <station code="AGRP" name="AGRP" netid="CL" source="RESIF" insttype="30" lat="38.3959" lon="21.7228">
    <comp name="00.HHE">
      <acc value="0.0038139073" flag="0"/>
      <vel value="0.0027074670" flag="0"/>
      <psa03 value="0.0103821835" flag="0"/>
      <psa10 value="0.0026306180" flag="0"/>
      <psa30 value="0.0003202856" flag="0"/>
    </comp>
    <comp name="00.HHN">
      <acc value="0.0049704140" flag="0"/>
      <vel value="0.0026561615" flag="0"/>
      <psa03 value="0.0124637458" flag="0"/>
      <psa10 value="0.0031160282" flag="0"/>
      <psa30 value="0.0003094238" flag="0"/>
    </comp>
    <comp name="00.HHZ">
      <acc value="0.0024861376" flag="0"/>
      <vel value="0.0015166382" flag="0"/>
      <psa03 value="0.0108033590" flag="0"/>
      <psa10 value="0.0022419291" flag="0"/>
      <psa30 value="0.0001479529" flag="0"/>
    </comp>
  </station>
  <station code="MALA" name="MALA" netid="CL" source="RESIF" insttype="30" lat="38.3935" lon="21.8726">
    <comp name="00.HH2">
      <acc value="0.0026718167" flag="0"/>
      <vel value="0.0020507962" flag="0"/>
      <psa03 value="0.0094162528" flag="0"/>
      <psa10 value="0.0017639495" flag="0"/>
      <psa30 value="0.0004298393" flag="0"/>
    </comp>
    <comp name="00.HH3">
      <acc value="0.0033692546" flag="0"/>
      <vel value="0.0019445798" flag="0"/>
      <psa03 value="0.0094779177" flag="0"/>
      <psa10 value="0.0027174716" flag="0"/>
      <psa30 value="0.0006541857" flag="0"/>
    </comp>
    <comp name="00.HHZ">
      <acc value="0.0021307278" flag="0"/>
      <vel value="0.0017613129" flag="0"/>
      <psa03 value="0.0051452174" flag="0"/>
      <psa10 value="0.0019680598" flag="0"/>
      <psa30 value="0.0001632174" flag="0"/>
    </comp>
  </station>
  <station code="MG00" name="MG00" netid="CL" source="RESIF" insttype="40" lat="38.4145" lon="21.9467">
    <comp name="00.HHE">
      <acc value="0.0149655904" flag="0"/>
      <vel value="0.0075820542" flag="0"/>
      <psa03 value="0.0426975219" flag="0"/>
      <psa10 value="0.0034823754" flag="0"/>
      <psa30 value="0.0003357002" flag="0"/>
    </comp>
    <comp name="00.HHN">
      <acc value="0.0094355050" flag="0"/>
      <vel value="0.0061192260" flag="0"/>
      <psa03 value="0.0351306808" flag="0"/>
      <psa10 value="0.0052894879" flag="0"/>
      <psa30 value="0.0003745598" flag="0"/>
    </comp>
    <comp name="00.HHZ">
      <acc value="0.0055676840" flag="0"/>
      <vel value="0.0017313408" flag="0"/>
      <psa03 value="0.0144438213" flag="0"/>
      <psa10 value="0.0014705799" flag="0"/>
      <psa30 value="0.0001745022" flag="0"/>
    </comp>
  </station>
  <station code="MG02" name="MG02" netid="CL" source="RESIF" insttype="40" lat="38.415" lon="21.947">
    <comp name="02.HHE">
      <acc value="0.0101577254" flag="0"/>
      <vel value="0.0071538037" flag="0"/>
      <psa03 value="0.0402049812" flag="0"/>
      <psa10 value="0.0032838525" flag="0"/>
      <psa30 value="0.0003909554" flag="0"/>
    </comp>
    <comp name="02.HHN">
      <acc value="0.0114741136" flag="0"/>
      <vel value="0.0064099211" flag="0"/>
      <psa03 value="0.0422957411" flag="0"/>
      <psa10 value="0.0061158601" flag="0"/>
      <psa30 value="0.0004082266" flag="0"/>
    </comp>
    <comp name="02.HHZ">
      <acc value="0.0063773211" flag="0"/>
      <vel value="0.0024402723" flag="0"/>
      <psa03 value="0.0121233313" flag="0"/>
      <psa10 value="0.0017346216" flag="0"/>
      <psa30 value="0.0001856616" flag="0"/>
    </comp>
  </station>
  <station code="MG03" name="MG03" netid="CL" source="RESIF" insttype="40" lat="38.4141" lon="21.946">
    <comp name="03.HHE">
      <acc value="0.0077882711" flag="0"/>
      <vel value="0.0053162842" flag="0"/>
      <psa03 value="0.0297296236" flag="0"/>
      <psa10 value="0.0027753395" flag="0"/>
      <psa30 value="0.0003175353" flag="0"/>
    </comp>
    <comp name="03.HHN">
      <acc value="0.0035170964" flag="0"/>
      <vel value="0.0020756323" flag="0"/>
      <psa03 value="0.0161378153" flag="0"/>
      <psa10 value="0.0020057584" flag="0"/>
      <psa30 value="0.0001444105" flag="0"/>
    </comp>
    <comp name="03.HHZ">
      <acc value="0.0034825958" flag="0"/>
      <vel value="0.0013157137" flag="0"/>
      <psa03 value="0.0085714106" flag="0"/>
      <psa10 value="0.0010972010" flag="0"/>
      <psa30 value="0.0001757121" flag="0"/>
    </comp>
  </station>
  <station code="MG04" name="MG04" netid="CL" source="RESIF" insttype="40" lat="38.4142" lon="21.9481">
    <comp name="04.HHE">
      <acc value="0.0082670828" flag="0"/>
      <vel value="0.0053984230" flag="0"/>
      <psa03 value="0.0213558464" flag="0"/>
      <psa10 value="0.0035732959" flag="0"/>
      <psa30 value="0.0003364382" flag="0"/>
    </comp>
    <comp name="04.HHN">
      <acc value="0.0081587093" flag="0"/>
      <vel value="0.0056923755" flag="0"/>
      <psa03 value="0.0291480535" flag="0"/>
      <psa10 value="0.0046980469" flag="0"/>
      <psa30 value="0.0003166163" flag="0"/>
    </comp>
    <comp name="04.HHZ">
      <acc value="0.0050799733" flag="0"/>
      <vel value="0.0016097360" flag="0"/>
      <psa03 value="0.0100481396" flag="0"/>
      <psa10 value="0.0013249993" flag="0"/>
      <psa30 value="0.0001782867" flag="0"/>
    </comp>
  </station>
  <station code="MG05" name="MG05" netid="CL" source="RESIF" insttype="30" lat="38.4155" lon="21.9458">
    <comp name="05.HHE">
      <acc value="0.0175179684" flag="0"/>
      <vel value="0.0094660970" flag="0"/>
      <psa03 value="0.0663479945" flag="0"/>
      <psa10 value="0.0073630146" flag="0"/>
      <psa30 value="0.0005392935" flag="0"/>
    </comp>
    <comp name="05.HHN">
      <acc value="0.0197460233" flag="0"/>
      <vel value="0.0096704699" flag="0"/>
      <psa03 value="0.0628872580" flag="0"/>
      <psa10 value="0.0122521085" flag="0"/>
      <psa30 value="0.0007644199" flag="0"/>
    </comp>
    <comp name="05.HHZ">
      <acc value="0.0099633371" flag="0"/>
      <vel value="0.0048516798" flag="0"/>
      <psa03 value="0.0380334598" flag="0"/>
      <psa10 value="0.0039123344" flag="0"/>
      <psa30 value="0.0003893065" flag="0"/>
    </comp>
  </station>
  <station code="MG06" name="MG06" netid="CL" source="RESIF" insttype="40" lat="38.4129" lon="21.9462">
    <comp name="06.HHE">
      <acc value="0.0050992303" flag="0"/>
      <vel value="0.0029169902" flag="0"/>
      <psa03 value="0.0176165745" flag="0"/>
      <psa10 value="0.0028180661" flag="0"/>
      <psa30 value="0.0002671575" flag="0"/>
    </comp>
    <comp name="06.HHN">
      <acc value="0.0050111254" flag="0"/>
      <vel value="0.0021774107" flag="0"/>
      <psa03 value="0.0100418737" flag="0"/>
      <psa10 value="0.0020959783" flag="0"/>
      <psa30 value="0.0002721915" flag="0"/>
    </comp>
    <comp name="06.HHZ">
      <acc value="0.0028845730" flag="0"/>
      <vel value="0.0009500480" flag="0"/>
      <psa03 value="0.0062243876" flag="0"/>
      <psa10 value="0.0009721201" flag="0"/>
      <psa30 value="0.0001684490" flag="0"/>
    </comp>
  </station>
  <station code="MG07" name="MG07" netid="CL" source="RESIF" insttype="40" lat="38.4155" lon="21.9488">
    <comp name="07.HHE">
      <acc value="0.0098220656" flag="0"/>
      <vel value="0.0064780004" flag="0"/>
      <psa03 value="0.0298075268" flag="0"/>
      <psa10 value="0.0043111202" flag="0"/>
      <psa30 value="0.0003510489" flag="0"/>
    </comp>
    <comp name="07.HHN">
      <acc value="0.0085112210" flag="0"/>
      <vel value="0.0061013093" flag="0"/>
      <psa03 value="0.0253554419" flag="0"/>
      <psa10 value="0.0067626546" flag="0"/>
      <psa30 value="0.0003528155" flag="0"/>
    </comp>
    <comp name="07.HHZ">
      <acc value="0.0049725205" flag="0"/>
      <vel value="0.0024977203" flag="0"/>
      <psa03 value="0.0159168271" flag="0"/>
      <psa10 value="0.0020332973" flag="0"/>
      <psa30 value="0.0001819046" flag="0"/>
    </comp>
  </station>
  <station code="PSAM" name="PSAM" netid="CL" source="RESIF" insttype="30" lat="38.3322" lon="22.1843">
    <comp name="00.HHE">
      <acc value="0.0043053162" flag="0"/>
      <vel value="0.0032472060" flag="0"/>
      <psa03 value="0.0113330153" flag="0"/>
      <psa10 value="0.0039482956" flag="0"/>
      <psa30 value="0.0002416182" flag="0"/>
    </comp>
    <comp name="00.HHN">
      <acc value="0.0041546350" flag="0"/>
      <vel value="0.0033610612" flag="0"/>
      <psa03 value="0.0105970406" flag="0"/>
      <psa10 value="0.0061772529" flag="0"/>
      <psa30 value="0.0003552099" flag="0"/>
    </comp>
    <comp name="00.HHZ">
      <acc value="0.0020108413" flag="0"/>
      <vel value="0.0011225161" flag="0"/>
      <psa03 value="0.0060724623" flag="0"/>
      <psa10 value="0.0019898017" flag="0"/>
      <psa30 value="0.0001348006" flag="0"/>
    </comp>
  </station>
  <station code="ROD3" name="ROD3" netid="CL" source="RESIF" insttype="30" lat="38.3081" lon="21.892">
    <comp name="00.HHE">
      <acc value="0.0124407034" flag="0"/>
      <vel value="0.0072023249" flag="0"/>
      <psa03 value="0.0470994097" flag="0"/>
      <psa10 value="0.0066451328" flag="0"/>
      <psa30 value="0.0004748943" flag="0"/>
    </comp>
    <comp name="00.HHN">
      <acc value="0.0163877959" flag="0"/>
      <vel value="0.0085651061" flag="0"/>
      <psa03 value="0.0530841904" flag="0"/>
      <psa10 value="0.0059438690" flag="0"/>
      <psa30 value="0.0004875883" flag="0"/>
    </comp>
    <comp name="00.HHZ">
      <acc value="0.0080208089" flag="0"/>
      <vel value="0.0037990715" flag="0"/>
      <psa03 value="0.0169087897" flag="0"/>
      <psa10 value="0.0038766676" flag="0"/>
      <psa30 value="0.0003719742" flag="0"/>
    </comp>
  </station>
  <station code="ARG2" name="ARG2" netid="HI" source="NOA" insttype="CMG-5TD,ACCELEROMETER,GURALP" lat="38.1783" lon="20.4878">
    <comp name="--.HNE">
      <acc value="0.0444762769" flag="0"/>
      <vel value="0.0209080436" flag="0"/>
      <psa03 value="0.0845443007" flag="0"/>
      <psa10 value="0.0113560911" flag="0"/>
      <psa30 value="0.0007642703" flag="0"/>
    </comp>
    <comp name="--.HNN">
      <acc value="0.0450275303" flag="0"/>
      <vel value="0.0216157417" flag="0"/>
      <psa03 value="0.0954827556" flag="0"/>
      <psa10 value="0.0128489765" flag="0"/>
      <psa30 value="0.0007292048" flag="0"/>
    </comp>
    <comp name="--.HNZ">
      <acc value="0.0277683054" flag="0"/>
      <vel value="0.0099604323" flag="0"/>
      <psa03 value="0.0812005243" flag="0"/>
      <psa10 value="0.0073128342" flag="0"/>
      <psa30 value="0.0003929577" flag="0"/>
    </comp>
  </station>
  <station code="KRI1" name="KRI1" netid="HI" source="NOA" insttype="CMG-5TD,ACCELEROMETER,GURALP" lat="37.6621" lon="20.8172">
    <comp name="--.HNE">
      <acc value="0.1235376240" flag="0"/>
      <vel value="0.0473910195" flag="0"/>
      <psa03 value="0.2140689412" flag="0"/>
      <psa10 value="0.0418401915" flag="0"/>
      <psa30 value="0.0022781816" flag="0"/>
    </comp>
    <comp name="--.HNN">
      <acc value="0.0938571449" flag="0"/>
      <vel value="0.0529938918" flag="0"/>
      <psa03 value="0.2456697553" flag="0"/>
      <psa10 value="0.0660609165" flag="0"/>
      <psa30 value="0.0044491310" flag="0"/>
    </comp>
    <comp name="--.HNZ">
      <acc value="0.1122168987" flag="0"/>
      <vel value="0.0427528048" flag="0"/>
      <psa03 value="0.1507715872" flag="0"/>
      <psa10 value="0.0166210381" flag="0"/>
      <psa30 value="0.0028916797" flag="0"/>
    </comp>
  </station>
  <station code="PYL1" name="PYL1" netid="HI" source="NOA" insttype="CMG-5TD,ACCELEROMETER,GURALP" lat="36.9142" lon="21.6952">
    <comp name="--.HNE">
      <acc value="0.0141361673" flag="0"/>
      <vel value="0.0057036110" flag="0"/>
      <psa03 value="0.0327522983" flag="0"/>
      <psa10 value="0.0046648198" flag="0"/>
      <psa30 value="0.0003592548" flag="0"/>
    </comp>
    <comp name="--.HNN">
      <acc value="0.0142984972" flag="0"/>
      <vel value="0.0061824886" flag="0"/>
      <psa03 value="0.0241290912" flag="0"/>
      <psa10 value="0.0041001729" flag="0"/>
      <psa30 value="0.0003327226" flag="0"/>
    </comp>
    <comp name="--.HNZ">
      <acc value="0.0104198030" flag="0"/>
      <vel value="0.0029452667" flag="0"/>
      <psa03 value="0.0111285060" flag="0"/>
      <psa10 value="0.0020589189" flag="0"/>
      <psa30 value="0.0001639452" flag="0"/>
    </comp>
  </station>
  <station code="ITM" name="ITM" netid="HL" source="NOA" insttype="DR24" lat="37.1787" lon="21.9252">
    <comp name="--.HHE">
      <acc value="0.0068874873" flag="0"/>
      <vel value="0.0038815342" flag="0"/>
      <psa03 value="0.0168899915" flag="0"/>
      <psa10 value="0.0050373867" flag="0"/>
      <psa30 value="0.0004918030" flag="0"/>
    </comp>
    <comp name="--.HHN">
      <acc value="0.0116172741" flag="0"/>
      <vel value="0.0043988410" flag="0"/>
      <psa03 value="0.0260343848" flag="0"/>
      <psa10 value="0.0030641330" flag="0"/>
      <psa30 value="0.0004985170" flag="0"/>
    </comp>
    <comp name="--.HHZ">
      <acc value="0.0105176645" flag="0"/>
      <vel value="0.0033518927" flag="0"/>
      <psa03 value="0.0165831339" flag="0"/>
      <psa10 value="0.0030443511" flag="0"/>
      <psa30 value="0.0003583440" flag="0"/>
    </comp>
  </station>
  <station code="KLV" name="KLV" netid="HL" source="NOA" insttype="120" lat="38.0435" lon="22.1504">
    <comp name="--.HHE">
      <acc value="0.0030925211" flag="0"/>
      <vel value="0.0018283116" flag="0"/>
      <psa03 value="0.0067786431" flag="0"/>
      <psa10 value="0.0015603268" flag="0"/>
      <psa30 value="0.0001426475" flag="0"/>
    </comp>
    <comp name="--.HHN">
      <acc value="0.0018419806" flag="0"/>
      <vel value="0.0013216713" flag="0"/>
      <psa03 value="0.0061917118" flag="0"/>
      <psa10 value="0.0023517091" flag="0"/>
      <psa30 value="0.0001461387" flag="0"/>
    </comp>
    <comp name="--.HHZ">
      <acc value="0.0020036023" flag="0"/>
      <vel value="0.0014166258" flag="0"/>
      <psa03 value="0.0077142524" flag="0"/>
      <psa10 value="0.0026346886" flag="0"/>
      <psa30 value="0.0001871420" flag="0"/>
    </comp>
  </station>
  <station code="LXRA" name="LXRA" netid="HL" source="NOA" insttype="CMG-5" lat="38.2001" lon="20.4372">
    <comp name="00.HNE">
      <acc value="0.0438560079" flag="0"/>
      <vel value="0.0245931091" flag="0"/>
      <psa03 value="0.1237329958" flag="0"/>
      <psa10 value="0.0340510087" flag="0"/>
      <psa30 value="0.0010759318" flag="0"/>
    </comp>
    <comp name="00.HNN">
      <acc value="0.0450592296" flag="0"/>
      <vel value="0.0201717151" flag="0"/>
      <psa03 value="0.1302799322" flag="0"/>
      <psa10 value="0.0237542226" flag="0"/>
      <psa30 value="0.0017007109" flag="0"/>
    </comp>
    <comp name="00.HNZ">
      <acc value="0.0284808651" flag="0"/>
      <vel value="0.0096752562" flag="0"/>
      <psa03 value="0.0682273179" flag="0"/>
      <psa10 value="0.0100947305" flag="0"/>
      <psa30 value="0.0008334131" flag="0"/>
    </comp>
  </station>
  <station code="RLS" name="RLS" netid="HL" source="NOA" insttype="120" lat="38.0559" lon="21.4647">
    <comp name="--.HHE">
      <acc value="0.0080427117" flag="0"/>
      <vel value="0.0037256393" flag="0"/>
      <psa03 value="0.0172350460" flag="0"/>
      <psa10 value="0.0028854191" flag="0"/>
      <psa30 value="0.0003405192" flag="0"/>
    </comp>
    <comp name="--.HHN">
      <acc value="0.0101485564" flag="0"/>
      <vel value="0.0039412643" flag="0"/>
      <psa03 value="0.0260361900" flag="0"/>
      <psa10 value="0.0045204896" flag="0"/>
      <psa30 value="0.0002871536" flag="0"/>
    </comp>
    <comp name="--.HHZ">
      <acc value="0.0056073864" flag="0"/>
      <vel value="0.0026278567" flag="0"/>
      <psa03 value="0.0145707845" flag="0"/>
      <psa10 value="0.0028881084" flag="0"/>
      <psa30 value="0.0003605239" flag="0"/>
    </comp>
  </station>
  <station code="VLS" name="VLS" netid="HL" source="NOA" insttype="120P," lat="38.1768" lon="20.5886">
    <comp name="--.HHE">
      <acc value="0.0408344803" flag="0"/>
      <vel value="0.0090243820" flag="0"/>
      <psa03 value="0.0447034497" flag="0"/>
      <psa10 value="0.0038855813" flag="0"/>
      <psa30 value="0.0003181942" flag="0"/>
    </comp>
    <comp name="--.HHN">
      <acc value="0.0296968945" flag="0"/>
      <vel value="0.0114220943" flag="0"/>
      <psa03 value="0.0511656662" flag="0"/>
      <psa10 value="0.0052998104" flag="0"/>
      <psa30 value="0.0003896427" flag="0"/>
    </comp>
    <comp name="--.HHZ">
      <acc value="0.0190906638" flag="0"/>
      <vel value="0.0074563432" flag="0"/>
      <psa03 value="0.0392388082" flag="0"/>
      <psa10 value="0.0053805281" flag="0"/>
      <psa30 value="0.0002876896" flag="0"/>
    </comp>
  </station>
  <station code="AMT" name="AMT" netid="HP" source="NOA" insttype="CMG-3T," lat="37.5324" lon="21.7089">
    <comp name="00.HHE">
      <acc value="0.0320316128" flag="0"/>
      <vel value="0.0173699519" flag="0"/>
      <psa03 value="0.1407413628" flag="0"/>
      <psa10 value="0.0126123090" flag="0"/>
      <psa30 value="0.0007762504" flag="0"/>
    </comp>
    <comp name="00.HHN">
      <acc value="0.0250570287" flag="0"/>
      <vel value="0.0131023802" flag="0"/>
      <psa03 value="0.0887554555" flag="0"/>
      <psa10 value="0.0218057757" flag="0"/>
      <psa30 value="0.0008352545" flag="0"/>
    </comp>
    <comp name="00.HHZ">
      <acc value="0.0178649521" flag="0"/>
      <vel value="0.0071296875" flag="0"/>
      <psa03 value="0.0455823035" flag="0"/>
      <psa10 value="0.0088419248" flag="0"/>
      <psa30 value="0.0004864768" flag="0"/>
    </comp>
  </station>
  <station code="AXS" name="AXS" netid="HP" source="NOA" insttype="40," lat="38.1962" lon="21.3763">
    <comp name="--.HHE">
      <acc value="0.0043333252" flag="0"/>
      <vel value="0.0022329514" flag="0"/>
      <psa03 value="0.0110986393" flag="0"/>
      <psa10 value="0.0023277541" flag="0"/>
      <psa30 value="0.0002065201" flag="0"/>
    </comp>
    <comp name="--.HHE">
      <acc value="0.0043333252" flag="0"/>
      <vel value="0.0022329514" flag="0"/>
      <psa03 value="0.0110986393" flag="0"/>
      <psa10 value="0.0023277541" flag="0"/>
      <psa30 value="0.0002065201" flag="0"/>
    </comp>
    <comp name="--.HHN">
      <acc value="0.0056271694" flag="0"/>
      <vel value="0.0038739631" flag="0"/>
      <psa03 value="0.0189327582" flag="0"/>
      <psa10 value="0.0039425082" flag="0"/>
      <psa30 value="0.0001897180" flag="0"/>
    </comp>
    <comp name="--.HHN">
      <acc value="0.0056271694" flag="0"/>
      <vel value="0.0038739631" flag="0"/>
      <psa03 value="0.0189327582" flag="0"/>
      <psa10 value="0.0039425082" flag="0"/>
      <psa30 value="0.0001897180" flag="0"/>
    </comp>
    <comp name="--.HHZ">
      <acc value="0.0035642471" flag="0"/>
      <vel value="0.0019422220" flag="0"/>
      <psa03 value="0.0084867793" flag="0"/>
      <psa10 value="0.0017783749" flag="0"/>
      <psa30 value="0.0001417839" flag="0"/>
    </comp>
    <comp name="--.HHZ">
      <acc value="0.0035642471" flag="0"/>
      <vel value="0.0019422220" flag="0"/>
      <psa03 value="0.0084867793" flag="0"/>
      <psa10 value="0.0017783749" flag="0"/>
      <psa30 value="0.0001417839" flag="0"/>
    </comp>
  </station>
  <station code="DRO" name="DRO" netid="HP" source="NOA" insttype="120P," lat="37.952" lon="21.71">
    <comp name="--.HHE">
      <acc value="0.0235178580" flag="0"/>
      <vel value="0.0093819760" flag="0"/>
      <psa03 value="0.0698019569" flag="0"/>
