<?xml version="1.0" encoding="UTF-8" standalone="yes"?>
<!DOCTYPE earthquake SYSTEM "stationlist.dtd">
<stationlist created="" xmlns="ch.ethz.sed.shakemap.usgs.xml">
  <station code="AKS" name="AKS" netid="KO" insttype="CMG-5T" commtype="DIG" lat="38.8785" lon="27.8129">
    <comp name="--.HNN">
      <acc value="0.2908492976" flag="0"/>
      <vel value="0.0878279168" flag="0"/>
      <psa03 value="0.3312832383" flag="0"/>
      <psa10 value="0.0410648380" flag="0"/>
      <psa30 value="0.0024678744" flag="0"/>
    </comp>
    <comp name="--.HNE">
      <acc value="0.2290311896" flag="0"/>
      <vel value="0.0669246687" flag="0"/>
      <psa03 value="0.5910113390" flag="0"/>
      <psa10 value="0.0318724814" flag="0"/>
      <psa30 value="0.0026729739" flag="0"/>
    </comp>
    <comp name="--.HNZ">
      <acc value="0.1293646531" flag="0"/>
      <vel value="0.0296957463" flag="0"/>
      <psa03 value="0.1461309307" flag="0"/>
      <psa10 value="0.0194997185" flag="0"/>
      <psa30 value="0.0023507368" flag="0"/>
    </comp>
  </station>
  <station code="BALB" name="BALB" netid="KO" insttype="CMG-5T" commtype="DIG" lat="39.6507" lon="27.8642">
    <comp name="--.HNE">
      <acc value="0.0868543293" flag="0"/>
      <vel value="0.0359176527" flag="0"/>
      <psa03 value="0.2415265058" flag="0"/>
      <psa10 value="0.0531051079" flag="0"/>
      <psa30 value="0.0038684451" flag="0"/>
    </comp>
    <comp name="--.HNN">
      <acc value="0.1030666229" flag="0"/>
      <vel value="0.0493054839" flag="0"/>
      <psa03 value="0.3121582185" flag="0"/>
      <psa10 value="0.0509238328" flag="0"/>
      <psa30 value="0.0041650640" flag="0"/>
    </comp>
    <comp name="--.HNZ">
      <acc value="0.0482165345" flag="0"/>
      <vel value="0.0191624380" flag="0"/>
      <psa03 value="0.1704831043" flag="0"/>
      <psa10 value="0.0234245175" flag="0"/>
      <psa30 value="0.0017226367" flag="0"/>
    </comp>
  </station>
  <station code="GOMA" name="GOMA" netid="KO" insttype="CMG-5T" commtype="DIG" lat="38.7077" lon="27.9175">
    <comp name="--.HNZ">
      <acc value="0.1513383521" flag="0"/>
      <vel value="0.0462531704" flag="0"/>
      <psa03 value="0.2286801360" flag="0"/>
      <psa10 value="0.0177684444" flag="0"/>
      <psa30 value="0.0023443515" flag="0"/>
    </comp>
    <comp name="--.HNN">
      <acc value="0.2655819986" flag="0"/>
      <vel value="0.1317855244" flag="0"/>
      <psa03 value="0.9728621212" flag="0"/>
      <psa10 value="0.0419981059" flag="0"/>
      <psa30 value="0.0039781036" flag="0"/>
    </comp>
  </station>
  <station code="GONE" name="GONE" netid="KO" insttype="CMG-5T" commtype="DIG" lat="40.0466" lon="27.686">
    <comp name="--.HNZ">
      <acc value="0.0457089182" flag="0"/>
      <vel value="0.0161468299" flag="0"/>
      <psa03 value="0.0906804579" flag="0"/>
      <psa10 value="0.0089644790" flag="0"/>
      <psa30 value="0.0005764278" flag="0"/>
    </comp>
    <comp name="--.HNN">
      <acc value="0.1273057043" flag="0"/>
      <vel value="0.0487644448" flag="0"/>
      <psa03 value="0.3738113671" flag="0"/>
      <psa10 value="0.0224188931" flag="0"/>
      <psa30 value="0.0017689021" flag="0"/>
    </comp>
    <comp name="--.HNE">
      <acc value="0.0446245244" flag="0"/>
      <vel value="0.0189890364" flag="0"/>
      <psa03 value="0.1428768851" flag="0"/>
      <psa10 value="0.0145094640" flag="0"/>
      <psa30 value="0.0017337466" flag="0"/>
    </comp>
  </station>
  <station code="KCTX" name="KCTX" netid="KO" insttype="CMG-3ESP" commtype="DIG" lat="40.2626" lon="28.3353">
    <comp name="--.HHE">
      <acc value="0.0464402566" flag="0"/>
      <vel value="0.0421057768" flag="0"/>
      <psa03 value="0.0827074648" flag="0"/>
      <psa10 value="0.0600110367" flag="0"/>
      <psa30 value="0.0033709237" flag="0"/>
    </comp>
    <comp name="--.HHN">
      <acc value="0.0802733092" flag="0"/>
      <vel value="0.0259681397" flag="0"/>
      <psa03 value="0.2157192490" flag="0"/>
      <psa10 value="0.0261202827" flag="0"/>
      <psa30 value="0.0015785705" flag="0"/>
    </comp>
    <comp name="--.HHZ">
      <acc value="0.0476137535" flag="0"/>
      <vel value="0.0243091380" flag="0"/>
      <psa03 value="0.0694578547" flag="0"/>
      <psa10 value="0.0172851160" flag="0"/>
      <psa30 value="0.0010565669" flag="0"/>
    </comp>
  </station>
  <station code="ORLT" name="ORLT" netid="KO" insttype="CMG-5T" commtype="DIG" lat="40.0452" lon="28.8914">
    <comp name="--.HNN">
      <acc value="0.0908868567" flag="0"/>
      <vel value="0.0530379697" flag="0"/>
      <psa03 value="0.3061234189" flag="0"/>
      <psa10 value="0.0887697743" flag="0"/>
      <psa30 value="0.0032030589" flag="0"/>
    </comp>
    <comp name="--.HNZ">
      <acc value="0.0511550183" flag="0"/>
      <vel value="0.0332299325" flag="0"/>
      <psa03 value="0.0874456981" flag="0"/>
      <psa10 value="0.0711446286" flag="0"/>
      <psa30 value="0.0028756711" flag="0"/>
    </comp>
    <comp name="--.HNE">
      <acc value="0.0944040570" flag="0"/>
      <vel value="0.0570221136" flag="0"/>
      <psa03 value="0.3215772503" flag="0"/>
      <psa10 value="0.0714210522" flag="0"/>
      <psa30 value="0.0034643342" flag="0"/>
    </comp>
  </station>
  <station code="SHAP" name="SHAP" netid="KO" insttype="CMG-5T" commtype="DIG" lat="39.0231" lon="29.222">
    <comp name="--.HNN">
      <acc value="0.2233572986" flag="0"/>
      <vel value="0.0783437104" flag="0"/>
      <psa03 value="0.4830353039" flag="0"/>
      <psa10 value="0.0573968330" flag="0"/>
      <psa30 value="0.0027545913" flag="0"/>
    </comp>
    <comp name="--.HNE">
      <acc value="0.2713630632" flag="0"/>
      <vel value="0.0757934035" flag="0"/>
      <psa03 value="0.6034980416" flag="0"/>
      <psa10 value="0.0173568543" flag="0"/>
      <psa30 value="0.0016807351" flag="0"/>
    </comp>
    <comp name="--.HNZ">
      <acc value="0.1256920265" flag="0"/>
      <vel value="0.0260404886" flag="0"/>
      <psa03 value="0.1357060004" flag="0"/>
      <psa10 value="0.0177189412" flag="0"/>
      <psa30 value="0.0014115238" flag="0"/>
    </comp>
  </station>
  <station code="SIMA" name="SIMA" netid="KO" insttype="CMG-6T" commtype="DIG" lat="39.0833" lon="28.9825">
    <comp name="--.HHE">
      <acc value="0.2507496132" flag="0"/>
      <vel value="0.0885866052" flag="0"/>
      <psa03 value="0.4943348645" flag="0"/>
      <psa10 value="0.0182328343" flag="0"/>
      <psa30 value="0.0017708826" flag="0"/>
    </comp>
    <comp name="--.HHN">
      <acc value="0.2584543400" flag="0"/>
      <vel value="0.1042679045" flag="0"/>
      <psa03 value="0.5929252571" flag="0"/>
      <psa10 value="0.0264062624" flag="0"/>
      <psa30 value="0.0049155531" flag="0"/>
    </comp>
    <comp name="--.HHZ">
      <acc value="0.1145663452" flag="0"/>
      <vel value="0.0373524832" flag="0"/>
      <psa03 value="0.1598068463" flag="0"/>
      <psa10 value="0.0127020613" flag="0"/>
      <psa30 value="0.0015485058" flag="0"/>
    </comp>
  </station>
  <station code="SMAA" name="SMAA" netid="KO" insttype="CMG-5T" commtype="DIG" lat="39.1005" lon="28.9805">
    <comp name="--.HNN">
      <acc value="0.1866274954" flag="0"/>
      <vel value="0.0827976773" flag="0"/>
      <psa03 value="0.4161068583" flag="0"/>
      <psa10 value="0.1183259090" flag="0"/>
      <psa30 value="0.0104654573" flag="0"/>
    </comp>
    <comp name="--.HNZ">
      <acc value="0.0868339401" flag="0"/>
      <vel value="0.0369172328" flag="0"/>
      <psa03 value="0.1299233678" flag="0"/>
      <psa10 value="0.0673768205" flag="0"/>
      <psa30 value="0.0034830699" flag="0"/>
    </comp>
    <comp name="--.HNE">
      <acc value="0.2505759777" flag="0"/>
      <vel value="0.1170790028" flag="0"/>
      <psa03 value="0.5137887964" flag="0"/>
      <psa10 value="0.1351428302" flag="0"/>
      <psa30 value="0.0124428734" flag="0"/>
    </comp>
  </station>
  <station code="SOMA" name="SOMA" netid="KO" insttype="CMG-5T" commtype="DIG" lat="39.1564" lon="27.5341">
    <comp name="--.HNN">
      <acc value="0.1616109084" flag="0"/>
      <vel value="0.0521774318" flag="0"/>
      <psa03 value="0.2975854867" flag="0"/>
      <psa10 value="0.0581693114" flag="0"/>
      <psa30 value="0.0033225298" flag="0"/>
    </comp>
    <comp name="--.HNE">
      <acc value="0.2227169314" flag="0"/>
      <vel value="0.0634285768" flag="0"/>
      <psa03 value="0.2988750743" flag="0"/>
      <psa10 value="0.0380177157" flag="0"/>
      <psa30 value="0.0020980060" flag="0"/>
    </comp>
    <comp name="--.HNZ">
      <acc value="0.1058940514" flag="0"/>
      <vel value="0.0328952017" flag="0"/>
      <psa03 value="0.1605241704" flag="0"/>
      <psa10 value="0.0385787639" flag="0"/>
      <psa30 value="0.0023806934" flag="0"/>
    </comp>
  </station>
  <station code="SUSR" name="SUSR" netid="KO" insttype="CMG-5T" commtype="DIG" lat="39.9627" lon="28.0835">
    <comp name="--.HNZ">
      <acc value="0.0456830630" flag="0"/>
      <vel value="0.0132633734" flag="0"/>
      <psa03 value="0.1137737784" flag="0"/>
      <psa10 value="0.0107653879" flag="0"/>
      <psa30 value="0.0007411278" flag="0"/>
    </comp>
    <comp name="--.HNE">
      <acc value="0.0502714992" flag="0"/>
      <vel value="0.0209889396" flag="0"/>
      <psa03 value="0.1072548226" flag="0"/>
      <psa10 value="0.0168089280" flag="0"/>
      <psa30 value="0.0011901918" flag="0"/>
    </comp>
    <comp name="--.HNN">
      <acc value="0.0851536887" flag="0"/>
      <vel value="0.0313377649" flag="0"/>
      <psa03 value="0.1595857708" flag="0"/>
      <psa10 value="0.0120576820" flag="0"/>
      <psa30 value="0.0010727831" flag="0"/>
    </comp>
  </station>
  <station code="TVSB" name="TVSB" netid="KO" insttype="CMG-3T" commtype="DIG" lat="39.4497" lon="29.4615">
    <comp name="--.HHE">
      <acc value="0.1023573893" flag="0"/>
      <vel value="0.0614189889" flag="0"/>
      <psa03 value="0.2863978014" flag="0"/>
      <psa10 value="0.0334997483" flag="0"/>
      <psa30 value="0.0021376224" flag="0"/>
    </comp>
    <comp name="--.HHN">
      <acc value="0.0458281638" flag="0"/>
      <vel value="0.0275233568" flag="0"/>
      <psa03 value="0.1335476212" flag="0"/>
      <psa10 value="0.0366124932" flag="0"/>
      <psa30 value="0.0015706008" flag="0"/>
    </comp>
    <comp name="--.HHZ">
      <acc value="0.0466229497" flag="0"/>
      <vel value="0.0138776177" flag="0"/>
      <psa03 value="0.0612834983" flag="0"/>
      <psa10 value="0.0201875133" flag="0"/>
      <psa30 value="0.0010936016" flag="0"/>
    </comp>
  </station>
  <station code="YAYO" name="YAYO" netid="KO" insttype="CMG-6T" commtype="DIG" lat="39.6113" lon="27.0726">
    <comp name="--.HHE">
      <acc value="0.0476106759" flag="0"/>
      <vel value="0.0237316256" flag="0"/>
      <psa03 value="0.1166790554" flag="0"/>
      <psa10 value="0.0155811992" flag="0"/>
      <psa30 value="0.0012144630" flag="0"/>
    </comp>
    <comp name="--.HHN">
      <acc value="0.0640552095" flag="0"/>
      <vel value="0.0361306798" flag="0"/>
      <psa03 value="0.1423219563" flag="0"/>
      <psa10 value="0.0166948150" flag="0"/>
      <psa30 value="0.0017603603" flag="0"/>
    </comp>
    <comp name="--.HHZ">
      <acc value="0.0289632309" flag="0"/>
      <vel value="0.0109231282" flag="0"/>
      <psa03 value="0.0541605848" flag="0"/>
      <psa10 value="0.0070673681" flag="0"/>
      <psa30 value="0.0005269632" flag="0"/>
    </comp>
  </station>
  <station code="YENI" name="YENI" netid="KO" insttype="CMG-5T" commtype="DIG" lat="39.9364" lon="27.2422">
    <comp name="--.HNZ">
      <acc value="0.0393770147" flag="0"/>
      <vel value="0.0135860678" flag="0"/>
      <psa03 value="0.0832607813" flag="0"/>
      <psa10 value="0.0113719171" flag="0"/>
      <psa30 value="0.0007309101" flag="0"/>
    </comp>
    <comp name="--.HNN">
      <acc value="0.0754026192" flag="0"/>
      <vel value="0.0300926690" flag="0"/>
      <psa03 value="0.1337293270" flag="0"/>
      <psa10 value="0.0226629654" flag="0"/>
      <psa30 value="0.0011458045" flag="0"/>
    </comp>
    <comp name="--.HNE">
      <acc value="0.0675908864" flag="0"/>
      <vel value="0.0381280266" flag="0"/>
      <psa03 value="0.1849934954" flag="0"/>
      <psa10 value="0.0387169141" flag="0"/>
      <psa30 value="0.0019961500" flag="0"/>
    </comp>
  </station>
</stationlist>
