<?xml version="1.0" encoding="UTF-8" standalone="yes"?>
<!DOCTYPE earthquake SYSTEM "stationlist.dtd">
<stationlist created="" xmlns="ch.ethz.sed.shakemap.usgs.xml">
  <station code="CEYT" name="CEYT" netid="KO" insttype="CMG-3ESP" lat="37.0105" lon="35.7478">
    <comp name="--.HHZ">
      <acc value="0.0725818680" flag="0"/>
      <vel value="0.1012780191" flag="0"/>
      <psa03 value="0.1916277152" flag="0"/>
      <psa10 value="0.1244996686" flag="0"/>
      <psa30 value="0.0311889456" flag="0"/>
    </comp>
  </station>
  <station code="DARE" name="DARE" netid="KO" insttype="CMG-3ESP" lat="38.5712" lon="37.4832">
    <comp name="--.HHZ">
      <acc value="0.0552719480" flag="0"/>
      <vel value="0.0740772150" flag="0"/>
      <psa03 value="0.1165654714" flag="0"/>
      <psa10 value="0.0598597313" flag="0"/>
      <psa30 value="0.0205818610" flag="0"/>
    </comp>
    <comp name="--.HHN">
      <acc value="0.0397003959" flag="0"/>
      <vel value="0.0521051452" flag="0"/>
      <psa03 value="0.1099013236" flag="0"/>
      <psa10 value="0.0836021035" flag="0"/>
      <psa30 value="0.0129354969" flag="0"/>
    </comp>
  </station>
  <station code="GAZ" name="GAZ" netid="KO" insttype="CMG-3T" lat="37.1721" lon="37.2096">
    <comp name="--.HHZ">
      <acc value="0.9730025518" flag="0"/>
      <vel value="0.7214858182" flag="0"/>
      <psa03 value="1.6838976313" flag="0"/>
      <psa10 value="0.5529685559" flag="0"/>
      <psa30 value="0.1287740260" flag="0"/>
    </comp>
  </station>
  <station code="KHMN" name="KHMN" netid="KO" insttype="CMG-5T" lat="37.3916" lon="37.1574">
    <comp name="--.HNN">
      <acc value="4.5975304109" flag="0"/>
      <vel value="1.6651624855" flag="0"/>
      <psa03 value="6.4268300787" flag="0"/>
      <psa10 value="1.3555433571" flag="0"/>
      <psa30 value="0.1617636374" flag="0"/>
    </comp>
    <comp name="--.HNE">
      <acc value="4.8602164769" flag="0"/>
      <vel value="1.8533906711" flag="0"/>
      <psa03 value="8.0273446271" flag="0"/>
      <psa10 value="1.1162824723" flag="0"/>
      <psa30 value="0.2602407519" flag="0"/>
    </comp>
    <comp name="--.HNZ">
      <acc value="2.2640427029" flag="0"/>
      <vel value="1.0563841757" flag="0"/>
      <psa03 value="3.8079413534" flag="0"/>
      <psa10 value="1.0018904015" flag="0"/>
      <psa30 value="0.1698036592" flag="0"/>
    </comp>
  </station>
  <station code="URFA" name="URFA" netid="KO" insttype="CMG-3ESP" lat="37.4409" lon="38.8213">
    <comp name="--.HHN">
      <acc value="0.1216042513" flag="0"/>
      <vel value="0.0925070198" flag="0"/>
      <psa03 value="0.2731792630" flag="0"/>
      <psa10 value="0.1193845460" flag="0"/>
      <psa30 value="0.0189828330" flag="0"/>
    </comp>
    <comp name="--.HHE">
      <acc value="0.1597203243" flag="0"/>
      <vel value="0.0849944051" flag="0"/>
      <psa03 value="0.2515881589" flag="0"/>
      <psa10 value="0.0692241998" flag="0"/>
      <psa30 value="0.0157718970" flag="0"/>
    </comp>
    <comp name="--.HHZ">
      <acc value="0.0702207915" flag="0"/>
      <vel value="0.0585103076" flag="0"/>
      <psa03 value="0.1720791943" flag="0"/>
      <psa10 value="0.0565478736" flag="0"/>
      <psa30 value="0.0176403141" flag="0"/>
    </comp>
  </station>
  <station code="ANDN" name="ANDN" netid="TU" insttype="T" lat="37.58" lon="36.3452">
    <comp name="--.HHZ">
      <acc value="0.2656430595" flag="0"/>
      <vel value="0.2505005077" flag="0"/>
      <psa03 value="0.8628768614" flag="0"/>
      <psa10 value="0.3063300388" flag="0"/>
      <psa30 value="0.0727324743" flag="0"/>
    </comp>
    <comp name="--.HHE">
      <acc value="0.9359448879" flag="0"/>
      <vel value="0.5877236635" flag="0"/>
      <psa03 value="1.5342141277" flag="0"/>
      <psa10 value="0.3850762957" flag="0"/>
      <psa30 value="0.0765401829" flag="0"/>
    </comp>
    <comp name="--.HHN">
      <acc value="0.8241505819" flag="0"/>
      <vel value="0.3994465856" flag="0"/>
      <psa03 value="2.1979296519" flag="0"/>
      <psa10 value="0.4973662142" flag="0"/>
      <psa30 value="0.0633440638" flag="0"/>
    </comp>
  </station>
</stationlist>
