<?xml version="1.0" encoding="UTF-8" standalone="yes"?>
<!DOCTYPE earthquake SYSTEM "stationlist.dtd">
<stationlist created="" xmlns="ch.ethz.sed.shakemap.usgs.xml">
  <station code="CEYT" name="CEYT" netid="KO" insttype="CMG-3ESP" lat="37.0105" lon="35.7478">
    <comp name="--.HHZ">
      <acc value="0.0725818681" flag="0"/>
      <vel value="0.1012780240" flag="0"/>
      <psa03 value="0.1916277152" flag="0"/>
      <psa10 value="0.1244996687" flag="0"/>
      <psa30 value="0.0311891287" flag="0"/>
    </comp>
  </station>
  <station code="DARE" name="DARE" netid="KO" insttype="CMG-3ESP" lat="38.5712" lon="37.4832">
    <comp name="--.HHZ">
      <acc value="0.0552719481" flag="0"/>
      <vel value="0.0740771793" flag="0"/>
      <psa03 value="0.1165654714" flag="0"/>
      <psa10 value="0.0598597314" flag="0"/>
      <psa30 value="0.0205818984" flag="0"/>
    </comp>
    <comp name="--.HHN">
      <acc value="0.0397003959" flag="0"/>
      <vel value="0.0521051440" flag="0"/>
      <psa03 value="0.1099013236" flag="0"/>
      <psa10 value="0.0836021035" flag="0"/>
      <psa30 value="0.0129354775" flag="0"/>
    </comp>
  </station>
  <station code="GAZ" name="GAZ" netid="KO" insttype="CMG-3T" lat="37.1721" lon="37.2096">
    <comp name="--.HHZ">
      <acc value="0.9730025523" flag="0"/>
      <vel value="0.7214858232" flag="0"/>
      <psa03 value="1.6838976313" flag="0"/>
      <psa10 value="0.5529685554" flag="0"/>
      <psa30 value="0.1287742323" flag="0"/>
    </comp>
  </station>
  <station code="KHMN" name="KHMN" netid="KO" insttype="CMG-5T" lat="37.3916" lon="37.1574">
    <comp name="--.HNZ">
      <acc value="2.2640428389" flag="0"/>
      <vel value="1.0563841481" flag="0"/>
      <psa03 value="3.8079413535" flag="0"/>
      <psa10 value="1.0018904962" flag="0"/>
      <psa30 value="0.1698048171" flag="0"/>
    </comp>
    <comp name="--.HNN">
      <acc value="4.5975304111" flag="0"/>
      <vel value="1.6651624956" flag="0"/>
      <psa03 value="6.4268300787" flag="0"/>
      <psa10 value="1.3555434215" flag="0"/>
      <psa30 value="0.1617728236" flag="0"/>
    </comp>
    <comp name="--.HNE">
      <acc value="4.8602164531" flag="0"/>
      <vel value="1.8533906651" flag="0"/>
      <psa03 value="8.0273446270" flag="0"/>
      <psa10 value="1.1162823616" flag="0"/>
      <psa30 value="0.2602376564" flag="0"/>
    </comp>
  </station>
  <station code="URFA" name="URFA" netid="KO" insttype="CMG-3ESP" lat="37.4409" lon="38.8213">
    <comp name="--.HHE">
      <acc value="0.1597203243" flag="0"/>
      <vel value="0.0849944385" flag="0"/>
      <psa03 value="0.2515881589" flag="0"/>
      <psa10 value="0.0692241997" flag="0"/>
      <psa30 value="0.0157718950" flag="0"/>
    </comp>
    <comp name="--.HHN">
      <acc value="0.1216042512" flag="0"/>
      <vel value="0.0925068770" flag="0"/>
      <psa03 value="0.2731792632" flag="0"/>
      <psa10 value="0.1193845463" flag="0"/>
      <psa30 value="0.0189834388" flag="0"/>
    </comp>
    <comp name="--.HHZ">
      <acc value="0.0702207915" flag="0"/>
      <vel value="0.0585102681" flag="0"/>
      <psa03 value="0.1720791944" flag="0"/>
      <psa10 value="0.0565478737" flag="0"/>
      <psa30 value="0.0176404304" flag="0"/>
    </comp>
  </station>
  <station code="ANDN" name="ANDN" netid="TU" insttype="T" lat="37.58" lon="36.3452">
    <comp name="--.HHN">
      <acc value="0.8241505817" flag="0"/>
      <vel value="0.3994466155" flag="0"/>
      <psa03 value="2.1979296519" flag="0"/>
      <psa10 value="0.4973662154" flag="0"/>
      <psa30 value="0.0633434955" flag="0"/>
    </comp>
    <comp name="--.HHZ">
      <acc value="0.2656430594" flag="0"/>
      <vel value="0.2505005141" flag="0"/>
      <psa03 value="0.8628768614" flag="0"/>
      <psa10 value="0.3063300373" flag="0"/>
      <psa30 value="0.0727322069" flag="0"/>
    </comp>
    <comp name="--.HHE">
      <acc value="0.9359448876" flag="0"/>
      <vel value="0.5877236794" flag="0"/>
      <psa03 value="1.5342141276" flag="0"/>
      <psa10 value="0.3850762934" flag="0"/>
      <psa30 value="0.0765399016" flag="0"/>
    </comp>
  </station>
</stationlist>
