<?xml version="1.0" encoding="UTF-8" standalone="yes"?>
<!DOCTYPE earthquake SYSTEM "stationlist.dtd">
<stationlist created="" xmlns="ch.ethz.sed.shakemap.usgs.xml">
  <station code="ASB" name="ASB" netid="VI" insttype="STS-2.5" lat="64.7482" lon="-21.3254">
    <comp name="--.HHN">
      <acc value="0.1694580653" flag="0"/>
      <vel value="0.1323159540" flag="0"/>
      <psa03 value="0.3560289710" flag="0"/>
      <psa10 value="0.1618676183" flag="0"/>
      <psa30 value="0.0972953734" flag="0"/>
    </comp>
    <comp name="--.HHE">
      <acc value="0.1871564836" flag="0"/>
      <vel value="0.1908672836" flag="0"/>
      <psa03 value="0.3254491329" flag="0"/>
      <psa10 value="0.2613164752" flag="0"/>
      <psa30 value="0.1306695414" flag="0"/>
    </comp>
    <comp name="--.HHZ">
      <acc value="0.0788848790" flag="0"/>
      <vel value="0.0864538514" flag="0"/>
      <psa03 value="0.2050724763" flag="0"/>
      <psa10 value="0.1423652362" flag="0"/>
      <psa30 value="0.0553144425" flag="0"/>
    </comp>
  </station>
  <station code="GOD" name="GOD" netid="VI" insttype="CMG-3ESP" lat="63.6598" lon="-19.3224">
    <comp name="--.HHZ">
      <acc value="0.0883657483" flag="0"/>
      <vel value="0.1006670507" flag="0"/>
      <psa03 value="0.2485835245" flag="0"/>
      <psa10 value="0.1810606079" flag="0"/>
      <psa30 value="0.0429286706" flag="0"/>
    </comp>
    <comp name="--.HHE">
      <acc value="0.0986455494" flag="0"/>
      <vel value="0.1178525548" flag="0"/>
      <psa03 value="0.2522891727" flag="0"/>
      <psa10 value="0.2026389727" flag="0"/>
      <psa30 value="0.0589500636" flag="0"/>
    </comp>
    <comp name="--.HHN">
      <acc value="5882.6055931216" flag="0"/>
      <vel value="305.0318963949" flag="0"/>
      <psa03 value="993.9906289959" flag="0"/>
      <psa10 value="70.1051103347" flag="0"/>
      <psa30 value="15.9568493040" flag="0"/>
    </comp>
  </station>
</stationlist>
