<?xml version="1.0" encoding="UTF-8" standalone="yes"?>
<!DOCTYPE earthquake SYSTEM "stationlist.dtd">
<stationlist created="" xmlns="ch.ethz.sed.shakemap.usgs.xml">
  <station code="ASB" name="ASB" netid="VI" insttype="STS-2.5" lat="64.7482" lon="-21.3254">
    <comp name="--.HHZ">
      <acc value="0.0788848790" flag="0"/>
      <vel value="0.0864538514" flag="0"/>
      <psa03 value="0.2050724763" flag="0"/>
      <psa10 value="0.1423652362" flag="0"/>
      <psa30 value="0.0553144415" flag="0"/>
    </comp>
    <comp name="--.HHN">
      <acc value="0.1694580653" flag="0"/>
      <vel value="0.1323159562" flag="0"/>
      <psa03 value="0.3560289710" flag="0"/>
      <psa10 value="0.1618676183" flag="0"/>
      <psa30 value="0.0972953746" flag="0"/>
    </comp>
    <comp name="--.HHE">
      <acc value="0.1871564836" flag="0"/>
      <vel value="0.1908672873" flag="0"/>
      <psa03 value="0.3254491329" flag="0"/>
      <psa10 value="0.2613164752" flag="0"/>
      <psa30 value="0.1306695398" flag="0"/>
    </comp>
  </station>
  <station code="GOD" name="GOD" netid="VI" insttype="CMG-3ESP" lat="63.6598" lon="-19.3224">
    <comp name="--.HHE">
      <acc value="0.0986455493" flag="0"/>
      <vel value="0.1178525542" flag="0"/>
      <psa03 value="0.2522891727" flag="0"/>
      <psa10 value="0.2026389727" flag="0"/>
      <psa30 value="0.0589500643" flag="0"/>
    </comp>
    <comp name="--.HHZ">
      <acc value="0.0883657484" flag="0"/>
      <vel value="0.1006669426" flag="0"/>
      <psa03 value="0.2485835246" flag="0"/>
      <psa10 value="0.1810606080" flag="0"/>
      <psa30 value="0.0429286713" flag="0"/>
    </comp>
    <comp name="--.HHN">
      <acc value="5882.6055808069" flag="0"/>
      <vel value="305.0399213475" flag="0"/>
      <psa03 value="993.9906413105" flag="0"/>
      <psa10 value="70.1050980201" flag="0"/>
      <psa30 value="15.9568370521" flag="0"/>
    </comp>
  </station>
</stationlist>
