<stationlist xmlns:esm="https://esm-db.eu/esmws/shakemap/1/" created="1781661295">
	<station code="ARG2" name="ARG2" netid="HI" source="ITSAK Strong Motion Network" insttype="" lat="38.1783" lon="20.4878" esm:processing="manual (Paolucci et al 2011)" esm:quality="best">
		<comp name="--.HNE" depth="0.0">
			<acc value="0.140625348066393" flag="0"/>
			<vel value="0.0312909634941814" flag="0"/>
			<psa03 value="0.170557291628852" flag="0"/>
			<psa10 value="0.0220507491097491" flag="0"/>
			<psa30 value="0.000980749169072517" flag="0"/>
		</comp>
		<comp name="--.HNN" depth="0.0">
			<acc value="0.0766500193150929" flag="0"/>
			<vel value="0.0220612507975328" flag="0"/>
			<psa03 value="0.0987460500065258" flag="0"/>
			<psa10 value="0.0133448105459657" flag="0"/>
			<psa30 value="0.00109170984148583" flag="0"/>
		</comp>
		<comp name="--.HNZ" depth="0.0">
			<acc value="0.0860513807276728" flag="0"/>
			<vel value="0.0145090765855192" flag="0"/>
			<psa03 value="0.0909609060549465" flag="0"/>
			<psa10 value="0.0104696763486756" flag="0"/>
			<psa30 value="0.000711401085230521" flag="0"/>
		</comp>
	</station>
	<station code="KLV1" name="KLV1" netid="HI" source="ITSAK Strong Motion Network" insttype="" lat="38.03256" lon="22.10797" esm:processing="manual (Paolucci et al 2011)" esm:quality="best">
		<comp name="--.HNE" depth="0.0">
			<acc value="0.00813072812180632" flag="0"/>
			<vel value="0.00783449567346977" flag="0"/>
			<psa03 value="0.0184785313333462" flag="0"/>
			<psa10 value="0.0173675823430145" flag="0"/>
			<psa30 value="0.00107649749123562" flag="0"/>
		</comp>
		<comp name="--.HNN" depth="0.0">
			<acc value="0.00650832729445955" flag="0"/>
			<vel value="0.00571956980159933" flag="0"/>
			<psa03 value="0.018925953399529" flag="0"/>
			<psa10 value="0.00747776499211176" flag="0"/>
			<psa30 value="0.000788357680613948" flag="0"/>
		</comp>
		<comp name="--.HNZ" depth="0.0">
			<acc value="0.00447850719188198" flag="0"/>
			<vel value="0.00466822752932124" flag="0"/>
			<psa03 value="0.00782988615819756" flag="0"/>
			<psa10 value="0.00907640403458261" flag="0"/>
			<psa30 value="0.000611178542405592" flag="0"/>
		</comp>
	</station>
	<station code="MSL1" name="MSL1" netid="HI" source="ITSAK Strong Motion Network" insttype="" lat="38.3727" lon="21.4243" esm:processing="manual (Paolucci et al 2011)" esm:quality="best">
		<comp name="--.HNE" depth="0.0">
			<acc value="0.01709694901291" flag="0"/>
			<vel value="0.0163408867536125" flag="0"/>
			<psa03 value="0.0423708696675034" flag="0"/>
			<psa10 value="0.0334022943508708" flag="0"/>
			<psa30 value="0.00211272699651479" flag="0"/>
		</comp>
		<comp name="--.HNN" depth="0.0">
			<acc value="0.0212157191022294" flag="0"/>
			<vel value="0.0165605885256756" flag="0"/>
			<psa03 value="0.0547197186941464" flag="0"/>
			<psa10 value="0.0351901929273369" flag="0"/>
			<psa30 value="0.00163040600916982" flag="0"/>
		</comp>
		<comp name="--.HNZ" depth="0.0">
			<acc value="0.00898886336056777" flag="0"/>
			<vel value="0.00758501956767579" flag="0"/>
			<psa03 value="0.0177179138208356" flag="0"/>
			<psa10 value="0.0164414186660163" flag="0"/>
			<psa30 value="0.000914530703277474" flag="0"/>
		</comp>
	</station>
	<station code="PYL1" name="PYL1" netid="HI" source="ITSAK Strong Motion Network" insttype="" lat="36.914188" lon="21.695161" esm:processing="manual (Paolucci et al 2011)" esm:quality="best">
		<comp name="--.HNE" depth="0.0">
			<acc value="0.0268092858815776" flag="0"/>
			<vel value="0.0111679687900474" flag="0"/>
			<psa03 value="0.0785673148216852" flag="0"/>
			<psa10 value="0.00848849143961852" flag="0"/>
			<psa30 value="0.000568226024052051" flag="0"/>
		</comp>
		<comp name="--.HNN" depth="0.0">
			<acc value="0.0276408256060483" flag="0"/>
			<vel value="0.0129316192976499" flag="0"/>
			<psa03 value="0.0505586934786471" flag="0"/>
			<psa10 value="0.00689790599433896" flag="0"/>
			<psa30 value="0.0008957389764978" flag="0"/>
		</comp>
		<comp name="--.HNZ" depth="0.0">
			<acc value="0.0142285998723268" flag="0"/>
			<vel value="0.00407247708613687" flag="0"/>
			<psa03 value="0.0191944066392386" flag="0"/>
			<psa10 value="0.00324157286949379" flag="0"/>
			<psa30 value="0.000428630339403043" flag="0"/>
		</comp>
	</station>
	<station code="VAS2" name="VAS2" netid="HI" source="ITSAK Strong Motion Network" insttype="" lat="38.630558" lon="20.608081" esm:processing="manual (Paolucci et al 2011)" esm:quality="good">
		<comp name="--.HNE" depth="0.0">
			<acc value="0.034759686589698" flag="0"/>
			<vel value="0.0331257907428766" flag="0"/>
			<psa03 value="0.0678739274399183" flag="0"/>
			<psa10 value="0.0599670846863373" flag="0"/>
			<psa30 value="0.00293195679969535" flag="0"/>
		</comp>
		<comp name="--.HNN" depth="0.0">
			<acc value="0.0306657730170385" flag="0"/>
			<vel value="0.0249529035966851" flag="0"/>
			<psa03 value="0.0849207081614798" flag="0"/>
			<psa10 value="0.0438800242967377" flag="0"/>
			<psa30 value="0.00259012634113175" flag="0"/>
		</comp>
		<comp name="--.HNZ" depth="0.0">
			<acc value="0.0176190596416854" flag="0"/>
			<vel value="0.0122368018886762" flag="0"/>
			<psa03 value="0.0689029981921385" flag="0"/>
			<psa10 value="0.015108548330858" flag="0"/>
			<psa30 value="0.00105949545272067" flag="0"/>
		</comp>
	</station>
	<station code="PATC" name="PATC" netid="HL" source="National Observatory of Athens Seismic Network" insttype="" lat="38.26933" lon="21.76001" esm:processing="manual (Paolucci et al 2011)" esm:quality="best">
		<comp name="00.HNE" depth="0.0">
			<acc value="0.0150444613817609" flag="0"/>
			<vel value="0.0155899634583707" flag="0"/>
			<psa03 value="0.0417444787748475" flag="0"/>
			<psa10 value="0.0271406225346436" flag="0"/>
			<psa30 value="0.00252838209599854" flag="0"/>
		</comp>
		<comp name="00.HNN" depth="0.0">
			<acc value="0.0149995065095312" flag="0"/>
			<vel value="0.0161181156410498" flag="0"/>
			<psa03 value="0.0299325362276238" flag="0"/>
			<psa10 value="0.0250466872649085" flag="0"/>
			<psa30 value="0.00233017412067959" flag="0"/>
		</comp>
		<comp name="00.HNZ" depth="0.0">
			<acc value="0.0080457030722481" flag="0"/>
			<vel value="0.00753630367494092" flag="0"/>
			<psa03 value="0.0188364689862924" flag="0"/>
			<psa10 value="0.0126441475903236" flag="0"/>
			<psa30 value="0.000891712177902156" flag="0"/>
		</comp>
	</station>
	<station code="PATG" name="PATG" netid="HL" source="National Observatory of Athens Seismic Network" insttype="" lat="38.23865" lon="21.72657" esm:processing="manual (Paolucci et al 2011)" esm:quality="best">
		<comp name="00.HNE" depth="0.0">
			<acc value="0.017861175778388" flag="0"/>
			<vel value="0.0174045482859859" flag="0"/>
			<psa03 value="0.0426840651138313" flag="0"/>
			<psa10 value="0.041588775895816" flag="0"/>
			<psa30 value="0.00283576105546606" flag="0"/>
		</comp>
		<comp name="00.HNN" depth="0.0">
			<acc value="0.0167758262828504" flag="0"/>
			<vel value="0.0227786696796203" flag="0"/>
			<psa03 value="0.0425050962873582" flag="0"/>
			<psa10 value="0.025686948241616" flag="0"/>
			<psa30 value="0.0035596899585497" flag="0"/>
		</comp>
		<comp name="00.HNZ" depth="0.0">
			<acc value="0.00908605917505512" flag="0"/>
			<vel value="0.00931059327161378" flag="0"/>
			<psa03 value="0.0192838910524751" flag="0"/>
			<psa10 value="0.0131313902203966" flag="0"/>
			<psa30 value="0.00301472988193915" flag="0"/>
		</comp>
	</station>
	<station code="ANX" name="ANX" netid="HP" source="University of Patras, Seismological Laboratory (PSLNET)" insttype="" lat="38.5933" lon="21.9209" esm:processing="automatic (Paolucci et al 2011)" esm:quality="best">
		<comp name="--.HNE" depth="0.0">
			<acc value="0.00654153646111379" flag="0"/>
			<vel value="0.00671495948875519" flag="0"/>
			<psa03 value="0.0139148262582825" flag="0"/>
			<psa10 value="0.00773145330363736" flag="0"/>
			<psa30 value="0.000616547607199785" flag="0"/>
		</comp>
		<comp name="--.HNN" depth="0.0">
			<acc value="0.00697309029123502" flag="0"/>
			<vel value="0.00718552291087645" flag="0"/>
			<psa03 value="0.0196418287054213" flag="0"/>
			<psa10 value="0.0140052055156514" flag="0"/>
			<psa30 value="0.000738246409201484" flag="0"/>
		</comp>
		<comp name="--.HNZ" depth="0.0">
			<acc value="0.00355877514964943" flag="0"/>
			<vel value="0.00286710183076107" flag="0"/>
			<psa03 value="0.00809833939790719" flag="0"/>
			<psa10 value="0.00358787754871921" flag="0"/>
			<psa30 value="0.000508271467183567" flag="0"/>
		</comp>
	</station>
	<station code="PVO" name="PVO" netid="HP" source="University of Patras, Seismological Laboratory (PSLNET)" insttype="" lat="38.616" lon="21.525" esm:processing="manual (Paolucci et al 2011)" esm:quality="best">
		<comp name="--.HNE" depth="0.0">
			<acc value="0.00526470701973921" flag="0"/>
			<vel value="0.00222768912973986" flag="0"/>
			<psa03 value="0.01449647494432" flag="0"/>
			<psa10 value="0.00333821603578926" flag="0"/>
			<psa30 value="0.000343620146828327" flag="0"/>
		</comp>
		<comp name="--.HNN" depth="0.0">
			<acc value="0.00425296132851645" flag="0"/>
			<vel value="0.00235808510134561" flag="0"/>
			<psa03 value="0.00921689456336398" flag="0"/>
			<psa10 value="0.00359995794450615" flag="0"/>
			<psa30 value="0.000221026500694262" flag="0"/>
		</comp>
		<comp name="--.HNZ" depth="0.0">
			<acc value="0.00292821553208426" flag="0"/>
			<vel value="0.00122236546478657" flag="0"/>
			<psa03 value="0.00478741610815508" flag="0"/>
			<psa10 value="0.00159058544527956" flag="0"/>
			<psa30 value="0.000264426441113986" flag="0"/>
		</comp>
	</station>
	<station code="PYL" name="PYL" netid="HP" source="University of Patras, Seismological Laboratory (PSLNET)" insttype="" lat="36.8955" lon="21.742" esm:processing="manual (Paolucci et al 2011)" esm:quality="best">
		<comp name="--.HNE" depth="0.0">
			<acc value="0.0532556059003738" flag="0"/>
			<vel value="0.0231802744078095" flag="0"/>
			<psa03 value="0.131810540697429" flag="0"/>
			<psa10 value="0.0134253465178786" flag="0"/>
			<psa30 value="0.000798200966069968" flag="0"/>
		</comp>
		<comp name="--.HNN" depth="0.0">
			<acc value="0.0562867832872656" flag="0"/>
			<vel value="0.0238746590018382" flag="0"/>
			<psa03 value="0.0839363796158778" flag="0"/>
			<psa10 value="0.0133770249347309" flag="0"/>
			<psa30 value="0.000795516433672872" flag="0"/>
		</comp>
		<comp name="--.HNZ" depth="0.0">
			<acc value="0.0238298279950681" flag="0"/>
			<vel value="0.00831585211121185" flag="0"/>
			<psa03 value="0.0349436633688702" flag="0"/>
			<psa10 value="0.00678112883506527" flag="0"/>
			<psa30 value="0.00050871888924975" flag="0"/>
		</comp>
	</station>
	<station code="SERG" name="SERG" netid="HP" source="University of Patras, Seismological Laboratory (PSLNET)" insttype="" lat="38.4133" lon="22.0566" esm:processing="manual (Paolucci et al 2011)" esm:quality="best">
		<comp name="--.HNE" depth="0.0">
			<acc value="0.00469704582577652" flag="0"/>
			<vel value="0.00414162014609774" flag="0"/>
			<psa03 value="0.0152570924568307" flag="0"/>
			<psa10 value="0.00624556462184455" flag="0"/>
			<psa30 value="0.000472030279822767" flag="0"/>
		</comp>
		<comp name="--.HNN" depth="0.0">
			<acc value="0.00595789502778261" flag="0"/>
			<vel value="0.00366061874534508" flag="0"/>
			<psa03 value="0.0154360612833038" flag="0"/>
			<psa10 value="0.00404290579002704" flag="0"/>
			<psa30 value="0.000446527222050352" flag="0"/>
		</comp>
		<comp name="--.HNZ" depth="0.0">
			<acc value="0.00455418981660824" flag="0"/>
			<vel value="0.00201330500999511" flag="0"/>
			<psa03 value="0.00545854920742915" flag="0"/>
			<psa10 value="0.00451404122571744" flag="0"/>
			<psa30 value="0.000350331477821068" flag="0"/>
		</comp>
	</station>
</stationlist>
