<?xml version="1.0" encoding="UTF-8" standalone="yes"?>
<!DOCTYPE earthquake SYSTEM "stationlist.dtd">
<stationlist created="" xmlns="ch.ethz.sed.shakemap.usgs.xml">
  <station code="ARG2" name="ARG2" netid="HI" insttype="CMG-5TD,ACCELEROMETER,GURALP" lat="38.1783" lon="20.4878">
    <comp name="--.HNE">
      <acc value="0.1441090330" flag="0"/>
      <vel value="0.0306570545" flag="0"/>
      <psa03 value="0.1702381829" flag="0"/>
      <psa10 value="0.0220824140" flag="0"/>
      <psa30 value="0.0009318368" flag="0"/>
    </comp>
    <comp name="--.HNN">
      <acc value="0.0785564839" flag="0"/>
      <vel value="0.0213981263" flag="0"/>
      <psa03 value="0.0952503827" flag="0"/>
      <psa10 value="0.0133503858" flag="0"/>
      <psa30 value="0.0010951082" flag="0"/>
    </comp>
    <comp name="--.HNZ">
      <acc value="0.0863527477" flag="0"/>
      <vel value="0.0140868535" flag="0"/>
      <psa03 value="0.0894955239" flag="0"/>
      <psa10 value="0.0104380953" flag="0"/>
      <psa30 value="0.0007127781" flag="0"/>
    </comp>
  </station>
  <station code="PYL1" name="PYL1" netid="HI" insttype="CMG-5TD,ACCELEROMETER,GURALP" lat="36.9142" lon="21.6952">
    <comp name="--.HNE">
      <acc value="0.0268508317" flag="0"/>
      <vel value="0.0110996355" flag="0"/>
      <psa03 value="0.0781068944" flag="0"/>
      <psa10 value="0.0084578739" flag="0"/>
      <psa30 value="0.0005692604" flag="0"/>
    </comp>
    <comp name="--.HNN">
      <acc value="0.0278091440" flag="0"/>
      <vel value="0.0126832933" flag="0"/>
      <psa03 value="0.0490274340" flag="0"/>
      <psa10 value="0.0068595844" flag="0"/>
      <psa30 value="0.0007781295" flag="0"/>
    </comp>
    <comp name="--.HNZ">
      <acc value="0.0141098180" flag="0"/>
      <vel value="0.0039800511" flag="0"/>
      <psa03 value="0.0186571944" flag="0"/>
      <psa10 value="0.0032368252" flag="0"/>
      <psa30 value="0.0003962029" flag="0"/>
    </comp>
  </station>
  <station code="ORTH" name="ORTH" netid="HL" insttype="30" lat="37.8511" lon="20.6963">
    <comp name="--.HHE">
      <acc value="0.1604343690" flag="0"/>
      <vel value="0.0362397935" flag="0"/>
      <psa03 value="0.1595957501" flag="0"/>
      <psa10 value="0.0266717999" flag="0"/>
      <psa30 value="0.0013967560" flag="0"/>
    </comp>
    <comp name="--.HHN">
      <acc value="0.1645628524" flag="0"/>
      <vel value="0.0358360006" flag="0"/>
      <psa03 value="0.1227393502" flag="0"/>
      <psa10 value="0.0138784878" flag="0"/>
      <psa30 value="0.0010577104" flag="0"/>
    </comp>
    <comp name="--.HHZ">
      <acc value="0.0773923897" flag="0"/>
      <vel value="0.0157161654" flag="0"/>
      <psa03 value="0.0633815325" flag="0"/>
      <psa10 value="0.0112095906" flag="0"/>
      <psa30 value="0.0004547059" flag="0"/>
    </comp>
  </station>
  <station code="VLS" name="VLS" netid="HL" insttype="120P," lat="38.1768" lon="20.5886">
    <comp name="--.HHE">
      <acc value="0.2275391727" flag="0"/>
      <vel value="0.0258484464" flag="0"/>
      <psa03 value="0.0645070081" flag="0"/>
      <psa10 value="0.0086631028" flag="0"/>
      <psa30 value="0.0004850253" flag="0"/>
    </comp>
    <comp name="--.HHN">
      <acc value="0.1381666188" flag="0"/>
      <vel value="0.0202403334" flag="0"/>
      <psa03 value="0.0817696050" flag="0"/>
      <psa10 value="0.0067560291" flag="0"/>
      <psa30 value="0.0004037421" flag="0"/>
    </comp>
    <comp name="--.HHZ">
      <acc value="0.0510867059" flag="0"/>
      <vel value="0.0081965526" flag="0"/>
      <psa03 value="0.0415659914" flag="0"/>
      <psa10 value="0.0059185264" flag="0"/>
      <psa30 value="0.0002725600" flag="0"/>
    </comp>
  </station>
  <station code="LTHK" name="LTHK" netid="HP" insttype="40," lat="37.7095" lon="20.8367">
    <comp name="--.HHE">
      <acc value="0.3540080092" flag="0"/>
      <vel value="0.0874816549" flag="0"/>
      <psa03 value="0.2277691608" flag="0"/>
      <psa10 value="0.0533072013" flag="0"/>
      <psa30 value="0.0050261550" flag="0"/>
    </comp>
    <comp name="--.HHN">
      <acc value="0.4298392791" flag="0"/>
      <vel value="0.0883422345" flag="0"/>
      <psa03 value="0.2977701933" flag="0"/>
      <psa10 value="0.0930397006" flag="0"/>
      <psa30 value="0.0085946120" flag="0"/>
    </comp>
    <comp name="--.HHZ">
      <acc value="0.2499847696" flag="0"/>
      <vel value="0.0425202890" flag="0"/>
      <psa03 value="0.1665373457" flag="0"/>
      <psa10 value="0.0243773142" flag="0"/>
      <psa30 value="0.0041810850" flag="0"/>
    </comp>
  </station>
  <station code="PVO" name="PVO" netid="HP" insttype="DC_100" lat="38.616" lon="21.525">
    <comp name="--.HNE">
      <acc value="0.0052998872" flag="0"/>
      <vel value="0.0022210211" flag="0"/>
      <psa03 value="0.0144753959" flag="0"/>
      <psa10 value="0.0033547841" flag="0"/>
      <psa30 value="0.0003771853" flag="0"/>
    </comp>
    <comp name="--.HNN">
      <acc value="0.0043079960" flag="0"/>
      <vel value="0.0023679035" flag="0"/>
      <psa03 value="0.0090789446" flag="0"/>
      <psa10 value="0.0036063853" flag="0"/>
      <psa30 value="0.0002328492" flag="0"/>
    </comp>
    <comp name="--.HNZ">
      <acc value="0.0029249096" flag="0"/>
      <vel value="0.0012297463" flag="0"/>
      <psa03 value="0.0047252137" flag="0"/>
      <psa10 value="0.0015980815" flag="0"/>
      <psa30 value="0.0002833687" flag="0"/>
    </comp>
  </station>
  <station code="PYL" name="PYL" netid="HP" insttype="DC_100" lat="36.8955" lon="21.742">
    <comp name="--.HNE">
      <acc value="0.0532983444" flag="0"/>
      <vel value="0.0230445107" flag="0"/>
      <psa03 value="0.1323714837" flag="0"/>
      <psa10 value="0.0135452614" flag="0"/>
      <psa30 value="0.0010102854" flag="0"/>
    </comp>
    <comp name="--.HNN">
      <acc value="0.0562052242" flag="0"/>
      <vel value="0.0239093490" flag="0"/>
      <psa03 value="0.0829171724" flag="0"/>
      <psa10 value="0.0135442392" flag="0"/>
      <psa30 value="0.0009474241" flag="0"/>
    </comp>
    <comp name="--.HNZ">
      <acc value="0.0239878810" flag="0"/>
      <vel value="0.0079648339" flag="0"/>
      <psa03 value="0.0348585570" flag="0"/>
      <psa10 value="0.0069130735" flag="0"/>
      <psa30 value="0.0007708801" flag="0"/>
    </comp>
  </station>
  <station code="SERG" name="SERG" netid="HP" insttype="DC_100" lat="38.4133" lon="22.0566">
    <comp name="--.HNE">
      <acc value="0.0047052624" flag="0"/>
      <vel value="0.0041534949" flag="0"/>
      <psa03 value="0.0152009754" flag="0"/>
      <psa10 value="0.0062361768" flag="0"/>
      <psa30 value="0.0003993819" flag="0"/>
    </comp>
    <comp name="--.HNN">
      <acc value="0.0059325397" flag="0"/>
      <vel value="0.0031906220" flag="0"/>
      <psa03 value="0.0154530428" flag="0"/>
      <psa10 value="0.0040980738" flag="0"/>
      <psa30 value="0.0003772482" flag="0"/>
    </comp>
    <comp name="--.HNZ">
      <acc value="0.0046206110" flag="0"/>
      <vel value="0.0019779458" flag="0"/>
      <psa03 value="0.0054792650" flag="0"/>
      <psa10 value="0.0045110783" flag="0"/>
      <psa30 value="0.0003330556" flag="0"/>
    </comp>
  </station>
  <station code="DMLN" name="DMLN" netid="HT" insttype="1s-100Hz," lat="38.2385" lon="20.3734">
    <comp name="--.HHE">
      <acc value="0.2573620261" flag="0"/>
      <vel value="0.0536679245" flag="0"/>
      <psa03 value="0.1644845499" flag="0"/>
      <psa10 value="0.0334101565" flag="0"/>
      <psa30 value="0.0014736571" flag="0"/>
    </comp>
    <comp name="--.HHN">
      <acc value="0.2098341399" flag="0"/>
      <vel value="0.0390085163" flag="0"/>
      <psa03 value="0.1518964494" flag="0"/>
      <psa10 value="0.0323438895" flag="0"/>
      <psa30 value="0.0014832570" flag="0"/>
    </comp>
    <comp name="--.HHZ">
      <acc value="0.1317294288" flag="0"/>
      <vel value="0.0269164767" flag="0"/>
      <psa03 value="0.0789412970" flag="0"/>
      <psa10 value="0.0120232816" flag="0"/>
      <psa30 value="0.0006699164" flag="0"/>
    </comp>
  </station>
  <station code="DRAG" name="DRAG" netid="HT" insttype="1s-100Hz," lat="38.6839" lon="20.5746">
    <comp name="--.HHE">
      <acc value="0.0000000000" flag="0"/>
      <vel value="-100.0000000000" flag="0"/>
      <psa03 value="0.0000000000" flag="0"/>
      <psa10 value="0.0000000000" flag="0"/>
      <psa30 value="0.0000000000" flag="0"/>
    </comp>
    <comp name="--.HHN">
      <acc value="0.0247175687" flag="0"/>
      <vel value="0.0096783485" flag="0"/>
      <psa03 value="0.0495297474" flag="0"/>
      <psa10 value="0.0072528240" flag="0"/>
      <psa30 value="0.0006230970" flag="0"/>
    </comp>
    <comp name="--.HHZ">
      <acc value="0.0225069248" flag="0"/>
      <vel value="0.0063308535" flag="0"/>
      <psa03 value="0.0220635702" flag="0"/>
      <psa10 value="0.0079427852" flag="0"/>
      <psa30 value="0.0009918740" flag="0"/>
    </comp>
  </station>
  <station code="NYDR" name="NYDR" netid="HT" insttype="1s-100Hz," lat="38.7135" lon="20.6983">
    <comp name="--.HHE">
      <acc value="0.0069783874" flag="0"/>
      <vel value="0.0049047369" flag="0"/>
      <psa03 value="0.0112386377" flag="0"/>
      <psa10 value="0.0065723969" flag="0"/>
      <psa30 value="0.0006661633" flag="0"/>
    </comp>
    <comp name="--.HHN">
      <acc value="0.0083769824" flag="0"/>
      <vel value="0.0048339642" flag="0"/>
      <psa03 value="0.0202868348" flag="0"/>
      <psa10 value="0.0070392356" flag="0"/>
      <psa30 value="0.0003773047" flag="0"/>
    </comp>
    <comp name="--.HHZ">
      <acc value="0.0057882025" flag="0"/>
      <vel value="0.0046477312" flag="0"/>
      <psa03 value="0.0143167677" flag="0"/>
      <psa10 value="0.0042634233" flag="0"/>
      <psa30 value="0.0004369907" flag="0"/>
    </comp>
  </station>
  <station code="RTZL" name="RTZL" netid="HT" insttype="Compact," lat="38.076" lon="20.7715">
    <comp name="--.HHE">
      <acc value="0.0877368987" flag="0"/>
      <vel value="0.0148407498" flag="0"/>
      <psa03 value="0.0487901215" flag="0"/>
      <psa10 value="0.0089757368" flag="0"/>
      <psa30 value="0.0008168859" flag="0"/>
    </comp>
    <comp name="--.HHN">
      <acc value="0.1102307081" flag="0"/>
      <vel value="0.0221876420" flag="0"/>
      <psa03 value="0.0851021957" flag="0"/>
      <psa10 value="0.0154915702" flag="0"/>
      <psa30 value="0.0006727615" flag="0"/>
    </comp>
    <comp name="--.HHZ">
      <acc value="0.0461595607" flag="0"/>
      <vel value="0.0110128934" flag="0"/>
      <psa03 value="0.0293561061" flag="0"/>
      <psa10 value="0.0058098396" flag="0"/>
      <psa30 value="0.0003110514" flag="0"/>
    </comp>
  </station>
</stationlist>
