<?xml version="1.0" encoding="UTF-8" standalone="yes"?>
<!DOCTYPE earthquake SYSTEM "stationlist.dtd">
<stationlist created="" xmlns="ch.ethz.sed.shakemap.usgs.xml">
  <station code="ARPRA" name="ARPRA" netid="KO" insttype="CMG-5T" lat="39.0929" lon="38.3356">
    <comp name="--.HNE">
      <acc value="0.0430759290" flag="0"/>
      <vel value="0.0193782172" flag="0"/>
      <psa03 value="0.1228588007" flag="0"/>
      <psa10 value="0.0188360295" flag="0"/>
      <psa30 value="0.0024578700" flag="0"/>
    </comp>
    <comp name="--.HNN">
      <acc value="0.0321635022" flag="0"/>
      <vel value="0.0162655331" flag="0"/>
      <psa03 value="0.0773258304" flag="0"/>
      <psa10 value="0.0245966288" flag="0"/>
      <psa30 value="0.0013842095" flag="0"/>
    </comp>
    <comp name="--.HNZ">
      <acc value="0.0196609191" flag="0"/>
      <vel value="0.0122660775" flag="0"/>
      <psa03 value="0.0555835907" flag="0"/>
      <psa10 value="0.0167984479" flag="0"/>
      <psa30 value="0.0009172224" flag="0"/>
    </comp>
  </station>
  <station code="DARE" name="DARE" netid="KO" insttype="CMG-3ESP" lat="38.5712" lon="37.4832">
    <comp name="--.HHZ">
      <acc value="0.0216266141" flag="0"/>
      <vel value="0.0091452778" flag="0"/>
      <psa03 value="0.0762429570" flag="0"/>
      <psa10 value="0.0059086766" flag="0"/>
      <psa30 value="0.0012645499" flag="0"/>
    </comp>
    <comp name="--.HHN">
      <acc value="0.0388216659" flag="0"/>
      <vel value="0.0166168680" flag="0"/>
      <psa03 value="0.0671163084" flag="0"/>
      <psa10 value="0.0087501154" flag="0"/>
      <psa30 value="0.0014492892" flag="0"/>
    </comp>
    <comp name="--.HHE">
      <acc value="0.0431102496" flag="0"/>
      <vel value="0.0169170008" flag="0"/>
      <psa03 value="0.0813921401" flag="0"/>
      <psa10 value="0.0136339637" flag="0"/>
      <psa30 value="0.0008729787" flag="0"/>
    </comp>
  </station>
  <station code="GAZ" name="GAZ" netid="KO" insttype="CMG-3T" lat="37.1721" lon="37.2096">
    <comp name="--.HHN">
      <acc value="0.0078876601" flag="0"/>
      <vel value="0.0050448686" flag="0"/>
      <psa03 value="0.0227617539" flag="0"/>
      <psa10 value="0.0071141708" flag="0"/>
      <psa30 value="0.0006902624" flag="0"/>
    </comp>
    <comp name="--.HHZ">
      <acc value="0.0093979240" flag="0"/>
      <vel value="0.0047216921" flag="0"/>
      <psa03 value="0.0217052944" flag="0"/>
      <psa10 value="0.0061485869" flag="0"/>
      <psa30 value="0.0007017661" flag="0"/>
    </comp>
    <comp name="--.HHE">
      <acc value="0.0128687729" flag="0"/>
      <vel value="0.0057083078" flag="0"/>
      <psa03 value="0.0405775934" flag="0"/>
      <psa10 value="0.0080519019" flag="0"/>
      <psa30 value="0.0005621256" flag="0"/>
    </comp>
  </station>
</stationlist>
