<?xml version="1.0" encoding="UTF-8" standalone="yes"?>
<!DOCTYPE earthquake SYSTEM "stationlist.dtd">
<stationlist created="" xmlns="ch.ethz.sed.shakemap.usgs.xml">
  <station code="BAYT" name="BAYT" netid="KO" insttype="CMG-3ESPC" commtype="DIG" lat="40.3937" lon="40.141">
    <comp name="--.HHZ">
      <acc value="0.0008333286" flag="0"/>
      <vel value="0.0004175306" flag="0"/>
      <psa03 value="0.0039851019" flag="0"/>
      <psa10 value="0.0002891016" flag="0"/>
      <psa30 value="0.0000214900" flag="0"/>
    </comp>
    <comp name="--.HHN">
      <acc value="0.0120694668" flag="0"/>
      <vel value="0.0068481453" flag="0"/>
      <psa03 value="0.0343565828" flag="0"/>
      <psa10 value="0.0101720413" flag="0"/>
      <psa30 value="0.0005638681" flag="0"/>
    </comp>
    <comp name="--.HHE">
      <acc value="0.0112717679" flag="0"/>
      <vel value="0.0072158160" flag="0"/>
      <psa03 value="0.0385283239" flag="0"/>
      <psa10 value="0.0111459057" flag="0"/>
      <psa30 value="0.0007850955" flag="0"/>
    </comp>
  </station>
  <station code="BNGB" name="BNGB" netid="KO" insttype="CMG-3ESPC" commtype="DIG" lat="38.9913" lon="40.6792">
    <comp name="--.HHN">
      <acc value="0.1141975562" flag="0"/>
      <vel value="0.0185190959" flag="0"/>
      <psa03 value="0.0601013168" flag="0"/>
      <psa10 value="0.0167682686" flag="0"/>
      <psa30 value="0.0024390071" flag="0"/>
    </comp>
    <comp name="--.HHE">
      <acc value="0.0971269047" flag="0"/>
      <vel value="0.0266240597" flag="0"/>
      <psa03 value="0.0864215468" flag="0"/>
      <psa10 value="0.0310516484" flag="0"/>
      <psa30 value="0.0019449893" flag="0"/>
    </comp>
    <comp name="--.HHZ">
      <acc value="0.0484946974" flag="0"/>
      <vel value="0.0164931800" flag="0"/>
      <psa03 value="0.0632839582" flag="0"/>
      <psa10 value="0.0264746802" flag="0"/>
      <psa30 value="0.0025857381" flag="0"/>
    </comp>
  </station>
  <station code="ERZN" name="ERZN" netid="KO" insttype="CMG-3ESP" commtype="DIG" lat="39.5867" lon="39.722">
    <comp name="--.HHN">
      <acc value="0.0635387542" flag="0"/>
      <vel value="0.0296282671" flag="0"/>
      <psa03 value="0.1182774448" flag="0"/>
      <psa10 value="0.0295044769" flag="0"/>
      <psa30 value="0.0033297216" flag="0"/>
    </comp>
    <comp name="--.HHZ">
      <acc value="0.0325786240" flag="0"/>
      <vel value="0.0154923388" flag="0"/>
      <psa03 value="0.0553467490" flag="0"/>
      <psa10 value="0.0166707237" flag="0"/>
      <psa30 value="0.0015023097" flag="0"/>
    </comp>
    <comp name="--.HHE">
      <acc value="0.0731827523" flag="0"/>
      <vel value="0.0315240062" flag="0"/>
      <psa03 value="0.1496257546" flag="0"/>
      <psa10 value="0.0175552157" flag="0"/>
      <psa30 value="0.0020611056" flag="0"/>
    </comp>
  </station>
  <station code="KARO" name="KARO" netid="KO" insttype="CMG-3T" commtype="DIG" lat="39.3089" lon="41.0493">
    <comp name="--.HHN">
      <acc value="0.0886923910" flag="0"/>
      <vel value="0.0594508061" flag="0"/>
      <psa03 value="0.3436154400" flag="0"/>
      <psa10 value="0.0777724711" flag="0"/>
      <psa30 value="0.0057098520" flag="0"/>
    </comp>
    <comp name="--.HHE">
      <acc value="0.1091958830" flag="0"/>
      <vel value="0.0585698096" flag="0"/>
      <psa03 value="0.3114800029" flag="0"/>
      <psa10 value="0.0725321505" flag="0"/>
      <psa30 value="0.0061110754" flag="0"/>
    </comp>
    <comp name="--.HHZ">
      <acc value="0.0643119717" flag="0"/>
      <vel value="0.0248535174" flag="0"/>
      <psa03 value="0.1224672395" flag="0"/>
      <psa10 value="0.0331324532" flag="0"/>
      <psa30 value="0.0056978024" flag="0"/>
    </comp>
  </station>
  <station code="KMAH" name="KMAH" netid="KO" insttype="CMG-3ESP" commtype="DIG" lat="39.6082" lon="39.0275">
    <comp name="--.HHE">
      <acc value="0.0538770813" flag="0"/>
      <vel value="0.0190582313" flag="0"/>
      <psa03 value="0.0888344668" flag="0"/>
      <psa10 value="0.0137371596" flag="0"/>
      <psa30 value="0.0013233639" flag="0"/>
    </comp>
    <comp name="--.HHN">
      <acc value="0.0855966941" flag="0"/>
      <vel value="0.0353252546" flag="0"/>
      <psa03 value="0.0898639328" flag="0"/>
      <psa10 value="0.0188937228" flag="0"/>
      <psa30 value="0.0021357408" flag="0"/>
    </comp>
    <comp name="--.HHZ">
      <acc value="0.0296043257" flag="0"/>
      <vel value="0.0127670106" flag="0"/>
      <psa03 value="0.0590615793" flag="0"/>
      <psa10 value="0.0198309630" flag="0"/>
      <psa30 value="0.0011685385" flag="0"/>
    </comp>
  </station>
  <station code="LICE" name="LICE" netid="KO" insttype="CMG-3ESPC" commtype="DIG" lat="38.4532" lon="40.6446">
    <comp name="--.HHE">
      <acc value="0.0089927769" flag="0"/>
      <vel value="0.0070776582" flag="0"/>
      <psa03 value="0.0227109730" flag="0"/>
      <psa10 value="0.0121137410" flag="0"/>
      <psa30 value="0.0007758657" flag="0"/>
    </comp>
    <comp name="--.HHN">
      <acc value="0.0084922002" flag="0"/>
      <vel value="0.0059972090" flag="0"/>
      <psa03 value="0.0202431634" flag="0"/>
      <psa10 value="0.0083605842" flag="0"/>
      <psa30 value="0.0007282035" flag="0"/>
    </comp>
    <comp name="--.HHZ">
      <acc value="0.0061625135" flag="0"/>
      <vel value="0.0038670238" flag="0"/>
      <psa03 value="0.0113970859" flag="0"/>
      <psa10 value="0.0057788171" flag="0"/>
      <psa30 value="0.0007519802" flag="0"/>
    </comp>
  </station>
  <station code="SINE" name="SINE" netid="KO" insttype="CMG-6T" commtype="DIG" lat="39.1636" lon="39.3871">
    <comp name="--.HHZ">
      <acc value="0.0740095630" flag="0"/>
      <vel value="0.0280976316" flag="0"/>
      <psa03 value="0.1297911776" flag="0"/>
      <psa10 value="0.0094069675" flag="0"/>
      <psa30 value="0.0006950121" flag="0"/>
    </comp>
    <comp name="--.HHE">
      <acc value="0.1049564471" flag="0"/>
      <vel value="0.0329683160" flag="0"/>
      <psa03 value="0.2658601524" flag="0"/>
      <psa10 value="0.0106480782" flag="0"/>
      <psa30 value="0.0008421400" flag="0"/>
    </comp>
    <comp name="--.HHN">
      <acc value="0.0740700761" flag="0"/>
      <vel value="0.0195071485" flag="0"/>
      <psa03 value="0.1611919590" flag="0"/>
      <psa10 value="0.0074523974" flag="0"/>
      <psa30 value="0.0004995192" flag="0"/>
    </comp>
  </station>
  <station code="VRTB" name="VRTB" netid="KO" insttype="CMG-40T" commtype="DIG" lat="39.1603" lon="41.4558">
    <comp name="--.HHZ">
      <acc value="0.0048821317" flag="0"/>
      <vel value="0.0081145057" flag="0"/>
      <psa03 value="0.0082033935" flag="0"/>
      <psa10 value="0.0126030750" flag="0"/>
      <psa30 value="0.0035412706" flag="0"/>
    </comp>
    <comp name="--.HHE">
      <acc value="0.0106740608" flag="0"/>
      <vel value="0.0221493432" flag="0"/>
      <psa03 value="0.0144392493" flag="0"/>
      <psa10 value="0.0215068626" flag="0"/>
      <psa30 value="0.0095763860" flag="0"/>
    </comp>
    <comp name="--.HHN">
      <acc value="0.0024982158" flag="0"/>
      <vel value="0.0061501634" flag="0"/>
      <psa03 value="0.0064421202" flag="0"/>
      <psa10 value="0.0050782724" flag="0"/>
      <psa30 value="0.0021308218" flag="0"/>
    </comp>
  </station>
  <station code="YEDI" name="YEDI" netid="KO" insttype="CMG-3T" commtype="DIG" lat="39.4377" lon="40.5443">
    <comp name="--.HHE">
      <acc value="3.7262908475" flag="0"/>
      <vel value="0.6345056114" flag="0"/>
      <psa03 value="2.7209889294" flag="0"/>
      <psa10 value="0.2544280217" flag="0"/>
      <psa30 value="0.0171283795" flag="0"/>
    </comp>
    <comp name="--.HHZ">
      <acc value="0.0002843999" flag="0"/>
      <vel value="0.0000596993" flag="0"/>
      <psa03 value="0.0000854741" flag="0"/>
      <psa10 value="0.0000190623" flag="0"/>
      <psa30 value="0.0000026928" flag="0"/>
    </comp>
    <comp name="--.HHN">
      <acc value="3.0171110415" flag="0"/>
      <vel value="0.5999438602" flag="0"/>
      <psa03 value="1.5302975166" flag="0"/>
      <psa10 value="0.1774946274" flag="0"/>
      <psa30 value="0.0246154887" flag="0"/>
    </comp>
  </station>
</stationlist>
