<stationlist created="1775820312">
	<station code="CH01" name="CH01" netid="HI" source="ITSAK Strong Motion Network" insttype="" lat="35.517" lon="24.0208">
		<comp name="--.HNE" depth="0.0">
			<acc value="0.0359035079770577" flag="0"/>
			<vel value="0.0107772833320536" flag="0"/>
			<psa03 value="0.0493506538999538" flag="0"/>
			<psa10 value="0.0171501352188497" flag="0"/>
			<psa30 value="0.00101833262263186" flag="0"/>
		</comp>
		<comp name="--.HNN" depth="0.0">
			<acc value="0.0364978585455996" flag="0"/>
			<vel value="0.0188856438960361" flag="0"/>
			<psa03 value="0.115837572934706" flag="0"/>
			<psa10 value="0.0195460803832582" flag="0"/>
			<psa30 value="0.0017579212980319" flag="0"/>
		</comp>
		<comp name="--.HNZ" depth="0.0">
			<acc value="0.0252824978877075" flag="0"/>
			<vel value="0.00640324690220264" flag="0"/>
			<psa03 value="0.040178501543208" flag="0"/>
			<psa10 value="0.0128454875201058" flag="0"/>
			<psa30 value="0.000633102223648545" flag="0"/>
		</comp>
	</station>
	<station code="KRL1" name="KRL1" netid="HI" source="ITSAK Strong Motion Network" insttype="" lat="37.7951" lon="26.7065">
		<comp name="--.HNE" depth="0.0">
			<acc value="0.0160092500743017" flag="0"/>
			<vel value="0.0161779666273148" flag="0"/>
			<psa03 value="0.0638918710508921" flag="0"/>
			<psa10 value="0.0179152269520222" flag="0"/>
			<psa30 value="0.00308318545806511" flag="0"/>
		</comp>
		<comp name="--.HNN" depth="0.0">
			<acc value="0.0130787327724714" flag="0"/>
			<vel value="0.0108649869332476" flag="0"/>
			<psa03 value="0.0425498384939764" flag="0"/>
			<psa10 value="0.0204923780532346" flag="0"/>
			<psa30 value="0.00160803490586069" flag="0"/>
		</comp>
		<comp name="--.HNZ" depth="0.0">
			<acc value="0.0346662741075108" flag="0"/>
			<vel value="0.0290129558945713" flag="0"/>
			<psa03 value="0.0882316314512319" flag="0"/>
			<psa10 value="0.0178910661604483" flag="0"/>
			<psa30 value="0.0012608353825029" flag="0"/>
		</comp>
	</station>
	<station code="KSS1" name="KSS1" netid="HI" source="ITSAK Strong Motion Network" insttype="" lat="35.4189" lon="26.9207">
		<comp name="--.HNE" depth="0.0">
			<acc value="0.102583885309339" flag="0"/>
			<vel value="0.048988451743687" flag="0"/>
			<psa03 value="0.278922916058306" flag="0"/>
			<psa10 value="0.0343646992152298" flag="0"/>
			<psa30 value="0.00275522508355317" flag="0"/>
		</comp>
		<comp name="--.HNN" depth="0.0">
			<acc value="0.104378932926775" flag="0"/>
			<vel value="0.0404822042111335" flag="0"/>
			<psa03 value="0.270153443561125" flag="0"/>
			<psa10 value="0.0297056932400692" flag="0"/>
			<psa30 value="0.00123443748059812" flag="0"/>
		</comp>
		<comp name="--.HNZ" depth="0.0">
			<acc value="0.0675869380874516" flag="0"/>
			<vel value="0.0217561088274333" flag="0"/>
			<psa03 value="0.0736904143002936" flag="0"/>
			<psa10 value="0.0255782246795336" flag="0"/>
			<psa30 value="0.000861734899467914" flag="0"/>
		</comp>
	</station>
	<station code="RDI1" name="RDI1" netid="HI" source="ITSAK Strong Motion Network" insttype="" lat="36.4514" lon="28.224">
		<comp name="--.HNE" depth="0.0">
			<acc value="0.0349411843255915" flag="0"/>
			<vel value="0.016644947110079" flag="0"/>
			<psa03 value="0.0751669071186966" flag="0"/>
			<psa10 value="0.0180682452986567" flag="0"/>
			<psa30 value="0.00274582922016334" flag="0"/>
		</comp>
		<comp name="--.HNN" depth="0.0">
			<acc value="0.0201624446736544" flag="0"/>
			<vel value="0.0109788065144831" flag="0"/>
			<psa03 value="0.0617889873398333" flag="0"/>
			<psa10 value="0.0231379847305731" flag="0"/>
			<psa30 value="0.00176284294075991" flag="0"/>
		</comp>
		<comp name="--.HNZ" depth="0.0">
			<acc value="0.0255507751776156" flag="0"/>
			<vel value="0.0144556912404903" flag="0"/>
			<psa03 value="0.0634891911913276" flag="0"/>
			<psa10 value="0.0116253675456255" flag="0"/>
			<psa30 value="0.00103443981701444" flag="0"/>
		</comp>
	</station>
	<station code="ASTA" name="ASTA" netid="HL" source="National Observatory of Athens Seismic Network" insttype="" lat="36.54552" lon="26.35295">
		<comp name="00.HNE" depth="0.0">
			<acc value="0.0364443292547897" flag="0"/>
			<vel value="0.025979147776019" flag="0"/>
			<psa03 value="0.10742603809047" flag="0"/>
			<psa10 value="0.022594366920161" flag="0"/>
			<psa30 value="0.00299683299929184" flag="0"/>
		</comp>
		<comp name="00.HNN" depth="0.0">
			<acc value="0.0543874508847747" flag="0"/>
			<vel value="0.0442295042857333" flag="0"/>
			<psa03 value="0.104607279073519" flag="0"/>
			<psa10 value="0.0468598552575146" flag="0"/>
			<psa30 value="0.0038988358847162" flag="0"/>
		</comp>
		<comp name="00.HNZ" depth="0.0">
			<acc value="0.045369916841836" flag="0"/>
			<vel value="0.0290958885726832" flag="0"/>
			<psa03 value="0.0966879085020853" flag="0"/>
			<psa10 value="0.0165783298182682" flag="0"/>
			<psa30 value="0.00145635882542475" flag="0"/>
		</comp>
	</station>
	<station code="IACM" name="IACM" netid="HL" source="National Observatory of Athens Seismic Network" insttype="" lat="35.3058" lon="25.0709">
		<comp name="--.HNE" depth="0.0">
			<acc value="0.177439542326842" flag="0"/>
			<vel value="0.116518116716926" flag="0"/>
			<psa03 value="0.364872694972006" flag="0"/>
			<psa10 value="0.100243124239973" flag="0"/>
			<psa30 value="0.00502947144595993" flag="0"/>
		</comp>
		<comp name="--.HNN" depth="0.0">
			<acc value="0.111564609829293" flag="0"/>
			<vel value="0.0829879788251312" flag="0"/>
			<psa03 value="0.476593984897831" flag="0"/>
			<psa10 value="0.0715280234544325" flag="0"/>
			<psa30 value="0.00510732288547572" flag="0"/>
		</comp>
		<comp name="--.HNZ" depth="0.0">
			<acc value="0.107860167641108" flag="0"/>
			<vel value="0.0635557651299702" flag="0"/>
			<psa03 value="0.133466002342305" flag="0"/>
			<psa10 value="0.0458289948170296" flag="0"/>
			<psa30 value="0.00293150937762916" flag="0"/>
		</comp>
	</station>
	<station code="IMMV" name="IMMV" netid="HL" source="National Observatory of Athens Seismic Network" insttype="" lat="35.4606" lon="23.9811">
		<comp name="--.HNE" depth="0.0">
			<acc value="0.0198306759572036" flag="0"/>
			<vel value="0.0144238520844916" flag="0"/>
			<psa03 value="0.0608494010008496" flag="0"/>
			<psa10 value="0.0192158828984154" flag="0"/>
			<psa30 value="0.000939586338983707" flag="0"/>
		</comp>
		<comp name="--.HNN" depth="0.0">
			<acc value="0.0182173773097655" flag="0"/>
			<vel value="0.014903656634911" flag="0"/>
			<psa03 value="0.0572700244713879" flag="0"/>
			<psa10 value="0.0190185697672288" flag="0"/>
			<psa30 value="0.000834442153430768" flag="0"/>
		</comp>
		<comp name="--.HNZ" depth="0.0">
			<acc value="0.0193972260400709" flag="0"/>
			<vel value="0.0101758880470057" flag="0"/>
			<psa03 value="0.0584333218434629" flag="0"/>
			<psa10 value="0.0113958400256738" flag="0"/>
			<psa30 value="0.000455923085440189" flag="0"/>
		</comp>
	</station>
	<station code="KARP" name="KARP" netid="HL" source="National Observatory of Athens Seismic Network" insttype="" lat="35.5471" lon="27.16106">
		<comp name="--.HNE" depth="0.0">
			<acc value="0.127118024616961" flag="0"/>
			<vel value="0.0444232581047679" flag="0"/>
			<psa03 value="0.111005414619932" flag="0"/>
			<psa10 value="0.0359432042647224" flag="0"/>
			<psa30 value="0.0021771557740451" flag="0"/>
		</comp>
		<comp name="--.HNN" depth="0.0">
			<acc value="0.167018179721965" flag="0"/>
			<vel value="0.0582438420636549" flag="0"/>
			<psa03 value="0.242234306631323" flag="0"/>
			<psa10 value="0.0459216111847294" flag="0"/>
			<psa30 value="0.0022187660262001" flag="0"/>
		</comp>
		<comp name="--.HNZ" depth="0.0">
			<acc value="0.0837771092101417" flag="0"/>
			<vel value="0.0224368433735723" flag="0"/>
			<psa03 value="0.0848759659548615" flag="0"/>
			<psa10 value="0.0294479781299479" flag="0"/>
			<psa30 value="0.00117314065753109" flag="0"/>
		</comp>
	</station>
	<station code="KLNA" name="KLNA" netid="HL" source="National Observatory of Athens Seismic Network" insttype="" lat="36.95708" lon="26.97274">
		<comp name="00.HNE" depth="0.0">
			<acc value="0.0269815458234981" flag="0"/>
			<vel value="0.0185170247921699" flag="0"/>
			<psa03 value="0.0572700244713879" flag="0"/>
			<psa10 value="0.0240762288033582" flag="0"/>
			<psa30 value="0.00357042808813808" flag="0"/>
		</comp>
		<comp name="00.HNN" depth="0.0">
			<acc value="0.0309584844526529" flag="0"/>
			<vel value="0.0368414963476507" flag="0"/>
			<psa03 value="0.073600929887057" flag="0"/>
			<psa10 value="0.0287513419729014" flag="0"/>
			<psa30 value="0.00349212922655611" flag="0"/>
		</comp>
		<comp name="00.HNZ" depth="0.0">
			<acc value="0.0647321163703865" flag="0"/>
			<vel value="0.018497304806349" flag="0"/>
			<psa03 value="0.0737351565069119" flag="0"/>
			<psa10 value="0.00728447865952082" flag="0"/>
			<psa30 value="0.000699320689443587" flag="0"/>
		</comp>
	</station>
	<station code="RODB" name="RODB" netid="HL" source="National Observatory of Athens Seismic Network" insttype="" lat="36.4471" lon="28.22116">
		<comp name="00.HNE" depth="0.0">
			<acc value="0.028109476680965" flag="0"/>
			<vel value="0.0143095836197253" flag="0"/>
			<psa03 value="0.083309988723222" flag="0"/>
			<psa10 value="0.0131998457965225" flag="0"/>
			<psa30 value="0.0017682120055541" flag="0"/>
		</comp>
		<comp name="00.HNN" depth="0.0">
			<acc value="0.0268311848540483" flag="0"/>
			<vel value="0.0117230466952193" flag="0"/>
			<psa03 value="0.0953456423035371" flag="0"/>
			<psa10 value="0.0131676314077574" flag="0"/>
			<psa30 value="0.00271853647412619" flag="0"/>
		</comp>
		<comp name="00.HNZ" depth="0.0">
			<acc value="0.0388161670060399" flag="0"/>
			<vel value="0.0164616584910203" flag="0"/>
			<psa03 value="0.0758827824245889" flag="0"/>
			<psa10 value="0.0141823846538598" flag="0"/>
			<psa30 value="0.000919899768071667" flag="0"/>
		</comp>
	</station>
	<station code="SIVA" name="SIVA" netid="HL" source="National Observatory of Athens Seismic Network" insttype="" lat="35.01777" lon="24.81204">
		<comp name="00.HNE" depth="0.0">
			<acc value="0.0230677129545758" flag="0"/>
			<vel value="0.0217149083036716" flag="0"/>
			<psa03 value="0.0513193109911577" flag="0"/>
			<psa10 value="0.0255258762977902" flag="0"/>
			<psa30 value="0.00147201859774114" flag="0"/>
		</comp>
		<comp name="00.HNN" depth="0.0">
			<acc value="0.0197199542566398" flag="0"/>
			<vel value="0.0135241599203303" flag="0"/>
			<psa03 value="0.0523931239499962" flag="0"/>
			<psa10 value="0.0166870533803506" flag="0"/>
			<psa30 value="0.00115927057347942" flag="0"/>
		</comp>
		<comp name="00.HNZ" depth="0.0">
			<acc value="0.011889080683422" flag="0"/>
			<vel value="0.00608745233676124" flag="0"/>
			<psa03 value="0.0228632675819369" flag="0"/>
			<psa10 value="0.0063220737951618" flag="0"/>
			<psa30 value="0.000569568290250599" flag="0"/>
		</comp>
	</station>
	<station code="THRA" name="THRA" netid="HL" source="National Observatory of Athens Seismic Network" insttype="" lat="36.41502" lon="25.43244">
		<comp name="00.HNE" depth="0.0">
			<acc value="0.0558261639600444" flag="0"/>
			<vel value="0.0324866279827456" flag="0"/>
			<psa03 value="0.205232501758013" flag="0"/>
			<psa10 value="0.0380411663330532" flag="0"/>
			<psa30 value="0.00221250211727354" flag="0"/>
		</comp>
		<comp name="00.HNN" depth="0.0">
			<acc value="0.0496874843025614" flag="0"/>
			<vel value="0.0378807774647754" flag="0"/>
			<psa03 value="0.145143718269674" flag="0"/>
			<psa10 value="0.0637844897550082" flag="0"/>
			<psa30 value="0.00418921280566878" flag="0"/>
		</comp>
		<comp name="00.HNZ" depth="0.0">
			<acc value="0.0682115734503806" flag="0"/>
			<vel value="0.0431952250826068" flag="0"/>
			<psa03 value="0.211943832750753" flag="0"/>
			<psa10 value="0.0430505037860349" flag="0"/>
			<psa30 value="0.0022729040962082" flag="0"/>
		</comp>
	</station>
	<station code="CAME" name="CAME" netid="KO" source="Bogazici University Kandilli Observatory And Earthquake Research Institute (KOERI)" insttype="" lat="36.9435" lon="29.3023">
		<comp name="--.HNE" depth="0.0">
			<acc value="0.178485639557856" flag="0"/>
			<vel value="0.117538869685864" flag="0"/>
			<psa03 value="0.871980864783498" flag="0"/>
			<psa10 value="0.0828393007095978" flag="0"/>
			<psa30 value="0.00435565381428875" flag="0"/>
		</comp>
		<comp name="--.HNN" depth="0.0">
			<acc value="0.130144230544575" flag="0"/>
			<vel value="0.0607152131963233" flag="0"/>
			<psa03 value="0.50742136525782" flag="0"/>
			<psa10 value="0.0426437971278748" flag="0"/>
			<psa30 value="0.00335745518463511" flag="0"/>
		</comp>
		<comp name="--.HNZ" depth="0.0">
			<acc value="0.123394232648968" flag="0"/>
			<vel value="0.0398696924565037" flag="0"/>
			<psa03 value="0.207156416642598" flag="0"/>
			<psa10 value="0.0247446773702352" flag="0"/>
			<psa30 value="0.00270690350040544" flag="0"/>
		</comp>
	</station>
	<station code="NAZL" name="NAZL" netid="KO" source="Bogazici University Kandilli Observatory And Earthquake Research Institute (KOERI)" insttype="" lat="37.9641" lon="28.2922">
		<comp name="--.HNE" depth="0.0">
			<acc value="0.0319473759962062" flag="0"/>
			<vel value="0.017825453046645" flag="0"/>
			<psa03 value="0.0702900065973049" flag="0"/>
			<psa10 value="0.0368250731571686" flag="0"/>
			<psa30 value="0.00326215428453819" flag="0"/>
		</comp>
		<comp name="--.HNN" depth="0.0">
			<acc value="0.0171911918145011" flag="0"/>
			<vel value="0.0270111094102449" flag="0"/>
			<psa03 value="0.0778514395157929" flag="0"/>
			<psa10 value="0.0372237262181374" flag="0"/>
			<psa30 value="0.0054885264858634" flag="0"/>
		</comp>
		<comp name="--.HNZ" depth="0.0">
			<acc value="0.0318174478732059" flag="0"/>
			<vel value="0.0133776696226958" flag="0"/>
			<psa03 value="0.0976722370476873" flag="0"/>
			<psa10 value="0.0216037744656325" flag="0"/>
			<psa30 value="0.00198879108418218" flag="0"/>
		</comp>
	</station>
</stationlist>
