<?xml version="1.0" encoding="UTF-8" standalone="yes"?>
<!DOCTYPE earthquake SYSTEM "stationlist.dtd">
<stationlist created="" xmlns="ch.ethz.sed.shakemap.usgs.xml">
  <station code="APE" name="APE" netid="GE" insttype="STS-2/N" lat="37.0727" lon="25.523">
    <comp name="--.HHE">
      <acc value="0.0451416566" flag="0"/>
      <vel value="0.0170397476" flag="0"/>
      <psa03 value="0.1213348079" flag="0"/>
      <psa10 value="0.0085863261" flag="0"/>
      <psa30 value="0.0007668520" flag="0"/>
    </comp>
    <comp name="--.HHN">
      <acc value="0.0306743354" flag="0"/>
      <vel value="0.0122958750" flag="0"/>
      <psa03 value="0.0893706638" flag="0"/>
      <psa10 value="0.0051063306" flag="0"/>
      <psa30 value="0.0004699662" flag="0"/>
    </comp>
    <comp name="--.HHZ">
      <acc value="0.0788721025" flag="0"/>
      <vel value="0.0335767379" flag="0"/>
      <psa03 value="0.1500843474" flag="0"/>
      <psa10 value="0.0140899549" flag="0"/>
      <psa30 value="0.0016524273" flag="0"/>
    </comp>
  </station>
  <station code="KARP" name="KARP" netid="GE" insttype="STS-2/N" lat="35.5471" lon="27.1611">
    <comp name="--.HHN">
      <acc value="0.2035299589" flag="0"/>
      <vel value="0.0663853820" flag="0"/>
      <psa03 value="0.2754922131" flag="0"/>
      <psa10 value="0.0524346287" flag="0"/>
      <psa30 value="0.0025378259" flag="0"/>
    </comp>
    <comp name="--.HHE">
      <acc value="0.1752702523" flag="0"/>
      <vel value="0.0577136180" flag="0"/>
      <psa03 value="0.1667302612" flag="0"/>
      <psa10 value="0.0406338958" flag="0"/>
      <psa30 value="0.0026684782" flag="0"/>
    </comp>
    <comp name="--.HHZ">
      <acc value="0.1130284930" flag="0"/>
      <vel value="0.0278593371" flag="0"/>
      <psa03 value="0.1085963396" flag="0"/>
      <psa10 value="0.0366681904" flag="0"/>
      <psa30 value="0.0014560495" flag="0"/>
    </comp>
  </station>
  <station code="THERA" name="THERA" netid="GE" insttype="STS-2/N" lat="36.367" lon="25.4753">
    <comp name="--.HHN">
      <acc value="0.0094481088" flag="0"/>
      <vel value="0.0088036571" flag="0"/>
      <psa03 value="0.0292213568" flag="0"/>
      <psa10 value="0.0081000314" flag="0"/>
      <psa30 value="0.0008700115" flag="0"/>
    </comp>
    <comp name="--.HHE">
      <acc value="0.0215830937" flag="0"/>
      <vel value="0.0127687766" flag="0"/>
      <psa03 value="0.0563001974" flag="0"/>
      <psa10 value="0.0062828111" flag="0"/>
      <psa30 value="0.0004474259" flag="0"/>
    </comp>
    <comp name="--.HHZ">
      <acc value="0.0455795225" flag="0"/>
      <vel value="0.0248348846" flag="0"/>
      <psa03 value="0.1406820209" flag="0"/>
      <psa10 value="0.0108673312" flag="0"/>
      <psa30 value="0.0012347665" flag="0"/>
    </comp>
  </station>
  <station code="SNT5" name="SNT5" netid="HA" insttype="1s-100Hz," lat="36.4037" lon="25.3953">
    <comp name="--.HHZ">
      <acc value="0.0189782608" flag="0"/>
      <vel value="0.0152597313" flag="0"/>
      <psa03 value="0.0447627694" flag="0"/>
      <psa10 value="0.0127256848" flag="0"/>
      <psa30 value="0.0010914494" flag="0"/>
    </comp>
    <comp name="--.HHN">
      <acc value="0.0187900446" flag="0"/>
      <vel value="0.0108568344" flag="0"/>
      <psa03 value="0.0707779595" flag="0"/>
      <psa10 value="0.0093424546" flag="0"/>
      <psa30 value="0.0040830131" flag="0"/>
    </comp>
    <comp name="--.HHE">
      <acc value="0.0343065102" flag="0"/>
      <vel value="0.0155179697" flag="0"/>
      <psa03 value="0.1380105700" flag="0"/>
      <psa10 value="0.0181536280" flag="0"/>
      <psa30 value="0.0022216711" flag="0"/>
    </comp>
  </station>
  <station code="KRL1" name="KRL1" netid="HI" insttype="CMG-5TD,ACCELEROMETER,GURALP" lat="37.7951" lon="26.7065">
    <comp name="--.HNZ">
      <acc value="0.0346183736" flag="0"/>
      <vel value="0.0289313842" flag="0"/>
      <psa03 value="0.0883208793" flag="0"/>
      <psa10 value="0.0178460708" flag="0"/>
      <psa30 value="0.0012682719" flag="0"/>
    </comp>
    <comp name="--.HNE">
      <acc value="0.0159830488" flag="0"/>
      <vel value="0.0161400446" flag="0"/>
      <psa03 value="0.0630345200" flag="0"/>
      <psa10 value="0.0179215186" flag="0"/>
      <psa30 value="0.0030615350" flag="0"/>
    </comp>
    <comp name="--.HNN">
      <acc value="0.0130861052" flag="0"/>
      <vel value="0.0108863608" flag="0"/>
      <psa03 value="0.0422381287" flag="0"/>
      <psa10 value="0.0204770548" flag="0"/>
      <psa30 value="0.0016144205" flag="0"/>
    </comp>
  </station>
  <station code="NAX1" name="NAX1" netid="HI" insttype="CMG-5TD,ACCELEROMETER,GURALP" lat="37.1014" lon="25.3741">
    <comp name="--.HNN">
      <acc value="0.0103516780" flag="0"/>
      <vel value="0.0033955820" flag="0"/>
      <psa03 value="0.0192549329" flag="0"/>
      <psa10 value="0.0023549205" flag="0"/>
      <psa30 value="0.0004447423" flag="0"/>
    </comp>
    <comp name="--.HNZ">
      <acc value="0.0396249042" flag="0"/>
      <vel value="0.0214395869" flag="0"/>
      <psa03 value="0.0911754983" flag="0"/>
      <psa10 value="0.0107637753" flag="0"/>
      <psa30 value="0.0011759705" flag="0"/>
    </comp>
    <comp name="--.HNE">
      <acc value="0.0102349667" flag="0"/>
      <vel value="0.0086896502" flag="0"/>
      <psa03 value="0.0312335901" flag="0"/>
      <psa10 value="0.0065212351" flag="0"/>
      <psa30 value="0.0005370188" flag="0"/>
    </comp>
  </station>
  <station code="RDI1" name="RDI1" netid="HI" insttype="CMG-5TD,ACCELEROMETER,GURALP" lat="36.4514" lon="28.224">
    <comp name="--.HNE">
      <acc value="0.0348412645" flag="0"/>
      <vel value="0.0164656254" flag="0"/>
      <psa03 value="0.0748710705" flag="0"/>
      <psa10 value="0.0180807187" flag="0"/>
      <psa30 value="0.0027161519" flag="0"/>
    </comp>
    <comp name="--.HNZ">
      <acc value="0.0255935397" flag="0"/>
      <vel value="0.0142690626" flag="0"/>
      <psa03 value="0.0630794902" flag="0"/>
      <psa10 value="0.0116150643" flag="0"/>
      <psa30 value="0.0010304848" flag="0"/>
    </comp>
    <comp name="--.HNN">
      <acc value="0.0201846613" flag="0"/>
      <vel value="0.0109466150" flag="0"/>
      <psa03 value="0.0616988871" flag="0"/>
      <psa10 value="0.0231103550" flag="0"/>
      <psa30 value="0.0020721247" flag="0"/>
    </comp>
  </station>
  <station code="APE" name="APE" netid="HL" insttype="120" lat="37.0727" lon="25.523">
    <comp name="--.HHE">
      <acc value="0.0433782750" flag="0"/>
      <vel value="0.0163311690" flag="0"/>
      <psa03 value="0.1186258873" flag="0"/>
      <psa10 value="0.0084707937" flag="0"/>
      <psa30 value="0.0007584428" flag="0"/>
    </comp>
    <comp name="--.HHN">
      <acc value="0.0293022209" flag="0"/>
      <vel value="0.0119528937" flag="0"/>
      <psa03 value="0.0872514835" flag="0"/>
      <psa10 value="0.0050271654" flag="0"/>
      <psa30 value="0.0004687913" flag="0"/>
    </comp>
    <comp name="--.HHZ">
      <acc value="0.0763475760" flag="0"/>
      <vel value="0.0330407118" flag="0"/>
      <psa03 value="0.1454649500" flag="0"/>
      <psa10 value="0.0139790116" flag="0"/>
      <psa30 value="0.0016320030" flag="0"/>
    </comp>
  </station>
  <station code="ARG" name="ARG" netid="HL" insttype="LE3D20_DR24" lat="36.2136" lon="28.1212">
    <comp name="--.HHE">
      <acc value="0.1830087347" flag="0"/>
      <vel value="0.0359663979" flag="0"/>
      <psa03 value="0.1624450961" flag="0"/>
      <psa10 value="0.0139950532" flag="0"/>
      <psa30 value="0.0014905056" flag="0"/>
    </comp>
    <comp name="--.HHN">
      <acc value="0.1203869965" flag="0"/>
      <vel value="0.0238249871" flag="0"/>
      <psa03 value="0.1346050367" flag="0"/>
      <psa10 value="0.0118115075" flag="0"/>
      <psa30 value="0.0013315427" flag="0"/>
    </comp>
    <comp name="--.HHZ">
      <acc value="0.1844527836" flag="0"/>
      <vel value="0.0509147680" flag="0"/>
      <psa03 value="0.1834118169" flag="0"/>
      <psa10 value="0.0199067128" flag="0"/>
      <psa30 value="0.0014573637" flag="0"/>
    </comp>
  </station>
  <station code="ASTA" name="ASTA" netid="HL" insttype="CMG-5" lat="36.5455" lon="26.3529">
    <comp name="00.HNE">
      <acc value="0.0380600064" flag="0"/>
      <vel value="0.0258307857" flag="0"/>
      <psa03 value="0.1073637166" flag="0"/>
      <psa10 value="0.0226131985" flag="0"/>
      <psa30 value="0.0029471900" flag="0"/>
    </comp>
    <comp name="00.HNZ">
      <acc value="0.0459997572" flag="0"/>
      <vel value="0.0290251431" flag="0"/>
      <psa03 value="0.0966402890" flag="0"/>
      <psa10 value="0.0165669491" flag="0"/>
      <psa30 value="0.0014564654" flag="0"/>
    </comp>
    <comp name="00.HNN">
      <acc value="0.0560809251" flag="0"/>
      <vel value="0.0440726445" flag="0"/>
      <psa03 value="0.1046103398" flag="0"/>
      <psa10 value="0.0468678772" flag="0"/>
      <psa30 value="0.0039360741" flag="0"/>
    </comp>
  </station>
  <station code="KARP" name="KARP" netid="HL" insttype="120" lat="35.5471" lon="27.1611">
    <comp name="--.HHE">
      <acc value="0.1639482596" flag="0"/>
      <vel value="0.0557739503" flag="0"/>
      <psa03 value="0.1625034132" flag="0"/>
      <psa10 value="0.0403097868" flag="0"/>
      <psa30 value="0.0026443596" flag="0"/>
    </comp>
    <comp name="--.HHN">
      <acc value="0.1968877545" flag="0"/>
      <vel value="0.0629128239" flag="0"/>
      <psa03 value="0.2696834245" flag="0"/>
      <psa10 value="0.0519213955" flag="0"/>
      <psa30 value="0.0024996610" flag="0"/>
    </comp>
    <comp name="--.HHZ">
      <acc value="0.1062464592" flag="0"/>
      <vel value="0.0269313119" flag="0"/>
      <psa03 value="0.1063559967" flag="0"/>
      <psa10 value="0.0364368582" flag="0"/>
      <psa30 value="0.0014422290" flag="0"/>
    </comp>
  </station>
  <station code="KLNA" name="KLNA" netid="HL" insttype="CMG-5" lat="36.9571" lon="26.9727">
    <comp name="00.HNN">
      <acc value="0.0311517115" flag="0"/>
      <vel value="0.0365367861" flag="0"/>
      <psa03 value="0.0736963646" flag="0"/>
      <psa10 value="0.0286852489" flag="0"/>
      <psa30 value="0.0034308003" flag="0"/>
    </comp>
    <comp name="00.HNZ">
      <acc value="0.0642943345" flag="0"/>
      <vel value="0.0184638409" flag="0"/>
      <psa03 value="0.0735985829" flag="0"/>
      <psa10 value="0.0072814542" flag="0"/>
      <psa30 value="0.0006758462" flag="0"/>
    </comp>
    <comp name="00.HNE">
      <acc value="0.0275126475" flag="0"/>
      <vel value="0.0182719448" flag="0"/>
      <psa03 value="0.0568808158" flag="0"/>
      <psa10 value="0.0240342307" flag="0"/>
      <psa30 value="0.0035338576" flag="0"/>
    </comp>
  </station>
  <station code="RODB" name="RODB" netid="HL" insttype="CMG-5" lat="36.4471" lon="28.2212">
    <comp name="00.HNE">
      <acc value="0.0280215471" flag="0"/>
      <vel value="0.0143130972" flag="0"/>
      <psa03 value="0.0834608642" flag="0"/>
      <psa10 value="0.0131910695" flag="0"/>
      <psa30 value="0.0017555481" flag="0"/>
    </comp>
    <comp name="00.HNN">
      <acc value="0.0272767641" flag="0"/>
      <vel value="0.0116614804" flag="0"/>
      <psa03 value="0.0948583476" flag="0"/>
      <psa10 value="0.0131664269" flag="0"/>
      <psa30 value="0.0027031543" flag="0"/>
    </comp>
    <comp name="00.HNZ">
      <acc value="0.0387642653" flag="0"/>
      <vel value="0.0163539228" flag="0"/>
      <psa03 value="0.0756466862" flag="0"/>
      <psa10 value="0.0141743412" flag="0"/>
      <psa30 value="0.0009226292" flag="0"/>
    </comp>
  </station>
  <station code="SAP3" name="SAP3" netid="HL" insttype="LE3D20_SMART24" lat="36.4356" lon="25.3454">
    <comp name="--.HHE">
      <acc value="0.0370407176" flag="0"/>
      <vel value="0.0233912280" flag="0"/>
      <psa03 value="0.0996712141" flag="0"/>
      <psa10 value="0.0365103716" flag="0"/>
      <psa30 value="0.0061154466" flag="0"/>
    </comp>
    <comp name="--.HHN">
      <acc value="0.0372066833" flag="0"/>
      <vel value="0.0253563046" flag="0"/>
      <psa03 value="0.1104121245" flag="0"/>
      <psa10 value="0.0375081580" flag="0"/>
      <psa30 value="0.0112633991" flag="0"/>
    </comp>
    <comp name="--.HHZ">
      <acc value="0.0349061841" flag="0"/>
      <vel value="0.0250377648" flag="0"/>
      <psa03 value="0.0759769009" flag="0"/>
      <psa10 value="0.0288014743" flag="0"/>
      <psa30 value="0.0022918040" flag="0"/>
    </comp>
  </station>
  <station code="THERA" name="THERA" netid="HL" insttype="120" lat="36.367" lon="25.4753">
    <comp name="--.HHZ">
      <acc value="0.0443511117" flag="0"/>
      <vel value="0.0241391002" flag="0"/>
      <psa03 value="0.1366712053" flag="0"/>
      <psa10 value="0.0107721108" flag="0"/>
      <psa30 value="0.0012190503" flag="0"/>
    </comp>
    <comp name="--.HHN">
      <acc value="0.0091603991" flag="0"/>
      <vel value="0.0087361406" flag="0"/>
      <psa03 value="0.0284705678" flag="0"/>
      <psa10 value="0.0080302301" flag="0"/>
      <psa30 value="0.0008653617" flag="0"/>
    </comp>
    <comp name="--.HHE">
      <acc value="0.0211798643" flag="0"/>
      <vel value="0.0124681104" flag="0"/>
      <psa03 value="0.0548347977" flag="0"/>
      <psa10 value="0.0062127087" flag="0"/>
      <psa30 value="0.0004455327" flag="0"/>
    </comp>
  </station>
  <station code="THRA" name="THRA" netid="HL" insttype="CMG-5" lat="36.415" lon="25.4324">
    <comp name="00.HNN">
      <acc value="0.0513281776" flag="0"/>
      <vel value="0.0378645429" flag="0"/>
      <psa03 value="0.1449361637" flag="0"/>
      <psa10 value="0.0637463206" flag="0"/>
      <psa30 value="0.0041782584" flag="0"/>
    </comp>
    <comp name="00.HNE">
      <acc value="0.0570384811" flag="0"/>
      <vel value="0.0324869737" flag="0"/>
      <psa03 value="0.2044709376" flag="0"/>
      <psa10 value="0.0380128647" flag="0"/>
      <psa30 value="0.0022133548" flag="0"/>
    </comp>
    <comp name="00.HNZ">
      <acc value="0.0705633105" flag="0"/>
      <vel value="0.0431999076" flag="0"/>
      <psa03 value="0.2128713478" flag="0"/>
      <psa10 value="0.0430165705" flag="0"/>
      <psa30 value="0.0022825134" flag="0"/>
    </comp>
  </station>
  <station code="CMBO" name="CMBO" netid="HT" insttype="120P," lat="36.4709" lon="25.4056">
    <comp name="--.HHE">
      <acc value="0.0583543178" flag="0"/>
      <vel value="0.0421768653" flag="0"/>
      <psa03 value="0.1198629862" flag="0"/>
      <psa10 value="0.0410279773" flag="0"/>
      <psa30 value="0.0036284352" flag="0"/>
    </comp>
    <comp name="--.HHZ">
      <acc value="0.0921694789" flag="0"/>
      <vel value="0.0624067543" flag="0"/>
      <psa03 value="0.1918136075" flag="0"/>
      <psa10 value="0.0501228847" flag="0"/>
      <psa30 value="0.0036636489" flag="0"/>
    </comp>
    <comp name="--.HHN">
      <acc value="0.0571992943" flag="0"/>
      <vel value="0.0464882918" flag="0"/>
      <psa03 value="0.1249358976" flag="0"/>
      <psa10 value="0.0505637919" flag="0"/>
      <psa30 value="0.0064464299" flag="0"/>
    </comp>
  </station>
  <station code="AYDN" name="AYDN" netid="TU" source="ODC" insttype="T" lat="37.6608" lon="27.8792">
    <comp name="--.HHE">
      <acc value="0.0201502923" flag="0"/>
      <vel value="0.0283811498" flag="0"/>
      <psa03 value="0.0394006882" flag="0"/>
      <psa10 value="0.0264417277" flag="0"/>
      <psa30 value="0.0041006583" flag="0"/>
    </comp>
    <comp name="--.HHN">
      <acc value="0.0194832940" flag="0"/>
      <vel value="0.0201767961" flag="0"/>
      <psa03 value="0.0749947864" flag="0"/>
      <psa10 value="0.0303059616" flag="0"/>
      <psa30 value="0.0022145701" flag="0"/>
    </comp>
    <comp name="--.HHZ">
      <acc value="0.0450323219" flag="0"/>
      <vel value="0.0176085431" flag="0"/>
      <psa03 value="0.0853981561" flag="0"/>
      <psa10 value="0.0089953141" flag="0"/>
      <psa30 value="0.0009633404" flag="0"/>
    </comp>
  </station>
</stationlist>
