<?xml version="1.0" encoding="UTF-8" standalone="yes"?>
<!DOCTYPE earthquake SYSTEM "stationlist.dtd">
<stationlist created="" xmlns="ch.ethz.sed.shakemap.usgs.xml">
  <station code="AKS" name="AKS" netid="KO" insttype="CMG-5T" commtype="DIG" lat="38.8785" lon="27.8129">
    <comp name="--.HNN">
      <acc value="0.1205896616" flag="0"/>
      <vel value="0.0425058072" flag="0"/>
      <psa03 value="0.2337595936" flag="0"/>
      <psa10 value="0.0263915470" flag="0"/>
      <psa30 value="0.0050459661" flag="0"/>
    </comp>
    <comp name="--.HNE">
      <acc value="0.0851142426" flag="0"/>
      <vel value="0.0333372002" flag="0"/>
      <psa03 value="0.1480509880" flag="0"/>
      <psa10 value="0.0249184413" flag="0"/>
      <psa30 value="0.0038818045" flag="0"/>
    </comp>
    <comp name="--.HNZ">
      <acc value="0.0692348960" flag="0"/>
      <vel value="0.0134756851" flag="0"/>
      <psa03 value="0.0611117750" flag="0"/>
      <psa10 value="0.0184396630" flag="0"/>
      <psa30 value="0.0032087852" flag="0"/>
    </comp>
  </station>
  <station code="BALB" name="BALB" netid="KO" insttype="CMG-5T" commtype="DIG" lat="39.6507" lon="27.8642">
    <comp name="--.HNN">
      <acc value="0.0542996113" flag="0"/>
      <vel value="0.0218614400" flag="0"/>
      <psa03 value="0.1269814286" flag="0"/>
      <psa10 value="0.0252992673" flag="0"/>
      <psa30 value="0.0033443767" flag="0"/>
    </comp>
    <comp name="--.HNZ">
      <acc value="0.0344684250" flag="0"/>
      <vel value="0.0135368514" flag="0"/>
      <psa03 value="0.0714968245" flag="0"/>
      <psa10 value="0.0129546368" flag="0"/>
      <psa30 value="0.0034849916" flag="0"/>
    </comp>
    <comp name="--.HNE">
      <acc value="0.0438293479" flag="0"/>
      <vel value="0.0237153948" flag="0"/>
      <psa03 value="0.0911528484" flag="0"/>
      <psa10 value="0.0257230545" flag="0"/>
      <psa30 value="0.0020456530" flag="0"/>
    </comp>
  </station>
  <station code="DKL" name="DKL" netid="KO" insttype="CMG-3ESPC" commtype="DIG" lat="39.0713" lon="26.9053">
    <comp name="--.HHN">
      <acc value="0.0218107790" flag="0"/>
      <vel value="0.0127979483" flag="0"/>
      <psa03 value="0.0382625553" flag="0"/>
      <psa10 value="0.0106944624" flag="0"/>
      <psa30 value="0.0010691215" flag="0"/>
    </comp>
  </station>
  <station code="DST" name="DST" netid="KO" insttype="CMG-5T" commtype="DIG" lat="39.6041" lon="28.6267">
    <comp name="--.HNE">
      <acc value="0.0533257256" flag="0"/>
      <vel value="0.0168189979" flag="0"/>
      <psa03 value="0.0926772447" flag="0"/>
      <psa10 value="0.0129033007" flag="0"/>
      <psa30 value="0.0021027862" flag="0"/>
    </comp>
    <comp name="--.HNN">
      <acc value="0.0428653305" flag="0"/>
      <vel value="0.0216176717" flag="0"/>
      <psa03 value="0.1147451448" flag="0"/>
      <psa10 value="0.0178315105" flag="0"/>
      <psa30 value="0.0018504251" flag="0"/>
    </comp>
    <comp name="--.HNZ">
      <acc value="0.0462007137" flag="0"/>
      <vel value="0.0141451479" flag="0"/>
      <psa03 value="0.0869805694" flag="0"/>
      <psa10 value="0.0131842021" flag="0"/>
      <psa30 value="0.0026411602" flag="0"/>
    </comp>
  </station>
  <station code="GEDZ" name="GEDZ" netid="KO" insttype="CMG-6T" commtype="DIG" lat="39.0445" lon="29.4105">
    <comp name="--.HHE">
      <acc value="0.0611626008" flag="0"/>
      <vel value="0.0259697251" flag="0"/>
      <psa03 value="0.0978526477" flag="0"/>
      <psa10 value="0.0423848452" flag="0"/>
      <psa30 value="0.0017191393" flag="0"/>
    </comp>
    <comp name="--.HHN">
      <acc value="0.0729406264" flag="0"/>
      <vel value="0.0401896708" flag="0"/>
      <psa03 value="0.1878316619" flag="0"/>
      <psa10 value="0.0747418096" flag="0"/>
      <psa30 value="0.0035080854" flag="0"/>
    </comp>
    <comp name="--.HHZ">
      <acc value="0.0332283128" flag="0"/>
      <vel value="0.0106610564" flag="0"/>
      <psa03 value="0.0340187973" flag="0"/>
      <psa10 value="0.0149383820" flag="0"/>
      <psa30 value="0.0009796115" flag="0"/>
    </comp>
  </station>
  <station code="GOMA" name="GOMA" netid="KO" insttype="CMG-5T" commtype="DIG" lat="38.7077" lon="27.9175">
    <comp name="--.HNE">
      <acc value="0.0889796323" flag="0"/>
      <vel value="0.0344217510" flag="0"/>
      <psa03 value="0.1906481185" flag="0"/>
      <psa10 value="0.0175643268" flag="0"/>
      <psa30 value="0.0019347274" flag="0"/>
    </comp>
    <comp name="--.HNZ">
      <acc value="0.0561514814" flag="0"/>
      <vel value="0.0201696021" flag="0"/>
      <psa03 value="0.0726562039" flag="0"/>
      <psa10 value="0.0096783842" flag="0"/>
      <psa30 value="0.0026932182" flag="0"/>
    </comp>
  </station>
  <station code="GONE" name="GONE" netid="KO" insttype="CMG-5T" commtype="DIG" lat="40.0466" lon="27.686">
    <comp name="--.HNZ">
      <acc value="0.0265599214" flag="0"/>
      <vel value="0.0070468185" flag="0"/>
      <psa03 value="0.0225732190" flag="0"/>
      <psa10 value="0.0075200365" flag="0"/>
      <psa30 value="0.0010677026" flag="0"/>
    </comp>
    <comp name="--.HNE">
      <acc value="0.0340181227" flag="0"/>
      <vel value="0.0173685028" flag="0"/>
      <psa03 value="0.0323556528" flag="0"/>
      <psa10 value="0.0279711733" flag="0"/>
      <psa30 value="0.0014441902" flag="0"/>
    </comp>
    <comp name="--.HNN">
      <acc value="0.0373259568" flag="0"/>
      <vel value="0.0135886483" flag="0"/>
      <psa03 value="0.0738036136" flag="0"/>
      <psa10 value="0.0119216701" flag="0"/>
      <psa30 value="0.0022968579" flag="0"/>
    </comp>
  </station>
  <station code="GORD" name="GORD" netid="KO" insttype="CMG-5T" commtype="DIG" lat="38.9088" lon="28.1769">
    <comp name="--.HNN">
      <acc value="0.0855098908" flag="0"/>
      <vel value="0.0647680768" flag="0"/>
      <psa03 value="0.1156324167" flag="0"/>
      <psa10 value="0.0615894781" flag="0"/>
      <psa30 value="0.0090751520" flag="0"/>
    </comp>
    <comp name="--.HNE">
      <acc value="0.0775756295" flag="0"/>
      <vel value="0.0582548208" flag="0"/>
      <psa03 value="0.0832286104" flag="0"/>
      <psa10 value="0.0785609456" flag="0"/>
      <psa30 value="0.0121147480" flag="0"/>
    </comp>
    <comp name="--.HNZ">
      <acc value="0.0605843693" flag="0"/>
      <vel value="0.0340922783" flag="0"/>
      <psa03 value="0.0695680421" flag="0"/>
      <psa10 value="0.0444851836" flag="0"/>
      <psa30 value="0.0091874590" flag="0"/>
    </comp>
  </station>
  <station code="KCTX" name="KCTX" netid="KO" insttype="CMG-3ESP" commtype="DIG" lat="40.2626" lon="28.3353">
    <comp name="--.HHE">
      <acc value="0.0257309007" flag="0"/>
      <vel value="0.0226247046" flag="0"/>
      <psa03 value="0.0466299424" flag="0"/>
      <psa10 value="0.0288345027" flag="0"/>
      <psa30 value="0.0014499356" flag="0"/>
    </comp>
    <comp name="--.HHN">
      <acc value="0.0247588193" flag="0"/>
      <vel value="0.0112408107" flag="0"/>
      <psa03 value="0.0575221789" flag="0"/>
      <psa10 value="0.0110718867" flag="0"/>
      <psa30 value="0.0014003242" flag="0"/>
    </comp>
    <comp name="--.HHZ">
      <acc value="0.0187357770" flag="0"/>
      <vel value="0.0083745014" flag="0"/>
      <psa03 value="0.0395369389" flag="0"/>
      <psa10 value="0.0066903478" flag="0"/>
      <psa30 value="0.0005677169" flag="0"/>
    </comp>
  </station>
  <station code="ORLT" name="ORLT" netid="KO" insttype="CMG-5T" commtype="DIG" lat="40.0452" lon="28.8914">
    <comp name="--.HNE">
      <acc value="0.0561038463" flag="0"/>
      <vel value="0.0303012147" flag="0"/>
      <psa03 value="0.1558700373" flag="0"/>
      <psa10 value="0.0332259751" flag="0"/>
      <psa30 value="0.0016935141" flag="0"/>
    </comp>
    <comp name="--.HNN">
      <acc value="0.0442559418" flag="0"/>
      <vel value="0.0282355537" flag="0"/>
      <psa03 value="0.1168916304" flag="0"/>
      <psa10 value="0.0458903993" flag="0"/>
      <psa30 value="0.0024354333" flag="0"/>
    </comp>
    <comp name="--.HNZ">
      <acc value="0.0218540647" flag="0"/>
      <vel value="0.0130495706" flag="0"/>
      <psa03 value="0.0455842507" flag="0"/>
      <psa10 value="0.0192088734" flag="0"/>
      <psa30 value="0.0028022918" flag="0"/>
    </comp>
  </station>
  <station code="SHAP" name="SHAP" netid="KO" insttype="CMG-5T" commtype="DIG" lat="39.0231" lon="29.222">
    <comp name="--.HNE">
      <acc value="0.0671057401" flag="0"/>
      <vel value="0.0179265183" flag="0"/>
      <psa03 value="0.1292603076" flag="0"/>
      <psa10 value="0.0063247278" flag="0"/>
      <psa30 value="0.0012126280" flag="0"/>
    </comp>
    <comp name="--.HNZ">
      <acc value="0.0384447865" flag="0"/>
      <vel value="0.0103340405" flag="0"/>
      <psa03 value="0.0315258190" flag="0"/>
      <psa10 value="0.0047847502" flag="0"/>
      <psa30 value="0.0010565147" flag="0"/>
    </comp>
    <comp name="--.HNN">
      <acc value="0.0625010007" flag="0"/>
      <vel value="0.0180786582" flag="0"/>
      <psa03 value="0.1163019294" flag="0"/>
      <psa10 value="0.0118850366" flag="0"/>
      <psa30 value="0.0015322788" flag="0"/>
    </comp>
  </station>
  <station code="SIMA" name="SIMA" netid="KO" insttype="CMG-6T" commtype="DIG" lat="39.0833" lon="28.9825">
    <comp name="--.HHZ">
      <acc value="0.0904351398" flag="0"/>
      <vel value="0.0204060138" flag="0"/>
      <psa03 value="0.0392994829" flag="0"/>
      <psa10 value="0.0034739393" flag="0"/>
      <psa30 value="0.0010551694" flag="0"/>
    </comp>
    <comp name="--.HHN">
      <acc value="0.0912457016" flag="0"/>
      <vel value="0.0198881562" flag="0"/>
      <psa03 value="0.0990725893" flag="0"/>
      <psa10 value="0.0073976356" flag="0"/>
      <psa30 value="0.0015690964" flag="0"/>
    </comp>
    <comp name="--.HHE">
      <acc value="0.0944227113" flag="0"/>
      <vel value="0.0236943835" flag="0"/>
      <psa03 value="0.0772026619" flag="0"/>
      <psa10 value="0.0077116425" flag="0"/>
      <psa30 value="0.0010835454" flag="0"/>
    </comp>
  </station>
  <station code="SMAA" name="SMAA" netid="KO" insttype="CMG-5T" commtype="DIG" lat="39.1005" lon="28.9805">
    <comp name="--.HNZ">
      <acc value="0.0241019476" flag="0"/>
      <vel value="0.0131122151" flag="0"/>
      <psa03 value="0.0372739569" flag="0"/>
      <psa10 value="0.0224397883" flag="0"/>
      <psa30 value="0.0022207611" flag="0"/>
    </comp>
    <comp name="--.HNN">
      <acc value="0.1033236467" flag="0"/>
      <vel value="0.0333586503" flag="0"/>
      <psa03 value="0.0994749063" flag="0"/>
      <psa10 value="0.0346030156" flag="0"/>
      <psa30 value="0.0091346384" flag="0"/>
    </comp>
    <comp name="--.HNE">
      <acc value="0.0956818565" flag="0"/>
      <vel value="0.0275146280" flag="0"/>
      <psa03 value="0.1097467587" flag="0"/>
      <psa10 value="0.0315401295" flag="0"/>
      <psa30 value="0.0063683225" flag="0"/>
    </comp>
  </station>
  <station code="SOMA" name="SOMA" netid="KO" insttype="CMG-5T" commtype="DIG" lat="39.1564" lon="27.5341">
    <comp name="--.HNZ">
      <acc value="0.0566981687" flag="0"/>
      <vel value="0.0190790815" flag="0"/>
      <psa03 value="0.1085574452" flag="0"/>
      <psa10 value="0.0092928054" flag="0"/>
      <psa30 value="0.0017981978" flag="0"/>
    </comp>
    <comp name="--.HNN">
      <acc value="0.0722562652" flag="0"/>
      <vel value="0.0353789880" flag="0"/>
      <psa03 value="0.2365517106" flag="0"/>
      <psa10 value="0.0280416101" flag="0"/>
      <psa30 value="0.0022501217" flag="0"/>
    </comp>
    <comp name="--.HNE">
      <acc value="0.0856101976" flag="0"/>
      <vel value="0.0259693297" flag="0"/>
      <psa03 value="0.1639325073" flag="0"/>
      <psa10 value="0.0163763921" flag="0"/>
      <psa30 value="0.0026829494" flag="0"/>
    </comp>
  </station>
  <station code="SUSR" name="SUSR" netid="KO" insttype="CMG-5T" commtype="DIG" lat="39.9627" lon="28.0835">
    <comp name="--.HNE">
      <acc value="0.0317734252" flag="0"/>
      <vel value="0.0091982733" flag="0"/>
      <psa03 value="0.0322880722" flag="0"/>
      <psa10 value="0.0075274676" flag="0"/>
      <psa30 value="0.0007279677" flag="0"/>
    </comp>
    <comp name="--.HNN">
      <acc value="0.0356860549" flag="0"/>
      <vel value="0.0094973361" flag="0"/>
      <psa03 value="0.0479238003" flag="0"/>
      <psa10 value="0.0046521487" flag="0"/>
      <psa30 value="0.0013014287" flag="0"/>
    </comp>
    <comp name="--.HNZ">
      <acc value="0.0450485769" flag="0"/>
      <vel value="0.0078850759" flag="0"/>
      <psa03 value="0.0320004410" flag="0"/>
      <psa10 value="0.0052895904" flag="0"/>
      <psa30 value="0.0017918278" flag="0"/>
    </comp>
  </station>
  <station code="TVSB" name="TVSB" netid="KO" insttype="CMG-3T" commtype="DIG" lat="39.4497" lon="29.4615">
    <comp name="--.HHE">
      <acc value="0.0266153827" flag="0"/>
      <vel value="0.0107848105" flag="0"/>
      <psa03 value="0.0374566619" flag="0"/>
      <psa10 value="0.0067463286" flag="0"/>
      <psa30 value="0.0007574279" flag="0"/>
    </comp>
    <comp name="--.HHN">
      <acc value="0.0275080332" flag="0"/>
      <vel value="0.0120059911" flag="0"/>
      <psa03 value="0.0527760151" flag="0"/>
      <psa10 value="0.0118381901" flag="0"/>
      <psa30 value="0.0011962773" flag="0"/>
    </comp>
    <comp name="--.HHZ">
      <acc value="0.0313668478" flag="0"/>
      <vel value="0.0075861674" flag="0"/>
      <psa03 value="0.0294012640" flag="0"/>
      <psa10 value="0.0063262877" flag="0"/>
      <psa30 value="0.0011928051" flag="0"/>
    </comp>
  </station>
  <station code="YAYO" name="YAYO" netid="KO" insttype="CMG-6T" commtype="DIG" lat="39.6113" lon="27.0726">
    <comp name="--.HHN">
      <acc value="0.0339126092" flag="0"/>
      <vel value="0.0268559996" flag="0"/>
      <psa03 value="0.1744413636" flag="0"/>
      <psa10 value="0.0272454423" flag="0"/>
      <psa30 value="0.0011885599" flag="0"/>
    </comp>
    <comp name="--.HHE">
      <acc value="0.0320746539" flag="0"/>
      <vel value="0.0306207103" flag="0"/>
      <psa03 value="0.0825716404" flag="0"/>
      <psa10 value="0.0255925316" flag="0"/>
      <psa30 value="0.0013793361" flag="0"/>
    </comp>
    <comp name="--.HHZ">
      <acc value="0.0210771206" flag="0"/>
      <vel value="0.0092947176" flag="0"/>
      <psa03 value="0.0589946943" flag="0"/>
      <psa10 value="0.0069357967" flag="0"/>
      <psa30 value="0.0008799222" flag="0"/>
    </comp>
  </station>
  <station code="YENI" name="YENI" netid="KO" insttype="CMG-5T" commtype="DIG" lat="39.9364" lon="27.2422">
    <comp name="--.HNZ">
      <acc value="0.0246826463" flag="0"/>
      <vel value="0.0055955075" flag="0"/>
      <psa03 value="0.0282918552" flag="0"/>
      <psa10 value="0.0056623763" flag="0"/>
      <psa30 value="0.0011281452" flag="0"/>
    </comp>
    <comp name="--.HNE">
      <acc value="0.0343985869" flag="0"/>
      <vel value="0.0211186052" flag="0"/>
      <psa03 value="0.0656722590" flag="0"/>
      <psa10 value="0.0137877105" flag="0"/>
      <psa30 value="0.0011952932" flag="0"/>
    </comp>
    <comp name="--.HNN">
      <acc value="0.0422521930" flag="0"/>
      <vel value="0.0148092177" flag="0"/>
      <psa03 value="0.0610053572" flag="0"/>
      <psa10 value="0.0098434981" flag="0"/>
      <psa30 value="0.0005898522" flag="0"/>
    </comp>
  </station>
</stationlist>
