<?xml version="1.0" encoding="UTF-8" standalone="yes"?>
<!DOCTYPE earthquake SYSTEM "stationlist.dtd">
<stationlist created="" xmlns="ch.ethz.sed.shakemap.usgs.xml">
  <station code="CAVT" name="CAVT" netid="IV" insttype="" lat="37.6788" lon="12.7556">
    <comp name="--.HHE">
      <acc value="0.0659082383" flag="0"/>
      <vel value="0.0374931315" flag="0"/>
      <psa03 value="0.2496535940" flag="0"/>
      <psa10 value="0.0437321560" flag="0"/>
      <psa30 value="0.0025840239" flag="0"/>
    </comp>
    <comp name="--.HHN">
      <acc value="0.0701266678" flag="0"/>
      <vel value="0.0466756542" flag="0"/>
      <psa03 value="0.1866384266" flag="0"/>
      <psa10 value="0.0364341423" flag="0"/>
      <psa30 value="0.0027601312" flag="0"/>
    </comp>
    <comp name="--.HHZ">
      <acc value="0.0474402057" flag="0"/>
      <vel value="0.0298278425" flag="0"/>
      <psa03 value="0.2160344172" flag="0"/>
      <psa10 value="0.0346353305" flag="0"/>
      <psa30 value="0.0027135394" flag="0"/>
    </comp>
  </station>
  <station code="CIMI" name="CIMI" netid="IV" insttype="" lat="37.8815" lon="13.5726">
    <comp name="--.HHE">
      <acc value="0.0115494118" flag="0"/>
      <vel value="0.0142002203" flag="0"/>
      <psa03 value="0.0301126711" flag="0"/>
      <psa10 value="0.0291138610" flag="0"/>
      <psa30 value="0.0015422412" flag="0"/>
    </comp>
    <comp name="--.HHN">
      <acc value="0.0124216917" flag="0"/>
      <vel value="0.0120593332" flag="0"/>
      <psa03 value="0.0404958575" flag="0"/>
      <psa10 value="0.0203490714" flag="0"/>
      <psa30 value="0.0012874454" flag="0"/>
    </comp>
    <comp name="--.HHZ">
      <acc value="0.0107819541" flag="0"/>
      <vel value="0.0080338402" flag="0"/>
      <psa03 value="0.0434725444" flag="0"/>
      <psa10 value="0.0085837265" flag="0"/>
      <psa30 value="0.0010092851" flag="0"/>
    </comp>
  </station>
  <station code="CLTB" name="CLTB" netid="IV" insttype="" lat="37.5786" lon="13.2156">
    <comp name="--.HHE">
      <acc value="0.0558140225" flag="0"/>
      <vel value="0.0428163792" flag="0"/>
      <psa03 value="0.1556687555" flag="0"/>
      <psa10 value="0.0637409970" flag="0"/>
      <psa30 value="0.0024156437" flag="0"/>
    </comp>
    <comp name="--.HHN">
      <acc value="0.0609491631" flag="0"/>
      <vel value="0.0576984578" flag="0"/>
      <psa03 value="0.2010743665" flag="0"/>
      <psa10 value="0.0693072420" flag="0"/>
      <psa30 value="0.0027522083" flag="0"/>
    </comp>
    <comp name="--.HHZ">
      <acc value="0.0263436038" flag="0"/>
      <vel value="0.0174028996" flag="0"/>
      <psa03 value="0.1237503227" flag="0"/>
      <psa10 value="0.0245245877" flag="0"/>
      <psa30 value="0.0013172329" flag="0"/>
    </comp>
  </station>
  <station code="MARS" name="MARS" netid="IV" insttype="" lat="37.7532" lon="12.5647">
    <comp name="--.HHE">
      <acc value="0.0713516777" flag="0"/>
      <vel value="0.0300746329" flag="0"/>
      <psa03 value="0.1767612842" flag="0"/>
      <psa10 value="0.0417546695" flag="0"/>
      <psa30 value="0.0039761437" flag="0"/>
    </comp>
    <comp name="--.HHN">
      <acc value="0.0687060237" flag="0"/>
      <vel value="0.0312085968" flag="0"/>
      <psa03 value="0.1444657417" flag="0"/>
      <psa10 value="0.0333701638" flag="0"/>
      <psa30 value="0.0045988842" flag="0"/>
    </comp>
    <comp name="--.HHZ">
      <acc value="0.0666292404" flag="0"/>
      <vel value="0.0350670812" flag="0"/>
      <psa03 value="0.1642885639" flag="0"/>
      <psa10 value="0.0236417696" flag="0"/>
      <psa30 value="0.0037686913" flag="0"/>
    </comp>
  </station>
  <station code="MBFT" name="MBFT" netid="IV" insttype="" lat="37.9461" lon="12.9535">
    <comp name="--.HHE">
      <acc value="0.0561399228" flag="0"/>
      <vel value="0.0258783460" flag="0"/>
      <psa03 value="0.2461873186" flag="0"/>
      <psa10 value="0.0109052642" flag="0"/>
      <psa30 value="0.0012690302" flag="0"/>
    </comp>
    <comp name="--.HHN">
      <acc value="0.0475797347" flag="0"/>
      <vel value="0.0246789949" flag="0"/>
      <psa03 value="0.2461839147" flag="0"/>
      <psa10 value="0.0165316657" flag="0"/>
      <psa30 value="0.0010348995" flag="0"/>
    </comp>
    <comp name="--.HHZ">
      <acc value="0.0328654546" flag="0"/>
      <vel value="0.0185885446" flag="0"/>
      <psa03 value="0.0591591234" flag="0"/>
      <psa10 value="0.0137629003" flag="0"/>
      <psa30 value="0.0010475736" flag="0"/>
    </comp>
  </station>
  <station code="MFNL" name="MFNL" netid="IV" insttype="" lat="37.7908" lon="12.9224">
    <comp name="--.HHE">
      <acc value="0.0393739652" flag="0"/>
      <vel value="0.0284161833" flag="0"/>
      <psa03 value="0.1270806240" flag="0"/>
      <psa10 value="0.0258545577" flag="0"/>
      <psa30 value="0.0017777148" flag="0"/>
    </comp>
    <comp name="--.HHN">
      <acc value="0.0376442945" flag="0"/>
      <vel value="0.0222590309" flag="0"/>
      <psa03 value="0.1092152755" flag="0"/>
      <psa10 value="0.0207609494" flag="0"/>
      <psa30 value="0.0010951494" flag="0"/>
    </comp>
    <comp name="--.HHZ">
      <acc value="0.0227345836" flag="0"/>
      <vel value="0.0155250338" flag="0"/>
      <psa03 value="0.0642036623" flag="0"/>
      <psa10 value="0.0093500976" flag="0"/>
      <psa30 value="0.0007944009" flag="0"/>
    </comp>
  </station>
  <station code="MMGO" name="MMGO" netid="IV" insttype="" lat="37.6619" lon="12.9767">
    <comp name="--.HHE">
      <acc value="0.0214418177" flag="0"/>
      <vel value="0.0161585438" flag="0"/>
      <psa03 value="0.0529839309" flag="0"/>
      <psa10 value="0.0303267944" flag="0"/>
      <psa30 value="0.0008900089" flag="0"/>
    </comp>
    <comp name="--.HHN">
      <acc value="0.0284017288" flag="0"/>
      <vel value="0.0164723068" flag="0"/>
      <psa03 value="0.0740591748" flag="0"/>
      <psa10 value="0.0219649767" flag="0"/>
      <psa30 value="0.0008600190" flag="0"/>
    </comp>
    <comp name="--.HHZ">
      <acc value="0.0227037166" flag="0"/>
      <vel value="0.0120624114" flag="0"/>
      <psa03 value="0.0757522343" flag="0"/>
      <psa10 value="0.0116651601" flag="0"/>
      <psa30 value="0.0006428463" flag="0"/>
    </comp>
  </station>
  <station code="SCIAC" name="SCIAC" netid="IV" insttype="" lat="37.5165" lon="13.1019">
    <comp name="--.HHE">
      <acc value="0.0247043420" flag="0"/>
      <vel value="0.0126875963" flag="0"/>
      <psa03 value="0.0900922957" flag="0"/>
      <psa10 value="0.0135599600" flag="0"/>
      <psa30 value="0.0007773094" flag="0"/>
    </comp>
    <comp name="--.HHN">
      <acc value="0.0250930037" flag="0"/>
      <vel value="0.0150416520" flag="0"/>
      <psa03 value="0.1176684891" flag="0"/>
      <psa10 value="0.0164507880" flag="0"/>
      <psa30 value="0.0012373567" flag="0"/>
    </comp>
    <comp name="--.HHZ">
      <acc value="0.0117516212" flag="0"/>
      <vel value="0.0063342631" flag="0"/>
      <psa03 value="0.0309800777" flag="0"/>
      <psa10 value="0.0122697131" flag="0"/>
      <psa30 value="0.0006041411" flag="0"/>
    </comp>
  </station>
  <station code="SOLUN" name="SOLUN" netid="IV" insttype="" lat="38.0919" lon="13.5326">
    <comp name="--.HHE">
      <acc value="0.0135851647" flag="0"/>
      <vel value="0.0123870783" flag="0"/>
      <psa03 value="0.0532759081" flag="0"/>
      <psa10 value="0.0206430104" flag="0"/>
      <psa30 value="0.0015888660" flag="0"/>
    </comp>
    <comp name="--.HHZ">
      <acc value="0.0113943775" flag="0"/>
      <vel value="0.0076405017" flag="0"/>
      <psa03 value="0.0391699642" flag="0"/>
      <psa10 value="0.0116522402" flag="0"/>
      <psa30 value="0.0017026073" flag="0"/>
    </comp>
    <comp name="--.HHN">
      <acc value="0.0155715783" flag="0"/>
      <vel value="0.0123887561" flag="0"/>
      <psa03 value="0.0485781669" flag="0"/>
      <psa10 value="0.0124501295" flag="0"/>
      <psa30 value="0.0017809417" flag="0"/>
    </comp>
  </station>
  <station code="USI" name="USI" netid="IV" insttype="" lat="38.7079" lon="13.1791">
    <comp name="--.HHE">
      <acc value="0.0402710993" flag="0"/>
      <vel value="0.0280548076" flag="0"/>
      <psa03 value="0.1546888172" flag="0"/>
      <psa10 value="0.0284314197" flag="0"/>
      <psa30 value="0.0025309762" flag="0"/>
    </comp>
    <comp name="--.HHN">
      <acc value="0.0379164871" flag="0"/>
      <vel value="0.0219689716" flag="0"/>
      <psa03 value="0.0968768090" flag="0"/>
      <psa10 value="0.0257500499" flag="0"/>
      <psa30 value="0.0017742146" flag="0"/>
    </comp>
    <comp name="--.HHZ">
      <acc value="0.0273247961" flag="0"/>
      <vel value="0.0096844308" flag="0"/>
      <psa03 value="0.0815029957" flag="0"/>
      <psa10 value="0.0068833163" flag="0"/>
      <psa30 value="0.0009128640" flag="0"/>
    </comp>
  </station>
</stationlist>
