<?xml version="1.0" encoding="UTF-8" standalone="yes"?>
<!DOCTYPE earthquake SYSTEM "stationlist.dtd">
<stationlist created="" xmlns="ch.ethz.sed.shakemap.usgs.xml">
  <station code="AKS" name="AKS" netid="KO" insttype="CMG-5T" commtype="DIG" lat="38.8785" lon="27.8129">
    <comp name="--.HNZ">
      <acc value="0.1567053340" flag="0"/>
      <vel value="0.0295947493" flag="0"/>
      <psa03 value="0.1075953641" flag="0"/>
      <psa10 value="0.0102459096" flag="0"/>
      <psa30 value="0.0009699302" flag="0"/>
    </comp>
    <comp name="--.HNE">
      <acc value="0.2078487305" flag="0"/>
      <vel value="0.0563381588" flag="0"/>
      <psa03 value="0.3136766904" flag="0"/>
      <psa10 value="0.0245196484" flag="0"/>
      <psa30 value="0.0021162132" flag="0"/>
    </comp>
    <comp name="--.HNN">
      <acc value="0.2193892849" flag="0"/>
      <vel value="0.0709931469" flag="0"/>
      <psa03 value="0.5009649455" flag="0"/>
      <psa10 value="0.0164650547" flag="0"/>
      <psa30 value="0.0018525949" flag="0"/>
    </comp>
  </station>
  <station code="AYVL" name="AYVL" netid="KO" insttype="CMG-6T" commtype="DIG" lat="39.2907" lon="26.69">
    <comp name="--.HHE">
      <acc value="0.0537473627" flag="0"/>
      <vel value="0.0174812101" flag="0"/>
      <psa03 value="0.1145819124" flag="0"/>
      <psa10 value="0.0124614743" flag="0"/>
      <psa30 value="0.0006439577" flag="0"/>
    </comp>
    <comp name="--.HHZ">
      <acc value="0.0847373365" flag="0"/>
      <vel value="0.0252703475" flag="0"/>
      <psa03 value="0.0983103406" flag="0"/>
      <psa10 value="0.0091237776" flag="0"/>
      <psa30 value="0.0008407376" flag="0"/>
    </comp>
  </station>
  <station code="BALB" name="BALB" netid="KO" insttype="CMG-5T" commtype="DIG" lat="39.6507" lon="27.8642">
    <comp name="--.HNN">
      <acc value="0.0852439351" flag="0"/>
      <vel value="0.0247896475" flag="0"/>
      <psa03 value="0.1042861180" flag="0"/>
      <psa10 value="0.0239292200" flag="0"/>
      <psa30 value="0.0015954843" flag="0"/>
    </comp>
    <comp name="--.HNZ">
      <acc value="0.0658412866" flag="0"/>
      <vel value="0.0230907881" flag="0"/>
      <psa03 value="0.0612937079" flag="0"/>
      <psa10 value="0.0345521202" flag="0"/>
      <psa30 value="0.0012743996" flag="0"/>
    </comp>
    <comp name="--.HNE">
      <acc value="0.0761398476" flag="0"/>
      <vel value="0.0305653423" flag="0"/>
      <psa03 value="0.0671606652" flag="0"/>
      <psa10 value="0.0463731627" flag="0"/>
      <psa30 value="0.0029687312" flag="0"/>
    </comp>
  </station>
  <station code="CANM" name="CANM" netid="KO" insttype="CMG-5T" commtype="DIG" lat="40.0113" lon="27.0529">
    <comp name="--.HNE">
      <acc value="0.0411183245" flag="0"/>
      <vel value="0.0235067082" flag="0"/>
      <psa03 value="0.0755182720" flag="0"/>
      <psa10 value="0.0269525467" flag="0"/>
      <psa30 value="0.0012349552" flag="0"/>
    </comp>
    <comp name="--.HNN">
      <acc value="0.0515516077" flag="0"/>
      <vel value="0.0325624703" flag="0"/>
      <psa03 value="0.0821077113" flag="0"/>
      <psa10 value="0.0642189067" flag="0"/>
      <psa30 value="0.0033488766" flag="0"/>
    </comp>
    <comp name="--.HNZ">
      <acc value="0.0414426896" flag="0"/>
      <vel value="0.0167723456" flag="0"/>
      <psa03 value="0.0585345516" flag="0"/>
      <psa10 value="0.0145255368" flag="0"/>
      <psa30 value="0.0008617310" flag="0"/>
    </comp>
  </station>
  <station code="DST" name="DST" netid="KO" insttype="CMG-5T" commtype="DIG" lat="39.6041" lon="28.6267">
    <comp name="--.HNN">
      <acc value="0.1091853106" flag="0"/>
      <vel value="0.0286952084" flag="0"/>
      <psa03 value="0.1592997141" flag="0"/>
      <psa10 value="0.0134642155" flag="0"/>
      <psa30 value="0.0013257460" flag="0"/>
    </comp>
    <comp name="--.HNE">
      <acc value="0.0813028165" flag="0"/>
      <vel value="0.0205614698" flag="0"/>
      <psa03 value="0.1581290320" flag="0"/>
      <psa10 value="0.0150556684" flag="0"/>
      <psa30 value="0.0014275244" flag="0"/>
    </comp>
    <comp name="--.HNZ">
      <acc value="0.0730571416" flag="0"/>
      <vel value="0.0209949113" flag="0"/>
      <psa03 value="0.1302135421" flag="0"/>
      <psa10 value="0.0090768995" flag="0"/>
      <psa30 value="0.0009855508" flag="0"/>
    </comp>
  </station>
  <station code="FOCM" name="FOCM" netid="KO" insttype="CMG-5T" commtype="DIG" lat="38.7131" lon="26.7309">
    <comp name="--.HNZ">
      <acc value="0.0221430882" flag="0"/>
      <vel value="0.0101357262" flag="0"/>
      <psa03 value="0.0544930073" flag="0"/>
      <psa10 value="0.0100914989" flag="0"/>
      <psa30 value="0.0008660045" flag="0"/>
    </comp>
    <comp name="--.HNE">
      <acc value="0.0261224006" flag="0"/>
      <vel value="0.0133778208" flag="0"/>
      <psa03 value="0.0590528027" flag="0"/>
      <psa10 value="0.0103064683" flag="0"/>
      <psa30 value="0.0017416562" flag="0"/>
    </comp>
    <comp name="--.HNN">
      <acc value="0.0248047263" flag="0"/>
      <vel value="0.0111936555" flag="0"/>
      <psa03 value="0.0517189978" flag="0"/>
      <psa10 value="0.0158409683" flag="0"/>
      <psa30 value="0.0015782016" flag="0"/>
    </comp>
  </station>
  <station code="GONE" name="GONE" netid="KO" insttype="CMG-5T" commtype="DIG" lat="40.0466" lon="27.686">
    <comp name="--.HNE">
      <acc value="0.0600239732" flag="0"/>
      <vel value="0.0181653788" flag="0"/>
      <psa03 value="0.0614346269" flag="0"/>
      <psa10 value="0.0166823185" flag="0"/>
      <psa30 value="0.0013695645" flag="0"/>
    </comp>
    <comp name="--.HNN">
      <acc value="0.0677741469" flag="0"/>
      <vel value="0.0265194056" flag="0"/>
      <psa03 value="0.0816044413" flag="0"/>
      <psa10 value="0.0374940884" flag="0"/>
      <psa30 value="0.0022639230" flag="0"/>
    </comp>
  </station>
  <station code="GORD" name="GORD" netid="KO" insttype="CMG-5T" commtype="DIG" lat="38.9088" lon="28.1769">
    <comp name="--.HNN">
      <acc value="0.0944831699" flag="0"/>
      <vel value="0.0606113334" flag="0"/>
      <psa03 value="0.1364731230" flag="0"/>
      <psa10 value="0.0707792352" flag="0"/>
      <psa30 value="0.0042680385" flag="0"/>
    </comp>
    <comp name="--.HNZ">
      <acc value="0.0726792000" flag="0"/>
      <vel value="0.0314314889" flag="0"/>
      <psa03 value="0.0817635823" flag="0"/>
      <psa10 value="0.0507585256" flag="0"/>
      <psa30 value="0.0021553628" flag="0"/>
    </comp>
  </station>
  <station code="KCTX" name="KCTX" netid="KO" insttype="CMG-5T" commtype="DIG" lat="40.2626" lon="28.3353">
    <comp name="--.HNN">
      <acc value="0.0294078287" flag="0"/>
      <vel value="0.0135253388" flag="0"/>
      <psa03 value="0.1275843071" flag="0"/>
      <psa10 value="0.0080790910" flag="0"/>
      <psa30 value="0.0007086395" flag="0"/>
    </comp>
    <comp name="--.HNE">
      <acc value="0.0343703944" flag="0"/>
      <vel value="0.0149536504" flag="0"/>
      <psa03 value="0.0509065732" flag="0"/>
      <psa10 value="0.0241049018" flag="0"/>
      <psa30 value="0.0013322064" flag="0"/>
    </comp>
    <comp name="--.HNZ">
      <acc value="0.0309378584" flag="0"/>
      <vel value="0.0095539367" flag="0"/>
      <psa03 value="0.0814708956" flag="0"/>
      <psa10 value="0.0054033245" flag="0"/>
      <psa30 value="0.0005626915" flag="0"/>
    </comp>
  </station>
  <station code="ORLT" name="ORLT" netid="KO" insttype="CMG-5T" commtype="DIG" lat="40.0452" lon="28.8914">
    <comp name="--.HNN">
      <acc value="0.0727090043" flag="0"/>
      <vel value="0.0322198002" flag="0"/>
      <psa03 value="0.2666539512" flag="0"/>
      <psa10 value="0.0223351573" flag="0"/>
      <psa30 value="0.0018049354" flag="0"/>
    </comp>
    <comp name="--.HNE">
      <acc value="0.0698655078" flag="0"/>
      <vel value="0.0311033102" flag="0"/>
      <psa03 value="0.2525694598" flag="0"/>
      <psa10 value="0.0210516972" flag="0"/>
      <psa30 value="0.0017845284" flag="0"/>
    </comp>
    <comp name="--.HNZ">
      <acc value="0.0291486504" flag="0"/>
      <vel value="0.0106642889" flag="0"/>
      <psa03 value="0.0623042818" flag="0"/>
      <psa10 value="0.0136768632" flag="0"/>
      <psa30 value="0.0009821033" flag="0"/>
    </comp>
  </station>
  <station code="SHAP" name="SHAP" netid="KO" insttype="CMG-5T" commtype="DIG" lat="39.0231" lon="29.222">
    <comp name="--.HNN">
      <acc value="0.0811043323" flag="0"/>
      <vel value="0.0231892519" flag="0"/>
      <psa03 value="0.1322865848" flag="0"/>
      <psa10 value="0.0099722975" flag="0"/>
      <psa30 value="0.0010258046" flag="0"/>
    </comp>
    <comp name="--.HNE">
      <acc value="0.0669737619" flag="0"/>
      <vel value="0.0284296906" flag="0"/>
      <psa03 value="0.1772354070" flag="0"/>
      <psa10 value="0.0071271452" flag="0"/>
      <psa30 value="0.0006020517" flag="0"/>
    </comp>
    <comp name="--.HNZ">
      <acc value="0.0402525093" flag="0"/>
      <vel value="0.0099625751" flag="0"/>
      <psa03 value="0.0589641254" flag="0"/>
      <psa10 value="0.0065046377" flag="0"/>
      <psa30 value="0.0005700001" flag="0"/>
    </comp>
  </station>
  <station code="SMAA" name="SMAA" netid="KO" insttype="CMG-5T" commtype="DIG" lat="39.1005" lon="28.9805">
    <comp name="--.HNE">
      <acc value="0.0648079098" flag="0"/>
      <vel value="0.0403008852" flag="0"/>
      <psa03 value="0.1429178642" flag="0"/>
      <psa10 value="0.0407051911" flag="0"/>
      <psa30 value="0.0029205987" flag="0"/>
    </comp>
    <comp name="--.HNZ">
      <acc value="0.0338202216" flag="0"/>
      <vel value="0.0156748304" flag="0"/>
      <psa03 value="0.0466198869" flag="0"/>
      <psa10 value="0.0383475695" flag="0"/>
      <psa30 value="0.0016090906" flag="0"/>
    </comp>
    <comp name="--.HNN">
      <acc value="0.0504947008" flag="0"/>
      <vel value="0.0383995435" flag="0"/>
      <psa03 value="0.1065900578" flag="0"/>
      <psa10 value="0.0739229305" flag="0"/>
      <psa30 value="0.0046739067" flag="0"/>
    </comp>
  </station>
  <station code="SOMA" name="SOMA" netid="KO" insttype="CMG-5T" commtype="DIG" lat="39.1564" lon="27.5341">
    <comp name="--.HNZ">
      <acc value="0.1943190555" flag="0"/>
      <vel value="0.0796194437" flag="0"/>
      <psa03 value="0.2581658133" flag="0"/>
      <psa10 value="0.0247082681" flag="0"/>
      <psa30 value="0.0022425375" flag="0"/>
    </comp>
    <comp name="--.HNE">
      <acc value="0.1862439481" flag="0"/>
      <vel value="0.0727581262" flag="0"/>
      <psa03 value="0.2759948354" flag="0"/>
      <psa10 value="0.0394780868" flag="0"/>
      <psa30 value="0.0022774569" flag="0"/>
    </comp>
    <comp name="--.HNN">
      <acc value="0.2145077915" flag="0"/>
      <vel value="0.0724008995" flag="0"/>
      <psa03 value="0.3157046599" flag="0"/>
      <psa10 value="0.0735580513" flag="0"/>
      <psa30 value="0.0047617463" flag="0"/>
    </comp>
  </station>
  <station code="SUSR" name="SUSR" netid="KO" insttype="CMG-5T" commtype="DIG" lat="39.9627" lon="28.0835">
    <comp name="--.HNE">
      <acc value="0.0547890839" flag="0"/>
      <vel value="0.0172739286" flag="0"/>
      <psa03 value="0.0712116829" flag="0"/>
      <psa10 value="0.0054088069" flag="0"/>
      <psa30 value="0.0007104976" flag="0"/>
    </comp>
    <comp name="--.HNN">
      <acc value="0.0635615230" flag="0"/>
      <vel value="0.0201301141" flag="0"/>
      <psa03 value="0.1058264963" flag="0"/>
      <psa10 value="0.0053909702" flag="0"/>
      <psa30 value="0.0005066669" flag="0"/>
    </comp>
    <comp name="--.HNZ">
      <acc value="0.0454415091" flag="0"/>
      <vel value="0.0145350955" flag="0"/>
      <psa03 value="0.0516621850" flag="0"/>
      <psa10 value="0.0043131954" flag="0"/>
      <psa30 value="0.0004626675" flag="0"/>
    </comp>
  </station>
  <station code="YENI" name="YENI" netid="KO" insttype="CMG-5T" commtype="DIG" lat="39.9364" lon="27.2422">
    <comp name="--.HNE">
      <acc value="0.1267599286" flag="0"/>
      <vel value="0.0473179351" flag="0"/>
      <psa03 value="0.1439985968" flag="0"/>
      <psa10 value="0.0211531495" flag="0"/>
      <psa30 value="0.0013458063" flag="0"/>
    </comp>
    <comp name="--.HNZ">
      <acc value="0.0527161395" flag="0"/>
      <vel value="0.0121422017" flag="0"/>
      <psa03 value="0.0573544912" flag="0"/>
      <psa10 value="0.0086724984" flag="0"/>
      <psa30 value="0.0007512275" flag="0"/>
    </comp>
    <comp name="--.HNN">
      <acc value="0.1622742344" flag="0"/>
      <vel value="0.0635986070" flag="0"/>
      <psa03 value="0.1671867125" flag="0"/>
      <psa10 value="0.0469936736" flag="0"/>
      <psa30 value="0.0031826973" flag="0"/>
    </comp>
  </station>
</stationlist>
