<?xml version="1.0" encoding="UTF-8" standalone="yes"?>
<!DOCTYPE earthquake SYSTEM "stationlist.dtd">
<stationlist created="" xmlns="ch.ethz.sed.shakemap.usgs.xml">
  <station code="MYT1" name="MYT1" netid="HI" insttype="CMG-5TD,ACCELEROMETER,GURALP" commtype="DIG" lat="39.085" lon="26.5694">
    <comp name="--.HNE">
      <acc value="0.0479931657" flag="0"/>
      <vel value="0.0274877415" flag="0"/>
      <psa03 value="0.1244460827" flag="0"/>
      <psa10 value="0.0437657212" flag="0"/>
      <psa30 value="0.0023725283" flag="0"/>
    </comp>
    <comp name="--.HNN">
      <acc value="0.0452816637" flag="0"/>
      <vel value="0.0240447918" flag="0"/>
      <psa03 value="0.0833889232" flag="0"/>
      <psa10 value="0.0280440114" flag="0"/>
      <psa30 value="0.0024195721" flag="0"/>
    </comp>
    <comp name="--.HNZ">
      <acc value="0.0159407647" flag="0"/>
      <vel value="0.0112278414" flag="0"/>
      <psa03 value="0.0491132506" flag="0"/>
      <psa10 value="0.0118793908" flag="0"/>
      <psa30 value="0.0009034443" flag="0"/>
    </comp>
  </station>
  <station code="AKS" name="AKS" netid="KO" insttype="CMG-5T" commtype="DIG" lat="38.8785" lon="27.8129">
    <comp name="--.HNZ">
      <acc value="0.1567053239" flag="0"/>
      <vel value="0.0295947597" flag="0"/>
      <psa03 value="0.1075953641" flag="0"/>
      <psa10 value="0.0102459072" flag="0"/>
      <psa30 value="0.0009627748" flag="0"/>
    </comp>
    <comp name="--.HNE">
      <acc value="0.2078487131" flag="0"/>
      <vel value="0.0563381604" flag="0"/>
      <psa03 value="0.3136766904" flag="0"/>
      <psa10 value="0.0245196663" flag="0"/>
      <psa30 value="0.0021154525" flag="0"/>
    </comp>
    <comp name="--.HNN">
      <acc value="0.2193892699" flag="0"/>
      <vel value="0.0709931518" flag="0"/>
      <psa03 value="0.5009649455" flag="0"/>
      <psa10 value="0.0164650346" flag="0"/>
      <psa30 value="0.0018508234" flag="0"/>
    </comp>
  </station>
  <station code="AYVL" name="AYVL" netid="KO" insttype="CMG-6T" commtype="DIG" lat="39.2907" lon="26.69">
    <comp name="--.HHE">
      <acc value="0.0537473646" flag="0"/>
      <vel value="0.0174812004" flag="0"/>
      <psa03 value="0.1145819123" flag="0"/>
      <psa10 value="0.0124614744" flag="0"/>
      <psa30 value="0.0006439617" flag="0"/>
    </comp>
    <comp name="--.HHZ">
      <acc value="0.0847373198" flag="0"/>
      <vel value="0.0252703476" flag="0"/>
      <psa03 value="0.0983103406" flag="0"/>
      <psa10 value="0.0091237589" flag="0"/>
      <psa30 value="0.0008407037" flag="0"/>
    </comp>
  </station>
  <station code="BALB" name="BALB" netid="KO" insttype="CMG-5T" commtype="DIG" lat="39.6507" lon="27.8642">
    <comp name="--.HNZ">
      <acc value="0.0658412875" flag="0"/>
      <vel value="0.0230907918" flag="0"/>
      <psa03 value="0.0612937079" flag="0"/>
      <psa10 value="0.0345521175" flag="0"/>
      <psa30 value="0.0012719849" flag="0"/>
    </comp>
    <comp name="--.HNN">
      <acc value="0.0852439348" flag="0"/>
      <vel value="0.0247896481" flag="0"/>
      <psa03 value="0.1042861180" flag="0"/>
      <psa10 value="0.0239292195" flag="0"/>
      <psa30 value="0.0015920860" flag="0"/>
    </comp>
    <comp name="--.HNE">
      <acc value="0.0761398457" flag="0"/>
      <vel value="0.0305653463" flag="0"/>
      <psa03 value="0.0671606652" flag="0"/>
      <psa10 value="0.0463731560" flag="0"/>
      <psa30 value="0.0029693469" flag="0"/>
    </comp>
  </station>
  <station code="CANM" name="CANM" netid="KO" insttype="CMG-5T" commtype="DIG" lat="40.0113" lon="27.0529">
    <comp name="--.HNE">
      <acc value="0.0411183210" flag="0"/>
      <vel value="0.0235067105" flag="0"/>
      <psa03 value="0.0755182720" flag="0"/>
      <psa10 value="0.0269525468" flag="0"/>
      <psa30 value="0.0012353524" flag="0"/>
    </comp>
    <comp name="--.HNN">
      <acc value="0.0515516121" flag="0"/>
      <vel value="0.0325624680" flag="0"/>
      <psa03 value="0.0821077113" flag="0"/>
      <psa10 value="0.0642189066" flag="0"/>
      <psa30 value="0.0033478688" flag="0"/>
    </comp>
    <comp name="--.HNZ">
      <acc value="0.0414426855" flag="0"/>
      <vel value="0.0167723432" flag="0"/>
      <psa03 value="0.0585345516" flag="0"/>
      <psa10 value="0.0145255367" flag="0"/>
      <psa30 value="0.0008611191" flag="0"/>
    </comp>
  </station>
  <station code="DST" name="DST" netid="KO" insttype="CMG-5T" commtype="DIG" lat="39.6041" lon="28.6267">
    <comp name="--.HNZ">
      <acc value="0.0730571402" flag="0"/>
      <vel value="0.0209948990" flag="0"/>
      <psa03 value="0.1302135421" flag="0"/>
      <psa10 value="0.0090769023" flag="0"/>
      <psa30 value="0.0009852662" flag="0"/>
    </comp>
    <comp name="--.HNN">
      <acc value="0.1091853231" flag="0"/>
      <vel value="0.0286952220" flag="0"/>
      <psa03 value="0.1592997141" flag="0"/>
      <psa10 value="0.0134642121" flag="0"/>
      <psa30 value="0.0013101891" flag="0"/>
    </comp>
    <comp name="--.HNE">
      <acc value="0.0813028098" flag="0"/>
      <vel value="0.0205614698" flag="0"/>
      <psa03 value="0.1581290320" flag="0"/>
      <psa10 value="0.0150556664" flag="0"/>
      <psa30 value="0.0014278810" flag="0"/>
    </comp>
  </station>
  <station code="FOCM" name="FOCM" netid="KO" insttype="CMG-5T" commtype="DIG" lat="38.7131" lon="26.7309">
    <comp name="--.HNN">
      <acc value="0.0248047330" flag="0"/>
      <vel value="0.0111936854" flag="0"/>
      <psa03 value="0.0517189978" flag="0"/>
      <psa10 value="0.0158409679" flag="0"/>
      <psa30 value="0.0015754913" flag="0"/>
    </comp>
    <comp name="--.HNE">
      <acc value="0.0261224073" flag="0"/>
      <vel value="0.0133778003" flag="0"/>
      <psa03 value="0.0590528027" flag="0"/>
      <psa10 value="0.0103064682" flag="0"/>
      <psa30 value="0.0017424767" flag="0"/>
    </comp>
    <comp name="--.HNZ">
      <acc value="0.0221430795" flag="0"/>
      <vel value="0.0101357083" flag="0"/>
      <psa03 value="0.0544930073" flag="0"/>
      <psa10 value="0.0100914992" flag="0"/>
      <psa30 value="0.0008677612" flag="0"/>
    </comp>
  </station>
  <station code="GOMA" name="GOMA" netid="KO" insttype="CMG-5T" commtype="DIG" lat="38.7077" lon="27.9175">
    <comp name="--.HNZ">
      <acc value="0.0765346176" flag="0"/>
      <vel value="0.0225083775" flag="0"/>
      <psa03 value="0.0948566850" flag="0"/>
      <psa10 value="0.0077767084" flag="0"/>
      <psa30 value="0.0008194248" flag="0"/>
    </comp>
    <comp name="--.HNE">
      <acc value="0.1426711383" flag="0"/>
      <vel value="0.0493131448" flag="0"/>
      <psa03 value="0.2525641994" flag="0"/>
      <psa10 value="0.0210361123" flag="0"/>
      <psa30 value="0.0012780833" flag="0"/>
    </comp>
    <comp name="--.HNN">
      <acc value="0.0698993374" flag="0"/>
      <vel value="0.0248614551" flag="0"/>
      <psa03 value="0.1628622136" flag="0"/>
      <psa10 value="0.0106687463" flag="0"/>
      <psa30 value="0.0008411290" flag="0"/>
    </comp>
  </station>
  <station code="GONE" name="GONE" netid="KO" insttype="CMG-5T" commtype="DIG" lat="40.0466" lon="27.686">
    <comp name="--.HNE">
      <acc value="0.0600239712" flag="0"/>
      <vel value="0.0181653807" flag="0"/>
      <psa03 value="0.0614346269" flag="0"/>
      <psa10 value="0.0166823185" flag="0"/>
      <psa30 value="0.0013720103" flag="0"/>
    </comp>
    <comp name="--.HNN">
      <acc value="0.0677741481" flag="0"/>
      <vel value="0.0265194110" flag="0"/>
      <psa03 value="0.0816044413" flag="0"/>
      <psa10 value="0.0374940892" flag="0"/>
      <psa30 value="0.0022683874" flag="0"/>
    </comp>
  </station>
  <station code="GORD" name="GORD" netid="KO" insttype="CMG-5T" commtype="DIG" lat="38.9088" lon="28.1769">
    <comp name="--.HNN">
      <acc value="0.0944831642" flag="0"/>
      <vel value="0.0606113320" flag="0"/>
      <psa03 value="0.1364731230" flag="0"/>
      <psa10 value="0.0707792233" flag="0"/>
      <psa30 value="0.0042634716" flag="0"/>
    </comp>
    <comp name="--.HNZ">
      <acc value="0.0726791961" flag="0"/>
      <vel value="0.0314314945" flag="0"/>
      <psa03 value="0.0817635823" flag="0"/>
      <psa10 value="0.0507585251" flag="0"/>
      <psa30 value="0.0021549270" flag="0"/>
    </comp>
  </station>
  <station code="KCTX" name="KCTX" netid="KO" insttype="CMG-5T" commtype="DIG" lat="40.2626" lon="28.3353">
    <comp name="--.HNE">
      <acc value="0.0343703921" flag="0"/>
      <vel value="0.0149536457" flag="0"/>
      <psa03 value="0.0509065732" flag="0"/>
      <psa10 value="0.0241049020" flag="0"/>
      <psa30 value="0.0013337312" flag="0"/>
    </comp>
    <comp name="--.HNN">
      <acc value="0.0294078326" flag="0"/>
      <vel value="0.0135253409" flag="0"/>
      <psa03 value="0.1275843071" flag="0"/>
      <psa10 value="0.0080790352" flag="0"/>
      <psa30 value="0.0007088456" flag="0"/>
    </comp>
    <comp name="--.HNZ">
      <acc value="0.0309378611" flag="0"/>
      <vel value="0.0095539332" flag="0"/>
      <psa03 value="0.0814708956" flag="0"/>
      <psa10 value="0.0054033763" flag="0"/>
      <psa30 value="0.0005633954" flag="0"/>
    </comp>
  </station>
  <station code="ORLT" name="ORLT" netid="KO" insttype="CMG-5T" commtype="DIG" lat="40.0452" lon="28.8914">
    <comp name="--.HNE">
      <acc value="0.0698655102" flag="0"/>
      <vel value="0.0311033077" flag="0"/>
      <psa03 value="0.2525694598" flag="0"/>
      <psa10 value="0.0210516972" flag="0"/>
      <psa30 value="0.0017858189" flag="0"/>
    </comp>
    <comp name="--.HNN">
      <acc value="0.0727089966" flag="0"/>
      <vel value="0.0322198118" flag="0"/>
      <psa03 value="0.2666539512" flag="0"/>
      <psa10 value="0.0223351563" flag="0"/>
      <psa30 value="0.0018044481" flag="0"/>
    </comp>
    <comp name="--.HNZ">
      <acc value="0.0291486670" flag="0"/>
      <vel value="0.0106642810" flag="0"/>
      <psa03 value="0.0623042818" flag="0"/>
      <psa10 value="0.0136768632" flag="0"/>
      <psa30 value="0.0009814452" flag="0"/>
    </comp>
  </station>
  <station code="SHAP" name="SHAP" netid="KO" insttype="CMG-5T" commtype="DIG" lat="39.0231" lon="29.222">
    <comp name="--.HNE">
      <acc value="0.0669737617" flag="0"/>
      <vel value="0.0284296886" flag="0"/>
      <psa03 value="0.1772354070" flag="0"/>
      <psa10 value="0.0071271447" flag="0"/>
      <psa30 value="0.0006013657" flag="0"/>
    </comp>
    <comp name="--.HNN">
      <acc value="0.0811043323" flag="0"/>
      <vel value="0.0231892443" flag="0"/>
      <psa03 value="0.1322865848" flag="0"/>
      <psa10 value="0.0099722979" flag="0"/>
      <psa30 value="0.0010242661" flag="0"/>
    </comp>
    <comp name="--.HNZ">
      <acc value="0.0402525099" flag="0"/>
      <vel value="0.0099625662" flag="0"/>
      <psa03 value="0.0589641254" flag="0"/>
      <psa10 value="0.0065046377" flag="0"/>
      <psa30 value="0.0005662791" flag="0"/>
    </comp>
  </station>
  <station code="SMAA" name="SMAA" netid="KO" insttype="CMG-5T" commtype="DIG" lat="39.1005" lon="28.9805">
    <comp name="--.HNZ">
      <acc value="0.0338202191" flag="0"/>
      <vel value="0.0156748095" flag="0"/>
      <psa03 value="0.0466198869" flag="0"/>
      <psa10 value="0.0383475695" flag="0"/>
      <psa30 value="0.0016077514" flag="0"/>
    </comp>
    <comp name="--.HNE">
      <acc value="0.0648079053" flag="0"/>
      <vel value="0.0403008849" flag="0"/>
      <psa03 value="0.1429178642" flag="0"/>
      <psa10 value="0.0407051898" flag="0"/>
      <psa30 value="0.0029206467" flag="0"/>
    </comp>
    <comp name="--.HNN">
      <acc value="0.0504946997" flag="0"/>
      <vel value="0.0383995251" flag="0"/>
      <psa03 value="0.1065900578" flag="0"/>
      <psa10 value="0.0739229303" flag="0"/>
      <psa30 value="0.0046764551" flag="0"/>
    </comp>
  </station>
  <station code="SOMA" name="SOMA" netid="KO" insttype="CMG-5T" commtype="DIG" lat="39.1564" lon="27.5341">
    <comp name="--.HNE">
      <acc value="0.1862439488" flag="0"/>
      <vel value="0.0727581233" flag="0"/>
      <psa03 value="0.2759948354" flag="0"/>
      <psa10 value="0.0394780862" flag="0"/>
      <psa30 value="0.0022784517" flag="0"/>
    </comp>
    <comp name="--.HNZ">
      <acc value="0.1943190541" flag="0"/>
      <vel value="0.0796194520" flag="0"/>
      <psa03 value="0.2581658133" flag="0"/>
      <psa10 value="0.0247082604" flag="0"/>
      <psa30 value="0.0022401212" flag="0"/>
    </comp>
    <comp name="--.HNN">
      <acc value="0.2145077916" flag="0"/>
      <vel value="0.0724008918" flag="0"/>
      <psa03 value="0.3157046599" flag="0"/>
      <psa10 value="0.0735580424" flag="0"/>
      <psa30 value="0.0047676745" flag="0"/>
    </comp>
  </station>
  <station code="SUSR" name="SUSR" netid="KO" insttype="CMG-5T" commtype="DIG" lat="39.9627" lon="28.0835">
    <comp name="--.HNE">
      <acc value="0.0547890780" flag="0"/>
      <vel value="0.0172739189" flag="0"/>
      <psa03 value="0.0712116829" flag="0"/>
      <psa10 value="0.0054088072" flag="0"/>
      <psa30 value="0.0007094610" flag="0"/>
    </comp>
    <comp name="--.HNZ">
      <acc value="0.0454415101" flag="0"/>
      <vel value="0.0145350906" flag="0"/>
      <psa03 value="0.0516621850" flag="0"/>
      <psa10 value="0.0043131948" flag="0"/>
      <psa30 value="0.0004655729" flag="0"/>
    </comp>
    <comp name="--.HNN">
      <acc value="0.0635615266" flag="0"/>
      <vel value="0.0201301140" flag="0"/>
      <psa03 value="0.1058264963" flag="0"/>
      <psa10 value="0.0053909711" flag="0"/>
      <psa30 value="0.0005063912" flag="0"/>
    </comp>
  </station>
  <station code="YENI" name="YENI" netid="KO" insttype="CMG-5T" commtype="DIG" lat="39.9364" lon="27.2422">
    <comp name="--.HNN">
      <acc value="0.1622742057" flag="0"/>
      <vel value="0.0635985975" flag="0"/>
      <psa03 value="0.1671867125" flag="0"/>
      <psa10 value="0.0469936699" flag="0"/>
      <psa30 value="0.0031822566" flag="0"/>
    </comp>
    <comp name="--.HNE">
      <acc value="0.1267599463" flag="0"/>
      <vel value="0.0473179418" flag="0"/>
      <psa03 value="0.1439985968" flag="0"/>
      <psa10 value="0.0211531479" flag="0"/>
      <psa30 value="0.0013483799" flag="0"/>
    </comp>
    <comp name="--.HNZ">
      <acc value="0.0527161309" flag="0"/>
      <vel value="0.0121421803" flag="0"/>
      <psa03 value="0.0573544912" flag="0"/>
      <psa10 value="0.0086724984" flag="0"/>
      <psa30 value="0.0007518829" flag="0"/>
    </comp>
  </station>
</stationlist>
