<stationlist created="1778069775">
	<station code="KTHA" name="KTHA" netid="GE" source="GEOFON" insttype="" lat="36.2566" lon="23.0621">
		<comp name="--.HNE" depth="0.0">
			<acc value="0.556457883506169" flag="0"/>
			<vel value="0.304519632542093" flag="0"/>
			<psa03 value="0.963657646144337" flag="0"/>
			<psa10 value="0.243440109099686" flag="0"/>
			<psa30 value="0.0164803443857742" flag="0"/>
		</comp>
		<comp name="--.HNN" depth="0.0">
			<acc value="0.378424378367798" flag="0"/>
			<vel value="0.152202880764128" flag="0"/>
			<psa03 value="1.0666542057796" flag="0"/>
			<psa10 value="0.209139838661986" flag="0"/>
			<psa30 value="0.0124996302629466" flag="0"/>
		</comp>
		<comp name="--.HNZ" depth="0.0">
			<acc value="0.28024950080819" flag="0"/>
			<vel value="0.0911045069972983" flag="0"/>
			<psa03 value="0.515295993622636" flag="0"/>
			<psa10 value="0.0430545305846305" flag="0"/>
			<psa30 value="0.0062625666603595" flag="0"/>
		</comp>
	</station>
	<station code="LTRS" name="LTRS" netid="HA" source="Hellenic Seismological Network, University of Athens, Seismological Laboratory (HA)" insttype="" lat="37.97528" lon="22.9765">
		<comp name="--.HNE" depth="0.0">
			<acc value="0.0939413022360823" flag="0"/>
			<vel value="0.0671120750212233" flag="0"/>
			<psa03 value="0.246529558466677" flag="0"/>
			<psa10 value="0.0762474314085278" flag="0"/>
			<psa30 value="0.0117895714439146" flag="0"/>
		</comp>
		<comp name="--.HNN" depth="0.0">
			<acc value="0.10604522680222" flag="0"/>
			<vel value="0.0614991868147561" flag="0"/>
			<psa03 value="0.299056909036528" flag="0"/>
			<psa10 value="0.0848285392158462" flag="0"/>
			<psa30 value="0.00853502333450152" flag="0"/>
		</comp>
		<comp name="--.HNZ" depth="0.0">
			<acc value="0.104646327076442" flag="0"/>
			<vel value="0.0480370601549294" flag="0"/>
			<psa03 value="0.128768070647386" flag="0"/>
			<psa10 value="0.0791950479805396" flag="0"/>
			<psa30 value="0.00684913698912504" flag="0"/>
		</comp>
	</station>
	<station code="XLKS" name="XLKS" netid="HA" source="Hellenic Seismological Network, University of Athens, Seismological Laboratory (HA)" insttype="" lat="38.0772" lon="22.6361">
		<comp name="--.HNE" depth="0.0">
			<acc value="0.159110692409432" flag="0"/>
			<vel value="0.0913458765816661" flag="0"/>
			<psa03 value="0.331718719867867" flag="0"/>
			<psa10 value="0.144163416522667" flag="0"/>
			<psa30 value="0.0122311770232369" flag="0"/>
		</comp>
		<comp name="--.HNN" depth="0.0">
			<acc value="0.186465280299823" flag="0"/>
			<vel value="0.084431353743977" flag="0"/>
			<psa03 value="0.369794337700016" flag="0"/>
			<psa10 value="0.111538294300756" flag="0"/>
			<psa30 value="0.0115399099309846" flag="0"/>
		</comp>
		<comp name="--.HNZ" depth="0.0">
			<acc value="0.10674174959566" flag="0"/>
			<vel value="0.0511376556788003" flag="0"/>
			<psa03 value="0.313240188534521" flag="0"/>
			<psa10 value="0.0478907156979995" flag="0"/>
			<psa30 value="0.00567912828605723" flag="0"/>
		</comp>
	</station>
	<station code="ARS1" name="ARS1" netid="HI" source="ITSAK Strong Motion Network" insttype="" lat="37.6349" lon="22.7293">
		<comp name="--.HNE" depth="0.0">
			<acc value="0.20149858579433" flag="0"/>
			<vel value="0.121194332066402" flag="0"/>
			<psa03 value="0.586794039798634" flag="0"/>
			<psa10 value="0.173438242313002" flag="0"/>
			<psa30 value="0.00913949054591437" flag="0"/>
		</comp>
		<comp name="--.HNN" depth="0.0">
			<acc value="0.204076159357596" flag="0"/>
			<vel value="0.0979984000236943" flag="0"/>
			<psa03 value="0.541156989047997" flag="0"/>
			<psa10 value="0.0823399776837379" flag="0"/>
			<psa30 value="0.0070598727822971" flag="0"/>
		</comp>
		<comp name="--.HNZ" depth="0.0">
			<acc value="0.290853718028615" flag="0"/>
			<vel value="0.0764789237513077" flag="0"/>
			<psa03 value="0.515385478035872" flag="0"/>
			<psa10 value="0.0437149255543162" flag="0"/>
			<psa30 value="0.00300354433028458" flag="0"/>
		</comp>
	</station>
	<station code="ATH5" name="ATH5" netid="HI" source="ITSAK Strong Motion Network" insttype="" lat="37.975421" lon="23.737098">
		<comp name="--.HNE" depth="0.0">
			<acc value="0.0679309262279695" flag="0"/>
			<vel value="0.0728945373913036" flag="0"/>
			<psa03 value="0.139461458029153" flag="0"/>
			<psa10 value="0.0786031085869798" flag="0"/>
			<psa30 value="0.0114007616684018" flag="0"/>
		</comp>
		<comp name="--.HNN" depth="0.0">
			<acc value="0.0354637069897148" flag="0"/>
			<vel value="0.0252823693811629" flag="0"/>
			<psa03 value="0.0706032020436328" flag="0"/>
			<psa10 value="0.0289607354998749" flag="0"/>
			<psa30 value="0.00345499319506294" flag="0"/>
		</comp>
		<comp name="--.HNZ" depth="0.0">
			<acc value="0.023952283701146" flag="0"/>
			<vel value="0.0147718156817185" flag="0"/>
			<psa03 value="0.0464871526763844" flag="0"/>
			<psa10 value="0.0126119332015584" flag="0"/>
			<psa30 value="0.00132436931590084" flag="0"/>
		</comp>
	</station>
	<station code="CH01" name="CH01" netid="HI" source="ITSAK Strong Motion Network" insttype="" lat="35.517" lon="24.0208">
		<comp name="--.HNE" depth="0.0">
			<acc value="0.317493829286662" flag="0"/>
			<vel value="0.0784067798244227" flag="0"/>
			<psa03 value="0.79556117587949" flag="0"/>
			<psa10 value="0.0586422679483702" flag="0"/>
			<psa30 value="0.00834755348877096" flag="0"/>
		</comp>
		<comp name="--.HNN" depth="0.0">
			<acc value="0.23703970432069" flag="0"/>
			<vel value="0.100542468917741" flag="0"/>
			<psa03 value="0.692475131830992" flag="0"/>
			<psa10 value="0.0668851246736544" flag="0"/>
			<psa30 value="0.00679544634118311" flag="0"/>
		</comp>
		<comp name="--.HNZ" depth="0.0">
			<acc value="0.135753889116685" flag="0"/>
			<vel value="0.0410614657885026" flag="0"/>
			<psa03 value="0.19288365273137" flag="0"/>
			<psa10 value="0.0503188752511731" flag="0"/>
			<psa30 value="0.00354313534210094" flag="0"/>
		</comp>
	</station>
	<station code="KLV1" name="KLV1" netid="HI" source="ITSAK Strong Motion Network" insttype="" lat="38.03256" lon="22.10797">
		<comp name="--.HNE" depth="0.0">
			<acc value="0.0936662278368701" flag="0"/>
			<vel value="0.0589220568099817" flag="0"/>
			<psa03 value="0.253777795938837" flag="0"/>
			<psa10 value="0.0421686348935888" flag="0"/>
			<psa30 value="0.00463350291738822" flag="0"/>
		</comp>
		<comp name="--.HNN" depth="0.0">
			<acc value="0.0915715745216729" flag="0"/>
			<vel value="0.0465215353906262" flag="0"/>
			<psa03 value="0.167559563785428" flag="0"/>
			<psa10 value="0.0428129226688919" flag="0"/>
			<psa30 value="0.00454491334828404" flag="0"/>
		</comp>
		<comp name="--.HNZ" depth="0.0">
			<acc value="0.0353118964772293" flag="0"/>
			<vel value="0.0203247586273191" flag="0"/>
			<psa03 value="0.0617889873398333" flag="0"/>
			<psa10 value="0.0176132170573489" flag="0"/>
			<psa30 value="0.00225590205769326" flag="0"/>
		</comp>
	</station>
	<station code="NPS1" name="NPS1" netid="HI" source="ITSAK Strong Motion Network" insttype="" lat="36.51263" lon="23.06248">
		<comp name="--.HNE" depth="0.0">
			<acc value="0.636131195229761" flag="0"/>
			<vel value="0.206599128128215" flag="0"/>
			<psa03 value="1.06262740718395" flag="0"/>
			<psa10 value="0.18263947710405" flag="0"/>
			<psa30 value="0.0113953926036076" flag="0"/>
		</comp>
		<comp name="--.HNN" depth="0.0">
			<acc value="0.78228920911685" flag="0"/>
			<vel value="0.340374351744013" flag="0"/>
			<psa03 value="1.19197712651738" flag="0"/>
			<psa10 value="0.30579508535324" flag="0"/>
			<psa30 value="0.0224297155998058" flag="0"/>
		</comp>
		<comp name="--.HNZ" depth="0.0">
			<acc value="0.674013339322314" flag="0"/>
			<vel value="0.228511797506676" flag="0"/>
			<psa03 value="1.11077002150521" flag="0"/>
			<psa10 value="0.0708072265058121" flag="0"/>
			<psa30 value="0.0052813700692208" flag="0"/>
		</comp>
	</station>
	<station code="PYL1" name="PYL1" netid="HI" source="ITSAK Strong Motion Network" insttype="" lat="36.914188" lon="21.695161">
		<comp name="--.HNE" depth="0.0">
			<acc value="0.0698950661596766" flag="0"/>
			<vel value="0.0381854346740172" flag="0"/>
			<psa03 value="0.17319708181933" flag="0"/>
			<psa10 value="0.0348881830326636" flag="0"/>
			<psa30 value="0.00533416587303036" flag="0"/>
		</comp>
		<comp name="--.HNN" depth="0.0">
			<acc value="0.0671306735523805" flag="0"/>
			<vel value="0.0262231770825819" flag="0"/>
			<psa03 value="0.156955660816897" flag="0"/>
			<psa10 value="0.0245352838432617" flag="0"/>
			<psa30 value="0.00312792766468338" flag="0"/>
		</comp>
		<comp name="--.HNZ" depth="0.0">
			<acc value="0.0573132928846109" flag="0"/>
			<vel value="0.0183070186738903" flag="0"/>
			<psa03 value="0.0777619551025563" flag="0"/>
			<psa10 value="0.0161917571530864" flag="0"/>
			<psa30 value="0.00297848869457835" flag="0"/>
		</comp>
	</station>
	<station code="ATHP" name="ATHP" netid="HL" source="National Observatory of Athens Seismic Network" insttype="" lat="38.000799" lon="23.773487">
		<comp name="00.HNE" depth="0.0">
			<acc value="0.0389738487911519" flag="0"/>
			<vel value="0.069644484035847" flag="0"/>
			<psa03 value="0.0954351267167737" flag="0"/>
			<psa10 value="0.071375005107798" flag="0"/>
			<psa30 value="0.0129009678563125" flag="0"/>
		</comp>
		<comp name="00.HNN" depth="0.0">
			<acc value="0.0391394824890911" flag="0"/>
			<vel value="0.0268671750980742" flag="0"/>
			<psa03 value="0.105323154379412" flag="0"/>
			<psa10 value="0.0351821393301456" flag="0"/>
			<psa30 value="0.00361874967128582" flag="0"/>
		</comp>
		<comp name="00.HNZ" depth="0.0">
			<acc value="0.0343055026327614" flag="0"/>
			<vel value="0.0219964618855628" flag="0"/>
			<psa03 value="0.0547197186941464" flag="0"/>
			<psa10 value="0.0281352417877678" flag="0"/>
			<psa30 value="0.00244605643582092" flag="0"/>
		</comp>
	</station>
	<station code="DLFA" name="DLFA" netid="HL" source="National Observatory of Athens Seismic Network" insttype="" lat="38.47836" lon="22.49583">
		<comp name="00.HNE" depth="0.0">
			<acc value="0.0177539389321729" flag="0"/>
			<vel value="0.0127096682464959" flag="0"/>
			<psa03 value="0.0534669369088348" flag="0"/>
			<psa10 value="0.0129703182765708" flag="0"/>
			<psa30 value="0.0023404648282018" flag="0"/>
		</comp>
		<comp name="00.HNN" depth="0.0">
			<acc value="0.0182551528476168" flag="0"/>
			<vel value="0.0123267800354099" flag="0"/>
			<psa03 value="0.0402679859564446" flag="0"/>
			<psa10 value="0.0158414256752653" flag="0"/>
			<psa30 value="0.00269303341635378" flag="0"/>
		</comp>
		<comp name="00.HNZ" depth="0.0">
			<acc value="0.0195233566833469" flag="0"/>
			<vel value="0.011386860979871" flag="0"/>
			<psa03 value="0.0489927162470076" flag="0"/>
			<psa10 value="0.00938244072785159" flag="0"/>
			<psa30 value="0.000846969971283884" flag="0"/>
		</comp>
	</station>
	<station code="IACM" name="IACM" netid="HL" source="National Observatory of Athens Seismic Network" insttype="" lat="35.3058" lon="25.0709">
		<comp name="--.HNE" depth="0.0">
			<acc value="0.29688191896496" flag="0"/>
			<vel value="0.159437895560637" flag="0"/>
			<psa03 value="0.838782147472741" flag="0"/>
			<psa10 value="0.145053339012305" flag="0"/>
			<psa30 value="0.0113434916439304" flag="0"/>
		</comp>
		<comp name="--.HNN" depth="0.0">
			<acc value="0.358312472931047" flag="0"/>
			<vel value="0.25034500056802" flag="0"/>
			<psa03 value="0.662274142363659" flag="0"/>
			<psa10 value="0.185937425153883" flag="0"/>
			<psa30 value="0.0101618499671419" flag="0"/>
		</comp>
		<comp name="--.HNZ" depth="0.0">
			<acc value="0.217031441283088" flag="0"/>
			<vel value="0.0950615046128097" flag="0"/>
			<psa03 value="0.459368235349796" flag="0"/>
			<psa10 value="0.0868419385136684" flag="0"/>
			<psa30 value="0.00455699374407098" flag="0"/>
		</comp>
	</station>
	<station code="IMMV" name="IMMV" netid="HL" source="National Observatory of Athens Seismic Network" insttype="" lat="35.4606" lon="23.9811">
		<comp name="--.HNE" depth="0.0">
			<acc value="0.106251858738204" flag="0"/>
			<vel value="0.0627429114828894" flag="0"/>
			<psa03 value="0.240444618366592" flag="0"/>
			<psa10 value="0.0549738544277381" flag="0"/>
			<psa30 value="0.00496683235669435" flag="0"/>
		</comp>
		<comp name="--.HNN" depth="0.0">
			<acc value="0.0938235797338989" flag="0"/>
			<vel value="0.0483665573939301" flag="0"/>
			<psa03 value="0.325499553147927" flag="0"/>
			<psa10 value="0.0707911193114296" flag="0"/>
			<psa30 value="0.00315969463138235" flag="0"/>
		</comp>
		<comp name="--.HNZ" depth="0.0">
			<acc value="0.0889707623247807" flag="0"/>
			<vel value="0.0359717123140047" flag="0"/>
			<psa03 value="0.233867513993706" flag="0"/>
			<psa10 value="0.0380250591386706" flag="0"/>
			<psa30 value="0.00326081201833964" flag="0"/>
		</comp>
	</station>
	<station code="ITM" name="ITM" netid="HL" source="National Observatory of Athens Seismic Network" insttype="" lat="37.17872" lon="21.92522">
		<comp name="--.HNE" depth="0.0">
			<acc value="0.157444344202074" flag="0"/>
			<vel value="0.0528598867844735" flag="0"/>
			<psa03 value="0.210109402279404" flag="0"/>
			<psa10 value="0.0396921537572674" flag="0"/>
			<psa30 value="0.00412836340466793" flag="0"/>
		</comp>
		<comp name="--.HNN" depth="0.0">
			<acc value="0.141866015036705" flag="0"/>
			<vel value="0.0383172767903676" flag="0"/>
			<psa03 value="0.189035822962198" flag="0"/>
			<psa10 value="0.0573859067865292" flag="0"/>
			<psa30 value="0.00309123905525639" flag="0"/>
		</comp>
		<comp name="--.HNZ" depth="0.0">
			<acc value="0.274424980433493" flag="0"/>
			<vel value="0.0508724663461469" flag="0"/>
			<psa03 value="0.198789624004981" flag="0"/>
			<psa10 value="0.0470048200069577" flag="0"/>
			<psa30 value="0.00289526819026836" flag="0"/>
		</comp>
	</station>
	<station code="KTHA" name="KTHA" netid="HL" source="National Observatory of Athens Seismic Network" insttype="" lat="36.2566" lon="23.0621">
		<comp name="--.HNE" depth="0.0">
			<acc value="5.24690339720304" flag="0"/>
			<vel value="2.06319174356165" flag="0"/>
			<psa03 value="7.58335659973088" flag="0"/>
			<psa10 value="1.6408479453504" flag="0"/>
			<psa30 value="0.11220942740003" flag="0"/>
		</comp>
		<comp name="--.HNN" depth="0.0">
			<acc value="2.86521710017984" flag="0"/>
			<vel value="1.37255162128964" flag="0"/>
			<psa03 value="8.82951653846298" flag="0"/>
			<psa10 value="1.50985216023548" flag="0"/>
			<psa30 value="0.0621169477143452" flag="0"/>
		</comp>
		<comp name="--.HNZ" depth="0.0">
			<acc value="2.25788756698001" flag="0"/>
			<vel value="0.823158672230327" flag="0"/>
			<psa03 value="4.08809541871149" flag="0"/>
			<psa10 value="0.312217829113293" flag="0"/>
			<psa30 value="0.021622118770346" flag="0"/>
		</comp>
	</station>
	<station code="KYMI" name="KYMI" netid="HL" source="National Observatory of Athens Seismic Network" insttype="" lat="38.633147" lon="24.100138">
		<comp name="--.HNE" depth="1.0">
			<acc value="0.00893670842624971" flag="0"/>
			<vel value="0.00667340770182153" flag="0"/>
			<psa03 value="0.0164203898289057" flag="0"/>
			<psa10 value="0.00616905544852731" flag="0"/>
			<psa30 value="0.00250824810302031" flag="0"/>
		</comp>
		<comp name="--.HNN" depth="1.0">
			<acc value="0.00632480221263863" flag="0"/>
			<vel value="0.0108440622153152" flag="0"/>
			<psa03 value="0.0123935912332613" flag="0"/>
			<psa10 value="0.0106106142995231" flag="0"/>
			<psa30 value="0.00237536374936405" flag="0"/>
		</comp>
		<comp name="--.HNZ" depth="1.0">
			<acc value="0.00513784292803304" flag="0"/>
			<vel value="0.00399824278658456" flag="0"/>
			<psa03 value="0.0101117386957294" flag="0"/>
			<psa10 value="0.00599187631031895" flag="0"/>
			<psa30 value="0.00146396500054985" flag="0"/>
		</comp>
	</station>
	<station code="MNVA" name="MNVA" netid="HL" source="National Observatory of Athens Seismic Network" insttype="" lat="36.68709" lon="23.03734">
		<comp name="00.HNE" depth="0.0">
			<acc value="0.264789367391099" flag="0"/>
			<vel value="0.17752864787009" flag="0"/>
			<psa03 value="0.778156457504983" flag="0"/>
			<psa10 value="0.190588377531852" flag="0"/>
			<psa30 value="0.0150508308843204" flag="0"/>
		</comp>
		<comp name="00.HNN" depth="0.0">
			<acc value="0.459033938036663" flag="0"/>
			<vel value="0.148063789861798" flag="0"/>
			<psa03 value="0.560709333340182" flag="0"/>
			<psa10 value="0.0785829745940016" flag="0"/>
			<psa30 value="0.00430509512081011" flag="0"/>
		</comp>
		<comp name="00.HNZ" depth="0.0">
			<acc value="0.255468558473946" flag="0"/>
			<vel value="0.0967789708579297" flag="0"/>
			<psa03 value="0.435028474949456" flag="0"/>
			<psa10 value="0.0961921648527548" flag="0"/>
			<psa30 value="0.00660260743065836" flag="0"/>
		</comp>
	</station>
	<station code="NOAC" name="NOAC" netid="HL" source="National Observatory of Athens Seismic Network" insttype="" lat="37.97384" lon="23.71767">
		<comp name="00.HNE" depth="0.0">
			<acc value="0.0621619998580368" flag="0"/>
			<vel value="0.0725733559619374" flag="0"/>
			<psa03 value="0.0937349228652793" flag="0"/>
			<psa10 value="0.0623630298507457" flag="0"/>
			<psa30 value="0.0121072411109043" flag="0"/>
		</comp>
		<comp name="00.HNN" depth="0.0">
			<acc value="0.0375057503846361" flag="0"/>
			<vel value="0.0377571804996902" flag="0"/>
			<psa03 value="0.0727508279613099" flag="0"/>
			<psa10 value="0.0317150657392957" flag="0"/>
			<psa30 value="0.00390957401430459" flag="0"/>
		</comp>
		<comp name="00.HNZ" depth="0.0">
			<acc value="0.0529238183195976" flag="0"/>
			<vel value="0.0189323229747345" flag="0"/>
			<psa03 value="0.126888897969419" flag="0"/>
			<psa10 value="0.0151246555252406" flag="0"/>
			<psa30 value="0.0024724543377257" flag="0"/>
		</comp>
	</station>
	<station code="PATC" name="PATC" netid="HL" source="National Observatory of Athens Seismic Network" insttype="" lat="38.26933" lon="21.76001">
		<comp name="00.HNE" depth="0.0">
			<acc value="0.0359347170283092" flag="0"/>
			<vel value="0.0509542131567226" flag="0"/>
			<psa03 value="0.0919452346005485" flag="0"/>
			<psa10 value="0.0679965210860523" flag="0"/>
			<psa30 value="0.0096280754421859" flag="0"/>
		</comp>
		<comp name="00.HNN" depth="0.0">
			<acc value="0.0299758590051394" flag="0"/>
			<vel value="0.0324152447722515" flag="0"/>
			<psa03 value="0.0877394671784309" flag="0"/>
			<psa10 value="0.0732595468505596" flag="0"/>
			<psa30 value="0.00922181620609199" flag="0"/>
		</comp>
		<comp name="00.HNZ" depth="0.0">
			<acc value="0.0303707148893512" flag="0"/>
			<vel value="0.0191887157890966" flag="0"/>
			<psa03 value="0.0553013673801839" flag="0"/>
			<psa10 value="0.0406585854202221" flag="0"/>
			<psa30 value="0.00426974877758167" flag="0"/>
		</comp>
	</station>
	<station code="SIVA" name="SIVA" netid="HL" source="National Observatory of Athens Seismic Network" insttype="" lat="35.01777" lon="24.81204">
		<comp name="00.HNE" depth="0.0">
			<acc value="0.0475002466036207" flag="0"/>
			<vel value="0.0334099855694915" flag="0"/>
			<psa03 value="0.120803957869334" flag="0"/>
			<psa10 value="0.04333237968773" flag="0"/>
			<psa30 value="0.00381114115974439" flag="0"/>
		</comp>
		<comp name="00.HNN" depth="0.0">
			<acc value="0.0703372687100226" flag="0"/>
			<vel value="0.0388467896419877" flag="0"/>
			<psa03 value="0.140445786574755" flag="0"/>
			<psa10 value="0.0424988323784316" flag="0"/>
			<psa30 value="0.00198207975318944" flag="0"/>
		</comp>
		<comp name="00.HNZ" depth="0.0">
			<acc value="0.0302184797795682" flag="0"/>
			<vel value="0.0206805530367542" flag="0"/>
			<psa03 value="0.0830862776901306" flag="0"/>
			<psa10 value="0.0121891193490158" flag="0"/>
			<psa30 value="0.00140222075541664" flag="0"/>
		</comp>
	</station>
	<station code="YDRA" name="YDRA" netid="HL" source="National Observatory of Athens Seismic Network" insttype="" lat="37.34923" lon="23.46525">
