<?xml version="1.0" encoding="UTF-8" standalone="yes"?>
<!DOCTYPE earthquake SYSTEM "stationlist.dtd">
<stationlist created="" xmlns="ch.ethz.sed.shakemap.usgs.xml">
  <station code="ACOR" name="ACOR" netid="HA" insttype="30" lat="37.8902" lon="22.8692">
    <comp name="--.HHE">
      <acc value="0.0333469186" flag="0"/>
      <vel value="0.0248619830" flag="0"/>
      <psa03 value="0.0767893618" flag="0"/>
      <psa10 value="0.0319836633" flag="0"/>
      <psa30 value="0.0056283450" flag="0"/>
    </comp>
    <comp name="--.HHZ">
      <acc value="0.0394830726" flag="0"/>
      <vel value="0.0146256365" flag="0"/>
      <psa03 value="0.0635139508" flag="0"/>
      <psa10 value="0.0289559124" flag="0"/>
      <psa30 value="0.0019735428" flag="0"/>
    </comp>
    <comp name="--.HHN">
      <acc value="0.0363526308" flag="0"/>
      <vel value="0.0220354858" flag="0"/>
      <psa03 value="0.0805418755" flag="0"/>
      <psa10 value="0.0381602698" flag="0"/>
      <psa30 value="0.0037273177" flag="0"/>
    </comp>
  </station>
  <station code="ATHU" name="ATHU" netid="HA" insttype="60" lat="37.9665" lon="23.7845">
    <comp name="--.HHZ">
      <acc value="0.0217310189" flag="0"/>
      <vel value="0.0177307284" flag="0"/>
      <psa03 value="0.0514532592" flag="0"/>
      <psa10 value="0.0262129406" flag="0"/>
      <psa30 value="0.0019479748" flag="0"/>
    </comp>
    <comp name="--.HHE">
      <acc value="0.0124720593" flag="0"/>
      <vel value="0.0126392202" flag="0"/>
      <psa03 value="0.0288101624" flag="0"/>
      <psa10 value="0.0105901414" flag="0"/>
      <psa30 value="0.0029035542" flag="0"/>
    </comp>
    <comp name="--.HHN">
      <acc value="0.0197879817" flag="0"/>
      <vel value="0.0304646983" flag="0"/>
      <psa03 value="0.0358464510" flag="0"/>
      <psa10 value="0.0296432573" flag="0"/>
      <psa30 value="0.0061943201" flag="0"/>
    </comp>
  </station>
  <station code="KARY" name="KARY" netid="HA" insttype="60" lat="38.0321" lon="24.437">
    <comp name="--.HHZ">
      <acc value="0.0278604658" flag="0"/>
      <vel value="0.0138575856" flag="0"/>
      <psa03 value="0.0491476444" flag="0"/>
      <psa10 value="0.0065244110" flag="0"/>
      <psa30 value="0.0010658978" flag="0"/>
    </comp>
    <comp name="--.HHE">
      <acc value="0.0166910877" flag="0"/>
      <vel value="0.0124433440" flag="0"/>
      <psa03 value="0.0297986305" flag="0"/>
      <psa10 value="0.0105240179" flag="0"/>
      <psa30 value="0.0017404626" flag="0"/>
    </comp>
    <comp name="--.HHN">
      <acc value="0.0252996896" flag="0"/>
      <vel value="0.0143323033" flag="0"/>
      <psa03 value="0.0804550700" flag="0"/>
      <psa10 value="0.0123359216" flag="0"/>
      <psa30 value="0.0013286035" flag="0"/>
    </comp>
  </station>
  <station code="LOUT" name="LOUT" netid="HA" insttype="30" lat="37.9879" lon="22.9743">
    <comp name="--.HHE">
      <acc value="0.0911322102" flag="0"/>
      <vel value="0.0328278524" flag="0"/>
      <psa03 value="0.1504096631" flag="0"/>
      <psa10 value="0.0477392510" flag="0"/>
      <psa30 value="0.0059230836" flag="0"/>
    </comp>
    <comp name="--.HHN">
      <acc value="0.0750786280" flag="0"/>
      <vel value="0.0335026081" flag="0"/>
      <psa03 value="0.1240447685" flag="0"/>
      <psa10 value="0.0369332177" flag="0"/>
      <psa30 value="0.0030580411" flag="0"/>
    </comp>
    <comp name="--.HHZ">
      <acc value="0.0564184567" flag="0"/>
      <vel value="0.0229431451" flag="0"/>
      <psa03 value="0.0789526288" flag="0"/>
      <psa10 value="0.0301507914" flag="0"/>
      <psa30 value="0.0030738296" flag="0"/>
    </comp>
  </station>
  <station code="MAGU" name="MAGU" netid="HA" insttype="30" lat="38.0788" lon="23.5134">
    <comp name="--.HHZ">
      <acc value="0.0259355228" flag="0"/>
      <vel value="0.0084972301" flag="0"/>
      <psa03 value="0.0414340492" flag="0"/>
      <psa10 value="0.0124255498" flag="0"/>
      <psa30 value="0.0016654177" flag="0"/>
    </comp>
    <comp name="--.HHE">
      <acc value="0.0292422393" flag="0"/>
      <vel value="0.0291005083" flag="0"/>
      <psa03 value="0.0760691694" flag="0"/>
      <psa10 value="0.0154885654" flag="0"/>
      <psa30 value="0.0072359619" flag="0"/>
    </comp>
    <comp name="--.HHN">
      <acc value="0.0240140852" flag="0"/>
      <vel value="0.0179366534" flag="0"/>
      <psa03 value="0.0460125753" flag="0"/>
      <psa10 value="0.0294511570" flag="0"/>
      <psa30 value="0.0021228755" flag="0"/>
    </comp>
  </station>
  <station code="SNT5" name="SNT5" netid="HA" insttype="1s-100Hz," lat="36.4037" lon="25.3953">
    <comp name="--.HHZ">
      <acc value="0.0189964524" flag="0"/>
      <vel value="0.0258707122" flag="0"/>
      <psa03 value="0.0361621356" flag="0"/>
      <psa10 value="0.0183501418" flag="0"/>
      <psa30 value="0.0082089525" flag="0"/>
    </comp>
    <comp name="--.HHN">
      <acc value="0.0370082330" flag="0"/>
      <vel value="0.0288441307" flag="0"/>
      <psa03 value="0.0910286965" flag="0"/>
      <psa10 value="0.0288519320" flag="0"/>
      <psa30 value="0.0124188462" flag="0"/>
    </comp>
    <comp name="--.HHE">
      <acc value="0.0532609363" flag="0"/>
      <vel value="0.0470356023" flag="0"/>
      <psa03 value="0.1622469201" flag="0"/>
      <psa10 value="0.0278412460" flag="0"/>
      <psa30 value="0.0166205483" flag="0"/>
    </comp>
  </station>
  <station code="STFN" name="STFN" netid="HA" insttype="1s-100Hz," lat="38.1766" lon="23.544">
    <comp name="--.HHN">
      <acc value="0.0305512177" flag="0"/>
      <vel value="0.0340802116" flag="0"/>
      <psa03 value="0.0581726682" flag="0"/>
      <psa10 value="0.0443548226" flag="0"/>
      <psa30 value="0.0049150899" flag="0"/>
    </comp>
    <comp name="--.HHZ">
      <acc value="0.0147731088" flag="0"/>
      <vel value="0.0138893413" flag="0"/>
      <psa03 value="0.0261382824" flag="0"/>
      <psa10 value="0.0151385129" flag="0"/>
      <psa30 value="0.0026211370" flag="0"/>
    </comp>
    <comp name="--.HHE">
      <acc value="0.0205704462" flag="0"/>
      <vel value="0.0435906257" flag="0"/>
      <psa03 value="0.0560921338" flag="0"/>
      <psa10 value="0.0507054809" flag="0"/>
      <psa30 value="0.0092997682" flag="0"/>
    </comp>
  </station>
  <station code="THAL" name="THAL" netid="HA" insttype="30" lat="38.0357" lon="22.6634">
    <comp name="--.HHZ">
      <acc value="0.1364195412" flag="0"/>
      <vel value="0.0403047849" flag="0"/>
      <psa03 value="0.1738419606" flag="0"/>
      <psa10 value="0.0565568881" flag="0"/>
      <psa30 value="0.0023970349" flag="0"/>
    </comp>
    <comp name="--.HHE">
      <acc value="0.1806858978" flag="0"/>
      <vel value="0.0789028619" flag="0"/>
      <psa03 value="0.4012419860" flag="0"/>
      <psa10 value="0.0844600900" flag="0"/>
      <psa30 value="0.0066044063" flag="0"/>
    </comp>
    <comp name="--.HHN">
      <acc value="0.1962027876" flag="0"/>
      <vel value="0.0747167644" flag="0"/>
      <psa03 value="0.3325482732" flag="0"/>
      <psa10 value="0.0661203431" flag="0"/>
      <psa30 value="0.0064203742" flag="0"/>
    </comp>
  </station>
  <station code="VILL" name="VILL" netid="HA" insttype="30" lat="38.1642" lon="23.3122">
    <comp name="--.HHZ">
      <acc value="0.0167898126" flag="0"/>
      <vel value="0.0079221108" flag="0"/>
      <psa03 value="0.0414523189" flag="0"/>
      <psa10 value="0.0174164967" flag="0"/>
      <psa30 value="0.0013410621" flag="0"/>
    </comp>
    <comp name="--.HHE">
      <acc value="0.0306836559" flag="0"/>
      <vel value="0.0258665344" flag="0"/>
      <psa03 value="0.0552296391" flag="0"/>
      <psa10 value="0.0430862123" flag="0"/>
      <psa30 value="0.0061733671" flag="0"/>
    </comp>
    <comp name="--.HHN">
      <acc value="0.0287780236" flag="0"/>
      <vel value="0.0358257813" flag="0"/>
      <psa03 value="0.0578819543" flag="0"/>
      <psa10 value="0.0362042739" flag="0"/>
      <psa30 value="0.0048058121" flag="0"/>
    </comp>
  </station>
  <station code="CHAN" name="CHAN" netid="HC" insttype="120" lat="35.5193" lon="24.0428">
    <comp name="--.HHE">
      <acc value="0.2842967331" flag="0"/>
      <vel value="0.1400047223" flag="0"/>
      <psa03 value="0.8384471745" flag="0"/>
      <psa10 value="0.0841802778" flag="0"/>
      <psa30 value="0.0141580984" flag="0"/>
    </comp>
    <comp name="--.HHZ">
      <acc value="0.3536103704" flag="0"/>
      <vel value="0.0930690716" flag="0"/>
      <psa03 value="0.8355662923" flag="0"/>
      <psa10 value="0.0551656452" flag="0"/>
      <psa30 value="0.0052826165" flag="0"/>
    </comp>
    <comp name="--.HHN">
      <acc value="0.3789466573" flag="0"/>
      <vel value="0.1697081536" flag="0"/>
      <psa03 value="1.0420452426" flag="0"/>
      <psa10 value="0.1229620783" flag="0"/>
      <psa30 value="0.0082055603" flag="0"/>
    </comp>
  </station>
  <station code="ARS1" name="ARS1" netid="HI" insttype="CMG-5TD,ACCELEROMETER,GURALP" lat="37.6349" lon="22.7293">
    <comp name="--.HNE">
      <acc value="0.2013155477" flag="0"/>
      <vel value="0.1208989774" flag="0"/>
      <psa03 value="0.5769138543" flag="0"/>
      <psa10 value="0.1731066851" flag="0"/>
      <psa30 value="0.0090280737" flag="0"/>
    </comp>
    <comp name="--.HNN">
      <acc value="0.2034490327" flag="0"/>
      <vel value="0.0971894696" flag="0"/>
      <psa03 value="0.5402162243" flag="0"/>
      <psa10 value="0.0821507213" flag="0"/>
      <psa30 value="0.0071006065" flag="0"/>
    </comp>
    <comp name="--.HNZ">
      <acc value="0.2891059654" flag="0"/>
      <vel value="0.0756369828" flag="0"/>
      <psa03 value="0.5160972545" flag="0"/>
      <psa10 value="0.0436177385" flag="0"/>
      <psa30 value="0.0030042142" flag="0"/>
    </comp>
  </station>
  <station code="ATH5" name="ATH5" netid="HI" insttype="CMG-5TD,ACCELEROMETER,GURALP" lat="37.9754" lon="23.7371">
    <comp name="--.HNE">
      <acc value="0.0679122104" flag="0"/>
      <vel value="0.0724318812" flag="0"/>
      <psa03 value="0.1400797725" flag="0"/>
      <psa10 value="0.0785661852" flag="0"/>
      <psa30 value="0.0112469785" flag="0"/>
    </comp>
    <comp name="--.HNN">
      <acc value="0.0350936226" flag="0"/>
      <vel value="0.0254685833" flag="0"/>
      <psa03 value="0.0691849870" flag="0"/>
      <psa10 value="0.0289048504" flag="0"/>
      <psa30 value="0.0034836948" flag="0"/>
    </comp>
    <comp name="--.HNZ">
      <acc value="0.0238939056" flag="0"/>
      <vel value="0.0147164016" flag="0"/>
      <psa03 value="0.0467508097" flag="0"/>
      <psa10 value="0.0126100500" flag="0"/>
      <psa30 value="0.0013177327" flag="0"/>
    </comp>
  </station>
  <station code="CH01" name="CH01" netid="HI" insttype="CMG-5TD,ACCELEROMETER,GURALP" lat="35.517" lon="24.0208">
    <comp name="--.HNN">
      <acc value="0.2345430634" flag="0"/>
      <vel value="0.0998329072" flag="0"/>
      <psa03 value="0.6936724909" flag="0"/>
      <psa10 value="0.0668197648" flag="0"/>
      <psa30 value="0.0068089837" flag="0"/>
    </comp>
    <comp name="--.HNE">
      <acc value="0.3175436258" flag="0"/>
      <vel value="0.0772529936" flag="0"/>
      <psa03 value="0.7918109806" flag="0"/>
      <psa10 value="0.0585488375" flag="0"/>
      <psa30 value="0.0082564501" flag="0"/>
    </comp>
    <comp name="--.HNZ">
      <acc value="0.1363177233" flag="0"/>
      <vel value="0.0404653857" flag="0"/>
      <psa03 value="0.1918195517" flag="0"/>
      <psa10 value="0.0502459367" flag="0"/>
      <psa30 value="0.0035378785" flag="0"/>
    </comp>
  </station>
  <station code="NAX1" name="NAX1" netid="HI" insttype="CMG-5TD,ACCELEROMETER,GURALP" lat="37.1014" lon="25.3741">
    <comp name="--.HNN">
      <acc value="0.0308675351" flag="0"/>
      <vel value="0.0237623214" flag="0"/>
      <psa03 value="0.0731541278" flag="0"/>
      <psa10 value="0.0244270495" flag="0"/>
      <psa30 value="0.0023245346" flag="0"/>
    </comp>
    <comp name="--.HNE">
      <acc value="0.0250474871" flag="0"/>
      <vel value="0.0281133445" flag="0"/>
      <psa03 value="0.0372915756" flag="0"/>
      <psa10 value="0.0253639969" flag="0"/>
      <psa30 value="0.0051256723" flag="0"/>
    </comp>
    <comp name="--.HNZ">
      <acc value="0.0315027398" flag="0"/>
      <vel value="0.0179153687" flag="0"/>
      <psa03 value="0.0600658670" flag="0"/>
      <psa10 value="0.0122226356" flag="0"/>
      <psa30 value="0.0029704314" flag="0"/>
    </comp>
  </station>
  <station code="NPS1" name="NPS1" netid="HI" insttype="CMG-5TD,ACCELEROMETER,GURALP" lat="36.5126" lon="23.0625">
    <comp name="--.HNE">
      <acc value="0.6320433299" flag="0"/>
      <vel value="0.2040048336" flag="0"/>
      <psa03 value="1.0612596507" flag="0"/>
      <psa10 value="0.1821045424" flag="0"/>
      <psa30 value="0.0115302054" flag="0"/>
    </comp>
    <comp name="--.HNZ">
      <acc value="0.6914530280" flag="0"/>
      <vel value="0.2257968753" flag="0"/>
      <psa03 value="1.0932783450" flag="0"/>
      <psa10 value="0.0705260527" flag="0"/>
      <psa30 value="0.0052838313" flag="0"/>
    </comp>
    <comp name="--.HNN">
      <acc value="0.7817749696" flag="0"/>
      <vel value="0.3389946352" flag="0"/>
      <psa03 value="1.1818930443" flag="0"/>
      <psa10 value="0.3055741698" flag="0"/>
      <psa30 value="0.0222583793" flag="0"/>
    </comp>
  </station>
  <station code="ANKY" name="ANKY" netid="HL" insttype="60" lat="35.867" lon="23.3012">
    <comp name="--.HHZ">
      <acc value="0.0737813823" flag="0"/>
      <vel value="0.0306760611" flag="0"/>
      <psa03 value="0.1938071990" flag="0"/>
      <psa10 value="0.0256459945" flag="0"/>
      <psa30 value="0.0012374265" flag="0"/>
    </comp>
    <comp name="--.HHN">
      <acc value="0.0817829955" flag="0"/>
      <vel value="0.0478305890" flag="0"/>
      <psa03 value="0.3913519092" flag="0"/>
      <psa10 value="0.0329794251" flag="0"/>
      <psa30 value="0.0022231622" flag="0"/>
    </comp>
    <comp name="--.HHE">
      <acc value="0.1020408253" flag="0"/>
      <vel value="0.0586820935" flag="0"/>
      <psa03 value="0.2108180523" flag="0"/>
      <psa10 value="0.0553481099" flag="0"/>
      <psa30 value="0.0028618647" flag="0"/>
    </comp>
  </station>
  <station code="ATH" name="ATH" netid="HL" insttype="DR24" lat="37.9738" lon="23.7177">
    <comp name="--.HHZ">
      <acc value="0.0527843125" flag="0"/>
      <vel value="0.0188808871" flag="0"/>
      <psa03 value="0.1236482911" flag="0"/>
      <psa10 value="0.0151298067" flag="0"/>
      <psa30 value="0.0024673976" flag="0"/>
    </comp>
    <comp name="--.HHN">
      <acc value="0.0383552167" flag="0"/>
      <vel value="0.0381441477" flag="0"/>
      <psa03 value="0.0745817597" flag="0"/>
      <psa10 value="0.0326009244" flag="0"/>
      <psa30 value="0.0042477558" flag="0"/>
    </comp>
    <comp name="--.HHE">
      <acc value="0.0601477714" flag="0"/>
      <vel value="0.0706475032" flag="0"/>
      <psa03 value="0.0933398888" flag="0"/>
      <psa10 value="0.0606686716" flag="0"/>
      <psa30 value="0.0116265685" flag="0"/>
    </comp>
  </station>
  <station code="ATHP" name="ATHP" netid="HL" insttype="CMG-5" lat="38.0008" lon="23.7735">
    <comp name="00.HNE">
      <acc value="0.0392916155" flag="0"/>
      <vel value="0.0691196815" flag="0"/>
      <psa03 value="0.0952060265" flag="0"/>
      <psa10 value="0.0714704538" flag="0"/>
      <psa30 value="0.0127471849" flag="0"/>
    </comp>
    <comp name="00.HNN">
      <acc value="0.0395573897" flag="0"/>
      <vel value="0.0265415731" flag="0"/>
      <psa03 value="0.1047694597" flag="0"/>
      <psa10 value="0.0351324180" flag="0"/>
      <psa30 value="0.0035627767" flag="0"/>
    </comp>
    <comp name="00.HNZ">
      <acc value="0.0350919727" flag="0"/>
      <vel value="0.0219974183" flag="0"/>
      <psa03 value="0.0546416678" flag="0"/>
      <psa10 value="0.0281183641" flag="0"/>
      <psa30 value="0.0024216329" flag="0"/>
    </comp>
  </station>
  <station code="DION" name="DION" netid="HL" insttype="30" lat="38.0779" lon="23.9331">
    <comp name="--.HHN">
      <acc value="0.0329717352" flag="0"/>
      <vel value="0.0295250652" flag="0"/>
      <psa03 value="0.0645908816" flag="0"/>
      <psa10 value="0.0330250345" flag="0"/>
      <psa30 value="0.0028760839" flag="0"/>
    </comp>
    <comp name="--.HHE">
      <acc value="0.0549421856" flag="0"/>
      <vel value="0.0445284066" flag="0"/>
      <psa03 value="0.0959809052" flag="0"/>
      <psa10 value="0.0296023132" flag="0"/>
      <psa30 value="0.0102192599" flag="0"/>
    </comp>
    <comp name="--.HHZ">
      <acc value="0.0318434292" flag="0"/>
      <vel value="0.0155381446" flag="0"/>
      <psa03 value="0.0610859645" flag="0"/>
      <psa10 value="0.0223906765" flag="0"/>
      <psa30 value="0.0018530742" flag="0"/>
    </comp>
  </station>
  <station code="IMMV" name="IMMV" netid="HL" insttype="120" lat="35.4606" lon="23.9811">
    <comp name="--.HHE">
      <acc value="0.1073116749" flag="0"/>
      <vel value="0.0639312037" flag="0"/>
      <psa03 value="0.2491920286" flag="0"/>
      <psa10 value="0.0558803054" flag="0"/>
      <psa30 value="0.0050836661" flag="0"/>
    </comp>
    <comp name="--.HHZ">
      <acc value="0.0890985038" flag="0"/>
      <vel value="0.0357956248" flag="0"/>
      <psa03 value="0.2369109166" flag="0"/>
      <psa10 value="0.0380155970" flag="0"/>
      <psa30 value="0.0032780282" flag="0"/>
    </comp>
    <comp name="--.HHN">
      <acc value="0.0961592440" flag="0"/>
      <vel value="0.0489552026" flag="0"/>
      <psa03 value="0.3347475953" flag="0"/>
      <psa10 value="0.0717513614" flag="0"/>
      <psa30 value="0.0032087529" flag="0"/>
    </comp>
  </station>
  <station code="ITM" name="ITM" netid="HL" insttype="DR24" lat="37.1787" lon="21.9252">
    <comp name="--.HHE">
      <acc value="0.1560094702" flag="0"/>
      <vel value="0.0536646980" flag="0"/>
      <psa03 value="0.2156128525" flag="0"/>
      <psa10 value="0.0398869728" flag="0"/>
      <psa30 value="0.0042142563" flag="0"/>
    </comp>
    <comp name="--.HHN">
      <acc value="0.1399694277" flag="0"/>
      <vel value="0.0396308457" flag="0"/>
      <psa03 value="0.1854265010" flag="0"/>
      <psa10 value="0.0585486201" flag="0"/>
      <psa30 value="0.0032009312" flag="0"/>
    </comp>
    <comp name="--.HHZ">
      <acc value="0.2877003084" flag="0"/>
      <vel value="0.0514703702" flag="0"/>
      <psa03 value="0.2127624501" flag="0"/>
      <psa10 value="0.0502393129" flag="0"/>
      <psa30 value="0.0029836320" flag="0"/>
    </comp>
  </station>
  <station code="KTHA" name="KTHA" netid="HL" insttype="120" lat="36.2566" lon="23.0621">
    <comp name="--.HHN">
      <acc value="0.4017070174" flag="0"/>
      <vel value="0.1653859391" flag="0"/>
      <psa03 value="1.0536731726" flag="0"/>
      <psa10 value="0.2210334878" flag="0"/>
      <psa30 value="0.0130375356" flag="0"/>
    </comp>
    <comp name="--.HHE">
      <acc value="0.5667003143" flag="0"/>
      <vel value="0.3092298825" flag="0"/>
      <psa03 value="0.9773911943" flag="0"/>
      <psa10 value="0.2449239925" flag="0"/>
      <psa30 value="0.0159129710" flag="0"/>
    </comp>
    <comp name="--.HHZ">
      <acc value="0.2827048865" flag="0"/>
      <vel value="0.0941188941" flag="0"/>
      <psa03 value="0.5211067436" flag="0"/>
      <psa10 value="0.0477541788" flag="0"/>
      <psa30 value="0.0047031158" flag="0"/>
    </comp>
  </station>
  <station code="MHLO" name="MHLO" netid="HL" insttype="20" lat="36.6898" lon="24.4017">
    <comp name="--.HHN">
      <acc value="0.1819110353" flag="0"/>
      <vel value="0.1953853030" flag="0"/>
      <psa03 value="0.5906921229" flag="0"/>
      <psa10 value="0.2932859818" flag="0"/>
      <psa30 value="0.0127263636" flag="0"/>
    </comp>
    <comp name="--.HHZ">
      <acc value="0.1432724559" flag="0"/>
