<?xml version="1.0" encoding="UTF-8" standalone="yes"?>
<!DOCTYPE earthquake SYSTEM "stationlist.dtd">
<stationlist created="" xmlns="ch.ethz.sed.shakemap.usgs.xml">
  <station code="BNN" name="BNN" netid="KO" insttype="CMG-3T" lat="38.8521" lon="35.8472">
    <comp name="--.HHZ">
      <acc value="0.0037896779" flag="0"/>
      <vel value="0.0022348256" flag="0"/>
      <psa03 value="0.0105674967" flag="0"/>
      <psa10 value="0.0018043492" flag="0"/>
      <psa30 value="0.0001553897" flag="0"/>
    </comp>
  </station>
  <station code="DARE" name="DARE" netid="KO" insttype="CMG-3ESP" lat="38.5712" lon="37.4832">
    <comp name="--.HHN">
      <acc value="0.0054687852" flag="0"/>
      <vel value="0.0026606579" flag="0"/>
      <psa03 value="0.0140692079" flag="0"/>
      <psa10 value="0.0024347487" flag="0"/>
      <psa30 value="0.0002166303" flag="0"/>
    </comp>
  </station>
  <station code="KMRS" name="KMRS" netid="KO" insttype="CMG-3T" lat="37.5053" lon="36.9">
    <comp name="--.HHE">
      <acc value="0.0185287308" flag="0"/>
      <vel value="0.0163804753" flag="0"/>
      <psa03 value="0.0294658798" flag="0"/>
      <psa10 value="0.0167793010" flag="0"/>
      <psa30 value="0.0009214526" flag="0"/>
    </comp>
    <comp name="--.HHN">
      <acc value="0.0256025569" flag="0"/>
      <vel value="0.0121901837" flag="0"/>
      <psa03 value="0.0620494726" flag="0"/>
      <psa10 value="0.0055294064" flag="0"/>
      <psa30 value="0.0010308859" flag="0"/>
    </comp>
    <comp name="--.HHZ">
      <acc value="0.0122945080" flag="0"/>
      <vel value="0.0078156491" flag="0"/>
      <psa03 value="0.0219078701" flag="0"/>
      <psa10 value="0.0052761462" flag="0"/>
      <psa30 value="0.0006992707" flag="0"/>
    </comp>
  </station>
  <station code="SARI" name="SARI" netid="KO" insttype="CMG-3T" lat="38.4072" lon="36.4181">
    <comp name="--.HHE">
      <acc value="0.0727595993" flag="0"/>
      <vel value="0.0186424094" flag="0"/>
      <psa03 value="0.0908263425" flag="0"/>
      <psa10 value="0.0096629809" flag="0"/>
      <psa30 value="0.0006350346" flag="0"/>
    </comp>
  </station>
  <station code="ANDN" name="ANDN" netid="TU" insttype="T" lat="37.58" lon="36.3452">
    <comp name="--.HHE">
      <acc value="0.0864369561" flag="0"/>
      <vel value="0.0270633779" flag="0"/>
      <psa03 value="0.1822772064" flag="0"/>
      <psa10 value="0.0151066701" flag="0"/>
      <psa30 value="0.0017743558" flag="0"/>
    </comp>
    <comp name="--.HHZ">
      <acc value="0.0466848975" flag="0"/>
      <vel value="0.0189972050" flag="0"/>
      <psa03 value="0.0917839382" flag="0"/>
      <psa10 value="0.0165056463" flag="0"/>
      <psa30 value="0.0011608881" flag="0"/>
    </comp>
    <comp name="--.HHN">
      <acc value="0.1083188202" flag="0"/>
      <vel value="0.0314741293" flag="0"/>
      <psa03 value="0.2459197711" flag="0"/>
      <psa10 value="0.0225579834" flag="0"/>
      <psa30 value="0.0015923461" flag="0"/>
    </comp>
  </station>
</stationlist>
