<?xml version="1.0" encoding="UTF-8" standalone="yes"?>
<!DOCTYPE earthquake SYSTEM "stationlist.dtd">
<stationlist created="" xmlns="ch.ethz.sed.shakemap.usgs.xml">
  <station code="APE" name="APE" netid="GE" insttype="STS-2/N" commtype="DIG" lat="37.0727" lon="25.523">
    <comp name="--.HHE">
      <acc value="0.8818945277" flag="0"/>
      <vel value="0.4945207144" flag="0"/>
      <psa03 value="1.8460580476" flag="0"/>
      <psa10 value="0.2876628980" flag="0"/>
      <psa30 value="0.0372316670" flag="0"/>
    </comp>
    <comp name="--.HHZ">
      <acc value="0.3971311027" flag="0"/>
      <vel value="0.2104931302" flag="0"/>
      <psa03 value="0.9890096810" flag="0"/>
      <psa10 value="0.2186897960" flag="0"/>
      <psa30 value="0.0265980032" flag="0"/>
    </comp>
    <comp name="--.HHN">
      <acc value="1.1048655560" flag="0"/>
      <vel value="0.3960687790" flag="0"/>
      <psa03 value="1.3739863676" flag="0"/>
      <psa10 value="0.4303936299" flag="0"/>
      <psa30 value="0.0279605387" flag="0"/>
    </comp>
  </station>
  <station code="IMMV" name="IMMV" netid="GE" insttype="STS-2/N" commtype="DIG" lat="35.4606" lon="23.9811">
    <comp name="--.HHZ">
      <acc value="0.6158691785" flag="0"/>
      <vel value="0.3814316219" flag="0"/>
      <psa03 value="1.7791392668" flag="0"/>
      <psa10 value="0.7385167773" flag="0"/>
      <psa30 value="0.0731567729" flag="0"/>
    </comp>
    <comp name="--.HHN">
      <acc value="1.0900487532" flag="0"/>
      <vel value="0.7980349513" flag="0"/>
      <psa03 value="3.5309463457" flag="0"/>
      <psa10 value="1.3784890171" flag="0"/>
      <psa30 value="0.1094376674" flag="0"/>
    </comp>
    <comp name="--.HHE">
      <acc value="0.8624274655" flag="0"/>
      <vel value="0.7023521291" flag="0"/>
      <psa03 value="1.7054786023" flag="0"/>
      <psa10 value="1.4172356288" flag="0"/>
      <psa30 value="0.0846657182" flag="0"/>
    </comp>
  </station>
  <station code="KARP" name="KARP" netid="GE" insttype="STS-2/N" commtype="DIG" lat="35.5471" lon="27.1611">
    <comp name="--.HHE">
      <acc value="0.0829475485" flag="0"/>
      <vel value="0.0076355316" flag="0"/>
      <psa03 value="0.0273488268" flag="0"/>
      <psa10 value="0.0012739300" flag="0"/>
      <psa30 value="0.0000797837" flag="0"/>
    </comp>
    <comp name="--.HHZ">
      <acc value="0.0684074251" flag="0"/>
      <vel value="0.0068682597" flag="0"/>
      <psa03 value="0.0151621340" flag="0"/>
      <psa10 value="0.0016643813" flag="0"/>
      <psa30 value="0.0000979980" flag="0"/>
    </comp>
    <comp name="--.HHN">
      <acc value="0.0624014530" flag="0"/>
      <vel value="0.0058107436" flag="0"/>
      <psa03 value="0.0168272412" flag="0"/>
      <psa10 value="0.0014989527" flag="0"/>
      <psa30 value="0.0000618803" flag="0"/>
    </comp>
  </station>
  <station code="THERA" name="THERA" netid="GE" insttype="STS-2/N" commtype="DIG" lat="36.367" lon="25.4753">
    <comp name="--.HHZ">
      <acc value="1.7938418565" flag="0"/>
      <vel value="0.6029052524" flag="0"/>
      <psa03 value="3.5992064937" flag="0"/>
      <psa10 value="0.5038208628" flag="0"/>
      <psa30 value="0.0344963716" flag="0"/>
    </comp>
    <comp name="--.HHN">
      <acc value="3.8364607953" flag="0"/>
      <vel value="1.1233669918" flag="0"/>
      <psa03 value="4.7710265577" flag="0"/>
      <psa10 value="0.7913901735" flag="0"/>
      <psa30 value="0.0466755931" flag="0"/>
    </comp>
    <comp name="--.HHE">
      <acc value="2.2797332364" flag="0"/>
      <vel value="0.8074347594" flag="0"/>
      <psa03 value="3.2082962522" flag="0"/>
      <psa10 value="0.7925058188" flag="0"/>
      <psa30 value="0.0832181126" flag="0"/>
    </comp>
  </station>
  <station code="BODA" name="BODA" netid="KO" insttype="SA10" commtype="DIG" lat="37.0348" lon="27.4304">
    <comp name="--.HNE">
      <acc value="0.2475549194" flag="0"/>
      <vel value="0.1175692374" flag="0"/>
      <psa03 value="1.0417399085" flag="0"/>
      <psa10 value="0.1048368080" flag="0"/>
      <psa30 value="0.0185034610" flag="0"/>
    </comp>
    <comp name="--.HNN">
      <acc value="0.2247191953" flag="0"/>
      <vel value="0.1541447284" flag="0"/>
      <psa03 value="0.8555914808" flag="0"/>
      <psa10 value="0.1563644263" flag="0"/>
      <psa30 value="0.0261271484" flag="0"/>
    </comp>
    <comp name="--.HNZ">
      <acc value="0.0605112484" flag="0"/>
      <vel value="0.0537471770" flag="0"/>
      <psa03 value="0.1709122547" flag="0"/>
      <psa10 value="0.0631194733" flag="0"/>
      <psa30 value="0.0178877557" flag="0"/>
    </comp>
  </station>
  <station code="BODT" name="BODT" netid="KO" insttype="CMG-3ESP" commtype="DIG" lat="37.0622" lon="27.3103">
    <comp name="--.HHE">
      <acc value="0.3203525433" flag="0"/>
      <vel value="0.1627970044" flag="0"/>
      <psa03 value="0.9241208699" flag="0"/>
      <psa10 value="0.2035855190" flag="0"/>
      <psa30 value="0.0190801418" flag="0"/>
    </comp>
    <comp name="--.HHN">
      <acc value="0.2532471530" flag="0"/>
      <vel value="0.1843385549" flag="0"/>
      <psa03 value="0.4091862770" flag="0"/>
      <psa10 value="0.2358896083" flag="0"/>
      <psa30 value="0.0211494489" flag="0"/>
    </comp>
    <comp name="--.HHZ">
      <acc value="0.0856746213" flag="0"/>
      <vel value="0.0435326856" flag="0"/>
      <psa03 value="0.1271493637" flag="0"/>
      <psa10 value="0.0400463262" flag="0"/>
      <psa30 value="0.0061986901" flag="0"/>
    </comp>
  </station>
  <station code="DAT" name="DAT" netid="KO" insttype="CMG-3T" commtype="DIG" lat="36.7308" lon="27.5767">
    <comp name="--.HHE">
      <acc value="0.2444186714" flag="0"/>
      <vel value="0.2673541261" flag="0"/>
      <psa03 value="0.4201654079" flag="0"/>
      <psa10 value="0.2846415714" flag="0"/>
      <psa30 value="0.0512181526" flag="0"/>
    </comp>
    <comp name="--.HHN">
      <acc value="0.2998708164" flag="0"/>
      <vel value="0.2774053722" flag="0"/>
      <psa03 value="0.7994365333" flag="0"/>
      <psa10 value="0.3235111915" flag="0"/>
      <psa30 value="0.0325787449" flag="0"/>
    </comp>
    <comp name="--.HHZ">
      <acc value="0.0000299305" flag="0"/>
      <vel value="0.0000045896" flag="0"/>
      <psa03 value="0.0000127623" flag="0"/>
      <psa10 value="0.0000044286" flag="0"/>
      <psa30 value="0.0000006976" flag="0"/>
    </comp>
  </station>
  <station code="DATC" name="DATC" netid="KO" insttype="CMG-5T" commtype="DIG" lat="36.7584" lon="27.6602">
    <comp name="--.HNE">
      <acc value="0.3776673223" flag="0"/>
      <vel value="0.6236121394" flag="0"/>
      <psa03 value="0.9254696499" flag="0"/>
      <psa10 value="1.1999312607" flag="0"/>
      <psa30 value="0.1252026509" flag="0"/>
    </comp>
    <comp name="--.HNN">
      <acc value="0.3125610854" flag="0"/>
      <vel value="0.4941094120" flag="0"/>
      <psa03 value="0.6951006444" flag="0"/>
      <psa10 value="0.7598490024" flag="0"/>
      <psa30 value="0.1049170588" flag="0"/>
    </comp>
    <comp name="--.HNZ">
      <acc value="0.5056842132" flag="0"/>
      <vel value="0.2712115573" flag="0"/>
      <psa03 value="0.6246776457" flag="0"/>
      <psa10 value="0.3387473062" flag="0"/>
      <psa30 value="0.0194507523" flag="0"/>
    </comp>
  </station>
  <station code="YKAV" name="YKAV" netid="KO" insttype="CMG-5T" commtype="DIG" lat="37.1246" lon="27.2801">
    <comp name="--.HNE">
      <acc value="0.1674173913" flag="0"/>
      <vel value="0.1387008479" flag="0"/>
      <psa03 value="0.4069385001" flag="0"/>
      <psa10 value="0.1567397766" flag="0"/>
      <psa30 value="0.0209109890" flag="0"/>
    </comp>
    <comp name="--.HNN">
      <acc value="0.1548651221" flag="0"/>
      <vel value="0.1504157877" flag="0"/>
      <psa03 value="0.5293761041" flag="0"/>
      <psa10 value="0.2326314071" flag="0"/>
      <psa30 value="0.0424557580" flag="0"/>
    </comp>
    <comp name="--.HNZ">
      <acc value="0.0587036680" flag="0"/>
      <vel value="0.0345464643" flag="0"/>
      <psa03 value="0.1091786760" flag="0"/>
      <psa10 value="0.0464928594" flag="0"/>
      <psa30 value="0.0057548992" flag="0"/>
    </comp>
  </station>
</stationlist>
