<stationlist created="1747900917">
	<station code="KTHA" name="KTHA" netid="GE" source="GEOFON" insttype="" lat="36.2566" lon="23.0621">
		<comp name=".HNE" depth="0.0">
			<acc value="0.44839111786626" flag="0"/>
			<vel value="0.226320895526" flag="0"/>
			<psa03 value="1.33350917177135" flag="0"/>
			<psa10 value="0.239852074022605" flag="0"/>
			<psa30 value="0.0372537078753124" flag="0"/>
		</comp>
		<comp name=".HNN" depth="0.0">
			<acc value="0.34134220107684" flag="0"/>
			<vel value="0.264905796399" flag="0"/>
			<psa03 value="0.957077235004713" flag="0"/>
			<psa10 value="0.351148151841578" flag="0"/>
			<psa30 value="0.0276430445493564" flag="0"/>
		</comp>
		<comp name=".HNZ" depth="0.0">
			<acc value="0.20320726486482" flag="0"/>
			<vel value="0.12774371319" flag="0"/>
			<psa03 value="0.483557158290776" flag="0"/>
			<psa10 value="0.133392061569274" flag="0"/>
			<psa30 value="0.0256628833733958" flag="0"/>
		</comp>
	</station>
	<station code="ATHU" name="ATHU" netid="HA" source="Hellenic Seismological Network, University of Athens, Seismological Laboratory (HA)" insttype="" lat="37.9665" lon="23.7845">
		<comp name=".HNE" depth="0.0">
			<acc value="0.0022486779958386" flag="0"/>
			<vel value="0.0029980183193" flag="0"/>
			<psa03 value="0.0047254325028651" flag="0"/>
			<psa10 value="0.0028268046056816" flag="0"/>
			<psa30 value="0.000674861945873951" flag="0"/>
		</comp>
		<comp name=".HNN" depth="0.0">
			<acc value="0.0019874954109438" flag="0"/>
			<vel value="0.00188046064995" flag="0"/>
			<psa03 value="0.00303681315313429" flag="0"/>
			<psa10 value="0.00233156531413609" flag="0"/>
			<psa30 value="0.000431518247424261" flag="0"/>
		</comp>
		<comp name=".HNZ" depth="0.0">
			<acc value="0.002040336102903" flag="0"/>
			<vel value="0.00344462633859" flag="0"/>
			<psa03 value="0.00516838274455487" flag="0"/>
			<psa10 value="0.00376374604845484" flag="0"/>
			<psa30 value="0.000540234173278196" flag="0"/>
		</comp>
	</station>
	<station code="KIAS" name="KIAS" netid="HA" source="Hellenic Seismological Network, University of Athens, Seismological Laboratory (HA)" insttype="" lat="37.9875" lon="22.7543">
		<comp name=".HNE" depth="0.0">
			<acc value="0.21501984478698" flag="0"/>
			<vel value="0.267223744164" flag="0"/>
			<psa03 value="0.400834011619319" flag="0"/>
			<psa10 value="0.597504341728663" flag="0"/>
			<psa30 value="0.136036651760634" flag="0"/>
		</comp>
		<comp name=".HNN" depth="0.0">
			<acc value="0.14538398778924" flag="0"/>
			<vel value="0.224025812071" flag="0"/>
			<psa03 value="0.304028119537602" flag="0"/>
			<psa10 value="0.422896014785515" flag="0"/>
			<psa30 value="0.105959372621692" flag="0"/>
		</comp>
		<comp name=".HNZ" depth="0.0">
			<acc value="0.10344238585968" flag="0"/>
			<vel value="0.150394119211" flag="0"/>
			<psa03 value="0.263370301156741" flag="0"/>
			<psa10 value="0.328464519162225" flag="0"/>
			<psa30 value="0.0594425577777334" flag="0"/>
		</comp>
	</station>
	<station code="ABEA" name="ABEA" netid="HC" source="Seismological Network of Crete (HC)" insttype="" lat="35.5163" lon="24.0113">
		<comp name=".HNE" depth="0.0">
			<acc value="0.0011798206963134" flag="0"/>
			<vel value="0.00326708981348" flag="0"/>
			<psa03 value="0.0012885916291477" flag="0"/>
			<psa10 value="0.000825354265513341" flag="0"/>
			<psa30 value="0.000973203532457189" flag="0"/>
		</comp>
		<comp name=".HNN" depth="0.0">
			<acc value="0.0020024855485404" flag="0"/>
			<vel value="0.00381009041855" flag="0"/>
			<psa03 value="0.0012295672926426" flag="0"/>
			<psa10 value="0.00116885657163509" flag="0"/>
			<psa30 value="0.000786979946060174" flag="0"/>
		</comp>
		<comp name=".HNZ" depth="0.0">
			<acc value="0.0017056574542998" flag="0"/>
			<vel value="0.0033397597504" flag="0"/>
			<psa03 value="0.00144026582069743" flag="0"/>
			<psa10 value="0.00100368109832079" flag="0"/>
			<psa30 value="0.000900991769616747" flag="0"/>
		</comp>
	</station>
	<station code="ATEI" name="ATEI" netid="HC" source="Seismological Network of Crete (HC)" insttype="" lat="35.5193" lon="24.0432">
		<comp name=".HNE" depth="0.0">
			<acc value="0.9775620548841" flag="0"/>
			<vel value="0.628646323773" flag="0"/>
			<psa03 value="2.53312097350147" flag="0"/>
			<psa10 value="1.04953828676013" flag="0"/>
			<psa30 value="0.123500821323271" flag="0"/>
		</comp>
		<comp name=".HNN" depth="0.0">
			<acc value="1.115147897295" flag="0"/>
			<vel value="0.595756360212" flag="0"/>
			<psa03 value="3.18544402003099" flag="0"/>
			<psa10 value="0.772514035263495" flag="0"/>
			<psa30 value="0.104959919746288" flag="0"/>
		</comp>
		<comp name=".HNZ" depth="0.0">
			<acc value="0.74714467940256" flag="0"/>
			<vel value="0.375007172501" flag="0"/>
			<psa03 value="1.35759926762076" flag="0"/>
			<psa10 value="0.730551635461294" flag="0"/>
			<psa30 value="0.0630700380803594" flag="0"/>
		</comp>
	</station>
	<station code="PASK" name="PASK" netid="HC" source="Seismological Network of Crete (HC)" insttype="" lat="35.4996" lon="24.0121">
		<comp name=".HNE" depth="0.0">
			<acc value="0.9992887590207" flag="0"/>
			<vel value="1.02527705999" flag="0"/>
			<psa03 value="2.53313930804791" flag="0"/>
			<psa10 value="1.25854245226077" flag="0"/>
			<psa30 value="0.17598123122628" flag="0"/>
		</comp>
		<comp name=".HNN" depth="0.0">
			<acc value="1.215289701942" flag="0"/>
			<vel value="0.994422621228" flag="0"/>
			<psa03 value="2.83318268444622" flag="0"/>
			<psa10 value="1.79794266487656" flag="0"/>
			<psa30 value="0.197773234839735" flag="0"/>
		</comp>
		<comp name=".HNZ" depth="0.0">
			<acc value="0.84122536623114" flag="0"/>
			<vel value="0.602193368804" flag="0"/>
			<psa03 value="2.41773282960279" flag="0"/>
			<psa10 value="1.1031721197376" flag="0"/>
			<psa30 value="0.0730229240770309" flag="0"/>
		</comp>
	</station>
	<station code="AGN1" name="AGN1" netid="HI" source="ITSAK Strong Motion Network" insttype="" lat="35.1879" lon="25.7155">
		<comp name=".HNE" depth="0.0">
			<acc value="6.6134229540228" flag="0"/>
			<vel value="3.49347733952" flag="0"/>
			<psa03 value="19.0073244752878" flag="0"/>
			<psa10 value="2.13664098197996" flag="0"/>
			<psa30 value="0.130565889349574" flag="0"/>
		</comp>
		<comp name=".HNN" depth="0.0">
			<acc value="4.996945371204" flag="0"/>
			<vel value="2.31600157009" flag="0"/>
			<psa03 value="11.0984778863688" flag="0"/>
			<psa10 value="1.13847569842624" flag="0"/>
			<psa30 value="0.233934617020085" flag="0"/>
		</comp>
		<comp name=".HNZ" depth="0.0">
			<acc value="2.2002223960896" flag="0"/>
			<vel value="1.05960693192" flag="0"/>
			<psa03 value="4.68907029454673" flag="0"/>
			<psa10 value="0.494345837984373" flag="0"/>
			<psa30 value="0.066385391039616" flag="0"/>
		</comp>
	</station>
	<station code="ARK1" name="ARK1" netid="HI" source="ITSAK Strong Motion Network" insttype="" lat="35.148777" lon="25.264194">
		<comp name=".HNE" depth="0.0">
			<acc value="2.9718213576426" flag="0"/>
			<vel value="2.57412944429" flag="0"/>
			<psa03 value="9.85688163669407" flag="0"/>
			<psa10 value="2.82323862570257" flag="0"/>
			<psa30 value="0.358570606876253" flag="0"/>
		</comp>
		<comp name=".HNN" depth="0.0">
			<acc value="4.6773327514104" flag="0"/>
			<vel value="2.07771095472" flag="0"/>
			<psa03 value="10.8804994463528" flag="0"/>
			<psa10 value="2.98515263171268" flag="0"/>
			<psa30 value="0.532025057380221" flag="0"/>
		</comp>
		<comp name=".HNZ" depth="0.0">
			<acc value="2.3972464936284" flag="0"/>
			<vel value="0.93707206818" flag="0"/>
			<psa03 value="3.67986110607117" flag="0"/>
			<psa10 value="1.96063612252188" flag="0"/>
			<psa30 value="0.234898147516037" flag="0"/>
		</comp>
	</station>
	<station code="ARS1" name="ARS1" netid="HI" source="ITSAK Strong Motion Network" insttype="" lat="37.6349" lon="22.7293">
		<comp name=".HNE" depth="0.0">
			<acc value="0.27599993308686" flag="0"/>
			<vel value="0.292870790185" flag="0"/>
			<psa03 value="0.57319709649344" flag="0"/>
			<psa10 value="0.464624399087979" flag="0"/>
			<psa30 value="0.0497038126337842" flag="0"/>
		</comp>
		<comp name=".HNN" depth="0.0">
			<acc value="0.28048633045368" flag="0"/>
			<vel value="0.278667263651" flag="0"/>
			<psa03 value="0.581079326988686" flag="0"/>
			<psa10 value="0.293081015178962" flag="0"/>
			<psa30 value="0.078819008039292" flag="0"/>
		</comp>
		<comp name=".HNZ" depth="0.0">
			<acc value="0.101779782728382" flag="0"/>
			<vel value="0.101906873163" flag="0"/>
			<psa03 value="0.358472497043423" flag="0"/>
			<psa10 value="0.125318579240757" flag="0"/>
			<psa30 value="0.0361887373262398" flag="0"/>
		</comp>
	</station>
	<station code="ATH5" name="ATH5" netid="HI" source="ITSAK Strong Motion Network" insttype="" lat="37.975421" lon="23.737098">
		<comp name=".HNE" depth="0.0">
			<acc value="0.047664638015706" flag="0"/>
			<vel value="0.0596415468346" flag="0"/>
			<psa03 value="0.113829186458412" flag="0"/>
			<psa10 value="0.092105524039019" flag="0"/>
			<psa30 value="0.0110419023051494" flag="0"/>
		</comp>
		<comp name=".HNN" depth="0.0">
			<acc value="0.03578031745098" flag="0"/>
			<vel value="0.0863112164288" flag="0"/>
			<psa03 value="0.129789618758628" flag="0"/>
			<psa10 value="0.101476262304252" flag="0"/>
			<psa30 value="0.0136189588558333" flag="0"/>
		</comp>
		<comp name=".HNZ" depth="0.0">
			<acc value="0.069234464167998" flag="0"/>
			<vel value="0.0543285593492" flag="0"/>
			<psa03 value="0.158942206224406" flag="0"/>
			<psa10 value="0.0877799049878173" flag="0"/>
			<psa30 value="0.00746814889487416" flag="0"/>
		</comp>
	</station>
	<station code="CH01" name="CH01" netid="HI" source="ITSAK Strong Motion Network" insttype="" lat="35.517" lon="24.0208">
		<comp name=".HNE" depth="0.0">
			<acc value="1.2789202081158" flag="0"/>
			<vel value="0.766523729548" flag="0"/>
			<psa03 value="3.31685239186065" flag="0"/>
			<psa10 value="1.19506136694925" flag="0"/>
			<psa30 value="0.119258233606016" flag="0"/>
		</comp>
		<comp name=".HNN" depth="0.0">
			<acc value="1.2559462014366" flag="0"/>
			<vel value="0.976415428117" flag="0"/>
			<psa03 value="3.07260187812985" flag="0"/>
			<psa10 value="1.59925570284004" flag="0"/>
			<psa30 value="0.180086649856936" flag="0"/>
		</comp>
		<comp name=".HNZ" depth="0.0">
			<acc value="0.5899379505195" flag="0"/>
			<vel value="0.632044591089" flag="0"/>
			<psa03 value="1.22008615805206" flag="0"/>
			<psa10 value="1.1768814826219" flag="0"/>
			<psa30 value="0.0631777452153898" flag="0"/>
		</comp>
	</station>
	<station code="CH02" name="CH02" netid="HI" source="ITSAK Strong Motion Network" insttype="" lat="35.5145" lon="24.0315">
		<comp name=".HNE" depth="0.0">
			<acc value="1.1862539192088" flag="0"/>
			<vel value="0.741272862479" flag="0"/>
			<psa03 value="3.76918068972099" flag="0"/>
			<psa10 value="1.46843851684541" flag="0"/>
			<psa30 value="0.144056516370603" flag="0"/>
		</comp>
		<comp name=".HNN" depth="0.0">
			<acc value="1.221061776321" flag="0"/>
			<vel value="0.863534120885" flag="0"/>
			<psa03 value="2.64045758402368" flag="0"/>
			<psa10 value="1.60550367673978" flag="0"/>
			<psa30 value="0.130376383462304" flag="0"/>
		</comp>
		<comp name=".HNZ" depth="0.0">
			<acc value="0.79257862129428" flag="0"/>
			<vel value="0.385962998607" flag="0"/>
			<psa03 value="0.997834434968647" flag="0"/>
			<psa10 value="0.98874807970714" flag="0"/>
			<psa30 value="0.055704183462318" flag="0"/>
		</comp>
	</station>
	<station code="CH03" name="CH03" netid="HI" source="ITSAK Strong Motion Network" insttype="" lat="35.53303" lon="24.0705">
		<comp name=".HNE" depth="0.0">
			<acc value="0.64025618228898" flag="0"/>
			<vel value="0.671138096814" flag="0"/>
			<psa03 value="1.69958342239332" flag="0"/>
			<psa10 value="1.23820386493039" flag="0"/>
			<psa30 value="0.0726651670438986" flag="0"/>
		</comp>
		<comp name=".HNN" depth="0.0">
			<acc value="1.01209814966514" flag="0"/>
			<vel value="0.772641840943" flag="0"/>
			<psa03 value="2.77336888874317" flag="0"/>
			<psa10 value="1.29151703666328" flag="0"/>
			<psa30 value="0.105237404795027" flag="0"/>
		</comp>
		<comp name=".HNZ" depth="0.0">
			<acc value="0.6069534052314" flag="0"/>
			<vel value="0.43409069298" flag="0"/>
			<psa03 value="1.44848228817395" flag="0"/>
			<psa10 value="0.613206061891032" flag="0"/>
			<psa30 value="0.0493946688211086" flag="0"/>
		</comp>
	</station>
	<station code="GOR1" name="GOR1" netid="HI" source="ITSAK Strong Motion Network" insttype="" lat="35.0582" lon="24.9628">
		<comp name=".HNE" depth="0.0">
			<acc value="1.971404823234" flag="0"/>
			<vel value="1.88004668165" flag="0"/>
			<psa03 value="6.27404162447201" flag="0"/>
			<psa10 value="3.43644756778546" flag="0"/>
			<psa30 value="0.495798337541683" flag="0"/>
		</comp>
		<comp name=".HNN" depth="0.0">
			<acc value="1.6249700456478" flag="0"/>
			<vel value="2.43712257527" flag="0"/>
			<psa03 value="4.02283182619989" flag="0"/>
			<psa10 value="2.98555945866339" flag="0"/>
			<psa30 value="0.690810296125603" flag="0"/>
		</comp>
		<comp name=".HNZ" depth="0.0">
			<acc value="1.4619196626546" flag="0"/>
			<vel value="1.56981915016" flag="0"/>
			<psa03 value="2.77174094756874" flag="0"/>
			<psa10 value="2.14221727138149" flag="0"/>
			<psa30 value="0.227150540942045" flag="0"/>
		</comp>
	</station>
	<station code="GTH2" name="GTH2" netid="HI" source="ITSAK Strong Motion Network" insttype="" lat="36.7603" lon="22.5659">
		<comp name=".HNE" depth="0.0">
			<acc value="0.35951616301062" flag="0"/>
			<vel value="0.359755908555" flag="0"/>
			<psa03 value="0.832482314536324" flag="0"/>
			<psa10 value="0.611613256375043" flag="0"/>
			<psa30 value="0.0509686930925216" flag="0"/>
		</comp>
		<comp name=".HNN" depth="0.0">
			<acc value="0.33413100201174" flag="0"/>
			<vel value="0.325322805355" flag="0"/>
			<psa03 value="0.710094623615933" flag="0"/>
			<psa10 value="0.977259598653652" flag="0"/>
			<psa30 value="0.0416298311053276" flag="0"/>
		</comp>
		<comp name=".HNZ" depth="0.0">
			<acc value="0.1310934714801" flag="0"/>
			<vel value="0.155188641113" flag="0"/>
			<psa03 value="0.293319243460267" flag="0"/>
			<psa10 value="0.164092405316464" flag="0"/>
			<psa30 value="0.0331892386241743" flag="0"/>
		</comp>
	</station>
	<station code="HER1" name="HER1" netid="HI" source="ITSAK Strong Motion Network" insttype="" lat="35.317672" lon="25.10217">
		<comp name=".HNE" depth="0.0">
			<acc value="8.832144592485" flag="0"/>
			<vel value="7.53927304863" flag="0"/>
			<psa03 value="26.8556777235206" flag="0"/>
			<psa10 value="10.947308565449" flag="0"/>
			<psa30 value="0.900974458467749" flag="0"/>
		</comp>
		<comp name=".HNN" depth="0.0">
			<acc value="7.0012801274898" flag="0"/>
			<vel value="7.51510101582" flag="0"/>
			<psa03 value="18.0697610329853" flag="0"/>
			<psa10 value="10.3350673674755" flag="0"/>
			<psa30 value="0.841713466051704" flag="0"/>
		</comp>
		<comp name=".HNZ" depth="0.0">
			<acc value="4.6668695193678" flag="0"/>
			<vel value="3.20077798051" flag="0"/>
			<psa03 value="12.8390291893342" flag="0"/>
			<psa10 value="4.96009418190334" flag="0"/>
			<psa30 value="0.18989141937454" flag="0"/>
		</comp>
	</station>
	<station code="HER3" name="HER3" netid="HI" source="ITSAK Strong Motion Network" insttype="" lat="35.3296" lon="25.1065">
		<comp name=".HNE" depth="0.0">
			<acc value="9.4911610538238" flag="0"/>
			<vel value="5.44208357869" flag="0"/>
			<psa03 value="26.5475613123102" flag="0"/>
			<psa10 value="6.36220466484087" flag="0"/>
			<psa30 value="0.544540393128596" flag="0"/>
		</comp>
		<comp name=".HNN" depth="0.0">
			<acc value="8.7017751124404" flag="0"/>
			<vel value="9.11972095689" flag="0"/>
			<psa03 value="22.7466695218684" flag="0"/>
			<psa10 value="12.7789169405495" flag="0"/>
			<psa30 value="1.01715868843998" flag="0"/>
		</comp>
		<comp name=".HNZ" depth="0.0">
			<acc value="3.6497122796454" flag="0"/>
			<vel value="2.17009078963" flag="0"/>
			<psa03 value="15.9461590214567" flag="0"/>
			<psa10 value="4.1696450185324" flag="0"/>
			<psa30 value="0.118116157949335" flag="0"/>
		</comp>
	</station>
	<station code="KIF1" name="KIF1" netid="HI" source="ITSAK Strong Motion Network" insttype="" lat="38.077273" lon="23.814551">
		<comp name=".HNE" depth="0.0">
			<acc value="0.10773184691112" flag="0"/>
			<vel value="0.136154168193" flag="0"/>
			<psa03 value="0.177266055506168" flag="0"/>
			<psa10 value="0.116040637122868" flag="0"/>
			<psa30 value="0.0143346696015005" flag="0"/>
		</comp>
		<comp name=".HNN" depth="0.0">
			<acc value="0.079076409592038" flag="0"/>
			<vel value="0.076309790793" flag="0"/>
			<psa03 value="0.154082394702482" flag="0"/>
			<psa10 value="0.0973025508165543" flag="0"/>
			<psa30 value="0.0168382254498065" flag="0"/>
		</comp>
		<comp name=".HNZ" depth="0.0">
			<acc value="0.059203330745256" flag="0"/>
			<vel value="0.0620146637439" flag="0"/>
			<psa03 value="0.133696158797638" flag="0"/>
			<psa10 value="0.107483657764683" flag="0"/>
			<psa30 value="0.0121963862840771" flag="0"/>
		</comp>
	</station>
	<station code="KOR2" name="KOR2" netid="HI" source="ITSAK Strong Motion Network" insttype="" lat="37.9401" lon="22.9495">
		<comp name=".HNE" depth="0.0">
			<acc value="0.18555631514754" flag="0"/>
			<vel value="0.243836654556" flag="0"/>
			<psa03 value="0.438767524528571" flag="0"/>
			<psa10 value="0.461442268285144" flag="0"/>
			<psa30 value="0.0512970281763026" flag="0"/>
		</comp>
		<comp name=".HNN" depth="0.0">
			<acc value="0.1953545317293" flag="0"/>
			<vel value="0.208492549091" flag="0"/>
			<psa03 value="0.49486799090684" flag="0"/>
			<psa10 value="0.41357199711475" flag="0"/>
			<psa30 value="0.0808030461387311" flag="0"/>
		</comp>
		<comp name=".HNZ" depth="0.0">
			<acc value="0.1186445165802" flag="0"/>
			<vel value="0.157787664603" flag="0"/>
			<psa03 value="0.242835899186386" flag="0"/>
			<psa10 value="0.434836565788696" flag="0"/>
			<psa30 value="0.0559474929134363" flag="0"/>
		</comp>
	</station>
	<station code="KRL1" name="KRL1" netid="HI" source="ITSAK Strong Motion Network" insttype="" lat="37.7951" lon="26.7065">
		<comp name=".HNE" depth="0.0">
			<acc value="0.16986944720766" flag="0"/>
			<vel value="0.225592356914" flag="0"/>
			<psa03 value="0.73913471404559" flag="0"/>
			<psa10 value="0.324606773605492" flag="0"/>
			<psa30 value="0.0380675784568947" flag="0"/>
		</comp>
		<comp name=".HNN" depth="0.0">
			<acc value="0.16583066775468" flag="0"/>
			<vel value="0.160076289904" flag="0"/>
			<psa03 value="0.269564461489169" flag="0"/>
			<psa10 value="0.34151199349355" flag="0"/>
			<psa30 value="0.0268719601354983" flag="0"/>
		</comp>
		<comp name=".HNZ" depth="0.0">
			<acc value="0.1237352120382" flag="0"/>
			<vel value="0.128434410892" flag="0"/>
			<psa03 value="0.320974617159999" flag="0"/>
			<psa10 value="0.198646714369785" flag="0"/>
			<psa30 value="0.0176856815895943" flag="0"/>
		</comp>
	</station>
	<station code="KSS1" name="KSS1" netid="HI" source="ITSAK Strong Motion Network" insttype="" lat="35.4189" lon="26.9207">
		<comp name=".HNE" depth="0.0">
			<acc value="1.0826311186704" flag="0"/>
			<vel value="0.493733640059" flag="0"/>
			<psa03 value="3.79906633616529" flag="0"/>
			<psa10 value="0.441964467978049" flag="0"/>
			<psa30 value="0.112249195958264" flag="0"/>
		</comp>
		<comp name=".HNN" depth="0.0">
			<acc value="1.7855596270902" flag="0"/>
			<vel value="0.680644003473" flag="0"/>
			<psa03 value="4.94854448344689" flag="0"/>
			<psa10 value="0.64971050013084" flag="0"/>
			<psa30 value="0.065464936730819" flag="0"/>
		</comp>
		<comp name=".HNZ" depth="0.0">
			<acc value="1.137505179936" flag="0"/>
			<vel value="0.293581228215" flag="0"/>
			<psa03 value="0.796838369965742" flag="0"/>
			<psa10 value="0.423996277671602" flag="0"/>
			<psa30 value="0.0645538697105679" flag="0"/>
		</comp>
	</station>
