<?xml version="1.0" encoding="UTF-8" standalone="yes"?>
<!DOCTYPE earthquake SYSTEM "stationlist.dtd">
<stationlist created="" xmlns="ch.ethz.sed.shakemap.usgs.xml">
  <station code="APE" name="APE" netid="GE" insttype="STS-2/N" commtype="DIG" lat="37.0727" lon="25.523">
    <comp name="--.HHE">
      <acc value="0.8818945277" flag="0"/>
      <vel value="0.4945207144" flag="0"/>
      <psa03 value="1.8460580476" flag="0"/>
      <psa10 value="0.2876628980" flag="0"/>
      <psa30 value="0.0372316669" flag="0"/>
    </comp>
    <comp name="--.HHN">
      <acc value="1.1048655560" flag="0"/>
      <vel value="0.3960687789" flag="0"/>
      <psa03 value="1.3739863676" flag="0"/>
      <psa10 value="0.4303936299" flag="0"/>
      <psa30 value="0.0279605385" flag="0"/>
    </comp>
    <comp name="--.HHZ">
      <acc value="0.3971311027" flag="0"/>
      <vel value="0.2104931302" flag="0"/>
      <psa03 value="0.9890096810" flag="0"/>
      <psa10 value="0.2186897960" flag="0"/>
      <psa30 value="0.0265980037" flag="0"/>
    </comp>
  </station>
  <station code="IMMV" name="IMMV" netid="GE" insttype="STS-2/N" commtype="DIG" lat="35.4606" lon="23.9811">
    <comp name="--.HHZ">
      <acc value="0.6158691788" flag="0"/>
      <vel value="0.3814316206" flag="0"/>
      <psa03 value="1.7791392668" flag="0"/>
      <psa10 value="0.7385167773" flag="0"/>
      <psa30 value="0.0731567741" flag="0"/>
    </comp>
    <comp name="--.HHN">
      <acc value="1.0900487533" flag="0"/>
      <vel value="0.7980349483" flag="0"/>
      <psa03 value="3.5309463457" flag="0"/>
      <psa10 value="1.3784890171" flag="0"/>
      <psa30 value="0.1094376738" flag="0"/>
    </comp>
    <comp name="--.HHE">
      <acc value="0.8624274656" flag="0"/>
      <vel value="0.7023521283" flag="0"/>
      <psa03 value="1.7054786023" flag="0"/>
      <psa10 value="1.4172356288" flag="0"/>
      <psa30 value="0.0846657147" flag="0"/>
    </comp>
  </station>
  <station code="KARP" name="KARP" netid="GE" insttype="STS-2/N" commtype="DIG" lat="35.5471" lon="27.1611">
    <comp name="--.HHE">
      <acc value="0.0829475490" flag="0"/>
      <vel value="0.0076355316" flag="0"/>
      <psa03 value="0.0273488268" flag="0"/>
      <psa10 value="0.0012739300" flag="0"/>
      <psa30 value="0.0000797836" flag="0"/>
    </comp>
    <comp name="--.HHZ">
      <acc value="0.0684074252" flag="0"/>
      <vel value="0.0068682597" flag="0"/>
      <psa03 value="0.0151621340" flag="0"/>
      <psa10 value="0.0016643813" flag="0"/>
      <psa30 value="0.0000979980" flag="0"/>
    </comp>
    <comp name="--.HHN">
      <acc value="0.0624014526" flag="0"/>
      <vel value="0.0058107436" flag="0"/>
      <psa03 value="0.0168272412" flag="0"/>
      <psa10 value="0.0014989527" flag="0"/>
      <psa30 value="0.0000618803" flag="0"/>
    </comp>
  </station>
  <station code="THERA" name="THERA" netid="GE" insttype="STS-2/N" commtype="DIG" lat="36.367" lon="25.4753">
    <comp name="--.HHE">
      <acc value="2.2797332373" flag="0"/>
      <vel value="0.8074347609" flag="0"/>
      <psa03 value="3.2082962522" flag="0"/>
      <psa10 value="0.7925058189" flag="0"/>
      <psa30 value="0.0832181060" flag="0"/>
    </comp>
    <comp name="--.HHN">
      <acc value="3.8364607958" flag="0"/>
      <vel value="1.1233669907" flag="0"/>
      <psa03 value="4.7710265577" flag="0"/>
      <psa10 value="0.7913901735" flag="0"/>
      <psa30 value="0.0466755904" flag="0"/>
    </comp>
    <comp name="--.HHZ">
      <acc value="1.7938418565" flag="0"/>
      <vel value="0.6029052521" flag="0"/>
      <psa03 value="3.5992064937" flag="0"/>
      <psa10 value="0.5038208628" flag="0"/>
      <psa30 value="0.0344963871" flag="0"/>
    </comp>
  </station>
  <station code="ZKR" name="ZKR" netid="GE" insttype="STS-2/N" commtype="DIG" lat="35.1147" lon="26.2169">
    <comp name="--.HHN">
      <acc value="0.7897031908" flag="0"/>
      <vel value="0.3331750329" flag="0"/>
      <psa03 value="1.8726497781" flag="0"/>
      <psa10 value="0.3984782003" flag="0"/>
      <psa30 value="0.1267889612" flag="0"/>
    </comp>
    <comp name="--.HHE">
      <acc value="2.1339353740" flag="0"/>
      <vel value="1.1161624050" flag="0"/>
      <psa03 value="4.0801817348" flag="0"/>
      <psa10 value="1.9466119985" flag="0"/>
      <psa30 value="0.3797242619" flag="0"/>
    </comp>
    <comp name="--.HHZ">
      <acc value="1.4182485043" flag="0"/>
      <vel value="0.5254785336" flag="0"/>
      <psa03 value="2.8246280991" flag="0"/>
      <psa10 value="0.9864308167" flag="0"/>
      <psa30 value="0.0598026188" flag="0"/>
    </comp>
  </station>
  <station code="IOSI" name="IOSI" netid="HA" insttype="60s," commtype="DIG" lat="36.7225" lon="25.2887">
    <comp name="--.HHE">
      <acc value="0.8116509082" flag="0"/>
      <vel value="0.6203736450" flag="0"/>
      <psa03 value="1.3644677955" flag="0"/>
      <psa10 value="0.6320110345" flag="0"/>
      <psa30 value="0.0640511006" flag="0"/>
    </comp>
    <comp name="--.HHN">
      <acc value="1.0948577424" flag="0"/>
      <vel value="0.6235700312" flag="0"/>
      <psa03 value="2.3612724252" flag="0"/>
      <psa10 value="0.7596816952" flag="0"/>
      <psa30 value="0.0336181695" flag="0"/>
    </comp>
    <comp name="--.HHZ">
      <acc value="0.5198151501" flag="0"/>
      <vel value="0.2343110483" flag="0"/>
      <psa03 value="1.1061612878" flag="0"/>
      <psa10 value="0.3173517529" flag="0"/>
      <psa30 value="0.0265071669" flag="0"/>
    </comp>
  </station>
  <station code="SERI" name="SERI" netid="HA" insttype="30" commtype="DIG" lat="37.1609" lon="24.4853">
    <comp name="--.HHE">
      <acc value="0.1083065427" flag="0"/>
      <vel value="0.0718286904" flag="0"/>
      <psa03 value="0.2718773451" flag="0"/>
      <psa10 value="0.0755609969" flag="0"/>
      <psa30 value="0.0172079323" flag="0"/>
    </comp>
    <comp name="--.HHN">
      <acc value="0.1457183819" flag="0"/>
      <vel value="0.0695714167" flag="0"/>
      <psa03 value="0.3619469065" flag="0"/>
      <psa10 value="0.0710740992" flag="0"/>
      <psa30 value="0.0170376059" flag="0"/>
    </comp>
    <comp name="--.HHZ">
      <acc value="0.1956713906" flag="0"/>
      <vel value="0.0642007545" flag="0"/>
      <psa03 value="0.2430042580" flag="0"/>
      <psa10 value="0.0707249601" flag="0"/>
      <psa30 value="0.0132928317" flag="0"/>
    </comp>
  </station>
  <station code="SNT1" name="SNT1" netid="HA" insttype="30" commtype="DIG" lat="36.4159" lon="25.4282">
    <comp name="--.HHN">
      <acc value="0.7515616139" flag="0"/>
      <vel value="0.3633726569" flag="0"/>
      <psa03 value="2.1805333374" flag="0"/>
      <psa10 value="0.4534439686" flag="0"/>
      <psa30 value="0.0393512655" flag="0"/>
    </comp>
    <comp name="--.HHE">
      <acc value="0.5807699825" flag="0"/>
      <vel value="0.4057118203" flag="0"/>
      <psa03 value="0.9725310142" flag="0"/>
      <psa10 value="0.3854434396" flag="0"/>
      <psa30 value="0.0998482474" flag="0"/>
    </comp>
    <comp name="--.HHZ">
      <acc value="0.5019842428" flag="0"/>
      <vel value="0.1885581547" flag="0"/>
      <psa03 value="0.8032288986" flag="0"/>
      <psa10 value="0.3123309518" flag="0"/>
      <psa30 value="0.0213513705" flag="0"/>
    </comp>
  </station>
  <station code="SNT5" name="SNT5" netid="HA" insttype="1s-100Hz," commtype="DIG" lat="36.4037" lon="25.3953">
    <comp name="--.HHZ">
      <acc value="0.7326337576" flag="0"/>
      <vel value="0.2045921714" flag="0"/>
      <psa03 value="0.9321092553" flag="0"/>
      <psa10 value="0.2357939651" flag="0"/>
      <psa30 value="0.0198955707" flag="0"/>
    </comp>
    <comp name="--.HHE">
      <acc value="1.7838040631" flag="0"/>
      <vel value="0.6570351279" flag="0"/>
      <psa03 value="2.9195635641" flag="0"/>
      <psa10 value="0.3837982628" flag="0"/>
      <psa30 value="0.1001099882" flag="0"/>
    </comp>
    <comp name="--.HHN">
      <acc value="1.3352446849" flag="0"/>
      <vel value="0.4233757451" flag="0"/>
      <psa03 value="2.9382212132" flag="0"/>
      <psa10 value="0.2809957748" flag="0"/>
      <psa30 value="0.0790637246" flag="0"/>
    </comp>
  </station>
  <station code="ATEI" name="ATEI" netid="HC" insttype="DC" commtype="DIG" lat="35.5193" lon="24.0432">
    <comp name="--.HNE">
      <acc value="0.9792591156" flag="0"/>
      <vel value="0.5961394062" flag="0"/>
      <psa03 value="2.5162232517" flag="0"/>
      <psa10 value="1.0492866373" flag="0"/>
      <psa30 value="0.1206423464" flag="0"/>
    </comp>
    <comp name="--.HNZ">
      <acc value="0.7583073379" flag="0"/>
      <vel value="0.3416419785" flag="0"/>
      <psa03 value="1.3454866232" flag="0"/>
      <psa10 value="0.7289356839" flag="0"/>
      <psa30 value="0.0614267579" flag="0"/>
    </comp>
    <comp name="--.HNN">
      <acc value="1.1155592958" flag="0"/>
      <vel value="0.5831370320" flag="0"/>
      <psa03 value="3.1871781300" flag="0"/>
      <psa10 value="0.7712951077" flag="0"/>
      <psa30 value="0.1030837190" flag="0"/>
    </comp>
  </station>
  <station code="KNDR" name="KNDR" netid="HC" insttype="120" commtype="DIG" lat="35.2348" lon="23.6248">
    <comp name="--.HHE">
      <acc value="0.5140166188" flag="0"/>
      <vel value="0.5233199918" flag="0"/>
      <psa03 value="1.3928834486" flag="0"/>
      <psa10 value="0.8923667986" flag="0"/>
      <psa30 value="0.1255014709" flag="0"/>
    </comp>
    <comp name="--.HHZ">
      <acc value="0.4371681456" flag="0"/>
      <vel value="0.2952081171" flag="0"/>
      <psa03 value="1.3938717951" flag="0"/>
      <psa10 value="0.3454107532" flag="0"/>
      <psa30 value="0.0451236230" flag="0"/>
    </comp>
    <comp name="--.HHN">
      <acc value="0.5028848340" flag="0"/>
      <vel value="0.5687795717" flag="0"/>
      <psa03 value="1.5355899898" flag="0"/>
      <psa10 value="1.1666454825" flag="0"/>
      <psa30 value="0.1572227834" flag="0"/>
    </comp>
  </station>
  <station code="KOSP" name="KOSP" netid="HC" insttype="60" commtype="DIG" lat="36.881" lon="27.281">
    <comp name="--.HHN">
      <acc value="0.7302908426" flag="0"/>
      <vel value="0.6183318329" flag="0"/>
      <psa03 value="3.1971626585" flag="0"/>
      <psa10 value="0.8381114606" flag="0"/>
      <psa30 value="0.0948079797" flag="0"/>
    </comp>
    <comp name="--.HHE">
      <acc value="0.9769189790" flag="0"/>
      <vel value="0.6127207052" flag="0"/>
      <psa03 value="2.8368190125" flag="0"/>
      <psa10 value="0.6265096128" flag="0"/>
      <psa30 value="0.0751639595" flag="0"/>
    </comp>
    <comp name="--.HHZ">
      <acc value="0.4383403729" flag="0"/>
      <vel value="0.2931883290" flag="0"/>
      <psa03 value="1.2534186996" flag="0"/>
      <psa10 value="0.5978058529" flag="0"/>
      <psa30 value="0.0424241397" flag="0"/>
    </comp>
  </station>
  <station code="TEFL" name="TEFL" netid="HC" insttype="GEOtiny," commtype="DIG" lat="35.0933" lon="25.1634">
    <comp name="--.HHN">
      <acc value="5.7139893804" flag="0"/>
      <vel value="2.4703778740" flag="0"/>
      <psa03 value="10.0566393366" flag="0"/>
      <psa10 value="3.0707826733" flag="0"/>
      <psa30 value="0.7560240367" flag="0"/>
    </comp>
    <comp name="--.HHE">
      <acc value="6.9607911235" flag="0"/>
      <vel value="2.4928976578" flag="0"/>
      <psa03 value="10.6518883984" flag="0"/>
      <psa10 value="4.9220862875" flag="0"/>
      <psa30 value="0.3242518415" flag="0"/>
    </comp>
    <comp name="--.HHZ">
      <acc value="2.8609662853" flag="0"/>
      <vel value="1.0297728952" flag="0"/>
      <psa03 value="5.5876913981" flag="0"/>
      <psa10 value="1.0362806611" flag="0"/>
      <psa30 value="0.1551767257" flag="0"/>
    </comp>
  </station>
  <station code="AGN1" name="AGN1" netid="HI" insttype="unknown" commtype="DIG" lat="35.1879" lon="25.7155">
    <comp name="--.HNE">
      <acc value="6.6643471681" flag="0"/>
      <vel value="3.4873485839" flag="0"/>
      <psa03 value="19.1344869280" flag="0"/>
      <psa10 value="2.1308505957" flag="0"/>
      <psa30 value="0.1286271996" flag="0"/>
    </comp>
    <comp name="--.HNN">
      <acc value="4.9754428190" flag="0"/>
      <vel value="2.2774584828" flag="0"/>
      <psa03 value="11.2523017281" flag="0"/>
      <psa10 value="1.1328569944" flag="0"/>
      <psa30 value="0.2335433194" flag="0"/>
    </comp>
    <comp name="--.HNZ">
      <acc value="2.2372824496" flag="0"/>
      <vel value="0.9754676927" flag="0"/>
      <psa03 value="4.6381128669" flag="0"/>
      <psa10 value="0.4931324991" flag="0"/>
      <psa30 value="0.0595719497" flag="0"/>
    </comp>
  </station>
  <station code="ARK1" name="ARK1" netid="HI" insttype="unknown" commtype="DIG" lat="35.1488" lon="25.2642">
    <comp name="--.HNN">
      <acc value="4.6950377516" flag="0"/>
      <vel value="1.9826493128" flag="0"/>
      <psa03 value="10.9659930212" flag="0"/>
      <psa10 value="2.9870022719" flag="0"/>
      <psa30 value="0.5223549246" flag="0"/>
    </comp>
    <comp name="--.HNE">
      <acc value="3.0089225498" flag="0"/>
      <vel value="2.5350512702" flag="0"/>
      <psa03 value="10.0105135772" flag="0"/>
      <psa10 value="2.8221657555" flag="0"/>
      <psa30 value="0.3508677142" flag="0"/>
    </comp>
    <comp name="--.HNZ">
      <acc value="2.4955061968" flag="0"/>
      <vel value="0.9196086303" flag="0"/>
      <psa03 value="3.6055347232" flag="0"/>
      <psa10 value="1.9605858635" flag="0"/>
      <psa30 value="0.2331417719" flag="0"/>
    </comp>
  </station>
  <station code="CH01" name="CH01" netid="HI" insttype="CMG-5TD,ACCELEROMETER,GURALP" commtype="DIG" lat="35.517" lon="24.0208">
    <comp name="--.HNE">
      <acc value="1.2879594419" flag="0"/>
      <vel value="0.7301073486" flag="0"/>
      <psa03 value="3.2483888109" flag="0"/>
      <psa10 value="1.1967479973" flag="0"/>
      <psa30 value="0.1179222273" flag="0"/>
    </comp>
    <comp name="--.HNN">
      <acc value="1.2684399862" flag="0"/>
      <vel value="0.9703367956" flag="0"/>
      <psa03 value="3.0955971524" flag="0"/>
      <psa10 value="1.5960912174" flag="0"/>
      <psa30 value="0.1779314843" flag="0"/>
    </comp>
    <comp name="--.HNZ">
      <acc value="0.5992515918" flag="0"/>
      <vel value="0.6203512646" flag="0"/>
      <psa03 value="1.2076486791" flag="0"/>
      <psa10 value="1.1754447804" flag="0"/>
      <psa30 value="0.0626454179" flag="0"/>
    </comp>
  </station>
  <station code="CH02" name="CH02" netid="HI" insttype="unknown" commtype="DIG" lat="35.5145" lon="24.0315">
    <comp name="--.HNE">
      <acc value="1.2123437809" flag="0"/>
      <vel value="0.7412570218" flag="0"/>
      <psa03 value="3.7213439112" flag="0"/>
      <psa10 value="1.4647985422" flag="0"/>
      <psa30 value="0.1466319510" flag="0"/>
    </comp>
    <comp name="--.HNN">
      <acc value="1.2174178327" flag="0"/>
      <vel value="0.8596211463" flag="0"/>
      <psa03 value="2.6251978010" flag="0"/>
      <psa10 value="1.6026680006" flag="0"/>
      <psa30 value="0.1284854837" flag="0"/>
    </comp>
    <comp name="--.HNZ">
      <acc value="0.7817024144" flag="0"/>
      <vel value="0.3580752538" flag="0"/>
      <psa03 value="1.0008904973" flag="0"/>
      <psa10 value="0.9857295431" flag="0"/>
      <psa30 value="0.0536033848" flag="0"/>
    </comp>
  </station>
  <station code="CH03" name="CH03" netid="HI" insttype="unknown" commtype="DIG" lat="35.533" lon="24.0705">
    <comp name="--.HNN">
      <acc value="1.0117653330" flag="0"/>
      <vel value="0.7782742374" flag="0"/>
      <psa03 value="2.7683698814" flag="0"/>
      <psa10 value="1.2931380217" flag="0"/>
      <psa30 value="0.1045002839" flag="0"/>
    </comp>
    <comp name="--.HNE">
      <acc value="0.6413430797" flag="0"/>
      <vel value="0.7100424534" flag="0"/>
      <psa03 value="1.7172222026" flag="0"/>
      <psa10 value="1.2386048745" flag="0"/>
      <psa30 value="0.0708442648" flag="0"/>
    </comp>
    <comp name="--.HNZ">
      <acc value="0.6049925386" flag="0"/>
      <vel value="0.4153968050" flag="0"/>
      <psa03 value="1.4225671999" flag="0"/>
      <psa10 value="0.6136481660" flag="0"/>
      <psa30 value="0.0480316220" flag="0"/>
    </comp>
  </station>
  <station code="GOR1" name="GOR1" netid="HI" insttype="unknown" commtype="DIG" lat="35.0582" lon="24.9628">
    <comp name="--.HNZ">
      <acc value="1.4634512773" flag="0"/>
      <vel value="1.5828231783" flag="0"/>
      <psa03 value="2.7544828458" flag="0"/>
      <psa10 value="2.1461990758" flag="0"/>
      <psa30 value="0.2288580655" flag="0"/>
    </comp>
    <comp name="--.HNN">
      <acc value="1.6321624596" flag="0"/>
      <vel value="2.3730739140" flag="0"/>
      <psa03 value="4.0049129538" flag="0"/>
      <psa10 value="2.9710456356" flag="0"/>
      <psa30 value="0.6742409385" flag="0"/>
    </comp>
    <comp name="--.HNE">
      <acc value="1.9694477381" flag="0"/>
      <vel value="1.8797952922" flag="0"/>
      <psa03 value="6.3027481199" flag="0"/>
      <psa10 value="3.4332962063" flag="0"/>
      <psa30 value="0.4892454479" flag="0"/>
    </comp>
  </station>
  <station code="HER1" name="HER1" netid="HI" insttype="unknown" commtype="DIG" lat="35.3177" lon="25.1022">
    <comp name="--.HNE">
      <acc value="8.8813147578" flag="0"/>
      <vel value="7.5225469684" flag="0"/>
      <psa03 value="27.1031135121" flag="0"/>
      <psa10 value="10.9563765118" flag="0"/>
      <psa30 value="0.8990985312" flag="0"/>
    </comp>
    <comp name="--.HNN">
      <acc value="7.0444578693" flag="0"/>
      <vel value="7.4920484869" flag="0"/>
      <psa03 value="18.5086689247" flag="0"/>
      <psa10 value="10.3477012290" flag="0"/>
      <psa30 value="0.8453250816" flag="0"/>
    </comp>
    <comp name="--.HNZ">
      <acc value="4.6719639213" flag="0"/>
      <vel value="3.2023823323" flag="0"/>
      <psa03 value="12.9776266034" flag="0"/>
      <psa10 value="4.9576527473" flag="0"/>
      <psa30 value="0.1870248142" flag="0"/>
    </comp>
  </station>
  <station code="HER3" name="HER3" netid="HI" insttype="unknown" commtype="DIG" lat="35.3296" lon="25.1065">
    <comp name="--.HNE">
      <acc value="9.5472506955" flag="0"/>
      <vel value="5.5229123731" flag="0"/>
      <psa03 value="26.4262316516" flag="0"/>
      <psa10 value="6.3654229326" flag="0"/>
      <psa30 value="0.5347032938" flag="0"/>
    </comp>
    <comp name="--.HNZ">
      <acc value="3.6706769280" flag="0"/>
      <vel value="2.1838673690" flag="0"/>
      <psa03 value="16.0602028837" flag="0"/>
      <psa10 value="4.1681088585" flag="0"/>
      <psa30 value="0.1199672571" flag="0"/>
    </comp>
    <comp name="--.HNN">
      <acc value="8.6850679425" flag="0"/>
      <vel value="9.1327285773" flag="0"/>
      <psa03 value="22.7471100596" flag="0"/>
      <psa10 value="12.7698616777" flag="0"/>
      <psa30 value="1.0124432665" flag="0"/>
    </comp>
  </station>
  <station code="KSS1" name="KSS1" netid="HI" insttype="CMG-5TD,ACCELEROMETER,GURALP" commtype="DIG" lat="35.4189" lon="26.9207">
    <comp name="--.HNN">
      <acc value="1.7916166721" flag="0"/>
      <vel value="0.6514167182" flag="0"/>
      <psa03 value="5.0352537809" flag="0"/>
      <psa10 value="0.6520925429" flag="0"/>
      <psa30 value="0.0619170835" flag="0"/>
    </comp>
    <comp name="--.HNZ">
      <acc value="1.1618534186" flag="0"/>
      <vel value="0.2726228929" flag="0"/>
      <psa03 value="0.8041193960" flag="0"/>
      <psa10 value="0.4225149711" flag="0"/>
      <psa30 value="0.0645253784" flag="0"/>
    </comp>
    <comp name="--.HNE">
      <acc value="1.0927287894" flag="0"/>
      <vel value="0.4703298134" flag="0"/>
      <psa03 value="3.8178777853" flag="0"/>
      <psa10 value="0.4448931259" flag="0"/>
      <psa30 value="0.1098890622" flag="0"/>
    </comp>
  </station>
