<?xml version="1.0" encoding="UTF-8" standalone="yes"?>
<!DOCTYPE earthquake SYSTEM "stationlist.dtd">
<stationlist created="" xmlns="ch.ethz.sed.shakemap.usgs.xml">
  <station code="APE" name="APE" netid="GE" insttype="STS-2/N" commtype="DIG" lat="37.0727" lon="25.523">
    <comp name="--.HHZ">
      <acc value="0.3971311030" flag="0"/>
      <vel value="0.2104931288" flag="0"/>
      <psa03 value="0.9890096810" flag="0"/>
      <psa10 value="0.2186897960" flag="0"/>
      <psa30 value="0.0265979807" flag="0"/>
    </comp>
    <comp name="--.HHN">
      <acc value="1.1048655562" flag="0"/>
      <vel value="0.3960687780" flag="0"/>
      <psa03 value="1.3739863676" flag="0"/>
      <psa10 value="0.4303936299" flag="0"/>
      <psa30 value="0.0279605682" flag="0"/>
    </comp>
    <comp name="--.HHE">
      <acc value="0.8818945284" flag="0"/>
      <vel value="0.4945207142" flag="0"/>
      <psa03 value="1.8460580476" flag="0"/>
      <psa10 value="0.2876628980" flag="0"/>
      <psa30 value="0.0372316592" flag="0"/>
    </comp>
  </station>
  <station code="IMMV" name="IMMV" netid="GE" insttype="STS-2/N" commtype="DIG" lat="35.4606" lon="23.9811">
    <comp name="--.HHE">
      <acc value="0.8624274654" flag="0"/>
      <vel value="0.7023521283" flag="0"/>
      <psa03 value="1.7054786023" flag="0"/>
      <psa10 value="1.4172356288" flag="0"/>
      <psa30 value="0.0846657125" flag="0"/>
    </comp>
    <comp name="--.HHZ">
      <acc value="0.6158691786" flag="0"/>
      <vel value="0.3814316198" flag="0"/>
      <psa03 value="1.7791392668" flag="0"/>
      <psa10 value="0.7385167773" flag="0"/>
      <psa30 value="0.0731567757" flag="0"/>
    </comp>
    <comp name="--.HHN">
      <acc value="1.0900487534" flag="0"/>
      <vel value="0.7980349523" flag="0"/>
      <psa03 value="3.5309463457" flag="0"/>
      <psa10 value="1.3784890171" flag="0"/>
      <psa30 value="0.1094376660" flag="0"/>
    </comp>
  </station>
  <station code="KARP" name="KARP" netid="GE" insttype="STS-2/N" commtype="DIG" lat="35.5471" lon="27.1611">
    <comp name="--.HHE">
      <acc value="0.0829475485" flag="0"/>
      <vel value="0.0076355316" flag="0"/>
      <psa03 value="0.0273488268" flag="0"/>
      <psa10 value="0.0012739300" flag="0"/>
      <psa30 value="0.0000797837" flag="0"/>
    </comp>
    <comp name="--.HHN">
      <acc value="0.0624014530" flag="0"/>
      <vel value="0.0058107436" flag="0"/>
      <psa03 value="0.0168272412" flag="0"/>
      <psa10 value="0.0014989527" flag="0"/>
      <psa30 value="0.0000618803" flag="0"/>
    </comp>
    <comp name="--.HHZ">
      <acc value="0.0684074251" flag="0"/>
      <vel value="0.0068682597" flag="0"/>
      <psa03 value="0.0151621340" flag="0"/>
      <psa10 value="0.0016643813" flag="0"/>
      <psa30 value="0.0000979980" flag="0"/>
    </comp>
  </station>
  <station code="THERA" name="THERA" netid="GE" insttype="STS-2/N" commtype="DIG" lat="36.367" lon="25.4753">
    <comp name="--.HHZ">
      <acc value="1.7938418564" flag="0"/>
      <vel value="0.6029052528" flag="0"/>
      <psa03 value="3.5992064937" flag="0"/>
      <psa10 value="0.5038208628" flag="0"/>
      <psa30 value="0.0344963731" flag="0"/>
    </comp>
    <comp name="--.HHE">
      <acc value="2.2797332363" flag="0"/>
      <vel value="0.8074347609" flag="0"/>
      <psa03 value="3.2082962522" flag="0"/>
      <psa10 value="0.7925058188" flag="0"/>
      <psa30 value="0.0832181204" flag="0"/>
    </comp>
    <comp name="--.HHN">
      <acc value="3.8364607951" flag="0"/>
      <vel value="1.1233669920" flag="0"/>
      <psa03 value="4.7710265577" flag="0"/>
      <psa10 value="0.7913901736" flag="0"/>
      <psa30 value="0.0466755868" flag="0"/>
    </comp>
  </station>
  <station code="ZKR" name="ZKR" netid="GE" insttype="STS-2/N" commtype="DIG" lat="35.1147" lon="26.2169">
    <comp name="--.HHN">
      <acc value="0.7897031911" flag="0"/>
      <vel value="0.3331750339" flag="0"/>
      <psa03 value="1.8726497781" flag="0"/>
      <psa10 value="0.3984782004" flag="0"/>
      <psa30 value="0.1267889587" flag="0"/>
    </comp>
    <comp name="--.HHZ">
      <acc value="1.4182485043" flag="0"/>
      <vel value="0.5254785321" flag="0"/>
      <psa03 value="2.8246280991" flag="0"/>
      <psa10 value="0.9864308167" flag="0"/>
      <psa30 value="0.0598026092" flag="0"/>
    </comp>
    <comp name="--.HHE">
      <acc value="2.1339353744" flag="0"/>
      <vel value="1.1161624027" flag="0"/>
      <psa03 value="4.0801817348" flag="0"/>
      <psa10 value="1.9466119985" flag="0"/>
      <psa30 value="0.3797243058" flag="0"/>
    </comp>
  </station>
  <station code="IOSI" name="IOSI" netid="HA" insttype="60s," commtype="DIG" lat="36.7225" lon="25.2887">
    <comp name="--.HHE">
      <acc value="0.8116509082" flag="0"/>
      <vel value="0.6203736460" flag="0"/>
      <psa03 value="1.3644677955" flag="0"/>
      <psa10 value="0.6320110345" flag="0"/>
      <psa30 value="0.0640510891" flag="0"/>
    </comp>
    <comp name="--.HHZ">
      <acc value="0.5198151504" flag="0"/>
      <vel value="0.2343110486" flag="0"/>
      <psa03 value="1.1061612878" flag="0"/>
      <psa10 value="0.3173517529" flag="0"/>
      <psa30 value="0.0265071539" flag="0"/>
    </comp>
    <comp name="--.HHN">
      <acc value="1.0948577427" flag="0"/>
      <vel value="0.6235700312" flag="0"/>
      <psa03 value="2.3612724252" flag="0"/>
      <psa10 value="0.7596816952" flag="0"/>
      <psa30 value="0.0336181679" flag="0"/>
    </comp>
  </station>
  <station code="SERI" name="SERI" netid="HA" insttype="30" commtype="DIG" lat="37.1609" lon="24.4853">
    <comp name="--.HHN">
      <acc value="0.1457183834" flag="0"/>
      <vel value="0.0695714137" flag="0"/>
      <psa03 value="0.3619469065" flag="0"/>
      <psa10 value="0.0710740992" flag="0"/>
      <psa30 value="0.0170376123" flag="0"/>
    </comp>
    <comp name="--.HHE">
      <acc value="0.1083065438" flag="0"/>
      <vel value="0.0718287135" flag="0"/>
      <psa03 value="0.2718773451" flag="0"/>
      <psa10 value="0.0755609970" flag="0"/>
      <psa30 value="0.0172079148" flag="0"/>
    </comp>
    <comp name="--.HHZ">
      <acc value="0.1956713914" flag="0"/>
      <vel value="0.0642007454" flag="0"/>
      <psa03 value="0.2430042580" flag="0"/>
      <psa10 value="0.0707249601" flag="0"/>
      <psa30 value="0.0132928358" flag="0"/>
    </comp>
  </station>
  <station code="SNT1" name="SNT1" netid="HA" insttype="30" commtype="DIG" lat="36.4159" lon="25.4282">
    <comp name="--.HHE">
      <acc value="0.5807699827" flag="0"/>
      <vel value="0.4057118314" flag="0"/>
      <psa03 value="0.9725310141" flag="0"/>
      <psa10 value="0.3854434395" flag="0"/>
      <psa30 value="0.0998482559" flag="0"/>
    </comp>
    <comp name="--.HHN">
      <acc value="0.7515616140" flag="0"/>
      <vel value="0.3633726633" flag="0"/>
      <psa03 value="2.1805333374" flag="0"/>
      <psa10 value="0.4534439686" flag="0"/>
      <psa30 value="0.0393512569" flag="0"/>
    </comp>
    <comp name="--.HHZ">
      <acc value="0.5019842425" flag="0"/>
      <vel value="0.1885581522" flag="0"/>
      <psa03 value="0.8032288986" flag="0"/>
      <psa10 value="0.3123309518" flag="0"/>
      <psa30 value="0.0213513669" flag="0"/>
    </comp>
  </station>
  <station code="SNT5" name="SNT5" netid="HA" insttype="1s-100Hz," commtype="DIG" lat="36.4037" lon="25.3953">
    <comp name="--.HHE">
      <acc value="1.7838040529" flag="0"/>
      <vel value="0.6570388838" flag="0"/>
      <psa03 value="2.9195635539" flag="0"/>
      <psa10 value="0.3837982730" flag="0"/>
      <psa30 value="0.1001099963" flag="0"/>
    </comp>
    <comp name="--.HHN">
      <acc value="1.3352446791" flag="0"/>
      <vel value="0.4233778839" flag="0"/>
      <psa03 value="2.9382212190" flag="0"/>
      <psa10 value="0.2809957809" flag="0"/>
      <psa30 value="0.0790637089" flag="0"/>
    </comp>
    <comp name="--.HHZ">
      <acc value="0.7326337584" flag="0"/>
      <vel value="0.2045919679" flag="0"/>
      <psa03 value="0.9321092546" flag="0"/>
      <psa10 value="0.2357939657" flag="0"/>
      <psa30 value="0.0198955650" flag="0"/>
    </comp>
  </station>
  <station code="ATEI" name="ATEI" netid="HC" insttype="DC" commtype="DIG" lat="35.5193" lon="24.0432">
    <comp name="--.HNE">
      <acc value="0.9792591141" flag="0"/>
      <vel value="0.5961393830" flag="0"/>
      <psa03 value="2.5162232517" flag="0"/>
      <psa10 value="1.0492866373" flag="0"/>
      <psa30 value="0.1206417971" flag="0"/>
    </comp>
    <comp name="--.HNZ">
      <acc value="0.7583073392" flag="0"/>
      <vel value="0.3416419264" flag="0"/>
      <psa03 value="1.3454866232" flag="0"/>
      <psa10 value="0.7289356839" flag="0"/>
      <psa30 value="0.0614269685" flag="0"/>
    </comp>
    <comp name="--.HNN">
      <acc value="1.1155592922" flag="0"/>
      <vel value="0.5831370047" flag="0"/>
      <psa03 value="3.1871781300" flag="0"/>
      <psa10 value="0.7712951077" flag="0"/>
      <psa30 value="0.1030837518" flag="0"/>
    </comp>
  </station>
  <station code="KNDR" name="KNDR" netid="HC" insttype="120" commtype="DIG" lat="35.2348" lon="23.6248">
    <comp name="--.HHE">
      <acc value="0.5140166186" flag="0"/>
      <vel value="0.5233199915" flag="0"/>
      <psa03 value="1.3928834486" flag="0"/>
      <psa10 value="0.8923667986" flag="0"/>
      <psa30 value="0.1255014680" flag="0"/>
    </comp>
    <comp name="--.HHN">
      <acc value="0.5028848340" flag="0"/>
      <vel value="0.5687795714" flag="0"/>
      <psa03 value="1.5355899898" flag="0"/>
      <psa10 value="1.1666454825" flag="0"/>
      <psa30 value="0.1572227873" flag="0"/>
    </comp>
    <comp name="--.HHZ">
      <acc value="0.4371681455" flag="0"/>
      <vel value="0.2952081195" flag="0"/>
      <psa03 value="1.3938717951" flag="0"/>
      <psa10 value="0.3454107532" flag="0"/>
      <psa30 value="0.0451236154" flag="0"/>
    </comp>
  </station>
  <station code="KOSP" name="KOSP" netid="HC" insttype="60" commtype="DIG" lat="36.881" lon="27.281">
    <comp name="--.HHE">
      <acc value="0.9769189791" flag="0"/>
      <vel value="0.6127206925" flag="0"/>
      <psa03 value="2.8368190124" flag="0"/>
      <psa10 value="0.6265096129" flag="0"/>
      <psa30 value="0.0751639596" flag="0"/>
    </comp>
    <comp name="--.HHN">
      <acc value="0.7302908424" flag="0"/>
      <vel value="0.6183318466" flag="0"/>
      <psa03 value="3.1971626585" flag="0"/>
      <psa10 value="0.8381114606" flag="0"/>
      <psa30 value="0.0948079803" flag="0"/>
    </comp>
    <comp name="--.HHZ">
      <acc value="0.4383403731" flag="0"/>
      <vel value="0.2931883239" flag="0"/>
      <psa03 value="1.2534186997" flag="0"/>
      <psa10 value="0.5978058529" flag="0"/>
      <psa30 value="0.0424241314" flag="0"/>
    </comp>
  </station>
  <station code="TEFL" name="TEFL" netid="HC" insttype="GEOtiny," commtype="DIG" lat="35.0933" lon="25.1634">
    <comp name="--.HHZ">
      <acc value="2.8609662803" flag="0"/>
      <vel value="1.0297644814" flag="0"/>
      <psa03 value="5.5876913745" flag="0"/>
      <psa10 value="1.0362806219" flag="0"/>
      <psa30 value="0.1551767571" flag="0"/>
    </comp>
    <comp name="--.HHE">
      <acc value="6.9607910999" flag="0"/>
      <vel value="2.4928899261" flag="0"/>
      <psa03 value="10.6518883684" flag="0"/>
      <psa10 value="4.9220862560" flag="0"/>
      <psa30 value="0.3242518869" flag="0"/>
    </comp>
    <comp name="--.HHN">
      <acc value="5.7139893028" flag="0"/>
      <vel value="2.4703743108" flag="0"/>
      <psa03 value="10.0566393351" flag="0"/>
      <psa10 value="3.0707826750" flag="0"/>
      <psa30 value="0.7560240055" flag="0"/>
    </comp>
  </station>
  <station code="AGN1" name="AGN1" netid="HI" insttype="unknown" commtype="DIG" lat="35.1879" lon="25.7155">
    <comp name="--.HNZ">
      <acc value="2.2372824455" flag="0"/>
      <vel value="0.9754676922" flag="0"/>
      <psa03 value="4.6381128669" flag="0"/>
      <psa10 value="0.4931324991" flag="0"/>
      <psa30 value="0.0595719117" flag="0"/>
    </comp>
    <comp name="--.HNN">
      <acc value="4.9754428242" flag="0"/>
      <vel value="2.2774584869" flag="0"/>
      <psa03 value="11.2523017281" flag="0"/>
      <psa10 value="1.1328569966" flag="0"/>
      <psa30 value="0.2335424532" flag="0"/>
    </comp>
    <comp name="--.HNE">
      <acc value="6.6643471636" flag="0"/>
      <vel value="3.4873485803" flag="0"/>
      <psa03 value="19.1344869280" flag="0"/>
      <psa10 value="2.1308505956" flag="0"/>
      <psa30 value="0.1286270608" flag="0"/>
    </comp>
  </station>
  <station code="ARK1" name="ARK1" netid="HI" insttype="unknown" commtype="DIG" lat="35.1488" lon="25.2642">
    <comp name="--.HNE">
      <acc value="3.0089225509" flag="0"/>
      <vel value="2.5350512701" flag="0"/>
      <psa03 value="10.0105135772" flag="0"/>
      <psa10 value="2.8221657552" flag="0"/>
      <psa30 value="0.3508678573" flag="0"/>
    </comp>
    <comp name="--.HNZ">
      <acc value="2.4955062027" flag="0"/>
      <vel value="0.9196086286" flag="0"/>
      <psa03 value="3.6055347232" flag="0"/>
      <psa10 value="1.9605858635" flag="0"/>
      <psa30 value="0.2331417673" flag="0"/>
    </comp>
    <comp name="--.HNN">
      <acc value="4.6950377610" flag="0"/>
      <vel value="1.9826493020" flag="0"/>
      <psa03 value="10.9659930212" flag="0"/>
      <psa10 value="2.9870022719" flag="0"/>
      <psa30 value="0.5223551934" flag="0"/>
    </comp>
  </station>
  <station code="CH01" name="CH01" netid="HI" insttype="CMG-5TD,ACCELEROMETER,GURALP" commtype="DIG" lat="35.517" lon="24.0208">
    <comp name="--.HNE">
      <acc value="1.2879594443" flag="0"/>
      <vel value="0.7301073461" flag="0"/>
      <psa03 value="3.2483888109" flag="0"/>
      <psa10 value="1.1967479973" flag="0"/>
      <psa30 value="0.1179222267" flag="0"/>
    </comp>
    <comp name="--.HNN">
      <acc value="1.2684399876" flag="0"/>
      <vel value="0.9703367922" flag="0"/>
      <psa03 value="3.0955971524" flag="0"/>
      <psa10 value="1.5960912174" flag="0"/>
      <psa30 value="0.1779315082" flag="0"/>
    </comp>
    <comp name="--.HNZ">
      <acc value="0.5992515899" flag="0"/>
      <vel value="0.6203512731" flag="0"/>
      <psa03 value="1.2076486791" flag="0"/>
      <psa10 value="1.1754447804" flag="0"/>
      <psa30 value="0.0626454200" flag="0"/>
    </comp>
  </station>
  <station code="CH02" name="CH02" netid="HI" insttype="unknown" commtype="DIG" lat="35.5145" lon="24.0315">
    <comp name="--.HNN">
      <acc value="1.2174178335" flag="0"/>
      <vel value="0.8596211462" flag="0"/>
      <psa03 value="2.6251978010" flag="0"/>
      <psa10 value="1.6026680006" flag="0"/>
      <psa30 value="0.1284854959" flag="0"/>
    </comp>
    <comp name="--.HNE">
      <acc value="1.2123437804" flag="0"/>
      <vel value="0.7412570232" flag="0"/>
      <psa03 value="3.7213439112" flag="0"/>
      <psa10 value="1.4647985422" flag="0"/>
      <psa30 value="0.1466319508" flag="0"/>
    </comp>
    <comp name="--.HNZ">
      <acc value="0.7817024145" flag="0"/>
      <vel value="0.3580752584" flag="0"/>
      <psa03 value="1.0008904973" flag="0"/>
      <psa10 value="0.9857295431" flag="0"/>
      <psa30 value="0.0536034482" flag="0"/>
    </comp>
  </station>
  <station code="CH03" name="CH03" netid="HI" insttype="unknown" commtype="DIG" lat="35.533" lon="24.0705">
    <comp name="--.HNZ">
      <acc value="0.6049925383" flag="0"/>
      <vel value="0.4153968022" flag="0"/>
      <psa03 value="1.4225671999" flag="0"/>
      <psa10 value="0.6136481660" flag="0"/>
      <psa30 value="0.0480316563" flag="0"/>
    </comp>
    <comp name="--.HNN">
      <acc value="1.0117653349" flag="0"/>
      <vel value="0.7782742404" flag="0"/>
      <psa03 value="2.7683698814" flag="0"/>
      <psa10 value="1.2931380217" flag="0"/>
      <psa30 value="0.1045003260" flag="0"/>
    </comp>
    <comp name="--.HNE">
      <acc value="0.6413430800" flag="0"/>
      <vel value="0.7100424501" flag="0"/>
      <psa03 value="1.7172222026" flag="0"/>
      <psa10 value="1.2386048744" flag="0"/>
      <psa30 value="0.0708442648" flag="0"/>
    </comp>
  </station>
  <station code="GOR1" name="GOR1" netid="HI" insttype="unknown" commtype="DIG" lat="35.0582" lon="24.9628">
    <comp name="--.HNZ">
      <acc value="1.4634512750" flag="0"/>
      <vel value="1.5828231801" flag="0"/>
      <psa03 value="2.7544828458" flag="0"/>
      <psa10 value="2.1461990757" flag="0"/>
      <psa30 value="0.2288582066" flag="0"/>
    </comp>
    <comp name="--.HNN">
      <acc value="1.6321624607" flag="0"/>
      <vel value="2.3730739154" flag="0"/>
      <psa03 value="4.0049129539" flag="0"/>
      <psa10 value="2.9710456356" flag="0"/>
      <psa30 value="0.6742410380" flag="0"/>
    </comp>
    <comp name="--.HNE">
      <acc value="1.9694477358" flag="0"/>
      <vel value="1.8797952946" flag="0"/>
      <psa03 value="6.3027481199" flag="0"/>
      <psa10 value="3.4332962063" flag="0"/>
      <psa30 value="0.4892455158" flag="0"/>
    </comp>
  </station>
  <station code="HER1" name="HER1" netid="HI" insttype="unknown" commtype="DIG" lat="35.3177" lon="25.1022">
    <comp name="--.HNE">
      <acc value="8.8813147583" flag="0"/>
      <vel value="7.5225469654" flag="0"/>
      <psa03 value="27.1031135121" flag="0"/>
      <psa10 value="10.9563765118" flag="0"/>
      <psa30 value="0.8990980965" flag="0"/>
    </comp>
    <comp name="--.HNZ">
      <acc value="4.6719639223" flag="0"/>
      <vel value="3.2023823385" flag="0"/>
      <psa03 value="12.9776266034" flag="0"/>
      <psa10 value="4.9576527478" flag="0"/>
      <psa30 value="0.1870248522" flag="0"/>
    </comp>
    <comp name="--.HNN">
      <acc value="7.0444578714" flag="0"/>
      <vel value="7.4920484817" flag="0"/>
      <psa03 value="18.5086689247" flag="0"/>
      <psa10 value="10.3477012290" flag="0"/>
      <psa30 value="0.8453249641" flag="0"/>
    </comp>
  </station>
  <station code="HER3" name="HER3" netid="HI" insttype="unknown" commtype="DIG" lat="35.3296" lon="25.1065">
    <comp name="--.HNE">
      <acc value="9.5472506993" flag="0"/>
      <vel value="5.5229123631" flag="0"/>
      <psa03 value="26.4262316516" flag="0"/>
      <psa10 value="6.3654229327" flag="0"/>
      <psa30 value="0.5347025599" flag="0"/>
    </comp>
    <comp name="--.HNN">
      <acc value="8.6850679398" flag="0"/>
      <vel value="9.1327285886" flag="0"/>
      <psa03 value="22.7471100596" flag="0"/>
      <psa10 value="12.7698616778" flag="0"/>
      <psa30 value="1.0124427917" flag="0"/>
    </comp>
    <comp name="--.HNZ">
      <acc value="3.6706769251" flag="0"/>
      <vel value="2.1838673755" flag="0"/>
      <psa03 value="16.0602028837" flag="0"/>
      <psa10 value="4.1681088584" flag="0"/>
      <psa30 value="0.1199666882" flag="0"/>
    </comp>
  </station>
  <station code="KSS1" name="KSS1" netid="HI" insttype="CMG-5TD,ACCELEROMETER,GURALP" commtype="DIG" lat="35.4189" lon="26.9207">
    <comp name="--.HNN">
      <acc value="1.7916166706" flag="0"/>
      <vel value="0.6514167155" flag="0"/>
      <psa03 value="5.0352537809" flag="0"/>
      <psa10 value="0.6520925428" flag="0"/>
      <psa30 value="0.0619168593" flag="0"/>
    </comp>
    <comp name="--.HNZ">
      <acc value="1.1618534226" flag="0"/>
      <vel value="0.2726228911" flag="0"/>
      <psa03 value="0.8041193960" flag="0"/>
      <psa10 value="0.4225149711" flag="0"/>
      <psa30 value="0.0645253785" flag="0"/>
    </comp>
    <comp name="--.HNE">
      <acc value="1.0927287936" flag="0"/>
      <vel value="0.4703298165" flag="0"/>
      <psa03 value="3.8178777853" flag="0"/>
      <psa10 value="0.4448931239" flag="0"/>
      <psa30 value="0.1098891855" flag="0"/>
    </comp>
  </station>
