<?xml version="1.0" encoding="UTF-8" standalone="yes"?>
<!DOCTYPE earthquake SYSTEM "stationlist.dtd">
<stationlist created="" xmlns="ch.ethz.sed.shakemap.usgs.xml">
  <station code="APE" name="APE" netid="GE" insttype="STS-2/N" commtype="DIG" lat="37.0727" lon="25.523">
    <comp name="--.HHE">
      <acc value="0.8818945277" flag="0"/>
      <vel value="0.4945207144" flag="0"/>
      <psa03 value="1.8460580476" flag="0"/>
      <psa10 value="0.2876628980" flag="0"/>
      <psa30 value="0.0372316669" flag="0"/>
    </comp>
    <comp name="--.HHN">
      <acc value="1.1048655560" flag="0"/>
      <vel value="0.3960687789" flag="0"/>
      <psa03 value="1.3739863676" flag="0"/>
      <psa10 value="0.4303936299" flag="0"/>
      <psa30 value="0.0279605385" flag="0"/>
    </comp>
    <comp name="--.HHZ">
      <acc value="0.3971311027" flag="0"/>
      <vel value="0.2104931302" flag="0"/>
      <psa03 value="0.9890096810" flag="0"/>
      <psa10 value="0.2186897960" flag="0"/>
      <psa30 value="0.0265980037" flag="0"/>
    </comp>
  </station>
  <station code="IMMV" name="IMMV" netid="GE" insttype="STS-2/N" commtype="DIG" lat="35.4606" lon="23.9811">
    <comp name="--.HHZ">
      <acc value="0.6158691788" flag="0"/>
      <vel value="0.3814316206" flag="0"/>
      <psa03 value="1.7791392668" flag="0"/>
      <psa10 value="0.7385167773" flag="0"/>
      <psa30 value="0.0731567741" flag="0"/>
    </comp>
    <comp name="--.HHN">
      <acc value="1.0900487533" flag="0"/>
      <vel value="0.7980349483" flag="0"/>
      <psa03 value="3.5309463457" flag="0"/>
      <psa10 value="1.3784890171" flag="0"/>
      <psa30 value="0.1094376738" flag="0"/>
    </comp>
    <comp name="--.HHE">
      <acc value="0.8624274656" flag="0"/>
      <vel value="0.7023521283" flag="0"/>
      <psa03 value="1.7054786023" flag="0"/>
      <psa10 value="1.4172356288" flag="0"/>
      <psa30 value="0.0846657147" flag="0"/>
    </comp>
  </station>
  <station code="KARP" name="KARP" netid="GE" insttype="STS-2/N" commtype="DIG" lat="35.5471" lon="27.1611">
    <comp name="--.HHE">
      <acc value="0.0829475490" flag="0"/>
      <vel value="0.0076355316" flag="0"/>
      <psa03 value="0.0273488268" flag="0"/>
      <psa10 value="0.0012739300" flag="0"/>
      <psa30 value="0.0000797836" flag="0"/>
    </comp>
    <comp name="--.HHZ">
      <acc value="0.0684074252" flag="0"/>
      <vel value="0.0068682597" flag="0"/>
      <psa03 value="0.0151621340" flag="0"/>
      <psa10 value="0.0016643813" flag="0"/>
      <psa30 value="0.0000979980" flag="0"/>
    </comp>
    <comp name="--.HHN">
      <acc value="0.0624014526" flag="0"/>
      <vel value="0.0058107436" flag="0"/>
      <psa03 value="0.0168272412" flag="0"/>
      <psa10 value="0.0014989527" flag="0"/>
      <psa30 value="0.0000618803" flag="0"/>
    </comp>
  </station>
  <station code="THERA" name="THERA" netid="GE" insttype="STS-2/N" commtype="DIG" lat="36.367" lon="25.4753">
    <comp name="--.HHE">
      <acc value="2.2797332373" flag="0"/>
      <vel value="0.8074347609" flag="0"/>
      <psa03 value="3.2082962522" flag="0"/>
      <psa10 value="0.7925058189" flag="0"/>
      <psa30 value="0.0832181060" flag="0"/>
    </comp>
    <comp name="--.HHN">
      <acc value="3.8364607958" flag="0"/>
      <vel value="1.1233669907" flag="0"/>
      <psa03 value="4.7710265577" flag="0"/>
      <psa10 value="0.7913901735" flag="0"/>
      <psa30 value="0.0466755904" flag="0"/>
    </comp>
    <comp name="--.HHZ">
      <acc value="1.7938418565" flag="0"/>
      <vel value="0.6029052521" flag="0"/>
      <psa03 value="3.5992064937" flag="0"/>
      <psa10 value="0.5038208628" flag="0"/>
      <psa30 value="0.0344963871" flag="0"/>
    </comp>
  </station>
  <station code="ZKR" name="ZKR" netid="GE" insttype="STS-2/N" commtype="DIG" lat="35.1147" lon="26.2169">
    <comp name="--.HHN">
      <acc value="0.7897031908" flag="0"/>
      <vel value="0.3331750329" flag="0"/>
      <psa03 value="1.8726497781" flag="0"/>
      <psa10 value="0.3984782003" flag="0"/>
      <psa30 value="0.1267889612" flag="0"/>
    </comp>
    <comp name="--.HHE">
      <acc value="2.1339353740" flag="0"/>
      <vel value="1.1161624050" flag="0"/>
      <psa03 value="4.0801817348" flag="0"/>
      <psa10 value="1.9466119985" flag="0"/>
      <psa30 value="0.3797242619" flag="0"/>
    </comp>
    <comp name="--.HHZ">
      <acc value="1.4182485043" flag="0"/>
      <vel value="0.5254785336" flag="0"/>
      <psa03 value="2.8246280991" flag="0"/>
      <psa10 value="0.9864308167" flag="0"/>
      <psa30 value="0.0598026188" flag="0"/>
    </comp>
  </station>
  <station code="BODA" name="BODA" netid="KO" insttype="SA10" commtype="DIG" lat="37.0348" lon="27.4304">
    <comp name="--.HNE">
      <acc value="0.2475549197" flag="0"/>
      <vel value="0.1175692363" flag="0"/>
      <psa03 value="1.0417399085" flag="0"/>
      <psa10 value="0.1048368080" flag="0"/>
      <psa30 value="0.0185035107" flag="0"/>
    </comp>
    <comp name="--.HNZ">
      <acc value="0.0605112484" flag="0"/>
      <vel value="0.0537471779" flag="0"/>
      <psa03 value="0.1709122547" flag="0"/>
      <psa10 value="0.0631194733" flag="0"/>
      <psa30 value="0.0178877592" flag="0"/>
    </comp>
    <comp name="--.HNN">
      <acc value="0.2247191957" flag="0"/>
      <vel value="0.1541447292" flag="0"/>
      <psa03 value="0.8555914808" flag="0"/>
      <psa10 value="0.1563644263" flag="0"/>
      <psa30 value="0.0261271251" flag="0"/>
    </comp>
  </station>
  <station code="BODT" name="BODT" netid="KO" insttype="CMG-3ESP" commtype="DIG" lat="37.0622" lon="27.3103">
    <comp name="--.HHE">
      <acc value="0.3203525433" flag="0"/>
      <vel value="0.1627969949" flag="0"/>
      <psa03 value="0.9241208699" flag="0"/>
      <psa10 value="0.2035855190" flag="0"/>
      <psa30 value="0.0190801423" flag="0"/>
    </comp>
    <comp name="--.HHN">
      <acc value="0.2532471529" flag="0"/>
      <vel value="0.1843385461" flag="0"/>
      <psa03 value="0.4091862770" flag="0"/>
      <psa10 value="0.2358896083" flag="0"/>
      <psa30 value="0.0211494492" flag="0"/>
    </comp>
    <comp name="--.HHZ">
      <acc value="0.0856746213" flag="0"/>
      <vel value="0.0435326870" flag="0"/>
      <psa03 value="0.1271493636" flag="0"/>
      <psa10 value="0.0400463262" flag="0"/>
      <psa30 value="0.0061986892" flag="0"/>
    </comp>
  </station>
  <station code="DAT" name="DAT" netid="KO" insttype="CMG-3T" commtype="DIG" lat="36.7308" lon="27.5767">
    <comp name="--.HHE">
      <acc value="0.2444186714" flag="0"/>
      <vel value="0.2673541242" flag="0"/>
      <psa03 value="0.4201654079" flag="0"/>
      <psa10 value="0.2846415714" flag="0"/>
      <psa30 value="0.0512181521" flag="0"/>
    </comp>
    <comp name="--.HHN">
      <acc value="0.2998708163" flag="0"/>
      <vel value="0.2774053718" flag="0"/>
      <psa03 value="0.7994365333" flag="0"/>
      <psa10 value="0.3235111915" flag="0"/>
      <psa30 value="0.0325787472" flag="0"/>
    </comp>
    <comp name="--.HHZ">
      <acc value="0.0000296521" flag="0"/>
      <vel value="0.0000045896" flag="0"/>
      <psa03 value="0.0000127623" flag="0"/>
      <psa10 value="0.0000044286" flag="0"/>
      <psa30 value="0.0000007086" flag="0"/>
    </comp>
  </station>
  <station code="DATC" name="DATC" netid="KO" insttype="CMG-5T" commtype="DIG" lat="36.7584" lon="27.6602">
    <comp name="--.HNE">
      <acc value="0.3776672887" flag="0"/>
      <vel value="0.6236121052" flag="0"/>
      <psa03 value="0.9254696499" flag="0"/>
      <psa10 value="1.1999312607" flag="0"/>
      <psa30 value="0.1252024057" flag="0"/>
    </comp>
    <comp name="--.HNN">
      <acc value="0.3125611320" flag="0"/>
      <vel value="0.4941094013" flag="0"/>
      <psa03 value="0.6951006444" flag="0"/>
      <psa10 value="0.7598490024" flag="0"/>
      <psa30 value="0.1049178900" flag="0"/>
    </comp>
    <comp name="--.HNZ">
      <acc value="0.5056842144" flag="0"/>
      <vel value="0.2712115711" flag="0"/>
      <psa03 value="0.6246776456" flag="0"/>
      <psa10 value="0.3387473669" flag="0"/>
      <psa30 value="0.0194472799" flag="0"/>
    </comp>
  </station>
  <station code="YKAV" name="YKAV" netid="KO" insttype="CMG-5T" commtype="DIG" lat="37.1246" lon="27.2801">
    <comp name="--.HNZ">
      <acc value="0.0587038103" flag="0"/>
      <vel value="0.0345464634" flag="0"/>
      <psa03 value="0.1091786760" flag="0"/>
      <psa10 value="0.0464928601" flag="0"/>
      <psa30 value="0.0057554307" flag="0"/>
    </comp>
    <comp name="--.HNE">
      <acc value="0.1674174310" flag="0"/>
      <vel value="0.1387008577" flag="0"/>
      <psa03 value="0.4069385001" flag="0"/>
      <psa10 value="0.1567397766" flag="0"/>
      <psa30 value="0.0209109679" flag="0"/>
    </comp>
    <comp name="--.HNN">
      <acc value="0.1548651074" flag="0"/>
      <vel value="0.1504157876" flag="0"/>
      <psa03 value="0.5293761041" flag="0"/>
      <psa10 value="0.2326314071" flag="0"/>
      <psa30 value="0.0424557076" flag="0"/>
    </comp>
  </station>
</stationlist>
