<stationlist xmlns:esm="https://esm-db.eu/esmws/shakemap/1/" created="1784080669">
	<station code="KTHA" name="KTHA" netid="GE" source="GEOFON" insttype="" lat="36.2566" lon="23.0621" esm:processing="manual (Paolucci et al 2011)" esm:quality="good">
		<comp name="--.HNE" depth="0.0">
			<acc value="0.451130696511374" flag="0"/>
			<vel value="0.226679216302145" flag="0"/>
			<psa03 value="1.33350917177135" flag="0"/>
			<psa10 value="0.239852074022605" flag="0"/>
			<psa30 value="0.0372537078753124" flag="0"/>
		</comp>
		<comp name="--.HNN" depth="0.0">
			<acc value="0.342698033336415" flag="0"/>
			<vel value="0.265191903093435" flag="0"/>
			<psa03 value="0.957077235004713" flag="0"/>
			<psa10 value="0.351148151841578" flag="0"/>
			<psa30 value="0.0276430445493564" flag="0"/>
		</comp>
		<comp name="--.HNZ" depth="0.0">
			<acc value="0.204160705252559" flag="0"/>
			<vel value="0.127909794299427" flag="0"/>
			<psa03 value="0.483557158290776" flag="0"/>
			<psa10 value="0.133392061569274" flag="0"/>
			<psa30 value="0.0256628833733958" flag="0"/>
		</comp>
	</station>
	<station code="ATHU" name="ATHU" netid="HA" source="Hellenic Seismological Network, University of Athens, Seismological Laboratory (HA)" insttype="" lat="37.9665" lon="23.7845" esm:processing="manual (Paolucci et al 2011)" esm:quality="best">
		<comp name="--.HNE" depth="0.0">
			<acc value="0.00225281035513961" flag="0"/>
			<vel value="0.00299962830538174" flag="0"/>
			<psa03 value="0.0047270165921894" flag="0"/>
			<psa10 value="0.00282680577763301" flag="0"/>
			<psa30 value="0.000674862102136107" flag="0"/>
		</comp>
		<comp name="--.HNN" depth="0.0">
			<acc value="0.00198992349044749" flag="0"/>
			<vel value="0.00188621047461242" flag="0"/>
			<psa03 value="0.00303668228508818" flag="0"/>
			<psa10 value="0.00233156531413609" flag="0"/>
			<psa30 value="0.000431524341578124" flag="0"/>
		</comp>
		<comp name="--.HNZ" depth="0.0">
			<acc value="0.0020446013227342" flag="0"/>
			<vel value="0.00344526899506191" flag="0"/>
			<psa03 value="0.00516838274455487" flag="0"/>
			<psa10 value="0.00376374604845484" flag="0"/>
			<psa30 value="0.000540086976026869" flag="0"/>
		</comp>
	</station>
	<station code="KIAS" name="KIAS" netid="HA" source="Hellenic Seismological Network, University of Athens, Seismological Laboratory (HA)" insttype="" lat="37.9875" lon="22.7543" esm:processing="manual (Paolucci et al 2011)" esm:quality="good">
		<comp name="--.HNE" depth="0.0">
			<acc value="0.213218434923266" flag="0"/>
			<vel value="0.267742085756852" flag="0"/>
			<psa03 value="0.401801742393493" flag="0"/>
			<psa10 value="0.597539624067522" flag="0"/>
			<psa30 value="0.135557260003195" flag="0"/>
		</comp>
		<comp name="--.HNN" depth="0.0">
			<acc value="0.144374564880529" flag="0"/>
			<vel value="0.219628760434725" flag="0"/>
			<psa03 value="0.304361933317685" flag="0"/>
			<psa10 value="0.424067622398768" flag="0"/>
			<psa30 value="0.105460419568557" flag="0"/>
		</comp>
		<comp name="--.HNZ" depth="0.0">
			<acc value="0.10133034331289" flag="0"/>
			<vel value="0.149879727948035" flag="0"/>
			<psa03 value="0.270112643636997" flag="0"/>
			<psa10 value="0.32859682792718" flag="0"/>
			<psa30 value="0.0589696531167776" flag="0"/>
		</comp>
	</station>
	<station code="ATEI" name="ATEI" netid="HC" source="Seismological Network of Crete (HC)" insttype="" lat="35.5193" lon="24.0432" esm:processing="manual (Paolucci et al 2011)" esm:quality="best">
		<comp name="--.HNE" depth="0.0">
			<acc value="0.977562089749636" flag="0"/>
			<vel value="0.628639845215918" flag="0"/>
			<psa03 value="2.53312097350147" flag="0"/>
			<psa10 value="1.04953828676013" flag="0"/>
			<psa30 value="0.123500821323271" flag="0"/>
		</comp>
		<comp name="--.HNN" depth="0.0">
			<acc value="1.11514803937905" flag="0"/>
			<vel value="0.595798164502323" flag="0"/>
			<psa03 value="3.18544402003099" flag="0"/>
			<psa10 value="0.772514035263495" flag="0"/>
			<psa30 value="0.104959919746288" flag="0"/>
		</comp>
		<comp name="--.HNZ" depth="0.0">
			<acc value="0.747144763734105" flag="0"/>
			<vel value="0.375017761207484" flag="0"/>
			<psa03 value="1.35759926762076" flag="0"/>
			<psa10 value="0.730551635461294" flag="0"/>
			<psa30 value="0.0630700380803594" flag="0"/>
		</comp>
	</station>
	<station code="PASK" name="PASK" netid="HC" source="Seismological Network of Crete (HC)" insttype="" lat="35.4996" lon="24.0121" esm:processing="manual (Paolucci et al 2011)" esm:quality="best">
		<comp name="--.HNE" depth="0.0">
			<acc value="0.999288818474113" flag="0"/>
			<vel value="1.02526447523656" flag="0"/>
			<psa03 value="2.53313930804791" flag="0"/>
			<psa10 value="1.25854245226077" flag="0"/>
			<psa30 value="0.17598123122628" flag="0"/>
		</comp>
		<comp name="--.HNN" depth="0.0">
			<acc value="1.21528969707376" flag="0"/>
			<vel value="0.994428490417823" flag="0"/>
			<psa03 value="2.83318268444622" flag="0"/>
			<psa10 value="1.79794266487656" flag="0"/>
			<psa30 value="0.197773234839735" flag="0"/>
		</comp>
		<comp name="--.HNZ" depth="0.0">
			<acc value="0.841225370754008" flag="0"/>
			<vel value="0.602198917491721" flag="0"/>
			<psa03 value="2.41773282960279" flag="0"/>
			<psa10 value="1.1031721197376" flag="0"/>
			<psa30 value="0.0730229240770309" flag="0"/>
		</comp>
	</station>
	<station code="AGN1" name="AGN1" netid="HI" source="ITSAK Strong Motion Network" insttype="" lat="35.1879" lon="25.7155" esm:processing="manual (Paolucci et al 2011)" esm:quality="good">
		<comp name="--.HNE" depth="0.0">
			<acc value="6.63405080221217" flag="0"/>
			<vel value="3.50669326858759" flag="0"/>
			<psa03 value="19.0073244752878" flag="0"/>
			<psa10 value="2.13664098197996" flag="0"/>
			<psa30 value="0.130565889349574" flag="0"/>
		</comp>
		<comp name="--.HNN" depth="0.0">
			<acc value="5.03254360892303" flag="0"/>
			<vel value="2.32514956773995" flag="0"/>
			<psa03 value="11.0984778863688" flag="0"/>
			<psa10 value="1.13847569842624" flag="0"/>
			<psa30 value="0.233934617020085" flag="0"/>
		</comp>
		<comp name="--.HNZ" depth="0.0">
			<acc value="2.20682086498163" flag="0"/>
			<vel value="1.06275335270755" flag="0"/>
			<psa03 value="4.68907029454673" flag="0"/>
			<psa10 value="0.494345837984373" flag="0"/>
			<psa30 value="0.066385391039616" flag="0"/>
		</comp>
	</station>
	<station code="ARE2" name="ARE2" netid="HI" source="ITSAK Strong Motion Network" insttype="" lat="36.66629" lon="22.382635" esm:processing="manual (Paolucci et al 2011)" esm:quality="good">
		<comp name="--.HNE" depth="0.0">
			<acc value="0.109159396519498" flag="0"/>
			<vel value="0.211712195161081" flag="0"/>
			<psa03 value="0.404537256941092" flag="0"/>
			<psa10 value="0.277742319065465" flag="0"/>
			<psa30 value="0.0981065257424646" flag="0"/>
		</comp>
		<comp name="--.HNN" depth="0.0">
			<acc value="0.0938729143816933" flag="0"/>
			<vel value="0.116579300811044" flag="0"/>
			<psa03 value="0.333143610796029" flag="0"/>
			<psa10 value="0.194433655275311" flag="0"/>
			<psa30 value="0.0357160393456714" flag="0"/>
		</comp>
		<comp name="--.HNZ" depth="0.0">
			<acc value="0.0712433432916039" flag="0"/>
			<vel value="0.0895316006182791" flag="0"/>
			<psa03 value="0.134928313338463" flag="0"/>
			<psa10 value="0.115853192205258" flag="0"/>
			<psa30 value="0.0377505674564832" flag="0"/>
		</comp>
	</station>
	<station code="ARK1" name="ARK1" netid="HI" source="ITSAK Strong Motion Network" insttype="" lat="35.148777" lon="25.264194" esm:processing="manual (Paolucci et al 2011)" esm:quality="best">
		<comp name="--.HNE" depth="0.0">
			<acc value="2.98660048812949" flag="0"/>
			<vel value="2.57722110652775" flag="0"/>
			<psa03 value="9.85688163669407" flag="0"/>
			<psa10 value="2.82323862570257" flag="0"/>
			<psa30 value="0.358570606876253" flag="0"/>
		</comp>
		<comp name="--.HNN" depth="0.0">
			<acc value="4.7018013030903" flag="0"/>
			<vel value="2.08291829367486" flag="0"/>
			<psa03 value="10.8804994463528" flag="0"/>
			<psa10 value="2.98515263171268" flag="0"/>
			<psa30 value="0.532025057380221" flag="0"/>
		</comp>
		<comp name="--.HNZ" depth="0.0">
			<acc value="2.43186149856619" flag="0"/>
			<vel value="0.939333345194269" flag="0"/>
			<psa03 value="3.67986110607117" flag="0"/>
			<psa10 value="1.96063612252188" flag="0"/>
			<psa30 value="0.234898147516037" flag="0"/>
		</comp>
	</station>
	<station code="ARS1" name="ARS1" netid="HI" source="ITSAK Strong Motion Network" insttype="" lat="37.6349" lon="22.7293" esm:processing="manual (Paolucci et al 2011)" esm:quality="good">
		<comp name="--.HNE" depth="0.0">
			<acc value="0.276149734278772" flag="0"/>
			<vel value="0.293007730189856" flag="0"/>
			<psa03 value="0.574032360159989" flag="0"/>
			<psa10 value="0.464764298353821" flag="0"/>
			<psa30 value="0.0497051060526693" flag="0"/>
		</comp>
		<comp name="--.HNN" depth="0.0">
			<acc value="0.280853100430134" flag="0"/>
			<vel value="0.278826212668912" flag="0"/>
			<psa03 value="0.582088185485548" flag="0"/>
			<psa10 value="0.293187672244396" flag="0"/>
			<psa30 value="0.0788200347738084" flag="0"/>
		</comp>
		<comp name="--.HNZ" depth="0.0">
			<acc value="0.101634741758685" flag="0"/>
			<vel value="0.101981049260986" flag="0"/>
			<psa03 value="0.359121748386686" flag="0"/>
			<psa10 value="0.125350336344595" flag="0"/>
			<psa30 value="0.0361956911202308" flag="0"/>
		</comp>
	</station>
	<station code="ATH5" name="ATH5" netid="HI" source="ITSAK Strong Motion Network" insttype="" lat="37.975421" lon="23.737098" esm:processing="manual (Paolucci et al 2011)" esm:quality="good">
		<comp name="--.HNE" depth="0.0">
			<acc value="0.047628146528876" flag="0"/>
			<vel value="0.0617804884010739" flag="0"/>
			<psa03 value="0.113910400171848" flag="0"/>
			<psa10 value="0.0921986952109757" flag="0"/>
			<psa30 value="0.0110475760143489" flag="0"/>
		</comp>
		<comp name="--.HNN" depth="0.0">
			<acc value="0.035904086923052" flag="0"/>
			<vel value="0.0878543453692024" flag="0"/>
			<psa03 value="0.12973328169328" flag="0"/>
			<psa10 value="0.101517072507901" flag="0"/>
			<psa30 value="0.0137648493537011" flag="0"/>
		</comp>
		<comp name="--.HNZ" depth="0.0">
			<acc value="0.0698175520924837" flag="0"/>
			<vel value="0.054709454640811" flag="0"/>
			<psa03 value="0.158799102994603" flag="0"/>
			<psa10 value="0.0877765972687407" flag="0"/>
			<psa30 value="0.00767339999176169" flag="0"/>
		</comp>
	</station>
	<station code="CH01" name="CH01" netid="HI" source="ITSAK Strong Motion Network" insttype="" lat="35.517" lon="24.0208" esm:processing="manual (Paolucci et al 2011)" esm:quality="good">
		<comp name="--.HNE" depth="0.0">
			<acc value="1.28566755168741" flag="0"/>
			<vel value="0.768121201042674" flag="0"/>
			<psa03 value="3.31685239186065" flag="0"/>
			<psa10 value="1.19506136694925" flag="0"/>
			<psa30 value="0.119258233606016" flag="0"/>
		</comp>
		<comp name="--.HNN" depth="0.0">
			<acc value="1.26066640572517" flag="0"/>
			<vel value="0.977063888270119" flag="0"/>
			<psa03 value="3.07260187812985" flag="0"/>
			<psa10 value="1.59925570284004" flag="0"/>
			<psa30 value="0.180086649856936" flag="0"/>
		</comp>
		<comp name="--.HNZ" depth="0.0">
			<acc value="0.597962395093464" flag="0"/>
			<vel value="0.632278069410169" flag="0"/>
			<psa03 value="1.22008615805206" flag="0"/>
			<psa10 value="1.1768814826219" flag="0"/>
			<psa30 value="0.0631777452153898" flag="0"/>
		</comp>
	</station>
	<station code="CH02" name="CH02" netid="HI" source="ITSAK Strong Motion Network" insttype="" lat="35.5145" lon="24.0315" esm:processing="manual (Paolucci et al 2011)" esm:quality="good">
		<comp name="--.HNE" depth="0.0">
			<acc value="1.20041977420284" flag="0"/>
			<vel value="0.742506134666929" flag="0"/>
			<psa03 value="3.76918068972099" flag="0"/>
			<psa10 value="1.46843851684541" flag="0"/>
			<psa30 value="0.144056516370603" flag="0"/>
		</comp>
		<comp name="--.HNN" depth="0.0">
			<acc value="1.22599187992866" flag="0"/>
			<vel value="0.864032443191259" flag="0"/>
			<psa03 value="2.64045758402368" flag="0"/>
			<psa10 value="1.60550367673978" flag="0"/>
			<psa30 value="0.130376383462304" flag="0"/>
		</comp>
		<comp name="--.HNZ" depth="0.0">
			<acc value="0.81062478218756" flag="0"/>
			<vel value="0.386667137008263" flag="0"/>
			<psa03 value="0.997834434968647" flag="0"/>
			<psa10 value="0.98874807970714" flag="0"/>
			<psa30 value="0.055704183462318" flag="0"/>
		</comp>
	</station>
	<station code="CH03" name="CH03" netid="HI" source="ITSAK Strong Motion Network" insttype="" lat="35.53303" lon="24.0705" esm:processing="manual (Paolucci et al 2011)" esm:quality="good">
		<comp name="--.HNE" depth="0.0">
			<acc value="0.64128308187992" flag="0"/>
			<vel value="0.672418127320469" flag="0"/>
			<psa03 value="1.69958342239332" flag="0"/>
			<psa10 value="1.23820386493039" flag="0"/>
			<psa30 value="0.0726651670438986" flag="0"/>
		</comp>
		<comp name="--.HNN" depth="0.0">
			<acc value="1.01341523720122" flag="0"/>
			<vel value="0.77366094035257" flag="0"/>
			<psa03 value="2.77336888874317" flag="0"/>
			<psa10 value="1.29151703666328" flag="0"/>
			<psa30 value="0.105237404795027" flag="0"/>
		</comp>
		<comp name="--.HNZ" depth="0.0">
			<acc value="0.610841361587928" flag="0"/>
			<vel value="0.434533618902018" flag="0"/>
			<psa03 value="1.44848228817395" flag="0"/>
			<psa10 value="0.613206061891032" flag="0"/>
			<psa30 value="0.0493946688211086" flag="0"/>
		</comp>
	</station>
	<station code="GOR1" name="GOR1" netid="HI" source="ITSAK Strong Motion Network" insttype="" lat="35.0582" lon="24.9628" esm:processing="manual (Paolucci et al 2011)" esm:quality="best">
		<comp name="--.HNE" depth="0.0">
			<acc value="1.97596531898638" flag="0"/>
			<vel value="1.88091977319942" flag="0"/>
			<psa03 value="6.27404162447201" flag="0"/>
			<psa10 value="3.43644756778546" flag="0"/>
			<psa30 value="0.495798337541683" flag="0"/>
		</comp>
		<comp name="--.HNN" depth="0.0">
			<acc value="1.62755108807144" flag="0"/>
			<vel value="2.43769494902183" flag="0"/>
			<psa03 value="4.02283182619989" flag="0"/>
			<psa10 value="2.98555945866339" flag="0"/>
			<psa30 value="0.690810296125603" flag="0"/>
		</comp>
		<comp name="--.HNZ" depth="0.0">
			<acc value="1.46589102747405" flag="0"/>
			<vel value="1.57056795721035" flag="0"/>
			<psa03 value="2.77174094756874" flag="0"/>
			<psa10 value="2.14221727138149" flag="0"/>
			<psa30 value="0.227150540942045" flag="0"/>
		</comp>
	</station>
	<station code="GTH2" name="GTH2" netid="HI" source="ITSAK Strong Motion Network" insttype="" lat="36.7603" lon="22.5659" esm:processing="manual (Paolucci et al 2011)" esm:quality="good">
		<comp name="--.HNE" depth="0.0">
			<acc value="0.359718607879093" flag="0"/>
			<vel value="0.360058156909698" flag="0"/>
			<psa03 value="0.832482231195016" flag="0"/>
			<psa10 value="0.611613256375043" flag="0"/>
			<psa30 value="0.0509704232069856" flag="0"/>
		</comp>
		<comp name="--.HNN" depth="0.0">
			<acc value="0.334230211190081" flag="0"/>
			<vel value="0.325528015944753" flag="0"/>
			<psa03 value="0.710094623615933" flag="0"/>
			<psa10 value="0.977259598653652" flag="0"/>
			<psa30 value="0.0416301677943249" flag="0"/>
		</comp>
		<comp name="--.HNZ" depth="0.0">
			<acc value="0.13155718527004" flag="0"/>
			<vel value="0.155329770740371" flag="0"/>
			<psa03 value="0.293319305964683" flag="0"/>
			<psa10 value="0.164092405316464" flag="0"/>
			<psa30 value="0.0331861584201132" flag="0"/>
		</comp>
	</station>
	<station code="HER1" name="HER1" netid="HI" source="ITSAK Strong Motion Network" insttype="" lat="35.317672" lon="25.10217" esm:processing="manual (Paolucci et al 2011)" esm:quality="good">
		<comp name="--.HNE" depth="0.0">
			<acc value="8.8615292557311" flag="0"/>
			<vel value="7.54703225314507" flag="0"/>
			<psa03 value="26.8556777235206" flag="0"/>
			<psa10 value="10.947308565449" flag="0"/>
			<psa30 value="0.900974458467749" flag="0"/>
		</comp>
		<comp name="--.HNN" depth="0.0">
			<acc value="7.02831428923751" flag="0"/>
			<vel value="7.51751803761807" flag="0"/>
			<psa03 value="18.0697610329853" flag="0"/>
			<psa10 value="10.3350673674755" flag="0"/>
			<psa30 value="0.841713466051704" flag="0"/>
		</comp>
		<comp name="--.HNZ" depth="0.0">
			<acc value="4.68571392779084" flag="0"/>
			<vel value="3.20483836264982" flag="0"/>
			<psa03 value="12.8390291893342" flag="0"/>
			<psa10 value="4.96009418190334" flag="0"/>
			<psa30 value="0.18989141937454" flag="0"/>
		</comp>
	</station>
	<station code="HER3" name="HER3" netid="HI" source="ITSAK Strong Motion Network" insttype="" lat="35.3296" lon="25.1065" esm:processing="manual (Paolucci et al 2011)" esm:quality="good">
		<comp name="--.HNE" depth="0.0">
			<acc value="9.56952923722148" flag="0"/>
			<vel value="5.44974816068352" flag="0"/>
			<psa03 value="26.5475613123102" flag="0"/>
			<psa10 value="6.36220466484087" flag="0"/>
			<psa30 value="0.544540393128596" flag="0"/>
		</comp>
		<comp name="--.HNN" depth="0.0">
			<acc value="8.76902769301264" flag="0"/>
			<vel value="9.12521499797849" flag="0"/>
			<psa03 value="22.7466695218684" flag="0"/>
			<psa10 value="12.7789169405495" flag="0"/>
			<psa30 value="1.01715868843998" flag="0"/>
		</comp>
		<comp name="--.HNZ" depth="0.0">
			<acc value="3.66439142829399" flag="0"/>
			<vel value="2.17661525233578" flag="0"/>
			<psa03 value="15.9461590214567" flag="0"/>
			<psa10 value="4.1696450185324" flag="0"/>
			<psa30 value="0.118116157949335" flag="0"/>
		</comp>
	</station>
	<station code="KIF1" name="KIF1" netid="HI" source="ITSAK Strong Motion Network" insttype="" lat="38.077273" lon="23.814551" esm:processing="manual (Paolucci et al 2011)" esm:quality="best">
		<comp name="--.HNE" depth="0.0">
			<acc value="0.107858851814932" flag="0"/>
			<vel value="0.136222786413129" flag="0"/>
			<psa03 value="0.177266076340824" flag="0"/>
			<psa10 value="0.11604062962215" flag="0"/>
			<psa30 value="0.0143346129311111" flag="0"/>
		</comp>
		<comp name="--.HNN" depth="0.0">
			<acc value="0.0791998966421155" flag="0"/>
			<vel value="0.0763131964679011" flag="0"/>
			<psa03 value="0.154082415537138" flag="0"/>
			<psa10 value="0.0973025508165543" flag="0"/>
			<psa30 value="0.0168411023070262" flag="0"/>
		</comp>
		<comp name="--.HNZ" depth="0.0">
			<acc value="0.0593612047510528" flag="0"/>
			<vel value="0.0620424068591433" flag="0"/>
			<psa03 value="0.133738994968805" flag="0"/>
			<psa10 value="0.108203262935145" flag="0"/>
			<psa30 value="0.012196735473868" flag="0"/>
		</comp>
	</station>
	<station code="KOR2" name="KOR2" netid="HI" source="ITSAK Strong Motion Network" insttype="" lat="37.9401" lon="22.9495" esm:processing="manual (Paolucci et al 2011)" esm:quality="good">
		<comp name="--.HNE" depth="0.0">
			<acc value="0.184545940595088" flag="0"/>
			<vel value="0.239386996179687" flag="0"/>
			<psa03 value="0.43871468769496" flag="0"/>
			<psa10 value="0.461741808128677" flag="0"/>
			<psa30 value="0.0514520251108168" flag="0"/>
		</comp>
		<comp name="--.HNN" depth="0.0">
			<acc value="0.19513927344861" flag="0"/>
			<vel value="0.204020236706891" flag="0"/>
			<psa03 value="0.496045527248382" flag="0"/>
			<psa10 value="0.413281337860353" flag="0"/>
			<psa30 value="0.0804357951433365" flag="0"/>
		</comp>
		<comp name="--.HNZ" depth="0.0">
			<acc value="0.117786548171472" flag="0"/>
			<vel value="0.156802614442223" flag="0"/>
			<psa03 value="0.243218382857544" flag="0"/>
			<psa10 value="0.434949853293157" flag="0"/>
			<psa30 value="0.0555498665727025" flag="0"/>
		</comp>
	</station>
	<station code="KRL1" name="KRL1" netid="HI" source="ITSAK Strong Motion Network" insttype="" lat="37.7951" lon="26.7065" esm:processing="manual (Paolucci et al 2011)" esm:quality="good">
		<comp name="--.HNE" depth="0.0">
			<acc value="0.170186821556008" flag="0"/>
