<?xml version="1.0" encoding="UTF-8" standalone="yes"?>
<!DOCTYPE earthquake SYSTEM "stationlist.dtd">
<stationlist created="" xmlns="ch.ethz.sed.shakemap.usgs.xml">
  <station code="ZKR" name="ZKR" netid="GE" insttype="STS-2/N" lat="35.1147" lon="26.2169">
    <comp name="--.HHE">
      <acc value="0.9214611725" flag="0"/>
      <vel value="0.2689745432" flag="0"/>
      <psa03 value="0.9104226388" flag="0"/>
      <psa10 value="0.0831143739" flag="0"/>
      <psa30 value="0.0069900244" flag="0"/>
    </comp>
    <comp name="--.HHN">
      <acc value="0.2526418032" flag="0"/>
      <vel value="0.0718333355" flag="0"/>
      <psa03 value="0.3601375926" flag="0"/>
      <psa10 value="0.0247572660" flag="0"/>
      <psa30 value="0.0023470705" flag="0"/>
    </comp>
    <comp name="--.HHZ">
      <acc value="0.5901501276" flag="0"/>
      <vel value="0.1016631419" flag="0"/>
      <psa03 value="0.2735088607" flag="0"/>
      <psa10 value="0.0455813308" flag="0"/>
      <psa30 value="0.0029547511" flag="0"/>
    </comp>
  </station>
  <station code="KNSS" name="KNSS" netid="HC" insttype="60" lat="35.3042" lon="25.1802">
    <comp name="--.HHZ">
      <acc value="0.0080168997" flag="0"/>
      <vel value="0.0027312805" flag="0"/>
      <psa03 value="0.0200042482" flag="0"/>
      <psa10 value="0.0022339205" flag="0"/>
      <psa30 value="0.0002932735" flag="0"/>
    </comp>
    <comp name="--.HHE">
      <acc value="0.0085869378" flag="0"/>
      <vel value="0.0045757613" flag="0"/>
      <psa03 value="0.0266221009" flag="0"/>
      <psa10 value="0.0063251291" flag="0"/>
      <psa30 value="0.0003777986" flag="0"/>
    </comp>
    <comp name="--.HHN">
      <acc value="0.0085811080" flag="0"/>
      <vel value="0.0054393111" flag="0"/>
      <psa03 value="0.0263779203" flag="0"/>
      <psa10 value="0.0047648526" flag="0"/>
      <psa30 value="0.0005772682" flag="0"/>
    </comp>
  </station>
  <station code="PFKS" name="PFKS" netid="HC" insttype="120" lat="35.0429" lon="25.4733">
    <comp name="--.HHN">
      <acc value="0.0332859609" flag="0"/>
      <vel value="0.0120979225" flag="0"/>
      <psa03 value="0.0764712937" flag="0"/>
      <psa10 value="0.0068170248" flag="0"/>
      <psa30 value="0.0005805352" flag="0"/>
    </comp>
    <comp name="--.HHE">
      <acc value="0.0362439188" flag="0"/>
      <vel value="0.0150289322" flag="0"/>
      <psa03 value="0.1163252824" flag="0"/>
      <psa10 value="0.0075491081" flag="0"/>
      <psa30 value="0.0004449497" flag="0"/>
    </comp>
    <comp name="--.HHZ">
      <acc value="0.0215200807" flag="0"/>
      <vel value="0.0075344301" flag="0"/>
      <psa03 value="0.0724579838" flag="0"/>
      <psa10 value="0.0041987518" flag="0"/>
      <psa30 value="0.0003571123" flag="0"/>
    </comp>
  </station>
  <station code="STIA" name="STIA" netid="HC" insttype="120" lat="35.2021" lon="26.0909">
    <comp name="--.HHZ">
      <acc value="0.4002751497" flag="0"/>
      <vel value="0.0591363056" flag="0"/>
      <psa03 value="0.1619756775" flag="0"/>
      <psa10 value="0.0114418159" flag="0"/>
      <psa30 value="0.0017356991" flag="0"/>
    </comp>
    <comp name="--.HHE">
      <acc value="0.2511217874" flag="0"/>
      <vel value="0.0460070285" flag="0"/>
      <psa03 value="0.1552645355" flag="0"/>
      <psa10 value="0.0260088849" flag="0"/>
      <psa30 value="0.0027767175" flag="0"/>
    </comp>
    <comp name="--.HHN">
      <acc value="0.2224022489" flag="0"/>
      <vel value="0.0492593169" flag="0"/>
      <psa03 value="0.3336171830" flag="0"/>
      <psa10 value="0.0183426435" flag="0"/>
      <psa30 value="0.0019894904" flag="0"/>
    </comp>
  </station>
  <station code="KSS1" name="KSS1" netid="HI" insttype="CMG-5TD,ACCELEROMETER,GURALP" lat="35.4189" lon="26.9207">
    <comp name="--.HNE">
      <acc value="0.0526139772" flag="0"/>
      <vel value="0.0269188695" flag="0"/>
      <psa03 value="0.2032607593" flag="0"/>
      <psa10 value="0.0148624631" flag="0"/>
      <psa30 value="0.0009092001" flag="0"/>
    </comp>
    <comp name="--.HNN">
      <acc value="0.0833487245" flag="0"/>
      <vel value="0.0491379467" flag="0"/>
      <psa03 value="0.3158420792" flag="0"/>
      <psa10 value="0.0541720400" flag="0"/>
      <psa30 value="0.0027534424" flag="0"/>
    </comp>
    <comp name="--.HNZ">
      <acc value="0.0568513011" flag="0"/>
      <vel value="0.0146265076" flag="0"/>
      <psa03 value="0.1051756695" flag="0"/>
      <psa10 value="0.0086170647" flag="0"/>
      <psa30 value="0.0007338224" flag="0"/>
    </comp>
  </station>
  <station code="KSTE" name="KSTE" netid="HL" insttype="60" lat="35.1801" lon="25.3372">
    <comp name="--.HHN">
      <acc value="0.0775762002" flag="0"/>
      <vel value="0.0133576006" flag="0"/>
      <psa03 value="0.0640648401" flag="0"/>
      <psa10 value="0.0114738736" flag="0"/>
      <psa30 value="0.0026253497" flag="0"/>
    </comp>
    <comp name="--.HHE">
      <acc value="0.0074525710" flag="0"/>
      <vel value="0.0047263036" flag="0"/>
      <psa03 value="0.0209244022" flag="0"/>
      <psa10 value="0.0070250752" flag="0"/>
      <psa30 value="0.0003357579" flag="0"/>
    </comp>
    <comp name="--.HHZ">
      <acc value="0.0093009410" flag="0"/>
      <vel value="0.0043108145" flag="0"/>
      <psa03 value="0.0262102812" flag="0"/>
      <psa10 value="0.0055279493" flag="0"/>
      <psa30 value="0.0002934366" flag="0"/>
    </comp>
  </station>
  <station code="ZKR" name="ZKR" netid="HL" insttype="120" lat="35.1147" lon="26.2169">
    <comp name="--.HHE">
      <acc value="0.8989187820" flag="0"/>
      <vel value="0.2598992755" flag="0"/>
      <psa03 value="0.8890468360" flag="0"/>
      <psa10 value="0.0822407874" flag="0"/>
      <psa30 value="0.0069383364" flag="0"/>
    </comp>
    <comp name="--.HHZ">
      <acc value="0.5812511447" flag="0"/>
      <vel value="0.0978057846" flag="0"/>
      <psa03 value="0.2655842124" flag="0"/>
      <psa10 value="0.0451589362" flag="0"/>
      <psa30 value="0.0029246139" flag="0"/>
    </comp>
    <comp name="--.HHN">
      <acc value="0.2452010210" flag="0"/>
      <vel value="0.0703106698" flag="0"/>
      <psa03 value="0.3492769800" flag="0"/>
      <psa10 value="0.0245505530" flag="0"/>
      <psa30 value="0.0023167278" flag="0"/>
    </comp>
  </station>
</stationlist>
