<?xml version="1.0" encoding="UTF-8" standalone="yes"?>
<!DOCTYPE earthquake SYSTEM "stationlist.dtd">
<stationlist created="" xmlns="ch.ethz.sed.shakemap.usgs.xml">
  <station code="ZKR" name="ZKR" netid="GE" insttype="STS-2/N" lat="35.1147" lon="26.2169">
    <comp name="--.HHE">
      <acc value="0.9214611727" flag="0"/>
      <vel value="0.2689745435" flag="0"/>
      <psa03 value="0.9104226388" flag="0"/>
      <psa10 value="0.0831143723" flag="0"/>
      <psa30 value="0.0069901056" flag="0"/>
    </comp>
    <comp name="--.HHN">
      <acc value="0.2526418032" flag="0"/>
      <vel value="0.0718333353" flag="0"/>
      <psa03 value="0.3601375926" flag="0"/>
      <psa10 value="0.0247572669" flag="0"/>
      <psa30 value="0.0023470063" flag="0"/>
    </comp>
    <comp name="--.HHZ">
      <acc value="0.5901501274" flag="0"/>
      <vel value="0.1016631419" flag="0"/>
      <psa03 value="0.2735088607" flag="0"/>
      <psa10 value="0.0455813265" flag="0"/>
      <psa30 value="0.0029547648" flag="0"/>
    </comp>
  </station>
  <station code="KNSS" name="KNSS" netid="HC" insttype="60" lat="35.3042" lon="25.1802">
    <comp name="--.HHE">
      <acc value="0.0085869383" flag="0"/>
      <vel value="0.0045757604" flag="0"/>
      <psa03 value="0.0266221009" flag="0"/>
      <psa10 value="0.0063251291" flag="0"/>
      <psa30 value="0.0003777620" flag="0"/>
    </comp>
    <comp name="--.HHN">
      <acc value="0.0085811085" flag="0"/>
      <vel value="0.0054393109" flag="0"/>
      <psa03 value="0.0263779203" flag="0"/>
      <psa10 value="0.0047648525" flag="0"/>
      <psa30 value="0.0005772775" flag="0"/>
    </comp>
    <comp name="--.HHZ">
      <acc value="0.0080168997" flag="0"/>
      <vel value="0.0027312813" flag="0"/>
      <psa03 value="0.0200042482" flag="0"/>
      <psa10 value="0.0022339205" flag="0"/>
      <psa30 value="0.0002932712" flag="0"/>
    </comp>
  </station>
  <station code="PFKS" name="PFKS" netid="HC" insttype="120" lat="35.0429" lon="25.4733">
    <comp name="--.HHE">
      <acc value="0.0362439188" flag="0"/>
      <vel value="0.0150289322" flag="0"/>
      <psa03 value="0.1163252824" flag="0"/>
      <psa10 value="0.0075491081" flag="0"/>
      <psa30 value="0.0004449480" flag="0"/>
    </comp>
    <comp name="--.HHN">
      <acc value="0.0332859609" flag="0"/>
      <vel value="0.0120979217" flag="0"/>
      <psa03 value="0.0764712937" flag="0"/>
      <psa10 value="0.0068170248" flag="0"/>
      <psa30 value="0.0005805478" flag="0"/>
    </comp>
    <comp name="--.HHZ">
      <acc value="0.0215200805" flag="0"/>
      <vel value="0.0075344296" flag="0"/>
      <psa03 value="0.0724579838" flag="0"/>
      <psa10 value="0.0041987518" flag="0"/>
      <psa30 value="0.0003570902" flag="0"/>
    </comp>
  </station>
  <station code="STIA" name="STIA" netid="HC" insttype="120" lat="35.2021" lon="26.0909">
    <comp name="--.HHN">
      <acc value="0.2224022490" flag="0"/>
      <vel value="0.0492593173" flag="0"/>
      <psa03 value="0.3336171830" flag="0"/>
      <psa10 value="0.0183426435" flag="0"/>
      <psa30 value="0.0019895756" flag="0"/>
    </comp>
    <comp name="--.HHZ">
      <acc value="0.4002751494" flag="0"/>
      <vel value="0.0591363054" flag="0"/>
      <psa03 value="0.1619756775" flag="0"/>
      <psa10 value="0.0114418159" flag="0"/>
      <psa30 value="0.0017357575" flag="0"/>
    </comp>
    <comp name="--.HHE">
      <acc value="0.2511217869" flag="0"/>
      <vel value="0.0460070290" flag="0"/>
      <psa03 value="0.1552645355" flag="0"/>
      <psa10 value="0.0260088847" flag="0"/>
      <psa30 value="0.0027766486" flag="0"/>
    </comp>
  </station>
  <station code="KSS1" name="KSS1" netid="HI" insttype="CMG-5TD,ACCELEROMETER,GURALP" lat="35.4189" lon="26.9207">
    <comp name="--.HNN">
      <acc value="0.0833487226" flag="0"/>
      <vel value="0.0491379467" flag="0"/>
      <psa03 value="0.3158420792" flag="0"/>
      <psa10 value="0.0541720397" flag="0"/>
      <psa30 value="0.0027533914" flag="0"/>
    </comp>
    <comp name="--.HNE">
      <acc value="0.0526139816" flag="0"/>
      <vel value="0.0269188705" flag="0"/>
      <psa03 value="0.2032607593" flag="0"/>
      <psa10 value="0.0148624635" flag="0"/>
      <psa30 value="0.0009091388" flag="0"/>
    </comp>
    <comp name="--.HNZ">
      <acc value="0.0568512991" flag="0"/>
      <vel value="0.0146265070" flag="0"/>
      <psa03 value="0.1051756695" flag="0"/>
      <psa10 value="0.0086170646" flag="0"/>
      <psa30 value="0.0007336877" flag="0"/>
    </comp>
  </station>
  <station code="IDI" name="IDI" netid="HL" insttype="120" lat="35.288" lon="24.89">
    <comp name="--.HHE">
      <acc value="0.0032498226" flag="0"/>
      <vel value="0.0019255191" flag="0"/>
      <psa03 value="0.0082673510" flag="0"/>
      <psa10 value="0.0016456554" flag="0"/>
      <psa30 value="0.0002637376" flag="0"/>
    </comp>
    <comp name="--.HHZ">
      <acc value="0.0031331131" flag="0"/>
      <vel value="0.0016561464" flag="0"/>
      <psa03 value="0.0104548007" flag="0"/>
      <psa10 value="0.0022884416" flag="0"/>
      <psa30 value="0.0003361957" flag="0"/>
    </comp>
    <comp name="--.HHN">
      <acc value="0.0035454124" flag="0"/>
      <vel value="0.0019384976" flag="0"/>
      <psa03 value="0.0113542523" flag="0"/>
      <psa10 value="0.0014333605" flag="0"/>
      <psa30 value="0.0003275494" flag="0"/>
    </comp>
  </station>
  <station code="KSTE" name="KSTE" netid="HL" insttype="60" lat="35.1801" lon="25.3372">
    <comp name="--.HHE">
      <acc value="0.0074525711" flag="0"/>
      <vel value="0.0047263037" flag="0"/>
      <psa03 value="0.0209244022" flag="0"/>
      <psa10 value="0.0070250752" flag="0"/>
      <psa30 value="0.0003357564" flag="0"/>
    </comp>
    <comp name="--.HHN">
      <acc value="0.0849303055" flag="0"/>
      <vel value="0.0133577101" flag="0"/>
      <psa03 value="0.0640650910" flag="0"/>
      <psa10 value="0.0114738680" flag="0"/>
      <psa30 value="0.0026255335" flag="0"/>
    </comp>
    <comp name="--.HHZ">
      <acc value="0.0093009409" flag="0"/>
      <vel value="0.0043108150" flag="0"/>
      <psa03 value="0.0262102812" flag="0"/>
      <psa10 value="0.0055279493" flag="0"/>
      <psa30 value="0.0002934347" flag="0"/>
    </comp>
  </station>
  <station code="SIVA" name="SIVA" netid="HL" insttype="60" lat="35.0178" lon="24.812">
    <comp name="--.HHE">
      <acc value="0.0064025163" flag="0"/>
      <vel value="0.0049494059" flag="0"/>
      <psa03 value="0.0158204777" flag="0"/>
      <psa10 value="0.0048858260" flag="0"/>
      <psa30 value="0.0004174108" flag="0"/>
    </comp>
    <comp name="--.HHN">
      <acc value="0.0048442169" flag="0"/>
      <vel value="0.0042244374" flag="0"/>
      <psa03 value="0.0133280678" flag="0"/>
      <psa10 value="0.0059171000" flag="0"/>
      <psa30 value="0.0004062698" flag="0"/>
    </comp>
    <comp name="--.HHZ">
      <acc value="0.0033925386" flag="0"/>
      <vel value="0.0015361240" flag="0"/>
      <psa03 value="0.0060557891" flag="0"/>
      <psa10 value="0.0014938150" flag="0"/>
      <psa30 value="0.0001020783" flag="0"/>
    </comp>
  </station>
  <station code="ZKR" name="ZKR" netid="HL" insttype="120" lat="35.1147" lon="26.2169">
    <comp name="--.HHN">
      <acc value="0.2452010210" flag="0"/>
      <vel value="0.0703106695" flag="0"/>
      <psa03 value="0.3492769800" flag="0"/>
      <psa10 value="0.0245505539" flag="0"/>
      <psa30 value="0.0023166647" flag="0"/>
    </comp>
    <comp name="--.HHZ">
      <acc value="0.5812511445" flag="0"/>
      <vel value="0.0978057846" flag="0"/>
      <psa03 value="0.2655842124" flag="0"/>
      <psa10 value="0.0451589319" flag="0"/>
      <psa30 value="0.0029246276" flag="0"/>
    </comp>
    <comp name="--.HHE">
      <acc value="0.8989187821" flag="0"/>
      <vel value="0.2598992758" flag="0"/>
      <psa03 value="0.8890468360" flag="0"/>
      <psa10 value="0.0822407858" flag="0"/>
      <psa30 value="0.0069384172" flag="0"/>
    </comp>
  </station>
  <station code="IDI" name="IDI" netid="MN" insttype="" lat="35.288" lon="24.89">
    <comp name="--.HHE">
      <acc value="0.0032494610" flag="0"/>
      <vel value="0.0019357503" flag="0"/>
      <psa03 value="0.0083785998" flag="0"/>
      <psa10 value="0.0016380283" flag="0"/>
      <psa30 value="0.0002608543" flag="0"/>
    </comp>
    <comp name="--.HHN">
      <acc value="0.0036259585" flag="0"/>
      <vel value="0.0019483195" flag="0"/>
      <psa03 value="0.0115457595" flag="0"/>
      <psa10 value="0.0014232465" flag="0"/>
      <psa30 value="0.0003245923" flag="0"/>
    </comp>
    <comp name="--.HHZ">
      <acc value="0.0032914930" flag="0"/>
      <vel value="0.0016602394" flag="0"/>
      <psa03 value="0.0105920362" flag="0"/>
      <psa10 value="0.0022689467" flag="0"/>
      <psa30 value="0.0003327325" flag="0"/>
    </comp>
  </station>
</stationlist>
