<?xml version="1.0" encoding="UTF-8" standalone="yes"?>
<!DOCTYPE earthquake SYSTEM "stationlist.dtd">
<stationlist created="" xmlns="ch.ethz.sed.shakemap.usgs.xml">
  <station code="ZKR" name="ZKR" netid="GE" insttype="STS-2/N" lat="35.1147" lon="26.2169">
    <comp name="--.HHE">
      <acc value="0.9214611725" flag="0"/>
      <vel value="0.2689745432" flag="0"/>
      <psa03 value="0.9104226388" flag="0"/>
      <psa10 value="0.0831143739" flag="0"/>
      <psa30 value="0.0069900244" flag="0"/>
    </comp>
    <comp name="--.HHN">
      <acc value="0.2526418032" flag="0"/>
      <vel value="0.0718333355" flag="0"/>
      <psa03 value="0.3601375926" flag="0"/>
      <psa10 value="0.0247572660" flag="0"/>
      <psa30 value="0.0023470705" flag="0"/>
    </comp>
    <comp name="--.HHZ">
      <acc value="0.5901501276" flag="0"/>
      <vel value="0.1016631419" flag="0"/>
      <psa03 value="0.2735088607" flag="0"/>
      <psa10 value="0.0455813308" flag="0"/>
      <psa30 value="0.0029547511" flag="0"/>
    </comp>
  </station>
</stationlist>
