<?xml version="1.0" encoding="UTF-8" standalone="yes"?>
<!DOCTYPE earthquake SYSTEM "stationlist.dtd">
<stationlist created="" xmlns="ch.ethz.sed.shakemap.usgs.xml">
  <station code="PSAM" name="PSAM" netid="CL" insttype="CMG40-T" lat="38.3218" lon="22.1842">
    <comp name="00.HHZ">
      <acc value="0.0019201201" flag="0"/>
      <vel value="0.0011835991" flag="0"/>
      <psa03 value="0.0055470170" flag="0"/>
      <psa10 value="0.0023436388" flag="0"/>
      <psa30 value="0.0003314899" flag="0"/>
    </comp>
    <comp name="00.HHN">
      <acc value="0.0050202454" flag="0"/>
      <vel value="0.0039459003" flag="0"/>
      <psa03 value="0.0126652832" flag="0"/>
      <psa10 value="0.0053419353" flag="0"/>
      <psa30 value="0.0007120008" flag="0"/>
    </comp>
    <comp name="00.HHE">
      <acc value="0.0042428448" flag="0"/>
      <vel value="0.0038127458" flag="0"/>
      <psa03 value="0.0083068390" flag="0"/>
      <psa10 value="0.0053801703" flag="0"/>
      <psa30 value="0.0006288235" flag="0"/>
    </comp>
  </station>
  <station code="ROD3" name="ROD3" netid="CL" insttype="CMG40-T" lat="38.3081" lon="21.892">
    <comp name="00.HHE">
      <acc value="0.0451006496" flag="0"/>
      <vel value="0.0180869695" flag="0"/>
      <psa03 value="0.1330560281" flag="0"/>
      <psa10 value="0.0164243944" flag="0"/>
      <psa30 value="0.0010132596" flag="0"/>
    </comp>
    <comp name="00.HHN">
      <acc value="0.0368726182" flag="0"/>
      <vel value="0.0172632059" flag="0"/>
      <psa03 value="0.1067242691" flag="0"/>
      <psa10 value="0.0204368960" flag="0"/>
      <psa30 value="0.0007840790" flag="0"/>
    </comp>
    <comp name="00.HHZ">
      <acc value="0.0200150450" flag="0"/>
      <vel value="0.0077808276" flag="0"/>
      <psa03 value="0.0525133916" flag="0"/>
      <psa10 value="0.0045710753" flag="0"/>
      <psa30 value="0.0005097743" flag="0"/>
    </comp>
  </station>
  <station code="TRIZ" name="TRIZ" netid="CL" insttype="STS-2" lat="38.3654" lon="22.0727">
    <comp name="00.HHZ">
      <acc value="0.0051352580" flag="0"/>
      <vel value="0.0020447387" flag="0"/>
      <psa03 value="0.0080364715" flag="0"/>
      <psa10 value="0.0041071500" flag="0"/>
      <psa30 value="0.0003003637" flag="0"/>
    </comp>
    <comp name="00.HH2">
      <acc value="0.0074482225" flag="0"/>
      <vel value="0.0062284709" flag="0"/>
      <psa03 value="0.0195227560" flag="0"/>
      <psa10 value="0.0074279265" flag="0"/>
      <psa30 value="0.0005284313" flag="0"/>
    </comp>
    <comp name="00.HH3">
      <acc value="0.0098002646" flag="0"/>
      <vel value="0.0057020071" flag="0"/>
      <psa03 value="0.0303003488" flag="0"/>
      <psa10 value="0.0058611622" flag="0"/>
      <psa30 value="0.0004757195" flag="0"/>
    </comp>
  </station>
  <station code="ZIRI" name="ZIRI" netid="CL" insttype="TRILLIUM-40" lat="38.3051" lon="21.9476">
    <comp name="01.HHE">
      <acc value="0.0381348668" flag="0"/>
      <vel value="0.0253473565" flag="0"/>
      <psa03 value="0.0931515626" flag="0"/>
      <psa10 value="0.0131105404" flag="0"/>
      <psa30 value="0.0008502704" flag="0"/>
    </comp>
    <comp name="01.HHZ">
      <acc value="0.0153700701" flag="0"/>
      <vel value="0.0069653558" flag="0"/>
      <psa03 value="0.0501615597" flag="0"/>
      <psa10 value="0.0062063019" flag="0"/>
      <psa30 value="0.0005161236" flag="0"/>
    </comp>
    <comp name="01.HHN">
      <acc value="0.0227580374" flag="0"/>
      <vel value="0.0153593282" flag="0"/>
      <psa03 value="0.0774888630" flag="0"/>
      <psa10 value="0.0086214107" flag="0"/>
      <psa30 value="0.0006140321" flag="0"/>
    </comp>
  </station>
  <station code="ACOR" name="ACOR" netid="HA" insttype="Horizon,120s,1200" lat="37.8905" lon="22.8694">
    <comp name="--.HHZ">
      <acc value="0.0011196742" flag="0"/>
      <vel value="0.0011088829" flag="0"/>
      <psa03 value="0.0033390227" flag="0"/>
      <psa10 value="0.0034311570" flag="0"/>
      <psa30 value="0.0006472205" flag="0"/>
    </comp>
    <comp name="--.HHE">
      <acc value="0.0020641876" flag="0"/>
      <vel value="0.0015625729" flag="0"/>
      <psa03 value="0.0038448070" flag="0"/>
      <psa10 value="0.0022328346" flag="0"/>
      <psa30 value="0.0006191185" flag="0"/>
    </comp>
    <comp name="--.HHN">
      <acc value="0.0016011343" flag="0"/>
      <vel value="0.0014064515" flag="0"/>
      <psa03 value="0.0034887631" flag="0"/>
      <psa10 value="0.0032389531" flag="0"/>
      <psa30 value="0.0008541827" flag="0"/>
    </comp>
  </station>
  <station code="KALE" name="KALE" netid="HA" insttype="40," lat="38.3911" lon="22.1398">
    <comp name="--.HHE">
      <acc value="0.0092887880" flag="0"/>
      <vel value="0.0065975726" flag="0"/>
      <psa03 value="0.0185796610" flag="0"/>
      <psa10 value="0.0032395492" flag="0"/>
      <psa30 value="0.0003961391" flag="0"/>
    </comp>
    <comp name="--.HHN">
      <acc value="0.0071017079" flag="0"/>
      <vel value="0.0033269335" flag="0"/>
      <psa03 value="0.0139144649" flag="0"/>
      <psa10 value="0.0034122075" flag="0"/>
      <psa30 value="0.0002874942" flag="0"/>
    </comp>
    <comp name="--.HHZ">
      <acc value="0.0030885959" flag="0"/>
      <vel value="0.0015831073" flag="0"/>
      <psa03 value="0.0081187106" flag="0"/>
      <psa10 value="0.0022351422" flag="0"/>
      <psa30 value="0.0002554779" flag="0"/>
    </comp>
  </station>
  <station code="LAKA" name="LAKA" netid="HA" insttype="120s," lat="38.2401" lon="21.9785">
    <comp name="--.HHE">
      <acc value="0.0057567199" flag="0"/>
      <vel value="0.0048116828" flag="0"/>
      <psa03 value="0.0150367378" flag="0"/>
      <psa10 value="0.0076518906" flag="0"/>
      <psa30 value="0.0004645792" flag="0"/>
    </comp>
    <comp name="--.HHN">
      <acc value="0.0066548449" flag="0"/>
      <vel value="0.0046339742" flag="0"/>
      <psa03 value="0.0141040075" flag="0"/>
      <psa10 value="0.0092995644" flag="0"/>
      <psa30 value="0.0009024269" flag="0"/>
    </comp>
    <comp name="--.HHZ">
      <acc value="0.0048740815" flag="0"/>
      <vel value="0.0035433898" flag="0"/>
      <psa03 value="0.0165742159" flag="0"/>
      <psa10 value="0.0043034930" flag="0"/>
      <psa30 value="0.0006301107" flag="0"/>
    </comp>
  </station>
  <station code="THAL" name="THAL" netid="HA" insttype="30" lat="38.0357" lon="22.6634">
    <comp name="--.HHE">
      <acc value="0.0095174970" flag="0"/>
      <vel value="0.0066696295" flag="0"/>
      <psa03 value="0.0252904486" flag="0"/>
      <psa10 value="0.0113482124" flag="0"/>
      <psa30 value="0.0009763914" flag="0"/>
    </comp>
    <comp name="--.HHN">
      <acc value="0.0086870020" flag="0"/>
      <vel value="0.0066725437" flag="0"/>
      <psa03 value="0.0356642941" flag="0"/>
      <psa10 value="0.0105182227" flag="0"/>
      <psa30 value="0.0009843238" flag="0"/>
    </comp>
    <comp name="--.HHZ">
      <acc value="0.0059785263" flag="0"/>
      <vel value="0.0034034425" flag="0"/>
      <psa03 value="0.0172977015" flag="0"/>
      <psa10 value="0.0071162061" flag="0"/>
      <psa30 value="0.0004784490" flag="0"/>
    </comp>
  </station>
  <station code="KLV1" name="KLV1" netid="HI" insttype="CMG-5TD,ACCELEROMETER,GURALP" lat="38.0326" lon="22.108">
    <comp name="--.HNN">
      <acc value="0.0194864188" flag="0"/>
      <vel value="0.0095732518" flag="0"/>
      <psa03 value="0.0519575753" flag="0"/>
      <psa10 value="0.0070137233" flag="0"/>
      <psa30 value="0.0008234460" flag="0"/>
    </comp>
    <comp name="--.HNE">
      <acc value="0.0178700307" flag="0"/>
      <vel value="0.0078745612" flag="0"/>
      <psa03 value="0.0442361323" flag="0"/>
      <psa10 value="0.0085900150" flag="0"/>
      <psa30 value="0.0014229502" flag="0"/>
    </comp>
    <comp name="--.HNZ">
      <acc value="0.0070998992" flag="0"/>
      <vel value="0.0048221036" flag="0"/>
      <psa03 value="0.0147006201" flag="0"/>
      <psa10 value="0.0076448534" flag="0"/>
      <psa30 value="0.0008536551" flag="0"/>
    </comp>
  </station>
  <station code="PYL1" name="PYL1" netid="HI" insttype="CMG-5TD,ACCELEROMETER,GURALP" lat="36.9142" lon="21.6952">
    <comp name="--.HNE">
      <acc value="0.0058590830" flag="0"/>
      <vel value="0.0032591547" flag="0"/>
      <psa03 value="0.0145624150" flag="0"/>
      <psa10 value="0.0035045235" flag="0"/>
      <psa30 value="0.0014716258" flag="0"/>
    </comp>
    <comp name="--.HNN">
      <acc value="0.0058415191" flag="0"/>
      <vel value="0.0040996596" flag="0"/>
      <psa03 value="0.0130712834" flag="0"/>
      <psa10 value="0.0025887716" flag="0"/>
      <psa30 value="0.0007681653" flag="0"/>
    </comp>
    <comp name="--.HNZ">
      <acc value="0.0041003184" flag="0"/>
      <vel value="0.0021981956" flag="0"/>
      <psa03 value="0.0105290654" flag="0"/>
      <psa10 value="0.0015899853" flag="0"/>
      <psa30 value="0.0003156607" flag="0"/>
    </comp>
  </station>
  <station code="ELIN" name="ELIN" netid="HL" insttype="LE3D20_SMART24" lat="38.0995" lon="22.4874">
    <comp name="--.HHZ">
      <acc value="0.0186393677" flag="0"/>
      <vel value="0.0110562698" flag="0"/>
      <psa03 value="0.0641057083" flag="0"/>
      <psa10 value="0.0082696835" flag="0"/>
      <psa30 value="0.0010617296" flag="0"/>
    </comp>
    <comp name="--.HHE">
      <acc value="0.0280985034" flag="0"/>
      <vel value="0.0170992463" flag="0"/>
      <psa03 value="0.0733004857" flag="0"/>
      <psa10 value="0.0181172479" flag="0"/>
      <psa30 value="0.0010172100" flag="0"/>
    </comp>
    <comp name="--.HHN">
      <acc value="0.0363442049" flag="0"/>
      <vel value="0.0237316700" flag="0"/>
      <psa03 value="0.0942118022" flag="0"/>
      <psa10 value="0.0189821383" flag="0"/>
      <psa30 value="0.0017485499" flag="0"/>
    </comp>
  </station>
  <station code="ITM" name="ITM" netid="HL" insttype="DR24" lat="37.1787" lon="21.9252">
    <comp name="--.HHN">
      <acc value="0.0173651096" flag="0"/>
      <vel value="0.0064835252" flag="0"/>
      <psa03 value="0.0221404333" flag="0"/>
      <psa10 value="0.0048469504" flag="0"/>
      <psa30 value="0.0018747137" flag="0"/>
    </comp>
    <comp name="--.HHE">
      <acc value="0.0187009158" flag="0"/>
      <vel value="0.0083732406" flag="0"/>
      <psa03 value="0.0218253734" flag="0"/>
      <psa10 value="0.0072711126" flag="0"/>
      <psa30 value="0.0012206520" flag="0"/>
    </comp>
    <comp name="--.HHZ">
      <acc value="0.0118671499" flag="0"/>
      <vel value="0.0047639902" flag="0"/>
      <psa03 value="0.0120825949" flag="0"/>
      <psa10 value="0.0067108413" flag="0"/>
      <psa30 value="0.0014118389" flag="0"/>
    </comp>
  </station>
  <station code="KLV" name="KLV" netid="HL" insttype="120" lat="38.0435" lon="22.1504">
    <comp name="--.HHN">
      <acc value="0.0068801583" flag="0"/>
      <vel value="0.0043640964" flag="0"/>
      <psa03 value="0.0092251815" flag="0"/>
      <psa10 value="0.0056141992" flag="0"/>
      <psa30 value="0.0006631920" flag="0"/>
    </comp>
    <comp name="--.HHE">
      <acc value="0.0064573928" flag="0"/>
      <vel value="0.0034676417" flag="0"/>
      <psa03 value="0.0153869495" flag="0"/>
      <psa10 value="0.0034003676" flag="0"/>
      <psa30 value="0.0008011910" flag="0"/>
    </comp>
    <comp name="--.HHZ">
      <acc value="0.0101707734" flag="0"/>
      <vel value="0.0072549312" flag="0"/>
      <psa03 value="0.0189243422" flag="0"/>
      <psa10 value="0.0062266670" flag="0"/>
      <psa30 value="0.0008653473" flag="0"/>
    </comp>
  </station>
  <station code="ORTH" name="ORTH" netid="HL" insttype="30" lat="37.8511" lon="20.6963">
    <comp name="--.HHE">
      <acc value="0.0217909084" flag="0"/>
      <vel value="0.0094853509" flag="0"/>
      <psa03 value="0.0412197029" flag="0"/>
      <psa10 value="0.0040182403" flag="0"/>
      <psa30 value="0.0004470061" flag="0"/>
    </comp>
    <comp name="--.HHZ">
      <acc value="0.0113974152" flag="0"/>
      <vel value="0.0042121273" flag="0"/>
      <psa03 value="0.0240172364" flag="0"/>
      <psa10 value="0.0029579629" flag="0"/>
      <psa30 value="0.0003163846" flag="0"/>
    </comp>
    <comp name="--.HHN">
      <acc value="0.0312160222" flag="0"/>
      <vel value="0.0097298359" flag="0"/>
      <psa03 value="0.0620441736" flag="0"/>
      <psa10 value="0.0046948024" flag="0"/>
      <psa30 value="0.0006928510" flag="0"/>
    </comp>
  </station>
  <station code="PATC" name="PATC" netid="HL" insttype="CMG-5" lat="38.2693" lon="21.76">
    <comp name="00.HNE">
      <acc value="0.0417773307" flag="0"/>
      <vel value="0.0351634493" flag="0"/>
      <psa03 value="0.1044448306" flag="0"/>
      <psa10 value="0.0572214202" flag="0"/>
      <psa30 value="0.0020777567" flag="0"/>
    </comp>
    <comp name="00.HNN">
      <acc value="0.0262000958" flag="0"/>
      <vel value="0.0286770590" flag="0"/>
      <psa03 value="0.0934538839" flag="0"/>
      <psa10 value="0.0664033710" flag="0"/>
      <psa30 value="0.0021697633" flag="0"/>
    </comp>
    <comp name="00.HNZ">
      <acc value="0.0148637494" flag="0"/>
      <vel value="0.0133640028" flag="0"/>
      <psa03 value="0.0458746362" flag="0"/>
      <psa10 value="0.0192095926" flag="0"/>
      <psa30 value="0.0009516391" flag="0"/>
    </comp>
  </station>
  <station code="RLS" name="RLS" netid="HL" insttype="CMG3ESPC-120s" lat="38.0559" lon="21.4647">
    <comp name="--.HHE">
      <acc value="0.0422702338" flag="0"/>
      <vel value="0.0244578831" flag="0"/>
      <psa03 value="0.1058467213" flag="0"/>
      <psa10 value="0.0143505553" flag="0"/>
      <psa30 value="0.0010406060" flag="0"/>
    </comp>
    <comp name="--.HHN">
      <acc value="0.0321939657" flag="0"/>
      <vel value="0.0127616180" flag="0"/>
      <psa03 value="0.0816174480" flag="0"/>
      <psa10 value="0.0084137952" flag="0"/>
      <psa30 value="0.0012099737" flag="0"/>
    </comp>
    <comp name="--.HHZ">
      <acc value="0.0139375153" flag="0"/>
      <vel value="0.0069869097" flag="0"/>
      <psa03 value="0.0324099996" flag="0"/>
      <psa10 value="0.0044576240" flag="0"/>
      <psa30 value="0.0012552488" flag="0"/>
    </comp>
  </station>
  <station code="VLS" name="VLS" netid="HL" insttype="120P," lat="38.1768" lon="20.5886">
    <comp name="--.HHE">
      <acc value="0.0041536690" flag="0"/>
      <vel value="0.0018894115" flag="0"/>
      <psa03 value="0.0082499973" flag="0"/>
      <psa10 value="0.0034004866" flag="0"/>
      <psa30 value="0.0001568942" flag="0"/>
    </comp>
    <comp name="--.HHN">
      <acc value="0.0011007726" flag="0"/>
      <vel value="0.0002878726" flag="0"/>
      <psa03 value="0.0016731534" flag="0"/>
      <psa10 value="0.0000850520" flag="0"/>
      <psa30 value="0.0000172294" flag="0"/>
    </comp>
    <comp name="--.HHZ">
      <acc value="0.0026686257" flag="0"/>
      <vel value="0.0017005973" flag="0"/>
      <psa03 value="0.0059395556" flag="0"/>
      <psa10 value="0.0028934050" flag="0"/>
      <psa30 value="0.0001452650" flag="0"/>
    </comp>
  </station>
  <station code="AMT" name="AMT" netid="HP" insttype="CMG-3T," lat="37.5324" lon="21.7089">
    <comp name="00.HHE">
      <acc value="0.6001734285" flag="0"/>
      <vel value="0.3452965152" flag="0"/>
      <psa03 value="1.2741395553" flag="0"/>
      <psa10 value="0.2800931352" flag="0"/>
      <psa30 value="0.0420736984" flag="0"/>
    </comp>
    <comp name="00.HHZ">
      <acc value="0.5772059893" flag="0"/>
      <vel value="0.1875123733" flag="0"/>
      <psa03 value="0.9142733978" flag="0"/>
      <psa10 value="0.1893718915" flag="0"/>
      <psa30 value="0.0126094566" flag="0"/>
    </comp>
    <comp name="00.HHN">
      <acc value="0.6650558460" flag="0"/>
      <vel value="0.2783632798" flag="0"/>
      <psa03 value="1.0891283604" flag="0"/>
      <psa10 value="0.2322146472" flag="0"/>
      <psa30 value="0.0176931372" flag="0"/>
    </comp>
  </station>
  <station code="ANX" name="ANX" netid="HP" insttype="120" lat="38.5933" lon="21.9209">
    <comp name="--.HHE">
      <acc value="0.0061896354" flag="0"/>
      <vel value="0.0044221028" flag="0"/>
      <psa03 value="0.0164822951" flag="0"/>
      <psa10 value="0.0047888248" flag="0"/>
      <psa30 value="0.0004415331" flag="0"/>
    </comp>
    <comp name="--.HHZ">
      <acc value="0.0046639942" flag="0"/>
      <vel value="0.0026097483" flag="0"/>
      <psa03 value="0.0080875656" flag="0"/>
      <psa10 value="0.0044296323" flag="0"/>
      <psa30 value="0.0002203921" flag="0"/>
    </comp>
    <comp name="--.HHN">
      <acc value="0.0092985001" flag="0"/>
      <vel value="0.0072728399" flag="0"/>
      <psa03 value="0.0206505713" flag="0"/>
      <psa10 value="0.0062795480" flag="0"/>
      <psa30 value="0.0002964957" flag="0"/>
    </comp>
  </station>
  <station code="AXS" name="AXS" netid="HP" insttype="Compact," lat="38.1962" lon="21.3763">
    <comp name="--.HHE">
      <acc value="0.0084304605" flag="0"/>
      <vel value="0.0059469926" flag="0"/>
      <psa03 value="0.0193026851" flag="0"/>
      <psa10 value="0.0040998654" flag="0"/>
      <psa30 value="0.0003149086" flag="0"/>
    </comp>
    <comp name="--.HHN">
      <acc value="0.0088897411" flag="0"/>
      <vel value="0.0054340642" flag="0"/>
      <psa03 value="0.0322736320" flag="0"/>
      <psa10 value="0.0038831466" flag="0"/>
      <psa30 value="0.0003586988" flag="0"/>
    </comp>
    <comp name="--.HHZ">
      <acc value="0.0038359798" flag="0"/>
      <vel value="0.0020988533" flag="0"/>
      <psa03 value="0.0137550143" flag="0"/>
      <psa10 value="0.0023835099" flag="0"/>
      <psa30 value="0.0004391915" flag="0"/>
    </comp>
  </station>
  <station code="DRO" name="DRO" netid="HP" insttype="120P," lat="37.952" lon="21.71">
    <comp name="--.HHE">
      <acc value="0.0394405003" flag="0"/>
      <vel value="0.0174125404" flag="0"/>
      <psa03 value="0.0934220080" flag="0"/>
      <psa10 value="0.0131342265" flag="0"/>
      <psa30 value="0.0017922162" flag="0"/>
    </comp>
    <comp name="--.HHZ">
      <acc value="0.0238981858" flag="0"/>
      <vel value="0.0123075162" flag="0"/>
      <psa03 value="0.0827836028" flag="0"/>
      <psa10 value="0.0107408402" flag="0"/>
      <psa30 value="0.0016044248" flag="0"/>
    </comp>
    <comp name="--.HHN">
      <acc value="0.0447126724" flag="0"/>
      <vel value="0.0204341339" flag="0"/>
      <psa03 value="0.1127463642" flag="0"/>
      <psa10 value="0.0187134743" flag="0"/>
      <psa30 value="0.0023865518" flag="0"/>
    </comp>
  </station>
  <station code="DSF" name="DSF" netid="HP" insttype="Compact," lat="38.4112" lon="22.5271">
    <comp name="--.HHE">
      <acc value="0.0016167104" flag="0"/>
      <vel value="0.0010275459" flag="0"/>
      <psa03 value="0.0048196759" flag="0"/>
      <psa10 value="0.0020686048" flag="0"/>
      <psa30 value="0.0002110244" flag="0"/>
    </comp>
    <comp name="--.HHN">
      <acc value="0.0029146392" flag="0"/>
      <vel value="0.0011476369" flag="0"/>
      <psa03 value="0.0051956821" flag="0"/>
      <psa10 value="0.0013712126" flag="0"/>
      <psa30 value="0.0002252299" flag="0"/>
    </comp>
    <comp name="--.HHZ">
      <acc value="0.0012536312" flag="0"/>
      <vel value="0.0009128608" flag="0"/>
      <psa03 value="0.0035389876" flag="0"/>
      <psa10 value="0.0011461844" flag="0"/>
      <psa30 value="0.0003222613" flag="0"/>
    </comp>
  </station>
  <station code="EFP" name="EFP" netid="HP" insttype="40," lat="38.4269" lon="21.9058">
    <comp name="--.HHN">
      <acc value="0.0067884497" flag="0"/>
      <vel value="0.0036012189" flag="0"/>
      <psa03 value="0.0182503488" flag="0"/>
      <psa10 value="0.0044679947" flag="0"/>
      <psa30 value="0.0003735213" flag="0"/>
    </comp>
    <comp name="--.HHE">
      <acc value="0.0064954802" flag="0"/>
