<stationlist created="1777341318">
	<station code="TEFL" name="TEFL" netid="HC" source="Seismological Network of Crete (HC)" insttype="" lat="35.093273" lon="25.163418">
		<comp name="--.HNE" depth="0.0">
			<acc value="0.220837389542815" flag="0"/>
			<vel value="0.129860532721245" flag="0"/>
			<psa03 value="0.372143277665761" flag="0"/>
			<psa10 value="0.156993635057838" flag="0"/>
			<psa30 value="0.0623256887710024" flag="0"/>
		</comp>
		<comp name="--.HNN" depth="0.0">
			<acc value="0.239081461923392" flag="0"/>
			<vel value="0.115734156436748" flag="0"/>
			<psa03 value="0.386242003303808" flag="0"/>
			<psa10 value="0.129827795454287" flag="0"/>
			<psa30 value="0.0563098435841164" flag="0"/>
		</comp>
		<comp name="--.HNZ" depth="0.0">
			<acc value="0.211669549346313" flag="0"/>
			<vel value="0.146026349430358" flag="0"/>
			<psa03 value="0.312042108758282" flag="0"/>
			<psa10 value="0.166869914312868" flag="0"/>
			<psa30 value="0.0561203443640564" flag="0"/>
		</comp>
	</station>
	<station code="AGN1" name="AGN1" netid="HI" source="ITSAK Strong Motion Network" insttype="" lat="35.1879" lon="25.7155">
		<comp name="--.HNE" depth="0.0">
			<acc value="0.000698593339452237" flag="0"/>
			<vel value="0.000857688090728738" flag="0"/>
			<psa03 value="0.00087681996652999" flag="0"/>
			<psa10 value="0.000614357905227359" flag="0"/>
			<psa30 value="0.000386809322135896" flag="0"/>
		</comp>
		<comp name="--.HNN" depth="0.0">
			<acc value="0.090737927686733" flag="0"/>
			<vel value="0.0261827748852685" flag="0"/>
			<psa03 value="0.108561452080075" flag="0"/>
			<psa10 value="0.0120698258167247" flag="0"/>
			<psa30 value="0.00365193483942701" flag="0"/>
		</comp>
		<comp name="--.HNZ" depth="0.0">
			<acc value="0.062631411661418" flag="0"/>
			<vel value="0.0143234156792107" flag="0"/>
			<psa03 value="0.0571517547732675" flag="0"/>
			<psa10 value="0.00650085596230295" flag="0"/>
			<psa30 value="0.00182947681886064" flag="0"/>
		</comp>
	</station>
	<station code="GOR1" name="GOR1" netid="HI" source="ITSAK Strong Motion Network" insttype="" lat="35.0582" lon="24.9628">
		<comp name="--.HNE" depth="0.0">
			<acc value="0.0195883740896977" flag="0"/>
			<vel value="0.0102394589275254" flag="0"/>
			<psa03 value="0.0619734075174316" flag="0"/>
			<psa10 value="0.011044822915313" flag="0"/>
			<psa30 value="0.00165181692476457" flag="0"/>
		</comp>
		<comp name="--.HNN" depth="0.0">
			<acc value="0.0176331918118939" flag="0"/>
			<vel value="0.0121110178443253" flag="0"/>
			<psa03 value="0.0893075411863049" flag="0"/>
			<psa10 value="0.0145046380485856" flag="0"/>
			<psa30 value="0.00179164722950267" flag="0"/>
		</comp>
		<comp name="--.HNZ" depth="0.0">
			<acc value="0.0115951872595834" flag="0"/>
			<vel value="0.00886672764000506" flag="0"/>
			<psa03 value="0.038623462260654" flag="0"/>
			<psa10 value="0.0118810758129633" flag="0"/>
			<psa30 value="0.0011451644031882" flag="0"/>
		</comp>
	</station>
	<station code="HER1" name="HER1" netid="HI" source="ITSAK Strong Motion Network" insttype="" lat="35.317672" lon="25.10217">
		<comp name="--.HNE" depth="0.0">
			<acc value="0.0239134288826663" flag="0"/>
			<vel value="0.0244049191165308" flag="0"/>
			<psa03 value="0.0676540755004729" flag="0"/>
			<psa10 value="0.0568258531838866" flag="0"/>
			<psa30 value="0.00315915427846662" flag="0"/>
		</comp>
		<comp name="--.HNN" depth="0.0">
			<acc value="0.0233800024110745" flag="0"/>
			<vel value="0.0319641341730407" flag="0"/>
			<psa03 value="0.104137534017215" flag="0"/>
			<psa10 value="0.0568227367274366" flag="0"/>
			<psa30 value="0.0031164674923432" flag="0"/>
		</comp>
		<comp name="--.HNZ" depth="0.0">
			<acc value="0.0220576377106345" flag="0"/>
			<vel value="0.0199692624724938" flag="0"/>
			<psa03 value="0.065818990393424" flag="0"/>
			<psa10 value="0.0374401777280276" flag="0"/>
			<psa30 value="0.00216774693592909" flag="0"/>
		</comp>
	</station>
	<station code="HER3" name="HER3" netid="HI" source="ITSAK Strong Motion Network" insttype="" lat="35.3296" lon="25.1065">
		<comp name="--.HNE" depth="0.0">
			<acc value="0.0422432902630721" flag="0"/>
			<vel value="0.0227380158411568" flag="0"/>
			<psa03 value="0.0981156246786084" flag="0"/>
			<psa10 value="0.0438887749159432" flag="0"/>
			<psa30 value="0.00229405384480859" flag="0"/>
		</comp>
		<comp name="--.HNN" depth="0.0">
			<acc value="0.0485868654743547" flag="0"/>
			<vel value="0.0284971872969392" flag="0"/>
			<psa03 value="0.104001035391517" flag="0"/>
			<psa10 value="0.0612948779848468" flag="0"/>
			<psa30 value="0.00222950186022308" flag="0"/>
		</comp>
		<comp name="--.HNZ" depth="0.0">
			<acc value="0.0475709961866555" flag="0"/>
			<vel value="0.0145997813431459" flag="0"/>
			<psa03 value="0.0480321714789641" flag="0"/>
			<psa10 value="0.0161245119197797" flag="0"/>
			<psa30 value="0.00189695212210166" flag="0"/>
		</comp>
	</station>
	<station code="KSS1" name="KSS1" netid="HI" source="ITSAK Strong Motion Network" insttype="" lat="35.4189" lon="26.9207">
		<comp name="--.HNE" depth="0.0">
			<acc value="0.00735651155810035" flag="0"/>
			<vel value="0.00581273536703801" flag="0"/>
			<psa03 value="0.0244044317780012" flag="0"/>
			<psa10 value="0.00513026954267914" flag="0"/>
			<psa30 value="0.00156733309895907" flag="0"/>
		</comp>
		<comp name="--.HNN" depth="0.0">
			<acc value="0.00885104361871059" flag="0"/>
			<vel value="0.00602328420836058" flag="0"/>
			<psa03 value="0.0364919512668449" flag="0"/>
			<psa10 value="0.00624842767766795" flag="0"/>
			<psa30 value="0.00111343042596795" flag="0"/>
		</comp>
		<comp name="--.HNZ" depth="0.0">
			<acc value="0.00457873874790336" flag="0"/>
			<vel value="0.00319057444815512" flag="0"/>
			<psa03 value="0.00757858798176001" flag="0"/>
			<psa10 value="0.00486019305768748" flag="0"/>
			<psa30 value="0.00116407023894037" flag="0"/>
		</comp>
	</station>
	<station code="RTH1" name="RTH1" netid="HI" source="ITSAK Strong Motion Network" insttype="" lat="35.365393" lon="24.471773">
		<comp name="--.HNE" depth="0.0">
			<acc value="0.00659614801056987" flag="0"/>
			<vel value="0.00348181239241378" flag="0"/>
			<psa03 value="0.024467060926875" flag="0"/>
			<psa10 value="0.00269262329495358" flag="0"/>
			<psa30 value="0.00062886634680916" flag="0"/>
		</comp>
		<comp name="--.HNN" depth="0.0">
			<acc value="0.00533088565377706" flag="0"/>
			<vel value="0.00243603579727323" flag="0"/>
			<psa03 value="0.0195046358364004" flag="0"/>
			<psa10 value="0.00279017850750764" flag="0"/>
			<psa30 value="0.000553532085450733" flag="0"/>
		</comp>
		<comp name="--.HNZ" depth="0.0">
			<acc value="0.00687596177710152" flag="0"/>
			<vel value="0.00155976125428771" flag="0"/>
			<psa03 value="0.0112922285234703" flag="0"/>
			<psa10 value="0.00244106295844088" flag="0"/>
			<psa30 value="0.000370872771625971" flag="0"/>
		</comp>
	</station>
	<station code="SIT2" name="SIT2" netid="HI" source="ITSAK Strong Motion Network" insttype="" lat="35.2059" lon="26.107">
		<comp name="--.HNE" depth="0.0">
			<acc value="0.18390071540053" flag="0"/>
			<vel value="0.126941759326762" flag="0"/>
			<psa03 value="0.523487553481274" flag="0"/>
			<psa10 value="0.0639949368504955" flag="0"/>
			<psa30 value="0.00483816300455458" flag="0"/>
		</comp>
		<comp name="--.HNN" depth="0.0">
			<acc value="0.261028117887129" flag="0"/>
			<vel value="0.144337990909702" flag="0"/>
			<psa03 value="0.562037148869444" flag="0"/>
			<psa10 value="0.0904858742450871" flag="0"/>
			<psa30 value="0.00723599351572467" flag="0"/>
		</comp>
		<comp name="--.HNZ" depth="0.0">
			<acc value="0.206340217522109" flag="0"/>
			<vel value="0.0640437769805943" flag="0"/>
			<psa03 value="0.306018209704533" flag="0"/>
			<psa10 value="0.017692717680715" flag="0"/>
			<psa30 value="0.00420013282151957" flag="0"/>
		</comp>
	</station>
	<station code="IACM" name="IACM" netid="HL" source="National Observatory of Athens Seismic Network" insttype="" lat="35.3058" lon="25.0709">
		<comp name="--.HNE" depth="0.0">
			<acc value="0.0411865482513551" flag="0"/>
			<vel value="0.0286413359222215" flag="0"/>
			<psa03 value="0.119521938575181" flag="0"/>
			<psa10 value="0.0674243440318906" flag="0"/>
			<psa30 value="0.00425085243144481" flag="0"/>
		</comp>
		<comp name="--.HNN" depth="0.0">
			<acc value="0.0408073446919538" flag="0"/>
			<vel value="0.0242149077008486" flag="0"/>
			<psa03 value="0.13407415258794" flag="0"/>
			<psa10 value="0.0460334669912676" flag="0"/>
			<psa30 value="0.00268428240386881" flag="0"/>
		</comp>
		<comp name="--.HNZ" depth="0.0">
			<acc value="0.0271574446207131" flag="0"/>
			<vel value="0.0167171637525778" flag="0"/>
			<psa03 value="0.0725859699226072" flag="0"/>
			<psa10 value="0.0146122842421177" flag="0"/>
			<psa30 value="0.00159344212022026" flag="0"/>
		</comp>
	</station>
	<station code="KARP" name="KARP" netid="HL" source="National Observatory of Athens Seismic Network" insttype="" lat="35.5471" lon="27.16106">
		<comp name="--.HNE" depth="0.0">
			<acc value="0.00606872221076159" flag="0"/>
			<vel value="0.00600975068785268" flag="0"/>
			<psa03 value="0.0184466074138766" flag="0"/>
			<psa10 value="0.00786429206450333" flag="0"/>
			<psa30 value="0.00104509037794183" flag="0"/>
		</comp>
		<comp name="--.HNN" depth="0.0">
			<acc value="0.00657547419192977" flag="0"/>
			<vel value="0.00525400370394688" flag="0"/>
			<psa03 value="0.0107716074463373" flag="0"/>
			<psa10 value="0.00964591274437963" flag="0"/>
			<psa30 value="0.000884791633936749" flag="0"/>
		</comp>
		<comp name="--.HNZ" depth="0.0">
			<acc value="0.00400835057887337" flag="0"/>
			<vel value="0.00314678430237353" flag="0"/>
			<psa03 value="0.0110181543778199" flag="0"/>
			<psa10 value="0.00389302859716357" flag="0"/>
			<psa30 value="0.000954229567192377" flag="0"/>
		</comp>
	</station>
	<station code="SIVA" name="SIVA" netid="HL" source="National Observatory of Athens Seismic Network" insttype="" lat="35.01777" lon="24.81204">
		<comp name="00.HNE" depth="0.0">
			<acc value="0.0166440872975548" flag="0"/>
			<vel value="0.00999724537530256" flag="0"/>
			<psa03 value="0.0526206212745775" flag="0"/>
			<psa10 value="0.00797529426160411" flag="0"/>
			<psa30 value="0.000866253322531267" flag="0"/>
		</comp>
		<comp name="00.HNN" depth="0.0">
			<acc value="0.0143545982413912" flag="0"/>
			<vel value="0.00829924591144209" flag="0"/>
			<psa03 value="0.0398339565124574" flag="0"/>
			<psa10 value="0.00880605585798271" flag="0"/>
			<psa30 value="0.00105532876451803" flag="0"/>
		</comp>
		<comp name="00.HNZ" depth="0.0">
			<acc value="0.00766562281514161" flag="0"/>
			<vel value="0.00484794470642185" flag="0"/>
			<psa03 value="0.0278487719277989" flag="0"/>
			<psa10 value="0.00515712179025876" flag="0"/>
			<psa30 value="0.000691873072778868" flag="0"/>
		</comp>
	</station>
</stationlist>
