<?xml version="1.0" encoding="UTF-8" standalone="yes"?>
<!DOCTYPE earthquake SYSTEM "stationlist.dtd">
<stationlist created="" xmlns="ch.ethz.sed.shakemap.usgs.xml">
  <station code="KARP" name="KARP" netid="GE" insttype="STS-2/N" commtype="DIG" lat="35.5471" lon="27.1611">
    <comp name="--.HHN">
      <acc value="0.0067748555" flag="0"/>
      <vel value="0.0055180865" flag="0"/>
      <psa03 value="0.0115679201" flag="0"/>
      <psa10 value="0.0094875070" flag="0"/>
      <psa30 value="0.0007055527" flag="0"/>
    </comp>
    <comp name="--.HHZ">
      <acc value="0.0043240320" flag="0"/>
      <vel value="0.0029292812" flag="0"/>
      <psa03 value="0.0112914669" flag="0"/>
      <psa10 value="0.0038457343" flag="0"/>
      <psa30 value="0.0006829148" flag="0"/>
    </comp>
    <comp name="--.HHE">
      <acc value="0.0061772984" flag="0"/>
      <vel value="0.0053058837" flag="0"/>
      <psa03 value="0.0189741766" flag="0"/>
      <psa10 value="0.0081451241" flag="0"/>
      <psa30 value="0.0008778833" flag="0"/>
    </comp>
  </station>
  <station code="ZKR" name="ZKR" netid="GE" insttype="STS-2/N" commtype="DIG" lat="35.1147" lon="26.2169">
    <comp name="--.HHZ">
      <acc value="0.1375857098" flag="0"/>
      <vel value="0.0311837355" flag="0"/>
      <psa03 value="0.1552263469" flag="0"/>
      <psa10 value="0.0412955926" flag="0"/>
      <psa30 value="0.0055433454" flag="0"/>
    </comp>
    <comp name="--.HHE">
      <acc value="0.1601893109" flag="0"/>
      <vel value="0.0531264082" flag="0"/>
      <psa03 value="0.2990671159" flag="0"/>
      <psa10 value="0.0727812254" flag="0"/>
      <psa30 value="0.0047945014" flag="0"/>
    </comp>
    <comp name="--.HHN">
      <acc value="0.0721503246" flag="0"/>
      <vel value="0.0237440971" flag="0"/>
      <psa03 value="0.1275944042" flag="0"/>
      <psa10 value="0.0232161120" flag="0"/>
      <psa30 value="0.0027666704" flag="0"/>
    </comp>
  </station>
</stationlist>
