<?xml version="1.0" encoding="UTF-8" standalone="yes"?>
<!DOCTYPE earthquake SYSTEM "stationlist.dtd">
<stationlist created="" xmlns="ch.ethz.sed.shakemap.usgs.xml">
  <station code="KARP" name="KARP" netid="GE" insttype="STS-2/N" commtype="DIG" lat="35.5471" lon="27.1611">
    <comp name="--.HHN">
      <acc value="0.0067748555" flag="0"/>
      <vel value="0.0055180865" flag="0"/>
      <psa03 value="0.0115679201" flag="0"/>
      <psa10 value="0.0094875070" flag="0"/>
      <psa30 value="0.0007055527" flag="0"/>
    </comp>
    <comp name="--.HHZ">
      <acc value="0.0043240320" flag="0"/>
      <vel value="0.0029292812" flag="0"/>
      <psa03 value="0.0112914669" flag="0"/>
      <psa10 value="0.0038457343" flag="0"/>
      <psa30 value="0.0006829148" flag="0"/>
    </comp>
    <comp name="--.HHE">
      <acc value="0.0061772984" flag="0"/>
      <vel value="0.0053058837" flag="0"/>
      <psa03 value="0.0189741766" flag="0"/>
      <psa10 value="0.0081451241" flag="0"/>
      <psa30 value="0.0008778833" flag="0"/>
    </comp>
  </station>
  <station code="ZKR" name="ZKR" netid="GE" insttype="STS-2/N" commtype="DIG" lat="35.1147" lon="26.2169">
    <comp name="--.HHZ">
      <acc value="0.1375857098" flag="0"/>
      <vel value="0.0311837355" flag="0"/>
      <psa03 value="0.1552263469" flag="0"/>
      <psa10 value="0.0412955926" flag="0"/>
      <psa30 value="0.0055433454" flag="0"/>
    </comp>
    <comp name="--.HHE">
      <acc value="0.1601893109" flag="0"/>
      <vel value="0.0531264082" flag="0"/>
      <psa03 value="0.2990671159" flag="0"/>
      <psa10 value="0.0727812254" flag="0"/>
      <psa30 value="0.0047945014" flag="0"/>
    </comp>
    <comp name="--.HHN">
      <acc value="0.0721503246" flag="0"/>
      <vel value="0.0237440971" flag="0"/>
      <psa03 value="0.1275944042" flag="0"/>
      <psa10 value="0.0232161120" flag="0"/>
      <psa30 value="0.0027666704" flag="0"/>
    </comp>
  </station>
  <station code="PFKS" name="PFKS" netid="HC" insttype="120" commtype="DIG" lat="35.0429" lon="25.4733">
    <comp name="--.HHE">
      <acc value="0.1862525597" flag="0"/>
      <vel value="0.0876566154" flag="0"/>
      <psa03 value="0.8854767253" flag="0"/>
      <psa10 value="0.0309911521" flag="0"/>
      <psa30 value="0.0030996764" flag="0"/>
    </comp>
    <comp name="--.HHZ">
      <acc value="0.0807567913" flag="0"/>
      <vel value="0.0418719254" flag="0"/>
      <psa03 value="0.3906664626" flag="0"/>
      <psa10 value="0.0154621097" flag="0"/>
      <psa30 value="0.0014446591" flag="0"/>
    </comp>
    <comp name="--.HHN">
      <acc value="0.1768805186" flag="0"/>
      <vel value="0.1039963497" flag="0"/>
      <psa03 value="0.4307268464" flag="0"/>
      <psa10 value="0.0578677740" flag="0"/>
      <psa30 value="0.0042005370" flag="0"/>
    </comp>
  </station>
  <station code="STIA" name="STIA" netid="HC" insttype="120" commtype="DIG" lat="35.2021" lon="26.0909">
    <comp name="--.HHE">
      <acc value="0.1301801817" flag="0"/>
      <vel value="0.0470259237" flag="0"/>
      <psa03 value="0.1909310161" flag="0"/>
      <psa10 value="0.0337686184" flag="0"/>
      <psa30 value="0.0022943340" flag="0"/>
    </comp>
    <comp name="--.HHZ">
      <acc value="0.1635790402" flag="0"/>
      <vel value="0.0291197929" flag="0"/>
      <psa03 value="0.1140670217" flag="0"/>
      <psa10 value="0.0173843152" flag="0"/>
      <psa30 value="0.0031996950" flag="0"/>
    </comp>
    <comp name="--.HHN">
      <acc value="0.2183099509" flag="0"/>
      <vel value="0.0501349729" flag="0"/>
      <psa03 value="0.1504910918" flag="0"/>
      <psa10 value="0.0286189417" flag="0"/>
      <psa30 value="0.0041052523" flag="0"/>
    </comp>
  </station>
  <station code="AGN1" name="AGN1" netid="HI" insttype="unknown" commtype="DIG" lat="35.1879" lon="25.7155">
    <comp name="--.HNE">
      <acc value="0.0006756388" flag="0"/>
      <vel value="0.0007171353" flag="0"/>
      <psa03 value="0.0008578560" flag="0"/>
      <psa10 value="0.0006014318" flag="0"/>
      <psa30 value="0.0002096064" flag="0"/>
    </comp>
    <comp name="--.HNN">
      <acc value="0.0889285965" flag="0"/>
      <vel value="0.0252763461" flag="0"/>
      <psa03 value="0.1067031764" flag="0"/>
      <psa10 value="0.0120510688" flag="0"/>
      <psa30 value="0.0035499738" flag="0"/>
    </comp>
    <comp name="--.HNZ">
      <acc value="0.0627656322" flag="0"/>
      <vel value="0.0141659140" flag="0"/>
      <psa03 value="0.0565183085" flag="0"/>
      <psa10 value="0.0064856049" flag="0"/>
      <psa30 value="0.0017733702" flag="0"/>
    </comp>
  </station>
  <station code="KSS1" name="KSS1" netid="HI" insttype="CMG-5TD,ACCELEROMETER,GURALP" commtype="DIG" lat="35.4189" lon="26.9207">
    <comp name="--.HNZ">
      <acc value="0.0045647069" flag="0"/>
      <vel value="0.0036782086" flag="0"/>
      <psa03 value="0.0074122554" flag="0"/>
      <psa10 value="0.0047502791" flag="0"/>
      <psa30 value="0.0009270294" flag="0"/>
    </comp>
    <comp name="--.HNE">
      <acc value="0.0073316199" flag="0"/>
      <vel value="0.0047671823" flag="0"/>
      <psa03 value="0.0245273170" flag="0"/>
      <psa10 value="0.0051920104" flag="0"/>
      <psa30 value="0.0012259970" flag="0"/>
    </comp>
    <comp name="--.HNN">
      <acc value="0.0090395486" flag="0"/>
      <vel value="0.0047503425" flag="0"/>
      <psa03 value="0.0367854567" flag="0"/>
      <psa10 value="0.0062357097" flag="0"/>
      <psa30 value="0.0007378478" flag="0"/>
    </comp>
  </station>
  <station code="SIT2" name="SIT2" netid="HI" insttype="CMG-5TD,ACCELEROMETER,GURALP" commtype="DIG" lat="35.2059" lon="26.107">
    <comp name="--.HNE">
      <acc value="0.1838913185" flag="0"/>
      <vel value="0.1249960320" flag="0"/>
      <psa03 value="0.5327501563" flag="0"/>
      <psa10 value="0.0638978374" flag="0"/>
      <psa30 value="0.0045202392" flag="0"/>
    </comp>
    <comp name="--.HNN">
      <acc value="0.2598093280" flag="0"/>
      <vel value="0.1422206950" flag="0"/>
      <psa03 value="0.5624832143" flag="0"/>
      <psa10 value="0.0903649500" flag="0"/>
      <psa30 value="0.0066092813" flag="0"/>
    </comp>
    <comp name="--.HNZ">
      <acc value="0.2057870961" flag="0"/>
      <vel value="0.0638058999" flag="0"/>
      <psa03 value="0.3003145553" flag="0"/>
      <psa10 value="0.0179484013" flag="0"/>
      <psa30 value="0.0035780862" flag="0"/>
    </comp>
  </station>
  <station code="KARP" name="KARP" netid="HL" insttype="120" commtype="DIG" lat="35.5471" lon="27.1611">
    <comp name="--.HHZ">
      <acc value="0.0040523071" flag="0"/>
      <vel value="0.0028901526" flag="0"/>
      <psa03 value="0.0109175872" flag="0"/>
      <psa10 value="0.0038186558" flag="0"/>
      <psa30 value="0.0006815700" flag="0"/>
    </comp>
    <comp name="--.HHN">
      <acc value="0.0065968696" flag="0"/>
      <vel value="0.0054645997" flag="0"/>
      <psa03 value="0.0112835931" flag="0"/>
      <psa10 value="0.0094341727" flag="0"/>
      <psa30 value="0.0007026066" flag="0"/>
    </comp>
    <comp name="--.HHE">
      <acc value="0.0060528723" flag="0"/>
      <vel value="0.0052595589" flag="0"/>
      <psa03 value="0.0184724581" flag="0"/>
      <psa10 value="0.0080950300" flag="0"/>
      <psa30 value="0.0008745195" flag="0"/>
    </comp>
  </station>
</stationlist>
