<?xml version="1.0" encoding="UTF-8" standalone="yes"?>
<!DOCTYPE earthquake SYSTEM "stationlist.dtd">
<stationlist created="" xmlns="ch.ethz.sed.shakemap.usgs.xml">
  <station code="APEC" name="APEC" netid="IV" insttype="" lat="43.5585" lon="12.4199">
    <comp name="--.HHE">
      <acc value="0.2360000526" flag="0"/>
      <vel value="0.1207425200" flag="0"/>
      <psa03 value="0.5969566662" flag="0"/>
      <psa10 value="0.1767354712" flag="0"/>
      <psa30 value="0.0127146835" flag="0"/>
    </comp>
    <comp name="--.HHN">
      <acc value="0.1627075403" flag="0"/>
      <vel value="0.0739042345" flag="0"/>
      <psa03 value="0.4097914855" flag="0"/>
      <psa10 value="0.0770390170" flag="0"/>
      <psa30 value="0.0077163735" flag="0"/>
    </comp>
    <comp name="--.HHZ">
      <acc value="0.1385276423" flag="0"/>
      <vel value="0.0685905204" flag="0"/>
      <psa03 value="0.3229847792" flag="0"/>
      <psa10 value="0.0972069470" flag="0"/>
      <psa30 value="0.0099237374" flag="0"/>
    </comp>
  </station>
  <station code="ARCI" name="ARCI" netid="IV" insttype="" lat="42.8519" lon="11.4754">
    <comp name="--.HHE">
      <acc value="0.0017376111" flag="0"/>
      <vel value="0.0015884822" flag="0"/>
      <psa03 value="0.0048475781" flag="0"/>
      <psa10 value="0.0027740241" flag="0"/>
      <psa30 value="0.0005708022" flag="0"/>
    </comp>
    <comp name="--.HHN">
      <acc value="0.0019084408" flag="0"/>
      <vel value="0.0015567006" flag="0"/>
      <psa03 value="0.0032914625" flag="0"/>
      <psa10 value="0.0031093940" flag="0"/>
      <psa30 value="0.0003193773" flag="0"/>
    </comp>
    <comp name="--.HHZ">
      <acc value="0.0012374259" flag="0"/>
      <vel value="0.0013549406" flag="0"/>
      <psa03 value="0.0020980772" flag="0"/>
      <psa10 value="0.0033439350" flag="0"/>
      <psa30 value="0.0004063671" flag="0"/>
    </comp>
  </station>
  <station code="ARVD" name="ARVD" netid="IV" insttype="" lat="43.4981" lon="12.9415">
    <comp name="--.HHE">
      <acc value="0.1217672629" flag="0"/>
      <vel value="0.0228073130" flag="0"/>
      <psa03 value="0.0728885119" flag="0"/>
      <psa10 value="0.0208979044" flag="0"/>
      <psa30 value="0.0050274856" flag="0"/>
    </comp>
    <comp name="--.HHN">
      <acc value="0.0885266445" flag="0"/>
      <vel value="0.0236617782" flag="0"/>
      <psa03 value="0.0745627058" flag="0"/>
      <psa10 value="0.0291531394" flag="0"/>
      <psa30 value="0.0024555001" flag="0"/>
    </comp>
    <comp name="--.HHZ">
      <acc value="0.0773438881" flag="0"/>
      <vel value="0.0225128983" flag="0"/>
      <psa03 value="0.0624369375" flag="0"/>
      <psa10 value="0.0240511400" flag="0"/>
      <psa30 value="0.0048070013" flag="0"/>
    </comp>
  </station>
  <station code="ASQU" name="ASQU" netid="IV" insttype="" lat="43.7967" lon="11.7893">
    <comp name="--.HHE">
      <acc value="0.0075133872" flag="0"/>
      <vel value="0.0051347947" flag="0"/>
      <psa03 value="0.0233849137" flag="0"/>
      <psa10 value="0.0065994162" flag="0"/>
      <psa30 value="0.0010278305" flag="0"/>
    </comp>
    <comp name="--.HHZ">
      <acc value="0.0078841888" flag="0"/>
      <vel value="0.0033262126" flag="0"/>
      <psa03 value="0.0318683667" flag="0"/>
      <psa10 value="0.0038682572" flag="0"/>
      <psa30 value="0.0011985742" flag="0"/>
    </comp>
    <comp name="--.HHN">
      <acc value="0.0172591159" flag="0"/>
      <vel value="0.0121588547" flag="0"/>
      <psa03 value="0.0671163416" flag="0"/>
      <psa10 value="0.0079332542" flag="0"/>
      <psa30 value="0.0009467920" flag="0"/>
    </comp>
  </station>
  <station code="ASSB" name="ASSB" netid="IV" insttype="" lat="43.0426" lon="12.6587">
    <comp name="--.HHE">
      <acc value="0.2019628488" flag="0"/>
      <vel value="0.0278824359" flag="0"/>
      <psa03 value="0.1060931636" flag="0"/>
      <psa10 value="0.0164842713" flag="0"/>
      <psa30 value="0.0031739213" flag="0"/>
    </comp>
    <comp name="--.HHN">
      <acc value="0.1662755334" flag="0"/>
      <vel value="0.0330780399" flag="0"/>
      <psa03 value="0.0668075644" flag="0"/>
      <psa10 value="0.0131097502" flag="0"/>
      <psa30 value="0.0034526412" flag="0"/>
    </comp>
    <comp name="--.HHZ">
      <acc value="0.1304683912" flag="0"/>
      <vel value="0.0265271555" flag="0"/>
      <psa03 value="0.0507380975" flag="0"/>
      <psa10 value="0.0171245288" flag="0"/>
      <psa30 value="0.0035650271" flag="0"/>
    </comp>
  </station>
  <station code="ATBU" name="ATBU" netid="IV" insttype="" lat="43.4757" lon="12.5483">
    <comp name="--.HNE">
      <acc value="0.8764274011" flag="0"/>
      <vel value="0.4199041170" flag="0"/>
      <psa03 value="1.5861447114" flag="0"/>
      <psa10 value="0.3549069757" flag="0"/>
      <psa30 value="0.0273124371" flag="0"/>
    </comp>
    <comp name="--.HNN">
      <acc value="0.6275826745" flag="0"/>
      <vel value="0.3143332889" flag="0"/>
      <psa03 value="1.0154608724" flag="0"/>
      <psa10 value="0.2997670859" flag="0"/>
      <psa30 value="0.0311209862" flag="0"/>
    </comp>
    <comp name="--.HNZ">
      <acc value="0.3841002213" flag="0"/>
      <vel value="0.1775065245" flag="0"/>
      <psa03 value="0.9941431772" flag="0"/>
      <psa10 value="0.1920732150" flag="0"/>
      <psa30 value="0.0233070781" flag="0"/>
    </comp>
  </station>
  <station code="ATCC" name="ATCC" netid="IV" insttype="" lat="43.1851" lon="12.6399">
    <comp name="--.HNE">
      <acc value="0.3338003433" flag="0"/>
      <vel value="0.0933828707" flag="0"/>
      <psa03 value="0.3566616199" flag="0"/>
      <psa10 value="0.0989263538" flag="0"/>
      <psa30 value="0.0086224955" flag="0"/>
    </comp>
    <comp name="--.HNN">
      <acc value="0.4416686023" flag="0"/>
      <vel value="0.0953584853" flag="0"/>
      <psa03 value="0.3882731018" flag="0"/>
      <psa10 value="0.0643620016" flag="0"/>
      <psa30 value="0.0073601732" flag="0"/>
    </comp>
    <comp name="--.HNZ">
      <acc value="0.1474799706" flag="0"/>
      <vel value="0.0523897635" flag="0"/>
      <psa03 value="0.2137580088" flag="0"/>
      <psa10 value="0.0643969109" flag="0"/>
      <psa30 value="0.0124523610" flag="0"/>
    </comp>
  </station>
  <station code="ATLO" name="ATLO" netid="IV" insttype="" lat="43.3152" lon="12.4073">
    <comp name="--.HNN">
      <acc value="0.4627895488" flag="0"/>
      <vel value="0.1444817313" flag="0"/>
      <psa03 value="0.5912358715" flag="0"/>
      <psa10 value="0.1942041979" flag="0"/>
      <psa30 value="0.0109103565" flag="0"/>
    </comp>
    <comp name="--.HNE">
      <acc value="0.7048544913" flag="0"/>
      <vel value="0.1465359849" flag="0"/>
      <psa03 value="0.3262794358" flag="0"/>
      <psa10 value="0.0911853097" flag="0"/>
      <psa30 value="0.0169504486" flag="0"/>
    </comp>
    <comp name="--.HNZ">
      <acc value="0.0696435726" flag="0"/>
      <vel value="0.0289567367" flag="0"/>
      <psa03 value="0.0662993240" flag="0"/>
      <psa10 value="0.0341945403" flag="0"/>
      <psa30 value="0.0037670662" flag="0"/>
    </comp>
  </station>
  <station code="ATMI" name="ATMI" netid="IV" insttype="" lat="43.3342" lon="12.268">
    <comp name="--.HHE">
      <acc value="0.1330250540" flag="0"/>
      <vel value="0.0584291916" flag="0"/>
      <psa03 value="0.2124086361" flag="0"/>
      <psa10 value="0.0710414745" flag="0"/>
      <psa30 value="0.0077010899" flag="0"/>
    </comp>
    <comp name="--.HHN">
      <acc value="0.1281821191" flag="0"/>
      <vel value="0.0642627366" flag="0"/>
      <psa03 value="0.3039275519" flag="0"/>
      <psa10 value="0.0965845178" flag="0"/>
      <psa30 value="0.0110537768" flag="0"/>
    </comp>
    <comp name="--.HHZ">
      <acc value="0.1474941981" flag="0"/>
      <vel value="0.0619584933" flag="0"/>
      <psa03 value="0.2494018844" flag="0"/>
      <psa10 value="0.0989888750" flag="0"/>
      <psa30 value="0.0141595513" flag="0"/>
    </comp>
  </station>
  <station code="ATPC" name="ATPC" netid="IV" insttype="" lat="43.4807" lon="12.457">
    <comp name="--.HHE">
      <acc value="0.6652719530" flag="0"/>
      <vel value="0.2257566358" flag="0"/>
      <psa03 value="1.5748246575" flag="0"/>
      <psa10 value="0.1775402600" flag="0"/>
      <psa30 value="0.0113194088" flag="0"/>
    </comp>
    <comp name="--.HHN">
      <acc value="0.7446925111" flag="0"/>
      <vel value="0.1798010196" flag="0"/>
      <psa03 value="0.6953643402" flag="0"/>
      <psa10 value="0.1042445053" flag="0"/>
      <psa30 value="0.0125083449" flag="0"/>
    </comp>
    <comp name="--.HHZ">
      <acc value="0.3097456179" flag="0"/>
      <vel value="0.1687501239" flag="0"/>
      <psa03 value="0.7630116296" flag="0"/>
      <psa10 value="0.0893595153" flag="0"/>
      <psa30 value="0.0122765716" flag="0"/>
    </comp>
  </station>
  <station code="ATPI" name="ATPI" netid="IV" insttype="" lat="43.4507" lon="12.4022">
    <comp name="--.HNE">
      <acc value="0.2962777994" flag="0"/>
      <vel value="0.1609261454" flag="0"/>
      <psa03 value="0.7193482961" flag="0"/>
      <psa10 value="0.1138626375" flag="0"/>
      <psa30 value="0.0055780485" flag="0"/>
    </comp>
    <comp name="--.HNN">
      <acc value="0.3671138202" flag="0"/>
      <vel value="0.1296872020" flag="0"/>
      <psa03 value="0.6673137609" flag="0"/>
      <psa10 value="0.0995407450" flag="0"/>
      <psa30 value="0.0076338816" flag="0"/>
    </comp>
    <comp name="--.HNZ">
      <acc value="0.3250790234" flag="0"/>
      <vel value="0.1314805714" flag="0"/>
      <psa03 value="0.4849306681" flag="0"/>
      <psa10 value="0.0589506334" flag="0"/>
      <psa30 value="0.0098944061" flag="0"/>
    </comp>
  </station>
  <station code="BRIS" name="BRIS" netid="IV" insttype="" lat="44.2245" lon="11.7666">
    <comp name="--.HHE">
      <acc value="0.0049651891" flag="0"/>
      <vel value="0.0044130041" flag="0"/>
      <psa03 value="0.0131807616" flag="0"/>
      <psa10 value="0.0064662881" flag="0"/>
      <psa30 value="0.0018682932" flag="0"/>
    </comp>
    <comp name="--.HHN">
      <acc value="0.0048473718" flag="0"/>
      <vel value="0.0059926202" flag="0"/>
      <psa03 value="0.0159015305" flag="0"/>
      <psa10 value="0.0064334132" flag="0"/>
      <psa30 value="0.0015330790" flag="0"/>
    </comp>
    <comp name="--.HHZ">
      <acc value="0.0033939758" flag="0"/>
      <vel value="0.0040447841" flag="0"/>
      <psa03 value="0.0106920728" flag="0"/>
      <psa10 value="0.0063878167" flag="0"/>
      <psa30 value="0.0010655768" flag="0"/>
    </comp>
  </station>
  <station code="CAFI" name="CAFI" netid="IV" insttype="" lat="43.3292" lon="11.9663">
    <comp name="--.HHE">
      <acc value="0.0276860992" flag="0"/>
      <vel value="0.0077549732" flag="0"/>
      <psa03 value="0.0266180477" flag="0"/>
      <psa10 value="0.0048879927" flag="0"/>
      <psa30 value="0.0003785911" flag="0"/>
    </comp>
    <comp name="--.HHN">
      <acc value="0.0259577460" flag="0"/>
      <vel value="0.0077741349" flag="0"/>
      <psa03 value="0.0283533515" flag="0"/>
      <psa10 value="0.0076225289" flag="0"/>
      <psa30 value="0.0003971837" flag="0"/>
    </comp>
    <comp name="--.HHZ">
      <acc value="0.0200270573" flag="0"/>
      <vel value="0.0089371629" flag="0"/>
      <psa03 value="0.0413656730" flag="0"/>
      <psa10 value="0.0071942785" flag="0"/>
      <psa30 value="0.0004614551" flag="0"/>
    </comp>
  </station>
  <station code="CDCA" name="CDCA" netid="IV" insttype="" lat="43.4584" lon="12.2336">
    <comp name="--.HNE">
      <acc value="0.2429220605" flag="0"/>
      <vel value="0.0766422801" flag="0"/>
      <psa03 value="0.2583126862" flag="0"/>
      <psa10 value="0.1278114479" flag="0"/>
      <psa30 value="0.0068102584" flag="0"/>
    </comp>
    <comp name="--.HNZ">
      <acc value="0.1519385180" flag="0"/>
      <vel value="0.0855553635" flag="0"/>
      <psa03 value="0.4731479381" flag="0"/>
      <psa10 value="0.1932269820" flag="0"/>
      <psa30 value="0.0068624536" flag="0"/>
    </comp>
    <comp name="--.HNN">
      <acc value="0.2750835135" flag="0"/>
      <vel value="0.1572580589" flag="0"/>
      <psa03 value="0.6638938982" flag="0"/>
      <psa10 value="0.1940562522" flag="0"/>
      <psa30 value="0.0249961859" flag="0"/>
    </comp>
  </station>
  <station code="CESI" name="CESI" netid="IV" insttype="" lat="43.0049" lon="12.9046">
    <comp name="--.HHE">
      <acc value="0.1291048839" flag="0"/>
      <vel value="0.0212600590" flag="0"/>
      <psa03 value="0.0351499239" flag="0"/>
      <psa10 value="0.0093368604" flag="0"/>
      <psa30 value="0.0033821415" flag="0"/>
    </comp>
    <comp name="--.HHN">
      <acc value="0.0550856589" flag="0"/>
      <vel value="0.0120805136" flag="0"/>
      <psa03 value="0.0411146630" flag="0"/>
      <psa10 value="0.0074239597" flag="0"/>
      <psa30 value="0.0037625461" flag="0"/>
    </comp>
    <comp name="--.HHZ">
      <acc value="0.0432023669" flag="0"/>
      <vel value="0.0090598575" flag="0"/>
      <psa03 value="0.0315669884" flag="0"/>
      <psa10 value="0.0070246383" flag="0"/>
      <psa30 value="0.0029118527" flag="0"/>
    </comp>
  </station>
  <station code="CESX" name="CESX" netid="IV" insttype="" lat="42.6085" lon="12.5868">
    <comp name="--.HHE">
      <acc value="0.0103060169" flag="0"/>
      <vel value="0.0078284100" flag="0"/>
      <psa03 value="0.0218855227" flag="0"/>
      <psa10 value="0.0085254013" flag="0"/>
      <psa30 value="0.0008309716" flag="0"/>
    </comp>
    <comp name="--.HHN">
      <acc value="0.0099367408" flag="0"/>
      <vel value="0.0054724823" flag="0"/>
      <psa03 value="0.0364554623" flag="0"/>
      <psa10 value="0.0062224478" flag="0"/>
      <psa30 value="0.0013237526" flag="0"/>
    </comp>
    <comp name="--.HHZ">
      <acc value="0.0064009089" flag="0"/>
      <vel value="0.0024485836" flag="0"/>
      <psa03 value="0.0081546098" flag="0"/>
      <psa10 value="0.0027298645" flag="0"/>
      <psa30 value="0.0010870922" flag="0"/>
    </comp>
  </station>
  <station code="CING" name="CING" netid="IV" insttype="" lat="43.3756" lon="13.1954">
    <comp name="--.HHN">
      <acc value="0.0420702904" flag="0"/>
      <vel value="0.0175770414" flag="0"/>
      <psa03 value="0.1143947198" flag="0"/>
      <psa10 value="0.0167275128" flag="0"/>
      <psa30 value="0.0026946980" flag="0"/>
    </comp>
    <comp name="--.HHE">
      <acc value="0.0364330567" flag="0"/>
      <vel value="0.0105085541" flag="0"/>
      <psa03 value="0.0607960353" flag="0"/>
      <psa10 value="0.0110158637" flag="0"/>
      <psa30 value="0.0020177389" flag="0"/>
    </comp>
    <comp name="--.HHZ">
      <acc value="0.0250538097" flag="0"/>
      <vel value="0.0093533980" flag="0"/>
      <psa03 value="0.0610234652" flag="0"/>
      <psa10 value="0.0107077398" flag="0"/>
      <psa30 value="0.0020128534" flag="0"/>
    </comp>
  </station>
  <station code="CPGN" name="CPGN" netid="IV" insttype="" lat="43.8011" lon="12.3205">
    <comp name="--.HNZ">
      <acc value="0.0146624269" flag="0"/>
      <vel value="0.0127114675" flag="0"/>
      <psa03 value="0.0372614859" flag="0"/>
      <psa10 value="0.0192776044" flag="0"/>
      <psa30 value="0.0032324223" flag="0"/>
    </comp>
  </station>
  <station code="CRE" name="CRE" netid="IV" insttype="" lat="43.6189" lon="11.9517">
    <comp name="--.HHE">
      <acc value="0.0305953557" flag="0"/>
      <vel value="0.0165068163" flag="0"/>
      <psa03 value="0.0651335700" flag="0"/>
      <psa10 value="0.0090056508" flag="0"/>
      <psa30 value="0.0020944660" flag="0"/>
    </comp>
    <comp name="--.HHN">
      <acc value="0.0527627019" flag="0"/>
      <vel value="0.0239420306" flag="0"/>
      <psa03 value="0.1664396216" flag="0"/>
      <psa10 value="0.0098389563" flag="0"/>
      <psa30 value="0.0017258988" flag="0"/>
    </comp>
    <comp name="--.HHZ">
      <acc value="0.0149639478" flag="0"/>
      <vel value="0.0073767822" flag="0"/>
      <psa03 value="0.0485727588" flag="0"/>
      <psa10 value="0.0068999092" flag="0"/>
      <psa30 value="0.0022500494" flag="0"/>
    </comp>
  </station>
  <station code="CRTC" name="CRTC" netid="IV" insttype="" lat="43.7685" lon="12.883">
    <comp name="--.HHE">
      <acc value="0.0429921094" flag="0"/>
      <vel value="0.0334751016" flag="0"/>
      <psa03 value="0.1315942177" flag="0"/>
      <psa10 value="0.0252864061" flag="0"/>
      <psa30 value="0.0034644486" flag="0"/>
    </comp>
    <comp name="--.HHN">
      <acc value="0.0588709792" flag="0"/>
      <vel value="0.0264145039" flag="0"/>
      <psa03 value="0.1378583084" flag="0"/>
      <psa10 value="0.0239034436" flag="0"/>
      <psa30 value="0.0016728833" flag="0"/>
    </comp>
    <comp name="--.HHZ">
      <acc value="0.0496326831" flag="0"/>
      <vel value="0.0210577755" flag="0"/>
      <psa03 value="0.0649348089" flag="0"/>
      <psa10 value="0.0223097847" flag="0"/>
      <psa30 value="0.0044995986" flag="0"/>
    </comp>
  </station>
  <station code="CSNT" name="CSNT" netid="IV" insttype="" lat="43.4731" lon="11.2902">
    <comp name="--.HHE">
      <acc value="0.0031081179" flag="0"/>
      <vel value="0.0023958853" flag="0"/>
      <psa03 value="0.0089196964" flag="0"/>
      <psa10 value="0.0042799486" flag="0"/>
      <psa30 value="0.0006478734" flag="0"/>
    </comp>
    <comp name="--.HHN">
      <acc value="0.0035209131" flag="0"/>
      <vel value="0.0036868664" flag="0"/>
      <psa03 value="0.0078813753" flag="0"/>
      <psa10 value="0.0077493636" flag="0"/>
      <psa30 value="0.0008566500" flag="0"/>
    </comp>
    <comp name="--.HHZ">
      <acc value="0.0019144539" flag="0"/>
      <vel value="0.0029145052" flag="0"/>
      <psa03 value="0.0046122644" flag="0"/>
      <psa10 value="0.0023350561" flag="0"/>
      <psa30 value="0.0010802988" flag="0"/>
    </comp>
  </station>
  <station code="FDMO" name="FDMO" netid="IV" insttype="" lat="43.0365" lon="13.0873">
    <comp name="--.HHE">
      <acc value="0.0214182118" flag="0"/>
      <vel value="0.0053462320" flag="0"/>
      <psa03 value="0.0235431733" flag="0"/>
      <psa10 value="0.0037266738" flag="0"/>
      <psa30 value="0.0008812859" flag="0"/>
    </comp>
    <comp name="--.HHN">
      <acc value="0.0299169283" flag="0"/>
      <vel value="0.0075913031" flag="0"/>
      <psa03 value="0.0234608436" flag="0"/>
      <psa10 value="0.0051345564" flag="0"/>
      <psa30 value="0.0011613340" flag="0"/>
    </comp>
    <comp name="--.HHZ">
      <acc value="0.0189643349" flag="0"/>
      <vel value="0.0060848259" flag="0"/>
      <psa03 value="0.0320797492" flag="0"/>
      <psa10 value="0.0038235224" flag="0"/>
      <psa30 value="0.0010222169" flag="0"/>
    </comp>
  </station>
  <station code="FEMA" name="FEMA" netid="IV" insttype="" lat="42.9621" lon="13.0498">
    <comp name="--.HNE">
      <acc value="0.0442282330" flag="0"/>
      <vel value="0.0133527982" flag="0"/>
      <psa03 value="0.0619092460" flag="0"/>
      <psa10 value="0.0072440607" flag="0"/>
      <psa30 value="0.0020271627" flag="0"/>
    </comp>
    <comp name="--.HNN">
      <acc value="0.0452503861" flag="0"/>
      <vel value="0.0139647065" flag="0"/>
      <psa03 value="0.0730925501" flag="0"/>
      <psa10 value="0.0091586210" flag="0"/>
      <psa30 value="0.0021964965" flag="0"/>
    </comp>
    <comp name="--.HNZ">
      <acc value="0.0220194986" flag="0"/>
      <vel value="0.0089655362" flag="0"/>
      <psa03 value="0.0318752820" flag="0"/>
      <psa10 value="0.0073228981" flag="0"/>
      <psa30 value="0.0014348841" flag="0"/>
    </comp>
  </station>
  <station code="FIU1" name="FIU1" netid="IV" insttype="" lat="43.1886" lon="12.9316">
    <comp name="--.HNE">
      <acc value="0.0652669807" flag="0"/>
      <vel value="0.0140041642" flag="0"/>
      <psa03 value="0.0707658790" flag="0"/>
