<stationlist created="1778070025">
	<station code="0REN" name="0REN" netid="IT" source="Italian Strong Motion Network (RAN)" insttype="" lat="43.5462" lon="12.264">
		<comp name="--.HNE" depth="0.0">
			<acc value="0.064205917853964" flag="0"/>
			<vel value="0.0200172214197" flag="0"/>
			<psa03 value="0.0926391368879666" flag="0"/>
			<psa10 value="0.017409815814842" flag="0"/>
			<psa30 value="0.00318339400922799" flag="0"/>
		</comp>
		<comp name="--.HNN" depth="0.0">
			<acc value="0.086016138144306" flag="0"/>
			<vel value="0.0201853552602" flag="0"/>
			<psa03 value="0.086620946545904" flag="0"/>
			<psa10 value="0.0397036101693237" flag="0"/>
			<psa30 value="0.00496391258485298" flag="0"/>
		</comp>
		<comp name="--.HNZ" depth="0.0">
			<acc value="0.05604626661114" flag="0"/>
			<vel value="0.0175567230496" flag="0"/>
			<psa03 value="0.0741809870431413" flag="0"/>
			<psa10 value="0.0229304046517701" flag="0"/>
			<psa30 value="0.00420045659296965" flag="0"/>
		</comp>
	</station>
	<station code="ACT" name="ACT" netid="IT" source="Italian Strong Motion Network (RAN)" insttype="" lat="42.771301" lon="13.4125">
		<comp name="--.HNE" depth="0.0">
			<acc value="0.010403859072516" flag="0"/>
			<vel value="0.00194006944334" flag="0"/>
			<psa03 value="0.00646998003672954" flag="0"/>
			<psa10 value="0.00190651778182333" flag="0"/>
			<psa30 value="0.000720133486558986" flag="0"/>
		</comp>
		<comp name="--.HNN" depth="0.0">
			<acc value="0.014830723523052" flag="0"/>
			<vel value="0.0028070223293" flag="0"/>
			<psa03 value="0.00842094651826797" flag="0"/>
			<psa10 value="0.00200168432051405" flag="0"/>
			<psa30 value="0.000673689576545217" flag="0"/>
		</comp>
		<comp name="--.HNZ" depth="0.0">
			<acc value="0.018530700838056" flag="0"/>
			<vel value="0.002068157947" flag="0"/>
			<psa03 value="0.00785279950631301" flag="0"/>
			<psa10 value="0.00229692919153733" flag="0"/>
			<psa30 value="0.000848013676742096" flag="0"/>
		</comp>
	</station>
	<station code="AME" name="AME" netid="IT" source="Italian Strong Motion Network (RAN)" insttype="" lat="42.5597" lon="12.414">
		<comp name="--.HGE" depth="0.0">
			<acc value="0.0091785211859664" flag="0"/>
			<vel value="0.00546736768341" flag="0"/>
			<psa03 value="0.0155025256641678" flag="0"/>
			<psa10 value="0.00619357748162604" flag="0"/>
			<psa30 value="0.00112065507123396" flag="0"/>
		</comp>
		<comp name="--.HGN" depth="0.0">
			<acc value="0.012008338106124" flag="0"/>
			<vel value="0.00564395504571" flag="0"/>
			<psa03 value="0.0262675708267995" flag="0"/>
			<psa10 value="0.00999053713655416" flag="0"/>
			<psa30 value="0.00117243787658676" flag="0"/>
		</comp>
		<comp name="--.HGZ" depth="0.0">
			<acc value="0.005360981086302" flag="0"/>
			<vel value="0.00332842218079" flag="0"/>
			<psa03 value="0.00825867209649874" flag="0"/>
			<psa10 value="0.00434617650662889" flag="0"/>
			<psa30 value="0.000605440940825004" flag="0"/>
		</comp>
	</station>
	<station code="ANT" name="ANT" netid="IT" source="Italian Strong Motion Network (RAN)" insttype="" lat="42.4182" lon="13.0786">
		<comp name="--.HNE" depth="0.0">
			<acc value="0.005181707443383" flag="0"/>
			<vel value="0.00441187877422" flag="0"/>
			<psa03 value="0.013555258646436" flag="0"/>
			<psa10 value="0.00552771196502968" flag="0"/>
			<psa30 value="0.000833073676625666" flag="0"/>
		</comp>
		<comp name="--.HNN" depth="0.0">
			<acc value="0.0041612056337382" flag="0"/>
			<vel value="0.00409663691981" flag="0"/>
			<psa03 value="0.0109699259225033" flag="0"/>
			<psa10 value="0.00690449707656197" flag="0"/>
			<psa30 value="0.000840470156191533" flag="0"/>
		</comp>
		<comp name="--.HNZ" depth="0.0">
			<acc value="0.003576724096632" flag="0"/>
			<vel value="0.00286992252633" flag="0"/>
			<psa03 value="0.00642796813906532" flag="0"/>
			<psa10 value="0.0042327464924142" flag="0"/>
			<psa30 value="0.000551985420489733" flag="0"/>
		</comp>
	</station>
	<station code="ARCV" name="ARCV" netid="IT" source="Italian Strong Motion Network (RAN)" insttype="" lat="43.495" lon="12.9396">
		<comp name="--.HNE" depth="0.0">
			<acc value="0.15814286942904" flag="0"/>
			<vel value="0.0354975741693" flag="0"/>
			<psa03 value="0.109987369456582" flag="0"/>
			<psa10 value="0.0342026482576062" flag="0"/>
			<psa30 value="0.00554494232523526" flag="0"/>
		</comp>
		<comp name="--.HNN" depth="0.0">
			<acc value="0.20321657552988" flag="0"/>
			<vel value="0.0331568825438" flag="0"/>
			<psa03 value="0.0906024186321365" flag="0"/>
			<psa10 value="0.0416121040976532" flag="0"/>
			<psa30 value="0.00348685265354047" flag="0"/>
		</comp>
		<comp name="--.HNZ" depth="0.0">
			<acc value="0.101421982095396" flag="0"/>
			<vel value="0.0235799122768" flag="0"/>
			<psa03 value="0.0699562384239743" flag="0"/>
			<psa10 value="0.0173549909329558" flag="0"/>
			<psa30 value="0.00471124543021231" flag="0"/>
		</comp>
	</station>
	<station code="ARO" name="ARO" netid="IT" source="Italian Strong Motion Network (RAN)" insttype="" lat="43.4662" lon="11.8828">
		<comp name="--.HNE" depth="0.0">
			<acc value="0.01555450727727" flag="0"/>
			<vel value="0.0105360487587" flag="0"/>
			<psa03 value="0.0496686913487767" flag="0"/>
			<psa10 value="0.00891191880838993" flag="0"/>
			<psa30 value="0.00248922906587599" flag="0"/>
		</comp>
		<comp name="--.HNN" depth="0.0">
			<acc value="0.01614265986342" flag="0"/>
			<vel value="0.0084821031667" flag="0"/>
			<psa03 value="0.0388017058392715" flag="0"/>
			<psa10 value="0.00908781671077401" flag="0"/>
			<psa30 value="0.00199796402197941" flag="0"/>
		</comp>
		<comp name="--.HNZ" depth="0.0">
			<acc value="0.009130690383831" flag="0"/>
			<vel value="0.00686183551531" flag="0"/>
			<psa03 value="0.0269092174994442" flag="0"/>
			<psa10 value="0.0119863902895288" flag="0"/>
			<psa30 value="0.0021795489677562" flag="0"/>
		</comp>
	</station>
	<station code="ASS" name="ASS" netid="IT" source="Italian Strong Motion Network (RAN)" insttype="" lat="43.075" lon="12.6041">
		<comp name="--.HNE" depth="0.0">
			<acc value="0.24527485210662" flag="0"/>
			<vel value="0.0597356515036" flag="0"/>
			<psa03 value="0.155251972181057" flag="0"/>
			<psa10 value="0.0199496996946934" flag="0"/>
			<psa30 value="0.00489400212030947" flag="0"/>
		</comp>
		<comp name="--.HNN" depth="0.0">
			<acc value="0.28320884931954" flag="0"/>
			<vel value="0.0715511591046" flag="0"/>
			<psa03 value="0.11026522119634" flag="0"/>
			<psa10 value="0.0156800802908755" flag="0"/>
			<psa30 value="0.00460595095496095" flag="0"/>
		</comp>
		<comp name="--.HNZ" depth="0.0">
			<acc value="0.36689467276242" flag="0"/>
			<vel value="0.0683606151372" flag="0"/>
			<psa03 value="0.0722797152595821" flag="0"/>
			<psa10 value="0.012949317203722" flag="0"/>
			<psa30 value="0.00278307644848723" flag="0"/>
		</comp>
	</station>
	<station code="BDT" name="BDT" netid="IT" source="Italian Strong Motion Network (RAN)" insttype="" lat="43.7068" lon="12.188">
		<comp name="--.HNE" depth="0.0">
			<acc value="0.068980164062928" flag="0"/>
			<vel value="0.0429981854917" flag="0"/>
			<psa03 value="0.267889829719697" flag="0"/>
			<psa10 value="0.0394933824927527" flag="0"/>
			<psa30 value="0.00336245107921605" flag="0"/>
		</comp>
		<comp name="--.HNN" depth="0.0">
			<acc value="0.086760722010558" flag="0"/>
			<vel value="0.0606860031316" flag="0"/>
			<psa03 value="0.229323379048409" flag="0"/>
			<psa10 value="0.0492926203943344" flag="0"/>
			<psa30 value="0.00727459773973936" flag="0"/>
		</comp>
		<comp name="--.HNZ" depth="0.0">
			<acc value="0.039833886435066" flag="0"/>
			<vel value="0.032287456609" flag="0"/>
			<psa03 value="0.0663553019629352" flag="0"/>
			<psa10 value="0.029348829215905" flag="0"/>
			<psa30 value="0.00558022424581585" flag="0"/>
		</comp>
	</station>
	<station code="BRB" name="BRB" netid="IT" source="Italian Strong Motion Network (RAN)" insttype="" lat="43.9542" lon="11.2128">
		<comp name="--.HNE" depth="0.0">
			<acc value="0.0063715173960684" flag="0"/>
			<vel value="0.00569817484847" flag="0"/>
			<psa03 value="0.0214612472231501" flag="0"/>
			<psa10 value="0.00887604674452903" flag="0"/>
			<psa30 value="0.00118205215932207" flag="0"/>
		</comp>
		<comp name="--.HNN" depth="0.0">
			<acc value="0.0052037024269302" flag="0"/>
			<vel value="0.00575829846235" flag="0"/>
			<psa03 value="0.0119519284753675" flag="0"/>
			<psa10 value="0.00881567337007899" flag="0"/>
			<psa30 value="0.000814333945627828" flag="0"/>
		</comp>
		<comp name="--.HNZ" depth="0.0">
			<acc value="0.0035972293055724" flag="0"/>
			<vel value="0.00291824783155" flag="0"/>
			<psa03 value="0.012290150099625" flag="0"/>
			<psa10 value="0.00401389980741279" flag="0"/>
			<psa30 value="0.000713701914664929" flag="0"/>
		</comp>
	</station>
	<station code="BVG" name="BVG" netid="IT" source="Italian Strong Motion Network (RAN)" insttype="" lat="42.9323" lon="12.611">
		<comp name="--.HGE" depth="0.0">
			<acc value="0.10854849510174" flag="0"/>
			<vel value="0.0394223249567" flag="0"/>
			<psa03 value="0.145302948524052" flag="0"/>
			<psa10 value="0.045811699800416" flag="0"/>
			<psa30 value="0.0110152922090345" flag="0"/>
		</comp>
		<comp name="--.HGN" depth="0.0">
			<acc value="0.084525283700022" flag="0"/>
			<vel value="0.0466004892817" flag="0"/>
			<psa03 value="0.126391852006443" flag="0"/>
			<psa10 value="0.0700610687019192" flag="0"/>
			<psa30 value="0.0131509103499421" flag="0"/>
		</comp>
		<comp name="--.HGZ" depth="0.0">
			<acc value="0.072853864305954" flag="0"/>
			<vel value="0.022500180141" flag="0"/>
			<psa03 value="0.125905663548843" flag="0"/>
			<psa10 value="0.0206655471160614" flag="0"/>
			<psa30 value="0.00388856843190667" flag="0"/>
		</comp>
	</station>
	<station code="CAGL" name="CAGL" netid="IT" source="Italian Strong Motion Network (RAN)" insttype="" lat="43.5475" lon="12.6495">
		<comp name="--.HNE" depth="0.0">
			<acc value="0.3891604149312" flag="0"/>
			<vel value="0.128509811691" flag="0"/>
			<psa03 value="0.519258106633907" flag="0"/>
			<psa10 value="0.0656773132996777" flag="0"/>
			<psa30 value="0.00601343461055072" flag="0"/>
		</comp>
		<comp name="--.HNN" depth="0.0">
			<acc value="0.32235669429294" flag="0"/>
			<vel value="0.0949718687129" flag="0"/>
			<psa03 value="0.362389173170732" flag="0"/>
			<psa10 value="0.0686960307750329" flag="0"/>
			<psa30 value="0.00768527994541596" flag="0"/>
		</comp>
		<comp name="--.HNZ" depth="0.0">
			<acc value="0.26306244355146" flag="0"/>
			<vel value="0.100217743097" flag="0"/>
			<psa03 value="0.406921664896657" flag="0"/>
			<psa10 value="0.0560277703148575" flag="0"/>
			<psa30 value="0.0099725939687205" flag="0"/>
		</comp>
	</station>
	<station code="CDCT" name="CDCT" netid="IT" source="Italian Strong Motion Network (RAN)" insttype="" lat="43.366" lon="12.2363">
		<comp name="--.HNE" depth="0.0">
			<acc value="0.38468067070308" flag="0"/>
			<vel value="0.11437028175" flag="0"/>
			<psa03 value="0.274625317579673" flag="0"/>
			<psa10 value="0.169624336779959" flag="0"/>
			<psa30 value="0.0246269747495582" flag="0"/>
		</comp>
		<comp name="--.HNN" depth="0.0">
			<acc value="0.27711318816582" flag="0"/>
			<vel value="0.117242013737" flag="0"/>
			<psa03 value="0.261725504696892" flag="0"/>
			<psa10 value="0.231131396320538" flag="0"/>
			<psa30 value="0.019123456835159" flag="0"/>
		</comp>
		<comp name="--.HNZ" depth="0.0">
			<acc value="0.10389555993282" flag="0"/>
			<vel value="0.058684173963" flag="0"/>
			<psa03 value="0.191475580150803" flag="0"/>
			<psa10 value="0.109340608278496" flag="0"/>
			<psa30 value="0.0105099562330165" flag="0"/>
		</comp>
	</station>
	<station code="CLF" name="CLF" netid="IT" source="Italian Strong Motion Network (RAN)" insttype="" lat="43.0367" lon="12.9204">
		<comp name="--.HGE" depth="0.0">
			<acc value="0.06613915953846" flag="0"/>
			<vel value="0.0253975674714" flag="0"/>
			<psa03 value="0.129998247162549" flag="0"/>
			<psa10 value="0.0522113412451203" flag="0"/>
			<psa30 value="0.00402372488535982" flag="0"/>
		</comp>
		<comp name="--.HGN" depth="0.0">
			<acc value="0.03936399634968" flag="0"/>
			<vel value="0.0246728861288" flag="0"/>
			<psa03 value="0.116554648256557" flag="0"/>
			<psa10 value="0.0525612994282419" flag="0"/>
			<psa30 value="0.00346071008839328" flag="0"/>
		</comp>
		<comp name="--.HGZ" depth="0.0">
			<acc value="0.041462137403748" flag="0"/>
			<vel value="0.0201122287926" flag="0"/>
			<psa03 value="0.0899615532615948" flag="0"/>
			<psa10 value="0.0157094991147018" flag="0"/>
			<psa30 value="0.00127432556364591" flag="0"/>
		</comp>
	</station>
	<station code="CMNZ" name="CMNZ" netid="IT" source="Italian Strong Motion Network (RAN)" insttype="" lat="42.9508" lon="13.4079">
		<comp name="--.HNE" depth="0.0">
			<acc value="0.024766611793182" flag="0"/>
			<vel value="0.0101317994077" flag="0"/>
			<psa03 value="0.034364625446114" flag="0"/>
			<psa10 value="0.00646353255232787" flag="0"/>
			<psa30 value="0.00139162948029164" flag="0"/>
		</comp>
		<comp name="--.HNN" depth="0.0">
			<acc value="0.028475050878144" flag="0"/>
			<vel value="0.00835706263982" flag="0"/>
			<psa03 value="0.0458127588286259" flag="0"/>
			<psa10 value="0.00499110204226678" flag="0"/>
			<psa30 value="0.00156797407892041" flag="0"/>
		</comp>
		<comp name="--.HNZ" depth="0.0">
			<acc value="0.01430711957793" flag="0"/>
			<vel value="0.00412192382248" flag="0"/>
			<psa03 value="0.0179178510321949" flag="0"/>
			<psa10 value="0.00680149978472497" flag="0"/>
			<psa30 value="0.000830671277894592" flag="0"/>
		</comp>
	</station>
	<station code="CMRN" name="CMRN" netid="IT" source="Italian Strong Motion Network (RAN)" insttype="" lat="43.1392" lon="13.0718">
		<comp name="--.HNE" depth="0.0">
			<acc value="0.057323165679984" flag="0"/>
			<vel value="0.0221533880041" flag="0"/>
			<psa03 value="0.0963463720575366" flag="0"/>
			<psa10 value="0.0414283194227867" flag="0"/>
			<psa30 value="0.00363241437962487" flag="0"/>
		</comp>
		<comp name="--.HNN" depth="0.0">
			<acc value="0.076569769065696" flag="0"/>
			<vel value="0.0203159234588" flag="0"/>
			<psa03 value="0.113697146461335" flag="0"/>
			<psa10 value="0.022155464565796" flag="0"/>
			<psa30 value="0.00392304279899957" flag="0"/>
		</comp>
		<comp name="--.HNZ" depth="0.0">
			<acc value="0.032726362321656" flag="0"/>
			<vel value="0.0118862890395" flag="0"/>
			<psa03 value="0.0479883612852467" flag="0"/>
			<psa10 value="0.0250052689763365" flag="0"/>
			<psa30 value="0.00198743644957779" flag="0"/>
		</comp>
	</station>
	<station code="CNTN" name="CNTN" netid="IT" source="Italian Strong Motion Network (RAN)" insttype="" lat="43.4729" lon="12.6303">
		<comp name="--.HNE" depth="0.0">
			<acc value="1.9874641810224" flag="0"/>
			<vel value="0.221888785887" flag="0"/>
			<psa03 value="0.487848609244358" flag="0"/>
			<psa10 value="0.0655198703699671" flag="0"/>
			<psa30 value="0.00519186518557462" flag="0"/>
		</comp>
		<comp name="--.HNN" depth="0.0">
			<acc value="2.0467685697132" flag="0"/>
			<vel value="0.229432513142" flag="0"/>
			<psa03 value="0.358729055706204" flag="0"/>
			<psa10 value="0.0894940385406534" flag="0"/>
			<psa30 value="0.0104067643970495" flag="0"/>
		</comp>
		<comp name="--.HNZ" depth="0.0">
			<acc value="0.4675450078995" flag="0"/>
			<vel value="0.128874622063" flag="0"/>
			<psa03 value="0.239754007526182" flag="0"/>
			<psa10 value="0.077515295007807" flag="0"/>
			<psa30 value="0.0121717063157943" flag="0"/>
		</comp>
	</station>
	<station code="CPT" name="CPT" netid="IT" source="Italian Strong Motion Network (RAN)" insttype="" lat="42.8274" lon="12.9251">
		<comp name="--.HNE" depth="0.0">
			<acc value="0.048497878367724" flag="0"/>
			<vel value="0.00982430552809" flag="0"/>
			<psa03 value="0.048160872713331" flag="0"/>
			<psa10 value="0.0100373833648836" flag="0"/>
			<psa30 value="0.0016562375301073" flag="0"/>
		</comp>
		<comp name="--.HNN" depth="0.0">
			<acc value="0.059897455859718" flag="0"/>
			<vel value="0.00959918151664" flag="0"/>
			<psa03 value="0.0277077052911567" flag="0"/>
			<psa10 value="0.0069861906133412" flag="0"/>
			<psa30 value="0.00197105994804601" flag="0"/>
		</comp>
		<comp name="--.HNZ" depth="0.0">
			<acc value="0.033735553926642" flag="0"/>
			<vel value="0.00735194723266" flag="0"/>
			<psa03 value="0.0258059673311643" flag="0"/>
			<psa10 value="0.00539381872026017" flag="0"/>
			<psa30 value="0.00188423315453215" flag="0"/>
		</comp>
	</station>
	<station code="CSA" name="CSA" netid="IT" source="Italian Strong Motion Network (RAN)" insttype="" lat="43.008" lon="12.5906">
		<comp name="--.HGE" depth="0.0">
			<acc value="0.1916757304611" flag="0"/>
			<vel value="0.140952170784" flag="0"/>
			<psa03 value="0.294131193081383" flag="0"/>
			<psa10 value="0.111088644077292" flag="0"/>
			<psa30 value="0.0474313154249927" flag="0"/>
		</comp>
		<comp name="--.HGN" depth="0.0">
			<acc value="0.11866412994804" flag="0"/>
			<vel value="0.0981863142753" flag="0"/>
			<psa03 value="0.14940847049444" flag="0"/>
			<psa10 value="0.119993931509017" flag="0"/>
			<psa30 value="0.0447147888019731" flag="0"/>
		</comp>
		<comp name="--.HGZ" depth="0.0">
			<acc value="0.05119410303435" flag="0"/>
			<vel value="0.0520053322038" flag="0"/>
			<psa03 value="0.0854411600577336" flag="0"/>
			<psa10 value="0.0589182930478117" flag="0"/>
			<psa30 value="0.0222149732996131" flag="0"/>
		</comp>
	</station>
	<station code="CSAN" name="CSAN" netid="IT" source="Italian Strong Motion Network (RAN)" insttype="" lat="42.9003" lon="13.1453">
		<comp name="--.HGE" depth="0.0">
			<acc value="0.028742230776378" flag="0"/>
			<vel value="0.00558641834871" flag="0"/>
			<psa03 value="0.0227289405765881" flag="0"/>
			<psa10 value="0.00415969165290375" flag="0"/>
			<psa30 value="0.000888126854878404" flag="0"/>
		</comp>
		<comp name="--.HGN" depth="0.0">
			<acc value="0.030983530645944" flag="0"/>
			<vel value="0.00702006546692" flag="0"/>
			<psa03 value="0.0296457243004157" flag="0"/>
			<psa10 value="0.00264703058715902" flag="0"/>
			<psa30 value="0.00172317529774091" flag="0"/>
		</comp>
		<comp name="--.HGZ" depth="0.0">
			<acc value="0.014731543501752" flag="0"/>
			<vel value="0.00366313357652" flag="0"/>
			<psa03 value="0.0113156962239446" flag="0"/>
			<psa10 value="0.002811304828897" flag="0"/>
			<psa30 value="0.00145031576380187" flag="0"/>
		</comp>
	</station>
	<station code="CSN" name="CSN" netid="IT" source="Italian Strong Motion Network (RAN)" insttype="" lat="44.137" lon="12.2414">
		<comp name="--.HNE" depth="0.0">
			<acc value="0.022921990802244" flag="0"/>
			<vel value="0.0109428583216" flag="0"/>
			<psa03 value="0.0785068204832031" flag="0"/>
			<psa10 value="0.0118599591015725" flag="0"/>
			<psa30 value="0.00183811530778306" flag="0"/>
		</comp>
		<comp name="--.HNN" depth="0.0">
			<acc value="0.031133955076992" flag="0"/>
			<vel value="0.0160852249201" flag="0"/>
			<psa03 value="0.102595202678811" flag="0"/>
			<psa10 value="0.0142971827431796" flag="0"/>
			<psa30 value="0.00233444027021063" flag="0"/>
		</comp>
		<comp name="--.HNZ" depth="0.0">
			<acc value="0.01217739260859" flag="0"/>
			<vel value="0.00595304628885" flag="0"/>
			<psa03 value="0.0235994513686572" flag="0"/>
			<psa10 value="0.00869233238686787" flag="0"/>
			<psa30 value="0.00172776924789888" flag="0"/>
		</comp>
	</station>
	<station code="CTS" name="CTS" netid="IT" source="Italian Strong Motion Network (RAN)" insttype="" lat="43.4919" lon="12.2233">
		<comp name="--.HGE" depth="0.0">
			<acc value="0.14448740604504" flag="0"/>
			<vel value="0.0998633492562" flag="0"/>
			<psa03 value="0.363986570657237" flag="0"/>
			<psa10 value="0.142681531951279" flag="0"/>
			<psa30 value="0.0113174797274941" flag="0"/>
		</comp>
		<comp name="--.HGN" depth="0.0">
			<acc value="0.17527166437242" flag="0"/>
