<stationlist created="1778205299">
	<station code="T0721" name="T0721" netid="9N" source="INGV Temporary Seismic Network for Pollino 2011 Sequence (ITSNP2011)" insttype="" lat="39.93691" lon="15.97695">
		<comp name="--.HNE" depth="0.0">
			<acc value="0.012249282" flag="0"/>
			<vel value="0.032943" flag="0"/>
			<psa03 value="0.0432657137998688" flag="0"/>
			<psa10 value="0.0387015613027389" flag="0"/>
			<psa30 value="0.00940973347388873" flag="0"/>
		</comp>
		<comp name="--.HNN" depth="0.0">
			<acc value="0.014905158" flag="0"/>
			<vel value="0.040072" flag="0"/>
			<psa03 value="0.0392389152042243" flag="0"/>
			<psa10 value="0.0521188542234262" flag="0"/>
			<psa30 value="0.010997186964705" flag="0"/>
		</comp>
		<comp name="--.HNZ" depth="0.0">
			<acc value="0.007096446" flag="0"/>
			<vel value="0.026861" flag="0"/>
			<psa03 value="0.0246082136400495" flag="0"/>
			<psa10 value="0.0212494161892158" flag="0"/>
			<psa30 value="0.00613236683910033" flag="0"/>
		</comp>
	</station>
	<station code="BERA1" name="BERA1" netid="AC" source="Albanian Seismological Network (AC)" insttype="" lat="40.708161" lon="19.945463">
		<comp name="00.HNE" depth="None">
			<acc value="0.0629024366195202" flag="0"/>
			<vel value="0.119193196344347" flag="0"/>
			<psa03 value="0.101117386957294" flag="0"/>
			<psa10 value="0.120449599592917" flag="0"/>
			<psa30 value="0.0334783561021218" flag="0"/>
		</comp>
		<comp name="00.HNN" depth="None">
			<acc value="0.0397443436081282" flag="0"/>
			<vel value="0.0816665043925795" flag="0"/>
			<psa03 value="0.0847417393350067" flag="0"/>
			<psa10 value="0.066901231868037" flag="0"/>
			<psa30 value="0.0423735541999004" flag="0"/>
		</comp>
		<comp name="00.HNZ" depth="None">
			<acc value="0.0330568583584658" flag="0"/>
			<vel value="0.0786154070721704" flag="0"/>
			<psa03 value="0.0603124945214303" flag="0"/>
			<psa10 value="0.0473632050819701" flag="0"/>
			<psa30 value="0.0196046926739281" flag="0"/>
		</comp>
	</station>
	<station code="KBN" name="KBN" netid="AC" source="Albanian Seismological Network (AC)" insttype="" lat="40.6236" lon="20.7874">
		<comp name="00.HNE" depth="0.0">
			<acc value="0.0244552837284417" flag="0"/>
			<vel value="0.168123288749564" flag="0"/>
			<psa03 value="0.0463976682631478" flag="0"/>
			<psa10 value="0.0676784039969964" flag="0"/>
			<psa30 value="0.0333508408132598" flag="0"/>
		</comp>
		<comp name="00.HNN" depth="0.0">
			<acc value="0.0236306295806382" flag="0"/>
			<vel value="0.0835947118708394" flag="0"/>
			<psa03 value="0.0515430220242491" flag="0"/>
			<psa10 value="0.0641791160173814" flag="0"/>
			<psa30 value="0.0311768169936779" flag="0"/>
		</comp>
		<comp name="00.HNZ" depth="0.0">
			<acc value="0.0200884183192312" flag="0"/>
			<vel value="0.0456594752854832" flag="0"/>
			<psa03 value="0.0313642868394085" flag="0"/>
			<psa10 value="0.0552678107252202" flag="0"/>
			<psa30 value="0.0183281975191088" flag="0"/>
		</comp>
	</station>
	<station code="KKS" name="KKS" netid="AC" source="Albanian Seismological Network (AC)" insttype="" lat="42.0756" lon="20.4113">
		<comp name="00.HNE" depth="None">
			<acc value="0.0124959095952364" flag="0"/>
			<vel value="0.0688518095963611" flag="0"/>
			<psa03 value="0.0278743947231833" flag="0"/>
			<psa10 value="0.0178870393618527" flag="0"/>
			<psa30 value="0.0194261712695212" flag="0"/>
		</comp>
		<comp name="00.HNN" depth="None">
			<acc value="0.011962655404088" flag="0"/>
			<vel value="0.04252118789164" flag="0"/>
			<psa03 value="0.0274717148636189" flag="0"/>
			<psa10 value="0.0288479851391969" flag="0"/>
			<psa30 value="0.0186843454837903" flag="0"/>
		</comp>
		<comp name="00.HNZ" depth="None">
			<acc value="0.00708582572709657" flag="0"/>
			<vel value="0.0272860823666371" flag="0"/>
			<psa03 value="0.0161966787958144" flag="0"/>
			<psa10 value="0.0169810096778327" flag="0"/>
			<psa30 value="0.00950771890638275" flag="0"/>
		</comp>
	</station>
	<station code="LSK" name="LSK" netid="AC" source="Albanian Seismological Network (AC)" insttype="" lat="40.149899" lon="20.5987">
		<comp name="--.HNE" depth="0.0">
			<acc value="0.0647963879360036" flag="0"/>
			<vel value="0.232410295635616" flag="0"/>
			<psa03 value="0.0996408941388912" flag="0"/>
			<psa10 value="0.187056875163472" flag="0"/>
			<psa30 value="0.0643952208753476" flag="0"/>
		</comp>
		<comp name="--.HNN" depth="0.0">
			<acc value="0.0901004682964424" flag="0"/>
			<vel value="0.13842804388968" flag="0"/>
			<psa03 value="0.169707189703105" flag="0"/>
			<psa10 value="0.172467783851452" flag="0"/>
			<psa30 value="0.0440929972002406" flag="0"/>
		</comp>
		<comp name="--.HNZ" depth="0.0">
			<acc value="0.0810420512935367" flag="0"/>
			<vel value="0.106974896311475" flag="0"/>
			<psa03 value="0.103622950527917" flag="0"/>
			<psa10 value="0.12725086242096" flag="0"/>
			<psa30 value="0.0370818934231574" flag="0"/>
		</comp>
	</station>
	<station code="SDA" name="SDA" netid="AC" source="Albanian Seismological Network (AC)" insttype="" lat="42.05" lon="19.5">
		<comp name="00.HNE" depth="0.0">
			<acc value="0.00690077023056967" flag="0"/>
			<vel value="0.0308397726119711" flag="0"/>
			<psa03 value="0.0194181176723299" flag="0"/>
			<psa10 value="0.0118750290585555" flag="0"/>
			<psa30 value="0.0078961046239926" flag="0"/>
		</comp>
		<comp name="00.HNN" depth="0.0">
			<acc value="0.010519086804346" flag="0"/>
			<vel value="0.0440089589503263" flag="0"/>
			<psa03 value="0.0265768707312534" flag="0"/>
			<psa10 value="0.0176897262306661" flag="0"/>
			<psa30 value="0.0160624521759596" flag="0"/>
		</comp>
		<comp name="00.HNZ" depth="0.0">
			<acc value="0.00861747396592145" flag="0"/>
			<vel value="0.0251722083271206" flag="0"/>
			<psa03 value="0.0210288371105877" flag="0"/>
			<psa10 value="0.0106589358826709" flag="0"/>
			<psa30 value="0.0165326927675176" flag="0"/>
		</comp>
	</station>
	<station code="SRN" name="SRN" netid="AC" source="Albanian Seismological Network (AC)" insttype="" lat="39.880001" lon="20.0005">
		<comp name="--.HNE" depth="0.0">
			<acc value="0.0541064313892209" flag="0"/>
			<vel value="0.115512735233949" flag="0"/>
			<psa03 value="0.102414910949224" flag="0"/>
			<psa10 value="0.122986482708173" flag="0"/>
			<psa30 value="0.0520231059012631" flag="0"/>
		</comp>
		<comp name="--.HNN" depth="0.0">
			<acc value="0.0396358727866446" flag="0"/>
			<vel value="0.0896465559043991" flag="0"/>
			<psa03 value="0.0792831901275775" flag="0"/>
			<psa10 value="0.0578006670418805" flag="0"/>
			<psa30 value="0.0354832543806866" flag="0"/>
		</comp>
		<comp name="--.HNZ" depth="0.0">
			<acc value="0.0377952524512754" flag="0"/>
			<vel value="0.111608229016185" flag="0"/>
			<psa03 value="0.111094899033169" flag="0"/>
			<psa10 value="0.0600435938596545" flag="0"/>
			<psa30 value="0.0347230842902422" flag="0"/>
		</comp>
	</station>
	<station code="VLO" name="VLO" netid="AC" source="Albanian Seismological Network (AC)" insttype="" lat="40.468601" lon="19.495501">
		<comp name="--.HNE" depth="0.0">
			<acc value="0.0704172442757572" flag="0"/>
			<vel value="0.236653391448461" flag="0"/>
			<psa03 value="0.163756476222875" flag="0"/>
			<psa10 value="0.0789534400648009" flag="0"/>
			<psa30 value="0.0748935322362589" flag="0"/>
		</comp>
		<comp name="--.HNN" depth="0.0">
			<acc value="0.0707791948357928" flag="0"/>
			<vel value="0.246747718053104" flag="0"/>
			<psa03 value="0.121788286414936" flag="0"/>
			<psa10 value="0.187217947107298" flag="0"/>
			<psa30 value="0.129954633966903" flag="0"/>
		</comp>
		<comp name="--.HNZ" depth="0.0">
			<acc value="0.0386988022165147" flag="0"/>
			<vel value="0.107621241648052" flag="0"/>
			<psa03 value="0.092034719013785" flag="0"/>
			<psa10 value="0.0987008603778413" flag="0"/>
			<psa30 value="0.0555094186409588" flag="0"/>
		</comp>
	</station>
	<station code="KTHA" name="KTHA" netid="GE" source="GEOFON" insttype="" lat="36.2566" lon="23.0621">
		<comp name="--.HNE" depth="0.0">
			<acc value="0.0429368719415812" flag="0"/>
			<vel value="0.206524264472416" flag="0"/>
			<psa03 value="0.0721244370686541" flag="0"/>
			<psa10 value="0.116358372219742" flag="0"/>
			<psa30 value="0.079338223041718" flag="0"/>
		</comp>
		<comp name="--.HNN" depth="0.0">
			<acc value="0.022775388351856" flag="0"/>
			<vel value="0.160547293417032" flag="0"/>
			<psa03 value="0.0400442749233532" flag="0"/>
			<psa10 value="0.0781319731512894" flag="0"/>
			<psa30 value="0.0283576105546606" flag="0"/>
		</comp>
		<comp name="--.HNZ" depth="0.0">
			<acc value="0.0160805784501605" flag="0"/>
			<vel value="0.106418868306079" flag="0"/>
			<psa03 value="0.0248319246731408" flag="0"/>
			<psa10 value="0.0386492129209955" flag="0"/>
			<psa30 value="0.031277486958569" flag="0"/>
		</comp>
	</station>
	<station code="AIG2" name="AIG2" netid="HI" source="ITSAK Strong Motion Network" insttype="" lat="38.2417" lon="22.0726">
		<comp name="--.HNE" depth="0.0">
			<acc value="0.187448079325609" flag="0"/>
			<vel value="0.629828102082558" flag="0"/>
			<psa03 value="0.589925538005022" flag="0"/>
			<psa10 value="0.250729624607113" flag="0"/>
			<psa30 value="0.163685550031029" flag="0"/>
		</comp>
		<comp name="--.HNN" depth="0.0">
			<acc value="0.198375063757926" flag="0"/>
			<vel value="0.659463930787646" flag="0"/>
			<psa03 value="0.410658495776604" flag="0"/>
			<psa10 value="0.417533999578321" flag="0"/>
			<psa30 value="0.275856754156128" flag="0"/>
		</comp>
		<comp name="--.HNZ" depth="0.0">
			<acc value="0.130707189507546" flag="0"/>
			<vel value="0.387793437168284" flag="0"/>
			<psa03 value="0.346017463625466" flag="0"/>
			<psa10 value="0.298781542810867" flag="0"/>
			<psa30 value="0.122947864692639" flag="0"/>
		</comp>
	</station>
	<station code="AKR1" name="AKR1" netid="HI" source="ITSAK Strong Motion Network" insttype="" lat="38.153583" lon="22.31326">
		<comp name="--.HNE" depth="0.0">
			<acc value="0.193197166767501" flag="0"/>
			<vel value="0.428370397298353" flag="0"/>
			<psa03 value="0.564385054406663" flag="0"/>
			<psa10 value="0.350683121035705" flag="0"/>
			<psa30 value="0.0895355979606136" flag="0"/>
		</comp>
		<comp name="--.HNN" depth="0.0">
			<acc value="0.18487035690895" flag="0"/>
			<vel value="0.459338040214009" flag="0"/>
			<psa03 value="0.594664518605895" flag="0"/>
			<psa10 value="0.280500161759093" flag="0"/>
			<psa30 value="0.109128102534553" flag="0"/>
		</comp>
		<comp name="--.HNZ" depth="0.0">
			<acc value="0.123465523696258" flag="0"/>
			<vel value="0.296140366696291" flag="0"/>
			<psa03 value="0.253915237304987" flag="0"/>
			<psa10 value="0.246226356287688" flag="0"/>
			<psa30 value="0.0812330412903144" flag="0"/>
		</comp>
	</station>
	<station code="AOL1" name="AOL1" netid="HI" source="ITSAK Strong Motion Network" insttype="" lat="37.642378" lon="21.624555">
		<comp name="--.HNE" depth="0.0">
			<acc value="0.5599469665081" flag="0"/>
			<vel value="0.942015480241853" flag="0"/>
			<psa03 value="1.07328851676348" flag="0"/>
			<psa10 value="1.07484736336275" flag="0"/>
			<psa30 value="0.439008095465118" flag="0"/>
		</comp>
		<comp name="--.HNN" depth="0.0">
			<acc value="0.455936956901372" flag="0"/>
			<vel value="1.0375575659111" flag="0"/>
			<psa03 value="1.27852102907685" flag="0"/>
			<psa10 value="1.27587676057371" flag="0"/>
			<psa30 value="0.564448911970246" flag="0"/>
		</comp>
		<comp name="--.HNZ" depth="0.0">
			<acc value="0.249356390132591" flag="0"/>
			<vel value="0.547303850958891" flag="0"/>
			<psa03 value="0.672671727867336" flag="0"/>
			<psa10 value="0.537362297614979" flag="0"/>
			<psa30 value="0.160978597375367" flag="0"/>
		</comp>
	</station>
	<station code="ARE2" name="ARE2" netid="HI" source="ITSAK Strong Motion Network" insttype="" lat="36.66629" lon="22.382635">
		<comp name="--.HNE" depth="0.0">
			<acc value="0.0506766815092516" flag="0"/>
			<vel value="0.179527078570607" flag="0"/>
			<psa03 value="0.0792327175286823" flag="0"/>
			<psa10 value="0.157376100394289" flag="0"/>
			<psa30 value="0.052827599569207" flag="0"/>
		</comp>
		<comp name="--.HNN" depth="0.0">
			<acc value="0.0366379187292698" flag="0"/>
			<vel value="0.169141289258247" flag="0"/>
			<psa03 value="0.0826947697893203" flag="0"/>
			<psa10 value="0.0797169233549419" flag="0"/>
			<psa30 value="0.0580821409901215" flag="0"/>
		</comp>
		<comp name="--.HNZ" depth="0.0">
			<acc value="0.0233902576002765" flag="0"/>
			<vel value="0.171953709022711" flag="0"/>
			<psa03 value="0.0390319502584791" flag="0"/>
			<psa10 value="0.0557775424884479" flag="0"/>
			<psa30 value="0.0484858352819646" flag="0"/>
		</comp>
	</station>
	<station code="ARG2" name="ARG2" netid="HI" source="ITSAK Strong Motion Network" insttype="" lat="38.1783" lon="20.4878">
		<comp name="--.HNE" depth="0.0">
			<acc value="23.2895045109628" flag="0"/>
			<vel value="14.368601850811" flag="0"/>
			<psa03 value="44.303881581386" flag="0"/>
			<psa10 value="9.75579763373156" flag="0"/>
			<psa30 value="3.17664158358333" flag="0"/>
		</comp>
		<comp name="--.HNN" depth="0.0">
			<acc value="26.4037342209246" flag="0"/>
			<vel value="32.9373932691419" flag="0"/>
			<psa03 value="47.6066363728283" flag="0"/>
			<psa10 value="30.8986600045645" flag="0"/>
			<psa30 value="4.35986300619436" flag="0"/>
		</comp>
		<comp name="--.HNZ" depth="0.0">
			<acc value="15.0680922904968" flag="0"/>
			<vel value="11.721371378077" flag="0"/>
			<psa03 value="16.5064481378267" flag="0"/>
			<psa10 value="10.3069317436251" flag="0"/>
			<psa30 value="4.68236159681182" flag="0"/>
		</comp>
	</station>
	<station code="ART2" name="ART2" netid="HI" source="ITSAK Strong Motion Network" insttype="" lat="39.1474" lon="20.9937">
		<comp name="--.HNE" depth="0.0">
			<acc value="0.236072191543397" flag="0"/>
			<vel value="0.340931311707145" flag="0"/>
			<psa03 value="0.530553086079466" flag="0"/>
			<psa10 value="0.187487742613206" flag="0"/>
			<psa30 value="0.0593679865397186" flag="0"/>
		</comp>
		<comp name="--.HNN" depth="0.0">
			<acc value="0.204992932561784" flag="0"/>
			<vel value="0.194423970147172" flag="0"/>
			<psa03 value="0.691535545492008" flag="0"/>
			<psa10 value="0.158837070605196" flag="0"/>
			<psa30 value="0.0752720513042495" flag="0"/>
		</comp>
		<comp name="--.HNZ" depth="0.0">
			<acc value="0.124179023624115" flag="0"/>
			<vel value="0.157365842472738" flag="0"/>
			<psa03 value="0.485497684014867" flag="0"/>
			<psa10 value="0.106677948395813" flag="0"/>
			<psa30 value="0.0550333615625404" flag="0"/>
		</comp>
	</station>
	<station code="AST1" name="AST1" netid="HI" source="ITSAK Strong Motion Network" insttype="" lat="38.5416" lon="21.0895">
		<comp name="--.HNE" depth="0.0">
			<acc value="1.76423578986945" flag="0"/>
			<vel value="1.32441842850148" flag="0"/>
			<psa03 value="5.47186615094464" flag="0"/>
			<psa10 value="0.874390044049134" flag="0"/>
			<psa30 value="0.201700148311599" flag="0"/>
		</comp>
		<comp name="--.HNN" depth="0.0">
			<acc value="2.0003299108515" flag="0"/>
			<vel value="1.0205034620784" flag="0"/>
			<psa03 value="4.18692302976904" flag="0"/>
			<psa10 value="0.699270483237673" flag="0"/>
			<psa30 value="0.198919137416609" flag="0"/>
		</comp>
		<comp name="--.HNZ" depth="0.0">
			<acc value="1.45096878044602" flag="0"/>
			<vel value="1.21852844033887" flag="0"/>
			<psa03 value="3.47592226279097" flag="0"/>
			<psa10 value="0.798516937828213" flag="0"/>
			<psa30 value="0.165207624194306" flag="0"/>
		</comp>
	</station>
	<station code="CH01" name="CH01" netid="HI" source="ITSAK Strong Motion Network" insttype="" lat="35.517" lon="24.0208">
		<comp name="--.HNE" depth="0.0">
			<acc value="0.024621809404477" flag="0"/>
			<vel value="0.116814426657127" flag="0"/>
			<psa03 value="0.0416102521549927" flag="0"/>
			<psa10 value="0.0523483817433779" flag="0"/>
			<psa30 value="0.052662024611772" flag="0"/>
		</comp>
		<comp name="--.HNN" depth="0.0">
			<acc value="0.0222271923517758" flag="0"/>
			<vel value="0.120499494760282" flag="0"/>
			<psa03 value="0.0382993288652406" flag="0"/>
			<psa10 value="0.04176998183262" flag="0"/>
			<psa30 value="0.0284958639731111" flag="0"/>
		</comp>
		<comp name="--.HNZ" depth="0.0">
			<acc value="0.0158444387908058" flag="0"/>
			<vel value="0.0548439065660211" flag="0"/>
			<psa03 value="0.0196418287054213" flag="0"/>
			<psa10 value="0.0448303487653098" flag="0"/>
			<psa30 value="0.015860217402045" flag="0"/>
		</comp>
	</station>
	<station code="FLO2" name="FLO2" netid="HI" source="ITSAK Strong Motion Network" insttype="" lat="40.7801" lon="21.4052">
		<comp name="--.HNE" depth="0.0">
			<acc value="0.0469985703626442" flag="0"/>
			<vel value="0.119638726751045" flag="0"/>
			<psa03 value="0.121151338181575" flag="0"/>
			<psa10 value="0.0424416403003771" flag="0"/>
			<psa30 value="0.025954996057775" flag="0"/>
		</comp>
		<comp name="--.HNN" depth="0.0">
			<acc value="0.0382619877984726" flag="0"/>
			<vel value="0.0522097545895016" flag="0"/>
			<psa03 value="0.0843936375393045" flag="0"/>
			<psa10 value="0.0450562910081545" flag="0"/>
			<psa30 value="0.0164093803742501" flag="0"/>
		</comp>
		<comp name="--.HNZ" depth="0.0">
			<acc value="0.015854267749484" flag="0"/>
			<vel value="0.0353581642714028" flag="0"/>
			<psa03 value="0.0534824804518515" flag="0"/>
			<psa10 value="0.0359714604327149" flag="0"/>
			<psa30 value="0.0177537377646627" flag="0"/>
		</comp>
	</station>
	<station code="FRS1" name="FRS1" netid="HI" source="ITSAK Strong Motion Network" insttype="" lat="39.2934" lon="22.3844">
		<comp name="--.HNE" depth="0.0">
			<acc value="0.0707135322157582" flag="0"/>
			<vel value="0.159088156390137" flag="0"/>
			<psa03 value="0.114798000637476" flag="0"/>
			<psa10 value="0.135005988484162" flag="0"/>
			<psa30 value="0.0492837114706797" flag="0"/>
		</comp>
		<comp name="--.HNN" depth="0.0">
			<acc value="0.0680163609463535" flag="0"/>
			<vel value="0.175897173550135" flag="0"/>
			<psa03 value="0.142228349013435" flag="0"/>
			<psa10 value="0.120635223991542" flag="0"/>
			<psa30 value="0.0600919141277284" flag="0"/>
		</comp>
		<comp name="--.HNZ" depth="0.0">
			<acc value="0.0430360536888647" flag="0"/>
			<vel value="0.175340738085364" flag="0"/>
			<psa03 value="0.0832085798683831" flag="0"/>
			<psa10 value="0.0844391911820097" flag="0"/>
			<psa30 value="0.0518082620430986" flag="0"/>
		</comp>
	</station>
	<station code="GRE3" name="GRE3" netid="HI" source="ITSAK Strong Motion Network" insttype="" lat="40.08481" lon="21.43829">
		<comp name="--.HNE" depth="0.0">
			<acc value="0.0674013822099284" flag="0"/>
			<vel value="0.192375050099539" flag="0"/>
			<psa03 value="0.117924207733354" flag="0"/>
			<psa10 value="0.114737485795332" flag="0"/>
			<psa30 value="0.0752775667693553" flag="0"/>
		</comp>
		<comp name="--.HNN" depth="0.0">
			<acc value="0.0509028054331627" flag="0"/>
			<vel value="0.144605372657639" flag="0"/>
			<psa03 value="0.109773886564576" flag="0"/>
			<psa10 value="0.111756225801488" flag="0"/>
			<psa30 value="0.0491705839765384" flag="0"/>
		</comp>
		<comp name="--.HNZ" depth="0.0">
			<acc value="0.0351505333697072" flag="0"/>
			<vel value="0.111353333871425" flag="0"/>
			<psa03 value="0.0581513470330156" flag="0"/>
			<psa10 value="0.128328191112859" flag="0"/>
			<psa30 value="0.0436967613626543" flag="0"/>
		</comp>
	</station>
	<station code="GTH2" name="GTH2" netid="HI" source="ITSAK Strong Motion Network" insttype="" lat="36.7603" lon="22.5659">
		<comp name="--.HNE" depth="0.0">
			<acc value="0.0766036018957622" flag="0"/>
			<vel value="0.226807439942079" flag="0"/>
			<psa03 value="0.145230881249793" flag="0"/>
			<psa10 value="0.204504092392467" flag="0"/>
			<psa30 value="0.08794975957327" flag="0"/>
		</comp>
		<comp name="--.HNN" depth="0.0">
			<acc value="0.0794523457249818" flag="0"/>
			<vel value="0.308995247103693" flag="0"/>
