<?xml version="1.0" encoding="UTF-8" standalone="yes"?>
<!DOCTYPE earthquake SYSTEM "stationlist.dtd">
<stationlist created="" xmlns="ch.ethz.sed.shakemap.usgs.xml">
  <station code="SRN" name="SRN" netid="AC" source="INGV" insttype="" lat="39.88" lon="20.0005">
    <comp name="--.HHE">
      <acc value="0.0552016896" flag="0"/>
      <vel value="0.0947029512" flag="0"/>
      <psa03 value="0.1045401250" flag="0"/>
      <psa10 value="0.1310907239" flag="0"/>
      <psa30 value="0.0461605403" flag="0"/>
    </comp>
    <comp name="--.HHN">
      <acc value="0.0401572314" flag="0"/>
      <vel value="0.0704713944" flag="0"/>
      <psa03 value="0.0769253088" flag="0"/>
      <psa10 value="0.0523404268" flag="0"/>
      <psa30 value="0.0364376877" flag="0"/>
    </comp>
    <comp name="--.HHZ">
      <acc value="0.0389678004" flag="0"/>
      <vel value="0.0757064982" flag="0"/>
      <psa03 value="0.1157275792" flag="0"/>
      <psa10 value="0.0596032335" flag="0"/>
      <psa30 value="0.0346639562" flag="0"/>
    </comp>
  </station>
  <station code="KALE" name="KALE" netid="HA" source="NOA" insttype="120" lat="38.3911" lon="22.1398">
    <comp name="--.HHE">
      <acc value="0.1391091239" flag="0"/>
      <vel value="0.1989188441" flag="0"/>
      <psa03 value="0.3369769480" flag="0"/>
      <psa10 value="0.1624662313" flag="0"/>
      <psa30 value="0.0900855534" flag="0"/>
    </comp>
    <comp name="--.HHN">
      <acc value="0.1696530288" flag="0"/>
      <vel value="0.2440133868" flag="0"/>
      <psa03 value="0.3653035123" flag="0"/>
      <psa10 value="0.2583220823" flag="0"/>
      <psa30 value="0.0860093099" flag="0"/>
    </comp>
    <comp name="--.HHZ">
      <acc value="0.1079253920" flag="0"/>
      <vel value="0.1473608011" flag="0"/>
      <psa03 value="0.2634773944" flag="0"/>
      <psa10 value="0.1602145377" flag="0"/>
      <psa30 value="0.0619959549" flag="0"/>
    </comp>
  </station>
  <station code="LAKA" name="LAKA" netid="HA" source="NOA" insttype="120" lat="38.2401" lon="21.9785">
    <comp name="--.HHE">
      <acc value="0.1300457748" flag="0"/>
      <vel value="0.2300641179" flag="0"/>
      <psa03 value="0.4947677611" flag="0"/>
      <psa10 value="0.3656985550" flag="0"/>
      <psa30 value="0.1120988803" flag="0"/>
    </comp>
    <comp name="--.HHN">
      <acc value="0.1343880222" flag="0"/>
      <vel value="0.2995236002" flag="0"/>
      <psa03 value="0.4050236498" flag="0"/>
      <psa10 value="0.2240285472" flag="0"/>
      <psa30 value="0.1859433713" flag="0"/>
    </comp>
    <comp name="--.HHZ">
      <acc value="0.1040662082" flag="0"/>
      <vel value="0.2331990635" flag="0"/>
      <psa03 value="0.3471977846" flag="0"/>
      <psa10 value="0.2344762807" flag="0"/>
      <psa30 value="0.0638983487" flag="0"/>
    </comp>
  </station>
  <station code="KLMT" name="KLMT" netid="HC" source="NOA" insttype="120" lat="37.0613" lon="22.0597">
    <comp name="--.HHE">
      <acc value="0.5359811942" flag="0"/>
      <vel value="1.0747325112" flag="0"/>
      <psa03 value="1.1139122116" flag="0"/>
      <psa10 value="1.2700431482" flag="0"/>
      <psa30 value="0.5056933657" flag="0"/>
    </comp>
    <comp name="--.HHN">
      <acc value="0.5420711602" flag="0"/>
      <vel value="0.9993703438" flag="0"/>
      <psa03 value="1.4158901842" flag="0"/>
      <psa10 value="1.0614103416" flag="0"/>
      <psa30 value="0.3961022133" flag="0"/>
    </comp>
    <comp name="--.HHZ">
      <acc value="0.2101496712" flag="0"/>
      <vel value="0.4194375947" flag="0"/>
      <psa03 value="0.3782914912" flag="0"/>
      <psa10 value="0.6587730523" flag="0"/>
      <psa30 value="0.2110720665" flag="0"/>
    </comp>
  </station>
  <station code="DLFA" name="DLFA" netid="HL" source="NOA" insttype="CMG-5" lat="38.4784" lon="22.4958">
    <comp name="00.HNE">
      <acc value="0.0698666889" flag="0"/>
      <vel value="0.1143121270" flag="0"/>
      <psa03 value="0.1657761516" flag="0"/>
      <psa10 value="0.1315036345" flag="0"/>
      <psa30 value="0.0622144340" flag="0"/>
    </comp>
    <comp name="00.HNN">
      <acc value="0.1103410002" flag="0"/>
      <vel value="0.1554007183" flag="0"/>
      <psa03 value="0.1725563420" flag="0"/>
      <psa10 value="0.1722796810" flag="0"/>
      <psa30 value="0.0917175456" flag="0"/>
    </comp>
    <comp name="00.HNZ">
      <acc value="0.0517499766" flag="0"/>
      <vel value="0.1293611180" flag="0"/>
      <psa03 value="0.0966241294" flag="0"/>
      <psa10 value="0.1148999910" flag="0"/>
      <psa30 value="0.0780024172" flag="0"/>
    </comp>
  </station>
  <station code="EVR" name="EVR" netid="HL" source="NOA" insttype="DR24" lat="38.9166" lon="21.8105">
    <comp name="--.HHE">
      <acc value="0.1237384852" flag="0"/>
      <vel value="0.2415817361" flag="0"/>
      <psa03 value="0.3468585422" flag="0"/>
      <psa10 value="0.2276305827" flag="0"/>
      <psa30 value="0.0790328478" flag="0"/>
    </comp>
    <comp name="--.HHN">
      <acc value="0.1172868407" flag="0"/>
      <vel value="0.1645118249" flag="0"/>
      <psa03 value="0.3308071683" flag="0"/>
      <psa10 value="0.1685931821" flag="0"/>
      <psa30 value="0.0720015183" flag="0"/>
    </comp>
    <comp name="--.HHZ">
      <acc value="0.0909319024" flag="0"/>
      <vel value="0.2292360568" flag="0"/>
      <psa03 value="0.2408317470" flag="0"/>
      <psa10 value="0.1713949612" flag="0"/>
      <psa30 value="0.0839426190" flag="0"/>
    </comp>
  </station>
  <station code="ITM" name="ITM" netid="HL" source="NOA" insttype="STS2gen3_DR24" lat="37.1787" lon="21.9252">
    <comp name="--.HHE">
      <acc value="0.1232720058" flag="0"/>
      <vel value="0.2525864207" flag="0"/>
      <psa03 value="0.2237106860" flag="0"/>
      <psa10 value="0.1646985605" flag="0"/>
      <psa30 value="0.0976308689" flag="0"/>
    </comp>
    <comp name="--.HHN">
      <acc value="0.1051160816" flag="0"/>
      <vel value="0.1725425222" flag="0"/>
      <psa03 value="0.2873566631" flag="0"/>
      <psa10 value="0.2583339997" flag="0"/>
      <psa30 value="0.0904455157" flag="0"/>
    </comp>
    <comp name="--.HHZ">
      <acc value="0.0735677241" flag="0"/>
      <vel value="0.1680193542" flag="0"/>
      <psa03 value="0.1468263620" flag="0"/>
      <psa10 value="0.1364413464" flag="0"/>
      <psa30 value="0.0986326588" flag="0"/>
    </comp>
  </station>
  <station code="JAN" name="JAN" netid="HL" source="NOA" insttype="CMG3EPSC60_DR24" lat="39.6562" lon="20.8487">
    <comp name="--.HHE">
      <acc value="0.1822325261" flag="0"/>
      <vel value="0.2004659750" flag="0"/>
      <psa03 value="0.3499252012" flag="0"/>
      <psa10 value="0.2616246906" flag="0"/>
      <psa30 value="0.0654876488" flag="0"/>
    </comp>
    <comp name="--.HHN">
      <acc value="0.1317591136" flag="0"/>
      <vel value="0.1258907595" flag="0"/>
      <psa03 value="0.4072415962" flag="0"/>
      <psa10 value="0.1040113326" flag="0"/>
      <psa30 value="0.0438583148" flag="0"/>
    </comp>
    <comp name="--.HHZ">
      <acc value="0.0846238488" flag="0"/>
      <vel value="0.1099808404" flag="0"/>
      <psa03 value="0.1609528693" flag="0"/>
      <psa10 value="0.1342180417" flag="0"/>
      <psa30 value="0.0590741800" flag="0"/>
    </comp>
  </station>
  <station code="KASA" name="KASA" netid="HL" source="NOA" insttype="CMG-5" lat="39.7463" lon="19.9354">
    <comp name="00.HNE">
      <acc value="0.1133439250" flag="0"/>
      <vel value="0.1085771966" flag="0"/>
      <psa03 value="0.4403425021" flag="0"/>
      <psa10 value="0.1235737404" flag="0"/>
      <psa30 value="0.0520340914" flag="0"/>
    </comp>
    <comp name="00.HNN">
      <acc value="0.1348514225" flag="0"/>
      <vel value="0.1247918656" flag="0"/>
      <psa03 value="0.3115413660" flag="0"/>
      <psa10 value="0.1058420264" flag="0"/>
      <psa30 value="0.0474905285" flag="0"/>
    </comp>
    <comp name="00.HNZ">
      <acc value="0.1098985638" flag="0"/>
      <vel value="0.0676571941" flag="0"/>
      <psa03 value="0.2471927472" flag="0"/>
      <psa10 value="0.1167548687" flag="0"/>
      <psa30 value="0.0422109610" flag="0"/>
    </comp>
  </station>
  <station code="KLV" name="KLV" netid="HL" source="NOA" insttype="120" lat="38.0435" lon="22.1504">
    <comp name="--.HHE">
      <acc value="0.0953666450" flag="0"/>
      <vel value="0.1758857308" flag="0"/>
      <psa03 value="0.2399694497" flag="0"/>
      <psa10 value="0.2436249456" flag="0"/>
      <psa30 value="0.0918911462" flag="0"/>
    </comp>
    <comp name="--.HHN">
      <acc value="0.1039278486" flag="0"/>
      <vel value="0.2214356230" flag="0"/>
      <psa03 value="0.2512613785" flag="0"/>
      <psa10 value="0.3796214396" flag="0"/>
      <psa30 value="0.0962161290" flag="0"/>
    </comp>
    <comp name="--.HHZ">
      <acc value="0.1084192096" flag="0"/>
      <vel value="0.2043033470" flag="0"/>
      <psa03 value="0.2069283271" flag="0"/>
      <psa10 value="0.1681550267" flag="0"/>
      <psa30 value="0.1079599025" flag="0"/>
    </comp>
  </station>
  <station code="MGNA" name="MGNA" netid="HL" source="NOA" insttype="CMG-5" lat="38.6561" lon="20.7912">
    <comp name="00.HNE">
      <acc value="1.9770326148" flag="0"/>
      <vel value="0.6899485591" flag="0"/>
      <psa03 value="4.0066456147" flag="0"/>
      <psa10 value="0.7502388562" flag="0"/>
      <psa30 value="0.1367213374" flag="0"/>
    </comp>
    <comp name="00.HNN">
      <acc value="1.8533467497" flag="0"/>
      <vel value="0.5994156400" flag="0"/>
      <psa03 value="2.8087190345" flag="0"/>
      <psa10 value="0.4864780416" flag="0"/>
      <psa30 value="0.2029798723" flag="0"/>
    </comp>
    <comp name="00.HNZ">
      <acc value="1.3233366750" flag="0"/>
      <vel value="0.5716294145" flag="0"/>
      <psa03 value="1.8108701952" flag="0"/>
      <psa10 value="0.7370012200" flag="0"/>
      <psa30 value="0.1568471539" flag="0"/>
    </comp>
  </station>
  <station code="RLS" name="RLS" netid="HL" source="NOA" insttype="LE3D20_DR24" lat="38.0559" lon="21.4647">
    <comp name="--.HHE">
      <acc value="0.2897826897" flag="0"/>
      <vel value="0.4145048901" flag="0"/>
      <psa03 value="0.6760178262" flag="0"/>
      <psa10 value="0.5926572496" flag="0"/>
      <psa30 value="0.1382304748" flag="0"/>
    </comp>
    <comp name="--.HHN">
      <acc value="0.3472037086" flag="0"/>
      <vel value="0.7269908940" flag="0"/>
      <psa03 value="0.9163589370" flag="0"/>
      <psa10 value="0.4240660469" flag="0"/>
      <psa30 value="0.2446337879" flag="0"/>
    </comp>
    <comp name="--.HHZ">
      <acc value="0.1502581223" flag="0"/>
      <vel value="0.4159211289" flag="0"/>
      <psa03 value="0.4807250409" flag="0"/>
      <psa10 value="0.2029305848" flag="0"/>
      <psa30 value="0.1405519922" flag="0"/>
    </comp>
  </station>
  <station code="THL" name="THL" netid="HL" source="NOA" insttype="120" lat="39.5647" lon="22.0144">
    <comp name="--.HHE">
      <acc value="0.0830610618" flag="0"/>
      <vel value="0.1290748517" flag="0"/>
      <psa03 value="0.1684056890" flag="0"/>
      <psa10 value="0.1879583611" flag="0"/>
      <psa30 value="0.0451732579" flag="0"/>
    </comp>
    <comp name="--.HHN">
      <acc value="0.0760193884" flag="0"/>
      <vel value="0.1297701450" flag="0"/>
      <psa03 value="0.1111326116" flag="0"/>
      <psa10 value="0.1288482974" flag="0"/>
      <psa30 value="0.0492692095" flag="0"/>
    </comp>
    <comp name="--.HHZ">
      <acc value="0.0434206559" flag="0"/>
      <vel value="0.0902384849" flag="0"/>
      <psa03 value="0.1040638679" flag="0"/>
      <psa10 value="0.0860161673" flag="0"/>
      <psa30 value="0.0505413857" flag="0"/>
    </comp>
  </station>
  <station code="VLMS" name="VLMS" netid="HL" source="NOA" insttype="120" lat="37.8767" lon="20.6629">
    <comp name="--.HHE">
      <acc value="10.2243460151" flag="0"/>
      <vel value="0.9377254824" flag="0"/>
      <psa03 value="7.0519015431" flag="0"/>
      <psa10 value="1.4333294741" flag="0"/>
      <psa30 value="0.4423701060" flag="0"/>
    </comp>
    <comp name="--.HHN">
      <acc value="9.4312779477" flag="0"/>
      <vel value="1.0982911811" flag="0"/>
      <psa03 value="6.8593940502" flag="0"/>
      <psa10 value="1.3895197543" flag="0"/>
      <psa30 value="1.0680380906" flag="0"/>
    </comp>
    <comp name="--.HHZ">
      <acc value="1.4965399198" flag="0"/>
      <vel value="0.8730685862" flag="0"/>
      <psa03 value="1.9113638338" flag="0"/>
      <psa10 value="0.7693737627" flag="0"/>
      <psa30 value="0.7386903878" flag="0"/>
    </comp>
  </station>
  <station code="VLS" name="VLS" netid="HL" source="NOA" insttype="120P," lat="38.1768" lon="20.5886">
    <comp name="--.HHE">
      <acc value="3.5335069354" flag="0"/>
      <vel value="1.4736220055" flag="0"/>
      <psa03 value="3.2127451478" flag="0"/>
      <psa10 value="1.4728221561" flag="0"/>
      <psa30 value="0.4483557567" flag="0"/>
    </comp>
    <comp name="--.HHN">
      <acc value="3.6595604111" flag="0"/>
      <vel value="1.5043883692" flag="0"/>
      <psa03 value="4.3521549717" flag="0"/>
      <psa10 value="1.3150279558" flag="0"/>
      <psa30 value="0.4203837779" flag="0"/>
    </comp>
    <comp name="--.HHZ">
      <acc value="3.4194998478" flag="0"/>
      <vel value="0.8507564323" flag="0"/>
      <psa03 value="1.8300251435" flag="0"/>
      <psa10 value="1.0543974382" flag="0"/>
      <psa30 value="0.2349314013" flag="0"/>
    </comp>
  </station>
  <station code="DRO" name="DRO" netid="HP" source="NOA" insttype="120P," lat="37.952" lon="21.71">
    <comp name="--.HHE">
      <acc value="0.6051597453" flag="0"/>
      <vel value="0.6032358501" flag="0"/>
      <psa03 value="2.0755078504" flag="0"/>
      <psa10 value="0.8092285852" flag="0"/>
      <psa30 value="0.1252474661" flag="0"/>
    </comp>
    <comp name="--.HHN">
      <acc value="0.5524724409" flag="0"/>
      <vel value="0.7724319531" flag="0"/>
      <psa03 value="1.8058555106" flag="0"/>
      <psa10 value="0.7400143747" flag="0"/>
      <psa30 value="0.1296900761" flag="0"/>
    </comp>
    <comp name="--.HHZ">
      <acc value="0.2119711977" flag="0"/>
      <vel value="0.3611298435" flag="0"/>
      <psa03 value="0.5850699870" flag="0"/>
      <psa10 value="0.3184837798" flag="0"/>
      <psa30 value="0.1025899337" flag="0"/>
    </comp>
  </station>
  <station code="PDO" name="PDO" netid="HP" source="NOA" insttype="360" lat="38.5986" lon="21.1833">
    <comp name="--.HHE">
      <acc value="0.7525744181" flag="0"/>
      <vel value="0.6764920311" flag="0"/>
      <psa03 value="1.9002209826" flag="0"/>
      <psa10 value="0.5652125101" flag="0"/>
      <psa30 value="0.1227996942" flag="0"/>
    </comp>
    <comp name="--.HHN">
      <acc value="0.8813243223" flag="0"/>
      <vel value="0.6215689240" flag="0"/>
      <psa03 value="3.7140895546" flag="0"/>
      <psa10 value="0.6460242152" flag="0"/>
      <psa30 value="0.1240104803" flag="0"/>
    </comp>
    <comp name="--.HHZ">
      <acc value="0.4354499992" flag="0"/>
      <vel value="0.3275058992" flag="0"/>
      <psa03 value="0.9789904996" flag="0"/>
      <psa10 value="0.2545153826" flag="0"/>
      <psa30 value="0.1095911933" flag="0"/>
    </comp>
  </station>
  <station code="PVO" name="PVO" netid="HP" source="NOA" insttype="120P," lat="38.616" lon="21.525">
    <comp name="--.HHE">
      <acc value="0.6280620774" flag="0"/>
      <vel value="0.5375206661" flag="0"/>
      <psa03 value="1.6519597447" flag="0"/>
      <psa10 value="0.7712821764" flag="0"/>
      <psa30 value="0.1307544055" flag="0"/>
    </comp>
    <comp name="--.HHN">
      <acc value="0.7085340992" flag="0"/>
      <vel value="0.5154616682" flag="0"/>
      <psa03 value="1.7691257823" flag="0"/>
      <psa10 value="0.8457292202" flag="0"/>
      <psa30 value="0.1615718644" flag="0"/>
    </comp>
    <comp name="--.HHZ">
      <acc value="0.3291053713" flag="0"/>
      <vel value="0.3778936297" flag="0"/>
      <psa03 value="0.7023265482" flag="0"/>
      <psa10 value="0.3459800714" flag="0"/>
      <psa30 value="0.2014592609" flag="0"/>
    </comp>
  </station>
  <station code="SERG" name="SERG" netid="HP" source="NOA" insttype="120" lat="38.4133" lon="22.0566">
    <comp name="--.HHE">
      <acc value="0.2954378260" flag="0"/>
      <vel value="0.1966211183" flag="0"/>
      <psa03 value="0.7509167225" flag="0"/>
      <psa10 value="0.2632761945" flag="0"/>
      <psa30 value="0.0889705500" flag="0"/>
    </comp>
    <comp name="--.HHN">
      <acc value="0.2550893867" flag="0"/>
      <vel value="0.1755134200" flag="0"/>
      <psa03 value="0.8400328475" flag="0"/>
      <psa10 value="0.1571651814" flag="0"/>
      <psa30 value="0.0896002983" flag="0"/>
    </comp>
  </station>
  <station code="VLX" name="VLX" netid="HP" source="NOA" insttype="40," lat="37.3703" lon="22.3793">
    <comp name="--.HHE">
      <acc value="0.1134092202" flag="0"/>
      <vel value="0.2316395559" flag="0"/>
      <psa03 value="0.2147513198" flag="0"/>
      <psa10 value="0.3004345237" flag="0"/>
      <psa30 value="0.0985805276" flag="0"/>
    </comp>
    <comp name="--.HHN">
      <acc value="0.1250163787" flag="0"/>
      <vel value="0.2486596679" flag="0"/>
      <psa03 value="0.1527706989" flag="0"/>
      <psa10 value="0.2977872907" flag="0"/>
      <psa30 value="0.0758376470" flag="0"/>
    </comp>
    <comp name="--.HHZ">
      <acc value="0.0761936207" flag="0"/>
      <vel value="0.1838796630" flag="0"/>
      <psa03 value="0.1358674539" flag="0"/>
      <psa10 value="0.1842514376" flag="0"/>
      <psa30 value="0.0940453630" flag="0"/>
    </comp>
  </station>
  <station code="AGG" name="AGG" netid="HT" source="GFZ" insttype="CMG-3ESP/90" lat="39.0211" lon="22.336">
    <comp name="--.HHE">
      <acc value="0.1161280951" flag="0"/>
      <vel value="0.2197244168" flag="0"/>
      <psa03 value="0.3038231457" flag="0"/>
      <psa10 value="0.2490108234" flag="0"/>
      <psa30 value="0.0938767972" flag="0"/>
    </comp>
    <comp name="--.HHN">
      <acc value="0.1339433225" flag="0"/>
      <vel value="0.1612036356" flag="0"/>
      <psa03 value="0.3056255271" flag="0"/>
      <psa10 value="0.1616037805" flag="0"/>
      <psa30 value="0.0873103325" flag="0"/>
    </comp>
    <comp name="--.HHZ">
      <acc value="0.0706123153" flag="0"/>
      <vel value="0.1172547197" flag="0"/>
      <psa03 value="0.1519985441" flag="0"/>
      <psa10 value="0.1196188553" flag="0"/>
      <psa30 value="0.0582796906" flag="0"/>
    </comp>
  </station>
  <station code="LKD2" name="LKD2" netid="HT" source="GFZ" insttype="CMG-3ESP/90" lat="38.7889" lon="20.6578">
    <comp name="--.HHE">
      <acc value="0.5018803690" flag="0"/>
      <vel value="0.5831407121" flag="0"/>
      <psa03 value="1.3210785106" flag="0"/>
      <psa10 value="0.6282747965" flag="0"/>
      <psa30 value="0.1341184411" flag="0"/>
    </comp>
    <comp name="--.HHN">
      <acc value="0.5085865973" flag="0"/>
      <vel value="0.6238052231" flag="0"/>
      <psa03 value="1.0780034892" flag="0"/>
      <psa10 value="0.7652129475" flag="0"/>
      <psa30 value="0.2579886260" flag="0"/>
    </comp>
    <comp name="--.HHZ">
      <acc value="0.3967441848" flag="0"/>
      <vel value="0.3854107275" flag="0"/>
      <psa03 value="0.7093378010" flag="0"/>
      <psa10 value="0.4873651283" flag="0"/>
      <psa30 value="0.1930272543" flag="0"/>
    </comp>
  </station>
</stationlist>
