<?xml version="1.0" encoding="UTF-8" standalone="yes"?>
<!DOCTYPE earthquake SYSTEM "stationlist.dtd">
<stationlist created="" xmlns="ch.ethz.sed.shakemap.usgs.xml">
  <station code="DRA2" name="DRA2" netid="HI" insttype="CMG-5TD,ACCELEROMETER,GURALP" lat="41.1593" lon="24.1485">
    <comp name="--.HNN">
      <acc value="0.1230799269" flag="0"/>
      <vel value="0.0384089327" flag="0"/>
      <psa03 value="0.2546447303" flag="0"/>
      <psa10 value="0.0180436891" flag="0"/>
      <psa30 value="0.0028332088" flag="0"/>
    </comp>
    <comp name="--.HNE">
      <acc value="0.1119728678" flag="0"/>
      <vel value="0.0375960613" flag="0"/>
      <psa03 value="0.3077974770" flag="0"/>
      <psa10 value="0.0170975796" flag="0"/>
      <psa30 value="0.0027109523" flag="0"/>
    </comp>
    <comp name="--.HNZ">
      <acc value="0.0752293562" flag="0"/>
      <vel value="0.0192226442" flag="0"/>
      <psa03 value="0.0771390648" flag="0"/>
      <psa10 value="0.0121143755" flag="0"/>
      <psa30 value="0.0016127735" flag="0"/>
    </comp>
  </station>
  <station code="PLN1" name="PLN1" netid="HI" insttype="CMG-5TD,ACCELEROMETER,GURALP" lat="39.998" lon="23.575">
    <comp name="--.HNE">
      <acc value="0.1705408046" flag="0"/>
      <vel value="0.1250839038" flag="0"/>
      <psa03 value="0.3713837734" flag="0"/>
      <psa10 value="0.1071876519" flag="0"/>
      <psa30 value="0.0271442255" flag="0"/>
    </comp>
    <comp name="--.HNZ">
      <acc value="0.2285986776" flag="0"/>
      <vel value="0.0651563947" flag="0"/>
      <psa03 value="0.2648465556" flag="0"/>
      <psa10 value="0.0672732799" flag="0"/>
      <psa30 value="0.0109076921" flag="0"/>
    </comp>
    <comp name="--.HNN">
      <acc value="0.2317234818" flag="0"/>
      <vel value="0.1483926695" flag="0"/>
      <psa03 value="0.7710712498" flag="0"/>
      <psa10 value="0.1602223289" flag="0"/>
      <psa30 value="0.0287215167" flag="0"/>
    </comp>
  </station>
  <station code="EFSA" name="EFSA" netid="HL" insttype="CMG-5" lat="39.5401" lon="24.9886">
    <comp name="00.HNN">
      <acc value="0.1297146915" flag="0"/>
      <vel value="0.0910194370" flag="0"/>
      <psa03 value="0.2725170248" flag="0"/>
      <psa10 value="0.0788747469" flag="0"/>
      <psa30 value="0.0124924335" flag="0"/>
    </comp>
    <comp name="00.HNE">
      <acc value="0.2040218289" flag="0"/>
      <vel value="0.2360676210" flag="0"/>
      <psa03 value="0.4951896419" flag="0"/>
      <psa10 value="0.2186504826" flag="0"/>
      <psa30 value="0.0290700522" flag="0"/>
    </comp>
    <comp name="00.HNZ">
      <acc value="0.1226708399" flag="0"/>
      <vel value="0.0694434962" flag="0"/>
      <psa03 value="0.3104871911" flag="0"/>
      <psa10 value="0.0789322369" flag="0"/>
      <psa30 value="0.0050237428" flag="0"/>
    </comp>
  </station>
  <station code="LIA" name="LIA" netid="HL" insttype="GMG5TD" lat="39.8972" lon="25.1806">
    <comp name="00.HNZ">
      <acc value="0.1034202797" flag="0"/>
      <vel value="0.0774926059" flag="0"/>
      <psa03 value="0.1793463775" flag="0"/>
      <psa10 value="0.0856836731" flag="0"/>
      <psa30 value="0.0095869521" flag="0"/>
    </comp>
    <comp name="00.HNN">
      <acc value="0.1546412009" flag="0"/>
      <vel value="0.0812758384" flag="0"/>
      <psa03 value="0.3776009854" flag="0"/>
      <psa10 value="0.0834226615" flag="0"/>
      <psa30 value="0.0126467221" flag="0"/>
    </comp>
    <comp name="00.HNE">
      <acc value="0.1386412030" flag="0"/>
      <vel value="0.1030629127" flag="0"/>
      <psa03 value="0.3188185467" flag="0"/>
      <psa10 value="0.0614360676" flag="0"/>
      <psa30 value="0.0053882652" flag="0"/>
    </comp>
  </station>
  <station code="NEO" name="NEO" netid="HL" insttype="120" lat="39.3057" lon="23.2219">
    <comp name="--.HHE">
      <acc value="0.0271411372" flag="0"/>
      <vel value="0.0193677277" flag="0"/>
      <psa03 value="0.0470573683" flag="0"/>
      <psa10 value="0.0223979292" flag="0"/>
      <psa30 value="0.0052546882" flag="0"/>
    </comp>
    <comp name="--.HHZ">
      <acc value="0.0176232652" flag="0"/>
      <vel value="0.0129876195" flag="0"/>
      <psa03 value="0.0422540927" flag="0"/>
      <psa10 value="0.0161249817" flag="0"/>
      <psa30 value="0.0027202774" flag="0"/>
    </comp>
    <comp name="--.HHN">
      <acc value="0.0287131910" flag="0"/>
      <vel value="0.0225626821" flag="0"/>
      <psa03 value="0.0706105566" flag="0"/>
      <psa10 value="0.0251264579" flag="0"/>
      <psa30 value="0.0045269184" flag="0"/>
    </comp>
  </station>
  <station code="PLG" name="PLG" netid="HL" insttype="120" lat="40.3733" lon="23.4444">
    <comp name="--.HHE">
      <acc value="0.2541437830" flag="0"/>
      <vel value="0.0554533869" flag="0"/>
      <psa03 value="0.2816895271" flag="0"/>
      <psa10 value="0.0268995734" flag="0"/>
      <psa30 value="0.0037269351" flag="0"/>
    </comp>
    <comp name="--.HHZ">
      <acc value="0.1614149607" flag="0"/>
      <vel value="0.0380176481" flag="0"/>
      <psa03 value="0.1889212229" flag="0"/>
      <psa10 value="0.0181065810" flag="0"/>
      <psa30 value="0.0026394149" flag="0"/>
    </comp>
    <comp name="--.HHN">
      <acc value="0.1797220864" flag="0"/>
      <vel value="0.0543941868" flag="0"/>
      <psa03 value="0.3219282606" flag="0"/>
      <psa10 value="0.0458876317" flag="0"/>
      <psa30 value="0.0067002478" flag="0"/>
    </comp>
  </station>
  <station code="PRAS" name="PRAS" netid="HL" insttype="120" lat="41.3524" lon="24.55">
    <comp name="--.HHZ">
      <acc value="0.0404223337" flag="0"/>
      <vel value="0.0200834396" flag="0"/>
      <psa03 value="0.0642952503" flag="0"/>
      <psa10 value="0.0205737877" flag="0"/>
      <psa30 value="0.0047824809" flag="0"/>
    </comp>
    <comp name="--.HHN">
      <acc value="0.0629243180" flag="0"/>
      <vel value="0.0335882008" flag="0"/>
      <psa03 value="0.1476949330" flag="0"/>
      <psa10 value="0.0181120628" flag="0"/>
      <psa30 value="0.0047476347" flag="0"/>
    </comp>
    <comp name="--.HHE">
      <acc value="0.0511979480" flag="0"/>
      <vel value="0.0221307317" flag="0"/>
      <psa03 value="0.0594536946" flag="0"/>
      <psa10 value="0.0130488810" flag="0"/>
      <psa30 value="0.0039486597" flag="0"/>
    </comp>
  </station>
  <station code="HORT" name="HORT" netid="HT" insttype="100" lat="40.5978" lon="23.0996">
    <comp name="--.HHE">
      <acc value="0.0939194721" flag="0"/>
      <vel value="0.0198783515" flag="0"/>
      <psa03 value="0.0531562174" flag="0"/>
      <psa10 value="0.0080753967" flag="0"/>
      <psa30 value="0.0023192970" flag="0"/>
    </comp>
    <comp name="--.HHZ">
      <acc value="0.0782311599" flag="0"/>
      <vel value="0.0125137685" flag="0"/>
      <psa03 value="0.0268740938" flag="0"/>
      <psa10 value="0.0126188721" flag="0"/>
      <psa30 value="0.0024922456" flag="0"/>
    </comp>
    <comp name="--.HHN">
      <acc value="0.0000112986" flag="0"/>
      <vel value="0.0000021297" flag="0"/>
      <psa03 value="0.0000069517" flag="0"/>
      <psa10 value="0.0000020028" flag="0"/>
      <psa30 value="0.0000005099" flag="0"/>
    </comp>
  </station>
  <station code="KAVA" name="KAVA" netid="HT" insttype="Compact," lat="40.9967" lon="24.5137">
    <comp name="--.HHN">
      <acc value="0.3582314431" flag="0"/>
      <vel value="0.0841557221" flag="0"/>
      <psa03 value="0.3572957534" flag="0"/>
      <psa10 value="0.0471624799" flag="0"/>
      <psa30 value="0.0091780494" flag="0"/>
    </comp>
    <comp name="--.HHZ">
      <acc value="0.2827097417" flag="0"/>
      <vel value="0.0601138483" flag="0"/>
      <psa03 value="0.2235141564" flag="0"/>
      <psa10 value="0.0878719212" flag="0"/>
      <psa30 value="0.0099885912" flag="0"/>
    </comp>
    <comp name="--.HHE">
      <acc value="0.4140224236" flag="0"/>
      <vel value="0.1095207888" flag="0"/>
      <psa03 value="0.2609128829" flag="0"/>
      <psa10 value="0.1255159713" flag="0"/>
      <psa30 value="0.0111124547" flag="0"/>
    </comp>
  </station>
  <station code="KNT" name="KNT" netid="HT" insttype="100" lat="41.162" lon="22.898">
    <comp name="--.HHE">
      <acc value="0.1002689925" flag="0"/>
      <vel value="0.0327328110" flag="0"/>
      <psa03 value="0.1320147730" flag="0"/>
      <psa10 value="0.0223934151" flag="0"/>
      <psa30 value="0.0100013640" flag="0"/>
    </comp>
    <comp name="--.HHN">
      <acc value="0.1000644299" flag="0"/>
      <vel value="0.0379772011" flag="0"/>
      <psa03 value="0.2112241010" flag="0"/>
      <psa10 value="0.0204156766" flag="0"/>
      <psa30 value="0.0046609235" flag="0"/>
    </comp>
    <comp name="--.HHZ">
      <acc value="0.0774163633" flag="0"/>
      <vel value="0.0200144215" flag="0"/>
      <psa03 value="0.1533430784" flag="0"/>
      <psa10 value="0.0165969583" flag="0"/>
      <psa30 value="0.0042626525" flag="0"/>
    </comp>
  </station>
  <station code="OUR" name="OUR" netid="HT" insttype="100" lat="40.3325" lon="23.9791">
    <comp name="--.HHE">
      <acc value="1.9110702589" flag="0"/>
      <vel value="0.3765383943" flag="0"/>
      <psa03 value="1.0987907195" flag="0"/>
      <psa10 value="0.2074424039" flag="0"/>
      <psa30 value="0.0232866432" flag="0"/>
    </comp>
    <comp name="--.HHN">
      <acc value="1.7963208837" flag="0"/>
      <vel value="0.5515635712" flag="0"/>
      <psa03 value="1.7131899615" flag="0"/>
      <psa10 value="0.3521390093" flag="0"/>
      <psa30 value="0.0489142864" flag="0"/>
    </comp>
    <comp name="--.HHZ">
      <acc value="1.3552484662" flag="0"/>
      <vel value="0.2255791504" flag="0"/>
      <psa03 value="0.6862154687" flag="0"/>
      <psa10 value="0.1223422017" flag="0"/>
      <psa30 value="0.0123941877" flag="0"/>
    </comp>
  </station>
  <station code="PAIG" name="PAIG" netid="HT" insttype="100" lat="39.9363" lon="23.6768">
    <comp name="--.HHE">
      <acc value="0.2493896923" flag="0"/>
      <vel value="0.0683459290" flag="0"/>
      <psa03 value="0.4178813281" flag="0"/>
      <psa10 value="0.0664633551" flag="0"/>
      <psa30 value="0.0106098447" flag="0"/>
    </comp>
    <comp name="--.HHN">
      <acc value="0.2157726614" flag="0"/>
      <vel value="0.0753191651" flag="0"/>
      <psa03 value="0.4862859846" flag="0"/>
      <psa10 value="0.0541411602" flag="0"/>
      <psa30 value="0.0093577458" flag="0"/>
    </comp>
    <comp name="--.HHZ">
      <acc value="0.1518906160" flag="0"/>
      <vel value="0.0393848741" flag="0"/>
      <psa03 value="0.1950891872" flag="0"/>
      <psa10 value="0.0411836759" flag="0"/>
      <psa30 value="0.0106467508" flag="0"/>
    </comp>
  </station>
  <station code="SOH" name="SOH" netid="HT" insttype="120P," lat="40.8217" lon="23.3539">
    <comp name="--.HHN">
      <acc value="0.0651550787" flag="0"/>
      <vel value="0.0415283351" flag="0"/>
      <psa03 value="0.2212498737" flag="0"/>
      <psa10 value="0.0304476893" flag="0"/>
      <psa30 value="0.0082172361" flag="0"/>
    </comp>
    <comp name="--.HHE">
      <acc value="0.1005491413" flag="0"/>
      <vel value="0.0336462308" flag="0"/>
      <psa03 value="0.1889571118" flag="0"/>
      <psa10 value="0.0522159443" flag="0"/>
      <psa30 value="0.0038363877" flag="0"/>
    </comp>
    <comp name="--.HHZ">
      <acc value="0.0614435742" flag="0"/>
      <vel value="0.0247928163" flag="0"/>
      <psa03 value="0.1397398409" flag="0"/>
      <psa10 value="0.0280124176" flag="0"/>
      <psa30 value="0.0028926860" flag="0"/>
    </comp>
  </station>
  <station code="SRS" name="SRS" netid="HT" insttype="100" lat="41.1087" lon="23.595">
    <comp name="--.HHN">
      <acc value="0.0641637574" flag="0"/>
      <vel value="0.0153377744" flag="0"/>
      <psa03 value="0.0514715315" flag="0"/>
      <psa10 value="0.0078729427" flag="0"/>
      <psa30 value="0.0024239769" flag="0"/>
    </comp>
    <comp name="--.HHE">
      <acc value="0.0716011672" flag="0"/>
      <vel value="0.0169847477" flag="0"/>
      <psa03 value="0.0573726002" flag="0"/>
      <psa10 value="0.0088711365" flag="0"/>
      <psa30 value="0.0046456126" flag="0"/>
    </comp>
    <comp name="--.HHZ">
      <acc value="0.0379339540" flag="0"/>
      <vel value="0.0106225593" flag="0"/>
      <psa03 value="0.0354214357" flag="0"/>
      <psa10 value="0.0091332782" flag="0"/>
      <psa30 value="0.0015841160" flag="0"/>
    </comp>
  </station>
  <station code="THAS" name="THAS" netid="HT" insttype="100" lat="40.6064" lon="24.7194">
    <comp name="--.HHE">
      <acc value="0.6533536818" flag="0"/>
      <vel value="0.2102835719" flag="0"/>
      <psa03 value="1.1730639471" flag="0"/>
      <psa10 value="0.0926657518" flag="0"/>
      <psa30 value="0.0132843001" flag="0"/>
    </comp>
    <comp name="--.HHZ">
      <acc value="0.5651317448" flag="0"/>
      <vel value="0.1346281040" flag="0"/>
      <psa03 value="0.7982621598" flag="0"/>
      <psa10 value="0.0460765362" flag="0"/>
      <psa30 value="0.0063508779" flag="0"/>
    </comp>
    <comp name="--.HHN">
      <acc value="1.0032784237" flag="0"/>
      <vel value="0.3541722317" flag="0"/>
      <psa03 value="1.5038991990" flag="0"/>
      <psa10 value="0.0647854256" flag="0"/>
      <psa30 value="0.0108219495" flag="0"/>
    </comp>
  </station>
  <station code="THE" name="THE" netid="HT" insttype="30s-100Hz," lat="40.6319" lon="22.9628">
    <comp name="--.HHE">
      <acc value="0.0220183594" flag="0"/>
      <vel value="0.0072097779" flag="0"/>
      <psa03 value="0.0213558458" flag="0"/>
      <psa10 value="0.0084601259" flag="0"/>
      <psa30 value="0.0013005340" flag="0"/>
    </comp>
    <comp name="--.HHN">
      <acc value="0.0346493260" flag="0"/>
      <vel value="0.0104557149" flag="0"/>
      <psa03 value="0.0191488320" flag="0"/>
      <psa10 value="0.0098030579" flag="0"/>
      <psa30 value="0.0018868093" flag="0"/>
    </comp>
    <comp name="--.HHZ">
      <acc value="0.0154912228" flag="0"/>
      <vel value="0.0074710509" flag="0"/>
      <psa03 value="0.0217996148" flag="0"/>
      <psa10 value="0.0101738112" flag="0"/>
      <psa30 value="0.0012822601" flag="0"/>
    </comp>
  </station>
  <station code="XOR" name="XOR" netid="HT" insttype="Compact," lat="39.366" lon="23.1918">
    <comp name="--.HHE">
      <acc value="0.0371042486" flag="0"/>
      <vel value="0.0269880504" flag="0"/>
      <psa03 value="0.0759585032" flag="0"/>
      <psa10 value="0.0129363078" flag="0"/>
      <psa30 value="0.0038373761" flag="0"/>
    </comp>
    <comp name="--.HHN">
      <acc value="0.0541897464" flag="0"/>
      <vel value="0.0504468038" flag="0"/>
      <psa03 value="0.0971484681" flag="0"/>
      <psa10 value="0.0450680539" flag="0"/>
      <psa30 value="0.0050230925" flag="0"/>
    </comp>
    <comp name="--.HHZ">
      <acc value="0.0269696779" flag="0"/>
      <vel value="0.0241038828" flag="0"/>
      <psa03 value="0.0601598114" flag="0"/>
      <psa10 value="0.0130578798" flag="0"/>
      <psa30 value="0.0030706823" flag="0"/>
    </comp>
  </station>
  <station code="GADA" name="GADA" netid="KO" insttype="CMG-3T" lat="40.1908" lon="25.8987">
    <comp name="--.HHN">
      <acc value="0.0259303706" flag="0"/>
      <vel value="0.0285724683" flag="0"/>
      <psa03 value="0.0464757586" flag="0"/>
      <psa10 value="0.0172664889" flag="0"/>
      <psa30 value="0.0018995796" flag="0"/>
    </comp>
    <comp name="--.HHE">
      <acc value="0.0174963440" flag="0"/>
      <vel value="0.0158407497" flag="0"/>
      <psa03 value="0.0370607088" flag="0"/>
      <psa10 value="0.0232184739" flag="0"/>
      <psa30 value="0.0023831704" flag="0"/>
    </comp>
    <comp name="--.HHZ">
      <acc value="0.0130088706" flag="0"/>
      <vel value="0.0127106516" flag="0"/>
      <psa03 value="0.0326641842" flag="0"/>
      <psa10 value="0.0216208387" flag="0"/>
      <psa30 value="0.0018007602" flag="0"/>
    </comp>
  </station>
</stationlist>
