<?xml version="1.0" encoding="UTF-8" standalone="yes"?>
<!DOCTYPE earthquake SYSTEM "stationlist.dtd">
<stationlist created="" xmlns="ch.ethz.sed.shakemap.usgs.xml">
  <station code="DRA2" name="DRA2" netid="HI" insttype="CMG-5TD,ACCELEROMETER,GURALP" lat="41.1593" lon="24.1485">
    <comp name="--.HNE">
      <acc value="0.1119728678" flag="0"/>
      <vel value="0.0375960615" flag="0"/>
      <psa03 value="0.3077974770" flag="0"/>
      <psa10 value="0.0170975797" flag="0"/>
      <psa30 value="0.0027109386" flag="0"/>
    </comp>
    <comp name="--.HNZ">
      <acc value="0.0752293559" flag="0"/>
      <vel value="0.0192226441" flag="0"/>
      <psa03 value="0.0771390648" flag="0"/>
      <psa10 value="0.0121143753" flag="0"/>
      <psa30 value="0.0016129201" flag="0"/>
    </comp>
    <comp name="--.HNN">
      <acc value="0.1230799273" flag="0"/>
      <vel value="0.0384089327" flag="0"/>
      <psa03 value="0.2546447303" flag="0"/>
      <psa10 value="0.0180436892" flag="0"/>
      <psa30 value="0.0028332773" flag="0"/>
    </comp>
  </station>
  <station code="PLN1" name="PLN1" netid="HI" insttype="CMG-5TD,ACCELEROMETER,GURALP" lat="39.998" lon="23.575">
    <comp name="--.HNE">
      <acc value="0.1705408063" flag="0"/>
      <vel value="0.1250839035" flag="0"/>
      <psa03 value="0.3713837734" flag="0"/>
      <psa10 value="0.1071876497" flag="0"/>
      <psa30 value="0.0271442891" flag="0"/>
    </comp>
    <comp name="--.HNN">
      <acc value="0.2317234810" flag="0"/>
      <vel value="0.1483926713" flag="0"/>
      <psa03 value="0.7710712498" flag="0"/>
      <psa10 value="0.1602223301" flag="0"/>
      <psa30 value="0.0287214351" flag="0"/>
    </comp>
    <comp name="--.HNZ">
      <acc value="0.2285986761" flag="0"/>
      <vel value="0.0651563950" flag="0"/>
      <psa03 value="0.2648465556" flag="0"/>
      <psa10 value="0.0672732780" flag="0"/>
      <psa30 value="0.0109077965" flag="0"/>
    </comp>
  </station>
  <station code="EFSA" name="EFSA" netid="HL" insttype="CMG-5" lat="39.5401" lon="24.9886">
    <comp name="00.HNN">
      <acc value="0.1297146888" flag="0"/>
      <vel value="0.0910194360" flag="0"/>
      <psa03 value="0.2725170248" flag="0"/>
      <psa10 value="0.0788747463" flag="0"/>
      <psa30 value="0.0124921772" flag="0"/>
    </comp>
    <comp name="00.HNE">
      <acc value="0.2040218315" flag="0"/>
      <vel value="0.2360676200" flag="0"/>
      <psa03 value="0.4951896419" flag="0"/>
      <psa10 value="0.2186504827" flag="0"/>
      <psa30 value="0.0290693525" flag="0"/>
    </comp>
    <comp name="00.HNZ">
      <acc value="0.1226708397" flag="0"/>
      <vel value="0.0694434904" flag="0"/>
      <psa03 value="0.3104871911" flag="0"/>
      <psa10 value="0.0789322369" flag="0"/>
      <psa30 value="0.0050245315" flag="0"/>
    </comp>
  </station>
  <station code="LIA" name="LIA" netid="HL" insttype="GMG5TD" lat="39.8972" lon="25.1806">
    <comp name="00.HNE">
      <acc value="0.1386411990" flag="0"/>
      <vel value="0.1030629121" flag="0"/>
      <psa03 value="0.3188185467" flag="0"/>
      <psa10 value="0.0614360674" flag="0"/>
      <psa30 value="0.0053884824" flag="0"/>
    </comp>
    <comp name="00.HNN">
      <acc value="0.1546411967" flag="0"/>
      <vel value="0.0812758396" flag="0"/>
      <psa03 value="0.3776009854" flag="0"/>
      <psa10 value="0.0834226638" flag="0"/>
      <psa30 value="0.0126459986" flag="0"/>
    </comp>
    <comp name="00.HNZ">
      <acc value="0.1034202812" flag="0"/>
      <vel value="0.0774926076" flag="0"/>
      <psa03 value="0.1793463775" flag="0"/>
      <psa10 value="0.0856836734" flag="0"/>
      <psa30 value="0.0095871420" flag="0"/>
    </comp>
  </station>
  <station code="PLG" name="PLG" netid="HL" insttype="120" lat="40.3733" lon="23.4444">
    <comp name="--.HHE">
      <acc value="0.2541437830" flag="0"/>
      <vel value="0.0554533869" flag="0"/>
      <psa03 value="0.2816895271" flag="0"/>
      <psa10 value="0.0268995734" flag="0"/>
      <psa30 value="0.0037269351" flag="0"/>
    </comp>
    <comp name="--.HHN">
      <acc value="0.1797220864" flag="0"/>
      <vel value="0.0543941869" flag="0"/>
      <psa03 value="0.3219282606" flag="0"/>
      <psa10 value="0.0458876317" flag="0"/>
      <psa30 value="0.0067002475" flag="0"/>
    </comp>
    <comp name="--.HHZ">
      <acc value="0.1614149607" flag="0"/>
      <vel value="0.0380176481" flag="0"/>
      <psa03 value="0.1889212229" flag="0"/>
      <psa10 value="0.0181065810" flag="0"/>
      <psa30 value="0.0026394146" flag="0"/>
    </comp>
  </station>
  <station code="PRAS" name="PRAS" netid="HL" insttype="120" lat="41.3524" lon="24.55">
    <comp name="--.HHE">
      <acc value="0.0511979479" flag="0"/>
      <vel value="0.0221307317" flag="0"/>
      <psa03 value="0.0594536946" flag="0"/>
      <psa10 value="0.0130488810" flag="0"/>
      <psa30 value="0.0039486609" flag="0"/>
    </comp>
    <comp name="--.HHZ">
      <acc value="0.0404223338" flag="0"/>
      <vel value="0.0200834395" flag="0"/>
      <psa03 value="0.0642952503" flag="0"/>
      <psa10 value="0.0205737877" flag="0"/>
      <psa30 value="0.0047824807" flag="0"/>
    </comp>
    <comp name="--.HHN">
      <acc value="0.0629243180" flag="0"/>
      <vel value="0.0335882009" flag="0"/>
      <psa03 value="0.1476949330" flag="0"/>
      <psa10 value="0.0181120628" flag="0"/>
      <psa30 value="0.0047476384" flag="0"/>
    </comp>
  </station>
  <station code="HORT" name="HORT" netid="HT" insttype="100" lat="40.5978" lon="23.0996">
    <comp name="--.HHE">
      <acc value="0.0939194721" flag="0"/>
      <vel value="0.0198783514" flag="0"/>
      <psa03 value="0.0531562174" flag="0"/>
      <psa10 value="0.0080753967" flag="0"/>
      <psa30 value="0.0023192971" flag="0"/>
    </comp>
    <comp name="--.HHN">
      <acc value="0.0000112980" flag="0"/>
      <vel value="0.0000021314" flag="0"/>
      <psa03 value="0.0000069517" flag="0"/>
      <psa10 value="0.0000020032" flag="0"/>
      <psa30 value="0.0000005133" flag="0"/>
    </comp>
    <comp name="--.HHZ">
      <acc value="0.0782311598" flag="0"/>
      <vel value="0.0125137683" flag="0"/>
      <psa03 value="0.0268740938" flag="0"/>
      <psa10 value="0.0126188721" flag="0"/>
      <psa30 value="0.0024922440" flag="0"/>
    </comp>
  </station>
  <station code="KAVA" name="KAVA" netid="HT" insttype="Compact," lat="40.9967" lon="24.5137">
    <comp name="--.HHZ">
      <acc value="0.2827097416" flag="0"/>
      <vel value="0.0601138481" flag="0"/>
      <psa03 value="0.2235141564" flag="0"/>
      <psa10 value="0.0878719212" flag="0"/>
      <psa30 value="0.0099885566" flag="0"/>
    </comp>
    <comp name="--.HHE">
      <acc value="0.4140224238" flag="0"/>
      <vel value="0.1095207887" flag="0"/>
      <psa03 value="0.2609128829" flag="0"/>
      <psa10 value="0.1255159712" flag="0"/>
      <psa30 value="0.0111124439" flag="0"/>
    </comp>
    <comp name="--.HHN">
      <acc value="0.3582314432" flag="0"/>
      <vel value="0.0841557222" flag="0"/>
      <psa03 value="0.3572957534" flag="0"/>
      <psa10 value="0.0471624797" flag="0"/>
      <psa30 value="0.0091780355" flag="0"/>
    </comp>
  </station>
  <station code="NESN" name="NESN" netid="HT" insttype="1s-100Hz," lat="39.7267" lon="22.5399">
    <comp name="--.HHN">
      <acc value="0.0424662259" flag="0"/>
      <vel value="0.0416320509" flag="0"/>
      <psa03 value="0.0828992591" flag="0"/>
      <psa10 value="0.0877845365" flag="0"/>
      <psa30 value="0.0093273149" flag="0"/>
    </comp>
    <comp name="--.HHE">
      <acc value="0.0345056944" flag="0"/>
      <vel value="0.0274000840" flag="0"/>
      <psa03 value="0.1044888911" flag="0"/>
      <psa10 value="0.0344343549" flag="0"/>
      <psa30 value="0.0063516566" flag="0"/>
    </comp>
    <comp name="--.HHZ">
      <acc value="0.0227780963" flag="0"/>
      <vel value="0.0182882697" flag="0"/>
      <psa03 value="0.0575858512" flag="0"/>
      <psa10 value="0.0216804091" flag="0"/>
      <psa30 value="0.0043494626" flag="0"/>
    </comp>
  </station>
  <station code="OUR" name="OUR" netid="HT" insttype="100" lat="40.3325" lon="23.9791">
    <comp name="--.HHE">
      <acc value="1.9110702589" flag="0"/>
      <vel value="0.3765383949" flag="0"/>
      <psa03 value="1.0987907195" flag="0"/>
      <psa10 value="0.2074424032" flag="0"/>
      <psa30 value="0.0232866537" flag="0"/>
    </comp>
    <comp name="--.HHN">
      <acc value="1.7963208837" flag="0"/>
      <vel value="0.5515635714" flag="0"/>
      <psa03 value="1.7131899615" flag="0"/>
      <psa10 value="0.3521390088" flag="0"/>
      <psa30 value="0.0489143033" flag="0"/>
    </comp>
    <comp name="--.HHZ">
      <acc value="1.3552484662" flag="0"/>
      <vel value="0.2255791500" flag="0"/>
      <psa03 value="0.6862154687" flag="0"/>
      <psa10 value="0.1223422005" flag="0"/>
      <psa30 value="0.0123941929" flag="0"/>
    </comp>
  </station>
  <station code="PAIG" name="PAIG" netid="HT" insttype="100" lat="39.9363" lon="23.6768">
    <comp name="--.HHN">
      <acc value="0.2157726613" flag="0"/>
      <vel value="0.0753191653" flag="0"/>
      <psa03 value="0.4862859846" flag="0"/>
      <psa10 value="0.0541411602" flag="0"/>
      <psa30 value="0.0093577586" flag="0"/>
    </comp>
    <comp name="--.HHE">
      <acc value="0.2493896921" flag="0"/>
      <vel value="0.0683459299" flag="0"/>
      <psa03 value="0.4178813281" flag="0"/>
      <psa10 value="0.0664633552" flag="0"/>
      <psa30 value="0.0106098776" flag="0"/>
    </comp>
    <comp name="--.HHZ">
      <acc value="0.1518906159" flag="0"/>
      <vel value="0.0393848740" flag="0"/>
      <psa03 value="0.1950891872" flag="0"/>
      <psa10 value="0.0411836731" flag="0"/>
      <psa30 value="0.0106467436" flag="0"/>
    </comp>
  </station>
  <station code="SOH" name="SOH" netid="HT" insttype="120P," lat="40.8217" lon="23.3539">
    <comp name="--.HHZ">
      <acc value="0.0614435743" flag="0"/>
      <vel value="0.0247928164" flag="0"/>
      <psa03 value="0.1397398409" flag="0"/>
      <psa10 value="0.0280124176" flag="0"/>
      <psa30 value="0.0028926710" flag="0"/>
    </comp>
    <comp name="--.HHE">
      <acc value="0.1005491414" flag="0"/>
      <vel value="0.0336462309" flag="0"/>
      <psa03 value="0.1889571118" flag="0"/>
      <psa10 value="0.0522159443" flag="0"/>
      <psa30 value="0.0038363928" flag="0"/>
    </comp>
    <comp name="--.HHN">
      <acc value="0.0651550787" flag="0"/>
      <vel value="0.0415283352" flag="0"/>
      <psa03 value="0.2212498737" flag="0"/>
      <psa10 value="0.0304476893" flag="0"/>
      <psa30 value="0.0082172436" flag="0"/>
    </comp>
  </station>
  <station code="SRS" name="SRS" netid="HT" insttype="100" lat="41.1087" lon="23.595">
    <comp name="--.HHE">
      <acc value="0.0716011671" flag="0"/>
      <vel value="0.0169847479" flag="0"/>
      <psa03 value="0.0573726002" flag="0"/>
      <psa10 value="0.0088711365" flag="0"/>
      <psa30 value="0.0046456099" flag="0"/>
    </comp>
    <comp name="--.HHN">
      <acc value="0.0641637574" flag="0"/>
      <vel value="0.0153377743" flag="0"/>
      <psa03 value="0.0514715315" flag="0"/>
      <psa10 value="0.0078729427" flag="0"/>
      <psa30 value="0.0024239837" flag="0"/>
    </comp>
    <comp name="--.HHZ">
      <acc value="0.0379339540" flag="0"/>
      <vel value="0.0106225592" flag="0"/>
      <psa03 value="0.0354214357" flag="0"/>
      <psa10 value="0.0091332783" flag="0"/>
      <psa30 value="0.0015841147" flag="0"/>
    </comp>
  </station>
  <station code="THAS" name="THAS" netid="HT" insttype="100" lat="40.6064" lon="24.7194">
    <comp name="--.HHN">
      <acc value="1.0032784240" flag="0"/>
      <vel value="0.3541722311" flag="0"/>
      <psa03 value="1.5038991990" flag="0"/>
      <psa10 value="0.0647854250" flag="0"/>
      <psa30 value="0.0108220250" flag="0"/>
    </comp>
    <comp name="--.HHE">
      <acc value="0.6533536820" flag="0"/>
      <vel value="0.2102835721" flag="0"/>
      <psa03 value="1.1730639471" flag="0"/>
      <psa10 value="0.0926657514" flag="0"/>
      <psa30 value="0.0132843109" flag="0"/>
    </comp>
    <comp name="--.HHZ">
      <acc value="0.5651317447" flag="0"/>
      <vel value="0.1346281033" flag="0"/>
      <psa03 value="0.7982621598" flag="0"/>
      <psa10 value="0.0460765360" flag="0"/>
      <psa30 value="0.0063508647" flag="0"/>
    </comp>
  </station>
  <station code="THE" name="THE" netid="HT" insttype="30s-100Hz," lat="40.6319" lon="22.9628">
    <comp name="--.HHE">
      <acc value="0.0220183594" flag="0"/>
      <vel value="0.0072097781" flag="0"/>
      <psa03 value="0.0213558458" flag="0"/>
      <psa10 value="0.0084601259" flag="0"/>
      <psa30 value="0.0013005341" flag="0"/>
    </comp>
    <comp name="--.HHZ">
      <acc value="0.0154912228" flag="0"/>
      <vel value="0.0074710514" flag="0"/>
      <psa03 value="0.0217996148" flag="0"/>
      <psa10 value="0.0101738112" flag="0"/>
      <psa30 value="0.0012822613" flag="0"/>
    </comp>
    <comp name="--.HHN">
      <acc value="0.0346493260" flag="0"/>
      <vel value="0.0104557149" flag="0"/>
      <psa03 value="0.0191488320" flag="0"/>
      <psa10 value="0.0098030579" flag="0"/>
      <psa30 value="0.0018868095" flag="0"/>
    </comp>
  </station>
</stationlist>
