<?xml version="1.0" encoding="UTF-8" standalone="yes"?>
<!DOCTYPE earthquake SYSTEM "stationlist.dtd">
<stationlist created="" xmlns="ch.ethz.sed.shakemap.usgs.xml">
  <station code="STIA" name="STIA" netid="HC" insttype="120" lat="35.2021" lon="26.0909">
    <comp name="--.HHE">
      <acc value="0.0076892496" flag="0"/>
      <vel value="0.0053211422" flag="0"/>
      <psa03 value="0.0200610177" flag="0"/>
      <psa10 value="0.0103270988" flag="0"/>
      <psa30 value="0.0009720183" flag="0"/>
    </comp>
    <comp name="--.HHN">
      <acc value="0.0086616390" flag="0"/>
      <vel value="0.0081702835" flag="0"/>
      <psa03 value="0.0176322088" flag="0"/>
      <psa10 value="0.0081305233" flag="0"/>
      <psa30 value="0.0014648423" flag="0"/>
    </comp>
    <comp name="--.HHZ">
      <acc value="0.0059132415" flag="0"/>
      <vel value="0.0034617203" flag="0"/>
      <psa03 value="0.0183017829" flag="0"/>
      <psa10 value="0.0023555888" flag="0"/>
      <psa30 value="0.0003864647" flag="0"/>
    </comp>
  </station>
  <station code="NPS" name="NPS" netid="HL" insttype="CMG3ESPC-120s" lat="35.2613" lon="25.6104">
    <comp name="--.HHN">
      <acc value="0.0045786505" flag="0"/>
      <vel value="0.0031255267" flag="0"/>
      <psa03 value="0.0135129981" flag="0"/>
      <psa10 value="0.0042311137" flag="0"/>
      <psa30 value="0.0007334211" flag="0"/>
    </comp>
    <comp name="--.HHE">
      <acc value="0.0017774073" flag="0"/>
      <vel value="0.0017187815" flag="0"/>
      <psa03 value="0.0060435288" flag="0"/>
      <psa10 value="0.0031874921" flag="0"/>
      <psa30 value="0.0002340081" flag="0"/>
    </comp>
    <comp name="--.HHZ">
      <acc value="0.0030084378" flag="0"/>
      <vel value="0.0026574237" flag="0"/>
      <psa03 value="0.0072429238" flag="0"/>
      <psa10 value="0.0040184184" flag="0"/>
      <psa30 value="0.0006358722" flag="0"/>
    </comp>
  </station>
  <station code="SIVA" name="SIVA" netid="HL" insttype="60" lat="35.0178" lon="24.812">
    <comp name="--.HHN">
      <acc value="0.0103334470" flag="0"/>
      <vel value="0.0094139600" flag="0"/>
      <psa03 value="0.0319688172" flag="0"/>
      <psa10 value="0.0130483669" flag="0"/>
      <psa30 value="0.0013509795" flag="0"/>
    </comp>
    <comp name="--.HHE">
      <acc value="0.0153289251" flag="0"/>
      <vel value="0.0153508319" flag="0"/>
      <psa03 value="0.0407645015" flag="0"/>
      <psa10 value="0.0185268670" flag="0"/>
      <psa30 value="0.0010940714" flag="0"/>
    </comp>
    <comp name="--.HHZ">
      <acc value="0.0080725330" flag="0"/>
      <vel value="0.0065834156" flag="0"/>
      <psa03 value="0.0283224505" flag="0"/>
      <psa10 value="0.0116540780" flag="0"/>
      <psa30 value="0.0005827756" flag="0"/>
    </comp>
  </station>
  <station code="ZKR" name="ZKR" netid="HL" insttype="120" lat="35.1147" lon="26.2169">
    <comp name="--.HHN">
      <acc value="0.0051908120" flag="0"/>
      <vel value="0.0035593554" flag="0"/>
      <psa03 value="0.0190214281" flag="0"/>
      <psa10 value="0.0039427018" flag="0"/>
      <psa30 value="0.0004915521" flag="0"/>
    </comp>
    <comp name="--.HHE">
      <acc value="0.0079136066" flag="0"/>
      <vel value="0.0067579416" flag="0"/>
      <psa03 value="0.0230828353" flag="0"/>
      <psa10 value="0.0106648944" flag="0"/>
      <psa30 value="0.0012231356" flag="0"/>
    </comp>
    <comp name="--.HHZ">
      <acc value="0.0066140163" flag="0"/>
      <vel value="0.0041267132" flag="0"/>
      <psa03 value="0.0173368551" flag="0"/>
      <psa10 value="0.0053457603" flag="0"/>
      <psa30 value="0.0007551370" flag="0"/>
    </comp>
  </station>
</stationlist>
