<stationlist created="1778069779">
	<station code="SIVA" name="SIVA" netid="HL" source="National Observatory of Athens Seismic Network" insttype="" lat="35.01777" lon="24.81204">
		<comp name="00.HNE" depth="0.0">
			<acc value="0.0144425555967516" flag="0"/>
			<vel value="0.0143887360613167" flag="0"/>
			<psa03 value="0.0373150003196386" flag="0"/>
			<psa10 value="0.0176977798278574" flag="0"/>
			<psa30 value="0.00113779431430265" flag="0"/>
		</comp>
		<comp name="00.HNN" depth="0.0">
			<acc value="0.0118134782015509" flag="0"/>
			<vel value="0.0106124705203717" flag="0"/>
			<psa03 value="0.0363306717740367" flag="0"/>
			<psa10 value="0.0162884003193818" flag="0"/>
			<psa30 value="0.00196060349401267" flag="0"/>
		</comp>
		<comp name="00.HNZ" depth="0.0">
			<acc value="0.00824434345471559" flag="0"/>
			<vel value="0.00652691474390092" flag="0"/>
			<psa03 value="0.0283665589959843" flag="0"/>
			<psa10 value="0.0115931531568604" flag="0"/>
			<psa30 value="0.000713190773495252" flag="0"/>
		</comp>
	</station>
</stationlist>
