<?xml version="1.0" encoding="UTF-8" standalone="yes"?>
<!DOCTYPE earthquake SYSTEM "stationlist.dtd">
<stationlist created="" xmlns="ch.ethz.sed.shakemap.usgs.xml">
  <station code="PLVAM" name="PLVAM" netid="BS" insttype="200" lat="43.9523" lon="22.8502">
    <comp name="--.HNE">
      <acc value="0.1258271530" flag="0"/>
      <vel value="0.0569974688" flag="0"/>
      <psa03 value="0.3733459908" flag="0"/>
      <psa10 value="0.0398755404" flag="0"/>
      <psa30 value="0.0043170653" flag="0"/>
    </comp>
    <comp name="--.HNZ">
      <acc value="0.0767509326" flag="0"/>
      <vel value="0.0250169634" flag="0"/>
      <psa03 value="0.1358774267" flag="0"/>
      <psa10 value="0.0227226335" flag="0"/>
      <psa30 value="0.0017430314" flag="0"/>
    </comp>
    <comp name="--.HNN">
      <acc value="0.1155827325" flag="0"/>
      <vel value="0.0495015691" flag="0"/>
      <psa03 value="0.3145781188" flag="0"/>
      <psa10 value="0.0370629678" flag="0"/>
      <psa30 value="0.0042545627" flag="0"/>
    </comp>
  </station>
  <station code="BZS" name="BZS" netid="MN" insttype="" lat="45.6188" lon="21.6401">
    <comp name="--.HHZ">
      <acc value="0.1775153158" flag="0"/>
      <vel value="0.1190060320" flag="0"/>
      <psa03 value="0.4456847560" flag="0"/>
      <psa10 value="0.0493901258" flag="0"/>
      <psa30 value="0.0037996537" flag="0"/>
    </comp>
    <comp name="--.HHN">
      <acc value="0.1929760222" flag="0"/>
      <vel value="0.0757661922" flag="0"/>
      <psa03 value="0.3969598487" flag="0"/>
      <psa10 value="0.0330733802" flag="0"/>
      <psa30 value="0.0037004742" flag="0"/>
    </comp>
    <comp name="--.HHE">
      <acc value="0.3371611897" flag="0"/>
      <vel value="0.1056021967" flag="0"/>
      <psa03 value="0.7817541816" flag="0"/>
      <psa10 value="0.0452808218" flag="0"/>
      <psa30 value="0.0033321164" flag="0"/>
    </comp>
  </station>
  <station code="ARR" name="ARR" netid="RO" insttype="w/attenuator" lat="45.3657" lon="24.6332">
    <comp name="--.HHE">
      <acc value="0.0323459262" flag="0"/>
      <vel value="0.0127478787" flag="0"/>
      <psa03 value="0.0933060425" flag="0"/>
      <psa10 value="0.0075266303" flag="0"/>
      <psa30 value="0.0007237648" flag="0"/>
    </comp>
  </station>
  <station code="BAIL" name="BAIL" netid="RO" insttype="Seismometer/Basalt" lat="44.0201" lon="23.345">
    <comp name="--.HHE">
      <acc value="0.0888274714" flag="0"/>
      <vel value="0.0475639858" flag="0"/>
      <psa03 value="0.2467006645" flag="0"/>
      <psa10 value="0.0525963110" flag="0"/>
      <psa30 value="0.0048589261" flag="0"/>
    </comp>
    <comp name="--.HHN">
      <acc value="0.1480750946" flag="0"/>
      <vel value="0.0629026888" flag="0"/>
      <psa03 value="0.4306698494" flag="0"/>
      <psa10 value="0.0401902573" flag="0"/>
      <psa30 value="0.0073996295" flag="0"/>
    </comp>
    <comp name="--.HHZ">
      <acc value="0.0561257537" flag="0"/>
      <vel value="0.0162029721" flag="0"/>
      <psa03 value="0.1103439800" flag="0"/>
      <psa10 value="0.0188446935" flag="0"/>
      <psa30 value="0.0026355177" flag="0"/>
    </comp>
  </station>
  <station code="BZS" name="BZS" netid="RO" insttype="w/attenuator" lat="45.6188" lon="21.6401">
    <comp name="--.HHE">
      <acc value="0.2552926393" flag="0"/>
      <vel value="0.0795196857" flag="0"/>
      <psa03 value="0.5836312828" flag="0"/>
      <psa10 value="0.0338077347" flag="0"/>
      <psa30 value="0.0025060806" flag="0"/>
    </comp>
    <comp name="--.HHN">
      <acc value="0.1433683950" flag="0"/>
      <vel value="0.0566331734" flag="0"/>
      <psa03 value="0.2962923629" flag="0"/>
      <psa10 value="0.0249613833" flag="0"/>
      <psa30 value="0.0027378146" flag="0"/>
    </comp>
    <comp name="--.HHZ">
      <acc value="0.1299655888" flag="0"/>
      <vel value="0.0892096708" flag="0"/>
      <psa03 value="0.3350995933" flag="0"/>
      <psa10 value="0.0369704600" flag="0"/>
      <psa30 value="0.0028488297" flag="0"/>
    </comp>
  </station>
  <station code="CRAR" name="CRAR" netid="RO" insttype="MBB2/Quanterra" lat="44.325" lon="23.7999">
    <comp name="--.HHE">
      <acc value="0.1772399215" flag="0"/>
      <vel value="0.0673432742" flag="0"/>
      <psa03 value="0.3201798970" flag="0"/>
      <psa10 value="0.0560824102" flag="0"/>
      <psa30 value="0.0059571833" flag="0"/>
    </comp>
    <comp name="--.HHN">
      <acc value="0.1443147591" flag="0"/>
      <vel value="0.0569629951" flag="0"/>
      <psa03 value="0.3021400496" flag="0"/>
      <psa10 value="0.0643075489" flag="0"/>
      <psa30 value="0.0074991333" flag="0"/>
    </comp>
    <comp name="--.HHZ">
      <acc value="0.1279295146" flag="0"/>
      <vel value="0.0368059458" flag="0"/>
      <psa03 value="0.1376665685" flag="0"/>
      <psa10 value="0.0202079770" flag="0"/>
      <psa30 value="0.0018053153" flag="0"/>
    </comp>
  </station>
  <station code="CRBR" name="CRBR" netid="RO" insttype="200" lat="45.4108" lon="22.2383">
    <comp name="--.HNE">
      <acc value="0.2991090551" flag="0"/>
      <vel value="0.1050312267" flag="0"/>
      <psa03 value="0.5093909261" flag="0"/>
      <psa10 value="0.1142556568" flag="0"/>
      <psa30 value="0.0064919817" flag="0"/>
    </comp>
    <comp name="--.HNN">
      <acc value="0.3607102087" flag="0"/>
      <vel value="0.0999112669" flag="0"/>
      <psa03 value="0.6343358236" flag="0"/>
      <psa10 value="0.0743984625" flag="0"/>
      <psa30 value="0.0064279994" flag="0"/>
    </comp>
    <comp name="--.HNZ">
      <acc value="0.1695925962" flag="0"/>
      <vel value="0.0521627257" flag="0"/>
      <psa03 value="0.1703947597" flag="0"/>
      <psa10 value="0.0461887105" flag="0"/>
      <psa30 value="0.0030387445" flag="0"/>
    </comp>
  </station>
  <station code="DEV" name="DEV" netid="RO" insttype="CMG40T.1to100/Quanterra" lat="45.887" lon="22.898">
    <comp name="--.HHE">
      <acc value="0.3437636011" flag="0"/>
      <vel value="0.0744572931" flag="0"/>
      <psa03 value="0.4448567322" flag="0"/>
      <psa10 value="0.0212103287" flag="0"/>
      <psa30 value="0.0016300289" flag="0"/>
    </comp>
    <comp name="--.HHZ">
      <acc value="0.3426750309" flag="0"/>
      <vel value="0.1015364790" flag="0"/>
      <psa03 value="0.2909858903" flag="0"/>
      <psa10 value="0.0190915851" flag="0"/>
      <psa30 value="0.0016572331" flag="0"/>
    </comp>
    <comp name="--.HHN">
      <acc value="0.2334198420" flag="0"/>
      <vel value="0.0686285989" flag="0"/>
      <psa03 value="0.5698618876" flag="0"/>
      <psa10 value="0.0370328050" flag="0"/>
      <psa30 value="0.0022347721" flag="0"/>
    </comp>
  </station>
  <station code="GZR" name="GZR" netid="RO" insttype="200" lat="45.3933" lon="22.7767">
    <comp name="--.HNE">
      <acc value="6.4115070903" flag="0"/>
      <vel value="1.6380853815" flag="0"/>
      <psa03 value="6.8241567115" flag="0"/>
      <psa10 value="0.2547955073" flag="0"/>
      <psa30 value="0.0230123352" flag="0"/>
    </comp>
    <comp name="--.HNZ">
      <acc value="2.6094211823" flag="0"/>
      <vel value="0.8187716508" flag="0"/>
      <psa03 value="2.5376300583" flag="0"/>
      <psa10 value="0.1743943234" flag="0"/>
      <psa30 value="0.0193974888" flag="0"/>
    </comp>
    <comp name="--.HNN">
      <acc value="3.5398492180" flag="0"/>
      <vel value="1.1616260823" flag="0"/>
      <psa03 value="4.7618462258" flag="0"/>
      <psa10 value="0.2866987265" flag="0"/>
      <psa30 value="0.0241974507" flag="0"/>
    </comp>
  </station>
  <station code="HERR" name="HERR" netid="RO" insttype="CMG40T.1to100/Quanterra" lat="44.881" lon="22.416">
    <comp name="--.HHZ">
      <acc value="0.1949493044" flag="0"/>
      <vel value="0.0460925467" flag="0"/>
      <psa03 value="0.1342605492" flag="0"/>
      <psa10 value="0.0192243920" flag="0"/>
      <psa30 value="0.0014554561" flag="0"/>
    </comp>
    <comp name="--.HHN">
      <acc value="0.5788843504" flag="0"/>
      <vel value="0.1452662940" flag="0"/>
      <psa03 value="0.7228428868" flag="0"/>
      <psa10 value="0.0288375249" flag="0"/>
      <psa30 value="0.0031735750" flag="0"/>
    </comp>
    <comp name="--.HHE">
      <acc value="0.4863621925" flag="0"/>
      <vel value="0.1153484082" flag="0"/>
      <psa03 value="0.4383339550" flag="0"/>
      <psa10 value="0.0457355216" flag="0"/>
      <psa30 value="0.0021569158" flag="0"/>
    </comp>
  </station>
  <station code="LOT" name="LOT" netid="RO" insttype="330" lat="45.446" lon="23.7698">
    <comp name="--.HHE">
      <acc value="0.5401691128" flag="0"/>
      <vel value="0.1608515259" flag="0"/>
      <psa03 value="1.2107713849" flag="0"/>
      <psa10 value="0.0382864095" flag="0"/>
      <psa30 value="0.0031317472" flag="0"/>
    </comp>
    <comp name="--.HHZ">
      <acc value="0.3590326620" flag="0"/>
      <vel value="0.0638965421" flag="0"/>
      <psa03 value="0.4171750494" flag="0"/>
      <psa10 value="0.0218740518" flag="0"/>
      <psa30 value="0.0013414495" flag="0"/>
    </comp>
    <comp name="--.HHN">
      <acc value="0.4942483167" flag="0"/>
      <vel value="0.1291072974" flag="0"/>
      <psa03 value="0.9349490023" flag="0"/>
      <psa10 value="0.0464227987" flag="0"/>
      <psa30 value="0.0035957887" flag="0"/>
    </comp>
  </station>
  <station code="MDVR" name="MDVR" netid="RO" insttype="CMG40T.1to100/Quanterra" lat="44.7815" lon="21.7128">
    <comp name="--.HHE">
      <acc value="0.1378062221" flag="0"/>
      <vel value="0.0464274422" flag="0"/>
      <psa03 value="0.2759321457" flag="0"/>
      <psa10 value="0.0127640371" flag="0"/>
      <psa30 value="0.0010578828" flag="0"/>
    </comp>
    <comp name="--.HHN">
      <acc value="0.1255313493" flag="0"/>
      <vel value="0.0328010983" flag="0"/>
      <psa03 value="0.1671865364" flag="0"/>
      <psa10 value="0.0241824851" flag="0"/>
      <psa30 value="0.0013893511" flag="0"/>
    </comp>
    <comp name="--.HHZ">
      <acc value="0.0824676904" flag="0"/>
      <vel value="0.0226645952" flag="0"/>
      <psa03 value="0.1236700032" flag="0"/>
      <psa10 value="0.0066840785" flag="0"/>
      <psa30 value="0.0010656458" flag="0"/>
    </comp>
  </station>
  <station code="MHISU" name="MHISU" netid="RO" insttype="200" lat="44.6227" lon="22.6535">
    <comp name="--.HNZ">
      <acc value="0.2182990246" flag="0"/>
      <vel value="0.0700755054" flag="0"/>
      <psa03 value="0.3621950832" flag="0"/>
      <psa10 value="0.0496332315" flag="0"/>
      <psa30 value="0.0042151284" flag="0"/>
    </comp>
    <comp name="--.HNE">
      <acc value="0.2430288991" flag="0"/>
      <vel value="0.0961691145" flag="0"/>
      <psa03 value="0.4659497125" flag="0"/>
      <psa10 value="0.1215354206" flag="0"/>
      <psa30 value="0.0130898965" flag="0"/>
    </comp>
    <comp name="--.HNN">
      <acc value="0.3507462924" flag="0"/>
      <vel value="0.1694662215" flag="0"/>
      <psa03 value="0.8941673962" flag="0"/>
      <psa10 value="0.0662202775" flag="0"/>
      <psa30 value="0.0094498140" flag="0"/>
    </comp>
  </station>
  <station code="OTISU" name="OTISU" netid="RO" insttype="200" lat="44.4278" lon="24.3755">
    <comp name="--.HNE">
      <acc value="0.2723319848" flag="0"/>
      <vel value="0.0864046054" flag="0"/>
      <psa03 value="0.7607557431" flag="0"/>
      <psa10 value="0.0249460240" flag="0"/>
      <psa30 value="0.0042583838" flag="0"/>
    </comp>
    <comp name="--.HNN">
      <acc value="0.2691838725" flag="0"/>
      <vel value="0.0839352549" flag="0"/>
      <psa03 value="0.5258294217" flag="0"/>
      <psa10 value="0.0221694274" flag="0"/>
      <psa30 value="0.0057483969" flag="0"/>
    </comp>
    <comp name="--.HNZ">
      <acc value="0.2778485073" flag="0"/>
      <vel value="0.0789287188" flag="0"/>
      <psa03 value="0.5213133204" flag="0"/>
      <psa10 value="0.0130721004" flag="0"/>
      <psa30 value="0.0013877361" flag="0"/>
    </comp>
  </station>
  <station code="RMGR" name="RMGR" netid="RO" insttype="MBB2/Quanterra" lat="44.6627" lon="22.6922">
    <comp name="--.HHE">
      <acc value="0.3156408229" flag="0"/>
      <vel value="0.1483150836" flag="0"/>
      <psa03 value="0.7836257235" flag="0"/>
      <psa10 value="0.1230892724" flag="0"/>
      <psa30 value="0.0069450377" flag="0"/>
    </comp>
    <comp name="--.HHN">
      <acc value="0.3654555467" flag="0"/>
      <vel value="0.1578289613" flag="0"/>
      <psa03 value="0.8756125299" flag="0"/>
      <psa10 value="0.1262098564" flag="0"/>
      <psa30 value="0.0110570880" flag="0"/>
    </comp>
    <comp name="--.HHZ">
      <acc value="0.2926900709" flag="0"/>
      <vel value="0.0693664741" flag="0"/>
      <psa03 value="0.2653289158" flag="0"/>
      <psa10 value="0.0888359716" flag="0"/>
      <psa30 value="0.0060447093" flag="0"/>
    </comp>
  </station>
  <station code="SRE" name="SRE" netid="RO" insttype="Seismometer/Quanterra" lat="44.6609" lon="23.2038">
    <comp name="--.HHE">
      <acc value="0.5170731664" flag="0"/>
      <vel value="0.1900873152" flag="0"/>
      <psa03 value="0.8426442400" flag="0"/>
      <psa10 value="0.0782696049" flag="0"/>
      <psa30 value="0.0176591940" flag="0"/>
    </comp>
    <comp name="--.HHN">
      <acc value="0.7536620670" flag="0"/>
      <vel value="0.1438505777" flag="0"/>
      <psa03 value="0.5175588811" flag="0"/>
      <psa10 value="0.1124784382" flag="0"/>
      <psa30 value="0.0138630962" flag="0"/>
    </comp>
    <comp name="--.HHZ">
      <acc value="0.2869948820" flag="0"/>
      <vel value="0.1153760549" flag="0"/>
      <psa03 value="0.6186202018" flag="0"/>
      <psa10 value="0.0894524433" flag="0"/>
      <psa30 value="0.0094935695" flag="0"/>
    </comp>
  </station>
  <station code="SURR" name="SURR" netid="RO" insttype="Linear" lat="45.754" lon="22.1246">
    <comp name="--.HHE">
      <acc value="0.5276418787" flag="0"/>
      <vel value="0.0826785558" flag="0"/>
      <psa03 value="0.2858152712" flag="0"/>
      <psa10 value="0.0200366741" flag="0"/>
      <psa30 value="0.0018645006" flag="0"/>
    </comp>
    <comp name="--.HHN">
      <acc value="0.4117320941" flag="0"/>
      <vel value="0.0756091854" flag="0"/>
      <psa03 value="0.3551758546" flag="0"/>
      <psa10 value="0.0316171827" flag="0"/>
      <psa30 value="0.0019871966" flag="0"/>
    </comp>
    <comp name="--.HHZ">
      <acc value="0.1488927897" flag="0"/>
      <vel value="0.0402117193" flag="0"/>
      <psa03 value="0.2536501927" flag="0"/>
      <psa10 value="0.0146580530" flag="0"/>
      <psa30 value="0.0017696641" flag="0"/>
    </comp>
  </station>
  <station code="TNR" name="TNR" netid="RO" insttype="CMG40T.1to100/Quanterra" lat="45.652" lon="24.273">
    <comp name="--.HHE">
      <acc value="0.0490477456" flag="0"/>
      <vel value="0.0197260367" flag="0"/>
      <psa03 value="0.0502618977" flag="0"/>
      <psa10 value="0.0212603603" flag="0"/>
      <psa30 value="0.0014209452" flag="0"/>
    </comp>
    <comp name="--.HHN">
      <acc value="0.0369849893" flag="0"/>
      <vel value="0.0234696166" flag="0"/>
      <psa03 value="0.0557701939" flag="0"/>
      <psa10 value="0.0347706049" flag="0"/>
      <psa30 value="0.0024474068" flag="0"/>
    </comp>
    <comp name="--.HHZ">
      <acc value="0.0263875787" flag="0"/>
      <vel value="0.0075382505" flag="0"/>
      <psa03 value="0.0363689657" flag="0"/>
      <psa10 value="0.0105756172" flag="0"/>
      <psa30 value="0.0004024286" flag="0"/>
    </comp>
  </station>
</stationlist>
