<?xml version="1.0" encoding="UTF-8" standalone="yes"?>
<!DOCTYPE earthquake SYSTEM "stationlist.dtd">
<stationlist created="" xmlns="ch.ethz.sed.shakemap.usgs.xml">
  <station code="KAPA" name="KAPA" netid="Z3" source="GFZ" insttype="CMG-3ESP/60" lat="35.6402" lon="27.1376">
    <comp name="--.HHE">
      <acc value="1.0702051693" flag="0"/>
      <vel value="0.3347620412" flag="0"/>
      <psa03 value="1.3336865755" flag="0"/>
      <psa10 value="0.0966341612" flag="0"/>
      <psa30 value="0.0093117196" flag="0"/>
    </comp>
    <comp name="--.HHN">
      <acc value="0.5969991685" flag="0"/>
      <vel value="0.1707925223" flag="0"/>
      <psa03 value="1.1034468069" flag="0"/>
      <psa10 value="0.0459823722" flag="0"/>
      <psa30 value="0.0045562957" flag="0"/>
    </comp>
    <comp name="--.HHZ">
      <acc value="0.3450291845" flag="0"/>
      <vel value="0.1100216425" flag="0"/>
      <psa03 value="0.3781971284" flag="0"/>
      <psa10 value="0.0320774012" flag="0"/>
      <psa30 value="0.0028926500" flag="0"/>
    </comp>
  </station>
  <station code="KASO" name="KASO" netid="Z3" source="GFZ" insttype="CMG-3ESP/60" lat="35.4115" lon="26.9152">
    <comp name="--.HHE">
      <acc value="0.5379467203" flag="0"/>
      <vel value="0.1275636120" flag="0"/>
      <psa03 value="0.3830124091" flag="0"/>
      <psa10 value="0.0778479625" flag="0"/>
      <psa30 value="0.0064992079" flag="0"/>
    </comp>
    <comp name="--.HHN">
      <acc value="0.4562904561" flag="0"/>
      <vel value="0.1249961936" flag="0"/>
      <psa03 value="0.6198550465" flag="0"/>
      <psa10 value="0.0900274100" flag="0"/>
      <psa30 value="0.0066997686" flag="0"/>
    </comp>
    <comp name="--.HHZ">
      <acc value="0.1767529395" flag="0"/>
      <vel value="0.0409618333" flag="0"/>
      <psa03 value="0.1205379868" flag="0"/>
      <psa10 value="0.0392109933" flag="0"/>
      <psa30 value="0.0032706761" flag="0"/>
    </comp>
  </station>
  <station code="RHOS" name="RHOS" netid="Z3" source="GFZ" insttype="CMG-3ESP/60" lat="36.011" lon="27.8197">
    <comp name="--.HHE">
      <acc value="0.0347028313" flag="0"/>
      <vel value="0.0251562746" flag="0"/>
      <psa03 value="0.0908542642" flag="0"/>
      <psa10 value="0.0268005156" flag="0"/>
      <psa30 value="0.0015925782" flag="0"/>
    </comp>
    <comp name="--.HHN">
      <acc value="0.0261744247" flag="0"/>
      <vel value="0.0191470274" flag="0"/>
      <psa03 value="0.0756256317" flag="0"/>
      <psa10 value="0.0159366337" flag="0"/>
      <psa30 value="0.0020062006" flag="0"/>
    </comp>
    <comp name="--.HHZ">
      <acc value="0.0150551726" flag="0"/>
      <vel value="0.0102881310" flag="0"/>
      <psa03 value="0.0372509781" flag="0"/>
      <psa10 value="0.0104464978" flag="0"/>
      <psa30 value="0.0011627114" flag="0"/>
    </comp>
  </station>
</stationlist>
