<?xml version="1.0" encoding="UTF-8" standalone="yes"?>
<!DOCTYPE earthquake SYSTEM "stationlist.dtd">
<stationlist created="" xmlns="ch.ethz.sed.shakemap.usgs.xml">
  <station code="KRL1" name="KRL1" netid="HI" insttype="CMG-5TD,ACCELEROMETER,GURALP" lat="37.7951" lon="26.7065">
    <comp name="--.HNE">
      <acc value="0.7749579621" flag="0"/>
      <vel value="0.1583371071" flag="0"/>
      <psa03 value="0.4511334759" flag="0"/>
      <psa10 value="0.0472511450" flag="0"/>
      <psa30 value="0.0046849449" flag="0"/>
    </comp>
    <comp name="--.HNZ">
      <acc value="0.2976635217" flag="0"/>
      <vel value="0.0489379065" flag="0"/>
      <psa03 value="0.1595373495" flag="0"/>
      <psa10 value="0.0303974457" flag="0"/>
      <psa30 value="0.0024423881" flag="0"/>
    </comp>
    <comp name="--.HNN">
      <acc value="0.5159965541" flag="0"/>
      <vel value="0.1170734148" flag="0"/>
      <psa03 value="0.4256865893" flag="0"/>
      <psa10 value="0.0599415975" flag="0"/>
      <psa30 value="0.0065445967" flag="0"/>
    </comp>
  </station>
  <station code="GMLD" name="GMLD" netid="KO" insttype="100" lat="38.0764" lon="26.8747">
    <comp name="--.HNN">
      <acc value="0.1816722323" flag="0"/>
      <vel value="0.0489617566" flag="0"/>
      <psa03 value="0.2618706392" flag="0"/>
      <psa10 value="0.0209890313" flag="0"/>
      <psa30 value="0.0015405165" flag="0"/>
    </comp>
    <comp name="--.HNE">
      <acc value="0.1176265308" flag="0"/>
      <vel value="0.0404488687" flag="0"/>
      <psa03 value="0.2266105705" flag="0"/>
      <psa10 value="0.0138082454" flag="0"/>
      <psa30 value="0.0009770059" flag="0"/>
    </comp>
    <comp name="--.HNZ">
      <acc value="0.1021943111" flag="0"/>
      <vel value="0.0218662665" flag="0"/>
      <psa03 value="0.1571476435" flag="0"/>
      <psa10 value="0.0064297013" flag="0"/>
      <psa30 value="0.0009743072" flag="0"/>
    </comp>
  </station>
</stationlist>
