<?xml version="1.0" encoding="UTF-8" standalone="yes"?>
<!DOCTYPE earthquake SYSTEM "stationlist.dtd">
<stationlist created="" xmlns="ch.ethz.sed.shakemap.usgs.xml">
  <station code="DPC" name="DPC" netid="CZ" insttype="" lat="50.3502" lon="16.3222">
    <comp name="--.HHN">
      <acc value="0.0163996124" flag="0"/>
      <vel value="0.0031763624" flag="0"/>
      <psa03 value="0.0138142869" flag="0"/>
      <psa10 value="0.0009303142" flag="0"/>
      <psa30 value="0.0002098409" flag="0"/>
    </comp>
    <comp name="--.HHE">
      <acc value="0.0161753136" flag="0"/>
      <vel value="0.0020507177" flag="0"/>
      <psa03 value="0.0096754484" flag="0"/>
      <psa10 value="0.0010292583" flag="0"/>
      <psa30 value="0.0001792808" flag="0"/>
    </comp>
    <comp name="--.HHZ">
      <acc value="0.0079170985" flag="0"/>
      <vel value="0.0014797318" flag="0"/>
      <psa03 value="0.0075367912" flag="0"/>
      <psa10 value="0.0009452164" flag="0"/>
      <psa30 value="0.0003036867" flag="0"/>
    </comp>
  </station>
  <station code="DPC" name="DPC" netid="MN" insttype="" lat="50.3502" lon="16.3222">
    <comp name="--.HHE">
      <acc value="0.0161753136" flag="0"/>
      <vel value="0.0020507177" flag="0"/>
      <psa03 value="0.0096754484" flag="0"/>
      <psa10 value="0.0010292583" flag="0"/>
      <psa30 value="0.0001792808" flag="0"/>
    </comp>
    <comp name="--.HHN">
      <acc value="0.0163996124" flag="0"/>
      <vel value="0.0031763624" flag="0"/>
      <psa03 value="0.0138142869" flag="0"/>
      <psa10 value="0.0009303142" flag="0"/>
      <psa30 value="0.0002098409" flag="0"/>
    </comp>
    <comp name="--.HHZ">
      <acc value="0.0079170985" flag="0"/>
      <vel value="0.0014797318" flag="0"/>
      <psa03 value="0.0075367912" flag="0"/>
      <psa10 value="0.0009452164" flag="0"/>
      <psa30 value="0.0003036867" flag="0"/>
    </comp>
  </station>
</stationlist>
