<?xml version="1.0" encoding="UTF-8" standalone="yes"?>
<!DOCTYPE earthquake SYSTEM "stationlist.dtd">
<stationlist created="" xmlns="ch.ethz.sed.shakemap.usgs.xml">
  <station code="DPC" name="DPC" netid="CZ" insttype="" lat="50.3502" lon="16.3222">
    <comp name="--.HHN">
      <acc value="0.0163996141" flag="0"/>
      <vel value="0.0031763621" flag="0"/>
      <psa03 value="0.0138142869" flag="0"/>
      <psa10 value="0.0009303142" flag="0"/>
      <psa30 value="0.0002098356" flag="0"/>
    </comp>
    <comp name="--.HHZ">
      <acc value="0.0079170972" flag="0"/>
      <vel value="0.0014797317" flag="0"/>
      <psa03 value="0.0075367912" flag="0"/>
      <psa10 value="0.0009452164" flag="0"/>
      <psa30 value="0.0003036880" flag="0"/>
    </comp>
    <comp name="--.HHE">
      <acc value="0.0161753124" flag="0"/>
      <vel value="0.0020507183" flag="0"/>
      <psa03 value="0.0096754484" flag="0"/>
      <psa10 value="0.0010292583" flag="0"/>
      <psa30 value="0.0001792800" flag="0"/>
    </comp>
  </station>
  <station code="UPC" name="UPC" netid="CZ" insttype="" lat="50.5074" lon="16.0121">
    <comp name="--.HHE">
      <acc value="0.0118672045" flag="0"/>
      <vel value="0.0066342241" flag="0"/>
      <psa03 value="0.0178269723" flag="0"/>
      <psa10 value="0.0046523801" flag="0"/>
      <psa30 value="0.0004574549" flag="0"/>
    </comp>
    <comp name="--.HHN">
      <acc value="0.0232473635" flag="0"/>
      <vel value="0.0127520407" flag="0"/>
      <psa03 value="0.0539777829" flag="0"/>
      <psa10 value="0.0100009046" flag="0"/>
      <psa30 value="0.0005822608" flag="0"/>
    </comp>
    <comp name="--.HHZ">
      <acc value="0.0309522600" flag="0"/>
      <vel value="0.0143345761" flag="0"/>
      <psa03 value="0.0445544117" flag="0"/>
      <psa10 value="0.0062921753" flag="0"/>
      <psa30 value="0.0006302312" flag="0"/>
    </comp>
  </station>
  <station code="DPC" name="DPC" netid="MN" insttype="" lat="50.3502" lon="16.3222">
    <comp name="--.HHE">
      <acc value="0.0161753124" flag="0"/>
      <vel value="0.0020507183" flag="0"/>
      <psa03 value="0.0096754484" flag="0"/>
      <psa10 value="0.0010292583" flag="0"/>
      <psa30 value="0.0001792800" flag="0"/>
    </comp>
    <comp name="--.HHZ">
      <acc value="0.0079170972" flag="0"/>
      <vel value="0.0014797317" flag="0"/>
      <psa03 value="0.0075367912" flag="0"/>
      <psa10 value="0.0009452164" flag="0"/>
      <psa30 value="0.0003036880" flag="0"/>
    </comp>
    <comp name="--.HHN">
      <acc value="0.0163996141" flag="0"/>
      <vel value="0.0031763621" flag="0"/>
      <psa03 value="0.0138142869" flag="0"/>
      <psa10 value="0.0009303142" flag="0"/>
      <psa30 value="0.0002098356" flag="0"/>
    </comp>
  </station>
  <station code="KSP" name="KSP" netid="PL" insttype="STS-2/N" lat="50.8428" lon="16.2931">
    <comp name="--.HHE">
      <acc value="0.0076612421" flag="0"/>
      <vel value="0.0036209733" flag="0"/>
      <psa03 value="0.0136465753" flag="0"/>
      <psa10 value="0.0016545384" flag="0"/>
      <psa30 value="0.0007863492" flag="0"/>
    </comp>
    <comp name="--.HHZ">
      <acc value="0.0094330805" flag="0"/>
      <vel value="0.0057091101" flag="0"/>
      <psa03 value="0.0186310691" flag="0"/>
      <psa10 value="0.0031642940" flag="0"/>
      <psa30 value="0.0015365212" flag="0"/>
    </comp>
    <comp name="--.HHN">
      <acc value="0.0113816752" flag="0"/>
      <vel value="0.0060654580" flag="0"/>
      <psa03 value="0.0332875306" flag="0"/>
      <psa10 value="0.0028053779" flag="0"/>
      <psa30 value="0.0014954839" flag="0"/>
    </comp>
  </station>
</stationlist>
