<?xml version="1.0" encoding="UTF-8" standalone="yes"?>
<!DOCTYPE earthquake SYSTEM "stationlist.dtd">
<stationlist created="" xmlns="ch.ethz.sed.shakemap.usgs.xml">
  <station code="UPC" name="UPC" netid="CZ" insttype="" lat="50.5074" lon="16.0121">
    <comp name="--.HHE">
      <acc value="0.0118672040" flag="0"/>
      <vel value="0.0066342236" flag="0"/>
      <psa03 value="0.0178269723" flag="0"/>
      <psa10 value="0.0046523736" flag="0"/>
      <psa30 value="0.0004574492" flag="0"/>
    </comp>
    <comp name="--.HHN">
      <acc value="0.0232473633" flag="0"/>
      <vel value="0.0127520409" flag="0"/>
      <psa03 value="0.0539777829" flag="0"/>
      <psa10 value="0.0100009046" flag="0"/>
      <psa30 value="0.0005821417" flag="0"/>
    </comp>
  </station>
  <station code="DPC" name="DPC" netid="MN" insttype="" lat="50.3502" lon="16.3222">
    <comp name="--.HHZ">
      <acc value="0.0079170985" flag="0"/>
      <vel value="0.0014797319" flag="0"/>
      <psa03 value="0.0075367912" flag="0"/>
      <psa10 value="0.0009452164" flag="0"/>
      <psa30 value="0.0003036858" flag="0"/>
    </comp>
    <comp name="--.HHE">
      <acc value="0.0161753127" flag="0"/>
      <vel value="0.0020507177" flag="0"/>
      <psa03 value="0.0096754484" flag="0"/>
      <psa10 value="0.0010292583" flag="0"/>
      <psa30 value="0.0001792799" flag="0"/>
    </comp>
    <comp name="--.HHN">
      <acc value="0.0163996107" flag="0"/>
      <vel value="0.0031763625" flag="0"/>
      <psa03 value="0.0138142869" flag="0"/>
      <psa10 value="0.0009303142" flag="0"/>
      <psa30 value="0.0002098419" flag="0"/>
    </comp>
  </station>
</stationlist>
