<?xml version="1.0" encoding="UTF-8" standalone="yes"?>
<!DOCTYPE earthquake SYSTEM "stationlist.dtd">
<stationlist created="" xmlns="ch.ethz.sed.shakemap.usgs.xml">
  <station code="DPC" name="DPC" netid="CZ" insttype="" lat="50.3502" lon="16.3222">
    <comp name="--.HHN">
      <acc value="0.0163996124" flag="0"/>
      <vel value="0.0031763624" flag="0"/>
      <psa03 value="0.0138142869" flag="0"/>
      <psa10 value="0.0009303142" flag="0"/>
      <psa30 value="0.0002098409" flag="0"/>
    </comp>
    <comp name="--.HHE">
      <acc value="0.0161753136" flag="0"/>
      <vel value="0.0020507177" flag="0"/>
      <psa03 value="0.0096754484" flag="0"/>
      <psa10 value="0.0010292583" flag="0"/>
      <psa30 value="0.0001792808" flag="0"/>
    </comp>
    <comp name="--.HHZ">
      <acc value="0.0079170985" flag="0"/>
      <vel value="0.0014797318" flag="0"/>
      <psa03 value="0.0075367912" flag="0"/>
      <psa10 value="0.0009452164" flag="0"/>
      <psa30 value="0.0003036867" flag="0"/>
    </comp>
  </station>
  <station code="UPC" name="UPC" netid="CZ" insttype="" lat="50.5074" lon="16.0121">
    <comp name="--.HHN">
      <acc value="0.0232473633" flag="0"/>
      <vel value="0.0127520409" flag="0"/>
      <psa03 value="0.0539777829" flag="0"/>
      <psa10 value="0.0100009046" flag="0"/>
      <psa30 value="0.0005821458" flag="0"/>
    </comp>
    <comp name="--.HHE">
      <acc value="0.0118672040" flag="0"/>
      <vel value="0.0066342234" flag="0"/>
      <psa03 value="0.0178269723" flag="0"/>
      <psa10 value="0.0046523741" flag="0"/>
      <psa30 value="0.0004574500" flag="0"/>
    </comp>
    <comp name="--.HHZ">
      <acc value="0.0309522599" flag="0"/>
      <vel value="0.0143345766" flag="0"/>
      <psa03 value="0.0445544117" flag="0"/>
      <psa10 value="0.0062921754" flag="0"/>
      <psa30 value="0.0006302147" flag="0"/>
    </comp>
  </station>
  <station code="DPC" name="DPC" netid="MN" insttype="" lat="50.3502" lon="16.3222">
    <comp name="--.HHE">
      <acc value="0.0161753136" flag="0"/>
      <vel value="0.0020507177" flag="0"/>
      <psa03 value="0.0096754484" flag="0"/>
      <psa10 value="0.0010292583" flag="0"/>
      <psa30 value="0.0001792808" flag="0"/>
    </comp>
    <comp name="--.HHN">
      <acc value="0.0163996124" flag="0"/>
      <vel value="0.0031763624" flag="0"/>
      <psa03 value="0.0138142869" flag="0"/>
      <psa10 value="0.0009303142" flag="0"/>
      <psa30 value="0.0002098409" flag="0"/>
    </comp>
    <comp name="--.HHZ">
      <acc value="0.0079170985" flag="0"/>
      <vel value="0.0014797318" flag="0"/>
      <psa03 value="0.0075367912" flag="0"/>
      <psa10 value="0.0009452164" flag="0"/>
      <psa30 value="0.0003036867" flag="0"/>
    </comp>
  </station>
</stationlist>
