<stationlist created="1675692158">
	<station code="TUNC" name="TUNC" netid="KO" source="Bogazici University Kandilli Observatory And Earthquake Research Institute (KOERI)" insttype="" lat="39.6942" lon="37.5388">
		<comp name=".HNE" depth="0.0">
			<acc value="0.018105899206" flag="0"/>
			<vel value="0.0100033973557" flag="0"/>
			<psa03 value="0.0321180625599" flag="0"/>
			<psa10 value="0.0148952808018" flag="0"/>
			<psa30 value="0.00216961185114" flag="0"/>
		</comp>
		<comp name=".HNN" depth="0.0">
			<acc value="0.0339007614658" flag="0"/>
			<vel value="0.0065820656472" flag="0"/>
			<psa03 value="0.0488364643426" flag="0"/>
			<psa10 value="0.00966862331134" flag="0"/>
			<psa30 value="0.000796231652691" flag="0"/>
		</comp>
		<comp name=".HNZ" depth="0.0">
			<acc value="0.00977650135166" flag="0"/>
			<vel value="0.0066152948996" flag="0"/>
			<psa03 value="0.0255772542634" flag="0"/>
			<psa10 value="0.00947813694257" flag="0"/>
			<psa30 value="0.000992915671625" flag="0"/>
		</comp>
	</station>
</stationlist>
