<?xml version="1.0" encoding="UTF-8" standalone="yes"?>
<!DOCTYPE earthquake SYSTEM "stationlist.dtd">
<stationlist created="" xmlns="ch.ethz.sed.shakemap.usgs.xml">
  <station code="GAZ" name="GAZ" netid="KO" insttype="CMG-3T" lat="37.1721" lon="37.2096">
    <comp name="--.HHE">
      <acc value="0.0964151027" flag="0"/>
      <vel value="0.0427373113" flag="0"/>
      <psa03 value="0.3363605640" flag="0"/>
      <psa10 value="0.0230231594" flag="0"/>
      <psa30 value="0.0013116902" flag="0"/>
    </comp>
    <comp name="--.HHN">
      <acc value="0.0460636228" flag="0"/>
      <vel value="0.0208528244" flag="0"/>
      <psa03 value="0.0653676282" flag="0"/>
      <psa10 value="0.0277414307" flag="0"/>
      <psa30 value="0.0013666886" flag="0"/>
    </comp>
    <comp name="--.HHZ">
      <acc value="0.0331248393" flag="0"/>
      <vel value="0.0170263211" flag="0"/>
      <psa03 value="0.1123681895" flag="0"/>
      <psa10 value="0.0127465477" flag="0"/>
      <psa30 value="0.0015107855" flag="0"/>
    </comp>
  </station>
</stationlist>
