<?xml version="1.0" encoding="UTF-8" standalone="yes"?>
<!DOCTYPE earthquake SYSTEM "stationlist.dtd">
<stationlist created="" xmlns="ch.ethz.sed.shakemap.usgs.xml">
  <station code="CART" name="CART" netid="WM" insttype="FBA-EST/10.0" commtype="DIG" lat="37.5868" lon="-1.0012">
    <comp name="--.HLN">
      <acc value="0.0067063748" flag="0"/>
      <vel value="0.0037650277" flag="0"/>
      <psa03 value="0.0208507854" flag="0"/>
      <psa10 value="0.0034486956" flag="0"/>
      <psa30 value="0.0004181756" flag="0"/>
    </comp>
    <comp name="--.HLE">
      <acc value="0.0059879922" flag="0"/>
      <vel value="0.0037842764" flag="0"/>
      <psa03 value="0.0203811642" flag="0"/>
      <psa10 value="0.0026499618" flag="0"/>
      <psa30 value="0.0003487521" flag="0"/>
    </comp>
    <comp name="--.HLZ">
      <acc value="0.0061253066" flag="0"/>
      <vel value="0.0023934888" flag="0"/>
      <psa03 value="0.0204403469" flag="0"/>
      <psa10 value="0.0034170446" flag="0"/>
      <psa30 value="0.0002463385" flag="0"/>
    </comp>
  </station>
</stationlist>
