<stationlist created="1775808412">
	<station code="EALB" name="EALB" netid="ES" source="Spanish Digital Seismic Network" insttype="" lat="35.939897" lon="-3.034254">
		<comp name="--.HNE" depth="0.0">
			<acc value="0.00756821105166444" flag="0"/>
			<vel value="0.00387459857324672" flag="0"/>
			<psa03 value="0.00710351484382949" flag="0"/>
			<psa10 value="0.00391055397688396" flag="0"/>
			<psa30 value="0.000610973078134592" flag="0"/>
		</comp>
		<comp name="--.HNN" depth="0.0">
			<acc value="0.010696181174921" flag="0"/>
			<vel value="0.00391280730217849" flag="0"/>
			<psa03 value="0.0156839504430773" flag="0"/>
			<psa10 value="0.00396071237775686" flag="0"/>
			<psa30 value="0.000571388268335215" flag="0"/>
		</comp>
		<comp name="--.HNZ" depth="0.0">
			<acc value="0.0156455810773452" flag="0"/>
			<vel value="0.00383576722042884" flag="0"/>
			<psa03 value="0.00739419165182479" flag="0"/>
			<psa10 value="0.0034627332953366" flag="0"/>
			<psa30 value="0.000395103569505745" flag="0"/>
		</comp>
	</station>
	<station code="EMUR" name="EMUR" netid="ES" source="Spanish Digital Seismic Network" insttype="" lat="37.8422" lon="-1.2405">
		<comp name="--.HNE" depth="0.0">
			<acc value="0.00479075097530207" flag="0"/>
			<vel value="0.00337171135648723" flag="0"/>
			<psa03 value="0.016458232204194" flag="0"/>
			<psa10 value="0.00253522161786496" flag="0"/>
			<psa30 value="0.000366350831444626" flag="0"/>
		</comp>
		<comp name="--.HNN" depth="0.0">
			<acc value="0.00370721129359461" flag="0"/>
			<vel value="0.00360527886577167" flag="0"/>
			<psa03 value="0.0112216222836534" flag="0"/>
			<psa10 value="0.00494804309607138" flag="0"/>
			<psa30 value="0.000271470665890973" flag="0"/>
		</comp>
		<comp name="--.HNZ" depth="0.0">
			<acc value="0.00560090132686529" flag="0"/>
			<vel value="0.00289349105806175" flag="0"/>
			<psa03 value="0.0233476716686636" flag="0"/>
			<psa10 value="0.00183514399115799" flag="0"/>
			<psa30 value="0.000202640767706351" flag="0"/>
		</comp>
	</station>
	<station code="ENIJ" name="ENIJ" netid="ES" source="Spanish Digital Seismic Network" insttype="" lat="36.9715" lon="-2.207">
		<comp name="--.HNE" depth="0.0">
			<acc value="0.346549299220489" flag="0"/>
			<vel value="0.0750596902835157" flag="0"/>
			<psa03 value="0.410053455695668" flag="0"/>
			<psa10 value="0.0474456305401722" flag="0"/>
			<psa30 value="0.00315966806250229" flag="0"/>
		</comp>
		<comp name="--.HNN" depth="0.0">
			<acc value="0.261750637685019" flag="0"/>
			<vel value="0.0773477961864167" flag="0"/>
			<psa03 value="0.314563171599656" flag="0"/>
			<psa10 value="0.0501255543219704" flag="0"/>
			<psa30 value="0.00282504172848326" flag="0"/>
		</comp>
		<comp name="--.HNZ" depth="0.0">
			<acc value="0.499516814939515" flag="0"/>
			<vel value="0.0676813126080699" flag="0"/>
			<psa03 value="0.214735245989514" flag="0"/>
			<psa10 value="0.0311182808083829" flag="0"/>
			<psa30 value="0.00247830646730723" flag="0"/>
		</comp>
	</station>
	<station code="EXAA2" name="EXAA2" netid="ES" source="Spanish Digital Seismic Network" insttype="" lat="36.9609" lon="-2.5697">
		<comp name="--.HNE" depth="0.0">
			<acc value="0.187641340905987" flag="0"/>
			<vel value="0.0774389609869161" flag="0"/>
			<psa03 value="0.214520231745876" flag="0"/>
			<psa10 value="0.18333354994793" flag="0"/>
			<psa30 value="0.0070245553423167" flag="0"/>
		</comp>
		<comp name="--.HNN" depth="0.0">
			<acc value="0.194164206002774" flag="0"/>
			<vel value="0.0955451296154324" flag="0"/>
			<psa03 value="0.310516736876548" flag="0"/>
			<psa10 value="0.183097419305433" flag="0"/>
			<psa30 value="0.00872950662030473" flag="0"/>
		</comp>
		<comp name="--.HNZ" depth="0.0">
			<acc value="0.163312748630955" flag="0"/>
			<vel value="0.0736591932449538" flag="0"/>
			<psa03 value="0.220461146135631" flag="0"/>
			<psa10 value="0.104753656915666" flag="0"/>
			<psa30 value="0.00467522179383237" flag="0"/>
		</comp>
	</station>
	<station code="EXAD" name="EXAD" netid="ES" source="Spanish Digital Seismic Network" insttype="" lat="36.7499" lon="-3.0133">
		<comp name="--.HNE" depth="0.0">
			<acc value="0.0319102679980018" flag="0"/>
			<vel value="0.0101017496255604" flag="0"/>
			<psa03 value="0.0500324966990262" flag="0"/>
			<psa10 value="0.00817201260572897" flag="0"/>
			<psa30 value="0.000699801462579115" flag="0"/>
		</comp>
		<comp name="--.HNN" depth="0.0">
			<acc value="0.0363716168954105" flag="0"/>
			<vel value="0.0111954830633747" flag="0"/>
			<psa03 value="0.0481485593974259" flag="0"/>
			<psa10 value="0.0100116810372339" flag="0"/>
			<psa30 value="0.000676802595267028" flag="0"/>
		</comp>
		<comp name="--.HNZ" depth="0.0">
			<acc value="0.0320020758711047" flag="0"/>
			<vel value="0.00880986131184371" flag="0"/>
			<psa03 value="0.0442147310922735" flag="0"/>
			<psa10 value="0.0114379567710015" flag="0"/>
			<psa30 value="0.000470280789210933" flag="0"/>
		</comp>
	</station>
	<station code="EXAGI" name="EXAGI" netid="ES" source="Spanish Digital Seismic Network" insttype="" lat="37.4138" lon="-1.5917">
		<comp name="--.HNE" depth="0.0">
			<acc value="0.0700756983369795" flag="0"/>
			<vel value="0.0360578392058488" flag="0"/>
			<psa03 value="0.139382191719482" flag="0"/>
			<psa10 value="0.0482374242426191" flag="0"/>
			<psa30 value="0.00163623297573776" flag="0"/>
		</comp>
		<comp name="--.HNN" depth="0.0">
			<acc value="0.109405941939036" flag="0"/>
			<vel value="0.0568187662473113" flag="0"/>
			<psa03 value="0.218680298996581" flag="0"/>
			<psa10 value="0.0544976877043496" flag="0"/>
			<psa30 value="0.00193506985554777" flag="0"/>
		</comp>
		<comp name="--.HNZ" depth="0.0">
			<acc value="0.0575073973757046" flag="0"/>
			<vel value="0.0227891200141622" flag="0"/>
			<psa03 value="0.217618645333903" flag="0"/>
			<psa10 value="0.0152943963036941" flag="0"/>
			<psa30 value="0.00094388325680009" flag="0"/>
		</comp>
	</station>
	<station code="EXAHM" name="EXAHM" netid="ES" source="Spanish Digital Seismic Network" insttype="" lat="37.8415" lon="-1.4344">
		<comp name="--.HNE" depth="0.0">
			<acc value="0.0221296336604038" flag="0"/>
			<vel value="0.0161378008942479" flag="0"/>
			<psa03 value="0.0596800107994878" flag="0"/>
			<psa10 value="0.0184332511124205" flag="0"/>
			<psa30 value="0.000891143304703765" flag="0"/>
		</comp>
		<comp name="--.HNN" depth="0.0">
			<acc value="0.0274706334763645" flag="0"/>
			<vel value="0.0125586281055147" flag="0"/>
			<psa03 value="0.0938958347215668" flag="0"/>
			<psa10 value="0.0172615253663403" flag="0"/>
			<psa30 value="0.00104125554056935" flag="0"/>
		</comp>
		<comp name="--.HNZ" depth="0.0">
			<acc value="0.0198250146789001" flag="0"/>
			<vel value="0.00892944176984676" flag="0"/>
			<psa03 value="0.041732134340756" flag="0"/>
			<psa10 value="0.00832926708556649" flag="0"/>
			<psa30 value="0.00060021757396856" flag="0"/>
		</comp>
	</station>
	<station code="EXARM" name="EXARM" netid="ES" source="Spanish Digital Seismic Network" insttype="" lat="37.14221" lon="-3.63191">
		<comp name="--.HNE" depth="0.0">
			<acc value="0.0210459729106118" flag="0"/>
			<vel value="0.014603745452467" flag="0"/>
			<psa03 value="0.0753791966268346" flag="0"/>
			<psa10 value="0.009313558227524" flag="0"/>
			<psa30 value="0.0011563908760536" flag="0"/>
		</comp>
		<comp name="--.HNN" depth="0.0">
			<acc value="0.0202512813679213" flag="0"/>
			<vel value="0.0135482363409736" flag="0"/>
			<psa03 value="0.0713312618043522" flag="0"/>
			<psa10 value="0.0170696570310048" flag="0"/>
			<psa30 value="0.00137612074457901" flag="0"/>
		</comp>
		<comp name="--.HNZ" depth="0.0">
			<acc value="0.012543161939578" flag="0"/>
			<vel value="0.00690580023215032" flag="0"/>
			<psa03 value="0.0432796092492074" flag="0"/>
			<psa10 value="0.00871832817145402" flag="0"/>
			<psa30 value="0.000775574034223447" flag="0"/>
		</comp>
	</station>
	<station code="EXCA2" name="EXCA2" netid="ES" source="Spanish Digital Seismic Network" insttype="" lat="37.0603" lon="-3.9162">
		<comp name="--.HNE" depth="0.0">
			<acc value="0.011863204076888" flag="0"/>
			<vel value="0.00844907435882045" flag="0"/>
			<psa03 value="0.0323420695867168" flag="0"/>
			<psa10 value="0.00882067338882239" flag="0"/>
			<psa30 value="0.000770849398322839" flag="0"/>
		</comp>
		<comp name="--.HNN" depth="0.0">
			<acc value="0.0128589806537994" flag="0"/>
			<vel value="0.00859312192766494" flag="0"/>
			<psa03 value="0.0406914612346035" flag="0"/>
			<psa10 value="0.0104207853258853" flag="0"/>
			<psa30 value="0.000703661509954976" flag="0"/>
		</comp>
		<comp name="--.HNZ" depth="0.0">
			<acc value="0.00635044550929892" flag="0"/>
			<vel value="0.004637319497334" flag="0"/>
			<psa03 value="0.0176239565631284" flag="0"/>
			<psa10 value="0.00674113953616047" flag="0"/>
			<psa30 value="0.000488140461909932" flag="0"/>
		</comp>
	</station>
	<station code="EXEJI" name="EXEJI" netid="ES" source="Spanish Digital Seismic Network" insttype="" lat="36.7743" lon="-2.8112">
		<comp name="--.HNE" depth="0.0">
			<acc value="0.112374585212593" flag="0"/>
			<vel value="0.0447788051910444" flag="0"/>
			<psa03 value="0.176274989852965" flag="0"/>
			<psa10 value="0.0316757833651913" flag="0"/>
			<psa30 value="0.00175105224861775" flag="0"/>
		</comp>
		<comp name="--.HNN" depth="0.0">
			<acc value="0.169860888910151" flag="0"/>
			<vel value="0.0367317258024214" flag="0"/>
			<psa03 value="0.181912509144284" flag="0"/>
			<psa10 value="0.0399577757565413" flag="0"/>
			<psa30 value="0.00199404605409815" flag="0"/>
		</comp>
		<comp name="--.HNZ" depth="0.0">
			<acc value="0.0940837426809487" flag="0"/>
			<vel value="0.023633032622116" flag="0"/>
			<psa03 value="0.0843420872493508" flag="0"/>
			<psa10 value="0.0336257025377667" flag="0"/>
			<psa30 value="0.00130363188004749" flag="0"/>
		</comp>
	</station>
	<station code="EXGER" name="EXGER" netid="ES" source="Spanish Digital Seismic Network" insttype="" lat="37.11075" lon="-2.542101">
		<comp name="--.HNE" depth="0.0">
			<acc value="1.21326463714596" flag="0"/>
			<vel value="0.213330593575774" flag="0"/>
			<psa03 value="0.926042512438335" flag="0"/>
			<psa10 value="0.0812055094664662" flag="0"/>
			<psa30 value="0.00616049143565682" flag="0"/>
		</comp>
		<comp name="--.HNN" depth="0.0">
			<acc value="1.27633842923151" flag="0"/>
			<vel value="0.219051729821309" flag="0"/>
			<psa03 value="0.613565354026815" flag="0"/>
			<psa10 value="0.0806301313504898" flag="0"/>
			<psa30 value="0.00739755338493977" flag="0"/>
		</comp>
		<comp name="--.HNZ" depth="0.0">
			<acc value="1.31175606925872" flag="0"/>
			<vel value="0.317183164003221" flag="0"/>
			<psa03 value="1.16135118381631" flag="0"/>
			<psa10 value="0.0991773525128667" flag="0"/>
			<psa30 value="0.00619203394185972" flag="0"/>
		</comp>
	</station>
	<station code="EXGRA" name="EXGRA" netid="ES" source="Spanish Digital Seismic Network" insttype="" lat="37.1929" lon="-3.6052">
		<comp name="--.HNE" depth="0.0">
			<acc value="0.0336984122729246" flag="0"/>
			<vel value="0.0278501824471078" flag="0"/>
			<psa03 value="0.06205586089623" flag="0"/>
			<psa10 value="0.0238250395419424" flag="0"/>
			<psa30 value="0.00151765137028837" flag="0"/>
		</comp>
		<comp name="--.HNN" depth="0.0">
			<acc value="0.0263725263558251" flag="0"/>
			<vel value="0.0207277119389505" flag="0"/>
			<psa03 value="0.110710146503869" flag="0"/>
			<psa10 value="0.0235505551086958" flag="0"/>
			<psa30 value="0.00149169631756017" flag="0"/>
		</comp>
		<comp name="--.HNZ" depth="0.0">
			<acc value="0.0178635032016469" flag="0"/>
			<vel value="0.0117466889960102" flag="0"/>
			<psa03 value="0.0571887832678902" flag="0"/>
			<psa10 value="0.00894970912430659" flag="0"/>
			<psa30 value="0.000971551339674793" flag="0"/>
		</comp>
	</station>
	<station code="EXHUO" name="EXHUO" netid="ES" source="Spanish Digital Seismic Network" insttype="" lat="37.3988" lon="-1.9469">
		<comp name="--.HNE" depth="0.0">
			<acc value="0.253831250234607" flag="0"/>
			<vel value="0.091838630766627" flag="0"/>
			<psa03 value="0.79871732776973" flag="0"/>
			<psa10 value="0.0434798665777726" flag="0"/>
			<psa30 value="0.00313022840393606" flag="0"/>
		</comp>
		<comp name="--.HNN" depth="0.0">
			<acc value="0.230323677893208" flag="0"/>
			<vel value="0.114721323929623" flag="0"/>
			<psa03 value="0.787418245927678" flag="0"/>
			<psa10 value="0.0432303925513427" flag="0"/>
			<psa30 value="0.00382371288554619" flag="0"/>
		</comp>
		<comp name="--.HNZ" depth="0.0">
			<acc value="0.460419428071268" flag="0"/>
			<vel value="0.0925625875089403" flag="0"/>
			<psa03 value="0.329302648017631" flag="0"/>
			<psa10 value="0.0279215390399296" flag="0"/>
			<psa30 value="0.00165178640190925" flag="0"/>
		</comp>
	</station>
	<station code="EXLO2" name="EXLO2" netid="ES" source="Spanish Digital Seismic Network" insttype="" lat="37.6553" lon="-1.6883">
		<comp name="--.HNE" depth="0.0">
			<acc value="0.0498581347284182" flag="0"/>
			<vel value="0.0305546800460657" flag="0"/>
			<psa03 value="0.151613012367991" flag="0"/>
			<psa10 value="0.0319951882741989" flag="0"/>
			<psa30 value="0.00182260428025535" flag="0"/>
		</comp>
		<comp name="--.HNN" depth="0.0">
			<acc value="0.0552124736721398" flag="0"/>
			<vel value="0.0301950185727079" flag="0"/>
			<psa03 value="0.126426552221949" flag="0"/>
			<psa10 value="0.027111657889278" flag="0"/>
			<psa30 value="0.00271096750495913" flag="0"/>
		</comp>
		<comp name="--.HNZ" depth="0.0">
			<acc value="0.0440319806925469" flag="0"/>
			<vel value="0.0215325016734692" flag="0"/>
			<psa03 value="0.0690011595298454" flag="0"/>
			<psa10 value="0.0209861783563213" flag="0"/>
			<psa30 value="0.00106442561713987" flag="0"/>
		</comp>
	</station>
	<station code="EXMAZ" name="EXMAZ" netid="ES" source="Spanish Digital Seismic Network" insttype="" lat="37.5953" lon="-1.3053">
		<comp name="--.HNE" depth="0.0">
			<acc value="0.0125548736449382" flag="0"/>
			<vel value="0.00501044068017884" flag="0"/>
			<psa03 value="0.0289456362563442" flag="0"/>
			<psa10 value="0.00441789578891411" flag="0"/>
			<psa30 value="0.000553187739722852" flag="0"/>
		</comp>
		<comp name="--.HNN" depth="0.0">
			<acc value="0.0114461872000669" flag="0"/>
			<vel value="0.00675745843693998" flag="0"/>
			<psa03 value="0.0365777460128257" flag="0"/>
			<psa10 value="0.00889626433385151" flag="0"/>
			<psa30 value="0.000606222607189206" flag="0"/>
		</comp>
		<comp name="--.HNZ" depth="0.0">
			<acc value="0.00922281536446529" flag="0"/>
			<vel value="0.00425429605230402" flag="0"/>
			<psa03 value="0.0232119621577412" flag="0"/>
			<psa10 value="0.00605096959703918" flag="0"/>
			<psa30 value="0.000335064592218156" flag="0"/>
		</comp>
	</station>
	<station code="EXMU" name="EXMU" netid="ES" source="Spanish Digital Seismic Network" insttype="" lat="38.0396" lon="-1.4941">
		<comp name="--.HNE" depth="0.0">
			<acc value="0.0379538196944195" flag="0"/>
			<vel value="0.0224152553660442" flag="0"/>
			<psa03 value="0.0707729748205794" flag="0"/>
			<psa10 value="0.0107400317868965" flag="0"/>
			<psa30 value="0.00109290229524671" flag="0"/>
		</comp>
		<comp name="--.HNN" depth="0.0">
			<acc value="0.0265617483114105" flag="0"/>
			<vel value="0.0133604656227692" flag="0"/>
			<psa03 value="0.0859768622118356" flag="0"/>
			<psa10 value="0.0107063648691285" flag="0"/>
			<psa30 value="0.000653495842975739" flag="0"/>
		</comp>
		<comp name="--.HNZ" depth="0.0">
			<acc value="0.0210280387791203" flag="0"/>
			<vel value="0.00844420794301718" flag="0"/>
			<psa03 value="0.0685221069616305" flag="0"/>
			<psa10 value="0.00769854374074033" flag="0"/>
			<psa30 value="0.000525354281309498" flag="0"/>
		</comp>
	</station>
	<station code="EXOR" name="EXOR" netid="ES" source="Spanish Digital Seismic Network" insttype="" lat="37.3537" lon="-2.2974">
		<comp name="--.HNE" depth="0.0">
			<acc value="1.27430350826172" flag="0"/>
			<vel value="0.2357649349786" flag="0"/>
			<psa03 value="0.798151040255961" flag="0"/>
			<psa10 value="0.0615921789295753" flag="0"/>
			<psa30 value="0.00549395853112307" flag="0"/>
		</comp>
		<comp name="--.HNN" depth="0.0">
			<acc value="3.11796262001171" flag="0"/>
			<vel value="0.447344641078507" flag="0"/>
			<psa03 value="0.822912763931964" flag="0"/>
			<psa10 value="0.037519120457596" flag="0"/>
			<psa30 value="0.00404412582015471" flag="0"/>
		</comp>
		<comp name="--.HNZ" depth="0.0">
			<acc value="0.605219663630058" flag="0"/>
			<vel value="0.0798744801386668" flag="0"/>
			<psa03 value="0.25627981061303" flag="0"/>
			<psa10 value="0.0329680627223565" flag="0"/>
			<psa30 value="0.00262912479161437" flag="0"/>
		</comp>
	</station>
	<station code="EXPTO" name="EXPTO" netid="ES" source="Spanish Digital Seismic Network" insttype="" lat="37.549" lon="-1.8173">
		<comp name="--.HNE" depth="0.0">
			<acc value="0.0815042003114071" flag="0"/>
			<vel value="0.0310837053743934" flag="0"/>
			<psa03 value="0.310505236114679" flag="0"/>
			<psa10 value="0.0284189701172972" flag="0"/>
			<psa30 value="0.00138356946718699" flag="0"/>
		</comp>
		<comp name="--.HNN" depth="0.0">
			<acc value="0.0858950363168468" flag="0"/>
			<vel value="0.0336741234629742" flag="0"/>
			<psa03 value="0.237186879133356" flag="0"/>
			<psa10 value="0.0243200048309637" flag="0"/>
			<psa30 value="0.00133709065902739" flag="0"/>
		</comp>
		<comp name="--.HNZ" depth="0.0">
			<acc value="0.139973629769044" flag="0"/>
			<vel value="0.0455663802075547" flag="0"/>
			<psa03 value="0.262462220167322" flag="0"/>
			<psa10 value="0.0155709874389994" flag="0"/>
			<psa30 value="0.00120608218869252" flag="0"/>
		</comp>
	</station>
	<station code="EXSAL" name="EXSAL" netid="ES" source="Spanish Digital Seismic Network" insttype="" lat="36.74413" lon="-3.58703">
		<comp name="--.HNE" depth="0.0">
			<acc value="0.0152905028534503" flag="0"/>
			<vel value="0.00742801244141345" flag="0"/>
			<psa03 value="0.0413069707590887" flag="0"/>
			<psa10 value="0.0068810219276824" flag="0"/>
			<psa30 value="0.000801039939964722" flag="0"/>
		</comp>
		<comp name="--.HNN" depth="0.0">
			<acc value="0.0208547764195023" flag="0"/>
			<vel value="0.00851111093323947" flag="0"/>
			<psa03 value="0.0424857571812373" flag="0"/>
			<psa10 value="0.0076382214634355" flag="0"/>
			<psa30 value="0.00119001226997261" flag="0"/>
		</comp>
		<comp name="--.HNZ" depth="0.0">
			<acc value="0.0153137907300421" flag="0"/>
			<vel value="0.00676683577128784" flag="0"/>
			<psa03 value="0.0251466476128243" flag="0"/>
			<psa10 value="0.00821519671646437" flag="0"/>
			<psa30 value="0.00158962895094984" flag="0"/>
		</comp>
	</station>
	<station code="EXSJO" name="EXSJO" netid="ES" source="Spanish Digital Seismic Network" insttype="" lat="36.7604" lon="-2.1098">
		<comp name="--.HNE" depth="0.0">
			<acc value="0.169536088981542" flag="0"/>
			<vel value="0.0365912369638407" flag="0"/>
			<psa03 value="0.100688847225307" flag="0"/>
			<psa10 value="0.0229462738280266" flag="0"/>
			<psa30 value="0.00193031954086273" flag="0"/>
		</comp>
		<comp name="--.HNN" depth="0.0">
			<acc value="0.202479528643228" flag="0"/>
			<vel value="0.0555251441358903" flag="0"/>
			<psa03 value="0.0719121440349491" flag="0"/>
			<psa10 value="0.0145242696615837" flag="0"/>
			<psa30 value="0.00150741433796855" flag="0"/>
		</comp>
		<comp name="--.HNZ" depth="0.0">
			<acc value="0.169230818590954" flag="0"/>
			<vel value="0.0245294993013804" flag="0"/>
			<psa03 value="0.0755855696730361" flag="0"/>
			<psa10 value="0.0137814720173852" flag="0"/>
			<psa30 value="0.00133244701807564" flag="0"/>
		</comp>
	</station>
	<station code="EXTOT" name="EXTOT" netid="ES" source="Spanish Digital Seismic Network" insttype="" lat="37.7698" lon="-1.4979">
		<comp name="--.HNE" depth="0.0">
			<acc value="0.0172181410879789" flag="0"/>
