<?xml version="1.0" encoding="UTF-8" standalone="yes"?>
<!DOCTYPE earthquake SYSTEM "stationlist.dtd">
<stationlist created="" xmlns="ch.ethz.sed.shakemap.usgs.xml">
  <station code="KRL1" name="KRL1" netid="HI" insttype="CMG-5TD,ACCELEROMETER,GURALP" lat="37.7951" lon="26.7065">
    <comp name="--.HNN">
      <acc value="1.6235490168" flag="0"/>
      <vel value="0.4185758217" flag="0"/>
      <psa03 value="1.8555700231" flag="0"/>
      <psa10 value="0.0904576898" flag="0"/>
      <psa30 value="0.0133290328" flag="0"/>
    </comp>
    <comp name="--.HNE">
      <acc value="2.0379207530" flag="0"/>
      <vel value="0.4858078949" flag="0"/>
      <psa03 value="1.8999472501" flag="0"/>
      <psa10 value="0.1181841968" flag="0"/>
      <psa30 value="0.0148607835" flag="0"/>
    </comp>
    <comp name="--.HNZ">
      <acc value="1.0357993867" flag="0"/>
      <vel value="0.1361977792" flag="0"/>
      <psa03 value="0.3368263042" flag="0"/>
      <psa10 value="0.0541741560" flag="0"/>
      <psa30 value="0.0031286113" flag="0"/>
    </comp>
  </station>
  <station code="EAG2" name="EAG2" netid="HL" insttype="SMART24" lat="38.5438" lon="26.1079">
    <comp name="--.HHE">
      <acc value="0.1790991559" flag="0"/>
      <vel value="0.1084388179" flag="0"/>
      <psa03 value="0.7116016654" flag="0"/>
      <psa10 value="0.0585301803" flag="0"/>
      <psa30 value="0.0034529565" flag="0"/>
    </comp>
    <comp name="--.HHZ">
      <acc value="0.1491253392" flag="0"/>
      <vel value="0.0693613722" flag="0"/>
      <psa03 value="0.3230688914" flag="0"/>
      <psa10 value="0.0196700727" flag="0"/>
      <psa30 value="0.0017687917" flag="0"/>
    </comp>
    <comp name="--.HHN">
      <acc value="0.2932793383" flag="0"/>
      <vel value="0.1512781319" flag="0"/>
      <psa03 value="1.1797862246" flag="0"/>
      <psa10 value="0.0917898062" flag="0"/>
      <psa30 value="0.0048785766" flag="0"/>
    </comp>
  </station>
  <station code="KLNA" name="KLNA" netid="HL" insttype="CMG-5" lat="36.9571" lon="26.9727">
    <comp name="00.HNZ">
      <acc value="0.0577426248" flag="0"/>
      <vel value="0.0122769428" flag="0"/>
      <psa03 value="0.0373526145" flag="0"/>
      <psa10 value="0.0035097071" flag="0"/>
      <psa30 value="0.0002357123" flag="0"/>
    </comp>
    <comp name="00.HNN">
      <acc value="0.0293750477" flag="0"/>
      <vel value="0.0092914542" flag="0"/>
      <psa03 value="0.0780172852" flag="0"/>
      <psa10 value="0.0029241631" flag="0"/>
      <psa30 value="0.0002507833" flag="0"/>
    </comp>
    <comp name="00.HNE">
      <acc value="0.0473454243" flag="0"/>
      <vel value="0.0153969647" flag="0"/>
      <psa03 value="0.0902977119" flag="0"/>
      <psa10 value="0.0034620940" flag="0"/>
      <psa30 value="0.0003623931" flag="0"/>
    </comp>
  </station>
  <station code="CHOS" name="CHOS" netid="HT" insttype="100" lat="38.3869" lon="26.0506">
    <comp name="--.HHE">
      <acc value="0.0654551366" flag="0"/>
      <vel value="0.0199372884" flag="0"/>
      <psa03 value="0.0609796572" flag="0"/>
      <psa10 value="0.0121365603" flag="0"/>
      <psa30 value="0.0010568028" flag="0"/>
    </comp>
    <comp name="--.HHN">
      <acc value="0.0329620735" flag="0"/>
      <vel value="0.0137176031" flag="0"/>
      <psa03 value="0.0471862994" flag="0"/>
      <psa10 value="0.0119241561" flag="0"/>
      <psa30 value="0.0007996681" flag="0"/>
    </comp>
    <comp name="--.HHZ">
      <acc value="0.0273109450" flag="0"/>
      <vel value="0.0068213736" flag="0"/>
      <psa03 value="0.0362447616" flag="0"/>
      <psa10 value="0.0029614662" flag="0"/>
      <psa30 value="0.0002168669" flag="0"/>
    </comp>
  </station>
  <station code="CESE" name="CESE" netid="KO" insttype="100" lat="38.3306" lon="26.2997">
    <comp name="--.HNE">
      <acc value="0.0042510924" flag="0"/>
      <vel value="0.0009676851" flag="0"/>
      <psa03 value="0.0071753853" flag="0"/>
      <psa10 value="0.0007099459" flag="0"/>
      <psa30 value="0.0000478377" flag="0"/>
    </comp>
    <comp name="--.HNZ">
      <acc value="0.0051488593" flag="0"/>
      <vel value="0.0010458955" flag="0"/>
      <psa03 value="0.0034904476" flag="0"/>
      <psa10 value="0.0004132004" flag="0"/>
      <psa30 value="0.0000475660" flag="0"/>
    </comp>
    <comp name="--.HNN">
      <acc value="0.0081172768" flag="0"/>
      <vel value="0.0021349595" flag="0"/>
      <psa03 value="0.0089635253" flag="0"/>
      <psa10 value="0.0020391267" flag="0"/>
      <psa30 value="0.0001002005" flag="0"/>
    </comp>
  </station>
  <station code="GMLD" name="GMLD" netid="KO" insttype="100" lat="38.0764" lon="26.8747">
    <comp name="--.HNE">
      <acc value="0.2951464160" flag="0"/>
      <vel value="0.0882038596" flag="0"/>
      <psa03 value="0.4696904756" flag="0"/>
      <psa10 value="0.0458558759" flag="0"/>
      <psa30 value="0.0027633177" flag="0"/>
    </comp>
    <comp name="--.HNZ">
      <acc value="0.1529352529" flag="0"/>
      <vel value="0.0446610325" flag="0"/>
      <psa03 value="0.2798649696" flag="0"/>
      <psa10 value="0.0184369244" flag="0"/>
      <psa30 value="0.0010508062" flag="0"/>
    </comp>
    <comp name="--.HNN">
      <acc value="0.2941463287" flag="0"/>
      <vel value="0.1111155492" flag="0"/>
      <psa03 value="0.5633642649" flag="0"/>
      <psa10 value="0.0456170650" flag="0"/>
      <psa30 value="0.0033448667" flag="0"/>
    </comp>
  </station>
  <station code="KRBN" name="KRBN" netid="KO" insttype="100" lat="38.5936" lon="26.5537">
    <comp name="--.HNE">
      <acc value="0.0562305098" flag="0"/>
      <vel value="0.0123318733" flag="0"/>
      <psa03 value="0.0327886495" flag="0"/>
      <psa10 value="0.0051607612" flag="0"/>
      <psa30 value="0.0004957546" flag="0"/>
    </comp>
    <comp name="--.HNN">
      <acc value="0.0269338118" flag="0"/>
      <vel value="0.0091756971" flag="0"/>
      <psa03 value="0.0245728543" flag="0"/>
      <psa10 value="0.0100230700" flag="0"/>
      <psa30 value="0.0004698021" flag="0"/>
    </comp>
    <comp name="--.HNZ">
      <acc value="0.0169235807" flag="0"/>
      <vel value="0.0053567446" flag="0"/>
      <psa03 value="0.0176099673" flag="0"/>
      <psa10 value="0.0058920993" flag="0"/>
      <psa30 value="0.0003283400" flag="0"/>
    </comp>
  </station>
  <station code="KUSD" name="KUSD" netid="KO" insttype="100" lat="37.86" lon="27.2815">
    <comp name="--.HNZ">
      <acc value="0.0244187660" flag="0"/>
      <vel value="0.0063309329" flag="0"/>
      <psa03 value="0.0258421733" flag="0"/>
      <psa10 value="0.0017234230" flag="0"/>
      <psa30 value="0.0003214940" flag="0"/>
    </comp>
    <comp name="--.HNN">
      <acc value="0.0236704605" flag="0"/>
      <vel value="0.0047222034" flag="0"/>
      <psa03 value="0.0199935386" flag="0"/>
      <psa10 value="0.0035581520" flag="0"/>
      <psa30 value="0.0003051969" flag="0"/>
    </comp>
    <comp name="--.HNE">
      <acc value="0.0192531054" flag="0"/>
      <vel value="0.0050305538" flag="0"/>
      <psa03 value="0.0273286142" flag="0"/>
      <psa10 value="0.0023476322" flag="0"/>
      <psa30 value="0.0003484838" flag="0"/>
    </comp>
  </station>
  <station code="AYDN" name="AYDN" netid="TU" source="ODC" insttype="T" lat="37.6608" lon="27.8792">
    <comp name="--.HHN">
      <acc value="0.0330039296" flag="0"/>
      <vel value="0.0077338518" flag="0"/>
      <psa03 value="0.0475566316" flag="0"/>
      <psa10 value="0.0085850136" flag="0"/>
      <psa30 value="0.0004126228" flag="0"/>
    </comp>
    <comp name="--.HHE">
      <acc value="0.0305001866" flag="0"/>
      <vel value="0.0111663865" flag="0"/>
      <psa03 value="0.0474491308" flag="0"/>
      <psa10 value="0.0090139930" flag="0"/>
      <psa30 value="0.0004232249" flag="0"/>
    </comp>
    <comp name="--.HHZ">
      <acc value="0.0440786987" flag="0"/>
      <vel value="0.0063698685" flag="0"/>
      <psa03 value="0.0188105217" flag="0"/>
      <psa10 value="0.0047073370" flag="0"/>
      <psa30 value="0.0003730947" flag="0"/>
    </comp>
  </station>
</stationlist>
