<stationlist created="1642764499">
	<station code="KRL1" name="KRL1" netid="HI" source="ITSAK Strong Motion Network" insttype="" lat="37.7951" lon="26.7065">
		<comp name=".HNE" depth="0.0">
			<cuvu />
			<acc value="2.01517422" flag="0"/>
			<vel value="0.495487" flag="0"/>
			<psa03 value="1.91304252838" flag="0"/>
			<psa10 value="0.118520763066" flag="0"/>
			<psa30 value="0.0148221982085" flag="0"/>
		</comp>
		<comp name=".HNN" depth="0.0">
			<acc value="1.61474211" flag="0"/>
			<vel value="0.422126" flag="0"/>
			<psa03 value="1.88838957253" flag="0"/>
			<psa10 value="0.0909935678658" flag="0"/>
			<psa30 value="0.0133640496948" flag="0"/>
		</comp>
		<comp name=".HNZ" depth="0.0">
			<acc value="1.021400358" flag="0"/>
			<vel value="0.138089" flag="0"/>
			<psa03 value="0.343888600068" flag="0"/>
			<psa10 value="0.0542651378749" flag="0"/>
			<psa30 value="0.003204436838" flag="0"/>
		</comp>
	</station>
	<station code="MYT1" name="MYT1" netid="HI" source="ITSAK Strong Motion Network" insttype="" lat="39.085" lon="26.5694">
		<comp name=".HNE" depth="0.0">
			<acc value="0.008306982" flag="0"/>
			<vel value="0.004218" flag="0"/>
			<psa03 value="0.0167335852752" flag="0"/>
			<psa10 value="0.00297580416218" flag="0"/>
			<psa30 value="0.000207603838709" flag="0"/>
		</comp>
		<comp name=".HNN" depth="0.0">
			<acc value="0.005313588" flag="0"/>
			<vel value="0.002944" flag="0"/>
			<psa03 value="0.0166888430686" flag="0"/>
			<psa10 value="0.00264157987874" flag="0"/>
			<psa30 value="0.000276506836901" flag="0"/>
		</comp>
		<comp name=".HNZ" depth="0.0">
			<acc value="0.00653718" flag="0"/>
			<vel value="0.002363" flag="0"/>
			<psa03 value="0.0115434893075" flag="0"/>
			<psa10 value="0.00232748958828" flag="0"/>
			<psa30 value="0.000256820265989" flag="0"/>
		</comp>
	</station>
	<station code="NAX1" name="NAX1" netid="HI" source="ITSAK Strong Motion Network" insttype="" lat="37.101394" lon="25.374103">
		<comp name=".HNE" depth="0.0">
			<acc value="0.014389344" flag="0"/>
			<vel value="0.003086" flag="0"/>
			<psa03 value="0.00885895691042" flag="0"/>
			<psa10 value="0.00157850504949" flag="0"/>
			<psa30 value="0.000171362651348" flag="0"/>
		</comp>
		<comp name=".HNN" depth="0.0">
			<acc value="0.010139922" flag="0"/>
			<vel value="0.002463" flag="0"/>
			<psa03 value="0.0115882315141" flag="0"/>
			<psa10 value="0.000902002885424" flag="0"/>
			<psa30 value="0.000182995625069" flag="0"/>
		</comp>
		<comp name=".HNZ" depth="0.0">
			<acc value="0.005034108" flag="0"/>
			<vel value="0.001959" flag="0"/>
			<psa03 value="0.00765091733172" flag="0"/>
			<psa10 value="0.00116777159274" flag="0"/>
			<psa30 value="9.39586338984e-05" flag="0"/>
		</comp>
	</station>
	<station code="RDI1" name="RDI1" netid="HI" source="ITSAK Strong Motion Network" insttype="" lat="36.4514" lon="28.224">
		<comp name=".HNE" depth="0.0">
			<acc value="0.002408118" flag="0"/>
			<vel value="0.002482" flag="0"/>
			<psa03 value="0.00384782976917" flag="0"/>
			<psa10 value="0.00421605812964" flag="0"/>
			<psa30 value="0.000884553424843" flag="0"/>
		</comp>
		<comp name=".HNN" depth="0.0">
			<acc value="0.001684326" flag="0"/>
			<vel value="0.00178" flag="0"/>
			<psa03 value="0.0041610252155" flag="0"/>
			<psa10 value="0.00376908348552" flag="0"/>
			<psa30 value="0.000748089694658" flag="0"/>
		</comp>
		<comp name=".HNZ" depth="0.0">
			<acc value="0.004184448" flag="0"/>
			<vel value="0.001055" flag="0"/>
			<psa03 value="0.00340040770299" flag="0"/>
			<psa10 value="0.00208990847114" flag="0"/>
			<psa30 value="0.000224605877224" flag="0"/>
		</comp>
	</station>
	<station code="ASTA" name="ASTA" netid="HL" source="National Observatory of Athens Seismic Network" insttype="" lat="36.54543" lon="26.3528">
		<comp name="00.HNE" depth="0.0">
			<acc value="0.003028788" flag="0"/>
			<vel value="0.000989" flag="0"/>
			<psa03 value="0.00398205638903" flag="0"/>
			<psa10 value="0.000962404864359" flag="0"/>
			<psa30 value="0.000155702879032" flag="0"/>
		</comp>
		<comp name="00.HNN" depth="0.0">
			<acc value="0.002964018" flag="0"/>
			<vel value="0.000991" flag="0"/>
			<psa03 value="0.00357937652946" flag="0"/>
			<psa10 value="0.000797306121938" flag="0"/>
			<psa30 value="0.000104696763487" flag="0"/>
		</comp>
		<comp name="00.HNZ" depth="0.0">
			<acc value="0.00310947" flag="0"/>
			<vel value="0.000954" flag="0"/>
			<psa03 value="0.00322143887652" flag="0"/>
			<psa10 value="0.000990592454529" flag="0"/>
			<psa30 value="0.000152570924568" flag="0"/>
		</comp>
	</station>
	<station code="KLNA" name="KLNA" netid="HL" source="National Observatory of Athens Seismic Network" insttype="" lat="36.95708" lon="26.97274">
		<comp name="00.HNE" depth="0.0">
			<acc value="0.04761207" flag="0"/>
			<vel value="0.015475" flag="0"/>
			<psa03 value="0.0908266794351" flag="0"/>
			<psa10 value="0.00346707359085" flag="0"/>
			<psa30 value="0.000374939691461" flag="0"/>
		</comp>
		<comp name="00.HNN" depth="0.0">
			<acc value="0.028911288" flag="0"/>
			<vel value="0.009324" flag="0"/>
			<psa03 value="0.0783883459952" flag="0"/>
			<psa10 value="0.00292345578044" flag="0"/>
			<psa30 value="0.000263979019048" flag="0"/>
		</comp>
		<comp name="00.HNZ" depth="0.0">
			<acc value="0.057736692" flag="0"/>
			<vel value="0.01239" flag="0"/>
			<psa03 value="0.0373150003196" flag="0"/>
			<psa10 value="0.003515395174" flag="0"/>
			<psa30 value="0.000248766668798" flag="0"/>
		</comp>
	</station>
	<station code="PRK" name="PRK" netid="HL" source="National Observatory of Athens Seismic Network" insttype="" lat="39.24565" lon="26.26499">
		<comp name=".HNE" depth="0.0">
			<acc value="0.007485168" flag="0"/>
			<vel value="0.005681" flag="0"/>
			<psa03 value="0.0252346045327" flag="0"/>
			<psa10 value="0.00751803297807" flag="0"/>
			<psa30 value="0.000282770745827" flag="0"/>
		</comp>
		<comp name=".HNN" depth="0.0">
			<acc value="0.006745056" flag="0"/>
			<vel value="0.005" flag="0"/>
			<psa03 value="0.0169125541017" flag="0"/>
			<psa10 value="0.006104626671" flag="0"/>
			<psa30 value="0.000318117089056" flag="0"/>
		</comp>
		<comp name=".HNZ" depth="0.0">
			<acc value="0.006858072" flag="0"/>
			<vel value="0.002937" flag="0"/>
			<psa03 value="0.00845627705085" flag="0"/>
			<psa10 value="0.00173152339613" flag="0"/>
			<psa30 value="0.000153018346634" flag="0"/>
		</comp>
	</station>
	<station code="RODB" name="RODB" netid="HL" source="National Observatory of Athens Seismic Network" insttype="" lat="36.4471" lon="28.22116">
		<comp name="00.HNE" depth="0.0">
			<acc value="0.002727786" flag="0"/>
			<vel value="0.001773" flag="0"/>
			<psa03 value="0.00340040770299" flag="0"/>
			<psa10 value="0.00309660812005" flag="0"/>
			<psa30 value="0.000523036395368" flag="0"/>
		</comp>
		<comp name="00.HNN" depth="0.0">
			<acc value="0.002183208" flag="0"/>
			<vel value="0.002102" flag="0"/>
			<psa03 value="0.00496638493463" flag="0"/>
			<psa10 value="0.00505765903613" flag="0"/>
			<psa30 value="0.00087202560699" flag="0"/>
		</comp>
		<comp name="00.HNZ" depth="0.0">
			<acc value="0.004306542" flag="0"/>
			<vel value="0.00099" flag="0"/>
			<psa03 value="0.00286350122357" flag="0"/>
			<psa10 value="0.0021301764571" flag="0"/>
			<psa30 value="0.000219684234496" flag="0"/>
		</comp>
	</station>
	<station code="THRA" name="THRA" netid="HL" source="National Observatory of Athens Seismic Network" insttype="" lat="36.41502" lon="25.43244">
		<comp name="00.HNE" depth="0.0">
			<acc value="0.009618396" flag="0"/>
			<vel value="0.004076" flag="0"/>
			<psa03 value="0.0222816188959" flag="0"/>
			<psa10 value="0.00531537414625" flag="0"/>
			<psa30 value="0.000557040472397" flag="0"/>
		</comp>
		<comp name="00.HNN" depth="0.0">
			<acc value="0.010529562" flag="0"/>
			<vel value="0.005454" flag="0"/>
			<psa03 value="0.0207603838709" flag="0"/>
			<psa10 value="0.00946700349836" flag="0"/>
			<psa30 value="0.000668001144811" flag="0"/>
		</comp>
		<comp name="00.HNZ" depth="0.0">
			<acc value="0.00716601" flag="0"/>
			<vel value="0.00372" flag="0"/>
			<psa03 value="0.0212525481437" flag="0"/>
			<psa10 value="0.00254493671245" flag="0"/>
			<psa30 value="0.000142727639112" flag="0"/>
		</comp>
	</station>
	<station code="TNSA" name="TNSA" netid="HL" source="National Observatory of Athens Seismic Network" insttype="" lat="37.53942" lon="25.1631">
		<comp name="00.HNE" depth="0.0">
			<acc value="0.006092868" flag="0"/>
			<vel value="0.001737" flag="0"/>
			<psa03 value="0.00648761995965" flag="0"/>
			<psa10 value="0.00111542321099" flag="0"/>
			<psa30 value="0.00010782871795" flag="0"/>
		</comp>
		<comp name="00.HNN" depth="0.0">
			<acc value="0.007376028" flag="0"/>
			<vel value="0.001742" flag="0"/>
			<psa03 value="0.00774040174496" flag="0"/>
			<psa10 value="0.000801332920533" flag="0"/>
			<psa30 value="6.75607319936e-05" flag="0"/>
		</comp>
		<comp name="00.HNZ" depth="0.0">
			<acc value="0.005358366" flag="0"/>
			<vel value="0.001598" flag="0"/>
			<psa03 value="0.00778514395158" flag="0"/>
			<psa10 value="0.000869788496659" flag="0"/>
			<psa30 value="0.0001230410682" flag="0"/>
		</comp>
	</station>
	<station code="AKS" name="AKS" netid="KO" source="Bogazici University Kandilli Observatory And Earthquake Research Institute (KOERI)" insttype="" lat="38.8785" lon="27.8129">
		<comp name=".HNE" depth="0.0">
			<acc value="0.006940998" flag="0"/>
			<vel value="0.003123" flag="0"/>
			<psa03 value="0.0100669964891" flag="0"/>
			<psa10 value="0.00336237682736" flag="0"/>
			<psa30 value="0.000381203600388" flag="0"/>
		</comp>
		<comp name=".HNN" depth="0.0">
			<acc value="0.007425498" flag="0"/>
			<vel value="0.00391" flag="0"/>
			<psa03 value="0.0162861632091" flag="0"/>
			<psa10 value="0.00200131890204" flag="0"/>
			<psa30 value="0.000418339631881" flag="0"/>
		</comp>
		<comp name=".HNZ" depth="0.0">
			<acc value="0.002728602" flag="0"/>
			<vel value="0.001205" flag="0"/>
			<psa03 value="0.00442947845521" flag="0"/>
			<psa10 value="0.00128052195341" flag="0"/>
			<psa30 value="0.000321696465585" flag="0"/>
		</comp>
	</station>
	<station code="DATC" name="DATC" netid="KO" source="Bogazici University Kandilli Observatory And Earthquake Research Institute (KOERI)" insttype="" lat="36.7584" lon="27.6602">
		<comp name=".HNE" depth="0.0">
			<acc value="0.059955906" flag="0"/>
			<vel value="0.022706" flag="0"/>
			<psa03 value="0.0718559838289" flag="0"/>
			<psa10 value="0.0378639871948" flag="0"/>
			<psa30 value="0.00210019917866" flag="0"/>
		</comp>
		<comp name=".HNN" depth="0.0">
			<acc value="0.074521404" flag="0"/>
			<vel value="0.031729" flag="0"/>
			<psa03 value="0.144159389724" flag="0"/>
			<psa10 value="0.0277204815324" flag="0"/>
			<psa30 value="0.00315522041072" flag="0"/>
		</comp>
		<comp name=".HNZ" depth="0.0">
			<acc value="0.090260616" flag="0"/>
			<vel value="0.018767" flag="0"/>
			<psa03 value="0.0596413614222" flag="0"/>
			<psa10 value="0.0157649165019" flag="0"/>
			<psa30 value="0.00202055805088" flag="0"/>
		</comp>
	</station>
	<station code="EZNE" name="EZNE" netid="KO" source="Bogazici University Kandilli Observatory And Earthquake Research Institute (KOERI)" insttype="" lat="39.756" lon="26.3655">
		<comp name=".HNE" depth="0.0">
			<acc value="0.014999202" flag="0"/>
			<vel value="0.004966" flag="0"/>
			<psa03 value="0.0265321285246" flag="0"/>
			<psa10 value="0.00310063491865" flag="0"/>
			<psa30 value="0.00149081032452" flag="0"/>
		</comp>
		<comp name=".HNN" depth="0.0">
			<acc value="0.024563946" flag="0"/>
			<vel value="0.005285" flag="0"/>
			<psa03 value="0.0261294486651" flag="0"/>
			<psa10 value="0.00454222881589" flag="0"/>
			<psa30 value="0.000998198629654" flag="0"/>
		</comp>
		<comp name=".HNZ" depth="0.0">
			<acc value="0.024756216" flag="0"/>
			<vel value="0.003275" flag="0"/>
			<psa03 value="0.0190601800194" flag="0"/>
			<psa10 value="0.00283486621133" flag="0"/>
			<psa30 value="0.00101520066817" flag="0"/>
		</comp>
	</station>
	<station code="FOCM" name="FOCM" netid="KO" source="Bogazici University Kandilli Observatory And Earthquake Research Institute (KOERI)" insttype="" lat="38.7131" lon="26.7309">
		<comp name=".HNE" depth="0.0">
			<acc value="0.017653242" flag="0"/>
			<vel value="0.005627" flag="0"/>
			<psa03 value="0.0319906777321" flag="0"/>
			<psa10 value="0.00366438672204" flag="0"/>
			<psa30 value="0.000237581117143" flag="0"/>
		</comp>
		<comp name=".HNN" depth="0.0">
			<acc value="0.016442094" flag="0"/>
			<vel value="0.004449" flag="0"/>
			<psa03 value="0.0187917267797" flag="0"/>
			<psa10 value="0.00310868851584" flag="0"/>
			<psa30 value="0.000455475663374" flag="0"/>
		</comp>
		<comp name=".HNZ" depth="0.0">
			<acc value="0.013378218" flag="0"/>
			<vel value="0.004998" flag="0"/>
			<psa03 value="0.0251451201195" flag="0"/>
			<psa10 value="0.00190870253434" flag="0"/>
			<psa30 value="0.000313195446328" flag="0"/>
		</comp>
	</station>
	<station code="GMLD" name="GMLD" netid="KO" source="Bogazici University Kandilli Observatory And Earthquake Research Institute (KOERI)" insttype="" lat="38.0766" lon="26.9157">
		<comp name=".HNE" depth="0.0">
			<acc value="1.817042382" flag="0"/>
			<vel value="0.557534" flag="0"/>
			<psa03 value="2.95405944976" flag="0"/>
			<psa10 value="0.289220782334" flag="0"/>
			<psa30 value="0.0177295467946" flag="0"/>
		</comp>
		<comp name=".HNN" depth="0.0">
			<acc value="1.825492164" flag="0"/>
			<vel value="0.702401" flag="0"/>
			<psa03 value="3.56380624156" flag="0"/>
			<psa10 value="0.287287919008" flag="0"/>
			<psa30 value="0.0210306267989" flag="0"/>
		</comp>
		<comp name=".HNZ" depth="0.0">
			<acc value="0.972657006" flag="0"/>
			<vel value="0.280101" flag="0"/>
			<psa03 value="1.73993493097" flag="0"/>
			<psa10 value="0.116229514665" flag="0"/>
			<psa30 value="0.00678649789986" flag="0"/>
		</comp>
	</station>
	<station code="GOMA" name="GOMA" netid="KO" source="Bogazici University Kandilli Observatory And Earthquake Research Institute (KOERI)" insttype="" lat="38.7077" lon="27.9175">
		<comp name=".HNE" depth="0.0">
			<acc value="0.009963564" flag="0"/>
			<vel value="0.004598" flag="0"/>
			<psa03 value="0.0389704619645" flag="0"/>
			<psa10 value="0.0018483005554" flag="0"/>
			<psa30 value="0.000316774822857" flag="0"/>
		</comp>
		<comp name=".HNN" depth="0.0">
			<acc value="0.011986836" flag="0"/>
			<vel value="0.005477" flag="0"/>
			<psa03 value="0.0318564511122" flag="0"/>
			<psa10 value="0.00370868150659" flag="0"/>
			<psa30 value="0.000406259236094" flag="0"/>
		</comp>
		<comp name=".HNZ" depth="0.0">
			<acc value="0.009315048" flag="0"/>
			<vel value="0.003214" flag="0"/>
			<psa03 value="0.0127067866796" flag="0"/>
			<psa10 value="0.00182413976383" flag="0"/>
			<psa30 value="0.0002460821364" flag="0"/>
		</comp>
	</station>
	<station code="GORD" name="GORD" netid="KO" source="Bogazici University Kandilli Observatory And Earthquake Research Institute (KOERI)" insttype="" lat="38.9088" lon="28.1769">
		<comp name=".HNE" depth="0.0">
			<acc value="0.01895823" flag="0"/>
			<vel value="0.015462" flag="0"/>
			<psa03 value="0.0761512356643" flag="0"/>
			<psa10 value="0.0217527660137" flag="0"/>
			<psa30 value="0.00174897285671" flag="0"/>
		</comp>
		<comp name=".HNN" depth="0.0">
			<acc value="0.017395896" flag="0"/>
			<vel value="0.014541" flag="0"/>
			<psa03 value="0.0359279919145" flag="0"/>
			<psa10 value="0.0179192537506" flag="0"/>
			<psa30 value="0.00122101481861" flag="0"/>
		</comp>
		<comp name=".HNZ" depth="0.0">
			<acc value="0.013866696" flag="0"/>
			<vel value="0.01402" flag="0"/>
			<psa03 value="0.0392389152042" flag="0"/>
			<psa10 value="0.0299191135656" flag="0"/>
			<psa30 value="0.00102504395362" flag="0"/>
		</comp>
	</station>
	<station code="KRBN" name="KRBN" netid="KO" source="Bogazici University Kandilli Observatory And Earthquake Research Institute (KOERI)" insttype="" lat="38.5936" lon="26.5537">
		<comp name=".HNE" depth="0.0">
			<acc value="0.347561022" flag="0"/>
			<vel value="0.078016" flag="0"/>
			<psa03 value="0.207022190023" flag="0"/>
			<psa10 value="0.032564720243" flag="0"/>
			<psa30 value="0.00324425740189" flag="0"/>
		</comp>
		<comp name=".HNN" depth="0.0">
			<acc value="0.165937374" flag="0"/>
			<vel value="0.058782" flag="0"/>
			<psa03 value="0.152749893395" flag="0"/>
			<psa10 value="0.0630153712232" flag="0"/>
			<psa30 value="0.00312971735295" flag="0"/>
		</comp>
		<comp name=".HNZ" depth="0.0">
			<acc value="0.105226668" flag="0"/>
			<vel value="0.033949" flag="0"/>
			<psa03 value="0.112795102885" flag="0"/>
			<psa10 value="0.0370626542743" flag="0"/>
			<psa30 value="0.00221831860413" flag="0"/>
		</comp>
	</station>
	<station code="NAZL" name="NAZL" netid="KO" source="Bogazici University Kandilli Observatory And Earthquake Research Institute (KOERI)" insttype="" lat="37.9641" lon="28.2922">
		<comp name=".HNE" depth="0.0">
			<acc value="0.030312768" flag="0"/>
			<vel value="0.016504" flag="0"/>
			<psa03 value="0.111094899033" flag="0"/>
			<psa10 value="0.0161514891671" flag="0"/>
			<psa30 value="0.000829520510703" flag="0"/>
		</comp>
		<comp name=".HNN" depth="0.0">
			<acc value="0.028798272" flag="0"/>
			<vel value="0.014875" flag="0"/>
			<psa03 value="0.0647419729766" flag="0"/>
			<psa10 value="0.0109085973956" flag="0"/>
			<psa30 value="0.00111094899033" flag="0"/>
		</comp>
		<comp name=".HNZ" depth="0.0">
			<acc value="0.015721362" flag="0"/>
			<vel value="0.007003" flag="0"/>
			<psa03 value="0.0302904738806" flag="0"/>
			<psa10 value="0.00716367470165" flag="0"/>
			<psa30 value="0.000401337593366" flag="0"/>
		</comp>
	</station>
	<station code="SOMA" name="SOMA" netid="KO" source="Bogazici University Kandilli Observatory And Earthquake Research Institute (KOERI)" insttype="" lat="39.1564" lon="27.5341">
		<comp name=".HNE" depth="0.0">
			<acc value="0.05747649" flag="0"/>
			<vel value="0.027485" flag="0"/>
			<psa03 value="0.194941794236" flag="0"/>
			<psa10 value="0.0110414817493" flag="0"/>
			<psa30 value="0.00185903868499" flag="0"/>
		</comp>
		<comp name=".HNN" depth="0.0">
			<acc value="0.100715616" flag="0"/>
			<vel value="0.036866" flag="0"/>
			<psa03 value="0.216149600173" flag="0"/>
			<psa10 value="0.0211890142103" flag="0"/>
			<psa30 value="0.00130870954358" flag="0"/>
		</comp>
		<comp name=".HNZ" depth="0.0">
			<acc value="0.036196944" flag="0"/>
			<vel value="0.017654" flag="0"/>
			<psa03 value="0.0763749466974" flag="0"/>
			<psa10 value="0.0105703463136" flag="0"/>
			<psa30 value="0.00093063789766" flag="0"/>
		</comp>
	</station>
	<station code="YKAV" name="YKAV" netid="KO" source="Bogazici University Kandilli Observatory And Earthquake Research Institute (KOERI)" insttype="" lat="37.1246" lon="27.2801">
		<comp name=".HNE" depth="0.0">
			<acc value="0.022117782" flag="0"/>
			<vel value="0.010371" flag="0"/>
			<psa03 value="0.0477399344617" flag="0"/>
			<psa10 value="0.00898781446548" flag="0"/>
			<psa30 value="0.000927505943197" flag="0"/>
		</comp>
		<comp name=".HNN" depth="0.0">
			<acc value="0.01414179" flag="0"/>
			<vel value="0.007945" flag="0"/>
			<psa03 value="0.0357937652946" flag="0"/>
			<psa10 value="0.00615294825414" flag="0"/>
			<psa30 value="0.000331539751041" flag="0"/>
		</comp>
		<comp name=".HNZ" depth="0.0">
			<acc value="0.010900332" flag="0"/>
			<vel value="0.003492" flag="0"/>
			<psa03 value="0.0165993586554" flag="0"/>
			<psa10 value="0.00222681962339" flag="0"/>
			<psa30 value="0.000352568588152" flag="0"/>
		</comp>
	</station>
</stationlist>
