<stationlist created="1631873502">
	<station code="KRL1" name="KRL1" netid="HI" source="ITSAK Strong Motion Network" insttype="" lat="37.7951" lon="26.7065">
		<comp name="--.HNE" depth="0.0">
			<acc value="-2.01517422" flag="0"/>
			<vel value="-0.495487" flag="0"/>
			<psa03 value="1.91304252838" flag="0"/>
			<psa10 value="0.118520763066" flag="0"/>
			<psa30 value="0.0148221982085" flag="0"/>
		</comp>
		<comp name="--.HNN" depth="0.0">
			<acc value="1.61474211" flag="0"/>
			<vel value="-0.422126" flag="0"/>
			<psa03 value="1.88838957253" flag="0"/>
			<psa10 value="0.0909935678658" flag="0"/>
			<psa30 value="0.0133640496948" flag="0"/>
		</comp>
		<comp name="--.HNZ" depth="0.0">
			<acc value="-1.021400358" flag="0"/>
			<vel value="-0.138089" flag="0"/>
			<psa03 value="0.343888600068" flag="0"/>
			<psa10 value="0.0542651378749" flag="0"/>
			<psa30 value="0.003204436838" flag="0"/>
		</comp>
	</station>
	<station code="KLNA" name="KLNA" netid="HL" source="National Observatory of Athens Seismic Network" insttype="" lat="36.95708" lon="26.97274">
		<comp name="--.HNE" depth="0.0">
			<acc value="-0.04761207" flag="0"/>
			<vel value="0.015475" flag="0"/>
			<psa03 value="0.0908266794351" flag="0"/>
			<psa10 value="0.00346707359085" flag="0"/>
			<psa30 value="0.000374939691461" flag="0"/>
		</comp>
		<comp name="--.HNN" depth="0.0">
			<acc value="0.028911288" flag="0"/>
			<vel value="0.009324" flag="0"/>
			<psa03 value="0.0783883459952" flag="0"/>
			<psa10 value="0.00292345578044" flag="0"/>
			<psa30 value="0.000263979019048" flag="0"/>
		</comp>
		<comp name="--.HNZ" depth="0.0">
			<acc value="0.057736692" flag="0"/>
			<vel value="0.01239" flag="0"/>
			<psa03 value="0.0373150003196" flag="0"/>
			<psa10 value="0.003515395174" flag="0"/>
			<psa30 value="0.000248766668798" flag="0"/>
		</comp>
	</station>
	<station code="GMLD" name="GMLD" netid="KO" source="Bogazici University Kandilli Observatory And Earthquake Research Institute (KOERI)" insttype="" lat="38.0766" lon="26.9157">
		<comp name="--.HNE" depth="0.0">
			<acc value="-1.817042382" flag="0"/>
			<vel value="0.557534" flag="0"/>
			<psa03 value="2.95405944976" flag="0"/>
			<psa10 value="0.289220782334" flag="0"/>
			<psa30 value="0.0177295467946" flag="0"/>
		</comp>
		<comp name="--.HNN" depth="0.0">
			<acc value="1.825492164" flag="0"/>
			<vel value="0.702401" flag="0"/>
			<psa03 value="3.56380624156" flag="0"/>
			<psa10 value="0.287287919008" flag="0"/>
			<psa30 value="0.0210306267989" flag="0"/>
		</comp>
		<comp name="--.HNZ" depth="0.0">
			<acc value="0.972657006" flag="0"/>
			<vel value="-0.280101" flag="0"/>
			<psa03 value="1.73993493097" flag="0"/>
			<psa10 value="0.116229514665" flag="0"/>
			<psa30 value="0.00678649789986" flag="0"/>
		</comp>
	</station>
</stationlist>
