<stationlist created="1742293923">
	<station code="T1811" name="T1811" netid="3Q" source="XVIII-INGV SISMIKO Emergency Seismic Network (XVIII-ISESN) (XVIII-ISESN)" insttype="" lat="39.56904" lon="16.77169">
		<comp name="00.HNE" depth="0.0">
			<acc value="0.014262760085052" flag="0"/>
			<vel value="0.00745797746328" flag="0"/>
			<psa03 value="0.0243639837860371" flag="0"/>
			<psa10 value="0.00862026292510777" flag="0"/>
			<psa30 value="0.00428034480183687" flag="0"/>
		</comp>
		<comp name="00.HNN" depth="0.0">
			<acc value="0.015557927011992" flag="0"/>
			<vel value="0.00783494682567" flag="0"/>
			<psa03 value="0.0281895445022955" flag="0"/>
			<psa10 value="0.00823334041838866" flag="0"/>
			<psa30 value="0.00338115335981471" flag="0"/>
		</comp>
		<comp name="00.HNZ" depth="0.0">
			<acc value="0.011542724364516" flag="0"/>
			<vel value="0.00553829354122" flag="0"/>
			<psa03 value="0.0203171284621493" flag="0"/>
			<psa10 value="0.00611676676826098" flag="0"/>
			<psa30 value="0.00194779590691781" flag="0"/>
		</comp>
	</station>
	<station code="T1812" name="T1812" netid="3Q" source="XVIII-INGV SISMIKO Emergency Seismic Network (XVIII-ISESN) (XVIII-ISESN)" insttype="" lat="39.48464" lon="16.50149">
		<comp name="01.HNE" depth="0.0">
			<acc value="0.01496640034122" flag="0"/>
			<vel value="0.00904841931071" flag="0"/>
			<psa03 value="0.0300409848594952" flag="0"/>
			<psa10 value="0.0116701646536517" flag="0"/>
			<psa30 value="0.00308212125873893" flag="0"/>
		</comp>
		<comp name="01.HNN" depth="0.0">
			<acc value="0.016901062744548" flag="0"/>
			<vel value="0.0117813897209" flag="0"/>
			<psa03 value="0.0224445311108889" flag="0"/>
			<psa10 value="0.00774714461654278" flag="0"/>
			<psa30 value="0.00422823384974037" flag="0"/>
		</comp>
		<comp name="01.HNZ" depth="0.0">
			<acc value="0.014171622065052" flag="0"/>
			<vel value="0.00893642706302" flag="0"/>
			<psa03 value="0.0162446842035059" flag="0"/>
			<psa10 value="0.00866433678229447" flag="0"/>
			<psa30 value="0.00387303948652278" flag="0"/>
		</comp>
	</station>
	<station code="T1813" name="T1813" netid="3Q" source="XVIII-INGV SISMIKO Emergency Seismic Network (XVIII-ISESN) (XVIII-ISESN)" insttype="" lat="39.31469" lon="16.75119">
		<comp name="00.HNE" depth="0.0">
			<acc value="0.0027513858278118" flag="0"/>
			<vel value="0.00160749165178" flag="0"/>
			<psa03 value="0.00669932335458261" flag="0"/>
			<psa10 value="0.00299859997065551" flag="0"/>
			<psa30 value="0.00065579797464606" flag="0"/>
		</comp>
		<comp name="00.HNN" depth="0.0">
			<acc value="0.002704995936153" flag="0"/>
			<vel value="0.00273583528994" flag="0"/>
			<psa03 value="0.0049852817478312" flag="0"/>
			<psa10 value="0.00399361987021872" flag="0"/>
			<psa30 value="0.00103007521659326" flag="0"/>
		</comp>
		<comp name="00.HNZ" depth="0.0">
			<acc value="0.001809741156108" flag="0"/>
			<vel value="0.00178884683466" flag="0"/>
			<psa03 value="0.00356690783961586" flag="0"/>
			<psa10 value="0.00209026612612369" flag="0"/>
			<psa30 value="0.000804846598385025" flag="0"/>
		</comp>
	</station>
	<station code="T1886" name="T1886" netid="3Q" source="XVIII-INGV SISMIKO Emergency Seismic Network (XVIII-ISESN) (XVIII-ISESN)" insttype="" lat="39.287" lon="16.97583">
		<comp name="00.HNE" depth="0.0">
			<acc value="0.01366526320995" flag="0"/>
			<vel value="0.00840199922241" flag="0"/>
			<psa03 value="0.0244599823329727" flag="0"/>
			<psa10 value="0.00730652136493931" flag="0"/>
			<psa30 value="0.00297727160463111" flag="0"/>
		</comp>
		<comp name="00.HNN" depth="0.0">
			<acc value="0.013887969125304" flag="0"/>
			<vel value="0.00782584995514" flag="0"/>
			<psa03 value="0.0217684628871651" flag="0"/>
			<psa10 value="0.00670238259372086" flag="0"/>
			<psa30 value="0.00304354995357893" flag="0"/>
		</comp>
		<comp name="00.HNZ" depth="0.0">
			<acc value="0.012526906514634" flag="0"/>
			<vel value="0.00746242388767" flag="0"/>
			<psa03 value="0.0159608515989423" flag="0"/>
			<psa10 value="0.007511618232859" flag="0"/>
			<psa30 value="0.00275202293301509" flag="0"/>
		</comp>
	</station>
	<station code="CSMBE" name="CSMBE" netid="7C" source="Urban Seismic Network (RUSN-CAL-INGV)" insttype="" lat="39.2895" lon="16.2642">
		<comp name=".HNE" depth="0.0">
			<acc value="0.0085625850254178" flag="0"/>
			<vel value="0.00631975909339" flag="0"/>
			<psa03 value="0.0283955399193468" flag="0"/>
			<psa10 value="0.00681808057060851" flag="0"/>
			<psa30 value="0.00106427612807089" flag="0"/>
		</comp>
		<comp name=".HNN" depth="0.0">
			<acc value="0.009917626869654" flag="0"/>
			<vel value="0.00511669663065" flag="0"/>
			<psa03 value="0.0226048203750885" flag="0"/>
			<psa10 value="0.00742329613193222" flag="0"/>
			<psa30 value="0.000712683097175478" flag="0"/>
		</comp>
		<comp name=".HNZ" depth="0.0">
			<acc value="0.0075667890125202" flag="0"/>
			<vel value="0.00277525912862" flag="0"/>
			<psa03 value="0.00914600105996898" flag="0"/>
			<psa10 value="0.003372867264029" flag="0"/>
			<psa30 value="0.000423212619092244" flag="0"/>
		</comp>
	</station>
	<station code="MARCO" name="MARCO" netid="GE" source="GEOFON" insttype="" lat="40.29724" lon="15.80632">
		<comp name=".HLE" depth="1.0">
			<acc value="0.24369371207286" flag="0"/>
			<vel value="0.0942899841037" flag="0"/>
			<psa03 value="0.297669010777775" flag="0"/>
			<psa10 value="0.0341781853870378" flag="0"/>
			<psa30 value="0.00625148829707242" flag="0"/>
		</comp>
		<comp name=".HLN" depth="1.0">
			<acc value="0.36298731476982" flag="0"/>
			<vel value="0.0930488179359" flag="0"/>
			<psa03 value="0.427891095685135" flag="0"/>
			<psa10 value="0.0416830812997572" flag="0"/>
			<psa30 value="0.00608492934669828" flag="0"/>
		</comp>
		<comp name=".HLZ" depth="1.0">
			<acc value="0.089651944033866" flag="0"/>
			<vel value="0.0332732074304" flag="0"/>
			<psa03 value="0.114410641643354" flag="0"/>
			<psa10 value="0.0109035623074957" flag="0"/>
			<psa30 value="0.00193208549117962" flag="0"/>
		</comp>
	</station>
	<station code="ALT" name="ALT" netid="IT" source="Italian Strong Motion Network (RAN)" insttype="" lat="40.5583" lon="15.3921">
		<comp name=".HGE" depth="0.0">
			<acc value="0.021308093208996" flag="0"/>
			<vel value="0.0157784007098" flag="0"/>
			<psa03 value="0.0422152835345352" flag="0"/>
			<psa10 value="0.0226823932222481" flag="0"/>
			<psa30 value="0.00453796270107139" flag="0"/>
		</comp>
		<comp name=".HGN" depth="0.0">
			<acc value="0.02200554384282" flag="0"/>
			<vel value="0.0207789965384" flag="0"/>
			<psa03 value="0.048004107119645" flag="0"/>
			<psa10 value="0.0299359306084665" flag="0"/>
			<psa30 value="0.0033535665323227" flag="0"/>
		</comp>
		<comp name=".HGZ" depth="0.0">
			<acc value="0.022205582436384" flag="0"/>
			<vel value="0.0177341777917" flag="0"/>
			<psa03 value="0.0415924297735333" flag="0"/>
			<psa10 value="0.0299194613924877" flag="0"/>
			<psa30 value="0.00404593385659434" flag="0"/>
		</comp>
	</station>
	<station code="BCN" name="BCN" netid="IT" source="Italian Strong Motion Network (RAN)" insttype="" lat="40.6343" lon="15.3823">
		<comp name=".HNE" depth="0.0">
			<acc value="0.05629958665839" flag="0"/>
			<vel value="0.0234756189569" flag="0"/>
			<psa03 value="0.0931817457499864" flag="0"/>
			<psa10 value="0.0465398330356813" flag="0"/>
			<psa30 value="0.00412438863717362" flag="0"/>
		</comp>
		<comp name=".HNN" depth="0.0">
			<acc value="0.04840205687574" flag="0"/>
			<vel value="0.0227383623854" flag="0"/>
			<psa03 value="0.0842827083158517" flag="0"/>
			<psa10 value="0.0424447867586634" flag="0"/>
			<psa30 value="0.00391243792980967" flag="0"/>
		</comp>
		<comp name=".HNZ" depth="0.0">
			<acc value="0.03014588594331" flag="0"/>
			<vel value="0.0151714236147" flag="0"/>
			<psa03 value="0.0610950316208246" flag="0"/>
			<psa10 value="0.0296631375372947" flag="0"/>
			<psa30 value="0.00637936676840313" flag="0"/>
		</comp>
	</station>
	<station code="BEL7" name="BEL7" netid="IT" source="Italian Strong Motion Network (RAN)" insttype="" lat="40.7589" lon="15.5396">
		<comp name=".HNE" depth="0.0">
			<acc value="0.21231457280124" flag="0"/>
			<vel value="0.0914417821884" flag="0"/>
			<psa03 value="0.543793481983929" flag="0"/>
			<psa10 value="0.0852849172070235" flag="0"/>
			<psa30 value="0.00701889246716783" flag="0"/>
		</comp>
		<comp name=".HNN" depth="0.0">
			<acc value="0.20705695164228" flag="0"/>
			<vel value="0.0809078038552" flag="0"/>
			<psa03 value="0.373431571342393" flag="0"/>
			<psa10 value="0.0633018009336158" flag="0"/>
			<psa30 value="0.00697291108782227" flag="0"/>
		</comp>
		<comp name=".HNZ" depth="0.0">
			<acc value="0.08683554635262" flag="0"/>
			<vel value="0.035451449238" flag="0"/>
			<psa03 value="0.177506217249092" flag="0"/>
			<psa10 value="0.0724235152026328" flag="0"/>
			<psa30 value="0.00335124054490479" flag="0"/>
		</comp>
	</station>
	<station code="BRN" name="BRN" netid="IT" source="Italian Strong Motion Network (RAN)" insttype="" lat="40.4726" lon="15.6431">
		<comp name=".HGE" depth="0.0">
			<acc value="0.4536314965566" flag="0"/>
			<vel value="0.123489249868" flag="0"/>
			<psa03 value="0.429897770284335" flag="0"/>
			<psa10 value="0.083866363235122" flag="0"/>
			<psa30 value="0.0132264578545832" flag="0"/>
		</comp>
		<comp name=".HGN" depth="0.0">
			<acc value="0.2715899446932" flag="0"/>
			<vel value="0.130368919162" flag="0"/>
			<psa03 value="0.338531488549863" flag="0"/>
			<psa10 value="0.135715955515937" flag="0"/>
			<psa30 value="0.0229331842108826" flag="0"/>
		</comp>
		<comp name=".HGZ" depth="0.0">
			<acc value="0.14831613224988" flag="0"/>
			<vel value="0.0682044256522" flag="0"/>
			<psa03 value="0.265161607321587" flag="0"/>
			<psa10 value="0.13716370142198" flag="0"/>
			<psa30 value="0.011546378224235" flag="0"/>
		</comp>
	</station>
	<station code="CLM" name="CLM" netid="IT" source="Italian Strong Motion Network (RAN)" insttype="" lat="40.4355" lon="15.3834">
		<comp name=".HNE" depth="0.0">
			<acc value="0.11898255715782" flag="0"/>
			<vel value="0.0280761643295" flag="0"/>
			<psa03 value="0.0856192916496921" flag="0"/>
			<psa10 value="0.0276617218283232" flag="0"/>
			<psa30 value="0.00284692213628794" flag="0"/>
		</comp>
		<comp name=".HNN" depth="0.0">
			<acc value="0.18057960753024" flag="0"/>
			<vel value="0.0398766160048" flag="0"/>
			<psa03 value="0.102534709087971" flag="0"/>
			<psa10 value="0.0251174014045555" flag="0"/>
			<psa30 value="0.00270806543771287" flag="0"/>
		</comp>
		<comp name=".HNZ" depth="0.0">
			<acc value="0.08370378180003" flag="0"/>
			<vel value="0.0199691625238" flag="0"/>
			<psa03 value="0.0332778347015693" flag="0"/>
			<psa10 value="0.0264270612881117" flag="0"/>
			<psa30 value="0.00333707356474659" flag="0"/>
		</comp>
	</station>
	<station code="CLT" name="CLT" netid="IT" source="Italian Strong Motion Network (RAN)" insttype="" lat="40.8988" lon="15.4388">
		<comp name=".HGE" depth="0.0">
			<acc value="0.058052857813374" flag="0"/>
			<vel value="0.0593608593788" flag="0"/>
			<psa03 value="0.144787987326966" flag="0"/>
			<psa10 value="0.0859250621136775" flag="0"/>
			<psa30 value="0.017912771633189" flag="0"/>
		</comp>
		<comp name=".HGN" depth="0.0">
			<acc value="0.065100663249936" flag="0"/>
			<vel value="0.0493692015191" flag="0"/>
			<psa03 value="0.151483941317689" flag="0"/>
			<psa10 value="0.0789357316046951" flag="0"/>
			<psa30 value="0.0109843768277339" flag="0"/>
		</comp>
		<comp name=".HGZ" depth="0.0">
			<acc value="0.033509351819916" flag="0"/>
			<vel value="0.0272629261578" flag="0"/>
			<psa03 value="0.0843222369762169" flag="0"/>
			<psa10 value="0.0744340908931726" flag="0"/>
			<psa30 value="0.00973848929378371" flag="0"/>
		</comp>
	</station>
	<station code="COP" name="COP" netid="IT" source="Italian Strong Motion Network (RAN)" insttype="" lat="40.3782" lon="16.0406">
		<comp name=".HNE" depth="0.0">
			<acc value="0.37898291177172" flag="0"/>
			<vel value="0.151321656364" flag="0"/>
			<psa03 value="1.20760774808707" flag="0"/>
			<psa10 value="0.104417529648961" flag="0"/>
			<psa30 value="0.00939600410582183" flag="0"/>
		</comp>
		<comp name=".HNN" depth="0.0">
			<acc value="0.44540007777228" flag="0"/>
			<vel value="0.22710125487" flag="0"/>
			<psa03 value="0.95709273603168" flag="0"/>
			<psa10 value="0.0824685031334165" flag="0"/>
			<psa30 value="0.0115503168184919" flag="0"/>
		</comp>
		<comp name=".HNZ" depth="0.0">
			<acc value="0.20205650576082" flag="0"/>
			<vel value="0.0725976947794" flag="0"/>
			<psa03 value="0.454834255538214" flag="0"/>
			<psa10 value="0.0412232295867446" flag="0"/>
			<psa30 value="0.00718533932681565" flag="0"/>
		</comp>
	</station>
	<station code="GNL" name="GNL" netid="IT" source="Italian Strong Motion Network (RAN)" insttype="" lat="40.8433" lon="16.0331">
		<comp name=".HGE" depth="0.0">
			<acc value="0.67986678139686" flag="0"/>
			<vel value="0.216767483583" flag="0"/>
			<psa03 value="1.16263893578943" flag="0"/>
			<psa10 value="0.113585371973462" flag="0"/>
			<psa30 value="0.014767406601564" flag="0"/>
		</comp>
		<comp name=".HGN" depth="0.0">
			<acc value="0.81313205882328" flag="0"/>
			<vel value="0.262058960062" flag="0"/>
			<psa03 value="1.80474872241101" flag="0"/>
			<psa10 value="0.125119583558488" flag="0"/>
			<psa30 value="0.0163091020646536" flag="0"/>
		</comp>
		<comp name=".HGZ" depth="0.0">
			<acc value="0.36323940996792" flag="0"/>
			<vel value="0.0817225841296" flag="0"/>
			<psa03 value="0.324780265098458" flag="0"/>
			<psa10 value="0.100537890141823" flag="0"/>
			<psa30 value="0.0141602113778593" flag="0"/>
		</comp>
	</station>
	<station code="GRM" name="GRM" netid="IT" source="Italian Strong Motion Network (RAN)" insttype="" lat="40.3102" lon="15.886">
		<comp name=".HGE" depth="0.0">
			<acc value="0.4845320051877" flag="0"/>
			<vel value="0.207589010088" flag="0"/>
			<psa03 value="0.972215487838668" flag="0"/>
			<psa10 value="0.167149787853012" flag="0"/>
			<psa30 value="0.00955927242152826" flag="0"/>
		</comp>
		<comp name=".HGN" depth="0.0">
			<acc value="0.83095605527274" flag="0"/>
			<vel value="0.331514611794" flag="0"/>
			<psa03 value="1.5920592994487" flag="0"/>
			<psa10 value="0.111716908196968" flag="0"/>
			<psa30 value="0.0114213082722645" flag="0"/>
		</comp>
		<comp name=".HGZ" depth="0.0">
			<acc value="0.22816384477392" flag="0"/>
			<vel value="0.121760824648" flag="0"/>
			<psa03 value="0.488393103644082" flag="0"/>
			<psa10 value="0.0737197660725676" flag="0"/>
			<psa30 value="0.00677780274618087" flag="0"/>
		</comp>
	</station>
	<station code="GRO" name="GRO" netid="IT" source="Italian Strong Motion Network (RAN)" insttype="" lat="40.6002" lon="16.3856">
		<comp name=".HGE" depth="0.0">
			<acc value="0.319417616418" flag="0"/>
			<vel value="0.0754514348949" flag="0"/>
			<psa03 value="0.381634531414743" flag="0"/>
			<psa10 value="0.0985687246942308" flag="0"/>
			<psa30 value="0.0154955698388053" flag="0"/>
		</comp>
		<comp name=".HGN" depth="0.0">
			<acc value="0.23302242782322" flag="0"/>
			<vel value="0.0729896891279" flag="0"/>
			<psa03 value="0.321919742269624" flag="0"/>
			<psa10 value="0.0574031364260541" flag="0"/>
			<psa30 value="0.0207591418579155" flag="0"/>
		</comp>
		<comp name=".HGZ" depth="0.0">
			<acc value="0.40619616211776" flag="0"/>
			<vel value="0.0769194404451" flag="0"/>
			<psa03 value="0.239349168207728" flag="0"/>
			<psa10 value="0.0453870329182457" flag="0"/>
			<psa30 value="0.00680655590092901" flag="0"/>
		</comp>
	</station>
	<station code="GSS" name="GSS" netid="IT" source="Italian Strong Motion Network (RAN)" insttype="" lat="40.6316" lon="16.2791">
		<comp name=".HGE" depth="0.0">
			<acc value="0.7866614465817" flag="0"/>
			<vel value="0.141981625103" flag="0"/>
			<psa03 value="0.647002277390366" flag="0"/>
			<psa10 value="0.0875156849844259" flag="0"/>
			<psa30 value="0.0188212701501125" flag="0"/>
		</comp>
		<comp name=".HGN" depth="0.0">
			<acc value="1.5160699879386" flag="0"/>
			<vel value="0.267679884257" flag="0"/>
			<psa03 value="0.558600504539738" flag="0"/>
			<psa10 value="0.101647011115434" flag="0"/>
			<psa30 value="0.0206301866486042" flag="0"/>
		</comp>
		<comp name=".HGZ" depth="0.0">
			<acc value="0.55308303361296" flag="0"/>
			<vel value="0.101762258581" flag="0"/>
			<psa03 value="0.349677914445847" flag="0"/>
			<psa10 value="0.0632120424875627" flag="0"/>
			<psa30 value="0.0148231036245457" flag="0"/>
		</comp>
	</station>
	<station code="LVN1" name="LVN1" netid="IT" source="Italian Strong Motion Network (RAN)" insttype="" lat="40.7842" lon="15.3046">
		<comp name=".HNE" depth="0.0">
			<acc value="0.034000455440574" flag="0"/>
			<vel value="0.0229338375806" flag="0"/>
			<psa03 value="0.0449306170579358" flag="0"/>
			<psa10 value="0.043333981913442" flag="0"/>
			<psa30 value="0.00319232439248967" flag="0"/>
		</comp>
		<comp name=".HNN" depth="0.0">
			<acc value="0.039053057640444" flag="0"/>
			<vel value="0.024233360796" flag="0"/>
			<psa03 value="0.0751417798574289" flag="0"/>
			<psa10 value="0.0383189021892072" flag="0"/>
			<psa30 value="0.00359530067102529" flag="0"/>
		</comp>
		<comp name=".HNZ" depth="0.0">
			<acc value="0.023009769737232" flag="0"/>
			<vel value="0.0132833877598" flag="0"/>
			<psa03 value="0.048460673823517" flag="0"/>
			<psa10 value="0.0362390969123353" flag="0"/>
			<psa30 value="0.00392946030746061" flag="0"/>
		</comp>
	</station>
	<station code="MLF" name="MLF" netid="IT" source="Italian Strong Motion Network (RAN)" insttype="" lat="40.9971" lon="15.6459">
		<comp name=".HNE" depth="0.0">
			<acc value="0.26250795275694" flag="0"/>
			<vel value="0.083467590864" flag="0"/>
			<psa03 value="0.290646212218298" flag="0"/>
			<psa10 value="0.0672887875520706" flag="0"/>
			<psa30 value="0.0120002991276065" flag="0"/>
		</comp>
		<comp name=".HNN" depth="0.0">
			<acc value="0.25434563241504" flag="0"/>
			<vel value="0.0529973662439" flag="0"/>
			<psa03 value="0.280000340315001" flag="0"/>
			<psa10 value="0.0625135512158122" flag="0"/>
			<psa30 value="0.00771607948574324" flag="0"/>
		</comp>
		<comp name=".HNZ" depth="0.0">
			<acc value="0.21217816007592" flag="0"/>
			<vel value="0.0466773914368" flag="0"/>
			<psa03 value="0.143066029505445" flag="0"/>
			<psa10 value="0.0394748637659918" flag="0"/>
			<psa30 value="0.00731114016049383" flag="0"/>
		</comp>
	</station>
	<station code="MLR" name="MLR" netid="IT" source="Italian Strong Motion Network (RAN)" insttype="" lat="40.2402" lon="15.8631">
		<comp name=".HNE" depth="0.0">
			<acc value="0.1753477421424" flag="0"/>
			<vel value="0.0639240757422" flag="0"/>
			<psa03 value="0.393109291561407" flag="0"/>
			<psa10 value="0.0171434806714621" flag="0"/>
			<psa30 value="0.00506637645590138" flag="0"/>
		</comp>
		<comp name=".HNN" depth="0.0">
			<acc value="0.10340681767836" flag="0"/>
			<vel value="0.038677997729" flag="0"/>
			<psa03 value="0.244296912637971" flag="0"/>
			<psa10 value="0.0161061432029519" flag="0"/>
			<psa30 value="0.00574375716236851" flag="0"/>
		</comp>
		<comp name=".HNZ" depth="0.0">
			<acc value="0.10583241826722" flag="0"/>
			<vel value="0.0343144898085" flag="0"/>
			<psa03 value="0.119623268204242" flag="0"/>
			<psa10 value="0.0179052723864076" flag="0"/>
			<psa30 value="0.00480065760335318" flag="0"/>
		</comp>
	</station>
	<station code="MMR7" name="MMR7" netid="IT" source="Italian Strong Motion Network (RAN)" insttype="" lat="40.297" lon="15.9887">
		<comp name=".HNE" depth="0.0">
			<acc value="1.5613226490084" flag="0"/>
			<vel value="0.591278525859" flag="0"/>
			<psa03 value="4.06812015966414" flag="0"/>
			<psa10 value="0.136125617654201" flag="0"/>
			<psa30 value="0.013578256159519" flag="0"/>
		</comp>
		<comp name=".HNN" depth="0.0">
			<acc value="0.74936142164778" flag="0"/>
