<?xml version="1.0" encoding="UTF-8" standalone="yes"?>
<!DOCTYPE earthquake SYSTEM "stationlist.dtd">
<stationlist created="" xmlns="ch.ethz.sed.shakemap.usgs.xml">
  <station code="MARCO" name="MARCO" netid="GE" insttype="VBB" commtype="DIG" lat="40.2972" lon="15.8063">
    <comp name="--.HHE">
      <acc value="0.2531046635" flag="0"/>
      <vel value="0.0902809061" flag="0"/>
      <psa03 value="0.2984986441" flag="0"/>
      <psa10 value="0.0330281057" flag="0"/>
      <psa30 value="0.0060079617" flag="0"/>
    </comp>
    <comp name="--.HHN">
      <acc value="0.3845832981" flag="0"/>
      <vel value="0.0953796026" flag="0"/>
      <psa03 value="0.4240911025" flag="0"/>
      <psa10 value="0.0407380792" flag="0"/>
      <psa30 value="0.0056265535" flag="0"/>
    </comp>
    <comp name="--.HHZ">
      <acc value="0.1792656839" flag="0"/>
      <vel value="0.0673440875" flag="0"/>
      <psa03 value="0.2271510164" flag="0"/>
      <psa10 value="0.0211652647" flag="0"/>
      <psa30 value="0.0033817688" flag="0"/>
    </comp>
  </station>
  <station code="MATE" name="MATE" netid="GE" insttype="STS-2/N" commtype="DIG" lat="40.6491" lon="16.7044">
    <comp name="--.HHE">
      <acc value="0.1349755487" flag="0"/>
      <vel value="0.0320344115" flag="0"/>
      <psa03 value="0.1955854088" flag="0"/>
      <psa10 value="0.0080894804" flag="0"/>
      <psa30 value="0.0008125556" flag="0"/>
    </comp>
    <comp name="--.HHN">
      <acc value="0.2192314315" flag="0"/>
      <vel value="0.0795205568" flag="0"/>
      <psa03 value="0.4367510841" flag="0"/>
      <psa10 value="0.0253293791" flag="0"/>
      <psa30 value="0.0027328734" flag="0"/>
    </comp>
    <comp name="--.HHZ">
      <acc value="0.0676467595" flag="0"/>
      <vel value="0.0180795882" flag="0"/>
      <psa03 value="0.0837412203" flag="0"/>
      <psa10 value="0.0060662181" flag="0"/>
      <psa30 value="0.0008991214" flag="0"/>
    </comp>
  </station>
  <station code="CAMPI" name="CAMPI" netid="GX" insttype="Trillium Compact" commtype="DIG" lat="40.7071" lon="15.2738">
    <comp name="--.HHE">
      <acc value="0.0903937113" flag="0"/>
      <vel value="0.0571763922" flag="0"/>
      <psa03 value="0.2092997552" flag="0"/>
      <psa10 value="0.0596830198" flag="0"/>
      <psa30 value="0.0043459701" flag="0"/>
    </comp>
    <comp name="--.HHN">
      <acc value="0.0626445475" flag="0"/>
      <vel value="0.0441011330" flag="0"/>
      <psa03 value="0.1489306113" flag="0"/>
      <psa10 value="0.0680141477" flag="0"/>
      <psa30 value="0.0066238564" flag="0"/>
    </comp>
    <comp name="--.HHZ">
      <acc value="0.0357081475" flag="0"/>
      <vel value="0.0230795764" flag="0"/>
      <psa03 value="0.0831286029" flag="0"/>
      <psa10 value="0.0446099287" flag="0"/>
      <psa30 value="0.0033614518" flag="0"/>
    </comp>
  </station>
  <station code="ACER" name="ACER" netid="IV" insttype="" commtype="DIG" lat="40.7867" lon="15.9427">
    <comp name="--.HHE">
      <acc value="0.4484681381" flag="0"/>
      <vel value="0.1708488921" flag="0"/>
      <psa03 value="1.3668491045" flag="0"/>
      <psa10 value="0.2474705461" flag="0"/>
      <psa30 value="0.0193886928" flag="0"/>
    </comp>
    <comp name="--.HHN">
      <acc value="0.3655679109" flag="0"/>
      <vel value="0.1311942734" flag="0"/>
      <psa03 value="0.4928401496" flag="0"/>
      <psa10 value="0.2067609661" flag="0"/>
      <psa30 value="0.0153404163" flag="0"/>
    </comp>
    <comp name="--.HHZ">
      <acc value="0.3025111002" flag="0"/>
      <vel value="0.1646508661" flag="0"/>
      <psa03 value="0.5929634832" flag="0"/>
      <psa10 value="0.1314529117" flag="0"/>
      <psa30 value="0.0208459310" flag="0"/>
    </comp>
  </station>
  <station code="AMUR" name="AMUR" netid="IV" insttype="" commtype="DIG" lat="40.9071" lon="16.6041">
    <comp name="--.HHE">
      <acc value="0.0645094439" flag="0"/>
      <vel value="0.0211606308" flag="0"/>
      <psa03 value="0.0845487226" flag="0"/>
      <psa10 value="0.0122083205" flag="0"/>
      <psa30 value="0.0010076184" flag="0"/>
    </comp>
    <comp name="--.HHN">
      <acc value="0.0757153692" flag="0"/>
      <vel value="0.0221005138" flag="0"/>
      <psa03 value="0.1415201069" flag="0"/>
      <psa10 value="0.0129321356" flag="0"/>
      <psa30 value="0.0016154233" flag="0"/>
    </comp>
    <comp name="--.HHZ">
      <acc value="0.0373179504" flag="0"/>
      <vel value="0.0121065462" flag="0"/>
      <psa03 value="0.0552871057" flag="0"/>
      <psa10 value="0.0105132555" flag="0"/>
      <psa30 value="0.0009332801" flag="0"/>
    </comp>
  </station>
  <station code="APRC" name="APRC" netid="IV" insttype="" commtype="DIG" lat="41.7574" lon="15.5431">
    <comp name="--.HHE">
      <acc value="0.0315807578" flag="0"/>
      <vel value="0.0102179896" flag="0"/>
      <psa03 value="0.0580417640" flag="0"/>
      <psa10 value="0.0108314877" flag="0"/>
      <psa30 value="0.0016725489" flag="0"/>
    </comp>
    <comp name="--.HHZ">
      <acc value="0.0123101797" flag="0"/>
      <vel value="0.0053622685" flag="0"/>
      <psa03 value="0.0286764646" flag="0"/>
      <psa10 value="0.0111469834" flag="0"/>
      <psa30 value="0.0006159647" flag="0"/>
    </comp>
    <comp name="--.HHN">
      <acc value="0.0316091402" flag="0"/>
      <vel value="0.0114901651" flag="0"/>
      <psa03 value="0.0513993836" flag="0"/>
      <psa10 value="0.0126160432" flag="0"/>
      <psa30 value="0.0010669094" flag="0"/>
    </comp>
  </station>
  <station code="BULG" name="BULG" netid="IV" insttype="" commtype="DIG" lat="40.0783" lon="15.3776">
    <comp name="--.HHZ">
      <acc value="0.0104082841" flag="0"/>
      <vel value="0.0061475616" flag="0"/>
      <psa03 value="0.0310370197" flag="0"/>
      <psa10 value="0.0081106871" flag="0"/>
      <psa30 value="0.0029255140" flag="0"/>
    </comp>
    <comp name="--.HHE">
      <acc value="0.0269332000" flag="0"/>
      <vel value="0.0189250137" flag="0"/>
      <psa03 value="0.0831004430" flag="0"/>
      <psa10 value="0.0142916521" flag="0"/>
      <psa30 value="0.0023500166" flag="0"/>
    </comp>
    <comp name="--.HHN">
      <acc value="0.0384576985" flag="0"/>
      <vel value="0.0201409171" flag="0"/>
      <psa03 value="0.1597989776" flag="0"/>
      <psa10 value="0.0276601159" flag="0"/>
      <psa30 value="0.0026243588" flag="0"/>
    </comp>
  </station>
  <station code="CAFE" name="CAFE" netid="IV" insttype="" commtype="DIG" lat="41.028" lon="15.2366">
    <comp name="--.HHE">
      <acc value="0.0367505635" flag="0"/>
      <vel value="0.0122626619" flag="0"/>
      <psa03 value="0.1016644294" flag="0"/>
      <psa10 value="0.0233278400" flag="0"/>
      <psa30 value="0.0057188374" flag="0"/>
    </comp>
    <comp name="--.HHN">
      <acc value="0.0177820911" flag="0"/>
      <vel value="0.0103510016" flag="0"/>
      <psa03 value="0.0446794632" flag="0"/>
      <psa10 value="0.0182707414" flag="0"/>
      <psa30 value="0.0030563404" flag="0"/>
    </comp>
    <comp name="--.HHZ">
      <acc value="0.0175808982" flag="0"/>
      <vel value="0.0084505120" flag="0"/>
      <psa03 value="0.0268373372" flag="0"/>
      <psa10 value="0.0110473667" flag="0"/>
      <psa30 value="0.0045392992" flag="0"/>
    </comp>
  </station>
  <station code="CDRU" name="CDRU" netid="IV" insttype="" commtype="DIG" lat="40.4896" lon="15.3046">
    <comp name="--.HHE">
      <acc value="0.0715186864" flag="0"/>
      <vel value="0.0160748884" flag="0"/>
      <psa03 value="0.0592679239" flag="0"/>
      <psa10 value="0.0118073334" flag="0"/>
      <psa30 value="0.0020191389" flag="0"/>
    </comp>
    <comp name="--.HHN">
      <acc value="0.0390416254" flag="0"/>
      <vel value="0.0127742557" flag="0"/>
      <psa03 value="0.0348552619" flag="0"/>
      <psa10 value="0.0176138438" flag="0"/>
      <psa30 value="0.0021051021" flag="0"/>
    </comp>
    <comp name="--.HHZ">
      <acc value="0.0239780762" flag="0"/>
      <vel value="0.0099668148" flag="0"/>
      <psa03 value="0.0247167388" flag="0"/>
      <psa10 value="0.0117168788" flag="0"/>
      <psa30 value="0.0028120970" flag="0"/>
    </comp>
  </station>
  <station code="CMPR" name="CMPR" netid="IV" insttype="" commtype="DIG" lat="40.3181" lon="15.303">
    <comp name="--.HHE">
      <acc value="0.0277551933" flag="0"/>
      <vel value="0.0200584777" flag="0"/>
      <psa03 value="0.0620213219" flag="0"/>
      <psa10 value="0.0308346333" flag="0"/>
      <psa30 value="0.0019491304" flag="0"/>
    </comp>
    <comp name="--.HHZ">
      <acc value="0.0171904728" flag="0"/>
      <vel value="0.0070663095" flag="0"/>
      <psa03 value="0.0349125454" flag="0"/>
      <psa10 value="0.0122057637" flag="0"/>
      <psa30 value="0.0017935112" flag="0"/>
    </comp>
    <comp name="--.HHN">
      <acc value="0.0201367951" flag="0"/>
      <vel value="0.0134065171" flag="0"/>
      <psa03 value="0.0669138530" flag="0"/>
      <psa10 value="0.0161025177" flag="0"/>
      <psa30 value="0.0017260995" flag="0"/>
    </comp>
  </station>
  <station code="LTRZ" name="LTRZ" netid="IV" insttype="" commtype="DIG" lat="40.6033" lon="16.8191">
    <comp name="--.HHN">
      <acc value="nan" flag="0"/>
      <vel value="-100.0000000000" flag="0"/>
      <psa03 value="0.0000000000" flag="0"/>
      <psa10 value="0.0000000000" flag="0"/>
      <psa30 value="0.0000000000" flag="0"/>
    </comp>
    <comp name="--.HHE">
      <acc value="nan" flag="0"/>
      <vel value="-100.0000000000" flag="0"/>
      <psa03 value="0.0000000000" flag="0"/>
      <psa10 value="0.0000000000" flag="0"/>
      <psa30 value="0.0000000000" flag="0"/>
    </comp>
    <comp name="--.HHZ">
      <acc value="nan" flag="0"/>
      <vel value="-100.0000000000" flag="0"/>
      <psa03 value="0.0000000000" flag="0"/>
      <psa10 value="0.0000000000" flag="0"/>
      <psa30 value="0.0000000000" flag="0"/>
    </comp>
  </station>
  <station code="MCEL" name="MCEL" netid="IV" insttype="" commtype="DIG" lat="40.3249" lon="15.8019">
    <comp name="--.HHE">
      <acc value="0.4868551292" flag="0"/>
      <vel value="0.1150235508" flag="0"/>
      <psa03 value="0.3281280175" flag="0"/>
      <psa10 value="0.0362624146" flag="0"/>
      <psa30 value="0.0042612822" flag="0"/>
    </comp>
    <comp name="--.HHN">
      <acc value="0.3027101309" flag="0"/>
      <vel value="0.0778066809" flag="0"/>
      <psa03 value="0.3042472473" flag="0"/>
      <psa10 value="0.0542470022" flag="0"/>
      <psa30 value="0.0040855728" flag="0"/>
    </comp>
    <comp name="--.HHZ">
      <acc value="0.2197750930" flag="0"/>
      <vel value="0.0585994912" flag="0"/>
      <psa03 value="0.1291956931" flag="0"/>
      <psa10 value="0.0203223400" flag="0"/>
      <psa30 value="0.0031733298" flag="0"/>
    </comp>
  </station>
  <station code="MCRV" name="MCRV" netid="IV" insttype="" commtype="DIG" lat="40.7826" lon="15.1684">
    <comp name="--.HHE">
      <acc value="0.0553906552" flag="0"/>
      <vel value="0.0127733736" flag="0"/>
      <psa03 value="0.0903538275" flag="0"/>
      <psa10 value="0.0117126797" flag="0"/>
      <psa30 value="0.0014607781" flag="0"/>
    </comp>
    <comp name="--.HHN">
      <acc value="0.0731195557" flag="0"/>
      <vel value="0.0220858231" flag="0"/>
      <psa03 value="0.0983270113" flag="0"/>
      <psa10 value="0.0121309134" flag="0"/>
      <psa30 value="0.0014687055" flag="0"/>
    </comp>
    <comp name="--.HHZ">
      <acc value="0.0232945039" flag="0"/>
      <vel value="0.0074285227" flag="0"/>
      <psa03 value="0.0336821226" flag="0"/>
      <psa10 value="0.0101471318" flag="0"/>
      <psa30 value="0.0016734834" flag="0"/>
    </comp>
  </station>
  <station code="MGR" name="MGR" netid="IV" insttype="" commtype="DIG" lat="40.1376" lon="15.5535">
    <comp name="--.HHE">
      <acc value="0.0216814931" flag="0"/>
      <vel value="0.0098671942" flag="0"/>
      <psa03 value="0.0537721553" flag="0"/>
      <psa10 value="0.0070130834" flag="0"/>
      <psa30 value="0.0009483309" flag="0"/>
    </comp>
    <comp name="--.HHZ">
      <acc value="0.0101839468" flag="0"/>
      <vel value="0.0042664898" flag="0"/>
      <psa03 value="0.0145252475" flag="0"/>
      <psa10 value="0.0034704795" flag="0"/>
      <psa30 value="0.0006022273" flag="0"/>
    </comp>
    <comp name="--.HHN">
      <acc value="0.0192660034" flag="0"/>
      <vel value="0.0068934483" flag="0"/>
      <psa03 value="0.0469536290" flag="0"/>
      <psa10 value="0.0055579969" flag="0"/>
      <psa30 value="0.0011984021" flag="0"/>
    </comp>
  </station>
  <station code="MIGL" name="MIGL" netid="IV" insttype="" commtype="DIG" lat="40.6044" lon="16.441">
    <comp name="--.HHE">
      <acc value="0.3329142462" flag="0"/>
      <vel value="0.0826772600" flag="0"/>
      <psa03 value="0.4391180724" flag="0"/>
      <psa10 value="0.0558885103" flag="0"/>
      <psa30 value="0.0094073838" flag="0"/>
    </comp>
    <comp name="--.HHN">
      <acc value="0.3640775723" flag="0"/>
      <vel value="0.1101492069" flag="0"/>
      <psa03 value="0.6994617796" flag="0"/>
      <psa10 value="0.0663149501" flag="0"/>
      <psa30 value="0.0086694989" flag="0"/>
    </comp>
    <comp name="--.HHZ">
      <acc value="0.4394357100" flag="0"/>
      <vel value="0.0638303902" flag="0"/>
      <psa03 value="0.2343509087" flag="0"/>
      <psa10 value="0.0279025208" flag="0"/>
      <psa30 value="0.0052202908" flag="0"/>
    </comp>
  </station>
  <station code="MMN" name="MMN" netid="IV" insttype="" commtype="DIG" lat="39.891" lon="15.9904">
    <comp name="--.HHN">
      <acc value="0.0436600428" flag="0"/>
      <vel value="0.0166847921" flag="0"/>
      <psa03 value="0.1427332426" flag="0"/>
      <psa10 value="0.0083919726" flag="0"/>
      <psa30 value="0.0011787630" flag="0"/>
    </comp>
    <comp name="--.HHZ">
      <acc value="0.0177280259" flag="0"/>
      <vel value="0.0076358394" flag="0"/>
      <psa03 value="0.0801171155" flag="0"/>
      <psa10 value="0.0059821458" flag="0"/>
      <psa30 value="0.0010913344" flag="0"/>
    </comp>
    <comp name="--.HHE">
      <acc value="0.0353138993" flag="0"/>
      <vel value="0.0122541839" flag="0"/>
      <psa03 value="0.0783863889" flag="0"/>
      <psa10 value="0.0072294831" flag="0"/>
      <psa30 value="0.0014449878" flag="0"/>
    </comp>
  </station>
  <station code="MRB1" name="MRB1" netid="IV" insttype="" commtype="DIG" lat="41.1227" lon="14.9681">
    <comp name="--.HHE">
      <acc value="0.0147759243" flag="0"/>
      <vel value="0.0164844008" flag="0"/>
      <psa03 value="0.0474655332" flag="0"/>
      <psa10 value="0.0327733405" flag="0"/>
      <psa30 value="0.0036747911" flag="0"/>
    </comp>
    <comp name="--.HHZ">
      <acc value="0.0088975502" flag="0"/>
      <vel value="0.0079449744" flag="0"/>
      <psa03 value="0.0239103511" flag="0"/>
      <psa10 value="0.0127297438" flag="0"/>
      <psa30 value="0.0009765357" flag="0"/>
    </comp>
    <comp name="--.HHN">
      <acc value="0.0263870022" flag="0"/>
      <vel value="0.0273771692" flag="0"/>
      <psa03 value="0.0547895585" flag="0"/>
      <psa10 value="0.0424375585" flag="0"/>
      <psa30 value="0.0028471973" flag="0"/>
    </comp>
  </station>
  <station code="MRLC" name="MRLC" netid="IV" insttype="" commtype="DIG" lat="40.7564" lon="15.4889">
    <comp name="--.HHE">
      <acc value="0.0816294761" flag="0"/>
      <vel value="0.0314668978" flag="0"/>
      <psa03 value="0.1442271059" flag="0"/>
      <psa10 value="0.0335718580" flag="0"/>
      <psa30 value="0.0038147784" flag="0"/>
    </comp>
    <comp name="--.HHN">
      <acc value="0.0889813018" flag="0"/>
      <vel value="0.0391629649" flag="0"/>
      <psa03 value="0.1571978652" flag="0"/>
      <psa10 value="0.0328310616" flag="0"/>
      <psa30 value="0.0039693224" flag="0"/>
    </comp>
    <comp name="--.HHZ">
      <acc value="0.0543030722" flag="0"/>
      <vel value="0.0179764540" flag="0"/>
      <psa03 value="0.0473580566" flag="0"/>
      <psa10 value="0.0274861793" flag="0"/>
      <psa30 value="0.0024317379" flag="0"/>
    </comp>
  </station>
  <station code="MRVN" name="MRVN" netid="IV" insttype="" commtype="DIG" lat="41.0609" lon="16.1958">
    <comp name="--.HHE">
      <acc value="0.0432522871" flag="0"/>
      <vel value="0.0088179984" flag="0"/>
      <psa03 value="0.0414569152" flag="0"/>
      <psa10 value="0.0054623560" flag="0"/>
      <psa30 value="0.0014850542" flag="0"/>
    </comp>
    <comp name="--.HHN">
      <acc value="0.0445313267" flag="0"/>
      <vel value="0.0090340555" flag="0"/>
      <psa03 value="0.0348416578" flag="0"/>
      <psa10 value="0.0077020076" flag="0"/>
      <psa30 value="0.0013231442" flag="0"/>
    </comp>
    <comp name="--.HHZ">
      <acc value="0.0262052036" flag="0"/>
      <vel value="0.0094244959" flag="0"/>
      <psa03 value="0.0248445793" flag="0"/>
      <psa10 value="0.0088917709" flag="0"/>
      <psa30 value="0.0010402969" flag="0"/>
    </comp>
  </station>
  <station code="MSAG" name="MSAG" netid="IV" insttype="" commtype="DIG" lat="41.712" lon="15.9096">
    <comp name="--.HHE">
      <acc value="0.0148749950" flag="0"/>
      <vel value="0.0073615964" flag="0"/>
      <psa03 value="0.0168585870" flag="0"/>
      <psa10 value="0.0066206993" flag="0"/>
      <psa30 value="0.0011049769" flag="0"/>
    </comp>
    <comp name="--.HHZ">
      <acc value="0.0066067011" flag="0"/>
      <vel value="0.0033999067" flag="0"/>
      <psa03 value="0.0098574337" flag="0"/>
      <psa10 value="0.0034245506" flag="0"/>
      <psa30 value="0.0003968807" flag="0"/>
    </comp>
    <comp name="--.HHN">
      <acc value="0.0252620536" flag="0"/>
      <vel value="0.0125521760" flag="0"/>
      <psa03 value="0.0409966375" flag="0"/>
      <psa10 value="0.0073204267" flag="0"/>
      <psa30 value="0.0008613819" flag="0"/>
    </comp>
  </station>
  <station code="MTMR" name="MTMR" netid="IV" insttype="" commtype="DIG" lat="40.9184" lon="15.0026">
    <comp name="--.HHN">
      <acc value="0.0160771064" flag="0"/>
      <vel value="0.0090007036" flag="0"/>
      <psa03 value="0.0322558130" flag="0"/>
      <psa10 value="0.0113593299" flag="0"/>
      <psa30 value="0.0013288332" flag="0"/>
    </comp>
    <comp name="--.HHZ">
      <acc value="0.0061445707" flag="0"/>
      <vel value="0.0039266841" flag="0"/>
      <psa03 value="0.0150242224" flag="0"/>
      <psa10 value="0.0071701886" flag="0"/>
      <psa30 value="0.0012514602" flag="0"/>
    </comp>
    <comp name="--.HHE">
      <acc value="0.0150829703" flag="0"/>
      <vel value="0.0126591677" flag="0"/>
      <psa03 value="0.0233086828" flag="0"/>
      <psa10 value="0.0115030094" flag="0"/>
      <psa30 value="0.0013736910" flag="0"/>
    </comp>
  </station>
  <station code="MTSN" name="MTSN" netid="IV" insttype="" commtype="DIG" lat="40.2663" lon="15.7515">
    <comp name="--.HHE">
      <acc value="0.1288488212" flag="0"/>
      <vel value="0.0294380772" flag="0"/>
      <psa03 value="0.1431858386" flag="0"/>
      <psa10 value="0.0366003975" flag="0"/>
      <psa30 value="0.0039109934" flag="0"/>
    </comp>
    <comp name="--.HHN">
      <acc value="0.1177661125" flag="0"/>
      <vel value="0.0329898584" flag="0"/>
      <psa03 value="0.2107650174" flag="0"/>
      <psa10 value="0.0229597395" flag="0"/>
      <psa30 value="0.0024231037" flag="0"/>
    </comp>
    <comp name="--.HHZ">
      <acc value="0.0851446720" flag="0"/>
      <vel value="0.0231910136" flag="0"/>
      <psa03 value="0.1173902695" flag="0"/>
      <psa10 value="0.0144900954" flag="0"/>
      <psa30 value="0.0031141702" flag="0"/>
    </comp>
  </station>
  <station code="NOCI" name="NOCI" netid="IV" insttype="" commtype="DIG" lat="40.7888" lon="17.0644">
    <comp name="--.HHE">
      <acc value="0.0842542873" flag="0"/>
      <vel value="0.0282814558" flag="0"/>
      <psa03 value="0.1382974789" flag="0"/>
