<?xml version="1.0" encoding="UTF-8" standalone="yes"?>
<!DOCTYPE earthquake SYSTEM "stationlist.dtd">
<stationlist created="" xmlns="ch.ethz.sed.shakemap.usgs.xml">
  <station code="LSK" name="LSK" netid="AC" insttype="" lat="40.1499" lon="20.5987">
    <comp name="--.HHN">
      <acc value="0.0304250142" flag="0"/>
      <vel value="0.0239692045" flag="0"/>
      <psa03 value="0.0713793642" flag="0"/>
      <psa10 value="0.0310784081" flag="0"/>
      <psa30 value="0.0029405614" flag="0"/>
    </comp>
    <comp name="--.HHZ">
      <acc value="0.0179586419" flag="0"/>
      <vel value="0.0098244640" flag="0"/>
      <psa03 value="0.0375130581" flag="0"/>
      <psa10 value="0.0185454240" flag="0"/>
      <psa30 value="0.0020983098" flag="0"/>
    </comp>
  </station>
  <station code="JAN" name="JAN" netid="HL" insttype="CMG3EPSC60_DR24" lat="39.6562" lon="20.8487">
    <comp name="--.HHZ">
      <acc value="0.0224703638" flag="0"/>
      <vel value="0.0053727899" flag="0"/>
      <psa03 value="0.0275764647" flag="0"/>
      <psa10 value="0.0070612456" flag="0"/>
      <psa30 value="0.0008459923" flag="0"/>
    </comp>
    <comp name="--.HHE">
      <acc value="0.0508789519" flag="0"/>
      <vel value="0.0187504757" flag="0"/>
      <psa03 value="0.1309683439" flag="0"/>
      <psa10 value="0.0126561921" flag="0"/>
      <psa30 value="0.0010461740" flag="0"/>
    </comp>
    <comp name="--.HHN">
      <acc value="0.0297809107" flag="0"/>
      <vel value="0.0138833711" flag="0"/>
      <psa03 value="0.0874466444" flag="0"/>
      <psa10 value="0.0113460740" flag="0"/>
      <psa30 value="0.0009786202" flag="0"/>
    </comp>
  </station>
  <station code="KEK" name="KEK" netid="HL" insttype="120" lat="39.7127" lon="19.7962">
    <comp name="--.HHZ">
      <acc value="0.0623083437" flag="0"/>
      <vel value="0.0135001964" flag="0"/>
      <psa03 value="0.0394366474" flag="0"/>
      <psa10 value="0.0121328187" flag="0"/>
      <psa30 value="0.0008516774" flag="0"/>
    </comp>
    <comp name="--.HHE">
      <acc value="0.0959444032" flag="0"/>
      <vel value="0.0222787864" flag="0"/>
      <psa03 value="0.1343093595" flag="0"/>
      <psa10 value="0.0161604241" flag="0"/>
      <psa30 value="0.0015855807" flag="0"/>
    </comp>
    <comp name="--.HHN">
      <acc value="0.0664518093" flag="0"/>
      <vel value="0.0129873082" flag="0"/>
      <psa03 value="0.0550958374" flag="0"/>
      <psa10 value="0.0086589654" flag="0"/>
      <psa30 value="0.0009049201" flag="0"/>
    </comp>
  </station>
  <station code="TETR" name="TETR" netid="HL" insttype="60" lat="39.3445" lon="21.2747">
    <comp name="--.HHE">
      <acc value="0.0677698310" flag="0"/>
      <vel value="0.0338697579" flag="0"/>
      <psa03 value="0.1044147349" flag="0"/>
      <psa10 value="0.0142271454" flag="0"/>
      <psa30 value="0.0013111520" flag="0"/>
    </comp>
    <comp name="--.HHN">
      <acc value="0.0672426489" flag="0"/>
      <vel value="0.0202245715" flag="0"/>
      <psa03 value="0.0927369838" flag="0"/>
      <psa10 value="0.0084983439" flag="0"/>
      <psa30 value="0.0013570363" flag="0"/>
    </comp>
    <comp name="--.HHZ">
      <acc value="0.0172793576" flag="0"/>
      <vel value="0.0087342855" flag="0"/>
      <psa03 value="0.0466444084" flag="0"/>
      <psa10 value="0.0103754852" flag="0"/>
      <psa30 value="0.0005794047" flag="0"/>
    </comp>
  </station>
  <station code="AMPL" name="AMPL" netid="HP" insttype="Compact," lat="38.9224" lon="21.2135">
    <comp name="--.HHE">
      <acc value="0.0432620841" flag="0"/>
      <vel value="0.0165287133" flag="0"/>
      <psa03 value="0.0978411150" flag="0"/>
      <psa10 value="0.0197331133" flag="0"/>
      <psa30 value="0.0010729331" flag="0"/>
    </comp>
    <comp name="--.HHZ">
      <acc value="0.0112963905" flag="0"/>
      <vel value="0.0078046322" flag="0"/>
      <psa03 value="0.0303027474" flag="0"/>
      <psa10 value="0.0078575022" flag="0"/>
      <psa30 value="0.0006876935" flag="0"/>
    </comp>
    <comp name="--.HHN">
      <acc value="0.0178203497" flag="0"/>
      <vel value="0.0106602736" flag="0"/>
      <psa03 value="0.0444803874" flag="0"/>
      <psa10 value="0.0204067619" flag="0"/>
      <psa30 value="0.0013961290" flag="0"/>
    </comp>
  </station>
  <station code="FSK" name="FSK" netid="HP" insttype="40," lat="38.4593" lon="20.5623">
    <comp name="--.HHN">
      <acc value="0.0066046540" flag="0"/>
      <vel value="0.0048234859" flag="0"/>
      <psa03 value="0.0281951455" flag="0"/>
      <psa10 value="0.0058145637" flag="0"/>
      <psa30 value="0.0003211956" flag="0"/>
    </comp>
    <comp name="--.HHE">
      <acc value="0.0226565019" flag="0"/>
      <vel value="0.0086296954" flag="0"/>
      <psa03 value="0.0434313288" flag="0"/>
      <psa10 value="0.0047451229" flag="0"/>
      <psa30 value="0.0003259780" flag="0"/>
    </comp>
    <comp name="--.HHZ">
      <acc value="0.0049917987" flag="0"/>
      <vel value="0.0023929110" flag="0"/>
      <psa03 value="0.0142220563" flag="0"/>
      <psa10 value="0.0023098417" flag="0"/>
      <psa30 value="0.0001721186" flag="0"/>
    </comp>
  </station>
  <station code="PRMD" name="PRMD" netid="HP" insttype="120P," lat="39.5299" lon="21.0965">
    <comp name="--.HHE">
      <acc value="0.0176404459" flag="0"/>
      <vel value="0.0100655786" flag="0"/>
      <psa03 value="0.0428557118" flag="0"/>
      <psa10 value="0.0108566339" flag="0"/>
      <psa30 value="0.0009267326" flag="0"/>
    </comp>
    <comp name="--.HHN">
      <acc value="0.0113388495" flag="0"/>
      <vel value="0.0072239250" flag="0"/>
      <psa03 value="0.0325700368" flag="0"/>
      <psa10 value="0.0083777571" flag="0"/>
      <psa30 value="0.0010157165" flag="0"/>
    </comp>
    <comp name="--.HHZ">
      <acc value="0.0087906378" flag="0"/>
      <vel value="0.0049256782" flag="0"/>
      <psa03 value="0.0225608151" flag="0"/>
      <psa10 value="0.0051267982" flag="0"/>
      <psa30 value="0.0007946840" flag="0"/>
    </comp>
  </station>
  <station code="DMLN" name="DMLN" netid="HT" insttype="1s-100Hz," lat="38.2385" lon="20.3734">
    <comp name="--.HHN">
      <acc value="0.0294485289" flag="0"/>
      <vel value="0.0126260906" flag="0"/>
      <psa03 value="0.0947569012" flag="0"/>
      <psa10 value="0.0132932101" flag="0"/>
      <psa30 value="0.0010534011" flag="0"/>
    </comp>
    <comp name="--.HHZ">
      <acc value="0.0269150918" flag="0"/>
      <vel value="0.0095962600" flag="0"/>
      <psa03 value="0.0530864398" flag="0"/>
      <psa10 value="0.0065137154" flag="0"/>
      <psa30 value="0.0007268259" flag="0"/>
    </comp>
    <comp name="--.HHE">
      <acc value="0.0432548963" flag="0"/>
      <vel value="0.0260641877" flag="0"/>
      <psa03 value="0.1268740819" flag="0"/>
      <psa10 value="0.0215288901" flag="0"/>
      <psa30 value="0.0013508942" flag="0"/>
    </comp>
  </station>
  <station code="DRAG" name="DRAG" netid="HT" insttype="1s-100Hz," lat="38.6839" lon="20.5746">
    <comp name="--.HHE">
      <acc value="0.1901095770" flag="0"/>
      <vel value="0.0605801944" flag="0"/>
      <psa03 value="0.4684987771" flag="0"/>
      <psa10 value="0.0272780025" flag="0"/>
      <psa30 value="0.0016703329" flag="0"/>
    </comp>
    <comp name="--.HHZ">
      <acc value="0.0814656132" flag="0"/>
      <vel value="0.0214427191" flag="0"/>
      <psa03 value="0.1555541256" flag="0"/>
      <psa10 value="0.0095708676" flag="0"/>
      <psa30 value="0.0006759230" flag="0"/>
    </comp>
    <comp name="--.HHN">
      <acc value="0.1416011443" flag="0"/>
      <vel value="0.0543548826" flag="0"/>
      <psa03 value="0.2300968918" flag="0"/>
      <psa10 value="0.0190400047" flag="0"/>
      <psa30 value="0.0012037760" flag="0"/>
    </comp>
  </station>
  <station code="EVGI" name="EVGI" netid="HT" insttype="30" lat="38.621" lon="20.656">
    <comp name="--.HHE">
      <acc value="0.0554173406" flag="0"/>
      <vel value="0.0141224319" flag="0"/>
      <psa03 value="0.0675906629" flag="0"/>
      <psa10 value="0.0047086973" flag="0"/>
      <psa30 value="0.0004500872" flag="0"/>
    </comp>
    <comp name="--.HHN">
      <acc value="0.0675520322" flag="0"/>
      <vel value="0.0211501338" flag="0"/>
      <psa03 value="0.1009719251" flag="0"/>
      <psa10 value="0.0075440720" flag="0"/>
      <psa30 value="0.0005791628" flag="0"/>
    </comp>
    <comp name="--.HHZ">
      <acc value="0.0425939996" flag="0"/>
      <vel value="0.0114187319" flag="0"/>
      <psa03 value="0.0520496575" flag="0"/>
      <psa10 value="0.0053619150" flag="0"/>
      <psa30 value="0.0003213592" flag="0"/>
    </comp>
  </station>
  <station code="IGT" name="IGT" netid="HT" insttype="100" lat="39.5315" lon="20.3299">
    <comp name="--.HHE">
      <acc value="0.3630906541" flag="0"/>
      <vel value="0.1320369540" flag="0"/>
      <psa03 value="0.8530770640" flag="0"/>
      <psa10 value="0.0686996024" flag="0"/>
      <psa30 value="0.0067301628" flag="0"/>
    </comp>
    <comp name="--.HHN">
      <acc value="0.3923846935" flag="0"/>
      <vel value="0.0721870273" flag="0"/>
      <psa03 value="0.3567260377" flag="0"/>
      <psa10 value="0.0299375481" flag="0"/>
      <psa30 value="0.0040047852" flag="0"/>
    </comp>
    <comp name="--.HHZ">
      <acc value="0.3200430536" flag="0"/>
      <vel value="0.0587492383" flag="0"/>
      <psa03 value="0.3666452309" flag="0"/>
      <psa10 value="0.0280484996" flag="0"/>
      <psa30 value="0.0035945641" flag="0"/>
    </comp>
  </station>
  <station code="LKD2" name="LKD2" netid="HT" insttype="100" lat="38.7889" lon="20.6578">
    <comp name="--.HHE">
      <acc value="0.0409116615" flag="0"/>
      <vel value="0.0115702293" flag="0"/>
      <psa03 value="0.0738477948" flag="0"/>
      <psa10 value="0.0149332944" flag="0"/>
      <psa30 value="0.0008381715" flag="0"/>
    </comp>
    <comp name="--.HHN">
      <acc value="0.0431831680" flag="0"/>
      <vel value="0.0144519481" flag="0"/>
      <psa03 value="0.1000819317" flag="0"/>
      <psa10 value="0.0116521762" flag="0"/>
      <psa30 value="0.0008083079" flag="0"/>
    </comp>
    <comp name="--.HHZ">
      <acc value="0.0236282905" flag="0"/>
      <vel value="0.0097046049" flag="0"/>
      <psa03 value="0.0595881958" flag="0"/>
      <psa10 value="0.0093221329" flag="0"/>
      <psa30 value="0.0004494284" flag="0"/>
    </comp>
  </station>
  <station code="NYDR" name="NYDR" netid="HT" insttype="1s-100Hz," lat="38.7135" lon="20.6983">
    <comp name="--.HHE">
      <acc value="0.0390268378" flag="0"/>
      <vel value="0.0166598432" flag="0"/>
      <psa03 value="0.1094190159" flag="0"/>
      <psa10 value="0.0135000677" flag="0"/>
      <psa30 value="0.0006213289" flag="0"/>
    </comp>
    <comp name="--.HHN">
      <acc value="0.0435159113" flag="0"/>
      <vel value="0.0169986737" flag="0"/>
      <psa03 value="0.0857371670" flag="0"/>
      <psa10 value="0.0101202232" flag="0"/>
      <psa30 value="0.0007644329" flag="0"/>
    </comp>
    <comp name="--.HHZ">
      <acc value="0.0312891478" flag="0"/>
      <vel value="0.0143397910" flag="0"/>
      <psa03 value="0.0718264841" flag="0"/>
      <psa10 value="0.0076840121" flag="0"/>
      <psa30 value="0.0004905801" flag="0"/>
    </comp>
  </station>
  <station code="TSLK" name="TSLK" netid="HT" insttype="1s-100Hz," lat="38.8249" lon="20.6554">
    <comp name="--.HHZ">
      <acc value="0.0504939608" flag="0"/>
      <vel value="0.0122048144" flag="0"/>
      <psa03 value="0.0807496802" flag="0"/>
      <psa10 value="0.0078576938" flag="0"/>
      <psa30 value="0.0010832626" flag="0"/>
    </comp>
    <comp name="--.HHE">
      <acc value="0.0569414834" flag="0"/>
      <vel value="0.0232414852" flag="0"/>
      <psa03 value="0.1379875702" flag="0"/>
      <psa10 value="0.0191879467" flag="0"/>
      <psa30 value="0.0011832980" flag="0"/>
    </comp>
    <comp name="--.HHN">
      <acc value="0.0501992143" flag="0"/>
      <vel value="0.0236257986" flag="0"/>
      <psa03 value="0.1423553223" flag="0"/>
      <psa10 value="0.0201311717" flag="0"/>
      <psa30 value="0.0018343898" flag="0"/>
    </comp>
  </station>
  <station code="KEK" name="KEK" netid="MN" insttype="" lat="39.7127" lon="19.7962">
    <comp name="--.HHE">
      <acc value="0.0959443368" flag="0"/>
      <vel value="0.0222787710" flag="0"/>
      <psa03 value="0.1343092665" flag="0"/>
      <psa10 value="0.0161604129" flag="0"/>
      <psa30 value="0.0015855796" flag="0"/>
    </comp>
    <comp name="--.HHN">
      <acc value="0.0664517633" flag="0"/>
      <vel value="0.0129872992" flag="0"/>
      <psa03 value="0.0550957992" flag="0"/>
      <psa10 value="0.0086589594" flag="0"/>
      <psa30 value="0.0009049195" flag="0"/>
    </comp>
    <comp name="--.HHZ">
      <acc value="0.0623083005" flag="0"/>
      <vel value="0.0135001871" flag="0"/>
      <psa03 value="0.0394366200" flag="0"/>
      <psa10 value="0.0121328103" flag="0"/>
      <psa30 value="0.0008516768" flag="0"/>
    </comp>
  </station>
</stationlist>
