<stationlist created="1778136125">
	<station code="MALA" name="MALA" netid="CL" source="Corinth Riff Laboratory (CRLNET)" insttype="" lat="38.39341" lon="21.87263">
		<comp name="01.HNE" depth="0.0">
			<acc value="0.00768727995652006" flag="0"/>
			<vel value="0.00979900852358752" flag="0"/>
			<psa03 value="0.0193733754657117" flag="0"/>
			<psa10 value="0.0254292331314948" flag="0"/>
			<psa30 value="0.00215567951486833" flag="0"/>
		</comp>
		<comp name="01.HNN" depth="0.0">
			<acc value="0.00648694288006797" flag="0"/>
			<vel value="0.00981568224923962" flag="0"/>
			<psa03 value="0.0119461691670786" flag="0"/>
			<psa10 value="0.0150119051645625" flag="0"/>
			<psa30 value="0.00165188226834659" flag="0"/>
		</comp>
		<comp name="01.HNZ" depth="0.0">
			<acc value="0.00349734723842806" flag="0"/>
			<vel value="0.00307731672510235" flag="0"/>
			<psa03 value="0.00774040174496101" flag="0"/>
			<psa10 value="0.00555698206198935" flag="0"/>
			<psa30 value="0.000453685975109275" flag="0"/>
		</comp>
	</station>
	<station code="TRIZ" name="TRIZ" netid="CL" source="Corinth Riff Laboratory (CRLNET)" insttype="" lat="38.36543" lon="22.07272">
		<comp name="00.HNE" depth="0.0">
			<acc value="0.000222079015306202" flag="0"/>
			<vel value="0.000150460066883183" flag="0"/>
			<psa03 value="0.000259552757247187" flag="0"/>
			<psa10 value="0.000106809639090796" flag="0"/>
			<psa30 value="9.82579999957282e-05" flag="0"/>
		</comp>
		<comp name="00.HNN" depth="0.0">
			<acc value="0.000248067969972894" flag="0"/>
			<vel value="0.000378727288443425" flag="0"/>
			<psa03 value="0.000359682722071753" flag="0"/>
			<psa10 value="0.000233303878088515" flag="0"/>
			<psa30 value="0.000140020747041278" flag="0"/>
		</comp>
		<comp name="00.HNZ" depth="0.0">
			<acc value="0.000277489074224856" flag="0"/>
			<vel value="0.000442981016949737" flag="0"/>
			<psa03 value="0.000439587348043384" flag="0"/>
			<psa10 value="0.000281404110391379" flag="0"/>
			<psa30 value="0.000164764795067188" flag="0"/>
		</comp>
	</station>
	<station code="ART2" name="ART2" netid="HI" source="ITSAK Strong Motion Network" insttype="" lat="39.1474" lon="20.9937">
		<comp name="--.HNE" depth="0.0">
			<acc value="0.0201363970151684" flag="0"/>
			<vel value="0.00672638473185987" flag="0"/>
			<psa03 value="0.0308721225666075" flag="0"/>
			<psa10 value="0.0060321442962754" flag="0"/>
			<psa30 value="0.000676502164068269" flag="0"/>
		</comp>
		<comp name="--.HNN" depth="0.0">
			<acc value="0.0305075717872418" flag="0"/>
			<vel value="0.00940522501436414" flag="0"/>
			<psa03 value="0.0474714812219863" flag="0"/>
			<psa10 value="0.00889519809777861" flag="0"/>
			<psa30 value="0.0016335379636331" flag="0"/>
		</comp>
		<comp name="--.HNZ" depth="0.0">
			<acc value="0.0142377164071485" flag="0"/>
			<vel value="0.00674323546479578" flag="0"/>
			<psa03 value="0.0416102521549927" flag="0"/>
			<psa10 value="0.00621737703167504" flag="0"/>
			<psa30 value="0.000550776563470925" flag="0"/>
		</comp>
	</station>
	<station code="LMS2" name="LMS2" netid="HI" source="ITSAK Strong Motion Network" insttype="" lat="40.834985" lon="21.141815">
		<comp name="--.HNE" depth="0.0">
			<acc value="0.00357825637661523" flag="0"/>
			<vel value="0.00233368512881714" flag="0"/>
			<psa03 value="0.00742720629863311" flag="0"/>
			<psa10 value="0.00309258132145494" flag="0"/>
			<psa30 value="0.00051364053197776" flag="0"/>
		</comp>
		<comp name="--.HNN" depth="0.0">
			<acc value="0.00525344920947015" flag="0"/>
			<vel value="0.0031371678598753" flag="0"/>
			<psa03 value="0.00867998808394472" flag="0"/>
			<psa10 value="0.00348318078523246" flag="0"/>
			<psa30 value="0.000589702283228822" flag="0"/>
		</comp>
		<comp name="--.HNZ" depth="0.0">
			<acc value="0.00153142521643181" flag="0"/>
			<vel value="0.00159002991354063" flag="0"/>
			<psa03 value="0.00398205638902619" flag="0"/>
			<psa10 value="0.0024724543377257" flag="0"/>
			<psa30 value="0.000485005519742066" flag="0"/>
		</comp>
	</station>
	<station code="MSL1" name="MSL1" netid="HI" source="ITSAK Strong Motion Network" insttype="" lat="38.3727" lon="21.4243">
		<comp name="--.HNE" depth="0.0">
			<acc value="0.0239252805836936" flag="0"/>
			<vel value="0.0296422110535594" flag="0"/>
			<psa03 value="0.0457265351638737" flag="0"/>
			<psa10 value="0.0366478940189602" flag="0"/>
			<psa30 value="0.00322680794130976" flag="0"/>
		</comp>
		<comp name="--.HNN" depth="0.0">
			<acc value="0.0203445935536479" flag="0"/>
			<vel value="0.0154299881963073" flag="0"/>
			<psa03 value="0.0667106300678432" flag="0"/>
			<psa10 value="0.0230735559530427" flag="0"/>
			<psa30 value="0.00246037394193876" flag="0"/>
		</comp>
		<comp name="--.HNZ" depth="0.0">
			<acc value="0.0101311756497497" flag="0"/>
			<vel value="0.00958830933137078" flag="0"/>
			<psa03 value="0.0242502759871033" flag="0"/>
			<psa10 value="0.0147702972488239" flag="0"/>
			<psa30 value="0.00087918436004904" flag="0"/>
		</comp>
	</station>
	<station code="VAS2" name="VAS2" netid="HI" source="ITSAK Strong Motion Network" insttype="" lat="38.630558" lon="20.608081">
		<comp name="--.HNE" depth="0.0">
			<acc value="0.077250290766995" flag="0"/>
			<vel value="0.0371086386685825" flag="0"/>
			<psa03 value="0.212883419089737" flag="0"/>
			<psa10 value="0.0551953283504986" flag="0"/>
			<psa30 value="0.00220758047454553" flag="0"/>
		</comp>
		<comp name="--.HNN" depth="0.0">
			<acc value="0.104764153085525" flag="0"/>
			<vel value="0.042379771961309" flag="0"/>
			<psa03 value="0.216328568999344" flag="0"/>
			<psa10 value="0.0940096400139155" flag="0"/>
			<psa30 value="0.00282233839348058" flag="0"/>
		</comp>
		<comp name="--.HNZ" depth="0.0">
			<acc value="0.0404099923665922" flag="0"/>
			<vel value="0.0235863456254757" flag="0"/>
			<psa03 value="0.116284995000888" flag="0"/>
			<psa10 value="0.0217084712291193" flag="0"/>
			<psa30 value="0.00121027668902425" flag="0"/>
		</comp>
	</station>
	<station code="JAN" name="JAN" netid="HL" source="National Observatory of Athens Seismic Network" insttype="" lat="39.65616" lon="20.84874">
		<comp name="00.HNE" depth="0.0">
			<acc value="0.0514978728604016" flag="0"/>
			<vel value="0.0193290102659589" flag="0"/>
			<psa03 value="0.136105792532783" flag="0"/>
			<psa10 value="0.0127085763678539" flag="0"/>
			<psa30 value="0.00118208909885474" flag="0"/>
		</comp>
		<comp name="00.HNN" depth="0.0">
			<acc value="0.0294985444102375" flag="0"/>
			<vel value="0.0139986635051344" flag="0"/>
			<psa03 value="0.0883658580710867" flag="0"/>
			<psa10 value="0.0110898033324048" flag="0"/>
			<psa30 value="0.00102996559635262" flag="0"/>
		</comp>
		<comp name="00.HNZ" depth="0.0">
			<acc value="0.0211542519298514" flag="0"/>
			<vel value="0.00538234455236355" flag="0"/>
			<psa03 value="0.0282770745827477" flag="0"/>
			<psa10 value="0.00684958441119122" flag="0"/>
			<psa30 value="0.000920794612204033" flag="0"/>
		</comp>
	</station>
	<station code="PRGA" name="PRGA" netid="HL" source="National Observatory of Athens Seismic Network" insttype="" lat="39.28557" lon="20.40157">
		<comp name="00.HNE" depth="0.0">
			<acc value="0.831048315729638" flag="0"/>
			<vel value="0.375156275850847" flag="0"/>
			<psa03 value="4.10614467859883" flag="0"/>
			<psa10 value="0.129426983902659" flag="0"/>
			<psa30 value="0.0117181604373034" flag="0"/>
		</comp>
		<comp name="00.HNN" depth="0.0">
			<acc value="0.883243263132057" flag="0"/>
			<vel value="0.291180309110564" flag="0"/>
			<psa03 value="2.06097569618992" flag="0"/>
			<psa10 value="0.156116286937903" flag="0"/>
			<psa30 value="0.00898279423271649" flag="0"/>
		</comp>
		<comp name="00.HNZ" depth="0.0">
			<acc value="0.592343573210515" flag="0"/>
			<vel value="0.122438595036189" flag="0"/>
			<psa03 value="0.489395045021958" flag="0"/>
			<psa10 value="0.057645754998174" flag="0"/>
			<psa30 value="0.00344481195188612" flag="0"/>
		</comp>
	</station>
	<station code="SOFA" name="SOFA" netid="HL" source="National Observatory of Athens Seismic Network" insttype="" lat="39.33773" lon="22.09691">
		<comp name="00.HNE" depth="0.0">
			<acc value="0.0113608212705703" flag="0"/>
			<vel value="0.0188567680023859" flag="0"/>
			<psa03 value="0.0291822196371469" flag="0"/>
			<psa10 value="0.0245208418854523" flag="0"/>
			<psa30 value="0.00381493438734606" flag="0"/>
		</comp>
		<comp name="00.HNN" depth="0.0">
			<acc value="0.0171754891545537" flag="0"/>
			<vel value="0.0217068148568263" flag="0"/>
			<psa03 value="0.0608782151747507" flag="0"/>
			<psa10 value="0.018497612876087" flag="0"/>
			<psa30 value="0.00285295399420277" flag="0"/>
		</comp>
		<comp name="00.HNZ" depth="0.0">
			<acc value="0.0133958423272912" flag="0"/>
			<vel value="0.0044573387522128" flag="0"/>
			<psa03 value="0.00931153416116401" flag="0"/>
			<psa10 value="0.00854656866823491" flag="0"/>
			<psa30 value="0.000595211617346326" flag="0"/>
		</comp>
	</station>
	<station code="TRKA" name="TRKA" netid="HL" source="National Observatory of Athens Seismic Network" insttype="" lat="39.55381" lon="21.76624">
		<comp name="00.HNE" depth="0.0">
			<acc value="0.0154268788833149" flag="0"/>
			<vel value="0.0126728651147087" flag="0"/>
			<psa03 value="0.0302140145510105" flag="0"/>
			<psa10 value="0.0232564174985056" flag="0"/>
			<psa30 value="0.00156995764782398" flag="0"/>
		</comp>
		<comp name="00.HNN" depth="0.0">
			<acc value="0.0111772300866609" flag="0"/>
			<vel value="0.0106200288839242" flag="0"/>
			<psa03 value="0.0369528646126031" flag="0"/>
			<psa10 value="0.0215707839585919" flag="0"/>
			<psa30 value="0.000984611892372396" flag="0"/>
		</comp>
		<comp name="00.HNZ" depth="0.0">
			<acc value="0.00773441086681346" flag="0"/>
			<vel value="0.00599446329076941" flag="0"/>
			<psa03 value="0.01550422108897" flag="0"/>
			<psa10 value="0.00859305956054099" flag="0"/>
			<psa30 value="0.000574257833430539" flag="0"/>
		</comp>
	</station>
	<station code="ANX" name="ANX" netid="HP" source="University of Patras, Seismological Laboratory (PSLNET)" insttype="" lat="38.5933" lon="21.9209">
		<comp name="--.HNE" depth="0.0">
			<acc value="0.0049606461082168" flag="0"/>
			<vel value="0.00385032504627374" flag="0"/>
			<psa03 value="0.0144517327377018" flag="0"/>
			<psa10 value="0.00615294825414473" flag="0"/>
			<psa30 value="0.000972695571881228" flag="0"/>
		</comp>
		<comp name="--.HNN" depth="0.0">
			<acc value="0.0069545874730176" flag="0"/>
			<vel value="0.00543064848619618" flag="0"/>
			<psa03 value="0.0198655397385127" flag="0"/>
			<psa10 value="0.00670864646034367" flag="0"/>
			<psa30 value="0.0012711260900251" flag="0"/>
		</comp>
		<comp name="--.HNZ" depth="0.0">
			<acc value="0.00313383123082352" flag="0"/>
			<vel value="0.00319149624818382" flag="0"/>
			<psa03 value="0.00720349526554175" flag="0"/>
			<psa10 value="0.00360398474310179" flag="0"/>
			<psa30 value="0.000464424104697661" flag="0"/>
		</comp>
	</station>
	<station code="LTHK" name="LTHK" netid="HP" source="University of Patras, Seismological Laboratory (PSLNET)" insttype="" lat="37.7095" lon="20.8367">
		<comp name="--.HNE" depth="0.0">
			<acc value="0.00647203375213943" flag="0"/>
			<vel value="0.00461150059340661" flag="0"/>
			<psa03 value="0.0195693862195402" flag="0"/>
			<psa10 value="0.00539398982533511" flag="0"/>
			<psa30 value="0.000297399232489563" flag="0"/>
		</comp>
		<comp name="--.HNN" depth="0.0">
			<acc value="0.00888244344105634" flag="0"/>
			<vel value="0.00404320648219003" flag="0"/>
			<psa03 value="0.0218154347488099" flag="0"/>
			<psa10 value="0.00501782256235345" flag="0"/>
			<psa30 value="0.000272191130284836" flag="0"/>
		</comp>
		<comp name="--.HNZ" depth="0.0">
			<acc value="0.00492390813049278" flag="0"/>
			<vel value="0.00215915610397316" flag="0"/>
			<psa03 value="0.0164885206690043" flag="0"/>
			<psa10 value="0.00310573003624745" flag="0"/>
			<psa30 value="0.000319828114126404" flag="0"/>
		</comp>
	</station>
	<station code="PDO" name="PDO" netid="HP" source="University of Patras, Seismological Laboratory (PSLNET)" insttype="" lat="38.5986" lon="21.1833">
		<comp name="--.HNE" depth="0.0">
			<acc value="0.0182413902567366" flag="0"/>
			<vel value="0.010931778252909" flag="0"/>
			<psa03 value="0.0511403421646846" flag="0"/>
			<psa10 value="0.00910459162475212" flag="0"/>
			<psa30 value="0.000808939095658353" flag="0"/>
		</comp>
		<comp name="--.HNN" depth="0.0">
			<acc value="0.016878593720039" flag="0"/>
			<vel value="0.0105689558465514" flag="0"/>
			<psa03 value="0.040670665816009" flag="0"/>
			<psa10 value="0.010578399910758" flag="0"/>
			<psa30 value="0.000835784419629316" flag="0"/>
		</comp>
		<comp name="--.HNZ" depth="0.0">
			<acc value="0.0132554936729999" flag="0"/>
			<vel value="0.00675120463916874" flag="0"/>
			<psa03 value="0.0425945807005947" flag="0"/>
			<psa10 value="0.00723213027777745" flag="0"/>
			<psa30 value="0.000528852882227972" flag="0"/>
		</comp>
	</station>
</stationlist>
