<?xml version="1.0" encoding="UTF-8" standalone="yes"?>
<!DOCTYPE earthquake SYSTEM "stationlist.dtd">
<stationlist created="" xmlns="ch.ethz.sed.shakemap.usgs.xml">
  <station code="APE" name="APE" netid="GE" insttype="STS-2/N" lat="37.0727" lon="25.523">
    <comp name="--.HHN">
      <acc value="0.1059069699" flag="0"/>
      <vel value="0.0234987004" flag="0"/>
      <psa03 value="0.0525807563" flag="0"/>
      <psa10 value="0.0035170935" flag="0"/>
      <psa30 value="0.0010645588" flag="0"/>
    </comp>
    <comp name="--.HHZ">
      <acc value="0.0388345278" flag="0"/>
      <vel value="0.0091768245" flag="0"/>
      <psa03 value="0.0279644905" flag="0"/>
      <psa10 value="0.0037975900" flag="0"/>
      <psa30 value="0.0010641751" flag="0"/>
    </comp>
    <comp name="--.HHE">
      <acc value="0.0725610600" flag="0"/>
      <vel value="0.0139932437" flag="0"/>
      <psa03 value="0.0599699550" flag="0"/>
      <psa10 value="0.0052921704" flag="0"/>
      <psa30 value="0.0013965668" flag="0"/>
    </comp>
  </station>
  <station code="THERA" name="THERA" netid="GE" insttype="STS-2/N" lat="36.367" lon="25.4753">
    <comp name="--.HHZ">
      <acc value="0.1614423788" flag="0"/>
      <vel value="0.0389187573" flag="0"/>
      <psa03 value="0.1146227169" flag="0"/>
      <psa10 value="0.0079775883" flag="0"/>
      <psa30 value="0.0009572374" flag="0"/>
    </comp>
    <comp name="--.HHN">
      <acc value="0.1445936135" flag="0"/>
      <vel value="0.0394150289" flag="0"/>
      <psa03 value="0.1535752838" flag="0"/>
      <psa10 value="0.0075878278" flag="0"/>
      <psa30 value="0.0007484772" flag="0"/>
    </comp>
    <comp name="--.HHE">
      <acc value="0.1589499712" flag="0"/>
      <vel value="0.0488322323" flag="0"/>
      <psa03 value="0.1422499823" flag="0"/>
      <psa10 value="0.0104345666" flag="0"/>
      <psa30 value="0.0014617957" flag="0"/>
    </comp>
  </station>
</stationlist>
