<?xml version="1.0" encoding="UTF-8" standalone="yes"?>
<!DOCTYPE earthquake SYSTEM "stationlist.dtd">
<stationlist created="" xmlns="ch.ethz.sed.shakemap.usgs.xml">
  <station code="APE" name="APE" netid="GE" insttype="STS-2/N" lat="37.0727" lon="25.523">
    <comp name="--.HHZ">
      <acc value="0.0388345275" flag="0"/>
      <vel value="0.0091768252" flag="0"/>
      <psa03 value="0.0279644905" flag="0"/>
      <psa10 value="0.0037975898" flag="0"/>
      <psa30 value="0.0010641062" flag="0"/>
    </comp>
    <comp name="--.HHN">
      <acc value="0.1059069703" flag="0"/>
      <vel value="0.0234987005" flag="0"/>
      <psa03 value="0.0525807563" flag="0"/>
      <psa10 value="0.0035170932" flag="0"/>
      <psa30 value="0.0010646204" flag="0"/>
    </comp>
    <comp name="--.HHE">
      <acc value="0.0725610603" flag="0"/>
      <vel value="0.0139932427" flag="0"/>
      <psa03 value="0.0599699550" flag="0"/>
      <psa10 value="0.0052921702" flag="0"/>
      <psa30 value="0.0013965453" flag="0"/>
    </comp>
  </station>
  <station code="THERA" name="THERA" netid="GE" insttype="STS-2/N" lat="36.367" lon="25.4753">
    <comp name="--.HHE">
      <acc value="0.1589499705" flag="0"/>
      <vel value="0.0488322325" flag="0"/>
      <psa03 value="0.1422499823" flag="0"/>
      <psa10 value="0.0104345622" flag="0"/>
      <psa30 value="0.0014613109" flag="0"/>
    </comp>
    <comp name="--.HHN">
      <acc value="0.1445936135" flag="0"/>
      <vel value="0.0394150291" flag="0"/>
      <psa03 value="0.1535752838" flag="0"/>
      <psa10 value="0.0075878273" flag="0"/>
      <psa30 value="0.0007484041" flag="0"/>
    </comp>
    <comp name="--.HHZ">
      <acc value="0.1614423792" flag="0"/>
      <vel value="0.0389187580" flag="0"/>
      <psa03 value="0.1146227169" flag="0"/>
      <psa10 value="0.0079775823" flag="0"/>
      <psa30 value="0.0009572992" flag="0"/>
    </comp>
  </station>
  <station code="SERI" name="SERI" netid="HA" insttype="30" lat="37.1609" lon="24.4853">
    <comp name="--.HHE">
      <acc value="0.0190151817" flag="0"/>
      <vel value="0.0062440545" flag="0"/>
      <psa03 value="0.0265727346" flag="0"/>
      <psa10 value="0.0031526086" flag="0"/>
      <psa30 value="0.0003398267" flag="0"/>
    </comp>
    <comp name="--.HHZ">
      <acc value="0.0183878169" flag="0"/>
      <vel value="0.0063777778" flag="0"/>
      <psa03 value="0.0185527562" flag="0"/>
      <psa10 value="0.0040993774" flag="0"/>
      <psa30 value="0.0005995333" flag="0"/>
    </comp>
    <comp name="--.HHN">
      <acc value="0.0270306863" flag="0"/>
      <vel value="0.0092172272" flag="0"/>
      <psa03 value="0.0312278125" flag="0"/>
      <psa10 value="0.0035799532" flag="0"/>
      <psa30 value="0.0003086976" flag="0"/>
    </comp>
  </station>
  <station code="SNT1" name="SNT1" netid="HA" insttype="30" lat="36.4159" lon="25.4282">
    <comp name="--.HHE">
      <acc value="0.1125784576" flag="0"/>
      <vel value="0.0338303471" flag="0"/>
      <psa03 value="0.2031646190" flag="0"/>
      <psa10 value="0.0185149614" flag="0"/>
      <psa30 value="0.0036003875" flag="0"/>
    </comp>
    <comp name="--.HHN">
      <acc value="0.1048434461" flag="0"/>
      <vel value="0.0350402836" flag="0"/>
      <psa03 value="0.1604678773" flag="0"/>
      <psa10 value="0.0267362808" flag="0"/>
      <psa30 value="0.0038240066" flag="0"/>
    </comp>
    <comp name="--.HHZ">
      <acc value="0.1918712582" flag="0"/>
      <vel value="0.0370718273" flag="0"/>
      <psa03 value="0.1286751354" flag="0"/>
      <psa10 value="0.0122024736" flag="0"/>
      <psa30 value="0.0016223203" flag="0"/>
    </comp>
  </station>
  <station code="SNT5" name="SNT5" netid="HA" insttype="1s-100Hz," lat="36.4037" lon="25.3953">
    <comp name="--.HHE">
      <acc value="0.6975517341" flag="0"/>
      <vel value="0.1608596262" flag="0"/>
      <psa03 value="0.7733622567" flag="0"/>
      <psa10 value="0.0276536731" flag="0"/>
      <psa30 value="0.0051263248" flag="0"/>
    </comp>
    <comp name="--.HHN">
      <acc value="0.3939373826" flag="0"/>
      <vel value="0.0973305190" flag="0"/>
      <psa03 value="0.4042958240" flag="0"/>
      <psa10 value="0.0193670364" flag="0"/>
      <psa30 value="0.0025794392" flag="0"/>
    </comp>
    <comp name="--.HHZ">
      <acc value="0.3164504564" flag="0"/>
      <vel value="0.0467263220" flag="0"/>
      <psa03 value="0.1382456363" flag="0"/>
      <psa10 value="0.0161632784" flag="0"/>
      <psa30 value="0.0008081751" flag="0"/>
    </comp>
  </station>
  <station code="SFR2" name="SFR2" netid="HI" insttype="unknown" lat="36.3998" lon="25.4382">
    <comp name="--.HNN">
      <acc value="0.3415729013" flag="0"/>
      <vel value="0.0963853262" flag="0"/>
      <psa03 value="0.6052383074" flag="0"/>
      <psa10 value="0.0550649029" flag="0"/>
      <psa30 value="0.0034946867" flag="0"/>
    </comp>
    <comp name="--.HNZ">
      <acc value="0.3526962655" flag="0"/>
      <vel value="0.0846129787" flag="0"/>
      <psa03 value="0.5573989053" flag="0"/>
      <psa10 value="0.0327001903" flag="0"/>
      <psa30 value="0.0025255391" flag="0"/>
    </comp>
    <comp name="--.HNE">
      <acc value="0.2952971196" flag="0"/>
      <vel value="0.0817058795" flag="0"/>
      <psa03 value="0.6101519558" flag="0"/>
      <psa10 value="0.0399342664" flag="0"/>
      <psa30 value="0.0037705254" flag="0"/>
    </comp>
  </station>
  <station code="AMGA" name="AMGA" netid="HL" insttype="SMART24" lat="36.8316" lon="25.8938">
    <comp name="--.HHN">
      <acc value="0.4133022588" flag="0"/>
      <vel value="0.0466492272" flag="0"/>
      <psa03 value="0.0735920962" flag="0"/>
      <psa10 value="0.0185512832" flag="0"/>
      <psa30 value="0.0019519897" flag="0"/>
    </comp>
    <comp name="--.HHE">
      <acc value="0.4526867710" flag="0"/>
      <vel value="0.0574064355" flag="0"/>
      <psa03 value="0.0895955479" flag="0"/>
      <psa10 value="0.0140587884" flag="0"/>
      <psa30 value="0.0026276635" flag="0"/>
    </comp>
    <comp name="--.HHZ">
      <acc value="0.1795048591" flag="0"/>
      <vel value="0.0320830591" flag="0"/>
      <psa03 value="0.0729108907" flag="0"/>
      <psa10 value="0.0143433187" flag="0"/>
      <psa30 value="0.0021350919" flag="0"/>
    </comp>
  </station>
  <station code="APE" name="APE" netid="HL" insttype="120" lat="37.0727" lon="25.523">
    <comp name="--.HHE">
      <acc value="0.0648721821" flag="0"/>
      <vel value="0.0134550770" flag="0"/>
      <psa03 value="0.0584227317" flag="0"/>
      <psa10 value="0.0052181667" flag="0"/>
      <psa30 value="0.0013931468" flag="0"/>
    </comp>
    <comp name="--.HHZ">
      <acc value="0.0361373895" flag="0"/>
      <vel value="0.0087340378" flag="0"/>
      <psa03 value="0.0274229477" flag="0"/>
      <psa10 value="0.0037790951" flag="0"/>
      <psa30 value="0.0010611729" flag="0"/>
    </comp>
    <comp name="--.HHN">
      <acc value="0.0968412469" flag="0"/>
      <vel value="0.0225990666" flag="0"/>
      <psa03 value="0.0510658888" flag="0"/>
      <psa10 value="0.0034926882" flag="0"/>
      <psa30 value="0.0010623949" flag="0"/>
    </comp>
  </station>
  <station code="MHLO" name="MHLO" netid="HL" insttype="20" lat="36.6898" lon="24.4017">
    <comp name="--.HHN">
      <acc value="0.1243254129" flag="0"/>
      <vel value="0.0496901939" flag="0"/>
      <psa03 value="0.4661088674" flag="0"/>
      <psa10 value="0.0457066327" flag="0"/>
      <psa30 value="0.0021639492" flag="0"/>
    </comp>
    <comp name="--.HHE">
      <acc value="0.1106849044" flag="0"/>
      <vel value="0.0514274607" flag="0"/>
      <psa03 value="0.4393665735" flag="0"/>
      <psa10 value="0.0409932836" flag="0"/>
      <psa30 value="0.0018759126" flag="0"/>
    </comp>
    <comp name="--.HHZ">
      <acc value="0.0495082083" flag="0"/>
      <vel value="0.0244982635" flag="0"/>
      <psa03 value="0.1698817966" flag="0"/>
      <psa10 value="0.0195046932" flag="0"/>
      <psa30 value="0.0012056221" flag="0"/>
    </comp>
  </station>
  <station code="MILA" name="MILA" netid="HL" insttype="CMG-5" lat="36.7429" lon="24.4282">
    <comp name="00.HNN">
      <acc value="0.1411446904" flag="0"/>
      <vel value="0.0499163967" flag="0"/>
      <psa03 value="0.4688988611" flag="0"/>
      <psa10 value="0.0332220574" flag="0"/>
      <psa30 value="0.0016613310" flag="0"/>
    </comp>
    <comp name="00.HNE">
      <acc value="0.0817575336" flag="0"/>
      <vel value="0.0390060210" flag="0"/>
      <psa03 value="0.1991353122" flag="0"/>
      <psa10 value="0.0274938290" flag="0"/>
      <psa30 value="0.0017511357" flag="0"/>
    </comp>
    <comp name="00.HNZ">
      <acc value="0.0842296858" flag="0"/>
      <vel value="0.0477879084" flag="0"/>
      <psa03 value="0.2234272025" flag="0"/>
      <psa10 value="0.0190564882" flag="0"/>
      <psa30 value="0.0014342318" flag="0"/>
    </comp>
  </station>
  <station code="SANT" name="SANT" netid="HL" insttype="30" lat="36.3705" lon="25.4593">
    <comp name="--.HHZ">
      <acc value="0.3011399509" flag="0"/>
      <vel value="0.0529581483" flag="0"/>
      <psa03 value="0.1653478546" flag="0"/>
      <psa10 value="0.0090880625" flag="0"/>
      <psa30 value="0.0010980278" flag="0"/>
    </comp>
    <comp name="--.HHE">
      <acc value="0.4682858958" flag="0"/>
      <vel value="0.0764536314" flag="0"/>
      <psa03 value="0.4600183297" flag="0"/>
      <psa10 value="0.0128629532" flag="0"/>
      <psa30 value="0.0019231272" flag="0"/>
    </comp>
  </station>
  <station code="SAP3" name="SAP3" netid="HL" insttype="65535" lat="36.4356" lon="25.3454">
    <comp name="--.HHE">
      <acc value="0.3057252736" flag="0"/>
      <vel value="0.1077370628" flag="0"/>
      <psa03 value="0.5094850024" flag="0"/>
      <psa10 value="0.0339513585" flag="0"/>
      <psa30 value="0.0047489478" flag="0"/>
    </comp>
    <comp name="--.HHN">
      <acc value="0.2732733234" flag="0"/>
      <vel value="0.0738247223" flag="0"/>
      <psa03 value="0.6341861617" flag="0"/>
      <psa10 value="0.0279972583" flag="0"/>
      <psa30 value="0.0034469337" flag="0"/>
    </comp>
  </station>
  <station code="THERA" name="THERA" netid="HL" insttype="120" lat="36.367" lon="25.4753">
    <comp name="--.HHE">
      <acc value="0.1540143479" flag="0"/>
      <vel value="0.0475595508" flag="0"/>
      <psa03 value="0.1379735489" flag="0"/>
      <psa10 value="0.0102830992" flag="0"/>
      <psa30 value="0.0014620605" flag="0"/>
    </comp>
    <comp name="--.HHN">
      <acc value="0.2799110809" flag="0"/>
      <vel value="0.0763514801" flag="0"/>
      <psa03 value="0.2985237351" flag="0"/>
      <psa10 value="0.0150534526" flag="0"/>
      <psa30 value="0.0014967407" flag="0"/>
    </comp>
    <comp name="--.HHZ">
      <acc value="0.1588188932" flag="0"/>
      <vel value="0.0379414200" flag="0"/>
      <psa03 value="0.1111977860" flag="0"/>
      <psa10 value="0.0079108854" flag="0"/>
      <psa30 value="0.0009565406" flag="0"/>
    </comp>
  </station>
  <station code="THRA" name="THRA" netid="HL" insttype="CMG-5" lat="36.415" lon="25.4324">
    <comp name="00.HNZ">
      <acc value="0.3098478897" flag="0"/>
      <vel value="0.0876909439" flag="0"/>
      <psa03 value="0.4637438054" flag="0"/>
      <psa10 value="0.0341336323" flag="0"/>
      <psa30 value="0.0027501377" flag="0"/>
    </comp>
    <comp name="00.HNN">
      <acc value="0.4097308824" flag="0"/>
      <vel value="0.1448567308" flag="0"/>
      <psa03 value="0.6274681305" flag="0"/>
      <psa10 value="0.0869395812" flag="0"/>
      <psa30 value="0.0055780226" flag="0"/>
    </comp>
  </station>
  <station code="AKRO" name="AKRO" netid="HT" insttype="Compact," lat="36.3584" lon="25.3967">
    <comp name="--.HHN">
      <acc value="0.4653749415" flag="0"/>
      <vel value="0.0964221091" flag="0"/>
      <psa03 value="0.4107967971" flag="0"/>
      <psa10 value="0.0248008241" flag="0"/>
      <psa30 value="0.0018624836" flag="0"/>
    </comp>
    <comp name="--.HHE">
      <acc value="0.6543103650" flag="0"/>
      <vel value="0.1759668348" flag="0"/>
      <psa03 value="0.6508496767" flag="0"/>
      <psa10 value="0.0361327518" flag="0"/>
      <psa30 value="0.0031396298" flag="0"/>
    </comp>
    <comp name="--.HHZ">
      <acc value="0.1916680631" flag="0"/>
      <vel value="0.0355999406" flag="0"/>
      <psa03 value="0.1756257776" flag="0"/>
      <psa10 value="0.0129562575" flag="0"/>
      <psa30 value="0.0013683464" flag="0"/>
    </comp>
  </station>
  <station code="CMBO" name="CMBO" netid="HT" insttype="120P," lat="36.4709" lon="25.4056">
    <comp name="--.HHN">
      <acc value="0.5141587862" flag="0"/>
      <vel value="0.1414323940" flag="0"/>
      <psa03 value="0.5165932182" flag="0"/>
      <psa10 value="0.0729903457" flag="0"/>
      <psa30 value="0.0039676195" flag="0"/>
    </comp>
    <comp name="--.HHZ">
      <acc value="0.3477000016" flag="0"/>
      <vel value="0.1062540053" flag="0"/>
      <psa03 value="0.6429848287" flag="0"/>
      <psa10 value="0.0303176210" flag="0"/>
      <psa30 value="0.0033836321" flag="0"/>
    </comp>
  </station>
</stationlist>
