<?xml version="1.0" encoding="UTF-8" standalone="yes"?>
<!DOCTYPE earthquake SYSTEM "stationlist.dtd">
<stationlist created="" xmlns="ch.ethz.sed.shakemap.usgs.xml">
  <station code="KARP" name="KARP" netid="GE" insttype="STS-2/N" lat="35.5471" lon="27.1611">
    <comp name="--.HHE">
      <acc value="0.0319612572" flag="0"/>
      <vel value="0.0086061453" flag="0"/>
      <psa03 value="0.0406101444" flag="0"/>
      <psa10 value="0.0183047429" flag="0"/>
      <psa30 value="0.0005477475" flag="0"/>
    </comp>
    <comp name="--.HHZ">
      <acc value="0.0181814943" flag="0"/>
      <vel value="0.0082543803" flag="0"/>
      <psa03 value="0.0202453072" flag="0"/>
      <psa10 value="0.0110668521" flag="0"/>
      <psa30 value="0.0005936620" flag="0"/>
    </comp>
    <comp name="--.HHN">
      <acc value="0.0339840692" flag="0"/>
      <vel value="0.0173931827" flag="0"/>
      <psa03 value="0.0332542168" flag="0"/>
      <psa10 value="0.0330259493" flag="0"/>
      <psa30 value="0.0013845687" flag="0"/>
    </comp>
  </station>
  <station code="ARG" name="ARG" netid="HL" insttype="LE3D20_DR24" lat="36.2136" lon="28.1212">
    <comp name="--.HHN">
      <acc value="0.0190357273" flag="0"/>
      <vel value="0.0101011825" flag="0"/>
      <psa03 value="0.0394130093" flag="0"/>
      <psa10 value="0.0084616981" flag="0"/>
      <psa30 value="0.0007341968" flag="0"/>
    </comp>
    <comp name="--.HHZ">
      <acc value="0.0094268724" flag="0"/>
      <vel value="0.0082708119" flag="0"/>
      <psa03 value="0.0209940239" flag="0"/>
      <psa10 value="0.0167088133" flag="0"/>
      <psa30 value="0.0011236436" flag="0"/>
    </comp>
    <comp name="--.HHE">
      <acc value="0.0376507038" flag="0"/>
      <vel value="0.0304092790" flag="0"/>
      <psa03 value="0.0693722644" flag="0"/>
      <psa10 value="0.0265942246" flag="0"/>
      <psa30 value="0.0032736643" flag="0"/>
    </comp>
  </station>
  <station code="KARP" name="KARP" netid="HL" insttype="120" lat="35.5471" lon="27.1611">
    <comp name="--.HHE">
      <acc value="0.0298754499" flag="0"/>
      <vel value="0.0083618198" flag="0"/>
      <psa03 value="0.0397778782" flag="0"/>
      <psa10 value="0.0182046887" flag="0"/>
      <psa30 value="0.0005446170" flag="0"/>
    </comp>
    <comp name="--.HHN">
      <acc value="0.0328868945" flag="0"/>
      <vel value="0.0171790962" flag="0"/>
      <psa03 value="0.0325211266" flag="0"/>
      <psa10 value="0.0327971985" flag="0"/>
      <psa30 value="0.0013747018" flag="0"/>
    </comp>
    <comp name="--.HHZ">
      <acc value="0.0172753544" flag="0"/>
      <vel value="0.0081763908" flag="0"/>
      <psa03 value="0.0197680368" flag="0"/>
      <psa10 value="0.0109960010" flag="0"/>
      <psa30 value="0.0005899072" flag="0"/>
    </comp>
  </station>
  <station code="NISR" name="NISR" netid="HL" insttype="65535" lat="36.6106" lon="27.131">
    <comp name="--.HHN">
      <acc value="0.4567832801" flag="0"/>
      <vel value="0.0901621317" flag="0"/>
      <psa03 value="0.2871141665" flag="0"/>
      <psa10 value="0.0219757295" flag="0"/>
      <psa30 value="0.0105892084" flag="0"/>
    </comp>
    <comp name="--.HHE">
      <acc value="0.5240137749" flag="0"/>
      <vel value="0.1385752730" flag="0"/>
      <psa03 value="0.5239852775" flag="0"/>
      <psa10 value="0.0382933048" flag="0"/>
      <psa30 value="0.0051598304" flag="0"/>
    </comp>
    <comp name="--.HHZ">
      <acc value="0.2207940658" flag="0"/>
      <vel value="0.0436588961" flag="0"/>
      <psa03 value="0.1870738148" flag="0"/>
      <psa10 value="0.0153291981" flag="0"/>
      <psa30 value="0.0014011174" flag="0"/>
    </comp>
  </station>
</stationlist>
