<stationlist created="1778138245">
	<station code="KSS1" name="KSS1" netid="HI" source="ITSAK Strong Motion Network" insttype="" lat="35.4189" lon="26.9207">
		<comp name="--.HNE" depth="0.0">
			<acc value="0.00563434690551913" flag="0"/>
			<vel value="0.00184187909394416" flag="0"/>
			<psa03 value="0.0150361445082836" flag="0"/>
			<psa10 value="0.00202065003002095" flag="0"/>
			<psa30 value="0.000157050846556371" flag="0"/>
		</comp>
		<comp name="--.HNN" depth="0.0">
			<acc value="0.00542098316417827" flag="0"/>
			<vel value="0.00257414223054647" flag="0"/>
			<psa03 value="0.0135707922275644" flag="0"/>
			<psa10 value="0.00222366621322216" flag="0"/>
			<psa30 value="0.000172783633567891" flag="0"/>
		</comp>
		<comp name="--.HNZ" depth="0.0">
			<acc value="0.00376589283557779" flag="0"/>
			<vel value="0.00156996674736993" flag="0"/>
			<psa03 value="0.00406462733453072" flag="0"/>
			<psa10 value="0.0020721868815844" flag="0"/>
			<psa30 value="0.000176117018450723" flag="0"/>
		</comp>
	</station>
	<station code="KLNA" name="KLNA" netid="HL" source="National Observatory of Athens Seismic Network" insttype="" lat="36.95708" lon="26.97274">
		<comp name="00.HNE" depth="0.0">
			<acc value="0.0245295150569259" flag="0"/>
			<vel value="0.00803824003945253" flag="0"/>
			<psa03 value="0.0634918414395615" flag="0"/>
			<psa10 value="0.00563499110301971" flag="0"/>
			<psa30 value="0.000922884157377403" flag="0"/>
		</comp>
		<comp name="00.HNN" depth="0.0">
			<acc value="0.0270518858384144" flag="0"/>
			<vel value="0.00872669571924443" flag="0"/>
			<psa03 value="0.0509706317624911" flag="0"/>
			<psa10 value="0.00569281055825821" flag="0"/>
			<psa30 value="0.000477366987804802" flag="0"/>
		</comp>
		<comp name="00.HNZ" depth="0.0">
			<acc value="0.0383192739291633" flag="0"/>
			<vel value="0.00965284741606034" flag="0"/>
			<psa03 value="0.035023729004309" flag="0"/>
			<psa10 value="0.00367931108005329" flag="0"/>
			<psa30 value="0.000494336236930986" flag="0"/>
		</comp>
	</station>
	<station code="NISR" name="NISR" netid="HL" source="National Observatory of Athens Seismic Network" insttype="" lat="36.6106" lon="27.131">
		<comp name="--.HNE" depth="0.0">
			<acc value="0.464369645606043" flag="0"/>
			<vel value="0.128397315885401" flag="0"/>
			<psa03 value="0.485014629836982" flag="0"/>
			<psa10 value="0.0367745611341872" flag="0"/>
			<psa30 value="0.0060490128007351" flag="0"/>
		</comp>
		<comp name="--.HNN" depth="0.0">
			<acc value="0.446355082073886" flag="0"/>
			<vel value="0.0961906560688142" flag="0"/>
			<psa03 value="0.290555456206493" flag="0"/>
			<psa10 value="0.0210451360119835" flag="0"/>
			<psa30 value="0.00463023464697827" flag="0"/>
		</comp>
		<comp name="--.HNZ" depth="0.0">
			<acc value="0.200721868034401" flag="0"/>
			<vel value="0.0380507790956676" flag="0"/>
			<psa03 value="0.17021388000084" flag="0"/>
			<psa10 value="0.0198680661618843" flag="0"/>
			<psa30 value="0.00139960927974549" flag="0"/>
		</comp>
	</station>
</stationlist>
