<stationlist created="1778069342">
	<station code="KRL1" name="KRL1" netid="HI" source="ITSAK Strong Motion Network" insttype="" lat="37.7951" lon="26.7065">
		<comp name="--.HNE" depth="0.0">
			<acc value="0.00860985594084958" flag="0"/>
			<vel value="0.0082014475999617" flag="0"/>
			<psa03 value="0.040333143226941" flag="0"/>
			<psa10 value="0.0105859968953238" flag="0"/>
			<psa30 value="0.00104047559306695" flag="0"/>
		</comp>
		<comp name="--.HNN" depth="0.0">
			<acc value="0.00802385445920547" flag="0"/>
			<vel value="0.00690015751684535" flag="0"/>
			<psa03 value="0.0196053625611359" flag="0"/>
			<psa10 value="0.0153463109927929" flag="0"/>
			<psa30 value="0.000604153720135527" flag="0"/>
		</comp>
		<comp name="--.HNZ" depth="0.0">
			<acc value="0.0055508572010593" flag="0"/>
			<vel value="0.00402705899522815" flag="0"/>
			<psa03 value="0.0127572865138897" flag="0"/>
			<psa10 value="0.00865302603299287" flag="0"/>
			<psa30 value="0.000361383601348466" flag="0"/>
		</comp>
	</station>
	<station code="PRK" name="PRK" netid="HL" source="National Observatory of Athens Seismic Network" insttype="" lat="39.24565" lon="26.26499">
		<comp name="--.HNE" depth="0.0">
			<acc value="0.0243843215089407" flag="0"/>
			<vel value="0.02014454269112" flag="0"/>
			<psa03 value="0.0702452643906867" flag="0"/>
			<psa10 value="0.0208749239198209" flag="0"/>
			<psa30 value="0.00113108298330991" flag="0"/>
		</comp>
		<comp name="--.HNN" depth="0.0">
			<acc value="0.0308579934467785" flag="0"/>
			<vel value="0.0256463440985326" flag="0"/>
			<psa03 value="0.0982538857337248" flag="0"/>
			<psa10 value="0.0332170616154711" flag="0"/>
			<psa30 value="0.00211138473031624" flag="0"/>
		</comp>
		<comp name="--.HNZ" depth="0.0">
			<acc value="0.0220548702986946" flag="0"/>
			<vel value="0.0140749947461978" flag="0"/>
			<psa03 value="0.0597308458353928" flag="0"/>
			<psa10 value="0.0146293592979763" flag="0"/>
			<psa30 value="0.000877842093850492" flag="0"/>
		</comp>
	</station>
	<station code="ALT" name="ALT" netid="KO" source="Bogazici University Kandilli Observatory And Earthquake Research Institute (KOERI)" insttype="" lat="39.0541" lon="30.1104">
		<comp name="--.HNE" depth="0.0">
			<acc value="0.0112711236366898" flag="0"/>
			<vel value="0.00666614061598151" flag="0"/>
			<psa03 value="0.0212525481436791" flag="0"/>
			<psa10 value="0.00839184827332305" flag="0"/>
			<psa30 value="0.00163890702842729" flag="0"/>
		</comp>
		<comp name="--.HNN" depth="0.0">
			<acc value="0.0251949322125617" flag="0"/>
			<vel value="0.0133991827587303" flag="0"/>
			<psa03 value="0.0731982500274926" flag="0"/>
			<psa10 value="0.00897170727109585" flag="0"/>
			<psa30 value="0.00224158455157541" flag="0"/>
		</comp>
		<comp name="--.HNZ" depth="0.0">
			<acc value="0.00928913276297218" flag="0"/>
			<vel value="0.00824470188482293" flag="0"/>
			<psa03 value="0.0218789390363349" flag="0"/>
			<psa10 value="0.0068656916055738" flag="0"/>
			<psa30 value="0.00331316040008302" flag="0"/>
		</comp>
	</station>
	<station code="BIGA" name="BIGA" netid="KO" source="Bogazici University Kandilli Observatory And Earthquake Research Institute (KOERI)" insttype="" lat="40.28134" lon="27.15048">
		<comp name="--.HNE" depth="0.0">
			<acc value="0.0981290286514048" flag="0"/>
			<vel value="0.0393907809645325" flag="0"/>
			<psa03 value="0.193689012450498" flag="0"/>
			<psa10 value="0.063889186518495" flag="0"/>
			<psa30 value="0.00308452772426365" flag="0"/>
		</comp>
		<comp name="--.HNN" depth="0.0">
			<acc value="0.171075372843188" flag="0"/>
			<vel value="0.0920181491767084" flag="0"/>
			<psa03 value="0.4478694882489" flag="0"/>
			<psa10 value="0.0374733877310673" flag="0"/>
			<psa30 value="0.00456012569853426" flag="0"/>
		</comp>
		<comp name="--.HNZ" depth="0.0">
			<acc value="0.0510358073320852" flag="0"/>
			<vel value="0.0217432451869666" flag="0"/>
			<psa03 value="0.0999540895852191" flag="0"/>
			<psa10 value="0.0170051704694065" flag="0"/>
			<psa30 value="0.00263442112568384" flag="0"/>
		</comp>
	</station>
	<station code="BOTS" name="BOTS" netid="KO" source="Bogazici University Kandilli Observatory And Earthquake Research Institute (KOERI)" insttype="" lat="40.9902" lon="27.981">
		<comp name="--.HNE" depth="0.0">
			<acc value="0.00653240740385873" flag="0"/>
			<vel value="0.00367408182276486" flag="0"/>
			<psa03 value="0.0168678118950885" flag="0"/>
			<psa10 value="0.00768715851908527" flag="0"/>
			<psa30 value="0.00101609551230095" flag="0"/>
		</comp>
		<comp name="--.HNN" depth="0.0">
			<acc value="0.00685392469822601" flag="0"/>
			<vel value="0.00527394201215399" flag="0"/>
			<psa03 value="0.0212078059370608" flag="0"/>
			<psa10 value="0.00357177035433663" flag="0"/>
			<psa30 value="0.000815203004584911" flag="0"/>
		</comp>
		<comp name="--.HNZ" depth="0.0">
			<acc value="0.00178224267377302" flag="0"/>
			<vel value="0.00103531583100831" flag="0"/>
			<psa03 value="0.00505586934786471" flag="0"/>
			<psa10 value="0.00176373778489227" flag="0"/>
			<psa30 value="0.000364648983938915" flag="0"/>
		</comp>
	</station>
	<station code="CANM" name="CANM" netid="KO" source="Bogazici University Kandilli Observatory And Earthquake Research Institute (KOERI)" insttype="" lat="40.0113" lon="27.0529">
		<comp name="--.HNE" depth="0.0">
			<acc value="0.0913502797181612" flag="0"/>
			<vel value="0.0587310031258463" flag="0"/>
			<psa03 value="0.179058310886324" flag="0"/>
			<psa10 value="0.0762152170197627" flag="0"/>
			<psa30 value="0.0052581041217793" flag="0"/>
		</comp>
		<comp name="--.HNN" depth="0.0">
			<acc value="0.126841543140133" flag="0"/>
			<vel value="0.0748878368299155" flag="0"/>
			<psa03 value="0.225142783703144" flag="0"/>
			<psa10 value="0.100621643307964" flag="0"/>
			<psa30 value="0.00557264183430575" flag="0"/>
		</comp>
		<comp name="--.HNZ" depth="0.0">
			<acc value="0.0735734310929939" flag="0"/>
			<vel value="0.040281714747598" flag="0"/>
			<psa03 value="0.202234773914588" flag="0"/>
			<psa10 value="0.0318197625027825" flag="0"/>
			<psa30 value="0.00283844558786316" flag="0"/>
		</comp>
	</station>
	<station code="DST" name="DST" netid="KO" source="Bogazici University Kandilli Observatory And Earthquake Research Institute (KOERI)" insttype="" lat="39.6041" lon="28.6267">
		<comp name="--.HNE" depth="0.0">
			<acc value="0.140982555037691" flag="0"/>
			<vel value="0.0586323681443789" flag="0"/>
			<psa03 value="0.427243330997877" flag="0"/>
			<psa10 value="0.0326130418261245" flag="0"/>
			<psa30 value="0.00441202899462778" flag="0"/>
		</comp>
		<comp name="--.HNN" depth="0.0">
			<acc value="0.151873670486674" flag="0"/>
			<vel value="0.0430835892157302" flag="0"/>
			<psa03 value="0.312613797641865" flag="0"/>
			<psa10 value="0.0282359117526589" flag="0"/>
			<psa30 value="0.0043623651452815" flag="0"/>
		</comp>
		<comp name="--.HNZ" depth="0.0">
			<acc value="0.111765618803961" flag="0"/>
			<vel value="0.0398969512945861" flag="0"/>
			<psa03 value="0.183756242581242" flag="0"/>
			<psa10 value="0.026480227564958" flag="0"/>
			<psa30 value="0.00340890872224612" flag="0"/>
		</comp>
	</station>
	<station code="EZNE" name="EZNE" netid="KO" source="Bogazici University Kandilli Observatory And Earthquake Research Institute (KOERI)" insttype="" lat="39.756" lon="26.3655">
		<comp name="--.HNE" depth="0.0">
			<acc value="0.0574846350469167" flag="0"/>
			<vel value="0.0268673947118382" flag="0"/>
			<psa03 value="0.188051494416596" flag="0"/>
			<psa10 value="0.0217769268052452" flag="0"/>
			<psa30 value="0.00199058077244691" flag="0"/>
		</comp>
		<comp name="--.HNN" depth="0.0">
			<acc value="0.0958453867989291" flag="0"/>
			<vel value="0.0604387775236087" flag="0"/>
			<psa03 value="0.348139109696773" flag="0"/>
			<psa10 value="0.026480227564958" flag="0"/>
			<psa30 value="0.0025216707650058" flag="0"/>
		</comp>
		<comp name="--.HNZ" depth="0.0">
			<acc value="0.0454584039579593" flag="0"/>
			<vel value="0.0304233028379157" flag="0"/>
			<psa03 value="0.0985223389734344" flag="0"/>
			<psa10 value="0.0222641694353182" flag="0"/>
			<psa30 value="0.00220221140975134" flag="0"/>
		</comp>
	</station>
	<station code="FOCM" name="FOCM" netid="KO" source="Bogazici University Kandilli Observatory And Earthquake Research Institute (KOERI)" insttype="" lat="38.7131" lon="26.7309">
		<comp name="--.HNE" depth="0.0">
			<acc value="0.26802222741952" flag="0"/>
			<vel value="0.189371232348472" flag="0"/>
			<psa03 value="0.867148706468725" flag="0"/>
			<psa10 value="0.200719802798494" flag="0"/>
			<psa30 value="0.0106231421173763" flag="0"/>
		</comp>
		<comp name="--.HNN" depth="0.0">
			<acc value="0.146706562417005" flag="0"/>
			<vel value="0.101871965387688" flag="0"/>
			<psa03 value="0.409480674970423" flag="0"/>
			<psa10 value="0.0924029473742534" flag="0"/>
			<psa30 value="0.00479546970534637" flag="0"/>
		</comp>
		<comp name="--.HNZ" depth="0.0">
			<acc value="0.163016891626942" flag="0"/>
			<vel value="0.09307560449713" flag="0"/>
			<psa03 value="0.62003749931601" flag="0"/>
			<psa10 value="0.0623871906423196" flag="0"/>
			<psa30 value="0.00388809775512781" flag="0"/>
		</comp>
	</station>
	<station code="GMLD" name="GMLD" netid="KO" source="Bogazici University Kandilli Observatory And Earthquake Research Institute (KOERI)" insttype="" lat="38.0766" lon="26.9157">
		<comp name="--.HNE" depth="0.0">
			<acc value="0.15317687439729" flag="0"/>
			<vel value="0.128747027507536" flag="0"/>
			<psa03 value="0.506213325679127" flag="0"/>
			<psa10 value="0.0874097171156542" flag="0"/>
			<psa30 value="0.0060657009512391" flag="0"/>
		</comp>
		<comp name="--.HNN" depth="0.0">
			<acc value="0.166619611112792" flag="0"/>
			<vel value="0.119075609212703" flag="0"/>
			<psa03 value="0.464558331317516" flag="0"/>
			<psa10 value="0.111558428293734" flag="0"/>
			<psa30 value="0.00732832602200673" flag="0"/>
		</comp>
		<comp name="--.HNZ" depth="0.0">
			<acc value="0.115886943780567" flag="0"/>
			<vel value="0.0641435910025567" flag="0"/>
			<psa03 value="0.409077995110859" flag="0"/>
			<psa10 value="0.0458209412198383" flag="0"/>
			<psa30 value="0.00336416651562785" flag="0"/>
		</comp>
	</station>
	<station code="GOMA" name="GOMA" netid="KO" source="Bogazici University Kandilli Observatory And Earthquake Research Institute (KOERI)" insttype="" lat="38.7077" lon="27.9175">
		<comp name="--.HNE" depth="0.0">
			<acc value="0.192239089784573" flag="0"/>
			<vel value="0.147466947795797" flag="0"/>
			<psa03 value="0.589568056608967" flag="0"/>
			<psa10 value="0.158136407649554" flag="0"/>
			<psa30 value="0.00866343346749596" flag="0"/>
		</comp>
		<comp name="--.HNN" depth="0.0">
			<acc value="0.163222010753637" flag="0"/>
			<vel value="0.10889498546302" flag="0"/>
			<psa03 value="0.57135797851533" flag="0"/>
			<psa10 value="0.0780554639779722" flag="0"/>
			<psa30 value="0.00691848740938336" flag="0"/>
		</comp>
		<comp name="--.HNZ" depth="0.0">
			<acc value="0.162446601007173" flag="0"/>
			<vel value="0.0638787206167144" flag="0"/>
			<psa03 value="0.2081407451882" flag="0"/>
			<psa10 value="0.0558355893272061" flag="0"/>
			<psa30 value="0.0052630257645073" flag="0"/>
		</comp>
	</station>
	<station code="GONE" name="GONE" netid="KO" source="Bogazici University Kandilli Observatory And Earthquake Research Institute (KOERI)" insttype="" lat="40.0466" lon="27.686">
		<comp name="--.HNE" depth="0.0">
			<acc value="0.0929526298628931" flag="0"/>
			<vel value="0.0563585231046437" flag="0"/>
			<psa03 value="0.224740103843579" flag="0"/>
			<psa10 value="0.0487766113890413" flag="0"/>
			<psa30 value="0.00598605982345858" flag="0"/>
		</comp>
		<comp name="--.HNN" depth="0.0">
			<acc value="0.0806985164998512" flag="0"/>
			<vel value="0.0472916514738817" flag="0"/>
			<psa03 value="0.13798496521075" flag="0"/>
			<psa10 value="0.0348761026368766" flag="0"/>
			<psa30 value="0.00378519067990579" flag="0"/>
		</comp>
		<comp name="--.HNZ" depth="0.0">
			<acc value="0.0534503351988346" flag="0"/>
			<vel value="0.0192573187477388" flag="0"/>
			<psa03 value="0.117045612513399" flag="0"/>
			<psa10 value="0.0172306711907626" flag="0"/>
			<psa30 value="0.00207917034155109" flag="0"/>
		</comp>
	</station>
	<station code="GORD" name="GORD" netid="KO" source="Bogazici University Kandilli Observatory And Earthquake Research Institute (KOERI)" insttype="" lat="38.9088" lon="28.1769">
		<comp name="--.HNE" depth="0.0">
			<acc value="0.19049905880943" flag="0"/>
			<vel value="0.168232384445352" flag="0"/>
			<psa03 value="0.557219441223957" flag="0"/>
			<psa10 value="0.18123412439417" flag="0"/>
			<psa30 value="0.0126271455518087" flag="0"/>
		</comp>
		<comp name="--.HNN" depth="0.0">
			<acc value="0.273835672291394" flag="0"/>
			<vel value="0.165569329300824" flag="0"/>
			<psa03 value="0.504199926381304" flag="0"/>
			<psa10 value="0.191184343724008" flag="0"/>
			<psa30 value="0.00914888640930421" flag="0"/>
		</comp>
		<comp name="--.HNZ" depth="0.0">
			<acc value="0.178636152216508" flag="0"/>
			<vel value="0.143834641812513" flag="0"/>
			<psa03 value="0.435520639222257" flag="0"/>
			<psa10 value="0.179756289309569" flag="0"/>
			<psa30 value="0.011266535048547" flag="0"/>
		</comp>
	</station>
	<station code="HVHR" name="HVHR" netid="KO" source="Bogazici University Kandilli Observatory And Earthquake Research Institute (KOERI)" insttype="" lat="40.9699" lon="28.8445">
		<comp name="--.HNE" depth="0.0">
			<acc value="0.0141105567484848" flag="0"/>
			<vel value="0.00919839370553713" flag="0"/>
			<psa03 value="0.0362859295674184" flag="0"/>
			<psa10 value="0.00977706699022474" flag="0"/>
			<psa30 value="0.00133197549102595" flag="0"/>
		</comp>
		<comp name="--.HNN" depth="0.0">
			<acc value="0.0129330633592035" flag="0"/>
			<vel value="0.00917018437923558" flag="0"/>
			<psa03 value="0.037046547079929" flag="0"/>
			<psa10 value="0.00704287074378216" flag="0"/>
			<psa30 value="0.000812965894253998" flag="0"/>
		</comp>
		<comp name="--.HNZ" depth="0.0">
			<acc value="0.008663514684919" flag="0"/>
			<vel value="0.00450730900755021" flag="0"/>
			<psa03 value="0.0291271765084949" flag="0"/>
			<psa10 value="0.00433686208750908" flag="0"/>
			<psa30 value="0.000406259236093907" flag="0"/>
		</comp>
	</station>
	<station code="NAZL" name="NAZL" netid="KO" source="Bogazici University Kandilli Observatory And Earthquake Research Institute (KOERI)" insttype="" lat="37.9641" lon="28.2922">
		<comp name="--.HNE" depth="0.0">
			<acc value="0.0834096963940187" flag="0"/>
			<vel value="0.0452767987935384" flag="0"/>
			<psa03 value="0.296372376639432" flag="0"/>
			<psa10 value="0.082915809882915" flag="0"/>
			<psa30 value="0.00568181281845433" flag="0"/>
		</comp>
		<comp name="--.HNN" depth="0.0">
			<acc value="0.107819443005044" flag="0"/>
			<vel value="0.0680281257855519" flag="0"/>
			<psa03 value="0.463484518358677" flag="0"/>
			<psa10 value="0.0538262168279795" flag="0"/>
			<psa30 value="0.00289840014473164" flag="0"/>
		</comp>
		<comp name="--.HNZ" depth="0.0">
			<acc value="0.0397824434976399" flag="0"/>
			<vel value="0.027664987217174" flag="0"/>
			<psa03 value="0.117493034579582" flag="0"/>
			<psa10 value="0.0309580276033146" flag="0"/>
			<psa30 value="0.00189214791788671" flag="0"/>
		</comp>
	</station>
	<station code="ODEM" name="ODEM" netid="KO" source="Bogazici University Kandilli Observatory And Earthquake Research Institute (KOERI)" insttype="" lat="38.2762" lon="28.0747">
		<comp name="--.HNE" depth="0.0">
			<acc value="0.113807821089054" flag="0"/>
			<vel value="0.0496302900124642" flag="0"/>
			<psa03 value="0.195702411748321" flag="0"/>
			<psa10 value="0.0481484308081208" flag="0"/>
			<psa30 value="0.00301651957020388" flag="0"/>
		</comp>
		<comp name="--.HNN" depth="0.0">
			<acc value="0.0810548188252941" flag="0"/>
			<vel value="0.0398183522539601" flag="0"/>
			<psa03 value="0.164159156082439" flag="0"/>
			<psa10 value="0.0376022452861279" flag="0"/>
			<psa30 value="0.00310242460691096" flag="0"/>
		</comp>
		<comp name="--.HNZ" depth="0.0">
			<acc value="0.094247400900829" flag="0"/>
			<vel value="0.0349484267993659" flag="0"/>
			<psa03 value="0.122101481861264" flag="0"/>
			<psa10 value="0.0229084572106213" flag="0"/>
			<psa30 value="0.00179282021919415" flag="0"/>
		</comp>
	</station>
	<station code="ORLT" name="ORLT" netid="KO" source="Bogazici University Kandilli Observatory And Earthquake Research Institute (KOERI)" insttype="" lat="40.0452" lon="28.8914">
		<comp name="--.HNE" depth="0.0">
			<acc value="0.258458019961603" flag="0"/>
			<vel value="0.15443242510573" flag="0"/>
			<psa03 value="0.889877747430807" flag="0"/>
			<psa10 value="0.126513958277958" flag="0"/>
			<psa30 value="0.00540843793601669" flag="0"/>
		</comp>
		<comp name="--.HNN" depth="0.0">
			<acc value="0.209379608069554" flag="0"/>
			<vel value="0.0991391368006633" flag="0"/>
			<psa03 value="0.709745623585645" flag="0"/>
			<psa10 value="0.125555580212194" flag="0"/>
			<psa30 value="0.00567868086399105" flag="0"/>
		</comp>
		<comp name="--.HNZ" depth="0.0">
			<acc value="0.0678660600286249" flag="0"/>
			<vel value="0.0349171331210017" flag="0"/>
			<psa03 value="0.206753736783034" flag="0"/>
			<psa10 value="0.0647549482165585" flag="0"/>
			<psa30 value="0.00369570626666925" flag="0"/>
		</comp>
	</station>
	<station code="SHAP" name="SHAP" netid="KO" source="Bogazici University Kandilli Observatory And Earthquake Research Institute (KOERI)" insttype="" lat="39.0231" lon="29.222">
		<comp name="--.HNE" depth="0.0">
			<acc value="0.282383624182458" flag="0"/>
			<vel value="0.113995294547577" flag="0"/>
			<psa03 value="0.798021997243495" flag="0"/>
			<psa10 value="0.041451864743564" flag="0"/>
			<psa30 value="0.00301249277160824" flag="0"/>
		</comp>
		<comp name="--.HNN" depth="0.0">
			<acc value="0.248817901776643" flag="0"/>
			<vel value="0.0772036964105231" flag="0"/>
			<psa03 value="0.467332348127849" flag="0"/>
			<psa10 value="0.0510356454011979" flag="0"/>
			<psa30 value="0.00490195615709785" flag="0"/>
		</comp>
		<comp name="--.HNZ" depth="0.0">
			<acc value="0.0954830195605921" flag="0"/>
			<vel value="0.0328659675652866" flag="0"/>
			<psa03 value="0.17914779529956" flag="0"/>
			<psa10 value="0.015414585024127" flag="0"/>
			<psa30 value="0.00327378725825894" flag="0"/>
		</comp>
	</station>
	<station code="SINB" name="SINB" netid="KO" source="Bogazici University Kandilli Observatory And Earthquake Research Institute (KOERI)" insttype="" lat="40.9998" lon="28.5392">
		<comp name="--.HNE" depth="0.0">
			<acc value="0.0155533116350285" flag="0"/>
			<vel value="0.0113552672719893" flag="0"/>
			<psa03 value="0.0521246707102866" flag="0"/>
			<psa10 value="0.00857305421012705" flag="0"/>
			<psa30 value="0.00146978148741023" flag="0"/>
		</comp>
		<comp name="--.HNN" depth="0.0">
			<acc value="0.00842597198704351" flag="0"/>
			<vel value="0.0073002275692636" flag="0"/>
			<psa03 value="0.031274802426172" flag="0"/>
			<psa10 value="0.00982136177477683" flag="0"/>
			<psa30 value="0.000833994731364585" flag="0"/>
		</comp>
		<comp name="--.HNZ" depth="0.0">
			<acc value="0.00402289214087967" flag="0"/>
			<vel value="0.00240703262127193" flag="0"/>
			<psa03 value="0.0115434893075141" flag="0"/>
			<psa10 value="0.0032335192723025" flag="0"/>
			<psa30 value="0.000458607617837285" flag="0"/>
		</comp>
	</station>
	<station code="SMAA" name="SMAA" netid="KO" source="Bogazici University Kandilli Observatory And Earthquake Research Institute (KOERI)" insttype="" lat="39.1005" lon="28.9805">
		<comp name="--.HNE" depth="0.0">
			<acc value="0.341299335573308" flag="0"/>
			<vel value="0.194097826245287" flag="0"/>
			<psa03 value="1.01703509863994" flag="0"/>
			<psa10 value="0.42901512237996" flag="0"/>
			<psa30 value="0.0175729490713924" flag="0"/>
		</comp>
