<?xml version="1.0" encoding="UTF-8" standalone="yes"?>
<!DOCTYPE earthquake SYSTEM "stationlist.dtd">
<stationlist created="" xmlns="ch.ethz.sed.shakemap.usgs.xml">
  <station code="AKS" name="AKS" netid="KO" insttype="100" lat="38.8785" lon="27.8129">
    <comp name="--.HNE">
      <acc value="1.4675150437" flag="0"/>
      <vel value="0.6526528369" flag="0"/>
      <psa03 value="1.3683472816" flag="0"/>
      <psa10 value="0.4541973513" flag="0"/>
      <psa30 value="0.0364728221" flag="0"/>
    </comp>
    <comp name="--.HNN">
      <acc value="1.6521760608" flag="0"/>
      <vel value="0.4893618050" flag="0"/>
      <psa03 value="3.4950672156" flag="0"/>
      <psa10 value="0.2845196957" flag="0"/>
      <psa30 value="0.0202145489" flag="0"/>
    </comp>
  </station>
  <station code="BALB" name="BALB" netid="KO" insttype="120s," lat="39.64" lon="27.88">
    <comp name="--.HHE">
      <acc value="0.0363822811" flag="0"/>
      <vel value="0.0229768810" flag="0"/>
      <psa03 value="0.0769830926" flag="0"/>
      <psa10 value="0.0275144291" flag="0"/>
      <psa30 value="0.0035646949" flag="0"/>
    </comp>
    <comp name="--.HHN">
      <acc value="0.0415457546" flag="0"/>
      <vel value="0.0187125924" flag="0"/>
      <psa03 value="0.0812944586" flag="0"/>
      <psa10 value="0.0481024488" flag="0"/>
      <psa30 value="0.0013634981" flag="0"/>
    </comp>
    <comp name="--.HHZ">
      <acc value="0.0276143081" flag="0"/>
      <vel value="0.0161161296" flag="0"/>
      <psa03 value="0.0496456275" flag="0"/>
      <psa10 value="0.0233183651" flag="0"/>
      <psa30 value="0.0011167841" flag="0"/>
    </comp>
  </station>
  <station code="DST" name="DST" netid="KO" insttype="100" lat="39.6041" lon="28.6267">
    <comp name="--.HNE">
      <acc value="0.1384313064" flag="0"/>
      <vel value="0.0583838417" flag="0"/>
      <psa03 value="0.4193938620" flag="0"/>
      <psa10 value="0.0326678821" flag="0"/>
      <psa30 value="0.0048947523" flag="0"/>
    </comp>
    <comp name="--.HNZ">
      <acc value="0.1097807874" flag="0"/>
      <vel value="0.0397296843" flag="0"/>
      <psa03 value="0.1825225338" flag="0"/>
      <psa10 value="0.0264765240" flag="0"/>
      <psa30 value="0.0037770221" flag="0"/>
    </comp>
    <comp name="--.HNN">
      <acc value="0.1513294029" flag="0"/>
      <vel value="0.0427472135" flag="0"/>
      <psa03 value="0.3158011106" flag="0"/>
      <psa10 value="0.0282463207" flag="0"/>
      <psa30 value="0.0047577907" flag="0"/>
    </comp>
  </station>
  <station code="GOMA" name="GOMA" netid="KO" insttype="100" lat="38.7077" lon="27.9175">
    <comp name="--.HNN">
      <acc value="0.1633392898" flag="0"/>
      <vel value="0.1101967239" flag="0"/>
      <psa03 value="0.5759890453" flag="0"/>
      <psa10 value="0.0781525676" flag="0"/>
      <psa30 value="0.0072296629" flag="0"/>
    </comp>
    <comp name="--.HNE">
      <acc value="0.1943009047" flag="0"/>
      <vel value="0.1462078910" flag="0"/>
      <psa03 value="0.6011019288" flag="0"/>
      <psa10 value="0.1580352745" flag="0"/>
      <psa30 value="0.0085046085" flag="0"/>
    </comp>
    <comp name="--.HNZ">
      <acc value="0.1600417847" flag="0"/>
      <vel value="0.0628014506" flag="0"/>
      <psa03 value="0.2023850496" flag="0"/>
      <psa10 value="0.0555636959" flag="0"/>
      <psa30 value="0.0053365084" flag="0"/>
    </comp>
  </station>
  <station code="GONE" name="GONE" netid="KO" insttype="100" lat="40.0466" lon="27.686">
    <comp name="--.HNE">
      <acc value="0.0931768841" flag="0"/>
      <vel value="0.0559380702" flag="0"/>
      <psa03 value="0.2220095556" flag="0"/>
      <psa10 value="0.0486563253" flag="0"/>
      <psa30 value="0.0058174758" flag="0"/>
    </comp>
    <comp name="--.HNN">
      <acc value="0.0813482926" flag="0"/>
      <vel value="0.0475601903" flag="0"/>
      <psa03 value="0.1392779089" flag="0"/>
      <psa10 value="0.0347248057" flag="0"/>
      <psa30 value="0.0035888069" flag="0"/>
    </comp>
    <comp name="--.HNZ">
      <acc value="0.0536300461" flag="0"/>
      <vel value="0.0189134515" flag="0"/>
      <psa03 value="0.1145416186" flag="0"/>
      <psa10 value="0.0171710123" flag="0"/>
      <psa30 value="0.0019425099" flag="0"/>
    </comp>
  </station>
  <station code="SHAP" name="SHAP" netid="KO" insttype="100" lat="39.0231" lon="29.222">
    <comp name="--.HNE">
      <acc value="0.2823963883" flag="0"/>
      <vel value="0.1126339881" flag="0"/>
      <psa03 value="0.7914996224" flag="0"/>
      <psa10 value="0.0414468573" flag="0"/>
      <psa30 value="0.0027803212" flag="0"/>
    </comp>
    <comp name="--.HNN">
      <acc value="0.2471783505" flag="0"/>
      <vel value="0.0765390787" flag="0"/>
      <psa03 value="0.4635610692" flag="0"/>
      <psa10 value="0.0510617864" flag="0"/>
      <psa30 value="0.0046316684" flag="0"/>
    </comp>
    <comp name="--.HNZ">
      <acc value="0.0956190787" flag="0"/>
      <vel value="0.0323226166" flag="0"/>
      <psa03 value="0.1759249150" flag="0"/>
      <psa10 value="0.0153777699" flag="0"/>
      <psa30 value="0.0030514725" flag="0"/>
    </comp>
  </station>
  <station code="SMAA" name="SMAA" netid="KO" insttype="100" lat="39.1005" lon="28.9805">
    <comp name="--.HNE">
      <acc value="0.3399974192" flag="0"/>
      <vel value="0.1929139859" flag="0"/>
      <psa03 value="1.0403304737" flag="0"/>
      <psa10 value="0.4284722199" flag="0"/>
      <psa30 value="0.0174204330" flag="0"/>
    </comp>
    <comp name="--.HNZ">
      <acc value="0.1026567650" flag="0"/>
      <vel value="0.0906288050" flag="0"/>
      <psa03 value="0.1855700769" flag="0"/>
      <psa10 value="0.1948267003" flag="0"/>
      <psa30 value="0.0093598460" flag="0"/>
    </comp>
    <comp name="--.HNN">
      <acc value="0.2419415021" flag="0"/>
      <vel value="0.2166787574" flag="0"/>
      <psa03 value="0.5688401972" flag="0"/>
      <psa10 value="0.2608880695" flag="0"/>
      <psa30 value="0.0250313131" flag="0"/>
    </comp>
  </station>
</stationlist>
