<?xml version="1.0" encoding="UTF-8" standalone="yes"?>
<!DOCTYPE earthquake SYSTEM "stationlist.dtd">
<stationlist created="" xmlns="ch.ethz.sed.shakemap.usgs.xml">
  <station code="RDO" name="RDO" netid="HL" insttype="120" lat="41.145" lon="25.5355">
    <comp name="--.HHE">
      <acc value="0.0162443038" flag="0"/>
      <vel value="0.0059077699" flag="0"/>
      <psa03 value="0.0399874086" flag="0"/>
      <psa10 value="0.0039737430" flag="0"/>
      <psa30 value="0.0003686568" flag="0"/>
    </comp>
    <comp name="--.HHN">
      <acc value="0.0161469658" flag="0"/>
      <vel value="0.0062987058" flag="0"/>
      <psa03 value="0.0508762641" flag="0"/>
      <psa10 value="0.0048433503" flag="0"/>
      <psa30 value="0.0003764911" flag="0"/>
    </comp>
    <comp name="--.HHZ">
      <acc value="0.0099906650" flag="0"/>
      <vel value="0.0034229999" flag="0"/>
      <psa03 value="0.0138651835" flag="0"/>
      <psa10 value="0.0029401294" flag="0"/>
      <psa30 value="0.0002074160" flag="0"/>
    </comp>
  </station>
  <station code="THAS" name="THAS" netid="HT" insttype="100" lat="40.6064" lon="24.7194">
    <comp name="--.HHZ">
      <acc value="0.0041510479" flag="0"/>
      <vel value="0.0020548475" flag="0"/>
      <psa03 value="0.0049984302" flag="0"/>
      <psa10 value="0.0019470035" flag="0"/>
      <psa30 value="0.0002960513" flag="0"/>
    </comp>
    <comp name="--.HHE">
      <acc value="0.0045166843" flag="0"/>
      <vel value="0.0021478413" flag="0"/>
      <psa03 value="0.0090355456" flag="0"/>
      <psa10 value="0.0017402055" flag="0"/>
      <psa30 value="0.0002691286" flag="0"/>
    </comp>
    <comp name="--.HHN">
      <acc value="0.0039994499" flag="0"/>
      <vel value="0.0031085758" flag="0"/>
      <psa03 value="0.0077376174" flag="0"/>
      <psa10 value="0.0038953140" flag="0"/>
      <psa30 value="0.0004529045" flag="0"/>
    </comp>
  </station>
  <station code="BIGA" name="BIGA" netid="KO" insttype="CMG-5T" lat="40.2813" lon="27.1505">
    <comp name="--.HNZ">
      <acc value="0.0592925655" flag="0"/>
      <vel value="0.0117332612" flag="0"/>
      <psa03 value="0.0425561236" flag="0"/>
      <psa10 value="0.0055810074" flag="0"/>
      <psa30 value="0.0004198720" flag="0"/>
    </comp>
    <comp name="--.HNE">
      <acc value="0.0873427130" flag="0"/>
      <vel value="0.0225808615" flag="0"/>
      <psa03 value="0.1183491118" flag="0"/>
      <psa10 value="0.0065543190" flag="0"/>
      <psa30 value="0.0008708832" flag="0"/>
    </comp>
    <comp name="--.HNN">
      <acc value="0.1511949690" flag="0"/>
      <vel value="0.0318479463" flag="0"/>
      <psa03 value="0.1164045982" flag="0"/>
      <psa10 value="0.0124655337" flag="0"/>
      <psa30 value="0.0009217358" flag="0"/>
    </comp>
  </station>
  <station code="BMYO" name="BMYO" netid="KO" insttype="CMG-5T" lat="39.8098" lon="26.6009">
    <comp name="--.HNE">
      <acc value="0.0274700232" flag="0"/>
      <vel value="0.0107982247" flag="0"/>
      <psa03 value="0.1004361294" flag="0"/>
      <psa10 value="0.0085114333" flag="0"/>
      <psa30 value="0.0012818801" flag="0"/>
    </comp>
    <comp name="--.HNZ">
      <acc value="0.0104186786" flag="0"/>
      <vel value="0.0042952409" flag="0"/>
      <psa03 value="0.0211525257" flag="0"/>
      <psa10 value="0.0077933669" flag="0"/>
      <psa30 value="0.0006714700" flag="0"/>
    </comp>
    <comp name="--.HNN">
      <acc value="0.0295870809" flag="0"/>
      <vel value="0.0142635442" flag="0"/>
      <psa03 value="0.0524631271" flag="0"/>
      <psa10 value="0.0095917335" flag="0"/>
      <psa30 value="0.0012880222" flag="0"/>
    </comp>
  </station>
  <station code="CANM" name="CANM" netid="KO" insttype="CMG-5T" lat="40.0113" lon="27.0529">
    <comp name="--.HNN">
      <acc value="0.0798629063" flag="0"/>
      <vel value="0.0198270348" flag="0"/>
      <psa03 value="0.0819449163" flag="0"/>
      <psa10 value="0.0062861898" flag="0"/>
      <psa30 value="0.0007251470" flag="0"/>
    </comp>
    <comp name="--.HNZ">
      <acc value="0.0525339419" flag="0"/>
      <vel value="0.0169349491" flag="0"/>
      <psa03 value="0.0678801791" flag="0"/>
      <psa10 value="0.0047918281" flag="0"/>
      <psa30 value="0.0004808860" flag="0"/>
    </comp>
    <comp name="--.HNE">
      <acc value="0.0556373438" flag="0"/>
      <vel value="0.0160811198" flag="0"/>
      <psa03 value="0.0534466003" flag="0"/>
      <psa10 value="0.0060968576" flag="0"/>
      <psa30 value="0.0006306907" flag="0"/>
    </comp>
  </station>
  <station code="ENEZ" name="ENEZ" netid="KO" insttype="CMG-3T" lat="40.7362" lon="26.153">
    <comp name="--.HHN">
      <acc value="0.1719216857" flag="0"/>
      <vel value="0.0827432326" flag="0"/>
      <psa03 value="0.8653999449" flag="0"/>
      <psa10 value="0.0468319362" flag="0"/>
      <psa30 value="0.0050461786" flag="0"/>
    </comp>
  </station>
  <station code="ENZZ" name="ENZZ" netid="KO" insttype="CMG-5T" lat="40.607" lon="26.1406">
    <comp name="--.HNE">
      <acc value="0.7021824972" flag="0"/>
      <vel value="0.4854551674" flag="0"/>
      <psa03 value="1.4265995942" flag="0"/>
      <psa10 value="0.3981257826" flag="0"/>
      <psa30 value="0.0272407359" flag="0"/>
    </comp>
    <comp name="--.HNN">
      <acc value="1.0931598379" flag="0"/>
      <vel value="0.5674732699" flag="0"/>
      <psa03 value="2.3258959069" flag="0"/>
      <psa10 value="0.3417075420" flag="0"/>
      <psa30 value="0.0191902531" flag="0"/>
    </comp>
    <comp name="--.HNZ">
      <acc value="0.2558585341" flag="0"/>
      <vel value="0.1094188096" flag="0"/>
      <psa03 value="0.7070000086" flag="0"/>
      <psa10 value="0.0477099916" flag="0"/>
      <psa30 value="0.0048606208" flag="0"/>
    </comp>
  </station>
  <station code="EZN" name="EZN" netid="KO" insttype="CMG-3ESP" lat="39.8255" lon="26.3246">
    <comp name="--.HHN">
      <acc value="0.0301990579" flag="0"/>
      <vel value="0.0058916607" flag="0"/>
      <psa03 value="0.0389250779" flag="0"/>
      <psa10 value="0.0040393130" flag="0"/>
      <psa30 value="0.0003965121" flag="0"/>
    </comp>
    <comp name="--.HHZ">
      <acc value="0.0194678225" flag="0"/>
      <vel value="0.0055785626" flag="0"/>
      <psa03 value="0.0258533460" flag="0"/>
      <psa10 value="0.0041812147" flag="0"/>
      <psa30 value="0.0003449616" flag="0"/>
    </comp>
  </station>
  <station code="GAZK" name="GAZK" netid="KO" insttype="CMG-6T" lat="40.7479" lon="27.3275">
    <comp name="--.HHN">
      <acc value="0.1100315423" flag="0"/>
      <vel value="0.0391780903" flag="0"/>
      <psa03 value="0.1927076436" flag="0"/>
      <psa10 value="0.0252005125" flag="0"/>
      <psa30 value="0.0013282336" flag="0"/>
    </comp>
    <comp name="--.HHZ">
      <acc value="0.0553309537" flag="0"/>
      <vel value="0.0273574513" flag="0"/>
      <psa03 value="0.1075279764" flag="0"/>
      <psa10 value="0.0275171669" flag="0"/>
      <psa30 value="0.0017123337" flag="0"/>
    </comp>
    <comp name="--.HHE">
      <acc value="0.1157273502" flag="0"/>
      <vel value="0.0353174229" flag="0"/>
      <psa03 value="0.1411347498" flag="0"/>
      <psa10 value="0.0215117231" flag="0"/>
      <psa30 value="0.0018979585" flag="0"/>
    </comp>
  </station>
  <station code="GELI" name="GELI" netid="KO" insttype="CMG-3ESP" lat="40.398" lon="26.4742">
    <comp name="--.HHN">
      <acc value="0.1843087666" flag="0"/>
      <vel value="0.0825975689" flag="0"/>
      <psa03 value="0.3850243609" flag="0"/>
      <psa10 value="0.0319326454" flag="0"/>
      <psa30 value="0.0040998738" flag="0"/>
    </comp>
    <comp name="--.HHE">
      <acc value="0.2058600148" flag="0"/>
      <vel value="0.0455817945" flag="0"/>
      <psa03 value="0.3002708341" flag="0"/>
      <psa10 value="0.0252636259" flag="0"/>
      <psa30 value="0.0024512567" flag="0"/>
    </comp>
  </station>
  <station code="KRBG" name="KRBG" netid="KO" insttype="CMG-3ESP" lat="40.3932" lon="27.2977">
    <comp name="--.HHE">
      <acc value="0.0750395231" flag="0"/>
      <vel value="0.0181948531" flag="0"/>
      <psa03 value="0.1156286272" flag="0"/>
      <psa10 value="0.0070754512" flag="0"/>
      <psa30 value="0.0004031404" flag="0"/>
    </comp>
    <comp name="--.HHZ">
      <acc value="0.0403925460" flag="0"/>
      <vel value="0.0089475485" flag="0"/>
      <psa03 value="0.0717415754" flag="0"/>
      <psa10 value="0.0057332389" flag="0"/>
      <psa30 value="0.0003001245" flag="0"/>
    </comp>
  </station>
  <station code="LAPK" name="LAPK" netid="KO" insttype="CMG-5T" lat="40.3151" lon="26.6425">
    <comp name="--.HNN">
      <acc value="0.4462063338" flag="0"/>
      <vel value="0.1981489514" flag="0"/>
      <psa03 value="0.8526004000" flag="0"/>
      <psa10 value="0.0994736820" flag="0"/>
      <psa30 value="0.0091062398" flag="0"/>
    </comp>
    <comp name="--.HNZ">
      <acc value="0.1524672092" flag="0"/>
      <vel value="0.0558106066" flag="0"/>
      <psa03 value="0.4168791224" flag="0"/>
      <psa10 value="0.0362988593" flag="0"/>
      <psa30 value="0.0028337727" flag="0"/>
    </comp>
    <comp name="--.HNE">
      <acc value="0.3270204521" flag="0"/>
      <vel value="0.1120819579" flag="0"/>
      <psa03 value="0.7438945809" flag="0"/>
      <psa10 value="0.0717314758" flag="0"/>
      <psa30 value="0.0047906616" flag="0"/>
    </comp>
  </station>
  <station code="MRMT" name="MRMT" netid="KO" insttype="CMG-3T" lat="40.609" lon="27.5832">
    <comp name="--.HHZ">
      <acc value="0.0223167895" flag="0"/>
      <vel value="0.0060815091" flag="0"/>
      <psa03 value="0.0425544402" flag="0"/>
      <psa10 value="0.0058613903" flag="0"/>
      <psa30 value="0.0004338064" flag="0"/>
    </comp>
    <comp name="--.HHE">
      <acc value="0.0444124654" flag="0"/>
      <vel value="0.0115997534" flag="0"/>
      <psa03 value="0.0674635359" flag="0"/>
      <psa10 value="0.0085778091" flag="0"/>
      <psa30 value="0.0003773613" flag="0"/>
    </comp>
    <comp name="--.HHN">
      <acc value="0.0375179343" flag="0"/>
      <vel value="0.0123692286" flag="0"/>
      <psa03 value="0.0608887125" flag="0"/>
      <psa10 value="0.0071859231" flag="0"/>
      <psa30 value="0.0007222530" flag="0"/>
    </comp>
  </station>
  <station code="UKOP" name="UKOP" netid="KO" insttype="CMG-5T" lat="41.1288" lon="26.6323">
    <comp name="--.HNZ">
      <acc value="0.0348192846" flag="0"/>
      <vel value="0.0124718144" flag="0"/>
      <psa03 value="0.0789249672" flag="0"/>
      <psa10 value="0.0066501014" flag="0"/>
      <psa30 value="0.0005065800" flag="0"/>
    </comp>
    <comp name="--.HNN">
      <acc value="0.0473878636" flag="0"/>
      <vel value="0.0208009149" flag="0"/>
      <psa03 value="0.1145485226" flag="0"/>
      <psa10 value="0.0146153393" flag="0"/>
      <psa30 value="0.0009140193" flag="0"/>
    </comp>
    <comp name="--.HNE">
      <acc value="0.0571152859" flag="0"/>
      <vel value="0.0218533773" flag="0"/>
      <psa03 value="0.1151719516" flag="0"/>
      <psa10 value="0.0195507001" flag="0"/>
      <psa30 value="0.0011217907" flag="0"/>
    </comp>
  </station>
  <station code="YAYO" name="YAYO" netid="KO" insttype="CMG-6T" lat="39.6113" lon="27.0726">
    <comp name="--.HHZ">
      <acc value="0.0127267996" flag="0"/>
      <vel value="0.0053216276" flag="0"/>
      <psa03 value="0.0298357530" flag="0"/>
      <psa10 value="0.0036265136" flag="0"/>
      <psa30 value="0.0004175297" flag="0"/>
    </comp>
    <comp name="--.HHE">
      <acc value="0.0165153305" flag="0"/>
      <vel value="0.0071852159" flag="0"/>
      <psa03 value="0.0468093079" flag="0"/>
      <psa10 value="0.0083510098" flag="0"/>
      <psa30 value="0.0003865179" flag="0"/>
    </comp>
    <comp name="--.HHN">
      <acc value="0.0227757679" flag="0"/>
      <vel value="0.0100475745" flag="0"/>
      <psa03 value="0.0653999891" flag="0"/>
      <psa10 value="0.0051576675" flag="0"/>
      <psa30 value="0.0004432366" flag="0"/>
    </comp>
  </station>
</stationlist>
