<?xml version="1.0" encoding="UTF-8" standalone="yes"?>
<!DOCTYPE earthquake SYSTEM "stationlist.dtd">
<stationlist created="" xmlns="ch.ethz.sed.shakemap.usgs.xml">
  <station code="ARMT" name="ARMT" netid="KO" insttype="CMG-3ESP" commtype="DIG" lat="40.5683" lon="28.866">
    <comp name="--.HHE">
      <acc value="0.0977544813" flag="0"/>
      <vel value="0.0263917808" flag="0"/>
      <psa03 value="0.1180805504" flag="0"/>
      <psa10 value="0.0151703824" flag="0"/>
      <psa30 value="0.0019703096" flag="0"/>
    </comp>
  </station>
  <station code="BGKT" name="BGKT" netid="KO" insttype="CMG-3ESP" commtype="DIG" lat="41.181" lon="28.773">
    <comp name="--.HHN">
      <acc value="0.2938688677" flag="0"/>
      <vel value="0.0463965300" flag="0"/>
      <psa03 value="0.2117389060" flag="0"/>
      <psa10 value="0.0146134893" flag="0"/>
      <psa30 value="0.0017140195" flag="0"/>
    </comp>
    <comp name="--.HHE">
      <acc value="0.4223850423" flag="0"/>
      <vel value="0.0425876425" flag="0"/>
      <psa03 value="0.3006602198" flag="0"/>
      <psa10 value="0.0206966918" flag="0"/>
      <psa30 value="0.0016700833" flag="0"/>
    </comp>
  </station>
  <station code="BOTS" name="BOTS" netid="KO" insttype="CMG-5T" commtype="DIG" lat="40.9902" lon="27.981">
    <comp name="--.HNZ">
      <acc value="0.1244772854" flag="0"/>
      <vel value="0.0265493902" flag="0"/>
      <psa03 value="0.1452893244" flag="0"/>
      <psa10 value="0.0226190987" flag="0"/>
      <psa30 value="0.0022105859" flag="0"/>
    </comp>
    <comp name="--.HNE">
      <acc value="0.2237100164" flag="0"/>
      <vel value="0.1382277194" flag="0"/>
      <psa03 value="0.4828886480" flag="0"/>
      <psa10 value="0.0963229577" flag="0"/>
      <psa30 value="0.0063147877" flag="0"/>
    </comp>
    <comp name="--.HNN">
      <acc value="0.5404817220" flag="0"/>
      <vel value="0.2080322701" flag="0"/>
      <psa03 value="1.0352363814" flag="0"/>
      <psa10 value="0.0936475369" flag="0"/>
      <psa30 value="0.0069112704" flag="0"/>
    </comp>
  </station>
  <station code="BRGA" name="BRGA" netid="KO" insttype="CMG-5T" commtype="DIG" lat="40.8846" lon="29.065">
    <comp name="--.HNZ">
      <acc value="0.0685010065" flag="0"/>
      <vel value="0.0165485778" flag="0"/>
      <psa03 value="0.0660457512" flag="0"/>
      <psa10 value="0.0077974966" flag="0"/>
      <psa30 value="0.0007509356" flag="0"/>
    </comp>
    <comp name="--.HNN">
      <acc value="0.1060479443" flag="0"/>
      <vel value="0.0307353213" flag="0"/>
      <psa03 value="0.1566900496" flag="0"/>
      <psa10 value="0.0122458136" flag="0"/>
      <psa30 value="0.0016542639" flag="0"/>
    </comp>
    <comp name="--.HNE">
      <acc value="0.0609195456" flag="0"/>
      <vel value="0.0171339126" flag="0"/>
      <psa03 value="0.0892144092" flag="0"/>
      <psa10 value="0.0094194713" flag="0"/>
      <psa30 value="0.0011044674" flag="0"/>
    </comp>
  </station>
  <station code="BUYA" name="BUYA" netid="KO" insttype="CMG-5T" commtype="DIG" lat="40.8694" lon="29.1278">
    <comp name="--.HNE">
      <acc value="0.0876362466" flag="0"/>
      <vel value="0.0245235388" flag="0"/>
      <psa03 value="0.1579922170" flag="0"/>
      <psa10 value="0.0089284396" flag="0"/>
      <psa30 value="0.0018356750" flag="0"/>
    </comp>
    <comp name="--.HNN">
      <acc value="0.0786754068" flag="0"/>
      <vel value="0.0202292418" flag="0"/>
      <psa03 value="0.1424884703" flag="0"/>
      <psa10 value="0.0060602366" flag="0"/>
      <psa30 value="0.0009290958" flag="0"/>
    </comp>
    <comp name="--.HNZ">
      <acc value="0.0603994205" flag="0"/>
      <vel value="0.0168233138" flag="0"/>
      <psa03 value="0.1289740826" flag="0"/>
      <psa10 value="0.0043232995" flag="0"/>
      <psa30 value="0.0006299925" flag="0"/>
    </comp>
  </station>
  <station code="BUYK" name="BUYK" netid="KO" insttype="ACEBOX" commtype="DIG" lat="41.0168" lon="28.5828">
    <comp name="--.HNE">
      <acc value="0.7464973743" flag="0"/>
      <vel value="0.2194338944" flag="0"/>
      <psa03 value="0.6528803339" flag="0"/>
      <psa10 value="0.3009430245" flag="0"/>
      <psa30 value="0.0195929929" flag="0"/>
    </comp>
    <comp name="--.HNN">
      <acc value="0.8708060337" flag="0"/>
      <vel value="0.3231835693" flag="0"/>
      <psa03 value="1.1826363785" flag="0"/>
      <psa10 value="0.4285739072" flag="0"/>
      <psa30 value="0.0240990102" flag="0"/>
    </comp>
    <comp name="--.HNZ">
      <acc value="0.3962186979" flag="0"/>
      <vel value="0.1295849923" flag="0"/>
      <psa03 value="0.3904925242" flag="0"/>
      <psa10 value="0.2327776650" flag="0"/>
      <psa30 value="0.0089237372" flag="0"/>
    </comp>
  </station>
  <station code="CRLU" name="CRLU" netid="KO" insttype="ACEBOX" commtype="DIG" lat="41.1428" lon="27.8215">
    <comp name="--.HNN">
      <acc value="0.7962986406" flag="0"/>
      <vel value="0.5617560632" flag="0"/>
      <psa03 value="1.7428180963" flag="0"/>
      <psa10 value="0.5729805596" flag="0"/>
      <psa30 value="0.0597010789" flag="0"/>
    </comp>
    <comp name="--.HNE">
      <acc value="1.6702699217" flag="0"/>
      <vel value="1.1105497315" flag="0"/>
      <psa03 value="3.5414314299" flag="0"/>
      <psa10 value="1.1894948303" flag="0"/>
      <psa30 value="0.0918591336" flag="0"/>
    </comp>
    <comp name="--.HNZ">
      <acc value="0.8780042235" flag="0"/>
      <vel value="0.3778643044" flag="0"/>
      <psa03 value="1.8135538928" flag="0"/>
      <psa10 value="0.4319705168" flag="0"/>
      <psa30 value="0.0367146695" flag="0"/>
    </comp>
  </station>
  <station code="CTYL" name="CTYL" netid="KO" insttype="CMG-3T" commtype="DIG" lat="41.476" lon="28.2897">
    <comp name="--.HHN">
      <acc value="0.2865278396" flag="0"/>
      <vel value="0.0878669853" flag="0"/>
      <psa03 value="0.4329377749" flag="0"/>
      <psa10 value="0.0412902263" flag="0"/>
      <psa30 value="0.0026040175" flag="0"/>
    </comp>
  </station>
  <station code="GAZK" name="GAZK" netid="KO" insttype="CMG-6T" commtype="DIG" lat="40.7479" lon="27.3275">
    <comp name="--.HHE">
      <acc value="0.1179503558" flag="0"/>
      <vel value="0.0385363556" flag="0"/>
      <psa03 value="0.2164046124" flag="0"/>
      <psa10 value="0.0172197648" flag="0"/>
      <psa30 value="0.0017591835" flag="0"/>
    </comp>
    <comp name="--.HHN">
      <acc value="0.1639421592" flag="0"/>
      <vel value="0.0538138493" flag="0"/>
      <psa03 value="0.2651418748" flag="0"/>
      <psa10 value="0.0350669401" flag="0"/>
      <psa30 value="0.0014341058" flag="0"/>
    </comp>
    <comp name="--.HHZ">
      <acc value="0.0544677113" flag="0"/>
      <vel value="0.0244159118" flag="0"/>
      <psa03 value="0.0784423662" flag="0"/>
      <psa10 value="0.0157639343" flag="0"/>
      <psa30 value="0.0010532543" flag="0"/>
    </comp>
  </station>
  <station code="GEML" name="GEML" netid="KO" insttype="CMG-3T" commtype="DIG" lat="40.4646" lon="29.2116">
    <comp name="--.HHE">
      <acc value="0.1777052088" flag="0"/>
      <vel value="0.0321968916" flag="0"/>
      <psa03 value="0.1820845889" flag="0"/>
      <psa10 value="0.0112390429" flag="0"/>
      <psa30 value="0.0010521178" flag="0"/>
    </comp>
    <comp name="--.HHN">
      <acc value="0.1546396822" flag="0"/>
      <vel value="0.0371477903" flag="0"/>
      <psa03 value="0.1667806778" flag="0"/>
      <psa10 value="0.0141323251" flag="0"/>
      <psa30 value="0.0010337870" flag="0"/>
    </comp>
    <comp name="--.HHZ">
      <acc value="0.1052153228" flag="0"/>
      <vel value="0.0208270478" flag="0"/>
      <psa03 value="0.0859509217" flag="0"/>
      <psa10 value="0.0101804424" flag="0"/>
      <psa30 value="0.0007401080" flag="0"/>
    </comp>
  </station>
  <station code="GONE" name="GONE" netid="KO" insttype="CMG-5T" commtype="DIG" lat="40.0466" lon="27.686">
    <comp name="--.HNE">
      <acc value="0.0594349584" flag="0"/>
      <vel value="0.0450330008" flag="0"/>
      <psa03 value="0.1389614298" flag="0"/>
      <psa10 value="0.0779063584" flag="0"/>
      <psa30 value="0.0051104433" flag="0"/>
    </comp>
    <comp name="--.HNN">
      <acc value="0.0656557280" flag="0"/>
      <vel value="0.0475617200" flag="0"/>
      <psa03 value="0.1181870518" flag="0"/>
      <psa10 value="0.0830231504" flag="0"/>
      <psa30 value="0.0039045238" flag="0"/>
    </comp>
    <comp name="--.HNZ">
      <acc value="0.0326810850" flag="0"/>
      <vel value="0.0187270750" flag="0"/>
      <psa03 value="0.0389498204" flag="0"/>
      <psa10 value="0.0416925416" flag="0"/>
      <psa30 value="0.0016530769" flag="0"/>
    </comp>
  </station>
  <station code="HVHR" name="HVHR" netid="KO" insttype="CMG-5T" commtype="DIG" lat="40.9699" lon="28.8445">
    <comp name="--.HNN">
      <acc value="0.2943637465" flag="0"/>
      <vel value="0.1399027612" flag="0"/>
      <psa03 value="0.6107405528" flag="0"/>
      <psa10 value="0.0645238475" flag="0"/>
      <psa30 value="0.0076037475" flag="0"/>
    </comp>
    <comp name="--.HNE">
      <acc value="0.2738319148" flag="0"/>
      <vel value="0.1275244096" flag="0"/>
      <psa03 value="0.8319994885" flag="0"/>
      <psa10 value="0.1090957114" flag="0"/>
      <psa30 value="0.0080479980" flag="0"/>
    </comp>
    <comp name="--.HNZ">
      <acc value="0.2564853497" flag="0"/>
      <vel value="0.0916301777" flag="0"/>
      <psa03 value="0.4473956985" flag="0"/>
      <psa10 value="0.0489502257" flag="0"/>
      <psa30 value="0.0025570070" flag="0"/>
    </comp>
  </station>
  <station code="ISK" name="ISK" netid="KO" insttype="CMG-3T" commtype="DIG" lat="41.0615" lon="29.0592">
    <comp name="--.HHE">
      <acc value="0.0587997460" flag="0"/>
      <vel value="0.0122068653" flag="0"/>
      <psa03 value="0.0480647438" flag="0"/>
      <psa10 value="0.0044190173" flag="0"/>
      <psa30 value="0.0006324012" flag="0"/>
    </comp>
    <comp name="--.HHN">
      <acc value="0.0667974236" flag="0"/>
      <vel value="0.0131786211" flag="0"/>
      <psa03 value="0.0413899367" flag="0"/>
      <psa10 value="0.0073363942" flag="0"/>
      <psa30 value="0.0009247354" flag="0"/>
    </comp>
    <comp name="--.HHZ">
      <acc value="0.0492176776" flag="0"/>
      <vel value="0.0114750382" flag="0"/>
      <psa03 value="0.0545945448" flag="0"/>
      <psa10 value="0.0106872361" flag="0"/>
      <psa30 value="0.0007535932" flag="0"/>
    </comp>
  </station>
  <station code="IZI" name="IZI" netid="KO" insttype="CMG-5T" commtype="DIG" lat="40.3483" lon="29.4612">
    <comp name="--.HNN">
      <acc value="0.0250888878" flag="0"/>
      <vel value="0.0102965716" flag="0"/>
      <psa03 value="0.0596608966" flag="0"/>
      <psa10 value="0.0144998855" flag="0"/>
      <psa30 value="0.0008893910" flag="0"/>
    </comp>
    <comp name="--.HNZ">
      <acc value="0.0169571241" flag="0"/>
      <vel value="0.0075247218" flag="0"/>
      <psa03 value="0.0251664874" flag="0"/>
      <psa10 value="0.0062984213" flag="0"/>
      <psa30 value="0.0008907613" flag="0"/>
    </comp>
    <comp name="--.HNE">
      <acc value="0.0306500659" flag="0"/>
      <vel value="0.0108056421" flag="0"/>
      <psa03 value="0.0488340575" flag="0"/>
      <psa10 value="0.0059714115" flag="0"/>
      <psa30 value="0.0008724598" flag="0"/>
    </comp>
  </station>
  <station code="KAVV" name="KAVV" netid="KO" insttype="CMG-3ESPC" commtype="DIG" lat="41.0638" lon="29.06">
    <comp name="--.HHE">
      <acc value="0.1235734833" flag="0"/>
      <vel value="0.0345491992" flag="0"/>
      <psa03 value="0.1233709485" flag="0"/>
      <psa10 value="0.0068022121" flag="0"/>
      <psa30 value="0.0007176578" flag="0"/>
    </comp>
    <comp name="--.HHN">
      <acc value="0.1165632347" flag="0"/>
      <vel value="0.0334466533" flag="0"/>
      <psa03 value="0.1082272178" flag="0"/>
      <psa10 value="0.0089249960" flag="0"/>
      <psa30 value="0.0009172443" flag="0"/>
    </comp>
    <comp name="--.HHZ">
      <acc value="0.0691200694" flag="0"/>
      <vel value="0.0149922821" flag="0"/>
      <psa03 value="0.0520042870" flag="0"/>
      <psa10 value="0.0117389992" flag="0"/>
      <psa30 value="0.0009331827" flag="0"/>
    </comp>
  </station>
  <station code="KCTX" name="KCTX" netid="KO" insttype="CMG-3ESP" commtype="DIG" lat="40.2626" lon="28.3353">
    <comp name="--.HHN">
      <acc value="0.0485940493" flag="0"/>
      <vel value="0.0193454892" flag="0"/>
      <psa03 value="0.0875822526" flag="0"/>
      <psa10 value="0.0224969736" flag="0"/>
      <psa30 value="0.0011543270" flag="0"/>
    </comp>
    <comp name="--.HHZ">
      <acc value="0.0517112397" flag="0"/>
      <vel value="0.0292173431" flag="0"/>
      <psa03 value="0.0687314780" flag="0"/>
      <psa10 value="0.0264125454" flag="0"/>
      <psa30 value="0.0022715871" flag="0"/>
    </comp>
    <comp name="--.HHE">
      <acc value="0.0605117250" flag="0"/>
      <vel value="0.0317959099" flag="0"/>
      <psa03 value="0.0712768568" flag="0"/>
      <psa10 value="0.0213724419" flag="0"/>
      <psa30 value="0.0013321746" flag="0"/>
    </comp>
  </station>
  <station code="KLYT" name="KLYT" netid="KO" insttype="CMG-3T" commtype="DIG" lat="41.253" lon="29.042">
    <comp name="--.HHE">
      <acc value="0.0788071822" flag="0"/>
      <vel value="0.0201233282" flag="0"/>
      <psa03 value="0.0624002770" flag="0"/>
      <psa10 value="0.0202657056" flag="0"/>
      <psa30 value="0.0010506612" flag="0"/>
    </comp>
  </station>
  <station code="KOUK" name="KOUK" netid="KO" insttype="CMG-5T" commtype="DIG" lat="40.6572" lon="29.1918">
    <comp name="--.HNE">
      <acc value="0.0493904196" flag="0"/>
      <vel value="0.0354282378" flag="0"/>
      <psa03 value="0.1358545111" flag="0"/>
      <psa10 value="0.0519079257" flag="0"/>
      <psa30 value="0.0042138527" flag="0"/>
    </comp>
    <comp name="--.HNN">
      <acc value="0.0471108050" flag="0"/>
      <vel value="0.0342672431" flag="0"/>
      <psa03 value="0.1458028100" flag="0"/>
      <psa10 value="0.0493617506" flag="0"/>
      <psa30 value="0.0061059707" flag="0"/>
    </comp>
    <comp name="--.HNZ">
      <acc value="0.0375606679" flag="0"/>
      <vel value="0.0144158375" flag="0"/>
      <psa03 value="0.1141922054" flag="0"/>
      <psa10 value="0.0194469721" flag="0"/>
      <psa30 value="0.0015229749" flag="0"/>
    </comp>
  </station>
  <station code="KRBG" name="KRBG" netid="KO" insttype="CMG-5T" commtype="DIG" lat="40.3932" lon="27.2977">
    <comp name="--.HNN">
      <acc value="0.1080186992" flag="0"/>
      <vel value="0.0299485369" flag="0"/>
      <psa03 value="0.1496354517" flag="0"/>
      <psa10 value="0.0292356241" flag="0"/>
      <psa30 value="0.0019143196" flag="0"/>
    </comp>
    <comp name="--.HNE">
      <acc value="0.1045236558" flag="0"/>
      <vel value="0.0558261068" flag="0"/>
      <psa03 value="0.2556451959" flag="0"/>
      <psa10 value="0.0228438736" flag="0"/>
      <psa30 value="0.0019880977" flag="0"/>
    </comp>
    <comp name="--.HNZ">
      <acc value="0.0354767295" flag="0"/>
      <vel value="0.0113328531" flag="0"/>
      <psa03 value="0.0443465763" flag="0"/>
      <psa10 value="0.0072289130" flag="0"/>
      <psa30 value="0.0008954990" flag="0"/>
    </comp>
  </station>
  <station code="KRTL" name="KRTL" netid="KO" insttype="CMG-5T" commtype="DIG" lat="40.9089" lon="29.1987">
    <comp name="--.HNE">
      <acc value="0.0943870585" flag="0"/>
      <vel value="0.0147558328" flag="0"/>
      <psa03 value="0.0386941864" flag="0"/>
      <psa10 value="0.0043129311" flag="0"/>
      <psa30 value="0.0011888927" flag="0"/>
    </comp>
    <comp name="--.HNN">
      <acc value="0.0604753772" flag="0"/>
      <vel value="0.0113670373" flag="0"/>
      <psa03 value="0.0604503713" flag="0"/>
      <psa10 value="0.0041481795" flag="0"/>
      <psa30 value="0.0008206124" flag="0"/>
    </comp>
    <comp name="--.HNZ">
      <acc value="0.0334247020" flag="0"/>
      <vel value="0.0067832457" flag="0"/>
      <psa03 value="0.0372971134" flag="0"/>
      <psa10 value="0.0033997760" flag="0"/>
      <psa30 value="0.0009525237" flag="0"/>
    </comp>
  </station>
  <station code="KUMB" name="KUMB" netid="KO" insttype="CMG-5T" commtype="DIG" lat="40.8626" lon="27.4592">
    <comp name="--.HNE">
      <acc value="0.0909571222" flag="0"/>
      <vel value="0.0257968791" flag="0"/>
      <psa03 value="0.1308977344" flag="0"/>
      <psa10 value="0.0092334974" flag="0"/>
      <psa30 value="0.0011765006" flag="0"/>
    </comp>
    <comp name="--.HNN">
      <acc value="0.0791049963" flag="0"/>
      <vel value="0.0216940254" flag="0"/>
      <psa03 value="0.1297297718" flag="0"/>
      <psa10 value="0.0097900608" flag="0"/>
      <psa30 value="0.0018608595" flag="0"/>
    </comp>
    <comp name="--.HNZ">
      <acc value="0.0006019706" flag="0"/>
      <vel value="0.0005738530" flag="0"/>
      <psa03 value="0.0007445166" flag="0"/>
      <psa10 value="0.0006047596" flag="0"/>
      <psa30 value="0.0003624407" flag="0"/>
    </comp>
  </station>
  <station code="MAEG" name="MAEG" netid="KO" insttype="CMG-5T" commtype="DIG" lat="40.9653" lon="27.9448">
    <comp name="--.HNE">
      <acc value="0.2223343203" flag="0"/>
      <vel value="0.0889949037" flag="0"/>
      <psa03 value="0.4292732537" flag="0"/>
      <psa10 value="0.0485760700" flag="0"/>
      <psa30 value="0.0043312680" flag="0"/>
    </comp>
    <comp name="--.HNN">
      <acc value="0.2299678137" flag="0"/>
      <vel value="0.0622829879" flag="0"/>
      <psa03 value="0.3158358632" flag="0"/>
      <psa10 value="0.0402716735" flag="0"/>
      <psa30 value="0.0037126763" flag="0"/>
    </comp>
  </station>
  <station code="MDNY" name="MDNY" netid="KO" insttype="CMG-5T" commtype="DIG" lat="40.3709" lon="28.8846">
    <comp name="--.HNE">
      <acc value="0.1747606500" flag="0"/>
      <vel value="0.0382795540" flag="0"/>
      <psa03 value="0.1496800905" flag="0"/>
      <psa10 value="0.0129056876" flag="0"/>
      <psa30 value="0.0015752015" flag="0"/>
    </comp>
    <comp name="--.HNN">
      <acc value="0.0872511073" flag="0"/>
      <vel value="0.0230651675" flag="0"/>
      <psa03 value="0.1343902170" flag="0"/>
      <psa10 value="0.0181609427" flag="0"/>
      <psa30 value="0.0012556443" flag="0"/>
    </comp>
    <comp name="--.HNZ">
      <acc value="0.0841654695" flag="0"/>
      <vel value="0.0189447668" flag="0"/>
      <psa03 value="0.0450339606" flag="0"/>
      <psa10 value="0.0078114668" flag="0"/>
      <psa30 value="0.0012616963" flag="0"/>
    </comp>
  </station>
  <station code="MRMT" name="MRMT" netid="KO" insttype="CMG-3T" commtype="DIG" lat="40.609" lon="27.5832">
    <comp name="--.HHE">
      <acc value="0.0693085730" flag="0"/>
      <vel value="0.0194887276" flag="0"/>
      <psa03 value="0.0845502630" flag="0"/>
      <psa10 value="0.0129680533" flag="0"/>
      <psa30 value="0.0007188906" flag="0"/>
    </comp>
    <comp name="--.HHN">
      <acc value="0.0000296466" flag="0"/>
      <vel value="0.0000033431" flag="0"/>
      <psa03 value="0.0000102274" flag="0"/>
      <psa10 value="0.0000034601" flag="0"/>
      <psa30 value="0.0000007491" flag="0"/>
    </comp>
    <comp name="--.HHZ">
      <acc value="0.0000312848" flag="0"/>
      <vel value="0.0000034173" flag="0"/>
      <psa03 value="0.0000099917" flag="0"/>
      <psa10 value="0.0000029098" flag="0"/>
      <psa30 value="0.0000005181" flag="0"/>
    </comp>
  </station>
  <station code="PHSR" name="PHSR" netid="KO" insttype="CMG-3T" commtype="DIG" lat="41.6308" lon="27.5238">
    <comp name="--.HHN">
      <acc value="0.0512242161" flag="0"/>
      <vel value="0.0323021019" flag="0"/>
      <psa03 value="0.0565255976" flag="0"/>
      <psa10 value="0.0223335609" flag="0"/>
      <psa30 value="0.0024324919" flag="0"/>
    </comp>
    <comp name="--.HHZ">
