<stationlist created="1778205408">
	<station code="3502" name="3502" netid="TK" source="Turkish National Strong Motion Network (TNSMN)" insttype="" lat="38.45514" lon="27.22673">
		<comp name="00.HNE" depth="None">
			<acc value="0.0791787301091525" flag="0"/>
			<vel value="0.0443091275791323" flag="0"/>
			<psa03 value="0.267603137783883" flag="0"/>
			<psa10 value="0.0460665759341726" flag="0"/>
			<psa30 value="0.00441695063735579" flag="0"/>
		</comp>
		<comp name="00.HNN" depth="None">
			<acc value="0.0945722068833308" flag="0"/>
			<vel value="0.0479007776653858" flag="0"/>
			<psa03 value="0.338340566447371" flag="0"/>
			<psa10 value="0.0369176895248684" flag="0"/>
			<psa30 value="0.00260399642518342" flag="0"/>
		</comp>
		<comp name="00.HNZ" depth="None">
			<acc value="0.0395385624628994" flag="0"/>
			<vel value="0.0212792082412459" flag="0"/>
			<psa03 value="0.101564809023477" flag="0"/>
			<psa10 value="0.0153662634409792" flag="0"/>
			<psa30 value="0.000919452346005484" flag="0"/>
		</comp>
	</station>
</stationlist>
