<?xml version="1.0" encoding="UTF-8" standalone="yes"?>
<!DOCTYPE earthquake SYSTEM "stationlist.dtd">
<stationlist created="" xmlns="ch.ethz.sed.shakemap.usgs.xml">
  <station code="AGRB" name="AGRB" netid="KO" insttype="CMG-3T" commtype="DIG" lat="39.5755" lon="42.992">
    <comp name="--.HHE">
      <acc value="0.0135361082" flag="0"/>
      <vel value="0.0056401856" flag="0"/>
      <psa03 value="0.0351930914" flag="0"/>
      <psa10 value="0.0127715731" flag="0"/>
      <psa30 value="0.0008101481" flag="0"/>
    </comp>
    <comp name="--.HHN">
      <acc value="0.0077907657" flag="0"/>
      <vel value="0.0049344233" flag="0"/>
      <psa03 value="0.0250856046" flag="0"/>
      <psa10 value="0.0101627709" flag="0"/>
      <psa30 value="0.0008832806" flag="0"/>
    </comp>
    <comp name="--.HHZ">
      <acc value="0.0067052373" flag="0"/>
      <vel value="0.0041949068" flag="0"/>
      <psa03 value="0.0237636959" flag="0"/>
      <psa10 value="0.0056942261" flag="0"/>
      <psa30 value="0.0007584985" flag="0"/>
    </comp>
  </station>
  <station code="AKDM" name="AKDM" netid="KO" insttype="CMG-3ESP" commtype="DIG" lat="38.3285" lon="42.98">
    <comp name="--.HHN">
      <acc value="0.0116680843" flag="0"/>
      <vel value="0.0085193937" flag="0"/>
      <psa03 value="0.0373907696" flag="0"/>
      <psa10 value="0.0153614818" flag="0"/>
      <psa30 value="0.0011077613" flag="0"/>
    </comp>
    <comp name="--.HHZ">
      <acc value="0.0109422850" flag="0"/>
      <vel value="0.0051556723" flag="0"/>
      <psa03 value="0.0317490323" flag="0"/>
      <psa10 value="0.0056627237" flag="0"/>
      <psa30 value="0.0011242648" flag="0"/>
    </comp>
    <comp name="--.HHE">
      <acc value="0.0105350199" flag="0"/>
      <vel value="0.0115882149" flag="0"/>
      <psa03 value="0.0269224959" flag="0"/>
      <psa10 value="0.0212086325" flag="0"/>
      <psa30 value="0.0022385416" flag="0"/>
    </comp>
  </station>
  <station code="CLDR" name="CLDR" netid="KO" insttype="CMG-3ESP" commtype="DIG" lat="39.144" lon="43.9172">
    <comp name="--.HHN">
      <acc value="0.0817510096" flag="0"/>
      <vel value="0.0634152459" flag="0"/>
      <psa03 value="0.1570316445" flag="0"/>
      <psa10 value="0.0483597704" flag="0"/>
      <psa30 value="0.0031861586" flag="0"/>
    </comp>
    <comp name="--.HHZ">
      <acc value="0.0257494728" flag="0"/>
      <vel value="0.0197583163" flag="0"/>
      <psa03 value="0.0416725897" flag="0"/>
      <psa10 value="0.0316524214" flag="0"/>
      <psa30 value="0.0016125102" flag="0"/>
    </comp>
    <comp name="--.HHE">
      <acc value="0.0723377319" flag="0"/>
      <vel value="0.0648071437" flag="0"/>
      <psa03 value="0.1447393335" flag="0"/>
      <psa10 value="0.1058997792" flag="0"/>
      <psa30 value="0.0047663073" flag="0"/>
    </comp>
  </station>
  <station code="GURO" name="GURO" netid="KO" insttype="CMG-3T" commtype="DIG" lat="38.5509" lon="42.0322">
    <comp name="--.HHN">
      <acc value="0.0251403114" flag="0"/>
      <vel value="0.0092152698" flag="0"/>
      <psa03 value="0.0822370081" flag="0"/>
      <psa10 value="0.0072437963" flag="0"/>
      <psa30 value="0.0004769870" flag="0"/>
    </comp>
    <comp name="--.HHZ">
      <acc value="0.0275405069" flag="0"/>
      <vel value="0.0107633996" flag="0"/>
      <psa03 value="0.0668647435" flag="0"/>
      <psa10 value="0.0050372645" flag="0"/>
      <psa30 value="0.0002919109" flag="0"/>
    </comp>
    <comp name="--.HHE">
      <acc value="0.0158380311" flag="0"/>
      <vel value="0.0062478791" flag="0"/>
      <psa03 value="0.0437830005" flag="0"/>
      <psa10 value="0.0036143716" flag="0"/>
      <psa30 value="0.0002161602" flag="0"/>
    </comp>
  </station>
  <station code="MLAZ" name="MLAZ" netid="KO" insttype="CMG-3T" commtype="DIG" lat="39.141" lon="42.5496">
    <comp name="--.HHN">
      <acc value="0.0148913688" flag="0"/>
      <vel value="0.0158370325" flag="0"/>
      <psa03 value="0.0372018661" flag="0"/>
      <psa10 value="0.0276210699" flag="0"/>
      <psa30 value="0.0034358213" flag="0"/>
    </comp>
    <comp name="--.HHZ">
      <acc value="0.0081498509" flag="0"/>
      <vel value="0.0091882979" flag="0"/>
      <psa03 value="0.0249517694" flag="0"/>
      <psa10 value="0.0183891969" flag="0"/>
      <psa30 value="0.0013375224" flag="0"/>
    </comp>
    <comp name="--.HHE">
      <acc value="0.0124208823" flag="0"/>
      <vel value="0.0133480061" flag="0"/>
      <psa03 value="0.0280100210" flag="0"/>
      <psa10 value="0.0160957315" flag="0"/>
      <psa30 value="0.0029052648" flag="0"/>
    </comp>
  </station>
  <station code="VANB" name="VANB" netid="KO" insttype="CMG-3T" commtype="DIG" lat="38.509" lon="43.4056">
    <comp name="--.HHE">
      <acc value="0.0598450774" flag="0"/>
      <vel value="0.0614360520" flag="0"/>
      <psa03 value="0.1766252638" flag="0"/>
      <psa10 value="0.1168000995" flag="0"/>
      <psa30 value="0.0064207654" flag="0"/>
    </comp>
    <comp name="--.HHN">
      <acc value="0.0581039216" flag="0"/>
      <vel value="0.0488269387" flag="0"/>
      <psa03 value="0.1961469591" flag="0"/>
      <psa10 value="0.0863873630" flag="0"/>
      <psa30 value="0.0104351960" flag="0"/>
    </comp>
    <comp name="--.HHZ">
      <acc value="0.0670611535" flag="0"/>
      <vel value="0.0566659847" flag="0"/>
      <psa03 value="0.1257301266" flag="0"/>
      <psa10 value="0.0855424535" flag="0"/>
      <psa30 value="0.0142552823" flag="0"/>
    </comp>
  </station>
</stationlist>
