<?xml version="1.0" encoding="UTF-8" standalone="yes"?>
<!DOCTYPE earthquake SYSTEM "stationlist.dtd">
<stationlist created="" xmlns="ch.ethz.sed.shakemap.usgs.xml">
  <station code="AMPE" name="AMPE" netid="HA" insttype="1s-100Hz," commtype="DIG" lat="38.3015" lon="23.2688">
    <comp name="--.HHZ">
      <acc value="0.0737129534" flag="0"/>
      <vel value="0.0159912521" flag="0"/>
      <psa03 value="0.0383904832" flag="0"/>
      <psa10 value="0.0044160905" flag="0"/>
      <psa30 value="0.0005564455" flag="0"/>
    </comp>
    <comp name="--.HHE">
      <acc value="0.0454850000" flag="0"/>
      <vel value="0.0151255895" flag="0"/>
      <psa03 value="0.0932198769" flag="0"/>
      <psa10 value="0.0097228137" flag="0"/>
      <psa30 value="0.0009457091" flag="0"/>
    </comp>
  </station>
  <station code="ANTK" name="ANTK" netid="HA" insttype="25" commtype="DIG" lat="38.3605" lon="22.6385">
    <comp name="--.HHE">
      <acc value="0.0242368658" flag="0"/>
      <vel value="0.0069078562" flag="0"/>
      <psa03 value="0.0386630170" flag="0"/>
      <psa10 value="0.0049422926" flag="0"/>
      <psa30 value="0.0003461107" flag="0"/>
    </comp>
    <comp name="--.HHN">
      <acc value="0.0384556308" flag="0"/>
      <vel value="0.0096553420" flag="0"/>
      <psa03 value="0.0359545702" flag="0"/>
      <psa10 value="0.0038556128" flag="0"/>
      <psa30 value="0.0002800273" flag="0"/>
    </comp>
    <comp name="--.HHZ">
      <acc value="0.0195891430" flag="0"/>
      <vel value="0.0037425061" flag="0"/>
      <psa03 value="0.0131488820" flag="0"/>
      <psa10 value="0.0024461296" flag="0"/>
      <psa30 value="0.0001509554" flag="0"/>
    </comp>
  </station>
  <station code="ATAL" name="ATAL" netid="HA" insttype="120s," commtype="DIG" lat="38.6926" lon="23.0213">
    <comp name="--.HHN">
      <acc value="0.0182287425" flag="0"/>
      <vel value="0.0077769481" flag="0"/>
      <psa03 value="0.0314212999" flag="0"/>
      <psa10 value="0.0052201358" flag="0"/>
      <psa30 value="0.0008371211" flag="0"/>
    </comp>
    <comp name="--.HHZ">
      <acc value="0.0155025100" flag="0"/>
      <vel value="0.0056891440" flag="0"/>
      <psa03 value="0.0303145100" flag="0"/>
      <psa10 value="0.0043550274" flag="0"/>
      <psa30 value="0.0003171113" flag="0"/>
    </comp>
    <comp name="--.HHE">
      <acc value="0.0154542908" flag="0"/>
      <vel value="0.0077388771" flag="0"/>
      <psa03 value="0.0218682271" flag="0"/>
      <psa10 value="0.0054226370" flag="0"/>
      <psa30 value="0.0003712525" flag="0"/>
    </comp>
  </station>
  <station code="AXAR" name="AXAR" netid="HA" insttype="Horizon,120s,1200" commtype="DIG" lat="38.7664" lon="22.659">
    <comp name="--.HHE">
      <acc value="0.0358289175" flag="0"/>
      <vel value="0.0159241573" flag="0"/>
      <psa03 value="0.0627726410" flag="0"/>
      <psa10 value="0.0131158827" flag="0"/>
      <psa30 value="0.0007601194" flag="0"/>
    </comp>
    <comp name="--.HHZ">
      <acc value="0.0196373689" flag="0"/>
      <vel value="0.0071361916" flag="0"/>
      <psa03 value="0.0379844599" flag="0"/>
      <psa10 value="0.0067020906" flag="0"/>
      <psa30 value="0.0003495618" flag="0"/>
    </comp>
    <comp name="--.HHN">
      <acc value="0.0426455685" flag="0"/>
      <vel value="0.0161504900" flag="0"/>
      <psa03 value="0.0647182992" flag="0"/>
      <psa10 value="0.0077426125" flag="0"/>
      <psa30 value="0.0008623735" flag="0"/>
    </comp>
  </station>
  <station code="DOMV" name="DOMV" netid="HA" insttype="60" commtype="DIG" lat="38.2569" lon="22.9795">
    <comp name="--.HHE">
      <acc value="0.1138447138" flag="0"/>
      <vel value="0.0262354905" flag="0"/>
      <psa03 value="0.1024736359" flag="0"/>
      <psa10 value="0.0053790529" flag="0"/>
      <psa30 value="0.0005149209" flag="0"/>
    </comp>
    <comp name="--.HHN">
      <acc value="0.0966716039" flag="0"/>
      <vel value="0.0230958485" flag="0"/>
      <psa03 value="0.0846521575" flag="0"/>
      <psa10 value="0.0059823061" flag="0"/>
      <psa30 value="0.0006546141" flag="0"/>
    </comp>
    <comp name="--.HHZ">
      <acc value="0.1054731639" flag="0"/>
      <vel value="0.0153953762" flag="0"/>
      <psa03 value="0.0452870824" flag="0"/>
      <psa10 value="0.0039981996" flag="0"/>
      <psa30 value="0.0002571641" flag="0"/>
    </comp>
  </station>
  <station code="KALE" name="KALE" netid="HA" insttype="40," commtype="DIG" lat="38.3911" lon="22.1398">
    <comp name="--.HHE">
      <acc value="0.0596015451" flag="0"/>
      <vel value="0.0247715563" flag="0"/>
      <psa03 value="0.0921550070" flag="0"/>
      <psa10 value="0.0146200340" flag="0"/>
      <psa30 value="0.0011443457" flag="0"/>
    </comp>
    <comp name="--.HHN">
      <acc value="0.1004874197" flag="0"/>
      <vel value="0.0311097362" flag="0"/>
      <psa03 value="0.0834649147" flag="0"/>
      <psa10 value="0.0118140258" flag="0"/>
      <psa30 value="0.0006376180" flag="0"/>
    </comp>
    <comp name="--.HHZ">
      <acc value="0.0401827631" flag="0"/>
      <vel value="0.0109521403" flag="0"/>
      <psa03 value="0.0410361958" flag="0"/>
      <psa10 value="0.0084739240" flag="0"/>
      <psa30 value="0.0004820332" flag="0"/>
    </comp>
  </station>
  <station code="LAKA" name="LAKA" netid="HA" insttype="120s," commtype="DIG" lat="38.2401" lon="21.9785">
    <comp name="--.HHE">
      <acc value="0.0091156440" flag="0"/>
      <vel value="0.0058828685" flag="0"/>
      <psa03 value="0.0152330178" flag="0"/>
      <psa10 value="0.0070642723" flag="0"/>
      <psa30 value="0.0006020373" flag="0"/>
    </comp>
    <comp name="--.HHZ">
      <acc value="0.0068665847" flag="0"/>
      <vel value="0.0043890214" flag="0"/>
      <psa03 value="0.0115629124" flag="0"/>
      <psa10 value="0.0059400138" flag="0"/>
      <psa30 value="0.0003458715" flag="0"/>
    </comp>
    <comp name="--.HHN">
      <acc value="0.0069169263" flag="0"/>
      <vel value="0.0041322705" flag="0"/>
      <psa03 value="0.0117932432" flag="0"/>
      <psa10 value="0.0059420698" flag="0"/>
      <psa30 value="0.0004954836" flag="0"/>
    </comp>
  </station>
  <station code="MRKA" name="MRKA" netid="HA" insttype="Horizon,120s,1200" commtype="DIG" lat="38.7047" lon="23.5863">
    <comp name="--.HHN">
      <acc value="0.0619194273" flag="0"/>
      <vel value="0.0257987317" flag="0"/>
      <psa03 value="0.1206576906" flag="0"/>
      <psa10 value="0.0203626422" flag="0"/>
      <psa30 value="0.0020113502" flag="0"/>
    </comp>
    <comp name="--.HHE">
      <acc value="0.0635609874" flag="0"/>
      <vel value="0.0317863066" flag="0"/>
      <psa03 value="0.1476253097" flag="0"/>
      <psa10 value="0.0203035612" flag="0"/>
      <psa30 value="0.0014406729" flag="0"/>
    </comp>
    <comp name="--.HHZ">
      <acc value="0.0815672533" flag="0"/>
      <vel value="0.0173789699" flag="0"/>
      <psa03 value="0.1265258163" flag="0"/>
      <psa10 value="0.0066777148" flag="0"/>
      <psa30 value="0.0007818720" flag="0"/>
    </comp>
  </station>
  <station code="THAL" name="THAL" netid="HA" insttype="30" commtype="DIG" lat="38.0357" lon="22.6634">
    <comp name="--.HHE">
      <acc value="0.0737149725" flag="0"/>
      <vel value="0.0197601387" flag="0"/>
      <psa03 value="0.1142141288" flag="0"/>
      <psa10 value="0.0093213439" flag="0"/>
      <psa30 value="0.0004459121" flag="0"/>
    </comp>
    <comp name="--.HHZ">
      <acc value="0.0465552808" flag="0"/>
      <vel value="0.0109558347" flag="0"/>
      <psa03 value="0.0488315183" flag="0"/>
      <psa10 value="0.0066743155" flag="0"/>
      <psa30 value="0.0003502344" flag="0"/>
    </comp>
    <comp name="--.HHN">
      <acc value="0.0517123233" flag="0"/>
      <vel value="0.0152216819" flag="0"/>
      <psa03 value="0.0983244937" flag="0"/>
      <psa10 value="0.0064024240" flag="0"/>
      <psa30 value="0.0004679572" flag="0"/>
    </comp>
  </station>
  <station code="THIV" name="THIV" netid="HA" insttype="25" commtype="DIG" lat="38.299" lon="23.332">
    <comp name="--.HHE">
      <acc value="0.0205236616" flag="0"/>
      <vel value="0.0040481392" flag="0"/>
      <psa03 value="0.0263758201" flag="0"/>
      <psa10 value="0.0036132033" flag="0"/>
      <psa30 value="0.0003677004" flag="0"/>
    </comp>
    <comp name="--.HHN">
      <acc value="0.0224629510" flag="0"/>
      <vel value="0.0036108355" flag="0"/>
      <psa03 value="0.0122734249" flag="0"/>
      <psa10 value="0.0026987105" flag="0"/>
      <psa30 value="0.0004155605" flag="0"/>
    </comp>
    <comp name="--.HHZ">
      <acc value="0.0306466046" flag="0"/>
      <vel value="0.0061692609" flag="0"/>
      <psa03 value="0.0343193463" flag="0"/>
      <psa10 value="0.0023437945" flag="0"/>
      <psa30 value="0.0004371308" flag="0"/>
    </comp>
  </station>
  <station code="AIA1" name="AIA1" netid="HI" insttype="unknown" commtype="DIG" lat="40.1641" lon="21.8202">
    <comp name="--.HNZ">
      <acc value="0.0303163844" flag="0"/>
      <vel value="0.0082183445" flag="0"/>
      <psa03 value="0.0473251254" flag="0"/>
      <psa10 value="0.0074266539" flag="0"/>
      <psa30 value="0.0006958736" flag="0"/>
    </comp>
    <comp name="--.HNN">
      <acc value="0.0215745350" flag="0"/>
      <vel value="0.0060606618" flag="0"/>
      <psa03 value="0.0418838138" flag="0"/>
      <psa10 value="0.0062221592" flag="0"/>
      <psa30 value="0.0008197518" flag="0"/>
    </comp>
    <comp name="--.HNE">
      <acc value="0.0249475367" flag="0"/>
      <vel value="0.0104407495" flag="0"/>
      <psa03 value="0.0497982802" flag="0"/>
      <psa10 value="0.0071359541" flag="0"/>
      <psa30 value="0.0009648412" flag="0"/>
    </comp>
  </station>
  <station code="AKR1" name="AKR1" netid="HI" insttype="unknown" commtype="DIG" lat="38.1536" lon="22.3133">
    <comp name="--.HNE">
      <acc value="0.0307003022" flag="0"/>
      <vel value="0.0089649886" flag="0"/>
      <psa03 value="0.0286896968" flag="0"/>
      <psa10 value="0.0094595659" flag="0"/>
      <psa30 value="0.0006814731" flag="0"/>
    </comp>
    <comp name="--.HNN">
      <acc value="0.0232120651" flag="0"/>
      <vel value="0.0101631441" flag="0"/>
      <psa03 value="0.0385301400" flag="0"/>
      <psa10 value="0.0151832026" flag="0"/>
      <psa30 value="0.0005827456" flag="0"/>
    </comp>
    <comp name="--.HNZ">
      <acc value="0.0209094696" flag="0"/>
      <vel value="0.0068742207" flag="0"/>
      <psa03 value="0.0189998778" flag="0"/>
      <psa10 value="0.0056605492" flag="0"/>
      <psa30 value="0.0005664527" flag="0"/>
    </comp>
  </station>
  <station code="ART2" name="ART2" netid="HI" insttype="CMG-5TD,ACCELEROMETER,GURALP" commtype="DIG" lat="39.1474" lon="20.9937">
    <comp name="--.HNN">
      <acc value="0.0157293201" flag="0"/>
      <vel value="0.0040918780" flag="0"/>
      <psa03 value="0.0268091664" flag="0"/>
      <psa10 value="0.0035216880" flag="0"/>
      <psa30 value="0.0004845421" flag="0"/>
    </comp>
    <comp name="--.HNE">
      <acc value="0.0151059365" flag="0"/>
      <vel value="0.0042793118" flag="0"/>
      <psa03 value="0.0314198443" flag="0"/>
      <psa10 value="0.0027886100" flag="0"/>
      <psa30 value="0.0002674494" flag="0"/>
    </comp>
    <comp name="--.HNZ">
      <acc value="0.0171176131" flag="0"/>
      <vel value="0.0036547206" flag="0"/>
      <psa03 value="0.0139399040" flag="0"/>
      <psa10 value="0.0037763211" flag="0"/>
      <psa30 value="0.0002897186" flag="0"/>
    </comp>
  </station>
  <station code="FRS1" name="FRS1" netid="HI" insttype="unknown" commtype="DIG" lat="39.2934" lon="22.3844">
    <comp name="--.HNE">
      <acc value="0.0410140528" flag="0"/>
      <vel value="0.0142999377" flag="0"/>
      <psa03 value="0.0554687487" flag="0"/>
      <psa10 value="0.0047180192" flag="0"/>
      <psa30 value="0.0004028483" flag="0"/>
    </comp>
    <comp name="--.HNN">
      <acc value="0.0419316743" flag="0"/>
      <vel value="0.0163400791" flag="0"/>
      <psa03 value="0.0532340108" flag="0"/>
      <psa10 value="0.0100470296" flag="0"/>
      <psa30 value="0.0008081939" flag="0"/>
    </comp>
    <comp name="--.HNZ">
      <acc value="0.0215060925" flag="0"/>
      <vel value="0.0051476147" flag="0"/>
      <psa03 value="0.0395567438" flag="0"/>
      <psa10 value="0.0028864075" flag="0"/>
      <psa30 value="0.0001764838" flag="0"/>
    </comp>
  </station>
  <station code="KAR2" name="KAR2" netid="HI" insttype="unknown" commtype="DIG" lat="39.3658" lon="21.9193">
    <comp name="--.HNE">
      <acc value="0.4934084997" flag="0"/>
      <vel value="0.1135467354" flag="0"/>
      <psa03 value="0.6313277900" flag="0"/>
      <psa10 value="0.0404724074" flag="0"/>
      <psa30 value="0.0027831623" flag="0"/>
    </comp>
    <comp name="--.HNZ">
      <acc value="0.1666262654" flag="0"/>
      <vel value="0.0323907261" flag="0"/>
      <psa03 value="0.1494152054" flag="0"/>
      <psa10 value="0.0184869043" flag="0"/>
      <psa30 value="0.0010048615" flag="0"/>
    </comp>
    <comp name="--.HNN">
      <acc value="0.4228549660" flag="0"/>
      <vel value="0.1326470635" flag="0"/>
      <psa03 value="0.3560224617" flag="0"/>
      <psa10 value="0.0709378236" flag="0"/>
      <psa30 value="0.0042208209" flag="0"/>
    </comp>
  </station>
  <station code="KLV1" name="KLV1" netid="HI" insttype="CMG-5TD,ACCELEROMETER,GURALP" commtype="DIG" lat="38.0326" lon="22.108">
    <comp name="--.HNE">
      <acc value="0.0206811352" flag="0"/>
      <vel value="0.0124328558" flag="0"/>
      <psa03 value="0.0323036129" flag="0"/>
      <psa10 value="0.0105534551" flag="0"/>
      <psa30 value="0.0008835434" flag="0"/>
    </comp>
    <comp name="--.HNZ">
      <acc value="0.0241616872" flag="0"/>
      <vel value="0.0060801036" flag="0"/>
      <psa03 value="0.0317572400" flag="0"/>
      <psa10 value="0.0082948061" flag="0"/>
      <psa30 value="0.0004030823" flag="0"/>
    </comp>
    <comp name="--.HNN">
      <acc value="0.0231690639" flag="0"/>
      <vel value="0.0140210385" flag="0"/>
      <psa03 value="0.0720842747" flag="0"/>
      <psa10 value="0.0138375116" flag="0"/>
      <psa30 value="0.0010669051" flag="0"/>
    </comp>
  </station>
  <station code="THV2" name="THV2" netid="HI" insttype="unknown" commtype="DIG" lat="38.3161" lon="23.3198">
    <comp name="--.HNN">
      <acc value="0.0233297872" flag="0"/>
      <vel value="0.0136021180" flag="0"/>
      <psa03 value="0.0584284601" flag="0"/>
      <psa10 value="0.0101215442" flag="0"/>
      <psa30 value="0.0010288523" flag="0"/>
    </comp>
    <comp name="--.HNE">
      <acc value="0.0222941255" flag="0"/>
      <vel value="0.0073272648" flag="0"/>
      <psa03 value="0.0419085557" flag="0"/>
      <psa10 value="0.0049204702" flag="0"/>
      <psa30 value="0.0005594761" flag="0"/>
    </comp>
    <comp name="--.HNZ">
      <acc value="0.0377856776" flag="0"/>
      <vel value="0.0100182211" flag="0"/>
      <psa03 value="0.0384290675" flag="0"/>
      <psa10 value="0.0048002946" flag="0"/>
      <psa30 value="0.0002995599" flag="0"/>
    </comp>
  </station>
  <station code="EVR" name="EVR" netid="HL" insttype="DR24" commtype="DIG" lat="38.9166" lon="21.8105">
    <comp name="--.HHN">
      <acc value="0.0000557562" flag="0"/>
      <vel value="0.0000215364" flag="0"/>
      <psa03 value="0.0000936483" flag="0"/>
      <psa10 value="0.0000072691" flag="0"/>
      <psa30 value="0.0000009309" flag="0"/>
    </comp>
    <comp name="--.HHE">
      <acc value="0.0890687449" flag="0"/>
      <vel value="0.0250262540" flag="0"/>
      <psa03 value="0.1488303711" flag="0"/>
      <psa10 value="0.0162676112" flag="0"/>
      <psa30 value="0.0013155039" flag="0"/>
    </comp>
    <comp name="--.HHZ">
      <acc value="0.0581825131" flag="0"/>
      <vel value="0.0206515146" flag="0"/>
      <psa03 value="0.0833623607" flag="0"/>
      <psa10 value="0.0145310584" flag="0"/>
      <psa30 value="0.0008360871" flag="0"/>
    </comp>
  </station>
  <station code="GINA" name="GINA" netid="HL" insttype="CMG-5" commtype="DIG" lat="39.6689" lon="22.389">
    <comp name="00.HNZ">
      <acc value="0.0937697347" flag="0"/>
      <vel value="0.0233204540" flag="0"/>
      <psa03 value="0.0855071584" flag="0"/>
      <psa10 value="0.0159368109" flag="0"/>
      <psa30 value="0.0008677805" flag="0"/>
    </comp>
    <comp name="00.HNE">
      <acc value="0.0682503368" flag="0"/>
      <vel value="0.0472037606" flag="0"/>
      <psa03 value="0.1606068271" flag="0"/>
      <psa10 value="0.0268926305" flag="0"/>
      <psa30 value="0.0016816769" flag="0"/>
    </comp>
    <comp name="00.HNN">
      <acc value="0.0867989027" flag="0"/>
      <vel value="0.0402719639" flag="0"/>
      <psa03 value="0.2251788777" flag="0"/>
      <psa10 value="0.0310931128" flag="0"/>
      <psa30 value="0.0023617283" flag="0"/>
    </comp>
  </station>
  <station code="LARA" name="LARA" netid="HL" insttype="CMG-5" commtype="DIG" lat="39.637" lon="22.4297">
    <comp name="00.HNZ">
      <acc value="0.0645942669" flag="0"/>
      <vel value="0.0168406887" flag="0"/>
      <psa03 value="0.1007120654" flag="0"/>
      <psa10 value="0.0089585164" flag="0"/>
      <psa30 value="0.0009572416" flag="0"/>
    </comp>
    <comp name="00.HNN">
      <acc value="0.0879266395" flag="0"/>
      <vel value="0.0481092121" flag="0"/>
      <psa03 value="0.2495244582" flag="0"/>
      <psa10 value="0.0297095262" flag="0"/>
      <psa30 value="0.0021237074" flag="0"/>
    </comp>
    <comp name="00.HNE">
      <acc value="0.0748102090" flag="0"/>
      <vel value="0.0579020981" flag="0"/>
      <psa03 value="0.1907665374" flag="0"/>
      <psa10 value="0.0439151768" flag="0"/>
      <psa30 value="0.0027235888" flag="0"/>
    </comp>
  </station>
  <station code="LKR" name="LKR" netid="HL" insttype="65535" commtype="DIG" lat="38.6496" lon="22.9988">
    <comp name="--.HHE">
      <acc value="0.0014591611" flag="0"/>
      <vel value="0.0001784487" flag="0"/>
      <psa03 value="0.0003663363" flag="0"/>
      <psa10 value="0.0000333606" flag="0"/>
      <psa30 value="0.0000039217" flag="0"/>
    </comp>
    <comp name="--.HHN">
      <acc value="0.0454791464" flag="0"/>
      <vel value="0.0099326973" flag="0"/>
      <psa03 value="0.0454245011" flag="0"/>
      <psa10 value="0.0034598574" flag="0"/>
      <psa30 value="0.0003600355" flag="0"/>
    </comp>
    <comp name="--.HHZ">
      <acc value="0.0279416539" flag="0"/>
      <vel value="0.0053163115" flag="0"/>
      <psa03 value="0.0125893280" flag="0"/>
      <psa10 value="0.0035160319" flag="0"/>
      <psa30 value="0.0002748665" flag="0"/>
    </comp>
  </station>
  <station code="NEO" name="NEO" netid="HL" insttype="120" commtype="DIG" lat="39.3057" lon="23.2219">
    <comp name="--.HHN">
      <acc value="0.0281106035" flag="0"/>
      <vel value="0.0121495272" flag="0"/>
      <psa03 value="0.0711257598" flag="0"/>
      <psa10 value="0.0115608886" flag="0"/>
      <psa30 value="0.0005939394" flag="0"/>
    </comp>
    <comp name="--.HHE">
      <acc value="0.0212904201" flag="0"/>
      <vel value="0.0086281019" flag="0"/>
      <psa03 value="0.0462302136" flag="0"/>
      <psa10 value="0.0050553273" flag="0"/>
      <psa30 value="0.0004536513" flag="0"/>
    </comp>
    <comp name="--.HHZ">
      <acc value="0.0288984469" flag="0"/>
      <vel value="0.0068464030" flag="0"/>
      <psa03 value="0.0310443392" flag="0"/>
      <psa10 value="0.0018645415" flag="0"/>
      <psa30 value="0.0001814459" flag="0"/>
    </comp>
  </station>
  <station code="TETR" name="TETR" netid="HL" insttype="60" commtype="DIG" lat="39.3445" lon="21.2747">
    <comp name="--.HHN">
      <acc value="0.1475244021" flag="0"/>
      <vel value="0.0590044383" flag="0"/>
      <psa03 value="0.2616273691" flag="0"/>
      <psa10 value="0.0280413931" flag="0"/>
      <psa30 value="0.0019444461" flag="0"/>
    </comp>
