<stationlist xmlns:esm="https://esm-db.eu/esmws/shakemap/1/" created="1783389224">
	<station code="AGR3" name="AGR3" netid="HI" source="ITSAK Strong Motion Network" insttype="" lat="38.5893" lon="21.4162" esm:processing="automatic (Paolucci et al 2011)" esm:quality="best">
		<comp name="--.HNE" depth="0.0">
			<acc value="0.039186698813072" flag="0"/>
			<vel value="0.0250771866670581" flag="0"/>
			<psa03 value="0.0889801965846649" flag="0"/>
			<psa10 value="0.0368007041160392" flag="0"/>
			<psa30 value="0.00254408019949418" flag="0"/>
		</comp>
		<comp name="--.HNN" depth="0.0">
			<acc value="0.0400152229994155" flag="0"/>
			<vel value="0.0179327558702044" flag="0"/>
			<psa03 value="0.0808336985858201" flag="0"/>
			<psa10 value="0.0273063989149153" flag="0"/>
			<psa30 value="0.00221757815366937" flag="0"/>
		</comp>
		<comp name="--.HNZ" depth="0.0">
			<acc value="0.0284641237901433" flag="0"/>
			<vel value="0.010262013797078" flag="0"/>
			<psa03 value="0.0475652759660945" flag="0"/>
			<psa10 value="0.0172045778438465" flag="0"/>
			<psa30 value="0.00110918972837588" flag="0"/>
		</comp>
	</station>
	<station code="AIA1" name="AIA1" netid="HI" source="ITSAK Strong Motion Network" insttype="" lat="40.1641" lon="21.8202" esm:processing="manual (Paolucci et al 2011)" esm:quality="good">
		<comp name="--.HNE" depth="0.0">
			<acc value="0.0251557025551777" flag="0"/>
			<vel value="0.0102994213489693" flag="0"/>
			<psa03 value="0.050153457837108" flag="0"/>
			<psa10 value="0.00715389375410172" flag="0"/>
			<psa30 value="0.00103906966659926" flag="0"/>
		</comp>
		<comp name="--.HNN" depth="0.0">
			<acc value="0.0214283271199617" flag="0"/>
			<vel value="0.00612243311042196" flag="0"/>
			<psa03 value="0.042323741240143" flag="0"/>
			<psa10 value="0.0062256064783755" flag="0"/>
			<psa30 value="0.000910552715481973" flag="0"/>
		</comp>
		<comp name="--.HNZ" depth="0.0">
			<acc value="0.0300403499873578" flag="0"/>
			<vel value="0.00827402848538583" flag="0"/>
			<psa03 value="0.0480290306458994" flag="0"/>
			<psa10 value="0.00743100851784481" flag="0"/>
			<psa30 value="0.000793217182162077" flag="0"/>
		</comp>
	</station>
	<station code="AIG2" name="AIG2" netid="HI" source="ITSAK Strong Motion Network" insttype="" lat="38.2417" lon="22.0726" esm:processing="manual (Paolucci et al 2011)" esm:quality="good">
		<comp name="--.HNE" depth="0.0">
			<acc value="0.0220817155914132" flag="0"/>
			<vel value="0.007056598835445" flag="0"/>
			<psa03 value="0.0292429736618214" flag="0"/>
			<psa10 value="0.00691814376182173" flag="0"/>
			<psa30 value="0.000880661777020663" flag="0"/>
		</comp>
		<comp name="--.HNN" depth="0.0">
			<acc value="0.0203376943835694" flag="0"/>
			<vel value="0.00616266369034052" flag="0"/>
			<psa03 value="0.0312374313056853" flag="0"/>
			<psa10 value="0.00831719222316612" flag="0"/>
			<psa30 value="0.000770737359650827" flag="0"/>
		</comp>
		<comp name="--.HNZ" depth="0.0">
			<acc value="0.0178489955157535" flag="0"/>
			<vel value="0.00386104785356642" flag="0"/>
			<psa03 value="0.0138885489544568" flag="0"/>
			<psa10 value="0.0075999159571337" flag="0"/>
			<psa30 value="0.000399741402781105" flag="0"/>
		</comp>
	</station>
	<station code="AKR1" name="AKR1" netid="HI" source="ITSAK Strong Motion Network" insttype="" lat="38.153583" lon="22.31326" esm:processing="manual (Paolucci et al 2011)" esm:quality="good">
		<comp name="--.HNE" depth="0.0">
			<acc value="0.030220407874846" flag="0"/>
			<vel value="0.00936637256010064" flag="0"/>
			<psa03 value="0.0290074997294957" flag="0"/>
			<psa10 value="0.00948027364660231" flag="0"/>
			<psa30 value="0.000710677078868653" flag="0"/>
		</comp>
		<comp name="--.HNN" depth="0.0">
			<acc value="0.0231865478612222" flag="0"/>
			<vel value="0.0102559822669229" flag="0"/>
			<psa03 value="0.0387762900930812" flag="0"/>
			<psa10 value="0.0151961482327416" flag="0"/>
			<psa30 value="0.000578695366977972" flag="0"/>
		</comp>
		<comp name="--.HNZ" depth="0.0">
			<acc value="0.0205252557105965" flag="0"/>
			<vel value="0.00693704745835646" flag="0"/>
			<psa03 value="0.0195242738560728" flag="0"/>
			<psa10 value="0.00566726949129028" flag="0"/>
			<psa30 value="0.000571181692150557" flag="0"/>
		</comp>
	</station>
	<station code="ART2" name="ART2" netid="HI" source="ITSAK Strong Motion Network" insttype="" lat="39.1474" lon="20.9937" esm:processing="automatic (Paolucci et al 2011)" esm:quality="best">
		<comp name="--.HNE" depth="0.0">
			<acc value="0.0150261497441042" flag="0"/>
			<vel value="0.0044054641869715" flag="0"/>
			<psa03 value="0.0313020892347891" flag="0"/>
			<psa10 value="0.00279433823619425" flag="0"/>
			<psa30 value="0.000291681640185496" flag="0"/>
		</comp>
		<comp name="--.HNN" depth="0.0">
			<acc value="0.0163773873013632" flag="0"/>
			<vel value="0.00412726771572098" flag="0"/>
			<psa03 value="0.0270713870965357" flag="0"/>
			<psa10 value="0.00352163071262644" flag="0"/>
			<psa30 value="0.000526840733946357" flag="0"/>
		</comp>
		<comp name="--.HNZ" depth="0.0">
			<acc value="0.0173449999583812" flag="0"/>
			<vel value="0.00374008969971171" flag="0"/>
			<psa03 value="0.0143070193844023" flag="0"/>
			<psa10 value="0.00378450062646814" flag="0"/>
			<psa30 value="0.000297964634528036" flag="0"/>
		</comp>
	</station>
	<station code="AST1" name="AST1" netid="HI" source="ITSAK Strong Motion Network" insttype="" lat="38.5416" lon="21.0895" esm:processing="manual (Paolucci et al 2011)" esm:quality="good">
		<comp name="--.HNE" depth="0.0">
			<acc value="0.0429237558370151" flag="0"/>
			<vel value="0.0101062530982162" flag="0"/>
			<psa03 value="0.040623378599463" flag="0"/>
			<psa10 value="0.00683784531744387" flag="0"/>
			<psa30 value="0.000556624269459415" flag="0"/>
		</comp>
		<comp name="--.HNN" depth="0.0">
			<acc value="0.0394967997389664" flag="0"/>
			<vel value="0.00888902896489811" flag="0"/>
			<psa03 value="0.0403907876706221" flag="0"/>
			<psa10 value="0.01101438589901" flag="0"/>
			<psa30 value="0.000874331045140746" flag="0"/>
		</comp>
		<comp name="--.HNZ" depth="0.0">
			<acc value="0.0166305695344426" flag="0"/>
			<vel value="0.0054249530509408" flag="0"/>
			<psa03 value="0.0297386731661474" flag="0"/>
			<psa10 value="0.00689061928221004" flag="0"/>
			<psa30 value="0.00033980795331755" flag="0"/>
		</comp>
	</station>
	<station code="FRS1" name="FRS1" netid="HI" source="ITSAK Strong Motion Network" insttype="" lat="39.2934" lon="22.3844" esm:processing="automatic (Paolucci et al 2011)" esm:quality="best">
		<comp name="--.HNE" depth="0.0">
			<acc value="0.0411950104615101" flag="0"/>
			<vel value="0.0144296192169763" flag="0"/>
			<psa03 value="0.0574304971969184" flag="0"/>
			<psa10 value="0.00473854718674554" flag="0"/>
			<psa30 value="0.000423758644847188" flag="0"/>
		</comp>
		<comp name="--.HNN" depth="0.0">
			<acc value="0.0422619616568479" flag="0"/>
			<vel value="0.0164918634773465" flag="0"/>
			<psa03 value="0.0540210473792673" flag="0"/>
			<psa10 value="0.0100753602556696" flag="0"/>
			<psa30 value="0.000792882212055284" flag="0"/>
		</comp>
		<comp name="--.HNZ" depth="0.0">
			<acc value="0.0213022713075329" flag="0"/>
			<vel value="0.00522548494002809" flag="0"/>
			<psa03 value="0.0394146787373625" flag="0"/>
			<psa10 value="0.00289288515506898" flag="0"/>
			<psa30 value="0.000191577652016732" flag="0"/>
		</comp>
	</station>
	<station code="JAN2" name="JAN2" netid="HI" source="ITSAK Strong Motion Network" insttype="" lat="39.664" lon="20.85222" esm:processing="automatic (Paolucci et al 2011)" esm:quality="best">
		<comp name="--.HNE" depth="0.0">
			<acc value="0.0317521122262353" flag="0"/>
			<vel value="0.015370608709118" flag="0"/>
			<psa03 value="0.129314733133093" flag="0"/>
			<psa10 value="0.00818310865328766" flag="0"/>
			<psa30 value="0.00061661079535569" flag="0"/>
		</comp>
		<comp name="--.HNN" depth="0.0">
			<acc value="0.0291028653373973" flag="0"/>
			<vel value="0.0128773202337405" flag="0"/>
			<psa03 value="0.109855371129195" flag="0"/>
			<psa10 value="0.00870881660385935" flag="0"/>
			<psa30 value="0.000806696043820511" flag="0"/>
		</comp>
		<comp name="--.HNZ" depth="0.0">
			<acc value="0.0188166739148185" flag="0"/>
			<vel value="0.00429283105040016" flag="0"/>
			<psa03 value="0.017021040320803" flag="0"/>
			<psa10 value="0.00446383305078226" flag="0"/>
			<psa30 value="0.000351559617224276" flag="0"/>
		</comp>
	</station>
	<station code="KOR2" name="KOR2" netid="HI" source="ITSAK Strong Motion Network" insttype="" lat="37.9401" lon="22.9495" esm:processing="automatic (Paolucci et al 2011)" esm:quality="best">
		<comp name="--.HNE" depth="0.0">
			<acc value="0.0213543011735589" flag="0"/>
			<vel value="0.00913397364726209" flag="0"/>
			<psa03 value="0.0475502280942468" flag="0"/>
			<psa10 value="0.0124164631547472" flag="0"/>
			<psa30 value="0.00064534191740152" flag="0"/>
		</comp>
		<comp name="--.HNN" depth="0.0">
			<acc value="0.0216294544010415" flag="0"/>
			<vel value="0.0135519129733444" flag="0"/>
			<psa03 value="0.0652446190108055" flag="0"/>
			<psa10 value="0.00876309113678079" flag="0"/>
			<psa30 value="0.000609691170297823" flag="0"/>
		</comp>
		<comp name="--.HNZ" depth="0.0">
			<acc value="0.0369130912295208" flag="0"/>
			<vel value="0.00768791281257778" flag="0"/>
			<psa03 value="0.0252209077405267" flag="0"/>
			<psa10 value="0.00535701706358958" flag="0"/>
			<psa30 value="0.000243570979131983" flag="0"/>
		</comp>
	</station>
	<station code="LAM2" name="LAM2" netid="HI" source="ITSAK Strong Motion Network" insttype="" lat="38.90203" lon="22.431301" esm:processing="automatic (Paolucci et al 2011)" esm:quality="best">
		<comp name="--.HNE" depth="0.0">
			<acc value="0.0361972709146312" flag="0"/>
			<vel value="0.0132950428186706" flag="0"/>
			<psa03 value="0.0743828962518244" flag="0"/>
			<psa10 value="0.0053279582635867" flag="0"/>
			<psa30 value="0.00126716279748309" flag="0"/>
		</comp>
		<comp name="--.HNN" depth="0.0">
			<acc value="0.0403875642159753" flag="0"/>
			<vel value="0.0136448315682784" flag="0"/>
			<psa03 value="0.0624226247758704" flag="0"/>
			<psa10 value="0.004096308704098" flag="0"/>
			<psa30 value="0.000506446987127384" flag="0"/>
		</comp>
		<comp name="--.HNZ" depth="0.0">
			<acc value="0.0364987391483407" flag="0"/>
			<vel value="0.00657997037993439" flag="0"/>
			<psa03 value="0.0350316149433971" flag="0"/>
			<psa10 value="0.00362833254672429" flag="0"/>
			<psa30 value="0.000330858584424115" flag="0"/>
		</comp>
	</station>
	<station code="LAR4" name="LAR4" netid="HI" source="ITSAK Strong Motion Network" insttype="" lat="39.6422" lon="22.4219" esm:processing="automatic (Paolucci et al 2011)" esm:quality="best">
		<comp name="--.HNE" depth="0.0">
			<acc value="0.110749420626363" flag="0"/>
			<vel value="0.0622789538195505" flag="0"/>
			<psa03 value="0.236515626332819" flag="0"/>
			<psa10 value="0.0553214035214799" flag="0"/>
			<psa30 value="0.00326976764772614" flag="0"/>
		</comp>
		<comp name="--.HNN" depth="0.0">
			<acc value="0.0780157104291146" flag="0"/>
			<vel value="0.0444405787048011" flag="0"/>
			<psa03 value="0.230755182231668" flag="0"/>
			<psa10 value="0.0358445332744136" flag="0"/>
			<psa30 value="0.00284127363710088" flag="0"/>
		</comp>
		<comp name="--.HNZ" depth="0.0">
			<acc value="0.056636996371457" flag="0"/>
			<vel value="0.0151087622713006" flag="0"/>
			<psa03 value="0.0974617063597291" flag="0"/>
			<psa10 value="0.0109163872195784" flag="0"/>
			<psa30 value="0.00106342607175823" flag="0"/>
		</comp>
	</station>
	<station code="LEF2" name="LEF2" netid="HI" source="ITSAK Strong Motion Network" insttype="" lat="38.830093" lon="20.708346" esm:processing="automatic (Paolucci et al 2011)" esm:quality="best">
		<comp name="--.HNE" depth="0.0">
			<acc value="0.0324004835291562" flag="0"/>
			<vel value="0.0163933896857759" flag="0"/>
			<psa03 value="0.10129605411645" flag="0"/>
			<psa10 value="0.0172610603355343" flag="0"/>
			<psa30 value="0.00140665787168048" flag="0"/>
		</comp>
		<comp name="--.HNN" depth="0.0">
			<acc value="0.0361422267629072" flag="0"/>
			<vel value="0.0184454073304735" flag="0"/>
			<psa03 value="0.115143388101034" flag="0"/>
			<psa10 value="0.0113104698881212" flag="0"/>
			<psa30 value="0.00123498618677388" flag="0"/>
		</comp>
		<comp name="--.HNZ" depth="0.0">
			<acc value="0.0516628069388886" flag="0"/>
			<vel value="0.00855899273436477" flag="0"/>
			<psa03 value="0.0439594485560584" flag="0"/>
			<psa10 value="0.012035722932576" flag="0"/>
			<psa30 value="0.000577901251871744" flag="0"/>
		</comp>
	</station>
	<station code="PRE2" name="PRE2" netid="HI" source="ITSAK Strong Motion Network" insttype="" lat="38.9577" lon="20.7548" esm:processing="automatic (Paolucci et al 2011)" esm:quality="best">
		<comp name="--.HNE" depth="0.0">
			<acc value="0.0295028898184702" flag="0"/>
			<vel value="0.0149505714620692" flag="0"/>
			<psa03 value="0.0822774608946541" flag="0"/>
			<psa10 value="0.0162638111476699" flag="0"/>
			<psa30 value="0.00107036007276843" flag="0"/>
		</comp>
		<comp name="--.HNN" depth="0.0">
			<acc value="0.0321868890219927" flag="0"/>
			<vel value="0.0159725191242842" flag="0"/>
			<psa03 value="0.090333223716072" flag="0"/>
			<psa10 value="0.0181285209255411" flag="0"/>
			<psa30 value="0.00106628740714099" flag="0"/>
		</comp>
		<comp name="--.HNZ" depth="0.0">
			<acc value="0.0275648490190008" flag="0"/>
			<vel value="0.00798588056093788" flag="0"/>
			<psa03 value="0.0505432336578432" flag="0"/>
			<psa10 value="0.00788326691524406" flag="0"/>
			<psa30 value="0.000540960210959081" flag="0"/>
		</comp>
	</station>
	<station code="SIA1" name="SIA1" netid="HI" source="ITSAK Strong Motion Network" insttype="" lat="40.257308" lon="21.553432" esm:processing="automatic (Paolucci et al 2011)" esm:quality="best">
		<comp name="--.HNE" depth="0.0">
			<acc value="0.0624665328558646" flag="0"/>
			<vel value="0.0181752229086746" flag="0"/>
			<psa03 value="0.103059181331642" flag="0"/>
			<psa10 value="0.00727222534298874" flag="0"/>
			<psa30 value="0.00056558017524422" flag="0"/>
		</comp>
		<comp name="--.HNN" depth="0.0">
			<acc value="0.0549619599318433" flag="0"/>
			<vel value="0.0233101143701741" flag="0"/>
			<psa03 value="0.179024880353048" flag="0"/>
			<psa10 value="0.0101702790435735" flag="0"/>
			<psa30 value="0.000902766574688357" flag="0"/>
		</comp>
		<comp name="--.HNZ" depth="0.0">
			<acc value="0.0312628396479267" flag="0"/>
			<vel value="0.0130851166447048" flag="0"/>
			<psa03 value="0.0653408597612829" flag="0"/>
			<psa10 value="0.00544330699862429" flag="0"/>
			<psa30 value="0.000379373777484222" flag="0"/>
		</comp>
	</station>
	<station code="THV2" name="THV2" netid="HI" source="ITSAK Strong Motion Network" insttype="" lat="38.316117" lon="23.319807" esm:processing="automatic (Paolucci et al 2011)" esm:quality="best">
		<comp name="--.HNE" depth="0.0">
			<acc value="0.0217170381477335" flag="0"/>
			<vel value="0.00737720396844398" flag="0"/>
			<psa03 value="0.0421675121407319" flag="0"/>
			<psa10 value="0.004930836487468" flag="0"/>
			<psa30 value="0.000581648010492781" flag="0"/>
		</comp>
		<comp name="--.HNN" depth="0.0">
			<acc value="0.0232227698813947" flag="0"/>
			<vel value="0.0137969954783053" flag="0"/>
			<psa03 value="0.0582789440273569" flag="0"/>
			<psa10 value="0.0101304720315543" flag="0"/>
			<psa30 value="0.00107076978741002" flag="0"/>
		</comp>
		<comp name="--.HNZ" depth="0.0">
			<acc value="0.0335891080240263" flag="0"/>
			<vel value="0.00965669569548447" flag="0"/>
			<psa03 value="0.039281893899352" flag="0"/>
			<psa10 value="0.00480644543467124" flag="0"/>
			<psa30 value="0.000319923328767095" flag="0"/>
		</comp>
	</station>
	<station code="VOL3" name="VOL3" netid="HI" source="ITSAK Strong Motion Network" insttype="" lat="39.373969" lon="22.935352" esm:processing="automatic (Paolucci et al 2011)" esm:quality="best">
		<comp name="--.HNE" depth="0.0">
			<acc value="0.0286998407218638" flag="0"/>
			<vel value="0.0101533492132268" flag="0"/>
			<psa03 value="0.0489943393845325" flag="0"/>
			<psa10 value="0.00434849556648997" flag="0"/>
			<psa30 value="0.000404414941546778" flag="0"/>
		</comp>
		<comp name="--.HNN" depth="0.0">
			<acc value="0.0248028478666907" flag="0"/>
			<vel value="0.00891464860262619" flag="0"/>
			<psa03 value="0.0435302716876971" flag="0"/>
			<psa10 value="0.00545727151745513" flag="0"/>
			<psa30 value="0.000411501504746811" flag="0"/>
		</comp>
		<comp name="--.HNZ" depth="0.0">
			<acc value="0.0342498913895213" flag="0"/>
			<vel value="0.00738541814095047" flag="0"/>
			<psa03 value="0.0376750426616768" flag="0"/>
			<psa10 value="0.00147057191035937" flag="0"/>
			<psa30 value="0.000166873489445536" flag="0"/>
		</comp>
	</station>
	<station code="GINA" name="GINA" netid="HL" source="National Observatory of Athens Seismic Network" insttype="" lat="39.66886" lon="22.389" esm:processing="automatic (Paolucci et al 2011)" esm:quality="best">
		<comp name="00.HNE" depth="0.0">
			<acc value="0.0678426427786454" flag="0"/>
			<vel value="0.0472307427083166" flag="0"/>
			<psa03 value="0.160807152684665" flag="0"/>
			<psa10 value="0.0269105526920457" flag="0"/>
			<psa30 value="0.00166773672937349" flag="0"/>
		</comp>
		<comp name="00.HNN" depth="0.0">
			<acc value="0.0860970072123782" flag="0"/>
			<vel value="0.0403199722860095" flag="0"/>
			<psa03 value="0.225686763140445" flag="0"/>
			<psa10 value="0.0310949880153497" flag="0"/>
			<psa30 value="0.00237815754126572" flag="0"/>
		</comp>
		<comp name="00.HNZ" depth="0.0">
			<acc value="0.0917210144428704" flag="0"/>
			<vel value="0.0234520586242483" flag="0"/>
			<psa03 value="0.0859436204263972" flag="0"/>
			<psa10 value="0.015948563389053" flag="0"/>
			<psa30 value="0.000867660238649221" flag="0"/>
		</comp>
	</station>
	<station code="KRYO" name="KRYO" netid="HL" source="National Observatory of Athens Seismic Network" insttype="" lat="37.971151" lon="22.617961" esm:processing="automatic (Paolucci et al 2011)" esm:quality="best">
		<comp name="--.HNE" depth="0.0">
			<acc value="0.0225035474699253" flag="0"/>
			<vel value="0.00618809530094901" flag="0"/>
			<psa03 value="0.0443792732423835" flag="0"/>
			<psa10 value="0.00773434033083874" flag="0"/>
			<psa30 value="0.000519825425466599" flag="0"/>
		</comp>
		<comp name="--.HNN" depth="0.0">
			<acc value="0.0204807264425567" flag="0"/>
			<vel value="0.00882374415942614" flag="0"/>
			<psa03 value="0.0321580573968123" flag="0"/>
			<psa10 value="0.00722118071153242" flag="0"/>
			<psa30 value="0.000498893986778179" flag="0"/>
		</comp>
		<comp name="--.HNZ" depth="0.0">
			<acc value="0.0168790521914618" flag="0"/>
			<vel value="0.00642750449137263" flag="0"/>
			<psa03 value="0.0350220492055472" flag="0"/>
			<psa10 value="0.00658819221665118" flag="0"/>
			<psa30 value="0.000375017082624569" flag="0"/>
		</comp>
	</station>
	<station code="LARA" name="LARA" netid="HL" source="National Observatory of Athens Seismic Network" insttype="" lat="39.63704" lon="22.42969" esm:processing="automatic (Paolucci et al 2011)" esm:quality="best">
		<comp name="00.HNE" depth="0.0">
			<acc value="0.0745040196534382" flag="0"/>
			<vel value="0.0580058075330429" flag="0"/>
			<psa03 value="0.190430969283795" flag="0"/>
			<psa10 value="0.0439553680774134" flag="0"/>
			<psa30 value="0.00274877521786789" flag="0"/>
		</comp>
		<comp name="00.HNN" depth="0.0">
			<acc value="0.0879318674997143" flag="0"/>
			<vel value="0.0476434500143805" flag="0"/>
			<psa03 value="0.248995328051811" flag="0"/>
			<psa10 value="0.029689177387295" flag="0"/>
			<psa30 value="0.0020925684140543" flag="0"/>
		</comp>
		<comp name="00.HNZ" depth="0.0">
			<acc value="0.0643692905832093" flag="0"/>
			<vel value="0.0169206858920685" flag="0"/>
