<stationlist created="1778069485">
	<station code="SIT2" name="SIT2" netid="HI" source="ITSAK Strong Motion Network" insttype="" lat="35.2059" lon="26.107">
		<comp name="--.HNE" depth="0.0">
			<acc value="0.0178991860735161" flag="0"/>
			<vel value="0.0141274592413596" flag="0"/>
			<psa03 value="0.0481873565278787" flag="0"/>
			<psa10 value="0.00953143227589043" flag="0"/>
			<psa30 value="0.000642945509104565" flag="0"/>
		</comp>
		<comp name="--.HNN" depth="0.0">
			<acc value="0.0167306286532019" flag="0"/>
			<vel value="0.0119780552151675" flag="0"/>
			<psa03 value="0.039015204171133" flag="0"/>
			<psa10 value="0.00719991588901229" flag="0"/>
			<psa30 value="0.000711848507296704" flag="0"/>
		</comp>
		<comp name="--.HNZ" depth="0.0">
			<acc value="0.0116761184109968" flag="0"/>
			<vel value="0.00506817481317363" flag="0"/>
			<psa03 value="0.0242502759871033" flag="0"/>
			<psa10 value="0.00245232034474747" flag="0"/>
			<psa30 value="0.000555698206198935" flag="0"/>
		</comp>
	</station>
</stationlist>
