<?xml version="1.0" encoding="UTF-8" standalone="yes"?>
<!DOCTYPE earthquake SYSTEM "stationlist.dtd">
<stationlist created="" xmlns="ch.ethz.sed.shakemap.usgs.xml">
  <station code="MYT1" name="MYT1" netid="HI" insttype="CMG-5TD,ACCELEROMETER,GURALP" lat="39.085" lon="26.5694">
    <comp name="--.HNE">
      <acc value="0.0625853724" flag="0"/>
      <vel value="0.0156134225" flag="0"/>
      <psa03 value="0.0524979805" flag="0"/>
      <psa10 value="0.0168036757" flag="0"/>
      <psa30 value="0.0015964312" flag="0"/>
    </comp>
    <comp name="--.HNN">
      <acc value="0.0439948950" flag="0"/>
      <vel value="0.0177613063" flag="0"/>
      <psa03 value="0.0384537173" flag="0"/>
      <psa10 value="0.0198316191" flag="0"/>
      <psa30 value="0.0014748901" flag="0"/>
    </comp>
    <comp name="--.HNZ">
      <acc value="0.0545428621" flag="0"/>
      <vel value="0.0115727285" flag="0"/>
      <psa03 value="0.0437638525" flag="0"/>
      <psa10 value="0.0099540363" flag="0"/>
      <psa30 value="0.0009041815" flag="0"/>
    </comp>
  </station>
  <station code="PRK" name="PRK" netid="HL" insttype="120" lat="39.2456" lon="26.265">
    <comp name="--.HHN">
      <acc value="0.0570945264" flag="0"/>
      <vel value="0.0272216859" flag="0"/>
      <psa03 value="0.0893557573" flag="0"/>
      <psa10 value="0.0338705280" flag="0"/>
      <psa30 value="0.0022930865" flag="0"/>
    </comp>
    <comp name="--.HHZ">
      <acc value="0.0763625510" flag="0"/>
      <vel value="0.0219749499" flag="0"/>
      <psa03 value="0.1105436240" flag="0"/>
      <psa10 value="0.0234780682" flag="0"/>
      <psa30 value="0.0016391405" flag="0"/>
    </comp>
    <comp name="--.HHE">
      <acc value="0.0798096568" flag="0"/>
      <vel value="0.0315087641" flag="0"/>
      <psa03 value="0.1668836877" flag="0"/>
      <psa10 value="0.0564722259" flag="0"/>
      <psa30 value="0.0021098973" flag="0"/>
    </comp>
  </station>
  <station code="CHOS" name="CHOS" netid="HT" insttype="100" lat="38.3869" lon="26.0506">
    <comp name="--.HHE">
      <acc value="0.0778476449" flag="0"/>
      <vel value="0.0313264734" flag="0"/>
      <psa03 value="0.1329497777" flag="0"/>
      <psa10 value="0.0198362681" flag="0"/>
      <psa30 value="0.0009722468" flag="0"/>
    </comp>
    <comp name="--.HHN">
      <acc value="0.0457690788" flag="0"/>
      <vel value="0.0205955466" flag="0"/>
      <psa03 value="0.1113544219" flag="0"/>
      <psa10 value="0.0125703095" flag="0"/>
      <psa30 value="0.0009303229" flag="0"/>
    </comp>
    <comp name="--.HHZ">
      <acc value="0.0265489021" flag="0"/>
      <vel value="0.0111435996" flag="0"/>
      <psa03 value="0.0483862353" flag="0"/>
      <psa10 value="0.0050436183" flag="0"/>
      <psa30 value="0.0005838382" flag="0"/>
    </comp>
  </station>
  <station code="EZN" name="EZN" netid="KO" insttype="120s," lat="39.8255" lon="26.3247">
    <comp name="--.HHN">
      <acc value="0.0353449350" flag="0"/>
      <vel value="0.0148262246" flag="0"/>
      <psa03 value="0.0226925058" flag="0"/>
      <psa10 value="0.0188298873" flag="0"/>
      <psa30 value="0.0015077003" flag="0"/>
    </comp>
    <comp name="--.HHE">
      <acc value="0.0413431165" flag="0"/>
      <vel value="0.0192261343" flag="0"/>
      <psa03 value="0.0416420083" flag="0"/>
      <psa10 value="0.0223221464" flag="0"/>
      <psa30 value="0.0016406508" flag="0"/>
    </comp>
    <comp name="--.HHZ">
      <acc value="0.0220292697" flag="0"/>
      <vel value="0.0100750194" flag="0"/>
      <psa03 value="0.0341736110" flag="0"/>
      <psa10 value="0.0108492137" flag="0"/>
      <psa30 value="0.0009496400" flag="0"/>
    </comp>
  </station>
</stationlist>
