<stationlist created="1775820657">
	<station code="MNNAM" name="MNNAM" netid="BS" source="National Seismic Network of Bulgaria (BS)" insttype="" lat="43.4111" lon="23.2262">
		<comp name="--.HNE" depth="0.0">
			<acc value="0.0321567757597849" flag="0"/>
			<vel value="0.0510232816071049" flag="0"/>
			<psa03 value="0.0500324394036432" flag="0"/>
			<psa10 value="0.105476217281544" flag="0"/>
			<psa30 value="0.00990222097356248" flag="0"/>
		</comp>
		<comp name="--.HNN" depth="0.0">
			<acc value="0.0255046893192359" flag="0"/>
			<vel value="0.0484273058199688" flag="0"/>
			<psa03 value="0.0478184333616569" flag="0"/>
			<psa10 value="0.0773469913585307" flag="0"/>
			<psa30 value="0.0136266893679399" flag="0"/>
		</comp>
		<comp name="--.HNZ" depth="0.0">
			<acc value="0.0199892349176304" flag="0"/>
			<vel value="0.0318680381143597" flag="0"/>
			<psa03 value="0.035935880575738" flag="0"/>
			<psa10 value="0.0761012338333525" flag="0"/>
			<psa30 value="0.00428786071639674" flag="0"/>
		</comp>
	</station>
	<station code="E02" name="E02" netid="EG" source="EUROSEISTEST Strong Motion Network" insttype="" lat="40.674206" lon="23.315498">
		<comp name="--.EN1" depth="0.0">
			<acc value="0.19714232473586" flag="0"/>
			<vel value="0.238507772506803" flag="0"/>
			<psa03 value="0.361359771644747" flag="0"/>
			<psa10 value="0.456041010477776" flag="0"/>
			<psa30 value="0.0291991509671367" flag="0"/>
		</comp>
		<comp name="--.EN2" depth="0.0">
			<acc value="0.176696352436031" flag="0"/>
			<vel value="0.23876782916265" flag="0"/>
			<psa03 value="0.42738181194745" flag="0"/>
			<psa10 value="0.438940087626298" flag="0"/>
			<psa30 value="0.045669465377779" flag="0"/>
		</comp>
		<comp name="--.EN3" depth="0.0">
			<acc value="0.135648273464506" flag="0"/>
			<vel value="0.104964338359992" flag="0"/>
			<psa03 value="0.235397864786508" flag="0"/>
			<psa10 value="0.147491150564936" flag="0"/>
			<psa30 value="0.0162817935889121" flag="0"/>
		</comp>
	</station>
	<station code="E03" name="E03" netid="EG" source="EUROSEISTEST Strong Motion Network" insttype="" lat="40.676239" lon="23.324046">
		<comp name="--.EN1" depth="0.0">
			<acc value="0.114020688880613" flag="0"/>
			<vel value="0.151146051379187" flag="0"/>
			<psa03 value="0.250953999470668" flag="0"/>
			<psa10 value="0.242364815479621" flag="0"/>
			<psa30 value="0.0211393687127563" flag="0"/>
		</comp>
		<comp name="--.EN2" depth="0.0">
			<acc value="0.160637976816843" flag="0"/>
			<vel value="0.190014385370832" flag="0"/>
			<psa03 value="0.275949863657714" flag="0"/>
			<psa10 value="0.313135663700882" flag="0"/>
			<psa30 value="0.0284598753270506" flag="0"/>
		</comp>
		<comp name="--.EN3" depth="0.0">
			<acc value="0.0570536982259002" flag="0"/>
			<vel value="0.0713797100967313" flag="0"/>
			<psa03 value="0.134565455967599" flag="0"/>
			<psa10 value="0.157024147078929" flag="0"/>
			<psa30 value="0.0099390834155001" flag="0"/>
		</comp>
	</station>
	<station code="MMAA" name="MMAA" netid="EG" source="EUROSEISTEST Strong Motion Network" insttype="" lat="40.630855" lon="22.943725">
		<comp name="--.EN1" depth="0.0">
			<acc value="0.15060049958849" flag="0"/>
			<vel value="0.140620233206066" flag="0"/>
			<psa03 value="0.528312414770019" flag="0"/>
			<psa10 value="0.287867329797781" flag="0"/>
			<psa30 value="0.0213169671444556" flag="0"/>
		</comp>
		<comp name="--.EN2" depth="0.0">
			<acc value="0.181760862873837" flag="0"/>
			<vel value="0.154114750949601" flag="0"/>
			<psa03 value="0.579565810056945" flag="0"/>
			<psa10 value="0.280742337801948" flag="0"/>
			<psa30 value="0.0209456808819027" flag="0"/>
		</comp>
		<comp name="--.EN3" depth="0.0">
			<acc value="0.110581578301972" flag="0"/>
			<vel value="0.072504618919152" flag="0"/>
			<psa03 value="0.297654822337711" flag="0"/>
			<psa10 value="0.0977402573121648" flag="0"/>
			<psa30 value="0.0187040290501289" flag="0"/>
		</comp>
	</station>
	<station code="STC" name="STC" netid="EG" source="EUROSEISTEST Strong Motion Network" insttype="" lat="40.64865" lon="23.304856">
		<comp name="--.EN1" depth="0.0">
			<acc value="0.0747317599289247" flag="0"/>
			<vel value="0.0684815569563208" flag="0"/>
			<psa03 value="0.346446929575257" flag="0"/>
			<psa10 value="0.0955253305843347" flag="0"/>
			<psa30 value="0.0271941864813812" flag="0"/>
		</comp>
		<comp name="--.EN2" depth="0.0">
			<acc value="0.101969865175908" flag="0"/>
			<vel value="0.0929020342809013" flag="0"/>
			<psa03 value="0.218185349542033" flag="0"/>
			<psa10 value="0.0988513884193399" flag="0"/>
			<psa30 value="0.0186742687453121" flag="0"/>
		</comp>
		<comp name="--.EN3" depth="0.0">
			<acc value="0.0472124085172199" flag="0"/>
			<vel value="0.0792105844575761" flag="0"/>
			<psa03 value="0.123255998438379" flag="0"/>
			<psa10 value="0.0602086522777148" flag="0"/>
			<psa30 value="0.0136662944916177" flag="0"/>
		</comp>
	</station>
	<station code="TST" name="TST" netid="EG" source="EUROSEISTEST Strong Motion Network" insttype="" lat="40.6638" lon="23.2906">
		<comp name="00.EN1" depth="0.0">
			<acc value="0.0888648149029811" flag="0"/>
			<vel value="0.109904205654774" flag="0"/>
			<psa03 value="0.211871847970219" flag="0"/>
			<psa10 value="0.18453394446804" flag="0"/>
			<psa30 value="0.0206286815489164" flag="0"/>
		</comp>
		<comp name="00.EN2" depth="0.0">
			<acc value="0.047389759877881" flag="0"/>
			<vel value="0.0567030363927763" flag="0"/>
			<psa03 value="0.143903064121655" flag="0"/>
			<psa10 value="0.0850752408171799" flag="0"/>
			<psa30 value="0.00978482569667757" flag="0"/>
		</comp>
		<comp name="00.EN3" depth="0.0">
			<acc value="0.0974857054950062" flag="0"/>
			<vel value="0.142792796768545" flag="0"/>
			<psa03 value="0.222831136469384" flag="0"/>
			<psa10 value="0.225400506677558" flag="0"/>
			<psa30 value="0.0334092498654986" flag="0"/>
		</comp>
	</station>
	<station code="W01" name="W01" netid="EG" source="EUROSEISTEST Strong Motion Network" insttype="" lat="40.664956" lon="23.273878">
		<comp name="--.EN1" depth="0.0">
			<acc value="0.0466376586793746" flag="0"/>
			<vel value="0.0718305289436681" flag="0"/>
			<psa03 value="0.151175452131818" flag="0"/>
			<psa10 value="0.104270572413801" flag="0"/>
			<psa30 value="0.0101623498724876" flag="0"/>
		</comp>
		<comp name="--.EN2" depth="0.0">
			<acc value="0.0927970580339348" flag="0"/>
			<vel value="0.140121601737068" flag="0"/>
			<psa03 value="0.171784129855497" flag="0"/>
			<psa10 value="0.137984105769649" flag="0"/>
			<psa30 value="0.0238658893313728" flag="0"/>
		</comp>
		<comp name="--.EN3" depth="0.0">
			<acc value="0.128496189732177" flag="0"/>
			<vel value="0.178934523006043" flag="0"/>
			<psa03 value="0.291258898639285" flag="0"/>
			<psa10 value="0.264226543711647" flag="0"/>
			<psa30 value="0.0447628719871452" flag="0"/>
		</comp>
	</station>
	<station code="AIGS" name="AIGS" netid="HA" source="Hellenic Seismological Network, University of Athens, Seismological Laboratory (HA)" insttype="" lat="38.25001" lon="22.0878">
		<comp name="--.HNE" depth="0.0">
			<acc value="0.0159647495101312" flag="0"/>
			<vel value="0.0330126137419193" flag="0"/>
			<psa03 value="0.0528259890457445" flag="0"/>
			<psa10 value="0.0203043963166206" flag="0"/>
			<psa30 value="0.019799884978526" flag="0"/>
		</comp>
		<comp name="--.HNN" depth="0.0">
			<acc value="0.0167043194109517" flag="0"/>
			<vel value="0.0376733380707012" flag="0"/>
			<psa03 value="0.0528883994302993" flag="0"/>
			<psa10 value="0.0225157190558822" flag="0"/>
			<psa30 value="0.0145997538287108" flag="0"/>
		</comp>
		<comp name="--.HNZ" depth="0.0">
			<acc value="0.00812441135610173" flag="0"/>
			<vel value="0.0187855866388293" flag="0"/>
			<psa03 value="0.0200450062687017" flag="0"/>
			<psa10 value="0.025993699455021" flag="0"/>
			<psa30 value="0.00958887438251259" flag="0"/>
		</comp>
	</station>
	<station code="CORS" name="CORS" netid="HA" source="Hellenic Seismological Network, University of Athens, Seismological Laboratory (HA)" insttype="" lat="38.2562" lon="22.0748">
		<comp name="00.HNE" depth="0.0">
			<acc value="0.0196867656343628" flag="0"/>
			<vel value="0.0263277888457071" flag="0"/>
			<psa03 value="0.0403690961294817" flag="0"/>
			<psa10 value="0.0722342251628194" flag="0"/>
			<psa30 value="0.00935630814284732" flag="0"/>
		</comp>
		<comp name="00.HNN" depth="0.0">
			<acc value="0.0188226540150053" flag="0"/>
			<vel value="0.0288123727153725" flag="0"/>
			<psa03 value="0.0352187861967493" flag="0"/>
			<psa10 value="0.0537114443697159" flag="0"/>
			<psa30 value="0.0117607857610006" flag="0"/>
		</comp>
		<comp name="00.HNZ" depth="0.0">
			<acc value="0.0115429237862364" flag="0"/>
			<vel value="0.013839974432074" flag="0"/>
			<psa03 value="0.0292795646274583" flag="0"/>
			<psa10 value="0.0220544647500468" flag="0"/>
			<psa30 value="0.00507579124627369" flag="0"/>
		</comp>
	</station>
	<station code="DRES" name="DRES" netid="HA" source="Hellenic Seismological Network, University of Athens, Seismological Laboratory (HA)" insttype="" lat="38.319719" lon="21.853176">
		<comp name="--.HNE" depth="0.0">
			<acc value="0.0237392730357535" flag="0"/>
			<vel value="0.0346792127118697" flag="0"/>
			<psa03 value="0.0386059819360069" flag="0"/>
			<psa10 value="0.0486614723338524" flag="0"/>
			<psa30 value="0.0162147241458995" flag="0"/>
		</comp>
		<comp name="--.HNN" depth="0.0">
			<acc value="0.0115555936566588" flag="0"/>
			<vel value="0.0242545997781706" flag="0"/>
			<psa03 value="0.0243380289416409" flag="0"/>
			<psa10 value="0.037479596589326" flag="0"/>
			<psa30 value="0.0103326428202247" flag="0"/>
		</comp>
		<comp name="--.HNZ" depth="0.0">
			<acc value="0.00650565443570074" flag="0"/>
			<vel value="0.0134876220223574" flag="0"/>
			<psa03 value="0.0170877153106031" flag="0"/>
			<psa10 value="0.0146923454832855" flag="0"/>
			<psa30 value="0.00563456867918499" flag="0"/>
		</comp>
	</station>
	<station code="KIAS" name="KIAS" netid="HA" source="Hellenic Seismological Network, University of Athens, Seismological Laboratory (HA)" insttype="" lat="37.9875" lon="22.7543">
		<comp name="--.HNE" depth="0.0">
			<acc value="0.0191797862597982" flag="0"/>
			<vel value="0.0308595817956224" flag="0"/>
			<psa03 value="0.034842146662909" flag="0"/>
			<psa10 value="0.0317712009361296" flag="0"/>
			<psa30 value="0.0248244845002823" flag="0"/>
		</comp>
		<comp name="--.HNN" depth="0.0">
			<acc value="0.0146430891010579" flag="0"/>
			<vel value="0.0331511346497442" flag="0"/>
			<psa03 value="0.0357480321942058" flag="0"/>
			<psa10 value="0.0360885356883653" flag="0"/>
			<psa30 value="0.0215810479718443" flag="0"/>
		</comp>
		<comp name="--.HNZ" depth="0.0">
			<acc value="0.00813576312661605" flag="0"/>
			<vel value="0.0129802867481948" flag="0"/>
			<psa03 value="0.0168127517831449" flag="0"/>
			<psa10 value="0.0182610378291237" flag="0"/>
			<psa30 value="0.0101197678849732" flag="0"/>
		</comp>
	</station>
	<station code="ARG2" name="ARG2" netid="HI" source="ITSAK Strong Motion Network" insttype="" lat="38.1783" lon="20.4878">
		<comp name="--.HNE" depth="0.0">
			<acc value="0.0259201833853361" flag="0"/>
			<vel value="0.0205320571424674" flag="0"/>
			<psa03 value="0.0655180746259342" flag="0"/>
			<psa10 value="0.0181645945652312" flag="0"/>
			<psa30 value="0.00861846259750871" flag="0"/>
		</comp>
		<comp name="--.HNN" depth="0.0">
			<acc value="0.029744930944727" flag="0"/>
			<vel value="0.0228149071228161" flag="0"/>
			<psa03 value="0.0620781800831208" flag="0"/>
			<psa10 value="0.0372011406430071" flag="0"/>
			<psa30 value="0.00757897373648054" flag="0"/>
		</comp>
		<comp name="--.HNZ" depth="0.0">
			<acc value="0.0116094913632029" flag="0"/>
			<vel value="0.0147739527090374" flag="0"/>
			<psa03 value="0.0371227873274841" flag="0"/>
			<psa10 value="0.0139447934616264" flag="0"/>
			<psa30 value="0.005858789366054" flag="0"/>
		</comp>
	</station>
	<station code="ART2" name="ART2" netid="HI" source="ITSAK Strong Motion Network" insttype="" lat="39.1474" lon="20.9937">
		<comp name="--.HNE" depth="0.0">
			<acc value="0.0162433936078786" flag="0"/>
			<vel value="0.022562995989295" flag="0"/>
			<psa03 value="0.0741966026607163" flag="0"/>
			<psa10 value="0.0247550073977321" flag="0"/>
			<psa30 value="0.0099538868961644" flag="0"/>
		</comp>
		<comp name="--.HNN" depth="0.0">
			<acc value="0.0150014606565274" flag="0"/>
			<vel value="0.0211172314891579" flag="0"/>
			<psa03 value="0.0515935532361696" flag="0"/>
			<psa10 value="0.0209164237354002" flag="0"/>
			<psa30 value="0.0100118499026073" flag="0"/>
		</comp>
		<comp name="--.HNZ" depth="0.0">
			<acc value="0.0138582740111175" flag="0"/>
			<vel value="0.0249604889070635" flag="0"/>
			<psa03 value="0.0543465376913121" flag="0"/>
			<psa10 value="0.0239459850540082" flag="0"/>
			<psa30 value="0.0144172850743998" flag="0"/>
		</comp>
	</station>
	<station code="KLV1" name="KLV1" netid="HI" source="ITSAK Strong Motion Network" insttype="" lat="38.03256" lon="22.10797">
		<comp name="--.HNE" depth="0.0">
			<acc value="0.0135733714706159" flag="0"/>
			<vel value="0.0166868900287123" flag="0"/>
			<psa03 value="0.0512982680499613" flag="0"/>
			<psa10 value="0.0243063351754067" flag="0"/>
			<psa30 value="0.00704278988360821" flag="0"/>
		</comp>
		<comp name="--.HNN" depth="0.0">
			<acc value="0.0166687967043228" flag="0"/>
			<vel value="0.0144557736558504" flag="0"/>
			<psa03 value="0.052019998152781" flag="0"/>
			<psa10 value="0.0221675553667499" flag="0"/>
			<psa30 value="0.0031433071870075" flag="0"/>
		</comp>
		<comp name="--.HNZ" depth="0.0">
			<acc value="0.00624078646874346" flag="0"/>
			<vel value="0.0107275912688742" flag="0"/>
			<psa03 value="0.0250843361933182" flag="0"/>
			<psa10 value="0.0140898896360309" flag="0"/>
			<psa30 value="0.00421134898120338" flag="0"/>
		</comp>
	</station>
	<station code="KRK1" name="KRK1" netid="HI" source="ITSAK Strong Motion Network" insttype="" lat="39.618861" lon="19.9202">
		<comp name="--.HNE" depth="0.0">
			<acc value="0.125386799816116" flag="0"/>
			<vel value="0.108905116311969" flag="0"/>
			<psa03 value="0.308992302557014" flag="0"/>
			<psa10 value="0.0751463905795833" flag="0"/>
			<psa30 value="0.0314546437157861" flag="0"/>
		</comp>
		<comp name="--.HNN" depth="0.0">
			<acc value="0.149713922802489" flag="0"/>
			<vel value="0.111318184446174" flag="0"/>
			<psa03 value="0.312373484876991" flag="0"/>
			<psa10 value="0.103435092067219" flag="0"/>
			<psa30 value="0.0262122147639062" flag="0"/>
		</comp>
		<comp name="--.HNZ" depth="0.0">
			<acc value="0.0608605449751814" flag="0"/>
			<vel value="0.0572872116267165" flag="0"/>
			<psa03 value="0.235695759520755" flag="0"/>
			<psa10 value="0.0390980463036932" flag="0"/>
			<psa30 value="0.0157093606680551" flag="0"/>
		</comp>
	</station>
	<station code="LAM2" name="LAM2" netid="HI" source="ITSAK Strong Motion Network" insttype="" lat="38.90203" lon="22.431301">
		<comp name="--.HNE" depth="0.0">
			<acc value="0.0290855431391453" flag="0"/>
			<vel value="0.0444066020182205" flag="0"/>
			<psa03 value="0.0935100591660116" flag="0"/>
			<psa10 value="0.0363399410927616" flag="0"/>
			<psa30 value="0.0210609851869284" flag="0"/>
		</comp>
		<comp name="--.HNN" depth="0.0">
			<acc value="0.0266218454944138" flag="0"/>
			<vel value="0.0454259651438656" flag="0"/>
			<psa03 value="0.0771708361472868" flag="0"/>
			<psa10 value="0.0654680569375448" flag="0"/>
			<psa30 value="0.0288303598698419" flag="0"/>
		</comp>
		<comp name="--.HNZ" depth="0.0">
			<acc value="0.0174846495089826" flag="0"/>
			<vel value="0.0327734666452079" flag="0"/>
			<psa03 value="0.045434488978753" flag="0"/>
			<psa10 value="0.0319749706848684" flag="0"/>
			<psa30 value="0.0125602312203621" flag="0"/>
		</comp>
	</station>
	<station code="LMN1" name="LMN1" netid="HI" source="ITSAK Strong Motion Network" insttype="" lat="39.875" lon="25.0588">
		<comp name="--.HNE" depth="0.0">
			<acc value="0.00880144560573511" flag="0"/>
			<vel value="0.0116404275742084" flag="0"/>
			<psa03 value="0.0307606028431413" flag="0"/>
			<psa10 value="0.00671012451283512" flag="0"/>
			<psa30 value="0.00599169817061031" flag="0"/>
		</comp>
		<comp name="--.HNN" depth="0.0">
			<acc value="0.00829232196547786" flag="0"/>
			<vel value="0.0103359887215038" flag="0"/>
			<psa03 value="0.0230017164591778" flag="0"/>
			<psa10 value="0.00721364833755327" flag="0"/>
			<psa30 value="0.00281898299378871" flag="0"/>
		</comp>
		<comp name="--.HNZ" depth="0.0">
			<acc value="0.0216817111638891" flag="0"/>
			<vel value="0.00726248325279011" flag="0"/>
			<psa03 value="0.00531941846611815" flag="0"/>
			<psa10 value="0.00518760193441689" flag="0"/>
			<psa30 value="0.00392186605437967" flag="0"/>
		</comp>
	</station>
	<station code="LMS2" name="LMS2" netid="HI" source="ITSAK Strong Motion Network" insttype="" lat="40.834985" lon="21.141815">
		<comp name="--.HNE" depth="0.0">
			<acc value="13.0643014372964" flag="0"/>
			<vel value="5.41984461930205" flag="0"/>
			<psa03 value="16.4390290049843" flag="0"/>
			<psa10 value="1.99040757473199" flag="0"/>
			<psa30 value="0.267862304562952" flag="0"/>
		</comp>
		<comp name="--.HNN" depth="0.0">
			<acc value="8.28213291892894" flag="0"/>
			<vel value="2.24368159780807" flag="0"/>
			<psa03 value="7.04570874360342" flag="0"/>
			<psa10 value="1.02716760481341" flag="0"/>
			<psa30 value="0.0731366916137455" flag="0"/>
		</comp>
		<comp name="--.HNZ" depth="0.0">
			<acc value="5.11030470070968" flag="0"/>
			<vel value="1.75971589842954" flag="0"/>
			<psa03 value="5.83853544096455" flag="0"/>
			<psa10 value="1.42100729475803" flag="0"/>
			<psa30 value="0.252531929001157" flag="0"/>
		</comp>
	</station>
	<station code="MSL1" name="MSL1" netid="HI" source="ITSAK Strong Motion Network" insttype="" lat="38.3727" lon="21.4243">
		<comp name="--.HNE" depth="0.0">
			<acc value="0.0860404759400868" flag="0"/>
			<vel value="0.108866081970712" flag="0"/>
			<psa03 value="0.139260767009016" flag="0"/>
			<psa10 value="0.169066614833644" flag="0"/>
			<psa30 value="0.0299147550390612" flag="0"/>
		</comp>
		<comp name="--.HNN" depth="0.0">
			<acc value="0.0665524399270193" flag="0"/>
			<vel value="0.0957671979271928" flag="0"/>
			<psa03 value="0.108949259020256" flag="0"/>
			<psa10 value="0.265659888663643" flag="0"/>
			<psa30 value="0.031374108380689" flag="0"/>
		</comp>
		<comp name="--.HNZ" depth="0.0">
			<acc value="0.0244557972885245" flag="0"/>
			<vel value="0.0326185096129981" flag="0"/>
			<psa03 value="0.05402810513838" flag="0"/>
			<psa10 value="0.0884411637931833" flag="0"/>
			<psa30 value="0.00597955153259947" flag="0"/>
		</comp>
	</station>
	<station code="SKO1" name="SKO1" netid="HI" source="ITSAK Strong Motion Network" insttype="" lat="39.123383" lon="23.728705">
		<comp name="--.HNE" depth="0.0">
			<acc value="0.0123456913438685" flag="0"/>
			<vel value="0.0159531980624954" flag="0"/>
			<psa03 value="0.0226353250000244" flag="0"/>
			<psa10 value="0.023942019166258" flag="0"/>
			<psa30 value="0.0131267137470192" flag="0"/>
		</comp>
		<comp name="--.HNN" depth="0.0">
			<acc value="0.0118942127688273" flag="0"/>
			<vel value="0.0147767833245072" flag="0"/>
			<psa03 value="0.027700754309854" flag="0"/>
			<psa10 value="0.0230948605461578" flag="0"/>
			<psa30 value="0.00565366411082835" flag="0"/>
		</comp>
		<comp name="--.HNZ" depth="0.0">
			<acc value="0.0104427274585435" flag="0"/>
			<vel value="0.0163977640676794" flag="0"/>
			<psa03 value="0.025363464059197" flag="0"/>
			<psa10 value="0.0199581452541782" flag="0"/>
			<psa30 value="0.00451028711771692" flag="0"/>
		</comp>
	</station>
	<station code="VAS2" name="VAS2" netid="HI" source="ITSAK Strong Motion Network" insttype="" lat="38.630558" lon="20.608081">
		<comp name="--.HNE" depth="0.0">
