<?xml version="1.0" encoding="UTF-8" standalone="yes"?>
<!DOCTYPE earthquake SYSTEM "stationlist.dtd">
<stationlist created="" xmlns="ch.ethz.sed.shakemap.usgs.xml">
  <station code="KBN" name="KBN" netid="AC" insttype="" lat="40.6236" lon="20.7874">
    <comp name="--.HHE">
      <acc value="0.7997976626" flag="0"/>
      <vel value="0.3077077662" flag="0"/>
      <psa03 value="2.4793243764" flag="0"/>
      <psa10 value="0.3601097936" flag="0"/>
      <psa30 value="0.0575356686" flag="0"/>
    </comp>
    <comp name="--.HHN">
      <acc value="0.7208722955" flag="0"/>
      <vel value="0.2923191632" flag="0"/>
      <psa03 value="1.5243230038" flag="0"/>
      <psa10 value="0.2759183675" flag="0"/>
      <psa30 value="0.0376645058" flag="0"/>
    </comp>
    <comp name="--.HHZ">
      <acc value="0.5487217675" flag="0"/>
      <vel value="0.1821335743" flag="0"/>
      <psa03 value="0.8249075419" flag="0"/>
      <psa10 value="0.2666370608" flag="0"/>
      <psa30 value="0.0355138388" flag="0"/>
    </comp>
  </station>
  <station code="LSK" name="LSK" netid="AC" insttype="" lat="40.1499" lon="20.5987">
    <comp name="--.HHE">
      <acc value="21.9020953659" flag="0"/>
      <vel value="1.2500519469" flag="0"/>
      <psa03 value="1.8030039041" flag="0"/>
      <psa10 value="0.6367562126" flag="0"/>
      <psa30 value="0.2157770640" flag="0"/>
    </comp>
    <comp name="--.HHZ">
      <acc value="0.3132537076" flag="0"/>
      <vel value="0.2403759970" flag="0"/>
      <psa03 value="0.6860548197" flag="0"/>
      <psa10 value="0.2530156766" flag="0"/>
      <psa30 value="0.0677891246" flag="0"/>
    </comp>
    <comp name="--.HHN">
      <acc value="0.5470336608" flag="0"/>
      <vel value="0.3540075494" flag="0"/>
      <psa03 value="0.7818538882" flag="0"/>
      <psa10 value="0.5284575647" flag="0"/>
      <psa30 value="0.0845630853" flag="0"/>
    </comp>
  </station>
  <station code="PHP" name="PHP" netid="AC" insttype="" lat="41.6847" lon="20.4408">
    <comp name="--.HHE">
      <acc value="0.1552991713" flag="0"/>
      <vel value="0.2058474165" flag="0"/>
      <psa03 value="0.2778685765" flag="0"/>
      <psa10 value="0.2903535406" flag="0"/>
      <psa30 value="0.0400613916" flag="0"/>
    </comp>
    <comp name="--.HHN">
      <acc value="0.1629608563" flag="0"/>
      <vel value="0.2083078371" flag="0"/>
      <psa03 value="0.3732341978" flag="0"/>
      <psa10 value="0.4160282623" flag="0"/>
      <psa30 value="0.0445567170" flag="0"/>
    </comp>
    <comp name="--.HHZ">
      <acc value="0.0800976026" flag="0"/>
      <vel value="0.1269071872" flag="0"/>
      <psa03 value="0.1620262513" flag="0"/>
      <psa10 value="0.2011159832" flag="0"/>
      <psa30 value="0.0243729099" flag="0"/>
    </comp>
  </station>
  <station code="PUK" name="PUK" netid="AC" insttype="" lat="42.0426" lon="19.8926">
    <comp name="--.HHE">
      <acc value="0.0347231646" flag="0"/>
      <vel value="0.0418034422" flag="0"/>
      <psa03 value="0.1023099549" flag="0"/>
      <psa10 value="0.0744519148" flag="0"/>
      <psa30 value="0.0139688391" flag="0"/>
    </comp>
    <comp name="--.HHZ">
      <acc value="0.0148379626" flag="0"/>
      <vel value="0.0165453462" flag="0"/>
      <psa03 value="0.0308011237" flag="0"/>
      <psa10 value="0.0313428700" flag="0"/>
      <psa30 value="0.0015591057" flag="0"/>
    </comp>
    <comp name="--.HHN">
      <acc value="0.0345616074" flag="0"/>
      <vel value="0.0564186879" flag="0"/>
      <psa03 value="0.0751614705" flag="0"/>
      <psa10 value="0.0738389582" flag="0"/>
      <psa30 value="0.0185986746" flag="0"/>
    </comp>
  </station>
  <station code="SRN" name="SRN" netid="AC" insttype="" lat="39.88" lon="20.0005">
    <comp name="--.HHE">
      <acc value="0.0483691186" flag="0"/>
      <vel value="0.0518396695" flag="0"/>
      <psa03 value="0.0703387265" flag="0"/>
      <psa10 value="0.0534860419" flag="0"/>
      <psa30 value="0.0134507968" flag="0"/>
    </comp>
    <comp name="--.HHN">
      <acc value="0.0240796892" flag="0"/>
      <vel value="0.0294458899" flag="0"/>
      <psa03 value="0.0655747143" flag="0"/>
      <psa10 value="0.0478394547" flag="0"/>
      <psa30 value="0.0076362600" flag="0"/>
    </comp>
    <comp name="--.HHZ">
      <acc value="0.0211340912" flag="0"/>
      <vel value="0.0223217302" flag="0"/>
      <psa03 value="0.0496364153" flag="0"/>
      <psa10 value="0.0470765889" flag="0"/>
      <psa30 value="0.0074837804" flag="0"/>
    </comp>
  </station>
  <station code="VLO" name="VLO" netid="AC" insttype="" lat="40.4686" lon="19.4955">
    <comp name="--.HHE">
      <acc value="0.1255399965" flag="0"/>
      <vel value="0.1647879816" flag="0"/>
      <psa03 value="0.3850571482" flag="0"/>
      <psa10 value="0.1935093850" flag="0"/>
      <psa30 value="0.0418846476" flag="0"/>
    </comp>
    <comp name="--.HHN">
      <acc value="0.1400098187" flag="0"/>
      <vel value="0.1669462968" flag="0"/>
      <psa03 value="0.4192378577" flag="0"/>
      <psa10 value="0.2709101077" flag="0"/>
      <psa30 value="0.0760173324" flag="0"/>
    </comp>
    <comp name="--.HHZ">
      <acc value="0.0989712805" flag="0"/>
      <vel value="0.1092832159" flag="0"/>
      <psa03 value="0.3030322267" flag="0"/>
      <psa10 value="0.1045797434" flag="0"/>
      <psa30 value="0.0627272967" flag="0"/>
    </comp>
  </station>
  <station code="LMS2" name="LMS2" netid="HI" insttype="CMG-5TD,ACCELEROMETER,GURALP" lat="40.835" lon="21.1418">
    <comp name="--.HNE">
      <acc value="13.0817159939" flag="0"/>
      <vel value="5.3133344636" flag="0"/>
      <psa03 value="16.5145078023" flag="0"/>
      <psa10 value="1.9911958324" flag="0"/>
      <psa30 value="0.2640033011" flag="0"/>
    </comp>
    <comp name="--.HNN">
      <acc value="8.2078727893" flag="0"/>
      <vel value="2.2101575119" flag="0"/>
      <psa03 value="6.9939940852" flag="0"/>
      <psa10 value="1.0231230952" flag="0"/>
      <psa30 value="0.0729852834" flag="0"/>
    </comp>
    <comp name="--.HNZ">
      <acc value="5.0597453841" flag="0"/>
      <vel value="1.6774087928" flag="0"/>
      <psa03 value="5.8428251813" flag="0"/>
      <psa10 value="1.4250901079" flag="0"/>
      <psa30 value="0.2445797085" flag="0"/>
    </comp>
  </station>
  <station code="JAN" name="JAN" netid="HL" insttype="CMG3EPSC60_DR24" lat="39.6562" lon="20.8487">
    <comp name="--.HHE">
      <acc value="0.1013328734" flag="0"/>
      <vel value="0.0779885028" flag="0"/>
      <psa03 value="0.3571986130" flag="0"/>
      <psa10 value="0.1191453689" flag="0"/>
      <psa30 value="0.0131598662" flag="0"/>
    </comp>
    <comp name="--.HHN">
      <acc value="0.0897759025" flag="0"/>
      <vel value="0.0664383323" flag="0"/>
      <psa03 value="0.3703739480" flag="0"/>
      <psa10 value="0.0871247474" flag="0"/>
      <psa30 value="0.0099092564" flag="0"/>
    </comp>
    <comp name="--.HHZ">
      <acc value="0.0574429987" flag="0"/>
      <vel value="0.0331019509" flag="0"/>
      <psa03 value="0.1572710633" flag="0"/>
      <psa10 value="0.0468757467" flag="0"/>
      <psa30 value="0.0076778501" flag="0"/>
    </comp>
  </station>
  <station code="KEK" name="KEK" netid="HL" insttype="120" lat="39.7127" lon="19.7962">
    <comp name="--.HHN">
      <acc value="0.0446012217" flag="0"/>
      <vel value="0.0490708718" flag="0"/>
      <psa03 value="0.0824990032" flag="0"/>
      <psa10 value="0.0826327610" flag="0"/>
      <psa30 value="0.0209032978" flag="0"/>
    </comp>
    <comp name="--.HHZ">
      <acc value="0.0336453144" flag="0"/>
      <vel value="0.0381780753" flag="0"/>
      <psa03 value="0.0615265335" flag="0"/>
      <psa10 value="0.0660800882" flag="0"/>
      <psa30 value="0.0079073298" flag="0"/>
    </comp>
    <comp name="--.HHE">
      <acc value="0.0332188804" flag="0"/>
      <vel value="0.0476181370" flag="0"/>
      <psa03 value="0.1138387733" flag="0"/>
      <psa10 value="0.0656328921" flag="0"/>
      <psa30 value="0.0182385854" flag="0"/>
    </comp>
  </station>
  <station code="KZN" name="KZN" netid="HL" insttype="120" lat="40.3033" lon="21.7821">
    <comp name="--.HHZ">
      <acc value="0.4546893096" flag="0"/>
      <vel value="0.2909053964" flag="0"/>
      <psa03 value="1.2473217353" flag="0"/>
      <psa10 value="0.1741546961" flag="0"/>
      <psa30 value="0.0184317591" flag="0"/>
    </comp>
    <comp name="--.HHN">
      <acc value="1.2331653914" flag="0"/>
      <vel value="0.5824110295" flag="0"/>
      <psa03 value="3.7922453360" flag="0"/>
      <psa10 value="0.2036488836" flag="0"/>
      <psa30 value="0.0214745388" flag="0"/>
    </comp>
    <comp name="--.HHE">
      <acc value="1.0786774876" flag="0"/>
      <vel value="0.4836822335" flag="0"/>
      <psa03 value="2.6251706939" flag="0"/>
      <psa10 value="0.3204369001" flag="0"/>
      <psa30 value="0.0393337336" flag="0"/>
    </comp>
  </station>
  <station code="PENT" name="PENT" netid="HL" insttype="30s-100Hz," lat="40.1959" lon="21.1384">
    <comp name="--.HHN">
      <acc value="0.1993254263" flag="0"/>
      <vel value="0.0897180086" flag="0"/>
      <psa03 value="0.5464366685" flag="0"/>
      <psa10 value="0.1778485785" flag="0"/>
      <psa30 value="0.0115226705" flag="0"/>
    </comp>
    <comp name="--.HHZ">
      <acc value="0.2051717581" flag="0"/>
      <vel value="0.1198245901" flag="0"/>
      <psa03 value="0.4251631932" flag="0"/>
      <psa10 value="0.1744462264" flag="0"/>
      <psa30 value="0.0180856227" flag="0"/>
    </comp>
    <comp name="--.HHE">
      <acc value="0.2050466726" flag="0"/>
      <vel value="0.1217698866" flag="0"/>
      <psa03 value="0.5520674346" flag="0"/>
      <psa10 value="0.1855333937" flag="0"/>
      <psa30 value="0.0265828443" flag="0"/>
    </comp>
  </station>
  <station code="PLG" name="PLG" netid="HL" insttype="120" lat="40.3733" lon="23.4444">
    <comp name="--.HHZ">
      <acc value="0.0166915174" flag="0"/>
      <vel value="0.0181456956" flag="0"/>
      <psa03 value="0.0416059068" flag="0"/>
      <psa10 value="0.0218317190" flag="0"/>
      <psa30 value="0.0061779731" flag="0"/>
    </comp>
    <comp name="--.HHE">
      <acc value="0.0182634355" flag="0"/>
      <vel value="0.0195987497" flag="0"/>
      <psa03 value="0.0458102999" flag="0"/>
      <psa10 value="0.0303560303" flag="0"/>
      <psa30 value="0.0067454297" flag="0"/>
    </comp>
    <comp name="--.HHN">
      <acc value="0.0284199800" flag="0"/>
      <vel value="0.0226714085" flag="0"/>
      <psa03 value="0.0763105384" flag="0"/>
      <psa10 value="0.0410356592" flag="0"/>
      <psa30 value="0.0045393700" flag="0"/>
    </comp>
  </station>
  <station code="SOFA" name="SOFA" netid="HL" insttype="CMG-5" lat="39.3377" lon="22.0969">
    <comp name="00.HNN">
      <acc value="0.1469054412" flag="0"/>
      <vel value="0.1761529671" flag="0"/>
      <psa03 value="0.4242411782" flag="0"/>
      <psa10 value="0.2611299385" flag="0"/>
      <psa30 value="0.0503428681" flag="0"/>
    </comp>
    <comp name="00.HNE">
      <acc value="0.1842597153" flag="0"/>
      <vel value="0.2436838128" flag="0"/>
      <psa03 value="0.3894324794" flag="0"/>
      <psa10 value="0.2585199413" flag="0"/>
      <psa30 value="0.0468993272" flag="0"/>
    </comp>
    <comp name="00.HNZ">
      <acc value="0.0509279687" flag="0"/>
      <vel value="0.0738058607" flag="0"/>
      <psa03 value="0.1283251262" flag="0"/>
      <psa10 value="0.1565508750" flag="0"/>
      <psa30 value="0.0206139430" flag="0"/>
    </comp>
  </station>
  <station code="TETR" name="TETR" netid="HL" insttype="60" lat="39.3445" lon="21.2747">
    <comp name="--.HHZ">
      <acc value="0.0606633217" flag="0"/>
      <vel value="0.0488628861" flag="0"/>
      <psa03 value="0.2168935040" flag="0"/>
      <psa10 value="0.0887765178" flag="0"/>
      <psa30 value="0.0110562857" flag="0"/>
    </comp>
    <comp name="--.HHE">
      <acc value="0.1832563238" flag="0"/>
      <vel value="0.1311221338" flag="0"/>
      <psa03 value="0.5629446700" flag="0"/>
      <psa10 value="0.1829911909" flag="0"/>
      <psa30 value="0.0262099252" flag="0"/>
    </comp>
    <comp name="--.HHN">
      <acc value="0.1425542780" flag="0"/>
      <vel value="0.0931843742" flag="0"/>
      <psa03 value="0.3303175705" flag="0"/>
      <psa10 value="0.1293408773" flag="0"/>
      <psa30 value="0.0144528667" flag="0"/>
    </comp>
  </station>
  <station code="THL" name="THL" netid="HL" insttype="120" lat="39.5647" lon="22.0144">
    <comp name="--.HHZ">
      <acc value="0.0545171648" flag="0"/>
      <vel value="0.0743012540" flag="0"/>
      <psa03 value="0.1116849402" flag="0"/>
      <psa10 value="0.0550598615" flag="0"/>
      <psa30 value="0.0185836183" flag="0"/>
    </comp>
    <comp name="--.HHN">
      <acc value="0.1015985884" flag="0"/>
      <vel value="0.0912027739" flag="0"/>
      <psa03 value="0.2323221066" flag="0"/>
      <psa10 value="0.1460932973" flag="0"/>
      <psa30 value="0.0294877271" flag="0"/>
    </comp>
    <comp name="--.HHE">
      <acc value="0.0969240628" flag="0"/>
      <vel value="0.0949192793" flag="0"/>
      <psa03 value="0.1958136004" flag="0"/>
      <psa10 value="0.1183443332" flag="0"/>
      <psa30 value="0.0372825633" flag="0"/>
    </comp>
  </station>
  <station code="PRMD" name="PRMD" netid="HP" insttype="120P," lat="39.5299" lon="21.0965">
    <comp name="--.HHN">
      <acc value="0.0613980868" flag="0"/>
      <vel value="0.0645629889" flag="0"/>
      <psa03 value="0.1996247858" flag="0"/>
      <psa10 value="0.0902497264" flag="0"/>
      <psa30 value="0.0272965428" flag="0"/>
    </comp>
    <comp name="--.HHZ">
      <acc value="0.0404449430" flag="0"/>
      <vel value="0.0425240379" flag="0"/>
      <psa03 value="0.1167557375" flag="0"/>
      <psa10 value="0.0509658056" flag="0"/>
      <psa30 value="0.0225561029" flag="0"/>
    </comp>
    <comp name="--.HHE">
      <acc value="0.1044195266" flag="0"/>
      <vel value="0.0938575925" flag="0"/>
      <psa03 value="0.4146460635" flag="0"/>
      <psa10 value="0.1562907427" flag="0"/>
      <psa30 value="0.0305971653" flag="0"/>
    </comp>
  </station>
  <station code="IGT" name="IGT" netid="HT" insttype="100" lat="39.5315" lon="20.3299">
    <comp name="--.HHN">
      <acc value="0.0529870408" flag="0"/>
      <vel value="0.0456837639" flag="0"/>
      <psa03 value="0.1376025991" flag="0"/>
      <psa10 value="0.0587409475" flag="0"/>
      <psa30 value="0.0121340795" flag="0"/>
    </comp>
    <comp name="--.HHZ">
      <acc value="0.0384666643" flag="0"/>
      <vel value="0.0628528744" flag="0"/>
      <psa03 value="0.1025855727" flag="0"/>
      <psa10 value="0.0661372882" flag="0"/>
      <psa30 value="0.0198504105" flag="0"/>
    </comp>
    <comp name="--.HHE">
      <acc value="0.0655936594" flag="0"/>
      <vel value="0.0619520607" flag="0"/>
      <psa03 value="0.0896010006" flag="0"/>
      <psa10 value="0.1474118519" flag="0"/>
      <psa30 value="0.0190400029" flag="0"/>
    </comp>
  </station>
  <station code="KNT" name="KNT" netid="HT" insttype="100" lat="41.162" lon="22.898">
    <comp name="--.HHN">
      <acc value="0.0771493381" flag="0"/>
      <vel value="0.0624929316" flag="0"/>
      <psa03 value="0.2059404445" flag="0"/>
      <psa10 value="0.0711750651" flag="0"/>
      <psa30 value="0.0136195511" flag="0"/>
    </comp>
    <comp name="--.HHE">
      <acc value="0.0481523328" flag="0"/>
      <vel value="0.0644759201" flag="0"/>
      <psa03 value="0.1288737539" flag="0"/>
      <psa10 value="0.0781698310" flag="0"/>
      <psa30 value="0.0293186489" flag="0"/>
    </comp>
    <comp name="--.HHZ">
      <acc value="0.0620376478" flag="0"/>
      <vel value="0.0638489555" flag="0"/>
      <psa03 value="0.1979111836" flag="0"/>
      <psa10 value="0.0792689943" flag="0"/>
      <psa30 value="0.0229195345" flag="0"/>
    </comp>
  </station>
  <station code="KPRO" name="KPRO" netid="HT" insttype="100" lat="39.9549" lon="21.3632">
    <comp name="--.HHE">
      <acc value="0.3763844694" flag="0"/>
      <vel value="0.3019138561" flag="0"/>
      <psa03 value="1.1597130751" flag="0"/>
      <psa10 value="0.3075425552" flag="0"/>
      <psa30 value="0.0781085710" flag="0"/>
    </comp>
    <comp name="--.HHN">
      <acc value="0.3117221395" flag="0"/>
      <vel value="0.2316576933" flag="0"/>
      <psa03 value="0.5206292872" flag="0"/>
      <psa10 value="0.4529752291" flag="0"/>
      <psa30 value="0.0227817358" flag="0"/>
    </comp>
    <comp name="--.HHZ">
      <acc value="0.1576912858" flag="0"/>
      <vel value="0.1076501092" flag="0"/>
      <psa03 value="0.5574151791" flag="0"/>
      <psa10 value="0.1449952252" flag="0"/>
      <psa30 value="0.0191340620" flag="0"/>
    </comp>
  </station>
  <station code="LIT" name="LIT" netid="HT" insttype="100" lat="40.1033" lon="22.4892">
    <comp name="--.HHZ">
      <acc value="0.0969788677" flag="0"/>
      <vel value="0.0787768944" flag="0"/>
      <psa03 value="0.2808523004" flag="0"/>
      <psa10 value="0.0639499474" flag="0"/>
      <psa30 value="0.0155873084" flag="0"/>
    </comp>
    <comp name="--.HHN">
      <acc value="0.2093315991" flag="0"/>
      <vel value="0.1368771565" flag="0"/>
      <psa03 value="0.6861642963" flag="0"/>
      <psa10 value="0.1944590754" flag="0"/>
      <psa30 value="0.0279229303" flag="0"/>
    </comp>
    <comp name="--.HHE">
      <acc value="0.1879559489" flag="0"/>
      <vel value="0.1035941698" flag="0"/>
      <psa03 value="0.5589490451" flag="0"/>
      <psa10 value="0.0875227341" flag="0"/>
      <psa30 value="0.0401114542" flag="0"/>
    </comp>
  </station>
  <station code="NESN" name="NESN" netid="HT" insttype="1s-100Hz," lat="39.7267" lon="22.5399">
    <comp name="--.HHZ">
      <acc value="0.0982177839" flag="0"/>
      <vel value="0.1029568831" flag="0"/>
      <psa03 value="0.2946865267" flag="0"/>
      <psa10 value="0.1282718631" flag="0"/>
      <psa30 value="0.0180017874" flag="0"/>
    </comp>
    <comp name="--.HHE">
      <acc value="0.2426737245" flag="0"/>
      <vel value="0.2607670524" flag="0"/>
      <psa03 value="0.5377960148" flag="0"/>
      <psa10 value="0.3630747192" flag="0"/>
      <psa30 value="0.0440368352" flag="0"/>
    </comp>
    <comp name="--.HHN">
      <acc value="0.2153024256" flag="0"/>
      <vel value="0.2652193002" flag="0"/>
      <psa03 value="0.5268091228" flag="0"/>
      <psa10 value="0.4202435141" flag="0"/>
      <psa30 value="0.0338086654" flag="0"/>
    </comp>
  </station>
  <station code="NEST" name="NEST" netid="HT" insttype="120P," lat="40.4147" lon="21.0489">
    <comp name="--.HHE">
      <acc value="3.6736245879" flag="0"/>
      <vel value="0.8115654426" flag="0"/>
      <psa03 value="2.6671189011" flag="0"/>
      <psa10 value="0.1809861164" flag="0"/>
      <psa30 value="0.2155403267" flag="0"/>
    </comp>
    <comp name="--.HHZ">
      <acc value="1.3333645452" flag="0"/>
      <vel value="0.7262753567" flag="0"/>
      <psa03 value="1.9755192304" flag="0"/>
      <psa10 value="0.3991427678" flag="0"/>
      <psa30 value="0.0543741446" flag="0"/>
    </comp>
    <comp name="--.HHN">
      <acc value="1.0032340408" flag="0"/>
      <vel value="0.4795171749" flag="0"/>
      <psa03 value="1.7547315690" flag="0"/>
      <psa10 value="0.3579733918" flag="0"/>
      <psa30 value="0.0492916251" flag="0"/>
    </comp>
  </station>
  <station code="SOH" name="SOH" netid="HT" insttype="120P," lat="40.8217" lon="23.3539">
    <comp name="--.HHE">
      <acc value="0.0500449354" flag="0"/>
      <vel value="0.0408597868" flag="0"/>
      <psa03 value="0.1354251219" flag="0"/>
      <psa10 value="0.0602780823" flag="0"/>
      <psa30 value="0.0110339364" flag="0"/>
    </comp>
    <comp name="--.HHZ">
      <acc value="0.0279423589" flag="0"/>
      <vel value="0.0328821545" flag="0"/>
      <psa03 value="0.0604928112" flag="0"/>
