<stationlist created="1778136812">
	<station code="KRL1" name="KRL1" netid="HI" source="ITSAK Strong Motion Network" insttype="" lat="37.7951" lon="26.7065">
		<comp name="--.HNE" depth="0.0">
			<acc value="0.00345717655217603" flag="0"/>
			<vel value="0.00656347712117175" flag="0"/>
			<psa03 value="0.0100593017960492" flag="0"/>
			<psa10 value="0.00772927515153938" flag="0"/>
			<psa30 value="0.00128658908438079" flag="0"/>
		</comp>
		<comp name="--.HNN" depth="0.0">
			<acc value="0.00365998912627557" flag="0"/>
			<vel value="0.00416414794253975" flag="0"/>
			<psa03 value="0.00992973396803335" flag="0"/>
			<psa10 value="0.00917201635106834" flag="0"/>
			<psa30 value="0.00144745171990455" flag="0"/>
		</comp>
		<comp name="--.HNZ" depth="0.0">
			<acc value="0.00253269265505425" flag="0"/>
			<vel value="0.00278933676392427" flag="0"/>
			<psa03 value="0.00691700769696051" flag="0"/>
			<psa10 value="0.00584995768723655" flag="0"/>
			<psa30 value="0.000908940212828414" flag="0"/>
		</comp>
	</station>
	<station code="MYT1" name="MYT1" netid="HI" source="ITSAK Strong Motion Network" insttype="" lat="39.085" lon="26.5694">
		<comp name="--.HNE" depth="0.0">
			<acc value="0.0265448269229726" flag="0"/>
			<vel value="0.0181094790163847" flag="0"/>
			<psa03 value="0.0644562282422883" flag="0"/>
			<psa10 value="0.0138832209452521" flag="0"/>
			<psa30 value="0.0062679027177988" flag="0"/>
		</comp>
		<comp name="--.HNN" depth="0.0">
			<acc value="0.0230441072590955" flag="0"/>
			<vel value="0.0186923753474971" flag="0"/>
			<psa03 value="0.0499724354285601" flag="0"/>
			<psa10 value="0.0238378616413577" flag="0"/>
			<psa30 value="0.00708864875485474" flag="0"/>
		</comp>
		<comp name="--.HNZ" depth="0.0">
			<acc value="0.0220597737772049" flag="0"/>
			<vel value="0.0157573590774777" flag="0"/>
			<psa03 value="0.0454735228144738" flag="0"/>
			<psa10 value="0.0161824720093561" flag="0"/>
			<psa30 value="0.00390371360186787" flag="0"/>
		</comp>
	</station>
	<station code="SKY1" name="SKY1" netid="HI" source="ITSAK Strong Motion Network" insttype="" lat="38.904483" lon="24.564572">
		<comp name="--.HNE" depth="0.0">
			<acc value="0.0055155337825967" flag="0"/>
			<vel value="0.00406008723209679" flag="0"/>
			<psa03 value="0.0150062414856709" flag="0"/>
			<psa10 value="0.00518744911181293" flag="0"/>
			<psa30 value="0.000610158597094865" flag="0"/>
		</comp>
		<comp name="--.HNN" depth="0.0">
			<acc value="0.00730392118383885" flag="0"/>
			<vel value="0.00483043633684556" flag="0"/>
			<psa03 value="0.0205686242891762" flag="0"/>
			<psa10 value="0.00574945477940055" flag="0"/>
			<psa30 value="0.000762094391261874" flag="0"/>
		</comp>
		<comp name="--.HNZ" depth="0.0">
			<acc value="0.00380637052470931" flag="0"/>
			<vel value="0.003044263187807" flag="0"/>
			<psa03 value="0.00791721067425038" flag="0"/>
			<psa10 value="0.00242458530437708" flag="0"/>
			<psa30 value="0.000781219460290548" flag="0"/>
		</comp>
	</station>
	<station code="EFSA" name="EFSA" netid="HL" source="National Observatory of Athens Seismic Network" insttype="" lat="39.54015" lon="24.98864">
		<comp name="00.HNE" depth="0.0">
			<acc value="0.00943053625042583" flag="0"/>
			<vel value="0.00861856386630494" flag="0"/>
			<psa03 value="0.0351035962743247" flag="0"/>
			<psa10 value="0.00951250234409443" flag="0"/>
			<psa30 value="0.00259718684254653" flag="0"/>
		</comp>
		<comp name="00.HNN" depth="0.0">
			<acc value="0.00745848140429111" flag="0"/>
			<vel value="0.00821788821228841" flag="0"/>
			<psa03 value="0.0221991372505641" flag="0"/>
			<psa10 value="0.00794927503797622" flag="0"/>
			<psa30 value="0.00239392483577324" flag="0"/>
		</comp>
		<comp name="00.HNZ" depth="0.0">
			<acc value="0.00542890942956229" flag="0"/>
			<vel value="0.00439948827948447" flag="0"/>
			<psa03 value="0.0216809831337311" flag="0"/>
			<psa10 value="0.00616661600805894" flag="0"/>
			<psa30 value="0.000630321078594864" flag="0"/>
		</comp>
	</station>
	<station code="LIA" name="LIA" netid="HL" source="National Observatory of Athens Seismic Network" insttype="" lat="39.89725" lon="25.18055">
		<comp name="00.HNE" depth="0.0">
			<acc value="0.0111639084170938" flag="0"/>
			<vel value="0.00707591142371893" flag="0"/>
			<psa03 value="0.0308212500899042" flag="0"/>
			<psa10 value="0.00755654761546067" flag="0"/>
			<psa30 value="0.00165656682275707" flag="0"/>
		</comp>
		<comp name="00.HNN" depth="0.0">
			<acc value="0.0141633315661955" flag="0"/>
			<vel value="0.00774339772398702" flag="0"/>
			<psa03 value="0.0357396201786066" flag="0"/>
			<psa10 value="0.00579173320515919" flag="0"/>
			<psa30 value="0.00201184160796581" flag="0"/>
		</comp>
		<comp name="00.HNZ" depth="0.0">
			<acc value="0.00535464798599133" flag="0"/>
			<vel value="0.003312778272199" flag="0"/>
			<psa03 value="0.0147595037863696" flag="0"/>
			<psa10 value="0.00507555294923649" flag="0"/>
			<psa30 value="0.000952646024788973" flag="0"/>
		</comp>
	</station>
	<station code="PRK" name="PRK" netid="HL" source="National Observatory of Athens Seismic Network" insttype="" lat="39.24565" lon="26.26499">
		<comp name="--.HNE" depth="0.0">
			<acc value="0.0538114688171202" flag="0"/>
			<vel value="0.0266831585027256" flag="0"/>
			<psa03 value="0.155066230710214" flag="0"/>
			<psa10 value="0.0392005818461593" flag="0"/>
			<psa30 value="0.00636295984821552" flag="0"/>
		</comp>
		<comp name="--.HNN" depth="0.0">
			<acc value="0.0774399028599131" flag="0"/>
			<vel value="0.0481451579776183" flag="0"/>
			<psa03 value="0.298374453343353" flag="0"/>
			<psa10 value="0.0351642944619153" flag="0"/>
			<psa30 value="0.00937513772354719" flag="0"/>
		</comp>
		<comp name="--.HNZ" depth="0.0">
			<acc value="0.0427785561830799" flag="0"/>
			<vel value="0.0250861837631683" flag="0"/>
			<psa03 value="0.129243165892298" flag="0"/>
			<psa10 value="0.0145509526792013" flag="0"/>
			<psa30 value="0.0036072656303129" flag="0"/>
		</comp>
	</station>
	<station code="SMTH" name="SMTH" netid="HL" source="National Observatory of Athens Seismic Network" insttype="" lat="40.47094" lon="25.53045">
		<comp name="00.HNE" depth="0.0">
			<acc value="0.00203914226368163" flag="0"/>
			<vel value="0.00151082877440322" flag="0"/>
			<psa03 value="0.00355600998227377" flag="0"/>
			<psa10 value="0.00178938416292059" flag="0"/>
			<psa30 value="0.000543403862423693" flag="0"/>
		</comp>
		<comp name="00.HNN" depth="0.0">
			<acc value="0.00246749584344147" flag="0"/>
			<vel value="0.00141679724549865" flag="0"/>
			<psa03 value="0.00558517988658069" flag="0"/>
			<psa10 value="0.00132039016468191" flag="0"/>
			<psa30 value="0.000538140180393922" flag="0"/>
		</comp>
		<comp name="00.HNZ" depth="0.0">
			<acc value="0.00215864338509341" flag="0"/>
			<vel value="0.00104104831764528" flag="0"/>
			<psa03 value="0.00375429981070807" flag="0"/>
			<psa10 value="0.00115888384068099" flag="0"/>
			<psa30 value="0.000388428778375306" flag="0"/>
		</comp>
	</station>
	<station code="TNSA" name="TNSA" netid="HL" source="National Observatory of Athens Seismic Network" insttype="" lat="37.53942" lon="25.1631">
		<comp name="00.HNE" depth="0.0">
			<acc value="0.00352796857654975" flag="0"/>
			<vel value="0.00179630156402011" flag="0"/>
			<psa03 value="0.00711124452256391" flag="0"/>
			<psa10 value="0.00243394615886315" flag="0"/>
			<psa30 value="0.000414498083463793" flag="0"/>
		</comp>
		<comp name="00.HNN" depth="0.0">
			<acc value="0.00476426158392468" flag="0"/>
			<vel value="0.00248039865367089" flag="0"/>
			<psa03 value="0.00757643354217354" flag="0"/>
			<psa10 value="0.00391906047789955" flag="0"/>
			<psa30 value="0.000582680474722207" flag="0"/>
		</comp>
		<comp name="00.HNZ" depth="0.0">
			<acc value="0.00526569837429113" flag="0"/>
			<vel value="0.00218130404767584" flag="0"/>
			<psa03 value="0.00715255064431209" flag="0"/>
			<psa10 value="0.0022493019739678" flag="0"/>
			<psa30 value="0.000457303002411421" flag="0"/>
		</comp>
	</station>
	<station code="BIGA" name="BIGA" netid="KO" source="Bogazici University Kandilli Observatory And Earthquake Research Institute (KOERI)" insttype="" lat="40.28134" lon="27.15048">
		<comp name="--.HNE" depth="0.0">
			<acc value="0.00646116654273854" flag="0"/>
			<vel value="0.00291745696681631" flag="0"/>
			<psa03 value="0.0181647137397897" flag="0"/>
			<psa10 value="0.00299163294662433" flag="0"/>
			<psa30 value="0.00122133569916382" flag="0"/>
		</comp>
		<comp name="--.HNN" depth="0.0">
			<acc value="0.00912786853808645" flag="0"/>
			<vel value="0.00434816575106026" flag="0"/>
			<psa03 value="0.020500658849293" flag="0"/>
			<psa10 value="0.00386572631977289" flag="0"/>
			<psa30 value="0.000703733598065523" flag="0"/>
		</comp>
		<comp name="--.HNZ" depth="0.0">
			<acc value="0.00347056035958528" flag="0"/>
			<vel value="0.00170159344136036" flag="0"/>
			<psa03 value="0.00747801230868564" flag="0"/>
			<psa10 value="0.00204255101210581" flag="0"/>
			<psa30 value="0.000503874941743841" flag="0"/>
		</comp>
	</station>
	<station code="EDC" name="EDC" netid="KO" source="Bogazici University Kandilli Observatory And Earthquake Research Institute (KOERI)" insttype="" lat="40.3465" lon="27.8618">
		<comp name="--.HNE" depth="0.0">
			<acc value="0.003901698548304" flag="0"/>
			<vel value="0.00173394310731333" flag="0"/>
			<psa03 value="0.0184295034162577" flag="0"/>
			<psa10 value="0.00253515012875483" flag="0"/>
			<psa30 value="0.000514326363263268" flag="0"/>
		</comp>
		<comp name="--.HNN" depth="0.0">
			<acc value="0.00504035787363538" flag="0"/>
			<vel value="0.00274019374667805" flag="0"/>
			<psa03 value="0.0229725739036096" flag="0"/>
			<psa10 value="0.00263499674310074" flag="0"/>
			<psa30 value="0.000495791385412609" flag="0"/>
		</comp>
		<comp name="--.HNZ" depth="0.0">
			<acc value="0.00189766267686935" flag="0"/>
			<vel value="0.00100390408002746" flag="0"/>
			<psa03 value="0.0046491155982637" flag="0"/>
			<psa10 value="0.00149781406657987" flag="0"/>
			<psa30 value="0.000328877802165259" flag="0"/>
		</comp>
	</station>
	<station code="ENZZ" name="ENZZ" netid="KO" source="Bogazici University Kandilli Observatory And Earthquake Research Institute (KOERI)" insttype="" lat="40.607" lon="26.1406">
		<comp name="--.HNE" depth="0.0">
			<acc value="0.0131400659154069" flag="0"/>
			<vel value="0.00780941604518384" flag="0"/>
			<psa03 value="0.0300325051310852" flag="0"/>
			<psa10 value="0.0101508490064405" flag="0"/>
			<psa30 value="0.00220646470912377" flag="0"/>
		</comp>
		<comp name="--.HNN" depth="0.0">
			<acc value="0.0151713308457485" flag="0"/>
			<vel value="0.00739578749154365" flag="0"/>
			<psa03 value="0.0327939406667845" flag="0"/>
			<psa10 value="0.00913846475345495" flag="0"/>
			<psa30 value="0.00357949004031465" flag="0"/>
		</comp>
		<comp name="--.HNZ" depth="0.0">
			<acc value="0.00901807347689321" flag="0"/>
			<vel value="0.00300007776114893" flag="0"/>
			<psa03 value="0.0130193702818791" flag="0"/>
			<psa10 value="0.00260012013582144" flag="0"/>
			<psa30 value="0.00195561267474156" flag="0"/>
		</comp>
	</station>
	<station code="GONE" name="GONE" netid="KO" source="Bogazici University Kandilli Observatory And Earthquake Research Institute (KOERI)" insttype="" lat="40.0466" lon="27.686">
		<comp name="--.HNE" depth="0.0">
			<acc value="0.00399335303161026" flag="0"/>
			<vel value="0.00293012553086015" flag="0"/>
			<psa03 value="0.00918864971856132" flag="0"/>
			<psa10 value="0.0034817934642287" flag="0"/>
			<psa30 value="0.000891601668401206" flag="0"/>
		</comp>
		<comp name="--.HNN" depth="0.0">
			<acc value="0.00475859845217976" flag="0"/>
			<vel value="0.00431376125790603" flag="0"/>
			<psa03 value="0.0129190029559581" flag="0"/>
			<psa10 value="0.00424791530979937" flag="0"/>
			<psa30 value="0.00117568590425333" flag="0"/>
		</comp>
		<comp name="--.HNZ" depth="0.0">
			<acc value="0.00255793783332475" flag="0"/>
			<vel value="0.00192939218526671" flag="0"/>
			<psa03 value="0.00423825862841843" flag="0"/>
			<psa10 value="0.00223290729414771" flag="0"/>
			<psa30 value="0.000490213463818953" flag="0"/>
		</comp>
	</station>
	<station code="GORD" name="GORD" netid="KO" source="Bogazici University Kandilli Observatory And Earthquake Research Institute (KOERI)" insttype="" lat="38.9088" lon="28.1769">
		<comp name="--.HNE" depth="0.0">
			<acc value="0.00176944245673709" flag="0"/>
			<vel value="0.00340877739595692" flag="0"/>
			<psa03 value="0.00368710525523315" flag="0"/>
			<psa10 value="0.00564778554434421" flag="0"/>
			<psa30 value="0.000813722290522757" flag="0"/>
		</comp>
		<comp name="--.HNN" depth="0.0">
			<acc value="0.00213400289588062" flag="0"/>
			<vel value="0.00270607292945583" flag="0"/>
			<psa03 value="0.00437511014207399" flag="0"/>
			<psa10 value="0.005331607724083" flag="0"/>
			<psa30 value="0.000780817923272219" flag="0"/>
		</comp>
		<comp name="--.HNZ" depth="0.0">
			<acc value="0.00151489021303502" flag="0"/>
			<vel value="0.00195521931286815" flag="0"/>
			<psa03 value="0.00355296941626412" flag="0"/>
			<psa10 value="0.00332278386812355" flag="0"/>
			<psa30 value="0.000710151419046396" flag="0"/>
		</comp>
	</station>
	<station code="KRBG" name="KRBG" netid="KO" source="Bogazici University Kandilli Observatory And Earthquake Research Institute (KOERI)" insttype="" lat="40.3932" lon="27.2977">
		<comp name="--.HNE" depth="0.0">
			<acc value="0.0043647802043958" flag="0"/>
			<vel value="0.00229280439464169" flag="0"/>
			<psa03 value="0.0105453932419867" flag="0"/>
			<psa10 value="0.00180052579943405" flag="0"/>
			<psa30 value="0.000524922065177717" flag="0"/>
		</comp>
		<comp name="--.HNN" depth="0.0">
			<acc value="0.00386251290967268" flag="0"/>
			<vel value="0.00218156403583474" flag="0"/>
			<psa03 value="0.0109128928474786" flag="0"/>
			<psa10 value="0.00231550979741155" flag="0"/>
			<psa30 value="0.000405540042120744" flag="0"/>
		</comp>
		<comp name="--.HNZ" depth="0.0">
			<acc value="0.00225014459029821" flag="0"/>
			<vel value="0.00125180363520649" flag="0"/>
			<psa03 value="0.00651969231427965" flag="0"/>
			<psa10 value="0.00136942032675052" flag="0"/>
			<psa30 value="0.000383777715056799" flag="0"/>
		</comp>
	</station>
	<station code="SOMA" name="SOMA" netid="KO" source="Bogazici University Kandilli Observatory And Earthquake Research Institute (KOERI)" insttype="" lat="39.1564" lon="27.5341">
		<comp name="--.HNE" depth="0.0">
			<acc value="0.00478525681529565" flag="0"/>
			<vel value="0.00370788210114401" flag="0"/>
			<psa03 value="0.0132696655085692" flag="0"/>
			<psa10 value="0.00532778293946295" flag="0"/>
			<psa30 value="0.001308760657305" flag="0"/>
		</comp>
		<comp name="--.HNN" depth="0.0">
			<acc value="0.00697123073880585" flag="0"/>
			<vel value="0.00570424697143624" flag="0"/>
			<psa03 value="0.0119120990139526" flag="0"/>
			<psa10 value="0.0046732605180722" flag="0"/>
			<psa30 value="0.0019732609271838" flag="0"/>
		</comp>
		<comp name="--.HNZ" depth="0.0">
			<acc value="0.00403302678589006" flag="0"/>
			<vel value="0.00286985065881782" flag="0"/>
			<psa03 value="0.0115247243939335" flag="0"/>
			<psa10 value="0.00401934094911396" flag="0"/>
			<psa30 value="0.000706680668294924" flag="0"/>
		</comp>
	</station>
</stationlist>
