<?xml version="1.0" encoding="UTF-8" standalone="yes"?>
<!DOCTYPE earthquake SYSTEM "stationlist.dtd">
<stationlist created="" xmlns="ch.ethz.sed.shakemap.usgs.xml">
  <station code="MYT1" name="MYT1" netid="HI" insttype="CMG-5TD,ACCELEROMETER,GURALP" lat="39.085" lon="26.5694">
    <comp name="--.HNN">
      <acc value="0.0225654721" flag="0"/>
      <vel value="0.0190022131" flag="0"/>
      <psa03 value="0.0503947184" flag="0"/>
      <psa10 value="0.0240824358" flag="0"/>
      <psa30 value="0.0059972823" flag="0"/>
    </comp>
    <comp name="--.HNE">
      <acc value="0.0266138627" flag="0"/>
      <vel value="0.0153985121" flag="0"/>
      <psa03 value="0.0635247955" flag="0"/>
      <psa10 value="0.0138036212" flag="0"/>
      <psa30 value="0.0053485626" flag="0"/>
    </comp>
    <comp name="--.HNZ">
      <acc value="0.0222360426" flag="0"/>
      <vel value="0.0157005488" flag="0"/>
      <psa03 value="0.0452020615" flag="0"/>
      <psa10 value="0.0161212200" flag="0"/>
      <psa30 value="0.0033968733" flag="0"/>
    </comp>
  </station>
  <station code="PRK" name="PRK" netid="HL" insttype="120" lat="39.2456" lon="26.265">
    <comp name="--.HHZ">
      <acc value="0.0427144104" flag="0"/>
      <vel value="0.0245207546" flag="0"/>
      <psa03 value="0.1297341247" flag="0"/>
      <psa10 value="0.0144484177" flag="0"/>
      <psa30 value="0.0031570409" flag="0"/>
    </comp>
    <comp name="--.HHE">
      <acc value="0.0597098178" flag="0"/>
      <vel value="0.0271628954" flag="0"/>
      <psa03 value="0.1867445149" flag="0"/>
      <psa10 value="0.0410101309" flag="0"/>
      <psa30 value="0.0062923513" flag="0"/>
    </comp>
    <comp name="--.HHN">
      <acc value="0.0620904223" flag="0"/>
      <vel value="0.0374711434" flag="0"/>
      <psa03 value="0.2520344646" flag="0"/>
      <psa10 value="0.0280620695" flag="0"/>
      <psa30 value="0.0070245469" flag="0"/>
    </comp>
  </station>
  <station code="CHOS" name="CHOS" netid="HT" insttype="100" lat="38.3869" lon="26.0506">
    <comp name="--.HHE">
      <acc value="0.0405569999" flag="0"/>
      <vel value="0.0195766045" flag="0"/>
      <psa03 value="0.1024492355" flag="0"/>
      <psa10 value="0.0173454149" flag="0"/>
      <psa30 value="0.0035630984" flag="0"/>
    </comp>
    <comp name="--.HHN">
      <acc value="0.0222066950" flag="0"/>
      <vel value="0.0116792808" flag="0"/>
      <psa03 value="0.0408748163" flag="0"/>
      <psa10 value="0.0171913164" flag="0"/>
      <psa30 value="0.0040454747" flag="0"/>
    </comp>
    <comp name="--.HHZ">
      <acc value="0.0174564645" flag="0"/>
      <vel value="0.0088698214" flag="0"/>
      <psa03 value="0.0324959038" flag="0"/>
      <psa10 value="0.0095101952" flag="0"/>
      <psa30 value="0.0022636322" flag="0"/>
    </comp>
  </station>
  <station code="SIGR" name="SIGR" netid="HT" insttype="100" lat="39.2114" lon="25.8553">
    <comp name="--.HHZ">
      <acc value="0.0539852284" flag="0"/>
      <vel value="0.0178683802" flag="0"/>
      <psa03 value="0.1639917048" flag="0"/>
      <psa10 value="0.0130988101" flag="0"/>
      <psa30 value="0.0024779791" flag="0"/>
    </comp>
    <comp name="--.HHE">
      <acc value="0.0670286300" flag="0"/>
      <vel value="0.0356317226" flag="0"/>
      <psa03 value="0.1857093820" flag="0"/>
      <psa10 value="0.0259968099" flag="0"/>
      <psa30 value="0.0027053254" flag="0"/>
    </comp>
    <comp name="--.HHN">
      <acc value="0.0674416602" flag="0"/>
      <vel value="0.0266637241" flag="0"/>
      <psa03 value="0.1405897805" flag="0"/>
      <psa10 value="0.0209022385" flag="0"/>
      <psa30 value="0.0033323984" flag="0"/>
    </comp>
  </station>
  <station code="EZN" name="EZN" netid="KO" insttype="120s," lat="39.8255" lon="26.3247">
    <comp name="--.HHZ">
      <acc value="0.0145087653" flag="0"/>
      <vel value="0.0069221479" flag="0"/>
      <psa03 value="0.0444809125" flag="0"/>
      <psa10 value="0.0058733626" flag="0"/>
      <psa30 value="0.0009247465" flag="0"/>
    </comp>
  </station>
  <station code="YAYO" name="YAYO" netid="KO" insttype="30s," lat="39.6113" lon="27.0726">
    <comp name="--.HHZ">
      <acc value="0.0096664776" flag="0"/>
      <vel value="0.0043665995" flag="0"/>
      <psa03 value="0.0266510462" flag="0"/>
      <psa10 value="0.0038992023" flag="0"/>
      <psa30 value="0.0004702900" flag="0"/>
    </comp>
    <comp name="--.HHE">
      <acc value="0.0173048228" flag="0"/>
      <vel value="0.0120032033" flag="0"/>
      <psa03 value="0.0576942398" flag="0"/>
      <psa10 value="0.0094139067" flag="0"/>
      <psa30 value="0.0014282658" flag="0"/>
    </comp>
    <comp name="--.HHN">
      <acc value="0.0164019792" flag="0"/>
      <vel value="0.0081169414" flag="0"/>
      <psa03 value="0.0414654626" flag="0"/>
      <psa10 value="0.0089397169" flag="0"/>
      <psa30 value="0.0010661662" flag="0"/>
    </comp>
  </station>
</stationlist>
