<?xml version="1.0" encoding="UTF-8" standalone="yes"?>
<!DOCTYPE earthquake SYSTEM "stationlist.dtd">
<stationlist created="" xmlns="ch.ethz.sed.shakemap.usgs.xml">
  <station code="MYT1" name="MYT1" netid="HI" insttype="CMG-5TD,ACCELEROMETER,GURALP" lat="39.085" lon="26.5694">
    <comp name="--.HNE">
      <acc value="0.2555240399" flag="0"/>
      <vel value="0.1699595695" flag="0"/>
      <psa03 value="0.5556086091" flag="0"/>
      <psa10 value="0.2298418162" flag="0"/>
      <psa30 value="0.0174685490" flag="0"/>
    </comp>
    <comp name="--.HNZ">
      <acc value="0.2748867117" flag="0"/>
      <vel value="0.1297933760" flag="0"/>
      <psa03 value="0.2879776274" flag="0"/>
      <psa10 value="0.2273545048" flag="0"/>
      <psa30 value="0.0187645287" flag="0"/>
    </comp>
    <comp name="--.HNN">
      <acc value="0.2018629039" flag="0"/>
      <vel value="0.1792023860" flag="0"/>
      <psa03 value="0.5596036870" flag="0"/>
      <psa10 value="0.3274550131" flag="0"/>
      <psa30 value="0.0223569520" flag="0"/>
    </comp>
  </station>
  <station code="EFSA" name="EFSA" netid="HL" insttype="CMG-5" lat="39.5401" lon="24.9886">
    <comp name="00.HNE">
      <acc value="0.0381795496" flag="0"/>
      <vel value="0.0280593018" flag="0"/>
      <psa03 value="0.1269429470" flag="0"/>
      <psa10 value="0.0398487177" flag="0"/>
      <psa30 value="0.0032865528" flag="0"/>
    </comp>
    <comp name="00.HNZ">
      <acc value="0.0534612185" flag="0"/>
      <vel value="0.0301842252" flag="0"/>
      <psa03 value="0.2095406517" flag="0"/>
      <psa10 value="0.0287095602" flag="0"/>
      <psa30 value="0.0021949874" flag="0"/>
    </comp>
    <comp name="00.HNN">
      <acc value="0.0457967439" flag="0"/>
      <vel value="0.0394374077" flag="0"/>
      <psa03 value="0.1886317231" flag="0"/>
      <psa10 value="0.0464179294" flag="0"/>
      <psa30 value="0.0050160018" flag="0"/>
    </comp>
  </station>
  <station code="LIA" name="LIA" netid="HL" insttype="P6C" lat="39.8972" lon="25.1806">
    <comp name="--.HHZ">
      <acc value="0.0575258152" flag="0"/>
      <vel value="0.0237031893" flag="0"/>
      <psa03 value="0.1561428828" flag="0"/>
      <psa10 value="0.0314577492" flag="0"/>
      <psa30 value="0.0023594462" flag="0"/>
    </comp>
    <comp name="--.HHE">
      <acc value="0.1138893081" flag="0"/>
      <vel value="0.0670879028" flag="0"/>
      <psa03 value="0.3505885249" flag="0"/>
      <psa10 value="0.0525925663" flag="0"/>
      <psa30 value="0.0061612852" flag="0"/>
    </comp>
    <comp name="--.HHN">
      <acc value="0.0681463783" flag="0"/>
      <vel value="0.0369505392" flag="0"/>
      <psa03 value="0.2597714576" flag="0"/>
      <psa10 value="0.0470449847" flag="0"/>
      <psa30 value="0.0041595964" flag="0"/>
    </comp>
  </station>
  <station code="PRK" name="PRK" netid="HL" insttype="120" lat="39.2456" lon="26.265">
    <comp name="--.HHZ">
      <acc value="0.9546182885" flag="0"/>
      <vel value="0.4514282483" flag="0"/>
      <psa03 value="1.8068902871" flag="0"/>
      <psa10 value="0.5216512344" flag="0"/>
      <psa30 value="0.0325006675" flag="0"/>
    </comp>
    <comp name="--.HHN">
      <acc value="1.2830336318" flag="0"/>
      <vel value="1.1433769943" flag="0"/>
      <psa03 value="2.8356501395" flag="0"/>
      <psa10 value="1.3827872186" flag="0"/>
      <psa30 value="0.0930570206" flag="0"/>
    </comp>
    <comp name="--.HHE">
      <acc value="0.9605712900" flag="0"/>
      <vel value="0.5558241671" flag="0"/>
      <psa03 value="1.6465768579" flag="0"/>
      <psa10 value="0.8547942787" flag="0"/>
      <psa30 value="0.0375916938" flag="0"/>
    </comp>
  </station>
  <station code="SMTH" name="SMTH" netid="HL" insttype="CMG3ESPC60_P6C" lat="40.4709" lon="25.5304">
    <comp name="--.HHZ">
      <acc value="0.0341743993" flag="0"/>
      <vel value="0.0234980326" flag="0"/>
      <psa03 value="0.0758744228" flag="0"/>
      <psa10 value="0.0319250028" flag="0"/>
      <psa30 value="0.0019893520" flag="0"/>
    </comp>
    <comp name="--.HHE">
      <acc value="0.0487684102" flag="0"/>
      <vel value="0.0246013644" flag="0"/>
      <psa03 value="0.1294166778" flag="0"/>
      <psa10 value="0.0190714338" flag="0"/>
      <psa30 value="0.0033233751" flag="0"/>
    </comp>
    <comp name="--.HHN">
      <acc value="0.0543855221" flag="0"/>
      <vel value="0.0277417011" flag="0"/>
      <psa03 value="0.1324589187" flag="0"/>
      <psa10 value="0.0240466120" flag="0"/>
      <psa30 value="0.0020041972" flag="0"/>
    </comp>
  </station>
  <station code="SIGR" name="SIGR" netid="HT" insttype="100" lat="39.2114" lon="25.8553">
    <comp name="--.HHE">
      <acc value="0.3790276677" flag="0"/>
      <vel value="0.1969429055" flag="0"/>
      <psa03 value="1.1087123782" flag="0"/>
      <psa10 value="0.1439068723" flag="0"/>
      <psa30 value="0.0094028961" flag="0"/>
    </comp>
    <comp name="--.HHN">
      <acc value="1.0194582892" flag="0"/>
      <vel value="0.6040410518" flag="0"/>
      <psa03 value="2.5375515799" flag="0"/>
      <psa10 value="0.3740553844" flag="0"/>
      <psa30 value="0.0354489465" flag="0"/>
    </comp>
    <comp name="--.HHZ">
      <acc value="0.3451623775" flag="0"/>
      <vel value="0.2052570321" flag="0"/>
      <psa03 value="0.8774284764" flag="0"/>
      <psa10 value="0.0995396610" flag="0"/>
      <psa30 value="0.0074528277" flag="0"/>
    </comp>
  </station>
  <station code="AKS" name="AKS" netid="KO" insttype="CMG-5T" lat="38.8785" lon="27.8129">
    <comp name="--.HNE">
      <acc value="0.0471920428" flag="0"/>
      <vel value="0.0324735877" flag="0"/>
      <psa03 value="0.0923269720" flag="0"/>
      <psa10 value="0.0315287188" flag="0"/>
      <psa30 value="0.0032415396" flag="0"/>
    </comp>
    <comp name="--.HNZ">
      <acc value="0.0163402074" flag="0"/>
      <vel value="0.0087029902" flag="0"/>
      <psa03 value="0.0301353660" flag="0"/>
      <psa10 value="0.0119372255" flag="0"/>
      <psa30 value="0.0012206874" flag="0"/>
    </comp>
    <comp name="--.HNN">
      <acc value="0.0728921982" flag="0"/>
      <vel value="0.0318969869" flag="0"/>
      <psa03 value="0.1013380744" flag="0"/>
      <psa10 value="0.0211507083" flag="0"/>
      <psa30 value="0.0023412429" flag="0"/>
    </comp>
  </station>
  <station code="BIGA" name="BIGA" netid="KO" insttype="CMG-5T" lat="40.2813" lon="27.1505">
    <comp name="--.HNZ">
      <acc value="0.0606570234" flag="0"/>
      <vel value="0.0240646769" flag="0"/>
      <psa03 value="0.1223023886" flag="0"/>
      <psa10 value="0.0384998294" flag="0"/>
      <psa30 value="0.0024658579" flag="0"/>
    </comp>
    <comp name="--.HNN">
      <acc value="0.1936527538" flag="0"/>
      <vel value="0.0800705574" flag="0"/>
      <psa03 value="0.6138358075" flag="0"/>
      <psa10 value="0.0605998761" flag="0"/>
      <psa30 value="0.0045361956" flag="0"/>
    </comp>
    <comp name="--.HNE">
      <acc value="0.1275884319" flag="0"/>
      <vel value="0.0842028638" flag="0"/>
      <psa03 value="0.3812280156" flag="0"/>
      <psa10 value="0.0655655744" flag="0"/>
      <psa30 value="0.0057014161" flag="0"/>
    </comp>
  </station>
  <station code="BLCB" name="BLCB" netid="KO" insttype="CMG-3T" lat="38.3853" lon="27.042">
    <comp name="--.HHN">
      <acc value="0.0000571953" flag="0"/>
      <vel value="0.0000206863" flag="0"/>
      <psa03 value="0.0000742314" flag="0"/>
      <psa10 value="0.0000181269" flag="0"/>
      <psa30 value="0.0000015492" flag="0"/>
    </comp>
    <comp name="--.HHE">
      <acc value="0.0691057222" flag="0"/>
      <vel value="0.0567179585" flag="0"/>
      <psa03 value="0.1932646147" flag="0"/>
      <psa10 value="0.0590132413" flag="0"/>
      <psa30 value="0.0039295622" flag="0"/>
    </comp>
    <comp name="--.HHZ">
      <acc value="0.0313201463" flag="0"/>
      <vel value="0.0188357090" flag="0"/>
      <psa03 value="0.0833062992" flag="0"/>
      <psa10 value="0.0109244328" flag="0"/>
      <psa30 value="0.0014249960" flag="0"/>
    </comp>
  </station>
  <station code="CANM" name="CANM" netid="KO" insttype="CMG-5T" lat="40.0113" lon="27.0529">
    <comp name="--.HNE">
      <acc value="0.1699495047" flag="0"/>
      <vel value="0.0718806657" flag="0"/>
      <psa03 value="0.4055877600" flag="0"/>
      <psa10 value="0.0572300852" flag="0"/>
      <psa30 value="0.0045452095" flag="0"/>
    </comp>
    <comp name="--.HNN">
      <acc value="0.1612350679" flag="0"/>
      <vel value="0.0721034478" flag="0"/>
      <psa03 value="0.3855390880" flag="0"/>
      <psa10 value="0.0858944352" flag="0"/>
      <psa30 value="0.0037847276" flag="0"/>
    </comp>
    <comp name="--.HNZ">
      <acc value="0.1248241555" flag="0"/>
      <vel value="0.0451262799" flag="0"/>
      <psa03 value="0.1915611388" flag="0"/>
      <psa10 value="0.0569724506" flag="0"/>
      <psa30 value="0.0036476257" flag="0"/>
    </comp>
  </station>
  <station code="CESE" name="CESE" netid="KO" insttype="CMG-5T" lat="38.3306" lon="26.2997">
    <comp name="--.HNE">
      <acc value="0.0275437408" flag="0"/>
      <vel value="0.0174619406" flag="0"/>
      <psa03 value="0.0681877439" flag="0"/>
      <psa10 value="0.0206511505" flag="0"/>
      <psa30 value="0.0022127638" flag="0"/>
    </comp>
    <comp name="--.HNN">
      <acc value="0.0358327880" flag="0"/>
      <vel value="0.0252879374" flag="0"/>
      <psa03 value="0.1028789124" flag="0"/>
      <psa10 value="0.0369212676" flag="0"/>
      <psa30 value="0.0023979194" flag="0"/>
    </comp>
    <comp name="--.HNZ">
      <acc value="0.0312490186" flag="0"/>
      <vel value="0.0181111942" flag="0"/>
      <psa03 value="0.0722663226" flag="0"/>
      <psa10 value="0.0212650992" flag="0"/>
      <psa30 value="0.0021527108" flag="0"/>
    </comp>
  </station>
  <station code="ENZZ" name="ENZZ" netid="KO" insttype="CMG-5T" lat="40.607" lon="26.1406">
    <comp name="--.HNZ">
      <acc value="0.1361335381" flag="0"/>
      <vel value="0.1020279378" flag="0"/>
      <psa03 value="0.3900315384" flag="0"/>
      <psa10 value="0.0945692494" flag="0"/>
      <psa30 value="0.0068124052" flag="0"/>
    </comp>
    <comp name="--.HNE">
      <acc value="0.3771904114" flag="0"/>
      <vel value="0.3466387844" flag="0"/>
      <psa03 value="0.9972456716" flag="0"/>
      <psa10 value="0.4016159122" flag="0"/>
      <psa30 value="0.0197378767" flag="0"/>
    </comp>
    <comp name="--.HNN">
      <acc value="0.3756967688" flag="0"/>
      <vel value="0.4057576260" flag="0"/>
      <psa03 value="1.0694450119" flag="0"/>
      <psa10 value="0.5123728309" flag="0"/>
      <psa30 value="0.0327623927" flag="0"/>
    </comp>
  </station>
  <station code="ERIK" name="ERIK" netid="KO" insttype="120s," lat="40.6708" lon="26.5132">
    <comp name="--.HHN">
      <acc value="0.1220662141" flag="0"/>
      <vel value="0.0656845241" flag="0"/>
      <psa03 value="0.1894211035" flag="0"/>
      <psa10 value="0.0586775852" flag="0"/>
      <psa30 value="0.0054993473" flag="0"/>
    </comp>
    <comp name="--.HHZ">
      <acc value="0.0416726421" flag="0"/>
      <vel value="0.0284296696" flag="0"/>
      <psa03 value="0.1490279764" flag="0"/>
      <psa10 value="0.0358526150" flag="0"/>
      <psa30 value="0.0035039386" flag="0"/>
    </comp>
  </station>
  <station code="EZN" name="EZN" netid="KO" insttype="120s," lat="39.8255" lon="26.3247">
    <comp name="--.HHN">
      <acc value="0.4840051142" flag="0"/>
      <vel value="0.0934863016" flag="0"/>
      <psa03 value="0.4220792890" flag="0"/>
      <psa10 value="0.0510651453" flag="0"/>
      <psa30 value="0.0036406516" flag="0"/>
    </comp>
    <comp name="--.HHE">
      <acc value="0.4896481595" flag="0"/>
      <vel value="0.0614876424" flag="0"/>
      <psa03 value="0.3233244772" flag="0"/>
      <psa10 value="0.0414241956" flag="0"/>
      <psa30 value="0.0031766547" flag="0"/>
    </comp>
    <comp name="--.HHZ">
      <acc value="0.2120913933" flag="0"/>
      <vel value="0.1109234871" flag="0"/>
      <psa03 value="0.4165638365" flag="0"/>
      <psa10 value="0.0739827451" flag="0"/>
      <psa30 value="0.0034049664" flag="0"/>
    </comp>
  </station>
  <station code="EZNE" name="EZNE" netid="KO" insttype="CMG-5T" lat="39.756" lon="26.3655">
    <comp name="--.HNZ">
      <acc value="0.4604314186" flag="0"/>
      <vel value="0.2116294201" flag="0"/>
      <psa03 value="0.9358108123" flag="0"/>
      <psa10 value="0.0932989433" flag="0"/>
      <psa30 value="0.0072240878" flag="0"/>
    </comp>
    <comp name="--.HNN">
      <acc value="0.5789080392" flag="0"/>
      <vel value="0.2190011824" flag="0"/>
      <psa03 value="1.0103356809" flag="0"/>
      <psa10 value="0.1352711255" flag="0"/>
      <psa30 value="0.0077223337" flag="0"/>
    </comp>
    <comp name="--.HNE">
      <acc value="0.5253139044" flag="0"/>
      <vel value="0.1757076892" flag="0"/>
      <psa03 value="1.0027480719" flag="0"/>
      <psa10 value="0.1888326187" flag="0"/>
      <psa30 value="0.0100850640" flag="0"/>
    </comp>
  </station>
  <station code="FOCM" name="FOCM" netid="KO" insttype="CMG-5T" lat="38.7131" lon="26.7309">
    <comp name="--.HNE">
      <acc value="0.2224983171" flag="0"/>
      <vel value="0.1304214428" flag="0"/>
      <psa03 value="0.4159783803" flag="0"/>
      <psa10 value="0.0877644238" flag="0"/>
      <psa30 value="0.0083313154" flag="0"/>
    </comp>
    <comp name="--.HNZ">
      <acc value="0.1513621602" flag="0"/>
      <vel value="0.0498471656" flag="0"/>
      <psa03 value="0.2979005622" flag="0"/>
      <psa10 value="0.0376612630" flag="0"/>
      <psa30 value="0.0025722250" flag="0"/>
    </comp>
    <comp name="--.HNN">
      <acc value="0.1825531544" flag="0"/>
      <vel value="0.1016107804" flag="0"/>
      <psa03 value="0.4235021658" flag="0"/>
      <psa10 value="0.1346329533" flag="0"/>
      <psa30 value="0.0079628846" flag="0"/>
    </comp>
  </station>
  <station code="GELI" name="GELI" netid="KO" insttype="30s," lat="40.398" lon="26.4742">
    <comp name="--.HHE">
      <acc value="0.0431553843" flag="0"/>
      <vel value="0.0308139741" flag="0"/>
      <psa03 value="0.1306207711" flag="0"/>
      <psa10 value="0.0404841441" flag="0"/>
      <psa30 value="0.0032802701" flag="0"/>
    </comp>
    <comp name="--.HHN">
      <acc value="0.0506991123" flag="0"/>
      <vel value="0.0231166193" flag="0"/>
      <psa03 value="0.1539065970" flag="0"/>
      <psa10 value="0.0409478763" flag="0"/>
      <psa30 value="0.0022427527" flag="0"/>
    </comp>
  </station>
  <station code="GONE" name="GONE" netid="KO" insttype="CMG-5T" lat="40.0466" lon="27.686">
    <comp name="--.HNE">
      <acc value="0.1372285242" flag="0"/>
      <vel value="0.0949691986" flag="0"/>
      <psa03 value="0.2932112177" flag="0"/>
      <psa10 value="0.1666160595" flag="0"/>
      <psa30 value="0.0086046216" flag="0"/>
    </comp>
    <comp name="--.HNN">
      <acc value="0.1107919375" flag="0"/>
      <vel value="0.1051255768" flag="0"/>
      <psa03 value="0.2423820950" flag="0"/>
      <psa10 value="0.1303052259" flag="0"/>
      <psa30 value="0.0075507897" flag="0"/>
    </comp>
  </station>
  <station code="GPNR" name="GPNR" netid="KO" insttype="CMG-5T" lat="39.456" lon="26.1331">
    <comp name="--.HNE">
      <acc value="5.7532675111" flag="0"/>
      <vel value="3.4142430889" flag="0"/>
      <psa03 value="18.0155626181" flag="0"/>
      <psa10 value="1.5998202475" flag="0"/>
      <psa30 value="0.1738842314" flag="0"/>
    </comp>
    <comp name="--.HNZ">
      <acc value="3.5258990133" flag="0"/>
      <vel value="1.0537237909" flag="0"/>
      <psa03 value="4.7381397886" flag="0"/>
      <psa10 value="0.7685067604" flag="0"/>
      <psa30 value="0.0332416167" flag="0"/>
    </comp>
    <comp name="--.HNN">
      <acc value="5.0736281141" flag="0"/>
      <vel value="2.4369686842" flag="0"/>
      <psa03 value="14.6686253195" flag="0"/>
      <psa10 value="1.3119498117" flag="0"/>
      <psa30 value="0.1165022128" flag="0"/>
    </comp>
  </station>
  <station code="KRBG" name="KRBG" netid="KO" insttype="30s," lat="40.3932" lon="27.2977">
    <comp name="--.HHE">
      <acc value="0.1187303284" flag="0"/>
      <vel value="0.0643695428" flag="0"/>
      <psa03 value="0.3119527206" flag="0"/>
      <psa10 value="0.0635611495" flag="0"/>
      <psa30 value="0.0064469722" flag="0"/>
    </comp>
    <comp name="--.HHN">
      <acc value="0.1142146753" flag="0"/>
      <vel value="0.0681591764" flag="0"/>
      <psa03 value="0.3602371166" flag="0"/>
      <psa10 value="0.0720303064" flag="0"/>
      <psa30 value="0.0049981001" flag="0"/>
    </comp>
    <comp name="--.HHZ">
      <acc value="0.0441729583" flag="0"/>
      <vel value="0.0241113123" flag="0"/>
      <psa03 value="0.1660889094" flag="0"/>
      <psa10 value="0.0200055399" flag="0"/>
      <psa30 value="0.0015623146" flag="0"/>
    </comp>
  </station>
  <station code="KRBN" name="KRBN" netid="KO" insttype="CMG-5T" lat="38.5936" lon="26.5537">
    <comp name="--.HNE">
      <acc value="0.1422478903" flag="0"/>
      <vel value="0.1123767147" flag="0"/>
      <psa03 value="0.3200049841" flag="0"/>
      <psa10 value="0.1922880904" flag="0"/>
      <psa30 value="0.0116300505" flag="0"/>
    </comp>
    <comp name="--.HNN">
      <acc value="0.1804732737" flag="0"/>
      <vel value="0.0750941873" flag="0"/>
      <psa03 value="0.2507474675" flag="0"/>
      <psa10 value="0.1217547148" flag="0"/>
      <psa30 value="0.0060096147" flag="0"/>
    </comp>
    <comp name="--.HNZ">
      <acc value="0.0964826718" flag="0"/>
      <vel value="0.0592225683" flag="0"/>
      <psa03 value="0.1910557966" flag="0"/>
      <psa10 value="0.0718147745" flag="0"/>
      <psa30 value="0.0069068549" flag="0"/>
    </comp>
  </station>
  <station code="LAP" name="LAP" netid="KO" insttype="30s," lat="40.3703" lon="26.7593">
    <comp name="--.HHN">
      <acc value="0.0770894703" flag="0"/>
      <vel value="0.0528896085" flag="0"/>
      <psa03 value="0.2581996224" flag="0"/>
      <psa10 value="0.1156104840" flag="0"/>
      <psa30 value="0.0071943214" flag="0"/>
    </comp>
    <comp name="--.HHE">
      <acc value="0.1255796393" flag="0"/>
      <vel value="0.0916992423" flag="0"/>
      <psa03 value="0.2100696344" flag="0"/>
      <psa10 value="0.1346653767" flag="0"/>
      <psa30 value="0.0093438154" flag="0"/>
    </comp>
    <comp name="--.HHZ">
      <acc value="0.0498675391" flag="0"/>
      <vel value="0.0325213699" flag="0"/>
      <psa03 value="0.1437189573" flag="0"/>
      <psa10 value="0.0374330700" flag="0"/>
      <psa30 value="0.0028375318" flag="0"/>
    </comp>
  </station>
  <station code="LAPK" name="LAPK" netid="KO" insttype="CMG-5T" lat="40.3151" lon="26.6425">
    <comp name="--.HNZ">
      <acc value="0.1269482092" flag="0"/>
      <vel value="0.0804337245" flag="0"/>
      <psa03 value="0.2734848963" flag="0"/>
      <psa10 value="0.0770871789" flag="0"/>
      <psa30 value="0.0040439932" flag="0"/>
    </comp>
    <comp name="--.HNE">
      <acc value="0.2199639730" flag="0"/>
      <vel value="0.1786252150" flag="0"/>
      <psa03 value="0.7310663131" flag="0"/>
      <psa10 value="0.1618621769" flag="0"/>
      <psa30 value="0.0102855162" flag="0"/>
    </comp>
    <comp name="--.HNN">
      <acc value="0.2691514591" flag="0"/>
      <vel value="0.2145556140" flag="0"/>
      <psa03 value="0.7904306542" flag="0"/>
      <psa10 value="0.1752104857" flag="0"/>
      <psa30 value="0.0109129701" flag="0"/>
    </comp>
  </station>
  <station code="SOMA" name="SOMA" netid="KO" insttype="CMG-5T" lat="39.1564" lon="27.5341">
    <comp name="--.HNE">
      <acc value="0.0955922542" flag="0"/>
      <vel value="0.0550536684" flag="0"/>
      <psa03 value="0.2837072822" flag="0"/>
      <psa10 value="0.0444114466" flag="0"/>
      <psa30 value="0.0045779297" flag="0"/>
    </comp>
