<?xml version="1.0" encoding="UTF-8" standalone="yes"?>
<!DOCTYPE earthquake SYSTEM "stationlist.dtd">
<stationlist created="" xmlns="ch.ethz.sed.shakemap.usgs.xml">
  <station code="LFK" name="LFK" netid="KO" insttype="120s," lat="35.2832" lon="33.5337">
    <comp name="--.HHE">
      <acc value="0.0383273641" flag="0"/>
      <vel value="0.0132277762" flag="0"/>
      <psa03 value="0.0861483477" flag="0"/>
      <psa10 value="0.0130326724" flag="0"/>
      <psa30 value="0.0008568692" flag="0"/>
    </comp>
    <comp name="--.HHZ">
      <acc value="0.0582432098" flag="0"/>
      <vel value="0.0088069556" flag="0"/>
      <psa03 value="0.0292359801" flag="0"/>
      <psa10 value="0.0065288344" flag="0"/>
      <psa30 value="0.0005581664" flag="0"/>
    </comp>
    <comp name="--.HHN">
      <acc value="0.0556854185" flag="0"/>
      <vel value="0.0168638216" flag="0"/>
      <psa03 value="0.0699636732" flag="0"/>
      <psa10 value="0.0174257189" flag="0"/>
      <psa30 value="0.0008490141" flag="0"/>
    </comp>
  </station>
</stationlist>
