<?xml version="1.0" encoding="UTF-8" standalone="yes"?>
<!DOCTYPE earthquake SYSTEM "stationlist.dtd">
<stationlist created="" xmlns="ch.ethz.sed.shakemap.usgs.xml">
  <station code="APE" name="APE" netid="GE" insttype="STS-2/N" lat="37.0727" lon="25.523">
    <comp name="--.HHE">
      <acc value="0.0849175415" flag="0"/>
      <vel value="0.0187256206" flag="0"/>
      <psa03 value="0.0642576560" flag="0"/>
      <psa10 value="0.0079315776" flag="0"/>
      <psa30 value="0.0009843060" flag="0"/>
    </comp>
    <comp name="--.HHN">
      <acc value="0.0908024888" flag="0"/>
      <vel value="0.0167045364" flag="0"/>
      <psa03 value="0.0426184807" flag="0"/>
      <psa10 value="0.0055357538" flag="0"/>
      <psa30 value="0.0007554594" flag="0"/>
    </comp>
    <comp name="--.HHZ">
      <acc value="0.0382001042" flag="0"/>
      <vel value="0.0070566539" flag="0"/>
      <psa03 value="0.0333794061" flag="0"/>
      <psa10 value="0.0060094187" flag="0"/>
      <psa30 value="0.0007878835" flag="0"/>
    </comp>
  </station>
  <station code="THERA" name="THERA" netid="GE" insttype="STS-2/N" lat="36.367" lon="25.4753">
    <comp name="--.HHZ">
      <acc value="0.0999468991" flag="0"/>
      <vel value="0.0291777737" flag="0"/>
      <psa03 value="0.1324774180" flag="0"/>
      <psa10 value="0.0164492894" flag="0"/>
      <psa30 value="0.0012561568" flag="0"/>
    </comp>
    <comp name="--.HHN">
      <acc value="0.1006994414" flag="0"/>
      <vel value="0.0285795009" flag="0"/>
      <psa03 value="0.2167943183" flag="0"/>
      <psa10 value="0.0064601460" flag="0"/>
      <psa30 value="0.0008799215" flag="0"/>
    </comp>
    <comp name="--.HHE">
      <acc value="0.1375199954" flag="0"/>
      <vel value="0.0376412122" flag="0"/>
      <psa03 value="0.2933575287" flag="0"/>
      <psa10 value="0.0118763397" flag="0"/>
      <psa30 value="0.0012101805" flag="0"/>
    </comp>
  </station>
  <station code="NAX1" name="NAX1" netid="HI" insttype="CMG-5TD,ACCELEROMETER,GURALP" lat="37.1014" lon="25.3741">
    <comp name="--.HNE">
      <acc value="0.0734750905" flag="0"/>
      <vel value="0.0132442912" flag="0"/>
      <psa03 value="0.0497053810" flag="0"/>
      <psa10 value="0.0066548536" flag="0"/>
      <psa30 value="0.0004490650" flag="0"/>
    </comp>
    <comp name="--.HNN">
      <acc value="0.0756550823" flag="0"/>
      <vel value="0.0143826583" flag="0"/>
      <psa03 value="0.0534910837" flag="0"/>
      <psa10 value="0.0049292198" flag="0"/>
      <psa30 value="0.0005517998" flag="0"/>
    </comp>
    <comp name="--.HNZ">
      <acc value="0.0352418741" flag="0"/>
      <vel value="0.0090644494" flag="0"/>
      <psa03 value="0.0364577110" flag="0"/>
      <psa10 value="0.0062205640" flag="0"/>
      <psa30 value="0.0005660017" flag="0"/>
    </comp>
  </station>
  <station code="APE" name="APE" netid="HL" insttype="120" lat="37.0727" lon="25.523">
    <comp name="--.HHE">
      <acc value="0.0762393054" flag="0"/>
      <vel value="0.0181543228" flag="0"/>
      <psa03 value="0.0617969143" flag="0"/>
      <psa10 value="0.0078065719" flag="0"/>
      <psa30 value="0.0009822309" flag="0"/>
    </comp>
    <comp name="--.HHN">
      <acc value="0.0782829659" flag="0"/>
      <vel value="0.0160307171" flag="0"/>
      <psa03 value="0.0407706495" flag="0"/>
      <psa10 value="0.0054417991" flag="0"/>
      <psa30 value="0.0007531755" flag="0"/>
    </comp>
    <comp name="--.HHZ">
      <acc value="0.0336849644" flag="0"/>
      <vel value="0.0066673612" flag="0"/>
      <psa03 value="0.0322261323" flag="0"/>
      <psa10 value="0.0059706174" flag="0"/>
      <psa30 value="0.0007868552" flag="0"/>
    </comp>
  </station>
  <station code="MHLO" name="MHLO" netid="HL" insttype="20" lat="36.6898" lon="24.4017">
    <comp name="--.HHE">
      <acc value="0.0271530431" flag="0"/>
      <vel value="0.0155020906" flag="0"/>
      <psa03 value="0.0492238224" flag="0"/>
      <psa10 value="0.0247422583" flag="0"/>
      <psa30 value="0.0014834931" flag="0"/>
    </comp>
    <comp name="--.HHN">
      <acc value="0.0285042985" flag="0"/>
      <vel value="0.0140378350" flag="0"/>
      <psa03 value="0.0598061917" flag="0"/>
      <psa10 value="0.0239117381" flag="0"/>
      <psa30 value="0.0011926109" flag="0"/>
    </comp>
    <comp name="--.HHZ">
      <acc value="0.0090927562" flag="0"/>
      <vel value="0.0060454934" flag="0"/>
      <psa03 value="0.0211748055" flag="0"/>
      <psa10 value="0.0129962216" flag="0"/>
      <psa30 value="0.0008150380" flag="0"/>
    </comp>
  </station>
  <station code="SAP3" name="SAP3" netid="HL" insttype="LE3D20_SMART24" lat="36.4356" lon="25.3454">
    <comp name="--.HHN">
      <acc value="0.2931641338" flag="0"/>
      <vel value="0.0763557519" flag="0"/>
      <psa03 value="0.2639120388" flag="0"/>
      <psa10 value="0.0477207563" flag="0"/>
      <psa30 value="0.0060071384" flag="0"/>
    </comp>
    <comp name="--.HHZ">
      <acc value="0.1941995243" flag="0"/>
      <vel value="0.0583831893" flag="0"/>
      <psa03 value="0.2009702199" flag="0"/>
      <psa10 value="0.0293672200" flag="0"/>
      <psa30 value="0.0021144767" flag="0"/>
    </comp>
    <comp name="--.HHE">
      <acc value="0.2242162619" flag="0"/>
      <vel value="0.0790960356" flag="0"/>
      <psa03 value="0.3010495881" flag="0"/>
      <psa10 value="0.0744909566" flag="0"/>
      <psa30 value="0.0069939391" flag="0"/>
    </comp>
  </station>
  <station code="THERA" name="THERA" netid="HL" insttype="120" lat="36.367" lon="25.4753">
    <comp name="--.HHE">
      <acc value="0.1332139993" flag="0"/>
      <vel value="0.0370109045" flag="0"/>
      <psa03 value="0.2841437928" flag="0"/>
      <psa10 value="0.0117524047" flag="0"/>
      <psa30 value="0.0011967946" flag="0"/>
    </comp>
    <comp name="--.HHN">
      <acc value="0.0978702270" flag="0"/>
      <vel value="0.0279643644" flag="0"/>
      <psa03 value="0.2100312716" flag="0"/>
      <psa10 value="0.0064149950" flag="0"/>
      <psa30 value="0.0008772317" flag="0"/>
    </comp>
    <comp name="--.HHZ">
      <acc value="0.1019131316" flag="0"/>
      <vel value="0.0286351559" flag="0"/>
      <psa03 value="0.1288374727" flag="0"/>
      <psa10 value="0.0162637749" flag="0"/>
      <psa30 value="0.0012560774" flag="0"/>
    </comp>
  </station>
  <station code="THRA" name="THRA" netid="HL" insttype="CMG-5" lat="36.415" lon="25.4324">
    <comp name="00.HNE">
      <acc value="0.3280059282" flag="0"/>
      <vel value="0.0913622476" flag="0"/>
      <psa03 value="0.5867767853" flag="0"/>
      <psa10 value="0.0518558651" flag="0"/>
      <psa30 value="0.0057687935" flag="0"/>
    </comp>
    <comp name="00.HNN">
      <acc value="0.3024550654" flag="0"/>
      <vel value="0.0957235084" flag="0"/>
      <psa03 value="0.5162327959" flag="0"/>
      <psa10 value="0.1530484932" flag="0"/>
      <psa30 value="0.0044422938" flag="0"/>
    </comp>
    <comp name="00.HNZ">
      <acc value="0.2158874274" flag="0"/>
      <vel value="0.0597743849" flag="0"/>
      <psa03 value="0.3727425093" flag="0"/>
      <psa10 value="0.0313022566" flag="0"/>
      <psa30 value="0.0030236071" flag="0"/>
    </comp>
  </station>
  <station code="CMBO" name="CMBO" netid="HT" insttype="120P," lat="36.4709" lon="25.4056">
    <comp name="--.HHE">
      <acc value="0.2754031547" flag="0"/>
      <vel value="0.0889211574" flag="0"/>
      <psa03 value="0.4122929254" flag="0"/>
      <psa10 value="0.0722706087" flag="0"/>
      <psa30 value="0.0054253035" flag="0"/>
    </comp>
    <comp name="--.HHN">
      <acc value="0.3287524252" flag="0"/>
      <vel value="0.1183352568" flag="0"/>
      <psa03 value="0.3764604475" flag="0"/>
      <psa10 value="0.0737673719" flag="0"/>
      <psa30 value="0.0049043139" flag="0"/>
    </comp>
    <comp name="--.HHZ">
      <acc value="0.3745565420" flag="0"/>
      <vel value="0.0877676565" flag="0"/>
      <psa03 value="0.4443962356" flag="0"/>
      <psa10 value="0.0246971143" flag="0"/>
      <psa30 value="0.0042165081" flag="0"/>
    </comp>
  </station>
</stationlist>
