<?xml version="1.0" encoding="UTF-8" standalone="yes"?>
<!DOCTYPE earthquake SYSTEM "stationlist.dtd">
<stationlist created="" xmlns="ch.ethz.sed.shakemap.usgs.xml">
  <station code="DARE" name="DARE" netid="KO" insttype="CMG-3ESP" lat="38.5712" lon="37.4832">
    <comp name="--.HHE">
      <acc value="0.0118797726" flag="0"/>
      <vel value="0.0052268445" flag="0"/>
      <psa03 value="0.0211829658" flag="0"/>
      <psa10 value="0.0030995756" flag="0"/>
      <psa30 value="0.0006023423" flag="0"/>
    </comp>
    <comp name="--.HHZ">
      <acc value="0.0087394134" flag="0"/>
      <vel value="0.0041545534" flag="0"/>
      <psa03 value="0.0144308442" flag="0"/>
      <psa10 value="0.0049673357" flag="0"/>
      <psa30 value="0.0007627342" flag="0"/>
    </comp>
    <comp name="--.HHN">
      <acc value="0.0123690593" flag="0"/>
      <vel value="0.0044333961" flag="0"/>
      <psa03 value="0.0197914010" flag="0"/>
      <psa10 value="0.0039974978" flag="0"/>
      <psa30 value="0.0005830658" flag="0"/>
    </comp>
  </station>
  <station code="GAZ" name="GAZ" netid="KO" insttype="CMG-3T" lat="37.1721" lon="37.2096">
    <comp name="--.HHE">
      <acc value="0.0098017058" flag="0"/>
      <vel value="0.0037946336" flag="0"/>
      <psa03 value="0.0151292893" flag="0"/>
      <psa10 value="0.0046331817" flag="0"/>
      <psa30 value="0.0004267623" flag="0"/>
    </comp>
    <comp name="--.HHN">
      <acc value="0.0095586265" flag="0"/>
      <vel value="0.0041806118" flag="0"/>
      <psa03 value="0.0192889278" flag="0"/>
      <psa10 value="0.0034500820" flag="0"/>
      <psa30 value="0.0003381407" flag="0"/>
    </comp>
    <comp name="--.HHZ">
      <acc value="0.0049059975" flag="0"/>
      <vel value="0.0029103173" flag="0"/>
      <psa03 value="0.0112486155" flag="0"/>
      <psa10 value="0.0025946200" flag="0"/>
      <psa30 value="0.0002420412" flag="0"/>
    </comp>
  </station>
  <station code="KMRS" name="KMRS" netid="KO" insttype="CMG-3T" lat="37.5053" lon="36.9">
    <comp name="--.HHZ">
      <acc value="0.0050808793" flag="0"/>
      <vel value="0.0038482301" flag="0"/>
      <psa03 value="0.0101193670" flag="0"/>
      <psa10 value="0.0038554042" flag="0"/>
      <psa30 value="0.0007534337" flag="0"/>
    </comp>
    <comp name="--.HHN">
      <acc value="0.0112342585" flag="0"/>
      <vel value="0.0044700555" flag="0"/>
      <psa03 value="0.0186096998" flag="0"/>
      <psa10 value="0.0049738514" flag="0"/>
      <psa30 value="0.0006739156" flag="0"/>
    </comp>
  </station>
  <station code="SARI" name="SARI" netid="KO" insttype="CMG-3T" lat="38.4072" lon="36.4181">
    <comp name="--.HHE">
      <acc value="0.0159232485" flag="0"/>
      <vel value="0.0049229687" flag="0"/>
      <psa03 value="0.0179281141" flag="0"/>
      <psa10 value="0.0067056947" flag="0"/>
      <psa30 value="0.0002988777" flag="0"/>
    </comp>
    <comp name="--.HHN">
      <acc value="0.0140824691" flag="0"/>
      <vel value="0.0032654698" flag="0"/>
      <psa03 value="0.0189069141" flag="0"/>
      <psa10 value="0.0069015754" flag="0"/>
      <psa30 value="0.0008886834" flag="0"/>
    </comp>
    <comp name="--.HHZ">
      <acc value="0.0092281786" flag="0"/>
      <vel value="0.0028896967" flag="0"/>
      <psa03 value="0.0192549850" flag="0"/>
      <psa10 value="0.0034202036" flag="0"/>
      <psa30 value="0.0007094039" flag="0"/>
    </comp>
  </station>
  <station code="ANDN" name="ANDN" netid="TU" insttype="T" lat="37.58" lon="36.3452">
    <comp name="--.HHE">
      <acc value="0.0211261903" flag="0"/>
      <vel value="0.0119261070" flag="0"/>
      <psa03 value="0.0502901612" flag="0"/>
      <psa10 value="0.0092490890" flag="0"/>
      <psa30 value="0.0011977410" flag="0"/>
    </comp>
    <comp name="--.HHN">
      <acc value="0.0255203936" flag="0"/>
      <vel value="0.0156539958" flag="0"/>
      <psa03 value="0.0866458094" flag="0"/>
      <psa10 value="0.0130778784" flag="0"/>
      <psa30 value="0.0014519393" flag="0"/>
    </comp>
    <comp name="--.HHZ">
      <acc value="0.0125966542" flag="0"/>
      <vel value="0.0087161275" flag="0"/>
      <psa03 value="0.0244894085" flag="0"/>
      <psa10 value="0.0134741120" flag="0"/>
      <psa30 value="0.0015426182" flag="0"/>
    </comp>
  </station>
</stationlist>
