<?xml version="1.0" encoding="UTF-8" standalone="yes"?>
<!DOCTYPE earthquake SYSTEM "stationlist.dtd">
<stationlist created="" xmlns="ch.ethz.sed.shakemap.usgs.xml">
  <station code="GAZ" name="GAZ" netid="KO" insttype="CMG-3T" lat="37.1721" lon="37.2096">
    <comp name="--.HHZ">
      <acc value="0.0331465800" flag="0"/>
      <vel value="0.0163619413" flag="0"/>
      <psa03 value="0.0602701809" flag="0"/>
      <psa10 value="0.0155282983" flag="0"/>
      <psa30 value="0.0016084879" flag="0"/>
    </comp>
    <comp name="--.HHE">
      <acc value="0.0431055374" flag="0"/>
      <vel value="0.0277638346" flag="0"/>
      <psa03 value="0.1175340209" flag="0"/>
      <psa10 value="0.0220036184" flag="0"/>
      <psa30 value="0.0017820996" flag="0"/>
    </comp>
    <comp name="--.HHN">
      <acc value="0.0301829706" flag="0"/>
      <vel value="0.0200680761" flag="0"/>
      <psa03 value="0.0662842524" flag="0"/>
      <psa10 value="0.0314720878" flag="0"/>
      <psa30 value="0.0021473278" flag="0"/>
    </comp>
  </station>
  <station code="TAHT" name="TAHT" netid="KO" insttype="CMG-3ESPC" lat="36.3755" lon="36.1855">
    <comp name="--.HHE">
      <acc value="0.6546157164" flag="0"/>
      <vel value="0.1468208158" flag="0"/>
      <psa03 value="0.5026161816" flag="0"/>
      <psa10 value="0.0924219782" flag="0"/>
      <psa30 value="0.0052065913" flag="0"/>
    </comp>
  </station>
</stationlist>
