<stationlist created="1631873547">
	<station code="KSS1" name="KSS1" netid="HI" source="ITSAK Strong Motion Network" insttype="" lat="35.4189" lon="26.9207">
		<comp name="--.HNE" depth="0.0">
			<acc value="0.58035909" flag="0"/>
			<vel value="-0.159368" flag="0"/>
			<psa03 value="1.08669871434" flag="0"/>
			<psa10 value="0.184379054097" flag="0"/>
			<psa30 value="0.0278578401067" flag="0"/>
		</comp>
		<comp name="--.HNN" depth="0.0">
			<acc value="-0.706083066" flag="0"/>
			<vel value="-0.253158" flag="0"/>
			<psa03 value="0.771176673273" flag="0"/>
			<psa10 value="0.164325597091" flag="0"/>
			<psa30 value="0.0626654871675" flag="0"/>
		</comp>
		<comp name="--.HNZ" depth="0.0">
			<acc value="-0.467475588" flag="0"/>
			<vel value="0.129262" flag="0"/>
			<psa03 value="0.409212221731" flag="0"/>
			<psa10 value="0.0991397814248" flag="0"/>
			<psa30 value="0.0228963768148" flag="0"/>
		</comp>
	</station>
	<station code="SIT2" name="SIT2" netid="HI" source="ITSAK Strong Motion Network" insttype="" lat="35.2059" lon="26.107">
		<comp name="--.HNE" depth="0.0">
			<acc value="-1.957491078" flag="0"/>
			<vel value="1.336469" flag="0"/>
			<psa03 value="6.34346056993" flag="0"/>
			<psa10 value="0.777123807376" flag="0"/>
			<psa30 value="0.0864848957049" flag="0"/>
		</comp>
		<comp name="--.HNN" depth="0.0">
			<acc value="2.647795458" flag="0"/>
			<vel value="1.538655" flag="0"/>
			<psa03 value="6.95888962196" flag="0"/>
			<psa10 value="1.58367948569" flag="0"/>
			<psa30 value="0.0764729321299" flag="0"/>
		</comp>
		<comp name="--.HNZ" depth="0.0">
			<acc value="-1.718069844" flag="0"/>
			<vel value="0.718782" flag="0"/>
			<psa03 value="4.36155978556" flag="0"/>
			<psa10 value="0.588754195871" flag="0"/>
			<psa30 value="0.0310636192109" flag="0"/>
		</comp>
	</station>
	<station code="KLNA" name="KLNA" netid="HL" source="National Observatory of Athens Seismic Network" insttype="" lat="36.95708" lon="26.97274">
		<comp name="--.HNE" depth="0.0">
			<acc value="-0.127819464" flag="0"/>
			<vel value="0.061693" flag="0"/>
			<psa03 value="0.404738001069" flag="0"/>
			<psa10 value="0.0354801224262" flag="0"/>
			<psa30 value="0.00760349059271" flag="0"/>
		</comp>
		<comp name="--.HNN" depth="0.0">
			<acc value="0.1253019" flag="0"/>
			<vel value="-0.064378" flag="0"/>
			<psa03 value="0.273509109057" flag="0"/>
			<psa10 value="0.0284453052796" flag="0"/>
			<psa30 value="0.00515564446862" flag="0"/>
		</comp>
		<comp name="--.HNZ" depth="0.0">
			<acc value="0.121062474" flag="0"/>
			<vel value="0.032544" flag="0"/>
			<psa03 value="0.124159623366" flag="0"/>
			<psa10 value="0.0186360239006" flag="0"/>
			<psa30 value="0.00734040641779" flag="0"/>
		</comp>
	</station>
	<station code="DATC" name="DATC" netid="KO" source="Bogazici University Kandilli Observatory And Earthquake Research Institute (KOERI)" insttype="" lat="36.7584" lon="27.6602">
		<comp name="--.HNE" depth="0.0">
			<acc value="-0.21804999" flag="0"/>
			<vel value="-0.31012" flag="0"/>
			<psa03 value="0.492790663694" flag="0"/>
			<psa10 value="0.29054962587" flag="0"/>
			<psa30 value="0.10889850411" flag="0"/>
		</comp>
		<comp name="--.HNN" depth="0.0">
			<acc value="-0.146409372" flag="0"/>
			<vel value="-0.155403" flag="0"/>
			<psa03 value="0.286036926911" flag="0"/>
			<psa10 value="0.262809010345" flag="0"/>
			<psa30 value="0.0346702884864" flag="0"/>
		</comp>
		<comp name="--.HNZ" depth="0.0">
			<acc value="-0.179038458" flag="0"/>
			<vel value="0.158089" flag="0"/>
			<psa03 value="0.327020788173" flag="0"/>
			<psa10 value="0.252548727523" flag="0"/>
			<psa30 value="0.040264854002" flag="0"/>
		</comp>
	</station>
	<station code="DIDI" name="DIDI" netid="KO" source="Bogazici University Kandilli Observatory And Earthquake Research Institute (KOERI)" insttype="" lat="37.3767" lon="27.2398">
		<comp name="--.HNE" depth="0.0">
			<acc value="-0.1167798" flag="0"/>
			<vel value="0.18771" flag="0"/>
			<psa03 value="0.28379981658" flag="0"/>
			<psa10 value="0.192509160462" flag="0"/>
			<psa30 value="0.110335623787" flag="0"/>
		</comp>
		<comp name="--.HNN" depth="0.0">
			<acc value="0.102610878" flag="0"/>
			<vel value="-0.172114" flag="0"/>
			<psa03 value="0.305276075756" flag="0"/>
			<psa10 value="0.217813562837" flag="0"/>
			<psa30 value="0.0562789845948" flag="0"/>
		</comp>
		<comp name="--.HNZ" depth="0.0">
			<acc value="-0.086320254" flag="0"/>
			<vel value="0.06972" flag="0"/>
			<psa03 value="0.176910684969" flag="0"/>
			<psa10 value="0.10170485213" flag="0"/>
			<psa30 value="0.0340850604239" flag="0"/>
		</comp>
	</station>
	<station code="GMLD" name="GMLD" netid="KO" source="Bogazici University Kandilli Observatory And Earthquake Research Institute (KOERI)" insttype="" lat="38.0766" lon="26.9157">
		<comp name="--.HNE" depth="0.0">
			<acc value="-0.139358418" flag="0"/>
			<vel value="-0.132405" flag="0"/>
			<psa03 value="0.325812748594" flag="0"/>
			<psa10 value="0.15624381231" flag="0"/>
			<psa30 value="0.0234185183661" flag="0"/>
		</comp>
		<comp name="--.HNN" depth="0.0">
			<acc value="0.143957088" flag="0"/>
			<vel value="0.136332" flag="0"/>
			<psa03 value="0.216239084586" flag="0"/>
			<psa10 value="0.150102944451" flag="0"/>
			<psa30 value="0.0130830686372" flag="0"/>
		</comp>
		<comp name="--.HNZ" depth="0.0">
			<acc value="0.041316528" flag="0"/>
			<vel value="0.033209" flag="0"/>
			<psa03 value="0.139864137889" flag="0"/>
			<psa10 value="0.036756617581" flag="0"/>
			<psa30 value="0.0153881871222" flag="0"/>
		</comp>
	</station>
	<station code="YKAV" name="YKAV" netid="KO" source="Bogazici University Kandilli Observatory And Earthquake Research Institute (KOERI)" insttype="" lat="37.1246" lon="27.2801">
		<comp name="--.HNE" depth="0.0">
			<acc value="0.063395346" flag="0"/>
			<vel value="-0.06232" flag="0"/>
			<psa03 value="0.168588634538" flag="0"/>
			<psa10 value="0.0878365577668" flag="0"/>
			<psa30 value="0.0315638370809" flag="0"/>
		</comp>
		<comp name="--.HNN" depth="0.0">
			<acc value="0.04441794" flag="0"/>
			<vel value="-0.06474" flag="0"/>
			<psa03 value="0.115121697629" flag="0"/>
			<psa10 value="0.0916096680509" flag="0"/>
			<psa30 value="0.0247455722144" flag="0"/>
		</comp>
		<comp name="--.HNZ" depth="0.0">
			<acc value="-0.050188692" flag="0"/>
			<vel value="0.079112" flag="0"/>
			<psa03 value="0.112347680818" flag="0"/>
			<psa10 value="0.139637294901" flag="0"/>
			<psa30 value="0.0125081312822" flag="0"/>
		</comp>
	</station>
</stationlist>
