<?xml version="1.0" encoding="UTF-8" standalone="yes"?>
<!DOCTYPE earthquake SYSTEM "stationlist.dtd">
<stationlist created="" xmlns="ch.ethz.sed.shakemap.usgs.xml">
  <station code="KARP" name="KARP" netid="GE" insttype="STS-2/N" lat="35.5471" lon="27.1611">
    <comp name="--.HHE">
      <acc value="0.7219060101" flag="0"/>
      <vel value="0.2221712209" flag="0"/>
      <psa03 value="0.5056365831" flag="0"/>
      <psa10 value="0.2866734311" flag="0"/>
      <psa30 value="0.0206158508" flag="0"/>
    </comp>
    <comp name="--.HHN">
      <acc value="0.7012946773" flag="0"/>
      <vel value="0.1939953373" flag="0"/>
      <psa03 value="0.7253049453" flag="0"/>
      <psa10 value="0.1666656012" flag="0"/>
      <psa30 value="0.0181698590" flag="0"/>
    </comp>
    <comp name="--.HHZ">
      <acc value="0.4018434584" flag="0"/>
      <vel value="0.1149445856" flag="0"/>
      <psa03 value="0.4525242075" flag="0"/>
      <psa10 value="0.1182891533" flag="0"/>
      <psa30 value="0.0213770607" flag="0"/>
    </comp>
  </station>
  <station code="THERA" name="THERA" netid="GE" insttype="STS-2/N" lat="36.367" lon="25.4753">
    <comp name="--.HHE">
      <acc value="0.1386423046" flag="0"/>
      <vel value="0.0966323273" flag="0"/>
      <psa03 value="0.5869940508" flag="0"/>
      <psa10 value="0.1160912956" flag="0"/>
      <psa30 value="0.0370595859" flag="0"/>
    </comp>
    <comp name="--.HHN">
      <acc value="0.1204807171" flag="0"/>
      <vel value="0.0537246400" flag="0"/>
      <psa03 value="0.3457354219" flag="0"/>
      <psa10 value="0.0429568551" flag="0"/>
      <psa30 value="0.0106100876" flag="0"/>
    </comp>
    <comp name="--.HHZ">
      <acc value="0.1109331557" flag="0"/>
      <vel value="0.0455752218" flag="0"/>
      <psa03 value="0.2867516118" flag="0"/>
      <psa10 value="0.0397839220" flag="0"/>
      <psa30 value="0.0176534311" flag="0"/>
    </comp>
  </station>
  <station code="ZKR" name="ZKR" netid="GE" insttype="STS-2/N" lat="35.1147" lon="26.2169">
    <comp name="--.HHE">
      <acc value="1.0829906204" flag="0"/>
      <vel value="0.3925652590" flag="0"/>
      <psa03 value="1.3128914335" flag="0"/>
      <psa10 value="0.3331632775" flag="0"/>
      <psa30 value="0.0392104373" flag="0"/>
    </comp>
    <comp name="--.HHZ">
      <acc value="0.6908211373" flag="0"/>
      <vel value="0.2345076694" flag="0"/>
      <psa03 value="1.0228554833" flag="0"/>
      <psa10 value="0.3345099679" flag="0"/>
      <psa30 value="0.0287403702" flag="0"/>
    </comp>
    <comp name="--.HHN">
      <acc value="0.4329238912" flag="0"/>
      <vel value="0.2176440783" flag="0"/>
      <psa03 value="0.5960096356" flag="0"/>
      <psa10 value="0.1854093743" flag="0"/>
      <psa30 value="0.0167291904" flag="0"/>
    </comp>
  </station>
  <station code="SNT5" name="SNT5" netid="HA" insttype="1s-100Hz," lat="36.4037" lon="25.3953">
    <comp name="--.HHE">
      <acc value="0.3928014093" flag="0"/>
      <vel value="0.1823214050" flag="0"/>
      <psa03 value="0.5659111626" flag="0"/>
      <psa10 value="0.1890838486" flag="0"/>
      <psa30 value="0.0966661630" flag="0"/>
    </comp>
    <comp name="--.HHN">
      <acc value="0.3936155302" flag="0"/>
      <vel value="0.1347900387" flag="0"/>
      <psa03 value="0.5347563314" flag="0"/>
      <psa10 value="0.1014370061" flag="0"/>
      <psa30 value="0.0471248212" flag="0"/>
    </comp>
    <comp name="--.HHZ">
      <acc value="0.1310542675" flag="0"/>
      <vel value="0.0883058336" flag="0"/>
      <psa03 value="0.2905233444" flag="0"/>
      <psa10 value="0.1124371573" flag="0"/>
      <psa30 value="0.0208211889" flag="0"/>
    </comp>
  </station>
  <station code="SIT2" name="SIT2" netid="HI" insttype="CMG-5TD,ACCELEROMETER,GURALP" lat="35.2059" lon="26.107">
    <comp name="--.HNE">
      <acc value="1.9531213647" flag="0"/>
      <vel value="1.3341072437" flag="0"/>
      <psa03 value="6.3973084227" flag="0"/>
      <psa10 value="0.7750587196" flag="0"/>
      <psa30 value="0.0841862266" flag="0"/>
    </comp>
    <comp name="--.HNZ">
      <acc value="1.7338782651" flag="0"/>
      <vel value="0.7153253748" flag="0"/>
      <psa03 value="4.2949666560" flag="0"/>
      <psa10 value="0.5881892172" flag="0"/>
      <psa30 value="0.0306251854" flag="0"/>
    </comp>
    <comp name="--.HNN">
      <acc value="2.6570913038" flag="0"/>
      <vel value="1.5302240542" flag="0"/>
      <psa03 value="6.9591461389" flag="0"/>
      <psa10 value="1.5805867821" flag="0"/>
      <psa30 value="0.0749085935" flag="0"/>
    </comp>
  </station>
  <station code="IACM" name="IACM" netid="HL" insttype="120" lat="35.3058" lon="25.0709">
    <comp name="--.HHE">
      <acc value="1.3411601918" flag="0"/>
      <vel value="0.6938263981" flag="0"/>
      <psa03 value="5.1299766009" flag="0"/>
      <psa10 value="1.0119170385" flag="0"/>
      <psa30 value="0.0568599284" flag="0"/>
    </comp>
    <comp name="--.HHN">
      <acc value="1.7682867612" flag="0"/>
      <vel value="0.8004811103" flag="0"/>
      <psa03 value="8.0043071406" flag="0"/>
      <psa10 value="0.8528512019" flag="0"/>
      <psa30 value="0.0401877215" flag="0"/>
    </comp>
    <comp name="--.HHZ">
      <acc value="0.8050174734" flag="0"/>
      <vel value="0.3525412255" flag="0"/>
      <psa03 value="2.1159665928" flag="0"/>
      <psa10 value="0.3909346758" flag="0"/>
      <psa30 value="0.0214131173" flag="0"/>
    </comp>
  </station>
  <station code="KARP" name="KARP" netid="HL" insttype="120" lat="35.5471" lon="27.1611">
    <comp name="--.HHE">
      <acc value="0.6241436966" flag="0"/>
      <vel value="0.2194442186" flag="0"/>
      <psa03 value="0.4902008561" flag="0"/>
      <psa10 value="0.2847227162" flag="0"/>
      <psa30 value="0.0205896998" flag="0"/>
    </comp>
    <comp name="--.HHZ">
      <acc value="0.3354457073" flag="0"/>
      <vel value="0.1107059671" flag="0"/>
      <psa03 value="0.4407930308" flag="0"/>
      <psa10 value="0.1175445180" flag="0"/>
      <psa30 value="0.0212954596" flag="0"/>
    </comp>
    <comp name="--.HHN">
      <acc value="0.6549609950" flag="0"/>
      <vel value="0.1852112696" flag="0"/>
      <psa03 value="0.7004771208" flag="0"/>
      <psa10 value="0.1648726832" flag="0"/>
      <psa30 value="0.0180607418" flag="0"/>
    </comp>
  </station>
  <station code="KLNA" name="KLNA" netid="HL" insttype="CMG-5" lat="36.9571" lon="26.9727">
    <comp name="00.HNZ">
      <acc value="0.1208465129" flag="0"/>
      <vel value="0.0327622692" flag="0"/>
      <psa03 value="0.1231709056" flag="0"/>
      <psa10 value="0.0187509743" flag="0"/>
      <psa30 value="0.0073970477" flag="0"/>
    </comp>
    <comp name="00.HNN">
      <acc value="0.1256726604" flag="0"/>
      <vel value="0.0635705020" flag="0"/>
      <psa03 value="0.2728815770" flag="0"/>
      <psa10 value="0.0282135481" flag="0"/>
      <psa30 value="0.0049035582" flag="0"/>
    </comp>
    <comp name="00.HNE">
      <acc value="0.1283666600" flag="0"/>
      <vel value="0.0594640823" flag="0"/>
      <psa03 value="0.4055646272" flag="0"/>
      <psa10 value="0.0353915935" flag="0"/>
      <psa30 value="0.0074353853" flag="0"/>
    </comp>
  </station>
  <station code="NPS" name="NPS" netid="HL" insttype="CMG3ESPC-120s" lat="35.2613" lon="25.6104">
    <comp name="--.HHN">
      <acc value="1.0312595109" flag="0"/>
      <vel value="0.4903708182" flag="0"/>
      <psa03 value="3.0574888247" flag="0"/>
      <psa10 value="0.2593543859" flag="0"/>
      <psa30 value="0.0196960230" flag="0"/>
    </comp>
    <comp name="--.HHE">
      <acc value="0.4206952055" flag="0"/>
      <vel value="0.1853276961" flag="0"/>
      <psa03 value="0.6507402288" flag="0"/>
      <psa10 value="0.2152472407" flag="0"/>
      <psa30 value="0.0125886068" flag="0"/>
    </comp>
    <comp name="--.HHZ">
      <acc value="0.8648707413" flag="0"/>
      <vel value="0.2966925420" flag="0"/>
      <psa03 value="1.2311257005" flag="0"/>
      <psa10 value="0.3196116411" flag="0"/>
      <psa30 value="0.0274329952" flag="0"/>
    </comp>
  </station>
  <station code="SAP3" name="SAP3" netid="HL" insttype="LE3D20_SMART24" lat="36.4356" lon="25.3454">
    <comp name="--.HHE">
      <acc value="0.2672252728" flag="0"/>
      <vel value="0.3079419682" flag="0"/>
      <psa03 value="0.8786668596" flag="0"/>
      <psa10 value="0.3874776906" flag="0"/>
      <psa30 value="0.0859012337" flag="0"/>
    </comp>
    <comp name="--.HHN">
      <acc value="0.2879761921" flag="0"/>
      <vel value="0.2372021622" flag="0"/>
      <psa03 value="0.9249796340" flag="0"/>
      <psa10 value="0.2788303700" flag="0"/>
      <psa30 value="0.0664550970" flag="0"/>
    </comp>
    <comp name="--.HHZ">
      <acc value="0.2131063166" flag="0"/>
      <vel value="0.1424848508" flag="0"/>
      <psa03 value="0.5347761266" flag="0"/>
      <psa10 value="0.1011069802" flag="0"/>
      <psa30 value="0.0319879584" flag="0"/>
    </comp>
  </station>
  <station code="SIVA" name="SIVA" netid="HL" insttype="60" lat="35.0178" lon="24.812">
    <comp name="--.HHN">
      <acc value="0.3064418860" flag="0"/>
      <vel value="0.2030478002" flag="0"/>
      <psa03 value="0.6163411429" flag="0"/>
      <psa10 value="0.3479146991" flag="0"/>
      <psa30 value="0.0134186643" flag="0"/>
    </comp>
    <comp name="--.HHE">
      <acc value="0.3152225578" flag="0"/>
      <vel value="0.2047635331" flag="0"/>
      <psa03 value="0.6385051845" flag="0"/>
      <psa10 value="0.3198004265" flag="0"/>
      <psa30 value="0.0170724908" flag="0"/>
    </comp>
    <comp name="--.HHZ">
      <acc value="0.1416915303" flag="0"/>
      <vel value="0.1217536861" flag="0"/>
      <psa03 value="0.4327973980" flag="0"/>
      <psa10 value="0.1177205923" flag="0"/>
      <psa30 value="0.0119225305" flag="0"/>
    </comp>
  </station>
  <station code="THERA" name="THERA" netid="HL" insttype="120" lat="36.367" lon="25.4753">
    <comp name="--.HHZ">
      <acc value="0.1082997813" flag="0"/>
      <vel value="0.0445469028" flag="0"/>
      <psa03 value="0.2786998002" flag="0"/>
      <psa10 value="0.0394670942" flag="0"/>
      <psa30 value="0.0176653948" flag="0"/>
    </comp>
    <comp name="--.HHN">
      <acc value="0.1175148131" flag="0"/>
      <vel value="0.0522599983" flag="0"/>
      <psa03 value="0.3357262021" flag="0"/>
      <psa10 value="0.0427534258" flag="0"/>
      <psa30 value="0.0106117183" flag="0"/>
    </comp>
    <comp name="--.HHE">
      <acc value="0.1349704627" flag="0"/>
      <vel value="0.0957944435" flag="0"/>
      <psa03 value="0.5712682691" flag="0"/>
      <psa10 value="0.1151957104" flag="0"/>
      <psa30 value="0.0370699900" flag="0"/>
    </comp>
  </station>
  <station code="THRA" name="THRA" netid="HL" insttype="CMG-5" lat="36.415" lon="25.4324">
    <comp name="00.HNN">
      <acc value="0.3478238876" flag="0"/>
      <vel value="0.2363938916" flag="0"/>
      <psa03 value="0.8395736385" flag="0"/>
      <psa10 value="0.3667681505" flag="0"/>
      <psa30 value="0.0636946483" flag="0"/>
    </comp>
    <comp name="00.HNE">
      <acc value="0.4146001129" flag="0"/>
      <vel value="0.3212229723" flag="0"/>
      <psa03 value="1.1718932914" flag="0"/>
      <psa10 value="0.4747621805" flag="0"/>
      <psa30 value="0.1059294306" flag="0"/>
    </comp>
    <comp name="00.HNZ">
      <acc value="0.2349891249" flag="0"/>
      <vel value="0.1458672199" flag="0"/>
      <psa03 value="0.5544883999" flag="0"/>
      <psa10 value="0.1786635484" flag="0"/>
      <psa30 value="0.0141306548" flag="0"/>
    </comp>
  </station>
  <station code="ZKR" name="ZKR" netid="HL" insttype="120" lat="35.1147" lon="26.2169">
    <comp name="--.HHE">
      <acc value="1.0493187258" flag="0"/>
      <vel value="0.3862786355" flag="0"/>
      <psa03 value="1.2825566065" flag="0"/>
      <psa10 value="0.3286092606" flag="0"/>
      <psa30 value="0.0390878950" flag="0"/>
    </comp>
    <comp name="--.HHN">
      <acc value="0.4270717040" flag="0"/>
      <vel value="0.2121450579" flag="0"/>
      <psa03 value="0.5794550697" flag="0"/>
      <psa10 value="0.1840862949" flag="0"/>
      <psa30 value="0.0167425463" flag="0"/>
    </comp>
    <comp name="--.HHZ">
      <acc value="0.6904901709" flag="0"/>
      <vel value="0.2323948680" flag="0"/>
      <psa03 value="0.9937303325" flag="0"/>
      <psa10 value="0.3323591110" flag="0"/>
      <psa30 value="0.0287195989" flag="0"/>
    </comp>
  </station>
  <station code="CMBO" name="CMBO" netid="HT" insttype="120P," lat="36.4709" lon="25.4056">
    <comp name="--.HHE">
      <acc value="0.5889492056" flag="0"/>
      <vel value="0.3952781907" flag="0"/>
      <psa03 value="1.0625096329" flag="0"/>
      <psa10 value="0.4173668449" flag="0"/>
      <psa30 value="0.0624169047" flag="0"/>
    </comp>
    <comp name="--.HHN">
      <acc value="0.7813218149" flag="0"/>
      <vel value="0.3596547976" flag="0"/>
      <psa03 value="1.1883853018" flag="0"/>
      <psa10 value="0.3204191131" flag="0"/>
      <psa30 value="0.0565632183" flag="0"/>
    </comp>
    <comp name="--.HHZ">
      <acc value="0.4352954071" flag="0"/>
      <vel value="0.2070618283" flag="0"/>
      <psa03 value="1.3154503617" flag="0"/>
      <psa10 value="0.1072516959" flag="0"/>
      <psa30 value="0.0332316210" flag="0"/>
    </comp>
  </station>
</stationlist>
