<?xml version="1.0" encoding="UTF-8" standalone="yes"?>
<!DOCTYPE earthquake SYSTEM "stationlist.dtd">
<stationlist created="" xmlns="ch.ethz.sed.shakemap.usgs.xml">
  <station code="ZKR" name="ZKR" netid="GE" insttype="STS-2/N" lat="35.1147" lon="26.2169">
    <comp name="--.HHE">
      <acc value="0.0050916088" flag="0"/>
      <vel value="0.0047497710" flag="0"/>
      <psa03 value="0.0187067153" flag="0"/>
      <psa10 value="0.0066040074" flag="0"/>
      <psa30 value="0.0010237902" flag="0"/>
    </comp>
    <comp name="--.HHN">
      <acc value="0.0028955039" flag="0"/>
      <vel value="0.0022407504" flag="0"/>
      <psa03 value="0.0089652835" flag="0"/>
      <psa10 value="0.0029600099" flag="0"/>
      <psa30 value="0.0004836477" flag="0"/>
    </comp>
    <comp name="--.HHZ">
      <acc value="0.0030353771" flag="0"/>
      <vel value="0.0026495792" flag="0"/>
      <psa03 value="0.0100335803" flag="0"/>
      <psa10 value="0.0052746420" flag="0"/>
      <psa30 value="0.0004932580" flag="0"/>
    </comp>
  </station>
  <station code="STIA" name="STIA" netid="HC" insttype="120" lat="35.2021" lon="26.0909">
    <comp name="--.HHE">
      <acc value="0.0043651119" flag="0"/>
      <vel value="0.0047380731" flag="0"/>
      <psa03 value="0.0128857767" flag="0"/>
      <psa10 value="0.0078560455" flag="0"/>
      <psa30 value="0.0007623743" flag="0"/>
    </comp>
    <comp name="--.HHN">
      <acc value="0.0067324532" flag="0"/>
      <vel value="0.0052312195" flag="0"/>
      <psa03 value="0.0130870567" flag="0"/>
      <psa10 value="0.0070204686" flag="0"/>
      <psa30 value="0.0006840166" flag="0"/>
    </comp>
    <comp name="--.HHZ">
      <acc value="0.0038759781" flag="0"/>
      <vel value="0.0028616530" flag="0"/>
      <psa03 value="0.0132919873" flag="0"/>
      <psa10 value="0.0034704319" flag="0"/>
      <psa30 value="0.0004866701" flag="0"/>
    </comp>
  </station>
  <station code="NPS" name="NPS" netid="HL" insttype="CMG3ESPC-120s" lat="35.2613" lon="25.6104">
    <comp name="--.HHE">
      <acc value="0.0017120839" flag="0"/>
      <vel value="0.0011201228" flag="0"/>
      <psa03 value="0.0065550099" flag="0"/>
      <psa10 value="0.0025579301" flag="0"/>
      <psa30 value="0.0002376773" flag="0"/>
    </comp>
    <comp name="--.HHN">
      <acc value="0.0032913094" flag="0"/>
      <vel value="0.0025340511" flag="0"/>
      <psa03 value="0.0105788369" flag="0"/>
      <psa10 value="0.0042057507" flag="0"/>
      <psa30 value="0.0004567855" flag="0"/>
    </comp>
    <comp name="--.HHZ">
      <acc value="0.0018455603" flag="0"/>
      <vel value="0.0024098844" flag="0"/>
      <psa03 value="0.0068528705" flag="0"/>
      <psa10 value="0.0038623614" flag="0"/>
      <psa30 value="0.0004112665" flag="0"/>
    </comp>
  </station>
  <station code="ZKR" name="ZKR" netid="HL" insttype="120" lat="35.1147" lon="26.2169">
    <comp name="--.HHE">
      <acc value="0.0049712853" flag="0"/>
      <vel value="0.0046961342" flag="0"/>
      <psa03 value="0.0182017574" flag="0"/>
      <psa10 value="0.0065546750" flag="0"/>
      <psa30 value="0.0010233429" flag="0"/>
    </comp>
    <comp name="--.HHN">
      <acc value="0.0028385707" flag="0"/>
      <vel value="0.0022161495" flag="0"/>
      <psa03 value="0.0087266218" flag="0"/>
      <psa10 value="0.0029410883" flag="0"/>
      <psa30 value="0.0004830971" flag="0"/>
    </comp>
    <comp name="--.HHZ">
      <acc value="0.0029439296" flag="0"/>
      <vel value="0.0026247277" flag="0"/>
      <psa03 value="0.0097543531" flag="0"/>
      <psa10 value="0.0052429130" flag="0"/>
      <psa30 value="0.0004935065" flag="0"/>
    </comp>
  </station>
</stationlist>
