<stationlist created="1778069463">
	<station code="SIT2" name="SIT2" netid="HI" source="ITSAK Strong Motion Network" insttype="" lat="35.2059" lon="26.107">
		<comp name="--.HNE" depth="0.0">
			<acc value="0.0179840771435374" flag="0"/>
			<vel value="0.0148661993484958" flag="0"/>
			<psa03 value="0.0459502461969651" flag="0"/>
			<psa10 value="0.0142468134313901" flag="0"/>
			<psa30 value="0.0011131861006626" flag="0"/>
		</comp>
		<comp name="--.HNN" depth="0.0">
			<acc value="0.0171393482340563" flag="0"/>
			<vel value="0.0134587587370615" flag="0"/>
			<psa03 value="0.0519904440904318" flag="0"/>
			<psa10 value="0.0153219686564272" flag="0"/>
			<psa30 value="0.00083802152996023" flag="0"/>
		</comp>
		<comp name="--.HNZ" depth="0.0">
			<acc value="0.00788064657168321" flag="0"/>
			<vel value="0.00462093864540464" flag="0"/>
			<psa03 value="0.0182100780936366" flag="0"/>
			<psa10 value="0.00312076891162445" flag="0"/>
			<psa30 value="0.000633997067780911" flag="0"/>
		</comp>
	</station>
	<station code="IMMV" name="IMMV" netid="HL" source="National Observatory of Athens Seismic Network" insttype="" lat="35.4606" lon="23.9811">
		<comp name="--.HNE" depth="0.0">
			<acc value="0.00175442805040926" flag="0"/>
			<vel value="0.0018658407492923" flag="0"/>
			<psa03 value="0.00604019789346669" flag="0"/>
			<psa10 value="0.00379324427709708" flag="0"/>
			<psa30 value="0.00049395396106572" flag="0"/>
		</comp>
		<comp name="--.HNN" depth="0.0">
			<acc value="0.00171334592452626" flag="0"/>
			<vel value="0.00204158726435397" flag="0"/>
			<psa03 value="0.00908266794350917" flag="0"/>
			<psa10 value="0.00459055039903468" flag="0"/>
			<psa30 value="0.00047739934461696" flag="0"/>
		</comp>
		<comp name="--.HNZ" depth="0.0">
			<acc value="0.00127342798759021" flag="0"/>
			<vel value="0.00119737228734589" flag="0"/>
			<psa03 value="0.00742720629863311" flag="0"/>
			<psa10 value="0.00200937249922658" flag="0"/>
			<psa30 value="0.000254135733591784" flag="0"/>
		</comp>
	</station>
</stationlist>
