<?xml version="1.0" encoding="UTF-8" standalone="yes"?>
<!DOCTYPE earthquake SYSTEM "stationlist.dtd">
<stationlist created="" xmlns="ch.ethz.sed.shakemap.usgs.xml">
  <station code="IMMV" name="IMMV" netid="GE" insttype="STS-2/N" lat="35.4606" lon="23.9811">
    <comp name="--.HHE">
      <acc value="0.0083035776" flag="0"/>
      <vel value="0.0067674477" flag="0"/>
      <psa03 value="0.0303879174" flag="0"/>
      <psa10 value="0.0082511684" flag="0"/>
      <psa30 value="0.0011012926" flag="0"/>
    </comp>
    <comp name="--.HHN">
      <acc value="0.0072213260" flag="0"/>
      <vel value="0.0063519771" flag="0"/>
      <psa03 value="0.0266027690" flag="0"/>
      <psa10 value="0.0098018146" flag="0"/>
      <psa30 value="0.0008379110" flag="0"/>
    </comp>
    <comp name="--.HHZ">
      <acc value="0.0047404162" flag="0"/>
      <vel value="0.0031109641" flag="0"/>
      <psa03 value="0.0215118583" flag="0"/>
      <psa10 value="0.0034652245" flag="0"/>
      <psa30 value="0.0006745498" flag="0"/>
    </comp>
  </station>
  <station code="KNDR" name="KNDR" netid="HC" insttype="120" lat="35.2348" lon="23.6248">
    <comp name="--.HHZ">
      <acc value="0.0196159286" flag="0"/>
      <vel value="0.0071948447" flag="0"/>
      <psa03 value="0.0502178105" flag="0"/>
      <psa10 value="0.0079847815" flag="0"/>
      <psa30 value="0.0006510373" flag="0"/>
    </comp>
    <comp name="--.HHE">
      <acc value="0.0253565994" flag="0"/>
      <vel value="0.0135440202" flag="0"/>
      <psa03 value="0.0732633002" flag="0"/>
      <psa10 value="0.0212730188" flag="0"/>
      <psa30 value="0.0012437917" flag="0"/>
    </comp>
    <comp name="--.HHN">
      <acc value="0.0250076247" flag="0"/>
      <vel value="0.0172001829" flag="0"/>
      <psa03 value="0.0555896258" flag="0"/>
      <psa10 value="0.0157911485" flag="0"/>
      <psa30 value="0.0021475275" flag="0"/>
    </comp>
  </station>
  <station code="RODP" name="RODP" netid="HC" insttype="120" lat="35.5604" lon="23.7577">
    <comp name="--.HHZ">
      <acc value="0.0045417396" flag="0"/>
      <vel value="0.0032460069" flag="0"/>
      <psa03 value="0.0144703260" flag="0"/>
      <psa10 value="0.0042132782" flag="0"/>
      <psa30 value="0.0006233541" flag="0"/>
    </comp>
    <comp name="--.HHN">
      <acc value="0.0089723101" flag="0"/>
      <vel value="0.0100045019" flag="0"/>
      <psa03 value="0.0193716251" flag="0"/>
      <psa10 value="0.0066476745" flag="0"/>
      <psa30 value="0.0012972916" flag="0"/>
    </comp>
    <comp name="--.HHE">
      <acc value="0.0096506683" flag="0"/>
      <vel value="0.0070858323" flag="0"/>
      <psa03 value="0.0297746558" flag="0"/>
      <psa10 value="0.0107525743" flag="0"/>
      <psa30 value="0.0019467957" flag="0"/>
    </comp>
  </station>
  <station code="ANKY" name="ANKY" netid="HL" insttype="60" lat="35.867" lon="23.3012">
    <comp name="--.HHZ">
      <acc value="0.0153513072" flag="0"/>
      <vel value="0.0049332209" flag="0"/>
      <psa03 value="0.0255743988" flag="0"/>
      <psa10 value="0.0052466870" flag="0"/>
      <psa30 value="0.0006220023" flag="0"/>
    </comp>
    <comp name="--.HHN">
      <acc value="0.0177579355" flag="0"/>
      <vel value="0.0076026336" flag="0"/>
      <psa03 value="0.0414858795" flag="0"/>
      <psa10 value="0.0080395514" flag="0"/>
      <psa30 value="0.0008240044" flag="0"/>
    </comp>
    <comp name="--.HHE">
      <acc value="0.0215847398" flag="0"/>
      <vel value="0.0099922053" flag="0"/>
      <psa03 value="0.0396025031" flag="0"/>
      <psa10 value="0.0103225340" flag="0"/>
      <psa30 value="0.0010112052" flag="0"/>
    </comp>
  </station>
  <station code="IMMV" name="IMMV" netid="HL" insttype="120" lat="35.4606" lon="23.9811">
    <comp name="--.HHE">
      <acc value="0.0080829542" flag="0"/>
      <vel value="0.0067072311" flag="0"/>
      <psa03 value="0.0295698195" flag="0"/>
      <psa10 value="0.0081940625" flag="0"/>
      <psa30 value="0.0011008913" flag="0"/>
    </comp>
    <comp name="--.HHN">
      <acc value="0.0070678223" flag="0"/>
      <vel value="0.0062958457" flag="0"/>
      <psa03 value="0.0258726545" flag="0"/>
      <psa10 value="0.0097411525" flag="0"/>
      <psa30 value="0.0008375871" flag="0"/>
    </comp>
    <comp name="--.HHZ">
      <acc value="0.0046283334" flag="0"/>
      <vel value="0.0030694390" flag="0"/>
      <psa03 value="0.0209189036" flag="0"/>
      <psa10 value="0.0034432880" flag="0"/>
      <psa30 value="0.0006749925" flag="0"/>
    </comp>
  </station>
</stationlist>
