<?xml version="1.0" encoding="UTF-8" standalone="yes"?>
<!DOCTYPE earthquake SYSTEM "stationlist.dtd">
<stationlist created="" xmlns="ch.ethz.sed.shakemap.usgs.xml">
  <station code="IMMV" name="IMMV" netid="GE" insttype="STS-2/N" lat="35.4606" lon="23.9811">
    <comp name="--.HHE">
      <acc value="0.0083035776" flag="0"/>
      <vel value="0.0067674477" flag="0"/>
      <psa03 value="0.0303879174" flag="0"/>
      <psa10 value="0.0082511684" flag="0"/>
      <psa30 value="0.0011012926" flag="0"/>
    </comp>
    <comp name="--.HHN">
      <acc value="0.0072213260" flag="0"/>
      <vel value="0.0063519771" flag="0"/>
      <psa03 value="0.0266027690" flag="0"/>
      <psa10 value="0.0098018146" flag="0"/>
      <psa30 value="0.0008379110" flag="0"/>
    </comp>
    <comp name="--.HHZ">
      <acc value="0.0047404162" flag="0"/>
      <vel value="0.0031109641" flag="0"/>
      <psa03 value="0.0215118583" flag="0"/>
      <psa10 value="0.0034652245" flag="0"/>
      <psa30 value="0.0006745498" flag="0"/>
    </comp>
  </station>
</stationlist>
