<?xml version="1.0" encoding="UTF-8" standalone="yes"?>
<!DOCTYPE earthquake SYSTEM "stationlist.dtd">
<stationlist created="" xmlns="ch.ethz.sed.shakemap.usgs.xml">
  <station code="IMMV" name="IMMV" netid="GE" insttype="STS-2/N" lat="35.4606" lon="23.9811">
    <comp name="--.HHE">
      <acc value="0.0083035777" flag="0"/>
      <vel value="0.0067674470" flag="0"/>
      <psa03 value="0.0303879174" flag="0"/>
      <psa10 value="0.0082511684" flag="0"/>
      <psa30 value="0.0011012932" flag="0"/>
    </comp>
    <comp name="--.HHN">
      <acc value="0.0072213258" flag="0"/>
      <vel value="0.0063519774" flag="0"/>
      <psa03 value="0.0266027690" flag="0"/>
      <psa10 value="0.0098018146" flag="0"/>
      <psa30 value="0.0008379106" flag="0"/>
    </comp>
    <comp name="--.HHZ">
      <acc value="0.0047404163" flag="0"/>
      <vel value="0.0031109633" flag="0"/>
      <psa03 value="0.0215118583" flag="0"/>
      <psa10 value="0.0034652245" flag="0"/>
      <psa30 value="0.0006745319" flag="0"/>
    </comp>
  </station>
  <station code="KNDR" name="KNDR" netid="HC" insttype="120" lat="35.2348" lon="23.6248">
    <comp name="--.HHZ">
      <acc value="0.0196159282" flag="0"/>
      <vel value="0.0071948425" flag="0"/>
      <psa03 value="0.0502178105" flag="0"/>
      <psa10 value="0.0079847818" flag="0"/>
      <psa30 value="0.0006508631" flag="0"/>
    </comp>
    <comp name="--.HHE">
      <acc value="0.0253565994" flag="0"/>
      <vel value="0.0135440221" flag="0"/>
      <psa03 value="0.0732633002" flag="0"/>
      <psa10 value="0.0212730183" flag="0"/>
      <psa30 value="0.0012439945" flag="0"/>
    </comp>
    <comp name="--.HHN">
      <acc value="0.0250076243" flag="0"/>
      <vel value="0.0172001829" flag="0"/>
      <psa03 value="0.0555896258" flag="0"/>
      <psa10 value="0.0157911486" flag="0"/>
      <psa30 value="0.0021475816" flag="0"/>
    </comp>
  </station>
  <station code="RODP" name="RODP" netid="HC" insttype="120" lat="35.5604" lon="23.7577">
    <comp name="--.HHE">
      <acc value="0.0096506685" flag="0"/>
      <vel value="0.0070858323" flag="0"/>
      <psa03 value="0.0297746558" flag="0"/>
      <psa10 value="0.0107525743" flag="0"/>
      <psa30 value="0.0019469204" flag="0"/>
    </comp>
    <comp name="--.HHN">
      <acc value="0.0089723102" flag="0"/>
      <vel value="0.0100045035" flag="0"/>
      <psa03 value="0.0193716251" flag="0"/>
      <psa10 value="0.0066476744" flag="0"/>
      <psa30 value="0.0012972536" flag="0"/>
    </comp>
    <comp name="--.HHZ">
      <acc value="0.0045417399" flag="0"/>
      <vel value="0.0032460040" flag="0"/>
      <psa03 value="0.0144703260" flag="0"/>
      <psa10 value="0.0042132782" flag="0"/>
      <psa30 value="0.0006233498" flag="0"/>
    </comp>
  </station>
  <station code="ANKY" name="ANKY" netid="HL" insttype="60" lat="35.867" lon="23.3012">
    <comp name="--.HHE">
      <acc value="0.0215847400" flag="0"/>
      <vel value="0.0099922032" flag="0"/>
      <psa03 value="0.0396025031" flag="0"/>
      <psa10 value="0.0103225340" flag="0"/>
      <psa30 value="0.0010108243" flag="0"/>
    </comp>
    <comp name="--.HHN">
      <acc value="0.0177579356" flag="0"/>
      <vel value="0.0076026319" flag="0"/>
      <psa03 value="0.0414858795" flag="0"/>
      <psa10 value="0.0080395514" flag="0"/>
      <psa30 value="0.0008239940" flag="0"/>
    </comp>
    <comp name="--.HHZ">
      <acc value="0.0153513073" flag="0"/>
      <vel value="0.0049332243" flag="0"/>
      <psa03 value="0.0255743988" flag="0"/>
      <psa10 value="0.0052466870" flag="0"/>
      <psa30 value="0.0006220007" flag="0"/>
    </comp>
  </station>
  <station code="IMMV" name="IMMV" netid="HL" insttype="120" lat="35.4606" lon="23.9811">
    <comp name="--.HHE">
      <acc value="0.0080829542" flag="0"/>
      <vel value="0.0067072305" flag="0"/>
      <psa03 value="0.0295698195" flag="0"/>
      <psa10 value="0.0081940625" flag="0"/>
      <psa30 value="0.0011008923" flag="0"/>
    </comp>
    <comp name="--.HHN">
      <acc value="0.0070678221" flag="0"/>
      <vel value="0.0062958459" flag="0"/>
      <psa03 value="0.0258726545" flag="0"/>
      <psa10 value="0.0097411525" flag="0"/>
      <psa30 value="0.0008375854" flag="0"/>
    </comp>
    <comp name="--.HHZ">
      <acc value="0.0046283335" flag="0"/>
      <vel value="0.0030694383" flag="0"/>
      <psa03 value="0.0209189036" flag="0"/>
      <psa10 value="0.0034432880" flag="0"/>
      <psa30 value="0.0006749752" flag="0"/>
    </comp>
  </station>
</stationlist>
