<?xml version="1.0" encoding="UTF-8" standalone="yes"?>
<!DOCTYPE earthquake SYSTEM "stationlist.dtd">
<stationlist created="" xmlns="ch.ethz.sed.shakemap.usgs.xml">
  <station code="ECAL" name="ECAL" netid="ES" insttype="XXXX" lat="41.9413" lon="-6.7371">
    <comp name="--.HHE">
      <acc value="0.0466773352" flag="0"/>
      <vel value="0.0132096302" flag="0"/>
      <psa03 value="0.0518735185" flag="0"/>
      <psa10 value="0.0047586793" flag="0"/>
      <psa30 value="0.0003598513" flag="0"/>
    </comp>
    <comp name="--.HHN">
      <acc value="0.0610744822" flag="0"/>
      <vel value="0.0164033161" flag="0"/>
      <psa03 value="0.0854504556" flag="0"/>
      <psa10 value="0.0050805418" flag="0"/>
      <psa30 value="0.0003352909" flag="0"/>
    </comp>
    <comp name="--.HHZ">
      <acc value="0.0386467207" flag="0"/>
      <vel value="0.0216897614" flag="0"/>
      <psa03 value="0.0851790773" flag="0"/>
      <psa10 value="0.0080565628" flag="0"/>
      <psa30 value="0.0005761722" flag="0"/>
    </comp>
  </station>
</stationlist>
