<stationlist xmlns:esm="https://esm-db.eu/esmws/shakemap/1/" created="1783994296">
	<station code="IMMV" name="IMMV" netid="GE" source="GEOFON" insttype="" lat="35.4606" lon="23.9811" esm:processing="automatic (Paolucci et al 2011)" esm:quality="best">
		<comp name="--.HNE" depth="0.0">
			<acc value="0.0167151217069065" flag="0"/>
			<vel value="0.015399334520965" flag="0"/>
			<psa03 value="0.0427735495270678" flag="0"/>
			<psa10 value="0.0272775336868956" flag="0"/>
			<psa30 value="0.00370689181832381" flag="0"/>
		</comp>
		<comp name="--.HNN" depth="0.0">
			<acc value="0.0147485065371972" flag="0"/>
			<vel value="0.0138637257571639" flag="0"/>
			<psa03 value="0.0384782976917137" flag="0"/>
			<psa10 value="0.0221836334634053" flag="0"/>
			<psa30 value="0.00356684871160862" flag="0"/>
		</comp>
		<comp name="--.HNZ" depth="0.0">
			<acc value="0.0144378876130501" flag="0"/>
			<vel value="0.00865073524833849" flag="0"/>
			<psa03 value="0.0426840651138313" flag="0"/>
			<psa10 value="0.0137031956209781" flag="0"/>
			<psa30 value="0.00227156183000966" flag="0"/>
		</comp>
	</station>
	<station code="KARP" name="KARP" netid="GE" source="GEOFON" insttype="" lat="35.5471" lon="27.16106" esm:processing="automatic (Paolucci et al 2011)" esm:quality="good">
		<comp name="--.HNE" depth="0.0">
			<acc value="0.155585415486161" flag="0"/>
			<vel value="0.105393756853135" flag="0"/>
			<psa03 value="0.468540387706542" flag="0"/>
			<psa10 value="0.164192712737403" flag="0"/>
			<psa30 value="0.0061381833259607" flag="0"/>
		</comp>
		<comp name="--.HNN" depth="0.0">
			<acc value="0.15136202735208" flag="0"/>
			<vel value="0.122024446501308" flag="0"/>
			<psa03 value="0.451180411538652" flag="0"/>
			<psa10 value="0.199938603870939" flag="0"/>
			<psa30 value="0.00882584767752028" flag="0"/>
		</comp>
		<comp name="--.HNZ" depth="0.0">
			<acc value="0.115693815173191" flag="0"/>
			<vel value="0.0714594682234658" flag="0"/>
			<psa03 value="0.318609253328713" flag="0"/>
			<psa10 value="0.0687938272079899" flag="0"/>
			<psa30 value="0.00681200095763187" flag="0"/>
		</comp>
	</station>
	<station code="KSS1" name="KSS1" netid="HI" source="ITSAK Strong Motion Network" insttype="" lat="35.4189" lon="26.9207" esm:processing="manual (Paolucci et al 2011)" esm:quality="good">
		<comp name="--.HNE" depth="0.0">
			<acc value="0.1328192806491" flag="0"/>
			<vel value="0.0793838042223448" flag="0"/>
			<psa03 value="0.49990467454595" flag="0"/>
			<psa10 value="0.115480530125892" flag="0"/>
			<psa30 value="0.0061381833259607" flag="0"/>
		</comp>
		<comp name="--.HNN" depth="0.0">
			<acc value="0.156252336194139" flag="0"/>
			<vel value="0.108044676875525" flag="0"/>
			<psa03 value="0.733816930746275" flag="0"/>
			<psa10 value="0.145681519593225" flag="0"/>
			<psa30 value="0.0130383264306306" flag="0"/>
		</comp>
		<comp name="--.HNZ" depth="0.0">
			<acc value="0.110713102350611" flag="0"/>
			<vel value="0.0459906249112378" flag="0"/>
			<psa03 value="0.149438970105028" flag="0"/>
			<psa10 value="0.0692085874633413" flag="0"/>
			<psa30 value="0.00741602074697854" flag="0"/>
		</comp>
	</station>
	<station code="NAX1" name="NAX1" netid="HI" source="ITSAK Strong Motion Network" insttype="" lat="37.101394" lon="25.374103" esm:processing="manual (Paolucci et al 2011)" esm:quality="best">
		<comp name="--.HNE" depth="0.0">
			<acc value="0.0171733236941835" flag="0"/>
			<vel value="0.00968724248003123" flag="0"/>
			<psa03 value="0.0615491294112572" flag="0"/>
			<psa10 value="0.00874774136994389" flag="0"/>
			<psa30 value="0.0022027319618491" flag="0"/>
		</comp>
		<comp name="--.HNN" depth="0.0">
			<acc value="0.0150821841804635" flag="0"/>
			<vel value="0.00829594084210413" flag="0"/>
			<psa03 value="0.0300897146500889" flag="0"/>
			<psa10 value="0.00911946786997129" flag="0"/>
			<psa30 value="0.000908002546547537" flag="0"/>
		</comp>
		<comp name="--.HNZ" depth="0.0">
			<acc value="0.00880155031479364" flag="0"/>
			<vel value="0.00675251775234143" flag="0"/>
			<psa03 value="0.0156837785567096" flag="0"/>
			<psa10 value="0.00840365982622382" flag="0"/>
			<psa30 value="0.000705222967561238" flag="0"/>
		</comp>
	</station>
	<station code="RDI1" name="RDI1" netid="HI" source="ITSAK Strong Motion Network" insttype="" lat="36.4514" lon="28.224" esm:processing="manual (Paolucci et al 2011)" esm:quality="good">
		<comp name="--.HNE" depth="0.0">
			<acc value="0.0239327844457026" flag="0"/>
			<vel value="0.0306068259470837" flag="0"/>
			<psa03 value="0.0403306873350943" flag="0"/>
			<psa10 value="0.0458790055089011" flag="0"/>
			<psa30 value="0.00949516650819038" flag="0"/>
		</comp>
		<comp name="--.HNN" depth="0.0">
			<acc value="0.0201833635562858" flag="0"/>
			<vel value="0.0309834624031913" flag="0"/>
			<psa03 value="0.0449322942522127" flag="0"/>
			<psa10 value="0.0483326843030138" flag="0"/>
			<psa30 value="0.00879209326634332" flag="0"/>
		</comp>
		<comp name="--.HNZ" depth="0.0">
			<acc value="0.0126260143812984" flag="0"/>
			<vel value="0.0144499463766832" flag="0"/>
			<psa03 value="0.0500683428235852" flag="0"/>
			<psa10 value="0.0250590737906494" flag="0"/>
			<psa30 value="0.00481572276798504" flag="0"/>
		</comp>
	</station>
	<station code="SIT2" name="SIT2" netid="HI" source="ITSAK Strong Motion Network" insttype="" lat="35.2059" lon="26.107" esm:processing="manual (Paolucci et al 2011)" esm:quality="good">
		<comp name="--.HNE" depth="0.0">
			<acc value="3.12715730854101" flag="0"/>
			<vel value="1.67145974571693" flag="0"/>
			<psa03 value="11.4850559856707" flag="0"/>
			<psa10 value="1.56929978790298" flag="0"/>
			<psa30 value="0.13040742509788" flag="0"/>
		</comp>
		<comp name="--.HNN" depth="0.0">
			<acc value="3.27461370719389" flag="0"/>
			<vel value="1.73828581584759" flag="0"/>
			<psa03 value="10.9116398656509" flag="0"/>
			<psa10 value="1.11585810524184" flag="0"/>
			<psa30 value="0.0619912221137479" flag="0"/>
		</comp>
		<comp name="--.HNZ" depth="0.0">
			<acc value="2.43808947227767" flag="0"/>
			<vel value="0.949830602500622" flag="0"/>
			<psa03 value="6.35491457481961" flag="0"/>
			<psa10 value="0.272416951793943" flag="0"/>
			<psa30 value="0.033268067731016" flag="0"/>
		</comp>
	</station>
	<station code="CHNB" name="CHNB" netid="HL" source="National Observatory of Athens Seismic Network" insttype="" lat="35.48765" lon="24.06605" esm:processing="manual (Paolucci et al 2011)" esm:quality="best">
		<comp name="00.HNE" depth="0.0">
			<acc value="0.037868865919018" flag="0"/>
			<vel value="0.0375633660777569" flag="0"/>
			<psa03 value="0.0845140048880676" flag="0"/>
			<psa10 value="0.050014948244802" flag="0"/>
			<psa30 value="0.00482708893761908" flag="0"/>
		</comp>
		<comp name="00.HNN" depth="0.0">
			<acc value="0.0487567106258575" flag="0"/>
			<vel value="0.0486965646625618" flag="0"/>
			<psa03 value="0.0756257858787802" flag="0"/>
			<psa10 value="0.154692182597957" flag="0"/>
			<psa30 value="0.00678590244941072" flag="0"/>
		</comp>
		<comp name="00.HNZ" depth="0.0">
			<acc value="0.0221924715917459" flag="0"/>
			<vel value="0.0156129206803316" flag="0"/>
			<psa03 value="0.0616223425944435" flag="0"/>
			<psa10 value="0.0188177303322708" flag="0"/>
			<psa30 value="0.00249096647263516" flag="0"/>
		</comp>
	</station>
	<station code="HERG" name="HERG" netid="HL" source="National Observatory of Athens Seismic Network" insttype="" lat="35.32622" lon="25.06586" esm:processing="manual (Paolucci et al 2011)" esm:quality="good">
		<comp name="00.HNE" depth="0.0">
			<acc value="0.117925069094975" flag="0"/>
			<vel value="0.124101042050146" flag="0"/>
			<psa03 value="0.342170604623493" flag="0"/>
			<psa10 value="0.239491315124452" flag="0"/>
			<psa30 value="0.0162958895227191" flag="0"/>
		</comp>
		<comp name="00.HNN" depth="0.0">
			<acc value="0.131738490772972" flag="0"/>
			<vel value="0.156603477980542" flag="0"/>
			<psa03 value="0.329520287434998" flag="0"/>
			<psa10 value="0.309437288701542" flag="0"/>
			<psa30 value="0.0295943004771779" flag="0"/>
		</comp>
		<comp name="00.HNZ" depth="0.0">
			<acc value="0.112449722983672" flag="0"/>
			<vel value="0.107401023212095" flag="0"/>
			<psa03 value="0.189082359111618" flag="0"/>
			<psa10 value="0.0895876747438218" flag="0"/>
			<psa30 value="0.0105678375673934" flag="0"/>
		</comp>
	</station>
	<station code="IMMV" name="IMMV" netid="HL" source="National Observatory of Athens Seismic Network" insttype="" lat="35.4606" lon="23.9811" esm:processing="manual (Paolucci et al 2011)" esm:quality="best">
		<comp name="--.HNE" depth="0.0">
			<acc value="0.0163649859830308" flag="0"/>
			<vel value="0.0151814483902531" flag="0"/>
			<psa03 value="0.0419234476013206" flag="0"/>
			<psa10 value="0.0267258622792923" flag="0"/>
			<psa30 value="0.00363172491120512" flag="0"/>
		</comp>
		<comp name="--.HNN" depth="0.0">
			<acc value="0.0144331780620954" flag="0"/>
			<vel value="0.0135082867737642" flag="0"/>
			<psa03 value="0.0376729379725848" flag="0"/>
			<psa10 value="0.0217326320206931" flag="0"/>
			<psa30 value="0.00349481375895321" flag="0"/>
		</comp>
		<comp name="--.HNZ" depth="0.0">
			<acc value="0.014171370472783" flag="0"/>
			<vel value="0.00892933532743562" flag="0"/>
			<psa03 value="0.0417892209814658" flag="0"/>
			<psa10 value="0.0134253465178786" flag="0"/>
			<psa30 value="0.00222547735719284" flag="0"/>
		</comp>
	</station>
	<station code="KARP" name="KARP" netid="HL" source="National Observatory of Athens Seismic Network" insttype="" lat="35.5471" lon="27.16106" esm:processing="manual (Paolucci et al 2011)" esm:quality="good">
		<comp name="--.HNE" depth="0.0">
			<acc value="0.153245976580535" flag="0"/>
			<vel value="0.103271895073811" flag="0"/>
			<psa03 value="0.45901029769685" flag="0"/>
			<psa10 value="0.160858523500209" flag="0"/>
			<psa30 value="0.0060137999915619" flag="0"/>
		</comp>
		<comp name="--.HNN" depth="0.0">
			<acc value="0.148788650361583" flag="0"/>
			<vel value="0.119521282939392" flag="0"/>
			<psa03 value="0.442008259181907" flag="0"/>
			<psa10 value="0.195879590886529" flag="0"/>
			<psa30 value="0.0086468788510472" flag="0"/>
		</comp>
		<comp name="--.HNZ" depth="0.0">
			<acc value="0.113323033160869" flag="0"/>
			<vel value="0.0700197500206531" flag="0"/>
			<psa03 value="0.312121633369064" flag="0"/>
			<psa10 value="0.0673965280953013" flag="0"/>
			<psa30 value="0.00667374753918141" flag="0"/>
		</comp>
	</station>
	<station code="THRA" name="THRA" netid="HL" source="National Observatory of Athens Seismic Network" insttype="" lat="36.41502" lon="25.43244" esm:processing="manual (Paolucci et al 2011)" esm:quality="good">
		<comp name="00.HNE" depth="0.0">
			<acc value="0.126028461874588" flag="0"/>
			<vel value="0.0905442088473227" flag="0"/>
			<psa03 value="0.374805464841263" flag="0"/>
			<psa10 value="0.136597061961451" flag="0"/>
			<psa30 value="0.0110933827089343" flag="0"/>
		</comp>
		<comp name="00.HNN" depth="0.0">
			<acc value="0.089724170484393" flag="0"/>
			<vel value="0.0662009902252" flag="0"/>
			<psa03 value="0.235209780192255" flag="0"/>
			<psa10 value="0.148464037422815" flag="0"/>
			<psa30 value="0.00861242735195113" flag="0"/>
		</comp>
		<comp name="00.HNZ" depth="0.0">
			<acc value="0.0796057701064099" flag="0"/>
			<vel value="0.0443129545117111" flag="0"/>
			<psa03 value="0.241518431325431" flag="0"/>
			<psa10 value="0.0392089379257901" flag="0"/>
			<psa30 value="0.00378250614750869" flag="0"/>
		</comp>
	</station>
	<station code="GMLD" name="GMLD" netid="KO" source="Bogazici University Kandilli Observatory And Earthquake Research Institute (KOERI)" insttype="" lat="38.0766" lon="26.9157" esm:processing="automatic (Paolucci et al 2011)" esm:quality="good">
		<comp name="--.HNE" depth="0.0">
			<acc value="0.00918776693386721" flag="0"/>
			<vel value="0.00863375051134392" flag="0"/>
			<psa03 value="0.0329163420044269" flag="0"/>
			<psa10 value="0.0134088857728746" flag="0"/>
			<psa30 value="0.00145564153327634" flag="0"/>
		</comp>
		<comp name="--.HNN" depth="0.0">
			<acc value="0.00994214737648573" flag="0"/>
			<vel value="0.00927897526474809" flag="0"/>
			<psa03 value="0.0305037863511575" flag="0"/>
			<psa10 value="0.0125131614355391" flag="0"/>
			<psa30 value="0.00106024367343841" flag="0"/>
		</comp>
		<comp name="--.HNZ" depth="0.0">
			<acc value="0.00391324739576962" flag="0"/>
			<vel value="0.00212913519827799" flag="0"/>
			<psa03 value="0.0135408136791227" flag="0"/>
			<psa10 value="0.00214898329709635" flag="0"/>
			<psa30 value="0.000826581944499291" flag="0"/>
		</comp>
	</station>
	<station code="KTHA" name="KTHA" netid="GE" source="GEOFON" insttype="" lat="36.2566" lon="23.0621" esm:processing="automatic (Paolucci et al 2011)" esm:quality="bad">
		<comp name="--.HNE" depth="0.0">
			<acc value="0" flag="1"/>
			<vel value="0" flag="1"/>
			<psa03 value="0" flag="1"/>
			<psa10 value="0" flag="1"/>
			<psa30 value="0" flag="1"/>
		</comp>
		<comp name="--.HNN" depth="0.0">
			<acc value="0" flag="1"/>
			<vel value="0" flag="1"/>
			<psa03 value="0" flag="1"/>
			<psa10 value="0" flag="1"/>
			<psa30 value="0" flag="1"/>
		</comp>
		<comp name="--.HNZ" depth="0.0">
			<acc value="0" flag="1"/>
			<vel value="0" flag="1"/>
			<psa03 value="0" flag="1"/>
			<psa10 value="0" flag="1"/>
			<psa30 value="0" flag="1"/>
		</comp>
	</station>
	<station code="CH01" name="CH01" netid="HI" source="ITSAK Strong Motion Network" insttype="" lat="35.517" lon="24.0208" esm:processing="discarded" esm:quality="best">
		<comp name="--.HNE" depth="0.0">
			<acc value="0" flag="1"/>
			<vel value="0" flag="1"/>
			<psa03 value="0" flag="1"/>
			<psa10 value="0" flag="1"/>
			<psa30 value="0" flag="1"/>
		</comp>
		<comp name="--.HNN" depth="0.0">
			<acc value="0" flag="1"/>
			<vel value="0" flag="1"/>
			<psa03 value="0" flag="1"/>
			<psa10 value="0" flag="1"/>
			<psa30 value="0" flag="1"/>
		</comp>
		<comp name="--.HNZ" depth="0.0">
			<acc value="0" flag="1"/>
			<vel value="0" flag="1"/>
			<psa03 value="0" flag="1"/>
			<psa10 value="0" flag="1"/>
			<psa30 value="0" flag="1"/>
		</comp>
	</station>
	<station code="KRL1" name="KRL1" netid="HI" source="ITSAK Strong Motion Network" insttype="" lat="37.7951" lon="26.7065" esm:processing="discarded" esm:quality="good">
		<comp name="--.HNE" depth="0.0">
			<acc value="0" flag="1"/>
			<vel value="0" flag="1"/>
			<psa03 value="0" flag="1"/>
			<psa10 value="0" flag="1"/>
			<psa30 value="0" flag="1"/>
		</comp>
		<comp name="--.HNN" depth="0.0">
			<acc value="0" flag="1"/>
			<vel value="0" flag="1"/>
			<psa03 value="0" flag="1"/>
			<psa10 value="0" flag="1"/>
			<psa30 value="0" flag="1"/>
		</comp>
		<comp name="--.HNZ" depth="0.0">
			<acc value="0" flag="1"/>
			<vel value="0" flag="1"/>
			<psa03 value="0" flag="1"/>
			<psa10 value="0" flag="1"/>
			<psa30 value="0" flag="1"/>
		</comp>
	</station>
	<station code="NPS1" name="NPS1" netid="HI" source="ITSAK Strong Motion Network" insttype="" lat="36.51263" lon="23.06248" esm:processing="discarded" esm:quality="bad">
		<comp name="--.HNE" depth="0.0">
			<acc value="0" flag="1"/>
			<vel value="0" flag="1"/>
			<psa03 value="0" flag="1"/>
			<psa10 value="0" flag="1"/>
			<psa30 value="0" flag="1"/>
		</comp>
		<comp name="--.HNN" depth="0.0">
			<acc value="0" flag="1"/>
			<vel value="0" flag="1"/>
			<psa03 value="0" flag="1"/>
			<psa10 value="0" flag="1"/>
			<psa30 value="0" flag="1"/>
		</comp>
		<comp name="--.HNZ" depth="0.0">
			<acc value="0" flag="1"/>
			<vel value="0" flag="1"/>
			<psa03 value="0" flag="1"/>
			<psa10 value="0" flag="1"/>
			<psa30 value="0" flag="1"/>
		</comp>
	</station>
	<station code="KLNA" name="KLNA" netid="HL" source="National Observatory of Athens Seismic Network" insttype="" lat="36.95708" lon="26.97274" esm:processing="discarded" esm:quality="good">
		<comp name="00.HNE" depth="0.0">
			<acc value="0" flag="1"/>
			<vel value="0" flag="1"/>
			<psa03 value="0" flag="1"/>
			<psa10 value="0" flag="1"/>
			<psa30 value="0" flag="1"/>
		</comp>
		<comp name="00.HNN" depth="0.0">
			<acc value="0" flag="1"/>
			<vel value="0" flag="1"/>
			<psa03 value="0" flag="1"/>
			<psa10 value="0" flag="1"/>
			<psa30 value="0" flag="1"/>
		</comp>
		<comp name="00.HNZ" depth="0.0">
			<acc value="0" flag="1"/>
			<vel value="0" flag="1"/>
			<psa03 value="0" flag="1"/>
			<psa10 value="0" flag="1"/>
			<psa30 value="0" flag="1"/>
		</comp>
	</station>
	<station code="KSL" name="KSL" netid="HL" source="National Observatory of Athens Seismic Network" insttype="" lat="36.15031" lon="29.58561" esm:processing="discarded" esm:quality="bad">
		<comp name="00.HNE" depth="0.0">
			<acc value="0" flag="1"/>
			<vel value="0" flag="1"/>
			<psa03 value="0" flag="1"/>
			<psa10 value="0" flag="1"/>
			<psa30 value="0" flag="1"/>
		</comp>
		<comp name="00.HNN" depth="0.0">
			<acc value="0" flag="1"/>
			<vel value="0" flag="1"/>
			<psa03 value="0" flag="1"/>
			<psa10 value="0" flag="1"/>
			<psa30 value="0" flag="1"/>
		</comp>
		<comp name="00.HNZ" depth="0.0">
			<acc value="0" flag="1"/>
			<vel value="0" flag="1"/>
			<psa03 value="0" flag="1"/>
			<psa10 value="0" flag="1"/>
			<psa30 value="0" flag="1"/>
		</comp>
	</station>
	<station code="KTHA" name="KTHA" netid="HL" source="National Observatory of Athens Seismic Network" insttype="" lat="36.2566" lon="23.0621" esm:processing="discarded" esm:quality="good">
		<comp name="--.HNE" depth="0.0">
			<acc value="0" flag="1"/>
			<vel value="0" flag="1"/>
			<psa03 value="0" flag="1"/>
			<psa10 value="0" flag="1"/>
			<psa30 value="0" flag="1"/>
		</comp>
		<comp name="--.HNN" depth="0.0">
			<acc value="0" flag="1"/>
			<vel value="0" flag="1"/>
			<psa03 value="0" flag="1"/>
			<psa10 value="0" flag="1"/>
			<psa30 value="0" flag="1"/>
		</comp>
		<comp name="--.HNZ" depth="0.0">
			<acc value="0" flag="1"/>
			<vel value="0" flag="1"/>
			<psa03 value="0" flag="1"/>
			<psa10 value="0" flag="1"/>
			<psa30 value="0" flag="1"/>
		</comp>
	</station>
	<station code="MILA" name="MILA" netid="HL" source="National Observatory of Athens Seismic Network" insttype="" lat="36.74288" lon="24.4282" esm:processing="discarded" esm:quality="good">
		<comp name="00.HNE" depth="0.0">
			<acc value="0" flag="1"/>
			<vel value="0" flag="1"/>
			<psa03 value="0" flag="1"/>
			<psa10 value="0" flag="1"/>
			<psa30 value="0" flag="1"/>
		</comp>
		<comp name="00.HNN" depth="0.0">
			<acc value="0" flag="1"/>
			<vel value="0" flag="1"/>
			<psa03 value="0" flag="1"/>
			<psa10 value="0" flag="1"/>
			<psa30 value="0" flag="1"/>
		</comp>
		<comp name="00.HNZ" depth="0.0">
			<acc value="0" flag="1"/>
			<vel value="0" flag="1"/>
			<psa03 value="0" flag="1"/>
			<psa10 value="0" flag="1"/>
			<psa30 value="0" flag="1"/>
		</comp>
	</station>
	<station code="MNVA" name="MNVA" netid="HL" source="National Observatory of Athens Seismic Network" insttype="" lat="36.68709" lon="23.03734" esm:processing="discarded" esm:quality="bad">
		<comp name="00.HNE" depth="0.0">
			<acc value="0" flag="1"/>
			<vel value="0" flag="1"/>
			<psa03 value="0" flag="1"/>
			<psa10 value="0" flag="1"/>
			<psa30 value="0" flag="1"/>
		</comp>
		<comp name="00.HNN" depth="0.0">
			<acc value="0" flag="1"/>
			<vel value="0" flag="1"/>
			<psa03 value="0" flag="1"/>
			<psa10 value="0" flag="1"/>
			<psa30 value="0" flag="1"/>
		</comp>
		<comp name="00.HNZ" depth="0.0">
			<acc value="0" flag="1"/>
			<vel value="0" flag="1"/>
			<psa03 value="0" flag="1"/>
			<psa10 value="0" flag="1"/>
			<psa30 value="0" flag="1"/>
		</comp>
	</station>
	<station code="RODB" name="RODB" netid="HL" source="National Observatory of Athens Seismic Network" insttype="" lat="36.4471" lon="28.22116" esm:processing="discarded" esm:quality="good">
		<comp name="00.HNE" depth="0.0">
			<acc value="0" flag="1"/>
			<vel value="0" flag="1"/>
