<?xml version="1.0" encoding="UTF-8" standalone="yes"?>
<!DOCTYPE earthquake SYSTEM "stationlist.dtd">
<stationlist created="" xmlns="ch.ethz.sed.shakemap.usgs.xml">
  <station code="KARP" name="KARP" netid="GE" insttype="STS-2/N" lat="35.5471" lon="27.1611">
    <comp name="--.HHE">
      <acc value="0.1712984871" flag="0"/>
      <vel value="0.1229025280" flag="0"/>
      <psa03 value="0.5460839478" flag="0"/>
      <psa10 value="0.1903931334" flag="0"/>
      <psa30 value="0.0075080545" flag="0"/>
    </comp>
    <comp name="--.HHZ">
      <acc value="0.1422667453" flag="0"/>
      <vel value="0.0859970715" flag="0"/>
      <psa03 value="0.3931153464" flag="0"/>
      <psa10 value="0.0817288786" flag="0"/>
      <psa30 value="0.0081426175" flag="0"/>
    </comp>
    <comp name="--.HHN">
      <acc value="0.1947615089" flag="0"/>
      <vel value="0.1362229917" flag="0"/>
      <psa03 value="0.5552649094" flag="0"/>
      <psa10 value="0.2327158132" flag="0"/>
      <psa30 value="0.0097707294" flag="0"/>
    </comp>
  </station>
  <station code="THERA" name="THERA" netid="GE" insttype="STS-2/N" lat="36.367" lon="25.4753">
    <comp name="--.HHE">
      <acc value="0.0352295721" flag="0"/>
      <vel value="0.0213800484" flag="0"/>
      <psa03 value="0.0886341375" flag="0"/>
      <psa10 value="0.0310991036" flag="0"/>
      <psa30 value="0.0022992357" flag="0"/>
    </comp>
    <comp name="--.HHN">
      <acc value="0.0197062184" flag="0"/>
      <vel value="0.0096223185" flag="0"/>
      <psa03 value="0.0495585350" flag="0"/>
      <psa10 value="0.0111912199" flag="0"/>
      <psa30 value="0.0015478395" flag="0"/>
    </comp>
    <comp name="--.HHZ">
      <acc value="0.0235580788" flag="0"/>
      <vel value="0.0139950106" flag="0"/>
      <psa03 value="0.0675451775" flag="0"/>
      <psa10 value="0.0165797902" flag="0"/>
      <psa30 value="0.0019957454" flag="0"/>
    </comp>
  </station>
  <station code="SNT5" name="SNT5" netid="HA" insttype="1s-100Hz," lat="36.4037" lon="25.3953">
    <comp name="--.HHE">
      <acc value="0.0806222023" flag="0"/>
      <vel value="0.0493158763" flag="0"/>
      <psa03 value="0.3387375111" flag="0"/>
      <psa10 value="0.0280103728" flag="0"/>
      <psa30 value="0.0131767304" flag="0"/>
    </comp>
    <comp name="--.HHN">
      <acc value="0.0749429631" flag="0"/>
      <vel value="0.0359044299" flag="0"/>
      <psa03 value="0.1633653512" flag="0"/>
      <psa10 value="0.0218337837" flag="0"/>
      <psa30 value="0.0093733858" flag="0"/>
    </comp>
    <comp name="--.HHZ">
      <acc value="0.0316224843" flag="0"/>
      <vel value="0.0145243324" flag="0"/>
      <psa03 value="0.0544257295" flag="0"/>
      <psa10 value="0.0137765708" flag="0"/>
      <psa30 value="0.0032858904" flag="0"/>
    </comp>
  </station>
  <station code="STIA" name="STIA" netid="HC" insttype="120" lat="35.2021" lon="26.0909">
    <comp name="--.HHE">
      <acc value="14.0968421238" flag="0"/>
      <vel value="0.6414270910" flag="0"/>
      <psa03 value="4.0012217052" flag="0"/>
      <psa10 value="0.4492796480" flag="0"/>
      <psa30 value="0.0746690688" flag="0"/>
    </comp>
    <comp name="--.HHN">
      <acc value="1.2374158934" flag="0"/>
      <vel value="0.6112113001" flag="0"/>
      <psa03 value="3.4585889053" flag="0"/>
      <psa10 value="0.4121798433" flag="0"/>
      <psa30 value="0.0297709770" flag="0"/>
    </comp>
    <comp name="--.HHZ">
      <acc value="1.5013895329" flag="0"/>
      <vel value="0.3707328357" flag="0"/>
      <psa03 value="2.8707366737" flag="0"/>
      <psa10 value="0.1872201894" flag="0"/>
      <psa30 value="0.0163913886" flag="0"/>
    </comp>
  </station>
  <station code="IDI" name="IDI" netid="HL" insttype="120" lat="35.288" lon="24.89">
    <comp name="--.HHE">
      <acc value="0.0293265045" flag="0"/>
      <vel value="0.0233124654" flag="0"/>
      <psa03 value="0.0617306910" flag="0"/>
      <psa10 value="0.0331195805" flag="0"/>
      <psa30 value="0.0039912067" flag="0"/>
    </comp>
    <comp name="--.HHN">
      <acc value="0.0229031698" flag="0"/>
      <vel value="0.0212721417" flag="0"/>
      <psa03 value="0.0626968343" flag="0"/>
      <psa10 value="0.0287668838" flag="0"/>
      <psa30 value="0.0062602000" flag="0"/>
    </comp>
    <comp name="--.HHZ">
      <acc value="0.0198114441" flag="0"/>
      <vel value="0.0164258237" flag="0"/>
      <psa03 value="0.0473209636" flag="0"/>
      <psa10 value="0.0282614892" flag="0"/>
      <psa30 value="0.0043630124" flag="0"/>
    </comp>
  </station>
  <station code="KARP" name="KARP" netid="HL" insttype="120" lat="35.5471" lon="27.1611">
    <comp name="--.HHE">
      <acc value="0.1649412335" flag="0"/>
      <vel value="0.1206771657" flag="0"/>
      <psa03 value="0.5283452618" flag="0"/>
      <psa10 value="0.1890911907" flag="0"/>
      <psa30 value="0.0074918965" flag="0"/>
    </comp>
    <comp name="--.HHN">
      <acc value="0.1878285737" flag="0"/>
      <vel value="0.1343330780" flag="0"/>
      <psa03 value="0.5411062116" flag="0"/>
      <psa10 value="0.2308731567" flag="0"/>
      <psa30 value="0.0096886090" flag="0"/>
    </comp>
    <comp name="--.HHZ">
      <acc value="0.1399144898" flag="0"/>
      <vel value="0.0846531336" flag="0"/>
      <psa03 value="0.3827217732" flag="0"/>
      <psa10 value="0.0810672832" flag="0"/>
      <psa30 value="0.0080926992" flag="0"/>
    </comp>
  </station>
  <station code="NPS" name="NPS" netid="HL" insttype="CMG3ESPC-120s" lat="35.2613" lon="25.6104">
    <comp name="--.HHE">
      <acc value="0.1112291050" flag="0"/>
      <vel value="0.0545692104" flag="0"/>
      <psa03 value="0.1878564611" flag="0"/>
      <psa10 value="0.0304160306" flag="0"/>
      <psa30 value="0.0045351267" flag="0"/>
    </comp>
    <comp name="--.HHN">
      <acc value="0.1923876661" flag="0"/>
      <vel value="0.0854584225" flag="0"/>
      <psa03 value="0.2860434631" flag="0"/>
      <psa10 value="0.1135245169" flag="0"/>
      <psa30 value="0.0085485591" flag="0"/>
    </comp>
    <comp name="--.HHZ">
      <acc value="0.1879167383" flag="0"/>
      <vel value="0.0665673432" flag="0"/>
      <psa03 value="0.2053138479" flag="0"/>
      <psa10 value="0.0375457690" flag="0"/>
      <psa30 value="0.0103736676" flag="0"/>
    </comp>
  </station>
  <station code="SAP3" name="SAP3" netid="HL" insttype="LE3D20_SMART24" lat="36.4356" lon="25.3454">
    <comp name="--.HHE">
      <acc value="0.0966899201" flag="0"/>
      <vel value="0.0952910258" flag="0"/>
      <psa03 value="0.3507434134" flag="0"/>
      <psa10 value="0.0744839199" flag="0"/>
      <psa30 value="0.0125022261" flag="0"/>
    </comp>
    <comp name="--.HHN">
      <acc value="0.1319466582" flag="0"/>
      <vel value="0.0771225272" flag="0"/>
      <psa03 value="0.4249786239" flag="0"/>
      <psa10 value="0.0888517801" flag="0"/>
      <psa30 value="0.0153118988" flag="0"/>
    </comp>
    <comp name="--.HHZ">
      <acc value="0.0774158363" flag="0"/>
      <vel value="0.0381940666" flag="0"/>
      <psa03 value="0.3131845903" flag="0"/>
      <psa10 value="0.0437378975" flag="0"/>
      <psa30 value="0.0048367366" flag="0"/>
    </comp>
  </station>
  <station code="THERA" name="THERA" netid="HL" insttype="120" lat="36.367" lon="25.4753">
    <comp name="--.HHE">
      <acc value="0.0346068187" flag="0"/>
      <vel value="0.0208389178" flag="0"/>
      <psa03 value="0.0861753872" flag="0"/>
      <psa10 value="0.0308341136" flag="0"/>
      <psa30 value="0.0023009104" flag="0"/>
    </comp>
    <comp name="--.HHZ">
      <acc value="0.0231663715" flag="0"/>
      <vel value="0.0138106767" flag="0"/>
      <psa03 value="0.0656731673" flag="0"/>
      <psa10 value="0.0164366068" flag="0"/>
      <psa30 value="0.0019957074" flag="0"/>
    </comp>
    <comp name="--.HHN">
      <acc value="0.0191539022" flag="0"/>
      <vel value="0.0094146029" flag="0"/>
      <psa03 value="0.0483001623" flag="0"/>
      <psa10 value="0.0111152402" flag="0"/>
      <psa30 value="0.0015480897" flag="0"/>
    </comp>
  </station>
  <station code="ZKR" name="ZKR" netid="HL" insttype="120" lat="35.1147" lon="26.2169">
    <comp name="--.HHN">
      <acc value="1.5370509702" flag="0"/>
      <vel value="0.4997702886" flag="0"/>
      <psa03 value="2.0466549579" flag="0"/>
      <psa10 value="0.1617164151" flag="0"/>
      <psa30 value="0.0220326077" flag="0"/>
    </comp>
    <comp name="--.HHZ">
      <acc value="1.6211632090" flag="0"/>
      <vel value="0.3216332134" flag="0"/>
      <psa03 value="1.1384293635" flag="0"/>
      <psa10 value="0.1987543623" flag="0"/>
      <psa30 value="0.0208062701" flag="0"/>
    </comp>
    <comp name="--.HHE">
      <acc value="2.1798437891" flag="0"/>
      <vel value="0.8710508980" flag="0"/>
      <psa03 value="3.8687015996" flag="0"/>
      <psa10 value="0.6169241142" flag="0"/>
      <psa30 value="0.0527782379" flag="0"/>
    </comp>
  </station>
  <station code="IDI" name="IDI" netid="MN" insttype="" lat="35.288" lon="24.89">
    <comp name="--.HHE">
      <acc value="0.0299937282" flag="0"/>
      <vel value="0.0233692812" flag="0"/>
      <psa03 value="0.0628853407" flag="0"/>
      <psa10 value="0.0329447258" flag="0"/>
      <psa30 value="0.0039426213" flag="0"/>
    </comp>
    <comp name="--.HHN">
      <acc value="0.0236463968" flag="0"/>
      <vel value="0.0212061135" flag="0"/>
      <psa03 value="0.0635085602" flag="0"/>
      <psa10 value="0.0285512435" flag="0"/>
      <psa30 value="0.0061859550" flag="0"/>
    </comp>
    <comp name="--.HHZ">
      <acc value="0.0200721053" flag="0"/>
      <vel value="0.0163806172" flag="0"/>
      <psa03 value="0.0478427038" flag="0"/>
      <psa10 value="0.0280383085" flag="0"/>
      <psa30 value="0.0043114374" flag="0"/>
    </comp>
  </station>
</stationlist>
