<?xml version="1.0" encoding="UTF-8" standalone="yes"?>
<!DOCTYPE earthquake SYSTEM "stationlist.dtd">
<stationlist created="" xmlns="ch.ethz.sed.shakemap.usgs.xml">
  <station code="THERA" name="THERA" netid="GE" insttype="STS-2/N" lat="36.367" lon="25.4753">
    <comp name="--.HHE">
      <acc value="0.2381341336" flag="0"/>
      <vel value="0.0457301256" flag="0"/>
      <psa03 value="0.3046740783" flag="0"/>
      <psa10 value="0.0157578698" flag="0"/>
      <psa30 value="0.0021915592" flag="0"/>
    </comp>
    <comp name="--.HHN">
      <acc value="0.1580678454" flag="0"/>
      <vel value="0.0513682028" flag="0"/>
      <psa03 value="0.3287923559" flag="0"/>
      <psa10 value="0.0095949873" flag="0"/>
      <psa30 value="0.0008754495" flag="0"/>
    </comp>
    <comp name="--.HHZ">
      <acc value="0.2078014437" flag="0"/>
      <vel value="0.0473756562" flag="0"/>
      <psa03 value="0.1796861837" flag="0"/>
      <psa10 value="0.0109382919" flag="0"/>
      <psa30 value="0.0018865745" flag="0"/>
    </comp>
  </station>
</stationlist>
