<?xml version="1.0" encoding="UTF-8" standalone="yes"?>
<!DOCTYPE earthquake SYSTEM "stationlist.dtd">
<stationlist created="" xmlns="ch.ethz.sed.shakemap.usgs.xml">
  <station code="APE" name="APE" netid="GE" insttype="STS-2/N" lat="37.0727" lon="25.523">
    <comp name="--.HHN">
      <acc value="0.3617101047" flag="0"/>
      <vel value="0.0915973518" flag="0"/>
      <psa03 value="0.2339662103" flag="0"/>
      <psa10 value="0.0132786262" flag="0"/>
      <psa30 value="0.0025040694" flag="0"/>
    </comp>
    <comp name="--.HHE">
      <acc value="0.3221348097" flag="0"/>
      <vel value="0.0485225733" flag="0"/>
      <psa03 value="0.1749529534" flag="0"/>
      <psa10 value="0.0128822847" flag="0"/>
      <psa30 value="0.0018924542" flag="0"/>
    </comp>
    <comp name="--.HHZ">
      <acc value="0.1384801800" flag="0"/>
      <vel value="0.0215482347" flag="0"/>
      <psa03 value="0.0760298108" flag="0"/>
      <psa10 value="0.0107299901" flag="0"/>
      <psa30 value="0.0023731238" flag="0"/>
    </comp>
  </station>
  <station code="THERA" name="THERA" netid="GE" insttype="STS-2/N" lat="36.367" lon="25.4753">
    <comp name="--.HHE">
      <acc value="0.2381341335" flag="0"/>
      <vel value="0.0457301257" flag="0"/>
      <psa03 value="0.3046740783" flag="0"/>
      <psa10 value="0.0157578824" flag="0"/>
      <psa30 value="0.0021875043" flag="0"/>
    </comp>
    <comp name="--.HHZ">
      <acc value="0.2078014433" flag="0"/>
      <vel value="0.0473756554" flag="0"/>
      <psa03 value="0.1796861837" flag="0"/>
      <psa10 value="0.0109382746" flag="0"/>
      <psa30 value="0.0018855065" flag="0"/>
    </comp>
    <comp name="--.HHN">
      <acc value="0.1580678460" flag="0"/>
      <vel value="0.0513682012" flag="0"/>
      <psa03 value="0.3287923559" flag="0"/>
      <psa10 value="0.0095949821" flag="0"/>
      <psa30 value="0.0008746252" flag="0"/>
    </comp>
  </station>
</stationlist>
