<?xml version="1.0" encoding="UTF-8" standalone="yes"?>
<!DOCTYPE earthquake SYSTEM "stationlist.dtd">
<stationlist created="" xmlns="ch.ethz.sed.shakemap.usgs.xml">
  <station code="KARS" name="KARS" netid="KO" insttype="120s," lat="40.6152" lon="43.0937">
    <comp name="--.HHN">
      <acc value="0.0300742682" flag="0"/>
      <vel value="0.0140355284" flag="0"/>
      <psa03 value="0.0576234146" flag="0"/>
      <psa10 value="0.0139888212" flag="0"/>
      <psa30 value="0.0045898108" flag="0"/>
    </comp>
    <comp name="--.HHZ">
      <acc value="0.0195965614" flag="0"/>
      <vel value="0.0148360355" flag="0"/>
      <psa03 value="0.0505544134" flag="0"/>
      <psa10 value="0.0198276786" flag="0"/>
      <psa30 value="0.0024488497" flag="0"/>
    </comp>
    <comp name="--.HHE">
      <acc value="0.0279186242" flag="0"/>
      <vel value="0.0183576207" flag="0"/>
      <psa03 value="0.0862954132" flag="0"/>
      <psa10 value="0.0240555716" flag="0"/>
      <psa30 value="0.0031732389" flag="0"/>
    </comp>
  </station>
  <station code="TASB" name="TASB" netid="KO" insttype="120s," lat="39.9839" lon="44.2384">
    <comp name="--.HHN">
      <acc value="0.0222548467" flag="0"/>
      <vel value="0.0153902523" flag="0"/>
      <psa03 value="0.0518930523" flag="0"/>
      <psa10 value="0.0156934700" flag="0"/>
      <psa30 value="0.0016616475" flag="0"/>
    </comp>
    <comp name="--.HHZ">
      <acc value="0.0145914357" flag="0"/>
      <vel value="0.0075118918" flag="0"/>
      <psa03 value="0.0366445476" flag="0"/>
      <psa10 value="0.0126515863" flag="0"/>
      <psa30 value="0.0012157794" flag="0"/>
    </comp>
    <comp name="--.HHE">
      <acc value="0.0197772833" flag="0"/>
      <vel value="0.0140313484" flag="0"/>
      <psa03 value="0.0644121833" flag="0"/>
      <psa10 value="0.0226292559" flag="0"/>
      <psa30 value="0.0019821848" flag="0"/>
    </comp>
  </station>
</stationlist>
