<?xml version="1.0" encoding="UTF-8" standalone="yes"?>
<!DOCTYPE earthquake SYSTEM "stationlist.dtd">
<stationlist created="" xmlns="ch.ethz.sed.shakemap.usgs.xml">
  <station code="KARS" name="KARS" netid="KO" insttype="120s," lat="40.6152" lon="43.0937">
    <comp name="--.HHN">
      <acc value="0.0300742684" flag="0"/>
      <vel value="0.0140355284" flag="0"/>
      <psa03 value="0.0576234146" flag="0"/>
      <psa10 value="0.0139888212" flag="0"/>
      <psa30 value="0.0045898102" flag="0"/>
    </comp>
    <comp name="--.HHZ">
      <acc value="0.0195965616" flag="0"/>
      <vel value="0.0148360354" flag="0"/>
      <psa03 value="0.0505544134" flag="0"/>
      <psa10 value="0.0198276786" flag="0"/>
      <psa30 value="0.0024488501" flag="0"/>
    </comp>
    <comp name="--.HHE">
      <acc value="0.0279186236" flag="0"/>
      <vel value="0.0183576206" flag="0"/>
      <psa03 value="0.0862954132" flag="0"/>
      <psa10 value="0.0240555715" flag="0"/>
      <psa30 value="0.0031732365" flag="0"/>
    </comp>
  </station>
</stationlist>
