<stationlist created="1778138912">
	<station code="HOPA" name="HOPA" netid="KO" source="Bogazici University Kandilli Observatory And Earthquake Research Institute (KOERI)" insttype="" lat="41.3867" lon="41.4458">
		<comp name="--.HNE" depth="0.0">
			<acc value="0.0168780958639083" flag="0"/>
			<vel value="0.00567452452108103" flag="0"/>
			<psa03 value="0.0261166050969018" flag="0"/>
			<psa10 value="0.00280405583306189" flag="0"/>
			<psa30 value="0.000905461336534283" flag="0"/>
		</comp>
		<comp name="--.HNN" depth="0.0">
			<acc value="0.0170637791696243" flag="0"/>
			<vel value="0.00502488569774748" flag="0"/>
			<psa03 value="0.0201773184191544" flag="0"/>
			<psa10 value="0.00363925350455959" flag="0"/>
			<psa30 value="0.000892063886522726" flag="0"/>
		</comp>
		<comp name="--.HNZ" depth="0.0">
			<acc value="0.00688573621061992" flag="0"/>
			<vel value="0.00256245031916936" flag="0"/>
			<psa03 value="0.0111018969045032" flag="0"/>
			<psa10 value="0.00331335082135736" flag="0"/>
			<psa30 value="0.000491339163393117" flag="0"/>
		</comp>
	</station>
</stationlist>
