<?xml version="1.0" encoding="UTF-8" standalone="yes"?>
<!DOCTYPE earthquake SYSTEM "stationlist.dtd">
<stationlist created="" xmlns="ch.ethz.sed.shakemap.usgs.xml">
  <station code="KARS" name="KARS" netid="KO" insttype="120s," lat="40.6152" lon="43.0937">
    <comp name="--.HHN">
      <acc value="0.0300742685" flag="0"/>
      <vel value="0.0140355283" flag="0"/>
      <psa03 value="0.0576234146" flag="0"/>
      <psa10 value="0.0139888212" flag="0"/>
      <psa30 value="0.0045898242" flag="0"/>
    </comp>
    <comp name="--.HHZ">
      <acc value="0.0195965619" flag="0"/>
      <vel value="0.0148360350" flag="0"/>
      <psa03 value="0.0505544134" flag="0"/>
      <psa10 value="0.0198276786" flag="0"/>
      <psa30 value="0.0024488501" flag="0"/>
    </comp>
    <comp name="--.HHE">
      <acc value="0.0279186238" flag="0"/>
      <vel value="0.0183576202" flag="0"/>
      <psa03 value="0.0862954132" flag="0"/>
      <psa10 value="0.0240555717" flag="0"/>
      <psa30 value="0.0031732135" flag="0"/>
    </comp>
  </station>
</stationlist>
