<?xml version="1.0" encoding="UTF-8" standalone="yes"?>
<!DOCTYPE earthquake SYSTEM "stationlist.dtd">
<stationlist created="" xmlns="ch.ethz.sed.shakemap.usgs.xml">
  <station code="ZKR" name="ZKR" netid="GE" insttype="STS-2/N" commtype="DIG" lat="35.1147" lon="26.2169">
    <comp name="--.HHN">
      <acc value="0.0099446083" flag="0"/>
      <vel value="0.0091130405" flag="0"/>
      <psa03 value="0.0303977461" flag="0"/>
      <psa10 value="0.0132613796" flag="0"/>
      <psa30 value="0.0021023704" flag="0"/>
    </comp>
    <comp name="--.HHZ">
      <acc value="0.0085173926" flag="0"/>
      <vel value="0.0051676264" flag="0"/>
      <psa03 value="0.0197477456" flag="0"/>
      <psa10 value="0.0072523129" flag="0"/>
      <psa30 value="0.0006992932" flag="0"/>
    </comp>
    <comp name="--.HHE">
      <acc value="0.0152898244" flag="0"/>
      <vel value="0.0137329523" flag="0"/>
      <psa03 value="0.0451101251" flag="0"/>
      <psa10 value="0.0239701734" flag="0"/>
      <psa30 value="0.0041022024" flag="0"/>
    </comp>
  </station>
  <station code="IMOD" name="IMOD" netid="HC" insttype="120" commtype="DIG" lat="34.9731" lon="24.7995">
    <comp name="--.HHN">
      <acc value="0.1945400493" flag="0"/>
      <vel value="0.1576794901" flag="0"/>
      <psa03 value="0.6443121411" flag="0"/>
      <psa10 value="0.1660391000" flag="0"/>
      <psa30 value="0.0066578846" flag="0"/>
    </comp>
    <comp name="--.HHZ">
      <acc value="0.0674076126" flag="0"/>
      <vel value="0.0439528779" flag="0"/>
      <psa03 value="0.2542047952" flag="0"/>
      <psa10 value="0.0431112799" flag="0"/>
      <psa30 value="0.0025298279" flag="0"/>
    </comp>
    <comp name="--.HHE">
      <acc value="0.1329866976" flag="0"/>
      <vel value="0.0958578040" flag="0"/>
      <psa03 value="0.4991078063" flag="0"/>
      <psa10 value="0.0955651185" flag="0"/>
      <psa30 value="0.0090308470" flag="0"/>
    </comp>
  </station>
  <station code="IPPL" name="IPPL" netid="HC" insttype="60" commtype="DIG" lat="35.3486" lon="24.4632">
    <comp name="--.HHE">
      <acc value="0.0000000000" flag="0"/>
      <vel value="-100.0000000000" flag="0"/>
      <psa03 value="0.0000000000" flag="0"/>
      <psa10 value="0.0000000000" flag="0"/>
      <psa30 value="0.0000000000" flag="0"/>
    </comp>
    <comp name="--.HHZ">
      <acc value="0.0175632755" flag="0"/>
      <vel value="0.0137555816" flag="0"/>
      <psa03 value="0.0485938320" flag="0"/>
      <psa10 value="0.0138307650" flag="0"/>
      <psa30 value="0.0019976139" flag="0"/>
    </comp>
    <comp name="--.HHN">
      <acc value="0.0000000000" flag="0"/>
      <vel value="-100.0000000000" flag="0"/>
      <psa03 value="0.0000000000" flag="0"/>
      <psa10 value="0.0000000000" flag="0"/>
      <psa30 value="0.0000000000" flag="0"/>
    </comp>
  </station>
  <station code="KNSS" name="KNSS" netid="HC" insttype="60" commtype="DIG" lat="35.3042" lon="25.1802">
    <comp name="--.HHZ">
      <acc value="0.0153278507" flag="0"/>
      <vel value="0.0104615727" flag="0"/>
      <psa03 value="0.0537645722" flag="0"/>
      <psa10 value="0.0160976791" flag="0"/>
      <psa30 value="0.0031686995" flag="0"/>
    </comp>
    <comp name="--.HHN">
      <acc value="0.0304404128" flag="0"/>
      <vel value="0.0252000474" flag="0"/>
      <psa03 value="0.0892480977" flag="0"/>
      <psa10 value="0.0304359992" flag="0"/>
      <psa30 value="0.0043573045" flag="0"/>
    </comp>
    <comp name="--.HHE">
      <acc value="0.0000000000" flag="0"/>
      <vel value="-100.0000000000" flag="0"/>
      <psa03 value="0.0000000000" flag="0"/>
      <psa10 value="0.0000000000" flag="0"/>
      <psa30 value="0.0000000000" flag="0"/>
    </comp>
  </station>
  <station code="STIA" name="STIA" netid="HC" insttype="120" commtype="DIG" lat="35.2021" lon="26.0909">
    <comp name="--.HHN">
      <acc value="0.0207472744" flag="0"/>
      <vel value="0.0186935160" flag="0"/>
      <psa03 value="0.0410407343" flag="0"/>
      <psa10 value="0.0200810056" flag="0"/>
      <psa30 value="0.0030361002" flag="0"/>
    </comp>
    <comp name="--.HHE">
      <acc value="0.0205413224" flag="0"/>
      <vel value="0.0252558136" flag="0"/>
      <psa03 value="0.0630156716" flag="0"/>
      <psa10 value="0.0432436429" flag="0"/>
      <psa30 value="0.0029805443" flag="0"/>
    </comp>
    <comp name="--.HHZ">
      <acc value="0.0169417401" flag="0"/>
      <vel value="0.0117818347" flag="0"/>
      <psa03 value="0.0426523033" flag="0"/>
      <psa10 value="0.0115391929" flag="0"/>
      <psa30 value="0.0017414467" flag="0"/>
    </comp>
  </station>
  <station code="TEFL" name="TEFL" netid="HC" insttype="GEOtiny," commtype="DIG" lat="35.0933" lon="25.1634">
    <comp name="--.HHN">
      <acc value="0.1240129460" flag="0"/>
      <vel value="0.0685599133" flag="0"/>
      <psa03 value="0.4908344446" flag="0"/>
      <psa10 value="0.0775523568" flag="0"/>
      <psa30 value="0.0067877429" flag="0"/>
    </comp>
    <comp name="--.HHZ">
      <acc value="0.0590618428" flag="0"/>
      <vel value="0.0377046774" flag="0"/>
      <psa03 value="0.2029496704" flag="0"/>
      <psa10 value="0.0412500873" flag="0"/>
      <psa30 value="0.0031466684" flag="0"/>
    </comp>
    <comp name="--.HHE">
      <acc value="0.1316772122" flag="0"/>
      <vel value="0.0644080464" flag="0"/>
      <psa03 value="0.3457517810" flag="0"/>
      <psa10 value="0.1039150145" flag="0"/>
      <psa30 value="0.0086542608" flag="0"/>
    </comp>
  </station>
  <station code="ARK1" name="ARK1" netid="HI" insttype="unknown" commtype="DIG" lat="35.1488" lon="25.2642">
    <comp name="--.HNE">
      <acc value="0.0800878226" flag="0"/>
      <vel value="0.0548326910" flag="0"/>
      <psa03 value="0.1869220639" flag="0"/>
      <psa10 value="0.1197760375" flag="0"/>
      <psa30 value="0.0083990076" flag="0"/>
    </comp>
    <comp name="--.HNZ">
      <acc value="0.0442896235" flag="0"/>
      <vel value="0.0307817142" flag="0"/>
      <psa03 value="0.1259302654" flag="0"/>
      <psa10 value="0.0479331226" flag="0"/>
      <psa30 value="0.0045027372" flag="0"/>
    </comp>
    <comp name="--.HNN">
      <acc value="0.0821794367" flag="0"/>
      <vel value="0.0647350727" flag="0"/>
      <psa03 value="0.1950273652" flag="0"/>
      <psa10 value="0.1295588096" flag="0"/>
      <psa30 value="0.0144238073" flag="0"/>
    </comp>
  </station>
  <station code="GOR1" name="GOR1" netid="HI" insttype="unknown" commtype="DIG" lat="35.0582" lon="24.9628">
    <comp name="--.HNZ">
      <acc value="0.0853153138" flag="0"/>
      <vel value="0.0622899524" flag="0"/>
      <psa03 value="0.3828117507" flag="0"/>
      <psa10 value="0.0634704383" flag="0"/>
      <psa30 value="0.0059260195" flag="0"/>
    </comp>
    <comp name="--.HNE">
      <acc value="0.1087607640" flag="0"/>
      <vel value="0.0891939041" flag="0"/>
      <psa03 value="0.4013724757" flag="0"/>
      <psa10 value="0.1651093107" flag="0"/>
      <psa30 value="0.0083292995" flag="0"/>
    </comp>
    <comp name="--.HNN">
      <acc value="0.1111843516" flag="0"/>
      <vel value="0.0748944630" flag="0"/>
      <psa03 value="0.4292894742" flag="0"/>
      <psa10 value="0.1144556928" flag="0"/>
      <psa30 value="0.0097038558" flag="0"/>
    </comp>
  </station>
  <station code="HER1" name="HER1" netid="HI" insttype="unknown" commtype="DIG" lat="35.3177" lon="25.1022">
    <comp name="--.HNE">
      <acc value="0.1037575805" flag="0"/>
      <vel value="0.1260949540" flag="0"/>
      <psa03 value="0.1958048984" flag="0"/>
      <psa10 value="0.2574573567" flag="0"/>
      <psa30 value="0.0177691186" flag="0"/>
    </comp>
    <comp name="--.HNN">
      <acc value="0.0834116454" flag="0"/>
      <vel value="0.1300285516" flag="0"/>
      <psa03 value="0.1826005957" flag="0"/>
      <psa10 value="0.3312229167" flag="0"/>
      <psa30 value="0.0133387021" flag="0"/>
    </comp>
    <comp name="--.HNZ">
      <acc value="0.0813378035" flag="0"/>
      <vel value="0.0961938984" flag="0"/>
      <psa03 value="0.1756239959" flag="0"/>
      <psa10 value="0.2021099807" flag="0"/>
      <psa30 value="0.0059469142" flag="0"/>
    </comp>
  </station>
  <station code="KTL1" name="KTL1" netid="HI" insttype="unknown" commtype="DIG" lat="35.2078" lon="25.3427">
    <comp name="--.HNN">
      <acc value="0.0348735490" flag="0"/>
      <vel value="0.0340724660" flag="0"/>
      <psa03 value="0.0987199336" flag="0"/>
      <psa10 value="0.0671250463" flag="0"/>
      <psa30 value="0.0044185513" flag="0"/>
    </comp>
    <comp name="--.HNE">
      <acc value="0.0575216062" flag="0"/>
      <vel value="0.0757029741" flag="0"/>
      <psa03 value="0.1065068179" flag="0"/>
      <psa10 value="0.1184871866" flag="0"/>
      <psa30 value="0.0067200207" flag="0"/>
    </comp>
    <comp name="--.HNZ">
      <acc value="0.0237393078" flag="0"/>
      <vel value="0.0063457627" flag="0"/>
      <psa03 value="0.0296368150" flag="0"/>
      <psa10 value="0.0080387885" flag="0"/>
      <psa30 value="0.0003553259" flag="0"/>
    </comp>
  </station>
  <station code="IACM" name="IACM" netid="HL" insttype="120" commtype="DIG" lat="35.3058" lon="25.0709">
    <comp name="--.HHN">
      <acc value="0.1100788264" flag="0"/>
      <vel value="0.1177663450" flag="0"/>
      <psa03 value="0.3267684818" flag="0"/>
      <psa10 value="0.2692653916" flag="0"/>
      <psa30 value="0.0142449496" flag="0"/>
    </comp>
    <comp name="--.HHE">
      <acc value="0.1074251412" flag="0"/>
      <vel value="0.1312400570" flag="0"/>
      <psa03 value="0.2962496798" flag="0"/>
      <psa10 value="0.2258636636" flag="0"/>
      <psa30 value="0.0133197290" flag="0"/>
    </comp>
    <comp name="--.HHZ">
      <acc value="0.0667546783" flag="0"/>
      <vel value="0.0616282218" flag="0"/>
      <psa03 value="0.1672309121" flag="0"/>
      <psa10 value="0.0888179662" flag="0"/>
      <psa30 value="0.0058498889" flag="0"/>
    </comp>
  </station>
  <station code="IDI" name="IDI" netid="HL" insttype="120" commtype="DIG" lat="35.288" lon="24.89">
    <comp name="--.HHE">
      <acc value="0.0316952662" flag="0"/>
      <vel value="0.0251517153" flag="0"/>
      <psa03 value="0.0797633590" flag="0"/>
      <psa10 value="0.0316634308" flag="0"/>
      <psa30 value="0.0020593065" flag="0"/>
    </comp>
    <comp name="--.HHN">
      <acc value="0.0216671658" flag="0"/>
      <vel value="0.0210290646" flag="0"/>
      <psa03 value="0.0627792669" flag="0"/>
      <psa10 value="0.0232230402" flag="0"/>
      <psa30 value="0.0020687117" flag="0"/>
    </comp>
    <comp name="--.HHZ">
      <acc value="0.0189910377" flag="0"/>
      <vel value="0.0184742425" flag="0"/>
      <psa03 value="0.0699892239" flag="0"/>
      <psa10 value="0.0250767953" flag="0"/>
      <psa30 value="0.0028683595" flag="0"/>
    </comp>
  </station>
  <station code="NPS" name="NPS" netid="HL" insttype="CMG3ESPC-120s" commtype="DIG" lat="35.2613" lon="25.6104">
    <comp name="--.HHN">
      <acc value="0.0261990576" flag="0"/>
      <vel value="0.0154398267" flag="0"/>
      <psa03 value="0.0479012408" flag="0"/>
      <psa10 value="0.0260405611" flag="0"/>
      <psa30 value="0.0019480840" flag="0"/>
    </comp>
    <comp name="--.HHE">
      <acc value="0.0070604037" flag="0"/>
      <vel value="0.0086236401" flag="0"/>
      <psa03 value="0.0184325556" flag="0"/>
      <psa10 value="0.0149721833" flag="0"/>
      <psa30 value="0.0014857710" flag="0"/>
    </comp>
    <comp name="--.HHZ">
      <acc value="0.0115948834" flag="0"/>
      <vel value="0.0117988155" flag="0"/>
      <psa03 value="0.0331713046" flag="0"/>
      <psa10 value="0.0180956592" flag="0"/>
      <psa30 value="0.0017110601" flag="0"/>
    </comp>
  </station>
  <station code="SIVA" name="SIVA" netid="HL" insttype="60" commtype="DIG" lat="35.0178" lon="24.812">
    <comp name="--.HHN">
      <acc value="0.1060246730" flag="0"/>
      <vel value="0.0943870145" flag="0"/>
      <psa03 value="0.3345246946" flag="0"/>
      <psa10 value="0.1246492603" flag="0"/>
      <psa30 value="0.0048243747" flag="0"/>
    </comp>
    <comp name="--.HHZ">
      <acc value="0.0940787245" flag="0"/>
      <vel value="0.0709233744" flag="0"/>
      <psa03 value="0.2458320532" flag="0"/>
      <psa10 value="0.0480728291" flag="0"/>
      <psa30 value="0.0041852853" flag="0"/>
    </comp>
    <comp name="--.HHE">
      <acc value="0.1615991083" flag="0"/>
      <vel value="0.1160506920" flag="0"/>
      <psa03 value="0.5968540579" flag="0"/>
      <psa10 value="0.2057418537" flag="0"/>
      <psa30 value="0.0084470701" flag="0"/>
    </comp>
  </station>
  <station code="IDI" name="IDI" netid="MN" insttype="" commtype="DIG" lat="35.288" lon="24.89">
    <comp name="--.HHE">
      <acc value="0.0319004002" flag="0"/>
      <vel value="0.0250992063" flag="0"/>
      <psa03 value="0.0810174374" flag="0"/>
      <psa10 value="0.0314131227" flag="0"/>
      <psa30 value="0.0020397984" flag="0"/>
    </comp>
    <comp name="--.HHZ">
      <acc value="0.0191864740" flag="0"/>
      <vel value="0.0183852353" flag="0"/>
      <psa03 value="0.0708771805" flag="0"/>
      <psa10 value="0.0248722660" flag="0"/>
      <psa30 value="0.0028359390" flag="0"/>
    </comp>
    <comp name="--.HHN">
      <acc value="0.0217818873" flag="0"/>
      <vel value="0.0209505405" flag="0"/>
      <psa03 value="0.0630026702" flag="0"/>
      <psa10 value="0.0230174519" flag="0"/>
      <psa30 value="0.0020438512" flag="0"/>
    </comp>
  </station>
</stationlist>
