<?xml version="1.0" encoding="UTF-8" standalone="yes"?>
<!DOCTYPE earthquake SYSTEM "stationlist.dtd">
<stationlist created="" xmlns="ch.ethz.sed.shakemap.usgs.xml">
  <station code="ZKR" name="ZKR" netid="GE" insttype="STS-2/N" commtype="DIG" lat="35.1147" lon="26.2169">
    <comp name="--.HHN">
      <acc value="0.0099446083" flag="0"/>
      <vel value="0.0091130405" flag="0"/>
      <psa03 value="0.0303977461" flag="0"/>
      <psa10 value="0.0132613796" flag="0"/>
      <psa30 value="0.0021023704" flag="0"/>
    </comp>
    <comp name="--.HHZ">
      <acc value="0.0085173926" flag="0"/>
      <vel value="0.0051676264" flag="0"/>
      <psa03 value="0.0197477456" flag="0"/>
      <psa10 value="0.0072523129" flag="0"/>
      <psa30 value="0.0006992932" flag="0"/>
    </comp>
    <comp name="--.HHE">
      <acc value="0.0152898244" flag="0"/>
      <vel value="0.0137329523" flag="0"/>
      <psa03 value="0.0451101251" flag="0"/>
      <psa10 value="0.0239701734" flag="0"/>
      <psa30 value="0.0041022024" flag="0"/>
    </comp>
  </station>
  <station code="IDI" name="IDI" netid="MN" insttype="" commtype="DIG" lat="35.288" lon="24.89">
    <comp name="--.HHE">
      <acc value="0.0319004002" flag="0"/>
      <vel value="0.0250992063" flag="0"/>
      <psa03 value="0.0810174374" flag="0"/>
      <psa10 value="0.0314131227" flag="0"/>
      <psa30 value="0.0020397984" flag="0"/>
    </comp>
    <comp name="--.HHZ">
      <acc value="0.0191864740" flag="0"/>
      <vel value="0.0183852353" flag="0"/>
      <psa03 value="0.0708771805" flag="0"/>
      <psa10 value="0.0248722660" flag="0"/>
      <psa30 value="0.0028359390" flag="0"/>
    </comp>
    <comp name="--.HHN">
      <acc value="0.0217818873" flag="0"/>
      <vel value="0.0209505405" flag="0"/>
      <psa03 value="0.0630026702" flag="0"/>
      <psa10 value="0.0230174519" flag="0"/>
      <psa30 value="0.0020438512" flag="0"/>
    </comp>
  </station>
</stationlist>
