<stationlist created="1778138341">
	<station code="MARCO" name="MARCO" netid="GE" source="GEOFON" insttype="" lat="40.29724" lon="15.80632">
		<comp name="--.HLE" depth="1.0">
			<acc value="0.00233805634582043" flag="0"/>
			<vel value="0.00189984891675869" flag="0"/>
			<psa03 value="0.00639093248250693" flag="0"/>
			<psa10 value="0.00217587656301731" flag="0"/>
			<psa30 value="0.000191871564716324" flag="0"/>
		</comp>
		<comp name="--.HLN" depth="1.0">
			<acc value="0.00275040052556924" flag="0"/>
			<vel value="0.0022142451619021" flag="0"/>
			<psa03 value="0.0110594774277525" flag="0"/>
			<psa10 value="0.00213904021653949" flag="0"/>
			<psa30 value="0.000333681948541502" flag="0"/>
		</comp>
		<comp name="--.HLZ" depth="1.0">
			<acc value="0.000614708750436354" flag="0"/>
			<vel value="0.000515927182930841" flag="0"/>
			<psa03 value="0.00199849371852516" flag="0"/>
			<psa10 value="0.000730014863808488" flag="0"/>
			<psa30 value="7.98858128764215e-05" flag="0"/>
		</comp>
	</station>
</stationlist>
