<?xml version="1.0" encoding="UTF-8" standalone="yes"?>
<!DOCTYPE earthquake SYSTEM "stationlist.dtd">
<stationlist created="" xmlns="ch.ethz.sed.shakemap.usgs.xml">
  <station code="AIO" name="AIO" netid="IV" insttype="" lat="37.9712" lon="15.233">
    <comp name="--.HHE">
      <acc value="0.0162224665" flag="0"/>
      <vel value="0.0081642785" flag="0"/>
      <psa03 value="0.0415694175" flag="0"/>
      <psa10 value="0.0055369772" flag="0"/>
      <psa30 value="0.0010031315" flag="0"/>
    </comp>
    <comp name="--.HHN">
      <acc value="0.0101075163" flag="0"/>
      <vel value="0.0041975211" flag="0"/>
      <psa03 value="0.0288441228" flag="0"/>
      <psa10 value="0.0023910229" flag="0"/>
      <psa30 value="0.0001601129" flag="0"/>
    </comp>
    <comp name="--.HHZ">
      <acc value="0.0095764020" flag="0"/>
      <vel value="0.0048524831" flag="0"/>
      <psa03 value="0.0178974474" flag="0"/>
      <psa10 value="0.0037614124" flag="0"/>
      <psa30 value="0.0003629924" flag="0"/>
    </comp>
  </station>
  <station code="CAR1" name="CAR1" netid="IV" insttype="" lat="39.2534" lon="16.2114">
    <comp name="--.HHE">
      <acc value="0.0388908473" flag="0"/>
      <vel value="0.0144758075" flag="0"/>
      <psa03 value="0.0938136834" flag="0"/>
      <psa10 value="0.0118131626" flag="0"/>
      <psa30 value="0.0005707164" flag="0"/>
    </comp>
    <comp name="--.HHN">
      <acc value="0.0469722312" flag="0"/>
      <vel value="0.0354800157" flag="0"/>
      <psa03 value="0.1296763030" flag="0"/>
      <psa10 value="0.0256896618" flag="0"/>
      <psa30 value="0.0018783776" flag="0"/>
    </comp>
    <comp name="--.HHZ">
      <acc value="0.0526756062" flag="0"/>
      <vel value="0.0337378668" flag="0"/>
      <psa03 value="0.1082442941" flag="0"/>
      <psa10 value="0.0378086129" flag="0"/>
      <psa30 value="0.0021297589" flag="0"/>
    </comp>
  </station>
  <station code="CELI" name="CELI" netid="IV" insttype="" lat="39.4027" lon="16.5088">
    <comp name="--.HHZ">
      <acc value="0.0343892035" flag="0"/>
      <vel value="0.0093280496" flag="0"/>
      <psa03 value="0.0412323245" flag="0"/>
      <psa10 value="0.0033250165" flag="0"/>
      <psa30 value="0.0003053744" flag="0"/>
    </comp>
    <comp name="--.HHE">
      <acc value="0.0141474700" flag="0"/>
      <vel value="0.0073919026" flag="0"/>
      <psa03 value="0.0386354961" flag="0"/>
      <psa10 value="0.0044075584" flag="0"/>
      <psa30 value="0.0007259774" flag="0"/>
    </comp>
    <comp name="--.HHN">
      <acc value="0.0146556143" flag="0"/>
      <vel value="0.0095272246" flag="0"/>
      <psa03 value="0.0440909413" flag="0"/>
      <psa10 value="0.0091189411" flag="0"/>
      <psa30 value="0.0010704165" flag="0"/>
    </comp>
  </station>
  <station code="CET2" name="CET2" netid="IV" insttype="" lat="39.5288" lon="15.9546">
    <comp name="--.HHE">
      <acc value="0.0817612593" flag="0"/>
      <vel value="0.0239672019" flag="0"/>
      <psa03 value="0.0547690413" flag="0"/>
      <psa10 value="0.0281743674" flag="0"/>
      <psa30 value="0.0012651809" flag="0"/>
    </comp>
    <comp name="--.HHN">
      <acc value="0.0900979054" flag="0"/>
      <vel value="0.0367824130" flag="0"/>
      <psa03 value="0.1362957690" flag="0"/>
      <psa10 value="0.0584404202" flag="0"/>
      <psa30 value="0.0024763024" flag="0"/>
    </comp>
    <comp name="--.HHZ">
      <acc value="0.0661474175" flag="0"/>
      <vel value="0.0170605658" flag="0"/>
      <psa03 value="0.0634283598" flag="0"/>
      <psa10 value="0.0107259138" flag="0"/>
      <psa30 value="0.0007174362" flag="0"/>
    </comp>
  </station>
  <station code="FERC" name="FERC" netid="IV" insttype="" lat="38.4527" lon="16.1281">
    <comp name="--.HNE">
      <acc value="0.3949671668" flag="0"/>
      <vel value="0.1067051546" flag="0"/>
      <psa03 value="0.4861373589" flag="0"/>
      <psa10 value="0.0170945078" flag="0"/>
      <psa30 value="0.0016557032" flag="0"/>
    </comp>
    <comp name="--.HNZ">
      <acc value="0.6346540151" flag="0"/>
      <vel value="0.2185494662" flag="0"/>
      <psa03 value="0.6765012459" flag="0"/>
      <psa10 value="0.0361893729" flag="0"/>
      <psa30 value="0.0035260079" flag="0"/>
    </comp>
    <comp name="--.HNN">
      <acc value="0.4676934373" flag="0"/>
      <vel value="0.1336368405" flag="0"/>
      <psa03 value="0.8479873075" flag="0"/>
      <psa10 value="0.0255334316" flag="0"/>
      <psa30 value="0.0020719832" flag="0"/>
    </comp>
  </station>
  <station code="GIZZ" name="GIZZ" netid="IV" insttype="" lat="38.9798" lon="16.2078">
    <comp name="--.HHE">
      <acc value="0.1269840409" flag="0"/>
      <vel value="0.0366938983" flag="0"/>
      <psa03 value="0.1204946415" flag="0"/>
      <psa10 value="0.0098225083" flag="0"/>
      <psa30 value="0.0008809294" flag="0"/>
    </comp>
    <comp name="--.HHN">
      <acc value="0.1638751635" flag="0"/>
      <vel value="0.0373838807" flag="0"/>
      <psa03 value="0.1248596945" flag="0"/>
      <psa10 value="0.0117439755" flag="0"/>
      <psa30 value="0.0009234004" flag="0"/>
    </comp>
    <comp name="--.HHZ">
      <acc value="0.1210260283" flag="0"/>
      <vel value="0.0151737095" flag="0"/>
      <psa03 value="0.0678063901" flag="0"/>
      <psa10 value="0.0073538733" flag="0"/>
      <psa30 value="0.0003721071" flag="0"/>
    </comp>
  </station>
  <station code="GRIS" name="GRIS" netid="IV" insttype="" lat="39.7405" lon="15.8531">
    <comp name="--.HNE">
      <acc value="0.0177195364" flag="0"/>
      <vel value="0.0063791356" flag="0"/>
      <psa03 value="0.0409536958" flag="0"/>
      <psa10 value="0.0070837710" flag="0"/>
      <psa30 value="0.0004624100" flag="0"/>
    </comp>
    <comp name="--.HNN">
      <acc value="0.0205211827" flag="0"/>
      <vel value="0.0068957337" flag="0"/>
      <psa03 value="0.0228415163" flag="0"/>
      <psa10 value="0.0075707804" flag="0"/>
      <psa30 value="0.0004825966" flag="0"/>
    </comp>
    <comp name="--.HNZ">
      <acc value="0.0106580890" flag="0"/>
      <vel value="0.0036736264" flag="0"/>
      <psa03 value="0.0236197824" flag="0"/>
      <psa10 value="0.0031964544" flag="0"/>
      <psa30 value="0.0001617267" flag="0"/>
    </comp>
  </station>
  <station code="IACL" name="IACL" netid="IV" insttype="" lat="38.533" lon="14.355">
    <comp name="--.HHN">
      <acc value="0.0226090993" flag="0"/>
      <vel value="0.0019205946" flag="0"/>
      <psa03 value="0.0102326454" flag="0"/>
      <psa10 value="0.0029224509" flag="0"/>
      <psa30 value="0.0004581884" flag="0"/>
    </comp>
    <comp name="--.HHZ">
      <acc value="0.0223963681" flag="0"/>
      <vel value="0.0018464706" flag="0"/>
      <psa03 value="0.0083710104" flag="0"/>
      <psa10 value="0.0016036176" flag="0"/>
      <psa30 value="0.0001814453" flag="0"/>
    </comp>
    <comp name="--.HHE">
      <acc value="0.0031501509" flag="0"/>
      <vel value="0.0020725563" flag="0"/>
      <psa03 value="0.0092908815" flag="0"/>
      <psa10 value="0.0036355367" flag="0"/>
      <psa30 value="0.0003234599" flag="0"/>
    </comp>
  </station>
  <station code="IFIL" name="IFIL" netid="IV" insttype="" lat="38.5642" lon="14.5753">
    <comp name="--.HHE">
      <acc value="0.0189787916" flag="0"/>
      <vel value="0.0123747284" flag="0"/>
      <psa03 value="0.0727490494" flag="0"/>
      <psa10 value="0.0192261092" flag="0"/>
      <psa30 value="0.0010775793" flag="0"/>
    </comp>
    <comp name="--.HHN">
      <acc value="0.0075180382" flag="0"/>
      <vel value="0.0050392010" flag="0"/>
      <psa03 value="0.0279000057" flag="0"/>
      <psa10 value="0.0076066725" flag="0"/>
      <psa30 value="0.0007075187" flag="0"/>
    </comp>
    <comp name="--.HHZ">
      <acc value="0.0103233608" flag="0"/>
      <vel value="0.0047789973" flag="0"/>
      <psa03 value="0.0502792467" flag="0"/>
      <psa10 value="0.0070145018" flag="0"/>
      <psa30 value="0.0003451771" flag="0"/>
    </comp>
  </station>
  <station code="ILOS" name="ILOS" netid="IV" insttype="" lat="38.4457" lon="14.9483">
    <comp name="--.HHE">
      <acc value="0.0252526497" flag="0"/>
      <vel value="0.0139238203" flag="0"/>
      <psa03 value="0.0774292038" flag="0"/>
      <psa10 value="0.0090214231" flag="0"/>
      <psa30 value="0.0006699727" flag="0"/>
    </comp>
    <comp name="--.HHN">
      <acc value="0.0461739260" flag="0"/>
      <vel value="0.0202998501" flag="0"/>
      <psa03 value="0.1247392169" flag="0"/>
      <psa10 value="0.0168426235" flag="0"/>
      <psa30 value="0.0011341043" flag="0"/>
    </comp>
    <comp name="--.HHZ">
      <acc value="0.0253583236" flag="0"/>
      <vel value="0.0147288754" flag="0"/>
      <psa03 value="0.0930898963" flag="0"/>
      <psa10 value="0.0061558062" flag="0"/>
      <psa30 value="0.0006161289" flag="0"/>
    </comp>
  </station>
  <station code="IST3" name="IST3" netid="IV" insttype="" lat="38.7992" lon="15.2304">
    <comp name="--.HHE">
      <acc value="0.0526194319" flag="0"/>
      <vel value="0.0094562990" flag="0"/>
      <psa03 value="0.0348856494" flag="0"/>
      <psa10 value="0.0056043390" flag="0"/>
      <psa30 value="0.0007772621" flag="0"/>
    </comp>
    <comp name="--.HHN">
      <acc value="0.0513260496" flag="0"/>
      <vel value="0.0110693068" flag="0"/>
      <psa03 value="0.0666490367" flag="0"/>
      <psa10 value="0.0061042676" flag="0"/>
      <psa30 value="0.0007607852" flag="0"/>
    </comp>
    <comp name="--.HHZ">
      <acc value="0.0313256181" flag="0"/>
      <vel value="0.0059747840" flag="0"/>
      <psa03 value="0.0255918590" flag="0"/>
      <psa10 value="0.0030487309" flag="0"/>
      <psa30 value="0.0005629654" flag="0"/>
    </comp>
  </station>
  <station code="IVPL" name="IVPL" netid="IV" insttype="" lat="38.3763" lon="14.9801">
    <comp name="--.HHN">
      <acc value="0.0144212879" flag="0"/>
      <vel value="0.0056895862" flag="0"/>
      <psa03 value="0.0321311440" flag="0"/>
      <psa10 value="0.0029126026" flag="0"/>
      <psa30 value="0.0002455707" flag="0"/>
    </comp>
    <comp name="--.HHZ">
      <acc value="0.0114991546" flag="0"/>
      <vel value="0.0039559367" flag="0"/>
      <psa03 value="0.0291819899" flag="0"/>
      <psa10 value="0.0037192867" flag="0"/>
      <psa30 value="0.0004970140" flag="0"/>
    </comp>
    <comp name="--.HHE">
      <acc value="0.0155291757" flag="0"/>
      <vel value="0.0053858494" flag="0"/>
      <psa03 value="0.0424927223" flag="0"/>
      <psa10 value="0.0036631393" flag="0"/>
      <psa30 value="0.0002264488" flag="0"/>
    </comp>
  </station>
  <station code="IVUG" name="IVUG" netid="IV" insttype="" lat="38.396" lon="14.986">
    <comp name="--.HHE">
      <acc value="0.0116788117" flag="0"/>
      <vel value="0.0068703644" flag="0"/>
      <psa03 value="0.0268412599" flag="0"/>
      <psa10 value="0.0075885988" flag="0"/>
      <psa30 value="0.0009586881" flag="0"/>
    </comp>
    <comp name="--.HHN">
      <acc value="0.0101652557" flag="0"/>
      <vel value="0.0041381310" flag="0"/>
      <psa03 value="0.0305552924" flag="0"/>
      <psa10 value="0.0013153119" flag="0"/>
      <psa30 value="0.0001848076" flag="0"/>
    </comp>
    <comp name="--.HHZ">
      <acc value="0.0079374818" flag="0"/>
      <vel value="0.0028178833" flag="0"/>
      <psa03 value="0.0168661843" flag="0"/>
      <psa10 value="0.0022383906" flag="0"/>
      <psa30 value="0.0003686666" flag="0"/>
    </comp>
  </station>
  <station code="JOPP" name="JOPP" netid="IV" insttype="" lat="38.6068" lon="15.8856">
    <comp name="--.HHZ">
      <acc value="0.0967203720" flag="0"/>
      <vel value="0.0152469647" flag="0"/>
      <psa03 value="0.0927784827" flag="0"/>
      <psa10 value="0.0051788053" flag="0"/>
      <psa30 value="0.0006565216" flag="0"/>
    </comp>
    <comp name="--.HHN">
      <acc value="0.0836401399" flag="0"/>
      <vel value="0.0192642019" flag="0"/>
      <psa03 value="0.1054326918" flag="0"/>
      <psa10 value="0.0054599366" flag="0"/>
      <psa30 value="0.0005213596" flag="0"/>
    </comp>
    <comp name="--.HHE">
      <acc value="0.1450338124" flag="0"/>
      <vel value="0.0201679446" flag="0"/>
      <psa03 value="0.0417823141" flag="0"/>
      <psa10 value="0.0060057410" flag="0"/>
      <psa30 value="0.0004469962" flag="0"/>
    </comp>
  </station>
  <station code="MILZ" name="MILZ" netid="IV" insttype="" lat="38.2713" lon="15.2313">
    <comp name="--.HHE">
      <acc value="0.1164802887" flag="0"/>
      <vel value="0.0851026806" flag="0"/>
      <psa03 value="0.2308245823" flag="0"/>
      <psa10 value="0.1042381430" flag="0"/>
      <psa30 value="0.0059550767" flag="0"/>
    </comp>
    <comp name="--.HHN">
      <acc value="0.0584857090" flag="0"/>
      <vel value="0.0435672544" flag="0"/>
      <psa03 value="0.1949443547" flag="0"/>
      <psa10 value="0.0235835670" flag="0"/>
      <psa30 value="0.0026452072" flag="0"/>
    </comp>
    <comp name="--.HHZ">
      <acc value="0.0544509634" flag="0"/>
      <vel value="0.0328530695" flag="0"/>
      <psa03 value="0.1226307672" flag="0"/>
      <psa10 value="0.0271861985" flag="0"/>
      <psa30 value="0.0020988663" flag="0"/>
    </comp>
  </station>
  <station code="MMN" name="MMN" netid="IV" insttype="" lat="39.891" lon="15.9904">
    <comp name="--.HHE">
      <acc value="0.0139950717" flag="0"/>
      <vel value="0.0053442056" flag="0"/>
      <psa03 value="0.0175950719" flag="0"/>
      <psa10 value="0.0027416901" flag="0"/>
      <psa30 value="0.0002809969" flag="0"/>
    </comp>
    <comp name="--.HHN">
      <acc value="0.0217202807" flag="0"/>
      <vel value="0.0078712578" flag="0"/>
      <psa03 value="0.0526785310" flag="0"/>
      <psa10 value="0.0038039941" flag="0"/>
      <psa30 value="0.0002931118" flag="0"/>
    </comp>
  </station>
  <station code="MPNC" name="MPNC" netid="IV" insttype="" lat="38.1465" lon="15.3528">
    <comp name="--.HHE">
      <acc value="0.0372535735" flag="0"/>
      <vel value="0.0221162518" flag="0"/>
      <psa03 value="0.0789160518" flag="0"/>
      <psa10 value="0.0242458619" flag="0"/>
      <psa30 value="0.0014896301" flag="0"/>
    </comp>
    <comp name="--.HHN">
      <acc value="0.0153351323" flag="0"/>
      <vel value="0.0051820050" flag="0"/>
      <psa03 value="0.0374041481" flag="0"/>
      <psa10 value="0.0034195811" flag="0"/>
      <psa30 value="0.0002314075" flag="0"/>
    </comp>
    <comp name="--.HHZ">
      <acc value="0.0159928464" flag="0"/>
      <vel value="0.0084327527" flag="0"/>
      <psa03 value="0.0356187119" flag="0"/>
      <psa10 value="0.0095933040" flag="0"/>
      <psa30 value="0.0004277891" flag="0"/>
    </comp>
  </station>
  <station code="MSRU" name="MSRU" netid="IV" insttype="" lat="38.2639" lon="15.5083">
    <comp name="--.HHE">
      <acc value="0.0400212300" flag="0"/>
      <vel value="0.0178028244" flag="0"/>
      <psa03 value="0.1294607655" flag="0"/>
      <psa10 value="0.0117323071" flag="0"/>
      <psa30 value="0.0010961422" flag="0"/>
    </comp>
    <comp name="--.HHN">
      <acc value="0.0337150624" flag="0"/>
      <vel value="0.0158711622" flag="0"/>
      <psa03 value="0.0885649725" flag="0"/>
      <psa10 value="0.0138490332" flag="0"/>
      <psa30 value="0.0012217846" flag="0"/>
    </comp>
    <comp name="--.HHZ">
      <acc value="0.0256494520" flag="0"/>
      <vel value="0.0094193610" flag="0"/>
      <psa03 value="0.0587610648" flag="0"/>
      <psa10 value="0.0071330734" flag="0"/>
      <psa30 value="0.0003772157" flag="0"/>
    </comp>
  </station>
  <station code="MTTG" name="MTTG" netid="IV" insttype="" lat="38.0031" lon="15.6999">
    <comp name="--.HHE">
      <acc value="0.0156164043" flag="0"/>
      <vel value="0.0082226231" flag="0"/>
      <psa03 value="0.0436519009" flag="0"/>
      <psa10 value="0.0102288439" flag="0"/>
      <psa30 value="0.0007705334" flag="0"/>
    </comp>
    <comp name="--.HHN">
      <acc value="0.0212775068" flag="0"/>
      <vel value="0.0170694689" flag="0"/>
      <psa03 value="0.0572367703" flag="0"/>
      <psa10 value="0.0170849518" flag="0"/>
      <psa30 value="0.0025435435" flag="0"/>
    </comp>
    <comp name="--.HHZ">
      <acc value="0.0364418175" flag="0"/>
      <vel value="0.0121312859" flag="0"/>
      <psa03 value="0.0406797892" flag="0"/>
      <psa10 value="0.0077039819" flag="0"/>
      <psa30 value="0.0006886895" flag="0"/>
    </comp>
  </station>
  <station code="NOV" name="NOV" netid="IV" insttype="" lat="38.0286" lon="15.1356">
    <comp name="--.HHE">
      <acc value="0.0401143507" flag="0"/>
      <vel value="0.0155495543" flag="0"/>
      <psa03 value="0.1405884378" flag="0"/>
      <psa10 value="0.0078342266" flag="0"/>
      <psa30 value="0.0005161565" flag="0"/>
    </comp>
    <comp name="--.HHN">
      <acc value="0.0303056814" flag="0"/>
      <vel value="0.0176281467" flag="0"/>
      <psa03 value="0.1116006700" flag="0"/>
      <psa10 value="0.0103198924" flag="0"/>
      <psa30 value="0.0006154020" flag="0"/>
    </comp>
    <comp name="--.HHZ">
      <acc value="0.0494243040" flag="0"/>
      <vel value="0.0240262360" flag="0"/>
      <psa03 value="0.0942836488" flag="0"/>
      <psa10 value="0.0316379543" flag="0"/>
      <psa30 value="0.0013233457" flag="0"/>
    </comp>
  </station>
  <station code="PIPA" name="PIPA" netid="IV" insttype="" lat="39.4851" lon="16.8158">
    <comp name="--.HHE">
      <acc value="0.0228530677" flag="0"/>
      <vel value="0.0088890122" flag="0"/>
      <psa03 value="0.0447566532" flag="0"/>
      <psa10 value="0.0088051810" flag="0"/>
      <psa30 value="0.0004795227" flag="0"/>
    </comp>
    <comp name="--.HHN">
      <acc value="0.0176503814" flag="0"/>
      <vel value="0.0060893899" flag="0"/>
      <psa03 value="0.0301572417" flag="0"/>
      <psa10 value="0.0069816492" flag="0"/>
      <psa30 value="0.0006640392" flag="0"/>
    </comp>
    <comp name="--.HHZ">
      <acc value="0.0316168006" flag="0"/>
      <vel value="0.0057342055" flag="0"/>
      <psa03 value="0.0208784101" flag="0"/>
      <psa10 value="0.0028383391" flag="0"/>
      <psa30 value="0.0002436944" flag="0"/>
    </comp>
  </station>
  <station code="PLAC" name="PLAC" netid="IV" insttype="" lat="38.4494" lon="16.4383">
    <comp name="--.HHE">
      <acc value="0.1462626410" flag="0"/>
      <vel value="0.0261410397" flag="0"/>
      <psa03 value="0.0653107601" flag="0"/>
      <psa10 value="0.0054917736" flag="0"/>
      <psa30 value="0.0006583130" flag="0"/>
    </comp>
    <comp name="--.HHN">
      <acc value="0.0362273459" flag="0"/>
      <vel value="0.0062369040" flag="0"/>
      <psa03 value="0.0334496910" flag="0"/>
      <psa10 value="0.0043469124" flag="0"/>
      <psa30 value="0.0003057066" flag="0"/>
    </comp>
    <comp name="--.HHZ">
      <acc value="0.0502385107" flag="0"/>
      <vel value="0.0095107252" flag="0"/>
      <psa03 value="0.0528917020" flag="0"/>
      <psa10 value="0.0055738237" flag="0"/>
      <psa30 value="0.0004406480" flag="0"/>
    </comp>
  </station>
  <station code="SELL" name="SELL" netid="IV" insttype="" lat="38.983" lon="16.6279">
    <comp name="--.HHE">
      <acc value="0.0078281563" flag="0"/>
      <vel value="0.0032339106" flag="0"/>
      <psa03 value="0.0268197702" flag="0"/>
      <psa10 value="0.0048682826" flag="0"/>
      <psa30 value="0.0001690140" flag="0"/>
    </comp>
    <comp name="--.HHN">
      <acc value="0.0111520866" flag="0"/>
      <vel value="0.0037948044" flag="0"/>
      <psa03 value="0.0182871684" flag="0"/>
      <psa10 value="0.0050511286" flag="0"/>
      <psa30 value="0.0003740104" flag="0"/>
    </comp>
    <comp name="--.HHZ">
      <acc value="0.0244994494" flag="0"/>
      <vel value="0.0044152247" flag="0"/>
      <psa03 value="0.0120109052" flag="0"/>
      <psa10 value="0.0022582592" flag="0"/>
      <psa30 value="0.0001645730" flag="0"/>
    </comp>
  </station>
