<?xml version="1.0" encoding="UTF-8" standalone="yes"?>
<!DOCTYPE earthquake SYSTEM "stationlist.dtd">
<stationlist created="" xmlns="ch.ethz.sed.shakemap.usgs.xml">
  <station code="AGRP" name="AGRP" netid="CL" insttype="CMG40-T" lat="38.3959" lon="21.7228">
    <comp name="00.HHE">
      <acc value="0.0117184116" flag="0"/>
      <vel value="0.0051010512" flag="0"/>
      <psa03 value="0.0252557666" flag="0"/>
      <psa10 value="0.0025331314" flag="0"/>
      <psa30 value="0.0002221724" flag="0"/>
    </comp>
    <comp name="00.HHN">
      <acc value="0.0081710891" flag="0"/>
      <vel value="0.0034561483" flag="0"/>
      <psa03 value="0.0221713565" flag="0"/>
      <psa10 value="0.0022573993" flag="0"/>
      <psa30 value="0.0001380125" flag="0"/>
    </comp>
    <comp name="00.HHZ">
      <acc value="0.0068787116" flag="0"/>
      <vel value="0.0022413395" flag="0"/>
      <psa03 value="0.0153120707" flag="0"/>
      <psa10 value="0.0012007323" flag="0"/>
      <psa30 value="0.0001133501" flag="0"/>
    </comp>
  </station>
  <station code="MG02" name="MG02" netid="CL" insttype="TRILLIUM-40" lat="38.415" lon="21.947">
    <comp name="02.HHE">
      <acc value="0.0488841685" flag="0"/>
      <vel value="0.0184671009" flag="0"/>
      <psa03 value="0.1652427404" flag="0"/>
      <psa10 value="0.0061157731" flag="0"/>
      <psa30 value="0.0005219191" flag="0"/>
    </comp>
    <comp name="02.HHN">
      <acc value="0.0408719311" flag="0"/>
      <vel value="0.0145907793" flag="0"/>
      <psa03 value="0.1516131932" flag="0"/>
      <psa10 value="0.0043085879" flag="0"/>
      <psa30 value="0.0003257719" flag="0"/>
    </comp>
    <comp name="02.HHZ">
      <acc value="0.0358637712" flag="0"/>
      <vel value="0.0126183917" flag="0"/>
      <psa03 value="0.0904530734" flag="0"/>
      <psa10 value="0.0036804972" flag="0"/>
      <psa30 value="0.0002263726" flag="0"/>
    </comp>
  </station>
  <station code="MG04" name="MG04" netid="CL" insttype="TRILLIUM-40" lat="38.4142" lon="21.9481">
    <comp name="04.HHE">
      <acc value="0.0733112090" flag="0"/>
      <vel value="0.0225649960" flag="0"/>
      <psa03 value="0.1504436373" flag="0"/>
      <psa10 value="0.0056714947" flag="0"/>
      <psa30 value="0.0005312128" flag="0"/>
    </comp>
    <comp name="04.HHN">
      <acc value="0.0718136197" flag="0"/>
      <vel value="0.0202260491" flag="0"/>
      <psa03 value="0.0920294266" flag="0"/>
      <psa10 value="0.0039203813" flag="0"/>
      <psa30 value="0.0003500629" flag="0"/>
    </comp>
    <comp name="04.HHZ">
      <acc value="0.0430402879" flag="0"/>
      <vel value="0.0108062725" flag="0"/>
      <psa03 value="0.0413367099" flag="0"/>
      <psa10 value="0.0019674041" flag="0"/>
      <psa30 value="0.0002282934" flag="0"/>
    </comp>
  </station>
  <station code="PSAM" name="PSAM" netid="CL" insttype="CMG40-T" lat="38.3218" lon="22.1842">
    <comp name="00.HHE">
      <acc value="0.0242912784" flag="0"/>
      <vel value="0.0077436083" flag="0"/>
      <psa03 value="0.0352164435" flag="0"/>
      <psa10 value="0.0053270780" flag="0"/>
      <psa30 value="0.0003912169" flag="0"/>
    </comp>
    <comp name="00.HHN">
      <acc value="0.0208812270" flag="0"/>
      <vel value="0.0069997281" flag="0"/>
      <psa03 value="0.0313798377" flag="0"/>
      <psa10 value="0.0034581861" flag="0"/>
      <psa30 value="0.0002808375" flag="0"/>
    </comp>
    <comp name="00.HHZ">
      <acc value="0.0528609874" flag="0"/>
      <vel value="0.0129044543" flag="0"/>
      <psa03 value="0.0316316358" flag="0"/>
      <psa10 value="0.0033869073" flag="0"/>
      <psa30 value="0.0001976449" flag="0"/>
    </comp>
  </station>
  <station code="ROD3" name="ROD3" netid="CL" insttype="CMG40-T" lat="38.3081" lon="21.892">
    <comp name="00.HHE">
      <acc value="0.0664948373" flag="0"/>
      <vel value="0.0226443101" flag="0"/>
      <psa03 value="0.1164163635" flag="0"/>
      <psa10 value="0.0060170192" flag="0"/>
      <psa30 value="0.0006373201" flag="0"/>
    </comp>
    <comp name="00.HHN">
      <acc value="0.0550871785" flag="0"/>
      <vel value="0.0189404038" flag="0"/>
      <psa03 value="0.2186825077" flag="0"/>
      <psa10 value="0.0068763197" flag="0"/>
      <psa30 value="0.0004363420" flag="0"/>
    </comp>
    <comp name="00.HHZ">
      <acc value="0.0304998251" flag="0"/>
      <vel value="0.0090195461" flag="0"/>
      <psa03 value="0.0471849852" flag="0"/>
      <psa10 value="0.0042074672" flag="0"/>
      <psa30 value="0.0001976323" flag="0"/>
    </comp>
  </station>
  <station code="TRIZ" name="TRIZ" netid="CL" insttype="STS-2" lat="38.3654" lon="22.0727">
    <comp name="00.HH2">
      <acc value="0.0444369969" flag="0"/>
      <vel value="0.0123560869" flag="0"/>
      <psa03 value="0.0771641870" flag="0"/>
      <psa10 value="0.0033964708" flag="0"/>
      <psa30 value="0.0002898952" flag="0"/>
    </comp>
    <comp name="00.HH3">
      <acc value="0.0449117439" flag="0"/>
      <vel value="0.0155095580" flag="0"/>
      <psa03 value="0.1014695618" flag="0"/>
      <psa10 value="0.0069563303" flag="0"/>
      <psa30 value="0.0004426009" flag="0"/>
    </comp>
    <comp name="00.HHZ">
      <acc value="0.0493826137" flag="0"/>
      <vel value="0.0100742172" flag="0"/>
      <psa03 value="0.0271328792" flag="0"/>
      <psa10 value="0.0023640597" flag="0"/>
      <psa30 value="0.0001687472" flag="0"/>
    </comp>
  </station>
  <station code="ACOR" name="ACOR" netid="HA" insttype="30" lat="37.8902" lon="22.8692">
    <comp name="--.HHN">
      <acc value="0.0589669126" flag="0"/>
      <vel value="0.0179655577" flag="0"/>
      <psa03 value="0.0904311295" flag="0"/>
      <psa10 value="0.0169400260" flag="0"/>
      <psa30 value="0.0015074147" flag="0"/>
    </comp>
    <comp name="--.HHZ">
      <acc value="0.0131600575" flag="0"/>
      <vel value="0.0038692005" flag="0"/>
      <psa03 value="0.0208970121" flag="0"/>
      <psa10 value="0.0021198733" flag="0"/>
      <psa30 value="0.0002312118" flag="0"/>
    </comp>
    <comp name="--.HHE">
      <acc value="0.0182969037" flag="0"/>
      <vel value="0.0048678245" flag="0"/>
      <psa03 value="0.0195760831" flag="0"/>
      <psa10 value="0.0028991692" flag="0"/>
      <psa30 value="0.0002528356" flag="0"/>
    </comp>
  </station>
  <station code="AIGS" name="AIGS" netid="HA" insttype="DC" lat="38.25" lon="22.0878">
    <comp name="--.HNE">
      <acc value="0.1005072906" flag="0"/>
      <vel value="0.0272716284" flag="0"/>
      <psa03 value="0.0941338548" flag="0"/>
      <psa10 value="0.0053170740" flag="0"/>
      <psa30 value="0.0007425068" flag="0"/>
    </comp>
    <comp name="--.HNZ">
      <acc value="0.0940216676" flag="0"/>
      <vel value="0.0168032156" flag="0"/>
      <psa03 value="0.0457023149" flag="0"/>
      <psa10 value="0.0050228046" flag="0"/>
      <psa30 value="0.0005789720" flag="0"/>
    </comp>
    <comp name="--.HNN">
      <acc value="0.0605460077" flag="0"/>
      <vel value="0.0165489161" flag="0"/>
      <psa03 value="0.0842056883" flag="0"/>
      <psa10 value="0.0056480741" flag="0"/>
      <psa30 value="0.0005291407" flag="0"/>
    </comp>
  </station>
  <station code="ATAL" name="ATAL" netid="HA" insttype="120" lat="38.6926" lon="23.0213">
    <comp name="--.HHE">
      <acc value="0.0690200320" flag="0"/>
      <vel value="0.0306471525" flag="0"/>
      <psa03 value="0.1045142314" flag="0"/>
      <psa10 value="0.0064571239" flag="0"/>
      <psa30 value="0.0005640055" flag="0"/>
    </comp>
    <comp name="--.HHN">
      <acc value="0.0676595876" flag="0"/>
      <vel value="0.0189093490" flag="0"/>
      <psa03 value="0.0553859297" flag="0"/>
      <psa10 value="0.0070746673" flag="0"/>
      <psa30 value="0.0005577340" flag="0"/>
    </comp>
    <comp name="--.HHZ">
      <acc value="0.0011277139" flag="0"/>
      <vel value="0.0003011881" flag="0"/>
      <psa03 value="0.0009562205" flag="0"/>
      <psa10 value="0.0000452653" flag="0"/>
      <psa30 value="0.0000041240" flag="0"/>
    </comp>
  </station>
  <station code="AXAR" name="AXAR" netid="HA" insttype="30" lat="38.7664" lon="22.659">
    <comp name="--.HHZ">
      <acc value="0.0051595006" flag="0"/>
      <vel value="0.0020970008" flag="0"/>
      <psa03 value="0.0113172007" flag="0"/>
      <psa10 value="0.0009643210" flag="0"/>
      <psa30 value="0.0000712757" flag="0"/>
    </comp>
    <comp name="--.HHN">
      <acc value="0.0149226816" flag="0"/>
      <vel value="0.0060824191" flag="0"/>
      <psa03 value="0.0270051306" flag="0"/>
      <psa10 value="0.0027941999" flag="0"/>
      <psa30 value="0.0002084562" flag="0"/>
    </comp>
    <comp name="--.HHE">
      <acc value="0.0128828068" flag="0"/>
      <vel value="0.0049083485" flag="0"/>
      <psa03 value="0.0223202701" flag="0"/>
      <psa10 value="0.0013863254" flag="0"/>
      <psa30 value="0.0001408339" flag="0"/>
    </comp>
  </station>
  <station code="DOMV" name="DOMV" netid="HA" insttype="60" lat="38.2569" lon="22.9795">
    <comp name="--.HHN">
      <acc value="0.1094606128" flag="0"/>
      <vel value="0.0208346340" flag="0"/>
      <psa03 value="0.0494702303" flag="0"/>
      <psa10 value="0.0036954357" flag="0"/>
      <psa30 value="0.0002883332" flag="0"/>
    </comp>
    <comp name="--.HHE">
      <acc value="0.1533440662" flag="0"/>
      <vel value="0.0195665795" flag="0"/>
      <psa03 value="0.0955222027" flag="0"/>
      <psa10 value="0.0032503281" flag="0"/>
      <psa30 value="0.0003628619" flag="0"/>
    </comp>
    <comp name="--.HHZ">
      <acc value="0.1251557307" flag="0"/>
      <vel value="0.0149034419" flag="0"/>
      <psa03 value="0.0303430556" flag="0"/>
      <psa10 value="0.0017802651" flag="0"/>
      <psa30 value="0.0002039293" flag="0"/>
    </comp>
  </station>
  <station code="KALE" name="KALE" netid="HA" insttype="40," lat="38.3911" lon="22.1398">
    <comp name="--.HHE">
      <acc value="0.0582674615" flag="0"/>
      <vel value="0.0201221981" flag="0"/>
      <psa03 value="0.1189352267" flag="0"/>
      <psa10 value="0.0068876264" flag="0"/>
      <psa30 value="0.0005098636" flag="0"/>
    </comp>
    <comp name="--.HHZ">
      <acc value="0.0377893009" flag="0"/>
      <vel value="0.0096344730" flag="0"/>
      <psa03 value="0.0324802252" flag="0"/>
      <psa10 value="0.0029563806" flag="0"/>
      <psa30 value="0.0001972609" flag="0"/>
    </comp>
    <comp name="--.HHN">
      <acc value="0.0594593826" flag="0"/>
      <vel value="0.0136560085" flag="0"/>
      <psa03 value="0.0663806613" flag="0"/>
      <psa10 value="0.0044381866" flag="0"/>
      <psa30 value="0.0003475366" flag="0"/>
    </comp>
  </station>
  <station code="KIAS" name="KIAS" netid="HA" insttype="DC" lat="37.9875" lon="22.7543">
    <comp name="--.HNE">
      <acc value="0.2219206851" flag="0"/>
      <vel value="0.0453691185" flag="0"/>
      <psa03 value="0.2434287340" flag="0"/>
      <psa10 value="0.0172445203" flag="0"/>
      <psa30 value="0.0017898676" flag="0"/>
    </comp>
    <comp name="--.HNN">
      <acc value="0.2036462610" flag="0"/>
      <vel value="0.0435823795" flag="0"/>
      <psa03 value="0.1634928514" flag="0"/>
      <psa10 value="0.0107894237" flag="0"/>
      <psa30 value="0.0008969096" flag="0"/>
    </comp>
    <comp name="--.HNZ">
      <acc value="0.1172598474" flag="0"/>
      <vel value="0.0257672751" flag="0"/>
      <psa03 value="0.0834364968" flag="0"/>
      <psa10 value="0.0061438706" flag="0"/>
      <psa30 value="0.0006255244" flag="0"/>
    </comp>
  </station>
  <station code="LAKA" name="LAKA" netid="HA" insttype="120s" lat="38.2401" lon="21.9785">
    <comp name="--.HHN">
      <acc value="0.0086887822" flag="0"/>
      <vel value="0.0027654383" flag="0"/>
      <psa03 value="0.0149985539" flag="0"/>
      <psa10 value="0.0017257211" flag="0"/>
      <psa30 value="0.0001088398" flag="0"/>
    </comp>
    <comp name="--.HHE">
      <acc value="0.0078208800" flag="0"/>
      <vel value="0.0027604872" flag="0"/>
      <psa03 value="0.0113069380" flag="0"/>
      <psa10 value="0.0020670676" flag="0"/>
      <psa30 value="0.0001629022" flag="0"/>
    </comp>
    <comp name="--.HHZ">
      <acc value="0.0089436662" flag="0"/>
      <vel value="0.0028072433" flag="0"/>
      <psa03 value="0.0106796403" flag="0"/>
      <psa10 value="0.0011174338" flag="0"/>
      <psa30 value="0.0000900961" flag="0"/>
    </comp>
  </station>
  <station code="LOUT" name="LOUT" netid="HA" insttype="30" lat="37.9879" lon="22.9743">
    <comp name="--.HHE">
      <acc value="0.0349131225" flag="0"/>
      <vel value="0.0107750947" flag="0"/>
      <psa03 value="0.0440550807" flag="0"/>
      <psa10 value="0.0040090748" flag="0"/>
      <psa30 value="0.0003785119" flag="0"/>
    </comp>
    <comp name="--.HHN">
      <acc value="0.0429042346" flag="0"/>
      <vel value="0.0114705297" flag="0"/>
      <psa03 value="0.0503725534" flag="0"/>
      <psa10 value="0.0091449601" flag="0"/>
      <psa30 value="0.0006058516" flag="0"/>
    </comp>
    <comp name="--.HHZ">
      <acc value="0.0207459468" flag="0"/>
      <vel value="0.0059283426" flag="0"/>
      <psa03 value="0.0354177373" flag="0"/>
      <psa10 value="0.0022741879" flag="0"/>
      <psa30 value="0.0001913228" flag="0"/>
    </comp>
  </station>
  <station code="MDRA" name="MDRA" netid="HA" insttype="60" lat="38.0606" lon="23.4662">
    <comp name="--.HHN">
      <acc value="0.0046881889" flag="0"/>
      <vel value="0.0024701761" flag="0"/>
      <psa03 value="0.0077027762" flag="0"/>
      <psa10 value="0.0013482444" flag="0"/>
      <psa30 value="0.0001199240" flag="0"/>
    </comp>
    <comp name="--.HHZ">
      <acc value="0.0059196511" flag="0"/>
      <vel value="0.0022255296" flag="0"/>
      <psa03 value="0.0100614086" flag="0"/>
      <psa10 value="0.0009155753" flag="0"/>
      <psa30 value="0.0000913490" flag="0"/>
    </comp>
    <comp name="--.HHE">
      <acc value="0.0071979153" flag="0"/>
      <vel value="0.0043328086" flag="0"/>
      <psa03 value="0.0171733338" flag="0"/>
      <psa10 value="0.0016358966" flag="0"/>
      <psa30 value="0.0001565448" flag="0"/>
    </comp>
  </station>
  <station code="MRKA" name="MRKA" netid="HA" insttype="30" lat="38.7047" lon="23.5863">
    <comp name="--.HHN">
      <acc value="0.0108877942" flag="0"/>
      <vel value="0.0058931559" flag="0"/>
      <psa03 value="0.0319251570" flag="0"/>
      <psa10 value="0.0051757091" flag="0"/>
      <psa30 value="0.0003254111" flag="0"/>
    </comp>
    <comp name="--.HHZ">
      <acc value="0.0117659431" flag="0"/>
      <vel value="0.0022506415" flag="0"/>
      <psa03 value="0.0154015169" flag="0"/>
      <psa10 value="0.0013501909" flag="0"/>
      <psa30 value="0.0000910244" flag="0"/>
    </comp>
    <comp name="--.HHE">
      <acc value="0.0114309644" flag="0"/>
      <vel value="0.0040173218" flag="0"/>
      <psa03 value="0.0110139202" flag="0"/>
      <psa10 value="0.0011220239" flag="0"/>
      <psa30 value="0.0000928618" flag="0"/>
    </comp>
  </station>
  <station code="STFN" name="STFN" netid="HA" insttype="1s-100Hz," lat="38.1766" lon="23.544">
    <comp name="--.HHE">
      <acc value="0.0061765315" flag="0"/>
      <vel value="0.0028604019" flag="0"/>
      <psa03 value="0.0139901679" flag="0"/>
      <psa10 value="0.0024685520" flag="0"/>
      <psa30 value="0.0002264020" flag="0"/>
    </comp>
    <comp name="--.HHN">
      <acc value="0.0066737437" flag="0"/>
      <vel value="0.0045946957" flag="0"/>
      <psa03 value="0.0140312812" flag="0"/>
      <psa10 value="0.0035130210" flag="0"/>
      <psa30 value="0.0002306205" flag="0"/>
    </comp>
    <comp name="--.HHZ">
      <acc value="0.0095727041" flag="0"/>
      <vel value="0.0025509459" flag="0"/>
      <psa03 value="0.0131112720" flag="0"/>
      <psa10 value="0.0011113595" flag="0"/>
      <psa30 value="0.0000930607" flag="0"/>
    </comp>
  </station>
  <station code="THAL" name="THAL" netid="HA" insttype="30" lat="38.0357" lon="22.6634">
    <comp name="--.HHE">
      <acc value="0.1747896995" flag="0"/>
      <vel value="0.0504679007" flag="0"/>
      <psa03 value="0.2650286292" flag="0"/>
      <psa10 value="0.0120077594" flag="0"/>
      <psa30 value="0.0007940067" flag="0"/>
    </comp>
    <comp name="--.HHN">
      <acc value="0.1808802826" flag="0"/>
      <vel value="0.0356081735" flag="0"/>
      <psa03 value="0.1572623109" flag="0"/>
      <psa10 value="0.0097493067" flag="0"/>
      <psa30 value="0.0009593446" flag="0"/>
    </comp>
    <comp name="--.HHZ">
      <acc value="0.0841131543" flag="0"/>
      <vel value="0.0186417348" flag="0"/>
      <psa03 value="0.1089726736" flag="0"/>
      <psa10 value="0.0072213362" flag="0"/>
      <psa30 value="0.0004662601" flag="0"/>
    </comp>
  </station>
  <station code="VILL" name="VILL" netid="HA" insttype="30" lat="38.1642" lon="23.3122">
    <comp name="--.HHN">
      <acc value="0.0144932485" flag="0"/>
      <vel value="0.0056230724" flag="0"/>
      <psa03 value="0.0355737773" flag="0"/>
      <psa10 value="0.0014667248" flag="0"/>
      <psa30 value="0.0001255751" flag="0"/>
    </comp>
    <comp name="--.HHE">
      <acc value="0.0145131957" flag="0"/>
      <vel value="0.0057097472" flag="0"/>
      <psa03 value="0.0216381091" flag="0"/>
      <psa10 value="0.0035819242" flag="0"/>
      <psa30 value="0.0002170491" flag="0"/>
    </comp>
    <comp name="--.HHZ">
      <acc value="0.0110632984" flag="0"/>
      <vel value="0.0035244882" flag="0"/>
      <psa03 value="0.0128609247" flag="0"/>
      <psa10 value="0.0011727066" flag="0"/>
      <psa30 value="0.0001027062" flag="0"/>
    </comp>
  </station>
  <station code="KLV1" name="KLV1" netid="HI" insttype="CMG-5TD,ACCELEROMETER,GURALP" lat="38.0326" lon="22.108">
    <comp name="--.HNN">
      <acc value="0.0360778960" flag="0"/>
      <vel value="0.0115947364" flag="0"/>
      <psa03 value="0.0614509759" flag="0"/>
      <psa10 value="0.0034580144" flag="0"/>
      <psa30 value="0.0003171122" flag="0"/>
    </comp>
    <comp name="--.HNE">
      <acc value="0.0366306716" flag="0"/>
      <vel value="0.0132472211" flag="0"/>
      <psa03 value="0.0582837835" flag="0"/>
      <psa10 value="0.0054910769" flag="0"/>
      <psa30 value="0.0002947195" flag="0"/>
    </comp>
    <comp name="--.HNZ">
      <acc value="0.0299644266" flag="0"/>
      <vel value="0.0046965686" flag="0"/>
      <psa03 value="0.0206723983" flag="0"/>
      <psa10 value="0.0027589324" flag="0"/>
      <psa30 value="0.0001114746" flag="0"/>
    </comp>
  </station>
  <station code="DLFA" name="DLFA" netid="HL" insttype="CMG-5" lat="38.4784" lon="22.4958">
    <comp name="00.HNE">
      <acc value="0.0263718614" flag="0"/>
      <vel value="0.0082875431" flag="0"/>
      <psa03 value="0.0252877460" flag="0"/>
      <psa10 value="0.0020340101" flag="0"/>
      <psa30 value="0.0002329509" flag="0"/>
    </comp>
    <comp name="00.HNZ">
      <acc value="0.0324877490" flag="0"/>
      <vel value="0.0072745617" flag="0"/>
      <psa03 value="0.0165115736" flag="0"/>
      <psa10 value="0.0012874200" flag="0"/>
      <psa30 value="0.0001035092" flag="0"/>
    </comp>
    <comp name="00.HNN">
      <acc value="0.0278648699" flag="0"/>
      <vel value="0.0069388634" flag="0"/>
      <psa03 value="0.0301089511" flag="0"/>
      <psa10 value="0.0019702199" flag="0"/>
      <psa30 value="0.0002028586" flag="0"/>
    </comp>
  </station>
  <station code="EVR" name="EVR" netid="HL" insttype="DR24" lat="38.9166" lon="21.8105">
    <comp name="--.HHN">
      <acc value="0.0203084749" flag="0"/>
      <vel value="0.0045195409" flag="0"/>
      <psa03 value="0.0235929420" flag="0"/>
      <psa10 value="0.0016371992" flag="0"/>
      <psa30 value="0.0001401313" flag="0"/>
    </comp>
    <comp name="--.HHZ">
      <acc value="0.0096954788" flag="0"/>
      <vel value="0.0025248652" flag="0"/>
