<stationlist xmlns:esm="https://esm-db.eu/esmws/shakemap/1/" created="1781229306">
	<station code="FRS1" name="FRS1" netid="HI" source="ITSAK Strong Motion Network" insttype="" lat="39.2934" lon="22.3844" esm:processing="automatic (Paolucci et al 2011)" esm:quality="best">
		<comp name="--.HNE" depth="0.0">
			<acc value="0.0117798588381541" flag="0"/>
			<vel value="0.00398246923895935" flag="0"/>
			<psa03 value="0.0134492464153195" flag="0"/>
			<psa10 value="0.00404883430915233" flag="0"/>
			<psa30 value="0.000270598967520234" flag="0"/>
		</comp>
		<comp name="--.HNN" depth="0.0">
			<acc value="0.0121020146625139" flag="0"/>
			<vel value="0.0038740174513364" flag="0"/>
			<psa03 value="0.0177854190821445" flag="0"/>
			<psa10 value="0.00162549068859312" flag="0"/>
			<psa30 value="0.000132031259443796" flag="0"/>
		</comp>
		<comp name="--.HNZ" depth="0.0">
			<acc value="0.0106362478311351" flag="0"/>
			<vel value="0.00272757126900451" flag="0"/>
			<psa03 value="0.019237537413274" flag="0"/>
			<psa10 value="0.00092088668781734" flag="0"/>
			<psa30 value="8.78366455696057e-05" flag="0"/>
		</comp>
	</station>
	<station code="ITE1" name="ITE1" netid="HI" source="ITSAK Strong Motion Network" insttype="" lat="38.4338" lon="22.4272" esm:processing="manual (Paolucci et al 2011)" esm:quality="good">
		<comp name="--.HNE" depth="0.0">
			<acc value="0.0400556718971082" flag="0"/>
			<vel value="0.0100805784803932" flag="0"/>
			<psa03 value="0.0637676722119952" flag="0"/>
			<psa10 value="0.00452897861635626" flag="0"/>
			<psa30 value="0.000311516339553652" flag="0"/>
		</comp>
		<comp name="--.HNN" depth="0.0">
			<acc value="0.0369364056894977" flag="0"/>
			<vel value="0.0156318584846241" flag="0"/>
			<psa03 value="0.0811381354199329" flag="0"/>
			<psa10 value="0.00440786762459744" flag="0"/>
			<psa30 value="0.00030243865486826" flag="0"/>
		</comp>
		<comp name="--.HNZ" depth="0.0">
			<acc value="0.036049512150925" flag="0"/>
			<vel value="0.00961803253558771" flag="0"/>
			<psa03 value="0.0394587024870532" flag="0"/>
			<psa10 value="0.00115038612931026" flag="0"/>
			<psa30 value="0.000119866924970503" flag="0"/>
		</comp>
	</station>
	<station code="KAC1" name="KAC1" netid="HI" source="ITSAK Strong Motion Network" insttype="" lat="38.143412" lon="21.549694" esm:processing="manual (Paolucci et al 2011)" esm:quality="good">
		<comp name="--.HNE" depth="0.0">
			<acc value="0.0215953918817787" flag="0"/>
			<vel value="0.00923999681438876" flag="0"/>
			<psa03 value="0.0687298655162818" flag="0"/>
			<psa10 value="0.0056715696199027" flag="0"/>
			<psa30 value="0.000378470175958388" flag="0"/>
		</comp>
		<comp name="--.HNN" depth="0.0">
			<acc value="0.0250606360844462" flag="0"/>
			<vel value="0.00933908843037594" flag="0"/>
			<psa03 value="0.0889658310496854" flag="0"/>
			<psa10 value="0.00535723223409358" flag="0"/>
			<psa30 value="0.000313157333678126" flag="0"/>
		</comp>
		<comp name="--.HNZ" depth="0.0">
			<acc value="0.00840926675724553" flag="0"/>
			<vel value="0.00311425368774309" flag="0"/>
			<psa03 value="0.020382889328884" flag="0"/>
			<psa10 value="0.00179340513241345" flag="0"/>
			<psa30 value="0.000128110478877992" flag="0"/>
		</comp>
	</station>
	<station code="KLV1" name="KLV1" netid="HI" source="ITSAK Strong Motion Network" insttype="" lat="38.03256" lon="22.10797" esm:processing="manual (Paolucci et al 2011)" esm:quality="good">
		<comp name="--.HNE" depth="0.0">
			<acc value="0.0363963198140833" flag="0"/>
			<vel value="0.0132929080177611" flag="0"/>
			<psa03 value="0.0581931779291072" flag="0"/>
			<psa10 value="0.0054929316922667" flag="0"/>
			<psa30 value="0.000306860458207696" flag="0"/>
		</comp>
		<comp name="--.HNN" depth="0.0">
			<acc value="0.0361731589293538" flag="0"/>
			<vel value="0.011669781153694" flag="0"/>
			<psa03 value="0.061718880239582" flag="0"/>
			<psa10 value="0.00347260301165687" flag="0"/>
			<psa30 value="0.000295890382535688" flag="0"/>
		</comp>
		<comp name="--.HNZ" depth="0.0">
			<acc value="0.0277207604264526" flag="0"/>
			<vel value="0.00454464712847605" flag="0"/>
			<psa03 value="0.020994074348142" flag="0"/>
			<psa10 value="0.00274983474118111" flag="0"/>
			<psa30 value="0.000104752746647032" flag="0"/>
		</comp>
	</station>
	<station code="KMV1" name="KMV1" netid="HI" source="ITSAK Strong Motion Network" insttype="" lat="38.7794" lon="22.7846" esm:processing="automatic (Paolucci et al 2011)" esm:quality="best">
		<comp name="--.HNE" depth="0.0">
			<acc value="0.0704706092265623" flag="0"/>
			<vel value="0.0236771190197833" flag="0"/>
			<psa03 value="0.175388264445092" flag="0"/>
			<psa10 value="0.0139184845312918" flag="0"/>
			<psa30 value="0.00063718564792203" flag="0"/>
		</comp>
		<comp name="--.HNN" depth="0.0">
			<acc value="0.0854882939853918" flag="0"/>
			<vel value="0.0327678917554062" flag="0"/>
			<psa03 value="0.138153735340276" flag="0"/>
			<psa10 value="0.0194403071999439" flag="0"/>
			<psa30 value="0.00077998135743698" flag="0"/>
		</comp>
		<comp name="--.HNZ" depth="0.0">
			<acc value="0.0465777936735577" flag="0"/>
			<vel value="0.012174679789071" flag="0"/>
			<psa03 value="0.0519438993617386" flag="0"/>
			<psa10 value="0.00422616433764643" flag="0"/>
			<psa30 value="0.000265860684882263" flag="0"/>
		</comp>
	</station>
	<station code="KOR2" name="KOR2" netid="HI" source="ITSAK Strong Motion Network" insttype="" lat="37.9401" lon="22.9495" esm:processing="automatic (Paolucci et al 2011)" esm:quality="best">
		<comp name="--.HNE" depth="0.0">
			<acc value="0.0675752981014346" flag="0"/>
			<vel value="0.0195138369170792" flag="0"/>
			<psa03 value="0.11428259149415" flag="0"/>
			<psa10 value="0.0118443561929687" flag="0"/>
			<psa30 value="0.000555312047114458" flag="0"/>
		</comp>
		<comp name="--.HNN" depth="0.0">
			<acc value="0.0948635415555342" flag="0"/>
			<vel value="0.0291834390564341" flag="0"/>
			<psa03 value="0.143861373859983" flag="0"/>
			<psa10 value="0.00742364818650898" flag="0"/>
			<psa30 value="0.000861073604400361" flag="0"/>
		</comp>
		<comp name="--.HNZ" depth="0.0">
			<acc value="0.0952821557487069" flag="0"/>
			<vel value="0.0165669553922331" flag="0"/>
			<psa03 value="0.0450041167185305" flag="0"/>
			<psa10 value="0.0036283602048065" flag="0"/>
			<psa30 value="0.000334836556278561" flag="0"/>
		</comp>
	</station>
	<station code="LAM2" name="LAM2" netid="HI" source="ITSAK Strong Motion Network" insttype="" lat="38.90203" lon="22.431301" esm:processing="automatic (Paolucci et al 2011)" esm:quality="best">
		<comp name="--.HNE" depth="0.0">
			<acc value="0.0295584209023013" flag="0"/>
			<vel value="0.00739081124612441" flag="0"/>
			<psa03 value="0.0428531070371957" flag="0"/>
			<psa10 value="0.00381869726682773" flag="0"/>
			<psa30 value="0.000323387933280141" flag="0"/>
		</comp>
		<comp name="--.HNN" depth="0.0">
			<acc value="0.0245309433615991" flag="0"/>
			<vel value="0.00811286637586662" flag="0"/>
			<psa03 value="0.0297675657051363" flag="0"/>
			<psa10 value="0.0045060566291371" flag="0"/>
			<psa30 value="0.000453197261677742" flag="0"/>
		</comp>
		<comp name="--.HNZ" depth="0.0">
			<acc value="0.0179761468587764" flag="0"/>
			<vel value="0.00409561876864914" flag="0"/>
			<psa03 value="0.0192443803144993" flag="0"/>
			<psa10 value="0.0024192489352439" flag="0"/>
			<psa30 value="0.000130843771924409" flag="0"/>
		</comp>
	</station>
	<station code="NMA1" name="NMA1" netid="HI" source="ITSAK Strong Motion Network" insttype="" lat="37.81873" lon="22.662702" esm:processing="manual (Paolucci et al 2011)" esm:quality="good">
		<comp name="--.HNE" depth="0.0">
			<acc value="0.0739330346908346" flag="0"/>
			<vel value="0.0336786598080645" flag="0"/>
			<psa03 value="0.117025377356919" flag="0"/>
			<psa10 value="0.0077219738866225" flag="0"/>
			<psa30 value="0.000597952163479567" flag="0"/>
		</comp>
		<comp name="--.HNN" depth="0.0">
			<acc value="0.0733087885633672" flag="0"/>
			<vel value="0.024223813062787" flag="0"/>
			<psa03 value="0.0931931319209549" flag="0"/>
			<psa10 value="0.0119735091237165" flag="0"/>
			<psa30 value="0.000713659255589891" flag="0"/>
		</comp>
		<comp name="--.HNZ" depth="0.0">
			<acc value="0.0644014771891683" flag="0"/>
			<vel value="0.013379842063979" flag="0"/>
			<psa03 value="0.057058180866122" flag="0"/>
			<psa10 value="0.00551041019388165" flag="0"/>
			<psa30 value="0.000436382840513195" flag="0"/>
		</comp>
	</station>
	<station code="TRP1" name="TRP1" netid="HI" source="ITSAK Strong Motion Network" insttype="" lat="37.511219" lon="22.363399" esm:processing="manual (Paolucci et al 2011)" esm:quality="good">
		<comp name="--.HNE" depth="0.0">
			<acc value="0.0171868943903306" flag="0"/>
			<vel value="0.00669012808761375" flag="0"/>
			<psa03 value="0.0540771135933788" flag="0"/>
			<psa10 value="0.00268435751301109" flag="0"/>
			<psa30 value="0.000208579976253936" flag="0"/>
		</comp>
		<comp name="--.HNN" depth="0.0">
			<acc value="0.0153703403785912" flag="0"/>
			<vel value="0.00609562704663584" flag="0"/>
			<psa03 value="0.0394640726344657" flag="0"/>
			<psa10 value="0.00258574098014978" flag="0"/>
			<psa30 value="0.000232363596072858" flag="0"/>
		</comp>
		<comp name="--.HNZ" depth="0.0">
			<acc value="0.00855626182565312" flag="0"/>
			<vel value="0.00282711363408931" flag="0"/>
			<psa03 value="0.0206008204324167" flag="0"/>
			<psa10 value="0.000966621963648657" flag="0"/>
			<psa30 value="0.000155524104792003" flag="0"/>
		</comp>
	</station>
</stationlist>
