<stationlist created="1778136786">
	<station code="ABEA" name="ABEA" netid="HC" source="Seismological Network of Crete (HC)" insttype="" lat="35.5163" lon="24.0113">
		<comp name="--.HNE" depth="0.0">
			<acc value="0.0167862102745553" flag="0"/>
			<vel value="0.0082591412291418" flag="0"/>
			<psa03 value="0.0630425356334163" flag="0"/>
			<psa10 value="0.0172058923059397" flag="0"/>
			<psa30 value="0.00145328981498677" flag="0"/>
		</comp>
		<comp name="--.HNN" depth="0.0">
			<acc value="0.019542025570939" flag="0"/>
			<vel value="0.00973719017161277" flag="0"/>
			<psa03 value="0.0385972053129445" flag="0"/>
			<psa10 value="0.0135175051558788" flag="0"/>
			<psa30 value="0.00119268453032939" flag="0"/>
		</comp>
		<comp name="--.HNZ" depth="0.0">
			<acc value="0.0100718309660605" flag="0"/>
			<vel value="0.00518126442211252" flag="0"/>
			<psa03 value="0.0196511846070408" flag="0"/>
			<psa10 value="0.00813944544831032" flag="0"/>
			<psa30 value="0.000530377687001" flag="0"/>
		</comp>
	</station>
	<station code="ATEI" name="ATEI" netid="HC" source="Seismological Network of Crete (HC)" insttype="" lat="35.5193" lon="24.0432">
		<comp name="--.HNE" depth="0.0">
			<acc value="0.0122322739392726" flag="0"/>
			<vel value="0.00578756979451844" flag="0"/>
			<psa03 value="0.0304849595831317" flag="0"/>
			<psa10 value="0.00858338298198758" flag="0"/>
			<psa30 value="0.000920851106031755" flag="0"/>
		</comp>
		<comp name="--.HNN" depth="0.0">
			<acc value="0.0120533869443942" flag="0"/>
			<vel value="0.00682005702620543" flag="0"/>
			<psa03 value="0.027572993242163" flag="0"/>
			<psa10 value="0.00592433683324932" flag="0"/>
			<psa30 value="0.00098033160882303" flag="0"/>
		</comp>
		<comp name="--.HNZ" depth="0.0">
			<acc value="0.0117093716756186" flag="0"/>
			<vel value="0.00680563447495031" flag="0"/>
			<psa03 value="0.0164498358146205" flag="0"/>
			<psa10 value="0.00741765810221302" flag="0"/>
			<psa30 value="0.000838907917283112" flag="0"/>
		</comp>
	</station>
	<station code="DEYA" name="DEYA" netid="HC" source="Seismological Network of Crete (HC)" insttype="" lat="35.4825" lon="24.014">
		<comp name="--.HNE" depth="0.0">
			<acc value="0.0272710165029376" flag="0"/>
			<vel value="0.0210973646417276" flag="0"/>
			<psa03 value="0.0713689309662295" flag="0"/>
			<psa10 value="0.0266198128069639" flag="0"/>
			<psa30 value="0.00112408956958568" flag="0"/>
		</comp>
		<comp name="--.HNN" depth="0.0">
			<acc value="0.0298951866070605" flag="0"/>
			<vel value="0.0154048590085153" flag="0"/>
			<psa03 value="0.0794307046024916" flag="0"/>
			<psa10 value="0.0199874759471682" flag="0"/>
			<psa30 value="0.00123620032970435" flag="0"/>
		</comp>
		<comp name="--.HNZ" depth="0.0">
			<acc value="0.0151464481949264" flag="0"/>
			<vel value="0.00783431780809496" flag="0"/>
			<psa03 value="0.031142185412793" flag="0"/>
			<psa10 value="0.00852627044855777" flag="0"/>
			<psa30 value="0.00134200483873341" flag="0"/>
		</comp>
	</station>
	<station code="G0LD" name="G0LD" netid="HC" source="Seismological Network of Crete (HC)" insttype="" lat="35.4955" lon="24.0306">
		<comp name="--.HNE" depth="0.0">
			<acc value="0.0322543007279495" flag="0"/>
			<vel value="0.0231576135241969" flag="0"/>
			<psa03 value="0.0884958103296899" flag="0"/>
			<psa10 value="0.0470894919476003" flag="0"/>
			<psa30 value="0.0021407057695846" flag="0"/>
		</comp>
		<comp name="--.HNN" depth="0.0">
			<acc value="0.0270894415199417" flag="0"/>
			<vel value="0.0180837043292527" flag="0"/>
			<psa03 value="0.0816798796412322" flag="0"/>
			<psa10 value="0.0376663514609169" flag="0"/>
			<psa30 value="0.00237372953960066" flag="0"/>
		</comp>
		<comp name="--.HNZ" depth="0.0">
			<acc value="0.0150782185475239" flag="0"/>
			<vel value="0.0105760022553816" flag="0"/>
			<psa03 value="0.0421882973718069" flag="0"/>
			<psa10 value="0.0177078461829178" flag="0"/>
			<psa30 value="0.00145269998424419" flag="0"/>
		</comp>
	</station>
	<station code="LENT" name="LENT" netid="HC" source="Seismological Network of Crete (HC)" insttype="" lat="35.5074" lon="24.0402">
		<comp name="--.HNE" depth="0.0">
			<acc value="0.0146258354510284" flag="0"/>
			<vel value="0.00739176300398353" flag="0"/>
			<psa03 value="0.0362760229001525" flag="0"/>
			<psa10 value="0.0103413588142862" flag="0"/>
			<psa30 value="0.00116377990720756" flag="0"/>
		</comp>
		<comp name="--.HNN" depth="0.0">
			<acc value="0.0164403718231299" flag="0"/>
			<vel value="0.00867906526622091" flag="0"/>
			<psa03 value="0.0274037398424606" flag="0"/>
			<psa10 value="0.00930664370695308" flag="0"/>
			<psa30 value="0.00107327391162796" flag="0"/>
		</comp>
		<comp name="--.HNZ" depth="0.0">
			<acc value="0.00980990423686496" flag="0"/>
			<vel value="0.00507282243550003" flag="0"/>
			<psa03 value="0.0253889891875841" flag="0"/>
			<psa10 value="0.00572705970208513" flag="0"/>
			<psa30 value="0.000802272990396783" flag="0"/>
		</comp>
	</station>
	<station code="MULT" name="MULT" netid="HC" source="Seismological Network of Crete (HC)" insttype="" lat="35.5091" lon="24.0118">
		<comp name="--.HNE" depth="0.0">
			<acc value="0.0272959263682222" flag="0"/>
			<vel value="0.00864360957849695" flag="0"/>
			<psa03 value="0.034882362868665" flag="0"/>
			<psa10 value="0.0117762694950648" flag="0"/>
			<psa30 value="0.00120412903847108" flag="0"/>
		</comp>
		<comp name="--.HNN" depth="0.0">
			<acc value="0.0215903364762719" flag="0"/>
			<vel value="0.00970252640134757" flag="0"/>
			<psa03 value="0.0445096620883305" flag="0"/>
			<psa10 value="0.0136170583132663" flag="0"/>
			<psa30 value="0.00140160639121122" flag="0"/>
		</comp>
		<comp name="--.HNZ" depth="0.0">
			<acc value="0.0219947977659128" flag="0"/>
			<vel value="0.00720652963878844" flag="0"/>
			<psa03 value="0.0245668513916639" flag="0"/>
			<psa10 value="0.0119591531726986" flag="0"/>
			<psa30 value="0.00345740445274198" flag="0"/>
		</comp>
	</station>
	<station code="NERO" name="NERO" netid="HC" source="Seismological Network of Crete (HC)" insttype="" lat="35.474" lon="24.0423">
		<comp name="--.HNE" depth="0.0">
			<acc value="0.0164357409739308" flag="0"/>
			<vel value="0.008650950623465" flag="0"/>
			<psa03 value="0.0467346011462638" flag="0"/>
			<psa10 value="0.00769333136419422" flag="0"/>
			<psa30 value="0.000852767116634193" flag="0"/>
		</comp>
		<comp name="--.HNN" depth="0.0">
			<acc value="0.0137341664754425" flag="0"/>
			<vel value="0.007561878376751" flag="0"/>
			<psa03 value="0.0535224258064626" flag="0"/>
			<psa10 value="0.01030918168271" flag="0"/>
			<psa30 value="0.000898166061593727" flag="0"/>
		</comp>
		<comp name="--.HNZ" depth="0.0">
			<acc value="0.0109383012312119" flag="0"/>
			<vel value="0.00470363086280278" flag="0"/>
			<psa03 value="0.0233406529745468" flag="0"/>
			<psa10 value="0.0100461861355108" flag="0"/>
			<psa30 value="0.000857932615077186" flag="0"/>
		</comp>
	</station>
	<station code="PASK" name="PASK" netid="HC" source="Seismological Network of Crete (HC)" insttype="" lat="35.4996" lon="24.0121">
		<comp name="--.HNE" depth="0.0">
			<acc value="0.0244743796137865" flag="0"/>
			<vel value="0.0154327780302422" flag="0"/>
			<psa03 value="0.0468125646444257" flag="0"/>
			<psa10 value="0.0193843159907835" flag="0"/>
			<psa30 value="0.0014324847909215" flag="0"/>
		</comp>
		<comp name="--.HNN" depth="0.0">
			<acc value="0.0159047825897727" flag="0"/>
			<vel value="0.0121667732509224" flag="0"/>
			<psa03 value="0.050718323381601" flag="0"/>
			<psa10 value="0.015878030591585" flag="0"/>
			<psa30 value="0.00153683826632466" flag="0"/>
		</comp>
		<comp name="--.HNZ" depth="0.0">
			<acc value="0.0141446891306431" flag="0"/>
			<vel value="0.00744532204028079" flag="0"/>
			<psa03 value="0.0460820058317695" flag="0"/>
			<psa10 value="0.00714637122453274" flag="0"/>
			<psa30 value="0.00136627300888283" flag="0"/>
		</comp>
	</station>
	<station code="POLY" name="POLY" netid="HC" source="Seismological Network of Crete (HC)" insttype="" lat="35.5226" lon="24.0602">
		<comp name="--.HNE" depth="0.0">
			<acc value="0.0112198838379893" flag="0"/>
			<vel value="0.00623898004756164" flag="0"/>
			<psa03 value="0.0271268647299962" flag="0"/>
			<psa10 value="0.00977737395304142" flag="0"/>
			<psa30 value="0.00116462746335544" flag="0"/>
		</comp>
		<comp name="--.HNN" depth="0.0">
			<acc value="0.0115386741540033" flag="0"/>
			<vel value="0.00610523575354134" flag="0"/>
			<psa03 value="0.0324521654217146" flag="0"/>
			<psa10 value="0.0104011874651267" flag="0"/>
			<psa30 value="0.000911022850793885" flag="0"/>
		</comp>
		<comp name="--.HNZ" depth="0.0">
			<acc value="0.00904394135249382" flag="0"/>
			<vel value="0.00505457165013451" flag="0"/>
			<psa03 value="0.0238724694547708" flag="0"/>
			<psa10 value="0.00456748522973534" flag="0"/>
			<psa30 value="0.00081822498464166" flag="0"/>
		</comp>
	</station>
	<station code="SOUD" name="SOUD" netid="HC" source="Seismological Network of Crete (HC)" insttype="" lat="35.4878" lon="24.0678">
		<comp name="--.HNE" depth="0.0">
			<acc value="0.0250661954642125" flag="0"/>
			<vel value="0.0153362509346005" flag="0"/>
			<psa03 value="0.0819471733897893" flag="0"/>
			<psa10 value="0.0166146787659406" flag="0"/>
			<psa30 value="0.00137250790107902" flag="0"/>
		</comp>
		<comp name="--.HNN" depth="0.0">
			<acc value="0.0271082074268275" flag="0"/>
			<vel value="0.0142617867912159" flag="0"/>
			<psa03 value="0.064862796842106" flag="0"/>
			<psa10 value="0.0188841434818407" flag="0"/>
			<psa30 value="0.00108742245306644" flag="0"/>
		</comp>
		<comp name="--.HNZ" depth="0.0">
			<acc value="0.00617991948314927" flag="0"/>
			<vel value="0.00457965378787563" flag="0"/>
			<psa03 value="0.00684048114308569" flag="0"/>
			<psa10 value="0.00430241392004747" flag="0"/>
			<psa30 value="0.00222753985525041" flag="0"/>
		</comp>
	</station>
	<station code="CH01" name="CH01" netid="HI" source="ITSAK Strong Motion Network" insttype="" lat="35.517" lon="24.0208">
		<comp name="--.HNE" depth="0.0">
			<acc value="0.0178493117150345" flag="0"/>
			<vel value="0.0105475035680893" flag="0"/>
			<psa03 value="0.0468586770739629" flag="0"/>
			<psa10 value="0.0108810373778449" flag="0"/>
			<psa30 value="0.000906035749586727" flag="0"/>
		</comp>
		<comp name="--.HNN" depth="0.0">
			<acc value="0.0155154061323764" flag="0"/>
			<vel value="0.00675889638134894" flag="0"/>
			<psa03 value="0.0416718100320571" flag="0"/>
			<psa10 value="0.00734031297847361" flag="0"/>
			<psa30 value="0.000966791857717713" flag="0"/>
		</comp>
		<comp name="--.HNZ" depth="0.0">
			<acc value="0.00851818872909067" flag="0"/>
			<vel value="0.00401871623567817" flag="0"/>
			<psa03 value="0.0160020717774887" flag="0"/>
			<psa10 value="0.00507548544474993" flag="0"/>
			<psa30 value="0.000508857250962237" flag="0"/>
		</comp>
	</station>
	<station code="KSS1" name="KSS1" netid="HI" source="ITSAK Strong Motion Network" insttype="" lat="35.4189" lon="26.9207">
		<comp name="--.HNE" depth="0.0">
			<acc value="0.00384814083133055" flag="0"/>
			<vel value="0.00147321732655413" flag="0"/>
			<psa03 value="0.0125681919560431" flag="0"/>
			<psa10 value="0.000943229671837605" flag="0"/>
			<psa30 value="0.000129725338458558" flag="0"/>
		</comp>
		<comp name="--.HNN" depth="0.0">
			<acc value="0.00660961389735806" flag="0"/>
			<vel value="0.00240589736527888" flag="0"/>
			<psa03 value="0.0168503180737728" flag="0"/>
			<psa10 value="0.00139002770751396" flag="0"/>
			<psa30 value="0.000124222031183399" flag="0"/>
		</comp>
		<comp name="--.HNZ" depth="0.0">
			<acc value="0.00235587218935878" flag="0"/>
			<vel value="0.00108404080111162" flag="0"/>
			<psa03 value="0.00403337851965778" flag="0"/>
			<psa10 value="0.00122289003390238" flag="0"/>
			<psa30 value="0.000153190903353767" flag="0"/>
		</comp>
	</station>
	<station code="NAX1" name="NAX1" netid="HI" source="ITSAK Strong Motion Network" insttype="" lat="37.101394" lon="25.374103">
		<comp name="--.HNE" depth="0.0">
			<acc value="0.00192128763410363" flag="0"/>
			<vel value="0.00106828721896303" flag="0"/>
			<psa03 value="0.00707087856723742" flag="0"/>
			<psa10 value="0.00114071880920831" flag="0"/>
			<psa30 value="0.00024698183008426" flag="0"/>
		</comp>
		<comp name="--.HNN" depth="0.0">
			<acc value="0.00214589573673424" flag="0"/>
			<vel value="0.000870356710873497" flag="0"/>
			<psa03 value="0.00504973718956903" flag="0"/>
			<psa10 value="0.000997107615986127" flag="0"/>
			<psa30 value="7.52852607163772e-05" flag="0"/>
		</comp>
		<comp name="--.HNZ" depth="0.0">
			<acc value="0.00170745868143428" flag="0"/>
			<vel value="0.000710523008607919" flag="0"/>
			<psa03 value="0.00514842146128161" flag="0"/>
			<psa10 value="0.000705429289821183" flag="0"/>
			<psa30 value="8.04333426371064e-05" flag="0"/>
		</comp>
	</station>
	<station code="SIT2" name="SIT2" netid="HI" source="ITSAK Strong Motion Network" insttype="" lat="35.2059" lon="26.107">
		<comp name="--.HNE" depth="0.0">
			<acc value="0.0358394400547099" flag="0"/>
			<vel value="0.0240849790800956" flag="0"/>
			<psa03 value="0.12701496620136" flag="0"/>
			<psa10 value="0.0160999740442563" flag="0"/>
			<psa30 value="0.000923784737872285" flag="0"/>
		</comp>
		<comp name="--.HNN" depth="0.0">
			<acc value="0.0497706702384371" flag="0"/>
			<vel value="0.0252781496304567" flag="0"/>
			<psa03 value="0.17245704943323" flag="0"/>
			<psa10 value="0.014021956698296" flag="0"/>
			<psa30 value="0.00106288353581596" flag="0"/>
		</comp>
		<comp name="--.HNZ" depth="0.0">
			<acc value="0.0377134631107031" flag="0"/>
			<vel value="0.0140259185345923" flag="0"/>
			<psa03 value="0.10647996002464" flag="0"/>
			<psa10 value="0.00631408468336483" flag="0"/>
			<psa30 value="0.000409721933734088" flag="0"/>
		</comp>
	</station>
	<station code="ANKY" name="ANKY" netid="HL" source="National Observatory of Athens Seismic Network" insttype="" lat="35.86704" lon="23.30117">
		<comp name="00.HNE" depth="0.0">
			<acc value="0.00309690143486448" flag="0"/>
			<vel value="0.00188260685315973" flag="0"/>
			<psa03 value="0.00765127248426454" flag="0"/>
			<psa10 value="0.0026145021041813" flag="0"/>
			<psa30 value="0.000312614693564284" flag="0"/>
		</comp>
		<comp name="00.HNN" depth="0.0">
			<acc value="0.00310740128609514" flag="0"/>
			<vel value="0.00148062010571347" flag="0"/>
			<psa03 value="0.00897218876453135" flag="0"/>
			<psa10 value="0.00241639429301392" flag="0"/>
			<psa30 value="0.000291714532989395" flag="0"/>
		</comp>
		<comp name="00.HNZ" depth="0.0">
			<acc value="0.00196123297726088" flag="0"/>
			<vel value="0.000866244868393898" flag="0"/>
			<psa03 value="0.00471167410444382" flag="0"/>
			<psa10 value="0.000998564353114515" flag="0"/>
			<psa30 value="0.000208244680604876" flag="0"/>
		</comp>
	</station>
	<station code="IACM" name="IACM" netid="HL" source="National Observatory of Athens Seismic Network" insttype="" lat="35.3058" lon="25.0709">
		<comp name="--.HNE" depth="0.0">
			<acc value="0.515645202322518" flag="0"/>
			<vel value="0.180632668863573" flag="0"/>
			<psa03 value="1.07424608019929" flag="0"/>
			<psa10 value="0.174001581750874" flag="0"/>
			<psa30 value="0.00722367269953374" flag="0"/>
		</comp>
		<comp name="--.HNN" depth="0.0">
			<acc value="0.522191329081923" flag="0"/>
			<vel value="0.197913182690707" flag="0"/>
			<psa03 value="1.60817020005196" flag="0"/>
			<psa10 value="0.109676330518529" flag="0"/>
			<psa30 value="0.00864815206431642" flag="0"/>
		</comp>
		<comp name="--.HNZ" depth="0.0">
			<acc value="0.408993075020568" flag="0"/>
			<vel value="0.0958745229899964" flag="0"/>
			<psa03 value="0.555549094066175" flag="0"/>
			<psa10 value="0.0588746701579607" flag="0"/>
			<psa30 value="0.0030328569535573" flag="0"/>
		</comp>
	</station>
	<station code="IMMV" name="IMMV" netid="HL" source="National Observatory of Athens Seismic Network" insttype="" lat="35.4606" lon="23.9811">
		<comp name="--.HNE" depth="0.0">
			<acc value="0.0139229168699712" flag="0"/>
			<vel value="0.00628258804432792" flag="0"/>
			<psa03 value="0.0351440624966677" flag="0"/>
			<psa10 value="0.0080953472145359" flag="0"/>
			<psa30 value="0.000444365791219674" flag="0"/>
		</comp>
		<comp name="--.HNN" depth="0.0">
			<acc value="0.0163348865274668" flag="0"/>
			<vel value="0.00638421229033713" flag="0"/>
			<psa03 value="0.0586572503384434" flag="0"/>
			<psa10 value="0.008593640849012" flag="0"/>
			<psa30 value="0.000549595314241454" flag="0"/>
		</comp>
		<comp name="--.HNZ" depth="0.0">
			<acc value="0.0131940520917305" flag="0"/>
			<vel value="0.00646565171391192" flag="0"/>
			<psa03 value="0.0442026521671021" flag="0"/>
			<psa10 value="0.00436664114354312" flag="0"/>
			<psa30 value="0.00020592106313467" flag="0"/>
		</comp>
	</station>
	<station code="KARP" name="KARP" netid="HL" source="National Observatory of Athens Seismic Network" insttype="" lat="35.5471" lon="27.16106">
		<comp name="--.HNE" depth="0.0">
			<acc value="0.00535123306692177" flag="0"/>
			<vel value="0.00165658272257558" flag="0"/>
			<psa03 value="0.00669204032002255" flag="0"/>
			<psa10 value="0.00350245030139156" flag="0"/>
			<psa30 value="0.000154575851870693" flag="0"/>
		</comp>
		<comp name="--.HNN" depth="0.0">
			<acc value="0.00355729348457108" flag="0"/>
			<vel value="0.00174848091288512" flag="0"/>
			<psa03 value="0.00609804263726435" flag="0"/>
			<psa10 value="0.00296758119706386" flag="0"/>
			<psa30 value="0.000149254405601195" flag="0"/>
		</comp>
		<comp name="--.HNZ" depth="0.0">
			<acc value="0.00383436504695422" flag="0"/>
			<vel value="0.00110555243271793" flag="0"/>
			<psa03 value="0.00699141106333463" flag="0"/>
			<psa10 value="0.0011240089913288" flag="0"/>
			<psa30 value="0.000130649305916918" flag="0"/>
		</comp>
	</station>
	<station code="SIVA" name="SIVA" netid="HL" source="National Observatory of Athens Seismic Network" insttype="" lat="35.01777" lon="24.81204">
		<comp name="00.HNE" depth="0.0">
			<acc value="0.130441464089774" flag="0"/>
			<vel value="0.053816228402234" flag="0"/>
			<psa03 value="0.227454380236376" flag="0"/>
			<psa10 value="0.0226059931611193" flag="0"/>
			<psa30 value="0.00132524185326919" flag="0"/>
		</comp>
		<comp name="00.HNN" depth="0.0">
			<acc value="0.146456502148337" flag="0"/>
			<vel value="0.0627714732886092" flag="0"/>
			<psa03 value="0.367594601338308" flag="0"/>
			<psa10 value="0.0380720083336898" flag="0"/>
			<psa30 value="0.00263792766642884" flag="0"/>
		</comp>
		<comp name="00.HNZ" depth="0.0">
			<acc value="0.0814668029007205" flag="0"/>
			<vel value="0.0309259882834554" flag="0"/>
			<psa03 value="0.179902834346591" flag="0"/>
			<psa10 value="0.0107204845544781" flag="0"/>
			<psa30 value="0.000593929240730014" flag="0"/>
		</comp>
	</station>
	<station code="THRA" name="THRA" netid="HL" source="National Observatory of Athens Seismic Network" insttype="" lat="36.41502" lon="25.43244">
		<comp name="00.HNE" depth="0.0">
			<acc value="0.0346043100804371" flag="0"/>
			<vel value="0.0189455320088403" flag="0"/>
			<psa03 value="0.0940910559871811" flag="0"/>
			<psa10 value="0.0199873821909749" flag="0"/>
			<psa30 value="0.00154426073719316" flag="0"/>
		</comp>
		<comp name="00.HNN" depth="0.0">
			<acc value="0.0269891017115698" flag="0"/>
			<vel value="0.0152921528432991" flag="0"/>
			<psa03 value="0.0981981718136697" flag="0"/>
			<psa10 value="0.0136779060941608" flag="0"/>
			<psa30 value="0.000782343649345446" flag="0"/>
		</comp>
		<comp name="00.HNZ" depth="0.0">
			<acc value="0.0343451468361917" flag="0"/>
			<vel value="0.0101033070500606" flag="0"/>
			<psa03 value="0.0758072926943959" flag="0"/>
			<psa10 value="0.00537660132969278" flag="0"/>
			<psa30 value="0.000457417176643608" flag="0"/>
		</comp>
	</station>
</stationlist>
