<?xml version="1.0" encoding="UTF-8" standalone="yes"?>
<!DOCTYPE earthquake SYSTEM "stationlist.dtd">
<stationlist created="" xmlns="ch.ethz.sed.shakemap.usgs.xml">
  <station code="GVD" name="GVD" netid="GE" insttype="STS-2/N" lat="34.8391" lon="24.0874">
    <comp name="--.HHE">
      <acc value="0.0134176293" flag="0"/>
      <vel value="0.0044061030" flag="0"/>
      <psa03 value="0.0380948007" flag="0"/>
      <psa10 value="0.0027328088" flag="0"/>
      <psa30 value="0.0002118897" flag="0"/>
    </comp>
    <comp name="--.HHZ">
      <acc value="0.0083987297" flag="0"/>
      <vel value="0.0027016691" flag="0"/>
      <psa03 value="0.0122884778" flag="0"/>
      <psa10 value="0.0013660450" flag="0"/>
      <psa30 value="0.0000919849" flag="0"/>
    </comp>
    <comp name="--.HHN">
      <acc value="0.0113467191" flag="0"/>
      <vel value="0.0054790740" flag="0"/>
      <psa03 value="0.0416861569" flag="0"/>
      <psa10 value="0.0027256078" flag="0"/>
      <psa30 value="0.0004737829" flag="0"/>
    </comp>
  </station>
  <station code="IMMV" name="IMMV" netid="GE" insttype="STS-2/N" lat="35.4606" lon="23.9811">
    <comp name="--.HHZ">
      <acc value="0.0139630616" flag="0"/>
      <vel value="0.0066174737" flag="0"/>
      <psa03 value="0.0453456356" flag="0"/>
      <psa10 value="0.0044493349" flag="0"/>
      <psa30 value="0.0002045955" flag="0"/>
    </comp>
    <comp name="--.HHN">
      <acc value="0.0171053466" flag="0"/>
      <vel value="0.0065400602" flag="0"/>
      <psa03 value="0.0612501772" flag="0"/>
      <psa10 value="0.0088587786" flag="0"/>
      <psa30 value="0.0005464700" flag="0"/>
    </comp>
    <comp name="--.HHE">
      <acc value="0.0144786628" flag="0"/>
      <vel value="0.0066281150" flag="0"/>
      <psa03 value="0.0382014228" flag="0"/>
      <psa10 value="0.0085173402" flag="0"/>
      <psa30 value="0.0004665282" flag="0"/>
    </comp>
  </station>
  <station code="ZKR" name="ZKR" netid="GE" insttype="STS-2/N" lat="35.1147" lon="26.2169">
    <comp name="--.HHN">
      <acc value="0.0064468334" flag="0"/>
      <vel value="0.0036382189" flag="0"/>
      <psa03 value="0.0213215632" flag="0"/>
      <psa10 value="0.0027907565" flag="0"/>
      <psa30 value="0.0002555825" flag="0"/>
    </comp>
    <comp name="--.HHE">
      <acc value="0.0201708494" flag="0"/>
      <vel value="0.0105824123" flag="0"/>
      <psa03 value="0.0493712520" flag="0"/>
      <psa10 value="0.0084617632" flag="0"/>
      <psa30 value="0.0003772213" flag="0"/>
    </comp>
    <comp name="--.HHZ">
      <acc value="0.0111938627" flag="0"/>
      <vel value="0.0048725656" flag="0"/>
      <psa03 value="0.0305432348" flag="0"/>
      <psa10 value="0.0039305106" flag="0"/>
      <psa30 value="0.0003109531" flag="0"/>
    </comp>
  </station>
  <station code="GVDS" name="GVDS" netid="HC" insttype="60" lat="34.8389" lon="24.0585">
    <comp name="--.HHZ">
      <acc value="0.0067131438" flag="0"/>
      <vel value="0.0017449403" flag="0"/>
      <psa03 value="0.0066256477" flag="0"/>
      <psa10 value="0.0012217254" flag="0"/>
      <psa30 value="0.0002073900" flag="0"/>
    </comp>
    <comp name="--.HHE">
      <acc value="0.0110890042" flag="0"/>
      <vel value="0.0034282466" flag="0"/>
      <psa03 value="0.0249291996" flag="0"/>
      <psa10 value="0.0018400458" flag="0"/>
      <psa30 value="0.0001350737" flag="0"/>
    </comp>
    <comp name="--.HHN">
      <acc value="0.0112033709" flag="0"/>
      <vel value="0.0034432319" flag="0"/>
      <psa03 value="0.0199187434" flag="0"/>
      <psa10 value="0.0023400856" flag="0"/>
      <psa30 value="0.0004298280" flag="0"/>
    </comp>
  </station>
  <station code="IMOD" name="IMOD" netid="HC" insttype="120" lat="34.9731" lon="24.7995">
    <comp name="--.HHN">
      <acc value="0.0676455916" flag="0"/>
      <vel value="0.0311605337" flag="0"/>
      <psa03 value="0.2470040404" flag="0"/>
      <psa10 value="0.0285956057" flag="0"/>
      <psa30 value="0.0020045133" flag="0"/>
    </comp>
    <comp name="--.HHE">
      <acc value="0.0562877955" flag="0"/>
      <vel value="0.0239465326" flag="0"/>
      <psa03 value="0.2099094240" flag="0"/>
      <psa10 value="0.0131581050" flag="0"/>
      <psa30 value="0.0013153396" flag="0"/>
    </comp>
    <comp name="--.HHZ">
      <acc value="0.0448930649" flag="0"/>
      <vel value="0.0121867608" flag="0"/>
      <psa03 value="0.0996243706" flag="0"/>
      <psa10 value="0.0097210286" flag="0"/>
      <psa30 value="0.0005090551" flag="0"/>
    </comp>
  </station>
  <station code="KNSS" name="KNSS" netid="HC" insttype="60" lat="35.3042" lon="25.1802">
    <comp name="--.HHZ">
      <acc value="0.2545392838" flag="0"/>
      <vel value="0.0815808337" flag="0"/>
      <psa03 value="0.5419428699" flag="0"/>
      <psa10 value="0.0367173109" flag="0"/>
      <psa30 value="0.0034122507" flag="0"/>
    </comp>
    <comp name="--.HHN">
      <acc value="0.2879447638" flag="0"/>
      <vel value="0.1184450270" flag="0"/>
      <psa03 value="0.6167843884" flag="0"/>
      <psa10 value="0.0611549139" flag="0"/>
      <psa30 value="0.0036764646" flag="0"/>
    </comp>
    <comp name="--.HHE">
      <acc value="0.3751811889" flag="0"/>
      <vel value="0.1364815752" flag="0"/>
      <psa03 value="0.7832033068" flag="0"/>
      <psa10 value="0.0956502275" flag="0"/>
      <psa30 value="0.0072240836" flag="0"/>
    </comp>
  </station>
  <station code="STIA" name="STIA" netid="HC" insttype="120" lat="35.2021" lon="26.0909">
    <comp name="--.HHN">
      <acc value="0.0272239848" flag="0"/>
      <vel value="0.0080274600" flag="0"/>
      <psa03 value="0.0542554312" flag="0"/>
      <psa10 value="0.0043754634" flag="0"/>
      <psa30 value="0.0005180192" flag="0"/>
    </comp>
    <comp name="--.HHE">
      <acc value="0.0272247884" flag="0"/>
      <vel value="0.0088417324" flag="0"/>
      <psa03 value="0.0554994588" flag="0"/>
      <psa10 value="0.0102190610" flag="0"/>
      <psa30 value="0.0004633465" flag="0"/>
    </comp>
    <comp name="--.HHZ">
      <acc value="0.0214056417" flag="0"/>
      <vel value="0.0056358188" flag="0"/>
      <psa03 value="0.0367873360" flag="0"/>
      <psa10 value="0.0042810850" flag="0"/>
      <psa30 value="0.0004533962" flag="0"/>
    </comp>
  </station>
  <station code="SIT2" name="SIT2" netid="HI" insttype="CMG-5TD,ACCELEROMETER,GURALP" lat="35.2059" lon="26.107">
    <comp name="--.HNE">
      <acc value="0.0357151654" flag="0"/>
      <vel value="0.0239746218" flag="0"/>
      <psa03 value="0.1249811869" flag="0"/>
      <psa10 value="0.0160622933" flag="0"/>
      <psa30 value="0.0009183397" flag="0"/>
    </comp>
    <comp name="--.HNN">
      <acc value="0.0496465419" flag="0"/>
      <vel value="0.0250284933" flag="0"/>
      <psa03 value="0.1724014367" flag="0"/>
      <psa10 value="0.0139924411" flag="0"/>
      <psa30 value="0.0010519269" flag="0"/>
    </comp>
    <comp name="--.HNZ">
      <acc value="0.0373414441" flag="0"/>
      <vel value="0.0139725972" flag="0"/>
      <psa03 value="0.1072090172" flag="0"/>
      <psa10 value="0.0063052652" flag="0"/>
      <psa30 value="0.0004044753" flag="0"/>
    </comp>
  </station>
  <station code="GVD" name="GVD" netid="HL" insttype="120" lat="34.8391" lon="24.0874">
    <comp name="--.HHN">
      <acc value="0.0111302808" flag="0"/>
      <vel value="0.0053509098" flag="0"/>
      <psa03 value="0.0404155903" flag="0"/>
      <psa10 value="0.0027014189" flag="0"/>
      <psa30 value="0.0004729708" flag="0"/>
    </comp>
    <comp name="--.HHZ">
      <acc value="0.0081238963" flag="0"/>
      <vel value="0.0026099279" flag="0"/>
      <psa03 value="0.0119181379" flag="0"/>
      <psa10 value="0.0013528517" flag="0"/>
      <psa30 value="0.0000910027" flag="0"/>
    </comp>
    <comp name="--.HHE">
      <acc value="0.0132825096" flag="0"/>
      <vel value="0.0042973170" flag="0"/>
      <psa03 value="0.0370898337" flag="0"/>
      <psa10 value="0.0027101997" flag="0"/>
      <psa30 value="0.0002113128" flag="0"/>
    </comp>
  </station>
  <station code="IACM" name="IACM" netid="HL" insttype="120" lat="35.3058" lon="25.0709">
    <comp name="--.HHE">
      <acc value="0.5124678736" flag="0"/>
      <vel value="0.1808754080" flag="0"/>
      <psa03 value="1.0666800408" flag="0"/>
      <psa10 value="0.1718010124" flag="0"/>
      <psa30 value="0.0073069189" flag="0"/>
    </comp>
    <comp name="--.HHZ">
      <acc value="0.4205769150" flag="0"/>
      <vel value="0.0927128674" flag="0"/>
      <psa03 value="0.5697070354" flag="0"/>
      <psa10 value="0.0590464417" flag="0"/>
      <psa30 value="0.0031096039" flag="0"/>
    </comp>
    <comp name="--.HHN">
      <acc value="0.4960950312" flag="0"/>
      <vel value="0.1901937286" flag="0"/>
      <psa03 value="1.5576770081" flag="0"/>
      <psa10 value="0.1117848946" flag="0"/>
      <psa30 value="0.0079644098" flag="0"/>
    </comp>
  </station>
  <station code="IDI" name="IDI" netid="HL" insttype="120" lat="35.288" lon="24.89">
    <comp name="--.HHE">
      <acc value="0.0932796966" flag="0"/>
      <vel value="0.0177345004" flag="0"/>
      <psa03 value="0.1084031559" flag="0"/>
      <psa10 value="0.0084507623" flag="0"/>
      <psa30 value="0.0006336264" flag="0"/>
    </comp>
    <comp name="--.HHN">
      <acc value="0.1257922327" flag="0"/>
      <vel value="0.0239008396" flag="0"/>
      <psa03 value="0.1159057929" flag="0"/>
      <psa10 value="0.0087970929" flag="0"/>
      <psa30 value="0.0008158741" flag="0"/>
    </comp>
    <comp name="--.HHZ">
      <acc value="0.0681767178" flag="0"/>
      <vel value="0.0174309780" flag="0"/>
      <psa03 value="0.0599829192" flag="0"/>
      <psa10 value="0.0079346477" flag="0"/>
      <psa30 value="0.0007574518" flag="0"/>
    </comp>
  </station>
  <station code="IMMV" name="IMMV" netid="HL" insttype="120" lat="35.4606" lon="23.9811">
    <comp name="--.HHN">
      <acc value="0.0166483853" flag="0"/>
      <vel value="0.0064226308" flag="0"/>
      <psa03 value="0.0594329174" flag="0"/>
      <psa10 value="0.0088033943" flag="0"/>
      <psa30 value="0.0005441904" flag="0"/>
    </comp>
    <comp name="--.HHZ">
      <acc value="0.0135089571" flag="0"/>
      <vel value="0.0064644877" flag="0"/>
      <psa03 value="0.0440636031" flag="0"/>
      <psa10 value="0.0044033633" flag="0"/>
      <psa30 value="0.0002033026" flag="0"/>
    </comp>
    <comp name="--.HHE">
      <acc value="0.0142284780" flag="0"/>
      <vel value="0.0065455456" flag="0"/>
      <psa03 value="0.0370933436" flag="0"/>
      <psa10 value="0.0084522639" flag="0"/>
      <psa30 value="0.0004646363" flag="0"/>
    </comp>
  </station>
  <station code="NPS" name="NPS" netid="HL" insttype="CMG3ESPC-120s" lat="35.2613" lon="25.6104">
    <comp name="--.HHE">
      <acc value="0.0460542292" flag="0"/>
      <vel value="0.0119787353" flag="0"/>
      <psa03 value="0.0491421493" flag="0"/>
      <psa10 value="0.0128551043" flag="0"/>
      <psa30 value="0.0005549029" flag="0"/>
    </comp>
    <comp name="--.HHN">
      <acc value="0.1337841498" flag="0"/>
      <vel value="0.0332999590" flag="0"/>
      <psa03 value="0.0991586745" flag="0"/>
      <psa10 value="0.0257935948" flag="0"/>
      <psa30 value="0.0012643864" flag="0"/>
    </comp>
    <comp name="--.HHZ">
      <acc value="0.1271796764" flag="0"/>
      <vel value="0.0303349814" flag="0"/>
      <psa03 value="0.0661718137" flag="0"/>
      <psa10 value="0.0150312118" flag="0"/>
      <psa30 value="0.0008809452" flag="0"/>
    </comp>
  </station>
  <station code="SIVA" name="SIVA" netid="HL" insttype="60" lat="35.0178" lon="24.812">
    <comp name="--.HHZ">
      <acc value="0.0833335285" flag="0"/>
      <vel value="0.0313337654" flag="0"/>
      <psa03 value="0.1791673557" flag="0"/>
      <psa10 value="0.0110788848" flag="0"/>
      <psa30 value="0.0006174251" flag="0"/>
    </comp>
    <comp name="--.HHN">
      <acc value="0.1623659201" flag="0"/>
      <vel value="0.0590992813" flag="0"/>
      <psa03 value="0.3523812415" flag="0"/>
      <psa10 value="0.0320010950" flag="0"/>
      <psa30 value="0.0022871459" flag="0"/>
    </comp>
    <comp name="--.HHE">
      <acc value="0.1424025656" flag="0"/>
      <vel value="0.0578304142" flag="0"/>
      <psa03 value="0.2373254718" flag="0"/>
      <psa10 value="0.0242868680" flag="0"/>
      <psa30 value="0.0014573529" flag="0"/>
    </comp>
  </station>
  <station code="VAM" name="VAM" netid="HL" insttype="CMG3ESPC-120s" lat="35.407" lon="24.1997">
    <comp name="--.HHZ">
      <acc value="0.0205330960" flag="0"/>
      <vel value="0.0071723413" flag="0"/>
      <psa03 value="0.0393874450" flag="0"/>
      <psa10 value="0.0043237080" flag="0"/>
      <psa30 value="0.0004009441" flag="0"/>
    </comp>
    <comp name="--.HHE">
      <acc value="0.0355769608" flag="0"/>
      <vel value="0.0114978126" flag="0"/>
      <psa03 value="0.0700116719" flag="0"/>
      <psa10 value="0.0091662991" flag="0"/>
      <psa30 value="0.0005989263" flag="0"/>
    </comp>
    <comp name="--.HHN">
      <acc value="0.0395790161" flag="0"/>
      <vel value="0.0142474125" flag="0"/>
      <psa03 value="0.0712181369" flag="0"/>
      <psa10 value="0.0103168247" flag="0"/>
      <psa30 value="0.0007533340" flag="0"/>
    </comp>
  </station>
  <station code="ZKR" name="ZKR" netid="HL" insttype="120" lat="35.1147" lon="26.2169">
    <comp name="--.HHE">
      <acc value="0.0195839479" flag="0"/>
      <vel value="0.0103512726" flag="0"/>
      <psa03 value="0.0479413202" flag="0"/>
      <psa10 value="0.0083676019" flag="0"/>
      <psa30 value="0.0003702996" flag="0"/>
    </comp>
    <comp name="--.HHN">
      <acc value="0.0062671188" flag="0"/>
      <vel value="0.0035488592" flag="0"/>
      <psa03 value="0.0206867263" flag="0"/>
      <psa10 value="0.0027563509" flag="0"/>
      <psa30 value="0.0002556554" flag="0"/>
    </comp>
    <comp name="--.HHZ">
      <acc value="0.0108601186" flag="0"/>
      <vel value="0.0047558822" flag="0"/>
      <psa03 value="0.0297014337" flag="0"/>
      <psa10 value="0.0038990683" flag="0"/>
      <psa30 value="0.0003089734" flag="0"/>
    </comp>
  </station>
  <station code="IDI" name="IDI" netid="MN" insttype="" lat="35.288" lon="24.89">
    <comp name="--.HHN">
      <acc value="0.1480048467" flag="0"/>
      <vel value="0.0252436813" flag="0"/>
      <psa03 value="0.1172914442" flag="0"/>
      <psa10 value="0.0087330478" flag="0"/>
      <psa30 value="0.0008122407" flag="0"/>
    </comp>
    <comp name="--.HHE">
      <acc value="0.1065581147" flag="0"/>
      <vel value="0.0183472827" flag="0"/>
      <psa03 value="0.1103503705" flag="0"/>
      <psa10 value="0.0084180492" flag="0"/>
      <psa30 value="0.0006322501" flag="0"/>
    </comp>
    <comp name="--.HHZ">
      <acc value="0.0678822025" flag="0"/>
      <vel value="0.0183094983" flag="0"/>
      <psa03 value="0.0606239245" flag="0"/>
      <psa10 value="0.0079454462" flag="0"/>
      <psa30 value="0.0007526826" flag="0"/>
    </comp>
  </station>
</stationlist>
