<?xml version="1.0" encoding="UTF-8" standalone="yes"?>
<!DOCTYPE earthquake SYSTEM "stationlist.dtd">
<stationlist created="" xmlns="ch.ethz.sed.shakemap.usgs.xml">
  <station code="ARPRA" name="ARPRA" netid="KO" insttype="CMG-5T" lat="39.0929" lon="38.3356">
    <comp name="--.HNZ">
      <acc value="0.0063814703" flag="0"/>
      <vel value="0.0056370398" flag="0"/>
      <psa03 value="0.0248172015" flag="0"/>
      <psa10 value="0.0074279371" flag="0"/>
      <psa30 value="0.0003500605" flag="0"/>
    </comp>
    <comp name="--.HNE">
      <acc value="0.0155009539" flag="0"/>
      <vel value="0.0106876189" flag="0"/>
      <psa03 value="0.0385647338" flag="0"/>
      <psa10 value="0.0095908507" flag="0"/>
      <psa30 value="0.0007039238" flag="0"/>
    </comp>
    <comp name="--.HNN">
      <acc value="0.0151954140" flag="0"/>
      <vel value="0.0097539917" flag="0"/>
      <psa03 value="0.0432365627" flag="0"/>
      <psa10 value="0.0122794391" flag="0"/>
      <psa30 value="0.0006112047" flag="0"/>
    </comp>
  </station>
  <station code="DARE" name="DARE" netid="KO" insttype="CMG-3ESP" lat="38.5712" lon="37.4832">
    <comp name="--.HHE">
      <acc value="0.0063512590" flag="0"/>
      <vel value="0.0024208821" flag="0"/>
      <psa03 value="0.0103738818" flag="0"/>
      <psa10 value="0.0024361189" flag="0"/>
      <psa30 value="0.0002172080" flag="0"/>
    </comp>
    <comp name="--.HHN">
      <acc value="0.0044459905" flag="0"/>
      <vel value="0.0019547264" flag="0"/>
      <psa03 value="0.0103317404" flag="0"/>
      <psa10 value="0.0024262550" flag="0"/>
      <psa30 value="0.0001609600" flag="0"/>
    </comp>
  </station>
  <station code="SVRC" name="SVRC" netid="KO" insttype="CMG-3T" lat="38.3775" lon="39.306">
    <comp name="--.HHE">
      <acc value="0.0128298310" flag="0"/>
      <vel value="0.0054753678" flag="0"/>
      <psa03 value="0.0435735424" flag="0"/>
      <psa10 value="0.0065276827" flag="0"/>
      <psa30 value="0.0004187475" flag="0"/>
    </comp>
    <comp name="--.HHN">
      <acc value="0.0079470817" flag="0"/>
      <vel value="0.0050532952" flag="0"/>
      <psa03 value="0.0219892910" flag="0"/>
      <psa10 value="0.0046166966" flag="0"/>
      <psa30 value="0.0002751949" flag="0"/>
    </comp>
    <comp name="--.HHZ">
      <acc value="0.0070327702" flag="0"/>
      <vel value="0.0044922364" flag="0"/>
      <psa03 value="0.0206928076" flag="0"/>
      <psa10 value="0.0056150474" flag="0"/>
      <psa30 value="0.0004361961" flag="0"/>
    </comp>
  </station>
</stationlist>
