<?xml version="1.0" encoding="UTF-8" standalone="yes"?>
<!DOCTYPE earthquake SYSTEM "stationlist.dtd">
<stationlist created="" xmlns="ch.ethz.sed.shakemap.usgs.xml">
  <station code="ZKR" name="ZKR" netid="GE" insttype="STS-2/N" lat="35.1147" lon="26.2169">
    <comp name="--.HHE">
      <acc value="0.0229852389" flag="0"/>
      <vel value="0.0180304955" flag="0"/>
      <psa03 value="0.0613188873" flag="0"/>
      <psa10 value="0.0267741444" flag="0"/>
      <psa30 value="0.0021916190" flag="0"/>
    </comp>
    <comp name="--.HHZ">
      <acc value="0.0159933184" flag="0"/>
      <vel value="0.0113710778" flag="0"/>
      <psa03 value="0.0504841211" flag="0"/>
      <psa10 value="0.0263710589" flag="0"/>
      <psa30 value="0.0019538727" flag="0"/>
    </comp>
    <comp name="--.HHN">
      <acc value="0.0122236460" flag="0"/>
      <vel value="0.0081263874" flag="0"/>
      <psa03 value="0.0415755891" flag="0"/>
      <psa10 value="0.0096068871" flag="0"/>
      <psa30 value="0.0008720631" flag="0"/>
    </comp>
  </station>
  <station code="PFKS" name="PFKS" netid="HC" insttype="120" lat="35.0429" lon="25.4733">
    <comp name="--.HHN">
      <acc value="0.0279595805" flag="0"/>
      <vel value="0.0239937675" flag="0"/>
      <psa03 value="0.1084654516" flag="0"/>
      <psa10 value="0.0237974791" flag="0"/>
      <psa30 value="0.0016798914" flag="0"/>
    </comp>
    <comp name="--.HHE">
      <acc value="0.0334458386" flag="0"/>
      <vel value="0.0217404290" flag="0"/>
      <psa03 value="0.1235915028" flag="0"/>
      <psa10 value="0.0214791863" flag="0"/>
      <psa30 value="0.0018362125" flag="0"/>
    </comp>
    <comp name="--.HHZ">
      <acc value="0.0168834253" flag="0"/>
      <vel value="0.0104963424" flag="0"/>
      <psa03 value="0.0573734849" flag="0"/>
      <psa10 value="0.0137909207" flag="0"/>
      <psa30 value="0.0006685707" flag="0"/>
    </comp>
  </station>
  <station code="STIA" name="STIA" netid="HC" insttype="120" lat="35.2021" lon="26.0909">
    <comp name="--.HHE">
      <acc value="0.0255752751" flag="0"/>
      <vel value="0.0162646266" flag="0"/>
      <psa03 value="0.0859795901" flag="0"/>
      <psa10 value="0.0254423644" flag="0"/>
      <psa30 value="0.0027024400" flag="0"/>
    </comp>
    <comp name="--.HHZ">
      <acc value="0.0231587224" flag="0"/>
      <vel value="0.0122502704" flag="0"/>
      <psa03 value="0.0591918120" flag="0"/>
      <psa10 value="0.0135816287" flag="0"/>
      <psa30 value="0.0029252651" flag="0"/>
    </comp>
    <comp name="--.HHN">
      <acc value="0.0000000000" flag="0"/>
      <vel value="-100.0000000000" flag="0"/>
      <psa03 value="0.0000000000" flag="0"/>
      <psa10 value="0.0000000000" flag="0"/>
      <psa30 value="0.0000000000" flag="0"/>
    </comp>
  </station>
  <station code="ZKR" name="ZKR" netid="HL" insttype="120" lat="35.1147" lon="26.2169">
    <comp name="--.HHN">
      <acc value="0.0119663229" flag="0"/>
      <vel value="0.0079556264" flag="0"/>
      <psa03 value="0.0404274561" flag="0"/>
      <psa10 value="0.0095270581" flag="0"/>
      <psa30 value="0.0008707568" flag="0"/>
    </comp>
    <comp name="--.HHZ">
      <acc value="0.0154818070" flag="0"/>
      <vel value="0.0111192374" flag="0"/>
      <psa03 value="0.0490767765" flag="0"/>
      <psa10 value="0.0262088456" flag="0"/>
      <psa30 value="0.0019519943" flag="0"/>
    </comp>
    <comp name="--.HHE">
      <acc value="0.0223847844" flag="0"/>
      <vel value="0.0177050149" flag="0"/>
      <psa03 value="0.0598151355" flag="0"/>
      <psa10 value="0.0265922329" flag="0"/>
      <psa30 value="0.0021868119" flag="0"/>
    </comp>
  </station>
</stationlist>
