<?xml version="1.0" encoding="UTF-8" standalone="yes"?>
<!DOCTYPE earthquake SYSTEM "stationlist.dtd">
<stationlist created="" xmlns="ch.ethz.sed.shakemap.usgs.xml">
  <station code="ZKR" name="ZKR" netid="GE" insttype="STS-2/N" lat="35.1147" lon="26.2169">
    <comp name="--.HHN">
      <acc value="0.0122236459" flag="0"/>
      <vel value="0.0081263891" flag="0"/>
      <psa03 value="0.0415755891" flag="0"/>
      <psa10 value="0.0096068871" flag="0"/>
      <psa30 value="0.0008720722" flag="0"/>
    </comp>
    <comp name="--.HHE">
      <acc value="0.0229852388" flag="0"/>
      <vel value="0.0180304949" flag="0"/>
      <psa03 value="0.0613188873" flag="0"/>
      <psa10 value="0.0267741444" flag="0"/>
      <psa30 value="0.0021915752" flag="0"/>
    </comp>
    <comp name="--.HHZ">
      <acc value="0.0159933183" flag="0"/>
      <vel value="0.0113710771" flag="0"/>
      <psa03 value="0.0504841211" flag="0"/>
      <psa10 value="0.0263710589" flag="0"/>
      <psa30 value="0.0019538701" flag="0"/>
    </comp>
  </station>
  <station code="PFKS" name="PFKS" netid="HC" insttype="120" lat="35.0429" lon="25.4733">
    <comp name="--.HHN">
      <acc value="0.0279595806" flag="0"/>
      <vel value="0.0239937676" flag="0"/>
      <psa03 value="0.1084654516" flag="0"/>
      <psa10 value="0.0237974791" flag="0"/>
      <psa30 value="0.0016798885" flag="0"/>
    </comp>
    <comp name="--.HHZ">
      <acc value="0.0168834251" flag="0"/>
      <vel value="0.0104963430" flag="0"/>
      <psa03 value="0.0573734849" flag="0"/>
      <psa10 value="0.0137909207" flag="0"/>
      <psa30 value="0.0006685562" flag="0"/>
    </comp>
    <comp name="--.HHE">
      <acc value="0.0334458386" flag="0"/>
      <vel value="0.0217404287" flag="0"/>
      <psa03 value="0.1235915028" flag="0"/>
      <psa10 value="0.0214791863" flag="0"/>
      <psa30 value="0.0018362161" flag="0"/>
    </comp>
  </station>
  <station code="STIA" name="STIA" netid="HC" insttype="120" lat="35.2021" lon="26.0909">
    <comp name="--.HHN">
      <acc value="0.0000000000" flag="0"/>
      <vel value="-100.0000000000" flag="0"/>
      <psa03 value="0.0000000000" flag="0"/>
      <psa10 value="0.0000000000" flag="0"/>
      <psa30 value="0.0000000000" flag="0"/>
    </comp>
    <comp name="--.HHE">
      <acc value="0.0255752752" flag="0"/>
      <vel value="0.0162646279" flag="0"/>
      <psa03 value="0.0859795901" flag="0"/>
      <psa10 value="0.0254423644" flag="0"/>
      <psa30 value="0.0027024271" flag="0"/>
    </comp>
    <comp name="--.HHZ">
      <acc value="0.0231587224" flag="0"/>
      <vel value="0.0122502683" flag="0"/>
      <psa03 value="0.0591918120" flag="0"/>
      <psa10 value="0.0135816287" flag="0"/>
      <psa30 value="0.0029252966" flag="0"/>
    </comp>
  </station>
  <station code="ZKR" name="ZKR" netid="HL" insttype="120" lat="35.1147" lon="26.2169">
    <comp name="--.HHN">
      <acc value="0.0119663227" flag="0"/>
      <vel value="0.0079556273" flag="0"/>
      <psa03 value="0.0404274561" flag="0"/>
      <psa10 value="0.0095270581" flag="0"/>
      <psa30 value="0.0008707489" flag="0"/>
    </comp>
    <comp name="--.HHE">
      <acc value="0.0223847843" flag="0"/>
      <vel value="0.0177050142" flag="0"/>
      <psa03 value="0.0598151355" flag="0"/>
      <psa10 value="0.0265922329" flag="0"/>
      <psa30 value="0.0021867681" flag="0"/>
    </comp>
    <comp name="--.HHZ">
      <acc value="0.0154818070" flag="0"/>
      <vel value="0.0111192372" flag="0"/>
      <psa03 value="0.0490767765" flag="0"/>
      <psa10 value="0.0262088457" flag="0"/>
      <psa30 value="0.0019520160" flag="0"/>
    </comp>
  </station>
</stationlist>
