<?xml version="1.0" encoding="UTF-8" standalone="yes"?>
<!DOCTYPE earthquake SYSTEM "stationlist.dtd">
<stationlist created="" xmlns="ch.ethz.sed.shakemap.usgs.xml">
  <station code="ZKR" name="ZKR" netid="GE" insttype="STS-2/N" lat="35.1147" lon="26.2169">
    <comp name="--.HHN">
      <acc value="0.0122236459" flag="0"/>
      <vel value="0.0081263882" flag="0"/>
      <psa03 value="0.0415755891" flag="0"/>
      <psa10 value="0.0096068871" flag="0"/>
      <psa30 value="0.0008720793" flag="0"/>
    </comp>
    <comp name="--.HHZ">
      <acc value="0.0159933188" flag="0"/>
      <vel value="0.0113710777" flag="0"/>
      <psa03 value="0.0504841211" flag="0"/>
      <psa10 value="0.0263710589" flag="0"/>
      <psa30 value="0.0019538454" flag="0"/>
    </comp>
    <comp name="--.HHE">
      <acc value="0.0229852392" flag="0"/>
      <vel value="0.0180304959" flag="0"/>
      <psa03 value="0.0613188873" flag="0"/>
      <psa10 value="0.0267741444" flag="0"/>
      <psa30 value="0.0021916141" flag="0"/>
    </comp>
  </station>
</stationlist>
