<?xml version="1.0" encoding="UTF-8" standalone="yes"?>
<!DOCTYPE earthquake SYSTEM "stationlist.dtd">
<stationlist created="" xmlns="ch.ethz.sed.shakemap.usgs.xml">
  <station code="DARE" name="DARE" netid="KO" insttype="CMG-3ESP" lat="38.5712" lon="37.4832">
    <comp name="--.HHN">
      <acc value="0.0035628954" flag="0"/>
      <vel value="0.0005697717" flag="0"/>
      <psa03 value="0.0013319480" flag="0"/>
      <psa10 value="0.0000959492" flag="0"/>
      <psa30 value="0.0000063399" flag="0"/>
    </comp>
    <comp name="--.HHE">
      <acc value="0.0030513204" flag="0"/>
      <vel value="0.0007727150" flag="0"/>
      <psa03 value="0.0021512782" flag="0"/>
      <psa10 value="0.0001808468" flag="0"/>
      <psa30 value="0.0000144873" flag="0"/>
    </comp>
    <comp name="--.HHZ">
      <acc value="0.0022825289" flag="0"/>
      <vel value="0.0004564479" flag="0"/>
      <psa03 value="0.0022118422" flag="0"/>
      <psa10 value="0.0000956363" flag="0"/>
      <psa30 value="0.0000102560" flag="0"/>
    </comp>
  </station>
</stationlist>
