<?xml version="1.0" encoding="UTF-8" standalone="yes"?>
<!DOCTYPE earthquake SYSTEM "stationlist.dtd">
<stationlist created="" xmlns="ch.ethz.sed.shakemap.usgs.xml">
  <station code="AMUR" name="AMUR" netid="IV" insttype="" lat="40.9071" lon="16.6041">
    <comp name="--.HHE">
      <acc value="0.0526602933" flag="0"/>
      <vel value="0.0206350297" flag="0"/>
      <psa03 value="0.1217705695" flag="0"/>
      <psa10 value="0.0197102636" flag="0"/>
      <psa30 value="0.0024107375" flag="0"/>
    </comp>
    <comp name="--.HHZ">
      <acc value="0.0403790336" flag="0"/>
      <vel value="0.0161666510" flag="0"/>
      <psa03 value="0.0886774981" flag="0"/>
      <psa10 value="0.0109743970" flag="0"/>
      <psa30 value="0.0008665550" flag="0"/>
    </comp>
    <comp name="--.HHN">
      <acc value="0.0690945026" flag="0"/>
      <vel value="0.0252174724" flag="0"/>
      <psa03 value="0.2093908838" flag="0"/>
      <psa10 value="0.0151444731" flag="0"/>
      <psa30 value="0.0012073506" flag="0"/>
    </comp>
  </station>
  <station code="MESG" name="MESG" netid="IV" insttype="" lat="40.5894" lon="17.8504">
    <comp name="--.HHE">
      <acc value="0.0411410521" flag="0"/>
      <vel value="0.0149361957" flag="0"/>
      <psa03 value="0.0528530598" flag="0"/>
      <psa10 value="0.0224986426" flag="0"/>
      <psa30 value="0.0016443730" flag="0"/>
    </comp>
    <comp name="--.HHZ">
      <acc value="0.0313026589" flag="0"/>
      <vel value="0.0069894020" flag="0"/>
      <psa03 value="0.0321975520" flag="0"/>
      <psa10 value="0.0085020348" flag="0"/>
      <psa30 value="0.0009748188" flag="0"/>
    </comp>
    <comp name="--.HHN">
      <acc value="0.0403869923" flag="0"/>
      <vel value="0.0210273267" flag="0"/>
      <psa03 value="0.0824091004" flag="0"/>
      <psa10 value="0.0237144674" flag="0"/>
      <psa30 value="0.0011816188" flag="0"/>
    </comp>
  </station>
  <station code="MRVN" name="MRVN" netid="IV" insttype="" lat="41.0609" lon="16.1958">
    <comp name="--.HHE">
      <acc value="0.0770885562" flag="0"/>
      <vel value="0.0275678474" flag="0"/>
      <psa03 value="0.1056465672" flag="0"/>
      <psa10 value="0.0196263561" flag="0"/>
      <psa30 value="0.0020966032" flag="0"/>
    </comp>
    <comp name="--.HHN">
      <acc value="0.0653117351" flag="0"/>
      <vel value="0.0229954334" flag="0"/>
      <psa03 value="0.1130993577" flag="0"/>
      <psa10 value="0.0184463797" flag="0"/>
      <psa30 value="0.0016249688" flag="0"/>
    </comp>
    <comp name="--.HHZ">
      <acc value="0.0368832288" flag="0"/>
      <vel value="0.0126577575" flag="0"/>
      <psa03 value="0.0678770802" flag="0"/>
      <psa10 value="0.0176611010" flag="0"/>
      <psa30 value="0.0010510536" flag="0"/>
    </comp>
  </station>
  <station code="MSAG" name="MSAG" netid="IV" insttype="" lat="41.712" lon="15.9096">
    <comp name="--.HHE">
      <acc value="0.0902757910" flag="0"/>
      <vel value="0.0362622436" flag="0"/>
      <psa03 value="0.1319076684" flag="0"/>
      <psa10 value="0.0258478173" flag="0"/>
      <psa30 value="0.0014180079" flag="0"/>
    </comp>
    <comp name="--.HHN">
      <acc value="0.1629161155" flag="0"/>
      <vel value="0.0662332625" flag="0"/>
      <psa03 value="0.3940635256" flag="0"/>
      <psa10 value="0.0443809622" flag="0"/>
      <psa30 value="0.0018317355" flag="0"/>
    </comp>
    <comp name="--.HHZ">
      <acc value="0.0636977788" flag="0"/>
      <vel value="0.0219052910" flag="0"/>
      <psa03 value="0.1250088709" flag="0"/>
      <psa10 value="0.0250172283" flag="0"/>
      <psa30 value="0.0013575195" flag="0"/>
    </comp>
  </station>
  <station code="NOCI" name="NOCI" netid="IV" insttype="" lat="40.7888" lon="17.0644">
    <comp name="--.HHE">
      <acc value="0.1306620699" flag="0"/>
      <vel value="0.0597864724" flag="0"/>
      <psa03 value="0.1914917450" flag="0"/>
      <psa10 value="0.0339306837" flag="0"/>
      <psa30 value="0.0049124590" flag="0"/>
    </comp>
    <comp name="--.HHN">
      <acc value="0.1350967023" flag="0"/>
      <vel value="0.0329001497" flag="0"/>
      <psa03 value="0.1769019857" flag="0"/>
      <psa10 value="0.0118227779" flag="0"/>
      <psa30 value="0.0009341042" flag="0"/>
    </comp>
    <comp name="--.HHZ">
      <acc value="0.0680665589" flag="0"/>
      <vel value="0.0175022282" flag="0"/>
      <psa03 value="0.0950818867" flag="0"/>
      <psa10 value="0.0103029803" flag="0"/>
      <psa30 value="0.0008213182" flag="0"/>
    </comp>
  </station>
  <station code="SGRT" name="SGRT" netid="IV" insttype="" lat="41.7546" lon="15.7437">
    <comp name="--.HHN">
      <acc value="0.0768383057" flag="0"/>
      <vel value="0.0213700593" flag="0"/>
      <psa03 value="0.1798410453" flag="0"/>
      <psa10 value="0.0281626987" flag="0"/>
      <psa30 value="0.0015674488" flag="0"/>
    </comp>
    <comp name="--.HHE">
      <acc value="0.0991601904" flag="0"/>
      <vel value="0.0327355490" flag="0"/>
      <psa03 value="0.1811534555" flag="0"/>
      <psa10 value="0.0288076015" flag="0"/>
      <psa30 value="0.0014584933" flag="0"/>
    </comp>
    <comp name="--.HHZ">
      <acc value="0.0413747043" flag="0"/>
      <vel value="0.0172578360" flag="0"/>
      <psa03 value="0.0664602815" flag="0"/>
      <psa10 value="0.0167044606" flag="0"/>
      <psa30 value="0.0014501437" flag="0"/>
    </comp>
  </station>
  <station code="CGL1" name="CGL1" netid="OT" insttype="" lat="40.6484" lon="17.5173">
    <comp name="--.HHE">
      <acc value="0.0093563610" flag="0"/>
      <vel value="0.0044668381" flag="0"/>
      <psa03 value="0.0190762406" flag="0"/>
      <psa10 value="0.0034971876" flag="0"/>
      <psa30 value="0.0003055348" flag="0"/>
    </comp>
    <comp name="--.HHZ">
      <acc value="0.0066879852" flag="0"/>
      <vel value="0.0024548525" flag="0"/>
      <psa03 value="0.0128373242" flag="0"/>
      <psa10 value="0.0018100007" flag="0"/>
      <psa30 value="0.0001989724" flag="0"/>
    </comp>
    <comp name="--.HHN">
      <acc value="0.0094057724" flag="0"/>
      <vel value="0.0042529750" flag="0"/>
      <psa03 value="0.0177028328" flag="0"/>
      <psa10 value="0.0060951847" flag="0"/>
      <psa30 value="0.0003440746" flag="0"/>
    </comp>
  </station>
</stationlist>
