<?xml version="1.0" encoding="UTF-8" standalone="yes"?>
<!DOCTYPE earthquake SYSTEM "stationlist.dtd">
<stationlist created="" xmlns="ch.ethz.sed.shakemap.usgs.xml">
  <station code="GULT" name="GULT" netid="KO" insttype="CMG-3ESP" lat="40.432" lon="30.5152">
    <comp name="--.HHN">
      <acc value="0.0078733715" flag="0"/>
      <vel value="0.0042726655" flag="0"/>
      <psa03 value="0.0189751183" flag="0"/>
      <psa10 value="0.0036491114" flag="0"/>
      <psa30 value="0.0002904816" flag="0"/>
    </comp>
    <comp name="--.HHE">
      <acc value="0.0080332397" flag="0"/>
      <vel value="0.0039839127" flag="0"/>
      <psa03 value="0.0220332798" flag="0"/>
      <psa10 value="0.0041325452" flag="0"/>
      <psa30 value="0.0002125863" flag="0"/>
    </comp>
    <comp name="--.HHZ">
      <acc value="0.0067783715" flag="0"/>
      <vel value="0.0017249207" flag="0"/>
      <psa03 value="0.0136212522" flag="0"/>
      <psa10 value="0.0011771622" flag="0"/>
      <psa30 value="0.0000981000" flag="0"/>
    </comp>
  </station>
  <station code="MDUB" name="MDUB" netid="KO" insttype="CMG-3T" lat="40.4712" lon="31.1976">
    <comp name="--.HHN">
      <acc value="0.0000100639" flag="0"/>
      <vel value="0.0000008508" flag="0"/>
      <psa03 value="0.0000030438" flag="0"/>
      <psa10 value="0.0000008834" flag="0"/>
      <psa30 value="0.0000002001" flag="0"/>
    </comp>
    <comp name="--.HHE">
      <acc value="0.0079346800" flag="0"/>
      <vel value="0.0037354338" flag="0"/>
      <psa03 value="0.0227701695" flag="0"/>
      <psa10 value="0.0042412893" flag="0"/>
      <psa30 value="0.0002202298" flag="0"/>
    </comp>
    <comp name="--.HHZ">
      <acc value="0.0049256845" flag="0"/>
      <vel value="0.0022357034" flag="0"/>
      <psa03 value="0.0136275260" flag="0"/>
      <psa10 value="0.0016677511" flag="0"/>
      <psa30 value="0.0001681427" flag="0"/>
    </comp>
  </station>
  <station code="UVEZ" name="UVEZ" netid="KO" insttype="CMG-6T" lat="40.904" lon="30.9032">
    <comp name="--.HHE">
      <acc value="0.0205733027" flag="0"/>
      <vel value="0.0081361752" flag="0"/>
      <psa03 value="0.0400094886" flag="0"/>
      <psa10 value="0.0030377800" flag="0"/>
      <psa30 value="0.0002363317" flag="0"/>
    </comp>
    <comp name="--.HHN">
      <acc value="0.0286075157" flag="0"/>
      <vel value="0.0104400972" flag="0"/>
      <psa03 value="0.0558520477" flag="0"/>
      <psa10 value="0.0048630145" flag="0"/>
      <psa30 value="0.0003821983" flag="0"/>
    </comp>
    <comp name="--.HHZ">
      <acc value="0.0103095452" flag="0"/>
      <vel value="0.0037830435" flag="0"/>
      <psa03 value="0.0216170257" flag="0"/>
      <psa10 value="0.0011681164" flag="0"/>
      <psa30 value="0.0000974870" flag="0"/>
    </comp>
  </station>
</stationlist>
