<?xml version="1.0" encoding="UTF-8" standalone="yes"?>
<!DOCTYPE earthquake SYSTEM "stationlist.dtd">
<stationlist created="" xmlns="ch.ethz.sed.shakemap.usgs.xml">
  <station code="MYT1" name="MYT1" netid="HI" insttype="CMG-5TD,ACCELEROMETER,GURALP" lat="39.085" lon="26.5694">
    <comp name="--.HNZ">
      <acc value="0.0403781671" flag="0"/>
      <vel value="0.0309937124" flag="0"/>
      <psa03 value="0.0949037228" flag="0"/>
      <psa10 value="0.0473101192" flag="0"/>
      <psa30 value="0.0043142652" flag="0"/>
    </comp>
    <comp name="--.HNN">
      <acc value="0.0473753294" flag="0"/>
      <vel value="0.0387056897" flag="0"/>
      <psa03 value="0.1168981753" flag="0"/>
      <psa10 value="0.0549826784" flag="0"/>
      <psa30 value="0.0065991826" flag="0"/>
    </comp>
    <comp name="--.HNE">
      <acc value="0.0639944573" flag="0"/>
      <vel value="0.0321394282" flag="0"/>
      <psa03 value="0.1284409330" flag="0"/>
      <psa10 value="0.0437621895" flag="0"/>
      <psa30 value="0.0074289290" flag="0"/>
    </comp>
  </station>
  <station code="PRK" name="PRK" netid="HL" insttype="120" lat="39.2456" lon="26.265">
    <comp name="--.HHZ">
      <acc value="0.0639475273" flag="0"/>
      <vel value="0.0385122128" flag="0"/>
      <psa03 value="0.2440418228" flag="0"/>
      <psa10 value="0.0492483590" flag="0"/>
      <psa30 value="0.0075558934" flag="0"/>
    </comp>
    <comp name="--.HHN">
      <acc value="0.0915703600" flag="0"/>
      <vel value="0.0763266966" flag="0"/>
      <psa03 value="0.2869561381" flag="0"/>
      <psa10 value="0.1735863610" flag="0"/>
      <psa30 value="0.0164808764" flag="0"/>
    </comp>
    <comp name="--.HHE">
      <acc value="0.0832041157" flag="0"/>
      <vel value="0.0694125246" flag="0"/>
      <psa03 value="0.2109316763" flag="0"/>
      <psa10 value="0.1517126390" flag="0"/>
      <psa30 value="0.0140227219" flag="0"/>
    </comp>
  </station>
  <station code="PSRA" name="PSRA" netid="HL" insttype="CMG-5" lat="38.5398" lon="25.562">
    <comp name="00.HNZ">
      <acc value="0.0998788628" flag="0"/>
      <vel value="0.0269290365" flag="0"/>
      <psa03 value="0.1417448184" flag="0"/>
      <psa10 value="0.0114856452" flag="0"/>
      <psa30 value="0.0009241007" flag="0"/>
    </comp>
    <comp name="00.HNN">
      <acc value="0.1910432241" flag="0"/>
      <vel value="0.0656956630" flag="0"/>
      <psa03 value="0.2131830983" flag="0"/>
      <psa10 value="0.0194421490" flag="0"/>
      <psa30 value="0.0021344346" flag="0"/>
    </comp>
    <comp name="00.HNE">
      <acc value="0.1987489723" flag="0"/>
      <vel value="0.0677364260" flag="0"/>
      <psa03 value="0.3196990839" flag="0"/>
      <psa10 value="0.0371994523" flag="0"/>
      <psa30 value="0.0024108567" flag="0"/>
    </comp>
  </station>
  <station code="CHOS" name="CHOS" netid="HT" insttype="100" lat="38.3869" lon="26.0506">
    <comp name="--.HHZ">
      <acc value="0.0242770022" flag="0"/>
      <vel value="0.0133010688" flag="0"/>
      <psa03 value="0.0723571828" flag="0"/>
      <psa10 value="0.0101288986" flag="0"/>
      <psa30 value="0.0026265507" flag="0"/>
    </comp>
    <comp name="--.HHE">
      <acc value="0.0878005722" flag="0"/>
      <vel value="0.0398548651" flag="0"/>
      <psa03 value="0.2111005330" flag="0"/>
      <psa10 value="0.0232056886" flag="0"/>
      <psa30 value="0.0034087731" flag="0"/>
    </comp>
    <comp name="--.HHN">
      <acc value="0.0645329928" flag="0"/>
      <vel value="0.0343401539" flag="0"/>
      <psa03 value="0.1586745349" flag="0"/>
      <psa10 value="0.0334970304" flag="0"/>
      <psa30 value="0.0056435360" flag="0"/>
    </comp>
  </station>
  <station code="LES3" name="LES3" netid="HT" insttype="" lat="39.3032" lon="26.1807">
    <comp name="--.HHN">
      <acc value="0.0665194193" flag="0"/>
      <vel value="0.0325870961" flag="0"/>
      <psa03 value="0.2814369161" flag="0"/>
      <psa10 value="0.0362192806" flag="0"/>
      <psa30 value="0.0097441035" flag="0"/>
    </comp>
    <comp name="--.HHE">
      <acc value="0.0738406633" flag="0"/>
      <vel value="0.0338681303" flag="0"/>
      <psa03 value="0.3427531441" flag="0"/>
      <psa10 value="0.0266644209" flag="0"/>
      <psa30 value="0.0065176002" flag="0"/>
    </comp>
    <comp name="--.HHZ">
      <acc value="0.0381990230" flag="0"/>
      <vel value="0.0165373919" flag="0"/>
      <psa03 value="0.0817858507" flag="0"/>
      <psa10 value="0.0228686532" flag="0"/>
      <psa30 value="0.0049081700" flag="0"/>
    </comp>
  </station>
  <station code="SIGR" name="SIGR" netid="HT" insttype="100" lat="39.2114" lon="25.8553">
    <comp name="--.HHZ">
      <acc value="0.0973802514" flag="0"/>
      <vel value="0.0259054467" flag="0"/>
      <psa03 value="0.1541756307" flag="0"/>
      <psa10 value="0.0321529776" flag="0"/>
      <psa30 value="0.0059486160" flag="0"/>
    </comp>
    <comp name="--.HHN">
      <acc value="0.0770420499" flag="0"/>
      <vel value="0.0332974209" flag="0"/>
      <psa03 value="0.1397558946" flag="0"/>
      <psa10 value="0.0316948940" flag="0"/>
      <psa30 value="0.0065403395" flag="0"/>
    </comp>
    <comp name="--.HHE">
      <acc value="0.0822590595" flag="0"/>
      <vel value="0.0533295646" flag="0"/>
      <psa03 value="0.2595888779" flag="0"/>
      <psa10 value="0.0495636031" flag="0"/>
      <psa30 value="0.0037026402" flag="0"/>
    </comp>
  </station>
  <station code="BLCB" name="BLCB" netid="KO" insttype="CMG-3T" lat="38.3853" lon="27.042">
    <comp name="--.HHE">
      <acc value="0.0153731778" flag="0"/>
      <vel value="0.0116999837" flag="0"/>
      <psa03 value="0.0458786475" flag="0"/>
      <psa10 value="0.0189662240" flag="0"/>
      <psa30 value="0.0008891961" flag="0"/>
    </comp>
    <comp name="--.HHN">
      <acc value="0.0000444383" flag="0"/>
      <vel value="0.0000078871" flag="0"/>
      <psa03 value="0.0000275870" flag="0"/>
      <psa10 value="0.0000085496" flag="0"/>
      <psa30 value="0.0000003808" flag="0"/>
    </comp>
    <comp name="--.HHZ">
      <acc value="0.0084271990" flag="0"/>
      <vel value="0.0047129661" flag="0"/>
      <psa03 value="0.0193743017" flag="0"/>
      <psa10 value="0.0052244297" flag="0"/>
      <psa30 value="0.0013656455" flag="0"/>
    </comp>
  </station>
  <station code="DKL" name="DKL" netid="KO" insttype="CMG-3ESPC" lat="39.0713" lon="26.9053">
    <comp name="--.HHE">
      <acc value="0.0338696340" flag="0"/>
      <vel value="0.0158162089" flag="0"/>
      <psa03 value="0.0811809622" flag="0"/>
      <psa10 value="0.0238850575" flag="0"/>
      <psa30 value="0.0024189352" flag="0"/>
    </comp>
    <comp name="--.HHN">
      <acc value="0.0352822888" flag="0"/>
      <vel value="0.0265005270" flag="0"/>
      <psa03 value="0.0957323400" flag="0"/>
      <psa10 value="0.0221140011" flag="0"/>
      <psa30 value="0.0022539365" flag="0"/>
    </comp>
    <comp name="--.HHZ">
      <acc value="0.0379284824" flag="0"/>
      <vel value="0.0118655685" flag="0"/>
      <psa03 value="0.0614947659" flag="0"/>
      <psa10 value="0.0152015525" flag="0"/>
      <psa30 value="0.0011953221" flag="0"/>
    </comp>
  </station>
  <station code="EZN" name="EZN" netid="KO" insttype="CMG-3ESP" lat="39.8255" lon="26.3246">
    <comp name="--.HHE">
      <acc value="0.0406364688" flag="0"/>
      <vel value="0.0384084428" flag="0"/>
      <psa03 value="0.0721929090" flag="0"/>
      <psa10 value="0.0507724991" flag="0"/>
      <psa30 value="0.0034646325" flag="0"/>
    </comp>
    <comp name="--.HHZ">
      <acc value="0.0287520517" flag="0"/>
      <vel value="0.0207612299" flag="0"/>
      <psa03 value="0.0544413529" flag="0"/>
      <psa10 value="0.0291964103" flag="0"/>
      <psa30 value="0.0029423088" flag="0"/>
    </comp>
    <comp name="--.HHN">
      <acc value="0.0439268417" flag="0"/>
      <vel value="0.0375363195" flag="0"/>
      <psa03 value="0.0753431665" flag="0"/>
      <psa10 value="0.0586099887" flag="0"/>
      <psa30 value="0.0037093078" flag="0"/>
    </comp>
  </station>
  <station code="FOCM" name="FOCM" netid="KO" insttype="CMG-5T" lat="38.7131" lon="26.7309">
    <comp name="--.HNZ">
      <acc value="0.0212872177" flag="0"/>
      <vel value="0.0073794269" flag="0"/>
      <psa03 value="0.0396804817" flag="0"/>
      <psa10 value="0.0059423522" flag="0"/>
      <psa30 value="0.0016110125" flag="0"/>
    </comp>
    <comp name="--.HNN">
      <acc value="0.0306415500" flag="0"/>
      <vel value="0.0149601746" flag="0"/>
      <psa03 value="0.0728165033" flag="0"/>
      <psa10 value="0.0149119077" flag="0"/>
      <psa30 value="0.0023416570" flag="0"/>
    </comp>
    <comp name="--.HNE">
      <acc value="0.0243961293" flag="0"/>
      <vel value="0.0183688575" flag="0"/>
      <psa03 value="0.0658321289" flag="0"/>
      <psa10 value="0.0167293949" flag="0"/>
      <psa30 value="0.0010733705" flag="0"/>
    </comp>
  </station>
  <station code="YAYO" name="YAYO" netid="KO" insttype="CMG-6T" lat="39.6113" lon="27.0726">
    <comp name="--.HHE">
      <acc value="0.0244524213" flag="0"/>
      <vel value="0.0248828154" flag="0"/>
      <psa03 value="0.0718716042" flag="0"/>
      <psa10 value="0.0366470991" flag="0"/>
      <psa30 value="0.0022008755" flag="0"/>
    </comp>
    <comp name="--.HHN">
      <acc value="0.0265618535" flag="0"/>
      <vel value="0.0215894338" flag="0"/>
      <psa03 value="0.1000191062" flag="0"/>
      <psa10 value="0.0350584305" flag="0"/>
      <psa30 value="0.0022334349" flag="0"/>
    </comp>
    <comp name="--.HHZ">
      <acc value="0.0192523329" flag="0"/>
      <vel value="0.0137034337" flag="0"/>
      <psa03 value="0.0453903450" flag="0"/>
      <psa10 value="0.0195022109" flag="0"/>
      <psa30 value="0.0019931106" flag="0"/>
    </comp>
  </station>
</stationlist>
