<?xml version="1.0" encoding="UTF-8" standalone="yes"?>
<!DOCTYPE earthquake SYSTEM "stationlist.dtd">
<stationlist created="" xmlns="ch.ethz.sed.shakemap.usgs.xml">
  <station code="MYT1" name="MYT1" netid="HI" insttype="CMG-5TD,ACCELEROMETER,GURALP" lat="39.085" lon="26.5694">
    <comp name="--.HNZ">
      <acc value="0.0403781672" flag="0"/>
      <vel value="0.0309937131" flag="0"/>
      <psa03 value="0.0949037228" flag="0"/>
      <psa10 value="0.0473101182" flag="0"/>
      <psa30 value="0.0043142216" flag="0"/>
    </comp>
    <comp name="--.HNE">
      <acc value="0.0639944572" flag="0"/>
      <vel value="0.0321394262" flag="0"/>
      <psa03 value="0.1284409330" flag="0"/>
      <psa10 value="0.0437621887" flag="0"/>
      <psa30 value="0.0074289447" flag="0"/>
    </comp>
    <comp name="--.HNN">
      <acc value="0.0473753293" flag="0"/>
      <vel value="0.0387056908" flag="0"/>
      <psa03 value="0.1168981753" flag="0"/>
      <psa10 value="0.0549826773" flag="0"/>
      <psa30 value="0.0065991215" flag="0"/>
    </comp>
  </station>
  <station code="PRK" name="PRK" netid="HL" insttype="120" lat="39.2456" lon="26.265">
    <comp name="--.HHE">
      <acc value="0.0832041157" flag="0"/>
      <vel value="0.0694125225" flag="0"/>
      <psa03 value="0.2109316763" flag="0"/>
      <psa10 value="0.1517126446" flag="0"/>
      <psa30 value="0.0140228102" flag="0"/>
    </comp>
    <comp name="--.HHN">
      <acc value="0.0915703600" flag="0"/>
      <vel value="0.0763266968" flag="0"/>
      <psa03 value="0.2869561381" flag="0"/>
      <psa10 value="0.1735863609" flag="0"/>
      <psa30 value="0.0164808896" flag="0"/>
    </comp>
    <comp name="--.HHZ">
      <acc value="0.0639475273" flag="0"/>
      <vel value="0.0385122134" flag="0"/>
      <psa03 value="0.2440418228" flag="0"/>
      <psa10 value="0.0492483598" flag="0"/>
      <psa30 value="0.0075559497" flag="0"/>
    </comp>
  </station>
  <station code="PSRA" name="PSRA" netid="HL" insttype="CMG-5" lat="38.5398" lon="25.562">
    <comp name="00.HNE">
      <acc value="0.1987489723" flag="0"/>
      <vel value="0.0677364256" flag="0"/>
      <psa03 value="0.3196990839" flag="0"/>
      <psa10 value="0.0371994523" flag="0"/>
      <psa30 value="0.0024108898" flag="0"/>
    </comp>
    <comp name="00.HNZ">
      <acc value="0.0998788630" flag="0"/>
      <vel value="0.0269290362" flag="0"/>
      <psa03 value="0.1417448184" flag="0"/>
      <psa10 value="0.0114856467" flag="0"/>
      <psa30 value="0.0009241063" flag="0"/>
    </comp>
    <comp name="00.HNN">
      <acc value="0.1910432238" flag="0"/>
      <vel value="0.0656956627" flag="0"/>
      <psa03 value="0.2131830983" flag="0"/>
      <psa10 value="0.0194421467" flag="0"/>
      <psa30 value="0.0021343995" flag="0"/>
    </comp>
  </station>
  <station code="CHOS" name="CHOS" netid="HT" insttype="100" lat="38.3869" lon="26.0506">
    <comp name="--.HHN">
      <acc value="0.0645329928" flag="0"/>
      <vel value="0.0343401538" flag="0"/>
      <psa03 value="0.1586745349" flag="0"/>
      <psa10 value="0.0334970296" flag="0"/>
      <psa30 value="0.0056435373" flag="0"/>
    </comp>
    <comp name="--.HHE">
      <acc value="0.0878005722" flag="0"/>
      <vel value="0.0398548669" flag="0"/>
      <psa03 value="0.2111005330" flag="0"/>
      <psa10 value="0.0232056890" flag="0"/>
      <psa30 value="0.0034087309" flag="0"/>
    </comp>
    <comp name="--.HHZ">
      <acc value="0.0242770022" flag="0"/>
      <vel value="0.0133010689" flag="0"/>
      <psa03 value="0.0723571828" flag="0"/>
      <psa10 value="0.0101289002" flag="0"/>
      <psa30 value="0.0026265490" flag="0"/>
    </comp>
  </station>
  <station code="LES3" name="LES3" netid="HT" insttype="" lat="39.3032" lon="26.1807">
    <comp name="--.HHN">
      <acc value="0.0665194195" flag="0"/>
      <vel value="0.0325871340" flag="0"/>
      <psa03 value="0.2814369163" flag="0"/>
      <psa10 value="0.0362192808" flag="0"/>
      <psa30 value="0.0097441728" flag="0"/>
    </comp>
    <comp name="--.HHZ">
      <acc value="0.0381990230" flag="0"/>
      <vel value="0.0165373984" flag="0"/>
      <psa03 value="0.0817858507" flag="0"/>
      <psa10 value="0.0228686536" flag="0"/>
      <psa30 value="0.0049081636" flag="0"/>
    </comp>
    <comp name="--.HHE">
      <acc value="0.0738406626" flag="0"/>
      <vel value="0.0338675421" flag="0"/>
      <psa03 value="0.3427531441" flag="0"/>
      <psa10 value="0.0266644210" flag="0"/>
      <psa30 value="0.0065176283" flag="0"/>
    </comp>
  </station>
  <station code="SIGR" name="SIGR" netid="HT" insttype="100" lat="39.2114" lon="25.8553">
    <comp name="--.HHE">
      <acc value="0.0822590595" flag="0"/>
      <vel value="0.0533295649" flag="0"/>
      <psa03 value="0.2595888779" flag="0"/>
      <psa10 value="0.0495636007" flag="0"/>
      <psa30 value="0.0037026029" flag="0"/>
    </comp>
    <comp name="--.HHN">
      <acc value="0.0770420499" flag="0"/>
      <vel value="0.0332974194" flag="0"/>
      <psa03 value="0.1397558946" flag="0"/>
      <psa10 value="0.0316948989" flag="0"/>
      <psa30 value="0.0065402772" flag="0"/>
    </comp>
    <comp name="--.HHZ">
      <acc value="0.0973802514" flag="0"/>
      <vel value="0.0259054520" flag="0"/>
      <psa03 value="0.1541756307" flag="0"/>
      <psa10 value="0.0321529777" flag="0"/>
      <psa30 value="0.0059485740" flag="0"/>
    </comp>
  </station>
</stationlist>
