<?xml version="1.0" encoding="UTF-8" standalone="yes"?>
<!DOCTYPE earthquake SYSTEM "stationlist.dtd">
<stationlist created="" xmlns="ch.ethz.sed.shakemap.usgs.xml">
  <station code="BOUC" name="BOUC" netid="FR" insttype="TRILLIUM-120PH" lat="47.2469" lon="6.25606">
    <comp name="00.HH2">
      <acc value="0.0188715998" flag="0"/>
      <vel value="0.0039270674" flag="0"/>
      <psa03 value="0.0183181684" flag="0"/>
      <psa10 value="0.0027381562" flag="0"/>
      <psa30 value="0.0004755531" flag="0"/>
    </comp>
    <comp name="00.HH1">
      <acc value="0.0218440374" flag="0"/>
      <vel value="0.0049235542" flag="0"/>
      <psa03 value="0.0227524287" flag="0"/>
      <psa10 value="0.0022488796" flag="0"/>
      <psa30 value="0.0002286130" flag="0"/>
    </comp>
    <comp name="00.HHZ">
      <acc value="0.0093414160" flag="0"/>
      <vel value="0.0030602267" flag="0"/>
      <psa03 value="0.0149335733" flag="0"/>
      <psa10 value="0.0019280391" flag="0"/>
      <psa30 value="0.0002146654" flag="0"/>
    </comp>
  </station>
  <station code="CHMF" name="CHMF" netid="FR" insttype="STS-2" lat="47.2484" lon="6.6517">
    <comp name="00.HHN">
      <acc value="0.0112097036" flag="0"/>
      <vel value="0.0041709735" flag="0"/>
      <psa03 value="0.0254160334" flag="0"/>
      <psa10 value="0.0037235351" flag="0"/>
      <psa30 value="0.0003852666" flag="0"/>
    </comp>
    <comp name="00.HHZ">
      <acc value="0.0129435367" flag="0"/>
      <vel value="0.0045840346" flag="0"/>
      <psa03 value="0.0238654976" flag="0"/>
      <psa10 value="0.0031080373" flag="0"/>
      <psa30 value="0.0004924939" flag="0"/>
    </comp>
    <comp name="00.HHE">
      <acc value="0.0122512610" flag="0"/>
      <vel value="0.0052740089" flag="0"/>
      <psa03 value="0.0319711673" flag="0"/>
      <psa10 value="0.0026639831" flag="0"/>
      <psa30 value="0.0007951184" flag="0"/>
    </comp>
  </station>
  <station code="FAHY" name="FAHY" netid="FR" insttype="TRILLIUM-120PH" lat="47.5055" lon="5.46309">
    <comp name="00.HH1">
      <acc value="0.0074889491" flag="0"/>
      <vel value="0.0019511877" flag="0"/>
      <psa03 value="0.0108274002" flag="0"/>
      <psa10 value="0.0016357653" flag="0"/>
      <psa30 value="0.0001226814" flag="0"/>
    </comp>
    <comp name="00.HH2">
      <acc value="0.0112619489" flag="0"/>
      <vel value="0.0021439530" flag="0"/>
      <psa03 value="0.0069044573" flag="0"/>
      <psa10 value="0.0013754478" flag="0"/>
      <psa30 value="0.0001411940" flag="0"/>
    </comp>
    <comp name="00.HHZ">
      <acc value="0.0040185229" flag="0"/>
      <vel value="0.0009378564" flag="0"/>
      <psa03 value="0.0054040656" flag="0"/>
      <psa10 value="0.0008511333" flag="0"/>
      <psa30 value="0.0001403106" flag="0"/>
    </comp>
  </station>
  <station code="FOURG" name="FOURG" netid="FR" insttype="TRILLIUM-120PH" lat="47.1043" lon="5.8105">
    <comp name="00.HH2">
      <acc value="0.0064449296" flag="0"/>
      <vel value="0.0020389978" flag="0"/>
      <psa03 value="0.0081106061" flag="0"/>
      <psa10 value="0.0012058510" flag="0"/>
      <psa30 value="0.0002912810" flag="0"/>
    </comp>
    <comp name="00.HHZ">
      <acc value="0.0047867742" flag="0"/>
      <vel value="0.0014453869" flag="0"/>
      <psa03 value="0.0100141520" flag="0"/>
      <psa10 value="0.0022147077" flag="0"/>
      <psa30 value="0.0005517098" flag="0"/>
    </comp>
    <comp name="00.HH1">
      <acc value="0.0063395894" flag="0"/>
      <vel value="0.0021822109" flag="0"/>
      <psa03 value="0.0129851187" flag="0"/>
      <psa10 value="0.0026232746" flag="0"/>
      <psa30 value="0.0005262780" flag="0"/>
    </comp>
  </station>
  <station code="ILLF" name="ILLF" netid="FR" insttype="TRILLIUM-Compact" lat="47.6834" lon="7.2543">
    <comp name="00.HHE">
      <acc value="0.0392820963" flag="0"/>
      <vel value="0.0105470908" flag="0"/>
      <psa03 value="0.0478988565" flag="0"/>
      <psa10 value="0.0034863928" flag="0"/>
      <psa30 value="0.0002568052" flag="0"/>
    </comp>
    <comp name="00.HHN">
      <acc value="0.0391644257" flag="0"/>
      <vel value="0.0104934487" flag="0"/>
      <psa03 value="0.0627988104" flag="0"/>
      <psa10 value="0.0042703828" flag="0"/>
      <psa30 value="0.0003137294" flag="0"/>
    </comp>
    <comp name="00.HHZ">
      <acc value="0.0236659596" flag="0"/>
      <vel value="0.0076798284" flag="0"/>
      <psa03 value="0.0278496171" flag="0"/>
      <psa10 value="0.0015839277" flag="0"/>
      <psa30 value="0.0001042223" flag="0"/>
    </comp>
  </station>
  <station code="OG02" name="OG02" netid="FR" insttype="TRILLIUM-120QA" lat="46.1542" lon="6.22021">
    <comp name="00.HHN">
      <acc value="0.0073357893" flag="0"/>
      <vel value="0.0022520284" flag="0"/>
      <psa03 value="0.0127400997" flag="0"/>
      <psa10 value="0.0010012811" flag="0"/>
      <psa30 value="0.0001256035" flag="0"/>
    </comp>
    <comp name="00.HHE">
      <acc value="0.0032739323" flag="0"/>
      <vel value="0.0010922591" flag="0"/>
      <psa03 value="0.0061203636" flag="0"/>
      <psa10 value="0.0008291970" flag="0"/>
      <psa30 value="0.0001361083" flag="0"/>
    </comp>
    <comp name="00.HHZ">
      <acc value="0.0033624260" flag="0"/>
      <vel value="0.0011802270" flag="0"/>
      <psa03 value="0.0081217046" flag="0"/>
      <psa10 value="0.0013748483" flag="0"/>
      <psa30 value="0.0001046785" flag="0"/>
    </comp>
  </station>
  <station code="OG35" name="OG35" netid="FR" insttype="TRILLIUM-240" lat="46.0445" lon="5.57127">
    <comp name="00.HHN">
      <acc value="0.0032029972" flag="0"/>
      <vel value="0.0012555268" flag="0"/>
      <psa03 value="0.0064522298" flag="0"/>
      <psa10 value="0.0016901792" flag="0"/>
      <psa30 value="0.0001901591" flag="0"/>
    </comp>
    <comp name="00.HHE">
      <acc value="0.0028202892" flag="0"/>
      <vel value="0.0012644328" flag="0"/>
      <psa03 value="0.0080657798" flag="0"/>
      <psa10 value="0.0010510295" flag="0"/>
      <psa30 value="0.0001433911" flag="0"/>
    </comp>
    <comp name="00.HHZ">
      <acc value="0.0018404664" flag="0"/>
      <vel value="0.0008259185" flag="0"/>
      <psa03 value="0.0044871517" flag="0"/>
      <psa10 value="0.0008582261" flag="0"/>
      <psa30 value="0.0000985351" flag="0"/>
    </comp>
  </station>
  <station code="OGMY" name="OGMY" netid="FR" insttype="TRILLIUM-120PH" lat="45.881" lon="5.88932">
    <comp name="00.HHZ">
      <acc value="0.0020164666" flag="0"/>
      <vel value="0.0006594829" flag="0"/>
      <psa03 value="0.0037343939" flag="0"/>
      <psa10 value="0.0007309916" flag="0"/>
      <psa30 value="0.0001355572" flag="0"/>
    </comp>
    <comp name="00.HHN">
      <acc value="0.0031144985" flag="0"/>
      <vel value="0.0015434568" flag="0"/>
      <psa03 value="0.0077138943" flag="0"/>
      <psa10 value="0.0014566948" flag="0"/>
      <psa30 value="0.0001171483" flag="0"/>
    </comp>
    <comp name="00.HHE">
      <acc value="0.0025014422" flag="0"/>
      <vel value="0.0012952528" flag="0"/>
      <psa03 value="0.0089724609" flag="0"/>
      <psa10 value="0.0012671358" flag="0"/>
      <psa30 value="0.0001605259" flag="0"/>
    </comp>
  </station>
  <station code="OGSI" name="OGSI" netid="FR" insttype="TRILLIUM-Compact" lat="46.0565" lon="6.75688">
    <comp name="00.HHE">
      <acc value="0.0037589069" flag="0"/>
      <vel value="0.0017682704" flag="0"/>
      <psa03 value="0.0169607559" flag="0"/>
      <psa10 value="0.0019492328" flag="0"/>
      <psa30 value="0.0004670900" flag="0"/>
    </comp>
    <comp name="00.HHN">
      <acc value="0.0043889692" flag="0"/>
      <vel value="0.0018333234" flag="0"/>
      <psa03 value="0.0117979564" flag="0"/>
      <psa10 value="0.0009468294" flag="0"/>
      <psa30 value="0.0002345352" flag="0"/>
    </comp>
    <comp name="00.HHZ">
      <acc value="0.0037617795" flag="0"/>
      <vel value="0.0012162335" flag="0"/>
      <psa03 value="0.0104793176" flag="0"/>
      <psa10 value="0.0012930595" flag="0"/>
      <psa30 value="0.0001261522" flag="0"/>
    </comp>
  </station>
  <station code="OGVA" name="OGVA" netid="FR" insttype="TRILLIUM-120PH" lat="46.3298" lon="6.68207">
    <comp name="00.HHE">
      <acc value="0.0053913551" flag="0"/>
      <vel value="0.0035327450" flag="0"/>
      <psa03 value="0.0137300372" flag="0"/>
      <psa10 value="0.0039003687" flag="0"/>
      <psa30 value="0.0006602334" flag="0"/>
    </comp>
    <comp name="00.HHN">
      <acc value="0.0064779722" flag="0"/>
      <vel value="0.0030929222" flag="0"/>
      <psa03 value="0.0176210768" flag="0"/>
      <psa10 value="0.0028137965" flag="0"/>
      <psa30 value="0.0003291717" flag="0"/>
    </comp>
    <comp name="00.HHZ">
      <acc value="0.0064709163" flag="0"/>
      <vel value="0.0033266551" flag="0"/>
      <psa03 value="0.0159188410" flag="0"/>
      <psa10 value="0.0029847929" flag="0"/>
      <psa30 value="0.0002358251" flag="0"/>
    </comp>
  </station>
  <station code="RIVEL" name="RIVEL" netid="FR" insttype="TRILLIUM-120PH" lat="46.759" lon="5.92249">
    <comp name="00.HH1">
      <acc value="0.0114523270" flag="0"/>
      <vel value="0.0057429579" flag="0"/>
      <psa03 value="0.0520358356" flag="0"/>
      <psa10 value="0.0043104988" flag="0"/>
      <psa30 value="0.0003974651" flag="0"/>
    </comp>
    <comp name="00.HHZ">
      <acc value="0.0123252958" flag="0"/>
      <vel value="0.0041963644" flag="0"/>
      <psa03 value="0.0373777092" flag="0"/>
      <psa10 value="0.0026305826" flag="0"/>
      <psa30 value="0.0003775149" flag="0"/>
    </comp>
    <comp name="00.HH2">
      <acc value="0.0132826777" flag="0"/>
      <vel value="0.0078568041" flag="0"/>
      <psa03 value="0.0370344749" flag="0"/>
      <psa10 value="0.0091452757" flag="0"/>
      <psa30 value="0.0012709308" flag="0"/>
    </comp>
  </station>
  <station code="RONF" name="RONF" netid="FR" insttype="TRILLIUM-120QA" lat="47.7102" lon="6.64536">
    <comp name="00.HHN">
      <acc value="0.0180210731" flag="0"/>
      <vel value="0.0061964174" flag="0"/>
      <psa03 value="0.0279677205" flag="0"/>
      <psa10 value="0.0017016238" flag="0"/>
      <psa30 value="0.0001050907" flag="0"/>
    </comp>
    <comp name="00.HHE">
      <acc value="0.0433867589" flag="0"/>
      <vel value="0.0111422779" flag="0"/>
      <psa03 value="0.0202285461" flag="0"/>
      <psa10 value="0.0036358339" flag="0"/>
      <psa30 value="0.0002666053" flag="0"/>
    </comp>
    <comp name="00.HHZ">
      <acc value="0.0116778574" flag="0"/>
      <vel value="0.0034761228" flag="0"/>
      <psa03 value="0.0124998909" flag="0"/>
      <psa10 value="0.0008991635" flag="0"/>
      <psa30 value="0.0001147622" flag="0"/>
    </comp>
  </station>
  <station code="BLANC" name="BLANC" netid="GU" insttype="" lat="45.8444" lon="6.934">
    <comp name="--.HHZ">
      <acc value="0.0047438807" flag="0"/>
      <vel value="0.0013768783" flag="0"/>
      <psa03 value="0.0079794613" flag="0"/>
      <psa10 value="0.0011150853" flag="0"/>
      <psa30 value="0.0000943435" flag="0"/>
    </comp>
    <comp name="--.HHN">
      <acc value="0.0098789114" flag="0"/>
      <vel value="0.0018780289" flag="0"/>
      <psa03 value="0.0077795656" flag="0"/>
      <psa10 value="0.0018731297" flag="0"/>
      <psa30 value="0.0001081250" flag="0"/>
    </comp>
    <comp name="--.HHE">
      <acc value="0.0058022654" flag="0"/>
      <vel value="0.0026240367" flag="0"/>
      <psa03 value="0.0137683296" flag="0"/>
      <psa10 value="0.0020781358" flag="0"/>
      <psa30 value="0.0003159335" flag="0"/>
    </comp>
  </station>
  <station code="OGAN" name="OGAN" netid="RA" insttype="" lat="45.8918" lon="6.13555">
    <comp name="00.HNE">
      <acc value="0.0008255377" flag="0"/>
      <vel value="0.0006058485" flag="0"/>
      <psa03 value="0.0016299212" flag="0"/>
      <psa10 value="0.0004609022" flag="0"/>
      <psa30 value="0.0002439744" flag="0"/>
    </comp>
    <comp name="00.HNZ">
      <acc value="0.0021170251" flag="0"/>
      <vel value="0.0008571149" flag="0"/>
      <psa03 value="0.0042300403" flag="0"/>
      <psa10 value="0.0009190042" flag="0"/>
      <psa30 value="0.0000692319" flag="0"/>
    </comp>
    <comp name="00.HNN">
      <acc value="0.0037136302" flag="0"/>
      <vel value="0.0014527480" flag="0"/>
      <psa03 value="0.0095560082" flag="0"/>
      <psa10 value="0.0017903446" flag="0"/>
      <psa30 value="0.0001485626" flag="0"/>
    </comp>
  </station>
  <station code="OGEP" name="OGEP" netid="RA" insttype="" lat="45.9378" lon="6.09074">
    <comp name="00.HNN">
      <acc value="0.0111819182" flag="0"/>
      <vel value="0.0062563124" flag="0"/>
      <psa03 value="0.0315142857" flag="0"/>
      <psa10 value="0.0063975520" flag="0"/>
      <psa30 value="0.0002842259" flag="0"/>
    </comp>
    <comp name="00.HNE">
      <acc value="0.0146368844" flag="0"/>
      <vel value="0.0065876038" flag="0"/>
      <psa03 value="0.0461893185" flag="0"/>
      <psa10 value="0.0051246480" flag="0"/>
      <psa30 value="0.0003044838" flag="0"/>
    </comp>
    <comp name="00.HNZ">
      <acc value="0.0092952142" flag="0"/>
      <vel value="0.0028844547" flag="0"/>
      <psa03 value="0.0133693900" flag="0"/>
      <psa10 value="0.0020314023" flag="0"/>
      <psa30 value="0.0001514620" flag="0"/>
    </comp>
  </station>
  <station code="OGME" name="OGME" netid="RA" insttype="" lat="45.9204" lon="6.10455">
    <comp name="00.HNE">
      <acc value="0.0501057230" flag="0"/>
      <vel value="0.0221828849" flag="0"/>
      <psa03 value="0.0749087352" flag="0"/>
      <psa10 value="0.0088580621" flag="0"/>
      <psa30 value="0.0006715719" flag="0"/>
    </comp>
    <comp name="00.HNN">
      <acc value="0.0492265934" flag="0"/>
      <vel value="0.0187466461" flag="0"/>
      <psa03 value="0.0819533180" flag="0"/>
      <psa10 value="0.0189505287" flag="0"/>
      <psa30 value="0.0007405031" flag="0"/>
    </comp>
    <comp name="00.HNZ">
      <acc value="0.0310424186" flag="0"/>
      <vel value="0.0084414392" flag="0"/>
      <psa03 value="0.0435748916" flag="0"/>
      <psa10 value="0.0052610142" flag="0"/>
      <psa30 value="0.0002818760" flag="0"/>
    </comp>
  </station>
  <station code="OGPO" name="OGPO" netid="RA" insttype="" lat="45.9228" lon="6.06343">
    <comp name="00.HNN">
      <acc value="0.0142575624" flag="0"/>
      <vel value="0.0042682282" flag="0"/>
      <psa03 value="0.0173341243" flag="0"/>
      <psa10 value="0.0021521708" flag="0"/>
      <psa30 value="0.0001183815" flag="0"/>
    </comp>
    <comp name="00.HNE">
      <acc value="0.0124780056" flag="0"/>
      <vel value="0.0031447586" flag="0"/>
      <psa03 value="0.0170635755" flag="0"/>
      <psa10 value="0.0019079198" flag="0"/>
      <psa30 value="0.0001413523" flag="0"/>
    </comp>
    <comp name="00.HNZ">
      <acc value="0.0063623085" flag="0"/>
      <vel value="0.0016255763" flag="0"/>
      <psa03 value="0.0084880066" flag="0"/>
      <psa10 value="0.0007009450" flag="0"/>
      <psa30 value="0.0001187605" flag="0"/>
    </comp>
  </station>
  <station code="STBO" name="STBO" netid="RA" insttype="" lat="47.8609" lon="7.26216">
    <comp name="00.HNZ">
      <acc value="0.0088651644" flag="0"/>
      <vel value="0.0025341811" flag="0"/>
      <psa03 value="0.0214709469" flag="0"/>
      <psa10 value="0.0029069378" flag="0"/>
      <psa30 value="0.0003459381" flag="0"/>
    </comp>
    <comp name="00.HNN">
      <acc value="0.0199727840" flag="0"/>
      <vel value="0.0081055477" flag="0"/>
      <psa03 value="0.0385236673" flag="0"/>
      <psa10 value="0.0071146340" flag="0"/>
      <psa30 value="0.0016962420" flag="0"/>
    </comp>
    <comp name="00.HNE">
      <acc value="0.0188646459" flag="0"/>
      <vel value="0.0071356192" flag="0"/>
      <psa03 value="0.0382326268" flag="0"/>
      <psa10 value="0.0055777961" flag="0"/>
      <psa30 value="0.0010292244" flag="0"/>
    </comp>
  </station>
  <station code="STBR" name="STBR" netid="RA" insttype="" lat="47.7267" lon="7.32445">
    <comp name="00.HNZ">
      <acc value="0.0119927741" flag="0"/>
      <vel value="0.0019750878" flag="0"/>
      <psa03 value="0.0100228049" flag="0"/>
      <psa10 value="0.0009986646" flag="0"/>
      <psa30 value="0.0000952551" flag="0"/>
    </comp>
    <comp name="00.HNE">
      <acc value="0.0872163697" flag="0"/>
      <vel value="0.0122628140" flag="0"/>
      <psa03 value="0.0485588405" flag="0"/>
      <psa10 value="0.0026163250" flag="0"/>
      <psa30 value="0.0001893653" flag="0"/>
    </comp>
    <comp name="00.HNN">
      <acc value="0.0752339600" flag="0"/>
      <vel value="0.0137517510" flag="0"/>
      <psa03 value="0.0474647947" flag="0"/>
      <psa10 value="0.0038236768" flag="0"/>
      <psa30 value="0.0003539932" flag="0"/>
    </comp>
  </station>
  <station code="STBU" name="STBU" netid="RA" insttype="" lat="47.8845" lon="6.85102">
    <comp name="00.HNN">
      <acc value="0.0330739612" flag="0"/>
      <vel value="0.0051640671" flag="0"/>
      <psa03 value="0.0128966072" flag="0"/>
      <psa10 value="0.0008372741" flag="0"/>
      <psa30 value="0.0000702567" flag="0"/>
    </comp>
    <comp name="00.HNZ">
      <acc value="0.0227304163" flag="0"/>
      <vel value="0.0034783525" flag="0"/>
      <psa03 value="0.0125612261" flag="0"/>
      <psa10 value="0.0008195924" flag="0"/>
      <psa30 value="0.0000969629" flag="0"/>
    </comp>
    <comp name="00.HNE">
      <acc value="0.0249174878" flag="0"/>
      <vel value="0.0040140715" flag="0"/>
      <psa03 value="0.0153726301" flag="0"/>
      <psa10 value="0.0009987591" flag="0"/>
      <psa30 value="0.0002498849" flag="0"/>
    </comp>
  </station>
  <station code="STFL" name="STFL" netid="RA" insttype="" lat="47.1121" lon="6.56289">
    <comp name="00.HNE">
      <acc value="0.0509383547" flag="0"/>
      <vel value="0.0187866012" flag="0"/>
      <psa03 value="0.0875664553" flag="0"/>
      <psa10 value="0.0138794699" flag="0"/>
      <psa30 value="0.0018507395" flag="0"/>
    </comp>
    <comp name="00.HNN">
      <acc value="0.0343528734" flag="0"/>
      <vel value="0.0093429670" flag="0"/>
      <psa03 value="0.0320516391" flag="0"/>
      <psa10 value="0.0065413851" flag="0"/>
      <psa30 value="0.0007205371" flag="0"/>
    </comp>
    <comp name="00.HNZ">
      <acc value="0.0156002473" flag="0"/>
      <vel value="0.0061512305" flag="0"/>
      <psa03 value="0.0252970174" flag="0"/>
      <psa10 value="0.0046313475" flag="0"/>
      <psa30 value="0.0005653206" flag="0"/>
    </comp>
  </station>
  <station code="STHE" name="STHE" netid="RA" insttype="" lat="47.5844" lon="7.54219">
    <comp name="00.HNN">
      <acc value="0.0153860782" flag="0"/>
      <vel value="0.0057779385" flag="0"/>
      <psa03 value="0.0291682017" flag="0"/>
      <psa10 value="0.0048414381" flag="0"/>
      <psa30 value="0.0004809270" flag="0"/>
    </comp>
    <comp name="00.HNZ">
      <acc value="0.0140580268" flag="0"/>
      <vel value="0.0035852777" flag="0"/>
      <psa03 value="0.0148645804" flag="0"/>
      <psa10 value="0.0024447265" flag="0"/>
      <psa30 value="0.0001798200" flag="0"/>
    </comp>
    <comp name="00.HNE">
      <acc value="0.0150158443" flag="0"/>
      <vel value="0.0058808949" flag="0"/>
      <psa03 value="0.0331669293" flag="0"/>
      <psa10 value="0.0051134285" flag="0"/>
      <psa30 value="0.0004199039" flag="0"/>
    </comp>
  </station>
  <station code="STRB" name="STRB" netid="RA" insttype="" lat="47.723" lon="7.34136">
    <comp name="00.HNE">
      <acc value="0.0436126856" flag="0"/>
      <vel value="0.0091674144" flag="0"/>
      <psa03 value="0.0206163253" flag="0"/>
      <psa10 value="0.0026978479" flag="0"/>
      <psa30 value="0.0001793830" flag="0"/>
    </comp>
    <comp name="00.HNZ">
      <acc value="0.0261285412" flag="0"/>
