<?xml version="1.0" encoding="UTF-8" standalone="yes"?>
<!DOCTYPE earthquake SYSTEM "stationlist.dtd">
<stationlist created="" xmlns="ch.ethz.sed.shakemap.usgs.xml">
  <station code="AGRB" name="AGRB" netid="KO" insttype="120s," lat="39.5755" lon="42.992">
    <comp name="--.HHZ">
      <acc value="0.0019181451" flag="0"/>
      <vel value="0.0016750616" flag="0"/>
      <psa03 value="0.0034060534" flag="0"/>
      <psa10 value="0.0034190311" flag="0"/>
      <psa30 value="0.0002156642" flag="0"/>
    </comp>
    <comp name="--.HHE">
      <acc value="0.0034909995" flag="0"/>
      <vel value="0.0048082129" flag="0"/>
      <psa03 value="0.0064361695" flag="0"/>
      <psa10 value="0.0083552291" flag="0"/>
      <psa30 value="0.0009654539" flag="0"/>
    </comp>
    <comp name="--.HHN">
      <acc value="0.0024443262" flag="0"/>
      <vel value="0.0027752671" flag="0"/>
      <psa03 value="0.0044067584" flag="0"/>
      <psa10 value="0.0064718257" flag="0"/>
      <psa30 value="0.0005054186" flag="0"/>
    </comp>
  </station>
  <station code="KARS" name="KARS" netid="KO" insttype="120s," lat="40.6152" lon="43.0937">
    <comp name="--.HHZ">
      <acc value="0.0729864275" flag="0"/>
      <vel value="0.0588958366" flag="0"/>
      <psa03 value="0.1577196972" flag="0"/>
      <psa10 value="0.0698966128" flag="0"/>
      <psa30 value="0.0279103875" flag="0"/>
    </comp>
    <comp name="--.HHE">
      <acc value="0.1268035445" flag="0"/>
      <vel value="0.0884977194" flag="0"/>
      <psa03 value="0.3104207947" flag="0"/>
      <psa10 value="0.1020883261" flag="0"/>
      <psa30 value="0.0217371796" flag="0"/>
    </comp>
    <comp name="--.HHN">
      <acc value="0.1635904814" flag="0"/>
      <vel value="0.0621672643" flag="0"/>
      <psa03 value="0.2287048197" flag="0"/>
      <psa10 value="0.0748300329" flag="0"/>
      <psa30 value="0.0138048221" flag="0"/>
    </comp>
  </station>
  <station code="KOPR" name="KOPR" netid="KO" insttype="120s," lat="39.9917" lon="41.8535">
    <comp name="--.HHN">
      <acc value="0.0055119571" flag="0"/>
      <vel value="0.0052667481" flag="0"/>
      <psa03 value="0.0142871892" flag="0"/>
      <psa10 value="0.0097384496" flag="0"/>
      <psa30 value="0.0021296892" flag="0"/>
    </comp>
    <comp name="--.HHE">
      <acc value="0.0058010230" flag="0"/>
      <vel value="0.0111741161" flag="0"/>
      <psa03 value="0.0136368685" flag="0"/>
      <psa10 value="0.0124518338" flag="0"/>
      <psa30 value="0.0029346747" flag="0"/>
    </comp>
    <comp name="--.HHZ">
      <acc value="0.0037781349" flag="0"/>
      <vel value="0.0065171544" flag="0"/>
      <psa03 value="0.0088664142" flag="0"/>
      <psa10 value="0.0089445544" flag="0"/>
      <psa30 value="0.0046729984" flag="0"/>
    </comp>
  </station>
</stationlist>
