<?xml version="1.0" encoding="UTF-8" standalone="yes"?>
<!DOCTYPE earthquake SYSTEM "stationlist.dtd">
<stationlist created="" xmlns="ch.ethz.sed.shakemap.usgs.xml">
  <station code="KARS" name="KARS" netid="KO" insttype="120s," lat="40.6152" lon="43.0937">
    <comp name="--.HHE">
      <acc value="0.1268035446" flag="0"/>
      <vel value="0.0884977192" flag="0"/>
      <psa03 value="0.3104207947" flag="0"/>
      <psa10 value="0.1020883259" flag="0"/>
      <psa30 value="0.0217371745" flag="0"/>
    </comp>
    <comp name="--.HHN">
      <acc value="0.1635904814" flag="0"/>
      <vel value="0.0621672643" flag="0"/>
      <psa03 value="0.2287048197" flag="0"/>
      <psa10 value="0.0748300327" flag="0"/>
      <psa30 value="0.0138048279" flag="0"/>
    </comp>
    <comp name="--.HHZ">
      <acc value="0.0729864277" flag="0"/>
      <vel value="0.0588958374" flag="0"/>
      <psa03 value="0.1577196972" flag="0"/>
      <psa10 value="0.0698966128" flag="0"/>
      <psa30 value="0.0279103883" flag="0"/>
    </comp>
  </station>
</stationlist>
