<?xml version="1.0" encoding="UTF-8" standalone="yes"?>
<!DOCTYPE earthquake SYSTEM "stationlist.dtd">
<stationlist created="" xmlns="ch.ethz.sed.shakemap.usgs.xml">
  <station code="KARS" name="KARS" netid="KO" insttype="120s," lat="40.6152" lon="43.0937">
    <comp name="--.HHZ">
      <acc value="0.0729864277" flag="0"/>
      <vel value="0.0588958369" flag="0"/>
      <psa03 value="0.1577196972" flag="0"/>
      <psa10 value="0.0698966128" flag="0"/>
      <psa30 value="0.0279103911" flag="0"/>
    </comp>
    <comp name="--.HHE">
      <acc value="0.1268035446" flag="0"/>
      <vel value="0.0884977191" flag="0"/>
      <psa03 value="0.3104207947" flag="0"/>
      <psa10 value="0.1020883259" flag="0"/>
      <psa30 value="0.0217371744" flag="0"/>
    </comp>
    <comp name="--.HHN">
      <acc value="0.1635904814" flag="0"/>
      <vel value="0.0621672647" flag="0"/>
      <psa03 value="0.2287048197" flag="0"/>
      <psa10 value="0.0748300327" flag="0"/>
      <psa30 value="0.0138048262" flag="0"/>
    </comp>
  </station>
  <station code="KOPR" name="KOPR" netid="KO" insttype="120s," lat="39.9917" lon="41.8535">
    <comp name="--.HHE">
      <acc value="0.0058010229" flag="0"/>
      <vel value="0.0111741163" flag="0"/>
      <psa03 value="0.0136368684" flag="0"/>
      <psa10 value="0.0124518338" flag="0"/>
      <psa30 value="0.0029346805" flag="0"/>
    </comp>
    <comp name="--.HHZ">
      <acc value="0.0037781350" flag="0"/>
      <vel value="0.0065171549" flag="0"/>
      <psa03 value="0.0088664142" flag="0"/>
      <psa10 value="0.0089445543" flag="0"/>
      <psa30 value="0.0046730063" flag="0"/>
    </comp>
    <comp name="--.HHN">
      <acc value="0.0055119572" flag="0"/>
      <vel value="0.0052667476" flag="0"/>
      <psa03 value="0.0142871892" flag="0"/>
      <psa10 value="0.0097384496" flag="0"/>
      <psa30 value="0.0021296883" flag="0"/>
    </comp>
  </station>
</stationlist>
