<?xml version="1.0" encoding="UTF-8" standalone="yes"?>
<!DOCTYPE earthquake SYSTEM "stationlist.dtd">
<stationlist created="" xmlns="ch.ethz.sed.shakemap.usgs.xml">
  <station code="ASTY" name="ASTY" netid="Z3" source="GFZ" insttype="STS-2/N" lat="36.5795" lon="26.4114">
    <comp name="--.HHE">
      <acc value="0.0035815675" flag="0"/>
      <vel value="0.0016464207" flag="0"/>
      <psa03 value="0.0090710701" flag="0"/>
      <psa10 value="0.0011601152" flag="0"/>
      <psa30 value="0.0001639654" flag="0"/>
    </comp>
    <comp name="--.HHN">
      <acc value="0.0039422296" flag="0"/>
      <vel value="0.0018215278" flag="0"/>
      <psa03 value="0.0098058353" flag="0"/>
      <psa10 value="0.0015214919" flag="0"/>
      <psa30 value="0.0001780205" flag="0"/>
    </comp>
    <comp name="--.HHZ">
      <acc value="0.0022009679" flag="0"/>
      <vel value="0.0011739902" flag="0"/>
      <psa03 value="0.0032453900" flag="0"/>
      <psa10 value="0.0012001203" flag="0"/>
      <psa30 value="0.0001635516" flag="0"/>
    </comp>
  </station>
  <station code="KAPA" name="KAPA" netid="Z3" source="GFZ" insttype="CMG-3ESP/60" lat="35.6402" lon="27.1376">
    <comp name="--.HHE">
      <acc value="0.5676548543" flag="0"/>
      <vel value="0.1291213863" flag="0"/>
      <psa03 value="0.2763270902" flag="0"/>
      <psa10 value="0.0734505268" flag="0"/>
      <psa30 value="0.0071011704" flag="0"/>
    </comp>
    <comp name="--.HHN">
      <acc value="0.4102546405" flag="0"/>
      <vel value="0.1275695172" flag="0"/>
      <psa03 value="0.3696510314" flag="0"/>
      <psa10 value="0.0462318362" flag="0"/>
      <psa30 value="0.0044697447" flag="0"/>
    </comp>
    <comp name="--.HHZ">
      <acc value="0.2192254873" flag="0"/>
      <vel value="0.0623589855" flag="0"/>
      <psa03 value="0.1226866896" flag="0"/>
      <psa10 value="0.0660161997" flag="0"/>
      <psa30 value="0.0053638067" flag="0"/>
    </comp>
  </station>
  <station code="KOSI" name="KOSI" netid="Z3" source="GFZ" insttype="CMG-3ESP/60" lat="36.7449" lon="26.9517">
    <comp name="--.HHE">
      <acc value="0.0113541739" flag="0"/>
      <vel value="0.0064922506" flag="0"/>
      <psa03 value="0.0440454547" flag="0"/>
      <psa10 value="0.0097905921" flag="0"/>
      <psa30 value="0.0003380598" flag="0"/>
    </comp>
    <comp name="--.HHN">
      <acc value="0.0151288292" flag="0"/>
      <vel value="0.0063761150" flag="0"/>
      <psa03 value="0.0369798981" flag="0"/>
      <psa10 value="0.0078252863" flag="0"/>
      <psa30 value="0.0003915597" flag="0"/>
    </comp>
    <comp name="--.HHZ">
      <acc value="0.0090277118" flag="0"/>
      <vel value="0.0037390085" flag="0"/>
      <psa03 value="0.0245788911" flag="0"/>
      <psa10 value="0.0030836559" flag="0"/>
      <psa30 value="0.0003562684" flag="0"/>
    </comp>
  </station>
  <station code="RHON" name="RHON" netid="Z3" source="GFZ" insttype="CMG-3ESP/60" lat="36.38" lon="28.0844">
    <comp name="--.HHE">
      <acc value="0.0413771842" flag="0"/>
      <vel value="0.0153691810" flag="0"/>
      <psa03 value="0.0751130206" flag="0"/>
      <psa10 value="0.0162340246" flag="0"/>
      <psa30 value="0.0015020980" flag="0"/>
    </comp>
    <comp name="--.HHN">
      <acc value="0.0395613756" flag="0"/>
      <vel value="0.0171825601" flag="0"/>
      <psa03 value="0.0671969519" flag="0"/>
      <psa10 value="0.0228484769" flag="0"/>
      <psa30 value="0.0032221012" flag="0"/>
    </comp>
    <comp name="--.HHZ">
      <acc value="0.0258642817" flag="0"/>
      <vel value="0.0112279380" flag="0"/>
      <psa03 value="0.0404095164" flag="0"/>
      <psa10 value="0.0147443197" flag="0"/>
      <psa30 value="0.0009460037" flag="0"/>
    </comp>
  </station>
  <station code="RHOS" name="RHOS" netid="Z3" source="GFZ" insttype="CMG-3ESP/60" lat="36.011" lon="27.8197">
    <comp name="--.HHE">
      <acc value="0.0723764974" flag="0"/>
      <vel value="0.0202077407" flag="0"/>
      <psa03 value="0.1211137629" flag="0"/>
      <psa10 value="0.0115770416" flag="0"/>
      <psa30 value="0.0011173533" flag="0"/>
    </comp>
    <comp name="--.HHN">
      <acc value="0.0563258765" flag="0"/>
      <vel value="0.0219475873" flag="0"/>
      <psa03 value="0.1880106781" flag="0"/>
      <psa10 value="0.0076456849" flag="0"/>
      <psa30 value="0.0010647086" flag="0"/>
    </comp>
    <comp name="--.HHZ">
      <acc value="0.0410290820" flag="0"/>
      <vel value="0.0087227319" flag="0"/>
      <psa03 value="0.0451964332" flag="0"/>
      <psa10 value="0.0076659775" flag="0"/>
      <psa30 value="0.0013865249" flag="0"/>
    </comp>
  </station>
  <station code="TILO" name="TILO" netid="Z3" source="GFZ" insttype="CMG-3ESP/60" lat="36.4485" lon="27.3535">
    <comp name="--.HHE">
      <acc value="0.1140052542" flag="0"/>
      <vel value="0.0288410550" flag="0"/>
      <psa03 value="0.1802509084" flag="0"/>
      <psa10 value="0.0063671704" flag="0"/>
      <psa30 value="0.0006854357" flag="0"/>
    </comp>
    <comp name="--.HHN">
      <acc value="0.1346291539" flag="0"/>
      <vel value="0.0338689603" flag="0"/>
      <psa03 value="0.2613571506" flag="0"/>
      <psa10 value="0.0117690559" flag="0"/>
      <psa30 value="0.0010581621" flag="0"/>
    </comp>
    <comp name="--.HHZ">
      <acc value="0.0668315172" flag="0"/>
      <vel value="0.0141907298" flag="0"/>
      <psa03 value="0.0736025389" flag="0"/>
      <psa10 value="0.0053999129" flag="0"/>
      <psa30 value="0.0003954856" flag="0"/>
    </comp>
  </station>
</stationlist>
