<?xml version="1.0" encoding="UTF-8" standalone="yes"?>
<!DOCTYPE earthquake SYSTEM "stationlist.dtd">
<stationlist created="" xmlns="ch.ethz.sed.shakemap.usgs.xml">
  <station code="TNSA" name="TNSA" netid="HL" insttype="CMG-5" lat="37.5394" lon="25.1631">
    <comp name="00.HNE">
      <acc value="0.0287852252" flag="0"/>
      <vel value="0.0072119873" flag="0"/>
      <psa03 value="0.0294421198" flag="0"/>
      <psa10 value="0.0033101910" flag="0"/>
      <psa30 value="0.0002755652" flag="0"/>
    </comp>
    <comp name="00.HNN">
      <acc value="0.0438928131" flag="0"/>
      <vel value="0.0170180796" flag="0"/>
      <psa03 value="0.1218444824" flag="0"/>
      <psa10 value="0.0045505163" flag="0"/>
      <psa30 value="0.0003592528" flag="0"/>
    </comp>
    <comp name="00.HNZ">
      <acc value="0.0254194370" flag="0"/>
      <vel value="0.0104876268" flag="0"/>
      <psa03 value="0.0735368335" flag="0"/>
      <psa10 value="0.0051062430" flag="0"/>
      <psa30 value="0.0005208810" flag="0"/>
    </comp>
  </station>
</stationlist>
