<?xml version="1.0" encoding="UTF-8" standalone="yes"?>
<!DOCTYPE earthquake SYSTEM "stationlist.dtd">
<stationlist created="" xmlns="ch.ethz.sed.shakemap.usgs.xml">
  <station code="BNN" name="BNN" netid="KO" insttype="CMG-3T" lat="38.8521" lon="35.8472">
    <comp name="--.HHE">
      <acc value="0.0132005554" flag="0"/>
      <vel value="0.0097893342" flag="0"/>
      <psa03 value="0.0415596064" flag="0"/>
      <psa10 value="0.0158691224" flag="0"/>
      <psa30 value="0.0014324931" flag="0"/>
    </comp>
    <comp name="--.HHZ">
      <acc value="0.0081626759" flag="0"/>
      <vel value="0.0055852678" flag="0"/>
      <psa03 value="0.0148188161" flag="0"/>
      <psa10 value="0.0128854237" flag="0"/>
      <psa30 value="0.0010748596" flag="0"/>
    </comp>
    <comp name="--.HHN">
      <acc value="0.0096923396" flag="0"/>
      <vel value="0.0088414401" flag="0"/>
      <psa03 value="0.0326740989" flag="0"/>
      <psa10 value="0.0163094487" flag="0"/>
      <psa30 value="0.0013894382" flag="0"/>
    </comp>
  </station>
  <station code="CEYT" name="CEYT" netid="KO" insttype="CMG-3ESP" lat="37.0105" lon="35.7478">
    <comp name="--.HHZ">
      <acc value="0.0053497489" flag="0"/>
      <vel value="0.0056726650" flag="0"/>
      <psa03 value="0.0119345075" flag="0"/>
      <psa10 value="0.0151192169" flag="0"/>
      <psa30 value="0.0009249586" flag="0"/>
    </comp>
  </station>
  <station code="CMRD" name="CMRD" netid="KO" insttype="CMG-5T" lat="37.6623" lon="34.9902">
    <comp name="--.HNE">
      <acc value="0.0133751490" flag="0"/>
      <vel value="0.0055501859" flag="0"/>
      <psa03 value="0.0233361660" flag="0"/>
      <psa10 value="0.0077664448" flag="0"/>
      <psa30 value="0.0006481273" flag="0"/>
    </comp>
    <comp name="--.HNN">
      <acc value="0.0088606873" flag="0"/>
      <vel value="0.0042947765" flag="0"/>
      <psa03 value="0.0233054869" flag="0"/>
      <psa10 value="0.0058786550" flag="0"/>
      <psa30 value="0.0004757498" flag="0"/>
    </comp>
    <comp name="--.HNZ">
      <acc value="0.0092037087" flag="0"/>
      <vel value="0.0048699588" flag="0"/>
      <psa03 value="0.0184881833" flag="0"/>
      <psa10 value="0.0084339525" flag="0"/>
      <psa30 value="0.0007236101" flag="0"/>
    </comp>
  </station>
  <station code="GAZ" name="GAZ" netid="KO" insttype="CMG-3T" lat="37.1721" lon="37.2096">
    <comp name="--.HHE">
      <acc value="0.0195448823" flag="0"/>
      <vel value="0.0149204631" flag="0"/>
      <psa03 value="0.0570158062" flag="0"/>
      <psa10 value="0.0354960620" flag="0"/>
      <psa30 value="0.0017257998" flag="0"/>
    </comp>
  </station>
  <station code="KHMN" name="KHMN" netid="KO" insttype="CMG-5T" lat="37.3916" lon="37.1574">
    <comp name="--.HNN">
      <acc value="0.0437806800" flag="0"/>
      <vel value="0.0202511679" flag="0"/>
      <psa03 value="0.1218306810" flag="0"/>
      <psa10 value="0.0234239195" flag="0"/>
      <psa30 value="0.0010669007" flag="0"/>
    </comp>
    <comp name="--.HNE">
      <acc value="0.0504798901" flag="0"/>
      <vel value="0.0314905664" flag="0"/>
      <psa03 value="0.1598665477" flag="0"/>
      <psa10 value="0.0196930953" flag="0"/>
      <psa30 value="0.0017877418" flag="0"/>
    </comp>
    <comp name="--.HNZ">
      <acc value="0.0198452246" flag="0"/>
      <vel value="0.0107515930" flag="0"/>
      <psa03 value="0.0529123448" flag="0"/>
      <psa10 value="0.0095722829" flag="0"/>
      <psa30 value="0.0007743638" flag="0"/>
    </comp>
  </station>
  <station code="KMRS" name="KMRS" netid="KO" insttype="CMG-3T" lat="37.5053" lon="36.9">
    <comp name="--.HHZ">
      <acc value="0.0161343134" flag="0"/>
      <vel value="0.0094674846" flag="0"/>
      <psa03 value="0.0559865697" flag="0"/>
      <psa10 value="0.0106114028" flag="0"/>
      <psa30 value="0.0009661497" flag="0"/>
    </comp>
    <comp name="--.HHE">
      <acc value="0.0252866995" flag="0"/>
      <vel value="0.0152201204" flag="0"/>
      <psa03 value="0.0988955969" flag="0"/>
      <psa10 value="0.0415673699" flag="0"/>
      <psa30 value="0.0020860728" flag="0"/>
    </comp>
    <comp name="--.HHN">
      <acc value="0.0424436298" flag="0"/>
      <vel value="0.0266916067" flag="0"/>
      <psa03 value="0.1413969177" flag="0"/>
      <psa10 value="0.0274208663" flag="0"/>
      <psa30 value="0.0017512111" flag="0"/>
    </comp>
  </station>
  <station code="SARI" name="SARI" netid="KO" insttype="CMG-3T" lat="38.4072" lon="36.4181">
    <comp name="--.HHE">
      <acc value="0.3769608937" flag="0"/>
      <vel value="0.1399995332" flag="0"/>
      <psa03 value="0.5560814178" flag="0"/>
      <psa10 value="0.0644404796" flag="0"/>
      <psa30 value="0.0066525982" flag="0"/>
    </comp>
  </station>
  <station code="ANDN" name="ANDN" netid="TU" insttype="T" lat="37.58" lon="36.3452">
    <comp name="--.HHZ">
      <acc value="0.0761342609" flag="0"/>
      <vel value="0.0464409318" flag="0"/>
      <psa03 value="0.2055508823" flag="0"/>
      <psa10 value="0.0674425108" flag="0"/>
      <psa30 value="0.0035061337" flag="0"/>
    </comp>
    <comp name="--.HHE">
      <acc value="0.1543025585" flag="0"/>
      <vel value="0.0646387578" flag="0"/>
      <psa03 value="0.4308364159" flag="0"/>
      <psa10 value="0.0906919872" flag="0"/>
      <psa30 value="0.0040467538" flag="0"/>
    </comp>
    <comp name="--.HHN">
      <acc value="0.1294829282" flag="0"/>
      <vel value="0.0680614270" flag="0"/>
      <psa03 value="0.5009280141" flag="0"/>
      <psa10 value="0.0862206039" flag="0"/>
      <psa30 value="0.0060779520" flag="0"/>
    </comp>
  </station>
</stationlist>
