<?xml version="1.0" encoding="UTF-8" standalone="yes"?>
<!DOCTYPE earthquake SYSTEM "stationlist.dtd">
<stationlist created="" xmlns="ch.ethz.sed.shakemap.usgs.xml">
  <station code="AKS" name="AKS" netid="KO" insttype="CMG-5T" commtype="DIG" lat="38.8785" lon="27.8129">
    <comp name="--.HNZ">
      <acc value="0.0303224380" flag="0"/>
      <vel value="0.0129958513" flag="0"/>
      <psa03 value="0.0229299327" flag="0"/>
      <psa10 value="0.0085748507" flag="0"/>
      <psa30 value="0.0010194285" flag="0"/>
    </comp>
    <comp name="--.HNN">
      <acc value="0.0570622612" flag="0"/>
      <vel value="0.0195581374" flag="0"/>
      <psa03 value="0.0825087028" flag="0"/>
      <psa10 value="0.0168106792" flag="0"/>
      <psa30 value="0.0036252307" flag="0"/>
    </comp>
  </station>
  <station code="BALB" name="BALB" netid="KO" insttype="CMG-5T" commtype="DIG" lat="39.6507" lon="27.8642">
    <comp name="--.HNN">
      <acc value="0.0473432459" flag="0"/>
      <vel value="0.0229795223" flag="0"/>
      <psa03 value="0.1435002595" flag="0"/>
      <psa10 value="0.0221991441" flag="0"/>
      <psa30 value="0.0031431298" flag="0"/>
    </comp>
    <comp name="--.HNE">
      <acc value="0.0568487653" flag="0"/>
      <vel value="0.0227329849" flag="0"/>
      <psa03 value="0.1805086899" flag="0"/>
      <psa10 value="0.0312535083" flag="0"/>
      <psa30 value="0.0050948711" flag="0"/>
    </comp>
    <comp name="--.HNZ">
      <acc value="0.0316711306" flag="0"/>
      <vel value="0.0141205311" flag="0"/>
      <psa03 value="0.0770138773" flag="0"/>
      <psa10 value="0.0189252457" flag="0"/>
      <psa30 value="0.0044765035" flag="0"/>
    </comp>
  </station>
  <station code="DKL" name="DKL" netid="KO" insttype="CMG-3ESPC" commtype="DIG" lat="39.0713" lon="26.9053">
    <comp name="--.HHE">
      <acc value="0.0054284312" flag="0"/>
      <vel value="0.0038137926" flag="0"/>
      <psa03 value="0.0149453886" flag="0"/>
      <psa10 value="0.0065871276" flag="0"/>
      <psa30 value="0.0011184788" flag="0"/>
    </comp>
    <comp name="--.HHN">
      <acc value="0.0078742227" flag="0"/>
      <vel value="0.0081204934" flag="0"/>
      <psa03 value="0.0221188181" flag="0"/>
      <psa10 value="0.0078489558" flag="0"/>
      <psa30 value="0.0017515696" flag="0"/>
    </comp>
    <comp name="--.HHZ">
      <acc value="0.0054917857" flag="0"/>
      <vel value="0.0035851127" flag="0"/>
      <psa03 value="0.0126086540" flag="0"/>
      <psa10 value="0.0055796780" flag="0"/>
      <psa30 value="0.0010598638" flag="0"/>
    </comp>
  </station>
  <station code="DST" name="DST" netid="KO" insttype="CMG-5T" commtype="DIG" lat="39.6041" lon="28.6267">
    <comp name="--.HNN">
      <acc value="0.0331295646" flag="0"/>
      <vel value="0.0130281260" flag="0"/>
      <psa03 value="0.0914558570" flag="0"/>
      <psa10 value="0.0124138810" flag="0"/>
      <psa30 value="0.0031622782" flag="0"/>
    </comp>
    <comp name="--.HNZ">
      <acc value="0.0250002518" flag="0"/>
      <vel value="0.0118038800" flag="0"/>
      <psa03 value="0.0566482061" flag="0"/>
      <psa10 value="0.0081851791" flag="0"/>
      <psa30 value="0.0024467998" flag="0"/>
    </comp>
    <comp name="--.HNE">
      <acc value="0.0380933159" flag="0"/>
      <vel value="0.0117436993" flag="0"/>
      <psa03 value="0.0618707312" flag="0"/>
      <psa10 value="0.0124440625" flag="0"/>
      <psa30 value="0.0040088812" flag="0"/>
    </comp>
  </station>
  <station code="GONE" name="GONE" netid="KO" insttype="CMG-5T" commtype="DIG" lat="40.0466" lon="27.686">
    <comp name="--.HNN">
      <acc value="0.0525237566" flag="0"/>
      <vel value="0.0197744806" flag="0"/>
      <psa03 value="0.1478459003" flag="0"/>
      <psa10 value="0.0138554365" flag="0"/>
      <psa30 value="0.0031080552" flag="0"/>
    </comp>
    <comp name="--.HNE">
      <acc value="0.0197507617" flag="0"/>
      <vel value="0.0104878723" flag="0"/>
      <psa03 value="0.0425486530" flag="0"/>
      <psa10 value="0.0102026939" flag="0"/>
      <psa30 value="0.0011399636" flag="0"/>
    </comp>
    <comp name="--.HNZ">
      <acc value="0.0129182686" flag="0"/>
      <vel value="0.0048942658" flag="0"/>
      <psa03 value="0.0306102977" flag="0"/>
      <psa10 value="0.0043338880" flag="0"/>
      <psa30 value="0.0010072133" flag="0"/>
    </comp>
  </station>
  <station code="GORD" name="GORD" netid="KO" insttype="CMG-5T" commtype="DIG" lat="38.9088" lon="28.1769">
    <comp name="--.HNE">
      <acc value="0.0395912426" flag="0"/>
      <vel value="0.0648237831" flag="0"/>
      <psa03 value="0.0955421603" flag="0"/>
      <psa10 value="0.1006594989" flag="0"/>
      <psa30 value="0.0268746585" flag="0"/>
    </comp>
    <comp name="--.HNN">
      <acc value="0.0686188167" flag="0"/>
      <vel value="0.0376349432" flag="0"/>
      <psa03 value="0.1398179979" flag="0"/>
      <psa10 value="0.0725759100" flag="0"/>
      <psa30 value="0.0078112884" flag="0"/>
    </comp>
    <comp name="--.HNZ">
      <acc value="0.0503997809" flag="0"/>
      <vel value="0.0250989959" flag="0"/>
      <psa03 value="0.1271043093" flag="0"/>
      <psa10 value="0.0488216758" flag="0"/>
      <psa30 value="0.0034240520" flag="0"/>
    </comp>
  </station>
  <station code="KCTX" name="KCTX" netid="KO" insttype="CMG-3ESP" commtype="DIG" lat="40.2626" lon="28.3353">
    <comp name="--.HHE">
      <acc value="0.0200822123" flag="0"/>
      <vel value="0.0099440138" flag="0"/>
      <psa03 value="0.0334531358" flag="0"/>
      <psa10 value="0.0099919953" flag="0"/>
      <psa30 value="0.0007966021" flag="0"/>
    </comp>
    <comp name="--.HHN">
      <acc value="0.0235124819" flag="0"/>
      <vel value="0.0098429488" flag="0"/>
      <psa03 value="0.0709069863" flag="0"/>
      <psa10 value="0.0041573847" flag="0"/>
      <psa30 value="0.0005698123" flag="0"/>
    </comp>
    <comp name="--.HHZ">
      <acc value="0.0159812254" flag="0"/>
      <vel value="0.0057528869" flag="0"/>
      <psa03 value="0.0501540615" flag="0"/>
      <psa10 value="0.0031511001" flag="0"/>
      <psa30 value="0.0004742174" flag="0"/>
    </comp>
  </station>
  <station code="KULA" name="KULA" netid="KO" insttype="CMG-3T" commtype="DIG" lat="38.5145" lon="28.6607">
    <comp name="--.HHE">
      <acc value="0.0216131701" flag="0"/>
      <vel value="0.0110127621" flag="0"/>
      <psa03 value="0.0330008628" flag="0"/>
      <psa10 value="0.0093877958" flag="0"/>
      <psa30 value="0.0012360315" flag="0"/>
    </comp>
    <comp name="--.HHZ">
      <acc value="0.0162722190" flag="0"/>
      <vel value="0.0090954586" flag="0"/>
      <psa03 value="0.0217598857" flag="0"/>
      <psa10 value="0.0046129805" flag="0"/>
      <psa30 value="0.0006831772" flag="0"/>
    </comp>
  </station>
  <station code="ORLT" name="ORLT" netid="KO" insttype="CMG-5T" commtype="DIG" lat="40.0452" lon="28.8914">
    <comp name="--.HNE">
      <acc value="0.0402047364" flag="0"/>
      <vel value="0.0207452622" flag="0"/>
      <psa03 value="0.1030399941" flag="0"/>
      <psa10 value="0.0169326678" flag="0"/>
      <psa30 value="0.0032134523" flag="0"/>
    </comp>
    <comp name="--.HNZ">
      <acc value="0.0222150340" flag="0"/>
      <vel value="0.0121017987" flag="0"/>
      <psa03 value="0.0841170224" flag="0"/>
      <psa10 value="0.0122257561" flag="0"/>
      <psa30 value="0.0033269434" flag="0"/>
    </comp>
    <comp name="--.HNN">
      <acc value="0.0511272214" flag="0"/>
      <vel value="0.0238597933" flag="0"/>
      <psa03 value="0.1856847462" flag="0"/>
      <psa10 value="0.0170221391" flag="0"/>
      <psa30 value="0.0038253417" flag="0"/>
    </comp>
  </station>
  <station code="SHAP" name="SHAP" netid="KO" insttype="CMG-5T" commtype="DIG" lat="39.0231" lon="29.222">
    <comp name="--.HNN">
      <acc value="0.0482097246" flag="0"/>
      <vel value="0.0179135130" flag="0"/>
      <psa03 value="0.1016523896" flag="0"/>
      <psa10 value="0.0091940391" flag="0"/>
      <psa30 value="0.0034699621" flag="0"/>
    </comp>
    <comp name="--.HNZ">
      <acc value="0.0260898081" flag="0"/>
      <vel value="0.0089769217" flag="0"/>
      <psa03 value="0.0590489003" flag="0"/>
      <psa10 value="0.0048742377" flag="0"/>
      <psa30 value="0.0014721163" flag="0"/>
    </comp>
    <comp name="--.HNE">
      <acc value="0.0455845760" flag="0"/>
      <vel value="0.0199295243" flag="0"/>
      <psa03 value="0.1162511633" flag="0"/>
      <psa10 value="0.0079715725" flag="0"/>
      <psa30 value="0.0025714949" flag="0"/>
    </comp>
  </station>
  <station code="SIMA" name="SIMA" netid="KO" insttype="CMG-6T" commtype="DIG" lat="39.0833" lon="28.9825">
    <comp name="--.HHE">
      <acc value="0.0403494986" flag="0"/>
      <vel value="0.0124219465" flag="0"/>
      <psa03 value="0.1013031192" flag="0"/>
      <psa10 value="0.0064979844" flag="0"/>
      <psa30 value="0.0021700817" flag="0"/>
    </comp>
    <comp name="--.HHN">
      <acc value="0.0370247180" flag="0"/>
      <vel value="0.0153550910" flag="0"/>
      <psa03 value="0.0966776100" flag="0"/>
      <psa10 value="0.0074456264" flag="0"/>
      <psa30 value="0.0057226584" flag="0"/>
    </comp>
    <comp name="--.HHZ">
      <acc value="0.0222016709" flag="0"/>
      <vel value="0.0086220169" flag="0"/>
      <psa03 value="0.0463497413" flag="0"/>
      <psa10 value="0.0042685311" flag="0"/>
      <psa30 value="0.0012769965" flag="0"/>
    </comp>
  </station>
  <station code="SMAA" name="SMAA" netid="KO" insttype="CMG-5T" commtype="DIG" lat="39.1005" lon="28.9805">
    <comp name="--.HNE">
      <acc value="0.0415567024" flag="0"/>
      <vel value="0.0286504496" flag="0"/>
      <psa03 value="0.1171836461" flag="0"/>
      <psa10 value="0.0378074128" flag="0"/>
      <psa30 value="0.0144677138" flag="0"/>
    </comp>
    <comp name="--.HNZ">
      <acc value="0.0207835245" flag="0"/>
      <vel value="0.0108159335" flag="0"/>
      <psa03 value="0.0299065904" flag="0"/>
      <psa10 value="0.0184611266" flag="0"/>
      <psa30 value="0.0040034085" flag="0"/>
    </comp>
    <comp name="--.HNN">
      <acc value="0.0396875963" flag="0"/>
      <vel value="0.0384879593" flag="0"/>
      <psa03 value="0.1031503925" flag="0"/>
      <psa10 value="0.0433915365" flag="0"/>
      <psa30 value="0.0151963505" flag="0"/>
    </comp>
  </station>
  <station code="SOMA" name="SOMA" netid="KO" insttype="CMG-5T" commtype="DIG" lat="39.1564" lon="27.5341">
    <comp name="--.HNN">
      <acc value="0.0732362034" flag="0"/>
      <vel value="0.0372067898" flag="0"/>
      <psa03 value="0.2758239169" flag="0"/>
      <psa10 value="0.0350203215" flag="0"/>
      <psa30 value="0.0067714645" flag="0"/>
    </comp>
    <comp name="--.HNE">
      <acc value="0.0543202638" flag="0"/>
      <vel value="0.0288846712" flag="0"/>
      <psa03 value="0.2252438485" flag="0"/>
      <psa10 value="0.0223297116" flag="0"/>
      <psa30 value="0.0036522770" flag="0"/>
    </comp>
    <comp name="--.HNZ">
      <acc value="0.0348568189" flag="0"/>
      <vel value="0.0154942486" flag="0"/>
      <psa03 value="0.1042048610" flag="0"/>
      <psa10 value="0.0221095599" flag="0"/>
      <psa30 value="0.0018722312" flag="0"/>
    </comp>
  </station>
  <station code="SUSR" name="SUSR" netid="KO" insttype="CMG-5T" commtype="DIG" lat="39.9627" lon="28.0835">
    <comp name="--.HNN">
      <acc value="0.0404534555" flag="0"/>
      <vel value="0.0138527015" flag="0"/>
      <psa03 value="0.0496265419" flag="0"/>
      <psa10 value="0.0051946851" flag="0"/>
      <psa30 value="0.0026834836" flag="0"/>
    </comp>
    <comp name="--.HNE">
      <acc value="0.0339074279" flag="0"/>
      <vel value="0.0083900943" flag="0"/>
      <psa03 value="0.0327343782" flag="0"/>
      <psa10 value="0.0105042470" flag="0"/>
      <psa30 value="0.0019329123" flag="0"/>
    </comp>
    <comp name="--.HNZ">
      <acc value="0.0383127983" flag="0"/>
      <vel value="0.0083540378" flag="0"/>
      <psa03 value="0.0328849192" flag="0"/>
      <psa10 value="0.0038367306" flag="0"/>
      <psa30 value="0.0022712011" flag="0"/>
    </comp>
  </station>
  <station code="TVSB" name="TVSB" netid="KO" insttype="CMG-3T" commtype="DIG" lat="39.4497" lon="29.4615">
    <comp name="--.HHZ">
      <acc value="0.0104193623" flag="0"/>
      <vel value="0.0053358656" flag="0"/>
      <psa03 value="0.0248535975" flag="0"/>
      <psa10 value="0.0049378857" flag="0"/>
      <psa30 value="0.0010555558" flag="0"/>
    </comp>
    <comp name="--.HHE">
      <acc value="0.0235595667" flag="0"/>
      <vel value="0.0117309000" flag="0"/>
      <psa03 value="0.0567576964" flag="0"/>
      <psa10 value="0.0062612607" flag="0"/>
      <psa30 value="0.0012102098" flag="0"/>
    </comp>
    <comp name="--.HHN">
      <acc value="0.0183129892" flag="0"/>
      <vel value="0.0123409831" flag="0"/>
      <psa03 value="0.0377457171" flag="0"/>
      <psa10 value="0.0142920231" flag="0"/>
      <psa30 value="0.0022757385" flag="0"/>
    </comp>
  </station>
  <station code="YAYO" name="YAYO" netid="KO" insttype="CMG-6T" commtype="DIG" lat="39.6113" lon="27.0726">
    <comp name="--.HHZ">
      <acc value="0.0133059479" flag="0"/>
      <vel value="0.0070075831" flag="0"/>
      <psa03 value="0.0417139975" flag="0"/>
      <psa10 value="0.0045722293" flag="0"/>
      <psa30 value="0.0009739530" flag="0"/>
    </comp>
    <comp name="--.HHE">
      <acc value="0.0196725597" flag="0"/>
      <vel value="0.0127149074" flag="0"/>
      <psa03 value="0.0522514665" flag="0"/>
      <psa10 value="0.0105019367" flag="0"/>
      <psa30 value="0.0018818621" flag="0"/>
    </comp>
    <comp name="--.HHN">
      <acc value="0.0169845655" flag="0"/>
      <vel value="0.0084585040" flag="0"/>
      <psa03 value="0.0390347687" flag="0"/>
      <psa10 value="0.0057692713" flag="0"/>
      <psa30 value="0.0019051862" flag="0"/>
    </comp>
  </station>
  <station code="YENI" name="YENI" netid="KO" insttype="CMG-5T" commtype="DIG" lat="39.9364" lon="27.2422">
    <comp name="--.HNN">
      <acc value="0.0269710852" flag="0"/>
      <vel value="0.0117825564" flag="0"/>
      <psa03 value="0.0543120203" flag="0"/>
      <psa10 value="0.0072926548" flag="0"/>
      <psa30 value="0.0011798482" flag="0"/>
    </comp>
    <comp name="--.HNE">
      <acc value="0.0349048850" flag="0"/>
      <vel value="0.0141345782" flag="0"/>
      <psa03 value="0.1024174439" flag="0"/>
      <psa10 value="0.0077518209" flag="0"/>
      <psa30 value="0.0010271007" flag="0"/>
    </comp>
    <comp name="--.HNZ">
      <acc value="0.0137440558" flag="0"/>
      <vel value="0.0057402896" flag="0"/>
      <psa03 value="0.0327327868" flag="0"/>
      <psa10 value="0.0032881543" flag="0"/>
      <psa30 value="0.0010807294" flag="0"/>
    </comp>
  </station>
</stationlist>
