<?xml version="1.0" encoding="UTF-8" standalone="yes"?>
<!DOCTYPE earthquake SYSTEM "stationlist.dtd">
<stationlist created="" xmlns="ch.ethz.sed.shakemap.usgs.xml">
  <station code="AKS" name="AKS" netid="KO" insttype="CMG-5T" commtype="DIG" lat="38.8785" lon="27.8129">
    <comp name="--.HNN">
      <acc value="0.0570622625" flag="0"/>
      <vel value="0.0195581598" flag="0"/>
      <psa03 value="0.0825087028" flag="0"/>
      <psa10 value="0.0168106864" flag="0"/>
      <psa30 value="0.0036274732" flag="0"/>
    </comp>
    <comp name="--.HNZ">
      <acc value="0.0303224405" flag="0"/>
      <vel value="0.0129958464" flag="0"/>
      <psa03 value="0.0229299327" flag="0"/>
      <psa10 value="0.0085748654" flag="0"/>
      <psa30 value="0.0010207793" flag="0"/>
    </comp>
  </station>
  <station code="BALB" name="BALB" netid="KO" insttype="CMG-5T" commtype="DIG" lat="39.6507" lon="27.8642">
    <comp name="--.HNN">
      <acc value="0.0473432487" flag="0"/>
      <vel value="0.0229795250" flag="0"/>
      <psa03 value="0.1435002595" flag="0"/>
      <psa10 value="0.0221991440" flag="0"/>
      <psa30 value="0.0031434574" flag="0"/>
    </comp>
    <comp name="--.HNE">
      <acc value="0.0568487628" flag="0"/>
      <vel value="0.0227329893" flag="0"/>
      <psa03 value="0.1805086899" flag="0"/>
      <psa10 value="0.0312535105" flag="0"/>
      <psa30 value="0.0050951664" flag="0"/>
    </comp>
    <comp name="--.HNZ">
      <acc value="0.0316711297" flag="0"/>
      <vel value="0.0141205319" flag="0"/>
      <psa03 value="0.0770138773" flag="0"/>
      <psa10 value="0.0189252468" flag="0"/>
      <psa30 value="0.0044764473" flag="0"/>
    </comp>
  </station>
  <station code="DKL" name="DKL" netid="KO" insttype="CMG-3ESPC" commtype="DIG" lat="39.0713" lon="26.9053">
    <comp name="--.HHE">
      <acc value="0.0054284309" flag="0"/>
      <vel value="0.0038137922" flag="0"/>
      <psa03 value="0.0149453886" flag="0"/>
      <psa10 value="0.0065871276" flag="0"/>
      <psa30 value="0.0011184728" flag="0"/>
    </comp>
    <comp name="--.HHZ">
      <acc value="0.0054917855" flag="0"/>
      <vel value="0.0035851137" flag="0"/>
      <psa03 value="0.0126086540" flag="0"/>
      <psa10 value="0.0055796780" flag="0"/>
      <psa30 value="0.0010598637" flag="0"/>
    </comp>
    <comp name="--.HHN">
      <acc value="0.0078742227" flag="0"/>
      <vel value="0.0081204928" flag="0"/>
      <psa03 value="0.0221188181" flag="0"/>
      <psa10 value="0.0078489558" flag="0"/>
      <psa30 value="0.0017515724" flag="0"/>
    </comp>
  </station>
  <station code="DST" name="DST" netid="KO" insttype="CMG-5T" commtype="DIG" lat="39.6041" lon="28.6267">
    <comp name="--.HNN">
      <acc value="0.0331295680" flag="0"/>
      <vel value="0.0130281757" flag="0"/>
      <psa03 value="0.0914558570" flag="0"/>
      <psa10 value="0.0124138809" flag="0"/>
      <psa30 value="0.0031560627" flag="0"/>
    </comp>
    <comp name="--.HNE">
      <acc value="0.0380933150" flag="0"/>
      <vel value="0.0117437079" flag="0"/>
      <psa03 value="0.0618707312" flag="0"/>
      <psa10 value="0.0124440621" flag="0"/>
      <psa30 value="0.0040085549" flag="0"/>
    </comp>
    <comp name="--.HNZ">
      <acc value="0.0250002464" flag="0"/>
      <vel value="0.0118038777" flag="0"/>
      <psa03 value="0.0566482061" flag="0"/>
      <psa10 value="0.0081851790" flag="0"/>
      <psa30 value="0.0024448756" flag="0"/>
    </comp>
  </station>
  <station code="GOMA" name="GOMA" netid="KO" insttype="CMG-5T" commtype="DIG" lat="38.7077" lon="27.9175">
    <comp name="--.HNZ">
      <acc value="0.0323324621" flag="0"/>
      <vel value="0.0105807545" flag="0"/>
      <psa03 value="0.0423960597" flag="0"/>
      <psa10 value="0.0057807910" flag="0"/>
      <psa30 value="0.0011633054" flag="0"/>
    </comp>
    <comp name="--.HNN">
      <acc value="0.0488662678" flag="0"/>
      <vel value="0.0267796602" flag="0"/>
      <psa03 value="0.1415443618" flag="0"/>
      <psa10 value="0.0146131157" flag="0"/>
      <psa30 value="0.0033095175" flag="0"/>
    </comp>
    <comp name="--.HNE">
      <acc value="0.0373854085" flag="0"/>
      <vel value="0.0253066119" flag="0"/>
      <psa03 value="0.1035524797" flag="0"/>
      <psa10 value="0.0160069256" flag="0"/>
      <psa30 value="0.0061408682" flag="0"/>
    </comp>
  </station>
  <station code="GONE" name="GONE" netid="KO" insttype="CMG-5T" commtype="DIG" lat="40.0466" lon="27.686">
    <comp name="--.HNZ">
      <acc value="0.0129182682" flag="0"/>
      <vel value="0.0048942657" flag="0"/>
      <psa03 value="0.0306102977" flag="0"/>
      <psa10 value="0.0043338877" flag="0"/>
      <psa30 value="0.0010072649" flag="0"/>
    </comp>
    <comp name="--.HNE">
      <acc value="0.0197507635" flag="0"/>
      <vel value="0.0104878750" flag="0"/>
      <psa03 value="0.0425486530" flag="0"/>
      <psa10 value="0.0102026939" flag="0"/>
      <psa30 value="0.0011399621" flag="0"/>
    </comp>
    <comp name="--.HNN">
      <acc value="0.0525237521" flag="0"/>
      <vel value="0.0197744825" flag="0"/>
      <psa03 value="0.1478459003" flag="0"/>
      <psa10 value="0.0138554369" flag="0"/>
      <psa30 value="0.0030843493" flag="0"/>
    </comp>
  </station>
  <station code="GORD" name="GORD" netid="KO" insttype="CMG-5T" commtype="DIG" lat="38.9088" lon="28.1769">
    <comp name="--.HNE">
      <acc value="0.0395912410" flag="0"/>
      <vel value="0.0648237775" flag="0"/>
      <psa03 value="0.0955421603" flag="0"/>
      <psa10 value="0.1006595040" flag="0"/>
      <psa30 value="0.0268756389" flag="0"/>
    </comp>
    <comp name="--.HNZ">
      <acc value="0.0503997824" flag="0"/>
      <vel value="0.0250989946" flag="0"/>
      <psa03 value="0.1271043093" flag="0"/>
      <psa10 value="0.0488216758" flag="0"/>
      <psa30 value="0.0034248701" flag="0"/>
    </comp>
    <comp name="--.HNN">
      <acc value="0.0686188194" flag="0"/>
      <vel value="0.0376349425" flag="0"/>
      <psa03 value="0.1398179979" flag="0"/>
      <psa10 value="0.0725759159" flag="0"/>
      <psa30 value="0.0078113245" flag="0"/>
    </comp>
  </station>
  <station code="KCTX" name="KCTX" netid="KO" insttype="CMG-3ESP" commtype="DIG" lat="40.2626" lon="28.3353">
    <comp name="--.HHZ">
      <acc value="0.0159812253" flag="0"/>
      <vel value="0.0057528866" flag="0"/>
      <psa03 value="0.0501540615" flag="0"/>
      <psa10 value="0.0031511001" flag="0"/>
      <psa30 value="0.0004742172" flag="0"/>
    </comp>
    <comp name="--.HHE">
      <acc value="0.0200822122" flag="0"/>
      <vel value="0.0099440119" flag="0"/>
      <psa03 value="0.0334531358" flag="0"/>
      <psa10 value="0.0099919953" flag="0"/>
      <psa30 value="0.0007965997" flag="0"/>
    </comp>
    <comp name="--.HHN">
      <acc value="0.0235124819" flag="0"/>
      <vel value="0.0098429474" flag="0"/>
      <psa03 value="0.0709069863" flag="0"/>
      <psa10 value="0.0041573846" flag="0"/>
      <psa30 value="0.0005698174" flag="0"/>
    </comp>
  </station>
  <station code="KULA" name="KULA" netid="KO" insttype="CMG-3T" commtype="DIG" lat="38.5145" lon="28.6607">
    <comp name="--.HHE">
      <acc value="0.0216131702" flag="0"/>
      <vel value="0.0110127620" flag="0"/>
      <psa03 value="0.0330008628" flag="0"/>
      <psa10 value="0.0093877957" flag="0"/>
      <psa30 value="0.0012360396" flag="0"/>
    </comp>
    <comp name="--.HHZ">
      <acc value="0.0162722191" flag="0"/>
      <vel value="0.0090954587" flag="0"/>
      <psa03 value="0.0217598857" flag="0"/>
      <psa10 value="0.0046129805" flag="0"/>
      <psa30 value="0.0006831826" flag="0"/>
    </comp>
  </station>
  <station code="ORLT" name="ORLT" netid="KO" insttype="CMG-5T" commtype="DIG" lat="40.0452" lon="28.8914">
    <comp name="--.HNE">
      <acc value="0.0402047479" flag="0"/>
      <vel value="0.0207452638" flag="0"/>
      <psa03 value="0.1030399941" flag="0"/>
      <psa10 value="0.0169326678" flag="0"/>
      <psa30 value="0.0032134546" flag="0"/>
    </comp>
    <comp name="--.HNZ">
      <acc value="0.0222150193" flag="0"/>
      <vel value="0.0121018032" flag="0"/>
      <psa03 value="0.0841170224" flag="0"/>
      <psa10 value="0.0122257553" flag="0"/>
      <psa30 value="0.0033266112" flag="0"/>
    </comp>
    <comp name="--.HNN">
      <acc value="0.0511272229" flag="0"/>
      <vel value="0.0238597696" flag="0"/>
      <psa03 value="0.1856847462" flag="0"/>
      <psa10 value="0.0170221394" flag="0"/>
      <psa30 value="0.0038250246" flag="0"/>
    </comp>
  </station>
  <station code="SHAP" name="SHAP" netid="KO" insttype="CMG-5T" commtype="DIG" lat="39.0231" lon="29.222">
    <comp name="--.HNE">
      <acc value="0.0455845757" flag="0"/>
      <vel value="0.0199295223" flag="0"/>
      <psa03 value="0.1162511633" flag="0"/>
      <psa10 value="0.0079715731" flag="0"/>
      <psa30 value="0.0025715131" flag="0"/>
    </comp>
    <comp name="--.HNZ">
      <acc value="0.0260898105" flag="0"/>
      <vel value="0.0089769268" flag="0"/>
      <psa03 value="0.0590489003" flag="0"/>
      <psa10 value="0.0048742376" flag="0"/>
      <psa30 value="0.0014723052" flag="0"/>
    </comp>
    <comp name="--.HNN">
      <acc value="0.0482097225" flag="0"/>
      <vel value="0.0179135117" flag="0"/>
      <psa03 value="0.1016523896" flag="0"/>
      <psa10 value="0.0091940390" flag="0"/>
      <psa30 value="0.0034701289" flag="0"/>
    </comp>
  </station>
  <station code="SIMA" name="SIMA" netid="KO" insttype="CMG-6T" commtype="DIG" lat="39.0833" lon="28.9825">
    <comp name="--.HHN">
      <acc value="0.0370247166" flag="0"/>
      <vel value="0.0153550910" flag="0"/>
      <psa03 value="0.0966776100" flag="0"/>
      <psa10 value="0.0074456263" flag="0"/>
      <psa30 value="0.0057226677" flag="0"/>
    </comp>
    <comp name="--.HHE">
      <acc value="0.0403494887" flag="0"/>
      <vel value="0.0124219477" flag="0"/>
      <psa03 value="0.1013031192" flag="0"/>
      <psa10 value="0.0064979865" flag="0"/>
      <psa30 value="0.0021700526" flag="0"/>
    </comp>
    <comp name="--.HHZ">
      <acc value="0.0222016550" flag="0"/>
      <vel value="0.0086220171" flag="0"/>
      <psa03 value="0.0463497413" flag="0"/>
      <psa10 value="0.0042685311" flag="0"/>
      <psa30 value="0.0012769884" flag="0"/>
    </comp>
  </station>
  <station code="SMAA" name="SMAA" netid="KO" insttype="CMG-5T" commtype="DIG" lat="39.1005" lon="28.9805">
    <comp name="--.HNE">
      <acc value="0.0415566941" flag="0"/>
      <vel value="0.0286504482" flag="0"/>
      <psa03 value="0.1171836461" flag="0"/>
      <psa10 value="0.0378074127" flag="0"/>
      <psa30 value="0.0144674816" flag="0"/>
    </comp>
    <comp name="--.HNZ">
      <acc value="0.0207835257" flag="0"/>
      <vel value="0.0108159387" flag="0"/>
      <psa03 value="0.0299065904" flag="0"/>
      <psa10 value="0.0184611266" flag="0"/>
      <psa30 value="0.0040030148" flag="0"/>
    </comp>
    <comp name="--.HNN">
      <acc value="0.0396875974" flag="0"/>
      <vel value="0.0384879516" flag="0"/>
      <psa03 value="0.1031503925" flag="0"/>
      <psa10 value="0.0433915384" flag="0"/>
      <psa30 value="0.0151955138" flag="0"/>
    </comp>
  </station>
  <station code="SOMA" name="SOMA" netid="KO" insttype="CMG-5T" commtype="DIG" lat="39.1564" lon="27.5341">
    <comp name="--.HNE">
      <acc value="0.0543202628" flag="0"/>
      <vel value="0.0288846639" flag="0"/>
      <psa03 value="0.2252438485" flag="0"/>
      <psa10 value="0.0223297126" flag="0"/>
      <psa30 value="0.0036515904" flag="0"/>
    </comp>
    <comp name="--.HNN">
      <acc value="0.0732362026" flag="0"/>
      <vel value="0.0372067863" flag="0"/>
      <psa03 value="0.2758239169" flag="0"/>
      <psa10 value="0.0350203221" flag="0"/>
      <psa30 value="0.0067715065" flag="0"/>
    </comp>
    <comp name="--.HNZ">
      <acc value="0.0348568173" flag="0"/>
      <vel value="0.0154942498" flag="0"/>
      <psa03 value="0.1042048610" flag="0"/>
      <psa10 value="0.0221095587" flag="0"/>
      <psa30 value="0.0018720890" flag="0"/>
    </comp>
  </station>
  <station code="SUSR" name="SUSR" netid="KO" insttype="CMG-5T" commtype="DIG" lat="39.9627" lon="28.0835">
    <comp name="--.HNE">
      <acc value="0.0339074236" flag="0"/>
      <vel value="0.0083900847" flag="0"/>
      <psa03 value="0.0327343782" flag="0"/>
      <psa10 value="0.0105042439" flag="0"/>
      <psa30 value="0.0019329893" flag="0"/>
    </comp>
    <comp name="--.HNZ">
      <acc value="0.0383128001" flag="0"/>
      <vel value="0.0083540506" flag="0"/>
      <psa03 value="0.0328849192" flag="0"/>
      <psa10 value="0.0038367325" flag="0"/>
      <psa30 value="0.0022708769" flag="0"/>
    </comp>
    <comp name="--.HNN">
      <acc value="0.0404534500" flag="0"/>
      <vel value="0.0138527032" flag="0"/>
      <psa03 value="0.0496265419" flag="0"/>
      <psa10 value="0.0051946849" flag="0"/>
      <psa30 value="0.0026835589" flag="0"/>
    </comp>
  </station>
  <station code="TVSB" name="TVSB" netid="KO" insttype="CMG-3T" commtype="DIG" lat="39.4497" lon="29.4615">
    <comp name="--.HHE">
      <acc value="0.0235595660" flag="0"/>
      <vel value="0.0117309000" flag="0"/>
      <psa03 value="0.0567576964" flag="0"/>
      <psa10 value="0.0062612607" flag="0"/>
      <psa30 value="0.0012102095" flag="0"/>
    </comp>
    <comp name="--.HHN">
      <acc value="0.0183129883" flag="0"/>
      <vel value="0.0123409829" flag="0"/>
      <psa03 value="0.0377457171" flag="0"/>
      <psa10 value="0.0142920231" flag="0"/>
      <psa30 value="0.0022757340" flag="0"/>
    </comp>
    <comp name="--.HHZ">
      <acc value="0.0104193625" flag="0"/>
      <vel value="0.0053358652" flag="0"/>
      <psa03 value="0.0248535975" flag="0"/>
      <psa10 value="0.0049378857" flag="0"/>
      <psa30 value="0.0010555533" flag="0"/>
    </comp>
  </station>
  <station code="YAYO" name="YAYO" netid="KO" insttype="CMG-6T" commtype="DIG" lat="39.6113" lon="27.0726">
    <comp name="--.HHZ">
      <acc value="0.0133059475" flag="0"/>
      <vel value="0.0070075833" flag="0"/>
      <psa03 value="0.0417139975" flag="0"/>
      <psa10 value="0.0045722293" flag="0"/>
      <psa30 value="0.0009739560" flag="0"/>
    </comp>
    <comp name="--.HHE">
      <acc value="0.0196725601" flag="0"/>
      <vel value="0.0127149073" flag="0"/>
      <psa03 value="0.0522514665" flag="0"/>
      <psa10 value="0.0105019368" flag="0"/>
      <psa30 value="0.0018818565" flag="0"/>
    </comp>
    <comp name="--.HHN">
      <acc value="0.0169845648" flag="0"/>
      <vel value="0.0084584999" flag="0"/>
      <psa03 value="0.0390347687" flag="0"/>
      <psa10 value="0.0057692713" flag="0"/>
      <psa30 value="0.0019051849" flag="0"/>
    </comp>
  </station>
  <station code="YENI" name="YENI" netid="KO" insttype="CMG-5T" commtype="DIG" lat="39.9364" lon="27.2422">
    <comp name="--.HNN">
      <acc value="0.0269710940" flag="0"/>
      <vel value="0.0117825542" flag="0"/>
      <psa03 value="0.0543120203" flag="0"/>
      <psa10 value="0.0072926553" flag="0"/>
      <psa30 value="0.0011798485" flag="0"/>
    </comp>
    <comp name="--.HNE">
      <acc value="0.0349048961" flag="0"/>
      <vel value="0.0141345872" flag="0"/>
      <psa03 value="0.1024174439" flag="0"/>
      <psa10 value="0.0077518210" flag="0"/>
      <psa30 value="0.0010270305" flag="0"/>
    </comp>
    <comp name="--.HNZ">
      <acc value="0.0137440418" flag="0"/>
      <vel value="0.0057403041" flag="0"/>
      <psa03 value="0.0327327868" flag="0"/>
      <psa10 value="0.0032879844" flag="0"/>
      <psa30 value="0.0010807893" flag="0"/>
    </comp>
  </station>
</stationlist>
