<?xml version="1.0" encoding="UTF-8" standalone="yes"?>
<!DOCTYPE earthquake SYSTEM "stationlist.dtd">
<stationlist created="" xmlns="ch.ethz.sed.shakemap.usgs.xml">
  <station code="BNN" name="BNN" netid="KO" insttype="CMG-3T" lat="38.8521" lon="35.8472">
    <comp name="--.HHE">
      <acc value="0.0289632715" flag="0"/>
      <vel value="0.0269657818" flag="0"/>
      <psa03 value="0.0895359281" flag="0"/>
      <psa10 value="0.0451592329" flag="0"/>
      <psa30 value="0.0066904078" flag="0"/>
    </comp>
    <comp name="--.HHN">
      <acc value="0.0365997752" flag="0"/>
      <vel value="0.0240063544" flag="0"/>
      <psa03 value="0.0573861692" flag="0"/>
      <psa10 value="0.0319327019" flag="0"/>
      <psa30 value="0.0076417535" flag="0"/>
    </comp>
    <comp name="--.HHZ">
      <acc value="0.0152071209" flag="0"/>
      <vel value="0.0108221725" flag="0"/>
      <psa03 value="0.0438880337" flag="0"/>
      <psa10 value="0.0219476554" flag="0"/>
      <psa30 value="0.0024336160" flag="0"/>
    </comp>
  </station>
  <station code="DARE" name="DARE" netid="KO" insttype="CMG-3ESP" lat="38.5712" lon="37.4832">
    <comp name="--.HHN">
      <acc value="0.0314122091" flag="0"/>
      <vel value="0.0366832421" flag="0"/>
      <psa03 value="0.0882825842" flag="0"/>
      <psa10 value="0.0551946430" flag="0"/>
      <psa30 value="0.0117972082" flag="0"/>
    </comp>
    <comp name="--.HHE">
      <acc value="0.0308856267" flag="0"/>
      <vel value="0.0310051881" flag="0"/>
      <psa03 value="0.0816473188" flag="0"/>
      <psa10 value="0.0359168176" flag="0"/>
      <psa30 value="0.0068777406" flag="0"/>
    </comp>
    <comp name="--.HHZ">
      <acc value="0.0306741632" flag="0"/>
      <vel value="0.0199106570" flag="0"/>
      <psa03 value="0.0713535024" flag="0"/>
      <psa10 value="0.0287078064" flag="0"/>
      <psa30 value="0.0069227957" flag="0"/>
    </comp>
  </station>
  <station code="GAZ" name="GAZ" netid="KO" insttype="CMG-3T" lat="37.1721" lon="37.2096">
    <comp name="--.HHZ">
      <acc value="0.0207023926" flag="0"/>
      <vel value="0.0127420297" flag="0"/>
      <psa03 value="0.0716461928" flag="0"/>
      <psa10 value="0.0146586779" flag="0"/>
      <psa30 value="0.0042225502" flag="0"/>
    </comp>
    <comp name="--.HHE">
      <acc value="0.0474662482" flag="0"/>
      <vel value="0.0424275736" flag="0"/>
      <psa03 value="0.1220517449" flag="0"/>
      <psa10 value="0.0384407470" flag="0"/>
      <psa30 value="0.0039250363" flag="0"/>
    </comp>
    <comp name="--.HHN">
      <acc value="0.0395350445" flag="0"/>
      <vel value="0.0257823281" flag="0"/>
      <psa03 value="0.1242491531" flag="0"/>
      <psa10 value="0.0362732428" flag="0"/>
      <psa30 value="0.0038694893" flag="0"/>
    </comp>
  </station>
  <station code="KMRS" name="KMRS" netid="KO" insttype="CMG-3T" lat="37.5053" lon="36.9">
    <comp name="--.HHE">
      <acc value="0.0228540522" flag="0"/>
      <vel value="0.0242136871" flag="0"/>
      <psa03 value="0.0659119142" flag="0"/>
      <psa10 value="0.0208117086" flag="0"/>
      <psa30 value="0.0065058465" flag="0"/>
    </comp>
    <comp name="--.HHZ">
      <acc value="0.0176879480" flag="0"/>
      <vel value="0.0125796648" flag="0"/>
      <psa03 value="0.0574631327" flag="0"/>
      <psa10 value="0.0153701899" flag="0"/>
      <psa30 value="0.0047208214" flag="0"/>
    </comp>
  </station>
  <station code="SARI" name="SARI" netid="KO" insttype="CMG-3T" lat="38.4072" lon="36.4181">
    <comp name="--.HHE">
      <acc value="0.1655468897" flag="0"/>
      <vel value="0.0948380099" flag="0"/>
      <psa03 value="0.3723587219" flag="0"/>
      <psa10 value="0.1058053351" flag="0"/>
      <psa30 value="0.0216374697" flag="0"/>
    </comp>
    <comp name="--.HHZ">
      <acc value="0.1589478255" flag="0"/>
      <vel value="0.0928286627" flag="0"/>
      <psa03 value="0.4883428934" flag="0"/>
      <psa10 value="0.0690770125" flag="0"/>
      <psa30 value="0.0076939094" flag="0"/>
    </comp>
    <comp name="--.HHN">
      <acc value="0.1809447126" flag="0"/>
      <vel value="0.1424416690" flag="0"/>
      <psa03 value="0.3432730207" flag="0"/>
      <psa10 value="0.2340389012" flag="0"/>
      <psa30 value="0.0281303389" flag="0"/>
    </comp>
  </station>
  <station code="ANDN" name="ANDN" netid="TU" insttype="T" lat="37.58" lon="36.3452">
    <comp name="--.HHZ">
      <acc value="0.0456883184" flag="0"/>
      <vel value="0.0583471668" flag="0"/>
      <psa03 value="0.0970745241" flag="0"/>
      <psa10 value="0.1012245832" flag="0"/>
      <psa30 value="0.0092993330" flag="0"/>
    </comp>
    <comp name="--.HHN">
      <acc value="0.0819908864" flag="0"/>
      <vel value="0.0464103730" flag="0"/>
      <psa03 value="0.1947076948" flag="0"/>
      <psa10 value="0.0635505038" flag="0"/>
      <psa30 value="0.0153247454" flag="0"/>
    </comp>
    <comp name="--.HHE">
      <acc value="0.0594881492" flag="0"/>
      <vel value="0.0568158607" flag="0"/>
      <psa03 value="0.1356572682" flag="0"/>
      <psa10 value="0.0884943305" flag="0"/>
      <psa30 value="0.0181268531" flag="0"/>
    </comp>
  </station>
</stationlist>
