<?xml version="1.0" encoding="UTF-8" standalone="yes"?>
<!DOCTYPE earthquake SYSTEM "stationlist.dtd">
<stationlist created="" xmlns="ch.ethz.sed.shakemap.usgs.xml">
  <station code="ARPRA" name="ARPRA" netid="KO" insttype="CMG-5T" lat="39.0929" lon="38.3356">
    <comp name="--.HNZ">
      <acc value="0.0130464880" flag="0"/>
      <vel value="0.0105043480" flag="0"/>
      <psa03 value="0.0375104283" flag="0"/>
      <psa10 value="0.0125211632" flag="0"/>
      <psa30 value="0.0009376170" flag="0"/>
    </comp>
    <comp name="--.HNN">
      <acc value="0.0309150738" flag="0"/>
      <vel value="0.0218381073" flag="0"/>
      <psa03 value="0.0865870835" flag="0"/>
      <psa10 value="0.0437721921" flag="0"/>
      <psa30 value="0.0018591260" flag="0"/>
    </comp>
    <comp name="--.HNE">
      <acc value="0.0215640140" flag="0"/>
      <vel value="0.0253908655" flag="0"/>
      <psa03 value="0.0791312173" flag="0"/>
      <psa10 value="0.0314354897" flag="0"/>
      <psa30 value="0.0017556382" flag="0"/>
    </comp>
  </station>
  <station code="URFA" name="URFA" netid="KO" insttype="CMG-3ESP" lat="37.4409" lon="38.8213">
    <comp name="--.HHN">
      <acc value="0.0861256252" flag="0"/>
      <vel value="0.0297280164" flag="0"/>
      <psa03 value="0.1542127074" flag="0"/>
      <psa10 value="0.0213795073" flag="0"/>
      <psa30 value="0.0022234069" flag="0"/>
    </comp>
    <comp name="--.HHZ">
      <acc value="0.0438529061" flag="0"/>
      <vel value="0.0157620481" flag="0"/>
      <psa03 value="0.1021804867" flag="0"/>
      <psa10 value="0.0132667931" flag="0"/>
      <psa30 value="0.0012995496" flag="0"/>
    </comp>
  </station>
</stationlist>
