<?xml version="1.0" encoding="UTF-8" standalone="yes"?>
<!DOCTYPE earthquake SYSTEM "stationlist.dtd">
<stationlist created="" xmlns="ch.ethz.sed.shakemap.usgs.xml">
  <station code="ARPRA" name="ARPRA" netid="KO" insttype="CMG-5T" lat="39.0929" lon="38.3356">
    <comp name="--.HNE">
      <acc value="0.0215640131" flag="0"/>
      <vel value="0.0253908651" flag="0"/>
      <psa03 value="0.0791312173" flag="0"/>
      <psa10 value="0.0314354898" flag="0"/>
      <psa30 value="0.0017563150" flag="0"/>
    </comp>
    <comp name="--.HNZ">
      <acc value="0.0130464936" flag="0"/>
      <vel value="0.0105043587" flag="0"/>
      <psa03 value="0.0375104283" flag="0"/>
      <psa10 value="0.0125211626" flag="0"/>
      <psa30 value="0.0009375997" flag="0"/>
    </comp>
    <comp name="--.HNN">
      <acc value="0.0309150755" flag="0"/>
      <vel value="0.0218381145" flag="0"/>
      <psa03 value="0.0865870835" flag="0"/>
      <psa10 value="0.0437721932" flag="0"/>
      <psa30 value="0.0018603946" flag="0"/>
    </comp>
  </station>
  <station code="DARE" name="DARE" netid="KO" insttype="CMG-3ESP" lat="38.5712" lon="37.4832">
    <comp name="--.HHZ">
      <acc value="0.0285776725" flag="0"/>
      <vel value="0.0160819705" flag="0"/>
      <psa03 value="0.0723275023" flag="0"/>
      <psa10 value="0.0152100808" flag="0"/>
      <psa30 value="0.0034974117" flag="0"/>
    </comp>
    <comp name="--.HHE">
      <acc value="0.0337699147" flag="0"/>
      <vel value="0.0170059927" flag="0"/>
      <psa03 value="0.1472254894" flag="0"/>
      <psa10 value="0.0171607293" flag="0"/>
      <psa30 value="0.0013535258" flag="0"/>
    </comp>
    <comp name="--.HHN">
      <acc value="0.0260925695" flag="0"/>
      <vel value="0.0182140501" flag="0"/>
      <psa03 value="0.0658909802" flag="0"/>
      <psa10 value="0.0195719183" flag="0"/>
      <psa30 value="0.0037108726" flag="0"/>
    </comp>
  </station>
  <station code="URFA" name="URFA" netid="KO" insttype="CMG-3ESP" lat="37.4409" lon="38.8213">
    <comp name="--.HHN">
      <acc value="0.0861256251" flag="0"/>
      <vel value="0.0297279495" flag="0"/>
      <psa03 value="0.1542127073" flag="0"/>
      <psa10 value="0.0213795066" flag="0"/>
      <psa30 value="0.0022234060" flag="0"/>
    </comp>
    <comp name="--.HHZ">
      <acc value="0.0438529062" flag="0"/>
      <vel value="0.0157620547" flag="0"/>
      <psa03 value="0.1021804867" flag="0"/>
      <psa10 value="0.0132667838" flag="0"/>
      <psa30 value="0.0012995458" flag="0"/>
    </comp>
  </station>
</stationlist>
