<?xml version="1.0" encoding="UTF-8" standalone="yes"?>
<!DOCTYPE earthquake SYSTEM "stationlist.dtd">
<stationlist created="" xmlns="ch.ethz.sed.shakemap.usgs.xml">
  <station code="AIO" name="AIO" netid="IV" insttype="" lat="37.9712" lon="15.233">
    <comp name="--.HHE">
      <acc value="0.0124639669" flag="0"/>
      <vel value="0.0093609617" flag="0"/>
      <psa03 value="0.0322184967" flag="0"/>
      <psa10 value="0.0075389245" flag="0"/>
      <psa30 value="0.0006154055" flag="0"/>
    </comp>
    <comp name="--.HHN">
      <acc value="0.0166656600" flag="0"/>
      <vel value="0.0071644367" flag="0"/>
      <psa03 value="0.0379912428" flag="0"/>
      <psa10 value="0.0095544015" flag="0"/>
      <psa30 value="0.0006080459" flag="0"/>
    </comp>
    <comp name="--.HHZ">
      <acc value="0.0088698424" flag="0"/>
      <vel value="0.0038466950" flag="0"/>
      <psa03 value="0.0162070897" flag="0"/>
      <psa10 value="0.0063615549" flag="0"/>
      <psa30 value="0.0006160542" flag="0"/>
    </comp>
  </station>
  <station code="CAGR" name="CAGR" netid="IV" insttype="" lat="37.622" lon="14.4999">
    <comp name="--.HHN">
      <acc value="0.0385229954" flag="0"/>
      <vel value="0.0342163751" flag="0"/>
      <psa03 value="0.0783804974" flag="0"/>
      <psa10 value="0.0640590379" flag="0"/>
      <psa30 value="0.0037293305" flag="0"/>
    </comp>
    <comp name="--.HHE">
      <acc value="0.0354916298" flag="0"/>
      <vel value="0.0372093439" flag="0"/>
      <psa03 value="0.0863889220" flag="0"/>
      <psa10 value="0.0492655596" flag="0"/>
      <psa30 value="0.0065986561" flag="0"/>
    </comp>
    <comp name="--.HHZ">
      <acc value="0.0163937074" flag="0"/>
      <vel value="0.0189729389" flag="0"/>
      <psa03 value="0.0506137817" flag="0"/>
      <psa10 value="0.0266738003" flag="0"/>
      <psa30 value="0.0043152050" flag="0"/>
    </comp>
  </station>
  <station code="CLTA" name="CLTA" netid="IV" insttype="" lat="37.158" lon="13.962">
    <comp name="--.HHE">
      <acc value="0.0073527471" flag="0"/>
      <vel value="0.0059912368" flag="0"/>
      <psa03 value="0.0168173145" flag="0"/>
      <psa10 value="0.0089401576" flag="0"/>
      <psa30 value="0.0006828958" flag="0"/>
    </comp>
    <comp name="--.HHN">
      <acc value="0.0071203228" flag="0"/>
      <vel value="0.0055572593" flag="0"/>
      <psa03 value="0.0245501968" flag="0"/>
      <psa10 value="0.0056557152" flag="0"/>
      <psa30 value="0.0008600512" flag="0"/>
    </comp>
    <comp name="--.HHZ">
      <acc value="0.0053596504" flag="0"/>
      <vel value="0.0033724925" flag="0"/>
      <psa03 value="0.0166067601" flag="0"/>
      <psa10 value="0.0059077677" flag="0"/>
      <psa30 value="0.0008222510" flag="0"/>
    </comp>
  </station>
  <station code="CRJA" name="CRJA" netid="IV" insttype="" lat="37.8016" lon="13.0043">
    <comp name="--.HHE">
      <acc value="0.0149979735" flag="0"/>
      <vel value="0.0158506590" flag="0"/>
      <psa03 value="0.0404799139" flag="0"/>
      <psa10 value="0.0268806488" flag="0"/>
      <psa30 value="0.0024579186" flag="0"/>
    </comp>
    <comp name="--.HHN">
      <acc value="0.0211071204" flag="0"/>
      <vel value="0.0117117839" flag="0"/>
      <psa03 value="0.0652295800" flag="0"/>
      <psa10 value="0.0171411124" flag="0"/>
      <psa30 value="0.0017544335" flag="0"/>
    </comp>
    <comp name="--.HHZ">
      <acc value="0.0116012406" flag="0"/>
      <vel value="0.0100373092" flag="0"/>
      <psa03 value="0.0299405472" flag="0"/>
      <psa10 value="0.0216608417" flag="0"/>
      <psa30 value="0.0015092927" flag="0"/>
    </comp>
  </station>
  <station code="CSLB" name="CSLB" netid="IV" insttype="" lat="37.9374" lon="14.0579">
    <comp name="--.HHE">
      <acc value="0.2225489314" flag="0"/>
      <vel value="0.0558964979" flag="0"/>
      <psa03 value="0.1509465859" flag="0"/>
      <psa10 value="0.0402769063" flag="0"/>
      <psa30 value="0.0026597469" flag="0"/>
    </comp>
    <comp name="--.HHN">
      <acc value="0.2273311650" flag="0"/>
      <vel value="0.0528409884" flag="0"/>
      <psa03 value="0.2369088461" flag="0"/>
      <psa10 value="0.0521277604" flag="0"/>
      <psa30 value="0.0030030642" flag="0"/>
    </comp>
    <comp name="--.HHZ">
      <acc value="0.2065430649" flag="0"/>
      <vel value="0.0428579087" flag="0"/>
      <psa03 value="0.1730894420" flag="0"/>
      <psa10 value="0.0252377564" flag="0"/>
      <psa30 value="0.0027894269" flag="0"/>
    </comp>
  </station>
  <station code="ECBD" name="ECBD" netid="IV" insttype="" lat="37.7802" lon="15.0865">
    <comp name="--.HHE">
      <acc value="0.0192997438" flag="0"/>
      <vel value="0.0156311359" flag="0"/>
      <psa03 value="0.0425437103" flag="0"/>
      <psa10 value="0.0267848080" flag="0"/>
      <psa30 value="0.0026819398" flag="0"/>
    </comp>
    <comp name="--.HHN">
      <acc value="0.0206843138" flag="0"/>
      <vel value="0.0195677193" flag="0"/>
      <psa03 value="0.0459667990" flag="0"/>
      <psa10 value="0.0292025125" flag="0"/>
      <psa30 value="0.0026774342" flag="0"/>
    </comp>
    <comp name="--.HHZ">
      <acc value="0.0180705934" flag="0"/>
      <vel value="0.0090252179" flag="0"/>
      <psa03 value="0.0499094639" flag="0"/>
      <psa10 value="0.0091550910" flag="0"/>
      <psa30 value="0.0004062074" flag="0"/>
    </comp>
  </station>
  <station code="ECHR" name="ECHR" netid="IV" insttype="" lat="37.6863" lon="14.9129">
    <comp name="--.HHE">
      <acc value="0.0169534093" flag="0"/>
      <vel value="0.0183668664" flag="0"/>
      <psa03 value="0.0515003132" flag="0"/>
      <psa10 value="0.0300379623" flag="0"/>
      <psa30 value="0.0036184021" flag="0"/>
    </comp>
    <comp name="--.HHN">
      <acc value="0.0182302872" flag="0"/>
      <vel value="0.0157829432" flag="0"/>
      <psa03 value="0.0529283047" flag="0"/>
      <psa10 value="0.0240604750" flag="0"/>
      <psa30 value="0.0035128977" flag="0"/>
    </comp>
    <comp name="--.HHZ">
      <acc value="0.0144429000" flag="0"/>
      <vel value="0.0062596668" flag="0"/>
      <psa03 value="0.0267637382" flag="0"/>
      <psa10 value="0.0083765030" flag="0"/>
      <psa30 value="0.0006579912" flag="0"/>
    </comp>
  </station>
  <station code="ECTS" name="ECTS" netid="IV" insttype="" lat="37.882" lon="15.121">
    <comp name="--.HHN">
      <acc value="0.0114849172" flag="0"/>
      <vel value="0.0089142522" flag="0"/>
      <psa03 value="0.0396547265" flag="0"/>
      <psa10 value="0.0180694802" flag="0"/>
      <psa30 value="0.0011854041" flag="0"/>
    </comp>
    <comp name="--.HHE">
      <acc value="0.0108073038" flag="0"/>
      <vel value="0.0120888307" flag="0"/>
      <psa03 value="0.0265899386" flag="0"/>
      <psa10 value="0.0134362416" flag="0"/>
      <psa30 value="0.0017101322" flag="0"/>
    </comp>
    <comp name="--.HHZ">
      <acc value="0.0076850374" flag="0"/>
      <vel value="0.0053382063" flag="0"/>
      <psa03 value="0.0258698622" flag="0"/>
      <psa10 value="0.0095995903" flag="0"/>
      <psa30 value="0.0006178269" flag="0"/>
    </comp>
  </station>
  <station code="ECZM" name="ECZM" netid="IV" insttype="" lat="37.7313" lon="14.9041">
    <comp name="--.HHN">
      <acc value="0.0211159957" flag="0"/>
      <vel value="0.0148793969" flag="0"/>
      <psa03 value="0.0682594565" flag="0"/>
      <psa10 value="0.0326675303" flag="0"/>
      <psa30 value="0.0019642704" flag="0"/>
    </comp>
    <comp name="--.HHE">
      <acc value="0.0219466209" flag="0"/>
      <vel value="0.0182684098" flag="0"/>
      <psa03 value="0.0629962536" flag="0"/>
      <psa10 value="0.0284766452" flag="0"/>
      <psa30 value="0.0028915526" flag="0"/>
    </comp>
    <comp name="--.HHZ">
      <acc value="0.0188974296" flag="0"/>
      <vel value="0.0117036735" flag="0"/>
      <psa03 value="0.0528995777" flag="0"/>
      <psa10 value="0.0142560335" flag="0"/>
      <psa30 value="0.0017728808" flag="0"/>
    </comp>
  </station>
  <station code="EFIU" name="EFIU" netid="IV" insttype="" lat="37.7896" lon="15.2103">
    <comp name="--.HHE">
      <acc value="0.0091999178" flag="0"/>
      <vel value="0.0125000530" flag="0"/>
      <psa03 value="0.0156061470" flag="0"/>
      <psa10 value="0.0189404220" flag="0"/>
      <psa30 value="0.0046468167" flag="0"/>
    </comp>
    <comp name="--.HHN">
      <acc value="0.0078788875" flag="0"/>
      <vel value="0.0089138190" flag="0"/>
      <psa03 value="0.0152719791" flag="0"/>
      <psa10 value="0.0191573583" flag="0"/>
      <psa30 value="0.0028354692" flag="0"/>
    </comp>
    <comp name="--.HHZ">
      <acc value="0.0072480394" flag="0"/>
      <vel value="0.0095832960" flag="0"/>
      <psa03 value="0.0146642462" flag="0"/>
      <psa10 value="0.0271700621" flag="0"/>
      <psa30 value="0.0023093835" flag="0"/>
    </comp>
  </station>
  <station code="EMCN" name="EMCN" netid="IV" insttype="" lat="37.7912" lon="15.0336">
    <comp name="--.HHE">
      <acc value="0.0256119445" flag="0"/>
      <vel value="0.0186155526" flag="0"/>
      <psa03 value="0.0512806193" flag="0"/>
      <psa10 value="0.0314484733" flag="0"/>
      <psa30 value="0.0030634829" flag="0"/>
    </comp>
    <comp name="--.HHN">
      <acc value="0.0230726631" flag="0"/>
      <vel value="0.0200108081" flag="0"/>
      <psa03 value="0.0353218520" flag="0"/>
      <psa10 value="0.0223385135" flag="0"/>
      <psa30 value="0.0022479838" flag="0"/>
    </comp>
    <comp name="--.HHZ">
      <acc value="0.0219529205" flag="0"/>
      <vel value="0.0104776870" flag="0"/>
      <psa03 value="0.0483865168" flag="0"/>
      <psa10 value="0.0139862304" flag="0"/>
      <psa30 value="0.0012393022" flag="0"/>
    </comp>
  </station>
  <station code="EMFO" name="EMFO" netid="IV" insttype="" lat="37.7357" lon="15.0902">
    <comp name="--.HHE">
      <acc value="0.0173865534" flag="0"/>
      <vel value="0.0130133834" flag="0"/>
      <psa03 value="0.0628352184" flag="0"/>
      <psa10 value="0.0113977423" flag="0"/>
      <psa30 value="0.0017379093" flag="0"/>
    </comp>
    <comp name="--.HHN">
      <acc value="0.0153122168" flag="0"/>
      <vel value="0.0123676300" flag="0"/>
      <psa03 value="0.0547936020" flag="0"/>
      <psa10 value="0.0175868805" flag="0"/>
      <psa30 value="0.0015420424" flag="0"/>
    </comp>
    <comp name="--.HHZ">
      <acc value="0.0098495810" flag="0"/>
      <vel value="0.0084098348" flag="0"/>
      <psa03 value="0.0269922499" flag="0"/>
      <psa10 value="0.0088864184" flag="0"/>
      <psa30 value="0.0012159752" flag="0"/>
    </comp>
  </station>
  <station code="EMFS" name="EMFS" netid="IV" insttype="" lat="37.7196" lon="14.9979">
    <comp name="--.HHN">
      <acc value="0.0261843998" flag="0"/>
      <vel value="0.0209588586" flag="0"/>
      <psa03 value="0.0717982454" flag="0"/>
      <psa10 value="0.0291240810" flag="0"/>
      <psa30 value="0.0022289003" flag="0"/>
    </comp>
    <comp name="--.HHZ">
      <acc value="0.0182906710" flag="0"/>
      <vel value="0.0089616950" flag="0"/>
      <psa03 value="0.0501645856" flag="0"/>
      <psa10 value="0.0133096355" flag="0"/>
      <psa30 value="0.0014165865" flag="0"/>
    </comp>
    <comp name="--.HHE">
      <acc value="0.0249473885" flag="0"/>
      <vel value="0.0168400640" flag="0"/>
      <psa03 value="0.0609176006" flag="0"/>
      <psa10 value="0.0358888123" flag="0"/>
      <psa30 value="0.0035578132" flag="0"/>
    </comp>
  </station>
  <station code="EMNR" name="EMNR" netid="IV" insttype="" lat="37.8168" lon="15.026">
    <comp name="--.HHE">
      <acc value="0.0288381636" flag="0"/>
      <vel value="0.0248451228" flag="0"/>
      <psa03 value="0.0701660488" flag="0"/>
      <psa10 value="0.0300311972" flag="0"/>
      <psa30 value="0.0032004130" flag="0"/>
    </comp>
    <comp name="--.HHN">
      <acc value="0.0290052628" flag="0"/>
      <vel value="0.0227014572" flag="0"/>
      <psa03 value="0.0835933039" flag="0"/>
      <psa10 value="0.0387180838" flag="0"/>
      <psa30 value="0.0028434653" flag="0"/>
    </comp>
    <comp name="--.HHZ">
      <acc value="0.0259033498" flag="0"/>
      <vel value="0.0162020725" flag="0"/>
      <psa03 value="0.0478717523" flag="0"/>
      <psa10 value="0.0268242015" flag="0"/>
      <psa30 value="0.0014659818" flag="0"/>
    </comp>
  </station>
  <station code="EMPL" name="EMPL" netid="IV" insttype="" lat="37.679" lon="14.9703">
    <comp name="--.HHE">
      <acc value="0.0343277141" flag="0"/>
      <vel value="0.0201283947" flag="0"/>
      <psa03 value="0.0874335197" flag="0"/>
      <psa10 value="0.0278513863" flag="0"/>
      <psa30 value="0.0022079229" flag="0"/>
    </comp>
    <comp name="--.HHN">
      <acc value="0.0516971257" flag="0"/>
      <vel value="0.0256575318" flag="0"/>
      <psa03 value="0.1222910704" flag="0"/>
      <psa10 value="0.0349054148" flag="0"/>
      <psa30 value="0.0033204041" flag="0"/>
    </comp>
    <comp name="--.HHZ">
      <acc value="0.0433479712" flag="0"/>
      <vel value="0.0133053786" flag="0"/>
      <psa03 value="0.0547725947" flag="0"/>
      <psa10 value="0.0181305464" flag="0"/>
      <psa30 value="0.0015761749" flag="0"/>
    </comp>
  </station>
  <station code="EMSG" name="EMSG" netid="IV" insttype="" lat="37.8208" lon="14.9498">
    <comp name="--.HHE">
      <acc value="0.0289940862" flag="0"/>
      <vel value="0.0233361108" flag="0"/>
      <psa03 value="0.0818086270" flag="0"/>
      <psa10 value="0.0310153507" flag="0"/>
      <psa30 value="0.0032078282" flag="0"/>
    </comp>
    <comp name="--.HHZ">
      <acc value="0.0268245335" flag="0"/>
      <vel value="0.0194971275" flag="0"/>
      <psa03 value="0.0683779646" flag="0"/>
      <psa10 value="0.0272864554" flag="0"/>
      <psa30 value="0.0015627193" flag="0"/>
    </comp>
    <comp name="--.HHN">
      <acc value="0.0264383861" flag="0"/>
      <vel value="0.0270586891" flag="0"/>
      <psa03 value="0.0863176608" flag="0"/>
      <psa10 value="0.0450199573" flag="0"/>
      <psa30 value="0.0030086168" flag="0"/>
    </comp>
  </station>
  <station code="ENIC" name="ENIC" netid="IV" insttype="" lat="37.6314" lon="15.0216">
    <comp name="--.HHE">
      <acc value="0.0252799887" flag="0"/>
      <vel value="0.0129745561" flag="0"/>
      <psa03 value="0.0742028422" flag="0"/>
      <psa10 value="0.0159820347" flag="0"/>
      <psa30 value="0.0008349157" flag="0"/>
    </comp>
    <comp name="--.HHN">
      <acc value="0.0239817338" flag="0"/>
      <vel value="0.0155755549" flag="0"/>
      <psa03 value="0.0608711140" flag="0"/>
      <psa10 value="0.0200508951" flag="0"/>
      <psa30 value="0.0007534415" flag="0"/>
    </comp>
    <comp name="--.HHZ">
      <acc value="0.0296225739" flag="0"/>
      <vel value="0.0126490012" flag="0"/>
      <psa03 value="0.0742354042" flag="0"/>
      <psa10 value="0.0156021096" flag="0"/>
      <psa30 value="0.0006389795" flag="0"/>
    </comp>
  </station>
  <station code="EPIT" name="EPIT" netid="IV" insttype="" lat="37.8113" lon="15.0567">
    <comp name="--.HHE">
      <acc value="0.0260978222" flag="0"/>
      <vel value="0.0198806964" flag="0"/>
      <psa03 value="0.0723374854" flag="0"/>
      <psa10 value="0.0250397779" flag="0"/>
      <psa30 value="0.0034713413" flag="0"/>
    </comp>
    <comp name="--.HHZ">
      <acc value="0.0179407114" flag="0"/>
      <vel value="0.0136033150" flag="0"/>
      <psa03 value="0.0473621090" flag="0"/>
      <psa10 value="0.0193672881" flag="0"/>
      <psa30 value="0.0018411651" flag="0"/>
    </comp>
    <comp name="--.HHN">
      <acc value="0.0328502201" flag="0"/>
      <vel value="0.0272007993" flag="0"/>
      <psa03 value="0.0998427604" flag="0"/>
      <psa10 value="0.0519902686" flag="0"/>
      <psa30 value="0.0041495093" flag="0"/>
    </comp>
  </station>
  <station code="EPOZ" name="EPOZ" netid="IV" insttype="" lat="37.6719" lon="15.1885">
    <comp name="--.HHE">
      <acc value="0.0113616455" flag="0"/>
      <vel value="0.0031771573" flag="0"/>
      <psa03 value="0.0145954506" flag="0"/>
      <psa10 value="0.0056045678" flag="0"/>
      <psa30 value="0.0003805642" flag="0"/>
    </comp>
    <comp name="--.HHN">
      <acc value="0.0244117312" flag="0"/>
      <vel value="0.0092270811" flag="0"/>
      <psa03 value="0.0188633531" flag="0"/>
      <psa10 value="0.0196801482" flag="0"/>
      <psa30 value="0.0028814349" flag="0"/>
    </comp>
    <comp name="--.HHZ">
      <acc value="0.0225743577" flag="0"/>
      <vel value="0.0049971954" flag="0"/>
      <psa03 value="0.0164796405" flag="0"/>
      <psa10 value="0.0073919635" flag="0"/>
      <psa30 value="0.0012934500" flag="0"/>
    </comp>
  </station>
  <station code="EPZF" name="EPZF" netid="IV" insttype="" lat="37.824" lon="14.857">
    <comp name="--.HHE">
      <acc value="0.0214589681" flag="0"/>
      <vel value="0.0202545956" flag="0"/>
      <psa03 value="0.0688590396" flag="0"/>
      <psa10 value="0.0238931482" flag="0"/>
      <psa30 value="0.0021271228" flag="0"/>
    </comp>
    <comp name="--.HHN">
      <acc value="0.0314425325" flag="0"/>
      <vel value="0.0302591440" flag="0"/>
      <psa03 value="0.1253653934" flag="0"/>
      <psa10 value="0.0226984676" flag="0"/>
      <psa30 value="0.0020044151" flag="0"/>
    </comp>
    <comp name="--.HHZ">
      <acc value="0.0132036144" flag="0"/>
      <vel value="0.0112231507" flag="0"/>
      <psa03 value="0.0348859617" flag="0"/>
      <psa10 value="0.0183237124" flag="0"/>
      <psa30 value="0.0016188494" flag="0"/>
    </comp>
  </station>
  <station code="ESAL" name="ESAL" netid="IV" insttype="" lat="37.7551" lon="15.1345">
    <comp name="--.HHE">
      <acc value="0.0227135341" flag="0"/>
      <vel value="0.0198408303" flag="0"/>
      <psa03 value="0.0495140519" flag="0"/>
      <psa10 value="0.0237585404" flag="0"/>
      <psa30 value="0.0041936450" flag="0"/>
    </comp>
    <comp name="--.HHN">
      <acc value="0.0151922149" flag="0"/>
      <vel value="0.0128056545" flag="0"/>
      <psa03 value="0.0426172388" flag="0"/>
      <psa10 value="0.0216405461" flag="0"/>
      <psa30 value="0.0023338045" flag="0"/>
    </comp>
    <comp name="--.HHZ">
      <acc value="0.0154140247" flag="0"/>
      <vel value="0.0100447218" flag="0"/>
      <psa03 value="0.0358391120" flag="0"/>
      <psa10 value="0.0090575342" flag="0"/>
      <psa30 value="0.0019114214" flag="0"/>
    </comp>
  </station>
  <station code="ESCV" name="ESCV" netid="IV" insttype="" lat="37.747" lon="14.8152">
    <comp name="--.HHE">
      <acc value="0.0369638644" flag="0"/>
      <vel value="0.0282617100" flag="0"/>
      <psa03 value="0.0735886442" flag="0"/>
      <psa10 value="0.0324289649" flag="0"/>
      <psa30 value="0.0024723793" flag="0"/>
    </comp>
    <comp name="--.HHZ">
      <acc value="0.0173588865" flag="0"/>
      <vel value="0.0172788761" flag="0"/>
      <psa03 value="0.0390407659" flag="0"/>
      <psa10 value="0.0234093689" flag="0"/>
      <psa30 value="0.0032678585" flag="0"/>
    </comp>
    <comp name="--.HHN">
      <acc value="0.0315418981" flag="0"/>
      <vel value="0.0247643799" flag="0"/>
      <psa03 value="0.0820118472" flag="0"/>
      <psa10 value="0.0267693171" flag="0"/>
      <psa30 value="0.0026457565" flag="0"/>
    </comp>
  </station>
  <station code="ESLN" name="ESLN" netid="IV" insttype="" lat="37.6934" lon="14.9744">
    <comp name="--.HHZ">
      <acc value="0.0097592962" flag="0"/>
      <vel value="0.0105983019" flag="0"/>
      <psa03 value="0.0251109816" flag="0"/>
      <psa10 value="0.0153375094" flag="0"/>
      <psa30 value="0.0014571620" flag="0"/>
    </comp>
    <comp name="--.HHN">
      <acc value="0.0139268819" flag="0"/>
      <vel value="0.0181195080" flag="0"/>
      <psa03 value="0.0314722577" flag="0"/>
      <psa10 value="0.0281909953" flag="0"/>
      <psa30 value="0.0028900964" flag="0"/>
    </comp>
