<stationlist created="1631693078">
	<station code="CDI1" name="CDI1" netid="IT" source="Italian Strong Motion Network (RAN)" insttype="" lat="37.503348" lon="14.64734">
		<comp name="--.HNE" depth="0.0">
			<acc value="0.00902866004394" flag="0"/>
			<vel value="0.00586574696253" flag="0"/>
			<psa03 value="0.0274046070874" flag="0"/>
			<psa10 value="0.00726106929144" flag="0"/>
			<psa30 value="0.00288188861931" flag="0"/>
		</comp>
			<acc value="0.00901352628256" flag="0"/>
			<vel value="0.00586633419527" flag="0"/>
			<psa03 value="0.0274033960697" flag="0"/>
			<psa10 value="0.00726180715283" flag="0"/>
			<psa30 value="0.00288399667563" flag="0"/>
		</comp>
			<acc value="0.00901352628256" flag="0"/>
			<vel value="0.00586633419527" flag="0"/>
			<psa03 value="0.0274046070874" flag="0"/>
			<psa10 value="0.00726106929144" flag="0"/>
			<psa30 value="0.00288188861931" flag="0"/>
		</comp>
			<acc value="0.00902866004394" flag="0"/>
			<vel value="0.00586574696253" flag="0"/>
			<psa03 value="0.0274033960697" flag="0"/>
			<psa10 value="0.00726180715283" flag="0"/>
			<psa30 value="0.00288399667563" flag="0"/>
		</comp>
		<comp name="--.HNN" depth="0.0">
			<acc value="0.0150419997933" flag="0"/>
			<vel value="0.0135206160718" flag="0"/>
			<psa03 value="0.0345160104746" flag="0"/>
			<psa10 value="0.0154513667022" flag="0"/>
			<psa30 value="0.00360952244648" flag="0"/>
		</comp>
			<acc value="0.0150203312034" flag="0"/>
			<vel value="0.013523323782" flag="0"/>
			<psa03 value="0.0345160104746" flag="0"/>
			<psa10 value="0.0154513667022" flag="0"/>
			<psa30 value="0.00360952244648" flag="0"/>
		</comp>
			<acc value="0.0150203312034" flag="0"/>
			<vel value="0.013523323782" flag="0"/>
			<psa03 value="0.0345146666356" flag="0"/>
			<psa10 value="0.0154495647078" flag="0"/>
			<psa30 value="0.0036072735475" flag="0"/>
		</comp>
			<acc value="0.0150419997933" flag="0"/>
			<vel value="0.0135206160718" flag="0"/>
			<psa03 value="0.0345146666356" flag="0"/>
			<psa10 value="0.0154495647078" flag="0"/>
			<psa30 value="0.0036072735475" flag="0"/>
		</comp>
		<comp name="--.HNZ" depth="0.0">
			<acc value="0.00581265739095" flag="0"/>
			<vel value="0.00575266946228" flag="0"/>
			<psa03 value="0.00895729780408" flag="0"/>
			<psa10 value="0.0093700435319" flag="0"/>
			<psa30 value="0.0024622447783" flag="0"/>
		</comp>
			<acc value="0.00583105962965" flag="0"/>
			<vel value="0.00575370499513" flag="0"/>
			<psa03 value="0.00895729780408" flag="0"/>
			<psa10 value="0.0093700435319" flag="0"/>
			<psa30 value="0.0024622447783" flag="0"/>
		</comp>
			<acc value="0.00583105962965" flag="0"/>
			<vel value="0.00575370499513" flag="0"/>
			<psa03 value="0.00895895351275" flag="0"/>
			<psa10 value="0.00936936942475" flag="0"/>
			<psa30 value="0.00246032652622" flag="0"/>
		</comp>
			<acc value="0.00581265739095" flag="0"/>
			<vel value="0.00575266946228" flag="0"/>
			<psa03 value="0.00895895351275" flag="0"/>
			<psa10 value="0.00936936942475" flag="0"/>
			<psa30 value="0.00246032652622" flag="0"/>
		</comp>
	</station>
	<station code="CFL" name="CFL" netid="IT" source="Italian Strong Motion Network (RAN)" insttype="" lat="38.03706" lon="14.023217">
		<comp name="--.HNE" depth="0.0">
			<acc value="0.494389855371" flag="0"/>
			<vel value="0.0609489728978" flag="0"/>
			<psa03 value="0.164761810494" flag="0"/>
			<psa10 value="0.0658323110675" flag="0"/>
			<psa30 value="0.00455796527617" flag="0"/>
		</comp>
			<acc value="0.449168936467" flag="0"/>
			<vel value="0.0593077505279" flag="0"/>
			<psa03 value="0.164761810494" flag="0"/>
			<psa10 value="0.0658323110675" flag="0"/>
			<psa30 value="0.00455796527617" flag="0"/>
		</comp>
			<acc value="0.449168936467" flag="0"/>
			<vel value="0.0593077505279" flag="0"/>
			<psa03 value="0.164818595506" flag="0"/>
			<psa10 value="0.0657765073708" flag="0"/>
			<psa30 value="0.00444550032591" flag="0"/>
		</comp>
			<acc value="0.494389855371" flag="0"/>
			<vel value="0.0609489728978" flag="0"/>
			<psa03 value="0.164818595506" flag="0"/>
			<psa10 value="0.0657765073708" flag="0"/>
			<psa30 value="0.00444550032591" flag="0"/>
		</comp>
		<comp name="--.HNN" depth="0.0">
			<acc value="0.675725703432" flag="0"/>
			<vel value="0.102994050219" flag="0"/>
			<psa03 value="0.349770253896" flag="0"/>
			<psa10 value="0.0276231617739" flag="0"/>
			<psa30 value="0.00494043727972" flag="0"/>
		</comp>
			<acc value="0.625361102619" flag="0"/>
			<vel value="0.101335317497" flag="0"/>
			<psa03 value="0.349674622561" flag="0"/>
			<psa10 value="0.0275926328765" flag="0"/>
			<psa30 value="0.00501992879565" flag="0"/>
		</comp>
			<acc value="0.625361102619" flag="0"/>
			<vel value="0.101335317497" flag="0"/>
			<psa03 value="0.349770253896" flag="0"/>
			<psa10 value="0.0276231617739" flag="0"/>
			<psa30 value="0.00494043727972" flag="0"/>
		</comp>
			<acc value="0.675725703432" flag="0"/>
			<vel value="0.102994050219" flag="0"/>
			<psa03 value="0.349674622561" flag="0"/>
			<psa10 value="0.0275926328765" flag="0"/>
			<psa30 value="0.00501992879565" flag="0"/>
		</comp>
		<comp name="--.HNZ" depth="0.0">
			<acc value="0.370443911372" flag="0"/>
			<vel value="0.0657471948397" flag="0"/>
			<psa03 value="0.122541378181" flag="0"/>
			<psa10 value="0.0446056836578" flag="0"/>
			<psa30 value="0.00547441265298" flag="0"/>
		</comp>
			<acc value="0.351174941224" flag="0"/>
			<vel value="0.0657890742364" flag="0"/>
			<psa03 value="0.122541378181" flag="0"/>
			<psa10 value="0.0446056836578" flag="0"/>
			<psa30 value="0.00547441265298" flag="0"/>
		</comp>
			<acc value="0.351174941224" flag="0"/>
			<vel value="0.0657890742364" flag="0"/>
			<psa03 value="0.122353490735" flag="0"/>
			<psa10 value="0.0445576242241" flag="0"/>
			<psa30 value="0.00543729977777" flag="0"/>
		</comp>
			<acc value="0.370443911372" flag="0"/>
			<vel value="0.0657471948397" flag="0"/>
			<psa03 value="0.122353490735" flag="0"/>
			<psa10 value="0.0445576242241" flag="0"/>
			<psa30 value="0.00543729977777" flag="0"/>
		</comp>
	</station>
	<station code="CLV" name="CLV" netid="IT" source="Italian Strong Motion Network (RAN)" insttype="" lat="37.819249" lon="13.890217">
		<comp name="--.HGE" depth="0.0">
			<acc value="0.512853752074" flag="0"/>
			<vel value="0.15690685792" flag="0"/>
			<psa03 value="0.875205894763" flag="0"/>
			<psa10 value="0.111533131022" flag="0"/>
			<psa30 value="0.00558872105868" flag="0"/>
		</comp>
			<acc value="0.512853752074" flag="0"/>
			<vel value="0.15690685792" flag="0"/>
			<psa03 value="0.875205894763" flag="0"/>
			<psa10 value="0.111533131022" flag="0"/>
			<psa30 value="0.00558872105868" flag="0"/>
		</comp>
			<acc value="0.512853752074" flag="0"/>
			<vel value="0.15690685792" flag="0"/>
			<psa03 value="0.875205894763" flag="0"/>
			<psa10 value="0.111533131022" flag="0"/>
			<psa30 value="0.00558872105868" flag="0"/>
		</comp>
			<acc value="0.512853752074" flag="0"/>
			<vel value="0.15690685792" flag="0"/>
			<psa03 value="0.875205894763" flag="0"/>
			<psa10 value="0.111533131022" flag="0"/>
			<psa30 value="0.00558872105868" flag="0"/>
		</comp>
		<comp name="--.HGN" depth="0.0">
			<acc value="0.413094637188" flag="0"/>
			<vel value="0.141039574659" flag="0"/>
			<psa03 value="0.831927361104" flag="0"/>
			<psa10 value="0.122288956043" flag="0"/>
			<psa30 value="0.00782819857975" flag="0"/>
		</comp>
			<acc value="0.413094637188" flag="0"/>
			<vel value="0.141039574659" flag="0"/>
			<psa03 value="0.831927361104" flag="0"/>
			<psa10 value="0.122288956043" flag="0"/>
			<psa30 value="0.00782819857975" flag="0"/>
		</comp>
			<acc value="0.413094637188" flag="0"/>
			<vel value="0.141039574659" flag="0"/>
			<psa03 value="0.831927361104" flag="0"/>
			<psa10 value="0.122288956043" flag="0"/>
			<psa30 value="0.00782819857975" flag="0"/>
		</comp>
			<acc value="0.413094637188" flag="0"/>
			<vel value="0.141039574659" flag="0"/>
			<psa03 value="0.831927361104" flag="0"/>
			<psa10 value="0.122288956043" flag="0"/>
			<psa30 value="0.00782819857975" flag="0"/>
		</comp>
		<comp name="--.HGZ" depth="0.0">
			<acc value="0.232450964874" flag="0"/>
			<vel value="0.0856168862246" flag="0"/>
			<psa03 value="0.30311443401" flag="0"/>
			<psa10 value="0.0555295460598" flag="0"/>
			<psa30 value="0.00563572000547" flag="0"/>
		</comp>
			<acc value="0.232450964874" flag="0"/>
			<vel value="0.0856168862246" flag="0"/>
			<psa03 value="0.30311443401" flag="0"/>
			<psa10 value="0.0555295460598" flag="0"/>
			<psa30 value="0.00563572000547" flag="0"/>
		</comp>
			<acc value="0.232450964874" flag="0"/>
			<vel value="0.0856168862246" flag="0"/>
			<psa03 value="0.30311443401" flag="0"/>
			<psa10 value="0.0555295460598" flag="0"/>
			<psa30 value="0.00563572000547" flag="0"/>
		</comp>
			<acc value="0.232450964874" flag="0"/>
			<vel value="0.0856168862246" flag="0"/>
			<psa03 value="0.30311443401" flag="0"/>
			<psa10 value="0.0555295460598" flag="0"/>
			<psa30 value="0.00563572000547" flag="0"/>
		</comp>
	</station>
	<station code="CON" name="CON" netid="IT" source="Italian Strong Motion Network (RAN)" insttype="" lat="37.813751" lon="13.307966">
		<comp name="--.HNE" depth="0.0">
			<acc value="0.0350230756414" flag="0"/>
			<vel value="0.0171441012497" flag="0"/>
			<psa03 value="0.076097567132" flag="0"/>
			<psa10 value="0.0194148317623" flag="0"/>
			<psa30 value="0.00206810137657" flag="0"/>
		</comp>
			<acc value="0.0349402719246" flag="0"/>
			<vel value="0.0171411903278" flag="0"/>
			<psa03 value="0.0760920667676" flag="0"/>
			<psa10 value="0.0194156999448" flag="0"/>
			<psa30 value="0.00206953313808" flag="0"/>
		</comp>
			<acc value="0.0349402719246" flag="0"/>
			<vel value="0.0171411903278" flag="0"/>
			<psa03 value="0.076097567132" flag="0"/>
			<psa10 value="0.0194148317623" flag="0"/>
			<psa30 value="0.00206810137657" flag="0"/>
		</comp>
			<acc value="0.0350230756414" flag="0"/>
			<vel value="0.0171441012497" flag="0"/>
			<psa03 value="0.0760920667676" flag="0"/>
			<psa10 value="0.0194156999448" flag="0"/>
			<psa30 value="0.00206953313808" flag="0"/>
		</comp>
		<comp name="--.HNN" depth="0.0">
			<acc value="0.0187354541665" flag="0"/>
			<vel value="0.0131941196431" flag="0"/>
			<psa03 value="0.0740377431787" flag="0"/>
			<psa10 value="0.0156665887721" flag="0"/>
			<psa30 value="0.00157551614105" flag="0"/>
		</comp>
			<acc value="0.0186916503019" flag="0"/>
			<vel value="0.0131978165981" flag="0"/>
			<psa03 value="0.0740357899246" flag="0"/>
			<psa10 value="0.01566806637" flag="0"/>
			<psa30 value="0.00157658850375" flag="0"/>
		</comp>
			<acc value="0.0186916503019" flag="0"/>
			<vel value="0.0131978165981" flag="0"/>
			<psa03 value="0.0740377431787" flag="0"/>
			<psa10 value="0.0156665887721" flag="0"/>
			<psa30 value="0.00157551614105" flag="0"/>
		</comp>
			<acc value="0.0187354541665" flag="0"/>
			<vel value="0.0131941196431" flag="0"/>
			<psa03 value="0.0740357899246" flag="0"/>
			<psa10 value="0.01566806637" flag="0"/>
			<psa30 value="0.00157658850375" flag="0"/>
		</comp>
		<comp name="--.HNZ" depth="0.0">
			<acc value="0.0205604104718" flag="0"/>
			<vel value="0.0157165509369" flag="0"/>
			<psa03 value="0.0772172767238" flag="0"/>
			<psa10 value="0.0158449402745" flag="0"/>
			<psa30 value="0.00121707812545" flag="0"/>
		</comp>
			<acc value="0.0205691040862" flag="0"/>
			<vel value="0.0157155541894" flag="0"/>
			<psa03 value="0.0772094897499" flag="0"/>
			<psa10 value="0.0158360446852" flag="0"/>
			<psa30 value="0.00117773031052" flag="0"/>
		</comp>
			<acc value="0.0205691040862" flag="0"/>
			<vel value="0.0157155541894" flag="0"/>
			<psa03 value="0.0772172767238" flag="0"/>
			<psa10 value="0.0158449402745" flag="0"/>
			<psa30 value="0.00121707812545" flag="0"/>
		</comp>
			<acc value="0.0205604104718" flag="0"/>
			<vel value="0.0157165509369" flag="0"/>
			<psa03 value="0.0772094897499" flag="0"/>
			<psa10 value="0.0158360446852" flag="0"/>
			<psa30 value="0.00117773031052" flag="0"/>
		</comp>
	</station>
	<station code="CSM" name="CSM" netid="IT" source="Italian Strong Motion Network (RAN)" insttype="" lat="37.540459" lon="13.62739">
		<comp name="--.HGE" depth="0.0">
			<acc value="0.0223761464494" flag="0"/>
			<vel value="0.0223783023472" flag="0"/>
			<psa03 value="0.0568233944792" flag="0"/>
			<psa10 value="0.0281594941783" flag="0"/>
			<psa30 value="0.0038146689531" flag="0"/>
		</comp>
			<acc value="0.0223756338285" flag="0"/>
			<vel value="0.0222388967135" flag="0"/>
			<psa03 value="0.0568233944792" flag="0"/>
			<psa10 value="0.0281594941783" flag="0"/>
			<psa30 value="0.0038146689531" flag="0"/>
		</comp>
			<acc value="0.0223756338285" flag="0"/>
			<vel value="0.0222388967135" flag="0"/>
			<psa03 value="0.0568262175831" flag="0"/>
			<psa10 value="0.0281661958722" flag="0"/>
			<psa30 value="0.00374449388767" flag="0"/>
		</comp>
			<acc value="0.0223761464494" flag="0"/>
			<vel value="0.0223783023472" flag="0"/>
			<psa03 value="0.0568262175831" flag="0"/>
			<psa10 value="0.0281661958722" flag="0"/>
			<psa30 value="0.00374449388767" flag="0"/>
		</comp>
		<comp name="--.HGN" depth="0.0">
			<acc value="0.0261856966658" flag="0"/>
			<vel value="0.0243546128355" flag="0"/>
			<psa03 value="0.0690380317641" flag="0"/>
			<psa10 value="0.037834726365" flag="0"/>
			<psa30 value="0.00683701416864" flag="0"/>
		</comp>
			<acc value="0.0262011016887" flag="0"/>
			<vel value="0.0241670082886" flag="0"/>
			<psa03 value="0.0690380317641" flag="0"/>
			<psa10 value="0.037834726365" flag="0"/>
			<psa30 value="0.00683701416864" flag="0"/>
		</comp>
			<acc value="0.0262011016887" flag="0"/>
			<vel value="0.0241670082886" flag="0"/>
			<psa03 value="0.0690837118734" flag="0"/>
			<psa10 value="0.0378455833342" flag="0"/>
			<psa30 value="0.00672144651282" flag="0"/>
		</comp>
			<acc value="0.0261856966658" flag="0"/>
			<vel value="0.0243546128355" flag="0"/>
			<psa03 value="0.0690837118734" flag="0"/>
			<psa10 value="0.0378455833342" flag="0"/>
			<psa30 value="0.00672144651282" flag="0"/>
		</comp>
		<comp name="--.HGZ" depth="0.0">
			<acc value="0.0154739385194" flag="0"/>
			<vel value="0.0163939739283" flag="0"/>
			<psa03 value="0.0489286787848" flag="0"/>
			<psa10 value="0.0137413377962" flag="0"/>
			<psa30 value="0.00364063325742" flag="0"/>
		</comp>
			<acc value="0.0154930390147" flag="0"/>
			<vel value="0.0164640831011" flag="0"/>
			<psa03 value="0.0489623893512" flag="0"/>
			<psa10 value="0.0137416181273" flag="0"/>
			<psa30 value="0.00355453838739" flag="0"/>
		</comp>
			<acc value="0.0154930390147" flag="0"/>
			<vel value="0.0164640831011" flag="0"/>
			<psa03 value="0.0489286787848" flag="0"/>
			<psa10 value="0.0137413377962" flag="0"/>
			<psa30 value="0.00364063325742" flag="0"/>
		</comp>
			<acc value="0.0154739385194" flag="0"/>
			<vel value="0.0163939739283" flag="0"/>
			<psa03 value="0.0489623893512" flag="0"/>
			<psa10 value="0.0137416181273" flag="0"/>
			<psa30 value="0.00355453838739" flag="0"/>
		</comp>
	</station>
	<station code="CTU" name="CTU" netid="IT" source="Italian Strong Motion Network (RAN)" insttype="" lat="37.82331" lon="13.89042">
		<comp name="--.HNE" depth="0.0">
			<acc value="0.206608771255" flag="0"/>
			<vel value="0.0643994856417" flag="0"/>
			<psa03 value="0.326086455794" flag="0"/>
			<psa10 value="0.0693183169982" flag="0"/>
			<psa30 value="0.0043390911935" flag="0"/>
		</comp>
			<acc value="0.206608771255" flag="0"/>
			<vel value="0.0643994856417" flag="0"/>
			<psa03 value="0.326086455794" flag="0"/>
			<psa10 value="0.0693183169982" flag="0"/>
			<psa30 value="0.0043390911935" flag="0"/>
		</comp>
			<acc value="0.206608771255" flag="0"/>
			<vel value="0.0643994856417" flag="0"/>
			<psa03 value="0.326086455794" flag="0"/>
			<psa10 value="0.0693183169982" flag="0"/>
			<psa30 value="0.0043390911935" flag="0"/>
		</comp>
			<acc value="0.206608771255" flag="0"/>
			<vel value="0.0643994856417" flag="0"/>
			<psa03 value="0.326086455794" flag="0"/>
			<psa10 value="0.0693183169982" flag="0"/>
			<psa30 value="0.0043390911935" flag="0"/>
		</comp>
		<comp name="--.HNN" depth="0.0">
			<acc value="0.1899204149" flag="0"/>
			<vel value="0.0840808323385" flag="0"/>
			<psa03 value="0.312740009158" flag="0"/>
			<psa10 value="0.103726823893" flag="0"/>
			<psa30 value="0.0077176662575" flag="0"/>
		</comp>
			<acc value="0.1899204149" flag="0"/>
			<vel value="0.0840808323385" flag="0"/>
			<psa03 value="0.312740009158" flag="0"/>
			<psa10 value="0.103726823893" flag="0"/>
			<psa30 value="0.0077176662575" flag="0"/>
		</comp>
			<acc value="0.1899204149" flag="0"/>
			<vel value="0.0840808323385" flag="0"/>
			<psa03 value="0.312740009158" flag="0"/>
			<psa10 value="0.103726823893" flag="0"/>
			<psa30 value="0.0077176662575" flag="0"/>
		</comp>
			<acc value="0.1899204149" flag="0"/>
			<vel value="0.0840808323385" flag="0"/>
			<psa03 value="0.312740009158" flag="0"/>
			<psa10 value="0.103726823893" flag="0"/>
			<psa30 value="0.0077176662575" flag="0"/>
		</comp>
		<comp name="--.HNZ" depth="0.0">
			<acc value="0.130427308581" flag="0"/>
			<vel value="0.0589558902506" flag="0"/>
			<psa03 value="0.158786560497" flag="0"/>
			<psa10 value="0.0733901417369" flag="0"/>
			<psa30 value="0.00537318761399" flag="0"/>
		</comp>
			<acc value="0.130427308581" flag="0"/>
			<vel value="0.0589558902506" flag="0"/>
			<psa03 value="0.158786560497" flag="0"/>
			<psa10 value="0.0733901417369" flag="0"/>
			<psa30 value="0.00537318761399" flag="0"/>
		</comp>
			<acc value="0.130427308581" flag="0"/>
			<vel value="0.0589558902506" flag="0"/>
			<psa03 value="0.158786560497" flag="0"/>
			<psa10 value="0.0733901417369" flag="0"/>
			<psa30 value="0.00537318761399" flag="0"/>
		</comp>
			<acc value="0.130427308581" flag="0"/>
			<vel value="0.0589558902506" flag="0"/>
			<psa03 value="0.158786560497" flag="0"/>
			<psa10 value="0.0733901417369" flag="0"/>
			<psa30 value="0.00537318761399" flag="0"/>
		</comp>
	</station>
	<station code="NCS" name="NCS" netid="IT" source="Italian Strong Motion Network (RAN)" insttype="" lat="37.749272" lon="14.401355">
		<comp name="--.HGE" depth="0.0">
			<acc value="0.0979351458265" flag="0"/>
			<vel value="0.0801701830477" flag="0"/>
			<psa03 value="0.259140687632" flag="0"/>
			<psa10 value="0.086492009671" flag="0"/>
			<psa30 value="0.00878383605269" flag="0"/>
		</comp>
			<acc value="0.0977511589797" flag="0"/>
			<vel value="0.0801778690246" flag="0"/>
			<psa03 value="0.259140687632" flag="0"/>
			<psa10 value="0.086492009671" flag="0"/>
			<psa30 value="0.00878383605269" flag="0"/>
		</comp>
			<acc value="0.0979351458265" flag="0"/>
			<vel value="0.0801701830477" flag="0"/>
			<psa03 value="0.259141375177" flag="0"/>
			<psa10 value="0.0864937497864" flag="0"/>
			<psa30 value="0.00878604869928" flag="0"/>
		</comp>
			<acc value="0.0977511589797" flag="0"/>
			<vel value="0.0801778690246" flag="0"/>
			<psa03 value="0.259141375177" flag="0"/>
			<psa10 value="0.0864937497864" flag="0"/>
			<psa30 value="0.00878604869928" flag="0"/>
		</comp>
		<comp name="--.HGN" depth="0.0">
			<acc value="0.129679847296" flag="0"/>
			<vel value="0.075139997188" flag="0"/>
			<psa03 value="0.253563755688" flag="0"/>
			<psa10 value="0.0828658944587" flag="0"/>
			<psa30 value="0.00689470590711" flag="0"/>
		</comp>
			<acc value="0.129679847296" flag="0"/>
			<vel value="0.075139997188" flag="0"/>
			<psa03 value="0.25357194373" flag="0"/>
			<psa10 value="0.0828596540455" flag="0"/>
			<psa30 value="0.00689005684912" flag="0"/>
		</comp>
			<acc value="0.129795244958" flag="0"/>
			<vel value="0.0751450198324" flag="0"/>
			<psa03 value="0.253563755688" flag="0"/>
			<psa10 value="0.0828658944587" flag="0"/>
			<psa30 value="0.00689470590711" flag="0"/>
		</comp>
			<acc value="0.129795244958" flag="0"/>
