<stationlist created="1778070028">
	<station code="ALC" name="ALC" netid="IT" source="Italian Strong Motion Network (RAN)" insttype="" lat="37.9734" lon="12.9597">
		<comp name="--.HGE" depth="0.0">
			<acc value="0.014675395438434" flag="0"/>
			<vel value="0.00596040772318" flag="0"/>
			<psa03 value="0.0430995530505251" flag="0"/>
			<psa10 value="0.00647451421727256" flag="0"/>
			<psa30 value="0.000625906515316643" flag="0"/>
		</comp>
		<comp name="--.HGN" depth="0.0">
			<acc value="0.019434972645102" flag="0"/>
			<vel value="0.00981234765229" flag="0"/>
			<psa03 value="0.0580615494179094" flag="0"/>
			<psa10 value="0.00806891358842654" flag="0"/>
			<psa30 value="0.000541685571512802" flag="0"/>
		</comp>
		<comp name="--.HGZ" depth="0.0">
			<acc value="0.010268809734072" flag="0"/>
			<vel value="0.00371298119184" flag="0"/>
			<psa03 value="0.0177134624924791" flag="0"/>
			<psa10 value="0.00521642353122006" flag="0"/>
			<psa30 value="0.000398690109179844" flag="0"/>
		</comp>
	</station>
	<station code="AUG1" name="AUG1" netid="IT" source="Italian Strong Motion Network (RAN)" insttype="" lat="37.2432" lon="15.2555">
		<comp name="--.HNE" depth="0.0">
			<acc value="0.011835165755742" flag="0"/>
			<vel value="0.00889927374016" flag="0"/>
			<psa03 value="0.0248254440429877" flag="0"/>
			<psa10 value="0.0162902147717957" flag="0"/>
			<psa30 value="0.000878134109575566" flag="0"/>
		</comp>
		<comp name="--.HNN" depth="0.0">
			<acc value="0.010209463474422" flag="0"/>
			<vel value="0.00643105807534" flag="0"/>
			<psa03 value="0.0360302383889552" flag="0"/>
			<psa10 value="0.0101460121235232" flag="0"/>
			<psa30 value="0.000761245376688078" flag="0"/>
		</comp>
		<comp name="--.HNZ" depth="0.0">
			<acc value="0.0066843737492766" flag="0"/>
			<vel value="0.0027992120226" flag="0"/>
			<psa03 value="0.0133581622564311" flag="0"/>
			<psa10 value="0.00447656467545956" flag="0"/>
			<psa30 value="0.000524325254807504" flag="0"/>
		</comp>
	</station>
	<station code="BCL" name="BCL" netid="IT" source="Italian Strong Motion Network (RAN)" insttype="" lat="38.1827" lon="15.2316">
		<comp name="--.HGE" depth="0.0">
			<acc value="0.03178889608545" flag="0"/>
			<vel value="0.0196436672035" flag="0"/>
			<psa03 value="0.0680529456738679" flag="0"/>
			<psa10 value="0.0232453073875446" flag="0"/>
			<psa30 value="0.00224288399672611" flag="0"/>
		</comp>
		<comp name="--.HGN" depth="0.0">
			<acc value="0.018796926332592" flag="0"/>
			<vel value="0.0163952639858" flag="0"/>
			<psa03 value="0.0588451586197679" flag="0"/>
			<psa10 value="0.0241289953025392" flag="0"/>
			<psa30 value="0.0045437680856901" flag="0"/>
		</comp>
		<comp name="--.HGZ" depth="0.0">
			<acc value="0.019726316702172" flag="0"/>
			<vel value="0.00924254773407" flag="0"/>
			<psa03 value="0.0326307683990835" flag="0"/>
			<psa10 value="0.0147582007833723" flag="0"/>
			<psa30 value="0.00133799821915035" flag="0"/>
		</comp>
	</station>
	<station code="CDI1" name="CDI1" netid="IT" source="Italian Strong Motion Network (RAN)" insttype="" lat="37.5032" lon="14.6473">
		<comp name="--.HNE" depth="0.0">
			<acc value="0.009013526282562" flag="0"/>
			<vel value="0.00586633419527" flag="0"/>
			<psa03 value="0.0274033960696534" flag="0"/>
			<psa10 value="0.00726180715283069" flag="0"/>
			<psa30 value="0.00288399667562698" flag="0"/>
		</comp>
		<comp name="--.HNN" depth="0.0">
			<acc value="0.015020331203406" flag="0"/>
			<vel value="0.013523323782" flag="0"/>
			<psa03 value="0.034516010474648" flag="0"/>
			<psa10 value="0.0154513667022072" flag="0"/>
			<psa30 value="0.00360952244648072" flag="0"/>
		</comp>
		<comp name="--.HNZ" depth="0.0">
			<acc value="0.0058310596296522" flag="0"/>
			<vel value="0.00575370499513" flag="0"/>
			<psa03 value="0.00895729780408363" flag="0"/>
			<psa10 value="0.00937004353189981" flag="0"/>
			<psa30 value="0.00246224477829801" flag="0"/>
		</comp>
	</station>
	<station code="CFL" name="CFL" netid="IT" source="Italian Strong Motion Network (RAN)" insttype="" lat="38.037" lon="14.0232">
		<comp name="--.HNE" depth="0.0">
			<acc value="0.49438985537076" flag="0"/>
			<vel value="0.0609489728978" flag="0"/>
			<psa03 value="0.164818595506241" flag="0"/>
			<psa10 value="0.0657765073708038" flag="0"/>
			<psa30 value="0.00444550032591264" flag="0"/>
		</comp>
		<comp name="--.HNN" depth="0.0">
			<acc value="0.6757257034317" flag="0"/>
			<vel value="0.102994050219" flag="0"/>
			<psa03 value="0.349770253895976" flag="0"/>
			<psa10 value="0.0276231617739177" flag="0"/>
			<psa30 value="0.00494043727972301" flag="0"/>
		</comp>
		<comp name="--.HNZ" depth="0.0">
			<acc value="0.37044391137234" flag="0"/>
			<vel value="0.0657471948397" flag="0"/>
			<psa03 value="0.122353490735138" flag="0"/>
			<psa10 value="0.044557624224089" flag="0"/>
			<psa30 value="0.00543729977777253" flag="0"/>
		</comp>
	</station>
	<station code="CLG1" name="CLG1" netid="IT" source="Italian Strong Motion Network (RAN)" insttype="" lat="37.2214" lon="14.5182">
		<comp name="--.HNE" depth="0.0">
			<acc value="0.025622361340776" flag="0"/>
			<vel value="0.0116880101456" flag="0"/>
			<psa03 value="0.0767076075440592" flag="0"/>
			<psa10 value="0.01418662166906" flag="0"/>
			<psa30 value="0.00245137822510923" flag="0"/>
		</comp>
		<comp name="--.HNN" depth="0.0">
			<acc value="0.03407836403691" flag="0"/>
			<vel value="0.0123362930651" flag="0"/>
			<psa03 value="0.0601156229900066" flag="0"/>
			<psa10 value="0.0149980713611385" flag="0"/>
			<psa30 value="0.00151110874937229" flag="0"/>
		</comp>
		<comp name="--.HNZ" depth="0.0">
			<acc value="0.016788187279944" flag="0"/>
			<vel value="0.00734104007942" flag="0"/>
			<psa03 value="0.025821572531635" flag="0"/>
			<psa10 value="0.00980553738121132" flag="0"/>
			<psa30 value="0.000945110317252283" flag="0"/>
		</comp>
	</station>
	<station code="CLV" name="CLV" netid="IT" source="Italian Strong Motion Network (RAN)" insttype="" lat="37.8192" lon="13.8902">
		<comp name="--.HGE" depth="0.0">
			<acc value="0.51285375207402" flag="0"/>
			<vel value="0.15690685792" flag="0"/>
			<psa03 value="0.875205894763476" flag="0"/>
			<psa10 value="0.111533131022417" flag="0"/>
			<psa30 value="0.00558872105867951" flag="0"/>
		</comp>
		<comp name="--.HGN" depth="0.0">
			<acc value="0.41309463718782" flag="0"/>
			<vel value="0.141039574659" flag="0"/>
			<psa03 value="0.831927361104423" flag="0"/>
			<psa10 value="0.12228895604314" flag="0"/>
			<psa30 value="0.00782819857974667" flag="0"/>
		</comp>
		<comp name="--.HGZ" depth="0.0">
			<acc value="0.23245096487436" flag="0"/>
			<vel value="0.0856168862246" flag="0"/>
			<psa03 value="0.303114434010133" flag="0"/>
			<psa10 value="0.0555295460597857" flag="0"/>
			<psa30 value="0.00563572000546648" flag="0"/>
		</comp>
	</station>
	<station code="CON" name="CON" netid="IT" source="Italian Strong Motion Network (RAN)" insttype="" lat="37.8138" lon="13.308">
		<comp name="--.HNE" depth="0.0">
			<acc value="0.03494027192457" flag="0"/>
			<vel value="0.0171411903278" flag="0"/>
			<psa03 value="0.076092066767603" flag="0"/>
			<psa10 value="0.0194156999448339" flag="0"/>
			<psa30 value="0.00206953313808131" flag="0"/>
		</comp>
		<comp name="--.HNN" depth="0.0">
			<acc value="0.018691650301896" flag="0"/>
			<vel value="0.0131978165981" flag="0"/>
			<psa03 value="0.0740357899246006" flag="0"/>
			<psa10 value="0.0156680663700033" flag="0"/>
			<psa30 value="0.00157658850375238" flag="0"/>
		</comp>
		<comp name="--.HNZ" depth="0.0">
			<acc value="0.020569104086196" flag="0"/>
			<vel value="0.0157155541894" flag="0"/>
			<psa03 value="0.0772094897498656" flag="0"/>
			<psa10 value="0.0158360446852413" flag="0"/>
			<psa30 value="0.00117773031051778" flag="0"/>
		</comp>
	</station>
	<station code="CSG" name="CSG" netid="IT" source="Italian Strong Motion Network (RAN)" insttype="" lat="38.0171" lon="12.8837">
		<comp name="--.HNE" depth="0.0">
			<acc value="0.014749912051188" flag="0"/>
			<vel value="0.00756722357143" flag="0"/>
			<psa03 value="0.0362954538748558" flag="0"/>
			<psa10 value="0.0106169008175726" flag="0"/>
			<psa30 value="0.000506419797826358" flag="0"/>
		</comp>
		<comp name="--.HNN" depth="0.0">
			<acc value="0.018514145914614" flag="0"/>
			<vel value="0.0072773506031" flag="0"/>
			<psa03 value="0.0512571611601586" flag="0"/>
			<psa10 value="0.00913890822031454" flag="0"/>
			<psa30 value="0.000635168743480164" flag="0"/>
		</comp>
		<comp name="--.HNZ" depth="0.0">
			<acc value="0.0086404828587546" flag="0"/>
			<vel value="0.00345119223085" flag="0"/>
			<psa03 value="0.0211064203321631" flag="0"/>
			<psa10 value="0.00384674959390744" flag="0"/>
			<psa30 value="0.000422576951982675" flag="0"/>
		</comp>
	</station>
	<station code="CSM" name="CSM" netid="IT" source="Italian Strong Motion Network (RAN)" insttype="" lat="37.5404" lon="13.6273">
		<comp name="--.HGE" depth="0.0">
			<acc value="0.022376146449396" flag="0"/>
			<vel value="0.0223783023472" flag="0"/>
			<psa03 value="0.0568262175831061" flag="0"/>
			<psa10 value="0.0281661958722494" flag="0"/>
			<psa30 value="0.00374449388767464" flag="0"/>
		</comp>
		<comp name="--.HGN" depth="0.0">
			<acc value="0.026185696665762" flag="0"/>
			<vel value="0.0243546128355" flag="0"/>
			<psa03 value="0.0690837118733956" flag="0"/>
			<psa10 value="0.0378455833341649" flag="0"/>
			<psa30 value="0.00672144651282408" flag="0"/>
		</comp>
		<comp name="--.HGZ" depth="0.0">
			<acc value="0.01549303901472" flag="0"/>
			<vel value="0.0164640831011" flag="0"/>
			<psa03 value="0.0489623893511811" flag="0"/>
			<psa10 value="0.0137416181272724" flag="0"/>
			<psa30 value="0.0035545383873892" flag="0"/>
		</comp>
	</station>
	<station code="CTU" name="CTU" netid="IT" source="Italian Strong Motion Network (RAN)" insttype="" lat="37.8232" lon="13.8904">
		<comp name="--.HNE" depth="0.0">
			<acc value="0.20660877125454" flag="0"/>
			<vel value="0.0643994856417" flag="0"/>
			<psa03 value="0.326086455794063" flag="0"/>
			<psa10 value="0.0693183169982355" flag="0"/>
			<psa30 value="0.00433909119349502" flag="0"/>
		</comp>
		<comp name="--.HNN" depth="0.0">
			<acc value="0.18992041489992" flag="0"/>
			<vel value="0.0840808323385" flag="0"/>
			<psa03 value="0.312740009157591" flag="0"/>
			<psa10 value="0.103726823893104" flag="0"/>
			<psa30 value="0.00771766625749706" flag="0"/>
		</comp>
		<comp name="--.HNZ" depth="0.0">
			<acc value="0.13042730858148" flag="0"/>
			<vel value="0.0589558902506" flag="0"/>
			<psa03 value="0.158786560496832" flag="0"/>
			<psa10 value="0.073390141736868" flag="0"/>
			<psa30 value="0.00537318761399313" flag="0"/>
		</comp>
	</station>
	<station code="GBL" name="GBL" netid="IT" source="Italian Strong Motion Network (RAN)" insttype="" lat="37.7961" lon="12.9142">
		<comp name="--.HNE" depth="0.0">
			<acc value="0.061278023969352" flag="0"/>
			<vel value="0.0257341764512" flag="0"/>
			<psa03 value="0.217931957755903" flag="0"/>
			<psa10 value="0.0186869329176036" flag="0"/>
			<psa30 value="0.00122964479126745" flag="0"/>
		</comp>
		<comp name="--.HNN" depth="0.0">
			<acc value="0.058258597304034" flag="0"/>
			<vel value="0.027427308326" flag="0"/>
			<psa03 value="0.237289760948947" flag="0"/>
			<psa10 value="0.0239059980300312" flag="0"/>
			<psa30 value="0.00185236104315993" flag="0"/>
		</comp>
		<comp name="--.HNZ" depth="0.0">
			<acc value="0.025711393443174" flag="0"/>
			<vel value="0.0140074131225" flag="0"/>
			<psa03 value="0.103988794997219" flag="0"/>
			<psa10 value="0.00870846220537541" flag="0"/>
			<psa30 value="0.00111277079893707" flag="0"/>
		</comp>
	</station>
	<station code="GEA" name="GEA" netid="IT" source="Italian Strong Motion Network (RAN)" insttype="" lat="37.0562" lon="14.3146">
		<comp name="--.HNE" depth="0.0">
			<acc value="0.045642288028182" flag="0"/>
			<vel value="0.02485992634" flag="0"/>
			<psa03 value="0.133129308746774" flag="0"/>
			<psa10 value="0.027430203991408" flag="0"/>
			<psa30 value="0.0018964954251832" flag="0"/>
		</comp>
		<comp name="--.HNN" depth="0.0">
			<acc value="0.0529569022473" flag="0"/>
			<vel value="0.0308918664092" flag="0"/>
			<psa03 value="0.119452913169311" flag="0"/>
			<psa10 value="0.0343911507449689" flag="0"/>
			<psa30 value="0.00197749724948835" flag="0"/>
		</comp>
		<comp name="--.HNZ" depth="0.0">
			<acc value="0.024482709681714" flag="0"/>
			<vel value="0.00956575556865" flag="0"/>
			<psa03 value="0.0469570846348589" flag="0"/>
			<psa10 value="0.00797008329139973" flag="0"/>
			<psa30 value="0.000969745386703876" flag="0"/>
		</comp>
	</station>
	<station code="GSM" name="GSM" netid="IT" source="Italian Strong Motion Network (RAN)" insttype="" lat="38.172" lon="14.8985">
		<comp name="--.HNE" depth="0.0">
			<acc value="0.017428842416772" flag="0"/>
			<vel value="0.0117294331612" flag="0"/>
			<psa03 value="0.0341167053767774" flag="0"/>
			<psa10 value="0.0261604561268258" flag="0"/>
			<psa30 value="0.000789466100336288" flag="0"/>
		</comp>
		<comp name="--.HNN" depth="0.0">
			<acc value="0.016830411766146" flag="0"/>
			<vel value="0.0128961838823" flag="0"/>
			<psa03 value="0.0377943656704158" flag="0"/>
			<psa10 value="0.0334111020715207" flag="0"/>
			<psa30 value="0.000938381642345826" flag="0"/>
		</comp>
		<comp name="--.HNZ" depth="0.0">
			<acc value="0.01598521718559" flag="0"/>
			<vel value="0.0122117870834" flag="0"/>
			<psa03 value="0.0356074864253987" flag="0"/>
			<psa10 value="0.0326241124373321" flag="0"/>
			<psa30 value="0.000909546711340481" flag="0"/>
		</comp>
	</station>
	<station code="ISI" name="ISI" netid="IT" source="Italian Strong Motion Network (RAN)" insttype="" lat="36.7977" lon="14.8923">
		<comp name="--.HGE" depth="0.0">
			<acc value="0.0096527875311276" flag="0"/>
			<vel value="0.00633024323823" flag="0"/>
			<psa03 value="0.0362953470969533" flag="0"/>
			<psa10 value="0.00983400926734821" flag="0"/>
			<psa30 value="0.000795635050667475" flag="0"/>
		</comp>
		<comp name="--.HGN" depth="0.0">
			<acc value="0.0084339823321512" flag="0"/>
			<vel value="0.00558745492555" flag="0"/>
			<psa03 value="0.0218483692222277" flag="0"/>
			<psa10 value="0.00746406273876165" flag="0"/>
			<psa30 value="0.000671831120099511" flag="0"/>
		</comp>
		<comp name="--.HGZ" depth="0.0">
			<acc value="0.0085937972465538" flag="0"/>
			<vel value="0.00320658171318" flag="0"/>
			<psa03 value="0.0142637521952527" flag="0"/>
			<psa10 value="0.00461275588492737" flag="0"/>
			<psa30 value="0.000476779448883325" flag="0"/>
		</comp>
	</station>
	<station code="LIC" name="LIC" netid="IT" source="Italian Strong Motion Network (RAN)" insttype="" lat="37.1053" lon="13.9074">
		<comp name="--.HNE" depth="0.0">
			<acc value="0.020540921596662" flag="0"/>
			<vel value="0.013753668635" flag="0"/>
			<psa03 value="0.048074653459713" flag="0"/>
			<psa10 value="0.022062623415514" flag="0"/>
			<psa30 value="0.0015192492886441" flag="0"/>
		</comp>
		<comp name="--.HNN" depth="0.0">
			<acc value="0.022087681253994" flag="0"/>
			<vel value="0.0176291842225" flag="0"/>
			<psa03 value="0.0608551980248501" flag="0"/>
			<psa10 value="0.028023581424732" flag="0"/>
			<psa30 value="0.00177995687173951" flag="0"/>
		</comp>
		<comp name="--.HNZ" depth="0.0">
			<acc value="0.024171253424478" flag="0"/>
			<vel value="0.00924610036963" flag="0"/>
			<psa03 value="0.0495689086970098" flag="0"/>
			<psa10 value="0.0129370492035361" flag="0"/>
			<psa30 value="0.00111977563797302" flag="0"/>
		</comp>
	</station>
	<station code="LNT" name="LNT" netid="IT" source="Italian Strong Motion Network (RAN)" insttype="" lat="37.28841" lon="15.002259">
		<comp name="--.HGE" depth="0.0">
			<acc value="0.012139357240968" flag="0"/>
			<vel value="0.00673399284965" flag="0"/>
			<psa03 value="0.0428032704024124" flag="0"/>
			<psa10 value="0.00610043865537197" flag="0"/>
			<psa30 value="0.000707187785220785" flag="0"/>
		</comp>
		<comp name="--.HGN" depth="0.0">
			<acc value="0.010479272886756" flag="0"/>
			<vel value="0.0080489467523" flag="0"/>
			<psa03 value="0.0339524470996606" flag="0"/>
			<psa10 value="0.00642756157567618" flag="0"/>
			<psa30 value="0.000644569105788361" flag="0"/>
		</comp>
		<comp name="--.HGZ" depth="0.0">
			<acc value="0.010292792310264" flag="0"/>
			<vel value="0.0037502115262" flag="0"/>
			<psa03 value="0.0147863831711507" flag="0"/>
			<psa10 value="0.00463447076094072" flag="0"/>
			<psa30 value="0.000879932457873356" flag="0"/>
		</comp>
	</station>
	<station code="MFG" name="MFG" netid="IT" source="Italian Strong Motion Network (RAN)" insttype="" lat="38.1888" lon="15.5406">
		<comp name="--.HNE" depth="0.0">
			<acc value="0.009264806055381" flag="0"/>
			<vel value="0.00645280613709" flag="0"/>
			<psa03 value="0.0291405189580394" flag="0"/>
			<psa10 value="0.00883942181832229" flag="0"/>
			<psa30 value="0.000549905282691923" flag="0"/>
		</comp>
		<comp name="--.HNN" depth="0.0">
			<acc value="0.0082100787256164" flag="0"/>
			<vel value="0.00535140335009" flag="0"/>
			<psa03 value="0.0212178730278665" flag="0"/>
			<psa10 value="0.0105746664572723" flag="0"/>
			<psa30 value="0.000802299919263403" flag="0"/>
		</comp>
		<comp name="--.HNZ" depth="0.0">
			<acc value="0.0071221469970588" flag="0"/>
			<vel value="0.00270686192149" flag="0"/>
			<psa03 value="0.0127490815432542" flag="0"/>
			<psa10 value="0.00409758988271232" flag="0"/>
			<psa30 value="0.00041350705427119" flag="0"/>
		</comp>
	</station>
	<station code="MZZ" name="MZZ" netid="IT" source="Italian Strong Motion Network (RAN)" insttype="" lat="38.2341" lon="15.2451">
		<comp name="--.HNE" depth="0.0">
			<acc value="0.016572448285074" flag="0"/>
			<vel value="0.0111391618325" flag="0"/>
			<psa03 value="0.0365668520619964" flag="0"/>
			<psa10 value="0.0157304583156505" flag="0"/>
			<psa30 value="0.000678962061237254" flag="0"/>
		</comp>
		<comp name="--.HNN" depth="0.0">
			<acc value="0.015871499420286" flag="0"/>
			<vel value="0.00903581121596" flag="0"/>
			<psa03 value="0.0338093933522327" flag="0"/>
			<psa10 value="0.00914560897670598" flag="0"/>
			<psa30 value="0.00090394946554752" flag="0"/>
		</comp>
		<comp name="--.HNZ" depth="0.0">
			<acc value="0.014450790424758" flag="0"/>
			<vel value="0.0044646888726" flag="0"/>
			<psa03 value="0.0274587747382334" flag="0"/>
			<psa10 value="0.00533229964493942" flag="0"/>
			<psa30 value="0.000491685280070065" flag="0"/>
		</comp>
	</station>
	<station code="NAS" name="NAS" netid="IT" source="Italian Strong Motion Network (RAN)" insttype="" lat="38.1183" lon="14.7863">
		<comp name="--.HGE" depth="0.0">
			<acc value="0.100593328401042" flag="0"/>
			<vel value="0.0520126857212" flag="0"/>
			<psa03 value="0.281036450618989" flag="0"/>
			<psa10 value="0.0537064002854206" flag="0"/>
			<psa30 value="0.0019557522673211" flag="0"/>
		</comp>
		<comp name="--.HGN" depth="0.0">
			<acc value="0.14200864164858" flag="0"/>
			<vel value="0.0662530111283" flag="0"/>
			<psa03 value="0.218629253948639" flag="0"/>
			<psa10 value="0.0589734667027241" flag="0"/>
			<psa30 value="0.00254434542539958" flag="0"/>
		</comp>
		<comp name="--.HGZ" depth="0.0">
			<acc value="0.074807302448124" flag="0"/>
			<vel value="0.0273370679292" flag="0"/>
			<psa03 value="0.166740691585676" flag="0"/>
			<psa10 value="0.0188430632604468" flag="0"/>
			<psa30 value="0.0014198688510106" flag="0"/>
		</comp>
	</station>
	<station code="NCS" name="NCS" netid="IT" source="Italian Strong Motion Network (RAN)" insttype="" lat="37.7492" lon="14.4013">
		<comp name="--.HGE" depth="0.0">
			<acc value="0.097751158979658" flag="0"/>
			<vel value="0.0801778690246" flag="0"/>
			<psa03 value="0.259141375177427" flag="0"/>
			<psa10 value="0.0864937497863857" flag="0"/>
			<psa30 value="0.0087860486992839" flag="0"/>
		</comp>
		<comp name="--.HGN" depth="0.0">
