<?xml version="1.0" encoding="UTF-8" standalone="yes"?>
<!DOCTYPE earthquake SYSTEM "stationlist.dtd">
<stationlist created="" xmlns="ch.ethz.sed.shakemap.usgs.xml">
  <station code="URFA" name="URFA" netid="KO" insttype="CMG-3ESP" lat="37.4409" lon="38.8213">
    <comp name="--.HHE">
      <acc value="0.2731350780" flag="0"/>
      <vel value="0.0519127390" flag="0"/>
      <psa03 value="0.1367584233" flag="0"/>
      <psa10 value="0.0132814401" flag="0"/>
      <psa30 value="0.0020230755" flag="0"/>
    </comp>
    <comp name="--.HHN">
      <acc value="0.1864505693" flag="0"/>
      <vel value="0.0392305925" flag="0"/>
      <psa03 value="0.1263031589" flag="0"/>
      <psa10 value="0.0138535325" flag="0"/>
      <psa30 value="0.0017382322" flag="0"/>
    </comp>
    <comp name="--.HHZ">
      <acc value="0.1579605866" flag="0"/>
      <vel value="0.0256652253" flag="0"/>
      <psa03 value="0.0998139683" flag="0"/>
      <psa10 value="0.0136394863" flag="0"/>
      <psa30 value="0.0017639206" flag="0"/>
    </comp>
  </station>
</stationlist>
