<?xml version="1.0" encoding="UTF-8" standalone="yes"?>
<!DOCTYPE earthquake SYSTEM "stationlist.dtd">
<stationlist created="" xmlns="ch.ethz.sed.shakemap.usgs.xml">
  <station code="GVD" name="GVD" netid="GE" insttype="STS-2/N" lat="34.8391" lon="24.0874">
    <comp name="--.HHE">
      <acc value="0.5682035376" flag="0"/>
      <vel value="0.1004734243" flag="0"/>
      <psa03 value="0.2740452270" flag="0"/>
      <psa10 value="0.0466440899" flag="0"/>
      <psa30 value="0.0065004627" flag="0"/>
    </comp>
    <comp name="--.HHN">
      <acc value="0.1148975186" flag="0"/>
      <vel value="0.0326869409" flag="0"/>
      <psa03 value="0.2542543781" flag="0"/>
      <psa10 value="0.0174261858" flag="0"/>
      <psa30 value="0.0011718706" flag="0"/>
    </comp>
    <comp name="--.HHZ">
      <acc value="0.0701171474" flag="0"/>
      <vel value="0.0207828696" flag="0"/>
      <psa03 value="0.1014093027" flag="0"/>
      <psa10 value="0.0092318229" flag="0"/>
      <psa30 value="0.0007404906" flag="0"/>
    </comp>
  </station>
  <station code="IMMV" name="IMMV" netid="GE" insttype="STS-2/N" lat="35.4606" lon="23.9811">
    <comp name="--.HHN">
      <acc value="0.0501022230" flag="0"/>
      <vel value="0.0209017922" flag="0"/>
      <psa03 value="0.0854950537" flag="0"/>
      <psa10 value="0.0097707026" flag="0"/>
      <psa30 value="0.0011490115" flag="0"/>
    </comp>
    <comp name="--.HHE">
      <acc value="0.0327823429" flag="0"/>
      <vel value="0.0145725565" flag="0"/>
      <psa03 value="0.1043380223" flag="0"/>
      <psa10 value="0.0230079383" flag="0"/>
      <psa30 value="0.0012561415" flag="0"/>
    </comp>
    <comp name="--.HHZ">
      <acc value="0.0286873861" flag="0"/>
      <vel value="0.0133736509" flag="0"/>
      <psa03 value="0.0996475271" flag="0"/>
      <psa10 value="0.0066988873" flag="0"/>
      <psa30 value="0.0006130792" flag="0"/>
    </comp>
  </station>
  <station code="GVDS" name="GVDS" netid="HC" insttype="60" lat="34.8389" lon="24.0585">
    <comp name="--.HHE">
      <acc value="0.1188957258" flag="0"/>
      <vel value="0.0259985574" flag="0"/>
      <psa03 value="0.1291956398" flag="0"/>
      <psa10 value="0.0146027056" flag="0"/>
      <psa30 value="0.0010164091" flag="0"/>
    </comp>
  </station>
  <station code="IMOD" name="IMOD" netid="HC" insttype="120" lat="34.9731" lon="24.7995">
    <comp name="--.HHN">
      <acc value="1.0657333474" flag="0"/>
      <vel value="0.3450445149" flag="0"/>
      <psa03 value="1.3541469133" flag="0"/>
      <psa10 value="0.4252272660" flag="0"/>
      <psa30 value="0.0242234233" flag="0"/>
    </comp>
    <comp name="--.HHZ">
      <acc value="2.9002147920" flag="0"/>
      <vel value="0.2871449701" flag="0"/>
      <psa03 value="0.5355520464" flag="0"/>
      <psa10 value="0.1258333307" flag="0"/>
      <psa30 value="0.0148565985" flag="0"/>
    </comp>
  </station>
  <station code="IPPL" name="IPPL" netid="HC" insttype="60" lat="35.3486" lon="24.4632">
    <comp name="--.HHE">
      <acc value="0.0821070546" flag="0"/>
      <vel value="0.0347248620" flag="0"/>
      <psa03 value="0.1110322123" flag="0"/>
      <psa10 value="0.0372192493" flag="0"/>
      <psa30 value="0.0046317413" flag="0"/>
    </comp>
    <comp name="--.HHN">
      <acc value="0.0806135854" flag="0"/>
      <vel value="0.0261387102" flag="0"/>
      <psa03 value="0.1348958083" flag="0"/>
      <psa10 value="0.0231190238" flag="0"/>
      <psa30 value="0.0019057662" flag="0"/>
    </comp>
    <comp name="--.HHZ">
      <acc value="0.0553541719" flag="0"/>
      <vel value="0.0181367388" flag="0"/>
      <psa03 value="0.0853632187" flag="0"/>
      <psa10 value="0.0092293097" flag="0"/>
      <psa30 value="0.0011692113" flag="0"/>
    </comp>
  </station>
  <station code="KNSS" name="KNSS" netid="HC" insttype="60" lat="35.3042" lon="25.1802">
    <comp name="--.HHN">
      <acc value="0.1063290387" flag="0"/>
      <vel value="0.0470751013" flag="0"/>
      <psa03 value="0.2096722816" flag="0"/>
      <psa10 value="0.0191659710" flag="0"/>
      <psa30 value="0.0038395160" flag="0"/>
    </comp>
    <comp name="--.HHE">
      <acc value="0.1059407625" flag="0"/>
      <vel value="0.0371332556" flag="0"/>
      <psa03 value="0.2794133737" flag="0"/>
      <psa10 value="0.0216697375" flag="0"/>
      <psa30 value="0.0030778993" flag="0"/>
    </comp>
    <comp name="--.HHZ">
      <acc value="0.1241845570" flag="0"/>
      <vel value="0.0286629818" flag="0"/>
      <psa03 value="0.1783715874" flag="0"/>
      <psa10 value="0.0108438520" flag="0"/>
      <psa30 value="0.0030461711" flag="0"/>
    </comp>
  </station>
  <station code="PFKS" name="PFKS" netid="HC" insttype="120" lat="35.0429" lon="25.4733">
    <comp name="--.HHZ">
      <acc value="0.1546339739" flag="0"/>
      <vel value="0.0681048990" flag="0"/>
      <psa03 value="0.3230981483" flag="0"/>
      <psa10 value="0.0334281856" flag="0"/>
      <psa30 value="0.0019635565" flag="0"/>
    </comp>
    <comp name="--.HHN">
      <acc value="0.2803673867" flag="0"/>
      <vel value="0.1399358083" flag="0"/>
      <psa03 value="0.4445173143" flag="0"/>
      <psa10 value="0.0697466498" flag="0"/>
      <psa30 value="0.0046606903" flag="0"/>
    </comp>
    <comp name="--.HHE">
      <acc value="0.3246631681" flag="0"/>
      <vel value="0.1192937233" flag="0"/>
      <psa03 value="0.8166517202" flag="0"/>
      <psa10 value="0.0463636587" flag="0"/>
      <psa30 value="0.0036898672" flag="0"/>
    </comp>
  </station>
  <station code="STIA" name="STIA" netid="HC" insttype="120" lat="35.2021" lon="26.0909">
    <comp name="--.HHE">
      <acc value="0.0253302386" flag="0"/>
      <vel value="0.0141760363" flag="0"/>
      <psa03 value="0.0998924021" flag="0"/>
      <psa10 value="0.0156461368" flag="0"/>
      <psa30 value="0.0014054728" flag="0"/>
    </comp>
    <comp name="--.HHZ">
      <acc value="0.0203816831" flag="0"/>
      <vel value="0.0096403993" flag="0"/>
      <psa03 value="0.0612439021" flag="0"/>
      <psa10 value="0.0058328417" flag="0"/>
      <psa30 value="0.0012669369" flag="0"/>
    </comp>
    <comp name="--.HHN">
      <acc value="0.0307774717" flag="0"/>
      <vel value="0.0150951536" flag="0"/>
      <psa03 value="0.0981767252" flag="0"/>
      <psa10 value="0.0120158516" flag="0"/>
      <psa30 value="0.0009911758" flag="0"/>
    </comp>
  </station>
  <station code="TEFL" name="TEFL" netid="HC" insttype="GEOtiny," lat="35.0933" lon="25.1634">
    <comp name="--.HHN">
      <acc value="1.2655279155" flag="0"/>
      <vel value="0.2443295211" flag="0"/>
      <psa03 value="1.1461282641" flag="0"/>
      <psa10 value="0.1319092321" flag="0"/>
      <psa30 value="0.0142754836" flag="0"/>
    </comp>
    <comp name="--.HHZ">
      <acc value="0.6073480834" flag="0"/>
      <vel value="0.1288338822" flag="0"/>
      <psa03 value="1.0117492622" flag="0"/>
      <psa10 value="0.0608570824" flag="0"/>
      <psa30 value="0.0048194312" flag="0"/>
    </comp>
    <comp name="--.HHE">
      <acc value="1.2360442841" flag="0"/>
      <vel value="0.3426509889" flag="0"/>
      <psa03 value="1.9017523623" flag="0"/>
      <psa10 value="0.1137826111" flag="0"/>
      <psa30 value="0.0087898359" flag="0"/>
    </comp>
  </station>
  <station code="GVD" name="GVD" netid="HL" insttype="120" lat="34.8391" lon="24.0874">
    <comp name="--.HHZ">
      <acc value="0.0726804177" flag="0"/>
      <vel value="0.0204540129" flag="0"/>
      <psa03 value="0.0986301286" flag="0"/>
      <psa10 value="0.0091185320" flag="0"/>
      <psa30 value="0.0007365369" flag="0"/>
    </comp>
    <comp name="--.HHE">
      <acc value="0.6199909188" flag="0"/>
      <vel value="0.0992378229" flag="0"/>
      <psa03 value="0.2662274986" flag="0"/>
      <psa10 value="0.0462680391" flag="0"/>
      <psa30 value="0.0064753000" flag="0"/>
    </comp>
    <comp name="--.HHN">
      <acc value="0.1134169446" flag="0"/>
      <vel value="0.0319144629" flag="0"/>
      <psa03 value="0.2466984207" flag="0"/>
      <psa10 value="0.0171494605" flag="0"/>
      <psa30 value="0.0011583255" flag="0"/>
    </comp>
  </station>
  <station code="IACM" name="IACM" netid="HL" insttype="120" lat="35.3058" lon="25.0709">
    <comp name="--.HHZ">
      <acc value="0.4042700446" flag="0"/>
      <vel value="0.0800069155" flag="0"/>
      <psa03 value="0.3231124721" flag="0"/>
      <psa10 value="0.0601741887" flag="0"/>
      <psa30 value="0.0040177910" flag="0"/>
    </comp>
    <comp name="--.HHN">
      <acc value="0.3260138118" flag="0"/>
      <vel value="0.1046239045" flag="0"/>
      <psa03 value="0.7675004047" flag="0"/>
      <psa10 value="0.1269649975" flag="0"/>
      <psa30 value="0.0067540527" flag="0"/>
    </comp>
    <comp name="--.HHE">
      <acc value="0.3791876535" flag="0"/>
      <vel value="0.1351237679" flag="0"/>
      <psa03 value="0.8480538124" flag="0"/>
      <psa10 value="0.1813974778" flag="0"/>
      <psa30 value="0.0133555128" flag="0"/>
    </comp>
  </station>
  <station code="IDI" name="IDI" netid="HL" insttype="120" lat="35.288" lon="24.89">
    <comp name="--.HHZ">
      <acc value="0.2282294155" flag="0"/>
      <vel value="0.0423343582" flag="0"/>
      <psa03 value="0.1905784170" flag="0"/>
      <psa10 value="0.0255258183" flag="0"/>
      <psa30 value="0.0020498668" flag="0"/>
    </comp>
    <comp name="--.HHN">
      <acc value="0.2626822334" flag="0"/>
      <vel value="0.0452755723" flag="0"/>
      <psa03 value="0.1711876665" flag="0"/>
      <psa10 value="0.0161372896" flag="0"/>
      <psa30 value="0.0026118779" flag="0"/>
    </comp>
    <comp name="--.HHE">
      <acc value="0.2867147997" flag="0"/>
      <vel value="0.0460816414" flag="0"/>
      <psa03 value="0.1942908816" flag="0"/>
      <psa10 value="0.0113434874" flag="0"/>
      <psa30 value="0.0014246814" flag="0"/>
    </comp>
  </station>
  <station code="KSTE" name="KSTE" netid="HL" insttype="60" lat="35.1801" lon="25.3372">
    <comp name="--.HHE">
      <acc value="0.1199711647" flag="0"/>
      <vel value="0.0432145718" flag="0"/>
      <psa03 value="0.1744523403" flag="0"/>
      <psa10 value="0.0207489524" flag="0"/>
      <psa30 value="0.0016448830" flag="0"/>
    </comp>
    <comp name="--.HHN">
      <acc value="0.1850266645" flag="0"/>
      <vel value="0.0446686295" flag="0"/>
      <psa03 value="0.2457587669" flag="0"/>
      <psa10 value="0.0381927171" flag="0"/>
      <psa30 value="0.0049459041" flag="0"/>
    </comp>
    <comp name="--.HHZ">
      <acc value="0.0984526944" flag="0"/>
      <vel value="0.0262329456" flag="0"/>
      <psa03 value="0.1693231182" flag="0"/>
      <psa10 value="0.0144235770" flag="0"/>
      <psa30 value="0.0019721868" flag="0"/>
    </comp>
  </station>
  <station code="NPS" name="NPS" netid="HL" insttype="CMG3ESPC-120s" lat="35.2613" lon="25.6104">
    <comp name="--.HHE">
      <acc value="0.0238605932" flag="0"/>
      <vel value="0.0119479254" flag="0"/>
      <psa03 value="0.0442855698" flag="0"/>
      <psa10 value="0.0111603977" flag="0"/>
      <psa30 value="0.0006338631" flag="0"/>
    </comp>
    <comp name="--.HHN">
      <acc value="0.0507307352" flag="0"/>
      <vel value="0.0247230022" flag="0"/>
      <psa03 value="0.1104647455" flag="0"/>
      <psa10 value="0.0382712003" flag="0"/>
      <psa30 value="0.0021157362" flag="0"/>
    </comp>
    <comp name="--.HHZ">
      <acc value="0.0413664736" flag="0"/>
      <vel value="0.0146826908" flag="0"/>
      <psa03 value="0.0475551427" flag="0"/>
      <psa10 value="0.0139309473" flag="0"/>
      <psa30 value="0.0010138067" flag="0"/>
    </comp>
  </station>
  <station code="SIVA" name="SIVA" netid="HL" insttype="GMG5TD" lat="35.0178" lon="24.812">
    <comp name="00.HNE">
      <acc value="2.0668898029" flag="0"/>
      <vel value="0.5294108817" flag="0"/>
      <psa03 value="4.2298284531" flag="0"/>
      <psa10 value="0.3664697285" flag="0"/>
      <psa30 value="0.0165110571" flag="0"/>
    </comp>
    <comp name="00.HNZ">
      <acc value="3.5953184537" flag="0"/>
      <vel value="0.5653546458" flag="0"/>
      <psa03 value="1.3097105425" flag="0"/>
      <psa10 value="0.2061951882" flag="0"/>
      <psa30 value="0.0174548035" flag="0"/>
    </comp>
    <comp name="00.HNN">
      <acc value="6.9780950315" flag="0"/>
      <vel value="2.1696248165" flag="0"/>
      <psa03 value="5.7647279828" flag="0"/>
      <psa10 value="1.1469143226" flag="0"/>
      <psa30 value="0.0768860399" flag="0"/>
    </comp>
  </station>
  <station code="VAM" name="VAM" netid="HL" insttype="CMG3ESPC-120s" lat="35.407" lon="24.1997">
    <comp name="--.HHN">
      <acc value="0.0691588848" flag="0"/>
      <vel value="0.0242377045" flag="0"/>
      <psa03 value="0.1491842827" flag="0"/>
      <psa10 value="0.0120001984" flag="0"/>
      <psa30 value="0.0017208314" flag="0"/>
    </comp>
    <comp name="--.HHE">
      <acc value="0.0526308622" flag="0"/>
      <vel value="0.0220867982" flag="0"/>
      <psa03 value="0.0728867177" flag="0"/>
      <psa10 value="0.0141839119" flag="0"/>
      <psa30 value="0.0013832868" flag="0"/>
    </comp>
    <comp name="--.HHZ">
      <acc value="0.0382106363" flag="0"/>
      <vel value="0.0102693997" flag="0"/>
      <psa03 value="0.0562489688" flag="0"/>
      <psa10 value="0.0062598926" flag="0"/>
      <psa30 value="0.0008036399" flag="0"/>
    </comp>
  </station>
  <station code="IDI" name="IDI" netid="MN" insttype="" lat="35.288" lon="24.89">
    <comp name="--.HHZ">
      <acc value="0.2452704009" flag="0"/>
      <vel value="0.0440449375" flag="0"/>
      <psa03 value="0.1938860659" flag="0"/>
      <psa10 value="0.0255884681" flag="0"/>
      <psa30 value="0.0020348618" flag="0"/>
    </comp>
    <comp name="--.HHE">
      <acc value="0.3326382588" flag="0"/>
      <vel value="0.0493406861" flag="0"/>
      <psa03 value="0.1976737140" flag="0"/>
      <psa10 value="0.0112959334" flag="0"/>
      <psa30 value="0.0014262196" flag="0"/>
    </comp>
    <comp name="--.HHN">
      <acc value="0.2742970702" flag="0"/>
      <vel value="0.0479028319" flag="0"/>
      <psa03 value="0.1739397672" flag="0"/>
      <psa10 value="0.0161637429" flag="0"/>
      <psa30 value="0.0025896772" flag="0"/>
    </comp>
  </station>
</stationlist>
