<stationlist created="1684404049">
	<station code="ABEA" name="ABEA" netid="HC" source="Seismological Network of Crete (HC)" insttype="" lat="35.5163" lon="24.0113">
		<comp name=".HNE" depth="0.0">
			<acc value="0.025268117607" flag="0"/>
			<vel value="0.0131672299797" flag="0"/>
			<psa03 value="0.0485204798685" flag="0"/>
			<psa10 value="0.0196286296754" flag="0"/>
			<psa30 value="0.00286845689619" flag="0"/>
		</comp>
		<comp name=".HNN" depth="0.0">
			<acc value="0.0229174364474" flag="0"/>
			<vel value="0.0132188736314" flag="0"/>
			<psa03 value="0.059994385792" flag="0"/>
			<psa10 value="0.0158621745412" flag="0"/>
			<psa30 value="0.00274884709763" flag="0"/>
		</comp>
		<comp name=".HNZ" depth="0.0">
			<acc value="0.0145890558343" flag="0"/>
			<vel value="0.00660199055326" flag="0"/>
			<psa03 value="0.0282915773032" flag="0"/>
			<psa10 value="0.01614021421" flag="0"/>
			<psa30 value="0.00207798828153" flag="0"/>
		</comp>
	</station>
	<station code="ATEI" name="ATEI" netid="HC" source="Seismological Network of Crete (HC)" insttype="" lat="35.5193" lon="24.0432">
		<comp name=".HNE" depth="0.0">
			<acc value="0.0168391495395" flag="0"/>
			<vel value="0.012624610716" flag="0"/>
			<psa03 value="0.0623832315414" flag="0"/>
			<psa10 value="0.0169530861838" flag="0"/>
			<psa30 value="0.00195468573834" flag="0"/>
		</comp>
		<comp name=".HNN" depth="0.0">
			<acc value="0.0163483191109" flag="0"/>
			<vel value="0.0139756424649" flag="0"/>
			<psa03 value="0.0403661402045" flag="0"/>
			<psa10 value="0.0154098542647" flag="0"/>
			<psa30 value="0.00256072567717" flag="0"/>
		</comp>
		<comp name=".HNZ" depth="0.0">
			<acc value="0.016732887256" flag="0"/>
			<vel value="0.00675972375127" flag="0"/>
			<psa03 value="0.030396461533" flag="0"/>
			<psa10 value="0.010193018675" flag="0"/>
			<psa30 value="0.00129191256203" flag="0"/>
		</comp>
	</station>
	<station code="DEYA" name="DEYA" netid="HC" source="Seismological Network of Crete (HC)" insttype="" lat="35.4825" lon="24.014">
		<comp name=".HNE" depth="0.0">
			<acc value="0.0440115852516" flag="0"/>
			<vel value="0.0215179586674" flag="0"/>
			<psa03 value="0.142172251547" flag="0"/>
			<psa10 value="0.0254594128111" flag="0"/>
			<psa30 value="0.00242589903724" flag="0"/>
		</comp>
		<comp name=".HNN" depth="0.0">
			<acc value="0.0567107382885" flag="0"/>
			<vel value="0.0213126635531" flag="0"/>
			<psa03 value="0.154074665024" flag="0"/>
			<psa10 value="0.0309929137534" flag="0"/>
			<psa30 value="0.00165871269407" flag="0"/>
		</comp>
		<comp name=".HNZ" depth="0.0">
			<acc value="0.0344653964635" flag="0"/>
			<vel value="0.0118853502513" flag="0"/>
			<psa03 value="0.0590723038754" flag="0"/>
			<psa10 value="0.0142360152536" flag="0"/>
			<psa30 value="0.00200175614819" flag="0"/>
		</comp>
	</station>
	<station code="G0LD" name="G0LD" netid="HC" source="Seismological Network of Crete (HC)" insttype="" lat="35.4955" lon="24.0306">
		<comp name=".HNE" depth="0.0">
			<acc value="0.0647555694517" flag="0"/>
			<vel value="0.0350563158647" flag="0"/>
			<psa03 value="0.155747057061" flag="0"/>
			<psa10 value="0.0533747433148" flag="0"/>
			<psa30 value="0.00508619610222" flag="0"/>
		</comp>
		<comp name=".HNN" depth="0.0">
			<acc value="0.0547131876402" flag="0"/>
			<vel value="0.0323172736888" flag="0"/>
			<psa03 value="0.122535659053" flag="0"/>
			<psa10 value="0.0758974828358" flag="0"/>
			<psa30 value="0.00416239615498" flag="0"/>
		</comp>
		<comp name=".HNZ" depth="0.0">
			<acc value="0.0318844402898" flag="0"/>
			<vel value="0.029615997261" flag="0"/>
			<psa03 value="0.0611781985888" flag="0"/>
			<psa10 value="0.0458191327926" flag="0"/>
			<psa30 value="0.00201548768283" flag="0"/>
		</comp>
	</station>
	<station code="LENT" name="LENT" netid="HC" source="Seismological Network of Crete (HC)" insttype="" lat="35.5074" lon="24.0402">
		<comp name=".HNE" depth="0.0">
			<acc value="0.0236723473943" flag="0"/>
			<vel value="0.00998824565572" flag="0"/>
			<psa03 value="0.0422960857623" flag="0"/>
			<psa10 value="0.0147524263384" flag="0"/>
			<psa30 value="0.00299599221978" flag="0"/>
		</comp>
		<comp name=".HNN" depth="0.0">
			<acc value="0.0246792897192" flag="0"/>
			<vel value="0.0169998504857" flag="0"/>
			<psa03 value="0.0545411807937" flag="0"/>
			<psa10 value="0.0258397817587" flag="0"/>
			<psa30 value="0.00265736145382" flag="0"/>
		</comp>
		<comp name=".HNZ" depth="0.0">
			<acc value="0.0203237604561" flag="0"/>
			<vel value="0.00881540418622" flag="0"/>
			<psa03 value="0.0491549750257" flag="0"/>
			<psa10 value="0.0111712681667" flag="0"/>
			<psa30 value="0.00115026547028" flag="0"/>
		</comp>
	</station>
	<station code="MULT" name="MULT" netid="HC" source="Seismological Network of Crete (HC)" insttype="" lat="35.5091" lon="24.0118">
		<comp name=".HNE" depth="0.0">
			<acc value="0.0500388066271" flag="0"/>
			<vel value="0.0160358500636" flag="0"/>
			<psa03 value="0.0609417245903" flag="0"/>
			<psa10 value="0.0185650554688" flag="0"/>
			<psa30 value="0.00531274611002" flag="0"/>
		</comp>
		<comp name=".HNN" depth="0.0">
			<acc value="0.0608602640144" flag="0"/>
			<vel value="0.0222631023397" flag="0"/>
			<psa03 value="0.0678211386508" flag="0"/>
			<psa10 value="0.024781397896" flag="0"/>
			<psa30 value="0.00845284995984" flag="0"/>
		</comp>
		<comp name=".HNZ" depth="0.0">
			<acc value="0.0465425255493" flag="0"/>
			<vel value="0.0130280716846" flag="0"/>
			<psa03 value="0.0341144864798" flag="0"/>
			<psa10 value="0.0187369087283" flag="0"/>
			<psa30 value="0.00499145357595" flag="0"/>
		</comp>
	</station>
	<station code="NERO" name="NERO" netid="HC" source="Seismological Network of Crete (HC)" insttype="" lat="35.474" lon="24.0423">
		<comp name=".HNE" depth="0.0">
			<acc value="0.0202858262325" flag="0"/>
			<vel value="0.00853071970051" flag="0"/>
			<psa03 value="0.0436930715349" flag="0"/>
			<psa10 value="0.0151354082715" flag="0"/>
			<psa30 value="0.00159099247878" flag="0"/>
		</comp>
		<comp name=".HNN" depth="0.0">
			<acc value="0.0303076557486" flag="0"/>
			<vel value="0.0142199172302" flag="0"/>
			<psa03 value="0.0657893165525" flag="0"/>
			<psa10 value="0.0177495208187" flag="0"/>
			<psa30 value="0.00176753688231" flag="0"/>
		</comp>
		<comp name=".HNZ" depth="0.0">
			<acc value="0.0170143338566" flag="0"/>
			<vel value="0.0106969310574" flag="0"/>
			<psa03 value="0.0368904750629" flag="0"/>
			<psa10 value="0.0153331438705" flag="0"/>
			<psa30 value="0.0014487941005" flag="0"/>
		</comp>
	</station>
	<station code="PASK" name="PASK" netid="HC" source="Seismological Network of Crete (HC)" insttype="" lat="35.4996" lon="24.0121">
		<comp name=".HNE" depth="0.0">
			<acc value="0.0349594695056" flag="0"/>
			<vel value="0.0228885795111" flag="0"/>
			<psa03 value="0.0583899097117" flag="0"/>
			<psa10 value="0.0259104233134" flag="0"/>
			<psa30 value="0.00192673972038" flag="0"/>
		</comp>
		<comp name=".HNN" depth="0.0">
			<acc value="0.0270880731496" flag="0"/>
			<vel value="0.0172913471915" flag="0"/>
			<psa03 value="0.0612482396869" flag="0"/>
			<psa10 value="0.0201455001655" flag="0"/>
			<psa30 value="0.00280309756646" flag="0"/>
		</comp>
		<comp name=".HNZ" depth="0.0">
			<acc value="0.0237021952182" flag="0"/>
			<vel value="0.0108342588476" flag="0"/>
			<psa03 value="0.0596306585718" flag="0"/>
			<psa10 value="0.0186847840252" flag="0"/>
			<psa30 value="0.00197418765524" flag="0"/>
		</comp>
	</station>
	<station code="POLY" name="POLY" netid="HC" source="Seismological Network of Crete (HC)" insttype="" lat="35.5226" lon="24.0602">
		<comp name=".HNE" depth="0.0">
			<acc value="0.0164694804599" flag="0"/>
			<vel value="0.00990917247492" flag="0"/>
			<psa03 value="0.0368345286484" flag="0"/>
			<psa10 value="0.0157771151564" flag="0"/>
			<psa30 value="0.00227464610081" flag="0"/>
		</comp>
		<comp name=".HNN" depth="0.0">
			<acc value="0.0191626791573" flag="0"/>
			<vel value="0.0105181357747" flag="0"/>
			<psa03 value="0.0376681463715" flag="0"/>
			<psa10 value="0.0211164994895" flag="0"/>
			<psa30 value="0.00254939263475" flag="0"/>
		</comp>
		<comp name=".HNZ" depth="0.0">
			<acc value="0.0158117480841" flag="0"/>
			<vel value="0.00601550062434" flag="0"/>
			<psa03 value="0.0326127593936" flag="0"/>
			<psa10 value="0.00872670341375" flag="0"/>
			<psa30 value="0.000864313714876" flag="0"/>
		</comp>
	</station>
	<station code="SOUD" name="SOUD" netid="HC" source="Seismological Network of Crete (HC)" insttype="" lat="35.4878" lon="24.0678">
		<comp name=".HNE" depth="0.0">
			<acc value="0.0407202016856" flag="0"/>
			<vel value="0.022607193364" flag="0"/>
			<psa03 value="0.104884041803" flag="0"/>
			<psa10 value="0.0347345347425" flag="0"/>
			<psa30 value="0.00292095704073" flag="0"/>
		</comp>
		<comp name=".HNN" depth="0.0">
			<acc value="0.0544582915292" flag="0"/>
			<vel value="0.0168512641556" flag="0"/>
			<psa03 value="0.0653134360698" flag="0"/>
			<psa10 value="0.0157212655192" flag="0"/>
			<psa30 value="0.00222688877045" flag="0"/>
		</comp>
		<comp name=".HNZ" depth="0.0">
			<acc value="0.00704744047499" flag="0"/>
			<vel value="0.00531040072916" flag="0"/>
			<psa03 value="0.00697948579419" flag="0"/>
			<psa10 value="0.00569507336441" flag="0"/>
			<psa30 value="0.00295794074072" flag="0"/>
		</comp>
	</station>
	<station code="CH01" name="CH01" netid="HI" source="ITSAK Strong Motion Network" insttype="" lat="35.517" lon="24.0208">
		<comp name=".HNE" depth="0.0">
			<acc value="0.0260646677677" flag="0"/>
			<vel value="0.012298063339" flag="0"/>
			<psa03 value="0.0589658541149" flag="0"/>
			<psa10 value="0.0140657005336" flag="0"/>
			<psa30 value="0.00246300482865" flag="0"/>
		</comp>
		<comp name=".HNN" depth="0.0">
			<acc value="0.0311280682804" flag="0"/>
			<vel value="0.0143284433542" flag="0"/>
			<psa03 value="0.0870232596554" flag="0"/>
			<psa10 value="0.0192300157692" flag="0"/>
			<psa30 value="0.00288086625992" flag="0"/>
		</comp>
		<comp name=".HNZ" depth="0.0">
			<acc value="0.0170690454453" flag="0"/>
			<vel value="0.0075894505694" flag="0"/>
			<psa03 value="0.0255173674837" flag="0"/>
			<psa10 value="0.0150922551003" flag="0"/>
			<psa30 value="0.00144565524673" flag="0"/>
		</comp>
	</station>
	<station code="KSS1" name="KSS1" netid="HI" source="ITSAK Strong Motion Network" insttype="" lat="35.4189" lon="26.9207">
		<comp name=".HNE" depth="0.0">
			<acc value="0.00521365248258" flag="0"/>
			<vel value="0.00322178359459" flag="0"/>
			<psa03 value="0.015754526733" flag="0"/>
			<psa10 value="0.00277856539444" flag="0"/>
			<psa30 value="0.000695454507947" flag="0"/>
		</comp>
		<comp name=".HNN" depth="0.0">
			<acc value="0.00530984094098" flag="0"/>
			<vel value="0.00313848216946" flag="0"/>
			<psa03 value="0.0266763114455" flag="0"/>
			<psa10 value="0.00424583439067" flag="0"/>
			<psa30 value="0.000754508888759" flag="0"/>
		</comp>
		<comp name=".HNZ" depth="0.0">
			<acc value="0.00231573740438" flag="0"/>
			<vel value="0.00190366926455" flag="0"/>
			<psa03 value="0.00437560561761" flag="0"/>
			<psa10 value="0.00265452967769" flag="0"/>
			<psa30 value="0.000922286826141" flag="0"/>
		</comp>
	</station>
	<station code="ANKY" name="ANKY" netid="HL" source="National Observatory of Athens Seismic Network" insttype="" lat="35.86704" lon="23.30117">
		<comp name="00.HNE" depth="0.0">
			<acc value="0.00471488305823" flag="0"/>
			<vel value="0.00451523738142" flag="0"/>
			<psa03 value="0.00982170597836" flag="0"/>
			<psa10 value="0.00802619263337" flag="0"/>
			<psa30 value="0.000708118836483" flag="0"/>
		</comp>
		<comp name="00.HNN" depth="0.0">
			<acc value="0.00438483620542" flag="0"/>
			<vel value="0.00296285286646" flag="0"/>
			<psa03 value="0.011145450571" flag="0"/>
			<psa10 value="0.00654490122383" flag="0"/>
			<psa30 value="0.00051775315277" flag="0"/>
		</comp>
		<comp name="00.HNZ" depth="0.0">
			<acc value="0.00305489295416" flag="0"/>
			<vel value="0.00222169678348" flag="0"/>
			<psa03 value="0.00626388500371" flag="0"/>
			<psa10 value="0.00179030098147" flag="0"/>
			<psa30 value="0.000517563452704" flag="0"/>
		</comp>
	</station>
	<station code="IACM" name="IACM" netid="HL" source="National Observatory of Athens Seismic Network" insttype="" lat="35.3058" lon="25.0709">
		<comp name=".HNE" depth="0.0">
			<acc value="0.353571715935" flag="0"/>
			<vel value="0.132222580837" flag="0"/>
			<psa03 value="0.815191585774" flag="0"/>
			<psa10 value="0.180846595199" flag="0"/>
			<psa30 value="0.0137691113027" flag="0"/>
		</comp>
		<comp name=".HNN" depth="0.0">
			<acc value="0.337720971455" flag="0"/>
			<vel value="0.107668025228" flag="0"/>
			<psa03 value="0.816223154112" flag="0"/>
			<psa10 value="0.132098015845" flag="0"/>
			<psa30 value="0.0068184929417" flag="0"/>
		</comp>
		<comp name=".HNZ" depth="0.0">
			<acc value="0.420610881957" flag="0"/>
			<vel value="0.0842836825993" flag="0"/>
			<psa03 value="0.336495895368" flag="0"/>
			<psa10 value="0.0590783424002" flag="0"/>
			<psa30 value="0.00424726802733" flag="0"/>
		</comp>
	</station>
	<station code="IMMV" name="IMMV" netid="HL" source="National Observatory of Athens Seismic Network" insttype="" lat="35.4606" lon="23.9811">
		<comp name=".HNE" depth="0.0">
			<acc value="0.0311339480393" flag="0"/>
			<vel value="0.0138129588145" flag="0"/>
			<psa03 value="0.0989304599072" flag="0"/>
			<psa10 value="0.022188571759" flag="0"/>
			<psa30 value="0.00132768670273" flag="0"/>
		</comp>
		<comp name=".HNN" depth="0.0">
			<acc value="0.0468590939576" flag="0"/>
			<vel value="0.0197001275551" flag="0"/>
			<psa03 value="0.0826334167667" flag="0"/>
			<psa10 value="0.00946725934697" flag="0"/>
			<psa30 value="0.00121320838993" flag="0"/>
		</comp>
		<comp name=".HNZ" depth="0.0">
			<acc value="0.0277461424223" flag="0"/>
			<vel value="0.0130327674294" flag="0"/>
			<psa03 value="0.0944786754151" flag="0"/>
			<psa10 value="0.0065362564324" flag="0"/>
			<psa30 value="0.000667996699418" flag="0"/>
		</comp>
	</station>
	<station code="SIVA" name="SIVA" netid="HL" source="National Observatory of Athens Seismic Network" insttype="" lat="35.01777" lon="24.81204">
		<comp name="00.HNE" depth="0.0">
			<acc value="2.05941348514" flag="0"/>
			<vel value="0.53254406554" flag="0"/>
			<psa03 value="4.23095528002" flag="0"/>
			<psa10 value="0.366861422769" flag="0"/>
			<psa30 value="0.0174935988651" flag="0"/>
		</comp>
		<comp name="00.HNN" depth="0.0">
			<acc value="6.99823758348" flag="0"/>
			<vel value="2.16927036298" flag="0"/>
			<psa03 value="5.79082428035" flag="0"/>
			<psa10 value="1.1495326309" flag="0"/>
			<psa30 value="0.0787566039052" flag="0"/>
		</comp>
		<comp name="00.HNZ" depth="0.0">
			<acc value="3.57970537323" flag="0"/>
			<vel value="0.571702703067" flag="0"/>
			<psa03 value="1.30761262292" flag="0"/>
			<psa10 value="0.205127878715" flag="0"/>
			<psa30 value="0.0202131506887" flag="0"/>
		</comp>
	</station>
	<station code="THRA" name="THRA" netid="HL" source="National Observatory of Athens Seismic Network" insttype="" lat="36.41502" lon="25.43244">
		<comp name="00.HNE" depth="0.0">
			<acc value="0.0304603360067" flag="0"/>
			<vel value="0.013398637467" flag="0"/>
			<psa03 value="0.0506034720235" flag="0"/>
			<psa10 value="0.0120423496216" flag="0"/>
			<psa30 value="0.00235283065515" flag="0"/>
		</comp>
		<comp name="00.HNN" depth="0.0">
			<acc value="0.0220465695429" flag="0"/>
			<vel value="0.0116365882558" flag="0"/>
			<psa03 value="0.052325700696" flag="0"/>
			<psa10 value="0.0117315065297" flag="0"/>
			<psa30 value="0.00140934950832" flag="0"/>
		</comp>
		<comp name="00.HNZ" depth="0.0">
			<acc value="0.0182227886454" flag="0"/>
			<vel value="0.0105534367341" flag="0"/>
			<psa03 value="0.0419020492426" flag="0"/>
			<psa10 value="0.0061509591896" flag="0"/>
			<psa30 value="0.000685714018937" flag="0"/>
		</comp>
	</station>
</stationlist>
