<?xml version="1.0" encoding="UTF-8" standalone="yes"?>
<!DOCTYPE earthquake SYSTEM "stationlist.dtd">
<stationlist created="" xmlns="ch.ethz.sed.shakemap.usgs.xml">
  <station code="AGRB" name="AGRB" netid="KO" insttype="CMG-3T" commtype="DIG" lat="39.5755" lon="42.992">
    <comp name="--.HHN">
      <acc value="0.0333492351" flag="0"/>
      <vel value="0.0342444654" flag="0"/>
      <psa03 value="0.0704065880" flag="0"/>
      <psa10 value="0.0454204066" flag="0"/>
      <psa30 value="0.0135750828" flag="0"/>
    </comp>
    <comp name="--.HHZ">
      <acc value="0.0274883013" flag="0"/>
      <vel value="0.0218774664" flag="0"/>
      <psa03 value="0.0474043401" flag="0"/>
      <psa10 value="0.0429905467" flag="0"/>
      <psa30 value="0.0173247409" flag="0"/>
    </comp>
    <comp name="--.HHE">
      <acc value="0.0592755144" flag="0"/>
      <vel value="0.0382751313" flag="0"/>
      <psa03 value="0.0676214993" flag="0"/>
      <psa10 value="0.0684813542" flag="0"/>
      <psa30 value="0.0072304220" flag="0"/>
    </comp>
  </station>
  <station code="AKDM" name="AKDM" netid="KO" insttype="CMG-3ESP" commtype="DIG" lat="38.3285" lon="42.98">
    <comp name="--.HHE">
      <acc value="0.0144756796" flag="0"/>
      <vel value="0.0136300443" flag="0"/>
      <psa03 value="0.0307692019" flag="0"/>
      <psa10 value="0.0145588306" flag="0"/>
      <psa30 value="0.0023756474" flag="0"/>
    </comp>
    <comp name="--.HHZ">
      <acc value="0.0141161256" flag="0"/>
      <vel value="0.0107667507" flag="0"/>
      <psa03 value="0.0321849630" flag="0"/>
      <psa10 value="0.0093545816" flag="0"/>
      <psa30 value="0.0016537290" flag="0"/>
    </comp>
    <comp name="--.HHN">
      <acc value="0.0159107915" flag="0"/>
      <vel value="0.0121241019" flag="0"/>
      <psa03 value="0.0395875826" flag="0"/>
      <psa10 value="0.0167389409" flag="0"/>
      <psa30 value="0.0019381120" flag="0"/>
    </comp>
  </station>
  <station code="CLDR" name="CLDR" netid="KO" insttype="CMG-3ESP" commtype="DIG" lat="39.144" lon="43.9172">
    <comp name="--.HHE">
      <acc value="0.0122994455" flag="0"/>
      <vel value="0.0088406842" flag="0"/>
      <psa03 value="0.0401014732" flag="0"/>
      <psa10 value="0.0162798341" flag="0"/>
      <psa30 value="0.0013650887" flag="0"/>
    </comp>
    <comp name="--.HHN">
      <acc value="0.0095255641" flag="0"/>
      <vel value="0.0062220858" flag="0"/>
      <psa03 value="0.0435799312" flag="0"/>
      <psa10 value="0.0109004329" flag="0"/>
      <psa30 value="0.0044128186" flag="0"/>
    </comp>
    <comp name="--.HHZ">
      <acc value="0.0055941352" flag="0"/>
      <vel value="0.0036009756" flag="0"/>
      <psa03 value="0.0211230750" flag="0"/>
      <psa10 value="0.0082780962" flag="0"/>
      <psa30 value="0.0025486787" flag="0"/>
    </comp>
  </station>
  <station code="GURO" name="GURO" netid="KO" insttype="CMG-3T" commtype="DIG" lat="38.5509" lon="42.0322">
    <comp name="--.HHN">
      <acc value="0.0271607959" flag="0"/>
      <vel value="0.0185191732" flag="0"/>
      <psa03 value="0.0762016002" flag="0"/>
      <psa10 value="0.0122188142" flag="0"/>
      <psa30 value="0.0006358784" flag="0"/>
    </comp>
    <comp name="--.HHE">
      <acc value="0.0430016962" flag="0"/>
      <vel value="0.0227316701" flag="0"/>
      <psa03 value="0.1229742847" flag="0"/>
      <psa10 value="0.0123526894" flag="0"/>
      <psa30 value="0.0012744915" flag="0"/>
    </comp>
    <comp name="--.HHZ">
      <acc value="0.0278628027" flag="0"/>
      <vel value="0.0129408294" flag="0"/>
      <psa03 value="0.0885108793" flag="0"/>
      <psa10 value="0.0090644250" flag="0"/>
      <psa30 value="0.0007381970" flag="0"/>
    </comp>
  </station>
  <station code="MLAZ" name="MLAZ" netid="KO" insttype="CMG-3T" commtype="DIG" lat="39.141" lon="42.5496">
    <comp name="--.HHN">
      <acc value="0.2793878339" flag="0"/>
      <vel value="0.2416030531" flag="0"/>
      <psa03 value="0.7442912804" flag="0"/>
      <psa10 value="0.3417241213" flag="0"/>
      <psa30 value="0.0604867037" flag="0"/>
    </comp>
    <comp name="--.HHE">
      <acc value="0.2713113574" flag="0"/>
      <vel value="0.2789259044" flag="0"/>
      <psa03 value="0.5886909088" flag="0"/>
      <psa10 value="0.4281003413" flag="0"/>
      <psa30 value="0.0710697961" flag="0"/>
    </comp>
    <comp name="--.HHZ">
      <acc value="0.2067729527" flag="0"/>
      <vel value="0.1753052165" flag="0"/>
      <psa03 value="0.4520678152" flag="0"/>
      <psa10 value="0.2105801504" flag="0"/>
      <psa30 value="0.0326648537" flag="0"/>
    </comp>
  </station>
  <station code="VRTB" name="VRTB" netid="KO" insttype="CMG-40T" commtype="DIG" lat="39.1603" lon="41.4558">
    <comp name="--.HHE">
      <acc value="0.0165415567" flag="0"/>
      <vel value="0.0136542563" flag="0"/>
      <psa03 value="0.0367875029" flag="0"/>
      <psa10 value="0.0291660834" flag="0"/>
      <psa30 value="0.0029853267" flag="0"/>
    </comp>
    <comp name="--.HHZ">
      <acc value="0.0056587991" flag="0"/>
      <vel value="0.0066359508" flag="0"/>
      <psa03 value="0.0084882484" flag="0"/>
      <psa10 value="0.0070160175" flag="0"/>
      <psa30 value="0.0007295711" flag="0"/>
    </comp>
    <comp name="--.HHN">
      <acc value="0.0024270943" flag="0"/>
      <vel value="0.0024103666" flag="0"/>
      <psa03 value="0.0074053988" flag="0"/>
      <psa10 value="0.0051784910" flag="0"/>
      <psa30 value="0.0008420817" flag="0"/>
    </comp>
  </station>
</stationlist>
