<?xml version="1.0" encoding="UTF-8" standalone="yes"?>
<!DOCTYPE earthquake SYSTEM "stationlist.dtd">
<stationlist created="" xmlns="ch.ethz.sed.shakemap.usgs.xml">
  <station code="AKS" name="AKS" netid="KO" insttype="CMG-5T" commtype="DIG" lat="38.8785" lon="27.8129">
    <comp name="--.HNN">
      <acc value="2.8903270985" flag="0"/>
      <vel value="1.3254364363" flag="0"/>
      <psa03 value="10.4636706192" flag="0"/>
      <psa10 value="1.2434084100" flag="0"/>
      <psa30 value="0.1822072680" flag="0"/>
    </comp>
    <comp name="--.HNZ">
      <acc value="1.4281058504" flag="0"/>
      <vel value="0.6905860789" flag="0"/>
      <psa03 value="1.8199775192" flag="0"/>
      <psa10 value="0.4970561782" flag="0"/>
      <psa30 value="0.1354154367" flag="0"/>
    </comp>
    <comp name="--.HNE">
      <acc value="2.7033956150" flag="0"/>
      <vel value="1.2880818193" flag="0"/>
      <psa03 value="7.8059214772" flag="0"/>
      <psa10 value="1.3576003078" flag="0"/>
      <psa30 value="0.1954495804" flag="0"/>
    </comp>
  </station>
  <station code="ALT" name="ALT" netid="KO" insttype="CMG-5T" commtype="DIG" lat="39.0541" lon="30.1104">
    <comp name="--.HNN">
      <acc value="0.2840113242" flag="0"/>
      <vel value="0.3077692145" flag="0"/>
      <psa03 value="0.7459104809" flag="0"/>
      <psa10 value="0.1509255729" flag="0"/>
      <psa30 value="0.1259362986" flag="0"/>
    </comp>
    <comp name="--.HNE">
      <acc value="0.2559854492" flag="0"/>
      <vel value="0.2172324604" flag="0"/>
      <psa03 value="0.4615826812" flag="0"/>
      <psa10 value="0.1593226696" flag="0"/>
      <psa30 value="0.0693336781" flag="0"/>
    </comp>
    <comp name="--.HNZ">
      <acc value="0.1768242669" flag="0"/>
      <vel value="0.2638173426" flag="0"/>
      <psa03 value="0.3232741909" flag="0"/>
      <psa10 value="0.2367319552" flag="0"/>
      <psa30 value="0.1540540484" flag="0"/>
    </comp>
  </station>
  <station code="ARMT" name="ARMT" netid="KO" insttype="CMG-5T" commtype="DIG" lat="40.5683" lon="28.866">
    <comp name="--.HNZ">
      <acc value="0.3300832020" flag="0"/>
      <vel value="0.3648452836" flag="0"/>
      <psa03 value="1.1292628048" flag="0"/>
      <psa10 value="0.4037180474" flag="0"/>
      <psa30 value="0.0637469721" flag="0"/>
    </comp>
    <comp name="--.HNN">
      <acc value="0.8300096454" flag="0"/>
      <vel value="0.5953524153" flag="0"/>
      <psa03 value="2.6899404195" flag="0"/>
      <psa10 value="1.5378399955" flag="0"/>
      <psa30 value="0.0641941423" flag="0"/>
    </comp>
  </station>
  <station code="ARMU" name="ARMU" netid="KO" insttype="SA10" commtype="DIG" lat="40.5088" lon="28.838">
    <comp name="--.HNE">
      <acc value="0.9709712553" flag="0"/>
      <vel value="0.5313776916" flag="0"/>
      <psa03 value="3.1844027892" flag="0"/>
      <psa10 value="0.5103495493" flag="0"/>
      <psa30 value="0.0753242115" flag="0"/>
    </comp>
    <comp name="--.HNN">
      <acc value="1.9929704214" flag="0"/>
      <vel value="0.8972656354" flag="0"/>
      <psa03 value="7.6682159553" flag="0"/>
      <psa10 value="0.7114055054" flag="0"/>
      <psa30 value="0.0741327907" flag="0"/>
    </comp>
    <comp name="--.HNZ">
      <acc value="0.3880004785" flag="0"/>
      <vel value="0.2435115035" flag="0"/>
      <psa03 value="0.7632333517" flag="0"/>
      <psa10 value="0.3211476101" flag="0"/>
      <psa30 value="0.0589101099" flag="0"/>
    </comp>
  </station>
  <station code="ASYA" name="ASYA" netid="KO" insttype="SA10" commtype="DIG" lat="40.8956" lon="27.465">
    <comp name="--.HNZ">
      <acc value="0.2789145269" flag="0"/>
      <vel value="0.1874701557" flag="0"/>
      <psa03 value="1.0835493932" flag="0"/>
      <psa10 value="0.1623529449" flag="0"/>
      <psa30 value="0.0275533284" flag="0"/>
    </comp>
    <comp name="--.HNE">
      <acc value="0.7831326050" flag="0"/>
      <vel value="0.6584642856" flag="0"/>
      <psa03 value="1.5642426250" flag="0"/>
      <psa10 value="0.8782210679" flag="0"/>
      <psa30 value="0.1052263969" flag="0"/>
    </comp>
    <comp name="--.HNN">
      <acc value="0.8236842911" flag="0"/>
      <vel value="0.5234540752" flag="0"/>
      <psa03 value="1.8186459140" flag="0"/>
      <psa10 value="0.7680129854" flag="0"/>
      <psa30 value="0.0846162429" flag="0"/>
    </comp>
  </station>
  <station code="ATAM" name="ATAM" netid="KO" insttype="SA10" commtype="DIG" lat="40.9688" lon="28.875">
    <comp name="--.HNE">
      <acc value="0.5823389260" flag="0"/>
      <vel value="0.4177635965" flag="0"/>
      <psa03 value="1.7184570183" flag="0"/>
      <psa10 value="0.8909928523" flag="0"/>
      <psa30 value="0.0947719745" flag="0"/>
    </comp>
    <comp name="--.HNZ">
      <acc value="0.1825024715" flag="0"/>
      <vel value="0.2220988152" flag="0"/>
      <psa03 value="0.4504545342" flag="0"/>
      <psa10 value="0.5794953618" flag="0"/>
      <psa30 value="0.0406694733" flag="0"/>
    </comp>
    <comp name="--.HNN">
      <acc value="0.4509626503" flag="0"/>
      <vel value="0.6542415029" flag="0"/>
      <psa03 value="1.5270151192" flag="0"/>
      <psa10 value="1.2748321935" flag="0"/>
      <psa30 value="0.1148488248" flag="0"/>
    </comp>
  </station>
  <station code="AVCI" name="AVCI" netid="KO" insttype="CMG-5T" commtype="DIG" lat="40.9958" lon="28.7225">
    <comp name="--.HNZ">
      <acc value="0.2016775226" flag="0"/>
      <vel value="0.2049095414" flag="0"/>
      <psa03 value="0.6955998358" flag="0"/>
      <psa10 value="0.4401469609" flag="0"/>
      <psa30 value="0.0661127654" flag="0"/>
    </comp>
    <comp name="--.HNE">
      <acc value="0.4034732255" flag="0"/>
      <vel value="0.5034251796" flag="0"/>
      <psa03 value="1.0868062830" flag="0"/>
      <psa10 value="1.0655108407" flag="0"/>
      <psa30 value="0.1638885543" flag="0"/>
    </comp>
    <comp name="--.HNN">
      <acc value="0.3667627351" flag="0"/>
      <vel value="0.4774120784" flag="0"/>
      <psa03 value="0.7583996614" flag="0"/>
      <psa10 value="1.0179568074" flag="0"/>
      <psa30 value="0.2061350343" flag="0"/>
    </comp>
  </station>
  <station code="BALB" name="BALB" netid="KO" insttype="CMG-5T" commtype="DIG" lat="39.6507" lon="27.8642">
    <comp name="--.HNN">
      <acc value="2.6260659407" flag="0"/>
      <vel value="1.7952209872" flag="0"/>
      <psa03 value="6.0676691319" flag="0"/>
      <psa10 value="1.8579751034" flag="0"/>
      <psa30 value="0.2001288398" flag="0"/>
    </comp>
    <comp name="--.HNZ">
      <acc value="2.0852642822" flag="0"/>
      <vel value="1.0565457516" flag="0"/>
      <psa03 value="4.0811330436" flag="0"/>
      <psa10 value="1.2702860131" flag="0"/>
      <psa30 value="0.1997056191" flag="0"/>
    </comp>
    <comp name="--.HNE">
      <acc value="2.6748070531" flag="0"/>
      <vel value="1.8089321077" flag="0"/>
      <psa03 value="6.5752718413" flag="0"/>
      <psa10 value="2.7957088995" flag="0"/>
      <psa30 value="0.3186815166" flag="0"/>
    </comp>
  </station>
  <station code="BIGA" name="BIGA" netid="KO" insttype="CMG-5T" commtype="DIG" lat="40.2813" lon="27.1505">
    <comp name="--.HNN">
      <acc value="1.0821771849" flag="0"/>
      <vel value="0.6310628342" flag="0"/>
      <psa03 value="4.1484822516" flag="0"/>
      <psa10 value="1.0537261278" flag="0"/>
      <psa30 value="0.0630641982" flag="0"/>
    </comp>
    <comp name="--.HNE">
      <acc value="0.9578014165" flag="0"/>
      <vel value="0.8148325624" flag="0"/>
      <psa03 value="3.4843663718" flag="0"/>
      <psa10 value="0.9597187928" flag="0"/>
      <psa30 value="0.0874646530" flag="0"/>
    </comp>
    <comp name="--.HNZ">
      <acc value="0.4413773335" flag="0"/>
      <vel value="0.2431366243" flag="0"/>
      <psa03 value="0.5785661159" flag="0"/>
      <psa10 value="0.2414815939" flag="0"/>
      <psa30 value="0.0491798892" flag="0"/>
    </comp>
  </station>
  <station code="BMYO" name="BMYO" netid="KO" insttype="CMG-5T" commtype="DIG" lat="39.8098" lon="26.6009">
    <comp name="--.HNE">
      <acc value="1.1674214983" flag="0"/>
      <vel value="0.9195736204" flag="0"/>
      <psa03 value="2.9905381669" flag="0"/>
      <psa10 value="1.7125857166" flag="0"/>
      <psa30 value="0.1457608571" flag="0"/>
    </comp>
    <comp name="--.HNN">
      <acc value="1.6814274626" flag="0"/>
      <vel value="0.9186358186" flag="0"/>
      <psa03 value="4.2890012161" flag="0"/>
      <psa10 value="0.7002080821" flag="0"/>
      <psa30 value="0.1622495625" flag="0"/>
    </comp>
    <comp name="--.HNZ">
      <acc value="0.4357941178" flag="0"/>
      <vel value="0.4374624678" flag="0"/>
      <psa03 value="1.5149807043" flag="0"/>
      <psa10 value="0.9236887399" flag="0"/>
      <psa30 value="0.0608029625" flag="0"/>
    </comp>
  </station>
  <station code="BOTS" name="BOTS" netid="KO" insttype="CMG-5T" commtype="DIG" lat="40.9902" lon="27.981">
    <comp name="--.HNE">
      <acc value="0.3802095291" flag="0"/>
      <vel value="0.3159448685" flag="0"/>
      <psa03 value="0.9014350822" flag="0"/>
      <psa10 value="0.5400752953" flag="0"/>
      <psa30 value="0.0585627516" flag="0"/>
    </comp>
    <comp name="--.HNZ">
      <acc value="0.1397683504" flag="0"/>
      <vel value="0.2179329343" flag="0"/>
      <psa03 value="0.3839743966" flag="0"/>
      <psa10 value="0.2850363143" flag="0"/>
      <psa30 value="0.0347954027" flag="0"/>
    </comp>
  </station>
  <station code="BRGA" name="BRGA" netid="KO" insttype="CMG-5T" commtype="DIG" lat="40.8846" lon="29.065">
    <comp name="--.HNE">
      <acc value="0.3533028395" flag="0"/>
      <vel value="0.3241413201" flag="0"/>
      <psa03 value="0.8090106201" flag="0"/>
      <psa10 value="0.5592904491" flag="0"/>
      <psa30 value="0.0467877616" flag="0"/>
    </comp>
    <comp name="--.HNN">
      <acc value="0.4634516211" flag="0"/>
      <vel value="0.4130676180" flag="0"/>
      <psa03 value="0.9773039812" flag="0"/>
      <psa10 value="0.5258082541" flag="0"/>
      <psa30 value="0.0554788656" flag="0"/>
    </comp>
    <comp name="--.HNZ">
      <acc value="0.2142442473" flag="0"/>
      <vel value="0.1596431567" flag="0"/>
      <psa03 value="0.3723696474" flag="0"/>
      <psa10 value="0.1742779653" flag="0"/>
      <psa30 value="0.0225179725" flag="0"/>
    </comp>
  </station>
  <station code="BUYK" name="BUYK" netid="KO" insttype="SA10" commtype="DIG" lat="41.0168" lon="28.5828">
    <comp name="--.HNE">
      <acc value="0.5010951175" flag="0"/>
      <vel value="0.6837319425" flag="0"/>
      <psa03 value="1.1966978200" flag="0"/>
      <psa10 value="1.6539860757" flag="0"/>
      <psa30 value="0.1282464290" flag="0"/>
    </comp>
    <comp name="--.HNZ">
      <acc value="0.3161143919" flag="0"/>
      <vel value="0.3676094738" flag="0"/>
      <psa03 value="0.5983043398" flag="0"/>
      <psa10 value="1.0044544998" flag="0"/>
      <psa30 value="0.0395943830" flag="0"/>
    </comp>
    <comp name="--.HNN">
      <acc value="0.5783034924" flag="0"/>
      <vel value="0.8211320773" flag="0"/>
      <psa03 value="1.3158835043" flag="0"/>
      <psa10 value="2.2523097997" flag="0"/>
      <psa30 value="0.1056058760" flag="0"/>
    </comp>
  </station>
  <station code="BYKA" name="BYKA" netid="KO" insttype="SA10" commtype="DIG" lat="40.8738" lon="29.1251">
    <comp name="--.HNE">
      <acc value="0.4172820812" flag="0"/>
      <vel value="0.3010273565" flag="0"/>
      <psa03 value="1.3616499562" flag="0"/>
      <psa10 value="0.5022520574" flag="0"/>
      <psa30 value="0.0361687909" flag="0"/>
    </comp>
    <comp name="--.HNZ">
      <acc value="0.1603508189" flag="0"/>
      <vel value="0.1334787031" flag="0"/>
      <psa03 value="0.3869551445" flag="0"/>
      <psa10 value="0.2006133008" flag="0"/>
      <psa30 value="0.0182877068" flag="0"/>
    </comp>
    <comp name="--.HNN">
      <acc value="0.3935464586" flag="0"/>
      <vel value="0.3314178718" flag="0"/>
      <psa03 value="1.2013913669" flag="0"/>
      <psa10 value="0.5314683487" flag="0"/>
      <psa30 value="0.0513292663" flag="0"/>
    </comp>
  </station>
  <station code="CADB" name="CADB" netid="KO" insttype="SA10" commtype="DIG" lat="40.9534" lon="29.083">
    <comp name="--.HNE">
      <acc value="0.4738917226" flag="0"/>
      <vel value="0.1538495547" flag="0"/>
      <psa03 value="0.7022136296" flag="0"/>
      <psa10 value="0.2165438952" flag="0"/>
      <psa30 value="0.0225703056" flag="0"/>
    </comp>
    <comp name="--.HNN">
      <acc value="0.3490034360" flag="0"/>
      <vel value="0.1739662775" flag="0"/>
      <psa03 value="0.6310076275" flag="0"/>
      <psa10 value="0.1883247612" flag="0"/>
      <psa30 value="0.0389212360" flag="0"/>
    </comp>
    <comp name="--.HNZ">
      <acc value="0.1537736133" flag="0"/>
      <vel value="0.0867847234" flag="0"/>
      <psa03 value="0.4071467065" flag="0"/>
      <psa10 value="0.1248828182" flag="0"/>
      <psa30 value="0.0137126464" flag="0"/>
    </comp>
  </station>
  <station code="CANM" name="CANM" netid="KO" insttype="CMG-5T" commtype="DIG" lat="40.0113" lon="27.0529">
    <comp name="--.HNN">
      <acc value="1.0266384357" flag="0"/>
      <vel value="0.8185937049" flag="0"/>
      <psa03 value="2.3732377960" flag="0"/>
      <psa10 value="1.6427792060" flag="0"/>
      <psa30 value="0.1147478883" flag="0"/>
    </comp>
    <comp name="--.HNZ">
      <acc value="0.6646709006" flag="0"/>
      <vel value="0.4684152784" flag="0"/>
      <psa03 value="1.4273767093" flag="0"/>
      <psa10 value="0.5554770994" flag="0"/>
      <psa30 value="0.0837881291" flag="0"/>
    </comp>
    <comp name="--.HNE">
      <acc value="0.6750549361" flag="0"/>
      <vel value="0.5990548428" flag="0"/>
      <psa03 value="1.7207440068" flag="0"/>
      <psa10 value="1.1964364747" flag="0"/>
      <psa30 value="0.0776117975" flag="0"/>
    </comp>
  </station>
  <station code="CRLU" name="CRLU" netid="KO" insttype="SA10" commtype="DIG" lat="41.1428" lon="27.8215">
    <comp name="--.HNE">
      <acc value="0.4937248565" flag="0"/>
      <vel value="0.5579123517" flag="0"/>
      <psa03 value="1.0804459130" flag="0"/>
      <psa10 value="0.9023204540" flag="0"/>
      <psa30 value="0.1440753491" flag="0"/>
    </comp>
    <comp name="--.HNZ">
      <acc value="0.3335081781" flag="0"/>
      <vel value="0.4878499068" flag="0"/>
      <psa03 value="0.6263379744" flag="0"/>
      <psa10 value="0.7390245368" flag="0"/>
      <psa30 value="0.0735393636" flag="0"/>
    </comp>
    <comp name="--.HNN">
      <acc value="0.7066787933" flag="0"/>
      <vel value="0.8500404304" flag="0"/>
      <psa03 value="1.7744400682" flag="0"/>
      <psa10 value="1.1037255859" flag="0"/>
      <psa30 value="0.1885241676" flag="0"/>
    </comp>
  </station>
  <station code="CYAG" name="CYAG" netid="KO" insttype="SA10" commtype="DIG" lat="40.4924" lon="27.9761">
    <comp name="--.HNE">
      <acc value="1.0832667983" flag="0"/>
      <vel value="0.5282421573" flag="0"/>
      <psa03 value="1.5259592285" flag="0"/>
      <psa10 value="0.7078039306" flag="0"/>
      <psa30 value="0.0538473746" flag="0"/>
    </comp>
    <comp name="--.HNN">
      <acc value="0.8725998360" flag="0"/>
      <vel value="0.5967289947" flag="0"/>
      <psa03 value="2.1561689555" flag="0"/>
      <psa10 value="0.6591894485" flag="0"/>
      <psa30 value="0.0439327454" flag="0"/>
    </comp>
    <comp name="--.HNZ">
      <acc value="0.5034495416" flag="0"/>
      <vel value="0.3275732670" flag="0"/>
      <psa03 value="0.8360499650" flag="0"/>
      <psa10 value="0.3711362288" flag="0"/>
      <psa30 value="0.0489238850" flag="0"/>
    </comp>
  </station>
  <station code="DEGR" name="DEGR" netid="KO" insttype="SA10" commtype="DIG" lat="40.4518" lon="27.1547">
    <comp name="--.HNN">
      <acc value="1.8136032858" flag="0"/>
      <vel value="0.9265378343" flag="0"/>
      <psa03 value="7.6238475932" flag="0"/>
      <psa10 value="0.9893481062" flag="0"/>
      <psa30 value="0.0857108756" flag="0"/>
    </comp>
    <comp name="--.HNZ">
      <acc value="0.4518457333" flag="0"/>
      <vel value="0.5700104361" flag="0"/>
      <psa03 value="1.0687231666" flag="0"/>
      <psa10 value="0.8360780007" flag="0"/>
      <psa30 value="0.0560483812" flag="0"/>
    </comp>
  </station>
  <station code="DGNL" name="DGNL" netid="KO" insttype="SA10" commtype="DIG" lat="40.5209" lon="27.7484">
    <comp name="--.HNE">
      <acc value="0.6452192890" flag="0"/>
      <vel value="0.3587536408" flag="0"/>
      <psa03 value="0.9031376434" flag="0"/>
      <psa10 value="0.8323325733" flag="0"/>
      <psa30 value="0.0709763992" flag="0"/>
    </comp>
    <comp name="--.HNN">
      <acc value="0.4278509585" flag="0"/>
      <vel value="0.4741306645" flag="0"/>
      <psa03 value="0.5915427506" flag="0"/>
      <psa10 value="0.5998933877" flag="0"/>
      <psa30 value="0.0624507404" flag="0"/>
    </comp>
    <comp name="--.HNZ">
      <acc value="0.3497991457" flag="0"/>
      <vel value="0.3476091808" flag="0"/>
      <psa03 value="0.7005681527" flag="0"/>
      <psa10 value="0.4704136913" flag="0"/>
      <psa30 value="0.0522565117" flag="0"/>
    </comp>
  </station>
  <station code="DST" name="DST" netid="KO" insttype="CMG-5T" commtype="DIG" lat="39.6041" lon="28.6267">
    <comp name="--.HNZ">
      <acc value="1.7829314720" flag="0"/>
      <vel value="1.0456151941" flag="0"/>
      <psa03 value="3.3664751777" flag="0"/>
      <psa10 value="0.4375588365" flag="0"/>
      <psa30 value="0.5179910762" flag="0"/>
    </comp>
    <comp name="--.HNE">
      <acc value="1.8988662363" flag="0"/>
      <vel value="1.3429258513" flag="0"/>
      <psa03 value="3.7254528132" flag="0"/>
      <psa10 value="0.6771646406" flag="0"/>
      <psa30 value="0.4843265581" flag="0"/>
    </comp>
    <comp name="--.HNN">
      <acc value="2.0540604844" flag="0"/>
      <vel value="1.1777813572" flag="0"/>
      <psa03 value="3.8035185551" flag="0"/>
      <psa10 value="0.8863275309" flag="0"/>
      <psa30 value="0.3311031413" flag="0"/>
    </comp>
  </station>
  <station code="ESKY" name="ESKY" netid="KO" insttype="CMG-5T" commtype="DIG" lat="40.5918" lon="28.9071">
    <comp name="--.HNE">
      <acc value="0.8173003723" flag="0"/>
      <vel value="0.5749588761" flag="0"/>
      <psa03 value="2.9630732489" flag="0"/>
      <psa10 value="0.6576731581" flag="0"/>
      <psa30 value="0.0673950483" flag="0"/>
    </comp>
    <comp name="--.HNN">
      <acc value="0.9975590391" flag="0"/>
      <vel value="0.6426570749" flag="0"/>
      <psa03 value="3.7090456375" flag="0"/>
      <psa10 value="1.1041227502" flag="0"/>
      <psa30 value="0.1107644055" flag="0"/>
    </comp>
    <comp name="--.HNZ">
      <acc value="0.6762797200" flag="0"/>
      <vel value="0.6011878568" flag="0"/>
      <psa03 value="2.9304514576" flag="0"/>
      <psa10 value="1.1009900797" flag="0"/>
      <psa30 value="0.0804753526" flag="0"/>
    </comp>
  </station>
  <station code="ESNS" name="ESNS" netid="KO" insttype="SA10" commtype="DIG" lat="40.6183" lon="28.9532">
    <comp name="--.HNE">
      <acc value="1.5952302628" flag="0"/>
      <vel value="1.3392330247" flag="0"/>
      <psa03 value="3.1338160826" flag="0"/>
      <psa10 value="1.5850524363" flag="0"/>
      <psa30 value="0.1304026592" flag="0"/>
    </comp>
    <comp name="--.HNN">
      <acc value="0.8186960493" flag="0"/>
      <vel value="0.8131748749" flag="0"/>
      <psa03 value="2.5529329949" flag="0"/>
      <psa10 value="0.7667621447" flag="0"/>
      <psa30 value="0.0699899552" flag="0"/>
    </comp>
    <comp name="--.HNZ">
      <acc value="0.6330016099" flag="0"/>
      <vel value="0.4630165618" flag="0"/>
      <psa03 value="2.2974862768" flag="0"/>
      <psa10 value="0.4507657621" flag="0"/>
      <psa30 value="0.1102572132" flag="0"/>
    </comp>
  </station>
