<?xml version="1.0" encoding="UTF-8" standalone="yes"?>
<!DOCTYPE earthquake SYSTEM "stationlist.dtd">
<stationlist created="" xmlns="ch.ethz.sed.shakemap.usgs.xml">
  <station code="KRL1" name="KRL1" netid="HI" insttype="CMG-5TD,ACCELEROMETER,GURALP" commtype="DIG" lat="37.7951" lon="26.7065">
    <comp name="--.HNE">
      <acc value="0.2814946683" flag="0"/>
      <vel value="0.3046678128" flag="0"/>
      <psa03 value="0.8473436321" flag="0"/>
      <psa10 value="0.3663345421" flag="0"/>
      <psa30 value="0.0761710761" flag="0"/>
    </comp>
    <comp name="--.HNN">
      <acc value="0.1868534439" flag="0"/>
      <vel value="0.2143843700" flag="0"/>
      <psa03 value="0.5116257272" flag="0"/>
      <psa10 value="0.4243283319" flag="0"/>
      <psa30 value="0.0734736631" flag="0"/>
    </comp>
    <comp name="--.HNZ">
      <acc value="0.1343916330" flag="0"/>
      <vel value="0.1391567622" flag="0"/>
      <psa03 value="0.3463832924" flag="0"/>
      <psa10 value="0.1767639000" flag="0"/>
      <psa30 value="0.0321877787" flag="0"/>
    </comp>
  </station>
  <station code="MYT1" name="MYT1" netid="HI" insttype="CMG-5TD,ACCELEROMETER,GURALP" commtype="DIG" lat="39.085" lon="26.5694">
    <comp name="--.HNZ">
      <acc value="0.5294106668" flag="0"/>
      <vel value="0.5379339321" flag="0"/>
      <psa03 value="1.1830549271" flag="0"/>
      <psa10 value="0.6728797720" flag="0"/>
      <psa30 value="0.0826860365" flag="0"/>
    </comp>
    <comp name="--.HNN">
      <acc value="0.9002155747" flag="0"/>
      <vel value="1.1751998845" flag="0"/>
      <psa03 value="2.1151206970" flag="0"/>
      <psa10 value="1.6457232932" flag="0"/>
      <psa30 value="0.1801888721" flag="0"/>
    </comp>
    <comp name="--.HNE">
      <acc value="1.0479376745" flag="0"/>
      <vel value="1.0693297709" flag="0"/>
      <psa03 value="3.1886213301" flag="0"/>
      <psa10 value="1.5765778200" flag="0"/>
      <psa30 value="0.1308580240" flag="0"/>
    </comp>
  </station>
  <station code="SGR1" name="SGR1" netid="HI" insttype="unknown" commtype="DIG" lat="39.2114" lon="25.8552">
    <comp name="--.HNE">
      <acc value="0.2691658182" flag="0"/>
      <vel value="0.1984000253" flag="0"/>
      <psa03 value="0.8952347000" flag="0"/>
      <psa10 value="0.2501032926" flag="0"/>
      <psa30 value="0.0409626542" flag="0"/>
    </comp>
    <comp name="--.HNZ">
      <acc value="0.1225265773" flag="0"/>
      <vel value="0.0815472782" flag="0"/>
      <psa03 value="0.3765777119" flag="0"/>
      <psa10 value="0.0871364446" flag="0"/>
      <psa30 value="0.0066595503" flag="0"/>
    </comp>
    <comp name="--.HNN">
      <acc value="0.2323687829" flag="0"/>
      <vel value="0.2247029293" flag="0"/>
      <psa03 value="0.6258152755" flag="0"/>
      <psa10 value="0.4553135060" flag="0"/>
      <psa30 value="0.0450567757" flag="0"/>
    </comp>
  </station>
  <station code="PRK" name="PRK" netid="HL" insttype="120" commtype="DIG" lat="39.2456" lon="26.265">
    <comp name="--.HHN">
      <acc value="0.3931860942" flag="0"/>
      <vel value="0.3946365184" flag="0"/>
      <psa03 value="1.0651886548" flag="0"/>
      <psa10 value="0.4576652806" flag="0"/>
      <psa30 value="0.1179974911" flag="0"/>
    </comp>
    <comp name="--.HHE">
      <acc value="0.5307370004" flag="0"/>
      <vel value="0.4407561673" flag="0"/>
      <psa03 value="2.0181303605" flag="0"/>
      <psa10 value="0.9350111686" flag="0"/>
      <psa30 value="0.0653008641" flag="0"/>
    </comp>
    <comp name="--.HHZ">
      <acc value="0.4995082386" flag="0"/>
      <vel value="0.4575452343" flag="0"/>
      <psa03 value="1.2714747250" flag="0"/>
      <psa10 value="0.6042867141" flag="0"/>
      <psa30 value="0.0903796137" flag="0"/>
    </comp>
  </station>
  <station code="SMG" name="SMG" netid="HL" insttype="120" commtype="DIG" lat="37.7043" lon="26.8377">
    <comp name="--.HHN">
      <acc value="0.2198549023" flag="0"/>
      <vel value="0.2519242329" flag="0"/>
      <psa03 value="0.7318910864" flag="0"/>
      <psa10 value="0.1739372232" flag="0"/>
      <psa30 value="0.0423506653" flag="0"/>
    </comp>
    <comp name="--.HHE">
      <acc value="0.2824893910" flag="0"/>
      <vel value="0.1760895554" flag="0"/>
      <psa03 value="0.9572043673" flag="0"/>
      <psa10 value="0.2078340836" flag="0"/>
      <psa30 value="0.0245887849" flag="0"/>
    </comp>
    <comp name="--.HHZ">
      <acc value="0.0894933243" flag="0"/>
      <vel value="0.0749726426" flag="0"/>
      <psa03 value="0.2493059625" flag="0"/>
      <psa10 value="0.0864070764" flag="0"/>
      <psa30 value="0.0147220582" flag="0"/>
    </comp>
  </station>
  <station code="AMPK" name="AMPK" netid="HT" insttype="120" commtype="DIG" lat="39.0574" lon="26.313">
    <comp name="--.HHE">
      <acc value="0.7039587497" flag="0"/>
      <vel value="0.3525719886" flag="0"/>
      <psa03 value="1.0636854991" flag="0"/>
      <psa10 value="0.3148510680" flag="0"/>
      <psa30 value="0.0391000577" flag="0"/>
    </comp>
    <comp name="--.HHZ">
      <acc value="0.2677874468" flag="0"/>
      <vel value="0.1788837927" flag="0"/>
      <psa03 value="0.4707253611" flag="0"/>
      <psa10 value="0.2684603832" flag="0"/>
      <psa30 value="0.0467118382" flag="0"/>
    </comp>
    <comp name="--.HHN">
      <acc value="0.7916461889" flag="0"/>
      <vel value="0.4203532060" flag="0"/>
      <psa03 value="1.2006498090" flag="0"/>
      <psa10 value="0.2450079652" flag="0"/>
      <psa30 value="0.1273629328" flag="0"/>
    </comp>
  </station>
  <station code="CHOS" name="CHOS" netid="HT" insttype="100" commtype="DIG" lat="38.3869" lon="26.0506">
    <comp name="--.HHE">
      <acc value="0.3717745620" flag="0"/>
      <vel value="0.3959137294" flag="0"/>
      <psa03 value="0.7645153041" flag="0"/>
      <psa10 value="0.8104393865" flag="0"/>
      <psa30 value="0.0870443657" flag="0"/>
    </comp>
    <comp name="--.HHN">
      <acc value="0.2807290864" flag="0"/>
      <vel value="0.2502916744" flag="0"/>
      <psa03 value="0.5704242557" flag="0"/>
      <psa10 value="0.2605490715" flag="0"/>
      <psa30 value="0.1105325527" flag="0"/>
    </comp>
    <comp name="--.HHZ">
      <acc value="0.1615668769" flag="0"/>
      <vel value="0.1419522243" flag="0"/>
      <psa03 value="0.3866393240" flag="0"/>
      <psa10 value="0.3903021608" flag="0"/>
      <psa30 value="0.0544701957" flag="0"/>
    </comp>
  </station>
  <station code="LES3" name="LES3" netid="HT" insttype="" commtype="DIG" lat="39.3032" lon="26.1807">
    <comp name="--.HHN">
      <acc value="0.3560671525" flag="0"/>
      <vel value="0.2227936612" flag="0"/>
      <psa03 value="1.0208523872" flag="0"/>
      <psa10 value="0.2795545531" flag="0"/>
      <psa30 value="0.0936585991" flag="0"/>
    </comp>
    <comp name="--.HHE">
      <acc value="0.3144000550" flag="0"/>
      <vel value="0.1669848736" flag="0"/>
      <psa03 value="0.7419236441" flag="0"/>
      <psa10 value="0.1867732356" flag="0"/>
      <psa30 value="0.0270728382" flag="0"/>
    </comp>
    <comp name="--.HHZ">
      <acc value="0.1929050185" flag="0"/>
      <vel value="0.1134024436" flag="0"/>
      <psa03 value="0.5215906371" flag="0"/>
      <psa10 value="0.1225995602" flag="0"/>
      <psa30 value="0.0429781762" flag="0"/>
    </comp>
  </station>
  <station code="SIGR" name="SIGR" netid="HT" insttype="100" commtype="DIG" lat="39.2114" lon="25.8553">
    <comp name="--.HHE">
      <acc value="0.2600719889" flag="0"/>
      <vel value="0.1980322192" flag="0"/>
      <psa03 value="0.8814565590" flag="0"/>
      <psa10 value="0.2273249822" flag="0"/>
      <psa30 value="0.0399124355" flag="0"/>
    </comp>
    <comp name="--.HHZ">
      <acc value="0.1417277195" flag="0"/>
      <vel value="0.0900244025" flag="0"/>
      <psa03 value="0.4309937743" flag="0"/>
      <psa10 value="0.0901750913" flag="0"/>
      <psa30 value="0.0068237200" flag="0"/>
    </comp>
    <comp name="--.HHN">
      <acc value="0.2985281704" flag="0"/>
      <vel value="0.2400514768" flag="0"/>
      <psa03 value="0.7539990131" flag="0"/>
      <psa10 value="0.4975741918" flag="0"/>
      <psa30 value="0.0484269902" flag="0"/>
    </comp>
  </station>
  <station code="AKS" name="AKS" netid="KO" insttype="CMG-5T" commtype="DIG" lat="38.8785" lon="27.8129">
    <comp name="--.HNE">
      <acc value="2.7033956264" flag="0"/>
      <vel value="1.2880818160" flag="0"/>
      <psa03 value="7.8059214771" flag="0"/>
      <psa10 value="1.3576003074" flag="0"/>
      <psa30 value="0.1954497921" flag="0"/>
    </comp>
    <comp name="--.HNZ">
      <acc value="1.4281058535" flag="0"/>
      <vel value="0.6905860792" flag="0"/>
      <psa03 value="1.8199775192" flag="0"/>
      <psa10 value="0.4970561786" flag="0"/>
      <psa30 value="0.1354173671" flag="0"/>
    </comp>
    <comp name="--.HNN">
      <acc value="2.8903271038" flag="0"/>
      <vel value="1.3254364416" flag="0"/>
      <psa03 value="10.4636706191" flag="0"/>
      <psa10 value="1.2434084193" flag="0"/>
      <psa30 value="0.1822068430" flag="0"/>
    </comp>
  </station>
  <station code="ALT" name="ALT" netid="KO" insttype="CMG-5T" commtype="DIG" lat="39.0541" lon="30.1104">
    <comp name="--.HNE">
      <acc value="0.2559854492" flag="0"/>
      <vel value="0.2172324614" flag="0"/>
      <psa03 value="0.4615826812" flag="0"/>
      <psa10 value="0.1593226696" flag="0"/>
      <psa30 value="0.0693337947" flag="0"/>
    </comp>
    <comp name="--.HNN">
      <acc value="0.2840113242" flag="0"/>
      <vel value="0.3077692155" flag="0"/>
      <psa03 value="0.7459104809" flag="0"/>
      <psa10 value="0.1509255729" flag="0"/>
      <psa30 value="0.1259362901" flag="0"/>
    </comp>
    <comp name="--.HNZ">
      <acc value="0.1768242668" flag="0"/>
      <vel value="0.2638173423" flag="0"/>
      <psa03 value="0.3232741909" flag="0"/>
      <psa10 value="0.2367319552" flag="0"/>
      <psa30 value="0.1540540608" flag="0"/>
    </comp>
  </station>
  <station code="ARMT" name="ARMT" netid="KO" insttype="CMG-5T" commtype="DIG" lat="40.5683" lon="28.866">
    <comp name="--.HNZ">
      <acc value="0.3300832026" flag="0"/>
      <vel value="0.3648452834" flag="0"/>
      <psa03 value="1.1292628048" flag="0"/>
      <psa10 value="0.4037180474" flag="0"/>
      <psa30 value="0.0637469727" flag="0"/>
    </comp>
    <comp name="--.HNN">
      <acc value="0.8300096446" flag="0"/>
      <vel value="0.5953524159" flag="0"/>
      <psa03 value="2.6899404195" flag="0"/>
      <psa10 value="1.5378399955" flag="0"/>
      <psa30 value="0.0641941541" flag="0"/>
    </comp>
  </station>
  <station code="ARMU" name="ARMU" netid="KO" insttype="SA10" commtype="DIG" lat="40.5088" lon="28.838">
    <comp name="--.HNZ">
      <acc value="0.3880004788" flag="0"/>
      <vel value="0.2435115027" flag="0"/>
      <psa03 value="0.7632333518" flag="0"/>
      <psa10 value="0.3211476297" flag="0"/>
      <psa30 value="0.0589101695" flag="0"/>
    </comp>
    <comp name="--.HNE">
      <acc value="0.9709712557" flag="0"/>
      <vel value="0.5313776894" flag="0"/>
      <psa03 value="3.1844027892" flag="0"/>
      <psa10 value="0.5103495494" flag="0"/>
      <psa30 value="0.0753242089" flag="0"/>
    </comp>
    <comp name="--.HNN">
      <acc value="1.9929704218" flag="0"/>
      <vel value="0.8972656324" flag="0"/>
      <psa03 value="7.6682159553" flag="0"/>
      <psa10 value="0.7114055054" flag="0"/>
      <psa30 value="0.0741328016" flag="0"/>
    </comp>
  </station>
  <station code="ASYA" name="ASYA" netid="KO" insttype="SA10" commtype="DIG" lat="40.8956" lon="27.465">
    <comp name="--.HNE">
      <acc value="0.7831326048" flag="0"/>
      <vel value="0.6584642958" flag="0"/>
      <psa03 value="1.5642426250" flag="0"/>
      <psa10 value="0.8782210679" flag="0"/>
      <psa30 value="0.1052260619" flag="0"/>
    </comp>
    <comp name="--.HNN">
      <acc value="0.8236842918" flag="0"/>
      <vel value="0.5234540853" flag="0"/>
      <psa03 value="1.8186459140" flag="0"/>
      <psa10 value="0.7680129854" flag="0"/>
      <psa30 value="0.0846161213" flag="0"/>
    </comp>
    <comp name="--.HNZ">
      <acc value="0.2789145271" flag="0"/>
      <vel value="0.1874701561" flag="0"/>
      <psa03 value="1.0835493932" flag="0"/>
      <psa10 value="0.1623529449" flag="0"/>
      <psa30 value="0.0275535803" flag="0"/>
    </comp>
  </station>
  <station code="ATAM" name="ATAM" netid="KO" insttype="SA10" commtype="DIG" lat="40.9688" lon="28.875">
    <comp name="--.HNZ">
      <acc value="0.1825024717" flag="0"/>
      <vel value="0.2220988115" flag="0"/>
      <psa03 value="0.4504545342" flag="0"/>
      <psa10 value="0.5794953618" flag="0"/>
      <psa30 value="0.0406694366" flag="0"/>
    </comp>
    <comp name="--.HNE">
      <acc value="0.5823389263" flag="0"/>
      <vel value="0.4177635904" flag="0"/>
      <psa03 value="1.7184570183" flag="0"/>
      <psa10 value="0.8909928523" flag="0"/>
      <psa30 value="0.0947719745" flag="0"/>
    </comp>
  </station>
  <station code="AVCI" name="AVCI" netid="KO" insttype="CMG-5T" commtype="DIG" lat="40.9958" lon="28.7225">
    <comp name="--.HNN">
      <acc value="0.3667627348" flag="0"/>
      <vel value="0.4774120722" flag="0"/>
      <psa03 value="0.7583996614" flag="0"/>
      <psa10 value="1.0179568074" flag="0"/>
      <psa30 value="0.2061350288" flag="0"/>
    </comp>
    <comp name="--.HNE">
      <acc value="0.4034732271" flag="0"/>
      <vel value="0.5034251722" flag="0"/>
      <psa03 value="1.0868062830" flag="0"/>
      <psa10 value="1.0655108407" flag="0"/>
      <psa30 value="0.1638885557" flag="0"/>
    </comp>
    <comp name="--.HNZ">
      <acc value="0.2016775166" flag="0"/>
      <vel value="0.2049095404" flag="0"/>
      <psa03 value="0.6955998358" flag="0"/>
      <psa10 value="0.4401469609" flag="0"/>
      <psa30 value="0.0661127602" flag="0"/>
    </comp>
  </station>
  <station code="BALB" name="BALB" netid="KO" insttype="CMG-5T" commtype="DIG" lat="39.6507" lon="27.8642">
    <comp name="--.HNZ">
      <acc value="2.0852642812" flag="0"/>
      <vel value="1.0565457522" flag="0"/>
      <psa03 value="4.0811330436" flag="0"/>
      <psa10 value="1.2702860122" flag="0"/>
      <psa30 value="0.1997055850" flag="0"/>
    </comp>
    <comp name="--.HNN">
      <acc value="2.6260659395" flag="0"/>
      <vel value="1.7952209892" flag="0"/>
      <psa03 value="6.0676691319" flag="0"/>
      <psa10 value="1.8579751032" flag="0"/>
      <psa30 value="0.2001289797" flag="0"/>
    </comp>
    <comp name="--.HNE">
      <acc value="2.6748070545" flag="0"/>
      <vel value="1.8089321100" flag="0"/>
      <psa03 value="6.5752718413" flag="0"/>
      <psa10 value="2.7957088988" flag="0"/>
      <psa30 value="0.3186814047" flag="0"/>
    </comp>
  </station>
  <station code="BIGA" name="BIGA" netid="KO" insttype="CMG-5T" commtype="DIG" lat="40.2813" lon="27.1505">
    <comp name="--.HNZ">
      <acc value="0.4413773324" flag="0"/>
      <vel value="0.2431366313" flag="0"/>
      <psa03 value="0.5785661159" flag="0"/>
      <psa10 value="0.2414815939" flag="0"/>
      <psa30 value="0.0491779509" flag="0"/>
    </comp>
    <comp name="--.HNE">
      <acc value="0.9578014127" flag="0"/>
      <vel value="0.8148325819" flag="0"/>
      <psa03 value="3.4843663718" flag="0"/>
      <psa10 value="0.9597187930" flag="0"/>
      <psa30 value="0.0874644707" flag="0"/>
    </comp>
    <comp name="--.HNN">
      <acc value="1.0821771683" flag="0"/>
      <vel value="0.6310628356" flag="0"/>
      <psa03 value="4.1484822517" flag="0"/>
      <psa10 value="1.0537261279" flag="0"/>
      <psa30 value="0.0630645673" flag="0"/>
    </comp>
  </station>
  <station code="BMYO" name="BMYO" netid="KO" insttype="CMG-5T" commtype="DIG" lat="39.8098" lon="26.6009">
    <comp name="--.HNN">
      <acc value="1.6814274640" flag="0"/>
      <vel value="0.9186358126" flag="0"/>
      <psa03 value="4.2890012161" flag="0"/>
      <psa10 value="0.7002080821" flag="0"/>
      <psa30 value="0.1622497088" flag="0"/>
    </comp>
    <comp name="--.HNE">
      <acc value="1.1674215017" flag="0"/>
      <vel value="0.9195736116" flag="0"/>
      <psa03 value="2.9905381669" flag="0"/>
      <psa10 value="1.7125857167" flag="0"/>
      <psa30 value="0.1457605199" flag="0"/>
    </comp>
    <comp name="--.HNZ">
      <acc value="0.4357941206" flag="0"/>
      <vel value="0.4374624820" flag="0"/>
      <psa03 value="1.5149807043" flag="0"/>
      <psa10 value="0.9236887399" flag="0"/>
      <psa30 value="0.0608032627" flag="0"/>
    </comp>
  </station>
  <station code="BOTS" name="BOTS" netid="KO" insttype="CMG-5T" commtype="DIG" lat="40.9902" lon="27.981">
    <comp name="--.HNZ">
      <acc value="0.1397683493" flag="0"/>
      <vel value="0.2179329335" flag="0"/>
      <psa03 value="0.3839743966" flag="0"/>
      <psa10 value="0.2850363143" flag="0"/>
      <psa30 value="0.0347954400" flag="0"/>
    </comp>
    <comp name="--.HNE">
      <acc value="0.3802095329" flag="0"/>
      <vel value="0.3159448621" flag="0"/>
      <psa03 value="0.9014350822" flag="0"/>
      <psa10 value="0.5400752953" flag="0"/>
      <psa30 value="0.0585627275" flag="0"/>
    </comp>
  </station>
  <station code="BRGA" name="BRGA" netid="KO" insttype="CMG-5T" commtype="DIG" lat="40.8846" lon="29.065">
    <comp name="--.HNE">
      <acc value="0.3533028344" flag="0"/>
      <vel value="0.3241413182" flag="0"/>
      <psa03 value="0.8090106201" flag="0"/>
      <psa10 value="0.5592904491" flag="0"/>
      <psa30 value="0.0467877538" flag="0"/>
    </comp>
    <comp name="--.HNZ">
      <acc value="0.2142442518" flag="0"/>
      <vel value="0.1596431588" flag="0"/>
      <psa03 value="0.3723696474" flag="0"/>
      <psa10 value="0.1742779621" flag="0"/>
      <psa30 value="0.0225172121" flag="0"/>
    </comp>
    <comp name="--.HNN">
      <acc value="0.4634516220" flag="0"/>
      <vel value="0.4130676185" flag="0"/>
      <psa03 value="0.9773039812" flag="0"/>
      <psa10 value="0.5258082541" flag="0"/>
      <psa30 value="0.0554788222" flag="0"/>
    </comp>
  </station>
  <station code="BUYK" name="BUYK" netid="KO" insttype="SA10" commtype="DIG" lat="41.0168" lon="28.5828">
    <comp name="--.HNZ">
      <acc value="0.3161143915" flag="0"/>
      <vel value="0.3676094773" flag="0"/>
      <psa03 value="0.5983043398" flag="0"/>
      <psa10 value="1.0044544998" flag="0"/>
      <psa30 value="0.0395943631" flag="0"/>
    </comp>
    <comp name="--.HNE">
      <acc value="0.5010951173" flag="0"/>
      <vel value="0.6837319442" flag="0"/>
      <psa03 value="1.1966978200" flag="0"/>
      <psa10 value="1.6539860757" flag="0"/>
      <psa30 value="0.1282463750" flag="0"/>
    </comp>
    <comp name="--.HNN">
      <acc value="0.5783034925" flag="0"/>
      <vel value="0.8211320708" flag="0"/>
      <psa03 value="1.3158835043" flag="0"/>
      <psa10 value="2.2523097997" flag="0"/>
      <psa30 value="0.1056057862" flag="0"/>
    </comp>
  </station>
  <station code="BYKA" name="BYKA" netid="KO" insttype="SA10" commtype="DIG" lat="40.8738" lon="29.1251">
    <comp name="--.HNE">
      <acc value="0.4172820810" flag="0"/>
      <vel value="0.3010273553" flag="0"/>
      <psa03 value="1.3616499562" flag="0"/>
      <psa10 value="0.5022520574" flag="0"/>
      <psa30 value="0.0361688320" flag="0"/>
    </comp>
    <comp name="--.HNN">
      <acc value="0.3935464587" flag="0"/>
      <vel value="0.3314178700" flag="0"/>
      <psa03 value="1.2013913669" flag="0"/>
      <psa10 value="0.5314683487" flag="0"/>
      <psa30 value="0.0513293603" flag="0"/>
    </comp>
    <comp name="--.HNZ">
      <acc value="0.1603508191" flag="0"/>
      <vel value="0.1334787022" flag="0"/>
      <psa03 value="0.3869551445" flag="0"/>
      <psa10 value="0.2006132957" flag="0"/>
      <psa30 value="0.0182874034" flag="0"/>
    </comp>
  </station>
