<?xml version="1.0" encoding="UTF-8" standalone="yes"?>
<!DOCTYPE earthquake SYSTEM "stationlist.dtd">
<stationlist created="" xmlns="ch.ethz.sed.shakemap.usgs.xml">
  <station code="ARPRA" name="ARPRA" netid="KO" insttype="CMG-5T" lat="39.0929" lon="38.3356">
    <comp name="--.HNN">
      <acc value="0.0243975783" flag="0"/>
      <vel value="0.0129470176" flag="0"/>
      <psa03 value="0.0477955759" flag="0"/>
      <psa10 value="0.0229453008" flag="0"/>
      <psa30 value="0.0010939521" flag="0"/>
    </comp>
    <comp name="--.HNZ">
      <acc value="0.0127700281" flag="0"/>
      <vel value="0.0050947235" flag="0"/>
      <psa03 value="0.0241000216" flag="0"/>
      <psa10 value="0.0084222057" flag="0"/>
      <psa30 value="0.0004402572" flag="0"/>
    </comp>
    <comp name="--.HNE">
      <acc value="0.0265839408" flag="0"/>
      <vel value="0.0128212678" flag="0"/>
      <psa03 value="0.0455460190" flag="0"/>
      <psa10 value="0.0252865724" flag="0"/>
      <psa30 value="0.0016509289" flag="0"/>
    </comp>
  </station>
  <station code="DARE" name="DARE" netid="KO" insttype="CMG-3ESP" lat="38.5712" lon="37.4832">
    <comp name="--.HHE">
      <acc value="0.0370148646" flag="0"/>
      <vel value="0.0108883361" flag="0"/>
      <psa03 value="0.0410967466" flag="0"/>
      <psa10 value="0.0095750121" flag="0"/>
      <psa30 value="0.0007830959" flag="0"/>
    </comp>
  </station>
  <station code="SARI" name="SARI" netid="KO" insttype="CMG-3T" lat="38.4072" lon="36.4181">
    <comp name="--.HHN">
      <acc value="0.0137971944" flag="0"/>
      <vel value="0.0067131703" flag="0"/>
      <psa03 value="0.0293255190" flag="0"/>
      <psa10 value="0.0049309376" flag="0"/>
      <psa30 value="0.0002747738" flag="0"/>
    </comp>
    <comp name="--.HHE">
      <acc value="0.0167862660" flag="0"/>
      <vel value="0.0058828736" flag="0"/>
      <psa03 value="0.0371220149" flag="0"/>
      <psa10 value="0.0078987062" flag="0"/>
      <psa30 value="0.0003026882" flag="0"/>
    </comp>
    <comp name="--.HHZ">
      <acc value="0.0118677760" flag="0"/>
      <vel value="0.0056250437" flag="0"/>
      <psa03 value="0.0273014649" flag="0"/>
      <psa10 value="0.0114519917" flag="0"/>
      <psa30 value="0.0003050285" flag="0"/>
    </comp>
  </station>
</stationlist>
