<?xml version="1.0" encoding="UTF-8" standalone="yes"?>
<!DOCTYPE earthquake SYSTEM "stationlist.dtd">
<stationlist created="" xmlns="ch.ethz.sed.shakemap.usgs.xml">
  <station code="SVRC" name="SVRC" netid="KO" insttype="CMG-3T" lat="38.3775" lon="39.306">
    <comp name="--.HHZ">
      <acc value="0.0039690317" flag="0"/>
      <vel value="0.0012955060" flag="0"/>
      <psa03 value="0.0056574221" flag="0"/>
      <psa10 value="0.0008000747" flag="0"/>
      <psa30 value="0.0000469060" flag="0"/>
    </comp>
    <comp name="--.HHE">
      <acc value="0.0064815122" flag="0"/>
      <vel value="0.0018142652" flag="0"/>
      <psa03 value="0.0078801815" flag="0"/>
      <psa10 value="0.0008766024" flag="0"/>
      <psa30 value="0.0000661122" flag="0"/>
    </comp>
  </station>
  <station code="URFA" name="URFA" netid="KO" insttype="CMG-3ESP" lat="37.4409" lon="38.8213">
    <comp name="--.HHE">
      <acc value="0.0065951665" flag="0"/>
      <vel value="0.0018411377" flag="0"/>
      <psa03 value="0.0061599442" flag="0"/>
      <psa10 value="0.0005754132" flag="0"/>
      <psa30 value="0.0000444779" flag="0"/>
    </comp>
    <comp name="--.HHZ">
      <acc value="0.0049919732" flag="0"/>
      <vel value="0.0011327200" flag="0"/>
      <psa03 value="0.0043151928" flag="0"/>
      <psa10 value="0.0004381208" flag="0"/>
      <psa30 value="0.0000279290" flag="0"/>
    </comp>
  </station>
</stationlist>
