<?xml version="1.0" encoding="UTF-8" standalone="yes"?>
<!DOCTYPE earthquake SYSTEM "stationlist.dtd">
<stationlist created="" xmlns="ch.ethz.sed.shakemap.usgs.xml">
  <station code="DIM" name="DIM" netid="BS" insttype="seismometer" commtype="DIG" lat="42.0457" lon="25.5778">
    <comp name="--.HHE">
      <acc value="0.0808088413" flag="0"/>
      <vel value="0.0386338083" flag="0"/>
      <psa03 value="0.0991986993" flag="0"/>
      <psa10 value="0.0257784427" flag="0"/>
      <psa30 value="0.0019579316" flag="0"/>
    </comp>
    <comp name="--.HHN">
      <acc value="0.0528322250" flag="0"/>
      <vel value="0.0258085351" flag="0"/>
      <psa03 value="0.1438839049" flag="0"/>
      <psa10 value="0.0250019203" flag="0"/>
      <psa30 value="0.0011250024" flag="0"/>
    </comp>
    <comp name="--.HHZ">
      <acc value="0.0269391717" flag="0"/>
      <vel value="0.0121186694" flag="0"/>
      <psa03 value="0.0638017620" flag="0"/>
      <psa10 value="0.0093643639" flag="0"/>
      <psa30 value="0.0009810646" flag="0"/>
    </comp>
  </station>
  <station code="KDZ" name="KDZ" netid="BS" insttype="3ESP" commtype="DIG" lat="41.6302" lon="25.3396">
    <comp name="--.HHE">
      <acc value="0.2808596117" flag="0"/>
      <vel value="0.1174525554" flag="0"/>
      <psa03 value="0.3517921370" flag="0"/>
      <psa10 value="0.0287438544" flag="0"/>
      <psa30 value="0.0028476212" flag="0"/>
    </comp>
    <comp name="--.HHN">
      <acc value="0.1876646646" flag="0"/>
      <vel value="0.0711068613" flag="0"/>
      <psa03 value="0.4046361701" flag="0"/>
      <psa10 value="0.0241904729" flag="0"/>
      <psa30 value="0.0020662780" flag="0"/>
    </comp>
    <comp name="--.HHZ">
      <acc value="0.4588567080" flag="0"/>
      <vel value="0.1413356115" flag="0"/>
      <psa03 value="0.6081224636" flag="0"/>
      <psa10 value="0.0265316461" flag="0"/>
      <psa30 value="0.0028887580" flag="0"/>
    </comp>
  </station>
  <station code="MMB" name="MMB" netid="BS" insttype="STS-2" commtype="DIG" lat="41.5469" lon="23.7495">
    <comp name="--.HHE">
      <acc value="0.0367138159" flag="0"/>
      <vel value="0.0118218028" flag="0"/>
      <psa03 value="0.0751072959" flag="0"/>
      <psa10 value="0.0133505916" flag="0"/>
      <psa30 value="0.0008698883" flag="0"/>
    </comp>
    <comp name="--.HHN">
      <acc value="0.0332666686" flag="0"/>
      <vel value="0.0149111764" flag="0"/>
      <psa03 value="0.0471249449" flag="0"/>
      <psa10 value="0.0148369571" flag="0"/>
      <psa30 value="0.0012863508" flag="0"/>
    </comp>
    <comp name="--.HHZ">
      <acc value="0.0274268246" flag="0"/>
      <vel value="0.0094773538" flag="0"/>
      <psa03 value="0.0431203102" flag="0"/>
      <psa10 value="0.0107519797" flag="0"/>
      <psa30 value="0.0005626157" flag="0"/>
    </comp>
  </station>
  <station code="PLD" name="PLD" netid="BS" insttype="CMG40T" commtype="DIG" lat="42.1469" lon="24.7475">
    <comp name="--.HHE">
      <acc value="0.0372623707" flag="0"/>
      <vel value="0.0225323216" flag="0"/>
      <psa03 value="0.0942713950" flag="0"/>
      <psa10 value="0.0128392169" flag="0"/>
      <psa30 value="0.0011374393" flag="0"/>
    </comp>
    <comp name="--.HHN">
      <acc value="0.0341499344" flag="0"/>
      <vel value="0.0127771629" flag="0"/>
      <psa03 value="0.0750723205" flag="0"/>
      <psa10 value="0.0153366250" flag="0"/>
      <psa30 value="0.0007005537" flag="0"/>
    </comp>
    <comp name="--.HHZ">
      <acc value="0.0268350792" flag="0"/>
      <vel value="0.0136652718" flag="0"/>
      <psa03 value="0.0587247385" flag="0"/>
      <psa10 value="0.0197329835" flag="0"/>
      <psa30 value="0.0012323944" flag="0"/>
    </comp>
  </station>
  <station code="RZN" name="RZN" netid="BS" insttype="CMG40T" commtype="DIG" lat="41.6942" lon="24.7388">
    <comp name="--.HHN">
      <acc value="0.6046099364" flag="0"/>
      <vel value="0.1445564385" flag="0"/>
      <psa03 value="0.4447135092" flag="0"/>
      <psa10 value="0.0356914597" flag="0"/>
      <psa30 value="0.0024573599" flag="0"/>
    </comp>
    <comp name="--.HHZ">
      <acc value="0.2597385055" flag="0"/>
      <vel value="0.0693851101" flag="0"/>
      <psa03 value="0.3441565163" flag="0"/>
      <psa10 value="0.0357623195" flag="0"/>
      <psa30 value="0.0035219791" flag="0"/>
    </comp>
    <comp name="--.HHE">
      <acc value="0.3809343100" flag="0"/>
      <vel value="0.1218562571" flag="0"/>
      <psa03 value="0.4616033389" flag="0"/>
      <psa10 value="0.0394636737" flag="0"/>
      <psa30 value="0.0033194403" flag="0"/>
    </comp>
  </station>
  <station code="ALX2" name="ALX2" netid="HI" insttype="unknown" commtype="DIG" lat="40.8454" lon="25.8739">
    <comp name="--.HNZ">
      <acc value="0.0556229157" flag="0"/>
      <vel value="0.0270298048" flag="0"/>
      <psa03 value="0.1197419630" flag="0"/>
      <psa10 value="0.0228760788" flag="0"/>
      <psa30 value="0.0020531606" flag="0"/>
    </comp>
    <comp name="--.HNN">
      <acc value="0.0583522168" flag="0"/>
      <vel value="0.0315602027" flag="0"/>
      <psa03 value="0.1812389945" flag="0"/>
      <psa10 value="0.0206854900" flag="0"/>
      <psa30 value="0.0020237379" flag="0"/>
    </comp>
    <comp name="--.HNE">
      <acc value="0.1019834244" flag="0"/>
      <vel value="0.0455711205" flag="0"/>
      <psa03 value="0.2760857716" flag="0"/>
      <psa10 value="0.0311921192" flag="0"/>
      <psa30 value="0.0019551216" flag="0"/>
    </comp>
  </station>
  <station code="DRA2" name="DRA2" netid="HI" insttype="CMG-5TD,ACCELEROMETER,GURALP" commtype="DIG" lat="41.1593" lon="24.1485">
    <comp name="--.HNE">
      <acc value="0.4195964389" flag="0"/>
      <vel value="0.1042651380" flag="0"/>
      <psa03 value="0.6015182174" flag="0"/>
      <psa10 value="0.0311350361" flag="0"/>
      <psa30 value="0.0022005894" flag="0"/>
    </comp>
    <comp name="--.HNN">
      <acc value="0.2518259555" flag="0"/>
      <vel value="0.0638926383" flag="0"/>
      <psa03 value="0.3703777814" flag="0"/>
      <psa10 value="0.0319025578" flag="0"/>
      <psa30 value="0.0026079803" flag="0"/>
    </comp>
    <comp name="--.HNZ">
      <acc value="0.2247792134" flag="0"/>
      <vel value="0.0569259124" flag="0"/>
      <psa03 value="0.1745974455" flag="0"/>
      <psa10 value="0.0124557625" flag="0"/>
      <psa30 value="0.0014666538" flag="0"/>
    </comp>
  </station>
  <station code="LMN1" name="LMN1" netid="HI" insttype="CMG-5TD,ACCELEROMETER,GURALP" commtype="DIG" lat="39.875" lon="25.0588">
    <comp name="--.HNE">
      <acc value="0.1459113930" flag="0"/>
      <vel value="0.0502593816" flag="0"/>
      <psa03 value="0.3157725124" flag="0"/>
      <psa10 value="0.0235859252" flag="0"/>
      <psa30 value="0.0013500501" flag="0"/>
    </comp>
    <comp name="--.HNN">
      <acc value="0.1349312260" flag="0"/>
      <vel value="0.0515952617" flag="0"/>
      <psa03 value="0.3058806288" flag="0"/>
      <psa10 value="0.0202185211" flag="0"/>
      <psa30 value="0.0013514092" flag="0"/>
    </comp>
    <comp name="--.HNZ">
      <acc value="0.0729875205" flag="0"/>
      <vel value="0.0187277280" flag="0"/>
      <psa03 value="0.0541591760" flag="0"/>
      <psa10 value="0.0047893379" flag="0"/>
      <psa30 value="0.0005402201" flag="0"/>
    </comp>
  </station>
  <station code="SPP1" name="SPP1" netid="HI" insttype="unknown" commtype="DIG" lat="41.0225" lon="25.7013">
    <comp name="--.HNZ">
      <acc value="0.0671119785" flag="0"/>
      <vel value="0.0343523433" flag="0"/>
      <psa03 value="0.1992483384" flag="0"/>
      <psa10 value="0.0380581470" flag="0"/>
      <psa30 value="0.0016845628" flag="0"/>
    </comp>
    <comp name="--.HNN">
      <acc value="0.2861380987" flag="0"/>
      <vel value="0.1318416792" flag="0"/>
      <psa03 value="0.6250553008" flag="0"/>
      <psa10 value="0.0602493302" flag="0"/>
      <psa30 value="0.0053352637" flag="0"/>
    </comp>
    <comp name="--.HNE">
      <acc value="0.2063518026" flag="0"/>
      <vel value="0.0980982831" flag="0"/>
      <psa03 value="0.6094395817" flag="0"/>
      <psa10 value="0.0719244935" flag="0"/>
      <psa30 value="0.0032340171" flag="0"/>
    </comp>
  </station>
  <station code="KOMA" name="KOMA" netid="HL" insttype="CMG-5" commtype="DIG" lat="41.1128" lon="25.3965">
    <comp name="00.HNZ">
      <acc value="0.1634326713" flag="0"/>
      <vel value="0.0247216298" flag="0"/>
      <psa03 value="0.1560112127" flag="0"/>
      <psa10 value="0.0191703442" flag="0"/>
      <psa30 value="0.0019905730" flag="0"/>
    </comp>
    <comp name="00.HNE">
      <acc value="0.1012604948" flag="0"/>
      <vel value="0.0491965487" flag="0"/>
      <psa03 value="0.4147685806" flag="0"/>
      <psa10 value="0.0600779470" flag="0"/>
      <psa30 value="0.0047309322" flag="0"/>
    </comp>
    <comp name="00.HNN">
      <acc value="0.0814331827" flag="0"/>
      <vel value="0.0558362682" flag="0"/>
      <psa03 value="0.3239099165" flag="0"/>
      <psa10 value="0.0508182724" flag="0"/>
      <psa30 value="0.0066031645" flag="0"/>
    </comp>
  </station>
  <station code="PLG" name="PLG" netid="HL" insttype="120" commtype="DIG" lat="40.3733" lon="23.4444">
    <comp name="--.HHE">
      <acc value="0.0560928893" flag="0"/>
      <vel value="0.0218442847" flag="0"/>
      <psa03 value="0.1451429861" flag="0"/>
      <psa10 value="0.0138220339" flag="0"/>
      <psa30 value="0.0007948381" flag="0"/>
    </comp>
    <comp name="--.HHN">
      <acc value="0.0402630109" flag="0"/>
      <vel value="0.0201987567" flag="0"/>
      <psa03 value="0.1398286398" flag="0"/>
      <psa10 value="0.0141043428" flag="0"/>
      <psa30 value="0.0007420216" flag="0"/>
    </comp>
    <comp name="--.HHZ">
      <acc value="0.0335074842" flag="0"/>
      <vel value="0.0123025476" flag="0"/>
      <psa03 value="0.0802515021" flag="0"/>
      <psa10 value="0.0063797560" flag="0"/>
      <psa30 value="0.0006486451" flag="0"/>
    </comp>
  </station>
  <station code="PRAS" name="PRAS" netid="HL" insttype="120" commtype="DIG" lat="41.3524" lon="24.55">
    <comp name="--.HHE">
      <acc value="0.8560151277" flag="0"/>
      <vel value="0.2335350160" flag="0"/>
      <psa03 value="0.8462981019" flag="0"/>
      <psa10 value="0.0801411044" flag="0"/>
      <psa30 value="0.0051724783" flag="0"/>
    </comp>
    <comp name="--.HHN">
      <acc value="0.7569730025" flag="0"/>
      <vel value="0.2897901259" flag="0"/>
      <psa03 value="1.2286138227" flag="0"/>
      <psa10 value="0.1332686601" flag="0"/>
      <psa30 value="0.0106647016" flag="0"/>
    </comp>
    <comp name="--.HHZ">
      <acc value="0.4335943334" flag="0"/>
      <vel value="0.1402008141" flag="0"/>
      <psa03 value="0.4590684852" flag="0"/>
      <psa10 value="0.0683945699" flag="0"/>
      <psa30 value="0.0069311907" flag="0"/>
    </comp>
  </station>
  <station code="RDO" name="RDO" netid="HL" insttype="120" commtype="DIG" lat="41.145" lon="25.5355">
    <comp name="--.HHE">
      <acc value="0.2201358183" flag="0"/>
      <vel value="0.0372893085" flag="0"/>
      <psa03 value="0.1560345552" flag="0"/>
      <psa10 value="0.0081703033" flag="0"/>
      <psa30 value="0.0009661434" flag="0"/>
    </comp>
    <comp name="--.HHN">
      <acc value="0.1925456818" flag="0"/>
      <vel value="0.0352040170" flag="0"/>
      <psa03 value="0.1158557824" flag="0"/>
      <psa10 value="0.0119016281" flag="0"/>
      <psa30 value="0.0011601513" flag="0"/>
    </comp>
    <comp name="--.HHZ">
      <acc value="0.1020960501" flag="0"/>
      <vel value="0.0183450747" flag="0"/>
      <psa03 value="0.0671105013" flag="0"/>
      <psa10 value="0.0091740146" flag="0"/>
      <psa30 value="0.0006709427" flag="0"/>
    </comp>
  </station>
  <station code="ALN" name="ALN" netid="HT" insttype="100" commtype="DIG" lat="40.885" lon="26.046">
    <comp name="--.HHE">
      <acc value="0.0189168966" flag="0"/>
      <vel value="0.0094253538" flag="0"/>
      <psa03 value="0.0508918072" flag="0"/>
      <psa10 value="0.0080169470" flag="0"/>
      <psa30 value="0.0008484803" flag="0"/>
    </comp>
    <comp name="--.HHN">
      <acc value="0.0198033727" flag="0"/>
      <vel value="0.0100170760" flag="0"/>
      <psa03 value="0.0635253421" flag="0"/>
      <psa10 value="0.0112111229" flag="0"/>
      <psa30 value="0.0006904315" flag="0"/>
    </comp>
    <comp name="--.HHZ">
      <acc value="0.0251919217" flag="0"/>
      <vel value="0.0091695999" flag="0"/>
      <psa03 value="0.0588891647" flag="0"/>
      <psa10 value="0.0080825923" flag="0"/>
      <psa30 value="0.0009698274" flag="0"/>
    </comp>
  </station>
  <station code="HMT1" name="HMT1" netid="HT" insttype="Compact," commtype="DIG" lat="40.2581" lon="24.2476">
    <comp name="--.HHE">
      <acc value="0.3936899515" flag="0"/>
      <vel value="0.1319851091" flag="0"/>
      <psa03 value="1.4117575995" flag="0"/>
      <psa10 value="0.0270920490" flag="0"/>
      <psa30 value="0.0029399158" flag="0"/>
    </comp>
    <comp name="--.HHN">
      <acc value="0.4059727205" flag="0"/>
      <vel value="0.1711855639" flag="0"/>
      <psa03 value="1.7816046453" flag="0"/>
      <psa10 value="0.0394478750" flag="0"/>
      <psa30 value="0.0034057060" flag="0"/>
    </comp>
    <comp name="--.HHZ">
      <acc value="0.1210809861" flag="0"/>
      <vel value="0.0472809278" flag="0"/>
      <psa03 value="0.4943646783" flag="0"/>
      <psa10 value="0.0106583754" flag="0"/>
      <psa30 value="0.0019414029" flag="0"/>
    </comp>
  </station>
  <station code="KAVA" name="KAVA" netid="HT" insttype="Compact," commtype="DIG" lat="40.9967" lon="24.5137">
    <comp name="--.HHE">
      <acc value="2.9814533142" flag="0"/>
      <vel value="0.4924344248" flag="0"/>
      <psa03 value="0.8629972963" flag="0"/>
      <psa10 value="0.1368433875" flag="0"/>
      <psa30 value="0.0142448748" flag="0"/>
    </comp>
    <comp name="--.HHN">
      <acc value="1.4202678351" flag="0"/>
      <vel value="0.3709419628" flag="0"/>
      <psa03 value="1.4658720233" flag="0"/>
      <psa10 value="0.1222814418" flag="0"/>
      <psa30 value="0.0098725807" flag="0"/>
    </comp>
    <comp name="--.HHZ">
      <acc value="2.0897162367" flag="0"/>
      <vel value="0.2149621279" flag="0"/>
      <psa03 value="1.1101363532" flag="0"/>
      <psa10 value="0.1127485299" flag="0"/>
      <psa30 value="0.0070099159" flag="0"/>
    </comp>
  </station>
  <station code="KOKK" name="KOKK" netid="HT" insttype="Compact," commtype="DIG" lat="40.8178" lon="23.9992">
    <comp name="--.HHE">
      <acc value="0.2292290600" flag="0"/>
      <vel value="0.1094131007" flag="0"/>
      <psa03 value="0.4577103949" flag="0"/>
      <psa10 value="0.0510735877" flag="0"/>
      <psa30 value="0.0032905949" flag="0"/>
    </comp>
    <comp name="--.HHN">
      <acc value="0.2326770578" flag="0"/>
      <vel value="0.1394461178" flag="0"/>
      <psa03 value="0.5214346423" flag="0"/>
      <psa10 value="0.0639596270" flag="0"/>
      <psa30 value="0.0052706003" flag="0"/>
    </comp>
    <comp name="--.HHZ">
      <acc value="0.2524134111" flag="0"/>
      <vel value="0.0928160737" flag="0"/>
      <psa03 value="0.4657952244" flag="0"/>
      <psa10 value="0.0365940398" flag="0"/>
      <psa30 value="0.0022652827" flag="0"/>
    </comp>
  </station>
  <station code="OUR" name="OUR" netid="HT" insttype="100" commtype="DIG" lat="40.3325" lon="23.9791">
    <comp name="--.HHE">
      <acc value="0.1803912137" flag="0"/>
      <vel value="0.0484714045" flag="0"/>
      <psa03 value="0.2365253701" flag="0"/>
      <psa10 value="0.0368953241" flag="0"/>
      <psa30 value="0.0014315792" flag="0"/>
    </comp>
    <comp name="--.HHZ">
      <acc value="0.1002076010" flag="0"/>
      <vel value="0.0394886993" flag="0"/>
      <psa03 value="0.2027129670" flag="0"/>
      <psa10 value="0.0211885129" flag="0"/>
      <psa30 value="0.0020638431" flag="0"/>
    </comp>
    <comp name="--.HHN">
      <acc value="0.1412073728" flag="0"/>
      <vel value="0.0484680485" flag="0"/>
      <psa03 value="0.4066650657" flag="0"/>
      <psa10 value="0.0249367635" flag="0"/>
      <psa30 value="0.0015684250" flag="0"/>
    </comp>
  </station>
  <station code="SOH" name="SOH" netid="HT" insttype="120P," commtype="DIG" lat="40.8206" lon="23.3557">
    <comp name="--.HHN">
      <acc value="0.0316704496" flag="0"/>
      <vel value="0.0136745673" flag="0"/>
      <psa03 value="0.0968636106" flag="0"/>
      <psa10 value="0.0122676014" flag="0"/>
      <psa30 value="0.0008854927" flag="0"/>
    </comp>
    <comp name="--.HHE">
      <acc value="0.0321145753" flag="0"/>
      <vel value="0.0139696349" flag="0"/>
      <psa03 value="0.1124395178" flag="0"/>
      <psa10 value="0.0134459512" flag="0"/>
      <psa30 value="0.0007195671" flag="0"/>
    </comp>
    <comp name="--.HHZ">
      <acc value="0.0283270082" flag="0"/>
      <vel value="0.0092951461" flag="0"/>
      <psa03 value="0.0672581604" flag="0"/>
      <psa10 value="0.0074146943" flag="0"/>
      <psa30 value="0.0007066788" flag="0"/>
    </comp>
  </station>
  <station code="SRS" name="SRS" netid="HT" insttype="100" commtype="DIG" lat="41.1087" lon="23.595">
    <comp name="--.HHE">
      <acc value="0.1087353932" flag="0"/>
      <vel value="0.0310262569" flag="0"/>
      <psa03 value="0.1304338868" flag="0"/>
      <psa10 value="0.0187816809" flag="0"/>
      <psa30 value="0.0012985807" flag="0"/>
    </comp>
    <comp name="--.HHN">
      <acc value="0.1168878828" flag="0"/>
      <vel value="0.0312679512" flag="0"/>
      <psa03 value="0.1282721618" flag="0"/>
      <psa10 value="0.0154945452" flag="0"/>
      <psa30 value="0.0011480305" flag="0"/>
    </comp>
    <comp name="--.HHZ">
      <acc value="0.0555401146" flag="0"/>
      <vel value="0.0196649554" flag="0"/>
      <psa03 value="0.1333281208" flag="0"/>
      <psa10 value="0.0165926260" flag="0"/>
      <psa30 value="0.0013674281" flag="0"/>
    </comp>
  </station>
  <station code="THAS" name="THAS" netid="HT" insttype="100" commtype="DIG" lat="40.6064" lon="24.7194">
    <comp name="--.HHE">
      <acc value="0.3391082371" flag="0"/>
      <vel value="0.1256934529" flag="0"/>
      <psa03 value="0.8224485079" flag="0"/>
      <psa10 value="0.0371448852" flag="0"/>
      <psa30 value="0.0025549158" flag="0"/>
    </comp>
    <comp name="--.HHN">
      <acc value="0.3857982859" flag="0"/>
      <vel value="0.1113865732" flag="0"/>
      <psa03 value="0.6082813736" flag="0"/>
      <psa10 value="0.0263498418" flag="0"/>
      <psa30 value="0.0024187536" flag="0"/>
    </comp>
    <comp name="--.HHZ">
      <acc value="0.2422610218" flag="0"/>
      <vel value="0.0774594378" flag="0"/>
      <psa03 value="0.4451735657" flag="0"/>
      <psa10 value="0.0185051634" flag="0"/>
      <psa30 value="0.0017819507" flag="0"/>
    </comp>
  </station>
  <station code="ENEZ" name="ENEZ" netid="KO" insttype="CMG-3T" commtype="DIG" lat="40.7362" lon="26.153">
    <comp name="--.HHZ">
      <acc value="0.0232641093" flag="0"/>
      <vel value="0.0094943757" flag="0"/>
      <psa03 value="0.0428578261" flag="0"/>
      <psa10 value="0.0094894068" flag="0"/>
      <psa30 value="0.0010592253" flag="0"/>
    </comp>
    <comp name="--.HHE">
      <acc value="0.0566650189" flag="0"/>
      <vel value="0.0243883257" flag="0"/>
      <psa03 value="0.1810896792" flag="0"/>
      <psa10 value="0.0144727557" flag="0"/>
      <psa30 value="0.0023260594" flag="0"/>
    </comp>
  </station>
  <station code="GADA" name="GADA" netid="KO" insttype="CMG-3T" commtype="DIG" lat="40.1908" lon="25.8987">
    <comp name="--.HHE">
      <acc value="0.0153231188" flag="0"/>
      <vel value="0.0113836794" flag="0"/>
      <psa03 value="0.0601885433" flag="0"/>
      <psa10 value="0.0111753388" flag="0"/>
      <psa30 value="0.0008648453" flag="0"/>
    </comp>
    <comp name="--.HHZ">
