<?xml version="1.0" encoding="UTF-8" standalone="yes"?>
<!DOCTYPE earthquake SYSTEM "stationlist.dtd">
<stationlist created="" xmlns="ch.ethz.sed.shakemap.usgs.xml">
  <station code="DIM" name="DIM" netid="BS" insttype="seismometer" commtype="DIG" lat="42.0457" lon="25.5778">
    <comp name="--.HHE">
      <acc value="0.0808088433" flag="0"/>
      <vel value="0.0386337022" flag="0"/>
      <psa03 value="0.0991986996" flag="0"/>
      <psa10 value="0.0257784424" flag="0"/>
      <psa30 value="0.0019579182" flag="0"/>
    </comp>
    <comp name="--.HHN">
      <acc value="0.0528322269" flag="0"/>
      <vel value="0.0258083579" flag="0"/>
      <psa03 value="0.1438839055" flag="0"/>
      <psa10 value="0.0250019197" flag="0"/>
      <psa30 value="0.0011250152" flag="0"/>
    </comp>
    <comp name="--.HHZ">
      <acc value="0.0269391712" flag="0"/>
      <vel value="0.0121188141" flag="0"/>
      <psa03 value="0.0638017615" flag="0"/>
      <psa10 value="0.0093643642" flag="0"/>
      <psa30 value="0.0009810916" flag="0"/>
    </comp>
  </station>
  <station code="KDZ" name="KDZ" netid="BS" insttype="3ESP" commtype="DIG" lat="41.6302" lon="25.3396">
    <comp name="--.HHN">
      <acc value="0.1876646653" flag="0"/>
      <vel value="0.0711068604" flag="0"/>
      <psa03 value="0.4046361701" flag="0"/>
      <psa10 value="0.0241904731" flag="0"/>
      <psa30 value="0.0020661952" flag="0"/>
    </comp>
    <comp name="--.HHE">
      <acc value="0.2808596123" flag="0"/>
      <vel value="0.1174525570" flag="0"/>
      <psa03 value="0.3517921370" flag="0"/>
      <psa10 value="0.0287438541" flag="0"/>
      <psa30 value="0.0028477900" flag="0"/>
    </comp>
    <comp name="--.HHZ">
      <acc value="0.4588567085" flag="0"/>
      <vel value="0.1413356117" flag="0"/>
      <psa03 value="0.6081224636" flag="0"/>
      <psa10 value="0.0265316460" flag="0"/>
      <psa30 value="0.0028887922" flag="0"/>
    </comp>
  </station>
  <station code="MMB" name="MMB" netid="BS" insttype="STS-2" commtype="DIG" lat="41.5469" lon="23.7495">
    <comp name="--.HHE">
      <acc value="0.0367138156" flag="0"/>
      <vel value="0.0118218034" flag="0"/>
      <psa03 value="0.0751072959" flag="0"/>
      <psa10 value="0.0133505917" flag="0"/>
      <psa30 value="0.0008699299" flag="0"/>
    </comp>
    <comp name="--.HHN">
      <acc value="0.0332666691" flag="0"/>
      <vel value="0.0149111763" flag="0"/>
      <psa03 value="0.0471249449" flag="0"/>
      <psa10 value="0.0148369572" flag="0"/>
      <psa30 value="0.0012863533" flag="0"/>
    </comp>
    <comp name="--.HHZ">
      <acc value="0.0274268242" flag="0"/>
      <vel value="0.0094773531" flag="0"/>
      <psa03 value="0.0431203102" flag="0"/>
      <psa10 value="0.0107519798" flag="0"/>
      <psa30 value="0.0005625600" flag="0"/>
    </comp>
  </station>
  <station code="PLD" name="PLD" netid="BS" insttype="CMG40T" commtype="DIG" lat="42.1469" lon="24.7475">
    <comp name="--.HHZ">
      <acc value="0.0268350805" flag="0"/>
      <vel value="0.0136651899" flag="0"/>
      <psa03 value="0.0587247386" flag="0"/>
      <psa10 value="0.0197329837" flag="0"/>
      <psa30 value="0.0012325974" flag="0"/>
    </comp>
    <comp name="--.HHE">
      <acc value="0.0372623707" flag="0"/>
      <vel value="0.0225323233" flag="0"/>
      <psa03 value="0.0942713950" flag="0"/>
      <psa10 value="0.0128392169" flag="0"/>
      <psa30 value="0.0011374461" flag="0"/>
    </comp>
    <comp name="--.HHN">
      <acc value="0.0341499348" flag="0"/>
      <vel value="0.0127771903" flag="0"/>
      <psa03 value="0.0750723205" flag="0"/>
      <psa10 value="0.0153366250" flag="0"/>
      <psa30 value="0.0007005600" flag="0"/>
    </comp>
  </station>
  <station code="RZN" name="RZN" netid="BS" insttype="CMG40T" commtype="DIG" lat="41.6942" lon="24.7388">
    <comp name="--.HHN">
      <acc value="0.6046099351" flag="0"/>
      <vel value="0.1445564403" flag="0"/>
      <psa03 value="0.4447135092" flag="0"/>
      <psa10 value="0.0356914600" flag="0"/>
      <psa30 value="0.0024572546" flag="0"/>
    </comp>
    <comp name="--.HHE">
      <acc value="0.3809343096" flag="0"/>
      <vel value="0.1218562594" flag="0"/>
      <psa03 value="0.4616033389" flag="0"/>
      <psa10 value="0.0394636743" flag="0"/>
      <psa30 value="0.0033191977" flag="0"/>
    </comp>
    <comp name="--.HHZ">
      <acc value="0.2597385055" flag="0"/>
      <vel value="0.0693851130" flag="0"/>
      <psa03 value="0.3441565163" flag="0"/>
      <psa10 value="0.0357623192" flag="0"/>
      <psa30 value="0.0035222289" flag="0"/>
    </comp>
  </station>
  <station code="ALX2" name="ALX2" netid="HI" insttype="unknown" commtype="DIG" lat="40.8454" lon="25.8739">
    <comp name="--.HNN">
      <acc value="0.0583522269" flag="0"/>
      <vel value="0.0315602018" flag="0"/>
      <psa03 value="0.1812389945" flag="0"/>
      <psa10 value="0.0206854904" flag="0"/>
      <psa30 value="0.0020237600" flag="0"/>
    </comp>
    <comp name="--.HNZ">
      <acc value="0.0556229102" flag="0"/>
      <vel value="0.0270298051" flag="0"/>
      <psa03 value="0.1197419630" flag="0"/>
      <psa10 value="0.0228760788" flag="0"/>
      <psa30 value="0.0020532906" flag="0"/>
    </comp>
    <comp name="--.HNE">
      <acc value="0.1019834148" flag="0"/>
      <vel value="0.0455711204" flag="0"/>
      <psa03 value="0.2760857716" flag="0"/>
      <psa10 value="0.0311921200" flag="0"/>
      <psa30 value="0.0019550024" flag="0"/>
    </comp>
  </station>
  <station code="DRA2" name="DRA2" netid="HI" insttype="CMG-5TD,ACCELEROMETER,GURALP" commtype="DIG" lat="41.1593" lon="24.1485">
    <comp name="--.HNN">
      <acc value="0.2518259503" flag="0"/>
      <vel value="0.0638926376" flag="0"/>
      <psa03 value="0.3703777814" flag="0"/>
      <psa10 value="0.0319025605" flag="0"/>
      <psa30 value="0.0026082546" flag="0"/>
    </comp>
    <comp name="--.HNE">
      <acc value="0.4195964453" flag="0"/>
      <vel value="0.1042651384" flag="0"/>
      <psa03 value="0.6015182174" flag="0"/>
      <psa10 value="0.0311350377" flag="0"/>
      <psa30 value="0.0022006736" flag="0"/>
    </comp>
    <comp name="--.HNZ">
      <acc value="0.2247792052" flag="0"/>
      <vel value="0.0569259138" flag="0"/>
      <psa03 value="0.1745974455" flag="0"/>
      <psa10 value="0.0124557561" flag="0"/>
      <psa30 value="0.0014665098" flag="0"/>
    </comp>
  </station>
  <station code="SPP1" name="SPP1" netid="HI" insttype="unknown" commtype="DIG" lat="41.0225" lon="25.7013">
    <comp name="--.HNE">
      <acc value="0.2063518089" flag="0"/>
      <vel value="0.0980982837" flag="0"/>
      <psa03 value="0.6094395817" flag="0"/>
      <psa10 value="0.0719244936" flag="0"/>
      <psa30 value="0.0032337932" flag="0"/>
    </comp>
    <comp name="--.HNN">
      <acc value="0.2861381074" flag="0"/>
      <vel value="0.1318416801" flag="0"/>
      <psa03 value="0.6250553008" flag="0"/>
      <psa10 value="0.0602493307" flag="0"/>
      <psa30 value="0.0053352842" flag="0"/>
    </comp>
    <comp name="--.HNZ">
      <acc value="0.0671119690" flag="0"/>
      <vel value="0.0343523422" flag="0"/>
      <psa03 value="0.1992483384" flag="0"/>
      <psa10 value="0.0380581471" flag="0"/>
      <psa30 value="0.0016843573" flag="0"/>
    </comp>
  </station>
  <station code="XAN2" name="XAN2" netid="HI" insttype="unknown" commtype="DIG" lat="41.142" lon="24.8908">
    <comp name="--.HNN">
      <acc value="2.6961385319" flag="0"/>
      <vel value="0.7834177559" flag="0"/>
      <psa03 value="4.1603523493" flag="0"/>
      <psa10 value="0.3906657366" flag="0"/>
      <psa30 value="0.0282275259" flag="0"/>
    </comp>
    <comp name="--.HNZ">
      <acc value="2.2551899393" flag="0"/>
      <vel value="0.8280327399" flag="0"/>
      <psa03 value="3.2430515328" flag="0"/>
      <psa10 value="0.3187244072" flag="0"/>
      <psa30 value="0.0186105586" flag="0"/>
    </comp>
    <comp name="--.HNE">
      <acc value="3.1480624081" flag="0"/>
      <vel value="1.0790989358" flag="0"/>
      <psa03 value="5.4581181369" flag="0"/>
      <psa10 value="0.3113737180" flag="0"/>
      <psa30 value="0.0292113557" flag="0"/>
    </comp>
  </station>
  <station code="KOMA" name="KOMA" netid="HL" insttype="CMG-5" commtype="DIG" lat="41.1128" lon="25.3965">
    <comp name="00.HNE">
      <acc value="0.1012604949" flag="0"/>
      <vel value="0.0491965493" flag="0"/>
      <psa03 value="0.4147685806" flag="0"/>
      <psa10 value="0.0600779469" flag="0"/>
      <psa30 value="0.0038632881" flag="0"/>
    </comp>
    <comp name="00.HNZ">
      <acc value="0.1634326750" flag="0"/>
      <vel value="0.0247216312" flag="0"/>
      <psa03 value="0.1560112127" flag="0"/>
      <psa10 value="0.0191703442" flag="0"/>
      <psa30 value="0.0019905686" flag="0"/>
    </comp>
    <comp name="00.HNN">
      <acc value="0.0814331820" flag="0"/>
      <vel value="0.0558362698" flag="0"/>
      <psa03 value="0.3239099165" flag="0"/>
      <psa10 value="0.0508182723" flag="0"/>
      <psa30 value="0.0066030725" flag="0"/>
    </comp>
  </station>
  <station code="PRAS" name="PRAS" netid="HL" insttype="120" commtype="DIG" lat="41.3524" lon="24.55">
    <comp name="--.HHE">
      <acc value="0.8560151275" flag="0"/>
      <vel value="0.2335350159" flag="0"/>
      <psa03 value="0.8462981019" flag="0"/>
      <psa10 value="0.0801411071" flag="0"/>
      <psa30 value="0.0051722497" flag="0"/>
    </comp>
    <comp name="--.HHN">
      <acc value="0.7569730021" flag="0"/>
      <vel value="0.2897901261" flag="0"/>
      <psa03 value="1.2286138227" flag="0"/>
      <psa10 value="0.1332686644" flag="0"/>
      <psa30 value="0.0106642180" flag="0"/>
    </comp>
    <comp name="--.HHZ">
      <acc value="0.4335943332" flag="0"/>
      <vel value="0.1402008153" flag="0"/>
      <psa03 value="0.4590684852" flag="0"/>
      <psa10 value="0.0683945694" flag="0"/>
      <psa30 value="0.0069313285" flag="0"/>
    </comp>
  </station>
  <station code="RDO" name="RDO" netid="HL" insttype="120" commtype="DIG" lat="41.145" lon="25.5355">
    <comp name="--.HHN">
      <acc value="0.1925456817" flag="0"/>
      <vel value="0.0352040174" flag="0"/>
      <psa03 value="0.1158557824" flag="0"/>
      <psa10 value="0.0119016280" flag="0"/>
      <psa30 value="0.0011601656" flag="0"/>
    </comp>
    <comp name="--.HHE">
      <acc value="0.2201358183" flag="0"/>
      <vel value="0.0372893092" flag="0"/>
      <psa03 value="0.1560345552" flag="0"/>
      <psa10 value="0.0081703033" flag="0"/>
      <psa30 value="0.0009660835" flag="0"/>
    </comp>
    <comp name="--.HHZ">
      <acc value="0.1020960500" flag="0"/>
      <vel value="0.0183450752" flag="0"/>
      <psa03 value="0.0671105013" flag="0"/>
      <psa10 value="0.0091740146" flag="0"/>
      <psa30 value="0.0006709196" flag="0"/>
    </comp>
  </station>
  <station code="ALN" name="ALN" netid="HT" insttype="100" commtype="DIG" lat="40.885" lon="26.046">
    <comp name="--.HHE">
      <acc value="0.0189168971" flag="0"/>
      <vel value="0.0094253532" flag="0"/>
      <psa03 value="0.0508918072" flag="0"/>
      <psa10 value="0.0080169470" flag="0"/>
      <psa30 value="0.0008484828" flag="0"/>
    </comp>
    <comp name="--.HHN">
      <acc value="0.0198033732" flag="0"/>
      <vel value="0.0100170759" flag="0"/>
      <psa03 value="0.0635253421" flag="0"/>
      <psa10 value="0.0112111229" flag="0"/>
      <psa30 value="0.0006904114" flag="0"/>
    </comp>
    <comp name="--.HHZ">
      <acc value="0.0251919204" flag="0"/>
      <vel value="0.0091696008" flag="0"/>
      <psa03 value="0.0588891647" flag="0"/>
      <psa10 value="0.0080825923" flag="0"/>
      <psa30 value="0.0009698004" flag="0"/>
    </comp>
  </station>
  <station code="HMT1" name="HMT1" netid="HT" insttype="Compact," commtype="DIG" lat="40.2581" lon="24.2476">
    <comp name="--.HHE">
      <acc value="0.3936899507" flag="0"/>
      <vel value="0.1319851082" flag="0"/>
      <psa03 value="1.4117575995" flag="0"/>
      <psa10 value="0.0270920490" flag="0"/>
      <psa30 value="0.0029400301" flag="0"/>
    </comp>
    <comp name="--.HHN">
      <acc value="0.4059727191" flag="0"/>
      <vel value="0.1711855635" flag="0"/>
      <psa03 value="1.7816046453" flag="0"/>
      <psa10 value="0.0394478748" flag="0"/>
      <psa30 value="0.0034057470" flag="0"/>
    </comp>
    <comp name="--.HHZ">
      <acc value="0.1210809850" flag="0"/>
      <vel value="0.0472809266" flag="0"/>
      <psa03 value="0.4943646783" flag="0"/>
      <psa10 value="0.0106583752" flag="0"/>
      <psa30 value="0.0019413424" flag="0"/>
    </comp>
  </station>
  <station code="KAVA" name="KAVA" netid="HT" insttype="Compact," commtype="DIG" lat="40.9967" lon="24.5137">
    <comp name="--.HHN">
      <acc value="1.4202678366" flag="0"/>
      <vel value="0.3709419629" flag="0"/>
      <psa03 value="1.4658720233" flag="0"/>
      <psa10 value="0.1222814397" flag="0"/>
      <psa30 value="0.0098728020" flag="0"/>
    </comp>
    <comp name="--.HHE">
      <acc value="2.9814533137" flag="0"/>
      <vel value="0.4924344248" flag="0"/>
      <psa03 value="0.8629972963" flag="0"/>
      <psa10 value="0.1368433888" flag="0"/>
      <psa30 value="0.0142446557" flag="0"/>
    </comp>
    <comp name="--.HHZ">
      <acc value="2.0897162371" flag="0"/>
      <vel value="0.2149621292" flag="0"/>
      <psa03 value="1.1101363532" flag="0"/>
      <psa10 value="0.1127485298" flag="0"/>
      <psa30 value="0.0070096786" flag="0"/>
    </comp>
  </station>
  <station code="KOKK" name="KOKK" netid="HT" insttype="Compact," commtype="DIG" lat="40.8178" lon="23.9992">
    <comp name="--.HHE">
      <acc value="0.2292290600" flag="0"/>
      <vel value="0.1094130995" flag="0"/>
      <psa03 value="0.4577103949" flag="0"/>
      <psa10 value="0.0510735888" flag="0"/>
      <psa30 value="0.0032908360" flag="0"/>
    </comp>
    <comp name="--.HHZ">
      <acc value="0.2524134115" flag="0"/>
      <vel value="0.0928160739" flag="0"/>
      <psa03 value="0.4657952244" flag="0"/>
      <psa10 value="0.0365940399" flag="0"/>
      <psa30 value="0.0022652229" flag="0"/>
    </comp>
    <comp name="--.HHN">
      <acc value="0.2326770554" flag="0"/>
      <vel value="0.1394461196" flag="0"/>
      <psa03 value="0.5214346423" flag="0"/>
      <psa10 value="0.0639596279" flag="0"/>
      <psa30 value="0.0052703006" flag="0"/>
    </comp>
  </station>
  <station code="OUR" name="OUR" netid="HT" insttype="100" commtype="DIG" lat="40.3325" lon="23.9791">
    <comp name="--.HHE">
      <acc value="0.1803912133" flag="0"/>
      <vel value="0.0484714043" flag="0"/>
      <psa03 value="0.2365253701" flag="0"/>
      <psa10 value="0.0368953241" flag="0"/>
      <psa30 value="0.0014315885" flag="0"/>
    </comp>
    <comp name="--.HHN">
      <acc value="0.1412073723" flag="0"/>
      <vel value="0.0484680440" flag="0"/>
      <psa03 value="0.4066650657" flag="0"/>
      <psa10 value="0.0249367638" flag="0"/>
      <psa30 value="0.0015686217" flag="0"/>
    </comp>
    <comp name="--.HHZ">
      <acc value="0.1002076016" flag="0"/>
      <vel value="0.0394887015" flag="0"/>
      <psa03 value="0.2027129670" flag="0"/>
      <psa10 value="0.0211885129" flag="0"/>
      <psa30 value="0.0020637042" flag="0"/>
    </comp>
  </station>
  <station code="SOH" name="SOH" netid="HT" insttype="120P," commtype="DIG" lat="40.8206" lon="23.3557">
    <comp name="--.HHN">
      <acc value="0.0316704488" flag="0"/>
      <vel value="0.0136745666" flag="0"/>
      <psa03 value="0.0968636106" flag="0"/>
      <psa10 value="0.0122676014" flag="0"/>
      <psa30 value="0.0008853852" flag="0"/>
    </comp>
    <comp name="--.HHE">
      <acc value="0.0321145762" flag="0"/>
      <vel value="0.0139696359" flag="0"/>
      <psa03 value="0.1124395178" flag="0"/>
      <psa10 value="0.0134459512" flag="0"/>
      <psa30 value="0.0007195667" flag="0"/>
    </comp>
    <comp name="--.HHZ">
      <acc value="0.0283270070" flag="0"/>
      <vel value="0.0092951451" flag="0"/>
      <psa03 value="0.0672581604" flag="0"/>
      <psa10 value="0.0074146943" flag="0"/>
      <psa30 value="0.0007066581" flag="0"/>
    </comp>
  </station>
  <station code="SRS" name="SRS" netid="HT" insttype="100" commtype="DIG" lat="41.1087" lon="23.595">
    <comp name="--.HHN">
      <acc value="0.1168878837" flag="0"/>
      <vel value="0.0312679514" flag="0"/>
      <psa03 value="0.1282721618" flag="0"/>
      <psa10 value="0.0154945452" flag="0"/>
      <psa30 value="0.0011480524" flag="0"/>
    </comp>
    <comp name="--.HHE">
      <acc value="0.1087353930" flag="0"/>
      <vel value="0.0310262566" flag="0"/>
      <psa03 value="0.1304338868" flag="0"/>
      <psa10 value="0.0187816809" flag="0"/>
      <psa30 value="0.0012986620" flag="0"/>
    </comp>
    <comp name="--.HHZ">
      <acc value="0.0555401136" flag="0"/>
      <vel value="0.0196649563" flag="0"/>
      <psa03 value="0.1333281208" flag="0"/>
      <psa10 value="0.0165926259" flag="0"/>
      <psa30 value="0.0013673575" flag="0"/>
    </comp>
  </station>
  <station code="THAS" name="THAS" netid="HT" insttype="100" commtype="DIG" lat="40.6064" lon="24.7194">
    <comp name="--.HHN">
      <acc value="0.3857982869" flag="0"/>
      <vel value="0.1113865735" flag="0"/>
      <psa03 value="0.6082813736" flag="0"/>
      <psa10 value="0.0263498416" flag="0"/>
      <psa30 value="0.0024187089" flag="0"/>
    </comp>
    <comp name="--.HHE">
      <acc value="0.3391082371" flag="0"/>
      <vel value="0.1256934531" flag="0"/>
      <psa03 value="0.8224485079" flag="0"/>
      <psa10 value="0.0371448850" flag="0"/>
      <psa30 value="0.0025548412" flag="0"/>
    </comp>
    <comp name="--.HHZ">
      <acc value="0.2422610210" flag="0"/>
      <vel value="0.0774594375" flag="0"/>
      <psa03 value="0.4451735657" flag="0"/>
      <psa10 value="0.0185051633" flag="0"/>
      <psa30 value="0.0017818911" flag="0"/>
    </comp>
  </station>
</stationlist>
