<stationlist created="1778069596">
	<station code="IMMV" name="IMMV" netid="GE" source="GEOFON" insttype="" lat="35.4606" lon="23.9811">
		<comp name="--.HNE" depth="0.0">
			<acc value="0.000427578478089324" flag="0"/>
			<vel value="0.000480852927020055" flag="0"/>
			<psa03 value="0.00111855516545679" flag="0"/>
			<psa10 value="0.00109528921801529" flag="0"/>
			<psa30 value="0.00018612757953201" flag="0"/>
		</comp>
		<comp name="--.HNN" depth="0.0">
			<acc value="0.00035271136178201" flag="0"/>
			<vel value="0.000361405768560704" flag="0"/>
			<psa03 value="0.00111855516545679" flag="0"/>
			<psa10 value="0.000732877344407291" flag="0"/>
			<psa30 value="0.000213867747635339" flag="0"/>
		</comp>
		<comp name="--.HNZ" depth="0.0">
			<acc value="0.000295177557164456" flag="0"/>
			<vel value="0.000306870238039309" flag="0"/>
			<psa03 value="0.000805359719128892" flag="0"/>
			<psa10 value="0.000797306121937603" flag="0"/>
			<psa30 value="9.30637897660052e-05" flag="0"/>
		</comp>
	</station>
	<station code="KARP" name="KARP" netid="GE" source="GEOFON" insttype="" lat="35.5471" lon="27.16106">
		<comp name="--.HNE" depth="0.0">
			<acc value="0.00385814651689328" flag="0"/>
			<vel value="0.000445475579283664" flag="0"/>
			<psa03 value="0.000715875305892348" flag="0"/>
			<psa10 value="0.000829520510702758" flag="0"/>
			<psa30 value="0.000191944066392386" flag="0"/>
		</comp>
		<comp name="--.HNN" depth="0.0">
			<acc value="0.00762071776598644" flag="0"/>
			<vel value="0.000565932591587503" flag="0"/>
			<psa03 value="0.000626390892655805" flag="0"/>
			<psa10 value="0.00085770810087227" flag="0"/>
			<psa30 value="0.000257267688055063" flag="0"/>
		</comp>
		<comp name="--.HNZ" depth="0.0">
			<acc value="0.00114658083834813" flag="0"/>
			<vel value="0.000333798880194915" flag="0"/>
			<psa03 value="0.000850101925747163" flag="0"/>
			<psa10 value="0.000575832199177157" flag="0"/>
			<psa30 value="0.000180311092671635" flag="0"/>
		</comp>
	</station>
	<station code="SIT2" name="SIT2" netid="HI" source="ITSAK Strong Motion Network" insttype="" lat="35.2059" lon="26.107">
		<comp name="--.HNE" depth="0.0">
			<acc value="0.0104838429508009" flag="0"/>
			<vel value="0.00762723088509793" flag="0"/>
			<psa03 value="0.0239370805407754" flag="0"/>
			<psa10 value="0.00528718655608117" flag="0"/>
			<psa30 value="0.000358832497078539" flag="0"/>
		</comp>
		<comp name="--.HNN" depth="0.0">
			<acc value="0.0126571615336369" flag="0"/>
			<vel value="0.00867824989673755" flag="0"/>
			<psa03 value="0.0368228360468377" flag="0"/>
			<psa10 value="0.00612878746257086" flag="0"/>
			<psa30 value="0.000590149705295004" flag="0"/>
		</comp>
		<comp name="--.HNZ" depth="0.0">
			<acc value="0.00389526498848" flag="0"/>
			<vel value="0.00253101654481887" flag="0"/>
			<psa03 value="0.0101117386957294" flag="0"/>
			<psa10 value="0.00202950649220481" flag="0"/>
			<psa30 value="0.000382545866586223" flag="0"/>
		</comp>
	</station>
</stationlist>
