<?xml version="1.0" encoding="UTF-8" standalone="yes"?>
<!DOCTYPE earthquake SYSTEM "stationlist.dtd">
<stationlist created="" xmlns="ch.ethz.sed.shakemap.usgs.xml">
  <station code="IMMV" name="IMMV" netid="GE" insttype="STS-2/N" lat="35.4606" lon="23.9811">
    <comp name="--.HHE">
      <acc value="0.0070716859" flag="0"/>
      <vel value="0.0048760830" flag="0"/>
      <psa03 value="0.0202499616" flag="0"/>
      <psa10 value="0.0109172628" flag="0"/>
      <psa30 value="0.0006367384" flag="0"/>
    </comp>
    <comp name="--.HHZ">
      <acc value="0.0061990053" flag="0"/>
      <vel value="0.0039681706" flag="0"/>
      <psa03 value="0.0228346576" flag="0"/>
      <psa10 value="0.0030698704" flag="0"/>
      <psa30 value="0.0003684057" flag="0"/>
    </comp>
    <comp name="--.HHN">
      <acc value="0.0079501155" flag="0"/>
      <vel value="0.0058066327" flag="0"/>
      <psa03 value="0.0283339299" flag="0"/>
      <psa10 value="0.0050623321" flag="0"/>
      <psa30 value="0.0007245653" flag="0"/>
    </comp>
  </station>
  <station code="IDI" name="IDI" netid="MN" insttype="" lat="35.288" lon="24.89">
    <comp name="--.HHN">
      <acc value="0.0316983458" flag="0"/>
      <vel value="0.0145487257" flag="0"/>
      <psa03 value="0.0777527571" flag="0"/>
      <psa10 value="0.0078810752" flag="0"/>
      <psa30 value="0.0006634692" flag="0"/>
    </comp>
    <comp name="--.HHZ">
      <acc value="0.0251767681" flag="0"/>
      <vel value="0.0121378050" flag="0"/>
      <psa03 value="0.0829588071" flag="0"/>
      <psa10 value="0.0055249100" flag="0"/>
      <psa30 value="0.0005905462" flag="0"/>
    </comp>
    <comp name="--.HHE">
      <acc value="0.0635577709" flag="0"/>
      <vel value="0.0282856473" flag="0"/>
      <psa03 value="0.1035569816" flag="0"/>
      <psa10 value="0.0183223346" flag="0"/>
      <psa30 value="0.0014128164" flag="0"/>
    </comp>
  </station>
</stationlist>
