<?xml version="1.0" encoding="UTF-8" standalone="yes"?>
<!DOCTYPE earthquake SYSTEM "stationlist.dtd">
<stationlist created="" xmlns="ch.ethz.sed.shakemap.usgs.xml">
  <station code="IMMV" name="IMMV" netid="GE" insttype="STS-2/N" lat="35.4606" lon="23.9811">
    <comp name="--.HHE">
      <acc value="0.0070716859" flag="0"/>
      <vel value="0.0048760830" flag="0"/>
      <psa03 value="0.0202499616" flag="0"/>
      <psa10 value="0.0109172628" flag="0"/>
      <psa30 value="0.0006367384" flag="0"/>
    </comp>
    <comp name="--.HHZ">
      <acc value="0.0061990053" flag="0"/>
      <vel value="0.0039681706" flag="0"/>
      <psa03 value="0.0228346576" flag="0"/>
      <psa10 value="0.0030698704" flag="0"/>
      <psa30 value="0.0003684057" flag="0"/>
    </comp>
    <comp name="--.HHN">
      <acc value="0.0079501155" flag="0"/>
      <vel value="0.0058066327" flag="0"/>
      <psa03 value="0.0283339299" flag="0"/>
      <psa10 value="0.0050623321" flag="0"/>
      <psa30 value="0.0007245653" flag="0"/>
    </comp>
  </station>
  <station code="CHAN" name="CHAN" netid="HC" insttype="120" lat="35.5193" lon="24.0428">
    <comp name="--.HHE">
      <acc value="0.0117173308" flag="0"/>
      <vel value="0.0102946097" flag="0"/>
      <psa03 value="0.0305328007" flag="0"/>
      <psa10 value="0.0108198970" flag="0"/>
      <psa30 value="0.0019488326" flag="0"/>
    </comp>
    <comp name="--.HHN">
      <acc value="0.0103761607" flag="0"/>
      <vel value="0.0094293337" flag="0"/>
      <psa03 value="0.0293861584" flag="0"/>
      <psa10 value="0.0144086228" flag="0"/>
      <psa30 value="0.0013275783" flag="0"/>
    </comp>
    <comp name="--.HHZ">
      <acc value="0.0068553140" flag="0"/>
      <vel value="0.0060491965" flag="0"/>
      <psa03 value="0.0171916950" flag="0"/>
      <psa10 value="0.0089264569" flag="0"/>
      <psa30 value="0.0007341678" flag="0"/>
    </comp>
  </station>
  <station code="IMOD" name="IMOD" netid="HC" insttype="120" lat="34.9731" lon="24.7995">
    <comp name="--.HHN">
      <acc value="0.4489393685" flag="0"/>
      <vel value="0.2827038126" flag="0"/>
      <psa03 value="1.7350956168" flag="0"/>
      <psa10 value="0.1280045458" flag="0"/>
      <psa30 value="0.0096794536" flag="0"/>
    </comp>
    <comp name="--.HHE">
      <acc value="0.3375707266" flag="0"/>
      <vel value="0.2290958671" flag="0"/>
      <psa03 value="0.9103209273" flag="0"/>
      <psa10 value="0.1426201589" flag="0"/>
      <psa30 value="0.0111186450" flag="0"/>
    </comp>
    <comp name="--.HHZ">
      <acc value="0.1730202316" flag="0"/>
      <vel value="0.0701316586" flag="0"/>
      <psa03 value="0.3828747115" flag="0"/>
      <psa10 value="0.0338038508" flag="0"/>
      <psa30 value="0.0032485746" flag="0"/>
    </comp>
  </station>
  <station code="IPPL" name="IPPL" netid="HC" insttype="60" lat="35.3486" lon="24.4632">
    <comp name="--.HHN">
      <acc value="0.0000000000" flag="0"/>
      <vel value="-100.0000000000" flag="0"/>
      <psa03 value="0.0000000000" flag="0"/>
      <psa10 value="0.0000000000" flag="0"/>
      <psa30 value="0.0000000000" flag="0"/>
    </comp>
    <comp name="--.HHZ">
      <acc value="0.0107531460" flag="0"/>
      <vel value="0.0042814547" flag="0"/>
      <psa03 value="0.0300303413" flag="0"/>
      <psa10 value="0.0040780920" flag="0"/>
      <psa30 value="0.0006105729" flag="0"/>
    </comp>
    <comp name="--.HHE">
      <acc value="0.0000000000" flag="0"/>
      <vel value="-100.0000000000" flag="0"/>
      <psa03 value="0.0000000000" flag="0"/>
      <psa10 value="0.0000000000" flag="0"/>
      <psa30 value="0.0000000000" flag="0"/>
    </comp>
  </station>
  <station code="KNDR" name="KNDR" netid="HC" insttype="120" lat="35.2348" lon="23.6248">
    <comp name="--.HHE">
      <acc value="0.0053579646" flag="0"/>
      <vel value="0.0035726806" flag="0"/>
      <psa03 value="0.0145711004" flag="0"/>
      <psa10 value="0.0047841673" flag="0"/>
      <psa30 value="0.0002541296" flag="0"/>
    </comp>
    <comp name="--.HHZ">
      <acc value="0.0043258165" flag="0"/>
      <vel value="0.0021797432" flag="0"/>
      <psa03 value="0.0095953230" flag="0"/>
      <psa10 value="0.0021192595" flag="0"/>
      <psa30 value="0.0004235567" flag="0"/>
    </comp>
    <comp name="--.HHN">
      <acc value="0.0051080712" flag="0"/>
      <vel value="0.0039490861" flag="0"/>
      <psa03 value="0.0160631701" flag="0"/>
      <psa10 value="0.0064106955" flag="0"/>
      <psa30 value="0.0004318136" flag="0"/>
    </comp>
  </station>
  <station code="KNSS" name="KNSS" netid="HC" insttype="60" lat="35.3042" lon="25.1802">
    <comp name="--.HHE">
      <acc value="0.0260469271" flag="0"/>
      <vel value="0.0124209618" flag="0"/>
      <psa03 value="0.0754949750" flag="0"/>
      <psa10 value="0.0097533748" flag="0"/>
      <psa30 value="0.0020831191" flag="0"/>
    </comp>
    <comp name="--.HHN">
      <acc value="0.0327793448" flag="0"/>
      <vel value="0.0182693038" flag="0"/>
      <psa03 value="0.1225922777" flag="0"/>
      <psa10 value="0.0081079270" flag="0"/>
      <psa30 value="0.0014955160" flag="0"/>
    </comp>
    <comp name="--.HHZ">
      <acc value="0.0266116453" flag="0"/>
      <vel value="0.0106368231" flag="0"/>
      <psa03 value="0.0544878794" flag="0"/>
      <psa10 value="0.0038220998" flag="0"/>
      <psa30 value="0.0013807173" flag="0"/>
    </comp>
  </station>
  <station code="PFKS" name="PFKS" netid="HC" insttype="120" lat="35.0429" lon="25.4733">
    <comp name="--.HHE">
      <acc value="0.0202165095" flag="0"/>
      <vel value="0.0093510186" flag="0"/>
      <psa03 value="0.0494992031" flag="0"/>
      <psa10 value="0.0081030501" flag="0"/>
      <psa30 value="0.0005602531" flag="0"/>
    </comp>
    <comp name="--.HHZ">
      <acc value="0.0183199063" flag="0"/>
      <vel value="0.0057773089" flag="0"/>
      <psa03 value="0.0304526409" flag="0"/>
      <psa10 value="0.0037840418" flag="0"/>
      <psa30 value="0.0009965461" flag="0"/>
    </comp>
    <comp name="--.HHN">
      <acc value="0.0320226318" flag="0"/>
      <vel value="0.0146631423" flag="0"/>
      <psa03 value="0.0992309178" flag="0"/>
      <psa10 value="0.0079426677" flag="0"/>
      <psa30 value="0.0006965506" flag="0"/>
    </comp>
  </station>
  <station code="IDI" name="IDI" netid="HL" insttype="120" lat="35.288" lon="24.89">
    <comp name="--.HHE">
      <acc value="0.0619305462" flag="0"/>
      <vel value="0.0280701284" flag="0"/>
      <psa03 value="0.1022038852" flag="0"/>
      <psa10 value="0.0184302302" flag="0"/>
      <psa30 value="0.0014202162" flag="0"/>
    </comp>
    <comp name="--.HHN">
      <acc value="0.0310081037" flag="0"/>
      <vel value="0.0144794519" flag="0"/>
      <psa03 value="0.0765453314" flag="0"/>
      <psa10 value="0.0078887970" flag="0"/>
      <psa30 value="0.0006709009" flag="0"/>
    </comp>
    <comp name="--.HHZ">
      <acc value="0.0242422009" flag="0"/>
      <vel value="0.0120262601" flag="0"/>
      <psa03 value="0.0818638854" flag="0"/>
      <psa10 value="0.0055145502" flag="0"/>
      <psa30 value="0.0005974628" flag="0"/>
    </comp>
  </station>
  <station code="IMMV" name="IMMV" netid="HL" insttype="120" lat="35.4606" lon="23.9811">
    <comp name="--.HHE">
      <acc value="0.0068930376" flag="0"/>
      <vel value="0.0048219777" flag="0"/>
      <psa03 value="0.0196886029" flag="0"/>
      <psa10 value="0.0108469935" flag="0"/>
      <psa30 value="0.0006361185" flag="0"/>
    </comp>
    <comp name="--.HHN">
      <acc value="0.0077738428" flag="0"/>
      <vel value="0.0056890799" flag="0"/>
      <psa03 value="0.0275729329" flag="0"/>
      <psa10 value="0.0050378395" flag="0"/>
      <psa30 value="0.0007227582" flag="0"/>
    </comp>
    <comp name="--.HHZ">
      <acc value="0.0060500251" flag="0"/>
      <vel value="0.0039145936" flag="0"/>
      <psa03 value="0.0222175301" flag="0"/>
      <psa10 value="0.0030408089" flag="0"/>
      <psa30 value="0.0003677289" flag="0"/>
    </comp>
  </station>
  <station code="SIVA" name="SIVA" netid="HL" insttype="60" lat="35.0178" lon="24.812">
    <comp name="--.HHN">
      <acc value="0.3302812441" flag="0"/>
      <vel value="0.1582979823" flag="0"/>
      <psa03 value="0.7340312764" flag="0"/>
      <psa10 value="0.1866730505" flag="0"/>
      <psa30 value="0.0089705254" flag="0"/>
    </comp>
    <comp name="--.HHZ">
      <acc value="0.1593541762" flag="0"/>
      <vel value="0.1115222081" flag="0"/>
      <psa03 value="0.4481569704" flag="0"/>
      <psa10 value="0.0978095623" flag="0"/>
      <psa30 value="0.0045493240" flag="0"/>
    </comp>
    <comp name="--.HHE">
      <acc value="0.6105135824" flag="0"/>
      <vel value="0.3323107537" flag="0"/>
      <psa03 value="2.0531821897" flag="0"/>
      <psa10 value="0.2081509880" flag="0"/>
      <psa30 value="0.0120340213" flag="0"/>
    </comp>
  </station>
  <station code="VAM" name="VAM" netid="HL" insttype="CMG3ESPC-120s" lat="35.407" lon="24.1997">
    <comp name="--.HHE">
      <acc value="0.0125747293" flag="0"/>
      <vel value="0.0062065332" flag="0"/>
      <psa03 value="0.0327675316" flag="0"/>
      <psa10 value="0.0074040714" flag="0"/>
      <psa30 value="0.0007626884" flag="0"/>
    </comp>
    <comp name="--.HHZ">
      <acc value="0.0068710281" flag="0"/>
      <vel value="0.0027309659" flag="0"/>
      <psa03 value="0.0157149689" flag="0"/>
      <psa10 value="0.0026989508" flag="0"/>
      <psa30 value="0.0005168954" flag="0"/>
    </comp>
    <comp name="--.HHN">
      <acc value="0.0107061037" flag="0"/>
      <vel value="0.0072499948" flag="0"/>
      <psa03 value="0.0351696696" flag="0"/>
      <psa10 value="0.0063486463" flag="0"/>
      <psa30 value="0.0005284533" flag="0"/>
    </comp>
  </station>
  <station code="IDI" name="IDI" netid="MN" insttype="" lat="35.288" lon="24.89">
    <comp name="--.HHN">
      <acc value="0.0316983458" flag="0"/>
      <vel value="0.0145487257" flag="0"/>
      <psa03 value="0.0777527571" flag="0"/>
      <psa10 value="0.0078810752" flag="0"/>
      <psa30 value="0.0006634692" flag="0"/>
    </comp>
    <comp name="--.HHZ">
      <acc value="0.0251767681" flag="0"/>
      <vel value="0.0121378050" flag="0"/>
      <psa03 value="0.0829588071" flag="0"/>
      <psa10 value="0.0055249100" flag="0"/>
      <psa30 value="0.0005905462" flag="0"/>
    </comp>
    <comp name="--.HHE">
      <acc value="0.0635577709" flag="0"/>
      <vel value="0.0282856473" flag="0"/>
      <psa03 value="0.1035569816" flag="0"/>
      <psa10 value="0.0183223346" flag="0"/>
      <psa30 value="0.0014128164" flag="0"/>
    </comp>
  </station>
</stationlist>
