<?xml version="1.0" encoding="UTF-8" standalone="yes"?>
<!DOCTYPE earthquake SYSTEM "stationlist.dtd">
<stationlist created="" xmlns="ch.ethz.sed.shakemap.usgs.xml">
  <station code="APE" name="APE" netid="GE" insttype="STS-2/N" lat="37.0727" lon="25.523">
    <comp name="--.HHE">
      <acc value="0.0490948649" flag="0"/>
      <vel value="0.0261646222" flag="0"/>
      <psa03 value="0.1298653636" flag="0"/>
      <psa10 value="0.0169297610" flag="0"/>
      <psa30 value="0.0042929494" flag="0"/>
    </comp>
    <comp name="--.HHN">
      <acc value="0.0521312222" flag="0"/>
      <vel value="0.0199507733" flag="0"/>
      <psa03 value="0.1462409608" flag="0"/>
      <psa10 value="0.0202388002" flag="0"/>
      <psa30 value="0.0027819089" flag="0"/>
    </comp>
    <comp name="--.HHZ">
      <acc value="0.0265264937" flag="0"/>
      <vel value="0.0190895350" flag="0"/>
      <psa03 value="0.0828448565" flag="0"/>
      <psa10 value="0.0243115160" flag="0"/>
      <psa30 value="0.0023562604" flag="0"/>
    </comp>
  </station>
  <station code="KOSP" name="KOSP" netid="HC" insttype="60" lat="36.881" lon="27.281">
    <comp name="--.HHZ">
      <acc value="0.1179562848" flag="0"/>
      <vel value="0.1293036724" flag="0"/>
      <psa03 value="0.1786770380" flag="0"/>
      <psa10 value="0.2072213282" flag="0"/>
      <psa30 value="0.0104646563" flag="0"/>
    </comp>
    <comp name="--.HHE">
      <acc value="0.0642438234" flag="0"/>
      <vel value="0.0771884069" flag="0"/>
      <psa03 value="0.1925851629" flag="0"/>
      <psa10 value="0.1206010130" flag="0"/>
      <psa30 value="0.0284722442" flag="0"/>
    </comp>
    <comp name="--.HHN">
      <acc value="0.0812290350" flag="0"/>
      <vel value="0.0963303860" flag="0"/>
      <psa03 value="0.1612614998" flag="0"/>
      <psa10 value="0.1478205012" flag="0"/>
      <psa30 value="0.0283899144" flag="0"/>
    </comp>
  </station>
  <station code="KRL1" name="KRL1" netid="HI" insttype="CMG-5TD,ACCELEROMETER,GURALP" lat="37.7951" lon="26.7065">
    <comp name="--.HNE">
      <acc value="2.1786263440" flag="0"/>
      <vel value="0.9797248963" flag="0"/>
      <psa03 value="4.2159834813" flag="0"/>
      <psa10 value="0.4929157882" flag="0"/>
      <psa30 value="0.0341013806" flag="0"/>
    </comp>
    <comp name="--.HNN">
      <acc value="3.4814179477" flag="0"/>
      <vel value="1.6419353733" flag="0"/>
      <psa03 value="8.3475210760" flag="0"/>
      <psa10 value="0.6375861189" flag="0"/>
      <psa30 value="0.0753733674" flag="0"/>
    </comp>
    <comp name="--.HNZ">
      <acc value="1.0117683089" flag="0"/>
      <vel value="0.3699697064" flag="0"/>
      <psa03 value="1.7911826475" flag="0"/>
      <psa10 value="0.4054398275" flag="0"/>
      <psa30 value="0.0220493905" flag="0"/>
    </comp>
  </station>
  <station code="MYT1" name="MYT1" netid="HI" insttype="CMG-5TD,ACCELEROMETER,GURALP" lat="39.085" lon="26.5694">
    <comp name="--.HNE">
      <acc value="0.0801146841" flag="0"/>
      <vel value="0.0678832606" flag="0"/>
      <psa03 value="0.1748476388" flag="0"/>
      <psa10 value="0.0923092445" flag="0"/>
      <psa30 value="0.0190550697" flag="0"/>
    </comp>
    <comp name="--.HNN">
      <acc value="0.0779970394" flag="0"/>
      <vel value="0.0623782741" flag="0"/>
      <psa03 value="0.1438433382" flag="0"/>
      <psa10 value="0.1081252823" flag="0"/>
      <psa30 value="0.0162647263" flag="0"/>
    </comp>
    <comp name="--.HNZ">
      <acc value="0.0710669857" flag="0"/>
      <vel value="0.0658254312" flag="0"/>
      <psa03 value="0.1426271276" flag="0"/>
      <psa10 value="0.0942849433" flag="0"/>
      <psa30 value="0.0129070835" flag="0"/>
    </comp>
  </station>
  <station code="APE" name="APE" netid="HL" insttype="120" lat="37.0727" lon="25.523">
    <comp name="--.HHN">
      <acc value="0.0493947819" flag="0"/>
      <vel value="0.0194335037" flag="0"/>
      <psa03 value="0.1431451275" flag="0"/>
      <psa10 value="0.0201270581" flag="0"/>
      <psa30 value="0.0027773030" flag="0"/>
    </comp>
    <comp name="--.HHE">
      <acc value="0.0472683149" flag="0"/>
      <vel value="0.0258732459" flag="0"/>
      <psa03 value="0.1261120473" flag="0"/>
      <psa10 value="0.0167464286" flag="0"/>
      <psa30 value="0.0042831247" flag="0"/>
    </comp>
    <comp name="--.HHZ">
      <acc value="0.0257638374" flag="0"/>
      <vel value="0.0187041460" flag="0"/>
      <psa03 value="0.0805888039" flag="0"/>
      <psa10 value="0.0241711977" flag="0"/>
      <psa30 value="0.0023469297" flag="0"/>
    </comp>
  </station>
  <station code="KLNA" name="KLNA" netid="HL" insttype="CMG-5" lat="36.9571" lon="26.9727">
    <comp name="00.HNN">
      <acc value="0.1808649952" flag="0"/>
      <vel value="0.0774439167" flag="0"/>
      <psa03 value="0.7323019057" flag="0"/>
      <psa10 value="0.0479170927" flag="0"/>
      <psa30 value="0.0062813165" flag="0"/>
    </comp>
    <comp name="00.HNZ">
      <acc value="0.1869463167" flag="0"/>
      <vel value="0.0543373954" flag="0"/>
      <psa03 value="0.2400814233" flag="0"/>
      <psa10 value="0.0636616532" flag="0"/>
      <psa30 value="0.0067099454" flag="0"/>
    </comp>
    <comp name="00.HNE">
      <acc value="0.2332058878" flag="0"/>
      <vel value="0.1134066628" flag="0"/>
      <psa03 value="0.6974966824" flag="0"/>
      <psa10 value="0.0574352021" flag="0"/>
      <psa30 value="0.0042158334" flag="0"/>
    </comp>
  </station>
  <station code="NISR" name="NISR" netid="HL" insttype="65535" lat="36.6106" lon="27.131">
    <comp name="--.HHN">
      <acc value="0.0501145352" flag="0"/>
      <vel value="0.0503742107" flag="0"/>
      <psa03 value="0.0912012091" flag="0"/>
      <psa10 value="0.0492534213" flag="0"/>
      <psa30 value="0.0096960770" flag="0"/>
    </comp>
    <comp name="--.HHZ">
      <acc value="0.0309347150" flag="0"/>
      <vel value="0.0296408182" flag="0"/>
      <psa03 value="0.0681685814" flag="0"/>
      <psa10 value="0.0328285643" flag="0"/>
      <psa30 value="0.0028080416" flag="0"/>
    </comp>
    <comp name="--.HHE">
      <acc value="0.0537073760" flag="0"/>
      <vel value="0.0375567589" flag="0"/>
      <psa03 value="0.1620112129" flag="0"/>
      <psa10 value="0.0374336404" flag="0"/>
      <psa30 value="0.0101979558" flag="0"/>
    </comp>
  </station>
  <station code="NISR2" name="NISR2" netid="HL" insttype="120" lat="36.5744" lon="27.1767">
    <comp name="--.HHE">
      <acc value="0.0603488044" flag="0"/>
      <vel value="0.0629562363" flag="0"/>
      <psa03 value="0.1343439948" flag="0"/>
      <psa10 value="0.1171576821" flag="0"/>
      <psa30 value="0.0126379240" flag="0"/>
    </comp>
    <comp name="--.HHZ">
      <acc value="0.0329011129" flag="0"/>
      <vel value="0.0214989405" flag="0"/>
      <psa03 value="0.0857656515" flag="0"/>
      <psa10 value="0.0290804540" flag="0"/>
      <psa30 value="0.0058440874" flag="0"/>
    </comp>
    <comp name="--.HHN">
      <acc value="0.0577453591" flag="0"/>
      <vel value="0.0698423847" flag="0"/>
      <psa03 value="0.2377903373" flag="0"/>
      <psa10 value="0.1081554408" flag="0"/>
      <psa30 value="0.0133111483" flag="0"/>
    </comp>
  </station>
  <station code="PRK" name="PRK" netid="HL" insttype="120" lat="39.2456" lon="26.265">
    <comp name="--.HHN">
      <acc value="0.1181732568" flag="0"/>
      <vel value="0.1467345953" flag="0"/>
      <psa03 value="0.2678927719" flag="0"/>
      <psa10 value="0.1929661610" flag="0"/>
      <psa30 value="0.0160883252" flag="0"/>
    </comp>
    <comp name="--.HHZ">
      <acc value="0.1402940348" flag="0"/>
      <vel value="0.1244056083" flag="0"/>
      <psa03 value="0.1872089011" flag="0"/>
      <psa10 value="0.1154207373" flag="0"/>
      <psa30 value="0.0115565061" flag="0"/>
    </comp>
    <comp name="--.HHE">
      <acc value="0.2106388667" flag="0"/>
      <vel value="0.1786273659" flag="0"/>
      <psa03 value="0.3362165374" flag="0"/>
      <psa10 value="0.2457402267" flag="0"/>
      <psa30 value="0.0238259425" flag="0"/>
    </comp>
  </station>
  <station code="PSRA" name="PSRA" netid="HL" insttype="CMG-5" lat="38.5398" lon="25.562">
    <comp name="00.HNE">
      <acc value="0.1162024492" flag="0"/>
      <vel value="0.0512309294" flag="0"/>
      <psa03 value="0.1836273396" flag="0"/>
      <psa10 value="0.0452103214" flag="0"/>
      <psa30 value="0.0026627575" flag="0"/>
    </comp>
    <comp name="00.HNN">
      <acc value="0.1739392768" flag="0"/>
      <vel value="0.0681426861" flag="0"/>
      <psa03 value="0.2492323975" flag="0"/>
      <psa10 value="0.0334072016" flag="0"/>
      <psa30 value="0.0040285875" flag="0"/>
    </comp>
    <comp name="00.HNZ">
      <acc value="0.0608621968" flag="0"/>
      <vel value="0.0323255914" flag="0"/>
      <psa03 value="0.0787057046" flag="0"/>
      <psa10 value="0.0247632817" flag="0"/>
      <psa30 value="0.0035155942" flag="0"/>
    </comp>
  </station>
  <station code="SMG" name="SMG" netid="HL" insttype="120" lat="37.7043" lon="26.8377">
    <comp name="--.HHZ">
      <acc value="0.3846449517" flag="0"/>
      <vel value="0.1385239622" flag="0"/>
      <psa03 value="0.7420659658" flag="0"/>
      <psa10 value="0.1544984772" flag="0"/>
      <psa30 value="0.0319502257" flag="0"/>
    </comp>
    <comp name="--.HHN">
      <acc value="0.8864634805" flag="0"/>
      <vel value="0.5669582715" flag="0"/>
      <psa03 value="4.0217537166" flag="0"/>
      <psa10 value="0.3732731557" flag="0"/>
      <psa30 value="0.0245654451" flag="0"/>
    </comp>
    <comp name="--.HHE">
      <acc value="0.8401191496" flag="0"/>
      <vel value="0.3434334486" flag="0"/>
      <psa03 value="2.2745836618" flag="0"/>
      <psa10 value="0.2517345934" flag="0"/>
      <psa30 value="0.0311477878" flag="0"/>
    </comp>
  </station>
  <station code="LES3" name="LES3" netid="HT" insttype="" lat="39.3032" lon="26.1807">
    <comp name="--.HHE">
      <acc value="0.0661061717" flag="0"/>
      <vel value="0.0628277921" flag="0"/>
      <psa03 value="0.1234839740" flag="0"/>
      <psa10 value="0.0744704838" flag="0"/>
      <psa30 value="0.0064804543" flag="0"/>
    </comp>
    <comp name="--.HHN">
      <acc value="0.0965453658" flag="0"/>
      <vel value="0.0969613749" flag="0"/>
      <psa03 value="0.1937924635" flag="0"/>
      <psa10 value="0.1121260760" flag="0"/>
      <psa30 value="0.0108809732" flag="0"/>
    </comp>
    <comp name="--.HHZ">
      <acc value="0.0370399593" flag="0"/>
      <vel value="0.0320302522" flag="0"/>
      <psa03 value="0.1092868312" flag="0"/>
      <psa10 value="0.0446943859" flag="0"/>
      <psa30 value="0.0034562570" flag="0"/>
    </comp>
  </station>
  <station code="AKS" name="AKS" netid="KO" insttype="CMG-5T" lat="38.8785" lon="27.8129">
    <comp name="--.HNE">
      <acc value="0.1289301118" flag="0"/>
      <vel value="0.0665013708" flag="0"/>
      <psa03 value="0.2971456371" flag="0"/>
      <psa10 value="0.0927483592" flag="0"/>
      <psa30 value="0.0210749101" flag="0"/>
    </comp>
    <comp name="--.HNN">
      <acc value="0.1292311197" flag="0"/>
      <vel value="0.0776684803" flag="0"/>
      <psa03 value="0.3868438462" flag="0"/>
      <psa10 value="0.0736727865" flag="0"/>
      <psa30 value="0.0098138661" flag="0"/>
    </comp>
    <comp name="--.HNZ">
      <acc value="0.0590730479" flag="0"/>
      <vel value="0.0375197480" flag="0"/>
      <psa03 value="0.0867856387" flag="0"/>
      <psa10 value="0.0465366472" flag="0"/>
      <psa30 value="0.0111948905" flag="0"/>
    </comp>
  </station>
  <station code="AYDB" name="AYDB" netid="KO" insttype="CMG-3ESPC" lat="37.9467" lon="27.8908">
    <comp name="--.HHZ">
      <acc value="0.2183675933" flag="0"/>
      <vel value="0.0933015110" flag="0"/>
      <psa03 value="0.4771840787" flag="0"/>
      <psa10 value="0.0696860264" flag="0"/>
      <psa30 value="0.0075083714" flag="0"/>
    </comp>
    <comp name="--.HHE">
      <acc value="0.5070740811" flag="0"/>
      <vel value="0.1561557880" flag="0"/>
      <psa03 value="1.6032486969" flag="0"/>
      <psa10 value="0.1148890646" flag="0"/>
      <psa30 value="0.0146639682" flag="0"/>
    </comp>
  </station>
  <station code="BODA" name="BODA" netid="KO" insttype="ACEBOX" lat="37.0348" lon="27.4304">
    <comp name="--.HNE">
      <acc value="0.1447877468" flag="0"/>
      <vel value="0.0679326507" flag="0"/>
      <psa03 value="0.4748626111" flag="0"/>
      <psa10 value="0.0363242075" flag="0"/>
      <psa30 value="0.0093480900" flag="0"/>
    </comp>
    <comp name="--.HNZ">
      <acc value="0.0417084339" flag="0"/>
      <vel value="0.0221086335" flag="0"/>
      <psa03 value="0.0988884854" flag="0"/>
      <psa10 value="0.0334379418" flag="0"/>
      <psa30 value="0.0092396407" flag="0"/>
    </comp>
    <comp name="--.HNN">
      <acc value="0.1316048895" flag="0"/>
      <vel value="0.0621807603" flag="0"/>
      <psa03 value="0.5155095660" flag="0"/>
      <psa10 value="0.0351420553" flag="0"/>
      <psa30 value="0.0049938981" flag="0"/>
    </comp>
  </station>
  <station code="CESE" name="CESE" netid="KO" insttype="CMG-5T" lat="38.3306" lon="26.2997">
    <comp name="--.HNN">
      <acc value="0.1144430475" flag="0"/>
      <vel value="0.0854122672" flag="0"/>
      <psa03 value="0.3298116414" flag="0"/>
      <psa10 value="0.0940883257" flag="0"/>
      <psa30 value="0.0066843384" flag="0"/>
    </comp>
    <comp name="--.HNE">
      <acc value="0.0849346727" flag="0"/>
      <vel value="0.0397628266" flag="0"/>
      <psa03 value="0.1149452581" flag="0"/>
      <psa10 value="0.0707391238" flag="0"/>
      <psa30 value="0.0065208132" flag="0"/>
    </comp>
    <comp name="--.HNZ">
      <acc value="0.0593269691" flag="0"/>
      <vel value="0.0293170328" flag="0"/>
      <psa03 value="0.1340673813" flag="0"/>
      <psa10 value="0.0504781322" flag="0"/>
      <psa30 value="0.0042861511" flag="0"/>
    </comp>
  </station>
  <station code="DAT" name="DAT" netid="KO" insttype="CMG-3T" lat="36.7308" lon="27.5767">
    <comp name="--.HHE">
      <acc value="0.0262812894" flag="0"/>
      <vel value="0.0332837095" flag="0"/>
      <psa03 value="0.0790385647" flag="0"/>
      <psa10 value="0.0209567920" flag="0"/>
      <psa30 value="0.0180461007" flag="0"/>
    </comp>
    <comp name="--.HHN">
      <acc value="0.0324906091" flag="0"/>
      <vel value="0.0271466692" flag="0"/>
      <psa03 value="0.0970975191" flag="0"/>
      <psa10 value="0.0356833379" flag="0"/>
      <psa30 value="0.0120868070" flag="0"/>
    </comp>
    <comp name="--.HHZ">
      <acc value="0.0000290794" flag="0"/>
      <vel value="0.0000031254" flag="0"/>
      <psa03 value="0.0000107076" flag="0"/>
      <psa10 value="0.0000033004" flag="0"/>
      <psa30 value="0.0000008871" flag="0"/>
    </comp>
  </station>
  <station code="DIDI" name="DIDI" netid="KO" insttype="CMG-5T" lat="37.3767" lon="27.2398">
    <comp name="--.HNN">
      <acc value="0.5127321167" flag="0"/>
      <vel value="0.3104232895" flag="0"/>
      <psa03 value="1.7155611838" flag="0"/>
      <psa10 value="0.3754046675" flag="0"/>
      <psa30 value="0.0609424918" flag="0"/>
    </comp>
    <comp name="--.HNZ">
      <acc value="0.6160845838" flag="0"/>
      <vel value="0.1997712547" flag="0"/>
      <psa03 value="1.3693724893" flag="0"/>
      <psa10 value="0.1478411453" flag="0"/>
      <psa30 value="0.0195934057" flag="0"/>
    </comp>
    <comp name="--.HNE">
      <acc value="0.3702772713" flag="0"/>
      <vel value="0.1941898714" flag="0"/>
      <psa03 value="1.4299973021" flag="0"/>
      <psa10 value="0.2251691745" flag="0"/>
      <psa30 value="0.0439781098" flag="0"/>
    </comp>
  </station>
  <station code="GMLD" name="GMLD" netid="KO" insttype="CMG-5T" lat="38.0766" lon="26.9157">
    <comp name="--.HNE">
      <acc value="5.1858494892" flag="0"/>
      <vel value="1.5514407878" flag="0"/>
      <psa03 value="6.7474355703" flag="0"/>
      <psa10 value="1.0941586803" flag="0"/>
      <psa30 value="0.0506114348" flag="0"/>
    </comp>
    <comp name="--.HNN">
      <acc value="11.1209920756" flag="0"/>
      <vel value="3.4600870519" flag="0"/>
      <psa03 value="15.2990968636" flag="0"/>
      <psa10 value="2.0902690916" flag="0"/>
      <psa30 value="0.1423695029" flag="0"/>
    </comp>
    <comp name="--.HNZ">
      <acc value="4.3754269309" flag="0"/>
      <vel value="1.2145639053" flag="0"/>
      <psa03 value="4.6123671124" flag="0"/>
      <psa10 value="0.3770777612" flag="0"/>
      <psa30 value="0.0286483563" flag="0"/>
    </comp>
  </station>
  <station code="GOMA" name="GOMA" netid="KO" insttype="CMG-5T" lat="38.7077" lon="27.9175">
    <comp name="--.HNN">
      <acc value="0.2050344242" flag="0"/>
      <vel value="0.1713960650" flag="0"/>
      <psa03 value="0.8366621897" flag="0"/>
      <psa10 value="0.1436940287" flag="0"/>
      <psa30 value="0.0240690608" flag="0"/>
    </comp>
    <comp name="--.HNZ">
      <acc value="0.1561436175" flag="0"/>
      <vel value="0.0933388574" flag="0"/>
      <psa03 value="0.3319426057" flag="0"/>
      <psa10 value="0.0976406865" flag="0"/>
      <psa30 value="0.0172312640" flag="0"/>
    </comp>
    <comp name="--.HNE">
      <acc value="0.2401018992" flag="0"/>
      <vel value="0.1563066196" flag="0"/>
      <psa03 value="0.6298908019" flag="0"/>
      <psa10 value="0.1734026412" flag="0"/>
      <psa30 value="0.0294955097" flag="0"/>
    </comp>
  </station>
  <station code="GORD" name="GORD" netid="KO" insttype="CMG-5T" lat="38.9088" lon="28.1769">
    <comp name="--.HNE">
      <acc value="0.0765154704" flag="0"/>
      <vel value="0.1360198359" flag="0"/>
      <psa03 value="0.2429357066" flag="0"/>
      <psa10 value="0.2505399362" flag="0"/>
      <psa30 value="0.0228697944" flag="0"/>
    </comp>
    <comp name="--.HNZ">
      <acc value="0.0523760384" flag="0"/>
      <vel value="0.0848038423" flag="0"/>
      <psa03 value="0.1500104014" flag="0"/>
      <psa10 value="0.1205166299" flag="0"/>
      <psa30 value="0.0197148468" flag="0"/>
    </comp>
    <comp name="--.HNN">
      <acc value="0.0816170873" flag="0"/>
      <vel value="0.1072111746" flag="0"/>
      <psa03 value="0.1631714640" flag="0"/>
      <psa10 value="0.1207620434" flag="0"/>
      <psa30 value="0.0290914931" flag="0"/>
    </comp>
  </station>
  <station code="KRBN" name="KRBN" netid="KO" insttype="CMG-5T" lat="38.5936" lon="26.5537">
    <comp name="--.HNN">
      <acc value="0.3459945728" flag="0"/>
      <vel value="0.2773081863" flag="0"/>
      <psa03 value="0.8181737475" flag="0"/>
      <psa10 value="0.4461491292" flag="0"/>
      <psa30 value="0.0186003284" flag="0"/>
    </comp>
    <comp name="--.HNZ">
      <acc value="0.1759951881" flag="0"/>
      <vel value="0.0937895655" flag="0"/>
      <psa03 value="0.3156879558" flag="0"/>
      <psa10 value="0.0987458789" flag="0"/>
      <psa30 value="0.0076168182" flag="0"/>
    </comp>
    <comp name="--.HNE">
      <acc value="0.3289318460" flag="0"/>
      <vel value="0.1462024397" flag="0"/>
      <psa03 value="0.6816552346" flag="0"/>
      <psa10 value="0.2012356109" flag="0"/>
      <psa30 value="0.0135872412" flag="0"/>
    </comp>
  </station>
  <station code="KULA" name="KULA" netid="KO" insttype="CMG-3T" lat="38.5145" lon="28.6607">
    <comp name="--.HHZ">
      <acc value="0.0261392157" flag="0"/>
      <vel value="0.0351491870" flag="0"/>
      <psa03 value="0.0626995615" flag="0"/>
      <psa10 value="0.0552173432" flag="0"/>
      <psa30 value="0.0080773414" flag="0"/>
    </comp>
    <comp name="--.HHE">
      <acc value="0.0211044471" flag="0"/>
      <vel value="0.0296512501" flag="0"/>
      <psa03 value="0.0514281213" flag="0"/>
      <psa10 value="0.0662208486" flag="0"/>
      <psa30 value="0.0064467978" flag="0"/>
    </comp>
    <comp name="--.HHN">
      <acc value="0.0347660676" flag="0"/>
      <vel value="0.0458070901" flag="0"/>
