<stationlist created="1778637332">
	<station code="ATHU" name="ATHU" netid="HA" source="Hellenic Seismological Network, University of Athens, Seismological Laboratory (HA)" insttype="" lat="37.9665" lon="23.7845">
		<comp name="--.HNE" depth="0.0">
			<acc value="0.000144240020928286" flag="0"/>
			<vel value="0.000545890800149158" flag="0"/>
			<psa03 value="0.000363700159431343" flag="0"/>
			<psa10 value="0.000139075883016477" flag="0"/>
			<psa30 value="0.000124856291950112" flag="0"/>
		</comp>
		<comp name="--.HNN" depth="0.0">
			<acc value="0.000121499595108151" flag="0"/>
			<vel value="0.000595633550427449" flag="0"/>
			<psa03 value="0.000266762707527253" flag="0"/>
			<psa10 value="0.000145720341734193" flag="0"/>
			<psa30 value="0.000130696939280812" flag="0"/>
		</comp>
		<comp name="--.HNZ" depth="0.0">
			<acc value="0.000147094859277294" flag="0"/>
			<vel value="0.000512231926347687" flag="0"/>
			<psa03 value="0.000326443235776417" flag="0"/>
			<psa10 value="0.000173191336357277" flag="0"/>
			<psa30 value="0.000104517809208659" flag="0"/>
		</comp>
	</station>
	<station code="ATH5" name="ATH5" netid="HI" source="ITSAK Strong Motion Network" insttype="" lat="37.975421" lon="23.737098">
		<comp name="--.HNE" depth="0.0">
			<acc value="0.00599788544827568" flag="0"/>
			<vel value="0.00415548463726058" flag="0"/>
			<psa03 value="0.0242145259685012" flag="0"/>
			<psa10 value="0.00404727373702657" flag="0"/>
			<psa30 value="0.000608107575807021" flag="0"/>
		</comp>
		<comp name="--.HNN" depth="0.0">
			<acc value="0.00497473896158947" flag="0"/>
			<vel value="0.00568842862448873" flag="0"/>
			<psa03 value="0.0182072998942801" flag="0"/>
			<psa10 value="0.00671830943000908" flag="0"/>
			<psa30 value="0.0013454536088647" flag="0"/>
		</comp>
		<comp name="--.HNZ" depth="0.0">
			<acc value="0.00255943924488587" flag="0"/>
			<vel value="0.00255553356631191" flag="0"/>
			<psa03 value="0.00966275990209515" flag="0"/>
			<psa10 value="0.00645164285843392" flag="0"/>
			<psa30 value="0.000402284227480713" flag="0"/>
		</comp>
	</station>
	<station code="KRL1" name="KRL1" netid="HI" source="ITSAK Strong Motion Network" insttype="" lat="37.7951" lon="26.7065">
		<comp name="--.HNE" depth="0.0">
			<acc value="2.17236511745678" flag="0"/>
			<vel value="0.976897043955263" flag="0"/>
			<psa03 value="4.34737032528199" flag="0"/>
			<psa10 value="0.493883177336926" flag="0"/>
			<psa30 value="0.0352273503057395" flag="0"/>
		</comp>
		<comp name="--.HNN" depth="0.0">
			<acc value="3.50467672036604" flag="0"/>
			<vel value="1.64348602317283" flag="0"/>
			<psa03 value="8.42695624448161" flag="0"/>
			<psa10 value="0.637906398168531" flag="0"/>
			<psa30 value="0.074865526140166" flag="0"/>
		</comp>
		<comp name="--.HNZ" depth="0.0">
			<acc value="0.993813046139028" flag="0"/>
			<vel value="0.365329331741693" flag="0"/>
			<psa03 value="1.82010623977071" flag="0"/>
			<psa10 value="0.405976603955857" flag="0"/>
			<psa30 value="0.0226542057299701" flag="0"/>
		</comp>
	</station>
	<station code="KSS1" name="KSS1" netid="HI" source="ITSAK Strong Motion Network" insttype="" lat="35.4189" lon="26.9207">
		<comp name="--.HNE" depth="0.0">
			<acc value="0.00177092721600998" flag="0"/>
			<vel value="0.00331582809033561" flag="0"/>
			<psa03 value="0.00679477954789891" flag="0"/>
			<psa10 value="0.00270957746495731" flag="0"/>
			<psa30 value="0.00116099628530586" flag="0"/>
		</comp>
		<comp name="--.HNN" depth="0.0">
			<acc value="0.00269422169202235" flag="0"/>
			<vel value="0.00302774128352875" flag="0"/>
			<psa03 value="0.00888158966382465" flag="0"/>
			<psa10 value="0.00280819329465065" flag="0"/>
			<psa30 value="0.000957151427417622" flag="0"/>
		</comp>
		<comp name="--.HNZ" depth="0.0">
			<acc value="0.00176879474145102" flag="0"/>
			<vel value="0.00327023644997346" flag="0"/>
			<psa03 value="0.00331640101039553" flag="0"/>
			<psa10 value="0.00214385787943837" flag="0"/>
			<psa30 value="0.000983568385744077" flag="0"/>
		</comp>
	</station>
	<station code="MYT1" name="MYT1" netid="HI" source="ITSAK Strong Motion Network" insttype="" lat="39.085" lon="26.5694">
		<comp name="--.HNE" depth="0.0">
			<acc value="0.0804915864840813" flag="0"/>
			<vel value="0.0679245177630499" flag="0"/>
			<psa03 value="0.177945308836755" flag="0"/>
			<psa10 value="0.0924764911136229" flag="0"/>
			<psa30 value="0.0192979817299229" flag="0"/>
		</comp>
		<comp name="--.HNN" depth="0.0">
			<acc value="0.0784562014273776" flag="0"/>
			<vel value="0.0611608949698311" flag="0"/>
			<psa03 value="0.14175826578929" flag="0"/>
			<psa10 value="0.108371979111817" flag="0"/>
			<psa30 value="0.0160251699221925" flag="0"/>
		</comp>
		<comp name="--.HNZ" depth="0.0">
			<acc value="0.0714972795879865" flag="0"/>
			<vel value="0.0674783744585741" flag="0"/>
			<psa03 value="0.145093195045579" flag="0"/>
			<psa10 value="0.0944028737271876" flag="0"/>
			<psa30 value="0.0133424772069603" flag="0"/>
		</comp>
	</station>
	<station code="NAX1" name="NAX1" netid="HI" source="ITSAK Strong Motion Network" insttype="" lat="37.101394" lon="25.374103">
		<comp name="--.HNE" depth="0.0">
			<acc value="0.0345636648224039" flag="0"/>
			<vel value="0.0189409020621993" flag="0"/>
			<psa03 value="0.0744808767008387" flag="0"/>
			<psa10 value="0.0210056927740566" flag="0"/>
			<psa30 value="0.0020206351071577" flag="0"/>
		</comp>
		<comp name="--.HNN" depth="0.0">
			<acc value="0.036897821812802" flag="0"/>
			<vel value="0.0192667695731668" flag="0"/>
			<psa03 value="0.10073420439658" flag="0"/>
			<psa10 value="0.0218565116366185" flag="0"/>
			<psa30 value="0.00211797593051104" flag="0"/>
		</comp>
		<comp name="--.HNZ" depth="0.0">
			<acc value="0.0283661677507244" flag="0"/>
			<vel value="0.018158124201979" flag="0"/>
			<psa03 value="0.0720523460311952" flag="0"/>
			<psa10 value="0.0141160466813177" flag="0"/>
			<psa30 value="0.00167032690096186" flag="0"/>
		</comp>
	</station>
	<station code="RDI1" name="RDI1" netid="HI" source="ITSAK Strong Motion Network" insttype="" lat="36.4514" lon="28.224">
		<comp name="--.HNE" depth="0.0">
			<acc value="0.0209483076635764" flag="0"/>
			<vel value="0.0487476983689603" flag="0"/>
			<psa03 value="0.0523672138625269" flag="0"/>
			<psa10 value="0.0461812942839407" flag="0"/>
			<psa30 value="0.0272333607431572" flag="0"/>
		</comp>
		<comp name="--.HNN" depth="0.0">
			<acc value="0.0186075862872104" flag="0"/>
			<vel value="0.0335659321041171" flag="0"/>
			<psa03 value="0.0480630901939028" flag="0"/>
			<psa10 value="0.0385622295584561" flag="0"/>
			<psa30 value="0.0188098960633003" flag="0"/>
		</comp>
		<comp name="--.HNZ" depth="0.0">
			<acc value="0.0117262900503917" flag="0"/>
			<vel value="0.0160532482945059" flag="0"/>
			<psa03 value="0.0285181886692219" flag="0"/>
			<psa10 value="0.0362621609401983" flag="0"/>
			<psa30 value="0.00523333959971919" flag="0"/>
		</comp>
	</station>
	<station code="SKY1" name="SKY1" netid="HI" source="ITSAK Strong Motion Network" insttype="" lat="38.904483" lon="24.564572">
		<comp name="--.HNE" depth="0.0">
			<acc value="0.00801009461265177" flag="0"/>
			<vel value="0.00831926579915684" flag="0"/>
			<psa03 value="0.0211147398937193" flag="0"/>
			<psa10 value="0.0157957238891904" flag="0"/>
			<psa30 value="0.00147403316829597" flag="0"/>
		</comp>
		<comp name="--.HNN" depth="0.0">
			<acc value="0.00839174999634192" flag="0"/>
			<vel value="0.00640947833374095" flag="0"/>
			<psa03 value="0.0228992565466961" flag="0"/>
			<psa10 value="0.00714920594356458" flag="0"/>
			<psa30 value="0.00169411420591901" flag="0"/>
		</comp>
		<comp name="--.HNZ" depth="0.0">
			<acc value="0.00453762262596827" flag="0"/>
			<vel value="0.00424605308571007" flag="0"/>
			<psa03 value="0.0140355586931395" flag="0"/>
			<psa10 value="0.00529973670655483" flag="0"/>
			<psa30 value="0.00178053816024631" flag="0"/>
		</comp>
	</station>
	<station code="EFSA" name="EFSA" netid="HL" source="National Observatory of Athens Seismic Network" insttype="" lat="39.54015" lon="24.98864">
		<comp name="00.HNE" depth="0.0">
			<acc value="0.00629671132937514" flag="0"/>
			<vel value="0.00957201077857786" flag="0"/>
			<psa03 value="0.0147190505857089" flag="0"/>
			<psa10 value="0.0124007102361984" flag="0"/>
			<psa30 value="0.00308905567644543" flag="0"/>
		</comp>
		<comp name="00.HNN" depth="0.0">
			<acc value="0.00488788781177141" flag="0"/>
			<vel value="0.00703754533393536" flag="0"/>
			<psa03 value="0.0115921429225772" flag="0"/>
			<psa10 value="0.0112483198334798" flag="0"/>
			<psa30 value="0.00350854075694041" flag="0"/>
		</comp>
		<comp name="00.HNZ" depth="0.0">
			<acc value="0.00432178573473776" flag="0"/>
			<vel value="0.00554562068014264" flag="0"/>
			<psa03 value="0.00726075833336063" flag="0"/>
			<psa10 value="0.00792379397495357" flag="0"/>
			<psa30 value="0.00186756475866538" flag="0"/>
		</comp>
	</station>
	<station code="KLNA" name="KLNA" netid="HL" source="National Observatory of Athens Seismic Network" insttype="" lat="36.95708" lon="26.97274">
		<comp name="00.HNE" depth="0.0">
			<acc value="0.232822307487103" flag="0"/>
			<vel value="0.111954098290188" flag="0"/>
			<psa03 value="0.699525423458999" flag="0"/>
			<psa10 value="0.0574820454034169" flag="0"/>
			<psa30 value="0.00435458638664235" flag="0"/>
		</comp>
		<comp name="00.HNN" depth="0.0">
			<acc value="0.180839363030767" flag="0"/>
			<vel value="0.0774944175691769" flag="0"/>
			<psa03 value="0.733804194259719" flag="0"/>
			<psa10 value="0.0479796509162201" flag="0"/>
			<psa30 value="0.00631340489876036" flag="0"/>
		</comp>
		<comp name="00.HNZ" depth="0.0">
			<acc value="0.186530637431127" flag="0"/>
			<vel value="0.0544354768054919" flag="0"/>
			<psa03 value="0.239843013422413" flag="0"/>
			<psa10 value="0.0636642549444497" flag="0"/>
			<psa30 value="0.00699215569597795" flag="0"/>
		</comp>
	</station>
	<station code="LIA" name="LIA" netid="HL" source="National Observatory of Athens Seismic Network" insttype="" lat="39.89725" lon="25.18055">
		<comp name="00.HNE" depth="0.0">
			<acc value="0.00747859104880645" flag="0"/>
			<vel value="0.00651957056360013" flag="0"/>
			<psa03 value="0.0171299199293716" flag="0"/>
			<psa10 value="0.00603230601693648" flag="0"/>
			<psa30 value="0.00126690559294508" flag="0"/>
		</comp>
		<comp name="00.HNN" depth="0.0">
			<acc value="0.00578879095155667" flag="0"/>
			<vel value="0.00618107349531418" flag="0"/>
			<psa03 value="0.0156700224370984" flag="0"/>
			<psa10 value="0.00701520581668799" flag="0"/>
			<psa30 value="0.00265430166779295" flag="0"/>
		</comp>
		<comp name="00.HNZ" depth="0.0">
			<acc value="0.0040507056353414" flag="0"/>
			<vel value="0.00431765119785496" flag="0"/>
			<psa03 value="0.00681269935475269" flag="0"/>
			<psa10 value="0.00621438010969245" flag="0"/>
			<psa30 value="0.00113014528324419" flag="0"/>
		</comp>
	</station>
	<station code="MILA" name="MILA" netid="HL" source="National Observatory of Athens Seismic Network" insttype="" lat="36.74288" lon="24.4282">
		<comp name="00.HNE" depth="0.0">
			<acc value="0.0583752399600552" flag="0"/>
			<vel value="0.0385965724488339" flag="0"/>
			<psa03 value="0.197296382417141" flag="0"/>
			<psa10 value="0.0310303093557222" flag="0"/>
			<psa30 value="0.00294971144557477" flag="0"/>
		</comp>
		<comp name="00.HNN" depth="0.0">
			<acc value="0.0697380504008603" flag="0"/>
			<vel value="0.0521440972282678" flag="0"/>
			<psa03 value="0.247550857362934" flag="0"/>
			<psa10 value="0.0622482773927855" flag="0"/>
			<psa30 value="0.00459682076681196" flag="0"/>
		</comp>
		<comp name="00.HNZ" depth="0.0">
			<acc value="0.0515687588271477" flag="0"/>
			<vel value="0.0374640322146063" flag="0"/>
			<psa03 value="0.119137475606447" flag="0"/>
			<psa10 value="0.0450153457956777" flag="0"/>
			<psa30 value="0.00260501277764573" flag="0"/>
		</comp>
	</station>
	<station code="PRK" name="PRK" netid="HL" source="National Observatory of Athens Seismic Network" insttype="" lat="39.24565" lon="26.26499">
		<comp name="--.HNE" depth="0.0">
			<acc value="0.207254840518374" flag="0"/>
			<vel value="0.181964931522262" flag="0"/>
			<psa03 value="0.338015329356481" flag="0"/>
			<psa10 value="0.253054463616256" flag="0"/>
			<psa30 value="0.0211891070076758" flag="0"/>
		</comp>
		<comp name="--.HNN" depth="0.0">
			<acc value="0.136739661871088" flag="0"/>
			<vel value="0.162567926223152" flag="0"/>
			<psa03 value="0.309403204777346" flag="0"/>
			<psa10 value="0.210793214016022" flag="0"/>
			<psa30 value="0.0219214255201775" flag="0"/>
		</comp>
		<comp name="--.HNZ" depth="0.0">
			<acc value="0.144916896620467" flag="0"/>
			<vel value="0.12953411004578" flag="0"/>
			<psa03 value="0.189676856827416" flag="0"/>
			<psa10 value="0.117748005227626" flag="0"/>
			<psa30 value="0.0120830262745032" flag="0"/>
		</comp>
	</station>
	<station code="PSRA" name="PSRA" netid="HL" source="National Observatory of Athens Seismic Network" insttype="" lat="38.53978" lon="25.56202">
		<comp name="00.HNE" depth="0.0">
			<acc value="0.115458558449128" flag="0"/>
			<vel value="0.0514616033556501" flag="0"/>
			<psa03 value="0.18456801839186" flag="0"/>
			<psa10 value="0.0452280823885632" flag="0"/>
			<psa30 value="0.00261096483860463" flag="0"/>
		</comp>
		<comp name="00.HNN" depth="0.0">
			<acc value="0.174242193287917" flag="0"/>
			<vel value="0.0682199421556082" flag="0"/>
			<psa03 value="0.25126470755366" flag="0"/>
			<psa10 value="0.0332898790410974" flag="0"/>
			<psa30 value="0.00410452940492742" flag="0"/>
		</comp>
		<comp name="00.HNZ" depth="0.0">
			<acc value="0.0607502121980814" flag="0"/>
			<vel value="0.0328787684565806" flag="0"/>
			<psa03 value="0.0790748581130354" flag="0"/>
			<psa10 value="0.0247850525130875" flag="0"/>
			<psa30 value="0.0035099725184514" flag="0"/>
		</comp>
	</station>
	<station code="RODB" name="RODB" netid="HL" source="National Observatory of Athens Seismic Network" insttype="" lat="36.4471" lon="28.22116">
		<comp name="00.HNE" depth="0.0">
			<acc value="0.0163858071975138" flag="0"/>
			<vel value="0.0326935253906531" flag="0"/>
			<psa03 value="0.0598788468880677" flag="0"/>
			<psa10 value="0.0357129070548362" flag="0"/>
			<psa30 value="0.0189080092294699" flag="0"/>
		</comp>
		<comp name="00.HNN" depth="0.0">
			<acc value="0.0162042424161679" flag="0"/>
			<vel value="0.0280310873487431" flag="0"/>
			<psa03 value="0.0484892121724524" flag="0"/>
			<psa10 value="0.0529496789062759" flag="0"/>
			<psa30 value="0.0174474324734541" flag="0"/>
		</comp>
		<comp name="00.HNZ" depth="0.0">
			<acc value="0.00978927875551518" flag="0"/>
			<vel value="0.0169938615346886" flag="0"/>
			<psa03 value="0.0236352011327656" flag="0"/>
			<psa10 value="0.0253944660087257" flag="0"/>
			<psa30 value="0.00409352867618306" flag="0"/>
		</comp>
	</station>
	<station code="SMG" name="SMG" netid="HL" source="National Observatory of Athens Seismic Network" insttype="" lat="37.70425" lon="26.83772">
		<comp name="00.HNE" depth="0.0">
			<acc value="0.837750589001622" flag="0"/>
			<vel value="0.36287385759451" flag="0"/>
			<psa03 value="2.52291296393487" flag="0"/>
			<psa10 value="0.219238833496883" flag="0"/>
			<psa30 value="0.0288964142456075" flag="0"/>
		</comp>
		<comp name="00.HNN" depth="0.0">
			<acc value="0.762592183093248" flag="0"/>
			<vel value="0.495015927014446" flag="0"/>
			<psa03 value="3.47851810142107" flag="0"/>
			<psa10 value="0.354413598161573" flag="0"/>
			<psa30 value="0.0256141051420704" flag="0"/>
		</comp>
		<comp name="00.HNZ" depth="0.0">
			<acc value="0.327396002926323" flag="0"/>
			<vel value="0.128623680035901" flag="0"/>
			<psa03 value="0.626213025207964" flag="0"/>
			<psa10 value="0.141999136745853" flag="0"/>
			<psa30 value="0.0310376194233042" flag="0"/>
		</comp>
	</station>
	<station code="THRA" name="THRA" netid="HL" source="National Observatory of Athens Seismic Network" insttype="" lat="36.41502" lon="25.43244">
		<comp name="00.HNE" depth="0.0">
			<acc value="0.0841295675519778" flag="0"/>
			<vel value="0.0724048648738646" flag="0"/>
			<psa03 value="0.25389050649998" flag="0"/>
			<psa10 value="0.0961534296926499" flag="0"/>
			<psa30 value="0.013531026364109" flag="0"/>
		</comp>
		<comp name="00.HNN" depth="0.0">
			<acc value="0.0779333981908636" flag="0"/>
			<vel value="0.081242428419227" flag="0"/>
			<psa03 value="0.275733807678372" flag="0"/>
			<psa10 value="0.135064057330883" flag="0"/>
			<psa30 value="0.0124112555180889" flag="0"/>
		</comp>
		<comp name="00.HNZ" depth="0.0">
			<acc value="0.0546011260035176" flag="0"/>
			<vel value="0.0469379216858901" flag="0"/>
			<psa03 value="0.197214689505276" flag="0"/>
			<psa10 value="0.0333718594718942" flag="0"/>
			<psa30 value="0.00446204808878598" flag="0"/>
		</comp>
	</station>
	<station code="TNSA" name="TNSA" netid="HL" source="National Observatory of Athens Seismic Network" insttype="" lat="37.53942" lon="25.1631">
		<comp name="00.HNE" depth="0.0">
			<acc value="0.0246630939274706" flag="0"/>
			<vel value="0.0135970409368852" flag="0"/>
			<psa03 value="0.0764277087937633" flag="0"/>
			<psa10 value="0.0112733208646607" flag="0"/>
			<psa30 value="0.00127314548547211" flag="0"/>
		</comp>
		<comp name="00.HNN" depth="0.0">
			<acc value="0.0242110759289368" flag="0"/>
			<vel value="0.0127317393103067" flag="0"/>
			<psa03 value="0.0790955938613999" flag="0"/>
			<psa10 value="0.0165398575593874" flag="0"/>
			<psa30 value="0.00118658214691183" flag="0"/>
		</comp>
		<comp name="00.HNZ" depth="0.0">
			<acc value="0.0317036108698118" flag="0"/>
			<vel value="0.0172250770460992" flag="0"/>
			<psa03 value="0.09071633242844" flag="0"/>
			<psa10 value="0.0116888399532948" flag="0"/>
			<psa30 value="0.0011420927413716" flag="0"/>
		</comp>
	</station>
	<station code="LES3" name="LES3" netid="HT" source="Aristotle University of Thessaloniki Seismological Network" insttype="" lat="39.303248" lon="26.180664">
		<comp name="--.HNE" depth="0.0">
			<acc value="0.100416278417873" flag="0"/>
			<vel value="0.082498445152232" flag="0"/>
			<psa03 value="0.156181658768578" flag="0"/>
			<psa10 value="0.101642443313225" flag="0"/>
			<psa30 value="0.0122403108605156" flag="0"/>
		</comp>
		<comp name="--.HNN" depth="0.0">
			<acc value="0.126299347429682" flag="0"/>
			<vel value="0.127229120047515" flag="0"/>
			<psa03 value="0.264632947300641" flag="0"/>
			<psa10 value="0.141680620645754" flag="0"/>
			<psa30 value="0.0184719253410782" flag="0"/>
		</comp>
		<comp name="--.HNZ" depth="0.0">
			<acc value="0.0650955610851199" flag="0"/>
			<vel value="0.0527077613485735" flag="0"/>
			<psa03 value="0.153080630423655" flag="0"/>
			<psa10 value="0.0670992874986032" flag="0"/>
			<psa30 value="0.015857233797258" flag="0"/>
		</comp>
	</station>
	<station code="AKS" name="AKS" netid="KO" source="Bogazici University Kandilli Observatory And Earthquake Research Institute (KOERI)" insttype="" lat="38.8785" lon="27.8129">
		<comp name="--.HNE" depth="0.0">
			<acc value="0.128354607009885" flag="0"/>
			<vel value="0.0651815932596936" flag="0"/>
			<psa03 value="0.303953697940792" flag="0"/>
			<psa10 value="0.092643032146175" flag="0"/>
			<psa30 value="0.0212055981001239" flag="0"/>
		</comp>
		<comp name="--.HNN" depth="0.0">
			<acc value="0.129459544630017" flag="0"/>
			<vel value="0.0776050445892757" flag="0"/>
			<psa03 value="0.383381938838732" flag="0"/>
			<psa10 value="0.0735563377464709" flag="0"/>
			<psa30 value="0.010058891352164" flag="0"/>
		</comp>
		<comp name="--.HNZ" depth="0.0">
			<acc value="0.0582416099946624" flag="0"/>
			<vel value="0.0374948357526548" flag="0"/>
			<psa03 value="0.0871274592667433" flag="0"/>
			<psa10 value="0.0467542609902844" flag="0"/>
			<psa30 value="0.0114127018688243" flag="0"/>
		</comp>
	</station>
