<?xml version="1.0" encoding="UTF-8" standalone="yes"?>
<!DOCTYPE earthquake SYSTEM "stationlist.dtd">
<stationlist created="" xmlns="ch.ethz.sed.shakemap.usgs.xml">
  <station code="APE" name="APE" netid="GE" insttype="STS-2/N" lat="37.0727" lon="25.523">
    <comp name="--.HHE">
      <acc value="0.0490948649" flag="0"/>
      <vel value="0.0261646222" flag="0"/>
      <psa03 value="0.1298653636" flag="0"/>
      <psa10 value="0.0169297610" flag="0"/>
      <psa30 value="0.0042929494" flag="0"/>
    </comp>
    <comp name="--.HHN">
      <acc value="0.0521312222" flag="0"/>
      <vel value="0.0199507733" flag="0"/>
      <psa03 value="0.1462409608" flag="0"/>
      <psa10 value="0.0202388002" flag="0"/>
      <psa30 value="0.0027819089" flag="0"/>
    </comp>
    <comp name="--.HHZ">
      <acc value="0.0265264937" flag="0"/>
      <vel value="0.0190895350" flag="0"/>
      <psa03 value="0.0828448565" flag="0"/>
      <psa10 value="0.0243115160" flag="0"/>
      <psa30 value="0.0023562604" flag="0"/>
    </comp>
  </station>
  <station code="AKS" name="AKS" netid="KO" insttype="CMG-5T" lat="38.8785" lon="27.8129">
    <comp name="--.HNE">
      <acc value="0.1289301118" flag="0"/>
      <vel value="0.0665013708" flag="0"/>
      <psa03 value="0.2971456371" flag="0"/>
      <psa10 value="0.0927483592" flag="0"/>
      <psa30 value="0.0210749101" flag="0"/>
    </comp>
    <comp name="--.HNN">
      <acc value="0.1292311197" flag="0"/>
      <vel value="0.0776684803" flag="0"/>
      <psa03 value="0.3868438462" flag="0"/>
      <psa10 value="0.0736727865" flag="0"/>
      <psa30 value="0.0098138661" flag="0"/>
    </comp>
    <comp name="--.HNZ">
      <acc value="0.0590730479" flag="0"/>
      <vel value="0.0375197480" flag="0"/>
      <psa03 value="0.0867856387" flag="0"/>
      <psa10 value="0.0465366472" flag="0"/>
      <psa30 value="0.0111948905" flag="0"/>
    </comp>
  </station>
  <station code="AYDB" name="AYDB" netid="KO" insttype="CMG-3ESPC" lat="37.9467" lon="27.8908">
    <comp name="--.HHZ">
      <acc value="0.2183675933" flag="0"/>
      <vel value="0.0933015110" flag="0"/>
      <psa03 value="0.4771840787" flag="0"/>
      <psa10 value="0.0696860264" flag="0"/>
      <psa30 value="0.0075083714" flag="0"/>
    </comp>
    <comp name="--.HHE">
      <acc value="0.5070740811" flag="0"/>
      <vel value="0.1561557880" flag="0"/>
      <psa03 value="1.6032486969" flag="0"/>
      <psa10 value="0.1148890646" flag="0"/>
      <psa30 value="0.0146639682" flag="0"/>
    </comp>
  </station>
  <station code="BODA" name="BODA" netid="KO" insttype="ACEBOX" lat="37.0348" lon="27.4304">
    <comp name="--.HNE">
      <acc value="0.1447877468" flag="0"/>
      <vel value="0.0679326507" flag="0"/>
      <psa03 value="0.4748626111" flag="0"/>
      <psa10 value="0.0363242075" flag="0"/>
      <psa30 value="0.0093480900" flag="0"/>
    </comp>
    <comp name="--.HNZ">
      <acc value="0.0417084339" flag="0"/>
      <vel value="0.0221086335" flag="0"/>
      <psa03 value="0.0988884854" flag="0"/>
      <psa10 value="0.0334379418" flag="0"/>
      <psa30 value="0.0092396407" flag="0"/>
    </comp>
    <comp name="--.HNN">
      <acc value="0.1316048895" flag="0"/>
      <vel value="0.0621807603" flag="0"/>
      <psa03 value="0.5155095660" flag="0"/>
      <psa10 value="0.0351420553" flag="0"/>
      <psa30 value="0.0049938981" flag="0"/>
    </comp>
  </station>
  <station code="CESE" name="CESE" netid="KO" insttype="CMG-5T" lat="38.3306" lon="26.2997">
    <comp name="--.HNN">
      <acc value="0.1144430475" flag="0"/>
      <vel value="0.0854122672" flag="0"/>
      <psa03 value="0.3298116414" flag="0"/>
      <psa10 value="0.0940883257" flag="0"/>
      <psa30 value="0.0066843384" flag="0"/>
    </comp>
    <comp name="--.HNE">
      <acc value="0.0849346727" flag="0"/>
      <vel value="0.0397628266" flag="0"/>
      <psa03 value="0.1149452581" flag="0"/>
      <psa10 value="0.0707391238" flag="0"/>
      <psa30 value="0.0065208132" flag="0"/>
    </comp>
    <comp name="--.HNZ">
      <acc value="0.0593269691" flag="0"/>
      <vel value="0.0293170328" flag="0"/>
      <psa03 value="0.1340673813" flag="0"/>
      <psa10 value="0.0504781322" flag="0"/>
      <psa30 value="0.0042861511" flag="0"/>
    </comp>
  </station>
  <station code="DAT" name="DAT" netid="KO" insttype="CMG-3T" lat="36.7308" lon="27.5767">
    <comp name="--.HHE">
      <acc value="0.0262812894" flag="0"/>
      <vel value="0.0332837095" flag="0"/>
      <psa03 value="0.0790385647" flag="0"/>
      <psa10 value="0.0209567920" flag="0"/>
      <psa30 value="0.0180461007" flag="0"/>
    </comp>
    <comp name="--.HHN">
      <acc value="0.0324906091" flag="0"/>
      <vel value="0.0271466692" flag="0"/>
      <psa03 value="0.0970975191" flag="0"/>
      <psa10 value="0.0356833379" flag="0"/>
      <psa30 value="0.0120868070" flag="0"/>
    </comp>
    <comp name="--.HHZ">
      <acc value="0.0000290794" flag="0"/>
      <vel value="0.0000031254" flag="0"/>
      <psa03 value="0.0000107076" flag="0"/>
      <psa10 value="0.0000033004" flag="0"/>
      <psa30 value="0.0000008871" flag="0"/>
    </comp>
  </station>
  <station code="DIDI" name="DIDI" netid="KO" insttype="CMG-5T" lat="37.3767" lon="27.2398">
    <comp name="--.HNN">
      <acc value="0.5127321167" flag="0"/>
      <vel value="0.3104232895" flag="0"/>
      <psa03 value="1.7155611838" flag="0"/>
      <psa10 value="0.3754046675" flag="0"/>
      <psa30 value="0.0609424918" flag="0"/>
    </comp>
    <comp name="--.HNZ">
      <acc value="0.6160845838" flag="0"/>
      <vel value="0.1997712547" flag="0"/>
      <psa03 value="1.3693724893" flag="0"/>
      <psa10 value="0.1478411453" flag="0"/>
      <psa30 value="0.0195934057" flag="0"/>
    </comp>
    <comp name="--.HNE">
      <acc value="0.3702772713" flag="0"/>
      <vel value="0.1941898714" flag="0"/>
      <psa03 value="1.4299973021" flag="0"/>
      <psa10 value="0.2251691745" flag="0"/>
      <psa30 value="0.0439781098" flag="0"/>
    </comp>
  </station>
  <station code="GMLD" name="GMLD" netid="KO" insttype="CMG-5T" lat="38.0766" lon="26.9157">
    <comp name="--.HNE">
      <acc value="5.1858494892" flag="0"/>
      <vel value="1.5514407878" flag="0"/>
      <psa03 value="6.7474355703" flag="0"/>
      <psa10 value="1.0941586803" flag="0"/>
      <psa30 value="0.0506114348" flag="0"/>
    </comp>
    <comp name="--.HNN">
      <acc value="11.1209920756" flag="0"/>
      <vel value="3.4600870519" flag="0"/>
      <psa03 value="15.2990968636" flag="0"/>
      <psa10 value="2.0902690916" flag="0"/>
      <psa30 value="0.1423695029" flag="0"/>
    </comp>
    <comp name="--.HNZ">
      <acc value="4.3754269309" flag="0"/>
      <vel value="1.2145639053" flag="0"/>
      <psa03 value="4.6123671124" flag="0"/>
      <psa10 value="0.3770777612" flag="0"/>
      <psa30 value="0.0286483563" flag="0"/>
    </comp>
  </station>
  <station code="GOMA" name="GOMA" netid="KO" insttype="CMG-5T" lat="38.7077" lon="27.9175">
    <comp name="--.HNN">
      <acc value="0.2050344242" flag="0"/>
      <vel value="0.1713960650" flag="0"/>
      <psa03 value="0.8366621897" flag="0"/>
      <psa10 value="0.1436940287" flag="0"/>
      <psa30 value="0.0240690608" flag="0"/>
    </comp>
    <comp name="--.HNZ">
      <acc value="0.1561436175" flag="0"/>
      <vel value="0.0933388574" flag="0"/>
      <psa03 value="0.3319426057" flag="0"/>
      <psa10 value="0.0976406865" flag="0"/>
      <psa30 value="0.0172312640" flag="0"/>
    </comp>
    <comp name="--.HNE">
      <acc value="0.2401018992" flag="0"/>
      <vel value="0.1563066196" flag="0"/>
      <psa03 value="0.6298908019" flag="0"/>
      <psa10 value="0.1734026412" flag="0"/>
      <psa30 value="0.0294955097" flag="0"/>
    </comp>
  </station>
  <station code="GORD" name="GORD" netid="KO" insttype="CMG-5T" lat="38.9088" lon="28.1769">
    <comp name="--.HNE">
      <acc value="0.0765154704" flag="0"/>
      <vel value="0.1360198359" flag="0"/>
      <psa03 value="0.2429357066" flag="0"/>
      <psa10 value="0.2505399362" flag="0"/>
      <psa30 value="0.0228697944" flag="0"/>
    </comp>
    <comp name="--.HNZ">
      <acc value="0.0523760384" flag="0"/>
      <vel value="0.0848038423" flag="0"/>
      <psa03 value="0.1500104014" flag="0"/>
      <psa10 value="0.1205166299" flag="0"/>
      <psa30 value="0.0197148468" flag="0"/>
    </comp>
    <comp name="--.HNN">
      <acc value="0.0816170873" flag="0"/>
      <vel value="0.1072111746" flag="0"/>
      <psa03 value="0.1631714640" flag="0"/>
      <psa10 value="0.1207620434" flag="0"/>
      <psa30 value="0.0290914931" flag="0"/>
    </comp>
  </station>
  <station code="KRBN" name="KRBN" netid="KO" insttype="CMG-5T" lat="38.5936" lon="26.5537">
    <comp name="--.HNN">
      <acc value="0.3459945728" flag="0"/>
      <vel value="0.2773081863" flag="0"/>
      <psa03 value="0.8181737475" flag="0"/>
      <psa10 value="0.4461491292" flag="0"/>
      <psa30 value="0.0186003284" flag="0"/>
    </comp>
    <comp name="--.HNZ">
      <acc value="0.1759951881" flag="0"/>
      <vel value="0.0937895655" flag="0"/>
      <psa03 value="0.3156879558" flag="0"/>
      <psa10 value="0.0987458789" flag="0"/>
      <psa30 value="0.0076168182" flag="0"/>
    </comp>
    <comp name="--.HNE">
      <acc value="0.3289318460" flag="0"/>
      <vel value="0.1462024397" flag="0"/>
      <psa03 value="0.6816552346" flag="0"/>
      <psa10 value="0.2012356109" flag="0"/>
      <psa30 value="0.0135872412" flag="0"/>
    </comp>
  </station>
  <station code="KULA" name="KULA" netid="KO" insttype="CMG-3T" lat="38.5145" lon="28.6607">
    <comp name="--.HHZ">
      <acc value="0.0261392157" flag="0"/>
      <vel value="0.0351491870" flag="0"/>
      <psa03 value="0.0626995615" flag="0"/>
      <psa10 value="0.0552173432" flag="0"/>
      <psa30 value="0.0080773414" flag="0"/>
    </comp>
    <comp name="--.HHE">
      <acc value="0.0211044471" flag="0"/>
      <vel value="0.0296512501" flag="0"/>
      <psa03 value="0.0514281213" flag="0"/>
      <psa10 value="0.0662208486" flag="0"/>
      <psa30 value="0.0064467978" flag="0"/>
    </comp>
    <comp name="--.HHN">
      <acc value="0.0347660676" flag="0"/>
      <vel value="0.0458070901" flag="0"/>
      <psa03 value="0.1342805426" flag="0"/>
      <psa10 value="0.0924606854" flag="0"/>
      <psa30 value="0.0104220966" flag="0"/>
    </comp>
  </station>
  <station code="KUSD" name="KUSD" netid="KO" insttype="CMG-5T" lat="37.8606" lon="27.2868">
    <comp name="--.HNN">
      <acc value="1.3268438354" flag="0"/>
      <vel value="0.9615672823" flag="0"/>
      <psa03 value="2.4192127177" flag="0"/>
      <psa10 value="0.9836852204" flag="0"/>
      <psa30 value="0.1096547094" flag="0"/>
    </comp>
    <comp name="--.HNZ">
      <acc value="1.2707220920" flag="0"/>
      <vel value="0.3596011738" flag="0"/>
      <psa03 value="0.8108003363" flag="0"/>
      <psa10 value="0.3081435457" flag="0"/>
      <psa30 value="0.0521153359" flag="0"/>
    </comp>
    <comp name="--.HNE">
      <acc value="2.2319015695" flag="0"/>
      <vel value="0.8655258816" flag="0"/>
      <psa03 value="3.0285900846" flag="0"/>
      <psa10 value="0.5831078822" flag="0"/>
      <psa30 value="0.0701479212" flag="0"/>
    </comp>
  </station>
  <station code="MLSB" name="MLSB" netid="KO" insttype="CMG-3ESP" lat="37.2953" lon="27.7767">
    <comp name="--.HHE">
      <acc value="0.0526695320" flag="0"/>
      <vel value="0.0479648976" flag="0"/>
      <psa03 value="0.1773894365" flag="0"/>
      <psa10 value="0.0404799259" flag="0"/>
      <psa30 value="0.0199022135" flag="0"/>
    </comp>
    <comp name="--.HHN">
      <acc value="0.0699561874" flag="0"/>
      <vel value="0.0668919610" flag="0"/>
      <psa03 value="0.2117104039" flag="0"/>
      <psa10 value="0.0431566702" flag="0"/>
      <psa30 value="0.0222578743" flag="0"/>
    </comp>
    <comp name="--.HHZ">
      <acc value="0.0564991723" flag="0"/>
      <vel value="0.0304924785" flag="0"/>
      <psa03 value="0.1329046487" flag="0"/>
      <psa10 value="0.0378535559" flag="0"/>
      <psa30 value="0.0046275255" flag="0"/>
    </comp>
  </station>
  <station code="NAZL" name="NAZL" netid="KO" insttype="CMG-5T" lat="37.9641" lon="28.2922">
    <comp name="--.HNE">
      <acc value="0.2755516241" flag="0"/>
      <vel value="0.1733022694" flag="0"/>
      <psa03 value="1.8461558258" flag="0"/>
      <psa10 value="0.1922758330" flag="0"/>
      <psa30 value="0.0149636031" flag="0"/>
    </comp>
    <comp name="--.HNZ">
      <acc value="0.0886735527" flag="0"/>
      <vel value="0.0553583157" flag="0"/>
      <psa03 value="0.2378050820" flag="0"/>
      <psa10 value="0.0616305517" flag="0"/>
      <psa30 value="0.0122030859" flag="0"/>
    </comp>
    <comp name="--.HNN">
      <acc value="0.2799978409" flag="0"/>
      <vel value="0.1532010040" flag="0"/>
      <psa03 value="0.8857196001" flag="0"/>
      <psa10 value="0.0969971059" flag="0"/>
      <psa30 value="0.0138624123" flag="0"/>
    </comp>
  </station>
  <station code="ODEM" name="ODEM" netid="KO" insttype="CMG-5T" lat="38.2762" lon="28.0747">
    <comp name="--.HNZ">
      <acc value="0.0953051050" flag="0"/>
      <vel value="0.0553427908" flag="0"/>
      <psa03 value="0.1662779249" flag="0"/>
      <psa10 value="0.0938553610" flag="0"/>
      <psa30 value="0.0073623354" flag="0"/>
    </comp>
    <comp name="--.HNE">
      <acc value="0.1433997311" flag="0"/>
      <vel value="0.0566897547" flag="0"/>
      <psa03 value="0.4365703861" flag="0"/>
      <psa10 value="0.0703851789" flag="0"/>
      <psa30 value="0.0096789933" flag="0"/>
    </comp>
    <comp name="--.HNN">
      <acc value="0.1137759941" flag="0"/>
      <vel value="0.0799332866" flag="0"/>
      <psa03 value="0.3372674463" flag="0"/>
      <psa10 value="0.1394567996" flag="0"/>
      <psa30 value="0.0271872031" flag="0"/>
    </comp>
  </station>
  <station code="SOMA" name="SOMA" netid="KO" insttype="CMG-5T" lat="39.1564" lon="27.5341">
    <comp name="--.HNZ">
      <acc value="0.1228833360" flag="0"/>
      <vel value="0.0434935857" flag="0"/>
      <psa03 value="0.2237284051" flag="0"/>
      <psa10 value="0.0353094006" flag="0"/>
      <psa30 value="0.0127351649" flag="0"/>
    </comp>
    <comp name="--.HNE">
      <acc value="0.1559464000" flag="0"/>
      <vel value="0.0637170886" flag="0"/>
      <psa03 value="0.3647705841" flag="0"/>
      <psa10 value="0.0550198500" flag="0"/>
      <psa30 value="0.0117289967" flag="0"/>
    </comp>
    <comp name="--.HNN">
      <acc value="0.1447504535" flag="0"/>
      <vel value="0.0814979824" flag="0"/>
      <psa03 value="0.3279212983" flag="0"/>
      <psa10 value="0.0855232336" flag="0"/>
      <psa30 value="0.0139696559" flag="0"/>
    </comp>
  </station>
  <station code="YER" name="YER" netid="KO" insttype="CMG-3T" lat="37.1336" lon="28.284">
    <comp name="--.HHZ">
      <acc value="0.0149093972" flag="0"/>
      <vel value="0.0234002485" flag="0"/>
      <psa03 value="0.0451078610" flag="0"/>
      <psa10 value="0.0258625488" flag="0"/>
      <psa30 value="0.0128550083" flag="0"/>
    </comp>
    <comp name="--.HHN">
      <acc value="0.0222529874" flag="0"/>
      <vel value="0.0332156187" flag="0"/>
      <psa03 value="0.0634451367" flag="0"/>
      <psa10 value="0.0292613413" flag="0"/>
      <psa30 value="0.0185792434" flag="0"/>
    </comp>
    <comp name="--.HHE">
      <acc value="0.0260744895" flag="0"/>
      <vel value="0.0176209583" flag="0"/>
      <psa03 value="0.0637620574" flag="0"/>
      <psa10 value="0.0193878280" flag="0"/>
      <psa30 value="0.0081457604" flag="0"/>
    </comp>
  </station>
  <station code="YKAV" name="YKAV" netid="KO" insttype="CMG-5T" lat="37.1246" lon="27.2801">
    <comp name="--.HNE">
      <acc value="0.0718829081" flag="0"/>
      <vel value="0.0626300608" flag="0"/>
      <psa03 value="0.1785292271" flag="0"/>
      <psa10 value="0.0931652506" flag="0"/>
      <psa30 value="0.0109329735" flag="0"/>
    </comp>
    <comp name="--.HNZ">
      <acc value="0.0474389084" flag="0"/>
      <vel value="0.0394513665" flag="0"/>
      <psa03 value="0.1696419426" flag="0"/>
      <psa10 value="0.0543451485" flag="0"/>
      <psa30 value="0.0079121232" flag="0"/>
    </comp>
    <comp name="--.HNN">
      <acc value="0.1022001945" flag="0"/>
      <vel value="0.0676140012" flag="0"/>
      <psa03 value="0.1763204479" flag="0"/>
      <psa10 value="0.0669862237" flag="0"/>
      <psa30 value="0.0086602754" flag="0"/>
    </comp>
  </station>
  <station code="AYDN" name="AYDN" netid="TU" insttype="T" lat="37.6608" lon="27.8792">
    <comp name="--.HHN">
      <acc value="0.3750296139" flag="0"/>
      <vel value="0.1813169473" flag="0"/>
      <psa03 value="1.2590205946" flag="0"/>
      <psa10 value="0.1404136157" flag="0"/>
      <psa30 value="0.0239026862" flag="0"/>
    </comp>
    <comp name="--.HHZ">
      <acc value="0.2362404051" flag="0"/>
      <vel value="0.0747629640" flag="0"/>
      <psa03 value="0.3255922901" flag="0"/>
      <psa10 value="0.0981801240" flag="0"/>
      <psa30 value="0.0138305027" flag="0"/>
    </comp>
    <comp name="--.HHE">
      <acc value="0.5435521843" flag="0"/>
      <vel value="0.2498392222" flag="0"/>
      <psa03 value="1.0589447975" flag="0"/>
      <psa10 value="0.1339671307" flag="0"/>
      <psa30 value="0.0117672919" flag="0"/>
    </comp>
  </station>
</stationlist>
