<?xml version="1.0" encoding="UTF-8" standalone="yes"?>
<!DOCTYPE earthquake SYSTEM "stationlist.dtd">
<stationlist created="" xmlns="ch.ethz.sed.shakemap.usgs.xml">
  <station code="APRC" name="APRC" netid="IV" insttype="" lat="41.7574" lon="15.5431">
    <comp name="--.HHE">
      <acc value="0.0940792204" flag="0"/>
      <vel value="0.0256132692" flag="0"/>
      <psa03 value="0.1152885577" flag="0"/>
      <psa10 value="0.0046401715" flag="0"/>
      <psa30 value="0.0003875321" flag="0"/>
    </comp>
    <comp name="--.HHN">
      <acc value="0.0827465960" flag="0"/>
      <vel value="0.0220989539" flag="0"/>
      <psa03 value="0.1020645553" flag="0"/>
      <psa10 value="0.0060874082" flag="0"/>
      <psa30 value="0.0005457854" flag="0"/>
    </comp>
    <comp name="--.HHZ">
      <acc value="0.0434211052" flag="0"/>
      <vel value="0.0107338281" flag="0"/>
      <psa03 value="0.0612247078" flag="0"/>
      <psa10 value="0.0033793371" flag="0"/>
      <psa30 value="0.0002389414" flag="0"/>
    </comp>
  </station>
  <station code="BSSO" name="BSSO" netid="IV" insttype="" lat="41.5461" lon="14.5938">
    <comp name="--.HHE">
      <acc value="0.0145559684" flag="0"/>
      <vel value="0.0063109062" flag="0"/>
      <psa03 value="0.0289950018" flag="0"/>
      <psa10 value="0.0048853791" flag="0"/>
      <psa30 value="0.0006602699" flag="0"/>
    </comp>
    <comp name="--.HHN">
      <acc value="0.0123803113" flag="0"/>
      <vel value="0.0049303316" flag="0"/>
      <psa03 value="0.0384533773" flag="0"/>
      <psa10 value="0.0037175685" flag="0"/>
      <psa30 value="0.0007788324" flag="0"/>
    </comp>
    <comp name="--.HHZ">
      <acc value="0.0129982737" flag="0"/>
      <vel value="0.0041665145" flag="0"/>
      <psa03 value="0.0236578288" flag="0"/>
      <psa10 value="0.0024753342" flag="0"/>
      <psa30 value="0.0002510275" flag="0"/>
    </comp>
  </station>
  <station code="CAFE" name="CAFE" netid="IV" insttype="" lat="41.028" lon="15.2366">
    <comp name="--.HHE">
      <acc value="0.0257057319" flag="0"/>
      <vel value="0.0098309528" flag="0"/>
      <psa03 value="0.0703116588" flag="0"/>
      <psa10 value="0.0072056691" flag="0"/>
      <psa30 value="0.0006113768" flag="0"/>
    </comp>
    <comp name="--.HHZ">
      <acc value="0.0108974785" flag="0"/>
      <vel value="0.0037002438" flag="0"/>
      <psa03 value="0.0210940924" flag="0"/>
      <psa10 value="0.0030787536" flag="0"/>
      <psa30 value="0.0002411570" flag="0"/>
    </comp>
    <comp name="--.HHN">
      <acc value="0.0155420310" flag="0"/>
      <vel value="0.0066646123" flag="0"/>
      <psa03 value="0.0330016240" flag="0"/>
      <psa10 value="0.0035760547" flag="0"/>
      <psa30 value="0.0004907387" flag="0"/>
    </comp>
  </station>
  <station code="CAPA" name="CAPA" netid="IV" insttype="" lat="41.1583" lon="15.8169">
    <comp name="--.HHE">
      <acc value="0.0161274287" flag="0"/>
      <vel value="0.0069810842" flag="0"/>
      <psa03 value="0.0369775160" flag="0"/>
      <psa10 value="0.0070663630" flag="0"/>
      <psa30 value="0.0007316297" flag="0"/>
    </comp>
    <comp name="--.HHN">
      <acc value="0.0190127811" flag="0"/>
      <vel value="0.0082592886" flag="0"/>
      <psa03 value="0.0468511002" flag="0"/>
      <psa10 value="0.0086887158" flag="0"/>
      <psa30 value="0.0007849530" flag="0"/>
    </comp>
    <comp name="--.HHZ">
      <acc value="0.0143674986" flag="0"/>
      <vel value="0.0051541039" flag="0"/>
      <psa03 value="0.0304474231" flag="0"/>
      <psa10 value="0.0054594611" flag="0"/>
      <psa30 value="0.0003817935" flag="0"/>
    </comp>
  </station>
  <station code="CERA" name="CERA" netid="IV" insttype="" lat="41.5978" lon="14.0183">
    <comp name="--.HHE">
      <acc value="0.0123005759" flag="0"/>
      <vel value="0.0066046905" flag="0"/>
      <psa03 value="0.0371148718" flag="0"/>
      <psa10 value="0.0085227937" flag="0"/>
      <psa30 value="0.0003808665" flag="0"/>
    </comp>
    <comp name="--.HHN">
      <acc value="0.0112643130" flag="0"/>
      <vel value="0.0063688790" flag="0"/>
      <psa03 value="0.0343486407" flag="0"/>
      <psa10 value="0.0058853296" flag="0"/>
      <psa30 value="0.0003802374" flag="0"/>
    </comp>
    <comp name="--.HHZ">
      <acc value="0.0087557670" flag="0"/>
      <vel value="0.0045784642" flag="0"/>
      <psa03 value="0.0240171266" flag="0"/>
      <psa10 value="0.0059856860" flag="0"/>
      <psa30 value="0.0003192363" flag="0"/>
    </comp>
  </station>
  <station code="CIGN" name="CIGN" netid="IV" insttype="" lat="41.6542" lon="14.905">
    <comp name="--.HHE">
      <acc value="0.0732574745" flag="0"/>
      <vel value="0.0365724705" flag="0"/>
      <psa03 value="0.1485864724" flag="0"/>
      <psa10 value="0.0217138783" flag="0"/>
      <psa30 value="0.0026776229" flag="0"/>
    </comp>
    <comp name="--.HHN">
      <acc value="0.0833367407" flag="0"/>
      <vel value="0.0327423354" flag="0"/>
      <psa03 value="0.2257533595" flag="0"/>
      <psa10 value="0.0322517385" flag="0"/>
      <psa30 value="0.0019491676" flag="0"/>
    </comp>
    <comp name="--.HHZ">
      <acc value="0.0925461078" flag="0"/>
      <vel value="0.0290122752" flag="0"/>
      <psa03 value="0.2761308205" flag="0"/>
      <psa10 value="0.0216632458" flag="0"/>
      <psa30 value="0.0023650865" flag="0"/>
    </comp>
  </station>
  <station code="CQUE" name="CQUE" netid="IV" insttype="" lat="40.8854" lon="14.1554">
    <comp name="--.HHE">
      <acc value="0.0293030647" flag="0"/>
      <vel value="0.0107143230" flag="0"/>
      <psa03 value="0.0912521517" flag="0"/>
      <psa10 value="0.0036520622" flag="0"/>
      <psa30 value="0.0004262240" flag="0"/>
    </comp>
    <comp name="--.HHN">
      <acc value="0.0243531941" flag="0"/>
      <vel value="0.0104325252" flag="0"/>
      <psa03 value="0.0783065076" flag="0"/>
      <psa10 value="0.0043789169" flag="0"/>
      <psa30 value="0.0003707136" flag="0"/>
    </comp>
    <comp name="--.HHZ">
      <acc value="0.0149271758" flag="0"/>
      <vel value="0.0051712738" flag="0"/>
      <psa03 value="0.0310503899" flag="0"/>
      <psa10 value="0.0036278811" flag="0"/>
      <psa30 value="0.0002161828" flag="0"/>
    </comp>
  </station>
  <station code="CRTO" name="CRTO" netid="IV" insttype="" lat="40.8212" lon="14.4223">
    <comp name="--.HHN">
      <acc value="0.0408843154" flag="0"/>
      <vel value="0.0209447392" flag="0"/>
      <psa03 value="0.1053862015" flag="0"/>
      <psa10 value="0.0099762797" flag="0"/>
      <psa30 value="0.0007689274" flag="0"/>
    </comp>
    <comp name="--.HHE">
      <acc value="0.0487992014" flag="0"/>
      <vel value="0.0307768835" flag="0"/>
      <psa03 value="0.1470882155" flag="0"/>
      <psa10 value="0.0218033669" flag="0"/>
      <psa30 value="0.0011999954" flag="0"/>
    </comp>
    <comp name="--.HHZ">
      <acc value="0.0141170898" flag="0"/>
      <vel value="0.0056965839" flag="0"/>
      <psa03 value="0.0376333966" flag="0"/>
      <psa10 value="0.0036277309" flag="0"/>
      <psa30 value="0.0003278629" flag="0"/>
    </comp>
  </station>
  <station code="GATE" name="GATE" netid="IV" insttype="" lat="41.5131" lon="14.9102">
    <comp name="--.HHZ">
      <acc value="0.0369326481" flag="0"/>
      <vel value="0.0159712943" flag="0"/>
      <psa03 value="0.1019335241" flag="0"/>
      <psa10 value="0.0090176540" flag="0"/>
      <psa30 value="0.0013808977" flag="0"/>
    </comp>
    <comp name="--.HHN">
      <acc value="0.0499774712" flag="0"/>
      <vel value="0.0251701102" flag="0"/>
      <psa03 value="0.1348103130" flag="0"/>
      <psa10 value="0.0153239930" flag="0"/>
      <psa30 value="0.0016683828" flag="0"/>
    </comp>
    <comp name="--.HHE">
      <acc value="0.0556884606" flag="0"/>
      <vel value="0.0295910271" flag="0"/>
      <psa03 value="0.1497596114" flag="0"/>
      <psa10 value="0.0130638778" flag="0"/>
      <psa30 value="0.0019390832" flag="0"/>
    </comp>
  </station>
  <station code="GUAR" name="GUAR" netid="IV" insttype="" lat="41.7945" lon="13.3123">
    <comp name="--.HHE">
      <acc value="0.0035707527" flag="0"/>
      <vel value="0.0019922508" flag="0"/>
      <psa03 value="0.0092446426" flag="0"/>
      <psa10 value="0.0022120102" flag="0"/>
      <psa30 value="0.0002001509" flag="0"/>
    </comp>
    <comp name="--.HHN">
      <acc value="0.0057203583" flag="0"/>
      <vel value="0.0030904686" flag="0"/>
      <psa03 value="0.0174738215" flag="0"/>
      <psa10 value="0.0020657762" flag="0"/>
      <psa30 value="0.0003000929" flag="0"/>
    </comp>
    <comp name="--.HHZ">
      <acc value="0.0030708001" flag="0"/>
      <vel value="0.0015743962" flag="0"/>
      <psa03 value="0.0074605441" flag="0"/>
      <psa10 value="0.0024237408" flag="0"/>
      <psa30 value="0.0001701538" flag="0"/>
    </comp>
  </station>
  <station code="INTR" name="INTR" netid="IV" insttype="" lat="42.0115" lon="13.9046">
    <comp name="--.HHE">
      <acc value="0.0174853996" flag="0"/>
      <vel value="0.0077215848" flag="0"/>
      <psa03 value="0.0655592786" flag="0"/>
      <psa10 value="0.0091987013" flag="0"/>
      <psa30 value="0.0005893934" flag="0"/>
    </comp>
    <comp name="--.HHN">
      <acc value="0.0301282219" flag="0"/>
      <vel value="0.0111398116" flag="0"/>
      <psa03 value="0.0673161755" flag="0"/>
      <psa10 value="0.0096376339" flag="0"/>
      <psa30 value="0.0005907468" flag="0"/>
    </comp>
    <comp name="--.HHZ">
      <acc value="0.0203044976" flag="0"/>
      <vel value="0.0066881234" flag="0"/>
      <psa03 value="0.0411386544" flag="0"/>
      <psa10 value="0.0069249674" flag="0"/>
      <psa30 value="0.0002586466" flag="0"/>
    </comp>
  </station>
  <station code="LPEL" name="LPEL" netid="IV" insttype="" lat="42.0468" lon="14.1832">
    <comp name="--.HHE">
      <acc value="0.0773146402" flag="0"/>
      <vel value="0.0127540804" flag="0"/>
      <psa03 value="0.0572006893" flag="0"/>
      <psa10 value="0.0064739652" flag="0"/>
      <psa30 value="0.0003775959" flag="0"/>
    </comp>
    <comp name="--.HHN">
      <acc value="0.0903455264" flag="0"/>
      <vel value="0.0238816906" flag="0"/>
      <psa03 value="0.1051504988" flag="0"/>
      <psa10 value="0.0064963677" flag="0"/>
      <psa30 value="0.0004586845" flag="0"/>
    </comp>
    <comp name="--.HHZ">
      <acc value="0.0572007152" flag="0"/>
      <vel value="0.0086012807" flag="0"/>
      <psa03 value="0.0243767852" flag="0"/>
      <psa10 value="0.0036272137" flag="0"/>
      <psa30 value="0.0006055239" flag="0"/>
    </comp>
  </station>
  <station code="MCRV" name="MCRV" netid="IV" insttype="" lat="40.7826" lon="15.1684">
    <comp name="--.HHE">
      <acc value="0.0111488371" flag="0"/>
      <vel value="0.0048171259" flag="0"/>
      <psa03 value="0.0281049734" flag="0"/>
      <psa10 value="0.0053632107" flag="0"/>
      <psa30 value="0.0002815082" flag="0"/>
    </comp>
    <comp name="--.HHN">
      <acc value="0.0135936273" flag="0"/>
      <vel value="0.0048112422" flag="0"/>
      <psa03 value="0.0310649474" flag="0"/>
      <psa10 value="0.0024329917" flag="0"/>
      <psa30 value="0.0002159937" flag="0"/>
    </comp>
    <comp name="--.HHZ">
      <acc value="0.0062213738" flag="0"/>
      <vel value="0.0028888424" flag="0"/>
      <psa03 value="0.0167239398" flag="0"/>
      <psa10 value="0.0017982723" flag="0"/>
      <psa30 value="0.0001461320" flag="0"/>
    </comp>
  </station>
  <station code="MELA" name="MELA" netid="IV" insttype="" lat="41.7059" lon="15.127">
    <comp name="--.HHN">
      <acc value="0.6051378890" flag="0"/>
      <vel value="0.1360022010" flag="0"/>
      <psa03 value="0.5641724059" flag="0"/>
      <psa10 value="0.0425162173" flag="0"/>
      <psa30 value="0.0029481192" flag="0"/>
    </comp>
    <comp name="--.HHE">
      <acc value="0.5231172987" flag="0"/>
      <vel value="0.1460429062" flag="0"/>
      <psa03 value="0.8292071764" flag="0"/>
      <psa10 value="0.0490216174" flag="0"/>
      <psa30 value="0.0028887754" flag="0"/>
    </comp>
    <comp name="--.HHZ">
      <acc value="0.2394214858" flag="0"/>
      <vel value="0.0640614092" flag="0"/>
      <psa03 value="0.4428774999" flag="0"/>
      <psa10 value="0.0254060228" flag="0"/>
      <psa30 value="0.0025388625" flag="0"/>
    </comp>
  </station>
  <station code="MIDA" name="MIDA" netid="IV" insttype="" lat="41.6419" lon="14.254">
    <comp name="--.HHN">
      <acc value="nan" flag="0"/>
      <vel value="-100.0000000000" flag="0"/>
      <psa03 value="0.0000000000" flag="0"/>
      <psa10 value="0.0000000000" flag="0"/>
      <psa30 value="0.0000000000" flag="0"/>
    </comp>
    <comp name="--.HHE">
      <acc value="nan" flag="0"/>
      <vel value="-100.0000000000" flag="0"/>
      <psa03 value="0.0000000000" flag="0"/>
      <psa10 value="0.0000000000" flag="0"/>
      <psa30 value="0.0000000000" flag="0"/>
    </comp>
    <comp name="--.HHZ">
      <acc value="nan" flag="0"/>
      <vel value="-100.0000000000" flag="0"/>
      <psa03 value="0.0000000000" flag="0"/>
      <psa10 value="0.0000000000" flag="0"/>
      <psa30 value="0.0000000000" flag="0"/>
    </comp>
  </station>
  <station code="MOCO" name="MOCO" netid="IV" insttype="" lat="41.37" lon="15.158">
    <comp name="--.HHE">
      <acc value="0.0161726161" flag="0"/>
      <vel value="0.0063173058" flag="0"/>
      <psa03 value="0.0512095493" flag="0"/>
      <psa10 value="0.0046538366" flag="0"/>
      <psa30 value="0.0008826756" flag="0"/>
    </comp>
    <comp name="--.HHN">
      <acc value="0.0089335976" flag="0"/>
      <vel value="0.0040037817" flag="0"/>
      <psa03 value="0.0240979563" flag="0"/>
      <psa10 value="0.0026027261" flag="0"/>
      <psa30 value="0.0005437903" flag="0"/>
    </comp>
    <comp name="--.HHZ">
      <acc value="0.0099616113" flag="0"/>
      <vel value="0.0029770657" flag="0"/>
      <psa03 value="0.0153283479" flag="0"/>
      <psa10 value="0.0017129110" flag="0"/>
      <psa30 value="0.0005803516" flag="0"/>
    </comp>
  </station>
  <station code="MODR" name="MODR" netid="IV" insttype="" lat="41.1459" lon="13.8779">
    <comp name="--.HHE">
      <acc value="0.0029635321" flag="0"/>
      <vel value="0.0011094668" flag="0"/>
      <psa03 value="0.0059018329" flag="0"/>
      <psa10 value="0.0008250317" flag="0"/>
      <psa30 value="0.0000677021" flag="0"/>
    </comp>
    <comp name="--.HHN">
      <acc value="0.0040291147" flag="0"/>
      <vel value="0.0011005231" flag="0"/>
      <psa03 value="0.0074710046" flag="0"/>
      <psa10 value="0.0009020364" flag="0"/>
      <psa30 value="0.0001000484" flag="0"/>
    </comp>
    <comp name="--.HHZ">
      <acc value="0.0011938720" flag="0"/>
      <vel value="0.0006522247" flag="0"/>
      <psa03 value="0.0026399982" flag="0"/>
      <psa10 value="0.0004702938" flag="0"/>
      <psa30 value="0.0000499449" flag="0"/>
    </comp>
  </station>
  <station code="MRB1" name="MRB1" netid="IV" insttype="" lat="41.1227" lon="14.9681">
    <comp name="--.HHZ">
      <acc value="0.0149741987" flag="0"/>
      <vel value="0.0060859178" flag="0"/>
      <psa03 value="0.0452651009" flag="0"/>
      <psa10 value="0.0045708703" flag="0"/>
      <psa30 value="0.0002774489" flag="0"/>
    </comp>
    <comp name="--.HHN">
      <acc value="0.0214057872" flag="0"/>
      <vel value="0.0143683407" flag="0"/>
      <psa03 value="0.0554293960" flag="0"/>
      <psa10 value="0.0153607454" flag="0"/>
      <psa30 value="0.0008199599" flag="0"/>
    </comp>
    <comp name="--.HHE">
      <acc value="0.0172223579" flag="0"/>
      <vel value="0.0096035683" flag="0"/>
      <psa03 value="0.0563983655" flag="0"/>
      <psa10 value="0.0096121082" flag="0"/>
      <psa30 value="0.0006019401" flag="0"/>
    </comp>
  </station>
  <station code="MSAG" name="MSAG" netid="IV" insttype="" lat="41.712" lon="15.9096">
    <comp name="--.HHN">
      <acc value="0.0242179658" flag="0"/>
      <vel value="0.0075776784" flag="0"/>
      <psa03 value="0.0414681561" flag="0"/>
      <psa10 value="0.0027552331" flag="0"/>
      <psa30 value="0.0002156400" flag="0"/>
    </comp>
    <comp name="--.HHE">
      <acc value="0.0150718698" flag="0"/>
      <vel value="0.0047758855" flag="0"/>
      <psa03 value="0.0175037328" flag="0"/>
      <psa10 value="0.0021216996" flag="0"/>
      <psa30 value="0.0001264586" flag="0"/>
    </comp>
    <comp name="--.HHZ">
      <acc value="0.0090477401" flag="0"/>
      <vel value="0.0023888744" flag="0"/>
      <psa03 value="0.0134697099" flag="0"/>
      <psa10 value="0.0011598970" flag="0"/>
      <psa30 value="0.0000672495" flag="0"/>
    </comp>
  </station>
  <station code="PABO" name="PABO" netid="IV" insttype="" lat="41.7489" lon="14.387">
    <comp name="--.HHN">
      <acc value="0.0358372899" flag="0"/>
      <vel value="0.0176600288" flag="0"/>
      <psa03 value="0.1806970519" flag="0"/>
      <psa10 value="0.0130141194" flag="0"/>
      <psa30 value="0.0013461205" flag="0"/>
    </comp>
    <comp name="--.HHE">
      <acc value="0.0177786386" flag="0"/>
      <vel value="0.0090798142" flag="0"/>
      <psa03 value="0.0609589671" flag="0"/>
      <psa10 value="0.0109884161" flag="0"/>
      <psa30 value="0.0012475101" flag="0"/>
    </comp>
    <comp name="--.HHZ">
      <acc value="0.0173811883" flag="0"/>
      <vel value="0.0103965163" flag="0"/>
      <psa03 value="0.0652649547" flag="0"/>
      <psa10 value="0.0088374490" flag="0"/>
      <psa30 value="0.0008022723" flag="0"/>
    </comp>
  </station>
  <station code="PAOL" name="PAOL" netid="IV" insttype="" lat="41.0312" lon="14.5675">
    <comp name="--.HHE">
      <acc value="0.0236734437" flag="0"/>
      <vel value="0.0136459166" flag="0"/>
      <psa03 value="0.0610849648" flag="0"/>
      <psa10 value="0.0100165079" flag="0"/>
      <psa30 value="0.0007414969" flag="0"/>
    </comp>
    <comp name="--.HHZ">
      <acc value="0.0093392167" flag="0"/>
      <vel value="0.0042498594" flag="0"/>
      <psa03 value="0.0298252779" flag="0"/>
      <psa10 value="0.0020326223" flag="0"/>
      <psa30 value="0.0002023657" flag="0"/>
    </comp>
    <comp name="--.HHN">
      <acc value="0.0247141212" flag="0"/>
      <vel value="0.0094268538" flag="0"/>
      <psa03 value="0.0651767243" flag="0"/>
      <psa10 value="0.0035434840" flag="0"/>
      <psa30 value="0.0002683464" flag="0"/>
    </comp>
  </station>
  <station code="PIGN" name="PIGN" netid="IV" insttype="" lat="41.2" lon="14.1799">
    <comp name="--.HHE">
      <acc value="0.0115348193" flag="0"/>
      <vel value="0.0047157089" flag="0"/>
      <psa03 value="0.0207712501" flag="0"/>
      <psa10 value="0.0015612505" flag="0"/>
      <psa30 value="0.0002427691" flag="0"/>
    </comp>
    <comp name="--.HHN">
      <acc value="0.0094157795" flag="0"/>
      <vel value="0.0041571372" flag="0"/>
      <psa03 value="0.0178513120" flag="0"/>
      <psa10 value="0.0030762340" flag="0"/>
      <psa30 value="0.0001656678" flag="0"/>
    </comp>
    <comp name="--.HHZ">
      <acc value="0.0065239800" flag="0"/>
      <vel value="0.0021416426" flag="0"/>
      <psa03 value="0.0109941230" flag="0"/>
      <psa10 value="0.0019810880" flag="0"/>
      <psa30 value="0.0001377031" flag="0"/>
    </comp>
  </station>
  <station code="POFI" name="POFI" netid="IV" insttype="" lat="41.7174" lon="13.712">
    <comp name="--.HHE">
      <acc value="0.0049028554" flag="0"/>
      <vel value="0.0030686610" flag="0"/>
      <psa03 value="0.0157892694" flag="0"/>
      <psa10 value="0.0055821091" flag="0"/>
      <psa30 value="0.0002506175" flag="0"/>
    </comp>
    <comp name="--.HHZ">
      <acc value="0.0054090740" flag="0"/>
      <vel value="0.0025457125" flag="0"/>
      <psa03 value="0.0163413165" flag="0"/>
      <psa10 value="0.0020435219" flag="0"/>
      <psa30 value="0.0003025283" flag="0"/>
    </comp>
    <comp name="--.HHN">
