<?xml version="1.0" encoding="UTF-8" standalone="yes"?>
<!DOCTYPE earthquake SYSTEM "stationlist.dtd">
<stationlist created="" xmlns="ch.ethz.sed.shakemap.usgs.xml">
  <station code="APE" name="APE" netid="GE" insttype="STS-2/N" lat="37.0727" lon="25.523">
    <comp name="--.HHZ">
      <acc value="0.0445005053" flag="0"/>
      <vel value="0.0110377537" flag="0"/>
      <psa03 value="0.0276759034" flag="0"/>
      <psa10 value="0.0046855442" flag="0"/>
      <psa30 value="0.0016987549" flag="0"/>
    </comp>
    <comp name="--.HHE">
      <acc value="0.0575818207" flag="0"/>
      <vel value="0.0124984452" flag="0"/>
      <psa03 value="0.0421469690" flag="0"/>
      <psa10 value="0.0057936691" flag="0"/>
      <psa30 value="0.0008852105" flag="0"/>
    </comp>
    <comp name="--.HHN">
      <acc value="0.1100340345" flag="0"/>
      <vel value="0.0189162320" flag="0"/>
      <psa03 value="0.0382633887" flag="0"/>
      <psa10 value="0.0050506988" flag="0"/>
      <psa30 value="0.0011169365" flag="0"/>
    </comp>
  </station>
  <station code="THERA" name="THERA" netid="GE" insttype="STS-2/N" lat="36.367" lon="25.4753">
    <comp name="--.HHN">
      <acc value="0.0359638055" flag="0"/>
      <vel value="0.0122047949" flag="0"/>
      <psa03 value="0.0349803610" flag="0"/>
      <psa10 value="0.0104393932" flag="0"/>
      <psa30 value="0.0020362279" flag="0"/>
    </comp>
    <comp name="--.HHZ">
      <acc value="0.0539824138" flag="0"/>
      <vel value="0.0142123575" flag="0"/>
      <psa03 value="0.0533993834" flag="0"/>
      <psa10 value="0.0079857418" flag="0"/>
      <psa30 value="0.0025968884" flag="0"/>
    </comp>
    <comp name="--.HHE">
      <acc value="0.0588936346" flag="0"/>
      <vel value="0.0148063061" flag="0"/>
      <psa03 value="0.0417597637" flag="0"/>
      <psa10 value="0.0098164805" flag="0"/>
      <psa30 value="0.0022938358" flag="0"/>
    </comp>
  </station>
  <station code="NAX1" name="NAX1" netid="HI" insttype="CMG-5TD,ACCELEROMETER,GURALP" lat="37.1014" lon="25.3741">
    <comp name="--.HNE">
      <acc value="0.0825834329" flag="0"/>
      <vel value="0.0140978806" flag="0"/>
      <psa03 value="0.0682563839" flag="0"/>
      <psa10 value="0.0076699561" flag="0"/>
      <psa30 value="0.0011086682" flag="0"/>
    </comp>
    <comp name="--.HNN">
      <acc value="0.0628196167" flag="0"/>
      <vel value="0.0118879705" flag="0"/>
      <psa03 value="0.0349049550" flag="0"/>
      <psa10 value="0.0044415509" flag="0"/>
      <psa30 value="0.0010781822" flag="0"/>
    </comp>
    <comp name="--.HNZ">
      <acc value="0.0259893452" flag="0"/>
      <vel value="0.0061077318" flag="0"/>
      <psa03 value="0.0266306371" flag="0"/>
      <psa10 value="0.0050078309" flag="0"/>
      <psa30 value="0.0013134568" flag="0"/>
    </comp>
  </station>
  <station code="APE" name="APE" netid="HL" insttype="120" lat="37.0727" lon="25.523">
    <comp name="--.HHZ">
      <acc value="0.0417313968" flag="0"/>
      <vel value="0.0106402320" flag="0"/>
      <psa03 value="0.0270426387" flag="0"/>
      <psa10 value="0.0046511857" flag="0"/>
      <psa30 value="0.0016962730" flag="0"/>
    </comp>
    <comp name="--.HHE">
      <acc value="0.0551752689" flag="0"/>
      <vel value="0.0115829992" flag="0"/>
      <psa03 value="0.0409293966" flag="0"/>
      <psa10 value="0.0057420553" flag="0"/>
      <psa30 value="0.0008831194" flag="0"/>
    </comp>
    <comp name="--.HHN">
      <acc value="0.0966634227" flag="0"/>
      <vel value="0.0179959434" flag="0"/>
      <psa03 value="0.0364738362" flag="0"/>
      <psa10 value="0.0049727762" flag="0"/>
      <psa30 value="0.0011128132" flag="0"/>
    </comp>
  </station>
  <station code="MHLO" name="MHLO" netid="HL" insttype="20" lat="36.6898" lon="24.4017">
    <comp name="--.HHE">
      <acc value="0.0422264758" flag="0"/>
      <vel value="0.0237322551" flag="0"/>
      <psa03 value="0.0776774213" flag="0"/>
      <psa10 value="0.0362467070" flag="0"/>
      <psa30 value="0.0020145928" flag="0"/>
    </comp>
    <comp name="--.HHN">
      <acc value="0.0328694291" flag="0"/>
      <vel value="0.0229252792" flag="0"/>
      <psa03 value="0.0637031532" flag="0"/>
      <psa10 value="0.0392184295" flag="0"/>
      <psa30 value="0.0012588153" flag="0"/>
    </comp>
    <comp name="--.HHZ">
      <acc value="0.0154956280" flag="0"/>
      <vel value="0.0103870094" flag="0"/>
      <psa03 value="0.0294600846" flag="0"/>
      <psa10 value="0.0164736987" flag="0"/>
      <psa30 value="0.0008570366" flag="0"/>
    </comp>
  </station>
  <station code="SAP3" name="SAP3" netid="HL" insttype="LE3D20_SMART24" lat="36.4356" lon="25.3454">
    <comp name="--.HHZ">
      <acc value="0.2774660804" flag="0"/>
      <vel value="0.0698941357" flag="0"/>
      <psa03 value="0.1748254032" flag="0"/>
      <psa10 value="0.0449651086" flag="0"/>
      <psa30 value="0.0079283083" flag="0"/>
    </comp>
    <comp name="--.HHN">
      <acc value="0.3730014755" flag="0"/>
      <vel value="0.0867899286" flag="0"/>
      <psa03 value="0.2415341604" flag="0"/>
      <psa10 value="0.0665917894" flag="0"/>
      <psa30 value="0.0173630070" flag="0"/>
    </comp>
    <comp name="--.HHE">
      <acc value="0.2819995848" flag="0"/>
      <vel value="0.0892169455" flag="0"/>
      <psa03 value="0.3360352706" flag="0"/>
      <psa10 value="0.1011657322" flag="0"/>
      <psa30 value="0.0239261529" flag="0"/>
    </comp>
  </station>
  <station code="THERA" name="THERA" netid="HL" insttype="120" lat="36.367" lon="25.4753">
    <comp name="--.HHN">
      <acc value="0.0352454090" flag="0"/>
      <vel value="0.0120768644" flag="0"/>
      <psa03 value="0.0340562067" flag="0"/>
      <psa10 value="0.0103743940" flag="0"/>
      <psa30 value="0.0020361449" flag="0"/>
    </comp>
    <comp name="--.HHE">
      <acc value="0.0587991976" flag="0"/>
      <vel value="0.0143843530" flag="0"/>
      <psa03 value="0.0405157911" flag="0"/>
      <psa10 value="0.0097186387" flag="0"/>
      <psa30 value="0.0022938453" flag="0"/>
    </comp>
    <comp name="--.HHZ">
      <acc value="0.0528454660" flag="0"/>
      <vel value="0.0139931323" flag="0"/>
      <psa03 value="0.0516196599" flag="0"/>
      <psa10 value="0.0079579473" flag="0"/>
      <psa30 value="0.0025926889" flag="0"/>
    </comp>
  </station>
  <station code="THRA" name="THRA" netid="HL" insttype="CMG-5" lat="36.415" lon="25.4324">
    <comp name="00.HNE">
      <acc value="0.2002141511" flag="0"/>
      <vel value="0.0685812812" flag="0"/>
      <psa03 value="0.3688025964" flag="0"/>
      <psa10 value="0.0621194796" flag="0"/>
      <psa30 value="0.0115244205" flag="0"/>
    </comp>
    <comp name="00.HNN">
      <acc value="0.1617865357" flag="0"/>
      <vel value="0.0639164264" flag="0"/>
      <psa03 value="0.3222612824" flag="0"/>
      <psa10 value="0.0609531136" flag="0"/>
      <psa30 value="0.0136839946" flag="0"/>
    </comp>
    <comp name="00.HNZ">
      <acc value="0.1676901786" flag="0"/>
      <vel value="0.0565396128" flag="0"/>
      <psa03 value="0.1870234990" flag="0"/>
      <psa10 value="0.0266065514" flag="0"/>
      <psa30 value="0.0048359104" flag="0"/>
    </comp>
  </station>
  <station code="TNSA" name="TNSA" netid="HL" insttype="CMG-5" lat="37.5394" lon="25.1631">
    <comp name="00.HNZ">
      <acc value="0.0224839546" flag="0"/>
      <vel value="0.0079562905" flag="0"/>
      <psa03 value="0.0233250943" flag="0"/>
      <psa10 value="0.0091663027" flag="0"/>
      <psa30 value="0.0009067045" flag="0"/>
    </comp>
    <comp name="00.HNN">
      <acc value="0.0376622378" flag="0"/>
      <vel value="0.0127917071" flag="0"/>
      <psa03 value="0.0379476920" flag="0"/>
      <psa10 value="0.0062452893" flag="0"/>
      <psa30 value="0.0008469680" flag="0"/>
    </comp>
    <comp name="00.HNE">
      <acc value="0.0263493901" flag="0"/>
      <vel value="0.0087282724" flag="0"/>
      <psa03 value="0.0371481754" flag="0"/>
      <psa10 value="0.0039001695" flag="0"/>
      <psa30 value="0.0006921533" flag="0"/>
    </comp>
  </station>
  <station code="CMBO" name="CMBO" netid="HT" insttype="120P," lat="36.4709" lon="25.4056">
    <comp name="--.HHE">
      <acc value="0.3824689405" flag="0"/>
      <vel value="0.1210742901" flag="0"/>
      <psa03 value="0.3287673852" flag="0"/>
      <psa10 value="0.1563073916" flag="0"/>
      <psa30 value="0.0118839675" flag="0"/>
    </comp>
    <comp name="--.HHN">
      <acc value="0.5374732129" flag="0"/>
      <vel value="0.1527848566" flag="0"/>
      <psa03 value="0.3917288529" flag="0"/>
      <psa10 value="0.2090744233" flag="0"/>
      <psa30 value="0.0141790576" flag="0"/>
    </comp>
    <comp name="--.HHZ">
      <acc value="0.3757219161" flag="0"/>
      <vel value="0.0879915871" flag="0"/>
      <psa03 value="0.3597318877" flag="0"/>
      <psa10 value="0.0442402218" flag="0"/>
      <psa30 value="0.0142812373" flag="0"/>
    </comp>
  </station>
</stationlist>
