<?xml version="1.0" encoding="UTF-8" standalone="yes"?>
<!DOCTYPE earthquake SYSTEM "stationlist.dtd">
<stationlist created="" xmlns="ch.ethz.sed.shakemap.usgs.xml">
  <station code="LACI" name="LACI" netid="AC" insttype="" lat="41.6367" lon="19.7178">
    <comp name="00.HHE">
      <acc value="0.0038664144" flag="0"/>
      <vel value="0.0023996773" flag="0"/>
      <psa03 value="0.0061687522" flag="0"/>
      <psa10 value="0.0030494277" flag="0"/>
      <psa30 value="0.0003429821" flag="0"/>
    </comp>
    <comp name="00.HHN">
      <acc value="0.0031389712" flag="0"/>
      <vel value="0.0024612367" flag="0"/>
      <psa03 value="0.0062502397" flag="0"/>
      <psa10 value="0.0036357267" flag="0"/>
      <psa30 value="0.0005899409" flag="0"/>
    </comp>
    <comp name="00.HHZ">
      <acc value="0.0028847806" flag="0"/>
      <vel value="0.0021967255" flag="0"/>
      <psa03 value="0.0052971280" flag="0"/>
      <psa10 value="0.0033319862" flag="0"/>
      <psa30 value="0.0003815695" flag="0"/>
    </comp>
  </station>
  <station code="PDG" name="PDG" netid="MN" insttype="" lat="42.4297" lon="19.2608">
    <comp name="--.HHE">
      <acc value="0.0060345532" flag="0"/>
      <vel value="0.0028307614" flag="0"/>
      <psa03 value="0.0119083532" flag="0"/>
      <psa10 value="0.0028540841" flag="0"/>
      <psa30 value="0.0003798777" flag="0"/>
    </comp>
    <comp name="--.HHN">
      <acc value="0.0061168784" flag="0"/>
      <vel value="0.0031473262" flag="0"/>
      <psa03 value="0.0173621983" flag="0"/>
      <psa10 value="0.0038381160" flag="0"/>
      <psa30 value="0.0005450878" flag="0"/>
    </comp>
    <comp name="--.HHZ">
      <acc value="0.0055870705" flag="0"/>
      <vel value="0.0027179273" flag="0"/>
      <psa03 value="0.0116663721" flag="0"/>
      <psa10 value="0.0028243823" flag="0"/>
      <psa30 value="0.0005845254" flag="0"/>
    </comp>
  </station>
  <station code="TIR" name="TIR" netid="MN" insttype="" lat="41.3472" lon="19.8631">
    <comp name="--.HHE">
      <acc value="0.0064141705" flag="0"/>
      <vel value="0.0030881874" flag="0"/>
      <psa03 value="0.0124079563" flag="0"/>
      <psa10 value="0.0044578536" flag="0"/>
      <psa30 value="0.0003631886" flag="0"/>
    </comp>
    <comp name="--.HHN">
      <acc value="0.0056410012" flag="0"/>
      <vel value="0.0034226716" flag="0"/>
      <psa03 value="0.0132281924" flag="0"/>
      <psa10 value="0.0065612844" flag="0"/>
      <psa30 value="0.0003173138" flag="0"/>
    </comp>
    <comp name="--.HHZ">
      <acc value="0.0039484723" flag="0"/>
      <vel value="0.0031902819" flag="0"/>
      <psa03 value="0.0089089687" flag="0"/>
      <psa10 value="0.0046632474" flag="0"/>
      <psa30 value="0.0003816687" flag="0"/>
    </comp>
  </station>
</stationlist>
