<?xml version="1.0" encoding="UTF-8" standalone="yes"?>
<!DOCTYPE earthquake SYSTEM "stationlist.dtd">
<stationlist created="" xmlns="ch.ethz.sed.shakemap.usgs.xml">
  <station code="AKS" name="AKS" netid="KO" insttype="CMG-5T" lat="38.8785" lon="27.8129">
    <comp name="--.HNE">
      <acc value="0.0270164470" flag="0"/>
      <vel value="0.0103291369" flag="0"/>
      <psa03 value="0.0371841543" flag="0"/>
      <psa10 value="0.0063502257" flag="0"/>
      <psa30 value="0.0006349971" flag="0"/>
    </comp>
    <comp name="--.HNN">
      <acc value="0.0431650314" flag="0"/>
      <vel value="0.0121464945" flag="0"/>
      <psa03 value="0.0576678238" flag="0"/>
      <psa10 value="0.0080257318" flag="0"/>
      <psa30 value="0.0009351126" flag="0"/>
    </comp>
    <comp name="--.HNZ">
      <acc value="0.0154701377" flag="0"/>
      <vel value="0.0038022872" flag="0"/>
      <psa03 value="0.0173231827" flag="0"/>
      <psa10 value="0.0039987795" flag="0"/>
      <psa30 value="0.0005336092" flag="0"/>
    </comp>
  </station>
  <station code="BIGA" name="BIGA" netid="KO" insttype="CMG-5T" lat="40.2813" lon="27.1505">
    <comp name="--.HNE">
      <acc value="0.0836136940" flag="0"/>
      <vel value="0.0232034916" flag="0"/>
      <psa03 value="0.1270474713" flag="0"/>
      <psa10 value="0.0064341800" flag="0"/>
      <psa30 value="0.0007052811" flag="0"/>
    </comp>
    <comp name="--.HNN">
      <acc value="0.0835506147" flag="0"/>
      <vel value="0.0310886976" flag="0"/>
      <psa03 value="0.1919029456" flag="0"/>
      <psa10 value="0.0059402654" flag="0"/>
      <psa30 value="0.0010628106" flag="0"/>
    </comp>
    <comp name="--.HNZ">
      <acc value="0.0542515726" flag="0"/>
      <vel value="0.0098893600" flag="0"/>
      <psa03 value="0.0483134037" flag="0"/>
      <psa10 value="0.0020722911" flag="0"/>
      <psa30 value="0.0003746671" flag="0"/>
    </comp>
  </station>
  <station code="DST" name="DST" netid="KO" insttype="CMG-5T" lat="39.6041" lon="28.6267">
    <comp name="--.HNE">
      <acc value="0.3528600707" flag="0"/>
      <vel value="0.0597584098" flag="0"/>
      <psa03 value="0.2361233350" flag="0"/>
      <psa10 value="0.0146151989" flag="0"/>
      <psa30 value="0.0008099377" flag="0"/>
    </comp>
    <comp name="--.HNZ">
      <acc value="0.1730239229" flag="0"/>
      <vel value="0.0393725384" flag="0"/>
      <psa03 value="0.2616702770" flag="0"/>
      <psa10 value="0.0116286370" flag="0"/>
      <psa30 value="0.0008035026" flag="0"/>
    </comp>
  </station>
  <station code="EDC" name="EDC" netid="KO" insttype="120s," lat="40.3465" lon="27.8618">
    <comp name="--.HHN">
      <acc value="0.2578629935" flag="0"/>
      <vel value="0.0676984465" flag="0"/>
      <psa03 value="0.4804219765" flag="0"/>
      <psa10 value="0.0186232955" flag="0"/>
      <psa30 value="0.0018012083" flag="0"/>
    </comp>
    <comp name="--.HHE">
      <acc value="0.1685778199" flag="0"/>
      <vel value="0.0378781421" flag="0"/>
      <psa03 value="0.1289089350" flag="0"/>
      <psa10 value="0.0090154524" flag="0"/>
      <psa30 value="0.0007122385" flag="0"/>
    </comp>
    <comp name="--.HHZ">
      <acc value="0.1028363837" flag="0"/>
      <vel value="0.0278884614" flag="0"/>
      <psa03 value="0.0889368845" flag="0"/>
      <psa10 value="0.0062142056" flag="0"/>
      <psa30 value="0.0005315404" flag="0"/>
    </comp>
  </station>
  <station code="GAZK" name="GAZK" netid="KO" insttype="30s," lat="40.7479" lon="27.3275">
    <comp name="--.HHZ">
      <acc value="0.0367654067" flag="0"/>
      <vel value="0.0115118635" flag="0"/>
      <psa03 value="0.0430295225" flag="0"/>
      <psa10 value="0.0073425552" flag="0"/>
      <psa30 value="0.0005364864" flag="0"/>
    </comp>
    <comp name="--.HHE">
      <acc value="0.0599299835" flag="0"/>
      <vel value="0.0203240586" flag="0"/>
      <psa03 value="0.0840519943" flag="0"/>
      <psa10 value="0.0123101397" flag="0"/>
      <psa30 value="0.0010845484" flag="0"/>
    </comp>
    <comp name="--.HHN">
      <acc value="0.0546255250" flag="0"/>
      <vel value="0.0157040187" flag="0"/>
      <psa03 value="0.1234859177" flag="0"/>
      <psa10 value="0.0145718297" flag="0"/>
      <psa30 value="0.0009676055" flag="0"/>
    </comp>
  </station>
  <station code="GOMA" name="GOMA" netid="KO" insttype="CMG-5T" lat="38.7077" lon="27.9175">
    <comp name="--.HNZ">
      <acc value="0.0187005619" flag="0"/>
      <vel value="0.0082844709" flag="0"/>
      <psa03 value="0.0415118946" flag="0"/>
      <psa10 value="0.0046954396" flag="0"/>
      <psa30 value="0.0006210998" flag="0"/>
    </comp>
    <comp name="--.HNE">
      <acc value="0.0406393810" flag="0"/>
      <vel value="0.0273221232" flag="0"/>
      <psa03 value="0.0828020803" flag="0"/>
      <psa10 value="0.0185319049" flag="0"/>
      <psa30 value="0.0012311271" flag="0"/>
    </comp>
    <comp name="--.HNN">
      <acc value="0.0300082462" flag="0"/>
      <vel value="0.0163066886" flag="0"/>
      <psa03 value="0.0526905328" flag="0"/>
      <psa10 value="0.0170445401" flag="0"/>
      <psa30 value="0.0009436394" flag="0"/>
    </comp>
  </station>
  <station code="GONE" name="GONE" netid="KO" insttype="CMG-5T" lat="40.0466" lon="27.686">
    <comp name="--.HNZ">
      <acc value="0.1865895273" flag="0"/>
      <vel value="0.0488091121" flag="0"/>
      <psa03 value="0.1283881571" flag="0"/>
      <psa10 value="0.0334690711" flag="0"/>
      <psa30 value="0.0019000684" flag="0"/>
    </comp>
    <comp name="--.HNE">
      <acc value="0.1987280183" flag="0"/>
      <vel value="0.0788055243" flag="0"/>
      <psa03 value="0.2551947112" flag="0"/>
      <psa10 value="0.0598514701" flag="0"/>
      <psa30 value="0.0030763104" flag="0"/>
    </comp>
    <comp name="--.HNN">
      <acc value="0.3907072602" flag="0"/>
      <vel value="0.1526062820" flag="0"/>
      <psa03 value="0.6069286686" flag="0"/>
      <psa10 value="0.0697893335" flag="0"/>
      <psa30 value="0.0047278648" flag="0"/>
    </comp>
  </station>
  <station code="KRBG" name="KRBG" netid="KO" insttype="30s," lat="40.3932" lon="27.2977">
    <comp name="--.HHE">
      <acc value="0.0314639086" flag="0"/>
      <vel value="0.0077513878" flag="0"/>
      <psa03 value="0.0342301729" flag="0"/>
      <psa10 value="0.0027076438" flag="0"/>
      <psa30 value="0.0003960272" flag="0"/>
    </comp>
    <comp name="--.HHN">
      <acc value="0.0298177414" flag="0"/>
      <vel value="0.0058240325" flag="0"/>
      <psa03 value="0.0233920067" flag="0"/>
      <psa10 value="0.0031334548" flag="0"/>
      <psa30 value="0.0003791630" flag="0"/>
    </comp>
    <comp name="--.HHZ">
      <acc value="0.0220231550" flag="0"/>
      <vel value="0.0036420748" flag="0"/>
      <psa03 value="0.0135414272" flag="0"/>
      <psa10 value="0.0014545118" flag="0"/>
      <psa30 value="0.0002467870" flag="0"/>
    </comp>
  </station>
  <station code="LAP" name="LAP" netid="KO" insttype="30s," lat="40.3703" lon="26.7593">
    <comp name="--.HHE">
      <acc value="0.0197633859" flag="0"/>
      <vel value="0.0098805377" flag="0"/>
      <psa03 value="0.0450260136" flag="0"/>
      <psa10 value="0.0088147521" flag="0"/>
      <psa30 value="0.0005372614" flag="0"/>
    </comp>
    <comp name="--.HHZ">
      <acc value="0.0269511682" flag="0"/>
      <vel value="0.0109052460" flag="0"/>
      <psa03 value="0.0329209952" flag="0"/>
      <psa10 value="0.0039645592" flag="0"/>
      <psa30 value="0.0004437439" flag="0"/>
    </comp>
    <comp name="--.HHN">
      <acc value="0.0172688874" flag="0"/>
      <vel value="0.0102041831" flag="0"/>
      <psa03 value="0.0605680211" flag="0"/>
      <psa10 value="0.0103715698" flag="0"/>
      <psa30 value="0.0009078674" flag="0"/>
    </comp>
  </station>
  <station code="MDNY" name="MDNY" netid="KO" insttype="30s," lat="40.371" lon="28.8847">
    <comp name="--.HHE">
      <acc value="0.1763023509" flag="0"/>
      <vel value="0.0627606594" flag="0"/>
      <psa03 value="0.5539428219" flag="0"/>
      <psa10 value="0.0323088630" flag="0"/>
      <psa30 value="0.0020730406" flag="0"/>
    </comp>
    <comp name="--.HHN">
      <acc value="0.3587148783" flag="0"/>
      <vel value="0.1723556529" flag="0"/>
      <psa03 value="1.2779417717" flag="0"/>
      <psa10 value="0.0554964458" flag="0"/>
      <psa30 value="0.0041593863" flag="0"/>
    </comp>
  </station>
  <station code="ORLT" name="ORLT" netid="KO" insttype="CMG-5T" lat="40.0452" lon="28.8914">
    <comp name="--.HNE">
      <acc value="0.1011348842" flag="0"/>
      <vel value="0.0358804512" flag="0"/>
      <psa03 value="0.1827393993" flag="0"/>
      <psa10 value="0.0134285304" flag="0"/>
      <psa30 value="0.0011113325" flag="0"/>
    </comp>
    <comp name="--.HNN">
      <acc value="0.0770279470" flag="0"/>
      <vel value="0.0321430886" flag="0"/>
      <psa03 value="0.1754868539" flag="0"/>
      <psa10 value="0.0121080843" flag="0"/>
      <psa30 value="0.0014121838" flag="0"/>
    </comp>
    <comp name="--.HNZ">
      <acc value="0.0332706900" flag="0"/>
      <vel value="0.0116943645" flag="0"/>
      <psa03 value="0.0428109257" flag="0"/>
      <psa10 value="0.0039578264" flag="0"/>
      <psa30 value="0.0003621706" flag="0"/>
    </comp>
  </station>
  <station code="RKY" name="RKY" netid="KO" insttype="30s," lat="40.6875" lon="27.1777">
    <comp name="--.HHN">
      <acc value="0.0463961794" flag="0"/>
      <vel value="0.0139116641" flag="0"/>
      <psa03 value="0.0705998731" flag="0"/>
      <psa10 value="0.0072331420" flag="0"/>
      <psa30 value="0.0007180647" flag="0"/>
    </comp>
    <comp name="--.HHE">
      <acc value="0.0477926538" flag="0"/>
      <vel value="0.0166527823" flag="0"/>
      <psa03 value="0.1038040716" flag="0"/>
      <psa10 value="0.0070599278" flag="0"/>
      <psa30 value="0.0005607828" flag="0"/>
    </comp>
    <comp name="--.HHZ">
      <acc value="0.0245120624" flag="0"/>
      <vel value="0.0065730432" flag="0"/>
      <psa03 value="0.0342899313" flag="0"/>
      <psa10 value="0.0045238212" flag="0"/>
      <psa30 value="0.0003017640" flag="0"/>
    </comp>
  </station>
  <station code="YAYO" name="YAYO" netid="KO" insttype="30s," lat="39.6113" lon="27.0726">
    <comp name="--.HHE">
      <acc value="0.0268435299" flag="0"/>
      <vel value="0.0141569772" flag="0"/>
      <psa03 value="0.0465603872" flag="0"/>
      <psa10 value="0.0068473754" flag="0"/>
      <psa30 value="0.0004638630" flag="0"/>
    </comp>
    <comp name="--.HHZ">
      <acc value="0.0284140490" flag="0"/>
      <vel value="0.0100366227" flag="0"/>
      <psa03 value="0.0354942266" flag="0"/>
      <psa10 value="0.0066461424" flag="0"/>
      <psa30 value="0.0003623739" flag="0"/>
    </comp>
    <comp name="--.HHN">
      <acc value="0.0299103006" flag="0"/>
      <vel value="0.0172327890" flag="0"/>
      <psa03 value="0.0864275942" flag="0"/>
      <psa10 value="0.0084269812" flag="0"/>
      <psa30 value="0.0005132287" flag="0"/>
    </comp>
  </station>
  <station code="YENI" name="YENI" netid="KO" insttype="CMG-5T" lat="39.9364" lon="27.2422">
    <comp name="--.HNE">
      <acc value="0.1317584705" flag="0"/>
      <vel value="0.0354500679" flag="0"/>
      <psa03 value="0.1006423971" flag="0"/>
      <psa10 value="0.0188950253" flag="0"/>
      <psa30 value="0.0010634986" flag="0"/>
    </comp>
    <comp name="--.HNN">
      <acc value="0.1286437403" flag="0"/>
      <vel value="0.0380227863" flag="0"/>
      <psa03 value="0.1334430870" flag="0"/>
      <psa10 value="0.0099862682" flag="0"/>
      <psa30 value="0.0009303240" flag="0"/>
    </comp>
    <comp name="--.HNZ">
      <acc value="0.0640779766" flag="0"/>
      <vel value="0.0116389719" flag="0"/>
      <psa03 value="0.0574514757" flag="0"/>
      <psa10 value="0.0053303191" flag="0"/>
      <psa30 value="0.0007639087" flag="0"/>
    </comp>
  </station>
</stationlist>
