<?xml version="1.0" encoding="UTF-8" standalone="yes"?>
<!DOCTYPE earthquake SYSTEM "stationlist.dtd">
<stationlist created="" xmlns="ch.ethz.sed.shakemap.usgs.xml">
  <station code="AKS" name="AKS" netid="KO" insttype="CMG-5T" lat="38.8785" lon="27.8129">
    <comp name="--.HNN">
      <acc value="0.0431650335" flag="0"/>
      <vel value="0.0121464927" flag="0"/>
      <psa03 value="0.0576678238" flag="0"/>
      <psa10 value="0.0080257316" flag="0"/>
      <psa30 value="0.0009346246" flag="0"/>
    </comp>
    <comp name="--.HNE">
      <acc value="0.0270164435" flag="0"/>
      <vel value="0.0103291357" flag="0"/>
      <psa03 value="0.0371841543" flag="0"/>
      <psa10 value="0.0063502250" flag="0"/>
      <psa30 value="0.0006344563" flag="0"/>
    </comp>
    <comp name="--.HNZ">
      <acc value="0.0154701357" flag="0"/>
      <vel value="0.0038022863" flag="0"/>
      <psa03 value="0.0173231827" flag="0"/>
      <psa10 value="0.0039987796" flag="0"/>
      <psa30 value="0.0005340621" flag="0"/>
    </comp>
  </station>
  <station code="BIGA" name="BIGA" netid="KO" insttype="CMG-5T" lat="40.2813" lon="27.1505">
    <comp name="--.HNN">
      <acc value="0.0835506130" flag="0"/>
      <vel value="0.0310886940" flag="0"/>
      <psa03 value="0.1919029456" flag="0"/>
      <psa10 value="0.0059402662" flag="0"/>
      <psa30 value="0.0010619916" flag="0"/>
    </comp>
    <comp name="--.HNZ">
      <acc value="0.0542515718" flag="0"/>
      <vel value="0.0098893613" flag="0"/>
      <psa03 value="0.0483134037" flag="0"/>
      <psa10 value="0.0020722905" flag="0"/>
      <psa30 value="0.0003744109" flag="0"/>
    </comp>
    <comp name="--.HNE">
      <acc value="0.0836136953" flag="0"/>
      <vel value="0.0232034924" flag="0"/>
      <psa03 value="0.1270474713" flag="0"/>
      <psa10 value="0.0064341800" flag="0"/>
      <psa30 value="0.0007047613" flag="0"/>
    </comp>
  </station>
  <station code="DST" name="DST" netid="KO" insttype="CMG-5T" lat="39.6041" lon="28.6267">
    <comp name="--.HNE">
      <acc value="0.3528600709" flag="0"/>
      <vel value="0.0597584189" flag="0"/>
      <psa03 value="0.2361233350" flag="0"/>
      <psa10 value="0.0146151987" flag="0"/>
      <psa30 value="0.0008136887" flag="0"/>
    </comp>
    <comp name="--.HNZ">
      <acc value="0.1730239248" flag="0"/>
      <vel value="0.0393725360" flag="0"/>
      <psa03 value="0.2616702770" flag="0"/>
      <psa10 value="0.0116286421" flag="0"/>
      <psa30 value="0.0008024965" flag="0"/>
    </comp>
  </station>
  <station code="EDC" name="EDC" netid="KO" insttype="120s," lat="40.3465" lon="27.8618">
    <comp name="--.HHN">
      <acc value="0.2578629941" flag="0"/>
      <vel value="0.0676984455" flag="0"/>
      <psa03 value="0.4804219765" flag="0"/>
      <psa10 value="0.0186232951" flag="0"/>
      <psa30 value="0.0018012903" flag="0"/>
    </comp>
    <comp name="--.HHZ">
      <acc value="0.1028363836" flag="0"/>
      <vel value="0.0278884613" flag="0"/>
      <psa03 value="0.0889368845" flag="0"/>
      <psa10 value="0.0062142055" flag="0"/>
      <psa30 value="0.0005315499" flag="0"/>
    </comp>
    <comp name="--.HHE">
      <acc value="0.1685778201" flag="0"/>
      <vel value="0.0378781427" flag="0"/>
      <psa03 value="0.1289089350" flag="0"/>
      <psa10 value="0.0090154524" flag="0"/>
      <psa30 value="0.0007122720" flag="0"/>
    </comp>
  </station>
  <station code="GAZK" name="GAZK" netid="KO" insttype="30s," lat="40.7479" lon="27.3275">
    <comp name="--.HHZ">
      <acc value="0.0367654076" flag="0"/>
      <vel value="0.0115118628" flag="0"/>
      <psa03 value="0.0430295225" flag="0"/>
      <psa10 value="0.0073425552" flag="0"/>
      <psa30 value="0.0005365966" flag="0"/>
    </comp>
    <comp name="--.HHE">
      <acc value="0.0599299836" flag="0"/>
      <vel value="0.0203240608" flag="0"/>
      <psa03 value="0.0840519943" flag="0"/>
      <psa10 value="0.0123101399" flag="0"/>
      <psa30 value="0.0010845941" flag="0"/>
    </comp>
    <comp name="--.HHN">
      <acc value="0.0546255255" flag="0"/>
      <vel value="0.0157040227" flag="0"/>
      <psa03 value="0.1234859177" flag="0"/>
      <psa10 value="0.0145718297" flag="0"/>
      <psa30 value="0.0009675456" flag="0"/>
    </comp>
  </station>
  <station code="GOMA" name="GOMA" netid="KO" insttype="CMG-5T" lat="38.7077" lon="27.9175">
    <comp name="--.HNN">
      <acc value="0.0300082426" flag="0"/>
      <vel value="0.0163066889" flag="0"/>
      <psa03 value="0.0526905328" flag="0"/>
      <psa10 value="0.0170445405" flag="0"/>
      <psa30 value="0.0009438395" flag="0"/>
    </comp>
    <comp name="--.HNE">
      <acc value="0.0406393763" flag="0"/>
      <vel value="0.0273221193" flag="0"/>
      <psa03 value="0.0828020803" flag="0"/>
      <psa10 value="0.0185319051" flag="0"/>
      <psa30 value="0.0012310431" flag="0"/>
    </comp>
    <comp name="--.HNZ">
      <acc value="0.0187005565" flag="0"/>
      <vel value="0.0082844704" flag="0"/>
      <psa03 value="0.0415118946" flag="0"/>
      <psa10 value="0.0046954397" flag="0"/>
      <psa30 value="0.0006213009" flag="0"/>
    </comp>
  </station>
  <station code="GONE" name="GONE" netid="KO" insttype="CMG-5T" lat="40.0466" lon="27.686">
    <comp name="--.HNN">
      <acc value="0.3907072599" flag="0"/>
      <vel value="0.1526062823" flag="0"/>
      <psa03 value="0.6069286686" flag="0"/>
      <psa10 value="0.0697893335" flag="0"/>
      <psa30 value="0.0047279635" flag="0"/>
    </comp>
    <comp name="--.HNZ">
      <acc value="0.1865895277" flag="0"/>
      <vel value="0.0488091123" flag="0"/>
      <psa03 value="0.1283881571" flag="0"/>
      <psa10 value="0.0334690703" flag="0"/>
      <psa30 value="0.0019002473" flag="0"/>
    </comp>
    <comp name="--.HNE">
      <acc value="0.1987280188" flag="0"/>
      <vel value="0.0788055251" flag="0"/>
      <psa03 value="0.2551947112" flag="0"/>
      <psa10 value="0.0598514712" flag="0"/>
      <psa30 value="0.0030759522" flag="0"/>
    </comp>
  </station>
  <station code="KRBG" name="KRBG" netid="KO" insttype="30s," lat="40.3932" lon="27.2977">
    <comp name="--.HHN">
      <acc value="0.0298177416" flag="0"/>
      <vel value="0.0058240323" flag="0"/>
      <psa03 value="0.0233920067" flag="0"/>
      <psa10 value="0.0031334548" flag="0"/>
      <psa30 value="0.0003791380" flag="0"/>
    </comp>
    <comp name="--.HHZ">
      <acc value="0.0220231551" flag="0"/>
      <vel value="0.0036420806" flag="0"/>
      <psa03 value="0.0135414272" flag="0"/>
      <psa10 value="0.0014545118" flag="0"/>
      <psa30 value="0.0002467784" flag="0"/>
    </comp>
    <comp name="--.HHE">
      <acc value="0.0314639082" flag="0"/>
      <vel value="0.0077513841" flag="0"/>
      <psa03 value="0.0342301729" flag="0"/>
      <psa10 value="0.0027076437" flag="0"/>
      <psa30 value="0.0003960185" flag="0"/>
    </comp>
  </station>
  <station code="LAP" name="LAP" netid="KO" insttype="30s," lat="40.3703" lon="26.7593">
    <comp name="--.HHE">
      <acc value="0.0197633858" flag="0"/>
      <vel value="0.0098805369" flag="0"/>
      <psa03 value="0.0450260136" flag="0"/>
      <psa10 value="0.0088147521" flag="0"/>
      <psa30 value="0.0005372451" flag="0"/>
    </comp>
    <comp name="--.HHN">
      <acc value="0.0172688873" flag="0"/>
      <vel value="0.0102041843" flag="0"/>
      <psa03 value="0.0605680211" flag="0"/>
      <psa10 value="0.0103715698" flag="0"/>
      <psa30 value="0.0009077844" flag="0"/>
    </comp>
    <comp name="--.HHZ">
      <acc value="0.0269511682" flag="0"/>
      <vel value="0.0109052459" flag="0"/>
      <psa03 value="0.0329209952" flag="0"/>
      <psa10 value="0.0039645592" flag="0"/>
      <psa30 value="0.0004437446" flag="0"/>
    </comp>
  </station>
  <station code="MDNY" name="MDNY" netid="KO" insttype="30s," lat="40.371" lon="28.8847">
    <comp name="--.HHN">
      <acc value="0.3587148783" flag="0"/>
      <vel value="0.1723556518" flag="0"/>
      <psa03 value="1.2779417717" flag="0"/>
      <psa10 value="0.0554964459" flag="0"/>
      <psa30 value="0.0041593797" flag="0"/>
    </comp>
    <comp name="--.HHE">
      <acc value="0.1763023509" flag="0"/>
      <vel value="0.0627606616" flag="0"/>
      <psa03 value="0.5539428219" flag="0"/>
      <psa10 value="0.0323088629" flag="0"/>
      <psa30 value="0.0020730308" flag="0"/>
    </comp>
  </station>
  <station code="ORLT" name="ORLT" netid="KO" insttype="CMG-5T" lat="40.0452" lon="28.8914">
    <comp name="--.HNE">
      <acc value="0.1011348809" flag="0"/>
      <vel value="0.0358804502" flag="0"/>
      <psa03 value="0.1827393993" flag="0"/>
      <psa10 value="0.0134285299" flag="0"/>
      <psa30 value="0.0011111242" flag="0"/>
    </comp>
    <comp name="--.HNZ">
      <acc value="0.0332706891" flag="0"/>
      <vel value="0.0116943637" flag="0"/>
      <psa03 value="0.0428109257" flag="0"/>
      <psa10 value="0.0039578269" flag="0"/>
      <psa30 value="0.0003628607" flag="0"/>
    </comp>
    <comp name="--.HNN">
      <acc value="0.0770279466" flag="0"/>
      <vel value="0.0321430924" flag="0"/>
      <psa03 value="0.1754868539" flag="0"/>
      <psa10 value="0.0121080827" flag="0"/>
      <psa30 value="0.0014111337" flag="0"/>
    </comp>
  </station>
  <station code="RKY" name="RKY" netid="KO" insttype="30s," lat="40.6875" lon="27.1777">
    <comp name="--.HHE">
      <acc value="0.0477926538" flag="0"/>
      <vel value="0.0166527762" flag="0"/>
      <psa03 value="0.1038040716" flag="0"/>
      <psa10 value="0.0070599279" flag="0"/>
      <psa30 value="0.0005607635" flag="0"/>
    </comp>
    <comp name="--.HHN">
      <acc value="0.0463961795" flag="0"/>
      <vel value="0.0139116640" flag="0"/>
      <psa03 value="0.0705998731" flag="0"/>
      <psa10 value="0.0072331420" flag="0"/>
      <psa30 value="0.0007180833" flag="0"/>
    </comp>
    <comp name="--.HHZ">
      <acc value="0.0245120623" flag="0"/>
      <vel value="0.0065730430" flag="0"/>
      <psa03 value="0.0342899313" flag="0"/>
      <psa10 value="0.0045238212" flag="0"/>
      <psa30 value="0.0003017394" flag="0"/>
    </comp>
  </station>
  <station code="YAYO" name="YAYO" netid="KO" insttype="30s," lat="39.6113" lon="27.0726">
    <comp name="--.HHZ">
      <acc value="0.0284140489" flag="0"/>
      <vel value="0.0100366221" flag="0"/>
      <psa03 value="0.0354942266" flag="0"/>
      <psa10 value="0.0066461424" flag="0"/>
      <psa30 value="0.0003623755" flag="0"/>
    </comp>
    <comp name="--.HHE">
      <acc value="0.0268435299" flag="0"/>
      <vel value="0.0141569772" flag="0"/>
      <psa03 value="0.0465603872" flag="0"/>
      <psa10 value="0.0068473754" flag="0"/>
      <psa30 value="0.0004638564" flag="0"/>
    </comp>
    <comp name="--.HHN">
      <acc value="0.0299103007" flag="0"/>
      <vel value="0.0172327890" flag="0"/>
      <psa03 value="0.0864275942" flag="0"/>
      <psa10 value="0.0084269812" flag="0"/>
      <psa30 value="0.0005132281" flag="0"/>
    </comp>
  </station>
  <station code="YENI" name="YENI" netid="KO" insttype="CMG-5T" lat="39.9364" lon="27.2422">
    <comp name="--.HNN">
      <acc value="0.1286437409" flag="0"/>
      <vel value="0.0380227834" flag="0"/>
      <psa03 value="0.1334430870" flag="0"/>
      <psa10 value="0.0099862665" flag="0"/>
      <psa30 value="0.0009319604" flag="0"/>
    </comp>
    <comp name="--.HNZ">
      <acc value="0.0640779780" flag="0"/>
      <vel value="0.0116389714" flag="0"/>
      <psa03 value="0.0574514757" flag="0"/>
      <psa10 value="0.0053303191" flag="0"/>
      <psa30 value="0.0007641233" flag="0"/>
    </comp>
    <comp name="--.HNE">
      <acc value="0.1317584709" flag="0"/>
      <vel value="0.0354500692" flag="0"/>
      <psa03 value="0.1006423971" flag="0"/>
      <psa10 value="0.0188950232" flag="0"/>
      <psa30 value="0.0010651739" flag="0"/>
    </comp>
  </station>
</stationlist>
