<stationlist created="1778138965">
	<station code="MYT1" name="MYT1" netid="HI" source="ITSAK Strong Motion Network" insttype="" lat="39.085" lon="26.5694">
		<comp name="--.HNE" depth="0.0">
			<acc value="0.0125216817054555" flag="0"/>
			<vel value="0.0102312062331434" flag="0"/>
			<psa03 value="0.0261783175183799" flag="0"/>
			<psa10 value="0.0193258758694132" flag="0"/>
			<psa30 value="0.00173583165699618" flag="0"/>
		</comp>
		<comp name="--.HNN" depth="0.0">
			<acc value="0.0113732309133855" flag="0"/>
			<vel value="0.0120547364758185" flag="0"/>
			<psa03 value="0.0238636485579527" flag="0"/>
			<psa10 value="0.0326149280789345" flag="0"/>
			<psa30 value="0.00173851454305457" flag="0"/>
		</comp>
		<comp name="--.HNZ" depth="0.0">
			<acc value="0.00768700513638375" flag="0"/>
			<vel value="0.00566892336273304" flag="0"/>
			<psa03 value="0.0173121364273901" flag="0"/>
			<psa10 value="0.0135605308186261" flag="0"/>
			<psa30 value="0.000419085731123136" flag="0"/>
		</comp>
	</station>
	<station code="SFL1" name="SFL1" netid="HI" source="ITSAK Strong Motion Network" insttype="" lat="41.189954" lon="26.304374">
		<comp name="--.HNE" depth="0.0">
			<acc value="0.0150902669738468" flag="0"/>
			<vel value="0.0119291283676032" flag="0"/>
			<psa03 value="0.0652648026397463" flag="0"/>
			<psa10 value="0.012104877513711" flag="0"/>
			<psa30 value="0.00100891568987743" flag="0"/>
		</comp>
		<comp name="--.HNN" depth="0.0">
			<acc value="0.0150055800561626" flag="0"/>
			<vel value="0.0103802300631068" flag="0"/>
			<psa03 value="0.0498553130862943" flag="0"/>
			<psa10 value="0.00808330329167859" flag="0"/>
			<psa30 value="0.00066308309266724" flag="0"/>
		</comp>
		<comp name="--.HNZ" depth="0.0">
			<acc value="0.00777740392817113" flag="0"/>
			<vel value="0.00397965780602169" flag="0"/>
			<psa03 value="0.0284860407062132" flag="0"/>
			<psa10 value="0.00309717759469182" flag="0"/>
			<psa30 value="0.000280806049939215" flag="0"/>
		</comp>
	</station>
	<station code="PRK" name="PRK" netid="HL" source="National Observatory of Athens Seismic Network" insttype="" lat="39.24565" lon="26.26499">
		<comp name="--.HNE" depth="0.0">
			<acc value="0.0075848856643157" flag="0"/>
			<vel value="0.00463814932780043" flag="0"/>
			<psa03 value="0.0136398267486496" flag="0"/>
			<psa10 value="0.0089003999203118" flag="0"/>
			<psa30 value="0.000361695132402605" flag="0"/>
		</comp>
		<comp name="--.HNN" depth="0.0">
			<acc value="0.0105509206324356" flag="0"/>
			<vel value="0.00391363778660352" flag="0"/>
			<psa03 value="0.0127285958111636" flag="0"/>
			<psa10 value="0.00504612287461551" flag="0"/>
			<psa30 value="0.000638865602959312" flag="0"/>
		</comp>
		<comp name="--.HNZ" depth="0.0">
			<acc value="0.00659557617537975" flag="0"/>
			<vel value="0.00312320846390413" flag="0"/>
			<psa03 value="0.0103225067320595" flag="0"/>
			<psa10 value="0.00295934424515953" flag="0"/>
			<psa30 value="0.000207166965982446" flag="0"/>
		</comp>
	</station>
	<station code="AKS" name="AKS" netid="KO" source="Bogazici University Kandilli Observatory And Earthquake Research Institute (KOERI)" insttype="" lat="38.8785" lon="27.8129">
		<comp name="--.HNE" depth="0.0">
			<acc value="0.0265138618845795" flag="0"/>
			<vel value="0.0105867097586911" flag="0"/>
			<psa03 value="0.0375568134753958" flag="0"/>
			<psa10 value="0.00638070362779235" flag="0"/>
			<psa30 value="0.000680005880385413" flag="0"/>
		</comp>
		<comp name="--.HNN" depth="0.0">
			<acc value="0.0426631288188648" flag="0"/>
			<vel value="0.012500098520686" flag="0"/>
			<psa03 value="0.0570236421197026" flag="0"/>
			<psa10 value="0.00804644960030541" flag="0"/>
			<psa30 value="0.00100118153169711" flag="0"/>
		</comp>
		<comp name="--.HNZ" depth="0.0">
			<acc value="0.0153732242069913" flag="0"/>
			<vel value="0.00374204141981622" flag="0"/>
			<psa03 value="0.0176941096479144" flag="0"/>
			<psa10 value="0.00403129064696599" flag="0"/>
			<psa30 value="0.000586704282945627" flag="0"/>
		</comp>
	</station>
	<station code="ALT" name="ALT" netid="KO" source="Bogazici University Kandilli Observatory And Earthquake Research Institute (KOERI)" insttype="" lat="39.0541" lon="30.1104">
		<comp name="--.HNE" depth="0.0">
			<acc value="0.00957727395508905" flag="0"/>
			<vel value="0.00273956351226018" flag="0"/>
			<psa03 value="0.0107725437062625" flag="0"/>
			<psa10 value="0.00143125829040098" flag="0"/>
			<psa30 value="0.000286639873901752" flag="0"/>
		</comp>
		<comp name="--.HNN" depth="0.0">
			<acc value="0.00999843019858782" flag="0"/>
			<vel value="0.00363355866142548" flag="0"/>
			<psa03 value="0.0231997061374943" flag="0"/>
			<psa10 value="0.00213694124937015" flag="0"/>
			<psa30 value="0.000500253243489552" flag="0"/>
		</comp>
		<comp name="--.HNZ" depth="0.0">
			<acc value="0.00529123394358889" flag="0"/>
			<vel value="0.00163407797739485" flag="0"/>
			<psa03 value="0.007673474475858" flag="0"/>
			<psa10 value="0.00113344942139934" flag="0"/>
			<psa30 value="0.000621182400285546" flag="0"/>
		</comp>
	</station>
	<station code="AVCI" name="AVCI" netid="KO" source="Bogazici University Kandilli Observatory And Earthquake Research Institute (KOERI)" insttype="" lat="40.9958" lon="28.7225">
		<comp name="--.HNE" depth="0.0">
			<acc value="0.0213642568844278" flag="0"/>
			<vel value="0.0143721351638219" flag="0"/>
			<psa03 value="0.0424478562330065" flag="0"/>
			<psa10 value="0.0220390474787454" flag="0"/>
			<psa30 value="0.00126116229581134" flag="0"/>
		</comp>
		<comp name="--.HNN" depth="0.0">
			<acc value="0.0226433044198489" flag="0"/>
			<vel value="0.0114919221826386" flag="0"/>
			<psa03 value="0.0454572352772315" flag="0"/>
			<psa10 value="0.0140071572804075" flag="0"/>
			<psa30 value="0.00214518898324204" flag="0"/>
		</comp>
		<comp name="--.HNZ" depth="0.0">
			<acc value="0.0189276106381083" flag="0"/>
			<vel value="0.00727316956443498" flag="0"/>
			<psa03 value="0.026150427650012" flag="0"/>
			<psa10 value="0.00620159879424146" flag="0"/>
			<psa30 value="0.000571743864808217" flag="0"/>
		</comp>
	</station>
	<station code="BIGA" name="BIGA" netid="KO" source="Bogazici University Kandilli Observatory And Earthquake Research Institute (KOERI)" insttype="" lat="40.28134" lon="27.15048">
		<comp name="--.HNE" depth="0.0">
			<acc value="0.0835325069740807" flag="0"/>
			<vel value="0.0233102183936193" flag="0"/>
			<psa03 value="0.128828732187942" flag="0"/>
			<psa10 value="0.0064934215635606" flag="0"/>
			<psa30 value="0.000773428892120457" flag="0"/>
		</comp>
		<comp name="--.HNN" depth="0.0">
			<acc value="0.082367177081682" flag="0"/>
			<vel value="0.030920023014071" flag="0"/>
			<psa03 value="0.196097886356041" flag="0"/>
			<psa10 value="0.0059874816412826" flag="0"/>
			<psa30 value="0.00108883473412492" flag="0"/>
		</comp>
		<comp name="--.HNZ" depth="0.0">
			<acc value="0.0525724771407331" flag="0"/>
			<vel value="0.0101806702889106" flag="0"/>
			<psa03 value="0.0493365026760097" flag="0"/>
			<psa10 value="0.00209223078751973" flag="0"/>
			<psa30 value="0.000413333813628358" flag="0"/>
		</comp>
	</station>
	<station code="BOTS" name="BOTS" netid="KO" source="Bogazici University Kandilli Observatory And Earthquake Research Institute (KOERI)" insttype="" lat="40.9902" lon="27.981">
		<comp name="--.HNE" depth="0.0">
			<acc value="0.0235187904647885" flag="0"/>
			<vel value="0.0108135023015035" flag="0"/>
			<psa03 value="0.0639472570253375" flag="0"/>
			<psa10 value="0.00444121811513746" flag="0"/>
			<psa30 value="0.000373394188657405" flag="0"/>
		</comp>
		<comp name="--.HNN" depth="0.0">
			<acc value="0.0334539389535051" flag="0"/>
			<vel value="0.0120418558166688" flag="0"/>
			<psa03 value="0.0516843092484213" flag="0"/>
			<psa10 value="0.00434890715627247" flag="0"/>
			<psa30 value="0.000511037707905771" flag="0"/>
		</comp>
		<comp name="--.HNZ" depth="0.0">
			<acc value="0.018503735925778" flag="0"/>
			<vel value="0.00694895985507189" flag="0"/>
			<psa03 value="0.0168152636682972" flag="0"/>
			<psa10 value="0.00343606574749161" flag="0"/>
			<psa30 value="0.000398394334377879" flag="0"/>
		</comp>
	</station>
	<station code="BRGA" name="BRGA" netid="KO" source="Bogazici University Kandilli Observatory And Earthquake Research Institute (KOERI)" insttype="" lat="40.8846" lon="29.065">
		<comp name="--.HNE" depth="0.0">
			<acc value="0.0167202337366213" flag="0"/>
			<vel value="0.010561306433637" flag="0"/>
			<psa03 value="0.0381697212650272" flag="0"/>
			<psa10 value="0.015871544536927" flag="0"/>
			<psa30 value="0.000998046219832338" flag="0"/>
		</comp>
		<comp name="--.HNN" depth="0.0">
			<acc value="0.0292927076523477" flag="0"/>
			<vel value="0.0180753181740812" flag="0"/>
			<psa03 value="0.0799694277904416" flag="0"/>
			<psa10 value="0.0137545152316257" flag="0"/>
			<psa30 value="0.00076717978022909" flag="0"/>
		</comp>
		<comp name="--.HNZ" depth="0.0">
			<acc value="0.0137042483786573" flag="0"/>
			<vel value="0.00677643576322893" flag="0"/>
			<psa03 value="0.0353092453142144" flag="0"/>
			<psa10 value="0.00481650125707849" flag="0"/>
			<psa30 value="0.000455576429704662" flag="0"/>
		</comp>
	</station>
	<station code="BUYA" name="BUYA" netid="KO" source="Bogazici University Kandilli Observatory And Earthquake Research Institute (KOERI)" insttype="" lat="40.8694" lon="29.1278">
		<comp name="--.HNE" depth="0.0">
			<acc value="0.0287728364161286" flag="0"/>
			<vel value="0.0126894600606765" flag="0"/>
			<psa03 value="0.0668304011442666" flag="0"/>
			<psa10 value="0.0067872905621833" flag="0"/>
			<psa30 value="0.000691494662296236" flag="0"/>
		</comp>
		<comp name="--.HNN" depth="0.0">
			<acc value="0.0339872007733992" flag="0"/>
			<vel value="0.0150832069789659" flag="0"/>
			<psa03 value="0.0617663365082484" flag="0"/>
			<psa10 value="0.00718943345218181" flag="0"/>
			<psa30 value="0.000632931303591579" flag="0"/>
		</comp>
		<comp name="--.HNZ" depth="0.0">
			<acc value="0.0230981211844612" flag="0"/>
			<vel value="0.00866922409545152" flag="0"/>
			<psa03 value="0.0476312959643916" flag="0"/>
			<psa10 value="0.00256960506747559" flag="0"/>
			<psa30 value="0.000292928129009217" flag="0"/>
		</comp>
	</station>
	<station code="CANM" name="CANM" netid="KO" source="Bogazici University Kandilli Observatory And Earthquake Research Institute (KOERI)" insttype="" lat="40.0113" lon="27.0529">
		<comp name="--.HNE" depth="0.0">
			<acc value="0.0589059596001337" flag="0"/>
			<vel value="0.016619116725969" flag="0"/>
			<psa03 value="0.0786680551226674" flag="0"/>
			<psa10 value="0.00907108497736529" flag="0"/>
			<psa30 value="0.000416185304608788" flag="0"/>
		</comp>
		<comp name="--.HNN" depth="0.0">
			<acc value="0.0791857013313955" flag="0"/>
			<vel value="0.0206396399869327" flag="0"/>
			<psa03 value="0.0608905441161799" flag="0"/>
			<psa10 value="0.00862959729347104" flag="0"/>
			<psa30 value="0.00061510819581396" flag="0"/>
		</comp>
		<comp name="--.HNZ" depth="0.0">
			<acc value="0.0566456313388684" flag="0"/>
			<vel value="0.0142545476218255" flag="0"/>
			<psa03 value="0.0777354360494941" flag="0"/>
			<psa10 value="0.00360239864123098" flag="0"/>
			<psa30 value="0.000347588755215619" flag="0"/>
		</comp>
	</station>
	<station code="CESE" name="CESE" netid="KO" source="Bogazici University Kandilli Observatory And Earthquake Research Institute (KOERI)" insttype="" lat="38.3306" lon="26.2997">
		<comp name="--.HNE" depth="0.0">
			<acc value="0.00469208238108869" flag="0"/>
			<vel value="0.00150155376547371" flag="0"/>
			<psa03 value="0.00316491701699075" flag="0"/>
			<psa10 value="0.00237272124363617" flag="0"/>
			<psa30 value="0.00048078893324276" flag="0"/>
		</comp>
		<comp name="--.HNN" depth="0.0">
			<acc value="0.0044721366224711" flag="0"/>
			<vel value="0.00205304774937859" flag="0"/>
			<psa03 value="0.00386290042944373" flag="0"/>
			<psa10 value="0.00243915666028287" flag="0"/>
			<psa30 value="0.00060996780320743" flag="0"/>
		</comp>
		<comp name="--.HNZ" depth="0.0">
			<acc value="0.00180607585204771" flag="0"/>
			<vel value="0.00132896370359595" flag="0"/>
			<psa03 value="0.00295910195045897" flag="0"/>
			<psa10 value="0.00173224502616802" flag="0"/>
			<psa30 value="0.000310521403852556" flag="0"/>
		</comp>
	</station>
	<station code="CTYL" name="CTYL" netid="KO" source="Bogazici University Kandilli Observatory And Earthquake Research Institute (KOERI)" insttype="" lat="41.476" lon="28.2897">
		<comp name="--.HNE" depth="0.0">
			<acc value="0.0167271845921387" flag="0"/>
			<vel value="0.00534998633308656" flag="0"/>
			<psa03 value="0.0368897953303765" flag="0"/>
			<psa10 value="0.00410875999768368" flag="0"/>
			<psa30 value="0.000333853131756468" flag="0"/>
		</comp>
		<comp name="--.HNN" depth="0.0">
			<acc value="0.0166687555368323" flag="0"/>
			<vel value="0.00547280248227689" flag="0"/>
			<psa03 value="0.0291026674922195" flag="0"/>
			<psa10 value="0.00395162458823555" flag="0"/>
			<psa30 value="0.000410174854362881" flag="0"/>
		</comp>
		<comp name="--.HNZ" depth="0.0">
			<acc value="0.00737044837088824" flag="0"/>
			<vel value="0.00351279707227857" flag="0"/>
			<psa03 value="0.0208771277989069" flag="0"/>
			<psa10 value="0.00182885259782293" flag="0"/>
			<psa30 value="0.000391563022461949" flag="0"/>
		</comp>
	</station>
	<station code="DST" name="DST" netid="KO" source="Bogazici University Kandilli Observatory And Earthquake Research Institute (KOERI)" insttype="" lat="39.6041" lon="28.6267">
		<comp name="--.HNE" depth="0.0">
			<acc value="0.34539156543421" flag="0"/>
			<vel value="0.0613426226297277" flag="0"/>
			<psa03 value="0.237632742003017" flag="0"/>
			<psa10 value="0.0146635004474541" flag="0"/>
			<psa30 value="0.000827189588917435" flag="0"/>
		</comp>
		<comp name="--.HNN" depth="0.0">
			<acc value="0.270432336823668" flag="0"/>
			<vel value="0.0598924375018102" flag="0"/>
			<psa03 value="0.171276117035404" flag="0"/>
			<psa10 value="0.0230649016865599" flag="0"/>
			<psa30 value="0.0011775890511613" flag="0"/>
		</comp>
		<comp name="--.HNZ" depth="0.0">
			<acc value="0.162150124894058" flag="0"/>
			<vel value="0.0405303225264824" flag="0"/>
			<psa03 value="0.259930927481669" flag="0"/>
			<psa10 value="0.0117248742153548" flag="0"/>
			<psa30 value="0.000866907428361214" flag="0"/>
		</comp>
	</station>
	<station code="EDC" name="EDC" netid="KO" source="Bogazici University Kandilli Observatory And Earthquake Research Institute (KOERI)" insttype="" lat="40.3465" lon="27.8618">
		<comp name="--.HNE" depth="0.0">
			<acc value="0.162435418808246" flag="0"/>
			<vel value="0.039905606564648" flag="0"/>
			<psa03 value="0.135046435746898" flag="0"/>
			<psa10 value="0.00918660669262079" flag="0"/>
			<psa30 value="0.000701667523696262" flag="0"/>
		</comp>
		<comp name="--.HNN" depth="0.0">
			<acc value="0.247138601071821" flag="0"/>
			<vel value="0.0708540186614375" flag="0"/>
			<psa03 value="0.479407758411502" flag="0"/>
			<psa10 value="0.0180919110002962" flag="0"/>
			<psa30 value="0.00177077980547149" flag="0"/>
		</comp>
		<comp name="--.HNZ" depth="0.0">
			<acc value="0.0997640470675001" flag="0"/>
			<vel value="0.0276352521683892" flag="0"/>
			<psa03 value="0.104960484366985" flag="0"/>
			<psa10 value="0.00640666425381667" flag="0"/>
			<psa30 value="0.000502818673850731" flag="0"/>
		</comp>
	</station>
	<station code="ENZZ" name="ENZZ" netid="KO" source="Bogazici University Kandilli Observatory And Earthquake Research Institute (KOERI)" insttype="" lat="40.607" lon="26.1406">
		<comp name="--.HNE" depth="0.0">
			<acc value="0.0472018416129325" flag="0"/>
			<vel value="0.0153585324401428" flag="0"/>
			<psa03 value="0.0856071241766227" flag="0"/>
			<psa10 value="0.0131170911304215" flag="0"/>
			<psa30 value="0.00109048838533904" flag="0"/>
		</comp>
		<comp name="--.HNN" depth="0.0">
			<acc value="0.0232940901219228" flag="0"/>
			<vel value="0.0130031555389744" flag="0"/>
			<psa03 value="0.0464549940820457" flag="0"/>
			<psa10 value="0.0131308104767666" flag="0"/>
			<psa30 value="0.00122868431097121" flag="0"/>
		</comp>
		<comp name="--.HNZ" depth="0.0">
			<acc value="0.0133813595218847" flag="0"/>
			<vel value="0.00621797236423362" flag="0"/>
			<psa03 value="0.0331121935202946" flag="0"/>
			<psa10 value="0.00465163705437349" flag="0"/>
			<psa30 value="0.000532636274123523" flag="0"/>
		</comp>
	</station>
	<station code="EZNE" name="EZNE" netid="KO" source="Bogazici University Kandilli Observatory And Earthquake Research Institute (KOERI)" insttype="" lat="39.756" lon="26.3655">
		<comp name="--.HNE" depth="0.0">
			<acc value="0.0107973892909899" flag="0"/>
			<vel value="0.003806446347778" flag="0"/>
			<psa03 value="0.0297093873719471" flag="0"/>
			<psa10 value="0.00338270275933129" flag="0"/>
			<psa30 value="0.000445252724974652" flag="0"/>
		</comp>
		<comp name="--.HNN" depth="0.0">
			<acc value="0.0132968794862827" flag="0"/>
			<vel value="0.00489057924672344" flag="0"/>
			<psa03 value="0.0379070736575844" flag="0"/>
			<psa10 value="0.00413947406358668" flag="0"/>
			<psa30 value="0.000389322196935064" flag="0"/>
		</comp>
		<comp name="--.HNZ" depth="0.0">
			<acc value="0.00890748626146849" flag="0"/>
			<vel value="0.00293010806185686" flag="0"/>
			<psa03 value="0.0124594803273336" flag="0"/>
			<psa10 value="0.00190170972893568" flag="0"/>
			<psa30 value="0.000269133063119463" flag="0"/>
		</comp>
	</station>
	<station code="FOCM" name="FOCM" netid="KO" source="Bogazici University Kandilli Observatory And Earthquake Research Institute (KOERI)" insttype="" lat="38.7131" lon="26.7309">
		<comp name="--.HNE" depth="0.0">
			<acc value="0.00694221576724455" flag="0"/>
			<vel value="0.00403685490756459" flag="0"/>
			<psa03 value="0.0159062060518201" flag="0"/>
			<psa10 value="0.00575140772127042" flag="0"/>
			<psa30 value="0.000586739545696991" flag="0"/>
		</comp>
		<comp name="--.HNN" depth="0.0">
			<acc value="0.00912042429677432" flag="0"/>
			<vel value="0.00420277053208784" flag="0"/>
			<psa03 value="0.0130474190149683" flag="0"/>
			<psa10 value="0.00451079319289656" flag="0"/>
			<psa30 value="0.000751977366891875" flag="0"/>
		</comp>
		<comp name="--.HNZ" depth="0.0">
			<acc value="0.00529831829335718" flag="0"/>
			<vel value="0.00234489172283735" flag="0"/>
			<psa03 value="0.00849049344312106" flag="0"/>
			<psa10 value="0.00223329755437787" flag="0"/>
			<psa30 value="0.000331327886346421" flag="0"/>
		</comp>
	</station>
	<station code="GMLD" name="GMLD" netid="KO" source="Bogazici University Kandilli Observatory And Earthquake Research Institute (KOERI)" insttype="" lat="38.0766" lon="26.9157">
		<comp name="--.HNE" depth="0.0">
			<acc value="0.0101809140235904" flag="0"/>
			<vel value="0.00612266322231054" flag="0"/>
			<psa03 value="0.0253189559024172" flag="0"/>
			<psa10 value="0.00663270532169253" flag="0"/>
			<psa30 value="0.000564734077525822" flag="0"/>
		</comp>
		<comp name="--.HNN" depth="0.0">
			<acc value="0.00910368161709343" flag="0"/>
			<vel value="0.00561091962733995" flag="0"/>
			<psa03 value="0.020369305095653" flag="0"/>
			<psa10 value="0.00605522237875274" flag="0"/>
			<psa30 value="0.000463944327783504" flag="0"/>
		</comp>
		<comp name="--.HNZ" depth="0.0">
			<acc value="0.00617945796358898" flag="0"/>
			<vel value="0.00245439646904175" flag="0"/>
			<psa03 value="0.0125076788327693" flag="0"/>
			<psa10 value="0.00229323168097004" flag="0"/>
			<psa30 value="0.00101298450108294" flag="0"/>
		</comp>
	</station>
	<station code="GOKC" name="GOKC" netid="KO" source="Bogazici University Kandilli Observatory And Earthquake Research Institute (KOERI)" insttype="" lat="40.1998" lon="25.9183">
		<comp name="--.HNE" depth="0.0">
			<acc value="0.0461298790470509" flag="0"/>
			<vel value="0.0184641675289576" flag="0"/>
