<stationlist xmlns:esm="https://esm-db.eu/esmws/shakemap/1/" created="1780106063">
	<station code="ALT" name="ALT" netid="IT" source="Italian Strong Motion Network (RAN)" insttype="" lat="40.5583" lon="15.3921" esm:processing="manual (Paolucci et al 2011)" esm:quality="good">
		<comp name="--.HGE" depth="0.0">
			<acc value="0.025076292" flag="0"/>
			<vel value="0.02784" flag="0"/>
			<psa03 value="0.0682318650928644" flag="0"/>
			<psa10 value="0.0294117369425871" flag="0"/>
			<psa30 value="0.00996095745942584" flag="0"/>
		</comp>
		<comp name="--.HGN" depth="0.0">
			<acc value="0.020329518" flag="0"/>
			<vel value="0.022684" flag="0"/>
			<psa03 value="0.0687687715722837" flag="0"/>
			<psa10 value="0.0249419905014218" flag="0"/>
			<psa30 value="0.00665316612413701" flag="0"/>
		</comp>
		<comp name="--.HGZ" depth="0.0">
			<acc value="0.013016016" flag="0"/>
			<vel value="0.019267" flag="0"/>
			<psa03 value="0.0579411575706619" flag="0"/>
			<psa10 value="0.0266412995087837" flag="0"/>
			<psa30 value="0.00968221351219401" flag="0"/>
		</comp>
	</station>
	<station code="AMT" name="AMT" netid="IT" source="Italian Strong Motion Network (RAN)" insttype="" lat="42.6325" lon="13.2866" esm:processing="manual (Paolucci et al 2011)" esm:quality="good">
		<comp name="--.HGE" depth="0.0">
			<acc value="0.203724294" flag="0"/>
			<vel value="0.15664" flag="0"/>
			<psa03 value="0.651714981601746" flag="0"/>
			<psa10 value="0.228279212387084" flag="0"/>
			<psa30 value="0.0216212239262136" flag="0"/>
		</comp>
		<comp name="--.HGN" depth="0.0">
			<acc value="0.208768398" flag="0"/>
			<vel value="0.178205" flag="0"/>
			<psa03 value="0.387378024900997" flag="0"/>
			<psa10 value="0.159908199031637" flag="0"/>
			<psa30 value="0.0292296361616507" flag="0"/>
		</comp>
		<comp name="--.HGZ" depth="0.0">
			<acc value="0.071326866" flag="0"/>
			<vel value="0.107745" flag="0"/>
			<psa03 value="0.191630870946058" flag="0"/>
			<psa10 value="0.217064578298214" flag="0"/>
			<psa30 value="0.022403317697901" flag="0"/>
		</comp>
	</station>
	<station code="ARI" name="ARI" netid="IT" source="Italian Strong Motion Network (RAN)" insttype="" lat="41.1546" lon="15.0903" esm:processing="manual (Paolucci et al 2011)" esm:quality="good">
		<comp name="--.HGE" depth="0.0">
			<acc value="0.4754169" flag="0"/>
			<vel value="0.195724" flag="0"/>
			<psa03 value="1.19322990830269" flag="0"/>
			<psa10 value="0.169274532565106" flag="0"/>
			<psa30 value="0.0615697505274038" flag="0"/>
		</comp>
		<comp name="--.HGN" depth="0.0">
			<acc value="0.3243702" flag="0"/>
			<vel value="0.174364" flag="0"/>
			<psa03 value="1.18016518397015" flag="0"/>
			<psa10 value="0.121242878916259" flag="0"/>
			<psa30 value="0.040127048005597" flag="0"/>
		</comp>
		<comp name="--.HGZ" depth="0.0">
			<acc value="0.229309362" flag="0"/>
			<vel value="0.099223" flag="0"/>
			<psa03 value="0.588628470269983" flag="0"/>
			<psa10 value="0.0729696173516732" flag="0"/>
			<psa30 value="0.0390384701185745" flag="0"/>
		</comp>
	</station>
	<station code="ASP" name="ASP" netid="IT" source="Italian Strong Motion Network (RAN)" insttype="" lat="42.848" lon="13.6479" esm:processing="manual (Paolucci et al 2011)" esm:quality="good">
		<comp name="--.HGE" depth="0.0">
			<acc value="0.246164862" flag="0"/>
			<vel value="0.218351" flag="0"/>
			<psa03 value="0.807238891806859" flag="0"/>
			<psa10 value="0.211833766922472" flag="0"/>
			<psa30 value="0.0219585801641154" flag="0"/>
		</comp>
		<comp name="--.HGN" depth="0.0">
			<acc value="0.276574836" flag="0"/>
			<vel value="0.170935" flag="0"/>
			<psa03 value="0.656457655503283" flag="0"/>
			<psa10 value="0.178999251173587" flag="0"/>
			<psa30 value="0.0269276496311407" flag="0"/>
		</comp>
		<comp name="--.HGZ" depth="0.0">
			<acc value="0.108333996" flag="0"/>
			<vel value="0.077991" flag="0"/>
			<psa03 value="0.352479103738745" flag="0"/>
			<psa10 value="0.0940901759858284" flag="0"/>
			<psa30 value="0.0112280567508553" flag="0"/>
		</comp>
	</station>
	<station code="ATI" name="ATI" netid="IT" source="Italian Strong Motion Network (RAN)" insttype="" lat="41.6219" lon="13.7948" esm:processing="manual (Paolucci et al 2011)" esm:quality="good">
		<comp name="--.HGE" depth="0.0">
			<acc value="0.143380176" flag="0"/>
			<vel value="0.132705" flag="0"/>
			<psa03 value="0.43699713204066" flag="0"/>
			<psa10 value="0.14723989064974" flag="0"/>
			<psa30 value="0.0157389660221095" flag="0"/>
		</comp>
		<comp name="--.HGN" depth="0.0">
			<acc value="0.12564513" flag="0"/>
			<vel value="0.120907" flag="0"/>
			<psa03 value="0.332747790620087" flag="0"/>
			<psa10 value="0.186710570484247" flag="0"/>
			<psa30 value="0.0169836942102298" flag="0"/>
		</comp>
		<comp name="--.HGZ" depth="0.0">
			<acc value="0.073805262" flag="0"/>
			<vel value="0.054418" flag="0"/>
			<psa03 value="0.225679690182563" flag="0"/>
			<psa10 value="0.0828352739110021" flag="0"/>
			<psa30 value="0.0172843618387046" flag="0"/>
		</comp>
	</station>
	<station code="ATN" name="ATN" netid="IT" source="Italian Strong Motion Network (RAN)" insttype="" lat="41.6203" lon="13.8012" esm:processing="manual (Paolucci et al 2011)" esm:quality="good">
		<comp name="--.HGE" depth="0.0">
			<acc value="0.154508172" flag="0"/>
			<vel value="0.104516" flag="0"/>
			<psa03 value="0.514893313763071" flag="0"/>
			<psa10 value="0.169246344974937" flag="0"/>
			<psa30 value="0.0166593132122473" flag="0"/>
		</comp>
		<comp name="--.HGN" depth="0.0">
			<acc value="0.207575508" flag="0"/>
			<vel value="0.157316" flag="0"/>
			<psa03 value="0.745763099913354" flag="0"/>
			<psa10 value="0.199117136957427" flag="0"/>
			<psa30 value="0.0155769992341513" flag="0"/>
		</comp>
		<comp name="--.HGZ" depth="0.0">
			<acc value="0.10518648" flag="0"/>
			<vel value="0.097087" flag="0"/>
			<psa03 value="0.261205002237471" flag="0"/>
			<psa10 value="0.139810447240776" flag="0"/>
			<psa30 value="0.0166069648305039" flag="0"/>
		</comp>
	</station>
	<station code="AVL" name="AVL" netid="IT" source="Italian Strong Motion Network (RAN)" insttype="" lat="40.9228" lon="14.787" esm:processing="manual (Paolucci et al 2011)" esm:quality="good">
		<comp name="--.HGE" depth="0.0">
			<acc value="0.302416026" flag="0"/>
			<vel value="0.293837" flag="0"/>
			<psa03 value="0.657397241842267" flag="0"/>
			<psa10 value="0.310550734494696" flag="0"/>
			<psa30 value="0.0433896497122014" flag="0"/>
		</comp>
		<comp name="--.HGN" depth="0.0">
			<acc value="0.19671822" flag="0"/>
			<vel value="0.251472" flag="0"/>
			<psa03 value="0.506794974365164" flag="0"/>
			<psa10 value="0.167482607190044" flag="0"/>
			<psa30 value="0.0432831632604499" flag="0"/>
		</comp>
		<comp name="--.HGZ" depth="0.0">
			<acc value="0.074197248" flag="0"/>
			<vel value="0.085248" flag="0"/>
			<psa03 value="0.166530493033207" flag="0"/>
			<psa10 value="0.0986162976073328" flag="0"/>
			<psa30 value="0.0169684818599796" flag="0"/>
		</comp>
	</station>
	<station code="BCN" name="BCN" netid="IT" source="Italian Strong Motion Network (RAN)" insttype="" lat="40.6343" lon="15.3823" esm:processing="manual (Paolucci et al 2011)" esm:quality="good">
		<comp name="--.HGE" depth="0.0">
			<acc value="0.022631454" flag="0"/>
			<vel value="0.028075" flag="0"/>
			<psa03 value="0.0517667330573404" flag="0"/>
			<psa10 value="0.0300640783150815" flag="0"/>
			<psa30 value="0.00706747895742221" flag="0"/>
		</comp>
		<comp name="--.HGN" depth="0.0">
			<acc value="0.02172498" flag="0"/>
			<vel value="0.033373" flag="0"/>
			<psa03 value="0.0638471288442738" flag="0"/>
			<psa10 value="0.0541161463268659" flag="0"/>
			<psa30 value="0.00855157795095028" flag="0"/>
		</comp>
		<comp name="--.HGZ" depth="0.0">
			<acc value="0.014264904" flag="0"/>
			<vel value="0.018712" flag="0"/>
			<psa03 value="0.0409838612623369" flag="0"/>
			<psa10 value="0.0195219195916843" flag="0"/>
			<psa30 value="0.0105591607619121" flag="0"/>
		</comp>
	</station>
	<station code="BGI" name="BGI" netid="IT" source="Italian Strong Motion Network (RAN)" insttype="" lat="40.8311" lon="15.0681" esm:processing="manual (Paolucci et al 2011)" esm:quality="good">
		<comp name="--.HGE" depth="0.0">
			<acc value="0.052547544" flag="0"/>
			<vel value="0.078654" flag="0"/>
			<psa03 value="0.116061283967797" flag="0"/>
			<psa10 value="0.115033555481775" flag="0"/>
			<psa30 value="0.0160458975595108" flag="0"/>
		</comp>
		<comp name="--.HGN" depth="0.0">
			<acc value="0.058295244" flag="0"/>
			<vel value="0.074679" flag="0"/>
			<psa03 value="0.127291577828983" flag="0"/>
			<psa10 value="0.156473339829552" flag="0"/>
			<psa30 value="0.0248180545890892" flag="0"/>
		</comp>
		<comp name="--.HGZ" depth="0.0">
			<acc value="0.045118272" flag="0"/>
			<vel value="0.056928" flag="0"/>
			<psa03 value="0.0868446230460655" flag="0"/>
			<psa10 value="0.0964861211502368" flag="0"/>
			<psa30 value="0.0134468227770554" flag="0"/>
		</comp>
	</station>
	<station code="BNE" name="BNE" netid="IT" source="Italian Strong Motion Network (RAN)" insttype="" lat="41.1276" lon="14.7849" esm:processing="manual (Paolucci et al 2011)" esm:quality="good">
		<comp name="--.HGE" depth="0.0">
			<acc value="0.128358228" flag="0"/>
			<vel value="0.149287" flag="0"/>
			<psa03 value="0.334313767851727" flag="0"/>
			<psa10 value="0.201561403704983" flag="0"/>
			<psa30 value="0.0631460184665655" flag="0"/>
		</comp>
		<comp name="--.HGN" depth="0.0">
			<acc value="0.172866234" flag="0"/>
			<vel value="0.226541" flag="0"/>
			<psa03 value="0.318475026708858" flag="0"/>
			<psa10 value="0.26418214866585" flag="0"/>
			<psa30 value="0.0429596771065998" flag="0"/>
		</comp>
		<comp name="--.HGZ" depth="0.0">
			<acc value="0.07457322" flag="0"/>
			<vel value="0.104101" flag="0"/>
			<psa03 value="0.222413509099429" flag="0"/>
			<psa10 value="0.156767296127034" flag="0"/>
			<psa30 value="0.0270502432772747" flag="0"/>
		</comp>
	</station>
	<station code="BNV" name="BNV" netid="IT" source="Italian Strong Motion Network (RAN)" insttype="" lat="41.1177" lon="14.7973" esm:processing="manual (Paolucci et al 2011)" esm:quality="good">
		<comp name="--.HGE" depth="0.0">
			<acc value="0.342014364" flag="0"/>
			<vel value="0.281846" flag="0"/>
			<psa03 value="0.779498723703531" flag="0"/>
			<psa10 value="0.36468701481454" flag="0"/>
			<psa30 value="0.0706246783028096" flag="0"/>
		</comp>
		<comp name="--.HGN" depth="0.0">
			<acc value="0.153366486" flag="0"/>
			<vel value="0.139525" flag="0"/>
			<psa03 value="0.575474261524211" flag="0"/>
			<psa10 value="0.155820998457058" flag="0"/>
			<psa30 value="0.0776487573198121" flag="0"/>
		</comp>
		<comp name="--.HGZ" depth="0.0">
			<acc value="0.070952934" flag="0"/>
			<vel value="0.088928" flag="0"/>
			<psa03 value="0.164248640495676" flag="0"/>
			<psa10 value="0.228251024796915" flag="0"/>
			<psa30 value="0.0306287249626041" flag="0"/>
		</comp>
	</station>
	<station code="BOI" name="BOI" netid="IT" source="Italian Strong Motion Network (RAN)" insttype="" lat="41.4812" lon="14.4725" esm:processing="manual (Paolucci et al 2011)" esm:quality="good">
		<comp name="--.HGE" depth="0.0">
			<acc value="0.233997384" flag="0"/>
			<vel value="0.186308" flag="0"/>
			<psa03 value="0.446392995430497" flag="0"/>
			<psa10 value="0.324870030300808" flag="0"/>
			<psa30 value="0.0359333609792664" flag="0"/>
		</comp>
		<comp name="--.HGN" depth="0.0">
			<acc value="0.178001424" flag="0"/>
			<vel value="0.124139" flag="0"/>
			<psa03 value="0.376863606345703" flag="0"/>
			<psa10 value="0.247438720105161" flag="0"/>
			<psa30 value="0.0448325858756407" flag="0"/>
		</comp>
		<comp name="--.HGZ" depth="0.0">
			<acc value="0.116214312" flag="0"/>
			<vel value="0.075921" flag="0"/>
			<psa03 value="0.34250159166287" flag="0"/>
			<psa10 value="0.115448315737127" flag="0"/>
			<psa30 value="0.02869407194843" flag="0"/>
		</comp>
	</station>
	<station code="BRS" name="BRS" netid="IT" source="Italian Strong Motion Network (RAN)" insttype="" lat="42.3243" lon="13.5902" esm:processing="manual (Paolucci et al 2011)" esm:quality="good">
		<comp name="--.HGE" depth="0.0">
			<acc value="0.253353312" flag="0"/>
			<vel value="0.240227" flag="0"/>
			<psa03 value="0.768850078528382" flag="0"/>
			<psa10 value="0.180710640576736" flag="0"/>
			<psa30 value="0.0227702037921709" flag="0"/>
		</comp>
		<comp name="--.HGN" depth="0.0">
			<acc value="0.23061486" flag="0"/>
			<vel value="0.174022" flag="0"/>
			<psa03 value="0.641200563046453" flag="0"/>
			<psa10 value="0.255431915317515" flag="0"/>
			<psa30 value="0.0251907571702194" flag="0"/>
		</comp>
		<comp name="--.HGZ" depth="0.0">
			<acc value="0.143072748" flag="0"/>
			<vel value="0.087106" flag="0"/>
			<psa03 value="0.29046640536582" flag="0"/>
			<psa10 value="0.0937801124939638" flag="0"/>
			<psa30 value="0.0205451738570442" flag="0"/>
		</comp>
	</station>
	<station code="BSS" name="BSS" netid="IT" source="Italian Strong Motion Network (RAN)" insttype="" lat="42.1917" lon="13.8453" esm:processing="manual (Paolucci et al 2011)" esm:quality="good">
		<comp name="--.HGE" depth="0.0">
			<acc value="0.621608604" flag="0"/>
			<vel value="0.581497" flag="0"/>
			<psa03 value="1.44494956273709" flag="0"/>
			<psa10 value="0.752226111659363" flag="0"/>
			<psa30 value="0.0464867052543182" flag="0"/>
		</comp>
		<comp name="--.HGN" depth="0.0">
			<acc value="0.654454848" flag="0"/>
			<vel value="0.643122" flag="0"/>
			<psa03 value="1.28736751102753" flag="0"/>
			<psa10 value="1.00119501523087" flag="0"/>
			<psa30 value="0.0677687832543653" flag="0"/>
		</comp>
		<comp name="--.HGZ" depth="0.0">
			<acc value="0.380616876" flag="0"/>
			<vel value="0.285336" flag="0"/>
			<psa03 value="1.00754975083686" flag="0"/>
			<psa10 value="0.344202690358497" flag="0"/>
			<psa30 value="0.0289907127783092" flag="0"/>
		</comp>
	</station>
	<station code="BVN" name="BVN" netid="IT" source="Italian Strong Motion Network (RAN)" insttype="" lat="41.249" lon="15.3422" esm:processing="manual (Paolucci et al 2011)" esm:quality="good">
		<comp name="--.HGE" depth="0.0">
			<acc value="0.258304392" flag="0"/>
			<vel value="0.136608" flag="0"/>
			<psa03 value="0.929743053527687" flag="0"/>
			<psa10 value="0.156670652960739" flag="0"/>
			<psa30 value="0.0262685969276535" flag="0"/>
		</comp>
		<comp name="--.HGN" depth="0.0">
			<acc value="0.27604617" flag="0"/>
			<vel value="0.150261" flag="0"/>
			<psa03 value="0.738201666994866" flag="0"/>
			<psa10 value="0.181801902996156" flag="0"/>
			<psa30 value="0.0239894289225188" flag="0"/>
		</comp>
		<comp name="--.HGZ" depth="0.0">
			<acc value="0.188541798" flag="0"/>
			<vel value="0.094274" flag="0"/>
			<psa03 value="0.570865814242529" flag="0"/>
			<psa10 value="0.113499345216835" flag="0"/>
			<psa30 value="0.0159179348485825" flag="0"/>
		</comp>
	</station>
	<station code="BZZ" name="BZZ" netid="IT" source="Italian Strong Motion Network (RAN)" insttype="" lat="42.337" lon="13.4685" esm:processing="manual (Paolucci et al 2011)" esm:quality="good">
		<comp name="--.HGE" depth="0.0">
			<acc value="0.151908396" flag="0"/>
			<vel value="0.145271" flag="0"/>
			<psa03 value="0.36787042281543" flag="0"/>
			<psa10 value="0.218663217340685" flag="0"/>
			<psa30 value="0.0249316997938996" flag="0"/>
		</comp>
		<comp name="--.HGN" depth="0.0">
			<acc value="0.148360122" flag="0"/>
			<vel value="0.181287" flag="0"/>
			<psa03 value="0.465676886482973" flag="0"/>
			<psa10 value="0.357591795689015" flag="0"/>
			<psa30 value="0.0339141451945838" flag="0"/>
		</comp>
		<comp name="--.HGZ" depth="0.0">
			<acc value="0.133474956" flag="0"/>
			<vel value="0.158404" flag="0"/>
			<psa03 value="0.266932004684609" flag="0"/>
			<psa10 value="0.238616004382104" flag="0"/>
			<psa30 value="0.0247424402599043" flag="0"/>
		</comp>
	</station>
	<station code="CDM" name="CDM" netid="IT" source="Italian Strong Motion Network (RAN)" insttype="" lat="42.0033" lon="14.1994" esm:processing="manual (Paolucci et al 2011)" esm:quality="good">
		<comp name="--.HGE" depth="0.0">
			<acc value="0.297946386" flag="0"/>
			<vel value="0.317123" flag="0"/>
			<psa03 value="0.999988317918374" flag="0"/>
			<psa10 value="0.340663134392925" flag="0"/>
			<psa30 value="0.0845435313596877" flag="0"/>
		</comp>
		<comp name="--.HGN" depth="0.0">
			<acc value="0.316021092" flag="0"/>
			<vel value="0.353547" flag="0"/>
			<psa03 value="1.06884657390389" flag="0"/>
			<psa10 value="0.572518143932942" flag="0"/>
			<psa30 value="0.114226853496448" flag="0"/>
		</comp>
		<comp name="--.HGZ" depth="0.0">
			<acc value="0.368909724" flag="0"/>
			<vel value="0.276447" flag="0"/>
			<psa03 value="0.733280024266856" flag="0"/>
			<psa10 value="0.39589873072938" flag="0"/>
			<psa30 value="0.0791435944429285" flag="0"/>
		</comp>
	</station>
	<station code="CDS" name="CDS" netid="IT" source="Italian Strong Motion Network (RAN)" insttype="" lat="41.7871" lon="14.1119" esm:processing="manual (Paolucci et al 2011)" esm:quality="good">
		<comp name="--.HGE" depth="0.0">
			<acc value="0.551019708" flag="0"/>
			<vel value="0.210422" flag="0"/>
			<psa03 value="1.07417089649147" flag="0"/>
			<psa10 value="0.258625166603861" flag="0"/>
			<psa30 value="0.041814276617172" flag="0"/>
		</comp>
		<comp name="--.HGN" depth="0.0">
			<acc value="0.64560543" flag="0"/>
			<vel value="0.274527" flag="0"/>
			<psa03 value="0.768402656462199" flag="0"/>
			<psa10 value="0.312539973000945" flag="0"/>
			<psa30 value="0.050409254508542" flag="0"/>
		</comp>
		<comp name="--.HGZ" depth="0.0">
			<acc value="0.413309916" flag="0"/>
			<vel value="0.174736" flag="0"/>
			<psa03 value="0.479233775088309" flag="0"/>
			<psa10 value="0.154387458157008" flag="0"/>
			<psa30 value="0.0383351226305352" flag="0"/>
		</comp>
	</station>
	<station code="CER" name="CER" netid="IT" source="Italian Strong Motion Network (RAN)" insttype="" lat="41.2595" lon="15.9101" esm:processing="manual (Paolucci et al 2011)" esm:quality="good">
		<comp name="--.HGE" depth="0.0">
			<acc value="0.222268506" flag="0"/>
			<vel value="0.182748" flag="0"/>
			<psa03 value="0.683839885953666" flag="0"/>
			<psa10 value="0.215115607777923" flag="0"/>
			<psa30 value="0.0442003784961245" flag="0"/>
		</comp>
		<comp name="--.HGN" depth="0.0">
			<acc value="0.312550236" flag="0"/>
			<vel value="0.153606" flag="0"/>
			<psa03 value="0.677889172473435" flag="0"/>
			<psa10 value="0.175999286219832" flag="0"/>
			<psa30 value="0.0482048059884598" flag="0"/>
		</comp>
		<comp name="--.HGZ" depth="0.0">
			<acc value="0.16678479" flag="0"/>
			<vel value="0.133356" flag="0"/>
			<psa03 value="0.364693726145533" flag="0"/>
			<psa10 value="0.202817764866824" flag="0"/>
			<psa30 value="0.0307947185491579" flag="0"/>
		</comp>
	</station>
	<station code="CLN" name="CLN" netid="IT" source="Italian Strong Motion Network (RAN)" insttype="" lat="42.0852" lon="13.5207" esm:processing="manual (Paolucci et al 2011)" esm:quality="good">
		<comp name="--.HGE" depth="0.0">
			<acc value="0.077493888" flag="0"/>
			<vel value="0.067191" flag="0"/>
			<psa03 value="0.226306081075219" flag="0"/>
			<psa10 value="0.118943576918146" flag="0"/>
			<psa30 value="0.012228939912906" flag="0"/>
		</comp>
		<comp name="--.HGN" depth="0.0">
			<acc value="0.06589557" flag="0"/>
			<vel value="0.072265" flag="0"/>
			<psa03 value="0.241831626771759" flag="0"/>
			<psa10 value="0.068769666416416" flag="0"/>
			<psa30 value="0.0177147818663723" flag="0"/>
		</comp>
		<comp name="--.HGZ" depth="0.0">
			<acc value="0.052243686" flag="0"/>
			<vel value="0.055149" flag="0"/>
			<psa03 value="0.136776925632057" flag="0"/>
			<psa10 value="0.0646059566685197" flag="0"/>
			<psa30 value="0.0135228845283065" flag="0"/>
		</comp>
	</station>
