<?xml version="1.0" encoding="UTF-8" standalone="yes"?>
<!DOCTYPE earthquake SYSTEM "stationlist.dtd">
<stationlist created="" xmlns="ch.ethz.sed.shakemap.usgs.xml">
  <station code="ACER" name="ACER" netid="IV" source="INGV" insttype="" lat="40.7867" lon="15.9427">
    <comp name="--.HHE">
      <acc value="0.0625592008" flag="0"/>
      <vel value="0.0580666342" flag="0"/>
      <psa03 value="0.2235664283" flag="0"/>
      <psa10 value="0.0695027857" flag="0"/>
      <psa30 value="0.0188481778" flag="0"/>
    </comp>
    <comp name="--.HHN">
      <acc value="0.0575679659" flag="0"/>
      <vel value="0.0426735720" flag="0"/>
      <psa03 value="0.1673666219" flag="0"/>
      <psa10 value="0.0552634379" flag="0"/>
      <psa30 value="0.0145697871" flag="0"/>
    </comp>
    <comp name="--.HHZ">
      <acc value="0.0415861914" flag="0"/>
      <vel value="0.0275901540" flag="0"/>
      <psa03 value="0.1128447291" flag="0"/>
      <psa10 value="0.0267306169" flag="0"/>
      <psa30 value="0.0151706530" flag="0"/>
    </comp>
  </station>
  <station code="APRC" name="APRC" netid="IV" source="INGV" insttype="" lat="41.7574" lon="15.5431">
    <comp name="--.HHE">
      <acc value="0.4845600923" flag="0"/>
      <vel value="0.1656547911" flag="0"/>
      <psa03 value="1.1293507642" flag="0"/>
      <psa10 value="0.0780577843" flag="0"/>
      <psa30 value="0.0153957210" flag="0"/>
    </comp>
    <comp name="--.HHN">
      <acc value="0.5972989130" flag="0"/>
      <vel value="0.1797159658" flag="0"/>
      <psa03 value="1.2662512575" flag="0"/>
      <psa10 value="0.1105564379" flag="0"/>
      <psa30 value="0.0219632720" flag="0"/>
    </comp>
    <comp name="--.HHZ">
      <acc value="0.2476531833" flag="0"/>
      <vel value="0.0927409975" flag="0"/>
      <psa03 value="0.6192950660" flag="0"/>
      <psa10 value="0.0622296120" flag="0"/>
      <psa30 value="0.0092053534" flag="0"/>
    </comp>
  </station>
  <station code="BIOG" name="BIOG" netid="IV" source="INGV" insttype="" lat="41.1999" lon="15.1326">
    <comp name="--.HHE">
      <acc value="0.1349842838" flag="0"/>
      <vel value="0.2009675601" flag="0"/>
      <psa03 value="0.3109235947" flag="0"/>
      <psa10 value="0.3612562635" flag="0"/>
      <psa30 value="0.1022607984" flag="0"/>
    </comp>
    <comp name="--.HHN">
      <acc value="0.1534909470" flag="0"/>
      <vel value="0.2587909912" flag="0"/>
      <psa03 value="0.4386796263" flag="0"/>
      <psa10 value="0.1961329017" flag="0"/>
      <psa30 value="0.1599397881" flag="0"/>
    </comp>
    <comp name="--.HHZ">
      <acc value="0.0894301913" flag="0"/>
      <vel value="0.1481986208" flag="0"/>
      <psa03 value="0.2898833492" flag="0"/>
      <psa10 value="0.1755034423" flag="0"/>
      <psa30 value="0.0933579082" flag="0"/>
    </comp>
  </station>
  <station code="BSSO" name="BSSO" netid="IV" source="INGV" insttype="" lat="41.5461" lon="14.5938">
    <comp name="--.HHE">
      <acc value="0.2039513015" flag="0"/>
      <vel value="0.1977202126" flag="0"/>
      <psa03 value="0.2550288036" flag="0"/>
      <psa10 value="0.3075354187" flag="0"/>
      <psa30 value="0.0383875164" flag="0"/>
    </comp>
    <comp name="--.HHN">
      <acc value="0.2438348227" flag="0"/>
      <vel value="0.1254200433" flag="0"/>
      <psa03 value="0.3255943272" flag="0"/>
      <psa10 value="0.1637175952" flag="0"/>
      <psa30 value="0.0539591553" flag="0"/>
    </comp>
    <comp name="--.HHZ">
      <acc value="0.0630280841" flag="0"/>
      <vel value="0.0579101494" flag="0"/>
      <psa03 value="0.1686763925" flag="0"/>
      <psa10 value="0.0951513733" flag="0"/>
      <psa30 value="0.0154436088" flag="0"/>
    </comp>
  </station>
  <station code="CAAM" name="CAAM" netid="IV" source="INGV" insttype="" lat="40.82" lon="14.1407">
    <comp name="--.HHE">
      <acc value="0.0538228528" flag="0"/>
      <vel value="0.0993030943" flag="0"/>
      <psa03 value="0.1059042074" flag="0"/>
      <psa10 value="0.1097960478" flag="0"/>
      <psa30 value="0.0471328941" flag="0"/>
    </comp>
    <comp name="--.HHN">
      <acc value="0.0400697069" flag="0"/>
      <vel value="0.0908275061" flag="0"/>
      <psa03 value="0.0976342747" flag="0"/>
      <psa10 value="0.1496560779" flag="0"/>
      <psa30 value="0.0371129037" flag="0"/>
    </comp>
    <comp name="--.HHZ">
      <acc value="0.0380100581" flag="0"/>
      <vel value="0.0556461551" flag="0"/>
      <psa03 value="0.1402656994" flag="0"/>
      <psa10 value="0.1019335643" flag="0"/>
      <psa30 value="0.0197282555" flag="0"/>
    </comp>
  </station>
  <station code="CAFE" name="CAFE" netid="IV" source="INGV" insttype="" lat="41.028" lon="15.2366">
    <comp name="--.HHE">
      <acc value="0.1761351916" flag="0"/>
      <vel value="0.1128852606" flag="0"/>
      <psa03 value="0.7475522384" flag="0"/>
      <psa10 value="0.0945040692" flag="0"/>
      <psa30 value="0.0366621739" flag="0"/>
    </comp>
    <comp name="--.HHN">
      <acc value="0.1301217296" flag="0"/>
      <vel value="0.0883672252" flag="0"/>
      <psa03 value="0.2914180086" flag="0"/>
      <psa10 value="0.0752967770" flag="0"/>
      <psa30 value="0.0379027149" flag="0"/>
    </comp>
    <comp name="--.HHZ">
      <acc value="0.0554827356" flag="0"/>
      <vel value="0.0503927764" flag="0"/>
      <psa03 value="0.1635727370" flag="0"/>
      <psa10 value="0.0372737959" flag="0"/>
      <psa30 value="0.0274831809" flag="0"/>
    </comp>
  </station>
  <station code="CAMP" name="CAMP" netid="IV" source="INGV" insttype="" lat="42.5358" lon="13.409">
    <comp name="--.HHE">
      <acc value="0.0757993406" flag="0"/>
      <vel value="0.0930251439" flag="0"/>
      <psa03 value="0.2214128121" flag="0"/>
      <psa10 value="0.2030792743" flag="0"/>
      <psa30 value="0.0165687888" flag="0"/>
    </comp>
    <comp name="--.HHN">
      <acc value="0.0916804589" flag="0"/>
      <vel value="0.1096071809" flag="0"/>
      <psa03 value="0.2163949940" flag="0"/>
      <psa10 value="0.2908662267" flag="0"/>
      <psa30 value="0.0246255394" flag="0"/>
    </comp>
    <comp name="--.HHZ">
      <acc value="0.0512893457" flag="0"/>
      <vel value="0.0765149050" flag="0"/>
      <psa03 value="0.1900276550" flag="0"/>
      <psa10 value="0.1371010119" flag="0"/>
      <psa30 value="0.0184868208" flag="0"/>
    </comp>
  </station>
  <station code="CAPA" name="CAPA" netid="IV" source="INGV" insttype="" lat="41.1583" lon="15.8169">
    <comp name="--.HHE">
      <acc value="0.0980262347" flag="0"/>
      <vel value="0.1252593334" flag="0"/>
      <psa03 value="0.2915154553" flag="0"/>
      <psa10 value="0.1711025929" flag="0"/>
      <psa30 value="0.0458208109" flag="0"/>
    </comp>
    <comp name="--.HHN">
      <acc value="0.1804907695" flag="0"/>
      <vel value="0.1250461960" flag="0"/>
      <psa03 value="0.4297918690" flag="0"/>
      <psa10 value="0.1776821557" flag="0"/>
      <psa30 value="0.0504663242" flag="0"/>
    </comp>
    <comp name="--.HHZ">
      <acc value="0.0829765672" flag="0"/>
      <vel value="0.0912548777" flag="0"/>
      <psa03 value="0.2080366634" flag="0"/>
      <psa10 value="0.1354948835" flag="0"/>
      <psa30 value="0.0209397181" flag="0"/>
    </comp>
  </station>
  <station code="CERA" name="CERA" netid="IV" source="INGV" insttype="" lat="41.5978" lon="14.0183">
    <comp name="--.HHE">
      <acc value="0.1791972531" flag="0"/>
      <vel value="0.1924155593" flag="0"/>
      <psa03 value="0.6110818759" flag="0"/>
      <psa10 value="0.2965371888" flag="0"/>
      <psa30 value="0.0203912512" flag="0"/>
    </comp>
    <comp name="--.HHN">
      <acc value="0.2195970094" flag="0"/>
      <vel value="0.1993620656" flag="0"/>
      <psa03 value="0.4921801303" flag="0"/>
      <psa10 value="0.2964284447" flag="0"/>
      <psa30 value="0.0254920907" flag="0"/>
    </comp>
    <comp name="--.HHZ">
      <acc value="0.1001529225" flag="0"/>
      <vel value="0.1066159372" flag="0"/>
      <psa03 value="0.3999865120" flag="0"/>
      <psa10 value="0.1900028028" flag="0"/>
      <psa30 value="0.0140023308" flag="0"/>
    </comp>
  </station>
  <station code="CERT" name="CERT" netid="IV" source="INGV" insttype="" lat="41.949" lon="12.9818">
    <comp name="--.HHE">
      <acc value="0.0774329360" flag="0"/>
      <vel value="0.0776863611" flag="0"/>
      <psa03 value="0.3133812288" flag="0"/>
      <psa10 value="0.1686561673" flag="0"/>
      <psa30 value="0.0182481385" flag="0"/>
    </comp>
    <comp name="--.HHN">
      <acc value="0.0599142478" flag="0"/>
      <vel value="0.0508064987" flag="0"/>
      <psa03 value="0.1944640936" flag="0"/>
      <psa10 value="0.0672153650" flag="0"/>
      <psa30 value="0.0135357144" flag="0"/>
    </comp>
    <comp name="--.HHZ">
      <acc value="0.0389330464" flag="0"/>
      <vel value="0.0526060214" flag="0"/>
      <psa03 value="0.0987450424" flag="0"/>
      <psa10 value="0.0701729372" flag="0"/>
      <psa30 value="0.0140779411" flag="0"/>
    </comp>
  </station>
  <station code="CIGN" name="CIGN" netid="IV" source="INGV" insttype="" lat="41.6542" lon="14.905">
    <comp name="--.HHE">
      <acc value="0.4840298061" flag="0"/>
      <vel value="0.5343370269" flag="0"/>
      <psa03 value="1.2595869233" flag="0"/>
      <psa10 value="0.6862474598" flag="0"/>
      <psa30 value="0.2363927703" flag="0"/>
    </comp>
    <comp name="--.HHN">
      <acc value="0.4624215656" flag="0"/>
      <vel value="0.4062447877" flag="0"/>
      <psa03 value="0.8844513785" flag="0"/>
      <psa10 value="0.8835812353" flag="0"/>
      <psa30 value="0.1259152815" flag="0"/>
    </comp>
    <comp name="--.HHZ">
      <acc value="0.5890400963" flag="0"/>
      <vel value="0.4943194617" flag="0"/>
      <psa03 value="1.7016118440" flag="0"/>
      <psa10 value="0.8868518494" flag="0"/>
      <psa30 value="0.1799544984" flag="0"/>
    </comp>
  </station>
  <station code="CMSN" name="CMSN" netid="IV" source="INGV" insttype="" lat="40.8382" lon="14.1818">
    <comp name="--.HHE">
      <acc value="0.1608227417" flag="0"/>
      <vel value="0.2129076369" flag="0"/>
      <psa03 value="0.3770974178" flag="0"/>
      <psa10 value="0.2440109773" flag="0"/>
      <psa30 value="0.0537068236" flag="0"/>
    </comp>
    <comp name="--.HHN">
      <acc value="0.1328625655" flag="0"/>
      <vel value="0.1650062955" flag="0"/>
      <psa03 value="0.3835240327" flag="0"/>
      <psa10 value="0.2358729900" flag="0"/>
      <psa30 value="0.0475305621" flag="0"/>
    </comp>
    <comp name="--.HHZ">
      <acc value="0.0968360130" flag="0"/>
      <vel value="0.1343841292" flag="0"/>
      <psa03 value="0.2383092073" flag="0"/>
      <psa10 value="0.1315679049" flag="0"/>
      <psa30 value="0.0341876984" flag="0"/>
    </comp>
  </station>
  <station code="CRTO" name="CRTO" netid="IV" source="INGV" insttype="" lat="40.8212" lon="14.4223">
    <comp name="--.HHE">
      <acc value="0.5620121819" flag="0"/>
      <vel value="0.5167439094" flag="0"/>
      <psa03 value="1.6544882009" flag="0"/>
      <psa10 value="1.1517360561" flag="0"/>
      <psa30 value="0.0682868944" flag="0"/>
    </comp>
    <comp name="--.HHN">
      <acc value="0.3005464423" flag="0"/>
      <vel value="0.2971477064" flag="0"/>
      <psa03 value="0.7334839016" flag="0"/>
      <psa10 value="0.4312741962" flag="0"/>
      <psa30 value="0.0359402210" flag="0"/>
    </comp>
    <comp name="--.HHZ">
      <acc value="0.1008051236" flag="0"/>
      <vel value="0.0731686121" flag="0"/>
      <psa03 value="0.2649371483" flag="0"/>
      <psa10 value="0.0996948681" flag="0"/>
      <psa30 value="0.0250114112" flag="0"/>
    </comp>
  </station>
  <station code="CSOB" name="CSOB" netid="IV" source="INGV" insttype="" lat="40.8275" lon="14.1443">
    <comp name="--.HHE">
      <acc value="0.1039852621" flag="0"/>
      <vel value="0.0976991278" flag="0"/>
      <psa03 value="0.3052404562" flag="0"/>
      <psa10 value="0.1327682981" flag="0"/>
      <psa30 value="0.0304124137" flag="0"/>
    </comp>
    <comp name="--.HHN">
      <acc value="0.1031745962" flag="0"/>
      <vel value="0.0850482247" flag="0"/>
      <psa03 value="0.2367539736" flag="0"/>
      <psa10 value="0.0996169958" flag="0"/>
      <psa30 value="0.0254055096" flag="0"/>
    </comp>
    <comp name="--.HHZ">
      <acc value="0.0785660768" flag="0"/>
      <vel value="0.0623058422" flag="0"/>
      <psa03 value="0.1761540806" flag="0"/>
      <psa10 value="0.0950699635" flag="0"/>
      <psa30 value="0.0156381965" flag="0"/>
    </comp>
  </station>
  <station code="FAGN" name="FAGN" netid="IV" source="INGV" insttype="" lat="42.2657" lon="13.5838">
    <comp name="--.HHE">
      <acc value="0.5694495035" flag="0"/>
      <vel value="0.4395894874" flag="0"/>
      <psa03 value="1.2918940735" flag="0"/>
      <psa10 value="0.4496461148" flag="0"/>
      <psa30 value="0.0302458819" flag="0"/>
    </comp>
    <comp name="--.HHN">
      <acc value="0.3061914421" flag="0"/>
      <vel value="0.2528312078" flag="0"/>
      <psa03 value="0.8646656272" flag="0"/>
      <psa10 value="0.2612346237" flag="0"/>
      <psa30 value="0.0303064418" flag="0"/>
    </comp>
    <comp name="--.HHZ">
      <acc value="0.3675989768" flag="0"/>
      <vel value="0.1856574953" flag="0"/>
      <psa03 value="1.3719793595" flag="0"/>
      <psa10 value="0.1461511940" flag="0"/>
      <psa30 value="0.0208157047" flag="0"/>
    </comp>
  </station>
  <station code="FIAM" name="FIAM" netid="IV" source="INGV" insttype="" lat="42.268" lon="13.1172">
    <comp name="--.HHE">
      <acc value="0.0613895545" flag="0"/>
      <vel value="0.0874428311" flag="0"/>
      <psa03 value="0.1355937454" flag="0"/>
      <psa10 value="0.1450100958" flag="0"/>
      <psa30 value="0.0116191942" flag="0"/>
    </comp>
    <comp name="--.HHN">
      <acc value="0.0905517254" flag="0"/>
      <vel value="0.0917889663" flag="0"/>
      <psa03 value="0.2612255874" flag="0"/>
      <psa10 value="0.1957529856" flag="0"/>
      <psa30 value="0.0212459699" flag="0"/>
    </comp>
    <comp name="--.HHZ">
      <acc value="0.0610980620" flag="0"/>
      <vel value="0.0624861901" flag="0"/>
      <psa03 value="0.1727020090" flag="0"/>
      <psa10 value="0.1164123303" flag="0"/>
      <psa30 value="0.0109457821" flag="0"/>
    </comp>
  </station>
  <station code="FRES" name="FRES" netid="IV" source="INGV" insttype="" lat="41.9735" lon="14.6693">
    <comp name="--.HHE">
      <acc value="4.1626715655" flag="0"/>
      <vel value="0.5223266455" flag="0"/>
      <psa03 value="4.4549100123" flag="0"/>
      <psa10 value="1.3844977167" flag="0"/>
      <psa30 value="0.0812313828" flag="0"/>
    </comp>
    <comp name="--.HHN">
      <acc value="3.1841547777" flag="0"/>
      <vel value="0.4380465522" flag="0"/>
      <psa03 value="3.1516352281" flag="0"/>
      <psa10 value="0.5502220271" flag="0"/>
      <psa30 value="0.0551277328" flag="0"/>
    </comp>
    <comp name="--.HHZ">
      <acc value="3.5600412215" flag="0"/>
      <vel value="0.4702009927" flag="0"/>
      <psa03 value="3.6308547975" flag="0"/>
      <psa10 value="0.9778689798" flag="0"/>
      <psa30 value="0.0782097247" flag="0"/>
    </comp>
  </station>
  <station code="GATE" name="GATE" netid="IV" source="INGV" insttype="" lat="41.5131" lon="14.9102">
    <comp name="--.HHE">
      <acc value="0.3259504129" flag="0"/>
      <vel value="0.2226883518" flag="0"/>
      <psa03 value="0.7393148370" flag="0"/>
      <psa10 value="0.2509399162" flag="0"/>
      <psa30 value="0.1063990522" flag="0"/>
    </comp>
    <comp name="--.HHN">
      <acc value="0.2578443125" flag="0"/>
      <vel value="0.2883507630" flag="0"/>
      <psa03 value="0.7561232815" flag="0"/>
      <psa10 value="0.2997723135" flag="0"/>
      <psa30 value="0.1287647481" flag="0"/>
    </comp>
    <comp name="--.HHZ">
      <acc value="0.2328553739" flag="0"/>
      <vel value="0.1885858567" flag="0"/>
      <psa03 value="0.5932148173" flag="0"/>
      <psa10 value="0.2551168998" flag="0"/>
      <psa30 value="0.1043750077" flag="0"/>
    </comp>
  </station>
  <station code="GIGS" name="GIGS" netid="IV" source="INGV" insttype="" lat="42.4532" lon="13.5728">
    <comp name="--.HHE">
      <acc value="0.0416518930" flag="0"/>
      <vel value="0.0483341496" flag="0"/>
      <psa03 value="0.0896814103" flag="0"/>
      <psa10 value="0.0691921820" flag="0"/>
      <psa30 value="0.0199525976" flag="0"/>
    </comp>
    <comp name="--.HHN">
      <acc value="0.0428387970" flag="0"/>
      <vel value="0.0402137867" flag="0"/>
      <psa03 value="0.1091918223" flag="0"/>
      <psa10 value="0.0690588355" flag="0"/>
      <psa30 value="0.0104084138" flag="0"/>
    </comp>
    <comp name="--.HHZ">
      <acc value="0.0447660614" flag="0"/>
      <vel value="0.0437718381" flag="0"/>
      <psa03 value="0.1335580553" flag="0"/>
      <psa10 value="0.0634025500" flag="0"/>
      <psa30 value="0.0195933505" flag="0"/>
    </comp>
  </station>
  <station code="INTR" name="INTR" netid="IV" source="INGV" insttype="" lat="42.0115" lon="13.9046">
    <comp name="--.HHE">
      <acc value="1.4704002611" flag="0"/>
      <vel value="0.3131284788" flag="0"/>
      <psa03 value="0.8434424716" flag="0"/>
      <psa10 value="0.2034467669" flag="0"/>
      <psa30 value="0.0225573872" flag="0"/>
    </comp>
    <comp name="--.HHN">
      <acc value="1.7119254626" flag="0"/>
      <vel value="0.4896821508" flag="0"/>
      <psa03 value="3.3482781449" flag="0"/>
      <psa10 value="0.3793587162" flag="0"/>
      <psa30 value="0.0365149268" flag="0"/>
    </comp>
    <comp name="--.HHZ">
      <acc value="1.4678247690" flag="0"/>
      <vel value="0.2517019851" flag="0"/>
      <psa03 value="1.0903371893" flag="0"/>
      <psa10 value="0.1443069927" flag="0"/>
      <psa30 value="0.0147850695" flag="0"/>
    </comp>
  </station>
  <station code="IOCA" name="IOCA" netid="IV" source="INGV" insttype="" lat="40.7458" lon="13.9008">
    <comp name="--.HHE">
      <acc value="0.1658178495" flag="0"/>
      <vel value="0.1360155153" flag="0"/>
      <psa03 value="0.4664248941" flag="0"/>
      <psa10 value="0.2583271106" flag="0"/>
      <psa30 value="0.0217477261" flag="0"/>
    </comp>
    <comp name="--.HHN">
      <acc value="0.1286548910" flag="0"/>
      <vel value="0.1102423027" flag="0"/>
      <psa03 value="0.4415904911" flag="0"/>
      <psa10 value="0.2313841525" flag="0"/>
      <psa30 value="0.0221108818" flag="0"/>
    </comp>
    <comp name="--.HHZ">
      <acc value="0.0942810344" flag="0"/>
      <vel value="0.0464823497" flag="0"/>
      <psa03 value="0.1756184960" flag="0"/>
      <psa10 value="0.0604250478" flag="0"/>
      <psa30 value="0.0096094329" flag="0"/>
    </comp>
  </station>
  <station code="LNSS" name="LNSS" netid="IV" source="INGV" insttype="" lat="42.6029" lon="13.0403">
    <comp name="--.HHE">
      <acc value="0.1225309713" flag="0"/>
      <vel value="0.0859018062" flag="0"/>
      <psa03 value="0.3703512166" flag="0"/>
      <psa10 value="0.1855400877" flag="0"/>
      <psa30 value="0.0192579313" flag="0"/>
    </comp>
    <comp name="--.HHN">
      <acc value="0.1331254676" flag="0"/>
      <vel value="0.0942433210" flag="0"/>
      <psa03 value="0.3143144550" flag="0"/>
      <psa10 value="0.1447421741" flag="0"/>
      <psa30 value="0.0158927775" flag="0"/>
    </comp>
    <comp name="--.HHZ">
      <acc value="0.0411915559" flag="0"/>
      <vel value="0.0340954640" flag="0"/>
      <psa03 value="0.0957038619" flag="0"/>
      <psa10 value="0.0597074404" flag="0"/>
      <psa30 value="0.0101435665" flag="0"/>
    </comp>
  </station>
  <station code="LPEL" name="LPEL" netid="IV" source="INGV" insttype="" lat="42.0468" lon="14.1832">
    <comp name="--.HHE">
      <acc value="1.2434507663" flag="0"/>
      <vel value="0.4544637823" flag="0"/>
      <psa03 value="2.1488371202" flag="0"/>
      <psa10 value="0.2891599643" flag="0"/>
