<?xml version="1.0" encoding="UTF-8" standalone="yes"?>
<!DOCTYPE earthquake SYSTEM "stationlist.dtd">
<stationlist created="" xmlns="ch.ethz.sed.shakemap.usgs.xml">
  <station code="MALA" name="MALA" netid="CL" insttype="ES-T" lat="38.3934" lon="21.8726">
    <comp name="01.HNE">
      <acc value="3.1904218280" flag="0"/>
      <vel value="0.8047446411" flag="0"/>
      <psa03 value="4.0007077058" flag="0"/>
      <psa10 value="1.0995480316" flag="0"/>
      <psa30 value="0.0452816212" flag="0"/>
    </comp>
    <comp name="01.HNN">
      <acc value="4.7424283940" flag="0"/>
      <vel value="2.4941477040" flag="0"/>
      <psa03 value="9.0319374320" flag="0"/>
      <psa10 value="2.0526423476" flag="0"/>
      <psa30 value="0.1510982745" flag="0"/>
    </comp>
    <comp name="01.HNZ">
      <acc value="2.7664034620" flag="0"/>
      <vel value="0.3888620361" flag="0"/>
      <psa03 value="1.2002921162" flag="0"/>
      <psa10 value="0.3149723136" flag="0"/>
      <psa30 value="0.0229620626" flag="0"/>
    </comp>
  </station>
  <station code="MG03" name="MG03" netid="CL" insttype="TRILLIUM-40" lat="38.4141" lon="21.946">
    <comp name="03.HHN">
      <acc value="0.8660614186" flag="0"/>
      <vel value="0.2628531872" flag="0"/>
      <psa03 value="1.4581175702" flag="0"/>
      <psa10 value="0.0910395861" flag="0"/>
      <psa30 value="0.0087376734" flag="0"/>
    </comp>
    <comp name="03.HHE">
      <acc value="1.1204770919" flag="0"/>
      <vel value="0.4220786016" flag="0"/>
      <psa03 value="2.3380434779" flag="0"/>
      <psa10 value="0.1463597024" flag="0"/>
      <psa30 value="0.0168994612" flag="0"/>
    </comp>
    <comp name="03.HHZ">
      <acc value="0.7263305634" flag="0"/>
      <vel value="0.2106803006" flag="0"/>
      <psa03 value="0.8433175674" flag="0"/>
      <psa10 value="0.0604941211" flag="0"/>
      <psa30 value="0.0066229535" flag="0"/>
    </comp>
  </station>
  <station code="MG06" name="MG06" netid="CL" insttype="TRILLIUM-40" lat="38.4129" lon="21.9462">
    <comp name="06.HHE">
      <acc value="1.3753952149" flag="0"/>
      <vel value="0.3190709940" flag="0"/>
      <psa03 value="1.6949969247" flag="0"/>
      <psa10 value="0.1059970406" flag="0"/>
      <psa30 value="0.0087179646" flag="0"/>
    </comp>
    <comp name="06.HHN">
      <acc value="1.2135515662" flag="0"/>
      <vel value="0.3193943432" flag="0"/>
      <psa03 value="0.9180563088" flag="0"/>
      <psa10 value="0.0911828365" flag="0"/>
      <psa30 value="0.0116700749" flag="0"/>
    </comp>
    <comp name="06.HHZ">
      <acc value="0.7548647857" flag="0"/>
      <vel value="0.1535878078" flag="0"/>
      <psa03 value="0.6700142562" flag="0"/>
      <psa10 value="0.0567419292" flag="0"/>
      <psa30 value="0.0054732152" flag="0"/>
    </comp>
  </station>
  <station code="ACOR" name="ACOR" netid="HA" insttype="30" lat="37.8902" lon="22.8692">
    <comp name="--.HHZ">
      <acc value="0.0031981276" flag="0"/>
      <vel value="0.0024213513" flag="0"/>
      <psa03 value="0.0075515928" flag="0"/>
      <psa10 value="0.0041830554" flag="0"/>
      <psa30 value="0.0002517568" flag="0"/>
    </comp>
    <comp name="--.HHN">
      <acc value="0.0118185833" flag="0"/>
      <vel value="0.0088562775" flag="0"/>
      <psa03 value="0.0394445745" flag="0"/>
      <psa10 value="0.0130264716" flag="0"/>
      <psa30 value="0.0011770673" flag="0"/>
    </comp>
    <comp name="--.HHE">
      <acc value="0.0036412723" flag="0"/>
      <vel value="0.0023766667" flag="0"/>
      <psa03 value="0.0085260283" flag="0"/>
      <psa10 value="0.0028623865" flag="0"/>
      <psa30 value="0.0003497227" flag="0"/>
    </comp>
  </station>
  <station code="ATAL" name="ATAL" netid="HA" insttype="120" lat="38.6926" lon="23.0213">
    <comp name="--.HHN">
      <acc value="0.0000333769" flag="0"/>
      <vel value="0.0000028058" flag="0"/>
      <psa03 value="0.0000097998" flag="0"/>
      <psa10 value="0.0000030980" flag="0"/>
      <psa30 value="0.0000010127" flag="0"/>
    </comp>
    <comp name="--.HHE">
      <acc value="0.0000327396" flag="0"/>
      <vel value="0.0000030034" flag="0"/>
      <psa03 value="0.0000111421" flag="0"/>
      <psa10 value="0.0000031698" flag="0"/>
      <psa30 value="0.0000009122" flag="0"/>
    </comp>
    <comp name="--.HHZ">
      <acc value="0.0057701660" flag="0"/>
      <vel value="0.0025706882" flag="0"/>
      <psa03 value="0.0118314415" flag="0"/>
      <psa10 value="0.0020648508" flag="0"/>
      <psa30 value="0.0005046445" flag="0"/>
    </comp>
  </station>
  <station code="AXAR" name="AXAR" netid="HA" insttype="30" lat="38.7664" lon="22.659">
    <comp name="--.HHN">
      <acc value="0.0648080500" flag="0"/>
      <vel value="0.0210238121" flag="0"/>
      <psa03 value="0.1246498407" flag="0"/>
      <psa10 value="0.0218416879" flag="0"/>
      <psa30 value="0.0016267122" flag="0"/>
    </comp>
    <comp name="--.HHZ">
      <acc value="0.0425788504" flag="0"/>
      <vel value="0.0139707183" flag="0"/>
      <psa03 value="0.0917883149" flag="0"/>
      <psa10 value="0.0086558918" flag="0"/>
      <psa30 value="0.0009286537" flag="0"/>
    </comp>
    <comp name="--.HHE">
      <acc value="0.0588441650" flag="0"/>
      <vel value="0.0254838935" flag="0"/>
      <psa03 value="0.1421326385" flag="0"/>
      <psa10 value="0.0194384398" flag="0"/>
      <psa30 value="0.0016449513" flag="0"/>
    </comp>
  </station>
  <station code="KALE" name="KALE" netid="HA" insttype="40," lat="38.3911" lon="22.1398">
    <comp name="--.HHN">
      <acc value="0.1867158270" flag="0"/>
      <vel value="0.0430994203" flag="0"/>
      <psa03 value="0.3071827432" flag="0"/>
      <psa10 value="0.0158489726" flag="0"/>
      <psa30 value="0.0017947743" flag="0"/>
    </comp>
    <comp name="--.HHZ">
      <acc value="0.1180717986" flag="0"/>
      <vel value="0.0235145877" flag="0"/>
      <psa03 value="0.1586274716" flag="0"/>
      <psa10 value="0.0136643631" flag="0"/>
      <psa30 value="0.0021587585" flag="0"/>
    </comp>
    <comp name="--.HHE">
      <acc value="0.1344960263" flag="0"/>
      <vel value="0.0393837509" flag="0"/>
      <psa03 value="0.2789452526" flag="0"/>
      <psa10 value="0.0208418983" flag="0"/>
      <psa30 value="0.0018743438" flag="0"/>
    </comp>
  </station>
  <station code="LAKA" name="LAKA" netid="HA" insttype="120s" lat="38.2401" lon="21.9785">
    <comp name="--.HHZ">
      <acc value="0.0982609398" flag="0"/>
      <vel value="0.0150467549" flag="0"/>
      <psa03 value="0.0645153789" flag="0"/>
      <psa10 value="0.0213111270" flag="0"/>
      <psa30 value="0.0022368271" flag="0"/>
    </comp>
    <comp name="--.HHE">
      <acc value="0.1485926485" flag="0"/>
      <vel value="0.0177081231" flag="0"/>
      <psa03 value="0.0502708550" flag="0"/>
      <psa10 value="0.0191575022" flag="0"/>
      <psa30 value="0.0017600726" flag="0"/>
    </comp>
    <comp name="--.HHN">
      <acc value="0.1151859543" flag="0"/>
      <vel value="0.0207147758" flag="0"/>
      <psa03 value="0.0830591361" flag="0"/>
      <psa10 value="0.0235579148" flag="0"/>
      <psa30 value="0.0050809739" flag="0"/>
    </comp>
  </station>
  <station code="LOUT" name="LOUT" netid="HA" insttype="30" lat="37.9879" lon="22.9743">
    <comp name="--.HHE">
      <acc value="0.0092930493" flag="0"/>
      <vel value="0.0048785836" flag="0"/>
      <psa03 value="0.0251564623" flag="0"/>
      <psa10 value="0.0049602671" flag="0"/>
      <psa30 value="0.0004300340" flag="0"/>
    </comp>
    <comp name="--.HHN">
      <acc value="0.0103235436" flag="0"/>
      <vel value="0.0061175618" flag="0"/>
      <psa03 value="0.0263154918" flag="0"/>
      <psa10 value="0.0058285997" flag="0"/>
      <psa30 value="0.0003808244" flag="0"/>
    </comp>
    <comp name="--.HHZ">
      <acc value="0.0075268812" flag="0"/>
      <vel value="0.0027900293" flag="0"/>
      <psa03 value="0.0112298087" flag="0"/>
      <psa10 value="0.0019318483" flag="0"/>
      <psa30 value="0.0002965932" flag="0"/>
    </comp>
  </station>
  <station code="THAL" name="THAL" netid="HA" insttype="30" lat="38.0357" lon="22.6634">
    <comp name="--.HHE">
      <acc value="0.0384554751" flag="0"/>
      <vel value="0.0160800141" flag="0"/>
      <psa03 value="0.1012063326" flag="0"/>
      <psa10 value="0.0085627905" flag="0"/>
      <psa30 value="0.0009806479" flag="0"/>
    </comp>
    <comp name="--.HHZ">
      <acc value="0.0272041143" flag="0"/>
      <vel value="0.0075981825" flag="0"/>
      <psa03 value="0.0508340301" flag="0"/>
      <psa10 value="0.0066915796" flag="0"/>
      <psa30 value="0.0003968416" flag="0"/>
    </comp>
    <comp name="--.HHN">
      <acc value="0.0424761712" flag="0"/>
      <vel value="0.0140076693" flag="0"/>
      <psa03 value="0.1035977795" flag="0"/>
      <psa10 value="0.0114110858" flag="0"/>
      <psa30 value="0.0006994144" flag="0"/>
    </comp>
  </station>
  <station code="KLV1" name="KLV1" netid="HI" insttype="CMG-5TD,ACCELEROMETER,GURALP" lat="38.0326" lon="22.108">
    <comp name="--.HNE">
      <acc value="0.0519374874" flag="0"/>
      <vel value="0.0182823414" flag="0"/>
      <psa03 value="0.0900597193" flag="0"/>
      <psa10 value="0.0142913980" flag="0"/>
      <psa30 value="0.0007735780" flag="0"/>
    </comp>
    <comp name="--.HNN">
      <acc value="0.0418530299" flag="0"/>
      <vel value="0.0170203539" flag="0"/>
      <psa03 value="0.0872164367" flag="0"/>
      <psa10 value="0.0090382345" flag="0"/>
      <psa30 value="0.0008352232" flag="0"/>
    </comp>
    <comp name="--.HNZ">
      <acc value="0.0537940217" flag="0"/>
      <vel value="0.0108893378" flag="0"/>
      <psa03 value="0.0521543784" flag="0"/>
      <psa10 value="0.0077789700" flag="0"/>
      <psa30 value="0.0010264873" flag="0"/>
    </comp>
  </station>
  <station code="MSL1" name="MSL1" netid="HI" insttype="CMG-5TD,ACCELEROMETER,GURALP" lat="38.3727" lon="21.4243">
    <comp name="--.HNZ">
      <acc value="0.0720756505" flag="0"/>
      <vel value="0.0273829583" flag="0"/>
      <psa03 value="0.1085275007" flag="0"/>
      <psa10 value="0.0510464212" flag="0"/>
      <psa30 value="0.0015105400" flag="0"/>
    </comp>
    <comp name="--.HNN">
      <acc value="0.1278178348" flag="0"/>
      <vel value="0.0440545103" flag="0"/>
      <psa03 value="0.2550828373" flag="0"/>
      <psa10 value="0.0641911085" flag="0"/>
      <psa30 value="0.0025285669" flag="0"/>
    </comp>
    <comp name="--.HNE">
      <acc value="0.1032739989" flag="0"/>
      <vel value="0.0496054559" flag="0"/>
      <psa03 value="0.2580946733" flag="0"/>
      <psa10 value="0.0664564513" flag="0"/>
      <psa30 value="0.0050582717" flag="0"/>
    </comp>
  </station>
  <station code="DLFA" name="DLFA" netid="HL" insttype="CMG-5" lat="38.4784" lon="22.4958">
    <comp name="00.HNZ">
      <acc value="0.0347537781" flag="0"/>
      <vel value="0.0094975230" flag="0"/>
      <psa03 value="0.0471081139" flag="0"/>
      <psa10 value="0.0042947860" flag="0"/>
      <psa30 value="0.0007197670" flag="0"/>
    </comp>
    <comp name="00.HNE">
      <acc value="0.0318982658" flag="0"/>
      <vel value="0.0086850289" flag="0"/>
      <psa03 value="0.0520578445" flag="0"/>
      <psa10 value="0.0058448951" flag="0"/>
      <psa30 value="0.0005250869" flag="0"/>
    </comp>
    <comp name="00.HNN">
      <acc value="0.0485534210" flag="0"/>
      <vel value="0.0089862171" flag="0"/>
      <psa03 value="0.0624667984" flag="0"/>
      <psa10 value="0.0065454723" flag="0"/>
      <psa30 value="0.0005294663" flag="0"/>
    </comp>
  </station>
  <station code="EVR" name="EVR" netid="HL" insttype="DR24" lat="38.9166" lon="21.8105">
    <comp name="--.HHZ">
      <acc value="0.0738942285" flag="0"/>
      <vel value="0.0284028422" flag="0"/>
      <psa03 value="0.1114256831" flag="0"/>
      <psa10 value="0.0138276013" flag="0"/>
      <psa30 value="0.0022511126" flag="0"/>
    </comp>
    <comp name="--.HHE">
      <acc value="0.1223834406" flag="0"/>
      <vel value="0.0314787370" flag="0"/>
      <psa03 value="0.1817897027" flag="0"/>
      <psa10 value="0.0241690931" flag="0"/>
      <psa30 value="0.0015567996" flag="0"/>
    </comp>
    <comp name="--.HHN">
      <acc value="0.1997164631" flag="0"/>
      <vel value="0.0524915515" flag="0"/>
      <psa03 value="0.2310929635" flag="0"/>
      <psa10 value="0.0171382691" flag="0"/>
      <psa30 value="0.0011612969" flag="0"/>
    </comp>
  </station>
  <station code="KLV" name="KLV" netid="HL" insttype="120" lat="38.0435" lon="22.1504">
    <comp name="--.HHE">
      <acc value="0.0458643158" flag="0"/>
      <vel value="0.0061354270" flag="0"/>
      <psa03 value="0.0326422657" flag="0"/>
      <psa10 value="0.0038168919" flag="0"/>
      <psa30 value="0.0005332377" flag="0"/>
    </comp>
    <comp name="--.HHN">
      <acc value="0.0279342750" flag="0"/>
      <vel value="0.0045325821" flag="0"/>
      <psa03 value="0.0231853280" flag="0"/>
      <psa10 value="0.0047337048" flag="0"/>
      <psa30 value="0.0004978385" flag="0"/>
    </comp>
    <comp name="--.HHZ">
      <acc value="0.0453908590" flag="0"/>
      <vel value="0.0083409005" flag="0"/>
      <psa03 value="0.0237787758" flag="0"/>
      <psa10 value="0.0037392018" flag="0"/>
      <psa30 value="0.0009579478" flag="0"/>
    </comp>
  </station>
  <station code="PATC" name="PATC" netid="HL" insttype="CMG-5" lat="38.2693" lon="21.76">
    <comp name="00.HNN">
      <acc value="0.2813140900" flag="0"/>
      <vel value="0.1162072008" flag="0"/>
      <psa03 value="0.4094716927" flag="0"/>
      <psa10 value="0.2684784742" flag="0"/>
      <psa30 value="0.0159365486" flag="0"/>
    </comp>
    <comp name="00.HNZ">
      <acc value="0.2646309223" flag="0"/>
      <vel value="0.1109229928" flag="0"/>
      <psa03 value="0.2134443919" flag="0"/>
      <psa10 value="0.1796939727" flag="0"/>
      <psa30 value="0.0072501228" flag="0"/>
    </comp>
    <comp name="00.HNE">
      <acc value="0.2074951810" flag="0"/>
      <vel value="0.1071418238" flag="0"/>
      <psa03 value="0.4118248951" flag="0"/>
      <psa10 value="0.1676456055" flag="0"/>
      <psa30 value="0.0188930818" flag="0"/>
    </comp>
  </station>
  <station code="PATG" name="PATG" netid="HL" insttype="CMG-5" lat="38.2386" lon="21.7266">
    <comp name="00.HNE">
      <acc value="0.2418141453" flag="0"/>
      <vel value="0.0997051416" flag="0"/>
      <psa03 value="0.3858373490" flag="0"/>
      <psa10 value="0.1109154112" flag="0"/>
      <psa30 value="0.0120900540" flag="0"/>
    </comp>
    <comp name="00.HNZ">
      <acc value="0.1876273548" flag="0"/>
      <vel value="0.0429236927" flag="0"/>
      <psa03 value="0.2246751571" flag="0"/>
      <psa10 value="0.0770223180" flag="0"/>
      <psa30 value="0.0043512961" flag="0"/>
    </comp>
    <comp name="00.HNN">
      <acc value="0.1676313690" flag="0"/>
      <vel value="0.0995765864" flag="0"/>
      <psa03 value="0.4921321019" flag="0"/>
      <psa10 value="0.0853157261" flag="0"/>
      <psa30 value="0.0162436495" flag="0"/>
    </comp>
  </station>
  <station code="RIOA" name="RIOA" netid="HL" insttype="CMG-5" lat="38.2959" lon="21.7912">
    <comp name="00.HNZ">
      <acc value="0.4696091315" flag="0"/>
      <vel value="0.1215068744" flag="0"/>
      <psa03 value="0.3488888397" flag="0"/>
      <psa10 value="0.1200232222" flag="0"/>
      <psa30 value="0.0094162887" flag="0"/>
    </comp>
    <comp name="00.HNN">
      <acc value="0.6178585515" flag="0"/>
      <vel value="0.3280711831" flag="0"/>
      <psa03 value="1.0127118610" flag="0"/>
      <psa10 value="0.2349575974" flag="0"/>
      <psa30 value="0.0113431297" flag="0"/>
    </comp>
    <comp name="00.HNE">
      <acc value="0.5429501529" flag="0"/>
      <vel value="0.2108387436" flag="0"/>
      <psa03 value="0.5443544373" flag="0"/>
      <psa10 value="0.2127612288" flag="0"/>
      <psa30 value="0.0142254911" flag="0"/>
    </comp>
  </station>
  <station code="RLS" name="RLS" netid="HL" insttype="CMG3ESPC-120s" lat="38.0559" lon="21.4647">
    <comp name="--.HHZ">
      <acc value="0.0249894236" flag="0"/>
      <vel value="0.0073850833" flag="0"/>
      <psa03 value="0.0552932856" flag="0"/>
      <psa10 value="0.0040210683" flag="0"/>
      <psa30 value="0.0006508795" flag="0"/>
    </comp>
    <comp name="--.HHN">
      <acc value="0.0404952629" flag="0"/>
      <vel value="0.0094507433" flag="0"/>
      <psa03 value="0.0497980309" flag="0"/>
      <psa10 value="0.0055362928" flag="0"/>
      <psa30 value="0.0004227498" flag="0"/>
    </comp>
    <comp name="--.HHE">
      <acc value="0.0356735534" flag="0"/>
      <vel value="0.0112180616" flag="0"/>
      <psa03 value="0.0489965236" flag="0"/>
      <psa10 value="0.0080111121" flag="0"/>
      <psa30 value="0.0004859597" flag="0"/>
    </comp>
  </station>
  <station code="TETR" name="TETR" netid="HL" insttype="60" lat="39.3445" lon="21.2747">
    <comp name="--.HHE">
      <acc value="0.0174229704" flag="0"/>
      <vel value="0.0093624833" flag="0"/>
      <psa03 value="0.0423729233" flag="0"/>
      <psa10 value="0.0075301141" flag="0"/>
      <psa30 value="0.0005464705" flag="0"/>
    </comp>
    <comp name="--.HHZ">
      <acc value="0.0053552587" flag="0"/>
      <vel value="0.0038606792" flag="0"/>
      <psa03 value="0.0158029384" flag="0"/>
      <psa10 value="0.0049021025" flag="0"/>
      <psa30 value="0.0003657655" flag="0"/>
    </comp>
    <comp name="--.HHN">
      <acc value="0.0119684045" flag="0"/>
      <vel value="0.0075450076" flag="0"/>
      <psa03 value="0.0373972809" flag="0"/>
      <psa10 value="0.0049077636" flag="0"/>
      <psa30 value="0.0005323954" flag="0"/>
    </comp>
  </station>
  <station code="VLS" name="VLS" netid="HL" insttype="120P," lat="38.1768" lon="20.5886">
    <comp name="--.HHE">
      <acc value="0.0218720411" flag="0"/>
      <vel value="0.0041336813" flag="0"/>
      <psa03 value="0.0198942672" flag="0"/>
      <psa10 value="0.0042402083" flag="0"/>
      <psa30 value="0.0001999769" flag="0"/>
    </comp>
    <comp name="--.HHN">
      <acc value="0.0214692641" flag="0"/>
      <vel value="0.0048258768" flag="0"/>
      <psa03 value="0.0301831525" flag="0"/>
      <psa10 value="0.0058606690" flag="0"/>
      <psa30 value="0.0003925628" flag="0"/>
    </comp>
    <comp name="--.HHZ">
      <acc value="0.0098778137" flag="0"/>
      <vel value="0.0030767072" flag="0"/>
      <psa03 value="0.0161402724" flag="0"/>
      <psa10 value="0.0023457919" flag="0"/>
      <psa30 value="0.0002157766" flag="0"/>
    </comp>
  </station>
  <station code="AMPL" name="AMPL" netid="HP" insttype="Compact," lat="38.9224" lon="21.2135">
    <comp name="--.HHE">
      <acc value="0.0233976900" flag="0"/>
      <vel value="0.0116887310" flag="0"/>
      <psa03 value="0.0516737748" flag="0"/>
      <psa10 value="0.0113865633" flag="0"/>
      <psa30 value="0.0012749096" flag="0"/>
    </comp>
    <comp name="--.HHN">
      <acc value="0.0229550648" flag="0"/>
      <vel value="0.0093395591" flag="0"/>
      <psa03 value="0.0507345189" flag="0"/>
      <psa10 value="0.0076530529" flag="0"/>
      <psa30 value="0.0005621738" flag="0"/>
    </comp>
    <comp name="--.HHZ">
      <acc value="0.0154354280" flag="0"/>
      <vel value="0.0076335056" flag="0"/>
      <psa03 value="0.0326617220" flag="0"/>
      <psa10 value="0.0089975138" flag="0"/>
      <psa30 value="0.0005460480" flag="0"/>
    </comp>
  </station>
  <station code="AMT" name="AMT" netid="HP" insttype="CMG-3T," lat="37.5324" lon="21.7089">
    <comp name="00.HHN">
      <acc value="0.0130688839" flag="0"/>
      <vel value="0.0051840585" flag="0"/>
      <psa03 value="0.0363013552" flag="0"/>
      <psa10 value="0.0061030121" flag="0"/>
      <psa30 value="0.0003648523" flag="0"/>
    </comp>
    <comp name="00.HHZ">
      <acc value="0.0119716960" flag="0"/>
      <vel value="0.0053752469" flag="0"/>
