<stationlist created="1775820556">
	<station code="AGRP" name="AGRP" netid="CL" source="Corinth Riff Laboratory (CRLNET)" insttype="" lat="38.3959" lon="21.72277">
		<comp name="00.HNE" depth="0.0">
			<acc value="0.693862504550137" flag="0"/>
			<vel value="0.14080218177757" flag="0"/>
			<psa03 value="0.554758619859952" flag="0"/>
			<psa10 value="0.0573859067865292" flag="0"/>
			<psa30 value="0.0054496007661055" flag="0"/>
		</comp>
		<comp name="00.HNN" depth="0.0">
			<acc value="0.405508473470516" flag="0"/>
			<vel value="0.107181181583407" flag="0"/>
			<psa03 value="0.506347552298982" flag="0"/>
			<psa10 value="0.0728770009839734" flag="0"/>
			<psa30 value="0.00488405927445054" flag="0"/>
		</comp>
		<comp name="00.HNZ" depth="0.0">
			<acc value="0.381535521043619" flag="0"/>
			<vel value="0.0746013981746258" flag="0"/>
			<psa03 value="0.384246070437718" flag="0"/>
			<psa10 value="0.0418907857904893" flag="0"/>
			<psa30 value="0.00382098444520041" flag="0"/>
		</comp>
	</station>
	<station code="MALA" name="MALA" netid="CL" source="Corinth Riff Laboratory (CRLNET)" insttype="" lat="38.39341" lon="21.87263">
		<comp name="01.HNE" depth="0.0">
			<acc value="3.16621428399286" flag="0"/>
			<vel value="0.811843190539573" flag="0"/>
			<psa03 value="3.99744770810287" flag="0"/>
			<psa10 value="1.10038714503738" flag="0"/>
			<psa30 value="0.0461408479971589" flag="0"/>
		</comp>
		<comp name="01.HNN" depth="0.0">
			<acc value="4.67431543024953" flag="0"/>
			<vel value="2.51769472115312" flag="0"/>
			<psa03 value="9.02441359049218" flag="0"/>
			<psa10 value="2.05411023162419" flag="0"/>
			<psa30 value="0.151152596618507" flag="0"/>
		</comp>
		<comp name="01.HNZ" depth="0.0">
			<acc value="2.49248870685959" flag="0"/>
			<vel value="0.408489415552446" flag="0"/>
			<psa03 value="1.1773464249532" flag="0"/>
			<psa10 value="0.315672822308356" flag="0"/>
			<psa30 value="0.0243728696332374" flag="0"/>
		</comp>
	</station>
	<station code="ROD3" name="ROD3" netid="CL" source="Corinth Riff Laboratory (CRLNET)" insttype="" lat="38.30811" lon="21.89204">
		<comp name="00.HNE" depth="0.0">
			<acc value="1.17453488046876" flag="0"/>
			<vel value="0.33315535205905" flag="0"/>
			<psa03 value="1.4689761276911" flag="0"/>
			<psa10 value="0.0877600485934753" flag="0"/>
			<psa30 value="0.00713817164387907" flag="0"/>
		</comp>
		<comp name="00.HNN" depth="0.0">
			<acc value="0.730018449057336" flag="0"/>
			<vel value="0.214149329106436" flag="0"/>
			<psa03 value="1.06643049474651" flag="0"/>
			<psa10 value="0.114115445401968" flag="0"/>
			<psa30 value="0.00959630847548692" flag="0"/>
		</comp>
		<comp name="00.HNZ" depth="0.0">
			<acc value="0.635325860717295" flag="0"/>
			<vel value="0.151054186358629" flag="0"/>
			<psa03 value="0.311763695716118" flag="0"/>
			<psa10 value="0.0837614375880004" flag="0"/>
			<psa30 value="0.00695428117467798" flag="0"/>
		</comp>
	</station>
	<station code="AIGS" name="AIGS" netid="HA" source="Hellenic Seismological Network, University of Athens, Seismological Laboratory (HA)" insttype="" lat="38.25001" lon="22.0878">
		<comp name="--.HNE" depth="0.0">
			<acc value="0.148376213025495" flag="0"/>
			<vel value="0.0342176930510139" flag="0"/>
			<psa03 value="0.179237279712797" flag="0"/>
			<psa10 value="0.0216601496459715" flag="0"/>
			<psa30 value="0.00399010998621747" flag="0"/>
		</comp>
		<comp name="--.HNN" depth="0.0">
			<acc value="0.184671478964721" flag="0"/>
			<vel value="0.0420434897753955" flag="0"/>
			<psa03 value="0.264963347593405" flag="0"/>
			<psa10 value="0.0237138169297502" flag="0"/>
			<psa30 value="0.00409749128210133" flag="0"/>
		</comp>
		<comp name="--.HNZ" depth="0.0">
			<acc value="0.180674215534603" flag="0"/>
			<vel value="0.0339197640373355" flag="0"/>
			<psa03 value="0.0840258640291144" flag="0"/>
			<psa10 value="0.0208266023366731" flag="0"/>
			<psa30 value="0.00291137538465094" flag="0"/>
		</comp>
	</station>
	<station code="ARS1" name="ARS1" netid="HI" source="ITSAK Strong Motion Network" insttype="" lat="37.6349" lon="22.7293">
		<comp name="--.HNE" depth="0.0">
			<acc value="0.00875157988832165" flag="0"/>
			<vel value="0.00957533200532195" flag="0"/>
			<psa03 value="0.0262636752849255" flag="0"/>
			<psa10 value="0.013477694899622" flag="0"/>
			<psa30 value="0.000773145330363736" flag="0"/>
		</comp>
		<comp name="--.HNN" depth="0.0">
			<acc value="0.00968488375527861" flag="0"/>
			<vel value="0.00721497171353417" flag="0"/>
			<psa03 value="0.0427735495270678" flag="0"/>
			<psa10 value="0.00891533209075683" flag="0"/>
			<psa30 value="0.000907819372284734" flag="0"/>
		</comp>
		<comp name="--.HNZ" depth="0.0">
			<acc value="0.00553377067945235" flag="0"/>
			<vel value="0.00342390757787269" flag="0"/>
			<psa03 value="0.0180758514737818" flag="0"/>
			<psa10 value="0.00346707359084988" flag="0"/>
			<psa30 value="0.000569120868184417" flag="0"/>
		</comp>
	</station>
	<station code="KLV1" name="KLV1" netid="HI" source="ITSAK Strong Motion Network" insttype="" lat="38.03256" lon="22.10797">
		<comp name="--.HNE" depth="0.0">
			<acc value="0.0510126841996932" flag="0"/>
			<vel value="0.0186871709576009" flag="0"/>
			<psa03 value="0.0921689456336398" flag="0"/>
			<psa10 value="0.0143192958061117" flag="0"/>
			<psa30 value="0.000883658580710867" flag="0"/>
		</comp>
		<comp name="--.HNN" depth="0.0">
			<acc value="0.0421170568739716" flag="0"/>
			<vel value="0.0177222930898559" flag="0"/>
			<psa03 value="0.0871578184923934" flag="0"/>
			<psa10 value="0.0090482164444131" flag="0"/>
			<psa30 value="0.000891264755835973" flag="0"/>
		</comp>
		<comp name="--.HNZ" depth="0.0">
			<acc value="0.0545814439941864" flag="0"/>
			<vel value="0.0114313552648207" flag="0"/>
			<psa03 value="0.0519009596771952" flag="0"/>
			<psa10 value="0.00781198927555025" flag="0"/>
			<psa30 value="0.00113421493777319" flag="0"/>
		</comp>
	</station>
	<station code="MSL1" name="MSL1" netid="HI" source="ITSAK Strong Motion Network" insttype="" lat="38.3727" lon="21.4243">
		<comp name="--.HNE" depth="0.0">
			<acc value="0.103745185850717" flag="0"/>
			<vel value="0.0492900192007427" flag="0"/>
			<psa03 value="0.267110973511082" flag="0"/>
			<psa10 value="0.0665992219733637" flag="0"/>
			<psa30 value="0.00524781341425709" flag="0"/>
		</comp>
		<comp name="--.HNN" depth="0.0">
			<acc value="0.127479307759264" flag="0"/>
			<vel value="0.0439600361005855" flag="0"/>
			<psa03 value="0.253240889459418" flag="0"/>
			<psa10 value="0.0642193840033378" flag="0"/>
			<psa30 value="0.00263979019047803" flag="0"/>
		</comp>
		<comp name="--.HNZ" depth="0.0">
			<acc value="0.0722477172536" flag="0"/>
			<vel value="0.0275835381239891" flag="0"/>
			<psa03 value="0.110200054900803" flag="0"/>
			<psa10 value="0.0511483957618759" flag="0"/>
			<psa30 value="0.00150065360997683" flag="0"/>
		</comp>
	</station>
	<station code="VAS2" name="VAS2" netid="HI" source="ITSAK Strong Motion Network" insttype="" lat="38.630558" lon="20.608081">
		<comp name="--.HNE" depth="0.0">
			<acc value="0.0365088203239518" flag="0"/>
			<vel value="0.0207850035614496" flag="0"/>
			<psa03 value="0.151228658369759" flag="0"/>
			<psa10 value="0.0266131119186142" flag="0"/>
			<psa30 value="0.00123667459092903" flag="0"/>
		</comp>
		<comp name="--.HNN" depth="0.0">
			<acc value="0.0330397729087241" flag="0"/>
			<vel value="0.0207203591597083" flag="0"/>
			<psa03 value="0.0965089396756122" flag="0"/>
			<psa10 value="0.047330990693205" flag="0"/>
			<psa30 value="0.00163935445049348" flag="0"/>
		</comp>
		<comp name="--.HNZ" depth="0.0">
			<acc value="0.0203983969265051" flag="0"/>
			<vel value="0.0149028456395534" flag="0"/>
			<psa03 value="0.0650999106295854" flag="0"/>
			<psa10 value="0.0104012207725496" flag="0"/>
			<psa30 value="0.000802227764665612" flag="0"/>
		</comp>
	</station>
	<station code="DLFA" name="DLFA" netid="HL" source="National Observatory of Athens Seismic Network" insttype="" lat="38.47836" lon="22.49583">
		<comp name="00.HNE" depth="0.0">
			<acc value="0.0321326748452054" flag="0"/>
			<vel value="0.00861291838263175" flag="0"/>
			<psa03 value="0.052348381743378" flag="0"/>
			<psa10 value="0.00586301875525833" flag="0"/>
			<psa30 value="0.000571805400581513" flag="0"/>
		</comp>
		<comp name="00.HNN" depth="0.0">
			<acc value="0.048199938141493" flag="0"/>
			<vel value="0.00924536380795542" flag="0"/>
			<psa03 value="0.0625943470589622" flag="0"/>
			<psa10 value="0.00655160131511353" flag="0"/>
			<psa30 value="0.000597308458353928" flag="0"/>
		</comp>
		<comp name="00.HNZ" depth="0.0">
			<acc value="0.0330458722639074" flag="0"/>
			<vel value="0.00939973965812043" flag="0"/>
			<psa03 value="0.0470240591558036" flag="0"/>
			<psa10 value="0.00428854050436135" flag="0"/>
			<psa30 value="0.000786120570283035" flag="0"/>
		</comp>
	</station>
	<station code="JAN" name="JAN" netid="HL" source="National Observatory of Athens Seismic Network" insttype="" lat="39.65616" lon="20.84874">
		<comp name="00.HNE" depth="0.0">
			<acc value="0.00370065218027779" flag="0"/>
			<vel value="0.00297614318968316" flag="0"/>
			<psa03 value="0.0107381295883852" flag="0"/>
			<psa10 value="0.00428854050436135" flag="0"/>
			<psa30 value="0.000316327400791181" flag="0"/>
		</comp>
		<comp name="00.HNN" depth="0.0">
			<acc value="0.0034179480745561" flag="0"/>
			<vel value="0.0023142939293063" flag="0"/>
			<psa03 value="0.0102907075222025" flag="0"/>
			<psa10 value="0.00264560667733841" flag="0"/>
			<psa30 value="0.00038523039898332" flag="0"/>
		</comp>
		<comp name="00.HNZ" depth="0.0">
			<acc value="0.00238277059767902" flag="0"/>
			<vel value="0.00169900697418776" flag="0"/>
			<psa03 value="0.00680081540597731" flag="0"/>
			<psa10 value="0.00269392826048614" flag="0"/>
			<psa30 value="0.000345857257159241" flag="0"/>
		</comp>
	</station>
	<station code="KYMI" name="KYMI" netid="HL" source="National Observatory of Athens Seismic Network" insttype="" lat="38.633147" lon="24.100138">
		<comp name="--.HNE" depth="1.0">
			<acc value="0.000918833665008689" flag="0"/>
			<vel value="0.00078573090462593" flag="0"/>
			<psa03 value="0.00255030577724149" flag="0"/>
			<psa10 value="0.00119193238431076" flag="0"/>
			<psa30 value="0.000106486451751487" flag="0"/>
		</comp>
		<comp name="--.HNN" depth="1.0">
			<acc value="0.000815297312867688" flag="0"/>
			<vel value="0.000713057104098821" flag="0"/>
			<psa03 value="0.00322143887651557" flag="0"/>
			<psa10 value="0.00162682663264036" flag="0"/>
			<psa30 value="0.000137805996384277" flag="0"/>
		</comp>
		<comp name="--.HNZ" depth="1.0">
			<acc value="0.000476774575998912" flag="0"/>
			<vel value="0.000422181006620408" flag="0"/>
			<psa03 value="0.0014317506117847" flag="0"/>
			<psa10 value="0.00096643166295467" flag="0"/>
			<psa30 value="0.000123041068200247" flag="0"/>
		</comp>
	</station>
	<station code="PATC" name="PATC" netid="HL" source="National Observatory of Athens Seismic Network" insttype="" lat="38.26933" lon="21.76001">
		<comp name="00.HNE" depth="0.0">
			<acc value="0.207683981507122" flag="0"/>
			<vel value="0.107380369435754" flag="0"/>
			<psa03 value="0.412344176193993" flag="0"/>
			<psa10 value="0.167454419599875" flag="0"/>
			<psa30 value="0.0212382306375612" flag="0"/>
		</comp>
		<comp name="00.HNN" depth="0.0">
			<acc value="0.27883736111923" flag="0"/>
			<vel value="0.114663029186523" flag="0"/>
			<psa03 value="0.408988510697622" flag="0"/>
			<psa10 value="0.268551225142125" flag="0"/>
			<psa30 value="0.0168440985255808" flag="0"/>
		</comp>
		<comp name="00.HNZ" depth="0.0">
			<acc value="0.260075889110712" flag="0"/>
			<vel value="0.111775284640795" flag="0"/>
			<psa03 value="0.213823005428721" flag="0"/>
			<psa10 value="0.17973615531659" flag="0"/>
			<psa30 value="0.00705047691890726" flag="0"/>
		</comp>
	</station>
	<station code="PATG" name="PATG" netid="HL" source="National Observatory of Athens Seismic Network" insttype="" lat="38.23865" lon="21.72657">
		<comp name="00.HNE" depth="0.0">
			<acc value="0.238586519246958" flag="0"/>
			<vel value="0.102338769235654" flag="0"/>
			<psa03 value="0.386304211942158" flag="0"/>
			<psa10 value="0.110708773790053" flag="0"/>
			<psa30 value="0.0142624732037065" flag="0"/>
		</comp>
		<comp name="00.HNN" depth="0.0">
			<acc value="0.167119529529519" flag="0"/>
			<vel value="0.09919452050073" flag="0"/>
			<psa03 value="0.492522210453936" flag="0"/>
			<psa10 value="0.0846392796818509" flag="0"/>
			<psa30 value="0.0172521474499394" flag="0"/>
		</comp>
		<comp name="00.HNZ" depth="0.0">
			<acc value="0.15393816296611" flag="0"/>
			<vel value="0.0431449656629108" flag="0"/>
			<psa03 value="0.225858659009036" flag="0"/>
			<psa10 value="0.0769843355515307" flag="0"/>
			<psa30 value="0.00474312132360299" flag="0"/>
		</comp>
	</station>
	<station code="RIOA" name="RIOA" netid="HL" source="National Observatory of Athens Seismic Network" insttype="" lat="38.29585" lon="21.79118">
		<comp name="00.HNE" depth="0.0">
			<acc value="0.543591143554817" flag="0"/>
			<vel value="0.212728903058899" flag="0"/>
			<psa03 value="0.548002546660593" flag="0"/>
			<psa10 value="0.212840466571383" flag="0"/>
			<psa30 value="0.0153586572658541" flag="0"/>
		</comp>
		<comp name="00.HNN" depth="0.0">
			<acc value="0.616375643090774" flag="0"/>
			<vel value="0.327124338599652" flag="0"/>
			<psa03 value="1.0127845890112" flag="0"/>
			<psa10 value="0.23487510848675" flag="0"/>
			<psa30 value="0.0115886789361986" flag="0"/>
		</comp>
		<comp name="00.HNZ" depth="0.0">
			<acc value="0.464999919484839" flag="0"/>
			<vel value="0.120409631964554" flag="0"/>
			<psa03 value="0.349615602515176" flag="0"/>
			<psa10 value="0.12025228646173" flag="0"/>
			<psa30 value="0.0105179979318233" flag="0"/>
		</comp>
	</station>
	<station code="ANX" name="ANX" netid="HP" source="University of Patras, Seismological Laboratory (PSLNET)" insttype="" lat="38.5933" lon="21.9209">
		<comp name="--.HNE" depth="0.0">
			<acc value="1.77560723121946" flag="0"/>
			<vel value="0.481323672788136" flag="0"/>
			<psa03 value="2.85374742252661" flag="0"/>
			<psa10 value="0.116144951894173" flag="0"/>
			<psa30 value="0.00998332856273497" flag="0"/>
		</comp>
		<comp name="--.HNN" depth="0.0">
			<acc value="2.30733809435348" flag="0"/>
			<vel value="0.717711465411427" flag="0"/>
			<psa03 value="2.9776385926526" flag="0"/>
			<psa10 value="0.224469860915605" flag="0"/>
			<psa30 value="0.0196136411152518" flag="0"/>
		</comp>
		<comp name="--.HNZ" depth="0.0">
			<acc value="0.965842107190849" flag="0"/>
			<vel value="0.247776036309637" flag="0"/>
			<psa03 value="1.25291601193146" flag="0"/>
			<psa10 value="0.0649522613477451" flag="0"/>
			<psa30 value="0.00785449437183761" flag="0"/>
		</comp>
	</station>
	<station code="LTK" name="LTK" netid="HP" source="University of Patras, Seismological Laboratory (PSLNET)" insttype="" lat="38.0228" lon="22.9673">
		<comp name="--.HNE" depth="0.0">
			<acc value="0.00552715824364976" flag="0"/>
			<vel value="0.00316165495109244" flag="0"/>
			<psa03 value="0.0134226619854815" flag="0"/>
			<psa10 value="0.00341875200770214" flag="0"/>
			<psa30 value="0.000251451201194687" flag="0"/>
		</comp>
		<comp name="--.HNN" depth="0.0">
			<acc value="0.00645755580620252" flag="0"/>
			<vel value="0.00330107937640982" flag="0"/>
			<psa03 value="0.0192391488458569" flag="0"/>
			<psa10 value="0.00335432323017183" flag="0"/>
			<psa30 value="0.000267558395577265" flag="0"/>
		</comp>
		<comp name="--.HNZ" depth="0.0">
			<acc value="0.00400988606321356" flag="0"/>
			<vel value="0.00232201201201814" flag="0"/>
			<psa03 value="0.0142727639112287" flag="0"/>
			<psa10 value="0.00215433724866978" flag="0"/>
			<psa30 value="0.000220131656561897" flag="0"/>
		</comp>
	</station>
	<station code="PDO" name="PDO" netid="HP" source="University of Patras, Seismological Laboratory (PSLNET)" insttype="" lat="38.5986" lon="21.1833">
		<comp name="--.HNE" depth="0.0">
			<acc value="0.0623085195013158" flag="0"/>
			<vel value="0.0201550015195723" flag="0"/>
			<psa03 value="0.111497578892733" flag="0"/>
			<psa10 value="0.00899586806266972" flag="0"/>
			<psa30 value="0.000621021827861612" flag="0"/>
		</comp>
		<comp name="--.HNN" depth="0.0">
			<acc value="0.0996625778953587" flag="0"/>
			<vel value="0.0396981193625553" flag="0"/>
			<psa03 value="0.254941093310912" flag="0"/>
			<psa10 value="0.0155031745932312" flag="0"/>
			<psa30 value="0.000877842093850492" flag="0"/>
		</comp>
		<comp name="--.HNZ" depth="0.0">
			<acc value="0.0638382505950031" flag="0"/>
			<vel value="0.0188887683059248" flag="0"/>
			<psa03 value="0.0883658580710867" flag="0"/>
			<psa10 value="0.00474356874566917" flag="0"/>
			<psa30 value="0.000490374584536258" flag="0"/>
		</comp>
	</station>
	<station code="PVO" name="PVO" netid="HP" source="University of Patras, Seismological Laboratory (PSLNET)" insttype="" lat="38.616" lon="21.525">
		<comp name="--.HNE" depth="0.0">
			<acc value="0.104325613399791" flag="0"/>
			<vel value="0.0361939128170668" flag="0"/>
			<psa03 value="0.240265649540119" flag="0"/>
			<psa10 value="0.0269151218132876" flag="0"/>
			<psa30 value="0.0034147252091065" flag="0"/>
		</comp>
		<comp name="--.HNN" depth="0.0">
			<acc value="0.0857864578117392" flag="0"/>
			<vel value="0.0364768250522045" flag="0"/>
			<psa03 value="0.178655631026759" flag="0"/>
			<psa10 value="0.0209796206833076" flag="0"/>
			<psa30 value="0.00242636986490888" flag="0"/>
		</comp>
		<comp name="--.HNZ" depth="0.0">
			<acc value="0.120683945452629" flag="0"/>
			<vel value="0.0606555397748524" flag="0"/>
			<psa03 value="0.237446890523168" flag="0"/>
			<psa10 value="0.0261701640730933" flag="0"/>
			<psa30 value="0.00310824109377134" flag="0"/>
		</comp>
	</station>
	<station code="SERG" name="SERG" netid="HP" source="University of Patras, Seismological Laboratory (PSLNET)" insttype="" lat="38.4133" lon="22.0566">
		<comp name="--.HNE" depth="0.0">
			<acc value="0.3494268444767" flag="0"/>
			<vel value="0.0623491794994907" flag="0"/>
			<psa03 value="0.367557227369103" flag="0"/>
			<psa10 value="0.041214283626421" flag="0"/>
			<psa30 value="0.00260354900311723" flag="0"/>
		</comp>
		<comp name="--.HNN" depth="0.0">
			<acc value="0.487587128817046" flag="0"/>
			<vel value="0.114002331630009" flag="0"/>
			<psa03 value="0.59672680966789" flag="0"/>
			<psa10 value="0.0370384934827377" flag="0"/>
			<psa30 value="0.00287423935315778" flag="0"/>
		</comp>
		<comp name="--.HNZ" depth="0.0">
			<acc value="0.312692499794104" flag="0"/>
			<vel value="0.0579367835785855" flag="0"/>
			<psa03 value="0.179818928398834" flag="0"/>
			<psa10 value="0.0191957489054371" flag="0"/>
			<psa30 value="0.00315879978724999" flag="0"/>
		</comp>
	</station>
	<station code="UPR" name="UPR" netid="HP" source="University of Patras, Seismological Laboratory (PSLNET)" insttype="" lat="38.2836" lon="21.7864">
		<comp name="--.HNE" depth="2.0">
			<acc value="0.38293353329205" flag="0"/>
			<vel value="0.129220310429903" flag="0"/>
			<psa03 value="0.6601712586526" flag="0"/>
			<psa10 value="0.15955384075522" flag="0"/>
			<psa30 value="0.0112123969785389" flag="0"/>
		</comp>
		<comp name="--.HNN" depth="2.0">
			<acc value="0.418420115566065" flag="0"/>
			<vel value="0.155840796596489" flag="0"/>
			<psa03 value="0.364693726145533" flag="0"/>
			<psa10 value="0.284380570421603" flag="0"/>
			<psa30 value="0.0159237513354429" flag="0"/>
		</comp>
		<comp name="--.HNZ" depth="2.0">
			<acc value="0.407725664442338" flag="0"/>
			<vel value="0.128888719428904" flag="0"/>
			<psa03 value="0.322278114271412" flag="0"/>
			<psa10 value="0.217712892872113" flag="0"/>
			<psa30 value="0.0113314112481435" flag="0"/>
		</comp>
	</station>
</stationlist>
