<?xml version="1.0" encoding="UTF-8" standalone="yes"?>
<!DOCTYPE earthquake SYSTEM "stationlist.dtd">
<stationlist created="" xmlns="ch.ethz.sed.shakemap.usgs.xml">
  <station code="PSAM" name="PSAM" netid="CL" insttype="CMG40-T" lat="38.3218" lon="22.1842">
    <comp name="00.HHE">
      <acc value="0.0654319304" flag="0"/>
      <vel value="0.0207322114" flag="0"/>
      <psa03 value="0.0940776172" flag="0"/>
      <psa10 value="0.0128977851" flag="0"/>
      <psa30 value="0.0008068775" flag="0"/>
    </comp>
    <comp name="00.HHN">
      <acc value="0.0418043698" flag="0"/>
      <vel value="0.0143837365" flag="0"/>
      <psa03 value="0.0618826909" flag="0"/>
      <psa10 value="0.0098398495" flag="0"/>
      <psa30 value="0.0013895967" flag="0"/>
    </comp>
    <comp name="00.HHZ">
      <acc value="0.0351354331" flag="0"/>
      <vel value="0.0082593213" flag="0"/>
      <psa03 value="0.0357793678" flag="0"/>
      <psa10 value="0.0047262820" flag="0"/>
      <psa30 value="0.0008796032" flag="0"/>
    </comp>
  </station>
  <station code="TRIZ" name="TRIZ" netid="CL" insttype="STS-2" lat="38.3654" lon="22.0727">
    <comp name="00.HH2">
      <acc value="0.0658812859" flag="0"/>
      <vel value="0.0265192648" flag="0"/>
      <psa03 value="0.2049748722" flag="0"/>
      <psa10 value="0.0113109564" flag="0"/>
      <psa30 value="0.0012191243" flag="0"/>
    </comp>
    <comp name="00.HH3">
      <acc value="0.0927449102" flag="0"/>
      <vel value="0.0372222920" flag="0"/>
      <psa03 value="0.2839205519" flag="0"/>
      <psa10 value="0.0130379153" flag="0"/>
      <psa30 value="0.0013149785" flag="0"/>
    </comp>
    <comp name="00.HHZ">
      <acc value="0.0806465606" flag="0"/>
      <vel value="0.0167148747" flag="0"/>
      <psa03 value="0.0626951924" flag="0"/>
      <psa10 value="0.0064546076" flag="0"/>
      <psa30 value="0.0009614619" flag="0"/>
    </comp>
  </station>
  <station code="ZIRI" name="ZIRI" netid="CL" insttype="TRILLIUM-40" lat="38.3051" lon="21.9476">
    <comp name="01.HHZ">
      <acc value="0.2378682817" flag="0"/>
      <vel value="0.0567689326" flag="0"/>
      <psa03 value="0.3550219749" flag="0"/>
      <psa10 value="0.0153755853" flag="0"/>
      <psa30 value="0.0021923662" flag="0"/>
    </comp>
    <comp name="01.HHE">
      <acc value="0.2827212192" flag="0"/>
      <vel value="0.0782519282" flag="0"/>
      <psa03 value="0.5353025531" flag="0"/>
      <psa10 value="0.0246566506" flag="0"/>
      <psa30 value="0.0027149845" flag="0"/>
    </comp>
    <comp name="01.HHN">
      <acc value="0.2682947690" flag="0"/>
      <vel value="0.0873324489" flag="0"/>
      <psa03 value="0.4383427475" flag="0"/>
      <psa10 value="0.0248264407" flag="0"/>
      <psa30 value="0.0035331946" flag="0"/>
    </comp>
  </station>
  <station code="ANTK" name="ANTK" netid="HA" insttype="25" lat="38.3605" lon="22.6385">
    <comp name="--.HHN">
      <acc value="0.0003844057" flag="0"/>
      <vel value="0.0001083383" flag="0"/>
      <psa03 value="0.0006320714" flag="0"/>
      <psa10 value="0.0000375264" flag="0"/>
      <psa30 value="0.0000031600" flag="0"/>
    </comp>
    <comp name="--.HHE">
      <acc value="0.0055736612" flag="0"/>
      <vel value="0.0023359463" flag="0"/>
      <psa03 value="0.0149208017" flag="0"/>
      <psa10 value="0.0039892969" flag="0"/>
      <psa30 value="0.0002048395" flag="0"/>
    </comp>
    <comp name="--.HHZ">
      <acc value="0.0046563700" flag="0"/>
      <vel value="0.0033355388" flag="0"/>
      <psa03 value="0.0082811084" flag="0"/>
      <psa10 value="0.0042824180" flag="0"/>
      <psa30 value="0.0003239443" flag="0"/>
    </comp>
  </station>
  <station code="DOMV" name="DOMV" netid="HA" insttype="60" lat="38.2569" lon="22.9795">
    <comp name="--.HHZ">
      <acc value="0.0218829804" flag="0"/>
      <vel value="0.0117959266" flag="0"/>
      <psa03 value="0.0437746286" flag="0"/>
      <psa10 value="0.0105426563" flag="0"/>
      <psa30 value="0.0006270769" flag="0"/>
    </comp>
    <comp name="--.HHE">
      <acc value="0.0470946879" flag="0"/>
      <vel value="0.0150827991" flag="0"/>
      <psa03 value="0.0702917811" flag="0"/>
      <psa10 value="0.0124119128" flag="0"/>
      <psa30 value="0.0009046458" flag="0"/>
    </comp>
    <comp name="--.HHN">
      <acc value="0.0509977643" flag="0"/>
      <vel value="0.0194775728" flag="0"/>
      <psa03 value="0.1466559545" flag="0"/>
      <psa10 value="0.0122825655" flag="0"/>
      <psa30 value="0.0008530925" flag="0"/>
    </comp>
  </station>
  <station code="DRES" name="DRES" netid="HA" insttype="DC" lat="38.3197" lon="21.8532">
    <comp name="--.HNN">
      <acc value="0.0673323039" flag="0"/>
      <vel value="0.0314705116" flag="0"/>
      <psa03 value="0.1498763905" flag="0"/>
      <psa10 value="0.0195070093" flag="0"/>
      <psa30 value="0.0028100406" flag="0"/>
    </comp>
    <comp name="--.HNE">
      <acc value="0.1033363453" flag="0"/>
      <vel value="0.0395880274" flag="0"/>
      <psa03 value="0.1521041358" flag="0"/>
      <psa10 value="0.0176642389" flag="0"/>
      <psa30 value="0.0022978112" flag="0"/>
    </comp>
    <comp name="--.HNZ">
      <acc value="0.0649346540" flag="0"/>
      <vel value="0.0253930536" flag="0"/>
      <psa03 value="0.0940992829" flag="0"/>
      <psa10 value="0.0107100279" flag="0"/>
      <psa30 value="0.0016492276" flag="0"/>
    </comp>
  </station>
  <station code="EPID" name="EPID" netid="HA" insttype="30" lat="37.6144" lon="23.1189">
    <comp name="--.HHE">
      <acc value="0.0208641242" flag="0"/>
      <vel value="0.0087990867" flag="0"/>
      <psa03 value="0.0444623538" flag="0"/>
      <psa10 value="0.0039150379" flag="0"/>
      <psa30 value="0.0004118731" flag="0"/>
    </comp>
    <comp name="--.HHN">
      <acc value="0.0197956529" flag="0"/>
      <vel value="0.0082663789" flag="0"/>
      <psa03 value="0.0453581954" flag="0"/>
      <psa10 value="0.0074681897" flag="0"/>
      <psa30 value="0.0005517523" flag="0"/>
    </comp>
    <comp name="--.HHZ">
      <acc value="0.0140386192" flag="0"/>
      <vel value="0.0054615408" flag="0"/>
      <psa03 value="0.0325618815" flag="0"/>
      <psa10 value="0.0049877605" flag="0"/>
      <psa30 value="0.0003178985" flag="0"/>
    </comp>
  </station>
  <station code="KALE" name="KALE" netid="HA" insttype="40," lat="38.3911" lon="22.1398">
    <comp name="--.HHN">
      <acc value="0.0791468474" flag="0"/>
      <vel value="0.0252839988" flag="0"/>
      <psa03 value="0.1174833777" flag="0"/>
      <psa10 value="0.0064438003" flag="0"/>
      <psa30 value="0.0006306840" flag="0"/>
    </comp>
    <comp name="--.HHE">
      <acc value="0.0993341103" flag="0"/>
      <vel value="0.0377844728" flag="0"/>
      <psa03 value="0.1740858377" flag="0"/>
      <psa10 value="0.0145544849" flag="0"/>
      <psa30 value="0.0012022773" flag="0"/>
    </comp>
    <comp name="--.HHZ">
      <acc value="0.0359823577" flag="0"/>
      <vel value="0.0103614442" flag="0"/>
      <psa03 value="0.0602673524" flag="0"/>
      <psa10 value="0.0059015616" flag="0"/>
      <psa30 value="0.0008731193" flag="0"/>
    </comp>
  </station>
  <station code="LAKA" name="LAKA" netid="HA" insttype="120s," lat="38.2401" lon="21.9785">
    <comp name="--.HHE">
      <acc value="0.0795272920" flag="0"/>
      <vel value="0.0214140617" flag="0"/>
      <psa03 value="0.1048486496" flag="0"/>
      <psa10 value="0.0081130543" flag="0"/>
      <psa30 value="0.0021982560" flag="0"/>
    </comp>
    <comp name="--.HHN">
      <acc value="0.1611149104" flag="0"/>
      <vel value="0.0400616929" flag="0"/>
      <psa03 value="0.1304835102" flag="0"/>
      <psa10 value="0.0268034354" flag="0"/>
      <psa30 value="0.0022617329" flag="0"/>
    </comp>
    <comp name="--.HHZ">
      <acc value="0.0729253310" flag="0"/>
      <vel value="0.0148405644" flag="0"/>
      <psa03 value="0.0758832018" flag="0"/>
      <psa10 value="0.0092262951" flag="0"/>
      <psa30 value="0.0014300854" flag="0"/>
    </comp>
  </station>
  <station code="LOUT" name="LOUT" netid="HA" insttype="30" lat="37.9879" lon="22.9743">
    <comp name="--.HHN">
      <acc value="0.0230409088" flag="0"/>
      <vel value="0.0085037974" flag="0"/>
      <psa03 value="0.0483347230" flag="0"/>
      <psa10 value="0.0102625428" flag="0"/>
      <psa30 value="0.0008335760" flag="0"/>
    </comp>
    <comp name="--.HHE">
      <acc value="0.0205657408" flag="0"/>
      <vel value="0.0121195891" flag="0"/>
      <psa03 value="0.0396891402" flag="0"/>
      <psa10 value="0.0171106750" flag="0"/>
      <psa30 value="0.0007680342" flag="0"/>
    </comp>
    <comp name="--.HHZ">
      <acc value="0.0130675335" flag="0"/>
      <vel value="0.0043854761" flag="0"/>
      <psa03 value="0.0284753210" flag="0"/>
      <psa10 value="0.0050109347" flag="0"/>
      <psa30 value="0.0004902408" flag="0"/>
    </comp>
  </station>
  <station code="PRDM" name="PRDM" netid="HA" insttype="25" lat="38.2804" lon="22.847">
    <comp name="--.HHZ">
      <acc value="0.0042192272" flag="0"/>
      <vel value="0.0016960684" flag="0"/>
      <psa03 value="0.0067937028" flag="0"/>
      <psa10 value="0.0021677003" flag="0"/>
      <psa30 value="0.0002059994" flag="0"/>
    </comp>
    <comp name="--.HHE">
      <acc value="0.0132665998" flag="0"/>
      <vel value="0.0036735031" flag="0"/>
      <psa03 value="0.0100515220" flag="0"/>
      <psa10 value="0.0030116827" flag="0"/>
      <psa30 value="0.0002948446" flag="0"/>
    </comp>
    <comp name="--.HHN">
      <acc value="0.0131418467" flag="0"/>
      <vel value="0.0030845159" flag="0"/>
      <psa03 value="0.0116665089" flag="0"/>
      <psa10 value="0.0017328942" flag="0"/>
      <psa30 value="0.0002443986" flag="0"/>
    </comp>
  </station>
  <station code="THAL" name="THAL" netid="HA" insttype="30" lat="38.0357" lon="22.6634">
    <comp name="--.HHE">
      <acc value="0.1263883407" flag="0"/>
      <vel value="0.0389598483" flag="0"/>
      <psa03 value="0.2251944761" flag="0"/>
      <psa10 value="0.0465913062" flag="0"/>
      <psa30 value="0.0020721437" flag="0"/>
    </comp>
    <comp name="--.HHZ">
      <acc value="0.0952064574" flag="0"/>
      <vel value="0.0249014356" flag="0"/>
      <psa03 value="0.1480579160" flag="0"/>
      <psa10 value="0.0256758983" flag="0"/>
      <psa30 value="0.0016049578" flag="0"/>
    </comp>
    <comp name="--.HHN">
      <acc value="0.1422186756" flag="0"/>
      <vel value="0.0438240456" flag="0"/>
      <psa03 value="0.2379669403" flag="0"/>
      <psa10 value="0.0423653486" flag="0"/>
      <psa30 value="0.0029574029" flag="0"/>
    </comp>
  </station>
  <station code="MSL1" name="MSL1" netid="HI" insttype="CMG-5TD,ACCELEROMETER,GURALP" lat="38.3727" lon="21.4243">
    <comp name="--.HNE">
      <acc value="0.0782590874" flag="0"/>
      <vel value="0.0496390657" flag="0"/>
      <psa03 value="0.1713343742" flag="0"/>
      <psa10 value="0.0407198651" flag="0"/>
      <psa30 value="0.0028466092" flag="0"/>
    </comp>
    <comp name="--.HNN">
      <acc value="0.0342894344" flag="0"/>
      <vel value="0.0212763908" flag="0"/>
      <psa03 value="0.0786035522" flag="0"/>
      <psa10 value="0.0242660371" flag="0"/>
      <psa30 value="0.0033487565" flag="0"/>
    </comp>
    <comp name="--.HNZ">
      <acc value="0.0212697989" flag="0"/>
      <vel value="0.0113982787" flag="0"/>
      <psa03 value="0.0321029682" flag="0"/>
      <psa10 value="0.0168866866" flag="0"/>
      <psa30 value="0.0008503305" flag="0"/>
    </comp>
  </station>
  <station code="ELIN" name="ELIN" netid="HL" insttype="LE3D20_SMART24" lat="38.0995" lon="22.4874">
    <comp name="--.HHE">
      <acc value="0.2440179055" flag="0"/>
      <vel value="0.1048541270" flag="0"/>
      <psa03 value="0.6757367503" flag="0"/>
      <psa10 value="0.0821338978" flag="0"/>
      <psa30 value="0.0048951531" flag="0"/>
    </comp>
    <comp name="--.HHZ">
      <acc value="0.2495046471" flag="0"/>
      <vel value="0.0631963998" flag="0"/>
      <psa03 value="0.3142617775" flag="0"/>
      <psa10 value="0.0289618765" flag="0"/>
      <psa30 value="0.0024159733" flag="0"/>
    </comp>
    <comp name="--.HHN">
      <acc value="0.2720267747" flag="0"/>
      <vel value="0.0992800163" flag="0"/>
      <psa03 value="0.4811436596" flag="0"/>
      <psa10 value="0.0722085842" flag="0"/>
      <psa30 value="0.0046916681" flag="0"/>
    </comp>
  </station>
  <station code="EVR" name="EVR" netid="HL" insttype="DR24" lat="38.9166" lon="21.8105">
    <comp name="--.HHZ">
      <acc value="0.0054552484" flag="0"/>
      <vel value="0.0031574644" flag="0"/>
      <psa03 value="0.0164390474" flag="0"/>
      <psa10 value="0.0050155003" flag="0"/>
      <psa30 value="0.0007281882" flag="0"/>
    </comp>
    <comp name="--.HHN">
      <acc value="0.0115292163" flag="0"/>
      <vel value="0.0072828783" flag="0"/>
      <psa03 value="0.0271367774" flag="0"/>
      <psa10 value="0.0070410147" flag="0"/>
      <psa30 value="0.0004554603" flag="0"/>
    </comp>
    <comp name="--.HHE">
      <acc value="0.0080989272" flag="0"/>
      <vel value="0.0050192504" flag="0"/>
      <psa03 value="0.0168320548" flag="0"/>
      <psa10 value="0.0081462977" flag="0"/>
      <psa30 value="0.0007008142" flag="0"/>
    </comp>
  </station>
  <station code="ITM" name="ITM" netid="HL" insttype="DR24" lat="37.1787" lon="21.9252">
    <comp name="--.HHN">
      <acc value="0.0614747844" flag="0"/>
      <vel value="0.0163565940" flag="0"/>
      <psa03 value="0.0784550760" flag="0"/>
      <psa10 value="0.0092038314" flag="0"/>
      <psa30 value="0.0011860435" flag="0"/>
    </comp>
    <comp name="--.HHZ">
      <acc value="0.0365397710" flag="0"/>
      <vel value="0.0174860579" flag="0"/>
      <psa03 value="0.1001327963" flag="0"/>
      <psa10 value="0.0211019263" flag="0"/>
      <psa30 value="0.0012259927" flag="0"/>
    </comp>
    <comp name="--.HHE">
      <acc value="0.0741940669" flag="0"/>
      <vel value="0.0221398333" flag="0"/>
      <psa03 value="0.1593475823" flag="0"/>
      <psa10 value="0.0145950846" flag="0"/>
      <psa30 value="0.0016321002" flag="0"/>
    </comp>
  </station>
  <station code="KLV" name="KLV" netid="HL" insttype="120" lat="38.0435" lon="22.1504">
    <comp name="--.HHZ">
      <acc value="0.2506481665" flag="0"/>
      <vel value="0.0379281586" flag="0"/>
      <psa03 value="0.1722277585" flag="0"/>
      <psa10 value="0.0272554665" flag="0"/>
      <psa30 value="0.0019792980" flag="0"/>
    </comp>
    <comp name="--.HHN">
      <acc value="0.2120974372" flag="0"/>
      <vel value="0.0409874904" flag="0"/>
      <psa03 value="0.1535317533" flag="0"/>
      <psa10 value="0.0148328555" flag="0"/>
      <psa30 value="0.0023509614" flag="0"/>
    </comp>
    <comp name="--.HHE">
      <acc value="0.2907526724" flag="0"/>
      <vel value="0.0468950136" flag="0"/>
      <psa03 value="0.1519097718" flag="0"/>
      <psa10 value="0.0079569445" flag="0"/>
      <psa30 value="0.0025155069" flag="0"/>
    </comp>
  </station>
  <station code="ORTH" name="ORTH" netid="HL" insttype="30" lat="37.8511" lon="20.6963">
    <comp name="--.HHE">
      <acc value="0.0080474315" flag="0"/>
      <vel value="0.0056682402" flag="0"/>
      <psa03 value="0.0252918987" flag="0"/>
      <psa10 value="0.0091271667" flag="0"/>
      <psa30 value="0.0006782610" flag="0"/>
    </comp>
    <comp name="--.HHN">
      <acc value="0.0091502909" flag="0"/>
      <vel value="0.0053883644" flag="0"/>
      <psa03 value="0.0241136455" flag="0"/>
      <psa10 value="0.0072891617" flag="0"/>
      <psa30 value="0.0009354921" flag="0"/>
    </comp>
    <comp name="--.HHZ">
      <acc value="0.0043575812" flag="0"/>
      <vel value="0.0019394507" flag="0"/>
      <psa03 value="0.0097786715" flag="0"/>
      <psa10 value="0.0044246619" flag="0"/>
      <psa30 value="0.0003974463" flag="0"/>
    </comp>
  </station>
  <station code="PATC" name="PATC" netid="HL" insttype="CMG-5" lat="38.2693" lon="21.76">
    <comp name="00.HNN">
      <acc value="0.1422353988" flag="0"/>
      <vel value="0.0689512176" flag="0"/>
      <psa03 value="0.3073956166" flag="0"/>
      <psa10 value="0.0695178885" flag="0"/>
      <psa30 value="0.0072963548" flag="0"/>
    </comp>
    <comp name="00.HNE">
      <acc value="0.1699158704" flag="0"/>
      <vel value="0.0694432574" flag="0"/>
      <psa03 value="0.4266068519" flag="0"/>
      <psa10 value="0.0679611920" flag="0"/>
      <psa30 value="0.0057478391" flag="0"/>
    </comp>
    <comp name="00.HNZ">
      <acc value="0.1135447651" flag="0"/>
      <vel value="0.0469856619" flag="0"/>
      <psa03 value="0.1496649544" flag="0"/>
      <psa10 value="0.0310765783" flag="0"/>
      <psa30 value="0.0031485656" flag="0"/>
    </comp>
  </station>
  <station code="PATG" name="PATG" netid="HL" insttype="CMG-5" lat="38.2386" lon="21.7266">
    <comp name="00.HNE">
      <acc value="0.2550651203" flag="0"/>
      <vel value="0.1036369996" flag="0"/>
      <psa03 value="0.6273401206" flag="0"/>
      <psa10 value="0.0446880101" flag="0"/>
      <psa30 value="0.0074654399" flag="0"/>
    </comp>
    <comp name="00.HNZ">
      <acc value="0.1192431028" flag="0"/>
      <vel value="0.0381821970" flag="0"/>
      <psa03 value="0.2071606210" flag="0"/>
      <psa10 value="0.0468031008" flag="0"/>
      <psa30 value="0.0057323437" flag="0"/>
    </comp>
    <comp name="00.HNN">
      <acc value="0.3934238904" flag="0"/>
      <vel value="0.1395031662" flag="0"/>
      <psa03 value="1.0323091303" flag="0"/>
      <psa10 value="0.0746292303" flag="0"/>
      <psa30 value="0.0130137754" flag="0"/>
    </comp>
  </station>
  <station code="RIOA" name="RIOA" netid="HL" insttype="CMG-5" lat="38.2959" lon="21.7912">
    <comp name="00.HNE">
      <acc value="0.1038982671" flag="0"/>
      <vel value="0.0347842643" flag="0"/>
      <psa03 value="0.1640117537" flag="0"/>
      <psa10 value="0.0271441565" flag="0"/>
      <psa30 value="0.0021022066" flag="0"/>
    </comp>
    <comp name="00.HNN">
      <acc value="0.0999358286" flag="0"/>
      <vel value="0.0357162406" flag="0"/>
      <psa03 value="0.1946251095" flag="0"/>
      <psa10 value="0.0191312485" flag="0"/>
      <psa30 value="0.0024023707" flag="0"/>
    </comp>
    <comp name="00.HNZ">
      <acc value="0.1139906448" flag="0"/>
      <vel value="0.0398680871" flag="0"/>
      <psa03 value="0.1292925137" flag="0"/>
      <psa10 value="0.0138706422" flag="0"/>
      <psa30 value="0.0047722343" flag="0"/>
    </comp>
  </station>
  <station code="VELA" name="VELA" netid="HL" insttype="DC" lat="37.9749" lon="22.7661">
    <comp name="00.HNN">
      <acc value="0.0712177864" flag="0"/>
      <vel value="0.0367626382" flag="0"/>
      <psa03 value="0.1305510509" flag="0"/>
      <psa10 value="0.0555934850" flag="0"/>
      <psa30 value="0.0043927047" flag="0"/>
    </comp>
    <comp name="00.HNZ">
      <acc value="0.0716011948" flag="0"/>
      <vel value="0.0150924631" flag="0"/>
      <psa03 value="0.0507057011" flag="0"/>
      <psa10 value="0.0313528610" flag="0"/>
      <psa30 value="0.0016572435" flag="0"/>
    </comp>
    <comp name="00.HNE">
      <acc value="0.0613079042" flag="0"/>
      <vel value="0.0296463358" flag="0"/>
      <psa03 value="0.1502334293" flag="0"/>
      <psa10 value="0.0453212888" flag="0"/>
      <psa30 value="0.0035197745" flag="0"/>
    </comp>
  </station>
  <station code="AMT" name="AMT" netid="HP" insttype="CMG-3T," lat="37.5324" lon="21.7089">
    <comp name="00.HHN">
      <acc value="0.1848858111" flag="0"/>
      <vel value="0.0677940411" flag="0"/>
      <psa03 value="0.3059148200" flag="0"/>
      <psa10 value="0.0876370049" flag="0"/>
      <psa30 value="0.0041693980" flag="0"/>
    </comp>
    <comp name="00.HHE">
      <acc value="0.1668960063" flag="0"/>
      <vel value="0.0512111479" flag="0"/>
