<?xml version="1.0" encoding="UTF-8" standalone="yes"?>
<!DOCTYPE earthquake SYSTEM "stationlist.dtd">
<stationlist created="" xmlns="ch.ethz.sed.shakemap.usgs.xml">
  <station code="PSAM" name="PSAM" netid="CL" insttype="CMG40-T" lat="38.3218" lon="22.1842">
    <comp name="00.HHE">
      <acc value="0.0654319301" flag="0"/>
      <vel value="0.0207322122" flag="0"/>
      <psa03 value="0.0940776172" flag="0"/>
      <psa10 value="0.0128977849" flag="0"/>
      <psa30 value="0.0008068589" flag="0"/>
    </comp>
    <comp name="00.HHN">
      <acc value="0.0418043703" flag="0"/>
      <vel value="0.0143837363" flag="0"/>
      <psa03 value="0.0618826909" flag="0"/>
      <psa10 value="0.0098398495" flag="0"/>
      <psa30 value="0.0013895580" flag="0"/>
    </comp>
    <comp name="00.HHZ">
      <acc value="0.0351354317" flag="0"/>
      <vel value="0.0082593217" flag="0"/>
      <psa03 value="0.0357793678" flag="0"/>
      <psa10 value="0.0047262820" flag="0"/>
      <psa30 value="0.0008795958" flag="0"/>
    </comp>
  </station>
  <station code="TRIZ" name="TRIZ" netid="CL" insttype="STS-2" lat="38.3654" lon="22.0727">
    <comp name="00.HH2">
      <acc value="0.0658812857" flag="0"/>
      <vel value="0.0265192649" flag="0"/>
      <psa03 value="0.2049748722" flag="0"/>
      <psa10 value="0.0113109565" flag="0"/>
      <psa30 value="0.0012190241" flag="0"/>
    </comp>
    <comp name="00.HHZ">
      <acc value="0.0806465605" flag="0"/>
      <vel value="0.0167148745" flag="0"/>
      <psa03 value="0.0626951924" flag="0"/>
      <psa10 value="0.0064546076" flag="0"/>
      <psa30 value="0.0009614650" flag="0"/>
    </comp>
    <comp name="00.HH3">
      <acc value="0.0927449104" flag="0"/>
      <vel value="0.0372222933" flag="0"/>
      <psa03 value="0.2839205519" flag="0"/>
      <psa10 value="0.0130379153" flag="0"/>
      <psa30 value="0.0013152040" flag="0"/>
    </comp>
  </station>
  <station code="ZIRI" name="ZIRI" netid="CL" insttype="TRILLIUM-40" lat="38.3051" lon="21.9476">
    <comp name="01.HHN">
      <acc value="0.2682947692" flag="0"/>
      <vel value="0.0873324499" flag="0"/>
      <psa03 value="0.4383427475" flag="0"/>
      <psa10 value="0.0248264402" flag="0"/>
      <psa30 value="0.0035333060" flag="0"/>
    </comp>
    <comp name="01.HHE">
      <acc value="0.2827212195" flag="0"/>
      <vel value="0.0782519295" flag="0"/>
      <psa03 value="0.5353025531" flag="0"/>
      <psa10 value="0.0246566492" flag="0"/>
      <psa30 value="0.0027149272" flag="0"/>
    </comp>
    <comp name="01.HHZ">
      <acc value="0.2378682823" flag="0"/>
      <vel value="0.0567689324" flag="0"/>
      <psa03 value="0.3550219749" flag="0"/>
      <psa10 value="0.0153755856" flag="0"/>
      <psa30 value="0.0021922767" flag="0"/>
    </comp>
  </station>
  <station code="KLV" name="KLV" netid="MN" insttype="" lat="38.0437" lon="22.1504">
    <comp name="--.HHN">
      <acc value="0.2467255164" flag="0"/>
      <vel value="0.0432237781" flag="0"/>
      <psa03 value="0.1604121869" flag="0"/>
      <psa10 value="0.0149337569" flag="0"/>
      <psa30 value="0.0023596756" flag="0"/>
    </comp>
    <comp name="--.HHZ">
      <acc value="0.2755841733" flag="0"/>
      <vel value="0.0403986779" flag="0"/>
      <psa03 value="0.1765353501" flag="0"/>
      <psa10 value="0.0274230106" flag="0"/>
      <psa30 value="0.0019868753" flag="0"/>
    </comp>
    <comp name="--.HHE">
      <acc value="0.3534712728" flag="0"/>
      <vel value="0.0480125618" flag="0"/>
      <psa03 value="0.1568079314" flag="0"/>
      <psa10 value="0.0080413188" flag="0"/>
      <psa30 value="0.0025341997" flag="0"/>
    </comp>
  </station>
</stationlist>
