<?xml version="1.0" encoding="UTF-8" standalone="yes"?>
<!DOCTYPE earthquake SYSTEM "stationlist.dtd">
<stationlist created="" xmlns="ch.ethz.sed.shakemap.usgs.xml">
  <station code="PSAM" name="PSAM" netid="CL" insttype="CMG40-T" lat="38.3218" lon="22.1842">
    <comp name="00.HHE">
      <acc value="0.0654319301" flag="0"/>
      <vel value="0.0207322122" flag="0"/>
      <psa03 value="0.0940776172" flag="0"/>
      <psa10 value="0.0128977849" flag="0"/>
      <psa30 value="0.0008068589" flag="0"/>
    </comp>
    <comp name="00.HHN">
      <acc value="0.0418043703" flag="0"/>
      <vel value="0.0143837363" flag="0"/>
      <psa03 value="0.0618826909" flag="0"/>
      <psa10 value="0.0098398495" flag="0"/>
      <psa30 value="0.0013895580" flag="0"/>
    </comp>
    <comp name="00.HHZ">
      <acc value="0.0351354317" flag="0"/>
      <vel value="0.0082593217" flag="0"/>
      <psa03 value="0.0357793678" flag="0"/>
      <psa10 value="0.0047262820" flag="0"/>
      <psa30 value="0.0008795958" flag="0"/>
    </comp>
  </station>
  <station code="TRIZ" name="TRIZ" netid="CL" insttype="STS-2" lat="38.3654" lon="22.0727">
    <comp name="00.HH2">
      <acc value="0.0658812857" flag="0"/>
      <vel value="0.0265192649" flag="0"/>
      <psa03 value="0.2049748722" flag="0"/>
      <psa10 value="0.0113109565" flag="0"/>
      <psa30 value="0.0012190241" flag="0"/>
    </comp>
    <comp name="00.HHZ">
      <acc value="0.0806465605" flag="0"/>
      <vel value="0.0167148745" flag="0"/>
      <psa03 value="0.0626951924" flag="0"/>
      <psa10 value="0.0064546076" flag="0"/>
      <psa30 value="0.0009614650" flag="0"/>
    </comp>
    <comp name="00.HH3">
      <acc value="0.0927449104" flag="0"/>
      <vel value="0.0372222933" flag="0"/>
      <psa03 value="0.2839205519" flag="0"/>
      <psa10 value="0.0130379153" flag="0"/>
      <psa30 value="0.0013152040" flag="0"/>
    </comp>
  </station>
  <station code="ZIRI" name="ZIRI" netid="CL" insttype="TRILLIUM-40" lat="38.3051" lon="21.9476">
    <comp name="01.HHN">
      <acc value="0.2682947692" flag="0"/>
      <vel value="0.0873324499" flag="0"/>
      <psa03 value="0.4383427475" flag="0"/>
      <psa10 value="0.0248264402" flag="0"/>
      <psa30 value="0.0035333060" flag="0"/>
    </comp>
    <comp name="01.HHE">
      <acc value="0.2827212195" flag="0"/>
      <vel value="0.0782519295" flag="0"/>
      <psa03 value="0.5353025531" flag="0"/>
      <psa10 value="0.0246566492" flag="0"/>
      <psa30 value="0.0027149272" flag="0"/>
    </comp>
    <comp name="01.HHZ">
      <acc value="0.2378682823" flag="0"/>
      <vel value="0.0567689324" flag="0"/>
      <psa03 value="0.3550219749" flag="0"/>
      <psa10 value="0.0153755856" flag="0"/>
      <psa30 value="0.0021922767" flag="0"/>
    </comp>
  </station>
  <station code="ANTK" name="ANTK" netid="HA" insttype="25" lat="38.3605" lon="22.6385">
    <comp name="--.HHN">
      <acc value="0.0003844055" flag="0"/>
      <vel value="0.0001083374" flag="0"/>
      <psa03 value="0.0006320714" flag="0"/>
      <psa10 value="0.0000375262" flag="0"/>
      <psa30 value="0.0000031712" flag="0"/>
    </comp>
    <comp name="--.HHZ">
      <acc value="0.0046563698" flag="0"/>
      <vel value="0.0033355295" flag="0"/>
      <psa03 value="0.0082811083" flag="0"/>
      <psa10 value="0.0042824181" flag="0"/>
      <psa30 value="0.0003239643" flag="0"/>
    </comp>
    <comp name="--.HHE">
      <acc value="0.0055736612" flag="0"/>
      <vel value="0.0023359440" flag="0"/>
      <psa03 value="0.0149208017" flag="0"/>
      <psa10 value="0.0039892965" flag="0"/>
      <psa30 value="0.0002047504" flag="0"/>
    </comp>
  </station>
  <station code="DOMV" name="DOMV" netid="HA" insttype="60" lat="38.2569" lon="22.9795">
    <comp name="--.HHE">
      <acc value="0.0470946873" flag="0"/>
      <vel value="0.0150827988" flag="0"/>
      <psa03 value="0.0702917811" flag="0"/>
      <psa10 value="0.0124119128" flag="0"/>
      <psa30 value="0.0009046895" flag="0"/>
    </comp>
    <comp name="--.HHN">
      <acc value="0.0509977647" flag="0"/>
      <vel value="0.0194775734" flag="0"/>
      <psa03 value="0.1466559545" flag="0"/>
      <psa10 value="0.0122825655" flag="0"/>
      <psa30 value="0.0008531226" flag="0"/>
    </comp>
    <comp name="--.HHZ">
      <acc value="0.0218829800" flag="0"/>
      <vel value="0.0117959267" flag="0"/>
      <psa03 value="0.0437746286" flag="0"/>
      <psa10 value="0.0105426563" flag="0"/>
      <psa30 value="0.0006270674" flag="0"/>
    </comp>
  </station>
  <station code="DRES" name="DRES" netid="HA" insttype="DC" lat="38.3197" lon="21.8532">
    <comp name="--.HNE">
      <acc value="0.1033363432" flag="0"/>
      <vel value="0.0395880116" flag="0"/>
      <psa03 value="0.1521041358" flag="0"/>
      <psa10 value="0.0176642752" flag="0"/>
      <psa30 value="0.0022949809" flag="0"/>
    </comp>
    <comp name="--.HNN">
      <acc value="0.0673322974" flag="0"/>
      <vel value="0.0314705342" flag="0"/>
      <psa03 value="0.1498763905" flag="0"/>
      <psa10 value="0.0195070026" flag="0"/>
      <psa30 value="0.0028114185" flag="0"/>
    </comp>
    <comp name="--.HNZ">
      <acc value="0.0649346535" flag="0"/>
      <vel value="0.0253930276" flag="0"/>
      <psa03 value="0.0940992829" flag="0"/>
      <psa10 value="0.0107099525" flag="0"/>
      <psa30 value="0.0016490696" flag="0"/>
    </comp>
  </station>
  <station code="EPID" name="EPID" netid="HA" insttype="30" lat="37.6144" lon="23.1189">
    <comp name="--.HHE">
      <acc value="0.0208641240" flag="0"/>
      <vel value="0.0087990861" flag="0"/>
      <psa03 value="0.0444623538" flag="0"/>
      <psa10 value="0.0039150379" flag="0"/>
      <psa30 value="0.0004117986" flag="0"/>
    </comp>
    <comp name="--.HHN">
      <acc value="0.0197956522" flag="0"/>
      <vel value="0.0082663805" flag="0"/>
      <psa03 value="0.0453581954" flag="0"/>
      <psa10 value="0.0074681897" flag="0"/>
      <psa30 value="0.0005516116" flag="0"/>
    </comp>
    <comp name="--.HHZ">
      <acc value="0.0140386198" flag="0"/>
      <vel value="0.0054615407" flag="0"/>
      <psa03 value="0.0325618815" flag="0"/>
      <psa10 value="0.0049877605" flag="0"/>
      <psa30 value="0.0003178916" flag="0"/>
    </comp>
  </station>
  <station code="KALE" name="KALE" netid="HA" insttype="40," lat="38.3911" lon="22.1398">
    <comp name="--.HHE">
      <acc value="0.0993341104" flag="0"/>
      <vel value="0.0377844730" flag="0"/>
      <psa03 value="0.1740858377" flag="0"/>
      <psa10 value="0.0145544846" flag="0"/>
      <psa30 value="0.0012022705" flag="0"/>
    </comp>
    <comp name="--.HHN">
      <acc value="0.0791468472" flag="0"/>
      <vel value="0.0252839992" flag="0"/>
      <psa03 value="0.1174833777" flag="0"/>
      <psa10 value="0.0064438004" flag="0"/>
      <psa30 value="0.0006308559" flag="0"/>
    </comp>
    <comp name="--.HHZ">
      <acc value="0.0359823578" flag="0"/>
      <vel value="0.0103614458" flag="0"/>
      <psa03 value="0.0602673524" flag="0"/>
      <psa10 value="0.0059015614" flag="0"/>
      <psa30 value="0.0008732101" flag="0"/>
    </comp>
  </station>
  <station code="LAKA" name="LAKA" netid="HA" insttype="120s," lat="38.2401" lon="21.9785">
    <comp name="--.HHN">
      <acc value="0.1611149103" flag="0"/>
      <vel value="0.0400616925" flag="0"/>
      <psa03 value="0.1304835102" flag="0"/>
      <psa10 value="0.0268034354" flag="0"/>
      <psa30 value="0.0022617926" flag="0"/>
    </comp>
    <comp name="--.HHZ">
      <acc value="0.0729253309" flag="0"/>
      <vel value="0.0148405641" flag="0"/>
      <psa03 value="0.0758832018" flag="0"/>
      <psa10 value="0.0092262951" flag="0"/>
      <psa30 value="0.0014299684" flag="0"/>
    </comp>
    <comp name="--.HHE">
      <acc value="0.0795272920" flag="0"/>
      <vel value="0.0214140591" flag="0"/>
      <psa03 value="0.1048486496" flag="0"/>
      <psa10 value="0.0081130541" flag="0"/>
      <psa30 value="0.0021980626" flag="0"/>
    </comp>
  </station>
  <station code="LOUT" name="LOUT" netid="HA" insttype="30" lat="37.9879" lon="22.9743">
    <comp name="--.HHE">
      <acc value="0.0205657410" flag="0"/>
      <vel value="0.0121195883" flag="0"/>
      <psa03 value="0.0396891402" flag="0"/>
      <psa10 value="0.0171106750" flag="0"/>
      <psa30 value="0.0007680516" flag="0"/>
    </comp>
    <comp name="--.HHN">
      <acc value="0.0230409080" flag="0"/>
      <vel value="0.0085038004" flag="0"/>
      <psa03 value="0.0483347230" flag="0"/>
      <psa10 value="0.0102625431" flag="0"/>
      <psa30 value="0.0008336116" flag="0"/>
    </comp>
    <comp name="--.HHZ">
      <acc value="0.0130675333" flag="0"/>
      <vel value="0.0043854758" flag="0"/>
      <psa03 value="0.0284753210" flag="0"/>
      <psa10 value="0.0050109348" flag="0"/>
      <psa30 value="0.0004901850" flag="0"/>
    </comp>
  </station>
  <station code="PRDM" name="PRDM" netid="HA" insttype="25" lat="38.2804" lon="22.847">
    <comp name="--.HHN">
      <acc value="0.0131418467" flag="0"/>
      <vel value="0.0030845151" flag="0"/>
      <psa03 value="0.0116665089" flag="0"/>
      <psa10 value="0.0017328942" flag="0"/>
      <psa30 value="0.0002443530" flag="0"/>
    </comp>
    <comp name="--.HHE">
      <acc value="0.0132665998" flag="0"/>
      <vel value="0.0036735032" flag="0"/>
      <psa03 value="0.0100515220" flag="0"/>
      <psa10 value="0.0030116827" flag="0"/>
      <psa30 value="0.0002948392" flag="0"/>
    </comp>
    <comp name="--.HHZ">
      <acc value="0.0042192270" flag="0"/>
      <vel value="0.0016960683" flag="0"/>
      <psa03 value="0.0067937028" flag="0"/>
      <psa10 value="0.0021677002" flag="0"/>
      <psa30 value="0.0002059932" flag="0"/>
    </comp>
  </station>
  <station code="THAL" name="THAL" netid="HA" insttype="30" lat="38.0357" lon="22.6634">
    <comp name="--.HHE">
      <acc value="0.1263883412" flag="0"/>
      <vel value="0.0389598503" flag="0"/>
      <psa03 value="0.2251944761" flag="0"/>
      <psa10 value="0.0465913061" flag="0"/>
      <psa30 value="0.0020721220" flag="0"/>
    </comp>
    <comp name="--.HHN">
      <acc value="0.1422186749" flag="0"/>
      <vel value="0.0438240432" flag="0"/>
      <psa03 value="0.2379669403" flag="0"/>
      <psa10 value="0.0423653486" flag="0"/>
      <psa30 value="0.0029574369" flag="0"/>
    </comp>
    <comp name="--.HHZ">
      <acc value="0.0952064574" flag="0"/>
      <vel value="0.0249014349" flag="0"/>
      <psa03 value="0.1480579160" flag="0"/>
      <psa10 value="0.0256758981" flag="0"/>
      <psa30 value="0.0016048656" flag="0"/>
    </comp>
  </station>
  <station code="MSL1" name="MSL1" netid="HI" insttype="CMG-5TD,ACCELEROMETER,GURALP" lat="38.3727" lon="21.4243">
    <comp name="--.HNN">
      <acc value="0.0342894331" flag="0"/>
      <vel value="0.0212763899" flag="0"/>
      <psa03 value="0.0786035522" flag="0"/>
      <psa10 value="0.0242660410" flag="0"/>
      <psa30 value="0.0033489253" flag="0"/>
    </comp>
    <comp name="--.HNZ">
      <acc value="0.0212697963" flag="0"/>
      <vel value="0.0113982766" flag="0"/>
      <psa03 value="0.0321029682" flag="0"/>
      <psa10 value="0.0168866866" flag="0"/>
      <psa30 value="0.0008503327" flag="0"/>
    </comp>
    <comp name="--.HNE">
      <acc value="0.0782590837" flag="0"/>
      <vel value="0.0496390633" flag="0"/>
      <psa03 value="0.1713343742" flag="0"/>
      <psa10 value="0.0407198663" flag="0"/>
      <psa30 value="0.0028465973" flag="0"/>
    </comp>
  </station>
  <station code="PYL1" name="PYL1" netid="HI" insttype="CMG-5TD,ACCELEROMETER,GURALP" lat="36.9142" lon="21.6952">
    <comp name="--.HNE">
      <acc value="0.0188454638" flag="0"/>
      <vel value="0.0084574607" flag="0"/>
      <psa03 value="0.0377537337" flag="0"/>
      <psa10 value="0.0108606077" flag="0"/>
      <psa30 value="0.0015169744" flag="0"/>
    </comp>
    <comp name="--.HNN">
      <acc value="0.0118823978" flag="0"/>
      <vel value="0.0109014156" flag="0"/>
      <psa03 value="0.0441889791" flag="0"/>
      <psa10 value="0.0142636892" flag="0"/>
      <psa30 value="0.0011143110" flag="0"/>
    </comp>
    <comp name="--.HNZ">
      <acc value="0.0089057248" flag="0"/>
      <vel value="0.0068093154" flag="0"/>
      <psa03 value="0.0300516900" flag="0"/>
      <psa10 value="0.0081574750" flag="0"/>
      <psa30 value="0.0010429865" flag="0"/>
    </comp>
  </station>
  <station code="ELIN" name="ELIN" netid="HL" insttype="LE3D20_SMART24" lat="38.0995" lon="22.4874">
    <comp name="--.HHN">
      <acc value="0.2720267751" flag="0"/>
      <vel value="0.0992800173" flag="0"/>
      <psa03 value="0.4811436596" flag="0"/>
      <psa10 value="0.0722085839" flag="0"/>
      <psa30 value="0.0046916862" flag="0"/>
    </comp>
    <comp name="--.HHZ">
      <acc value="0.2495046473" flag="0"/>
      <vel value="0.0631964007" flag="0"/>
      <psa03 value="0.3142617775" flag="0"/>
      <psa10 value="0.0289618763" flag="0"/>
      <psa30 value="0.0024160128" flag="0"/>
    </comp>
    <comp name="--.HHE">
      <acc value="0.2440179053" flag="0"/>
      <vel value="0.1048541351" flag="0"/>
      <psa03 value="0.6757367503" flag="0"/>
      <psa10 value="0.0821338973" flag="0"/>
      <psa30 value="0.0048951776" flag="0"/>
    </comp>
  </station>
  <station code="EVR" name="EVR" netid="HL" insttype="DR24" lat="38.9166" lon="21.8105">
    <comp name="--.HHZ">
      <acc value="0.0054552485" flag="0"/>
      <vel value="0.0031574639" flag="0"/>
      <psa03 value="0.0164390474" flag="0"/>
      <psa10 value="0.0050155003" flag="0"/>
      <psa30 value="0.0007281766" flag="0"/>
    </comp>
    <comp name="--.HHE">
      <acc value="0.0080989277" flag="0"/>
      <vel value="0.0050192506" flag="0"/>
      <psa03 value="0.0168320548" flag="0"/>
      <psa10 value="0.0081462976" flag="0"/>
      <psa30 value="0.0007008217" flag="0"/>
    </comp>
    <comp name="--.HHN">
      <acc value="0.0115292164" flag="0"/>
      <vel value="0.0072828775" flag="0"/>
      <psa03 value="0.0271367774" flag="0"/>
      <psa10 value="0.0070410147" flag="0"/>
      <psa30 value="0.0004554587" flag="0"/>
    </comp>
  </station>
  <station code="ITM" name="ITM" netid="HL" insttype="DR24" lat="37.1787" lon="21.9252">
    <comp name="--.HHE">
      <acc value="0.0741940671" flag="0"/>
      <vel value="0.0221398345" flag="0"/>
      <psa03 value="0.1593475823" flag="0"/>
      <psa10 value="0.0145950846" flag="0"/>
      <psa30 value="0.0016320019" flag="0"/>
    </comp>
    <comp name="--.HHN">
      <acc value="0.0614747845" flag="0"/>
      <vel value="0.0163565946" flag="0"/>
      <psa03 value="0.0784550760" flag="0"/>
      <psa10 value="0.0092038314" flag="0"/>
      <psa30 value="0.0011860469" flag="0"/>
    </comp>
    <comp name="--.HHZ">
      <acc value="0.0365397711" flag="0"/>
      <vel value="0.0174860579" flag="0"/>
      <psa03 value="0.1001327963" flag="0"/>
      <psa10 value="0.0211019263" flag="0"/>
      <psa30 value="0.0012259990" flag="0"/>
    </comp>
  </station>
  <station code="KLV" name="KLV" netid="HL" insttype="120" lat="38.0435" lon="22.1504">
    <comp name="--.HHE">
      <acc value="0.2907526724" flag="0"/>
      <vel value="0.0468950143" flag="0"/>
      <psa03 value="0.1519097718" flag="0"/>
      <psa10 value="0.0079569444" flag="0"/>
      <psa30 value="0.0025153667" flag="0"/>
    </comp>
    <comp name="--.HHN">
      <acc value="0.2120974370" flag="0"/>
      <vel value="0.0409874903" flag="0"/>
      <psa03 value="0.1535317533" flag="0"/>
      <psa10 value="0.0148328557" flag="0"/>
      <psa30 value="0.0023510006" flag="0"/>
    </comp>
    <comp name="--.HHZ">
      <acc value="0.2506481665" flag="0"/>
      <vel value="0.0379281586" flag="0"/>
      <psa03 value="0.1722277585" flag="0"/>
      <psa10 value="0.0272554666" flag="0"/>
      <psa30 value="0.0019793106" flag="0"/>
    </comp>
  </station>
  <station code="ORTH" name="ORTH" netid="HL" insttype="30" lat="37.8511" lon="20.6963">
    <comp name="--.HHE">
      <acc value="0.0080474308" flag="0"/>
      <vel value="0.0056682392" flag="0"/>
      <psa03 value="0.0252918987" flag="0"/>
      <psa10 value="0.0091271667" flag="0"/>
      <psa30 value="0.0006782374" flag="0"/>
    </comp>
    <comp name="--.HHZ">
      <acc value="0.0043575811" flag="0"/>
      <vel value="0.0019394525" flag="0"/>
      <psa03 value="0.0097786715" flag="0"/>
      <psa10 value="0.0044246618" flag="0"/>
      <psa30 value="0.0003976149" flag="0"/>
    </comp>
    <comp name="--.HHN">
      <acc value="0.0091502909" flag="0"/>
      <vel value="0.0053883594" flag="0"/>
      <psa03 value="0.0241136455" flag="0"/>
      <psa10 value="0.0072891616" flag="0"/>
      <psa30 value="0.0009354842" flag="0"/>
    </comp>
  </station>
  <station code="PATC" name="PATC" netid="HL" insttype="CMG-5" lat="38.2693" lon="21.76">
    <comp name="00.HNE">
      <acc value="0.1699158671" flag="0"/>
      <vel value="0.0694432615" flag="0"/>
      <psa03 value="0.4266068519" flag="0"/>
      <psa10 value="0.0679611639" flag="0"/>
      <psa30 value="0.0057487461" flag="0"/>
    </comp>
    <comp name="00.HNN">
      <acc value="0.1422353980" flag="0"/>
      <vel value="0.0689512158" flag="0"/>
      <psa03 value="0.3073956166" flag="0"/>
      <psa10 value="0.0695178887" flag="0"/>
      <psa30 value="0.0072963434" flag="0"/>
    </comp>
    <comp name="00.HNZ">
      <acc value="0.1135447644" flag="0"/>
      <vel value="0.0469856629" flag="0"/>
      <psa03 value="0.1496649544" flag="0"/>
      <psa10 value="0.0310765785" flag="0"/>
      <psa30 value="0.0031481479" flag="0"/>
    </comp>
  </station>
  <station code="PATG" name="PATG" netid="HL" insttype="CMG-5" lat="38.2386" lon="21.7266">
    <comp name="00.HNE">
      <acc value="0.2550651200" flag="0"/>
      <vel value="0.1036370020" flag="0"/>
      <psa03 value="0.6273401206" flag="0"/>
      <psa10 value="0.0446880100" flag="0"/>
      <psa30 value="0.0074654618" flag="0"/>
    </comp>
    <comp name="00.HNZ">
      <acc value="0.1192431019" flag="0"/>
      <vel value="0.0381822007" flag="0"/>
      <psa03 value="0.2071606210" flag="0"/>
      <psa10 value="0.0468031015" flag="0"/>
      <psa30 value="0.0057322145" flag="0"/>
    </comp>
    <comp name="00.HNN">
      <acc value="0.3934238922" flag="0"/>
      <vel value="0.1395031674" flag="0"/>
      <psa03 value="1.0323091303" flag="0"/>
      <psa10 value="0.0746292308" flag="0"/>
      <psa30 value="0.0130144005" flag="0"/>
    </comp>
  </station>
  <station code="RIOA" name="RIOA" netid="HL" insttype="CMG-5" lat="38.2959" lon="21.7912">
    <comp name="00.HNE">
      <acc value="0.1038982672" flag="0"/>
      <vel value="0.0347842611" flag="0"/>
      <psa03 value="0.1640117537" flag="0"/>
      <psa10 value="0.0271441548" flag="0"/>
      <psa30 value="0.0021022417" flag="0"/>
    </comp>
    <comp name="00.HNZ">
      <acc value="0.1139906423" flag="0"/>
      <vel value="0.0398680903" flag="0"/>
      <psa03 value="0.1292925137" flag="0"/>
      <psa10 value="0.0138706421" flag="0"/>
      <psa30 value="0.0047716010" flag="0"/>
    </comp>
    <comp name="00.HNN">
      <acc value="0.0999358308" flag="0"/>
      <vel value="0.0357162381" flag="0"/>
      <psa03 value="0.1946251095" flag="0"/>
      <psa10 value="0.0191312471" flag="0"/>
      <psa30 value="0.0024025040" flag="0"/>
    </comp>
  </station>
  <station code="VELA" name="VELA" netid="HL" insttype="DC" lat="37.9749" lon="22.7661">
    <comp name="00.HNE">
      <acc value="0.0613079076" flag="0"/>
      <vel value="0.0296463321" flag="0"/>
      <psa03 value="0.1502334293" flag="0"/>
      <psa10 value="0.0453212888" flag="0"/>
      <psa30 value="0.0035198283" flag="0"/>
    </comp>
    <comp name="00.HNN">
      <acc value="0.0712177858" flag="0"/>
      <vel value="0.0367626442" flag="0"/>
