<stationlist created="1675764071">
	<station code="TUNC" name="TUNC" netid="KO" source="Bogazici University Kandilli Observatory And Earthquake Research Institute (KOERI)" insttype="" lat="39.6942" lon="37.5388">
		<comp name=".HNE" depth="0.0">
			<acc value="0.00291708359189" flag="0"/>
			<vel value="0.00257955640167" flag="0"/>
			<psa03 value="0.00903952916299" flag="0"/>
			<psa10 value="0.00393279177815" flag="0"/>
			<psa30 value="0.000405711589944" flag="0"/>
		</comp>
		<comp name=".HNN" depth="0.0">
			<acc value="0.00306335348929" flag="0"/>
			<vel value="0.00209498986467" flag="0"/>
			<psa03 value="0.00924131596787" flag="0"/>
			<psa10 value="0.0033686566726" flag="0"/>
			<psa30 value="0.000458343696352" flag="0"/>
		</comp>
		<comp name=".HNZ" depth="0.0">
			<acc value="0.00262468327143" flag="0"/>
			<vel value="0.00157160066196" flag="0"/>
			<psa03 value="0.0078116841524" flag="0"/>
			<psa10 value="0.00201336493805" flag="0"/>
			<psa30 value="0.000302241454305" flag="0"/>
		</comp>
	</station>
</stationlist>
