<?xml version="1.0" encoding="UTF-8" standalone="yes"?>
<!DOCTYPE earthquake SYSTEM "stationlist.dtd">
<stationlist created="" xmlns="ch.ethz.sed.shakemap.usgs.xml">
  <station code="GAZ" name="GAZ" netid="KO" insttype="CMG-3T" lat="37.1721" lon="37.2096">
    <comp name="--.HHN">
      <acc value="0.0098939067" flag="0"/>
      <vel value="0.0049969727" flag="0"/>
      <psa03 value="0.0300964618" flag="0"/>
      <psa10 value="0.0042059435" flag="0"/>
      <psa30 value="0.0002424014" flag="0"/>
    </comp>
    <comp name="--.HHE">
      <acc value="0.0136346384" flag="0"/>
      <vel value="0.0057694859" flag="0"/>
      <psa03 value="0.0244123558" flag="0"/>
      <psa10 value="0.0049529708" flag="0"/>
      <psa30 value="0.0003013989" flag="0"/>
    </comp>
    <comp name="--.HHZ">
      <acc value="0.0089516714" flag="0"/>
      <vel value="0.0029092814" flag="0"/>
      <psa03 value="0.0116935567" flag="0"/>
      <psa10 value="0.0021689165" flag="0"/>
      <psa30 value="0.0001745153" flag="0"/>
    </comp>
  </station>
  <station code="SARI" name="SARI" netid="KO" insttype="CMG-3T" lat="38.4072" lon="36.4181">
    <comp name="--.HHE">
      <acc value="0.0945856009" flag="0"/>
      <vel value="0.0273528327" flag="0"/>
      <psa03 value="0.1163484666" flag="0"/>
      <psa10 value="0.0116256428" flag="0"/>
      <psa30 value="0.0011151886" flag="0"/>
    </comp>
    <comp name="--.HHZ">
      <acc value="0.0677310207" flag="0"/>
      <vel value="0.0191869706" flag="0"/>
      <psa03 value="0.1023609673" flag="0"/>
      <psa10 value="0.0107941227" flag="0"/>
      <psa30 value="0.0005992816" flag="0"/>
    </comp>
    <comp name="--.HHN">
      <acc value="0.0765309545" flag="0"/>
      <vel value="0.0218197419" flag="0"/>
      <psa03 value="0.1081019542" flag="0"/>
      <psa10 value="0.0096088157" flag="0"/>
      <psa30 value="0.0007047111" flag="0"/>
    </comp>
  </station>
</stationlist>
