<?xml version="1.0" encoding="UTF-8" standalone="yes"?>
<!DOCTYPE earthquake SYSTEM "stationlist.dtd">
<stationlist created="" xmlns="ch.ethz.sed.shakemap.usgs.xml">
  <station code="GAZ" name="GAZ" netid="KO" insttype="CMG-3T" lat="37.1721" lon="37.2096">
    <comp name="--.HHN">
      <acc value="0.0098939067" flag="0"/>
      <vel value="0.0049969735" flag="0"/>
      <psa03 value="0.0300964618" flag="0"/>
      <psa10 value="0.0042059439" flag="0"/>
      <psa30 value="0.0002424264" flag="0"/>
    </comp>
    <comp name="--.HHE">
      <acc value="0.0136346383" flag="0"/>
      <vel value="0.0057694858" flag="0"/>
      <psa03 value="0.0244123558" flag="0"/>
      <psa10 value="0.0049529699" flag="0"/>
      <psa30 value="0.0003013978" flag="0"/>
    </comp>
    <comp name="--.HHZ">
      <acc value="0.0089516713" flag="0"/>
      <vel value="0.0029092810" flag="0"/>
      <psa03 value="0.0116935567" flag="0"/>
      <psa10 value="0.0021689168" flag="0"/>
      <psa30 value="0.0001745912" flag="0"/>
    </comp>
  </station>
  <station code="SARI" name="SARI" netid="KO" insttype="CMG-3T" lat="38.4072" lon="36.4181">
    <comp name="--.HHN">
      <acc value="0.0765309541" flag="0"/>
      <vel value="0.0218197437" flag="0"/>
      <psa03 value="0.1081019542" flag="0"/>
      <psa10 value="0.0096088130" flag="0"/>
      <psa30 value="0.0007046658" flag="0"/>
    </comp>
    <comp name="--.HHZ">
      <acc value="0.0677310206" flag="0"/>
      <vel value="0.0191869729" flag="0"/>
      <psa03 value="0.1023609673" flag="0"/>
      <psa10 value="0.0107941203" flag="0"/>
      <psa30 value="0.0005993650" flag="0"/>
    </comp>
    <comp name="--.HHE">
      <acc value="0.0945856005" flag="0"/>
      <vel value="0.0273528309" flag="0"/>
      <psa03 value="0.1163484666" flag="0"/>
      <psa10 value="0.0116256402" flag="0"/>
      <psa30 value="0.0011152517" flag="0"/>
    </comp>
  </station>
  <station code="ANDN" name="ANDN" netid="TU" insttype="T" lat="37.58" lon="36.3452">
    <comp name="--.HHZ">
      <acc value="0.0434792330" flag="0"/>
      <vel value="0.0249665396" flag="0"/>
      <psa03 value="0.0723587310" flag="0"/>
      <psa10 value="0.0360142468" flag="0"/>
      <psa30 value="0.0017338827" flag="0"/>
    </comp>
    <comp name="--.HHE">
      <acc value="0.0685512379" flag="0"/>
      <vel value="0.0255003615" flag="0"/>
      <psa03 value="0.1195289018" flag="0"/>
      <psa10 value="0.0161358035" flag="0"/>
      <psa30 value="0.0011754500" flag="0"/>
    </comp>
    <comp name="--.HHN">
      <acc value="0.1031376995" flag="0"/>
      <vel value="0.0285175823" flag="0"/>
      <psa03 value="0.1084006121" flag="0"/>
      <psa10 value="0.0300927900" flag="0"/>
      <psa30 value="0.0011220596" flag="0"/>
    </comp>
  </station>
</stationlist>
