<stationlist created="1675762273">
	<station code="ARPRA" name="ARPRA" netid="KO" source="Bogazici University Kandilli Observatory And Earthquake Research Institute (KOERI)" insttype="" lat="39.0929" lon="38.3356">
		<comp name=".HNE" depth="0.0">
			<acc value="0.0042760551046" flag="0"/>
			<vel value="0.00264035432147" flag="0"/>
			<psa03 value="0.0162375847749" flag="0"/>
			<psa10 value="0.00272722918117" flag="0"/>
			<psa30 value="0.000363030220846" flag="0"/>
		</comp>
		<comp name=".HNN" depth="0.0">
			<acc value="0.00499545553257" flag="0"/>
			<vel value="0.00351792411627" flag="0"/>
			<psa03 value="0.0142071156309" flag="0"/>
			<psa10 value="0.00417217998018" flag="0"/>
			<psa30 value="0.000533699625813" flag="0"/>
		</comp>
		<comp name=".HNZ" depth="0.0">
			<acc value="0.00241461335682" flag="0"/>
			<vel value="0.00137208162533" flag="0"/>
			<psa03 value="0.00723074397527" flag="0"/>
			<psa10 value="0.00264748553917" flag="0"/>
			<psa30 value="0.000468462022895" flag="0"/>
		</comp>
	</station>
	<station code="KOZK" name="KOZK" netid="KO" source="Bogazici University Kandilli Observatory And Earthquake Research Institute (KOERI)" insttype="" lat="39.2101" lon="34.868">
		<comp name=".HNE" depth="0.0">
			<acc value="0.00698955647851" flag="0"/>
			<vel value="0.0058147597259" flag="0"/>
			<psa03 value="0.0155901200085" flag="0"/>
			<psa10 value="0.00641503902734" flag="0"/>
			<psa30 value="0.000310918227015" flag="0"/>
		</comp>
		<comp name=".HNN" depth="0.0">
			<acc value="0.00685552946237" flag="0"/>
			<vel value="0.00407848568732" flag="0"/>
			<psa03 value="0.019845424037" flag="0"/>
			<psa10 value="0.00630210123328" flag="0"/>
			<psa30 value="0.000210516888419" flag="0"/>
		</comp>
		<comp name=".HNZ" depth="0.0">
			<acc value="0.00495237128298" flag="0"/>
			<vel value="0.00235704368033" flag="0"/>
			<psa03 value="0.00883037142709" flag="0"/>
			<psa10 value="0.00185241259606" flag="0"/>
			<psa30 value="0.000187839344476" flag="0"/>
		</comp>
	</station>
	<station code="KRTS" name="KRTS" netid="KO" source="Bogazici University Kandilli Observatory And Earthquake Research Institute (KOERI)" insttype="" lat="36.573" lon="35.375">
		<comp name=".HNE" depth="0.0">
			<acc value="0.00271138043169" flag="0"/>
			<vel value="0.00135587610566" flag="0"/>
			<psa03 value="0.00533587919194" flag="0"/>
			<psa10 value="0.000975026270391" flag="0"/>
			<psa30 value="0.000383000319808" flag="0"/>
		</comp>
		<comp name=".HNN" depth="0.0">
			<acc value="0.00343435746586" flag="0"/>
			<vel value="0.00136185549789" flag="0"/>
			<psa03 value="0.00811468274018" flag="0"/>
			<psa10 value="0.00127652995447" flag="0"/>
			<psa30 value="0.00036155775351" flag="0"/>
		</comp>
		<comp name=".HNZ" depth="0.0">
			<acc value="0.00392228795271" flag="0"/>
			<vel value="0.00137652511869" flag="0"/>
			<psa03 value="0.00421995598367" flag="0"/>
			<psa10 value="0.000784217849022" flag="0"/>
			<psa30 value="0.000455367822133" flag="0"/>
		</comp>
	</station>
	<station code="TUNC" name="TUNC" netid="KO" source="Bogazici University Kandilli Observatory And Earthquake Research Institute (KOERI)" insttype="" lat="39.6942" lon="37.5388">
		<comp name=".HNE" depth="0.0">
			<acc value="0.00291708359189" flag="0"/>
			<vel value="0.00257955640167" flag="0"/>
			<psa03 value="0.00903952916299" flag="0"/>
			<psa10 value="0.00393279177815" flag="0"/>
			<psa30 value="0.000405711589944" flag="0"/>
		</comp>
		<comp name=".HNN" depth="0.0">
			<acc value="0.00306335348929" flag="0"/>
			<vel value="0.00209498986467" flag="0"/>
			<psa03 value="0.00924131596787" flag="0"/>
			<psa10 value="0.0033686566726" flag="0"/>
			<psa30 value="0.000458343696352" flag="0"/>
		</comp>
		<comp name=".HNZ" depth="0.0">
			<acc value="0.00262468327143" flag="0"/>
			<vel value="0.00157160066196" flag="0"/>
			<psa03 value="0.0078116841524" flag="0"/>
			<psa10 value="0.00201336493805" flag="0"/>
			<psa30 value="0.000302241454305" flag="0"/>
		</comp>
	</station>
</stationlist>
