<?xml version="1.0" encoding="UTF-8" standalone="yes"?>
<!DOCTYPE earthquake SYSTEM "stationlist.dtd">
<stationlist created="" xmlns="ch.ethz.sed.shakemap.usgs.xml">
  <station code="ZKR" name="ZKR" netid="GE" insttype="STS-2/N" lat="35.1147" lon="26.2169">
    <comp name="--.HHE">
      <acc value="0.0527657326" flag="0"/>
      <vel value="0.0236616991" flag="0"/>
      <psa03 value="0.1940139238" flag="0"/>
      <psa10 value="0.0240068812" flag="0"/>
      <psa30 value="0.0009733850" flag="0"/>
    </comp>
    <comp name="--.HHN">
      <acc value="0.0151025948" flag="0"/>
      <vel value="0.0073585831" flag="0"/>
      <psa03 value="0.0440450889" flag="0"/>
      <psa10 value="0.0118834113" flag="0"/>
      <psa30 value="0.0004797665" flag="0"/>
    </comp>
    <comp name="--.HHZ">
      <acc value="0.0241974031" flag="0"/>
      <vel value="0.0106569188" flag="0"/>
      <psa03 value="0.0530229262" flag="0"/>
      <psa10 value="0.0124770864" flag="0"/>
      <psa30 value="0.0008003904" flag="0"/>
    </comp>
  </station>
</stationlist>
