<?xml version="1.0" encoding="UTF-8" standalone="yes"?>
<!DOCTYPE earthquake SYSTEM "stationlist.dtd">
<stationlist created="" xmlns="ch.ethz.sed.shakemap.usgs.xml">
  <station code="ZKR" name="ZKR" netid="GE" insttype="STS-2/N" lat="35.1147" lon="26.2169">
    <comp name="--.HHE">
      <acc value="0.0527657327" flag="0"/>
      <vel value="0.0236617009" flag="0"/>
      <psa03 value="0.1940139238" flag="0"/>
      <psa10 value="0.0240068812" flag="0"/>
      <psa30 value="0.0009732585" flag="0"/>
    </comp>
    <comp name="--.HHN">
      <acc value="0.0151025947" flag="0"/>
      <vel value="0.0073585868" flag="0"/>
      <psa03 value="0.0440450889" flag="0"/>
      <psa10 value="0.0118834114" flag="0"/>
      <psa30 value="0.0004802235" flag="0"/>
    </comp>
    <comp name="--.HHZ">
      <acc value="0.0241974034" flag="0"/>
      <vel value="0.0106569256" flag="0"/>
      <psa03 value="0.0530229262" flag="0"/>
      <psa10 value="0.0124770864" flag="0"/>
      <psa30 value="0.0008001097" flag="0"/>
    </comp>
  </station>
</stationlist>
