<stationlist created="1778135969">
	<station code="MALA" name="MALA" netid="CL" source="Corinth Riff Laboratory (CRLNET)" insttype="" lat="38.39341" lon="21.87263">
		<comp name="01.HNE" depth="0.0">
			<acc value="1.19721600055985" flag="0"/>
			<vel value="0.593477782621519" flag="0"/>
			<psa03 value="3.14926969724029" flag="0"/>
			<psa10 value="0.456779898696929" flag="0"/>
			<psa30 value="0.0265826872181138" flag="0"/>
		</comp>
		<comp name="01.HNN" depth="0.0">
			<acc value="1.63527022574433" flag="0"/>
			<vel value="0.427322681782246" flag="0"/>
			<psa03 value="1.1690243745222" flag="0"/>
			<psa10 value="0.278195407778693" flag="0"/>
			<psa30 value="0.0195116288841621" flag="0"/>
		</comp>
		<comp name="01.HNZ" depth="0.0">
			<acc value="0.59468064532254" flag="0"/>
			<vel value="0.166061976141443" flag="0"/>
			<psa03 value="0.958288581350144" flag="0"/>
			<psa10 value="0.142975510936952" flag="0"/>
			<psa30 value="0.0162928745400437" flag="0"/>
		</comp>
	</station>
	<station code="AIGS" name="AIGS" netid="HA" source="Hellenic Seismological Network, University of Athens, Seismological Laboratory (HA)" insttype="" lat="38.25001" lon="22.0878">
		<comp name="--.HNE" depth="0.0">
			<acc value="2.03267446214422" flag="0"/>
			<vel value="0.672543525200208" flag="0"/>
			<psa03 value="3.65047189577817" flag="0"/>
			<psa10 value="0.24130993264259" flag="0"/>
			<psa30 value="0.02161227548489" flag="0"/>
		</comp>
		<comp name="--.HNN" depth="0.0">
			<acc value="2.09617860372137" flag="0"/>
			<vel value="0.715121651445957" flag="0"/>
			<psa03 value="4.0744043034863" flag="0"/>
			<psa10 value="0.201633886079705" flag="0"/>
			<psa30 value="0.0328448064564071" flag="0"/>
		</comp>
		<comp name="--.HNZ" depth="0.0">
			<acc value="1.17365496384268" flag="0"/>
			<vel value="0.211762930767093" flag="0"/>
			<psa03 value="0.590731353981042" flag="0"/>
			<psa10 value="0.188305182728122" flag="0"/>
			<psa30 value="0.0118830826557468" flag="0"/>
		</comp>
	</station>
	<station code="ARS1" name="ARS1" netid="HI" source="ITSAK Strong Motion Network" insttype="" lat="37.6349" lon="22.7293">
		<comp name="--.HNE" depth="0.0">
			<acc value="0.0228664906232674" flag="0"/>
			<vel value="0.0205666209608204" flag="0"/>
			<psa03 value="0.0591240625123348" flag="0"/>
			<psa10 value="0.0251377127501061" flag="0"/>
			<psa30 value="0.00150798291730281" flag="0"/>
		</comp>
		<comp name="--.HNN" depth="0.0">
			<acc value="0.0250352879784925" flag="0"/>
			<vel value="0.015425436256295" flag="0"/>
			<psa03 value="0.0922771545753359" flag="0"/>
			<psa10 value="0.0256538519417978" flag="0"/>
			<psa30 value="0.00109895602960833" flag="0"/>
		</comp>
		<comp name="--.HNZ" depth="0.0">
			<acc value="0.0184815252187803" flag="0"/>
			<vel value="0.00943073778678062" flag="0"/>
			<psa03 value="0.0607984130130572" flag="0"/>
			<psa10 value="0.00842301017057156" flag="0"/>
			<psa30 value="0.000938821671496137" flag="0"/>
		</comp>
	</station>
	<station code="ART2" name="ART2" netid="HI" source="ITSAK Strong Motion Network" insttype="" lat="39.1474" lon="20.9937">
		<comp name="--.HNE" depth="0.0">
			<acc value="0.00232127341883725" flag="0"/>
			<vel value="0.00185873991550699" flag="0"/>
			<psa03 value="0.00850457380292653" flag="0"/>
			<psa10 value="0.0023778347073801" flag="0"/>
			<psa30 value="0.000603307518244756" flag="0"/>
		</comp>
		<comp name="--.HNN" depth="0.0">
			<acc value="0.00236004348646866" flag="0"/>
			<vel value="0.0019683371721034" flag="0"/>
			<psa03 value="0.00677181904248201" flag="0"/>
			<psa10 value="0.00315519675067523" flag="0"/>
			<psa30 value="0.000455800454957796" flag="0"/>
		</comp>
		<comp name="--.HNZ" depth="0.0">
			<acc value="0.00254989134694725" flag="0"/>
			<vel value="0.00189215452707958" flag="0"/>
			<psa03 value="0.00785724641548182" flag="0"/>
			<psa10 value="0.00235940036119322" flag="0"/>
			<psa30 value="0.000443775752132326" flag="0"/>
		</comp>
	</station>
	<station code="ATH5" name="ATH5" netid="HI" source="ITSAK Strong Motion Network" insttype="" lat="37.975421" lon="23.737098">
		<comp name="--.HNE" depth="0.0">
			<acc value="0.00625406677119016" flag="0"/>
			<vel value="0.00550474241303297" flag="0"/>
			<psa03 value="0.0164446453666211" flag="0"/>
			<psa10 value="0.0101162004611318" flag="0"/>
			<psa30 value="0.000668315678885782" flag="0"/>
		</comp>
		<comp name="--.HNN" depth="0.0">
			<acc value="0.00526141758158945" flag="0"/>
			<vel value="0.00457440873377192" flag="0"/>
			<psa03 value="0.0176618900656082" flag="0"/>
			<psa10 value="0.00756910907258076" flag="0"/>
			<psa30 value="0.00062473878171004" flag="0"/>
		</comp>
		<comp name="--.HNZ" depth="0.0">
			<acc value="0.00292330808309336" flag="0"/>
			<vel value="0.00337355683133337" flag="0"/>
			<psa03 value="0.00726847173497358" flag="0"/>
			<psa10 value="0.00628920225376492" flag="0"/>
			<psa30 value="0.000549629066478025" flag="0"/>
		</comp>
	</station>
	<station code="KLV1" name="KLV1" netid="HI" source="ITSAK Strong Motion Network" insttype="" lat="38.03256" lon="22.10797">
		<comp name="--.HNE" depth="0.0">
			<acc value="0.262606335286501" flag="0"/>
			<vel value="0.0833272093895732" flag="0"/>
			<psa03 value="0.310018749658005" flag="0"/>
			<psa10 value="0.0388626332465647" flag="0"/>
			<psa30 value="0.00339817059265774" flag="0"/>
		</comp>
		<comp name="--.HNN" depth="0.0">
			<acc value="0.200724960968993" flag="0"/>
			<vel value="0.0818551927225074" flag="0"/>
			<psa03 value="0.416460459202874" flag="0"/>
			<psa10 value="0.0580946233393626" flag="0"/>
			<psa30 value="0.00383619679545062" flag="0"/>
		</comp>
		<comp name="--.HNZ" depth="0.0">
			<acc value="0.154021278790148" flag="0"/>
			<vel value="0.0375922075042312" flag="0"/>
			<psa03 value="0.145412171509383" flag="0"/>
			<psa10 value="0.0259285561573547" flag="0"/>
			<psa30 value="0.00292121867010696" flag="0"/>
		</comp>
	</station>
	<station code="LAM2" name="LAM2" netid="HI" source="ITSAK Strong Motion Network" insttype="" lat="38.90203" lon="22.431301">
		<comp name="--.HNE" depth="0.0">
			<acc value="0.0399195132810859" flag="0"/>
			<vel value="0.0165384347394953" flag="0"/>
			<psa03 value="0.0730183683584397" flag="0"/>
			<psa10 value="0.0120510942633475" flag="0"/>
			<psa30 value="0.00460400165916482" flag="0"/>
		</comp>
		<comp name="--.HNN" depth="0.0">
			<acc value="0.0385288405308792" flag="0"/>
			<vel value="0.014948296410216" flag="0"/>
			<psa03 value="0.0950643600472559" flag="0"/>
			<psa10 value="0.00935746426106836" flag="0"/>
			<psa30 value="0.00238116878241192" flag="0"/>
		</comp>
		<comp name="--.HNZ" depth="0.0">
			<acc value="0.030054482422903" flag="0"/>
			<vel value="0.0099656820843835" flag="0"/>
			<psa03 value="0.0360019396393236" flag="0"/>
			<psa10 value="0.0119731097222457" flag="0"/>
			<psa30 value="0.00250289184596912" flag="0"/>
		</comp>
	</station>
	<station code="MSL1" name="MSL1" netid="HI" source="ITSAK Strong Motion Network" insttype="" lat="38.3727" lon="21.4243">
		<comp name="--.HNE" depth="0.0">
			<acc value="0.113877233469642" flag="0"/>
			<vel value="0.0528798611446107" flag="0"/>
			<psa03 value="0.540127918295777" flag="0"/>
			<psa10 value="0.0547725144979559" flag="0"/>
			<psa30 value="0.00622587805093251" flag="0"/>
		</comp>
		<comp name="--.HNN" depth="0.0">
			<acc value="0.0784006578797168" flag="0"/>
			<vel value="0.0563760873781425" flag="0"/>
			<psa03 value="0.26975076370156" flag="0"/>
			<psa10 value="0.0383512298249178" flag="0"/>
			<psa30 value="0.00330555422495792" flag="0"/>
		</comp>
		<comp name="--.HNZ" depth="0.0">
			<acc value="0.0560610317763369" flag="0"/>
			<vel value="0.0246782084706687" flag="0"/>
			<psa03 value="0.122369935100973" flag="0"/>
			<psa10 value="0.0338492689949873" flag="0"/>
			<psa30 value="0.00233912256200325" flag="0"/>
		</comp>
	</station>
	<station code="PYL1" name="PYL1" netid="HI" source="ITSAK Strong Motion Network" insttype="" lat="36.914188" lon="21.695161">
		<comp name="--.HNE" depth="0.0">
			<acc value="0.00319248521593049" flag="0"/>
			<vel value="0.00253527724263081" flag="0"/>
			<psa03 value="0.012858349198354" flag="0"/>
			<psa10 value="0.00356310377251442" flag="0"/>
			<psa30 value="0.000955686434536463" flag="0"/>
		</comp>
		<comp name="--.HNN" depth="0.0">
			<acc value="0.00322891443819783" flag="0"/>
			<vel value="0.00290932340056568" flag="0"/>
			<psa03 value="0.00765059079844738" flag="0"/>
			<psa10 value="0.00278120603812435" flag="0"/>
			<psa30 value="0.00104540602385337" flag="0"/>
		</comp>
		<comp name="--.HNZ" depth="0.0">
			<acc value="0.00251399284022572" flag="0"/>
			<vel value="0.00238930190610141" flag="0"/>
			<psa03 value="0.00734830319525096" flag="0"/>
			<psa10 value="0.00250168947464814" flag="0"/>
			<psa30 value="0.000942577441128247" flag="0"/>
		</comp>
	</station>
	<station code="SKO1" name="SKO1" netid="HI" source="ITSAK Strong Motion Network" insttype="" lat="39.123383" lon="23.728705">
		<comp name="--.HNE" depth="0.0">
			<acc value="0.00252426451605419" flag="0"/>
			<vel value="0.00199107260082502" flag="0"/>
			<psa03 value="0.007834184991915" flag="0"/>
			<psa10 value="0.00352776025930304" flag="0"/>
			<psa30 value="0.000435013713356804" flag="0"/>
		</comp>
		<comp name="--.HNN" depth="0.0">
			<acc value="0.00304052626031271" flag="0"/>
			<vel value="0.00292976953576903" flag="0"/>
			<psa03 value="0.00869343527239983" flag="0"/>
			<psa10 value="0.00243541836576384" flag="0"/>
			<psa30 value="0.000375711191106008" flag="0"/>
		</comp>
		<comp name="--.HNZ" depth="0.0">
			<acc value="0.00172925044158916" flag="0"/>
			<vel value="0.00143683349463468" flag="0"/>
			<psa03 value="0.00518897134806116" flag="0"/>
			<psa10 value="0.00212313752243904" flag="0"/>
			<psa30 value="0.000375527767496678" flag="0"/>
		</comp>
	</station>
	<station code="VAS2" name="VAS2" netid="HI" source="ITSAK Strong Motion Network" insttype="" lat="38.630558" lon="20.608081">
		<comp name="--.HNE" depth="0.0">
			<acc value="0.035254711624571" flag="0"/>
			<vel value="0.0264810392534531" flag="0"/>
			<psa03 value="0.114370326472714" flag="0"/>
			<psa10 value="0.0489772357514783" flag="0"/>
			<psa30 value="0.00192997972668342" flag="0"/>
		</comp>
		<comp name="--.HNN" depth="0.0">
			<acc value="0.0382731165660017" flag="0"/>
			<vel value="0.0260493958780423" flag="0"/>
			<psa03 value="0.115117084275101" flag="0"/>
			<psa10 value="0.0336220647967665" flag="0"/>
			<psa30 value="0.00287917114762402" flag="0"/>
		</comp>
		<comp name="--.HNZ" depth="0.0">
			<acc value="0.0155915472815533" flag="0"/>
			<vel value="0.0131512732907268" flag="0"/>
			<psa03 value="0.0461198364627545" flag="0"/>
			<psa10 value="0.0178220056204098" flag="0"/>
			<psa30 value="0.00103203659652563" flag="0"/>
		</comp>
	</station>
	<station code="VOL2" name="VOL2" netid="HI" source="ITSAK Strong Motion Network" insttype="" lat="39.366" lon="22.9506">
		<comp name="--.HNE" depth="0.0">
			<acc value="0.00632874095682269" flag="0"/>
			<vel value="0.00410840304747221" flag="0"/>
			<psa03 value="0.022666118706639" flag="0"/>
			<psa10 value="0.00498510961404345" flag="0"/>
			<psa30 value="0.000930294231594297" flag="0"/>
		</comp>
		<comp name="--.HNN" depth="0.0">
			<acc value="0.00570609414248802" flag="0"/>
			<vel value="0.00604896622266919" flag="0"/>
			<psa03 value="0.0146613579617448" flag="0"/>
			<psa10 value="0.00602371326020484" flag="0"/>
			<psa30 value="0.00149650194841034" flag="0"/>
		</comp>
		<comp name="--.HNZ" depth="0.0">
			<acc value="0.00396045416184368" flag="0"/>
			<vel value="0.0026564266146976" flag="0"/>
			<psa03 value="0.00664711221356258" flag="0"/>
			<psa10 value="0.00396188245526803" flag="0"/>
			<psa30 value="0.000495622415887666" flag="0"/>
		</comp>
	</station>
	<station code="ATHP" name="ATHP" netid="HL" source="National Observatory of Athens Seismic Network" insttype="" lat="38.000799" lon="23.773487">
		<comp name="00.HNE" depth="0.0">
			<acc value="0.00613283061458015" flag="0"/>
			<vel value="0.00565485831657985" flag="0"/>
			<psa03 value="0.0120356535803151" flag="0"/>
			<psa10 value="0.00951532508150785" flag="0"/>
			<psa30 value="0.0011391365805012" flag="0"/>
		</comp>
		<comp name="00.HNN" depth="0.0">
			<acc value="0.00497911771832953" flag="0"/>
			<vel value="0.00460998880719454" flag="0"/>
			<psa03 value="0.0161071943825778" flag="0"/>
			<psa10 value="0.00843614305787514" flag="0"/>
			<psa30 value="0.000825046290040931" flag="0"/>
		</comp>
		<comp name="00.HNZ" depth="0.0">
			<acc value="0.00436326877942129" flag="0"/>
			<vel value="0.00426329592306358" flag="0"/>
			<psa03 value="0.0096643166295467" flag="0"/>
			<psa10 value="0.00684555761259558" flag="0"/>
			<psa30 value="0.000718559838289444" flag="0"/>
		</comp>
	</station>
	<station code="DION" name="DION" netid="HL" source="National Observatory of Athens Seismic Network" insttype="" lat="38.07794" lon="23.93306">
		<comp name="--.HNE" depth="0.0">
			<acc value="0.021811870280367" flag="0"/>
			<vel value="0.0353289434111247" flag="0"/>
			<psa03 value="0.034406756889451" flag="0"/>
			<psa10 value="0.0332452492056406" flag="0"/>
			<psa30 value="0.0250762171212766" flag="0"/>
		</comp>
		<comp name="--.HNN" depth="0.0">
			<acc value="0.0843866370062601" flag="0"/>
			<vel value="0.0942591079587211" flag="0"/>
			<psa03 value="0.0900660619225811" flag="0"/>
			<psa10 value="0.0871238144153635" flag="0"/>
			<psa30 value="0.0550060688165033" flag="0"/>
		</comp>
		<comp name="--.HNZ" depth="0.0">
			<acc value="0.0915070546825789" flag="0"/>
			<vel value="0.126825054460539" flag="0"/>
			<psa03 value="0.158208442602209" flag="0"/>
			<psa10 value="0.0908244423247607" flag="0"/>
			<psa30 value="0.0803892174751812" flag="0"/>
		</comp>
	</station>
	<station code="DLFA" name="DLFA" netid="HL" source="National Observatory of Athens Seismic Network" insttype="" lat="38.47836" lon="22.49583">
		<comp name="00.HNE" depth="0.0">
			<acc value="0.277392387132561" flag="0"/>
			<vel value="0.103708042983022" flag="0"/>
			<psa03 value="0.550731821264307" flag="0"/>
			<psa10 value="0.0698649556344313" flag="0"/>
			<psa30 value="0.00289571561233455" flag="0"/>
		</comp>
		<comp name="00.HNN" depth="0.0">
			<acc value="0.294985910478287" flag="0"/>
			<vel value="0.117209332997937" flag="0"/>
			<psa03 value="0.557308925637193" flag="0"/>
			<psa10 value="0.0653307804157357" flag="0"/>
			<psa30 value="0.00488137474205345" flag="0"/>
		</comp>
		<comp name="00.HNZ" depth="0.0">
			<acc value="0.226590942084748" flag="0"/>
			<vel value="0.056920940397069" flag="0"/>
			<psa03 value="0.326618108313384" flag="0"/>
			<psa10 value="0.0217608196108626" flag="0"/>
			<psa30 value="0.00294582688374701" flag="0"/>
		</comp>
	</station>
	<station code="ITM" name="ITM" netid="HL" source="National Observatory of Athens Seismic Network" insttype="" lat="37.17872" lon="21.92522">
		<comp name="--.HNE" depth="0.0">
			<acc value="0.00777029998668033" flag="0"/>
			<vel value="0.00403326637436349" flag="0"/>
			<psa03 value="0.0139595684649008" flag="0"/>
			<psa10 value="0.0052710793616986" flag="0"/>
			<psa30 value="0.00119461691670786" flag="0"/>
		</comp>
		<comp name="--.HNN" depth="0.0">
			<acc value="0.00919175076080383" flag="0"/>
			<vel value="0.00435836124115956" flag="0"/>
			<psa03 value="0.0159282255561047" flag="0"/>
			<psa10 value="0.00648314573898758" flag="0"/>
			<psa30 value="0.000850996769879529" flag="0"/>
		</comp>
		<comp name="--.HNZ" depth="0.0">
			<acc value="0.00517207856309799" flag="0"/>
			<vel value="0.00311123445527644" flag="0"/>
			<psa03 value="0.0135121463987181" flag="0"/>
			<psa10 value="0.0042482725184049" flag="0"/>
			<psa30 value="0.000698425845311222" flag="0"/>
		</comp>
	</station>
	<station code="JAN" name="JAN" netid="HL" source="National Observatory of Athens Seismic Network" insttype="" lat="39.65616" lon="20.84874">
		<comp name="00.HNE" depth="0.0">
			<acc value="0.00316997445116318" flag="0"/>
			<vel value="0.00265577326049909" flag="0"/>
			<psa03 value="0.00827730822438028" flag="0"/>
			<psa10 value="0.0038858606447969" flag="0"/>
			<psa30 value="0.000774487596562284" flag="0"/>
		</comp>
		<comp name="00.HNN" depth="0.0">
			<acc value="0.00230358485854713" flag="0"/>
			<vel value="0.00235975617573442" flag="0"/>
			<psa03 value="0.00859050367070818" flag="0"/>
			<psa10 value="0.00333821603578926" flag="0"/>
			<psa30 value="0.000563751803390224" flag="0"/>
		</comp>
		<comp name="00.HNZ" depth="0.0">
			<acc value="0.0017875572753683" flag="0"/>
			<vel value="0.00234919808637746" flag="0"/>
			<psa03 value="0.00599545568684842" flag="0"/>
			<psa10 value="0.00245232034474747" flag="0"/>
			<psa30 value="0.000794174167474324" flag="0"/>
		</comp>
	</station>
	<station code="KYMI" name="KYMI" netid="HL" source="National Observatory of Athens Seismic Network" insttype="" lat="38.633147" lon="24.100138">
		<comp name="--.HNE" depth="1.0">
			<acc value="0.00224613626155002" flag="0"/>
			<vel value="0.00248421370344237" flag="0"/>
			<psa03 value="0.00604019789346669" flag="0"/>
			<psa10 value="0.00559322324935015" flag="0"/>
			<psa30 value="0.00065860528142096" flag="0"/>
		</comp>
		<comp name="--.HNN" depth="1.0">
			<acc value="0.0022601494845433" flag="0"/>
			<vel value="0.0029619042089454" flag="0"/>
			<psa03 value="0.00577174465375706" flag="0"/>
			<psa10 value="0.00507779302910766" flag="0"/>
			<psa30 value="0.000518114752639587" flag="0"/>
		</comp>
		<comp name="--.HNZ" depth="1.0">
			<acc value="0.00134198753371877" flag="0"/>
			<vel value="0.00167677182638526" flag="0"/>
			<psa03 value="0.00492164272800989" flag="0"/>
			<psa10 value="0.00252882951806472" flag="0"/>
			<psa30 value="0.00083309988723222" flag="0"/>
		</comp>
	</station>
	<station code="MNVA" name="MNVA" netid="HL" source="National Observatory of Athens Seismic Network" insttype="" lat="36.68709" lon="23.03734">
		<comp name="00.HNE" depth="0.0">
			<acc value="0.00244822471151846" flag="0"/>
			<vel value="0.00234282232178972" flag="0"/>
			<psa03 value="0.00568226024052051" flag="0"/>
			<psa10 value="0.00483618511336899" flag="0"/>
			<psa30 value="0.000472925123955132" flag="0"/>
		</comp>
		<comp name="00.HNN" depth="0.0">
			<acc value="0.00117473222454159" flag="0"/>
			<vel value="0.00130830996580951" flag="0"/>
			<psa03 value="0.00272927460371458" flag="0"/>
			<psa10 value="0.00202145289501352" flag="0"/>
			<psa30 value="0.000377624223858214" flag="0"/>
		</comp>
		<comp name="00.HNZ" depth="0.0">
			<acc value="0.00128039041448714" flag="0"/>
			<vel value="0.00122416031114007" flag="0"/>
			<psa03 value="0.00344514990960693" flag="0"/>
			<psa10 value="0.00240802556019539" flag="0"/>
			<psa30 value="0.000293956297482045" flag="0"/>
		</comp>
	</station>
	<station code="NOAC" name="NOAC" netid="HL" source="National Observatory of Athens Seismic Network" insttype="" lat="37.97384" lon="23.71767">
		<comp name="00.HNE" depth="0.0">
			<acc value="0.0113630441591236" flag="0"/>
			<vel value="0.00585522457135254" flag="0"/>
			<psa03 value="0.0227737831687003" flag="0"/>
			<psa10 value="0.00881868892446136" flag="0"/>
			<psa30 value="0.000766433999370995" flag="0"/>
		</comp>
		<comp name="00.HNN" depth="0.0">
			<acc value="0.00650557611884766" flag="0"/>
			<vel value="0.00452552480278564" flag="0"/>
			<psa03 value="0.0117224581339872" flag="0"/>
			<psa10 value="0.0066844856687698" flag="0"/>
			<psa30 value="0.000581648686037533" flag="0"/>
		</comp>
		<comp name="00.HNZ" depth="0.0">
			<acc value="0.00434619569686158" flag="0"/>
			<vel value="0.00375445675757291" flag="0"/>
			<psa03 value="0.011364520481041" flag="0"/>
			<psa10 value="0.00570194681143255" flag="0"/>
			<psa30 value="0.000548986875206194" flag="0"/>
		</comp>
	</station>
