<?xml version="1.0" encoding="UTF-8" standalone="yes"?>
<!DOCTYPE earthquake SYSTEM "stationlist.dtd">
<stationlist created="" xmlns="ch.ethz.sed.shakemap.usgs.xml">
  <station code="AGRP" name="AGRP" netid="CL" insttype="CMG40-T" lat="38.3959" lon="21.7228">
    <comp name="00.HHE">
      <acc value="0.1353070757" flag="0"/>
      <vel value="0.0639702732" flag="0"/>
      <psa03 value="0.3653150123" flag="0"/>
      <psa10 value="0.0283919001" flag="0"/>
      <psa30 value="0.0044226163" flag="0"/>
    </comp>
    <comp name="00.HHN">
      <acc value="0.1132269715" flag="0"/>
      <vel value="0.0438710026" flag="0"/>
      <psa03 value="0.2476990789" flag="0"/>
      <psa10 value="0.0260647033" flag="0"/>
      <psa30 value="0.0065873775" flag="0"/>
    </comp>
    <comp name="00.HHZ">
      <acc value="0.1138421851" flag="0"/>
      <vel value="0.0295962666" flag="0"/>
      <psa03 value="0.1289619044" flag="0"/>
      <psa10 value="0.0204045616" flag="0"/>
      <psa30 value="0.0031640894" flag="0"/>
    </comp>
  </station>
  <station code="MALA" name="MALA" netid="CL" insttype="ES-T" lat="38.3934" lon="21.8726">
    <comp name="01.HNE">
      <acc value="1.2006771746" flag="0"/>
      <vel value="0.5926176700" flag="0"/>
      <psa03 value="3.1449685810" flag="0"/>
      <psa10 value="0.4557756882" flag="0"/>
      <psa30 value="0.0262536513" flag="0"/>
    </comp>
    <comp name="01.HNN">
      <acc value="1.6454951962" flag="0"/>
      <vel value="0.4164040288" flag="0"/>
      <psa03 value="1.1715397025" flag="0"/>
      <psa10 value="0.2776273239" flag="0"/>
      <psa30 value="0.0183126441" flag="0"/>
    </comp>
    <comp name="01.HNZ">
      <acc value="0.6169466272" flag="0"/>
      <vel value="0.1605030723" flag="0"/>
      <psa03 value="0.9700132757" flag="0"/>
      <psa10 value="0.1432614356" flag="0"/>
      <psa30 value="0.0154972506" flag="0"/>
    </comp>
  </station>
  <station code="MG00" name="MG00" netid="CL" insttype="TRILLIUM-40" lat="38.4145" lon="21.9467">
    <comp name="00.HHE">
      <acc value="3.4723301634" flag="0"/>
      <vel value="0.7349543005" flag="0"/>
      <psa03 value="1.6233255558" flag="0"/>
      <psa10 value="0.4323725718" flag="0"/>
      <psa30 value="0.0651585112" flag="0"/>
    </comp>
    <comp name="00.HHN">
      <acc value="3.5716150693" flag="0"/>
      <vel value="0.5668527377" flag="0"/>
      <psa03 value="4.3128597775" flag="0"/>
      <psa10 value="0.6600049951" flag="0"/>
      <psa30 value="0.0745928340" flag="0"/>
    </comp>
    <comp name="00.HHZ">
      <acc value="3.5875163095" flag="0"/>
      <vel value="0.4798188028" flag="0"/>
      <psa03 value="2.9870243781" flag="0"/>
      <psa10 value="0.4851845294" flag="0"/>
      <psa30 value="0.0227404491" flag="0"/>
    </comp>
  </station>
  <station code="MG02" name="MG02" netid="CL" insttype="TRILLIUM-40" lat="38.415" lon="21.947">
    <comp name="02.HHE">
      <acc value="2.7090921095" flag="0"/>
      <vel value="0.7210937866" flag="0"/>
      <psa03 value="2.0622892122" flag="0"/>
      <psa10 value="0.4462561075" flag="0"/>
      <psa30 value="0.0886884359" flag="0"/>
    </comp>
    <comp name="02.HHN">
      <acc value="3.0412063470" flag="0"/>
      <vel value="0.7226391554" flag="0"/>
      <psa03 value="3.4970264425" flag="0"/>
      <psa10 value="0.6442166001" flag="0"/>
      <psa30 value="0.0734341931" flag="0"/>
    </comp>
    <comp name="02.HHZ">
      <acc value="2.7643078226" flag="0"/>
      <vel value="0.5948487648" flag="0"/>
      <psa03 value="2.1090901582" flag="0"/>
      <psa10 value="0.7690842481" flag="0"/>
      <psa30 value="0.0983997898" flag="0"/>
    </comp>
  </station>
  <station code="MG03" name="MG03" netid="CL" insttype="TRILLIUM-40" lat="38.4141" lon="21.946">
    <comp name="03.HHE">
      <acc value="4.2048750050" flag="0"/>
      <vel value="0.6213227785" flag="0"/>
      <psa03 value="2.7767065445" flag="0"/>
      <psa10 value="0.3162093777" flag="0"/>
      <psa30 value="0.0309908683" flag="0"/>
    </comp>
    <comp name="03.HHN">
      <acc value="1.2312785827" flag="0"/>
      <vel value="0.2910573606" flag="0"/>
      <psa03 value="2.3521689768" flag="0"/>
      <psa10 value="0.2000331413" flag="0"/>
      <psa30 value="0.0373805224" flag="0"/>
    </comp>
    <comp name="03.HHZ">
      <acc value="3.8651448379" flag="0"/>
      <vel value="0.4391123248" flag="0"/>
      <psa03 value="2.1155238359" flag="0"/>
      <psa10 value="0.3829968374" flag="0"/>
      <psa30 value="0.0693820924" flag="0"/>
    </comp>
  </station>
  <station code="MG04" name="MG04" netid="CL" insttype="TRILLIUM-40" lat="38.4142" lon="21.9481">
    <comp name="04.HHE">
      <acc value="3.5193441822" flag="0"/>
      <vel value="0.6365632837" flag="0"/>
      <psa03 value="1.9443689624" flag="0"/>
      <psa10 value="0.4570482811" flag="0"/>
      <psa30 value="0.0354799568" flag="0"/>
    </comp>
    <comp name="04.HHN">
      <acc value="3.0716882063" flag="0"/>
      <vel value="0.6595297451" flag="0"/>
      <psa03 value="3.8205035269" flag="0"/>
      <psa10 value="0.3081009956" flag="0"/>
      <psa30 value="0.0752059609" flag="0"/>
    </comp>
    <comp name="04.HHZ">
      <acc value="2.7550169366" flag="0"/>
      <vel value="0.3317531610" flag="0"/>
      <psa03 value="1.8204815150" flag="0"/>
      <psa10 value="0.1185336465" flag="0"/>
      <psa30 value="0.0307826441" flag="0"/>
    </comp>
  </station>
  <station code="MG05" name="MG05" netid="CL" insttype="CMG40-T" lat="38.4155" lon="21.9458">
    <comp name="05.HHE">
      <acc value="6.8745304133" flag="0"/>
      <vel value="1.1623771624" flag="0"/>
      <psa03 value="10.1187026735" flag="0"/>
      <psa10 value="0.7672596246" flag="0"/>
      <psa30 value="0.1332139259" flag="0"/>
    </comp>
    <comp name="05.HHN">
      <acc value="5.0427153334" flag="0"/>
      <vel value="1.3370032604" flag="0"/>
      <psa03 value="8.3074238031" flag="0"/>
      <psa10 value="0.9454611439" flag="0"/>
      <psa30 value="0.0984239451" flag="0"/>
    </comp>
    <comp name="05.HHZ">
      <acc value="3.0299520070" flag="0"/>
      <vel value="0.7980375253" flag="0"/>
      <psa03 value="2.9345587646" flag="0"/>
      <psa10 value="0.4233247111" flag="0"/>
      <psa30 value="0.1841174903" flag="0"/>
    </comp>
  </station>
  <station code="MG06" name="MG06" netid="CL" insttype="TRILLIUM-40" lat="38.4129" lon="21.9462">
    <comp name="06.HHE">
      <acc value="2.6308851351" flag="0"/>
      <vel value="0.5075532002" flag="0"/>
      <psa03 value="3.7800538481" flag="0"/>
      <psa10 value="0.1554088830" flag="0"/>
      <psa30 value="0.0450507110" flag="0"/>
    </comp>
    <comp name="06.HHN">
      <acc value="2.7190348783" flag="0"/>
      <vel value="0.6532759814" flag="0"/>
      <psa03 value="2.6902428386" flag="0"/>
      <psa10 value="0.2639446003" flag="0"/>
      <psa30 value="0.0402994928" flag="0"/>
    </comp>
    <comp name="06.HHZ">
      <acc value="2.4474983399" flag="0"/>
      <vel value="0.3831620446" flag="0"/>
      <psa03 value="1.6993699772" flag="0"/>
      <psa10 value="0.2112354198" flag="0"/>
      <psa30 value="0.0386061279" flag="0"/>
    </comp>
  </station>
  <station code="MG07" name="MG07" netid="CL" insttype="TRILLIUM-40" lat="38.4155" lon="21.9488">
    <comp name="07.HHE">
      <acc value="3.7987306839" flag="0"/>
      <vel value="0.6388488843" flag="0"/>
      <psa03 value="2.2292605183" flag="0"/>
      <psa10 value="0.6950227055" flag="0"/>
      <psa30 value="0.0903670382" flag="0"/>
    </comp>
    <comp name="07.HHN">
      <acc value="3.6613847359" flag="0"/>
      <vel value="0.5699862271" flag="0"/>
      <psa03 value="3.7981184066" flag="0"/>
      <psa10 value="0.3287376122" flag="0"/>
      <psa30 value="0.0318841842" flag="0"/>
    </comp>
    <comp name="07.HHZ">
      <acc value="3.5851305145" flag="0"/>
      <vel value="0.5929700894" flag="0"/>
      <psa03 value="4.5832584303" flag="0"/>
      <psa10 value="0.4543787926" flag="0"/>
      <psa30 value="0.0579507604" flag="0"/>
    </comp>
  </station>
  <station code="TRIZ" name="TRIZ" netid="CL" insttype="STS-2" lat="38.3654" lon="22.0727">
    <comp name="00.HH2">
      <acc value="0.1302743805" flag="0"/>
      <vel value="0.0103446078" flag="0"/>
      <psa03 value="0.0157155319" flag="0"/>
      <psa10 value="0.0006556326" flag="0"/>
      <psa30 value="0.0000698733" flag="0"/>
    </comp>
    <comp name="00.HH3">
      <acc value="0.0813726552" flag="0"/>
      <vel value="0.0076532520" flag="0"/>
      <psa03 value="0.0260171440" flag="0"/>
      <psa10 value="0.0007383079" flag="0"/>
      <psa30 value="0.0000746060" flag="0"/>
    </comp>
    <comp name="00.HHZ">
      <acc value="0.0944471470" flag="0"/>
      <vel value="0.0080904755" flag="0"/>
      <psa03 value="0.0211545317" flag="0"/>
      <psa10 value="0.0011801137" flag="0"/>
      <psa30 value="0.0000788002" flag="0"/>
    </comp>
  </station>
  <station code="ACOR" name="ACOR" netid="HA" insttype="30" lat="37.8902" lon="22.8692">
    <comp name="--.HHN">
      <acc value="0.0353458926" flag="0"/>
      <vel value="0.0197119062" flag="0"/>
      <psa03 value="0.0772712039" flag="0"/>
      <psa10 value="0.0252634038" flag="0"/>
      <psa30 value="0.0033998260" flag="0"/>
    </comp>
    <comp name="--.HHE">
      <acc value="0.0111099658" flag="0"/>
      <vel value="0.0045121567" flag="0"/>
      <psa03 value="0.0183921721" flag="0"/>
      <psa10 value="0.0059446148" flag="0"/>
      <psa30 value="0.0008290401" flag="0"/>
    </comp>
    <comp name="--.HHZ">
      <acc value="0.0057807518" flag="0"/>
      <vel value="0.0031884594" flag="0"/>
      <psa03 value="0.0168900344" flag="0"/>
      <psa10 value="0.0035006017" flag="0"/>
      <psa30 value="0.0006207587" flag="0"/>
    </comp>
  </station>
  <station code="KALE" name="KALE" netid="HA" insttype="40," lat="38.3911" lon="22.1398">
    <comp name="--.HHN">
      <acc value="1.0602652843" flag="0"/>
      <vel value="0.4827193209" flag="0"/>
      <psa03 value="1.5198483936" flag="0"/>
      <psa10 value="0.2896131976" flag="0"/>
      <psa30 value="0.0246647865" flag="0"/>
    </comp>
    <comp name="--.HHE">
      <acc value="1.5852011364" flag="0"/>
      <vel value="0.5393880069" flag="0"/>
      <psa03 value="1.7295840244" flag="0"/>
      <psa10 value="0.2515096335" flag="0"/>
      <psa30 value="0.0240606985" flag="0"/>
    </comp>
    <comp name="--.HHZ">
      <acc value="0.7739380021" flag="0"/>
      <vel value="0.2923284677" flag="0"/>
      <psa03 value="1.7832091796" flag="0"/>
      <psa10 value="0.1120978922" flag="0"/>
      <psa30 value="0.0121290614" flag="0"/>
    </comp>
  </station>
  <station code="LAKA" name="LAKA" netid="HA" insttype="120s" lat="38.2401" lon="21.9785">
    <comp name="--.HHE">
      <acc value="0.2722004349" flag="0"/>
      <vel value="0.0467541750" flag="0"/>
      <psa03 value="0.2382482562" flag="0"/>
      <psa10 value="0.0465426656" flag="0"/>
      <psa30 value="0.0040165168" flag="0"/>
    </comp>
    <comp name="--.HHZ">
      <acc value="0.2114640417" flag="0"/>
      <vel value="0.0602836068" flag="0"/>
      <psa03 value="0.3364172148" flag="0"/>
      <psa10 value="0.0411534924" flag="0"/>
      <psa30 value="0.0103682788" flag="0"/>
    </comp>
    <comp name="--.HHN">
      <acc value="0.3640491683" flag="0"/>
      <vel value="0.0575060030" flag="0"/>
      <psa03 value="0.2615138537" flag="0"/>
      <psa10 value="0.0414236553" flag="0"/>
      <psa30 value="0.0103681634" flag="0"/>
    </comp>
  </station>
  <station code="VILL" name="VILL" netid="HA" insttype="30" lat="38.1642" lon="23.3122">
    <comp name="--.HHN">
      <acc value="0.0223359270" flag="0"/>
      <vel value="0.0184604831" flag="0"/>
      <psa03 value="0.0566424996" flag="0"/>
      <psa10 value="0.0231803070" flag="0"/>
      <psa30 value="0.0016473220" flag="0"/>
    </comp>
    <comp name="--.HHE">
      <acc value="0.0329884514" flag="0"/>
      <vel value="0.0268733422" flag="0"/>
      <psa03 value="0.0706371414" flag="0"/>
      <psa10 value="0.0376990034" flag="0"/>
      <psa30 value="0.0024016902" flag="0"/>
    </comp>
    <comp name="--.HHZ">
      <acc value="0.0131227876" flag="0"/>
      <vel value="0.0106859567" flag="0"/>
      <psa03 value="0.0343511517" flag="0"/>
      <psa10 value="0.0192260755" flag="0"/>
      <psa30 value="0.0010443793" flag="0"/>
    </comp>
  </station>
  <station code="KLV1" name="KLV1" netid="HI" insttype="CMG-5TD,ACCELEROMETER,GURALP" lat="38.0326" lon="22.108">
    <comp name="--.HNN">
      <acc value="0.2007002854" flag="0"/>
      <vel value="0.0812073669" flag="0"/>
      <psa03 value="0.4095791526" flag="0"/>
      <psa10 value="0.0580945560" flag="0"/>
      <psa30 value="0.0034313795" flag="0"/>
    </comp>
    <comp name="--.HNZ">
      <acc value="0.1536404071" flag="0"/>
      <vel value="0.0363040177" flag="0"/>
      <psa03 value="0.1446697577" flag="0"/>
      <psa10 value="0.0259152654" flag="0"/>
      <psa30 value="0.0025235400" flag="0"/>
    </comp>
    <comp name="--.HNE">
      <acc value="0.2641409677" flag="0"/>
      <vel value="0.0823865235" flag="0"/>
      <psa03 value="0.3024642217" flag="0"/>
      <psa10 value="0.0387787690" flag="0"/>
      <psa30 value="0.0032525384" flag="0"/>
    </comp>
  </station>
  <station code="LAM2" name="LAM2" netid="HI" insttype="CMG-5TD,ACCELEROMETER,GURALP" lat="38.902" lon="22.4313">
    <comp name="--.HNE">
      <acc value="0.0406185167" flag="0"/>
      <vel value="0.0157230106" flag="0"/>
      <psa03 value="0.0724021774" flag="0"/>
      <psa10 value="0.0117884187" flag="0"/>
      <psa30 value="0.0038664649" flag="0"/>
    </comp>
    <comp name="--.HNN">
      <acc value="0.0383523446" flag="0"/>
      <vel value="0.0149429143" flag="0"/>
      <psa03 value="0.0951467078" flag="0"/>
      <psa10 value="0.0092563775" flag="0"/>
      <psa30 value="0.0021022272" flag="0"/>
    </comp>
    <comp name="--.HNZ">
      <acc value="0.0297738158" flag="0"/>
      <vel value="0.0090904657" flag="0"/>
      <psa03 value="0.0361182001" flag="0"/>
      <psa10 value="0.0120246902" flag="0"/>
      <psa30 value="0.0021499150" flag="0"/>
    </comp>
  </station>
  <station code="MSL1" name="MSL1" netid="HI" insttype="CMG-5TD,ACCELEROMETER,GURALP" lat="38.3727" lon="21.4243">
    <comp name="--.HNE">
      <acc value="0.1131893583" flag="0"/>
      <vel value="0.0512160169" flag="0"/>
      <psa03 value="0.5350979574" flag="0"/>
      <psa10 value="0.0548483505" flag="0"/>
      <psa30 value="0.0055389799" flag="0"/>
    </comp>
    <comp name="--.HNN">
      <acc value="0.0782386542" flag="0"/>
      <vel value="0.0565567854" flag="0"/>
      <psa03 value="0.2674252059" flag="0"/>
      <psa10 value="0.0383854437" flag="0"/>
      <psa30 value="0.0032672554" flag="0"/>
    </comp>
    <comp name="--.HNZ">
      <acc value="0.0561747743" flag="0"/>
      <vel value="0.0245299549" flag="0"/>
      <psa03 value="0.1231770656" flag="0"/>
      <psa10 value="0.0337451722" flag="0"/>
      <psa30 value="0.0020655932" flag="0"/>
    </comp>
  </station>
  <station code="DLFA" name="DLFA" netid="HL" insttype="CMG-5" lat="38.4784" lon="22.4958">
    <comp name="00.HNE">
      <acc value="0.2758350222" flag="0"/>
      <vel value="0.1035197337" flag="0"/>
      <psa03 value="0.5486274003" flag="0"/>
      <psa10 value="0.0698089633" flag="0"/>
      <psa30 value="0.0028732236" flag="0"/>
    </comp>
    <comp name="00.HNN">
      <acc value="0.2952203245" flag="0"/>
      <vel value="0.1160130047" flag="0"/>
      <psa03 value="0.5550458971" flag="0"/>
      <psa10 value="0.0651469543" flag="0"/>
      <psa30 value="0.0046885618" flag="0"/>
    </comp>
    <comp name="00.HNZ">
      <acc value="0.2265959051" flag="0"/>
      <vel value="0.0566206563" flag="0"/>
      <psa03 value="0.3251006574" flag="0"/>
      <psa10 value="0.0217151271" flag="0"/>
      <psa30 value="0.0024986741" flag="0"/>
    </comp>
  </station>
  <station code="EVR" name="EVR" netid="HL" insttype="DR24" lat="38.9166" lon="21.8105">
    <comp name="--.HHE">
      <acc value="0.0846923988" flag="0"/>
      <vel value="0.0344920960" flag="0"/>
      <psa03 value="0.1033466265" flag="0"/>
      <psa10 value="0.0246797351" flag="0"/>
      <psa30 value="0.0028782859" flag="0"/>
    </comp>
    <comp name="--.HHN">
      <acc value="0.0764427357" flag="0"/>
      <vel value="0.0385887157" flag="0"/>
      <psa03 value="0.1102630970" flag="0"/>
      <psa10 value="0.0186992625" flag="0"/>
      <psa30 value="0.0038989179" flag="0"/>
    </comp>
    <comp name="--.HHZ">
      <acc value="0.0463119865" flag="0"/>
      <vel value="0.0218903676" flag="0"/>
      <psa03 value="0.0926172352" flag="0"/>
      <psa10 value="0.0221126299" flag="0"/>
      <psa30 value="0.0033697184" flag="0"/>
    </comp>
  </station>
  <station code="KLV" name="KLV" netid="HL" insttype="120" lat="38.0435" lon="22.1504">
    <comp name="--.HHZ">
      <acc value="0.1069878934" flag="0"/>
      <vel value="0.0257463467" flag="0"/>
      <psa03 value="0.0670898872" flag="0"/>
      <psa10 value="0.0193898494" flag="0"/>
      <psa30 value="0.0024840478" flag="0"/>
    </comp>
    <comp name="--.HHN">
      <acc value="0.1065554813" flag="0"/>
      <vel value="0.0226746685" flag="0"/>
      <psa03 value="0.0964916522" flag="0"/>
      <psa10 value="0.0196634211" flag="0"/>
      <psa30 value="0.0020579274" flag="0"/>
    </comp>
    <comp name="--.HHE">
      <acc value="0.1194661740" flag="0"/>
      <vel value="0.0259310030" flag="0"/>
      <psa03 value="0.0964873632" flag="0"/>
      <psa10 value="0.0177128620" flag="0"/>
      <psa30 value="0.0015066101" flag="0"/>
    </comp>
  </station>
  <station code="LKR" name="LKR" netid="HL" insttype="30" lat="38.6496" lon="22.9989">
    <comp name="--.HHN">
      <acc value="0.0582202549" flag="0"/>
      <vel value="0.0196617216" flag="0"/>
      <psa03 value="0.1124937187" flag="0"/>
      <psa10 value="0.0139465705" flag="0"/>
      <psa30 value="0.0017485639" flag="0"/>
    </comp>
    <comp name="--.HHE">
      <acc value="0.0805326636" flag="0"/>
      <vel value="0.0252714773" flag="0"/>
      <psa03 value="0.1330262994" flag="0"/>
      <psa10 value="0.0102085936" flag="0"/>
      <psa30 value="0.0016941918" flag="0"/>
    </comp>
    <comp name="--.HHZ">
      <acc value="0.0414095220" flag="0"/>
      <vel value="0.0109247236" flag="0"/>
      <psa03 value="0.0690761859" flag="0"/>
      <psa10 value="0.0074558906" flag="0"/>
      <psa30 value="0.0008141645" flag="0"/>
    </comp>
  </station>
  <station code="PATC" name="PATC" netid="HL" insttype="CMG-5" lat="38.2693" lon="21.76">
    <comp name="00.HNZ">
      <acc value="0.2959300202" flag="0"/>
      <vel value="0.1073631359" flag="0"/>
      <psa03 value="0.4601910221" flag="0"/>
      <psa10 value="0.0673432714" flag="0"/>
      <psa30 value="0.0117526303" flag="0"/>
    </comp>
    <comp name="00.HNE">
      <acc value="0.3286197514" flag="0"/>
      <vel value="0.1556711507" flag="0"/>
      <psa03 value="0.6204172428" flag="0"/>
      <psa10 value="0.0846380188" flag="0"/>
      <psa30 value="0.0189712704" flag="0"/>
    </comp>
    <comp name="00.HNN">
      <acc value="0.3867930975" flag="0"/>
      <vel value="0.1642002471" flag="0"/>
      <psa03 value="0.7557109146" flag="0"/>
      <psa10 value="0.0823376250" flag="0"/>
      <psa30 value="0.0128536919" flag="0"/>
    </comp>
  </station>
  <station code="PATG" name="PATG" netid="HL" insttype="CMG-5" lat="38.2386" lon="21.7266">
    <comp name="00.HNN">
      <acc value="0.2677079392" flag="0"/>
      <vel value="0.1138041311" flag="0"/>
      <psa03 value="0.6547247720" flag="0"/>
      <psa10 value="0.1353170658" flag="0"/>
      <psa30 value="0.0280334348" flag="0"/>
    </comp>
    <comp name="00.HNE">
