<?xml version="1.0" encoding="UTF-8" standalone="yes"?>
<!DOCTYPE earthquake SYSTEM "stationlist.dtd">
<stationlist created="" xmlns="ch.ethz.sed.shakemap.usgs.xml">
  <station code="CEYT" name="CEYT" netid="KO" insttype="CMG-3ESP" lat="37.0105" lon="35.7478">
    <comp name="--.HHZ">
      <acc value="0.0199668613" flag="0"/>
      <vel value="0.0072521881" flag="0"/>
      <psa03 value="0.0399110547" flag="0"/>
      <psa10 value="0.0048914910" flag="0"/>
      <psa30 value="0.0003930213" flag="0"/>
    </comp>
    <comp name="--.HHE">
      <acc value="0.0275734830" flag="0"/>
      <vel value="0.0097298164" flag="0"/>
      <psa03 value="0.0843823912" flag="0"/>
      <psa10 value="0.0047000898" flag="0"/>
      <psa30 value="0.0003555514" flag="0"/>
    </comp>
    <comp name="--.HHN">
      <acc value="0.0342578765" flag="0"/>
      <vel value="0.0184632951" flag="0"/>
      <psa03 value="0.0968089476" flag="0"/>
      <psa10 value="0.0075081805" flag="0"/>
      <psa30 value="0.0008091020" flag="0"/>
    </comp>
  </station>
  <station code="CMRD" name="CMRD" netid="KO" insttype="CMG-5T" lat="37.6623" lon="34.9902">
    <comp name="--.HNE">
      <acc value="0.0342159069" flag="0"/>
      <vel value="0.0060262267" flag="0"/>
      <psa03 value="0.0207355159" flag="0"/>
      <psa10 value="0.0043132708" flag="0"/>
      <psa30 value="0.0003309410" flag="0"/>
    </comp>
    <comp name="--.HNZ">
      <acc value="0.0353186210" flag="0"/>
      <vel value="0.0044460994" flag="0"/>
      <psa03 value="0.0244249358" flag="0"/>
      <psa10 value="0.0029972447" flag="0"/>
      <psa30 value="0.0002832183" flag="0"/>
    </comp>
    <comp name="--.HNN">
      <acc value="0.0344127106" flag="0"/>
      <vel value="0.0057440471" flag="0"/>
      <psa03 value="0.0225997982" flag="0"/>
      <psa10 value="0.0031510317" flag="0"/>
      <psa30 value="0.0002123227" flag="0"/>
    </comp>
  </station>
  <station code="IKL" name="IKL" netid="KO" insttype="CMG-3ESPC" lat="36.2366" lon="33.6845">
    <comp name="--.HHE">
      <acc value="0.0316881435" flag="0"/>
      <vel value="0.0085965018" flag="0"/>
      <psa03 value="0.0520834921" flag="0"/>
      <psa10 value="0.0026855883" flag="0"/>
      <psa30 value="0.0002175472" flag="0"/>
    </comp>
    <comp name="--.HHZ">
      <acc value="0.0319618078" flag="0"/>
      <vel value="0.0077517606" flag="0"/>
      <psa03 value="0.0343001150" flag="0"/>
      <psa10 value="0.0032866011" flag="0"/>
      <psa30 value="0.0001866189" flag="0"/>
    </comp>
    <comp name="--.HHN">
      <acc value="0.0308417929" flag="0"/>
      <vel value="0.0055387631" flag="0"/>
      <psa03 value="0.0440491301" flag="0"/>
      <psa10 value="0.0025633905" flag="0"/>
      <psa30 value="0.0002025420" flag="0"/>
    </comp>
  </station>
  <station code="KRMN" name="KRMN" netid="KO" insttype="CMG-5T" lat="37.174" lon="33.2636">
    <comp name="--.HNE">
      <acc value="0.0473171867" flag="0"/>
      <vel value="0.0123743132" flag="0"/>
      <psa03 value="0.0417280358" flag="0"/>
      <psa10 value="0.0118873933" flag="0"/>
      <psa30 value="0.0007690950" flag="0"/>
    </comp>
    <comp name="--.HNN">
      <acc value="0.0428858959" flag="0"/>
      <vel value="0.0121491323" flag="0"/>
      <psa03 value="0.0376814528" flag="0"/>
      <psa10 value="0.0093947615" flag="0"/>
      <psa30 value="0.0007115855" flag="0"/>
    </comp>
    <comp name="--.HNZ">
      <acc value="0.0288642736" flag="0"/>
      <vel value="0.0077353762" flag="0"/>
      <psa03 value="0.0406815846" flag="0"/>
      <psa10 value="0.0061938802" flag="0"/>
      <psa30 value="0.0003302714" flag="0"/>
    </comp>
  </station>
  <station code="MERS" name="MERS" netid="KO" insttype="CMG-3T" lat="36.8678" lon="34.522">
    <comp name="--.HHZ">
      <acc value="0.4238150582" flag="0"/>
      <vel value="0.1507723039" flag="0"/>
      <psa03 value="0.5393013344" flag="0"/>
      <psa10 value="0.0515736099" flag="0"/>
      <psa30 value="0.0042377272" flag="0"/>
    </comp>
    <comp name="--.HHE">
      <acc value="0.5861005392" flag="0"/>
      <vel value="0.2251679589" flag="0"/>
      <psa03 value="0.9467053607" flag="0"/>
      <psa10 value="0.2023073377" flag="0"/>
      <psa30 value="0.0126673522" flag="0"/>
    </comp>
    <comp name="--.HHN">
      <acc value="0.6650224021" flag="0"/>
      <vel value="0.2612891938" flag="0"/>
      <psa03 value="1.3258566276" flag="0"/>
      <psa10 value="0.1514341133" flag="0"/>
      <psa30 value="0.0091663059" flag="0"/>
    </comp>
  </station>
  <station code="SLFK" name="SLFK" netid="KO" insttype="CMG-5T" lat="36.3925" lon="33.9464">
    <comp name="--.HNN">
      <acc value="0.1278045232" flag="0"/>
      <vel value="0.0236829266" flag="0"/>
      <psa03 value="0.0803961200" flag="0"/>
      <psa10 value="0.0064278496" flag="0"/>
      <psa30 value="0.0005044459" flag="0"/>
    </comp>
    <comp name="--.HNE">
      <acc value="0.1267168137" flag="0"/>
      <vel value="0.0256630168" flag="0"/>
      <psa03 value="0.1387623724" flag="0"/>
      <psa10 value="0.0077966964" flag="0"/>
      <psa30 value="0.0006662050" flag="0"/>
    </comp>
    <comp name="--.HNZ">
      <acc value="0.1000496470" flag="0"/>
      <vel value="0.0155157653" flag="0"/>
      <psa03 value="0.0990386283" flag="0"/>
      <psa10 value="0.0099361250" flag="0"/>
      <psa30 value="0.0005280187" flag="0"/>
    </comp>
  </station>
  <station code="YESY" name="YESY" netid="KO" insttype="CMG-6T" lat="37.7825" lon="33.7431">
    <comp name="--.HHZ">
      <acc value="0.0102081573" flag="0"/>
      <vel value="0.0039818329" flag="0"/>
      <psa03 value="0.0179275686" flag="0"/>
      <psa10 value="0.0041933356" flag="0"/>
      <psa30 value="0.0003042356" flag="0"/>
    </comp>
    <comp name="--.HHN">
      <acc value="0.0134124173" flag="0"/>
      <vel value="0.0058407403" flag="0"/>
      <psa03 value="0.0217618214" flag="0"/>
      <psa10 value="0.0073304115" flag="0"/>
      <psa30 value="0.0003460992" flag="0"/>
    </comp>
    <comp name="--.HHE">
      <acc value="0.0115408722" flag="0"/>
      <vel value="0.0046592725" flag="0"/>
      <psa03 value="0.0203930102" flag="0"/>
      <psa10 value="0.0046330119" flag="0"/>
      <psa30 value="0.0003108378" flag="0"/>
    </comp>
  </station>
</stationlist>
