<?xml version="1.0" encoding="UTF-8" standalone="yes"?>
<!DOCTYPE earthquake SYSTEM "stationlist.dtd">
<stationlist created="" xmlns="ch.ethz.sed.shakemap.usgs.xml">
  <station code="CEYT" name="CEYT" netid="KO" insttype="CMG-3ESP" lat="37.0105" lon="35.7478">
    <comp name="--.HHE">
      <acc value="0.0275734831" flag="0"/>
      <vel value="0.0097298160" flag="0"/>
      <psa03 value="0.0843823912" flag="0"/>
      <psa10 value="0.0047000898" flag="0"/>
      <psa30 value="0.0003555607" flag="0"/>
    </comp>
    <comp name="--.HHN">
      <acc value="0.0342578766" flag="0"/>
      <vel value="0.0184632959" flag="0"/>
      <psa03 value="0.0968089476" flag="0"/>
      <psa10 value="0.0075081806" flag="0"/>
      <psa30 value="0.0008091269" flag="0"/>
    </comp>
    <comp name="--.HHZ">
      <acc value="0.0199668613" flag="0"/>
      <vel value="0.0072521884" flag="0"/>
      <psa03 value="0.0399110547" flag="0"/>
      <psa10 value="0.0048914910" flag="0"/>
      <psa30 value="0.0003929866" flag="0"/>
    </comp>
  </station>
  <station code="CMRD" name="CMRD" netid="KO" insttype="CMG-5T" lat="37.6623" lon="34.9902">
    <comp name="--.HNE">
      <acc value="0.0342159046" flag="0"/>
      <vel value="0.0060262303" flag="0"/>
      <psa03 value="0.0207355159" flag="0"/>
      <psa10 value="0.0043132708" flag="0"/>
      <psa30 value="0.0003311799" flag="0"/>
    </comp>
    <comp name="--.HNN">
      <acc value="0.0344127113" flag="0"/>
      <vel value="0.0057440469" flag="0"/>
      <psa03 value="0.0225997982" flag="0"/>
      <psa10 value="0.0031510317" flag="0"/>
      <psa30 value="0.0002122099" flag="0"/>
    </comp>
    <comp name="--.HNZ">
      <acc value="0.0353186196" flag="0"/>
      <vel value="0.0044461015" flag="0"/>
      <psa03 value="0.0244249358" flag="0"/>
      <psa10 value="0.0029972447" flag="0"/>
      <psa30 value="0.0002825175" flag="0"/>
    </comp>
  </station>
  <station code="IKL" name="IKL" netid="KO" insttype="CMG-3ESPC" lat="36.2366" lon="33.6845">
    <comp name="--.HHN">
      <acc value="0.0308417925" flag="0"/>
      <vel value="0.0055387629" flag="0"/>
      <psa03 value="0.0440491301" flag="0"/>
      <psa10 value="0.0025633905" flag="0"/>
      <psa30 value="0.0002025153" flag="0"/>
    </comp>
    <comp name="--.HHE">
      <acc value="0.0316881437" flag="0"/>
      <vel value="0.0085965013" flag="0"/>
      <psa03 value="0.0520834921" flag="0"/>
      <psa10 value="0.0026855883" flag="0"/>
      <psa30 value="0.0002175842" flag="0"/>
    </comp>
    <comp name="--.HHZ">
      <acc value="0.0319618077" flag="0"/>
      <vel value="0.0077517605" flag="0"/>
      <psa03 value="0.0343001150" flag="0"/>
      <psa10 value="0.0032866011" flag="0"/>
      <psa30 value="0.0001866201" flag="0"/>
    </comp>
  </station>
  <station code="KRMN" name="KRMN" netid="KO" insttype="CMG-5T" lat="37.174" lon="33.2636">
    <comp name="--.HNE">
      <acc value="0.0473171878" flag="0"/>
      <vel value="0.0123743139" flag="0"/>
      <psa03 value="0.0417280358" flag="0"/>
      <psa10 value="0.0118873933" flag="0"/>
      <psa30 value="0.0007705337" flag="0"/>
    </comp>
    <comp name="--.HNN">
      <acc value="0.0428859015" flag="0"/>
      <vel value="0.0121491329" flag="0"/>
      <psa03 value="0.0376814528" flag="0"/>
      <psa10 value="0.0093947615" flag="0"/>
      <psa30 value="0.0007114576" flag="0"/>
    </comp>
    <comp name="--.HNZ">
      <acc value="0.0288642754" flag="0"/>
      <vel value="0.0077353775" flag="0"/>
      <psa03 value="0.0406815846" flag="0"/>
      <psa10 value="0.0061938802" flag="0"/>
      <psa30 value="0.0003309214" flag="0"/>
    </comp>
  </station>
  <station code="MERS" name="MERS" netid="KO" insttype="CMG-3T" lat="36.8678" lon="34.522">
    <comp name="--.HHZ">
      <acc value="0.4238150584" flag="0"/>
      <vel value="0.1507723038" flag="0"/>
      <psa03 value="0.5393013344" flag="0"/>
      <psa10 value="0.0515736087" flag="0"/>
      <psa30 value="0.0042376995" flag="0"/>
    </comp>
    <comp name="--.HHN">
      <acc value="0.6650224018" flag="0"/>
      <vel value="0.2612891937" flag="0"/>
      <psa03 value="1.3258566276" flag="0"/>
      <psa10 value="0.1514341237" flag="0"/>
      <psa30 value="0.0091663005" flag="0"/>
    </comp>
    <comp name="--.HHE">
      <acc value="0.5861005393" flag="0"/>
      <vel value="0.2251679584" flag="0"/>
      <psa03 value="0.9467053607" flag="0"/>
      <psa10 value="0.2023073369" flag="0"/>
      <psa30 value="0.0126673131" flag="0"/>
    </comp>
  </station>
  <station code="SLFK" name="SLFK" netid="KO" insttype="CMG-5T" lat="36.3925" lon="33.9464">
    <comp name="--.HNN">
      <acc value="0.1278045188" flag="0"/>
      <vel value="0.0236828979" flag="0"/>
      <psa03 value="0.0803961200" flag="0"/>
      <psa10 value="0.0064278484" flag="0"/>
      <psa30 value="0.0004962214" flag="0"/>
    </comp>
    <comp name="--.HNE">
      <acc value="0.1267168178" flag="0"/>
      <vel value="0.0256630185" flag="0"/>
      <psa03 value="0.1387623724" flag="0"/>
      <psa10 value="0.0077966944" flag="0"/>
      <psa30 value="0.0006654355" flag="0"/>
    </comp>
    <comp name="--.HNZ">
      <acc value="0.1000496726" flag="0"/>
      <vel value="0.0155157809" flag="0"/>
      <psa03 value="0.0990386283" flag="0"/>
      <psa10 value="0.0099361240" flag="0"/>
      <psa30 value="0.0005277079" flag="0"/>
    </comp>
  </station>
  <station code="YESY" name="YESY" netid="KO" insttype="CMG-6T" lat="37.7825" lon="33.7431">
    <comp name="--.HHE">
      <acc value="0.0115408713" flag="0"/>
      <vel value="0.0046592704" flag="0"/>
      <psa03 value="0.0203930102" flag="0"/>
      <psa10 value="0.0046330119" flag="0"/>
      <psa30 value="0.0003108365" flag="0"/>
    </comp>
    <comp name="--.HHZ">
      <acc value="0.0102081563" flag="0"/>
      <vel value="0.0039818332" flag="0"/>
      <psa03 value="0.0179275686" flag="0"/>
      <psa10 value="0.0041933356" flag="0"/>
      <psa30 value="0.0003042316" flag="0"/>
    </comp>
    <comp name="--.HHN">
      <acc value="0.0134124144" flag="0"/>
      <vel value="0.0058407400" flag="0"/>
      <psa03 value="0.0217618214" flag="0"/>
      <psa10 value="0.0073304115" flag="0"/>
      <psa30 value="0.0003460914" flag="0"/>
    </comp>
  </station>
</stationlist>
