<?xml version="1.0" encoding="UTF-8" standalone="yes"?>
<!DOCTYPE earthquake SYSTEM "stationlist.dtd">
<stationlist created="" xmlns="ch.ethz.sed.shakemap.usgs.xml">
  <station code="KSP" name="KSP" netid="PL" insttype="STS-2/N" lat="50.8428" lon="16.2931">
    <comp name="--.HHE">
      <acc value="0.0036341573" flag="0"/>
      <vel value="0.0008673160" flag="0"/>
      <psa03 value="0.0077671687" flag="0"/>
      <psa10 value="0.0005394302" flag="0"/>
      <psa30 value="0.0001572798" flag="0"/>
    </comp>
    <comp name="--.HHN">
      <acc value="0.0047980148" flag="0"/>
      <vel value="0.0015908388" flag="0"/>
      <psa03 value="0.0111539473" flag="0"/>
      <psa10 value="0.0007162104" flag="0"/>
      <psa30 value="0.0003180684" flag="0"/>
    </comp>
    <comp name="--.HHZ">
      <acc value="0.0035720871" flag="0"/>
      <vel value="0.0011045345" flag="0"/>
      <psa03 value="0.0059568639" flag="0"/>
      <psa10 value="0.0007512539" flag="0"/>
      <psa30 value="0.0003353144" flag="0"/>
    </comp>
  </station>
</stationlist>
