<?xml version="1.0" encoding="UTF-8" standalone="yes"?>
<!DOCTYPE earthquake SYSTEM "stationlist.dtd">
<stationlist created="" xmlns="ch.ethz.sed.shakemap.usgs.xml">
  <station code="ZKR" name="ZKR" netid="GE" insttype="STS-2/N" lat="35.1147" lon="26.2169">
    <comp name="--.HHE">
      <acc value="0.0694464091" flag="0"/>
      <vel value="0.0237321452" flag="0"/>
      <psa03 value="0.1983254068" flag="0"/>
      <psa10 value="0.0141617482" flag="0"/>
      <psa30 value="0.0011534187" flag="0"/>
    </comp>
    <comp name="--.HHN">
      <acc value="0.0332155001" flag="0"/>
      <vel value="0.0102795314" flag="0"/>
      <psa03 value="0.0901099544" flag="0"/>
      <psa10 value="0.0062075529" flag="0"/>
      <psa30 value="0.0004770587" flag="0"/>
    </comp>
    <comp name="--.HHZ">
      <acc value="0.0944132611" flag="0"/>
      <vel value="0.0181815108" flag="0"/>
      <psa03 value="0.0870370539" flag="0"/>
      <psa10 value="0.0117426150" flag="0"/>
      <psa30 value="0.0009685410" flag="0"/>
    </comp>
  </station>
</stationlist>
