<?xml version="1.0" encoding="UTF-8" standalone="yes"?>
<!DOCTYPE earthquake SYSTEM "stationlist.dtd">
<stationlist created="" xmlns="ch.ethz.sed.shakemap.usgs.xml">
  <station code="ZKR" name="ZKR" netid="GE" insttype="STS-2/N" lat="35.1147" lon="26.2169">
    <comp name="--.HHE">
      <acc value="0.0694464091" flag="0"/>
      <vel value="0.0237321452" flag="0"/>
      <psa03 value="0.1983254068" flag="0"/>
      <psa10 value="0.0141617482" flag="0"/>
      <psa30 value="0.0011534187" flag="0"/>
    </comp>
    <comp name="--.HHN">
      <acc value="0.0332155001" flag="0"/>
      <vel value="0.0102795314" flag="0"/>
      <psa03 value="0.0901099544" flag="0"/>
      <psa10 value="0.0062075529" flag="0"/>
      <psa30 value="0.0004770587" flag="0"/>
    </comp>
    <comp name="--.HHZ">
      <acc value="0.0944132611" flag="0"/>
      <vel value="0.0181815108" flag="0"/>
      <psa03 value="0.0870370539" flag="0"/>
      <psa10 value="0.0117426150" flag="0"/>
      <psa30 value="0.0009685410" flag="0"/>
    </comp>
  </station>
  <station code="PFKS" name="PFKS" netid="HC" insttype="120" lat="35.0429" lon="25.4733">
    <comp name="--.HHZ">
      <acc value="0.0127432900" flag="0"/>
      <vel value="0.0050427503" flag="0"/>
      <psa03 value="0.0263677853" flag="0"/>
      <psa10 value="0.0043443903" flag="0"/>
      <psa30 value="0.0002395513" flag="0"/>
    </comp>
    <comp name="--.HHE">
      <acc value="0.0227761578" flag="0"/>
      <vel value="0.0122463677" flag="0"/>
      <psa03 value="0.0731484531" flag="0"/>
      <psa10 value="0.0078510081" flag="0"/>
      <psa30 value="0.0004452600" flag="0"/>
    </comp>
    <comp name="--.HHN">
      <acc value="0.0179203455" flag="0"/>
      <vel value="0.0089976698" flag="0"/>
      <psa03 value="0.0386338469" flag="0"/>
      <psa10 value="0.0100479487" flag="0"/>
      <psa30 value="0.0004285191" flag="0"/>
    </comp>
  </station>
  <station code="STIA" name="STIA" netid="HC" insttype="120" lat="35.2021" lon="26.0909">
    <comp name="--.HHN">
      <acc value="0.0537506348" flag="0"/>
      <vel value="0.0201393312" flag="0"/>
      <psa03 value="0.1601007684" flag="0"/>
      <psa10 value="0.0202835601" flag="0"/>
      <psa30 value="0.0013748597" flag="0"/>
    </comp>
    <comp name="--.HHE">
      <acc value="0.0747236208" flag="0"/>
      <vel value="0.0293107890" flag="0"/>
      <psa03 value="0.1554818266" flag="0"/>
      <psa10 value="0.0261018636" flag="0"/>
      <psa30 value="0.0013124050" flag="0"/>
    </comp>
    <comp name="--.HHZ">
      <acc value="0.0687510029" flag="0"/>
      <vel value="0.0242966314" flag="0"/>
      <psa03 value="0.0982844537" flag="0"/>
      <psa10 value="0.0122781984" flag="0"/>
      <psa30 value="0.0010336412" flag="0"/>
    </comp>
  </station>
  <station code="KSS1" name="KSS1" netid="HI" insttype="CMG-5TD,ACCELEROMETER,GURALP" lat="35.4189" lon="26.9207">
    <comp name="--.HNZ">
      <acc value="0.1936979025" flag="0"/>
      <vel value="0.0427268486" flag="0"/>
      <psa03 value="0.1656644530" flag="0"/>
      <psa10 value="0.0260406128" flag="0"/>
      <psa30 value="0.0027474315" flag="0"/>
    </comp>
    <comp name="--.HNN">
      <acc value="0.4261104484" flag="0"/>
      <vel value="0.1545697786" flag="0"/>
      <psa03 value="1.4307590139" flag="0"/>
      <psa10 value="0.0573901840" flag="0"/>
      <psa30 value="0.0052973392" flag="0"/>
    </comp>
    <comp name="--.HNE">
      <acc value="0.2593200392" flag="0"/>
      <vel value="0.0909079532" flag="0"/>
      <psa03 value="0.4622462164" flag="0"/>
      <psa10 value="0.0211051955" flag="0"/>
      <psa30 value="0.0024160204" flag="0"/>
    </comp>
  </station>
  <station code="KSTE" name="KSTE" netid="HL" insttype="60" lat="35.1801" lon="25.3372">
    <comp name="--.HHN">
      <acc value="0.1935468060" flag="0"/>
      <vel value="0.0167565607" flag="0"/>
      <psa03 value="0.0659492974" flag="0"/>
      <psa10 value="0.0178982280" flag="0"/>
      <psa30 value="0.0037572214" flag="0"/>
    </comp>
    <comp name="--.HHE">
      <acc value="0.0048121786" flag="0"/>
      <vel value="0.0038629515" flag="0"/>
      <psa03 value="0.0116672101" flag="0"/>
      <psa10 value="0.0081479972" flag="0"/>
      <psa30 value="0.0004244679" flag="0"/>
    </comp>
    <comp name="--.HHZ">
      <acc value="0.0058974198" flag="0"/>
      <vel value="0.0035762663" flag="0"/>
      <psa03 value="0.0151891633" flag="0"/>
      <psa10 value="0.0048207100" flag="0"/>
      <psa30 value="0.0005258987" flag="0"/>
    </comp>
  </station>
  <station code="ZKR" name="ZKR" netid="HL" insttype="120" lat="35.1147" lon="26.2169">
    <comp name="--.HHE">
      <acc value="0.0672029267" flag="0"/>
      <vel value="0.0229602611" flag="0"/>
      <psa03 value="0.1925699657" flag="0"/>
      <psa10 value="0.0140478961" flag="0"/>
      <psa30 value="0.0011474739" flag="0"/>
    </comp>
    <comp name="--.HHN">
      <acc value="0.0323440210" flag="0"/>
      <vel value="0.0100907035" flag="0"/>
      <psa03 value="0.0877156372" flag="0"/>
      <psa10 value="0.0061193338" flag="0"/>
      <psa30 value="0.0004735554" flag="0"/>
    </comp>
    <comp name="--.HHZ">
      <acc value="0.0942177927" flag="0"/>
      <vel value="0.0177593473" flag="0"/>
      <psa03 value="0.0846674690" flag="0"/>
      <psa10 value="0.0116655868" flag="0"/>
      <psa30 value="0.0009572953" flag="0"/>
    </comp>
  </station>
</stationlist>
