<?xml version="1.0" encoding="UTF-8" standalone="yes"?>
<!DOCTYPE earthquake SYSTEM "stationlist.dtd">
<stationlist created="" xmlns="ch.ethz.sed.shakemap.usgs.xml">
  <station code="ANDN" name="ANDN" netid="TU" insttype="T" lat="37.58" lon="36.3452">
    <comp name="--.HHE">
      <acc value="0.3398317501" flag="0"/>
      <vel value="0.1575047845" flag="0"/>
      <psa03 value="0.6005270811" flag="0"/>
      <psa10 value="0.3654461150" flag="0"/>
      <psa30 value="0.0235508575" flag="0"/>
    </comp>
    <comp name="--.HHN">
      <acc value="0.3152787898" flag="0"/>
      <vel value="0.2197058765" flag="0"/>
      <psa03 value="0.6563524737" flag="0"/>
      <psa10 value="0.3865538964" flag="0"/>
      <psa30 value="0.0208322822" flag="0"/>
    </comp>
    <comp name="--.HHZ">
      <acc value="0.1824493053" flag="0"/>
      <vel value="0.1165266535" flag="0"/>
      <psa03 value="0.2424530574" flag="0"/>
      <psa10 value="0.2557685489" flag="0"/>
      <psa30 value="0.0147329209" flag="0"/>
    </comp>
  </station>
</stationlist>
