<?xml version="1.0" encoding="UTF-8" standalone="yes"?>
<!DOCTYPE earthquake SYSTEM "stationlist.dtd">
<stationlist created="" xmlns="ch.ethz.sed.shakemap.usgs.xml">
  <station code="GAZ" name="GAZ" netid="KO" insttype="CMG-3T" lat="37.1721" lon="37.2096">
    <comp name="--.HHE">
      <acc value="0.0908720790" flag="0"/>
      <vel value="0.0587080904" flag="0"/>
      <psa03 value="0.1390486389" flag="0"/>
      <psa10 value="0.0642656981" flag="0"/>
      <psa30 value="0.0086027778" flag="0"/>
    </comp>
    <comp name="--.HHN">
      <acc value="0.0671321788" flag="0"/>
      <vel value="0.0630959194" flag="0"/>
      <psa03 value="0.1083103007" flag="0"/>
      <psa10 value="0.0807216572" flag="0"/>
      <psa30 value="0.0089244104" flag="0"/>
    </comp>
    <comp name="--.HHZ">
      <acc value="0.0467116262" flag="0"/>
      <vel value="0.0295583610" flag="0"/>
      <psa03 value="0.1120822782" flag="0"/>
      <psa10 value="0.0402254258" flag="0"/>
      <psa30 value="0.0061354295" flag="0"/>
    </comp>
  </station>
</stationlist>
