<?xml version="1.0" encoding="UTF-8" standalone="yes"?>
<!DOCTYPE earthquake SYSTEM "stationlist.dtd">
<stationlist created="" xmlns="ch.ethz.sed.shakemap.usgs.xml">
  <station code="GAZ" name="GAZ" netid="KO" insttype="CMG-3T" lat="37.1721" lon="37.2096">
    <comp name="--.HHE">
      <acc value="0.0908720791" flag="0"/>
      <vel value="0.0587080875" flag="0"/>
      <psa03 value="0.1390486389" flag="0"/>
      <psa10 value="0.0642656975" flag="0"/>
      <psa30 value="0.0086028443" flag="0"/>
    </comp>
    <comp name="--.HHZ">
      <acc value="0.0467116261" flag="0"/>
      <vel value="0.0295583776" flag="0"/>
      <psa03 value="0.1120822782" flag="0"/>
      <psa10 value="0.0402254259" flag="0"/>
      <psa30 value="0.0061354599" flag="0"/>
    </comp>
    <comp name="--.HHN">
      <acc value="0.0671321790" flag="0"/>
      <vel value="0.0630959065" flag="0"/>
      <psa03 value="0.1083103007" flag="0"/>
      <psa10 value="0.0807216531" flag="0"/>
      <psa30 value="0.0089243876" flag="0"/>
    </comp>
  </station>
</stationlist>
