<?xml version="1.0" encoding="UTF-8" standalone="yes"?>
<!DOCTYPE earthquake SYSTEM "stationlist.dtd">
<stationlist created="" xmlns="ch.ethz.sed.shakemap.usgs.xml">
  <station code="AKS" name="AKS" netid="KO" insttype="CMG-5T" commtype="DIG" lat="38.8785" lon="27.8129">
    <comp name="--.HNZ">
      <acc value="0.0416416070" flag="0"/>
      <vel value="0.0091950254" flag="0"/>
      <psa03 value="0.0354093108" flag="0"/>
      <psa10 value="0.0060918075" flag="0"/>
      <psa30 value="0.0011395142" flag="0"/>
    </comp>
  </station>
  <station code="BALB" name="BALB" netid="KO" insttype="CMG-5T" commtype="DIG" lat="39.6507" lon="27.8642">
    <comp name="--.HNZ">
      <acc value="0.0399571447" flag="0"/>
      <vel value="0.0116154133" flag="0"/>
      <psa03 value="0.0884256340" flag="0"/>
      <psa10 value="0.0051247546" flag="0"/>
      <psa30 value="0.0012437363" flag="0"/>
    </comp>
    <comp name="--.HNE">
      <acc value="0.0393800386" flag="0"/>
      <vel value="0.0200197523" flag="0"/>
      <psa03 value="0.1257324103" flag="0"/>
      <psa10 value="0.0143351116" flag="0"/>
      <psa30 value="0.0010622427" flag="0"/>
    </comp>
    <comp name="--.HNN">
      <acc value="0.0416200494" flag="0"/>
      <vel value="0.0162811911" flag="0"/>
      <psa03 value="0.0650087936" flag="0"/>
      <psa10 value="0.0190061084" flag="0"/>
      <psa30 value="0.0012647084" flag="0"/>
    </comp>
  </station>
  <station code="DKL" name="DKL" netid="KO" insttype="CMG-3ESPC" commtype="DIG" lat="39.0713" lon="26.9053">
    <comp name="--.HHN">
      <acc value="0.0215095507" flag="0"/>
      <vel value="0.0101440542" flag="0"/>
      <psa03 value="0.0385907130" flag="0"/>
      <psa10 value="0.0075911584" flag="0"/>
      <psa30 value="0.0009061932" flag="0"/>
    </comp>
    <comp name="--.HHE">
      <acc value="0.0218034619" flag="0"/>
      <vel value="0.0068936584" flag="0"/>
      <psa03 value="0.0329461712" flag="0"/>
      <psa10 value="0.0056481048" flag="0"/>
      <psa30 value="0.0006397224" flag="0"/>
    </comp>
  </station>
  <station code="GOMA" name="GOMA" netid="KO" insttype="CMG-5T" commtype="DIG" lat="38.7077" lon="27.9175">
    <comp name="--.HNE">
      <acc value="0.0454882805" flag="0"/>
      <vel value="0.0194247126" flag="0"/>
      <psa03 value="0.1124807505" flag="0"/>
      <psa10 value="0.0132373961" flag="0"/>
      <psa30 value="0.0007845129" flag="0"/>
    </comp>
    <comp name="--.HNZ">
      <acc value="0.0642827701" flag="0"/>
      <vel value="0.0208628203" flag="0"/>
      <psa03 value="0.0867123415" flag="0"/>
      <psa10 value="0.0054414232" flag="0"/>
      <psa30 value="0.0008204777" flag="0"/>
    </comp>
    <comp name="--.HNN">
      <acc value="0.0639539806" flag="0"/>
      <vel value="0.0261931509" flag="0"/>
      <psa03 value="0.1063023645" flag="0"/>
      <psa10 value="0.0076589455" flag="0"/>
      <psa30 value="0.0015045935" flag="0"/>
    </comp>
  </station>
  <station code="GONE" name="GONE" netid="KO" insttype="CMG-5T" commtype="DIG" lat="40.0466" lon="27.686">
    <comp name="--.HNZ">
      <acc value="0.0157258804" flag="0"/>
      <vel value="0.0068074587" flag="0"/>
      <psa03 value="0.0210552705" flag="0"/>
      <psa10 value="0.0035516400" flag="0"/>
      <psa30 value="0.0004493972" flag="0"/>
    </comp>
    <comp name="--.HNE">
      <acc value="0.0181625684" flag="0"/>
      <vel value="0.0079958676" flag="0"/>
      <psa03 value="0.0405762427" flag="0"/>
      <psa10 value="0.0119988349" flag="0"/>
      <psa30 value="0.0004646673" flag="0"/>
    </comp>
    <comp name="--.HNN">
      <acc value="0.0244519852" flag="0"/>
      <vel value="0.0168977463" flag="0"/>
      <psa03 value="0.0942480171" flag="0"/>
      <psa10 value="0.0104873125" flag="0"/>
      <psa30 value="0.0007500709" flag="0"/>
    </comp>
  </station>
  <station code="GORD" name="GORD" netid="KO" insttype="CMG-5T" commtype="DIG" lat="38.9088" lon="28.1769">
    <comp name="--.HNE">
      <acc value="0.0514674796" flag="0"/>
      <vel value="0.0361734954" flag="0"/>
      <psa03 value="0.1289908494" flag="0"/>
      <psa10 value="0.0463393872" flag="0"/>
      <psa30 value="0.0033064274" flag="0"/>
    </comp>
    <comp name="--.HNZ">
      <acc value="0.0498350762" flag="0"/>
      <vel value="0.0234880641" flag="0"/>
      <psa03 value="0.0912367598" flag="0"/>
      <psa10 value="0.0231320932" flag="0"/>
      <psa30 value="0.0036768329" flag="0"/>
    </comp>
    <comp name="--.HNN">
      <acc value="0.0673449014" flag="0"/>
      <vel value="0.0297146076" flag="0"/>
      <psa03 value="0.1165867629" flag="0"/>
      <psa10 value="0.0484249286" flag="0"/>
      <psa30 value="0.0053257237" flag="0"/>
    </comp>
  </station>
  <station code="KCTX" name="KCTX" netid="KO" insttype="CMG-3ESP" commtype="DIG" lat="40.2626" lon="28.3353">
    <comp name="--.HHE">
      <acc value="0.0187123361" flag="0"/>
      <vel value="0.0145341506" flag="0"/>
      <psa03 value="0.0452374106" flag="0"/>
      <psa10 value="0.0163075062" flag="0"/>
      <psa30 value="0.0009579961" flag="0"/>
    </comp>
    <comp name="--.HHN">
      <acc value="0.0330949381" flag="0"/>
      <vel value="0.0144544628" flag="0"/>
      <psa03 value="0.0982414012" flag="0"/>
      <psa10 value="0.0068786769" flag="0"/>
      <psa30 value="0.0004300567" flag="0"/>
    </comp>
    <comp name="--.HHZ">
      <acc value="0.0160147880" flag="0"/>
      <vel value="0.0052016268" flag="0"/>
      <psa03 value="0.0491328036" flag="0"/>
      <psa10 value="0.0041093570" flag="0"/>
      <psa30 value="0.0003187514" flag="0"/>
    </comp>
  </station>
  <station code="ORLT" name="ORLT" netid="KO" insttype="CMG-5T" commtype="DIG" lat="40.0452" lon="28.8914">
    <comp name="--.HNE">
      <acc value="0.0536781375" flag="0"/>
      <vel value="0.0294639082" flag="0"/>
      <psa03 value="0.2367270143" flag="0"/>
      <psa10 value="0.0200616583" flag="0"/>
      <psa30 value="0.0009875896" flag="0"/>
    </comp>
    <comp name="--.HNN">
      <acc value="0.0689367175" flag="0"/>
      <vel value="0.0290262951" flag="0"/>
      <psa03 value="0.2279648270" flag="0"/>
      <psa10 value="0.0234237925" flag="0"/>
      <psa30 value="0.0015909460" flag="0"/>
    </comp>
    <comp name="--.HNZ">
      <acc value="0.0206890833" flag="0"/>
      <vel value="0.0107149939" flag="0"/>
      <psa03 value="0.0631810598" flag="0"/>
      <psa10 value="0.0161793259" flag="0"/>
      <psa30 value="0.0010272774" flag="0"/>
    </comp>
  </station>
  <station code="SIMA" name="SIMA" netid="KO" insttype="CMG-6T" commtype="DIG" lat="39.0833" lon="28.9825">
    <comp name="--.HHE">
      <acc value="0.0924415810" flag="0"/>
      <vel value="0.0276631424" flag="0"/>
      <psa03 value="0.2238887591" flag="0"/>
      <psa10 value="0.0054833448" flag="0"/>
      <psa30 value="0.0006444112" flag="0"/>
    </comp>
    <comp name="--.HHN">
      <acc value="0.0757423528" flag="0"/>
      <vel value="0.0298379836" flag="0"/>
      <psa03 value="0.2366281078" flag="0"/>
      <psa10 value="0.0052094697" flag="0"/>
      <psa30 value="0.0009485562" flag="0"/>
    </comp>
    <comp name="--.HHZ">
      <acc value="0.0366139405" flag="0"/>
      <vel value="0.0091731420" flag="0"/>
      <psa03 value="0.0877132716" flag="0"/>
      <psa10 value="0.0024587356" flag="0"/>
      <psa30 value="0.0006043742" flag="0"/>
    </comp>
  </station>
  <station code="SOMA" name="SOMA" netid="KO" insttype="CMG-5T" commtype="DIG" lat="39.1564" lon="27.5341">
    <comp name="--.HNE">
      <acc value="0.0489602152" flag="0"/>
      <vel value="0.0177917439" flag="0"/>
      <psa03 value="0.1035936551" flag="0"/>
      <psa10 value="0.0145737245" flag="0"/>
      <psa30 value="0.0009029711" flag="0"/>
    </comp>
    <comp name="--.HNN">
      <acc value="0.0649871023" flag="0"/>
      <vel value="0.0222936856" flag="0"/>
      <psa03 value="0.1396853766" flag="0"/>
      <psa10 value="0.0224375736" flag="0"/>
      <psa30 value="0.0010912975" flag="0"/>
    </comp>
    <comp name="--.HNZ">
      <acc value="0.0420933990" flag="0"/>
      <vel value="0.0153039241" flag="0"/>
      <psa03 value="0.0889230419" flag="0"/>
      <psa10 value="0.0131819057" flag="0"/>
      <psa30 value="0.0007797770" flag="0"/>
    </comp>
  </station>
  <station code="TVSB" name="TVSB" netid="KO" insttype="CMG-3T" commtype="DIG" lat="39.4497" lon="29.4615">
    <comp name="--.HHE">
      <acc value="0.0233320693" flag="0"/>
      <vel value="0.0086011456" flag="0"/>
      <psa03 value="0.0686023466" flag="0"/>
      <psa10 value="0.0048111922" flag="0"/>
      <psa30 value="0.0003514415" flag="0"/>
    </comp>
    <comp name="--.HHZ">
      <acc value="0.0123215786" flag="0"/>
      <vel value="0.0043118617" flag="0"/>
      <psa03 value="0.0401811752" flag="0"/>
      <psa10 value="0.0045630733" flag="0"/>
      <psa30 value="0.0003626321" flag="0"/>
    </comp>
    <comp name="--.HHN">
      <acc value="0.0226534276" flag="0"/>
      <vel value="0.0069000966" flag="0"/>
      <psa03 value="0.0819536537" flag="0"/>
      <psa10 value="0.0053826576" flag="0"/>
      <psa30 value="0.0004451170" flag="0"/>
    </comp>
  </station>
  <station code="YAYO" name="YAYO" netid="KO" insttype="CMG-6T" commtype="DIG" lat="39.6113" lon="27.0726">
    <comp name="--.HHN">
      <acc value="0.0242267425" flag="0"/>
      <vel value="0.0163205957" flag="0"/>
      <psa03 value="0.1040046861" flag="0"/>
      <psa10 value="0.0113096105" flag="0"/>
      <psa30 value="0.0007026789" flag="0"/>
    </comp>
    <comp name="--.HHZ">
      <acc value="0.0186777687" flag="0"/>
      <vel value="0.0082567543" flag="0"/>
      <psa03 value="0.0591233034" flag="0"/>
      <psa10 value="0.0036108669" flag="0"/>
      <psa30 value="0.0003258178" flag="0"/>
    </comp>
    <comp name="--.HHE">
      <acc value="0.0223654132" flag="0"/>
      <vel value="0.0131911654" flag="0"/>
      <psa03 value="0.0641667704" flag="0"/>
      <psa10 value="0.0084058983" flag="0"/>
      <psa30 value="0.0008194813" flag="0"/>
    </comp>
  </station>
  <station code="YENI" name="YENI" netid="KO" insttype="CMG-5T" commtype="DIG" lat="39.9364" lon="27.2422">
    <comp name="--.HNE">
      <acc value="0.0211890276" flag="0"/>
      <vel value="0.0094055682" flag="0"/>
      <psa03 value="0.0548342141" flag="0"/>
      <psa10 value="0.0066815266" flag="0"/>
      <psa30 value="0.0005580225" flag="0"/>
    </comp>
    <comp name="--.HNN">
      <acc value="0.0256730070" flag="0"/>
      <vel value="0.0111456837" flag="0"/>
      <psa03 value="0.0674813316" flag="0"/>
      <psa10 value="0.0063690011" flag="0"/>
      <psa30 value="0.0003648420" flag="0"/>
    </comp>
    <comp name="--.HNZ">
      <acc value="0.0096463324" flag="0"/>
      <vel value="0.0041110673" flag="0"/>
      <psa03 value="0.0284102835" flag="0"/>
      <psa10 value="0.0036034156" flag="0"/>
      <psa30 value="0.0004893583" flag="0"/>
    </comp>
  </station>
</stationlist>
