<?xml version="1.0" encoding="UTF-8" standalone="yes"?>
<!DOCTYPE earthquake SYSTEM "stationlist.dtd">
<stationlist created="" xmlns="ch.ethz.sed.shakemap.usgs.xml">
  <station code="CAYL" name="CAYL" netid="KO" insttype="CMG-6T" lat="40.3745" lon="36.159">
    <comp name="--.HHE">
      <acc value="0.3174805708" flag="0"/>
      <vel value="0.0885499542" flag="0"/>
      <psa03 value="0.3321028098" flag="0"/>
      <psa10 value="0.0255202748" flag="0"/>
      <psa30 value="0.0020542217" flag="0"/>
    </comp>
    <comp name="--.HHN">
      <acc value="0.1952815174" flag="0"/>
      <vel value="0.0762911684" flag="0"/>
      <psa03 value="0.3076925039" flag="0"/>
      <psa10 value="0.0376779216" flag="0"/>
      <psa30 value="0.0016719285" flag="0"/>
    </comp>
    <comp name="--.HHZ">
      <acc value="0.2185788354" flag="0"/>
      <vel value="0.0485020847" flag="0"/>
      <psa03 value="0.2183970205" flag="0"/>
      <psa10 value="0.0168551353" flag="0"/>
      <psa30 value="0.0015881964" flag="0"/>
    </comp>
  </station>
  <station code="CORM" name="CORM" netid="KO" insttype="CMG-3ESP" lat="40.1785" lon="34.6302">
    <comp name="--.HHN">
      <acc value="0.0124530276" flag="0"/>
      <vel value="0.0070923390" flag="0"/>
      <psa03 value="0.0305041737" flag="0"/>
      <psa10 value="0.0075171650" flag="0"/>
      <psa30 value="0.0010122815" flag="0"/>
    </comp>
    <comp name="--.HHE">
      <acc value="0.0104204797" flag="0"/>
      <vel value="0.0064014670" flag="0"/>
      <psa03 value="0.0194193669" flag="0"/>
      <psa10 value="0.0084625741" flag="0"/>
      <psa30 value="0.0006185308" flag="0"/>
    </comp>
    <comp name="--.HHZ">
      <acc value="0.0070856635" flag="0"/>
      <vel value="0.0048214311" flag="0"/>
      <psa03 value="0.0162447330" flag="0"/>
      <psa10 value="0.0060023529" flag="0"/>
      <psa30 value="0.0007292993" flag="0"/>
    </comp>
  </station>
  <station code="ERBG" name="ERBG" netid="KO" insttype="CMG-5T" lat="40.712" lon="36.6768">
    <comp name="--.HNE">
      <acc value="0.0367158190" flag="0"/>
      <vel value="0.0126401167" flag="0"/>
      <psa03 value="0.0359067660" flag="0"/>
      <psa10 value="0.0209136276" flag="0"/>
      <psa30 value="0.0011071951" flag="0"/>
    </comp>
    <comp name="--.HNN">
      <acc value="0.0321387697" flag="0"/>
      <vel value="0.0188044819" flag="0"/>
      <psa03 value="0.0339220776" flag="0"/>
      <psa10 value="0.0341684767" flag="0"/>
      <psa30 value="0.0015772721" flag="0"/>
    </comp>
    <comp name="--.HNZ">
      <acc value="0.0204295204" flag="0"/>
      <vel value="0.0077434584" flag="0"/>
      <psa03 value="0.0383263186" flag="0"/>
      <psa10 value="0.0178067647" flag="0"/>
      <psa30 value="0.0009502766" flag="0"/>
    </comp>
  </station>
  <station code="KVT" name="KVT" netid="KO" insttype="CMG-3T" lat="41.0807" lon="36.0463">
    <comp name="--.HHE">
      <acc value="0.0094518757" flag="0"/>
      <vel value="0.0088389945" flag="0"/>
      <psa03 value="0.0283896611" flag="0"/>
      <psa10 value="0.0128293563" flag="0"/>
      <psa30 value="0.0015343493" flag="0"/>
    </comp>
    <comp name="--.HHN">
      <acc value="0.0121062838" flag="0"/>
      <vel value="0.0124726173" flag="0"/>
      <psa03 value="0.0446683715" flag="0"/>
      <psa10 value="0.0216842794" flag="0"/>
      <psa30 value="0.0012760437" flag="0"/>
    </comp>
    <comp name="--.HHZ">
      <acc value="0.0226237107" flag="0"/>
      <vel value="0.0097620358" flag="0"/>
      <psa03 value="0.0454654184" flag="0"/>
      <psa10 value="0.0078720595" flag="0"/>
      <psa30 value="0.0008601812" flag="0"/>
    </comp>
  </station>
  <station code="RSDY" name="RSDY" netid="KO" insttype="CMG-3T" lat="40.3971" lon="37.3273">
    <comp name="--.HHE">
      <acc value="0.0177610856" flag="0"/>
      <vel value="0.0139813775" flag="0"/>
      <psa03 value="0.0358894619" flag="0"/>
      <psa10 value="0.0229094081" flag="0"/>
      <psa30 value="0.0012428750" flag="0"/>
    </comp>
    <comp name="--.HHN">
      <acc value="0.0156316277" flag="0"/>
      <vel value="0.0168284803" flag="0"/>
      <psa03 value="0.0420097921" flag="0"/>
      <psa10 value="0.0250945042" flag="0"/>
      <psa30 value="0.0019994648" flag="0"/>
    </comp>
    <comp name="--.HHZ">
      <acc value="0.0117276915" flag="0"/>
      <vel value="0.0082996290" flag="0"/>
      <psa03 value="0.0492096525" flag="0"/>
      <psa10 value="0.0100612583" flag="0"/>
      <psa30 value="0.0007218958" flag="0"/>
    </comp>
  </station>
  <station code="TOKT" name="TOKT" netid="KO" insttype="CMG-3T" lat="40.3173" lon="36.5443">
    <comp name="--.HHZ">
      <acc value="0.0000570690" flag="0"/>
      <vel value="0.0000055354" flag="0"/>
      <psa03 value="0.0000207808" flag="0"/>
      <psa10 value="0.0000045773" flag="0"/>
      <psa30 value="0.0000007847" flag="0"/>
    </comp>
    <comp name="--.HHE">
      <acc value="0.0255359146" flag="0"/>
      <vel value="0.0150994991" flag="0"/>
      <psa03 value="0.0392052902" flag="0"/>
      <psa10 value="0.0295229196" flag="0"/>
      <psa30 value="0.0025810157" flag="0"/>
    </comp>
    <comp name="--.HHN">
      <acc value="0.0296294609" flag="0"/>
      <vel value="0.0131078005" flag="0"/>
      <psa03 value="0.0748414069" flag="0"/>
      <psa10 value="0.0198839831" flag="0"/>
      <psa30 value="0.0025545242" flag="0"/>
    </comp>
  </station>
  <station code="YOZ" name="YOZ" netid="KO" insttype="CMG-3T" lat="39.6376" lon="35.3152">
    <comp name="--.HHE">
      <acc value="0.1911475604" flag="0"/>
      <vel value="0.0665352716" flag="0"/>
      <psa03 value="0.3442004252" flag="0"/>
      <psa10 value="0.0886938501" flag="0"/>
      <psa30 value="0.0029969554" flag="0"/>
    </comp>
    <comp name="--.HHN">
      <acc value="0.1999003800" flag="0"/>
      <vel value="0.0615308244" flag="0"/>
      <psa03 value="0.3985854185" flag="0"/>
      <psa10 value="0.0517635422" flag="0"/>
      <psa30 value="0.0021604122" flag="0"/>
    </comp>
    <comp name="--.HHZ">
      <acc value="0.1677387940" flag="0"/>
      <vel value="0.0367863323" flag="0"/>
      <psa03 value="0.1344866405" flag="0"/>
      <psa10 value="0.0178868643" flag="0"/>
      <psa30 value="0.0018120694" flag="0"/>
    </comp>
  </station>
</stationlist>
