<?xml version="1.0" encoding="UTF-8" standalone="yes"?>
<!DOCTYPE earthquake SYSTEM "stationlist.dtd">
<stationlist created="" xmlns="ch.ethz.sed.shakemap.usgs.xml">
  <station code="BNN" name="BNN" netid="KO" insttype="CMG-3T" lat="38.8521" lon="35.8472">
    <comp name="--.HHN">
      <acc value="0.0171085964" flag="0"/>
      <vel value="0.0201585462" flag="0"/>
      <psa03 value="0.0342716627" flag="0"/>
      <psa10 value="0.0251473103" flag="0"/>
      <psa30 value="0.0015449912" flag="0"/>
    </comp>
    <comp name="--.HHE">
      <acc value="0.0198073745" flag="0"/>
      <vel value="0.0166473728" flag="0"/>
      <psa03 value="0.0536856832" flag="0"/>
      <psa10 value="0.0204378997" flag="0"/>
      <psa30 value="0.0013456155" flag="0"/>
    </comp>
    <comp name="--.HHZ">
      <acc value="0.0071643735" flag="0"/>
      <vel value="0.0071911343" flag="0"/>
      <psa03 value="0.0249905995" flag="0"/>
      <psa10 value="0.0071306666" flag="0"/>
      <psa30 value="0.0010176965" flag="0"/>
    </comp>
  </station>
  <station code="CAYL" name="CAYL" netid="KO" insttype="CMG-6T" lat="40.3745" lon="36.159">
    <comp name="--.HHE">
      <acc value="0.3174805601" flag="0"/>
      <vel value="0.0885499542" flag="0"/>
      <psa03 value="0.3321028098" flag="0"/>
      <psa10 value="0.0255202748" flag="0"/>
      <psa30 value="0.0020542217" flag="0"/>
    </comp>
    <comp name="--.HHN">
      <acc value="0.1952815195" flag="0"/>
      <vel value="0.0762911685" flag="0"/>
      <psa03 value="0.3076925039" flag="0"/>
      <psa10 value="0.0376779216" flag="0"/>
      <psa30 value="0.0016719285" flag="0"/>
    </comp>
    <comp name="--.HHZ">
      <acc value="0.2185788330" flag="0"/>
      <vel value="0.0485020847" flag="0"/>
      <psa03 value="0.2183970205" flag="0"/>
      <psa10 value="0.0168551353" flag="0"/>
      <psa30 value="0.0015881964" flag="0"/>
    </comp>
  </station>
  <station code="CORM" name="CORM" netid="KO" insttype="CMG-3ESP" lat="40.1785" lon="34.6302">
    <comp name="--.HHE">
      <acc value="0.0104204800" flag="0"/>
      <vel value="0.0064014678" flag="0"/>
      <psa03 value="0.0194193669" flag="0"/>
      <psa10 value="0.0084625741" flag="0"/>
      <psa30 value="0.0006177307" flag="0"/>
    </comp>
    <comp name="--.HHN">
      <acc value="0.0124530276" flag="0"/>
      <vel value="0.0070923387" flag="0"/>
      <psa03 value="0.0305041737" flag="0"/>
      <psa10 value="0.0075171650" flag="0"/>
      <psa30 value="0.0010122815" flag="0"/>
    </comp>
    <comp name="--.HHZ">
      <acc value="0.0070856645" flag="0"/>
      <vel value="0.0048214308" flag="0"/>
      <psa03 value="0.0162447330" flag="0"/>
      <psa10 value="0.0060023529" flag="0"/>
      <psa30 value="0.0007292989" flag="0"/>
    </comp>
  </station>
  <station code="ERBG" name="ERBG" netid="KO" insttype="CMG-5T" lat="40.712" lon="36.6768">
    <comp name="--.HNZ">
      <acc value="0.0204295977" flag="0"/>
      <vel value="0.0077434528" flag="0"/>
      <psa03 value="0.0383263186" flag="0"/>
      <psa10 value="0.0178067647" flag="0"/>
      <psa30 value="0.0009502766" flag="0"/>
    </comp>
    <comp name="--.HNE">
      <acc value="0.0367158099" flag="0"/>
      <vel value="0.0126401197" flag="0"/>
      <psa03 value="0.0359067660" flag="0"/>
      <psa10 value="0.0209136276" flag="0"/>
      <psa30 value="0.0011071951" flag="0"/>
    </comp>
    <comp name="--.HNN">
      <acc value="0.0321390381" flag="0"/>
      <vel value="0.0188044784" flag="0"/>
      <psa03 value="0.0339220776" flag="0"/>
      <psa10 value="0.0341684767" flag="0"/>
      <psa30 value="0.0015772721" flag="0"/>
    </comp>
  </station>
  <station code="KOZK" name="KOZK" netid="KO" insttype="CMG-5T" lat="39.2101" lon="34.868">
    <comp name="--.HNE">
      <acc value="0.0859193189" flag="0"/>
      <vel value="0.0479276012" flag="0"/>
      <psa03 value="0.1553835238" flag="0"/>
      <psa10 value="0.0599131422" flag="0"/>
      <psa30 value="0.0035448880" flag="0"/>
    </comp>
    <comp name="--.HNN">
      <acc value="0.0679292137" flag="0"/>
      <vel value="0.0469793822" flag="0"/>
      <psa03 value="0.1714237409" flag="0"/>
      <psa10 value="0.0582173443" flag="0"/>
      <psa30 value="0.0025906944" flag="0"/>
    </comp>
    <comp name="--.HNZ">
      <acc value="0.0578046620" flag="0"/>
      <vel value="0.0350366096" flag="0"/>
      <psa03 value="0.1153791120" flag="0"/>
      <psa10 value="0.0313189188" flag="0"/>
      <psa30 value="0.0018102470" flag="0"/>
    </comp>
  </station>
  <station code="KVT" name="KVT" netid="KO" insttype="CMG-3T" lat="41.0807" lon="36.0463">
    <comp name="--.HHE">
      <acc value="0.0094518759" flag="0"/>
      <vel value="0.0088389945" flag="0"/>
      <psa03 value="0.0283896611" flag="0"/>
      <psa10 value="0.0128293563" flag="0"/>
      <psa30 value="0.0015343493" flag="0"/>
    </comp>
    <comp name="--.HHN">
      <acc value="0.0121062842" flag="0"/>
      <vel value="0.0124726173" flag="0"/>
      <psa03 value="0.0446683715" flag="0"/>
      <psa10 value="0.0216842794" flag="0"/>
      <psa30 value="0.0012760437" flag="0"/>
    </comp>
    <comp name="--.HHZ">
      <acc value="0.0226237110" flag="0"/>
      <vel value="0.0097620358" flag="0"/>
      <psa03 value="0.0454654184" flag="0"/>
      <psa10 value="0.0078720595" flag="0"/>
      <psa30 value="0.0008601812" flag="0"/>
    </comp>
  </station>
  <station code="RSDY" name="RSDY" netid="KO" insttype="CMG-3T" lat="40.3971" lon="37.3273">
    <comp name="--.HHE">
      <acc value="0.0177610856" flag="0"/>
      <vel value="0.0139813776" flag="0"/>
      <psa03 value="0.0358894619" flag="0"/>
      <psa10 value="0.0229094081" flag="0"/>
      <psa30 value="0.0012428750" flag="0"/>
    </comp>
    <comp name="--.HHN">
      <acc value="0.0156316273" flag="0"/>
      <vel value="0.0168284803" flag="0"/>
      <psa03 value="0.0420097921" flag="0"/>
      <psa10 value="0.0250945042" flag="0"/>
      <psa30 value="0.0019994648" flag="0"/>
    </comp>
    <comp name="--.HHZ">
      <acc value="0.0117276917" flag="0"/>
      <vel value="0.0082996290" flag="0"/>
      <psa03 value="0.0492096525" flag="0"/>
      <psa10 value="0.0100612583" flag="0"/>
      <psa30 value="0.0007218958" flag="0"/>
    </comp>
  </station>
  <station code="TOKT" name="TOKT" netid="KO" insttype="CMG-3T" lat="40.3173" lon="36.5443">
    <comp name="--.HHE">
      <acc value="0.0255359147" flag="0"/>
      <vel value="0.0150994991" flag="0"/>
      <psa03 value="0.0392052902" flag="0"/>
      <psa10 value="0.0295229196" flag="0"/>
      <psa30 value="0.0025810157" flag="0"/>
    </comp>
    <comp name="--.HHN">
      <acc value="0.0296294621" flag="0"/>
      <vel value="0.0131078005" flag="0"/>
      <psa03 value="0.0748414069" flag="0"/>
      <psa10 value="0.0198839831" flag="0"/>
      <psa30 value="0.0025545242" flag="0"/>
    </comp>
    <comp name="--.HHZ">
      <acc value="0.0000570706" flag="0"/>
      <vel value="0.0000055354" flag="0"/>
      <psa03 value="0.0000207808" flag="0"/>
      <psa10 value="0.0000045773" flag="0"/>
      <psa30 value="0.0000007847" flag="0"/>
    </comp>
  </station>
  <station code="TUNC" name="TUNC" netid="KO" insttype="CMG-5T" lat="39.6942" lon="37.5388">
    <comp name="--.HNE">
      <acc value="0.0421183853" flag="0"/>
      <vel value="0.0209342573" flag="0"/>
      <psa03 value="0.1327328041" flag="0"/>
      <psa10 value="0.0269170290" flag="0"/>
      <psa30 value="0.0014424070" flag="0"/>
    </comp>
    <comp name="--.HNN">
      <acc value="0.0605991795" flag="0"/>
      <vel value="0.0282532259" flag="0"/>
      <psa03 value="0.1167685145" flag="0"/>
      <psa10 value="0.0306227903" flag="0"/>
      <psa30 value="0.0013937636" flag="0"/>
    </comp>
    <comp name="--.HNZ">
      <acc value="0.0254575531" flag="0"/>
      <vel value="0.0143048787" flag="0"/>
      <psa03 value="0.0968368475" flag="0"/>
      <psa10 value="0.0183011450" flag="0"/>
      <psa30 value="0.0012067015" flag="0"/>
    </comp>
  </station>
  <station code="YOZ" name="YOZ" netid="KO" insttype="CMG-3T" lat="39.6376" lon="35.3152">
    <comp name="--.HHE">
      <acc value="0.1911475604" flag="0"/>
      <vel value="0.0665352715" flag="0"/>
      <psa03 value="0.3442004252" flag="0"/>
      <psa10 value="0.0886938501" flag="0"/>
      <psa30 value="0.0029969554" flag="0"/>
    </comp>
    <comp name="--.HHZ">
      <acc value="0.1677387941" flag="0"/>
      <vel value="0.0367863323" flag="0"/>
      <psa03 value="0.1344866405" flag="0"/>
      <psa10 value="0.0178868643" flag="0"/>
      <psa30 value="0.0018120694" flag="0"/>
    </comp>
  </station>
</stationlist>
