<?xml version="1.0" encoding="UTF-8" standalone="yes"?>
<!DOCTYPE earthquake SYSTEM "stationlist.dtd">
<stationlist created="" xmlns="ch.ethz.sed.shakemap.usgs.xml">
  <station code="AGRP" name="AGRP" netid="CL" source="RESIF" insttype="30" lat="38.3959" lon="21.7228">
    <comp name="00.HHE">
      <acc value="0.0140519171" flag="0"/>
      <vel value="0.0140020800" flag="0"/>
      <psa03 value="0.0653297730" flag="0"/>
      <psa10 value="0.0254719235" flag="0"/>
      <psa30 value="0.0040528398" flag="0"/>
    </comp>
    <comp name="00.HHN">
      <acc value="0.0144805263" flag="0"/>
      <vel value="0.0169795040" flag="0"/>
      <psa03 value="0.0359619808" flag="0"/>
      <psa10 value="0.0185446298" flag="0"/>
      <psa30 value="0.0056885946" flag="0"/>
    </comp>
    <comp name="00.HHZ">
      <acc value="0.0085695132" flag="0"/>
      <vel value="0.0073254522" flag="0"/>
      <psa03 value="0.0184760076" flag="0"/>
      <psa10 value="0.0150838156" flag="0"/>
      <psa30 value="0.0019929203" flag="0"/>
    </comp>
  </station>
  <station code="MALA" name="MALA" netid="CL" source="RESIF" insttype="30" lat="38.3935" lon="21.8726">
    <comp name="00.HH2">
      <acc value="0.0099958812" flag="0"/>
      <vel value="0.0170582863" flag="0"/>
      <psa03 value="0.0312567721" flag="0"/>
      <psa10 value="0.0153566587" flag="0"/>
      <psa30 value="0.0097898144" flag="0"/>
    </comp>
    <comp name="00.HH3">
      <acc value="0.0126407260" flag="0"/>
      <vel value="0.0222169560" flag="0"/>
      <psa03 value="0.0325362741" flag="0"/>
      <psa10 value="0.0347018650" flag="0"/>
      <psa30 value="0.0153211224" flag="0"/>
    </comp>
    <comp name="00.HHZ">
      <acc value="0.0094947019" flag="0"/>
      <vel value="0.0121792621" flag="0"/>
      <psa03 value="0.0177344401" flag="0"/>
      <psa10 value="0.0202165153" flag="0"/>
      <psa30 value="0.0044994604" flag="0"/>
    </comp>
  </station>
  <station code="MG00" name="MG00" netid="CL" source="RESIF" insttype="40" lat="38.4145" lon="21.9467">
    <comp name="00.HHE">
      <acc value="0.0162817685" flag="0"/>
      <vel value="0.0079539896" flag="0"/>
      <psa03 value="0.0691812225" flag="0"/>
      <psa10 value="0.0085662065" flag="0"/>
      <psa30 value="0.0013300021" flag="0"/>
    </comp>
    <comp name="00.HHN">
      <acc value="0.0253923433" flag="0"/>
      <vel value="0.0154943773" flag="0"/>
      <psa03 value="0.1064292025" flag="0"/>
      <psa10 value="0.0300026328" flag="0"/>
      <psa30 value="0.0056779354" flag="0"/>
    </comp>
    <comp name="00.HHZ">
      <acc value="0.0280573326" flag="0"/>
      <vel value="0.0099142934" flag="0"/>
      <psa03 value="0.0404218269" flag="0"/>
      <psa10 value="0.0090641649" flag="0"/>
      <psa30 value="0.0039214779" flag="0"/>
    </comp>
  </station>
  <station code="MG02" name="MG02" netid="CL" source="RESIF" insttype="40" lat="38.415" lon="21.947">
    <comp name="02.HHE">
      <acc value="0.0210697078" flag="0"/>
      <vel value="0.0163219412" flag="0"/>
      <psa03 value="0.0569583890" flag="0"/>
      <psa10 value="0.0303642821" flag="0"/>
      <psa30 value="0.0075855603" flag="0"/>
    </comp>
    <comp name="02.HHN">
      <acc value="0.0111323473" flag="0"/>
      <vel value="0.0053298003" flag="0"/>
      <psa03 value="0.0338881261" flag="0"/>
      <psa10 value="0.0076683628" flag="0"/>
      <psa30 value="0.0008168833" flag="0"/>
    </comp>
    <comp name="02.HHZ">
      <acc value="0.0176533979" flag="0"/>
      <vel value="0.0056257026" flag="0"/>
      <psa03 value="0.0299283291" flag="0"/>
      <psa10 value="0.0089088378" flag="0"/>
      <psa30 value="0.0014508511" flag="0"/>
    </comp>
  </station>
  <station code="MG03" name="MG03" netid="CL" source="RESIF" insttype="40" lat="38.4141" lon="21.946">
    <comp name="03.HHE">
      <acc value="0.0201123653" flag="0"/>
      <vel value="0.0158742120" flag="0"/>
      <psa03 value="0.0741496287" flag="0"/>
      <psa10 value="0.0233174479" flag="0"/>
      <psa30 value="0.0087187150" flag="0"/>
    </comp>
    <comp name="03.HHN">
      <acc value="0.0069255006" flag="0"/>
      <vel value="0.0028980517" flag="0"/>
      <psa03 value="0.0185550845" flag="0"/>
      <psa10 value="0.0030974831" flag="0"/>
      <psa30 value="0.0004524246" flag="0"/>
    </comp>
    <comp name="03.HHZ">
      <acc value="0.0215100814" flag="0"/>
      <vel value="0.0071144510" flag="0"/>
      <psa03 value="0.0190058966" flag="0"/>
      <psa10 value="0.0075951771" flag="0"/>
      <psa30 value="0.0016980875" flag="0"/>
    </comp>
  </station>
  <station code="MG04" name="MG04" netid="CL" source="RESIF" insttype="40" lat="38.4142" lon="21.9481">
    <comp name="04.HHE">
      <acc value="0.0180565678" flag="0"/>
      <vel value="0.0073946895" flag="0"/>
      <psa03 value="0.0285911374" flag="0"/>
      <psa10 value="0.0101310660" flag="0"/>
      <psa30 value="0.0012313152" flag="0"/>
    </comp>
    <comp name="04.HHN">
      <acc value="0.0217843047" flag="0"/>
      <vel value="0.0173807177" flag="0"/>
      <psa03 value="0.1034519332" flag="0"/>
      <psa10 value="0.0257563317" flag="0"/>
      <psa30 value="0.0052271105" flag="0"/>
    </comp>
    <comp name="04.HHZ">
      <acc value="0.0295940877" flag="0"/>
      <vel value="0.0081634709" flag="0"/>
      <psa03 value="0.0335851754" flag="0"/>
      <psa10 value="0.0103289361" flag="0"/>
      <psa30 value="0.0038999806" flag="0"/>
    </comp>
  </station>
  <station code="MG05" name="MG05" netid="CL" source="RESIF" insttype="30" lat="38.4155" lon="21.9458">
    <comp name="05.HHE">
      <acc value="0.0476295696" flag="0"/>
      <vel value="0.0361648833" flag="0"/>
      <psa03 value="0.1748565350" flag="0"/>
      <psa10 value="0.0551131852" flag="0"/>
      <psa30 value="0.0137531001" flag="0"/>
    </comp>
    <comp name="05.HHN">
      <acc value="0.0385416918" flag="0"/>
      <vel value="0.0378792978" flag="0"/>
      <psa03 value="0.1319225721" flag="0"/>
      <psa10 value="0.0667033455" flag="0"/>
      <psa30 value="0.0131221744" flag="0"/>
    </comp>
    <comp name="05.HHZ">
      <acc value="0.0426263473" flag="0"/>
      <vel value="0.0140694880" flag="0"/>
      <psa03 value="0.0606322897" flag="0"/>
      <psa10 value="0.0180779357" flag="0"/>
      <psa30 value="0.0033983450" flag="0"/>
    </comp>
  </station>
  <station code="MG06" name="MG06" netid="CL" source="RESIF" insttype="40" lat="38.4129" lon="21.9462">
    <comp name="06.HHE">
      <acc value="0.0131704348" flag="0"/>
      <vel value="0.0041051500" flag="0"/>
      <psa03 value="0.0206698351" flag="0"/>
      <psa10 value="0.0055592518" flag="0"/>
      <psa30 value="0.0008935461" flag="0"/>
    </comp>
    <comp name="06.HHN">
      <acc value="0.0134152154" flag="0"/>
      <vel value="0.0123978139" flag="0"/>
      <psa03 value="0.0317868639" flag="0"/>
      <psa10 value="0.0183553918" flag="0"/>
      <psa30 value="0.0087607990" flag="0"/>
    </comp>
    <comp name="06.HHZ">
      <acc value="0.0167322573" flag="0"/>
      <vel value="0.0080031018" flag="0"/>
      <psa03 value="0.0195925668" flag="0"/>
      <psa10 value="0.0078384670" flag="0"/>
      <psa30 value="0.0039192477" flag="0"/>
    </comp>
  </station>
  <station code="MG07" name="MG07" netid="CL" source="RESIF" insttype="40" lat="38.4155" lon="21.9488">
    <comp name="07.HHE">
      <acc value="0.0258521897" flag="0"/>
      <vel value="0.0177816341" flag="0"/>
      <psa03 value="0.0947090874" flag="0"/>
      <psa10 value="0.0322774899" flag="0"/>
      <psa30 value="0.0085612762" flag="0"/>
    </comp>
    <comp name="07.HHN">
      <acc value="0.0248365595" flag="0"/>
      <vel value="0.0192495554" flag="0"/>
      <psa03 value="0.0774377146" flag="0"/>
      <psa10 value="0.0343108852" flag="0"/>
      <psa30 value="0.0059914172" flag="0"/>
    </comp>
    <comp name="07.HHZ">
      <acc value="0.0191332832" flag="0"/>
      <vel value="0.0099675560" flag="0"/>
      <psa03 value="0.0434619598" flag="0"/>
      <psa10 value="0.0127664005" flag="0"/>
      <psa30 value="0.0039806709" flag="0"/>
    </comp>
  </station>
  <station code="ROD3" name="ROD3" netid="CL" source="RESIF" insttype="30" lat="38.3081" lon="21.892">
    <comp name="00.HHE">
      <acc value="0.0538291416" flag="0"/>
      <vel value="0.0357781132" flag="0"/>
      <psa03 value="0.1977915374" flag="0"/>
      <psa10 value="0.0372508919" flag="0"/>
      <psa30 value="0.0116817145" flag="0"/>
    </comp>
    <comp name="00.HHN">
      <acc value="0.0502949088" flag="0"/>
      <vel value="0.0382922315" flag="0"/>
      <psa03 value="0.2562366078" flag="0"/>
      <psa10 value="0.0474095172" flag="0"/>
      <psa30 value="0.0081477654" flag="0"/>
    </comp>
    <comp name="00.HHZ">
      <acc value="0.0243664542" flag="0"/>
      <vel value="0.0173278183" flag="0"/>
      <psa03 value="0.0638455943" flag="0"/>
      <psa10 value="0.0206119510" flag="0"/>
      <psa30 value="0.0019050315" flag="0"/>
    </comp>
  </station>
  <station code="TRIZ" name="TRIZ" netid="CL" source="RESIF" insttype="generation" lat="38.3654" lon="22.0727">
    <comp name="00.HH2">
      <acc value="0.0045490819" flag="0"/>
      <vel value="0.0030667101" flag="0"/>
      <psa03 value="0.0102733331" flag="0"/>
      <psa10 value="0.0032683074" flag="0"/>
      <psa30 value="0.0007940398" flag="0"/>
    </comp>
    <comp name="00.HH3">
      <acc value="0.0107503043" flag="0"/>
      <vel value="0.0098967600" flag="0"/>
      <psa03 value="0.0429843678" flag="0"/>
      <psa10 value="0.0122520532" flag="0"/>
      <psa30 value="0.0055369247" flag="0"/>
    </comp>
    <comp name="00.HHZ">
      <acc value="0.0072607589" flag="0"/>
      <vel value="0.0050176953" flag="0"/>
      <psa03 value="0.0122234309" flag="0"/>
      <psa10 value="0.0096469491" flag="0"/>
      <psa30 value="0.0013010562" flag="0"/>
    </comp>
  </station>
  <station code="KALE" name="KALE" netid="HA" source="NOA" insttype="40," lat="38.3911" lon="22.1398">
    <comp name="--.HHE">
      <acc value="0.0148841796" flag="0"/>
      <vel value="0.0141281114" flag="0"/>
      <psa03 value="0.0366830750" flag="0"/>
      <psa10 value="0.0262553063" flag="0"/>
      <psa30 value="0.0075230531" flag="0"/>
    </comp>
    <comp name="--.HHN">
      <acc value="0.0112597560" flag="0"/>
      <vel value="0.0065534342" flag="0"/>
      <psa03 value="0.0347946254" flag="0"/>
      <psa10 value="0.0108037121" flag="0"/>
      <psa30 value="0.0014831102" flag="0"/>
    </comp>
    <comp name="--.HHZ">
      <acc value="0.0142601112" flag="0"/>
      <vel value="0.0058257287" flag="0"/>
      <psa03 value="0.0166277206" flag="0"/>
      <psa10 value="0.0071786423" flag="0"/>
      <psa30 value="0.0012469513" flag="0"/>
    </comp>
  </station>
  <station code="ITM" name="ITM" netid="HL" source="NOA" insttype="DR24" lat="37.1787" lon="21.9252">
    <comp name="--.HHE">
      <acc value="0.0190534394" flag="0"/>
      <vel value="0.0300810094" flag="0"/>
      <psa03 value="0.0592761508" flag="0"/>
      <psa10 value="0.0266753288" flag="0"/>
      <psa30 value="0.0073518710" flag="0"/>
    </comp>
    <comp name="--.HHN">
      <acc value="0.0274725392" flag="0"/>
      <vel value="0.0397761240" flag="0"/>
      <psa03 value="0.0873632672" flag="0"/>
      <psa10 value="0.0397354288" flag="0"/>
      <psa30 value="0.0118238806" flag="0"/>
    </comp>
    <comp name="--.HHZ">
      <acc value="0.0178563770" flag="0"/>
      <vel value="0.0214113354" flag="0"/>
      <psa03 value="0.0529119952" flag="0"/>
      <psa10 value="0.0286103136" flag="0"/>
      <psa30 value="0.0039361176" flag="0"/>
    </comp>
  </station>
  <station code="KLV" name="KLV" netid="HL" source="NOA" insttype="120" lat="38.0435" lon="22.1504">
    <comp name="--.HHE">
      <acc value="0.0052443579" flag="0"/>
      <vel value="0.0062765848" flag="0"/>
      <psa03 value="0.0138274238" flag="0"/>
      <psa10 value="0.0109779723" flag="0"/>
      <psa30 value="0.0028437971" flag="0"/>
    </comp>
    <comp name="--.HHN">
      <acc value="0.0075843362" flag="0"/>
      <vel value="0.0101021868" flag="0"/>
      <psa03 value="0.0135433817" flag="0"/>
      <psa10 value="0.0181711541" flag="0"/>
      <psa30 value="0.0041691492" flag="0"/>
    </comp>
    <comp name="--.HHZ">
      <acc value="0.0074688770" flag="0"/>
      <vel value="0.0109457183" flag="0"/>
      <psa03 value="0.0166909653" flag="0"/>
      <psa10 value="0.0126797799" flag="0"/>
      <psa30 value="0.0037140084" flag="0"/>
    </comp>
  </station>
  <station code="LXRA" name="LXRA" netid="HL" source="NOA" insttype="CMG-5" lat="38.2001" lon="20.4372">
    <comp name="00.HNE">
      <acc value="0.2810729675" flag="0"/>
      <vel value="0.1863941701" flag="0"/>
      <psa03 value="0.5950046260" flag="0"/>
      <psa10 value="0.2193870047" flag="0"/>
      <psa30 value="0.0275203961" flag="0"/>
    </comp>
    <comp name="00.HNN">
      <acc value="0.2029574831" flag="0"/>
      <vel value="0.1991140415" flag="0"/>
      <psa03 value="0.6523468895" flag="0"/>
      <psa10 value="0.2717616803" flag="0"/>
      <psa30 value="0.0261486550" flag="0"/>
    </comp>
    <comp name="00.HNZ">
      <acc value="0.1684764994" flag="0"/>
      <vel value="0.0870909650" flag="0"/>
      <psa03 value="0.3505583566" flag="0"/>
      <psa10 value="0.1330091757" flag="0"/>
      <psa30 value="0.0124423214" flag="0"/>
    </comp>
  </station>
  <station code="PATC" name="PATC" netid="HL" source="NOA" insttype="CMG-5" lat="38.2693" lon="21.76">
    <comp name="00.HNE">
      <acc value="0.0399501116" flag="0"/>
      <vel value="0.0654539428" flag="0"/>
      <psa03 value="0.1141674433" flag="0"/>
      <psa10 value="0.1013581315" flag="0"/>
      <psa30 value="0.0229176637" flag="0"/>
    </comp>
    <comp name="00.HNN">
      <acc value="0.0383701450" flag="0"/>
      <vel value="0.0518663769" flag="0"/>
      <psa03 value="0.1133375962" flag="0"/>
      <psa10 value="0.1209227559" flag="0"/>
      <psa30 value="0.0213526670" flag="0"/>
    </comp>
    <comp name="00.HNZ">
      <acc value="0.0356078055" flag="0"/>
      <vel value="0.0271873485" flag="0"/>
      <psa03 value="0.0590831040" flag="0"/>
      <psa10 value="0.0573405564" flag="0"/>
      <psa30 value="0.0082140755" flag="0"/>
    </comp>
  </station>
  <station code="PATG" name="PATG" netid="HL" source="NOA" insttype="CMG-5" lat="38.2386" lon="21.7266">
    <comp name="00.HNE">
      <acc value="0.0455799551" flag="0"/>
      <vel value="0.0643904432" flag="0"/>
      <psa03 value="0.0835707869" flag="0"/>
      <psa10 value="0.1055182411" flag="0"/>
      <psa30 value="0.0197760820" flag="0"/>
    </comp>
    <comp name="00.HNN">
      <acc value="0.0569718027" flag="0"/>
      <vel value="0.0778440980" flag="0"/>
      <psa03 value="0.1778357921" flag="0"/>
      <psa10 value="0.0966923087" flag="0"/>
      <psa30 value="0.0246452682" flag="0"/>
    </comp>
    <comp name="00.HNZ">
      <acc value="0.0233888058" flag="0"/>
      <vel value="0.0420196422" flag="0"/>
      <psa03 value="0.0584654285" flag="0"/>
      <psa10 value="0.0788113592" flag="0"/>
      <psa30 value="0.0192645035" flag="0"/>
    </comp>
  </station>
  <station code="RIOA" name="RIOA" netid="HL" source="NOA" insttype="CMG-5" lat="38.2959" lon="21.7912">
    <comp name="00.HNE">
      <acc value="0.0202322340" flag="0"/>
      <vel value="0.0314525920" flag="0"/>
      <psa03 value="0.0561171239" flag="0"/>
      <psa10 value="0.0415381029" flag="0"/>
      <psa30 value="0.0181144332" flag="0"/>
    </comp>
    <comp name="00.HNN">
      <acc value="0.0261654740" flag="0"/>
      <vel value="0.0395923753" flag="0"/>
      <psa03 value="0.0509791623" flag="0"/>
      <psa10 value="0.0484845063" flag="0"/>
      <psa30 value="0.0167653357" flag="0"/>
    </comp>
    <comp name="00.HNZ">
      <acc value="0.0180002543" flag="0"/>
      <vel value="0.0234195447" flag="0"/>
      <psa03 value="0.0396555477" flag="0"/>
      <psa10 value="0.0360934370" flag="0"/>
      <psa30 value="0.0075211188" flag="0"/>
    </comp>
  </station>
  <station code="RLS" name="RLS" netid="HL" source="NOA" insttype="120" lat="38.0559" lon="21.4647">
    <comp name="--.HHE">
      <acc value="0.0362329590" flag="0"/>
      <vel value="0.0358802924" flag="0"/>
      <psa03 value="0.0727516444" flag="0"/>
      <psa10 value="0.0461965746" flag="0"/>
      <psa30 value="0.0052111747" flag="0"/>
    </comp>
    <comp name="--.HHN">
      <acc value="0.0362616259" flag="0"/>
      <vel value="0.0261020528" flag="0"/>
      <psa03 value="0.0706429760" flag="0"/>
      <psa10 value="0.0332219353" flag="0"/>
      <psa30 value="0.0048305204" flag="0"/>
    </comp>
    <comp name="--.HHZ">
      <acc value="0.0171881158" flag="0"/>
      <vel value="0.0146299000" flag="0"/>
      <psa03 value="0.0505826513" flag="0"/>
      <psa10 value="0.0223384440" flag="0"/>
      <psa30 value="0.0039384459" flag="0"/>
    </comp>
  </station>
  <station code="VLS" name="VLS" netid="HL" source="NOA" insttype="120P," lat="38.1768" lon="20.5886">
    <comp name="--.HHE">
      <acc value="0.2126438946" flag="0"/>
      <vel value="0.0591526536" flag="0"/>
      <psa03 value="0.3633859889" flag="0"/>
      <psa10 value="0.0623941172" flag="0"/>
      <psa30 value="0.0072741468" flag="0"/>
    </comp>
    <comp name="--.HHN">
      <acc value="0.2198721435" flag="0"/>
      <vel value="0.0823006918" flag="0"/>
      <psa03 value="0.3654446828" flag="0"/>
      <psa10 value="0.0666091123" flag="0"/>
      <psa30 value="0.0061424844" flag="0"/>
    </comp>
    <comp name="--.HHZ">
      <acc value="0.0892168486" flag="0"/>
      <vel value="0.0450741619" flag="0"/>
      <psa03 value="0.1902780654" flag="0"/>
      <psa10 value="0.0528402181" flag="0"/>
      <psa30 value="0.0059501526" flag="0"/>
    </comp>
  </station>
  <station code="AMT" name="AMT" netid="HP" source="NOA" insttype="CMG-3T," lat="37.5324" lon="21.7089">
    <comp name="00.HHE">
      <acc value="0.0368693127" flag="0"/>
      <vel value="0.0371918645" flag="0"/>
      <psa03 value="0.1385753201" flag="0"/>
      <psa10 value="0.0909432744" flag="0"/>
      <psa30 value="0.0062321668" flag="0"/>
    </comp>
    <comp name="00.HHN">
      <acc value="0.0420789588" flag="0"/>
      <vel value="0.0520308792" flag="0"/>
      <psa03 value="0.1590437365" flag="0"/>
      <psa10 value="0.0616404246" flag="0"/>
      <psa30 value="0.0142828792" flag="0"/>
    </comp>
    <comp name="00.HHZ">
      <acc value="0.0293877291" flag="0"/>
      <vel value="0.0201626553" flag="0"/>
      <psa03 value="0.1025116607" flag="0"/>
      <psa10 value="0.0404756730" flag="0"/>
      <psa30 value="0.0046935671" flag="0"/>
    </comp>
  </station>
  <station code="ANX" name="ANX" netid="HP" source="NOA" insttype="120" lat="38.5933" lon="21.9209">
    <comp name="--.HHE">
      <acc value="0.0132281409" flag="0"/>
      <vel value="0.0107430436" flag="0"/>
      <psa03 value="0.0333570790" flag="0"/>
      <psa10 value="0.0162253487" flag="0"/>
      <psa30 value="0.0013494974" flag="0"/>
    </comp>
    <comp name="--.HHN">
      <acc value="0.0233472356" flag="0"/>
      <vel value="0.0194859926" flag="0"/>
      <psa03 value="0.0520915620" flag="0"/>
      <psa10 value="0.0355630624" flag="0"/>
      <psa30 value="0.0042704093" flag="0"/>
    </comp>
    <comp name="--.HHZ">
      <acc value="0.0108774267" flag="0"/>
      <vel value="0.0095425354" flag="0"/>
      <psa03 value="0.0346818198" flag="0"/>
      <psa10 value="0.0151269653" flag="0"/>
      <psa30 value="0.0046807622" flag="0"/>
    </comp>
  </station>
  <station code="DRO" name="DRO" netid="HP" source="NOA" insttype="120P," lat="37.952" lon="21.71">
    <comp name="--.HHE">
      <acc value="0.0531765191" flag="0"/>
      <vel value="0.0451060485" flag="0"/>
