<stationlist xmlns:esm="https://esm-db.eu/esmws/shakemap/1/" created="1780710893">
	<station code="ROD3" name="ROD3" netid="CL" source="Corinth Riff Laboratory (CRLNET)" insttype="" lat="38.30811" lon="21.89204" esm:processing="manual (Paolucci et al 2011)" esm:quality="good">
		<comp name="00.HNE" depth="0.0">
			<acc value="0.0455803434393929" flag="0"/>
			<vel value="0.0295270441735037" flag="0"/>
			<psa03 value="0.170244096182524" flag="0"/>
			<psa10 value="0.0336157146764399" flag="0"/>
			<psa30 value="0.00947058287488958" flag="0"/>
		</comp>
		<comp name="00.HNN" depth="0.0">
			<acc value="0.0444042472464196" flag="0"/>
			<vel value="0.0329702016030763" flag="0"/>
			<psa03 value="0.218341968297166" flag="0"/>
			<psa10 value="0.0401874499845317" flag="0"/>
			<psa30 value="0.00679007727638892" flag="0"/>
		</comp>
		<comp name="00.HNZ" depth="0.0">
			<acc value="0.0186772164591076" flag="0"/>
			<vel value="0.0135154722113663" flag="0"/>
			<psa03 value="0.049887560379373" flag="0"/>
			<psa10 value="0.0219822935336231" flag="0"/>
			<psa30 value="0.0022550072135609" flag="0"/>
		</comp>
	</station>
	<station code="AGR3" name="AGR3" netid="HI" source="ITSAK Strong Motion Network" insttype="" lat="38.5893" lon="21.4162" esm:processing="automatic (Paolucci et al 2011)" esm:quality="best">
		<comp name="--.HNE" depth="0.0">
			<acc value="0.0636362925316546" flag="0"/>
			<vel value="0.0620415728402735" flag="0"/>
			<psa03 value="0.160722126218745" flag="0"/>
			<psa10 value="0.106977059205156" flag="0"/>
			<psa30 value="0.0162328620141083" flag="0"/>
		</comp>
		<comp name="--.HNN" depth="0.0">
			<acc value="0.0422095948507474" flag="0"/>
			<vel value="0.0580467150485511" flag="0"/>
			<psa03 value="0.0939552865766271" flag="0"/>
			<psa10 value="0.123644325829771" flag="0"/>
			<psa30 value="0.0189762087473658" flag="0"/>
		</comp>
		<comp name="--.HNZ" depth="0.0">
			<acc value="0.0268059309648458" flag="0"/>
			<vel value="0.0494421814699953" flag="0"/>
			<psa03 value="0.0672755608424011" flag="0"/>
			<psa10 value="0.113883006690284" flag="0"/>
			<psa30 value="0.0111805889924826" flag="0"/>
		</comp>
	</station>
	<station code="AKR1" name="AKR1" netid="HI" source="ITSAK Strong Motion Network" insttype="" lat="38.153583" lon="22.31326" esm:processing="automatic (Paolucci et al 2011)" esm:quality="best">
		<comp name="--.HNE" depth="0.0">
			<acc value="0.0137193254702562" flag="0"/>
			<vel value="0.0217656694124162" flag="0"/>
			<psa03 value="0.0530436961762134" flag="0"/>
			<psa10 value="0.0410087453781208" flag="0"/>
			<psa30 value="0.00566577866336358" flag="0"/>
		</comp>
		<comp name="--.HNN" depth="0.0">
			<acc value="0.0131496146826342" flag="0"/>
			<vel value="0.0177734980030436" flag="0"/>
			<psa03 value="0.0434415053906989" flag="0"/>
			<psa10 value="0.0346323404725896" flag="0"/>
			<psa30 value="0.00571252300994713" flag="0"/>
		</comp>
		<comp name="--.HNZ" depth="0.0">
			<acc value="0.00938704131960642" flag="0"/>
			<vel value="0.010023841164066" flag="0"/>
			<psa03 value="0.0242641568604764" flag="0"/>
			<psa10 value="0.0234180382051013" flag="0"/>
			<psa30 value="0.00307371736869065" flag="0"/>
		</comp>
	</station>
	<station code="AOL1" name="AOL1" netid="HI" source="ITSAK Strong Motion Network" insttype="" lat="37.642378" lon="21.624555" esm:processing="automatic (Paolucci et al 2011)" esm:quality="best">
		<comp name="--.HNE" depth="0.0">
			<acc value="0.102024381314618" flag="0"/>
			<vel value="0.0609685378240361" flag="0"/>
			<psa03 value="0.20305449303029" flag="0"/>
			<psa10 value="0.0989188178862166" flag="0"/>
			<psa30 value="0.0170258445453093" flag="0"/>
		</comp>
		<comp name="--.HNN" depth="0.0">
			<acc value="0.113378452596642" flag="0"/>
			<vel value="0.141515116618709" flag="0"/>
			<psa03 value="0.197757017098508" flag="0"/>
			<psa10 value="0.140523563996461" flag="0"/>
			<psa30 value="0.025380738015998" flag="0"/>
		</comp>
		<comp name="--.HNZ" depth="0.0">
			<acc value="0.0640271197727211" flag="0"/>
			<vel value="0.0355432819725512" flag="0"/>
			<psa03 value="0.197066783873945" flag="0"/>
			<psa10 value="0.0718550075416035" flag="0"/>
			<psa30 value="0.00663472368454923" flag="0"/>
		</comp>
	</station>
	<station code="ARG2" name="ARG2" netid="HI" source="ITSAK Strong Motion Network" insttype="" lat="38.1783" lon="20.4878" esm:processing="manual (Paolucci et al 2011)" esm:quality="good">
		<comp name="--.HNE" depth="0.0">
			<acc value="0.235933955713716" flag="0"/>
			<vel value="0.103388993824391" flag="0"/>
			<psa03 value="0.550015945958415" flag="0"/>
			<psa10 value="0.160729665945149" flag="0"/>
			<psa30 value="0.015052173150519" flag="0"/>
		</comp>
		<comp name="--.HNN" depth="0.0">
			<acc value="0.249444264464055" flag="0"/>
			<vel value="0.12803197762291" flag="0"/>
			<psa03 value="0.579366833500001" flag="0"/>
			<psa10 value="0.147308346225866" flag="0"/>
			<psa30 value="0.00978735769774694" flag="0"/>
		</comp>
		<comp name="--.HNZ" depth="0.0">
			<acc value="0.154433929764635" flag="0"/>
			<vel value="0.0487913372234315" flag="0"/>
			<psa03 value="0.485452941808249" flag="0"/>
			<psa10 value="0.0805923470932282" flag="0"/>
			<psa30 value="0.00720841690826976" flag="0"/>
		</comp>
	</station>
	<station code="ARS1" name="ARS1" netid="HI" source="ITSAK Strong Motion Network" insttype="" lat="37.6349" lon="22.7293" esm:processing="manual (Paolucci et al 2011)" esm:quality="good">
		<comp name="--.HNE" depth="0.0">
			<acc value="0.0108707280334286" flag="0"/>
			<vel value="0.0144261044682067" flag="0"/>
			<psa03 value="0.0229080097885551" flag="0"/>
			<psa10 value="0.036446554089178" flag="0"/>
			<psa30 value="0.00318877706568423" flag="0"/>
		</comp>
		<comp name="--.HNN" depth="0.0">
			<acc value="0.0110480668925128" flag="0"/>
			<vel value="0.0160654686362451" flag="0"/>
			<psa03 value="0.0344962413026875" flag="0"/>
			<psa10 value="0.0217326320206931" flag="0"/>
			<psa30 value="0.00433462497717817" flag="0"/>
		</comp>
		<comp name="--.HNZ" depth="0.0">
			<acc value="0.00781385528063646" flag="0"/>
			<vel value="0.00758216068998168" flag="0"/>
			<psa03 value="0.0296193407812959" flag="0"/>
			<psa10 value="0.0086495633834443" flag="0"/>
			<psa30 value="0.00267110973511082" flag="0"/>
		</comp>
	</station>
	<station code="AST1" name="AST1" netid="HI" source="ITSAK Strong Motion Network" insttype="" lat="38.5416" lon="21.0895" esm:processing="automatic (Paolucci et al 2011)" esm:quality="best">
		<comp name="--.HNE" depth="0.0">
			<acc value="0.0305957657585788" flag="0"/>
			<vel value="0.027155072545575" flag="0"/>
			<psa03 value="0.110983070833766" flag="0"/>
			<psa10 value="0.0374328647435783" flag="0"/>
			<psa30 value="0.00649178463220519" flag="0"/>
		</comp>
		<comp name="--.HNN" depth="0.0">
			<acc value="0.0268455774855441" flag="0"/>
			<vel value="0.0179797141408887" flag="0"/>
			<psa03 value="0.10534589531522" flag="0"/>
			<psa10 value="0.0435077196729035" flag="0"/>
			<psa30 value="0.00389292288703579" flag="0"/>
		</comp>
		<comp name="--.HNZ" depth="0.0">
			<acc value="0.0228804949199306" flag="0"/>
			<vel value="0.0210649701725281" flag="0"/>
			<psa03 value="0.0986211894197914" flag="0"/>
			<psa10 value="0.0433052250086258" flag="0"/>
			<psa30 value="0.00339291559734009" flag="0"/>
		</comp>
	</station>
	<station code="FRS1" name="FRS1" netid="HI" source="ITSAK Strong Motion Network" insttype="" lat="39.2934" lon="22.3844" esm:processing="automatic (Paolucci et al 2011)" esm:quality="best">
		<comp name="--.HNE" depth="0.0">
			<acc value="0.00389827488679019" flag="0"/>
			<vel value="0.00558392851418791" flag="0"/>
			<psa03 value="0.0061645965253072" flag="0"/>
			<psa10 value="0.00736306526693788" flag="0"/>
			<psa30 value="0.00341662258447831" flag="0"/>
		</comp>
		<comp name="--.HNN" depth="0.0">
			<acc value="0.00531833660390183" flag="0"/>
			<vel value="0.00518562771078486" flag="0"/>
			<psa03 value="0.00682218435810718" flag="0"/>
			<psa10 value="0.00709545597663576" flag="0"/>
			<psa30 value="0.00412998859147525" flag="0"/>
		</comp>
		<comp name="--.HNZ" depth="0.0">
			<acc value="0.00733909036661842" flag="0"/>
			<vel value="0.00655347983531734" flag="0"/>
			<psa03 value="0.0110424619776624" flag="0"/>
			<psa10 value="0.00549858941081279" flag="0"/>
			<psa30 value="0.00396033276927632" flag="0"/>
		</comp>
	</station>
	<station code="ITC1" name="ITC1" netid="HI" source="ITSAK Strong Motion Network" insttype="" lat="38.3647" lon="20.7156" esm:processing="automatic (Paolucci et al 2011)" esm:quality="best">
		<comp name="--.HNE" depth="0.0">
			<acc value="0.0648220833355388" flag="0"/>
			<vel value="0.0329849468861258" flag="0"/>
			<psa03 value="0.141715919234144" flag="0"/>
			<psa10 value="0.066750866917337" flag="0"/>
			<psa30 value="0.0053358059709588" flag="0"/>
		</comp>
		<comp name="--.HNN" depth="0.0">
			<acc value="0.0944676084938102" flag="0"/>
			<vel value="0.0517524758869738" flag="0"/>
			<psa03 value="0.208984948393853" flag="0"/>
			<psa10 value="0.0759434833830628" flag="0"/>
			<psa30 value="0.00621979328077969" flag="0"/>
		</comp>
		<comp name="--.HNZ" depth="0.0">
			<acc value="0.0520620316750361" flag="0"/>
			<vel value="0.0299379033491417" flag="0"/>
			<psa03 value="0.14325977150678" flag="0"/>
			<psa10 value="0.0345581568082859" flag="0"/>
			<psa30 value="0.00526181356932532" flag="0"/>
		</comp>
	</station>
	<station code="KAC1" name="KAC1" netid="HI" source="ITSAK Strong Motion Network" insttype="" lat="38.143412" lon="21.549694" esm:processing="manual (Paolucci et al 2011)" esm:quality="good">
		<comp name="--.HNE" depth="0.0">
			<acc value="0.0747895812113648" flag="0"/>
			<vel value="0.0690528067572639" flag="0"/>
			<psa03 value="0.188153610086592" flag="0"/>
			<psa10 value="0.152439858392482" flag="0"/>
			<psa30 value="0.0157804503773911" flag="0"/>
		</comp>
		<comp name="--.HNN" depth="0.0">
			<acc value="0.0737030234721488" flag="0"/>
			<vel value="0.0657457699634852" flag="0"/>
			<psa03 value="0.302762702376483" flag="0"/>
			<psa10 value="0.0856780032472293" flag="0"/>
			<psa30 value="0.0173872834888654" flag="0"/>
		</comp>
		<comp name="--.HNZ" depth="0.0">
			<acc value="0.0379270112044316" flag="0"/>
			<vel value="0.0377587149964436" flag="0"/>
			<psa03 value="0.0852716332022082" flag="0"/>
			<psa10 value="0.0568835320048254" flag="0"/>
			<psa30 value="0.0100480981371881" flag="0"/>
		</comp>
	</station>
	<station code="KAL3" name="KAL3" netid="HI" source="ITSAK Strong Motion Network" insttype="" lat="37.0246" lon="22.103" esm:processing="automatic (Paolucci et al 2011)" esm:quality="best">
		<comp name="--.HNE" depth="0.0">
			<acc value="0.0491147954017864" flag="0"/>
			<vel value="0.066790506577461" flag="0"/>
			<psa03 value="0.117722590210516" flag="0"/>
			<psa10 value="0.0931993965026194" flag="0"/>
			<psa30 value="0.0285202559936561" flag="0"/>
		</comp>
		<comp name="--.HNN" depth="0.0">
			<acc value="0.0457727919156423" flag="0"/>
			<vel value="0.0611595961646623" flag="0"/>
			<psa03 value="0.115549654597529" flag="0"/>
			<psa10 value="0.0966252634494913" flag="0"/>
			<psa30 value="0.0225348644908438" flag="0"/>
		</comp>
		<comp name="--.HNZ" depth="0.0">
			<acc value="0.0243806194230024" flag="0"/>
			<vel value="0.0253550833470575" flag="0"/>
			<psa03 value="0.0562759363379277" flag="0"/>
			<psa10 value="0.0554488519643138" flag="0"/>
			<psa30 value="0.00690090798461941" flag="0"/>
		</comp>
	</station>
	<station code="KLV1" name="KLV1" netid="HI" source="ITSAK Strong Motion Network" insttype="" lat="38.03256" lon="22.10797" esm:processing="manual (Paolucci et al 2011)" esm:quality="good">
		<comp name="--.HNE" depth="0.0">
			<acc value="0.0210870984992596" flag="0"/>
			<vel value="0.0156344939523678" flag="0"/>
			<psa03 value="0.0485900363874431" flag="0"/>
			<psa10 value="0.0250064192789521" flag="0"/>
			<psa30 value="0.00418026436434513" flag="0"/>
		</comp>
		<comp name="--.HNN" depth="0.0">
			<acc value="0.0152634189747004" flag="0"/>
			<vel value="0.0157377625946508" flag="0"/>
			<psa03 value="0.0534221947022165" flag="0"/>
			<psa10 value="0.033672089856779" flag="0"/>
			<psa30 value="0.00539904207262685" flag="0"/>
		</comp>
		<comp name="--.HNZ" depth="0.0">
			<acc value="0.0102575963723356" flag="0"/>
			<vel value="0.013985111452186" flag="0"/>
			<psa03 value="0.0213420325569156" flag="0"/>
			<psa10 value="0.0235406645901375" flag="0"/>
			<psa30 value="0.00369749595493398" flag="0"/>
		</comp>
	</station>
	<station code="KRI1" name="KRI1" netid="HI" source="ITSAK Strong Motion Network" insttype="" lat="37.6621" lon="20.8172" esm:processing="manual (Paolucci et al 2011)" esm:quality="good">
		<comp name="--.HNE" depth="0.0">
			<acc value="0.965900458679043" flag="0"/>
			<vel value="0.433756898302943" flag="0"/>
			<psa03 value="1.97384718717168" flag="0"/>
			<psa10 value="0.221163859268581" flag="0"/>
			<psa30 value="0.0206310788937513" flag="0"/>
		</comp>
		<comp name="--.HNN" depth="0.0">
			<acc value="0.721588925303445" flag="0"/>
			<vel value="0.36483207457183" flag="0"/>
			<psa03 value="1.97756079032099" flag="0"/>
			<psa10 value="0.346602662321501" flag="0"/>
			<psa30 value="0.0230950322122195" flag="0"/>
		</comp>
		<comp name="--.HNZ" depth="0.0">
			<acc value="0.456872488189897" flag="0"/>
			<vel value="0.192998995413812" flag="0"/>
			<psa03 value="0.770058118107075" flag="0"/>
			<psa10 value="0.239252238560215" flag="0"/>
			<psa30 value="0.0208422621089895" flag="0"/>
		</comp>
	</station>
	<station code="KRK1" name="KRK1" netid="HI" source="ITSAK Strong Motion Network" insttype="" lat="39.618861" lon="19.9202" esm:processing="manual (Paolucci et al 2011)" esm:quality="good">
		<comp name="--.HNE" depth="0.0">
			<acc value="0.0181715516777195" flag="0"/>
			<vel value="0.012858629772184" flag="0"/>
			<psa03 value="0.047247770188895" flag="0"/>
			<psa10 value="0.0263312360169191" flag="0"/>
			<psa30 value="0.0048567665284134" flag="0"/>
		</comp>
		<comp name="--.HNN" depth="0.0">
			<acc value="0.0174767399215938" flag="0"/>
			<vel value="0.0144577759364968" flag="0"/>
			<psa03 value="0.04478694882489" flag="0"/>
			<psa10 value="0.0181286472775913" flag="0"/>
			<psa30 value="0.00211675379511044" flag="0"/>
		</comp>
		<comp name="--.HNZ" depth="0.0">
			<acc value="0.0072487900182315" flag="0"/>
			<vel value="0.00679483675333394" flag="0"/>
			<psa03 value="0.0244739870201947" flag="0"/>
			<psa10 value="0.00839184827332305" flag="0"/>
			<psa30 value="0.00157000403023516" flag="0"/>
		</comp>
	</station>
	<station code="LEF2" name="LEF2" netid="HI" source="ITSAK Strong Motion Network" insttype="" lat="38.830093" lon="20.708346" esm:processing="automatic (Paolucci et al 2011)" esm:quality="best">
		<comp name="--.HNE" depth="0.0">
			<acc value="0.0714890032503516" flag="0"/>
			<vel value="0.101544999057978" flag="0"/>
			<psa03 value="0.280282213154401" flag="0"/>
			<psa10 value="0.145187087932034" flag="0"/>
			<psa30 value="0.0301208420246254" flag="0"/>
		</comp>
		<comp name="--.HNN" depth="0.0">
			<acc value="0.0941525391609775" flag="0"/>
			<vel value="0.104332996648564" flag="0"/>
			<psa03 value="0.28130250991072" flag="0"/>
			<psa10 value="0.153854797125229" flag="0"/>
			<psa30 value="0.0223690051701445" flag="0"/>
		</comp>
		<comp name="--.HNZ" depth="0.0">
			<acc value="0.0690190531817897" flag="0"/>
			<vel value="0.0653743210008334" flag="0"/>
			<psa03 value="0.200148904715991" flag="0"/>
			<psa10 value="0.106919785411048" flag="0"/>
			<psa30 value="0.0135715815506719" flag="0"/>
		</comp>
	</station>
	<station code="LEO1" name="LEO1" netid="HI" source="ITSAK Strong Motion Network" insttype="" lat="37.1689" lon="22.8637" esm:processing="automatic (Paolucci et al 2011)" esm:quality="best">
		<comp name="--.HNE" depth="0.0">
			<acc value="0.00694983415461431" flag="0"/>
			<vel value="0.00670699276129052" flag="0"/>
			<psa03 value="0.0138115282272116" flag="0"/>
			<psa10 value="0.0102128621769971" flag="0"/>
			<psa30 value="0.00266206614048373" flag="0"/>
		</comp>
		<comp name="--.HNN" depth="0.0">
			<acc value="0.00513530169055655" flag="0"/>
			<vel value="0.00745988529111793" flag="0"/>
			<psa03 value="0.00875340864640499" flag="0"/>
			<psa10 value="0.00948460237085905" flag="0"/>
			<psa30 value="0.00295635876092552" flag="0"/>
		</comp>
		<comp name="--.HNZ" depth="0.0">
			<acc value="0.00522831297218703" flag="0"/>
			<vel value="0.00675923713144917" flag="0"/>
			<psa03 value="0.0105657116452927" flag="0"/>
			<psa10 value="0.00714093945844321" flag="0"/>
			<psa30 value="0.00223543954523224" flag="0"/>
		</comp>
	</station>
	<station code="LXR1" name="LXR1" netid="HI" source="ITSAK Strong Motion Network" insttype="" lat="38.201" lon="20.4374" esm:processing="automatic (Paolucci et al 2011)" esm:quality="best">
		<comp name="--.HNE" depth="0.0">
			<acc value="0.406571751700127" flag="0"/>
			<vel value="0.278656124572552" flag="0"/>
			<psa03 value="1.49209817751476" flag="0"/>
			<psa10 value="0.250348134335255" flag="0"/>
			<psa30 value="0.0303082711075489" flag="0"/>
		</comp>
		<comp name="--.HNN" depth="0.0">
			<acc value="0.357447929301329" flag="0"/>
			<vel value="0.216535680700595" flag="0"/>
			<psa03 value="1.27166149133281" flag="0"/>
			<psa10 value="0.298174272582195" flag="0"/>
			<psa30 value="0.0287142621789471" flag="0"/>
		</comp>
		<comp name="--.HNZ" depth="0.0">
			<acc value="0.251397271745587" flag="0"/>
			<vel value="0.117292621298856" flag="0"/>
			<psa03 value="0.656459153863876" flag="0"/>
			<psa10 value="0.131743422355168" flag="0"/>
			<psa30 value="0.0131055806804012" flag="0"/>
		</comp>
	</station>
	<station code="MGP1" name="MGP1" netid="HI" source="ITSAK Strong Motion Network" insttype="" lat="37.403248" lon="22.140703" esm:processing="manual (Paolucci et al 2011)" esm:quality="good">
		<comp name="--.HNE" depth="0.0">
			<acc value="0.0519185945351661" flag="0"/>
			<vel value="0.0944420052624541" flag="0"/>
			<psa03 value="0.157799443021994" flag="0"/>
			<psa10 value="0.118301429389104" flag="0"/>
			<psa30 value="0.0292918104386848" flag="0"/>
		</comp>
		<comp name="--.HNN" depth="0.0">
			<acc value="0.0580659471825043" flag="0"/>
			<vel value="0.0957744597909503" flag="0"/>
			<psa03 value="0.151974859255238" flag="0"/>
			<psa10 value="0.106707446344627" flag="0"/>
			<psa30 value="0.0268711767502495" flag="0"/>
		</comp>
		<comp name="--.HNZ" depth="0.0">
			<acc value="0.0251073144148026" flag="0"/>
			<vel value="0.0530029734598565" flag="0"/>
			<psa03 value="0.0399910033743745" flag="0"/>
			<psa10 value="0.047167688377868" flag="0"/>
			<psa30 value="0.0271095042049404" flag="0"/>
		</comp>
	</station>
	<station code="MSL1" name="MSL1" netid="HI" source="ITSAK Strong Motion Network" insttype="" lat="38.3727" lon="21.4243" esm:processing="manual (Paolucci et al 2011)" esm:quality="good">
		<comp name="--.HNE" depth="0.0">
			<acc value="0.0662918555412365" flag="0"/>
			<vel value="0.0912310929244914" flag="0"/>
			<psa03 value="0.164696062561858" flag="0"/>
			<psa10 value="0.19204205182488" flag="0"/>
			<psa30 value="0.0203478607258576" flag="0"/>
		</comp>
		<comp name="--.HNN" depth="0.0">
			<acc value="0.0616432602469625" flag="0"/>
			<vel value="0.092361961820257" flag="0"/>
			<psa03 value="0.154405355039656" flag="0"/>
			<psa10 value="0.188768264566621" flag="0"/>
			<psa30 value="0.0156351641027551" flag="0"/>
		</comp>
		<comp name="--.HNZ" depth="0.0">
			<acc value="0.0304081611420416" flag="0"/>
			<vel value="0.0353394102424666" flag="0"/>
			<psa03 value="0.0653236216626768" flag="0"/>
			<psa10 value="0.0938324608757072" flag="0"/>
			<psa30 value="0.00536324830733223" flag="0"/>
		</comp>
	</station>
