<?xml version="1.0" encoding="UTF-8" standalone="yes"?>
<!DOCTYPE earthquake SYSTEM "stationlist.dtd">
<stationlist created="" xmlns="ch.ethz.sed.shakemap.usgs.xml">
  <station code="BERA" name="BERA" netid="AC" insttype="" lat="40.7081" lon="19.9455">
    <comp name="00.HHE">
      <acc value="0.0209086848" flag="0"/>
      <vel value="0.0077471821" flag="0"/>
      <psa03 value="0.0355579995" flag="0"/>
      <psa10 value="0.0070891843" flag="0"/>
      <psa30 value="0.0006979187" flag="0"/>
    </comp>
    <comp name="00.HHN">
      <acc value="0.0169081706" flag="0"/>
      <vel value="0.0072258645" flag="0"/>
      <psa03 value="0.0333318333" flag="0"/>
      <psa10 value="0.0062509222" flag="0"/>
      <psa30 value="0.0005146706" flag="0"/>
    </comp>
    <comp name="00.HHZ">
      <acc value="0.0164023163" flag="0"/>
      <vel value="0.0041526738" flag="0"/>
      <psa03 value="0.0214278314" flag="0"/>
      <psa10 value="0.0036387846" flag="0"/>
      <psa30 value="0.0002981032" flag="0"/>
    </comp>
  </station>
  <station code="KBN" name="KBN" netid="AC" insttype="" lat="40.6236" lon="20.7874">
    <comp name="--.HHE">
      <acc value="0.0700645231" flag="0"/>
      <vel value="0.0232039452" flag="0"/>
      <psa03 value="0.1085159077" flag="0"/>
      <psa10 value="0.0307551018" flag="0"/>
      <psa30 value="0.0016607746" flag="0"/>
    </comp>
    <comp name="--.HHN">
      <acc value="0.0638315775" flag="0"/>
      <vel value="0.0189722599" flag="0"/>
      <psa03 value="0.0749575348" flag="0"/>
      <psa10 value="0.0193531279" flag="0"/>
      <psa30 value="0.0020187488" flag="0"/>
    </comp>
    <comp name="--.HHZ">
      <acc value="0.0649550351" flag="0"/>
      <vel value="0.0146338331" flag="0"/>
      <psa03 value="0.0688507051" flag="0"/>
      <psa10 value="0.0209238240" flag="0"/>
      <psa30 value="0.0016103564" flag="0"/>
    </comp>
  </station>
  <station code="SRN" name="SRN" netid="AC" insttype="" lat="39.88" lon="20.0005">
    <comp name="--.HHN">
      <acc value="0.0018908289" flag="0"/>
      <vel value="0.0009754866" flag="0"/>
      <psa03 value="0.0038615199" flag="0"/>
      <psa10 value="0.0013514869" flag="0"/>
      <psa30 value="0.0000923141" flag="0"/>
    </comp>
    <comp name="--.HHE">
      <acc value="0.0020520904" flag="0"/>
      <vel value="0.0013864715" flag="0"/>
      <psa03 value="0.0052092090" flag="0"/>
      <psa10 value="0.0025636304" flag="0"/>
      <psa30 value="0.0001639332" flag="0"/>
    </comp>
    <comp name="--.HHZ">
      <acc value="0.0016839866" flag="0"/>
      <vel value="0.0008665800" flag="0"/>
      <psa03 value="0.0035742564" flag="0"/>
      <psa10 value="0.0008581694" flag="0"/>
      <psa30 value="0.0000918118" flag="0"/>
    </comp>
  </station>
  <station code="KEK" name="KEK" netid="MN" insttype="" lat="39.7127" lon="19.7962">
    <comp name="--.HHE">
      <acc value="0.0028907414" flag="0"/>
      <vel value="0.0021164993" flag="0"/>
      <psa03 value="0.0075866820" flag="0"/>
      <psa10 value="0.0029589258" flag="0"/>
      <psa30 value="0.0002511748" flag="0"/>
    </comp>
    <comp name="--.HHN">
      <acc value="0.0026168538" flag="0"/>
      <vel value="0.0014195366" flag="0"/>
      <psa03 value="0.0055479247" flag="0"/>
      <psa10 value="0.0025208177" flag="0"/>
      <psa30 value="0.0001351800" flag="0"/>
    </comp>
    <comp name="--.HHZ">
      <acc value="0.0021746877" flag="0"/>
      <vel value="0.0015300203" flag="0"/>
      <psa03 value="0.0045854539" flag="0"/>
      <psa10 value="0.0018597305" flag="0"/>
      <psa30 value="0.0001065842" flag="0"/>
    </comp>
  </station>
</stationlist>
