<?xml version="1.0" encoding="UTF-8" standalone="yes"?>
<!DOCTYPE earthquake SYSTEM "stationlist.dtd">
<stationlist created="" xmlns="ch.ethz.sed.shakemap.usgs.xml">
  <station code="BERA" name="BERA" netid="AC" insttype="" lat="40.7081" lon="19.9455">
    <comp name="00.HHE">
      <acc value="0.0209086848" flag="0"/>
      <vel value="0.0077471823" flag="0"/>
      <psa03 value="0.0355579995" flag="0"/>
      <psa10 value="0.0070891843" flag="0"/>
      <psa30 value="0.0006979171" flag="0"/>
    </comp>
    <comp name="00.HHN">
      <acc value="0.0169081707" flag="0"/>
      <vel value="0.0072258634" flag="0"/>
      <psa03 value="0.0333318333" flag="0"/>
      <psa10 value="0.0062509222" flag="0"/>
      <psa30 value="0.0005146775" flag="0"/>
    </comp>
    <comp name="00.HHZ">
      <acc value="0.0164023161" flag="0"/>
      <vel value="0.0041526740" flag="0"/>
      <psa03 value="0.0214278314" flag="0"/>
      <psa10 value="0.0036387846" flag="0"/>
      <psa30 value="0.0002980610" flag="0"/>
    </comp>
  </station>
  <station code="KBN" name="KBN" netid="AC" insttype="" lat="40.6236" lon="20.7874">
    <comp name="--.HHE">
      <acc value="0.0700645232" flag="0"/>
      <vel value="0.0232039450" flag="0"/>
      <psa03 value="0.1085159077" flag="0"/>
      <psa10 value="0.0307551017" flag="0"/>
      <psa30 value="0.0016607727" flag="0"/>
    </comp>
    <comp name="--.HHN">
      <acc value="0.0638315775" flag="0"/>
      <vel value="0.0189722607" flag="0"/>
      <psa03 value="0.0749575348" flag="0"/>
      <psa10 value="0.0193531279" flag="0"/>
      <psa30 value="0.0020187852" flag="0"/>
    </comp>
    <comp name="--.HHZ">
      <acc value="0.0649550351" flag="0"/>
      <vel value="0.0146338326" flag="0"/>
      <psa03 value="0.0688507051" flag="0"/>
      <psa10 value="0.0209238240" flag="0"/>
      <psa30 value="0.0016103891" flag="0"/>
    </comp>
  </station>
  <station code="SRN" name="SRN" netid="AC" insttype="" lat="39.88" lon="20.0005">
    <comp name="--.HHE">
      <acc value="0.0020520906" flag="0"/>
      <vel value="0.0013864717" flag="0"/>
      <psa03 value="0.0052092090" flag="0"/>
      <psa10 value="0.0025636304" flag="0"/>
      <psa30 value="0.0001639897" flag="0"/>
    </comp>
    <comp name="--.HHN">
      <acc value="0.0018908288" flag="0"/>
      <vel value="0.0009754827" flag="0"/>
      <psa03 value="0.0038615199" flag="0"/>
      <psa10 value="0.0013514869" flag="0"/>
      <psa30 value="0.0000923518" flag="0"/>
    </comp>
    <comp name="--.HHZ">
      <acc value="0.0016839867" flag="0"/>
      <vel value="0.0008665808" flag="0"/>
      <psa03 value="0.0035742564" flag="0"/>
      <psa10 value="0.0008581693" flag="0"/>
      <psa30 value="0.0000917983" flag="0"/>
    </comp>
  </station>
  <station code="LMS2" name="LMS2" netid="HI" insttype="CMG-5TD,ACCELEROMETER,GURALP" lat="40.835" lon="21.1418">
    <comp name="--.HNE">
      <acc value="0.0326479545" flag="0"/>
      <vel value="0.0085789068" flag="0"/>
      <psa03 value="0.0280060672" flag="0"/>
      <psa10 value="0.0067126858" flag="0"/>
      <psa30 value="0.0003475831" flag="0"/>
    </comp>
    <comp name="--.HNN">
      <acc value="0.0699482921" flag="0"/>
      <vel value="0.0167547060" flag="0"/>
      <psa03 value="0.0322503702" flag="0"/>
      <psa10 value="0.0061204169" flag="0"/>
      <psa30 value="0.0003070669" flag="0"/>
    </comp>
    <comp name="--.HNZ">
      <acc value="0.0113843667" flag="0"/>
      <vel value="0.0031969762" flag="0"/>
      <psa03 value="0.0150594874" flag="0"/>
      <psa10 value="0.0021831576" flag="0"/>
      <psa30 value="0.0002725931" flag="0"/>
    </comp>
  </station>
  <station code="JAN" name="JAN" netid="HL" insttype="CMG3EPSC60_DR24" lat="39.6562" lon="20.8487">
    <comp name="--.HHE">
      <acc value="0.0111703968" flag="0"/>
      <vel value="0.0053243998" flag="0"/>
      <psa03 value="0.0218282771" flag="0"/>
      <psa10 value="0.0047797682" flag="0"/>
      <psa30 value="0.0003693634" flag="0"/>
    </comp>
    <comp name="--.HHZ">
      <acc value="0.0063102605" flag="0"/>
      <vel value="0.0034654167" flag="0"/>
      <psa03 value="0.0153372978" flag="0"/>
      <psa10 value="0.0018696956" flag="0"/>
      <psa30 value="0.0002309111" flag="0"/>
    </comp>
    <comp name="--.HHN">
      <acc value="0.0096613420" flag="0"/>
      <vel value="0.0042565603" flag="0"/>
      <psa03 value="0.0342819637" flag="0"/>
      <psa10 value="0.0043455874" flag="0"/>
      <psa30 value="0.0003194845" flag="0"/>
    </comp>
  </station>
  <station code="KEK" name="KEK" netid="HL" insttype="120" lat="39.7127" lon="19.7962">
    <comp name="--.HHN">
      <acc value="0.0026168555" flag="0"/>
      <vel value="0.0014195365" flag="0"/>
      <psa03 value="0.0055479285" flag="0"/>
      <psa10 value="0.0025208194" flag="0"/>
      <psa30 value="0.0001351778" flag="0"/>
    </comp>
    <comp name="--.HHZ">
      <acc value="0.0021746890" flag="0"/>
      <vel value="0.0015300204" flag="0"/>
      <psa03 value="0.0045854571" flag="0"/>
      <psa10 value="0.0018597319" flag="0"/>
      <psa30 value="0.0001065879" flag="0"/>
    </comp>
    <comp name="--.HHE">
      <acc value="0.0028907433" flag="0"/>
      <vel value="0.0021165016" flag="0"/>
      <psa03 value="0.0075866873" flag="0"/>
      <psa10 value="0.0029589279" flag="0"/>
      <psa30 value="0.0002511251" flag="0"/>
    </comp>
  </station>
  <station code="KZN" name="KZN" netid="HL" insttype="120" lat="40.3033" lon="21.7821">
    <comp name="--.HHE">
      <acc value="0.0116480517" flag="0"/>
      <vel value="0.0044398920" flag="0"/>
      <psa03 value="0.0177229577" flag="0"/>
      <psa10 value="0.0035681189" flag="0"/>
      <psa30 value="0.0003109209" flag="0"/>
    </comp>
    <comp name="--.HHN">
      <acc value="0.0092786813" flag="0"/>
      <vel value="0.0045368750" flag="0"/>
      <psa03 value="0.0163312049" flag="0"/>
      <psa10 value="0.0025700917" flag="0"/>
      <psa30 value="0.0003154961" flag="0"/>
    </comp>
    <comp name="--.HHZ">
      <acc value="0.0051485889" flag="0"/>
      <vel value="0.0023875718" flag="0"/>
      <psa03 value="0.0110942295" flag="0"/>
      <psa10 value="0.0031031398" flag="0"/>
      <psa30 value="0.0002792743" flag="0"/>
    </comp>
  </station>
  <station code="KPRO" name="KPRO" netid="HT" insttype="100" lat="39.9549" lon="21.3632">
    <comp name="--.HHN">
      <acc value="0.0229249390" flag="0"/>
      <vel value="0.0061685005" flag="0"/>
      <psa03 value="0.0287287028" flag="0"/>
      <psa10 value="0.0048628614" flag="0"/>
      <psa30 value="0.0005443776" flag="0"/>
    </comp>
    <comp name="--.HHZ">
      <acc value="0.0125999872" flag="0"/>
      <vel value="0.0052842144" flag="0"/>
      <psa03 value="0.0138935960" flag="0"/>
      <psa10 value="0.0075155620" flag="0"/>
      <psa30 value="0.0006236032" flag="0"/>
    </comp>
    <comp name="--.HHE">
      <acc value="0.0257314083" flag="0"/>
      <vel value="0.0060316254" flag="0"/>
      <psa03 value="0.0335108394" flag="0"/>
      <psa10 value="0.0054032962" flag="0"/>
      <psa30 value="0.0006962523" flag="0"/>
    </comp>
  </station>
  <station code="NEST" name="NEST" netid="HT" insttype="120P," lat="40.4147" lon="21.0489">
    <comp name="--.HHE">
      <acc value="0.0804651460" flag="0"/>
      <vel value="0.0226325640" flag="0"/>
      <psa03 value="0.0748050358" flag="0"/>
      <psa10 value="0.0092341237" flag="0"/>
      <psa30 value="0.0010786752" flag="0"/>
    </comp>
    <comp name="--.HHZ">
      <acc value="0.0760631574" flag="0"/>
      <vel value="0.0206063264" flag="0"/>
      <psa03 value="0.0735975540" flag="0"/>
      <psa10 value="0.0137720169" flag="0"/>
      <psa30 value="0.0016537479" flag="0"/>
    </comp>
    <comp name="--.HHN">
      <acc value="0.0808456233" flag="0"/>
      <vel value="0.0178899934" flag="0"/>
      <psa03 value="0.0778163897" flag="0"/>
      <psa10 value="0.0181554827" flag="0"/>
      <psa30 value="0.0010841119" flag="0"/>
    </comp>
  </station>
  <station code="KEK" name="KEK" netid="MN" insttype="" lat="39.7127" lon="19.7962">
    <comp name="--.HHE">
      <acc value="0.0028907413" flag="0"/>
      <vel value="0.0021165001" flag="0"/>
      <psa03 value="0.0075866820" flag="0"/>
      <psa10 value="0.0029589258" flag="0"/>
      <psa30 value="0.0002511249" flag="0"/>
    </comp>
    <comp name="--.HHN">
      <acc value="0.0026168537" flag="0"/>
      <vel value="0.0014195355" flag="0"/>
      <psa03 value="0.0055479247" flag="0"/>
      <psa10 value="0.0025208177" flag="0"/>
      <psa30 value="0.0001351777" flag="0"/>
    </comp>
    <comp name="--.HHZ">
      <acc value="0.0021746875" flag="0"/>
      <vel value="0.0015300193" flag="0"/>
      <psa03 value="0.0045854539" flag="0"/>
      <psa10 value="0.0018597306" flag="0"/>
      <psa30 value="0.0001065879" flag="0"/>
    </comp>
  </station>
</stationlist>
