<?xml version="1.0" encoding="UTF-8" standalone="yes"?>
<!DOCTYPE earthquake SYSTEM "stationlist.dtd">
<stationlist created="" xmlns="ch.ethz.sed.shakemap.usgs.xml">
  <station code="ARG2" name="ARG2" netid="HI" source="NOA" insttype="CMG-5TD,ACCELEROMETER,GURALP" lat="38.1783" lon="20.4878">
    <comp name="--.HNE">
      <acc value="0.1320592585" flag="0"/>
      <vel value="0.0376642582" flag="0"/>
      <psa03 value="0.2491678698" flag="0"/>
      <psa10 value="0.0252792620" flag="0"/>
      <psa30 value="0.0017882374" flag="0"/>
    </comp>
    <comp name="--.HNN">
      <acc value="0.1082392973" flag="0"/>
      <vel value="0.0359496763" flag="0"/>
      <psa03 value="0.1247486216" flag="0"/>
      <psa10 value="0.0255585325" flag="0"/>
      <psa30 value="0.0011417724" flag="0"/>
    </comp>
    <comp name="--.HNZ">
      <acc value="0.1017516221" flag="0"/>
      <vel value="0.0232989259" flag="0"/>
      <psa03 value="0.1572357929" flag="0"/>
      <psa10 value="0.0090502974" flag="0"/>
      <psa30 value="0.0009229116" flag="0"/>
    </comp>
  </station>
  <station code="KRI1" name="KRI1" netid="HI" source="NOA" insttype="CMG-5TD,ACCELEROMETER,GURALP" lat="37.6621" lon="20.8172">
    <comp name="--.HNE">
      <acc value="0.2037404132" flag="0"/>
      <vel value="0.0729360998" flag="0"/>
      <psa03 value="0.3245508196" flag="0"/>
      <psa10 value="0.0782989576" flag="0"/>
      <psa30 value="0.0038952156" flag="0"/>
    </comp>
    <comp name="--.HNN">
      <acc value="0.3122707968" flag="0"/>
      <vel value="0.1695202704" flag="0"/>
      <psa03 value="0.5466664571" flag="0"/>
      <psa10 value="0.1762923336" flag="0"/>
      <psa30 value="0.0128022647" flag="0"/>
    </comp>
    <comp name="--.HNZ">
      <acc value="0.1446510776" flag="0"/>
      <vel value="0.0598169470" flag="0"/>
      <psa03 value="0.2526062124" flag="0"/>
      <psa10 value="0.0336694681" flag="0"/>
      <psa30 value="0.0032106566" flag="0"/>
    </comp>
  </station>
  <station code="VLS" name="VLS" netid="HL" source="NOA" insttype="120P," lat="38.1768" lon="20.5886">
    <comp name="--.HHE">
      <acc value="0.3544250395" flag="0"/>
      <vel value="0.0451867310" flag="0"/>
      <psa03 value="0.3167386123" flag="0"/>
      <psa10 value="0.0229031235" flag="0"/>
      <psa30 value="0.0017182948" flag="0"/>
    </comp>
    <comp name="--.HHN">
      <acc value="0.1616062640" flag="0"/>
      <vel value="0.0340927231" flag="0"/>
      <psa03 value="0.1285830215" flag="0"/>
      <psa10 value="0.0124336292" flag="0"/>
      <psa30 value="0.0008065343" flag="0"/>
    </comp>
    <comp name="--.HHZ">
      <acc value="0.0919897703" flag="0"/>
      <vel value="0.0259628849" flag="0"/>
      <psa03 value="0.1038985081" flag="0"/>
      <psa10 value="0.0078753967" flag="0"/>
      <psa30 value="0.0006808024" flag="0"/>
    </comp>
  </station>
  <station code="LTHK" name="LTHK" netid="HP" source="NOA" insttype="40," lat="37.7095" lon="20.8367">
    <comp name="--.HHE">
      <acc value="0.5776377487" flag="0"/>
      <vel value="0.1086945879" flag="0"/>
      <psa03 value="0.4596746109" flag="0"/>
      <psa10 value="0.0403724123" flag="0"/>
      <psa30 value="0.0039106707" flag="0"/>
    </comp>
    <comp name="--.HHN">
      <acc value="0.4997985378" flag="0"/>
      <vel value="0.1049152023" flag="0"/>
      <psa03 value="0.5556514914" flag="0"/>
      <psa10 value="0.0695836763" flag="0"/>
      <psa30 value="0.0069854160" flag="0"/>
    </comp>
    <comp name="--.HHZ">
      <acc value="0.3356906083" flag="0"/>
      <vel value="0.0853316916" flag="0"/>
      <psa03 value="0.3317453078" flag="0"/>
      <psa10 value="0.0237254470" flag="0"/>
      <psa30 value="0.0036335543" flag="0"/>
    </comp>
  </station>
  <station code="DMLN" name="DMLN" netid="HT" source="NOA" insttype="1s-100Hz," lat="38.2385" lon="20.3734">
    <comp name="--.HHE">
      <acc value="0.1505911127" flag="0"/>
      <vel value="0.0301238022" flag="0"/>
      <psa03 value="0.1494339727" flag="0"/>
      <psa10 value="0.0211896867" flag="0"/>
      <psa30 value="0.0013497366" flag="0"/>
    </comp>
    <comp name="--.HHN">
      <acc value="0.2072457416" flag="0"/>
      <vel value="0.0401300897" flag="0"/>
      <psa03 value="0.2867859694" flag="0"/>
      <psa10 value="0.0247642621" flag="0"/>
      <psa30 value="0.0018230102" flag="0"/>
    </comp>
    <comp name="--.HHZ">
      <acc value="0.1338598746" flag="0"/>
      <vel value="0.0220748456" flag="0"/>
      <psa03 value="0.1209548842" flag="0"/>
      <psa10 value="0.0110202116" flag="0"/>
      <psa30 value="0.0006351097" flag="0"/>
    </comp>
  </station>
  <station code="EVGI" name="EVGI" netid="HT" source="NOA" insttype="30" lat="38.621" lon="20.656">
    <comp name="--.HHE">
      <acc value="0.0701579697" flag="0"/>
      <vel value="0.0156533921" flag="0"/>
      <psa03 value="0.0499569997" flag="0"/>
      <psa10 value="0.0135574773" flag="0"/>
      <psa30 value="0.0008307317" flag="0"/>
    </comp>
    <comp name="--.HHN">
      <acc value="nan" flag="0"/>
      <vel value="-100.0000000000" flag="0"/>
      <psa03 value="0.0000000000" flag="0"/>
      <psa10 value="0.0000000000" flag="0"/>
      <psa30 value="0.0000000000" flag="0"/>
    </comp>
    <comp name="--.HHZ">
      <acc value="0.0496052170" flag="0"/>
      <vel value="0.0089331450" flag="0"/>
      <psa03 value="0.0348678322" flag="0"/>
      <psa10 value="0.0062343461" flag="0"/>
      <psa30 value="0.0004454808" flag="0"/>
    </comp>
  </station>
  <station code="NYDR" name="NYDR" netid="HT" source="NOA" insttype="1s-100Hz," lat="38.7135" lon="20.6983">
    <comp name="--.HHE">
      <acc value="0.0156217495" flag="0"/>
      <vel value="0.0056376478" flag="0"/>
      <psa03 value="0.0171826393" flag="0"/>
      <psa10 value="0.0106633570" flag="0"/>
      <psa30 value="0.0006586819" flag="0"/>
    </comp>
    <comp name="--.HHN">
      <acc value="0.0187622453" flag="0"/>
      <vel value="0.0056962547" flag="0"/>
      <psa03 value="0.0300583056" flag="0"/>
      <psa10 value="0.0108954971" flag="0"/>
      <psa30 value="0.0004835755" flag="0"/>
    </comp>
    <comp name="--.HHZ">
      <acc value="0.0068223639" flag="0"/>
      <vel value="0.0043605257" flag="0"/>
      <psa03 value="0.0118484829" flag="0"/>
      <psa10 value="0.0060879733" flag="0"/>
      <psa30 value="0.0003483106" flag="0"/>
    </comp>
  </station>
  <station code="PSDA" name="PSDA" netid="HT" source="NOA" insttype="30" lat="38.114" lon="20.5841">
    <comp name="--.HHE">
      <acc value="0.2170137409" flag="0"/>
      <vel value="0.0525051116" flag="0"/>
      <psa03 value="0.2211999403" flag="0"/>
      <psa10 value="0.0559416288" flag="0"/>
      <psa30 value="0.0030280360" flag="0"/>
    </comp>
    <comp name="--.HHN">
      <acc value="0.2299839559" flag="0"/>
      <vel value="0.0441169686" flag="0"/>
      <psa03 value="0.1551672771" flag="0"/>
      <psa10 value="0.0222614018" flag="0"/>
      <psa30 value="0.0015296704" flag="0"/>
    </comp>
    <comp name="--.HHZ">
      <acc value="0.2311860095" flag="0"/>
      <vel value="0.0452635129" flag="0"/>
      <psa03 value="0.1298950629" flag="0"/>
      <psa10 value="0.0161009208" flag="0"/>
      <psa30 value="0.0007239587" flag="0"/>
    </comp>
  </station>
</stationlist>
