<stationlist xmlns:esm="https://esm-db.eu/esmws/shakemap/1/" created="1781229278">
	<station code="ARG2" name="ARG2" netid="HI" source="ITSAK Strong Motion Network" insttype="" lat="38.1783" lon="20.4878" esm:processing="manual (Paolucci et al 2011)" esm:quality="best">
		<comp name="--.HNE" depth="0.0">
			<acc value="0.129274808397468" flag="0"/>
			<vel value="0.0379954443271741" flag="0"/>
			<psa03 value="0.258520469840374" flag="0"/>
			<psa10 value="0.0253084291736254" flag="0"/>
			<psa30 value="0.00182369234176076" flag="0"/>
		</comp>
		<comp name="--.HNN" depth="0.0">
			<acc value="0.109940145283052" flag="0"/>
			<vel value="0.0367838261037717" flag="0"/>
			<psa03 value="0.125725600597344" flag="0"/>
			<psa10 value="0.0256345998598726" flag="0"/>
			<psa30 value="0.00118522105331802" flag="0"/>
		</comp>
		<comp name="--.HNZ" depth="0.0">
			<acc value="0.100291626830139" flag="0"/>
			<vel value="0.0238071997126691" flag="0"/>
			<psa03 value="0.160669263966214" flag="0"/>
			<psa10 value="0.00904418964581745" flag="0"/>
			<psa30 value="0.000990592454528536" flag="0"/>
		</comp>
	</station>
	<station code="KRI1" name="KRI1" netid="HI" source="ITSAK Strong Motion Network" insttype="" lat="37.6621" lon="20.8172" esm:processing="manual (Paolucci et al 2011)" esm:quality="best">
		<comp name="--.HNE" depth="0.0">
			<acc value="0.202336161056382" flag="0"/>
			<vel value="0.0732271417505001" flag="0"/>
			<psa03 value="0.317222244923547" flag="0"/>
			<psa10 value="0.0783534470740499" flag="0"/>
			<psa30 value="0.00403798414729903" flag="0"/>
		</comp>
		<comp name="--.HNN" depth="0.0">
			<acc value="0.313592733250283" flag="0"/>
			<vel value="0.172705799260487" flag="0"/>
			<psa03 value="0.548539453140012" flag="0"/>
			<psa10 value="0.176289215718719" flag="0"/>
			<psa30 value="0.0126003002278377" flag="0"/>
		</comp>
		<comp name="--.HNZ" depth="0.0">
			<acc value="0.137360059756783" flag="0"/>
			<vel value="0.060549279142828" flag="0"/>
			<psa03 value="0.251182747954978" flag="0"/>
			<psa10 value="0.0337566526272875" flag="0"/>
			<psa30 value="0.00337087784662059" flag="0"/>
		</comp>
	</station>
	<station code="MSL1" name="MSL1" netid="HI" source="ITSAK Strong Motion Network" insttype="" lat="38.3727" lon="21.4243" esm:processing="manual (Paolucci et al 2011)" esm:quality="best">
		<comp name="--.HNE" depth="0.0">
			<acc value="0.027170193677124" flag="0"/>
			<vel value="0.0193483408324792" flag="0"/>
			<psa03 value="0.0740036097466215" flag="0"/>
			<psa10 value="0.037352583773198" flag="0"/>
			<psa30 value="0.00209930433452931" flag="0"/>
		</comp>
		<comp name="--.HNN" depth="0.0">
			<acc value="0.0265389872783633" flag="0"/>
			<vel value="0.0214134745939735" flag="0"/>
			<psa03 value="0.0968668773285584" flag="0"/>
			<psa10 value="0.0334747767255924" flag="0"/>
			<psa30 value="0.00196686740293923" flag="0"/>
		</comp>
		<comp name="--.HNZ" depth="0.0">
			<acc value="0.0125111592777539" flag="0"/>
			<vel value="0.00715160806614875" flag="0"/>
			<psa03 value="0.0351226321953433" flag="0"/>
			<psa10 value="0.0142750010215596" flag="0"/>
			<psa30 value="0.000663974346215153" flag="0"/>
		</comp>
	</station>
	<station code="PATC" name="PATC" netid="HL" source="National Observatory of Athens Seismic Network" insttype="" lat="38.26933" lon="21.76001" esm:processing="manual (Paolucci et al 2011)" esm:quality="best">
		<comp name="00.HNE" depth="0.0">
			<acc value="0.0158077584910578" flag="0"/>
			<vel value="0.0112305914186741" flag="0"/>
			<psa03 value="0.0611178542405592" flag="0"/>
			<psa10 value="0.0182494512354607" flag="0"/>
			<psa30 value="0.00205098275138158" flag="0"/>
		</comp>
		<comp name="00.HNN" depth="0.0">
			<acc value="0.0138988643205518" flag="0"/>
			<vel value="0.0123084212044079" flag="0"/>
			<psa03 value="0.0325275842114836" flag="0"/>
			<psa10 value="0.0152132450943448" flag="0"/>
			<psa30 value="0.00156060816684532" flag="0"/>
		</comp>
		<comp name="00.HNZ" depth="0.0">
			<acc value="0.0097864296809229" flag="0"/>
			<vel value="0.00608757860985389" flag="0"/>
			<psa03 value="0.0222816188958993" flag="0"/>
			<psa10 value="0.012140797765868" flag="0"/>
			<psa30 value="0.000705584598370145" flag="0"/>
		</comp>
	</station>
	<station code="PATG" name="PATG" netid="HL" source="National Observatory of Athens Seismic Network" insttype="" lat="38.23865" lon="21.72657" esm:processing="manual (Paolucci et al 2011)" esm:quality="best">
		<comp name="00.HNE" depth="0.0">
			<acc value="0.0185354459075487" flag="0"/>
			<vel value="0.0113085910527709" flag="0"/>
			<psa03 value="0.0516325064374856" flag="0"/>
			<psa10 value="0.0167917501438374" flag="0"/>
			<psa30 value="0.00229348551125261" flag="0"/>
		</comp>
		<comp name="00.HNN" depth="0.0">
			<acc value="0.0247920936069609" flag="0"/>
			<vel value="0.0134012425424195" flag="0"/>
			<psa03 value="0.0480531299080239" flag="0"/>
			<psa10 value="0.0191756149124589" flag="0"/>
			<psa30 value="0.00289482076820218" flag="0"/>
		</comp>
		<comp name="00.HNZ" depth="0.0">
			<acc value="0.0104676706008769" flag="0"/>
			<vel value="0.00563206592730679" flag="0"/>
			<psa03 value="0.0214315169701522" flag="0"/>
			<psa10 value="0.00843614305787514" flag="0"/>
			<psa30 value="0.00125501889564252" flag="0"/>
		</comp>
	</station>
	<station code="SMHA" name="SMHA" netid="HL" source="National Observatory of Athens Seismic Network" insttype="" lat="38.25123" lon="20.6477" esm:processing="manual (Paolucci et al 2011)" esm:quality="bad">
		<comp name="00.HNE" depth="0.0">
			<acc value="0.209187520926283" flag="0"/>
			<vel value="0.0801578862220324" flag="0"/>
			<psa03 value="0.346695362699405" flag="0"/>
			<psa10 value="0.0505733414858256" flag="0"/>
			<psa30 value="0.00366127420811564" flag="0"/>
		</comp>
		<comp name="00.HNN" depth="0.0">
			<acc value="0.202832480964316" flag="0"/>
			<vel value="0.0686860778556387" flag="0"/>
			<psa03 value="0.315053349904899" flag="0"/>
			<psa10 value="0.034295110632756" flag="0"/>
			<psa30 value="0.00180705783371287" flag="0"/>
		</comp>
		<comp name="00.HNZ" depth="0.0">
			<acc value="0.180121254742383" flag="0"/>
			<vel value="0.0408070986999705" flag="0"/>
			<psa03 value="0.227168007099076" flag="0"/>
			<psa10 value="0.0167472725495954" flag="0"/>
			<psa30 value="0.00116553804450754" flag="0"/>
		</comp>
	</station>
	<station code="ZARA" name="ZARA" netid="HL" source="National Observatory of Athens Seismic Network" insttype="" lat="37.4865" lon="21.6491" esm:processing="manual (Paolucci et al 2011)" esm:quality="best">
		<comp name="00.HNE" depth="0.0">
			<acc value="0.0419268415917478" flag="0"/>
			<vel value="0.0212117559734318" flag="0"/>
			<psa03 value="0.0703917464409727" flag="0"/>
			<psa10 value="0.0159408585036559" flag="0"/>
			<psa30 value="0.00181424372641" flag="0"/>
		</comp>
		<comp name="00.HNN" depth="0.0">
			<acc value="0.0314070417370534" flag="0"/>
			<vel value="0.0180687682385217" flag="0"/>
			<psa03 value="0.0789293328475452" flag="0"/>
			<psa10 value="0.0191052731305962" flag="0"/>
			<psa30 value="0.00107936556517087" flag="0"/>
		</comp>
		<comp name="00.HNZ" depth="0.0">
			<acc value="0.0201606248338656" flag="0"/>
			<vel value="0.00717344509650162" flag="0"/>
			<psa03 value="0.0343741651405752" flag="0"/>
			<psa10 value="0.006563102585827" flag="0"/>
			<psa30 value="0.000591460014654351" flag="0"/>
		</comp>
	</station>
	<station code="ANX" name="ANX" netid="HP" source="University of Patras, Seismological Laboratory (PSLNET)" insttype="" lat="38.5933" lon="21.9209" esm:processing="manual (Paolucci et al 2011)" esm:quality="good">
		<comp name="--.HNE" depth="0.0">
			<acc value="0.00823346370151664" flag="0"/>
			<vel value="0.00749517663862731" flag="0"/>
			<psa03 value="0.025105350606267" flag="0"/>
			<psa10 value="0.00705090771303193" flag="0"/>
			<psa30 value="0.000593725060538076" flag="0"/>
		</comp>
		<comp name="--.HNN" depth="0.0">
			<acc value="0.0125134840242714" flag="0"/>
			<vel value="0.0120399097624659" flag="0"/>
			<psa03 value="0.0311493186978241" flag="0"/>
			<psa10 value="0.0119222666666552" flag="0"/>
			<psa30 value="0.00115893125267442" flag="0"/>
		</comp>
		<comp name="--.HNZ" depth="0.0">
			<acc value="0.00472981371543443" flag="0"/>
			<vel value="0.00406838297147161" flag="0"/>
			<psa03 value="0.0110238500676314" flag="0"/>
			<psa10 value="0.00653035307259175" flag="0"/>
			<psa30 value="0.000210418991308825" flag="0"/>
		</comp>
	</station>
	<station code="FSK" name="FSK" netid="HP" source="University of Patras, Seismological Laboratory (PSLNET)" insttype="" lat="38.4593" lon="20.5623" esm:processing="manual (Paolucci et al 2011)" esm:quality="good">
		<comp name="--.HNE" depth="0.0">
			<acc value="0.165031325217054" flag="0"/>
			<vel value="0.0413400286491026" flag="0"/>
			<psa03 value="0.12514928010894" flag="0"/>
			<psa10 value="0.0199388989792023" flag="0"/>
			<psa30 value="0.00177722398236667" flag="0"/>
		</comp>
		<comp name="--.HNN" depth="0.0">
			<acc value="0.0585962846007731" flag="0"/>
			<vel value="0.0233722849822839" flag="0"/>
			<psa03 value="0.108571140221867" flag="0"/>
			<psa10 value="0.0182032765027313" flag="0"/>
			<psa30 value="0.000667489217884817" flag="0"/>
		</comp>
		<comp name="--.HNZ" depth="0.0">
			<acc value="0.0714211677745363" flag="0"/>
			<vel value="0.0180976431874907" flag="0"/>
			<psa03 value="0.0632271103607588" flag="0"/>
			<psa10 value="0.0128994145229051" flag="0"/>
			<psa30 value="0.000715836899848136" flag="0"/>
		</comp>
	</station>
</stationlist>
