<?xml version="1.0" encoding="UTF-8" standalone="yes"?>
<!DOCTYPE earthquake SYSTEM "stationlist.dtd">
<stationlist created="" xmlns="ch.ethz.sed.shakemap.usgs.xml">
  <station code="SKR" name="SKR" netid="VI" insttype="LE-3D/5s" lat="64.5601" lon="-18.3865">
    <comp name="--.HHE">
      <acc value="0.0167703330" flag="0"/>
      <vel value="0.0281045677" flag="0"/>
      <psa03 value="0.0408464153" flag="0"/>
      <psa10 value="0.0474351954" flag="0"/>
      <psa30 value="0.0168000002" flag="0"/>
    </comp>
    <comp name="--.HHZ">
      <acc value="0.0292064547" flag="0"/>
      <vel value="0.0268425425" flag="0"/>
      <psa03 value="0.0992873333" flag="0"/>
      <psa10 value="0.0473111500" flag="0"/>
      <psa30 value="0.0162139565" flag="0"/>
    </comp>
    <comp name="--.HHN">
      <acc value="0.0224439181" flag="0"/>
      <vel value="0.0433604010" flag="0"/>
      <psa03 value="0.0453646525" flag="0"/>
      <psa10 value="0.0434683805" flag="0"/>
      <psa30 value="0.0312036741" flag="0"/>
    </comp>
  </station>
</stationlist>
